0192172050999992000010100004+38480+042300FM-12+166599999V0209999C000012200019N0300001N1-00121-00231999999ADDAA106000091GA1001+999999999GF100991001001999999001001MA1999999083701MD1610101+9999ME1315439REMSYN070AAXX  01004 17205 32980 00000 11012 21023 38370 48543 56010 333 10243;EQDQ01  00002PRCP06
0241172050999992000010106004+38480+042300FM-12+166599999V0209999C000012200019N0300001N1-00141-00201999999ADDAA106000091GA1001+999999999GF100991001001999999001001IA1149IA2999-00409KA1120N-00301MA1999999083601MD1410001+9999ME1315329REMSYN088AAXX  01064 17205 32980 00000 11014 21020 38360 48532 54000 333 21030 34104 55008 92418;EQDQ01  00002PRCP06
0192172050999992000010112004+38480+042300FM-12+166599999V0209999C000012200019N0300001N1+00561+00051999999ADDAA106000091GA1001+999999999GF100991001001999999001001MA1999999083501MD1610101+9999ME1315199REMSYN070AAXX  01124 17205 32980 00000 10056 20005 38350 48519 56010 333 10219;EQDQ01  00002PRCP06
0211172050999992000010118004+38480+042300FM-12+166599999V0209999C000012200019N0300001N1+00081-00051999999ADDAA106000091GA1001+999999999GF100991001001999999001001KA1120M+00701MA1999999083501MD1410001+9999ME1315239REMSYN076AAXX  01184 17205 32980 00000 10008 21005 38350 48523 54000 333 10070 92418;EQDQ01  00002PRCP06
0192172050999992000010200004+38480+042300FM-12+166599999V0209999C000012200019N0300001N1-00101-00161999999ADDAA106000091GA1001+999999999GF100991001001999999001001MA1999999083501MD1710061+9999ME1315249REMSYN070AAXX  02004 17205 32980 00000 11010 21016 38350 48524 57006 333 10219;EQDQ01  00002PRCP06
0303172050999992000010206004+38480+042300FM-12+166599999V0209999C000010105019N0080001N1-00101-00121999999ADDAA106000091AY101061AY201061GA1051+010509069GA2071+027009039GF107991051051012501071001IA1129IA2999-00409KA1120N-00301MA1999999083581MD1110081+9999ME1315339MW1101REMSYN112AAXX  02064 17205 31658 70000 11010 21012 38358 48533 51008 71000 85570 333 21030 33104 55006 85635 87359 92416;EQDQ01  00002PRCP06
0254172050999992000010212004+38480+042300FM-12+166599999V0209999C000010300019N0150001N1+00421-00011999999ADDAA106000091AY141061AY221061GA1041+012009069GA2061+030009039GF106991041051012501051001MA1999999083401MD1810181+9999ME1315119MW1011REMSYN094AAXX  02124 17205 31665 60000 10042 21001 38340 48511 58018 70142 84550 333 84640 86360 92417;EQDQ01  00002PRCP06
0295172050999992000010218004+38480+042300FM-12+166599999V0209999C000010300019N0040001N1+00101+00011999999ADDAA106000091AY121061AY221061GA1021+003609079GA2041+010509069GA3061+030009039GF106991041061004501071001KA1120M+00541MA1999999083401MD1410001+9999ME1315129MW1101REMSYN106AAXX  02184 17205 31440 60000 10010 20001 38340 48512 54000 71022 84670 333 10054 82712 84635 86360 92415;EQDQ01  00002PRCP06
0276172050999992000010300004+38480+042300FM-12+166599999V0209999C000010090019N0004001N1+00121+00061999999ADDAA106000091AY141061AY241061GA1021+003009079GA2051+009009069GA3081+024009049GF108991061061004501021999MA1999999083301MD1710101+9999ME1315029MW1441REMSYN100AAXX  03004 17205 31404 80000 10012 20006 38330 48502 57010 74444 8662/ 333 82710 85630 88458 92412;EQDQ01  00002PRCP06
0275172050999992000010306004+38480+042300FM-12+166599999V0209999C000010105019N0250001N1+00121+00061999999ADDAA106000091GA1051+010509069GA2081+027009049GF108991051051012501021999IA1019IA2999-00209KA1120N-00101MA1999999083201MD1410001+9999ME1314929REMSYN106AAXX  03064 17205 32675 80000 10012 20006 38320 48492 54000 8552/ 333 21010 30102 55000 85635 88459 92417;EQDQ01  00002PRCP06
0226172050999992000010312004+38480+042300FM-12+166599999V0202701N001510270019N0250001N1+00441-00421999999ADDAA106000091GA1041+012009069GA2061+027009039GF106991041051012501051001MA1999999083101MD1810101+9999ME1314819REMSYN088AAXX  03124 17205 32675 62703 10044 21042 38310 48481 58010 84550 333 84640 86359 92417;EQDQ01  00002PRCP06
0245172050999992000010318004+38480+042300FM-12+166599999V0202001N001010105019N0250001N1+00441-00421999999ADDAA106000091GA1051+010509069GA2081+027009049GF108991051051012501021999KA1120M+00601MA1999999082901MD1710101+9999ME1314629REMSYN094AAXX  03184 17205 32675 82002 10044 21042 38290 48462 57010 8552/ 333 10060 85635 88459 92417;EQDQ01  00002PRCP06
0241172050999992000010400004+38480+042300FM-12+166599999V0202001N001010105019N0100001N1+00281+00061999999ADDAA106005191AY161061AY261061GA1051+010509069GA2081+027009049GF108991051051012501021999MA1999999082801MD1410001+9999ME1314639MW1601REMSYN100AAXX  04004 17205 11660 82002 10028 20006 38280 48463 54000 60051 76066 8552/ 333 85635 88459 92416;
0348172050999992000010406004+38480+042300FM-12+166599999V0209999C000010105019N0080001N1+00081+00011999999ADDAA112017091AJ100029199999999AL10600291AY171061AY221061GA1051+010509069GA2081+024009049GF108991051051012501021999IA1239IA2999+00009KA1120N+00041MA1999999082701MD1410001+9999ME1314459MW1701UA1M999999019REMSYN136AAXX  04064 17205 11658 80000 10008 20001 38270 48445 54000 60172 77072 8552/ 333 20004 3/000 47002 55000 70170 85635 88458 92416 93102;
0270172050999992000010412004+38480+042300FM-12+166599999V0200201N001010105019N0080001N1+00341+00041999999ADDAA106005191AL10600091AY161061AY261061GA1051+010509069GA2081+024009049GF108991051051012501021999MA1999999082401MD1610201+9999ME1314129MW1601UA1M999999019REMSYN106AAXX  04124 17205 11658 80202 10034 20004 38240 48412 56020 60051 76066 8552/ 333 85635 88458 92416 93100;
0241172050999992000010418004+38480+042300FM-12+166599999V0209999C000010105019N0080001N1+00101+00011999999ADDAA112009991AY161061AY261061GA1051+010509069GA2081+024009049GF108991051051012501021999MA1999999082401MD1410001+9999ME1314149MW1601REMSYN100AAXX  04184 17205 11658 80000 10010 20001 38240 48414 54000 60102 76066 8552/ 333 85635 88458 92416;
0241172050999992000010500004+38480+042300FM-12+166599999V0209999C000010105019N0080001N1+00101+00011999999ADDAA106002091AY161061AY261061GA1051+010509069GA2081+024009049GF108991051051012501021999MA1999999082401MD1410001+9999ME1314149MW1601REMSYN100AAXX  05004 17205 11658 80000 10010 20001 38240 48414 54000 60021 76066 8552/ 333 85635 88458 92416;
0348172050999992000010506004+38480+042300FM-12+166599999V0209999C000010090019N0080001N1+00061+00021999999ADDAA112007191AJ100029199999999AL10600291AY171061AY261061GA1051+009009069GA2071+027009039GF107991051051008001071001IA1289IA2999-00209KA1120N-00101MA1999999082501MD1310101+9999ME1314259MW1701UA1M999999019REMSYN136AAXX  05064 17205 11558 70000 10006 20002 38250 48425 53010 60072 77076 85570 333 21010 3/102 44002 55000 70165 85630 87359 92416 93102;
0270172050999992000010512004+38480+042300FM-12+166599999V0202501N001510105019N0200001N1+00201-00271999999ADDAA106000391AL10600091AY171061AY221061GA1051+010509069GA2071+027009039GF107991051051012501071001MA1999999082501MD1410001+9999ME1314259MW1021UA1M999999019REMSYN106AAXX  05124 17205 11670 72503 10020 21027 38250 48425 54000 69931 70272 85570 333 85635 87359 92418 93100;
0226172050999992000010612004+38480+042300FM-12+166599999V0202501N003110105019N0200001N1+00001-00481999999ADDAA106000091GA1051+010509069GA2081+024009049GF108991051051012501021999MA1999999082551MD1810051+9999ME1314369REMSYN088AAXX  06124 17205 32670 82506 10000 21048 38255 48436 58005 8552/ 333 85635 88458 92427;EQDQ01  00002PRCP06
0308172050999992000010706004+38480+042300FM-12+166599999V0209999C000012200019N0300001N1-00241-00731999999ADDAA106000091AJ199999999999999GA1051+012009069GF199999021051012501001001IA1219IA2999-00509KA1120N-00381MA1999999083201MD1210201+9999ME1314929REMSYN106AAXX  07064 17205 32680 20000 11024 21073 38320 48492 52020 82500 333 21038 3/105 45995 55000 85640 92418;EQDQ01+000022SCOTCVQ02  00002PRCP06Q03  09952SNDP  
0226172050999992000010712004+38480+042300FM-12+166599999V0202501N001010105019N0200001N1+00001-00561999999ADDAA106000091GA1051+010509069GA2071+027009039GF107991051051012501071001MA1999999083301MD1410001+9999ME1315039REMSYN088AAXX  07124 17205 32670 72502 10000 21056 38330 48503 54000 85570 333 85635 87359 92418;EQDQ01  00002PRCP06
0223172050999992000010718004+38480+042300FM-12+166599999V0209999C000012200019N0300001N1-00121-00821999999ADDAA106000091GA1041+012009069GF104991041051012501051001KA1120M+00161MA1999999083401MD1410001+9999ME1315149REMSYN088AAXX  07184 17205 32680 40000 11012 21082 38340 48514 54000 84550 333 10016 84640 92418;EQDQ01  00002PRCP06
0192172050999992000010800004+38480+042300FM-12+166599999V0209999C000012200019N0300001N1-00421-00671999999ADDAA106000091GA1001+999999999GF100991001001999999001001MA1999999083461MD1110061+9999ME1315259REMSYN070AAXX  08004 17205 32980 00000 11042 21067 38346 48525 51006 333 10245;EQDQ01  00002PRCP06
0275172050999992000010806004+38480+042300FM-12+166599999V0209999C000010300019N0300001N1-00201-00521999999ADDAA106000091GA1041+012009069GA2061+030009039GF106991041051012501051001IA1149IA2999-00609KA1120N-00501MA1999999083501MD1210101+9999ME1315249REMSYN106AAXX  08064 17205 32680 60000 11020 21052 38350 48524 52010 84550 333 21050 34106 55005 84640 86360 92418;EQDQ01  00002PRCP06
0226172050999992000010812004+38480+042300FM-12+166599999V0200701N001510300019N0300001N1+00101-00561999999ADDAA106000091GA1041+012009069GA2061+030009039GF106991041051012501051001MA1999999083401MD1610101+9999ME1315129REMSYN088AAXX  08124 17205 32680 60703 10010 21056 38340 48512 56010 84550 333 84640 86360 92418;EQDQ01  00002PRCP06
0223172050999992000010818004+38480+042300FM-12+166599999V0209999C000012200019N0300001N1-00101-00701999999ADDAA106000091GA1041+012009069GF104991041051012501001001KA1120M+00241MA1999999083401MD1410001+9999ME1315149REMSYN088AAXX  08184 17205 32680 40000 11010 21070 38340 48514 54000 84500 333 10024 84640 92418;EQDQ01  00002PRCP06
0226172050999992000010900004+38480+042300FM-12+166599999V0209999C000010120019N0300001N1-00101-00611999999ADDAA106000091GA1051+012009069GA2071+027009039GF107991051051012501071001MA1999999083401MD1610101+9999ME1315149REMSYN088AAXX  09004 17205 32680 70000 11010 21061 38340 48514 56010 85570 333 85640 87359 92418;EQDQ01  00002PRCP06
0204172050999992000010912004+38480+042300FM-12+166599999V0200701N001012200019N0300001N1+00001-00561999999ADDAA106000091GA1041+012009069GF104991041051012501001001MA1999999083301MD1410001+9999ME1315039REMSYN082AAXX  09124 17205 32680 40702 10000 21056 38330 48503 54000 84500 333 84640 92418;EQDQ01  00002PRCP06
0196172050999992000010915004+38480+042300FM-12+166599999V0209999C000010300019N0300001N1-00241-00731999999ADDGA1041+012009069GA2061+030009039GF106991041051012501051001MA1999999083301MD1410001+9999ME1315059REMSYN088AAXX  09154 17205 42680 60000 11024 21073 38330 48505 54000 84550 333 84640 86360 92418;
0211172050999992000010918004+38480+042300FM-12+166599999V0209999C000012200019N0300001N1-00241-00731999999ADDAA106000091GA1001+999999999GF100991001001999999001001KA1120M+00161MA1999999083301MD1410001+9999ME1315059REMSYN076AAXX  09184 17205 32980 00000 11024 21073 38330 48505 54000 333 10016 92418;EQDQ01  00002PRCP06
0174172050999992000010921004+38480+042300FM-12+166599999V0209999C000012200019N0300001N1-00361-00711999999ADDGA1021+012009069GF102991021051012501001001MA1999999083301MD1410001+9999ME1315059REMSYN082AAXX  09214 17205 42680 20000 11036 21071 38330 48505 54000 82500 333 82640 92418;
0226172050999992000011000004+38480+042300FM-12+166599999V0209999C000010300019N0300001N1-00301-00641999999ADDAA106000091GA1041+012009069GA2061+030009039GF106991041051012501051001MA1999999083301MD1410001+9999ME1315069REMSYN088AAXX  10004 17205 32680 60000 11030 21064 38330 48506 54000 84550 333 84640 86360 92418;EQDQ01  00002PRCP06
0196172050999992000011003004+38480+042300FM-12+166599999V0209999C000010120019N0300001N1-00301-00641999999ADDGA1051+012009069GA2081+030009049GF108991051051012501021999MA1999999083301MD1410001+9999ME1315069REMSYN088AAXX  10034 17205 42680 80000 11030 21064 38330 48506 54000 8552/ 333 85640 88460 92418;
0275172050999992000011006004+38480+042300FM-12+166599999V0209999C000010120019N0300001N1-00321-00661999999ADDAA106000091GA1051+012009069GA2081+030009049GF108991051051012501021999IA1019IA2999-00609KA1120N-00461MA1999999083301MD1410001+9999ME1315069REMSYN106AAXX  10064 17205 32680 80000 11032 21066 38330 48506 54000 8552/ 333 21046 30106 55004 85640 88460 92418;EQDQ01  00002PRCP06
0196172050999992000011009004+38480+042300FM-12+166599999V0209999C000010300019N0300001N1+00041-00571999999ADDGA1041+012009069GA2061+030009039GF106991041051012501051001MA1999999083301MD1410001+9999ME1315039REMSYN088AAXX  10094 17205 42680 60000 10004 21057 38330 48503 54000 84550 333 84640 86360 92418;
0174172050999992000011012004+38480+042300FM-12+166599999V0202901N001512200019N0300001N1+00001-00601999999ADDGA1041+012009069GF104991041051012501001001MA1999999083201MD1610101+9999ME1314949REMSYN082AAXX  10124 17205 42680 42903 10000 21060 38320 48494 56010 84500 333 84640 92418;
0174172050999992000011015004+38480+042300FM-12+166599999V0202701N001012200019N0300001N1-00341-00691999999ADDGA1021+012009069GF102991021051012501001001MA1999999083201MD1410001+9999ME1314969REMSYN082AAXX  10154 17205 42680 22702 11034 21069 38320 48496 54000 82500 333 82640 92418;
0211172050999992000011018004+38480+042300FM-12+166599999V0209999C000012200019N0300001N1-00441-00801999999ADDAA106000091GA1001+999999999GF100991001001999999001001KA1120M+00161MA1999999083201MD1410001+9999ME1314969REMSYN076AAXX  10184 17205 32980 00000 11044 21080 38320 48496 54000 333 10016 92418;EQDQ01  00002PRCP06
0162172050999992000011021004+38480+042300FM-12+166599999V0209999C000012200019N0300001N1-00441-00801999999ADDGA1001+999999999GF100991001001999999001001MA1999999083201MD1410001+9999ME1314969REMSYN070AAXX  10214 17205 42980 00000 11044 21080 38320 48496 54000 333 10213;
0192172050999992000011100004+38480+042300FM-12+166599999V0209999C000012200019N0300001N1-00481-00801999999ADDAA106000091GA1001+999999999GF100991001001999999001001MA1999999083201MD1410001+9999ME1314969REMSYN070AAXX  11004 17205 32980 00000 11048 21080 38320 48496 54000 333 10213;EQDQ01  00002PRCP06
0125172050999992000011103004+38480+042300FM-12+166599999V0202501N001519999999N0300001N1-00601-00871999999ADDGF106991999999012501999999REMSYN087AAXX  11034 17205 42680 62503 11060 21087 3830 48498 54000 84550 333 84640 86360 92418;
0275172050999992000011106004+38480+042300FM-12+166599999V0202701N001510105019N0300001N1-00601-00841999999ADDAA106000091GA1051+010509069GA2071+027009039GF107991051051012501071001IA1019IA2999-00809KA1120N-00761MA1999999083201MD1410001+9999ME1314979REMSYN106AAXX  11064 17205 32680 72703 11060 21084 38320 48497 54000 85570 333 21076 30108 55005 85635 87359 92418;EQDQ01  00002PRCP06
0196172050999992000011109004+38480+042300FM-12+166599999V0202701N002610105019N0150001N1-00401-00841999999ADDGA1051+010509069GA2071+027009039GF107991051051012501071001MA1999999083201MD1410001+9999ME1314979REMSYN088AAXX  11094 17205 42665 72705 11040 21084 38320 48497 54000 85570 333 85635 87359 92417;
0226172050999992000011112004+38480+042300FM-12+166599999V0202701N003110105019N0150001N1-00341-00831999999ADDAA106000091GA1051+010509069GA2071+027009039GF107991051051012501071001MA1999999083201MD1410001+9999ME1314969REMSYN088AAXX  11124 17205 32665 72706 11034 21083 38320 48496 54000 85570 333 85635 87359 92427;EQDQ01  00002PRCP06
0196172050999992000011115004+38480+042300FM-12+166599999V0202701N002610300019N0200001N1-00461-00841999999ADDGA1031+012009069GA2051+030009039GF105991031051012501051001MA1999999083201MD1410001+9999ME1314979REMSYN088AAXX  11154 17205 42670 52705 11046 21084 38320 48497 54000 83550 333 83640 85360 92418;
0211172050999992000011118004+38480+042300FM-12+166599999V0209999C000012200019N0250001N1-00541-00991999999ADDAA106000091GA1001+999999999GF100991001001999999001001KA1120M-00261MA1999999083301MD1110101+9999ME1315079REMSYN076AAXX  11184 17205 32975 00000 11054 21099 38330 48507 51010 333 11026 92417;EQDQ01  00002PRCP06
0162172050999992000011121004+38480+042300FM-12+166599999V0202701N002112200019N0250001N1-00601-01141999999ADDGA1001+999999999GF100991001001999999001001MA1999999083301MD1410001+9999ME1315079REMSYN070AAXX  11214 17205 42975 02704 11060 21114 38330 48507 54000 333 10250;
0192172050999992000011200004+38480+042300FM-12+166599999V0202701N001512200019N0250001N1-00601-01141999999ADDAA106000091GA1001+999999999GF100991001001999999001001MA1999999083301MD1410001+9999ME1315079REMSYN070AAXX  12004 17205 32975 02703 11060 21114 38330 48507 54000 333 10250;EQDQ01  00002PRCP06
0196172050999992000011203004+38480+042300FM-12+166599999V0202701N001510270019N0250001N1-00661-01171999999ADDGA1041+012009069GA2061+027009039GF106991041051012501051001MA1999999083301MD1410001+9999ME1315079REMSYN088AAXX  12034 17205 42675 62703 11066 21117 38330 48507 54000 84550 333 84640 86359 92417;
0245172050999992000011206004+38480+042300FM-12+166599999V0202701N001510300019N0250001N1-00601-01141999999ADDGA1041+012009069GA2061+030009039GF106991041051012501051001IA1149IA2999-00809KA1120N-00761MA1999999083301MD1410001+9999ME1315079REMSYN106AAXX  12064 17205 42675 62703 11060 21114 38330 48507 54000 84550 333 21076 34108 55003 84640 86360 92417;
0174172050999992000011209004+38480+042300FM-12+166599999V0202701N001512200019N0250001N1-00401+99999999999ADDGA1041+012009069GF104991041051012501001001MA1999999083301MD1410001+9999ME1425069REMSYN082AAXX  12094 17205 42675 42703 11040 21014 38330 47506 54000 84500 333 84640 92417;
0204172050999992000011212004+38480+042300FM-12+166599999V0202701N001512200019N0250001N1-00301-00941999999ADDAA106000091GA1041+012009069GF104991041051012501001001MA1999999083301MD1410001+9999ME1315069REMSYN082AAXX  12124 17205 32675 42703 11030 21094 38330 48506 54000 84500 333 84640 92417;EQDQ01  00002PRCP06
0196172050999992000011215004+38480+042300FM-12+166599999V0202701N001510270019N0250001N1-00441-00871999999ADDGA1041+012009069GA2061+027009039GF106991041051012501051001MA1999999083301MD1410001+9999ME1315069REMSYN088AAXX  12154 17205 42675 62703 11044 21087 38330 48506 54000 84550 333 84640 86359 92417;
0245172050999992000011218004+38480+042300FM-12+166599999V0202701N001510300019N0250001N1-00501-01081999999ADDAA106000091GA1031+012009069GA2051+030009039GF105991031051012501051001KA1120M-00201MA1999999083301MD1410001+9999ME1315079REMSYN094AAXX  12184 17205 32675 52703 11050 21108 38330 48507 54000 83550 333 11020 83640 85360 92417;EQDQ01  00002PRCP06
0196172050999992000011221004+38480+042300FM-12+166599999V0202701N001510300019N0250001N1-00501-01081999999ADDGA1031+012009069GA2051+030009039GF105991031051012501051001MA1999999083301MD1410001+9999ME1315079REMSYN088AAXX  12214 17205 42675 52703 11050 21108 38330 48507 54000 83550 333 83640 85360 92417;
0226172050999992000011300004+38480+042300FM-12+166599999V0202701N001510300019N0250001N1-00641-01131999999ADDAA106000091GA1031+012009069GA2051+030009039GF105991031051012501051001MA1999999083301MD1410001+9999ME1315089REMSYN088AAXX  13004 17205 32675 52703 11064 21113 38330 48508 54000 83550 333 83640 85360 92417;EQDQ01  00002PRCP06
0196172050999992000011303004+38480+042300FM-12+166599999V0202701N001510120019N0250001N1-00701-00991999999ADDGA1051+012009069GA2081+027009049GF108991051051012501021999MA1999999083301MD1410001+9999ME1315089REMSYN088AAXX  13034 17205 42675 82703 11070 21099 38330 48508 54000 8552/ 333 85640 88459 92417;
0196172050999992000011309004+38480+042300FM-12+166599999V0202701N001010105019N0150001N1-00501-00821999999ADDGA1051+010509069GA2071+027009039GF107991051051012501071001MA1999999083401MD1410001+9999ME1315169REMSYN088AAXX  13094 17205 42665 72702 11050 21082 38340 48516 54000 85570 333 85635 87359 92417;
0215172050999992000011315004+38480+042300FM-12+166599999V0202701N001510105019N0150001N1-00621-00901999999ADDGA1051+010509069GA2071+027009039GF199999051051012501071001MA1999999083401MD1410001+9999ME1315169REMSYN088AAXX  13154 17205 42665 62703 11062 21090 38340 48516 54000 85570 333 85635 87359 92417;EQDQ01+000062SCOTCV
0223172050999992000011318004+38480+042300FM-12+166599999V0202701N001012200019N0250001N1-00661-00941999999ADDAA106000091GA1041+012009069GF104991041051012501001001KA1120M-00401MA1999999083481MD1110081+9999ME1315269REMSYN088AAXX  13184 17205 32675 42702 11066 21094 38348 48526 51008 84500 333 11040 84640 92418;EQDQ01  00002PRCP06
0228172050999992000011321004+38480+042300FM-12+166599999V0202701N001010090019N0080001N1-00621-00831999999ADDAY171031AY221031GA1051+009009069GA2081+027009049GF108991051051008001021999MA1999999083501MD1110021+9999ME1315269MW1701REMSYN098    AAXX  13214 17205 41558 82702 11062 21083 38350 48526 51002 77072 8552/ 333 85630 88459 92415;
0274172050999992000011400004+38480+042300FM-12+166599999V0209999C000010090019N0080001N1-00681-00901999999ADDAA106000391AL10600391AY171061AY271061GA1051+009009069GA2081+027009049GF108991051051008001021999MA1999999083501MD1410001+9999ME1315269MW1701UA1M999999019REMSYN110    AAXX  14004 17205 11558 80000 11068 21090 38350 48526 54000 69931 77077 8552/ 333 85630 88459 92415 93103;
0228172050999992000011403004+38480+042300FM-12+166599999V0209999C000010090019N0080001N1-00721-00891999999ADDAY171031AY271031GA1051+009009069GA2081+027009049GF108991051051008001021999MA1999999083501MD1410001+9999ME1315279MW1701REMSYN098    AAXX  14034 17205 42558 80000 11072 21089 38350 48527 54000 77077 8552/ 333 85630 88459 92415;
0250172050999992000011409004+38480+042300FM-12+166599999V0202701N001010090019N0050001N1-00641-00891999999ADDAY171031AY271031GA1021+003009079GA2051+009009069GA3081+024009049GF108991061071004501021999MA1999999083501MD1410001+9999ME1315279MW1711REMSYN104    AAXX  14094 17205 41450 82702 11064 21089 38350 48527 54000 77177 8672/ 333 82710 85630 88458 92416;
0274172050999992000011412004+38480+042300FM-12+166599999V0202701N001010105019N0100001N1-00601-00911999999ADDAA106002091AL10600691AY171061AY271061GA1051+010509069GA2071+027009039GF107991051051012501071001MA1999999083401MD1210101+9999ME1315169MW1221UA1M999999019REMSYN110    AAXX  14124 17205 11660 72702 11060 21091 38340 48516 52010 60021 72277 85570 333 85635 87359 92416 93106;
0200172050999992000011415004+38480+042300FM-12+166599999V0209999C000010300019N0150001N1-00701-00981999999ADDGA1041+012009069GA2061+030009039GF106991041051012501051001MA1999999083401MD1410001+9999ME1315189REMSYN092    AAXX  14154 17205 42665 60000 11070 21098 38340 48518 54000 84550 333 84640 86360 92417;
0236172050999992000011418004+38480+042300FM-12+166599999V0209999C000010105019N0150001N1-00801-01011999999ADDAA112002091GA1051+010509069GA2081+027009049GF108991051051012501021999KA1120M-00441MA1999999083401MD1410001+9999ME1315189REMSYN104    AAXX  14184 17205 12665 80000 11080 21101 38340 48518 54000 60022 8552/ 333 11044 85635 88459 92416;
0250172050999992000011421004+38480+042300FM-12+166599999V0209999C000010090019N0030001N1-00701-00861999999ADDAY171031AY221031GA1021+003009079GA2051+009009069GA3081+024009049GF108991061071002501021999MA1999999083401MD1410001+9999ME1315189MW1701REMSYN104    AAXX  14214 17205 41330 80000 11070 21086 38340 48518 54000 77072 8672/ 333 82710 85630 88458 92414;
0296172050999992000011500004+38480+042300FM-12+166599999V0209999C000010090019N0020001N1-00701-00861999999ADDAA106004191AL10600791AY171061AY271061GA1021+003009079GA2051+009009069GA3081+024009049GF108991061071002501021999MA1999999083401MD1410001+9999ME1315189MW1711UA1M999999019REMSYN116    AAXX  15004 17205 11320 80000 11070 21086 38340 48518 54000 60041 77177 8672/ 333 82710 85630 88458 92414 93107;
0250172050999992000011503004+38480+042300FM-12+166599999V0209999C000010090019N0020001N1-00801-00911999999ADDAY171031AY271031GA1021+003009079GA2051+009009069GA3081+024009049GF108991061071002501021999MA1999999083301MD1710101+9999ME1315089MW1711REMSYN104    AAXX  15034 17205 41320 80000 11080 21091 38330 48508 57010 77177 8672/ 333 82710 85630 88458 92413;
0374172050999992000011506004+38480+042300FM-12+166599999V0202701N001510090019N0020001N1-00961-01131999999ADDAA112006191AJ100209199999999AL10600291AY171061AY271061GA1021+003009079GA2051+009009069GA3081+024009049GF108991061071004501021999IA1239IA2999-01109KA1120N-01001MA1999999083201MD1610101+9999ME1315009MW1701UA1M999999019REMSYN146    AAXX  15064 17205 11420 82703 11096 21113 38320 48500 56010 60062 77077 8672/ 333 21100 3/111 47020 55000 70084 82710 85630 88458 92414 93102;
0228172050999992000011509004+38480+042300FM-12+166599999V0202701N001510105019N0150001N1-00801-01181999999ADDAY171031AY271031GA1051+010509069GA2081+027009049GF108991051051012501021999MA1999999083101MD1710101+9999ME1314909MW1021REMSYN098    AAXX  15094 17205 41665 82703 11080 21118 38310 48490 57010 70277 8552/ 333 85635 88459 92416;
0274172050999992000011512004+38480+042300FM-12+166599999V0202701N002110105019N0150001N1-00701-01121999999ADDAA106001091AL10600391AY171061AY221061GA1051+010509069GA2081+027009049GF108991051051012501021999MA1999999083001MD1710101+9999ME1314809MW1021UA1M999999019REMSYN110    AAXX  15124 17205 11665 82704 11070 21112 38300 48480 57010 60011 70272 8552/ 333 85635 88459 92416 93103;
0200172050999992000011515004+38480+042300FM-12+166599999V0209999C000010300019N0200001N1-00901-01371999999ADDGA1041+012009069GA2061+030009039GF106991041051012501051001MA1999999082941MD1710061+9999ME1314729REMSYN092    AAXX  15154 17205 42670 60000 11090 21137 38294 48472 57006 84550 333 84640 86360 92417;
0214172050999992000011518004+38480+042300FM-12+166599999V0202501N001012200019N0200001N1-01001-01611999999ADDAA112001091GA1021+012009069GF102991021051012501001001KA1120M-00501MA1999999082941MD1410001+9999ME1314729REMSYN098    AAXX  15184 17205 12670 22502 11100 21161 38294 48472 54000 60012 82500 333 11050 82640 92417;
0178172050999992000011521004+38480+042300FM-12+166599999V0202701N001012200019N0200001N1-00901-01651999999ADDGA1041+012009069GF104991041051012501001001MA1999999082901MD1610041+9999ME1314729REMSYN086    AAXX  15214 17205 42670 42702 11090 21165 38290 48472 56004 84500 333 84640 92417;
0196172050999992000011600004+38480+042300FM-12+166599999V0209999C000012200019N0200001N1-01101-01871999999ADDAA199000091GA1001+999999999GF100991001001999999001001MA1999999082901MD1410001+9999ME1314749REMSYN074    AAXX  16004 17205 32970 00000 11110 21187 38290 48474 54000 333 10241;EQDQ01  00002PRCP99
0166172050999992000011603004+38480+042300FM-12+166599999V0209999C000012200019N0200001N1-01401-01861999999ADDGA1001+999999999GF100991001001999999001001MA1999999082901MD1410001+9999ME1314759REMSYN074    AAXX  16034 17205 42970 00000 11140 21186 38290 48475 54000 333 10258;
0267172050999992000011606004+38480+042300FM-12+166599999V0209999C000012200019N0300001N1-01001-01711999999ADDAA124001091AJ100179199999999GA1021+012009069GF102991021051012501001001IA1239IA2999-01709KA1120N-01501MA1999999083001MD1210101+9999ME1314829REMSYN116    AAXX  16064 17205 32680 20000 11100 21171 38300 48482 52010 82500 333 21150 3/117 47017 55000 70010 82640 92418;
0178172050999992000011609004+38480+042300FM-12+166599999V0202501N001012200019N0300001N1-00641-01741999999ADDGA1041+012009069GF104991041051012501001001MA1999999083001MD1410001+9999ME1314799REMSYN086    AAXX  16094 17205 42680 42502 11064 21174 38300 48479 54000 84500 333 84640 92418;
0208172050999992000011612004+38480+042300FM-12+166599999V0202501N001012200019N0300001N1-00541-01771999999ADDAA199000091GA1021+012009069GF102991021051012501001001MA1999999082901MD1610101+9999ME1314699REMSYN086    AAXX  16124 17205 32680 22502 11054 21177 38290 48469 56010 82500 333 82640 92418;EQDQ01  00002PRCP99
0178172050999992000011615004+38480+042300FM-12+166599999V0203401N001012200019N0300001N1-00841-01891999999ADDGA1021+012009069GF102991021051012501001001MA1999999083001MD1210101+9999ME1314809REMSYN086    AAXX  16154 17205 42680 23402 11084 21189 38300 48480 52010 82500 333 82640 92418;
0215172050999992000011618004+38480+042300FM-12+166599999V0200201N001012200019N0200001N1-00901-02011999999ADDAA199000091GA1001+999999999GF100991001001999999001001KA1120M-00401MA1999999083101MD1110101+9999ME1314919REMSYN080    AAXX  16184 17205 32970 00202 11090 21201 38310 48491 51010 333 11040 92417;EQDQ01  00002PRCP99
0166172050999992000011621004+38480+042300FM-12+166599999V0202501N001512200019N0200001N1-00841-01891999999ADDGA1001+999999999GF100991001001999999001001MA1999999083101MD1410001+9999ME1314909REMSYN074    AAXX  16214 17205 42970 02503 11084 21189 38310 48490 54000 333 10241;
0196172050999992000011700004+38480+042300FM-12+166599999V0209999C000012200019N0200001N1-01201-02241999999ADDAA199000091GA1001+999999999GF100991001001999999001001MA1999999083101MD1410001+9999ME1314929REMSYN074    AAXX  17004 17205 32970 00000 11120 21224 38310 48492 54000 333 10249;EQDQ01  00002PRCP99
0166172050999992000011703004+38480+042300FM-12+166599999V0209999C000012200019N0200001N1-01321-01861999999ADDGA1001+999999999GF100991001001999999001001MA1999999083001MD1610101+9999ME1314849REMSYN074    AAXX  17034 17205 42970 00000 11132 21186 38300 48484 56010 333 10262;
0166172050999992000011709004+38480+042300FM-12+166599999V0209999C000012200019N0300001N1-00621-01181999999ADDGA1001+999999999GF100991001001999999001001MA1999999082901MD1810101+9999ME1314709REMSYN074    AAXX  17094 17205 42980 00000 11062 21118 38290 48470 58010 333 10217;
0196172050999992000011712004+38480+042300FM-12+166599999V0202701N001012200019N0300001N1-00501-01291999999ADDAA199000091GA1001+999999999GF100991001001999999001001MA1999999082801MD1810101+9999ME1314619REMSYN074    AAXX  17124 17205 32980 02702 11050 21129 38280 48461 58010 333 10212;EQDQ01  00002PRCP99
0166172050999992000011715004+38480+042300FM-12+166599999V0202701N001512200019N0300001N1-00661-01621999999ADDGA1001+999999999GF100991001001999999001001MA1999999082701MD1710101+9999ME1314509REMSYN074    AAXX  17154 17205 42980 02703 11066 21162 38270 48450 57010 333 10216;
0215172050999992000011718004+38480+042300FM-12+166599999V0202701N001512200019N0300001N1-00781-01721999999ADDAA199000091GA1001+999999999GF100991001001999999001001KA1120M-00401MA1999999082701MD1410001+9999ME1314529REMSYN080    AAXX  17184 17205 32980 02703 11078 21172 38270 48452 54000 333 11040 92418;EQDQ01  00002PRCP99
0166172050999992000011721004+38480+042300FM-12+166599999V0202701N001512200019N0300001N1-00721-01671999999ADDGA1001+999999999GF100991001001999999001001MA1999999082701MD1410001+9999ME1314529REMSYN074    AAXX  17214 17205 42980 02703 11072 21167 38270 48452 54000 333 10192;
0196172050999992000011800004+38480+042300FM-12+166599999V0202701N003112200019N0300001N1-00901-01661999999ADDAA199000091GA1001+999999999GF100991001001999999001001MA1999999082601MD1710101+9999ME1314449REMSYN074    AAXX  18004 17205 32980 02706 11090 21166 38260 48444 57010 333 10180;EQDQ01  00002PRCP99
0166172050999992000011803004+38480+042300FM-12+166599999V0202701N002112200019N0300001N1-00901-01761999999ADDGA1001+999999999GF100991001001999999001001MA1999999082501MD1710101+9999ME1314359REMSYN074    AAXX  18034 17205 42980 02704 11090 21176 38250 48435 57010 333 10175;
0280172050999992000011806004+38480+042300FM-12+166599999V0202701N001512200019N0300001N1-00901-01761999999ADDAA199000091AJ100129199999999GA1031+012009069GF103991031051012501001001IA1239IA2999-01209KA1120N-01061MA1999999082501MD1410001+9999ME1314359REMSYN110    AAXX  18064 17205 32680 32703 11090 21176 38250 48435 54000 83500 333 21106 3/112 47012 55013 83640 92418;EQDQ01  00002PRCP99
0200172050999992000011809004+38480+042300FM-12+166599999V0202001N002610300019N0300001N1-00301-02321999999ADDGA1041+012009069GA2061+030009039GF106991041051012501051001MA1999999082401MD1710101+9999ME1314209REMSYN092    AAXX  18094 17205 42680 62005 11030 21232 38240 48420 57010 84550 333 84640 86360 92418;
0230172050999992000011812004+38480+042300FM-12+166599999V0202001N003110105019N0200001N1-00261-01931999999ADDAA199000091GA1051+010509069GA2081+027009049GF108991051051012501021999MA1999999082201MD1710201+9999ME1314019REMSYN092    AAXX  18124 17205 32670 82006 11026 21193 38220 48401 57020 8552/ 333 85635 88459 92427;EQDQ01  00002PRCP99
0250172050999992000011815004+38480+042300FM-12+166599999V0201601N00311004501CN0030001N1-00401-01441999999ADDAY171031AY221031GA1021+002409079GA2031+004509079GA3051+009909039GF108991061071002501021999MA1999999082101MD1710101+9999ME1313919MW1701REMSYN104    AAXX  18154 17205 41330 81606 11040 21144 38210 48391 57010 77072 8672/ 333 82708 85333 83715 85630;
0293172050999992000011818004+38480+042300FM-12+166599999V0202001N004110105019N0100001N1-00241-01291999999ADDAA112000591AL10600291AY171061AY221061GA1051+010509069GA2081+024009049GF108991051051012501021999KA1120M-00201MA1999999082101MD1410001+9999ME1313899MW1221UA1M999999029REMSYN116    AAXX  18184 17205 11660 82008 11024 21129 38210 48389 54000 69962 72272 8552/ 333 11020 85635 88458 92425 93102;
0250172050999992000011821004+38480+042300FM-12+166599999V0202001N002110075019N0010001N1-00461-00821999999ADDAY121031AY221031GA1021+002409079GA2051+007509069GA3081+021009049GF108991061071002501021999MA1999999082001MD1610101+9999ME1313819MW1701REMSYN104    AAXX  18214 17205 41310 82004 11046 21082 38200 48381 56010 77022 8672/ 333 82708 85625 88457 92424;
0296172050999992000011900004+38480+042300FM-12+166599999V0201601N002610075019N0010001N1-00401-00591999999ADDAA106002091AL10600491AY171061AY271061GA1021+002409079GA2051+007509069GA3081+021009049GF108991061071002501021999MA1999999081701MD1710301+9999ME1313529MW1701UA1M999999029REMSYN116    AAXX  19004 17205 11310 81605 11040 21059 38170 48352 57030 60021 77077 8672/ 333 82708 85625 88457 92423 93104;
0250172050999992000011903004+38480+042300FM-12+166599999V0201601N002610075019N0010001N1-00401-00591999999ADDAY171031AY271031GA1021+002409079GA2051+007509069GA3081+021009049GF108991061071002501021999MA1999999081601MD1710101+9999ME1313439MW1701REMSYN104    AAXX  19034 17205 41310 81605 11040 21059 38160 48343 57010 77077 8672/ 333 82708 85625 88457 92423;
0342172050999992000011906004+38480+042300FM-12+166599999V0201601N00101002101CN0010001N1-00301-00441999999ADDAA112007191AJ100309199999999AL10601091AY171061AY271061GA1061+999999079GF108991061071002501021999IA1239IA2999-00809KA1120N-00701MA1999999081501MD1610101+9999ME1313339MW1701UA1M999999029REMSYN146    AAXX  19064 17205 11310 81602 11030 21044 38150 48333 56010 60072 77077 8672/ 333 21070 3/108 47030 55002 70078 82708 85625 88457 92423 93110;
0250172050999992000011909004+38480+042300FM-12+166599999V0202001N001510075019N0010001N1-00261-00421999999ADDAY171031AY271031GA1021+002409079GA2051+007509069GA3081+021009049GF108991061071002501021999MA1999999081501MD1410001+9999ME1313319MW1711REMSYN104    AAXX  19094 17205 41310 82003 11026 21042 38150 48331 54000 77177 8672/ 333 82708 85625 88457 92423;
0302172050999992000011912004+38480+042300FM-12+166599999V0202001N003110075019N0010001N1-00301-00611999999ADDAA106007191AL19901591AY171061AY271061GA1021+002409079GA2051+007509069GA3081+021009049GF108991061071002501021999MA1999999081801MD1210301+9999ME1313629MW1711UA1M999999029REMSYN122    AAXX  19124 17205 11310 82006 11030 21061 38180 48362 52030 60071 77177 8672/ 333 82708 85625 88457 92423 93115 96039;
0279172050999992000011915004+38480+042300FM-12+166599999V0202001N002112200019N0200001N1-00321-01111999999ADDAY171031AY271031GA1021+012009069GA2081+027009049GF199999021051012501051001MA1999999082401MD1410001+9999ME1314209MW1221REMSYN098    AAXX  19154 17205 41670 42004 11032 21111 38240 48420 52060 72277 82550 333 82640 88459 92417;EQDQ01+000042SCOTCVQ02+000022APCTENQ03+000602APC3  
0267172050999992000011918004+38480+042300FM-12+166599999V0202501N001512200019N0200001N1-00581-01061999999ADDAA112007191AL10600391AY171061AY271061GA1021+012009069GF102991021051012501001001KA1120M-00201MA1999999082401MD1410001+9999ME1314229MW1011UA1M999999019REMSYN106AAXX  19184 17205 11670 22503 11058 21106 38240 48422 54000 60072 70177 82500 333 11020 82640 92417 93103;
0174172050999992000011921004+38480+042300FM-12+166599999V0202001N004112200019N0200001N1-00401-01301999999ADDGA1021+012009069GF102991021051012501001001MA1999999082601MD1210201+9999ME1314399REMSYN082AAXX  19214 17205 42670 22008 11040 21130 38260 48439 52020 82500 333 82640 92417;
0185172050999992000012000004+38480+042300FM-12+166599999V0201601N004112200019N0200001N1-00301-01221999999ADDAA199000021GA1041+012009069GF104991041051012501001001MA1999999082301MD1710301+9999ME1314109REMSYN082AAXX  20004 17205 32670 41608 11030 21122 38230 48410 57030 84500 333 84640 92417;
0246172050999992000012003004+38480+042300FM-12+166599999V0201601N004610075019N0010001N1-00401-00541999999ADDAY171031AY221031GA1021+002409079GA2051+007509069GA3081+021009049GF108991061071002501021999MA1999999082101MD1610201+9999ME1313919MW1701REMSYN100AAXX  20034 17205 41310 81609 11040 21054 38210 48391 56020 77072 8672/ 333 82708 85625 88457 92424;
0376172050999992000012006004+38480+042300FM-12+166599999V0201601N004610075019N0010001N1-00381-00471999999ADDAA112002091AJ100359199999999AL19900591AY171061AY271061GA1021+002409079GA2051+007509069GA3081+021009049GF108991061071002501021999IA1239IA2999-00709KA1120N-00561MA1999999082001MD1610101+9999ME1314179MW1701UA1M999999029REMSYN148AAXX  20064 17205 11310 81609 11038 21047 38200 48417 56010 60022 77077 8672/ 333 21056 3/107 47035 55000 70096 82708 85625 88457 92424 93105 96039;
0265172050999992000012009004+38480+042300FM-12+166599999V0201601N006210090019N0010001N1-00341-00421999999ADDAY171031AY231031GA1021+002409079GA2051+009009069GA3081+024009049GF108991061071002501021999MA1999999081801MD1810201+9999ME1313639MW1711UA1M999999029REMSYN106AAXX  20094 17205 41310 81612 11034 21042 38180 48363 58020 77173 8672/ 333 82708 85630 88458 92424 96037;
0315172050999992000012012004+38480+042300FM-12+166599999V0201601N005110090019N0010001N1-00141-00211999999ADDAA106004191AL19901591AY171061AY231061GA1021+002409079GA2051+009009069GA3081+024009049GF108991061071002501021999MA1999999081701MD1810101+9999ME1313519MW1711OA149901031UA1M999999029REMSYN124AAXX  20124 17205 11310 81610 11014 21021 38170 48351 58010 60041 77173 8672/ 333 82708 85630 88458 91120 92424 93115 96037;
0246172050999992000012015004+38480+042300FM-12+166599999V0202001N003110090019N0020001N1-00141-00211999999ADDAY171031AY231031GA1021+003009079GA2051+009009069GA3081+024009049GF108991061071004501021999MA1999999081601MD1710101+9999ME1313409MW1711REMSYN100AAXX  20154 17205 41420 82006 11014 21021 38160 48340 57010 77173 8672/ 333 82710 85630 88458 92424;
0317172050999992000012018004+38480+042300FM-12+166599999V0202001N004610075019N0010001N1-00081-00201999999ADDAA112008991AL19902091AY171061AY231061GA1021+002409079GA2051+007509069GA3081+021009049GF108991061071002501021999KA1120M+00001MA1999999081501MD1710101+9999ME1313319MW1711UA1M999999039REMSYN124AAXX  20184 17205 11310 82009 11008 21020 38150 48331 57010 60092 77173 8672/ 333 10000 82708 85625 88457 92433 93120 96037;
0265172050999992000012021004+38480+042300FM-12+166599999V0202001N005110075019N0010001N1-00201-00421999999ADDAY171031AY231031GA1021+002409079GA2051+007509069GA3081+024009049GF108991061071002501021999MA1999999081501MD1410001+9999ME1313319MW1711UA1M999999039REMSYN106AAXX  20214 17205 41310 82010 11020 21042 38150 48331 54000 77173 8672/ 333 82708 85625 88458 92433 96037;
0266172050999992000012100004+38480+042300FM-12+166599999V0202501N00511002101CN0010001N1-00461-00831999999ADDAA106004191AL19902091AY171061AY231061GA1061+999999079GF108991061071002501021999MA1999999081501MD1410001+9999ME1313339MW1711UA1M999999039REMSYN118AAXX  21004 17205 11310 82510 11046 21083 38150 48333 54000 60041 77173 8672/ 333 82708 85625 88458 92433 93120 96037;
0265172050999992000012103004+38480+042300FM-12+166599999V0202501N005110075019N0010001N1-00701-00861999999ADDAY171031AY231031GA1021+002409079GA2051+007509069GA3081+024009049GF108991061071002501021999MA1999999081601MD1210101+9999ME1313489MW1711UA1M999999039REMSYN106AAXX  21034 17205 41310 82510 11070 21086 38160 48348 52010 77173 8672/ 333 82708 85625 88458 92433 96037;
0376172050999992000012106004+38480+042300FM-12+166599999V0202501N005110075019N0010001N1-00801-00941999999ADDAA112007191AJ100709199999999AL19901591AY171061AY231061GA1021+002409079GA2051+007509069GA3081+024009049GF108991061071002501021999IA1239IA2999-01109KA1120N-00901MA1999999081901MD1210301+9999ME1313769MW1711UA1M999999039REMSYN148AAXX  21064 17205 11310 82510 11080 21094 38190 48376 52030 60072 77173 8672/ 333 21090 3/111 47070 55000 70158 82708 85625 88458 92433 93115 96037;
0224172050999992000012109004+38480+042300FM-12+166599999V0202501N002110300019N0100001N1-00801-00941999999ADDAY171031AY231031GA1041+012009069GA2061+030009039GF106991041051012501051001MA1999999082201MD1210301+9999ME1314059MW1271REMSYN094AAXX  21094 17205 41660 62504 11080 21094 38220 48405 52030 72773 84550 333 84640 86360 92426;
0248172050999992000012112004+38480+042300FM-12+166599999V0202701N002612200019N0200001N1-00821-01201999999ADDAA106001091AL10600591AY171061AY231061GA1031+012009069GF103991031051012501001001MA1999999082201MD1410001+9999ME1314059MW1021UA1M999999029REMSYN100AAXX  21124 17205 11670 32705 11082 21120 38220 48405 54000 60011 70273 83500 333 83640 92427 93105;
0162172050999992000012115004+38480+042300FM-12+166599999V0202701N001512200019N0250001N1-01061-01601999999ADDGA1001+999999999GF100991001001999999001001MA1999999082401MD1210201+9999ME1314269REMSYN070AAXX  21154 17205 42975 02703 11106 21160 38240 48426 52020 333 10171;
0198172050999992000012118004+38480+042300FM-12+166599999V0209999C000012200019N0250001N1-01201-01601999999ADDAA112001091GA1001+999999999GF100991001001999999001001KA1120M-00041MA1999999082501MD1210101+9999ME1314379REMSYN082AAXX  21184 17205 12975 00000 11120 21160 38250 48437 52010 60012 333 11004 92417;
0174172050999992000012121004+38480+042300FM-12+166599999V0201301N001012200019N0250001N1-00901-01511999999ADDGA1031+012009069GF103991031051012501001001MA1999999082601MD1210101+9999ME1314449REMSYN082AAXX  21214 17205 42675 31302 11090 21151 38260 48444 52010 83500 333 83640 92417;
0226172050999992000012200004+38480+042300FM-12+166599999V0202001N001510300019N0250001N1-00801-01361999999ADDAA199000091GA1041+012009069GA2061+030009039GF106991041051012501051001MA1999999082601MD1410001+9999ME1314439REMSYN088AAXX  22004 17205 32675 62003 11080 21136 38260 48443 54000 84550 333 84640 86360 92417;EQDQ01  00002PRCP99
0125172050999992000012203004+38480+042300FM-12+166599999V0202001N002619999999N0250001N1-00801+99999999999ADDGF106991999999012501999999REMSYN087AAXX  22034 17205 42675 62005 11080 2113 38260 48443 54000 84550 333 84640 86360 92427;
0263172050999992000012206004+38480+042300FM-12+166599999V0202201N002112200019N0250001N1-00801-01491999999ADDAA124001091AJ100679199999999GA1041+012009069GF104991041051012501001001IA1239IA2999-01509KA1120N-01341MA1999999082701MD1210101+9999ME1314529REMSYN112AAXX  22064 17205 32675 42204 11080 21149 38270 48452 52010 84500 333 21134 3/115 47067 55000 70010 84640 92417;
0196172050999992000012209004+38480+042300FM-12+166599999V0202001N002110300019N0200001N1-00561-01301999999ADDGA1041+012009069GA2061+030009039GF106991041051012501051001MA1999999082701MD1410001+9999ME1314509REMSYN088AAXX  22094 17205 42670 62004 11056 21130 38270 48450 54000 84550 333 84640 86360 92417;
0226172050999992000012212004+38480+042300FM-12+166599999V0202201N002610300019N0200001N1-00601-01281999999ADDAA199000091GA1041+012009069GA2061+030009039GF106991041051012501051001MA1999999082701MD1410001+9999ME1314509REMSYN088AAXX  22124 17205 32670 62205 11060 21128 38270 48450 54000 84550 333 84640 86360 92417;EQDQ01  00002PRCP99
0196172050999992000012215004+38480+042300FM-12+166599999V0202001N002110300019N0200001N1-00701-01231999999ADDGA1041+012009069GA2061+030009039GF106991041051012501051001MA1999999082701MD1410001+9999ME1314529REMSYN088AAXX  22154 17205 42670 62004 11070 21123 38270 48452 54000 84550 333 84640 86360 92417;
0245172050999992000012218004+38480+042300FM-12+166599999V0201601N005110300019N0150001N1-00661-01061999999ADDAA199000091GA1041+012009069GA2061+030009039GF106991041051012501051001KA1120M-00401MA1999999082601MD1710101+9999ME1314419REMSYN094AAXX  22184 17205 32665 61610 11066 21106 38260 48441 57010 84550 333 11040 84640 86360 92436;EQDQ01  00002PRCP99
0196172050999992000012221004+38480+042300FM-12+166599999V0202201N003610105019N0150001N1-00461-00951999999ADDGA1051+010509069GA2071+027009039GF107991051051012501071001MA1999999082601MD1410001+9999ME1314399REMSYN088AAXX  22214 17205 42665 72207 11046 21095 38260 48439 54000 85570 333 85635 87359 92433;
0292172050999992000012300004+38480+042300FM-12+166599999V0202501N003110075019N0010001N1-00541-00861999999ADDAA106000591AL10600291AY171061AY221061GA1021+002409079GA2051+007509069GA3081+021009049GF108991061071002501021999MA1999999082701MD1110101+9999ME1314509MW1701UA1M999999029REMSYN112AAXX  23004 17205 11310 82506 11054 21086 38270 48450 51010 69951 77072 8672/ 333 82708 85625 88457 92423 93102;
0246172050999992000012303004+38480+042300FM-12+166599999V0202501N002610075019N0010001N1-00541-00861999999ADDAY171031AY271031GA1021+002409079GA2051+007509069GA3081+021009049GF108991061071002501021999MA1999999082701MD1410001+9999ME1314509MW1701REMSYN100AAXX  23034 17205 41310 82505 11054 21086 38270 48450 54000 77077 8672/ 333 82708 85625 88457 92423;
0341172050999992000012306004+38480+042300FM-12+166599999V0200701N001010090019N0020001N1-00461-00861999999ADDAA112002091AJ100709199999999AY171061AY271061GA1021+003009079GA2051+009009069GA3081+024009049GF108991061071004501021999IA1239IA2999-00909KA1120N-00801MA1999999082701MD1410001+9999ME1314509MW1701REMSYN136AAXX  23064 17205 11420 80702 11046 21086 38270 48450 54000 60022 77077 8672/ 333 21080 3/109 47070 55008 70020 82710 85630 88458 92424;
0224172050999992000012309004+38480+042300FM-12+166599999V0202001N002110090019N0050001N1-00241-00831999999ADDAY171031AY271031GA1051+009009069GA2081+024009049GF108991051051008001021999MA1999999082801MD1110101+9999ME1314579MW1701REMSYN094AAXX  23094 17205 41550 82004 11024 21083 38280 48457 51010 77077 8552/ 333 85630 88458 92426;
0270172050999992000012312004+38480+042300FM-12+166599999V0202701N003610090019N0060001N1-00101-00721999999ADDAA106001091AL10600391AY171061AY271061GA1051+009009069GA2081+024009049GF108991051051008001021999MA1999999082801MD1410001+9999ME1314579MW1701UA1M999999029REMSYN106AAXX  23124 17205 11556 82707 11010 21072 38280 48457 54000 60011 77077 8552/ 333 85630 88458 92426 93103;
0243172050999992000012315004+38480+042300FM-12+166599999V0202501N004610090019N0060001N1-00301-00661999999ADDAY171031AY271031GA1051+009009069GA2081+024009049GF199999051051008001021999MA1999999083001MD1210201+9999ME1314779MW1701REMSYN094AAXX  23154 17205 41556 62509 11030 21066 38300 48477 52020 77077 8552/ 333 85630 88458 92426;EQDQ01+000062SCOTCV
0289172050999992000012318004+38480+042300FM-12+166599999V0202001N001510270019N0100001N1-00261-00761999999ADDAA112003091AL10600591AY171061AY271061GA1041+012009069GA2061+027009039GF106991041051012501051001KA1120M-00061MA1999999083201MD1210201+9999ME1314959MW1221UA1M999999019REMSYN112AAXX  23184 17205 11660 62003 11026 21076 38320 48495 52020 60032 72277 84550 333 11006 84640 86359 92417 93105;
0196172050999992000012321004+38480+042300FM-12+166599999V0202001N003110270019N0100001N1-00261-00651999999ADDGA1041+012009069GA2061+027009039GF106991041051012501051001MA1999999083401MD1210201+9999ME1315149REMSYN088AAXX  23214 17205 42660 62006 11026 21065 38340 48514 52020 84550 333 84640 86359 92427;
0207172050999992000012400004+38480+042300FM-12+166599999V0202701N003110270019N0100001N1-00341-00631999999ADDAA199000021GA1041+012009069GA2061+027009039GF106991041051012501051001MA1999999083501MD1210101+9999ME1315249REMSYN088AAXX  24004 17205 32660 62706 11034 21063 38350 48524 52010 84550 333 84640 86359 92427;
0196172050999992000012403004+38480+042300FM-12+166599999V0202701N003110270019N0100001N1-00441-00751999999ADDGA1041+012009069GA2061+027009039GF106991041051012501051001MA1999999083501MD1410001+9999ME1315259REMSYN088AAXX  24034 17205 42660 62706 11044 21075 38350 48525 54000 84550 333 84640 86359 92427;
0285172050999992000012406004+38480+042300FM-12+166599999V0202701N001510300019N0200001N1-00341-00741999999ADDAA124002891AJ100709199999999GA1041+012009069GA2061+030009039GF106991041051012501051001IA1239IA2999-00709KA1120N-00541MA1999999083701MD1210201+9999ME1315449REMSYN118AAXX  24064 17205 32670 62703 11034 21074 38370 48544 52020 84550 333 21054 3/107 47070 55000 70028 84640 86360 92417;
0174172050999992000012409004+38480+042300FM-12+166599999V0202701N001512200019N0200001N1-00081-01041999999ADDGA1031+012009069GF103991031051012501001001MA1999999083601MD1610101+9999ME1315339REMSYN082AAXX  24094 17205 42670 32703 11008 21104 38360 48533 56010 83500 333 83640 92417;
0226172050999992000012412004+38480+042300FM-12+166599999V0202701N001510120019N0200001N1-00061-00651999999ADDAA199000091GA1051+012009069GA2081+030009049GF108991051051012501021999MA1999999083601MD1410001+9999ME1315329REMSYN088AAXX  24124 17205 32670 82703 11006 21065 38360 48532 54000 8552/ 333 85640 88460 92417;EQDQ01  00002PRCP99
0196172050999992000012415004+38480+042300FM-12+166599999V0202701N001510120019N0200001N1-00141-00731999999ADDGA1051+012009069GA2081+027009049GF108991051051012501021999MA1999999083601MD1410001+9999ME1315339REMSYN088AAXX  24154 17205 42670 82703 11014 21073 38360 48533 54000 8552/ 333 85640 88459 92417;
0245172050999992000012418004+38480+042300FM-12+166599999V0201601N001510120019N0200001N1-00101-00511999999ADDAA199000091GA1051+012009069GA2081+027009049GF108991051051012501021999KA1120M+00041MA1999999083501MD1610101+9999ME1315249REMSYN094AAXX  24184 17205 32670 81603 11010 21051 38350 48524 56010 8552/ 333 10004 85640 88459 92417;EQDQ01  00002PRCP99
0196172050999992000012421004+38480+042300FM-12+166599999V0209999C000010120019N0200001N1-00101-00511999999ADDGA1051+012009069GA2081+027009049GF108991051051012501021999MA1999999083501MD1410001+9999ME1315249REMSYN088AAXX  24214 17205 42670 80000 11010 21051 38350 48524 54000 8552/ 333 85640 88459 92417;
0292172050999992000012500004+38480+042300FM-12+166599999V0209999C000010075019N0020001N1-00101-00311999999ADDAA106000891AL10600291AY121061AY221061GA1021+003009079GA2051+007509069GA3081+024009049GF108991061071004501021999MA1999999083401MD1610101+9999ME1315149MW1701UA1M999999019REMSYN112AAXX  25004 17205 11420 80000 11010 21031 38340 48514 56010 69971 77022 8672/ 333 82710 85625 88458 92414 93102;
0224172050999992000012503004+38480+042300FM-12+166599999V0209999C000010105019N0150001N1-00161-00581999999ADDAY171031AY221031GA1051+010509069GA2081+024009049GF108991051051012501021999MA1999999083301MD1710101+9999ME1315059MW1221REMSYN094AAXX  25034 17205 41665 80000 11016 21058 38330 48505 57010 72272 8552/ 333 85635 88458 92416;
0348172050999992000012506004+38480+042300FM-12+166599999V0201601N001510105019N0200001N1-00021-00521999999ADDAA112004191AJ100709199999999AL10600491AY171061AY221061GA1051+010509069GA2081+024009049GF108991051051012501021999IA1239IA2999-00409KA1120N-00301MA1999999083201MD1610101+9999ME1314949MW1021UA1M999999019REMSYN136AAXX  25064 17205 11670 81603 11002 21052 38320 48494 56010 60042 70272 8552/ 333 21030 3/104 47070 55010 70040 85635 88458 92417 93104;
0224172050999992000012509004+38480+042300FM-12+166599999V0201601N002110105019N0050001N1+00081-00471999999ADDAY171031AY271031GA1051+010509069GA2081+024009049GF108991051051012501021999MA1999999083141MD1610061+9999ME1314849MW1701REMSYN094AAXX  25094 17205 41650 81604 10008 21047 38314 48484 56006 77077 8552/ 333 85635 88458 92416;
0270172050999992000012512004+38480+042300FM-12+166599999V0202001N002110105019N0050001N1+00061-00501999999ADDAA106000891AL10600491AY171061AY271061GA1051+010509069GA2081+024009049GF108991051051012501021999MA1999999083001MD1710141+9999ME1314749MW1701UA1M999999019REMSYN106AAXX  25124 17205 11650 82004 10006 21050 38300 48474 57014 69981 77077 8552/ 333 85635 88458 92416 93104;
0246172050999992000012515004+38480+042300FM-12+166599999V0202701N001010090019N0030001N1-00061-00321999999ADDAY171031AY271031GA1021+003009079GA2051+009009069GA3081+024009049GF108991061071004501021999MA1999999082901MD1610101+9999ME1314669MW1701REMSYN100AAXX  25154 17205 41430 82702 11006 21032 38290 48466 56010 77077 8672/ 333 82710 85630 88458 92416;
0311172050999992000012518004+38480+042300FM-12+166599999V0209999C000010090019N0030001N1-00021-00271999999ADDAA112004191AL10600691AY171061AY271061GA1021+003009079GA2051+009009069GA3081+024009049GF108991061071004501021999KA1120M+00161MA1999999082901MD1410001+9999ME1314659MW1701UA1M999999019REMSYN118AAXX  25184 17205 11430 80000 11002 21027 38290 48465 54000 60042 77077 8672/ 333 10016 82710 85630 88458 92415 93106;
0246172050999992000012521004+38480+042300FM-12+166599999V0209999C000010090019N0030001N1+00001-00341999999ADDAY171031AY271031GA1021+003009079GA2051+009009069GA3081+024009049GF108991061071004501021999MA1999999082801MD1710101+9999ME1314559MW1701REMSYN100AAXX  25214 17205 41430 80000 10000 21034 38280 48455 57010 77077 8672/ 333 82710 85630 88458 92415;
0292172050999992000012600004+38480+042300FM-12+166599999V0201601N004110090019N0030001N1-00021-00321999999ADDAA106001091AL10600391AY171061AY271061GA1021+003009079GA2051+009009069GA3081+024009049GF108991061071004501021999MA1999999082251MD1610301+9999ME1314269MW1701UA1M999999029REMSYN112AAXX  26004 17205 11430 81608 11002 21032 38225 48426 56030 60011 77077 8672/ 333 82710 85630 88458 92424 93103;
0246172050999992000012603004+38480+042300FM-12+166599999V0201601N002610090019N0030001N1+00001-00231999999ADDAY171031AY271031GA1021+003009079GA2051+009009069GA3081+024009049GF108991061071004501021999MA1999999082401MD1710101+9999ME1314169MW1701REMSYN100AAXX  26034 17205 41430 81605 10000 21023 38240 48416 57010 77077 8672/ 333 82710 85630 88458 92415;
0370172050999992000012606004+38480+042300FM-12+166599999V0202001N003110090019N0030001N1+00001-00371999999ADDAA112006191AJ100709199999999AL10601091AY171061AY271061GA1021+003009079GA2051+009009069GA3081+024009049GF108991061071004501021999IA1239IA2999-00309KA1120N-00201MA1999999082301MD1610101+9999ME1314129MW1701UA1M999999029REMSYN142AAXX  26064 17205 11430 82006 10000 21037 38230 48412 56010 60062 77077 8672/ 333 21020 3/103 47070 55000 70097 82710 85630 88458 92423 93110;
0292172050999992000012609004+38480+042300FM-12+166599999V0202001N003110090019N0010001N1-00101-00701999999ADDAA106002091AL10600591AY171031AY271031GA1021+003009079GA2051+009009069GA3081+024009049GF108991061071004501021999MA1999999082301MD1410001+9999ME1314089MW1701UA1M999999029REMSYN112AAXX  26094 17205 11410 82006 11010 21070 38230 48408 54000 60021 77077 8672/ 333 82710 85630 88458 92424 93105;
0292172050999992000012612004+38480+042300FM-12+166599999V0202001N003110090019N0010001N1-00101-00701999999ADDAA106002091AL10600591AY171061AY271061GA1021+003009079GA2051+009009069GA3081+024009049GF108991061071004501021999MA1999999082301MD1410001+9999ME1314089MW1701UA1M999999029REMSYN112AAXX  26124 17205 11410 82006 11010 21070 38230 48408 54000 60021 77077 8672/ 333 82710 85630 88458 92424 93105;
0265172050999992000012615004+38480+042300FM-12+166599999V0202001N003110090019N0010001N1-00141-00601999999ADDAY171031AY271031GA1021+003009079GA2051+009009069GA3081+024009049GF108991061071004501021999MA1999999082301MD1410001+9999ME1314089MW1701UA1M999999029REMSYN106AAXX  26154 17205 41410 82006 11014 21060 38230 48408 54000 77077 8672/ 333 82710 85630 88458 92424 96037;
0317172050999992000012618004+38480+042300FM-12+166599999V0202001N004610090019N0010001N1-00241-00561999999ADDAA112004191AL19900691AY171061AY271061GA1021+003009079GA2051+009009069GA3081+024009049GF108991061071004501021999KA1120M+00141MA1999999082301MD1410001+9999ME1314089MW1701UA1M999999039REMSYN124AAXX  26184 17205 11410 82009 11024 21056 38230 48408 54000 60042 77077 8672/ 333 10014 82710 85630 88458 92434 93106 96037;
0265172050999992000012621004+38480+042300FM-12+166599999V0202001N004610090019N0005001N1-00241-00561999999ADDAY171031AY271031GA1021+003009079GA2051+009009069GA3081+024009049GF108991061071004501021999MA1999999082301MD1410001+9999ME1314089MW1701UA1M999999049REMSYN106AAXX  26214 17205 41405 82009 11024 21056 38230 48408 54000 77077 8672/ 333 82710 85630 88458 92441 96037;
0298172050999992000012700004+38480+042300FM-12+166599999V0202501N004610090019N0010001N1-00401-00641999999ADDAA106002091AL19900891AY171061AY231061GA1021+003009079GA2051+009009069GA3081+024009049GF108991061071004501021999MA1999999082301MD1410001+9999ME1314019MW1701UA1M999999049REMSYN118AAXX  27004 17205 11410 82509 11040 21064 38230 48401 54000 60021 77073 8672/ 333 82710 85630 88458 92441 93108 96037;
0265172050999992000012703004+38480+042300FM-12+166599999V0202001N003110090019N0010001N1-00461-00831999999ADDAY171031AY231031GA1021+003009079GA2051+009009069GA3081+024009049GF108991061071004501021999MA1999999082301MD1410001+9999ME1314019MW1701UA1M999999049REMSYN106AAXX  27034 17205 41410 82006 11046 21083 38230 48401 54000 77073 8672/ 333 82710 85630 88458 92441 96037;
0370172050999992000012706004+38480+042300FM-12+166599999V0202001N002610090019N0010001N1-00401-00641999999ADDAA112007191AJ100829199999999AL10600791AY171061AY231061GA1021+003009079GA2051+009009069GA3081+024009049GF108991061071004501021999IA1239IA2999-00709KA1120N-00561MA1999999082301MD1410001+9999ME1314019MW1701UA1M999999029REMSYN142AAXX  27064 17205 11410 82005 11040 21064 38230 48401 54000 60072 77073 8672/ 333 21056 3/107 47082 55003 70109 82710 85630 88458 92423 93107;
0224172050999992000012709004+38480+042300FM-12+166599999V0202501N002610300019N0200001N1-00301-01001999999ADDAY171031AY271031GA1041+012009069GA2061+030009039GF106991041051012501051001MA1999999082401MD1210101+9999ME1314209MW1221REMSYN094AAXX  27094 17205 41670 62505 11030 21100 38240 48420 52010 72277 84550 333 84640 86360 92427;
0270172050999992000012712004+38480+042300FM-12+166599999V0202001N001510300019N0200001N1-00201-00991999999ADDAA106001091AL10600491AY171061AY221061GA1041+012009069GA2061+030009039GF106991041051012501051001MA1999999082301MD1810101+9999ME1314089MW1021UA1M999999019REMSYN106AAXX  27124 17205 11670 62003 11020 21099 38230 48408 58010 60011 70272 84550 333 84640 86360 92417 93104;
0232172050999992000012718004+38480+042300FM-12+166599999V0202701N001510300019N0200001N1-00401-00951999999ADDAA112001091GA1041+012009069GA2061+030009039GF106991041051012501051001KA1120M-00101MA1999999082501MD1310101+9999ME1314309REMSYN100AAXX  27184 17205 12670 62703 11040 21095 38250 48430 53010 60012 84550 333 11010 84640 86360 92417;
0196172050999992000012721004+38480+042300FM-12+166599999V0202701N001510300019N0200001N1-00461-00831999999ADDGA1041+012009069GA2061+030009039GF106991041051012501051001MA1999999082501MD1410001+9999ME1314309REMSYN088AAXX  27214 17205 42670 62703 11046 21083 38250 48430 54000 84550 333 84640 86360 92417;
0226172050999992000012800004+38480+042300FM-12+166599999V0209999C000010105019N0200001N1-00501-00811999999ADDAA199000091GA1051+010509069GA2081+024009049GF108991051051012501021999MA1999999082501MD1410001+9999ME1314319REMSYN088AAXX  28004 17205 32670 80000 11050 21081 38250 48431 54000 8552/ 333 85635 88458 92417;EQDQ01  00002PRCP99
0224172050999992000012803004+38480+042300FM-12+166599999V0202701N001510090019N0030001N1-00601-00781999999ADDAY121031AY221031GA1051+009009069GA2081+024009049GF108991051051008001021999MA1999999082501MD1410001+9999ME1314319MW1701REMSYN094AAXX  28034 17205 41530 82703 11060 21078 38250 48431 54000 77022 8552/ 333 85630 88458 92413;
0348172050999992000012806004+38480+042300FM-12+166599999V0209999C000010090019N0030001N1-00561-00821999999ADDAA112004191AJ100829199999999AL10600791AY171061AY271061GA1051+009009069GA2081+024009049GF108991051051008001021999IA1239IA2999-00909KA1120N-00741MA1999999082601MD1210101+9999ME1314419MW1701UA1M999999019REMSYN136AAXX  28064 17205 11530 80000 11056 21082 38260 48441 52010 60042 77077 8552/ 333 21074 3/109 47082 55003 70050 85630 88458 92414 93107;
0224172050999992000012809004+38480+042300FM-12+166599999V0200401N002110090019N0030001N1-00201-00771999999ADDAY171031AY271031GA1051+009009069GA2081+024009049GF108991051051008001021999MA1999999082701MD1110101+9999ME1314479MW1701REMSYN094AAXX  28094 17205 41530 80404 11020 21077 38270 48447 51010 77077 8552/ 333 85630 88458 92415;
0270172050999992000012812004+38480+042300FM-12+166599999V0202701N001510120019N0150001N1-00441-00871999999ADDAA106000891AL10600391AY171061AY271061GA1051+012009069GA2081+027009049GF108991051051012501021999MA1999999082701MD1410001+9999ME1314499MW1021UA1M999999019REMSYN106AAXX  28124 17205 11665 82703 11044 21087 38270 48449 54000 69981 70277 8552/ 333 85640 88459 92417 93103;
0196172050999992000012815004+38480+042300FM-12+166599999V0202701N003110270019N0150001N1-00661-00941999999ADDGA1041+012009069GA2061+027009039GF106991041051012501051001MA1999999082801MD1210101+9999ME1314609REMSYN088AAXX  28154 17205 42665 62706 11066 21094 38280 48460 52010 84550 333 84640 86359 92417;
0251172050999992000012818004+38480+042300FM-12+166599999V0202701N001510120019N0150001N1-00701-00931999999ADDAA112000891GA1051+012009069GA2081+027009049GF108991051051012501021999KA1120M-00161MA1999999082901MD1210101+9999ME1314719UA1M999999059REMSYN106AAXX  28184 17205 12665 82703 11070 21093 38290 48471 52010 69982 8552/ 333 11016 85640 88459 92459 92417;
0196172050999992000012821004+38480+042300FM-12+166599999V0202701N001510120019N0150001N1-00741-01031999999ADDGA1051+012009069GA2081+024009049GF108991051051012501021999MA1999999083001MD1110101+9999ME1314719REMSYN088AAXX  28214 17205 42665 82703 11074 21103 38300 48471 51010 8552/ 333 85640 88458 92417;
0226172050999992000012900004+38480+042300FM-12+166599999V0202701N001510120019N0150001N1-00641-01051999999ADDAA199000091GA1051+012009069GA2081+027009049GF108991051051012501021999MA1999999083001MD1410001+9999ME1314799REMSYN088AAXX  29004 17205 32665 82703 11064 21105 38300 48479 54000 8552/ 333 85640 88459 92417;EQDQ01  00002PRCP99
0196172050999992000012903004+38480+042300FM-12+166599999V0200201N002110120019N0150001N1-00401-00871999999ADDGA1051+012009069GA2081+027009049GF108991051051012501021999MA1999999083001MD1410001+9999ME1314779REMSYN088AAXX  29034 17205 42665 80204 11040 21087 38300 48477 54000 8552/ 333 85640 88459 92417;
0285172050999992000012906004+38480+042300FM-12+166599999V0200201N001510120019N0150001N1-00701-01161999999ADDAA124000891AJ100809199999999GA1051+012009069GA2081+027009049GF108991051051012501021999IA1239IA2999-00909KA1120N-00841MA1999999083101MD1110101+9999ME1314909REMSYN118AAXX  29064 17205 32665 80203 11070 21116 38310 48490 51010 8552/ 333 21084 3/109 47080 55000 70008 85640 88459 92417;
0196172050999992000012909004+38480+042300FM-12+166599999V0202701N001010105019N0150001N1-00601-01161999999ADDGA1051+010509069GA2081+027009049GF108991051051012501021999MA1999999083201MD1310101+9999ME1314989REMSYN088AAXX  29094 17205 42665 82702 11060 21116 38320 48498 53010 8552/ 333 85635 88459 92417;
0204172050999992000012912004+38480+042300FM-12+166599999V0202701N001512200019N0200001N1-00441-01081999999ADDAA199000091GA1041+012009069GF104991041051012501001001MA1999999083201MD1410001+9999ME1314989REMSYN082AAXX  29124 17205 32670 42703 11044 21108 38320 48498 54000 84500 333 84640 92417;EQDQ01  00002PRCP99
0162172050999992000012915004+38480+042300FM-12+166599999V0209999C000012200019N0300001N1-00761-01121999999ADDGA1001+999999999GF100991001001999999001001MA1999999083401MD1210101+9999ME1315189REMSYN070AAXX  29154 17205 42980 00000 11076 21112 38340 48518 52010 333 10270;
0211172050999992000012918004+38480+042300FM-12+166599999V0209999C000012200019N0300001N1-00941-01201999999ADDAA199000091GA1001+999999999GF100991001001999999001001KA1120M-00301MA1999999083601MD1210201+9999ME1315379REMSYN076AAXX  29184 17205 32980 00000 11094 21120 38360 48537 52020 333 11030 92417;EQDQ01  00002PRCP99
0162172050999992000012921004+38480+042300FM-12+166599999V0209999C000012200019N0300001N1-01001-01171999999ADDGA1001+999999999GF100991001001999999001001MA1999999083601MD1410001+9999ME1315379REMSYN070AAXX  29214 17205 42980 00000 11100 21117 38360 48537 54000 333 10311;
0192172050999992000013000004+38480+042300FM-12+166599999V0209999C000012200019N0300001N1-00861-01121999999ADDAA199000091GA1001+999999999GF100991001001999999001001MA1999999083801MD1210201+9999ME1315559REMSYN070AAXX  30004 17205 32980 00000 11086 21112 38380 48555 52020 333 10327;EQDQ01  00002PRCP99
0162172050999992000013003004+38480+042300FM-12+166599999V0209999C000012200019N0300001N1-00941-01171999999ADDGA1001+999999999GF100991001001999999001001MA1999999083901MD1210101+9999ME1315659REMSYN070AAXX  30034 17205 42980 00000 11094 21117 38390 48565 52010 333 10356;
0264172050999992000013006004+38480+042300FM-12+166599999V0209999C000012200019N0300001N1-00941-01171999999ADDAA199000091AJ100809199999999GA1001+999999999GF100991001001999999001001IA1239IA2999-01409KA1120N-01101MA1999999084001MD1210101+9999ME1315749REMSYN094AAXX  30064 17205 32980 00000 11094 21117 38400 48574 52010 333 21110 3/114 47080 55006 92418;EQDQ01  00002PRCP99
0162172050999992000013009004+38480+042300FM-12+166599999V0209999C000012200019N0300001N1-00101-00861999999ADDGA1001+999999999GF100991001001999999001001MA1999999084001MD1410001+9999ME1315719REMSYN070AAXX  30094 17205 42980 00000 11010 21086 38400 48571 54000 333 10344;
0192172050999992000013012004+38480+042300FM-12+166599999V0202701N001512200019N0300001N1-00141-00951999999ADDAA199000091GA1001+999999999GF100991001001999999001001MA1999999084001MD1410001+9999ME1315719REMSYN070AAXX  30124 17205 32980 02703 11014 21095 38400 48571 54000 333 10336;EQDQ01  00002PRCP99
0162172050999992000013015004+38480+042300FM-12+166599999V0202701N001512200019N0300001N1-00361-00901999999ADDGA1001+999999999GF100991001001999999001001MA1999999084001MD1410001+9999ME1315729REMSYN070AAXX  30154 17205 42980 02703 11036 21090 38400 48572 54000 333 10352;
0211172050999992000013018004+38480+042300FM-12+166599999V0209999C000012200019N0300001N1-00701-00991999999ADDAA199000091GA1001+999999999GF100991001001999999001001KA1120M+00001MA1999999084101MD1110101+9999ME1315839REMSYN076AAXX  30184 17205 32980 00000 11070 21099 38410 48583 51010 333 10000 92418;EQDQ01  00002PRCP99
0162172050999992000013021004+38480+042300FM-12+166599999V0209999C000012200019N0300001N1-00941-01171999999ADDGA1001+999999999GF100991001001999999001001MA1999999084101MD1410001+9999ME1315839REMSYN070AAXX  30214 17205 42980 00000 11094 21117 38410 48583 54000 333 10340;
0192172050999992000013100004+38480+042300FM-12+166599999V0209999C000012200019N0300001N1-01101-01201999999ADDAA199000091GA1001+999999999GF100991001001999999001001MA1999999084001MD1610101+9999ME1315759REMSYN070AAXX  31004 17205 32980 00000 11110 21120 38400 48575 56010 333 10344;EQDQ01  00002PRCP99
0298172050999992000013106004+38480+042300FM-12+166599999V0209999C000010300019N0300001N1-00961-01161999999ADDAA199000091AJ100759199999999GA1041+012009069GA2061+030009039GF106991041051012501051001IA1239IA2999-01409KA1120N-01261MA1999999083961MD1610041+9999ME1315749REMSYN112AAXX  31064 17205 32680 60000 11096 21116 38396 48574 56004 84550 333 21126 3/114 47075 55005 84640 86360 92418;EQDQ01  00002PRCP99
0196172050999992000013109004+38480+042300FM-12+166599999V0209999C000010300019N0300001N1-00301-00761999999ADDGA1041+012009069GA2061+030009039GF106991041051012501051001MA1999999083961MD1410001+9999ME1315729REMSYN088AAXX  31094 17205 42680 60000 11030 21076 38396 48572 54000 84550 333 84640 86360 92418;
0226172050999992000013112004+38480+042300FM-12+166599999V0202701N002110300019N0300001N1-00641-00981999999ADDAA199000091GA1041+012009069GA2061+030009039GF106991041051012501051001MA1999999083701MD1710261+9999ME1315459REMSYN088AAXX  31124 17205 32680 62704 11064 21098 38370 48545 57026 84550 333 84640 86360 92418;EQDQ01  00002PRCP99
0196172050999992000013115004+38480+042300FM-12+166599999V0202701N001510300019N0300001N1-00601-00931999999ADDGA1041+012009069GA2061+030009039GF106991041051012501051001MA1999999083501MD1610201+9999ME1315269REMSYN088AAXX  31154 17205 42680 62703 11060 21093 38350 48526 56020 84550 333 84640 86360 92418;
0223172050999992000013118004+38480+042300FM-12+166599999V0209999C000012200019N0300001N1-00721-01011999999ADDAA199000091GA1041+012009069GF104991041051012501001001KA1120M-00201MA1999999083601MD1110101+9999ME1315369REMSYN088AAXX  31184 17205 32680 40000 11072 21101 38360 48536 51010 84500 333 11020 84640 92418;EQDQ01  00002PRCP99
0174172050999992000013121004+38480+042300FM-12+166599999V0209999C000012200019N0300001N1-00501-01291999999ADDGA1041+012009069GF104991041051012501001001MA1999999083501MD1710101+9999ME1315269REMSYN082AAXX  31214 17205 42680 40000 11050 21129 38350 48526 57010 84500 333 84640 92418;
0204172050999992000020100004+38480+042300FM-12+166599999V0209999C000012200019N0250001N1-00341-01471999999ADDAA199000091GA1041+012009089GF104991041051012501001001MA1999999083401MD1610101+9999ME1315159REMSYN082AAXX  01004 17205 32675 40000 11034 21147 38340 48515 56010 84500 333 84840 92418;EQDQ01  00002PRCP99
0196172050999992000020103004+38480+042300FM-12+166599999V0209999C000010300019N0200001N1-00341-01061999999ADDGA1041+012009069GA2061+030009039GF106991041051012501051001MA1999999083301MD1710101+9999ME1315069REMSYN088AAXX  01034 17205 42670 60000 11034 21106 38330 48506 57010 84550 333 84640 86360 92417;
0298172050999992000020106004+38480+042300FM-12+166599999V0202701N001510300019N0200001N1-00301-00671999999ADDAA199000091AJ100729199999999GA1041+012009069GA2061+030009039GF106991041051012501051001IA1239IA2999-01009KA1120N-00801MA1999999083301MD1410001+9999ME1315069REMSYN112AAXX  01064 17205 32670 62703 11030 21067 38330 48506 54000 84550 333 21080 3/110 47072 55000 84640 86360 92417;EQDQ01  00002PRCP99
0196172050999992000020109004+38480+042300FM-12+166599999V0202001N001510300019N0200001N1+00001-00761999999ADDGA1041+012009069GA2061+030009039GF106991041051012501051001MA1999999083201MD1810101+9999ME1314969REMSYN088AAXX  01094 17205 42670 62003 10000 21076 38320 48496 58010 84550 333 84640 86360 92417;
0226172050999992000020112004+38480+042300FM-12+166599999V0202501N002610300019N0200001N1-00141-00831999999ADDAA199000091GA1041+012009069GA2061+030009039GF106991041051012501051001MA1999999083101MD1810101+9999ME1314869REMSYN088AAXX  01124 17205 32670 62505 11014 21083 38310 48486 58010 84550 333 84640 86360 92417;EQDQ01  00002PRCP99
0196172050999992000020115004+38480+042300FM-12+166599999V0202501N002110300019N0200001N1-00361-00771999999ADDGA1041+012009069GA2061+030009039GF106991041051012501051001MA1999999083101MD1410001+9999ME1314879REMSYN088AAXX  01154 17205 42670 62504 11036 21077 38310 48487 54000 84550 333 84640 86360 92417;
0245172050999992000020118004+38480+042300FM-12+166599999V0202501N003110300019N0200001N1-00361-00651999999ADDAA199000091GA1041+012009069GA2061+030009039GF106991041051012501051001KA1120M+00101MA1999999083201MD1110101+9999ME1314969REMSYN094AAXX  01184 17205 32670 62506 11036 21065 38320 48496 51010 84550 333 10010 84640 86360 92427;EQDQ01  00002PRCP99
0174172050999992000020121004+38480+042300FM-12+166599999V0202501N003112200019N0200001N1-00401-01111999999ADDGA1041+012009069GF104991041051012501001001MA1999999083201MD1410001+9999ME1314969REMSYN082AAXX  01214 17205 42670 42506 11040 21111 38320 48496 54000 84500 333 84640 92427;
0192172050999992000020200004+38480+042300FM-12+166599999V0202501N003112200019N0200001N1-00501-01261999999ADDAA199000091GA1001+999999999GF100991001001999999001001MA1999999083201MD1410001+9999ME1314989REMSYN070AAXX  02004 17205 32970 02506 11050 21126 38320 48498 54000 333 10213;EQDQ01  00002PRCP99
0162172050999992000020203004+38480+042300FM-12+166599999V0202501N001512200019N0200001N1-00561-01281999999ADDGA1001+999999999GF100991001001999999001001MA1999999083101MD1810101+9999ME1314889REMSYN070AAXX  02034 17205 42970 02503 11056 21128 38310 48488 58010 333 10224;
0264172050999992000020206004+38480+042300FM-12+166599999V0209999C000012200019N0300001N1-00901-01431999999ADDAA199000091AJ100689199999999GA1001+999999999GF100991001001999999001001IA1239IA2999-01209KA1120N-01001MA1999999083201MD1210101+9999ME1315009REMSYN094AAXX  02064 17205 32980 00000 11090 21143 38320 48500 52010 333 21100 3/112 47068 55003 92418;EQDQ01  00002PRCP99
0196172050999992000020209004+38480+042300FM-12+166599999V0203401N001510300019N0300001N1-00301-01161999999ADDGA1041+012009069GA2061+030009039GF106991041051012501051001MA1999999083201MD1410001+9999ME1314969REMSYN088AAXX  02094 17205 42680 63403 11030 21116 38320 48496 54000 84550 333 84640 86360 92418;
0204172050999992000020212004+38480+042300FM-12+166599999V0202901N001512200019N0300001N1-00401-01081999999ADDAA199000091GA1031+012009069GF103991031051012501001001MA1999999083241MD1110041+9999ME1314969REMSYN082AAXX  02124 17205 32680 32903 11040 21108 38324 48496 51004 83500 333 83640 92418;EQDQ01  00002PRCP99
0162172050999992000020215004+38480+042300FM-12+166599999V0202501N001512200019N0300001N1-00561-01451999999ADDGA1001+999999999GF100991001001999999001001MA1999999083301MD1210061+9999ME1315079REMSYN070AAXX  02154 17205 42980 02503 11056 21145 38330 48507 52006 333 10258;
0211172050999992000020218004+38480+042300FM-12+166599999V0209999C000012200019N0300001N1-00781-01561999999ADDAA199000091GA1001+999999999GF100991001001999999001001KA1120M-00201MA1999999083401MD1210101+9999ME1315189REMSYN076AAXX  02184 17205 32980 00000 11078 21156 38340 48518 52010 333 11020 92418;EQDQ01  00002PRCP99
0162172050999992000020221004+38480+042300FM-12+166599999V0209999C000012200019N0300001N1-01001-01561999999ADDGA1001+999999999GF100991001001999999001001MA1999999083401MD1410001+9999ME1315199REMSYN070AAXX  02214 17205 42980 00000 11100 21156 38340 48519 54000 333 10270;
0192172050999992000020300004+38480+042300FM-12+166599999V0209999C000012200019N0300001N1-01101-01471999999ADDAA199000091GA1001+999999999GF100991001001999999001001MA1999999083501MD1110101+9999ME1315299REMSYN070AAXX  03004 17205 32980 00000 11110 21147 38350 48529 51010 333 10299;EQDQ01  00002PRCP99
0196172050999992000020303004+38480+042300FM-12+166599999V0209999C000010300019N0300001N1-00901-01301999999ADDGA1041+012009069GA2061+030009039GF106991041051012501051001MA1999999083501MD1410001+9999ME1315289REMSYN088AAXX  03034 17205 42680 60000 11090 21130 38350 48528 54000 84550 333 84640 86360 92418;
0298172050999992000020306004+38480+042300FM-12+166599999V0209999C000010300019N0300001N1-00681-01031999999ADDAA199000091AJ100659199999999GA1041+012009069GA2061+030009039GF106991041051012501051001IA1239IA2999-01409KA1120N-01261MA1999999083601MD1210101+9999ME1315369REMSYN112AAXX  03064 17205 32680 60000 11068 21103 38360 48536 52010 84550 333 21126 3/114 47065 55014 84640 86360 92417;EQDQ01  00002PRCP99
0196172050999992000020309004+38480+042300FM-12+166599999V0200201N001510300019N0200001N1-00201-00751999999ADDGA1041+012009069GA2061+030009039GF106991041051012501051001MA1999999083701MD1110101+9999ME1315439REMSYN088AAXX  03094 17205 42670 60203 11020 21075 38370 48543 51010 84550 333 84640 86360 92417;
0204172050999992000020312004+38480+042300FM-12+166599999V0200901N001512200019N0300001N1-00101-00561999999ADDAA199000091GA1031+012009069GF103991031051012501001001MA1999999083501MD1610201+9999ME1315249REMSYN082AAXX  03124 17205 32680 30903 11010 21056 38350 48524 56020 83500 333 83640 92418;EQDQ01  00002PRCP99
0162172050999992000020315004+38480+042300FM-12+166599999V0209999C000012200019N0300001N1-00341-00931999999ADDGA1001+999999999GF100991001001999999001001MA1999999083561MD1410001+9999ME1315349REMSYN070AAXX  03154 17205 42980 00000 11034 21093 38356 48534 54000 333 10290;
0211172050999992000020318004+38480+042300FM-12+166599999V0202501N001512200019N0250001N1-00961-01301999999ADDAA199000091GA1001+999999999GF100991001001999999001001KA1120M+00101MA1999999083601MD1110041+9999ME1315379REMSYN076AAXX  03184 17205 32975 02503 11096 21130 38360 48537 51004 333 10010 92417;EQDQ01  00002PRCP99
0162172050999992000020321004+38480+042300FM-12+166599999V0209999C000012200019N0250001N1-00941-01201999999ADDGA1001+999999999GF100991001001999999001001MA1999999083601MD1410001+9999ME1315379REMSYN070AAXX  03214 17205 42975 00000 11094 21120 38360 48537 54000 333 10327;
0204172050999992000020400004+38480+042300FM-12+166599999V0209999C000012200019N0200001N1-01081-01291999999ADDAA199000091GA1031+012009069GF103991031051012501001001MA1999999083501MD1610101+9999ME1315289REMSYN082AAXX  04004 17205 32670 30000 11108 21129 38350 48528 56010 83500 333 83640 92417;EQDQ01  00002PRCP99
0174172050999992000020403004+38480+042300FM-12+166599999V0209999C000012200019N0200001N1-01101-01281999999ADDGA1031+012009069GF103991031051012501001001MA1999999083501MD1410001+9999ME1315299REMSYN082AAXX  04034 17205 42670 30000 11110 21128 38350 48529 54000 83500 333 83640 92417;
0264172050999992000020406004+38480+042300FM-12+166599999V0209999C000012200019N0150001N1-00941-01091999999ADDAA199000091AJ100629199999999GA1001+999999999GF100991001001999999001001IA1239IA2999-01409KA1120N-01201MA1999999083501MD1410001+9999ME1315279REMSYN094AAXX  04064 17205 32965 00000 11094 21109 38350 48527 54000 333 21120 3/114 47062 55012 92417;EQDQ01  00002PRCP99
0162172050999992000020409004+38480+042300FM-12+166599999V0209999C000012200019N0200001N1-00201-00621999999ADDGA1001+999999999GF100991001001999999001001MA1999999083501MD1410001+9999ME1315279REMSYN070AAXX  04094 17205 42970 00000 11020 21062 38350 48527 54000 333 10282;
0192172050999992000020412004+38480+042300FM-12+166599999V0209999C000012200019N0300001N1-00181-00821999999ADDAA199000091GA1001+999999999GF100991001001999999001001MA1999999083401MD1810101+9999ME1315159REMSYN070AAXX  04124 17205 32980 00000 11018 21082 38340 48515 58010 333 10270;EQDQ01  00002PRCP99
0162172050999992000020415004+38480+042300FM-12+166599999V0209999C000012200019N0300001N1-00201-01071999999ADDGA1001+999999999GF100991001001999999001001MA1999999083401MD1410001+9999ME1315149REMSYN070AAXX  04154 17205 42980 00000 11020 21107 38340 48514 54000 333 10278;
0211172050999992000020418004+38480+042300FM-12+166599999V0209999C000012200019N0250001N1-00341-01251999999ADDAA199000091GA1001+999999999GF100991001001999999001001KA1120M-00041MA1999999083401MD1410001+9999ME1315159REMSYN076AAXX  04184 17205 32975 00000 11034 21125 38340 48515 54000 333 11004 92417;EQDQ01  00002PRCP99
0162172050999992000020421004+38480+042300FM-12+166599999V0202001N001512200019N0250001N1-00301-01281999999ADDGA1001+999999999GF100991001001999999001001MA1999999083401MD1410001+9999ME1315159REMSYN070AAXX  04214 17205 42975 02003 11030 21128 38340 48515 54000 333 10246;
0192172050999992000020500004+38480+042300FM-12+166599999V0202001N003112200019N0250001N1-00421-01261999999ADDAA199000091GA1001+999999999GF100991001001999999001001MA1999999083301MD1610101+9999ME1315069REMSYN070AAXX  05004 17205 32975 02006 11042 21126 38330 48506 56010 333 10234;EQDQ01  00002PRCP99
0174172050999992000020503004+38480+042300FM-12+166599999V0202001N002112200019N0250001N1-00501-01151999999ADDGA1041+012009069GF104991041051012501001001MA1999999083201MD1710101+9999ME1314989REMSYN082AAXX  05034 17205 42675 42004 11050 21115 38320 48498 57010 84500 333 84640 92427;
0298172050999992000020506004+38480+042300FM-12+166599999V0202001N001510120019N0250001N1-00261-01021999999ADDAA199000091AJ100609199999999GA1051+012009069GA2081+030009049GF108991051051012501021999IA1239IA2999-00809KA1120N-00661MA1999999083201MD1410001+9999ME1314959REMSYN112AAXX  05064 17205 32675 82003 11026 21102 38320 48495 54000 8552/ 333 21066 3/108 47060 55011 85640 88460 92417;EQDQ01  00002PRCP99
0196172050999992000020509004+38480+042300FM-12+166599999V0202701N001510120019N0250001N1-00041-00891999999ADDGA1051+012009069GA2081+030009049GF108991051051012501021999MA1999999083201MD1410001+9999ME1314949REMSYN088AAXX  05094 17205 42675 82703 11004 21089 38320 48494 54000 8552/ 333 85640 88460 92417;
0226172050999992000020512004+38480+042300FM-12+166599999V0202701N002110120019N0250001N1-00081-00861999999ADDAA199000091GA1051+012009069GA2081+030009049GF108991051051012501021999MA1999999083001MD1710201+9999ME1314769REMSYN088AAXX  05124 17205 32675 82704 11008 21086 38300 48476 57020 8552/ 333 85640 88460 92417;EQDQ01  00002PRCP99
0196172050999992000020515004+38480+042300FM-12+166599999V0202701N001510120019N0250001N1-00201-00901999999ADDGA1051+012009069GA2081+030009049GF108991051051012501021999MA1999999083001MD1410001+9999ME1314769REMSYN088AAXX  05154 17205 42675 82703 11020 21090 38300 48476 54000 8552/ 333 85640 88460 92417;
0245172050999992000020518004+38480+042300FM-12+166599999V0202701N002110105019N0200001N1-00261-00591999999ADDAA199000091GA1051+010509069GA2081+027009049GF108991051051012501021999KA1120M+00041MA1999999083001MD1410001+9999ME1314769REMSYN094AAXX  05184 17205 32670 82704 11026 21059 38300 48476 54000 8552/ 333 10004 85635 88459 92417;EQDQ01  00002PRCP99
0224172050999992000020521004+38480+042300FM-12+166599999V0202701N002110090019N0030001N1-00261-00491999999ADDAY121031AY221031GA1051+009009069GA2081+024009049GF108991051051008001021999MA1999999082841MD1710161+9999ME1314579MW1701REMSYN094AAXX  05214 17205 41530 82704 11026 21049 38284 48457 57016 77022 8552/ 333 85630 88458 92414;
0270172050999992000020600004+38480+042300FM-12+166599999V0202901N002110090019N0030001N1-00261-00491999999ADDAA106000591AL10600191AY171061AY221061GA1051+009009069GA2081+024009049GF108991051051008001021999MA1999999082641MD1710201+9999ME1314379MW1701UA1M999999019REMSYN106AAXX  06004 17205 11530 82904 11026 21049 38264 48437 57020 69961 77072 8552/ 333 85630 88458 92414 93101;
0224172050999992000020603004+38480+042300FM-12+166599999V0202501N002110090019N0080001N1-00261-00491999999ADDAY171031AY271031GA1051+009009069GA2081+024009049GF108991051051008001021999MA1999999082561MD1710081+9999ME1314379MW1701REMSYN094AAXX  06034 17205 41558 82504 11026 21049 38256 48437 57008 77077 8552/ 333 85630 88458 92415;
0348172050999992000020606004+38480+042300FM-12+166599999V0202701N001510075019N0030001N1-00241-00441999999ADDAA112001091AJ100609199999999AL10600391AY171061AY271061GA1051+007509069GA2081+021009049GF108991051051004501021999IA1239IA2999-00409KA1120N-00341MA1999999082401MD1710161+9999ME1314189MW1701UA1M999999019REMSYN136AAXX  06064 17205 11430 82703 11024 21044 38240 48418 57016 60012 77077 8552/ 333 21034 3/104 47060 55000 70014 85625 88457 92413 93103;
0224172050999992000020609004+38480+042300FM-12+166599999V0202701N001510075019N0030001N1-00241-00471999999ADDAY171031AY271031GA1051+007509069GA2081+021009049GF108991051051004501021999MA1999999082301MD1610101+9999ME1314089MW1701REMSYN094AAXX  06094 17205 41430 82703 11024 21047 38230 48408 56010 77077 8552/ 333 85625 88457 92413;
0270172050999992000020612004+38480+042300FM-12+166599999V0202701N001510060019N0030001N1-00321-00561999999ADDAA106007191AL10602091AY171061AY271061GA1051+006009069GA2081+021009049GF108991051051008001021999MA1999999082201MD1710101+9999ME1314019MW1701UA1M999999019REMSYN106AAXX  06124 17205 11530 82703 11032 21056 38220 48401 57010 60071 77077 8552/ 333 85620 88457 92414 93120;
0224172050999992000020615004+38480+042300FM-12+166599999V0202501N004110060019N0030001N1-00661-00941999999ADDAY171031AY271031GA1051+006009069GA2081+021009049GF108991051051008001021999MA1999999082301MD1110101+9999ME1314129MW1701REMSYN094AAXX  06154 17205 41530 82508 11066 21094 38230 48412 51010 77077 8552/ 333 85620 88457 92414;
0289172050999992000020618004+38480+042300FM-12+166599999V0202701N001510270019N0050001N1-00601-00871999999ADDAA112007991AL10600591AY171061AY271061GA1041+007509069GA2061+027009039GF106991041051008001051001KA1120M-00161MA1999999082501MD1210201+9999ME1314319MW1221UA1M999999019REMSYN112AAXX  06184 17205 11550 62703 11060 21087 38250 48431 52020 60082 72277 84550 333 11016 84625 86359 92416 93105;
0196172050999992000020621004+38480+042300FM-12+166599999V0202001N001510270019N0200001N1-00581-01341999999ADDGA1041+009009069GA2061+027009039GF106991041051012501051001MA1999999082501MD1410001+9999ME1314319REMSYN088AAXX  06214 17205 42670 62003 11058 21134 38250 48431 54000 84550 333 84630 86359 92416;
0207172050999992000020700004+38480+042300FM-12+166599999V0202001N003110270019N0100001N1-00641-01381999999ADDAA199000021GA1041+009009069GA2061+027009039GF106991041051012501051001MA1999999082501MD1410001+9999ME1314319REMSYN088AAXX  07004 17205 32660 62006 11064 21138 38250 48431 54000 84550 333 84630 86359 92416;
0174172050999992000020703004+38480+042300FM-12+166599999V0203401N004112200019N0200001N1-00801-01551999999ADDGA1031+012009069GF103991031051012501001001MA1999999082601MD1610101+9999ME1314439REMSYN082AAXX  07034 17205 42670 33408 11080 21155 38260 48443 56010 83500 333 83640 92423;
0263172050999992000020706004+38480+042300FM-12+166599999V0203401N003112200019N0200001N1-00741-01501999999ADDAA124008991AJ100659199999999GA1041+012009069GF104991041051012501001001IA1239IA2999-01409KA1120N-00941MA1999999082801MD1210201+9999ME1314619REMSYN112AAXX  07064 17205 32670 43406 11074 21150 38280 48461 52020 84500 333 21094 3/114 47065 55000 70090 84640 92427;
0174172050999992000020709004+38480+042300FM-12+166599999V0203401N005112200019N0300001N1-00521-01601999999ADDGA1031+012009069GF103991031051012501001001MA1999999083001MD1310201+9999ME1314789REMSYN082AAXX  07094 17205 42680 33410 11052 21160 38300 48478 53020 83500 333 83640 92438;
0204172050999992000020712004+38480+042300FM-12+166599999V0203401N002612200019N0300001N1-00521-01601999999ADDAA199000091GA1021+012009069GF102991021051012501001001MA1999999082901MD1810101+9999ME1314699REMSYN082AAXX  07124 17205 32680 23405 11052 21160 38290 48469 58010 82500 333 82640 92438;EQDQ01  00002PRCP99
0174172050999992000020715004+38480+042300FM-12+166599999V0203401N003112200019N0300001N1-00701-01861999999ADDGA1021+012009069GF102991021051012501001001MA1999999083101MD1210201+9999ME1314909REMSYN082AAXX  07154 17205 42680 23406 11070 21186 38310 48490 52020 82500 333 82640 92438;
0211172050999992000020718004+38480+042300FM-12+166599999V0203401N002612200019N0300001N1-00761-01801999999ADDAA199000091GA1001+999999999GF100991001001999999001001KA1120M-00401MA1999999083201MD1210101+9999ME1314999REMSYN076AAXX  07184 17205 32980 03405 11076 21180 38320 48499 52010 333 11040 92428;EQDQ01  00002PRCP99
0162172050999992000020721004+38480+042300FM-12+166599999V0200201N001512200019N0300001N1-00701-01631999999ADDGA1001+999999999GF100991001001999999001001MA1999999083301MD1210101+9999ME1315089REMSYN070AAXX  07214 17205 42980 00203 11070 21163 38330 48508 52010 333 10258;
0192172050999992000020800004+38480+042300FM-12+166599999V0209999C000012200019N0300001N1-00921-01741999999ADDAA199000091GA1001+999999999GF100991001001999999001001MA1999999083401MD1210101+9999ME1315199REMSYN070AAXX  08004 17205 32980 00000 11092 21174 38340 48519 52010 333 10278;EQDQ01  00002PRCP99
0162172050999992000020803004+38480+042300FM-12+166599999V0209999C000012200019N0300001N1-00921-01321999999ADDGA1001+999999999GF100991001001999999001001MA1999999083401MD1410001+9999ME1315199REMSYN070AAXX  08034 17205 42980 00000 11092 21132 38340 48519 54000 333 10286;
0298172050999992000020806004+38480+042300FM-12+166599999V0200201N001510300019N0300001N1-00701-01201999999ADDAA199000091AJ100629199999999GA1041+012009069GA2061+030009039GF106991041051012501051001IA1239IA2999-01309KA1120N-01101MA1999999083501MD1210101+9999ME1315279REMSYN112AAXX  08064 17205 32680 60203 11070 21120 38350 48527 52010 84550 333 21110 3/113 47062 55029 84640 86360 92418;EQDQ01  00002PRCP99
0196172050999992000020809004+38480+042300FM-12+166599999V0200701N001510300019N0300001N1-00301-00871999999ADDGA1041+012009069GA2061+030009039GF106991041051012501051001MA1999999083501MD1410001+9999ME1315259REMSYN088AAXX  08094 17205 42680 60703 11030 21087 38350 48525 54000 84550 333 84640 86360 92418;
0204172050999992000020812004+38480+042300FM-12+166599999V0200701N001512200019N0300001N1-00261-00951999999ADDAA199000091GA1031+012009069GF103991031051012501001001MA1999999083401MD1810101+9999ME1315149REMSYN082AAXX  08124 17205 32680 30703 11026 21095 38340 48514 58010 83500 333 83640 92418;EQDQ01  00002PRCP99
0174172050999992000020815004+38480+042300FM-12+166599999V0200201N001512200019N0300001N1-00501-00941999999ADDGA1021+012009069GF102991021051012501001001MA1999999083401MD1410001+9999ME1315169REMSYN082AAXX  08154 17205 42680 20203 11050 21094 38340 48516 54000 82500 333 82640 92418;
0211172050999992000020818004+38480+042300FM-12+166599999V0209999C000012200019N0300001N1-00801-01181999999ADDAA199000091GA1001+999999999GF100991001001999999001001KA1120M-00201MA1999999083401MD1410001+9999ME1315189REMSYN076AAXX  08184 17205 32980 00000 11080 21118 38340 48518 54000 333 11020 92418;EQDQ01  00002PRCP99
0162172050999992000020821004+38480+042300FM-12+166599999V0209999C000012200019N0300001N1-01001-01231999999ADDGA1001+999999999GF100991001001999999001001MA1999999083401MD1410001+9999ME1315199REMSYN070AAXX  08214 17205 42980 00000 11100 21123 38340 48519 54000 333 10270;
0192172050999992000020900004+38480+042300FM-12+166599999V0209999C000012200019N0300001N1-01001-01231999999ADDAA199000091GA1001+999999999GF100991001001999999001001MA1999999083401MD1410001+9999ME1315199REMSYN070AAXX  09004 17205 32980 00000 11100 21123 38340 48519 54000 333 10270;EQDQ01  00002PRCP99
0196172050999992000020903004+38480+042300FM-12+166599999V0209999C000010300019N0300001N1-00701-00841999999ADDGA1041+012009069GA2061+030009039GF106991041051012501051001MA1999999083401MD1410001+9999ME1315189REMSYN088AAXX  09034 17205 42680 60000 11070 21084 38340 48518 54000 84550 333 84640 86360 92418;
0298172050999992000020906004+38480+042300FM-12+166599999V0209999C000010300019N0200001N1-00441-00751999999ADDAA199000091AJ100609199999999GA1041+012009069GA2061+030009039GF106991041051012501051001IA1239IA2999-01309KA1120N-01161MA1999999083441MD1110041+9999ME1315159REMSYN112AAXX  09064 17205 32670 60000 11044 21075 38344 48515 51004 84550 333 21116 3/113 47060 55017 84640 86360 92418;EQDQ01  00002PRCP99
0196172050999992000020909004+38480+042300FM-12+166599999V0200401N001010300019N0200001N1-00141-00671999999ADDGA1041+012009069GA2061+030009039GF106991041051012501051001MA1999999083501MD1210061+9999ME1315249REMSYN088AAXX  09094 17205 42670 60402 11014 21067 38350 48524 52006 84550 333 84640 86360 92418;
0192172050999992000020912004+38480+042300FM-12+166599999V0200401N001012200019N0300001N1-00101-00761999999ADDAA199000091GA1001+999999999GF100991001001999999001001MA1999999083501MD1410001+9999ME1315249REMSYN070AAXX  09124 17205 32980 00402 11010 21076 38350 48524 54000 333 10282;EQDQ01  00002PRCP99
0162172050999992000020915004+38480+042300FM-12+166599999V0209999C000012200019N0300001N1-00301-00821999999ADDGA1001+999999999GF100991001001999999001001MA1999999083541MD1110041+9999ME1315259REMSYN070AAXX  09154 17205 42980 00000 11030 21082 38354 48525 51004 333 10279;
0211172050999992000020918004+38480+042300FM-12+166599999V0209999C000012200019N0300001N1-00701-00931999999ADDAA199000091GA1001+999999999GF100991001001999999001001KA1120M+00001MA1999999083601MD1210061+9999ME1315369REMSYN076AAXX  09184 17205 32980 00000 11070 21093 38360 48536 52006 333 10000 92418;EQDQ01  00002PRCP99
0162172050999992000020921004+38480+042300FM-12+166599999V0209999C000012200019N0250001N1-00801-01011999999ADDGA1001+999999999GF100991001001999999001001MA1999999083741MD1110141+9999ME1315469REMSYN070AAXX  09214 17205 42975 00000 11080 21101 38374 48546 51014 333 10304;
0192172050999992000021000004+38480+042300FM-12+166599999V0209999C000012200019N0250001N1-00901+99999999999ADDAA199000091GA1001+999999999GF100991001001999999001001MA1999999083801MD1210061+9999ME1315569REMSYN070AAXX  10004 17205 32975 00000 11090 20102 38380 48556 52006 333 10311;EQDQ01  00002PRCP99
0174172050999992000021003004+38480+042300FM-12+166599999V0209999C000012200019N0200001N1-00701-00781999999ADDGA1041+012009089GF104991041051012501001001MA1999999083801MD1410001+9999ME1315559REMSYN082AAXX  10034 17205 42670 40000 11070 21078 38380 48555 54000 84500 333 84840 92418;
0298172050999992000021006004+38480+042300FM-12+166599999V0209999C000010120019N0200001N1-00421-00541999999ADDAA199000091AJ100579199999999GA1051+012009069GA2081+027009049GF108991051051012501021999IA1239IA2999-01209KA1120N-01001MA1999999083901MD1110101+9999ME1315639REMSYN112AAXX  10064 17205 32670 80000 11042 21054 38390 48563 51010 8552/ 333 21100 3/112 47057 55011 85640 88459 92417;EQDQ01  00002PRCP99
0196172050999992000021009004+38480+042300FM-12+166599999V0209999C000010300019N0300001N1+00041-00561999999ADDGA1041+012009069GA2061+030009039GF106991041051012501051001MA1999999083901MD1410001+9999ME1315639REMSYN088AAXX  10094 17205 42680 60000 10004 21056 38390 48563 54000 84550 333 84640 86360 92418;
0192172050999992000021012004+38480+042300FM-12+166599999V0200201N001012200019N0300001N1+00041-00561999999ADDAA199000091GA1001+999999999GF100991001001999999001001MA1999999083901MD1410001+9999ME1315619REMSYN070AAXX  10124 17205 32980 00202 10004 21056 38390 48561 54000 333 10315;EQDQ01  00002PRCP99
0174172050999992000021015004+38480+042300FM-12+166599999V0209999C000012200019N0300001N1-00201-00691999999ADDGA1041+012009069GF104991041051012501001001MA1999999083901MD1410001+9999ME1315629REMSYN082AAXX  10154 17205 42680 40000 11020 21069 38390 48562 54000 84500 333 84640 92418;
0211172050999992000021018004+38480+042300FM-12+166599999V0209999C000012200019N0300001N1-00501-00761999999ADDAA199000091GA1001+999999999GF100991001001999999001001KA1120M+00121MA1999999084001MD1110101+9999ME1315729REMSYN076AAXX  10184 17205 32980 00000 11050 21076 38400 48572 51010 333 10012 92418;EQDQ01  00002PRCP99
0162172050999992000021021004+38480+042300FM-12+166599999V0209999C000012200019N0300001N1-00721-00891999999ADDGA1001+999999999GF100991001001999999001001MA1999999084001MD1410001+9999ME1315739REMSYN070AAXX  10214 17205 42980 00000 11072 21089 38400 48573 54000 333 10328;
0192172050999992000021100004+38480+042300FM-12+166599999V0209999C000012200019N0300001N1-00821-00941999999ADDAA199000091GA1001+999999999GF100991001001999999001001MA1999999083901MD1810101+9999ME1315679REMSYN070AAXX  11004 17205 32980 00000 11082 21094 38390 48567 58010 333 10315;EQDQ01  00002PRCP99
0196172050999992000021103004+38480+042300FM-12+166599999V0209999C000010120019N0200001N1-00601-00701999999ADDGA1051+012009069GA2081+027009049GF108991051051012501021999MA1999999083901MD1410001+9999ME1315639REMSYN088AAXX  11034 17205 42670 80000 11060 21070 38390 48563 54000 8552/ 333 85640 88459 92417;
0298172050999992000021106004+38480+042300FM-12+166599999V0209999C000010120019N0200001N1-00421-00521999999ADDAA199000091AJ100559199999999GA1051+012009069GA2081+027009049GF108991051051012501021999IA1239IA2999-01209KA1120N-00941MA1999999083801MD1810101+9999ME1315639REMSYN112AAXX  11064 17205 32670 80000 11042 21052 38380 48563 58010 8552/ 333 21094 3/112 47055 55010 85640 88459 92417;EQDQ01  00002PRCP99
0196172050999992000021109004+38480+042300FM-12+166599999V0209999C000010300019N0300001N1+00041-00561999999ADDGA1041+012009069GA2061+030009039GF106991041051012501051001MA1999999083801MD1410001+9999ME1315519REMSYN088AAXX  11094 17205 42680 60000 10004 21056 38380 48551 54000 84550 333 84640 86360 92418;
0226172050999992000021112004+38480+042300FM-12+166599999V0200401N001010300019N0300001N1+00101-00511999999ADDAA199000091GA1041+012009069GA2061+030009039GF106991041051012501051001MA1999999083701MD1610101+9999ME1315419REMSYN088AAXX  11124 17205 32680 60402 10010 21051 38370 48541 56010 84550 333 84640 86360 92418;EQDQ01  00002PRCP99
0196172050999992000021115004+38480+042300FM-12+166599999V0209999C000010300019N0300001N1+00001-00461999999ADDGA1041+012009069GA2061+030009039GF106991041051012501051001MA1999999083701MD1410001+9999ME1315429REMSYN088AAXX  11154 17205 42680 60000 10000 21046 38370 48542 54000 84550 333 84640 86360 92418;
0211172050999992000021118004+38480+042300FM-12+166599999V0209999C000012200019N0300001N1-00401-00701999999ADDAA199000091GA1001+999999999GF100991001001999999001001KA1120M+00141MA1999999083801MD1210101+9999ME1315539REMSYN076AAXX  11184 17205 32980 00000 11040 21070 38380 48553 52010 333 10014 92418;EQDQ01  00002PRCP99
0162172050999992000021121004+38480+042300FM-12+166599999V0209999C000012200019N0300001N1-00601-00701999999ADDGA1001+999999999GF100991001001999999001001MA1999999083801MD1410001+9999ME1315549REMSYN070AAXX  11214 17205 42980 00000 11060 21070 38380 48554 54000 333 10295;
0226172050999992000021200004+38480+042300FM-12+166599999V0209999C000010300019N0300001N1-00421-00521999999ADDAA199000091GA1041+012009069GA2061+030009039GF106991041051012501051001MA1999999083801MD1410001+9999ME1315539REMSYN088AAXX  12004 17205 32680 60000 11042 21052 38380 48553 54000 84550 333 84640 86360 92418;EQDQ01  00002PRCP99
0196172050999992000021203004+38480+042300FM-12+166599999V0209999C000010300019N0300001N1-00301-00441999999ADDGA1041+012009069GA2061+030009039GF106991041051012501051001MA1999999083701MD1610101+9999ME1315449REMSYN088AAXX  12034 17205 42680 60000 11030 21044 38370 48544 56010 84550 333 84640 86360 92418;
0298172050999992000021206004+38480+042300FM-12+166599999V0209999C000010300019N0300001N1-00401-00551999999ADDAA199000091AJ100509199999999GA1041+012009069GA2061+030009039GF106991041051012501051001IA1239IA2999-01009KA1120N-00761MA1999999083741MD1110041+9999ME1315449REMSYN112AAXX  12064 17205 32680 60000 11040 21055 38374 48544 51004 84550 333 21076 3/110 47050 55000 84640 86360 92418;EQDQ01  00002PRCP99
0196172050999992000021209004+38480+042300FM-12+166599999V0200401N001010300019N0300001N1+00081-00531999999ADDGA1041+012009069GA2061+030009039GF106991041051012501051001MA1999999083701MD1710041+9999ME1315429REMSYN088AAXX  12094 17205 42680 60402 10008 21053 38370 48542 57004 84550 333 84640 86360 92418;
0204172050999992000021212004+38480+042300FM-12+166599999V0200401N001512200019N0300001N1+00041-00581999999ADDAA199000091GA1021+012009069GF102991021051012501001001MA1999999083501MD1610201+9999ME1315239REMSYN082AAXX  12124 17205 32680 20403 10004 21058 38350 48523 56020 82500 333 82640 92418;EQDQ01  00002PRCP99
0193172050999992000021215004+38480+042300FM-12+166599999V0209999C000012200019N0300001N1-00101-00611999999ADDGA1041+012009069GF199999021051012501001001MA1999999083461MD1610041+9999ME1315249REMSYN082AAXX  12154 17205 42680 20000 11010 21061 38346 48524 56004 82500 333 84640 92418;EQDQ01+000022SCOTCV
0211172050999992000021218004+38480+042300FM-12+166599999V0209999C000012200019N0300001N1-00421-00721999999ADDAA199000091GA1001+999999999GF100991001001999999001001KA1120M+00201MA1999999083401MD1810061+9999ME1315159REMSYN076AAXX  12184 17205 32980 00000 11042 21072 38340 48515 58006 333 10020 92418;EQDQ01  00002PRCP99
0226172050999992000021300004+38480+042300FM-12+166599999V0209999C000010300019N0200001N1-00421-00561999999ADDAA199000091GA1041+012009069GA2061+030009039GF106991041051012501051001MA1999999083201MD1610101+9999ME1314969REMSYN088AAXX  13004 17205 32670 60000 11042 21056 38320 48496 56010 84550 333 84640 86360 92417;EQDQ01  00002PRCP99
0224172050999992000021303004+38480+042300FM-12+166599999V0209999C000010090019N0080001N1-00261-00391999999ADDAY121031AY221031GA1051+009009069GA2081+024009049GF108991051051008001021999MA1999999083101MD1610101+9999ME1314859MW1701REMSYN094AAXX  13034 17205 41558 80000 11026 21039 38310 48485 56010 77022 8552/ 333 85630 88458 92416;
0370172050999992000021306004+38480+042300FM-12+166599999V0200201N001510090019N0030001N1-00201-00291999999ADDAA112004191AJ100509199999999AL10600591AY171061AY221061GA1021+003009079GA2051+009009069GA3081+024009049GF108991061071004501021999IA1239IA2999-00909KA1120N-00701MA1999999083001MD1610101+9999ME1314769MW1701UA1M999999019REMSYN142AAXX  13064 17205 11430 80203 11020 21029 38300 48476 56010 60042 77072 8672/ 333 21070 3/109 47050 55014 70036 82710 85630 88458 92415 93105;
0224172050999992000021309004+38480+042300FM-12+166599999V0200401N001010090019N0080001N1-00101-00421999999ADDAY171031AY271031GA1051+009009069GA2081+024009049GF108991051051008001021999MA1999999082901MD1810101+9999ME1314679MW1701REMSYN094AAXX  13094 17205 41558 80402 11010 21042 38290 48467 58010 77077 8552/ 333 85630 88458 92416;
0270172050999992000021312004+38480+042300FM-12+166599999V0200401N001510105019N0150001N1-00041-00361999999ADDAA106002091AL10600291AY171061AY221061GA1051+010509069GA2081+027009049GF108991051051012501021999MA1999999082701MD1810201+9999ME1314479MW1021UA1M999999019REMSYN106AAXX  13124 17205 11665 80403 11004 21036 38270 48447 58020 60021 70272 8552/ 333 85635 88459 92417 93102;
0246172050999992000021315004+38480+042300FM-12+166599999V0202701N001510090019N0030001N1-00361-00711999999ADDAY171031AY221031GA1021+003009079GA2051+009009069GA3081+027009049GF108991061071004501021999MA1999999082601MD1810101+9999ME1314399MW1701REMSYN100AAXX  13154 17205 41430 82703 11036 21071 38260 48439 58010 77072 8672/ 333 82710 85630 88459 92415;
0289172050999992000021318004+38480+042300FM-12+166599999V0202701N001510090019N0080001N1-00401-00641999999ADDAA112002091AL10600291AY171061AY271061GA1051+009009069GA2081+027009049GF108991051051008001021999KA1120M+00021MA1999999082601MD1410001+9999ME1314399MW1701UA1M999999019REMSYN112AAXX  13184 17205 11558 82703 11040 21064 38260 48439 54000 60022 77077 8552/ 333 10002 85630 88459 92416 93102;
0224172050999992000021321004+38480+042300FM-12+166599999V0202701N001010090019N0080001N1-00341-00581999999ADDAY171031AY271031GA1051+009009069GA2081+027009049GF108991051051008001021999MA1999999082601MD1410001+9999ME1314399MW1701REMSYN094AAXX  13214 17205 41558 82702 11034 21058 38260 48439 54000 77077 8552/ 333 85630 88459 92416;
0270172050999992000021400004+38480+042300FM-12+166599999V0209999C000010090019N0080001N1-00341-00581999999ADDAA106002091AL10600491AY171061AY271061GA1051+009009069GA2081+027009049GF108991051051008001021999MA1999999082601MD1410001+9999ME1314399MW1701UA1M999999019REMSYN106AAXX  14004 17205 11558 80000 11034 21058 38260 48439 54000 60021 77077 8552/ 333 85630 88459 92416 93104;
0224172050999992000021403004+38480+042300FM-12+166599999V0202701N001510090019N0080001N1-00341-00581999999ADDAY171031AY271031GA1051+009009069GA2081+027009049GF108991051051008001021999MA1999999082801MD1210201+9999ME1314589MW1221REMSYN094AAXX  14034 17205 41558 82703 11034 21058 38280 48458 52020 72277 8552/ 333 85630 88459 92416;
0348172050999992000021406004+38480+042300FM-12+166599999V0202501N001510300019N0250001N1-00261-00701999999ADDAA112003091AJ100559199999999AL10600391AY171061AY221061GA1041+012009069GA2061+030009039GF106991041051012501051001IA1239IA2999-00609KA1120N-00481MA1999999082901MD1210101+9999ME1315669MW1011UA1M999999019REMSYN136AAXX  14064 17205 11675 62503 11026 21070 38290 48566 52010 60032 70172 84550 333 21048 3/106 47055 55000 70050 84640 86360 92417 93103;
0207172050999992000021412004+38480+042300FM-12+166599999V0202701N002110300019N0250001N1-00081-00671999999ADDAA199000021GA1041+012009069GA2061+030009039GF106991041051012501051001MA1999999082941MD1110041+9999ME1315669REMSYN088AAXX  14124 17205 32675 62704 11008 21067 38294 48566 51004 84550 333 84640 86360 92417;
0196172050999992000021415004+38480+042300FM-12+166599999V0202701N001510300019N0250001N1-00081-00541999999ADDGA1041+012009069GA2061+030009039GF106991041051012501051001MA1999999083101MD1210061+9999ME1315049REMSYN088AAXX  14154 17205 42675 62703 11008 21054 38310 48504 52006 84550 333 84640 86360 92417;
0245172050999992000021418004+38480+042300FM-12+166599999V0209999C000010120019N0250001N1-00081-00541999999ADDAA199000091GA1051+012009069GA2081+027009049GF108991051051012501021999KA1120M+00261MA1999999083201MD1210201+9999ME1314959REMSYN094AAXX  14184 17205 32675 80000 11008 21054 38320 48495 52020 8552/ 333 10026 85640 88459 92417;EQDQ01  00002PRCP99
0196172050999992000021421004+38480+042300FM-12+166599999V0201301N001510120019N0250001N1-00081-00541999999ADDGA1051+012009069GA2081+027009049GF108991051051012501021999MA1999999083201MD1410001+9999ME1314959REMSYN088AAXX  14214 17205 42675 81303 11008 21054 38320 48495 54000 8552/ 333 85640 88459 92417;
0226172050999992000021500004+38480+042300FM-12+166599999V0201301N001510120019N0250001N1-00081-00671999999ADDAA199000091GA1051+012009069GA2081+027009049GF108991051051012501021999MA1999999083241MD1110041+9999ME1314959REMSYN088AAXX  15004 17205 32675 81303 11008 21067 38324 48495 51004 8552/ 333 85640 88459 92417;EQDQ01  00002PRCP99
0224172050999992000021503004+38480+042300FM-12+166599999V0201301N001510090019N0080001N1-00121-00341999999ADDAY121031AY221031GA1051+009009069GA2081+024009049GF108991051051008001021999MA1999999083241MD1410001+9999ME1314959MW1701REMSYN094AAXX  15034 17205 41558 81303 11012 21034 38324 48495 54000 77022 8552/ 333 85630 88458 92415;
0348172050999992000021506004+38480+042300FM-12+166599999V0201301N001510120019N0200001N1+00021-00591999999ADDAA112000891AJ100559199999999AL10600491AY171061AY221061GA1051+012009069GA2081+027009049GF108991051051012501021999IA1239IA2999-00409KA1120N-00301MA1999999083401MD1210161+9999ME1315139MW1221UA1M999999019REMSYN136AAXX  15064 17205 11670 81303 10002 21059 38340 48513 52016 69982 72272 8552/ 333 21030 3/104 47055 55005 70008 85640 88459 92417 93104;
0196172050999992000021509004+38480+042300FM-12+166599999V0202501N001510120019N0200001N1+00101-00681999999ADDGA1051+012009069GA2081+027009049GF108991051051012501021999MA1999999083401MD1410001+9999ME1315129REMSYN088AAXX  15094 17205 42670 82503 10010 21068 38340 48512 54000 8552/ 333 85640 88459 92417;
0207172050999992000021512004+38480+042300FM-12+166599999V0202501N001010300019N0250001N1+00101-00501999999ADDAA199000021GA1041+012009069GA2061+030009039GF106991041051012501051001MA1999999083381MD1710021+9999ME1315129REMSYN088AAXX  15124 17205 32675 62502 10010 21050 38338 48512 57002 84550 333 84640 86360 92417;
0196172050999992000021515004+38480+042300FM-12+166599999V0201601N001510300019N0250001N1+00081-00471999999ADDGA1041+012009069GA2061+030009039GF106991041051012501051001MA1999999083301MD1610081+9999ME1315039REMSYN088AAXX  15154 17205 42675 61603 10008 21047 38330 48503 56008 84550 333 84640 86360 92417;
0226172050999992000021518004+38480+042300FM-12+166599999V0209999C000010120019N0200001N1+00001-00401999999ADDAA199000021GA1051+012009069GA2081+027009049GF108991051051012501021999KA1120M+00301MA1999999083301MD1410001+9999ME1315039REMSYN094AAXX  15184 17205 32670 80000 10000 21040 38330 48503 54000 8552/ 333 10030 85640 88459 92417;
0224172050999992000021521004+38480+042300FM-12+166599999V0200401N001010090019N0080001N1+00001-00241999999ADDAY121031AY221031GA1051+009009069GA2081+024009049GF108991051051008001021999MA1999999083241MD1710061+9999ME1315349MW1701REMSYN094AAXX  15214 17205 41558 80402 10000 21024 38324 48534 57006 77022 8552/ 333 85630 88458 92415;
0270172050999992000021600004+38480+042300FM-12+166599999V0209999C000010300019N0200001N1+00041-00461999999ADDAA106000591AL10600291AY171061AY221061GA1041+012009069GA2061+030009039GF106991041051012501051001MA1999999083201MD1710041+9999ME1314949MW1221UA1M999999019REMSYN106AAXX  16004 17205 11670 60000 10004 21046 38320 48494 57004 69951 72272 84550 333 84640 86360 92417 93102;
0195172050999992000021603004+38480+042300FM-12+166599999V0209999C000010300019N0200001N1+00041-00461999999ADDGA1041+012009069GA2061+030009039GF106991041051012501051001MA1999999083101MD1610101+9999ME1314849REMSYN087AAXX  16034 17205 4267060000 10004 21046 38310 48484 56010 84550 333 84640 86360 92417;
0291172050999992000021606004+38480+042300FM-12+166599999V0209999C000010300019N0200001N1+00101-00501999999ADDAA112000591AJ100559199999999GA1041+012009069GA2061+030009039GF106991041051012501051001IA1239IA2999-00209KA1120N-00161MA1999999083101MD1410001+9999ME1314849REMSYN124AAXX  16064 17205 12670 60000 10010 21050 38310 48484 54000 69952 84550 333 21016 3/102 47055 55003 70005 84640 86360 92417;
0196172050999992000021609004+38480+042300FM-12+166599999V0201601N001010300019N0200001N1+00381-00561999999ADDGA1041+012009069GA2061+030009039GF106991041051012501051001MA1999999083001MD1810101+9999ME1314739REMSYN088AAXX  16094 17205 42670 61602 10038 21056 38300 48473 58010 84550 333 84640 86360 92417;
0207172050999992000021612004+38480+042300FM-12+166599999V0201101N001010300019N0200001N1+00421-00561999999ADDAA199000021GA1041+012009069GA2061+030009039GF106991041051012501051001MA1999999082801MD1810201+9999ME1314539REMSYN088AAXX  16124 17205 32670 61102 10042 21056 38280 48453 58020 84550 333 84640 86360 92417;
0213172050999992000021615004+38480+042300FM-12+166599999V0209999C00001004201CN0030001N1+00081-00301999999ADDAY121031AY221031GA1021+003009079GF108991061071004501021999MA1999999082801MD1410001+9999ME1314559MW1701REMSYN099AAXX  16154 17205 41430 80000 10008 21030 38280 48455 54000 77022 8672/ 333 82710 8560 88458 92415;
0311172050999992000021618004+38480+042300FM-12+166599999V0209999C000010090019N0010001N1+00001-00141999999ADDAA112004191AL10600491AY171061AY221061GA1021+003009079GA2051+009009069GA3081+024009049GF108991061071004501021999KA1120M+00521MA1999999082901MD1110101+9999ME1314659MW1701UA1M999999019REMSYN118AAXX  16184 17205 11410 80000 10000 21014 38290 48465 51010 60042 77072 8672/ 333 10052 82710 85630 88458 92413 93104;
0246172050999992000021621004+38480+042300FM-12+166599999V0209999C000010090019N0010001N1+00041-00101999999ADDAY171031AY271031GA1021+003009079GA2051+009009069GA3081+024009049GF108991061071004501021999MA1999999082901MD1410001+9999ME1314659MW1701REMSYN100AAXX  16214 17205 41410 80000 10004 21010 38290 48465 54000 77077 8672/ 333 82710 85630 88458 92413;
0246172050999992000021703004+38480+042300FM-12+166599999V0209999C000010090019N0010001N1+00001-00141999999ADDAY171031AY271031GA1021+003009079GA2051+009009069GA3081+024009049GF108991061071004501021999MA1999999082701MD1710201+9999ME1314659MW1701REMSYN100AAXX  17034 17205 41410 80000 10000 21014 38270 48465 57020 77077 8672/ 333 82710 85630 88458 92413;
0224172050999992000021709004+38480+042300FM-12+166599999V0202701N002110090019N0050001N1-00161-00401999999ADDAY171031AY271031GA1051+009009069GA2081+024009049GF108991051051008001021999MA1999999083001MD1210301+9999ME1314769MW1701REMSYN094AAXX  17094 17205 41550 82704 11016 21040 38300 48476 52030 77077 8552/ 333 85630 88458 92415;
0270172050999992000021712004+38480+042300FM-12+166599999V0202701N002110090019N0050001N1-00101-00381999999ADDAA106001091AL10600391AY171061AY271061GA1051+009009069GA2081+024009049GF108991051051008001021999MA1999999083001MD1410001+9999ME1314769MW1701UA1M999999019REMSYN106AAXX  17124 17205 11550 82704 11010 21038 38300 48476 54000 60011 77077 8552/ 333 85630 88458 92415 93103;
0202172050999992000021715004+38480+042300FM-12+166599999V0202701N001512200019N0150001N1-00181-00691999999ADDAY171031AY271031GA1031+012009069GF103991031051012501001001MA1999999083101MD1210101+9999ME1314859MW1011REMSYN088AAXX  17154 17205 41665 32703 11018 21069 38310 48485 52010 70177 83500 333 83640 92417;
0289172050999992000021718004+38480+042300FM-12+166599999V0209999C000010300019N0200001N1-00341-00641999999ADDAA112002091AL10600191AY171061AY221061GA1041+012009069GA2061+030009039GF106991041051012501051001KA1120M+00121MA1999999083301MD1210201+9999ME1315069MW1021UA1M999999019REMSYN112AAXX  17184 17205 11670 60000 11034 21064 38330 48506 52020 60022 70272 84550 333 10012 84640 86360 92417 93101;
0174172050999992000021721004+38480+042300FM-12+166599999V0202701N001512200019N0200001N1-00341-00641999999ADDGA1021+012009069GF102991021051012501001001MA1999999083401MD1210101+9999ME1315159REMSYN082AAXX  17214 17205 42670 22703 11034 21064 38340 48515 52010 82500 333 82640 92417;
0185172050999992000021800004+38480+042300FM-12+166599999V0202701N001012200019N0250001N1-00341-00641999999ADDAA199000021GA1031+012009069GF103991031051012501001001MA1999999083401MD1410001+9999ME1315159REMSYN082AAXX  18004 17205 32675 32702 11034 21064 38340 48515 54000 83500 333 83640 92417;
0196172050999992000021803004+38480+042300FM-12+166599999V0209999C000010300019N0250001N1-00401-00821999999ADDGA1041+012009069GA2061+030009039GF106991041051012501051001MA1999999083481MD1110081+9999ME1315259REMSYN088AAXX  18034 17205 42675 60000 11040 21082 38348 48525 51008 84550 333 84640 86360 92417;
0285172050999992000021806004+38480+042300FM-12+166599999V0209999C000010300019N0250001N1-00301-00701999999ADDAA124001591AJ100609199999999GA1041+012009069GA2061+030009039GF106991041051012501051001IA1239IA2999-00709KA1120N-00561MA1999999083501MD1110021+9999ME1315259REMSYN118AAXX  18064 17205 32675 60000 11030 21070 38350 48525 51002 84550 333 21056 3/107 47060 55000 70016 84640 86360 92417;
0196172050999992000021809004+38480+042300FM-12+166599999V0202701N001010300019N0250001N1+00001-00681999999ADDGA1041+012009069GA2061+030009039GF106991041051012501051001MA1999999083601MD1210101+9999ME1315329REMSYN088AAXX  18094 17205 42675 62702 10000 21068 38360 48532 52010 84550 333 84640 86360 92417;
0226172050999992000021812004+38480+042300FM-12+166599999V0202701N001510300019N0250001N1+00061-00801999999ADDAA199000091GA1041+012009069GA2061+030009039GF106991041051012501051001MA1999999083541MD1710061+9999ME1315239REMSYN088AAXX  18124 17205 32675 62703 10006 21080 38354 48523 57006 84550 333 84640 86360 92417;EQDQ01  00002PRCP99
0174172050999992000021815004+38480+042300FM-12+166599999V0209999C000012200019N0250001N1-00241-00921999999ADDGA1031+012009069GF103991031051012501001001MA1999999083541MD1410001+9999ME1315249REMSYN082AAXX  18154 17205 42675 30000 11024 21092 38354 48524 54000 83500 333 83640 92417;
0223172050999992000021818004+38480+042300FM-12+166599999V0209999C000012200019N0250001N1-00521-00901999999ADDAA199000091GA1021+012009069GF102991021051012501001001KA1120M+00181MA1999999083601MD1110061+9999ME1315359REMSYN088AAXX  18184 17205 32675 20000 11052 21090 38360 48535 51006 82500 333 10018 82640 92417;EQDQ01  00002PRCP99
0150172050999992000021821004+38480+042300FM-12+166599999V0209999C000012200019N0250001N1-00601-00941999999ADDGA1021+012009069GF102991999999012501999999MA1999999083601REMSYN081AAXX  18214 17205 42675 20000 11060 21094 38360 4853 54000 82500 333 82640 92417;
0204172050999992000021900004+38480+042300FM-12+166599999V0209999C000012200019N0200001N1-00641-00751999999ADDAA199000091GA1021+012009069GF102991021051012501001001MA1999999083601MD1410001+9999ME1315359REMSYN082AAXX  19004 17205 32670 20000 11064 21075 38360 48535 54000 82500 333 82640 92417;EQDQ01  00002PRCP99
0196172050999992000021903004+38480+042300FM-12+166599999V0209999C000010300019N0200001N1-00461-00601999999ADDGA1041+012009069GA2061+030009039GF106991041051012501051001MA1999999083501MD1610101+9999ME1315259REMSYN088AAXX  19034 17205 42670 60000 11046 21060 38350 48525 56010 84550 333 84640 86360 92417;
0162172050999992000021909004+38480+042300FM-12+166599999V0202701N001012200019N0300001N1-00041-00621999999ADDGA1001+999999999GF100991001001999999001001MA1999999083401MD1410001+9999ME1315139REMSYN070AAXX  19094 17205 42980 02702 11004 21062 38340 48513 54000 333 10246;
0204172050999992000021912004+38480+042300FM-12+166599999V0202701N001012200019N0300001N1+00141-00481999999ADDAA199000091GA1021+012009069GF102991021051012501001001MA1999999083301MD1810101+9999ME1315029REMSYN082AAXX  19124 17205 32680 22702 10014 21048 38330 48502 58010 82500 333 82640 92418;EQDQ01  00002PRCP99
0196172050999992000021915004+38480+042300FM-12+166599999V0209999C000010300019N0300001N1+00001-00491999999ADDGA1041+012009069GA2061+030009039GF106991041051012501051001MA1999999083101MD1810201+9999ME1314859REMSYN088AAXX  19154 17205 42680 60000 10000 21049 38310 48485 58020 84550 333 84640 86360 92418;
0289172050999992000021918004+38480+042300FM-12+166599999V0209999C000010075019N0050001N1-00081-00341999999ADDAA112000591AL10600191AY171061AY221061GA1051+007509069GA2081+024009049GF108991051051008001021999KA1120M+00221MA1999999083001MD1710101+9999ME1314769MW1701UA1M999999019REMSYN112AAXX  19184 17205 11550 80000 11008 21034 38300 48476 57010 69962 77072 8552/ 333 10022 85625 88458 92415 93101;
0224172050999992000021921004+38480+042300FM-12+166599999V0209999C000010075019N0050001N1-00081-00231999999ADDAY171031AY271031GA1051+007509069GA2081+024009049GF108991051051008001021999MA1999999082801MD1710201+9999ME1314559MW1701REMSYN094AAXX  19214 17205 41550 80000 11008 21023 38280 48455 57020 77077 8552/ 333 85625 88458 92415;
0270172050999992000022000004+38480+042300FM-12+166599999V0202001N001510075019N0020001N1+00001-00161999999ADDAA106004191AL10600591AY171061AY271061GA1051+007509069GA2081+024009049GF108991051051008001021999MA1999999082701MD1610101+9999ME1314459MW1701UA1M999999019REMSYN106AAXX  20004 17205 11520 82003 10000 21016 38270 48445 56010 60041 77077 8552/ 333 85625 88458 92414 93105;
0224172050999992000022003004+38480+042300FM-12+166599999V0202701N001510075019N0020001N1-00141-00311999999ADDAY171031AY271031GA1051+007509069GA2081+024009049GF108991051051008001021999MA1999999082701MD1410001+9999ME1314479MW1701REMSYN094AAXX  20034 17205 41520 82703 11014 21031 38270 48447 54000 77077 8552/ 333 85625 88458 92415;
0348172050999992000022006004+38480+042300FM-12+166599999V0202701N001510105019N0150001N1-00121-00391999999ADDAA112005191AJ100609199999999AL10600591AY171061AY271061GA1051+010509069GA2081+024009049GF108991051051012501021999IA1239IA2999-00409KA1120N-00201MA1999999082901MD1210201+9999ME1314669MW1221UA1M999999019REMSYN136AAXX  20064 17205 11665 82703 11012 21039 38290 48466 52020 60052 72277 8552/ 333 21020 3/104 47060 55026 70060 85635 88458 92417 93105;
0196172050999992000022009004+38480+042300FM-12+166599999V0202501N002110300019N0200001N1-00101-00481999999ADDGA1041+012009069GA2061+030009039GF106991041051012501051001MA1999999083001MD1210101+9999ME1314769REMSYN088AAXX  20094 17205 42670 62504 11010 21048 38300 48476 52010 84550 333 84640 86360 92417;
0119172050999992000022015004+38480+042300FM-12+166599999V0202701N002112200019N0250001N1+99999+99999999999ADDGF103991999999012501999999REMSYN081AAXX  20154 17205 42675 32704 1124 21062 38330 48505 52020 83500 333 83640 92417;
0192172050999992000022018004+38480+042300FM-12+166599999V0202701N002112200019N0250001N1-00401-00731999999ADDAA199000021GA1001+999999999GF100991001001999999001001KA1120M+00161MA1999999083401MD1110101+9999ME1315159REMSYN076AAXX  20184 17205 32975 02704 11040 21073 38340 48515 51010 333 10016 92417;
0162172050999992000022021004+38480+042300FM-12+166599999V0202701N001012200019N0250001N1-00401-00731999999ADDGA1001+999999999GF100991001001999999001001MA1999999083401MD1410001+9999ME1315159REMSYN070AAXX  20214 17205 42975 02702 11040 21073 38340 48515 54000 333 10238;
0192172050999992000022100004+38480+042300FM-12+166599999V0209999C000012200019N0300001N1-00701-01061999999ADDAA199000091GA1001+999999999GF100991001001999999001001MA1999999083501MD1210101+9999ME1315279REMSYN070AAXX  21004 17205 32980 00000 11070 21106 38350 48527 52010 333 10266;EQDQ01  00002PRCP99
0162172050999992000022103004+38480+042300FM-12+166599999V0209999C000012200019N0300001N1-00841-01021999999ADDGA1001+999999999GF100991001001999999001001MA1999999083501MD1410001+9999ME1315279REMSYN070AAXX  21034 17205 42980 00000 11084 21102 38350 48527 54000 333 10274;
0276172050999992000022106004+38480+042300FM-12+166599999V0209999C000012200019N0300001N1-00681-00821999999ADDAA199000091AJ100579199999999GA1021+012009069GF102991021051012501001001IA1239IA2999-01209KA1120N-00961MA1999999083501MD1410001+9999ME1315279REMSYN106AAXX  21064 17205 32680 20000 11068 21082 38350 48527 54000 82500 333 21096 3/112 47057 55024 82640 92417;EQDQ01  00002PRCP99
0174172050999992000022109004+38480+042300FM-12+166599999V0200401N001012200019N0300001N1+00101-00561999999ADDGA1021+012009069GF102991021051012501001001MA1999999083501MD1410001+9999ME1315239REMSYN082AAXX  21094 17205 42680 20402 10010 21056 38350 48523 54000 82500 333 82640 92418;
0204172050999992000022112004+38480+042300FM-12+166599999V0200401N001012200019N0300001N1+00101-00481999999ADDAA199000091GA1021+012009069GF102991021051012501001001MA1999999083401MD1410001+9999ME1315129REMSYN082AAXX  21124 17205 32680 20402 10010 21048 38340 48512 54000 82500 333 82640 92418;EQDQ01  00002PRCP99
0162172050999992000022115004+38480+042300FM-12+166599999V0202501N001012200019N0300001N1-00101-00671999999ADDGA1001+999999999GF100991001001999999001001MA1999999083301MD1710101+9999ME1315059REMSYN070AAXX  21154 17205 42980 02502 11010 21067 38330 48505 57010 333 10250;
0211172050999992000022118004+38480+042300FM-12+166599999V0209999C000012200019N0300001N1-00401-00761999999ADDAA199000091GA1001+999999999GF100991001001999999001001KA1120M+00201MA1999999083401MD1210101+9999ME1315159REMSYN076AAXX  21184 17205 32980 00000 11040 21076 38340 48515 52010 333 10020 92418;EQDQ01  00002PRCP99
0162172050999992000022121004+38480+042300FM-12+166599999V0202501N001012200019N0300001N1-00221-00651999999ADDGA1001+999999999GF100991001001999999001001MA1999999083401MD1410001+9999ME1315149REMSYN070AAXX  21214 17205 42980 02502 11022 21065 38340 48514 54000 333 10230;
0192172050999992000022200004+38480+042300FM-12+166599999V0209999C000012200019N0300001N1-00481-00731999999ADDAA199000091GA1001+999999999GF100991001001999999001001MA1999999083341MD1710061+9999ME1315069REMSYN070AAXX  22004 17205 32980 00000 11048 21073 38334 48506 57006 333 10231;EQDQ01  00002PRCP99
0162172050999992000022203004+38480+042300FM-12+166599999V0209999C000012200019N0300001N1-00701-00861999999ADDGA1001+999999999GF100991001001999999001001MA1999999083301MD1610041+9999ME1315089REMSYN070AAXX  22034 17205 42980 00000 11070 21086 38330 48508 56004 333 10241;
0264172050999992000022206004+38480+042300FM-12+166599999V0209999C000012200019N0300001N1-00601-00681999999ADDAA199000091AJ100549199999999GA1001+999999999GF100991001001999999001001IA1239IA2999-01109KA1120N-00901MA1999999083301MD1410001+9999ME1315069REMSYN094AAXX  22064 17205 32980 00000 11060 21068 38330 48506 54000 333 21090 3/111 47054 55030 92418;EQDQ01  00002PRCP99
0226172050999992000022212004+38480+042300FM-12+166599999V0200401N001010300019N0300001N1+00141-00441999999ADDAA199000091GA1041+012009069GA2061+030009039GF106991041051012501051001MA1999999083101MD1810201+9999ME1314859REMSYN088AAXX  22124 17205 32680 60402 10014 21044 38310 48485 58020 84550 333 84640 86360 92418;EQDQ01  00002PRCP99
0196172050999992000022215004+38480+042300FM-12+166599999V0200401N001010120019N0300001N1+00041-00461999999ADDGA1051+012009069GA2071+030009039GF107991051051012501071001MA1999999083001MD1710101+9999ME1314749REMSYN088AAXX  22154 17205 42680 70402 10004 21046 38300 48474 57010 85570 333 85640 87360 92417;
0245172050999992000022218004+38480+042300FM-12+166599999V0209999C000010120019N0300001N1-00101-00431999999ADDAA199000091GA1051+012009069GA2071+030009039GF107991051051012501071001KA1120M+00281MA1999999083001MD1410001+9999ME1314769REMSYN094AAXX  22184 17205 32680 70000 11010 21043 38300 48476 54000 85570 333 10028 85640 87360 92417;EQDQ01  00002PRCP99
0196172050999992000022221004+38480+042300FM-12+166599999V0209999C000010120019N0300001N1-00101-00431999999ADDGA1051+012009069GA2071+030009039GF107991051051012501071001MA1999999083001MD1410001+9999ME1314769REMSYN088AAXX  22214 17205 42680 70000 11010 21043 38300 48476 54000 85570 333 85640 87360 92417;
0226172050999992000022300004+38480+042300FM-12+166599999V0202001N001510120019N0250001N1+00101-00481999999ADDAA199000091GA1051+012009069GA2071+030009039GF107991051051012501071001MA1999999082801MD1710201+9999ME1314539REMSYN088AAXX  23004 17205 32675 72003 10010 21048 38280 48453 57020 85570 333 85640 87360 92417;EQDQ01  00002PRCP99
0224172050999992000022303004+38480+042300FM-12+166599999V0201601N003110090019N0100001N1+00001-00371999999ADDAY121031AY221031GA1051+009009069GA2081+024009049GF108991051051008001021999MA1999999082701MD1710101+9999ME1314459MW1701REMSYN094AAXX  23034 17205 41560 81606 10000 21037 38270 48445 57010 77022 8552/ 333 85630 88458 92426;
0246172050999992000022309004+38480+042300FM-12+166599999V0202001N001010090019N0020001N1+00001-00191999999ADDAY171031AY271031GA1021+004509079GA2051+009009069GA3081+024009049GF108991061071004501021999MA1999999082801MD1210161+9999ME1314559MW1701REMSYN100AAXX  23094 17205 41420 82002 10000 21019 38280 48455 52016 77077 8672/ 333 82715 85630 88458 92413;
0246172050999992000022315004+38480+042300FM-12+166599999V0202001N001010075019N0010001N1+00101-00131999999ADDAY171031AY271031GA1021+004509079GA2051+007509069GA3081+024009049GF108991061071004501021999MA1999999082801MD1410001+9999ME1314539MW1701REMSYN100AAXX  23154 17205 41410 82002 10010 21013 38280 48453 54000 77077 8672/ 333 82715 85625 88458 92413;
0311172050999992000022318004+38480+042300FM-12+166599999V0203601N001510075019N0020001N1+00001-00191999999ADDAA112008991AL10600791AY171061AY271061GA1021+004509079GA2051+007509069GA3081+024009049GF108991061071004501021999KA1120M+00221MA1999999083001MD1210201+9999ME1314749MW1701UA1M999999019REMSYN118AAXX  23184 17205 11420 83603 10000 21019 38300 48474 52020 60092 77077 8672/ 333 10022 82715 85625 88458 92414 93107;
0270172050999992000022400004+38480+042300FM-12+166599999V0209999C000010075019N0050001N1+00001-00371999999ADDAA106002091AL10600591AY171061AY271061GA1051+007509069GA2081+024009049GF108991051051008001021999MA1999999083101MD1410001+9999ME1314849MW1701UA1M999999019REMSYN106AAXX  24004 17205 11550 80000 10000 21037 38310 48484 54000 60021 77077 8552/ 333 85625 88458 92415 93105;
0224172050999992000022403004+38480+042300FM-12+166599999V0203601N001010300019N0150001N1+00001-00371999999ADDAY171031AY271031GA1041+012009069GA2061+030009039GF106991041051012501051001MA1999999083101MD1410001+9999ME1314849MW1221REMSYN094AAXX  24034 17205 41665 63602 10000 21037 38310 48484 54000 72277 84550 333 84640 86360 92416;
0348172050999992000022406004+38480+042300FM-12+166599999V0202001N001510300019N0200001N1+00201-00441999999ADDAA112003091AJ100569199999999AL10600391AY171061AY221061GA1041+012009069GA2061+030009039GF106991041051012501051001IA1239IA2999-00309KA1120N-00201MA1999999083201MD1210101+9999ME1314929MW1021UA1M999999019REMSYN136AAXX  24064 17205 11670 62003 10020 21044 38320 48492 52010 60032 70272 84550 333 21020 3/103 47056 55000 70118 84640 86360 92417 93103;
0207172050999992000022412004+38480+042300FM-12+166599999V0202501N002110300019N0200001N1+00301-00421999999ADDAA199000021GA1041+012009069GA2061+030009039GF106991041051012501051001MA1999999083301MD1410001+9999ME1315029REMSYN088AAXX  24124 17205 32670 62504 10030 21042 38330 48502 54000 84550 333 84640 86360 92417;
0196172050999992000022415004+38480+042300FM-12+166599999V0202701N001010300019N0200001N1+00201-00381999999ADDGA1041+012009069GA2061+030009039GF106991041051012501051001MA1999999083301MD1410001+9999ME1315029REMSYN088AAXX  24154 17205 42670 62702 10020 21038 38330 48502 54000 84550 333 84640 86360 92417;
0245172050999992000022418004+38480+042300FM-12+166599999V0209999C000010300019N0200001N1+00101-00391999999ADDAA199000091GA1041+012009069GA2061+030009039GF106991041051012501051001KA1120M+00501MA1999999083301MD1410001+9999ME1315029REMSYN094AAXX  24184 17205 32670 60000 10010 21039 38330 48502 54000 84550 333 10050 84640 86360 92417;EQDQ01  00002PRCP99
0196172050999992000022421004+38480+042300FM-12+166599999V0202201N001010300019N0200001N1+00001-00241999999ADDGA1041+012009069GA2061+030009039GF106991041051012501051001MA1999999083301MD1410001+9999ME1315039REMSYN088AAXX  24214 17205 42670 62202 10000 21024 38330 48503 54000 84550 333 84640 86360 92417;
0196172050999992000022503004+38480+042300FM-12+166599999V0209999C000010300019N0200001N1+00001-00121999999ADDGA1041+012009069GA2061+030009039GF106991041051012501051001MA1999999083101MD1710101+9999ME1315049REMSYN088AAXX  25034 17205 42670 60000 10000 21012 38310 48504 57010 84550 333 84640 86360 92417;
0348172050999992000022506004+38480+042300FM-12+166599999V0209999C000010090019N0060001N1-00041-00121999999ADDAA112002091AJ100589199999999AL10600591AY121061AY221061GA1051+009009069GA2081+024009049GF108991051051008001021999IA1239IA2999-00309KA1120N-00201MA1999999083101MD1410001+9999ME1315049MW1701UA1M999999019REMSYN136AAXX  25064 17205 11556 80000 11004 21012 38310 48504 54000 60022 77022 8552/ 333 21020 3/103 47058 50012 70016 85630 88458 92416 93105;
0224172050999992000022509004+38480+042300FM-12+166599999V0209999C000010090019N0060001N1+00101-00121999999ADDAY171031AY271031GA1051+009009069GA2081+024009049GF108991051051008001021999MA1999999083001MD1810101+9999ME1314759MW1701REMSYN094AAXX  25094 17205 41556 80000 10010 21012 38300 48475 58010 77077 8552/ 333 85630 88458 92416;
0270172050999992000022512004+38480+042300FM-12+166599999V0209999C000010270019N0200001N1+00221-00471999999ADDAA106001091AL10600391AY171061AY221061GA1041+010509069GA2061+027009039GF106991041051012501051001MA1999999082901MD1810101+9999ME1314659MW1011UA1M999999019REMSYN106AAXX  25124 17205 11670 60000 10022 21047 38290 48465 58010 60011 70172 84550 333 84635 86359 92417 93103;
0196172050999992000022515004+38480+042300FM-12+166599999V0202501N001510270019N0200001N1+00021-00661999999ADDGA1041+012009069GA2061+027009039GF106991041051012501051001MA1999999082901MD1410001+9999ME1314659REMSYN088AAXX  25154 17205 42670 62503 10002 21066 38290 48465 54000 84550 333 84640 86359 92417;
0210172050999992000022518004+38480+042300FM-12+166599999V0202701N001512200019N0200001N1-00201-00481999999ADDAA112001091GA1041+012009069GF104991041051012501001001KA1120M+00381MA1999999083001MD1110101+9999ME1314769REMSYN094AAXX  25184 17205 12670 42703 11020 21048 38300 48476 51010 60012 84500 333 10038 84640 92417;
0196172050999992000022521004+38480+042300FM-12+166599999V0202701N001510105019N0200001N1-00161-00431999999ADDGA1051+010509069GA2081+027009049GF108991051051012501021999MA1999999083001MD1410001+9999ME1314769REMSYN088AAXX  25214 17205 42670 82703 11016 21043 38300 48476 54000 8552/ 333 85635 88459 92417;
0270172050999992000022600004+38480+042300FM-12+166599999V0202701N001510090019N0060001N1-00161-00431999999ADDAA106000191AL10600091AY121061AY221061GA1051+009009069GA2081+024009049GF108991051051008001021999MA1999999083001MD1410001+9999ME1314769MW1701UA1M999999019REMSYN106AAXX  26004 17205 11556 82703 11016 21043 38300 48476 54000 69921 77022 8552/ 333 85630 88458 92416 93100;
0224172050999992000022603004+38480+042300FM-12+166599999V0202701N002110090019N0060001N1-00241-00371999999ADDAY171031AY221031GA1051+009009069GA2081+024009049GF108991051051008001021999MA1999999083001MD1410001+9999ME1314769MW1701REMSYN094AAXX  26034 17205 41556 82704 11024 21037 38300 48476 54000 77072 8552/ 333 85630 88458 92426;
0348172050999992000022606004+38480+042300FM-12+166599999V0202701N002110300019N0200001N1-00241-00471999999ADDAA112001091AJ100549199999999AL10600291AY171061AY271061GA1041+012009069GA2061+030009039GF106991041051012501051001IA1239IA2999-00509KA1120N-00401MA1999999083001MD1410001+9999ME1314769MW1221UA1M999999019REMSYN136AAXX  26064 17205 11670 62704 11024 21047 38300 48476 54000 60012 72277 84550 333 21040 3/105 47054 55004 70022 84640 86360 92417 93102;
0196172050999992000022609004+38480+042300FM-12+166599999V0202701N002610300019N0200001N1-00121-00451999999ADDGA1041+012009069GA2061+030009039GF106991041051012501051001MA1999999083001MD1410001+9999ME1314769REMSYN088AAXX  26094 17205 42670 62705 11012 21045 38300 48476 54000 84550 333 84640 86360 92427;
0207172050999992000022612004+38480+042300FM-12+166599999V0202701N002110300019N0250001N1+00001-00531999999ADDAA199000021GA1041+012009069GA2061+030009039GF106991041051012501051001MA1999999083101MD1110101+9999ME1314849REMSYN088AAXX  26124 17205 32675 62704 10000 21053 38310 48484 51010 84550 333 84640 86360 92417;
0174172050999992000022615004+38480+042300FM-12+166599999V0202501N002112200019N0250001N1-00101-00561999999ADDGA1041+012009069GF104991041051012501001001MA1999999083101MD1410001+9999ME1314859REMSYN082AAXX  26154 17205 42675 42504 11010 21056 38310 48485 54000 84500 333 84640 92417;
0192172050999992000022618004+38480+042300FM-12+166599999V0202501N002112200019N0250001N1-00121-00761999999ADDAA199000021GA1001+999999999GF100991001001999999001001KA1120M+00161MA1999999083101MD1410001+9999ME1314859REMSYN076AAXX  26184 17205 32975 02504 11012 21076 38310 48485 54000 333 10016 92417;
0123172050999992000022621004+38480+042300FM-12+166599999V0202001N001012200019N0250001N1-00121+99999999999ADDGA1001+999999999GF100991001001999999001001REMSYN069AAXX  26214 17205 42975 02002 11012 2176 38310 48485 54000 333 10193;
0196172050999992000022703004+38480+042300FM-12+166599999V0202701N002110300019N0250001N1-00301-00811999999ADDGA1041+012009069GA2061+030009039GF106991041051012501051001MA1999999083001MD1410001+9999ME1314769REMSYN088AAXX  27034 17205 42675 62704 11030 21081 38300 48476 54000 84550 333 84640 86360 92417;
0298172050999992000022706004+38480+042300FM-12+166599999V0202501N001510300019N0250001N1-00281-00911999999ADDAA199000091AJ100529199999999GA1041+012009069GA2061+030009039GF106991041051012501051001IA1239IA2999-00609KA1120N-00461MA1999999083001MD1410001+9999ME1314769REMSYN112AAXX  27064 17205 32675 62503 11028 21091 38300 48476 54000 84550 333 21046 3/106 47052 55024 84640 86360 92417;EQDQ01  00002PRCP99
0196172050999992000022709004+38480+042300FM-12+166599999V0201601N001510300019N0200001N1-00161-00691999999ADDGA1041+012009069GA2061+030009039GF106991041051012501051001MA1999999083001MD1410001+9999ME1314769REMSYN088AAXX  27094 17205 42670 61603 11016 21069 38300 48476 54000 84550 333 84640 86360 92417;
0270172050999992000022712004+38480+042300FM-12+166599999V0202501N003610090019N0060001N1-00481-00631999999ADDAA106000891AL10600291AY171061AY271061GA1051+009009069GA2081+024009049GF108991051051008001021999MA1999999082901MD1710101+9999ME1314699MW1701UA1M999999029REMSYN106AAXX  27124 17205 11556 82507 11048 21063 38290 48469 57010 69981 77077 8552/ 333 85630 88458 92423 93102;
0224172050999992000022715004+38480+042300FM-12+166599999V0202501N002110090019N0060001N1-00581-00681999999ADDAY171031AY271031GA1051+009009069GA2081+024009049GF108991051051008001021999MA1999999082901MD1410001+9999ME1314699MW1701REMSYN094AAXX  27154 17205 41556 82504 11058 21068 38290 48469 54000 77077 8552/ 333 85630 88458 92423;
0289172050999992000022718004+38480+042300FM-12+166599999V0202501N002610120019N0150001N1-00681-00791999999ADDAA112002091AL10600391AY171061AY271061GA1051+012009069GA2081+027009049GF108991051051012501021999KA1120M+00001MA1999999083311MD1210201+9999ME1314889MW1221UA1M999999029REMSYN112AAXX  27184 17205 11665 82505 11068 21079 38331 48488 52020 60022 72277 8552/ 333 10000 85640 88459 92425 93103;
0196172050999992000022721004+38480+042300FM-12+166599999V0209999C000010300019N0200001N1-00701-00981999999ADDGA1041+012009069GA2061+030009039GF106991041051012501051001MA1999999083201MD1210101+9999ME1314999REMSYN088AAXX  27214 17205 42670 60000 11070 21098 38320 48499 52010 84550 333 84640 86360 92416;
0204172050999992000022800004+38480+042300FM-12+166599999V0203401N002112200019N0250001N1-00801-01331999999ADDAA199000021GA1041+012009069GF199999031051012501001001MA1999999083241MD1110041+9999ME1314999REMSYN082AAXX  28004 17205 32675 33404 11080 21133 38324 48499 51004 83500 333 84640 92416;EQDQ01+000032SCOTCV
0174172050999992000022803004+38480+042300FM-12+166599999V0203401N002612200019N0250001N1-00801-01501999999ADDGA1031+012009069GF103991031051012501001001MA1999999083301MD1210061+9999ME1315089REMSYN082AAXX  28034 17205 42675 33405 11080 21150 38330 48508 52006 83500 333 83640 92417;
0348172050999992000022806004+38480+042300FM-12+166599999V0203401N001510090019N0080001N1-00741-01661999999ADDAA112000191AJ100559199999999AL10600091AY111061AY211061GA1051+009009069GA2081+027009049GF108991051051008001021999IA1239IA2999-01009KA1120N-00961MA1999999083401MD1210101+9999ME1315079MW1701UA1M999999019REMSYN136AAXX  28064 17205 11558 83403 11074 21166 38340 48507 52010 69922 77011 8552/ 333 21096 3/110 47055 55000 70018 85630 88459 92416 93100;
0196172050999992000022809004+38480+042300FM-12+166599999V0200201N001510300019N0200001N1-00461-01501999999ADDGA1031+012009069GA2051+030009039GF105991031051012501051001MA1999999083501MD1110101+9999ME1315269REMSYN088AAXX  28094 17205 42670 50203 11046 21150 38350 48526 51010 83550 333 83640 85360 92418;
0248172050999992000022812004+38480+042300FM-12+166599999V0200201N001012200019N0300001N1-00441-01481999999ADDAA106000191AL10600091AY171061AY221061GA1031+012009069GF103991031051012501001001MA1999999083601MD1310101+9999ME1315359MW1011UA1M999999019REMSYN100AAXX  28124 17205 11680 30202 11044 21148 38360 48535 53010 69921 70172 83500 333 83640 92418 93100;
0196172050999992000022815004+38480+042300FM-12+166599999V0200201N001510300019N0300001N1-00541-01561999999ADDGA1031+012009069GA2051+030009039GF105991031051012501051001MA1999999083601MD1410001+9999ME1315359REMSYN088AAXX  28154 17205 42680 50203 11054 21156 38360 48535 54000 83550 333 83640 85360 92418;
0196172050999992000022821004+38480+042300FM-12+166599999V0200201N001510120019N0200001N1-00601-01671999999ADDGA1051+012009069GA2081+030009049GF108991051051012501021999MA1999999083701MD1410001+9999ME1315459REMSYN088AAXX  28214 17205 42670 80203 11060 21167 38370 48545 54000 8552/ 333 85640 88460 92417;
0224172050999992000022903004+38480+042300FM-12+166599999V0209999C000010090019N0050001N1-00701-00841999999ADDAY171031AY221031GA1051+009009069GA2081+027009049GF108991051051008001021999MA1999999083801MD1410001+9999ME1315559MW1701REMSYN094AAXX  29034 17205 41550 80000 11070 21084 38380 48555 54000 77072 8552/ 333 85630 88459 92416;
0348172050999992000022906004+38480+042300FM-12+166599999V0209999C000010105019N0150001N1-00801-00981999999ADDAA112003091AJ100589199999999AL10600491AY171061AY271061GA1051+010509069GA2081+027009049GF108991051051012501021999IA1239IA2999-01009KA1120N-00861MA1999999083801MD1410001+9999ME1315559MW1221UA1M999999019REMSYN136AAXX  29064 17205 11665 80000 11080 21098 38380 48555 54000 60032 72277 8552/ 333 21086 3/110 47058 55022 70030 85635 88459 92417 93104;
0174172050999992000022909004+38480+042300FM-12+166599999V0202701N001012200019N0300001N1-00201-00821999999ADDGA1031+012009069GF103991031051012501001001MA1999999083901MD1210101+9999ME1315629REMSYN082AAXX  29094 17205 42680 32702 11020 21082 38390 48562 52010 83500 333 83640 92418;
0207172050999992000022912004+38480+042300FM-12+166599999V0203401N001010300019N0300001N1-00201-00831999999ADDAA199000021GA1041+012009069GA2061+030009039GF106991041051012501051001MA1999999083801MD1610101+9999ME1315529REMSYN088AAXX  29124 17205 32680 63402 11020 21083 38380 48552 56010 84550 333 84640 86360 92418;
0196172050999992000022915004+38480+042300FM-12+166599999V0209999C000012200019N0300001N1-00301-00971999999ADDGA1021+012009069GA2041+030009039GF104991021051012501051001MA1999999083701MD1810101+9999ME1315449REMSYN088AAXX  29154 17205 42680 40000 11030 21097 38370 48544 58010 82550 333 82640 84360 92418;
0192172050999992000022918004+38480+042300FM-12+166599999V0209999C000012200019N0300001N1-00601-01001999999ADDAA199000021GA1001+999999999GF100991001001999999001001KA1120M+00001MA1999999083701MD1410001+9999ME1315459REMSYN076AAXX  29184 17205 32980 00000 11060 21100 38370 48545 54000 333 10000 92418;
0162172050999992000022921004+38480+042300FM-12+166599999V0209999C000012200019N0300001N1-00801-00981999999ADDGA1001+999999999GF100991001001999999001001MA1999999083701MD1410001+9999ME1315469REMSYN070AAXX  29214 17205 42980 00000 11080 21098 38370 48546 54000 333 10299;
0192172050999992000030100004+38480+042300FM-12+166599999V0209999C000012200019N0300001N1-00901-01091999999ADDAA199000091GA1001+999999999GF100991001001999999001001MA1999999083601MD1710101+9999ME1315379REMSYN070AAXX  01004 17205 32980 00000 11090 21109 38360 48537 57010 333 10295;EQDQ01  00002PRCP99
0162172050999992000030103004+38480+042300FM-12+166599999V0209999C000012200019N0300001N1-00901-00991999999ADDGA1001+999999999GF100991001001999999001001MA1999999083601MD1410001+9999ME1315379REMSYN070AAXX  01034 17205 42980 00000 11090 21099 38360 48537 54000 333 10295;
0298172050999992000030106004+38480+042300FM-12+166599999V0209999C000010300019N0250001N1-00701-00761999999ADDAA199000091AJ100559199999999GA1041+012009069GA2061+030009039GF106991041051012501051001IA1239IA2999-01209KA1120N-01101MA1999999083501MD1610101+9999ME1315279REMSYN112AAXX  01064 17205 32675 60000 11070 21076 38350 48527 56010 84550 333 21110 3/112 47055 55029 84640 86360 92417;EQDQ01  00002PRCP99
0195172050999992000030109004+38480+042300FM-12+166599999V0200201N00151030001CN0250001N1-00121-00641999999ADDGA1041+012009069GA2061+030009039GF106991999999012501999999MA1999999083401MD1710101+9999ME1315149REMSYN087AAXX  01094 17205 42675 60203 11012 21064 38340 48514 57010 8450 333 84640 86360 92417;
0226172050999992000030112004+38480+042300FM-12+166599999V0200701N001010300019N0250001N1-00101-00701999999ADDAA199000091GA1041+012009069GA2061+030009039GF106991041051012501051001MA1999999083201MD1610101+9999ME1314959REMSYN088AAXX  01124 17205 32675 60702 11010 21070 38320 48495 56010 84550 333 84640 86360 92718;EQDQ01  00002PRCP99
0196172050999992000030115004+38480+042300FM-12+166599999V0209999C000010300019N0250001N1-00201-00871999999ADDGA1041+012009069GA2061+030009039GF106991041051012501051001MA1999999083001MD1610201+9999ME1314769REMSYN088AAXX  01154 17205 42675 60000 11020 21087 38300 48476 56020 84550 333 84640 86360 92417;
0223172050999992000030118004+38480+042300FM-12+166599999V0209999C000012200019N0250001N1-00361-00851999999ADDAA199000091GA1031+012009069GF103991031051012501001001KA1120M+00061MA1999999082901MD1710101+9999ME1314689REMSYN088AAXX  01184 17205 32675 30000 11036 21085 38290 48468 57010 83500 333 10006 83640 92417;EQDQ01  00002PRCP99
0174172050999992000030121004+38480+042300FM-12+166599999V0209999C000012200019N0250001N1-00621-01021999999ADDGA1031+012009069GF103991031051012501001001MA1999999082801MD1610101+9999ME1314609REMSYN082AAXX  01214 17205 42675 30000 11062 21102 38280 48460 56010 83500 333 83640 92417;
0174172050999992000030203004+38480+042300FM-12+166599999V0209999C000012200019N0250001N1-00701-01121999999ADDGA1031+012009069GF103991031051012501001001MA1999999082701MD1410001+9999ME1314529REMSYN082AAXX  02034 17205 42675 30000 11070 21112 38270 48452 54000 83500 333 83640 92417;
0298172050999992000030206004+38480+042300FM-12+166599999V0209999C000010300019N0300001N1-00661-01081999999ADDAA199000091AJ100529199999999GA1031+012009069GA2051+030009039GF105991031051012501051001IA1239IA2999-01009KA1120N-00841MA1999999082801MD1210101+9999ME1314599REMSYN112AAXX  02064 17205 32680 50000 11066 21108 38280 48459 52010 83550 333 21084 3/110 47052 55015 83640 85360 92418;EQDQ01  00002PRCP99
0196172050999992000030209004+38480+042300FM-12+166599999V0202701N001510300019N0300001N1-00301-00951999999ADDGA1031+012009069GA2051+030009039GF105991031051012501051001MA1999999082901MD1410001+9999ME1314689REMSYN088AAXX  02094 17205 42680 52703 11030 21095 38290 48468 54000 83550 333 83640 85360 92418;
0226172050999992000030212004+38480+042300FM-12+166599999V0202901N001510300019N0300001N1-00301-00951999999ADDAA199000091GA1031+012009069GA2051+030009039GF105991031051012501051001MA1999999083001MD1310101+9999ME1314689REMSYN088AAXX  02124 17205 32680 52903 11030 21095 38300 48468 53010 83550 333 83640 85360 92418;EQDQ01  00002PRCP99
0162172050999992000030215004+38480+042300FM-12+166599999V0202701N002112200019N0300001N1-00361-01031999999ADDGA1001+999999999GF100991001001999999001001MA1999999083101MD1210101+9999ME1314879REMSYN070AAXX  02154 17205 42980 02704 11036 21103 38310 48487 52010 333 10225;
0211172050999992000030218004+38480+042300FM-12+166599999V0202701N002612200019N0300001N1-00341-01221999999ADDAA199000091GA1001+999999999GF100991001001999999001001KA1120M-00121MA1999999083301MD1210201+9999ME1315069REMSYN076AAXX  02184 17205 32980 02705 11034 21122 38330 48506 52020 333 11012 92418;EQDQ01  00002PRCP99
0162172050999992000030221004+38480+042300FM-12+166599999V0202701N001512200019N0300001N1-00581-01261999999ADDGA1001+999999999GF100991001001999999001001MA1999999083401MD1210101+9999ME1315169REMSYN070AAXX  02214 17205 42980 02703 11058 21126 38340 48516 52010 333 10254;
0192172050999992000030300004+38480+042300FM-12+166599999V0202501N001512200019N0300001N1-00581-01261999999ADDAA199000091GA1001+999999999GF100991001001999999001001MA1999999083401MD1410001+9999ME1315169REMSYN070AAXX  03004 17205 32980 02503 11058 21126 38340 48516 54000 333 10254;EQDQ01  00002PRCP99
0162172050999992000030303004+38480+042300FM-12+166599999V0202701N001512200019N0300001N1-00401-01111999999ADDGA1001+999999999GF100991001001999999001001MA1999999083501MD1210101+9999ME1315259REMSYN070AAXX  03034 17205 42980 02703 11040 21111 38350 48525 52010 333 10266;
0264172050999992000030306004+38480+042300FM-12+166599999V0209999C000012200019N0300001N1-00401-01051999999ADDAA199000091AJ100509199999999GA1001+999999999GF100991001001999999001001IA1239IA2999-00909KA1120N-00761MA1999999083601MD1210101+9999ME1315349REMSYN094AAXX  03064 17205 32980 00000 11040 21105 38360 48534 52010 333 21076 3/109 47050 55034 92418;EQDQ01  00002PRCP99
0162172050999992000030309004+38480+042300FM-12+166599999V0200401N001012200019N0300001N1+00201-00811999999ADDGA1001+999999999GF100991001001999999001001MA1999999083701MD1210101+9999ME1315419REMSYN070AAXX  03094 17205 42980 00402 10020 21081 38370 48541 52010 333 10283;
0192172050999992000030312004+38480+042300FM-12+166599999V0202701N001512200019N0300001N1+00161-00801999999ADDAA199000091GA1001+999999999GF100991001001999999001001MA1999999083701MD1410001+9999ME1315419REMSYN070AAXX  03124 17205 32980 02703 10016 21080 38370 48541 54000 333 10283;EQDQ01  00002PRCP99
0162172050999992000030315004+38480+042300FM-12+166599999V0209999C000012200019N0300001N1+00041-00831999999ADDGA1001+999999999GF100991001001999999001001MA1999999083701MD1410001+9999ME1315429REMSYN070AAXX  03154 17205 42980 00000 10004 21083 38370 48542 54000 333 10275;
0162172050999992000030321004+38480+042300FM-12+166599999V0209999C000012200019N0300001N1-00501-00761999999ADDGA1001+999999999GF100991001001999999001001MA1999999083701MD1410001+9999ME1315459REMSYN070AAXX  03214 17205 42980 00000 11050 21076 38370 48545 54000 333 10275;
0196172050999992000030400004+38480+042300FM-12+166599999V0209999C000010300019N0300001N1-00501-00571999999ADDGA1041+012009069GA2061+030009039GF106991041051012501051001MA1999999083401MD1710201+9999ME1315169REMSYN088AAXX  04004 17205 42680 60000 11050 21057 38340 48516 57020 84550 333 84640 86360 92418;
0196172050999992000030403004+38480+042300FM-12+166599999V0209999C000010300019N0300001N1-00501-00571999999ADDGA1041+012009069GA2061+030009039GF106991041051012501051001MA1999999083401MD1710201+9999ME1315169REMSYN088AAXX  04034 17205 42680 60000 11050 21057 38340 48516 57020 84550 333 84640 86360 92418;
0298172050999992000030406004+38480+042300FM-12+166599999V0209999C000010300019N0300001N1-00281-00441999999ADDAA199000091AJ100479199999999GA1041+012009069GA2061+030009039GF106991041051012501051001IA1239IA2999-00909KA1120N-00801MA1999999083401MD1410001+9999ME1315149REMSYN112AAXX  04064 17205 32680 60000 11028 21044 38340 48514 54000 84550 333 21080 3/109 47047 55043 84640 86360 92418;EQDQ01  00002PRCP99
0196172050999992000030409004+38480+042300FM-12+166599999V0202701N001010300019N0300001N1-00101-00641999999ADDGA1041+012009069GA2061+030009039GF106991041051012501051001MA1999999083301MD1710101+9999ME1315059REMSYN088AAXX  04094 17205 42680 62702 11010 21064 38330 48505 57010 84550 333 84640 86360 92418;
0226172050999992000030412004+38480+042300FM-12+166599999V0200401N001010300019N0300001N1+00141-00481999999ADDAA199000091GA1041+012009069GA2061+030009039GF106991041051012501051001MA1999999083201MD1610101+9999ME1314929REMSYN088AAXX  04124 17205 32680 60402 10014 21048 38320 48492 56010 84550 333 84640 86360 92418;EQDQ01  00002PRCP99
0196172050999992000030415004+38480+042300FM-12+166599999V0202701N001010300019N0300001N1-00201-00691999999ADDGA1041+012009069GA2061+030009039GF106991041051012501051001MA1999999083201MD1410001+9999ME1314959REMSYN088AAXX  04154 17205 42680 62702 11020 21069 38320 48495 54000 84550 333 84640 86360 92418;
0223172050999992000030418004+38480+042300FM-12+166599999V0209999C000012200019N0300001N1-00401-00841999999ADDAA199000091GA1021+012009069GF102991021051012501001001KA1120M+00281MA1999999083201MD1410001+9999ME1314969REMSYN088AAXX  04184 17205 32680 20000 11040 21084 38320 48496 54000 82500 333 10028 82640 92418;EQDQ01  00002PRCP99
0174172050999992000030421004+38480+042300FM-12+166599999V0209999C000012200019N0300001N1-00501-00761999999ADDGA1021+012009069GF102991021051012501001001MA1999999083301MD1210101+9999ME1315079REMSYN082AAXX  04214 17205 42680 20000 11050 21076 38330 48507 52010 82500 333 82640 92418;
0192172050999992000030500004+38480+042300FM-12+166599999V0209999C000012200019N0300001N1-00501-00651999999ADDAA199000091GA1001+999999999GF100991001001999999001001MA1999999083401MD1210101+9999ME1315169REMSYN070AAXX  05004 17205 32980 00000 11050 21065 38340 48516 52010 333 10238;EQDQ01  00002PRCP99
0162172050999992000030503004+38480+042300FM-12+166599999V0209999C000012200019N0300001N1-00701-00811999999ADDGA1001+999999999GF100991001001999999001001MA1999999083401MD1410001+9999ME1315189REMSYN070AAXX  05034 17205 42980 00000 11070 21081 38340 48518 54000 333 10262;
0276172050999992000030506004+38480+042300FM-12+166599999V0209999C000012200019N0300001N1-00441-00691999999ADDAA199000091AJ100449199999999GA1041+012009069GF104991041051012501001001IA1239IA2999-01109KA1120N-00881MA1999999083501MD1110101+9999ME1315259REMSYN106AAXX  05064 17205 32680 40000 11044 21069 38350 48525 51010 84500 333 21088 3/111 47044 55009 84640 92418;EQDQ01  00002PRCP99
0196172050999992000030509004+38480+042300FM-12+166599999V0200401N001010300019N0300001N1+00121-00471999999ADDGA1041+012009069GA2061+030009039GF106991041051012501051001MA1999999083601MD1310101+9999ME1315339REMSYN088AAXX  05094 17205 42680 60402 10012 21047 38360 48533 53010 84550 333 84640 86360 92418;
0226172050999992000030512004+38480+042300FM-12+166599999V0200401N001010300019N0300001N1+00201-00441999999ADDAA199000091GA1041+012009069GA2061+030009039GF106991041051012501051001MA1999999083601MD1410001+9999ME1315339REMSYN088AAXX  05124 17205 32680 60402 10020 21044 38360 48533 54000 84550 333 84640 86360 92418;EQDQ01  00002PRCP99
0162172050999992000030515004+38480+042300FM-12+166599999V0209999C000012200019N0300001N1+00041-00521999999ADDGA1001+999999999GF100991001001999999001001MA1999999083601MD1410001+9999ME1315329REMSYN070AAXX  05154 17205 42980 00000 10004 21052 38360 48532 54000 333 10270;
0211172050999992000030518004+38480+042300FM-12+166599999V0209999C000012200019N0300001N1-00301-00531999999ADDAA199000091GA1001+999999999GF100991001001999999001001KA1120M+00301MA1999999083501MD1810101+9999ME1315259REMSYN076AAXX  05184 17205 32980 00000 11030 21053 38350 48525 58010 333 10030 92418;EQDQ01  00002PRCP99
0162172050999992000030521004+38480+042300FM-12+166599999V0209999C000012200019N0300001N1-00401-00491999999ADDGA1001+999999999GF100991001001999999001001MA1999999083501MD1410001+9999ME1315259REMSYN070AAXX  05214 17205 42980 00000 11040 21049 38350 48525 54000 333 10242;
0192172050999992000030600004+38480+042300FM-12+166599999V0209999C000012200019N0300001N1-00541-00591999999ADDAA199000091GA1001+999999999GF100991001001999999001001MA1999999083501MD1410001+9999ME1315269REMSYN070AAXX  06004 17205 32980 00000 11054 21059 38350 48526 54000 333 10252;EQDQ01  00002PRCP99
0196172050999992000030603004+38480+042300FM-12+166599999V0209999C000010270019N0300001N1-00461-00511999999ADDGA1041+012009069GA2061+027009039GF106991041051012501051001MA1999999083501MD1410001+9999ME1315259REMSYN088AAXX  06034 17205 42680 60000 11046 21051 38350 48525 54000 84550 333 84640 86359 92418;
0196172050999992000030609004+38480+042300FM-12+166599999V0200201N001510300019N0300001N1+00401-00531999999ADDGA1041+012009069GA2061+030009039GF106991041051012501051001MA1999999083201MD1710201+9999ME1314919REMSYN088AAXX  06094 17205 42680 60203 10040 21053 38320 48491 57020 84550 333 84640 86360 92418;
0226172050999992000030612004+38480+042300FM-12+166599999V0202501N002110300019N0300001N1+00281-00421999999ADDAA199000091GA1041+012009069GA2061+030009039GF106991041051012501051001MA1999999083101MD1710101+9999ME1314839REMSYN088AAXX  06124 17205 32680 62504 10028 21042 38310 48483 57010 84550 333 84640 86360 92418;EQDQ01  00002PRCP99
0224172050999992000030615004+38480+042300FM-12+166599999V0209999C000010090019N0050001N1+00101-00201999999ADDAY171031AY221031GA1051+009009069GA2081+024009049GF108991051051008001021999MA1999999083001MD1710201+9999ME1314739MW1701REMSYN094AAXX  06154 17205 41550 80000 10010 21020 38300 48473 57020 77072 8552/ 333 85630 88458 92416;
0289172050999992000030618004+38480+042300FM-12+166599999V0202001N001010090019N0050001N1+00101-00131999999ADDAA112000591AL10600091AY171061AY271061GA1051+009009069GA2081+024009049GF108991051051008001021999KA1120M+00501MA1999999082901MD1710101+9999ME1314639MW1701UA1M999999019REMSYN112AAXX  06184 17205 11550 82002 10010 21013 38290 48463 57010 69962 77077 8552/ 333 10050 85630 88458 92415 93100;
0248172050999992000030700004+38480+042300FM-12+166599999V0202001N002110105019N0150001N1+00201-00321999999ADDAA106000591AL10600091AY171061AY221061GA1051+010509069GF108991051051012501021999MA1999999082661MD1710141+9999ME1314449MW1021UA1M999999019REMSYN100AAXX  07004 17205 11665 82004 10020 21032 38266 48444 57014 69961 70272 8552/ 333 85635 92416 93100;
0196172050999992000030703004+38480+042300FM-12+166599999V0202001N004110300019N0200001N1+00201-00321999999ADDGA1041+012009069GA2061+030009039GF106991041051012501051001MA1999999082401MD1710261+9999ME1314149REMSYN088AAXX  07034 17205 42670 62008 10020 21032 38240 48414 57026 84550 333 84640 86360 92427;
0348172050999992000030706004+38480+042300FM-12+166599999V0201601N003610090019N0050001N1+00221-00351999999ADDAA112001091AJ100409199999999AL10600091AY121061AY221061GA1051+009009069GA2081+024009049GF108991051051008001021999IA1239IA2999-00209KA1120N+00001MA1999999082401MD1410001+9999ME1314149MW1701UA1M999999029REMSYN136AAXX  07064 17205 11550 81607 10022 21035 38240 48414 54000 60012 77022 8552/ 333 20000 3/102 47040 55009 70020 85630 88458 92424 93100;
0224172050999992000030709004+38480+042300FM-12+166599999V0201601N004110300019N0200001N1+00341-00421999999ADDAY171031AY271031GA1041+012009069GA2061+030009039GF106991041051012501051001MA1999999082401MD1410001+9999ME1314129MW1221REMSYN094AAXX  07094 17205 41670 61608 10034 21042 38240 48412 54000 72277 84550 333 84640 86360 92424;
0257172050999992000030712004+38480+042300FM-12+166599999V0202001N002610090019N0050001N1+00301-00421999999ADDAA106000891AL19900091AY171061AY221061GA1051+009009069GA2081+024009049GF108991051051008001021999MA1999999082301MD1610101+9999ME1314049MW1701REMSYN106AAXX  07124 17205 11550 82005 10030 21042 38230 48404 56010 69981 77072 8552/ 333 85630 88458 93100 92423;
0224172050999992000030715004+38480+042300FM-12+166599999V0201601N003110090019N0050001N1+00261-00471999999ADDAY171031AY271031GA1051+009009069GA2081+024009049GF108991051051008001021999MA1999999082201MD1710101+9999ME1313959MW1701REMSYN094AAXX  07154 17205 41550 81606 10026 21047 38220 48395 57010 77077 8552/ 333 85630 88458 92423;
0289172050999992000030718004+38480+042300FM-12+166599999V0201601N003610090019N0050001N1+00201-00221999999ADDAA112002091AL10600091AY171061AY271061GA1051+009009069GA2081+024009049GF108991051051008001021999KA1120M+00561MA1999999082201MD1410001+9999ME1313959MW1701UA1M999999029REMSYN112AAXX  07184 17205 11550 81607 10020 21022 38220 48395 54000 60022 77077 8552/ 333 10056 85630 88458 92424 93100;
0224172050999992000030721004+38480+042300FM-12+166599999V0200701N002610090019N0050001N1+00041-00051999999ADDAY171031AY271031GA1051+009009069GA2081+024009049GF108991051051008001021999MA1999999082001MD1610201+9999ME1313779MW1701REMSYN094AAXX  07214 17205 41550 80705 10004 21005 38200 48377 56020 77077 8552/ 333 85630 88458 92416;
0270172050999992000030800004+38480+042300FM-12+166599999V0201601N001510090019N0050001N1-00161-00301999999ADDAA106006191AL10600591AY171061AY271061GA1051+009009069GA2081+024009049GF108991051051008001021999MA1999999082001MD1410001+9999ME1313799MW1701UA1M999999019REMSYN106AAXX  08004 17205 11550 81603 11016 21030 38200 48379 54000 60061 77077 8552/ 333 85630 88458 92415 93105;
0224172050999992000030803004+38480+042300FM-12+166599999V0201601N002110090019N0050001N1-00201-00661999999ADDAY171031AY271031GA1051+009009069GA2081+024009049GF108991051051008001021999MA1999999082001MD1410001+9999ME1313799MW1701REMSYN094AAXX  08034 17205 41550 81604 11020 21066 38200 48379 54000 77077 8552/ 333 85630 88458 92416;
0174172050999992000030809004+38480+042300FM-12+166599999V0202701N001512200019N0300001N1-00261-00871999999ADDGA1031+012009069GF103991031051012501051001MA1999999082601MD1210301+9999ME1314389REMSYN082AAXX  08094 17205 42680 32703 11026 21087 38260 48438 52030 83550 333 83640 92428;
0196172050999992000030815004+38480+042300FM-12+166599999V0202701N003110105019N0150001N1-00501-00761999999ADDGA1051+010509069GA2081+027009049GF108991051051012501021999MA1999999082801MD1210201+9999ME1314609REMSYN088AAXX  08154 17205 42665 82706 11050 21076 38280 48460 52020 8552/ 333 85635 88459 92427;
0245172050999992000030818004+38480+042300FM-12+166599999V0202501N002610270019N0150001N1-00601-00781999999ADDAA199000091GA1041+010509069GA2061+027009039GF106991041051012501051001KA1120M+00261MA1999999083001MD1210201+9999ME1314799REMSYN094AAXX  08184 17205 32665 62505 11060 21078 38300 48479 52020 84550 333 10026 84635 86359 92427;EQDQ01  00002PRCP99
0196172050999992000030821004+38480+042300FM-12+166599999V0202501N001510270019N0150001N1-00601-00941999999ADDGA1041+010509069GA2061+027009039GF106991041051012501051001MA1999999083001MD1410001+9999ME1314799REMSYN088AAXX  08214 17205 42665 62503 11060 21094 38300 48479 54000 84550 333 84635 86359 92417;
0204172050999992000030900004+38480+042300FM-12+166599999V0202901N001512200019N0150001N1-00661-01071999999ADDAA199000091GA1041+012009069GF104991041051012501001001MA1999999083101MD1110101+9999ME1314889REMSYN082AAXX  09004 17205 32665 42903 11066 21107 38310 48488 51010 84500 333 84640 92417;EQDQ01  00002PRCP99
0162172050999992000030903004+38480+042300FM-12+166599999V0202501N001512200019N0250001N1-00661-01221999999ADDGA1001+999999999GF100991001001999999001001MA1999999083201MD1210101+9999ME1314989REMSYN070AAXX  09034 17205 42975 02503 11066 21122 38320 48498 52010 333 10245;
0258172050999992000030906004+38480+042300FM-12+166599999V0209999C000012200019N0300001N1-00601-01141999999ADDAA199000091AJ100409199999999GA1001+999999999GF100991001001999999001001IA1239IA2999-01009KA1120N-00861MA1999999083361MD1210161+9999ME1315169REMSYN088AAXX  09064 17205 32980 00000 11060 21114 38336 48516 52016 333 21086 3/110 47040 92418;EQDQ01  00002PRCP99
0162172050999992000030909004+38480+042300FM-12+166599999V0202701N001512200019N0300001N1-00161-01201999999ADDGA1001+999999999GF100991001001999999001001MA1999999083401MD1210101+9999ME1315149REMSYN070AAXX  09094 17205 42980 02703 11016 21120 38340 48514 52010 333 10254;
0192172050999992000030912004+38480+042300FM-12+166599999V0203601N001512200019N0300001N1+00001-01111999999ADDAA199000091GA1001+999999999GF100991001001999999001001MA1999999083401MD1410001+9999ME1315139REMSYN070AAXX  09124 17205 32980 03603 10000 21111 38340 48513 54000 333 10246;EQDQ01  00002PRCP99
0162172050999992000030915004+38480+042300FM-12+166599999V0203201N001512200019N0300001N1-00201-00911999999ADDGA1001+999999999GF100991001001999999001001MA1999999083401MD1410001+9999ME1315149REMSYN070AAXX  09154 17205 42980 03203 11020 21091 38340 48514 54000 333 10254;
0211172050999992000030918004+38480+042300FM-12+166599999V0202501N002612200019N0300001N1-00301-00641999999ADDAA199000091GA1001+999999999GF100991001001999999001001KA1120M+00121MA1999999083401MD1410001+9999ME1315159REMSYN076AAXX  09184 17205 32980 02505 11030 21064 38340 48515 54000 333 10012 92418;EQDQ01  00002PRCP99
0162172050999992000030921004+38480+042300FM-12+166599999V0202701N001512200019N0300001N1-00501-00761999999ADDGA1001+999999999GF100991001001999999001001MA1999999083401MD1410001+9999ME1315169REMSYN070AAXX  09214 17205 42980 02703 11050 21076 38340 48516 54000 333 10246;
0192172050999992000031000004+38480+042300FM-12+166599999V0202501N003112200019N0300001N1-00501-00761999999ADDAA199000091GA1001+999999999GF100991001001999999001001MA1999999083301MD1610101+9999ME1315089REMSYN070AAXX  10004 17205 32980 02506 11050 21076 38330 48508 56010 333 10226;EQDQ01  00002PRCP99
0162172050999992000031003004+38480+042300FM-12+166599999V0202701N001512200019N0300001N1-00501-00881999999ADDGA1001+999999999GF100991001001999999001001MA1999999083301MD1410001+9999ME1315089REMSYN070AAXX  10034 17205 42980 02703 11050 21088 38330 48508 54000 333 10242;
0264172050999992000031006004+38480+042300FM-12+166599999V0202701N002112200019N0300001N1-00341-00871999999ADDAA199000091AJ100389199999999GA1001+999999999GF100991001001999999001001IA1239IA2999-00909KA1120N-00701MA1999999083301MD1410001+9999ME1315069REMSYN094AAXX  10064 17205 32980 02704 11034 21087 38330 48506 54000 333 21070 3/109 47038 55053 92418;EQDQ01  00002PRCP99
0162172050999992000031009004+38480+042300FM-12+166599999V0202701N002612200019N0300001N1+00081-00771999999ADDGA1001+999999999GF100991001001999999001001MA1999999083301MD1410001+9999ME1315039REMSYN070AAXX  10094 17205 42980 02705 10008 21077 38330 48503 54000 333 10226;
0192172050999992000031012004+38480+042300FM-12+166599999V0202001N002112200019N0300001N1+00301-00771999999ADDAA199000091GA1001+999999999GF100991001001999999001001MA1999999083241MD1710061+9999ME1314929REMSYN070AAXX  10124 17205 32980 02004 10030 21077 38324 48492 57006 333 10210;EQDQ01  00002PRCP99
0174172050999992000031015004+38480+042300FM-12+166599999V0202501N002112200019N0300001N1+00061-00671999999ADDGA1041+012009069GF104991041051012501001001MA1999999083301MD1110061+9999ME1315039REMSYN082AAXX  10154 17205 42680 42504 10006 21067 38330 48503 51006 84500 333 84640 92418;
0162172050999992000031021004+38480+042300FM-12+166599999V0202501N002112200019N0300001N1-00181-00721999999ADDGA1001+999999999GF100991001001999999001001MA1999999083301MD1610101+9999ME1315059REMSYN070AAXX  10214 17205 42980 02504 11018 21072 38330 48505 56010 333 10215;
0204172050999992000031100004+38480+042300FM-12+166599999V0202501N001512200019N0300001N1+00001-00751999999ADDAA199000091GA1031+012009069GF103991031051012501001001MA1999999083301MD1410001+9999ME1315039REMSYN082AAXX  11004 17205 32680 32503 10000 21075 38330 48503 54000 83500 333 83640 92418;EQDQ01  00002PRCP99
0196172050999992000031103004+38480+042300FM-12+166599999V0202001N002110300019N0250001N1+00001-00451999999ADDGA1041+012009069GA2061+030009039GF106991041051012501051001MA1999999083201MD1710101+9999ME1314949REMSYN088AAXX  11034 17205 42675 62004 10000 21045 38320 48494 57010 84550 333 84640 86360 92418;
0298172050999992000031106004+38480+042300FM-12+166599999V0202501N003110300019N0200001N1-00061-00411999999ADDAA199000091AJ100369199999999GA1041+012009069GA2061+030009039GF106991041051012501051001IA1239IA2999-00509KA1120N-00301MA1999999083101MD1710101+9999ME1314769REMSYN112AAXX  11064 17205 32670 62506 11006 21041 38310 48476 57010 84550 333 21030 3/105 47036 55049 84640 86360 92427;EQDQ01  00002PRCP99
0224172050999992000031109004+38480+042300FM-12+166599999V0202901N002610105019N0100001N1+00061+99999999999ADDAY121031AY221031GA1051+010509069GA2081+027009049GF108991051051012501021999MA1999999083101MD1410001+9999ME1314859MW1701REMSYN094AAXX  11094 17205 42660 82905 10006 21/// 38310 48485 54000 77022 8552/ 333 85635 88459 92426;
0270172050999992000031112004+38480+042300FM-12+166599999V0200201N001510105019N0080001N1+00181-00091999999ADDAA106001091AL10600191AY171061AY271061GA1051+010509069GA2081+027009049GF108991051051012501021999MA1999999082901MD1810201+9999ME1314859MW1701UA1M999999029REMSYN106AAXX  11124 17205 11658 80203 10018 21009 38290 48485 58020 60011 77077 8552/ 333 85635 88459 92426 93101;
0224172050999992000031115004+38480+042300FM-12+166599999V0202001N002610105019N0080001N1+00081-00241999999ADDAY171031AY271031GA1051+010509069GA2081+027009049GF108991051051012501021999MA1999999082901MD1410001+9999ME1314859MW1701REMSYN094AAXX  11154 17205 41658 82005 10008 21024 38290 48485 54000 77077 8552/ 333 85635 88459 92426;
0295172050999992000031118004+38480+042300FM-12+166599999V0202901N003110090019N0020001N1-00101-00181999999ADDAA112002091AL19900391AY171061AY271061GA1051+009009069GA2081+024009049GF108991051051008001021999KA1120M+00261MA1999999083001MD1110101+9999ME1314769MW1701UA1M999999029REMSYN118AAXX  11184 17205 11520 82906 11010 21018 38300 48476 51010 60022 77077 8552/ 333 10026 85630 88458 92423 93103 96036;
0243172050999992000031121004+38480+042300FM-12+166599999V0202501N003110090019N0010001N1-00141-00201999999ADDAY171031AY271031GA1051+009009069GA2081+024009049GF108991051051008001021999MA1999999083001MD1410001+9999ME1314769MW1701UA1M999999029REMSYN100AAXX  11214 17205 41510 82506 11014 21020 38300 48476 54000 77077 8552/ 333 85630 88458 92423 96036;
0276172050999992000031200004+38480+042300FM-12+166599999V0202501N003110090019N0010001N1-00221-00311999999ADDAA106002091AL19900891AY171061AY271061GA1051+009009069GA2081+024009049GF108991051051008001021999MA1999999083001MD1410001+9999ME1314769MW1701UA1M999999029REMSYN112AAXX  12004 17205 11510 82506 11022 21031 38300 48476 54000 60021 77077 8552/ 333 85630 88458 92423 93108 96036;
0224172050999992000031203004+38480+042300FM-12+166599999V0202701N003110090019N0050001N1-00221-00401999999ADDAY171031AY271031GA1051+009009069GA2081+024009049GF108991051051008001021999MA1999999083001MD1410001+9999ME1314769MW1701REMSYN094AAXX  12034 17205 41550 82706 11022 21040 38300 48476 54000 77077 8552/ 333 85630 88458 92424;
0348172050999992000031206004+38480+042300FM-12+166599999V0202501N002110300019N0200001N1-00161-00381999999ADDAA112004191AJ100459199999999AL10600691AY171061AY271061GA1041+012009069GA2061+030009039GF106991041051012501051001IA1239IA2999-00409KA1120N-00301MA1999999083101MD1210101+9999ME1314859MW1221UA1M999999019REMSYN136AAXX  12064 17205 11670 62504 11016 21038 38310 48485 52010 60042 72277 84550 333 21030 3/104 47045 55000 70060 84640 86360 92417 93106;
0196172050999992000031209004+38480+042300FM-12+166599999V0202701N002610300019N0200001N1+00101-00451999999ADDGA1041+012009069GA2061+030009039GF106991041051012501051001MA1999999083201MD1210101+9999ME1314929REMSYN088AAXX  12094 17205 42670 62705 10010 21045 38320 48492 52010 84550 333 84640 86360 92417;
0207172050999992000031212004+38480+042300FM-12+166599999V0202501N002610300019N0200001N1+00101-00621999999ADDAA199000021GA1041+012009069GA2061+030009039GF106991041051012501051001MA1999999083201MD1410001+9999ME1314929REMSYN088AAXX  12124 17205 32670 62505 10010 21062 38320 48492 54000 84550 333 84640 86360 92417;
0162172050999992000031215004+38480+042300FM-12+166599999V0202501N002112200019N0300001N1+00001-00621999999ADDGA1001+999999999GF100991001001999999001001MA1999999083201MD1410001+9999ME1314949REMSYN070AAXX  12154 17205 42980 02504 10000 21062 38320 48494 54000 333 10206;
0192172050999992000031218004+38480+042300FM-12+166599999V0202701N002112200019N0300001N1-00241-00711999999ADDAA199000021GA1001+999999999GF100991001001999999001001KA1120M+00201MA1999999083201MD1410001+9999ME1314959REMSYN076AAXX  12184 17205 32980 02704 11024 21071 38320 48495 54000 333 10020 92418;
0162172050999992000031221004+38480+042300FM-12+166599999V0202701N002112200019N0300001N1-00301-00751999999ADDGA1001+999999999GF100991001001999999001001MA1999999083201MD1410001+9999ME1314959REMSYN070AAXX  12214 17205 42980 02704 11030 21075 38320 48495 54000 333 10206;
0192172050999992000031300004+38480+042300FM-12+166599999V0202701N002112200019N0300001N1-00301-00751999999ADDAA199000091GA1001+999999999GF100991001001999999001001MA1999999083201MD1410001+9999ME1314959REMSYN070AAXX  13004 17205 32980 02704 11030 21075 38320 48495 54000 333 10221;EQDQ01  00002PRCP99
0174172050999992000031303004+38480+042300FM-12+166599999V0202701N002112200019N0300001N1-00301-00751999999ADDGA1031+012009069GF103991031051012501001001MA1999999083201MD1410001+9999ME1314959REMSYN082AAXX  13034 17205 42680 32704 11030 21075 38320 48495 54000 83500 333 83640 92418;
0264172050999992000031306004+38480+042300FM-12+166599999V0202501N001512200019N0300001N1-00241-00791999999ADDAA199000091AJ100389199999999GA1001+999999999GF100991001001999999001001IA1239IA2999-00709KA1120N-00501MA1999999083201MD1410001+9999ME1314959REMSYN094AAXX  13064 17205 32980 02503 11024 21079 38320 48495 54000 333 21050 3/107 47038 55021 92418;EQDQ01  00002PRCP99
0162172050999992000031309004+38480+042300FM-12+166599999V0202901N002612200019N0300001N1+00001-00811999999ADDGA1001+999999999GF100991001001999999001001MA1999999083101MD1610101+9999ME1314849REMSYN070AAXX  13094 17205 42980 02905 10000 21081 38310 48484 56010 333 10201;
0204172050999992000031312004+38480+042300FM-12+166599999V0202201N001512200019N0300001N1+00301-00841999999ADDAA199000091GA1021+012009069GF102991021051012501001001MA1999999083101MD1410001+9999ME1314839REMSYN082AAXX  13124 17205 32680 22203 10030 21084 38310 48483 54000 82500 333 82640 92418;EQDQ01  00002PRCP99
0174172050999992000031315004+38480+042300FM-12+166599999V0202701N001012200019N0300001N1-00101-00791999999ADDGA1021+012009069GF102991021051012501001001MA1999999083101MD1410001+9999ME1314859REMSYN082AAXX  13154 17205 42680 22702 11010 21079 38310 48485 54000 82500 333 82640 92418;
0211172050999992000031318004+38480+042300FM-12+166599999V0202501N001512200019N0300001N1-00181-00901999999ADDAA199000091GA1001+999999999GF100991001001999999001001KA1120M+00401MA1999999083101MD1410001+9999ME1314859REMSYN076AAXX  13184 17205 32980 02503 11018 21090 38310 48485 54000 333 10040 92418;EQDQ01  00002PRCP99
0162172050999992000031321004+38480+042300FM-12+166599999V0202501N002112200019N0300001N1-00341-00931999999ADDGA1001+999999999GF100991001001999999001001MA1999999083201MD1210101+9999ME1314969REMSYN070AAXX  13214 17205 42980 02504 11034 21093 38320 48496 52010 333 10213;
0204172050999992000031400004+38480+042300FM-12+166599999V0202501N002612200019N0300001N1-00541-01051999999ADDAA199000091GA1031+012009069GF103991031051012501001001MA1999999083101MD1710101+9999ME1314889REMSYN082AAXX  14004 17205 32680 32505 11054 21105 38310 48488 57010 83500 333 83640 92418;EQDQ01  00002PRCP99
0174172050999992000031403004+38480+042300FM-12+166599999V0202701N002112200019N0300001N1-00741-01171999999ADDGA1031+012009069GF103991031051012501001001MA1999999083101MD1410001+9999ME1314909REMSYN082AAXX  14034 17205 42680 32704 11074 21117 38310 48490 54000 83500 333 83640 92418;
0264172050999992000031406004+38480+042300FM-12+166599999V0202501N002612200019N0300001N1-00801-01241999999ADDAA199000091AJ100369199999999GA1001+999999999GF100991001001999999001001IA1239IA2999-01209KA1120N-01041MA1999999083201MD1110101+9999ME1314979REMSYN094AAXX  14064 17205 32980 02505 11080 21124 38320 48497 51010 333 21104 3/112 47036 55053 92418;EQDQ01  00002PRCP99
0162172050999992000031409004+38480+042300FM-12+166599999V0202701N002612200019N0300001N1-00661-01471999999ADDGA1001+999999999GF100991001001999999001001MA1999999083301MD1310101+9999ME1315069REMSYN070AAXX  14094 17205 42980 02705 11066 21147 38330 48506 53010 333 10250;
0192172050999992000031412004+38480+042300FM-12+166599999V0202701N002612200019N0300001N1-00401-01471999999ADDAA199000091GA1001+999999999GF100991001001999999001001MA1999999083301MD1410001+9999ME1315069REMSYN070AAXX  14124 17205 32980 02705 11040 21147 38330 48506 54000 333 10250;EQDQ01  00002PRCP99
0162172050999992000031415004+38480+042300FM-12+166599999V0200701N001512200019N0300001N1-00641-01741999999ADDGA1001+999999999GF100991001001999999001001MA1999999083401MD1110101+9999ME1315169REMSYN070AAXX  14154 17205 42980 00703 11064 21174 38340 48516 51010 333 10278;
0227172050999992000031418004+38480+042300FM-12+166599999V0202901N002112200019N0300001N1-00801-01881999999ADDAA199000091GA1001+999999999GF100991001001999999001001KA1120N+99999MA1999999083401MD1410001+9999ME1315189REMSYN076AAXX  14184 17205 32980 02904 11080 21188 38340 48518 54000 333 21026 92428;EQDQ01  00002PRCP99Q02 -00262ATMN  
0162172050999992000031421004+38480+042300FM-12+166599999V0202901N002612200019N0300001N1-00841-02021999999ADDGA1001+999999999GF100991001001999999001001MA1999999083401MD1410001+9999ME1315189REMSYN070AAXX  14214 17205 42980 02905 11084 21202 38340 48518 54000 333 10286;
0192172050999992000031500004+38480+042300FM-12+166599999V0200701N001512200019N0300001N1-00861-02001999999ADDAA199000091GA1001+999999999GF100991001001999999001001MA1999999083401MD1410001+9999ME1315189REMSYN070AAXX  15004 17205 32980 00703 11086 21200 38340 48518 54000 333 10270;EQDQ01  00002PRCP99
0162172050999992000031503004+38480+042300FM-12+166599999V0200701N001512200019N0300001N1-00901-02011999999ADDGA1001+999999999GF100991001001999999001001MA1999999083401MD1410001+9999ME1315199REMSYN070AAXX  15034 17205 42980 00703 11090 21201 38340 48519 54000 333 10286;
0276172050999992000031506004+38480+042300FM-12+166599999V0200201N001512200019N0300001N1-00661-01381999999ADDAA199000091AJ100369199999999GA1031+012009069GF103991031051012501001001IA1239IA2999-01109KA1120N-01001MA1999999083561MD1210161+9999ME1315359REMSYN106AAXX  15064 17205 32680 30203 11066 21138 38356 48535 52016 83500 333 21100 3/111 47036 55053 83640 92418;EQDQ01  00002PRCP99
0215172050999992000031509004+38480+042300FM-12+166599999V0201601N002110300019N0300001N1-00341-01001999999ADDGA1031+012009069GA2051+030009039GF105991031051012501999001MA1999999083601MD1110041+9999ME1315349REMSYN088AAXX  15094 17205 42680 51604 11034 21100 38360 48534 51004 83500 333 83640 85360 92418;EQDQ01+000002SCOMCG
0192172050999992000031512004+38480+042300FM-12+166599999V0200701N001512200019N0300001N1-00301-01051999999ADDAA199000091GA1001+999999999GF100991001001999999001001MA1999999083601MD1410001+9999ME1315349REMSYN070AAXX  15124 17205 32980 00703 11030 21105 38360 48534 54000 333 10295;EQDQ01  00002PRCP99
0162172050999992000031515004+38480+042300FM-12+166599999V0202701N001512200019N0300001N1-00701-01761999999ADDGA1001+999999999GF100991001001999999001001MA1999999083601MD1410001+9999ME1315369REMSYN070AAXX  15154 17205 42980 02703 11070 21176 38360 48536 54000 333 10311;
0211172050999992000031518004+38480+042300FM-12+166599999V0209999C000012200019N0300001N1-00801-01891999999ADDAA199000091GA1001+999999999GF100991001001999999001001KA1120M-00201MA1999999083601MD1410001+9999ME1315369REMSYN076AAXX  15184 17205 32980 00000 11080 21189 38360 48536 54000 333 11020 92418;EQDQ01  00002PRCP99
0162172050999992000031521004+38480+042300FM-12+166599999V0209999C000012200019N0300001N1-00901-01561999999ADDGA1001+999999999GF100991001001999999001001MA1999999083601MD1410001+9999ME1315379REMSYN070AAXX  15214 17205 42980 00000 11090 21156 38360 48537 54000 333 10295;
0192172050999992000031600004+38480+042300FM-12+166599999V0209999C000012200019N0300001N1-01001-01351999999ADDAA199000091GA1001+999999999GF100991001001999999001001MA1999999083601MD1410001+9999ME1315379REMSYN070AAXX  16004 17205 32980 00000 11100 21135 38360 48537 54000 333 10295;EQDQ01  00002PRCP99
0162172050999992000031603004+38480+042300FM-12+166599999V0209999C000012200019N0300001N1-01001-01231999999ADDGA1001+999999999GF100991001001999999001001MA1999999083601MD1410001+9999ME1315379REMSYN070AAXX  16034 17205 42980 00000 11100 21123 38360 48537 54000 333 10311;
0264172050999992000031606004+38480+042300FM-12+166599999V0209999C000012200019N0300001N1-00641-00861999999ADDAA199000091AJ100359199999999GA1001+999999999GF100991001001999999001001IA1239IA2999-01309KA1120N-01161MA1999999083601MD1410001+9999ME1314359REMSYN094AAXX  16064 17205 32980 00000 11064 21086 38360 48435 54000 333 21116 3/113 47035 55051 92418;EQDQ01  00002PRCP99
0162172050999992000031609004+38480+042300FM-12+166599999V0201301N001012200019N0300001N1+00001-00571999999ADDGA1001+999999999GF100991001001999999001001MA1999999083601MD1410001+9999ME1315329REMSYN070AAXX  16094 17205 42980 01302 10000 21057 38360 48532 54000 333 10286;
0192172050999992000031612004+38480+042300FM-12+166599999V0202701N001012200019N0300001N1+00081-00471999999ADDAA199000091GA1001+999999999GF100991001001999999001001MA1999999083541MD1710061+9999ME1315239REMSYN070AAXX  16124 17205 32980 02702 10008 21047 38354 48523 57006 333 10279;EQDQ01  00002PRCP99
0162172050999992000031615004+38480+042300FM-12+166599999V0202701N001012200019N0300001N1-00361-00891999999ADDGA1001+999999999GF100991001001999999001001MA1999999083501MD1610041+9999ME1315259REMSYN070AAXX  16154 17205 42980 02702 11036 21089 38350 48525 56004 333 10290;
0211172050999992000031618004+38480+042300FM-12+166599999V0209999C000012200019N0300001N1-00441-00691999999ADDAA199000091GA1001+999999999GF100991001001999999001001KA1120M+00201MA1999999083601MD1210101+9999ME1315349REMSYN076AAXX  16184 17205 32980 00000 11044 21069 38360 48534 52010 333 10020 92418;EQDQ01  00002PRCP99
0162172050999992000031621004+38480+042300FM-12+166599999V0209999C000012200019N0300001N1-00541-00591999999ADDGA1001+999999999GF100991001001999999001001MA1999999083501MD1710101+9999ME1315269REMSYN070AAXX  16214 17205 42980 00000 11054 21059 38350 48526 57010 333 10258;
0192172050999992000031700004+38480+042300FM-12+166599999V0209999C000012200019N0300001N1-00661-00711999999ADDAA199000091GA1001+999999999GF100991001001999999001001MA1999999083501MD1410001+9999ME1315269REMSYN070AAXX  17004 17205 32980 00000 11066 21071 38350 48526 54000 333 10258;EQDQ01  00002PRCP99
0162172050999992000031703004+38480+042300FM-12+166599999V0209999C000012200019N0300001N1-00741-00801999999ADDGA1001+999999999GF100991001001999999001001MA1999999083501MD1410001+9999ME1315279REMSYN070AAXX  17034 17205 42980 00000 11074 21080 38350 48527 54000 333 10282;
0304172050999992000031706004+38480+042300FM-12+166599999V0209999C000010001519N0008001N1-00421-00461999999ADDAA199000091AJ100349199999999AY101061AY201061GA1061+000159079GF106991061071002501001001IA1239IA2999-01109KA1120N-00961MA1999999083501MD1410001+9999ME1315259MW1421REMSYN112AAXX  17064 17205 31308 60000 11042 21046 38350 48525 54000 74200 86700 333 21096 3/111 47034 55051 86700 92412;EQDQ01  00002PRCP99
0224172050999992000031709004+38480+042300FM-12+166599999V0200701N001010270019N0080001N1+00101-00381999999ADDAY141031AY221031GA1041+010509069GA2061+027009039GF106991041051012501051001MA1999999083401MD1810101+9999ME1315129MW1101REMSYN094AAXX  17094 17205 41658 60702 10010 21038 38340 48512 58010 71042 84550 333 84635 86359 92416;
0254172050999992000031712004+38480+042300FM-12+166599999V0200701N001010300019N0100001N1+00301-00301999999ADDAA199000091AY141061AY221061GA1031+012009069GA2051+030009039GF105991031051012501051001MA1999999083301MD1810101+9999ME1315039MW1101REMSYN094AAXX  17124 17205 31660 50702 10030 21030 38330 48503 58010 71042 83550 333 83640 85360 92416;EQDQ01  00002PRCP99
0196172050999992000031715004+38480+042300FM-12+166599999V0209999C000010300019N0250001N1+00201-00381999999ADDGA1031+012009069GA2051+030009039GF105991031051012501051001MA1999999083201MD1410001+9999ME1314929REMSYN088AAXX  17154 17205 42675 50000 10020 21038 38320 48492 54000 83550 333 83640 85360 92417;
0211172050999992000031718004+38480+042300FM-12+166599999V0209999C000012200019N0300001N1-00101-00481999999ADDAA199000091GA1001+999999999GF100991001001999999001001KA1120M+00381MA1999999083201MD1410001+9999ME1314959REMSYN076AAXX  17184 17205 32980 00000 11010 21048 38320 48495 54000 333 10038 92417;EQDQ01  00002PRCP99
0162172050999992000031721004+38480+042300FM-12+166599999V0209999C000012200019N0300001N1-00201-00471999999ADDGA1001+999999999GF100991001001999999001001MA1999999083201MD1410001+9999ME1314959REMSYN070AAXX  17214 17205 42980 00000 11020 21047 38320 48495 54000 333 10198;
0192172050999992000031800004+38480+042300FM-12+166599999V0209999C000012200019N0300001N1-00301-00441999999ADDAA199000091GA1001+999999999GF100991001001999999001001MA1999999083001MD1710201+9999ME1314779REMSYN070AAXX  18004 17205 32980 00000 11030 21044 38300 48477 57020 333 10177;EQDQ01  00002PRCP99
0162172050999992000031803004+38480+042300FM-12+166599999V0209999C000012200019N0300001N1-00401-00491999999ADDGA1001+999999999GF100991001001999999001001MA1999999082901MD1710101+9999ME1314689REMSYN070AAXX  18034 17205 42980 00000 11040 21049 38290 48468 57010 333 10169;
0298172050999992000031806004+38480+042300FM-12+166599999V0209999C000010300019N0300001N1-00101-00481999999ADDAA199000091AJ100349199999999GA1041+012009069GA2061+030009039GF106991041051012501051001IA1239IA2999-00609KA1120N-00501MA1999999082801MD1710101+9999ME1314579REMSYN112AAXX  18064 17205 32680 60000 11010 21048 38280 48457 57010 84550 333 21050 3/106 47034 55034 84640 86360 92418;EQDQ01  00002PRCP99
0196172050999992000031809004+38480+042300FM-12+166599999V0200901N001010300019N0300001N1+00401-00291999999ADDGA1041+012009069GA2061+030009039GF106991041051012501051001MA1999999082801MD1410001+9999ME1314529REMSYN088AAXX  18094 17205 42680 60902 10040 21029 38280 48452 54000 84550 333 84640 86360 92418;
0226172050999992000031812004+38480+042300FM-12+166599999V0202001N001510300019N0300001N1+00601-00251999999ADDAA199000091GA1041+012009069GA2061+030009039GF106991041051012501051001MA1999999082701MD1810101+9999ME1314409REMSYN088AAXX  18124 17205 32680 62003 10060 21025 38270 48440 58010 84550 333 84640 86360 92418;EQDQ01  00002PRCP99
0196172050999992000031815004+38480+042300FM-12+166599999V0202001N001510120019N0300001N1+00401-00291999999ADDGA1051+012009069GA2081+030009049GF108991051051012501021999MA1999999082701MD1410001+9999ME1314429REMSYN088AAXX  18154 17205 42680 82003 10040 21029 38270 48442 54000 8552/ 333 85640 88460 92418;
0223172050999992000031818004+38480+042300FM-12+166599999V0209999C000012200019N0300001N1+00261-00361999999ADDAA199000091GA1021+012009069GF102991021051012501001001KA1120M+00761MA1999999082601MD1610101+9999ME1314349REMSYN088AAXX  18184 17205 32680 20000 10026 21036 38260 48434 56010 82500 333 10076 82640 92418;EQDQ01  00002PRCP99
0174172050999992000031821004+38480+042300FM-12+166599999V0202001N002112200019N0300001N1+00601-00691999999ADDGA1041+012009069GF104991041051012501001001MA1999999082601MD1410001+9999ME1314309REMSYN082AAXX  18214 17205 42680 42004 10060 21069 38260 48430 54000 84500 333 84640 92418;
0270172050999992000031900004+38480+042300FM-12+166599999V0202701N002110090019N0030001N1+00061-00031999999ADDAA106000591AL10600091AY121061AY221061GA1051+009009069GA2081+024009049GF108991051051008001021999MA1999999082701MD1110101+9999ME1314459MW1701UA1M999999019REMSYN106AAXX  19004 17205 11530 82704 10006 21003 38270 48445 51010 69961 77022 8552/ 333 85630 88458 92414 93100;
0224172050999992000031903004+38480+042300FM-12+166599999V0202501N001510300019N0200001N1+00001-00341999999ADDAY171031AY221031GA1041+012009069GA2061+030009039GF106991041051012501051001MA1999999082801MD1210101+9999ME1314559MW1221REMSYN094AAXX  19034 17205 41670 62503 10000 21034 38280 48455 52010 72272 84550 333 84640 86360 92417;
0326172050999992000031906004+38480+042300FM-12+166599999V0202501N001512200019N0200001N1+00101-00391999999ADDAA112002091AJ100349199999999AL10600291AY171061AY221061GA1031+012009069GF103991031051012501001001IA1239IA2999-00309KA1120N-00121MA1999999082901MD1210101+9999ME1314639MW1011UA1M999999019REMSYN130AAXX  19064 17205 11670 32503 10010 21039 38290 48463 52010 60022 70172 83500 333 21012 3/103 47034 55007 70024 83640 92417 93102;
0162172050999992000031909004+38480+042300FM-12+166599999V0202501N002612200019N0300001N1+00381-00681999999ADDGA1001+999999999GF100991001001999999001001MA1999999083101MD1210201+9999ME1314819REMSYN070AAXX  19094 17205 42980 02505 10038 21068 38310 48481 52020 333 10147;
0173172050999992000031912004+38480+042300FM-12+166599999V0202501N002612200019N0300001N1+00661-00531999999ADDAA199000021GA1001+999999999GF100991001001999999001001MA1999999083101MD1410001+9999ME1314809REMSYN070AAXX  19124 17205 32980 02505 10066 21053 38310 48480 54000 333 10155;
0162172050999992000031915004+38480+042300FM-12+166599999V0202501N001512200019N0300001N1+00561-00821999999ADDGA1001+999999999GF100991001001999999001001MA1999999083181MD1210081+9999ME1314909REMSYN070AAXX  19154 17205 42980 02503 10056 21082 38318 48490 52008 333 10172;
0211172050999992000031918004+38480+042300FM-12+166599999V0209999C000012200019N0300001N1+00221-00841999999ADDAA199000091GA1001+999999999GF100991001001999999001001KA1120M+00801MA1999999083301MD1110121+9999ME1315029REMSYN076AAXX  19184 17205 32980 00000 10022 21084 38330 48502 51012 333 10080 92418;EQDQ01  00002PRCP99
0162172050999992000031921004+38480+042300FM-12+166599999V0209999C000012200019N0300001N1-00101-00851999999ADDGA1001+999999999GF100991001001999999001001MA1999999083301MD1410001+9999ME1315059REMSYN070AAXX  19214 17205 42980 00000 11010 21085 38330 48505 54000 333 10202;
0192172050999992000032000004+38480+042300FM-12+166599999V0209999C000012200019N0300001N1-00141-00911999999ADDAA199000091GA1001+999999999GF100991001001999999001001MA1999999083301MD1410001+9999ME1315059REMSYN070AAXX  20004 17205 32980 00000 11014 21091 38330 48505 54000 333 10187;EQDQ01  00002PRCP99
0174172050999992000032003004+38480+042300FM-12+166599999V0202201N001012200019N0300001N1+00161-00941999999ADDGA1021+012009069GF102991021051012501001001MA1999999083301MD1410001+9999ME1315029REMSYN082AAXX  20034 17205 42680 22202 10016 21094 38330 48502 54000 82500 333 82640 92418;
0276172050999992000032006004+38480+042300FM-12+166599999V0201601N001012200019N0300001N1+00401-00871999999ADDAA199000091AJ100329199999999GA1041+012009069GF104991041051012501001001IA1239IA2999-00409KA1120N-00261MA1999999083401MD1110101+9999ME1315129REMSYN106AAXX  20064 17205 32680 41602 10040 21087 38340 48512 51010 84500 333 21026 3/104 47032 55053 84640 92418;EQDQ01  00002PRCP99
0196172050999992000032009004+38480+042300FM-12+166599999V0202701N002610300019N0200001N1+00601-00691999999ADDGA1041+012009069GA2061+030009039GF106991041051012501051001MA1999999083401MD1410001+9999ME1315129REMSYN088AAXX  20094 17205 42670 62705 10060 21069 38340 48512 54000 84550 333 84640 86360 92418;
0226172050999992000032012004+38480+042300FM-12+166599999V0202701N002610300019N0200001N1+00801-00681999999ADDAA199000091GA1041+012009069GA2061+030009039GF106991041051012501051001MA1999999083401MD1410001+9999ME1315129REMSYN088AAXX  20124 17205 32670 62705 10080 21068 38340 48512 54000 84550 333 84640 86360 92418;EQDQ01  00002PRCP99
0174172050999992000032015004+38480+042300FM-12+166599999V0202501N001512200019N0200001N1+00661-00561999999ADDGA1041+012009069GF104991041051012501001001MA1999999083301MD1810101+9999ME1315079REMSYN082AAXX  20154 17205 42670 42503 10066 21056 38330 48507 58010 84500 333 84640 92417;
0223172050999992000032018004+38480+042300FM-12+166599999V0202501N002612200019N0200001N1+00541-00641999999ADDAA199000091GA1031+012009069GF103991031051012501001001KA1120M+00901MA1999999083301MD1410001+9999ME1315009REMSYN088AAXX  20184 17205 32670 32505 10054 21064 38330 48500 54000 83500 333 10090 83640 92417;EQDQ01  00002PRCP99
0162172050999992000032021004+38480+042300FM-12+166599999V0202501N002112200019N0200001N1+00461-00631999999ADDGA1001+999999999GF100991001001999999001001MA1999999083301MD1410001+9999ME1315019REMSYN070AAXX  20214 17205 42970 02504 10046 21063 38330 48501 54000 333 10172;
0192172050999992000032100004+38480+042300FM-12+166599999V0209999C000012200019N0200001N1+00201-00641999999ADDAA199000091GA1001+999999999GF100991001001999999001001MA1999999083301MD1410001+9999ME1315029REMSYN070AAXX  21004 17205 32970 00000 10020 21064 38330 48502 54000 333 10172;EQDQ01  00002PRCP99
0162172050999992000032103004+38480+042300FM-12+166599999V0202701N001512200019N0200001N1+00161-00731999999ADDGA1001+999999999GF100991001001999999001001MA1999999083301MD1410001+9999ME1315029REMSYN070AAXX  21034 17205 42970 02703 10016 21073 38330 48502 54000 333 10179;
0298172050999992000032106004+38480+042300FM-12+166599999V0209999C000010300019N0250001N1+00401-00531999999ADDAA199000091AJ100309199999999GA1031+012009069GA2051+030009039GF105991031051012501051001IA1239IA2999-00209KA1120N-00101MA1999999083301MD1410001+9999ME1315019REMSYN112AAXX  21064 17205 32675 50000 10040 21053 38330 48501 54000 83550 333 21010 3/102 47030 55041 83640 85360 92417;EQDQ01  00002PRCP99
0196172050999992000032109004+38480+042300FM-12+166599999V0202501N001510300019N0250001N1+00801-00581999999ADDGA1031+012009069GA2051+030009039GF105991031051012501051001MA1999999083301MD1410001+9999ME1314989REMSYN088AAXX  21094 17205 42675 52503 10080 21058 38330 48498 54000 83550 333 83640 85360 92417;
0226172050999992000032112004+38480+042300FM-12+166599999V0202001N002110300019N0250001N1+00841-00651999999ADDAA199000091GA1031+012009069GA2051+030009039GF105991031051012501051001MA1999999083201MD1610101+9999ME1314899REMSYN088AAXX  21124 17205 32675 52004 10084 21065 38320 48489 56010 83550 333 83640 85360 92417;EQDQ01  00002PRCP99
0196172050999992000032115004+38480+042300FM-12+166599999V0202001N001510300019N0250001N1+00621-00591999999ADDGA1031+012009069GA2051+030009039GF105991031051012501051001MA1999999083201MD1410001+9999ME1314909REMSYN088AAXX  21154 17205 42675 52003 10062 21059 38320 48490 54000 83550 333 83640 85360 92417;
0245172050999992000032118004+38480+042300FM-12+166599999V0201801N001510300019N0250001N1+00401-00531999999ADDAA199000091GA1031+012009069GA2051+030009039GF105991031051012501051001KA1120M+01001MA1999999083201MD1410001+9999ME1314919REMSYN094AAXX  21184 17205 32675 51803 10040 21053 38320 48491 54000 83550 333 10100 83640 85360 92417;EQDQ01  00002PRCP99
0196172050999992000032121004+38480+042300FM-12+166599999V0203201N001010300019N0250001N1+00401-00531999999ADDGA1031+012009069GA2051+030009039GF105991031051012501051001MA1999999083101MD1610101+9999ME1314819REMSYN088AAXX  21214 17205 42675 53202 10040 21053 38310 48481 56010 83550 333 83640 85360 92417;
0226172050999992000032200004+38480+042300FM-12+166599999V0202701N001510300019N0250001N1+00301-00481999999ADDAA199000091GA1041+012009069GA2061+030009039GF106991041051012501051001MA1999999083101MD1410001+9999ME1314819REMSYN088AAXX  22004 17205 32675 62703 10030 21048 38310 48481 54000 84550 333 84640 86360 92417;EQDQ01  00002PRCP99
0224172050999992000032203004+38480+042300FM-12+166599999V0200701N001010105019N0100001N1+00161+00101999999ADDAY121031AY221031GA1051+010509069GA2081+024009049GF108991051051012501021999MA1999999082801MD1710301+9999ME1314539MW1681REMSYN094AAXX  22034 17205 41660 80702 10016 20010 38280 48453 57030 76822 8552/ 333 85635 88458 92415;
0348172050999992000032206004+38480+042300FM-12+166599999V0209999C000010090019N0080001N1+00101+00011999999ADDAA112006191AJ100309199999999AL10600391AY171061AY221061GA1051+009009069GA2081+024009049GF108991051051008001021999IA1239IA2999-00109KA1120N+00001MA1999999082801MD1410001+9999ME1314539MW1701UA1M999999019REMSYN136AAXX  22064 17205 11558 80000 10010 20001 38280 48453 54000 60062 77072 8552/ 333 20000 3/101 47030 55051 70064 85630 88458 92416 93103;
0224172050999992000032209004+38480+042300FM-12+166599999V0209999C000010090019N0080001N1+00201+00141999999ADDAY171031AY271031GA1051+009009069GA2081+024009049GF108991051051008001021999MA1999999082801MD1410001+9999ME1314539MW1701REMSYN094AAXX  22094 17205 41558 80000 10020 20014 38280 48453 54000 77077 8552/ 333 85630 88458 92417;
0270172050999992000032212004+38480+042300FM-12+166599999V0200901N001010090019N0080001N1+00241+00151999999ADDAA106006191AL10600291AY171061AY271061GA1051+009009069GA2081+024009049GF108991051051008001021999MA1999999082601MD1610201+9999ME1314349MW1701UA1M999999019REMSYN106AAXX  22124 17205 11558 80902 10024 20015 38260 48434 56020 60061 77077 8552/ 333 85630 88458 92417 93102;
0224172050999992000032215004+38480+042300FM-12+166599999V0209999C000010090019N0080001N1+00161-00021999999ADDAY171031AY271031GA1051+009009069GA2081+024009049GF108991051051008001021999MA1999999082601MD1410001+9999ME1314349MW1701REMSYN094AAXX  22154 17205 41558 80000 10016 21002 38260 48434 54000 77077 8552/ 333 85630 88458 92417;
0289172050999992000032218004+38480+042300FM-12+166599999V0209999C000010090019N0080001N1+00101+00011999999ADDAA112007991AL10600091AY171061AY271061GA1051+009009069GA2081+024009049GF108991051051008001021999KA1120M+00501MA1999999082601MD1410001+9999ME1314349MW1701UA1M999999019REMSYN112AAXX  22184 17205 11558 80000 10010 20001 38260 48434 54000 60082 77077 8552/ 333 10050 85630 88458 92417 93100;
0224172050999992000032221004+38480+042300FM-12+166599999V0209999C000010090019N0080001N1+00061+00021999999ADDAY171031AY271031GA1051+009009069GA2081+024009049GF108991051051008001021999MA1999999082601MD1410001+9999ME1314369MW1701REMSYN094AAXX  22214 17205 41558 80000 10006 20002 38260 48436 54000 77077 8552/ 333 85630 88458 92416;
0270172050999992000032300004+38480+042300FM-12+166599999V0209999C000010300019N0150001N1+00001-00011999999ADDAA106000591AL10600091AY171061AY221061GA1041+012009069GA2061+030009039GF106991041051012501051001MA1999999082601MD1410001+9999ME1314559MW1221UA1M999999019REMSYN106AAXX  23004 17205 11665 60000 10000 21001 38260 48455 54000 69961 72272 84550 333 84640 86360 92417 93100;
0196172050999992000032303004+38480+042300FM-12+166599999V0209999C000010300019N0200001N1+00001-00011999999ADDGA1041+012009069GA2061+030009039GF106991041051012501051001MA1999999082601MD1410001+9999ME1314369REMSYN088AAXX  23034 17205 42670 60000 10000 21001 38260 48436 54000 84550 333 84640 86360 92417;
0291172050999992000032306004+38480+042300FM-12+166599999V0209999C000010105019N0200001N1+00061-00161999999ADDAA112000591AJ100259199999999GA1051+010509069GA2081+027009049GF108991051051012501021999IA1239IA2999-00209KA1120N-00161MA1999999082601MD1410001+9999ME1314369REMSYN124AAXX  23064 17205 12670 80000 10006 21016 38260 48436 54000 69962 8552/ 333 21016 3/102 47025 55000 70082 85635 88459 92417;
0196172050999992000032309004+38480+042300FM-12+166599999V0209999C000010105019N0200001N1+00421-00071999999ADDGA1051+010509069GA2071+027009039GF107991051051012501071001MA1999999082601MD1410001+9999ME1314349REMSYN088AAXX  23094 17205 42670 70000 10042 21007 38260 48434 54000 85570 333 85635 87359 92417;
0207172050999992000032312004+38480+042300FM-12+166599999V0202701N001010105019N0200001N1+00441-00071999999ADDAA199000021GA1051+010509069GA2071+027009039GF107991051051012501071001MA1999999082601MD1410001+9999ME1314349REMSYN088AAXX  23124 17205 32670 72702 10044 21007 38260 48434 54000 85570 333 85635 87359 92417;
0196172050999992000032315004+38480+042300FM-12+166599999V0209999C000010300019N0300001N1+00401-00161999999ADDGA1031+012009069GA2051+030009039GF105991031051012501051001MA1999999082401MD1710201+9999ME1314129REMSYN088AAXX  23154 17205 42680 50000 10040 21016 38240 48412 57020 83550 333 83640 85360 92418;
0211172050999992000032318004+38480+042300FM-12+166599999V0202701N001512200019N0300001N1+00101-00131999999ADDAA199000091GA1001+999999999GF100991001001999999001001KA1120M+00641MA1999999082501MD1110101+9999ME1314249REMSYN076AAXX  23184 17205 32980 02703 10010 21013 38250 48424 51010 333 10064 92418;EQDQ01  00002PRCP99
0174172050999992000032321004+38480+042300FM-12+166599999V0209999C000012200019N0300001N1-00061-00141999999ADDGA1031+012009069GF103991031051012501001001MA1999999082501MD1410001+9999ME1314269REMSYN082AAXX  23214 17205 42680 30000 11006 21014 38250 48426 54000 83500 333 83640 92418;
0226172050999992000032400004+38480+042300FM-12+166599999V0209999C000010300019N0300001N1-00121-00181999999ADDAA199000091GA1041+012009069GA2061+030009039GF106991041051012501051001MA1999999082401MD1810101+9999ME1314149REMSYN088AAXX  24004 17205 32680 60000 11012 21018 38240 48414 58010 84550 333 84640 86360 92417;EQDQ01  00002PRCP99
0224172050999992000032403004+38480+042300FM-12+166599999V0209999C000010105019N0200001N1-00101-00161999999ADDAY171031AY221031GA1051+010509069GA2071+027009039GF107991051051012501071001MA1999999082401MD1410001+9999ME1314149MW1221REMSYN094AAXX  24034 17205 41670 70000 11010 21016 38240 48414 54000 72272 85570 333 85635 87359 92417;
0348172050999992000032406004+38480+042300FM-12+166599999V0209999C000010105019N0200001N1+00101-00011999999ADDAA112001091AJ100259199999999AL10600291AY171061AY221061GA1051+010509069GA2081+027009049GF108991051051012501021999IA1239IA2999-00209KA1120N-00201MA1999999082301MD1610101+9999ME1314049MW1021UA1M999999019REMSYN136AAXX  24064 17205 11670 80000 10010 21001 38230 48404 56010 60012 70272 8552/ 333 21020 3/102 47025 55016 70010 85635 88459 92417 93102;
0196172050999992000032409004+38480+042300FM-12+166599999V0202901N001510105019N0200001N1+00301-00151999999ADDGA1051+010509069GA2081+027009049GF108991051051012501021999MA1999999082301MD1410001+9999ME1314039REMSYN088AAXX  24094 17205 42670 82903 10030 21015 38230 48403 54000 8552/ 333 85635 88459 92417;
0207172050999992000032412004+38480+042300FM-12+166599999V0202701N002610105019N0200001N1+00221-00041999999ADDAA199000021GA1051+010509069GA2081+027009049GF108991051051012501021999MA1999999082101MD1710201+9999ME1313859REMSYN088AAXX  24124 17205 32670 82705 10022 21004 38210 48385 57020 8552/ 333 85635 88459 92417;
0196172050999992000032415004+38480+042300FM-12+166599999V0203401N002110105019N0200001N1+00301-00151999999ADDGA1051+010509069GA2081+027009049GF108991051051012501021999MA1999999082101MD1410001+9999ME1313859REMSYN088AAXX  24154 17205 42670 83404 10030 21015 38210 48385 54000 8552/ 333 85635 88459 92417;
0245172050999992000032418004+38480+042300FM-12+166599999V0203401N002110105019N0200001N1+00221-00041999999ADDAA199000091GA1051+010509069GA2081+027009049GF108991051051012501021999KA1120M+00461MA1999999082101MD1410001+9999ME1313859REMSYN094AAXX  24184 17205 32670 83404 10022 21004 38210 48385 54000 8552/ 333 10046 85635 88459 92417;EQDQ01  00002PRCP99
0243172050999992000032421004+38480+042300FM-12+166599999V0202501N002110090019N0050001N1-00061-00141999999ADDAY121031AY221031GA1051+009009069GA2081+024009049GF108991051051008001021999MA1999999082802MD1110101+9999ME1313899MW1701REMSYN094AAXX  24214 17205 41550 82504 11006 21014 38280 48389 51010 77022 8552/ 333 85630 88458 92415;EQDQ01+082803APOSP 
0270172050999992000032500004+38480+042300FM-12+166599999V0209999C000010105019N0200001N1-00061-00141999999ADDAA106003091AL10600491AY171061AY221061GA1051+010509069GA2081+027009049GF108991051051012501021999MA1999999082401MD1210201+9999ME1314189MW1221UA1M999999019REMSYN106AAXX  25004 17205 11670 80000 11006 21014 38240 48418 52020 60031 72272 8552/ 333 85635 88459 92417 93104;
0196172050999992000032503004+38480+042300FM-12+166599999V0202701N002110105019N0200001N1-00101-00361999999ADDGA1051+010509069GA2081+027009049GF108991051051012501021999MA1999999082601MD1210201+9999ME1314379REMSYN088AAXX  25034 17205 42670 82704 11010 21036 38260 48437 52020 8552/ 333 85635 88459 92417;
0291172050999992000032506004+38480+042300FM-12+166599999V0202701N002110300019N0200001N1-00041-00591999999ADDAA112003091AJ100259199999999GA1041+012009069GA2061+030009039GF106991041051012501051001IA1239IA2999-00309KA1120N-00201MA1999999082901MD1210301+9999ME1314659REMSYN124AAXX  25064 17205 12670 62704 11004 21059 38290 48465 52030 60032 84550 333 21020 3/103 47025 55000 70030 84640 86360 92417;
0162172050999992000032509004+38480+042300FM-12+166599999V0202501N003612200019N0300001N1+00101-00621999999ADDGA1001+999999999GF100991001001999999001001MA1999999083101MD1210201+9999ME1314839REMSYN070AAXX  25094 17205 42980 02507 10010 21062 38310 48483 52020 333 10185;
0173172050999992000032512004+38480+042300FM-12+166599999V0202501N002112200019N0300001N1+00201-00641999999ADDAA199000021GA1001+999999999GF100991001001999999001001MA1999999083201MD1110101+9999ME1314929REMSYN070AAXX  25124 17205 32980 02504 10020 21064 38320 48492 51010 333 10190;
0162172050999992000032515004+38480+042300FM-12+166599999V0202501N001512200019N0300001N1+00141-00901999999ADDGA1001+999999999GF100991001001999999001001MA1999999083301MD1110101+9999ME1315029REMSYN070AAXX  25154 17205 42980 02503 10014 21090 38330 48502 51010 333 10210;
0211172050999992000032518004+38480+042300FM-12+166599999V0202701N001512200019N0300001N1+00001-00961999999ADDAA199000091GA1001+999999999GF100991001001999999001001KA1120M+00401MA1999999083501MD1210201+9999ME1315239REMSYN076AAXX  25184 17205 32980 02703 10000 21096 38350 48523 52020 333 10040 92418;EQDQ01  00002PRCP99
0162172050999992000032521004+38480+042300FM-12+166599999V0202701N001012200019N0300001N1-00201-01161999999ADDGA1001+999999999GF100991001001999999001001MA1999999083601MD1210101+9999ME1315339REMSYN070AAXX  25214 17205 42980 02702 11020 21116 38360 48533 52010 333 10239;
0192172050999992000032600004+38480+042300FM-12+166599999V0202501N001512200019N0300001N1-00201-01161999999ADDAA199000091GA1001+999999999GF100991001001999999001001MA1999999083601MD1410001+9999ME1315339REMSYN070AAXX  26004 17205 32980 02503 11020 21116 38360 48533 54000 333 10247;EQDQ01  00002PRCP99
0162172050999992000032603004+38480+042300FM-12+166599999V0209999C000012200019N0300001N1-00401-01151999999ADDGA1001+999999999GF100991001001999999001001MA1999999083701MD1210101+9999ME1315449REMSYN070AAXX  26034 17205 42980 00000 11040 21115 38370 48544 52010 333 10267;
0264172050999992000032606004+38480+042300FM-12+166599999V0209999C000012200019N0300001N1-00141-00801999999ADDAA199000091AJ100229199999999GA1001+999999999GF100991001001999999001001IA1239IA2999-00709KA1120N-00541MA1999999083801MD1110101+9999ME1315519REMSYN094AAXX  26064 17205 32980 00000 11014 21080 38380 48551 51010 333 21054 3/107 47022 55059 92418;EQDQ01  00002PRCP99
0162172050999992000032609004+38480+042300FM-12+166599999V0200401N001012200019N0300001N1+00401-00531999999ADDGA1001+999999999GF100991001001999999001001MA1999999083881MD1310081+9999ME1315609REMSYN070AAXX  26094 17205 42980 00402 10040 21053 38388 48560 53008 333 10273;
0192172050999992000032612004+38480+042300FM-12+166599999V0200401N001012200019N0300001N1+00501-00471999999ADDAA199000091GA1001+999999999GF100991001001999999001001MA1999999083901MD1110021+9999ME1315609REMSYN070AAXX  26124 17205 32980 00402 10050 21047 38390 48560 51002 333 10268;EQDQ01  00002PRCP99
0162172050999992000032615004+38480+042300FM-12+166599999V0209999C000012200019N0300001N1+00301-00621999999ADDGA1001+999999999GF100991001001999999001001MA1999999083901MD1410001+9999ME1315609REMSYN070AAXX  26154 17205 42980 00000 10030 21062 38390 48560 54000 333 10291;
0211172050999992000032618004+38480+042300FM-12+166599999V0209999C000012200019N0300001N1-00101-00681999999ADDAA199000091GA1001+999999999GF100991001001999999001001KA1120M+00581MA1999999084001MD1110101+9999ME1315719REMSYN076AAXX  26184 17205 32980 00000 11010 21068 38400 48571 51010 333 10058 92418;EQDQ01  00002PRCP99
0162172050999992000032621004+38480+042300FM-12+166599999V0209999C000012200019N0300001N1-00221-00521999999ADDGA1001+999999999GF100991001001999999001001MA1999999084001MD1410001+9999ME1315719REMSYN070AAXX  26214 17205 42980 00000 11022 21052 38400 48571 54000 333 10288;
0192172050999992000032700004+38480+042300FM-12+166599999V0209999C000012200019N0300001N1-00261-00491999999ADDAA199000091GA1001+999999999GF100991001001999999001001MA1999999084001MD1410001+9999ME1315719REMSYN070AAXX  27004 17205 32980 00000 11026 21049 38400 48571 54000 333 10288;EQDQ01  00002PRCP99
0196172050999992000032703004+38480+042300FM-12+166599999V0209999C000010300019N0300001N1-00161-00381999999ADDGA1041+012009069GA2061+030009039GF106991041051012501051001MA1999999083901MD1810101+9999ME1315629REMSYN088AAXX  27034 17205 42680 60000 11016 21038 38390 48562 58010 84550 333 84640 86360 92418;
0259172050999992000032706004+38480+042300FM-12+166599999V0209999C00001030001CN0300001N1+00121-00371999999ADDAA199000091AJ100209199999999GA1041+012009069GA2061+030009039GF106991999999012501999999IA1239IA2999-00409KA1120N-00301REMSYN111AAXX  27064 17205 32680 60000 10012 21037 3839 48560 54000 84550 333 21030 3/104 47020 55069 84640 86360 92418;EQDQ01  00002PRCP99
0174172050999992000032709004+38480+042300FM-12+166599999V0200701N002112200019N0300001N1+00421-00421999999ADDGA1041+012009069GF104991041051012501001001MA1999999083901MD1410001+9999ME1315599REMSYN082AAXX  27094 17205 42680 40704 10042 21042 38390 48559 54000 84500 333 84640 92418;
0192172050999992000032712004+38480+042300FM-12+166599999V0200701N001512200019N0300001N1+00501-00461999999ADDAA199000091GA1001+999999999GF100991001001999999001001MA1999999083801MD1610101+9999ME1315499REMSYN070AAXX  27124 17205 32980 00703 10050 21046 38380 48549 56010 333 10256;EQDQ01  00002PRCP99
0162172050999992000032715004+38480+042300FM-12+166599999V0202701N001512200019N0300001N1+00301-00521999999ADDGA1001+999999999GF100991001001999999001001MA1999999083801MD1410001+9999ME1315509REMSYN070AAXX  27154 17205 42980 02703 10030 21052 38380 48550 54000 333 10263;
0211172050999992000032718004+38480+042300FM-12+166599999V0209999C000012200019N0300001N1+00001-00621999999ADDAA199000091GA1001+999999999GF100991001001999999001001KA1120M+00601MA1999999083801MD1410001+9999ME1315519REMSYN076AAXX  27184 17205 32980 00000 10000 21062 38380 48551 54000 333 10060 92418;EQDQ01  00002PRCP99
0162172050999992000032721004+38480+042300FM-12+166599999V0209999C000012200019N0300001N1-00201-00691999999ADDGA1001+999999999GF100991001001999999001001MA1999999083801MD1410001+9999ME1315529REMSYN070AAXX  27214 17205 42980 00000 11020 21069 38380 48552 54000 333 10263;
0192172050999992000032800004+38480+042300FM-12+166599999V0209999C000012200019N0300001N1-00301-00811999999ADDAA199000091GA1001+999999999GF100991001001999999001001MA1999999083801MD1410001+9999ME1315539REMSYN070AAXX  28004 17205 32980 00000 11030 21081 38380 48553 54000 333 10263;EQDQ01  00002PRCP99
0162172050999992000032803004+38480+042300FM-12+166599999V0209999C000012200019N0300001N1-00381-00791999999ADDGA1001+999999999GF100991001001999999001001MA1999999083801MD1410001+9999ME1315539REMSYN070AAXX  28034 17205 42980 00000 11038 21079 38380 48553 54000 333 10271;
0314172050999992000032806004+38480+042300FM-12+166599999V0209999C000010300019N0300001N1+00001-00511999999ADDAA199000091AJ100189199999999GA1031+012009069GA2061+030009039GF199999031051012501051001IA1239IA2999-00609KA1120N-00501MA1999999083801MD1410001+9999ME1315529REMSYN112AAXX  28064 17205 32680 50000 10000 21051 38380 48552 54000 83550 333 21050 3/106 47018 55066 83640 86360 92418;EQDQ01+000052SCOTCVQ02  00002PRCP99
0162172050999992000032809004+38480+042300FM-12+166599999V0200401N001012200019N0300001N1+00601-00101999999ADDGA1001+999999999GF100991001001999999001001MA1999999083801MD1410001+9999ME1315499REMSYN070AAXX  28094 17205 42980 00402 10060 21010 38380 48549 54000 333 10256;
0192172050999992000032812004+38480+042300FM-12+166599999V0200401N001012200019N0300001N1+00681-00151999999ADDAA199000091GA1001+999999999GF100991001001999999001001MA1999999083801MD1410001+9999ME1315489REMSYN070AAXX  28124 17205 32980 00402 10068 21015 38380 48548 54000 333 10233;EQDQ01  00002PRCP99
0162172050999992000032815004+38480+042300FM-12+166599999V0202701N001512200019N0300001N1+00401-00451999999ADDGA1001+999999999GF100991001001999999001001MA1999999083701MD1810101+9999ME1315409REMSYN070AAXX  28154 17205 42980 02703 10040 21045 38370 48540 58010 333 10259;
0211172050999992000032818004+38480+042300FM-12+166599999V0202201N001012200019N0300001N1+00181-00411999999ADDAA199000091GA1001+999999999GF100991001001999999001001KA1120M+00741MA1999999083741MD1110041+9999ME1315419REMSYN076AAXX  28184 17205 32980 02202 10018 21041 38374 48541 51004 333 10074 92418;EQDQ01  00002PRCP99
0162172050999992000032821004+38480+042300FM-12+166599999V0202701N001012200019N0300001N1+00001-00461999999ADDGA1001+999999999GF100991001001999999001001MA1999999083741MD1410001+9999ME1315429REMSYN070AAXX  28214 17205 42980 02702 10000 21046 38374 48542 54000 333 10218;
0192172050999992000032900004+38480+042300FM-12+166599999V0209999C000012200019N0300001N1-00121-00431999999ADDAA199000091GA1001+999999999GF100991001001999999001001MA1999999083701MD1710041+9999ME1315439REMSYN070AAXX  29004 17205 32980 00000 11012 21043 38370 48543 57004 333 10236;EQDQ01  00002PRCP99
0162172050999992000032903004+38480+042300FM-12+166599999V0209999C000012200019N0300001N1-00201-00551999999ADDGA1001+999999999GF100991001001999999001001MA1999999083701MD1410001+9999ME1315439REMSYN070AAXX  29034 17205 42980 00000 11020 21055 38370 48543 54000 333 10251;
0264172050999992000032906004+38480+042300FM-12+166599999V0209999C000012200019N0300001N1+00141-00461999999ADDAA199000091AJ100169199999999GA1001+999999999GF100991001001999999001001IA1239IA2999-00509KA1120N-00341MA1999999083801MD1110101+9999ME1315519REMSYN094AAXX  29064 17205 32980 00000 10014 21046 38380 48551 51010 333 21034 3/105 47016 55069 92418;EQDQ01  00002PRCP99
0162172050999992000032909004+38480+042300FM-12+166599999V0200401N001012200019N0300001N1+00701-00101999999ADDGA1001+999999999GF100991001001999999001001MA1999999083801MD1410001+9999ME1315489REMSYN070AAXX  29094 17205 42980 00402 10070 21010 38380 48548 54000 333 10240;
0192172050999992000032912004+38480+042300FM-12+166599999V0200701N001512200019N0300001N1+00861+00031999999ADDAA199000091GA1001+999999999GF100991001001999999001001MA1999999083701MD1810101+9999ME1315389REMSYN070AAXX  29124 17205 32980 00703 10086 20003 38370 48538 58010 333 10228;EQDQ01  00002PRCP99
0162172050999992000032915004+38480+042300FM-12+166599999V0209999C000012200019N0300001N1+00601-00321999999ADDGA1001+999999999GF100991001001999999001001MA1999999083601MD1710101+9999ME1315299REMSYN070AAXX  29154 17205 42980 00000 10060 21032 38360 48529 57010 333 10231;
0211172050999992000032918004+38480+042300FM-12+166599999V0209999C000012200019N0300001N1+00401-00301999999ADDAA199000091GA1001+999999999GF100991001001999999001001KA1120M+01001MA1999999083601MD1410001+9999ME1315409REMSYN076AAXX  29184 17205 32980 00000 10040 21030 38360 48540 54000 333 10100 92418;EQDQ01  00002PRCP99
0162172050999992000032921004+38480+042300FM-12+166599999V0209999C000012200019N0300001N1+00181-00301999999ADDGA1001+999999999GF100991001001999999001001MA1999999083601MD1410001+9999ME1315319REMSYN070AAXX  29214 17205 42980 00000 10018 21030 38360 48531 54000 333 10216;
0192172050999992000033000004+38480+042300FM-12+166599999V0209999C000012200019N0300001N1+00041-00461999999ADDAA199000091GA1001+999999999GF100991001001999999001001MA1999999083501MD1710101+9999ME1315239REMSYN070AAXX  30004 17205 32980 00000 10004 21046 38350 48523 57010 333 10204;EQDQ01  00002PRCP99
0162172050999992000033003004+38480+042300FM-12+166599999V0209999C000012200019N0300001N1-00101-00431999999ADDGA1001+999999999GF100991001001999999001001MA1999999083501MD1410001+9999ME1315249REMSYN070AAXX  30034 17205 42980 00000 11010 21043 38350 48524 54000 333 10211;
0264172050999992000033006004+38480+042300FM-12+166599999V0209999C000012200019N0300001N1+00301-00431999999ADDAA199000091AJ100149199999999GA1001+999999999GF100991001001999999001001IA1239IA2999-00309KA1120N-00161MA1999999083601MD1210101+9999ME1315309REMSYN094AAXX  30064 17205 32980 00000 10030 21043 38360 48530 52010 333 21016 3/103 47014 55074 92418;EQDQ01  00002PRCP99
0162172050999992000033009004+38480+042300FM-12+166599999V0202901N001512200019N0300001N1+00761-00271999999ADDGA1001+999999999GF100991001001999999001001MA1999999083601MD1410001+9999ME1315289REMSYN070AAXX  30094 17205 42980 02903 10076 21027 38360 48528 54000 333 10208;
0192172050999992000033012004+38480+042300FM-12+166599999V0203401N001512200019N0300001N1+00961-00381999999ADDAA199000091GA1001+999999999GF100991001001999999001001MA1999999083501MD1610101+9999ME1315179REMSYN070AAXX  30124 17205 32980 03403 10096 21038 38350 48517 56010 333 10196;EQDQ01  00002PRCP99
0162172050999992000033015004+38480+042300FM-12+166599999V0202701N001012200019N0300001N1+00641-00431999999ADDGA1001+999999999GF100991001001999999001001MA1999999083501MD1410001+9999ME1315199REMSYN070AAXX  30154 17205 42980 02702 10064 21043 38350 48519 54000 333 10211;
0211172050999992000033018004+38480+042300FM-12+166599999V0209999C000012200019N0300001N1+00401-00181999999ADDAA199000091GA1001+999999999GF100991001001999999001001KA1120M+01061MA1999999083501MD1410001+9999ME1315209REMSYN076AAXX  30184 17205 32980 00000 10040 21018 38350 48520 54000 333 10106 92418;EQDQ01  00002PRCP99
0162172050999992000033021004+38480+042300FM-12+166599999V0209999C000012200019N0300001N1+00101-00231999999ADDGA1001+999999999GF100991001001999999001001MA1999999083501MD1410001+9999ME1315229REMSYN070AAXX  30214 17205 42980 00000 10010 21023 38350 48522 54000 333 10204;
0192172050999992000033100004+38480+042300FM-12+166599999V0209999C000012200019N0300001N1+00001-00241999999ADDAA199000091GA1001+999999999GF100991001001999999001001MA1999999083441MD1410001+9999ME1315139REMSYN070AAXX  31004 17205 32980 00000 10000 21024 38344 48513 54000 333 10189;EQDQ01  00002PRCP99
0162172050999992000033103004+38480+042300FM-12+166599999V0209999C000012200019N0300001N1-00101-00361999999ADDGA1001+999999999GF100991001001999999001001MA1999999083401MD1610041+9999ME1315149REMSYN070AAXX  31034 17205 42980 00000 11010 21036 38340 48514 56004 333 10199;
0276172050999992000033106004+38480+042300FM-12+166599999V0209999C000012200019N0300001N1+00261-00251999999ADDAA199000091AJ100119199999999GA1041+012009069GF104991041051012501001001IA1239IA2999-00309KA1120N-00241MA1999999083401MD1410001+9999ME1315129REMSYN106AAXX  31064 17205 32680 40000 10026 21025 38340 48512 54000 84500 333 21024 3/103 47011 55076 84640 92418;EQDQ01  00002PRCP99
0174172050999992000033109004+38480+042300FM-12+166599999V0202701N001512200019N0300001N1+00901-00481999999ADDGA1021+012009069GF102991021051012501001001MA1999999083401MD1410001+9999ME1315089REMSYN082AAXX  31094 17205 42680 22703 10090 21048 38340 48508 54000 82500 333 82640 92418;
0204172050999992000033112004+38480+042300FM-12+166599999V0202501N001512200019N0300001N1+01001-00481999999ADDAA199000091GA1041+012009069GF104991041051012501001001MA1999999083401MD1410001+9999ME1315079REMSYN082AAXX  31124 17205 32680 42503 10100 21048 38340 48507 54000 84500 333 84640 92418;EQDQ01  00002PRCP99
0174172050999992000033115004+38480+042300FM-12+166599999V0202701N001012200019N0300001N1+00821-00481999999ADDGA1041+012009069GF104991041051012501001001MA1999999083401MD1410001+9999ME1315089REMSYN082AAXX  31154 17205 42680 42702 10082 21048 38340 48508 54000 84500 333 84640 92418;
0211172050999992000033118004+38480+042300FM-12+166599999V0202701N001012200019N0300001N1+00661-00341999999ADDAA199000091GA1001+999999999GF100991001001999999001001KA1120M+01161MA1999999083401MD1410001+9999ME1315109REMSYN076AAXX  31184 17205 32980 02702 10066 21034 38340 48510 54000 333 10116 92418;EQDQ01  00002PRCP99
0162172050999992000033121004+38480+042300FM-12+166599999V0209999C000012200019N0300001N1+00481-00041999999ADDGA1001+999999999GF100991001001999999001001MA1999999083501MD1210101+9999ME1315209REMSYN070AAXX  31214 17205 42980 00000 10048 21004 38350 48520 52010 333 10181;
0192172050999992000040100004+38480+042300FM-12+166599999V0209999C000012200019N0300001N1+00221-00241999999ADDAA199000091GA1001+999999999GF100991001001999999001001MA1999999083501MD1410001+9999ME1315229REMSYN070AAXX  01004 17205 32980 00000 10022 21024 38350 48522 54000 333 10188;EQDQ01  00002PRCP99
0162172050999992000040103004+38480+042300FM-12+166599999V0209999C000012200019N0300001N1+00101-00181999999ADDGA1001+999999999GF100991001001999999001001MA1999999083601MD1210101+9999ME1315319REMSYN070AAXX  01034 17205 42980 00000 10010 21018 38360 48531 52010 333 10216;
0237172050999992000040106004+38480+042300FM-12+166599999V0209999C000012200019N0300001N1+00401-00041999999ADDAA199000091AJ100099199999999GA1021+012009069GF102991999999012501999999IA1239IA2999-00109KA1120N+00001REMSYN105AAXX  01064 17205 32680 20000 10040 21004 8370 48540 51010 82500 333 20000 3/101 47009 55066 82640 92418;EQDQ01  00002PRCP99
0162172050999992000040109004+38480+042300FM-12+166599999V0200401N001012200019N0300001N1+01001+00211999999ADDGA1001+999999999GF100991001001999999001001MA1999999083801MD1310101+9999ME1315489REMSYN070AAXX  01094 17205 42980 00402 10100 20021 38380 48548 53010 333 10218;
0192172050999992000040112004+38480+042300FM-12+166599999V0200401N001012200019N0300001N1+01041+00271999999ADDAA199000091GA1001+999999999GF100991001001999999001001MA1999999083801MD1410001+9999ME1315489REMSYN070AAXX  01124 17205 32980 00402 10104 20027 38380 48548 54000 333 10218;EQDQ01  00002PRCP99
0162172050999992000040115004+38480+042300FM-12+166599999V0209999C000012200019N0300001N1+00941+00151999999ADDGA1001+999999999GF100991001001999999001001MA1999999083801MD1410001+9999ME1315489REMSYN070AAXX  01154 17205 42980 00000 10094 20015 38380 48548 54000 333 10233;
0211172050999992000040118004+38480+042300FM-12+166599999V0209999C000012200019N0300001N1+00601+00101999999ADDAA199000091GA1001+999999999GF100991001001999999001001KA1120M+01161MA1999999083801MD1410001+9999ME1315499REMSYN076AAXX  01184 17205 32980 00000 10060 20010 38380 48549 54000 333 10116 92418;EQDQ01  00002PRCP99
0162172050999992000040121004+38480+042300FM-12+166599999V0209999C000012200019N0300001N1+00401+00151999999ADDGA1001+999999999GF100991001001999999001001MA1999999083901MD1110101+9999ME1315599REMSYN070AAXX  01214 17205 42980 00000 10040 20015 38390 48559 51010 333 10230;
0192172050999992000040200004+38480+042300FM-12+166599999V0209999C000012200019N0300001N1+00201+00031999999ADDAA199000091GA1001+999999999GF100991001001999999001001MA1999999083901MD1410001+9999ME1315609REMSYN070AAXX  02004 17205 32980 00000 10020 20003 38390 48560 54000 333 10237;EQDQ01  00002PRCP99
0162172050999992000040203004+38480+042300FM-12+166599999V0209999C000012200019N0300001N1+00201+00071999999ADDGA1001+999999999GF100991001001999999001001MA1999999083901MD1410001+9999ME1315609REMSYN070AAXX  02034 17205 42980 00000 10020 20007 38390 48560 54000 333 10237;
0298172050999992000040206004+38480+042300FM-12+166599999V0209999C000010300019N0300001N1+00501+00211999999ADDAA199000091AJ100069199999999GA1041+012009069GA2061+030009039GF106991041051012501051001IA1239IA2999-00109KA1120N+00101MA1999999083901MD1410001+9999ME1315599REMSYN112AAXX  02064 17205 32680 60000 10050 20021 38390 48559 54000 84550 333 20010 3/101 47006 55073 84640 86360 92418;EQDQ01  00002PRCP99
0162172050999992000040209004+38480+042300FM-12+166599999V0200901N001012200019N0300001N1+01061+00151999999ADDGA1001+999999999GF100991001001999999001001MA1999999083901MD1410001+9999ME1315579REMSYN070AAXX  02094 17205 42980 00902 10106 20015 38390 48557 54000 333 10236;
0192172050999992000040212004+38480+042300FM-12+166599999V0200401N001012200019N0300001N1+01201+00141999999ADDAA199000091GA1001+999999999GF100991001001999999001001MA1999999083801MD1610101+9999ME1315469REMSYN070AAXX  02124 17205 32980 00402 10120 20014 38380 48546 56010 333 10218;EQDQ01  00002PRCP99
0161172050999992000040215004+38480+042300FM-12+166599999V0209999C000012200019N0300001N1+01001+00211999999ADDGA1001+999999999GF100991001001999999001001MA1999999083801MD1410001+9999ME1315479REMSYN069AAXX  02154 17205 42980 00000 10100 20021 38380 48547 54000 333 1025;
0211172050999992000040218004+38480+042300FM-12+166599999V0209999C000012200019N0300001N1+00701+00081999999ADDAA199000091GA1001+999999999GF100991001001999999001001KA1120M+01301MA1999999083801MD1410001+9999ME1315489REMSYN076AAXX  02184 17205 32980 00000 10070 20008 38380 48548 54000 333 10130 92418;EQDQ01  00002PRCP99
0162172050999992000040221004+38480+042300FM-12+166599999V0209999C000012200019N0300001N1+00401-00041999999ADDGA1001+999999999GF100991001001999999001001MA1999999083801MD1410001+9999ME1315509REMSYN070AAXX  02214 17205 42980 00000 10040 21004 38380 48550 54000 333 10218;
0192172050999992000040300004+38480+042300FM-12+166599999V0209999C000012200019N0300001N1+00301-00151999999ADDAA199000091GA1001+999999999GF100991001001999999001001MA1999999083801MD1410001+9999ME1315509REMSYN070AAXX  03004 17205 32980 00000 10030 21015 38380 48550 54000 333 10210;EQDQ01  00002PRCP99
0162172050999992000040303004+38480+042300FM-12+166599999V0209999C000012200019N0300001N1+00141-00181999999ADDGA1001+999999999GF100991001001999999001001MA1999999083801MD1410001+9999ME1315519REMSYN070AAXX  03034 17205 42980 00000 10014 21018 38380 48551 54000 333 10225;
0264172050999992000040306004+38480+042300FM-12+166599999V0209999C000012200019N0300001N1+00601-00041999999ADDAA199000091AJ100049199999999GA1001+999999999GF100991001001999999001001IA1239IA2999-00109KA1120N+00061MA1999999083841MD1110041+9999ME1315499REMSYN094AAXX  03064 17205 32980 00000 10060 21004 38384 48549 51004 333 20006 3/101 47004 55056 92418;EQDQ01  00002PRCP99
0162172050999992000040309004+38480+042300FM-12+166599999V0200401N001512200019N0300001N1+01101+00471999999ADDGA1001+999999999GF100991001001999999001001MA1999999083901MD1210061+9999ME1315579REMSYN070AAXX  03094 17205 42980 00403 10110 20047 38390 48557 52006 333 10222;
0192172050999992000040312004+38480+042300FM-12+166599999V0200701N001012200019N0300001N1+01261+00411999999ADDAA199000091GA1001+999999999GF100991001001999999001001MA1999999083801MD1810101+9999ME1315469REMSYN070AAXX  03124 17205 32980 00702 10126 20041 38380 48546 58010 333 10210;EQDQ01  00002PRCP99
0162172050999992000040315004+38480+042300FM-12+166599999V0202701N001012200019N0300001N1+01181+00261999999ADDGA1001+999999999GF100991001001999999001001MA1999999083701MD1710101+9999ME1315369REMSYN070AAXX  03154 17205 42980 02702 10118 20026 38370 48536 57010 333 10205;
0211172050999992000040318004+38480+042300FM-12+166599999V0209999C000012200019N0300001N1+00801+00201999999ADDAA199000091GA1001+999999999GF100991001001999999001001KA1120M+01361MA1999999083801MD1210101+9999ME1315489REMSYN076AAXX  03184 17205 32980 00000 10080 20020 38380 48548 52010 333 10136 92418;EQDQ01  00002PRCP99
0162172050999992000040321004+38480+042300FM-12+166599999V0209999C000012200019N0300001N1+00541+00171999999ADDGA1001+999999999GF100991001001999999001001MA1999999083901MD1110101+9999ME1315599REMSYN070AAXX  03214 17205 42980 00000 10054 20017 38390 48559 51010 333 10222;
0192172050999992000040400004+38480+042300FM-12+166599999V0209999C000012200019N0300001N1+00301-00011999999ADDAA199000091GA1001+999999999GF100991001001999999001001MA1999999083901MD1410001+9999ME1315599REMSYN070AAXX  04004 17205 32980 00000 10030 21001 38390 48559 54000 333 10222;EQDQ01  00002PRCP99
0162172050999992000040403004+38480+042300FM-12+166599999V0209999C000012200019N0300001N1+00241-00031999999ADDGA1001+999999999GF100991001001999999001001MA1999999083901MD1410001+9999ME1315609REMSYN070AAXX  04034 17205 42980 00000 10024 21003 38390 48560 54000 333 10230;
0298172050999992000040406004+38480+042300FM-12+166599999V0209999C000010300019N0300001N1+00601-00011999999ADDAA199000091AJ100029199999999GA1031+012009089GA2051+030009039GF105991031011012501031001IA1239IA2999-00109KA1120N+00101MA1999999083901MD1410001+9999ME1315589REMSYN112AAXX  04064 17205 32680 50000 10060 21001 38390 48558 54000 83130 333 20010 3/101 47002 55075 83840 85360 92418;EQDQ01  00002PRCP99
0196172050999992000040409004+38480+042300FM-12+166599999V0200401N001010300019N0300001N1+01121+00361999999ADDGA1031+012009089GA2051+030009039GF105991031011012501031001MA1999999084001MD1310101+9999ME1315689REMSYN088AAXX  04094 17205 42680 50402 10112 20036 38400 48568 53010 83130 333 83840 85360 92418;
0226172050999992000040412004+38480+042300FM-12+166599999V0200301N001010300019N0300001N1+01101+00501999999ADDAA199000091GA1041+012009089GA2071+030009039GF107991041021012501071001MA1999999083901MD1810101+9999ME1315589REMSYN088AAXX  04124 17205 32680 70302 10110 20050 38390 48558 58010 84270 333 84840 87360 92418;EQDQ01  00002PRCP99
0196172050999992000040415004+38480+042300FM-12+166599999V0209999C000010300019N0300001N1+01201+00161999999ADDGA1041+012009089GA2061+030009039GF106991041021012501051001MA1999999083801MD1710101+9999ME1315469REMSYN088AAXX  04154 17205 42680 60000 10120 20016 38380 48546 57010 84250 333 84840 86360 92418;
0211172050999992000040418004+38480+042300FM-12+166599999V0209999C000012200019N0300001N1+00801+00081999999ADDAA199000091GA1001+999999999GF100991001001999999001001KA1120M+01301MA1999999083801MD1410001+9999ME1315469REMSYN076AAXX  04184 17205 32980 00000 10080 20008 38380 48546 54000 333 10130 92418;EQDQ01  00002PRCP99
0162172050999992000040421004+38480+042300FM-12+166599999V0209999C000012200019N0300001N1+00541+00121999999ADDGA1001+999999999GF100991001001999999001001MA1999999083901MD1110101+9999ME1315599REMSYN070AAXX  04214 17205 42980 00000 10054 20012 38390 48559 51010 333 10222;
0226172050999992000040500004+38480+042300FM-12+166599999V0209999C000010300019N0300001N1+00441+00081999999ADDAA199000091GA1041+012009089GA2061+030009039GF106991041021012501051001MA1999999083801MD1710101+9999ME1315509REMSYN088AAXX  05004 17205 32680 60000 10044 20008 38380 48550 57010 84250 333 84840 86360 92418;EQDQ01  00002PRCP99
0196172050999992000040503004+38480+042300FM-12+166599999V0202501N001510300019N0300001N1+00701+00241999999ADDGA1041+012009089GA2081+030009049GF108991041021012501021999MA1999999083801MD1410001+9999ME1315489REMSYN088AAXX  05034 17205 42680 82503 10070 20024 38380 48548 54000 8422/ 333 84840 88460 92418;
0275172050999992000040506004+38480+042300FM-12+166599999V0202701N001510300019N0300001N1+00801+00081999999ADDAA199000091GA1041+012009089GA2081+030009049GF108991041021012501021999IA1019IA2999+00109KA1120N+00381MA1999999083801MD1410001+9999ME1315489REMSYN106AAXX  05064 17205 32680 82703 10080 20008 38380 48548 54000 8422/ 333 20038 30001 55033 84840 88460 92418;EQDQ01  00002PRCP99
0196172050999992000040509004+38480+042300FM-12+166599999V0209999C000010300019N0300001N1+00961+00261999999ADDGA1041+012009089GA2081+030009049GF108991041021012501021999MA1999999083901MD1110101+9999ME1315579REMSYN088AAXX  05094 17205 42680 80000 10096 20026 38390 48557 51010 8422/ 333 84840 88460 92418;
0204172050999992000040512004+38480+042300FM-12+166599999V0200701N002112200019N0300001N1+01221+00491999999ADDAA199000091GA1041+012009089GF104991041021012501001001MA1999999083801MD1610101+9999ME1315469REMSYN082AAXX  05124 17205 32680 40704 10122 20049 38380 48546 56010 84200 333 84840 92418;EQDQ01  00002PRCP99
0196172050999992000040515004+38480+042300FM-12+166599999V0200701N001010300019N0300001N1+01001+00641999999ADDGA1031+012009089GA2051+030009039GF105991031021012501051001MA1999999083701MD1810101+9999ME1315379REMSYN088AAXX  05154 17205 42680 50702 10100 20064 38370 48537 58010 83250 333 83840 85360 92418;
0211172050999992000040518004+38480+042300FM-12+166599999V0209999C000012200019N0300001N1+00701+00391999999ADDAA199000091GA1001+999999999GF100991001001999999001001KA1120M+01301MA1999999083701MD1410001+9999ME1315389REMSYN076AAXX  05184 17205 32980 00000 10070 20039 38370 48538 54000 333 10130 92418;EQDQ01  00002PRCP99
0162172050999992000040521004+38480+042300FM-12+166599999V0209999C000012200019N0300001N1+00501+00301999999ADDGA1001+999999999GF100991001001999999001001MA1999999083701MD1410001+9999ME1315399REMSYN070AAXX  05214 17205 42980 00000 10050 20030 38370 48539 54000 333 10206;
0192172050999992000040600004+38480+042300FM-12+166599999V0209999C000012200019N0300001N1+00301+00201999999ADDAA199000091GA1001+999999999GF100991001001999999001001MA1999999083601MD1710101+9999ME1315309REMSYN070AAXX  06004 17205 32980 00000 10030 20020 38360 48530 57010 333 10186;EQDQ01  00002PRCP99
0196172050999992000040603004+38480+042300FM-12+166599999V0209999C000010300019N0300001N1+00301+00201999999ADDGA1041+012009089GA2061+030009039GF106991041021012501051001MA1999999083601MD1410001+9999ME1315309REMSYN088AAXX  06034 17205 42680 60000 10030 20020 38360 48530 54000 84250 333 84840 86360 92418;
0253172050999992000040606004+38480+042300FM-12+166599999V0209999C000012200019N0300001N1+00641+00371999999ADDAA199000091GA1031+012009089GF103991031051012501001001IA1019IA2999+00009KA1120N+00181MA1999999083601MD1410001+9999ME1315299REMSYN100AAXX  06064 17205 32680 30000 10064 20037 38360 48529 54000 83500 333 20018 30000 55024 83840 92418;EQDQ01  00002PRCP99
0174172050999992000040609004+38480+042300FM-12+166599999V0200201N001512200019N0300001N1+01101+00571999999ADDGA1031+012009089GF103991031021012501001001MA1999999083601MD1410001+9999ME1315269REMSYN082AAXX  06094 17205 42680 30203 10110 20057 38360 48526 54000 83200 333 83840 92418;
0198172050999992000040612004+38480+042300FM-12+166599999V0200701N001512200019N0300001N1+01521+00221999999ADDAA199000091GA1031+012009089GF103991999999012501999999MA1999999083501MD1810101+9999ME1315159REMSYN076AAXX  06124 17205 32680 30703 10152 20022 38350 48515 58010 333 83840 92418;EQDQ01  00002PRCP99
0162172050999992000040615004+38480+042300FM-12+166599999V0200701N001012200019N0300001N1+01201+00671999999ADDGA1001+999999999GF100991001001999999001001MA1999999083301MD1710201+9999ME1314969REMSYN070AAXX  06154 17205 42980 00702 10120 20067 38330 48496 57020 333 10149;
0245172050999992000040618004+38480+042300FM-12+166599999V0200401N001010300019N0300001N1+01001+00521999999ADDAA199000091GA1041+012009089GA2061+030009039GF106991041021012501051001KA1120M+01741MA1999999083301MD1410001+9999ME1314979REMSYN094AAXX  06184 17205 32680 60402 10100 20052 38330 48497 54000 84250 333 10174 84840 86360 92418;EQDQ01  00002PRCP99
0196172050999992000040621004+38480+042300FM-12+166599999V0209999C000010300019N0300001N1+00961+00521999999ADDGA1041+012009089GA2061+030009039GF106991041021012501051001MA1999999083301MD1410001+9999ME1314979REMSYN088AAXX  06214 17205 42680 60000 10096 20052 38330 48497 54000 84250 333 84840 86360 92418;
0204172050999992000040700004+38480+042300FM-12+166599999V0201601N001512200019N0300001N1+01121+00541999999ADDAA199000091GA1031+012009089GF103991031021012501001001MA1999999083101MD1610201+9999ME1314709REMSYN082AAXX  07004 17205 32680 31603 10112 20054 38310 48470 56020 83200 333 83840 92418;EQDQ01  00002PRCP99
0174172050999992000040703004+38480+042300FM-12+166599999V0202701N001512200019N0300001N1+01101+00301999999ADDGA1031+012009089GF103991031021012501001001MA1999999083041MD1710061+9999ME1314679REMSYN082AAXX  07034 17205 42680 32703 10110 20030 38304 48467 57006 83200 333 83840 92418;
0275172050999992000040706004+38480+042300FM-12+166599999V0202901N001010300019N0300001N1+01301+00381999999ADDAA199000091GA1041+012009089GA2061+030009039GF106991041021012501051001IA1019IA2999+00409KA1120N+00701MA1999999083001MD1610041+9999ME1314659REMSYN106AAXX  07064 17205 32680 62902 10130 20038 38300 48465 56004 84250 333 20070 30004 55079 84840 86360 92418;EQDQ01  00002PRCP99
0224172050999992000040709004+38480+042300FM-12+166599999V0201601N002610270019N0200001N1+01501+00421999999ADDAY121031AY221031GA1041+009009089GA2061+027009039GF106991041021008001051001MA1999999082901MD1810101+9999ME1314569MW1801REMSYN094AAXX  07094 17205 41570 61605 10150 20042 38290 48456 58010 78022 84250 333 84830 86359 92427;
0174172050999992000040715004+38480+042300FM-12+166599999V0202001N003112200019N0250001N1+01401+00021999999ADDGA1041+012009089GF104991041021012501001001MA1999999082701MD1810101+9999ME1314349REMSYN082AAXX  07154 17205 42675 42006 10140 20002 38270 48434 58010 84200 333 84840 92427;
0210172050999992000040718004+38480+042300FM-12+166599999V0202001N001512200019N0250001N1+01241+00051999999ADDAA112003091GA1041+012009089GF104991041021012501001001KA1120M+01701MA1999999082901MD1210201+9999ME1314569REMSYN094AAXX  07184 17205 12675 42003 10124 20005 38290 48456 52020 60032 84200 333 10170 84840 92417;
0174172050999992000040721004+38480+042300FM-12+166599999V0202501N003112200019N0250001N1+01061-00111999999ADDGA1041+012009089GF104991041021012501001001MA1999999082901MD1410001+9999ME1314579REMSYN082AAXX  07214 17205 42675 42506 10106 21011 38290 48457 54000 84200 333 84840 92427;
0204172050999992000040800004+38480+042300FM-12+166599999V0202701N001512200019N0250001N1+00801-00171999999ADDAA199000091GA1041+012009089GF104991041021012501001001MA1999999082901MD1410001+9999ME1314599REMSYN082AAXX  08004 17205 32675 42703 10080 21017 38290 48459 54000 84200 333 84840 92417;EQDQ01  00002PRCP99
0174172050999992000040803004+38480+042300FM-12+166599999V0202701N001012200019N0300001N1+00701-00191999999ADDGA1021+012009089GF102991021021012501001001MA1999999082901MD1410001+9999ME1314599REMSYN082AAXX  08034 17205 42680 22702 10070 21019 38290 48459 54000 82200 333 82840 92418;
0240172050999992000040806004+38480+042300FM-12+166599999V0202001N001512200019N0300001N1+01101-00481999999ADDAA124003091GA1041+012009089GF104991041021012501001001IA1019IA2999+00509KA1120N+00601MA1999999082901MD1410001+9999ME1314569REMSYN106AAXX  08064 17205 32680 42003 10110 21048 38290 48456 54000 84200 333 20060 30005 55060 70030 84840 92418;
0196172050999992000040809004+38480+042300FM-12+166599999V0202001N003610300019N0300001N1+01401-00491999999ADDGA1041+012009089GA2061+030009039GF106991041021012501051001MA1999999082901MD1410001+9999ME1314549REMSYN088AAXX  08094 17205 42680 62007 10140 21049 38290 48454 54000 84250 333 84840 86360 92428;
0226172050999992000040812004+38480+042300FM-12+166599999V0202001N004110300019N0300001N1+01341-00611999999ADDAA199000091GA1041+012009089GA2061+030009039GF106991041021012501051001MA1999999082901MD1410001+9999ME1314549REMSYN088AAXX  08124 17205 32680 62008 10134 21061 38290 48454 54000 84250 333 84840 86360 92428;EQDQ01  00002PRCP99
0196172050999992000040815004+38480+042300FM-12+166599999V0202001N003610300019N0300001N1+01241-00811999999ADDGA1041+012009089GA2061+030009039GF106991041021012501051001MA1999999082901MD1410001+9999ME1314569REMSYN088AAXX  08154 17205 42680 62007 10124 21081 38290 48456 54000 84250 333 84840 86360 92428;
0245172050999992000040818004+38480+042300FM-12+166599999V0202001N002610300019N0300001N1+01001-00971999999ADDAA199000091GA1041+012009089GA2061+030009039GF106991041021012501051001KA1120M+01461MA1999999082901MD1410001+9999ME1314579REMSYN094AAXX  08184 17205 32680 62005 10100 21097 38290 48457 54000 84250 333 10146 84840 86360 92428;EQDQ01  00002PRCP99
0196172050999992000040821004+38480+042300FM-12+166599999V0202001N002110300019N0300001N1+00801-00321999999ADDGA1041+012009089GA2061+030009039GF106991041021012501051001MA1999999082901MD1410001+9999ME1314599REMSYN088AAXX  08214 17205 42680 62004 10080 21032 38290 48459 54000 84250 333 84840 86360 92418;
0192172050999992000040900004+38480+042300FM-12+166599999V0209999C000012200019N0300001N1+00601-00311999999ADDAA199000091GA1001+999999999GF100991001001999999001001MA1999999082901MD1410001+9999ME1314609REMSYN070AAXX  09004 17205 32980 00000 10060 21031 38290 48460 54000 333 10086;EQDQ01  00002PRCP99
0196172050999992000040903004+38480+042300FM-12+166599999V0202701N001510300019N0300001N1+00601-00311999999ADDGA1041+012009089GA2081+030009049GF108991041021012501021999MA1999999082701MD1710201+9999ME1314409REMSYN088AAXX  09034 17205 42680 82703 10060 21031 38270 48440 57020 8422/ 333 84840 88460 92418;
0296172050999992000040906004+38480+042300FM-12+166599999V0209999C000010270019N0150001N1+00501+00221999999ADDAA112001091AY161061AY221061GA1041+010509089GA2081+027009049GF108991041021008001021999IA1119IA2999+00209KA1120N+00341MA1999999082701MD1410001+9999ME1314409MW1601REMSYN124AAXX  09064 17205 11565 80000 10050 20022 38270 48440 54000 60012 76062 8422/ 333 20034 32002 55055 70010 84835 88459 92416;
0196172050999992000040909004+38480+042300FM-12+166599999V0202501N003110300019N0250001N1+00501+00221999999ADDGA1041+012009089GA2081+030009049GF108991041021012501021999MA1999999082701MD1410001+9999ME1314429REMSYN088AAXX  09094 17205 42675 82506 10050 20022 38270 48442 54000 8422/ 333 84840 88460 92417;
0207172050999992000040912004+38480+042300FM-12+166599999V0202501N003110300019N0300001N1+00741+00041999999ADDAA199000021GA1041+012009089GA2081+030009049GF108991041021012501021999MA1999999082601MD1610101+9999ME1314299REMSYN088AAXX  09124 17205 32680 82506 10074 20004 38260 48429 56010 8422/ 333 84840 88460 92418;
0196172050999992000040915004+38480+042300FM-12+166599999V0202701N002110300019N0300001N1+00181+00051999999ADDGA1041+012009089GA2061+030009039GF106991041021012501051001MA1999999082601MD1410001+9999ME1314349REMSYN088AAXX  09154 17205 42680 62704 10018 20005 38260 48434 54000 84250 333 84840 86360 92418;
0254172050999992000040918004+38480+042300FM-12+166599999V0202001N001510300019N0200001N1+00321-00171999999ADDAA112004191AY191061AY281061GA1041+012009069GA2061+030009039GF106991999999012501999999KA1120M+00941MA1999999082701MD1210101+9999ME1314429MW1251REMSYN100AAXX  09184 17205 11670 62003 10032 21017 38270 48442 52010 60042 72598 333 10094 84640 86360 92418;
0196172050999992000040921004+38480+042300FM-12+166599999V0202701N001510300019N0300001N1+00221-00161999999ADDGA1041+012009089GA2061+030009039GF106991041021012501051001MA1999999082701MD1410001+9999ME1314449REMSYN088AAXX  09214 17205 42680 62703 10022 21016 38270 48444 54000 84250 333 84840 86360 92418;
0270172050999992000041000004+38480+042300FM-12+166599999V0209999C000010090019N0080001N1+00101+00061999999ADDAA106001091AL10600091AY121061AY221061GA1051+009009069GA2081+024009049GF108991051051008001021999MA1999999082601MD1710101+9999ME1314349MW1701UA1M999999019REMSYN106AAXX  10004 17205 11558 80000 10010 20006 38260 48434 57010 60011 77022 8552/ 333 85630 88458 92416 93100;
0224172050999992000041003004+38480+042300FM-12+166599999V0209999C000010090019N0080001N1+00061+00021999999ADDAY171031AY271031GA1051+009009069GA2081+024009049GF108991051051008001021999MA1999999082501MD1610101+9999ME1314269MW1701REMSYN094AAXX  10034 17205 41558 80000 10006 20002 38250 48426 56010 77077 8552/ 333 85630 88458 92416;
0348172050999992000041006004+38480+042300FM-12+166599999V0202901N001510090019N0080001N1+00001-00021999999ADDAA112010991AJ100059199999999AL10600591AY171061AY271061GA1051+009009069GA2081+024009049GF108991051051008001021999IA1239IA2999-00309KA1120N-00161MA1999999082701MD1310201+9999ME1314449MW1701UA1M999999029REMSYN136AAXX  10064 17205 11558 82903 10000 21002 38270 48444 53020 60112 77077 8552/ 333 21016 3/103 47005 55012 70136 85630 88458 92426 93105;
0224172050999992000041009004+38480+042300FM-12+166599999V0202001N002610105019N0100001N1+00261-00301999999ADDAY171031AY221031GA1051+010509069GA2081+027009049GF108991051051012501021999MA1999999082901MD1210201+9999ME1314639MW1021REMSYN094AAXX  10094 17205 41660 82005 10026 21030 38290 48463 52020 70272 8552/ 333 85635 88459 92426;
0270172050999992000041012004+38480+042300FM-12+166599999V0202001N002610270019N0200001N1+00301-00301999999ADDAA106001091AL10600091AY171061AY221061GA1041+010509089GA2061+027009039GF106991041021012501051001MA1999999083101MD1210201+9999ME1314839MW1011UA1M999999029REMSYN106AAXX  10124 17205 11670 62005 10030 21030 38310 48483 52020 60011 70172 84250 333 84835 86359 92427 93100;
0196172050999992000041015004+38480+042300FM-12+166599999V0202001N002610270019N0200001N1+00301-00281999999ADDGA1041+010509089GA2061+027009039GF106991041021012501051001MA1999999083201MD1210101+9999ME1314919REMSYN088AAXX  10154 17205 42670 62005 10030 21028 38320 48491 52010 84250 333 84835 86359 92427;
0210172050999992000041018004+38480+042300FM-12+166599999V0202001N001512200019N0250001N1+00221-00411999999ADDAA112001091GA1041+012009089GF104991041021012501001001KA1120M+00501MA1999999083301MD1210101+9999ME1315029REMSYN094AAXX  10184 17205 12675 42003 10022 21041 38330 48502 52010 60012 84200 333 10050 84840 92417;
0174172050999992000041021004+38480+042300FM-12+166599999V0202001N002112200019N0250001N1+00201-00381999999ADDGA1041+012009089GF104991041021012501001001MA1999999083401MD1210101+9999ME1315129REMSYN082AAXX  10214 17205 42675 42004 10020 21038 38340 48512 52010 84200 333 84840 92417;
0204172050999992000041100004+38480+042300FM-12+166599999V0202001N002612200019N0250001N1+00101-00391999999ADDAA199000091GA1041+012009089GF104991041021012501001001MA1999999083401MD1410001+9999ME1315129REMSYN082AAXX  11004 17205 32675 42005 10010 21039 38340 48512 54000 84200 333 84840 92427;EQDQ01  00002PRCP99
0174172050999992000041103004+38480+042300FM-12+166599999V0209999C000012200019N0250001N1+00041-00361999999ADDGA1021+012009089GF102991021021012501001001MA1999999083401MD1410001+9999ME1315139REMSYN082AAXX  11034 17205 42675 20000 10004 21036 38340 48513 54000 82200 333 82840 92417;
0240172050999992000041106004+38480+042300FM-12+166599999V0202701N001512200019N0250001N1+00201-00271999999ADDAA124001091GA1041+012009089GF104991041021012501001001IA1099IA2999-00209KA1120N-00041MA1999999083501MD1210101+9999ME1315229REMSYN106AAXX  11064 17205 32675 42703 10020 21027 38350 48522 52010 84200 333 21004 31102 55016 70010 84840 92417;
0174172050999992000041109004+38480+042300FM-12+166599999V0202501N001512200019N0250001N1+00461-00391999999ADDGA1041+012009089GF104991041021012501001001MA1999999083501MD1410001+9999ME1315209REMSYN082AAXX  11094 17205 42675 42503 10046 21039 38350 48520 54000 84200 333 84840 92417;
0226172050999992000041112004+38480+042300FM-12+166599999V0202001N003110300019N0250001N1+00641-00461999999ADDAA199000091GA1041+012009089GA2061+030009039GF106991041021012501051001MA1999999083501MD1410001+9999ME1315199REMSYN088AAXX  11124 17205 32675 62006 10064 21046 38350 48519 54000 84250 333 84840 86360 92427;EQDQ01  00002PRCP99
0174172050999992000041115004+38480+042300FM-12+166599999V0202001N002112200019N0300001N1+00641-00461999999ADDGA1041+012009089GF104991041021012501001001MA1999999083401MD1610101+9999ME1315109REMSYN082AAXX  11154 17205 42680 42004 10064 21046 38340 48510 56010 84200 333 84840 92418;
0245172050999992000041118004+38480+042300FM-12+166599999V0202001N002610300019N0300001N1+00521-00281999999ADDAA199000091GA1041+012009089GA2061+030009039GF106991041021012501051001KA1120M+00901MA1999999083401MD1410001+9999ME1315109REMSYN094AAXX  11184 17205 32680 62005 10052 21028 38340 48510 54000 84250 333 10090 84840 86360 92418;EQDQ01  00002PRCP99
0196172050999992000041121004+38480+042300FM-12+166599999V0202001N003110300019N0300001N1+00521-00281999999ADDGA1041+012009089GA2061+030009039GF106991041021012501051001MA1999999083461MD1110061+9999ME1315199REMSYN088AAXX  11214 17205 42680 62006 10052 21028 38346 48519 51006 84250 333 84840 86360 92428;
0226172050999992000041200004+38480+042300FM-12+166599999V0202001N003610300019N0300001N1+00521-00281999999ADDAA199000091GA1041+012009089GA2061+030009039GF106991041021012501051001MA1999999083461MD1410001+9999ME1315199REMSYN088AAXX  12004 17205 32680 62007 10052 21028 38346 48519 54000 84250 333 84840 86360 92428;EQDQ01  00002PRCP99
0196172050999992000041203004+38480+042300FM-12+166599999V0202501N003610300019N0300001N1+00701-00501999999ADDGA1041+012009089GA2061+030009039GF106991041021012501051001MA1999999083361MD1710101+9999ME1315109REMSYN088AAXX  12034 17205 42680 62507 10070 21050 38336 48510 57010 84250 333 84840 86360 92428;
0275172050999992000041206004+38480+042300FM-12+166599999V0202501N003110300019N0300001N1+00701-00251999999ADDAA199000091GA1041+012009089GA2061+030009039GF106991041021012501051001IA1019IA2999+00209KA1120N+00341MA1999999083501MD1210141+9999ME1315189REMSYN106AAXX  12064 17205 32680 62506 10070 21025 38350 48518 52014 84250 333 20034 30002 55063 84840 86360 92418;EQDQ01  00002PRCP99
0196172050999992000041209004+38480+042300FM-12+166599999V0202001N003110300019N0300001N1+01001-00321999999ADDGA1041+012009089GA2081+030009049GF108991041021012501021999MA1999999083501MD1410001+9999ME1315179REMSYN088AAXX  12094 17205 42680 82006 10100 21032 38350 48517 54000 8422/ 333 84840 88460 92428;
0226172050999992000041212004+38480+042300FM-12+166599999V0202001N003610300019N0300001N1+00901-00351999999ADDAA199000091GA1041+012009089GA2081+030009049GF108991041021012501021999MA1999999083401MD1710101+9999ME1315079REMSYN088AAXX  12124 17205 32680 82007 10090 21035 38340 48507 57010 8422/ 333 84840 88460 92428;EQDQ01  00002PRCP99
0224172050999992000041215004+38480+042300FM-12+166599999V0202001N003610270019N0100001N1+00661+00311999999ADDAY161031AY221031GA1041+010509089GA2081+027009049GF108991041021008001021999MA1999999083501MD1110101+9999ME1315199MW1601REMSYN094AAXX  12154 17205 41560 82007 10066 20031 38350 48519 51010 76062 8422/ 333 84835 88459 92426;
0260172050999992000041218004+38480+042300FM-12+166599999V0202501N002610300019N0300001N1+00461+00261999999ADDAA112004191AY161061AY261061GA1041+012009089GA2061+030009039GF106991041021012501051001KA1120M+01141MA1999999083601MD1210101+9999ME1315309MW1211REMSYN106AAXX  12184 17205 11680 62505 10046 20026 38360 48530 52010 60042 72166 84250 333 10114 84840 86360 92423;
0196172050999992000041221004+38480+042300FM-12+166599999V0202701N001510300019N0300001N1+00501+00171999999ADDGA1041+012009089GA2061+030009039GF106991041021012501051001MA1999999083601MD1410001+9999ME1315299REMSYN088AAXX  12214 17205 42680 62703 10050 20017 38360 48529 54000 84250 333 84840 86360 92418;
0207172050999992000041300004+38480+042300FM-12+166599999V0202001N004110300019N0300001N1+00621+00171999999ADDAA199000021GA1041+012009089GA2061+030009039GF106991041021012501051001MA1999999083501MD1610101+9999ME1315199REMSYN088AAXX  13004 17205 32680 62008 10062 20017 38350 48519 56010 84250 333 84840 86360 92428;
0196172050999992000041303004+38480+042300FM-12+166599999V0202001N003110300019N0300001N1+00801+00161999999ADDGA1041+012009089GA2061+030009039GF106991041021012501051001MA1999999083501MD1410001+9999ME1315189REMSYN088AAXX  13034 17205 42680 62006 10080 20016 38350 48518 54000 84250 333 84840 86360 92426;
0262172050999992000041306004+38480+042300FM-12+166599999V0202701N001010105019N0200001N1+00801+00161999999ADDAA124003691GA1051+010509069GA2081+027009049GF108991051041012501021999IA1019IA2999+00209KA1120N+00301MA1999999083601MD1210101+9999ME1315299REMSYN112AAXX  13064 17205 32670 82702 10080 20016 38360 48529 52010 8542/ 333 20030 30002 55030 70036 85635 88459 92417;
0224172050999992000041309004+38480+042300FM-12+166599999V0209999C000010090019N0080001N1+00701+00631999999ADDAY161031AY261031GA1051+009009069GA2081+027009049GF108991051051008001021999MA1999999083701MD1310101+9999ME1315389MW1601REMSYN094AAXX  13094 17205 41558 80000 10070 20063 38370 48538 53010 76066 8552/ 333 85630 88459 92416;
0241172050999992000041312004+38480+042300FM-12+166599999V0209999C000010090019N0100001N1+00781+00701999999ADDAA106005191AY161061AY221061GA1051+009009069GA2081+027009049GF108991051051008001021999MA1999999083701MD1410001+9999ME1315389MW1601REMSYN100AAXX  13124 17205 11560 80000 10078 20070 38370 48538 54000 60051 76062 8552/ 333 85630 88459 92417;
0224172050999992000041315004+38480+042300FM-12+166599999V0200701N001510090019N0100001N1+00741+00671999999ADDAY161031AY261031GA1051+009009069GA2081+027009049GF108991051051008001021999MA1999999083501MD1710201+9999ME1315189MW1021REMSYN094AAXX  13154 17205 41560 80703 10074 20067 38350 48518 57020 70266 8552/ 333 85630 88459 92416;
0260172050999992000041318004+38480+042300FM-12+166599999V0209999C000010090019N0100001N1+00701+00611999999ADDAA112005191AY161061AY221061GA1051+009009069GA2081+027009049GF108991051051008001021999KA1120M+01001MA1999999083401MD1810101+9999ME1315089MW1021REMSYN106AAXX  13184 17205 11560 80000 10070 20061 38340 48508 58010 60052 70262 8552/ 333 10100 85630 88459 92416;
0196172050999992000041321004+38480+042300FM-12+166599999V0209999C000010090019N0100001N1+00561+00481999999ADDGA1051+009009069GA2081+027009049GF108991051051012501021999MA1999999083201MD1710201+9999ME1314909REMSYN088AAXX  13214 17205 42660 80000 10056 20048 38320 48490 57020 8552/ 333 85630 88459 92416;
0207172050999992000041400004+38480+042300FM-12+166599999V0209999C000010300019N0100001N1+00481+00401999999ADDAA199000021GA1041+012009069GA2061+030009039GF106991041051012501051001MA1999999083201MD1710201+9999ME1314729REMSYN088AAXX  14004 17205 32660 60000 10048 20040 38320 48472 57020 84550 333 84640 86360 92416;
0196172050999992000041403004+38480+042300FM-12+166599999V0209999C000010300019N0100001N1+00381+00341999999ADDGA1041+012009069GA2061+030009039GF106991041051012501051001MA1999999082801MD1710201+9999ME1314529REMSYN088AAXX  14034 17205 42660 60000 10038 20034 38280 48452 57020 84550 333 84640 86360 92416;
0262172050999992000041406004+38480+042300FM-12+166599999V0200401N001010300019N0200001N1+00801+00421999999ADDAA124005191GA1041+012009069GA2061+030009039GF106991041051012501051001IA1099IA2999+00209KA1120N+00301MA1999999082701MD1610101+9999ME1314399REMSYN112AAXX  14064 17205 32670 60402 10080 20042 38270 48439 56010 84550 333 20030 31002 55000 70050 84640 86360 92417;
0196172050999992000041409004+38480+042300FM-12+166599999V0202001N003110300019N0200001N1+01701-00201999999ADDGA1041+012009069GA2061+030009039GF106991041051012501051001MA1999999082701MD1410001+9999ME1314309REMSYN088AAXX  14094 17205 42670 62006 10170 21020 38270 48430 54000 84550 333 84640 86360 92427;
0162172050999992000041415004+38480+042300FM-12+166599999V0202701N002612200019N0300001N1+01541-00661999999ADDGA1001+999999999GF100991001001999999001001MA1999999082701MD1410001+9999ME1314329REMSYN070AAXX  14154 17205 42980 02705 10154 21066 38270 48432 54000 333 10061;
0211172050999992000041418004+38480+042300FM-12+166599999V0202501N003112200019N0300001N1+01201+00241999999ADDAA199000091GA1001+999999999GF100991001001999999001001KA1120M+01901MA1999999082901MD1210201+9999ME1314569REMSYN076AAXX  14184 17205 32980 02506 10120 20024 38290 48456 52020 333 10190 92428;EQDQ01  00002PRCP99
0162172050999992000041421004+38480+042300FM-12+166599999V0209999C000012200019N0300001N1+00921+00301999999ADDGA1001+999999999GF100991001001999999001001MA1999999083001MD1210101+9999ME1314679REMSYN070AAXX  14214 17205 42980 00000 10092 20030 38300 48467 52010 333 10076;
0192172050999992000041500004+38480+042300FM-12+166599999V0209999C000012200019N0300001N1+00601+00201999999ADDAA199000091GA1001+999999999GF100991001001999999001001MA1999999083001MD1410001+9999ME1314709REMSYN070AAXX  15004 17205 32980 00000 10060 20020 38300 48470 54000 333 10083;EQDQ01  00002PRCP99
0162172050999992000041503004+38480+042300FM-12+166599999V0209999C000012200019N0300001N1+00461+00131999999ADDGA1001+999999999GF100991001001999999001001MA1999999083001MD1410001+9999ME1314729REMSYN070AAXX  15034 17205 42980 00000 10046 20013 38300 48472 54000 333 10091;
0241172050999992000041506004+38480+042300FM-12+166599999V0200401N001012200019N0300001N1+00741+00271999999ADDAA199000091GA1001+999999999GF100991001001999999001001IA1019IA2999+00209KA1120N+00361MA1999999083101MD1210101+9999ME1314799REMSYN088AAXX  15064 17205 32980 00402 10074 20027 38310 48479 52010 333 20036 30002 55049 92418;EQDQ01  00002PRCP99
0162172050999992000041509004+38480+042300FM-12+166599999V0200701N001512200019N0300001N1+01241+00431999999ADDGA1001+999999999GF100991001001999999001001MA1999999083101MD1410001+9999ME1314769REMSYN070AAXX  15094 17205 42980 00703 10124 20043 38310 48476 54000 333 10103;
0204172050999992000041512004+38480+042300FM-12+166599999V0200701N001012200019N0300001N1+01301+00551999999ADDAA199000091GA1031+012009089GF103991031021012501001001MA1999999083101MD1410001+9999ME1314749REMSYN082AAXX  15124 17205 32680 30702 10130 20055 38310 48474 54000 83200 333 83840 92418;EQDQ01  00002PRCP99
0162172050999992000041515004+38480+042300FM-12+166599999V0202001N001012200019N0300001N1+01501-00241999999ADDGA1001+999999999GF100991001001999999001001MA1999999083101MD1410001+9999ME1314739REMSYN070AAXX  15154 17205 42980 02002 10150 21024 38310 48473 54000 333 10110;
0211172050999992000041518004+38480+042300FM-12+166599999V0202501N001512200019N0300001N1+01301+00331999999ADDAA199000091GA1001+999999999GF100991001001999999001001KA1120M+01801MA1999999083201MD1210101+9999ME1314869REMSYN076AAXX  15184 17205 32980 02503 10130 20033 38320 48486 52010 333 10180 92418;EQDQ01  00002PRCP99
0162172050999992000041521004+38480+042300FM-12+166599999V0209999C000012200019N0300001N1+00881+00341999999ADDGA1001+999999999GF100991001001999999001001MA1999999083201MD1410001+9999ME1314899REMSYN070AAXX  15214 17205 42980 00000 10088 20034 38320 48489 54000 333 10115;
0192172050999992000041600004+38480+042300FM-12+166599999V0202501N002112200019N0300001N1+00941+00371999999ADDAA199000091GA1001+999999999GF100991001001999999001001MA1999999083201MD1410001+9999ME1314879REMSYN070AAXX  16004 17205 32980 02504 10094 20037 38320 48487 54000 333 10122;EQDQ01  00002PRCP99
0174172050999992000041603004+38480+042300FM-12+166599999V0209999C000012200019N0300001N1+00741+00351999999ADDGA1021+012009089GF102991021021012501001001MA1999999083201MD1410001+9999ME1314899REMSYN082AAXX  16034 17205 42680 20000 10074 20035 38320 48489 54000 82200 333 82840 92418;
0275172050999992000041606004+38480+042300FM-12+166599999V0202501N002610270019N0300001N1+00901+00611999999ADDAA199000091GA1041+010509089GA2061+027009039GF106991041021012501051001IA1019IA2999+00509KA1120N+00601MA1999999083401MD1210201+9999ME1315079REMSYN106AAXX  16064 17205 32680 62505 10090 20061 38340 48507 52020 84250 333 20060 30005 55083 84835 86359 92418;EQDQ01  00002PRCP99
0196172050999992000041609004+38480+042300FM-12+166599999V0200701N001010300019N0300001N1+01301+00551999999ADDGA1041+012009089GA2061+030009039GF106991041021012501051001MA1999999083401MD1410001+9999ME1315079REMSYN088AAXX  16094 17205 42680 60702 10130 20055 38340 48507 54000 84250 333 84840 86360 92418;
0263172050999992000041612004+38480+042300FM-12+166599999V0200401N001010105019N0100001N1+01241+00571999999ADDAA106005191AY191061AY281061GA1021+008109099GA2051+010509089GA3071+027009039GF107991051091008001061001MA1999999083401MD1410001+9999ME1315079MW1951REMSYN106AAXX  16124 17205 11560 70402 10124 20057 38340 48507 54000 60051 79598 85960 333 82927 85835 87359 92416;
0224172050999992000041615004+38480+042300FM-12+166599999V0209999C000010300019N0200001N1+01301+00671999999ADDAY191031AY281031GA1041+012009089GA2061+030009039GF106991041021012501051001MA1999999083301MD1810101+9999ME1314079MW1021REMSYN094AAXX  16154 17205 41670 60000 10130 20067 38330 48407 58010 70298 84250 333 84840 86360 92418;
0226172050999992000041618004+38480+042300FM-12+166599999V0209999C000012200019N0300001N1+00961+00481999999ADDAA112006191AY191061AY281061GA1001+999999999GF100991001001999999001001KA1120M+01501MA1999999083401MD1110101+9999ME1315079MW1011REMSYN088AAXX  16184 17205 11980 00000 10096 20048 38340 48507 51010 60062 70198 333 10150 92418;
0162172050999992000041621004+38480+042300FM-12+166599999V0209999C000012200019N0300001N1+00701+00411999999ADDGA1001+999999999GF100991001001999999001001MA1999999083501MD1210101+9999ME1315189REMSYN070AAXX  16214 17205 42980 00000 10070 20041 38350 48518 52010 333 10159;
0173172050999992000041700004+38480+042300FM-12+166599999V0209999C000012200019N0300001N1+00501+00401999999ADDAA199000021GA1001+999999999GF100991001001999999001001MA1999999083501MD1410001+9999ME1315199REMSYN070AAXX  17004 17205 32980 00000 10050 20040 38350 48519 54000 333 10166;
0162172050999992000041703004+38480+042300FM-12+166599999V0209999C000012200019N0300001N1+00361+00301999999ADDGA1001+999999999GF100991001001999999001001MA1999999083501MD1410001+9999ME1315209REMSYN070AAXX  17034 17205 42980 00000 10036 20030 38350 48520 54000 333 10174;
0240172050999992000041706004+38480+042300FM-12+166599999V0209999C000012200019N0300001N1+00901+00451999999ADDAA124006191GA1031+012009089GF103991031021012501001001IA1019IA2999+00209KA1120N+00281MA1999999083601MD1210101+9999ME1315279REMSYN106AAXX  17064 17205 32680 30000 10090 20045 38360 48527 52010 83200 333 20028 30002 55064 70060 83840 92418;
0162172050999992000041709004+38480+042300FM-12+166599999V0209999C000012200019N0300001N1+01241+00511999999ADDGA1001+999999999GF100991001001999999001001MA1999999083601MD1410001+9999ME1315269REMSYN070AAXX  17094 17205 42980 00000 10124 20051 38360 48526 54000 333 10171;
0196172050999992000041715004+38480+042300FM-12+166599999V0209999C000010120019N0300001N1+01261-00211999999ADDGA1051+012009069GA2081+030009049GF108991051051012501021999MA1999999083401MD1710101+9999ME1315069REMSYN088AAXX  17154 17205 42680 80000 10126 21021 38340 48506 57010 8552/ 333 85640 88460 92418;
0245172050999992000041718004+38480+042300FM-12+166599999V0202001N003110300019N0300001N1+01361-00161999999ADDAA199000091GA1041+012009089GA2061+030009039GF106991041021012501051001KA1120M+01501MA1999999083401MD1410001+9999ME1315059REMSYN094AAXX  17184 17205 32680 62006 10136 21016 38340 48505 54000 84250 333 10150 84840 86360 92428;EQDQ01  00002PRCP99
0196172050999992000041721004+38480+042300FM-12+166599999V0202001N003610300019N0300001N1+01101-00161999999ADDGA1041+012009089GA2061+030009039GF106991041021012501051001MA1999999083401MD1410001+9999ME1315069REMSYN088AAXX  17214 17205 42680 62007 10110 21016 38340 48506 54000 84250 333 84840 86360 92428;
0226172050999992000041800004+38480+042300FM-12+166599999V0202001N001510300019N0300001N1+01101-00161999999ADDAA199000091GA1041+012009089GA2061+030009039GF106991041021012501051001MA1999999083301MD1610101+9999ME1314969REMSYN088AAXX  18004 17205 32680 62003 10110 21016 38330 48496 56010 84250 333 84840 86360 92418;EQDQ01  00002PRCP99
0224172050999992000041803004+38480+042300FM-12+166599999V0209999C000010090019N0100001N1+00901+00571999999ADDAY121031AY221031GA1051+009009069GA2081+024009049GF108991051051008001021999MA1999999083301MD1410001+9999ME1314979MW1601REMSYN094AAXX  18034 17205 41560 80000 10090 20057 38330 48497 54000 76022 8552/ 333 85630 88458 92416;
0296172050999992000041806004+38480+042300FM-12+166599999V0209999C000010300019N0300001N1+00941+00461999999ADDAA112003091AY161061AY221061GA1041+012009089GA2061+030009039GF106991041021012501051001IA1119IA2999+00609KA1120N+00701MA1999999083301MD1410001+9999ME1314979MW1211REMSYN124AAXX  18064 17205 11680 60000 10094 20046 38330 48497 54000 60032 72162 84250 333 20070 32006 55073 70026 84840 86360 92418;
0196172050999992000041809004+38480+042300FM-12+166599999V0200401N001010120019N0300001N1+01041+00401999999ADDGA1051+012009069GA2081+030009049GF108991051051012501021999MA1999999083401MD1110101+9999ME1315079REMSYN088AAXX  18094 17205 42680 80402 10104 20040 38340 48507 51010 8552/ 333 85640 88460 92418;
0207172050999992000041812004+38480+042300FM-12+166599999V0200401N001510120019N0300001N1+01201+00561999999ADDAA199000021GA1051+012009069GA2081+030009049GF108991051051012501021999MA1999999083401MD1410001+9999ME1315069REMSYN088AAXX  18124 17205 32680 80403 10120 20056 38340 48506 54000 8552/ 333 85640 88460 92418;
0224172050999992000041815004+38480+042300FM-12+166599999V0200401N001010300019N0300001N1+01081+00531999999ADDAY181031AY221031GA1041+012009089GA2061+030009039GF106991041021012501051001MA1999999083301MD1710101+9999ME1314979MW1011REMSYN094AAXX  18154 17205 41680 60402 10108 20053 38330 48497 57010 70182 84250 333 84840 86360 92418;
0226172050999992000041818004+38480+042300FM-12+166599999V0209999C000012200019N0300001N1+00841+00581999999ADDAA112002091AY181061AY221061GA1001+999999999GF100991001001999999001001KA1120M+01301MA1999999083301MD1410001+9999ME1314989MW1021REMSYN088AAXX  18184 17205 12980 00000 10084 20058 38330 48498 54000 60022 70282 333 10130 92418;
0162172050999992000041821004+38480+042300FM-12+166599999V0209999C000012200019N0300001N1+00701+00551999999ADDGA1001+999999999GF100991001001999999001001MA1999999083341MD1110041+9999ME1314989REMSYN070AAXX  18214 17205 42980 00000 10070 20055 38334 48498 51004 333 10147;
0192172050999992000041900004+38480+042300FM-12+166599999V0209999C000012200019N0300001N1+00621+00471999999ADDAA199000091GA1001+999999999GF100991001001999999001001MA1999999083301MD1610041+9999ME1315009REMSYN070AAXX  19004 17205 32980 00000 10062 20047 38330 48500 56004 333 10142;EQDQ01  00002PRCP99
0174172050999992000041903004+38480+042300FM-12+166599999V0209999C000012200019N0300001N1+00581+00431999999ADDGA1041+012009089GF104991041021012501001001MA1999999083241MD1710061+9999ME1314909REMSYN082AAXX  19034 17205 42680 40000 10058 20043 38324 48490 57006 84200 333 84840 92418;
0262172050999992000041906004+38480+042300FM-12+166599999V0201101N001010300019N0300001N1+01001+00301999999ADDAA124002391GA1041+012009089GA2061+030009039GF106991041021012501051001IA1019IA2999+00309KA1120N+00461MA1999999083201MD1610101+9999ME1314899REMSYN112AAXX  19064 17205 32680 61102 10100 20030 38320 48489 56010 84250 333 20046 30003 55040 70024 84840 86360 92418;
0196172050999992000041909004+38480+042300FM-12+166599999V0200201N001010300019N0300001N1+01401+00271999999ADDGA1041+012009089GA2061+030009039GF106991041021012501051001MA1999999083201MD1410001+9999ME1314859REMSYN088AAXX  19094 17205 42680 60202 10140 20027 38320 48485 54000 84250 333 84840 86360 92418;
0241172050999992000041912004+38480+042300FM-12+166599999V0201601N002610090019N0100001N1+01601+00311999999ADDAA106000191AY121061AY221061GA1051+009009069GA2081+027009049GF108991051041008001021999MA1999999083001MD1810201+9999ME1314679MW1601REMSYN100AAXX  19124 17205 11560 81605 10160 20031 38300 48467 58020 69921 76022 8542/ 333 85630 88459 92416;
0224172050999992000041915004+38480+042300FM-12+166599999V0202701N002610090019N0100001N1+01201+00561999999ADDAY161031AY261031GA1051+009009069GA2081+027009049GF108991051051008001021999MA1999999083001MD1410001+9999ME1314679MW1601REMSYN094AAXX  19154 17205 41560 82705 10120 20056 38300 48467 54000 76066 8552/ 333 85630 88459 92416;
0260172050999992000041918004+38480+042300FM-12+166599999V0203201N001010090019N0100001N1+01001+00871999999ADDAA112005191AY191061AY281061GA1051+009009069GA2071+027009039GF107991051021008001071001KA1120M+01701MA1999999083101MD1310101+9999ME1314779MW1801REMSYN106AAXX  19184 17205 11560 73202 10100 20087 38310 48477 53010 60052 78098 85270 333 10170 85630 87359 92416;
0224172050999992000041921004+38480+042300FM-12+166599999V0209999C000010090019N0100001N1+00941+00761999999ADDAY181031AY261031GA1051+009009069GA2081+027009049GF108991051051008001021999MA1999999083101MD1410001+9999ME1314779MW1601REMSYN094AAXX  19214 17205 41560 80000 10094 20076 38310 48477 54000 76086 8552/ 333 85630 88459 92416;
0241172050999992000042000004+38480+042300FM-12+166599999V0209999C000010090019N0100001N1+00861+00751999999ADDAA106003091AY161061AY261061GA1051+009009069GA2081+027009049GF108991051051008001021999MA1999999083001MD1610101+9999ME1314699MW1211REMSYN100AAXX  20004 17205 11560 80000 10086 20075 38300 48469 56010 60031 72166 8552/ 333 85630 88459 92416;
0224172050999992000042003004+38480+042300FM-12+166599999V0209999C000010090019N0050001N1+00961+00481999999ADDAY191031AY261031GA1051+009009069GA2081+027009049GF108991051051008001021999MA1999999082901MD1710101+9999ME1314579MW1601REMSYN094AAXX  20034 17205 41550 80000 10096 20048 38290 48457 57010 76096 8552/ 333 85630 88459 92415;
0318172050999992000042006004+38480+042300FM-12+166599999V0201601N001510090019N0050001N1+01001+00581999999ADDAA112009991AY191061AY261061GA1021+004509079GA2051+009009069GA3081+024009049GF108991061071004501021999IA1119IA2999+00709KA1120N+00761MA1999999083001MD1110101+9999ME1314679MW1601REMSYN130AAXX  20064 17205 11450 81603 10100 20058 38300 48467 51010 60102 76096 8672/ 333 20076 32007 55053 70150 82715 85630 88458 92414;
0246172050999992000042009004+38480+042300FM-12+166599999V0201601N003110090019N0050001N1+00901+00491999999ADDAY161031AY261031GA1021+004509079GA2051+009009069GA3081+024009049GF108991061071004501021999MA1999999083101MD1110101+9999ME1314779MW1601REMSYN100AAXX  20094 17205 41450 81606 10090 20049 38310 48477 51010 76066 8672/ 333 82715 85630 88458 92424;
0241172050999992000042012004+38480+042300FM-12+166599999V0209999C000010105019N0100001N1+00701+00611999999ADDAA106010991AY161061AY261061GA1051+010509069GA2081+027009049GF108991051051012501021999MA1999999083201MD1110101+9999ME1314899MW1601REMSYN100AAXX  20124 17205 11660 80000 10070 20061 38320 48489 51010 60111 76066 8552/ 333 85635 88459 92416;
0224172050999992000042015004+38480+042300FM-12+166599999V0200401N001010105019N0100001N1+00661+00551999999ADDAY161031AY261031GA1051+010509069GA2081+027009049GF108991051051012501021999MA1999999083101MD1610101+9999ME1314809MW1601REMSYN094AAXX  20154 17205 41660 80402 10066 20055 38310 48480 56010 76066 8552/ 333 85635 88459 92416;
0260172050999992000042018004+38480+042300FM-12+166599999V0209999C000010120019N0200001N1+00661+00551999999ADDAA112022191AY161061AY261061GA1051+012009069GA2081+027009049GF108991051051012501021999KA1120M+01261MA1999999083101MD1410001+9999ME1314809MW1211REMSYN106AAXX  20184 17205 11670 80000 10066 20055 38310 48480 54000 60222 72166 8552/ 333 10126 85640 88459 92417;
0196172050999992000042021004+38480+042300FM-12+166599999V0209999C000010120019N0200001N1+00601+00531999999ADDGA1051+012009069GA2081+027009049GF108991051051012501021999MA1999999083101MD1410001+9999ME1314809REMSYN088AAXX  20214 17205 42670 80000 10060 20053 38310 48480 54000 8552/ 333 85640 88459 92417;
0196172050999992000042103004+38480+042300FM-12+166599999V0209999C000010105019N0200001N1+00401+00281999999ADDGA1051+010509069GA2081+024009049GF108991051051012501021999MA1999999082901MD1410001+9999ME1314609REMSYN088AAXX  21034 17205 42670 80000 10040 20028 38290 48460 54000 8552/ 333 85635 88458 92417;
0262172050999992000042106004+38480+042300FM-12+166599999V0209999C000010105019N0200001N1+00601+00471999999ADDAA124022491GA1051+010509069GA2081+027009049GF108991051051012501021999IA1099IA2999+00109KA1120N+00261MA1999999082901MD1410001+9999ME1314609REMSYN112AAXX  21064 17205 32670 80000 10060 20047 38290 48460 54000 8552/ 333 20026 31001 55000 70224 85635 88459 92417;
0174172050999992000042109004+38480+042300FM-12+166599999V0202501N002612200019N0300001N1+01201-00151999999ADDGA1041+012009089GF104991041021012501001001MA1999999082901MD1410001+9999ME1314569REMSYN082AAXX  21094 17205 42680 42505 10120 21015 38290 48456 54000 84200 333 84840 92428;
0204172050999992000042112004+38480+042300FM-12+166599999V0202501N003112200019N0300001N1+01301-00461999999ADDAA199000091GA1041+012009089GF104991041021012501001001MA1999999082901MD1410001+9999ME1314569REMSYN082AAXX  21124 17205 32680 42506 10130 21046 38290 48456 54000 84200 333 84840 92428;EQDQ01  00002PRCP99
0174172050999992000042115004+38480+042300FM-12+166599999V0202501N001512200019N0300001N1+01121-00311999999ADDGA1041+012009089GF104991041021012501001001MA1999999082961MD1110061+9999ME1314669REMSYN082AAXX  21154 17205 42680 42503 10112 21031 38296 48466 51006 84200 333 84840 92418;
0211172050999992000042118004+38480+042300FM-12+166599999V0202501N002112200019N0300001N1+00921-00201999999ADDAA199000091GA1001+999999999GF100991001001999999001001KA1120M+01401MA1999999083041MD1210081+9999ME1314679REMSYN076AAXX  21184 17205 32980 02504 10092 21020 38304 48467 52008 333 10140 92418;EQDQ01  00002PRCP99
0162172050999992000042121004+38480+042300FM-12+166599999V0202701N001012200019N0300001N1+00821-00021999999ADDGA1001+999999999GF100991001001999999001001MA1999999083101MD1110061+9999ME1314799REMSYN070AAXX  21214 17205 42980 02702 10082 21002 38310 48479 51006 333 10110;
0204172050999992000042200004+38480+042300FM-12+166599999V0209999C000012200019N0300001N1+00601-00161999999ADDAA199000091GA1041+012009089GF104991041021012501001001MA1999999083101MD1410001+9999ME1314809REMSYN082AAXX  22004 17205 32680 40000 10060 21016 38310 48480 54000 84200 333 84840 92418;EQDQ01  00002PRCP99
0196172050999992000042203004+38480+042300FM-12+166599999V0209999C000010300019N0300001N1+00601+00081999999ADDGA1041+012009089GA2061+030009039GF106991041021012501051001MA1999999083101MD1410001+9999ME1314809REMSYN088AAXX  22034 17205 42680 60000 10060 20008 38310 48480 54000 84250 333 84840 86360 92418;
0275172050999992000042206004+38480+042300FM-12+166599999V0202001N001010270019N0300001N1+00961-00091999999ADDAA199000091GA1041+010509089GA2061+027009039GF106991041021012501051001IA1019IA2999+00409KA1120N+00501MA1999999083101MD1410001+9999ME1314789REMSYN106AAXX  22064 17205 32680 62002 10096 21009 38310 48478 54000 84250 333 20050 30004 55067 84835 86359 92418;EQDQ01  00002PRCP99
0196172050999992000042209004+38480+042300FM-12+166599999V0202001N002610270019N0300001N1+01201-00151999999ADDGA1041+010509089GA2061+027009039GF106991041021012501051001MA1999999083101MD1410001+9999ME1314789REMSYN088AAXX  22094 17205 42680 62005 10120 21015 38310 48478 54000 84250 333 84835 86359 92418;
0224172050999992000042215004+38480+042300FM-12+166599999V0202501N002610090019N0080001N1+00261+00131999999ADDAY181031AY221031GA1051+009009069GA2081+027009049GF108991051041008001021999MA1999999083201MD1310101+9999ME1314919MW1601REMSYN094AAXX  22154 17205 41558 82505 10026 20013 38320 48491 53010 76082 8542/ 333 85630 88459 92416;
0260172050999992000042218004+38480+042300FM-12+166599999V0209999C000010270019N0100001N1+00301+00201999999ADDAA112015091AY181061AY261061GA1041+010509069GA2061+027009039GF106991041051012501051001KA1120M+01341MA1999999083301MD1110101+9999ME1315019MW1211REMSYN106AAXX  22184 17205 11660 60000 10030 20020 38330 48501 51010 60152 72186 84550 333 10134 84635 86359 92416;
0196172050999992000042221004+38480+042300FM-12+166599999V0209999C000010270019N0150001N1+00361+00241999999ADDGA1041+010509069GA2061+027009039GF106991041051012501051001MA1999999083301MD1410001+9999ME1315019REMSYN088AAXX  22214 17205 42665 60000 10036 20024 38330 48501 54000 84550 333 84635 86359 92416;
0207172050999992000042300004+38480+042300FM-12+166599999V0209999C000010105019N0150001N1+00341+00261999999ADDAA199000021GA1051+010509069GA2081+027009049GF108991051051012501021999MA1999999083201MD1610101+9999ME1314919REMSYN088AAXX  23004 17205 32665 80000 10034 20026 38320 48491 56010 8552/ 333 85635 88459 92416;
0196172050999992000042303004+38480+042300FM-12+166599999V0209999C000010105019N0150001N1+00401+00301999999ADDGA1051+010509069GA2081+027009049GF108991051051012501021999MA1999999083201MD1410001+9999ME1314919REMSYN088AAXX  23034 17205 42665 80000 10040 20030 38320 48491 54000 8552/ 333 85635 88459 92416;
0262172050999992000042306004+38480+042300FM-12+166599999V0209999C000010120019N0250001N1+00641+00241999999ADDAA124014591GA1051+012009069GA2081+027009049GF108991051051012501021999IA1119IA2999+00209KA1120N+00241MA1999999083301MD1210101+9999ME1315009REMSYN112AAXX  23064 17205 32675 80000 10064 20024 38330 48500 52010 8552/ 333 20024 32002 55029 70146 85640 88459 92418;
0196172050999992000042309004+38480+042300FM-12+166599999V0200401N001010270019N0250001N1+00801+00421999999ADDGA1041+012009069GA2061+027009039GF106991041051012501051001MA1999999083301MD1410001+9999ME1314989REMSYN088AAXX  23094 17205 42675 60402 10080 20042 38330 48498 54000 84550 333 84640 86359 92417;
0226172050999992000042312004+38480+042300FM-12+166599999V0200701N001510300019N0300001N1+01001+00351999999ADDAA199000091GA1041+012009069GA2061+030009039GF106991041051012501051001MA1999999083301MD1410001+9999ME1314979REMSYN088AAXX  23124 17205 32680 60703 10100 20035 38330 48497 54000 84550 333 84640 86360 92418;EQDQ01  00002PRCP99
0196172050999992000042315004+38480+042300FM-12+166599999V0202501N001510300019N0300001N1+01121+00141999999ADDGA1041+012009069GA2061+030009039GF106991041051012501051001MA1999999083201MD1810101+9999ME1314869REMSYN088AAXX  23154 17205 42680 62503 10112 20014 38320 48486 58010 84550 333 84640 86360 92418;
0211172050999992000042318004+38480+042300FM-12+166599999V0209999C000012200019N0300001N1+00801+00091999999ADDAA199000091GA1001+999999999GF100991001001999999001001KA1120M+01241MA1999999083201MD1410001+9999ME1314899REMSYN076AAXX  23184 17205 32980 00000 10080 20009 38320 48489 54000 333 10124 92418;EQDQ01  00002PRCP99
0162172050999992000042321004+38480+042300FM-12+166599999V0209999C000012200019N0300001N1+00601+00201999999ADDGA1001+999999999GF100991001001999999001001MA1999999083201MD1410001+9999ME1314909REMSYN070AAXX  23214 17205 42980 00000 10060 20020 38320 48490 54000 333 10144;
0192172050999992000042400004+38480+042300FM-12+166599999V0209999C000012200019N0300001N1+00401+00201999999ADDAA199000091GA1001+999999999GF100991001001999999001001MA1999999083301MD1110101+9999ME1315019REMSYN070AAXX  24004 17205 32980 00000 10040 20020 38330 48501 51010 333 10156;EQDQ01  00002PRCP99
0162172050999992000042403004+38480+042300FM-12+166599999V0209999C000012200019N0300001N1+00301+00151999999ADDGA1001+999999999GF100991001001999999001001MA1999999083301MD1410001+9999ME1315019REMSYN070AAXX  24034 17205 42980 00000 10030 20015 38330 48501 54000 333 10156;
0253172050999992000042406004+38480+042300FM-12+166599999V0209999C000012200019N0300001N1+00761+00111999999ADDAA199000091GA1021+012009089GF102991021021012501001001IA1019IA2999+00109KA1120N+00261MA1999999083301MD1410001+9999ME1314989REMSYN100AAXX  24064 17205 32680 20000 10076 20011 38330 48498 54000 82200 333 20026 30001 55041 82840 92418;EQDQ01  00002PRCP99
0174172050999992000042409004+38480+042300FM-12+166599999V0200701N001512200019N0300001N1+01041+00401999999ADDGA1041+012009089GF104991041021012501001001MA1999999083301MD1410001+9999ME1314979REMSYN082AAXX  24094 17205 42680 40703 10104 20040 38330 48497 54000 84200 333 84840 92418;
0196172050999992000042415004+38480+042300FM-12+166599999V0202001N001010300019N0300001N1+00901+00191999999ADDGA1041+012009069GA2061+030009039GF106991041051012501051001MA1999999083301MD1410001+9999ME1314979REMSYN088AAXX  24154 17205 42680 62002 10090 20019 38330 48497 54000 84550 333 84640 86360 92418;
0211172050999992000042418004+38480+042300FM-12+166599999V0202701N001012200019N0300001N1+00761+00251999999ADDAA199000091GA1001+999999999GF100991001001999999001001KA1120M+01341MA1999999083401MD1210101+9999ME1315089REMSYN076AAXX  24184 17205 32980 02702 10076 20025 38340 48508 52010 333 10134 92418;EQDQ01  00002PRCP99
0162172050999992000042421004+38480+042300FM-12+166599999V0209999C000012200019N0300001N1+00501+00301999999ADDGA1001+999999999GF100991001001999999001001MA1999999083441MD1110041+9999ME1315109REMSYN070AAXX  24214 17205 42980 00000 10050 20030 38344 48510 51004 333 10166;
0192172050999992000042500004+38480+042300FM-12+166599999V0209999C000012200019N0300001N1+00401+00241999999ADDAA199000091GA1001+999999999GF100991001001999999001001MA1999999083401MD1410001+9999ME1315119REMSYN070AAXX  25004 17205 32980 00000 10040 20024 38340 48511 54000 333 10160;EQDQ01  00002PRCP99
0196172050999992000042503004+38480+042300FM-12+166599999V0209999C000010300019N0300001N1+00501+00341999999ADDGA1041+012009089GA2061+030009039GF106991041051012501051001MA1999999083401MD1410001+9999ME1315109REMSYN088AAXX  25034 17205 42680 60000 10050 20034 38340 48510 54000 84550 333 84840 86360 92418;
0296172050999992000042506004+38480+042300FM-12+166599999V0202701N001010105019N0150001N1+00741+00451999999ADDAA112000591AY181061AY221061GA1051+010509089GA2071+027009039GF107991051021012501071001IA1019IA2999+00209KA1120N+00301MA1999999083401MD1410001+9999ME1315109MW1021REMSYN124AAXX  25064 17205 11665 72702 10074 20045 38340 48510 54000 69942 70282 85270 333 20030 30002 55043 70004 85835 87359 92417;
0196172050999992000042509004+38480+042300FM-12+166599999V0201601N001510270019N0200001N1+01101+00111999999ADDGA1041+010509089GA2061+027009039GF106991041021012501051001MA1999999083501MD1310101+9999ME1315199REMSYN088AAXX  25094 17205 42670 61603 10110 20011 38350 48519 53010 84250 333 84835 86359 92417;
0241172050999992000042512004+38480+042300FM-12+166599999V0202001N001510270019N0200001N1+01041+00181999999ADDAA106000591AY181061AY221061GA1041+010509089GA2061+027009039GF106991041021012501051001MA1999999083501MD1410001+9999ME1315179MW1021REMSYN100AAXX  25124 17205 11670 62003 10104 20018 38350 48517 54000 69951 70282 84250 333 84835 86359 92418;
0224172050999992000042515004+38480+042300FM-12+166599999V0202701N001510270019N0200001N1+00901+00401999999ADDAY121031AY221031GA1041+012009089GA2061+027009039GF106991041021012501051001MA1999999083401MD1810101+9999ME1315079MW1801REMSYN094AAXX  25154 17205 41670 62703 10090 20040 38340 48507 58010 78022 84250 333 84840 86359 92417;
0226172050999992000042518004+38480+042300FM-12+166599999V0209999C000012200019N0300001N1+00801+00501999999ADDAA112005191AY181061AY211061GA1001+999999999GF100991001001999999001001KA1120M+01301MA1999999083401MD1410001+9999ME1315089MW1011REMSYN088AAXX  25184 17205 11980 00000 10080 20050 38340 48508 54000 60052 70181 333 10130 92418;
0162172050999992000042521004+38480+042300FM-12+166599999V0209999C000012200019N0300001N1+00601+00411999999ADDGA1001+999999999GF100991001001999999001001MA1999999083501MD1110101+9999ME1315199REMSYN070AAXX  25214 17205 42980 00000 10060 20041 38350 48519 51010 333 10166;
0173172050999992000042600004+38480+042300FM-12+166599999V0209999C000012200019N0300001N1+00441+00321999999ADDAA199000021GA1001+999999999GF100991001001999999001001MA1999999083501MD1410001+9999ME1315209REMSYN070AAXX  26004 17205 32980 00000 10044 20032 38350 48520 54000 333 10204;
0162172050999992000042603004+38480+042300FM-12+166599999V0209999C000012200019N0300001N1+00301+00201999999ADDGA1001+999999999GF100991001001999999001001MA1999999083501MD1410001+9999ME1315209REMSYN070AAXX  26034 17205 42980 00000 10030 20020 38350 48520 54000 333 10188;
0228172050999992000042606004+38480+042300FM-12+166599999V0200401N001512200019N0300001N1+00961+00271999999ADDAA124004891GA1001+999999999GF100991001001999999001001IA1099IA2999+00109KA1120N+00261MA1999999083501MD1410001+9999ME1315179REMSYN094AAXX  26064 17205 32980 00403 10096 20027 38350 48517 54000 333 20026 31001 55029 70047 92418;
0174172050999992000042609004+38480+042300FM-12+166599999V0200401N001512200019N0300001N1+01141+00521999999ADDGA1031+012009089GF103991031021012501001001MA1999999083601MD1110101+9999ME1315269REMSYN082AAXX  26094 17205 42680 30403 10114 20052 38360 48526 51010 83200 333 83840 92418;
0204172050999992000042612004+38480+042300FM-12+166599999V0200701N001512200019N0300001N1+01201+00471999999ADDAA199000091GA1031+012009089GF103991031021012501001001MA1999999083501MD1810101+9999ME1315169REMSYN082AAXX  26124 17205 32680 30703 10120 20047 38350 48516 58010 83200 333 83840 92418;EQDQ01  00002PRCP99
0162172050999992000042615004+38480+042300FM-12+166599999V0209999C000012200019N0300001N1+01221+00101999999ADDGA1001+999999999GF100991001001999999001001MA1999999083501MD1410001+9999ME1315169REMSYN070AAXX  26154 17205 42980 00000 10122 20010 38350 48516 54000 333 10174;
0211172050999992000042618004+38480+042300FM-12+166599999V0209999C000012200019N0300001N1+01001-00041999999ADDAA199000091GA1001+999999999GF100991001001999999001001KA1120M+01361MA1999999083601MD1210101+9999ME1315279REMSYN076AAXX  26184 17205 32980 00000 10100 21004 38360 48527 52010 333 10136 92418;EQDQ01  00002PRCP99
0162172050999992000042621004+38480+042300FM-12+166599999V0209999C000012200019N0300001N1+00761+00241999999ADDGA1001+999999999GF100991001001999999001001MA1999999083601MD1410001+9999ME1315289REMSYN070AAXX  26214 17205 42980 00000 10076 20024 38360 48528 54000 333 10171;
0192172050999992000042700004+38480+042300FM-12+166599999V0209999C000012200019N0300001N1+00601+00191999999ADDAA199000091GA1001+999999999GF100991001001999999001001MA1999999083601MD1410001+9999ME1315199REMSYN070AAXX  27004 17205 32980 00000 10060 20019 38360 48519 54000 333 10178;EQDQ01  00002PRCP99
0162172050999992000042703004+38480+042300FM-12+166599999V0209999C000012200019N0300001N1+00401+00101999999ADDGA1001+999999999GF100991001001999999001001MA1999999083601MD1410001+9999ME1315309REMSYN070AAXX  27034 17205 42980 00000 10040 20010 38360 48530 54000 333 10186;
0241172050999992000042706004+38480+042300FM-12+166599999V0209999C000012200019N0300001N1+01041+00221999999ADDAA199000091GA1001+999999999GF100991001001999999001001IA1019IA2999+00209KA1120N+00301MA1999999083701MD1210101+9999ME1315379REMSYN088AAXX  27064 17205 32980 00000 10104 20022 38370 48537 52010 333 20030 30002 55080 92418;EQDQ01  00002PRCP99
0162172050999992000042709004+38480+042300FM-12+166599999V0200701N001512200019N0300001N1+01321+00571999999ADDGA1001+999999999GF100991001001999999001001MA1999999083701MD1410001+9999ME1315359REMSYN070AAXX  27094 17205 42980 00703 10132 20057 38370 48535 54000 333 10183;
0204172050999992000042712004+38480+042300FM-12+166599999V0202701N002112200019N0300001N1+01501+00541999999ADDAA199000091GA1021+012009089GF102991021011012501001001MA1999999083701MD1410001+9999ME1315349REMSYN082AAXX  27124 17205 32680 22704 10150 20054 38370 48534 54000 82100 333 82840 92418;EQDQ01  00002PRCP99
0174172050999992000042715004+38480+042300FM-12+166599999V0200401N001012200019N0300001N1+01441+00061999999ADDGA1021+012009089GF102991021011012501001001MA1999999083601MD1710101+9999ME1315259REMSYN082AAXX  27154 17205 42680 20402 10144 20006 38360 48525 57010 82100 333 82840 92418;
0211172050999992000042718004+38480+042300FM-12+166599999V0209999C000012200019N0300001N1+01141+00391999999ADDAA199000091GA1001+999999999GF100991001001999999001001KA1120M+01641MA1999999083601MD1410001+9999ME1315269REMSYN076AAXX  27184 17205 32980 00000 10114 20039 38360 48526 54000 333 10164 92418;EQDQ01  00002PRCP99
0162172050999992000042721004+38480+042300FM-12+166599999V0209999C000012200019N0300001N1+00801+00381999999ADDGA1001+999999999GF100991001001999999001001MA1999999083601MD1410001+9999ME1315289REMSYN070AAXX  27214 17205 42980 00000 10080 20038 38360 48528 54000 333 10164;
0204172050999992000042800004+38480+042300FM-12+166599999V0209999C000012200019N0300001N1+00661+00221999999ADDAA199000091GA1031+012009089GF103991031021012501001001MA1999999083501MD1610101+9999ME1315199REMSYN082AAXX  28004 17205 32680 30000 10066 20022 38350 48519 56010 83200 333 83840 92418;EQDQ01  00002PRCP99
0196172050999992000042803004+38480+042300FM-12+166599999V0209999C000010300019N0300001N1+00641+00371999999ADDGA1041+012009069GA2061+030009039GF106991041051012501051001MA1999999083461MD1710041+9999ME1315199REMSYN088AAXX  28034 17205 42680 60000 10064 20037 38346 48519 57004 84550 333 84640 86360 92418;
0275172050999992000042806004+38480+042300FM-12+166599999V0209999C000010300019N0300001N1+00961+00311999999ADDAA199000091GA1041+012009089GA2061+030009039GF106991041021012501051001IA1019IA2999+00409KA1120N+00501MA1999999083501MD1110041+9999ME1315199REMSYN106AAXX  28064 17205 32680 60000 10096 20031 38350 48519 51004 84250 333 20050 30004 55089 84840 86360 92418;EQDQ01  00002PRCP99
0196172050999992000042809004+38480+042300FM-12+166599999V0200401N001010300019N0300001N1+01401+00501999999ADDGA1041+012009089GA2061+030009039GF106991041021012501051001MA1999999083501MD1410001+9999ME1315199REMSYN088AAXX  28094 17205 42680 60402 10140 20050 38350 48519 54000 84250 333 84840 86360 92418;
0226172050999992000042812004+38480+042300FM-12+166599999V0200701N001010300019N0300001N1+01601+00431999999ADDAA199000091GA1041+012009089GA2061+030009039GF106991041021012501051001MA1999999083301MD1810201+9999ME1314939REMSYN088AAXX  28124 17205 32680 60702 10160 20043 38330 48493 58020 84250 333 84840 86360 92418;EQDQ01  00002PRCP99
0174172050999992000042815004+38480+042300FM-12+166599999V0209999C000012200019N0300001N1+01561+00101999999ADDGA1041+012009089GF104991041021012501001001MA1999999083201MD1710101+9999ME1314839REMSYN082AAXX  28154 17205 42680 40000 10156 20010 38320 48483 57010 84200 333 84840 92418;
0174172050999992000042821004+38480+042300FM-12+166599999V0209999C000012200019N0300001N1+01221+00221999999ADDGA1031+012009069GF103991031051012501001001MA1999999083101MD1710101+9999ME1314769REMSYN082AAXX  28214 17205 42680 30000 10122 20022 38310 48476 57010 83500 333 83640 92418;
0226172050999992000042900004+38480+042300FM-12+166599999V0209999C000010300019N0300001N1+00901+00321999999ADDAA199000091GA1041+012009069GA2061+030009039GF106991041051012501051001MA1999999083001MD1710101+9999ME1314679REMSYN088AAXX  29004 17205 32680 60000 10090 20032 38300 48467 57010 84550 333 84640 86360 92418;EQDQ01  00002PRCP99
0196172050999992000042903004+38480+042300FM-12+166599999V0209999C000010120019N0300001N1+01001+00291999999ADDGA1051+012009069GA2081+030009049GF108991051051012501021999MA1999999082901MD1710101+9999ME1314579REMSYN088AAXX  29034 17205 42680 80000 10100 20029 38290 48457 57010 8552/ 333 85640 88460 92418;
0275172050999992000042906004+38480+042300FM-12+166599999V0200401N001510120019N0300001N1+01081+00531999999ADDAA199000091GA1051+012009069GA2081+030009049GF108991051051012501021999IA1019IA2999+00609KA1120N+00841MA1999999082901MD1410001+9999ME1314569REMSYN106AAXX  29064 17205 32680 80403 10108 20053 38290 48456 54000 8552/ 333 20084 30006 55050 85640 88460 92418;EQDQ01  00002PRCP99
0196172050999992000042909004+38480+042300FM-12+166599999V0202001N002110120019N0300001N1+01181+00531999999ADDGA1051+012009069GA2081+030009049GF108991051051012501021999MA1999999082901MD1410001+9999ME1314569REMSYN088AAXX  29094 17205 42680 82004 10118 20053 38290 48456 54000 8552/ 333 85640 88460 92418;
0241172050999992000042912004+38480+042300FM-12+166599999V0202001N002610120019N0250001N1+01101+00431999999ADDAA106001091AY161061AY221061GA1051+012009069GA2081+030009049GF108991051051012501021999MA1999999083001MD1210101+9999ME1314669MW1021REMSYN100AAXX  29124 17205 11675 82005 10110 20043 38300 48466 52010 60011 70262 8552/ 333 85640 88460 92417;
0224172050999992000042915004+38480+042300FM-12+166599999V0202501N002110120019N0250001N1+00901+00321999999ADDAY161031AY221031GA1051+012009069GA2081+030009049GF108991051051012501021999MA1999999083101MD1210101+9999ME1314779MW1211REMSYN094AAXX  29154 17205 41675 82504 10090 20032 38310 48477 52010 72162 8552/ 333 85640 88460 92417;
0260172050999992000042918004+38480+042300FM-12+166599999V0202701N002110300019N0250001N1+00741+00471999999ADDAA112003091AY161061AY221061GA1041+012009069GA2061+030009039GF106991041051012501051001KA1120M+01501MA1999999083201MD1210101+9999ME1314899MW1211REMSYN106AAXX  29184 17205 11675 62704 10074 20047 38320 48489 52010 60032 72162 84550 333 10150 84640 86360 92417;
0224172050999992000042921004+38480+042300FM-12+166599999V0202701N002110105019N0150001N1+00741+00471999999ADDAY121031AY221031GA1051+010509069GA2081+024009049GF108991051051012501021999MA1999999083301MD1110101+9999ME1314989MW1601REMSYN094AAXX  29214 17205 41665 82704 10074 20047 38330 48498 51010 76022 8552/ 333 85635 88458 92417;
0241172050999992000043000004+38480+042300FM-12+166599999V0209999C000010300019N0250001N1+00501+00241999999ADDAA106002091AY161061AY221061GA1041+012009069GA2061+030009039GF106991041051012501051001MA1999999083201MD1610101+9999ME1314909MW1211REMSYN100AAXX  30004 17205 11675 60000 10050 20024 38320 48490 56010 60021 72162 84550 333 84640 86360 92417;
0224172050999992000043003004+38480+042300FM-12+166599999V0202001N001510105019N0150001N1+00501+00241999999ADDAY121031AY221031GA1051+010509069GA2081+024009049GF108991051051012501021999MA1999999083201MD1410001+9999ME1314909MW1601REMSYN094AAXX  30034 17205 41665 82003 10050 20024 38320 48490 54000 76022 8552/ 333 85635 88458 92416;
0273172050999992000043006004+38480+042300FM-12+166599999V0201601N00101030001CN0250001N1+00661+00221999999ADDAA112003091GA1041+012009069GA2061+030009039GF106991999999012501999999IA1119IA2999+00309KA1120N+00401MA1999999083101MD1710101+9999ME1314809REMSYN123AAXX  30064 17205 11675 61602 10066 20022 38310 48480 57010 60032 7212 84550 333 20040 32003 55027 70064 84640 86360 92418;
0196172050999992000043009004+38480+042300FM-12+166599999V0200701N001510300019N0300001N1+00961+00441999999ADDGA1041+012009069GA2061+030009039GF106991041051012501051001MA1999999083101MD1410001+9999ME1314779REMSYN088AAXX  30094 17205 42680 60703 10096 20044 38310 48477 54000 84550 333 84640 86360 92418;
0207172050999992000043012004+38480+042300FM-12+166599999V0200201N001010120019N0300001N1+00661+00311999999ADDAA199000021GA1051+012009069GA2081+030009049GF108991051051012501021999MA1999999083201MD1210101+9999ME1314909REMSYN088AAXX  30124 17205 32680 80202 10066 20031 38320 48490 52010 8552/ 333 85640 88460 92418;
0174172050999992000043015004+38480+042300FM-12+166599999V0202701N001012200019N0300001N1+01001+00221999999ADDGA1041+012009089GF104991041021012501001001MA1999999083201MD1410001+9999ME1314879REMSYN082AAXX  30154 17205 42680 42702 10100 20022 38320 48487 54000 84200 333 84840 92418;
0211172050999992000043018004+38480+042300FM-12+166599999V0202701N001012200019N0300001N1+00741+00271999999ADDAA199000091GA1001+999999999GF100991001001999999001001KA1120M+01101MA1999999083201MD1410001+9999ME1314899REMSYN076AAXX  30184 17205 32980 02702 10074 20027 38320 48489 54000 333 10110 92418;EQDQ01  00002PRCP99
0162172050999992000043021004+38480+042300FM-12+166599999V0209999C000012200019N0300001N1+00581+00261999999ADDGA1001+999999999GF100991001001999999001001MA1999999083301MD1210101+9999ME1315009REMSYN070AAXX  30214 17205 42980 00000 10058 20026 38330 48500 52010 333 10149;
0192172050999992000050100004+38480+042300FM-12+166599999V0209999C000012200019N0300001N1+00361+00201999999ADDAA199000091GA1001+999999999GF100991001001999999001001MA1999999083301MD1410001+9999ME1315019REMSYN070AAXX  01004 17205 32980 00000 10036 20020 38330 48501 54000 333 10172;EQDQ01  00002PRCP99
0174172050999992000050103004+38480+042300FM-12+166599999V0209999C000012200019N0300001N1+00261+00221999999ADDGA1041+012009089GF104991041021012501001001MA1999999083301MD1410001+9999ME1315019REMSYN082AAXX  01034 17205 42680 40000 10026 20022 38330 48501 54000 84200 333 84840 92418;
0253172050999992000050106004+38480+042300FM-12+166599999V0200701N001012200019N0300001N1+00901+00331999999ADDAA199000091GA1041+012009089GF104991041021012501001001IA1019IA2999+00109KA1120N+00181MA1999999083401MD1210101+9999ME1315089REMSYN100AAXX  01064 17205 32680 40702 10090 20033 38340 48508 52010 84200 333 20018 30001 55044 84840 92418;EQDQ01  00002PRCP99
0174172050999992000050109004+38480+042300FM-12+166599999V0200701N001012200019N0300001N1+01241+00431999999ADDGA1041+012009089GF104991041021012501001001MA1999999083401MD1410001+9999ME1315089REMSYN082AAXX  01094 17205 42680 40702 10124 20043 38340 48508 54000 84200 333 84840 92418;
0204172050999992000050112004+38480+042300FM-12+166599999V0200701N001010120019N0300001N1+01241+00601999999ADDAA199000091GA1051+012009089GF105991051021012501001001MA1999999083401MD1410001+9999ME1315089REMSYN082AAXX  01124 17205 32680 50702 10124 20060 38340 48508 54000 85200 333 85840 92418;EQDQ01  00002PRCP99
0174172050999992000050115004+38480+042300FM-12+166599999V0209999C000012200019N0300001N1+01241+00301999999ADDGA1031+012009089GF103991031021012501001001MA1999999083301MD1810101+9999ME1314969REMSYN082AAXX  01154 17205 42680 30000 10124 20030 38330 48496 58010 83200 333 83840 92418;
0211172050999992000050118004+38480+042300FM-12+166599999V0202701N001012200019N0300001N1+01101+00341999999ADDAA199000091GA1001+999999999GF100991001001999999001001KA1120M+01401MA1999999083401MD1210101+9999ME1315069REMSYN076AAXX  01184 17205 32980 02702 10110 20034 38340 48506 52010 333 10140 92418;EQDQ01  00002PRCP99
0162172050999992000050121004+38480+042300FM-12+166599999V0202701N001012200019N0300001N1+01001+00381999999ADDGA1001+999999999GF100991001001999999001001MA1999999083401MD1410001+9999ME1315079REMSYN070AAXX  01214 17205 42980 02702 10100 20038 38340 48507 54000 333 10139;
0192172050999992000050200004+38480+042300FM-12+166599999V0202701N001512200019N0300001N1+00801+00321999999ADDAA199000091GA1001+999999999GF100991001001999999001001MA1999999083401MD1410001+9999ME1315089REMSYN070AAXX  02004 17205 32980 02703 10080 20032 38340 48508 54000 333 10147;EQDQ01  00002PRCP99
0162172050999992000050203004+38480+042300FM-12+166599999V0202701N001512200019N0300001N1+00801+00321999999ADDGA1001+999999999GF100991001001999999001001MA1999999083401MD1410001+9999ME1315089REMSYN070AAXX  02034 17205 42980 02703 10080 20032 38340 48508 54000 333 10147;
0253172050999992000050206004+38480+042300FM-12+166599999V0202701N001512200019N0300001N1+01241+00301999999ADDAA199000091GA1021+012009089GF102991021021012501001001IA1019IA2999+00409KA1120N+00561MA1999999083501MD1210101+9999ME1315169REMSYN100AAXX  02064 17205 32680 22703 10124 20030 38350 48516 52010 82200 333 20056 30004 55093 82840 92418;EQDQ01  00002PRCP99
0174172050999992000050209004+38480+042300FM-12+166599999V0202001N002112200019N0300001N1+01581+00231999999ADDGA1021+012009089GF102991021021012501001001MA1999999083501MD1410001+9999ME1315149REMSYN082AAXX  02094 17205 42680 22004 10158 20023 38350 48514 54000 82200 333 82840 92418;
0226172050999992000050212004+38480+042300FM-12+166599999V0202001N002110300019N0300001N1+01601+00051999999ADDAA199000091GA1041+012009089GA2061+030009039GF106991041021012501051001MA1999999083501MD1410001+9999ME1315149REMSYN088AAXX  02124 17205 32680 62004 10160 20005 38350 48514 54000 84250 333 84840 86360 92418;EQDQ01  00002PRCP99
0196172050999992000050215004+38480+042300FM-12+166599999V0202001N001510300019N0300001N1+01401+00011999999ADDGA1041+012009089GA2061+030009039GF106991041021012501051001MA1999999083401MD1610101+9999ME1315059REMSYN088AAXX  02154 17205 42680 62003 10140 20001 38340 48505 56010 84250 333 84840 86360 92418;
0211172050999992000050218004+38480+042300FM-12+166599999V0202001N001512200019N0300001N1+01301+00131999999ADDAA199000091GA1001+999999999GF100991001001999999001001KA1120M+01741MA1999999083341MD1810061+9999ME1314959REMSYN076AAXX  02184 17205 32980 02003 10130 20013 38334 48495 58006 333 10174 92418;EQDQ01  00002PRCP99
0162172050999992000050221004+38480+042300FM-12+166599999V0202501N001512200019N0300001N1+01241+00101999999ADDGA1001+999999999GF100991001001999999001001MA1999999083341MD1410001+9999ME1314959REMSYN070AAXX  02214 17205 42980 02503 10124 20010 38334 48495 54000 333 10110;
0192172050999992000050300004+38480+042300FM-12+166599999V0202001N001512200019N0300001N1+01241+00101999999ADDAA199000091GA1001+999999999GF100991001001999999001001MA1999999083201MD1710141+9999ME1314869REMSYN070AAXX  03004 17205 32980 02003 10124 20010 38320 48486 57014 333 10093;EQDQ01  00002PRCP99
0196172050999992000050303004+38480+042300FM-12+166599999V0202001N001510300019N0300001N1+01241+00101999999ADDGA1041+012009089GA2061+030009039GF106991041021012501051001MA1999999083201MD1410001+9999ME1314869REMSYN088AAXX  03034 17205 42680 62003 10124 20010 38320 48486 54000 84250 333 84840 86360 92418;
0259172050999992000050306004+38480+042300FM-12+166599999V0202001N002112200019N0300001N1+01461+00211999999ADDAA199000091GA1041+012009089GF104991041021012501001001IA1019IA2999+00709KA1120N+00941MA1999999083201MD1410001+9999ME1314859REMSYN106AAXX  03064 17205 32680 42004 10146 20021 38320 48485 54000 84200 333 20094 30007 50481 55064 84840 92418;EQDQ01  00002PRCP99
0174172050999992000050309004+38480+042300FM-12+166599999V0202001N001512200019N0300001N1+01701+00201999999ADDGA1041+012009089GF104991041021012501001001MA1999999083101MD1610101+9999ME1314729REMSYN082AAXX  03094 17205 42680 42003 10170 20020 38310 48472 56010 84200 333 84840 92418;
0226172050999992000050312004+38480+042300FM-12+166599999V0202001N002110300019N0300001N1+01801+00091999999ADDAA199000091GA1041+012009089GA2061+030009039GF106991041021012501051001MA1999999083001MD1810101+9999ME1314619REMSYN088AAXX  03124 17205 32680 62004 10180 20009 38300 48461 58010 84250 333 84840 86360 92418;EQDQ01  00002PRCP99
0196172050999992000050315004+38480+042300FM-12+166599999V0202001N002610300019N0300001N1+01701+00121999999ADDGA1041+012009089GA2061+030009039GF106991041021012501051001MA1999999083001MD1410001+9999ME1314639REMSYN088AAXX  03154 17205 42680 62005 10170 20012 38300 48463 54000 84250 333 84840 86360 92418;
0245172050999992000050318004+38480+042300FM-12+166599999V0202501N002110300019N0300001N1+01401+00271999999ADDAA199000091GA1041+012009089GA2061+030009039GF106991041021012501051001KA1120M+01961MA1999999083001MD1410001+9999ME1314649REMSYN094AAXX  03184 17205 32680 62504 10140 20027 38300 48464 54000 84250 333 10196 84840 86360 92418;EQDQ01  00002PRCP99
0174172050999992000050321004+38480+042300FM-12+166599999V0202701N001512200019N0300001N1+01361+00311999999ADDGA1021+012009089GF102991021021012501001001MA1999999083101MD1210101+9999ME1314749REMSYN082AAXX  03214 17205 42680 22703 10136 20031 38310 48474 52010 82200 333 82840 92418;
0204172050999992000050400004+38480+042300FM-12+166599999V0202701N001512200019N0300001N1+01341+00311999999ADDAA199000091GA1021+012009089GF102991021021012501001001MA1999999083101MD1410001+9999ME1314749REMSYN082AAXX  04004 17205 32680 22703 10134 20031 38310 48474 54000 82200 333 82840 92418;EQDQ01  00002PRCP99
0196172050999992000050403004+38480+042300FM-12+166599999V0202001N003610105019N0300001N1+01261+00271999999ADDGA1051+010509069GA2081+027009049GF108991051051012501021999MA1999999083101MD1410001+9999ME1314769REMSYN088AAXX  04034 17205 42680 82007 10126 20027 38310 48476 54000 8552/ 333 85635 88459 92426;
0302172050999992000050406004+38480+042300FM-12+166599999V0202001N002610105019N0150001N1+01221+00021999999ADDAA112000591AY181061AY221061GA1051+010509089GA2071+027009039GF107991051021012501071001IA1099IA2999+00809KA1120N+01001MA1999999083201MD1110101+9999ME1314879MW1021REMSYN130AAXX  04064 17205 11665 72005 10122 20002 38320 48487 51010 69952 70282 85270 333 20100 31008 50531 55064 70005 85835 87359 92416;
0196172050999992000050409004+38480+042300FM-12+166599999V0202001N002610105019N0200001N1+01221+00581999999ADDGA1051+010509089GA2071+027009039GF107991051021012501071001MA1999999083301MD1310101+9999ME1314969REMSYN088AAXX  04094 17205 42670 72005 10122 20058 38330 48496 53010 85270 333 85835 87359 92427;
0241172050999992000050412004+38480+042300FM-12+166599999V0200201N001510105019N0100001N1+01201+00641999999ADDAA106000191AY121061AY221061GA1051+010509069GA2071+027009039GF107991051021012501071001MA1999999083401MD1310101+9999ME1315069MW1801REMSYN100AAXX  04124 17205 11660 70203 10120 20064 38340 48506 53010 69921 78022 85270 333 85635 87359 92416;
0224172050999992000050415004+38480+042300FM-12+166599999V0209999C000010105019N0200001N1+01261+00621999999ADDAY181031AY221031GA1051+010509089GA2071+027009039GF107991051021012501071001MA1999999083401MD1410001+9999ME1315069MW1021REMSYN094AAXX  04154 17205 41670 70000 10126 20062 38340 48506 54000 70282 85270 333 85835 87359 92417;
0226172050999992000050418004+38480+042300FM-12+166599999V0202501N001512200019N0300001N1+01021+00631999999ADDAA112000191AY181061AY221061GA1001+999999999GF100991001001999999001001KA1120M+01401MA1999999083401MD1410001+9999ME1315079MW1011REMSYN088AAXX  04184 17205 11980 02503 10102 20063 38340 48507 54000 69922 70182 333 10140 92418;
0196172050999992000050421004+38480+042300FM-12+166599999V0209999C000010300019N0300001N1+00821+00641999999ADDGA1041+012009089GA2061+030009039GF106991041021012501051001MA1999999083401MD1410001+9999ME1315089REMSYN088AAXX  04214 17205 42680 60000 10082 20064 38340 48508 54000 84250 333 84840 86360 92418;
0207172050999992000050500004+38480+042300FM-12+166599999V0209999C000010300019N0300001N1+00821+00641999999ADDAA199000021GA1041+012009089GA2061+030009039GF106991041021012501051001MA1999999083301MD1810101+9999ME1314989REMSYN088AAXX  05004 17205 32680 60000 10082 20064 38330 48498 58010 84250 333 84840 86360 92418;
0196172050999992000050503004+38480+042300FM-12+166599999V0209999C000010300019N0300001N1+00701+00611999999ADDGA1041+012009089GA2061+030009039GF106991041021012501051001MA1999999083301MD1410001+9999ME1314989REMSYN088AAXX  05034 17205 42680 60000 10070 20061 38330 48498 54000 84250 333 84840 86360 92418;
0268172050999992000050506004+38480+042300FM-12+166599999V0201301N001010300019N0300001N1+01101+00561999999ADDAA124000391GA1041+012009089GA2061+030009039GF106991041021012501051001IA1019IA2999+00509KA1120N+00641MA1999999083301MD1410001+9999ME1314969REMSYN118AAXX  05064 17205 32680 61302 10110 20056 38330 48496 54000 84250 333 20064 30005 50101 55002 70002 84840 86360 92418;
0196172050999992000050509004+38480+042300FM-12+166599999V0200701N001010300019N0300001N1+01461+00581999999ADDGA1041+012009089GA2061+030009039GF106991041021012501051001MA1999999083201MD1810101+9999ME1314859REMSYN088AAXX  05094 17205 42680 60702 10146 20058 38320 48485 58010 84250 333 84840 86360 92418;
0226172050999992000050512004+38480+042300FM-12+166599999V0202001N001510300019N0300001N1+01901-00471999999ADDAA199000091GA1041+012009089GA2061+030009039GF106991041021012501051001MA1999999083201MD1410001+9999ME1314819REMSYN088AAXX  05124 17205 32680 62003 10190 21047 38320 48481 54000 84250 333 84840 86360 92428;EQDQ01  00002PRCP99
0196172050999992000050515004+38480+042300FM-12+166599999V0202701N003110120019N0300001N1+01701-00081999999ADDGA1051+012009069GA2081+030009049GF108991051051012501021999MA1999999083201MD1410001+9999ME1314829REMSYN088AAXX  05154 17205 42680 82706 10170 21008 38320 48482 54000 8552/ 333 85640 88460 92428;
0245172050999992000050518004+38480+042300FM-12+166599999V0202001N001510300019N0300001N1+01561-00201999999ADDAA199000091GA1031+012009089GA2051+030009039GF105991031021012501051001KA1120M+02001MA1999999083301MD1210101+9999ME1314939REMSYN094AAXX  05184 17205 32680 52003 10156 21020 38330 48493 52010 83250 333 10200 83840 85360 92418;EQDQ01  00002PRCP99
0196172050999992000050521004+38480+042300FM-12+166599999V0209999C000010300019N0300001N1+01261+00271999999ADDGA1031+012009089GA2051+030009039GF105991031021012501051001MA1999999083301MD1410001+9999ME1314969REMSYN088AAXX  05214 17205 42680 50000 10126 20027 38330 48496 54000 83250 333 83840 85360 92418;
0226172050999992000050600004+38480+042300FM-12+166599999V0209999C000010300019N0300001N1+01241+00101999999ADDAA199000091GA1041+012009089GA2061+030009039GF106991041021012501051001MA1999999083301MD1410001+9999ME1314969REMSYN088AAXX  06004 17205 32680 60000 10124 20010 38330 48496 54000 84250 333 84840 86360 92418;EQDQ01  00002PRCP99
0196172050999992000050603004+38480+042300FM-12+166599999V0202001N001010300019N0300001N1+01241+00301999999ADDGA1041+012009089GA2061+030009039GF106991041021012501051001MA1999999083301MD1410001+9999ME1314969REMSYN088AAXX  06034 17205 42680 62002 10124 20030 38330 48496 54000 84250 333 84840 86360 92418;
0259172050999992000050606004+38480+042300FM-12+166599999V0202001N001512200019N0300001N1+01441+00421999999ADDAA199000091GA1031+012009089GF103991031021012501001001IA1019IA2999+00909KA1120N+01001MA1999999083401MD1210101+9999ME1315059REMSYN106AAXX  06064 17205 32680 32003 10144 20042 38340 48505 52010 83200 333 20100 30009 50241 55030 83840 92418;EQDQ01  00002PRCP99
0174172050999992000050609004+38480+042300FM-12+166599999V0202001N002112200019N0300001N1+01601+00411999999ADDGA1041+012009089GF104991041021012501001001MA1999999083401MD1410001+9999ME1315049REMSYN082AAXX  06094 17205 42680 42004 10160 20041 38340 48504 54000 84200 333 84840 92418;
0241172050999992000050612004+38480+042300FM-12+166599999V0202001N001510300019N0300001N1+01401+00671999999ADDAA106002091AY161061AY221061GA1041+012009089GA2061+030009039GF106991041021012501051001MA1999999083401MD1410001+9999ME1315059MW1211REMSYN100AAXX  06124 17205 12680 62003 10140 20067 38340 48505 54000 60021 72162 84250 333 84840 86360 92418;
0196172050999992000050615004+38480+042300FM-12+166599999V0202001N001510300019N0300001N1+01461+00331999999ADDGA1041+012009089GA2061+030009039GF106991041021012501051001MA1999999083401MD1410001+9999ME1315059REMSYN088AAXX  06154 17205 42680 62003 10146 20033 38340 48505 54000 84250 333 84840 86360 92418;
0210172050999992000050618004+38480+042300FM-12+166599999V0202001N001512200019N0300001N1+01261+00181999999ADDAA112002091GA1031+012009089GF103991031021012501001001KA1120M+01741MA1999999083401MD1410001+9999ME1315069REMSYN094AAXX  06184 17205 12680 32003 10126 20018 38340 48506 54000 60022 83200 333 10174 83840 92418;
0162172050999992000050621004+38480+042300FM-12+166599999V0201601N002112200019N0300001N1+01141+00191999999ADDGA1001+999999999GF100991001001999999001001MA1999999083501MD1210101+9999ME1315169REMSYN070AAXX  06214 17205 42980 01604 10114 20019 38350 48516 52010 333 10130;
0173172050999992000050700004+38480+042300FM-12+166599999V0202501N001512200019N0300001N1+01081+00031999999ADDAA199000021GA1001+999999999GF100991001001999999001001MA1999999083501MD1410001+9999ME1315179REMSYN070AAXX  07004 17205 32980 02503 10108 20003 38350 48517 54000 333 10144;
0174172050999992000050703004+38480+042300FM-12+166599999V0202701N001012200019N0300001N1+00861+00141999999ADDGA1031+012009089GF103991031021012501001001MA1999999083501MD1410001+9999ME1315189REMSYN082AAXX  07034 17205 42680 32702 10086 20014 38350 48518 54000 83200 333 83840 92418;
0246172050999992000050706004+38480+042300FM-12+166599999V0202701N001012200019N0300001N1+01301+00141999999ADDAA124002391GA1031+012009089GF103991031021012501001001IA1019IA2999+00509KA1120N+00701MA1999999083501MD1410001+9999ME1315159REMSYN112AAXX  07064 17205 32680 32702 10130 20014 38350 48515 54000 83200 333 20070 30005 50401 55061 70024 83840 92418;
0224172050999992000050709004+38480+042300FM-12+166599999V0202001N001510105019N0200001N1+01501+00631999999ADDAY181031AY221031GA1051+010509089GA2071+027009039GF107991051021012501071001MA1999999083501MD1410001+9999ME1315159MW1031REMSYN094AAXX  07094 17205 41670 72003 10150 20063 38350 48515 54000 70382 85270 333 85835 87359 92417;
0241172050999992000050712004+38480+042300FM-12+166599999V0202701N001510090019N0100001N1+01301+00331999999ADDAA106000591AY191061AY281061GA1051+009009089GA2071+027009039GF107991051021008001071001MA1999999083401MD1810101+9999ME1315069MW1801REMSYN100AAXX  07124 17205 11560 72703 10130 20033 38340 48506 58010 69951 78098 85270 333 85830 87359 92416;
0224172050999992000050715004+38480+042300FM-12+166599999V0202501N002110105019N0200001N1+01201+00571999999ADDAY191031AY281031GA1051+010509089GA2061+027009039GF106991051021012501051001MA1999999083401MD1410001+9999ME1315069MW1291REMSYN094AAXX  07154 17205 41670 62504 10120 20057 38340 48506 54000 72998 85250 333 85835 86359 92427;
0226172050999992000050718004+38480+042300FM-12+166599999V0209999C000012200019N0300001N1+00901+00431999999ADDAA112002091AY191061AY281061GA1001+999999999GF100991001001999999001001KA1120M+01701MA1999999083401MD1410001+9999ME1315079MW1011REMSYN088AAXX  07184 17205 11980 00000 10090 20043 38340 48507 54000 60022 70198 333 10170 92418;
0162172050999992000050721004+38480+042300FM-12+166599999V0209999C000012200019N0300001N1+00701+00531999999ADDGA1001+999999999GF100991001001999999001001MA1999999083401MD1410001+9999ME1315079REMSYN070AAXX  07214 17205 42980 00000 10070 20053 38340 48507 54000 333 10139;
0173172050999992000050800004+38480+042300FM-12+166599999V0209999C000012200019N0300001N1+00641+00491999999ADDAA199000021GA1001+999999999GF100991001001999999001001MA1999999083201MD1710201+9999ME1314909REMSYN070AAXX  08004 17205 32980 00000 10064 20049 38320 48490 57020 333 10127;
0174172050999992000050803004+38480+042300FM-12+166599999V0209999C000012200019N0300001N1+00501+00361999999ADDGA1021+012009089GF102991021011012501001001MA1999999083101MD1610101+9999ME1314809REMSYN082AAXX  08034 17205 42680 20000 10050 20036 38310 48480 56010 82100 333 82840 92418;
0234172050999992000050806004+38480+042300FM-12+166599999V0201601N001512200019N0300001N1+01401+00011999999ADDAA124001591GA1001+999999999GF100991001001999999001001IA1099IA2999+00309KA1120N+00461MA1999999083101MD1410001+9999ME1314749REMSYN100AAXX  08064 17205 32980 01603 10140 20001 38310 48474 54000 333 20046 31003 50151 55057 70015 92418;
0162172050999992000050809004+38480+042300FM-12+166599999V0202001N003112200019N0300001N1+01501-00881999999ADDGA1001+999999999GF100991001001999999001001MA1999999083101MD1410001+9999ME1314739REMSYN070AAXX  08094 17205 42980 02006 10150 21088 38310 48473 54000 333 10103;
0204172050999992000050812004+38480+042300FM-12+166599999V0202001N003612200019N0300001N1+01561-00741999999ADDAA199000091GA1031+012009089GF103991031011012501001001MA1999999083101MD1410001+9999ME1314739REMSYN082AAXX  08124 17205 32680 32007 10156 21074 38310 48473 54000 83100 333 83840 92428;EQDQ01  00002PRCP99
0174172050999992000050815004+38480+042300FM-12+166599999V0202001N002112200019N0300001N1+01401-00471999999ADDGA1031+012009089GF103991031011012501001001MA1999999082901MD1710201+9999ME1314549REMSYN082AAXX  08154 17205 42680 32004 10140 21047 38290 48454 57020 83100 333 83840 92428;
0260172050999992000050818004+38480+042300FM-12+166599999V0202501N002110300019N0250001N1+00801+00201999999ADDAA112000391AY181061AY221061GA1041+012009089GA2061+030009039GF106991041021012501051001KA1120M+01701MA1999999083101MD1210201+9999ME1314799MW1251REMSYN106AAXX  08184 17205 11675 62504 10080 20020 38310 48479 52020 69932 72582 84250 333 10170 84840 86360 92417;
0196172050999992000050821004+38480+042300FM-12+166599999V0202501N002110300019N0250001N1+00541-00231999999ADDGA1041+012009089GA2061+030009039GF106991041021012501051001MA1999999083201MD1210101+9999ME1314909REMSYN088AAXX  08214 17205 42675 62504 10054 21023 38320 48490 52010 84250 333 84840 86360 92417;
0185172050999992000050900004+38480+042300FM-12+166599999V0202001N001512200019N0300001N1+00401-00351999999ADDAA199000021GA1021+012009089GF102991021011012501001001MA1999999083201MD1410001+9999ME1314919REMSYN082AAXX  09004 17205 32680 22003 10040 21035 38320 48491 54000 82100 333 82840 92418;
0162172050999992000050903004+38480+042300FM-12+166599999V0202001N001512200019N0300001N1+00201-00501999999ADDGA1001+999999999GF100991001001999999001001MA1999999083201MD1410001+9999ME1314929REMSYN070AAXX  09034 17205 42980 02003 10020 21050 38320 48492 54000 333 10137;
0234172050999992000050906004+38480+042300FM-12+166599999V0200701N001012200019N0300001N1+00661-00471999999ADDAA124000391GA1001+999999999GF100991001001999999001001IA1019IA2999+00109KA1120N+00141MA1999999083401MD1210201+9999ME1315109REMSYN100AAXX  09064 17205 32980 00702 10066 21047 38340 48510 52020 333 20014 30001 50641 55089 70003 92418;
0162172050999992000050909004+38480+042300FM-12+166599999V0200701N001012200019N0300001N1+01061-00491999999ADDGA1001+999999999GF100991001001999999001001MA1999999083501MD1110101+9999ME1315179REMSYN070AAXX  09094 17205 42980 00702 10106 21049 38350 48517 51010 333 10144;
0192172050999992000050912004+38480+042300FM-12+166599999V0200701N001512200019N0300001N1+01161-00371999999ADDAA199000091GA1001+999999999GF100991001001999999001001MA1999999083401MD1810101+9999ME1315069REMSYN070AAXX  09124 17205 32980 00703 10116 21037 38340 48506 58010 333 10181;EQDQ01  00002PRCP99
0162172050999992000050915004+38480+042300FM-12+166599999V0200701N001012200019N0300001N1+01041-00381999999ADDGA1001+999999999GF100991001001999999001001MA1999999083401MD1410001+9999ME1315079REMSYN070AAXX  09154 17205 42980 00702 10104 21038 38340 48507 54000 333 10176;
0211172050999992000050918004+38480+042300FM-12+166599999V0209999C000012200019N0300001N1+00821-00481999999ADDAA199000091GA1001+999999999GF100991001001999999001001KA1120M+01221MA1999999083501MD1210101+9999ME1315189REMSYN076AAXX  09184 17205 32980 00000 10082 21048 38350 48518 52010 333 10122 92418;EQDQ01  00002PRCP99
0162172050999992000050921004+38480+042300FM-12+166599999V0209999C000012200019N0300001N1+00521-00331999999ADDGA1001+999999999GF100991001001999999001001MA1999999083501MD1410001+9999ME1315199REMSYN070AAXX  09214 17205 42980 00000 10052 21033 38350 48519 54000 333 10173;
0211172050999992000051000004+38480+042300FM-12+166599999V0202501N001512200019N0300001N1+01401+00021999999ADDAA199000091GA1001+999999999GF100991001001999999001001KA1120M+01821MA1999999083501MD1210101+9999ME1315159REMSYN076AAXX  11184 17205 32980 02503 10140 20002 38350 48515 52010 333 10182 92418;EQDQ01  00002PRCP99
0162172050999992000051003004+38480+042300FM-12+166599999V0209999C000012200019N0300001N1+00202-00221999999ADDGA1001+999999999GF100991001001999999001001MA1999999083601MD1110101+9999ME1315319REMSYN070AAXX  10034 17205 42980 00000 10020 21022 38360 48531 51010 333 10200;
0247172050999992000051006004+38480+042300FM-12+166599999V0200701N001012200019N0300001N1+01001+00211999999ADDAA199000091GA1001+999999999GF100991001001999999001001IA1019IA2999+00009KA1120N+00101MA1999999083601MD1410001+9999ME1315289REMSYN094AAXX  10064 17205 32980 00702 10100 20021 38360 48528 54000 333 20010 30000 50481 55095 92418;EQDQ01  00002PRCP99
0162172050999992000051009004+38480+042300FM-12+166599999V0200401N001512200019N0300001N1+01301+00131999999ADDGA1001+999999999GF100991001001999999001001MA1999999083601MD1410001+9999ME1315289REMSYN070AAXX  10094 17205 42980 00403 10130 20013 38360 48528 54000 333 10178;
0192172050999992000051012004+38480+042300FM-12+166599999V0200701N001012200019N0300001N1+01301-00041999999ADDAA199000091GA1001+999999999GF100991001001999999001001MA1999999083601MD1410001+9999ME1315289REMSYN070AAXX  10124 17205 32980 00702 10130 21004 38360 48528 54000 333 10186;EQDQ01  00002PRCP99
0162172050999992000051015004+38480+042300FM-12+166599999V0209999C000012200019N0300001N1+01241-00071999999ADDGA1001+999999999GF100991001001999999001001MA1999999083601MD1410001+9999ME1315269REMSYN070AAXX  10154 17205 42980 00000 10124 21007 38360 48526 54000 333 10193;
0211172050999992000051018004+38480+042300FM-12+166599999V0209999C000012200019N0300001N1+00901-00321999999ADDAA199000091GA1001+999999999GF100991001001999999001001KA1120M+01461MA1999999083601MD1410001+9999ME1315279REMSYN076AAXX  10184 17205 32980 00000 10090 21032 38360 48527 54000 333 10146 92418;EQDQ01  00002PRCP99
0162172050999992000051021004+38480+042300FM-12+166599999V0209999C000012200019N0300001N1+00601-00101999999ADDGA1001+999999999GF100991001001999999001001MA1999999083601MD1410001+9999ME1315299REMSYN070AAXX  10214 17205 42980 00000 10060 21010 38360 48529 54000 333 10171;
0192172050999992000051100004+38480+042300FM-12+166599999V0209999C000012200019N0300001N1+00401-00111999999ADDAA199000091GA1001+999999999GF100991001001999999001001MA1999999083601MD1410001+9999ME1315309REMSYN070AAXX  11004 17205 32980 00000 10040 21011 38360 48530 54000 333 10178;EQDQ01  00002PRCP99
0162172050999992000051103004+38480+042300FM-12+166599999V0209999C000012200019N0300001N1+00301-00111999999ADDGA1001+999999999GF100991001001999999001001MA1999999083601MD1410001+9999ME1315309REMSYN070AAXX  11034 17205 42980 00000 10030 21011 38360 48530 54000 333 10186;
0247172050999992000051106004+38480+042300FM-12+166599999V0200401N001012200019N0300001N1+01201-00021999999ADDAA199000091GA1001+999999999GF100991001001999999001001IA1019IA2999+00009KA1120N+00161MA1999999083601MD1410001+9999ME1315269REMSYN094AAXX  11064 17205 32980 00402 10120 21002 38360 48526 54000 333 20016 30000 50371 55096 92418;EQDQ01  00002PRCP99
0162172050999992000051109004+38480+042300FM-12+166599999V0200401N001512200019N0300001N1+01401+00711999999ADDGA1001+999999999GF100991001001999999001001MA1999999083601MD1410001+9999ME1315259REMSYN070AAXX  11094 17205 42980 00403 10140 20071 38360 48525 54000 333 10254;
0204172050999992000051112004+38480+042300FM-12+166599999V0200701N001512200019N0300001N1+01581+00331999999ADDAA199000091GA1021+012009089GF102991021011012501001001MA1999999083501MD1610101+9999ME1315149REMSYN082AAXX  11124 17205 32680 20703 10158 20033 38350 48514 56010 82100 333 82840 92418;EQDQ01  00002PRCP99
0174172050999992000051115004+38480+042300FM-12+166599999V0200701N001012200019N0300001N1+01701+00031999999ADDGA1031+012009089GF103991031011012501001001MA1999999083401MD1810101+9999ME1315039REMSYN082AAXX  11154 17205 42680 30702 10170 20003 38340 48503 58010 83100 333 83840 92418;
0162172050999992000051121004+38480+042300FM-12+166599999V0209999C000012200019N0300001N1+01041-00081999999ADDGA1001+999999999GF100991001001999999001001MA1999999083501MD1410001+9999ME1315179REMSYN070AAXX  11214 17205 42980 00000 10104 21008 38350 48517 54000 333 10144;
0192172050999992000051200004+38480+042300FM-12+166599999V0209999C000012200019N0300001N1+00861+00041999999ADDAA199000091GA1001+999999999GF100991001001999999001001MA1999999083501MD1410001+9999ME1315189REMSYN070AAXX  12004 17205 32980 00000 10086 20004 38350 48518 54000 333 10144;EQDQ01  00002PRCP99
0162172050999992000051203004+38480+042300FM-12+166599999V0209999C000012200019N0300001N1+00701-00041999999ADDGA1001+999999999GF100991001001999999001001MA1999999083501MD1410001+9999ME1315189REMSYN070AAXX  12034 17205 42980 00000 10070 21004 38350 48518 54000 333 10144;
0247172050999992000051206004+38480+042300FM-12+166599999V0202001N001512200019N0300001N1+01561-00201999999ADDAA199000091GA1001+999999999GF100991001001999999001001IA1019IA2999+00309KA1120N+00661MA1999999083501MD1410001+9999ME1315149REMSYN094AAXX  12064 17205 32980 02003 10156 21020 38350 48514 54000 333 20066 30003 50481 55096 92418;EQDQ01  00002PRCP99
0162172050999992000051209004+38480+042300FM-12+166599999V0202001N001512200019N0300001N1+01901-00251999999ADDGA1001+999999999GF100991001001999999001001MA1999999083501MD1410001+9999ME1315129REMSYN070AAXX  12094 17205 42980 02003 10190 21025 38350 48512 54000 333 10123;
0192172050999992000051212004+38480+042300FM-12+166599999V0202001N002612200019N0300001N1+02001-00161999999ADDAA199000091GA1001+999999999GF100991001001999999001001MA1999999083501MD1410001+9999ME1315129REMSYN070AAXX  12124 17205 32980 02005 10200 21016 38350 48512 54000 333 10130;EQDQ01  00002PRCP99
0162172050999992000051215004+38480+042300FM-12+166599999V0202001N001512200019N0300001N1+01801-00511999999ADDGA1001+999999999GF100991001001999999001001MA1999999083501MD1410001+9999ME1315139REMSYN070AAXX  12154 17205 42980 02003 10180 21051 38350 48513 54000 333 10137;
0211172050999992000051218004+38480+042300FM-12+166599999V0202701N001012200019N0300001N1+01561-00331999999ADDAA199000091GA1001+999999999GF100991001001999999001001KA1120M+02101MA1999999083501MD1410001+9999ME1315149REMSYN076AAXX  12184 17205 32980 02702 10156 21033 38350 48514 54000 333 10210 92418;EQDQ01  00002PRCP99
0162172050999992000051221004+38480+042300FM-12+166599999V0209999C000012200019N0300001N1+01001+00071999999ADDGA1001+999999999GF100991001001999999001001MA1999999083501MD1410001+9999ME1315179REMSYN070AAXX  12214 17205 42980 00000 10100 20007 38350 48517 54000 333 10159;
0192172050999992000051300004+38480+042300FM-12+166599999V0209999C000012200019N0300001N1+00801+00011999999ADDAA199000091GA1001+999999999GF100991001001999999001001MA1999999083501MD1410001+9999ME1315189REMSYN070AAXX  13004 17205 32980 00000 10080 20001 38350 48518 54000 333 10130;EQDQ01  00002PRCP99
0162172050999992000051303004+38480+042300FM-12+166599999V0209999C000012200019N0300001N1+00721+00151999999ADDGA1001+999999999GF100991001001999999001001MA1999999083421MD1710081+9999ME1315089REMSYN070AAXX  13034 17205 42980 00000 10072 20015 38342 48508 57008 333 10127;
0247172050999992000051306004+38480+042300FM-12+166599999V0209999C000012200019N0300001N1+01701+00211999999ADDAA199000091GA1001+999999999GF100991001001999999001001IA1019IA2999+00509KA1120N+00601MA1999999083481MD1110061+9999ME1315149REMSYN094AAXX  13064 17205 32980 00000 10170 20021 38348 48514 51006 333 20060 30005 50801 55096 92418;EQDQ01  00002PRCP99
0162172050999992000051309004+38480+042300FM-12+166599999V0202001N003612200019N0300001N1+02021-00201999999ADDGA1001+999999999GF100991001001999999001001MA1999999083481MD1410001+9999ME1315149REMSYN070AAXX  13094 17205 42980 02007 10202 21020 38348 48514 54000 333 10120;
0204172050999992000051312004+38480+042300FM-12+166599999V0202701N004112200019N0300001N1+02101-00301999999ADDAA199000091GA1021+012009089GF102991021011012501001001MA1999999083401MD1810081+9999ME1315009REMSYN082AAXX  13124 17205 32680 22708 10210 21030 38340 48500 58008 82100 333 82840 92428;EQDQ01  00002PRCP99
0162172050999992000051315004+38480+042300FM-12+166599999V0202701N003112200019N0300001N1+01961-00241999999ADDGA1001+999999999GF100991001001999999001001MA1999999083301MD1710101+9999ME1314919REMSYN070AAXX  13154 17205 42980 02706 10196 21024 38330 48491 57010 333 10113;
0211172050999992000051318004+38480+042300FM-12+166599999V0209999C000012200019N0300001N1+01501-00031999999ADDAA199000091GA1001+999999999GF100991001001999999001001KA1120M+02201MA1999999083401MD1110101+9999ME1315049REMSYN076AAXX  13184 17205 32980 00000 10150 21003 38340 48504 51010 333 10220 92418;EQDQ01  00002PRCP99
0162172050999992000051321004+38480+042300FM-12+166599999V0209999C000012200019N0300001N1+01101+00231999999ADDGA1001+999999999GF100991001001999999001001MA1999999083401MD1410001+9999ME1315069REMSYN070AAXX  13214 17205 42980 00000 10110 20023 38340 48506 54000 333 10104;
0192172050999992000051400004+38480+042300FM-12+166599999V0209999C000012200019N0300001N1+00901+00231999999ADDAA199000091GA1001+999999999GF100991001001999999001001MA1999999083401MD1410001+9999ME1315079REMSYN070AAXX  14004 17205 32980 00000 10090 20023 38340 48507 54000 333 10111;EQDQ01  00002PRCP99
0196172050999992000051403004+38480+042300FM-12+166599999V0209999C000010300019N0300001N1+00741+00271999999ADDGA1041+012009089GA2061+030009039GF106991041021012501051001MA1999999083401MD1410001+9999ME1315089REMSYN088AAXX  14034 17205 42680 60000 10074 20027 38340 48508 54000 84250 333 84840 86360 92418;
0223172050999992000051406004+38480+042300FM-12+166599999V0209999C000012200019N0300001N1+01441+00471999999ADDAA199000091GA1001+999999999GF100991001001999999001001KA1120N+00051MA1999999083401MD1410001+9999ME1315059REMSYN088AAXX  14064 17205 32980 00000 10144 20047 38340 48505 54000 333 20005 50561 55096 92418;EQDQ01  00002PRCP99
0162172050999992000051409004+38480+042300FM-12+166599999V0200701N001512200019N0300001N1+01741+00641999999ADDGA1001+999999999GF100991001001999999001001MA1999999083301MD1710101+9999ME1314929REMSYN070AAXX  14094 17205 42980 00703 10174 20064 38330 48492 57010 333 10105;
0204172050999992000051412004+38480+042300FM-12+166599999V0202001N002110120019N0300001N1+02181+00051999999ADDAA199000091GA1051+012009089GF105991051021012501001001MA1999999083201MD1610101+9999ME1314799REMSYN082AAXX  14124 17205 32680 52004 10218 20005 38320 48479 56010 85200 333 85840 92418;EQDQ01  00002PRCP99
0196172050999992000051415004+38480+042300FM-12+166599999V0202501N003110300019N0300001N1+02021-00121999999ADDGA1041+012009089GA2061+030009039GF106991041021012501051001MA1999999083101MD1710101+9999ME1314709REMSYN088AAXX  14154 17205 42680 62506 10202 21012 38310 48470 57010 84250 333 84840 86360 92428;
0223172050999992000051418004+38480+042300FM-12+166599999V0202501N003112200019N0300001N1+01601+00231999999ADDAA199000091GA1031+012009089GF103991031021012501001001KA1120M+02301MA1999999083101MD1410001+9999ME1314739REMSYN088AAXX  14184 17205 32680 32506 10160 20023 38310 48473 54000 83200 333 10230 83840 92428;EQDQ01  00002PRCP99
0162172050999992000051421004+38480+042300FM-12+166599999V0209999C000012200019N0300001N1+01141+00391999999ADDGA1001+999999999GF100991001001999999001001MA1999999083101MD1410001+9999ME1314769REMSYN070AAXX  14214 17205 42980 00000 10114 20039 38310 48476 54000 333 10081;
0204172050999992000051500004+38480+042300FM-12+166599999V0209999C000012200019N0300001N1+00901+00531999999ADDAA199000091GA1041+012009089GF104991041021012501001001MA1999999083201MD1110101+9999ME1314879REMSYN082AAXX  15004 17205 32680 40000 10090 20053 38320 48487 51010 84200 333 84840 92418;EQDQ01  00002PRCP99
0174172050999992000051503004+38480+042300FM-12+166599999V0209999C000012200019N0300001N1+00801+00621999999ADDGA1021+012009089GF102991021011012501001001MA1999999083101MD1810101+9999ME1314799REMSYN082AAXX  15034 17205 42680 20000 10080 20062 38310 48479 58010 82100 333 82840 92418;
0247172050999992000051506004+38480+042300FM-12+166599999V0209999C000012200019N0300001N1+01501+00501999999ADDAA199000091GA1001+999999999GF100991001001999999001001IA1019IA2999+00509KA1120N+00701MA1999999083141MD1110041+9999ME1314739REMSYN094AAXX  15064 17205 32980 00000 10150 20050 38314 48473 51004 333 20070 30005 50561 55091 92418;EQDQ01  00002PRCP99
0174172050999992000051509004+38480+042300FM-12+166599999V0202001N001512200019N0300001N1+02001+00311999999ADDGA1041+012009089GF104991041021012501001001MA1999999083101MD1610041+9999ME1314709REMSYN082AAXX  15094 17205 42680 42003 10200 20031 38310 48470 56004 84200 333 84840 92418;
0204172050999992000051512004+38480+042300FM-12+166599999V0202001N002612200019N0300001N1+02061+00351999999ADDAA199000091GA1041+012009089GF104991041021012501001001MA1999999083101MD1410001+9999ME1314709REMSYN082AAXX  15124 17205 32680 42005 10206 20035 38310 48470 54000 84200 333 84840 92418;EQDQ01  00002PRCP99
0174172050999992000051515004+38480+042300FM-12+166599999V0202001N003112200019N0300001N1+01901-00361999999ADDGA1031+012009089GF103991031021012501001001MA1999999083101MD1410001+9999ME1314709REMSYN082AAXX  15154 17205 42680 32006 10190 21036 38310 48470 54000 83200 333 83840 92428;
0211172050999992000051518004+38480+042300FM-12+166599999V0202501N001012200019N0300001N1+01641-00461999999ADDAA199000091GA1001+999999999GF100991001001999999001001KA1120M+02241MA1999999083101MD1410001+9999ME1314739REMSYN076AAXX  15184 17205 32980 02502 10164 21046 38310 48473 54000 333 10224 92418;EQDQ01  00002PRCP99
0162172050999992000051521004+38480+042300FM-12+166599999V0202701N001012200019N0300001N1+01441-00221999999ADDGA1001+999999999GF100991001001999999001001MA1999999083161MD1110061+9999ME1314859REMSYN070AAXX  15214 17205 42980 02702 10144 21022 38316 48485 51006 333 10067;
0192172050999992000051600004+38480+042300FM-12+166599999V0209999C000012200019N0300001N1+01041-00141999999ADDAA199000091GA1001+999999999GF100991001001999999001001MA1999999083121MD1710041+9999ME1314779REMSYN070AAXX  16004 17205 32980 00000 10104 21014 38312 48477 57004 333 10070;EQDQ01  00002PRCP99
0162172050999992000051603004+38480+042300FM-12+166599999V0209999C000012200019N0300001N1+00801+00061999999ADDGA1001+999999999GF100991001001999999001001MA1999999083121MD1410001+9999ME1314799REMSYN070AAXX  16034 17205 42980 00000 10080 20006 38312 48479 54000 333 10084;
0247172050999992000051606004+38480+042300FM-12+166599999V0200701N001512200019N0300001N1+01461+00081999999ADDAA199000091GA1001+999999999GF100991001001999999001001IA1019IA2999+00509KA1120N+00601MA1999999083201MD1110081+9999ME1314859REMSYN094AAXX  16064 17205 32980 00703 10146 20008 38320 48485 51008 333 20060 30005 50641 55094 92418;EQDQ01  00002PRCP99
0174172050999992000051609004+38480+042300FM-12+166599999V0200701N002612200019N0300001N1+01741+00411999999ADDGA1031+012009089GF103991031021012501001001MA1999999083101MD1810101+9999ME1314729REMSYN082AAXX  16094 17205 42680 30705 10174 20041 38310 48472 58010 83200 333 83840 92418;
0204172050999992000051612004+38480+042300FM-12+166599999V0200701N001512200019N0300001N1+01801+00231999999ADDAA199000091GA1031+012009089GF103991031021012501001001MA1999999083001MD1810101+9999ME1314619REMSYN082AAXX  16124 17205 32680 30703 10180 20023 38300 48461 58010 83200 333 83840 92418;EQDQ01  00002PRCP99
0196172050999992000051615004+38480+042300FM-12+166599999V0202001N001510300019N0300001N1+01801-00711999999ADDGA1041+012009089GA2061+030009039GF106991041021012501051001MA1999999083001MD1410001+9999ME1314619REMSYN088AAXX  16154 17205 42680 62003 10180 21071 38300 48461 54000 84250 333 84840 86360 92418;
0245172050999992000051618004+38480+042300FM-12+166599999V0202701N001510300019N0300001N1+01861-00611999999ADDAA199000091GA1041+012009089GA2061+030009039GF106991041021012501051001KA1120M+02161MA1999999083101MD1110101+9999ME1314729REMSYN094AAXX  16184 17205 32680 62703 10186 21061 38310 48472 51010 84250 333 10216 84840 86360 92418;EQDQ01  00002PRCP99
0162172050999992000051621004+38480+042300FM-12+166599999V0202501N001512200019N0300001N1+01501-00751999999ADDGA1001+999999999GF100991001001999999001001MA1999999083101MD1410001+9999ME1314739REMSYN070AAXX  16214 17205 42980 02503 10150 21075 38310 48473 54000 333 10067;
0192172050999992000051700004+38480+042300FM-12+166599999V0209999C000012200019N0300001N1+01001-00321999999ADDAA199000091GA1001+999999999GF100991001001999999001001MA1999999083001MD1710101+9999ME1314679REMSYN070AAXX  17004 17205 32980 00000 10100 21032 38300 48467 57010 333 10069;EQDQ01  00002PRCP99
0162172050999992000051703004+38480+042300FM-12+166599999V0209999C000012200019N0300001N1+00701-00171999999ADDGA1001+999999999GF100991001001999999001001MA1999999083001MD1410001+9999ME1314699REMSYN070AAXX  17034 17205 42980 00000 10070 21017 38300 48469 54000 333 10076;
0247172050999992000051706004+38480+042300FM-12+166599999V0202701N001512200019N0300001N1+01601-00251999999ADDAA199000091GA1001+999999999GF100991001001999999001001IA1019IA2999+00309KA1120N+00541MA1999999083001MD1410001+9999ME1314639REMSYN094AAXX  17064 17205 32980 02703 10160 21025 38300 48463 54000 333 20054 30003 50481 55086 92418;EQDQ01  00002PRCP99
0174172050999992000051709004+38480+042300FM-12+166599999V0202001N002612200019N0300001N1+01901-00361999999ADDGA1031+012009089GF103991031021012501001001MA1999999083001MD1410001+9999ME1314609REMSYN082AAXX  17094 17205 42680 32005 10190 21036 38300 48460 54000 83200 333 83840 92418;
0204172050999992000051712004+38480+042300FM-12+166599999V0202001N002612200019N0300001N1+01941-00431999999ADDAA199000091GA1031+012009089GF103991031021012501001001MA1999999082961MD1610061+9999ME1314499REMSYN082AAXX  17124 17205 32680 32005 10194 21043 38296 48449 56006 83200 333 83840 92418;EQDQ01  00002PRCP99
0196172050999992000051715004+38480+042300FM-12+166599999V0202001N001510300019N0300001N1+01701-00411999999ADDGA1041+012009089GA2061+030009039GF106991041021012501051001MA1999999082901MD1610041+9999ME1314519REMSYN088AAXX  17154 17205 42680 62003 10170 21041 38290 48451 56004 84250 333 84840 86360 92418;
0245172050999992000051718004+38480+042300FM-12+166599999V0202701N001010300019N0300001N1+01581-00041999999ADDAA199000091GA1041+012009089GA2061+030009039GF106991041021012501051001KA1120M+02101MA1999999082901MD1410001+9999ME1314529REMSYN094AAXX  17184 17205 32680 62702 10158 21004 38290 48452 54000 84250 333 10210 84840 86360 92418;EQDQ01  00002PRCP99
0196172050999992000051721004+38480+042300FM-12+166599999V0202001N002110300019N0300001N1+01461+00081999999ADDGA1041+012009089GA2061+030009039GF106991041021012501051001MA1999999082901MD1410001+9999ME1314529REMSYN088AAXX  17214 17205 42680 62004 10146 20008 38290 48452 54000 84250 333 84840 86360 92418;
0204172050999992000051800004+38480+042300FM-12+166599999V0202501N001512200019N0300001N1+01301-00031999999ADDAA199000091GA1041+012009089GF104991041021012501001001MA1999999082901MD1410001+9999ME1314549REMSYN082AAXX  18004 17205 32680 42503 10130 21003 38290 48454 54000 84200 333 84840 92418;EQDQ01  00002PRCP99
0174172050999992000051803004+38480+042300FM-12+166599999V0202501N001512200019N0300001N1+01301-00031999999ADDGA1041+012009089GF104991041021012501001001MA1999999082901MD1410001+9999ME1314549REMSYN082AAXX  18034 17205 42680 42503 10130 21003 38290 48454 54000 84200 333 84840 92418;
0196172050999992000051809004+38480+042300FM-12+166599999V0202501N003110300019N0300001N1+01601+00051999999ADDGA1041+012009089GA2061+030009039GF106991041021012501051001MA1999999082901MD1110101+9999ME1314529REMSYN088AAXX  18094 17205 42680 62506 10160 20005 38290 48452 51010 84250 333 84840 86360 92428;
0226172050999992000051812004+38480+042300FM-12+166599999V0202001N003110300019N0300001N1+01601+00181999999ADDAA199000091GA1041+012009089GA2061+030009039GF106991041021012501051001MA1999999082901MD1410001+9999ME1314529REMSYN088AAXX  18124 17205 32680 62006 10160 20018 38290 48452 54000 84250 333 84840 86360 92428;EQDQ01  00002PRCP99
0224172050999992000051815004+38480+042300FM-12+166599999V0202001N003110300019N0150001N1+01081+00351999999ADDAY181031AY221031GA1041+012009089GA2061+030009039GF106991041021012501051001MA1999999082901MD1410001+9999ME1314579MW1251REMSYN094AAXX  18154 17205 41665 62006 10108 20035 38290 48457 54000 72582 84250 333 84840 86360 92418;
0260172050999992000051818004+38480+042300FM-12+166599999V0203401N002110300019N0300001N1+01021+00381999999ADDAA112000191AY181061AY221061GA1041+012009089GA2061+030009039GF106991041021012501051001KA1120M+01761MA1999999082901MD1410001+9999ME1314579MW1011REMSYN106AAXX  18184 17205 12680 63404 10102 20038 38290 48457 54000 69922 70182 84250 333 10176 84840 86360 92428;
0162172050999992000051821004+38480+042300FM-12+166599999V0201601N001012200019N0300001N1+00841+00551999999ADDGA1001+999999999GF100991001001999999001001MA1999999083001MD1210101+9999ME1314699REMSYN070AAXX  18214 17205 42980 01602 10084 20055 38300 48469 52010 333 10083;
0185172050999992000051900004+38480+042300FM-12+166599999V0209999C000012200019N0300001N1+00661+00551999999ADDAA199000021GA1041+012009089GF104991041021012501001001MA1999999082901MD1710101+9999ME1314609REMSYN082AAXX  19004 17205 32680 40000 10066 20055 38290 48460 57010 84200 333 84840 92418;
0224172050999992000051903004+38480+042300FM-12+166599999V0201601N001510105019N0150001N1+00401+00381999999ADDAY121031AY221031GA1051+010509069GA2081+027009049GF108991051051012501021999MA1999999082801MD1610101+9999ME1314509MW1601REMSYN094AAXX  19034 17205 41665 81603 10040 20038 38280 48450 56010 76022 8552/ 333 85635 88459 92423;
0302172050999992000051906004+38480+042300FM-12+166599999V0209999C000010300019N0300001N1+00741+00481999999ADDAA112015091AY161061AY221061GA1041+012009089GA2061+030009039GF106991041021012501051001IA1119IA2999+00109KA1120N+00301MA1999999082801MD1410001+9999ME1314509MW1211REMSYN130AAXX  19064 17205 11680 60000 10074 20048 38280 48450 54000 60152 72162 84250 333 20030 32001 50341 55053 70146 84840 86360 92418;
0174172050999992000051909004+38480+042300FM-12+166599999V0200701N001512200019N0300001N1+01141+00601999999ADDGA1041+012009089GF104991041021012501001001MA1999999082801MD1410001+9999ME1314459REMSYN082AAXX  19094 17205 42680 40703 10114 20060 38280 48445 54000 84200 333 84840 92418;
0207172050999992000051912004+38480+042300FM-12+166599999V0200701N001010300019N0300001N1+01101+00561999999ADDAA199000021GA1041+012009089GA2061+030009039GF106991041021012501051001MA1999999082701MD1810101+9999ME1314359REMSYN088AAXX  19124 17205 32680 60702 10110 20056 38270 48435 58010 84250 333 84840 86360 92418;
0224172050999992000051915004+38480+042300FM-12+166599999V0202501N003110105019N0100001N1+00801+00621999999ADDAY161031AY221031GA1051+010509069GA2081+027009049GF108991051051012501021999MA1999999082901MD1210201+9999ME1314599MW1601REMSYN094AAXX  19154 17205 41660 82506 10080 20062 38290 48459 52020 76062 8552/ 333 85635 88459 92427;
0226172050999992000051918004+38480+042300FM-12+166599999V0209999C000012200019N0300001N1+00721+00401999999ADDAA112002091AY161061AY221061GA1001+999999999GF100991001001999999001001KA1120M+01261MA1999999082901MD1410001+9999ME1314599MW1211REMSYN088AAXX  19184 17205 11980 00000 10072 20040 38290 48459 54000 60022 72162 333 10126 92418;
0162172050999992000051921004+38480+042300FM-12+166599999V0209999C000012200019N0300001N1+00501+00301999999ADDGA1001+999999999GF100991001001999999001001MA1999999082901MD1410001+9999ME1314609REMSYN070AAXX  19214 17205 42980 00000 10050 20030 38290 48460 54000 333 10100;
0173172050999992000052000004+38480+042300FM-12+166599999V0209999C000012200019N0300001N1+00401+00301999999ADDAA199000021GA1001+999999999GF100991001001999999001001MA1999999083001MD1110101+9999ME1314739REMSYN070AAXX  20004 17205 32980 00000 10040 20030 38300 48473 51010 333 10113;
0162172050999992000052003004+38480+042300FM-12+166599999V0209999C000012200019N0300001N1+00321+00281999999ADDGA1001+999999999GF100991001001999999001001MA1999999083001MD1410001+9999ME1314729REMSYN070AAXX  20034 17205 42980 00000 10032 20028 38300 48472 54000 333 10127;
0234172050999992000052006004+38480+042300FM-12+166599999V0200401N001012200019N0300001N1+01041-00141999999ADDAA124001591GA1001+999999999GF100991001001999999001001IA1099IA2999+00109KA1120N+00201MA1999999083101MD1210101+9999ME1314779REMSYN100AAXX  20064 17205 32980 00402 10104 21014 38310 48477 52010 333 20020 31001 50161 55054 70016 92418;
0174172050999992000052009004+38480+042300FM-12+166599999V0200701N001512200019N0300001N1+01401+00591999999ADDGA1031+012009089GF103991031021012501001001MA1999999083101MD1410001+9999ME1314749REMSYN082AAXX  20094 17205 42680 30703 10140 20059 38310 48474 54000 83200 333 83840 92418;
0204172050999992000052012004+38480+042300FM-12+166599999V0200701N001512200019N0300001N1+01401+00591999999ADDAA199000091GA1031+012009089GF103991031021012501001001MA1999999083201MD1210101+9999ME1314859REMSYN082AAXX  20124 17205 32680 30703 10140 20059 38320 48485 52010 83200 333 83840 92418;EQDQ01  00002PRCP99
0174172050999992000052015004+38480+042300FM-12+166599999V0202001N002112200019N0300001N1+01741-00331999999ADDGA1031+012009089GF103991031021012501001001MA1999999083201MD1410001+9999ME1314829REMSYN082AAXX  20154 17205 42680 32004 10174 21033 38320 48482 54000 83200 333 83840 92418;
0211172050999992000052018004+38480+042300FM-12+166599999V0209999C000012200019N0300001N1+01241-00061999999ADDAA199000091GA1001+999999999GF100991001001999999001001KA1120M+01961MA1999999083301MD1210101+9999ME1314969REMSYN076AAXX  20184 17205 32980 00000 10124 21006 38330 48496 52010 333 10196 92418;EQDQ01  00002PRCP99
0174172050999992000052021004+38480+042300FM-12+166599999V0209999C000012200019N0300001N1+00901+00231999999ADDGA1021+012009089GF102991021011012501001001MA1999999083401MD1210101+9999ME1315079REMSYN082AAXX  20214 17205 42680 20000 10090 20023 38340 48507 52010 82100 333 82840 92418;
0192172050999992000052100004+38480+042300FM-12+166599999V0209999C000012200019N0300001N1+00701+00311999999ADDAA199000091GA1001+999999999GF100991001001999999001001MA1999999083401MD1410001+9999ME1315089REMSYN070AAXX  21004 17205 32980 00000 10070 20031 38340 48508 54000 333 10147;EQDQ01  00002PRCP99
0162172050999992000052103004+38480+042300FM-12+166599999V0209999C000012200019N0300001N1+00601+00241999999ADDGA1001+999999999GF100991001001999999001001MA1999999083401MD1410001+9999ME1315109REMSYN070AAXX  21034 17205 42980 00000 10060 20024 38340 48510 54000 333 10132;
0259172050999992000052106004+38480+042300FM-12+166599999V0200701N001012200019N0300001N1+01441+00231999999ADDAA199000091GA1021+012009089GF102991021011012501001001IA1019IA2999+00309KA1120N+00501MA1999999083501MD1110101+9999ME1315159REMSYN106AAXX  21064 17205 32680 20702 10144 20023 38350 48515 51010 82100 333 20050 30003 50401 55100 82840 92418;EQDQ01  00002PRCP99
0196172050999992000052109004+38480+042300FM-12+166599999V0203401N002110300019N0300001N1+01561+00301999999ADDGA1041+012009089GA2061+030009039GF106991041021012501051001MA1999999083501MD1410001+9999ME1315149REMSYN088AAXX  21094 17205 42680 63404 10156 20030 38350 48514 54000 84250 333 84840 86360 92418;
0226172050999992000052112004+38480+042300FM-12+166599999V0200701N001010300019N0300001N1+01801+00501999999ADDAA199000091GA1041+012009089GA2061+030009039GF106991041021012501051001MA1999999083501MD1410001+9999ME1315139REMSYN088AAXX  21124 17205 32680 60702 10180 20050 38350 48513 54000 84250 333 84840 86360 92418;EQDQ01  00002PRCP99
0174172050999992000052115004+38480+042300FM-12+166599999V0202701N002112200019N0300001N1+01601+00311999999ADDGA1041+012009089GF104991041021012501001001MA1999999083441MD1710061+9999ME1315049REMSYN082AAXX  21154 17205 42680 42704 10160 20031 38344 48504 57006 84200 333 84840 92418;
0211172050999992000052118004+38480+042300FM-12+166599999V0209999C000012200019N0300001N1+01361+00581999999ADDAA199000091GA1001+999999999GF100991001001999999001001KA1120M+02061MA1999999083501MD1110061+9999ME1315159REMSYN076AAXX  21184 17205 32980 00000 10136 20058 38350 48515 51006 333 10206 92418;EQDQ01  00002PRCP99
0162172050999992000052121004+38480+042300FM-12+166599999V0209999C000012200019N0300001N1+01101+00511999999ADDGA1001+999999999GF100991001001999999001001MA1999999083601MD1210101+9999ME1315269REMSYN070AAXX  21214 17205 42980 00000 10110 20051 38360 48526 52010 333 10149;
0192172050999992000052200004+38480+042300FM-12+166599999V0209999C000012200019N0300001N1+01821+00481999999ADDAA199000091GA1001+999999999GF100991001001999999001001MA1999999083601MD1410001+9999ME1315289REMSYN070AAXX  22004 17205 32980 00000 10182 20048 38360 48528 54000 333 10149;EQDQ01  00002PRCP99
0162172050999992000052203004+38480+042300FM-12+166599999V0209999C000012200019N0300001N1+00801+00661999999ADDGA1001+999999999GF100991001001999999001001MA1999999083601MD1410001+9999ME1315289REMSYN070AAXX  22034 17205 42980 00000 10080 20066 38360 48528 54000 333 10156;
0247172050999992000052206004+38480+042300FM-12+166599999V0209999C000012200019N0300001N1+01441+00231999999ADDAA199000091GA1001+999999999GF100991001001999999001001IA1019IA2999+00509KA1120N+00701MA1999999083701MD1110101+9999ME1315359REMSYN094AAXX  22064 17205 32980 00000 10144 20023 38370 48535 51010 333 20070 30005 50241 55075 92418;EQDQ01  00002PRCP99
0174172050999992000052209004+38480+042300FM-12+166599999V0200201N001512200019N0300001N1+01701+00781999999ADDGA1041+012009089GF104991041021012501001001MA1999999083701MD1410001+9999ME1315339REMSYN082AAXX  22094 17205 42680 40203 10170 20078 38370 48533 54000 84200 333 84840 92418;
0204172050999992000052212004+38480+042300FM-12+166599999V0200401N001512200019N0300001N1+01801+00731999999ADDAA199000091GA1041+012009089GF104991041021012501001001MA1999999083601MD1610101+9999ME1315239REMSYN082AAXX  22124 17205 32680 40403 10180 20073 38360 48523 56010 84200 333 84840 92418;EQDQ01  00002PRCP99
0174172050999992000052215004+38480+042300FM-12+166599999V0209999C000012200019N0300001N1+01721+00521999999ADDGA1031+012009089GF103991031021012501001001MA1999999083601MD1410001+9999ME1315249REMSYN082AAXX  22154 17205 42680 30000 10172 20052 38360 48524 54000 83200 333 83840 92418;
0211172050999992000052218004+38480+042300FM-12+166599999V0209999C000012200019N0300001N1+01341+00331999999ADDAA199000091GA1001+999999999GF100991001001999999001001KA1120M+01961MA1999999083501MD1810101+9999ME1315159REMSYN076AAXX  22184 17205 32980 00000 10134 20033 38350 48515 58010 333 10196 92418;EQDQ01  00002PRCP99
0162172050999992000052221004+38480+042300FM-12+166599999V0209999C000012200019N0300001N1+01061+00381999999ADDGA1001+999999999GF100991001001999999001001MA1999999083601MD1410001+9999ME1315279REMSYN070AAXX  22214 17205 42980 00000 10106 20038 38360 48527 54000 333 10142;
0192172050999992000052300004+38480+042300FM-12+166599999V0209999C000012200019N0300001N1+00901+00471999999ADDAA199000091GA1001+999999999GF100991001001999999001001MA1999999083501MD1610101+9999ME1315179REMSYN070AAXX  23004 17205 32980 00000 10090 20047 38350 48517 56010 333 10130;EQDQ01  00002PRCP99
0162172050999992000052303004+38480+042300FM-12+166599999V0209999C000012200019N0300001N1+00761+00581999999ADDGA1001+999999999GF100991001001999999001001MA1999999083501MD1410001+9999ME1315189REMSYN070AAXX  23034 17205 42980 00000 10076 20058 38350 48518 54000 333 10144;
0259172050999992000052306004+38480+042300FM-12+166599999V0201101N001012200019N0300001N1+01561+00351999999ADDAA199000091GA1021+012009089GF102991021011012501001001IA1019IA2999+00409KA1120N+00701MA1999999083501MD1410001+9999ME1315149REMSYN106AAXX  23064 17205 32680 21102 10156 20035 38350 48514 54000 82100 333 20070 30004 50321 55092 82840 92418;EQDQ01  00002PRCP99
0174172050999992000052309004+38480+042300FM-12+166599999V0200701N001512200019N0300001N1+01761+00751999999ADDGA1021+012009089GF102991021011012501001001MA1999999083501MD1410001+9999ME1315139REMSYN082AAXX  23094 17205 42680 20703 10176 20075 38350 48513 54000 82100 333 82840 92418;
0204172050999992000052312004+38480+042300FM-12+166599999V0200701N001512200019N0300001N1+01841+00971999999ADDAA199000091GA1031+012009089GF103991031021012501001001MA1999999083401MD1610101+9999ME1315039REMSYN082AAXX  23124 17205 32680 30703 10184 20097 38340 48503 56010 83200 333 83840 92418;EQDQ01  00002PRCP99
0162172050999992000052315004+38480+042300FM-12+166599999V0209999C000012200019N0300001N1+01801+00501999999ADDGA1001+999999999GF100991001001999999001001MA1999999083301MD1610101+9999ME1314929REMSYN070AAXX  23154 17205 42980 00000 10180 20050 38330 48492 56010 333 10113;
0211172050999992000052318004+38480+042300FM-12+166599999V0200201N001012200019N0300001N1+01661+00141999999ADDAA199000091GA1001+999999999GF100991001001999999001001KA1120M+01961MA1999999083301MD1410001+9999ME1314939REMSYN076AAXX  23184 17205 32980 00202 10166 20014 38330 48493 54000 333 10196 92418;EQDQ01  00002PRCP99
0162172050999992000052321004+38480+042300FM-12+166599999V0209999C000012200019N0300001N1+01341+00331999999ADDGA1001+999999999GF100991001001999999001001MA1999999083401MD1210101+9999ME1315059REMSYN070AAXX  23214 17205 42980 00000 10134 20033 38340 48505 52010 333 10104;
0192172050999992000052400004+38480+042300FM-12+166599999V0209999C000012200019N0300001N1+00901+00471999999ADDAA199000091GA1001+999999999GF100991001001999999001001MA1999999083401MD1410001+9999ME1315079REMSYN070AAXX  24004 17205 32980 00000 10090 20047 38340 48507 54000 333 10118;EQDQ01  00002PRCP99
0162172050999992000052403004+38480+042300FM-12+166599999V0209999C000012200019N0300001N1+00761+00581999999ADDGA1001+999999999GF100991001001999999001001MA1999999083401MD1410001+9999ME1315089REMSYN070AAXX  24034 17205 42980 00000 10076 20058 38340 48508 54000 333 10125;
0247172050999992000052406004+38480+042300FM-12+166599999V0200401N001012200019N0300001N1+01661+00901999999ADDAA199000091GA1001+999999999GF100991001001999999001001IA1019IA2999+00409KA1120N+00661MA1999999083401MD1410001+9999ME1315049REMSYN094AAXX  24064 17205 32980 00402 10166 20090 38340 48504 54000 333 20066 30004 50561 55101 92418;EQDQ01  00002PRCP99
0174172050999992000052409004+38480+042300FM-12+166599999V0200701N001512200019N0300001N1+01881+00941999999ADDGA1031+012009089GF103991031021012501001001MA1999999083301MD1710101+9999ME1314929REMSYN082AAXX  24094 17205 42680 30703 10188 20094 38330 48492 57010 83200 333 83840 92418;
0204172050999992000052412004+38480+042300FM-12+166599999V0200701N001012200019N0300001N1+01901+00811999999ADDAA199000091GA1041+012009089GF104991041021012501001001MA1999999083201MD1610101+9999ME1314819REMSYN082AAXX  24124 17205 32680 40702 10190 20081 38320 48481 56010 84200 333 84840 92418;EQDQ01  00002PRCP99
0174172050999992000052415004+38480+042300FM-12+166599999V0200701N001012200019N0300001N1+01841+00751999999ADDGA1041+012009089GF104991041021012501001001MA1999999083101MD1610101+9999ME1314729REMSYN082AAXX  24154 17205 42680 40702 10184 20075 38310 48472 56010 84200 333 84840 92418;
0211172050999992000052418004+38480+042300FM-12+166599999V0200401N001012200019N0300001N1+01621+00531999999ADDAA199000091GA1001+999999999GF100991001001999999001001KA1120M+02041MA1999999083101MD1410001+9999ME1314739REMSYN076AAXX  24184 17205 32980 00402 10162 20053 38310 48473 54000 333 10204 92418;EQDQ01  00002PRCP99
0162172050999992000052421004+38480+042300FM-12+166599999V0200401N001512200019N0300001N1+01501+00411999999ADDGA1001+999999999GF100991001001999999001001MA1999999083101MD1410001+9999ME1314739REMSYN070AAXX  24214 17205 42980 00403 10150 20041 38310 48473 54000 333 10060;
0204172050999992000052500004+38480+042300FM-12+166599999V0209999C000012200019N0300001N1+01381+00511999999ADDAA199000091GA1041+012009089GF104991041021012501001001MA1999999083101MD1410001+9999ME1314749REMSYN082AAXX  25004 17205 32680 40000 10138 20051 38310 48474 54000 84200 333 84840 92418;EQDQ01  00002PRCP99
0174172050999992000052503004+38480+042300FM-12+166599999V0200401N001512200019N0300001N1+01401+00711999999ADDGA1041+012009089GF104991041021012501001001MA1999999083001MD1610101+9999ME1314649REMSYN082AAXX  25034 17205 42680 40403 10140 20071 38300 48464 56010 84200 333 84840 92418;
0250172050999992000052506004+38480+042300FM-12+166599999V0200701N001512200019N0300001N1+01641+00941999999ADDAA199000091GA1031+012009089GF103991031021012501001001IA1019IA2999+00909KA1120N+01101MA1999999083001MD1410001+9999REMSYN106AAXX  25064 17205 32680 30703 10164 20094 38300 46463 54000 83200 333 20110 30009 50481 55096 83840 92418;EQDQ01  00002PRCP99
0174172050999992000052509004+38480+042300FM-12+166599999V0200701N001512200019N0300001N1+02141+00271999999ADDGA1031+012009089GF103991031021012501001001MA1999999083001MD1410001+9999ME1314589REMSYN082AAXX  25094 17205 42680 30703 10214 20027 38300 48458 54000 83200 333 83840 92418;
0204172050999992000052512004+38480+042300FM-12+166599999V0202001N002112200019N0300001N1+02401+00161999999ADDAA199000091GA1031+012009089GF103991031021012501001001MA1999999082901MD1810101+9999ME1314469REMSYN082AAXX  25124 17205 32680 32004 10240 20016 38290 48446 58010 83200 333 83840 92418;EQDQ01  00002PRCP99
0162172050999992000052515004+38480+042300FM-12+166599999V0202001N003112200019N0300001N1+02121-00121999999ADDGA1001+999999999GF100991001001999999001001MA1999999082901MD1410001+9999ME1314489REMSYN070AAXX  25154 17205 42980 02006 10212 21012 38290 48448 54000 333 10029;
0211172050999992000052518004+38480+042300FM-12+166599999V0202001N001512200019N0300001N1+01701-00411999999ADDAA199000091GA1001+999999999GF100991001001999999001001KA1120M+02501MA1999999082901MD1410001+9999ME1314519REMSYN076AAXX  25184 17205 32980 02003 10170 21041 38290 48451 54000 333 10250 92418;EQDQ01  00002PRCP99
0162172050999992000052521004+38480+042300FM-12+166599999V0209999C000012200019N0300001N1+01241+00301999999ADDGA1001+999999999GF100991001001999999001001MA1999999083001MD1110101+9999ME1314669REMSYN070AAXX  25214 17205 42980 00000 10124 20030 38300 48466 51010 333 10048;
0192172050999992000052600004+38480+042300FM-12+166599999V0209999C000012200019N0300001N1+01041+00271999999ADDAA199000091GA1001+999999999GF100991001001999999001001MA1999999083001MD1410001+9999ME1314679REMSYN070AAXX  26004 17205 32980 00000 10104 20027 38300 48467 54000 333 10048;EQDQ01  00002PRCP99
0162172050999992000052603004+38480+042300FM-12+166599999V0209999C000012200019N0300001N1+01001+00291999999ADDGA1001+999999999GF100991001001999999001001MA1999999083001MD1410001+9999ME1314679REMSYN070AAXX  26034 17205 42980 00000 10100 20029 38300 48467 54000 333 10055;
0247172050999992000052606004+38480+042300FM-12+166599999V0201601N001512200019N0300001N1+01821+00341999999ADDAA199000091GA1001+999999999GF100991001001999999001001IA1019IA2999+00509KA1120N+00901MA1999999083001MD1410001+9999ME1314619REMSYN094AAXX  26064 17205 32980 01603 10182 20034 38300 48461 54000 333 20090 30005 50481 55097 92418;EQDQ01  00002PRCP99
0174172050999992000052609004+38480+042300FM-12+166599999V0201601N001512200019N0300001N1+02001+00411999999ADDGA1041+012009089GF104991041021012501001001MA1999999083001MD1410001+9999ME1314609REMSYN082AAXX  26094 17205 42680 41603 10200 20041 38300 48460 54000 84200 333 84840 92418;
0204172050999992000052612004+38480+042300FM-12+166599999V0201601N002112200019N0300001N1+02101+00411999999ADDAA199000091GA1041+012009089GF104991041021012501001001MA1999999082901MD1610101+9999ME1314489REMSYN082AAXX  26124 17205 32680 41604 10210 20041 38290 48448 56010 84200 333 84840 92418;EQDQ01  00002PRCP99
0196172050999992000052615004+38480+042300FM-12+166599999V0202501N003610300019N0300001N1+01561+00101999999ADDGA1041+012009089GA2061+030009039GF106991041021012501051001MA1999999082901MD1410001+9999ME1314529REMSYN088AAXX  26154 17205 42680 62507 10156 20010 38290 48452 54000 84250 333 84840 86360 92428;
0260172050999992000052618004+38480+042300FM-12+166599999V0202201N001010300019N0300001N1+01241+00301999999ADDAA112001091AY181061AY221061GA1041+012009089GA2061+030009039GF106991041021012501051001KA1120M+02161MA1999999083001MD1210101+9999ME1314669MW1021REMSYN106AAXX  26184 17205 11680 62202 10124 20030 38300 48466 52010 60012 70282 84250 333 10216 84840 86360 92418;
0162172050999992000052621004+38480+042300FM-12+166599999V0209999C000012200019N0300001N1+01001+00641999999ADDGA1001+999999999GF100991001001999999001001MA1999999083001MD1410001+9999ME1314679REMSYN070AAXX  26214 17205 42980 00000 10100 20064 38300 48467 54000 333 10062;
0204172050999992000052700004+38480+042300FM-12+166599999V0209999C000012200019N0300001N1+00801+00621999999ADDAA199000091GA1021+012009089GF102991021011012501001001MA1999999083001MD1410001+9999ME1314699REMSYN082AAXX  27004 17205 32680 20000 10080 20062 38300 48469 54000 82100 333 82840 92418;EQDQ01  00002PRCP99
0162172050999992000052703004+38480+042300FM-12+166599999V0209999C000012200019N0300001N1+00701+00551999999ADDGA1001+999999999GF100991001001999999001001MA1999999082901MD1610101+9999ME1314599REMSYN070AAXX  27034 17205 42980 00000 10070 20055 38290 48459 56010 333 10078;
0246172050999992000052706004+38480+042300FM-12+166599999V0202501N001512200019N0300001N1+01401+00671999999ADDAA124001091GA1031+012009089GF103991031021012501001001IA1019IA2999+00509KA1120N+00601MA1999999083001MD1110101+9999ME1314649REMSYN112AAXX  27064 17205 32680 32503 10140 20067 38300 48464 51010 83200 333 20060 30005 50501 55087 70010 83840 92418;
0174172050999992000052709004+38480+042300FM-12+166599999V0202501N002112200019N0300001N1+01781+00171999999ADDGA1041+012009089GF104991041021012501001001MA1999999083001MD1410001+9999ME1314619REMSYN082AAXX  27094 17205 42680 42504 10178 20017 38300 48461 54000 84200 333 84840 92418;
0204172050999992000052712004+38480+042300FM-12+166599999V0202001N002112200019N0300001N1+01901+00281999999ADDAA199000091GA1041+012009089GF104991041021012501001001MA1999999082901MD1610101+9999ME1314499REMSYN082AAXX  27124 17205 32680 42004 10190 20028 38290 48449 56010 84200 333 84840 92418;EQDQ01  00002PRCP99
0174172050999992000052715004+38480+042300FM-12+166599999V0202501N002612200019N0300001N1+01861+00081999999ADDGA1021+012009089GF102991021011012501001001MA1999999082901MD1410001+9999ME1314519REMSYN082AAXX  27154 17205 42680 22505 10186 20008 38290 48451 54000 82100 333 82840 92418;
0223172050999992000052718004+38480+042300FM-12+166599999V0202501N002112200019N0300001N1+01441+00131999999ADDAA199000091GA1021+012009089GF102991021011012501001001KA1120M+02201MA1999999083101MD1210201+9999ME1314749REMSYN088AAXX  27184 17205 32680 22504 10144 20013 38310 48474 52020 82100 333 10220 82840 92418;EQDQ01  00002PRCP99
0162172050999992000052721004+38480+042300FM-12+166599999V0209999C000012200019N0300001N1+01041+00271999999ADDGA1001+999999999GF100991001001999999001001MA1999999083201MD1210101+9999ME1314879REMSYN070AAXX  27214 17205 42980 00000 10104 20027 38320 48487 52010 333 10093;
0192172050999992000052800004+38480+042300FM-12+166599999V0209999C000012200019N0300001N1+00801+00461999999ADDAA199000091GA1001+999999999GF100991001001999999001001MA1999999083201MD1110101+9999ME1314899REMSYN070AAXX  28004 17205 32980 00000 10080 20046 38320 48489 51010 333 10093;EQDQ01  00002PRCP99
0162172050999992000052803004+38480+042300FM-12+166599999V0209999C000012200019N0300001N1+01701+00551999999ADDGA1001+999999999GF100991001001999999001001MA1999999083201MD1410001+9999ME1314899REMSYN070AAXX  28034 17205 42980 00000 10170 20055 38320 48489 54000 333 10100;
0247172050999992000052806004+38480+042300FM-12+166599999V0201101N001512200019N0300001N1+01501+00321999999ADDAA199000091GA1001+999999999GF100991001001999999001001IA1019IA2999+00409KA1120N+00601MA1999999083301MD1210101+9999ME1314939REMSYN094AAXX  28064 17205 32980 01103 10150 20032 38330 48493 52010 333 20060 30004 50481 55098 92418;EQDQ01  00002PRCP99
0174172050999992000052809004+38480+042300FM-12+166599999V0200701N001512200019N0300001N1+01801+00921999999ADDGA1031+012009089GF103991031021012501001001MA1999999083301MD1410001+9999ME1314929REMSYN082AAXX  28094 17205 42680 30703 10180 20092 38330 48492 54000 83200 333 83840 92418;
0204172050999992000052812004+38480+042300FM-12+166599999V0200701N001512200019N0300001N1+01801+00741999999ADDAA199000091GA1031+012009089GF103991031021012501001001MA1999999083301MD1410001+9999ME1314929REMSYN082AAXX  28124 17205 32680 30703 10180 20074 38330 48492 54000 83200 333 83840 92418;EQDQ01  00002PRCP99
0174172050999992000052815004+38480+042300FM-12+166599999V0200401N001512200019N0300001N1+01761+00401999999ADDGA1031+012009089GF103991031021012501001001MA1999999083301MD1410001+9999ME1314929REMSYN082AAXX  28154 17205 42680 30403 10176 20040 38330 48492 54000 83200 333 83840 92418;
0223172050999992000052818004+38480+042300FM-12+166599999V0209999C000012200019N0300001N1+01501+00631999999ADDAA199000091GA1031+012009089GF103991031021012501001001KA1120M+01961MA1999999083301MD1410001+9999ME1314959REMSYN088AAXX  28184 17205 32680 30000 10150 20063 38330 48495 54000 83200 333 10196 83840 92418;EQDQ01  00002PRCP99
0162172050999992000052821004+38480+042300FM-12+166599999V0209999C000012200019N0300001N1+01241+00641999999ADDGA1001+999999999GF100991001001999999001001MA1999999083301MD1410001+9999ME1314969REMSYN070AAXX  28214 17205 42980 00000 10124 20064 38330 48496 54000 333 10098;
0192172050999992000052900004+38480+042300FM-12+166599999V0209999C000012200019N0300001N1+01041+00611999999ADDAA199000091GA1001+999999999GF100991001001999999001001MA1999999083301MD1410001+9999ME1314979REMSYN070AAXX  29004 17205 32980 00000 10104 20061 38330 48497 54000 333 10106;EQDQ01  00002PRCP99
0162172050999992000052903004+38480+042300FM-12+166599999V0209999C000012200019N0300001N1+00961+00791999999ADDGA1001+999999999GF100991001001999999001001MA1999999083301MD1410001+9999ME1314979REMSYN070AAXX  29034 17205 42980 00000 10096 20079 38330 48497 54000 333 10106;
0259172050999992000052906004+38480+042300FM-12+166599999V0200701N001012200019N0300001N1+01761+00911999999ADDAA199000091GA1021+012009089GF102991021011012501001001IA1019IA2999+00709KA1120N+00861MA1999999083401MD1210101+9999ME1315039REMSYN106AAXX  29064 17205 32680 20702 10176 20091 38340 48503 52010 82100 333 20086 30007 50481 55105 82840 92418;EQDQ01  00002PRCP99
0174172050999992000052909004+38480+042300FM-12+166599999V0200701N001512200019N0300001N1+01961+00921999999ADDGA1041+012009089GF104991041021012501001001MA1999999083401MD1410001+9999ME1315019REMSYN082AAXX  29094 17205 42680 40703 10196 20092 38340 48501 54000 84200 333 84840 92418;
0204172050999992000052912004+38480+042300FM-12+166599999V0200701N001512200019N0300001N1+02001+00921999999ADDAA199000091GA1041+012009089GF104991041021012501001001MA1999999083301MD1810101+9999ME1314919REMSYN082AAXX  29124 17205 32680 40703 10200 20092 38330 48491 58010 84200 333 84840 92418;EQDQ01  00002PRCP99
0162172050999992000052915004+38480+042300FM-12+166599999V0202001N001512200019N0300001N1+02201+00061999999ADDGA1001+999999999GF100991001001999999001001MA1999999083201MD1810101+9999ME1314799REMSYN070AAXX  29154 17205 42980 02003 10220 20006 38320 48479 58010 333 10079;
0211172050999992000052918004+38480+042300FM-12+166599999V0209999C000012200019N0300001N1+01901-00031999999ADDAA199000091GA1001+999999999GF100991001001999999001001KA1120M+02441MA1999999083201MD1410001+9999ME1314819REMSYN076AAXX  29184 17205 32980 00000 10190 21003 38320 48481 54000 333 10244 92418;EQDQ01  00002PRCP99
0162172050999992000052921004+38480+042300FM-12+166599999V0209999C000012200019N0300001N1+01241+00301999999ADDGA1001+999999999GF100991001001999999001001MA1999999083301MD1110101+9999ME1314969REMSYN070AAXX  29214 17205 42980 00000 10124 20030 38330 48496 51010 333 10091;
0204172050999992000053000004+38480+042300FM-12+166599999V0209999C000012200019N0300001N1+01041+00311999999ADDAA199000091GA1041+012009089GF104991041021012501001001MA1999999083201MD1610101+9999ME1314879REMSYN082AAXX  30004 17205 32680 40000 10104 20031 38320 48487 56010 84200 333 84840 92418;EQDQ01  00002PRCP99
0174172050999992000053003004+38480+042300FM-12+166599999V0209999C000012200019N0300001N1+01041+00611999999ADDGA1041+012009089GF104991041021012501001001MA1999999083201MD1410001+9999ME1314879REMSYN082AAXX  30034 17205 42680 40000 10104 20061 38320 48487 54000 84200 333 84840 92418;
0263172050999992000053006004+38480+042300FM-12+166599999V0200401N001012200019N0300001N1+00781+99999999999ADDAA199000091GA1001+999999999GF100991001001999999001001IA1019IA2999+00809KA1120N+99999MA1999999083301MD1210101+9999ME1314929REMSYN094AAXX  30064 17205 32980 00402 10078 20089 38330 48492 52010 333 20090 30008 50641 55096 92418;EQDQ01  00002PRCP99Q02 +00902ATMN  
0174172050999992000053009004+38480+042300FM-12+166599999V0200701N002112200019N0300001N1+02102+01281999999ADDGA1031+012009089GF103991031021012501001001MA1999999083301MD1410001+9999ME1314919REMSYN082AAXX  30094 17205 42680 30704 10210 20128 38330 48491 54000 83200 333 83840 92418;
0204172050999992000053012004+38480+042300FM-12+166599999V0200701N002112200019N0300001N1+02061+01011999999ADDAA199000091GA1031+012009089GF103991031021012501001001MA1999999083201MD1610101+9999ME1314819REMSYN082AAXX  30124 17205 32680 30704 10206 20101 38320 48481 56010 83200 333 83840 92418;EQDQ01  00002PRCP99
0174172050999992000053015004+38480+042300FM-12+166599999V0202001N002112200019N0300001N1+02281+00341999999ADDGA1031+012009089GF103991031021012501001001MA1999999083101MD1610101+9999ME1314699REMSYN082AAXX  30154 17205 42680 32004 10228 20034 38310 48469 56010 83200 333 83840 92418;
0211172050999992000053018004+38480+042300FM-12+166599999V0202701N001012200019N0300001N1+01901+00061999999ADDAA199000091GA1001+999999999GF100991001001999999001001KA1120M+02501MA1999999083101MD1410001+9999ME1314709REMSYN076AAXX  30184 17205 32980 02702 10190 20006 38310 48470 54000 333 10250 92418;EQDQ01  00002PRCP99
0162172050999992000053021004+38480+042300FM-12+166599999V0200201N001012200019N0300001N1+01441+00401999999ADDGA1001+999999999GF100991001001999999001001MA1999999083101MD1410001+9999ME1314749REMSYN070AAXX  30214 17205 42980 00202 10144 20040 38310 48474 54000 333 10053;
0192172050999992000053100004+38480+042300FM-12+166599999V0209999C000012200019N0300001N1+01201+00671999999ADDAA199000091GA1001+999999999GF100991001001999999001001MA1999999083101MD1410001+9999ME1314769REMSYN070AAXX  31004 17205 32980 00000 10120 20067 38310 48476 54000 333 10067;EQDQ01  00002PRCP99
0162172050999992000053103004+38480+042300FM-12+166599999V0209999C000012200019N0300001N1+01161+00501999999ADDGA1001+999999999GF100991001001999999001001MA1999999083101MD1410001+9999ME1314769REMSYN070AAXX  31034 17205 42980 00000 10116 20050 38310 48476 54000 333 10060;
0302172050999992000053106004+38480+042300FM-12+166599999V0202001N001010270019N0200001N1+01481+01031999999ADDAA112000591AY181061AY211061GA1041+010509089GA2061+027009039GF106991041021012501051001IA1019IA2999+00909KA1120N+01001MA1999999083301MD1310201+9999ME1314939MW1251REMSYN130AAXX  31064 17205 11670 62002 10148 20103 38330 48493 53020 69952 72581 84250 333 20100 30009 50641 55101 70005 84835 86359 92418;
0174172050999992000053109004+38480+042300FM-12+166599999V0202501N001510120019N0300001N1+02101+00881999999ADDGA1051+012009089GF105991051021012501001001MA1999999083101MD1710201+9999ME1314699REMSYN082AAXX  31094 17205 42680 52503 10210 20088 38310 48469 57020 85200 333 85840 92418;
0263172050999992000053112004+38480+042300FM-12+166599999V0202501N002110090019N0100001N1+01341+00941999999ADDAA106002091AY191061AY281061GA1031+006009099GA2051+009009089GA3071+024009039GF107991061031008001051001MA1999999083201MD1110101+9999ME1314859MW1951REMSYN106AAXX  31124 17205 11560 72504 10134 20094 38320 48485 51010 60021 79598 86350 333 83920 85830 87358 92426;
0202172050999992000053115004+38480+042300FM-12+166599999V0202001N001512200019N0300001N1+01941+00561999999ADDAY191031AY281031GA1041+012009089GF104991041021012501001001MA1999999083001MD1710201+9999ME1314609MW1011REMSYN088AAXX  31154 17205 41680 42003 10194 20056 38300 48460 57020 70198 84200 333 84840 92418;
0260172050999992000053118004+38480+042300FM-12+166599999V0202501N003110240019N0150001N1+01341+00761999999ADDAA112004191AY191061AY281061GA1041+012009089GA2061+024009039GF106991041021012501051001KA1120M+02301MA1999999083101MD1210101+9999ME1314749MW1251REMSYN106AAXX  31184 17205 11665 62506 10134 20076 38310 48474 52010 60042 72598 84250 333 10230 84840 86358 92426;
0202172050999992000053121004+38480+042300FM-12+166599999V0209999C000012200019N0200001N1+01041+00971999999ADDAY191031AY281031GA1021+012009089GF102991021011012501001001MA1999999083301MD1210201+9999ME1314979MW1251REMSYN088AAXX  31214 17205 41670 20000 10104 20097 38330 48497 52020 72598 82100 333 82840 92417;
0207172050999992000060100004+38480+042300FM-12+166599999V0209999C000012200019N0200001N1+01001+00831999999ADDAA106002091AY181061AY221061GA1001+999999999GF100991001001999999001001MA1999999083301MD1410001+9999ME1314979MW1011REMSYN082AAXX  01004 17205 11970 00000 10100 20083 38330 48497 54000 60021 70182 333 10120;
0196172050999992000060103004+38480+042300FM-12+166599999V0209999C000010300019N0300001N1+00861+00751999999ADDGA1041+012009089GA2061+030009039GF106991041021012501051001MA1999999083301MD1410001+9999ME1314989REMSYN088AAXX  01034 17205 42680 60000 10086 20075 38330 48498 54000 84250 333 84840 86360 92418;
0252172050999992000060106004+38480+042300FM-12+166599999V0200901N001512200019N0300001N1+01501+00831999999ADDAA112002091GA1031+012009089GF103991031021012501001001IA1099IA2999+00709KA1120N+00761MA1999999083301MD1410001+9999ME1314939REMSYN118AAXX  01064 17205 12680 30903 10150 20083 38330 48493 54000 60022 83200 333 20076 31007 50121 55063 70055 83840 92418;
0174172050999992000060109004+38480+042300FM-12+166599999V0200701N001512200019N0300001N1+01801+01001999999ADDGA1031+012009089GF103991031021012501001001MA1999999083301MD1410001+9999ME1314929REMSYN082AAXX  01094 17205 42680 30703 10180 20100 38330 48492 54000 83200 333 83840 92418;
0204172050999992000060112004+38480+042300FM-12+166599999V0200701N001512200019N0300001N1+02001+01051999999ADDAA199000091GA1031+012009089GF103991031021012501001001MA1999999083301MD1410001+9999ME1314919REMSYN082AAXX  01124 17205 32680 30703 10200 20105 38330 48491 54000 83200 333 83840 92418;EQDQ01  00002PRCP99
0174172050999992000060115004+38480+042300FM-12+166599999V0200701N001512200019N0300001N1+01861+00541999999ADDGA1031+012009089GF103991031021012501001001MA1999999083301MD1410001+9999ME1314929REMSYN082AAXX  01154 17205 42680 30703 10186 20054 38330 48492 54000 83200 333 83840 92418;
0211172050999992000060118004+38480+042300FM-12+166599999V0209999C000012200019N0300001N1+01601+00851999999ADDAA199000091GA1001+999999999GF100991001001999999001001KA1120M+02101MA1999999083201MD1610101+9999ME1314839REMSYN076AAXX  01184 17205 32980 00000 10160 20085 38320 48483 56010 333 10210 92418;EQDQ01  00002PRCP99
0162172050999992000060121004+38480+042300FM-12+166599999V0209999C000012200019N0300001N1+01601+00851999999ADDGA1001+999999999GF100991001001999999001001MA1999999083301MD1410001+9999ME1314939REMSYN070AAXX  01214 17205 42980 00000 10160 20085 38330 48493 54000 333 10084;
0192172050999992000060200004+38480+042300FM-12+166599999V0209999C000012200019N0300001N1+01101+00751999999ADDAA199000091GA1001+999999999GF100991001001999999001001MA1999999083241MD1610061+9999ME1314879REMSYN070AAXX  02004 17205 32980 00000 10110 20075 38324 48487 56006 333 10084;EQDQ01  00002PRCP99
0162172050999992000060203004+38480+042300FM-12+166599999V0209999C000012200019N0300001N1+01001+00831999999ADDGA1001+999999999GF100991001001999999001001MA1999999083241MD1410001+9999ME1314879REMSYN070AAXX  02034 17205 42980 00000 10100 20083 38324 48487 54000 333 10098;
0247172050999992000060206004+38480+042300FM-12+166599999V0200701N002112200019N0300001N1+01801+01031999999ADDAA199000091GA1001+999999999GF100991001001999999001001IA1019IA2999+00809KA1120N+00901MA1999999083301MD1110061+9999ME1314929REMSYN094AAXX  02064 17205 32980 00704 10180 20103 38330 48492 51006 333 20090 30008 50481 55107 92418;EQDQ01  00002PRCP99
0174172050999992000060209004+38480+042300FM-12+166599999V0200701N002112200019N0300001N1+02041+01171999999ADDGA1031+012009089GF103991031021012501001001MA1999999083301MD1410001+9999ME1314919REMSYN082AAXX  02094 17205 42680 30704 10204 20117 38330 48491 54000 83200 333 83840 92418;
0204172050999992000060212004+38480+042300FM-12+166599999V0200701N002112200019N0300001N1+02201+01051999999ADDAA199000091GA1031+012009089GF103991031021012501001001MA1999999083201MD1610101+9999ME1314799REMSYN082AAXX  02124 17205 32680 30704 10220 20105 38320 48479 56010 83200 333 83840 92418;EQDQ01  00002PRCP99
0162172050999992000060215004+38480+042300FM-12+166599999V0209999C000012200019N0300001N1+02101+00881999999ADDGA1001+999999999GF100991001001999999001001MA1999999083201MD1410001+9999ME1314799REMSYN070AAXX  02154 17205 42980 00000 10210 20088 38320 48479 54000 333 10079;
0211172050999992000060218004+38480+042300FM-12+166599999V0209999C000012200019N0300001N1+01741+00851999999ADDAA199000091GA1001+999999999GF100991001001999999001001KA1120M+02401MA1999999083201MD1410001+9999ME1314829REMSYN076AAXX  02184 17205 32980 00000 10174 20085 38320 48482 54000 333 10240 92418;EQDQ01  00002PRCP99
0162172050999992000060221004+38480+042300FM-12+166599999V0209999C000012200019N0300001N1+01321+00771999999ADDGA1001+999999999GF100991001001999999001001MA1999999083301MD1210101+9999ME1314959REMSYN070AAXX  02214 17205 42980 00000 10132 20077 38330 48495 52010 333 10084;
0192172050999992000060300004+38480+042300FM-12+166599999V0209999C000012200019N0300001N1+01101+00791999999ADDAA199000091GA1001+999999999GF100991001001999999001001MA1999999083261MD1710041+9999ME1314969REMSYN070AAXX  03004 17205 32980 00000 10110 20079 38326 48496 57004 333 10080;EQDQ01  00002PRCP99
0162172050999992000060303004+38480+042300FM-12+166599999V0209999C000012200019N0300001N1+01101+00861999999ADDGA1001+999999999GF100991001001999999001001MA1999999083261MD1410001+9999ME1314969REMSYN070AAXX  03034 17205 42980 00000 10110 20086 38326 48496 54000 333 10087;
0247172050999992000060306004+38480+042300FM-12+166599999V0200701N001012200019N0300001N1+01921+01321999999ADDAA199000091GA1001+999999999GF100991001001999999001001IA1019IA2999+00809KA1120N+00901MA1999999083261MD1410001+9999ME1314929REMSYN094AAXX  03064 17205 32980 00702 10192 20132 38326 48492 54000 333 20090 30008 50461 55106 92418;EQDQ01  00002PRCP99
0196172050999992000060309004+38480+042300FM-12+166599999V0200701N001510300019N0300001N1+02101+01171999999ADDGA1041+012009089GA2061+030009039GF106991041021012501051001MA1999999083201MD1610061+9999ME1314799REMSYN088AAXX  03094 17205 42680 60703 10210 20117 38320 48479 56006 84250 333 84840 86360 92418;
0174172050999992000060315004+38480+042300FM-12+166599999V0209999C000012200019N0300001N1+02201+00811999999ADDGA1031+012009089GF103991031021012501001001MA1999999083101MD1710101+9999ME1314699REMSYN082AAXX  03154 17205 42680 30000 10220 20081 38310 48469 57010 83200 333 83840 92418;
0223172050999992000060318004+38480+042300FM-12+166599999V0209999C000012200019N0300001N1+01861+00671999999ADDAA199000091GA1041+012009089GF104991041021012501001001KA1120M+02601MA1999999083101MD1410001+9999ME1314729REMSYN088AAXX  03184 17205 32680 40000 10186 20067 38310 48472 54000 84200 333 10260 84840 92418;EQDQ01  00002PRCP99
0162172050999992000060321004+38480+042300FM-12+166599999V0209999C000012200019N0300001N1+01501+00921999999ADDGA1001+999999999GF100991001001999999001001MA1999999083101MD1410001+9999ME1314739REMSYN070AAXX  03214 17205 42980 00000 10150 20092 38310 48473 54000 333 10053;
0192172050999992000060400004+38480+042300FM-12+166599999V0209999C000012200019N0300001N1+01441+01051999999ADDAA199000091GA1001+999999999GF100991001001999999001001MA1999999083001MD1610101+9999ME1314649REMSYN070AAXX  04004 17205 32980 00000 10144 20105 38300 48464 56010 333 10034;EQDQ01  00002PRCP99
0162172050999992000060403004+38480+042300FM-12+166599999V0209999C000012200019N0300001N1+01301+01061999999ADDGA1001+999999999GF100991001001999999001001MA1999999082901MD1710101+9999ME1314549REMSYN070AAXX  04034 17205 42980 00000 10130 20106 38290 48454 57010 333 10029;
0259172050999992000060406004+38480+042300FM-12+166599999V0202001N001512200019N0300001N1+02101+00311999999ADDAA199000091GA1031+012009089GF103991031021012501001001IA1019IA2999+01009KA1120N+01201MA1999999082901MD1410001+9999ME1314489REMSYN106AAXX  04064 17205 32680 32003 10210 20031 38290 48448 54000 83200 333 20120 30010 50321 55082 83840 92418;EQDQ01  00002PRCP99
0162172050999992000060409004+38480+042300FM-12+166599999V0202001N001512200019N0300001N1+02401+00271999999ADDGA1001+999999999GF100991001001999999001001MA1999999082901MD1410001+9999ME1314469REMSYN070AAXX  04094 17205 42980 02003 10240 20027 38290 48446 54000 333 10016;
0192172050999992000060412004+38480+042300FM-12+166599999V0202001N002612200019N0300001N1+02501+00171999999ADDAA199000091GA1001+999999999GF100991001001999999001001MA1999999082901MD1410001+9999ME1314469REMSYN070AAXX  04124 17205 32980 02005 10250 20017 38290 48446 54000 333 10022;EQDQ01  00002PRCP99
0162172050999992000060415004+38480+042300FM-12+166599999V0202001N002612200019N0300001N1+02201-00461999999ADDGA1001+999999999GF100991001001999999001001MA1999999082901MD1410001+9999ME1314489REMSYN070AAXX  04154 17205 42980 02005 10220 21046 38290 48448 54000 333 10029;
0211172050999992000060418004+38480+042300FM-12+166599999V0202701N001512200019N0300001N1+01801-00211999999ADDAA199000091GA1001+999999999GF100991001001999999001001KA1120M+02601MA1999999083001MD1210101+9999ME1314619REMSYN076AAXX  04184 17205 32980 02703 10180 21021 38300 48461 52010 333 10260 92418;EQDQ01  00002PRCP99
0162172050999992000060421004+38480+042300FM-12+166599999V0209999C000012200019N0300001N1+01541+00121999999ADDGA1001+999999999GF100991001001999999001001MA1999999083101MD1110101+9999ME1314739REMSYN070AAXX  04214 17205 42980 00000 10154 20012 38310 48473 51010 333 10040;
0192172050999992000060500004+38480+042300FM-12+166599999V0209999C000012200019N0300001N1+01101+00521999999ADDAA199000091GA1001+999999999GF100991001001999999001001MA1999999083101MD1410001+9999ME1314769REMSYN070AAXX  05004 17205 32980 00000 10110 20052 38310 48476 54000 333 10053;EQDQ01  00002PRCP99
0162172050999992000060503004+38480+042300FM-12+166599999V0209999C000012200019N0300001N1+01041+00571999999ADDGA1001+999999999GF100991001001999999001001MA1999999083101MD1410001+9999ME1314769REMSYN070AAXX  05034 17205 42980 00000 10104 20057 38310 48476 54000 333 10067;
0247172050999992000060506004+38480+042300FM-12+166599999V0200401N001012200019N0300001N1+01901+00721999999ADDAA199000091GA1001+999999999GF100991001001999999001001IA1019IA2999+01409KA1120N+01201MA1999999083101MD1410001+9999ME1314709REMSYN094AAXX  05064 17205 32980 00402 10190 20072 38310 48470 54000 333 20120 30014 50801 55099 92418;EQDQ01  00002PRCP99
0174172050999992000060509004+38480+042300FM-12+166599999V0200701N001512200019N0300001N1+02101+00981999999ADDGA1021+012009089GF102991021011012501001001MA1999999083101MD1410001+9999ME1314699REMSYN082AAXX  05094 17205 42680 20703 10210 20098 38310 48469 54000 82100 333 82840 92418;
0204172050999992000060512004+38480+042300FM-12+166599999V0202001N001512200019N0300001N1+02361+00661999999ADDAA199000091GA1021+012009089GF102991021011012501001001MA1999999083001MD1610101+9999ME1314579REMSYN082AAXX  05124 17205 32680 22003 10236 20066 38300 48457 56010 82100 333 82840 92418;EQDQ01  00002PRCP99
0174172050999992000060515004+38480+042300FM-12+166599999V0202001N001512200019N0300001N1+02181+00491999999ADDGA1021+012009089GF102991021011012501001001MA1999999083001MD1410001+9999ME1314589REMSYN082AAXX  05154 17205 42680 22003 10218 20049 38300 48458 54000 82100 333 82840 92418;
0211172050999992000060518004+38480+042300FM-12+166599999V0202701N001012200019N0300001N1+01841+00461999999ADDAA199000091GA1001+999999999GF100991001001999999001001KA1120M+02501MA1999999083001MD1410001+9999ME1314619REMSYN076AAXX  05184 17205 32980 02702 10184 20046 38300 48461 54000 333 10250 92418;EQDQ01  00002PRCP99
0162172050999992000060521004+38480+042300FM-12+166599999V0202001N001512200019N0300001N1+01601+00651999999ADDGA1001+999999999GF100991001001999999001001MA1999999083101MD1110101+9999ME1314739REMSYN070AAXX  05214 17205 42980 02003 10160 20065 38310 48473 51010 333 10047;
0204172050999992000060600004+38480+042300FM-12+166599999V0209999C000012200019N0300001N1+01201+00241999999ADDAA199000091GA1031+012009089GF103991031021012501001001MA1999999083101MD1410001+9999ME1314769REMSYN082AAXX  06004 17205 32680 30000 10120 20024 38310 48476 54000 83200 333 83840 92418;EQDQ01  00002PRCP99
0174172050999992000060603004+38480+042300FM-12+166599999V0209999C000012200019N0300001N1+01301+00591999999ADDGA1031+012009089GF103991031021012501001001MA1999999083101MD1410001+9999ME1314749REMSYN082AAXX  06034 17205 42680 30000 10130 20059 38310 48474 54000 83200 333 83840 92418;
0247172050999992000060606004+38480+042300FM-12+166599999V0200701N001012200019N0300001N1+01901+00811999999ADDAA199000091GA1001+999999999GF100991001001999999001001IA1019IA2999+01009KA1120N+01101MA1999999083101MD1410001+9999ME1314719REMSYN094AAXX  06064 17205 32980 00702 10190 20081 38310 48471 54000 333 20110 30010 50721 55107 92418;EQDQ01  00002PRCP99
0174172050999992000060609004+38480+042300FM-12+166599999V0200701N001512200019N0300001N1+02101+01171999999ADDGA1031+012009089GF103991031011012501001001MA1999999083101MD1410001+9999ME1314699REMSYN082AAXX  06094 17205 42680 30703 10210 20117 38310 48469 54000 83100 333 83840 92418;
0204172050999992000060612004+38480+042300FM-12+166599999V0200701N001512200019N0300001N1+02301+00931999999ADDAA199000091GA1031+012009089GF103991031011012501001001MA1999999083101MD1410001+9999ME1314679REMSYN082AAXX  06124 17205 32680 30703 10230 20093 38310 48467 54000 83100 333 83840 92418;EQDQ01  00002PRCP99
0119172050999992000060615004+38480+042300FM-12+166599999V0209999C000012200019N0300001N1+02121+99999999999ADDGF103991999999012501999999REMSYN081AAXX  06154 17205 42680 30000 10212 2004 38300 48458 56010 83100 333 83840 92418;
0211172050999992000060618004+38480+042300FM-12+166599999V0209999C000012200019N0300001N1+01801+00901999999ADDAA199000091GA1001+999999999GF100991001001999999001001KA1120M+02401MA1999999083001MD1410001+9999ME1314619REMSYN076AAXX  06184 17205 32980 00000 10180 20090 38300 48461 54000 333 10240 92418;EQDQ01  00002PRCP99
0162172050999992000060621004+38480+042300FM-12+166599999V0209999C000012200019N0300001N1+01461+00971999999ADDGA1001+999999999GF100991001001999999001001MA1999999083001MD1410001+9999ME1314649REMSYN070AAXX  06214 17205 42980 00000 10146 20097 38300 48464 54000 333 10041;
0192172050999992000060700004+38480+042300FM-12+166599999V0209999C000012200019N0300001N1+01301+00791999999ADDAA199000091GA1001+999999999GF100991001001999999001001MA1999999083101MD1110101+9999ME1314749REMSYN070AAXX  07004 17205 32980 00000 10130 20079 38310 48474 51010 333 10053;EQDQ01  00002PRCP99
0162172050999992000060703004+38480+042300FM-12+166599999V0209999C000012200019N0300001N1+01261+00821999999ADDGA1001+999999999GF100991001001999999001001MA1999999083101MD1410001+9999ME1314769REMSYN070AAXX  07034 17205 42980 00000 10126 20082 38310 48476 54000 333 10060;
0247172050999992000060706004+38480+042300FM-12+166599999V0200701N001512200019N0300001N1+02101+01351999999ADDAA199000091GA1001+999999999GF100991001001999999001001IA1019IA2999+01009KA1120N+01161MA1999999083101MD1410001+9999ME1314699REMSYN094AAXX  07064 17205 32980 00703 10210 20135 38310 48469 54000 333 20116 30010 50481 55103 92418;EQDQ01  00002PRCP99
0162172050999992000060709004+38480+042300FM-12+166599999V0200701N001512200019N0300001N1+02201+01111999999ADDGA1001+999999999GF100991001001999999001001MA1999999083101MD1410001+9999ME1314699REMSYN070AAXX  07094 17205 42980 00703 10220 20111 38310 48469 54000 333 10053;
0192172050999992000060712004+38480+042300FM-12+166599999V0200201N001512200019N0300001N1+02401+01061999999ADDAA199000091GA1001+999999999GF100991001001999999001001MA1999999083001MD1610101+9999ME1314579REMSYN070AAXX  07124 17205 32980 00203 10240 20106 38300 48457 56010 333 10034;EQDQ01  00002PRCP99
0211172050999992000060718004+38480+042300FM-12+166599999V0202001N001512200019N0300001N1+02201+00031999999ADDAA199000091GA1001+999999999GF100991001001999999001001KA1120M+02761MA1999999082901MD1610101+9999ME1314489REMSYN076AAXX  07184 17205 32980 02003 10220 20003 38290 48448 56010 333 10276 92418;EQDQ01  00002PRCP99
0162172050999992000060721004+38480+042300FM-12+166599999V0209999C000012200019N0300001N1+01701+00361999999ADDGA1001+999999999GF100991001001999999001001MA1999999083001MD1210101+9999ME1314619REMSYN070AAXX  07214 17205 42980 00000 10170 20036 38300 48461 52010 333 10028;
0192172050999992000060800004+38480+042300FM-12+166599999V0209999C000012200019N0300001N1+01301+00591999999ADDAA199000091GA1001+999999999GF100991001001999999001001MA1999999083001MD1410001+9999ME1314649REMSYN070AAXX  08004 17205 32980 00000 10130 20059 38300 48464 54000 333 10041;EQDQ01  00002PRCP99
0162172050999992000060803004+38480+042300FM-12+166599999V0209999C000012200019N0300001N1+01301+00591999999ADDGA1001+999999999GF100991001001999999001001MA1999999083001MD1410001+9999ME1314649REMSYN070AAXX  08034 17205 42980 00000 10130 20059 38300 48464 54000 333 10041;
0247172050999992000060806004+38480+042300FM-12+166599999V0200401N001012200019N0300001N1+02001+00811999999ADDAA199000091GA1001+999999999GF100991001001999999001001IA1019IA2999+00909KA1120N+01041MA1999999083101MD1210101+9999ME1314709REMSYN094AAXX  08064 17205 32980 00402 10200 20081 38310 48470 52010 333 20104 30009 50801 55103 92418;EQDQ01  00002PRCP99
0162172050999992000060809004+38480+042300FM-12+166599999V0200701N001512200019N0300001N1+02401+01071999999ADDGA1001+999999999GF100991001001999999001001MA1999999083101MD1410001+9999ME1314679REMSYN070AAXX  08094 17205 42980 00703 10240 20107 38310 48467 54000 333 10033;
0192172050999992000060812004+38480+042300FM-12+166599999V0200701N001512200019N0300001N1+02501+00801999999ADDAA199000091GA1001+999999999GF100991001001999999001001MA1999999083101MD1410001+9999ME1314669REMSYN070AAXX  08124 17205 32980 00703 10250 20080 38310 48466 54000 333 10046;EQDQ01  00002PRCP99
0162172050999992000060815004+38480+042300FM-12+166599999V0202501N001512200019N0300001N1+02461+00481999999ADDGA1001+999999999GF100991001001999999001001MA1999999083001MD1610101+9999ME1314579REMSYN070AAXX  08154 17205 42980 02503 10246 20048 38300 48457 56010 333 10014;
0211172050999992000060818004+38480+042300FM-12+166599999V0202501N001512200019N0300001N1+02221+00451999999ADDAA199000091GA1001+999999999GF100991001001999999001001KA1120M+02781MA1999999083101MD1110101+9999ME1314699REMSYN076AAXX  08184 17205 32980 02503 10222 20045 38310 48469 51010 333 10278 92418;EQDQ01  00002PRCP99
0162172050999992000060821004+38480+042300FM-12+166599999V0209999C000012200019N0300001N1+01621+00531999999ADDGA1001+999999999GF100991001001999999001001MA1999999083201MD1210101+9999ME1314839REMSYN070AAXX  08214 17205 42980 00000 10162 20053 38320 48483 52010 333 10045;
0192172050999992000060900004+38480+042300FM-12+166599999V0209999C000012200019N0300001N1+01401+00861999999ADDAA199000091GA1001+999999999GF100991001001999999001001MA1999999083201MD1410001+9999ME1314859REMSYN070AAXX  09004 17205 32980 00000 10140 20086 38320 48485 54000 333 10058;EQDQ01  00002PRCP99
0174172050999992000060903004+38480+042300FM-12+166599999V0202501N001512200019N0300001N1+01501+00791999999ADDGA1031+012009089GF103991031021012501001001MA1999999083301MD1210101+9999ME1314939REMSYN082AAXX  09034 17205 42680 32503 10150 20079 38330 48493 52010 83200 333 83840 92418;
0259172050999992000060906004+38480+042300FM-12+166599999V0200701N001012200019N0300001N1+01901+00811999999ADDAA199000091GA1031+012009089GF103991031021012501001001IA1019IA2999+01109KA1120N+01201MA1999999083301MD1410001+9999ME1314929REMSYN106AAXX  09064 17205 32680 30702 10190 20081 38330 48492 54000 83200 333 20120 30011 50881 55107 83840 92418;EQDQ01  00002PRCP99
0174172050999992000060909004+38480+042300FM-12+166599999V0200701N001512200019N0300001N1+02401+01171999999ADDGA1031+012009089GF103991031011012501001001MA1999999083301MD1410001+9999ME1314899REMSYN082AAXX  09094 17205 42680 30703 10240 20117 38330 48489 54000 83100 333 83840 92418;
0204172050999992000060912004+38480+042300FM-12+166599999V0200701N001010120019N0300001N1+02221+01001999999ADDAA199000091GA1051+012009089GF105991051021012501001001MA1999999083301MD1410001+9999ME1314909REMSYN082AAXX  09124 17205 32680 50702 10222 20100 38330 48490 54000 85200 333 85840 92418;EQDQ01  00002PRCP99
0196172050999992000060915004+38480+042300FM-12+166599999V0200201N002110300019N0300001N1+02161+00941999999ADDGA1041+012009089GA2061+030009039GF106991041021012501051001MA1999999083301MD1410001+9999ME1314909REMSYN088AAXX  09154 17205 42680 60204 10216 20094 38330 48490 54000 84250 333 84840 86360 92428;
0162172050999992000060921004+38480+042300FM-12+166599999V0203401N002112200019N0300001N1+01701+01061999999ADDGA1001+999999999GF100991001001999999001001MA1999999083401MD1410001+9999ME1315039REMSYN070AAXX  09214 17205 42980 03404 10170 20106 38340 48503 54000 333 10069;
0192172050999992000061000004+38480+042300FM-12+166599999V0200201N001512200019N0300001N1+01521+00611999999ADDAA199000091GA1001+999999999GF100991001001999999001001MA1999999083401MD1410001+9999ME1315049REMSYN070AAXX  10004 17205 32980 00203 10152 20061 38340 48504 54000 333 10083;EQDQ01  00002PRCP99
0162172050999992000061003004+38480+042300FM-12+166599999V0209999C000012200019N0300001N1+01361+00851999999ADDGA1001+999999999GF100991001001999999001001MA1999999083401MD1410001+9999ME1315059REMSYN070AAXX  10034 17205 42980 00000 10136 20085 38340 48505 54000 333 10090;
0247172050999992000061006004+38480+042300FM-12+166599999V0200701N001512200019N0300001N1+01901+00811999999ADDAA199000091GA1001+999999999GF100991001001999999001001IA1019IA2999+01209KA1120N+01261MA1999999083401MD1410001+9999ME1315019REMSYN094AAXX  10064 17205 32980 00703 10190 20081 38340 48501 54000 333 20126 30012 50401 55069 92418;EQDQ01  00002PRCP99
0162172050999992000061009004+38480+042300FM-12+166599999V0200701N001512200019N0300001N1+02161+01141999999ADDGA1001+999999999GF100991001001999999001001MA1999999083401MD1410001+9999ME1315009REMSYN070AAXX  10094 17205 42980 00703 10216 20114 38340 48500 54000 333 10083;
0192172050999992000061012004+38480+042300FM-12+166599999V0200701N001512200019N0300001N1+02401+01071999999ADDAA199000091GA1001+999999999GF100991001001999999001001MA1999999083301MD1610101+9999ME1314899REMSYN070AAXX  10124 17205 32980 00703 10240 20107 38330 48489 56010 333 10064;EQDQ01  00002PRCP99
0162172050999992000061015004+38480+042300FM-12+166599999V0200701N001012200019N0300001N1+02401+00801999999ADDGA1001+999999999GF100991001001999999001001MA1999999083301MD1410001+9999ME1314899REMSYN070AAXX  10154 17205 42980 00702 10240 20080 38330 48489 54000 333 10071;
0211172050999992000061018004+38480+042300FM-12+166599999V0203401N001512200019N0300001N1+02041+00701999999ADDAA199000091GA1001+999999999GF100991001001999999001001KA1120M+02641MA1999999083301MD1410001+9999ME1314919REMSYN076AAXX  10184 17205 32980 03403 10204 20070 38330 48491 54000 333 10264 92418;EQDQ01  00002PRCP99
0162172050999992000061021004+38480+042300FM-12+166599999V0209999C000012200019N0300001N1+01741+00851999999ADDGA1001+999999999GF100991001001999999001001MA1999999083301MD1410001+9999ME1314929REMSYN070AAXX  10214 17205 42980 00000 10174 20085 38330 48492 54000 333 10064;
0192172050999992000061100004+38480+042300FM-12+166599999V0209999C000012200019N0300001N1+01501+00791999999ADDAA199000091GA1001+999999999GF100991001001999999001001MA1999999083301MD1410001+9999ME1314939REMSYN070AAXX  11004 17205 32980 00000 10150 20079 38330 48493 54000 333 10064;EQDQ01  00002PRCP99
0162172050999992000061103004+38480+042300FM-12+166599999V0209999C000012200019N0300001N1+01361+00851999999ADDGA1001+999999999GF100991001001999999001001MA1999999083401MD1210101+9999ME1315059REMSYN070AAXX  11034 17205 42980 00000 10136 20085 38340 48505 52010 333 10083;
0247172050999992000061106004+38480+042300FM-12+166599999V0200701N001512200019N0300001N1+01961+00881999999ADDAA199000091GA1001+999999999GF100991001001999999001001IA1019IA2999+01109KA1120N+01261MA1999999083401MD1410001+9999ME1315019REMSYN094AAXX  11064 17205 32980 00703 10196 20088 38340 48501 54000 333 20126 30011 50801 55105 92418;EQDQ01  00002PRCP99
0162172050999992000061109004+38480+042300FM-12+166599999V0200701N002112200019N0300001N1+02221+01171999999ADDGA1001+999999999GF100991001001999999001001MA1999999083401MD1410001+9999ME1315009REMSYN070AAXX  11094 17205 42980 00704 10222 20117 38340 48500 54000 333 10076;
0192172050999992000061112004+38480+042300FM-12+166599999V0200701N001512200019N0300001N1+02361+01201999999ADDAA199000091GA1001+999999999GF100991001001999999001001MA1999999083301MD1710101+9999ME1314899REMSYN070AAXX  11124 17205 32980 00703 10236 20120 38330 48489 57010 333 10071;EQDQ01  00002PRCP99
0174172050999992000061115004+38480+042300FM-12+166599999V0200701N001012200019N0300001N1+02301+01041999999ADDGA1021+012009089GF102991021011012501001001MA1999999083201MD1710101+9999ME1314789REMSYN082AAXX  11154 17205 42680 20702 10230 20104 38320 48478 57010 82100 333 82840 92418;
0211172050999992000061118004+38480+042300FM-12+166599999V0201601N002612200019N0300001N1+01941+00211999999ADDAA199000091GA1001+999999999GF100991001001999999001001KA1120M+02501MA1999999083301MD1110101+9999ME1314919REMSYN076AAXX  11184 17205 32980 01605 10194 20021 38330 48491 51010 333 10250 92418;EQDQ01  00002PRCP99
0162172050999992000061121004+38480+042300FM-12+166599999V0200201N001512200019N0300001N1+01641+00001999999ADDGA1001+999999999GF100991001001999999001001MA1999999083401MD1210101+9999ME1315049REMSYN070AAXX  11214 17205 42980 00203 10164 20000 38340 48504 52010 333 10083;
0192172050999992000061200004+38480+042300FM-12+166599999V0200201N001512200019N0300001N1+01501-00051999999ADDAA199000091GA1001+999999999GF100991001001999999001001MA1999999083401MD1410001+9999ME1315049REMSYN070AAXX  12004 17205 32980 00203 10150 21005 38340 48504 54000 333 10083;EQDQ01  00002PRCP99
0162172050999992000061203004+38480+042300FM-12+166599999V0200201N001512200019N0300001N1+01301-00611999999ADDGA1001+999999999GF100991001001999999001001MA1999999083401MD1410001+9999ME1315059REMSYN070AAXX  12034 17205 42980 00203 10130 21061 38340 48505 54000 333 10096;
0247172050999992000061206004+38480+042300FM-12+166599999V0200701N002612200019N0300001N1+01661-00161999999ADDAA199000091GA1001+999999999GF100991001001999999001001IA1019IA2999+01109KA1120N+01201MA1999999083601MD1210201+9999ME1315239REMSYN094AAXX  12064 17205 32980 00705 10166 21016 38360 48523 52020 333 20120 30011 50801 55108 92428;EQDQ01  00002PRCP99
0162172050999992000061209004+38480+042300FM-12+166599999V0200201N003112200019N0300001N1+02001-00351999999ADDGA1001+999999999GF100991001001999999001001MA1999999083601MD1410001+9999ME1315229REMSYN070AAXX  12094 17205 42980 00206 10200 21035 38360 48522 54000 333 10114;
0192172050999992000061212004+38480+042300FM-12+166599999V0200201N002612200019N0300001N1+02101-00051999999ADDAA199000091GA1001+999999999GF100991001001999999001001MA1999999083601MD1410001+9999ME1315229REMSYN070AAXX  12124 17205 32980 00205 10210 21005 38360 48522 54000 333 10114;EQDQ01  00002PRCP99
0162172050999992000061215004+38480+042300FM-12+166599999V0200201N003112200019N0300001N1+01901-00041999999ADDGA1001+999999999GF100991001001999999001001MA1999999083601MD1410001+9999ME1315239REMSYN070AAXX  12154 17205 42980 00206 10190 21004 38360 48523 54000 333 10128;
0211172050999992000061218004+38480+042300FM-12+166599999V0209999C000012200019N0300001N1+01561-00031999999ADDAA199000091GA1001+999999999GF100991001001999999001001KA1120M+02101MA1999999083701MD1110101+9999ME1315349REMSYN076AAXX  12184 17205 32980 00000 10156 21003 38370 48534 51010 333 10210 92418;EQDQ01  00002PRCP99
0162172050999992000061221004+38480+042300FM-12+166599999V0200701N001512200019N0300001N1+01281+00151999999ADDGA1001+999999999GF100991001001999999001001MA1999999083801MD1110101+9999ME1315469REMSYN070AAXX  12214 17205 42980 00703 10128 20015 38380 48546 51010 333 10152;
0192172050999992000061300004+38480+042300FM-12+166599999V0200201N002112200019N0300001N1+01161-00081999999ADDAA199000091GA1001+999999999GF100991001001999999001001MA1999999083701MD1710101+9999ME1315369REMSYN070AAXX  13004 17205 32980 00204 10116 21008 38370 48536 57010 333 10140;EQDQ01  00002PRCP99
0162172050999992000061303004+38480+042300FM-12+166599999V0200201N001512200019N0300001N1+01101-00031999999ADDGA1001+999999999GF100991001001999999001001MA1999999083701MD1410001+9999ME1315369REMSYN070AAXX  13034 17205 42980 00203 10110 21003 38370 48536 54000 333 10147;
0247172050999992000061306004+38480+042300FM-12+166599999V0200201N003112200019N0300001N1+01501+00351999999ADDAA199000091GA1001+999999999GF100991001001999999001001IA1019IA2999+00909KA1120N+00981MA1999999083801MD1210101+9999ME1315449REMSYN094AAXX  13064 17205 32980 00206 10150 20035 38380 48544 52010 333 20098 30009 51041 55109 92428;EQDQ01  00002PRCP99
0162172050999992000061309004+38480+042300FM-12+166599999V0200701N004612200019N0300001N1+01701+00261999999ADDGA1001+999999999GF100991001001999999001001MA1999999083801MD1410001+9999ME1315449REMSYN070AAXX  13094 17205 42980 00709 10170 20026 38380 48544 54000 333 10159;
0192172050999992000061312004+38480+042300FM-12+166599999V0200701N002612200019N0300001N1+01901+00491999999ADDAA199000091GA1001+999999999GF100991001001999999001001MA1999999083701MD1610101+9999ME1315329REMSYN070AAXX  13124 17205 32980 00705 10190 20049 38370 48532 56010 333 10147;EQDQ01  00002PRCP99
0162172050999992000061315004+38480+042300FM-12+166599999V0200201N001512200019N0300001N1+02041+00361999999ADDGA1001+999999999GF100991001001999999001001MA1999999083701MD1710101+9999ME1315329REMSYN070AAXX  13154 17205 42980 00203 10204 20036 38370 48532 57010 333 10140;
0211172050999992000061318004+38480+042300FM-12+166599999V0203401N001012200019N0300001N1+01701+00191999999ADDAA199000091GA1001+999999999GF100991001001999999001001KA1120M+02101MA1999999083601MD1410001+9999ME1315339REMSYN076AAXX  13184 17205 32980 03402 10170 20019 38360 48533 54000 333 10210 92418;EQDQ01  00002PRCP99
0162172050999992000061321004+38480+042300FM-12+166599999V0209999C000012200019N0300001N1+01501+00351999999ADDGA1001+999999999GF100991001001999999001001MA1999999083601MD1410001+9999ME1315249REMSYN070AAXX  13214 17205 42980 00000 10150 20035 38360 48524 54000 333 10128;
0192172050999992000061400004+38480+042300FM-12+166599999V0209999C000012200019N0300001N1+01201+00231999999ADDAA199000091GA1001+999999999GF100991001001999999001001MA1999999083601MD1410001+9999ME1315269REMSYN070AAXX  14004 17205 32980 00000 10120 20023 38360 48526 54000 333 10128;EQDQ01  00002PRCP99
0162172050999992000061403004+38480+042300FM-12+166599999V0209999C000012200019N0300001N1+01201+00231999999ADDGA1001+999999999GF100991001001999999001001MA1999999083601MD1410001+9999ME1315269REMSYN070AAXX  14034 17205 42980 00000 10120 20023 38360 48526 54000 333 10128;
0247172050999992000061406004+38480+042300FM-12+166599999V0200201N002112200019N0300001N1+01821+00181999999ADDAA199000091GA1001+999999999GF100991001001999999001001IA1019IA2999+00809KA1120N+00941MA1999999083501MD1710101+9999ME1315139REMSYN094AAXX  14064 17205 32980 00204 10182 20018 38350 48513 57010 333 20094 30008 50881 55108 92418;EQDQ01  00002PRCP99
0162172050999992000061409004+38480+042300FM-12+166599999V0200201N002112200019N0300001N1+02161+00731999999ADDGA1001+999999999GF100991001001999999001001MA1999999083401MD1710101+9999ME1315009REMSYN070AAXX  14094 17205 42980 00204 10216 20073 38340 48500 57010 333 10090;
0192172050999992000061412004+38480+042300FM-12+166599999V0200201N002112200019N0300001N1+02321+00721999999ADDAA199000091GA1001+999999999GF100991001001999999001001MA1999999083301MD1610101+9999ME1314899REMSYN070AAXX  14124 17205 32980 00204 10232 20072 38330 48489 56010 333 10084;EQDQ01  00002PRCP99
0162172050999992000061415004+38480+042300FM-12+166599999V0200201N001512200019N0300001N1+02201+00701999999ADDGA1001+999999999GF100991001001999999001001MA1999999083201MD1610101+9999ME1314799REMSYN070AAXX  14154 17205 42980 00203 10220 20070 38320 48479 56010 333 10072;
0211172050999992000061418004+38480+042300FM-12+166599999V0203401N001512200019N0300001N1+01841+00421999999ADDAA199000091GA1001+999999999GF100991001001999999001001KA1120M+02501MA1999999083201MD1410001+9999ME1314829REMSYN076AAXX  14184 17205 32980 03403 10184 20042 38320 48482 54000 333 10250 92418;EQDQ01  00002PRCP99
0162172050999992000061421004+38480+042300FM-12+166599999V0200201N003112200019N0300001N1+01401+00221999999ADDGA1001+999999999GF100991001001999999001001MA1999999083301MD1110101+9999ME1314959REMSYN070AAXX  14214 17205 42980 00206 10140 20022 38330 48495 51010 333 10075;
0192172050999992000061500004+38480+042300FM-12+166599999V0200201N002612200019N0300001N1+01241+00101999999ADDAA199000091GA1001+999999999GF100991001001999999001001MA1999999083341MD1110041+9999ME1314969REMSYN070AAXX  15004 17205 32980 00205 10124 20010 38334 48496 51004 333 10082;EQDQ01  00002PRCP99
0162172050999992000061503004+38480+042300FM-12+166599999V0200201N003112200019N0300001N1+01301+00281999999ADDGA1001+999999999GF100991001001999999001001MA1999999083401MD1210061+9999ME1315059REMSYN070AAXX  15034 17205 42980 00206 10130 20028 38340 48505 52006 333 10090;
0247172050999992000061506004+38480+042300FM-12+166599999V0200201N003112200019N0300001N1+01601+00541999999ADDAA199000091GA1001+999999999GF100991001001999999001001IA1019IA2999+01009KA1120N+01101MA1999999083401MD1410001+9999ME1315049REMSYN094AAXX  15064 17205 32980 00206 10160 20054 38340 48504 54000 333 20110 30010 50881 55110 92428;EQDQ01  00002PRCP99
0162172050999992000061509004+38480+042300FM-12+166599999V0200401N003112200019N0300001N1+01801+00601999999ADDGA1001+999999999GF100991001001999999001001MA1999999083401MD1410001+9999ME1315049REMSYN070AAXX  15094 17205 42980 00406 10180 20060 38340 48504 54000 333 10104;
0192172050999992000061512004+38480+042300FM-12+166599999V0200701N002612200019N0300001N1+02401+01081999999ADDAA199000091GA1001+999999999GF100991001001999999001001MA1999999083401MD1410001+9999ME1314999REMSYN070AAXX  15124 17205 32980 00705 10240 20108 38340 48499 54000 333 10096;EQDQ01  00002PRCP99
0162172050999992000061515004+38480+042300FM-12+166599999V0200201N001512200019N0300001N1+01941+00681999999ADDGA1001+999999999GF100991001001999999001001MA1999999083301MD1710101+9999ME1314919REMSYN070AAXX  15154 17205 42980 00203 10194 20068 38330 48491 57010 333 10091;
0162172050999992000061521004+38480+042300FM-12+166599999V0200701N001512200019N0300001N1+01601+00541999999ADDGA1001+999999999GF100991001001999999001001MA1999999083401MD1210101+9999ME1315049REMSYN070AAXX  15214 17205 42980 00703 10160 20054 38340 48504 52010 333 10096;
0192172050999992000061600004+38480+042300FM-12+166599999V0209999C000012200019N0300001N1+01301+00441999999ADDAA199000091GA1001+999999999GF100991001001999999001001MA1999999083401MD1410001+9999ME1315059REMSYN070AAXX  16004 17205 32980 00000 10130 20044 38340 48505 54000 333 10096;EQDQ01  00002PRCP99
0162172050999992000061603004+38480+042300FM-12+166599999V0209999C000012200019N0300001N1+01301+00591999999ADDGA1001+999999999GF100991001001999999001001MA1999999083401MD1410001+9999ME1315059REMSYN070AAXX  16034 17205 42980 00000 10130 20059 38340 48505 54000 333 10104;
0247172050999992000061606004+38480+042300FM-12+166599999V0200701N001512200019N0300001N1+01801+00901999999ADDAA199000091GA1001+999999999GF100991001001999999001001IA1019IA2999+01009KA1120N+01141MA1999999083501MD1210101+9999ME1315139REMSYN094AAXX  16064 17205 32980 00703 10180 20090 38350 48513 52010 333 20114 30010 50641 55110 92418;EQDQ01  00002PRCP99
0162172050999992000061609004+38480+042300FM-12+166599999V0200701N001512200019N0300001N1+02101+00981999999ADDGA1001+999999999GF100991001001999999001001MA1999999083501MD1410001+9999ME1315119REMSYN070AAXX  16094 17205 42980 00703 10210 20098 38350 48511 54000 333 10102;
0204172050999992000061612004+38480+042300FM-12+166599999V0200701N001512200019N0300001N1+02201+01111999999ADDAA199000091GA1031+012009089GF103991031011012501001001MA1999999083401MD1410001+9999ME1315009REMSYN082AAXX  16124 17205 32680 30703 10220 20111 38340 48500 54000 83100 333 83840 92418;EQDQ01  00002PRCP99
0174172050999992000061615004+38480+042300FM-12+166599999V0200401N001512200019N0300001N1+02141+00371999999ADDGA1031+012009089GF103991031011012501001001MA1999999083401MD1410001+9999ME1315009REMSYN082AAXX  16154 17205 42680 30403 10214 20037 38340 48500 54000 83100 333 83840 92418;
0211172050999992000061618004+38480+042300FM-12+166599999V0209999C000012200019N0300001N1+01841+00421999999ADDAA199000091GA1001+999999999GF100991001001999999001001KA1120M+02341MA1999999083401MD1410001+9999ME1315039REMSYN076AAXX  16184 17205 32980 00000 10184 20042 38340 48503 54000 333 10234 92418;EQDQ01  00002PRCP99
0162172050999992000061621004+38480+042300FM-12+166599999V0209999C000012200019N0300001N1+01501+00161999999ADDGA1001+999999999GF100991001001999999001001MA1999999083401MD1410001+9999ME1315049REMSYN070AAXX  16214 17205 42980 00000 10150 20016 38340 48504 54000 333 10090;
0192172050999992000061700004+38480+042300FM-12+166599999V0209999C000012200019N0300001N1+01301+00441999999ADDAA199000091GA1001+999999999GF100991001001999999001001MA1999999083401MD1410001+9999ME1315059REMSYN070AAXX  17004 17205 32980 00000 10130 20044 38340 48505 54000 333 10090;EQDQ01  00002PRCP99
0247172050999992000061706004+38480+042300FM-12+166599999V0200401N001012200019N0300001N1+02001+00751999999ADDAA199000091GA1001+999999999GF100991001001999999001001IA1019IA2999+01009KA1120N+01101MA1999999083501MD1210101+9999ME1315129REMSYN094AAXX  17064 17205 32980 00402 10200 20075 38350 48512 52010 333 20110 30010 50641 55106 92418;EQDQ01  00002PRCP99
0174172050999992000061709004+38480+042300FM-12+166599999V0200701N001012200019N0300001N1+02161+00981999999ADDGA1031+012009089GF103991031011012501001001MA1999999083501MD1410001+9999ME1315119REMSYN082AAXX  17094 17205 42680 30702 10216 20098 38350 48511 54000 83100 333 83840 92418;
0204172050999992000061712004+38480+042300FM-12+166599999V0200701N001012200019N0300001N1+02301+00931999999ADDAA199000091GA1031+012009089GF103991031011012501001001MA1999999083441MD1710061+9999ME1314999REMSYN082AAXX  17124 17205 32680 30702 10230 20093 38344 48499 57006 83100 333 83840 92418;EQDQ01  00002PRCP99
0174172050999992000061715004+38480+042300FM-12+166599999V0200701N001012200019N0300001N1+02401+00771999999ADDGA1021+012009089GF102991021011012501001001MA1999999083301MD1610141+9999ME1314899REMSYN082AAXX  17154 17205 42680 20702 10240 20077 38330 48489 56014 82100 333 82840 92418;
0211172050999992000061718004+38480+042300FM-12+166599999V0209999C000012200019N0300001N1+02001+00641999999ADDAA199000091GA1001+999999999GF100991001001999999001001KA1120M+02601MA1999999083301MD1410001+9999ME1314919REMSYN076AAXX  17184 17205 32980 00000 10200 20064 38330 48491 54000 333 10260 92418;EQDQ01  00002PRCP99
0162172050999992000061721004+38480+042300FM-12+166599999V0209999C000012200019N0300001N1+01601+00431999999ADDGA1001+999999999GF100991001001999999001001MA1999999083361MD1110061+9999ME1315049REMSYN070AAXX  17214 17205 42980 00000 10160 20043 38336 48504 51006 333 10071;
0192172050999992000061800004+38480+042300FM-12+166599999V0209999C000012200019N0300001N1+01341+00381999999ADDAA199000091GA1001+999999999GF100991001001999999001001MA1999999083301MD1610061+9999ME1314959REMSYN070AAXX  18004 17205 32980 00000 10134 20038 38330 48495 56006 333 10077;EQDQ01  00002PRCP99
0162172050999992000061803004+38480+042300FM-12+166599999V0209999C000012200019N0300001N1+01241+00431999999ADDGA1001+999999999GF100991001001999999001001MA1999999083301MD1410001+9999ME1314969REMSYN070AAXX  18034 17205 42980 00000 10124 20043 38330 48496 54000 333 10091;
0241172050999992000061806004+38480+042300FM-12+166599999V0201101N001012200019N0300001N1+02101+00561999999ADDAA199000091GA1001+999999999GF100991001001999999001001IA1019IA2999+01009KA1120N+01101MA1999999083301MD1410001+9999ME1314929REMSYN088AAXX  18064 17205 32980 01102 10210 20056 38330 48492 54000 333 20110 30010 50561 92418;EQDQ01  00002PRCP99
0162172050999992000061809004+38480+042300FM-12+166599999V0200701N001012200019N0300001N1+02401+01061999999ADDGA1001+999999999GF100991001001999999001001MA1999999083201MD1810101+9999ME1314839REMSYN070AAXX  18094 17205 42980 00702 10240 20106 38320 48483 58010 333 10079;
0192172050999992000061812004+38480+042300FM-12+166599999V0202001N003112200019N0300001N1+02901-00471999999ADDAA199000091GA1001+999999999GF100991001001999999001001MA1999999083101MD1410001+9999ME1314639REMSYN070AAXX  18124 17205 32980 02006 10290 21047 38310 48463 54000 333 10033;EQDQ01  00002PRCP99
0174172050999992000061815004+38480+042300FM-12+166599999V0202001N001512200019N0300001N1+02701-00861999999ADDGA1031+012009089GF103991031011012501001001MA1999999082901MD1710201+9999ME1314439REMSYN082AAXX  18154 17205 42680 32003 10270 21086 38290 48443 57020 83100 333 83840 92428;
0223172050999992000061818004+38480+042300FM-12+166599999V0209999C000012200019N0300001N1+02121+00341999999ADDAA199000091GA1031+012009089GF103991031011012501001001KA1120M+02961MA1999999082901MD1410001+9999ME1314489REMSYN088AAXX  18184 17205 32680 30000 10212 20034 38290 48448 54000 83100 333 10296 83840 92418;EQDQ01  00002PRCP99
0162172050999992000061821004+38480+042300FM-12+166599999V0209999C000012200019N0300001N1+01701+00451999999ADDGA1001+999999999GF100991001001999999001001MA1999999082901MD1410001+9999ME1314519REMSYN070AAXX  18214 17205 42980 00000 10170 20045 38290 48451 54000 333 10009;
0192172050999992000061900004+38480+042300FM-12+166599999V0209999C000012200019N0300001N1+01601-00101999999ADDAA199000091GA1001+999999999GF100991001001999999001001MA1999999082801MD1610101+9999ME1314429REMSYN070AAXX  19004 17205 32980 00000 10160 21010 38280 48442 56010 333 92418;EQDQ01  00002PRCP99
0162172050999992000061903004+38480+042300FM-12+166599999V0202701N003112200019N0300001N1+01701+00201999999ADDGA1001+999999999GF100991001001999999001001MA1999999082801MD1410001+9999ME1314419REMSYN070AAXX  19034 17205 42980 02706 10170 20020 38280 48441 54000 333 92428;
0247172050999992000061906004+38480+042300FM-12+166599999V0200701N002112200019N0300001N1+02021+00311999999ADDAA199000091GA1001+999999999GF100991001001999999001001IA1019IA2999+01309KA1120N+01461MA1999999082801MD1410001+9999ME1314359REMSYN094AAXX  19064 17205 32980 00704 10202 20031 38280 48435 54000 333 20146 30013 50881 55100 92418;EQDQ01  00002PRCP99
0162172050999992000061909004+38480+042300FM-12+166599999V0202001N002112200019N0300001N1+02501+00161999999ADDGA1001+999999999GF100991001001999999001001MA1999999082801MD1410001+9999ME1314349REMSYN070AAXX  19094 17205 42980 02004 10250 20016 38280 48434 54000 333 92428;
0192172050999992000061912004+38480+042300FM-12+166599999V0202001N002112200019N0300001N1+02561+00101999999ADDAA199000091GA1001+999999999GF100991001001999999001001MA1999999082801MD1410001+9999ME1314349REMSYN070AAXX  19124 17205 32980 02004 10256 20010 38280 48434 54000 333 92428;EQDQ01  00002PRCP99
0162172050999992000061915004+38480+042300FM-12+166599999V0202001N002612200019N0300001N1+02461+00091999999ADDGA1001+999999999GF100991001001999999001001MA1999999082801MD1410001+9999ME1314369REMSYN070AAXX  19154 17205 42980 02005 10246 20009 38280 48436 54000 333 92428;
0211172050999992000061918004+38480+042300FM-12+166599999V0202001N002112200019N0300001N1+02101-00631999999ADDAA199000091GA1001+999999999GF100991001001999999001001KA1120M+02761MA1999999082901MD1210101+9999ME1314489REMSYN076AAXX  19184 17205 32980 02004 10210 21063 38290 48448 52010 333 10276 92418;EQDQ01  00002PRCP99
0162172050999992000061921004+38480+042300FM-12+166599999V0202001N002112200019N0300001N1+01901-00691999999ADDGA1001+999999999GF100991001001999999001001MA1999999082901MD1410001+9999ME1314499REMSYN070AAXX  19214 17205 42980 02004 10190 21069 38290 48449 54000 333 10002;
0192172050999992000062000004+38480+042300FM-12+166599999V0202701N001012200019N0300001N1+01601-00551999999ADDAA199000091GA1001+999999999GF100991001001999999001001MA1999999082901MD1410001+9999ME1314529REMSYN070AAXX  20004 17205 32980 02702 10160 21055 38290 48452 54000 333 10009;EQDQ01  00002PRCP99
0162172050999992000062003004+38480+042300FM-12+166599999V0203601N001012200019N0300001N1+01601-00101999999ADDGA1001+999999999GF100991001001999999001001MA1999999082901MD1410001+9999ME1314529REMSYN070AAXX  20034 17205 42980 03602 10160 21010 38290 48452 54000 333 10016;
0247172050999992000062006004+38480+042300FM-12+166599999V0202001N002112200019N0300001N1+02001+00141999999ADDAA199000091GA1001+999999999GF100991001001999999001001IA1019IA2999+01209KA1120N+01341MA1999999083001MD1110101+9999ME1314609REMSYN094AAXX  20064 17205 32980 02004 10200 20014 38300 48460 51010 333 20134 30012 51081 55102 92418;EQDQ01  00002PRCP99
0162172050999992000062009004+38480+042300FM-12+166599999V0202001N002612200019N0300001N1+02201+00091999999ADDGA1001+999999999GF100991001001999999001001MA1999999083001MD1410001+9999ME1314589REMSYN070AAXX  20094 17205 42980 02005 10220 20009 38300 48458 54000 333 10014;
0192172050999992000062012004+38480+042300FM-12+166599999V0202001N002112200019N0300001N1+02341+00051999999ADDAA199000091GA1001+999999999GF100991001001999999001001MA1999999083101MD1210101+9999ME1314679REMSYN070AAXX  20124 17205 32980 02004 10234 20005 38310 48467 52010 333 10040;EQDQ01  00002PRCP99
0162172050999992000062015004+38480+042300FM-12+166599999V0202501N002112200019N0300001N1+02201-00101999999ADDGA1001+999999999GF100991001001999999001001MA1999999083101MD1410001+9999ME1314699REMSYN070AAXX  20154 17205 42980 02504 10220 21010 38310 48469 54000 333 10046;
0211172050999992000062018004+38480+042300FM-12+166599999V0202501N002112200019N0300001N1+01921-00391999999ADDAA199000091GA1001+999999999GF100991001001999999001001KA1120M+02501MA1999999083201MD1210101+9999ME1314819REMSYN076AAXX  20184 17205 32980 02504 10192 21039 38320 48481 52010 333 10250 92418;EQDQ01  00002PRCP99
0162172050999992000062021004+38480+042300FM-12+166599999V0202501N002112200019N0300001N1+01541-00451999999ADDGA1001+999999999GF100991001001999999001001MA1999999083301MD1210101+9999ME1314939REMSYN070AAXX  20214 17205 42980 02504 10154 21045 38330 48493 52010 333 10071;
0192172050999992000062100004+38480+042300FM-12+166599999V0202501N003112200019N0300001N1+01421-00601999999ADDAA199000091GA1001+999999999GF100991001001999999001001MA1999999083301MD1410001+9999ME1314969REMSYN070AAXX  21004 17205 32980 02506 10142 21060 38330 48496 54000 333 10071;EQDQ01  00002PRCP99
0162172050999992000062103004+38480+042300FM-12+166599999V0209999C000012200019N0300001N1+01221+00071999999ADDGA1001+999999999GF100991001001999999001001MA1999999083301MD1410001+9999ME1314969REMSYN070AAXX  21034 17205 42980 00000 10122 20007 38330 48496 54000 333 10084;
0247172050999992000062106004+38480+042300FM-12+166599999V0209999C000012200019N0300001N1+01901-00021999999ADDAA199000091GA1001+999999999GF100991001001999999001001IA1019IA2999+00909KA1120N+01001MA1999999083301MD1410001+9999ME1314929REMSYN094AAXX  21064 17205 32980 00000 10190 21002 38330 48492 54000 333 20100 30009 50961 55106 92418;EQDQ01  00002PRCP99
0162172050999992000062109004+38480+042300FM-12+166599999V0200401N001512200019N0300001N1+02201+00361999999ADDGA1001+999999999GF100991001001999999001001MA1999999083301MD1410001+9999ME1314929REMSYN070AAXX  21094 17205 42980 00403 10220 20036 38330 48492 54000 333 10071;
0162172050999992000062115004+38480+042300FM-12+166599999V0202001N005112200019N0300001N1+02241-01001999999ADDGA1001+999999999GF100991001001999999001001MA1999999083301MD1410001+9999ME1314929REMSYN070AAXX  21154 17205 42980 02010 10224 21100 38330 48492 54000 333 10084;
0211172050999992000062118004+38480+042300FM-12+166599999V0202701N001512200019N0300001N1+01801-00711999999ADDAA199000091GA1001+999999999GF100991001001999999001001KA1120M+02601MA1999999083401MD1410001+9999ME1315039REMSYN076AAXX  21184 17205 32980 02703 10180 21071 38340 48503 54000 333 10260 92418;EQDQ01  00002PRCP99
0162172050999992000062121004+38480+042300FM-12+166599999V0202701N001012200019N0300001N1+01541-00671999999ADDGA1001+999999999GF100991001001999999001001MA1999999083501MD1210101+9999ME1315149REMSYN070AAXX  21214 17205 42980 02702 10154 21067 38350 48514 52010 333 10095;
0192172050999992000062200004+38480+042300FM-12+166599999V0209999C000012200019N0300001N1+01001-00321999999ADDAA199000091GA1001+999999999GF100991001001999999001001MA1999999083501MD1410001+9999ME1315129REMSYN070AAXX  22004 17205 32980 00000 10100 21032 38350 48512 54000 333 10116;EQDQ01  00002PRCP99
0162172050999992000062203004+38480+042300FM-12+166599999V0209999C000012200019N0300001N1+00881+00111999999ADDGA1001+999999999GF100991001001999999001001MA1999999083501MD1410001+9999ME1315189REMSYN070AAXX  22034 17205 42980 00000 10088 20011 38350 48518 54000 333 10116;
0247172050999992000062206004+38480+042300FM-12+166599999V0200701N001012200019N0300001N1+01901-00021999999ADDAA199000091GA1001+999999999GF100991001001999999001001IA1019IA2999+00609KA1120N+00761MA1999999083501MD1410001+9999ME1315129REMSYN094AAXX  22064 17205 32980 00702 10190 21002 38350 48512 54000 333 20076 30006 50801 55109 92418;EQDQ01  00002PRCP99
0162172050999992000062209004+38480+042300FM-12+166599999V0200201N001512200019N0300001N1+02341+00021999999ADDGA1001+999999999GF100991001001999999001001MA1999999083501MD1410001+9999ME1315109REMSYN070AAXX  22094 17205 42980 00203 10234 20002 38350 48510 54000 333 10095;
0192172050999992000062212004+38480+042300FM-12+166599999V0202501N002112200019N0300001N1+02601-00221999999ADDAA199000091GA1001+999999999GF100991001001999999001001MA1999999083361MD1710141+9999ME1314989REMSYN070AAXX  22124 17205 32980 02504 10260 21022 38336 48498 57014 333 10085;EQDQ01  00002PRCP99
0162172050999992000062215004+38480+042300FM-12+166599999V0202501N001512200019N0300001N1+02541-00451999999ADDGA1001+999999999GF100991001001999999001001MA1999999083301MD1610061+9999ME1314879REMSYN070AAXX  22154 17205 42980 02503 10254 21045 38330 48487 56006 333 10084;
0211172050999992000062218004+38480+042300FM-12+166599999V0203601N001012200019N0300001N1+02001-00231999999ADDAA199000091GA1001+999999999GF100991001001999999001001KA1120M+02801MA1999999083301MD1410001+9999ME1314919REMSYN076AAXX  22184 17205 32980 03602 10200 21023 38330 48491 54000 333 10280 92418;EQDQ01  00002PRCP99
0162172050999992000062221004+38480+042300FM-12+166599999V0209999C000012200019N0300001N1+01401-00281999999ADDGA1001+999999999GF100991001001999999001001MA1999999083301MD1410001+9999ME1314959REMSYN070AAXX  22214 17205 42980 00000 10140 21028 38330 48495 54000 333 10071;
0192172050999992000062300004+38480+042300FM-12+166599999V0209999C000012200019N0300001N1+01241+00101999999ADDAA199000091GA1001+999999999GF100991001001999999001001MA1999999083301MD1410001+9999ME1314969REMSYN070AAXX  23004 17205 32980 00000 10124 20010 38330 48496 54000 333 10064;EQDQ01  00002PRCP99
0162172050999992000062303004+38480+042300FM-12+166599999V0209999C000012200019N0300001N1+01101+00211999999ADDGA1001+999999999GF100991001001999999001001MA1999999083301MD1410001+9999ME1314969REMSYN070AAXX  23034 17205 42980 00000 10110 20021 38330 48496 54000 333 10078;
0247172050999992000062306004+38480+042300FM-12+166599999V0200401N001012200019N0300001N1+01961+00351999999ADDAA199000091GA1001+999999999GF100991001001999999001001IA1019IA2999+00809KA1120N+00901MA1999999083201MD1610101+9999ME1314819REMSYN094AAXX  23064 17205 32980 00402 10196 20035 38320 48481 56010 333 20090 30008 50801 55110 92418;EQDQ01  00002PRCP99
0162172050999992000062309004+38480+042300FM-12+166599999V0200701N001512200019N0300001N1+02401+00681999999ADDGA1001+999999999GF100991001001999999001001MA1999999083141MD1710061+9999ME1314679REMSYN070AAXX  23094 17205 42980 00703 10240 20068 38314 48467 57006 333 10051;
0192172050999992000062312004+38480+042300FM-12+166599999V0200701N002112200019N0300001N1+02501+00591999999ADDAA199000091GA1001+999999999GF100991001001999999001001MA1999999083001MD1610141+9999ME1314559REMSYN070AAXX  23124 17205 32980 00704 10250 20059 38300 48455 56014 333 10034;EQDQ01  00002PRCP99
0162172050999992000062315004+38480+042300FM-12+166599999V0202501N001512200019N0300001N1+02501-00061999999ADDGA1001+999999999GF100991001001999999001001MA1999999083001MD1410001+9999ME1314559REMSYN070AAXX  23154 17205 42980 02503 10250 21006 38300 48455 54000 333 10041;
0211172050999992000062318004+38480+042300FM-12+166599999V0202701N001012200019N0300001N1+02141-00151999999ADDAA199000091GA1001+999999999GF100991001001999999001001KA1120M+02841MA1999999083001MD1410001+9999ME1314589REMSYN076AAXX  23184 17205 32980 02702 10214 21015 38300 48458 54000 333 10284 92418;EQDQ01  00002PRCP99
0162172050999992000062321004+38480+042300FM-12+166599999V0202501N002112200019N0300001N1+01801+00091999999ADDGA1001+999999999GF100991001001999999001001MA1999999083001MD1410001+9999ME1314619REMSYN070AAXX  23214 17205 42980 02504 10180 20009 38300 48461 54000 333 10021;
0192172050999992000062400004+38480+042300FM-12+166599999V0209999C000012200019N0300001N1+01501+00031999999ADDAA199000091GA1001+999999999GF100991001001999999001001MA1999999083001MD1410001+9999ME1314639REMSYN070AAXX  24004 17205 32980 00000 10150 20003 38300 48463 54000 333 10062;EQDQ01  00002PRCP99
0162172050999992000062403004+38480+042300FM-12+166599999V0209999C000012200019N0300001N1+01261+00321999999ADDGA1001+999999999GF100991001001999999001001MA1999999083001MD1410001+9999ME1314669REMSYN070AAXX  24034 17205 42980 00000 10126 20032 38300 48466 54000 333 10034;
0247172050999992000062406004+38480+042300FM-12+166599999V0201101N001012200019N0300001N1+01901+00501999999ADDAA199000091GA1001+999999999GF100991001001999999001001IA1019IA2999+01009KA1120N+01101MA1999999083101MD1110101+9999ME1314709REMSYN094AAXX  24064 17205 32980 01102 10190 20050 38310 48470 51010 333 20110 30010 50801 55109 92418;EQDQ01  00002PRCP99
0162172050999992000062409004+38480+042300FM-12+166599999V0200701N001512200019N0300001N1+02301+00501999999ADDGA1001+999999999GF100991001001999999001001MA1999999083001MD1810101+9999ME1315609REMSYN070AAXX  24094 17205 42980 00703 10230 20050 38300 48560 58010 333 10028;
0192172050999992000062412004+38480+042300FM-12+166599999V0200701N001012200019N0300001N1+02481+00761999999ADDAA199000091GA1001+999999999GF100991001001999999001001MA1999999083001MD1410001+9999ME1314609REMSYN070AAXX  24124 17205 32980 00702 10248 20076 38300 48460 54000 333 10028;EQDQ01  00002PRCP99
0162172050999992000062415004+38480+042300FM-12+166599999V0200701N001012200019N0300001N1+02301+00501999999ADDGA1001+999999999GF100991001001999999001001MA1999999083001MD1410001+9999ME1314609REMSYN070AAXX  24154 17205 42980 00702 10230 20050 38300 48460 54000 333 10041;
0211172050999992000062418004+38480+042300FM-12+166599999V0200401N001012200019N0300001N1+01941+00211999999ADDAA199000091GA1001+999999999GF100991001001999999001001KA1120M+02541MA1999999083001MD1410001+9999ME1314609REMSYN076AAXX  24184 17205 32980 00402 10194 20021 38300 48460 54000 333 10254 92418;EQDQ01  00002PRCP99
0162172050999992000062421004+38480+042300FM-12+166599999V0200201N001512200019N0300001N1+01661-00211999999ADDGA1001+999999999GF100991001001999999001001MA1999999083101MD1110101+9999ME1314739REMSYN070AAXX  24214 17205 42980 00203 10166 21021 38310 48473 51010 333 10040;
0192172050999992000062500004+38480+042300FM-12+166599999V0209999C000012200019N0300001N1+01241+00051999999ADDAA199000091GA1001+999999999GF100991001001999999001001MA1999999083101MD1410001+9999ME1314769REMSYN070AAXX  25004 17205 32980 00000 10124 20005 38310 48476 54000 333 10046;EQDQ01  00002PRCP99
0162172050999992000062503004+38480+042300FM-12+166599999V0202001N001012200019N0300001N1+01201-00011999999ADDGA1001+999999999GF100991001001999999001001MA1999999083101MD1410001+9999ME1314769REMSYN070AAXX  25034 17205 42980 02002 10120 21001 38310 48476 54000 333 10053;
0247172050999992000062506004+38480+042300FM-12+166599999V0200701N001512200019N0300001N1+01901+00501999999ADDAA199000091GA1001+999999999GF100991001001999999001001IA1019IA2999+01009KA1120N+01081MA1999999083101MD1410001+9999ME1314709REMSYN094AAXX  25064 17205 32980 00703 10190 20050 38310 48470 54000 333 20108 30010 50801 55110 92418;EQDQ01  00002PRCP99
0162172050999992000062509004+38480+042300FM-12+166599999V0200701N001512200019N0300001N1+02161+00731999999ADDGA1001+999999999GF100991001001999999001001MA1999999083101MD1410001+9999ME1314699REMSYN070AAXX  25094 17205 42980 00703 10216 20073 38310 48469 54000 333 10046;
0162172050999992000062515004+38480+042300FM-12+166599999V0200701N001512200019N0300001N1+02341+00681999999ADDGA1001+999999999GF100991001001999999001001MA1999999082801MD1710141+9999ME1314369REMSYN070AAXX  25154 17205 42980 00703 10234 20068 38280 48436 57014 333 10017;
0211172050999992000062518004+38480+042300FM-12+166599999V0209999C000012200019N0300001N1+02061+00591999999ADDAA199000091GA1001+999999999GF100991001001999999001001KA1120M+02601MA1999999082801MD1410001+9999ME1314399REMSYN076AAXX  25184 17205 32980 00000 10206 20059 38280 48439 54000 333 10260 92418;EQDQ01  00002PRCP99
0162172050999992000062521004+38480+042300FM-12+166599999V0209999C000012200019N0300001N1+01601+00111999999ADDGA1001+999999999GF100991001001999999001001MA1999999082901MD1210101+9999ME1314529REMSYN070AAXX  25214 17205 42980 00000 10160 20011 38290 48452 52010 333 10022;
0192172050999992000062600004+38480+042300FM-12+166599999V0209999C000012200019N0300001N1+01801+00091999999ADDAA199000091GA1001+999999999GF100991001001999999001001MA1999999082901MD1410001+9999ME1314519REMSYN070AAXX  26004 17205 32980 00000 10180 20009 38290 48451 54000 333 10009;EQDQ01  00002PRCP99
0162172050999992000062603004+38480+042300FM-12+166599999V0209999C000012200019N0300001N1+01201+00091999999ADDGA1001+999999999GF100991001001999999001001MA1999999082901MD1410001+9999ME1314569REMSYN070AAXX  26034 17205 42980 00000 10120 20009 38290 48456 54000 333 10029;
0247172050999992000062606004+38480+042300FM-12+166599999V0200701N001512200019N0300001N1+02101+00361999999ADDAA199000091GA1001+999999999GF100991001001999999001001IA1019IA2999+01009KA1120N+01101MA1999999083001MD1110101+9999ME1314589REMSYN094AAXX  26064 17205 32980 00703 10210 20036 38300 48458 51010 333 20110 30010 50721 55106 92418;EQDQ01  00002PRCP99
0162172050999992000062609004+38480+042300FM-12+166599999V0200701N002112200019N0300001N1+02521+00671999999ADDGA1001+999999999GF100991001001999999001001MA1999999082941MD1710061+9999ME1314569REMSYN070AAXX  26094 17205 42980 00704 10252 20067 38294 48456 57006 333 10014;
0192172050999992000062612004+38480+042300FM-12+166599999V0200701N002112200019N0300001N1+02681+00641999999ADDAA199000091GA1001+999999999GF100991001001999999001001MA1999999082901MD1710041+9999ME1314459REMSYN070AAXX  26124 17205 32980 00704 10268 20064 38290 48445 57004 333 10002;EQDQ01  00002PRCP99
0162172050999992000062615004+38480+042300FM-12+166599999V0200701N002112200019N0300001N1+02401+00581999999ADDGA1001+999999999GF100991001001999999001001MA1999999082901MD1410001+9999ME1314469REMSYN070AAXX  26154 17205 42980 00704 10240 20058 38290 48446 54000 333 10029;
0211172050999992000062618004+38480+042300FM-12+166599999V0202701N001012200019N0300001N1+02101+00151999999ADDAA199000091GA1001+999999999GF100991001001999999001001KA1120M+02781MA1999999082941MD1110041+9999ME1314489REMSYN076AAXX  26184 17205 32980 02702 10210 20015 38294 48448 51004 333 10278 92418;EQDQ01  00002PRCP99
0162172050999992000062621004+38480+042300FM-12+166599999V0209999C000012200019N0300001N1+01601+00051999999ADDGA1001+999999999GF100991001001999999001001MA1999999083001MD1210061+9999ME1314639REMSYN070AAXX  26214 17205 42980 00000 10160 20005 38300 48463 52006 333 10067;
0192172050999992000062700004+38480+042300FM-12+166599999V0209999C000012200019N0300001N1+01421+00151999999ADDAA199000091GA1001+999999999GF100991001001999999001001MA1999999083101MD1210101+9999ME1314749REMSYN070AAXX  27004 17205 32980 00000 10142 20015 38310 48474 52010 333 10040;EQDQ01  00002PRCP99
0162172050999992000062703004+38480+042300FM-12+166599999V0209999C000012200019N0300001N1+01281+00531999999ADDGA1001+999999999GF100991001001999999001001MA1999999083101MD1410001+9999ME1314769REMSYN070AAXX  27034 17205 42980 00000 10128 20053 38310 48476 54000 333 10053;
0247172050999992000062706004+38480+042300FM-12+166599999V0209999C000012200019N0300001N1+02061+00731999999ADDAA199000091GA1001+999999999GF100991001001999999001001IA1019IA2999+01009KA1120N+01101MA1999999083101MD1410001+9999ME1314709REMSYN094AAXX  27064 17205 32980 00000 10206 20073 38310 48470 54000 333 20110 30010 50801 55107 92418;EQDQ01  00002PRCP99
0162172050999992000062709004+38480+042300FM-12+166599999V0200701N001012200019N0300001N1+02421+00801999999ADDGA1001+999999999GF100991001001999999001001MA1999999083101MD1410001+9999ME1314709REMSYN070AAXX  27094 17205 42980 00702 10242 20080 38310 48470 54000 333 10040;
0162172050999992000062715004+38480+042300FM-12+166599999V0209999C000012200019N0300001N1+02521+00671999999ADDGA1001+999999999GF100991001001999999001001MA1999999082901MD1810101+9999ME1314509REMSYN070AAXX  27154 17205 42980 00000 10252 20067 38290 48450 58010 333 10022;
0211172050999992000062718004+38480+042300FM-12+166599999V0209999C000012200019N0300001N1+01961+00681999999ADDAA199000091GA1001+999999999GF100991001001999999001001KA1120M+02621MA1999999083001MD1110101+9999ME1314609REMSYN076AAXX  27184 17205 32980 00000 10196 20068 38300 48460 51010 333 10262 92418;EQDQ01  00002PRCP99
0162172050999992000062721004+38480+042300FM-12+166599999V0209999C000012200019N0300001N1+01601+00431999999ADDGA1001+999999999GF100991001001999999001001MA1999999083001MD1410001+9999ME1314639REMSYN070AAXX  27214 17205 42980 00000 10160 20043 38300 48463 54000 333 10028;
0192172050999992000062800004+38480+042300FM-12+166599999V0209999C000012200019N0300001N1+01401+00271999999ADDAA199000091GA1001+999999999GF100991001001999999001001MA1999999083001MD1410001+9999ME1314649REMSYN070AAXX  28004 17205 32980 00000 10140 20027 38300 48464 54000 333 10028;EQDQ01  00002PRCP99
0162172050999992000062803004+38480+042300FM-12+166599999V0209999C000012200019N0300001N1+01261+00321999999ADDGA1001+999999999GF100991001001999999001001MA1999999083001MD1410001+9999ME1314669REMSYN070AAXX  28034 17205 42980 00000 10126 20032 38300 48466 54000 333 10034;
0247172050999992000062806004+38480+042300FM-12+166599999V0209999C000012200019N0300001N1+02201+01111999999ADDAA199000091GA1001+999999999GF100991001001999999001001IA1019IA2999+01109KA1120N+01161MA1999999083001MD1410001+9999ME1314589REMSYN094AAXX  28064 17205 32980 00000 10220 20111 38300 48458 54000 333 20116 30011 50561 55110 92418;EQDQ01  00002PRCP99
0162172050999992000062809004+38480+042300FM-12+166599999V0200701N001512200019N0300001N1+02401+01061999999ADDGA1001+999999999GF100991001001999999001001MA1999999083001MD1410001+9999ME1314579REMSYN070AAXX  28094 17205 42980 00703 10240 20106 38300 48457 54000 333 10034;
0192172050999992000062812004+38480+042300FM-12+166599999V0200701N001512200019N0300001N1+02601+01241999999ADDAA199000091GA1001+999999999GF100991001001999999001001MA1999999083001MD1410001+9999ME1314559REMSYN070AAXX  28124 17205 32980 00703 10260 20124 38300 48455 54000 333 10028;EQDQ01  00002PRCP99
0162172050999992000062815004+38480+042300FM-12+166599999V0202501N001512200019N0300001N1+02801-00212999999ADDGA1001+999999999GF100991001001999999001001MA1999999083001MD1410001+9999ME1314549REMSYN070AAXX  28154 17205 42980 02503 10280 21021 38300 48454 54000 333 10028;
0211172050999992000062818004+38480+042300FM-12+166599999V0209999C000012200019N0300001N1+02241+00581999999ADDAA199000091GA1001+999999999GF100991001001999999001001KA1120M+02961MA1999999083101MD1210101+9999ME1314699REMSYN076AAXX  28184 17205 32980 00000 10224 20058 38310 48469 52010 333 10296 92418;EQDQ01  00002PRCP99
0162172050999992000062821004+38480+042300FM-12+166599999V0209999C000012200019N0300001N1+01701+00201999999ADDGA1001+999999999GF100991001001999999001001MA1999999083101MD1410001+9999ME1314729REMSYN070AAXX  28214 17205 42980 00000 10170 20020 38310 48472 54000 333 10040;
0192172050999992000062900004+38480+042300FM-12+166599999V0209999C000012200019N0300001N1+01401+00271999999ADDAA199000091GA1001+999999999GF100991001001999999001001MA1999999083201MD1110101+9999ME1314859REMSYN070AAXX  29004 17205 32980 00000 10140 20027 38320 48485 51010 333 10052;EQDQ01  00002PRCP99
0162172050999992000062903004+38480+042300FM-12+166599999V0209999C000012200019N0300001N1+01241+00201999999ADDGA1001+999999999GF100991001001999999001001MA1999999083201MD1410001+9999ME1314869REMSYN070AAXX  29034 17205 42980 00000 10124 20020 38320 48486 54000 333 10052;
0247172050999992000062906004+38480+042300FM-12+166599999V0209999C000012200019N0300001N1+02141+00961999999ADDAA199000091GA1001+999999999GF100991001001999999001001IA1019IA2999+01109KA1120N+01161MA1999999083301MD1210101+9999ME1314909REMSYN094AAXX  29064 17205 32980 00000 10214 20096 38330 48490 52010 333 20116 30011 50721 55103 92418;EQDQ01  00002PRCP99
0162172050999992000062909004+38480+042300FM-12+166599999V0200701N001512200019N0300001N1+02621+01041999999ADDGA1001+999999999GF100991001001999999001001MA1999999083301MD1410001+9999ME1314879REMSYN070AAXX  29094 17205 42980 00703 10262 20104 38330 48487 54000 333 10050;
0162172050999992000062915004+38480+042300FM-12+166599999V0202501N002112200019N0300001N1+02841-00121999999ADDGA1001+999999999GF100991001001999999001001MA1999999083201MD1410001+9999ME1314759REMSYN070AAXX  29154 17205 42980 02504 10284 21012 38320 48475 54000 333 10052;
0211172050999992000062918004+38480+042300FM-12+166599999V0209999C000012200019N0300001N1+02321-00271999999ADDAA199000091GA1001+999999999GF100991001001999999001001KA1120M+03141MA1999999083241MD1110041+9999ME1314789REMSYN076AAXX  29184 17205 32980 00000 10232 21027 38324 48478 51004 333 10314 92418;EQDQ01  00002PRCP99
0162172050999992000062921004+38480+042300FM-12+166599999V0209999C000012200019N0300001N1+01741+00321999999ADDGA1001+999999999GF100991001001999999001001MA1999999083301MD1210061+9999ME1314929REMSYN070AAXX  29214 17205 42980 00000 10174 20032 38330 48492 52006 333 10050;
0192172050999992000063000004+38480+042300FM-12+166599999V0209999C000012200019N0300001N1+01561+00201999999ADDAA199000091GA1001+999999999GF100991001001999999001001MA1999999083301MD1410001+9999ME1314939REMSYN070AAXX  30004 17205 32980 00000 10156 20020 38330 48493 54000 333 10050;EQDQ01  00002PRCP99
0162172050999992000063003004+38480+042300FM-12+166599999V0209999C000012200019N0300001N1+01441+00231999999ADDGA1001+999999999GF100991001001999999001001MA1999999083301MD1410001+9999ME1314959REMSYN070AAXX  30034 17205 42980 00000 10144 20023 38330 48495 54000 333 10057;
0247172050999992000063006004+38480+042300FM-12+166599999V0209999C000012200019N0300001N1+02241+00581999999ADDAA199000091GA1001+999999999GF100991001001999999001001IA1019IA2999+01209KA1120N+01281MA1999999083401MD1110101+9999ME1315009REMSYN094AAXX  30064 17205 32980 00000 10224 20058 38340 48500 51010 333 20128 30012 50801 55101 92418;EQDQ01  00002PRCP99
0162172050999992000063009004+38480+042300FM-12+166599999V0202001N001012200019N0300001N1+02801+00431999999ADDGA1001+999999999GF100991001001999999001001MA1999999083401MD1410001+9999ME1315009REMSYN070AAXX  30094 17205 42980 02002 10280 20043 38340 48500 54000 333 10068;
0192172050999992000063012004+38480+042300FM-12+166599999V0202501N001012200019N0300001N1+03001-00121999999ADDAA199000091GA1001+999999999GF100991001001999999001001MA1999999083401MD1410001+9999ME1315009REMSYN070AAXX  30124 17205 32980 02502 10300 21012 38340 48500 54000 333 10068;EQDQ01  00002PRCP99
0162172050999992000063015004+38480+042300FM-12+166599999V0202001N001012200019N0300001N1+02861-00301999999ADDGA1001+999999999GF100991001001999999001001MA1999999083401MD1410001+9999ME1314979REMSYN070AAXX  30154 17205 42980 02002 10286 21030 38340 48497 54000 333 10062;
0211172050999992000063018004+38480+042300FM-12+166599999V0209999C000012200019N0300001N1+02201+00311999999ADDAA199000091GA1001+999999999GF100991001001999999001001KA1120M+03161MA1999999083501MD1110101+9999ME1315119REMSYN076AAXX  30184 17205 32980 00000 10220 20031 38350 48511 51010 333 10316 92418;EQDQ01  00002PRCP99
0162172050999992000063021004+38480+042300FM-12+166599999V0209999C000012200019N0300001N1+01641+00141999999ADDGA1001+999999999GF100991001001999999001001MA1999999083501MD1410001+9999ME1315149REMSYN070AAXX  30214 17205 42980 00000 10164 20014 38350 48514 54000 333 10074;
0192172050999992000070100004+38480+042300FM-12+166599999V0209999C000012200019N0300001N1+01341+00091999999ADDAA199000091GA1001+999999999GF100991001001999999001001MA1999999083501MD1410001+9999ME1315159REMSYN070AAXX  01004 17205 32980 00000 10134 20009 38350 48515 54000 333 10074;EQDQ01  00002PRCP99
0162172050999992000070103004+38480+042300FM-12+166599999V0209999C000012200019N0300001N1+01241+00121999999ADDGA1001+999999999GF100991001001999999001001MA1999999083501MD1410001+9999ME1315169REMSYN070AAXX  01034 17205 42980 00000 10124 20012 38350 48516 54000 333 10081;
0247172050999992000070106004+38480+042300FM-12+166599999V0209999C000012200019N0300001N1+02201+00471999999ADDAA199000091GA1001+999999999GF100991001001999999001001IA1019IA2999+01009KA1120N+01141MA1999999083501MD1410001+9999ME1315119REMSYN094AAXX  01064 17205 32980 00000 10220 20047 38350 48511 54000 333 20114 30010 50641 55103 92418;EQDQ01  00002PRCP99
0162172050999992000070109004+38480+042300FM-12+166599999V0200701N001012200019N0300001N1+02641+00941999999ADDGA1001+999999999GF100991001001999999001001MA1999999083501MD1410001+9999ME1315089REMSYN070AAXX  01094 17205 42980 00702 10264 20094 38350 48508 54000 333 10081;
0192172050999992000070112004+38480+042300FM-12+166599999V0200701N001512200019N0300001N1+02801+00961999999ADDAA199000091GA1001+999999999GF100991001001999999001001MA1999999083401MD1610101+9999ME1314979REMSYN070AAXX  01124 17205 32980 00703 10280 20096 38340 48497 56010 333 10069;EQDQ01  00002PRCP99
0181172050999992000070115004+38480+042300FM-12+166599999V0202001N001512200019N0300001N1+02901-00752999999ADDGA1001+999999999GF100991001001999999001001MA1999999083301MD1610101+9999ME1314859REMSYN070AAXX  01154 17205 42980 02003 10290 21075 38330 48485 56010 333 10057;EQDQ01-000753ATOD  
0211172050999992000070118004+38480+042300FM-12+166599999V0209999C000012200019N0300001N1+02201-00101999999ADDAA199000091GA1001+999999999GF100991001001999999001001KA1120M+03201MA1999999083401MD1210101+9999ME1315009REMSYN076AAXX  01184 17205 32980 00000 10220 21010 38340 48500 52010 333 10320 92418;EQDQ01  00002PRCP99
0162172050999992000070121004+38480+042300FM-12+166599999V0209999C000012200019N0300001N1+01601-00251999999ADDGA1001+999999999GF100991001001999999001001MA1999999083401MD1410001+9999ME1315049REMSYN070AAXX  01214 17205 42980 00000 10160 21025 38340 48504 54000 333 10069;
0192172050999992000070200004+38480+042300FM-12+166599999V0209999C000012200019N0300001N1+01401+00011999999ADDAA199000091GA1001+999999999GF100991001001999999001001MA1999999083301MD1610101+9999ME1314959REMSYN070AAXX  02004 17205 32980 00000 10140 20001 38330 48495 56010 333 10057;EQDQ01  00002PRCP99
0162172050999992000070203004+38480+042300FM-12+166599999V0209999C000012200019N0300001N1+01161+00041999999ADDGA1001+999999999GF100991001001999999001001MA1999999083301MD1410001+9999ME1314969REMSYN070AAXX  02034 17205 42980 00000 10116 20004 38330 48496 54000 333 10064;
0247172050999992000070206004+38480+042300FM-12+166599999V0209999C000012200019N0300001N1+02261+00611999999ADDAA199000091GA1001+999999999GF100991001001999999001001IA1019IA2999+00909KA1120N+01041MA1999999083301MD1410001+9999ME1314899REMSYN094AAXX  02064 17205 32980 00000 10226 20061 38330 48489 54000 333 20104 30009 50641 55106 92418;EQDQ01  00002PRCP99
0162172050999992000070209004+38480+042300FM-12+166599999V0200701N001012200019N0300001N1+02641+00811999999ADDGA1001+999999999GF100991001001999999001001MA1999999083301MD1410001+9999ME1314879REMSYN070AAXX  02094 17205 42980 00702 10264 20081 38330 48487 54000 333 10057;
0192172050999992000070212004+38480+042300FM-12+166599999V0200901N001012200019N0300001N1+03001+00771999999ADDAA199000091GA1001+999999999GF100991001001999999001001MA1999999083201MD1710101+9999ME1314749REMSYN070AAXX  02124 17205 32980 00902 10300 20077 38320 48474 57010 333 10038;EQDQ01  00002PRCP99
0162172050999992000070215004+38480+042300FM-12+166599999V0202701N001512200019N0300001N1+02961+00441999999ADDGA1001+999999999GF100991001001999999001001MA1999999083101MD1610101+9999ME1314639REMSYN070AAXX  02154 17205 42980 02703 10296 20044 38310 48463 56010 333 10033;
0211172050999992000070218004+38480+042300FM-12+166599999V0202701N001512200019N0300001N1+02601-00011999999ADDAA199000091GA1001+999999999GF100991001001999999001001KA1120M+03141MA1999999083101MD1410001+9999ME1314669REMSYN076AAXX  02184 17205 32980 02703 10260 21001 38310 48466 54000 333 10314 92418;EQDQ01  00002PRCP99
0162172050999992000070221004+38480+042300FM-12+166599999V0202001N001512200019N0300001N1+02201+00661999999ADDGA1001+999999999GF100991001001999999001001MA1999999083201MD1110101+9999ME1314799REMSYN070AAXX  02214 17205 42980 02003 10220 20066 38320 48479 51010 333 10025;
0192172050999992000070300004+38480+042300FM-12+166599999V0209999C000012200019N0300001N1+01801+00801999999ADDAA199000091GA1001+999999999GF100991001001999999001001MA1999999083201MD1410001+9999ME1314829REMSYN070AAXX  03004 17205 32980 00000 10180 20080 38320 48482 54000 333 10025;EQDQ01  00002PRCP99
0162172050999992000070303004+38480+042300FM-12+166599999V0209999C000012200019N0300001N1+01601+01051999999ADDGA1001+999999999GF100991001001999999001001MA1999999083201MD1410001+9999ME1314839REMSYN070AAXX  03034 17205 42980 00000 10160 20105 38320 48483 54000 333 10032;
0247172050999992000070306004+38480+042300FM-12+166599999V0209999C000012200019N0300001N1+02461+01061999999ADDAA199000091GA1001+999999999GF100991001001999999001001IA1019IA2999+01309KA1120N+01461MA1999999083201MD1410001+9999ME1314789REMSYN094AAXX  03064 17205 32980 00000 10246 20106 38320 48478 54000 333 20146 30013 50801 55106 92418;EQDQ01  00002PRCP99
0162172050999992000070309004+38480+042300FM-12+166599999V0200401N001012200019N0300001N1+02721+01341999999ADDGA1001+999999999GF100991001001999999001001MA1999999083101MD1810101+9999ME1314689REMSYN070AAXX  03094 17205 42980 00402 10272 20134 38310 48468 58010 333 10007;
0192172050999992000070312004+38480+042300FM-12+166599999V0200701N001012200019N0300001N1+03001+00811999999ADDAA199000091GA1001+999999999GF100991001001999999001001MA1999999083001MD1810101+9999ME1314579REMSYN070AAXX  03124 17205 32980 00702 10300 20081 38300 48457 58010 333 10001;EQDQ01  00002PRCP99
0174172050999992000070315004+38480+042300FM-12+166599999V0203201N001012200019N0300001N1+02941+01031999999ADDGA1021+012009089GF102991021011999999001001MA1999999082901MD1810101+9999ME1314479REMSYN082AAXX  03154 17205 42980 23202 10294 20103 38290 48447 58010 82100 333 82840 92418;
0223172050999992000070318004+38480+042300FM-12+166599999V0209999C000012200019N0300001N1+02401+00981999999ADDAA199000091GA1021+012009089GF102991021011012501001001KA1120M+03101MA1999999083001MD1210101+9999ME1314579REMSYN088AAXX  03184 17205 32680 20000 10240 20098 38300 48457 52010 82100 333 10310 82840 92418;EQDQ01  00002PRCP99
0162172050999992000070321004+38480+042300FM-12+166599999V0200701N001512200019N0300001N1+02201+01151999999ADDGA1001+999999999GF100991001001999999001001MA1999999083201MD1210201+9999ME1314799REMSYN070AAXX  03214 17205 42980 00703 10220 20115 38320 48479 52020 333 10019;
0192172050999992000070400004+38480+042300FM-12+166599999V0209999C000012200019N0300001N1+01801+01001999999ADDAA199000091GA1001+999999999GF100991001001999999001001MA1999999083201MD1410001+9999ME1314829REMSYN070AAXX  04004 17205 32980 00000 10180 20100 38320 48482 54000 333 10025;EQDQ01  00002PRCP99
0162172050999992000070403004+38480+042300FM-12+166599999V0209999C000012200019N0300001N1+01661+01191999999ADDGA1001+999999999GF100991001001999999001001MA1999999083201MD1410001+9999ME1314839REMSYN070AAXX  04034 17205 42980 00000 10166 20119 38320 48483 54000 333 10032;
0247172050999992000070406004+38480+042300FM-12+166599999V0200701N001512200019N0300001N1+02301+01341999999ADDAA199000091GA1001+999999999GF100991001001999999001001IA1019IA2999+01509KA1120N+01561MA1999999083201MD1410001+9999ME1314789REMSYN094AAXX  04064 17205 32980 00703 10230 20134 38320 48478 54000 333 20156 30015 50641 55102 92418;EQDQ01  00002PRCP99
0162172050999992000070409004+38480+042300FM-12+166599999V0200701N001512200019N0300001N1+02501+01371999999ADDGA1001+999999999GF100991001001999999001001MA1999999083201MD1410001+9999ME1314789REMSYN070AAXX  04094 17205 42980 00703 10250 20137 38320 48478 54000 333 10025;
0204172050999992000070412004+38480+042300FM-12+166599999V0200701N001512200019N0300001N1+02901+01361999999ADDAA199000091GA1021+012009089GF102991021011012501001001MA1999999083201MD1410001+9999ME1314739REMSYN082AAXX  04124 17205 32680 20703 10290 20136 38320 48473 54000 82100 333 82840 92418;EQDQ01  00002PRCP99
0162172050999992000070415004+38480+042300FM-12+166599999V0209999C000012200019N0300001N1+02661+01321999999ADDGA1001+999999999GF100991001001999999001001MA1999999083101MD1610101+9999ME1314669REMSYN070AAXX  04154 17205 42980 00000 10266 20132 38310 48466 56010 333 10026;
0211172050999992000070418004+38480+042300FM-12+166599999V0209999C000012200019N0300001N1+02201+00831999999ADDAA199000091GA1001+999999999GF100991001001999999001001KA1120M+03001MA1999999083101MD1410001+9999ME1314699REMSYN076AAXX  04184 17205 32980 00000 10220 20083 38310 48469 54000 333 10300 92418;EQDQ01  00002PRCP99
0192172050999992000070500004+38480+042300FM-12+166599999V0209999C000012200019N0300001N1+01801+01001999999ADDAA199000091GA1001+999999999GF100991001001999999001001MA1999999083201MD1410001+9999ME1314819REMSYN070AAXX  05004 17205 32980 00000 10180 20100 38320 48481 54000 333 10025;EQDQ01  00002PRCP99
0162172050999992000070503004+38480+042300FM-12+166599999V0209999C000012200019N0300001N1+01661+01191999999ADDGA1001+999999999GF100991001001999999001001MA1999999083201MD1410001+9999ME1314839REMSYN070AAXX  05034 17205 42980 00000 10166 20119 38320 48483 54000 333 10038;
0247172050999992000070506004+38480+042300FM-12+166599999V0200701N001512200019N0300001N1+02401+01421999999ADDAA199000091GA1001+999999999GF100991001001999999001001IA1019IA2999+01509KA1120N+01561MA1999999083401MD1210201+9999ME1314999REMSYN094AAXX  05064 17205 32980 00703 10240 20142 38340 48499 52020 333 20156 30015 50721 55103 92418;EQDQ01  00002PRCP99
0162172050999992000070509004+38480+042300FM-12+166599999V0200701N001512200019N0300001N1+02701+01651999999ADDGA1001+999999999GF100991001001999999001001MA1999999083401MD1410001+9999ME1314979REMSYN070AAXX  05094 17205 42980 00703 10270 20165 38340 48497 54000 333 10056;
0192172050999992000070512004+38480+042300FM-12+166599999V0200701N001512200019N0300001N1+02941+01031999999ADDAA199000091GA1001+999999999GF100991001001999999001001MA1999999083301MD1710101+9999ME1314859REMSYN070AAXX  05124 17205 32980 00703 10294 20103 38330 48485 57010 333 10037;EQDQ01  00002PRCP99
0162172050999992000070515004+38480+042300FM-12+166599999V0200401N001012200019N0300001N1+02801+01121999999ADDGA1001+999999999GF100991001001999999001001MA1999999083201MD1610101+9999ME1314759REMSYN070AAXX  05154 17205 42980 00402 10280 20112 38320 48475 56010 333 10038;
0211172050999992000070518004+38480+042300FM-12+166599999V0209999C000012200019N0300001N1+02301+01231999999ADDAA199000091GA1001+999999999GF100991001001999999001001KA1120M+03061MA1999999083201MD1410001+9999ME1314789REMSYN076AAXX  05184 17205 32980 00000 10230 20123 38320 48478 54000 333 10306 92418;EQDQ01  00002PRCP99
0162172050999992000070521004+38480+042300FM-12+166599999V0209999C000012200019N0300001N1+01961+01181999999ADDGA1001+999999999GF100991001001999999001001MA1999999083281MD1210081+9999ME1314919REMSYN070AAXX  05214 17205 42980 00000 10196 20118 38328 48491 52008 333 10141;
0192172050999992000070600004+38480+042300FM-12+166599999V0209999C000012200019N0300001N1+01761+01031999999ADDAA199000091GA1001+999999999GF100991001001999999001001MA1999999083301MD1110021+9999ME1314929REMSYN070AAXX  06004 17205 32980 00000 10176 20103 38330 48492 51002 333 10044;EQDQ01  00002PRCP99
0162172050999992000070603004+38480+042300FM-12+166599999V0209999C000012200019N0300001N1+01721+01051999999ADDGA1001+999999999GF100991001001999999001001MA1999999083401MD1210101+9999ME1315019REMSYN070AAXX  06034 17205 42980 00000 10172 20105 38340 48501 52010 333 10056;
0247172050999992000070606004+38480+042300FM-12+166599999V0200201N001512200019N0300001N1+02441+01331999999ADDAA199000091GA1001+999999999GF100991001001999999001001IA1019IA2999+01509KA1120N+01601MA1999999083501MD1110101+9999ME1315109REMSYN094AAXX  06064 17205 32980 00203 10244 20133 38350 48510 51010 333 20160 30015 50721 55105 92418;EQDQ01  00002PRCP99
0162172050999992000070609004+38480+042300FM-12+166599999V0200701N001012200019N0300001N1+02701+01281999999ADDGA1001+999999999GF100991001001999999001001MA1999999083501MD1410001+9999ME1315079REMSYN070AAXX  06094 17205 42980 00702 10270 20128 38350 48507 54000 333 10068;
0204172050999992000070612004+38480+042300FM-12+166599999V0200701N001012200019N0300001N1+02901+01261999999ADDAA199000091GA1021+012009089GF102991021011012501001001MA1999999083301MD1710201+9999ME1314909REMSYN082AAXX  06124 17205 32680 20702 10290 20126 38330 48490 57020 82100 333 82840 92418;EQDQ01  00002PRCP99
0174172050999992000070615004+38480+042300FM-12+166599999V0209999C000012200019N0300001N1+02821+01191999999ADDGA1021+012009089GF102991021011012501001001MA1999999083141MD1710161+9999ME1314659REMSYN082AAXX  06154 17205 42680 20000 10282 20119 38314 48465 57016 82100 333 82840 92418;
0211172050999992000070618004+38480+042300FM-12+166599999V0209999C000012200019N0300001N1+02401+00771999999ADDAA199000091GA1001+999999999GF100991001001999999001001KA1120M+03041MA1999999083201MD1110061+9999ME1314789REMSYN076AAXX  06184 17205 32980 00000 10240 20077 38320 48478 51006 333 10304 92418;EQDQ01  00002PRCP99
0162172050999992000070621004+38480+042300FM-12+166599999V0209999C000012200019N0300001N1+02201+00701999999ADDGA1001+999999999GF100991001001999999001001MA1999999083201MD1410001+9999ME1314789REMSYN070AAXX  06214 17205 42980 00000 10220 20070 38320 48478 54000 333 10019;
0192172050999992000070700004+38480+042300FM-12+166599999V0209999C000012200019N0300001N1+02001+00641999999ADDAA199000091GA1001+999999999GF100991001001999999001001MA1999999083201MD1410001+9999ME1314819REMSYN070AAXX  07004 17205 32980 00000 10200 20064 38320 48481 54000 333 10019;EQDQ01  00002PRCP99
0162172050999992000070703004+38480+042300FM-12+166599999V0209999C000012200019N0300001N1+01801+01001999999ADDGA1001+999999999GF100991001001999999001001MA1999999083201MD1410001+9999ME1314829REMSYN070AAXX  07034 17205 42980 00000 10180 20100 38320 48482 54000 333 10032;
0247172050999992000070706004+38480+042300FM-12+166599999V0209999C000012200019N0300001N1+02441+01331999999ADDAA199000091GA1001+999999999GF100991001001999999001001IA1019IA2999+01509KA1120N+01681MA1999999083201MD1410001+9999ME1314789REMSYN094AAXX  07064 17205 32980 00000 10244 20133 38320 48478 54000 333 20168 30015 50721 55104 92418;EQDQ01  00002PRCP99
0162172050999992000070709004+38480+042300FM-12+166599999V0200701N001512200019N0300001N1+02701+01191999999ADDGA1001+999999999GF100991001001999999001001MA1999999083201MD1410001+9999ME1314759REMSYN070AAXX  07094 17205 42980 00703 10270 20119 38320 48475 54000 333 10019;
0187172050999992000070712004+38480+042300FM-12+166599999V0200401N001012200019N0300001N1+02901+01261999999ADDAA199000091GF103991031011012501001001MA1999999083001MD1710201+9999ME1314539REMSYN081AAXX  07124 17205 32680 30402 10290 20126 38300 48453 57020 83100 333 3840 92418;EQDQ01  00002PRCP99
0174172050999992000070715004+38480+042300FM-12+166599999V0209999C000012200019N0300001N1+02701+01191999999ADDGA1031+012009089GF103991031011012501001001MA1999999082801MD1710201+9999ME1314319REMSYN082AAXX  07154 17205 42680 30000 10270 20119 38280 48431 57020 83100 333 83840 92418;
0223172050999992000070718004+38480+042300FM-12+166599999V0209999C000012200019N0300001N1+02301+01301999999ADDAA199000091GA1031+012009089GF103991031011012501001001KA1120M+03001MA1999999082801MD1410001+9999ME1314369REMSYN088AAXX  07184 17205 32680 30000 10230 20130 38280 48436 54000 83100 333 10300 83840 92418;EQDQ01  00002PRCP99
0162172050999992000070721004+38480+042300FM-12+166599999V0209999C000012200019N0300001N1+02041+01101999999ADDGA1001+999999999GF100991001001999999001001MA1999999082801MD1410001+9999ME1314349REMSYN070AAXX  07214 17205 42980 00000 10204 20110 38280 48434 54000 333 92418;
0192172050999992000070800004+38480+042300FM-12+166599999V0202001N001512200019N0300001N1+02301+00501999999ADDAA199000091GA1001+999999999GF100991001001999999001001MA1999999082801MD1410001+9999ME1314369REMSYN070AAXX  08004 17205 32980 02003 10230 20050 38280 48436 54000 333 92418;EQDQ01  00002PRCP99
0174172050999992000070803004+38480+042300FM-12+166599999V0209999C000012200019N0300001N1+01901+00811999999ADDGA1041+012009089GF104991041011012501001001MA1999999082801MD1410001+9999ME1314399REMSYN082AAXX  08034 17205 42680 40000 10190 20081 38280 48439 54000 84100 333 84840 92418;
0247172050999992000070806004+38480+042300FM-12+166599999V0202501N001512200019N0300001N1+02501+00911999999ADDAA199000091GA1001+999999999GF100991001001999999001001IA1019IA2999+01609KA1120N+01801MA1999999082901MD1110101+9999ME1314459REMSYN094AAXX  08064 17205 32980 02503 10250 20091 38290 48445 51010 333 20180 30016 50721 55104 92418;EQDQ01  00002PRCP99
0162172050999992000070809004+38480+042300FM-12+166599999V0202501N002112200019N0300001N1+02901+00701999999ADDGA1001+999999999GF100991001001999999001001MA1999999082901MD1410001+9999ME1314429REMSYN070AAXX  08094 17205 42980 02504 10290 20070 38290 48442 54000 333 92418;
0204172050999992000070812004+38480+042300FM-12+166599999V0202501N002612200019N0300001N1+03101+00791999999ADDAA199000091GA1021+012009089GF102991021011012501001001MA1999999082901MD1410001+9999ME1314409REMSYN082AAXX  08124 17205 32680 22505 10310 20079 38290 48440 54000 82100 333 82840 92418;EQDQ01  00002PRCP99
0162172050999992000070815004+38480+042300FM-12+166599999V0202501N002112200019N0300001N1+02961+00931999999ADDGA1001+999999999GF100991001001999999001001MA1999999082901MD1410001+9999ME1314429REMSYN070AAXX  08154 17205 42980 02504 10296 20093 38290 48442 54000 333 92418;
0211172050999992000070818004+38480+042300FM-12+166599999V0202701N001012200019N0300001N1+02501+00441999999ADDAA199000091GA1001+999999999GF100991001001999999001001KA1120M+03241MA1999999083001MD1210101+9999ME1314559REMSYN076AAXX  08184 17205 32980 02702 10250 20044 38300 48455 52010 333 10324 92418;EQDQ01  00002PRCP99
0162172050999992000070821004+38480+042300FM-12+166599999V0202701N001012200019N0300001N1+02161+00251999999ADDGA1001+999999999GF100991001001999999001001MA1999999083001MD1410001+9999ME1314589REMSYN070AAXX  08214 17205 42980 02702 10216 20025 38300 48458 54000 333 92418;
0192172050999992000070900004+38480+042300FM-12+166599999V0209999C000012200019N0300001N1+01621+00531999999ADDAA199000091GA1001+999999999GF100991001001999999001001MA1999999083001MD1410001+9999ME1314639REMSYN070AAXX  09004 17205 32980 00000 10162 20053 38300 48463 54000 333 10001;EQDQ01  00002PRCP99
0162172050999992000070903004+38480+042300FM-12+166599999V0209999C000012200019N0300001N1+01421+00481999999ADDGA1001+999999999GF100991001001999999001001MA1999999083041MD1410001+9999ME1314649REMSYN070AAXX  09034 17205 42980 00000 10142 20048 38304 48464 54000 333 10019;
0247172050999992000070906004+38480+042300FM-12+166599999V0209999C000012200019N0300001N1+02401+00771999999ADDAA199000091GA1001+999999999GF100991001001999999001001IA1019IA2999+01109KA1120N+01301MA1999999083101MD1110061+9999ME1314679REMSYN094AAXX  09064 17205 32980 00000 10240 20077 38310 48467 51006 333 20130 30011 50881 55102 92418;EQDQ01  00002PRCP99
0162172050999992000070909004+38480+042300FM-12+166599999V0200701N001012200019N0300001N1+02801+01041999999ADDGA1001+999999999GF100991001001999999001001MA1999999083101MD1410001+9999ME1314679REMSYN070AAXX  09094 17205 42980 00702 10280 20104 38310 48467 54000 333 10006;
0192172050999992000070912004+38480+042300FM-12+166599999V0200701N001512200019N0300001N1+02801+01121999999ADDAA199000091GA1001+999999999GF100991001001999999001001MA1999999083001MD1610101+9999ME1314549REMSYN070AAXX  09124 17205 32980 00703 10280 20112 38300 48454 56010 333 10014;EQDQ01  00002PRCP99
0162172050999992000070915004+38480+042300FM-12+166599999V0202901N001512200019N0300001N1+02901+00022999999ADDGA1001+999999999GF100991001001999999001001MA1999999082901MD1610101+9999ME1314439REMSYN070AAXX  09154 17205 42980 02903 10290 20002 38290 48443 56010 333 10002;
0211172050999992000070918004+38480+042300FM-12+166599999V0209999C000012200019N0300001N1+02301+00621999999ADDAA199000091GA1001+999999999GF100991001001999999001001KA1120M+03041MA1999999082901MD1410001+9999ME1314469REMSYN076AAXX  09184 17205 32980 00000 10230 20062 38290 48446 54000 333 10304 92418;EQDQ01  00002PRCP99
0162172050999992000070921004+38480+042300FM-12+166599999V0209999C000012200019N0300001N1+01701+00451999999ADDGA1001+999999999GF100991001001999999001001MA1999999083001MD1110101+9999ME1314619REMSYN070AAXX  09214 17205 42980 00000 10170 20045 38300 48461 51010 333 10008;
0192172050999992000071000004+38480+042300FM-12+166599999V0209999C000012200019N0300001N1+01501+00391999999ADDAA199000091GA1001+999999999GF100991001001999999001001MA1999999082901MD1610101+9999ME1314529REMSYN070AAXX  10004 17205 32980 00000 10150 20039 38290 48452 56010 333 10002;EQDQ01  00002PRCP99
0162172050999992000071003004+38480+042300FM-12+166599999V0209999C000012200019N0300001N1+01501+00631999999ADDGA1001+999999999GF100991001001999999001001MA1999999082901MD1410001+9999ME1314529REMSYN070AAXX  10034 17205 42980 00000 10150 20063 38290 48452 54000 333 10002;
0247172050999992000071006004+38480+042300FM-12+166599999V0209999C000012200019N0300001N1+02401+01171999999ADDAA199000091GA1001+999999999GF100991001001999999001001IA1019IA2999+01209KA1120N+01361MA1999999082901MD1410001+9999ME1314469REMSYN094AAXX  10064 17205 32980 00000 10240 20117 38290 48446 54000 333 20136 30012 50801 55103 92418;EQDQ01  00002PRCP99
0162172050999992000071009004+38480+042300FM-12+166599999V0200701N001512200019N0300001N1+02701+01261999999ADDGA1001+999999999GF100991001001999999001001MA1999999082801MD1610101+9999ME1314339REMSYN070AAXX  10094 17205 42980 00703 10270 20126 38280 48433 56010 333 92418;
0192172050999992000071012004+38480+042300FM-12+166599999V0200701N001012200019N0300001N1+02881+01421999999ADDAA199000091GA1001+999999999GF100991001001999999001001MA1999999082701MD1610101+9999ME1314229REMSYN070AAXX  10124 17205 32980 00702 10288 20142 38270 48422 56010 333 92418;EQDQ01  00002PRCP99
0162172050999992000071015004+38480+042300FM-12+166599999V0209999C000012200019N0300001N1+02961+00701999999ADDGA1001+999999999GF100991001001999999001001MA1999999082601MD1710101+9999ME1314099REMSYN070AAXX  10154 17205 42980 00000 10296 20070 38260 48409 57010 333 92418;
0211172050999992000071018004+38480+042300FM-12+166599999V0209999C000012200019N0300001N1+02601+00401999999ADDAA199000091GA1001+999999999GF100991001001999999001001KA1120M+03001MA1999999082701MD1210101+9999ME1314239REMSYN076AAXX  10184 17205 32980 00000 10260 20040 38270 48423 52010 333 10300 92418;EQDQ01  00002PRCP99
0162172050999992000071021004+38480+042300FM-12+166599999V0209999C000012200019N0300001N1+02001+00641999999ADDGA1001+999999999GF100991001001999999001001MA1999999082701MD1410001+9999ME1314299REMSYN070AAXX  10214 17205 42980 00000 10200 20064 38270 48429 54000 333 92418;
0192172050999992000071100004+38480+042300FM-12+166599999V0209999C000012200019N0300001N1+01901+00501999999ADDAA199000091GA1001+999999999GF100991001001999999001001MA1999999082801MD1210101+9999ME1314399REMSYN070AAXX  11004 17205 32980 00000 10190 20050 38280 48439 52010 333 92418;EQDQ01  00002PRCP99
0162172050999992000071103004+38480+042300FM-12+166599999V0209999C000012200019N0300001N1+01701+00451999999ADDGA1001+999999999GF100991001001999999001001MA1999999082801MD1410001+9999ME1314419REMSYN070AAXX  11034 17205 42980 00000 10170 20045 38280 48441 54000 333 92418;
0247172050999992000071106004+38480+042300FM-12+166599999V0200701N001512200019N0300001N1+02501+01191999999ADDAA199000091GA1001+999999999GF100991001001999999001001IA1019IA2999+01509KA1120N+01601MA1999999082941MD1210141+9999ME1314459REMSYN094AAXX  11064 17205 32980 00703 10250 20119 38294 48445 52014 333 20160 30015 50801 55102 92418;EQDQ01  00002PRCP99
0162172050999992000071109004+38480+042300FM-12+166599999V0200701N001512200019N0300001N1+02801+01281999999ADDGA1001+999999999GF100991001001999999001001MA1999999082901MD1710041+9999ME1314439REMSYN070AAXX  11094 17205 42980 00703 10280 20128 38290 48443 57004 333 92418;
0192172050999992000071112004+38480+042300FM-12+166599999V0200701N001012200019N0300001N1+03141+01221999999ADDAA199000091GA1001+999999999GF100991001001999999001001MA1999999082801MD1610101+9999ME1314299REMSYN070AAXX  11124 17205 32980 00702 10314 20122 38280 48429 56010 333 92418;EQDQ01  00002PRCP99
0162172050999992000071115004+38480+042300FM-12+166599999V0200701N001012200019N0300001N1+03001+00771999999ADDGA1001+999999999GF100991001001999999001001MA1999999082801MD1410001+9999ME1314319REMSYN070AAXX  11154 17205 42980 00702 10300 20077 38280 48431 54000 333 92418;
0211172050999992000071118004+38480+042300FM-12+166599999V0209999C000012200019N0300001N1+02541+00611999999ADDAA199000091GA1001+999999999GF100991001001999999001001KA1120M+03241MA1999999082801MD1410001+9999ME1314349REMSYN076AAXX  11184 17205 32980 00000 10254 20061 38280 48434 54000 333 10324 92418;EQDQ01  00002PRCP99
0162172050999992000071121004+38480+042300FM-12+166599999V0209999C000012200019N0300001N1+02241+00891999999ADDGA1001+999999999GF100991001001999999001001MA1999999083001MD1210201+9999ME1314589REMSYN070AAXX  11214 17205 42980 00000 10224 20089 38300 48458 52020 333 92419;
0192172050999992000071200004+38480+042300FM-12+166599999V0209999C000012200019N0300001N1+01901+00931999999ADDAA199000091GA1001+999999999GF100991001001999999001001MA1999999083001MD1410001+9999ME1314609REMSYN070AAXX  12004 17205 32980 00000 10190 20093 38300 48460 54000 333 92418;EQDQ01  00002PRCP99
0162172050999992000071203004+38480+042300FM-12+166599999V0209999C000012200019N0300001N1+01721+01051999999ADDGA1001+999999999GF100991001001999999001001MA1999999083001MD1410001+9999ME1314619REMSYN070AAXX  12034 17205 42980 00000 10172 20105 38300 48461 54000 333 10001;
0247172050999992000071206004+38480+042300FM-12+166599999V0209999C000012200019N0300001N1+02501+01311999999ADDAA199000091GA1001+999999999GF100991001001999999001001IA1019IA2999+01509KA1120N+01601MA1999999083101MD1410001+9999ME1314679REMSYN094AAXX  12064 17205 32980 00000 10250 20131 38310 48467 54000 333 20160 30015 50721 55105 92418;EQDQ01  00002PRCP99
0162172050999992000071209004+38480+042300FM-12+166599999V0200701N001012200019N0300001N1+02841+01371999999ADDGA1001+999999999GF100991001001999999001001MA1999999083101MD1410001+9999ME1314679REMSYN070AAXX  12094 17205 42980 00702 10284 20137 38310 48467 54000 333 10006;
0192172050999992000071212004+38480+042300FM-12+166599999V0200701N001012200019N0300001N1+03101+01531999999ADDAA199000091GA1001+999999999GF100991001001999999001001MA1999999083101MD1410001+9999ME1314679REMSYN070AAXX  12124 17205 32980 00702 10310 20153 38310 48467 54000 333 10006;EQDQ01  00002PRCP99
0162172050999992000071215004+38480+042300FM-12+166599999V0209999C000012200019N0300001N1+02901+00701999999ADDGA1001+999999999GF100991001001999999001001MA1999999083001MD1810101+9999ME1314579REMSYN070AAXX  12154 17205 42980 00000 10290 20070 38300 48457 58010 333 10007;
0211172050999992000071218004+38480+042300FM-12+166599999V0209999C000012200019N0300001N1+02401+01171999999ADDAA199000091GA1001+999999999GF100991001001999999001001KA1120M+03201MA1999999083001MD1410001+9999ME1314579REMSYN076AAXX  12184 17205 32980 00000 10240 20117 38300 48457 54000 333 10320 92418;EQDQ01  00002PRCP99
0162172050999992000071221004+38480+042300FM-12+166599999V0200201N001512200019N0300001N1+02361+01251999999ADDGA1001+999999999GF100991001001999999001001MA1999999083201MD1210201+9999ME1314789REMSYN070AAXX  12214 17205 42980 00203 10236 20125 38320 48478 52020 333 10012;
0337172050999992000071300004+38480+042300FM-12+166599999V0209999C000012200019N0300001N1+01961+01081999999ADDAA199000091AJ199999999999999GA1001+999999999GF100991001001999999001001IA1299KA1120M+99999KA2120N+99999MA1999999083201MD1410001+9999ME1314819REMSYN118AAXX  13004 17205 32980 00000 10196 20108 38320 48481 54000 333 10018 17210 32975 00903 10300 20075 39020 49941 52005;EQDQ01  00002PRCP99Q02 +00183ATMM  Q03 +00753ATMM  Q04  09412SNDP  
0162172050999992000071303004+38480+042300FM-12+166599999V0209999C000012200019N0300001N1+01921+00711999999ADDGA1001+999999999GF100991001001999999001001MA1999999083201MD1410001+9999ME1314819REMSYN070AAXX  13034 17205 42980 00000 10192 20071 38320 48481 54000 333 10025;
0247172050999992000071306004+38480+042300FM-12+166599999V0200201N004612200019N0300001N1+02401+01361999999ADDAA199000091GA1001+999999999GF100991001001999999001001IA1019IA2999+01609KA1120N+01841MA1999999083201MD1410001+9999ME1314789REMSYN094AAXX  13064 17205 32980 00209 10240 20136 38320 48478 54000 333 20184 30016 50641 55102 92428;EQDQ01  00002PRCP99
0162172050999992000071309004+38480+042300FM-12+166599999V0200701N003612200019N0300001N1+02601+01431999999ADDGA1001+999999999GF100991001001999999001001MA1999999083201MD1410001+9999ME1314779REMSYN070AAXX  13094 17205 42980 00707 10260 20143 38320 48477 54000 333 10019;
0192172050999992000071312004+38480+042300FM-12+166599999V0200701N002112200019N0300001N1+02901+01451999999ADDAA199000091GA1001+999999999GF100991001001999999001001MA1999999083101MD1610101+9999ME1314639REMSYN070AAXX  13124 17205 32980 00704 10290 20145 38310 48463 56010 333 10013;EQDQ01  00002PRCP99
0162172050999992000071315004+38480+042300FM-12+166599999V0200401N001512200019N0300001N1+02801+01121999999ADDGA1001+999999999GF100991001001999999001001MA1999999083101MD1410001+9999ME1314639REMSYN070AAXX  13154 17205 42980 00403 10280 20112 38310 48463 54000 333 10013;
0211172050999992000071318004+38480+042300FM-12+166599999V0209999C000012200019N0300001N1+02301+00971999999ADDAA199000091GA1001+999999999GF100991001001999999001001KA1120M+03101MA1999999083001MD1610101+9999ME1314579REMSYN076AAXX  13184 17205 32980 00000 10230 20097 38300 48457 56010 333 10310 92418;EQDQ01  00002PRCP99
0162172050999992000071321004+38480+042300FM-12+166599999V0209999C000012200019N0300001N1+02041+01101999999ADDGA1001+999999999GF100991001001999999001001MA1999999083001MD1410001+9999ME1314609REMSYN070AAXX  13214 17205 42980 00000 10204 20110 38300 48460 54000 333 10008;
0192172050999992000071400004+38480+042300FM-12+166599999V0209999C000012200019N0300001N1+01901+00931999999ADDAA199000091GA1001+999999999GF100991001001999999001001MA1999999083001MD1410001+9999ME1314609REMSYN070AAXX  14004 17205 32980 00000 10190 20093 38300 48460 54000 333 10001;EQDQ01  00002PRCP99
0162172050999992000071403004+38480+042300FM-12+166599999V0209999C000012200019N0300001N1+01721+00941999999ADDGA1001+999999999GF100991001001999999001001MA1999999083001MD1410001+9999ME1314619REMSYN070AAXX  14034 17205 42980 00000 10172 20094 38300 48461 54000 333 10008;
0247172050999992000071406004+38480+042300FM-12+166599999V0200701N001012200019N0300001N1+02501+01371999999ADDAA199000091GA1001+999999999GF100991001001999999001001IA1019IA2999+01509KA1120N+01601MA1999999083001MD1410001+9999ME1314559REMSYN094AAXX  14064 17205 32980 00702 10250 20137 38300 48455 54000 333 20160 30015 50961 55104 92418;EQDQ01  00002PRCP99
0162172050999992000071409004+38480+042300FM-12+166599999V0200701N001512200019N0300001N1+02761+01691999999ADDGA1001+999999999GF100991001001999999001001MA1999999083001MD1410001+9999ME1314549REMSYN070AAXX  14094 17205 42980 00703 10276 20169 38300 48454 54000 333 10001;
0192172050999992000071412004+38480+042300FM-12+166599999V0200701N001012200019N0300001N1+02861+01711999999ADDAA199000091GA1001+999999999GF100991001001999999001001MA1999999083001MD1410001+9999ME1314549REMSYN070AAXX  14124 17205 32980 00702 10286 20171 38300 48454 54000 333 10001;EQDQ01  00002PRCP99
0162172050999992000071415004+38480+042300FM-12+166599999V0202201N001012200019N0300001N1+03101+00931999999ADDGA1001+999999999GF100991001001999999001001MA1999999082901MD1710101+9999ME1314409REMSYN070AAXX  14154 17205 42980 02202 10310 20093 38290 48440 57010 333 92418;
0211172050999992000071418004+38480+042300FM-12+166599999V0202701N001012200019N0300001N1+02681+00541999999ADDAA199000091GA1001+999999999GF100991001001999999001001KA1120M+03241MA1999999082901MD1410001+9999ME1314459REMSYN076AAXX  14184 17205 32980 02702 10268 20054 38290 48445 54000 333 10324 92418;EQDQ01  00002PRCP99
0162172050999992000071421004+38480+042300FM-12+166599999V0209999C000012200019N0300001N1+02001+00411999999ADDGA1001+999999999GF100991001001999999001001MA1999999083001MD1110101+9999ME1314499REMSYN070AAXX  14214 17205 42980 00000 10200 20041 38300 48449 51010 333 10001;
0192172050999992000071500004+38480+042300FM-12+166599999V0209999C000012200019N0300001N1+01761+00631999999ADDAA199000091GA1001+999999999GF100991001001999999001001MA1999999083001MD1410001+9999ME1314619REMSYN070AAXX  15004 17205 32980 00000 10176 20063 38300 48461 54000 333 10008;EQDQ01  00002PRCP99
0162172050999992000071503004+38480+042300FM-12+166599999V0209999C000012200019N0300001N1+01681+00891999999ADDGA1001+999999999GF100991001001999999001001MA1999999083101MD1210101+9999ME1314739REMSYN070AAXX  15034 17205 42980 00000 10168 20089 38310 48473 52010 333 10013;
0247172050999992000071506004+38480+042300FM-12+166599999V0209999C000012200019N0300001N1+02521+01291999999ADDAA199000091GA1001+999999999GF100991001001999999001001IA1019IA2999+01409KA1120N+01501MA1999999083101MD1410001+9999ME1314669REMSYN094AAXX  15064 17205 32980 00000 10252 20129 38310 48466 54000 333 20150 30014 50721 55103 92418;EQDQ01  00002PRCP99
0174172050999992000071509004+38480+042300FM-12+166599999V0200701N001012200019N0300001N1+02901+01621999999ADDGA1021+012009089GF102991021011012501001001MA1999999083101MD1410001+9999ME1314669REMSYN082AAXX  15094 17205 42680 20702 10290 20162 38310 48466 54000 82100 333 82840 92418;
0192172050999992000071512004+38480+042300FM-12+166599999V0200701N001012200019N0300001N1+03201+01401999999ADDAA199000091GA1001+999999999GF100991001001999999001001MA1999999083001MD1810101+9999ME1314569REMSYN070AAXX  15124 17205 32980 00702 10320 20140 38300 48456 58010 333 92418;EQDQ01  00002PRCP99
0162172050999992000071515004+38480+042300FM-12+166599999V0202001N001512200019N0300001N1+03201+00001999999ADDGA1001+999999999GF100991001001999999001001MA1999999083001MD1410001+9999ME1314519REMSYN070AAXX  15154 17205 42980 02003 10320 20000 38300 48451 54000 333 10001;
0227172050999992000071518004+38480+042300FM-12+166599999V0202201N001012200019N0300001N1+02961-01602999999ADDAA199000091GA1001+999999999GF100991001001999999001001KA1120M+03501MA1999999083101MD1210101+9999ME1314639REMSYN076AAXX  15184 17205 32980 02202 10296 21160 38310 48463 52010 333 10350 92418;EQDQ01-001603ATOD  Q02  00002PRCP99
0192172050999992000071600004+38480+042300FM-12+166599999V0209999C000012200019N0300001N1+01941-00761999999ADDAA199000091GA1001+999999999GF100991001001999999001001MA1999999083101MD1410001+9999ME1314709REMSYN070AAXX  16004 17205 32980 00000 10194 21076 38310 48470 54000 333 10000;EQDQ01  00002PRCP99
0162172050999992000071603004+38480+042300FM-12+166599999V0209999C000012200019N0300001N1+01661-00281999999ADDGA1001+999999999GF100991001001999999001001MA1999999083101MD1410001+9999ME1314739REMSYN070AAXX  16034 17205 42980 00000 10166 21028 38310 48473 54000 333 10013;
0247172050999992000071606004+38480+042300FM-12+166599999V0209999C000012200019N0300001N1+02601+00351999999ADDAA199000091GA1001+999999999GF100991001001999999001001IA1019IA2999+01509KA1120N+01601MA1999999083201MD1110101+9999ME1314779REMSYN094AAXX  16064 17205 32980 00000 10260 20035 38320 48477 51010 333 20160 30015 50801 55100 92418;EQDQ01  00002PRCP99
0162172050999992000071609004+38480+042300FM-12+166599999V0200701N001512200019N0300001N1+03001+00671999999ADDGA1001+999999999GF100991001001999999001001MA1999999083201MD1410001+9999ME1314749REMSYN070AAXX  16094 17205 42980 00703 10300 20067 38320 48474 54000 333 10012;
0208172050999992000071612004+38480+042300FM-12+166599999V0202001N002612200019N0300001N1+03381-01262999999ADDAA199000091GA1001+999999999GF100991001001999999001001MA1999999083201MD1410001+9999ME1314719REMSYN070AAXX  16124 17205 32980 02005 10338 21126 38320 48471 54000 333 10006;EQDQ01-001263ATOD  Q02  00002PRCP99
0162172050999992000071615004+38480+042300FM-12+166599999V0202001N002112200019N0300001N1+03301-00511999999ADDGA1001+999999999GF100991001001999999001001MA1999999083201MD1410001+9999ME1314719REMSYN070AAXX  16154 17205 42980 02004 10330 21051 38320 48471 54000 333 10019;
0211172050999992000071618004+38480+042300FM-12+166599999V0209999C000012200019N0300001N1+02661-00021999999ADDAA199000091GA1001+999999999GF100991001001999999001001KA1120M+03601MA1999999083201MD1410001+9999ME1314779REMSYN076AAXX  16184 17205 32980 00000 10266 21002 38320 48477 54000 333 10360 92418;EQDQ01  00002PRCP99
0162172050999992000071621004+38480+042300FM-12+166599999V0209999C000012200019N0300001N1+02101-00311999999ADDGA1001+999999999GF100991001001999999001001MA1999999083201MD1410001+9999ME1314799REMSYN070AAXX  16214 17205 42980 00000 10210 21031 38320 48479 54000 333 10012;
0192172050999992000071700004+38480+042300FM-12+166599999V0209999C000012200019N0300001N1+01801-00211999999ADDAA199000091GA1001+999999999GF100991001001999999001001MA1999999083301MD1210101+9999ME1314929REMSYN070AAXX  17004 17205 32980 00000 10180 21021 38330 48492 52010 333 10024;EQDQ01  00002PRCP99
0162172050999992000071703004+38480+042300FM-12+166599999V0209999C000012200019N0300001N1+01661-00281999999ADDGA1001+999999999GF100991001001999999001001MA1999999083301MD1410001+9999ME1314939REMSYN070AAXX  17034 17205 42980 00000 10166 21028 38330 48493 54000 333 10031;
0247172050999992000071706004+38480+042300FM-12+166599999V0209999C000012200019N0300001N1+02501+00822999999ADDAA199000091GA1001+999999999GF100991001001999999001001IA1019IA2999+01509KA1120N+01601MA1999999083401MD1210101+9999ME1314989REMSYN094AAXX  17064 17205 32980 00000 10250 20082 38340 48498 52010 333 20160 30015 51001 55098 92418;EQDQ01  00002PRCP99
0162172050999992000071709004+38480+042300FM-12+166599999V0200701N001012200019N0300001N1+03101+00251999999ADDGA1001+999999999GF100991001001999999001001MA1999999083401MD1410001+9999ME1314949REMSYN070AAXX  17094 17205 42980 00702 10310 20025 38340 48494 54000 333 10036;
0192172050999992000071712004+38480+042300FM-12+166599999V0200701N001012200019N0300001N1+03401-00791999999ADDAA199000091GA1001+999999999GF100991001001999999001001MA1999999083301MD1710101+9999ME1314829REMSYN070AAXX  17124 17205 32980 00702 10340 21079 38330 48482 57010 333 10024;EQDQ01  00002PRCP99
0174172050999992000071715004+38480+042300FM-12+166599999V0209999C000012200019N0300001N1+03201-00401999999ADDGA1021+012009089GF102991021011012501001001MA1999999083101MD1710201+9999ME1314629REMSYN082AAXX  17154 17205 42680 20000 10320 21040 38310 48462 57020 82100 333 82840 92418;
0223172050999992000071718004+38480+042300FM-12+166599999V0209999C000012200019N0300001N1+02721+00401999999ADDAA199000091GA1021+012009089GF102991021011012501001001KA1120M+03601MA1999999083101MD1410001+9999ME1314659REMSYN088AAXX  17184 17205 32680 20000 10272 20040 38310 48465 54000 82100 333 10360 82840 92418;EQDQ01  00002PRCP99
0202172050999992000071803004+38480+042300FM-12+166599999V0202901N001512200019N0300001N1+02321+00601999999ADDAY161031AY221031GA1031+012009089GF103991031011012501001001MA1999999083101MD1410001+9999ME1314679MW1251REMSYN088AAXX  18034 17205 41680 32903 10232 20060 38310 48467 54000 72562 83100 333 83840 92418;
0302172050999992000071806004+38480+042300FM-12+166599999V0200701N001010105019N0200001N1+02701+00981999999ADDAA112000391AY181061AY211061GA1051+010509089GA2071+027009039GF107991051021012501071001IA1019IA2999+01809KA1120N+01961MA1999999083101MD1410001+9999ME1314659MW1021REMSYN130AAXX  18064 17205 11670 70702 10270 20098 38310 48465 54000 69932 70281 85270 333 20196 30018 51001 55097 70003 85835 87359 92418;
0174172050999992000071809004+38480+042300FM-12+166599999V0200701N001512200019N0300001N1+03041+00971999999ADDGA1041+012009089GF104991041021012501001001MA1999999083101MD1410001+9999ME1314639REMSYN082AAXX  18094 17205 42680 40703 10304 20097 38310 48463 54000 84200 333 84840 92418;
0185172050999992000071812004+38480+042300FM-12+166599999V0200701N001012200019N0300001N1+03041+00971999999ADDAA199000021GA1041+012009089GF104991041021012501001001MA1999999083001MD1810101+9999ME1314539REMSYN082AAXX  18124 17205 32680 40702 10304 20097 38300 48453 58010 84200 333 84840 92418;
0174172050999992000071815004+38480+042300FM-12+166599999V0202001N001510120019N0300001N1+02801+00681999999ADDGA1051+012009089GF105991051021012501001001MA1999999083001MD1410001+9999ME1314539REMSYN082AAXX  18154 17205 42680 52003 10280 20068 38300 48453 54000 85200 333 85840 92418;
0223172050999992000071818004+38480+042300FM-12+166599999V0202001N001510120019N0300001N1+02561+00871999999ADDAA199000091GA1051+012009089GF105991051021012501001001KA1120M+03201MA1999999083001MD1410001+9999ME1314559REMSYN088AAXX  18184 17205 32680 52003 10256 20087 38300 48455 54000 85200 333 10320 85840 92418;EQDQ01  00002PRCP99
0174172050999992000071821004+38480+042300FM-12+166599999V0200201N002110120019N0300001N1+02501+00691999999ADDGA1051+012009089GF105991051021012501001001MA1999999083001MD1410001+9999ME1314559REMSYN082AAXX  18214 17205 42680 50204 10250 20069 38300 48455 54000 85200 333 85840 92418;
0204172050999992000071900004+38480+042300FM-12+166599999V0209999C000010120019N0300001N1+02201+00911999999ADDAA199000091GA1051+012009089GF105991051011012501001001MA1999999083001MD1410001+9999ME1314589REMSYN082AAXX  19004 17205 32680 50000 10220 20091 38300 48458 54000 85100 333 85840 92418;EQDQ01  00002PRCP99
0196172050999992000071903004+38480+042300FM-12+166599999V0200201N001510120019N0250001N1+02301+00971999999ADDGA1051+012009089GA2071+027009039GF107991051021012501071001MA1999999083001MD1410001+9999ME1314579REMSYN088AAXX  19034 17205 42675 70203 10230 20097 38300 48457 54000 85270 333 85840 87359 92417;
0259172050999992000071906004+38480+042300FM-12+166599999V0200701N001510120019N0300001N1+02501+01111999999ADDAA199000091GA1051+012009089GF105991051011012501001001IA1019IA2999+01909KA1120N+02061MA1999999083001MD1410001+9999ME1314559REMSYN106AAXX  19064 17205 32680 50703 10250 20111 38300 48455 54000 85100 333 20206 30019 50881 55059 85840 92418;EQDQ01  00002PRCP99
0174172050999992000071909004+38480+042300FM-12+166599999V0200701N003112200019N0300001N1+02761+01271999999ADDGA1031+012009089GF103991031011012501001001MA1999999083001MD1410001+9999ME1314549REMSYN082AAXX  19094 17205 42680 30706 10276 20127 38300 48454 54000 83100 333 83840 92418;
0204172050999992000071912004+38480+042300FM-12+166599999V0200701N002110120019N0300001N1+02841+01221999999ADDAA199000091GA1051+012009089GF105991051021012501001001MA1999999082901MD1710101+9999ME1314439REMSYN082AAXX  19124 17205 32680 50704 10284 20122 38290 48443 57010 85200 333 85840 92418;EQDQ01  00002PRCP99
0174172050999992000071915004+38480+042300FM-12+166599999V0209999C000010120019N0300001N1+02861+01001999999ADDGA1051+012009089GF105991051021012501001001MA1999999082801MD1610101+9999ME1314339REMSYN082AAXX  19154 17205 42680 50000 10286 20100 38280 48433 56010 85200 333 85840 92418;
0223172050999992000071918004+38480+042300FM-12+166599999V0200201N002112200019N0300001N1+02441+01151999999ADDAA199000091GA1031+012009089GF103991031011012501001001KA1120M+03021MA1999999082901MD1110101+9999ME1314469REMSYN088AAXX  19184 17205 32680 30204 10244 20115 38290 48446 51010 83100 333 10302 83840 92418;EQDQ01  00002PRCP99
0162172050999992000071921004+38480+042300FM-12+166599999V0209999C000012200019N0300001N1+02201+00911999999ADDGA1001+999999999GF100991001001999999001001MA1999999082961MD1110061+9999ME1314589REMSYN070AAXX  19214 17205 42980 00000 10220 20091 38296 48458 51006 333 92418;
0192172050999992000072000004+38480+042300FM-12+166599999V0209999C000012200019N0300001N1+02001+00931999999ADDAA199000091GA1001+999999999GF100991001001999999001001MA1999999082961MD1410001+9999ME1314609REMSYN070AAXX  20004 17205 32980 00000 10200 20093 38296 48460 54000 333 92418;EQDQ01  00002PRCP99
0162172050999992000072003004+38480+042300FM-12+166599999V0209999C000012200019N0300001N1+01901+00931999999ADDGA1001+999999999GF100991001001999999001001MA1999999082961MD1410001+9999ME1314609REMSYN070AAXX  20034 17205 42980 00000 10190 20093 38296 48460 54000 333 92418;
0258172050999992000072006004+38480+042300FM-12+166599999V0209999C000012200019N0300001N1+02501+01111999999ADDAA199000091GA1031+012009089GF103991031011012501001001IA1019IA2999+01609KA1120N+01701MA1999999083001MD1110041+9999ME1314559REMSYN105AAXX  20064 17205 32680 30000 10250 20111 38300 48455 51004 83100 333 20170 30016 0641 55067 83840 92418;EQDQ01  00002PRCP99
0174172050999992000072009004+38480+042300FM-12+166599999V0200701N002112200019N0300001N1+02861+01401999999ADDGA1031+012009089GF103991031011012501001001MA1999999083001MD1410001+9999ME1314549REMSYN082AAXX  20094 17205 42680 30704 10286 20140 38300 48454 54000 83100 333 83840 92418;
0220172050999992000072012004+38480+042300FM-12+166599999V0202001N002112200019N0300001N1+03221-00032999999ADDAA199000091GA1031+012009089GF103991031011012501001001MA1999999083001MD1410001+9999ME1314519REMSYN082AAXX  20124 17205 32680 32004 10322 21003 38300 48451 54000 83100 333 83840 92418;EQDQ01-000033ATOD  Q02  00002PRCP99
0174172050999992000072015004+38480+042300FM-12+166599999V0202001N001512200019N0300001N1+02981-00321999999ADDGA1021+012009089GF102991021011012501001001MA1999999083001MD1410001+9999ME1314539REMSYN082AAXX  20154 17205 42680 22003 10298 21032 38300 48453 54000 82100 333 82840 92418;
0211172050999992000072018004+38480+042300FM-12+166599999V0202701N001012200019N0300001N1+02561-00241999999ADDAA199000091GA1001+999999999GF100991001001999999001001KA1120M+03401MA1999999083201MD1110201+9999ME1314779REMSYN076AAXX  20184 17205 32980 02702 10256 21024 38320 48477 51020 333 10340 92418;EQDQ01  00002PRCP99
0162172050999992000072021004+38480+042300FM-12+166599999V0202201N001012200019N0300001N1+02401+00101999999ADDGA1001+999999999GF100991001001999999001001MA1999999083261MD1210061+9999ME1314899REMSYN070AAXX  20214 17205 42980 02202 10240 20010 38326 48489 52006 333 10019;
0192172050999992000072100004+38480+042300FM-12+166599999V0209999C000012200019N0300001N1+01861+00021999999ADDAA199000091GA1001+999999999GF100991001001999999001001MA1999999083301MD1210041+9999ME1314929REMSYN070AAXX  21004 17205 32980 00000 10186 20002 38330 48492 52004 333 10031;EQDQ01  00002PRCP99
0162172050999992000072103004+38480+042300FM-12+166599999V0209999C000012200019N0300001N1+01621+00531999999ADDGA1001+999999999GF100991001001999999001001MA1999999083401MD1210101+9999ME1315049REMSYN070AAXX  21034 17205 42980 00000 10162 20053 38340 48504 52010 333 10056;
0247172050999992000072106004+38480+042300FM-12+166599999V0209999C000012200019N0300001N1+02341+00681999999ADDAA199000091GA1001+999999999GF100991001001999999001001IA1019IA2999+01409KA1120N+01501MA1999999083401MD1410001+9999ME1314999REMSYN094AAXX  21064 17205 32980 00000 10234 20068 38340 48499 54000 333 20150 30014 50801 55093 92418;EQDQ01  00002PRCP99
0162172050999992000072109004+38480+042300FM-12+166599999V0200701N001012200019N0300001N1+02921+01251999999ADDGA1001+999999999GF100991001001999999001001MA1999999083401MD1410001+9999ME1314979REMSYN070AAXX  21094 17205 42980 00702 10292 20125 38340 48497 54000 333 10030;
0192172050999992000072112004+38480+042300FM-12+166599999V0200701N001012200019N0300001N1+03201+00851999999ADDAA199000091GA1001+999999999GF100991001001999999001001MA1999999083301MD1810101+9999ME1314899REMSYN070AAXX  21124 17205 32980 00702 10320 20085 38330 48489 58010 333 10031;EQDQ01  00002PRCP99
0162172050999992000072115004+38480+042300FM-12+166599999V0202501N002612200019N0300001N1+03001-00462999999ADDGA1001+999999999GF100991001001999999001001MA1999999083301MD1410001+9999ME1314859REMSYN070AAXX  21154 17205 42980 02505 10300 21046 38330 48485 54000 333 10044;
0211172050999992000072118004+38480+042300FM-12+166599999V0209999C000012200019N0300001N1+02561-00251999999ADDAA199000091GA1001+999999999GF100991001001999999001001KA1120M+03361MA1999999083501MD1210201+9999ME1315089REMSYN076AAXX  21184 17205 32980 00000 10256 21025 38350 48508 52020 333 10336 92418;EQDQ01  00002PRCP99
0162172050999992000072121004+38480+042300FM-12+166599999V0209999C000012200019N0300001N1+02101-00301999999ADDGA1001+999999999GF100991001001999999001001MA1999999083501MD1410001+9999ME1315119REMSYN070AAXX  21214 17205 42980 00000 10210 21030 38350 48511 54000 333 10055;
0192172050999992000072200004+38480+042300FM-12+166599999V0209999C000012200019N0300001N1+01801+00091999999ADDAA199000091GA1001+999999999GF100991001001999999001001MA1999999083501MD1410001+9999ME1315139REMSYN070AAXX  22004 17205 32980 00000 10180 20009 38350 48513 54000 333 10055;EQDQ01  00002PRCP99
0162172050999992000072203004+38480+042300FM-12+166599999V0209999C000012200019N0300001N1+01621+00291999999ADDGA1001+999999999GF100991001001999999001001MA1999999083501MD1410001+9999ME1315149REMSYN070AAXX  22034 17205 42980 00000 10162 20029 38350 48514 54000 333 10068;
0247172050999992000072206004+38480+042300FM-12+166599999V0209999C000012200019N0300001N1+02501+00681999999ADDAA199000091GA1001+999999999GF100991001001999999001001IA1019IA2999+01409KA1120N+01501MA1999999083601MD1210101+9999ME1315199REMSYN094AAXX  22064 17205 32980 00000 10250 20068 38360 48519 52010 333 20150 30014 50961 55096 92418;EQDQ01  00002PRCP99
0174172050999992000072209004+38480+042300FM-12+166599999V0200701N001012200019N0300001N1+03001+00501999999ADDGA1031+012009089GF103991031011012501001001MA1999999083601MD1410001+9999ME1315179REMSYN082AAXX  22094 17205 42680 30702 10300 20050 38360 48517 54000 83100 333 83840 92418;
0192172050999992000072212004+38480+042300FM-12+166599999V0200701N001512200019N0300001N1+03101+00691999999ADDAA199000091GA1001+999999999GF100991001001999999001001MA1999999083501MD1610101+9999ME1315069REMSYN070AAXX  22124 17205 32980 00703 10310 20069 38350 48506 56010 333 10055;EQDQ01  00002PRCP99
0174172050999992000072215004+38480+042300FM-12+166599999V0200701N001512200019N0300001N1+03101+00691999999ADDGA1031+012009089GF103991031011012501001001MA1999999083401MD1610101+9999ME1314949REMSYN082AAXX  22154 17205 42680 30703 10310 20069 38340 48494 56010 83100 333 83840 92418;
0211172050999992000072218004+38480+042300FM-12+166599999V0209999C000012200019N0300001N1+02501+00801999999ADDAA199000091GA1001+999999999GF100991001001999999001001KA1120M+03201MA1999999083401MD1410001+9999ME1314989REMSYN076AAXX  22184 17205 32980 00000 10250 20080 38340 48498 54000 333 10320 92418;EQDQ01  00002PRCP99
0162172050999992000072221004+38480+042300FM-12+166599999V0209999C000012200019N0300001N1+02321+00601999999ADDGA1001+999999999GF100991001001999999001001MA1999999083401MD1410001+9999ME1314989REMSYN070AAXX  22214 17205 42980 00000 10232 20060 38340 48498 54000 333 10030;
0192172050999992000072300004+38480+042300FM-12+166599999V0209999C000012200019N0300001N1+01921+00711999999ADDAA199000091GA1001+999999999GF100991001001999999001001MA1999999083401MD1410001+9999ME1315019REMSYN070AAXX  23004 17205 32980 00000 10192 20071 38340 48501 54000 333 10043;EQDQ01  00002PRCP99
0174172050999992000072303004+38480+042300FM-12+166599999V0209999C000012200019N0300001N1+01801+00591999999ADDGA1041+012009089GF104991041021012501001001MA1999999083401MD1410001+9999ME1315039REMSYN082AAXX  23034 17205 42680 40000 10180 20059 38340 48503 54000 84200 333 84840 92418;
0259172050999992000072306004+38480+042300FM-12+166599999V0209999C000012200019N0300001N1+02361+00801999999ADDAA199000091GA1031+012009089GF103991031011012501001001IA1019IA2999+01609KA1120N+01661MA1999999083501MD1110101+9999ME1315109REMSYN106AAXX  23064 17205 32680 30000 10236 20080 38350 48510 51010 83100 333 20166 30016 50721 55097 83840 92418;EQDQ01  00002PRCP99
0162172050999992000072309004+38480+042300FM-12+166599999V0200701N001512200019N0300001N1+03001+01161999999ADDGA1001+999999999GF100991001001999999001001MA1999999083501MD1410001+9999ME1315069REMSYN070AAXX  23094 17205 42980 00703 10300 20116 38350 48506 54000 333 10042;
0204172050999992000072312004+38480+042300FM-12+166599999V0200201N002112200019N0300001N1+03341+00181999999ADDAA199000091GA1021+012009089GF102991021011012501001001MA1999999083401MD1710101+9999ME1314939REMSYN082AAXX  23124 17205 32680 20204 10334 20018 38340 48493 57010 82100 333 82840 92418;EQDQ01  00002PRCP99
0174172050999992000072315004+38480+042300FM-12+166599999V0202501N001512200019N0300001N1+03201-00821999999ADDGA1021+012009089GF102991021011012501001001MA1999999083341MD1610051+9999ME1314849REMSYN082AAXX  23154 17205 42680 22503 10320 21082 38334 48484 56005 82100 333 82840 92418;
0211172050999992000072318004+38480+042300FM-12+166599999V0202701N001012200019N0300001N1+02701-00071999999ADDAA199000091GA1001+999999999GF100991001001999999001001KA1120M+03561MA1999999083401MD1110061+9999ME1314989REMSYN076AAXX  23184 17205 32980 02702 10270 21007 38340 48498 51006 333 10356 92418;EQDQ01  00002PRCP99
0162172050999992000072321004+38480+042300FM-12+166599999V0209999C000012200019N0300001N1+02301+00211999999ADDGA1001+999999999GF100991001001999999001001MA1999999083401MD1410001+9999ME1314999REMSYN070AAXX  23214 17205 42980 00000 10230 20021 38340 48499 54000 333 10036;
0192172050999992000072400004+38480+042300FM-12+166599999V0209999C000012200019N0300001N1+02261+00141999999ADDAA199000091GA1001+999999999GF100991001001999999001001MA1999999083401MD1410001+9999ME1315009REMSYN070AAXX  24004 17205 32980 00000 10226 20014 38340 48500 54000 333 10023;EQDQ01  00002PRCP99
0174172050999992000072403004+38480+042300FM-12+166599999V0209999C000012200019N0300001N1+02021+00121999999ADDGA1031+012009089GF103991031011012501001001MA1999999083401MD1410001+9999ME1315019REMSYN082AAXX  24034 17205 42680 30000 10202 20012 38340 48501 54000 83100 333 83840 92418;
0247172050999992000072406004+38480+042300FM-12+166599999V0209999C000012200019N0300001N1+02661+00561999999ADDAA199000091GA1001+999999999GF100991001001999999001001IA1019IA2999+01809KA1120N+01901MA1999999083401MD1410001+9999ME1314979REMSYN094AAXX  24064 17205 32980 00000 10266 20056 38340 48497 54000 333 20190 30018 50801 55094 92418;EQDQ01  00002PRCP99
0162172050999992000072409004+38480+042300FM-12+166599999V0202501N001512200019N0300001N1+03241-00301999999ADDGA1001+999999999GF100991001001999999001001MA1999999083301MD1710101+9999ME1314849REMSYN070AAXX  24094 17205 42980 02503 10324 21030 38330 48484 57010 333 10011;
0192172050999992000072412004+38480+042300FM-12+166599999V0202001N001512200019N0300001N1+03341-00571999999ADDAA199000091GA1001+999999999GF100991001001999999001001MA1999999083201MD1610101+9999ME1314779REMSYN070AAXX  24124 17205 32980 02003 10334 21057 38320 48477 56010 333 92418;EQDQ01  00002PRCP99
0162172050999992000072415004+38480+042300FM-12+166599999V0202001N001512200019N0300001N1+03041-00531999999ADDGA1001+999999999GF100991001001999999001001MA1999999083201MD1410001+9999ME1314749REMSYN070AAXX  24154 17205 42980 02003 10304 21053 38320 48474 54000 333 10019;
0211172050999992000072418004+38480+042300FM-12+166599999V0209999C000012200019N0300001N1+02501-00161999999ADDAA199000091GA1001+999999999GF100991001001999999001001KA1120M+03461MA1999999083301MD1110101+9999ME1314859REMSYN076AAXX  24184 17205 32980 00000 10250 21016 38330 48485 51010 333 10346 92418;EQDQ01  00002PRCP99
0162172050999992000072421004+38480+042300FM-12+166599999V0209999C000012200019N0300001N1+02001+00141999999ADDGA1001+999999999GF100991001001999999001001MA1999999083301MD1410001+9999ME1314919REMSYN070AAXX  24214 17205 42980 00000 10200 20014 38330 48491 54000 333 10024;
0192172050999992000072500004+38480+042300FM-12+166599999V0209999C000012200019N0300001N1+01801+00091999999ADDAA199000091GA1001+999999999GF100991001001999999001001MA1999999083301MD1410001+9999ME1314929REMSYN070AAXX  25004 17205 32980 00000 10180 20009 38330 48492 54000 333 10024;EQDQ01  00002PRCP99
0162172050999992000072503004+38480+042300FM-12+166599999V0209999C000012200019N0300001N1+01501+00161999999ADDGA1001+999999999GF100991001001999999001001MA1999999083301MD1410001+9999ME1314979REMSYN070AAXX  25034 17205 42980 00000 10150 20016 38330 48497 54000 333 10044;
0247172050999992000072506004+38480+042300FM-12+166599999V0209999C000012200019N0300001N1+02441+00331999999ADDAA199000091GA1001+999999999GF100991001001999999001001IA1019IA2999+01309KA1120N+01441MA1999999083401MD1110101+9999ME1314999REMSYN094AAXX  25064 17205 32980 00000 10244 20033 38340 48499 51010 333 20144 30013 50961 55096 92418;EQDQ01  00002PRCP99
0162172050999992000072509004+38480+042300FM-12+166599999V0200701N001512200019N0300001N1+02841+01181999999ADDGA1001+999999999GF100991001001999999001001MA1999999083401MD1410001+9999ME1314979REMSYN070AAXX  25094 17205 42980 00703 10284 20118 38340 48497 54000 333 10049;
0192172050999992000072512004+38480+042300FM-12+166599999V0200701N001512200019N0300001N1+03041+00781999999ADDAA199000091GA1001+999999999GF100991001001999999001001MA1999999083361MD1610061+9999ME1314969REMSYN070AAXX  25124 17205 32980 00703 10304 20078 38336 48496 56006 333 10044;EQDQ01  00002PRCP99
0162172050999992000072515004+38480+042300FM-12+166599999V0202501N001512200019N0300001N1+03021-00472999999ADDGA1001+999999999GF100991001001999999001001MA1999999083301MD1610061+9999ME1314859REMSYN070AAXX  25154 17205 42980 02503 10302 21047 38330 48485 56006 333 10044;
0211172050999992000072518004+38480+042300FM-12+166599999V0209999C000012200019N0300001N1+02401-00391999999ADDAA199000091GA1001+999999999GF100991001001999999001001KA1120M+03341MA1999999083401MD1210101+9999ME1314999REMSYN076AAXX  25184 17205 32980 00000 10240 21039 38340 48499 52010 333 10334 92418;EQDQ01  00002PRCP99
0162172050999992000072521004+38480+042300FM-12+166599999V0209999C000012200019N0300001N1+01901-00031999999ADDGA1001+999999999GF100991001001999999001001MA1999999083401MD1410001+9999ME1315019REMSYN070AAXX  25214 17205 42980 00000 10190 21003 38340 48501 54000 333 10056;
0192172050999992000072600004+38480+042300FM-12+166599999V0209999C000012200019N0300001N1+01601+00051999999ADDAA199000091GA1001+999999999GF100991001001999999001001MA1999999083401MD1410001+9999ME1315049REMSYN070AAXX  26004 17205 32980 00000 10160 20005 38340 48504 54000 333 10056;EQDQ01  00002PRCP99
0162172050999992000072603004+38480+042300FM-12+166599999V0209999C000012200019N0300001N1+01401+00011999999ADDGA1001+999999999GF100991001001999999001001MA1999999083401MD1410001+9999ME1315059REMSYN070AAXX  26034 17205 42980 00000 10140 20001 38340 48505 54000 333 10062;
0247172050999992000072606004+38480+042300FM-12+166599999V0209999C000012200019N0300001N1+02401+00531999999ADDAA199000091GA1001+999999999GF100991001001999999001001IA1019IA2999+01209KA1120N+01301MA1999999083501MD1210101+9999ME1315109REMSYN094AAXX  26064 17205 32980 00000 10240 20053 38350 48510 52010 333 20130 30012 50961 55096 92418;EQDQ01  00002PRCP99
0162172050999992000072609004+38480+042300FM-12+166599999V0200701N001512200019N0300001N1+02901+01061999999ADDGA1001+999999999GF100991001001999999001001MA1999999083501MD1410001+9999ME1315069REMSYN070AAXX  26094 17205 42980 00703 10290 20106 38350 48506 54000 333 10061;
0192172050999992000072612004+38480+042300FM-12+166599999V0200701N001512200019N0300001N1+03121+00521999999ADDAA199000091GA1001+999999999GF100991001001999999001001MA1999999083401MD1710101+9999ME1314949REMSYN070AAXX  26124 17205 32980 00703 10312 20052 38340 48494 57010 333 10049;EQDQ01  00002PRCP99
0162172050999992000072615004+38480+042300FM-12+166599999V0200701N001512200019N0300001N1+02901+00701999999ADDGA1001+999999999GF100991001001999999001001MA1999999083301MD1610101+9999ME1314859REMSYN070AAXX  26154 17205 42980 00703 10290 20070 38330 48485 56010 333 10050;
0211172050999992000072618004+38480+042300FM-12+166599999V0209999C000012200019N0300001N1+02601-00301999999ADDAA199000091GA1001+999999999GF100991001001999999001001KA1120M+03301MA1999999083401MD1110101+9999ME1314989REMSYN076AAXX  26184 17205 32980 00000 10260 21030 38340 48498 51010 333 10330 92418;EQDQ01  00002PRCP99
0162172050999992000072621004+38480+042300FM-12+166599999V0209999C000012200019N0300001N1+02141+00151999999ADDGA1001+999999999GF100991001001999999001001MA1999999083401MD1410001+9999ME1315009REMSYN070AAXX  26214 17205 42980 00000 10214 20015 38340 48500 54000 333 10043;
0192172050999992000072700004+38480+042300FM-12+166599999V0209999C000012200019N0300001N1+01941-00421999999ADDAA199000091GA1001+999999999GF100991001001999999001001MA1999999083401MD1410001+9999ME1315019REMSYN070AAXX  27004 17205 32980 00000 10194 21042 38340 48501 54000 333 10043;EQDQ01  00002PRCP99
0162172050999992000072703004+38480+042300FM-12+166599999V0209999C000012200019N0300001N1+01641+00001999999ADDGA1001+999999999GF100991001001999999001001MA1999999083501MD1210101+9999ME1315149REMSYN070AAXX  27034 17205 42980 00000 10164 20000 38350 48514 52010 333 10068;
0247172050999992000072706004+38480+042300FM-12+166599999V0209999C000012200019N0300001N1+02441+00601999999ADDAA199000091GA1001+999999999GF100991001001999999001001IA1019IA2999+01409KA1120N+01501MA1999999083501MD1410001+9999ME1315099REMSYN094AAXX  27064 17205 32980 00000 10244 20060 38350 48509 54000 333 20150 30014 50881 55095 92418;EQDQ01  00002PRCP99
0162172050999992000072709004+38480+042300FM-12+166599999V0200701N001012200019N0300001N1+02901+01451999999ADDGA1001+999999999GF100991001001999999001001MA1999999083501MD1410001+9999ME1315099REMSYN070AAXX  27094 17205 42980 00702 10290 20145 38350 48509 54000 333 10055;
0192172050999992000072712004+38480+042300FM-12+166599999V0200701N001012200019N0300001N1+03101+00931999999ADDAA199000091GA1001+999999999GF100991001001999999001001MA1999999083301MD1810201+9999ME1314799REMSYN070AAXX  27124 17205 32980 00702 10310 20093 38330 48479 58020 333 10031;EQDQ01  00002PRCP99
0162172050999992000072715004+38480+042300FM-12+166599999V0209999C000012200019N0300001N1+02941+00811999999ADDGA1001+999999999GF100991001001999999001001MA1999999083201MD1610101+9999ME1314749REMSYN070AAXX  27154 17205 42980 00000 10294 20081 38320 48474 56010 333 10072;
0181172050999992000072718004+38480+042300FM-12+166599999V0209999C000012200019N0300001N1+02381+99999999999ADDGA1001+999999999GF100991001001999999001001KA1120M+03241MA1999999083201MD1410001+9999ME1314789REMSYN076AAXX  27184 17205 42980 00000 10238 29974 38320 48478 54000 333 10324 92418;
0162172050999992000072721004+38480+042300FM-12+166599999V0209999C000012200019N0300001N1+02141+00101999999ADDGA1001+999999999GF100991001001999999001001MA1999999083201MD1410001+9999ME1314799REMSYN070AAXX  27214 17205 42980 00000 10214 20010 38320 48479 54000 333 10019;
0192172050999992000072800004+38480+042300FM-12+166599999V0209999C000012200019N0300001N1+01841+00051999999ADDAA199000091GA1001+999999999GF100991001001999999001001MA1999999083301MD1110101+9999ME1314929REMSYN070AAXX  28004 17205 32980 00000 10184 20005 38330 48492 51010 333 10031;EQDQ01  00002PRCP99
0162172050999992000072803004+38480+042300FM-12+166599999V0209999C000012200019N0300001N1+01681+00431999999ADDGA1001+999999999GF100991001001999999001001MA1999999083301MD1410001+9999ME1314939REMSYN070AAXX  28034 17205 42980 00000 10168 20043 38330 48493 54000 333 10043;
0247172050999992000072806004+38480+042300FM-12+166599999V0209999C000012200019N0300001N1+02441+00601999999ADDAA199000091GA1001+999999999GF100991001001999999001001IA1019IA2999+01509KA1120N+01601MA1999999083401MD1210101+9999ME1314989REMSYN094AAXX  28064 17205 32980 00000 10244 20060 38340 48498 52010 333 20160 30015 50641 55093 92418;EQDQ01  00002PRCP99
0162172050999992000072809004+38480+042300FM-12+166599999V0200701N001012200019N0300001N1+02901+01451999999ADDGA1001+999999999GF100991001001999999001001MA1999999083401MD1410001+9999ME1314969REMSYN070AAXX  28094 17205 42980 00702 10290 20145 38340 48496 54000 333 10042;
0208172050999992000072812004+38480+042300FM-12+166599999V0202001N001512200019N0300001N1+03421-00232999999ADDAA199000091GA1001+999999999GF100991001001999999001001MA1999999083301MD1610101+9999ME1314829REMSYN070AAXX  28124 17205 32980 02003 10342 21023 38330 48482 56010 333 10024;EQDQ01-000233ATOD  Q02  00002PRCP99
0162172050999992000072815004+38480+042300FM-12+166599999V0202501N002112200019N0300001N1+03201-00401999999ADDGA1001+999999999GF100991001001999999001001MA1999999083301MD1410001+9999ME1314849REMSYN070AAXX  28154 17205 42980 02504 10320 21040 38330 48484 54000 333 10037;
0211172050999992000072818004+38480+042300FM-12+166599999V0209999C000012200019N0300001N1+02601-00301999999ADDAA199000091GA1001+999999999GF100991001001999999001001KA1120M+03601MA1999999083401MD1210101+9999ME1314989REMSYN076AAXX  28184 17205 32980 00000 10260 21030 38340 48498 52010 333 10360 92418;EQDQ01  00002PRCP99
0162172050999992000072821004+38480+042300FM-12+166599999V0209999C000012200019N0300001N1+02141+00151999999ADDGA1001+999999999GF100991001001999999001001MA1999999083401MD1410001+9999ME1315009REMSYN070AAXX  28214 17205 42980 00000 10214 20015 38340 48500 54000 333 10043;
0192172050999992000072900004+38480+042300FM-12+166599999V0209999C000012200019N0300001N1+01841+00051999999ADDAA199000091GA1001+999999999GF100991001001999999001001MA1999999083501MD1210101+9999ME1315139REMSYN070AAXX  29004 17205 32980 00000 10184 20005 38350 48513 52010 333 10048;EQDQ01  00002PRCP99
0162172050999992000072903004+38480+042300FM-12+166599999V0209999C000012200019N0300001N1+01641+00001999999ADDGA1001+999999999GF100991001001999999001001MA1999999083501MD1410001+9999ME1315149REMSYN070AAXX  29034 17205 42980 00000 10164 20000 38350 48514 54000 333 10061;
0247172050999992000072906004+38480+042300FM-12+166599999V0200401N001012200019N0300001N1+02501+00631999999ADDAA199000091GA1001+999999999GF100991001001999999001001IA1019IA2999+01509KA1120N+01561MA1999999083601MD1210101+9999ME1315089REMSYN094AAXX  29064 17205 32980 00402 10250 20063 38360 48508 52010 333 20156 30015 51041 55092 92418;EQDQ01  00002PRCP99
0162172050999992000072909004+38480+042300FM-12+166599999V0200701N001512200019N0300001N1+02941+01501999999ADDGA1001+999999999GF100991001001999999001001MA1999999083701MD1210101+9999ME1315289REMSYN070AAXX  29094 17205 42980 00703 10294 20150 38370 48528 52010 333 10079;
0192172050999992000072912004+38480+042300FM-12+166599999V0200701N001512200019N0300001N1+03261+00801999999ADDAA199000091GA1001+999999999GF100991001001999999001001MA1999999083601MD1810101+9999ME1315169REMSYN070AAXX  29124 17205 32980 00703 10326 20080 38360 48516 58010 333 10060;EQDQ01  00002PRCP99
0162172050999992000072915004+38480+042300FM-12+166599999V0200701N001012200019N0300001N1+03141+00681999999ADDGA1001+999999999GF100991001001999999001001MA1999999083601MD1410001+9999ME1315169REMSYN070AAXX  29154 17205 42980 00702 10314 20068 38360 48516 54000 333 10073;
0211172050999992000072918004+38480+042300FM-12+166599999V0209999C000012200019N0300001N1+02461+00661999999ADDAA199000091GA1001+999999999GF100991001001999999001001KA1120M+03361MA1999999083701MD1210101+9999ME1315309REMSYN076AAXX  29184 17205 32980 00000 10246 20066 38370 48530 52010 333 10336 92418;EQDQ01  00002PRCP99
0162172050999992000072921004+38480+042300FM-12+166599999V0209999C000012200019N0300001N1+02041+00361999999ADDGA1001+999999999GF100991001001999999001001MA1999999083761MD1110061+9999ME1315439REMSYN070AAXX  29214 17205 42980 00000 10204 20036 38376 48543 51006 333 10086;
0192172050999992000073000004+38480+042300FM-12+166599999V0209999C000012200019N0300001N1+01901+00491999999ADDAA199000091GA1001+999999999GF100991001001999999001001MA1999999083801MD1210041+9999ME1314439REMSYN070AAXX  30004 17205 32980 00000 10190 20049 38380 48443 52004 333 10084;EQDQ01  00002PRCP99
0162172050999992000073003004+38480+042300FM-12+166599999V0209999C000012200019N0300001N1+01741+00631999999ADDGA1001+999999999GF100991001001999999001001MA1999999083801MD1410001+9999ME1315449REMSYN070AAXX  30034 17205 42980 00000 10174 20063 38380 48544 54000 333 10097;
0247172050999992000073006004+38480+042300FM-12+166599999V0209999C000012200019N0300001N1+02561+01031999999ADDAA199000091GA1001+999999999GF100991001001999999001001IA1019IA2999+01509KA1120N+01601MA1999999083901MD1210101+9999ME1315519REMSYN094AAXX  30064 17205 32980 00000 10256 20103 38390 48551 52010 333 20160 30015 50881 55092 92418;EQDQ01  00002PRCP99
0162172050999992000073009004+38480+042300FM-12+166599999V0200701N001012200019N0300001N1+03041+00971999999ADDGA1001+999999999GF100991001001999999001001MA1999999083901MD1410001+9999ME1315519REMSYN070AAXX  30094 17205 42980 00702 10304 20097 38390 48551 54000 333 10103;
0204172050999992000073012004+38480+042300FM-12+166599999V0200701N001012200019N0300001N1+03401+00681999999ADDAA199000091GA1031+012009089GF103991031011012501001001MA1999999083801MD1810101+9999ME1315419REMSYN082AAXX  30124 17205 32680 30702 10340 20068 38380 48541 58010 83100 333 83840 92418;EQDQ01  00002PRCP99
0174172050999992000073015004+38480+042300FM-12+166599999V0209999C000012200019N0300001N1+03101+00671999999ADDGA1031+012009089GF103991031011012501001001MA1999999083701MD1710101+9999ME1315279REMSYN082AAXX  30154 17205 42680 30000 10310 20067 38370 48527 57010 83100 333 83840 92418;
0211172050999992000073018004+38480+042300FM-12+166599999V0209999C000012200019N0300001N1+02601+00151999999ADDAA199000091GA1001+999999999GF100991001001999999001001KA1120M+03601MA1999999083701MD1410001+9999ME1315309REMSYN076AAXX  30184 17205 32980 00000 10260 20015 38370 48530 54000 333 10360 92418;EQDQ01  00002PRCP99
0162172050999992000073021004+38480+042300FM-12+166599999V0209999C000012200019N0300001N1+02141+00361999999ADDGA1001+999999999GF100991001001999999001001MA1999999083801MD1110101+9999ME1315249REMSYN070AAXX  30214 17205 42980 00000 10214 20036 38380 48524 51010 333 10091;
0192172050999992000073100004+38480+042300FM-12+166599999V0209999C000012200019N0300001N1+02101+00771999999ADDAA199000091GA1001+999999999GF100991001001999999001001MA1999999083801MD1410001+9999ME1315429REMSYN070AAXX  31004 17205 32980 00000 10210 20077 38380 48542 54000 333 10072;EQDQ01  00002PRCP99
0162172050999992000073103004+38480+042300FM-12+166599999V0209999C000012200019N0300001N1+02001+00741999999ADDGA1001+999999999GF100991001001999999001001MA1999999083801MD1410001+9999ME1315439REMSYN070AAXX  31034 17205 42980 00000 10200 20074 38380 48543 54000 333 10084;
0247172050999992000073106004+38480+042300FM-12+166599999V0200701N001512200019N0300001N1+02701+01181999999ADDAA199000091GA1001+999999999GF100991001001999999001001IA1019IA2999+01709KA1120N+01901MA1999999083801MD1410001+9999ME1315299REMSYN094AAXX  31064 17205 32980 00703 10270 20118 38380 48529 54000 333 20190 30017 50641 55088 92418;EQDQ01  00002PRCP99
0162172050999992000073109004+38480+042300FM-12+166599999V0200701N001512200019N0300001N1+03261+00801999999ADDGA1001+999999999GF100991001001999999001001MA1999999083801MD1410001+9999ME1315379REMSYN070AAXX  31094 17205 42980 00703 10326 20080 38380 48537 54000 333 10078;
0204172050999992000073112004+38480+042300FM-12+166599999V0200701N001012200019N0300001N1+03321+00751999999ADDAA199000091GA1021+012009089GF102991021011012501001001MA1999999083701MD1610101+9999ME1315279REMSYN082AAXX  31124 17205 32680 20702 10332 20075 38370 48527 56010 82100 333 82840 92418;EQDQ01  00002PRCP99
0174172050999992000073115004+38480+042300FM-12+166599999V0200701N001012200019N0300001N1+02921+00631999999ADDGA1021+012009089GF102991021011012501001001MA1999999083601MD1710101+9999ME1315179REMSYN082AAXX  31154 17205 42680 20702 10292 20063 38360 48517 57010 82100 333 82840 92418;
0211172050999992000073118004+38480+042300FM-12+166599999V0209999C000012200019N0300001N1+02381+00741999999ADDAA199000091GA1001+999999999GF100991001001999999001001KA1120M+03401MA1999999083501MD1610101+9999ME1315109REMSYN076AAXX  31184 17205 32980 00000 10238 20074 38350 48510 56010 333 10340 92418;EQDQ01  00002PRCP99
0162172050999992000073121004+38480+042300FM-12+166599999V0202701N001012200019N0300001N1+02441+00331999999ADDGA1001+999999999GF100991001001999999001001MA1999999083501MD1410001+9999ME1315109REMSYN070AAXX  31214 17205 42980 02702 10244 20033 38350 48510 54000 333 10036;
0192172050999992000080100004+38480+042300FM-12+166599999V0209999C000012200019N0300001N1+02001+00751999999ADDAA199000091GA1001+999999999GF100991001001999999001001MA1999999083501MD1410001+9999ME1315129REMSYN070AAXX  01004 17205 32980 00000 10200 20075 38350 48512 54000 333 10042;EQDQ01  00002PRCP99
0174172050999992000080103004+38480+042300FM-12+166599999V0209999C000012200019N0300001N1+01801+00501999999ADDGA1031+012009089GF103991031021012501001001MA1999999083501MD1410001+9999ME1315139REMSYN082AAXX  01034 17205 42680 30000 10180 20050 38350 48513 54000 83200 333 83840 92418;
0247172050999992000080106004+38480+042300FM-12+166599999V0209999C000012200019N0300001N1+02301+01051999999ADDAA199000091GA1001+999999999GF100991001001999999001001IA1019IA2999+01609KA1120N+01701MA1999999083501MD1410001+9999ME1315109REMSYN094AAXX  01064 17205 32980 00000 10230 20105 38350 48510 54000 333 20170 30016 50961 55092 92418;EQDQ01  00002PRCP99
0174172050999992000080109004+38480+042300FM-12+166599999V0200701N001512200019N0300001N1+02941+01421999999ADDGA1021+012009089GF102991021011012501001001MA1999999083401MD1810101+9999ME1314969REMSYN082AAXX  01094 17205 42680 20703 10294 20142 38340 48496 58010 82100 333 82840 92418;
0204172050999992000080112004+38480+042300FM-12+166599999V0202501N002112200019N0300001N1+03341+00041999999ADDAA199000091GA1021+012009089GF102991021011012501001001MA1999999083301MD1710101+9999ME1314829REMSYN082AAXX  01124 17205 32680 22504 10334 20004 38330 48482 57010 82100 333 82840 92418;EQDQ01  00002PRCP99
0174172050999992000080115004+38480+042300FM-12+166599999V0202501N002112200019N0300001N1+03181-00841999999ADDGA1021+012009089GF102991021011012501001001MA1999999083201MD1610101+9999ME1314739REMSYN082AAXX  01154 17205 42680 22504 10318 21084 38320 48473 56010 82100 333 82840 92418;
0211172050999992000080118004+38480+042300FM-12+166599999V0202701N001012200019N0300001N1+02681-00541999999ADDAA199000091GA1001+999999999GF100991001001999999001001KA1120M+03561MA1999999083201MD1410001+9999ME1314779REMSYN076AAXX  01184 17205 32980 02702 10268 21054 38320 48477 54000 333 10356 92418;EQDQ01  00002PRCP99
0162172050999992000080121004+38480+042300FM-12+166599999V0202501N001512200019N0300001N1+02501-00491999999ADDGA1001+999999999GF100991001001999999001001MA1999999083301MD1210101+9999ME1314879REMSYN070AAXX  01214 17205 42980 02503 10250 21049 38330 48487 52010 333 10024;
0192172050999992000080200004+38480+042300FM-12+166599999V0209999C000012200019N0300001N1+02101-00341999999ADDAA199000091GA1001+999999999GF100991001001999999001001MA1999999083261MD1610041+9999ME1314909REMSYN070AAXX  02004 17205 32980 00000 10210 21034 38326 48490 56004 333 10013;EQDQ01  00002PRCP99
0162172050999992000080203004+38480+042300FM-12+166599999V0209999C000012200019N0300001N1+01701-00011999999ADDGA1001+999999999GF100991001001999999001001MA1999999083201MD1110041+9999ME1314829REMSYN070AAXX  02034 17205 42980 00000 10170 21001 38320 48482 51004 333 10025;
0247172050999992000080206004+38480+042300FM-12+166599999V0209999C000012200019N0300001N1+02441+00741999999ADDAA199000091GA1001+999999999GF100991001001999999001001IA1019IA2999+01509KA1120N+01601MA1999999083201MD1410001+9999ME1314829REMSYN094AAXX  02064 17205 32980 00000 10244 20074 38320 48482 54000 333 20160 30015 50881 55091 92418;EQDQ01  00002PRCP99
0162172050999992000080209004+38480+042300FM-12+166599999V0200701N001012200019N0300001N1+03001+01581999999ADDGA1001+999999999GF100991001001999999001001MA1999999083201MD1410001+9999ME1314759REMSYN070AAXX  02094 17205 42980 00702 10300 20158 38320 48475 54000 333 10000;
0220172050999992000080212004+38480+042300FM-12+166599999V0202001N003112200019N0300001N1+03321-00282999999ADDAA199000091GA1021+012009089GF102991021011012501001001MA1999999083101MD1610101+9999ME1314629REMSYN082AAXX  02124 17205 32680 22006 10332 21028 38310 48462 56010 82100 333 82840 92428;EQDQ01-000283ATOD  Q02  00002PRCP99
0174172050999992000080215004+38480+042300FM-12+166599999V0202001N002612200019N0300001N1+03101-00251999999ADDGA1021+012009089GF102991021011012501001001MA1999999083001MD1610101+9999ME1314519REMSYN082AAXX  02154 17205 42680 22005 10310 21025 38300 48451 56010 82100 333 82840 92428;
0211172050999992000080218004+38480+042300FM-12+166599999V0202001N001512200019N0300001N1+02741-00131999999ADDAA199000091GA1001+999999999GF100991001001999999001001KA1120M+03461MA1999999083001MD1410001+9999ME1314549REMSYN076AAXX  02184 17205 32980 02003 10274 21013 38300 48454 54000 333 10346 92418;EQDQ01  00002PRCP99
0162172050999992000080221004+38480+042300FM-12+166599999V0202501N001512200019N0300001N1+02361-00331999999ADDGA1001+999999999GF100991001001999999001001MA1999999083001MD1410001+9999ME1314579REMSYN070AAXX  02214 17205 42980 02503 10236 21033 38300 48457 54000 333 92418;
0192172050999992000080300004+38480+042300FM-12+166599999V0202501N001512200019N0300001N1+01901-00691999999ADDAA199000091GA1001+999999999GF100991001001999999001001MA1999999083001MD1410001+9999ME1314609REMSYN070AAXX  03004 17205 32980 02503 10190 21069 38300 48460 54000 333 92418;EQDQ01  00002PRCP99
0162172050999992000080303004+38480+042300FM-12+166599999V0202501N002112200019N0300001N1+01801+00361999999ADDGA1001+999999999GF100991001001999999001001MA1999999083001MD1410001+9999ME1314619REMSYN070AAXX  03034 17205 42980 02504 10180 20036 38300 48461 54000 333 92418;
0247172050999992000080306004+38480+042300FM-12+166599999V0202501N003112200019N0300001N1+02001+00411999999ADDAA199000091GA1001+999999999GF100991001001999999001001IA1019IA2999+01609KA1120N+01701MA1999999083001MD1410001+9999ME1314609REMSYN094AAXX  03064 17205 32980 02506 10200 20041 38300 48460 54000 333 20170 30016 51041 55094 92428;EQDQ01  00002PRCP99
0162172050999992000080309004+38480+042300FM-12+166599999V0202501N003112200019N0300001N1+02501+00441999999ADDGA1001+999999999GF100991001001999999001001MA1999999083001MD1410001+9999ME1314559REMSYN070AAXX  03094 17205 42980 02506 10250 20044 38300 48455 54000 333 10001;
0192172050999992000080312004+38480+042300FM-12+166599999V0202501N003112200019N0300001N1+02901-00361999999ADDAA199000091GA1001+999999999GF100991001001999999001001MA1999999082901MD1710201+9999ME1314429REMSYN070AAXX  03124 17205 32980 02506 10290 21036 38290 48442 57020 333 92428;EQDQ01  00002PRCP99
0162172050999992000080315004+38480+042300FM-12+166599999V0202701N001512200019N0300001N1+02641-00741999999ADDGA1001+999999999GF100991001001999999001001MA1999999082901MD1410001+9999ME1314459REMSYN070AAXX  03154 17205 42980 02703 10264 21074 38290 48445 54000 333 10002;
0211172050999992000080318004+38480+042300FM-12+166599999V0209999C000012200019N0300001N1+02201-00101999999ADDAA199000091GA1001+999999999GF100991001001999999001001KA1120M+03001MA1999999083001MD1210101+9999ME1314589REMSYN076AAXX  03184 17205 32980 00000 10220 21010 38300 48458 52010 333 10300 92418;EQDQ01  00002PRCP99
0162172050999992000080321004+38480+042300FM-12+166599999V0202001N001512200019N0300001N1+02001+00411999999ADDGA1001+999999999GF100991001001999999001001MA1999999083001MD1410001+9999ME1314609REMSYN070AAXX  03214 17205 42980 02003 10200 20041 38300 48460 54000 333 10014;
0192172050999992000080400004+38480+042300FM-12+166599999V0209999C000012200019N0300001N1+01801+00361999999ADDAA199000091GA1001+999999999GF100991001001999999001001MA1999999083001MD1410001+9999ME1314619REMSYN070AAXX  04004 17205 32980 00000 10180 20036 38300 48461 54000 333 10008;EQDQ01  00002PRCP99
0162172050999992000080403004+38480+042300FM-12+166599999V0202201N001012200019N0300001N1+01601+00311999999ADDGA1001+999999999GF100991001001999999001001MA1999999083001MD1410001+9999ME1314639REMSYN070AAXX  04034 17205 42980 02202 10160 20031 38300 48463 54000 333 10021;
0247172050999992000080406004+38480+042300FM-12+166599999V0200701N001012200019N0300001N1+02001+00511999999ADDAA199000091GA1001+999999999GF100991001001999999001001IA1019IA2999+01409KA1120N+01461MA1999999083101MD1210101+9999ME1314709REMSYN094AAXX  04064 17205 32980 00702 10200 20051 38310 48470 52010 333 20146 30014 51041 55092 92418;EQDQ01  00002PRCP99
0162172050999992000080409004+38480+042300FM-12+166599999V0200701N002112200019N0300001N1+02561+01071999999ADDGA1001+999999999GF100991001001999999001001MA1999999083101MD1410001+9999ME1314669REMSYN070AAXX  04094 17205 42980 00704 10256 20107 38310 48466 54000 333 10020;
0192172050999992000080412004+38480+042300FM-12+166599999V0200701N001512200019N0300001N1+02741+00731999999ADDAA199000091GA1001+999999999GF100991001001999999001001MA1999999083001MD1810101+9999ME1314549REMSYN070AAXX  04124 17205 32980 00703 10274 20073 38300 48454 58010 333 10008;EQDQ01  00002PRCP99
0174172050999992000080415004+38480+042300FM-12+166599999V0200701N001012200019N0300001N1+02601+00351999999ADDGA1021+012009089GF102991021011012501001001MA1999999082901MD1710101+9999ME1314459REMSYN082AAXX  04154 17205 42680 20702 10260 20035 38290 48445 57010 82100 333 82840 92418;
0211172050999992000080418004+38480+042300FM-12+166599999V0209999C000012200019N0300001N1+02201+00471999999ADDAA199000091GA1001+999999999GF100991001001999999001001KA1120M+02901MA1999999083001MD1110101+9999ME1314589REMSYN076AAXX  04184 17205 32980 00000 10220 20047 38300 48458 51010 333 10290 92418;EQDQ01  00002PRCP99
0162172050999992000080421004+38480+042300FM-12+166599999V0200201N001012200019N0300001N1+02041+00611999999ADDGA1001+999999999GF100991001001999999001001MA1999999083101MD1210101+9999ME1314709REMSYN070AAXX  04214 17205 42980 00202 10204 20061 38310 48470 52010 333 10020;
0204172050999992000080500004+38480+042300FM-12+166599999V0200201N002112200019N0300001N1+01961+00681999999ADDAA199000091GA1031+012009089GF103991031021012501001001MA1999999083101MD1410001+9999ME1314709REMSYN082AAXX  05004 17205 32680 30204 10196 20068 38310 48470 54000 83200 333 83840 92418;EQDQ01  00002PRCP99
0224172050999992000080503004+38480+042300FM-12+166599999V0203401N003110105019N0200001N1+01801+00811999999ADDAY191031AY221031GA1051+010509089GA2071+027009039GF107991051021012501071001MA1999999083101MD1410001+9999ME1314729MW1251REMSYN094AAXX  05034 17205 41670 73406 10180 20081 38310 48472 54000 72592 85270 333 85835 87359 92424;
0302172050999992000080506004+38480+042300FM-12+166599999V0200401N005110270019N0200001N1+02101+00981999999ADDAA112011991AY191061AY281061GA1041+010509089GA2061+027009039GF106991041021012501051001IA1099IA2999+01309KA1120N+01401MA1999999083201MD1310101+9999ME1314799MW1021REMSYN130AAXX  05064 17205 11670 60410 10210 20098 38320 48479 53010 60122 70298 84250 333 20140 31013 50761 55092 70124 84835 86359 92427;
0224172050999992000080509004+38480+042300FM-12+166599999V0201601N001510270019N0200001N1+01841+00561999999ADDAY191031AY281031GA1041+010509089GA2061+027009039GF106991041021012501051001MA1999999083201MD1410001+9999ME1314819MW1251REMSYN094AAXX  05094 17205 41670 61603 10184 20056 38320 48481 54000 72598 84250 333 84835 86359 92418;
0241172050999992000080512004+38480+042300FM-12+166599999V0202901N001510270019N0200001N1+02241+00271999999ADDAA106000191AY191061AY281061GA1041+010509089GA2061+027009039GF106991041021012501051001MA1999999083201MD1410001+9999ME1314799MW1021REMSYN100AAXX  05124 17205 11670 62903 10224 20027 38320 48479 54000 69921 70298 84250 333 84835 86359 92417;
0196172050999992000080515004+38480+042300FM-12+166599999V0202701N002110270019N0200001N1+02041+00471999999ADDGA1041+012009089GA2061+027009039GF106991041021012501051001MA1999999083201MD1410001+9999ME1314819REMSYN088AAXX  05154 17205 42670 62704 10204 20047 38320 48481 54000 84250 333 84840 86359 92418;
0213172050999992000080518004+38480+042300FM-12+166599999V0209999C000010270019N0200001N1+01901+00501999999ADDAA112000191GA1041+012009089GA2061+027009039GF106991041021012501051001MA1999999083401MD1210201+9999ME1315019REMSYN094AAXX  05184 17205 12670 60000 10190 20050 38340 48501 52020 69922 84250 333 84840 86359 92417;
0162172050999992000080521004+38480+042300FM-12+166599999V0209999C000012200019N0300001N1+01541+00601999999ADDGA1001+999999999GF100991001001999999001001MA1999999083401MD1410001+9999ME1315049REMSYN070AAXX  05214 17205 42980 00000 10154 20060 38340 48504 54000 333 10096;
0192172050999992000080600004+38480+042300FM-12+166599999V0209999C000012200019N0300001N1+01541+00801999999ADDAA199000091GA1001+999999999GF100991001001999999001001MA1999999083401MD1410001+9999ME1315049REMSYN070AAXX  06004 17205 32980 00000 10154 20080 38340 48504 54000 333 10111;EQDQ01  00002PRCP99
0174172050999992000080603004+38480+042300FM-12+166599999V0202501N001512200019N0300001N1+01541+00801999999ADDGA1031+012009089GF103991031021012501001001MA1999999083401MD1410001+9999ME1315049REMSYN082AAXX  06034 17205 42680 32503 10154 20080 38340 48504 54000 83200 333 83840 92418;
0174172050999992000080609004+38480+042300FM-12+166599999V0200701N001512200019N0300001N1+02321+01031999999ADDGA1031+012009089GF103991031021012501001001MA1999999083401MD1410001+9999ME1314999REMSYN082AAXX  06094 17205 42680 30703 10232 20103 38340 48499 54000 83200 333 83840 92418;
0204172050999992000080612004+38480+042300FM-12+166599999V0200701N001512200019N0300001N1+02501+00911999999ADDAA199000091GA1031+012009089GF103991031021012501001001MA1999999083301MD1610101+9999ME1314899REMSYN082AAXX  06124 17205 32680 30703 10250 20091 38330 48489 56010 83200 333 83840 92418;EQDQ01  00002PRCP99
0174172050999992000080615004+38480+042300FM-12+166599999V0209999C000012200019N0300001N1+02301+00371999999ADDGA1031+012009089GF103991031021012501001001MA1999999083301MD1410001+9999ME1314909REMSYN082AAXX  06154 17205 42680 30000 10230 20037 38330 48490 54000 83200 333 83840 92418;
0223172050999992000080618004+38480+042300FM-12+166599999V0209999C000012200019N0300001N1+02101+00561999999ADDAA199000091GA1031+012009089GF103991031021012501001001KA1120M+02661MA1999999083301MD1410001+9999ME1314909REMSYN088AAXX  06184 17205 32680 30000 10210 20056 38330 48490 54000 83200 333 10266 83840 92418;EQDQ01  00002PRCP99
0162172050999992000080621004+38480+042300FM-12+166599999V0200701N001012200019N0300001N1+02021+00841999999ADDGA1001+999999999GF100991001001999999001001MA1999999083401MD1110101+9999ME1315009REMSYN070AAXX  06214 17205 42980 00702 10202 20084 38340 48500 51010 333 10082;
0192172050999992000080700004+38480+042300FM-12+166599999V0209999C000012200019N0300001N1+01701+00881999999ADDAA199000091GA1001+999999999GF100991001001999999001001MA1999999083401MD1410001+9999ME1315039REMSYN070AAXX  07004 17205 32980 00000 10170 20088 38340 48503 54000 333 10069;EQDQ01  00002PRCP99
0162172050999992000080703004+38480+042300FM-12+166599999V0209999C000012200019N0300001N1+01601+00941999999ADDGA1001+999999999GF100991001001999999001001MA1999999083401MD1410001+9999ME1315049REMSYN070AAXX  07034 17205 42980 00000 10160 20094 38340 48504 54000 333 10076;
0162172050999992000080709004+38480+042300FM-12+166599999V0200701N002112200019N0300001N1+02501+01191999999ADDGA1001+999999999GF100991001001999999001001MA1999999083501MD1410001+9999ME1315089REMSYN070AAXX  07094 17205 42980 00704 10250 20119 38350 48508 54000 333 10068;
0220172050999992000080712004+38480+042300FM-12+166599999V0200701N001512200019N0300001N1+02641+01081999999ADDAA199000091GA1031+012009089GF199999031011012501001001MA1999999083401MD1810101+9999ME1314989REMSYN082AAXX  07124 17205 32680 20703 10264 20108 38340 48498 58010 83100 333 83840 92418;EQDQ01+000022SCOTCVQ02  00002PRCP99
0174172050999992000080715004+38480+042300FM-12+166599999V0209999C000012200019N0300001N1+02501+00911999999ADDGA1031+012009089GF103991031021012501001001MA1999999083361MD1710041+9999ME1314989REMSYN082AAXX  07154 17205 42680 30000 10250 20091 38336 48498 57004 83200 333 83840 92418;
0211172050999992000080718004+38480+042300FM-12+166599999V0209999C000012200019N0300001N1+02141+00831999999ADDAA199000091GA1001+999999999GF100991001001999999001001KA1120M+02801MA1999999083401MD1110041+9999ME1315009REMSYN076AAXX  07184 17205 32980 00000 10214 20083 38340 48500 51004 333 10280 92418;EQDQ01  00002PRCP99
0162172050999992000080721004+38480+042300FM-12+166599999V0209999C000012200019N0300001N1+01961+01001999999ADDGA1001+999999999GF100991001001999999001001MA1999999083501MD1210101+9999ME1315129REMSYN070AAXX  07214 17205 42980 00000 10196 20100 38350 48512 52010 333 10074;
0192172050999992000080800004+38480+042300FM-12+166599999V0209999C000012200019N0300001N1+01761+01131999999ADDAA199000091GA1001+999999999GF100991001001999999001001MA1999999083501MD1410001+9999ME1315139REMSYN070AAXX  08004 17205 32980 00000 10176 20113 38350 48513 54000 333 10074;EQDQ01  00002PRCP99
0162172050999992000080803004+38480+042300FM-12+166599999V0209999C000012200019N0300001N1+01661+01191999999ADDGA1001+999999999GF100991001001999999001001MA1999999083601MD1210101+9999ME1315259REMSYN070AAXX  08034 17205 42980 00000 10166 20119 38360 48525 52010 333 10093;
0247172050999992000080806004+38480+042300FM-12+166599999V0200701N001012200019N0300001N1+02201+01281999999ADDAA199000091GA1001+999999999GF100991001001999999001001IA1019IA2999+01509KA1120N+01541MA1999999083601MD1410001+9999ME1315219REMSYN094AAXX  08064 17205 32980 00702 10220 20128 38360 48521 54000 333 20154 30015 50801 55091 92418;EQDQ01  00002PRCP99
0174172050999992000080809004+38480+042300FM-12+166599999V0200701N001012200019N0300001N1+02641+01261999999ADDGA1031+012009089GF103991031011012501001001MA1999999083601MD1410001+9999ME1315219REMSYN082AAXX  08094 17205 42680 30702 10264 20126 38360 48521 54000 83100 333 83840 92418;
0204172050999992000080812004+38480+042300FM-12+166599999V0200701N001012200019N0300001N1+02781+01211999999ADDAA199000091GA1031+012009089GF103991031011012501001001MA1999999083601MD1410001+9999ME1315219REMSYN082AAXX  08124 17205 32680 30702 10278 20121 38360 48521 54000 83100 333 83840 92418;EQDQ01  00002PRCP99
0174172050999992000080815004+38480+042300FM-12+166599999V0209999C000012200019N0300001N1+02601+00951999999ADDGA1031+012009089GF103991031011012501001001MA1999999083501MD1810101+9999ME1315089REMSYN082AAXX  08154 17205 42680 30000 10260 20095 38350 48508 58010 83100 333 83840 92418;
0211172050999992000080818004+38480+042300FM-12+166599999V0209999C000012200019N0300001N1+02161+00941999999ADDAA199000091GA1001+999999999GF100991001001999999001001KA1120M+02861MA1999999083501MD1410001+9999ME1315119REMSYN076AAXX  08184 17205 32980 00000 10216 20094 38350 48511 54000 333 10286 92418;EQDQ01  00002PRCP99
0162172050999992000080821004+38480+042300FM-12+166599999V0209999C000012200019N0300001N1+01961+00881999999ADDGA1001+999999999GF100991001001999999001001MA1999999083601MD1110101+9999ME1315229REMSYN070AAXX  08214 17205 42980 00000 10196 20088 38360 48522 51010 333 10080;
0192172050999992000080900004+38480+042300FM-12+166599999V0209999C000012200019N0300001N1+01961+00881999999ADDAA199000091GA1001+999999999GF100991001001999999001001MA1999999083601MD1410001+9999ME1315229REMSYN070AAXX  09004 17205 32980 00000 10196 20088 38360 48522 54000 333 10073;EQDQ01  00002PRCP99
0196172050999992000080903004+38480+042300FM-12+166599999V0209999C000010300019N0300001N1+01961+01071999999ADDGA1041+012009089GA2061+030009039GF106991041021012501051001MA1999999083601MD1410001+9999ME1315229REMSYN088AAXX  09034 17205 42680 60000 10196 20107 38360 48522 54000 84250 333 84840 86360 92418;
0281172050999992000080906004+38480+042300FM-12+166599999V0209999C000010300019N0300001N1+02201+01281999999ADDAA199000091GA1041+012009089GA2061+030009039GF106991041021012501051001IA1019IA2999+01809KA1120N+01841MA1999999083601MD1410001+9999ME1315219REMSYN112AAXX  09064 17205 32680 60000 10220 20128 38360 48521 54000 84250 333 20184 30018 50561 55088 84840 86360 92418;EQDQ01  00002PRCP99
0196172050999992000080909004+38480+042300FM-12+166599999V0200701N001510300019N0300001N1+02561+01261999999ADDGA1041+012009089GA2061+030009039GF106991041021012501051001MA1999999083601MD1410001+9999ME1315199REMSYN088AAXX  09094 17205 42680 60703 10256 20126 38360 48519 54000 84250 333 84840 86360 92418;
0204172050999992000080912004+38480+042300FM-12+166599999V0200701N001512200019N0300001N1+02901+00601999999ADDAA199000091GA1041+012009089GF104991041021012501001001MA1999999083501MD1610101+9999ME1315069REMSYN082AAXX  09124 17205 32680 40703 10290 20060 38350 48506 56010 84200 333 84840 92418;EQDQ01  00002PRCP99
0196172050999992000080915004+38480+042300FM-12+166599999V0209999C000010300019N0300001N1+02701+00521999999ADDGA1041+012009089GA2061+030009039GF106991041021012501051001MA1999999083401MD1710101+9999ME1314989REMSYN088AAXX  09154 17205 42680 60000 10270 20052 38340 48498 57010 84250 333 84840 86360 92418;
0245172050999992000080918004+38480+042300FM-12+166599999V0209999C000010300019N0300001N1+02301+00841999999ADDAA199000091GA1041+012009089GA2061+030009039GF106991041021012501051001KA1120M+03001MA1999999083401MD1410001+9999ME1314999REMSYN094AAXX  09184 17205 32680 60000 10230 20084 38340 48499 54000 84250 333 10300 84840 86360 92418;EQDQ01  00002PRCP99
0196172050999992000080921004+38480+042300FM-12+166599999V0209999C000010300019N0300001N1+02161+00941999999ADDGA1041+012009089GA2061+030009039GF106991041021012501051001MA1999999083401MD1410001+9999ME1314999REMSYN088AAXX  09214 17205 42680 60000 10216 20094 38340 48499 54000 84250 333 84840 86360 92418;
0192172050999992000081000004+38480+042300FM-12+166599999V0209999C000012200019N0300001N1+01961+00881999999ADDAA199000091GA1001+999999999GF100991001001999999001001MA1999999083401MD1410001+9999ME1314619REMSYN070AAXX  10004 17205 32980 00000 10196 20088 38340 48461 54000 333 10049;EQDQ01  00002PRCP99
0174172050999992000081003004+38480+042300FM-12+166599999V0209999C000012200019N0300001N1+01701+00881999999ADDGA1021+012009089GF102991021011012501001001MA1999999083401MD1410001+9999ME1315039REMSYN082AAXX  10034 17205 42680 20000 10170 20088 38340 48503 54000 82100 333 82840 92418;
0259172050999992000081006004+38480+042300FM-12+166599999V0200701N002112200019N0300001N1+02341+01101999999ADDAA199000091GA1021+012009089GF102991021011012501001001IA1019IA2999+01509KA1120N+01641MA1999999083401MD1410001+9999ME1314999REMSYN106AAXX  10064 17205 32680 20704 10234 20110 38340 48499 54000 82100 333 20164 30015 50721 55057 82840 92418;EQDQ01  00002PRCP99
0174172050999992000081009004+38480+042300FM-12+166599999V0200701N002612200019N0300001N1+02721+01171999999ADDGA1021+012009089GF102991021011012501001001MA1999999083401MD1410001+9999ME1314979REMSYN082AAXX  10094 17205 42680 20705 10272 20117 38340 48497 54000 82100 333 82840 92418;
0192172050999992000081012004+38480+042300FM-12+166599999V0200701N002112200019N0300001N1+02841+00841999999ADDAA199000091GA1001+999999999GF100991001001999999001001MA1999999083301MD1810101+9999ME1314869REMSYN070AAXX  10124 17205 32980 00704 10284 20084 38330 48486 58010 333 10037;EQDQ01  00002PRCP99
0162172050999992000081015004+38480+042300FM-12+166599999V0200701N002612200019N0300001N1+02701+00621999999ADDGA1001+999999999GF100991001001999999001001MA1999999083201MD1710101+9999ME1314759REMSYN070AAXX  10154 17205 42980 00705 10270 20062 38320 48475 57010 333 10038;
0211172050999992000081018004+38480+042300FM-12+166599999V0200701N001512200019N0300001N1+02421+01201999999ADDAA199000091GA1001+999999999GF100991001001999999001001KA1120M+03001MA1999999083201MD1410001+9999ME1314789REMSYN076AAXX  10184 17205 32980 00703 10242 20120 38320 48478 54000 333 10300 92418;EQDQ01  00002PRCP99
0162172050999992000081021004+38480+042300FM-12+166599999V0200701N001512200019N0300001N1+02261+00661999999ADDGA1001+999999999GF100991001001999999001001MA1999999083301MD1210101+9999ME1314909REMSYN070AAXX  10214 17205 42980 00703 10226 20066 38330 48490 52010 333 10031;
0192172050999992000081100004+38480+042300FM-12+166599999V0209999C000012200019N0300001N1+01841+00551999999ADDAA199000091GA1001+999999999GF100991001001999999001001MA1999999083261MD1710041+9999ME1314929REMSYN070AAXX  11004 17205 32980 00000 10184 20055 38326 48492 57004 333 10039;EQDQ01  00002PRCP99
0162172050999992000081103004+38480+042300FM-12+166599999V0209999C000012200019N0300001N1+01801+00801999999ADDGA1001+999999999GF100991001001999999001001MA1999999083301MD1110041+9999ME1314929REMSYN070AAXX  11034 17205 42980 00000 10180 20080 38330 48492 51004 333 10050;
0247172050999992000081106004+38480+042300FM-12+166599999V0200701N003112200019N0300001N1+02301+01051999999ADDAA199000091GA1001+999999999GF100991001001999999001001IA1019IA2999+01509KA1120N+01661MA1999999083301MD1410001+9999ME1314899REMSYN094AAXX  11064 17205 32980 00706 10230 20105 38330 48489 54000 333 20166 30015 50561 55094 92428;EQDQ01  00002PRCP99
0162172050999992000081109004+38480+042300FM-12+166599999V0200701N002112200019N0300001N1+02701+01371999999ADDGA1001+999999999GF100991001001999999001001MA1999999083301MD1410001+9999ME1314889REMSYN070AAXX  11094 17205 42980 00704 10270 20137 38330 48488 54000 333 10031;
0192172050999992000081112004+38480+042300FM-12+166599999V0200701N001512200019N0300001N1+02921+01351999999ADDAA199000091GA1001+999999999GF100991001001999999001001MA1999999083201MD1810101+9999ME1314749REMSYN070AAXX  11124 17205 32980 00703 10292 20135 38320 48474 58010 333 10025;EQDQ01  00002PRCP99
0162172050999992000081115004+38480+042300FM-12+166599999V0200201N001012200019N0300001N1+02721+00931999999ADDGA1001+999999999GF100991001001999999001001MA1999999083001MD1710201+9999ME1314549REMSYN070AAXX  11154 17205 42980 00202 10272 20093 38300 48454 57020 333 10008;
0211172050999992000081118004+38480+042300FM-12+166599999V0209999C000012200019N0300001N1+02241+00891999999ADDAA199000091GA1001+999999999GF100991001001999999001001KA1120M+03041MA1999999083101MD1210101+9999ME1314679REMSYN076AAXX  11184 17205 32980 00000 10224 20089 38310 48467 52010 333 10304 92418;EQDQ01  00002PRCP99
0162172050999992000081121004+38480+042300FM-12+166599999V0200701N001012200019N0300001N1+02241+01271999999ADDGA1001+999999999GF100991001001999999001001MA1999999083201MD1110101+9999ME1313799REMSYN070AAXX  11214 17205 42980 00702 10224 20127 38320 48379 51010 333 10019;
0192172050999992000081200004+38480+042300FM-12+166599999V0209999C000012200019N0300001N1+02041+01101999999ADDAA199000091GA1001+999999999GF100991001001999999001001MA1999999083201MD1410001+9999ME1314829REMSYN070AAXX  12004 17205 32980 00000 10204 20110 38320 48482 54000 333 10019;EQDQ01  00002PRCP99
0162172050999992000081203004+38480+042300FM-12+166599999V0209999C000012200019N0300001N1+02101+01171999999ADDGA1001+999999999GF100991001001999999001001MA1999999083201MD1410001+9999ME1314829REMSYN070AAXX  12034 17205 42980 00000 10210 20117 38320 48482 54000 333 10025;
0247172050999992000081206004+38480+042300FM-12+166599999V0200701N003112200019N0300001N1+02401+01251999999ADDAA199000091GA1001+999999999GF100991001001999999001001IA1019IA2999+01709KA1120N+01901MA1999999083301MD1210101+9999ME1314899REMSYN094AAXX  12064 17205 32980 00706 10240 20125 38330 48489 52010 333 20190 30017 50641 55094 92428;EQDQ01  00002PRCP99
0162172050999992000081209004+38480+042300FM-12+166599999V0200701N002112200019N0300001N1+02541+01091999999ADDGA1001+999999999GF100991001001999999001001MA1999999083301MD1410001+9999ME1314879REMSYN070AAXX  12094 17205 42980 00704 10254 20109 38330 48487 54000 333 10037;
0204172050999992000081212004+38480+042300FM-12+166599999V0200701N002112200019N0300001N1+03001+01081999999ADDAA199000091GA1021+012009089GF102991021011012501001001MA1999999083201MD1610101+9999ME1314749REMSYN082AAXX  12124 17205 32680 20704 10300 20108 38320 48474 56010 82100 333 82840 92418;EQDQ01  00002PRCP99
0174172050999992000081215004+38480+042300FM-12+166599999V0209999C000012200019N0300001N1+02861+01001999999ADDGA1021+012009089GF102991021011012501001001MA1999999083201MD1410001+9999ME1314759REMSYN082AAXX  12154 17205 42680 20000 10286 20100 38320 48475 54000 82100 333 82840 92418;
0211172050999992000081218004+38480+042300FM-12+166599999V0209999C000012200019N0300001N1+02301+00621999999ADDAA199000091GA1001+999999999GF100991001001999999001001KA1120M+03101MA1999999083201MD1410001+9999ME1314789REMSYN076AAXX  12184 17205 32980 00000 10230 20062 38320 48478 54000 333 10310 92418;EQDQ01  00002PRCP99
0162172050999992000081221004+38480+042300FM-12+166599999V0209999C000012200019N0300001N1+02001+00641999999ADDGA1001+999999999GF100991001001999999001001MA1999999083201MD1410001+9999ME1314819REMSYN070AAXX  12214 17205 42980 00000 10200 20064 38320 48481 54000 333 10032;
0192172050999992000081300004+38480+042300FM-12+166599999V0209999C000012200019N0300001N1+01961+00881999999ADDAA199000091GA1001+999999999GF100991001001999999001001MA1999999083301MD1110101+9999ME1314919REMSYN070AAXX  13004 17205 32980 00000 10196 20088 38330 48491 51010 333 10031;EQDQ01  00002PRCP99
0162172050999992000081303004+38480+042300FM-12+166599999V0209999C000012200019N0300001N1+01701+00671999999ADDGA1001+999999999GF100991001001999999001001MA1999999083301MD1410001+9999ME1314929REMSYN070AAXX  13034 17205 42980 00000 10170 20067 38330 48492 54000 333 10044;
0247172050999992000081306004+38480+042300FM-12+166599999V0200701N001012200019N0300001N1+02341+01211999999ADDAA199000091GA1001+999999999GF100991001001999999001001IA1019IA2999+01509KA1120N+01601MA1999999083401MD1210101+9999ME1314999REMSYN094AAXX  13064 17205 32980 00702 10234 20121 38340 48499 52010 333 20160 30015 50801 55090 92418;EQDQ01  00002PRCP99
0162172050999992000081309004+38480+042300FM-12+166599999V0200701N001012200019N0300001N1+03001+01201999999ADDGA1001+999999999GF100991001001999999001001MA1999999083301MD1810101+9999ME1314859REMSYN070AAXX  13094 17205 42980 00702 10300 20120 38330 48485 58010 333 10031;
0204172050999992000081312004+38480+042300FM-12+166599999V0200701N001512200019N0300001N1+03101+00831999999ADDAA199000091GA1021+012009089GF103991021011012501001001MA1999999083201MD1710101+9999ME1314739REMSYN082AAXX  13124 17205 32680 30703 10310 20083 38320 48473 57010 82100 333 82840 92418;EQDQ01  00002PRCP99
0174172050999992000081315004+38480+042300FM-12+166599999V0202001N002612200019N0300001N1+03161+00361999999ADDGA1021+012009089GF102991021011012501001001MA1999999083201MD1410001+9999ME1314739REMSYN082AAXX  13154 17205 42680 22005 10316 20036 38320 48473 54000 82100 333 82840 92418;
0211172050999992000081318004+38480+042300FM-12+166599999V0202501N001512200019N0300001N1+02761+00181999999ADDAA199000091GA1001+999999999GF100991001001999999001001KA1120M+03501MA1999999083301MD1110101+9999ME1314869REMSYN076AAXX  13184 17205 32980 02503 10276 20018 38330 48486 51010 333 10350 92418;EQDQ01  00002PRCP99
0123172050999992000081321004+38480+042300FM-12+166599999V0209999C000012200019N0300001N1+99999+99999999999ADDGA1001+999999999GF100991001001999999001001REMSYN069AAXX  13214 17205 42980 00000 1026 20035 38330 48491 54000 333 10024;
0162172050999992000081403004+38480+042300FM-12+166599999V0209999C000012200019N0300001N1+01761+00491999999ADDGA1001+999999999GF100991001001999999001001MA1999999083401MD1410001+9999ME1315039REMSYN070AAXX  14034 17205 42980 00000 10176 20049 38340 48503 54000 333 10043;
0247172050999992000081406004+38480+042300FM-12+166599999V0209999C000012200019N0300001N1+02401+00771999999ADDAA199000091GA1001+999999999GF100991001001999999001001IA1019IA2999+01609KA1120N+01701MA1999999083401MD1410001+9999ME1315039REMSYN094AAXX  14064 17205 32980 00000 10240 20077 38340 48503 54000 333 20170 30016 50641 55088 92418;EQDQ01  00002PRCP99
0162172050999992000081409004+38480+042300FM-12+166599999V0202001N001512200019N0300001N1+02961-00061999999ADDGA1001+999999999GF100991001001999999001001MA1999999083501MD1110101+9999ME1315069REMSYN070AAXX  14094 17205 42980 02003 10296 21006 38350 48506 51010 333 10048;
0192172050999992000081412004+38480+042300FM-12+166599999V0202001N002112200019N0300001N1+03061-00191999999ADDAA199000091GA1001+999999999GF100991001001999999001001MA1999999083401MD1810101+9999ME1314969REMSYN070AAXX  14124 17205 32980 02004 10306 21019 38340 48496 58010 333 10041;EQDQ01  00002PRCP99
0162172050999992000081415004+38480+042300FM-12+166599999V0202001N001512200019N0300001N1+02821+00111999999ADDGA1001+999999999GF100991001001999999001001MA1999999083401MD1410001+9999ME1314979REMSYN070AAXX  14154 17205 42980 02003 10282 20011 38340 48497 54000 333 10056;
0211172050999992000081418004+38480+042300FM-12+166599999V0209999C000012200019N0300001N1+02441+00001999999ADDAA199000091GA1001+999999999GF100991001001999999001001KA1120M+03161MA1999999083401MD1410001+9999ME1314999REMSYN076AAXX  14184 17205 32980 00000 10244 21000 38340 48499 54000 333 10316 92418;EQDQ01  00002PRCP99
0162172050999992000081421004+38480+042300FM-12+166599999V0209999C000012200019N0300001N1+01941+00561999999ADDGA1001+999999999GF100991001001999999001001MA1999999083401MD1410001+9999ME1315019REMSYN070AAXX  14214 17205 42980 00000 10194 20056 38340 48501 54000 333 10043;
0192172050999992000081500004+38480+042300FM-12+166599999V0209999C000012200019N0300001N1+01701+00451999999ADDAA199000091GA1001+999999999GF100991001001999999001001MA1999999083401MD1410001+9999ME1315039REMSYN070AAXX  15004 17205 32980 00000 10170 20045 38340 48503 54000 333 10049;EQDQ01  00002PRCP99
0162172050999992000081503004+38480+042300FM-12+166599999V0209999C000012200019N0300001N1+01601+00541999999ADDGA1001+999999999GF100991001001999999001001MA1999999083401MD1410001+9999ME1315049REMSYN070AAXX  15034 17205 42980 00000 10160 20054 38340 48504 54000 333 10062;
0174172050999992000081509004+38480+042300FM-12+166599999V0200701N001512200019N0300001N1+02601+01341999999ADDGA1021+012009089GF102991021011012501001001MA1999999083401MD1410001+9999ME1314989REMSYN082AAXX  15094 17205 42680 20703 10260 20134 38340 48498 54000 82100 333 82840 92418;
0192172050999992000081512004+38480+042300FM-12+166599999V0200701N001512200019N0300001N1+02841+01301999999ADDAA199000091GA1001+999999999GF100991001001999999001001MA1999999083301MD1610101+9999ME1314869REMSYN070AAXX  15124 17205 32980 00703 10284 20130 38330 48486 56010 333 10044;EQDQ01  00002PRCP99
0174172050999992000081515004+38480+042300FM-12+166599999V0209999C000012200019N0300001N1+02701-00081999999ADDGA1021+012009089GF102991021011012501001001MA1999999083201MD1810101+9999ME1314759REMSYN082AAXX  15154 17205 42680 20000 10270 21008 38320 48475 58010 82100 333 82840 92418;
0211172050999992000081518004+38480+042300FM-12+166599999V0209999C000012200019N0300001N1+02201-00101999999ADDAA199000091GA1001+999999999GF100991001001999999001001KA1120M+02961MA1999999083201MD1410001+9999ME1314799REMSYN076AAXX  15184 17205 32980 00000 10220 21010 38320 48479 54000 333 10296 92418;EQDQ01  00002PRCP99
0162172050999992000081521004+38480+042300FM-12+166599999V0202501N002112200019N0300001N1+02301-00241999999ADDGA1001+999999999GF100991001001999999001001MA1999999083261MD1110061+9999ME1314899REMSYN070AAXX  15214 17205 42980 02504 10230 21024 38326 48489 51006 333 10032;
0192172050999992000081600004+38480+042300FM-12+166599999V0209999C000012200019N0300001N1+01901-00361999999ADDAA199000091GA1001+999999999GF100991001001999999001001MA1999999083301MD1110041+9999ME1314919REMSYN070AAXX  16004 17205 32980 00000 10190 21036 38330 48491 51004 333 10037;EQDQ01  00002PRCP99
0162172050999992000081603004+38480+042300FM-12+166599999V0209999C000012200019N0300001N1+01601+00311999999ADDGA1001+999999999GF100991001001999999001001MA1999999083301MD1410001+9999ME1314959REMSYN070AAXX  16034 17205 42980 00000 10160 20031 38330 48495 54000 333 10050;
0247172050999992000081606004+38480+042300FM-12+166599999V0209999C000012200019N0300001N1+02201+00661999999ADDAA199000091GA1001+999999999GF100991001001999999001001IA1019IA2999+01409KA1120N+01501MA1999999083401MD1210101+9999ME1315009REMSYN094AAXX  16064 17205 32980 00000 10220 20066 38340 48500 52010 333 20150 30014 50721 55087 92418;EQDQ01  00002PRCP99
0162172050999992000081609004+38480+042300FM-12+166599999V0200701N001512200019N0300001N1+02801+00941999999ADDGA1001+999999999GF100991001001999999001001MA1999999083301MD1810101+9999ME1314869REMSYN070AAXX  16094 17205 42980 00703 10280 20094 38330 48486 58010 333 10031;
0192172050999992000081612004+38480+042300FM-12+166599999V0200701N001512200019N0300001N1+02701+00941999999ADDAA199000091GA1001+999999999GF100991001001999999001001MA1999999083201MD1710101+9999ME1314759REMSYN070AAXX  16124 17205 32980 00703 10270 20094 38320 48475 57010 333 10032;EQDQ01  00002PRCP99
0174172050999992000081615004+38480+042300FM-12+166599999V0209999C000012200019N0300001N1+02601+00611999999ADDGA1021+012009089GF102991021011012501001001MA1999999083201MD1410001+9999ME1314779REMSYN082AAXX  16154 17205 42680 20000 10260 20061 38320 48477 54000 82100 333 82840 92418;
0211172050999992000081618004+38480+042300FM-12+166599999V0209999C000012200019N0300001N1+02201-00091999999ADDAA199000091GA1001+999999999GF100991001001999999001001KA1120M+02861MA1999999083201MD1410001+9999ME1314799REMSYN076AAXX  16184 17205 32980 00000 10220 21009 38320 48479 54000 333 10286 92418;EQDQ01  00002PRCP99
0162172050999992000081621004+38480+042300FM-12+166599999V0209999C000012200019N0300001N1+01901-00361999999ADDGA1001+999999999GF100991001001999999001001MA1999999083201MD1410001+9999ME1314819REMSYN070AAXX  16214 17205 42980 00000 10190 21036 38320 48481 54000 333 10032;
0192172050999992000081700004+38480+042300FM-12+166599999V0209999C000012200019N0300001N1+01621-00091999999ADDAA199000091GA1001+999999999GF100991001001999999001001MA1999999083301MD1210101+9999ME1314939REMSYN070AAXX  17004 17205 32980 00000 10162 21009 38330 48493 52010 333 10050;EQDQ01  00002PRCP99
0162172050999992000081703004+38480+042300FM-12+166599999V0209999C000012200019N0300001N1+01641+00721999999ADDGA1001+999999999GF100991001001999999001001MA1999999083301MD1410001+9999ME1314939REMSYN070AAXX  17034 17205 42980 00000 10164 20072 38330 48493 54000 333 10057;
0247172050999992000081706004+38480+042300FM-12+166599999V0200701N001012200019N0300001N1+02301+01011999999ADDAA199000091GA1001+999999999GF100991001001999999001001IA1019IA2999+01409KA1120N+01541MA1999999083401MD1210101+9999ME1314999REMSYN094AAXX  17064 17205 32980 00702 10230 20101 38340 48499 52010 333 20154 30014 50641 55086 92418;EQDQ01  00002PRCP99
0174172050999992000081709004+38480+042300FM-12+166599999V0200701N001512200019N0300001N1+02741+01241999999ADDGA1021+012009089GF102991021011012501001001MA1999999083301MD1610101+9999ME1314869REMSYN082AAXX  17094 17205 42680 20703 10274 20124 38330 48486 56010 82100 333 82840 92418;
0192172050999992000081712004+38480+042300FM-12+166599999V0200701N001512200019N0300001N1+02801+00681999999ADDAA199000091GA1001+999999999GF100991001001999999001001MA1999999083301MD1410001+9999ME1314869REMSYN070AAXX  17124 17205 32980 00703 10280 20068 38330 48486 54000 333 10050;EQDQ01  00002PRCP99
0181172050999992000081715004+38480+042300FM-12+166599999V0202001N001512200019N0300001N1+02901-01032999999ADDGA1001+999999999GF100991001001999999001001MA1999999083301MD1410001+9999ME1314859REMSYN070AAXX  17154 17205 42980 02003 10290 21103 38330 48485 54000 333 10044;EQDQ01-001033ATOD  
0211172050999992000081718004+38480+042300FM-12+166599999V0202201N001012200019N0300001N1+02601-01211999999ADDAA199000091GA1001+999999999GF100991001001999999001001KA1120M+03141MA1999999083301MD1410001+9999ME1314879REMSYN076AAXX  17184 17205 32980 02202 10260 21121 38330 48487 54000 333 10314 92418;EQDQ01  00002PRCP99
0162172050999992000081721004+38480+042300FM-12+166599999V0202001N001012200019N0300001N1+02501-01271999999ADDGA1001+999999999GF100991001001999999001001MA1999999083301MD1410001+9999ME1314879REMSYN070AAXX  17214 17205 42980 02002 10250 21127 38330 48487 54000 333 10024;
0192172050999992000081800004+38480+042300FM-12+166599999V0209999C000012200019N0300001N1+01741-00011999999ADDAA199000091GA1001+999999999GF100991001001999999001001MA1999999083301MD1410001+9999ME1314929REMSYN070AAXX  18004 17205 32980 00000 10174 21001 38330 48492 54000 333 10044;EQDQ01  00002PRCP99
0162172050999992000081803004+38480+042300FM-12+166599999V0209999C000012200019N0300001N1+01501+00171999999ADDGA1001+999999999GF100991001001999999001001MA1999999083301MD1410001+9999ME1314939REMSYN070AAXX  18034 17205 42980 00000 10150 20017 38330 48493 54000 333 10050;
0247172050999992000081806004+38480+042300FM-12+166599999V0209999C000012200019N0300001N1+02201+00661999999ADDAA199000091GA1001+999999999GF100991001001999999001001IA1019IA2999+01309KA1120N+01441MA1999999083401MD1110101+9999ME1315009REMSYN094AAXX  18064 17205 32980 00000 10220 20066 38340 48500 51010 333 20144 30013 50481 55084 92418;EQDQ01  00002PRCP99
0162172050999992000081809004+38480+042300FM-12+166599999V0202001N001512200019N0300001N1+03001-00461999999ADDGA1001+999999999GF100991001001999999001001MA1999999083401MD1410001+9999ME1314969REMSYN070AAXX  18094 17205 42980 02003 10300 21046 38340 48496 54000 333 10023;
0192172050999992000081812004+38480+042300FM-12+166599999V0202501N002112200019N0300001N1+03201-00821999999ADDAA199000091GA1001+999999999GF100991001001999999001001MA1999999083401MD1410001+9999ME1314949REMSYN070AAXX  18124 17205 32980 02504 10320 21082 38340 48494 54000 333 10043;EQDQ01  00002PRCP99
0162172050999992000081815004+38480+042300FM-12+166599999V0202501N001012200019N0300001N1+02941-00631999999ADDGA1001+999999999GF100991001001999999001001MA1999999083401MD1410001+9999ME1314969REMSYN070AAXX  18154 17205 42980 02502 10294 21063 38340 48496 54000 333 10062;
0211172050999992000081818004+38480+042300FM-12+166599999V0209999C000012200019N0300001N1+02301-00241999999ADDAA199000091GA1001+999999999GF100991001001999999001001KA1120M+03261MA1999999083401MD1410001+9999ME1314999REMSYN076AAXX  18184 17205 32980 00000 10230 21024 38340 48499 54000 333 10326 92418;EQDQ01  00002PRCP99
0162172050999992000081821004+38480+042300FM-12+166599999V0209999C000012200019N0300001N1+01941+00341999999ADDGA1001+999999999GF100991001001999999001001MA1999999083401MD1410001+9999ME1315019REMSYN070AAXX  18214 17205 42980 00000 10194 20034 38340 48501 54000 333 10043;
0192172050999992000081900004+38480+042300FM-12+166599999V0209999C000012200019N0300001N1+01741-00011999999ADDAA199000091GA1001+999999999GF100991001001999999001001MA1999999083501MD1110101+9999ME1315139REMSYN070AAXX  19004 17205 32980 00000 10174 21001 38350 48513 51010 333 10055;EQDQ01  00002PRCP99
0162172050999992000081903004+38480+042300FM-12+166599999V0209999C000012200019N0300001N1+01601+00311999999ADDGA1001+999999999GF100991001001999999001001MA1999999083501MD1410001+9999ME1315149REMSYN070AAXX  19034 17205 42980 00000 10160 20031 38350 48514 54000 333 10068;
0247172050999992000081906004+38480+042300FM-12+166599999V0209999C000012200019N0300001N1+02201+00611999999ADDAA199000091GA1001+999999999GF100991001001999999001001IA1019IA2999+01309KA1120N+01441MA1999999083541MD1110041+9999ME1315119REMSYN094AAXX  19064 17205 32980 00000 10220 20061 38354 48511 51004 333 20144 30013 50801 55084 92418;EQDQ01  00002PRCP99
0162172050999992000081909004+38480+042300FM-12+166599999V0200701N001012200019N0300001N1+02781+01211999999ADDGA1001+999999999GF100991001001999999001001MA1999999083501MD1810041+9999ME1315069REMSYN070AAXX  19094 17205 42980 00702 10278 20121 38350 48506 58004 333 10061;
0162172050999992000081915004+38480+042300FM-12+166599999V0200701N001012200019N0300001N1+02701+00521999999ADDGA1001+999999999GF100991001001999999001001MA1999999083301MD1610101+9999ME1314869REMSYN070AAXX  19154 17205 42980 00702 10270 20052 38330 48486 56010 333 10050;
0211172050999992000081918004+38480+042300FM-12+166599999V0202701N001012200019N0300001N1+02441-00221999999ADDAA199000091GA1001+999999999GF100991001001999999001001KA1120M+03001MA1999999083301MD1410001+9999ME1314899REMSYN076AAXX  19184 17205 32980 02702 10244 21022 38330 48489 54000 333 10300 92418;EQDQ01  00002PRCP99
0162172050999992000081921004+38480+042300FM-12+166599999V0209999C000012200019N0300001N1+01941-00021999999ADDGA1001+999999999GF100991001001999999001001MA1999999083301MD1410001+9999ME1314919REMSYN070AAXX  19214 17205 42980 00000 10194 21002 38330 48491 54000 333 10037;
0192172050999992000082000004+38480+042300FM-12+166599999V0209999C000012200019N0300001N1+01741-00011999999ADDAA199000091GA1001+999999999GF100991001001999999001001MA1999999083301MD1410001+9999ME1314929REMSYN070AAXX  20004 17205 32980 00000 10174 21001 38330 48492 54000 333 10044;EQDQ01  00002PRCP99
0162172050999992000082003004+38480+042300FM-12+166599999V0209999C000012200019N0300001N1+01501+00171999999ADDGA1001+999999999GF100991001001999999001001MA1999999083301MD1410001+9999ME1314939REMSYN070AAXX  20034 17205 42980 00000 10150 20017 38330 48493 54000 333 10057;
0247172050999992000082006004+38480+042300FM-12+166599999V0209999C000012200019N0300001N1+02101+00781999999ADDAA199000091GA1001+999999999GF100991001001999999001001IA1019IA2999+01309KA1120N+01401MA1999999083301MD1410001+9999ME1314909REMSYN094AAXX  20064 17205 32980 00000 10210 20078 38330 48490 54000 333 20140 30013 50641 55083 92418;EQDQ01  00002PRCP99
0162172050999992000082009004+38480+042300FM-12+166599999V0201301N001012200019N0300001N1+02861-00071999999ADDGA1001+999999999GF100991001001999999001001MA1999999083301MD1410001+9999ME1314909REMSYN070AAXX  20094 17205 42980 01302 10286 21007 38330 48490 54000 333 10037;
0192172050999992000082012004+38480+042300FM-12+166599999V0202001N003612200019N0300001N1+03041-01041999999ADDAA199000091GA1001+999999999GF100991001001999999001001MA1999999083301MD1410001+9999ME1314909REMSYN070AAXX  20124 17205 32980 02007 10304 21104 38330 48490 54000 333 10037;EQDQ01  00002PRCP99
0162172050999992000082015004+38480+042300FM-12+166599999V0202501N001512200019N0300001N1+02761-00501999999ADDGA1001+999999999GF100991001001999999001001MA1999999083301MD1410001+9999ME1314869REMSYN070AAXX  20154 17205 42980 02503 10276 21050 38330 48486 54000 333 10050;
0227172050999992000082018004+38480+042300FM-12+166599999V0202001N001012200019N0300001N1+02501+01352999999ADDAA199000091GA1001+999999999GF100991001001999999001001KA1120M+03141MA1999999083401MD1110101+9999ME1314989REMSYN076AAXX  20184 17205 32980 02002 10250 20135 38340 48498 51010 333 10314 92418;EQDQ01+001353ATOD  Q02  00002PRCP99
0162172050999992000082021004+38480+042300FM-12+166599999V0209999C000012200019N0300001N1+01901+00261999999ADDGA1001+999999999GF100991001001999999001001MA1999999083401MD1410001+9999ME1315019REMSYN070AAXX  20214 17205 42980 00000 10190 20026 38340 48501 54000 333 10049;
0192172050999992000082100004+38480+042300FM-12+166599999V0209999C000012200019N0300001N1+01701+00451999999ADDAA199000091GA1001+999999999GF100991001001999999001001MA1999999083401MD1410001+9999ME1315039REMSYN070AAXX  21004 17205 32980 00000 10170 20045 38340 48503 54000 333 10049;EQDQ01  00002PRCP99
0162172050999992000082103004+38480+042300FM-12+166599999V0209999C000012200019N0300001N1+01501+00411999999ADDGA1001+999999999GF100991001001999999001001MA1999999083501MD1110101+9999ME1315149REMSYN070AAXX  21034 17205 42980 00000 10150 20041 38350 48514 51010 333 10081;
0247172050999992000082106004+38480+042300FM-12+166599999V0209999C000012200019N0300001N1+02101+00781999999ADDAA199000091GA1001+999999999GF100991001001999999001001IA1019IA2999+01309KA1120N+01401MA1999999083501MD1410001+9999ME1315119REMSYN094AAXX  21064 17205 32980 00000 10210 20078 38350 48511 54000 333 20140 30013 50641 55084 92418;EQDQ01  00002PRCP99
0174172050999992000082109004+38480+042300FM-12+166599999V0200701N001512200019N0300001N1+02801+00291999999ADDGA1021+012009089GF102991021011012501001001MA1999999083501MD1410001+9999ME1315079REMSYN082AAXX  21094 17205 42680 20703 10280 20029 38350 48507 54000 82100 333 82840 92418;
0204172050999992000082112004+38480+042300FM-12+166599999V0202501N003612200019N0300001N1+02861-00071999999ADDAA199000091GA1021+012009089GF102991021011012501001001MA1999999083441MD1610061+9999ME1314979REMSYN082AAXX  21124 17205 32680 22507 10286 21007 38344 48497 56006 82100 333 82840 92428;EQDQ01  00002PRCP99
0162172050999992000082115004+38480+042300FM-12+166599999V0202001N002112200019N0300001N1+02741-00131999999ADDGA1001+999999999GF100991001001999999001001MA1999999083441MD1610041+9999ME1314979REMSYN070AAXX  21154 17205 42980 02004 10274 21013 38344 48497 56004 333 10069;
0211172050999992000082118004+38480+042300FM-12+166599999V0209999C000012200019N0300001N1+02261+00141999999ADDAA199000091GA1001+999999999GF100991001001999999001001KA1120M+03101MA1999999083501MD1210101+9999ME1315119REMSYN076AAXX  21184 17205 32980 00000 10226 20014 38350 48511 52010 333 10310 92418;EQDQ01  00002PRCP99
0162172050999992000082121004+38480+042300FM-12+166599999V0209999C000012200019N0300001N1+01701+00451999999ADDGA1001+999999999GF100991001001999999001001MA1999999083501MD1410001+9999ME1315139REMSYN070AAXX  21214 17205 42980 00000 10170 20045 38350 48513 54000 333 10038;
0192172050999992000082200004+38480+042300FM-12+166599999V0209999C000012200019N0300001N1+01501+00171999999ADDAA199000091GA1001+999999999GF100991001001999999001001MA1999999083501MD1410001+9999ME1315149REMSYN070AAXX  22004 17205 32980 00000 10150 20017 38350 48514 54000 333 10074;EQDQ01  00002PRCP99
0162172050999992000082203004+38480+042300FM-12+166599999V0209999C000012200019N0300001N1+01361+00061999999ADDGA1001+999999999GF100991001001999999001001MA1999999083501MD1410001+9999ME1315159REMSYN070AAXX  22034 17205 42980 00000 10136 20006 38350 48515 54000 333 10088;
0247172050999992000082206004+38480+042300FM-12+166599999V0209999C000012200019N0300001N1+02041+00901999999ADDAA199000091GA1001+999999999GF100991001001999999001001IA1019IA2999+01209KA1120N+01261MA1999999083601MD1210101+9999ME1315229REMSYN094AAXX  22064 17205 32980 00000 10204 20090 38360 48522 52010 333 20126 30012 50801 55084 92418;EQDQ01  00002PRCP99
0162172050999992000082209004+38480+042300FM-12+166599999V0200701N001012200019N0300001N1+02661+01351999999ADDGA1001+999999999GF100991001001999999001001MA1999999083601MD1410001+9999ME1315199REMSYN070AAXX  22094 17205 42980 00702 10266 20135 38360 48519 54000 333 10087;
0192172050999992000082212004+38480+042300FM-12+166599999V0200701N002112200019N0300001N1+02801+01121999999ADDAA199000091GA1001+999999999GF100991001001999999001001MA1999999083501MD1810101+9999ME1315079REMSYN070AAXX  22124 17205 32980 00704 10280 20112 38350 48507 58010 333 10074;EQDQ01  00002PRCP99
0162172050999992000082215004+38480+042300FM-12+166599999V0202501N001512200019N0300001N1+02901+00022999999ADDGA1001+999999999GF100991001001999999001001MA1999999083501MD1410001+9999ME1315069REMSYN070AAXX  22154 17205 42980 02503 10290 20002 38350 48506 54000 333 10081;
0211172050999992000082218004+38480+042300FM-12+166599999V0202501N001012200019N0300001N1+02361+00301999999ADDAA199000091GA1001+999999999GF100991001001999999001001KA1120M+03101MA1999999083601MD1110101+9999ME1315209REMSYN076AAXX  22184 17205 32980 02502 10236 20030 38360 48520 51010 333 10310 92418;EQDQ01  00002PRCP99
0162172050999992000082221004+38480+042300FM-12+166599999V0209999C000012200019N0300001N1+01861+00301999999ADDGA1001+999999999GF100991001001999999001001MA1999999083601MD1410001+9999ME1315239REMSYN070AAXX  22214 17205 42980 00000 10186 20030 38360 48523 54000 333 10080;
0192172050999992000082300004+38480+042300FM-12+166599999V0209999C000012200019N0300001N1+01601+00401999999ADDAA199000091GA1001+999999999GF100991001001999999001001MA1999999083601MD1410001+9999ME1315249REMSYN070AAXX  23004 17205 32980 00000 10160 20040 38360 48524 54000 333 10087;EQDQ01  00002PRCP99
0162172050999992000082303004+38480+042300FM-12+166599999V0209999C000012200019N0300001N1+01601+00411999999ADDGA1001+999999999GF100991001001999999001001MA1999999083601MD1410001+9999ME1315249REMSYN070AAXX  23034 17205 42980 00000 10160 20041 38360 48524 54000 333 10087;
0247172050999992000082306004+38480+042300FM-12+166599999V0209999C000012200019N0300001N1+02141+01041999999ADDAA199000091GA1001+999999999GF100991001001999999001001IA1019IA2999+01309KA1120N+01401MA1999999083701MD1410001+9999ME1315319REMSYN094AAXX  23064 17205 32980 00000 10214 20104 38370 48531 54000 333 20140 30013 50561 55081 92418;EQDQ01  00002PRCP99
0162172050999992000082309004+38480+042300FM-12+166599999V0200701N001012200019N0300001N1+02661+01381999999ADDGA1001+999999999GF100991001001999999001001MA1999999083701MD1410001+9999ME1315319REMSYN070AAXX  23094 17205 42980 00702 10266 20138 38370 48531 54000 333 10099;
0192172050999992000082312004+38480+042300FM-12+166599999V0200701N001012200019N0300001N1+02901+01051999999ADDAA199000091GA1001+999999999GF100991001001999999001001MA1999999083601MD1810101+9999ME1315219REMSYN070AAXX  23124 17205 32980 00702 10290 20105 38360 48521 58010 333 10087;EQDQ01  00002PRCP99
0162172050999992000082315004+38480+042300FM-12+166599999V0209999C000012200019N0300001N1+02701+00981999999ADDGA1001+999999999GF100991001001999999001001MA1999999083501MD1810101+9999ME1315079REMSYN070AAXX  23154 17205 42980 00000 10270 20098 38350 48507 58010 333 10074;
0162172050999992000082321004+38480+042300FM-12+166599999V0209999C000012200019N0300001N1+01741+00511999999ADDGA1001+999999999GF100991001001999999001001MA1999999083501MD1410001+9999ME1315139REMSYN070AAXX  23214 17205 42980 00000 10174 20051 38350 48513 54000 333 10074;
0192172050999992000082400004+38480+042300FM-12+166599999V0209999C000012200019N0300001N1+01561+00581999999ADDAA199000091GA1001+999999999GF100991001001999999001001MA1999999083501MD1410001+9999ME1315149REMSYN070AAXX  24004 17205 32980 00000 10156 20058 38350 48514 54000 333 10074;EQDQ01  00002PRCP99
0162172050999992000082403004+38480+042300FM-12+166599999V0209999C000012200019N0300001N1+01501+00631999999ADDGA1001+999999999GF100991001001999999001001MA1999999083401MD1810101+9999ME1315049REMSYN070AAXX  24034 17205 42980 00000 10150 20063 38340 48504 58010 333 10069;
0247172050999992000082406004+38480+042300FM-12+166599999V0209999C000012200019N0300001N1+02101+01171999999ADDAA199000091GA1001+999999999GF100991001001999999001001IA1019IA2999+01309KA1120N+01401MA1999999083301MD1710101+9999ME1314909REMSYN094AAXX  24064 17205 32980 00000 10210 20117 38330 48490 57010 333 20140 30013 50401 55083 92418;EQDQ01  00002PRCP99
0162172050999992000082409004+38480+042300FM-12+166599999V0202001N001512200019N0300001N1+03001+00071999999ADDGA1001+999999999GF100991001001999999001001MA1999999083201MD1810101+9999ME1314749REMSYN070AAXX  24094 17205 42980 02003 10300 20007 38320 48474 58010 333 10025;
0192172050999992000082412004+38480+042300FM-12+166599999V0202001N002112200019N0300001N1+03101-00061999999ADDAA199000091GA1001+999999999GF100991001001999999001001MA1999999083101MD1610101+9999ME1314629REMSYN070AAXX  24124 17205 32980 02004 10310 21006 38310 48462 56010 333 10020;EQDQ01  00002PRCP99
0162172050999992000082415004+38480+042300FM-12+166599999V0202001N001512200019N0300001N1+02761-00151999999ADDGA1001+999999999GF100991001001999999001001MA1999999083001MD1710101+9999ME1314549REMSYN070AAXX  24154 17205 42980 02003 10276 21015 38300 48454 57010 333 10021;
0211172050999992000082418004+38480+042300FM-12+166599999V0202701N001512200019N0300001N1+02361-00491999999ADDAA199000091GA1001+999999999GF100991001001999999001001KA1120M+03221MA1999999083101MD1210101+9999ME1314679REMSYN076AAXX  24184 17205 32980 02703 10236 21049 38310 48467 52010 333 10322 92418;EQDQ01  00002PRCP99
0162172050999992000082421004+38480+042300FM-12+166599999V0202701N001512200019N0300001N1+02201-00101999999ADDGA1001+999999999GF100991001001999999001001MA1999999083101MD1410001+9999ME1314699REMSYN070AAXX  24214 17205 42980 02703 10220 21010 38310 48469 54000 333 10000;
0192172050999992000082500004+38480+042300FM-12+166599999V0202701N001012200019N0300001N1+01941+00341999999ADDAA199000091GA1001+999999999GF100991001001999999001001MA1999999083101MD1410001+9999ME1314709REMSYN070AAXX  25004 17205 32980 02702 10194 20034 38310 48470 54000 333 10006;EQDQ01  00002PRCP99
0162172050999992000082503004+38480+042300FM-12+166599999V0209999C000012200019N0300001N1+01641+00641999999ADDGA1001+999999999GF100991001001999999001001MA1999999083101MD1410001+9999ME1314739REMSYN070AAXX  25034 17205 42980 00000 10164 20064 38310 48473 54000 333 10026;
0247172050999992000082506004+38480+042300FM-12+166599999V0201601N001512200019N0300001N1+02141+00831999999ADDAA199000091GA1001+999999999GF100991001001999999001001IA1019IA2999+01409KA1120N+01541MA1999999083101MD1410001+9999ME1314699REMSYN094AAXX  25064 17205 32980 01603 10214 20083 38310 48469 54000 333 20154 30014 50881 55076 92418;EQDQ01  00002PRCP99
0162172050999992000082509004+38480+042300FM-12+166599999V0201601N001512200019N0300001N1+02741+00481999999ADDGA1001+999999999GF100991001001999999001001MA1999999083001MD1810101+9999ME1314549REMSYN070AAXX  25094 17205 42980 01603 10274 20048 38300 48454 58010 333 92418;
0192172050999992000082512004+38480+042300FM-12+166599999V0202001N002112200019N0300001N1+02801+00071999999ADDAA199000091GA1001+999999999GF100991001001999999001001MA1999999083001MD1410001+9999ME1314549REMSYN070AAXX  25124 17205 32980 02004 10280 20007 38300 48454 54000 333 10001;EQDQ01  00002PRCP99
0174172050999992000082515004+38480+042300FM-12+166599999V0202001N002112200019N0300001N1+02521-00051999999ADDGA1021+012009089GF102991021011012501001001MA1999999082901MD1710101+9999ME1314459REMSYN082AAXX  25154 17205 42680 22004 10252 21005 38290 48445 57010 82100 333 82840 92418;
0223172050999992000082518004+38480+042300FM-12+166599999V0202701N001512200019N0300001N1+02321+00351999999ADDAA199000091GA1021+012009089GF102991021011012501001001KA1120M+02901MA1999999083001MD1110101+9999ME1314579REMSYN088AAXX  25184 17205 32680 22703 10232 20035 38300 48457 51010 82100 333 10290 82840 92418;EQDQ01  00002PRCP99
0162172050999992000082521004+38480+042300FM-12+166599999V0209999C000012200019N0300001N1+01961+00451999999ADDGA1001+999999999GF100991001001999999001001MA1999999083101MD1210101+9999ME1314709REMSYN070AAXX  25214 17205 42980 00000 10196 20045 38310 48470 52010 333 10013;
0174172050999992000082603004+38480+042300FM-12+166599999V0209999C000012200019N0300001N1+01501+00731999999ADDGA1021+012009089GF102991021011012501001001MA1999999083081MD1110041+9999ME1314739REMSYN082AAXX  26034 17205 42680 20000 10150 20073 38308 48473 51004 82100 333 82840 92418;
0259172050999992000082606004+38480+042300FM-12+166599999V0201601N001012200019N0300001N1+02001+01051999999ADDAA199000091GA1031+012009089GF103991031011012501001001IA1019IA2999+01309KA1120N+01401MA1999999083101MD1210101+9999ME1314709REMSYN106AAXX  26064 17205 32680 31602 10200 20105 38310 48470 52010 83100 333 20140 30013 50721 55074 83840 92418;EQDQ01  00002PRCP99
0196172050999992000082609004+38480+042300FM-12+166599999V0201601N002610300019N0300001N1+02561+01001999999ADDGA1031+012009089GA2051+030009039GF105991031021012501031001MA1999999083101MD1410001+9999ME1314709REMSYN088AAXX  26094 17205 42680 51605 10256 20100 38310 48470 54000 83230 333 83840 85360 92428;
0204172050999992000082612004+38480+042300FM-12+166599999V0202501N003110120019N0300001N1+02501+00691999999ADDAA199000091GA1051+012009089GF105991051021012501001001MA1999999083101MD1410001+9999ME1314669REMSYN082AAXX  26124 17205 32680 52506 10250 20069 38310 48466 54000 85200 333 85840 92428;EQDQ01  00002PRCP99
0174172050999992000082615004+38480+042300FM-12+166599999V0202501N002612200019N0300001N1+02441+00351999999ADDGA1031+012009089GF103991031021012501001001MA1999999083101MD1410001+9999ME1314679REMSYN082AAXX  26154 17205 42680 32505 10244 20035 38310 48467 54000 83200 333 83840 92428;
0223172050999992000082618004+38480+042300FM-12+166599999V0202201N002112200019N0300001N1+02301+00371999999ADDAA199000091GA1031+012009089GF103991031021012501001001KA1120M+02761MA1999999083201MD1210101+9999ME1314789REMSYN088AAXX  26184 17205 32680 32204 10230 20037 38320 48478 52010 83200 333 10276 83840 92428;EQDQ01  00002PRCP99
0162172050999992000082621004+38480+042300FM-12+166599999V0209999C000012200019N0300001N1+01901+00931999999ADDGA1001+999999999GF100991001001999999001001MA1999999083301MD1210101+9999ME1314919REMSYN070AAXX  26214 17205 42980 00000 10190 20093 38330 48491 52010 333 10050;
0192172050999992000082700004+38480+042300FM-12+166599999V0209999C000012200019N0300001N1+01741+00511999999ADDAA199000091GA1001+999999999GF100991001001999999001001MA1999999083301MD1410001+9999ME1314929REMSYN070AAXX  27004 17205 32980 00000 10174 20051 38330 48492 54000 333 10057;EQDQ01  00002PRCP99
0162172050999992000082703004+38480+042300FM-12+166599999V0209999C000012200019N0300001N1+01561+00351999999ADDGA1001+999999999GF100991001001999999001001MA1999999083301MD1410001+9999ME1314939REMSYN070AAXX  27034 17205 42980 00000 10156 20035 38330 48493 54000 333 10064;
0247172050999992000082706004+38480+042300FM-12+166599999V0201601N001512200019N0300001N1+02141+00831999999ADDAA199000091GA1001+999999999GF100991001001999999001001IA1019IA2999+01209KA1120N+01401MA1999999083401MD1110101+9999ME1315009REMSYN094AAXX  27064 17205 32980 01603 10214 20083 38340 48500 51010 333 20140 30012 50641 55069 92418;EQDQ01  00002PRCP99
0174172050999992000082709004+38480+042300FM-12+166599999V0202001N001512200019N0300001N1+02501+00441999999ADDGA1021+012009089GF102991021011012501001001MA1999999083401MD1410001+9999ME1314989REMSYN082AAXX  27094 17205 42680 22003 10250 20044 38340 48498 54000 82100 333 82840 92418;
0192172050999992000082712004+38480+042300FM-12+166599999V0202001N002112200019N0300001N1+02601+00351999999ADDAA199000091GA1001+999999999GF100991001001999999001001MA1999999083301MD1710101+9999ME1314879REMSYN070AAXX  27124 17205 32980 02004 10260 20035 38330 48487 57010 333 10050;EQDQ01  00002PRCP99
0162172050999992000082715004+38480+042300FM-12+166599999V0202001N002112200019N0300001N1+02501+00171999999ADDGA1001+999999999GF100991001001999999001001MA1999999083301MD1410001+9999ME1314879REMSYN070AAXX  27154 17205 42980 02004 10250 20017 38330 48487 54000 333 10064;
0211172050999992000082718004+38480+042300FM-12+166599999V0202501N001512200019N0300001N1+02201-00101999999ADDAA199000091GA1001+999999999GF100991001001999999001001KA1120M+02841MA1999999083301MD1410001+9999ME1314909REMSYN076AAXX  27184 17205 32980 02503 10220 21010 38330 48490 54000 333 10284 92418;EQDQ01  00002PRCP99
0162172050999992000082721004+38480+042300FM-12+166599999V0202701N001512200019N0300001N1+02001+00141999999ADDGA1001+999999999GF100991001001999999001001MA1999999083301MD1410001+9999ME1314919REMSYN070AAXX  27214 17205 42980 02703 10200 20014 38330 48491 54000 333 10050;
0192172050999992000082800004+38480+042300FM-12+166599999V0209999C000012200019N0300001N1+01561+00351999999ADDAA199000091GA1001+999999999GF100991001001999999001001MA1999999083301MD1410001+9999ME1314939REMSYN070AAXX  28004 17205 32980 00000 10156 20035 38330 48493 54000 333 10057;EQDQ01  00002PRCP99
0162172050999992000082803004+38480+042300FM-12+166599999V0209999C000012200019N0300001N1+01561+00351999999ADDGA1001+999999999GF100991001001999999001001MA1999999083301MD1410001+9999ME1314939REMSYN070AAXX  28034 17205 42980 00000 10156 20035 38330 48493 54000 333 10057;
0247172050999992000082806004+38480+042300FM-12+166599999V0209999C000012200019N0300001N1+02001+00511999999ADDAA199000091GA1001+999999999GF100991001001999999001001IA1019IA2999+01209KA1120N+01361MA1999999083201MD1810101+9999ME1314819REMSYN094AAXX  28064 17205 32980 00000 10200 20051 38320 48481 58010 333 20136 30012 50961 55074 92418;EQDQ01  00002PRCP99
0162172050999992000082809004+38480+042300FM-12+166599999V0201601N002112200019N0300001N1+02641+00311999999ADDGA1001+999999999GF100991001001999999001001MA1999999083201MD1410001+9999ME1314779REMSYN070AAXX  28094 17205 42980 01604 10264 20031 38320 48477 54000 333 10032;
0192172050999992000082812004+38480+042300FM-12+166599999V0201601N002112200019N0300001N1+02741+00011999999ADDAA199000091GA1001+999999999GF100991001001999999001001MA1999999083101MD1710101+9999ME1314659REMSYN070AAXX  28124 17205 32980 01604 10274 20001 38310 48465 57010 333 10033;EQDQ01  00002PRCP99
0162172050999992000082815004+38480+042300FM-12+166599999V0202001N002112200019N0300001N1+02401-00031999999ADDGA1001+999999999GF100991001001999999001001MA1999999083041MD1610061+9999ME1314579REMSYN070AAXX  28154 17205 42980 02004 10240 21003 38304 48457 56006 333 10019;
0211172050999992000082818004+38480+042300FM-12+166599999V0202001N002112200019N0300001N1+01901+00251999999ADDAA199000091GA1001+999999999GF100991001001999999001001KA1120M+02841MA1999999083201MD1210161+9999ME1314819REMSYN076AAXX  28184 17205 32980 02004 10190 20025 38320 48481 52016 333 10284 92418;EQDQ01  00002PRCP99
0162172050999992000082821004+38480+042300FM-12+166599999V0202001N002112200019N0300001N1+01681-00051999999ADDGA1001+999999999GF100991001001999999001001MA1999999083201MD1410001+9999ME1314839REMSYN070AAXX  28214 17205 42980 02004 10168 21005 38320 48483 54000 333 10038;
0192172050999992000082900004+38480+042300FM-12+166599999V0209999C000012200019N0300001N1+01481+00081999999ADDAA199000091GA1001+999999999GF100991001001999999001001MA1999999083201MD1410001+9999ME1314859REMSYN070AAXX  29004 17205 32980 00000 10148 20008 38320 48485 54000 333 10058;EQDQ01  00002PRCP99
0162172050999992000082903004+38480+042300FM-12+166599999V0202701N001012200019N0300001N1+01361+00061999999ADDGA1001+999999999GF100991001001999999001001MA1999999083201MD1410001+9999ME1314839REMSYN070AAXX  29034 17205 42980 02702 10136 20006 38320 48483 54000 333 10079;
0247172050999992000082906004+38480+042300FM-12+166599999V0209999C000012200019N0300001N1+01601+00311999999ADDAA199000091GA1001+999999999GF100991001001999999001001IA1019IA2999+01009KA1120N+01101MA1999999083201MD1410001+9999ME1314839REMSYN094AAXX  29064 17205 32980 00000 10160 20031 38320 48483 54000 333 20110 30010 50641 55076 92418;EQDQ01  00002PRCP99
0162172050999992000082909004+38480+042300FM-12+166599999V0200701N001012200019N0300001N1+02321+00351999999ADDGA1001+999999999GF100991001001999999001001MA1999999083201MD1410001+9999ME1314839REMSYN070AAXX  29094 17205 42980 00702 10232 20035 38320 48483 54000 333 10079;
0192172050999992000082912004+38480+042300FM-12+166599999V0200701N002112200019N0300001N1+02301+00761999999ADDAA199000091GA1001+999999999GF100991001001999999001001MA1999999083101MD1810101+9999ME1314679REMSYN070AAXX  29124 17205 32980 00704 10230 20076 38310 48467 58010 333 10044;EQDQ01  00002PRCP99
0162172050999992000082915004+38480+042300FM-12+166599999V0200701N001012200019N0300001N1+02301+00241999999ADDGA1001+999999999GF100991001001999999001001MA1999999083001MD1710101+9999ME1314579REMSYN070AAXX  29154 17205 42980 00702 10230 20024 38300 48457 57010 333 10041;
0211172050999992000082918004+38480+042300FM-12+166599999V0209999C000012200019N0300001N1+01661-00021999999ADDAA199000091GA1001+999999999GF100991001001999999001001KA1120M+02501MA1999999083001MD1410001+9999ME1314639REMSYN076AAXX  29184 17205 32980 00000 10166 21002 38300 48463 54000 333 10250 92418;EQDQ01  00002PRCP99
0162172050999992000082921004+38480+042300FM-12+166599999V0209999C000012200019N0300001N1+01321-00111999999ADDGA1001+999999999GF100991001001999999001001MA1999999083001MD1410001+9999ME1314649REMSYN070AAXX  29214 17205 42980 00000 10132 21011 38300 48464 54000 333 10041;
0192172050999992000083000004+38480+042300FM-12+166599999V0209999C000012200019N0300001N1+01101+00111999999ADDAA199000091GA1001+999999999GF100991001001999999001001MA1999999083001MD1410001+9999ME1314669REMSYN070AAXX  30004 17205 32980 00000 10110 20011 38300 48466 54000 333 10046;EQDQ01  00002PRCP99
0162172050999992000083003004+38480+042300FM-12+166599999V0209999C000012200019N0300001N1+01001+00221999999ADDGA1001+999999999GF100991001001999999001001MA1999999082901MD1610101+9999ME1314579REMSYN070AAXX  30034 17205 42980 00000 10100 20022 38290 48457 56010 333 10036;
0247172050999992000083006004+38480+042300FM-12+166599999V0209999C000012200019N0300001N1+01701+00201999999ADDAA199000091GA1001+999999999GF100991001001999999001001IA1019IA2999+00809KA1120N+00881MA1999999082801MD1710101+9999ME1314419REMSYN094AAXX  30064 17205 32980 00000 10170 20020 38280 48441 57010 333 20088 30008 50561 55076 92418;EQDQ01  00002PRCP99
0162172050999992000083009004+38480+042300FM-12+166599999V0201601N001512200019N0300001N1+02461+00091999999ADDGA1001+999999999GF100991001001999999001001MA1999999082801MD1410001+9999ME1314369REMSYN070AAXX  30094 17205 42980 01603 10246 20009 38280 48436 54000 333 10010;
0192172050999992000083012004+38480+042300FM-12+166599999V0202001N002112200019N0300001N1+02461+00091999999ADDAA199000091GA1001+999999999GF100991001001999999001001MA1999999082801MD1410001+9999ME1314369REMSYN070AAXX  30124 17205 32980 02004 10246 20009 38280 48436 54000 333 10017;EQDQ01  00002PRCP99
0162172050999992000083015004+38480+042300FM-12+166599999V0202001N002112200019N0300001N1+02201-00101999999ADDGA1001+999999999GF100991001001999999001001MA1999999082801MD1410001+9999ME1314379REMSYN070AAXX  30154 17205 42980 02004 10220 21010 38280 48437 54000 333 10031;
0211172050999992000083018004+38480+042300FM-12+166599999V0202501N001012200019N0300001N1+01761-00291999999ADDAA199000091GA1001+999999999GF100991001001999999001001KA1120M+02601MA1999999082801MD1410001+9999ME1314419REMSYN076AAXX  30184 17205 32980 02502 10176 21029 38280 48441 54000 333 10260 92418;EQDQ01  00002PRCP99
0162172050999992000083021004+38480+042300FM-12+166599999V0209999C000012200019N0300001N1+01321-00111999999ADDGA1001+999999999GF100991001001999999001001MA1999999082901MD1210101+9999ME1314549REMSYN070AAXX  30214 17205 42980 00000 10132 21011 38290 48454 52010 333 10022;
0192172050999992000083100004+38480+042300FM-12+166599999V0209999C000012200019N0300001N1+01201+00241999999ADDAA199000091GA1001+999999999GF100991001001999999001001MA1999999082861MD1610041+9999ME1314569REMSYN070AAXX  31004 17205 32980 00000 10120 20024 38286 48456 56004 333 10024;EQDQ01  00002PRCP99
0162172050999992000083103004+38480+042300FM-12+166599999V0209999C000012200019N0300001N1+01001+00221999999ADDGA1001+999999999GF100991001001999999001001MA1999999082861MD1410001+9999ME1314579REMSYN070AAXX  31034 17205 42980 00000 10100 20022 38286 48457 54000 333 10038;
0247172050999992000083106004+38480+042300FM-12+166599999V0209999C000012200019N0300001N1+01541+00421999999ADDAA199000091GA1001+999999999GF100991001001999999001001IA1019IA2999+00809KA1120N+00901MA1999999082901MD1110041+9999ME1314529REMSYN094AAXX  31064 17205 32980 00000 10154 20042 38290 48452 51004 333 20090 30008 50721 55072 92418;EQDQ01  00002PRCP99
0162172050999992000083109004+38480+042300FM-12+166599999V0200701N001512200019N0300001N1+02221+00691999999ADDGA1001+999999999GF100991001001999999001001MA1999999082901MD1410001+9999ME1314489REMSYN070AAXX  31094 17205 42980 00703 10222 20069 38290 48448 54000 333 10029;
0204172050999992000083112004+38480+042300FM-12+166599999V0200701N001512200019N0300001N1+02161+00601999999ADDAA199000091GA1031+012009089GF103991031021012501001001MA1999999082901MD1410001+9999ME1314489REMSYN082AAXX  31124 17205 32680 30703 10216 20060 38290 48448 54000 83200 333 83840 92418;EQDQ01  00002PRCP99
0174172050999992000083115004+38480+042300FM-12+166599999V0202001N001512200019N0300001N1+02141+00101999999ADDGA1021+012009089GF102991021011012501001001MA1999999082801MD1710101+9999ME1314379REMSYN082AAXX  31154 17205 42680 22003 10214 20010 38280 48437 57010 82100 333 82840 92418;
0211172050999992000083118004+38480+042300FM-12+166599999V0202501N002112200019N0300001N1+01801+00361999999ADDAA199000091GA1001+999999999GF100991001001999999001001KA1120M+02401MA1999999083001MD1210101+9999ME1314619REMSYN076AAXX  31184 17205 32980 02504 10180 20036 38300 48461 52010 333 10240 92418;EQDQ01  00002PRCP99
0162172050999992000083121004+38480+042300FM-12+166599999V0201601N001012200019N0300001N1+01401+00271999999ADDGA1001+999999999GF100991001001999999001001MA1999999083101MD1110101+9999ME1314739REMSYN070AAXX  31214 17205 42980 01602 10140 20027 38310 48473 51010 333 10053;
0192172050999992000090100004+38480+042300FM-12+166599999V0202701N001012200019N0300001N1+01241+00201999999ADDAA199000091GA1001+999999999GF100991001001999999001001MA1999999083041MD1710061+9999ME1314669REMSYN070AAXX  01004 17205 32980 02702 10124 20020 38304 48466 57006 333 10053;EQDQ01  00002PRCP99
0162172050999992000090103004+38480+042300FM-12+166599999V0209999C000012200019N0300001N1+01061+00291999999ADDGA1001+999999999GF100991001001999999001001MA1999999083081MD1210041+9999ME1314779REMSYN070AAXX  01034 17205 42980 00000 10106 20029 38308 48477 52004 333 10065;
0247172050999992000090106004+38480+042300FM-12+166599999V0209999C000012200019N0300001N1+01421+00531999999ADDAA199000091GA1001+999999999GF100991001001999999001001IA1019IA2999+00809KA1120N+00901MA1999999083101MD1110021+9999ME1314739REMSYN094AAXX  01064 17205 32980 00000 10142 20053 38310 48473 51002 333 20090 30008 50641 55069 92418;EQDQ01  00002PRCP99
0162172050999992000090109004+38480+042300FM-12+166599999V0200701N001512200019N0300001N1+02121+00811999999ADDGA1001+999999999GF100991001001999999001001MA1999999083101MD1410001+9999ME1314729REMSYN070AAXX  01094 17205 42980 00703 10212 20081 38310 48472 54000 333 10053;
0204172050999992000090112004+38480+042300FM-12+166599999V0200701N001512200019N0300001N1+02201+00941999999ADDAA199000091GA1021+012009089GF102991021011012501001001MA1999999083001MD1810101+9999ME1314589REMSYN082AAXX  01124 17205 32680 20703 10220 20094 38300 48458 58010 82100 333 82840 92418;EQDQ01  00002PRCP99
0162172050999992000090115004+38480+042300FM-12+166599999V0200701N001012200019N0300001N1+02121+00541999999ADDGA1001+999999999GF100991001001999999001001MA1999999083001MD1410001+9999ME1314589REMSYN070AAXX  01154 17205 42980 00702 10212 20054 38300 48458 54000 333 10055;
0211172050999992000090118004+38480+042300FM-12+166599999V0209999C000012200019N0300001N1+01541+00221999999ADDAA199000091GA1001+999999999GF100991001001999999001001KA1120M+02361MA1999999083001MD1410001+9999ME1314639REMSYN076AAXX  01184 17205 32980 00000 10154 20022 38300 48463 54000 333 10236 92418;EQDQ01  00002PRCP99
0162172050999992000090121004+38480+042300FM-12+166599999V0209999C000012200019N0300001N1+01241+00301999999ADDGA1001+999999999GF100991001001999999001001MA1999999083101MD1110101+9999ME1314769REMSYN070AAXX  01214 17205 42980 00000 10124 20030 38310 48476 51010 333 10060;
0192172050999992000090200004+38480+042300FM-12+166599999V0209999C000012200019N0300001N1+01041+00271999999ADDAA199000091GA1001+999999999GF100991001001999999001001MA1999999083101MD1410001+9999ME1434779REMSYN070AAXX  02004 17205 32980 00000 10104 20027 38310 47477 54000 333 10067;EQDQ01  00002PRCP99
0162172050999992000090203004+38480+042300FM-12+166599999V0209999C000012200019N0300001N1+00961+00261999999ADDGA1001+999999999GF100991001001999999001001MA1999999083001MD1610101+9999ME1314679REMSYN070AAXX  02034 17205 42980 00000 10096 20026 38300 48467 56010 333 10062;
0247172050999992000090206004+38480+042300FM-12+166599999V0209999C000012200019N0300001N1+01601+00541999999ADDAA199000091GA1001+999999999GF100991001001999999001001IA1019IA2999+00809KA1120N+00881MA1999999083001MD1410001+9999ME1314679REMSYN094AAXX  02064 17205 32980 00000 10160 20054 38300 48467 54000 333 20088 30008 50481 55074 92418;EQDQ01  00002PRCP99
0174172050999992000090209004+38480+042300FM-12+166599999V0200701N001512200019N0300001N1+02201+01001999999ADDGA1021+012009089GF102991021011012501001001MA1999999083001MD1410001+9999ME1314589REMSYN082AAXX  02094 17205 42680 20703 10220 20100 38300 48458 54000 82100 333 82840 92418;
0192172050999992000090212004+38480+042300FM-12+166599999V0200701N002112200019N0300001N1+02301+01011999999ADDAA199000091GA1001+999999999GF100991001001999999001001MA1999999082941MD1610041+9999ME1314469REMSYN070AAXX  02124 17205 32980 00704 10230 20101 38294 48446 56004 333 10041;EQDQ01  00002PRCP99
0162172050999992000090215004+38480+042300FM-12+166599999V0209999C000012200019N0300001N1+02201+01001999999ADDGA1001+999999999GF100991001001999999001001MA1999999082941MD1410001+9999ME1314469REMSYN070AAXX  02154 17205 42980 00000 10220 20100 38294 48446 54000 333 10048;
0211172050999992000090218004+38480+042300FM-12+166599999V0209999C000012200019N0300001N1+01601+00431999999ADDAA199000091GA1001+999999999GF100991001001999999001001KA1120M+02441MA1999999083001MD1210061+9999ME1314639REMSYN076AAXX  02184 17205 32080 00000 10160 20043 38300 48463 52006 333 10244 92418;EQDQ01  00002PRCP99
0162172050999992000090221004+38480+042300FM-12+166599999V0209999C000012200019N0300001N1+01301+00591999999ADDGA1001+999999999GF100991001001999999001001MA1999999083001MD1410001+9999ME1314649REMSYN070AAXX  02214 17205 42980 00000 10130 20059 38300 48464 54000 333 10041;
0192172050999992000090300004+38480+042300FM-12+166599999V0209999C000012200019N0300001N1+01161+00501999999ADDAA199000091GA1001+999999999GF100991001001999999001001MA1999999083001MD1410001+9999ME1314649REMSYN070AAXX  03004 17205 32980 00000 10116 20050 38300 48464 54000 333 10048;EQDQ01  00002PRCP99
0162172050999992000090303004+38480+042300FM-12+166599999V0209999C000012200019N0300001N1+01041+00571999999ADDGA1001+999999999GF100991001001999999001001MA1999999083001MD1410001+9999ME1314679REMSYN070AAXX  03034 17205 42980 00000 10104 20057 38300 48467 54000 333 10055;
0247172050999992000090306004+38480+042300FM-12+166599999V0209999C000012200019N0300001N1+01641+00841999999ADDAA199000091GA1001+999999999GF100991001001999999001001IA1019IA2999+00809KA1120N+00901MA1999999083001MD1410001+9999ME1314639REMSYN094AAXX  03064 17205 32980 00000 10164 20084 38300 48463 54000 333 20090 30008 50641 55072 92418;EQDQ01  00002PRCP99
0162172050999992000090309004+38480+042300FM-12+166599999V0200701N001512200019N0300001N1+02321+01261999999ADDGA1001+999999999GF100991001001999999001001MA1999999083001MD1410001+9999ME1314579REMSYN070AAXX  03094 17205 42980 00703 10232 20126 38300 48457 54000 333 10041;
0192172050999992000090312004+38480+042300FM-12+166599999V0200701N002112200019N0300001N1+02421+01081999999ADDAA199000091GA1001+999999999GF100991001001999999001001MA1999999082901MD1710101+9999ME1314469REMSYN070AAXX  03124 17205 32980 00704 10242 20108 38290 48446 57010 333 10029;EQDQ01  00002PRCP99
0162172050999992000090315004+38480+042300FM-12+166599999V0200701N001012200019N0300001N1+02261+00961999999ADDGA1001+999999999GF100991001001999999001001MA1999999082901MD1410001+9999ME1314489REMSYN070AAXX  03154 17205 42980 00702 10226 20096 38290 48448 54000 333 10036;
0211172050999992000090318004+38480+042300FM-12+166599999V0202001N001012200019N0300001N1+02141+00271999999ADDAA199000091GA1001+999999999GF100991001001999999001001KA1120M+02601MA1999999083001MD1210101+9999ME1314589REMSYN076AAXX  03184 17205 32980 02002 10214 20027 38300 48458 52010 333 10260 92418;EQDQ01  00002PRCP99
0162172050999992000090321004+38480+042300FM-12+166599999V0209999C000012200019N0300001N1+01641+00001999999ADDGA1001+999999999GF100991001001999999001001MA1999999083001MD1410001+9999ME1314639REMSYN070AAXX  03214 17205 42980 00000 10164 20000 38300 48463 54000 333 10028;
0192172050999992000090400004+38480+042300FM-12+166599999V0209999C000012200019N0300001N1+01301+00131999999ADDAA199000091GA1001+999999999GF100991001001999999001001MA1999999083101MD1110101+9999ME1314739REMSYN070AAXX  04004 17205 32980 00000 10130 20013 38310 48473 51010 333 10046;EQDQ01  00002PRCP99
0162172050999992000090403004+38480+042300FM-12+166599999V0209999C000012200019N0300001N1+01081+00231999999ADDGA1001+999999999GF100991001001999999001001MA1999999083101MD1410001+9999ME1314779REMSYN070AAXX  04034 17205 42980 00000 10108 20023 38310 48477 54000 333 10060;
0247172050999992000090406004+38480+042300FM-12+166599999V0209999C000012200019N0300001N1+01621+00441999999ADDAA199000091GA1001+999999999GF100991001001999999001001IA1019IA2999+00909KA1120N+00961MA1999999083201MD1210101+9999ME1314839REMSYN094AAXX  04064 17205 32980 00000 10162 20044 38320 48483 52010 333 20096 30009 50561 55074 92418;EQDQ01  00002PRCP99
0162172050999992000090409004+38480+042300FM-12+166599999V0200701N001512200019N0300001N1+02501+01071999999ADDGA1001+999999999GF100991001001999999001001MA1999999083201MD1410001+9999ME1314779REMSYN070AAXX  04094 17205 42980 00703 10250 20107 38320 48477 54000 333 10045;
0192172050999992000090412004+38480+042300FM-12+166599999V0200701N001512200019N0300001N1+02521+00791999999ADDAA199000091GA1001+999999999GF100991001001999999001001MA1999999083201MD1410001+9999ME1314789REMSYN070AAXX  04124 17205 32980 00703 10252 20079 38320 48478 54000 333 10058;EQDQ01  00002PRCP99
0162172050999992000090415004+38480+042300FM-12+166599999V0202001N001012200019N0300001N1+02541-00141999999ADDGA1001+999999999GF100991001001999999001001MA1999999083101MD1410001+9999ME1314669REMSYN070AAXX  04154 17205 42980 02002 10254 21014 38310 48466 54000 333 10053;
0211172050999992000090418004+38480+042300FM-12+166599999V0209999C000012200019N0300001N1+02001-00161999999ADDAA199000091GA1001+999999999GF100991001001999999001001KA1120M+02701MA1999999083201MD1210101+9999ME1314819REMSYN076AAXX  04184 17205 32980 00000 10200 21016 38320 48481 52010 333 10270 92418;EQDQ01  00002PRCP99
0162172050999992000090421004+38480+042300FM-12+166599999V0209999C000012200019N0300001N1+01541-00051999999ADDGA1001+999999999GF100991001001999999001001MA1999999083301MD1110101+9999ME1314939REMSYN070AAXX  04214 17205 42980 00000 10154 21005 38330 48493 51010 333 10064;
0192172050999992000090500004+38480+042300FM-12+166599999V0209999C000012200019N0300001N1+01321-00031999999ADDAA199000091GA1001+999999999GF100991001001999999001001MA1999999083301MD1410001+9999ME1314959REMSYN070AAXX  05004 17205 32980 00000 10132 21003 38330 48495 54000 333 10071;EQDQ01  00002PRCP99
0162172050999992000090503004+38480+042300FM-12+166599999V0209999C000012200019N0300001N1+01121+00091999999ADDGA1001+999999999GF100991001001999999001001MA1999999083301MD1410001+9999ME1314969REMSYN070AAXX  05034 17205 42980 00000 10112 20009 38330 48496 54000 333 10078;
0246172050999992000090506004+38480+042300FM-12+166599999V0209999C000012200019N0300001N1+01801+00721999999ADDAA199000091GA1001+999999999GF100991001001999999001001IA1019IA2999+00909KA1120N+01001MA1999999083201MD1610101+9999ME1314829REMSYN093AAXX  05064 17205 3298000000 10180 20072 38320 48482 56010 333 20100 30009 50481 55075 92418;EQDQ01  00002PRCP99
0162172050999992000090509004+38480+042300FM-12+166599999V0200701N001512200019N0300001N1+02441+00991999999ADDGA1001+999999999GF100991001001999999001001MA1999999083201MD1410001+9999ME1314789REMSYN070AAXX  05094 17205 42980 00703 10244 20099 38320 48478 54000 333 10052;
0192172050999992000090512004+38480+042300FM-12+166599999V0200701N001512200019N0300001N1+02601+00791999999ADDAA199000091GA1001+999999999GF100991001001999999001001MA1999999083201MD1410001+9999ME1314779REMSYN070AAXX  05124 17205 32980 00703 10260 20079 38320 48477 54000 333 10052;EQDQ01  00002PRCP99
0162172050999992000090515004+38480+042300FM-12+166599999V0200701N001012200019N0300001N1+02361+00481999999ADDGA1001+999999999GF100991001001999999001001MA1999999083101MD1710101+9999ME1314679REMSYN070AAXX  05154 17205 42980 00702 10236 20048 38310 48467 57010 333 10060;
0211172050999992000090518004+38480+042300FM-12+166599999V0209999C000012200019N0300001N1+02001-00161999999ADDAA199000091GA1001+999999999GF100991001001999999001001KA1120M+02721MA1999999083101MD1410001+9999ME1314709REMSYN076AAXX  05184 17205 32980 00000 10200 21016 38310 48470 54000 333 10272 92418;EQDQ01  00002PRCP99
0162172050999992000090521004+38480+042300FM-12+166599999V0209999C000012200019N0300001N1+01541-00051999999ADDGA1001+999999999GF100991001001999999001001MA1999999083201MD1110101+9999ME1314839REMSYN070AAXX  05214 17205 42980 00000 10154 21005 38320 48483 51010 333 10058;
0192172050999992000090600004+38480+042300FM-12+166599999V0209999C000012200019N0300001N1+01321-00031999999ADDAA199000091GA1001+999999999GF100991001001999999001001MA1999999083101MD1610101+9999ME1314749REMSYN070AAXX  06004 17205 32980 00000 10132 21003 38310 48474 56010 333 10040;EQDQ01  00002PRCP99
0162172050999992000090603004+38480+042300FM-12+166599999V0209999C000012200019N0300001N1+01161+00041999999ADDGA1001+999999999GF100991001001999999001001MA1999999083101MD1410001+9999ME1314769REMSYN070AAXX  06034 17205 42980 00000 10116 20004 38310 48476 54000 333 10053;
0247172050999992000090606004+38480+042300FM-12+166599999V0209999C000012200019N0300001N1+01741+00851999999ADDAA199000091GA1001+999999999GF100991001001999999001001IA1019IA2999+01009KA1120N+01061MA1999999083041MD1710061+9999ME1314619REMSYN094AAXX  06064 17205 32980 00000 10174 20085 38304 48461 57006 333 20106 30010 50641 55075 92418;EQDQ01  00002PRCP99
0162172050999992000090609004+38480+042300FM-12+166599999V0200701N001012200019N0300001N1+02441+01261999999ADDGA1001+999999999GF100991001001999999001001MA1999999082961MD1610081+9999ME1314579REMSYN070AAXX  06094 17205 42980 00702 10244 20126 38296 48457 56008 333 10023;
0192172050999992000090612004+38480+042300FM-12+166599999V0202001N002612200019N0300001N1+02801-00211999999ADDAA199000091GA1001+999999999GF100991001001999999001001MA1999999082901MD1610061+9999ME1314439REMSYN070AAXX  06124 17205 32980 02005 10280 21021 38290 48443 56006 333 10009;EQDQ01  00002PRCP99
0162172050999992000090615004+38480+042300FM-12+166599999V0202001N002112200019N0300001N1+02561-00591999999ADDGA1001+999999999GF100991001001999999001001MA1999999082901MD1410001+9999ME1314459REMSYN070AAXX  06154 17205 42980 02004 10256 21059 38290 48445 54000 333 10022;
0211172050999992000090618004+38480+042300FM-12+166599999V0202501N001512200019N0300001N1+02301-00311999999ADDAA199000091GA1001+999999999GF100991001001999999001001KA1120M+02941MA1999999083001MD1210101+9999ME1314579REMSYN076AAXX  06184 17205 32980 02503 10230 21031 38300 48457 52010 333 10294 92418;EQDQ01  00002PRCP99
0162172050999992000090621004+38480+042300FM-12+166599999V0209999C000012200019N0300001N1+01721-00101999999ADDGA1001+999999999GF100991001001999999001001MA1999999082961MD1710041+9999ME1314619REMSYN070AAXX  06214 17205 42980 00000 10172 21010 38296 48461 57004 333 10016;
0192172050999992000090700004+38480+042300FM-12+166599999V0209999C000012200019N0300001N1+01401+00011999999ADDAA199000091GA1001+999999999GF100991001001999999001001MA1999999082901MD1710061+9999ME1314549REMSYN070AAXX  07004 17205 32980 00000 10140 20001 38290 48454 57006 333 10009;EQDQ01  00002PRCP99
0162172050999992000090703004+38480+042300FM-12+166599999V0209999C000012200019N0300001N1+01261+00191999999ADDGA1001+999999999GF100991001001999999001001MA1999999082901MD1410001+9999ME1314569REMSYN070AAXX  07034 17205 42980 00000 10126 20019 38290 48456 54000 333 10022;
0247172050999992000090706004+38480+042300FM-12+166599999V0209999C000012200019N0300001N1+01861+00441999999ADDAA199000091GA1001+999999999GF100991001001999999001001IA1019IA2999+01109KA1120N+01141MA1999999083001MD1110101+9999ME1314619REMSYN094AAXX  07064 17205 32980 00000 10186 20044 38300 48461 51010 333 20114 30011 50641 55073 92418;EQDQ01  00002PRCP99
0174172050999992000090709004+38480+042300FM-12+166599999V0202001N002112200019N0300001N1+02561+00331999999ADDGA1021+012009089GF102991021011012501001001MA1999999083001MD1410001+9999ME1314559REMSYN082AAXX  07094 17205 42680 22004 10256 20033 38300 48455 54000 82100 333 82840 92418;
0192172050999992000090712004+38480+042300FM-12+166599999V0202001N002112200019N0300001N1+02621+00031999999ADDAA199000091GA1001+999999999GF100991001001999999001001MA1999999083001MD1410001+9999ME1314559REMSYN070AAXX  07124 17205 32980 02004 10262 20003 38300 48455 54000 333 10028;EQDQ01  00002PRCP99
0162172050999992000090715004+38480+042300FM-12+166599999V0202001N002112200019N0300001N1+02301-00241999999ADDGA1001+999999999GF100991001001999999001001MA1999999083001MD1410001+9999ME1314579REMSYN070AAXX  07154 17205 42980 02004 10230 21024 38300 48457 54000 333 10041;
0211172050999992000090718004+38480+042300FM-12+166599999V0202501N001512200019N0300001N1+02001+00001999999ADDAA199000091GA1001+999999999GF100991001001999999001001KA1120M+02741MA1999999083201MD1210201+9999ME1314819REMSYN076AAXX  07184 17205 32980 02503 10200 20000 38320 48481 52020 333 10274 92418;EQDQ01  00002PRCP99
0162172050999992000090721004+38480+042300FM-12+166599999V0202701N001012200019N0300001N1+01701+00211999999ADDGA1001+999999999GF100991001001999999001001MA1999999083301MD1110101+9999ME1314929REMSYN070AAXX  07214 17205 42980 02702 10170 20021 38330 48492 51010 333 10057;
0192172050999992000090800004+38480+042300FM-12+166599999V0209999C000012200019N0300001N1+01401+00151999999ADDAA199000091GA1001+999999999GF100991001001999999001001MA1999999083301MD1410001+9999ME1314959REMSYN070AAXX  08004 17205 32980 00000 10140 20015 38330 48495 54000 333 10064;EQDQ01  00002PRCP99
0162172050999992000090803004+38480+042300FM-12+166599999V0209999C000012200019N0300001N1+01101+00451999999ADDGA1001+999999999GF100991001001999999001001MA1999999083401MD1210101+9999ME1315069REMSYN070AAXX  08034 17205 42980 00000 10110 20045 38340 48506 52010 333 10096;
0247172050999992000090806004+38480+042300FM-12+166599999V0202501N001512200019N0300001N1+01801+00721999999ADDAA199000091GA1001+999999999GF100991001001999999001001IA1019IA2999+01009KA1120N+01041MA1999999083501MD1210101+9999ME1315139REMSYN094AAXX  08064 17205 32980 02503 10180 20072 38350 48513 52010 333 20104 30010 50641 55074 92418;EQDQ01  00002PRCP99
0162172050999992000090809004+38480+042300FM-12+166599999V0202501N002112200019N0300001N1+02441+00601999999ADDGA1001+999999999GF100991001001999999001001MA1999999083501MD1410001+9999ME1315009REMSYN070AAXX  08094 17205 42980 02504 10244 20060 38350 48500 54000 333 10081;
0192172050999992000090812004+38480+042300FM-12+166599999V0200701N001012200019N0300001N1+02501+00911999999ADDAA199000091GA1001+999999999GF100991001001999999001001MA1999999083501MD1410001+9999ME1315089REMSYN070AAXX  08124 17205 32980 00702 10250 20091 38350 48508 54000 333 10088;EQDQ01  00002PRCP99
0162172050999992000090815004+38480+042300FM-12+166599999V0202501N001012200019N0300001N1+02341+00041999999ADDGA1001+999999999GF100991001001999999001001MA1999999083501MD1410001+9999ME1315109REMSYN070AAXX  08154 17205 42980 02502 10234 20004 38350 48510 54000 333 10109;
0211172050999992000090818004+38480+042300FM-12+166599999V0209999C000012200019N0300001N1+01701+00061999999ADDAA199000091GA1001+999999999GF100991001001999999001001KA1120M+02701MA1999999083701MD1210201+9999ME1315339REMSYN076AAXX  08184 17205 32980 00000 10170 20006 38370 48533 52020 333 10270 92418;EQDQ01  00002PRCP99
0162172050999992000090821004+38480+042300FM-12+166599999V0209999C000012200019N0300001N1+01441+00061999999ADDGA1001+999999999GF100991001001999999001001MA1999999083701MD1410001+9999ME1315359REMSYN070AAXX  08214 17205 42980 00000 10144 20006 38370 48535 54000 333 10119;
0192172050999992000090900004+38480+042300FM-12+166599999V0209999C000012200019N0300001N1+01201-00021999999ADDAA199000091GA1001+999999999GF100991001001999999001001MA1999999083801MD1210101+9999ME1315469REMSYN070AAXX  09004 17205 32980 00000 10120 21002 38380 48546 52010 333 10138;EQDQ01  00002PRCP99
0162172050999992000090903004+38480+042300FM-12+166599999V0209999C000012200019N0300001N1+01001+00211999999ADDGA1001+999999999GF100991001001999999001001MA1999999083801MD1410001+9999ME1315479REMSYN070AAXX  09034 17205 42980 00000 10100 20021 38380 48547 54000 333 10145;
0247172050999992000090906004+38480+042300FM-12+166599999V0209999C000012200019N0300001N1+01641+00541999999ADDAA199000091GA1001+999999999GF100991001001999999001001IA1019IA2999+00809KA1120N+00901MA1999999083801MD1410001+9999ME1315449REMSYN094AAXX  09064 17205 32980 00000 10164 20054 38380 48544 54000 333 20090 30008 50721 55070 92418;EQDQ01  00002PRCP99
0162172050999992000090909004+38480+042300FM-12+166599999V0200701N001512200019N0300001N1+02281+01171999999ADDGA1001+999999999GF100991001001999999001001MA1999999083801MD1410001+9999ME1315419REMSYN070AAXX  09094 17205 42980 00703 10228 20117 38380 48541 54000 333 10131;
0192172050999992000090912004+38480+042300FM-12+166599999V0200701N001012200019N0300001N1+02601+00871999999ADDAA199000091GA1001+999999999GF100991001001999999001001MA1999999083701MD1710101+9999ME1315309REMSYN070AAXX  09124 17205 32980 00702 10260 20087 38370 48530 57010 333 10119;EQDQ01  00002PRCP99
0162172050999992000090915004+38480+042300FM-12+166599999V0209999C000012200019N0300001N1+02301+00511999999ADDGA1001+999999999GF100991001001999999001001MA1999999083601MD1610101+9999ME1315209REMSYN070AAXX  09154 17205 42980 00000 10230 20051 38360 48520 56010 333 10121;
0211172050999992000090918004+38480+042300FM-12+166599999V0209999C000012200019N0300001N1+01701+00551999999ADDAA199000091GA1001+999999999GF100991001001999999001001KA1120M+02701MA1999999083601MD1410001+9999ME1315239REMSYN076AAXX  09184 17205 32980 00000 10170 20055 38360 48523 54000 333 10270 92418;EQDQ01  00002PRCP99
0162172050999992000090921004+38480+042300FM-12+166599999V0209999C000012200019N0300001N1+01361+00221999999ADDGA1001+999999999GF100991001001999999001001MA1999999083501MD1610101+9999ME1315159REMSYN070AAXX  09214 17205 42980 00000 10136 20022 38350 48515 56010 333 10102;
0192172050999992000091000004+38480+042300FM-12+166599999V0209999C000012200019N0300001N1+01501+00271999999ADDAA199000091GA1001+999999999GF100991001001999999001001MA1999999083501MD1410001+9999ME1315149REMSYN070AAXX  10004 17205 32980 00000 10150 20027 38350 48514 54000 333 10081;EQDQ01  00002PRCP99
0162172050999992000091003004+38480+042300FM-12+166599999V0209999C000012200019N0300001N1+01141+00161999999ADDGA1001+999999999GF100991001001999999001001MA1999999083401MD1610101+9999ME1315069REMSYN070AAXX  10034 17205 42980 00000 10114 20016 38340 48506 56010 333 10096;
0247172050999992000091006004+38480+042300FM-12+166599999V0200701N001512200019N0300001N1+01641+00511999999ADDAA199000091GA1001+999999999GF100991001001999999001001IA1019IA2999+00909KA1120N+01001MA1999999083401MD1410001+9999ME1315049REMSYN094AAXX  10064 17205 32980 00703 10164 20051 38340 48504 54000 333 20100 30009 50561 55072 92418;EQDQ01  00002PRCP99
0174172050999992000091009004+38480+042300FM-12+166599999V0200701N002112200019N0300001N1+02321+01221999999ADDGA1031+012009089GF103991031011012501001001MA1999999083301MD1710101+9999ME1314869REMSYN082AAXX  10094 17205 42680 30704 10232 20122 38330 48486 57010 83100 333 83840 92418;
0204172050999992000091012004+38480+042300FM-12+166599999V0201101N002112200019N0300001N1+02501+00911999999ADDAA199000091GA1031+012009089GF103991031011012501001001MA1999999083201MD1710101+9999ME1314779REMSYN082AAXX  10124 17205 32680 31104 10250 20091 38320 48477 57010 83100 333 83840 92418;EQDQ01  00002PRCP99
0162172050999992000091015004+38480+042300FM-12+166599999V0200201N003112200019N0300001N1+02101+00441999999ADDGA1001+999999999GF100991001001999999001001MA1999999083301MD1210101+9999ME1314909REMSYN070AAXX  10154 17205 42980 00206 10210 20044 38330 48490 52010 333 10091;
0223172050999992000091018004+38480+042300FM-12+166599999V0200201N003112200019N0300001N1+01741+00411999999ADDAA199000091GA1041+012009089GF104991041021012501001001KA1120M+02561MA1999999083501MD1210201+9999ME1315139REMSYN088AAXX  10184 17205 32680 40206 10174 20041 38350 48513 52020 84200 333 10256 84840 92428;EQDQ01  00002PRCP99
0174172050999992000091021004+38480+042300FM-12+166599999V0200201N003112200019N0300001N1+01561+00581999999ADDGA1021+012009089GF102991021011012501001001MA1999999083501MD1410001+9999ME1315149REMSYN082AAXX  10214 17205 42680 20206 10156 20058 38350 48514 54000 82100 333 82840 92428;
0204172050999992000091100004+38480+042300FM-12+166599999V0200201N001512200019N0300001N1+01401+00501999999ADDAA199000091GA1021+012009089GF102991021011012501001001MA1999999083501MD1410001+9999ME1315159REMSYN082AAXX  11004 17205 32680 20203 10140 20050 38350 48515 54000 82100 333 82840 92418;EQDQ01  00002PRCP99
0196172050999992000091103004+38480+042300FM-12+166599999V0200201N001510300019N0300001N1+01321+00571999999ADDGA1031+012009089GA2051+030009039GF105991031021012501051001MA1999999083501MD1410001+9999ME1315159REMSYN088AAXX  11034 17205 42680 50203 10132 20057 38350 48515 54000 83250 333 83840 85360 92418;
0259172050999992000091106004+38480+042300FM-12+166599999V0200201N003112200019N0300001N1+01601+00751999999ADDAA199000091GA1031+012009089GF103991031011012501001001IA1019IA2999+01209KA1120N+01261MA1999999083501MD1410001+9999ME1315149REMSYN106AAXX  11064 17205 32680 30206 10160 20075 38350 48514 54000 83100 333 20126 30012 50481 55068 83840 92428;EQDQ01  00002PRCP99
0162172050999992000091109004+38480+042300FM-12+166599999V0200201N002112200019N0300001N1+01961+00881999999ADDGA1001+999999999GF100991001001999999001001MA1999999083501MD1410001+9999ME1315129REMSYN070AAXX  11094 17205 42980 00204 10196 20088 38350 48512 54000 333 10102;
0192172050999992000091112004+38480+042300FM-12+166599999V0200401N002112200019N0300001N1+02061+00931999999ADDAA199000091GA1001+999999999GF100991001001999999001001MA1999999083341MD1710161+9999ME1314919REMSYN070AAXX  11124 17205 32980 00404 10206 20093 38334 48491 57016 333 10089;EQDQ01  00002PRCP99
0162172050999992000091115004+38480+042300FM-12+166599999V0209999C000012200019N0300001N1+02001+00641999999ADDGA1001+999999999GF100991001001999999001001MA1999999083201MD1710141+9999ME1314819REMSYN070AAXX  11154 17205 42980 00000 10200 20064 38320 48481 57014 333 10072;
0197172050999992000091118004+38480+042300FM-12+166599999V0209999C000012200019N0300001N1+01501+00411999999ADDAA199000091GA1001+999999999GF100991001001999999001001MA1999999083201MD1410001+9999ME1314839REMSYN075AAXX  11184 17205 32980 00000 10150 20041 38320 48483 54000 333 1224 92418;EQDQ01  00002PRCP99
0162172050999992000091121004+38480+042300FM-12+166599999V0209999C000012200019N0300001N1+01321+00571999999ADDGA1001+999999999GF100991001001999999001001MA1999999083201MD1410001+9999ME1314959REMSYN070AAXX  11214 17205 42980 00000 10132 20057 38320 48495 54000 333 10079;
0192172050999992000091200004+38480+042300FM-12+166599999V0209999C000012200019N0300001N1+01101+00451999999ADDAA199000091GA1001+999999999GF100991001001999999001001MA1999999083201MD1410001+9999ME1314869REMSYN070AAXX  12004 17205 32980 00000 10110 20045 38320 48486 54000 333 10072;EQDQ01  00002PRCP99
0162172050999992000091203004+38480+042300FM-12+166599999V0209999C000012200019N0300001N1+01061+00711999999ADDGA1001+999999999GF100991001001999999001001MA1999999083101MD1610101+9999ME1314779REMSYN070AAXX  12034 17205 42980 00000 10106 20071 38310 48477 56010 333 10074;
0247172050999992000091206004+38480+042300FM-12+166599999V0209999C000012200019N0300001N1+01641+01031999999ADDAA199000091GA1001+999999999GF100991001001999999001001IA1019IA2999+00909KA1120N+00961MA1999999083141MD1110041+9999ME1314739REMSYN094AAXX  12064 17205 32980 00000 10164 20103 38314 48473 51004 333 20096 30009 50641 55070 92418;EQDQ01  00002PRCP99
0162172050999992000091209004+38480+042300FM-12+166599999V0200701N001512200019N0300001N1+02241+01161999999ADDGA1001+999999999GF100991001001999999001001MA1999999083101MD1810041+9999ME1314699REMSYN070AAXX  12094 17205 42980 00703 10224 20116 38310 48469 58004 333 10053;
0192172050999992000091212004+38480+042300FM-12+166599999V0200701N001512200019N0300001N1+02301+01231999999ADDAA199000091GA1001+999999999GF100991001001999999001001MA1999999083001MD1710101+9999ME1314579REMSYN070AAXX  12124 17205 32980 00703 10230 20123 38300 48457 57010 333 10048;EQDQ01  00002PRCP99
0181172050999992000091215004+38480+042300FM-12+166599999V0202001N001512200019N0300001N1+02341-00372999999ADDGA1001+999999999GF100991001001999999001001MA1999999083001MD1410001+9999ME1314579REMSYN070AAXX  12154 17205 42980 02003 10234 21037 38300 48457 54000 333 10048;EQDQ01-000373ATOD  
0211172050999992000091218004+38480+042300FM-12+166599999V0202501N001012200019N0300001N1+01941-00281999999ADDAA199000091GA1001+999999999GF100991001001999999001001KA1120M+02761MA1999999083001MD1410001+9999ME1314609REMSYN076AAXX  12184 17205 32980 02502 10194 21028 38300 48460 54000 333 10276 92418;EQDQ01  00002PRCP99
0162172050999992000091221004+38480+042300FM-12+166599999V0202501N001012200019N0300001N1+01801-00421999999ADDGA1001+999999999GF100991001001999999001001MA1999999083001MD1410001+9999ME1314619REMSYN070AAXX  12214 17205 42980 02502 10180 21042 38300 48461 54000 333 92418;
0192172050999992000091300004+38480+042300FM-12+166599999V0209999C000012200019N0300001N1+01401+00011999999ADDAA199000091GA1001+999999999GF100991001001999999001001MA1999999083001MD1410001+9999ME1314649REMSYN070AAXX  13004 17205 32980 00000 10140 20001 38300 48464 54000 333 10034;EQDQ01  00002PRCP99
0162172050999992000091303004+38480+042300FM-12+166599999V0209999C000012200019N0300001N1+01181+00261999999ADDGA1001+999999999GF100991001001999999001001MA1999999083101MD1210101+9999ME1314769REMSYN070AAXX  13034 17205 42980 00000 10118 20026 38310 48476 52010 333 10053;
0247172050999992000091306004+38480+042300FM-12+166599999V0209999C000012200019N0300001N1+01741+00411999999ADDAA199000091GA1001+999999999GF100991001001999999001001IA1019IA2999+01009KA1120N+01061MA1999999083101MD1410001+9999ME1314729REMSYN094AAXX  13064 17205 32980 00000 10174 20041 38310 48472 54000 333 20106 30010 50561 55071 92418;EQDQ01  00002PRCP99
0162172050999992000091309004+38480+042300FM-12+166599999V0202201N001512200019N0300001N1+02561+00101999999ADDGA1001+999999999GF100991001001999999001001MA1999999083101MD1410001+9999ME1314669REMSYN070AAXX  13094 17205 42980 02203 10256 20010 38310 48466 54000 333 10026;
0192172050999992000091312004+38480+042300FM-12+166599999V0202001N002112200019N0300001N1+02501-00351999999ADDAA199000091GA1001+999999999GF100991001001999999001001MA1999999083101MD1410001+9999ME1314669REMSYN070AAXX  13124 17205 32980 02004 10250 21035 38310 48466 54000 333 10040;EQDQ01  00002PRCP99
0162172050999992000091315004+38480+042300FM-12+166599999V0202001N001512200019N0300001N1+02301-00231999999ADDGA1001+999999999GF100991001001999999001001MA1999999083101MD1410001+9999ME1314679REMSYN070AAXX  13154 17205 42980 02003 10230 21023 38310 48467 54000 333 10060;
0211172050999992000091318004+38480+042300FM-12+166599999V0202501N001512200019N0300001N1+02001+00001999999ADDAA199000091GA1001+999999999GF100991001001999999001001KA1120M+02641MA1999999083201MD1210101+9999ME1314819REMSYN076AAXX  13184 17205 32980 02503 10200 20000 38320 48481 52010 333 10264 92418;EQDQ01  00002PRCP99
0162172050999992000091321004+38480+042300FM-12+166599999V0209999C000012200019N0300001N1+01641+00161999999ADDGA1001+999999999GF100991001001999999001001MA1999999083401MD1210201+9999ME1315049REMSYN070AAXX  13214 17205 42980 00000 10164 20016 38340 48504 52020 333 10069;
0192172050999992000091400004+38480+042300FM-12+166599999V0209999C000012200019N0300001N1+01301+00371999999ADDAA199000091GA1001+999999999GF100991001001999999001001MA1999999083401MD1410001+9999ME1315059REMSYN070AAXX  14004 17205 32980 00000 10130 20037 38340 48505 54000 333 10082;EQDQ01  00002PRCP99
0162172050999992000091403004+38480+042300FM-12+166599999V0209999C000012200019N0300001N1+01101+00451999999ADDGA1001+999999999GF100991001001999999001001MA1999999083401MD1410001+9999ME1315069REMSYN070AAXX  14034 17205 42980 00000 10110 20045 38340 48506 54000 333 10096;
0247172050999992000091406004+38480+042300FM-12+166599999V0200701N001012200019N0300001N1+01601+00751999999ADDAA199000091GA1001+999999999GF100991001001999999001001IA1019IA2999+00909KA1120N+01001MA1999999083501MD1210101+9999ME1315149REMSYN094AAXX  14064 17205 32980 00702 10160 20075 38350 48514 52010 333 20100 30009 50481 55067 92418;EQDQ01  00002PRCP99
0162172050999992000091409004+38480+042300FM-12+166599999V0200701N001512200019N0300001N1+02141+00831999999ADDGA1001+999999999GF100991001001999999001001MA1999999083501MD1410001+9999ME1315119REMSYN070AAXX  14094 17205 42980 00703 10214 20083 38350 48511 54000 333 10095;
0204172050999992000091412004+38480+042300FM-12+166599999V0200701N001512200019N0300001N1+02421+00661999999ADDAA199000091GA1021+012009089GF102991021011012501001001MA1999999083501MD1410001+9999ME1315109REMSYN082AAXX  14124 17205 32680 20703 10242 20066 38350 48510 54000 82100 333 82840 92418;EQDQ01  00002PRCP99
0174172050999992000091415004+38480+042300FM-12+166599999V0202501N001512200019N0300001N1+02201+00341999999ADDGA1021+012009089GF102991021011012501001001MA1999999083501MD1410001+9999ME1315119REMSYN082AAXX  14154 17205 42680 22503 10220 20034 38350 48511 54000 82100 333 82840 92418;
0211172050999992000091418004+38480+042300FM-12+166599999V0209999C000012200019N0300001N1+01861+00441999999ADDAA199000091GA1001+999999999GF100991001001999999001001KA1120M+02541MA1999999083501MD1410001+9999ME1315139REMSYN076AAXX  14184 17205 32980 00000 10186 20044 38350 48513 54000 333 10254 92418;EQDQ01  00002PRCP99
0162172050999992000091421004+38480+042300FM-12+166599999V0209999C000012200019N0300001N1+01701+00581999999ADDGA1001+999999999GF100991001001999999001001MA1999999083601MD1110101+9999ME1315249REMSYN070AAXX  14214 17205 42980 00000 10170 20058 38360 48524 51010 333 10107;
0192172050999992000091500004+38480+042300FM-12+166599999V0209999C000012200019N0300001N1+01301+00591999999ADDAA199000091GA1001+999999999GF100991001001999999001001MA1999999083601MD1410001+9999ME1315259REMSYN070AAXX  15004 17205 32980 00000 10130 20059 38360 48525 54000 333 10107;EQDQ01  00002PRCP99
0162172050999992000091503004+38480+042300FM-12+166599999V0209999C000012200019N0300001N1+01101+00561999999ADDGA1001+999999999GF100991001001999999001001MA1999999083501MD1610101+9999ME1315169REMSYN070AAXX  15034 17205 42980 00000 10110 20056 38350 48516 56010 333 10116;
0247172050999992000091506004+38480+042300FM-12+166599999V0209999C000012200019N0300001N1+01621+00861999999ADDAA199000091GA1001+999999999GF100991001001999999001001IA1019IA2999+00909KA1120N+01001MA1999999083401MD1810101+9999ME1315049REMSYN094AAXX  15064 17205 32980 00000 10162 20086 38340 48504 58010 333 20100 30009 50641 55068 92418;EQDQ01  00002PRCP99
0174172050999992000091509004+38480+042300FM-12+166599999V0201601N001512200019N0300001N1+02421+00611999999ADDGA1021+012009089GF102991021011012501001001MA1999999083401MD1410001+9999ME1314999REMSYN082AAXX  15094 17205 42680 21603 10242 20061 38340 48499 54000 82100 333 82840 92418;
0204172050999992000091512004+38480+042300FM-12+166599999V0202001N001512200019N0300001N1+02401+00581999999ADDAA199000091GA1021+012009089GF102991021011012501001001MA1999999083301MD1710101+9999ME1314899REMSYN082AAXX  15124 17205 32680 22003 10240 20058 38330 48489 57010 82100 333 82840 92418;EQDQ01  00002PRCP99
0162172050999992000091515004+38480+042300FM-12+166599999V0202501N001512200019N0300001N1+02121-00592999999ADDGA1001+999999999GF100991001001999999001001MA1999999083401MD1110101+9999ME1315009REMSYN070AAXX  15154 17205 42980 02503 10212 21059 38340 48500 51010 333 10104;
0211172050999992000091518004+38480+042300FM-12+166599999V0209999C000012200019N0300001N1+01881-00501999999ADDAA199000091GA1001+999999999GF100991001001999999001001KA1120M+02601MA1999999083401MD1410001+9999ME1315019REMSYN076AAXX  15184 17205 32980 00000 10188 21050 38340 48501 54000 333 10260 92418;EQDQ01  00002PRCP99
0192172050999992000091600004+38480+042300FM-12+166599999V0209999C000012200019N0300001N1+01501+00001999999ADDAA199000091GA1001+999999999GF100991001001999999001001MA1999999083501MD1410001+9999ME1315149REMSYN070AAXX  16004 17205 32980 00000 10150 20000 38350 48514 54000 333 10088;EQDQ01  00002PRCP99
0162172050999992000091603004+38480+042300FM-12+166599999V0209999C000012200019N0300001N1+01301+00281999999ADDGA1001+999999999GF100991001001999999001001MA1999999083501MD1410001+9999ME1315159REMSYN070AAXX  16034 17205 42980 00000 10130 20028 38350 48515 54000 333 10109;
0247172050999992000091606004+38480+042300FM-12+166599999V0209999C000012200019N0300001N1+01621+00531999999ADDAA199000091GA1001+999999999GF100991001001999999001001IA1019IA2999+01109KA1120N+01201MA1999999083501MD1410001+9999ME1315139REMSYN094AAXX  16064 17205 32980 00000 10162 20053 38350 48513 54000 333 20120 30011 50561 55067 92418;EQDQ01  00002PRCP99
0174172050999992000091609004+38480+042300FM-12+166599999V0200701N001012200019N0300001N1+02241+00531999999ADDGA1031+012009089GF103991031011012501001001MA1999999083501MD1410001+9999ME1315129REMSYN082AAXX  16094 17205 42680 30702 10224 20053 38350 48512 54000 83100 333 83840 92418;
0192172050999992000091612004+38480+042300FM-12+166599999V0200701N002612200019N0300001N1+02301+00701999999ADDAA199000091GA1001+999999999GF100991001001999999001001MA1999999083401MD1810101+9999ME1315029REMSYN070AAXX  16124 17205 32980 00705 10230 20070 38340 48502 58010 333 10083;EQDQ01  00002PRCP99
0162172050999992000091615004+38480+042300FM-12+166599999V0200701N001012200019N0300001N1+02061+00601999999ADDGA1001+999999999GF100991001001999999001001MA1999999083401MD1410001+9999ME1315019REMSYN070AAXX  16154 17205 42980 00702 10206 20060 38340 48501 54000 333 10096;
0211172050999992000091618004+38480+042300FM-12+166599999V0209999C000012200019N0300001N1+01601+00181999999ADDAA199000091GA1001+999999999GF100991001001999999001001KA1120M+02361MA1999999083501MD1210101+9999ME1315149REMSYN076AAXX  16184 17205 32980 00000 10160 20018 38350 48514 52010 333 10236 92418;EQDQ01  00002PRCP99
0162172050999992000091621004+38480+042300FM-12+166599999V0209999C000012200019N0300001N1+01621+00251999999ADDGA1001+999999999GF100991001001999999001001MA1999999083501MD1410001+9999ME1315159REMSYN070AAXX  16214 17205 42980 00000 10162 20025 38350 48515 54000 333 10088;
0192172050999992000091700004+38480+042300FM-12+166599999V0209999C000012200019N0300001N1+01201+00241999999ADDAA199000091GA1001+999999999GF100991001001999999001001MA1999999083501MD1410001+9999ME1315169REMSYN070AAXX  17004 17205 32980 00000 10120 20024 38350 48516 54000 333 10102;EQDQ01  00002PRCP99
0162172050999992000091703004+38480+042300FM-12+166599999V0209999C000012200019N0300001N1+01061+00381999999ADDGA1001+999999999GF100991001001999999001001MA1999999083501MD1410001+9999ME1315179REMSYN070AAXX  17034 17205 42980 00000 10106 20038 38350 48517 54000 333 10116;
0247172050999992000091706004+38480+042300FM-12+166599999V0209999C000012200019N0300001N1+01501+00621999999ADDAA199000091GA1001+999999999GF100991001001999999001001IA1019IA2999+00809KA1120N+01001MA1999999083601MD1210101+9999ME1315249REMSYN094AAXX  17064 17205 32980 00000 10150 20062 38360 48524 52010 333 20100 30008 50321 55064 92418;EQDQ01  00002PRCP99
0162172050999992000091709004+38480+042300FM-12+166599999V0202001N001512200019N0300001N1+02361-00321999999ADDGA1001+999999999GF100991001001999999001001MA1999999083501MD1610101+9999ME1315109REMSYN070AAXX  17094 17205 42980 02003 10236 21032 38350 48510 56010 333 10095;
0226172050999992000091712004+38480+042300FM-12+166599999V0202901N002110300019N0300001N1+02301-00241999999ADDAA199000091GA1041+012009089GA2061+030009039GF106991041021012501051001MA1999999083501MD1410001+9999ME1315109REMSYN088AAXX  17124 17205 32680 62904 10230 21024 38350 48510 54000 84250 333 84840 86360 92418;EQDQ01  00002PRCP99
0196172050999992000091715004+38480+042300FM-12+166599999V0202501N003610300019N0300001N1+01601+00751999999ADDGA1041+012009089GA2061+030009039GF106991041021012501051001MA1999999083501MD1410001+9999ME1315149REMSYN088AAXX  17154 17205 42680 62507 10160 20075 38350 48514 54000 84250 333 84840 86360 92428;
0211172050999992000091718004+38480+042300FM-12+166599999V0209999C000012200019N0300001N1+01401+00501999999ADDAA199000091GA1001+999999999GF100991001001999999001001KA1120M+02701MA1999999083701MD1210201+9999ME1315359REMSYN076AAXX  17184 17205 32980 00000 10140 20050 38370 48535 52020 333 10270 92418;EQDQ01  00002PRCP99
0259172050999992000091721004+38480+042300SY-MT+166599999V0209999C000012200019N0300001N1+01201+00551101511ADDGF100991001001999999001001MA1999999083701MD1410001+9999ME1315369MW1001REMSYN070AAXX  17214 17205 42980 00000 10120 20055 38370 48536 54000 333 10126;MET082172058Z KBTM 1720550Z 31008KT 30SM FEW080 SCT120 26/05 A3013 RMK SLP151 T02580054;EQDQ01+000000PRSWM2
0192172050999992000091800004+38480+042300FM-12+166599999V0209999C000012200019N0300001N1+01061+00711999999ADDAA199000091GA1001+999999999GF100991001001999999001001MA1999999083601MD1610101+9999ME1315279REMSYN070AAXX  18004 17205 32980 00000 10106 20071 38360 48527 56010 333 10142;EQDQ01  00002PRCP99
0162172050999992000091803004+38480+042300FM-12+166599999V0209999C000012200019N0300001N1+01001+00741999999ADDGA1001+999999999GF100991001001999999001001MA1999999083601MD1410001+9999ME1315279REMSYN070AAXX  18034 17205 42980 00000 10100 20074 38360 48527 54000 333 10149;
0247172050999992000091806004+38480+042300FM-12+166599999V0209999C000012200019N0300001N1+01401+00621999999ADDAA199000091GA1001+999999999GF100991001001999999001001IA1019IA2999+00809KA1120N+00901MA1999999083701MD1110101+9999ME1315359REMSYN094AAXX  18064 17205 32980 00000 10140 20062 38370 48535 51010 333 20090 30008 50481 55044 92418;EQDQ01  00002PRCP99
0162172050999992000091809004+38480+042300FM-12+166599999V0200701N001512200019N0300001N1+02061+00721999999ADDGA1001+999999999GF100991001001999999001001MA1999999083701MD1410001+9999ME1315329REMSYN070AAXX  18094 17205 42980 00703 10206 20072 38370 48532 54000 333 10140;
0192172050999992000091812004+38480+042300FM-12+166599999V0202001N002112200019N0300001N1+02401-00351999999ADDAA199000091GA1001+999999999GF100991001001999999001001MA1999999083501MD1710201+9999ME1315109REMSYN070AAXX  18124 17205 32980 02004 10240 21035 38350 48510 57020 333 10109;EQDQ01  00002PRCP99
0162172050999992000091815004+38480+042300FM-12+166599999V0202001N001512200019N0300001N1+02141-00711999999ADDGA1001+999999999GF100991001001999999001001MA1999999083501MD1410001+9999ME1315119REMSYN070AAXX  18154 17205 42980 02003 10214 21071 38350 48511 54000 333 10116;
0211172050999992000091818004+38480+042300FM-12+166599999V0209999C000012200019N0300001N1+01661-00321999999ADDAA199000091GA1001+999999999GF100991001001999999001001KA1120M+02561MA1999999083601MD1210101+9999ME1315249REMSYN076AAXX  18184 17205 32980 00000 10166 21032 38360 48524 52010 333 10256 92418;EQDQ01  00002PRCP99
0162172050999992000091821004+38480+042300FM-12+166599999V0209999C000012200019N0300001N1+01261+00271999999ADDGA1001+999999999GF100991001001999999001001MA1999999083601MD1410001+9999ME1315269REMSYN070AAXX  18214 17205 42980 00000 10126 20027 38360 48526 54000 333 10121;
0192172050999992000091900004+38480+042300FM-12+166599999V0209999C000012200019N0300001N1+01021+00421999999ADDAA199000091GA1001+999999999GF100991001001999999001001MA1999999083601MD1410001+9999ME1315279REMSYN070AAXX  19004 17205 32980 00000 10102 20042 38360 48527 54000 333 10121;EQDQ01  00002PRCP99
0162172050999992000091903004+38480+042300FM-12+166599999V0209999C000012200019N0300001N1+00901+00181999999ADDGA1001+999999999GF100991001001999999001001MA1999999083601MD1410001+9999ME1315279REMSYN070AAXX  19034 17205 42980 00000 10090 20018 38360 48527 54000 333 10135;
0247172050999992000091906004+38480+042300FM-12+166599999V0209999C000012200019N0300001N1+01301+00581999999ADDAA199000091GA1001+999999999GF100991001001999999001001IA1019IA2999+00709KA1120N+00801MA1999999083701MD1210101+9999ME1315349REMSYN094AAXX  19064 17205 32980 00000 10130 20058 38370 48534 52010 333 20080 30007 50481 55060 92418;EQDQ01  00002PRCP99
0162172050999992000091909004+38480+042300FM-12+166599999V0200701N001012200019N0300001N1+02241+00761999999ADDGA1001+999999999GF100991001001999999001001MA1999999083701MD1410001+9999ME1315339REMSYN070AAXX  19094 17205 42980 00702 10224 20076 38370 48533 54000 333 10126;
0192172050999992000091912004+38480+042300FM-12+166599999V0200701N001012200019N0300001N1+02361+00561999999ADDAA199000091GA1001+999999999GF100991001001999999001001MA1999999083601MD1810101+9999ME1315259REMSYN070AAXX  19124 17205 32980 00702 10236 20056 38360 48525 58010 333 10121;EQDQ01  00002PRCP99
0162172050999992000091915004+38480+042300FM-12+166599999V0209999C000012200019N0300001N1+02101+00031999999ADDGA1001+999999999GF100991001001999999001001MA1999999083501MD1610101+9999ME1315159REMSYN070AAXX  19154 17205 42980 00000 10210 20003 38350 48515 56010 333 10123;
0211172050999992000091918004+38480+042300FM-12+166599999V0209999C000012200019N0300001N1+01501+00171999999ADDAA199000091GA1001+999999999GF100991001001999999001001KA1120M+02401MA1999999083501MD1410001+9999ME1315149REMSYN076AAXX  19184 17205 32980 00000 10150 20017 38350 48514 54000 333 10240 92418;EQDQ01  00002PRCP99
0162172050999992000091921004+38480+042300FM-12+166599999V0209999C000012200019N0300001N1+01301+00001999999ADDGA1001+999999999GF100991001001999999001001MA1999999083501MD1410001+9999ME1315159REMSYN070AAXX  19214 17205 42980 00000 10130 20000 38350 48515 54000 333 10095;
0192172050999992000092000004+38480+042300FM-12+166599999V0209999C000012200019N0300001N1+01241+00641999999ADDAA199000091GA1001+999999999GF100991001001999999001001MA1999999083501MD1410001+9999ME1315169REMSYN070AAXX  20004 17205 32980 00000 10124 20064 38350 48516 54000 333 10102;EQDQ01  00002PRCP99
0162172050999992000092003004+38480+042300FM-12+166599999V0209999C000012200019N0300001N1+01201+00771999999ADDGA1001+999999999GF100991001001999999001001MA1999999083501MD1410001+9999ME1315169REMSYN070AAXX  20034 17205 42980 00000 10120 20077 38350 48516 54000 333 10102;
0247172050999992000092006004+38480+042300FM-12+166599999V0209999C000012200019N0300001N1+01701+01091999999ADDAA199000091GA1001+999999999GF100991001001999999001001IA1019IA2999+01009KA1120N+01101MA1999999083601MD1410001+9999ME1315239REMSYN094AAXX  20064 17205 32980 00000 10170 20109 38360 48523 54000 333 20110 30010 50241 55056 92418;EQDQ01  00002PRCP99
0174172050999992000092009004+38480+042300FM-12+166599999V0200701N001512200019N0300001N1+02261+01071999999ADDGA1021+012009089GF102991021011012501001001MA1999999083501MD1610101+9999ME1315119REMSYN082AAXX  20094 17205 42680 20703 10226 20107 38350 48511 56010 82100 333 82840 92418;
0204172050999992000092012004+38480+042300FM-12+166599999V0200701N001512200019N0300001N1+02301+00941999999ADDAA199000091GA1021+012009089GF102991021011012501001001MA1999999083441MD1710061+9999ME1314999REMSYN082AAXX  20124 17205 32680 20703 10230 20094 38344 48499 57006 82100 333 82840 92418;EQDQ01  00002PRCP99
0162172050999992000092015004+38480+042300FM-12+166599999V0209999C000012200019N0300001N1+02101+00311999999ADDGA1001+999999999GF100991001001999999001001MA1999999083401MD1610041+9999ME1315009REMSYN070AAXX  20154 17205 42980 00000 10210 20031 38340 48500 56004 333 10096;
0211172050999992000092018004+38480+042300FM-12+166599999V0209999C000012200019N0300001N1+01501+00291999999ADDAA199000091GA1001+999999999GF100991001001999999001001KA1120M+02401MA1999999083401MD1410001+9999ME1315049REMSYN076AAXX  20184 17205 32980 00000 10150 20029 38340 48504 54000 333 10240 92418;EQDQ01  00002PRCP99
0162172050999992000092021004+38480+042300FM-12+166599999V0209999C000012200019N0300001N1+01321+00111999999ADDGA1001+999999999GF100991001001999999001001MA1999999083401MD1410001+9999ME1315059REMSYN070AAXX  20214 17205 42980 00000 10132 20011 38340 48505 54000 333 10083;
0192172050999992000092100004+38480+042300FM-12+166599999V0209999C000012200019N0300001N1+01201+00321999999ADDAA199000091GA1001+999999999GF100991001001999999001001MA1999999083401MD1410001+9999ME1315069REMSYN070AAXX  21004 17205 32980 00000 10120 20032 38340 48506 54000 333 10090;EQDQ01  00002PRCP99
0162172050999992000092103004+38480+042300FM-12+166599999V0209999C000012200019N0300001N1+01001+00101999999ADDGA1001+999999999GF100991001001999999001001MA1999999083401MD1410001+9999ME1315079REMSYN070AAXX  21034 17205 42980 00000 10100 20010 38340 48507 54000 333 10104;
0247172050999992000092106004+38480+042300FM-12+166599999V0209999C000012200019N0300001N1+01401+00581999999ADDAA199000091GA1001+999999999GF100991001001999999001001IA1019IA2999+00809KA1120N+00941MA1999999083401MD1410001+9999ME1315059REMSYN094AAXX  21064 17205 32980 00000 10140 20058 38340 48505 54000 333 20094 30008 50401 55054 92418;EQDQ01  00002PRCP99
0162172050999992000092109004+38480+042300FM-12+166599999V0200701N001012200019N0300001N1+02261+01071999999ADDGA1001+999999999GF100991001001999999001001MA1999999083401MD1410001+9999ME1315009REMSYN070AAXX  21094 17205 42980 00702 10226 20107 38340 48500 54000 333 10090;
0192172050999992000092112004+38480+042300FM-12+166599999V0200701N001512200019N0300001N1+02341+01061999999ADDAA199000091GA1001+999999999GF100991001001999999001001MA1999999083301MD1710101+9999ME1314899REMSYN070AAXX  21124 17205 32980 00703 10234 20106 38330 48489 57010 333 10078;EQDQ01  00002PRCP99
0162172050999992000092115004+38480+042300FM-12+166599999V0202001N001012200019N0300001N1+02301-00432999999ADDGA1001+999999999GF100991001001999999001001MA1999999083301MD1410001+9999ME1314899REMSYN070AAXX  21154 17205 42980 02002 10230 21043 38330 48489 54000 333 10084;
0211172050999992000092118004+38480+042300FM-12+166599999V0209999C000012200019N0300001N1+01681+00331999999ADDAA199000091GA1001+999999999GF100991001001999999001001KA1120M+02601MA1999999083401MD1210101+9999ME1315039REMSYN076AAXX  21184 17205 32980 00000 10168 20033 38340 48503 52010 333 10260 92418;EQDQ01  00002PRCP99
0162172050999992000092121004+38480+042300FM-12+166599999V0209999C000012200019N0300001N1+01321+00001999999ADDGA1001+999999999GF100991001001999999001001MA1999999083401MD1410001+9999ME1315059REMSYN070AAXX  21214 17205 42980 00000 10132 20000 38340 48505 54000 333 10090;
0192172050999992000092200004+38480+042300FM-12+166599999V0209999C000012200019N0300001N1+01201+00241999999ADDAA199000091GA1001+999999999GF100991001001999999001001MA1999999083441MD1110041+9999ME1315069REMSYN070AAXX  22004 17205 32980 00000 10120 20024 38344 48506 51004 333 10094;EQDQ01  00002PRCP99
0162172050999992000092203004+38480+042300FM-12+166599999V0209999C000012200019N0300001N1+01001+00221999999ADDGA1001+999999999GF100991001001999999001001MA1999999083501MD1210061+9999ME1315179REMSYN070AAXX  22034 17205 42980 00000 10100 20022 38350 48517 52006 333 10109;
0247172050999992000092206004+38480+042300FM-12+166599999V0209999C000012200019N0300001N1+01341+00421999999ADDAA199000091GA1001+999999999GF100991001001999999001001IA1019IA2999+00809KA1120N+00901MA1999999083601MD1110101+9999ME1315249REMSYN094AAXX  22064 17205 32980 00000 10134 20042 38360 48524 51010 333 20090 30008 50561 55053 92418;EQDQ01  00002PRCP99
0162172050999992000092209004+38480+042300FM-12+166599999V0200701N001012200019N0300001N1+02241+00531999999ADDGA1001+999999999GF100991001001999999001001MA1999999083601MD1410001+9999ME1315239REMSYN070AAXX  22094 17205 42980 00702 10224 20053 38360 48523 54000 333 10114;
0204172050999992000092212004+38480+042300FM-12+166599999V0200701N001012200019N0300001N1+02401+00761999999ADDAA199000091GA1021+012009089GF102991021011012501001001MA1999999083601MD1410001+9999ME1315229REMSYN082AAXX  22124 17205 32680 20702 10240 20076 38360 48522 54000 82100 333 82840 92418;EQDQ01  00002PRCP99
0162172050999992000092215004+38480+042300FM-12+166599999V0209999C000012200019N0300001N1+02061+00581999999ADDGA1001+999999999GF100991001001999999001001MA1999999083601MD1410001+9999ME1315229REMSYN070AAXX  22154 17205 42980 00000 10206 20058 38360 48522 54000 333 10135;
0211172050999992000092218004+38480+042300FM-12+166599999V0209999C000012200019N0300001N1+01541+00431999999ADDAA199000091GA1001+999999999GF100991001001999999001001KA1120M+02501MA1999999083601MD1410001+9999ME1315249REMSYN076AAXX  22184 17205 32980 00000 10154 20043 38360 48524 54000 333 10250 92418;EQDQ01  00002PRCP99
0162172050999992000092221004+38480+042300FM-12+166599999V0209999C000012200019N0300001N1+01241+00191999999ADDGA1001+999999999GF100991001001999999001001MA1999999083701MD1110101+9999ME1315369REMSYN070AAXX  22214 17205 42980 00000 10124 20019 38370 48536 51010 333 10133;
0192172050999992000092300004+38480+042300FM-12+166599999V0209999C000012200019N0300001N1+01101+00221999999ADDAA199000091GA1001+999999999GF100991001001999999001001MA1999999083701MD1410001+9999ME1315369REMSYN070AAXX  23004 17205 32980 00000 10110 20022 38370 48536 54000 333 10126;EQDQ01  00002PRCP99
0162172050999992000092303004+38480+042300FM-12+166599999V0209999C000012200019N0300001N1+01001+00331999999ADDGA1001+999999999GF100991001001999999001001MA1999999083701MD1410001+9999ME1315379REMSYN070AAXX  23034 17205 42980 00000 10100 20033 38370 48537 54000 333 10147;
0247172050999992000092306004+38480+042300FM-12+166599999V0209999C000012200019N0300001N1+01461+00441999999ADDAA199000091GA1001+999999999GF100991001001999999001001IA1019IA2999+00809KA1120N+00941MA1999999083801MD1110101+9999ME1315459REMSYN094AAXX  23064 17205 32980 00000 10146 20044 38380 48545 51010 333 20094 30008 50321 55052 92418;EQDQ01  00002PRCP99
0174172050999992000092309004+38480+042300FM-12+166599999V0200701N001512200019N0300001N1+02101+00981999999ADDGA1021+012009089GF102991021011012501001001MA1999999083801MD1410001+9999ME1315429REMSYN082AAXX  23094 17205 42680 20703 10210 20098 38380 48542 54000 82100 333 82840 92418;
0204172050999992000092312004+38480+042300FM-12+166599999V0200701N001012200019N0300001N1+02301+01041999999ADDAA199000091GA1041+012009089GF104991041021012501001001MA1999999083701MD1810101+9999ME1315349REMSYN082AAXX  23124 17205 32680 40702 10230 20104 38370 48534 58010 84200 333 84840 92418;EQDQ01  00002PRCP99
0174172050999992000092315004+38480+042300FM-12+166599999V0209999C000012200019N0300001N1+02001+00631999999ADDGA1021+012009089GF102991021011012501001001MA1999999083601MD1710101+9999ME1315229REMSYN082AAXX  23154 17205 42680 20000 10200 20063 38360 48522 57010 82100 333 82840 92418;
0211172050999992000092318004+38480+042300FM-12+166599999V0209999C000012200019N0300001N1+01441+00221999999ADDAA199000091GA1001+999999999GF100991001001999999001001KA1120M+02341MA1999999083601MD1410001+9999ME1315259REMSYN076AAXX  23184 17205 32980 00000 10144 20022 38360 48525 54000 333 10234 92418;EQDQ01  00002PRCP99
0162172050999992000092321004+38480+042300FM-12+166599999V0209999C000012200019N0300001N1+01201+00231999999ADDGA1001+999999999GF100991001001999999001001MA1999999083601MD1410001+9999ME1315269REMSYN070AAXX  23214 17205 42980 00000 10120 20023 38360 48526 54000 333 10114;
0192172050999992000092400004+38480+042300FM-12+166599999V0209999C000012200019N0300001N1+01041+00171999999ADDAA199000091GA1001+999999999GF100991001001999999001001MA1999999083601MD1410001+9999ME1315279REMSYN070AAXX  24004 17205 32980 00000 10104 20017 38360 48527 54000 333 10121;EQDQ01  00002PRCP99
0162172050999992000092403004+38480+042300FM-12+166599999V0209999C000012200019N0300001N1+00901+00201999999ADDGA1001+999999999GF100991001001999999001001MA1999999083601MD1410001+9999ME1315279REMSYN070AAXX  24034 17205 42980 00000 10090 20020 38360 48527 54000 333 10135;
0247172050999992000092406004+38480+042300FM-12+166599999V0209999C000012200019N0300001N1+01301+00591999999ADDAA199000091GA1001+999999999GF100991001001999999001001IA1019IA2999+00709KA1120N+00841MA1999999083661MD1110061+9999ME1315359REMSYN094AAXX  24064 17205 32980 00000 10130 20059 38366 48535 51006 333 20084 30007 50321 55047 92418;EQDQ01  00002PRCP99
0162172050999992000092409004+38480+042300FM-12+166599999V0200701N001012200019N0300001N1+02221+01011999999ADDGA1001+999999999GF100991001001999999001001MA1999999083601MD1710061+9999ME1315219REMSYN070AAXX  24094 17205 42980 00702 10222 20101 38360 48521 57006 333 10121;
0192172050999992000092412004+38480+042300FM-12+166599999V0200201N001012200019N0300001N1+02421+00611999999ADDAA199000091GA1001+999999999GF100991001001999999001001MA1999999083501MD1610101+9999ME1315109REMSYN070AAXX  24124 17205 32980 00202 10242 20061 38350 48510 56010 333 10109;EQDQ01  00002PRCP99
0162172050999992000092415004+38480+042300FM-12+166599999V0209999C000012200019N0300001N1+02041+00371999999ADDGA1001+999999999GF100991001001999999001001MA1999999083501MD1410001+9999ME1315129REMSYN070AAXX  24154 17205 42980 00000 10204 20037 38350 48512 54000 333 10123;
0211172050999992000092418004+38480+042300FM-12+166599999V0200201N001012200019N0300001N1+01881-00021999999ADDAA199000091GA1001+999999999GF100991001001999999001001KA1120M+02641MA1999999083601MD1210101+9999ME1315229REMSYN076AAXX  24184 17205 32980 00202 10188 21002 38360 48522 52010 333 10264 92418;EQDQ01  00002PRCP99
0162172050999992000092421004+38480+042300FM-12+166599999V0209999C000012200019N0300001N1+01321-00181999999ADDGA1001+999999999GF100991001001999999001001MA1999999083601MD1410001+9999ME1315259REMSYN070AAXX  24214 17205 42980 00000 10132 21018 38360 48525 54000 333 10114;
0192172050999992000092500004+38480+042300FM-12+166599999V0209999C000012200019N0300001N1+01081-00071999999ADDAA199000091GA1001+999999999GF100991001001999999001001MA1999999083601MD1410001+9999ME1315279REMSYN070AAXX  25004 17205 32980 00000 10108 21007 38360 48527 54000 333 10114;EQDQ01  00002PRCP99
0162172050999992000092503004+38480+042300FM-12+166599999V0209999C000012200019N0300001N1+00901-00021999999ADDGA1001+999999999GF100991001001999999001001MA1999999083601MD1410001+9999ME1315279REMSYN070AAXX  25034 17205 42980 00000 10090 21002 38360 48527 54000 333 10135;
0247172050999992000092506004+38480+042300FM-12+166599999V0209999C000012200019N0300001N1+01401+00501999999ADDAA199000091GA1001+999999999GF100991001001999999001001IA1019IA2999+00709KA1120N+00801MA1999999083601MD1410001+9999ME1315279REMSYN094AAXX  25064 17205 32980 00000 10140 20050 38360 48527 54000 333 20080 30007 50481 55050 92418;EQDQ01  00002PRCP99
0162172050999992000092509004+38480+042300FM-12+166599999V0200701N001012200019N0300001N1+02141+00841999999ADDGA1001+999999999GF100991001001999999001001MA1999999083601MD1410001+9999ME1315239REMSYN070AAXX  25094 17205 42980 00702 10214 20084 38360 48523 54000 333 10121;
0204172050999992000092512004+38480+042300FM-12+166599999V0200701N001012200019N0300001N1+02201+01101999999ADDAA199000091GA1031+012009089GF103991031021012501001001MA1999999083501MD1810101+9999ME1315119REMSYN082AAXX  25124 17205 32680 30702 10220 20110 38350 48511 58010 83200 333 83840 92418;EQDQ01  00002PRCP99
0162172050999992000092515004+38480+042300FM-12+166599999V0202001N001012200019N0300001N1+02201-00101999999ADDGA1001+999999999GF100991001001999999001001MA1999999083501MD1410001+9999ME1315119REMSYN070AAXX  25154 17205 42980 02002 10220 21010 38350 48511 54000 333 10116;
0211172050999992000092518004+38480+042300FM-12+166599999V0209999C000012200019N0300001N1+01801-00211999999ADDAA199000091GA1001+999999999GF100991001001999999001001KA1120M+02341MA1999999083501MD1410001+9999ME1315149REMSYN076AAXX  25184 17205 32980 00000 10180 21021 38350 48514 54000 333 10234 92418;EQDQ01  00002PRCP99
0162172050999992000092521004+38480+042300FM-12+166599999V0209999C000012200019N0300001N1+01301-00141999999ADDGA1001+999999999GF100991001001999999001001MA1999999083501MD1410001+9999ME1315159REMSYN070AAXX  25214 17205 42980 00000 10130 21014 38350 48515 54000 333 10109;
0192172050999992000092600004+38480+042300FM-12+166599999V0209999C000012200019N0300001N1+01101+00161999999ADDAA199000091GA1001+999999999GF100991001001999999001001MA1999999083501MD1410001+9999ME1315169REMSYN070AAXX  26004 17205 32980 00000 10110 20016 38350 48516 54000 333 10109;EQDQ01  00002PRCP99
0162172050999992000092603004+38480+042300FM-12+166599999V0209999C000012200019N0300001N1+01001+00161999999ADDGA1001+999999999GF100991001001999999001001MA1999999083501MD1410001+9999ME1315179REMSYN070AAXX  26034 17205 42980 00000 10100 20016 38350 48517 54000 333 10116;
0247172050999992000092606004+38480+042300FM-12+166599999V0202501N001512200019N0300001N1+01701+00571999999ADDAA199000091GA1001+999999999GF100991001001999999001001IA1019IA2999+00809KA1120N+00941MA1999999083501MD1410001+9999ME1315139REMSYN094AAXX  26064 17205 32980 02503 10170 20057 38350 48513 54000 333 20094 30008 50321 55045 92418;EQDQ01  00002PRCP99
0162172050999992000092609004+38480+042300FM-12+166599999V0202501N002612200019N0300001N1+02101-00301999999ADDGA1001+999999999GF100991001001999999001001MA1999999083401MD1810101+9999ME1315009REMSYN070AAXX  26094 17205 42980 02505 10210 21030 38340 48500 58010 333 10096;
0192172050999992000092612004+38480+042300FM-12+166599999V0202501N005112200019N0300001N1+02201-00271999999ADDAA199000091GA1001+999999999GF100991001001999999001001MA1999999083301MD1810101+9999ME1314939REMSYN070AAXX  26124 17205 32980 02510 10220 21027 38330 48493 58010 333 10091;EQDQ01  00002PRCP99
0162172050999992000092615004+38480+042300FM-12+166599999V0202501N002112200019N0300001N1+02001-00331999999ADDGA1001+999999999GF100991001001999999001001MA1999999083201MD1710101+9999ME1314819REMSYN070AAXX  26154 17205 42980 02504 10200 21033 38320 48481 57010 333 10086;
0211172050999992000092618004+38480+042300FM-12+166599999V0202701N001012200019N0300001N1+01601-00431999999ADDAA199000091GA1001+999999999GF100991001001999999001001KA1120M+02341MA1999999083201MD1410001+9999ME1314839REMSYN076AAXX  26184 17205 32980 02702 10160 21043 38320 48483 54000 333 10234 92418;EQDQ01  00002PRCP99
0162172050999992000092621004+38480+042300FM-12+166599999V0202701N001012200019N0300001N1+01441-00281999999ADDGA1001+999999999GF100991001001999999001001MA1999999083201MD1410001+9999ME1314859REMSYN070AAXX  26214 17205 42980 02702 10144 21028 38320 48485 54000 333 10065;
0192172050999992000092700004+38480+042300FM-12+166599999V0209999C000012200019N0300001N1+01301+00001999999ADDAA199000091GA1001+999999999GF100991001001999999001001MA1999999083201MD1410001+9999ME1314859REMSYN070AAXX  27004 17205 32980 00000 10130 20000 38320 48485 54000 333 10065;EQDQ01  00002PRCP99
0162172050999992000092703004+38480+042300FM-12+166599999V0202701N001512200019N0300001N1+01221+00101999999ADDGA1001+999999999GF100991001001999999001001MA1999999083201MD1410001+9999ME1314869REMSYN070AAXX  27034 17205 42980 02703 10122 20010 38320 48486 54000 333 10079;
0247172050999992000092706004+38480+042300FM-12+166599999V0202701N001012200019N0300001N1+01621+00291999999ADDAA199000091GA1001+999999999GF100991001001999999001001IA1019IA2999+00909KA1120N+01101MA1999999083201MD1410001+9999ME1314839REMSYN094AAXX  27064 17205 32980 02702 10162 20029 38320 48483 54000 333 20110 30009 50641 55050 92418;EQDQ01  00002PRCP99
0174172050999992000092709004+38480+042300FM-12+166599999V0202001N002612200019N0300001N1+02001+00261999999ADDGA1021+012009089GF102991021011012501001001MA1999999083201MD1410001+9999ME1314819REMSYN082AAXX  27094 17205 42680 22005 10200 20026 38320 48481 54000 82100 333 82840 92418;
0204172050999992000092712004+38480+042300FM-12+166599999V0202001N002612200019N0300001N1+02041+00161999999ADDAA199000091GA1041+012009089GF104991041021012501001001MA1999999083101MD1710101+9999ME1314709REMSYN082AAXX  27124 17205 32680 42005 10204 20016 38310 48470 57010 84200 333 84840 92418;EQDQ01  00002PRCP99
0174172050999992000092715004+38480+042300FM-12+166599999V0202001N003112200019N0300001N1+01881+00001999999ADDGA1041+012009089GF104991041021012501001001MA1999999083101MD1410001+9999ME1314709REMSYN082AAXX  27154 17205 42680 42006 10188 21000 38310 48470 54000 84200 333 84840 92428;
0211172050999992000092718004+38480+042300FM-12+166599999V0202501N002112200019N0300001N1+01801+00091999999ADDAA199000091GA1001+999999999GF100991001001999999001001KA1120M+02261MA1999999083101MD1410001+9999ME1314729REMSYN076AAXX  27184 17205 32980 02504 10180 20009 38310 48472 54000 333 10226 92418;EQDQ01  00002PRCP99
0162172050999992000092721004+38480+042300FM-12+166599999V0202501N002112200019N0300001N1+01541+00271999999ADDGA1001+999999999GF100991001001999999001001MA1999999083101MD1410001+9999ME1314739REMSYN070AAXX  27214 17205 42980 02504 10154 20027 38310 48473 54000 333 10053;
0192172050999992000092800004+38480+042300FM-12+166599999V0202701N001512200019N0300001N1+01321+00211999999ADDAA199000091GA1001+999999999GF100991001001999999001001MA1999999083101MD1410001+9999ME1314749REMSYN070AAXX  28004 17205 32980 02703 10132 20021 38310 48474 54000 333 10060;EQDQ01  00002PRCP99
0162172050999992000092803004+38480+042300FM-12+166599999V0202701N001012200019N0300001N1+01201+00241999999ADDGA1001+999999999GF100991001001999999001001MA1999999083101MD1410001+9999ME1314769REMSYN070AAXX  28034 17205 42980 02702 10120 20024 38310 48476 54000 333 10074;
0247172050999992000092806004+38480+042300FM-12+166599999V0209999C000012200019N0300001N1+01401+00401999999ADDAA199000091GA1001+999999999GF100991001001999999001001IA1019IA2999+00909KA1120N+01061MA1999999083201MD1210101+9999ME1314839REMSYN094AAXX  28064 17205 32980 00000 10140 20040 38320 48483 52010 333 20106 30009 50641 55046 92418;EQDQ01  00002PRCP99
0196172050999992000092809004+38480+042300FM-12+166599999V0202001N002610300019N0300001N1+02101+00311999999ADDGA1041+012009089GA2061+030009039GF106991041021012501051001MA1999999083201MD1410001+9999ME1314829REMSYN088AAXX  28094 17205 42680 62005 10210 20031 38320 48482 54000 84250 333 84840 86360 92418;
0204172050999992000092812004+38480+042300FM-12+166599999V0202501N001512200019N0300001N1+02201+00061999999ADDAA199000091GA1041+012009089GF104991041021012501001001MA1999999083201MD1410001+9999ME1314799REMSYN082AAXX  28124 17205 32680 42503 10220 20006 38320 48479 54000 84200 333 84840 92418;EQDQ01  00002PRCP99
0174172050999992000092815004+38480+042300FM-12+166599999V0202501N001512200019N0300001N1+01961+00081999999ADDGA1021+012009089GF102991021011012501001001MA1999999083201MD1410001+9999ME1314819REMSYN082AAXX  28154 17205 42680 22503 10196 20008 38320 48481 54000 82100 333 82840 92418;
0211172050999992000092818004+38480+042300FM-12+166599999V0209999C000012200019N0300001N1+01561+00101999999ADDAA199000091GA1001+999999999GF100991001001999999001001KA1120M+02301MA1999999083201MD1410001+9999ME1314839REMSYN076AAXX  28184 17205 32980 00000 10156 20010 38320 48483 54000 333 10230 92418;EQDQ01  00002PRCP99
0246172050999992000092821004+38480+042300FM-12+166599999V0209999C000010120019N0200001N1+01301+00481999999ADDAY191031AY281031GA1021+007509099GA2061+012009089GA3071+027009039GF107991061031008001071001MA1999999083201MD1410001+9999ME1314859MW1291REMSYN100AAXX  28214 17205 41570 70000 10130 20048 38320 48485 54000 72998 86370 333 82925 86840 87359 92417;
0219172050999992000092900004+38480+042300FM-12+166599999V0209999C000012200019N0200001N1+01001+00921999999ADDAA106004191AY191061AY281061GA1031+012009089GF103991031021012501001001MA1999999083201MD1410001+9999ME1314879MW1251REMSYN094AAXX  29004 17205 11670 30000 10100 20092 38320 48487 54000 60041 72598 83200 333 83840 92417;
0224172050999992000092903004+38480+042300FM-12+166599999V0209999C000010270019N0200001N1+01001+00921999999ADDAY181031AY221031GA1041+012009089GA2071+027009039GF107991041021012501051001MA1999999083201MD1410001+9999ME1314879MW1251REMSYN094AAXX  29034 17205 41670 70000 10100 20092 38320 48487 54000 72582 84250 333 84840 87359 92417;
0302172050999992000092906004+38480+042300FM-12+166599999V0209999C000010270019N0250001N1+01361+00741999999ADDAA112004191AY181061AY221061GA1041+012009089GA2071+027009039GF107991041021012501051001IA1119IA2999+00809KA1120N+00881MA1999999083201MD1410001+9999ME1314859MW1021REMSYN130AAXX  29064 17205 11675 70000 10136 20074 38320 48485 54000 60042 70282 84250 333 20088 32008 50261 55048 70042 84840 87359 92417;
0174172050999992000092909004+38480+042300FM-12+166599999V0202001N002612200019N0300001N1+01961-00111999999ADDGA1021+012009089GF102991021021012501001001MA1999999083201MD1410001+9999ME1314819REMSYN082AAXX  29094 17205 42680 22005 10196 21011 38320 48481 54000 82200 333 82840 92428;
0185172050999992000092912004+38480+042300FM-12+166599999V0202001N003112200019N0300001N1+02001-00161999999ADDAA199000021GA1031+012009089GF103991031021012501001001MA1999999083201MD1410001+9999ME1314819REMSYN082AAXX  29124 17205 32680 32006 10200 21016 38320 48481 54000 83200 333 83840 92428;
0174172050999992000092915004+38480+042300FM-12+166599999V0202501N003112200019N0300001N1+01741-00331999999ADDGA1031+012009089GF103991031021012501001001MA1999999083201MD1410001+9999ME1314829REMSYN082AAXX  29154 17205 42680 32506 10174 21033 38320 48482 54000 83200 333 83840 92428;
0211172050999992000092918004+38480+042300FM-12+166599999V0202001N001512200019N0300001N1+01561-00021999999ADDAA199000091GA1001+999999999GF100991001001999999001001KA1120M+02101MA1999999083301MD1210101+9999ME1314939REMSYN076AAXX  29184 17205 32980 02003 10156 21002 38330 48493 52010 333 10210 92418;EQDQ01  00002PRCP99
0174172050999992000092921004+38480+042300FM-12+166599999V0202701N001512200019N0300001N1+01301+00131999999ADDGA1031+012009089GF103991031021012501001001MA1999999083401MD1110101+9999ME1315059REMSYN082AAXX  29214 17205 42680 32703 10130 20013 38340 48505 51010 83200 333 83840 92418;
0204172050999992000093000004+38480+042300FM-12+166599999V0202701N001512200019N0300001N1+01201+00241999999ADDAA199000091GA1031+012009089GF103991031021012501001001MA1999999083401MD1410001+9999ME1315069REMSYN082AAXX  30004 17205 32680 32703 10120 20024 38340 48506 54000 83200 333 83840 92418;EQDQ01  00002PRCP99
0174172050999992000093003004+38480+042300FM-12+166599999V0209999C000012200019N0300001N1+00861+00141999999ADDGA1031+012009089GF103991031021012501001001MA1999999083401MD1410001+9999ME1315089REMSYN082AAXX  30034 17205 42680 30000 10086 20014 38340 48508 54000 83200 333 83840 92418;
0259172050999992000093006004+38480+042300FM-12+166599999V0202001N001012200019N0300001N1+01301+00081999999ADDAA199000091GA1031+012009089GF103991031021012501001001IA1019IA2999+00609KA1120N+00761MA1999999083401MD1410001+9999ME1315059REMSYN106AAXX  30064 17205 32680 32002 10130 20008 38340 48505 54000 83200 333 20076 30006 50401 55046 83840 92418;EQDQ01  00002PRCP99
0174172050999992000093009004+38480+042300FM-12+166599999V0202001N001512200019N0300001N1+01801-00351999999ADDGA1031+012009089GF103991031021012501001001MA1999999083401MD1410001+9999ME1315039REMSYN082AAXX  30094 17205 42680 32003 10180 21035 38340 48503 54000 83200 333 83840 92418;
0204172050999992000093012004+38480+042300FM-12+166599999V0202501N002612200019N0300001N1+01461+00361999999ADDAA199000091GA1041+012009089GF104991041021012501001001MA1999999083401MD1410001+9999ME1315059REMSYN082AAXX  30124 17205 32680 42505 10146 20036 38340 48505 54000 84200 333 84840 92418;EQDQ01  00002PRCP99
0196172050999992000093015004+38480+042300FM-12+166599999V0202501N002610270019N0250001N1+01081+00581999999ADDGA1041+012009089GA2071+027009039GF107991041021012501051001MA1999999083501MD1210101+9999ME1315179REMSYN088AAXX  30154 17205 42675 72505 10108 20058 38350 48517 52010 84250 333 84840 87359 92418;
0211172050999992000093018004+38480+042300FM-12+166599999V0209999C000012200019N0300001N1+01001+00521999999ADDAA199000091GA1001+999999999GF100991001001999999001001KA1120M+01941MA1999999083601MD1210101+9999ME1315279REMSYN076AAXX  30184 17205 32980 00000 10100 20052 38360 48527 52010 333 10194 92418;EQDQ01  00002PRCP99
0162172050999992000093021004+38480+042300FM-12+166599999V0209999C000012200019N0300001N1+00801+00541999999ADDGA1001+999999999GF100991001001999999001001MA1999999083601MD1410001+9999ME1315289REMSYN070AAXX  30214 17205 42980 00000 10080 20054 38360 48528 54000 333 10149;
0192172050999992000100100004+38480+042300FM-12+166599999V0209999C000012200019N0300001N1+00701+00591999999ADDAA199000091GA1001+999999999GF100991001001999999001001MA1999999083601MD1410001+9999ME1315289REMSYN070AAXX  01004 17205 32980 00000 10070 20059 38360 48528 54000 333 10164;EQDQ01  00002PRCP99
0162172050999992000100103004+38480+042300FM-12+166599999V0209999C000012200019N0300001N1+00801+00461999999ADDGA1001+999999999GF100991001001999999001001MA1999999083601MD1410001+9999ME1315289REMSYN070AAXX  01034 17205 42980 00000 10080 20046 38360 48528 54000 333 10178;
0281172050999992000100106004+38480+042300FM-12+166599999V0209999C000010270019N0300001N1+01041+00681999999ADDAA199000091GA1041+010509089GA2061+027009039GF106991041021012501051001IA1019IA2999+00509KA1120N+00561MA1999999083601MD1410001+9999ME1315279REMSYN112AAXX  01064 17205 32680 60000 10104 20068 38360 48527 54000 84250 333 20056 30005 50481 55041 84835 86359 92418;EQDQ01  00002PRCP99
0196172050999992000100109004+38480+042300FM-12+166599999V0200701N002610300019N0300001N1+01501+00401999999ADDGA1041+012009089GA2061+030009039GF106991041021012501051001MA1999999083601MD1410001+9999ME1315279REMSYN088AAXX  01094 17205 42680 60705 10150 20040 38360 48527 54000 84250 333 84840 86360 92418;
0226172050999992000100112004+38480+042300FM-12+166599999V0200701N002110300019N0300001N1+01681+00331999999ADDAA199000091GA1041+012009089GA2061+030009039GF106991041021012501051001MA1999999083501MD1810101+9999ME1315149REMSYN088AAXX  01124 17205 32680 60704 10168 20033 38350 48514 58010 84250 333 84840 86360 92418;EQDQ01  00002PRCP99
0196172050999992000100115004+38480+042300FM-12+166599999V0200701N001010300019N0300001N1+01461+00211999999ADDGA1041+012009089GA2061+030009039GF106991041021012501051001MA1999999083401MD1710101+9999ME1315059REMSYN088AAXX  01154 17205 42680 60702 10146 20021 38340 48505 57010 84250 333 84840 86360 92418;
0245172050999992000100118004+38480+042300FM-12+166599999V0209999C000010300019N0300001N1+01061+00151999999ADDAA199000091GA1041+012009089GA2061+030009039GF106991041021012501051001KA1120M+01761MA1999999083401MD1410001+9999ME1315079REMSYN094AAXX  01184 17205 32680 60000 10106 20015 38340 48507 54000 84250 333 10176 84840 86360 92418;EQDQ01  00002PRCP99
0196172050999992000100121004+38480+042300FM-12+166599999V0201301N001010300019N0300001N1+01201-00011999999ADDGA1041+012009089GA2061+030009039GF106991041021012501051001MA1999999083501MD1210101+9999ME1315169REMSYN088AAXX  01214 17205 42680 61302 10120 21001 38350 48516 52010 84250 333 84840 86360 92418;
0241172050999992000100200004+38480+042300FM-12+166599999V0202701N001010270019N0200001N1+01001+00441999999ADDAA106000591AY181061AY221061GA1041+012009089GA2071+027009039GF107991041021012501051001MA1999999083501MD1410001+9999ME1315179MW1251REMSYN100AAXX  02004 17205 11670 72702 10100 20044 38350 48517 54000 69951 72582 84250 333 84840 87359 92417;
0224172050999992000100203004+38480+042300FM-12+166599999V0200201N003110270019N0200001N1+01221+00451999999ADDAY181031AY221031GA1041+012009089GA2071+027009039GF107991041021012501051001MA1999999083501MD1410001+9999ME1315169MW1021REMSYN094AAXX  02034 17205 41670 70206 10122 20045 38350 48516 54000 70282 84250 333 84840 87359 92427;
0302172050999992000100206004+38480+042300FM-12+166599999V0200201N003110300019N0200001N1+01301+00371999999ADDAA112001091AY181061AY221061GA1041+012009089GA2061+030009039GF106991041021012501051001IA1019IA2999+00809KA1120N+00861MA1999999083501MD1410001+9999ME1315159MW1021REMSYN130AAXX  02064 17205 11670 60206 10130 20037 38350 48515 54000 69992 70282 84250 333 20086 30008 50251 55038 70009 84840 86360 92428;
0196172050999992000100209004+38480+042300FM-12+166599999V0200201N003110300019N0300001N1+01541+00361999999ADDGA1041+012009089GA2061+030009039GF106991041021012501051001MA1999999083601MD1110101+9999ME1315249REMSYN088AAXX  02094 17205 42680 60206 10154 20036 38360 48524 51010 84250 333 84840 86360 92428;
0185172050999992000100212004+38480+042300FM-12+166599999V0200701N003112200019N0300001N1+01681+00181999999ADDAA199000021GA1031+012009089GF103991031021012501001001MA1999999083501MD1610101+9999ME1315149REMSYN082AAXX  02124 17205 32680 30706 10168 20018 38350 48514 56010 83200 333 83840 92428;
0174172050999992000100215004+38480+042300FM-12+166599999V0200201N003112200019N0300001N1+01561-00021999999ADDGA1031+012009089GF103991031021012501001001MA1999999083501MD1410001+9999ME1315149REMSYN082AAXX  02154 17205 42680 30206 10156 21002 38350 48514 54000 83200 333 83840 92428;
0245172050999992000100218004+38480+042300FM-12+166599999V0200701N004610300019N0300001N1+01561-00021999999ADDAA199000091GA1041+012009089GA2061+030009039GF106991041021012501051001KA1120M+01741MA1999999083501MD1410001+9999ME1315149REMSYN094AAXX  02184 17205 32680 60709 10156 21002 38350 48514 54000 84250 333 10174 84840 86360 92428;EQDQ01  00002PRCP99
0196172050999992000100221004+38480+042300FM-12+166599999V0200701N003610300019N0300001N1+01301+00021999999ADDGA1031+012009089GA2051+030009039GF105991031021012501051001MA1999999083701MD1210201+9999ME1315359REMSYN088AAXX  02214 17205 42680 50707 10130 20002 38370 48535 52020 83250 333 83840 85360 92428;
0204172050999992000100300004+38480+042300FM-12+166599999V0200201N004612200019N0300001N1+01201-00021999999ADDAA199000091GA1021+012009089GF102991021021012501001001MA1999999083701MD1410001+9999ME1315369REMSYN082AAXX  03004 17205 32680 20209 10120 21002 38370 48536 54000 82200 333 82840 92428;EQDQ01  00002PRCP99
0196172050999992000100303004+38480+042300FM-12+166599999V0200201N004610300019N0300001N1+01201-00021999999ADDGA1041+012009089GA2061+030009039GF106991041021012501051001MA1999999083701MD1410001+9999ME1315369REMSYN088AAXX  03034 17205 42680 60209 10120 21002 38370 48536 54000 84250 333 84840 86360 92428;
0259172050999992000100306004+38480+042300FM-12+166599999V0200201N005112200019N0300001N1+01261+00061999999ADDAA199000091GA1031+012009089GF103991031021012501001001IA1019IA2999+00909KA1120N+01041MA1999999083901MD1210201+9999ME1315569REMSYN106AAXX  03064 17205 32680 30210 10126 20006 38390 48556 52020 83200 333 20104 30009 50481 55051 83840 92428;EQDQ01  00002PRCP99
0162172050999992000100309004+38480+042300FM-12+166599999V0200201N004612200019N0300001N1+01441+00221999999ADDGA1001+999999999GF100991001001999999001001MA1999999083901MD1410001+9999ME1315559REMSYN070AAXX  03094 17205 42980 00209 10144 20022 38390 48555 54000 333 10178;
0192172050999992000100312004+38480+042300FM-12+166599999V0200201N003112200019N0300001N1+01561+00141999999ADDAA199000091GA1001+999999999GF100991001001999999001001MA1999999083801MD1810101+9999ME1315449REMSYN070AAXX  03124 17205 32980 00206 10156 20014 38380 48544 58010 333 10166;EQDQ01  00002PRCP99
0162172050999992000100315004+38480+042300FM-12+166599999V0200701N001012200019N0300001N1+01381+00081999999ADDGA1001+999999999GF100991001001999999001001MA1999999083801MD1410001+9999ME1315459REMSYN070AAXX  03154 17205 42980 00702 10138 20008 38380 48545 54000 333 10173;
0211172050999992000100318004+38480+042300FM-12+166599999V0209999C000012200019N0300001N1+00981-00011999999ADDAA199000091GA1001+999999999GF100991001001999999001001KA1120M+01701MA1999999083801MD1410001+9999ME1315479REMSYN076AAXX  03184 17205 32980 00000 10098 21001 38380 48547 54000 333 10170 92418;EQDQ01  00002PRCP99
0162172050999992000100321004+38480+042300FM-12+166599999V0203401N001512200019N0300001N1+01161+00031999999ADDGA1001+999999999GF100991001001999999001001MA1999999083841MD1110041+9999ME1315469REMSYN070AAXX  03214 17205 42980 03403 10116 20003 38384 48546 51004 333 10178;
0192172050999992000100400004+38480+042300FM-12+166599999V0209999C000012200019N0300001N1+00901-00131999999ADDAA199000091GA1001+999999999GF100991001001999999001001MA1999999083901MD1110061+9999ME1315589REMSYN070AAXX  04004 17205 32980 00000 10090 21013 38390 48558 51006 333 10193;EQDQ01  00002PRCP99
0162172050999992000100403004+38480+042300FM-12+166599999V0209999C000012200019N0300001N1+00721+00051999999ADDGA1001+999999999GF100991001001999999001001MA1999999083901MD1410001+9999ME1315589REMSYN070AAXX  04034 17205 42980 00000 10072 20005 38390 48558 54000 333 10200;
0247172050999992000100406004+38480+042300FM-12+166599999V0200701N001512200019N0300001N1+01301+00061999999ADDAA199000091GA1001+999999999GF100991001001999999001001IA1019IA2999+00509KA1120N+00601MA1999999083901MD1410001+9999ME1315569REMSYN094AAXX  04064 17205 32980 00703 10130 20006 38390 48556 54000 333 20060 30005 50481 55047 92418;EQDQ01  00002PRCP99
0162172050999992000100409004+38480+042300FM-12+166599999V0200701N001512200019N0300001N1+01521+00241999999ADDGA1001+999999999GF100991001001999999001001MA1999999083901MD1410001+9999ME1315569REMSYN070AAXX  04094 17205 42980 00703 10152 20024 38390 48556 54000 333 10186;
0192172050999992000100412004+38480+042300FM-12+166599999V0200701N001512200019N0300001N1+01701-00091999999ADDAA199000091GA1001+999999999GF100991001001999999001001MA1999999083801MD1810101+9999ME1315449REMSYN070AAXX  04124 17205 32980 00703 10170 21009 38380 48544 58010 333 10173;EQDQ01  00002PRCP99
0162172050999992000100415004+38480+042300FM-12+166599999V0209999C000012200019N0300001N1+01301-00301999999ADDGA1001+999999999GF100991001001999999001001MA1999999083801MD1410001+9999ME1315459REMSYN070AAXX  04154 17205 42980 00000 10130 21030 38380 48545 54000 333 10195;
0211172050999992000100418004+38480+042300FM-12+166599999V0209999C000012200019N0300001N1+00901-00181999999ADDAA199000091GA1001+999999999GF100991001001999999001001KA1120M+01761MA1999999083801MD1410001+9999ME1315479REMSYN076AAXX  04184 17205 32980 00000 10090 21018 38380 48547 54000 333 10176 92418;EQDQ01  00002PRCP99
0162172050999992000100421004+38480+042300FM-12+166599999V0209999C000012200019N0300001N1+00801+00081999999ADDGA1001+999999999GF100991001001999999001001MA1999999083801MD1410001+9999ME1315489REMSYN070AAXX  04214 17205 42980 00000 10080 20008 38380 48548 54000 333 10181;
0192172050999992000100500004+38480+042300FM-12+166599999V0209999C000012200019N0300001N1+00601-00051999999ADDAA199000091GA1001+999999999GF100991001001999999001001MA1999999083901MD1110101+9999ME1315599REMSYN070AAXX  05004 17205 32980 00000 10060 21005 38390 48559 51010 333 10193;EQDQ01  00002PRCP99
0162172050999992000100503004+38480+042300FM-12+166599999V0209999C000012200019N0300001N1+00521+00061999999ADDGA1001+999999999GF100991001001999999001001MA1999999083901MD1410001+9999ME1315599REMSYN070AAXX  05034 17205 42980 00000 10052 20006 38390 48559 54000 333 10215;
0247172050999992000100506004+38480+042300FM-12+166599999V0209999C000012200019N0300001N1+01001+00441999999ADDAA199000091GA1001+999999999GF100991001001999999001001IA1019IA2999+00309KA1120N+00461MA1999999083901MD1410001+9999ME1315579REMSYN094AAXX  05064 17205 32980 00000 10100 20044 38390 48557 54000 333 20046 30003 50161 55041 92418;EQDQ01  00002PRCP99
0162172050999992000100509004+38480+042300FM-12+166599999V0200701N001512200019N0300001N1+01801+00591999999ADDGA1001+999999999GF100991001001999999001001MA1999999083901MD1410001+9999ME1315549REMSYN070AAXX  05094 17205 42980 00703 10180 20059 38390 48554 54000 333 10186;
0192172050999992000100512004+38480+042300FM-12+166599999V0200701N001512200019N0300001N1+01801+00591999999ADDAA199000091GA1001+999999999GF100991001001999999001001MA1999999083901MD1410001+9999ME1315549REMSYN070AAXX  05124 17205 32980 00703 10180 20059 38390 48554 54000 333 10193;EQDQ01  00002PRCP99
0162172050999992000100515004+38480+042300FM-12+166599999V0209999C000012200019N0300001N1+01501+00401999999ADDGA1001+999999999GF100991001001999999001001MA1999999083801MD1810101+9999ME1315449REMSYN070AAXX  05154 17205 42980 00000 10150 20040 38380 48544 58010 333 10195;
0211172050999992000100518004+38480+042300FM-12+166599999V0209999C000012200019N0300001N1+01041+00261999999ADDAA199000091GA1001+999999999GF100991001001999999001001KA1120M+01861MA1999999083801MD1410001+9999ME1315479REMSYN076AAXX  05184 17205 32980 00000 10104 20026 38380 48547 54000 333 10186 92418;EQDQ01  00002PRCP99
0192172050999992000100600004+38480+042300FM-12+166599999V0209999C000012200019N0300001N1+00801+00081999999ADDAA199000091GA1001+999999999GF100991001001999999001001MA1999999083801MD1610101+9999ME1315489REMSYN070AAXX  06004 17205 32980 00000 10080 20008 38380 48548 56010 333 10173;EQDQ01  00002PRCP99
0247172050999992000100606004+38480+042300FM-12+166599999V0209999C000012200019N0300001N1+01001+00121999999ADDAA199000091GA1001+999999999GF100991001001999999001001IA1019IA2999+00309KA1120N+00501MA1999999083901MD1210101+9999ME1315579REMSYN094AAXX  06064 17205 32980 00000 10100 20012 38390 48557 52010 333 20050 30003 50321 55042 92418;EQDQ01  00002PRCP99
0162172050999992000100609004+38480+042300FM-12+166599999V0200401N001512200019N0300001N1+01841+00641999999ADDGA1001+999999999GF100991001001999999001001MA1999999083901MD1410001+9999ME1315549REMSYN070AAXX  06094 17205 42980 00403 10184 20064 38390 48554 54000 333 10178;
0192172050999992000100612004+38480+042300FM-12+166599999V0200701N001512200019N0300001N1+02001+00681999999ADDAA199000091GA1001+999999999GF100991001001999999001001MA1999999083801MD1710101+9999ME1315439REMSYN070AAXX  06124 17205 32980 00703 10200 20068 38380 48543 57010 333 10166;EQDQ01  00002PRCP99
0162172050999992000100615004+38480+042300FM-12+166599999V0202701N001012200019N0300001N1+01801-00542999999ADDGA1001+999999999GF100991001001999999001001MA1999999083801MD1410001+9999ME1315449REMSYN070AAXX  06154 17205 42980 02702 10180 21054 38380 48544 54000 333 10181;
0211172050999992000100618004+38480+042300FM-12+166599999V0209999C000012200019N0300001N1+01281-00451999999ADDAA199000091GA1001+999999999GF100991001001999999001001KA1120M+02201MA1999999083801MD1410001+9999ME1315459REMSYN076AAXX  06184 17205 32980 00000 10128 21045 38380 48545 54000 333 10220 92418;EQDQ01  00002PRCP99
0162172050999992000100621004+38480+042300FM-12+166599999V0209999C000012200019N0300001N1+01001-00331999999ADDGA1001+999999999GF100991001001999999001001MA1999999083801MD1410001+9999ME1315479REMSYN070AAXX  06214 17205 42980 00000 10100 21033 38380 48547 54000 333 10166;
0192172050999992000100700004+38480+042300FM-12+166599999V0209999C000012200019N0300001N1+00841-00101999999ADDAA199000091GA1001+999999999GF100991001001999999001001MA1999999083801MD1410001+9999ME1314489REMSYN070AAXX  07004 17205 32980 00000 10084 21010 38380 48448 54000 333 10166;EQDQ01  00002PRCP99
0162172050999992000100703004+38480+042300FM-12+166599999V0209999C000012200019N0300001N1+00701-00181999999ADDGA1001+999999999GF100991001001999999001001MA1999999083801MD1410001+9999ME1315489REMSYN070AAXX  07034 17205 42980 00000 10070 21018 38380 48548 54000 333 10173;
0281172050999992000100706004+38480+042300FM-12+166599999V0209999C000010300019N0300001N1+01061+00151999999ADDAA199000091GA1031+012009089GA2051+030009039GF105991031011012501031001IA1019IA2999+00409KA1120N+00601MA1999999083801MD1410001+9999ME1315469REMSYN112AAXX  07064 17205 32680 50000 10106 20015 38380 48546 54000 83130 333 20060 30004 50321 55042 83840 85360 92418;EQDQ01  00002PRCP99
0196172050999992000100709004+38480+042300FM-12+166599999V0200701N001010300019N0300001N1+01801+00591999999ADDGA1031+012009089GA2051+030009039GF105991031011012501031001MA1999999083801MD1410001+9999ME1315469REMSYN088AAXX  07094 17205 42680 50702 10180 20059 38380 48546 54000 83130 333 83840 85360 92418;
0226172050999992000100712004+38480+042300FM-12+166599999V0200701N001010300019N0300001N1+01861+00631999999ADDAA199000091GA1031+012009089GA2051+030009039GF105991031011012501031001MA1999999083701MD1810101+9999ME1315359REMSYN088AAXX  07124 17205 32680 50702 10186 20063 38370 48535 58010 83130 333 83840 85360 92418;EQDQ01  00002PRCP99
0162172050999992000100715004+38480+042300FM-12+166599999V0209999C000012200019N0300001N1+01501+00311999999ADDGA1001+999999999GF100991001001999999001001MA1999999083601MD1810101+9999ME1315249REMSYN070AAXX  07154 17205 42980 00000 10150 20031 38360 48524 58010 333 10164;
0211172050999992000100718004+38480+042300FM-12+166599999V0209999C000012200019N0300001N1+01101-00171999999ADDAA199000091GA1001+999999999GF100991001001999999001001KA1120M+02101MA1999999083701MD1110101+9999ME1315369REMSYN076AAXX  07184 17205 32980 00000 10110 21017 38370 48536 51010 333 10210 92418;EQDQ01  00002PRCP99
0162172050999992000100721004+38480+042300FM-12+166599999V0209999C000012200019N0300001N1+00901-00301999999ADDGA1001+999999999GF100991001001999999001001MA1999999083701MD1410001+9999ME1315379REMSYN070AAXX  07214 17205 42980 00000 10090 21030 38370 48537 54000 333 10154;
0192172050999992000100800004+38480+042300FM-12+166599999V0209999C000012200019N0300001N1+00861-00331999999ADDAA199000091GA1001+999999999GF100991001001999999001001MA1999999083701MD1410001+9999ME1315389REMSYN070AAXX  08004 17205 32980 00000 10086 21033 38370 48538 54000 333 10154;EQDQ01  00002PRCP99
0162172050999992000100803004+38480+042300FM-12+166599999V0209999C000012200019N0300001N1+00701-00301999999ADDGA1001+999999999GF100991001001999999001001MA1999999083701MD1410001+9999ME1315389REMSYN070AAXX  08034 17205 42980 00000 10070 21030 38370 48538 54000 333 10176;
0247172050999992000100806004+38480+042300FM-12+166599999V0209999C000012200019N0300001N1+01041+00021999999ADDAA199000091GA1001+999999999GF100991001001999999001001IA1019IA2999+00509KA1120N+00601MA1999999083701MD1410001+9999ME1315379REMSYN094AAXX  08064 17205 32980 00000 10104 20002 38370 48537 54000 333 20060 30005 50161 55038 92418;EQDQ01  00002PRCP99
0196172050999992000100809004+38480+042300FM-12+166599999V0200701N001510300019N0300001N1+01701+00441999999ADDGA1041+012009089GA2071+030009039GF107991041021012501051001MA1999999083801MD1110101+9999ME1315449REMSYN088AAXX  08094 17205 42680 70703 10170 20044 38380 48544 51010 84250 333 84840 87360 92418;
0226172050999992000100812004+38480+042300FM-12+166599999V0202001N001510300019N0300001N1+01901+00101999999ADDAA199000091GA1041+012009089GA2071+030009039GF107991041021012501051001MA1999999083701MD1610101+9999ME1315329REMSYN088AAXX  08124 17205 32680 72003 10190 20010 38370 48532 56010 84250 333 84840 87360 92418;EQDQ01  00002PRCP99
0196172050999992000100815004+38480+042300FM-12+166599999V0209999C000010300019N0300001N1+01701-00091999999ADDGA1041+012009089GA2071+030009039GF107991041021012501051001MA1999999083701MD1410001+9999ME1315339REMSYN088AAXX  08154 17205 42680 70000 10170 21009 38370 48533 54000 84250 333 84840 87360 92418;
0245172050999992000100818004+38480+042300FM-12+166599999V0209999C000010300019N0300001N1+01541-00181999999ADDAA199000091GA1041+012009089GA2071+030009039GF107991041021012501051001KA1120M+02041MA1999999083601MD1810101+9999ME1315249REMSYN094AAXX  08184 17205 32680 70000 10154 21018 38360 48524 58010 84250 333 10204 84840 87360 92418;EQDQ01  00002PRCP99
0174172050999992000100821004+38480+042300FM-12+166599999V0209999C000012200019N0300001N1+01401-00301999999ADDGA1021+012009089GF102991021011012501001001MA1999999083601MD1410001+9999ME1315259REMSYN082AAXX  08214 17205 42680 20000 10140 21030 38360 48525 54000 82100 333 82840 92418;
0204172050999992000100900004+38480+042300FM-12+166599999V0202501N001512200019N0300001N1+01501+00151999999ADDAA199000091GA1021+012009089GF102991021011012501001001MA1999999083601MD1410001+9999ME1315249REMSYN082AAXX  09004 17205 32680 22503 10150 20015 38360 48524 54000 82100 333 82840 92418;EQDQ01  00002PRCP99
0196172050999992000100903004+38480+042300FM-12+166599999V0202501N001010300019N0300001N1+01341+00331999999ADDGA1041+012009089GA2061+030009039GF106991041021012501051001MA1999999083501MD1610101+9999ME1315159REMSYN088AAXX  09034 17205 42680 62502 10134 20033 38350 48515 56010 84250 333 84840 86360 92418;
0259172050999992000100906004+38480+042300FM-12+166599999V0202701N001012200019N0300001N1+01461+00451999999ADDAA199000091GA1031+012009089GF103991031021012501001001IA1019IA2999+01009KA1120N+01241MA1999999083501MD1410001+9999ME1315149REMSYN106AAXX  09064 17205 32680 32702 10146 20045 38350 48514 54000 83200 333 20124 30010 50321 55014 83840 92418;EQDQ01  00002PRCP99
0174172050999992000100909004+38480+042300FM-12+166599999V0202001N002612200019N0300001N1+01981+00281999999ADDGA1021+012009089GF102991021011012501001001MA1999999083501MD1410001+9999ME1315129REMSYN082AAXX  09094 17205 42680 22005 10198 20028 38350 48512 54000 82100 333 82840 92418;
0204172050999992000100912004+38480+042300FM-12+166599999V0202001N002612200019N0300001N1+01941+00041999999ADDAA199000091GA1021+012009089GF102991021011012501001001MA1999999083401MD1710101+9999ME1315019REMSYN082AAXX  09124 17205 32680 22005 10194 20004 38340 48501 57010 82100 333 82840 92418;EQDQ01  00002PRCP99
0174172050999992000100915004+38480+042300FM-12+166599999V0202001N001512200019N0300001N1+01701+00201999999ADDGA1021+012009089GF102991021011012501001001MA1999999083401MD1410001+9999ME1315039REMSYN082AAXX  09154 17205 42680 22003 10170 20020 38340 48503 54000 82100 333 82840 92418;
0211172050999992000100918004+38480+042300FM-12+166599999V0202501N001512200019N0300001N1+01581+00131999999ADDAA199000091GA1001+999999999GF100991001001999999001001KA1120M+02061MA1999999083501MD1210101+9999ME1315149REMSYN076AAXX  09184 17205 32980 02503 10158 20013 38350 48514 52010 333 10206 92418;EQDQ01  00002PRCP99
0162172050999992000100921004+38480+042300FM-12+166599999V0209999C000012200019N0300001N1+01361+00061999999ADDGA1001+999999999GF100991001001999999001001MA1999999083501MD1410001+9999ME1315159REMSYN070AAXX  09214 17205 42980 00000 10136 20006 38350 48515 54000 333 10109;
0192172050999992000101000004+38480+042300FM-12+166599999V0209999C000012200019N0300001N1+01121+00091999999ADDAA199000091GA1001+999999999GF100991001001999999001001MA1999999083501MD1410001+9999ME1315169REMSYN070AAXX  10004 17205 32980 00000 10112 20009 38350 48516 54000 333 10123;EQDQ01  00002PRCP99
0162172050999992000101003004+38480+042300FM-12+166599999V0209999C000012200019N0300001N1+00761+00151999999ADDGA1001+999999999GF100991001001999999001001MA1999999083501MD1410001+9999ME1315189REMSYN070AAXX  10034 17205 42980 00000 10076 20015 38350 48518 54000 333 10144;
0259172050999992000101006004+38480+042300FM-12+166599999V0209999C000012200019N0300001N1+01161+00501999999ADDAA199000091GA1021+012009089GF102991021011012501001001IA1019IA2999+00509KA1120N+00601MA1999999083501MD1410001+9999ME1315159REMSYN106AAXX  10064 17205 32680 20000 10116 20050 38350 48515 54000 82100 333 20060 30005 50401 55037 82840 92418;EQDQ01  00002PRCP99
0174172050999992000101009004+38480+042300FM-12+166599999V0202001N003612200019N0300001N1+01841+00161999999ADDGA1041+012009089GF104991041021012501001001MA1999999083501MD1410001+9999ME1315149REMSYN082AAXX  10094 17205 42680 42007 10184 20016 38350 48514 54000 84200 333 84840 92418;
0219172050999992000101012004+38480+042300FM-12+166599999V0202501N001510120019N0300001N1+01721+00231999999ADDAA106000391AY181061AY221061GA1051+012009089GF105991051021012501001001MA1999999083501MD1410001+9999ME1315159MW1021REMSYN094AAXX  10124 17205 11680 52503 10172 20023 38350 48515 54000 69931 70282 85200 333 85840 92418;
0174172050999992000101015004+38480+042300FM-12+166599999V0202501N001010120019N0300001N1+01541+00221999999ADDGA1051+012009089GF105991051021012501001001MA1999999083501MD1410001+9999ME1315149REMSYN082AAXX  10154 17205 42680 52502 10154 20022 38350 48514 54000 85200 333 85840 92418;
0210172050999992000101018004+38480+042300FM-12+166599999V0209999C000012200019N0300001N1+01141+00151999999ADDAA112000391GA1021+012009089GF102991021011012501001001KA1120M+01941MA1999999083501MD1410001+9999ME1315169REMSYN094AAXX  10184 17205 12680 20000 10114 20015 38350 48516 54000 69932 82100 333 10194 82840 92418;
0162172050999992000101021004+38480+042300FM-12+166599999V0209999C000012200019N0300001N1+00901+00211999999ADDGA1001+999999999GF100991001001999999001001MA1999999083501MD1410001+9999ME1315179REMSYN070AAXX  10214 17205 42980 00000 10090 20021 38350 48517 54000 333 10130;
0192172050999992000101100004+38480+042300FM-12+166599999V0209999C000012200019N0300001N1+00861+00271999999ADDAA199000091GA1001+999999999GF100991001001999999001001MA1999999083501MD1410001+9999ME1315189REMSYN070AAXX  11004 17205 32980 00000 10086 20027 38350 48518 54000 333 10137;EQDQ01  00002PRCP99
0174172050999992000101103004+38480+042300FM-12+166599999V0209999C000012200019N0300001N1+00921+00301999999ADDGA1031+012009089GF103991031011012501001001MA1999999083501MD1410001+9999ME1315179REMSYN082AAXX  11034 17205 42680 30000 10092 20030 38350 48517 54000 83100 333 83840 92418;
0268172050999992000101106004+38480+042300FM-12+166599999V0209999C000010300019N0300001N1+01301+00551999999ADDAA124000391GA1031+012009089GA2051+030009039GF105991031021012501051001IA1019IA2999+00609KA1120N+00741MA1999999083501MD1410001+9999ME1315159REMSYN118AAXX  11064 17205 32680 50000 10130 20055 38350 48515 54000 83250 333 20074 30006 50191 55024 70003 83840 85360 92418;
0196172050999992000101109004+38480+042300FM-12+166599999V0202001N001510300019N0300001N1+02021-00191999999ADDGA1031+012009089GA2051+030009039GF105991031021012501051001MA1999999083501MD1410001+9999ME1315129REMSYN088AAXX  11094 17205 42680 52003 10202 21019 38350 48512 54000 83250 333 83840 85360 92418;
0226172050999992000101112004+38480+042300FM-12+166599999V0202001N001510300019N0300001N1+02101-00131999999ADDAA199000091GA1031+012009089GA2051+030009039GF105991031021012501051001MA1999999083301MD1710201+9999ME1314909REMSYN088AAXX  11124 17205 32680 52003 10210 21013 38330 48490 57020 83250 333 83840 85360 92418;EQDQ01  00002PRCP99
0196172050999992000101115004+38480+042300FM-12+166599999V0202501N002110300019N0300001N1+01601-00071999999ADDGA1041+012009089GA2061+030009039GF106991041021012501051001MA1999999083301MD1410001+9999ME1314939REMSYN088AAXX  11154 17205 42680 62504 10160 21007 38330 48493 54000 84250 333 84840 86360 92418;
0245172050999992000101118004+38480+042300FM-12+166599999V0202501N001510300019N0300001N1+01301+00551999999ADDAA199000091GA1041+012009089GA2061+030009039GF106991041021012501051001KA1120M+02241MA1999999083501MD1210201+9999ME1315159REMSYN094AAXX  11184 17205 32680 62503 10130 20055 38350 48515 52020 84250 333 10224 84840 86360 92418;EQDQ01  00002PRCP99
0224172050999992000101121004+38480+042300FM-12+166599999V0202501N001010300019N0300001N1+00901+00531999999ADDAY181031AY221031GA1041+012009089GA2061+030009039GF106991041021012501051001MA1999999083501MD1410001+9999ME1315179MW1021REMSYN094AAXX  11214 17205 41680 62502 10090 20053 38350 48517 54000 70282 84250 333 84840 86360 92418;
0179172050999992000101200004+38480+042300FM-12+166599999V0209999C000012200019N0300001N1+00701+00511999999ADDAA106000191GA1001+999999999GF100991001001999999001001MA1999999083401MD1610101+9999ME1315089REMSYN076AAXX  12004 17205 12980 00000 10070 20051 38340 48508 56010 69921 333 92418;
0162172050999992000101203004+38480+042300FM-12+166599999V0209999C000012200019N0300001N1+00601+00531999999ADDGA1001+999999999GF100991001001999999001001MA1999999083401MD1410001+9999ME1315109REMSYN070AAXX  12034 17205 42980 00000 10060 20053 38340 48510 54000 333 10139;
0240172050999992000101206004+38480+042300FM-12+166599999V0209999C000012200019N0300001N1+00961+00641999999ADDAA112000191GA1001+999999999GF100991001001999999001001IA1019IA2999+00409KA1120N+00501MA1999999083501MD1210101+9999ME1315179REMSYN106AAXX  12064 17205 12980 00000 10096 20064 38350 48517 52010 69922 333 20050 30004 50241 55027 70002 92418;
0162172050999992000101209004+38480+042300FM-12+166599999V0202901N001512200019N0300001N1+01501+00491999999ADDGA1001+999999999GF100991001001999999001001MA1999999083561MD1110061+9999ME1315259REMSYN070AAXX  12094 17205 42980 02903 10150 20049 38356 48525 51006 333 10151;
0204172050999992000101212004+38480+042300FM-12+166599999V0202501N001512200019N0300001N1+01701+00441999999ADDAA199000091GA1021+012009089GF102991021011012501001001MA1999999083501MD1810061+9999ME1315139REMSYN082AAXX  12124 17205 32680 22503 10170 20044 38350 48513 58006 82100 333 82840 92418;EQDQ01  00002PRCP99
0174172050999992000101215004+38480+042300FM-12+166599999V0202701N001012200019N0300001N1+01521+00141999999ADDGA1041+012009089GF104991041011012501001001MA1999999083501MD1410001+9999ME1315149REMSYN082AAXX  12154 17205 42680 42702 10152 20014 38350 48514 54000 84100 333 84840 92418;
0223172050999992000101218004+38480+042300FM-12+166599999V0209999C000012200019N0300001N1+01141+00151999999ADDAA199000091GA1021+012009089GF102991021011012501001001KA1120M+01801MA1999999083601MD1210101+9999ME1315269REMSYN088AAXX  12184 17205 32680 20000 10114 20015 38360 48526 52010 82100 333 10180 82840 92418;EQDQ01  00002PRCP99
0174172050999992000101221004+38480+042300FM-12+166599999V0209999C000012200019N0300001N1+01101+00221999999ADDGA1031+012009089GF103991031011012501001001MA1999999083601MD1410001+9999ME1315269REMSYN082AAXX  12214 17205 42680 30000 10110 20022 38360 48526 54000 83100 333 83840 92418;
0204172050999992000101300004+38480+042300FM-12+166599999V0209999C000012200019N0300001N1+00961+00261999999ADDAA199000091GA1041+012009089GF104991041021012501001001MA1999999083601MD1410001+9999ME1315279REMSYN082AAXX  13004 17205 32680 40000 10096 20026 38360 48527 54000 84200 333 84840 92418;EQDQ01  00002PRCP99
0162172050999992000101303004+38480+042300FM-12+166599999V0209999C000012200019N0300001N1+00801+00291999999ADDGA1001+999999999GF100991001001999999001001MA1999999083601MD1410001+9999ME1315289REMSYN070AAXX  13034 17205 42980 00000 10080 20029 38360 48528 54000 333 10156;
0247172050999992000101306004+38480+042300FM-12+166599999V0209999C000012200019N0300001N1+01101+00111999999ADDAA199000091GA1001+999999999GF100991001001999999001001IA1019IA2999+00509KA1120N+00701MA1999999083601MD1410001+9999ME1315289REMSYN094AAXX  13064 17205 32980 00000 10110 20011 38360 48528 54000 333 20070 30005 50241 55032 92418;EQDQ01  00002PRCP99
0174172050999992000101309004+38480+042300FM-12+166599999V0202501N002612200019N0300001N1+01601+00311999999ADDGA1041+012009089GF104991041021012501001001MA1999999083601MD1410001+9999ME1315259REMSYN082AAXX  13094 17205 42680 42505 10160 20031 38360 48525 54000 84200 333 84840 92418;
0204172050999992000101312004+38480+042300FM-12+166599999V0202901N001512200019N0300001N1+01801+00091999999ADDAA199000091GA1041+012009089GF104991041021012501001001MA1999999083401MD1710201+9999ME1315039REMSYN082AAXX  13124 17205 32680 42903 10180 20009 38340 48503 57020 84200 333 84840 92418;EQDQ01  00002PRCP99
0174172050999992000101315004+38480+042300FM-12+166599999V0209999C000012200019N0300001N1+01501+00021999999ADDGA1041+012009089GF104991041021012501001001MA1999999083401MD1410001+9999ME1315049REMSYN082AAXX  13154 17205 42680 40000 10150 20002 38340 48504 54000 84200 333 84840 92418;
0223172050999992000101318004+38480+042300FM-12+166599999V0209999C000012200019N0300001N1+01121+00141999999ADDAA199000091GA1041+012009089GF104991041021012501001001KA1120M+01921MA1999999083401MD1410001+9999ME1315069REMSYN088AAXX  13184 17205 32680 40000 10112 20014 38340 48506 54000 84200 333 10192 84840 92418;EQDQ01  00002PRCP99
0174172050999992000101321004+38480+042300FM-12+166599999V0209999C000012200019N0300001N1+01081+00131999999ADDGA1021+012009089GF102991021011012501001001MA1999999083401MD1410001+9999ME1315079REMSYN082AAXX  13214 17205 42680 20000 10108 20013 38340 48507 54000 82100 333 82840 92418;
0204172050999992000101400004+38480+042300FM-12+166599999V0209999C000012200019N0300001N1+01001+00101999999ADDAA199000091GA1021+012009089GF102991021011012501001001MA1999999083401MD1410001+9999ME1315079REMSYN082AAXX  14004 17205 32680 20000 10100 20010 38340 48507 54000 82100 333 82840 92418;EQDQ01  00002PRCP99
0174172050999992000101403004+38480+042300FM-12+166599999V0209999C000012200019N0300001N1+00701+00081999999ADDGA1021+012009089GF102991021011012501001001MA1999999083401MD1410001+9999ME1315089REMSYN082AAXX  14034 17205 42680 20000 10070 20008 38340 48508 54000 82100 333 82840 92418;
0259172050999992000101406004+38480+042300FM-12+166599999V0209999C000012200019N0300001N1+01001+00441999999ADDAA199000091GA1041+012009089GF104991041021012501001001IA1019IA2999+00509KA1120N+00641MA1999999083401MD1410001+9999ME1315079REMSYN106AAXX  14064 17205 32680 40000 10100 20044 38340 48507 54000 84200 333 20064 30005 50161 55027 84840 92418;EQDQ01  00002PRCP99
0174172050999992000101409004+38480+042300FM-12+166599999V0200701N001512200019N0300001N1+01441+00591999999ADDGA1041+012009089GF104991041021012501001001MA1999999083401MD1410001+9999ME1315049REMSYN082AAXX  14094 17205 42680 40703 10144 20059 38340 48504 54000 84200 333 84840 92418;
0226172050999992000101412004+38480+042300FM-12+166599999V0200701N001510300019N0300001N1+01501+00411999999ADDAA199000091GA1041+012009089GA2061+030009039GF106991041021012501051001MA1999999083321MD1710081+9999ME1314939REMSYN088AAXX  14124 17205 32680 60703 10150 20041 38332 48493 57008 84250 333 84840 86360 92418;EQDQ01  00002PRCP99
0196172050999992000101415004+38480+042300FM-12+166599999V0201801N001010300019N0300001N1+01301+00371999999ADDGA1041+012009089GA2061+030009039GF106991041021012501051001MA1999999083321MD1410001+9999ME1314959REMSYN088AAXX  14154 17205 42680 61802 10130 20037 38332 48495 54000 84250 333 84840 86360 92418;
0223172050999992000101418004+38480+042300FM-12+166599999V0209999C000012200019N0300001N1+00961+00171999999ADDAA199000091GA1041+012009089GF104991041021012501001001KA1120M+01701MA1999999083401MD1110081+9999ME1315079REMSYN088AAXX  14184 17205 32680 40000 10096 20017 38340 48507 51008 84200 333 10170 84840 92418;EQDQ01  00002PRCP99
0174172050999992000101421004+38480+042300FM-12+166599999V0200901N001012200019N0300001N1+01041+00271999999ADDGA1041+012009089GF104991041021012501001001MA1999999083501MD1410001+9999ME1315179REMSYN082AAXX  14214 17205 42680 40902 10104 20027 38350 48517 54000 84200 333 84840 92418;
0204172050999992000101500004+38480+042300FM-12+166599999V0200201N003112200019N0300001N1+01221+00451999999ADDAA199000091GA1041+012009089GF104991041021012501001001MA1999999083501MD1410001+9999ME1315169REMSYN082AAXX  15004 17205 32680 40206 10122 20045 38350 48516 54000 84200 333 84840 92428;EQDQ01  00002PRCP99
0174172050999992000101503004+38480+042300FM-12+166599999V0200201N004112200019N0300001N1+01221+00451999999ADDGA1041+012009089GF104991041021012501001001MA1999999083501MD1410001+9999ME1315169REMSYN082AAXX  15034 17205 42680 40208 10122 20045 38350 48516 54000 84200 333 84840 92428;
0281172050999992000101506004+38480+042300FM-12+166599999V0200201N004610300019N0300001N1+01181+00531999999ADDAA199000091GA1041+012009089GA2061+030009039GF106991041021012501051001IA1019IA2999+00709KA1120N+00841MA1999999083641MD1210141+9999ME1315269REMSYN112AAXX  15064 17205 32680 60209 10118 20053 38364 48526 52014 84250 333 20084 30007 50321 55015 84840 86360 92428;EQDQ01  00002PRCP99
0174172050999992000101509004+38480+042300FM-12+166599999V0200201N003112200019N0300001N1+01401+00491999999ADDGA1021+012009089GF102991021011012501001001MA1999999083701MD1110061+9999ME1315359REMSYN082AAXX  15094 17205 42680 20206 10140 20049 38370 48535 51006 82100 333 82840 92428;
0204172050999992000101512004+38480+042300FM-12+166599999V0200701N002112200019N0300001N1+01461+00481999999ADDAA199000091GA1041+012009089GF104991041021012501001001MA1999999083661MD1710041+9999ME1315359REMSYN082AAXX  15124 17205 32680 40704 10146 20048 38366 48535 57004 84200 333 84840 92418;EQDQ01  00002PRCP99
0174172050999992000101515004+38480+042300FM-12+166599999V0200701N001012200019N0300001N1+01321+00351999999ADDGA1021+012009089GF102991021011012501001001MA1999999083601MD1610061+9999ME1315259REMSYN082AAXX  15154 17205 42680 20702 10132 20035 38360 48525 56006 82100 333 82840 92418;
0223172050999992000101518004+38480+042300FM-12+166599999V0209999C000012200019N0300001N1+01101+00341999999ADDAA199000091GA1021+012009089GF102991021011012501001001KA1120M+01561MA1999999083661MD1410001+9999ME1315369REMSYN088AAXX  15184 17205 32680 20000 10110 20034 38366 48536 54000 82100 333 10156 82840 92418;EQDQ01  00002PRCP99
0174172050999992000101521004+38480+042300FM-12+166599999V0200201N001512200019N0300001N1+01021+00291999999ADDGA1021+012009089GF102991021011012501001001MA1999999083761MD1210101+9999ME1315479REMSYN082AAXX  15214 17205 42680 20203 10102 20029 38376 48547 52010 82100 333 82840 92418;
0204172050999992000101600004+38480+042300FM-12+166599999V0200201N001512200019N0300001N1+00961+00601999999ADDAA199000091GA1041+012009089GF104991041021012501001001MA1999999083761MD1410001+9999ME1315479REMSYN082AAXX  16004 17205 32680 40203 10096 20060 38376 48547 54000 84200 333 84840 92418;EQDQ01  00002PRCP99
0196172050999992000101603004+38480+042300FM-12+166599999V0209999C000010300019N0300001N1+00881+00261999999ADDGA1041+012009089GA2061+030009039GF106991041021012501051001MA1999999083701MD1810061+9999ME1315389REMSYN088AAXX  16034 17205 42680 60000 10088 20026 38370 48538 58006 84250 333 84840 86360 92418;
0281172050999992000101606004+38480+042300FM-12+166599999V0209999C000010270019N0300001N1+01001+00211999999ADDAA199000091GA1041+010509089GA2061+027009039GF106991041021012501051001IA1019IA2999+00609KA1120N+00701MA1999999083701MD1410001+9999ME1315379REMSYN112AAXX  16064 17205 32680 60000 10100 20021 38370 48537 54000 84250 333 20070 30006 50241 55025 84835 86359 92418;EQDQ01  00002PRCP99
0196172050999992000101609004+38480+042300FM-12+166599999V0200701N001510300019N0300001N1+01401+00471999999ADDGA1041+012009089GA2061+030009039GF106991041021012501051001MA1999999083801MD1110101+9999ME1315459REMSYN088AAXX  16094 17205 42680 60703 10140 20047 38380 48545 51010 84250 333 84840 86360 92418;
0226172050999992000101612004+38480+042300FM-12+166599999V0200701N001510300019N0300001N1+01421+00471999999ADDAA199000091GA1041+012009089GA2061+030009039GF106991041021012501051001MA1999999083701MD1810101+9999ME1315359REMSYN088AAXX  16124 17205 32680 60703 10142 20047 38370 48535 58010 84250 333 84840 86360 92418;EQDQ01  00002PRCP99
0196172050999992000101615004+38480+042300FM-12+166599999V0209999C000010300019N0300001N1+01261-00601999999ADDGA1031+012009089GA2051+030009039GF105991031021012501051001MA1999999083601MD1610101+9999ME1315269REMSYN088AAXX  16154 17205 42680 50000 10126 21060 38360 48526 56010 83250 333 83840 85360 92418;
0223172050999992000101618004+38480+042300FM-12+166599999V0209999C000012200019N0300001N1+00841-00661999999ADDAA199000091GA1031+012009089GF103991031011012501001001KA1120M+01501MA1999999083701MD1110101+9999ME1315389REMSYN088AAXX  16184 17205 32680 30000 10084 21066 38370 48538 51010 83100 333 10150 83840 92418;EQDQ01  00002PRCP99
0162172050999992000101621004+38480+042300FM-12+166599999V0209999C000012200019N0300001N1+00701-00621999999ADDGA1001+999999999GF100991001001999999001001MA1999999083701MD1410001+9999ME1315389REMSYN070AAXX  16214 17205 42980 00000 10070 21062 38370 48538 54000 333 10176;
0192172050999992000101700004+38480+042300FM-12+166599999V0209999C000012200019N0300001N1+00501-00551999999ADDAA199000091GA1001+999999999GF100991001001999999001001MA1999999083701MD1410001+9999ME1315399REMSYN070AAXX  17004 17205 32980 00000 10050 21055 38370 48539 54000 333 10183;EQDQ01  00002PRCP99
0162172050999992000101703004+38480+042300FM-12+166599999V0209999C000012200019N0300001N1+00501-00551999999ADDGA1001+999999999GF100991001001999999001001MA1999999083601MD1610101+9999ME1315299REMSYN070AAXX  17034 17205 42980 00000 10050 21055 38360 48529 56010 333 10178;
0247172050999992000101706004+38480+042300FM-12+166599999V0209999C000012200019N0300001N1+00841-00101999999ADDAA199000091GA1001+999999999GF100991001001999999001001IA1019IA2999+00209KA1120N+00301MA1999999083601MD1410001+9999ME1315289REMSYN094AAXX  17064 17205 32980 00000 10084 21010 38360 48528 54000 333 20030 30002 50161 55006 92418;EQDQ01  00002PRCP99
0174172050999992000101709004+38480+042300FM-12+166599999V0200701N001512200019N0300001N1+01561-00901999999ADDGA1041+012009089GF104991041021012501001001MA1999999083601MD1410001+9999ME1315249REMSYN082AAXX  17094 17205 42680 40703 10156 21090 38360 48524 54000 84200 333 84840 92418;
0204172050999992000101712004+38480+042300FM-12+166599999V0202501N001512200019N0300001N1+01701-00951999999ADDAA199000091GA1031+012009089GF103991031021012501001001MA1999999083501MD1610101+9999ME1315139REMSYN082AAXX  17124 17205 32680 32503 10170 21095 38350 48513 56010 83200 333 83840 92418;EQDQ01  00002PRCP99
0211172050999992000101718004+38480+042300FM-12+166599999V0202201N001012200019N0300001N1+01161-00251999999ADDAA199000091GA1001+999999999GF100991001001999999001001KA1120M+01801MA1999999083501MD1410001+9999ME1315169REMSYN076AAXX  17184 17205 32980 02202 10116 21025 38350 48516 54000 333 10180 92418;EQDQ01  00002PRCP99
0251172050999992000101721004+38480+042300SY-MT+166599999V0202001N001012200019N0300001N1+01041-00651102131ADDGF100991001001999999001001MA1999999083501MD1410001+9999ME1315179MW1001REMSYN070AAXX  17214 17205 42980 02002 10104 21065 38350 48517 54000 333 10137;MET074172059Z KSBY 172050C COR 06012KT 10SM OVC020 18/15 A3016 RMK SLP213 54000;EQDQ01+000000PRSWM2
0192172050999992000101800004+38480+042300FM-12+166599999V0209999C000012200019N0300001N1+00621-00281999999ADDAA199000091GA1001+999999999GF100991001001999999001001MA1999999083501MD1410001+9999ME1315199REMSYN070AAXX  18004 17205 32980 00000 10062 21028 38350 48519 54000 333 10144;EQDQ01  00002PRCP99
0162172050999992000101803004+38480+042300FM-12+166599999V0209999C000012200019N0300001N1+00401-00181999999ADDGA1001+999999999GF100991001001999999001001MA1999999083501MD1410001+9999ME1315209REMSYN070AAXX  18034 17205 42980 00000 10040 21018 38350 48520 54000 333 10166;
0247172050999992000101806004+38480+042300FM-12+166599999V0202501N001512200019N0300001N1+01041-00321999999ADDAA199000091GA1001+999999999GF100991001001999999001001IA1019IA2999+00209KA1120N+00301MA1999999083501MD1410001+9999ME1315179REMSYN094AAXX  18064 17205 32980 02503 10104 21032 38350 48517 54000 333 20030 30002 50321 55025 92418;EQDQ01  00002PRCP99
0162172050999992000101809004+38480+042300FM-12+166599999V0202001N002112200019N0300001N1+01541-00591999999ADDGA1001+999999999GF100991001001999999001001MA1999999083501MD1410001+9999ME1315149REMSYN070AAXX  18094 17205 42980 02004 10154 21059 38350 48514 54000 333 10137;
0192172050999992000101812004+38480+042300FM-12+166599999V0202001N002112200019N0300001N1+01601-00701999999ADDAA199000091GA1001+999999999GF100991001001999999001001MA1999999083441MD1710061+9999ME1315049REMSYN070AAXX  18124 17205 32980 02004 10160 21070 38344 48504 57006 333 10144;EQDQ01  00002PRCP99
0162172050999992000101815004+38480+042300FM-12+166599999V0202001N002612200019N0300001N1+01261-00941999999ADDGA1001+999999999GF100991001001999999001001MA1999999083401MD1610041+9999ME1315069REMSYN070AAXX  18154 17205 42980 02005 10126 21094 38340 48506 56004 333 10161;
0211172050999992000101818004+38480+042300FM-12+166599999V0202501N001512200019N0300001N1+01221-01251999999ADDAA199000091GA1001+999999999GF100991001001999999001001KA1120M+01701MA1999999083461MD1110061+9999ME1315169REMSYN076AAXX  18184 17205 32980 02503 10122 21125 38346 48516 51006 333 10170 92418;EQDQ01  00002PRCP99
0162172050999992000101821004+38480+042300FM-12+166599999V0202001N001512200019N0300001N1+01161-00981999999ADDGA1001+999999999GF100991001001999999001001MA1999999083461MD1410001+9999ME1315169REMSYN070AAXX  18214 17205 42980 02003 10116 21098 38346 48516 54000 333 10125;
0192172050999992000101900004+38480+042300FM-12+166599999V0202001N001512200019N0300001N1+01161-00731999999ADDAA199000091GA1001+999999999GF100991001001999999001001MA1999999083461MD1410001+9999ME1315169REMSYN070AAXX  19004 17205 32980 02003 10116 21073 38346 48516 54000 333 10125;EQDQ01  00002PRCP99
0209172050999992000101903004+38480+042300FM-12+166599999V0202001N001012200019N0300001N1+01001+99999999999ADDGA1021+012009089GF102991021011012501001001MA1999999083461MD1410001+9999ME1315179REMSYN082AAXX  19034 17205 42680 22002 10100 20058 38346 48517 54000 82100 333 82840 92418;EQDQ01+000583ATOD  Q02 +00583ATOD  
0281172050999992000101906004+38480+042300FM-12+166599999V0202901N001510300019N0300001N1+01201-00581999999ADDAA199000091GA1041+012009089GA2061+030009039GF106991041021012501051001IA1019IA2999+00709KA1120N+00861MA1999999083501MD1410001+9999ME1315169REMSYN112AAXX  19064 17205 32680 62903 10120 21058 38350 48516 54000 84250 333 20086 30007 50241 55028 84840 86360 92418;EQDQ01  00002PRCP99
0196172050999992000101909004+38480+042300FM-12+166599999V0202001N002610300019N0300001N1+01401-00271999999ADDGA1041+012009089GA2061+030009039GF106991041021012501051001MA1999999083501MD1410001+9999ME1315169REMSYN088AAXX  19094 17205 42680 62005 10140 21027 38350 48516 54000 84250 333 84840 86360 92418;
0196172050999992000101915004+38480+042300FM-12+166599999V0202501N001510300019N0300001N1+01321-00171999999ADDGA1041+012009089GA2061+030009039GF106991041021012501051001MA1999999083401MD1410001+9999ME1315059REMSYN088AAXX  19154 17205 42680 62503 10132 21017 38340 48505 54000 84250 333 84840 86360 92418;
0211172050999992000101918004+38480+042300FM-12+166599999V0202501N001512200019N0300001N1+01201-00151999999ADDAA199000091GA1001+999999999GF100991001001999999001001KA1120M+01741MA1999999083501MD1210101+9999ME1315169REMSYN076AAXX  19184 17205 32980 02503 10120 21015 38350 48516 52010 333 10174 92418;EQDQ01  00002PRCP99
0162172050999992000101921004+38480+042300FM-12+166599999V0202501N003112200019N0300001N1+01201-00151999999ADDGA1001+999999999GF100991001001999999001001MA1999999083501MD1410001+9999ME1315169REMSYN070AAXX  19214 17205 42980 02506 10120 21015 38350 48516 54000 333 10137;
0204172050999992000102000004+38480+042300FM-12+166599999V0202901N001012200019N0300001N1+01021-00061999999ADDAA199000091GA1021+012009089GF102991021011012501001001MA1999999083501MD1410001+9999ME1315179REMSYN082AAXX  20004 17205 32680 22902 10102 21006 38350 48517 54000 82100 333 82840 92418;EQDQ01  00002PRCP99
0174172050999992000102003004+38480+042300FM-12+166599999V0209999C000012200019N0300001N1+00701+00011999999ADDGA1021+012009089GF102991021011012501001001MA1999999083501MD1410001+9999ME1315189REMSYN082AAXX  20034 17205 42680 20000 10070 20001 38350 48518 54000 82100 333 82840 92418;
0281172050999992000102006004+38480+042300FM-12+166599999V0209999C000010300019N0300001N1+01001+00211999999ADDAA199000091GA1041+012009089GA2061+030009039GF106991041021012501051001IA1019IA2999+00509KA1120N+00641MA1999999083601MD1210101+9999ME1315279REMSYN112AAXX  20064 17205 32680 60000 10100 20021 38360 48527 52010 84250 333 20064 30005 50161 55015 84840 86360 92418;EQDQ01  00002PRCP99
0196172050999992000102009004+38480+042300FM-12+166599999V0202001N002110300019N0300001N1+01421+00151999999ADDGA1041+012009089GA2061+030009039GF106991041021012501051001MA1999999083501MD1610101+9999ME1315159REMSYN088AAXX  20094 17205 42680 62004 10142 20015 38350 48515 56010 84250 333 84840 86360 92418;
0226172050999992000102012004+38480+042300FM-12+166599999V0202001N001510300019N0300001N1+01501+00161999999ADDAA199000091GA1041+012009089GA2061+030009039GF106991041021012501051001MA1999999083401MD1710101+9999ME1315049REMSYN088AAXX  20124 17205 32680 62003 10150 20016 38340 48504 57010 84250 333 84840 86360 92418;EQDQ01  00002PRCP99
0196172050999992000102015004+38480+042300FM-12+166599999V0202001N001510300019N0300001N1+01501+00161999999ADDGA1041+012009089GA2061+030009039GF106991041021012501051001MA1999999083401MD1410001+9999ME1315049REMSYN088AAXX  20154 17205 42680 62003 10150 20016 38340 48504 54000 84250 333 84840 86360 92418;
0245172050999992000102018004+38480+042300FM-12+166599999V0202001N002110300019N0300001N1+01301+00131999999ADDAA199000091GA1041+012009089GA2061+030009039GF106991041021012501051001KA1120M+01641MA1999999083301MD1610101+9999ME1314959REMSYN094AAXX  20184 17205 32680 62004 10130 20013 38330 48495 56010 84250 333 10164 84840 86360 92418;EQDQ01  00002PRCP99
0196172050999992000102021004+38480+042300FM-12+166599999V0202001N002110300019N0300001N1+01201+00471999999ADDGA1041+012009089GA2061+030009039GF106991041021012501051001MA1999999083301MD1410001+9999ME1314959REMSYN088AAXX  20214 17205 42680 62004 10120 20047 38330 48495 54000 84250 333 84840 86360 92418;
0224172050999992000102100004+38480+042300FM-12+166599999V0202001N001510105019N0200001N1+00901+00411999999ADDAY161061AY261061GA1051+010509069GA2081+027009049GF108991051051012501021999MA1999999083201MD1410001+9999ME1314879MW1211REMSYN094AAXX  21004 17205 41670 82003 10090 20041 38320 48487 54000 72166 8552/ 333 85635 88459 92417;
0224172050999992000102103004+38480+042300FM-12+166599999V0202001N001510105019N0200001N1+00901+00411999999ADDAY161031AY261031GA1051+010509069GA2081+027009049GF108991051051012501021999MA1999999083201MD1410001+9999ME1314879MW1211REMSYN094AAXX  21034 17205 41670 82003 10090 20041 38320 48487 54000 72166 8552/ 333 85635 88459 92417;
0302172050999992000102106004+38480+042300FM-12+166599999V0202501N002110105019N0200001N1+00941+00531999999ADDAA112010991AY161061AY261061GA1051+010509069GA2081+027009049GF108991051051012501021999IA1119IA2999+00709KA1120N+00801MA1999999083341MD1210141+9999ME1314979MW1211REMSYN130AAXX  21064 17205 11670 82504 10094 20053 38334 48497 52014 60112 72166 8552/ 333 20080 32007 50281 55014 70108 85635 88459 92417;
0196172050999992000102109004+38480+042300FM-12+166599999V0202501N002110300019N0300001N1+01261+00501999999ADDGA1041+012009089GA2061+030009039GF106991041021012501051001MA1999999083401MD1110061+9999ME1315069REMSYN088AAXX  21094 17205 42680 62504 10126 20050 38340 48506 51006 84250 333 84840 86360 92418;
0207172050999992000102112004+38480+042300FM-12+166599999V0202501N002110300019N0300001N1+01361+00411999999ADDAA199000021GA1041+012009089GA2061+030009039GF106991041021012501051001MA1999999083401MD1410001+9999ME1315059REMSYN088AAXX  21124 17205 32680 62504 10136 20041 38340 48505 54000 84250 333 84840 86360 92418;
0196172050999992000102115004+38480+042300FM-12+166599999V0202501N001510300019N0300001N1+01261+00271999999ADDGA1041+012009089GA2061+030009039GF106991041021012501051001MA1999999083401MD1410001+9999ME1315069REMSYN088AAXX  21154 17205 42680 62503 10126 20027 38340 48506 54000 84250 333 84840 86360 92418;
0204172050999992000102118004+38480+042300FM-12+166599999V0202501N001012200019N0300001N1+01101+00341999999ADDAA199000021GA1031+012009089GF103991031021012501001001KA1120M+01501MA1999999083501MD1210101+9999ME1315169REMSYN088AAXX  21184 17205 32680 32502 10110 20034 38350 48516 52010 83200 333 10150 83840 92418;
0174172050999992000102121004+38480+042300FM-12+166599999V0202701N001012200019N0300001N1+00941+00331999999ADDGA1031+012009089GF103991031021012501001001MA1999999083501MD1410001+9999ME1315179REMSYN082AAXX  21214 17205 42680 32702 10094 20033 38350 48517 54000 83200 333 83840 92418;
0192172050999992000102200004+38480+042300FM-12+166599999V0209999C000012200019N0300001N1+00721+00201999999ADDAA199000091GA1001+999999999GF100991001001999999001001MA1999999083501MD1410001+9999ME1315189REMSYN070AAXX  22004 17205 32980 00000 10072 20020 38350 48518 54000 333 10159;EQDQ01  00002PRCP99
0162172050999992000102203004+38480+042300FM-12+166599999V0209999C000012200019N0300001N1+00541+00301999999ADDGA1001+999999999GF100991001001999999001001MA1999999083501MD1410001+9999ME1315199REMSYN070AAXX  22034 17205 42980 00000 10054 20030 38350 48519 54000 333 10166;
0259172050999992000102206004+38480+042300FM-12+166599999V0209999C000012200019N0300001N1+00861+00361999999ADDAA199000091GA1021+012009089GF102991021011012501001001IA1019IA2999+00309KA1120N+00401MA1999999083501MD1410001+9999ME1315189REMSYN106AAXX  22064 17205 32680 20000 10086 20036 38350 48518 54000 82100 333 20040 30003 50161 55015 82840 92418;EQDQ01  00002PRCP99
0196172050999992000102209004+38480+042300FM-12+166599999V0200701N001510300019N0300001N1+01401+00151999999ADDGA1041+012009089GA2061+030009039GF106991041021012501051001MA1999999083501MD1410001+9999ME1315159REMSYN088AAXX  22094 17205 42680 60703 10140 20015 38350 48515 54000 84250 333 84840 86360 92418;
0196172050999992000102215004+38480+042300FM-12+166599999V0202001N001510300019N0300001N1+01321-00171999999ADDGA1041+012009089GA2061+030009039GF106991041021012501051001MA1999999083301MD1410001+9999ME1314859REMSYN088AAXX  22154 17205 42680 62003 10132 21017 38330 48485 54000 84250 333 84840 86360 92418;
0245172050999992000102218004+38480+042300FM-12+166599999V0200701N001510300019N0300001N1+00921+00511999999ADDAA199000091GA1041+012009089GA2061+030009039GF106991041021012501051001KA1120M+01641MA1999999083301MD1410001+9999ME1314979REMSYN094AAXX  22184 17205 32680 60703 10092 20051 38330 48497 54000 84250 333 10164 84840 86360 92418;EQDQ01  00002PRCP99
0224172050999992000102221004+38480+042300FM-12+166599999V0202701N001510300019N0200001N1+00801+00621999999ADDAY181031AY221031GA1041+012009089GA2061+030009039GF106991041021012501051001MA1999999083301MD1410001+9999ME1314989MW1251REMSYN094AAXX  22214 17205 41670 62703 10080 20062 38330 48498 54000 72582 84250 333 84840 86360 92417;
0241172050999992000102300004+38480+042300FM-12+166599999V0202701N001510240019N0200001N1+00801+00421999999ADDAA106005191AY181061AY221061GA1041+012009089GA2061+024009039GF106991041021012501051001MA1999999083201MD1710101+9999ME1314899MW1801REMSYN100AAXX  23004 17205 11670 62703 10080 20042 38320 48489 57010 60051 78082 84250 333 84840 86358 92417;
0246172050999992000102303004+38480+042300FM-12+166599999V0202501N003110105019N0150001N1+00421+00211999999ADDAY191031AY281031GA1031+007509099GA2051+010509089GA3081+024009049GF108991061091008001021999MA1999999083301MD1210101+9999ME1315019MW1951REMSYN100AAXX  23034 17205 41565 82506 10042 20021 38330 48501 52010 79598 8692/ 333 83925 85835 88458 92427;
0302172050999992000102306004+38480+042300FM-12+166599999V0202701N001510300019N0200001N1+00541+00461999999ADDAA112015091AY191061AY281061GA1041+012009089GA2061+030009039GF106991041021012501051001IA1119IA2999+00309KA1120N+00341MA1999999083301MD1410001+9999ME1315009MW1011REMSYN130AAXX  23064 17205 11670 62703 10054 20046 38330 48500 54000 60152 70198 84250 333 20034 32003 50101 55018 70148 84840 86360 92417;
0196172050999992000102309004+38480+042300FM-12+166599999V0202701N001010300019N0200001N1+00841+00581999999ADDGA1041+012009089GA2061+030009039GF106991041021012501051001MA1999999083301MD1410001+9999ME1314989REMSYN088AAXX  23094 17205 42670 62702 10084 20058 38330 48498 54000 84250 333 84840 86360 92417;
0241172050999992000102312004+38480+042300FM-12+166599999V0202001N001510300019N0200001N1+01041+00181999999ADDAA106000191AY181061AY221061GA1041+012009089GA2061+030009039GF106991041021012501051001MA1999999083301MD1410001+9999ME1314979MW1021REMSYN100AAXX  23124 17205 11670 62003 10104 20018 38330 48497 54000 69921 70282 84250 333 84840 86360 92417;
0196172050999992000102315004+38480+042300FM-12+166599999V0209999C000010300019N0300001N1+00801+00201999999ADDGA1041+012009089GA2061+030009039GF106991041021012501051001MA1999999083301MD1410001+9999ME1314989REMSYN088AAXX  23154 17205 42680 60000 10080 20020 38330 48498 54000 84250 333 84840 86360 92417;
0232172050999992000102318004+38480+042300FM-12+166599999V0202701N001510300019N0200001N1+00721+00201999999ADDAA112000191GA1041+012009089GA2061+030009039GF106991041021012501051001KA1120M+01141MA1999999083301MD1410001+9999ME1314989REMSYN100AAXX  23184 17205 12670 62703 10072 20020 38330 48498 54000 69922 84250 333 10114 84840 86360 92417;
0196172050999992000102321004+38480+042300FM-12+166599999V0209999C000010300019N0200001N1+00601+00201999999ADDGA1041+012009089GA2061+030009039GF106991041021012501051001MA1999999083301MD1410001+9999ME1315009REMSYN088AAXX  23214 17205 42670 60000 10060 20020 38330 48500 54000 84250 333 84840 86360 92417;
0192172050999992000102400004+38480+042300FM-12+166599999V0209999C000012200019N0300001N1+00501+00301999999ADDAA199000091GA1001+999999999GF100991001001999999001001MA1999999083301MD1410001+9999ME1315009REMSYN070AAXX  24004 17205 32980 00000 10050 20030 38330 48500 54000 333 10149;EQDQ01  00002PRCP99
0196172050999992000102403004+38480+042300FM-12+166599999V0209999C000010300019N0300001N1+00401+00241999999ADDGA1041+012009089GA2061+030009039GF106991041021012501051001MA1999999083201MD1610101+9999ME1314919REMSYN088AAXX  24034 17205 42680 60000 10040 20024 38320 48491 56010 84250 333 84840 86360 92418;
0280172050999992000102406004+38480+042300FM-12+166599999V0209999C000012200019N0300001N1+00701+00431999999ADDAA112000591AY181061AY221061GA1041+012009089GF104991041021012501001001IA1119IA2999+00209KA1120N+00301MA1999999083301MD1110101+9999ME1314989MW1251REMSYN124AAXX  24064 17205 11680 40000 10070 20043 38330 48498 51010 69952 72582 84200 333 20030 32002 50071 55004 70007 84840 92418;
0224172050999992000102409004+38480+042300FM-12+166599999V0209999C000010300019N0300001N1+00961+00301999999ADDAY181031AY221031GA1041+012009089GA2061+030009039GF106991041021012501051001MA1999999083301MD1410001+9999ME1314979MW1021REMSYN094AAXX  24094 17205 41680 60000 10096 20030 38330 48497 54000 70282 84250 333 84840 86360 92418;
0241172050999992000102412004+38480+042300FM-12+166599999V0202501N001010300019N0300001N1+00961+00171999999ADDAA106000891AY181061AY221061GA1041+012009089GA2061+030009039GF106991041021012501051001MA1999999083201MD1810101+9999ME1314879MW1021REMSYN100AAXX  24124 17205 11680 62502 10096 20017 38320 48487 58010 69971 70282 84250 333 84840 86360 92418;
0196172050999992000102415004+38480+042300FM-12+166599999V0209999C000010300019N0300001N1+00801+00251999999ADDGA1041+012009089GA2061+030009039GF106991041021012501051001MA1999999083201MD1410001+9999ME1314899REMSYN088AAXX  24154 17205 42680 60000 10080 20025 38320 48489 54000 84250 333 84840 86360 92418;
0210172050999992000102418004+38480+042300FM-12+166599999V0202701N001012200019N0300001N1+00681+00151999999ADDAA112000891GA1041+012009089GF104991041021012501001001KA1120M+01101MA1999999083301MD1110101+9999ME1315009REMSYN094AAXX  24184 17205 12680 42702 10068 20015 38330 48500 51010 69972 84200 333 10110 84840 92418;
0192172050999992000102500004+38480+042300FM-12+166599999V0209999C000012200019N0300001N1+00501+00211999999ADDAA199000091GA1001+999999999GF100991001001999999001001MA1999999083301MD1410001+9999ME1315009REMSYN070AAXX  25004 17205 32980 00000 10050 20021 38330 48500 54000 333 10157;EQDQ01  00002PRCP99
0196172050999992000102503004+38480+042300FM-12+166599999V0209999C000010300019N0300001N1+00321+00221999999ADDGA1041+012009089GA2061+030009039GF106991041021012501051001MA1999999083301MD1410001+9999ME1315019REMSYN088AAXX  25034 17205 42680 60000 10032 20022 38330 48501 54000 84250 333 84840 86360 92418;
0234172050999992000102506004+38480+042300FM-12+166599999V0209999C000012200019N0300001N1+00541+00301999999ADDAA124001391GA1001+999999999GF100991001001999999001001IA1099IA2999+00109KA1120N+00201MA1999999083301MD1410001+9999ME1315009REMSYN100AAXX  25064 17205 32980 00000 10054 20030 38330 48500 54000 333 20020 31001 50061 55011 70012 92418;
0174172050999992000102509004+38480+042300FM-12+166599999V0200701N001512200019N0300001N1+01041+00271999999ADDGA1041+012009089GF104991041021012501001001MA1999999083301MD1410001+9999ME1314979REMSYN082AAXX  25094 17205 42680 40703 10104 20027 38330 48497 54000 84200 333 84840 92418;
0204172050999992000102512004+38480+042300FM-12+166599999V0202701N001512200019N0300001N1+01101+00111999999ADDAA199000091GA1041+012009089GF104991041021012501001001MA1999999083101MD1810201+9999ME1314799REMSYN082AAXX  25124 17205 32680 42703 10110 20011 38310 48479 58020 84200 333 84840 92418;EQDQ01  00002PRCP99
0224172050999992000102515004+38480+042300FM-12+166599999V0202501N001510240019N0200001N1+00741+00121999999ADDAY181031AY221031GA1041+012009089GA2061+024009039GF106991041021012501051001MA1999999083201MD1210101+9999ME1314899MW1801REMSYN094AAXX  25154 17205 41670 62503 10074 20012 38320 48489 52010 78082 84250 333 84840 86358 92417;
0162172050999992000102521004+38480+042300FM-12+166599999V0209999C000012200019N0300001N1+00401+00201999999ADDGA1001+999999999GF100991001001999999001001MA1999999083401MD1110101+9999ME1315119REMSYN070AAXX  25214 17205 42980 00000 10040 20020 38340 48511 51010 333 10164;
0185172050999992000102600004+38480+042300FM-12+166599999V0209999C000012200019N0300001N1+00401+00271999999ADDAA199000021GA1041+012009089GF104991041021012501001001MA1999999083401MD1410001+9999ME1315119REMSYN082AAXX  26004 17205 32680 40000 10040 20027 38340 48511 54000 84200 333 84840 92417;
0196172050999992000102603004+38480+042300FM-12+166599999V0202001N001510240019N0300001N1+00461-00041999999ADDGA1041+012009089GA2061+024009039GF106991041021012501051001MA1999999083401MD1410001+9999ME1315119REMSYN088AAXX  26034 17205 42680 62003 10046 21004 38340 48511 54000 84250 333 84840 86358 92417;
0268172050999992000102606004+38480+042300FM-12+166599999V0209999C000010300019N0300001N1+00501-00021999999ADDAA124001391GA1041+012009089GA2061+030009039GF106991041021012501051001IA1099IA2999+00209KA1120N+00261MA1999999083601MD1210201+9999ME1315299REMSYN118AAXX  26064 17205 32680 60000 10050 21002 38360 48529 52020 84250 333 20026 31002 50021 55014 70012 84840 86360 92418;
0196172050999992000102609004+38480+042300FM-12+166599999V0200701N001510300019N0300001N1+00861+00181999999ADDGA1041+012009089GA2061+030009039GF106991041021012501051001MA1999999083601MD1410001+9999ME1315289REMSYN088AAXX  26094 17205 42680 60703 10086 20018 38360 48528 54000 84250 333 84840 86360 92418;
0226172050999992000102612004+38480+042300FM-12+166599999V0200701N001510300019N0300001N1+00881+00161999999ADDAA199000091GA1041+012009089GA2061+030009039GF106991041021012501051001MA1999999083601MD1410001+9999ME1315289REMSYN088AAXX  26124 17205 32680 60703 10088 20016 38360 48528 54000 84250 333 84840 86360 92418;EQDQ01  00002PRCP99
0196172050999992000102615004+38480+042300FM-12+166599999V0209999C000010300019N0300001N1+00741+00131999999ADDGA1041+012009089GA2061+030009039GF106991041021012501051001MA1999999083601MD1410001+9999ME1315289REMSYN088AAXX  26154 17205 42680 60000 10074 20013 38360 48528 54000 84250 333 84840 86360 92418;
0211172050999992000102618004+38480+042300FM-12+166599999V0209999C000012200019N0300001N1+00401-00091999999ADDAA199000091GA1001+999999999GF100991001001999999001001KA1120M+00961MA1999999083741MD1210141+9999ME1315409REMSYN076AAXX  26184 17205 32980 00000 10040 21009 38374 48540 52014 333 10096 92418;EQDQ01  00002PRCP99
0162172050999992000102621004+38480+042300FM-12+166599999V0209999C000012200019N0300001N1+00301+00201999999ADDGA1001+999999999GF100991001001999999001001MA1999999083801MD1110061+9999ME1315509REMSYN070AAXX  26214 17205 42980 00000 10030 20020 38380 48550 51006 333 10225;
0192172050999992000102700004+38480+042300FM-12+166599999V0209999C000012200019N0300001N1+00301+00201999999ADDAA199000091GA1001+999999999GF100991001001999999001001MA1999999083801MD1410001+9999ME1315509REMSYN070AAXX  27004 17205 32980 00000 10030 20020 38380 48550 54000 333 10225;EQDQ01  00002PRCP99
0196172050999992000102703004+38480+042300FM-12+166599999V0209999C000010300019N0300001N1+00401+00151999999ADDGA1041+012009089GA2061+030009039GF106991041021012501051001MA1999999083801MD1410001+9999ME1315509REMSYN088AAXX  27034 17205 42680 60000 10040 20015 38380 48550 54000 84250 333 84840 86360 92418;
0302172050999992000102706004+38480+042300FM-12+166599999V0209999C000010300019N0300001N1+00541+00461999999ADDAA112000191AY181061AY221061GA1041+012009089GA2061+030009039GF106991041021012501051001IA1019IA2999+00009KA1120N+00101MA1999999083801MD1410001+9999ME1315499MW1251REMSYN130AAXX  27064 17205 11680 60000 10054 20046 38380 48549 54000 69922 72582 84250 333 20010 30000 50121 55014 70002 84840 86360 92418;
0174172050999992000102709004+38480+042300FM-12+166599999V0200701N001512200019N0300001N1+01001+00011999999ADDGA1021+012009089GF102991021011012501001001MA1999999083801MD1410001+9999ME1315479REMSYN082AAXX  27094 17205 42680 20703 10100 20001 38380 48547 54000 82100 333 82840 92418;
0185172050999992000102712004+38480+042300FM-12+166599999V0200701N001012200019N0300001N1+01061+00001999999ADDAA199000021GA1031+012009089GF103991031021012501001001MA1999999083701MD1710101+9999ME1315379REMSYN082AAXX  27124 17205 32680 30702 10106 20000 38370 48537 57010 83200 333 83840 92418;
0174172050999992000102715004+38480+042300FM-12+166599999V0209999C000012200019N0300001N1+00801+00011999999ADDGA1041+012009089GF104991041021012501001001MA1999999083701MD1410001+9999ME1315389REMSYN082AAXX  27154 17205 42680 40000 10080 20001 38370 48538 54000 84200 333 84840 92418;
0192172050999992000102718004+38480+042300FM-12+166599999V0209999C000012200019N0300001N1+00561+00011999999ADDAA199000021GA1001+999999999GF100991001001999999001001KA1120M+01161MA1999999083741MD1110041+9999ME1315399REMSYN076AAXX  27184 17205 32980 00000 10056 20001 38374 48539 51004 333 10116 92418;
0162172050999992000102721004+38480+042300FM-12+166599999V0209999C000012200019N0300001N1+00501-00021999999ADDGA1001+999999999GF100991001001999999001001MA1999999083801MD1210061+9999ME1315499REMSYN070AAXX  27214 17205 42980 00000 10050 21002 38380 48549 52006 333 10210;
0192172050999992000102800004+38480+042300FM-12+166599999V0209999C000012200019N0300001N1+00421+00041999999ADDAA199000091GA1001+999999999GF100991001001999999001001MA1999999083801MD1410001+9999ME1315509REMSYN070AAXX  28004 17205 32980 00000 10042 20004 38380 48550 54000 333 10218;EQDQ01  00002PRCP99
0162172050999992000102803004+38480+042300FM-12+166599999V0209999C000012200019N0300001N1+00401+00131999999ADDGA1001+999999999GF100991001001999999001001MA1999999083701MD1810101+9999ME1315409REMSYN070AAXX  28034 17205 42980 00000 10040 20013 38370 48540 58010 333 10213;
0259172050999992000102806004+38480+042300FM-12+166599999V0209999C000012200019N0300001N1+00601-00041999999ADDAA199000091GA1041+012009089GF104991041021012501001001IA1019IA2999+00109KA1120N+00261MA1999999083801MD1110101+9999ME1315499REMSYN106AAXX  28064 17205 32680 40000 10060 21004 38380 48549 51010 84200 333 20026 30001 50081 55019 84840 92418;EQDQ01  00002PRCP99
0196172050999992000102809004+38480+042300FM-12+166599999V0200701N001010300019N0300001N1+00881+00071999999ADDGA1041+012009089GA2061+030009039GF106991041021012501051001MA1999999083801MD1410001+9999ME1315489REMSYN088AAXX  28094 17205 42680 60702 10088 20007 38380 48548 54000 84250 333 84840 86360 92418;
0226172050999992000102812004+38480+042300FM-12+166599999V0200701N001010300019N0300001N1+00901-00041999999ADDAA199000091GA1041+012009089GA2061+030009039GF106991041021012501051001MA1999999083801MD1410001+9999ME1315489REMSYN088AAXX  28124 17205 32680 60702 10090 21004 38380 48548 54000 84250 333 84840 86360 92418;EQDQ01  00002PRCP99
0174172050999992000102815004+38480+042300FM-12+166599999V0209999C000012200019N0300001N1+00721+00051999999ADDGA1041+012009089GF104991041021012501001001MA1999999083801MD1410001+9999ME1315489REMSYN082AAXX  28154 17205 42680 40000 10072 20005 38380 48548 54000 84200 333 84840 92418;
0211172050999992000102818004+38480+042300FM-12+166599999V0209999C000012200019N0300001N1+00661-00121999999ADDAA199000091GA1001+999999999GF100991001001999999001001KA1120M+01041MA1999999083801MD1410001+9999ME1315499REMSYN076AAXX  28184 17205 32980 00000 10066 21012 38380 48549 54000 333 10104 92418;EQDQ01  00002PRCP99
0162172050999992000102821004+38480+042300FM-12+166599999V0209999C000012200019N0300001N1+00561-00101999999ADDGA1001+999999999GF100991001001999999001001MA1999999083901MD1110101+9999ME1315599REMSYN070AAXX  28214 17205 42980 00000 10056 21010 38390 48559 51010 333 10230;
0192172050999992000102900004+38480+042300FM-12+166599999V0209999C000012200019N0300001N1+00301+00081999999ADDAA199000091GA1001+999999999GF100991001001999999001001MA1999999083901MD1410001+9999ME1315599REMSYN070AAXX  29004 17205 32980 00000 10030 20008 38390 48559 54000 333 10237;EQDQ01  00002PRCP99
0162172050999992000102903004+38480+042300FM-12+166599999V0209999C000012200019N0300001N1+00261-00031999999ADDGA1001+999999999GF100991001001999999001001MA1999999083901MD1410001+9999ME1315609REMSYN070AAXX  29034 17205 42980 00000 10026 21003 38390 48560 54000 333 10245;
0259172050999992000102906004+38480+042300FM-12+166599999V0209999C000012200019N0300001N1+00501-00021999999ADDAA199000091GA1031+012009089GF103991031021012501001001IA1019IA2999+00009KA1120N+00201MA1999999083901MD1410001+9999ME1315689REMSYN106AAXX  29064 17205 32680 30000 10050 21002 38390 48568 54000 83200 333 20020 30000 50081 55008 83840 92418;EQDQ01  00002PRCP99
0196172050999992000102909004+38480+042300FM-12+166599999V0202701N001510300019N0300001N1+01001-00271999999ADDGA1041+012009089GA2061+030009039GF106991041021012501051001MA1999999083901MD1410001+9999ME1315579REMSYN088AAXX  29094 17205 42680 62703 10100 21027 38390 48557 54000 84250 333 84840 86360 92418;
0226172050999992000102912004+38480+042300FM-12+166599999V0202501N001510300019N0300001N1+01141-00321999999ADDAA199000091GA1041+012009089GA2061+030009039GF106991041021012501051001MA1999999083801MD1610101+9999ME1315469REMSYN088AAXX  29124 17205 32680 62503 10114 21032 38380 48546 56010 84250 333 84840 86360 92418;EQDQ01  00002PRCP99
0174172050999992000102915004+38480+042300FM-12+166599999V0202701N001512200019N0300001N1+00921-00471999999ADDGA1031+012009089GF103991031021012501001001MA1999999083801MD1410001+9999ME1315479REMSYN082AAXX  29154 17205 42680 32703 10092 21047 38380 48547 54000 83200 333 83840 92418;
0223172050999992000102918004+38480+042300FM-12+166599999V0209999C000012200019N0300001N1+00761-00271999999ADDAA199000091GA1031+012009089GF103991031021012501001001KA1120M+01241MA1999999083801MD1410001+9999ME1315489REMSYN088AAXX  29184 17205 32680 30000 10076 21027 38380 48548 54000 83200 333 10124 83840 92418;EQDQ01  00002PRCP99
0162172050999992000102921004+38480+042300FM-12+166599999V0209999C000012200019N0300001N1+00661-00121999999ADDGA1001+999999999GF100991001001999999001001MA1999999083801MD1410001+9999ME1315499REMSYN070AAXX  29214 17205 42980 00000 10066 21012 38380 48549 54000 333 10210;
0204172050999992000103000004+38480+042300FM-12+166599999V0209999C000012200019N0300001N1+00601+00191999999ADDAA199000091GA1031+012009089GF103991031021012501001001MA1999999083901MD1110101+9999ME1315599REMSYN082AAXX  30004 17205 32680 30000 10060 20019 38390 48559 51010 83200 333 83840 92418;EQDQ01  00002PRCP99
0174172050999992000103003004+38480+042300FM-12+166599999V0209999C000012200019N0300001N1+00421+00041999999ADDGA1031+012009089GF103991031021012501001001MA1999999083901MD1410001+9999ME1315599REMSYN082AAXX  30034 17205 42680 30000 10042 20004 38390 48559 54000 83200 333 83840 92418;
0259172050999992000103006004+38480+042300FM-12+166599999V0209999C000012200019N0300001N1+00621+00131999999ADDAA199000091GA1031+012009089GF103991031021012501001001IA1019IA2999+00209KA1120N+00301MA1999999083901MD1410001+9999ME1315599REMSYN106AAXX  30064 17205 32680 30000 10062 20013 38390 48559 54000 83200 333 20030 30002 50121 55017 83840 92418;EQDQ01  00002PRCP99
0174172050999992000103009004+38480+042300FM-12+166599999V0200701N001012200019N0300001N1+01141+00301999999ADDGA1031+012009089GF103991031021012501001001MA1999999083841MD1210061+9999ME1315469REMSYN082AAXX  30094 17205 42680 30702 10114 20030 38384 48546 52006 83200 333 83840 92418;
0226172050999992000103012004+38480+042300FM-12+166599999V0200701N001010300019N0300001N1+01141+00301999999ADDAA199000091GA1041+012009089GA2061+030009039GF106991041021012501051001MA1999999083741MD1710101+9999ME1315379REMSYN088AAXX  30124 17205 32680 60702 10114 20030 38374 48537 57010 84250 333 84840 86360 92418;EQDQ01  00002PRCP99
0174172050999992000103015004+38480+042300FM-12+166599999V0202701N001512200019N0300001N1+00861+00231999999ADDGA1021+012009089GF102991021011012501001001MA1999999083701MD1610041+9999ME1315389REMSYN082AAXX  30154 17205 42680 22703 10086 20023 38370 48538 56004 82100 333 82840 92418;
0223172050999992000103018004+38480+042300FM-12+166599999V0209999C000012200019N0300001N1+00781+00221999999ADDAA199000091GA1021+012009089GF102991021011012501001001KA1120M+01261MA1999999083761MD1110061+9999ME1315489REMSYN088AAXX  30184 17205 32680 20000 10078 20022 38376 48548 51006 82100 333 10126 82840 92418;EQDQ01  00002PRCP99
0174172050999992000103021004+38480+042300FM-12+166599999V0209999C000012200019N0300001N1+00701+00221999999ADDGA1041+012009089GF104991041021012501001001MA1999999083701MD1610061+9999ME1315389REMSYN082AAXX  30214 17205 42680 40000 10070 20022 38370 48538 56006 84200 333 84840 92418;
0204172050999992000103100004+38480+042300FM-12+166599999V0202001N001012200019N0300001N1+00641+00151999999ADDAA199000091GA1041+012009089GF104991041021012501001001MA1999999083701MD1410001+9999ME1315399REMSYN082AAXX  31004 17205 32680 42002 10064 20015 38370 48539 54000 84200 333 84840 92418;EQDQ01  00002PRCP99
0224172050999992000103103004+38480+042300FM-12+166599999V0202001N001010300019N0200001N1+00501+00321999999ADDAY181031AY221031GA1041+012009089GA2061+030009039GF106991041021012501051001MA1999999083701MD1410001+9999ME1315399MW1251REMSYN094AAXX  31034 17205 41670 62002 10050 20032 38370 48539 54000 72582 84250 333 84840 86360 92418;
0302172050999992000103106004+38480+042300FM-12+166599999V0202001N001510090019N0100001N1+00601+00081999999ADDAA112002091AY181061AY221061GA1051+009009069GA2081+024009049GF108991051041008001021999IA1119IA2999+00209KA1120N+00301MA1999999083701MD1410001+9999ME1315399MW1021REMSYN130AAXX  31064 17205 11560 82003 10060 20008 38370 48539 54000 60022 70282 8542/ 333 20030 32002 50021 55018 70018 85630 88458 92416;
0224172050999992000103109004+38480+042300FM-12+166599999V0209999C000010105019N0200001N1+00701+00081999999ADDAY161031AY221031GA1051+010509069GA2071+027009039GF107991051051012501071001MA1999999083701MD1410001+9999ME1315399MW1211REMSYN094AAXX  31094 17205 41670 70000 10070 20008 38370 48539 54000 72162 85570 333 85635 87359 92417;
0241172050999992000103112004+38480+042300FM-12+166599999V0200401N001010300019N0300001N1+00901+00131999999ADDAA106000591AY161061AY221061GA1041+012009069GA2061+030009039GF106991041051012501051001MA1999999083501MD1810201+9999ME1315189MW1011REMSYN100AAXX  31124 17205 11680 60402 10090 20013 38350 48518 58020 69961 70162 84550 333 84640 86360 92418;
0196172050999992000103115004+38480+042300FM-12+166599999V0209999C000010270019N0300001N1+00761+00241999999ADDGA1041+012009069GA2061+027009039GF106991041051012501051001MA1999999083501MD1410001+9999ME1315189REMSYN088AAXX  31154 17205 42680 60000 10076 20024 38350 48518 54000 84550 333 84640 86359 92418;
0198172050999992000103118004+38480+042300FM-12+166599999V0209999C000012200019N0300001N1+00601+00371999999ADDAA112000591GA1001+999999999GF100991001001999999001001KA1120M+01001MA1999999083501MD1410001+9999ME1315199REMSYN082AAXX  31184 17205 12980 00000 10060 20037 38350 48519 54000 69962 333 10100 92418;
0202172050999992000103121004+38480+042300FM-12+166599999V0209999C000012200019N0200001N1+00501+00301999999ADDAY181031AY201031GA1041+012009089GF104991041021012501001001MA1999999083601MD1110101+9999ME1315299MW1251REMSYN088AAXX  31214 17205 41670 40000 10050 20030 38360 48529 51010 72580 84200 333 84840 92417;
0241172050999992000110100004+38480+042300FM-12+166599999V0209999C000010270019N0150001N1+00501+00401999999ADDAA106003091AY181061AY221061GA1041+012009089GA2061+027009039GF106991041021012501051001MA1999999083501MD1610101+9999ME1315199MW1801REMSYN100AAXX  01004 17205 11665 60000 10050 20040 38350 48519 56010 60031 78082 84250 333 84840 86359 92417;
0224172050999992000110103004+38480+042300FM-12+166599999V0209999C000010270019N0150001N1+00661+00201999999ADDAY181031AY221031GA1041+012009089GA2061+027009039GF106991041021012501051001MA1999999083501MD1410001+9999ME1315199MW1021REMSYN094AAXX  01034 17205 41665 60000 10066 20020 38350 48519 54000 70282 84250 333 84840 86359 92417;
0302172050999992000110106004+38480+042300FM-12+166599999V0200701N001510270019N0200001N1+00841+00151999999ADDAA112003091AY181061AY221061GA1041+012009089GA2061+027009039GF106991041021012501051001IA1119IA2999+00209KA1120N+00321MA1999999083601MD1110101+9999ME1315289MW1021REMSYN130AAXX  01064 17205 11670 60703 10084 20015 38360 48528 51010 60032 70282 84250 333 20032 32002 50061 55002 70034 84840 86359 92417;
0196172050999992000110109004+38480+042300FM-12+166599999V0200701N003110300019N0300001N1+01021+00071999999ADDGA1041+012009089GA2061+030009039GF106991041021012501051001MA1999999083601MD1410001+9999ME1315279REMSYN088AAXX  01094 17205 42680 60706 10102 20007 38360 48527 54000 84250 333 84840 86360 92428;
0207172050999992000110112004+38480+042300FM-12+166599999V0200701N003110270019N0300001N1+01101+00101999999ADDAA199000021GA1041+012009089GA2061+027009039GF106991041021012501051001MA1999999083501MD1610101+9999ME1315169REMSYN088AAXX  01124 17205 32680 60706 10110 20010 38350 48516 56010 84250 333 84840 86359 92418;
0196172050999992000110115004+38480+042300FM-12+166599999V0200701N003110300019N0300001N1+01061+00051999999ADDGA1041+012009089GA2061+030009039GF106991041021012501051001MA1999999083501MD1410001+9999ME1315169REMSYN088AAXX  01154 17205 42680 60706 10106 20005 38350 48516 54000 84250 333 84840 86360 92428;
0245172050999992000110118004+38480+042300FM-12+166599999V0200701N003110300019N0300001N1+01021+00071999999ADDAA199000091GA1041+012009089GA2061+030009039GF106991041021012501051001KA1120M+01221MA1999999083601MD1210101+9999ME1315279REMSYN094AAXX  01184 17205 32680 60706 10102 20007 38360 48527 52010 84250 333 10122 84840 86360 92428;EQDQ01  00002PRCP99
0174172050999992000110121004+38480+042300FM-12+166599999V0203601N001012200019N0300001N1+00961+00091999999ADDGA1041+012009089GF104991041021012501001001MA1999999083601MD1410001+9999ME1315279REMSYN082AAXX  01214 17205 42680 43602 10096 20009 38360 48527 54000 84200 333 84840 92418;
0226172050999992000110200004+38480+042300FM-12+166599999V0209999C000010300019N0300001N1+00761+00011999999ADDAA199000091GA1041+012009089GA2061+030009039GF106991041021012501051001MA1999999083601MD1410001+9999ME1315289REMSYN088AAXX  02004 17205 32680 60000 10076 20001 38360 48528 54000 84250 333 84840 86360 92418;EQDQ01  00002PRCP99
0196172050999992000110203004+38480+042300FM-12+166599999V0209999C000010300019N0300001N1+00761+00011999999ADDGA1041+012009089GA2061+030009039GF106991041021012501051001MA1999999083601MD1410001+9999ME1315289REMSYN088AAXX  02034 17205 42680 60000 10076 20001 38360 48528 54000 84250 333 84840 86360 92418;
0281172050999992000110206004+38480+042300FM-12+166599999V0209999C000010300019N0300001N1+00701+00121999999ADDAA199000091GA1041+012009089GA2061+030009039GF106991041021012501051001IA1019IA2999+00409KA1120N+00501MA1999999083601MD1410001+9999ME1315289REMSYN112AAXX  02064 17205 32680 60000 10070 20012 38360 48528 54000 84250 333 20050 30004 50201 55011 84840 86360 92418;EQDQ01  00002PRCP99
0174172050999992000110209004+38480+042300FM-12+166599999V0200201N001512200019N0300001N1+01021+00191999999ADDGA1041+012009089GF104991041021012501001001MA1999999083561MD1610041+9999ME1315279REMSYN082AAXX  02094 17205 42680 40203 10102 20019 38356 48527 56004 84200 333 84840 92418;
0204172050999992000110212004+38480+042300FM-12+166599999V0200701N001012200019N0300001N1+01101+00111999999ADDAA199000091GA1041+012009089GF104991041021012501001001MA1999999083501MD1710061+9999ME1315169REMSYN082AAXX  02124 17205 32680 40702 10110 20011 38350 48516 57006 84200 333 84840 92418;EQDQ01  00002PRCP99
0174172050999992000110215004+38480+042300FM-12+166599999V0209999C000012200019N0300001N1+00861+00041999999ADDGA1041+012009089GF104991041021012501001001MA1999999083501MD1410001+9999ME1315189REMSYN082AAXX  02154 17205 42680 40000 10086 20004 38350 48518 54000 84200 333 84840 92418;
0211172050999992000110218004+38480+042300FM-12+166599999V0209999C000012200019N0300001N1+00541-00011999999ADDAA199000091GA1001+999999999GF100991001001999999001001KA1120M+01201MA1999999083501MD1410001+9999ME1315199REMSYN076AAXX  02184 17205 32980 00000 10054 21001 38350 48519 54000 333 10120 92418;EQDQ01  00002PRCP99
0162172050999992000110221004+38480+042300FM-12+166599999V0209999C000012200019N0300001N1+00341+00041999999ADDGA1001+999999999GF100991001001999999001001MA1999999083561MD1110061+9999ME1315309REMSYN070AAXX  02214 17205 42980 00000 10034 20004 38356 48530 51006 333 10188;
0192172050999992000110300004+38480+042300FM-12+166599999V0209999C000012200019N0300001N1+00221+00051999999ADDAA199000091GA1001+999999999GF100991001001999999001001MA1999999083601MD1110041+9999ME1315319REMSYN070AAXX  03004 17205 32980 00000 10022 20005 38360 48531 51004 333 10193;EQDQ01  00002PRCP99
0162172050999992000110303004+38480+042300FM-12+166599999V0209999C000012200019N0300001N1+00181+00051999999ADDGA1001+999999999GF100991001001999999001001MA1999999083601MD1410001+9999ME1315319REMSYN070AAXX  03034 17205 42980 00000 10018 20005 38360 48531 54000 333 10208;
0247172050999992000110306004+38480+042300FM-12+166599999V0209999C000012200019N0300001N1+00301+00211999999ADDAA199000091GA1001+999999999GF100991001001999999001001IA1019IA2999+00009KA1120N+00101MA1999999083701MD1310101+9999ME1315409REMSYN094AAXX  03064 17205 32980 00000 10030 20021 38370 48540 53010 333 20010 30000 50081 55015 92418;EQDQ01  00002PRCP99
0174172050999992000110309004+38480+042300FM-12+166599999V0200701N001512200019N0300001N1+01041+00071999999ADDGA1021+012009089GF102991021011012501001001MA1999999083701MD1410001+9999ME1315379REMSYN082AAXX  03094 17205 42680 20703 10104 20007 38370 48537 54000 82100 333 82840 92418;
0204172050999992000110312004+38480+042300FM-12+166599999V0200701N001512200019N0300001N1+01181+00141999999ADDAA199000091GA1041+012009089GF104991041021012501001001MA1999999083701MD1410001+9999ME1315379REMSYN082AAXX  03124 17205 32680 40703 10118 20014 38370 48537 54000 84200 333 84840 92418;EQDQ01  00002PRCP99
0174172050999992000110315004+38480+042300FM-12+166599999V0209999C000012200019N0300001N1+00801+00071999999ADDGA1041+012009089GF104991041021012501001001MA1999999083701MD1410001+9999ME1315389REMSYN082AAXX  03154 17205 42680 40000 10080 20007 38370 48538 54000 84200 333 84840 92418;
0211172050999992000110318004+38480+042300FM-12+166599999V0209999C000012200019N0300001N1+00501+00201999999ADDAA199000091GA1001+999999999GF100991001001999999001001KA1120M+01221MA1999999083801MD1210101+9999ME1315499REMSYN076AAXX  03184 17205 32980 00000 10050 20020 38380 48549 52010 333 10122 92418;EQDQ01  00002PRCP99
0162172050999992000110321004+38480+042300FM-12+166599999V0209999C000012200019N0300001N1+00301+00071999999ADDGA1001+999999999GF100991001001999999001001MA1999999083901MD1110101+9999ME1315599REMSYN070AAXX  03214 17205 42980 00000 10030 20007 38390 48559 51010 333 10230;
0192172050999992000110400004+38480+042300FM-12+166599999V0209999C000012200019N0300001N1+00241+00151999999ADDAA199000091GA1001+999999999GF100991001001999999001001MA1999999083901MD1410001+9999ME1315609REMSYN070AAXX  04004 17205 32980 00000 10024 20015 38390 48560 54000 333 10230;EQDQ01  00002PRCP99
0162172050999992000110403004+38480+042300FM-12+166599999V0209999C000012200019N0300001N1+00141+00051999999ADDGA1001+999999999GF100991001001999999001001MA1999999083901MD1410001+9999ME1315609REMSYN070AAXX  04034 17205 42980 00000 10014 20005 38390 48560 54000 333 10245;
0247172050999992000110406004+38480+042300FM-12+166599999V0209999C000012200019N0300001N1+00301+00211999999ADDAA199000091GA1001+999999999GF100991001001999999001001IA1019IA2999+00009KA1120N+00101MA1999999084001MD1210101+9999ME1315699REMSYN094AAXX  04064 17205 32980 00000 10030 20021 38400 48569 52010 333 20010 30000 50081 55017 92418;EQDQ01  00002PRCP99
0174172050999992000110409004+38480+042300FM-12+166599999V0200701N001512200019N0300001N1+01041+00171999999ADDGA1031+012009089GF103991031011012501001001MA1999999084001MD1410001+9999ME1315679REMSYN082AAXX  04094 17205 42680 30703 10104 20017 38400 48567 54000 83100 333 83840 92418;
0204172050999992000110412004+38480+042300FM-12+166599999V0200701N001512200019N0300001N1+01101+00051999999ADDAA199000091GA1021+012009089GF102991021011012501001001MA1999999083901MD1810101+9999ME1315569REMSYN082AAXX  04124 17205 32680 20703 10110 20005 38390 48556 58010 82100 333 82840 92418;EQDQ01  00002PRCP99
0174172050999992000110415004+38480+042300FM-12+166599999V0209999C000012200019N0300001N1+00801+00081999999ADDGA1021+012009089GF102991021011012501001001MA1999999083901MD1410001+9999ME1315589REMSYN082AAXX  04154 17205 42680 20000 10080 20008 38390 48558 54000 82100 333 82840 92418;
0211172050999992000110418004+38480+042300FM-12+166599999V0209999C000012200019N0300001N1+00501-00021999999ADDAA199000091GA1001+999999999GF100991001001999999001001KA1120M+01201MA1999999083901MD1410001+9999ME1315599REMSYN076AAXX  04184 17205 32980 00000 10050 21002 38390 48559 54000 333 10120 92418;EQDQ01  00002PRCP99
0162172050999992000110421004+38480+042300FM-12+166599999V0209999C000012200019N0300001N1+00301+00071999999ADDGA1001+999999999GF100991001001999999001001MA1999999084001MD1210101+9999ME1315699REMSYN070AAXX  04214 17205 42980 00000 10030 20007 38400 48569 52010 333 10242;
0192172050999992000110500004+38480+042300FM-12+166599999V0209999C000012200019N0300001N1+00241+00151999999ADDAA199000091GA1001+999999999GF100991001001999999001001MA1999999083901MD1610101+9999ME1315599REMSYN070AAXX  05004 17205 32980 00000 10024 20015 38390 48559 56010 333 10230;EQDQ01  00002PRCP99
0162172050999992000110503004+38480+042300FM-12+166599999V0209999C000012200019N0300001N1+00201-00021999999ADDGA1001+999999999GF100991001001999999001001MA1999999083901MD1410001+9999ME1315599REMSYN070AAXX  05034 17205 42980 00000 10020 21002 38390 48559 54000 333 10245;
0247172050999992000110506004+38480+042300FM-12+166599999V0209999C000012200019N0300001N1+00341+00171999999ADDAA199000091GA1001+999999999GF100991001001999999001001IA1019IA2999+00009KA1120N+00141MA1999999083901MD1410001+9999ME1315599REMSYN094AAXX  05064 17205 32980 00000 10034 20017 38390 48559 54000 333 20014 30000 50081 55014 92418;EQDQ01  00002PRCP99
0174172050999992000110509004+38480+042300FM-12+166599999V0200701N001012200019N0300001N1+01041+00241999999ADDGA1021+012009089GF102991021011012501001001MA1999999083801MD1810101+9999ME1315479REMSYN082AAXX  05094 17205 42680 20702 10104 20024 38380 48547 58010 82100 333 82840 92418;
0204172050999992000110512004+38480+042300FM-12+166599999V0200701N001012200019N0300001N1+01101-00061999999ADDAA199000091GA1021+012009089GF102991021011012501001001MA1999999083701MD1710101+9999ME1315369REMSYN082AAXX  05124 17205 32680 20702 10110 21006 38370 48536 57010 82100 333 82840 92418;EQDQ01  00002PRCP99
0162172050999992000110515004+38480+042300FM-12+166599999V0209999C000012200019N0300001N1+00761+00011999999ADDGA1001+999999999GF100991001001999999001001MA1999999083701MD1410001+9999ME1315389REMSYN070AAXX  05154 17205 42980 00000 10076 20001 38370 48538 54000 333 10220;
0211172050999992000110518004+38480+042300FM-12+166599999V0209999C000012200019N0300001N1+00661-00421999999ADDAA199000091GA1001+999999999GF100991001001999999001001KA1120M+01201MA1999999083701MD1410001+9999ME1315399REMSYN076AAXX  05184 17205 32980 00000 10066 21042 38370 48539 54000 333 10120 92418;EQDQ01  00002PRCP99
0162172050999992000110521004+38480+042300FM-12+166599999V0209999C000012200019N0300001N1+00521-00311999999ADDGA1001+999999999GF100991001001999999001001MA1999999083701MD1410001+9999ME1315399REMSYN070AAXX  05214 17205 42980 00000 10052 21031 38370 48539 54000 333 10198;
0204172050999992000110600004+38480+042300FM-12+166599999V0209999C000012200019N0300001N1+00521-00311999999ADDAA199000091GA1041+012009089GF104991041021012501001001MA1999999083701MD1410001+9999ME1315399REMSYN082AAXX  06004 17205 32680 40000 10052 21031 38370 48539 54000 84200 333 84840 92418;EQDQ01  00002PRCP99
0162172050999992000110603004+38480+042300FM-12+166599999V0209999C000012200019N0300001N1+00421-00281999999ADDGA1001+999999999GF100991001001999999001001MA1999999083701MD1410001+9999ME1315409REMSYN070AAXX  06034 17205 42980 00000 10042 21028 38370 48540 54000 333 10213;
0247172050999992000110606004+38480+042300FM-12+166599999V0209999C000012200019N0300001N1+00661-00241999999ADDAA199000091GA1001+999999999GF100991001001999999001001IA1019IA2999+00109KA1120N+00301MA1999999083701MD1410001+9999ME1315389REMSYN094AAXX  06064 17205 32980 00000 10066 21024 38370 48538 54000 333 20030 30001 50081 55016 92418;EQDQ01  00002PRCP99
0162172050999992000110609004+38480+042300FM-12+166599999V0200701N002612200019N0300001N1+00981-00161999999ADDGA1001+999999999GF100991001001999999001001MA1999999083701MD1410001+9999ME1315389REMSYN070AAXX  06094 17205 42980 00705 10098 21016 38370 48538 54000 333 10205;
0192172050999992000110612004+38480+042300FM-12+166599999V0200701N001512200019N0300001N1+01001-00491999999ADDAA199000091GA1001+999999999GF100991001001999999001001MA1999999083601MD1810101+9999ME1315279REMSYN070AAXX  06124 17205 32980 00703 10100 21049 38360 48527 58010 333 10186;EQDQ01  00002PRCP99
0162172050999992000110615004+38480+042300FM-12+166599999V0209999C000012200019N0300001N1+00761-00521999999ADDGA1001+999999999GF100991001001999999001001MA1999999083601MD1410001+9999ME1315289REMSYN070AAXX  06154 17205 42980 00000 10076 21052 38360 48528 54000 333 10201;
0211172050999992000110618004+38480+042300FM-12+166599999V0209999C000012200019N0300001N1+00321-00461999999ADDAA199000091GA1001+999999999GF100991001001999999001001KA1120M+01061MA1999999083601MD1410001+9999ME1315309REMSYN076AAXX  06184 17205 32980 00000 10032 21046 38360 48530 54000 333 10106 92418;EQDQ01  00002PRCP99
0162172050999992000110621004+38480+042300FM-12+166599999V0209999C000012200019N0300001N1+00201-00471999999ADDGA1001+999999999GF100991001001999999001001MA1999999083601MD1410001+9999ME1315319REMSYN070AAXX  06214 17205 42980 00000 10020 21047 38360 48531 54000 333 10201;
0192172050999992000110700004+38480+042300FM-12+166599999V0209999C000012200019N0300001N1+00361-00081999999ADDAA199000091GA1001+999999999GF100991001001999999001001MA1999999083501MD1610101+9999ME1315209REMSYN070AAXX  07004 17205 32980 00000 10036 21008 38350 48520 56010 333 10181;EQDQ01  00002PRCP99
0162172050999992000110703004+38480+042300FM-12+166599999V0209999C000012200019N0300001N1+00201-00271999999ADDGA1001+999999999GF100991001001999999001001MA1999999083501MD1410001+9999ME1315229REMSYN070AAXX  07034 17205 42980 00000 10020 21027 38350 48522 54000 333 10196;
0259172050999992000110706004+38480+042300FM-12+166599999V0209999C000012200019N0300001N1+00401-00041999999ADDAA199000091GA1021+012009089GF102991021011012501001001IA1019IA2999+00009KA1120N+00161MA1999999083601MD1210101+9999ME1315309REMSYN106AAXX  07064 17205 32680 20000 10040 21004 38360 48530 52010 82100 333 20016 30000 50081 55014 82840 92418;EQDQ01  00002PRCP99
0162172050999992000110709004+38480+042300FM-12+166599999V0200701N001512200019N0300001N1+00901-00021999999ADDGA1001+999999999GF100991001001999999001001MA1999999083601MD1410001+9999ME1315279REMSYN070AAXX  07094 17205 42980 00703 10090 21002 38360 48527 54000 333 10201;
0192172050999992000110712004+38480+042300FM-12+166599999V0200701N001512200019N0300001N1+00981-00281999999ADDAA199000091GA1001+999999999GF100991001001999999001001MA1999999083501MD1810101+9999ME1315179REMSYN070AAXX  07124 17205 32980 00703 10098 21028 38350 48517 58010 333 10181;EQDQ01  00002PRCP99
0162172050999992000110715004+38480+042300FM-12+166599999V0209999C000012200019N0300001N1+00601-00551999999ADDGA1001+999999999GF100991001001999999001001MA1999999083501MD1410001+9999ME1315199REMSYN070AAXX  07154 17205 42980 00000 10060 21055 38350 48519 54000 333 10204;
0211172050999992000110718004+38480+042300FM-12+166599999V0209999C000012200019N0300001N1+00341-00371999999ADDAA199000091GA1001+999999999GF100991001001999999001001KA1120M+01041MA1999999083501MD1410001+9999ME1315209REMSYN076AAXX  07184 17205 32980 00000 10034 21037 38350 48520 54000 333 10104 92418;EQDQ01  00002PRCP99
0162172050999992000110721004+38480+042300FM-12+166599999V0209999C000012200019N0300001N1+00201-00271999999ADDGA1001+999999999GF100991001001999999001001MA1999999083501MD1410001+9999ME1315229REMSYN070AAXX  07214 17205 42980 00000 10020 21027 38350 48522 54000 333 10188;
0259172050999992000110806004+38480+042300FM-12+166599999V0209999C000012200019N0300001N1+00301+00081999999ADDAA199000091GA1021+012009089GF102991021011012501001001IA1019IA2999+00009KA1120N+00081MA1999999083601MD1410001+9999ME1315309REMSYN106AAXX  08064 17205 32680 20000 10030 20008 38360 48530 54000 82100 333 20008 30000 50081 55013 82840 92418;EQDQ01  00002PRCP99
0162172050999992000110809004+38480+042300FM-12+166599999V0200701N001512200019N0300001N1+00941+00041999999ADDGA1001+999999999GF100991001001999999001001MA1999999083701MD1210101+9999ME1315379REMSYN070AAXX  08094 17205 42980 00703 10094 20004 38370 48537 52010 333 10213;
0192172050999992000110812004+38480+042300FM-12+166599999V0200701N001012200019N0300001N1+01001-00041999999ADDAA199000091GA1001+999999999GF100991001001999999001001MA1999999083661MD1710041+9999ME1315379REMSYN070AAXX  08124 17205 32980 00702 10100 21004 38366 48537 57004 333 10208;EQDQ01  00002PRCP99
0162172050999992000110815004+38480+042300FM-12+166599999V0209999C000012200019N0300001N1+00641-00211999999ADDGA1001+999999999GF100991001001999999001001MA1999999083701MD1110041+9999ME1315399REMSYN070AAXX  08154 17205 42980 00000 10064 21021 38370 48539 51004 333 10220;
0211172050999992000110818004+38480+042300FM-12+166599999V0209999C000012200019N0300001N1+00361-00161999999ADDAA199000091GA1001+999999999GF100991001001999999001001KA1120M+01101MA1999999083701MD1410001+9999ME1315409REMSYN076AAXX  08184 17205 32980 00000 10036 21016 38370 48540 54000 333 10110 92418;EQDQ01  00002PRCP99
0162172050999992000110821004+38480+042300FM-12+166599999V0209999C000012200019N0300001N1+00221+00001999999ADDGA1001+999999999GF100991001001999999001001MA1999999083801MD1210101+9999ME1315519REMSYN070AAXX  08214 17205 42980 00000 10022 20000 38380 48551 52010 333 10225;
0192172050999992000110900004+38480+042300FM-12+166599999V0209999C000012200019N0300001N1+00201-00121999999ADDAA199000091GA1001+999999999GF100991001001999999001001MA1999999083701MD1710101+9999ME1315419REMSYN070AAXX  09004 17205 32980 00000 10020 21012 38370 48541 57010 333 10228;EQDQ01  00002PRCP99
0162172050999992000110903004+38480+042300FM-12+166599999V0209999C000012200019N0300001N1+00261-00371999999ADDGA1001+999999999GF100991001001999999001001MA1999999083701MD1410001+9999ME1315419REMSYN070AAXX  09034 17205 42980 00000 10026 21037 38370 48541 54000 333 10236;
0247172050999992000110906004+38480+042300FM-12+166599999V0209999C000012200019N0300001N1+00341-00121999999ADDAA199000091GA1001+999999999GF100991001001999999001001IA1019IA2999+00009KA1120N+00121MA1999999083801MD1310101+9999ME1315519REMSYN094AAXX  09064 17205 32980 00000 10034 21012 38380 48551 53010 333 20012 30000 50081 55011 92418;EQDQ01  00002PRCP99
0162172050999992000110909004+38480+042300FM-12+166599999V0200701N001512200019N0300001N1+01001-00491999999ADDGA1001+999999999GF100991001001999999001001MA1999999083701MD1810101+9999ME1315399REMSYN070AAXX  09094 17205 42980 00703 10100 21049 38370 48539 58010 333 10218;
0192172050999992000110912004+38480+042300FM-12+166599999V0202501N001512200019N0300001N1+01201-00531999999ADDAA199000091GA1001+999999999GF100991001001999999001001MA1999999083701MD1410001+9999ME1315399REMSYN070AAXX  09124 17205 32980 02503 10120 21053 38370 48539 54000 333 10205;EQDQ01  00002PRCP99
0174172050999992000110915004+38480+042300FM-12+166599999V0209999C000012200019N0300001N1+00801-00491999999ADDGA1021+012009089GF102991021011012501001001MA1999999083601MD1610101+9999ME1315289REMSYN082AAXX  09154 17205 42680 20000 10080 21049 38360 48528 56010 82100 333 82840 92418;
0211172050999992000110918004+38480+042300FM-12+166599999V0202701N001512200019N0300001N1+00921-00471999999ADDAA199000091GA1001+999999999GF100991001001999999001001KA1120M+01261MA1999999083701MD1210101+9999ME1315399REMSYN076AAXX  09184 17205 32980 02703 10092 21047 38370 48539 52010 333 10126 92418;EQDQ01  00002PRCP99
0162172050999992000110921004+38480+042300FM-12+166599999V0202701N001012200019N0300001N1+00601-00571999999ADDGA1001+999999999GF100991001001999999001001MA1999999083601MD1410001+9999ME1315399REMSYN070AAXX  09214 17205 42980 02702 10060 21057 38360 48539 54000 333 10198;
0192172050999992000111000004+38480+042300FM-12+166599999V0209999C000012200019N0300001N1+00201-00401999999ADDAA199000091GA1001+999999999GF100991001001999999001001MA1999999083801MD1110101+9999ME1315519REMSYN070AAXX  10004 17205 32980 00000 10020 21040 38380 48551 51010 333 10217;EQDQ01  00002PRCP99
0162172050999992000111003004+38480+042300FM-12+166599999V0209999C000012200019N0300001N1+00061-00441999999ADDGA1001+999999999GF100991001001999999001001MA1999999083801MD1410001+9999ME1315519REMSYN070AAXX  10034 17205 42980 00000 10006 21044 38380 48551 54000 333 10240;
0247172050999992000111006004+38480+042300FM-12+166599999V0209999C000012200019N0300001N1+00201-00121999999ADDAA199000091GA1001+999999999GF100991001001999999001001IA1019IA2999-00209KA1120N+00001MA1999999083801MD1410001+9999ME1315519REMSYN094AAXX  10064 17205 32980 00000 10020 21012 38380 48551 54000 333 20000 30102 50081 55011 92418;EQDQ01  00002PRCP99
0162172050999992000111009004+38480+042300FM-12+166599999V0202701N001512200019N0300001N1+00901-00331999999ADDGA1001+999999999GF100991001001999999001001MA1999999083801MD1410001+9999ME1315479REMSYN070AAXX  10094 17205 42980 02703 10090 21033 38380 48547 54000 333 10210;
0204172050999992000111012004+38480+042300FM-12+166599999V0202701N001512200019N0300001N1+01001-00501999999ADDAA199000091GA1041+012009089GF104991041021012501001001MA1999999083801MD1410001+9999ME1315479REMSYN082AAXX  10124 17205 32680 42703 10100 21050 38380 48547 54000 84200 333 84840 92418;EQDQ01  00002PRCP99
0162172050999992000111015004+38480+042300FM-12+166599999V0209999C000012200019N0300001N1+00901-00601999999ADDGA1001+999999999GF100991001001999999001001MA1999999083801MD1410001+9999ME1315479REMSYN070AAXX  10154 17205 42980 00000 10090 21060 38380 48547 54000 333 10233;
0211172050999992000111018004+38480+042300FM-12+166599999V0209999C000012200019N0300001N1+00601-00571999999ADDAA199000091GA1001+999999999GF100991001001999999001001KA1120M+01061MA1999999083901MD1210101+9999ME1315599REMSYN076AAXX  10184 17205 32980 00000 10060 21057 38390 48559 52010 333 10106 92418;EQDQ01  00002PRCP99
0162172050999992000111021004+38480+042300FM-12+166599999V0209999C000012200019N0300001N1+00401-00301999999ADDGA1001+999999999GF100991001001999999001001MA1999999083901MD1410001+9999ME1315599REMSYN070AAXX  10214 17205 42980 00000 10040 21030 38390 48559 54000 333 10237;
0192172050999992000111100004+38480+042300FM-12+166599999V0209999C000012200019N0300001N1+00601-00371999999ADDAA199000091GA1001+999999999GF100991001001999999001001MA1999999083901MD1410001+9999ME1315599REMSYN070AAXX  11004 17205 32980 00000 10060 21037 38390 48559 54000 333 10215;EQDQ01  00002PRCP99
0162172050999992000111103004+38480+042300FM-12+166599999V0200701N001012200019N0300001N1+00701-00181999999ADDGA1001+999999999GF100991001001999999001001MA1999999083901MD1410001+9999ME1315589REMSYN070AAXX  11034 17205 42980 00702 10070 21018 38390 48558 54000 333 10222;
0247172050999992000111106004+38480+042300FM-12+166599999V0200701N001012200019N0300001N1+00561-00101999999ADDAA199000091GA1001+999999999GF100991001001999999001001IA1019IA2999+00109KA1120N+00261MA1999999084201MD1210301+9999ME1315889REMSYN094AAXX  11064 17205 32980 00702 10056 21010 38420 48588 52030 333 20026 30001 50161 55011 92418;EQDQ01  00002PRCP99
0162172050999992000111109004+38480+042300FM-12+166599999V0202901N001012200019N0300001N1+01201-00081999999ADDGA1001+999999999GF100991001001999999001001MA1999999084201MD1410001+9999ME1315869REMSYN070AAXX  11094 17205 42980 02902 10120 21008 38420 48586 54000 333 10259;
0192172050999992000111112004+38480+042300FM-12+166599999V0202501N001512200019N0300001N1+01301-00211999999ADDAA199000091GA1001+999999999GF100991001001999999001001MA1999999084101MD1810101+9999ME1315769REMSYN070AAXX  11124 17205 32980 02503 10130 21021 38410 48576 58010 333 10232;EQDQ01  00002PRCP99
0162172050999992000111115004+38480+042300FM-12+166599999V0202701N001012200019N0300001N1+01001-00271999999ADDGA1001+999999999GF100991001001999999001001MA1999999084101MD1410001+9999ME1315779REMSYN070AAXX  11154 17205 42980 02702 10100 21027 38410 48577 54000 333 10239;
0211172050999992000111118004+38480+042300FM-12+166599999V0209999C000012200019N0300001N1+00581-00121999999ADDAA199000091GA1001+999999999GF100991001001999999001001KA1120M+01441MA1999999084201MD1110101+9999ME1315889REMSYN076AAXX  11184 17205 32980 00000 10058 21012 38420 48588 51010 333 10144 92418;EQDQ01  00002PRCP99
0162172050999992000111121004+38480+042300FM-12+166599999V0209999C000012200019N0300001N1+00421-00061999999ADDGA1001+999999999GF100991001001999999001001MA1999999084201MD1410001+9999ME1315889REMSYN070AAXX  11214 17205 42980 00000 10042 21006 38420 48588 54000 333 10259;
0192172050999992000111200004+38480+042300FM-12+166599999V0209999C000012200019N0300001N1+00341-00061999999ADDAA199000091GA1001+999999999GF100991001001999999001001MA1999999084101MD1710101+9999ME1315799REMSYN070AAXX  12004 17205 32980 00000 10034 21006 38410 48579 57010 333 10247;EQDQ01  00002PRCP99
0162172050999992000111203004+38480+042300FM-12+166599999V0209999C000012200019N0300001N1+00241-00071999999ADDGA1001+999999999GF100991001001999999001001MA1999999084001MD1610101+9999ME1315709REMSYN070AAXX  12034 17205 42980 00000 10024 21007 38400 48570 56010 333 10249;
0247172050999992000111206004+38480+042300FM-12+166599999V0209999C000012200019N0300001N1+00361-00151999999ADDAA199000091GA1001+999999999GF100991001001999999001001IA1019IA2999+00009KA1120N+00141MA1999999084001MD1410001+9999ME1315709REMSYN094AAXX  12064 17205 32980 00000 10036 21015 38400 48570 54000 333 20014 30000 50161 55011 92418;EQDQ01  00002PRCP99
0174172050999992000111209004+38480+042300FM-12+166599999V0200901N001012200019N0300001N1+01061+00291999999ADDGA1021+012009089GF102991021011012501001001MA1999999083901MD1810101+9999ME1315589REMSYN082AAXX  12094 17205 42680 20902 10106 20029 38390 48558 58010 82100 333 82840 92418;
0226172050999992000111212004+38480+042300FM-12+166599999V0200401N001010300019N0300001N1+01201+00461999999ADDAA199000091GA1041+012009089GA2061+030009039GF106991041021012501051001MA1999999083701MD1810101+9999ME1315389REMSYN088AAXX  12124 17205 32680 60402 10120 20046 38370 48538 58010 84250 333 84840 86360 92418;EQDQ01  00002PRCP99
0196172050999992000111215004+38480+042300FM-12+166599999V0209999C000010105019N0200001N1+01101-00231999999ADDGA1051+010509069GA2081+027009049GF108991051051012501021999MA1999999083701MD1410001+9999ME1315389REMSYN088AAXX  12154 17205 42670 80000 10110 21023 38370 48538 54000 8552/ 333 85635 88459 92417;
0245172050999992000111218004+38480+042300FM-12+166599999V0209999C000010105019N0200001N1+00861-00131999999ADDAA199000091GA1051+010509069GA2081+027009049GF108991051051012501021999KA1120M+01301MA1999999083701MD1410001+9999ME1315389REMSYN094AAXX  12184 17205 32670 80000 10086 21013 38370 48538 54000 8552/ 333 10130 85635 88459 92417;EQDQ01  00002PRCP99
0215172050999992000111221004+38480+042300FM-12+166599999V0200901N001012200019N0300001N1+00901-00181999999ADDGA1031+012009069GA2061+030009039GF199999031051012501051001MA1999999083601MD1810101+9999ME1315279REMSYN088AAXX  12214 17205 42680 40902 10090 21018 38360 48527 58010 83550 333 83640 86360 92418;EQDQ01+000042SCOTCV
0226172050999992000111300004+38480+042300FM-12+166599999V0209999C000012200019N0300001N1+00581-00291999999ADDAA199000091GA1031+012009069GA2041+030009039GF104991031051012501051001MA1999999083601MD1410001+9999ME1315299REMSYN088AAXX  13004 17205 32680 40000 10058 21029 38360 48529 54000 83550 333 83640 84360 92418;EQDQ01  00002PRCP99
0196172050999992000111303004+38480+042300FM-12+166599999V0209999C000012200019N0300001N1+00501-00311999999ADDGA1031+012009069GA2041+030009039GF104991031051012501051001MA1999999083601MD1410001+9999ME1315299REMSYN088AAXX  13034 17205 42680 40000 10050 21031 38360 48529 54000 83550 333 83640 84360 92418;
0247172050999992000111306004+38480+042300FM-12+166599999V0209999C000012200019N0300001N1+00501-00121999999ADDAA199000091GA1001+999999999GF100991001001999999001001IA1019IA2999+00209KA1120N+00401MA1999999083601MD1410001+9999ME1315299REMSYN094AAXX  13064 17205 32980 00000 10050 21012 38360 48529 54000 333 20040 30002 50121 55008 92418;EQDQ01  00002PRCP99
0174172050999992000111309004+38480+042300FM-12+166599999V0200901N001012200019N0300001N1+01001-00041999999ADDGA1021+012009089GF102991021011012501001001MA1999999083601MD1410001+9999ME1315279REMSYN082AAXX  13094 17205 42680 20902 10100 21004 38360 48527 54000 82100 333 82840 92418;
0204172050999992000111312004+38480+042300FM-12+166599999V0202501N001512200019N0300001N1+01101-00161999999ADDAA199000091GA1021+012009089GF102991021011012501001001MA1999999083501MD1610101+9999ME1315169REMSYN082AAXX  13124 17205 32680 22503 10110 21016 38350 48516 56010 82100 333 82840 92418;EQDQ01  00002PRCP99
0211172050999992000111318004+38480+042300FM-12+166599999V0209999C000012200019N0300001N1+00441-00191999999ADDAA199000091GA1001+999999999GF100991001001999999001001KA1120M+01201MA1999999083501MD1410001+9999ME1315209REMSYN076AAXX  13184 17205 32980 00000 10044 21019 38350 48520 54000 333 10120 92418;EQDQ01  00002PRCP99
0162172050999992000111321004+38480+042300FM-12+166599999V0209999C000012200019N0300001N1+00241-00071999999ADDGA1001+999999999GF100991001001999999001001MA1999999083601MD1210101+9999ME1315319REMSYN070AAXX  13214 17205 42980 00000 10024 21007 38360 48531 52010 333 10201;
0192172050999992000111400004+38480+042300FM-12+166599999V0209999C000012200019N0300001N1+00141-00131999999ADDAA199000091GA1001+999999999GF100991001001999999001001MA1999999083601MD1410001+9999ME1315319REMSYN070AAXX  14004 17205 32980 00000 10014 21013 38360 48531 54000 333 10201;EQDQ01  00002PRCP99
0162172050999992000111403004+38480+042300FM-12+166599999V0209999C000012200019N0300001N1+00061-00081999999ADDGA1001+999999999GF100991001001999999001001MA1999999083601MD1410001+9999ME1315319REMSYN070AAXX  14034 17205 42980 00000 10006 21008 38360 48531 54000 333 10216;
0259172050999992000111406004+38480+042300FM-12+166599999V0209999C000012200019N0300001N1+00241+00121999999ADDAA199000091GA1031+012009089GF103991031011012501001001IA1019IA2999-00109KA1120N+00001MA1999999083601MD1410001+9999ME1315319REMSYN106AAXX  14064 17205 32680 30000 10024 20012 38360 48531 54000 83100 333 20000 30101 50121 55013 83840 92418;EQDQ01  00002PRCP99
0174172050999992000111409004+38480+042300FM-12+166599999V0200201N001512200019N0300001N1+00841+00061999999ADDGA1031+012009089GF103991031011012501001001MA1999999083601MD1410001+9999ME1315289REMSYN082AAXX  14094 17205 42680 30203 10084 20006 38360 48528 54000 83100 333 83840 92418;
0192172050999992000111412004+38480+042300FM-12+166599999V0200701N001512200019N0300001N1+00881-00151999999ADDAA199000091GA1001+999999999GF100991001001999999001001MA1999999083601MD1410001+9999ME1315289REMSYN070AAXX  14124 17205 32980 00703 10088 21015 38360 48528 54000 333 10208;EQDQ01  00002PRCP99
0162172050999992000111415004+38480+042300FM-12+166599999V0209999C000012200019N0300001N1+00641-00261999999ADDGA1001+999999999GF100991001001999999001001MA1999999083601MD1410001+9999ME1315299REMSYN070AAXX  14154 17205 42980 00000 10064 21026 38360 48529 54000 333 10216;
0211172050999992000111418004+38480+042300FM-12+166599999V0209999C000012200019N0300001N1+00441-01051999999ADDAA199000091GA1001+999999999GF100991001001999999001001KA1120M+00921MA1999999083701MD1110101+9999ME1315419REMSYN076AAXX  14184 17205 32980 00000 10044 21105 38370 48541 51010 333 10092 92418;EQDQ01  00002PRCP99
0162172050999992000111421004+38480+042300FM-12+166599999V0209999C000012200019N0300001N1+00181-00771999999ADDGA1001+999999999GF100991001001999999001001MA1999999083701MD1410001+9999ME1315419REMSYN070AAXX  14214 17205 42980 00000 10018 21077 38370 48541 54000 333 10220;
0192172050999992000111500004+38480+042300FM-12+166599999V0209999C000012200019N0300001N1+00061-00611999999ADDAA199000091GA1001+999999999GF100991001001999999001001MA1999999083701MD1410001+9999ME1315429REMSYN070AAXX  15004 17205 32980 00000 10006 21061 38370 48542 54000 333 10220;EQDQ01  00002PRCP99
0162172050999992000111503004+38480+042300FM-12+166599999V0209999C000012200019N0300001N1+00001-00761999999ADDGA1001+999999999GF100991001001999999001001MA1999999083801MD1210101+9999ME1315519REMSYN070AAXX  15034 17205 42980 00000 10000 21076 38380 48551 52010 333 10248;
0247172050999992000111506004+38480+042300FM-12+166599999V0209999C000012200019N0300001N1+00201-00501999999ADDAA199000091GA1001+999999999GF100991001001999999001001IA1019IA2999-00209KA1120N-00141MA1999999083801MD1410001+9999ME1315519REMSYN094AAXX  15064 17205 32980 00000 10020 21050 38380 48551 54000 333 21014 30102 50081 55012 92418;EQDQ01  00002PRCP99
0162172050999992000111509004+38480+042300FM-12+166599999V0200701N001512200019N0300001N1+00841+00011999999ADDGA1001+999999999GF100991001001999999001001MA1999999083801MD1410001+9999ME1315489REMSYN070AAXX  15094 17205 42980 00703 10084 20001 38380 48548 54000 333 10233;
0192172050999992000111512004+38480+042300FM-12+166599999V0201101N001012200019N0300001N1+00901-00241999999ADDAA199000091GA1001+999999999GF100991001001999999001001MA1999999083801MD1410001+9999ME1315489REMSYN070AAXX  15124 17205 32980 01102 10090 21024 38380 48548 54000 333 10233;EQDQ01  00002PRCP99
0162172050999992000111515004+38480+042300FM-12+166599999V0209999C000012200019N0300001N1+00601-01151999999ADDGA1001+999999999GF100991001001999999001001MA1999999083801MD1410001+9999ME1315499REMSYN070AAXX  15154 17205 42980 00000 10060 21115 38380 48549 54000 333 10248;
0211172050999992000111518004+38480+042300FM-12+166599999V0209999C000012200019N0300001N1+00261-00731999999ADDAA199000091GA1001+999999999GF100991001001999999001001KA1120M+01001MA1999999083901MD1110101+9999ME1315609REMSYN076AAXX  15184 17205 32980 00000 10026 21073 38390 48560 51010 333 10100 92418;EQDQ01  00002PRCP99
0162172050999992000111521004+38480+042300FM-12+166599999V0209999C000012200019N0300001N1+00101-00621999999ADDGA1001+999999999GF100991001001999999001001MA1999999083901MD1410001+9999ME1315609REMSYN070AAXX  15214 17205 42980 00000 10010 21062 38390 48560 54000 333 10244;
0192172050999992000111600004+38480+042300FM-12+166599999V0209999C000012200019N0300001N1+00141-00581999999ADDAA199000091GA1001+999999999GF100991001001999999001001MA1999999084001MD1210101+9999ME1315709REMSYN070AAXX  16004 17205 32980 00000 10014 21058 38400 48570 52010 333 10257;EQDQ01  00002PRCP99
0162172050999992000111603004+38480+042300FM-12+166599999V0209999C000012200019N0300001N1+00121-00271999999ADDGA1001+999999999GF100991001001999999001001MA1999999084001MD1410001+9999ME1315709REMSYN070AAXX  16034 17205 42980 00000 10012 21027 38400 48570 54000 333 10265;
0247172050999992000111606004+38480+042300FM-12+166599999V0209999C000012200019N0300001N1+00401-00191999999ADDAA199000091GA1001+999999999GF100991001001999999001001IA1019IA2999-00209KA1120N+00001MA1999999084001MD1410001+9999ME1315699REMSYN094AAXX  16064 17205 32980 00000 10040 21019 38400 48569 54000 333 20000 30102 50061 55011 92418;EQDQ01  00002PRCP99
0162172050999992000111609004+38480+042300FM-12+166599999V0200701N001512200019N0300001N1+00801-00451999999ADDGA1001+999999999GF100991001001999999001001MA1999999084101MD1110101+9999ME1315779REMSYN070AAXX  16094 17205 42980 00703 10080 21045 38410 48577 51010 333 10277;
0192172050999992000111612004+38480+042300FM-12+166599999V0200701N001512200019N0300001N1+00861-00501999999ADDAA199000091GA1001+999999999GF100991001001999999001001MA1999999084041MD1610061+9999ME1315689REMSYN070AAXX  16124 17205 32980 00703 10086 21050 38404 48568 56006 333 10277;EQDQ01  00002PRCP99
0162172050999992000111615004+38480+042300FM-12+166599999V0209999C000012200019N0300001N1+00501-00721999999ADDGA1001+999999999GF100991001001999999001001MA1999999084001MD1610041+9999ME1315689REMSYN070AAXX  16154 17205 42980 00000 10050 21072 38400 48568 56004 333 10272;
0211172050999992000111618004+38480+042300FM-12+166599999V0209999C000012200019N0300001N1+00301-00671999999ADDAA199000091GA1001+999999999GF100991001001999999001001KA1120M+00961MA1999999084101MD1210101+9999ME1315799REMSYN076AAXX  16184 17205 32980 00000 10030 21067 38410 48579 52010 333 10096 92418;EQDQ01  00002PRCP99
0162172050999992000111621004+38480+042300FM-12+166599999V0209999C000012200019N0300001N1+00441-00611999999ADDGA1001+999999999GF100991001001999999001001MA1999999084101MD1410001+9999ME1315799REMSYN070AAXX  16214 17205 42980 00000 10044 21061 38410 48579 54000 333 10262;
0192172050999992000111700004+38480+042300FM-12+166599999V0209999C000012200019N0300001N1+00301-00671999999ADDAA199000091GA1001+999999999GF100991001001999999001001MA1999999084101MD1410001+9999ME1315799REMSYN070AAXX  17004 17205 32980 00000 10030 21067 38410 48579 54000 333 10262;EQDQ01  00002PRCP99
0162172050999992000111703004+38480+042300FM-12+166599999V0209999C000012200019N0300001N1+00201-00681999999ADDGA1001+999999999GF100991001001999999001001MA1999999084101MD1410001+9999ME1315799REMSYN070AAXX  17034 17205 42980 00000 10020 21068 38410 48579 54000 333 10277;
0247172050999992000111706004+38480+042300FM-12+166599999V0200201N001012200019N0300001N1+00461-00461999999ADDAA199000091GA1001+999999999GF100991001001999999001001IA1019IA2999+00009KA1120N+00101MA1999999084201MD1110101+9999ME1315889REMSYN094AAXX  17064 17205 32980 00202 10046 21046 38420 48588 51010 333 20010 30000 50121 55010 92418;EQDQ01  00002PRCP99
0162172050999992000111709004+38480+042300FM-12+166599999V0200701N002112200019N0300001N1+00761-00591999999ADDGA1001+999999999GF100991001001999999001001MA1999999084101MD1710101+9999ME1315779REMSYN070AAXX  17094 17205 42980 00704 10076 21059 38410 48577 57010 333 10262;
0192172050999992000111712004+38480+042300FM-12+166599999V0200901N001012200019N0300001N1+00901-00501999999ADDAA199000091GA1001+999999999GF100991001001999999001001MA1999999083901MD1610201+9999ME1315579REMSYN070AAXX  17124 17205 32980 00902 10090 21050 38390 48557 56020 333 10237;EQDQ01  00002PRCP99
0162172050999992000111715004+38480+042300FM-12+166599999V0209999C000012200019N0300001N1+00561-01041999999ADDGA1001+999999999GF100991001001999999001001MA1999999083801MD1610101+9999ME1315499REMSYN070AAXX  17154 17205 42980 00000 10056 21104 38380 48549 56010 333 10240;
0211172050999992000111718004+38480+042300FM-12+166599999V0203401N001012200019N0300001N1+00581-00881999999ADDAA199000091GA1001+999999999GF100991001001999999001001KA1120M+01001MA1999999083901MD1110101+9999ME1315599REMSYN076AAXX  17184 17205 32980 03402 10058 21088 38390 48559 51010 333 10100 92418;EQDQ01  00002PRCP99
0162172050999992000111721004+38480+042300FM-12+166599999V0209999C000012200019N0300001N1+00301-00811999999ADDGA1001+999999999GF100991001001999999001001MA1999999083901MD1410001+9999ME1315599REMSYN070AAXX  17214 17205 42980 00000 10030 21081 38390 48559 54000 333 10245;
0192172050999992000111800004+38480+042300FM-12+166599999V0209999C000012200019N0300001N1+00181-00771999999ADDAA199000091GA1001+999999999GF100991001001999999001001MA1999999083801MD1610101+9999ME1315519REMSYN070AAXX  18004 17205 32980 00000 10018 21077 38380 48551 56010 333 10233;EQDQ01  00002PRCP99
0162172050999992000111803004+38480+042300FM-12+166599999V0209999C000012200019N0300001N1+00201-00651999999ADDGA1001+999999999GF100991001001999999001001MA1999999083701MD1610101+9999ME1315419REMSYN070AAXX  18034 17205 42980 00000 10020 21065 38370 48541 56010 333 10228;
0247172050999992000111806004+38480+042300FM-12+166599999V0209999C000012200019N0300001N1+00301-00651999999ADDAA199000091GA1001+999999999GF100991001001999999001001IA1019IA2999-00109KA1120N+00041MA1999999083701MD1410001+9999ME1315409REMSYN094AAXX  18064 17205 32980 00000 10030 21065 38370 48540 54000 333 20004 30101 50121 55007 92418;EQDQ01  00002PRCP99
0174172050999992000111809004+38480+042300FM-12+166599999V0200701N001512200019N0300001N1+00741-00411999999ADDGA1041+060009009GF104991001001999999001011MA1999999083701MD1410001+9999ME1315409REMSYN082AAXX  18094 17205 42980 40703 10074 21041 38370 48540 54000 80001 333 84070 92418;
0192172050999992000111812004+38480+042300FM-12+166599999V0200701N001512200019N0300001N1+00801-00441999999ADDAA199000091GA1001+999999999GF100991001001999999001001MA1999999083501MD1810201+9999ME1315209REMSYN070AAXX  18124 17205 32980 00703 10080 21044 38350 48520 58020 333 10196;EQDQ01  00002PRCP99
0174172050999992000111815004+38480+042300FM-12+166599999V0209999C000012200019N0300001N1+00461-00581999999ADDGA1031+012009089GF103991031011012501001001MA1999999083501MD1410001+9999ME1315209REMSYN082AAXX  18154 17205 42680 30000 10046 21058 38350 48520 54000 83100 333 83840 92418;
0211172050999992000111818004+38480+042300FM-12+166599999V0209999C000012200019N0300001N1+00361-00471999999ADDAA199000091GA1001+999999999GF100991001001999999001001KA1120M+00901MA1999999083501MD1410001+9999ME1315209REMSYN076AAXX  18184 17205 32980 00000 10036 21047 38350 48520 54000 333 10090 92418;EQDQ01  00002PRCP99
0196172050999992000111821004+38480+042300FM-12+166599999V0209999C000010300019N0300001N1+00401-00481999999ADDGA1041+012009089GA2061+030009039GF106991041021012501051001MA1999999083601MD1110101+9999ME1315309REMSYN088AAXX  18214 17205 42680 60000 10040 21048 38360 48530 51010 84250 333 84840 86360 92418;
0226172050999992000111900004+38480+042300FM-12+166599999V0209999C000010300019N0300001N1+00301-00311999999ADDAA199000091GA1041+012009089GA2061+030009039GF106991041021012501051001MA1999999083601MD1410001+9999ME1315209REMSYN088AAXX  19004 17205 32680 60000 10030 21031 38360 48520 54000 84250 333 84840 86360 92418;EQDQ01  00002PRCP99
0196172050999992000111903004+38480+042300FM-12+166599999V0200201N001010300019N0300001N1+00541-00121999999ADDGA1031+012009089GA2061+030009039GF106991041021012501051001MA1999999083701MD1110101+9999ME1315399REMSYN088AAXX  19034 17205 42680 60202 10054 21012 38370 48539 51010 84250 333 83840 86360 92418;
0281172050999992000111906004+38480+042300FM-12+166599999V0209999C000010300019N0300001N1+00541-00121999999ADDAA199000091GA1041+012009089GA2061+030009039GF106991041021012501051001IA1019IA2999+00009KA1120N+00201MA1999999083801MD1210101+9999ME1315499REMSYN112AAXX  19064 17205 32680 60000 10054 21012 38380 48549 52010 84250 333 20020 30000 50101 55008 84840 86360 92418;EQDQ01  00002PRCP99
0196172050999992000111909004+38480+042300FM-12+166599999V0209999C000010300019N0300001N1+00721+00051999999ADDGA1041+012009089GA2061+030009039GF106991041021012501051001MA1999999083801MD1410001+9999ME1315489REMSYN088AAXX  19094 17205 42680 60000 10072 20005 38380 48548 54000 84250 333 84840 86360 92418;
0204172050999992000111912004+38480+042300FM-12+166599999V0200901N001012200019N0300001N1+00901+00131999999ADDAA199000091GA1041+012009089GF104991041021012501001001MA1999999083701MD1610101+9999ME1315379REMSYN082AAXX  19124 17205 32680 40902 10090 20013 38370 48537 56010 84200 333 84840 92418;EQDQ01  00002PRCP99
0125172050999992000111915004+38480+042300FM-12+166599999V0209999C000019999999N0300001N1+00801+99999999999ADDGF106991999999012501999999REMSYN087AAXX  19154 17205 42680 60000 10080 2100 38370 48538 54000 84250 333 84840 86360 92418;
0211172050999992000111918004+38480+042300FM-12+166599999V0209999C000012200019N0300001N1+00461-00201999999ADDAA199000091GA1001+999999999GF100991001001999999001001KA1120M+01001MA1999999083701MD1410001+9999ME1315409REMSYN076AAXX  19184 17205 32980 00000 10046 21020 38370 48540 54000 333 10100 92418;EQDQ01  00002PRCP99
0162172050999992000111921004+38480+042300FM-12+166599999V0209999C000012200019N0300001N1+00421-00061999999ADDGA1001+999999999GF100991001001999999001001MA1999999083701MD1410001+9999ME1315409REMSYN070AAXX  19214 17205 42980 00000 10042 21006 38370 48540 54000 333 10213;
0226172050999992000112000004+38480+042300FM-12+166599999V0209999C000010300019N0300001N1+00361+00011999999ADDAA199000091GA1041+012009089GA2061+030009039GF106991041021012501051001MA1999999083801MD1110101+9999ME1315509REMSYN088AAXX  20004 17205 32680 60000 10036 20001 38380 48550 51010 84250 333 84840 86360 92418;EQDQ01  00002PRCP99
0196172050999992000112003004+38480+042300FM-12+166599999V0209999C000010300019N0300001N1+00501+00031999999ADDGA1041+012009089GA2061+030009039GF106991041021012501051001MA1999999083801MD1410001+9999ME1315509REMSYN088AAXX  20034 17205 42680 60000 10050 20003 38380 48550 54000 84250 333 84840 86360 92418;
0247172050999992000112006004+38480+042300FM-12+166599999V0209999C000012200019N0300001N1+00401+00101999999ADDAA199000091GA1001+999999999GF100991001001999999001001IA1019IA2999+00109KA1120N+00261MA1999999083801MD1410001+9999ME1315509REMSYN094AAXX  20064 17205 32980 00000 10040 20010 38380 48550 54000 333 20026 30001 50121 55000 92418;EQDQ01  00002PRCP99
0174172050999992000112009004+38480+042300FM-12+166599999V0200701N001012200019N0300001N1+00901+00041999999ADDGA1021+012009089GF102991021011012501001001MA1999999083801MD1410001+9999ME1315479REMSYN082AAXX  20094 17205 42680 20702 10090 20004 38380 48547 54000 82100 333 82840 92418;
0204172050999992000112012004+38480+042300FM-12+166599999V0202701N001512200019N0300001N1+00901-00071999999ADDAA199000091GA1041+012009089GF104991041021012501001001MA1999999083601MD1810201+9999ME1315279REMSYN082AAXX  20124 17205 32680 42703 10090 21007 38360 48527 58020 84200 333 84840 92418;EQDQ01  00002PRCP99
0174172050999992000112015004+38480+042300FM-12+166599999V0202701N001012200019N0300001N1+00741-00071999999ADDGA1041+012009089GF104991041021012501001001MA1999999083601MD1410001+9999ME1315289REMSYN082AAXX  20154 17205 42680 42702 10074 21007 38360 48528 54000 84200 333 84840 92418;
0223172050999992000112018004+38480+042300FM-12+166599999V0209999C000012200019N0300001N1+00601-00041999999ADDAA199000091GA1041+012009089GF104991041021012501001001KA1120M+01001MA1999999083601MD1410001+9999ME1315299REMSYN088AAXX  20184 17205 32680 40000 10060 21004 38360 48529 54000 84200 333 10100 84840 92418;EQDQ01  00002PRCP99
0162172050999992000112021004+38480+042300FM-12+166599999V0202001N001012200019N0300001N1+00521-00041999999ADDGA1001+999999999GF100991001001999999001001MA1999999083601MD1410001+9999ME1315299REMSYN070AAXX  20214 17205 42980 02002 10052 21004 38360 48529 54000 333 10193;
0192172050999992000112100004+38480+042300FM-12+166599999V0209999C000012200019N0300001N1+00521-00091999999ADDAA199000091GA1001+999999999GF100991001001999999001001MA1999999083601MD1410001+9999ME1315299REMSYN070AAXX  21004 17205 32980 00000 10052 21009 38360 48529 54000 333 10193;EQDQ01  00002PRCP99
0162172050999992000112103004+38480+042300FM-12+166599999V0209999C000012200019N0300001N1+00321-00101999999ADDGA1001+999999999GF100991001001999999001001MA1999999083501MD1710101+9999ME1315209REMSYN070AAXX  21034 17205 42980 00000 10032 21010 38350 48520 57010 333 10196;
0247172050999992000112106004+38480+042300FM-12+166599999V0209999C000012200019N0300001N1+00301+00041999999ADDAA199000091GA1001+999999999GF100991001001999999001001IA1019IA2999+00009KA1120N+00241MA1999999083501MD1410001+9999ME1315209REMSYN094AAXX  21064 17205 32980 00000 10030 20004 38350 48520 54000 333 20024 30000 50121 55007 92418;EQDQ01  00002PRCP99
0174172050999992000112109004+38480+042300FM-12+166599999V0202901N001512200019N0300001N1+00881-00141999999ADDGA1041+012009089GF104991041021012501001001MA1999999083501MD1410001+9999ME1315189REMSYN082AAXX  21094 17205 42680 42903 10088 21014 38350 48518 54000 84200 333 84840 92418;
0204172050999992000112112004+38480+042300FM-12+166599999V0202501N002612200019N0300001N1+00941-00221999999ADDAA199000091GA1041+012009089GF104991041021012501001001MA1999999083301MD1810201+9999ME1315089REMSYN082AAXX  21124 17205 32680 42505 10094 21022 38330 48508 58020 84200 333 84840 92418;EQDQ01  00002PRCP99
0174172050999992000112115004+38480+042300FM-12+166599999V0202701N001512200019N0300001N1+00761-00391999999ADDGA1041+012009089GF104991041021012501001001MA1999999083301MD1410001+9999ME1314989REMSYN082AAXX  21154 17205 42680 42703 10076 21039 38330 48498 54000 84200 333 84840 92418;
0211172050999992000112118004+38480+042300FM-12+166599999V0202701N001512200019N0300001N1+00441-00091999999ADDAA199000091GA1001+999999999GF100991001001999999001001KA1120M+01001MA1999999083441MD1210101+9999ME1315119REMSYN076AAXX  21184 17205 32980 02703 10044 21009 38344 48511 52010 333 10100 92418;EQDQ01  00002PRCP99
0162172050999992000112121004+38480+042300FM-12+166599999V0202701N001512200019N0300001N1+00361-00031999999ADDGA1001+999999999GF100991001001999999001001MA1999999083501MD1410001+9999ME1315209REMSYN070AAXX  21214 17205 42980 02703 10036 21003 38350 48520 54000 333 10186;
0162172050999992000112203004+38480+042300FM-12+166599999V0209999C000012200019N0300001N1+00101-00261999999ADDGA1001+999999999GF100991001001999999001001MA1999999083401MD1610101+9999ME1315129REMSYN070AAXX  22034 17205 42980 00000 10010 21026 38340 48512 56010 333 10191;
0247172050999992000112206004+38480+042300FM-12+166599999V0209999C000012200019N0300001N1+00181-00241999999ADDAA199000091GA1001+999999999GF100991001001999999001001IA1019IA2999-00209KA1120N+00001MA1999999083401MD1410001+9999ME1315129REMSYN094AAXX  22064 17205 32980 00000 10018 21024 38340 48512 54000 333 20000 30102 50081 55008 92418;EQDQ01  00002PRCP99
0162172050999992000112209004+38480+042300FM-12+166599999V0200401N001012200019N0300001N1+00761-00651999999ADDGA1001+999999999GF100991001001999999001001MA1999999083401MD1410001+9999ME1315089REMSYN070AAXX  22094 17205 42980 00402 10076 21065 38340 48508 54000 333 10176;
0204172050999992000112212004+38480+042300FM-12+166599999V0202501N001512200019N0300001N1+00981-00631999999ADDAA199000091GA1031+012009089GF103991031011012501001001MA1999999083301MD1810101+9999ME1314979REMSYN082AAXX  22124 17205 32680 32503 10098 21063 38330 48497 58010 83100 333 83840 92418;EQDQ01  00002PRCP99
0162172050999992000112215004+38480+042300FM-12+166599999V0209999C000012200019N0300001N1+00601-00691999999ADDGA1001+999999999GF100991001001999999001001MA1999999083301MD1410001+9999ME1315009REMSYN070AAXX  22154 17205 42980 00000 10060 21069 38330 48500 54000 333 10179;
0211172050999992000112218004+38480+042300FM-12+166599999V0209999C000012200019N0300001N1+00301-00801999999ADDAA199000091GA1001+999999999GF100991001001999999001001KA1120M+01041MA1999999083401MD1210101+9999ME1315119REMSYN076AAXX  22184 17205 32980 00000 10030 21080 38340 48511 52010 333 10104 92418;EQDQ01  00002PRCP99
0162172050999992000112221004+38480+042300FM-12+166599999V0209999C000012200019N0300001N1+00201-00611999999ADDGA1001+999999999GF100991001001999999001001MA1999999083501MD1210101+9999ME1315229REMSYN070AAXX  22214 17205 42980 00000 10020 21061 38350 48522 52010 333 10196;
0192172050999992000112300004+38480+042300FM-12+166599999V0209999C000012200019N0300001N1+00101-00451999999ADDAA199000091GA1001+999999999GF100991001001999999001001MA1999999083501MD1410001+9999ME1315229REMSYN070AAXX  23004 17205 32980 00000 10010 21045 38350 48522 54000 333 10196;EQDQ01  00002PRCP99
0162172050999992000112303004+38480+042300FM-12+166599999V0209999C000012200019N0300001N1+00101-00261999999ADDGA1001+999999999GF100991001001999999001001MA1999999083401MD1710101+9999ME1315129REMSYN070AAXX  23034 17205 42980 00000 10010 21026 38340 48512 57010 333 10191;
0281172050999992000112306004+38480+042300FM-12+166599999V0209999C000010300019N0300001N1+00181-00161999999ADDAA199000091GA1041+012009089GA2061+030009039GF106991041021012501051001IA1019IA2999-00209KA1120N+00001MA1999999083401MD1410001+9999ME1315129REMSYN112AAXX  23064 17205 32680 60000 10018 21016 38340 48512 54000 84250 333 20000 30102 50121 55007 84840 86360 92418;EQDQ01  00002PRCP99
0196172050999992000112309004+38480+042300FM-12+166599999V0200201N001010300019N0300001N1+00321-00031999999ADDGA1041+012009089GA2061+030009039GF106991041021012501051001MA1999999083501MD1210101+9999ME1315209REMSYN088AAXX  23094 17205 42680 60202 10032 21003 38350 48520 52010 84250 333 84840 86360 92418;
0226172050999992000112312004+38480+042300FM-12+166599999V0200901N022610300019N0300001N1+00361-00031999999ADDAA199000091GA1041+012009089GA2061+030009039GF106991041021012501051001MA1999999083401MD1710101+9999ME1315119REMSYN088AAXX  23124 17205 32680 60944 10036 21003 38340 48511 57010 84250 333 84840 86360 92418;EQDQ01  00002PRCP99
0162172050999992000112315004+38480+042300FM-12+166599999V0209999C000012200019N0300001N1+00181-00161999999ADDGA1001+999999999GF100991001001999999001001MA1999999083401MD1410001+9999ME1315129REMSYN070AAXX  23154 17205 42980 00000 10018 21016 38340 48512 54000 333 10214;
0211172050999992000112318004+38480+042300FM-12+166599999V0209999C000012200019N0300001N1-00041-00251999999ADDAA199000091GA1001+999999999GF100991001001999999001001KA1120M+00541MA1999999083501MD1110101+9999ME1315259REMSYN076AAXX  23184 17205 32980 00000 11004 21025 38350 48525 51010 333 10054 92418;EQDQ01  00002PRCP99
0174172050999992000112321004+38480+042300FM-12+166599999V0209999C000012200019N0300001N1+00001-00091999999ADDGA1021+012009089GF102991021011012501001001MA1999999083601MD1210101+9999ME1315329REMSYN082AAXX  23214 17205 42680 20000 10000 21009 38360 48532 52010 82100 333 82840 92418;
0204172050999992000112400004+38480+042300FM-12+166599999V0209999C000012200019N0300001N1-00101-00141999999ADDAA199000091GA1021+012009089GF102991021011012501001001MA1999999083561MD1610041+9999ME1315339REMSYN082AAXX  24004 17205 32680 20000 11010 21014 38356 48533 56004 82100 333 82840 92418;EQDQ01  00002PRCP99
0174172050999992000112403004+38480+042300FM-12+166599999V0209999C000012200019N0300001N1+00001-00201999999ADDGA1041+012009089GF104991041021012501001001MA1999999083501MD1710061+9999ME1315239REMSYN082AAXX  24034 17205 42680 40000 10000 21020 38350 48523 57006 84200 333 84840 92418;
0281172050999992000112406004+38480+042300FM-12+166599999V0209999C000010108019N0200001N1+00081-00161999999ADDAA199000091GA1051+010809069GA2071+027009039GF107991051051012501071001IA1019IA2999-00409KA1120N-00201MA1999999083601MD1210101+9999ME1315329REMSYN112AAXX  24064 17205 32670 70000 10008 21016 38360 48532 52010 85570 333 21020 30104 50081 55000 85636 87359 92417;EQDQ01  00002PRCP99
0196172050999992000112409004+38480+042300FM-12+166599999V0201301N001010270019N0200001N1+00401-00261999999ADDGA1041+010509069GA2061+027009039GF106991041051012501051001MA1999999083601MD1410001+9999ME1315319REMSYN088AAXX  24094 17205 42670 61302 10040 21026 38360 48531 54000 84550 333 84635 86359 92417;
0226172050999992000112412004+38480+042300FM-12+166599999V0200701N001010300019N0300001N1+00461-00201999999ADDAA199000091GA1041+012009069GA2061+030009039GF106991041051012501051001MA1999999083501MD1810101+9999ME1315229REMSYN088AAXX  24124 17205 32680 60702 10046 21020 38350 48522 58010 84550 333 84640 86360 92418;EQDQ01  00002PRCP99
0224172050999992000112415004+38480+042300FM-12+166599999V0209999C000010120019N0150001N1+00341-00181999999ADDAY121031AY221031GA1051+012009069GA2081+027009049GF108991051051012501021999MA1999999083601MD1110101+9999ME1315309MW1601REMSYN094AAXX  24154 17205 41665 80000 10034 21018 38360 48530 51010 76022 8552/ 333 85640 88459 92417;
0226172050999992000112418004+38480+042300FM-12+166599999V0209999C000012200019N0300001N1+00021-00161999999ADDAA112000591AY161061AY221061GA1001+999999999GF100991001001999999001001KA1120M+00561MA1999999083701MD1210101+9999ME1315429MW1011REMSYN088AAXX  24184 17205 11980 00000 10002 21016 38370 48542 52010 69962 70162 333 10056 92418;
0162172050999992000112421004+38480+042300FM-12+166599999V0209999C000012200019N0300001N1-00121-00181999999ADDGA1001+999999999GF100991001001999999001001MA1999999083701MD1410001+9999ME1315439REMSYN070AAXX  24214 17205 42980 00000 11012 21018 38370 48543 54000 333 10251;
0173172050999992000112500004+38480+042300FM-12+166599999V0209999C000012200019N0300001N1-00181-00221999999ADDAA199000021GA1001+999999999GF100991001001999999001001MA1999999083801MD1110101+9999ME1315529REMSYN070AAXX  25004 17205 32980 00000 11018 21022 38380 48552 51010 333 10263;
0162172050999992000112503004+38480+042300FM-12+166599999V0209999C000012200019N0300001N1-00181-00221999999ADDGA1001+999999999GF100991001001999999001001MA1999999083801MD1410001+9999ME1315529REMSYN070AAXX  25034 17205 42980 00000 11018 21022 38380 48552 54000 333 10263;
0240172050999992000112506004+38480+042300FM-12+166599999V0209999C000012200019N0300001N1-00181-00221999999ADDAA124000591GA1031+012009069GF103991031051012501001001IA1149IA2999-00409KA1120N-00301MA1999999083901MD1210101+9999ME1315629REMSYN106AAXX  25064 17205 32680 30000 11018 21022 38390 48562 52010 83500 333 21030 34104 55000 70006 83640 92418;
0174172050999992000112509004+38480+042300FM-12+166599999V0202701N001012200019N0300001N1+00401-00221999999ADDGA1031+012009069GF103991031051012501001001MA1999999083901MD1410001+9999ME1315599REMSYN082AAXX  25094 17205 42680 32702 10040 21022 38390 48559 54000 83500 333 83640 92418;
0226172050999992000112512004+38480+042300FM-12+166599999V0209999C000010300019N0300001N1+00501-00091999999ADDAA199000091GA1031+012009069GA2051+030009039GF105991031051012501051001MA1999999083821MD1810081+9999ME1315499REMSYN088AAXX  25124 17205 32680 50000 10050 21009 38382 48549 58008 83550 333 83640 85360 92418;EQDQ01  00002PRCP99
0162172050999992000112515004+38480+042300FM-12+166599999V0209999C000012200019N0300001N1+00301-00291999999ADDGA1001+999999999GF100991001001999999001001MA1999999083821MD1410001+9999ME1315509REMSYN070AAXX  25154 17205 42980 00000 10030 21029 38382 48550 54000 333 10266;
0211172050999992000112518004+38480+042300FM-12+166599999V0209999C000012200019N0300001N1+00001-00351999999ADDAA199000091GA1001+999999999GF100991001001999999001001KA1120M+00601MA1999999083901MD1210081+9999ME1315619REMSYN076AAXX  25184 17205 32980 00000 10000 21035 38390 48561 52008 333 10060 92418;EQDQ01  00002PRCP99
0162172050999992000112521004+38480+042300FM-12+166599999V0209999C000012200019N0300001N1-00121-00431999999ADDGA1001+999999999GF100991001001999999001001MA1999999083901MD1410001+9999ME1315629REMSYN070AAXX  25214 17205 42980 00000 11012 21043 38390 48562 54000 333 10268;
0192172050999992000112600004+38480+042300FM-12+166599999V0209999C000012200019N0300001N1-00201-00521999999ADDAA199000091GA1001+999999999GF100991001001999999001001MA1999999083901MD1410001+9999ME1315629REMSYN070AAXX  26004 17205 32980 00000 11020 21052 38390 48562 54000 333 10268;EQDQ01  00002PRCP99
0162172050999992000112603004+38480+042300FM-12+166599999V0209999C000012200019N0300001N1-00301-00611999999ADDGA1001+999999999GF100991001001999999001001MA1999999083901MD1410001+9999ME1315629REMSYN070AAXX  26034 17205 42980 00000 11030 21061 38390 48562 54000 333 10284;
0241172050999992000112606004+38480+042300FM-12+166599999V0209999C000012200019N0300001N1-00201-00521999999ADDAA199000091GA1001+999999999GF100991001001999999001001IA1149IA2999-00509KA1120N-00401MA1999999084001MD1210101+9999ME1315719REMSYN088AAXX  26064 17205 32980 00000 11020 21052 38400 48571 52010 333 21040 34105 55003 92418;EQDQ01  00002PRCP99
0162172050999992000112609004+38480+042300FM-12+166599999V0200701N001012200019N0300001N1+00501-00591999999ADDGA1001+999999999GF100991001001999999001001MA1999999083901MD1810101+9999ME1315599REMSYN070AAXX  26094 17205 42980 00702 10050 21059 38390 48559 58010 333 10268;
0192172050999992000112612004+38480+042300FM-12+166599999V0202701N001012200019N0300001N1+00721-00831999999ADDAA199000091GA1001+999999999GF100991001001999999001001MA1999999083801MD1710101+9999ME1315489REMSYN070AAXX  26124 17205 32980 02702 10072 21083 38380 48548 57010 333 10248;EQDQ01  00002PRCP99
0162172050999992000112615004+38480+042300FM-12+166599999V0202701N001012200019N0300001N1+00381-00691999999ADDGA1001+999999999GF100991001001999999001001MA1999999083801MD1410001+9999ME1315509REMSYN070AAXX  26154 17205 42980 02702 10038 21069 38380 48550 54000 333 10271;
0211172050999992000112618004+38480+042300FM-12+166599999V0202701N001012200019N0300001N1+00201-00621999999ADDAA199000091GA1001+999999999GF100991001001999999001001KA1120M+00841MA1999999083801MD1410001+9999ME1315519REMSYN076AAXX  26184 17205 32980 02702 10020 21062 38380 48551 54000 333 10084 92418;EQDQ01  00002PRCP99
0162172050999992000112621004+38480+042300FM-12+166599999V0209999C000012200019N0300001N1+00021-00661999999ADDGA1001+999999999GF100991001001999999001001MA1999999083901MD1110101+9999ME1315619REMSYN070AAXX  26214 17205 42980 00000 10002 21066 38390 48561 51010 333 10260;
0192172050999992000112700004+38480+042300FM-12+166599999V0209999C000012200019N0300001N1-00121-00771999999ADDAA199000091GA1001+999999999GF100991001001999999001001MA1999999083861MD1610041+9999ME1315629REMSYN070AAXX  27004 17205 32980 00000 11012 21077 38386 48562 56004 333 10248;EQDQ01  00002PRCP99
0162172050999992000112703004+38480+042300FM-12+166599999V0209999C000012200019N0300001N1-00261-00591999999ADDGA1001+999999999GF100991001001999999001001MA1999999083801MD1710061+9999ME1315539REMSYN070AAXX  27034 17205 42980 00000 11026 21059 38380 48553 57006 333 10263;
0241172050999992000112706004+38480+042300FM-12+166599999V0209999C000012200019N0300001N1-00101-00671999999ADDAA199000091GA1001+999999999GF100991001001999999001001IA1149IA2999-00509KA1120N-00361MA1999999083801MD1410001+9999ME1315529REMSYN088AAXX  27064 17205 32980 00000 11010 21067 38380 48552 54000 333 21036 34105 55006 92418;EQDQ01  00002PRCP99
0162172050999992000112709004+38480+042300FM-12+166599999V0202901N001512200019N0300001N1+00601-00921999999ADDGA1001+999999999GF100991001001999999001001MA1999999083801MD1410001+9999ME1315509REMSYN070AAXX  27094 17205 42980 02903 10060 21092 38380 48550 54000 333 10248;
0226172050999992000112712004+38480+042300FM-12+166599999V0202901N002610300019N0300001N1+00601-00921999999ADDAA199000091GA1041+012009089GA2061+030009039GF106991041021012501051001MA1999999083701MD1810101+9999ME1315419REMSYN088AAXX  27124 17205 32680 62905 10060 21092 38370 48541 58010 84250 333 84840 86360 92418;EQDQ01  00002PRCP99
0162172050999992000112715004+38480+042300FM-12+166599999V0202701N001012200019N0300001N1+00301-00891999999ADDGA1001+999999999GF100991001001999999001001MA1999999083701MD1410001+9999ME1315409REMSYN070AAXX  27154 17205 42980 02702 10030 21089 38370 48540 54000 333 10259;
0211172050999992000112718004+38480+042300FM-12+166599999V0202701N001512200019N0300001N1+00201-00811999999ADDAA199000091GA1001+999999999GF100991001001999999001001KA1120M+00741MA1999999083701MD1410001+9999ME1315419REMSYN076AAXX  27184 17205 32980 02703 10020 21081 38370 48541 54000 333 10074 92418;EQDQ01  00002PRCP99
0162172050999992000112721004+38480+042300FM-12+166599999V0209999C000012200019N0300001N1+00041-00701999999ADDGA1001+999999999GF100991001001999999001001MA1999999083801MD1110101+9999ME1315519REMSYN070AAXX  27214 17205 42980 00000 10004 21070 38380 48551 51010 333 10248;
0192172050999992000112800004+38480+042300FM-12+166599999V0209999C000012200019N0300001N1+00041-00581999999ADDAA199000091GA1001+999999999GF100991001001999999001001MA1999999083801MD1410001+9999ME1315519REMSYN070AAXX  28004 17205 32980 00000 10004 21058 38380 48551 54000 333 10248;EQDQ01  00002PRCP99
0196172050999992000112803004+38480+042300FM-12+166599999V0202701N001510300019N0300001N1+00101-00621999999ADDGA1041+012009089GA2061+030009039GF106991041021012501051001MA1999999083801MD1410001+9999ME1315519REMSYN088AAXX  28034 17205 42680 62703 10010 21062 38380 48551 54000 84250 333 84840 86360 92418;
0275172050999992000112806004+38480+042300FM-12+166599999V0202701N001510300019N0300001N1+00241-00571999999ADDAA199000091GA1041+012009089GA2061+030009039GF106991041021012501051001IA1019IA2999-00309KA1120N-00181MA1999999083801MD1410001+9999ME1315519REMSYN106AAXX  28064 17205 32680 62703 10024 21057 38380 48551 54000 84250 333 21018 30103 55006 84840 86360 92418;EQDQ01  00002PRCP99
0196172050999992000112809004+38480+042300FM-12+166599999V0202901N001010300019N0300001N1+00521-00431999999ADDGA1041+012009089GA2061+030009039GF106991041021012501051001MA1999999083801MD1410001+9999ME1315499REMSYN088AAXX  28094 17205 42680 62902 10052 21043 38380 48549 54000 84250 333 84840 86360 92418;
0226172050999992000112812004+38480+042300FM-12+166599999V0202001N001010300019N0300001N1+00701-01001999999ADDAA199000091GA1041+012009089GA2061+030009039GF106991041021012501051001MA1999999083801MD1410001+9999ME1315489REMSYN088AAXX  28124 17205 32680 62002 10070 21100 38380 48548 54000 84250 333 84840 86360 92418;EQDQ01  00002PRCP99
0196172050999992000112815004+38480+042300FM-12+166599999V0202701N001010300019N0300001N1+00401-00451999999ADDGA1041+012009089GA2061+030009039GF106991041021012501051001MA1999999083801MD1410001+9999ME1315509REMSYN088AAXX  28154 17205 42680 62702 10040 21045 38380 48550 54000 84250 333 84840 86360 92418;
0211172050999992000112818004+38480+042300FM-12+166599999V0209999C000012200019N0300001N1+00201-00441999999ADDAA199000091GA1001+999999999GF100991001001999999001001KA1120M+00841MA1999999083901MD1210101+9999ME1315609REMSYN076AAXX  28184 17205 32980 00000 10020 21044 38390 48560 52010 333 10084 92418;EQDQ01  00002PRCP99
0162172050999992000112821004+38480+042300FM-12+166599999V0209999C000012200019N0300001N1+00161-00211999999ADDGA1001+999999999GF100991001001999999001001MA1999999083901MD1410001+9999ME1315609REMSYN070AAXX  28214 17205 42980 00000 10016 21021 38390 48560 54000 333 10260;
0192172050999992000112900004+38480+042300FM-12+166599999V0209999C000012200019N0300001N1+00001-00351999999ADDAA199000091GA1001+999999999GF100991001001999999001001MA1999999083901MD1410001+9999ME1315619REMSYN070AAXX  29004 17205 32980 00000 10000 21035 38390 48561 54000 333 10252;EQDQ01  00002PRCP99
0162172050999992000112903004+38480+042300FM-12+166599999V0209999C000012200019N0300001N1+00001-00191999999ADDGA1001+999999999GF100991001001999999001001MA1999999083901MD1410001+9999ME1315619REMSYN070AAXX  29034 17205 42980 00000 10000 21019 38390 48561 54000 333 10268;
0275172050999992000112906004+38480+042300FM-12+166599999V0209999C000010300019N0300001N1+00121-00011999999ADDAA199000091GA1041+012009089GA2061+030009039GF106991041021012501051001IA1019IA2999-00209KA1120N-00101MA1999999083901MD1410001+9999ME1315609REMSYN106AAXX  29064 17205 32680 60000 10012 21001 38390 48560 54000 84250 333 21010 30102 55002 84840 86360 92418;EQDQ01  00002PRCP99
0196172050999992000112909004+38480+042300FM-12+166599999V0200701N001010300019N0300001N1+00621+00131999999ADDGA1041+012009089GA2061+030009039GF106991041021012501051001MA1999999083841MD1710061+9999ME1315499REMSYN088AAXX  29094 17205 42680 60702 10062 20013 38384 48549 57006 84250 333 84840 86360 92418;
0226172050999992000112912004+38480+042300FM-12+166599999V0200701N001010300019N0300001N1+00701-00021999999ADDAA199000091GA1041+012009089GA2061+030009039GF106991041021012501051001MA1999999083741MD1610101+9999ME1315389REMSYN088AAXX  29124 17205 32680 60702 10070 21002 38374 48538 56010 84250 333 84840 86360 92418;EQDQ01  00002PRCP99
0174172050999992000112915004+38480+042300FM-12+166599999V0209999C000012200019N0300001N1+00441-00141999999ADDGA1041+012009089GF104991041021012501001001MA1999999083701MD1610041+9999ME1315409REMSYN082AAXX  29154 17205 42680 40000 10044 21014 38370 48540 56004 84200 333 84840 92418;
0223172050999992000112918004+38480+042300FM-12+166599999V0209999C000012200019N0300001N1+00301-00211999999ADDAA199000091GA1041+012009089GF104991041021012501001001KA1120M+00801MA1999999083701MD1410001+9999ME1315409REMSYN088AAXX  29184 17205 32680 40000 10030 21021 38370 48540 54000 84200 333 10080 84840 92418;EQDQ01  00002PRCP99
0174172050999992000112921004+38480+042300FM-12+166599999V0209999C000012200019N0300001N1+00101-00181999999ADDGA1021+012009089GF102991021011012501001001MA1999999083601MD1610101+9999ME1315319REMSYN082AAXX  29214 17205 42680 20000 10010 21018 38360 48531 56010 82100 333 82840 92418;
0192172050999992000113000004+38480+042300FM-12+166599999V0209999C000012200019N0300001N1+00201+00031999999ADDAA199000091GA1001+999999999GF100991001001999999001001MA1999999083601MD1410001+9999ME1315319REMSYN070AAXX  30004 17205 32980 00000 10020 20003 38360 48531 54000 333 10208;EQDQ01  00002PRCP99
0224172050999992000113003004+38480+042300FM-12+166599999V0209999C000010105019N0200001N1+00141+00051999999ADDAY181031AY221031GA1051+010509069GA2081+027009049GF108991051051012501021999MA1999999083601MD1410001+9999ME1315319MW1251REMSYN094AAXX  30034 17205 41670 80000 10014 20005 38360 48531 54000 72582 8552/ 333 85635 88459 92416;
0296172050999992000113006004+38480+042300FM-12+166599999V0209999C000010105019N0150001N1+00101+00061999999ADDAA112004191AY161061AY221061GA1051+010509069GA2081+027009049GF108991051051012501021999IA1119IA2999-00109KA1120N+00001MA1999999083601MD1410001+9999ME1315319MW1601REMSYN124AAXX  30064 17205 11665 80000 10010 20006 38360 48531 54000 60042 76062 8552/ 333 20000 32101 55000 70040 85635 88459 92416;
0224172050999992000113009004+38480+042300FM-12+166599999V0209999C000010090019N0080001N1+00241+00201999999ADDAY161031AY261031GA1051+009009069GA2081+027009049GF108991051051008001021999MA1999999083401MD1810201+9999ME1315129MW1601REMSYN094AAXX  30094 17205 41558 80000 10024 20020 38340 48512 58020 76066 8552/ 333 85630 88459 92416;
0270172050999992000113012004+38480+042300FM-12+166599999V0209999C000010090019N0060001N1+00101+00041999999ADDAA106010991AL10600091AY161061AY261061GA1051+009009069GA2081+024009049GF108991051051008001021999MA1999999083301MD1810101+9999ME1315029MW1681UA1M999999019REMSYN106AAXX  30124 17205 11556 80000 10010 20004 38330 48502 58010 60111 76866 8552/ 333 85630 88458 92416 93100;
0224172050999992000113015004+38480+042300FM-12+166599999V0209999C000010105019N0100001N1+00201+00141999999ADDAY171031AY271031GA1051+010509069GA2081+027009049GF108991051051012501021999MA1999999083301MD1410001+9999ME1315029MW1231REMSYN094AAXX  30154 17205 41660 80000 10020 20014 38330 48502 54000 72377 8552/ 333 85635 88459 92417;
0289172050999992000113018004+38480+042300FM-12+166599999V0209999C000010105019N0100001N1+00201+00141999999ADDAA112015091AL10600091AY171061AY271061GA1051+010509069GA2081+027009049GF108991051051012501021999KA1120M+00401MA1999999083301MD1410001+9999ME1315029MW1021UA1M999999019REMSYN112AAXX  30184 17205 11660 80000 10020 20014 38330 48502 54000 60152 70277 8552/ 333 10040 85635 88459 92417 93100;
0161172050999992000113021004+38480+042300FM-12+166599999V0209999C000010105019N0100001N1+00161+00101999999ADDGA1051+010509069GA2081+027009049GF108991051051012501021999MA1999999083301REMSYN076AAXX  30214 17205 41660 80000 10016 20010 38330 8552/ 333 85635 88459 92417;
0241172050999992000120100004+38480+042300FM-12+166599999V0209999C000010105019N0100001N1+00181+00121999999ADDAA106002091AY161061AY221061GA1051+010509069GA2081+027009049GF108991051051012501021999MA1999999083401MD1210101+9999ME1315129MW1601REMSYN100AAXX  01004 17205 11660 80000 10018 20012 38340 48512 52010 60021 76062 8552/ 333 85635 88459 92417;
0224172050999992000120103004+38480+042300FM-12+166599999V0202901N001510105019N0100001N1+00101-00011999999ADDAY161031AY261031GA1051+010509069GA2081+027009049GF108991051051012501021999MA1999999083501MD1110101+9999ME1315229MW1601REMSYN094AAXX  01034 17205 41660 82903 10010 21001 38350 48522 51010 76066 8552/ 333 85635 88459 92417;
0296172050999992000120106004+38480+042300FM-12+166599999V0202901N001510300019N0200001N1+00141+00011999999ADDAA112002091AY161061AY261061GA1041+012009069GA2061+030009039GF106991041051012501051001IA1119IA2999+00009KA1120N+00001MA1999999083601MD1210101+9999ME1315319MW1211REMSYN124AAXX  01064 17205 11670 62903 10014 20001 38360 48531 52010 60022 72166 84550 333 20000 32100 55000 70168 84640 86360 92417;
0196172050999992000120109004+38480+042300FM-12+166599999V0202701N003110300019N0200001N1+00201-00021999999ADDGA1041+012009069GA2061+030009039GF106991041051012501051001MA1999999083701MD1110101+9999ME1315419REMSYN088AAXX  01094 17205 42670 62706 10020 21002 38370 48541 51010 84550 333 84640 86360 92427;
0185172050999992000120112004+38480+042300FM-12+166599999V0202901N001512200019N0300001N1+00241-00071999999ADDAA199000021GA1041+012009069GF104991041051012501001001MA1999999083701MD1410001+9999ME1315419REMSYN082AAXX  01124 17205 32680 42903 10024 21007 38370 48541 54000 84500 333 84640 92428;
0174172050999992000120115004+38480+042300FM-12+166599999V0202701N001012200019N0300001N1+00061-00081999999ADDGA1041+012009069GF104991041051012501001001MA1999999083701MD1410001+9999ME1315429REMSYN082AAXX  01154 17205 42680 42702 10006 21008 38370 48542 54000 84500 333 84640 92418;
0192172050999992000120118004+38480+042300FM-12+166599999V0209999C000012200019N0300001N1+00101-00131999999ADDAA199000021GA1001+999999999GF100991001001999999001001KA1120M+00401MA1999999083801MD1210101+9999ME1315519REMSYN076AAXX  01184 17205 32980 00000 10010 21013 38380 48551 52010 333 10040 92418;
0162172050999992000120121004+38480+042300FM-12+166599999V0202701N001012200019N0300001N1+00101-00131999999ADDGA1001+999999999GF100991001001999999001001MA1999999083801MD1410001+9999ME1315519REMSYN070AAXX  01214 17205 42980 02702 10010 21013 38380 48551 54000 333 10256;
0192172050999992000120200004+38480+042300FM-12+166599999V0209999C000012200019N0300001N1+00061-00081999999ADDAA199000091GA1001+999999999GF100991001001999999001001MA1999999083801MD1410001+9999ME1315519REMSYN070AAXX  02004 17205 32980 00000 10006 21008 38380 48551 54000 333 10256;EQDQ01  00002PRCP99
0174172050999992000120203004+38480+042300FM-12+166599999V0202701N001512200019N0300001N1+00061-00081999999ADDGA1041+012009069GF104991041051012501001001MA1999999083801MD1410001+9999ME1315519REMSYN082AAXX  02034 17205 42680 42703 10006 21008 38380 48551 54000 84500 333 84640 92418;
0253172050999992000120206004+38480+042300FM-12+166599999V0202701N001512200019N0300001N1+00001-00091999999ADDAA199000091GA1041+012009069GF104991041051012501001001IA1019IA2999-00209KA1120N-00101MA1999999083901MD1210101+9999ME1315619REMSYN100AAXX  02064 17205 32680 42703 10000 21009 38390 48561 52010 84500 333 21010 30102 55001 84640 92418;EQDQ01  00002PRCP99
0174172050999992000120209004+38480+042300FM-12+166599999V0202701N001512200019N0300001N1+00161-00211999999ADDGA1041+012009069GF104991041051012501001001MA1999999083901MD1410001+9999ME1315609REMSYN082AAXX  02094 17205 42680 42703 10016 21021 38390 48560 54000 84500 333 84640 92418;
0204172050999992000120212004+38480+042300FM-12+166599999V0202701N001012200019N0300001N1+00201-00071999999ADDAA199000091GA1021+012009069GF102991021051012501001001MA1999999083801MD1810101+9999ME1315519REMSYN082AAXX  02124 17205 32680 22702 10020 21007 38380 48551 58010 82500 333 82640 92418;EQDQ01  00002PRCP99
0162172050999992000120215004+38480+042300FM-12+166599999V0202701N001012200019N0300001N1-00061-00181999999ADDGA1001+999999999GF100991001001999999001001MA1999999083801MD1410001+9999ME1315519REMSYN070AAXX  02154 17205 42980 02702 11006 21018 38380 48551 54000 333 10271;
0223172050999992000120218004+38480+042300FM-12+166599999V0209999C000012200019N0300001N1-00081-00121999999ADDAA199000091GA1031+012009069GF103991031051012501001001KA1120M+00201MA1999999083901MD1210101+9999ME1315619REMSYN088AAXX  02184 17205 32680 30000 11008 21012 38390 48561 52010 83500 333 10020 83640 92418;EQDQ01  00002PRCP99
0162172050999992000120221004+38480+042300FM-12+166599999V0209999C000012200019N0300001N1-00181-00241999999ADDGA1001+999999999GF100991001001999999001001MA1999999083901MD1410001+9999ME1315629REMSYN070AAXX  02214 17205 42980 00000 11018 21024 38390 48562 54000 333 10283;
0192172050999992000120300004+38480+042300FM-12+166599999V0209999C000012200019N0300001N1-00241-00371999999ADDAA199000091GA1001+999999999GF100991001001999999001001MA1999999083901MD1410001+9999ME1315629REMSYN070AAXX  03004 17205 32980 00000 11024 21037 38390 48562 54000 333 10283;EQDQ01  00002PRCP99
0162172050999992000120303004+38480+042300FM-12+166599999V0202701N001012200019N0300001N1-00301-00391999999ADDGA1001+999999999GF100991001001999999001001MA1999999083901MD1410001+9999ME1315639REMSYN070AAXX  03034 17205 42980 02702 11030 21039 38390 48563 54000 333 10299;
0241172050999992000120306004+38480+042300FM-12+166599999V0202901N001012200019N0300001N1-00241-00371999999ADDAA199000091GA1001+999999999GF100991001001999999001001IA1149IA2999-00509KA1120N-00401MA1999999083901MD1410001+9999ME1315629REMSYN088AAXX  03064 17205 32980 02902 11024 21037 38390 48562 54000 333 21040 34105 55003 92418;EQDQ01  00002PRCP99
0162172050999992000120309004+38480+042300FM-12+166599999V0202901N001512200019N0150001N1+00061-00171999999ADDGA1001+999999999GF100991001001999999001001MA1999999083901MD1410001+9999ME1315629REMSYN070AAXX  03094 17205 42965 02903 10006 21017 38390 48562 54000 333 10299;
0204172050999992000120312004+38480+042300FM-12+166599999V0202701N001512200019N0250001N1+00101-00201999999ADDAA199000091GA1041+012009069GF104991041051012501001001MA1999999083901MD1410001+9999ME1315629REMSYN082AAXX  03124 17205 32675 42703 10010 21020 38390 48562 54000 84500 333 84640 92417;EQDQ01  00002PRCP99
0193172050999992000120315004+38480+042300FM-12+166599999V0202701N001512200019N0250001N1-00201-00311999999ADDGA1051+012009069GF199999041051012501001001MA1999999084001MD1110101+9999ME1315719REMSYN082AAXX  03154 17205 42675 42703 11020 21031 38400 48571 51010 84500 333 85640 92417;EQDQ01+000042SCOTCV
0245172050999992000120318004+38480+042300FM-12+166599999V0202701N001010300019N0250001N1-00121-00161999999ADDAA199000091GA1041+012009069GA2061+030009039GF106991041051012501051001KA1120M+00201MA1999999084101MD1210101+9999ME1315819REMSYN094AAXX  03184 17205 32675 62702 11012 21016 38410 48581 52010 84550 333 10020 84640 86360 92417;EQDQ01  00002PRCP99
0196172050999992000120321004+38480+042300FM-12+166599999V0202701N001510270019N0200001N1-00201-00241999999ADDGA1041+012009069GA2081+027009049GF108991041051012501021999MA1999999084101MD1410001+9999ME1315819REMSYN088AAXX  03214 17205 42670 82703 11020 21024 38410 48581 54000 8452/ 333 84640 88459 92417;
0226172050999992000120400004+38480+042300FM-12+166599999V0202701N001510270019N0200001N1-00161-00201999999ADDAA199000091GA1041+012009069GA2081+027009049GF108991041051012501021999MA1999999084101MD1410001+9999ME1315819REMSYN088AAXX  04004 17205 32670 82703 11016 21020 38410 48581 54000 8452/ 333 84640 88459 92417;EQDQ01  00002PRCP99
0196172050999992000120403004+38480+042300FM-12+166599999V0202701N001510270019N0200001N1-00161-00201999999ADDGA1041+012009069GA2081+027009049GF108991041051012501021999MA1999999084101MD1410001+9999ME1315819REMSYN088AAXX  04034 17205 42670 82703 11016 21020 38410 48581 54000 8452/ 333 84640 88459 92417;
0275172050999992000120406004+38480+042300FM-12+166599999V0202701N001510300019N0200001N1-00101-00211999999ADDAA199000091GA1041+012009069GA2061+030009039GF106991041051012501051001IA1019IA2999-00309KA1120N-00261MA1999999084201MD1210101+9999ME1315909REMSYN106AAXX  04064 17205 32670 62703 11010 21021 38420 48590 52010 84550 333 21026 30103 55001 84640 86360 92417;EQDQ01  00002PRCP99
0196172050999992000120409004+38480+042300FM-12+166599999V0202701N001510300019N0200001N1+00061-00171999999ADDGA1041+012009069GA2061+030009039GF106991041051012501051001MA1999999084201MD1410001+9999ME1315909REMSYN088AAXX  04094 17205 42670 62703 10006 21017 38420 48590 54000 84550 333 84640 86360 92417;
0204172050999992000120412004+38480+042300FM-12+166599999V0202701N001512200019N0200001N1+00101-00181999999ADDAA199000091GA1041+012009069GF104991041051012501001001MA1999999084101MD1610101+9999ME1315799REMSYN082AAXX  04124 17205 32670 42703 10010 21018 38410 48579 56010 84500 333 84640 92417;EQDQ01  00002PRCP99
0174172050999992000120415004+38480+042300FM-12+166599999V0202701N001512200019N0200001N1-00101-00211999999ADDGA1041+012009069GF104991041051012501001001MA1999999084101MD1410001+9999ME1315819REMSYN082AAXX  04154 17205 42670 42703 11010 21021 38410 48581 54000 84500 333 84640 92417;
0201172050999992000120418004+38480+042300FM-12+166599999V0202701N001512200019N0250001N1-00101-00211999999ADDAA199000091GF104991041051012501001001KA1120M+00261MA1999999084101MD1410001+9999ME1315819REMSYN082AAXX  04184 17205 32675 42703 11010 21021 38410 48581 54000 84500 333 10026 92417;EQDQ01  00002PRCP99
0174172050999992000120421004+38480+042300FM-12+166599999V0202701N001512200019N0250001N1-00101-00211999999ADDGA1041+012009069GF104991041051012501001001MA1999999084101MD1410001+9999ME1315819REMSYN082AAXX  04214 17205 42675 42703 11010 21021 38410 48581 54000 84500 333 84640 92417;
0204172050999992000120500004+38480+042300FM-12+166599999V0203201N001012200019N0250001N1-00161-00201999999ADDAA199000091GA1041+012009069GF104991041051012501001001MA1999999084101MD1410001+9999ME1315819REMSYN082AAXX  05004 17205 32675 43202 11016 21020 38410 48581 54000 84500 333 84640 92417;EQDQ01  00002PRCP99
0174172050999992000120503004+38480+042300FM-12+166599999V0202701N002112200019N0250001N1-00201-00241999999ADDGA1041+012009069GF104991041051012501001001MA1999999084101MD1410001+9999ME1315819REMSYN082AAXX  05034 17205 42675 42704 11020 21024 38410 48581 54000 84500 333 84640 92417;
0253172050999992000120506004+38480+042300FM-12+166599999V0202701N001012200019N0250001N1-00141-00221999999ADDAA199000091GA1041+012009069GF104991041051012501001001IA1019IA2999-00409KA1120N-00301MA1999999084001MD1710101+9999ME1315719REMSYN100AAXX  05064 17205 32675 42702 11014 21022 38400 48571 57010 84500 333 21030 30104 55002 84640 92418;EQDQ01  00002PRCP99
0215172050999992000120509004+38480+042300FM-12+166599999V0202701N001010300019N0200001N1+00101-00181999999ADDGA1041+012009069GA2061+030009039GF106991041051012501999001MA1999999084001MD1410001+9999ME1315709REMSYN088AAXX  05094 17205 42670 62702 10010 21018 38400 48570 54000 84500 333 84640 86360 92418;EQDQ01+000002SCOMCG
0204172050999992000120512004+38480+042300FM-12+166599999V0202701N001012200019N0300001N1+00201-00271999999ADDAA199000091GA1021+012009069GF102991021051012501001001MA1999999083901MD1610101+9999ME1315609REMSYN082AAXX  05124 17205 32680 22702 10020 21027 38390 48560 56010 82500 333 82640 92418;EQDQ01  00002PRCP99
0162172050999992000120515004+38480+042300FM-12+166599999V0202701N001012200019N0300001N1-00101-00271999999ADDGA1001+999999999GF100991001001999999001001MA1999999083901MD1410001+9999ME1315629REMSYN070AAXX  05154 17205 42980 02702 11010 21027 38390 48562 54000 333 10299;
0223172050999992000120518004+38480+042300FM-12+166599999V0202701N001012200019N0300001N1-00141-00271999999ADDAA199000091GA1021+012009069GF102991021051012501001001KA1120M+00301MA1999999084001MD1110101+9999ME1315719REMSYN088AAXX  05184 17205 32680 22702 11014 21027 38400 48571 51010 82500 333 10030 82640 92418;EQDQ01  00002PRCP99
0174172050999992000120521004+38480+042300FM-12+166599999V0202701N001012200019N0250001N1-00141-00221999999ADDGA1041+012009069GF104991041051012501001001MA1999999084001MD1410001+9999ME1315719REMSYN082AAXX  05214 17205 42675 42702 11014 21022 38400 48571 54000 84500 333 84640 92417;
0204172050999992000120600004+38480+042300FM-12+166599999V0209999C000012200019N0250001N1-00201-00241999999ADDAA199000091GA1041+012009069GF104991041051012501001001MA1999999084001MD1410001+9999ME1315719REMSYN082AAXX  06004 17205 32675 40000 11020 21024 38400 48571 54000 84500 333 84640 92417;EQDQ01  00002PRCP99
0174172050999992000120603004+38480+042300FM-12+166599999V0202701N001012200019N0250001N1-00301-00391999999ADDGA1041+012009069GF104991041051012501001001MA1999999083901MD1710101+9999ME1315639REMSYN082AAXX  06034 17205 42675 42702 11030 21039 38390 48563 57010 84500 333 84640 92417;
0253172050999992000120606004+38480+042300FM-12+166599999V0209999C000012200019N0250001N1-00201-00311999999ADDAA199000091GA1041+012009069GF104991041051012501001001IA1019IA2999-00509KA1120N-00401MA1999999083901MD1410001+9999ME1315629REMSYN100AAXX  06064 17205 32675 40000 11020 21031 38390 48562 54000 84500 333 21040 30105 55000 84640 92417;EQDQ01  00002PRCP99
0174172050999992000120609004+38480+042300FM-12+166599999V0202901N001512200019N0250001N1+00161-00211999999ADDGA1021+012009069GF102991021051012501001001MA1999999083901MD1410001+9999ME1315609REMSYN082AAXX  06094 17205 42675 22903 10016 21021 38390 48560 54000 82500 333 82640 92417;
0204172050999992000120612004+38480+042300FM-12+166599999V0202901N001512200019N0250001N1+00101-00231999999ADDAA199000091GA1031+012009069GF103991031051012501001001MA1999999083801MD1610101+9999ME1315519REMSYN082AAXX  06124 17205 32675 32903 10010 21023 38380 48551 56010 83500 333 83640 92417;EQDQ01  00002PRCP99
0150172050999992000120615004+38480+042300FM-12+166599999V0202901N001512200019N0250001N1-00241-00281999999ADDGA1021+012009069GF102991999999012501999999MA1999999083701REMSYN081AAXX  06154 17205 42675 22903 11024 21028 38370 4533 56010 82500 333 82640 92417;
0245172050999992000120618004+38480+042300FM-12+166599999V0209999C000010120019N0150001N1-00241-00281999999ADDAA199000091GA1051+012009069GA2081+027009049GF108991051051012501021999KA1120M+00301MA1999999083801MD1110101+9999ME1315519REMSYN094AAXX  06184 17205 32665 80000 11024 21028 38380 48551 51010 8552/ 333 10030 85640 88459 92417;EQDQ01  00002PRCP99
0196172050999992000120621004+38480+042300FM-12+166599999V0209999C000010120019N0150001N1-00101-00201999999ADDGA1051+012009069GA2081+027009049GF108991051051012501021999MA1999999083701MD1610101+9999ME1315439REMSYN088AAXX  06214 17205 42665 80000 11010 21020 38370 48543 56010 8552/ 333 85640 88459 92417;
0226172050999992000120700004+38480+042300FM-12+166599999V0202901N001510120019N0150001N1-00201-00291999999ADDAA199000091GA1051+012009069GA2081+027009049GF108991051051012501021999MA1999999083701MD1410001+9999ME1315439REMSYN088AAXX  07004 17205 32665 82903 11020 21029 38370 48543 54000 8552/ 333 85640 88459 92417;EQDQ01  00002PRCP99
0196172050999992000120703004+38480+042300FM-12+166599999V0202901N001510120019N0150001N1-00341-00411999999ADDGA1051+012009069GA2081+027009049GF108991051051012501021999MA1999999083501MD1710201+9999ME1315259REMSYN088AAXX  07034 17205 42665 82903 11034 21041 38350 48525 57020 8552/ 333 85640 88459 92417;
0275172050999992000120706004+38480+042300FM-12+166599999V0209999C000010300019N0250001N1-00301-00341999999ADDAA199000091GA1041+012009069GA2061+030009039GF106991041051012501051001IA1019IA2999-00509KA1120N-00401MA1999999083501MD1410001+9999ME1315259REMSYN106AAXX  07064 17205 32675 60000 11030 21034 38350 48525 54000 84550 333 21040 30105 55002 84640 86360 92417;EQDQ01  00002PRCP99
0174172050999992000120709004+38480+042300FM-12+166599999V0202901N001512200019N0250001N1+00001-00241999999ADDGA1041+012009069GF104991041051012501001001MA1999999083501MD1410001+9999ME1315299REMSYN082AAXX  07094 17205 42675 42903 10000 21024 38350 48529 54000 84500 333 84640 92417;
0204172050999992000120712004+38480+042300FM-12+166599999V0202901N001512200019N0250001N1+00101-00281999999ADDAA199000091GA1041+012009069GF104991041051012501001001MA1999999083301MD1710201+9999ME1315039REMSYN082AAXX  07124 17205 32675 42903 10010 21028 38330 48503 57020 84500 333 84640 92417;EQDQ01  00002PRCP99
0196172050999992000120715004+38480+042300FM-12+166599999V0202901N001510270019N0250001N1-00301-00431999999ADDGA1041+012009069GA2061+027009039GF106991041051012501051001MA1999999083301MD1410001+9999ME1315069REMSYN088AAXX  07154 17205 42675 62903 11030 21043 38330 48506 54000 84550 333 84640 86359 92417;
0206172050999992000120718004+38480+042300FM-12+166599999V0202301N999992200019N0250001N1+99999+99999999999ADDAA199000091GA1021+012009069GF102991021051012501001001KA1120M+00241MD1410001+9999ME1315069REMSYN070AAXX  07184 17205 32675 22383 48506 54000 82500 333 10024 82640 92417;EQDQ01+004273WOSPD Q02  00002PRCP99
0162172050999992000120721004+38480+042300FM-12+166599999V0209999C000012200019N0250001N1-00341-00411999999ADDGA1001+999999999GF100991001001999999001001MA1999999083301MD1410001+9999ME1315069REMSYN070AAXX  07214 17205 42975 00000 11034 21041 38330 48506 54000 333 10226;
0192172050999992000120800004+38480+042300FM-12+166599999V0202701N001012200019N0250001N1-00301-00431999999ADDAA199000091GA1001+999999999GF100991001001999999001001MA1999999083301MD1410001+9999ME1315069REMSYN070AAXX  08004 17205 32975 02702 11030 21043 38330 48506 54000 333 10218;EQDQ01  00002PRCP99
0162172050999992000120803004+38480+042300FM-12+166599999V0202901N001512200019N0250001N1-00301-00431999999ADDGA1001+999999999GF100991001001999999001001MA1999999083301MD1410001+9999ME1315069REMSYN070AAXX  08034 17205 42975 02903 11030 21043 38330 48506 54000 333 10234;
0253172050999992000120806004+38480+042300FM-12+166599999V0202901N001512200019N0300001N1-00401-00491999999ADDAA199000091GA1021+012009069GF102991021051012501001001IA1019IA2999-00509KA1120N-00461MA1999999083401MD1110101+9999ME1315159REMSYN100AAXX  08064 17205 32680 22903 11040 21049 38340 48515 51010 82500 333 21046 30105 55002 82640 92418;EQDQ01  00002PRCP99
0174172050999992000120809004+38480+042300FM-12+166599999V0202701N001512200019N0250001N1-00041-00321999999ADDGA1041+012009069GF104991041051012501001001MA1999999083401MD1410001+9999ME1315139REMSYN082AAXX  08094 17205 42675 42703 11004 21032 38340 48513 54000 84500 333 84640 92417;
0204172050999992000120812004+38480+042300FM-12+166599999V0202701N001012200019N0250001N1-00041-00391999999ADDAA199000091GA1041+012009069GF104991041051012501001001MA1999999083361MD1710041+9999ME1315139REMSYN082AAXX  08124 17205 32675 42702 11004 21039 38336 48513 57004 84500 333 84640 92417;EQDQ01  00002PRCP99
0174172050999992000120815004+38480+042300FM-12+166599999V0202701N001012200019N0250001N1-00221-00401999999ADDGA1041+012009069GF104991041051012501001001MA1999999083401MD1110041+9999ME1315149REMSYN082AAXX  08154 17205 42675 42702 11022 21040 38340 48514 51004 84500 333 84640 92417;
0223172050999992000120818004+38480+042300FM-12+166599999V0202701N001012200019N0250001N1-00241-00421999999ADDAA199000091GA1041+012009069GF104991041051012501001001KA1120M+00101MA1999999083501MD1210101+9999ME1315249REMSYN088AAXX  08184 17205 32675 42702 11024 21042 38350 48524 52010 84500 333 10010 84640 92417;EQDQ01  00002PRCP99
0174172050999992000120821004+38480+042300FM-12+166599999V0202701N001012200019N0250001N1-00361-00431999999ADDGA1021+012009069GF102991021051012501001001MA1999999083541MD1210041+9999ME1315259REMSYN082AAXX  08214 17205 42675 22702 11036 21043 38354 48525 52004 82500 333 82640 92417;
0204172050999992000120900004+38480+042300FM-12+166599999V0202701N001012200019N0250001N1-00361-00401999999ADDAA199000091GA1021+012009069GF102991021051012501001001MA1999999083541MD1410001+9999ME1315259REMSYN082AAXX  09004 17205 32675 22702 11036 21040 38354 48525 54000 82500 333 82640 92417;EQDQ01  00002PRCP99
0174172050999992000120903004+38480+042300FM-12+166599999V0202701N001512200019N0250001N1-00301-00341999999ADDGA1021+012009069GF102991021051012501001001MA1999999083501MD1610041+9999ME1315259REMSYN082AAXX  09034 17205 42675 22703 11030 21034 38350 48525 56004 82500 333 82640 92417;
0275172050999992000120906004+38480+042300FM-12+166599999V0209999C000010120019N0250001N1-00201-00311999999ADDAA199000091GA1051+012009069GA2081+027009049GF108991051051012501021999IA1019IA2999-00609KA1120N-00501MA1999999083601MD1110101+9999ME1315339REMSYN106AAXX  09064 17205 32675 80000 11020 21031 38360 48533 51010 8552/ 333 21050 30106 55002 85640 88459 92417;EQDQ01  00002PRCP99
0196172050999992000120909004+38480+042300FM-12+166599999V0200401N001510270019N0200001N1+00221-00301999999ADDGA1041+010509069GA2061+027009039GF106991041051012501051001MA1999999083601MD1410001+9999ME1315339REMSYN088AAXX  09094 17205 42670 60403 10022 21030 38360 48533 54000 84550 333 84635 86359 92417;
0226172050999992000120912004+38480+042300FM-12+166599999V0200201N001510270019N0200001N1+00301-00461999999ADDAA199000091GA1041+010509069GA2061+027009039GF106991041051012501051001MA1999999083501MD1810101+9999ME1315209REMSYN088AAXX  09124 17205 32670 60203 10030 21046 38350 48520 58010 84550 333 84635 86359 92417;EQDQ01  00002PRCP99
0196172050999992000120915004+38480+042300FM-12+166599999V0200201N001510270019N0200001N1+00301-00541999999ADDGA1041+010509069GA2061+027009039GF106991041051012501051001MA1999999083501MD1410001+9999ME1315209REMSYN088AAXX  09154 17205 42670 60203 10030 21054 38350 48520 54000 84550 333 84635 86359 92417;
0245172050999992000120918004+38480+042300FM-12+166599999V0200701N004610270019N0200001N1+00301-00491999999ADDAA199000091GA1041+010509069GA2061+027009039GF106991041051012501051001KA1120M+00401MA1999999083501MD1410001+9999ME1315209REMSYN094AAXX  09184 17205 32670 60709 10030 21049 38350 48520 54000 84550 333 10040 84635 86359 92427;EQDQ01  00002PRCP99
0196172050999992000120921004+38480+042300FM-12+166599999V0200701N004610270019N0200001N1+00301-00431999999ADDGA1041+010509069GA2061+027009039GF106991041051012501051001MA1999999083501MD1410001+9999ME1315209REMSYN088AAXX  09214 17205 42670 60709 10030 21043 38350 48520 54000 84550 333 84635 86359 92427;
0226172050999992000121000004+38480+042300FM-12+166599999V0200201N004610270019N0200001N1+00261-00421999999ADDAA199000091GA1041+010509069GA2061+027009039GF106991041051012501051001MA1999999083501MD1410001+9999ME1315209REMSYN088AAXX  10004 17205 32670 60209 10026 21042 38350 48520 54000 84550 333 84635 86359 92427;EQDQ01  00002PRCP99
0196172050999992000121003004+38480+042300FM-12+166599999V0200201N004610270019N0200001N1+00261-00421999999ADDGA1041+010509069GA2061+027009039GF106991041051012501051001MA1999999083501MD1410001+9999ME1315209REMSYN088AAXX  10034 17205 42670 60209 10026 21042 38350 48520 54000 84550 333 84635 86359 92427;
0275172050999992000121006004+38480+042300FM-12+166599999V0200201N004610300019N0250001N1+00261-00421999999ADDAA199000091GA1041+012009069GA2061+030009039GF106991041051012501051001IA1019IA2999+00109KA1120N+00141MA1999999083501MD1410001+9999ME1315209REMSYN106AAXX  10064 17205 32675 60209 10026 21042 38350 48520 54000 84550 333 20014 30001 55000 84640 86360 92427;EQDQ01  00002PRCP99
0196172050999992000121009004+38480+042300FM-12+166599999V0200201N003610300019N0250001N1+00361-00471999999ADDGA1041+012009069GA2061+030009039GF106991041051012501051001MA1999999083401MD1710101+9999ME1315119REMSYN088AAXX  10094 17205 42675 60207 10036 21047 38340 48511 57010 84550 333 84640 86360 92427;
0226172050999992000121012004+38480+042300FM-12+166599999V0200201N003610300019N0250001N1+00501-00391999999ADDAA199000091GA1041+012009069GA2061+030009039GF106991041051012501051001MA1999999083301MD1710101+9999ME1315009REMSYN088AAXX  10124 17205 32675 60207 10050 21039 38330 48500 57010 84550 333 84640 86360 92427;EQDQ01  00002PRCP99
0196172050999992000121015004+38480+042300FM-12+166599999V0200201N003610300019N0250001N1+00461-00331999999ADDGA1041+012009069GA2061+030009039GF106991041051012501051001MA1999999083301MD1410001+9999ME1315009REMSYN088AAXX  10154 17205 42675 60207 10046 21033 38330 48500 54000 84550 333 84640 86360 92427;
0245172050999992000121018004+38480+042300FM-12+166599999V0200201N004110300019N0250001N1+00401-00411999999ADDAA199000091GA1041+012009069GA2061+030009039GF106991041051012501051001KA1120M+00561MA1999999083301MD1410001+9999ME1315009REMSYN094AAXX  10184 17205 32675 60208 10040 21041 38330 48500 54000 84550 333 10056 84640 86360 92427;EQDQ01  00002PRCP99
0196172050999992000121021004+38480+042300FM-12+166599999V0200201N003610300019N0250001N1+00301-00491999999ADDGA1041+012009069GA2061+030009039GF106991041051012501051001MA1999999083301MD1410001+9999ME1315009REMSYN088AAXX  10214 17205 42675 60207 10030 21049 38330 48500 54000 84550 333 84640 86360 92427;
0226172050999992000121100004+38480+042300FM-12+166599999V0200201N003110300019N0250001N1+00261-00421999999ADDAA199000091GA1041+012009069GA2061+030009039GF106991041051012501051001MA1999999083301MD1410001+9999ME1315029REMSYN088AAXX  11004 17205 32675 60206 10026 21042 38330 48502 54000 84550 333 84640 86360 92427;EQDQ01  00002PRCP99
0196172050999992000121103004+38480+042300FM-12+166599999V0200201N001010105019N0250001N1+00261-00421999999ADDGA1051+010509069GA2081+027009049GF108991051051012501021999MA1999999083101MD1710201+9999ME1314839REMSYN088AAXX  11034 17205 42675 80202 10026 21042 38310 48483 57020 8552/ 333 85635 88459 92417;
0275172050999992000121106004+38480+042300FM-12+166599999V0200201N001010300019N0200001N1+00201-00441999999ADDAA199000091GA1041+012009069GA2061+030009039GF106991041051012501051001IA1019IA2999-00109KA1120N+00001MA1999999083201MD1110101+9999ME1314929REMSYN106AAXX  11064 17205 32670 60202 10020 21044 38320 48492 51010 84550 333 20000 30101 55001 84640 86360 92417;EQDQ01  00002PRCP99
0196172050999992000121109004+38480+042300FM-12+166599999V0200201N001510300019N0200001N1+00321-00411999999ADDGA1041+012009069GA2061+030009039GF106991041051012501051001MA1999999083101MD1610101+9999ME1314819REMSYN088AAXX  11094 17205 42670 60203 10032 21041 38310 48481 56010 84550 333 84640 86360 92417;
0204172050999992000121112004+38480+042300FM-12+166599999V0200901N001012200019N0250001N1+00401-00441999999ADDAA199000091GA1041+012009069GF104991041051012501001001MA1999999083001MD1610101+9999ME1314729REMSYN082AAXX  11124 17205 32675 40902 10040 21044 38300 48472 56010 84500 333 84640 92417;EQDQ01  00002PRCP99
0174172050999992000121115004+38480+042300FM-12+166599999V0202901N001512200019N0250001N1+00201-00441999999ADDGA1041+012009069GF104991041051012501001001MA1999999083001MD1410001+9999ME1315029REMSYN082AAXX  11154 17205 42675 42903 10020 21044 38300 48502 54000 84500 333 84640 92417;
0223172050999992000121118004+38480+042300FM-12+166599999V0209999C000012200019N0250001N1+00101-00451999999ADDAA199000091GA1041+012009069GF104991041051012501001001KA1120M+00501MA1999999083101MD1110101+9999ME1314839REMSYN088AAXX  11184 17205 32675 40000 10010 21045 38310 48483 51010 84500 333 10050 84640 92417;EQDQ01  00002PRCP99
0174172050999992000121121004+38480+042300FM-12+166599999V0209999C000012200019N0200001N1-00101-00331999999ADDGA1041+012009069GF104991041051012501001001MA1999999083101MD1410001+9999ME1314849REMSYN082AAXX  11214 17205 42670 40000 11010 21033 38310 48484 54000 84500 333 84640 92417;
0204172050999992000121200004+38480+042300FM-12+166599999V0209999C000012200019N0200001N1+00001-00341999999ADDAA199000091GA1041+012009069GF104991041051012501001001MA1999999083101MD1410001+9999ME1314849REMSYN082AAXX  12004 17205 32670 40000 10000 21034 38310 48484 54000 84500 333 84640 92417;EQDQ01  00002PRCP99
0275172050999992000121206004+38480+042300FM-12+166599999V0202901N001510120019N0200001N1+00201-00641999999ADDAA199000091GA1051+012009069GA2081+027009049GF108991051051012501021999IA1019IA2999-00309KA1120N-00261MA1999999083101MD1110061+9999ME1314839REMSYN106AAXX  12064 17205 32670 82903 10020 21064 38310 48483 51006 8552/ 333 21026 30103 55001 85640 88459 92417;EQDQ01  00002PRCP99
0196172050999992000121209004+38480+042300FM-12+166599999V0202701N002610105019N0200001N1+00281-00381999999ADDGA1051+010509069GA2081+027009049GF108991051051012501021999MA1999999083201MD1310101+9999ME1314949REMSYN088AAXX  12094 17205 42670 82705 10028 21038 38320 48494 53010 8552/ 333 85635 88459 92417;
0226172050999992000121212004+38480+042300FM-12+166599999V0202701N002610090019N0150001N1+00201-00271999999ADDAA199000091GA1051+009009069GA2081+024009049GF108991051051008001021999MA1999999083201MD1410001+9999ME1314949REMSYN088AAXX  12124 17205 32565 82705 10020 21027 38320 48494 54000 8552/ 333 85630 88458 92416;EQDQ01  00002PRCP99
0196172050999992000121215004+38480+042300FM-12+166599999V0202701N001510300019N0200001N1+00161-00161999999ADDGA1041+012009069GA2061+030009039GF106991041051012501051001MA1999999083301MD1210101+9999ME1315029REMSYN088AAXX  12154 17205 42670 62703 10016 21016 38330 48502 52010 84550 333 84640 86360 92417;
0244172050999992000121218004+38480+042300FM-12+166599999V0202701N00151030001CN0200001N1+00101-00231999999ADDAA199000091GA1041+012009069GA2061+030009039GF106991999999012501999999KA1120M+00361MA1999999083301MD1410001+9999ME1315029REMSYN093AAXX  12184 17205 32670 62703 10010 21023 38330 48502 54000 8450 333 10036 84640 86360 92417;EQDQ01  00002PRCP99
0196172050999992000121221004+38480+042300FM-12+166599999V0202701N002610300019N0200001N1+00061-00331999999ADDGA1041+012009069GA2061+030009039GF106991041051012501051001MA1999999083301MD1410001+9999ME1315029REMSYN088AAXX  12214 17205 42670 62705 10006 21033 38330 48502 54000 84550 333 84640 86360 92427;
0226172050999992000121300004+38480+042300FM-12+166599999V0202701N001510120019N0200001N1+00061-00331999999ADDAA199000091GA1051+012009069GA2081+027009049GF108991051051012501021999MA1999999083301MD1410001+9999ME1315029REMSYN088AAXX  13004 17205 32670 82703 10006 21033 38330 48502 54000 8552/ 333 85640 88459 92417;EQDQ01  00002PRCP99
0196172050999992000121303004+38480+042300FM-12+166599999V0209999C000010120019N0200001N1+00101-00471999999ADDGA1051+012009069GA2081+027009049GF108991051051012501021999MA1999999083301MD1410001+9999ME1315029REMSYN088AAXX  13034 17205 42670 80000 10010 21047 38330 48502 54000 8552/ 333 85640 88459 92417;
0275172050999992000121306004+38480+042300FM-12+166599999V0209999C000010120019N0200001N1+00101-00471999999ADDAA199000091GA1051+012009069GA2081+027009049GF108991051051012501021999IA1019IA2999+00009KA1120N+00001MA1999999083301MD1410001+9999ME1315039REMSYN106AAXX  13064 17205 32670 80000 10010 21047 38330 48503 54000 8552/ 333 20000 30000 55000 85640 88459 92417;EQDQ01  00002PRCP99
0224172050999992000121309004+38480+042300FM-12+166599999V0209999C000010090019N0050001N1+00101-00131999999ADDAY171031AY221031GA1051+009009069GA2081+021009049GF108991051051008001021999MA1999999083201MD1710101+9999ME1314929MW1701REMSYN094AAXX  13094 17205 41550 80000 10010 21013 38320 48492 57010 77072 8552/ 333 85630 88457 92415;
0270172050999992000121312004+38480+042300FM-12+166599999V0209999C000010090019N0050001N1+00101+00001999999ADDAA106002091AL10600091AY171061AY271061GA1051+009009069GA2081+021009049GF108991051051008001021999MA1999999083201MD1410001+9999ME1314929MW1701UA1M999999019REMSYN106AAXX  13124 17205 11550 80000 10010 20000 38320 48492 54000 60021 77077 8552/ 333 85630 88457 92414 93100;
0224172050999992000121315004+38480+042300FM-12+166599999V0200701N002110090019N0030001N1+00061-00011999999ADDAY171031AY271031GA1051+009009069GA2081+021009049GF108991051051008001021999MA1999999083101MD1610101+9999ME1314849MW1701REMSYN094AAXX  13154 17205 41530 80704 10006 21001 38310 48484 56010 77077 8552/ 333 85630 88457 92414;
0289172050999992000121318004+38480+042300FM-12+166599999V0200701N001510090019N0030001N1+00041+00021999999ADDAA112008991AL10600391AY171061AY271061GA1051+009009069GA2081+021009049GF108991051051008001021999KA1120M+00241MA1999999083101MD1410001+9999ME1314849MW1701UA1M999999019REMSYN112AAXX  13184 17205 11530 80703 10004 20002 38310 48484 54000 60092 77077 8552/ 333 10024 85630 88457 92414 93103;
0224172050999992000121321004+38480+042300FM-12+166599999V0209999C000010090019N0050001N1+00041+00021999999ADDAY171031AY271031GA1051+009009069GA2081+021009049GF108991051051008001021999MA1999999083101MD1410001+9999ME1314849MW1701REMSYN094AAXX  13214 17205 41550 80000 10004 20002 38310 48484 54000 77077 8552/ 333 85630 88457 92415;
0270172050999992000121400004+38480+042300FM-12+166599999V0209999C000010090019N0050001N1+00041+00021999999ADDAA106003091AL10600291AY171061AY271061GA1051+009009069GA2081+021009049GF108991051051008001021999MA1999999083001MD1710101+9999ME1314749MW1701UA1M999999019REMSYN106AAXX  14004 17205 11550 80000 10004 20002 38300 48474 57010 60031 77077 8552/ 333 85630 88457 92415 93102;
0224172050999992000121403004+38480+042300FM-12+166599999V0209999C000010090019N0050001N1+00041+00021999999ADDAY171031AY271031GA1051+009009069GA2081+021009049GF108991051051008001021999MA1999999082901MD1710101+9999ME1314659MW1701REMSYN094AAXX  14034 17205 41550 80000 10004 20002 38290 48465 57010 77077 8552/ 333 85630 88457 92415;
0348172050999992000121406004+38480+042300FM-12+166599999V0209999C000010090019N0050001N1+00101+00061999999ADDAA112005191AJ100049199999999AL10600191AY171061AY271061GA1051+009009069GA2081+021009049GF108991051051008001021999IA1239IA2999-00109KA1120N-00061MA1999999082901MD1410001+9999ME1314639MW1701UA1M999999019REMSYN136AAXX  14064 17205 11550 80000 10010 20006 38290 48463 54000 60052 77077 8552/ 333 21006 3/101 47004 55000 70050 85630 88457 92416 93101;
0196172050999992000121409004+38480+042300FM-12+166599999V0202501N001010105019N0150001N1+00181-00111999999ADDGA1051+010509069GA2081+027009049GF108991051051012501021999MA1999999082901MD1410001+9999ME1314639REMSYN088AAXX  14094 17205 42665 82502 10018 21011 38290 48463 54000 8552/ 333 85635 88459 92416;
0270172050999992000121412004+38480+042300FM-12+166599999V0202501N001510105019N0150001N1+00201-00231999999ADDAA106000391AL10600091AY171061AY221061GA1051+010509069GA2081+027009049GF108991051051012501021999MA1999999082801MD1610101+9999ME1314539MW1021UA1M999999019REMSYN106AAXX  14124 17205 11665 82503 10020 21023 38280 48453 56010 69931 70272 8552/ 333 85635 88459 92417 93100;
0196172050999992000121415004+38480+042300FM-12+166599999V0202701N001010270019N0150001N1+00021-00291999999ADDGA1041+010509069GA2061+027009039GF106991041051012501051001MA1999999082901MD1110101+9999ME1314559REMSYN088AAXX  14154 17205 42665 62702 10002 21029 38290 48455 51010 84550 333 84635 86359 92417;
0232172050999992000121418004+38480+042300FM-12+166599999V0202701N001510270019N0150001N1-00041-00251999999ADDAA112000391GA1041+010509069GA2061+027009039GF106991041051012501051001KA1120M+00241MA1999999083001MD1210101+9999ME1314749REMSYN100AAXX  14184 17205 12665 62703 11004 21025 38300 48474 52010 69932 84550 333 10024 84635 86359 92417;
0196172050999992000121421004+38480+042300FM-12+166599999V0202701N001510105019N0100001N1+00041-00301999999ADDGA1051+010509069GA2081+027009049GF108991051051012501021999MA1999999083001MD1410001+9999ME1314749REMSYN088AAXX  14214 17205 42660 82703 10004 21030 38300 48474 54000 8552/ 333 85635 88459 92416;
0226172050999992000121500004+38480+042300FM-12+166599999V0202701N001010105019N0100001N1-00041-00291999999ADDAA199000091GA1051+010509069GA2081+027009049GF108991051051012501021999MA1999999083001MD1410001+9999ME1314749REMSYN088AAXX  15004 17205 32660 82702 11004 21029 38300 48474 54000 8552/ 333 85635 88459 92416;EQDQ01  00002PRCP99
0196172050999992000121503004+38480+042300FM-12+166599999V0202701N001510270019N0100001N1-00041-00391999999ADDGA1041+010509069GA2061+027009039GF106991041051012501051001MA1999999082901MD1810101+9999ME1314659REMSYN088AAXX  15034 17205 42660 62703 11004 21039 38290 48465 58010 84550 333 84635 86359 92416;
0298172050999992000121506004+38480+042300FM-12+166599999V0209999C000010270019N0200001N1+00041-00381999999ADDAA124000391AJ199991999999999GA1041+012009069GA2061+027009039GF106991041051012501051001IA1259IA2999-00209KA1120N-00141MA1999999083001MD1110101+9999ME1314749REMSYN112AAXX  15064 17205 32670 60000 10004 21038 38300 48474 51010 84550 333 21014 3/102 41999 70003 84640 86359 92417;EQDQ01  09962SNDP  
0196172050999992000121509004+38480+042300FM-12+166599999V0202901N001010270019N0200001N1+00201-00501999999ADDGA1041+010509069GA2061+027009039GF106991041051012501051001MA1999999083001MD1410001+9999ME1314739REMSYN088AAXX  15094 17205 42670 62902 10020 21050 38300 48473 54000 84550 333 84635 86359 92417;
0226172050999992000121512004+38480+042300FM-12+166599999V0202701N001510270019N0200001N1+00201-00501999999ADDAA199000091GA1041+010509069GA2061+027009039GF106991041051012501051001MA1999999082941MD1810061+9999ME1314639REMSYN088AAXX  15124 17205 32670 62703 10020 21050 38294 48463 58006 84550 333 84635 86359 92417;EQDQ01  00002PRCP99
0196172050999992000121515004+38480+042300FM-12+166599999V0202701N001510270019N0200001N1+00101-00621999999ADDGA1041+010509069GA2061+027009039GF106991041051012501051001MA1999999082941MD1410001+9999ME1314639REMSYN088AAXX  15154 17205 42670 62703 10010 21062 38294 48463 54000 84550 333 84635 86359 92417;
0245172050999992000121518004+38480+042300FM-12+166599999V0202701N002110270019N0200001N1+00061-00731999999ADDAA199000091GA1041+010509069GA2061+027009039GF106991041051012501051001KA1120M+00341MA1999999083101MD1210141+9999ME1314849REMSYN094AAXX  15184 17205 32670 62704 10006 21073 38310 48484 52014 84550 333 10034 84635 86359 92417;EQDQ01  00002PRCP99
0196172050999992000121521004+38480+042300FM-12+166599999V0202701N001010270019N0200001N1+00021-00491999999ADDGA1041+010509069GA2061+027009039GF106991041051012501051001MA1999999083201MD1110101+9999ME1314949REMSYN088AAXX  15214 17205 42670 62702 10002 21049 38320 48494 51010 84550 333 84635 86359 92417;
0226172050999992000121600004+38480+042300FM-12+166599999V0202701N001510270019N0200001N1-00141-00501999999ADDAA199000091GA1041+012009069GA2061+027009039GF106991041051012501051001MA1999999083301MD1110101+9999ME1315059REMSYN088AAXX  16004 17205 32670 62703 11014 21050 38330 48505 51010 84550 333 84640 86359 92417;EQDQ01  00002PRCP99
0196172050999992000121603004+38480+042300FM-12+166599999V0202701N001510270019N0200001N1-00101-00431999999ADDGA1041+012009069GA2061+027009039GF106991041051012501051001MA1999999083301MD1410001+9999ME1315059REMSYN088AAXX  16034 17205 42670 62703 11010 21043 38330 48505 54000 84550 333 84640 86359 92417;
0292172050999992000121606004+38480+042300FM-12+166599999V0202901N001512200019N0300001N1-00101-00431999999ADDAA199000091AJ199991999999999GA1021+012009069GF102991021051012501001001IA1259IA2999-00309KA1120N-00221MA1999999083501MD1210201+9999ME1315249REMSYN106AAXX  16064 17205 32680 22903 11010 21043 38350 48524 52020 82500 333 21022 3/103 41999 55000 82640 92418;EQDQ01  00002PRCP99Q02  09962SNDP  
0174172050999992000121609004+38480+042300FM-12+166599999V0202901N001512200019N0300001N1+00321-00461999999ADDGA1021+012009069GF102991021051012501001001MA1999999083501MD1410001+9999ME1315209REMSYN082AAXX  16094 17205 42680 22903 10032 21046 38350 48520 54000 82500 333 82640 92418;
0203172050999992000121612004+38480+042300FM-12+166599999V0202501N002112200019N0300001N1+00301-00491999999ADDAA199000091GA1041+012009069GF104991041051012501001001MA1999999083501MD1410001+9999ME1315209REMSYN081AAXX  16124 17205 32680 42504 10030 21049 38350 4852054000 84500 333 84640 92428;EQDQ01  00002PRCP99
0174172050999992000121615004+38480+042300FM-12+166599999V0202701N001512200019N0300001N1+00161-00491999999ADDGA1041+012009069GF104991041051012501001001MA1999999083501MD1410001+9999ME1315229REMSYN082AAXX  16154 17205 42680 42703 10016 21049 38350 48522 54000 84500 333 84640 92418;
0223172050999992000121618004+38480+042300FM-12+166599999V0202501N003112200019N0300001N1+00141-00341999999ADDAA199000091GA1041+012009069GF104991041051012501001001KA1120M+00401MA1999999083801MD1210301+9999ME1315519REMSYN088AAXX  16184 17205 32680 42506 10014 21034 38380 48551 52030 84500 333 10040 84640 92428;EQDQ01  00002PRCP99
0174172050999992000121621004+38480+042300FM-12+166599999V0202501N001512200019N0300001N1+00261-00361999999ADDGA1041+012009069GF104991041051012501001001MA1999999083801MD1410001+9999ME1315519REMSYN082AAXX  16214 17205 42680 42503 10026 21036 38380 48551 54000 84500 333 84640 92418;
0226172050999992000121700004+38480+042300FM-12+166599999V0202501N002110300019N0300001N1+00141-00341999999ADDAA199000091GA1041+012009069GA2061+030009039GF106991041051012501051001MA1999999083801MD1410001+9999ME1315519REMSYN088AAXX  17004 17205 32680 62504 10014 21034 38380 48551 54000 84550 333 84640 86360 92418;EQDQ01  00002PRCP99
0196172050999992000121703004+38480+042300FM-12+166599999V0202901N002110300019N0300001N1+00141-00341999999ADDGA1041+012009069GA2061+030009039GF106991041051012501051001MA1999999083801MD1410001+9999ME1315519REMSYN088AAXX  17034 17205 42680 62904 10014 21034 38380 48551 54000 84550 333 84640 86360 92418;
0314172050999992000121706004+38480+042300FM-12+166599999V0202901N001510300019N0250001N1+00301-00151999999ADDAA199000091AJ199991999999999GA1041+012009069GA2061+030009039GF106991041051012501051001IA1259IA2999-00109KA1120N+00001MA1999999083801MD1410001+9999ME1315509REMSYN112AAXX  17064 17205 32675 62903 10030 21015 38380 48550 54000 84550 333 20000 3/101 41999 55003 84640 86360 92418;EQDQ01  00002PRCP99Q02  09962SNDP  
0196172050999992000121709004+38480+042300FM-12+166599999V0202001N002110300019N0250001N1+00501-00171999999ADDGA1041+012009069GA2061+030009039GF106991041051012501051001MA1999999083801MD1410001+9999ME1315499REMSYN088AAXX  17094 17205 42675 62004 10050 21017 38380 48549 54000 84550 333 84640 86360 92418;
0226172050999992000121712004+38480+042300FM-12+166599999V0202001N002610300019N0250001N1+00461-00171999999ADDAA199000091GA1041+012009069GA2061+030009039GF106991041051012501051001MA1999999083701MD1710101+9999ME1315409REMSYN088AAXX  17124 17205 32675 62005 10046 21017 38370 48540 57010 84550 333 84640 86360 92418;EQDQ01  00002PRCP99
0196172050999992000121715004+38480+042300FM-12+166599999V0202001N002110300019N0250001N1+00421-00281999999ADDGA1041+012009069GA2061+030009039GF106991041051012501051001MA1999999083701MD1410001+9999ME1315409REMSYN088AAXX  17154 17205 42675 62004 10042 21028 38370 48540 54000 84550 333 84640 86360 92417;
0245172050999992000121718004+38480+042300FM-12+166599999V0202501N001510300019N0250001N1+00201-00021999999ADDAA199000091GA1041+012009069GA2061+030009039GF106991041051012501051001KA1120M+00601MA1999999083901MD1110101+9999ME1315609REMSYN094AAXX  17184 17205 32675 62503 10020 21002 38390 48560 51010 84550 333 10060 84640 86360 92417;EQDQ01  00002PRCP99
0196172050999992000121721004+38480+042300FM-12+166599999V0202901N001510300019N0250001N1+00161-00161999999ADDGA1041+012009069GA2061+030009039GF106991041051012501051001MA1999999083901MD1410001+9999ME1315609REMSYN088AAXX  17214 17205 42675 62903 10016 21016 38390 48560 54000 84550 333 84640 86360 92417;
0226172050999992000121800004+38480+042300FM-12+166599999V0202901N002110300019N0200001N1+00201-00071999999ADDAA199000091GA1041+012009069GA2061+030009039GF106991041051012501051001MA1999999083901MD1410001+9999ME1315609REMSYN088AAXX  18004 17205 32670 62904 10020 21007 38390 48560 54000 84550 333 84640 86360 92417;EQDQ01  00002PRCP99
0196172050999992000121803004+38480+042300FM-12+166599999V0202701N001510300019N0200001N1+00201-00021999999ADDGA1041+012009069GA2061+030009039GF106991041051012501051001MA1999999083901MD1410001+9999ME1315609REMSYN088AAXX  18034 17205 42670 62703 10020 21002 38390 48560 54000 84550 333 84640 86360 92417;
0275172050999992000121806004+38480+042300FM-12+166599999V0202001N001010300019N0250001N1+00241+00021999999ADDAA199000091GA1041+012009069GA2061+030009039GF106991041051012501051001IA1019IA2999+00009KA1120N+00061MA1999999083901MD1410001+9999ME1315629REMSYN106AAXX  18064 17205 32675 62002 10024 20002 38390 48562 54000 84550 333 20006 30000 55000 84640 86360 92417;EQDQ01  00002PRCP99
0196172050999992000121809004+38480+042300FM-12+166599999V0201601N001010300019N0200001N1+00501-00161999999ADDGA1041+012009069GA2061+030009039GF106991041051012501051001MA1999999083801MD1810101+9999ME1315509REMSYN088AAXX  18094 17205 42670 61602 10050 21016 38380 48550 58010 84550 333 84640 86360 92417;
0226172050999992000121812004+38480+042300FM-12+166599999V0202901N001010300019N0200001N1+00341+00081999999ADDAA199000091GA1041+012009069GA2061+030009039GF106991041051012501051001MA1999999083701MD1810101+9999ME1315319REMSYN088AAXX  18124 17205 32670 62902 10034 20008 38370 48531 58010 84550 333 84640 86360 92417;EQDQ01  00002PRCP99
0196172050999992000121815004+38480+042300FM-12+166599999V0202901N001010300019N0200001N1+00301+00041999999ADDGA1041+012009069GA2061+030009039GF106991041051012501051001MA1999999083601MD1610101+9999ME1315319REMSYN088AAXX  18154 17205 42670 62902 10030 20004 38360 48531 56010 84550 333 84640 86360 92417;
0174172050999992000121821004+38480+042300FM-12+166599999V0202501N002112200019N0200001N1+00401-00291999999ADDGA1041+012009069GF104991041051012501001001MA1999999083401MD1710101+9999ME1315119REMSYN082AAXX  18214 17205 42670 42504 10040 21029 38340 48511 57010 84500 333 84640 92417;
0226172050999992000121900004+38480+042300FM-12+166599999V0202901N001510300019N0200001N1+00241-00221999999ADDAA199000091GA1041+012009069GA2081+030009049GF108991041051012501051021MA1999999083401MD1410001+9999ME1315129REMSYN088AAXX  19004 17205 32670 82903 10024 21022 38340 48512 54000 84552 333 84640 88460 92417;EQDQ01  00002PRCP99
0196172050999992000121903004+38480+042300FM-12+166599999V0202501N001010300019N0200001N1+00241-00221999999ADDGA1041+012009069GA2081+030009049GF108991041051012501021999MA1999999083201MD1710201+9999ME1314929REMSYN088AAXX  19034 17205 42670 82502 10024 21022 38320 48492 57020 8452/ 333 84640 88460 92417;
0275172050999992000121906004+38480+042300FM-12+166599999V0202001N002110120019N0200001N1+00301-00261999999ADDAA199000091GA1051+012009069GA2081+030009049GF108991051051012501021999IA1019IA2999+00109KA1120N+00201MA1999999083101MD1710101+9999ME1314819REMSYN106AAXX  19064 17205 32670 82004 10030 21026 38310 48481 57010 8552/ 333 20020 30001 55000 85640 88460 92417;EQDQ01  00002PRCP99
0224172050999992000121909004+38480+042300FM-12+166599999V0202001N001010090019N0100001N1+00201-00021999999ADDAY171031AY221031GA1051+009009069GA2081+021009049GF108991051051008001021999MA1999999083001MD1710101+9999ME1314739MW1601REMSYN094AAXX  19094 17205 41560 82002 10020 21002 38300 48473 57010 76072 8552/ 333 85630 88457 92416;
0270172050999992000121912004+38480+042300FM-12+166599999V0202701N001510090019N0050001N1+00041-00051999999ADDAA106004191AL10600091AY171061AY261061GA1051+009009069GA2081+021009049GF108991051051008001021999MA1999999082801MD1710201+9999ME1314559MW1701UA1M999999019REMSYN106AAXX  19124 17205 11550 82703 10004 21005 38280 48455 57020 60041 77076 8552/ 333 85630 88457 92414 93100;
0207172050999992000121915004+38480+042300FM-12+166599999V0202701N00151021001CN0030001N1+00001-00071999999ADDAY171031AY271031GA1081+021009049GF108991051051008001021999MA1999999082801MD1410001+9999ME1314559MW1701REMSYN093AAXX  19154 17205 41530 82703 10000 21007 38280 48455 54000 77077 8552/ 333 8563 88457 92414;
0289172050999992000121918004+38480+042300FM-12+166599999V0202701N001510090019N0030001N1+00001-00071999999ADDAA112006191AL10600291AY171061AY271061GA1051+009009069GA2081+021009049GF108991051051008001021999KA1120M+00461MA1999999082901MD1210101+9999ME1314659MW1701UA1M999999019REMSYN112AAXX  19184 17205 11530 82703 10000 21007 38290 48465 52010 60062 77077 8552/ 333 10046 85630 88457 92414 93102;
0224172050999992000121921004+38480+042300FM-12+166599999V0202701N001510090019N0050001N1+00001-00071999999ADDAY171031AY271031GA1051+009009069GA2081+021009049GF108991051051008001021999MA1999999082901MD1410001+9999ME1314659MW1701REMSYN094AAXX  19214 17205 41550 82703 10000 21007 38290 48465 54000 77077 8552/ 333 85630 88457 92415;
0270172050999992000122000004+38480+042300FM-12+166599999V0202701N001510090019N0050001N1+00001-00071999999ADDAA106001091AL10600191AY171061AY271061GA1051+009009069GA2081+021009049GF108991051051008001021999MA1999999082801MD1710101+9999ME1314559MW1701UA1M999999019REMSYN106AAXX  20004 17205 11550 82703 10000 21007 38280 48455 57010 60011 77077 8552/ 333 85630 88457 92414 93101;
0224172050999992000122003004+38480+042300FM-12+166599999V0209999C000010090019N0050001N1+00001-00071999999ADDAY171031AY271031GA1051+009009069GA2081+021009049GF108991051051008001021999MA1999999082801MD1410001+9999ME1314559MW1701REMSYN094AAXX  20034 17205 41550 80000 10000 21007 38280 48455 54000 77077 8552/ 333 85630 88457 92414;
0348172050999992000122006004+38480+042300FM-12+166599999V0209999C000010090019N0150001N1+00041-00101999999ADDAA112002091AJ100039199999999AL10600191AY171061AY271061GA1051+009009069GA2081+021009049GF108991051051012501021999IA1239IA2999-00209KA1120N-00101MA1999999082701MD1710101+9999ME1314459MW1701UA1M999999019REMSYN136AAXX  20064 17205 11665 80000 10004 21010 38270 48445 57010 60022 77077 8552/ 333 21010 3/102 47003 55000 70080 85630 88457 92414 93101;
0224172050999992000122009004+38480+042300FM-12+166599999V0202001N001510090019N0050001N1+00081-00011999999ADDAY171031AY271031GA1051+009009069GA2081+021009049GF108991051051008001021999MA1999999082701MD1410001+9999ME1314459MW1701REMSYN094AAXX  20094 17205 41550 82003 10008 21001 38270 48445 54000 77077 8552/ 333 85630 88457 92414;
0270172050999992000122012004+38480+042300FM-12+166599999V0200901N001010090019N0030001N1+00061+00021999999ADDAA106006191AL10600291AY171061AY271061GA1051+009009069GA2081+021009049GF108991051051008001021999MA1999999082601MD1610101+9999ME1314369MW1701UA1M999999019REMSYN106AAXX  20124 17205 11530 80902 10006 20002 38260 48436 56010 60061 77077 8552/ 333 85630 88457 92414 93102;
0224172050999992000122015004+38480+042300FM-12+166599999V0202001N001010090019N0030001N1+00061+00021999999ADDAY171031AY271031GA1051+009009069GA2081+021009049GF108991051051008001021999MA1999999082501MD1610101+9999ME1314269MW1701REMSYN094AAXX  20154 17205 41530 82002 10006 20002 38250 48426 56010 77077 8552/ 333 85630 88457 92414;
0289172050999992000122018004+38480+042300FM-12+166599999V0202001N001510090019N0030001N1+00041+00011999999ADDAA112007191AL10600491AY171061AY271061GA1051+009009069GA2081+021009049GF108991051051008001021999KA1120M+00201MA1999999082501MD1410001+9999ME1314269MW1701UA1M999999019REMSYN112AAXX  20184 17205 11530 82003 10004 20001 38250 48426 54000 60072 77077 8552/ 333 10020 85630 88457 92414 93104;
0224172050999992000122021004+38480+042300FM-12+166599999V0202001N001010090019N0030001N1+00041+00011999999ADDAY171031AY271031GA1051+009009069GA2081+021009049GF108991051051008001021999MA1999999082301MD1810201+9999ME1314069MW1701REMSYN094AAXX  20214 17205 41530 82002 10004 20001 38230 48406 58020 77077 8552/ 333 85630 88457 92414;
0270172050999992000122100004+38480+042300FM-12+166599999V0202501N001510090019N0030001N1-00061-00121999999ADDAA106005191AL10600391AY171061AY271061GA1051+009009069GA2081+021009049GF108991051051008001021999MA1999999082301MD1410001+9999ME1314069MW1701UA1M999999019REMSYN106AAXX  21004 17205 11530 82503 11006 21012 38230 48406 54000 60051 77077 8552/ 333 85630 88457 92414 93103;
0224172050999992000122103004+38480+042300FM-12+166599999V0202501N002610090019N0030001N1-00061-00271999999ADDAY171031AY271031GA1051+009009069GA2081+021009049GF108991051051008001021999MA1999999082301MD1410001+9999ME1314069MW1701REMSYN094AAXX  21034 17205 41530 82505 11006 21027 38230 48406 54000 77077 8552/ 333 85630 88457 92414;
0348172050999992000122106004+38480+042300FM-12+166599999V0202501N002610090019N0050001N1-00101-00431999999ADDAA112007191AJ100079199999999AL10600291AY171061AY271061GA1051+009009069GA2081+027009049GF108991051051008001021999IA1239IA2999-00309KA1120N-00201MA1999999082401MD1210101+9999ME1314189MW1701UA1M999999029REMSYN136AAXX  21064 17205 11550 82505 11010 21043 38240 48418 52010 60072 77077 8552/ 333 21020 3/103 47007 55000 70192 85630 88459 92424 93102;
0224172050999992000122109004+38480+042300FM-12+166599999V0200701N004110270019N0080001N1-00181-00621999999ADDAY171031AY221031GA1041+009009069GA2061+027009039GF106991041051008001051001MA1999999082601MD1310201+9999ME1314379MW1101REMSYN094AAXX  21094 17205 41558 60708 11018 21062 38260 48437 53020 71072 84550 333 84630 86359 92426;
0270172050999992000122112004+38480+042300FM-12+166599999V0202901N002610090019N0060001N1-00201-00471999999ADDAA106001091AL10600291AY171061AY221061GA1051+009009069GA2081+024009049GF108991051051008001021999MA1999999082701MD1310101+9999ME1314479MW1701UA1M999999029REMSYN106AAXX  21124 17205 11556 82905 11020 21047 38270 48447 53010 60011 77072 8552/ 333 85630 88458 92426 93102;
0196172050999992000122115004+38480+042300FM-12+166599999V0202501N002610090019N0080001N1-00341-00481999999ADDGA1051+009009069GA2081+024009049GF108991051051008001021999MA1999999082801MD1210101+9999ME1314599REMSYN088AAXX  21154 17205 42558 82505 11034 21048 38280 48459 52010 8552/ 333 85630 88458 92416;
0174172050999992000122121004+38480+042300FM-12+166599999V0209999C000012200019N0150001N1-00461-00831999999ADDGA1041+012009069GF104991041051012501001001MA1999999083001MD1210101+9999ME1314779REMSYN082AAXX  21214 17205 42665 40000 11046 21083 38300 48477 52010 84500 333 84640 92416;
0173172050999992000122200004+38480+042300FM-12+166599999V0202701N001512200019N0200001N1-00601-00871999999ADDAA199000021GA1001+999999999GF100991001001999999001001MA1999999083101MD1210101+9999ME1314889REMSYN070AAXX  22004 17205 32970 02703 11060 21087 38310 48488 52010 333 10217;
0162172050999992000122203004+38480+042300FM-12+166599999V0209999C000012200019N0250001N1-00761-01061999999ADDGA1001+999999999GF100991001001999999001001MA1999999083101MD1410001+9999ME1314909REMSYN070AAXX  22034 17205 42975 00000 11076 21106 38310 48490 54000 333 10233;
0264172050999992000122206004+38480+042300FM-12+166599999V0209999C000012200019N0300001N1-00861-01111999999ADDAA199000091AJ100079199999999GA1001+999999999GF100991001001999999001001IA1239IA2999-01109KA1120N-01001MA1999999083301MD1210201+9999ME1315089REMSYN094AAXX  22064 17205 32980 00000 11086 21111 38330 48508 52020 333 21100 3/111 47007 55000 92418;EQDQ01  00002PRCP99
0162172050999992000122209004+38480+042300FM-12+166599999V0209999C000012200019N0300001N1-00461-00951999999ADDGA1001+999999999GF100991001001999999001001MA1999999083301MD1410001+9999ME1315069REMSYN070AAXX  22094 17205 42980 00000 11046 21095 38330 48506 54000 333 10250;
0204172050999992000122212004+38480+042300FM-12+166599999V0202701N002612200019N0300001N1-00441-01111999999ADDAA199000091GA1031+012009069GF103991031051012501001001MA1999999083301MD1410001+9999ME1315069REMSYN082AAXX  22124 17205 32680 32705 11044 21111 38330 48506 54000 83500 333 83640 92418;EQDQ01  00002PRCP99
0174172050999992000122215004+38480+042300FM-12+166599999V0202701N002112200019N0300001N1-00601-00871999999ADDGA1041+012009069GF104991041051012501001001MA1999999083401MD1110101+9999ME1315169REMSYN082AAXX  22154 17205 42680 42704 11060 21087 38340 48516 51010 84500 333 84640 92418;
0223172050999992000122218004+38480+042300FM-12+166599999V0202701N001512200019N0300001N1-00501-00761999999ADDAA199000091GA1021+012009069GF102991021051012501001001KA1120M-00301MA1999999083401MD1410001+9999ME1315169REMSYN088AAXX  22184 17205 32680 22703 11050 21076 38340 48516 54000 82500 333 11030 82640 92418;EQDQ01  00002PRCP99
0162172050999992000122221004+38480+042300FM-12+166599999V0202701N001512200019N0300001N1-00601-00871999999ADDGA1001+999999999GF100991001001999999001001MA1999999083401MD1410001+9999ME1315169REMSYN070AAXX  22214 17205 42980 02703 11060 21087 38340 48516 54000 333 10262;
0192172050999992000122300004+38480+042300FM-12+166599999V0202701N002112200019N0300001N1-00601-00871999999ADDAA199000091GA1001+999999999GF100991001001999999001001MA1999999083501MD1110101+9999ME1315269REMSYN070AAXX  23004 17205 32980 02704 11060 21087 38350 48526 51010 333 10274;EQDQ01  00002PRCP99
0174172050999992000122303004+38480+042300FM-12+166599999V0202701N002112200019N0300001N1-00601-00871999999ADDGA1041+012009069GF104991041051012501001001MA1999999083501MD1410001+9999ME1315269REMSYN082AAXX  23034 17205 42680 42704 11060 21087 38350 48526 54000 84500 333 84640 92418;
0276172050999992000122306004+38480+042300FM-12+166599999V0209999C000012200019N0250001N1-00421-00911999999ADDAA199000091AJ100069199999999GA1041+012009069GF104991041051012501001001IA1239IA2999-00809KA1120N-00701MA1999999083401MD1810101+9999ME1315159REMSYN106AAXX  23064 17205 32675 40000 11042 21091 38340 48515 58010 84500 333 21070 3/108 47006 55009 84640 92417;EQDQ01  00002PRCP99
0204172050999992000122312004+38480+042300FM-12+166599999V0202701N001012200019N0250001N1-00281-01201999999ADDAA199000091GA1041+012009069GF104991041051012501001001MA1999999083301MD1710101+9999ME1315069REMSYN082AAXX  23124 17205 32675 42702 11028 21120 38330 48506 57010 84500 333 84640 92417;EQDQ01  00002PRCP99
0174172050999992000122315004+38480+042300FM-12+166599999V0202701N001012200019N0250001N1-00261-01011999999ADDGA1041+012009069GF104991041051012501001001MA1999999083301MD1410001+9999ME1315059REMSYN082AAXX  23154 17205 42675 42702 11026 21101 38330 48505 54000 84500 333 84640 92417;
0245172050999992000122318004+38480+042300FM-12+166599999V0209999C000010270019N0250001N1-00281-00841999999ADDAA199000091GA1041+010509069GA2061+027009039GF106991041051012501051001KA1120M+00001MA1999999083301MD1410001+9999ME1315069REMSYN094AAXX  23184 17205 32675 60000 11028 21084 38330 48506 54000 84550 333 10000 84635 86359 92417;EQDQ01  00002PRCP99
0196172050999992000122321004+38480+042300FM-12+166599999V0202701N001010270019N0250001N1-00321-00661999999ADDGA1041+010509069GA2061+027009039GF106991041051012501051001MA1999999083201MD1610101+9999ME1314969REMSYN088AAXX  23214 17205 42675 62702 11032 21066 38320 48496 56010 84550 333 84635 86359 92417;
0226172050999992000122400004+38480+042300FM-12+166599999V0209999C000010270019N0250001N1-00241-00471999999ADDAA199000091GA1041+010509069GA2061+027009039GF106991041051012501051001MA1999999083101MD1610101+9999ME1314859REMSYN088AAXX  24004 17205 32675 60000 11024 21047 38310 48485 56010 84550 333 84635 86359 92417;EQDQ01  00002PRCP99
0196172050999992000122403004+38480+042300FM-12+166599999V0209999C000010270019N0250001N1-00361-00551999999ADDGA1041+010509069GA2061+027009039GF106991041051012501051001MA1999999083001MD1710101+9999ME1314779REMSYN088AAXX  24034 17205 42675 60000 11036 21055 38300 48477 57010 84550 333 84635 86359 92417;
0196172050999992000122409004+38480+042300FM-12+166599999V0209999C000010270019N0200001N1+00161-00321999999ADDGA1041+010509069GA2061+027009039GF106991041051012501051001MA1999999083001MD1410001+9999ME1314769REMSYN088AAXX  24094 17205 42670 60000 10016 21032 38300 48476 54000 84550 333 84635 86359 92417;
0226172050999992000122412004+38480+042300FM-12+166599999V0202001N001010270019N0200001N1+00301-00381999999ADDAA199000091GA1041+010509069GA2061+027009039GF106991051051012501999001MA1999999082901MD1810101+9999ME1314659REMSYN088AAXX  24124 17205 32670 62002 10030 21038 38290 48465 58010 855/0 333 84635 86359 92417;EQDQ01  00002PRCP99
0196172050999992000122415004+38480+042300FM-12+166599999V0209999C000010105019N0150001N1+00061-00171999999ADDGA1051+010509069GA2081+027009049GF108991051051012501021999MA1999999082901MD1410001+9999ME1314659REMSYN088AAXX  24154 17205 42665 80000 10006 21017 38290 48465 54000 8552/ 333 85635 88459 92417;
0289172050999992000122418004+38480+042300FM-12+166599999V0209999C000010090019N0080001N1+00001-00241999999ADDAA112001091AL10600191AY171061AY221061GA1051+009009069GA2081+021009049GF108991051051008001021999KA1120M+00361MA1999999082901MD1410001+9999ME1314659MW1701UA1M999999019REMSYN112AAXX  24184 17205 11558 80000 10000 21024 38290 48465 54000 60012 77072 8552/ 333 10036 85630 88457 92416 93101;
0224172050999992000122421004+38480+042300FM-12+166599999V0209999C000010090019N0080001N1+00001-00121999999ADDAY171031AY271031GA1051+009009069GA2081+021009049GF108991051051008001021999MA1999999082901MD1410001+9999ME1314659MW1701REMSYN094AAXX  24214 17205 41558 80000 10000 21012 38290 48465 54000 77077 8552/ 333 85630 88457 92416;
0270172050999992000122500004+38480+042300FM-12+166599999V0209999C000010120019N0100001N1+00001-00121999999ADDAA106002091AL10600291AY171061AY271061GA1051+012009069GA2081+027009049GF108991051051012501021999MA1999999082901MD1410001+9999ME1314659MW1701UA1M999999019REMSYN106AAXX  25004 17205 11660 80000 10000 21012 38290 48465 54000 60021 77077 8552/ 333 85640 88459 92416 93102;
0224172050999992000122503004+38480+042300FM-12+166599999V0209999C000010120019N0100001N1+00001-00121999999ADDAY171031AY271031GA1051+012009069GA2081+027009049GF108991051051012501021999MA1999999082901MD1410001+9999ME1314659MW1221REMSYN094AAXX  25034 17205 41660 80000 10000 21012 38290 48465 54000 72277 8552/ 333 85640 88459 92416;
0329172050999992000122506004+38480+042300FM-12+166599999V0209999C000010090019N0010001N1+00001-00121999999ADDAA112005191AJ100089199999999AL10600491AY171061AY271061GA1051+009009069GA2081+021009049GF108991051051008001021999IA1239IA2999-00109KA1120N-00061MA1999999082901MD1410001+9999ME1314659MW1701REMSYN130AAXX  25064 17205 11510 80000 10000 21012 38290 48465 54000 60052 77077 8552/ 333 21006 3/101 47008 55001 70060 85630 88457 93104;
0224172050999992000122509004+38480+042300FM-12+166599999V0202701N001010090019N0010001N1+00001-00121999999ADDAY171031AY271031GA1051+009009069GA2081+021009049GF108991051051008001021999MA1999999083001MD1110101+9999ME1314749MW1701REMSYN094AAXX  25094 17205 41510 82702 10000 21012 38300 48474 51010 77077 8552/ 333 85630 88457 92413;
0270172050999992000122512004+38480+042300FM-12+166599999V0202701N001010090019N0010001N1+00001-00121999999ADDAA106007191AL10600591AY171061AY271061GA1051+009009069GA2081+021009049GF108991051051008001021999MA1999999083001MD1410001+9999ME1314749MW1701UA1M999999019REMSYN106AAXX  25124 17205 11510 82702 10000 21012 38300 48474 54000 60071 77077 8552/ 333 85630 88457 92413 93105;
0224172050999992000122515004+38480+042300FM-12+166599999V0202701N002110300019N0150001N1+00001-00241999999ADDAY171031AY271031GA1041+012009069GA2061+030009039GF106991041051012501051001MA1999999083101MD1210101+9999ME1314849MW1021REMSYN094AAXX  25154 17205 41665 62704 10000 21024 38310 48484 52010 70277 84550 333 84640 86360 92416;
0289172050999992000122518004+38480+042300FM-12+166599999V0202701N001510300019N0200001N1-00101-00311999999ADDAA112009991AL10600391AY171061AY221061GA1041+012009069GA2061+030009039GF106991041051012501051001KA1120M+00161MA1999999083201MD1210101+9999ME1314959MW1021UA1M999999019REMSYN112AAXX  25184 17205 11670 62703 11010 21031 38320 48495 52010 60102 70272 84550 333 10016 84640 86360 92417 93103;
0174172050999992000122521004+38480+042300FM-12+166599999V0202701N002112200019N0200001N1-00201-00381999999ADDGA1041+012009069GF104991041051012501001001MA1999999083401MD1210201+9999ME1315149REMSYN082AAXX  25214 17205 42670 42704 11020 21038 38340 48514 52020 84500 333 84640 92417;
0185172050999992000122600004+38480+042300FM-12+166599999V0209999C000012200019N0200001N1-00361-00451999999ADDAA199000021GA1041+012009069GF104991041051012501001001MA1999999083501MD1210101+9999ME1315259REMSYN082AAXX  26004 17205 32670 40000 11036 21045 38350 48525 52010 84500 333 84640 92417;
0162172050999992000122603004+38480+042300FM-12+166599999V0209999C000012200019N0200001N1-00501-00601999999ADDGA1001+999999999GF100991001001999999001001MA1999999083601MD1210101+9999ME1314359REMSYN070AAXX  26034 17205 42970 00000 11050 21060 38360 48435 52010 333 10262;
0251172050999992000122606004+38480+042300FM-12+166599999V0209999C000012200019N0300001N1-00561-00591999999ADDAA124009991AJ100209199999999GA1001+999999999GF100991001001999999001001IA1239IA2999-00909KA1120N-00701MA1999999083801MD1210201+9999ME1315549REMSYN100AAXX  26064 17205 32980 00000 11056 21059 38380 48554 52020 333 21070 3/109 47020 55000 70100 92418;
0162172050999992000122609004+38480+042300FM-12+166599999V0202901N001512200019N0300001N1-00241-00471999999ADDGA1001+999999999GF100991001001999999001001MA1999999083901MD1110101+9999ME1315629REMSYN070AAXX  26094 17205 42980 02903 11024 21047 38390 48562 51010 333 10299;
0192172050999992000122612004+38480+042300FM-12+166599999V0202701N001012200019N0300001N1-00101-00401999999ADDAA199000091GA1001+999999999GF100991001001999999001001MA1999999083801MD1710101+9999ME1315519REMSYN070AAXX  26124 17205 32980 02702 11010 21040 38380 48551 57010 333 10256;EQDQ01  00002PRCP99
0162172050999992000122615004+38480+042300FM-12+166599999V0202701N001012200019N0250001N1-00501-00641999999ADDGA1001+999999999GF100991001001999999001001MA1999999084001MD1210201+9999ME1315739REMSYN070AAXX  26154 17205 42975 02702 11050 21064 38400 48573 52020 333 10336;
0211172050999992000122618004+38480+042300FM-12+166599999V0209999C000012200019N0200001N1-00541-00591999999ADDAA199000091GA1001+999999999GF100991001001999999001001KA1120M+00101MA1999999084001MD1410001+9999ME1315739REMSYN076AAXX  26184 17205 32970 00000 11054 21059 38400 48573 54000 333 10010 92417;EQDQ01  00002PRCP99
0162172050999992000122621004+38480+042300FM-12+166599999V0209999C000012200019N0200001N1-00661-00711999999ADDGA1001+999999999GF100991001001999999001001MA1999999084001MD1410001+9999ME1315739REMSYN070AAXX  26214 17205 42970 00000 11066 21071 38400 48573 54000 333 10336;
0192172050999992000122700004+38480+042300FM-12+166599999V0209999C000012200019N0200001N1-00681-00711999999ADDAA199000091GA1001+999999999GF100991001001999999001001MA1999999084001MD1410001+9999ME1314739REMSYN070AAXX  27004 17205 32970 00000 11068 21071 38400 48473 54000 333 10328;EQDQ01  00002PRCP99
0162172050999992000122703004+38480+042300FM-12+166599999V0209999C000012200019N0200001N1-00741-00771999999ADDGA1001+999999999GF100991001001999999001001MA1999999084001MD1410001+9999ME1315739REMSYN070AAXX  27034 17205 42970 00000 11074 21077 38400 48573 54000 333 10344;
0298172050999992000122706004+38480+042300FM-12+166599999V0209999C000010300019N0250001N1-00741-00771999999ADDAA199000091AJ100179199999999GA1041+012009069GA2061+030009039GF106991041051012501051001IA1239IA2999-01009KA1120N-00861MA1999999084001MD1410001+9999ME1315739REMSYN112AAXX  27064 17205 32675 60000 11074 21077 38400 48573 54000 84550 333 21086 3/110 47017 55000 84640 86360 92418;EQDQ01  00002PRCP99
0196172050999992000122709004+38480+042300FM-12+166599999V0202701N001010300019N0250001N1-00241-00471999999ADDGA1041+012009069GA2061+030009039GF106991041051012501051001MA1999999084001MD1410001+9999ME1315719REMSYN088AAXX  27094 17205 42675 62702 11024 21047 38400 48571 54000 84550 333 84640 86360 92417;
0226172050999992000122712004+38480+042300FM-12+166599999V0202701N001510300019N0250001N1-00161-00481999999ADDAA199000091GA1041+012009069GA2061+030009039GF106991041051012501051001MA1999999084001MD1410001+9999ME1315719REMSYN088AAXX  27124 17205 32675 62703 11016 21048 38400 48571 54000 84550 333 84640 86360 92417;EQDQ01  00002PRCP99
0196172050999992000122715004+38480+042300FM-12+166599999V0202901N001510300019N0250001N1-00501-00571999999ADDGA1041+012009069GA2061+030009039GF106991041051012501051001MA1999999084001MD1410001+9999ME1315739REMSYN088AAXX  27154 17205 42675 62903 11050 21057 38400 48573 54000 84550 333 84640 86360 92417;
0245172050999992000122718004+38480+042300FM-12+166599999V0202701N003110120019N0150001N1-00501-00551999999ADDAA199000091GA1051+012009069GA2081+027009049GF108991051051012501021999KA1120M-00101MA1999999084001MD1410001+9999ME1315719REMSYN094AAXX  27184 17205 32665 82706 11050 21055 38400 48571 54000 8552/ 333 11010 85640 88459 92426;EQDQ01  00002PRCP99
0162172050999992000122721004+38480+042300FM-12+166599999V0202701N001512200019N0200001N1-00541-00591999999ADDGA1001+999999999GF100991001001999999001001MA1999999084001MD1410001+9999ME1315739REMSYN070AAXX  27214 17205 42970 02703 11054 21059 38400 48573 54000 333 10328;
0226172050999992000122800004+38480+042300FM-12+166599999V0202901N001010300019N0150001N1-00701-00761999999ADDAA199000091GA1041+012009069GA2061+030009039GF106991041051012501051001MA1999999084001MD1410001+9999ME1315739REMSYN088AAXX  28004 17205 32665 62902 11070 21076 38400 48573 54000 84550 333 84640 86360 92416;EQDQ01  00002PRCP99
0196172050999992000122803004+38480+042300FM-12+166599999V0209999C000010120019N0150001N1-00501-00551999999ADDGA1051+012009069GA2081+030009049GF108991051051012501021999MA1999999084001MD1410001+9999ME1315739REMSYN088AAXX  28034 17205 42665 80000 11050 21055 38400 48573 54000 8552/ 333 85640 88460 92416;
0298172050999992000122806004+38480+042300FM-12+166599999V0209999C000010120019N0200001N1-00301-00351999999ADDAA199000091AJ100179199999999GA1051+012009069GA2081+030009049GF108991051051012501021999IA1239IA2999-00909KA1120N-00761MA1999999084001MD1410001+9999ME1315729REMSYN112AAXX  28064 17205 32670 80000 11030 21035 38400 48572 54000 8552/ 333 21076 3/109 47017 55000 85640 88460 92417;EQDQ01  00002PRCP99
0196172050999992000122809004+38480+042300FM-12+166599999V0202701N001010120019N0200001N1-00161-00381999999ADDGA1051+012009069GA2081+030009049GF108991051051012501021999MA1999999084001MD1410001+9999ME1315719REMSYN088AAXX  28094 17205 42670 82702 11016 21038 38400 48571 54000 8552/ 333 85640 88460 92417;
0226172050999992000122812004+38480+042300FM-12+166599999V0202701N001010120019N0200001N1+00101-00391999999ADDAA199000091GA1051+012009069GA2081+030009049GF108991051051012501021999MA1999999084001MD1410001+9999ME1315709REMSYN088AAXX  28124 17205 32670 82702 10010 21039 38400 48570 54000 8552/ 333 85640 88460 92417;EQDQ01  00002PRCP99
0196172050999992000122815004+38480+042300FM-12+166599999V0209999C000010120019N0200001N1-00161-00481999999ADDGA1999+012009999GA2081+030009049GF108991051051012501021999MA1999999084001MD1410001+9999ME1315719REMSYN088AAXX  28154 17205 42670 80000 11016 21048 38400 48571 54000 8552/ 333 8//40 88460 92417;
0245172050999992000122818004+38480+042300FM-12+166599999V0209999C000010120019N0200001N1-00301-00361999999ADDAA199000091GA1051+012009069GA2081+030009049GF108991051051012501021999KA1120M+00201MA1999999084101MD1210101+9999ME1315819REMSYN094AAXX  28184 17205 32670 80000 11030 21036 38410 48581 52010 8552/ 333 10020 85640 88460 92417;EQDQ01  00002PRCP99
0196172050999992000122821004+38480+042300FM-12+166599999V0209999C000010120019N0200001N1-00161-00381999999ADDGA1051+012009069GA2081+030009049GF108991051051012501021999MA1999999084101MD1410001+9999ME1315819REMSYN088AAXX  28214 17205 42670 80000 11016 21038 38410 48581 54000 8552/ 333 85640 88460 92417;
0196172050999992000122900004+38480+042300FM-12+166599999V0209999C000010120019N0200001N1-00101-00321999999ADDGA1051+012009069GA2081+030009049GF108991051051012501021999MA1999999084101MD1410001+9999ME1315819REMSYN088AAXX  29004 17205 42670 80000 11010 21032 38410 48581 54000 8552/ 333 85640 88460 92417;
0196172050999992000122903004+38480+042300FM-12+166599999V0209999C000010120019N0200001N1-00101-00321999999ADDGA1051+012009069GA2081+030009049GF108991051051012501021999MA1999999084101MD1410001+9999ME1315819REMSYN088AAXX  29034 17205 42670 80000 11010 21032 38410 48581 54000 8552/ 333 85640 88460 92417;
0298172050999992000122906004+38480+042300FM-12+166599999V0209999C000010120019N0200001N1-00041-00231999999ADDAA199000091AJ100169199999999GA1051+012009069GA2081+030009049GF108991051051012501021999IA1239IA2999-00509KA1120N-00461MA1999999084101MD1410001+9999ME1315809REMSYN112AAXX  29064 17205 32670 80000 11004 21023 38410 48580 54000 8552/ 333 21046 3/105 47016 55000 85640 88460 92417;EQDQ01  00002PRCP99
0196172050999992000122909004+38480+042300FM-12+166599999V0201601N001010300019N0250001N1+00201-00271999999ADDGA1041+012009069GA2061+030009039GF106991041051012501051001MA1999999084101MD1410001+9999ME1315799REMSYN088AAXX  29094 17205 42675 61602 10020 21027 38410 48579 54000 84550 333 84640 86360 92417;
0226172050999992000122912004+38480+042300FM-12+166599999V0200701N001010300019N0250001N1+00201-00271999999ADDAA199000091GA1041+012009069GA2061+030009039GF106991041051012501051001MA1999999083901MD1810201+9999ME1315609REMSYN088AAXX  29124 17205 32675 60702 10020 21027 38390 48560 58020 84550 333 84640 86360 92417;EQDQ01  00002PRCP99
0196172050999992000122915004+38480+042300FM-12+166599999V0209999C000010300019N0250001N1+00001-00291999999ADDGA1041+012009069GA2061+030009039GF106991041051012501051001MA1999999083901MD1410001+9999ME1315619REMSYN088AAXX  29154 17205 42675 60000 10000 21029 38390 48561 54000 84550 333 84640 86360 92417;
0223172050999992000122918004+38480+042300FM-12+166599999V0209999C000012200019N0250001N1-00261-00441999999ADDAA199000091GA1041+012009069GF104991041051012501001001KA1120M+00361MA1999999083901MD1410001+9999ME1315629REMSYN088AAXX  29184 17205 32675 40000 11026 21044 38390 48562 54000 84500 333 10036 84640 92417;EQDQ01  00002PRCP99
0174172050999992000122921004+38480+042300FM-12+166599999V0209999C000012200019N0200001N1-00321-00361999999ADDGA1041+012009069GF104991041051012501001001MA1999999083801MD1710101+9999ME1315539REMSYN082AAXX  29214 17205 42670 40000 11032 21036 38380 48553 57010 84500 333 84640 92417;
0204172050999992000123000004+38480+042300FM-12+166599999V0209999C000012200019N0200001N1-00421-00441999999ADDAA199000091GA1041+012009069GF104991041051012501001001MA1999999083801MD1410001+9999ME1315539REMSYN082AAXX  30004 17205 32670 40000 11042 21044 38380 48553 54000 84500 333 84640 92417;EQDQ01  00002PRCP99
0162172050999992000123003004+38480+042300FM-12+166599999V0202901N001012200019N0200001N1-00601-00651999999ADDGA1001+999999999GF100991001001999999001001MA1999999083701MD1610101+9999ME1315459REMSYN070AAXX  30034 17205 42970 02902 11060 21065 38370 48545 56010 333 10283;
0276172050999992000123006004+38480+042300FM-12+166599999V0209999C000012200019N0200001N1-00441-00491999999ADDAA199000091AJ100149199999999GA1041+012009069GF104991041051012501001001IA1239IA2999-00809KA1120N-00701MA1999999083701MD1410001+9999ME1315449REMSYN106AAXX  30064 17205 32670 40000 11044 21049 38370 48544 54000 84500 333 21070 3/108 47014 55004 84640 92417;EQDQ01  00002PRCP99
0196172050999992000123009004+38480+042300FM-12+166599999V0209999C000010300019N0200001N1-00101-00421999999ADDGA1031+012009069GA2051+030009039GF105991031051012501031001MA1999999083701MD1410001+9999ME1315439REMSYN088AAXX  30094 17205 42670 50000 11010 21042 38370 48543 54000 83530 333 83640 85360 92417;
0226172050999992000123012004+38480+042300FM-12+166599999V0209999C000010300019N0200001N1+00161-00211999999ADDAA199000091GA1041+012009069GA2061+030009039GF106991041051012501051001MA1999999083601MD1810101+9999ME1315339REMSYN088AAXX  30124 17205 32670 60000 10016 21021 38360 48533 58010 84550 333 84640 86360 92417;EQDQ01  00002PRCP99
0196172050999992000123015004+38480+042300FM-12+166599999V0209999C000010120019N0200001N1+00001-00241999999ADDGA1051+012009069GA2081+027009049GF108991051051012501021999MA1999999083601MD1410001+9999ME1315329REMSYN088AAXX  30154 17205 42670 80000 10000 21024 38360 48532 54000 8552/ 333 85640 88459 92417;
0245172050999992000123018004+38480+042300FM-12+166599999V0209999C000010300019N0200001N1-00041-00161999999ADDAA199000091GA1041+012009069GA2061+030009039GF106991041051012501051001KA1120M+00241MA1999999083601MD1410001+9999ME1315329REMSYN094AAXX  30184 17205 32670 60000 11004 21016 38360 48532 54000 84550 333 10024 84640 86360 92417;EQDQ01  00002PRCP99
0196172050999992000123021004+38480+042300FM-12+166599999V0209999C000010300019N0200001N1-00141-00181999999ADDGA1041+012009069GA2061+030009039GF106991041051012501051001MA1999999083501MD1810101+9999ME1315249REMSYN088AAXX  30214 17205 42670 60000 11014 21018 38350 48524 58010 84550 333 84640 86360 92417;
0226172050999992000123100004+38480+042300FM-12+166599999V0209999C000010120019N0200001N1-00101-00311999999ADDAA199000091GA1051+012009069GA2081+027009049GF108991051051012501021999MA1999999083501MD1410001+9999ME1315249REMSYN088AAXX  31004 17205 32670 80000 11010 21031 38350 48524 54000 8552/ 333 85640 88459 92417;EQDQ01  00002PRCP99
0181172050999992000123103004+38480+042300FM-12+166599999V0202001N00101012001CN0200001N1+00161-00491999999ADDGA1051+012009069GA2081+027009049GF108991999999012501999999MA1999999083301ME1315029REMSYN087AAXX  31034 17205 42670 82002 10016 21049 38330 48502 5700 8552/ 333 85640 88459 92417;
0348172050999992000123106004+38480+042300FM-12+166599999V0209999C000010090019N0010001N1-00161-00251999999ADDAA112002091AJ100159199999999AL10600291AY171061AY221061GA1051+009009069GA2081+021009049GF108991051051008001021999IA1239IA2999-00309KA1120N-00241MA1999999083401MD1110101+9999ME1315149MW1701UA1M999999019REMSYN136AAXX  31064 17205 11510 80000 11016 21025 38340 48514 51010 60022 77072 8552/ 333 21024 3/103 47015 55000 70018 85630 88457 92413 93102;
0224172050999992000123109004+38480+042300FM-12+166599999V0202901N001010120019N0150001N1+00101-00131999999ADDAY171031AY271031GA1051+012009069GA2081+027009049GF108991051051012501021999MA1999999083401MD1410001+9999ME1315139MW1221REMSYN094AAXX  31094 17205 41665 82902 10010 21013 38340 48513 54000 72277 8552/ 333 85640 88459 92416;
0270172050999992000123112004+38480+042300FM-12+166599999V0202501N001510120019N0150001N1+00161-00131999999ADDAA106001091AL10600191AY171061AY221061GA1051+012009069GA2081+027009049GF108991051051012501021999MA1999999083401MD1410001+9999ME1315139MW1021UA1M999999019REMSYN106AAXX  31124 17205 11665 82503 10016 21013 38340 48513 54000 60011 70272 8552/ 333 85640 88459 92416 93101;
0196172050999992000123115004+38480+042300FM-12+166599999V0202501N001510120019N0150001N1+00001-00141999999ADDGA1051+012009069GA2081+027009049GF108991051051012501021999MA1999999083501MD1210101+9999ME1315239REMSYN088AAXX  31154 17205 42665 82503 10000 21014 38350 48523 52010 8552/ 333 85640 88459 92416;
0198172050999992000123118004+38480+042300FM-12+166599999V0202701N001512200019N0200001N1+00001-00351999999ADDAA112001091GA1001+999999999GF100991001001999999001001KA1120M+00261MA1999999083601MD1210101+9999ME1315329REMSYN082AAXX  31184 17205 12970 02703 10000 21035 38360 48532 52010 60012 333 10026 92417;
0162172050999992000123121004+38480+042300FM-12+166599999V0202701N001012200019N0200001N1+00001-00351999999ADDGA1001+999999999GF100991001001999999001001MA1999999083601MD1410001+9999ME1315329REMSYN070AAXX  31214 17205 42970 02702 10000 21035 38360 48532 54000 333 10239;
