0159224220999992000010100004+65900+034770FM-12+001099999V0200901N006010036019N0130001N1-00631-00821102031ADDGA1071+003609059GF107991071051004501001001MA1999999101881MD1210121+9999REMSYN076AAXX  01001 22422 42463 70906 11063 21082 30188 40203 52012 87500 333 87612;
0166224220999992000010103004+65900+034770FM-12+001099999V0201301N003010030019N0060001N1-00461-00621102071ADDAY171031AY221031GA1081+003009069GF108991999071004501021999MD1210041+9999MW1711REMSYN076AAXX  01031 22422 41456 81303 11046 21062 40207 52004 77172 8872/ 333 88710;
0149224220999992000010106004+65900+034770FM-12+001099999V0201201N003010030019N0100001N1-00421-00601102251ADDAA106000021GA1071+003009059GF107991071051004501001001MD1210181+9999REMSYN070AAXX  01061 22422 31460 71203 11042 21060 40225 52018 87500 333 87610;
0166224220999992000010109004+65900+034770FM-12+001099999V0209999C000010033019N0060001N1-00951-01111102421ADDAY171031AY221031GA1071+003309059GF107991071051004501001001MD1210161+9999MW1711REMSYN076AAXX  01091 22422 41456 70000 11095 21111 40242 52016 77172 87500 333 87611;
0187224220999992000010112004+65900+034770FM-12+001099999V0201801N002010060019N0060001N1-00951-01111102331ADDAY171061AY221061GA1051+006009059GF108991051051008001071999MA1999999102171MD1810091+9999MW1711REMSYN082AAXX  01121 22422 41556 81802 11095 21111 30217 40233 58009 77172 8557/ 333 85620;
0166224220999992000010115004+65900+034770FM-12+001099999V0201801N002010048019N0060001N1-01181-01311102411ADDAY171031AY221031GA1071+004809059GF107991071051004501001001MD1310081+9999MW1711REMSYN076AAXX  01151 22422 41456 71802 11118 21131 40241 53008 77172 87500 333 87616;
0152224220999992000010118004+65900+034770FM-12+001099999V0201801N002010210019N0130001N1-01261-01461102581ADDAA112000391GF108991081001022501021999KA1999M-00931MD1210171+9999REMSYN076AAXX  01181 22422 12863 81802 11126 21146 40258 52017 69932 8802/ 333 11093;
0133224220999992000010200004+65900+034770FM-12+001099999V0201901N002010210019N0140001N1-01281-01451102631ADDGF107991071001022501021999MA1999999102481MD1410001+9999REMSYN066AAXX  02001 22422 42864 71902 11128 21145 30248 40263 54000 8702/;
0140224220999992000010309004+65900+034770FM-12+001099999V0201801N010010210019N0080001N1-01101-01341101341ADDAY131031AY231031GF106991061001022501031001MD1610221+9999MW1381REMSYN066AAXX  03091 22422 41858 61810 1111/ 21134 40134 56022 73833 86030;
0161224220999992000010312004+65900+034770FM-12+001099999V0201801N011010300019N0070001N1-01111-01311101241ADDAY131061AY231061GF108991031051004501021999MA1999999101081MD1710101+9999MW1381REMSYN072AAXX  03121 22422 41457 81811 11111 21131 30108 40124 57010 73833 8352/;
0150224220999992000010315004+65900+034770FM-12+001099999V0201701N008012200019N0120001N1-01251-01451101181ADDAY131031AY231031GA1001+999999999GF100991001001999999001001MD1710061+9999MW1371REMSYN060AAXX  03151 22422 41962 01708 11125 21145 40118 57006 73733;
0215224220999992000010318004+65900+034770FM-12+001099999V0201501N008010045019N0110001N1-01181-01381101031ADDAA106000091AY131061AY231061GA1071+004509059GF107991071051004501001001KA1120M-01101MD1710151+9999MW1371REMSYN082AAXX  03181 22422 31461 71508 11118 21138 40103 57015 73733 87500 333 11110 87615;EQDQ01  00002PRCP06
0206224220999992000010400004+65900+034770FM-12+001099999V0201401N008010030019N0080001N1-01061-01261100761ADDAY171061AY231061GA1081+003009069GF108991999071001501021999MA1999999100601MD1710141+9999MW1711REMSYN082AAXX  04001 22422 41258 81408 11106 21126 30060 40076 57014 77173 8872/ 333 88710;EQDQ01+000082SCOTLC
0185224220999992000010403004+65900+034770FM-12+001099999V0202601N009010027019N0042001N1-01011-01141100531ADDAY171031AY271031GA1081+002709069GF108991999071002501021999MD1710231+9999MW1711REMSYN076AAXX  04031 22422 41342 82609 11101 21114 40053 57023 77177 8872/ 333 88709;EQDQ01+000082SCOTLC
0177224220999992000010406004+65900+034770FM-12+001099999V0201201N003010042019N0140001N1-01101-01301100281ADDAA106000021AY131061AY221061GA1061+004209059GF106991061051001501031001MD1210251+9999MW1361REMSYN076AAXX  04061 22422 31264 61203 11110 21130 40028 52025 73632 86530 333 86614;
0166224220999992000010409004+65900+034770FM-12+001099999V0202001N010010030019N0042001N1-01011-01211100141ADDAY171031AY231031GA1051+003009069GF108991051071004501021999MD1710141+9999MW1711REMSYN076AAXX  04091 22422 41442 82010 11101 21121 40014 57014 77173 8572/ 333 85710;
0161224220999992000010412004+65900+034770FM-12+001099999V0201901N009010210019N0048001N1-01021-01151099801ADDAY171061AY231061GF108991081001022501021999MA1999999099641MD1710341+9999MW1381REMSYN072AAXX  04121 22422 41848 81909 11102 21115 39964 49980 57034 73873 8802/;
0185224220999992000010415004+65900+034770FM-12+001099999V0201801N009010033019N0036001N1-01011-01141099661ADDAY171031AY231031GA1081+003309069GF108991999071004501021999MD1710141+9999MW1711REMSYN076AAXX  04151 22422 41436 81809 11101 21114 49966 57014 77173 8872/ 333 88711;EQDQ01+000082SCOTLC
0221224220999992000010418004+65900+034770FM-12+001099999V0201701N006010027019N0035001N1-00981-01151099461ADDAA112000891AY171061AY231061GA1081+002709069GF108991999071002501021999KA1120M-00961MD1710201+9999MW1711REMSYN088AAXX  04181 22422 11335 81706 11098 21115 49946 57020 69982 77173 8872/ 333 11096 88709;EQDQ01+000082SCOTLC
0206224220999992000010500004+65900+034770FM-12+001099999V0201601N007010030019N0036001N1-00821-00961099381ADDAY171061AY231061GA1081+003009069GF108991999071004501021999MA1999999099211MD1410001+9999MW1711REMSYN082AAXX  05001 22422 41436 81607 11082 21096 39921 49938 54000 77173 8872/ 333 88710;EQDQ01+000082SCOTLC
0185224220999992000010503004+65900+034770FM-12+001099999V0201601N002010021019N0040001N1-01061-01191099391ADDAY171031AY271031GA1081+002109069GF108991999071002501021999MD1310031+9999MW1711REMSYN076AAXX  05031 22422 41340 81602 11106 21119 49939 53003 77177 8872/ 333 88707;EQDQ01+000082SCOTLC
0149224220999992000010506004+65900+034770FM-12+001099999V0201701N002010042019N0140001N1-01041-01241099481ADDAA106000021GA1081+004209059GF108991081051004501001001MD1210081+9999REMSYN070AAXX  05061 22422 32464 81702 11104 21124 49948 52008 88500 333 88614;
0166224220999992000010509004+65900+034770FM-12+001099999V0201801N001010042019N0060001N1-00951-01071099601ADDAY171031AY221031GA1071+004209059GF107991071051004501001001MD1210131+9999MW1711REMSYN076AAXX  05091 22422 41456 71801 11095 21107 49960 52013 77172 87500 333 87614;
0159224220999992000010512004+65900+034770FM-12+001099999V0202001N001010042019N0160001N1-00941-01101099741ADDGA1061+004209059GF107991061051004501031001MA1999999099591MD1210141+9999REMSYN076AAXX  05121 22422 42466 72001 11094 21110 39959 49974 52014 86530 333 86614;
0166224220999992000010515004+65900+034770FM-12+001099999V0202201N002010033019N0050001N1-00921-01081099981ADDAY171031AY271031GA1071+003309059GF107991071051004501001001MD1210231+9999MW1711REMSYN076AAXX  05151 22422 41450 72202 11092 21108 49998 52023 77177 87500 333 87611;
0183224220999992000010518004+65900+034770FM-12+001099999V0202001N002010033019N0060001N1-00881-01031100161ADDAA112000591AY171061AY271061GA1071+003309059GF107991071051004501001001MD1210181+9999MW1711REMSYN082AAXX  05181 22422 11456 72002 11088 21103 40016 52018 69962 77177 87500 333 87611;
0138224220999992000010603004+65900+034770FM-12+001099999V0202201N001010039019N0140001N1-00811-00991100801ADDGA1071+003909059GF107991071051004501001001MD1210111+9999REMSYN070AAXX  06031 22422 42464 72201 11081 21099 40080 52011 87500 333 87613;
0168224220999992000010606004+65900+034770FM-12+001099999V0202201N001010039019N0160001N1-00801-00981100841ADDAA106000091GA1071+003909059GF107991071051004501001001MD1210141+9999REMSYN070AAXX  06061 22422 32466 72201 11080 21098 40084 52014 87500 333 87613;EQDQ01  00002PRCP06
0138224220999992000010609004+65900+034770FM-12+001099999V0202701N001010048019N0140001N1-00881-00991101031ADDGA1071+004809059GF107991071051004501001001MD1210091+9999REMSYN070AAXX  06091 22422 42464 72701 11088 21099 40103 52009 87500 333 87616;
0187224220999992000010612004+65900+034770FM-12+001099999V0202201N002010033019N0050001N1-00931-01051101061ADDAY171061AY221061GA1071+003309059GF107991071051004501001001MA1999999100901MD1210031+9999MW1711REMSYN082AAXX  06121 22422 /1450 72202 11093 21105 30090 40106 52003 77172 87500 333 87611;
0112224220999992000010615004+65900+034770FM-12+001099999V0201401N004012200019N0140001N1-01321-01451100911ADDGF103991031001022501031001MD1810151+9999REMSYN060AAXX  06151 22422 42864 31404 11132 21145 40091 58015 83030;
0187224220999992000010700004+65900+034770FM-12+001099999V0201501N007010045019N0100001N1-00741-00871100151ADDAY131061AY231061GA1071+004509059GF107991071051004501001001MA1999999099991MD1710191+9999MW1361REMSYN082AAXX  07001 22422 41460 71507 11074 21087 39999 40015 57019 73633 87500 333 87615;
0220224220999992000010703004+65900+034770FM-12+001099999V0201401N006010027019N0044001N1-00321-00391999999ADDAY171031AY231031GA1081+002709079GF108991999071002501021999MD1810562+9999ME1559589MW1711REMSYN086AAXX  07031 22422 41344 81406 11032 21039 45958 58056 77173 8872/ 333 88709 555 7002/;EQDQ01+000082SCOTLCQ02+000562APC3  
0185224220999992000010706004+65900+034770FM-12+001099999V0201401N005010027019N0045001N1-00101-00171099281ADDAY171061AY231061GA1081+002709069GF108991999071004501021999MD1710301+9999MW1711REMSYN076AAXX  07061 22422 11445 81405 11010 21017 49928 57030 77173 8872/ 333 88709;EQDQ01+000082SCOTLC
0138224220999992000010709004+65900+034770FM-12+001099999V0202001N004010030019N0130001N1+00011-00021099191ADDGA1071+003009059GF107991071051004501001001MD1710091+9999REMSYN070AAXX  07091 22422 42463 72004 10001 21002 49919 57009 87500 333 87610;
0184224220999992000010712004+65900+034770FM-12+001099999V0202001N003010021019N0060001N1+00051-00051099031ADDAY171061AY231061GF108991999071002501021999MA1999999098881MD1710161+9999MW1711REMSYN076AAXX  07121 22422 41356 82003 10005 21005 39888 49903 57016 77173 8872/ 333;EQDQ01+000082SCOTLC
0138224220999992000010715004+65900+034770FM-12+001099999V0201801N004010033019N0120001N1+00051-00051098951ADDGA1071+003309059GF107991071051004501001001MD1710081+9999REMSYN070AAXX  07151 22422 42462 71804 10005 21005 49895 57008 87500 333 87611;
0152224220999992000010718004+65900+034770FM-12+001099999V0201801N003010300019N0120001N1+00041-00021099021ADDAA112001091GF105991021051004501031001KA1999M+00071MD1310071+9999REMSYN076AAXX  07181 22422 12462 51803 10004 21002 49902 53007 69992 82530 333 10007;
0143224220999992000010800004+65900+034770FM-12+001099999V0209999C000012200019N0140001N1-00381-00561099281ADDGA1001+999999999GF100991001001999999001001MA1999999099131MD1210061+9999REMSYN060AAXX  08001 22422 42964 00000 11038 21056 39913 49928 52006;
0168224220999992000010806004+65900+034770FM-12+001099999V0202601N004010045019N0140001N1-00201-00291099251ADDAA106000091GA1071+004509059GF107991071051004501001001MD1610011+9999REMSYN070AAXX  08061 22422 32464 72604 11020 21029 49925 56001 87500 333 87615;EQDQ01  00002PRCP06
0138224220999992000010809004+65900+034770FM-12+001099999V0202401N004010045019N0150001N1-00151-00381099121ADDGA1051+004509059GF107991051051004501031001MD1710301+9999REMSYN070AAXX  08091 22422 42465 72404 11015 21038 49912 57030 85530 333 85615;
0159224220999992000010812004+65900+034770FM-12+001099999V0201801N004010042019N0100001N1-00111-00271098741ADDGA1081+004209099GF108991081091004501999999MA1999999098591MD1710381+9999REMSYN076AAXX  08121 22422 42460 81804 11011 21027 39859 49874 57038 889// 333 88914;
0138224220999992000010815004+65900+034770FM-12+001099999V0201501N007010039019N0100001N1-00081-00241098301ADDGA1081+003909059GF108991081051004501001001MD1710441+9999REMSYN070AAXX  08151 22422 42460 81507 11008 21024 49830 57044 88500 333 88613;
0187224220999992000010818004+65900+034770FM-12+001099999V0201601N005010039019N0100001N1+00181+00021097991ADDAA106000091GA1081+003909059GF108991081051004501001001KA1120M+00161MD1710311+9999REMSYN076AAXX  08181 22422 32460 81605 10018 20002 49799 57031 88500 333 10016 88613;EQDQ01  00002PRCP06
0106224220999992000010903004+65900+034770FM-12+001099999V0201901N006012200019N0150001N1+00141-00031098231ADDGF103991999999022501999999MD1310151+9999REMSYN054AAXX  09031 22422 42865 31906 10014 21003 49823 53015;
0112224220999992000010909004+65900+034770FM-12+001099999V0202701N007012200019N0200001N1+00251-00211098461ADDGF105991031001022501031011MD1210181+9999REMSYN060AAXX  09091 22422 42870 52707 10025 21021 49846 52018 83031;
0143224220999992000010912004+65900+034770FM-12+001099999V0202801N006012200019N0190001N1+00181-00361098651ADDGA1001+999999999GF100991001001999999001001MA1999999098501MD1210191+9999REMSYN060AAXX  09121 22422 42969 02806 10018 21036 39850 49865 52019;
0122224220999992000010915004+65900+034770FM-12+001099999V0202601N007012200019N0170001N1+00141-00411098771ADDGA1001+999999999GF100991001001999999001001MD1210121+9999REMSYN054AAXX  09151 22422 42967 02607 10014 21041 49877 52012;
0143224220999992000011000004+65900+034770FM-12+001099999V0202401N006012200019N0150001N1-00181-00641100351ADDGA1001+999999999GF100991001001999999001001MA1999999100201MD1210211+9999REMSYN060AAXX  10001 22422 42965 02406 11018 21064 30020 40035 52021;
0122224220999992000011003004+65900+034770FM-12+001099999V0202301N006012200019N0170001N1-00211-00641099661ADDGA1001+999999999GF100991001001999999001001MD1210151+9999REMSYN054AAXX  10031 22422 42967 02306 11021 21064 49966 52015;
0181224220999992000011006004+65900+034770FM-12+001099999V0202301N007012200019N0180001N1-00201-00621099851ADDAA106000091AJ100509199999999GF102991001001999999001011IA1249MD1219999+9999REMSYN076AAXX  10061 22422 32968 22307 11020 21062 49985 520/9 80001 555 21023 48050;EQDQ01  00002PRCP06
0112224220999992000011009004+65900+034770FM-12+001099999V0202601N006012200019N0210001N1-00161-00501100041ADDGF103991001001999999001011MD1210191+9999REMSYN060AAXX  10091 22422 42971 32606 11016 21050 40004 52019 80001;
0133224220999992000011012004+65900+034770FM-12+001099999V0202701N006012200019N0190001N1-00241-00641100261ADDGF103991001001999999001011MA1999999100111MD1210221+9999REMSYN066AAXX  10121 22422 42969 32706 11024 21064 30011 40026 52022 80001;
0122224220999992000011015004+65900+034770FM-12+001099999V0202701N005012200019N0170001N1-00491-00851100431ADDGA1001+999999999GF100991001001999999001001MD1210171+9999REMSYN054AAXX  10151 22422 42967 02705 11049 21085 40043 52017;
0175224220999992000011018004+65900+034770FM-12+001099999V0202801N005012200019N0160001N1-00451-00761100571ADDAA106000091GA1001+999999999GF100991001001999999001001KA1999M-00141MD1210151+9999REMSYN064AAXX  10181 22422 32966 02805 11045 21076 40057 52015 333 11014;EQDQ01  00002PRCP06
0143224220999992000011100004+65900+034770FM-12+001099999V0202401N003012200019N0150001N1-00941-01291100951ADDGA1001+999999999GF100991001001999999001001MA1999999100841MD1210251+9999REMSYN060AAXX  11001 22422 42965 02403 11094 21129 30084 40095 52025;
0122224220999992000011103004+65900+034770FM-12+001099999V0202401N003012200019N0190001N1-01021-01381101031ADDGA1001+999999999GF100991001001999999001001MD1210041+9999REMSYN054AAXX  11031 22422 42969 02403 11102 21138 40103 52004;
0142224220999992000011106004+65900+034770FM-12+001099999V0202501N003010210019N0200001N1-00781-01091101081ADDAA106000091GF105991051001022501031001MD1210041+9999REMSYN060AAXX  11061 22422 32870 52503 11078 21109 40108 52004 85030;EQDQ01  00002PRCP06
0131224220999992000011109004+65900+034770FM-12+001099999V0202301N003012200019N0180001N1-00521-00591100911ADDGF101991999001022501031001MD1810161+9999REMSYN060AAXX  11091 22422 42868 12303 11052 21059 40091 58016 84030;EQDQ01+000042SCOTLC
0161224220999992000011112004+65900+034770FM-12+001099999V0202101N003010210019N0050001N1-00401-00521100781ADDAY171061AY221061GF108991081001022501021999MA1999999100651MD1710131+9999MW1711REMSYN072AAXX  11121 22422 /1850 82103 11040 21052 30065 40078 57013 77172 8802/;
0112224220999992000011115004+65900+034770FM-12+001099999V0202001N003012200019N0130001N1-00491-00661100581ADDGF102991001001999999001011MD1710201+9999REMSYN060AAXX  11151 22422 42963 22003 11049 21066 40058 57020 80001;
0162224220999992000011118004+65900+034770FM-12+001099999V0202101N003012200019N0150001N1-00561-00741100511ADDAA112000791GA1001+999999999GF100991001001999999001001KA1999M-00371MD1710071+9999REMSYN070AAXX  11181 22422 31965 02103 11056 21074 40051 57007 69902 333 11037;
0143224220999992000011200004+65900+034770FM-12+001099999V0201901N002012200019N0150001N1-00811-01041100351ADDGA1001+999999999GF100991001001999999001001MA1999999100201MD1710081+9999REMSYN060AAXX  12001 22422 42965 01902 11081 21104 30020 40035 57008;
0157224220999992000011203004+65900+034770FM-12+001099999V0201801N002010042019N0170001N1-00511-00721100631ADDGA1071+004209059GF199999051051004501031001MD1310281+9999REMSYN070AAXX  12031 22422 42467 61802 11051 21072 40063 53028 85530 333 87614;EQDQ01+000062SCOTCV
0142224220999992000011206004+65900+034770FM-12+001099999V0202701N002012200019N0160001N1-00351-00461100721ADDAA106000091GF102991021001022501031001MD1210091+9999REMSYN060AAXX  12061 22422 32866 22702 11035 21046 40072 52009 82030;EQDQ01  00002PRCP06
0112224220999992000011209004+65900+034770FM-12+001099999V0202601N002010210019N0200001N1-00381-00531100781ADDGF106991061001022501031001MD1210061+9999REMSYN060AAXX  12091 22422 42870 62602 11038 21053 40078 52006 86030;
0159224220999992000011212004+65900+034770FM-12+001099999V0202601N002010051019N0180001N1-00251-00411100651ADDGA1071+005109059GF107991071051004501001001MA1999999100501MD1810131+9999REMSYN076AAXX  12121 22422 42468 72602 11025 21041 30050 40065 58013 87500 333 87617;
0138224220999992000011215004+65900+034770FM-12+001099999V0202601N002010039019N0150001N1-00181-00291100491ADDGA1071+003909059GF107991071051004501001001MD1710161+9999REMSYN070AAXX  12151 22422 42465 72602 11018 21029 40049 57016 87500 333 87613;
0202224220999992000011218004+65900+034770FM-12+001099999V0202401N002010039019N0060001N1-00141-00221100101ADDAA112000791AY171061AY221061GA1081+003909059GF108991081051004501001001KA1120M-00131MD1710391+9999MW1711REMSYN088AAXX  12181 22422 11456 82402 11014 21022 40010 57039 69902 77172 88500 333 11013 88613;
0159224220999992000011300004+65900+034770FM-12+001099999V0202401N001010042019N0130001N1-00141-00221099661ADDGA1081+004209059GF108991081051004501001001MA1999999099511MD1710141+9999REMSYN076AAXX  13001 22422 42463 82401 11014 21022 39951 49966 57014 88500 333 88614;
0138224220999992000011303004+65900+034770FM-12+001099999V0202401N001010039019N0160001N1-00141-00311099531ADDGA1081+003909059GF108991081051004501001001MD1710271+9999REMSYN070AAXX  13031 22422 42466 82401 11014 21031 49953 57027 88500 333 88613;
0138224220999992000011306004+65900+034770FM-12+001099999V0209999C000010048019N0190001N1-00021-00051099631ADDGA1071+004809099GF107991071091004501001001MD1310101+9999REMSYN070AAXX  13061 22422 12469 70000 11002 21005 49963 53010 87900 333 87916;
0138224220999992000011309004+65900+034770FM-12+001099999V0202901N005010042019N0190001N1-00221-00361100081ADDGA1051+004209059GF106991051051004501031001MD1310451+9999REMSYN070AAXX  13091 22422 42469 62905 11022 21036 40008 53045 85530 333 85614;
0159224220999992000011312004+65900+034770FM-12+001099999V0203001N004010300019N0200001N1-00271-00461100441ADDGA1041+004809059GF106991041051004501031001MA1999999100291MD1210361+9999REMSYN076AAXX  13121 22422 42470 63004 11027 21046 30029 40044 52036 84530 333 84616;
0112224220999992000011315004+65900+034770FM-12+001099999V0203401N002010210019N0180001N1-00731-00901100921ADDGF108991081001022501011999MD1210281+9999REMSYN060AAXX  13151 22422 42868 83402 11073 21090 40092 52028 8801/;
0165224220999992000011318004+65900+034770FM-12+001099999V0202801N001010210019N0140001N1-00521-00591100831ADDAA106000091GF108991081001022501021999KA1999M+00001MD1210111+9999REMSYN070AAXX  13181 22422 32864 82801 11052 21059 40083 52011 8802/ 333 10000;EQDQ01  00002PRCP06
0116224220999992000011403004+65900+034770FM-12+001099999V0209999C000010210019N0150001N1-00531-00631101021ADDGF108991081001022501021999MD1410001+9999REMSYN064    AAXX  14031 22422 42865 80000 11053 21063 40102 54000 8802/;
0169224220999992000011406004+65900+034770FM-12+001099999V0209999C000010210019N0170001N1-00561-00701101061ADDAA199000091GF108991081001022501021999KA1999M-00451MD1310041+9999REMSYN074    AAXX  14061 22422 32867 80000 11056 21070 40106 53004 8802/ 333 11045;EQDQ01  00002PRCP99
0142224220999992000011409004+65900+034770FM-12+001099999V0202701N001010045019N0190001N1-00621-00741101181ADDGA1071+004509059GF107991071051004501001001MD1210121+9999REMSYN074    AAXX  14091 22422 42469 72701 11062 21074 40118 52012 87500 333 87615;
0163224220999992000011412004+65900+034770FM-12+001099999V0202701N001010051019N0180001N1-00551-00691101281ADDGA1071+005109059GF107991071051004501001001MA1999999101151MD1210101+9999REMSYN080    AAXX  14121 22422 42468 72701 11055 21069 30115 40128 52010 87500 333 87617;
0116224220999992000011415004+65900+034770FM-12+001099999V0202801N001010210019N0170001N1-00591-00701101351ADDGF106991061001022501031001MD1210071+9999REMSYN064    AAXX  14151 22422 42867 62801 11059 21070 40135 52007 86030;
0179224220999992000011418004+65900+034770FM-12+001099999V0202601N002012200019N0170001N1-00821-01051101331ADDAA199000091GA1001+999999999GF100991001001999999001001KA1999M-00531MD1810021+9999REMSYN068    AAXX  14181 22422 32967 02602 11082 21105 40133 58002 333 11053;EQDQ01  00002PRCP99
0147224220999992000011500004+65900+034770FM-12+001099999V0202501N003012200019N0160001N1-01261-01461101281ADDGA1001+999999999GF100991001001999999001001MA1999999101121MD1710051+9999REMSYN064    AAXX  15001 22422 42966 02503 11126 21146 30112 40128 57005;
0154224220999992000011503004+65900+034770FM-12+001099999V0202401N003010210019N0060001N1-00781-00931100881ADDAY171031AY211031GF108991081001022501021999MD1710391+9999MW1711REMSYN080    AAXX  15031 22422 41856 82403 11078 21093 40088 57039 77171 8802/ 555 7990/;
0142224220999992000011506004+65900+034770FM-12+001099999V0202501N003010042019N0130001N1-00651-00821100771ADDGA1071+004209059GF107991071051004501001001MD1710111+9999REMSYN074    AAXX  15061 22422 12463 72503 11065 21082 40077 57011 87500 333 87614;
0142224220999992000011509004+65900+034770FM-12+001099999V0202801N003010042019N0150001N1-00631-00821100701ADDGA1071+004209029GF107991071051004501001001MD1710121+9999REMSYN074    AAXX  15091 22422 42465 72803 11063 21082 40070 57012 87500 333 87514;
0137224220999992000011512004+65900+034770FM-12+001099999V0202701N003010300019N0190001N1-00531-00721100611ADDGF106991031071004501051001MA1999999100461MD1710071+9999REMSYN070    AAXX  15121 22422 42469 62703 11053 21072 30046 40061 57007 83750;
0151224220999992000011515004+65900+034770FM-12+001099999V0202801N999992200019N0002001N1-00581-00771100691ADDGF104991999001000251051001MD1310081+9999REMSYN064    AAXX  15151 22422 22002 42868 11058 21077 40069 53008 82050;EQDQ01+006803WOSPD Q02+000022SCOTLC
0168224220999992000011518004+65900+034770FM-12+001099999V0202101N002012200019N0180001N1-00781-00961100741ADDGA1001+999999999GF100991001001999999001001KA1999M+99999MD1210051+9999REMSYN068    AAXX  15181 22422 42968 02102 11078 21096 40074 52005 333 11087;EQDQ01 -00872ATMX  
0147224220999992000011600004+65900+034770FM-12+001099999V0202101N002012200019N0150001N1-01301-01501100701ADDGA1001+999999999GF100991001001999999001001MA1999999100541MD1810051+9999REMSYN064    AAXX  16001 22422 42965 02102 11130 21150 30054 40070 58005;
0116224220999992000011609004+65900+034770FM-12+001099999V0201901N002012200019N0240001N1-01401-01601100301ADDGF102991021001022501031001MD1810011+9999REMSYN064    AAXX  16091 22422 42874 21902 11140 21160 40030 58001 82030;
0137224220999992000011612004+65900+034770FM-12+001099999V0201801N003010210019N0190001N1-00961-01171099671ADDGF108991081001022501021999MA1999999099521MD1810621+9999REMSYN070    AAXX  16121 22422 42869 81803 11096 21117 39952 49967 58062 8802/;
0116224220999992000011615004+65900+034770FM-12+001099999V0201501N006010210019N0170001N1-00581-00711098951ADDGF108991081001022501021999MD1710721+9999REMSYN064    AAXX  16151 22422 42867 81506 11058 21071 49895 57072 8802/;
0203224220999992000011618004+65900+034770FM-12+001099999V0201501N008010210019N0048001N1-00421-00511098211ADDAA112000391AY171061AY231061GF108991081001022501021999KA1999M+99999MD1710741+9999MW1381REMSYN086    AAXX  16181 22422 11848 81508 11042 21051 49821 57074 69932 73873 8802/ 333 11140;EQDQ01 -01402ATMX  
0165224220999992000011700004+65900+034770FM-12+001099999V0201401N002010210019N0060001N1-00381-00461097391ADDAY171061AY221061GF108991081001022501021999MA1999999097242MD1710381+9999MW1711REMSYN076    AAXX  17001 22422 41856 81402 11038 21046 39724 49739 57038 77172 8802/;
0116224220999992000011703004+65900+034770FM-12+001099999V0201601N002010210019N0130001N1-00361-00471097231ADDGF108991081001022501021999MD1710141+9999REMSYN064    AAXX  17031 22422 42863 81602 11036 21047 49723 57014 8802/;
0165224220999992000011712004+65900+034770FM-12+001099999V0200901N006010210019N0100001N1-00201-00221097391ADDAY131061AY221061GF108991081001022501021999MA1999999097241MD1210071+9999MW1361REMSYN076    AAXX  17121 22422 41860 80906 11020 21022 39724 49739 52007 73632 8802/;
0144224220999992000011715004+65900+034770FM-12+001099999V0200901N012010210019N0120001N1-00321-00491097901ADDAY131031AY221031GF108991081001022501021999MD1310511+9999MW1381REMSYN070    AAXX  17151 22422 41862 80912 11032 21049 49790 53051 73832 8802/;
0184224220999992000011718004+65900+034770FM-12+001099999V0200401N013010210019N0120001N1-00531-00741098331ADDAA112000591AY131061AY221061GF108991081001022501021999KA1999M-00521MD1210431+9999MW1381REMSYN086    AAXX  17181 22422 11862 80413 11053 21074 49833 52043 69952 73832 8802/ 333 11052;
0165224220999992000011800004+65900+034770FM-12+001099999V0200301N012010210019N0110001N1-00681-00841098991ADDAY131061AY221061GF108991081001022501021999MA1999999098831MD1210321+9999MW1381REMSYN076    AAXX  18001 22422 41861 80312 11068 21084 39883 49899 52032 73832 8802/;
0144224220999992000011803004+65900+034770FM-12+001099999V0200401N012010210019N0130001N1-00721-00931099041ADDAY131031AY221031GF108991081001022501021999MD1210061+9999MW1381REMSYN070    AAXX  18031 22422 41863 80412 11072 21093 49904 52006 73832 8802/;
0170224220999992000011806004+65900+034770FM-12+001099999V0200401N011010039019N0140001N1-00761-00981099351ADDAY131061AY221061GA1071+003909059GF107991071051004501021001MD1210211+9999MW1381REMSYN080    AAXX  18061 22422 11464 70411 11076 21098 49935 52021 73832 87520 333 87613;
0144224220999992000011809004+65900+034770FM-12+001099999V0200201N011010300019N0070001N1-00941-01291099531ADDAY131031AY221031GF105991031051004501031001MD1210171+9999MW1361REMSYN070    AAXX  18091 22422 41457 50211 11094 21129 49953 52017 73632 83530;
0144224220999992000011815004+65900+034770FM-12+001099999V0200301N013010210019N0060001N1-01011-01251099091ADDAY171031AY231031GF108991081001022501021999MD1210041+9999MW1711REMSYN070    AAXX  18151 22422 41856 80313 11101 21125 49909 52004 77173 8802/;
0184224220999992000011818004+65900+034770FM-12+001099999V0200501N012010210019N0120001N1-01121-01341099851ADDAA112001091AY171061AY231061GF108991081001022501021999KA1999M-00901MD1210051+9999MW1361REMSYN086    AAXX  18181 22422 11862 80512 11112 21134 49985 52005 60012 73673 8802/ 333 11090;
0165224220999992000011900004+65900+034770FM-12+001099999V0201501N010010210019N0150001N1-01321-01431099951ADDAY131061AY231061GF106991061001022501031001MA1999999099801MD1210101+9999MW1371REMSYN076    AAXX  19001 22422 41865 61510 11132 21143 39980 49995 52010 73733 86030;
0116224220999992000011903004+65900+034770FM-12+001099999V0201401N006010210019N0160001N1-01301-01421100001ADDGF105991051001022501031001MD1210051+9999REMSYN064    AAXX  19031 22422 42866 51406 11130 21142 40000 52005 85030;
0146224220999992000011906004+65900+034770FM-12+001099999V0201301N005012200019N0190001N1-01271-01391100061ADDAA199000091GF102991001001999999001011MD1210061+9999REMSYN064    AAXX  19061 22422 32969 21305 11127 21139 40006 52006 80001;EQDQ01  00002PRCP99
0116224220999992000011909004+65900+034770FM-12+001099999V0200301N003012200019N0220001N1-01021-01301100151ADDGF106991031051004501001011MD1210091+9999REMSYN064    AAXX  19091 22422 42472 60303 11102 21130 40015 52009 83501;
0163224220999992000011912004+65900+034770FM-12+001099999V0200401N006010300019N0200001N1-00991-01251100101ADDGA1041+004509059GF106991041051004501031001MA1999999099941MD1810051+9999REMSYN080    AAXX  19121 22422 42470 60406 11099 21125 39994 40010 58005 84530 333 84615;
0112224220999992000011915004+65900+034770FM-12+001099999V0200401N005010210019N0190001N1-01051-01251100091ADDGF108991081001022501021999MD1610011+9999REMSYN060AAXX  19151 22422 42869 80405 11105 21125 40009 56001 8802/;
0165224220999992000011918004+65900+034770FM-12+001099999V0200401N004010210019N0180001N1-01541-01731099991ADDAA199000091GF108991081001022501021999KA1999M-01531MD1710101+9999REMSYN070AAXX  19181 22422 32868 80404 11154 21173 49999 57010 8802/ 333 11153;EQDQ01  00002PRCP99
0133224220999992000012000004+65900+034770FM-12+001099999V0200901N002010210019N0170001N1-01951-02141099721ADDGF108991081001022501021999MA1999999099561MD1710131+9999REMSYN066AAXX  20001 22422 42867 80902 11195 21214 39956 49972 57013 8802/;
0140224220999992000012003004+65900+034770FM-12+001099999V0200701N002010210019N0060001N1-01721-01911099541ADDAY171031AY221031GF108991081001022501021999MD1710181+9999MW1711REMSYN066AAXX  20031 22422 41856 80702 11172 21191 49954 57018 77172 8802/;
0159224220999992000012006004+65900+034770FM-12+001099999V0203201N002010210019N0050001N1+99999-01621099371ADDAY171061AY221061GF108991081001022501021999MD1710171+9999MW1711REMSYN066AAXX  20061 22422 11850 83202 10142 21162 49937 57017 77172 8802/;EQDQ01+001423ATOT  
0140224220999992000012009004+65900+034770FM-12+001099999V0203001N002010210019N0060001N1-01241-01441099281ADDAY171031AY221031GF108991081001022501071001MD1710091+9999MW1711REMSYN066AAXX  20091 22422 41856 83002 11124 21144 49928 57009 77172 88070;
0161224220999992000012012004+65900+034770FM-12+001099999V0203401N002010210019N0060001N1-01351-01551099271ADDAY171061AY271061GF108991081001022501071999MA1999999099111MD1610011+9999MW1711REMSYN072AAXX  20121 22422 41856 83402 11135 21155 39911 49927 56001 77177 8807/;
0112224220999992000012015004+65900+034770FM-12+001099999V0203401N001012200019N0180001N1-01821-02011099241ADDGF104991041001022501031001MD1710031+9999REMSYN060AAXX  20151 22422 42868 43401 11182 21201 49924 57003 84030;
0152224220999992000012018004+65900+034770FM-12+001099999V0203201N004010210019N0150001N1-01641-01831099301ADDAA112000191GF108991081001022501011999KA1999M-01231MD1310061+9999REMSYN076AAXX  20181 22422 12865 83204 11164 21183 49930 53006 69922 8801/ 333 11123;
0133224220999992000012100004+65900+034770FM-12+001099999V0202801N002010210019N0160001N1-01841-02031099021ADDGF108991081001022501021999MA1999999098861MD1710191+9999REMSYN066AAXX  21001 22422 42866 82802 11184 21203 39886 49902 57019 8802/;
0139224220999992000012103004+65900+034770FM-12+001099999V0202901N005019999999N0190001N1-01261-01461099281ADDAY121031GF108991999999022501999999MD1310261+9999REMSYN060AAXX  21031 22422 42869 82905 11126 21146 49928 53026 7802/;EQDQ01+000802PRSWM1
0140224220999992000012106004+65900+034770FM-12+001099999V0200401N007010210019N0120001N1-00851-01081099241ADDAY171061AY231061GF106991061001022501031001MD1810031+9999MW1371REMSYN066AAXX  21061 22422 11862 60407 11085 21108 49924 58003 73773 86030;
0166224220999992000012109004+65900+034770FM-12+001099999V0200101N008010057019N0130001N1-00701-00991099271ADDAY131031AY231031GA1061+005709059GF108991061051004501021999MD1310031+9999MW1371REMSYN076AAXX  21091 22422 41463 80108 11070 21099 49927 53003 73733 8652/ 333 86619;
0187224220999992000012112004+65900+034770FM-12+001099999V0203601N010010039019N0080001N1-00581-00881099201ADDAY131061AY231061GA1071+003909059GF107991071051004501001001MA1999999099051MD1810071+9999MW1381REMSYN082AAXX  21121 22422 41458 73610 11058 21088 39905 49920 58007 73833 87500 333 87613;
0166224220999992000012115004+65900+034770FM-12+001099999V0203601N011010036019N0070001N1-00581-00881099191ADDAY131031AY231031GA1071+003609059GF107991071051004501001001MD1610011+9999MW1381REMSYN076AAXX  21151 22422 41457 73611 11058 21088 49919 56001 73833 87500 333 87612;
0215224220999992000012118004+65900+034770FM-12+001099999V0203301N010010039019N0070001N1-00541-00831099141ADDAA199000091AY131061AY231061GA1071+003909059GF107991071051004501001001KA1120M-00531MD1710051+9999MW1381REMSYN082AAXX  21181 22422 32457 73310 11054 21083 49914 57005 73833 87500 333 11053 87613;EQDQ01  00002PRCP99
0159224220999992000012200004+65900+034770FM-12+001099999V0203101N011010036019N0070001N1-00481-00761099041ADDGA1071+003609059GF107991071051004501001001MA1999999098891MD1710061+9999REMSYN076AAXX  22001 22422 41457 73111 11048 21076 39889 49904 57006 87500 333 87612;
0175224220999992000012203004+65900+034770FM-12+001099999V0200101N999992200019N0090001N1-00621-00931099341ADDAY131031AY231031GF103991999001022501021999MD1310301+9999MW1381REMSYN066AAXX  22031 22422 41859 35123 11062 21093 49934 53030 73833 8802/;EQDQ01+012301WOSPD Q02+000082SCOTLC
0196224220999992000012206004+65900+034770FM-12+001099999V0203501N012010054019N0080001N1-00651-00971099391ADDAA199000091AY131061AY231061GA1061+005409059GF108991061051004501021999MD1210051+9999MW1381REMSYN076AAXX  22061 22422 31458 83512 11065 21097 49939 52005 73833 8652/ 333 86618;EQDQ01  00002PRCP99
0166224220999992000012209004+65900+034770FM-12+001099999V0203501N009010048019N0120001N1-00751-01101099461ADDAY131031AY231031GA1071+004809059GF107991071051004501001001MD1210071+9999MW1371REMSYN076AAXX  22091 22422 41462 73509 11075 21110 49946 52007 73733 87500 333 87616;
0161224220999992000012212004+65900+034770FM-12+001099999V0203401N007010210019N0140001N1-00841-01161099531ADDAY131061AY231061GF106991061001022501031001MA1999999099381MD1210071+9999MW1361REMSYN072AAXX  22121 22422 41864 63407 11084 21116 39938 49953 52007 73633 86030;
0112224220999992000012215004+65900+034770FM-12+001099999V0203201N006010210019N0140001N1-01201-01471099571ADDGF105991051001022501021999MD1210031+9999REMSYN060AAXX  22151 22422 42864 53206 11120 21147 49957 52003 8502/;
0165224220999992000012218004+65900+034770FM-12+001099999V0203001N005010210019N0120001N1-01341-01611099591ADDAA199000091GF108991081001022501021999KA1999M-01331MD1110021+9999REMSYN070AAXX  22181 22422 32862 83005 11134 21161 49959 51002 8802/ 333 11133;EQDQ01  00002PRCP99
0133224220999992000012300004+65900+034770FM-12+001099999V0203001N004010210019N0140001N1-01561-01831099811ADDGF108991081001022501021999MA1999999099651MD1210091+9999REMSYN066AAXX  23001 22422 42864 83004 11156 21183 39965 49981 52009 8802/;
0112224220999992000012303004+65900+034770FM-12+001099999V0203001N002010210019N0150001N1-01511-01771099741ADDGF108991081001022501021999MD1810071+9999REMSYN060AAXX  23031 22422 42865 83002 11151 21177 49974 58007 8802/;
0142224220999992000012306004+65900+034770FM-12+001099999V0203401N001012200019N0170001N1-01281-01481099931ADDAA199000091GF103991021001022501031011MD1210191+9999REMSYN060AAXX  23061 22422 32867 33401 11128 21148 49993 52019 82031;EQDQ01  00002PRCP99
0112224220999992000012309004+65900+034770FM-12+001099999V0203501N002012200019N0190001N1-01081-01361100331ADDGF103991031001999999031001MD1210401+9999REMSYN060AAXX  23091 22422 42969 33502 11108 21136 40033 52040 83030;
0133224220999992000012312004+65900+034770FM-12+001099999V0200201N002010210019N0190001N1-01151-01351100621ADDGF106991061001022501031001MA1999999100461MD1210291+9999REMSYN066AAXX  23121 22422 42869 60202 11115 21135 30046 40062 52029 86030;
0112224220999992000012315004+65900+034770FM-12+001099999V0200201N002012200019N0160001N1-01101-01381100831ADDGF102991001001999999001011MD1210211+9999REMSYN060AAXX  23151 22422 42966 20202 11110 21138 40083 52021 80001;
0191224220999992000012318004+65900+034770FM-12+001099999V0200201N002012200019N0150001N1-01131-01411999999ADDAA199000091GA1001+999999999GF100991001001999999001001KA1999M-01131MD1210171+9999REMSYN064AAXX  23181 22422 32965 00202 11113 21141 40010 52017 333 11113;EQDQ01+100103APOSLPQ02  00002PRCP99
0143224220999992000012400004+65900+034770FM-12+001099999V0200201N001012200019N0150001N1-01451-01721101231ADDGA1001+999999999GF100991001001999999001001MA1999999101071MD1210121+9999REMSYN060AAXX  24001 22422 42965 00201 11145 21172 30107 40123 52012;
0122224220999992000012403004+65900+034770FM-12+001099999V0209999C000012200019N0170001N1-01721-02061101351ADDGA1001+999999999GF100991001001999999001001MD1210121+9999REMSYN054AAXX  24031 22422 42967 00000 11172 21206 40135 52012;
0152224220999992000012406004+65900+034770FM-12+001099999V0200501N001012200019N0180001N1-01461-01731101151ADDAA199000091GA1001+999999999GF100991001001999999001001MD1210121+9999REMSYN054AAXX  24061 22422 32968 00501 11146 21173 40115 52012;EQDQ01  00002PRCP99
0112224220999992000012409004+65900+034770FM-12+001099999V0200501N001010210019N0210001N1-01421-01551101651ADDGF107991071001022501071011MD1210181+9999REMSYN060AAXX  24091 22422 42871 70501 11142 21155 40165 52018 87071;
0133224220999992000012412004+65900+034770FM-12+001099999V0200801N001010750019N0200001N1-01551-01681101751ADDGF108991021001022501031031MA1999999101591MD1210101+9999REMSYN066AAXX  24121 22422 42870 80801 11155 21168 30159 40175 52010 82033;
0122224220999992000012415004+65900+034770FM-12+001099999V0200801N001012200019N0180001N1-01621-01751101761ADDGA1001+999999999GF100991001001999999001001MD1210111+9999REMSYN054AAXX  24151 22422 42968 00801 11162 21175 40176 52011;
0175224220999992000012418004+65900+034770FM-12+001099999V0200901N001012200019N0170001N1-01951-02071101871ADDAA199000091GA1001+999999999GF100991001001999999001001KA1999M-01411MD1110011+9999REMSYN064AAXX  24181 22422 32967 00901 11195 21207 40187 51001 333 11141;EQDQ01  00002PRCP99
0143224220999992000012500004+65900+034770FM-12+001099999V0209999C000012200019N0160001N1-02181-02341102021ADDGA1001+999999999GF100991001001999999001001MA1999999101851MD1210061+9999REMSYN060AAXX  25001 22422 42966 00000 11218 21234 30185 40202 52006;
0131224220999992000012503004+65900+034770FM-12+001099999V0200701N002019999999N0090001N1-02011-02201101581ADDGF105991999001022501021999MD1810431+9999REMSYN060AAXX  25031 22422 42859 50702 11201 21220 40158 58043 8602/;EQDQ01+000062SCOTLC
0142224220999992000012506004+65900+034770FM-12+001099999V0202301N002019999999N0200001N1-01881-02071100991ADDAA199000091GF106991001001999999001011MD1710591+9999REMSYN060AAXX  25061 22422 32970 62302 11188 21207 40099 57059 80001;EQDQ01  00002PRCP99
0112224220999992000012509004+65900+034770FM-12+001099999V0202301N004010210019N0190001N1-01821-02011100811ADDGF108991081001022501071999MD1710181+9999REMSYN060AAXX  25091 22422 42869 82304 11182 21201 40081 57018 8807/;
0133224220999992000012512004+65900+034770FM-12+001099999V0202101N005010210019N0180001N1-01611-01741100581ADDGF108991081001022501071999MA1999999100421MD1710231+9999REMSYN066AAXX  25121 22422 42868 82105 11161 21174 30042 40058 57023 8807/;
0112224220999992000012515004+65900+034770FM-12+001099999V0201901N005010210019N0170001N1-01681-01871100551ADDGF108991081001022501021999MD1710031+9999REMSYN060AAXX  25151 22422 42867 81905 11168 21187 40055 57003 8802/;
0181224220999992000012518004+65900+034770FM-12+001099999V0202101N005010210019N0150001N1-01431-01631100501ADDAA199000091GF108991081001022501021999KA1999M+99999MD1710051+9999REMSYN070AAXX  25181 22422 32865 82105 11143 21163 40050 57005 8802/ 333 11167;EQDQ01  00002PRCP99Q02 -01672ATMX  
0113224220999992000012600004+65900+034770FM-12+001099999V0202501N005010210019N0160001N1-01301-01501100351ADDGF108991081001022501021999MA1999999100191REMSYN060AAXX  26001 22422 42866 82505 11130 21150 30019 40035 8802/;
0140224220999992000012603004+65900+034770FM-12+001099999V0202601N005010210019N0080001N1-01221-01421100251ADDAY171031AY231031GF108991081001022501021999MD1710101+9999MW1361REMSYN066AAXX  26031 22422 41858 82605 11122 21142 40025 57010 73673 8802/;
0140224220999992000012606004+65900+034770FM-12+001099999V0202501N006010210019N0100001N1-01281-01411099721ADDAY171061AY231061GF108991081001022501021999MD1810531+9999MW1371REMSYN066AAXX  26061 22422 11860 82506 11128 21141 49972 58053 73773 8802/;
0140224220999992000012609004+65900+034770FM-12+001099999V0202101N009010210019N0025001N1-01381-01581099451ADDAY171031AY231031GF108991081001022501021999MD1710271+9999MW1711REMSYN066AAXX  26091 22422 41825 82109 11138 21158 49945 57027 77173 8802/;
0161224220999992000012612004+65900+034770FM-12+001099999V0202101N009010210019N0025001N1-01201-01401098941ADDAY171061AY221061GF108991081001022501021999MA1999999098781MD1710511+9999MW1711REMSYN072AAXX  26121 22422 42825 82109 11120 21140 39878 49894 57051 77172 8802/;
0185224220999992000012615004+65900+034770FM-12+001099999V0202001N010010030019N0020001N1-01151-01281098621ADDAY171031AY271031GA1081+003009069GF108991999071004501021999MD1710311+9999MW1711REMSYN076AAXX  26151 22422 41420 82010 11115 21128 49862 57031 77177 8872/ 333 88710;EQDQ01+000082SCOTLC
0202224220999992000012618004+65900+034770FM-12+001099999V0202101N007010036019N0120001N1-01131-01261098341ADDAA112007991AY171061AY231061GA1071+003609059GF107991071051004501001001KA1120M-01101MD1710261+9999MW1371REMSYN088AAXX  26181 22422 11462 72107 11113 21126 49834 57026 60082 73773 87500 333 11110 87612;
0159224220999992000012700004+65900+034770FM-12+001099999V0202101N003010042019N0130001N1-01001-01131098241ADDGA1071+004209059GF107991071051004501001001MA1999999098081MD1710061+9999REMSYN076AAXX  27001 22422 42463 72103 11100 21113 39808 49824 57006 87500 333 87614;
0138224220999992000012703004+65900+034770FM-12+001099999V0202201N002010039019N0160001N1-00851-01041098081ADDGA1071+003909059GF107991071051004501001001MD1710151+9999REMSYN070AAXX  27031 22422 42466 72202 11085 21104 49808 57015 87500 333 87613;
0168224220999992000012706004+65900+034770FM-12+001099999V0202901N002010051019N0150001N1-00371-00481097991ADDAA199000091GA1071+005109059GF107991071051004501001001MD1710091+9999REMSYN070AAXX  27061 22422 32465 72902 11037 21048 49799 57009 87500 333 87617;EQDQ01  00002PRCP99
0112224220999992000012709004+65900+034770FM-12+001099999V0202901N002010210019N0200001N1-00451-00801098171ADDGF105991051001022501031001MD1310181+9999REMSYN060AAXX  27091 22422 42870 52902 11045 21080 49817 53018 85030;
0133224220999992000012712004+65900+034770FM-12+001099999V0202701N002012200019N0200001N1-00621-00971098201ADDGF103991031001022501031001MA1999999098051MD1210031+9999REMSYN066AAXX  27121 22422 42870 32702 11062 21097 39805 49820 52003 83030;
0112224220999992000012715004+65900+034770FM-12+001099999V0202701N001012200019N0180001N1-00911-01161098221ADDGF103991001001999999001011MD1110021+9999REMSYN060AAXX  27151 22422 42968 32701 11091 21116 49822 51002 80001;
0175224220999992000012718004+65900+034770FM-12+001099999V0202501N001012200019N0180001N1-01101-01301098241ADDAA199000091GA1001+999999999GF100991001001999999001001KA1999M-01101MD1210041+9999REMSYN064AAXX  27181 22422 32968 02501 11110 21130 49824 52004 333 11110;EQDQ01  00002PRCP99
0143224220999992000012800004+65900+034770FM-12+001099999V0202401N001012200019N0190001N1-01481-01681098521ADDGA1001+999999999GF100991001001999999001001MA1999999098381MD1210101+9999REMSYN060AAXX  28001 22422 42969 02401 11148 21168 39838 49852 52010;
0152224220999992000012803004+65900+034770FM-12+001099999V0202501N002012200019N0190001N1-01531-01801098361ADDAA199000091GA1001+999999999GF100991001001999999001001MD1810181+9999REMSYN054AAXX  28031 22422 32969 02502 11153 21180 49836 58018;EQDQ01  00002PRCP99
0174224220999992000012806004+65900+034770FM-12+001099999V0202701N002012200019N0200001N1+99999-01841098331ADDAA199000091GF102991999001022501031001MD1710031+9999REMSYN060AAXX  28061 22422 32870 22702 10165 21184 49833 57003 83030;EQDQ01+000032SCOTLCQ02+001653ATOT  Q03  00002PRCP99
0112224220999992000012809004+65900+034770FM-12+001099999V0202701N002012200019N0240001N1-01451-01721098411ADDGF102991001001999999001011MD1310081+9999REMSYN060AAXX  28091 22422 42974 22702 11145 21172 49841 53008 80001;
0143224220999992000012812004+65900+034770FM-12+001099999V0202601N002012200019N0250001N1-01401-01751098461ADDGA1001+999999999GF100991001001999999001001MA1999999098301MD1210051+9999REMSYN060AAXX  28121 22422 42975 02602 11140 21175 39830 49846 52005;
0122224220999992000012815004+65900+034770FM-12+001099999V0202701N002012200019N0180001N1-01721-01981098521ADDGA1001+999999999GF100991001001999999001001MD1210061+9999REMSYN054AAXX  28151 22422 42968 02702 11172 21198 49852 52006;
0175224220999992000012818004+65900+034770FM-12+001099999V0202701N001012200019N0170001N1-01901-02091098641ADDAA199000091GA1001+999999999GF100991001001999999001001KA1999M-01381MD1210121+9999REMSYN064AAXX  28181 22422 32967 02701 11190 21209 49864 52012 333 11138;EQDQ01  00002PRCP99
0143224220999992000012900004+65900+034770FM-12+001099999V0209999C000012200019N0190001N1-02131-02311098801ADDGA1001+999999999GF100991001001999999001001MA1999999098641MD1210091+9999REMSYN060AAXX  29001 22422 42969 00000 11213 21231 39864 49880 52009;
0122224220999992000012903004+65900+034770FM-12+001099999V0209999C000012200019N0190001N1-02181-02361098851ADDGA1001+999999999GF100991001001999999001001MD1210051+9999REMSYN054AAXX  29031 22422 42969 00000 11218 21236 49885 52005;
0142224220999992000012906004+65900+034770FM-12+001099999V0209999C000012200019N0200001N1-02241-02421098891ADDAA199000091GF102991011001022501031011MD1210041+9999REMSYN060AAXX  29061 22422 32870 20000 11224 21242 49889 52004 81031;EQDQ01  00002PRCP99
0112224220999992000012909004+65900+034770FM-12+001099999V0202601N001012200019N0250001N1-01961-02151099011ADDGF102991001001999999001011MD1210121+9999REMSYN060AAXX  29091 22422 42975 22601 11196 21215 49901 52012 80001;
0122224220999992000012912004+65900+034770FM-12+001099999V0202701N001012200019N0240001N1-01751-01941099131ADDGA1001+999999999GF100991001001999999001001MD1210121+9999REMSYN054AAXX  29121 22422 42974 02701 11175 21194 49913 52012;
0112224220999992000012915004+65900+034770FM-12+001099999V0202801N002010210019N0170001N1-01951-02051098971ADDGF106991061001022501031001MD1810161+9999REMSYN060AAXX  29151 22422 42867 62802 11195 21205 49897 58016 86030;
0165224220999992000012918004+65900+034770FM-12+001099999V0202701N002012200019N0150001N1-01841-01961098721ADDAA199000091GF104991041001022501031001KA1999M-01731MD1710251+9999REMSYN070AAXX  29181 22422 32865 42702 11184 21196 49872 57025 84030 333 11173;EQDQ01  00002PRCP99
0133224220999992000013000004+65900+034770FM-12+001099999V0202101N002010210019N0160001N1-01631-01751098391ADDGF105991051001022501031001MA1999999098231MD1710191+9999REMSYN066AAXX  30001 22422 42866 52102 11163 21175 39823 49839 57019 85030;
0166224220999992000013006004+65900+034770FM-12+001099999V0201701N010010036019N0027001N1-00321-00391097581ADDAY171061AY231061GA1061+003609069GF108991061071004501021999MD1810471+9999MW1711REMSYN076AAXX  30061 22422 11427 81710 11032 21039 49758 58047 77173 8672/ 333 86712;
0185224220999992000013009004+65900+034770FM-12+001099999V0201801N014010033019N0014001N1-00251-00311097381ADDAY171031AY271031GA1081+003309069GF108991999071004501021999MD1210201+9999MW1711REMSYN076AAXX  30091 22422 41414 81814 11025 21031 49738 52020 77177 8872/ 333 88711;EQDQ01+000082SCOTLC
0206224220999992000013012004+65900+034770FM-12+001099999V0201801N015010027019N0011001N1-00111-00151097261ADDAY171061AY271061GA1081+002709069GF108991999071002501021999MA1999999097111MD1710121+9999MW1711REMSYN082AAXX  30121 22422 41311 81815 11011 21015 39711 49726 57012 77177 8872/ 333 88709;EQDQ01+000082SCOTLC
0185224220999992000013015004+65900+034770FM-12+001099999V0201801N011010033019N0035001N1-00101-00141097281ADDAY171031AY231031GA1081+003309069GF108991999071004501021999MD1310021+9999MW1711REMSYN076AAXX  30151 22422 41435 81811 11010 21014 49728 53002 77173 8872/ 333 88711;EQDQ01+000082SCOTLC
0221224220999992000013018004+65900+034770FM-12+001099999V0201601N008010039019N0041001N1-00061-00121097261ADDAA112002091AY171061AY231061GA1081+003909069GF108991999071004501021999KA1120M-00041MD1810021+9999MW1711REMSYN088AAXX  30181 22422 11441 81608 11006 21012 49726 58002 60022 77173 8872/ 333 11004 88713;EQDQ01+000082SCOTLC
0187224220999992000013100004+65900+034770FM-12+001099999V0201701N005010042019N0120001N1-00171-00221097221ADDAY171061AY231061GA1071+004209059GF107991071051004501001001MA1999999097071MD1710031+9999MW1361REMSYN082AAXX  31001 22422 41462 71705 11017 21022 39707 49722 57003 73673 87500 333 87614;
0168224220999992000013103004+65900+034770FM-12+001099999V0201701N004010042019N0150001N1-00221-00291096871ADDAA199000021GA1081+004209059GF199999071051004501001001MD1710351+9999REMSYN070AAXX  31031 22422 31465 71704 11022 21029 49687 57035 87500 333 88614;EQDQ01+000072SCOTCV
0140224220999992000013106004+65900+034770FM-12+001099999V0201701N008010210019N0044001N1-00101-00141096691ADDAY171061AY231061GF108991081001022501021999MD1710181+9999MW1711REMSYN066AAXX  31061 22422 11844 81708 11010 21014 49669 57018 77173 8802/;
0140224220999992000013109004+65900+034770FM-12+001099999V0201701N007010210019N0038001N1-00051-00081096561ADDAY171031AY231031GF108991081001022501021999MD1710131+9999MW1711REMSYN066AAXX  31091 22422 41838 81707 11005 21008 49656 57013 77173 8802/;
0187224220999992000013112004+65900+034770FM-12+001099999V0202301N005010036019N0140001N1-00351-00461096711ADDAY171061AY231061GA1071+003609059GF107991071051004501001001MA1999999096551MD1310141+9999MW1361REMSYN082AAXX  31121 22422 41464 72305 11035 21046 39655 49671 53014 73673 87500 333 87612;
0166224220999992000013115004+65900+034770FM-12+001099999V0202301N005010039019N0100001N1-00751-00881096961ADDAY171031AY231031GA1071+003909059GF107991071051004501001001MD1210261+9999MW1711REMSYN076AAXX  31151 22422 41460 72305 11075 21088 49696 52026 77173 87500 333 87613;
0221224220999992000013118004+65900+034770FM-12+001099999V0202401N007010033019N0041001N1-00841-01161097271ADDAA112001091AY171061AY231061GA1081+003309069GF108991999071004501021999KA1120M-00031MD1210311+9999MW1381REMSYN088AAXX  31181 22422 11441 82407 11084 21116 49727 52031 60012 73873 8872/ 333 11003 88711;EQDQ01+000082SCOTLC
0171224220999992000020100004+65900+034770FM-12+001099999V0201901N004012200019N0140001N1-01261-01531097541ADDAY171061AY231061GA1001+999999999GF100991001001999999001001MA1999999097381MD1210121+9999MW1361REMSYN066AAXX  01001 22422 41964 01904 11126 21153 39738 49754 52012 73673;
0138224220999992000020103004+65900+034770FM-12+001099999V0202001N002010039019N0160001N1-01021-01341097421ADDGA1071+003909059GF107991071051004501001001MD1810121+9999REMSYN070AAXX  01031 22422 42466 72002 11102 21134 49742 58012 87500 333 87613;
0138224220999992000020106004+65900+034770FM-12+001099999V0202301N002010054019N0170001N1-01101-01161097351ADDGA1061+005409059GF106991061051004501001001MD1710061+9999REMSYN070AAXX  01061 22422 12467 62302 11110 21116 49735 57006 86500 333 86618;
0112224220999992000020109004+65900+034770FM-12+001099999V0202401N001010300019N0210001N1-01151-01281097401ADDGF106991031051004501031001MD1310051+9999REMSYN060AAXX  01091 22422 42471 62401 11115 21128 49740 53005 83530;
0133224220999992000020112004+65900+034770FM-12+001099999V0202501N001012200019N0190001N1-00881-01071097481ADDGF106991031001022501031011MA1999999097331MD1210081+9999REMSYN066AAXX  01121 22422 42869 62501 11088 21107 39733 49748 52008 83031;
0112224220999992000020115004+65900+034770FM-12+001099999V0202401N001010300019N0120001N1-00901-01401097491ADDGF106991031051004501031001MD1110011+9999REMSYN060AAXX  01151 22422 42462 62401 11090 21140 49749 51001 83530;
0165224220999992000020118004+65900+034770FM-12+001099999V0202501N003012200019N0130001N1-00561-00861097441ADDAA199000091GF102991021001022501031001KA1999M-00551MD1810051+9999REMSYN070AAXX  01181 22422 32863 22503 11056 21086 49744 58005 82030 333 11055;EQDQ01  00002PRCP99
0159224220999992000020200004+65900+034770FM-12+001099999V0202501N005010054019N0130001N1-00391-00651097561ADDGA1071+005409059GF107991071051004501001001MA1999999097411MD1210031+9999REMSYN076AAXX  02001 22422 42463 72505 11039 21065 39741 49756 52003 87500 333 87618;
0112224220999992000020203004+65900+034770FM-12+001099999V0202601N002012200019N0140001N1-00521-00811097811ADDGF102991021001022501031001MD1210251+9999REMSYN060AAXX  02031 22422 42864 22602 11052 21081 49781 52025 82030;
0142224220999992000020206004+65900+034770FM-12+001099999V0202701N002010300019N0170001N1-00851-01001097881ADDAA199000091GF106991021051004501031001MD1210071+9999REMSYN060AAXX  02061 22422 32467 62702 11085 21100 49788 52007 82530;EQDQ01  00002PRCP99
0112224220999992000020209004+65900+034770FM-12+001099999V0202701N002010300019N0250001N1-00751-00921097941ADDGF106991021051004501031001MD1210061+9999REMSYN060AAXX  02091 22422 42475 62702 11075 21092 49794 52006 82530;
0140224220999992000020212004+65900+034770FM-12+001099999V0202701N003010210019N0035001N1-00621-00771097951ADDAY171061AY221061GF108991081001022501021999MD1210051+9999MW1711REMSYN066AAXX  02121 22422 41835 82703 11062 21077 49795 52005 77172 8802/;
0112224220999992000020215004+65900+034770FM-12+001099999V0202801N002010210019N0140001N1-00651-00771097961ADDGF108991081001022501071999MD1810031+9999REMSYN060AAXX  02151 22422 42864 82802 11065 21077 49796 58003 8807/;
0162224220999992000020218004+65900+034770FM-12+001099999V0202801N001012200019N0130001N1-00961-01171097981ADDAA112000591GA1001+999999999GF100991001001999999001001KA1999M-00601MD1110021+9999REMSYN070AAXX  02181 22422 12963 02801 11096 21117 49798 51002 69962 333 11060;
0143224220999992000020300004+65900+034770FM-12+001099999V0209999C000012200019N0150001N1-01281-01481098221ADDGA1001+999999999GF100991001001999999001001MA1999999098061MD1210141+9999REMSYN060AAXX  03001 22422 42965 00000 11128 21148 39806 49822 52014;
0122224220999992000020303004+65900+034770FM-12+001099999V0209999C000012200019N0170001N1-01411-01611098271ADDGA1001+999999999GF100991001001999999001001MD1210051+9999REMSYN054AAXX  03031 22422 42967 00000 11141 21161 49827 52005;
0142224220999992000020306004+65900+034770FM-12+001099999V0202701N001012200019N0180001N1-01651-01781098221ADDAA199000091GF103991031001022501031001MD1810051+9999REMSYN060AAXX  03061 22422 32868 32701 11165 21178 49822 58005 83030;EQDQ01  00002PRCP99
0112224220999992000020309004+65900+034770FM-12+001099999V0202701N001012200019N0260001N1-01601-01791098451ADDGF102991001001999999001011MD1310231+9999REMSYN060AAXX  03091 22422 42976 22701 11160 21179 49845 53023 80001;
0101224220999992000020312004+65900+034770FM-12+001099999V0202701N001019999999N0240001N1-01351-01551999999ADDMA1999999098541MD1210301+9999REMSYN060AAXX  03121 22422 42474 /2701 11135 21155 39854 52030 82531;
0131224220999992000020315004+65900+034770FM-12+001099999V0202701N002012200019N0190001N1-01551-01741098921ADDGF102991001001999999001011MD1210171+9999REMSYN060AAXX  03151 22422 42969 22702 11155 21174 49892 52017 82001;EQDQ01+000022SCOTLC
0181224220999992000020318004+65900+034770FM-12+001099999V0202701N004012200019N0180001N1-01541-01731098981ADDAA199000091GF101991001001999999001011KA1999M-01331MD1210061+9999REMSYN070AAXX  03181 22422 32968 12704 11154 21173 49898 52006 81001 333 11133;EQDQ01+000012SCOTLCQ02  00002PRCP99
0143224220999992000020400004+65900+034770FM-12+001099999V0202601N004012200019N0160001N1-01671-01861099161ADDGA1001+999999999GF100991001001999999001001MA1999999099001MD1210081+9999REMSYN060AAXX  04001 22422 42966 02604 11167 21186 39900 49916 52008;
0122224220999992000020403004+65900+034770FM-12+001099999V0202701N003012200019N0180001N1-01491-01691099561ADDGA1001+999999999GF100991001001999999001001MD1210391+9999REMSYN054AAXX  04031 22422 42968 02703 11149 21169 49956 52039;
0152224220999992000020406004+65900+034770FM-12+001099999V0202801N002012200019N0190001N1-01201-01331099541ADDAA199000091GA1001+999999999GF100991001001999999001001MD1810011+9999REMSYN054AAXX  04061 22422 32969 02802 11120 21133 49954 58001;EQDQ01  00002PRCP99
0112224220999992000020409004+65900+034770FM-12+001099999V0202701N002019999999N0260001N1-01051-01251099531ADDGF105991001001999999001011MD1410001+9999REMSYN060AAXX  04091 22422 42976 52702 11105 21125 49953 54000 80001;
0133224220999992000020412004+65900+034770FM-12+001099999V0202701N001019999999N0250001N1-01261-01461099331ADDGF105991001001999999001011MA1999999099171MD1810211+9999REMSYN066AAXX  04121 22422 42975 52701 11126 21146 39917 49933 58021 80001;
0112224220999992000020415004+65900+034770FM-12+001099999V0202401N001010210019N0160001N1-01561-01691099161ADDGF106991061001022501031001MD1710171+9999REMSYN060AAXX  04151 22422 42866 62401 11156 21169 49916 57017 86030;
0187224220999992000020418004+65900+034770FM-12+001099999V0201901N003010042019N0140001N1-01001-01121098751ADDAA199000091GA1071+004209059GF107991071051004501001001KA1120M-01031MD1810401+9999REMSYN076AAXX  04181 22422 32464 71903 11100 21112 49875 58040 87500 333 11103 87614;EQDQ01  00002PRCP99
0159224220999992000020500004+65900+034770FM-12+001099999V0201001N006010036019N0140001N1-00791-00891098531ADDGA1071+003609059GF107991071051004501001001MA1999999098381MD1710121+9999REMSYN076AAXX  05001 22422 42464 71006 11079 21089 39838 49853 57012 87500 333 87612;
0166224220999992000020503004+65900+034770FM-12+001099999V0201501N001010039019N0080001N1-00611-00691098861ADDAY171031AY221031GA1071+003909059GF107991071051004501001001MD1310331+9999MW1711REMSYN076AAXX  05031 22422 41458 71501 11061 21069 49886 53033 77172 87500 333 87613;
0140224220999992000020506004+65900+034770FM-12+001099999V0201401N001010300019N0120001N1-00801-00861099081ADDAY171061AY221061GF108991031051004501071999MD1210221+9999MW1221REMSYN066AAXX  05061 22422 11462 81401 11080 21086 49908 52022 72272 8357/;
0140224220999992000020509004+65900+034770FM-12+001099999V0201401N001010300019N0050001N1-00831-00891099371ADDAY171031AY221031GF108991021051004501071999MD1210191+9999MW1711REMSYN066AAXX  05091 22422 41450 81401 11083 21089 49937 52019 77172 8257/;
0161224220999992000020512004+65900+034770FM-12+001099999V0209999C000010210019N0047001N1-00751-00841099701ADDAY171061AY221061GF108991081001022501021999MA1999999099551MD1210331+9999MW1711REMSYN072AAXX  05121 22422 41847 80000 11075 21084 39955 49970 52033 77172 8802/;
0166224220999992000020515004+65900+034770FM-12+001099999V0202601N002010066019N0120001N1-00941-00971099901ADDAY171031AY221031GA1061+006609059GF106991061051008001001001MD1210191+9999MW1221REMSYN076AAXX  05151 22422 41562 62602 11094 21097 49990 52019 72272 86500 333 86622;
0152224220999992000020518004+65900+034770FM-12+001099999V0202501N002010210019N0140001N1-01051-01111100061ADDAA112000591GF106991061001022501031001KA1999M-00731MD1210161+9999REMSYN076AAXX  05181 22422 12864 62502 11105 21111 40006 52016 69962 86030 333 11073;
0133224220999992000020600004+65900+034770FM-12+001099999V0202101N001010210019N0150001N1-01281-01341100311ADDGF105991051001022501031001MA1999999100151MD1210111+9999REMSYN066AAXX  06001 22422 42865 52101 11128 21134 30015 40031 52011 85030;
0112224220999992000020603004+65900+034770FM-12+001099999V0202501N003010210019N0160001N1-01341-01471100331ADDGF107991071001022501031001MD1110021+9999REMSYN060AAXX  06031 22422 42866 72503 11134 21147 40033 51002 87030;
0142224220999992000020606004+65900+034770FM-12+001099999V0209999C000010300019N0180001N1-01101-01161100201ADDAA199000091GF106991021051004501031011MD1810131+9999REMSYN060AAXX  06061 22422 32468 60000 11110 21116 40020 58013 82531;EQDQ01  00002PRCP99
0112224220999992000020609004+65900+034770FM-12+001099999V0202301N001012200019N0240001N1-01201-01331100051ADDGF106991041001022501031011MD1710151+9999REMSYN060AAXX  06091 22422 42874 62301 11120 21133 40005 57015 84031;
0133224220999992000020612004+65900+034770FM-12+001099999V0202201N002012200019N0220001N1-01101-01231099801ADDGF106991031001022501031011MA1999999099641MD1710251+9999REMSYN066AAXX  06121 22422 42872 62202 11110 21123 39964 49980 57025 83031;
0166224220999992000020615004+65900+034770FM-12+001099999V0201801N005010042019N0180001N1-00801-00981099351ADDAY131031AY221031GA1071+004209059GF107991071051004501031001MD1810441+9999MW1361REMSYN076AAXX  06151 22422 41468 71805 11080 21098 49935 58044 73632 87530 333 87614;
0215224220999992000020618004+65900+034770FM-12+001099999V0201701N005010039019N0140001N1-00641-00721098941ADDAA199000091AY131061AY221061GA1061+003909059GF107991061051004501031001KA1120M-00631MD1710231+9999MW1361REMSYN082AAXX  06181 22422 31464 71705 11064 21072 49894 57023 73632 86530 333 11063 86613;EQDQ01  00002PRCP99
0187224220999992000020700004+65900+034770FM-12+001099999V0201801N005010039019N0130001N1-00491-00551098741ADDAY131061AY221061GA1051+003909059GF107991051051004501031001MA1999999098591MD1710161+9999MW1361REMSYN082AAXX  07001 22422 41463 71805 11049 21055 39859 49874 57016 73632 85530 333 85613;
0157224220999992000020703004+65900+034770FM-12+001099999V0201801N003010042019N0150001N1-00521-00621098102ADDGA1051+004209059GF106991051051004501031001MD1410001+9999REMSYN070AAXX  07031 22422 42465 61803 11052 21062 49810 54000 85530 333 85614;EQDQ01+098103APOSLP
0112224220999992000020706004+65900+034770FM-12+001099999V0202701N002010210019N0150001N1-00801-00861098521ADDGF106991061001022501031001MD1310421+9999REMSYN060AAXX  07061 22422 12865 62702 11080 21086 49852 53042 86030;
0112224220999992000020709004+65900+034770FM-12+001099999V0202701N001010300019N0260001N1-00361-00471098691ADDGF106991021051004501031001MD1210171+9999REMSYN060AAXX  07091 22422 42476 62701 11036 21047 49869 52017 82530;
0143224220999992000020712004+65900+034770FM-12+001099999V0209999C000012200019N0250001N1-00251-00471098961ADDGA1001+999999999GF100991001001999999001001MA1999999098841MD1210301+9999REMSYN060AAXX  07121 22422 42975 00000 11025 21047 39884 49896 52030;
0131224220999992000020715004+65900+034770FM-12+001099999V0202601N002019999999N0200001N1-00351-00531099001ADDGF106991001001999999001011MD1110011+9999REMSYN060AAXX  07151 22422 42970 62602 11035 21053 49900 51001 86001;EQDQ01+000062SCOTLC
0165224220999992000020718004+65900+034770FM-12+001099999V0201801N002010210019N0190001N1-00461-00621099001ADDAA199000091GF106991061001022501031001KA1999M-00231MD1410001+9999REMSYN070AAXX  07181 22422 32869 61802 11046 21062 49900 54000 86030 333 11023;EQDQ01  00002PRCP99
0159224220999992000020800004+65900+034770FM-12+001099999V0201801N003010042019N0160001N1-00201-00261098581ADDGA1071+004209059GF107991071051004501001001MA1999999098431MD1710221+9999REMSYN076AAXX  08001 22422 42466 71803 11020 21026 39843 49858 57022 87500 333 87614;
0177224220999992000020803004+65900+034770FM-12+001099999V0201901N003010039019N0060001N1-00151-00201098301ADDAA199000021AY171031AY221031GA1071+003909059GF107991071051004501001001MD1710281+9999MW1711REMSYN076AAXX  08031 22422 31456 71903 11015 21020 49830 57028 77172 87500 333 87613;
0160224220999992000020806004+65900+034770FM-12+001099999V0201801N002010210019N0130001N1-00051-00081098061ADDAY171061AY231061GF108991081001022501021999MD1710241+9999MW1221REMSYN086AAXX  08061 22422 11863 81802 11005 21008 49806 57024 72273 8802/ 555 81028 49082 600;
0159224220999992000020809004+65900+034770FM-12+001099999V0201801N002019999999N0016001N1-00041-00071097991ADDAY171031AY221031GF105991999001022501021999MD1710071+9999MW1731REMSYN066AAXX  08091 22422 41816 51802 11004 21007 49799 57007 77372 8802/;EQDQ01+000082SCOTLC
0159224220999992000020812004+65900+034770FM-12+001099999V0201901N002010045019N0180001N1+00051+00021097931ADDGA1071+004509059GF108991071051004501001001MA1999999097781MD1710061+9999REMSYN076AAXX  08121 22422 42468 81902 10005 20002 39778 49793 57006 87500 333 87615;
0161224220999992000020815004+65900+034770FM-12+001099999V0201901N003010042019N0090001N1+00061-00021097391ADDAA124069191AY181031AY221031GF107991071091004501001001MD1710141+9999MW1801REMSYN076AAXX  08151 22422 41459 71903 10006 21002 49739 57014 78082 87900 333 77911;
0174224220999992000020818004+65900+034770FM-12+001099999V0201901N003010036019N0120001N1+00051+00021097761ADDAA112002091GA1081+003609099GF108991081091004501999999KA1120M+00081MD1710031+9999REMSYN082AAXX  08181 22422 12462 81903 10005 20002 49776 57003 60022 889// 333 10008 88912;
0189224220999992000020900004+65900+034770FM-12+001099999V0201901N002010042019N0140001N1+00001-00061097841ADDAA100999999GA1071+004209059GF107991999999004501999999MA1999999096691MD1310081+9999REMSYN076AAXX  09001 22422 42464 71902 11000 21006 39669 49784 53008 67500 333 87614;EQDQ01  75012PRCP00
0112224220999992000020903004+65900+034770FM-12+001099999V0201901N002010210019N0130001N1+00021-00041097851ADDGF108991081001022501021999MD1110011+9999REMSYN060AAXX  09031 22422 42863 81902 10002 21004 49785 51001 8802/;
0138224220999992000020906004+65900+034770FM-12+001099999V0202201N003010039019N0140001N1+00051-00091097991ADDGA1071+003909099GF107991071091008001001001MD1210141+9999REMSYN070AAXX  09061 22422 12564 72203 10005 21009 49799 52014 87900 333 87913;
0138224220999992000020909004+65900+034770FM-12+001099999V0202701N001010045019N0180001N1-00131-00391098231ADDGA1071+004509059GF107991071051004501001001MD1210241+9999REMSYN070AAXX  09091 22422 42468 72701 11013 21039 49823 52024 87500 333 87615;
0133224220999992000020912004+65900+034770FM-12+001099999V0202901N002012200019N0230001N1-00251-00521098451ADDGF106991031001022501031011MA1999999098301MD1210221+9999REMSYN066AAXX  09121 22422 42873 62902 11025 21052 39830 49845 52022 83031;
0112224220999992000020915004+65900+034770FM-12+001099999V0202701N002012200019N0180001N1-00491-00701098631ADDGF106991031001022501031011MD1210181+9999REMSYN060AAXX  09151 22422 42868 62702 11049 21070 49863 52018 83031;
0181224220999992000020918004+65900+034770FM-12+001099999V0202601N001019999999N0170001N1-00721-00931098801ADDAA199000091GF105991001001999999001011KA1999M-00101MD1210171+9999REMSYN070AAXX  09181 22422 32967 52601 11072 21093 49880 52017 85001 333 11010;EQDQ01+000052SCOTLCQ02  00002PRCP99
0152224220999992000021000004+65900+034770FM-12+001099999V0202601N002012200019N0170001N1-00931-01141098971ADDGF104991001001999999001011MA1999999098821MD1210091+9999REMSYN066AAXX  10001 22422 42967 42602 11093 21114 39882 49897 52009 84001;EQDQ01+000042SCOTLC
0122224220999992000021003004+65900+034770FM-12+001099999V0202601N001012200019N0190001N1-01041-01241099181ADDGA1001+999999999GF100991001001999999001001MD1210201+9999REMSYN054AAXX  10031 22422 42969 02601 11104 21124 49918 52020;
0142224220999992000021006004+65900+034770FM-12+001099999V0202701N002012200019N0200001N1-01031-01231099291ADDAA199000091GF102991021001022501031001MD1210121+9999REMSYN060AAXX  10061 22422 32870 22702 11103 21123 49929 52012 82030;EQDQ01  00002PRCP99
0131224220999992000021009004+65900+034770FM-12+001099999V0202701N003012200019N0260001N1-00951+99999099511ADDGF102991001001999999001999MD1210221+9999REMSYN060AAXX  10091 22422 42976 22703 11095 21025 49951 52022 8080/;EQDQ01+000082SCOLCG
0133224220999992000021012004+65900+034770FM-12+001099999V0202801N003012200019N0250001N1-00861-01191099721ADDGF104991001001999999001011MA1999999099561MD1210201+9999REMSYN066AAXX  10121 22422 42975 42803 11086 21119 39956 49972 52020 80001;
0112224220999992000021015004+65900+034770FM-12+001099999V0202601N002012200019N0190001N1-00751-00971099761ADDGF105991031001022501031011MD1210051+9999REMSYN060AAXX  10151 22422 42869 52602 11075 21097 49976 52005 83031;
0187224220999992000021018004+65900+034770FM-12+001099999V0202601N005010042019N0180001N1-00751-00881099671ADDAA199000091GA1051+004209059GF106991051031004501051001KA1120M-00731MD1810091+9999REMSYN076AAXX  10181 22422 32468 62605 11075 21088 49967 58009 85350 333 11073 85614;EQDQ01  00002PRCP99
0157224220999992000021103004+65900+034770FM-12+001099999V0202701N006010042019N0170001N1-00361-00551098991ADDGA1071+004209059GF107991071051004501001001MD1710702+9999REMSYN070AAXX  11031 22422 42467 72706 11036 21055 49899 57070 87500 333 87614;EQDQ01+000702APC3  
0168224220999992000021106004+65900+034770FM-12+001099999V0202101N005010048019N0170001N1+00051-00331098721ADDAA199000091GA1071+004809059GF107991071051004501001001MD1710171+9999REMSYN070AAXX  11061 22422 32467 72105 10005 21033 49872 57017 87500 333 87616;EQDQ01  00002PRCP99
0143224220999992000021112004+65900+034770FM-12+001099999V02099999999990042019N0150001N1+00251-00211098451ADDGF106991061051004501001001MA1999999098301MD1610021+9999REMSYN076AAXX  11121 22422 42465 6209/ 10025 21021 39830 49845 56002 86500 333 8/615;
0138224220999992000021115004+65900+034770FM-12+001099999V0202101N007010048019N0170001N1+00221-00181098501ADDGA1051+004809059GF106991051051004501031001MD1310051+9999REMSYN070AAXX  11151 22422 42467 62107 10022 21018 49850 53005 85530 333 85616;
0135224220999992000021118004+65900+034770FM-12+001099999V0202101N003010210019N0160001N1+00201-00371098541ADDGF106991061001022501031001KA1999M+00291MD1210041+9999REMSYN070AAXX  11181 22422 13866 62103 10020 21037 49854 52004 86030 333 10029;
0133224220999992000021200004+65900+034770FM-12+001099999V0202001N004012200019N0150001N1+00101-00321098781ADDGF102991021001022501031001MA1999999098631MD1210161+9999REMSYN066AAXX  12001 22422 42865 22004 10010 21032 39863 49878 52016 82030;
0112224220999992000021203004+65900+034770FM-12+001099999V0202101N005012200019N0170001N1-00051-00431098691ADDGF104991041001022501031001MD1810091+9999REMSYN060AAXX  12031 22422 42867 42105 11005 21043 49869 58009 84030;
0168224220999992000021206004+65900+034770FM-12+001099999V0202301N003010051019N0180001N1+00001-00391098821ADDAA199000091GA1061+005109059GF106991061051004501001001MD1310131+9999REMSYN070AAXX  12061 22422 32468 62303 10000 21039 49882 53013 86500 333 86617;EQDQ01  00002PRCP99
0112224220999992000021209004+65900+034770FM-12+001099999V0202101N002012200019N0260001N1+00101-00291099141ADDGF105991021001022501031011MD1210321+9999REMSYN060AAXX  12091 22422 42876 52102 10010 21029 49914 52032 82031;
0133224220999992000021212004+65900+034770FM-12+001099999V0202101N002012200019N0250001N1+00151-00361099511ADDGF104991041001022501031001MA1999999099361MD1210371+9999REMSYN066AAXX  12121 22422 42875 42102 10015 21036 39936 49951 52037 84030;
0112224220999992000021215004+65900+034770FM-12+001099999V0202601N002012200019N0180001N1-00141-00541099911ADDGF102991001001999999001011MD1210401+9999REMSYN060AAXX  12151 22422 42968 22602 11014 21054 49991 52040 80001;
0165224220999992000021218004+65900+034770FM-12+001099999V0202701N002012200019N0180001N1-00301-00571100151ADDAA199000091GF102991001001999999001011KA1999M+00181MD1210241+9999REMSYN070AAXX  12181 22422 32968 22702 11030 21057 40015 52024 80001 333 10018;EQDQ01  00002PRCP99
0143224220999992000021300004+65900+034770FM-12+001099999V0202701N002012200019N0170001N1-00361-00651100371ADDGA1001+999999999GF100991001001999999001001MA1999999100221MD1210071+9999REMSYN060AAXX  13001 22422 42967 02702 11036 21065 30022 40037 52007;
0112224220999992000021303004+65900+034770FM-12+001099999V0202701N001019999999N0160001N1-00751-00971100351ADDGF108991001001999999001031MD1810021+9999REMSYN060AAXX  13031 22422 42966 82701 11075 21097 40035 58002 80003;
0168224220999992000021306004+65900+034770FM-12+001099999V0201901N002010051019N0180001N1-00661-00711100341ADDAA199000091GA1071+005109059GF107991071051004501001001MD1610011+9999REMSYN070AAXX  13061 22422 32468 71902 11066 21071 40034 56001 87500 333 87617;EQDQ01  00002PRCP99
0138224220999992000021309004+65900+034770FM-12+001099999V0201901N002010039019N0200001N1-00251-00281100241ADDGA1071+003909059GF107991071051004501001001MD1710101+9999REMSYN070AAXX  13091 22422 42470 71902 11025 21028 40024 57010 87500 333 87613;
0159224220999992000021312004+65900+034770FM-12+001099999V0201901N002010042019N0210001N1-00101-00141100191ADDGA1071+004209059GF107991071051004501001001MA1999999100041MD1710051+9999REMSYN076AAXX  13121 22422 42471 71902 11010 21014 30004 40019 57005 87500 333 87614;
0112224220999992000021315004+65900+034770FM-12+001099999V0201801N003010300019N0170001N1-00201-00291100101ADDGF106991031051004501031011MD1710091+9999REMSYN060AAXX  13151 22422 42467 61803 11020 21029 40010 57009 83531;
0165224220999992000021318004+65900+034770FM-12+001099999V0201801N002010300019N0150001N1-00101-00221100011ADDAA199000091GF107991041051004501031001KA1999M-00081MD1710091+9999REMSYN070AAXX  13181 22422 32465 71802 11010 21022 40001 57009 84530 333 11008;EQDQ01  00002PRCP99
0178224220999992000021400004+65900+034770FM-12+001099999V0201901N004010042019N0170001N1-00081-00201999999ADDGA1061+004209059GF107991061051012501031001MA1999999099841MD1210061+9999REMSYN076AAXX  14001 22422 42667 71904 11008 21020 39984 49889 52006 86530 333 86614;EQDQ01+098893APOSLP
0138224220999992000021403004+65900+034770FM-12+001099999V0201901N003010300019N0180001N1-00121-00271099791ADDGA1041+003909059GF106991041051004501031001MD1710101+9999REMSYN070AAXX  14031 22422 42468 61903 11012 21027 49979 57010 84530 333 84613;
0140224220999992000021406004+65900+034770FM-12+001099999V0201901N003010210019N0050001N1-00101-00171099791ADDAY171061AY221061GF108991081001022501021999MD1410001+9999MW1711REMSYN066AAXX  14061 22422 11850 81903 11010 21017 49979 54000 77172 8802/;
0140224220999992000021409004+65900+034770FM-12+001099999V0201901N002010210019N0050001N1-00101-00181099731ADDAY171031AY221031GF108991081001022501021999MD1810061+9999MW1711REMSYN066AAXX  14091 22422 41850 81902 11010 21018 49973 58006 77172 8802/;
0161224220999992000021412004+65900+034770FM-12+001099999V0201901N002010210019N0050001N1-00121-00191099571ADDAY171061AY221061GF108991081001022501021999MA1999999099501MD1710081+9999MW1711REMSYN072AAXX  14121 22422 41850 81902 11012 21019 39950 49957 57008 77172 8802/;
0112224220999992000021415004+65900+034770FM-12+001099999V0201801N003010210019N0160001N1-00161-00241099751ADDGF108991081001022501021999MD1310101+9999REMSYN060AAXX  14151 22422 42866 81803 11016 21024 49975 53010 8802/;
0174224220999992000021418004+65900+034770FM-12+001099999V0201801N002010042019N0150001N1-00171-00281099801ADDAA112000191GA1051+004209059GF106991051051004501031001KA1120M-00081MD1210051+9999REMSYN082AAXX  14181 22422 31465 61802 11017 21028 49980 52005 69912 85530 333 11008 85614;
0133224220999992000021500004+65900+034770FM-12+001099999V0201801N002010300019N0160001N1-00181-00261099961ADDGF106991031051004501031001MA1999999099811MD1210091+9999REMSYN066AAXX  15001 22422 42466 61802 11018 21026 39981 49996 52009 83530;
0133224220999992000021503004+65900+034770FM-12+001099999V0201801N001012200019N0180001N1-00321-00491099961ADDAA124999999GF103991031001022501021999MD1410001+9999REMSYN070AAXX  15031 22422 42868 31801 11032 21049 49996 54000 8302/ 333 7991/;
0142224220999992000021506004+65900+034770FM-12+001099999V0201901N001010210019N0210001N1-00531-00671099901ADDAA199000091GF106991061001022501021999MD1810061+9999REMSYN060AAXX  15061 22422 32871 61901 11053 21067 49990 58006 8602/;EQDQ01  00002PRCP99
0112224220999992000021509004+65900+034770FM-12+001099999V0201901N002010210019N0210001N1-00451-00651099921ADDGF108991081001022501021999MD1310021+9999REMSYN060AAXX  15091 22422 42871 81902 11045 21065 49992 53002 8802/;
0133224220999992000021512004+65900+034770FM-12+001099999V0201801N001010210019N0210001N1-00301-00471099951ADDGF108991081001022501021999MA1999999099801MD1210031+9999REMSYN066AAXX  15121 22422 42871 81801 11030 21047 39980 49995 52003 8802/;
0112224220999992000021515004+65900+034770FM-12+001099999V0202101N001010210019N0200001N1-00251-00411099981ADDGF108991081001022501021999MD1210031+9999REMSYN060AAXX  15151 22422 42870 82101 11025 21041 49998 52003 8802/;
0165224220999992000021518004+65900+034770FM-12+001099999V0201901N001010210019N0180001N1-00251-00341099931ADDAA199000091GF108991081001022501021999KA1999M-00231MD1810051+9999REMSYN070AAXX  15181 22422 32868 81901 11025 21034 49993 58005 8802/ 333 11023;EQDQ01  00002PRCP99
0152224220999992000021600004+65900+034770FM-12+001099999V0201801N001010210019N0170001N1-00191-00271999999ADDGF108991081001022501021999MA1999999099751MD1410001+9999REMSYN066AAXX  16001 22422 42867 81801 11019 21027 39975 49900 54000 8802/;EQDQ01+099003APOSLP
0112224220999992000021603004+65900+034770FM-12+001099999V0201801N001010210019N0190001N1-00231-00351100061ADDGF108991081001022501021999MD1310161+9999REMSYN060AAXX  16031 22422 42869 81801 11023 21035 40006 53016 8802/;
0142224220999992000021606004+65900+034770FM-12+001099999V0209999C000010300019N0220001N1-00401-00591100091ADDAA199000091GF106991021051004501031001MD1210031+9999REMSYN060AAXX  16061 22422 32472 60000 11040 21059 40009 52003 82530;EQDQ01  00002PRCP99
0112224220999992000021609004+65900+034770FM-12+001099999V0209999C000010300019N0220001N1-00301-00571100091ADDGF106991021051004501031001MD1410001+9999REMSYN060AAXX  16091 22422 42472 60000 11030 21057 40009 54000 82530;
0133224220999992000021612004+65900+034770FM-12+001099999V0201801N001010210019N0200001N1-00201-00481100151ADDGF108991081001022501021999MA1999999100001MD1310061+9999REMSYN066AAXX  16121 22422 42870 81801 11020 21048 30000 40015 53006 8802/;
0138224220999992000021615004+65900+034770FM-12+001099999V0201801N002010042019N0200001N1-00321-00601100221ADDGA1051+004209059GF106991051051004501031001MD1210071+9999REMSYN070AAXX  16151 22422 42470 61802 11032 21060 40022 52007 85530 333 85614;
0187224220999992000021618004+65900+034770FM-12+001099999V0201801N003010042019N0190001N1-00421-00671100291ADDAA199000091GA1051+004209059GF106991051051004501031001KA1120M-00181MD1210071+9999REMSYN076AAXX  16181 22422 32469 61803 11042 21067 40029 52007 85530 333 11018 85614;EQDQ01  00002PRCP99
0159224220999992000021700004+65900+034770FM-12+001099999V0201801N003010300019N0190001N1-00621-00851100381ADDGA1041+004809059GF105991041051004501031001MA1999999100231MD1210031+9999REMSYN076AAXX  17001 22422 42469 51803 11062 21085 30023 40038 52003 84530 333 84616;
0138224220999992000021703004+65900+034770FM-12+001099999V0201901N003010300019N0190001N1-00531-00781100361ADDGA1041+003909059GF106991041051004501031001MD1210181+9999REMSYN070AAXX  17031 22422 42469 61903 11053 21078 40036 52018 84530 333 84613;
0194224220999992000021706004+65900+034770FM-12+001099999V0201901N003012200019N0210001N1-00901-01191100641ADDAA199000091AJ100759199999999GF104991031051004501031001IA1299KA1120N-00911MD1210081+9999REMSYN076AAXX  17061 22422 32471 41903 11090 21119 40064 52008 83530 333 21091 49075;EQDQ01  00002PRCP99
0138224220999992000021709004+65900+034770FM-12+001099999V0201801N001010048019N0220001N1-00751-01101100731ADDGA1061+004809059GF108991061051004501021001MD1210091+9999REMSYN070AAXX  17091 22422 42472 81801 11075 21110 40073 52009 86520 333 86616;
0159224220999992000021712004+65900+034770FM-12+001099999V0201501N002010045019N0220001N1-00351-00631100731ADDGA1061+004509059GF108991061051004501021001MA1999999100581MD1410001+9999REMSYN076AAXX  17121 22422 42472 81502 11035 21063 30058 40073 54000 86520 333 86615;
0138224220999992000021715004+65900+034770FM-12+001099999V0201101N004010300019N0200001N1-00411-00671100781ADDGA1041+003909059GF107991041051004501031001MD1310051+9999REMSYN070AAXX  17151 22422 42470 71104 11041 21067 40078 53005 84530 333 84613;
0187224220999992000021718004+65900+034770FM-12+001099999V0201201N003010039019N0180001N1-00351-00561100811ADDAA199000091GA1071+003909059GF107991071051004501001001KA1120M-00341MD1210031+9999REMSYN076AAXX  17181 22422 32468 71203 11035 21056 40081 52003 87500 333 11034 87613;EQDQ01  00002PRCP99
0159224220999992000021800004+65900+034770FM-12+001099999V0201301N003010042019N0180001N1-00271-00461100831ADDGA1071+004209059GF107991071051004501001001MA1999999100681MD1410001+9999REMSYN076AAXX  18001 22422 42468 71303 11027 21046 30068 40083 54000 87500 333 87614;
0166224220999992000021803004+65900+034770FM-12+001099999V0201501N003010036019N0060001N1-00221-00371100601ADDAY171031AY221031GA1071+003609059GF107991071051004501001001MD1810231+9999MW1711REMSYN076AAXX  18031 22422 41456 71503 11022 21037 40060 58023 77172 87500 333 87612;
0149224220999992000021806004+65900+034770FM-12+001099999V0201701N002010042019N0170001N1-00251-00441100201ADDAA199000021GA1071+004209059GF107991071051004501001001MD1710401+9999REMSYN070AAXX  18061 22422 32467 71702 11025 21044 40020 57040 87500 333 87614;
0138224220999992000021809004+65900+034770FM-12+001099999V0201801N002010036019N0160001N1-00181-00361100191ADDGA1071+003609059GF107991071051004501001001MD1610011+9999REMSYN070AAXX  18091 22422 42466 71802 11018 21036 40019 56001 87500 333 87612;
0126224220999992000021812004+65900+034770FM-12+001099999V0201801N002010042019N0170001N1+99999+99999100101ADDGA1071+004209059GF107991071051004501001001MD1710091+9999REMSYN058AAXX  18121 22422 42467 71802 40010 57009 87500 333 87614;
0138224220999992000021815004+65900+034770FM-12+001099999V0201801N002010042019N0170001N1-00051-00201100071ADDGA1071+004209059GF107991071051004501001001MD1710031+9999REMSYN070AAXX  18151 22422 42467 71802 11005 21020 40007 57003 87500 333 87614;
0174224220999992000021818004+65900+034770FM-12+001099999V0201301N002010045019N0160001N1-00061-00221099911ADDAA112003091GA1071+004509059GF107991071051004501001001KA1120M-00041MD1710161+9999REMSYN082AAXX  18181 22422 12466 71302 11006 21022 49991 57016 60032 87500 333 11004 87615;
0133224220999992000021900004+65900+034770FM-12+001099999V0209999C000012200019N0180001N1-00481-00721099881ADDGF104991041001022501031999MA1999999099731MD1410001+9999REMSYN066AAXX  19001 22422 42868 40000 11048 21072 39973 49988 54000 8403/;
0112224220999992000021903004+65900+034770FM-12+001099999V0201901N002012200019N0190001N1-00121-00701099971ADDGF104991041001022501031001MD1310091+9999REMSYN060AAXX  19031 22422 42869 41902 11012 21070 49997 53009 84030;
0142224220999992000021906004+65900+034770FM-12+001099999V0201901N002012200019N0210001N1-00781-01091100031ADDAA199000091GF102991021001022501031001MD1210061+9999REMSYN060AAXX  19061 22422 32871 21902 11078 21109 40003 52006 82030;EQDQ01  00002PRCP99
0112224220999992000021909004+65900+034770FM-12+001099999V0201801N002010210019N0210001N1-00511-00881100131ADDGF108991081001022501021999MD1210101+9999REMSYN060AAXX  19091 22422 42871 81802 11051 21088 40013 52010 8802/;
0133224220999992000021912004+65900+034770FM-12+001099999V0201901N002012200019N0230001N1-00571-00951100401ADDGF104991041001022501031001MA1999999100251MD1210271+9999REMSYN066AAXX  19121 22422 42873 41902 11057 21095 30025 40040 52027 84030;
0122224220999992000021915004+65900+034770FM-12+001099999V0202101N002012200019N0230001N1-00971-01331100641ADDGA1001+999999999GF100991001001999999001001MD1210241+9999REMSYN054AAXX  19151 22422 42973 02102 11097 21133 40064 52024;
0175224220999992000021918004+65900+034770FM-12+001099999V0202101N001012200019N0210001N1-01031-01391100791ADDAA199000091GA1001+999999999GF100991001001999999001001KA1999M-00501MD1210151+9999REMSYN064AAXX  19181 22422 32971 02101 11103 21139 40079 52015 333 11050;EQDQ01  00002PRCP99
0143224220999992000022000004+65900+034770FM-12+001099999V0201901N002012200019N0200001N1-01181-01531100961ADDGA1001+999999999GF100991001001999999001001MA1999999100911MD1210091+9999REMSYN060AAXX  20001 22422 42970 01902 11118 21153 30091 40096 52009;
0122224220999992000022003004+65900+034770FM-12+001099999V0201901N001012200019N0220001N1-01081-01441101071ADDGA1001+999999999GF100991001001999999001001MD1210111+9999REMSYN054AAXX  20031 22422 42972 01901 11108 21144 40107 52011;
0164224220999992000022006004+65900+034770FM-12+001099999V0201801N001010300019N0230001N1-01021-01301101071ADDAJ100789199999999GF105991031051004501031001IA1299KA1120N-01281MD1410001+9999REMSYN076AAXX  20061 22422 42473 51801 11102 21130 40107 54000 83530 333 21128 49078;
0132224220999992000022009004+65900+034770FM-12+001099999V0201901N002019999999N0250001N1-00581-00971101011ADDGA1041+004209059GF105991999999004501999999MD1810051+9999REMSYN064AAXX  20091 22422 42475 51902 11058 21097 40101 58005 333 84614;
0112224220999992000022015004+65900+034770FM-12+001099999V0201801N001012200019N0230001N1-00611-00961101151ADDGF104991021051004501031001MD1310211+9999REMSYN060AAXX  20151 22422 42473 41801 11061 21096 40115 53021 82530;
0187224220999992000022018004+65900+034770FM-12+001099999V0201801N001010042019N0190001N1-00451-00721101191ADDAA199000091GA1071+004209059GF107991071051004501001001KA1120M-00441MD1210041+9999REMSYN076AAXX  20181 22422 32469 71801 11045 21072 40119 52004 87500 333 11044 87614;EQDQ01  00002PRCP99
0133224220999992000022100004+65900+034770FM-12+001099999V0209999C000010300019N0180001N1-00641-00921101351ADDGF105991011051004501031001MA1999999101201MD1210111+9999REMSYN066AAXX  21001 22422 42468 50000 11064 21092 30120 40135 52011 81530;
0133224220999992000022103004+65900+034770FM-12+001099999V0209999C000012200019N0200001N1-00831-01111101431ADDAA124999999GF104991021051004501031001MD1210081+9999REMSYN070AAXX  21031 22422 42470 40000 11083 21111 40143 52008 82530 333 7000/;
0168224220999992000022106004+65900+034770FM-12+001099999V0202601N002010039019N0200001N1-01201-01471101461ADDAA199000091GA1071+003909059GF107991071051004501001001MD1210041+9999REMSYN070AAXX  21061 22422 32470 72602 11120 21147 40146 52004 87500 333 87613;EQDQ01  00002PRCP99
0138224220999992000022109004+65900+034770FM-12+001099999V0202501N001010042019N0210001N1-00951-01211101491ADDGA1061+004209059GF108991061051004501021001MD1110021+9999REMSYN070AAXX  21091 22422 42471 82501 11095 21121 40149 51002 86520 333 86614;
0112224220999992000022115004+65900+034770FM-12+001099999V0202701N001010300019N0210001N1-00971-01281101581ADDGF105991031051004501031001MD1210041+9999REMSYN060AAXX  21151 22422 42471 52701 11097 21128 40158 52004 83530;
0165224220999992000022118004+65900+034770FM-12+001099999V0202701N001012200019N0200001N1-01121-01401101601ADDAA199000091GF102991021001022501031001KA1999M-00941MD1110021+9999REMSYN070AAXX  21181 22422 32870 22701 11112 21140 40160 51002 82030 333 11094;EQDQ01  00002PRCP99
0133224220999992000022200004+65900+034770FM-12+001099999V0202701N001012200019N0180001N1-01381-01651101761ADDGF102991021001022501031001MA1999999101601MD1210081+9999REMSYN066AAXX  22001 22422 42868 22701 11138 21165 30160 40176 52008 82030;
0112224220999992000022203004+65900+034770FM-12+001099999V0202801N002012200019N0200001N1-01411-01651101761ADDGF102991021001022501031001MD1410001+9999REMSYN060AAXX  22031 22422 42870 22802 11141 21165 40176 54000 82030;
0112224220999992000022209004+65900+034770FM-12+001099999V0203001N002012200019N0250001N1-01151-01501102011ADDGF104991021051004501031001MD1210111+9999REMSYN060AAXX  22091 22422 42475 43002 11115 21150 40201 52011 82530;
0133224220999992000022212004+65900+034770FM-12+001099999V0203001N001012200019N0250001N1-01051-01411102121ADDGF102991021001022501031001MA1999999101961MD1210111+9999REMSYN066AAXX  22121 22422 42875 23001 11105 21141 30196 40212 52011 82030;
0112224220999992000022215004+65900+034770FM-12+001099999V0203001N004012200019N0230001N1-01181-01531102201ADDGF102991021001022501021001MD1210081+9999REMSYN060AAXX  22151 22422 42873 23004 11118 21153 40220 52008 82020;
0175224220999992000022218004+65900+034770FM-12+001099999V0203001N004012200019N0230001N1-01251-01521102251ADDAA199000091GA1001+999999999GF100991001001999999001001KA1999M-01041MD1210051+9999REMSYN064AAXX  22181 22422 32973 03004 11125 21152 40225 52005 333 11104;EQDQ01  00002PRCP99
0143224220999992000022300004+65900+034770FM-12+001099999V0202901N003012200019N0200001N1-01461-01731102341ADDGA1001+999999999GF100991001001999999001001MA1999999102181MD1210041+9999REMSYN060AAXX  23001 22422 42970 02903 11146 21173 30218 40234 52004;
0122224220999992000022303004+65900+034770FM-12+001099999V0202901N002012200019N0200001N1-01511-01781102361ADDGA1001+999999999GF100991001001999999001001MD1110021+9999REMSYN054AAXX  23031 22422 42970 02902 11151 21178 40236 51002;
0152224220999992000022306004+65900+034770FM-12+001099999V0202801N001012200019N0250001N1-01351-01701102471ADDAA199000091GA1001+999999999GF100991001001999999001001MD1210111+9999REMSYN054AAXX  23061 22422 32975 02801 11135 21170 40247 52011;EQDQ01  00002PRCP99
0122224220999992000022309004+65900+034770FM-12+001099999V0202701N001012200019N0250001N1-01061-01421102541ADDGA1001+999999999GF100991001001999999001001MD1210081+9999REMSYN054AAXX  23091 22422 42975 02701 11106 21142 40254 52008;
0143224220999992000022312004+65900+034770FM-12+001099999V0202701N001012200019N0270001N1-00851-01231102551ADDGA1001+999999999GF100991001001999999001001MA1999999102401MD1110011+9999REMSYN060AAXX  23121 22422 42977 02701 11085 21123 30240 40255 51001;
0122224220999992000022315004+65900+034770FM-12+001099999V0202601N001012200019N0230001N1-00931-01281102451ADDGA1001+999999999GF100991001001999999001001MD1810021+9999REMSYN054AAXX  23151 22422 42973 02601 11093 21128 40245 58002;
0175224220999992000022318004+65900+034770FM-12+001099999V0202401N001012200019N0200001N1-01061-01341102441ADDAA199000091GA1001+999999999GF100991001001999999001001KA1999M-00841MD1610021+9999REMSYN064AAXX  23181 22422 32970 02401 11106 21134 40244 56002 333 11084;EQDQ01  00002PRCP99
0143224220999992000022400004+65900+034770FM-12+001099999V0202501N001012200019N0190001N1-01361-01711102521ADDGA1001+999999999GF100991001001999999001001MA1999999102361MD1210081+9999REMSYN060AAXX  24001 22422 42969 02501 11136 21171 30236 40252 52008;
0122224220999992000022403004+65900+034770FM-12+001099999V0202201N001012200019N0200001N1-01581-01921102501ADDGA1001+999999999GF100991001001999999001001MD1110021+9999REMSYN054AAXX  24031 22422 42970 02201 11158 21192 40250 51002;
0152224220999992000022406004+65900+034770FM-12+001099999V0201901N001012200019N0230001N1-01751-02091102411ADDAA199000091GA1001+999999999GF100991001001999999001001MD1710091+9999REMSYN054AAXX  24061 22422 32973 01901 11175 21209 40241 57009;EQDQ01  00002PRCP99
0143224220999992000022412004+65900+034770FM-12+001099999V0201801N001012200019N0300001N1-01211-01561102211ADDGA1001+999999999GF100991001001999999001001MA1999999102051MD1710091+9999REMSYN060AAXX  24121 22422 42980 01801 11121 21156 30205 40221 57009;
0122224220999992000022415004+65900+034770FM-12+001099999V0209999C000012200019N0230001N1-01351-01701102101ADDGA1001+999999999GF100991001001999999001001MD1710111+9999REMSYN054AAXX  24151 22422 42973 00000 11135 21170 40210 57011;
0175224220999992000022418004+65900+034770FM-12+001099999V0202401N002012200019N0200001N1-01581-01921102021ADDAA199000091GA1001+999999999GF100991001001999999001001KA1999M-01201MD1710081+9999REMSYN064AAXX  24181 22422 32970 02402 11158 21192 40202 57008 333 11120;EQDQ01  00002PRCP99
0143224220999992000022500004+65900+034770FM-12+001099999V0202001N002012200019N0190001N1-01781-02111101821ADDGA1001+999999999GF100991001001999999001001MA1999999101661MD1710091+9999REMSYN060AAXX  25001 22422 42969 02002 11178 21211 30166 40182 57009;
0122224220999992000022503004+65900+034770FM-12+001099999V0201901N002012200019N0190001N1-01911-02241101711ADDGA1001+999999999GF100991001001999999001001MD1710111+9999REMSYN054AAXX  25031 22422 42969 01902 11191 21224 40171 57011;
0152224220999992000022506004+65900+034770FM-12+001099999V0202101N001012200019N0220001N1-02051-02381101661ADDAA199000091GA1001+999999999GF100991001001999999001001MD1710041+9999REMSYN054AAXX  25061 22422 32972 02101 11205 21238 40166 57004;EQDQ01  00002PRCP99
0122224220999992000022509004+65900+034770FM-12+001099999V0202601N001012200019N0250001N1-01551-01891101611ADDGA1001+999999999GF100991001001999999001001MD1710061+9999REMSYN054AAXX  25091 22422 42975 02601 11155 21189 40161 57006;
0122224220999992000022515004+65900+034770FM-12+001099999V0202901N002012200019N0230001N1-01721-02081101621ADDGA1001+999999999GF100991001001999999001001MD1310051+9999REMSYN054AAXX  25151 22422 42973 02902 11172 21208 40162 53005;
0175224220999992000022518004+65900+034770FM-12+001099999V0202901N001012200019N0200001N1-01861-02191101621ADDAA199000091GA1001+999999999GF100991001001999999001001KA1999M-01351MD1410001+9999REMSYN064AAXX  25181 22422 32970 02901 11186 21219 40162 54000 333 11135;EQDQ01  00002PRCP99
0143224220999992000022600004+65900+034770FM-12+001099999V0202801N001012200019N0190001N1-02061-02391101481ADDGA1001+999999999GF100991001001999999001001MA1999999101321MD1710051+9999REMSYN060AAXX  26001 22422 42969 02801 11206 21239 30132 40148 57005;
0122224220999992000022603004+65900+034770FM-12+001099999V0202701N001012200019N0190001N1-02131-02361101741ADDGA1001+999999999GF100991001001999999001001MD1310261+9999REMSYN054AAXX  26031 22422 42969 02701 11213 21236 40174 53026;
0181224220999992000022606004+65900+034770FM-12+001099999V0203301N001019999999N0210001N1-02201-02321101811ADDAA199000091AJ100779199999999GF106991001001999999001011IA1299MD1210071+9999REMSYN076AAXX  26061 22422 32971 63301 11220 21232 40181 52007 80001 555 21225 49077;EQDQ01  00002PRCP99
0112224220999992000022609004+65900+034770FM-12+001099999V0203201N001019999999N0250001N1-01701-01891101691ADDGF106991061001022501001011MD1210081+9999REMSYN060AAXX  26091 22422 42875 63201 11170 21189 40169 52008 86001;
0133224220999992000022612004+65900+034770FM-12+001099999V0209999C000019999999N0240001N1-01681-01871101941ADDGF105991001001999999001011MA1999999101781MD1210051+9999REMSYN066AAXX  26121 22422 42974 50000 11168 21187 30178 40194 52005 80001;
0112224220999992000022615004+65900+034770FM-12+001099999V0209999C000012200019N0200001N1-01641-01831101911ADDGF104991001001999999001011MD1810031+9999REMSYN060AAXX  26151 22422 42970 40000 11164 21183 40191 58003 80001;
0175224220999992000022618004+65900+034770FM-12+001099999V0209999C000012200019N0190001N1-01931-02141101841ADDAA199000091GA1001+999999999GF100991001001999999001001KA1999M-01621MD1710071+9999REMSYN064AAXX  26181 22422 32969 00000 11193 21214 40184 57007 333 11162;EQDQ01  00002PRCP99
0143224220999992000022700004+65900+034770FM-12+001099999V0209999C000012200019N0190001N1-02121-02301101681ADDGA1001+999999999GF100991001001999999001001MA1999999101521MD1710071+9999REMSYN060AAXX  27001 22422 42969 00000 11212 21230 30152 40168 57007;
0140224220999992000022703004+65900+034770FM-12+001099999V0202601N002010210019N0050001N1-01871-01991101481ADDAY171031AY221031GF108991081001022501021999MD1710201+9999MW1711REMSYN066AAXX  27031 22422 41850 82602 11187 21199 40148 57020 77172 8802/;
0140224220999992000022706004+65900+034770FM-12+001099999V0202601N001010210019N0120001N1-01221-01351101331ADDAY171061AY221061GF108991081001022501071999MD1710151+9999MW1221REMSYN066AAXX  27061 22422 11862 82601 11122 21135 40133 57015 72272 8807/;
0112224220999992000022709004+65900+034770FM-12+001099999V0202601N001010210019N0260001N1-01021-01221101131ADDGF106991061001022501031001MD1710201+9999REMSYN060AAXX  27091 22422 42876 62601 11102 21122 40113 57020 86030;
0112224220999992000022712004+65900+034770FM-12+001099999V0201901N001010300019N0250001N1-01051-01291100921ADDGF106991021051004501031001MD1710211+9999REMSYN060AAXX  27121 22422 42475 61901 11105 21129 40092 57021 82530;
0138224220999992000022715004+65900+034770FM-12+001099999V0201801N002010042019N0180001N1-01101-01301100701ADDGA1071+004209059GF107991071051004501001001MD1710161+9999REMSYN070AAXX  27151 22422 42468 71802 11110 21130 40070 57016 87500 333 87614;
0168224220999992000022718004+65900+034770FM-12+001099999V0201801N002010045019N0160001N1-01161-01361100481ADDAA199000021GA1071+004509059GF107991071051004501001001KA1120M-01031MD1710221+9999REMSYN076AAXX  27181 22422 32466 71802 11116 21136 40048 57022 87500 333 11103 87615;
0159224220999992000022800004+65900+034770FM-12+001099999V0201801N002010042019N0150001N1-01231-01431100271ADDGA1071+004209059GF107991071051004501001001MA1999999100111MD1710111+9999REMSYN076AAXX  28001 22422 42465 71802 11123 21143 30011 40027 57011 87500 333 87614;
0185224220999992000022803004+65900+034770FM-12+001099999V0201701N002010039019N0050001N1-01121-01251099741ADDAY171031AY211031GA1071+003909059GF107991071051004501001001MD1810532+9999MW1711REMSYN076AAXX  28031 22422 41450 71702 11112 21125 49974 58053 77171 87500 333 87613;EQDQ01+000532APC3  
0140224220999992000022806004+65900+034770FM-12+001099999V0201501N005010210019N0016001N1-00691-00741098831ADDAY171061AY231061GF108991081001022501021999MD1810901+9999MW1731REMSYN066AAXX  28061 22422 11816 81505 11069 21074 49883 58090 77373 8802/;
0185224220999992000022809004+65900+034770FM-12+001099999V0201501N006010030019N0019001N1-00671-00721098591ADDAY171031AY271031GA1081+003009069GF108991999071004501021999MD1710241+9999MW1731REMSYN076AAXX  28091 22422 41419 81506 11067 21072 49859 57024 77377 8872/ 333 88710;EQDQ01+000082SCOTLC
0206224220999992000022812004+65900+034770FM-12+001099999V0201301N006010033019N0015001N1-00651-00731098291ADDAY171061AY271061GA1081+003309069GF108991999071004501021999MA1999999098141MD1710301+9999MW1731REMSYN082AAXX  28121 22422 41415 81306 11065 21073 39814 49829 57030 77377 8872/ 333 88711;EQDQ01+000082SCOTLC
0185224220999992000022815004+65900+034770FM-12+001099999V0201001N006010027019N0021001N1-01822+99999098241ADDAY171031AY271031GA1081+002709069GF108991999071002501021999MD1710051+9999MW1711REMSYN076AAXX  28151 22422 41321 81006 11182 21088 49824 57005 77177 8872/ 333 88709;EQDQ01+000082SCOTLC
0174224220999992000022818004+65900+034770FM-12+001099999V0201201N004010039019N0130001N1-00951-01111098361ADDAA112003091GA1071+003909059GF107991071051004501001001KA1120M-00631MD1310131+9999REMSYN082AAXX  28181 22422 13463 71204 11095 21111 49836 53013 60032 87500 333 11063 87613;
0180224220999992000022900004+65900+034770FM-12+001099999V0201601N002010042019N0150001N1-01081-01281098711ADDGA1071+004209059GF107991071051004501001001MA1999999098551REMSYN076AAXX  29001 22422 42465 71602 11108 21128 39855 49871 52913 87500 333 87614;EQDQ01+000027APCTENQ02+009137APC3  
0138224220999992000022903004+65900+034770FM-12+001099999V0201601N002010045019N0150001N1-01141-01341098501ADDGA1071+004509059GF107991071051004501001001MD1810211+9999REMSYN070AAXX  29031 22422 42465 71602 11114 21134 49850 58021 87500 333 87615;
0185224220999992000022906004+65900+034770FM-12+001099999V0200801N005010030019N0022001N1-01201-01401098511ADDAY171061AY231061GA1081+003009069GF108991999071004501021999MD1310021+9999MW1711REMSYN076AAXX  29061 22422 11422 80805 11120 21140 49851 53002 77173 8872/ 333 88710;EQDQ01+000082SCOTLC
0140224220999992000022909004+65900+034770FM-12+001099999V0200601N006010210019N0035001N1-01411-01611098891ADDAY171031AY271031GF108991081001022501021999MD1210371+9999MW1711REMSYN066AAXX  29091 22422 41835 80606 11141 21161 49889 52037 77177 8802/;
0133224220999992000022912004+65900+034770FM-12+001099999V0200401N002010210019N0150001N1-01501-01771099191ADDGF108991081001022501021999MA1999999099031MD1210301+9999REMSYN066AAXX  29121 22422 42865 80402 11150 21177 39903 49919 52030 8802/;
0112224220999992000022915004+65900+034770FM-12+001099999V0200301N001010210019N0150001N1-01681-01941099551ADDGF108991081001022501021999MD1210361+9999REMSYN060AAXX  29151 22422 42865 80301 11168 21194 49955 52036 8802/;
0162224220999992000022918004+65900+034770FM-12+001099999V0209999C000012200019N0150001N1-01841-02101099851ADDAA112000791GA1001+999999999GF100991001001999999001001KA1999M-01181MD1210271+9999REMSYN070AAXX  29181 22422 12965 00000 11184 21210 49985 52027 69902 333 11118;
0133224220999992000030100004+65900+034770FM-12+001099999V0209999C000012200019N0180001N1-01981-02241100031ADDGF103991031001022501031001MA1999999099871MD1210101+9999REMSYN066AAXX  01001 22422 42868 30000 11198 21224 39987 40003 52010 83030;
0148224220999992000030103004+65900+034770FM-12+001099999V0201201N002010042019N0180001N1-01641-01831099771ADDGA1071+004209069GF107991071051004501001001MD1810261+9999REMSYN080AAXX  01031 22422 42468 71202 11164 21183 49977 58026 87500 333 87614 555 7996/;
0166224220999992000030106004+65900+034770FM-12+001099999V0201301N005010036019N0021001N1-01321-01521099431ADDAY171061AY231061GA1061+003609069GF108991061071004501021999MD1710341+9999MW1731REMSYN076AAXX  01061 22422 11421 81305 11132 21152 49943 57034 77373 8672/ 333 86712;
0112224220999992000030109004+65900+034770FM-12+001099999V0201201N003010210019N0140001N1-01221-01321099331ADDGF108991081001022501071999MD1710101+9999REMSYN060AAXX  01091 22422 42864 81203 11122 21132 49933 57010 8807/;
0187224220999992000030112004+65900+034770FM-12+001099999V0201401N003010045019N0060001N1-00901-01101099201ADDAY171061AY231061GA1061+004509069GF108991061999004501021999MA1999999099051MD1710121+9999MW1711REMSYN082AAXX  01121 22422 41456 81403 11090 21110 39905 49920 57012 77173 86/2/ 333 86715;
0112224220999992000030115004+65900+034770FM-12+001099999V0201501N002010210019N0130001N1-00671-00751099241ADDGF108991081001022501071999MD1310041+9999REMSYN060AAXX  01151 22422 42863 81502 11067 21075 49924 53004 8807/;
0221224220999992000030118004+65900+034770FM-12+001099999V0201601N002010030019N0036001N1-00351-00431098881ADDAA112002091AY171061AY231061GA1081+003009069GF108991999071004501021999KA1120M-00331MD1810361+9999MW1711REMSYN088AAXX  01181 22422 11436 81602 11035 21043 49888 58036 60022 77173 8872/ 333 11033 88710;EQDQ01+000082SCOTLC
0133224220999992000030200004+65900+034770FM-12+001099999V0201701N002010300019N0130001N1-00421-00541098861ADDGF105991021051004501031001MA1999999098711MD1410001+9999REMSYN066AAXX  02001 22422 42463 51702 11042 21054 39871 49886 54000 82530;
0140224220999992000030203004+65900+034770FM-12+001099999V0201601N002010210019N0036001N1-00281-00381098371ADDAY171031AY221031GF108991081001022501021999MD1810291+9999MW1711REMSYN066AAXX  02031 22422 41836 81602 11028 21038 49837 58029 77172 8802/;
0201224220999992000030206004+65900+034770FM-12+001099999V0201801N003010024019N0025001N1-00031-00091097991ADDAY171061AY221061GA1081+002409069GF108991999071002501021999MD1810381+9999MW1731REMSYN076AAXX  02061 22422 11325 81803 11003 21009 49799 58058 77372 8872/ 333 88708;EQDQ01+000082SCOTLCQ02+000582APC3  
0166224220999992000030209004+65900+034770FM-12+001099999V0201901N004010042019N0043001N1+00061+00011097631ADDAY171031AY271031GA1061+004209069GF108991061071004501021999MD1710361+9999MW1711REMSYN076AAXX  02091 22422 41443 81904 10006 20001 49763 57036 77177 8672/ 333 86714;
0187224220999992000030212004+65900+034770FM-12+001099999V0201901N005010033019N0070001N1+00141+00091097591ADDAY171061AY261061GA1061+003309069GF108991061071004501021999MA1999999097441MD1710041+9999MW1611REMSYN082AAXX  02121 22422 41457 81905 10014 20009 39744 49759 57004 76176 8672/ 333 86711;
0138224220999992000030215004+65900+034770FM-12+001099999V0201901N006010039019N0130001N1+00061+00011097541ADDGA1071+003909059GF107991071051004501001001MD1710051+9999REMSYN070AAXX  02151 22422 42463 71906 10006 20001 49754 57005 87500 333 87613;
0202224220999992000030218004+65900+034770FM-12+001099999V0201901N006010036019N0042001N1+00101+00051097591ADDAA112003091AY181061AY271061GA1081+003609099GF108991081091004501999999KA1120M+00161MD1310051+9999MW1851REMSYN088AAXX  02181 22422 11442 81906 10010 20005 49759 53005 60032 78587 889// 333 10016 88912;
0159224220999992000030300004+65900+034770FM-12+001099999V0201801N006010045019N0140001N1+00081+00031098041ADDGA1071+004509059GF107991071051004501001001MA1999999097891MD1210221+9999REMSYN076AAXX  03001 22422 42464 71806 10008 20003 39789 49804 52022 87500 333 87615;
0112224220999992000030303004+65900+034770FM-12+001099999V0201801N005010300019N0170001N1-00321-00561098391ADDGF105991021051004501031001MD1210351+9999REMSYN060AAXX  03031 22422 42467 51805 11032 21056 49839 52035 82530;
0168224220999992000030306004+65900+034770FM-12+001099999V0202701N005019999999N0270001N1-01051-01411098641ADDAA112000791AJ100909199999999GF105991001001999999001011IA1299MD1210251+9999REMSYN082AAXX  03061 22422 12977 52705 11105 21141 49864 52025 80001 555 21107 49090 69902;
0112224220999992000030309004+65900+034770FM-12+001099999V0202601N005012200019N0300001N1-00681-01191098771ADDGF104991001001999999001011MD1210231+9999REMSYN060AAXX  03091 22422 42980 42605 11068 21119 49877 52023 80001;
0133224220999992000030312004+65900+034770FM-12+001099999V0202701N006012200019N0280001N1-00701-01331098901ADDGF106991041001022501031011MA1999999098751MD1210131+9999REMSYN066AAXX  03121 22422 42878 62706 11070 21133 39875 49890 52013 84031;
0112224220999992000030315004+65900+034770FM-12+001099999V0202701N002012200019N0250001N1-00751-01301099041ADDGF105991041001022501031011MD1210141+9999REMSYN060AAXX  03151 22422 42875 52702 11075 21130 49904 52014 84031;
0175224220999992000030318004+65900+034770FM-12+001099999V0202701N001012200019N0190001N1-01181-01381099151ADDAA199000091GA1001+999999999GF100991001001999999001001KA1999M-00661MD1210111+9999REMSYN064AAXX  03181 22422 32969 02701 11118 21138 49915 52011 333 11066;EQDQ01  00002PRCP99
0143224220999992000030400004+65900+034770FM-12+001099999V0202601N001012200019N0190001N1-01381-01581099381ADDGA1001+999999999GF100991001001999999001001MA1999999099221MD1210141+9999REMSYN060AAXX  04001 22422 42969 02601 11138 21158 39922 49938 52014;
0157224220999992000030403004+65900+034770FM-12+001099999V0201801N003010042019N0190001N1+99999+99999098702ADDGA1071+004209059GF107991071051004501001001MD1810671+9999REMSYN070AAXX  04031 22422 42469 71803 17095 21111 49870 58067 87500 333 87614;EQDQ01+098703APOSLP
0185224220999992000030406004+65900+034770FM-12+001099999V0201501N006010030019N0031001N1-00411-00501098191ADDAY171061AY231061GA1081+003009069GF108991999071004501021999MD1710511+9999MW1731REMSYN076AAXX  04061 22422 11431 81506 11041 21050 49819 57051 77373 8872/ 333 88710;EQDQ01+000082SCOTLC
0185224220999992000030409004+65900+034770FM-12+001099999V0201401N007010024019N0026001N1-00301-00401098101ADDAY171031AY271031GA1081+002409069GF108991999071002501021999MD1710091+9999MW1731REMSYN076AAXX  04091 22422 41326 81407 11030 21040 49810 57009 77377 8872/ 333 88708;EQDQ01+000082SCOTLC
0206224220999992000030412004+65900+034770FM-12+001099999V0201801N005010024019N0026001N1-00201-00291098041ADDAY171061AY271061GA1081+002409069GF108991999071004501021999MA1999999097891MD1710061+9999MW1731REMSYN082AAXX  04121 22422 41426 81805 11020 21029 39789 49804 57006 77377 8872/ 333 88708;EQDQ01+000082SCOTLC
0138224220999992000030415004+65900+034770FM-12+001099999V0201801N001010039019N0130001N1-00221-00351098001ADDGA1071+003909059GF107991071051004501001001MD1310061+9999REMSYN070AAXX  04151 22422 42463 71801 11022 21035 49800 53006 87500 333 87613;
0202224220999992000030418004+65900+034770FM-12+001099999V0201801N001010024019N0026001N1-00201-00291098111ADDAA112004191AY171061AY271061GA1081+002409069GF108991071021004501021999KA1120M-00181MD1210111+9999MW1731REMSYN088AAXX  04181 22422 11426 81801 11020 21029 49811 52011 60042 77377 8722/ 333 11018 88708;
0206224220999992000030500004+65900+034770FM-12+001099999V0201801N001010024019N0026001N1-00161-00211098371ADDAY171061AY271061GA1081+002409069GF108991999071004501021999MA1999999098221MD1210121+9999MW1731REMSYN082AAXX  05001 22422 41426 81801 11016 21021 39822 49837 52012 77377 8872/ 333 88708;EQDQ01+000082SCOTLC
0138224220999992000030503004+65900+034770FM-12+001099999V0201601N002010042019N0140001N1-00281-00441098781ADDGA1071+004209059GF107991071051004501001001MD1210371+9999REMSYN070AAXX  05031 22422 42464 71602 11028 21044 49878 52037 87500 333 87614;
0140224220999992000030506004+65900+034770FM-12+001099999V0203601N004010210019N0120001N1-00711-00841099111ADDAY171061AY231061GF106991061001022501031001MD1210371+9999MW1361REMSYN066AAXX  05061 22422 11862 63604 11071 21084 49911 52037 73673 86030;
0166224220999992000030509004+65900+034770FM-12+001099999V0200301N004010033019N0024001N1-00401-00521099481ADDAY171031AY231031GA1061+003309069GF108991061071004501021999MD1210371+9999MW1711REMSYN076AAXX  05091 22422 41424 80304 11040 21052 49948 52037 77173 8672/ 333 86711;
0161224220999992000030512004+65900+034770FM-12+001099999V0200101N010010210019N0016001N1-00301-00401099571ADDAY171061AY231061GF108991081001022501021999MA1999999099521MD1210191+9999MW1711REMSYN072AAXX  05121 22422 41816 80110 11030 21040 39952 49957 52019 77173 8802/;
0201224220999992000030515004+65900+034770FM-12+001099999V0201401N999990210019N0050001N1+99999+99999100422ADDAY171031AY271031GF108991081001022501021999MD1212302+9999MW1711REMSYN060AAXX  05151 22422 41850 81480 10352 40042 52230 77177 8802/;EQDQ01+008003WOSPD Q02+003523ATOT  Q03+100423APOSLPQ04+002302APC3  
0180224220999992000030518004+65900+034770FM-12+001099999V0200401N010010210019N0070001N1-00451-00611100251ADDAA112000191AY171061AY231061GF108991081001022501021999KA1999M-00321MD1210251+9999MW1381REMSYN082AAXX  05181 22422 11857 80410 11045 21061 40025 52025 69922 73873 8802/ 333 11032;
0161224220999992000030600004+65900+034770FM-12+001099999V0200401N009010210019N0080001N1-00531-00711100611ADDAY171061AY231061GF108991081001022501021999MA1999999100461MD1210201+9999MW1381REMSYN072AAXX  06001 22422 41858 80409 11053 21071 30046 40061 52020 73873 8802/;
0112224220999992000030603004+65900+034770FM-12+001099999V0200501N005010210019N0140001N1-00981-01191100631ADDGF105991051001022501021999MD1110021+9999REMSYN060AAXX  06031 22422 42864 50505 11098 21119 40063 51002 8502/;
0142224220999992000030606004+65900+034770FM-12+001099999V0202901N003012200019N0190001N1-01301-01651100541ADDAA199000091GF103991031001022501031001MD1810101+9999REMSYN060AAXX  06061 22422 32869 32903 11130 21165 40054 58010 83030;EQDQ01  00002PRCP99
0122224220999992000030609004+65900+034770FM-12+001099999V0203401N002012200019N0300001N1-01221-01491100381ADDGA1001+999999999GF100991001001999999001001MD1710161+9999REMSYN054AAXX  06091 22422 42980 03402 11122 21149 40038 57016;
0143224220999992000030612004+65900+034770FM-12+001099999V0203501N001012200019N0300001N1-01201-01471100151ADDGA1001+999999999GF100991001001999999001001MA1999999099991MD1710231+9999REMSYN060AAXX  06121 22422 42980 03501 11120 21147 39999 40015 57023;
0112224220999992000030615004+65900+034770FM-12+001099999V0209999C000010210019N0240001N1-01281-01481099991ADDGF106991061001022501031001MD1710161+9999REMSYN060AAXX  06151 22422 42874 60000 11128 21148 49999 57016 86030;
0187224220999992000030618004+65900+034770FM-12+001099999V0209999C000010042019N0190001N1-01101-01301099651ADDAA199000091GA1071+004209059GF107991071051004501001001KA1120M-01091MD1710361+9999REMSYN076AAXX  06181 22422 32469 70000 11110 21130 49965 57036 87500 333 11109 87614;EQDQ01  00002PRCP99
0159224220999992000030700004+65900+034770FM-12+001099999V0209999C000010042019N0180001N1-00981-01191099261ADDGA1071+004209059GF107991071051004501001001MA1999999099111MD1710171+9999REMSYN076AAXX  07001 22422 42468 70000 11098 21119 39911 49926 57017 87500 333 87614;
0185224220999992000030703004+65900+034770FM-12+001099999V0200401N005010039019N0024001N1-00621-00721098701ADDAY171031AY231031GA1071+003909059GF107991071051004501001001MD1610552+9999MW1711REMSYN076AAXX  07031 22422 41424 70405 11062 21072 49870 56055 77173 87500 333 87613;EQDQ01+000552APC3  
0228224220999992000030706004+65900+034770FM-12+001099999V0201701N008010021019N0020001N1-00551-00661098081ADDAA112003091AJ101009199999999AY171061AY231061GF108991999071002501021999IA1299KA1120N-01071MD1710621+9999MW1731REMSYN088AAXX  07061 22422 11320 81708 11055 21066 49808 57062 77373 8872/ 333 21107 49100 60032;EQDQ01+000082SCOTLC
0185224220999992000030709004+65900+034770FM-12+001099999V0201501N009010033019N0025001N1-00551-00661097951ADDAY171031AY231031GA1081+003309069GF108991999071004501021999MD1710131+9999MW1711REMSYN076AAXX  07091 22422 41425 81509 11055 21066 49795 57013 77173 8872/ 333 88711;EQDQ01+000082SCOTLC
0205224220999992000030712004+65900+034770FM-12+001099999V0201501N010010027019N0018001N1-00531-00631097821ADDAY171061AY271061GA1081+002709069GF108991999071002501021999MA1999999097671MD1710131+9999MW1731REMSYN081AAXX  07121 22422 41318 81510 11053 21063 3976749782 57013 77377 8872/ 333 88709;EQDQ01+000082SCOTLC
0185224220999992000030715004+65900+034770FM-12+001099999V0201401N011010036019N0022001N1-00551-00661097751ADDAY171031AY271031GA1081+003609069GF108991999071004501021999MD1710091+9999MW1731REMSYN076AAXX  07151 22422 41422 81411 11055 21066 49775 57009 77377 8872/ 333 88712;EQDQ01+000082SCOTLC
0152224220999992000030718004+65900+034770FM-12+001099999V0201501N002010210019N0130001N1-00601-00751097731ADDAA112004191GF106991061001022501021999KA1999M-00501MD1410001+9999REMSYN076AAXX  07181 22422 42863 61502 11060 21075 49773 54000 60042 8602/ 333 11050;
0133224220999992000030800004+65900+034770FM-12+001099999V0201401N001012200019N0150001N1-00741-00911097621ADDGF104991041001022501031001MA1999999097471MD1710061+9999REMSYN066AAXX  08001 22422 42865 41401 11074 21091 39747 49762 57006 84030;
0140224220999992000030806004+65900+034770FM-12+001099999V0201101N001010210019N0050001N1-00501-00601097571ADDAY171061AY221061GF108991081001022501021999MD1610011+9999MW1711REMSYN066AAXX  08061 22422 11850 81101 11050 21060 49757 56001 77172 8802/;
0140224220999992000030809004+65900+034770FM-12+001099999V0200901N002010210019N0024001N1-00401-00491097561ADDAY171031AY271031GF108991081001022501021999MD1610011+9999MW1731REMSYN066AAXX  08091 22422 41824 80902 11040 21049 49756 56001 77377 8802/;
0133224220999992000030812004+65900+034770FM-12+001099999V0200901N001010210019N0170001N1-00281-00441097561ADDGF108991081001022501021999MA1999999097411MD1410001+9999REMSYN066AAXX  08121 22422 42867 80901 11028 21044 39741 49756 54000 8802/;
0140224220999992000030815004+65900+034770FM-12+001099999V0201001N002010210019N0034001N1-00321-00421097621ADDAY171031AY221031GF108991081001022501021999MD1310061+9999MW1711REMSYN066AAXX  08151 22422 41834 81002 11032 21042 49762 53006 77172 8802/;
0180224220999992000030818004+65900+034770FM-12+001099999V0201001N001010210019N0034001N1-00701-00791097661ADDAA112004191AY171061AY221061GF108991081001022501021999KA1999M-00261MD1210041+9999MW1711REMSYN082AAXX  08181 22422 11834 81001 11070 21079 49766 52004 60042 77172 8802/ 333 11026;
0133224220999992000030900004+65900+034770FM-12+001099999V0200501N001010210019N0160001N1-00981-01151097711ADDGF108991081001022501021999MA1999999097561MD1410001+9999REMSYN066AAXX  09001 22422 42866 80501 11098 21115 39756 49771 54000 8802/;
0112224220999992000030903004+65900+034770FM-12+001099999V0209999C000010210019N0180001N1-01061-01261097681ADDGF108991081001022501021999MD1810041+9999REMSYN060AAXX  09031 22422 42868 80000 11106 21126 49768 58004 8802/;
0196224220999992000030906004+65900+034770FM-12+001099999V0203601N001010210019N0080001N1-01091-01151097751ADDAA112000791AJ101049199999999AY121061AY221061GF107991071001022501031001IA1299MD1310081+9999MW1101REMSYN088AAXX  09061 22422 11858 73601 11109 21115 49775 53008 71022 87030 555 21121 49104 69902;
0140224220999992000030909004+65900+034770FM-12+001099999V0200101N003010210019N0050001N1-01151-01211097921ADDAY171031AY231031GF108991081001022501021999MD1210171+9999MW1711REMSYN066AAXX  09091 22422 41850 80103 11115 21121 49792 52017 77173 8802/;
0161224220999992000030912004+65900+034770FM-12+001099999V0203601N002010210019N0080001N1-01051-01111098141ADDAY171061AY231061GF108991081001022501071999MA1999999097991MD1210221+9999MW1101REMSYN072AAXX  09121 22422 41858 83602 11105 21111 39799 49814 52022 71073 8807/;
0112224220999992000030915004+65900+034770FM-12+001099999V0200201N002012200019N0150001N1-01441-01501098331ADDGF102991001001999999001011MD1210181+9999REMSYN060AAXX  09151 22422 42965 20202 11144 21150 49833 52018 80001;
0162224220999992000030918004+65900+034770FM-12+001099999V0203601N002012200019N0150001N1-01741-01801098531ADDAA112000791GA1001+999999999GF100991001001999999001001KA1999M-01031MD1210201+9999REMSYN070AAXX  09181 22422 12965 03602 11174 21180 49853 52020 69902 333 11103;
0143224220999992000031000004+65900+034770FM-12+001099999V0203501N003012200019N0180001N1-01951-02141098741ADDGA1001+999999999GF100991001001999999001001MA1999999098581MD1210111+9999REMSYN060AAXX  10001 22422 42968 03503 11195 21214 39858 49874 52011;
0122224220999992000031003004+65900+034770FM-12+001099999V0203401N002012200019N0190001N1-02031-02221099031ADDGA1001+999999999GF100991001001999999001001MD1210291+9999REMSYN054AAXX  10031 22422 42969 03402 11203 21222 49903 52029;
0181224220999992000031006004+65900+034770FM-12+001099999V0203501N002010210019N0200001N1-01921-01981099151ADDAA199000091AJ101049199999999GF105991051001022501031001IA1299MD1210121+9999REMSYN076AAXX  10061 22422 32870 53502 11192 21198 49915 52012 85030 555 21205 49104;EQDQ01  00002PRCP99
0112224220999992000031009004+65900+034770FM-12+001099999V0203401N003010210019N0200001N1+99999+99999099371ADDGF106991061001022501031001MD1210221+9999REMSYN060AAXX  10091 22422 42870 63403 11//1 21167 49937 52022 86030;
0133224220999992000031012004+65900+034770FM-12+001099999V0203501N003019999999N0250001N1-01201-01261099391ADDGF106991001001999999001011MA1999999099241MD1210031+9999REMSYN066AAXX  10121 22422 42975 63503 11120 21126 39924 49939 52003 80001;
0112224220999992000031015004+65900+034770FM-12+001099999V0203501N002012200019N0240001N1-01051-01111099441ADDGF103991001001999999001011MD1210051+9999REMSYN060AAXX  10151 22422 42974 33502 11105 21111 49944 52005 80001;
0180224220999992000031018004+65900+034770FM-12+001099999V0203401N003010210019N0050001N1-00751-00841099341ADDAA112000791AY171061AY221061GF108991081001022501021999KA1999M-00231MD1810101+9999MW1711REMSYN082AAXX  10181 22422 11850 83403 11075 21084 49934 58010 69902 77172 8802/ 333 11023;
0171224220999992000031100004+65900+034770FM-12+001099999V0202801N006012200019N0160001N1-00881-00991099291ADDAY171061AY231061GA1001+999999999GF100991001001999999001001MA1999999099141MD1810051+9999MW1361REMSYN066AAXX  11001 22422 41966 02806 11088 21099 39914 49929 58005 73673;
0132224220999992000031103004+65900+034770FM-12+001099999V0202601N003012200019N0190001N1-00931-01091099381ADDGA1001+999999999GF100991001001999999001001MD1310091+9999REMSYN064AAXX  11031 22422 42969 02603 11093 21109 49938 53009 555 7000/;
0112224220999992000031106004+65900+034770FM-12+001099999V0203601N001019999999N0130001N1-01251-01381099361ADDGF106991001001999999001011MD1810021+9999REMSYN060AAXX  11061 22422 12963 63601 11125 21138 49936 58002 80001;
0112224220999992000031109004+65900+034770FM-12+001099999V0203501N002019999999N0150001N1-00801-01091099451ADDGF106991001001999999001011MD1310061+9999REMSYN060AAXX  11091 22422 41965 63502 11080 21109 49945 53006 80001;
0133224220999992000031112004+65900+034770FM-12+001099999V0203401N002019999999N0160001N1-00521-00931099411ADDGF106991001001999999001011MA1999999099271MD1410001+9999REMSYN066AAXX  11121 22422 4/966 63402 11052 21093 39927 49941 54000 80001;
0112224220999992000031115004+65900+034770FM-12+001099999V0203301N002019999999N0140001N1-00501-00861099441ADDGF108991081001999999021999MD1310021+9999REMSYN060AAXX  11151 22422 42964 83302 11050 21086 49944 53002 8802/;
0165224220999992000031118004+65900+034770FM-12+001099999V0202801N004010210019N0130001N1-00251-00541099391ADDAA199000091GF108991081001022501021999KA1999M-00231MD1810051+9999REMSYN070AAXX  11181 22422 32863 82804 11025 21054 49939 58005 8802/ 333 11023;EQDQ01  00002PRCP99
0161224220999992000031200004+65900+034770FM-12+001099999V0202901N005010210019N0120001N1-00261-00561099351ADDAY131061AY221061GF108991081001022501021999MA1999999099201MD1810051+9999MW1361REMSYN072AAXX  12001 22422 41862 82905 11026 21056 39920 49935 58005 73632 8802/;
0140224220999992000031203004+65900+034770FM-12+001099999V0203001N005010210019N0130001N1-00351-00671099471ADDAY131031AY221031GF108991081001022501021999MD1310121+9999MW1361REMSYN066AAXX  12031 22422 41863 83005 11035 21067 49947 53012 73632 8802/;
0170224220999992000031206004+65900+034770FM-12+001099999V0203001N007010210019N0150001N1-00351-00871099541ADDAA199000091AY131061AY231061GF108991081001022501071999MD1210071+9999MW1361REMSYN066AAXX  12061 22422 31865 83007 11035 21087 49954 52007 73633 8807/;EQDQ01  00002PRCP99
0140224220999992000031209004+65900+034770FM-12+001099999V0202801N007019999999N0240001N1-00351-00521099661ADDAY131031AY231031GF106991001001999999001011MD1210121+9999MW1361REMSYN066AAXX  12091 22422 41974 62807 11035 21052 49966 52012 73633 80001;
0161224220999992000031212004+65900+034770FM-12+001099999V0202701N007010210019N0250001N1-00301-01061099801ADDAY131061AY231061GF105991051001022501031001MA1999999099651MD1210141+9999MW1361REMSYN072AAXX  12121 22422 41875 52707 11030 21106 39965 49980 52014 73633 85030;
0140224220999992000031215004+65900+034770FM-12+001099999V0202901N007010210019N0230001N1-00411-01141099901ADDAY131031AY231031GF106991061001022501031001MD1210101+9999MW1361REMSYN066AAXX  12151 22422 41873 62907 11041 21114 49990 52010 73633 86030;
0193224220999992000031218004+65900+034770FM-12+001099999V0202901N006019999999N0180001N1-00461-01171099961ADDAA199000091AY131061AY231061GF108991001001999999001031KA1999M-00291MD1210061+9999MW1361REMSYN076AAXX  12181 22422 31968 82906 11046 21117 49996 52006 73633 80003 333 11029;EQDQ01  00002PRCP99
0161224220999992000031300004+65900+034770FM-12+001099999V0202801N006010210019N0170001N1-00581-01251100151ADDAY131061AY231061GF106991061001022501031001MA1999999100001MD1210091+9999MW1361REMSYN072AAXX  13001 22422 41867 62806 11058 21125 30000 40015 52009 73633 86030;
0131224220999992000031303004+65900+034770FM-12+001099999V0202901N003012200019N0190001N1-00741-01391100351ADDGF103991999001022501031001MD1210201+9999REMSYN060AAXX  13031 22422 42869 32903 11074 21139 40035 52020 84030;EQDQ01+000042SCOTLC
0181224220999992000031306004+65900+034770FM-12+001099999V0202601N003019999999N0260001N1-00941-01451100361ADDAA199000091AJ101049199999999GF106991001001999999001011IA1299MD1410001+9999REMSYN076AAXX  13061 22422 32976 62603 11094 21145 40036 54000 80001 555 21113 49104;EQDQ01  00002PRCP99
0112224220999992000031309004+65900+034770FM-12+001099999V0202701N005010210019N0250001N1-00451-01211100301ADDGF107991071001022501011001MD1810051+9999REMSYN060AAXX  13091 22422 42875 72705 11045 21121 40030 58005 87010;
0133224220999992000031312004+65900+034770FM-12+001099999V0201801N005010210019N0200001N1-00361-01111100101ADDGF108991081001022501021999MA1999999099951MD1710201+9999REMSYN066AAXX  13121 22422 42870 81805 11036 21111 39995 40010 57020 8802/;
0140224220999992000031315004+65900+034770FM-12+001099999V0202201N011010210019N0012001N1-00401-00491099751ADDAY171031AY271031GF108991081001022501021999MD1710351+9999MW1731REMSYN066AAXX  13151 22422 41812 82211 11040 21049 49975 57035 77377 8802/;
0180224220999992000031318004+65900+034770FM-12+001099999V0201901N011010210019N0012001N1-00351-00431099681ADDAA112003091AY171061AY271061GF108991081001022501021999KA1999M-00341MD1710171+9999MW1731REMSYN082AAXX  13181 22422 11812 81911 11035 21043 49968 57017 60032 77377 8802/ 333 11034;
0161224220999992000031400004+65900+034770FM-12+001099999V0201701N012010210019N0012001N1-00301-00371099301ADDAY171061AY271061GF108991081001022501021999MA1999999099151MD1710121+9999MW1731REMSYN072AAXX  14001 22422 41812 81712 11030 21037 39915 49930 57012 77377 8802/;
0140224220999992000031403004+65900+034770FM-12+001099999V0201801N005010210019N0130001N1-00231-00291099211ADDAY171031AY231031GF108991081001022501021999MD1710091+9999MW1361REMSYN066AAXX  14031 22422 41863 81805 11023 21029 49921 57009 73673 8802/;
0173224220999992000031406004+65900+034770FM-12+001099999V0201001N023012200019N0005001N1+99999+99999099231ADDAY171061AY231061GA1061+003909069GF199999061071000251021999MD1610021+9999MW1361REMSYN064AAXX  14061 22422 11005 21023 49923 56002 73673 8672/ 333 86713;EQDQ01+000022SCOTCV
0138224220999992000031409004+65900+034770FM-12+001099999V0202001N005010051019N0150001N1+00041-00261099271ADDGA1061+005109059GF108991061051004501021999MD1210041+9999REMSYN070AAXX  14091 22422 41465 82005 10004 21026 49927 52004 8652/ 333 86617;
0159224220999992000031412004+65900+034770FM-12+001099999V0202001N005010045019N0180001N1+00051-00311099321ADDGA1071+004509059GF107991071051004501001001MA1999999099171MD1210051+9999REMSYN076AAXX  14121 22422 42468 72005 10005 21031 39917 49932 52005 87500 333 87615;
0138224220999992000031415004+65900+034770FM-12+001099999V0202001N003010048019N0170001N1-00121-00321099361ADDGA1071+004809059GF107991071051004501001001MD1210041+9999REMSYN070AAXX  14151 22422 42467 72003 11012 21032 49936 52004 87500 333 87616;
0187224220999992000031418004+65900+034770FM-12+001099999V0201901N003010045019N0170001N1-00181-00361099361ADDAA199000091GA1071+004509059GF107991071051004501001001KA1120M+00061MD1410001+9999REMSYN076AAXX  14181 22422 32467 71903 11018 21036 49936 54000 87500 333 10006 87615;EQDQ01  00002PRCP99
0166224220999992000031500004+65900+034770FM-12+001099999V0201901N002010033019N0060001N1-00301-00431099051ADDAY171061AY221061GA1071+003309059GF107991071051004501001001MD1710101+9999MW1711REMSYN076AAXX  15001 22422 41456 71902 11030 21043 49905 57010 77172 87500 333 87611;
0131224220999992000031506004+65900+034770FM-12+001099999V0202601N003012200019N0300001N1-00351-00461099431ADDGF102991011001022501031011MD1310512+9999REMSYN060AAXX  15061 22422 12880 22603 11035 21046 49943 53051 81031;EQDQ01+000512APC3  
0138224220999992000031509004+65900+034770FM-12+001099999V0202701N003010048019N0300001N1-00051-00261099701ADDGA1061+004809059GF106991061051004501001001MD1210271+9999REMSYN070AAXX  15091 22422 42480 62703 11005 21026 49970 52027 86500 333 86616;
0159224220999992000031512004+65900+034770FM-12+001099999V0202601N003010045019N0300001N1+00201-00371099961ADDGA1051+004509029GF106991051011004501001011MA1999999099811MD1210261+9999REMSYN076AAXX  15121 22422 42480 62603 10020 21037 39981 49996 52026 85101 333 85815;
0112224220999992000031515004+65900+034770FM-12+001099999V0202501N002019999999N0250001N1-00031-00411100141ADDGF106991001001999999001011MD1210181+9999REMSYN060AAXX  15151 22422 42975 62502 11003 21041 40014 52018 80001;
0165224220999992000031518004+65900+034770FM-12+001099999V0202801N002010210019N0180001N1-00351-00561100331ADDAA199000091GF108991081001022501021999KA1999M+00251MD1210191+9999REMSYN070AAXX  15181 22422 32868 82802 11035 21056 40033 52019 8802/ 333 10025;EQDQ01  00002PRCP99
0133224220999992000031600004+65900+034770FM-12+001099999V0202301N002010210019N0190001N1-00621-00771100401ADDGF108991081001022501021999MA1999999100251MD1410001+9999REMSYN066AAXX  16001 22422 42869 82302 11062 21077 30025 40040 54000 8802/;
0112224220999992000031603004+65900+034770FM-12+001099999V0209999C000010210019N0200001N1-00641-00901100401ADDGF108991081001022501021999MD1310151+9999REMSYN060AAXX  16031 22422 42870 80000 11064 21090 40040 53015 8802/;
0196224220999992000031606004+65900+034770FM-12+001099999V0200901N002010210019N0021001N1-00151-00201100671ADDAA112000891AJ101109199999999AY171061AY221061GF108991081001022501021999IA1299MD1210121+9999MW1711REMSYN088AAXX  16061 22422 11821 80902 11015 21020 40067 52012 77172 8802/ 555 21071 49110 60012;
0166224220999992000031609004+65900+034770FM-12+001099999V0200901N001010036019N0024001N1-00051-00111100771ADDAY171031AY271031GA1061+003609069GF108991061071004501021999MD1210101+9999MW1711REMSYN076AAXX  16091 22422 41424 80901 11005 21011 40077 52010 77177 8672/ 333 86712;
0155224220999992000031612004+65900+034770FM-12+001099999V0200901N001019999999N0002001N1-00021-00081100991ADDAY171061AY241061GF108991999999999999999999MA1999999100841MD1210221+9999MW1471REMSYN066AAXX  16121 22422 41/02 80901 11002 21008 30084 40099 52022 74774;
0134224220999992000031615004+65900+034770FM-12+001099999V0200801N001019999999N0001001N1-00041-00071101171ADDAY141031AY241031GF108991999999999999999999MD1210181+9999MW1451REMSYN060AAXX  16151 22422 41/01 80801 11004 21007 40117 52018 74544;
0183224220999992000031618004+65900+034770FM-12+001099999V0201001N001010036019N0060001N1-00061-00101101371ADDAA112000591AY171061AY221061GA1071+003609059GF107991071051004501001001MD1210201+9999MW1711REMSYN082AAXX  16181 22422 11456 71001 11006 21010 40137 52020 69962 77172 87500 333 87612;
0159224220999992000031700004+65900+034770FM-12+001099999V0201101N001010039019N0170001N1-00131-00231101601ADDGA1071+003909059GF107991071051004501001001MA1999999101451MD1210091+9999REMSYN076AAXX  17001 22422 42467 71101 11013 21023 30145 40160 52009 87500 333 87613;
0138224220999992000031703004+65900+034770FM-12+001099999V0201001N002010039019N0170001N1-00181-00291101801ADDGA1071+003909059GF107991071051004501001001MD1210201+9999REMSYN070AAXX  17031 22422 42467 71002 11018 21029 40180 52020 87500 333 87613;
0164224220999992000031706004+65900+034770FM-12+001099999V0200901N001010210019N0080001N1-00251-00311102101ADDAY171061AY221061GF106991061001022501031001MD1210301+9999MW1101REMSYN090AAXX  17061 22422 11858 60901 11025 21031 40210 52030 71072 86030 555 5 21027 49110 69922;
0166224220999992000031709004+65900+034770FM-12+001099999V02099999999990048019N9999999N1-00041-00101102221ADDAY121031AY221031GA1071+004809059GF109991091999999999999999MD1210121+9999MW1101REMSYN076AAXX  17091 22422 414/7 90/// 11004 21010 40222 52012 71022 87500 333 87616;
0161224220999992000031712004+65900+034770FM-12+001099999V0200901N001010210019N0033001N1-00051-00111102331ADDAY121061AY221061GF107991071001022501031001MA1999999102181MD1210111+9999MW1101REMSYN072AAXX  17121 22422 41833 70901 11005 21011 30218 40233 52011 71022 87030;
0140224220999992000031715004+65900+034770FM-12+001099999V0201401N002010210019N0035001N1-00151-00231102371ADDAY121031AY221031GF107991071001022501031001MD1210041+9999MW1101REMSYN066AAXX  17151 22422 41835 71402 11015 21023 40237 52004 71022 87030;
0165224220999992000031718004+65900+034770FM-12+001099999V0209999C000012200019N0150001N1-00621-00741102371ADDAA199000091GF102991001001999999001011KA1999M-00021MD1410001+9999REMSYN070AAXX  17181 22422 32965 20000 11062 21074 40237 54000 80001 333 11002;EQDQ01  00002PRCP99
0143224220999992000031800004+65900+034770FM-12+001099999V0209999C000012200019N0180001N1-00831-01021102211ADDGA1001+999999999GF100991001001999999001001MA1999999101961MD1710151+9999REMSYN060AAXX  18001 22422 42968 00000 11083 21102 30196 40221 57015;
0134224220999992000031803004+65900+034770FM-12+001099999V0200901N001019999999N0001001N1-01151-01211102541ADDAY141031AY211031GF108991999999999999999999MD1310231+9999MW1451REMSYN060AAXX  18031 22422 41/01 80901 11115 21121 40254 53023 74541;
0203224220999992000031806004+65900+034770FM-12+001099999V0209999C000019999999N0001001N1-00951-01021102341ADDAA199000091AJ101109199999999AY141061AY211061GF108991999999999999999999IA1299MD1410001+9999MW1451REMSYN076AAXX  18061 22422 31/01 80000 11095 21102 40234 54000 74541 555 21121 49110;EQDQ01  00002PRCP99
0139224220999992000031809004+65900+034770FM-12+001099999V0209999C000019999999N0003001N1-00401-00451102351ADDAY141031GF108991999999999999999999MD1310011+9999REMSYN060AAXX  18091 22422 41/03 80000 11040 21045 40235 53001 7544/;EQDQ01+000542PRSWM1
0171224220999992000031812004+65900+034770FM-12+001099999V0201001N001012200019N0025001N1-00501-00711102361ADDAY141061AY221061GA1001+999999999GF100991001001999999001001MA1999999102211MD1110011+9999MW1101REMSYN066AAXX  18121 22422 41925 01001 11050 21071 30221 40236 51001 71042;
0134224220999992000031815004+65900+034770FM-12+001099999V0201601N001019999999N0003001N1-00561-00631102371ADDAY141031AY211031GF108991999999999999999999MD1110011+9999MW1471REMSYN060AAXX  18151 22422 41/03 81601 11056 21063 40237 51001 74741;
0187224220999992000031818004+65900+034770FM-12+001099999V0209999C000019999999N0003001N1-00551-00621102371ADDAA199000091AY141061AY211061GF108991999999999999999999KA1999M-00381MD1410001+9999MW1451REMSYN070AAXX  18181 22422 31/03 80000 11055 21062 40237 54000 74541 333 11038;EQDQ01  00002PRCP99
0155224220999992000031900004+65900+034770FM-12+001099999V0209999C000019999999N0003001N1-00501-00571102151ADDAY141061AY211061GF108991999999999999999999MA1999999102001MD1710141+9999MW1451REMSYN066AAXX  19001 22422 41/03 80000 11050 21057 30200 40215 57014 74541;
0139224220999992000031903004+65900+034770FM-12+001099999V0209999C000019999999N0180001N1-00641-00761102111ADDAY121031GF108991999999022501999999MD1710041+9999REMSYN060AAXX  19031 22422 42868 80000 11064 21076 40211 57004 7802/;EQDQ01+000802PRSWM1
0209224220999992000031906004+65900+034770FM-12+001099999V0202201N002010210019N0035001N1-00701-00791101941ADDAA199000091AJ101109199999999AY141061AY221061GF106991061001022501031001IA1299MD1710171+9999MW1101REMSYN082AAXX  19061 22422 31835 62202 11070 21079 40194 57017 71042 86030 555 21121 49110;EQDQ01  00002PRCP99
0140224220999992000031909004+65900+034770FM-12+001099999V0202401N003010210019N0080001N1-00251-00381101741ADDAY121031AY221031GF106991061001022501031001MD1710201+9999MW1101REMSYN066AAXX  19091 22422 41858 62403 11025 21038 40174 57020 71022 86030;
0133224220999992000031912004+65900+034770FM-12+001099999V0202101N003010210019N0170001N1+00201+00041101421ADDGF105991051001022501031001MA1999999101371MD1710221+9999REMSYN066AAXX  19121 22422 42867 52103 10020 20004 30137 40142 57022 85030;
0112224220999992000031915004+65900+034770FM-12+001099999V0202501N006010210019N0130001N1+00151-00471101131ADDGF108991081001022501071999MD1710391+9999REMSYN060AAXX  19151 22422 42863 82506 10015 21047 40113 57039 8807/;
0165224220999992000031918004+65900+034770FM-12+001099999V0202501N008010210019N0150001N1+00021-00251100881ADDAA199000091GF106991061001022501031001KA1999M+00241MD1710251+9999REMSYN070AAXX  19181 22422 32865 62508 10002 21025 40088 57025 86030 333 10024;EQDQ01  00002PRCP99
0133224220999992000032000004+65900+034770FM-12+001099999V0202301N006010210019N0170001N1-00131-00331100511ADDGF108991081001022501021999MA1999999100361MD1710201+9999REMSYN066AAXX  20001 22422 42867 82306 11013 21033 30036 40051 57020 8802/;
0131224220999992000032003004+65900+034770FM-12+001099999V0202101N007010210019N0190001N1-00181-00361099912ADDGF108991081001022501021999MD1610501+9999REMSYN060AAXX  20031 22422 42869 82107 11018 21036 49991 56050 8802/;EQDQ01+099913APOSLP
0112224220999992000032006004+65900+034770FM-12+001099999V0202301N009012200019N0260001N1+00201-00411098761ADDGF106991041001022501031011MD1811151+9999REMSYN060AAXX  20061 22422 12876 62309 10020 21041 49876 58115 84031;
0112224220999992000032009004+65900+034770FM-12+001099999V0202601N011012200019N0250001N1+00581-00251098531ADDGF106991031001022501031011MD1710231+9999REMSYN060AAXX  20091 22422 42875 62611 10058 21025 49853 57023 83031;
0187224220999992000032012004+65900+034770FM-12+001099999V0202401N012010039019N0080001N1+00351+00271098521ADDAY181061AY221061GA1061+003909099GF107991061091004501031001MA1999999098371MD1610011+9999MW1801REMSYN082AAXX  20121 22422 41458 72412 10035 20027 39837 49852 56001 78082 86930 333 86913;
0112224220999992000032015004+65900+034770FM-12+001099999V0202801N010012200019N0200001N1+00501-00611098671ADDGF103991021091004501031001MD1310151+9999REMSYN060AAXX  20151 22422 42470 32810 10050 21061 49867 53015 82930;
0180224220999992000032018004+65900+034770FM-12+001099999V0202701N011010300019N0140001N1+00171-00341098891ADDAA112000891AY181061AY221061GF106991031091004501031001KA1999M+00641MD1210221+9999MW1261REMSYN082AAXX  20181 22422 11464 62711 10017 21034 49889 52022 69982 72682 83930 333 10064;
0122224220999992000032103004+65900+034770FM-12+001099999V0202401N003012200019N0190001N1-00331-00651099291ADDGA1001+999999999GF100991001001999999001001MD1210131+9999REMSYN054AAXX  21031 22422 42969 02403 11033 21065 49929 52013;
0172224220999992000032106004+65900+034770FM-12+001099999V0202701N004012200019N0300001N1-00201-00951099401ADDAA199000021AJ100939199999999GA1001+999999999GF100991001001999999001001IA1299MD1210111+9999REMSYN070AAXX  21061 22422 32980 02704 11020 21095 49940 52011 555 21033 49093;
0133224220999992000032112004+65900+034770FM-12+001099999V0202701N009012200019N0300001N1+00181-00891099491ADDGF103991021011004501001011MA1999999099341MD1210031+9999REMSYN066AAXX  21121 22422 42480 32709 10018 21089 39934 49949 52003 82101;
0112224220999992000032115004+65900+034770FM-12+001099999V0202701N003012200019N0260001N1+00101-00981099441ADDGF103991031011004501001011MD1810051+9999REMSYN060AAXX  21151 22422 42476 32703 10010 21098 49944 58005 83101;
0159224220999992000032118004+65900+034770FM-12+001099999V0202601N002012200019N0240001N1-00181-01061099511ADDAA199000091GF102991999999022501999999KA1999M+00231MD1310071+9999REMSYN064AAXX  21181 22422 32874 22602 11018 21106 49951 53007 333 10023;EQDQ01  00002PRCP99
0132224220999992000032203004+65900+034770FM-12+001099999V0202601N003012200019N0190001N1-00431-00941099401ADDGA1001+999999999GF100991001001999999001001MD1610021+9999REMSYN064AAXX  22031 22422 42969 02603 11043 21094 49940 56002 555 7000/;
0181224220999992000032206004+65900+034770FM-12+001099999V0202701N005012200019N0300001N1-00421-01161099381ADDAA199000091AJ100929199999999GF102991001001999999001011IA1299MD1610021+9999REMSYN076AAXX  22061 22422 32980 22705 11042 21116 49938 56002 80001 555 21053 49092;EQDQ01  00002PRCP99
0152224220999992000032212004+65900+034770FM-12+001099999V0202701N007012200019N0300001N1+00101-00961999999ADDGF103991001001999999001011MA1999999099211MD1810021+9999REMSYN066AAXX  22121 22422 42980 32707 10010 21096 39921 4953/ 58002 80001;EQDQ01+095303APOSLP
0112224220999992000032215004+65900+034770FM-12+001099999V0202701N007012200019N0270001N1+00001-00901099331ADDGF102991001001999999001011MD1710031+9999REMSYN060AAXX  22151 22422 42977 22707 10000 21090 49933 57003 80001;
0165224220999992000032218004+65900+034770FM-12+001099999V0202601N003012200019N0190001N1-00341-01131099351ADDAA199000091GF102991001001999999001011KA1999M+00121MD1410001+9999REMSYN070AAXX  22181 22422 32969 22603 11034 21113 49935 54000 80001 333 10012;EQDQ01  00002PRCP99
0143224220999992000032303004+65900+034770FM-12+001099999V0202601N003012200019N0200001N1-00751-01321099121ADDAA124999999GA1001+999999999GF100991001001999999001001MD1710101+9999REMSYN064AAXX  23031 22422 42970 02603 11075 21132 49912 57010 333 7000/;
0142224220999992000032306004+65900+034770FM-12+001099999V0202701N003012200019N0300001N1-00701-00991099081ADDAA199000091GF102991001001999999001011MD1710041+9999REMSYN060AAXX  23061 22422 32980 22703 11070 21099 49908 57004 80001;EQDQ01  00002PRCP99
0133224220999992000032312004+65900+034770FM-12+001099999V0202701N002012200019N0300001N1+00031-00991098991ADDGF102991001001999999001011MA1999999098841MD1710061+9999REMSYN066AAXX  23121 22422 42980 22702 10003 21099 39884 49899 57006 80001;
0187224220999992000032318004+65900+034770FM-12+001099999V0201901N002010300019N0190001N1-00231-00661099001ADDAA199000091GA1021+004509059GF105991021051004501031001KA1120M+00051MD1310031+9999REMSYN076AAXX  23181 22422 32469 51902 11023 21066 49900 53003 82530 333 10005 82615;EQDQ01  00002PRCP99
0131224220999992000032403004+65900+034770FM-12+001099999V0202401N002012200019N0200001N1-00731-01061098931ADDGF103991999001022501031001MD1810021+9999REMSYN060AAXX  24031 22422 42870 32402 11073 21106 49893 58002 82030;EQDQ01+000022SCOTLC
0194224220999992000032406004+65900+034770FM-12+001099999V0202701N003010042019N0230001N1-00631-00901099011ADDAA199000091AJ100919199999999GF106991051051004501031001IA1299KA1120N-00811MD1310031+9999REMSYN076AAXX  24061 22422 32473 62703 11063 21090 49901 53003 85530 333 21081 49091;EQDQ01  00002PRCP99
0187224220999992000032412004+65900+034770FM-12+001099999V0203401N002010042019N0018001N1-00101-00221099281ADDAY181061AY221061GA1071+004209099GF107991071091004501001001MA1999999099131MD1210091+9999MW1801REMSYN082AAXX  24121 22422 41418 73402 11010 21022 39913 49928 52009 78082 87900 333 87914;
0112224220999992000032415004+65900+034770FM-12+001099999V0203501N002010300019N0120001N1-00191-00251099451ADDGF106991031091004501031011MD1210171+9999REMSYN060AAXX  24151 22422 42462 63502 11019 21025 49945 52017 83931;
0180224220999992000032418004+65900+034770FM-12+001099999V0203501N005010300019N0060001N1-00311-00351099631ADDAA112001091AY181061AY221061GF106991021091000251031001KA1999M+00001MD1210181+9999MW1851REMSYN082AAXX  24181 22422 11056 63505 11031 21035 49963 52018 60012 78582 82930 333 10000;
0112224220999992000032503004+65900+034770FM-12+001099999V0202801N002010300019N0180001N1-00351-00561100141ADDGF105991031051004501031001MD1210251+9999REMSYN060AAXX  25031 22422 42468 52802 11035 21056 40014 52025 83530;
0112224220999992000032506004+65900+034770FM-12+001099999V0203601N003010300019N0180001N1-00431-00551100241ADDGF106991031091004501031001MD1210101+9999REMSYN060AAXX  25061 22422 12468 63603 11043 21055 40024 52010 83930;
0133224220999992000032512004+65900+034770FM-12+001099999V0203501N002012200019N0300001N1-00301-00571100491ADDGF104991021011004501001011MA1999999100341MD1210091+9999REMSYN066AAXX  25121 22422 42480 43502 11030 21057 30034 40049 52009 82101;
0112224220999992000032515004+65900+034770FM-12+001099999V0200201N001012200019N0300001N1-00301-00681100571ADDGF103991011051004501001011MD1210081+9999REMSYN060AAXX  25151 22422 42480 30201 11030 21068 40057 52008 81501;
0165224220999992000032518004+65900+034770FM-12+001099999V0200101N001012200019N0160001N1-00581-00971100591ADDAA199000091GF103991011051004501031001KA1999M-00281MD1110021+9999REMSYN070AAXX  25181 22422 32466 30101 11058 21097 40059 51002 81530 333 11028;EQDQ01  00002PRCP99
0166224220999992000032603004+65900+034770FM-12+001099999V0203401N001010042019N0045001N1-00581-00691100781ADDAY181031AY221031GA1081+004209099GF108991081091004501999999MD1210051+9999MW1851REMSYN076AAXX  26031 22422 41445 83401 11058 21069 40078 52005 78582 889// 333 88914;
0140224220999992000032606004+65900+034770FM-12+001099999V0203501N001010300019N0050001N1-00501-00601100891ADDAY181061AY221061GF106991031091004501031001MD1210111+9999MW1851REMSYN066AAXX  26061 22422 11450 63501 11050 21060 40089 52011 78582 83930;
0133224220999992000032612004+65900+034770FM-12+001099999V0203501N003012200019N0300001N1-00251-00731101191ADDGF102991001001999999001011MA1999999101041MD1210161+9999REMSYN066AAXX  26121 22422 42980 23503 11025 21073 30104 40119 52016 80001;
0112224220999992000032615004+65900+034770FM-12+001099999V0203601N002012200019N0300001N1-00361-00931101241ADDGF101991001001999999001011MD1210051+9999REMSYN060AAXX  26151 22422 42980 13602 11036 21093 40124 52005 80001;
0162224220999992000032618004+65900+034770FM-12+001099999V0203201N003012200019N0180001N1-00551-01011101341ADDAA112000791GA1001+999999999GF100991001001999999001001KA1999M-00231MD1210101+9999REMSYN070AAXX  26181 22422 12968 03203 11055 21101 40134 52010 69902 333 11023;
0112224220999992000032703004+65900+034770FM-12+001099999V0202901N002012200019N0200001N1-00941-01341100181ADDGF102991021001022501031001MD1210131+9999REMSYN060AAXX  27031 22422 42870 22902 11094 21134 40018 52013 82030;
0207224220999992000032706004+65900+034770FM-12+001099999V0202801N002012200019N0300001N1-00751-01101101912ADDAA199000091AJ100909199999999GA1001+999999999GF100991001001999999001001IA1299MD1210091+9999REMSYN070AAXX  27061 22422 32980 02802 11075 21110 40191 52009 555 21106 49090;EQDQ01+101913APOSLPQ02  00002PRCP99
0133224220999992000032712004+65900+034770FM-12+001099999V0202701N003012200019N0300001N1-00161-01191101991ADDGF102991001001999999001011MA1999999101831MD1810031+9999REMSYN066AAXX  27121 22422 42980 22703 11016 21119 30183 40199 58003 80001;
0112224220999992000032715004+65900+034770FM-12+001099999V0202701N003019999999N0260001N1-00201-01371101971ADDGF105991001001999999001011MD1610011+9999REMSYN060AAXX  27151 22422 42976 52703 11020 21137 40197 56001 80001;
0181224220999992000032718004+65900+034770FM-12+001099999V0202801N005019999999N0160001N1-00451-01371101891ADDAA199000091GF106991999001022501031001KA1999M-00121MD1710081+9999REMSYN070AAXX  27181 22422 32866 62805 11045 21137 40189 57008 83030 333 11012;EQDQ01+000032SCOTLCQ02  00002PRCP99
0112224220999992000032803004+65900+034770FM-12+001099999V0202401N007019999999N0190001N1-00481-01361101591ADDGF106991001001999999001011MD1710061+9999REMSYN060AAXX  28031 22422 42969 62407 11048 21136 40159 57006 80001;
0142224220999992000032806004+65900+034770FM-12+001099999V0202501N007012200019N0300001N1-00451-01311101431ADDAA199000091GF102991001001999999001011MD1710161+9999REMSYN060AAXX  28061 22422 32980 22507 11045 21131 40143 57016 80001;EQDQ01  00002PRCP99
0133224220999992000032812004+65900+034770FM-12+001099999V0202501N008012200019N0300001N1+00251-00831101431ADDGF101991011001022501031001MA1999999101281MD1810011+9999REMSYN066AAXX  28121 22422 42880 12508 10025 21083 30128 40143 58001 81030;
0138224220999992000032815004+65900+034770FM-12+001099999V0203401N007010042019N0240001N1+00151-00901101481ADDGA1051+004209059GF107991051051004501031011MD1310051+9999REMSYN070AAXX  28151 22422 42474 73407 10015 21090 40148 53005 85531 333 85614;
0187224220999992000032818004+65900+034770FM-12+001099999V0203001N003010048019N0160001N1-00051-00941101601ADDAA199000091GA1051+004809059GF106991051051004501031001KA1120M+00271MD1210121+9999REMSYN076AAXX  28181 22422 32466 63003 11005 21094 40160 52012 85530 333 10027 85616;EQDQ01  00002PRCP99
0131224220999992000032903004+65900+034770FM-12+001099999V0201901N001019999999N0180001N1-00261-00631101551ADDGF108991999001022501011999MD1810061+9999REMSYN060AAXX  29031 22422 42868 81901 11026 21063 40155 58006 8001/;EQDQ01+000002SCOTLC
0158224220999992000032906004+65900+034770FM-12+001099999V0201901N002019999999N0190001N1-00181-00491101361ADDAA199000091GF108991999001022501011999MD1710191+9999REMSYN060AAXX  29061 22422 32869 81902 11018 21049 40136 57019 8001/;EQDQ01+000002SCOTLCQ02  00002PRCP99
0138224220999992000032915004+65900+034770FM-12+001099999V0202401N003010039019N0170001N1+00001-00231100571ADDGA1081+003909099GF108991081091004501999999MD1710231+9999REMSYN070AAXX  29151 22422 42467 82403 10000 21023 40057 57023 889// 333 88913;
0202224220999992000032918004+65900+034770FM-12+001099999V0202601N002010042019N0120001N1-00051-00141100441ADDAA112001091AY181061AY221061GA1071+004209099GF107991071091004501001001KA1120M+00071MD1710131+9999MW1261REMSYN088AAXX  29181 22422 11462 72602 11005 21014 40044 57013 60012 72682 87900 333 10007 87914;
0138224220999992000033003004+65900+034770FM-12+001099999V0201901N002010039019N0190001N1+00281+00151099571ADDGA1071+003909099GF108991071091004501001001MD1710321+9999REMSYN070AAXX  30031 22422 42469 81902 10028 20015 49957 57032 87900 333 87913;
0123224220999992000033006004+65900+034770FM-12+001099999V0202601N003010300019N0300001N1+00341+00241099521ADDAA199000021GF106991031051004501031011MD1710051+9999REMSYN060AAXX  30061 22422 32480 62603 10034 20024 49952 57005 83531;
0159224220999992000033012004+65900+034770FM-12+001099999V0202701N007010060019N0240001N1+00641-00041099281ADDGA1061+006009059GF106991061051008001001001MA1999999099131MD1710121+9999REMSYN076AAXX  30121 22422 42574 62707 10064 21004 39913 49928 57012 86500 333 86620;
0112224220999992000033015004+65900+034770FM-12+001099999V0202601N006010300019N0260001N1+00521+00001099161ADDGF105991021051004501031001MD1710121+9999REMSYN060AAXX  30151 22422 42476 52606 10052 21000 49916 57012 82530;
0142224220999992000033018004+65900+034770FM-12+001099999V0202501N005010210019N0170001N1+00461-00111099131ADDAA199000091GF105991051001022501031001MD1710031+9999REMSYN060AAXX  30181 22422 32867 52505 10046 21011 49913 57003 85030;EQDQ01  00002PRCP99
0092224220999992000033103004+65900+034770FM-12+001099999V0203501N006010210019N0200001N1-00041-00571099511ADDGF106991061001022501021999REMSYN054AAXX  31031 22422 42870 63506 11004 21057 49951 8602/;
0181224220999992000033106004+65900+034770FM-12+001099999V0203501N007012200019N0300001N1-00101-00641099841ADDAA199000091AJ100839199999999GF103991011011004501031001IA1299MD1210331+9999REMSYN076AAXX  31061 22422 32480 33507 11010 21064 49984 52033 81130 555 21011 49083;EQDQ01  00002PRCP99
0152224220999992000033112004+65900+034770FM-12+001099999V0203501N002012200019N0300001N1-00031-00441101542ADDGF106991021021004501001011MA1999999101391MD1210251+9999REMSYN066AAXX  31121 22422 42480 63502 11003 21044 30139 40154 52025 82201;EQDQ01+101543APOSLP
0112224220999992000033115004+65900+034770FM-12+001099999V0201301N003019999999N0260001N1-00101-00491101631ADDGF106991001001999999001011MD1210091+9999REMSYN060AAXX  31151 22422 42976 61303 11010 21049 40163 52009 80001;
0165224220999992000033118004+65900+034770FM-12+001099999V0201201N002019999999N0180001N1-00311-00731101521ADDAA199000091GF106991001001999999001999KA1999M+00051MD1810091+9999REMSYN070AAXX  31181 22422 32968 61202 11031 21073 40152 58009 8000/ 333 10005;EQDQ01  00002PRCP99
0112224220999992000040103004+65900+034770FM-12+001099999V0201001N003010210019N0160001N1-00261-00421100001ADDGF108991081001022501011999MD1710061+9999REMSYN060AAXX  01031 22422 42866 81003 11026 21042 40000 57006 8801/;
0222224220999992000040106004+65900+034770FM-12+001099999V0201401N004010045019N0047001N1-00151-00231099871ADDAA112000591AJ100839199999999AY171061AY221061GA1061+004509079GF108991061071004501021999IA1299MD1710131+9999MW1711REMSYN098AAXX  01061 22422 11447 81404 11015 21023 49987 57013 77172 8672/ 333 86715 555 21031 49083 69962;
0187224220999992000040112004+65900+034770FM-12+001099999V0201201N003010033019N0041001N1-00151-00231099611ADDAY171061AY271061GA1071+003309069GF108991071071004501021999MA1999999099461MD1710091+9999MW1711REMSYN082AAXX  01121 22422 41441 81203 11015 21023 39946 49961 57009 77177 8772/ 333 87711;
0185224220999992000040115004+65900+034770FM-12+001099999V0201001N004010036019N0045001N1-00241-00331099351ADDAY171031AY271031GA1081+003609069GF108991999071004501021999MD1710221+9999MW1711REMSYN076AAXX  01151 22422 41445 81004 11024 21033 49935 57022 77177 8872/ 333 88712;EQDQ01+000082SCOTLC
0221224220999992000040118004+65900+034770FM-12+001099999V0201001N005010030019N0048001N1-00301-00371099171ADDAA112002091AY171061AY271061GA1081+003009069GF108991999071004501021999KA1120M-00081MD1710221+9999MW1711REMSYN088AAXX  01181 22422 11448 81005 11030 21037 49917 57022 60022 77177 8872/ 333 11008 88710;EQDQ01+000082SCOTLC
0138224220999992000040203004+65900+034770FM-12+001099999V0202001N003010039019N0180001N1-00321-00531099231ADDGA1051+003909059GF106991051051004501031001MD1210121+9999REMSYN070AAXX  02031 22422 42468 62003 11032 21053 49923 52012 85530 333 85613;
0140224220999992000040206004+65900+034770FM-12+001099999V0202701N005010210019N0260001N1-00641-01001099311ADDAY131061AY231061GF106991061001022501031001MD1210081+9999MW1361REMSYN066AAXX  02061 22422 12876 62705 11064 21100 49931 52008 73633 86030;
0206224220999992000040212004+65900+034770FM-12+001099999V0203401N009010045019N0080001N1-00151-00711100271ADDAY181061AY231061GA1061+004509099GF106991061091004501001001MA1999999100121MD1210502+9999MW1381REMSYN082AAXX  02121 22422 41458 63409 11015 21071 30012 40027 52050 73883 86900 333 86915;EQDQ01+000502APC3  
0140224220999992000040215004+65900+034770FM-12+001099999V0203301N007012200019N0160001N1-00251-00991100771ADDAY131031AY231031GF103991021051004501031001MD1210501+9999MW1371REMSYN066AAXX  02151 22422 41466 33307 11025 21099 40077 52050 73733 82530;
0162224220999992000040218004+65900+034770FM-12+001099999V0202901N003012200019N0170001N1-00431-01131101151ADDAA112000791GA1001+999999999GF100991001001999999001001KA1999M-00131MD1210381+9999REMSYN070AAXX  02181 22422 12967 02903 11043 21113 40115 52038 69902 333 11013;
0122224220999992000040303004+65900+034770FM-12+001099999V0209999C000012200019N0200001N1-01181-01701101871ADDGA1001+999999999GF100991001001999999001001MD1210211+9999REMSYN054AAXX  03031 22422 42970 00000 11118 21170 40187 52021;
0142224220999992000040306004+65900+034770FM-12+001099999V0203501N001012200019N0300001N1-00701-01441102011ADDAA199000091GF102991001001999999001011MD1210141+9999REMSYN060AAXX  03061 22422 32980 23501 11070 21144 40201 52014 80001;EQDQ01  00002PRCP99
0170224220999992000040312004+65900+034770FM-12+001099999V0203501N001012200019N0300001N1-00351-00911102211ADDGF102991999011004501001011MA1999999102051REMSYN066AAXX  03121 22422 42480 23501 11035 21091 30205 40221 52000 88101;EQDQ01+000082SCOTLCQ02+000022APCTENQ03+000002APC3  
0112224220999992000040315004+65900+034770FM-12+001099999V0203501N002012200019N0300001N1-00451-01011102131ADDGF102991011011004501001011MD1810081+9999REMSYN060AAXX  03151 22422 42480 23502 11045 21101 40213 58008 81101;
0165224220999992000040318004+65900+034770FM-12+001099999V0201501N003019999999N0170001N1-00501-00991102081ADDAA199000091GF105991001001999999001011KA1999M-00331MD1710061+9999REMSYN070AAXX  03181 22422 32967 51503 11050 21099 40208 57006 80001 333 11033;EQDQ01  00002PRCP99
0112224220999992000040403004+65900+034770FM-12+001099999V0201601N004019999999N0300001N1-00471-00871101791ADDGF106991001001999999001011MD1710081+9999REMSYN060AAXX  04031 22422 42980 61604 11047 21087 40179 57008 80001;
0142224220999992000040406004+65900+034770FM-12+001099999V0201301N004019999999N0300001N1-00301-00761101741ADDAA199000091GF106991001001999999001011MD1710051+9999REMSYN060AAXX  04061 22422 32980 61304 11030 21076 40174 57005 80001;EQDQ01  00002PRCP99
0133224220999992000040412004+65900+034770FM-12+001099999V0201601N005010210019N0250001N1-00141-00471101501ADDGF108991081001022501021999MA1999999101351MD1710111+9999REMSYN066AAXX  04121 22422 42875 81605 11014 21047 30135 40150 57011 8802/;
0112224220999992000040415004+65900+034770FM-12+001099999V0201601N004010210019N0230001N1-00201-00481101351ADDGF108991081001022501021999MD1710151+9999REMSYN060AAXX  04151 22422 42873 81604 11020 21048 40135 57015 8802/;
0165224220999992000040418004+65900+034770FM-12+001099999V0201701N004010210019N0160001N1-00201-00701101261ADDAA199000091GF108991081001022501021999KA1999M-00121MD1710091+9999REMSYN070AAXX  04181 22422 32866 81704 11020 21070 40126 57009 8802/ 333 11012;EQDQ01  00002PRCP99
0126224220999992000040503004+65900+034770FM-12+001099999V0201801N003019999999N0190001N1-00181-00641100781ADDAY121031GF108991999999022501999999MD1710201+9999MW1801REMSYN060AAXX  05031 22422 42869 81803 11018 21064 40078 57020 7802/;
0165224220999992000040506004+65900+034770FM-12+001099999V0201801N009010063019N0220001N1+00051-00361100501ADDAA199000021GA1071+006309069GF107991071051008001001001MD1710281+9999REMSYN086AAXX  05061 22422 32572 71809 10005 21036 40050 57028 87500 333 87621 555 21018 49#84;
0166224220999992000040515004+65900+034770FM-12+001099999V0201901N011010036019N0070001N1+00051-00011099751ADDAY181031AY231031GA1071+003609099GF107991071091004501001001MD1710381+9999MW1801REMSYN076AAXX  05151 22422 41457 71911 10005 21001 49975 57038 78083 87900 333 87912;
0202224220999992000040518004+65900+034770FM-12+001099999V0201801N010010039019N0070001N1+00051-00081099491ADDAA112005191AY181061AY231061GA1071+003909099GF107991071091004501001001KA1120M+00071MD1710261+9999MW1871REMSYN088AAXX  05181 22422 11457 71810 10005 21008 49949 57026 60052 78783 87900 333 10007 87913;
0166224220999992000040603004+65900+034770FM-12+001099999V0201801N010010036019N0070001N1+00051-00081099291ADDAY131031AY221031GA1071+003609099GF108991071091004501001001MD1710061+9999MW1101REMSYN076AAXX  06031 22422 41457 81810 10005 21008 49929 57006 71032 87900 333 87912;
0166224220999992000040606004+65900+034770FM-12+001099999V0202601N005010036019N0041001N1-00051-00231099471ADDAY181061AY221061GA1071+003609099GF107991071091004501001001MD1310181+9999MW1851REMSYN076AAXX  06061 22422 11441 72605 11005 21023 49947 53018 78582 87900 333 87912;
0133224220999992000040612004+65900+034770FM-12+001099999V0202301N006012200019N0300001N1+00161-00941099481ADDGF102991021091004501031001MA1999999099331MD1810031+9999REMSYN066AAXX  06121 22422 42480 22306 10016 21094 39933 49948 58003 82930;
0112224220999992000040615004+65900+034770FM-12+001099999V0202101N006010300019N0280001N1+00101-00701099301ADDGF107991031051004501031001MD1710181+9999REMSYN060AAXX  06151 22422 42478 72106 10010 21070 49930 57018 83530;
0202224220999992000040618004+65900+034770FM-12+001099999V0202601N010010033019N0027001N1+00201-00141099181ADDAA112000791AY181061AY221061GA1071+003309099GF107991071091004501001001KA1120M+00221MD1710121+9999MW1861REMSYN088AAXX  06181 22422 11427 72610 10020 21014 49918 57012 69902 78682 87900 333 10022 87911;
0122224220999992000040703004+65900+034770FM-12+001099999V0202801N005012200019N0200001N1-00141-00541100291ADDGA1001+999999999GF100991001001999999001001MD1210471+9999REMSYN054AAXX  07031 22422 42970 02805 11014 21054 40029 52047;
0112224220999992000040706004+65900+034770FM-12+001099999V0203401N008012200019N0260001N1+00201-00601100841ADDGF103991031041004501001001MD1210551+9999REMSYN060AAXX  07061 22422 12476 33408 10020 21060 40084 52055 83400;
0112224220999992000040715004+65900+034770FM-12+001099999V0203501N007012200019N0250001N1+00051-00451102031ADDGF102991021051004501031001MD1210261+9999REMSYN060AAXX  07151 22422 42475 23507 10005 21045 40203 52026 82530;
0187224220999992000040718004+65900+034770FM-12+001099999V0203301N002010042019N0170001N1-00101-00421102331ADDAA199000091GA1061+004209059GF106991061051004501001001KA1120M+00221MD1210301+9999REMSYN076AAXX  07181 22422 32467 63302 11010 21042 40233 52030 86500 333 10022 86614;EQDQ01  00002PRCP99
0112224220999992000040803004+65900+034770FM-12+001099999V0202701N002012200019N0200001N1-00361-00881102601ADDGF102991021001022501031001MD1210071+9999REMSYN060AAXX  08031 22422 42870 22702 11036 21088 40260 52007 82030;
0152224220999992000040806004+65900+034770FM-12+001099999V0202501N002012200019N0300001N1+00021-00591102751ADDAA199000091GA1001+999999999GF100991001001999999001001MD1210131+9999REMSYN054AAXX  08061 22422 32980 02502 10002 21059 40275 52013;EQDQ01  00002PRCP99
0143224220999992000040812004+65900+034770FM-12+001099999V0209999C000012200019N0300001N1+00141-00381102841ADDGA1001+999999999GF100991001001999999001001MA1999999102691MD1410001+9999REMSYN060AAXX  08121 22422 42980 00000 10014 21038 30269 40284 54000;
0122224220999992000040815004+65900+034770FM-12+001099999V0201801N001012200019N0270001N1+00301-00351102821ADDGA1001+999999999GF100991001001999999001001MD1810021+9999REMSYN054AAXX  08151 22422 42977 01801 10030 21035 40282 58002;
0165224220999992000040818004+65900+034770FM-12+001099999V0201901N001012200019N0190001N1-00051-00571102841ADDAA199000091GF102991021001022501031001KA1999M+00321MD1310021+9999REMSYN070AAXX  08181 22422 32869 21901 11005 21057 40284 53002 82030 333 10032;EQDQ01  00002PRCP99
0122224220999992000040903004+65900+034770FM-12+001099999V0201901N002012200019N0250001N1+00541-01001102721ADDGA1001+999999999GF100991001001999999001001MD1610021+9999REMSYN054AAXX  09031 22422 42975 01902 10054 21100 40272 56002;
0146224220999992000040906004+65900+034770FM-12+001099999V0201901N002012200019N0300001N1+99999+99999102651ADDAA199000091GA1001+999999999GF100991001001999999001001MD1710071+9999REMSYN048AAXX  09061 22422 32980 01902 21057 40265 57007;EQDQ01  00002PRCP99
0133224220999992000040912004+65900+034770FM-12+001099999V0202401N006012200019N0300001N1+00551+00441102151ADDGF103991031001022501001011MA1999999102001MD1710021+9999REMSYN066AAXX  09121 22422 42880 32406 10055 20044 30200 40215 57002 83001;
0131224220999992000040915004+65900+034770FM-12+001099999V0201801N004012200019N0270001N1+00321-00591101851ADDGF104991999001022501031011MD1710301+9999REMSYN060AAXX  09151 22422 42877 41804 10032 21059 40185 57030 85031;EQDQ01+000052SCOTLC
0165224220999992000040918004+65900+034770FM-12+001099999V0201801N004012200019N0220001N1-00051-00571101601ADDAA199000091GF102991021001022501001011KA1999M+00571MD1710251+9999REMSYN070AAXX  09181 22422 32872 21804 11005 21057 40160 57025 82001 333 10057;EQDQ01  00002PRCP99
0112224220999992000041003004+65900+034770FM-12+001099999V0202001N005012200019N0250001N1+02221-00731100871ADDGF103991031001022501031001MD1710181+9999REMSYN060AAXX  10031 22422 42875 32005 10222 21073 40087 57018 83030;
0184224220999992000041006004+65900+034770FM-12+001099999V0202301N003010051019N0210001N1+00202-00481100791ADDAA199000091GA1051+005109059GF106991051051004501031001MD1710081+9999REMSYN070AAXX  10061 22422 32471 62303 10020 21048 40079 57008 85530 333 85617;EQDQ01+000203ATOT  Q02  00002PRCP99
0133224220999992000041012004+65900+034770FM-12+001099999V0202501N004012200019N0300001N1+00801-00441100751ADDGF103991001001999999001011MA1999999100601MD1810041+9999REMSYN066AAXX  10121 22422 42980 32504 10080 21044 30060 40075 58004 80001;
0112224220999992000041015004+65900+034770FM-12+001099999V0202401N004019999999N0300001N1+00781-00361100741ADDGF106991001001999999001011MD1610011+9999REMSYN060AAXX  10151 22422 42980 62404 10078 21036 40074 56001 80001;
0165224220999992000041018004+65900+034770FM-12+001099999V0202301N003019999999N0270001N1-00051-00851100741ADDAA199000091GF106991061001022501001011KA1999M+00821MD1410001+9999REMSYN070AAXX  10181 22422 32877 62303 11005 21085 40074 54000 86001 333 10082;EQDQ01  00002PRCP99
0133224220999992000041112004+65900+034770FM-12+001099999V0209999C000010300019N0250001N1+00441-00021100991ADDGF106991031051004501031011MA1999999100841MD1410001+9999REMSYN066AAXX  11121 22422 42475 60000 10044 21002 30084 40099 54000 83531;
0112224220999992000041115004+65900+034770FM-12+001099999V0201501N001010210019N0240001N1+00501-00291100991ADDGF107991071001022501071001MD1410001+9999REMSYN060AAXX  11151 22422 42874 71501 10050 21029 40099 54000 87070;
0187224220999992000041118004+65900+034770FM-12+001099999V0201501N001010051019N0170001N1+00401-00251101021ADDAA199000091GA1051+005109059GF106991051051004501031001KA1120M+00531MD1310031+9999REMSYN076AAXX  11181 22422 32467 61501 10040 21025 40102 53003 85530 333 10053 85617;EQDQ01  00002PRCP99
0138224220999992000041203004+65900+034770FM-12+001099999V0209999C000010045019N0250001N1-00031-00471101061ADDGA1071+004509059GF107991071051004501001001MD1410001+9999REMSYN070AAXX  12031 22422 42475 70000 11003 21047 40106 54000 87500 333 87615;
0166224220999992000041206004+65900+034770FM-12+001099999V0202401N001010033019N0021001N1+00221+00171101021ADDAY181061AY241061GA1081+003309099GF108991081091004501999999MD1310041+9999MW1101REMSYN076AAXX  12061 22422 11421 82401 10022 20017 40102 53004 71084 889// 333 88911;
0187224220999992000041212004+65900+034770FM-12+001099999V0202701N001010033019N0090001N1+00521+00061100951ADDAY181061AY221061GA1071+003309059GF107991071051004501001001MA1999999100801MD1810071+9999MW1101REMSYN082AAXX  12121 22422 41459 72701 10052 20006 30080 40095 58007 71082 87500 333 87611;
0112224220999992000041215004+65900+034770FM-12+001099999V0202601N001010300019N0150001N1+00621+00001100891ADDGF106991031051004501031001MD1710061+9999REMSYN060AAXX  12151 22422 42465 62601 10062 20000 40089 57006 83530;
0174224220999992000041218004+65900+034770FM-12+001099999V0202601N001010039019N0150001N1+00361-00141100881ADDAA112001091GA1071+003909059GF107991071051004501001001KA1120M+00651MD1610011+9999REMSYN082AAXX  12181 22422 12465 72601 10036 21014 40088 56001 69992 87500 333 10065 87613;
0138224220999992000041303004+65900+034770FM-12+001099999V0209999C000010039019N0150001N1-00021-00201100681ADDGA1061+003909059GF106991061051004501001001MD1710071+9999REMSYN070AAXX  13031 22422 42465 60000 11002 21020 40068 57007 86500 333 86613;
0142224220999992000041306004+65900+034770FM-12+001099999V0209999C000012200019N0150001N1+00121-00111100721ADDAA199000091GF102991021001022501031001MD1310041+9999REMSYN060AAXX  13061 22422 32865 20000 10012 21011 40072 53004 82030;EQDQ01  00002PRCP99
0112224220999992000041315004+65900+034770FM-12+001099999V02099999999990042019N0150001N1+00121-00051100731ADDGF106991061041004501001001MD1810071+9999REMSYN060AAXX  13151 22422 42465 69001 10012 21005 40073 58007 86400;
0187224220999992000041318004+65900+034770FM-12+001099999V02099999999990036019N0150001N1+00061-00051100641ADDAA199000091GA1071+003609059GF107991071041004501001001KA1120M+00251MD1710091+9999REMSYN076AAXX  13181 22422 32465 74501 10006 21005 40064 57009 87400 333 10025 87612;EQDQ01  00002PRCP99
0134224220999992000041415004+65900+034770FM-12+001099999V0201301N001019999999N0003001N1-00041-00071099981ADDAY141031AY221031GF108991999999999999999999MD1710121+9999MW1471REMSYN060AAXX  14151 22422 41/03 81301 11004 21007 49998 57012 74742;
0174224220999992000041418004+65900+034770FM-12+001099999V0209999C000019999999N0002001N1+00021-00011100071ADDAA112003091AY141061AY221061GF108991999999999999999999KA1999M+00041MD1310091+9999MW1471REMSYN076AAXX  14181 22422 11/02 80000 10002 21001 40007 53009 60032 74742 333 10004;
0166224220999992000041506004+65900+034770FM-12+001099999V0201601N002010036019N0016001N1+00111+00081099821ADDAY181061AY241061GA1081+003609099GF108991081091004501999999MD1710051+9999MW1101REMSYN076AAXX  15061 22422 11416 81602 10011 20008 49982 57005 71084 889// 333 88912;
0155224220999992000041512004+65900+034770FM-12+001099999V0201701N002019999999N0003001N1+00051+00051099801ADDAY141061AY221061GF108991999999999999999999MA1999999099651MD1410001+9999MW1451REMSYN066AAXX  15121 22422 41/03 81702 10005 20005 39965 49980 54000 74542;
0166224220999992000041515004+65900+034770FM-12+001099999V0201601N002010030019N0017001N1+00041+00011099791ADDAY181031AY241031GA1081+003009099GF108991081091004501999999MD1810011+9999MW1101REMSYN076AAXX  15151 22422 41417 81602 10004 20001 49979 58001 71084 889// 333 88910;
0202224220999992000041518004+65900+034770FM-12+001099999V0201001N001010030019N0016001N1+00021+00021099911ADDAA112003091AY181061AY241061GA1081+003009099GF108991081091004501999999KA1120M+00121MD1310121+9999MW1101REMSYN088AAXX  15181 22422 11416 81001 10002 20002 49991 53012 60032 71084 889// 333 10012 88910;
0155224220999992000041603004+65900+034770FM-12+001099999V0201901N001019999999N0003001N1+00011+00011100391ADDAY141031AY241031GF108991999999999999999999MA1999999100241MD1210111+9999MW1451REMSYN066AAXX  16031 22422 41/03 81901 10001 20001 30024 40039 52011 74544;
0166224220999992000041612004+65900+034770FM-12+001099999V0202601N001010030019N0035001N1+00321+00221100711ADDAY181061AY221061GA1071+003009099GF108991081091004501999999MD1210071+9999MW1811REMSYN076AAXX  16121 22422 41435 82601 10032 20022 40071 52007 78182 889// 333 87910;
0129224220999992000041615004+65900+034770FM-12+001099999V0202701N001010042019N0150001N1+00361+00151101031ADDAA112000891GF106991061091004501001001MD1210221+9999REMSYN066AAXX  16151 22422 12465 62701 10036 20015 40103 52022 69972 86900;
0152224220999992000041618004+65900+034770FM-12+001099999V0202701N001010300019N0150001N1+00191+00031101061ADDAA112000891GF105991031051004501031001KA1999M+00551MD1210131+9999REMSYN076AAXX  16181 22422 12465 52701 10019 20003 40106 52013 69972 83530 333 10055;
0122224220999992000041703004+65900+034770FM-12+001099999V0209999C000012200019N0300001N1-00221-00441101611ADDGA1001+999999999GF100991001001999999001001MD1210101+9999REMSYN054AAXX  17031 22422 42980 00000 11022 21044 40161 52010;
0152224220999992000041706004+65900+034770FM-12+001099999V0209999C000012200019N0300001N1+00201-00021101701ADDAA199000091GA1001+999999999GF100991001001999999001001MD1210091+9999REMSYN054AAXX  17061 22422 32980 00000 10020 21002 40170 52009;EQDQ01  00002PRCP99
0133224220999992000041712004+65900+034770FM-12+001099999V0201601N003010300019N0300001N1+00361+00071101611ADDGF106991031011004501031001MA1999999101461MD1810101+9999REMSYN066AAXX  17121 22422 42480 61603 10036 20007 30146 40161 58010 83130;
0112224220999992000041715004+65900+034770FM-12+001099999V0201501N003019999999N0200001N1+00121-00051101361ADDGF106991001001999999001011MD1710251+9999REMSYN060AAXX  17151 22422 42970 61503 10012 21005 40136 57025 80001;
0209224220999992000041718004+65900+034770FM-12+001099999V0201201N003010036019N0100001N1+00161-00061100951ADDAA199000021AY101061AY201061GA1071+003609029GF107991999999004501999999KA1120M+99999MD1710411+9999MW1751REMSYN076AAXX  17181 22422 32460 71203 10016 21006 40095 57041 77500 333 10007 87512;EQDQ01 +00072ATMX  
0138224220999992000041803004+65900+034770FM-12+001099999V0202601N001010033019N0150001N1+00361+00261100761ADDGA1081+003309029GF108991081051004501999999MD1310111+9999REMSYN070AAXX  18031 22422 42465 82601 10036 20026 40076 53011 885// 333 88511;
0147224220999992000041812004+65900+034770FM-12+001099999V0202701N001019999999N0180001N1+00641+00021999999ADDGF105991999001022501071001MD1210141+9999REMSYN060AAXX  18121 22422 42868 52701 10064 20002 31012 52014 87070;EQDQ01+000072SCOTLCQ02+010121APOSP 
0138224220999992000041815004+65900+034770FM-12+001099999V0201901N001010030019N0190001N1+00571+00031101411ADDGA1071+003009059GF107991071051004501001001MD1210041+9999REMSYN070AAXX  18151 22422 42469 71901 10057 20003 40141 52004 87500 333 87610;
0187224220999992000041818004+65900+034770FM-12+001099999V0201801N001010033019N0180001N1+00381+00121101571ADDAA199000091GA1071+003309029GF107991071051004501001001KA1120M+00721MD1210241+9999REMSYN076AAXX  18181 22422 32468 71801 10038 20012 40157 52024 87500 333 10072 87511;EQDQ01  00002PRCP99
0138224220999992000041903004+65900+034770FM-12+001099999V0201801N001010039019N0250001N1+00201+00031101461ADDGA1061+003909029GF106991061051004501001001MD1710021+9999REMSYN070AAXX  19031 22422 42475 61801 10020 20003 40146 57002 86500 333 86513;
0174224220999992000041906004+65900+034770FM-12+001099999V0202201N001010042019N0170001N1+00381+00071101441ADDAA199000091AJ100549199999999GF107991071051004501001001IA1309KA1120N+00171REMSYN070AAXX  19061 22422 32467 72201 10038 20007 40144 87500 333 20017 42054;EQDQ01  00002PRCP99
0166224220999992000041912004+65900+034770FM-12+001099999V0201901N002010036019N0200001N1+00781+00301101421ADDAY181061AY221061GA1081+003609019GF108991081001999999021999MD1810031+9999MW1021REMSYN076AAXX  19121 22422 41970 81902 10078 20030 40142 58003 70282 8802/ 333 88412;
0112224220999992000041915004+65900+034770FM-12+001099999V0202101N001012200019N0250001N1+01001+00061101431ADDGF103991031001022501021001MD1310011+9999REMSYN060AAXX  19151 22422 42875 32101 10100 20006 40143 53001 83020;
0162224220999992000041918004+65900+034770FM-12+001099999V0202301N001012200019N0190001N1+00751+00301101471ADDAA112000791GA1001+999999999GF100991001001999999001001KA1999M+01051MD1210051+9999REMSYN070AAXX  19181 22422 12969 02301 10075 20030 40147 52005 69902 333 10105;
0122224220999992000042003004+65900+034770FM-12+001099999V0202101N002012200019N0280001N1+00351-00061101661ADDGA1001+999999999GF100991001001999999001001MD1210031+9999REMSYN054AAXX  20031 22422 42878 02102 10035 21006 40166 52003;
0142224220999992000042006004+65900+034770FM-12+001099999V0202501N001010210019N0290001N1+00551+00031101651ADDAA199000091GF107991071001022501071001MD1810011+9999REMSYN060AAXX  20061 22422 32879 72501 10055 20003 40165 58001 87070;EQDQ01  00002PRCP99
0159224220999992000042012004+65900+034770FM-12+001099999V0209999C000010051019N0250001N1+00921+00091101501ADDGA1071+005109059GF107991071051004501001001MA1999999101351MD1710091+9999REMSYN076AAXX  20121 22422 42475 70000 10092 20009 30135 40150 57009 87500 333 87617;
0138224220999992000042015004+65900+034770FM-12+001099999V0201501N001010033019N0190001N1+00461+00101101321ADDGA1071+003309099GF107991071091004501001001MD1710181+9999REMSYN070AAXX  20151 22422 42469 71501 10046 20010 40132 57018 87900 333 87911;
0215224220999992000042018004+65900+034770FM-12+001099999V0203401N001010030019N0180001N1+00501+00171101201ADDAA199000091AY181061AY221061GA1061+003009059GF106991061051004501031001KA1120M+01021MD1710121+9999MW1021REMSYN082AAXX  20181 22422 31468 63401 10050 20017 40120 57012 70282 86530 333 10102 86610;EQDQ01  00002PRCP99
0152224220999992000042112004+65900+034770FM-12+001099999V0201701N002019999999N0200001N1+00601+00211101701ADDGF106991999001022501031011MA1999999101551MD1810021+9999REMSYN066AAXX  21121 22422 42870 61702 10060 20021 30155 40170 58002 80031;EQDQ01+000002SCOTLC
0112224220999992000042115004+65900+034770FM-12+001099999V0201701N002010210019N0170001N1+00381+00121101641ADDGF107991071001022501031001MD1710061+9999REMSYN060AAXX  21151 22422 42867 71702 10038 20012 40164 57006 87030;
0187224220999992000042118004+65900+034770FM-12+001099999V0201301N001010033019N0160001N1+00181+00071101451ADDAA199000091GA1071+003309059GF107991071051004501001001KA1120M+00751MD1710191+9999REMSYN076AAXX  21181 22422 32466 71301 10018 20007 40145 57019 87500 333 10075 87611;EQDQ01  00002PRCP99
0138224220999992000042203004+65900+034770FM-12+001099999V0202701N002012200019N0140001N1+00121+00071100971ADDGA1031+003309059GF103991031051004501001001MD1710191+9999REMSYN070AAXX  22031 22422 42464 32702 10012 20007 40097 57019 83500 333 83611;
0168224220999992000042206004+65900+034770FM-12+001099999V0202501N002010036019N0150001N1+00541+00451100831ADDAA199000091GA1071+003609059GF107991071051004501001001MD1710141+9999REMSYN070AAXX  22061 22422 32465 72502 10054 20045 40083 57014 87500 333 87612;EQDQ01  00002PRCP99
0138224220999992000042215004+65900+034770FM-12+001099999V02099999999990033019N0230001N1+01201+00981100411ADDGA1071+003309059GF107991071051004501031001MD1710261+9999REMSYN070AAXX  22151 22422 42473 75002 10120 20098 40041 57026 87530 333 87611;
0202224220999992000042218004+65900+034770FM-12+001099999V0202201N001010036019N0180001N1+00881+00881100361ADDAA112000791AY181061AY221061GA1061+003609059GF106991061051004501031001KA1120M+01701MD1710061+9999MW1021REMSYN088AAXX  22181 22422 11468 62201 10088 20088 40036 57006 69902 70282 86530 333 10170 86612;
0138224220999992000042303004+65900+034770FM-12+001099999V0202801N002010033019N0140001N1+00401+00301100571ADDGA1071+003309059GF107991071051004501001001MD1210221+9999REMSYN070AAXX  23031 22422 42464 72802 10040 20030 40057 52022 87500 333 87611;
0168224220999992000042306004+65900+034770FM-12+001099999V0203401N003010030019N0180001N1+00201+00201101191ADDAA199000091GA1071+003009059GF107991071051004501001001MD1210621+9999REMSYN070AAXX  23061 22422 32468 73403 10020 20020 40119 52062 87500 333 87610;EQDQ01  00002PRCP99
0133224220999992000042312004+65900+034770FM-12+001099999V0203601N003012200019N0170001N1+00221+00221101891ADDGF104991041001022501031001MA1999999101741MD1210141+9999REMSYN066AAXX  23121 22422 42867 43603 10022 20022 30174 40189 52014 84030;
0112224220999992000042315004+65900+034770FM-12+001099999V0203601N001012200019N0180001N1+00181+00181102041ADDGF103991031001022501031001MD1210151+9999REMSYN060AAXX  23151 22422 42868 33601 10018 20018 40204 52015 83030;
0165224220999992000042318004+65900+034770FM-12+001099999V0201701N001010210019N0180001N1+00081+00081102111ADDAA199000091GF106991061001022501031001KA1999M+00351MD1210071+9999REMSYN070AAXX  23181 22422 32868 61701 10008 20008 40211 52007 86030 333 10035;EQDQ01  00002PRCP99
0163224220999992000042403004+65900+034770FM-12+001099999V0201501N003010030019N0100001N1+00081+00031100901ADDGA1081+003009099GF108991999999004501999999MD1210562+9999MW1881REMSYN070AAXX  24031 22422 41460 81503 10008 20003 40090 52056 788// 333 88910;EQDQ01+000562APC3  
0183224220999992000042406004+65900+034770FM-12+001099999V0201601N006010033019N0100001N1+00141+00091100451ADDAA112004191AY181061AY281061GA1081+003309099GF108991081091004501999999MD1210451+9999MW1811REMSYN082AAXX  24061 22422 11460 81606 10014 20009 40045 52045 60042 78188 889// 333 88911;
0138224220999992000042415004+65900+034770FM-12+001099999V0202801N002010039019N0240001N1+00641+00141100771ADDGA1071+003909029GF107991071051004501001001MD1310241+9999REMSYN070AAXX  24151 22422 42474 72802 10064 20014 40077 53024 87500 333 87513;
0168224220999992000042418004+65900+034770FM-12+001099999V0202801N002019999999N0180001N1+00481+00011100941ADDAA199000021AY131061AY201061GF106991999999022501999999KA1999M+01001MD1210171+9999MW1601REMSYN070AAXX  24181 22422 32868 62802 10048 20001 40094 52017 76030 333 10100;
0123224220999992000042506004+65900+034770FM-12+001099999V0201201N001010210019N0180001N1+00061-00111101801ADDAA199000021GF107991071001022501031001MD1210151+9999REMSYN060AAXX  25061 22422 32868 71201 10006 21011 40180 52015 87030;
0185224220999992000042515004+65900+034770FM-12+001099999V0201201N006010030019N0170001N1+00071-00131100701ADDAY181031AY271031GA1081+003009099GF108991081091004501999999MD1710792+9999MW1811REMSYN076AAXX  25151 22422 41467 81206 10007 21013 40070 57079 78187 889// 333 88910;EQDQ01+000792APC3  
0168224220999992000042518004+65900+034770FM-12+001099999V0200901N005010036019N0160001N1+00051-00151100221ADDAA199000021GA1071+003609099GF107991071091004501999999KA1120M+00121MD1710481+9999REMSYN076AAXX  25181 22422 32466 70905 10005 21015 40022 57048 879// 333 10012 87912;
0168224220999992000042606004+65900+034770FM-12+001099999V0202001N005010051019N0300001N1+00201-00271100921ADDAA199000091GA1051+005109059GF106991051051004501031001MD1210481+9999REMSYN070AAXX  26061 22422 32480 62005 10020 21027 40092 52048 85530 333 85617;EQDQ01  00002PRCP99
0112224220999992000042615004+65900+034770FM-12+001099999V0201901N003012200019N0300001N1+00901-00331101231ADDGF103991031011004501001001MD1210091+9999REMSYN060AAXX  26151 22422 42480 31903 10090 21033 40123 52009 83100;
0187224220999992000042618004+65900+034770FM-12+001099999V0203501N002010039019N0250001N1+00361+00311101251ADDAA199000091GA1071+003909029GF107991071011004501001001KA1120M+00921MD1210171+9999REMSYN076AAXX  26181 22422 32475 73502 10036 20031 40125 52017 87100 333 10092 87813;EQDQ01  00002PRCP99
0168224220999992000042703004+65900+034770FM-12+001099999V0202901N010012200019N0300001N1+00021-00221101891ADDAA199000091GA1031+003609099GF103991031091004501001001MD1210181+9999REMSYN070AAXX  27031 22422 32480 32910 10002 21022 40189 52018 83900 333 83912;EQDQ01  00002PRCP99
0168224220999992000042706004+65900+034770FM-12+001099999V0203101N010012200019N0300001N1+00101-00071102181ADDAA199000091GA1031+004509099GF103991031011004501001001MD1210291+9999REMSYN070AAXX  27061 22422 32480 33110 10010 21007 40218 52029 83100 333 83115;EQDQ01  00002PRCP99
0133224220999992000042712004+65900+034770FM-12+001099999V0203501N008012200019N0270001N1+00181-00291102731ADDGF102991021011004501001001MA1999999102581MD1210171+9999REMSYN066AAXX  27121 22422 42477 23508 10018 21029 30258 40273 52017 82100;
0138224220999992000042715004+65900+034770FM-12+001099999V0203601N004012200019N0290001N1+00221-00381102771ADDGA1011+004209029GF102991011011004501011011MD1210041+9999REMSYN070AAXX  27151 22422 42479 23604 10022 21038 40277 52004 81111 333 81814;
0187224220999992000042718004+65900+034770FM-12+001099999V0201801N002012200019N0170001N1+00101-00541102581ADDAA199000091GA1031+003609029GF103991031011004501031001KA1120M+00251MD1810191+9999REMSYN076AAXX  27181 22422 32467 31802 10010 21054 40258 58019 83130 333 10025 83812;EQDQ01  00002PRCP99
0132224220999992000042803004+65900+034770FM-12+001099999V0202301N002010300019N0250001N1-00121+99999102841ADDGA1031+003909029GF107991031011004501031001MD1810051+9999REMSYN064AAXX  28031 22422 42475 72302 11012 40284 58005 83130 333 83813;
0159224220999992000042812004+65900+034770FM-12+001099999V0203201N002010045019N0300001N1+00741-00821102641ADDGA1071+004509059GF107991071051004501001001MA1999999102491MD1710031+9999REMSYN076AAXX  28121 22422 42480 73202 10074 21082 30249 40264 57003 87500 333 87615;
0138224220999992000042815004+65900+034770FM-12+001099999V0203301N001010033019N0200001N1+00501-00441102571ADDGA1071+003309059GF107991071051004501001001MD1710071+9999REMSYN070AAXX  28151 22422 42470 73301 10050 21044 40257 57007 87500 333 87611;
0187224220999992000042818004+65900+034770FM-12+001099999V0201101N002010042019N0020001N1+00481-00401102561ADDAA199000091GA1051+004209059GF106991051051004501031001KA1120M+00751MD1610011+9999REMSYN076AAXX  28181 22422 32420 61102 10048 21040 40256 56001 85530 333 10075 85614;EQDQ01  00002PRCP99
0143224220999992000050115004+65900+034770FM-12+001099999V02099999999992200019N0290001N1+00041-00391103531ADDGA1001+999999999GF100991001001999999001001REMSYN054AAXX  01151 22422 42979 04504 10004 21039 40353 50814;EQDQ01+000007APCTENQ02+008147APC3  
0207224220999992000050118004+65900+034770FM-12+001099999V0202901N052022200019N0290001N1-00051-00731104592ADDAA199000091GA1001+999999999GF100991001001999999001001KA1999M+00101MD1710041+9999REMSYN064AAXX  01181 22422 32979 02952 11005 21073 40459 57004 333 10010;EQDQ01+005203WOSPD Q02+104593APOSLPQ03  00002PRCP99
0116224220999992000050203004+65900+034770FM-12+001099999V0209999C000012200019N0300001N1-00351-00461999999ADDGA1001+999999999GF100991001001999999001001MD1410001+9999REMSYN048AAXX  02031 22422 42980 00000 11035 21046 54000;
0138224220999992000050315004+65900+034770FM-12+001099999V0202701N002010039019N0230001N1+00641+00141100651ADDGA1081+003909029GF108991081011004501999999MD1710041+9999REMSYN070AAXX  03151 22422 42473 82702 10064 20014 40065 57004 881// 333 88813;
0175224220999992000050318004+65900+034770FM-12+001099999V0202701N002012200019N0190001N1+00621+00121100601ADDAA199000091GA1001+999999999GF100991001001999999001001KA1999M+00701MD1710051+9999REMSYN064AAXX  03181 22422 32969 02702 10062 20012 40060 57005 333 10070;EQDQ01  00002PRCP99
0112224220999992000050403004+65900+034770FM-12+001099999V0203601N004010210019N0200001N1+00321+00061100741ADDGF108991081001022501051999MD1310261+9999REMSYN060AAXX  04031 22422 42870 83604 10032 20006 40074 53026 8805/;
0168224220999992000050406004+65900+034770FM-12+001099999V0203601N004010048019N0240001N1+00361-00081100971ADDAA199000091GA1051+004809029GF107991051011004501031001MD1210231+9999REMSYN070AAXX  04061 22422 32474 73604 10036 21008 40097 52023 85130 333 85816;EQDQ01  00002PRCP99
0176224220999992000050412004+65900+034770FM-12+001099999V0203601N004019999999N0270001N1+00461-00211101111ADDAA124068191AY101061AY201061GF107991999999004501999999MA1999999100961MD1310131+9999MW1711REMSYN076AAXX  04121 22422 42477 73604 10046 21021 30096 40111 53013 77100 333 77815;
0133224220999992000050415004+65900+034770FM-12+001099999V0203501N004010042019N0230001N1+00461-00351101161ADDAA124068191GF107991071011004501001001MD1210051+9999REMSYN070AAXX  04151 22422 42473 73504 10046 21035 40116 52005 87100 333 77814;
0168224220999992000050418004+65900+034770FM-12+001099999V0203301N001010045019N0210001N1+00381-00421101131ADDAA199000021GA1061+004509059GF106991061051004501031001KA1120M+00361MD1810031+9999REMSYN076AAXX  04181 22422 32471 63301 10038 21042 40113 58003 86530 333 10036 86615;
0138224220999992000050503004+65900+034770FM-12+001099999V0201901N002010045019N0260001N1+00331-00421100401ADDGA1061+004509059GF106991061051004501031001MD1710281+9999REMSYN070AAXX  05031 22422 42476 61902 10033 21042 40040 57028 86530 333 86615;
0168224220999992000050506004+65900+034770FM-12+001099999V0201901N002010042019N0260001N1+00331-00021100101ADDAA199000091GA1071+004209099GF107991071091004501001001MD1710301+9999REMSYN070AAXX  05061 22422 32476 71902 10033 21002 40010 57030 87900 333 87914;EQDQ01  00002PRCP99
0143224220999992000050512004+65900+034770FM-12+001099999V0202701N002010042019N0250001N1+00481+00181099781ADDGF108991081091004501999999MA1999999099631MD1810011+9999REMSYN076AAXX  05121 22422 42475 82702 10048 20018 39963 49978 58001 889// 333 889//;
0138224220999992000050515004+65900+034770FM-12+001099999V0203301N003010036019N0230001N1+00341+00191099721ADDGA1081+003609099GF108991081091004501999999MD1310091+9999REMSYN070AAXX  05151 22422 42473 83303 10034 20019 49972 53009 889// 333 88912;
0187224220999992000050518004+65900+034770FM-12+001099999V0203301N002012200019N0190001N1+00441+00021100001ADDAA199000091GA1031+003909099GF103991031091004501001001KA1120M+00551MD1210131+9999REMSYN076AAXX  05181 22422 32469 33302 10044 20002 40000 52013 83900 333 10055 83913;EQDQ01  00002PRCP99
0138224220999992000050603004+65900+034770FM-12+001099999V0203201N002010039019N0250001N1+00341+00131100281ADDGA1071+003909099GF107991071091004501001001MD1210121+9999REMSYN070AAXX  06031 22422 42475 73202 10034 20013 40028 52012 87900 333 87913;
0168224220999992000050606004+65900+034770FM-12+001099999V0203501N006010036019N0220001N1+00341+00131100421ADDAA199000091GA1071+003609059GF107991071051004501001001MD1210291+9999REMSYN070AAXX  06061 22422 32472 73506 10034 20013 40042 52029 87500 333 87612;EQDQ01  00002PRCP99
0137224220999992000050612004+65900+034770FM-12+001099999V0203601N009010300019N0300001N1+00521+00061101221ADDGF105991041091004501031001MD1210381+9999REMSYN066AAXX  06121 22422 42480 53609 10052 20006 31007 40122 52038 84930;EQDQ01+010071APOSP 
0132224220999992000050615004+65900+034770FM-12+001099999V0203201N017010036019N0230001N1+00261-00031101711ADDGA1081+003609099GF108991999999004501999999MD1210491+9999REMSYN064AAXX  06151 22422 42473 83217 10026 21003 40171 52049 333 88912;
0187224220999992000050618004+65900+034770FM-12+001099999V0203201N010010039019N0220001N1+00201-00201101991ADDAA199000091GA1071+003909099GF107991071091004501001001KA1120M+00601MD1210281+9999REMSYN076AAXX  06181 22422 32472 73210 10020 21020 40199 52028 87900 333 10060 87913;EQDQ01  00002PRCP99
0168224220999992000050706004+65900+034770FM-12+001099999V0203501N004012200019N0250001N1+00201-00481102291ADDAA199000091GA1041+004209029GF104991041011004501001001MD1310121+9999REMSYN070AAXX  07061 22422 32475 43504 10020 21048 40229 53012 84100 333 84814;EQDQ01  00002PRCP99
0159224220999992000050712004+65900+034770FM-12+001099999V0202801N002010039019N0290001N1+00551-00701102131ADDGA1061+003909029GF107991061011004501031001MA1999999101981MD1710141+9999REMSYN076AAXX  07121 22422 42479 72802 10055 21070 30198 40213 57014 86130 333 86813;
0138224220999992000050715004+65900+034770FM-12+001099999V0201901N002010042019N0270001N1+00361-00411101911ADDGA1071+004209029GF107991071011004501001001MD1710221+9999REMSYN070AAXX  07151 22422 42477 71902 10036 21041 40191 57022 87100 333 87814;
0187224220999992000050718004+65900+034770FM-12+001099999V0201801N002010048019N0230001N1+00211-00361101731ADDAA199000091GA1081+004809059GF108991081051004501001001KA1120M+00801MD1710181+9999REMSYN076AAXX  07181 22422 32473 81802 10021 21036 40173 57018 88500 333 10080 88616;EQDQ01  00002PRCP99
0168224220999992000050806004+65900+034770FM-12+001099999V0202001N002010051019N0260001N1+00581+00091100651ADDAA199000091GA1081+005109059GF108991081051004501001001MD1710131+9999REMSYN070AAXX  08061 22422 32476 82002 10058 20009 40065 57013 88500 333 88617;EQDQ01  00002PRCP99
0159224220999992000050809004+65900+034770FM-12+001099999V0203401N004010036019N0240001N1+00451+00171100841ADDGA1081+003609099GF108991081091004501999999MA1999999100691MD1210131+9999REMSYN076AAXX  08091 22422 42474 83404 10045 20017 30069 40084 52013 889// 333 88912;
0112224220999992000050815004+65900+034770FM-12+001099999V0203301N004012200019N0300001N1+00631+00161101071ADDGF103991031001022501031001MD1210231+9999REMSYN060AAXX  08151 22422 42880 33304 10063 20016 40107 52023 83030;
0187224220999992000050818004+65900+034770FM-12+001099999V0203501N004012200019N0280001N1+00581+00011101111ADDAA199000091GA1041+003909099GF104991041091004501001001KA1120M+00631MD1210191+9999REMSYN076AAXX  08181 22422 32478 43504 10058 20001 40111 52019 84900 333 10063 84913;EQDQ01  00002PRCP99
0106224220999992000050903004+65900+034770FM-12+001099999V0202501N001012200019N0300001N1+00361+00151101611ADDGF102991999999999999999999MD1210141+9999REMSYN054AAXX  09031 22422 42980 22501 10036 20015 40161 52014;
0158224220999992000050906004+65900+034770FM-12+001099999V0203401N003012200019N0300001N1+00581-00181101541ADDAA199000091GF103991999001999999031001MD1210081+9999REMSYN060AAXX  09061 22422 32980 33403 10058 21018 40154 52008 80030;EQDQ01+000002SCOTLCQ02  00002PRCP99
0159224220999992000050912004+65900+034770FM-12+001099999V0201201N002012200019N0300001N1+00621+00061101781ADDGA1031+003909099GF103991031011022501031001MA1999999101631MD1210021+9999REMSYN076AAXX  09121 22422 42880 31202 10062 20006 30163 40178 52002 83130 333 83113;
0138224220999992000050915004+65900+034770FM-12+001099999V0201701N003012200019N0270001N1+00921-00051101831ADDGA1041+003909029GF104991041011004501001001MD1210051+9999REMSYN070AAXX  09151 22422 42477 41703 10092 21005 40183 52005 84100 333 84813;
0157224220999992000050918004+65900+034770FM-12+001099999V0201801N002010039019N0250001N1+00621-00131101471ADDGA1061+003909029GF107991061011004501031001KA1120M+01001MD1810361+9999REMSYN076AAXX  09181 22422 42475 71802 10062 21013 40147 58036 86130 333 10100 86813;
0112224220999992000051003004+65900+034770FM-12+001099999V0202101N002010210019N0250001N1+00561+00101101031ADDGF106991061001022501031001MD1710221+9999REMSYN060AAXX  10031 22422 42875 62102 10056 20010 40103 57022 86030;
0159224220999992000051012004+65900+034770FM-12+001099999V0203101N003010039019N0250001N1+01541+00641100441ADDGA1061+003909029GF107991061011004501031001MA1999999100301MD1710081+9999REMSYN076AAXX  10121 22422 42475 73103 10154 20064 30030 40044 57008 86130 333 86813;
0138224220999992000051015004+65900+034770FM-12+001099999V0203601N004010036019N0230001N1+00681+00451100491ADDGA1051+003609029GF107991051011004501031001MD1310041+9999REMSYN070AAXX  10151 22422 42473 73604 10068 20045 40049 53004 85130 333 85812;
0165224220999992000051018004+65900+034770FM-12+001099999V0203501N003010210019N0220001N1+00701+00131100571ADDAA199000091GF106991061001022501031001KA1999M+01801MD1210081+9999REMSYN070AAXX  10181 22422 32872 63503 10070 20013 40057 52008 86030 333 10180;EQDQ01  00002PRCP99
0112224220999992000051103004+65900+034770FM-12+001099999V0202101N002010210019N0250001N1+00561+00101100151ADDGF106991061001022501031001MD1710401+9999REMSYN060AAXX  11031 22422 42875 62102 10056 20010 40015 57040 86030;
0136224220999992000051106004+65900+034770FM-12+001099999V0203001N001010210019N0260001N1+00581+00091999999ADDAA199000091GF107991071001022501031001MD1710101+9999REMSYN054AAXX  11061 22422 32876 73001 10058 20009 57010 87030;EQDQ01  00002PRCP99
0187224220999992000051112004+65900+034770FM-12+001099999V02099999999990036019N0210001N1+00181+00131100171ADDAY181061AY221061GA1081+003609099GF108991071091004501999999MA1999999100021MD1210061+9999MW1811REMSYN082AAXX  11121 22422 41471 89002 10018 20013 30002 40017 52006 78182 879// 333 88912;
0202224220999992000051118004+65900+034770FM-12+001099999V0200401N015010036019N0100001N1+00101-00071100431ADDAA112008991AY181061AY281061GA1081+003609099GF108991081091004501999999KA1120M+00601MD1310261+9999MW1841REMSYN088AAXX  11181 22422 11460 80415 10010 21007 40043 53026 60092 78488 889// 333 10060 88912;
0143224220999992000051206004+65900+034770FM-12+001099999V0203401N017019999999N0200001N1+00141+99999100821ADDAA199000021GA1041+003609099GF106991999999004501999999MD1210111+9999REMSYN064AAXX  12061 22422 32470 63417 10014 22021 40082 52011 333 84912;
0159224220999992000051212004+65900+034770FM-12+001099999V0203601N016012200019N0300001N1+00521+00061101181ADDGA1031+003909029GF103991031011004501001001MA1999999101031MD1210141+9999REMSYN076AAXX  12121 22422 42480 33616 10052 20006 30103 40118 52014 83100 333 83813;
0138224220999992000051215004+65900+034770FM-12+001099999V0203501N015010300019N0280001N1+00321-00061101151ADDGA1031+003909029GF106991031011004501031001MD1810031+9999REMSYN070AAXX  12151 22422 42478 63515 10032 21006 40115 58003 83130 333 83813;
0176224220999992000051218004+65900+034770FM-12+001099999V0203601N015010036019N0230001N1+00101-00011101131ADDAA199000021AY101061AY221061GA1061+003609029GF106991061011004501001001KA1120M+00601MW1201REMSYN076AAXX  12181 22422 32473 63615 10010 21001 40113 72002 86100 333 10060 86812;
0138224220999992000051303004+65900+034770FM-12+001099999V0203601N015010300019N0250001N1-00021-00501100931ADDGA1031+003609029GF105991031011004501031001MD1710061+9999REMSYN070AAXX  13031 22422 42475 53615 11002 21050 40093 57006 83130 333 83812;
0149224220999992000051306004+65900+034770FM-12+001099999V0203601N015010036019N0270001N1+00041-00581100901ADDAA199000021GA1061+003609029GF106991061011004501001001MD1710031+9999REMSYN070AAXX  13061 22422 32477 63615 10004 21058 40090 57003 86100 333 86812;
0138224220999992000051312004+65900+034770FM-12+001099999V0203601N015010039019N0270001N1+00161-00461100891ADDGA1061+003909029GF106991061011004501001001MD1310041+9999REMSYN070AAXX  13121 22422 42477 63615 10016 21046 40089 53004 86100 333 86813;
0138224220999992000051315004+65900+034770FM-12+001099999V0203601N015010036019N0250001N1+00221-00491100991ADDGA1051+003609029GF105991051011004501001001MD1210101+9999REMSYN070AAXX  13151 22422 42475 53615 10022 21049 40099 52010 85100 333 85812;
0165224220999992000051318004+65900+034770FM-12+001099999V0203601N014012200019N0240001N1+00201-00371101031ADDAA199000091GF103991031011004501001001KA1999M+00251MD1210041+9999REMSYN070AAXX  13181 22422 32474 33614 10020 21037 40103 52004 83100 333 10025;EQDQ01  00002PRCP99
0138224220999992000051403004+65900+034770FM-12+001099999V0203601N020010039019N0240001N1+00081-00351100961ADDGA1051+003909059GF106991051051004501031001MD1810071+9999REMSYN070AAXX  14031 22422 42474 63620 10008 21035 40096 58007 85530 333 85613;
0142224220999992000051406004+65900+034770FM-12+001099999V0203601N021012200019N0270001N1+00181-00291101011ADDAA199000091GF103991021051004501031001MD1310051+9999REMSYN060AAXX  14061 22422 32477 33621 10018 21029 40101 53005 82530;EQDQ01  00002PRCP99
0159224220999992000051412004+65900+034770FM-12+001099999V0203601N020010048019N0290001N1+00251-00451101121ADDGA1061+004809059GF106991061051004501031001MA1999999100971MD1710021+9999REMSYN076AAXX  14121 22422 42479 63620 10025 21045 30097 40112 57002 86530 333 86616;
0112224220999992000051415004+65900+034770FM-12+001099999V0203601N014012200019N0270001N1+00351-00361101101ADDGF103991021051004501031001MD1810011+9999REMSYN060AAXX  14151 22422 42477 33614 10035 21036 40110 58001 82530;
0187224220999992000051418004+65900+034770FM-12+001099999V0203601N016010300019N0250001N1+00121-00441100891ADDAA199000091GA1031+003909059GF105991031041004501031001KA1120M+00361MD1710061+9999REMSYN076AAXX  14181 22422 32475 53616 10012 21044 40089 57006 83430 333 10036 83613;EQDQ01  00002PRCP99
0144224220999992000051503004+65900+034770FM-12+001099999V0203601N015010039019N0100001N1-00101-00221100581ADDGA1081+003909059GF108991999999004501999999MD1710131+9999MW1851REMSYN070AAXX  15031 22422 42460 83615 11010 21022 40058 57013 785// 333 88613;
0218224220999992000051506004+65900+034770FM-12+001099999V0203501N016010033019N0100001N1-00021-00141100431ADDAA112001091AY181061AY221061GA1051+003309099GF108991051091004501999999MD1710151+9999MW1801REMSYN082AAXX  15061 22422 /1460 83516 11002 21014 40043 56000 60012 78082 859// 333 85911;EQDQ01+000062APCTENQ02+000002APC3  
0159224220999992000051512004+65900+034770FM-12+001099999V0203501N016010300019N0300001N1+00241-00291101001ADDGA1041+003609099GF106991041091004501031001MA1999999100851MD1210261+9999REMSYN076AAXX  15121 22422 42480 63516 10024 21029 30085 40100 52026 84930 333 84912;
0138224220999992000051515004+65900+034770FM-12+001099999V0203601N015010039019N0280001N1+00261-00201101151ADDGA1051+003909029GF106991051011004501031001MD1210151+9999REMSYN070AAXX  15151 22422 42478 63615 10026 21020 40115 52015 85130 333 85813;
0168224220999992000051518004+65900+034770FM-12+001099999V0203601N016010036019N0230001N1+00161-00421101241ADDAA199000021GA1071+003609099GF107991071091004501001001KA1120M+00301MD1210091+9999REMSYN076AAXX  15181 22422 32473 73616 10016 21042 40124 52009 87900 333 10030 87912;
0138224220999992000051603004+65900+034770FM-12+001099999V0203601N016010036019N0250001N1+00081-00351101481ADDGA1061+003609099GF107991061091004501031001MD1210051+9999REMSYN070AAXX  16031 22422 42475 73616 10008 21035 40148 52005 86930 333 86912;
0171224220999992000051606004+65900+034770FM-12+001099999V0203601N015010039019N0260001N1+00141-00411101661ADDAA199000021AY131061AY201061GA1061+003909099GF107991999999004501999999MD1210181+9999MW1691REMSYN070AAXX  16061 22422 32476 73615 10014 21041 40166 52018 76930 333 86913;
0181224220999992000051612004+65900+034770FM-12+001099999V0203601N008010039019N0290001N1+00401-00641101821ADDAY131061AY201061GA1051+003909029GF105991999999004501999999MA1999999101671MD1810021+9999MW1511REMSYN076AAXX  16121 22422 42479 53608 10040 21064 30167 40182 58002 75130 333 85813;
0138224220999992000051615004+65900+034770FM-12+001099999V0203601N006010042019N0280001N1+00341-00441101821ADDGA1051+004209059GF107991051051004501031001MD1410001+9999REMSYN070AAXX  16151 22422 42478 73606 10034 21044 40182 54000 85530 333 85614;
0168224220999992000051618004+65900+034770FM-12+001099999V0203601N002010048019N0260001N1+00301-00381101761ADDAA199000021GA1071+004809059GF107991071051004501031001KA1120M+00601MD1810061+9999REMSYN076AAXX  16181 22422 32476 73602 10030 21038 40176 58006 87530 333 10060 87616;
0138224220999992000051700004+65900+034770FM-12+001099999V0203601N006010048019N0260001N1+00161-00421101671ADDGA1051+004809059GF106991051051004501031001MD1810011+9999REMSYN070AAXX  17001 22422 42476 63606 10016 21042 40167 58001 85530 333 85616;
0168224220999992000051706004+65900+034770FM-12+001099999V0200401N008010300019N0280001N1+00181-00471101671ADDAA199000091GA1041+004809059GF105991041051004501031001MD1410001+9999REMSYN070AAXX  17061 22422 32478 50408 10018 21047 40167 54006 84530 333 84616;EQDQ01  00002PRCP99
0152224220999992000051712004+65900+034770FM-12+001099999V0200301N003012200019N0300001N1+00351-00431101771ADDGF102991001001999999001011MA1999999101721MD1210111+9999REMSYN066AAXX  17121 22422 42980 20303 10035 21043 30172 40177 52011 82001;EQDQ01+000022SCOTLC
0112224220999992000051803004+65900+034770FM-12+001099999V0201301N001010210019N0270001N1+00161-00191101891ADDGF106991061001022501031001MD1710051+9999REMSYN060AAXX  18031 22422 42877 61301 10016 21019 40189 57005 86030;
0148224220999992000051806004+65900+034770FM-12+001099999V0201301N002010042019N0048001N1+00221-00121101851ADDAA199000091GA1071+004209059GF107991071051001501001001REMSYN064AAXX  18061 22422 3/248 71302 10022 21012 40185 87500 333 87614;EQDQ01  00002PRCP99
0154224220999992000051812004+65900+034770FM-12+001099999V0201301N004010300019N0280001N1+00221-00061101811ADDGF108991041091004501031999MA1999999101661REMSYN066AAXX  18121 22422 42478 81304 10022 21006 30166 40181 56000 8493/;EQDQ01+000062APCTENQ02+000002APC3  
0138224220999992000051815004+65900+034770FM-12+001099999V0201701N005010036019N0250001N1+00121-00111101761ADDGA1061+003609099GF108991061091004501031011MD1810051+9999REMSYN070AAXX  18151 22422 42475 81705 10012 21011 40176 58005 86931 333 86912;
0138224220999992000051903004+65900+034770FM-12+001099999V0201701N004010039019N0230001N1+00181+00051101731ADDGA1061+003909099GF107991061091004501031001MD1810081+9999REMSYN070AAXX  19031 22422 42473 71704 10018 20005 40173 58008 86930 333 86913;
0168224220999992000051906004+65900+034770FM-12+001099999V0201701N002010036019N0240001N1+00321+00191101721ADDAA199000091GA1061+003609099GF107991061091004501031001MD1610011+9999REMSYN070AAXX  19061 22422 32474 71702 10032 20019 40172 56001 86930 333 86912;EQDQ01  00002PRCP99
0143224220999992000052012004+65900+034770FM-12+001099999V0201301N003012200019N0300001N1+00731+00171101601ADDGA1001+999999999GF100991001001999999001001MA1999999101451MD1810021+9999REMSYN060AAXX  20121 22422 42980 01303 10073 20017 30145 40160 58002;
0170224220999992000052106004+65900+034770FM-12+001099999V0201901N001012200019N0300001N1+01101+00131101341ADDAA199000091GA1001+999999999GF100991001001999999001001REMSYN054AAXX  21061 22422 32980 01901 10110 20013 40134 51000;EQDQ01+000012APCTENQ02+000002APC3  Q03  00002PRCP99
0122224220999992000052112004+65900+034770FM-12+001099999V0201701N006012200019N0300001N1+01461+00251101451ADDGA1001+999999999GF100991001001999999001001MD1610011+9999REMSYN054AAXX  21121 22422 42980 01706 10146 20025 40145 56001;
0142224220999992000052206004+65900+034770FM-12+001099999V0202301N002010300019N0300001N1+01721+00771101851ADDAA199000091GF106991031011022501031001MD1310031+9999REMSYN060AAXX  22061 22422 32880 62302 10172 20077 40185 53003 83130;EQDQ01  00002PRCP99
0159224220999992000052212004+65900+034770FM-12+001099999V0201901N003010036019N0280001N1+01991+00641101091ADDGA1061+003609029GF106991061011004501001001MA1999999100951MD1710031+9999REMSYN076AAXX  22121 22422 42478 61903 10199 20064 30095 40109 57003 86100 333 86812;
0159224220999992000052312004+65900+034770FM-12+001099999V0201501N002010054019N0300001N1+01821+00731101311ADDGA1061+005409059GF106991061051004501001001MA1999999101171MD1110011+9999REMSYN076AAXX  23121 22422 42480 61502 10182 20073 30117 40131 51001 86500 333 86618;
0159224220999992000052412004+65900+034770FM-12+001099999V0201801N005010039019N0300001N1+02121+01551100901ADDGA1061+003909099GF107991061091004501031001MA1999999100761MD1710071+9999REMSYN076AAXX  24121 22422 42480 71805 10212 20155 30076 40090 57007 86930 333 86913;
0138224220999992000052506004+65900+034770FM-12+001099999V0202301N001010042019N0290001N1+01681+00711100961ADDGA1061+004209059GF106991061051004501001001MD1610021+9999REMSYN070AAXX  25061 22422 42479 62301 10168 20071 40096 56002 86500 333 86614;
0183224220999992000052706004+65900+034770FM-12+001099999V0202101N004010036019N0280001N1+00881+00581099581ADDAA112003091AY181061AY221061GA1081+003609099GF108991081091004501999999MD1710071+9999MW1021REMSYN082AAXX  27061 22422 32478 82104 10088 20058 49958 57007 60032 70282 889// 333 88912;
0159224220999992000052712004+65900+034770FM-12+001099999V0201901N003010033019N0270001N1+01061+00591099691ADDGA1071+003309099GF107991071091004501001001MA1999999099551MD1210061+9999REMSYN076AAXX  27121 22422 42477 71903 10106 20059 39955 49969 52006 87900 333 87911;
0155224220999992000052806004+65900+034770FM-12+001099999V0203601N003010036019N0250001N1+00601+00491100961ADDAA112001091GA1081+003609099GF108991081091004501999999MD1210201+9999REMSYN076AAXX  28061 22422 12475 83603 10060 20049 40096 52020 60012 889// 333 88912;
0159224220999992000052812004+65900+034770FM-12+001099999V0200901N002010045019N0290001N1+00921+00591101261ADDGA1071+004509059GF107991071051004501001001MA1999999101111MD1210101+9999REMSYN076AAXX  28121 22422 42479 70902 10092 20059 30111 40126 52010 87500 333 87615;
0112224220999992000053006004+65900+034770FM-12+001099999V0202301N005010210019N0210001N1+01921+01361100741ADDGF106991061001022501031001MD1710161+9999REMSYN060AAXX  30061 22422 12871 62305 10192 20136 40074 57016 86030;
0138224220999992000053106004+65900+034770FM-12+001099999V0203601N002010033019N0210001N1+01321+00221100741ADDGA1061+003309099GF107991061091004501031001MD1210041+9999REMSYN070AAXX  31061 22422 42471 73602 10132 20022 40074 52004 86930 333 86911;
0112224220999992000060106004+65900+034770FM-12+001099999V0202601N002019999999N0300001N1+01461+00731101371ADDGF106991001001999999001011MD1210131+9999REMSYN060AAXX  01061 22422 12980 62602 10146 20073 40137 52013 80001;
0142224220999992000060206004+65900+034770FM-12+001099999V0203501N001012200019N0300001N1+01261+00681101511ADDAA199000091GF102991011011004501001011MD1610021+9999REMSYN060AAXX  02061 22422 32480 23501 10126 20068 40151 56002 81101;EQDQ01  00002PRCP99
0133224220999992000060212004+65900+034770FM-12+001099999V0200601N003012200019N0300001N1+01541+00501101411ADDGF102991011011004501001011MA1999999101271MD1810101+9999REMSYN066AAXX  02121 22422 42480 20603 10154 20050 30127 40141 58010 81101;
0138224220999992000060306004+65900+034770FM-12+001099999V0201401N003010750019N0300001N1+01271+00761100721ADDGA1021+003909029GF105991021011004501031011MD1710161+9999REMSYN070AAXX  03061 22422 42480 51403 10127 20076 40072 57016 82131 333 82813;
0187224220999992000060312004+65900+034770FM-12+001099999V0201701N006010036019N0080001N1+01041+00591100361ADDAY181061AY221061GA1081+003609099GF108991081091004501999999MA1999999100211MD1710201+9999MW1801REMSYN082AAXX  03121 22422 41458 81706 10104 20059 30021 40036 57020 78082 889// 333 88912;
0187224220999992000060406004+65900+034770FM-12+001099999V0202201N003010039019N0180001N1+00941+00401100021ADDAA199000091GA1051+003909099GF106991051091004501031001KA1120N+00671MD1210051+9999REMSYN076AAXX  04061 22422 32468 62203 10094 20040 40002 52005 85930 333 20067 85913;EQDQ01  00002PRCP99
0159224220999992000060412004+65900+034770FM-12+001099999V0201401N004010300019N0280001N1+01231+00091100151ADDGA1041+004809099GF106991041091004501031001MA1999999100001MD1210141+9999REMSYN076AAXX  04121 22422 42478 61404 10123 20009 30000 40015 52014 84930 333 84916;
0131224220999992000060606004+65900+034770FM-12+001099999V0203601N010019999999N0280001N1+00611+00191101521ADDGF106991999001022501031011MD1210131+9999REMSYN060AAXX  06061 22422 42878 63610 10061 20019 40152 52013 80031;EQDQ01+000002SCOTLC
0152224220999992000060612004+65900+034770FM-12+001099999V0202001N005012200019N0300001N1+00881+00481101701ADDGF103991999001022501011011MA1999999101551MD1210041+9999REMSYN066AAXX  06121 22422 42880 32005 10088 20048 30155 40170 52004 80011;EQDQ01+000002SCOTLC
0142224220999992000060706004+65900+034770FM-12+001099999V0200901N001012200019N0300001N1+00681+00321101881ADDAA199000091GF101991001001999999001011MD1110021+9999REMSYN060AAXX  07061 22422 32980 10901 10068 20032 40188 51002 80001;EQDQ01  00002PRCP99
0133224220999992000060712004+65900+034770FM-12+001099999V0201301N002019999999N0300001N1+01241+00561101701ADDGF105991001001999999001011MA1999999101551MD1710091+9999REMSYN066AAXX  07121 22422 42980 51302 10124 20056 30155 40170 57009 80001;
0142224220999992000060806004+65900+034770FM-12+001099999V0201601N022010300019N0280001N1+00801+00501100861ADDAA199000091GF106991011051008001031011MD1710171+9999REMSYN060AAXX  08061 22422 32578 61622 10080 20050 40086 57017 81531;EQDQ01  00002PRCP99
0133224220999992000060812004+65900+034770FM-12+001099999V0201001N003010300019N0120001N1+00921+00731100631ADDGF107991011051004501031011MA1999999100481MD1710101+9999REMSYN066AAXX  08121 22422 42462 71003 10092 20073 30048 40063 57010 81531;
0168224220999992000060906004+65900+034770FM-12+001099999V0203601N004010048019N0210001N1+00681+00581100481ADDAA199000091GA1061+004809059GF107991061051004501021001MD1310111+9999REMSYN070AAXX  09061 22422 32471 73604 10068 20058 40048 53011 86520 333 86616;EQDQ01  00002PRCP99
0159224220999992000060912004+65900+034770FM-12+001099999V0203601N004010042019N0280001N1+00701+00321100971ADDGA1061+004209099GF106991061091004501031001MA1999999100821MD1210271+9999REMSYN076AAXX  09121 22422 42478 63604 10070 20032 30082 40097 52027 86930 333 86914;
0142224220999992000061006004+65900+034770FM-12+001099999V0202601N003010210019N0290001N1+01161-00051101581ADDAA199000091GF106991061001022501031001MD1210041+9999REMSYN060AAXX  10061 22422 32879 62603 10116 21005 40158 52004 86030;EQDQ01  00002PRCP99
0159224220999992000061012004+65900+034770FM-12+001099999V0202501N003010045019N0260001N1+01721+00091101391ADDGA1061+004509059GF106991061051004501001001MA1999999101251MD1710111+9999REMSYN076AAXX  10121 22422 42476 62503 10172 20009 30125 40139 57011 86500 333 86615;
0166224220999992000061106004+65900+034770FM-12+001099999V0202701N005010039019N0120001N1+01321+00771100321ADDAY181061AY221061GA1061+003909099GF107991061091004501031001MD1710291+9999MW1251REMSYN076AAXX  11061 22422 11462 72705 10132 20077 40032 57029 72582 86930 333 86913;
0133224220999992000061112004+65900+034770FM-12+001099999V0202501N005010300019N0300001N1+01901+00951100261ADDGF106991031011004501031001MA1999999100121MD1610011+9999REMSYN066AAXX  11121 22422 42480 62505 10190 20095 30012 40026 56001 83130;
0138224220999992000061206004+65900+034770FM-12+001099999V0202001N001010042019N0160001N1+01361+01251099641ADDGA1061+004209059GF106991061051004501001001MD1210271+9999REMSYN070AAXX  12061 22422 12466 62001 10136 20125 49964 52027 86500 333 86614;
0159224220999992000061212004+65900+034770FM-12+001099999V0203501N002010300019N0230001N1+01731+01121099441ADDGA1041+003909029GF107991041011004501011001MA1999999099301MD1210121+9999REMSYN076AAXX  12121 22422 42473 73502 10173 20112 39930 49944 52012 84110 333 84813;
0159224220999992000061312004+65900+034770FM-12+001099999V0203601N005010033019N0240001N1+00841+00411100301ADDGA1061+003309099GF106991061091004501031001MA1999999100151MD1210321+9999REMSYN076AAXX  13121 22422 42474 63605 10084 20041 30015 40030 52032 86930 333 86911;
0112224220999992000061406004+65890+034760FM-12+001099999V0202001N004012200019N0300001N1+01331+00951098951ADDGF103991021031004501031001MD1610021+9999REMSYN060AAXX  14061 22422 12480 32004 10133 20095 49895 56002 82330;
0187224220999992000061412004+65890+034760FM-12+001099999V0202701N002010039019N0120001N1+01551+00491098981ADDAY191061AY281061GA1061+003909099GF106991061091004501001001MA1999999098841MD1810031+9999MW1171REMSYN082AAXX  14121 22422 41462 62702 10155 20049 39884 49898 58003 71798 86900 333 86913;
0168224220999992000061506004+65890+034760FM-12+001099999V0202301N002010036019N0240001N1+00801+00321098971ADDAA199000091GA1081+003609099GF108991081091004501999999MD1710151+9999REMSYN070AAXX  15061 22422 32474 82302 10080 20032 49897 57015 889// 333 88912;EQDQ01  00002PRCP99
0168224220999992000061512004+65890+034760FM-12+001099999V0201401N002019999999N0100001N1+00961+00761099101ADDGF108991999081004501091021MA1999999098961MD1310151+9999REMSYN082AAXX  15121 22422 41460 81402 10096 20076 39896 49910 53015 80892 889// 333 88912;EQDQ01+000002SCOTLC
0161224220999992000061606004+65890+034760FM-12+001099999V0200601N003010042019N0080001N1+00741+00651099571ADDAA124079091AY181061AY221061GF108991081091004501999999MD1210251+9999MW1811REMSYN076AAXX  16061 22422 11458 80603 10074 20065 49957 52025 78182 889// 333 78912;
0187224220999992000061612004+65890+034760FM-12+001099999V0203601N006010039019N0080001N1+00681+00501100061ADDAY181061AY221061GA1081+003909099GF108991081091004501999999MA1999999099911MD1210181+9999MW1801REMSYN082AAXX  16121 22422 41458 83606 10068 20050 39991 40006 52018 78082 889// 333 88913;
0168224220999992000061706004+65890+034760FM-12+001099999V0200201N009010045019N0150001N1+00501+00001101051ADDAA199000091GA1061+004509059GF107991061051004501031001MD1210141+9999REMSYN070AAXX  17061 22422 32465 70209 10050 20000 40105 52014 86530 333 86615;EQDQ01  00002PRCP99
0159224220999992000061712004+65890+034760FM-12+001099999V0203401N006010048019N0180001N1+00681-00221101281ADDGA1051+004809059GF107991051051004501031001MA1999999101131MD1210031+9999REMSYN076AAXX  17121 22422 42468 73406 10068 21022 30113 40128 52003 85530 333 85616;
0142224220999992000061806004+65890+034760FM-12+001099999V0203501N003012200019N0300001N1+00881+00481101621ADDAA199000091GF102991021011004501001001MD1210031+9999REMSYN060AAXX  18061 22422 32480 23503 10088 20048 40162 52003 82100;EQDQ01  00002PRCP99
0159224220999992000061812004+65890+034760FM-12+001099999V0200901N001010045019N0280001N1+01021+00321101861ADDGA1061+004509099GF106991061091004501001011MA1999999101711MD1210041+9999REMSYN076AAXX  18121 22422 42478 60901 10102 20032 30171 40186 52004 86901 333 86915;
0168224220999992000061906004+65890+034760FM-12+001099999V0202401N002010039019N0240001N1+01361-00051102001ADDAA199000091GA1071+003909029GF107991071051004501001001MD1710031+9999REMSYN070AAXX  19061 22422 32474 72402 10136 21005 40200 57003 87500 333 87513;EQDQ01  00002PRCP99
0168224220999992000062006004+65890+034760FM-12+001099999V0201901N006010042019N0250001N1+01061+00701100861ADDAA199000091GA1071+004209059GF107991071051004501001001MD1210171+9999REMSYN070AAXX  20061 22422 32475 71906 10106 20070 40086 52017 87500 333 87614;EQDQ01  00002PRCP99
0173224220999992000062012004+65890+034760FM-12+001099999V0202201N002019999999N0150001N1+01161+01041100791ADDAA124079091GF107991999091004501999999MA1999999100651MD1610011+9999REMSYN076AAXX  20121 22422 42465 72202 10116 20104 30065 40079 56001 889// 333 78914;EQDQ01+000082SCOTLC
0142224220999992000062106004+65890+034760FM-12+001099999V0202501N001012200019N0300001N1+01741+00651101271ADDAA199000091GF102991011011004501031001MD1210041+9999REMSYN060AAXX  21061 22422 32480 22501 10174 20065 40127 52004 81130;EQDQ01  00002PRCP99
0159224220999992000062112004+65890+034760FM-12+001099999V0202701N003010045019N0300001N1+02141-00121101331ADDGA1051+004509029GF106991051021004501001011MA1999999101191MD1410001+9999REMSYN076AAXX  21121 22422 42480 62703 10214 21012 30119 40133 54000 85201 333 85815;
0142224220999992000062306004+65890+034760FM-12+001099999V0201401N002010210019N0280001N1+01351+01001101111ADDAA199000091GF106991061001022501031011MD1710081+9999REMSYN060AAXX  23061 22422 32878 61402 10135 20100 40111 57008 86031;EQDQ01  00002PRCP99
0152224220999992000062312004+65890+034760FM-12+001099999V0201701N004012200019N0300001N1+02541-01242100821ADDGF101991011001022501031001MA1999999100681MD1710191+9999REMSYN066AAXX  23121 22422 42880 11704 10254 21124 30068 40082 57019 81030;EQDQ01-001243ATOD  
0142224220999992000062406004+65890+034760FM-12+001099999V0200201N001012200019N0300001N1+01901+01221100991ADDAA199000091GF102991021011004501001001MD1210031+9999REMSYN060AAXX  24061 22422 32480 20201 10190 20122 40099 52003 82100;EQDQ01  00002PRCP99
0133224220999992000062412004+65890+034760FM-12+001099999V0202601N001010300019N0300001N1+02231+00641100781ADDGF106991031051004501031011MA1999999100641MD1810011+9999REMSYN066AAXX  24121 22422 42480 62601 10223 20064 30064 40078 58001 83531;
0133224220999992000062512004+65890+034760FM-12+001099999V0200901N001012200019N0300001N1+99999+99999101161ADDGF106991021091004501001011MA1999999101021MD1810061+9999REMSYN066AAXX  25121 22422 42480 60901 12015 20129 30102 40116 58006 82901;
0142224220999992000062606004+65890+034760FM-12+001099999V0209999C000010210019N0300001N1+01601+01351101351ADDAA199000091GF106991061001022501031001MD1210031+9999REMSYN060AAXX  26061 22422 32880 60000 10160 20135 40135 52003 86030;EQDQ01  00002PRCP99
0157224220999992000062706004+65890+034760FM-12+001099999V0200401N999990048019N0270001N1+01431+01041101011ADDGA1051+004809099GF107991051091004501031001MD1310081+9999REMSYN070AAXX  27061 22422 42477 70491 10143 20104 40101 53008 85930 333 85916;EQDQ01+009101WOSPD 
0133224220999992000062712004+65890+034760FM-12+001099999V0200601N004012200019N0180001N1+01581+01331100991ADDGF106991031001022501031011MA1999999100851MD1810091+9999REMSYN066AAXX  27121 22422 42868 60604 10158 20133 30085 40099 58009 83031;
0112224220999992000062806004+65890+034760FM-12+001099999V0201201N003012200019N0280001N1+01721+01181100921ADDGF105991011091004501001011MD1310161+9999REMSYN060AAXX  28061 22422 42478 51203 10172 20118 40092 53016 81901;
0133224220999992000062812004+65890+034760FM-12+001099999V0200901N002012200019N0300001N1+01821+01021101271ADDGF103991031001022501031001MA1999999101131MD1210041+9999REMSYN066AAXX  28121 22422 42880 30902 10182 20102 30113 40127 52004 83030;
0152224220999992000062906004+65890+034760FM-12+001099999V0200701N002012200019N0290001N1+01601+01241101391ADDAA199000091GA1001+999999999GF100991001001999999001001MD1210031+9999REMSYN054AAXX  29061 22422 32979 00702 10160 20124 40139 52003;EQDQ01  00002PRCP99
0152224220999992000062912004+65890+034760FM-12+001099999V0200901N002012200019N0030001N1+01761+01331101491ADDGF101991001001999999001011MA1999999101351MD1110021+9999REMSYN066AAXX  29121 22422 42930 10902 10176 20133 30135 40149 51002 81001;EQDQ01+000012SCOTLC
0142224220999992000063006004+65890+034760FM-12+001099999V0203601N002012200019N0300001N1+01741+01451101491ADDAA199000091GF102991001001999999001011MD1310011+9999REMSYN060AAXX  30061 22422 32980 23602 10174 20145 40149 53001 80001;EQDQ01  00002PRCP99
0133224220999992000063012004+65890+034760FM-12+001099999V0200201N004012200019N0300001N1+01821+01281101611ADDGF102991001001999999001011MA1999999101471MD1110021+9999REMSYN066AAXX  30121 22422 42980 20204 10182 20128 30147 40161 51002 80001;
0168224220999992000070106004+65890+034760FM-12+001099999V0200601N006010042019N0200001N1+00931+00651101771ADDAA199000091GA1071+004209059GF107991071051004501001001MD1610021+9999REMSYN070AAXX  01061 22422 32470 70606 10093 20065 40177 56002 87500 333 87614;EQDQ01  00002PRCP99
0159224220999992000070112004+65890+034760FM-12+001099999V0200401N001010048019N0220001N1+01201+00681101801ADDGA1071+004809059GF107991071051004501001001MA1999999101651MD1410001+9999REMSYN076AAXX  01121 22422 42472 70401 10120 20068 30165 40180 54000 87500 333 87616;
0157224220999992000070206004+65890+034760FM-12+001099999V0200901N004010039019N0240001N1+00881+00621101641ADDGA1081+003909099GF108991081091004501999999MD1013042+9999REMSYN070AAXX  02061 22422 12474 80904 10088 20062 40164 50304 889// 333 88913;EQDQ01+003042APC3  
0129224220999992000070212004+65890+034760FM-12+001099999V0201001N003019999999N0280001N1+00971+00501101781ADDGF107991999999004501999999MA1999999101631REMSYN076AAXX  02121 22422 42478 71003 10097 20050 30163 40178 91001 86900 333 86912;
0168224220999992000070306004+65890+034760FM-12+001099999V0200901N005010033019N0200001N1+00851+00651101471ADDAA199000091GA1071+003309099GF107991071091004501001001MD1810121+9999REMSYN070AAXX  03061 22422 32470 70905 10085 20065 40147 58012 87900 333 87911;EQDQ01  00002PRCP99
0159224220999992000070312004+65890+034760FM-12+001099999V0200801N004010045019N0240001N1+01001+00361101421ADDGA1051+004509059GF106991051051004501001011MA1999999101271MD1810111+9999REMSYN076AAXX  03121 22422 42474 60804 10100 20036 30127 40142 58011 85501 333 85615;
0168224220999992000070406004+65890+034760FM-12+001099999V0200801N007010030019N0240001N1+01101+00521101291ADDAA199000091GA1071+003009059GF107991071051004501001001MD1810011+9999REMSYN070AAXX  04061 22422 32474 70807 10110 20052 40129 58001 87500 333 87610;EQDQ01  00002PRCP99
0159224220999992000070412004+65890+034760FM-12+001099999V0201301N004010051019N0300001N1+01301+00731101281ADDGA1061+005109059GF108991061051004501021999MA1999999101141MD1310041+9999REMSYN076AAXX  04121 22422 42480 81304 10130 20073 30114 40128 53004 8652/ 333 86617;
0159224220999992000070512004+65890+034760FM-12+001099999V0201401N002010048019N0260001N1+00961+00551100611ADDGA1071+004809059GF107991071051004501001001MA1999999100461MD1710181+9999REMSYN076AAXX  05121 22422 42476 71402 10096 20055 30046 40061 57018 87500 333 87616;
0142224220999992000070606004+65890+034760FM-12+001099999V0200301N001012200019N0200001N1+01251+01071100761ADDAA199000091GF106991031021004501001011MD1210041+9999REMSYN060AAXX  06061 22422 32470 60301 10125 20107 40076 52004 83201;EQDQ01  00002PRCP99
0142224220999992000070706004+65890+034760FM-12+001099999V0200201N003010210019N0300001N1+01321+00531101071ADDAA199000091GF105991051001022501031001MD1210111+9999REMSYN060AAXX  07061 22422 32880 50203 10132 20053 40107 52011 85030;EQDQ01  00002PRCP99
0133224220999992000070712004+65890+034760FM-12+001099999V0200201N003012200019N0300001N1+01401+00621101131ADDGF106991031021004501001011MA1999999100991MD1410001+9999REMSYN066AAXX  07121 22422 42480 60203 10140 20062 30099 40113 54000 83201;
0166224220999992000070806004+65890+034760FM-12+001099999V0201301N003010039019N0100001N1+01271+00811100871ADDAY181061AY221061GA1081+003909099GF108991081091004501999999MD1610021+9999MW1801REMSYN076AAXX  08061 22422 11460 81303 10127 20081 40087 56002 78082 889// 333 88913;
0159224220999992000070812004+65890+034760FM-12+001099999V0201401N003010042019N0280001N1+01461+01041100601ADDGA1071+004209059GF107991071051004501001001MA1999999100461MD1710141+9999REMSYN076AAXX  08121 22422 42478 71403 10146 20104 30046 40060 57014 87500 333 87614;
0138224220999992000070906004+65890+034760FM-12+001099999V0202101N001010033019N0120001N1+01541+01441099951ADDGA1071+003309099GF107991071091004501001001MD1310031+9999REMSYN070AAXX  09061 22422 11462 72101 10154 20144 49995 53003 87900 333 87911;
0159224220999992000070912004+65890+034760FM-12+001099999V0202101N002010036019N0300001N1+02171+00711100021ADDGA1051+003609029GF105991051011004501001001MA1999999099881MD1210061+9999REMSYN076AAXX  09121 22422 11480 52102 10217 20071 39988 40002 52006 85100 333 85812;
0142224220999992000071006004+65890+034760FM-12+001099999V0201801N001012200019N0300001N1+01961+00801101171ADDAA199000091GF101991011001022501001011MD1210071+9999REMSYN060AAXX  10061 22422 32880 11801 10196 20080 40117 52007 81001;EQDQ01  00002PRCP99
0206224220999992000071012004+65890+034760FM-12+001099999V0201601N002010030019N0070001N1+01451+01211100232ADDAY181061AY221061GA1081+003009099GF108991081091004501999999MA1999999100091MD1410001+9999MW1801REMSYN082AAXX  10121 22422 41457 81602 10145 20121 30009 40023 54000 78082 889// 333 88910;EQDQ01+100233APOSLP
0112224220999992000071106004+65890+034760FM-12+001099999V0202701N002012200019N0300001N1+01721+00431100391ADDGF105991011011004501001011MD1210121+9999REMSYN060AAXX  11061 22422 12480 52702 10172 20043 40039 52012 81101;
0133224220999992000071112004+65890+034760FM-12+001099999V0202401N001012200019N0300001N1+02081+00771100531ADDGF105991031011004501001011MA1999999100391MD1210031+9999REMSYN066AAXX  11121 22422 42480 52401 10208 20077 30039 40053 52003 83101;
0142224220999992000071206004+65890+034760FM-12+001099999V0201401N003012200019N0300001N1+01781+01141101431ADDAA199000091GF102991011001022501031011MD1210131+9999REMSYN060AAXX  12061 22422 32880 21403 10178 20114 40143 52013 81031;EQDQ01  00002PRCP99
0133224220999992000071212004+65890+034760FM-12+001099999V0201401N003012200019N0260001N1+01471+01201101441ADDGF105991031051004501001011MA1999999101301MD1810051+9999REMSYN066AAXX  12121 22422 42476 51403 10147 20120 30130 40144 58005 83501;
0166224220999992000071306004+65890+034760FM-12+001099999V0201001N002010048019N9999999N1+01491+01471100971ADDAY141061AY221061GA1081+004809059GF108991081051004501999999MD1710061+9999MW1461REMSYN076AAXX  13061 22422 41451 81002 10149 20147 40097 57006 74642 885// 333 88616;
0152224220999992000071312004+65890+034760FM-12+001099999V0200901N083022200019N0300001N1+01961+01291100711ADDGF103991031001022501001011MA1999999100571MD1710111+9999REMSYN066AAXX  13121 22422 42880 30983 10196 20129 30057 40071 57011 83001;EQDQ01+008303WOSPD 
0133224220999992000071412004+65890+034760FM-12+001099999V0201801N003012200019N0300001N1+02221+01591100601ADDGF102991011011004501011001MA1999999100461MD1810091+9999REMSYN066AAXX  14121 22422 42480 21803 10222 20159 30046 40060 58009 81110;
0178224220999992000071712004+65890+034760FM-12+001099999V0202201N001012200019N0290001N1+02201+01121101731ADDGA1071+004209059GF199999071051004501001001MA1999999101591MD1110011+9999REMSYN076AAXX  17121 22422 42479 12201 10220 20112 30159 40173 51001 87500 333 87614;EQDQ01+000012SCOTCV
0158224220999992000071906004+65890+034760FM-12+001099999V0200901N002019999999N0170001N1+01861+01411101291ADDAA199000091GF105991999021022501031011MD1310011+9999REMSYN060AAXX  19061 22422 32867 50902 10186 20141 40129 53001 80231;EQDQ01+000002SCOTLCQ02  00002PRCP99
0159224220999992000072112004+65890+034760FM-12+001099999V0201201N003010045019N0260001N1+02181+01901102191ADDGA1051+004509059GF107991051051004501001011MA1999999102021MD1410001+9999REMSYN076AAXX  21121 22422 42476 71203 10218 20190 30202 40219 54000 85501 333 85615;
0133224220999992000072212004+65890+034760FM-12+001099999V0200901N002010210019N0140001N1+02081+01821101841ADDGF107991051001022501031011MA1999999101701MD1710051+9999REMSYN066AAXX  22121 22422 42864 70902 10208 20182 30170 40184 57005 85031;
0168224220999992000072306004+65890+034760FM-12+001099999V0201201N002010039019N0250001N1+02121+01631101431ADDAA199000091GA1051+003909099GF107991051091004501031011MD1710061+9999REMSYN070AAXX  23061 22422 32475 71202 10212 20163 40143 57006 85931 333 85913;EQDQ01  00002PRCP99
0133224220999992000072312004+65890+034760FM-12+001099999V0201301N002019999999N9999999N1+01901+01741101301ADDGF106991061001012501031011MA1999999101161MD1710041+9999REMSYN066AAXX  23121 22422 42652 61302 10190 20174 30116 40130 57004 86031;
0142224220999992000072406004+65890+034760FM-12+001099999V0202501N003010300019N0150001N1+02241+01591101161ADDAA199000091GF107991031011004501031011MD1810021+9999REMSYN060AAXX  24061 22422 32465 72503 10224 20159 40116 58002 83131;EQDQ01  00002PRCP99
0206224220999992000072412004+65890+034760FM-12+001099999V0200201N004012200019N0220001N1+01711+01491101431ADDAY181061AY221061GA1071+003609099GF199999071091004501001001MA1999999101291MD1310271+9999MW1021REMSYN082AAXX  24121 22422 41472 10204 10171 20149 30129 40143 53027 70282 87900 333 87912;EQDQ01+000012SCOTCV
0194224220999992000072512004+65890+034760FM-12+001099999V0200501N999990042019N0270001N1+01131+00451102081ADDGA1071+004209059GF199999071051004501001001MA1999999101941MD1410001+9999REMSYN076AAXX  25121 22422 42477 55510 10113 20045 30194 40208 54000 87500 333 87614;EQDQ01+011001WOSPD Q02+000052SCOTCV
0168224220999992000072606004+65890+034760FM-12+001099999V0200601N008010039019N0150001N1+00971+00381101611ADDAA199000091GA1061+003909059GF106991061051004501001001MD1710071+9999REMSYN070AAXX  26061 22422 32465 60608 10097 20038 40161 57007 86500 333 86613;EQDQ01  00002PRCP99
0133224220999992000072612004+65890+034760FM-12+001099999V0200201N006012200019N0280001N1+01261+00481101581ADDGF102991011051004501031001MA1999999101441MD1610011+9999REMSYN066AAXX  26121 22422 42478 20206 10126 20048 30144 40158 56001 81530;
0168224220999992000072706004+65890+034760FM-12+001099999V0200201N006010042019N0280001N1+01081+00881101631ADDAA199000091GA1071+004209099GF107991071091004501001001MD1210031+9999REMSYN070AAXX  27061 22422 32478 70206 10108 20088 40163 52003 87900 333 87914;EQDQ01  00002PRCP99
0133224220999992000072712004+65890+034760FM-12+001099999V0203501N004012200019N0300001N1+01221+00581101711ADDGF102991011051008001001011MA1999999101561MD1410001+9999REMSYN066AAXX  27121 22422 42580 23504 10122 20058 30156 40171 54000 81501;
0133224220999992000072806004+65890+034760FM-12+001099999V0200501N002010042019N0280001N1+01261+00771101391ADDAA124046091GF105991051051004501001001MD1710051+9999REMSYN070AAXX  28061 22422 32478 50502 10126 20077 40139 57005 85500 333 75616;
0133224220999992000072812004+65890+034760FM-12+001099999V0201301N001012200019N0300001N1+01551+00731101161ADDGF101991011051004501001001MA1999999101021MD1710141+9999REMSYN066AAXX  28121 22422 42480 11301 10155 20073 30102 40116 57014 81500;
0152224220999992000072906004+65890+034760FM-12+001099999V02099999999992200019N0300001N1+01821+01281101271ADDAA199000091GA1001+999999999GF100991001001999999001001MD1210121+9999REMSYN054AAXX  29061 22422 32480 09501 10182 20128 40127 52012;EQDQ01  00002PRCP99
0143224220999992000072912004+65890+034760FM-12+001099999V0201301N004012200019N0300001N1+01891+01191101351ADDGA1001+999999999GF100991001001999999001001MA1999999101211MD1110011+9999REMSYN060AAXX  29121 22422 42480 01304 10189 20119 30121 40135 51001;
0133224220999992000073012004+65890+034760FM-12+001099999V0200901N003012200019N0300001N1+01741+01251101531ADDGF107991041001022501031011MA1999999101391MD1410001+9999REMSYN066AAXX  30121 22422 42880 70903 10174 20125 30139 40153 54000 84031;
0142224220999992000080106004+65890+034760FM-12+001099999V0200901N003010300019N0300001N1+01451+01001101351ADDAA199000091GF106991021051004501011011MD1210101+9999REMSYN060AAXX  01061 22422 32480 60903 10145 20100 40135 52010 82511;EQDQ01  00002PRCP99
0133224220999992000080112004+65890+034760FM-12+001099999V0201401N003012200019N0300001N1+01521+00971101451ADDGF106991031051004501001011MA1999999101311MD1810011+9999REMSYN066AAXX  01121 22422 42480 61403 10152 20097 30131 40145 58001 83501;
0168224220999992000080206004+65890+034760FM-12+001099999V02099999999990042019N0240001N1+01001+00801101461ADDAA199000091GA1081+004209059GF108991081051004501999999MD1410001+9999REMSYN070AAXX  02061 22422 32474 89012 10100 20080 40146 54000 885// 333 88614;EQDQ01  00002PRCP99
0159224220999992000080212004+65890+034760FM-12+001099999V0201001N012010042019N0260001N1+01121+00801101671ADDGA1071+004209059GF107991071051004501001001MA1999999101531MD1210021+9999REMSYN076AAXX  02121 22422 42476 71012 10112 20080 30153 40167 52002 87500 333 87614;
0168224220999992000080306004+65890+034760FM-12+001099999V0200901N007010033019N0130001N1+01081+00881101501ADDAA199000091GA1071+003309059GF107991071051004501001001MD1710041+9999REMSYN070AAXX  03061 22422 32463 70907 10108 20088 40150 57004 87500 333 87611;EQDQ01  00002PRCP99
0159224220999992000080312004+65890+034760FM-12+001099999V0200901N006010045019N0150001N1+01161+00771101501ADDGA1071+004509059GF107991071051004501001001MA1999999101361MD1410001+9999REMSYN076AAXX  03121 22422 42465 70906 10116 20077 30136 40150 54000 87500 333 87615;
0168224220999992000080406004+65890+034760FM-12+001099999V0200401N005010048019N0200001N1+01101+00641101411ADDAA199000091GA1051+004809059GF107991051051004501001011MD1610021+9999REMSYN070AAXX  04061 22422 32470 70405 10110 20064 40141 56002 85501 333 85616;EQDQ01  00002PRCP99
0142224220999992000080606004+65890+034760FM-12+001099999V0200401N001012200019N0300001N1+01521+00891100841ADDAA199000091GF101991001001999999001011MD1710041+9999REMSYN060AAXX  06061 22422 32980 10401 10152 20089 40084 57004 80001;EQDQ01  00002PRCP99
0133224220999992000080612004+65890+034760FM-12+001099999V0201201N001012200019N0300001N1+01641+01021100771ADDGF103991021051004501011001MA1999999100631MD1710041+9999REMSYN066AAXX  06121 22422 42480 31201 10164 20102 30063 40077 57004 82510;
0142224220999992000080706004+65890+034760FM-12+001099999V0203401N001010210019N0260001N1+01621+01391100211ADDAA199000091GF106991061001022501031001MD1710101+9999REMSYN060AAXX  07061 22422 32876 63401 10162 20139 40021 57010 86030;EQDQ01  00002PRCP99
0133224220999992000080712004+65890+034760FM-12+001099999V0201301N003010300019N0300001N1+01891+01381100081ADDGF106991031091004501031001MA1999999099941MD1710071+9999REMSYN066AAXX  07121 22422 42480 61303 10189 20138 39994 40008 57007 83930;
0168224220999992000080806004+65890+034760FM-12+001099999V0209999C000010051019N0300001N1+01461+01201100091ADDAA199000091GA1051+005109059GF107991051051004501031011MD1110021+9999REMSYN070AAXX  08061 22422 31480 70000 10146 20120 40009 51002 85531 333 85617;EQDQ01  00002PRCP99
0112224220999992000080906004+65890+034760FM-12+001099999V0201901N002012200019N0300001N1+01381+01131100241ADDGF103991021051004501001011MD1210051+9999REMSYN060AAXX  09061 22422 12480 31902 10138 20113 40024 52005 82501;
0168224220999992000081006004+65890+034760FM-12+001099999V0209999C000010042019N0260001N1+01321+01131099991ADDAA199000091GA1051+004209059GF107991051051004501011011MD1810021+9999REMSYN070AAXX  10061 22422 32476 70000 10132 20113 49999 58002 85511 333 85614;EQDQ01  00002PRCP99
0168224220999992000081206004+65890+034760FM-12+001099999V0209999C000010039019N0280001N1+01501+01091100951ADDAA199000091GA1061+003909069GF107991071041004501999999MD1210021+9999REMSYN070AAXX  12061 22422 32478 70000 10150 20109 40095 52002 874// 333 86713;EQDQ01  00002PRCP99
0138224220999992000081306004+65890+034760FM-12+001099999V0203201N001010048019N0260001N1+01361+01251101051ADDGA1071+004809059GF107991071051004501001001MD1410001+9999REMSYN070AAXX  13061 22422 12476 73201 10136 20125 40105 54000 87500 333 87616;
0159224220999992000081412004+65890+034760FM-12+001099999V0203601N008012200019N0300001N1+01431+00671101571ADDGA1041+003909099GF104991041091004501001001MA1999999101431MD1810021+9999REMSYN076AAXX  14121 22422 42480 43608 10143 20067 30143 40157 58002 84900 333 84913;
0142224220999992000081506004+65890+034760FM-12+001099999V0203201N006012200019N0270001N1+01121+00531101011ADDAA199000091GF104991021051004501001011MD1710141+9999REMSYN060AAXX  15061 22422 32477 43206 10112 20053 40101 57014 82501;EQDQ01  00002PRCP99
0159224220999992000081512004+65890+034760FM-12+001099999V0203301N005010039019N0230001N1+01461+00781100971ADDGA1071+003909059GF107991071051004501001001MA1999999100831MD1810081+9999REMSYN076AAXX  15121 22422 42473 73305 10146 20078 30083 40097 58008 87500 333 87613;
0152224220999992000081612004+65890+034760FM-12+001099999V0203601N003019999999N0300001N1+01421+01041100741ADDGF105991999021004501001001MA1999999100601MD1410001+9999REMSYN066AAXX  16121 22422 42480 53603 10142 20104 30060 40074 54000 83200;EQDQ01+000032SCOTLC
0168224220999992000081706004+65890+034760FM-12+001099999V0200901N003010048019N0260001N1+01181+01031100771ADDAA199000091GA1081+004809059GF108991081051004501999999MD1810011+9999REMSYN070AAXX  17061 22422 32476 80903 10118 20103 40077 58001 885// 333 88616;EQDQ01  00002PRCP99
0194224220999992000081712004+65890+034760FM-12+001099999V0201001N003010036019N0290001N1+01261+01031100771ADDAY101061AY201061GA1071+003609099GF107991999999004501999999MA1999999100631MD1410001+9999REMSYN076AAXX  17121 22422 42479 71003 10126 20103 30063 40077 54000 77900 333 87912;EQDQ01+000792PRSWM1
0159224220999992000081812004+65890+034760FM-12+001099999V0201001N002010045019N0280001N1+01121+00851100961ADDGA1071+004509059GF107991071051004501001001MA1999999100821MD1210071+9999REMSYN076AAXX  18121 22422 42478 71002 10112 20085 30082 40096 52007 87500 333 87615;
0168224220999992000081906004+65890+034760FM-12+001099999V0202101N004010300019N0300001N1+01241+00681100951ADDAA199000091GA1041+004209029GF106991041011004501031001MD1810021+9999REMSYN070AAXX  19061 22422 32480 62104 10124 20068 40095 58002 84130 333 84814;EQDQ01  00002PRCP99
0133224220999992000081912004+65890+034760FM-12+001099999V0201701N004012200019N0300001N1+01481+00761101011ADDGF103991011011004501031011MA1999999100871MD1210041+9999REMSYN066AAXX  19121 22422 42480 31704 10148 20076 30087 40101 52004 81131;
0133224220999992000082012004+65890+034760FM-12+001099999V0200901N003010300019N0280001N1+01321+00931100971ADDGF105991021051004501031001MA1999999100831MD1310111+9999REMSYN066AAXX  20121 22422 42478 50903 10132 20093 30083 40097 53011 82530;
0133224220999992000082112004+65890+034760FM-12+001099999V0200901N003012200019N0300001N1+01411+01061101221ADDGF102991021011004501001001MA1999999101081MD1110011+9999REMSYN066AAXX  21121 22422 42480 20903 10141 20106 30108 40122 51001 82100;
0133224220999992000082200004+65890+034760FM-12+001099999V0203101N002012200019N0500001N1+00591+00521101091ADDGF102991001001999999001011MA1999999101001MD1710051+9999REMSYN066AAXX  22001 22422 42984 23102 10059 20052 30100 40109 57005 80001;
0133224220999992000082212004+65890+034760FM-12+001099999V0200901N002010042019N0300001N1+01421+01141101081ADDGF105991051091004501031001MA1999999100941MD1810021+9999REMSYN066AAXX  22121 22422 42480 50902 10142 20114 30094 40108 58002 85930;
0142224220999992000082306004+65890+034760FM-12+001099999V0201401N003012200019N0300001N1+01521+01301100671ADDAA199000091GF105991031001022501031011MD1710081+9999REMSYN060AAXX  23061 22422 32880 51403 10152 20130 40067 57008 83031;EQDQ01  00002PRCP99
0152224220999992000082312004+65890+034760FM-12+001099999V0201001N003019999999N0300001N1+01581+01181100651ADDGF106991001001999999001011MA1999999100511MD1810031+9999REMSYN066AAXX  23121 22422 42980 61003 10158 20118 30051 40065 58003 87001;EQDQ01+000072SCOTLC
0142224220999992000082406004+65890+034760FM-12+001099999V0201601N001012200019N0300001N1+01451+01231100531ADDAA199000091GF104991031011004501031001MD1410001+9999REMSYN060AAXX  24061 22422 32480 41601 10145 20123 40053 54000 83130;EQDQ01  00002PRCP99
0152224220999992000082412004+65890+034760FM-12+001099999V0201501N004012200019N0300001N1+01601+01241100551ADDGF103991999091004501001001MA1999999100411MD1810021+9999REMSYN066AAXX  24121 22422 42480 31504 10160 20124 30041 40055 58002 82900;EQDQ01+000022SCOTLC
0133224220999992000082512004+65890+034760FM-12+001099999V0201401N004012200019N0300001N1+01521+01031101111ADDGF102991021011004501001001MA1999999100971MD1210201+9999REMSYN066AAXX  25121 22422 42480 21404 10152 20103 30097 40111 52020 82100;
0142224220999992000082606004+65890+034760FM-12+001099999V0202301N001010750019N0220001N1+01181+00851101671ADDAA199000091GF107991041051004501001051MD1210061+9999REMSYN060AAXX  26061 22422 32472 72301 10118 20085 40167 52006 84505;EQDQ01  00002PRCP99
0133224220999992000082612004+65890+034760FM-12+001099999V0202201N003010300019N0300001N1+01921+01301101681ADDGF105991031091004501031001MA1999999101541MD1810041+9999REMSYN066AAXX  26121 22422 42480 52203 10192 20130 30154 40168 58004 83930;
0142224220999992000082706004+65890+034760FM-12+001099999V0202701N003010300019N0300001N1+01521+01151101681ADDAA199000091GF106991031051004501031011MD1810031+9999REMSYN060AAXX  27061 22422 32480 62703 10152 20115 40168 58003 83531;EQDQ01  00002PRCP99
0133224220999992000082712004+65890+034760FM-12+001099999V0202801N003010300019N0280001N1+02151+01121101761ADDGF107991021011004501031011MA1999999101621MD1410001+9999REMSYN066AAXX  27121 22422 42478 72803 10215 20112 30162 40176 54000 82131;
0142224220999992000082806004+65890+034760FM-12+001099999V0202801N006012200019N0300001N1+01661+01321101791ADDAA199000091GF106991031001022501031011MD1610021+9999REMSYN060AAXX  28061 22422 32880 62806 10166 20132 40179 56002 83031;EQDQ01  00002PRCP99
0152224220999992000082906004+65890+034760FM-12+001099999V0202701N003012200019N0300001N1+01541+01061101871ADDAA199000091GA1001+999999999GF100991001001999999001001MD1410001+9999REMSYN054AAXX  29061 22422 32980 02703 10154 20106 40187 54000;EQDQ01  00002PRCP99
0133224220999992000082912004+65890+034760FM-12+001099999V0202801N004012200019N0300001N1+02131+01271101791ADDGF102991021011004501001001MA1999999101651MD1710061+9999REMSYN066AAXX  29121 22422 42480 22804 10213 20127 30165 40179 57006 82100;
0159224220999992000083012004+65890+034760FM-12+001099999V0200201N003010042019N0300001N1+01561+01311101701ADDGA1061+004209099GF106991061091004501001001MA1999999101561MD1210101+9999REMSYN076AAXX  30121 22422 42480 60203 10156 20131 30156 40170 52010 86900 333 86914;
0140224220999992000083106004+65890+034760FM-12+001099999V0201801N002019999999N0060001N1+01421+01361101551ADDAY141061AY221061GF108991001001999999001011MD1710041+9999MW1101REMSYN066AAXX  31061 22422 21956 81802 10142 20136 40155 57004 71042 80001;
0159224220999992000083112004+65890+034760FM-12+001099999V0201801N002010045019N0160001N1+01981+01231101331ADDGA1061+004509099GF107991061091004501031001MA1999999101191MD1710141+9999REMSYN076AAXX  31121 22422 42466 71802 10198 20123 30119 40133 57014 86930 333 86915;
0133224220999992000090112004+65890+034760FM-12+001099999V0201701N003012200019N0180001N1+01791+01441100581ADDGF106991031001022501031011MA1999999100441MD1710121+9999REMSYN066AAXX  01121 22422 42868 61703 10179 20144 30044 40058 57012 83031;
0166224220999992000090206004+65890+034760FM-12+001099999V0203201N002010036019N0070001N1+01381+01341099791ADDAY181061AY221061GA1081+003609099GF108991081091004501999999MD1710031+9999MW1801REMSYN076AAXX  02061 22422 11457 83202 10138 20134 49979 57003 78082 889// 333 88912;
0159224220999992000090212004+65890+034760FM-12+001099999V0203401N007010039019N0220001N1+01231+01051099971ADDGA1071+003909099GF107991071091004501001001MA1999999099831MD1210151+9999REMSYN076AAXX  02121 22422 42472 73407 10123 20105 39983 49997 52015 87900 333 87913;
0142224220999992000090306004+65890+034760FM-12+001099999V0202301N002012200019N0300001N1+01061+00901100341ADDAA199000091GF102991011051004501001011MD1210081+9999REMSYN060AAXX  03061 22422 32480 22302 10106 20090 40034 52008 81501;EQDQ01  00002PRCP99
0189224220999992000090312004+65890+034760FM-12+001099999V0202401N004010300019N0300001N1+01601+01021100491ADDAA199000091GA1041+003909099GF107991041091004501031051MA1999999100351MD1210111+9999REMSYN076AAXX  03121 22422 32480 72404 10160 20102 30035 40049 52011 84935 333 84913;EQDQ01  00002PRCP99
0112224220999992000090406004+65890+034760FM-12+001099999V0202701N001010300019N0190001N1+01021+00881100591ADDGF106991021091004501031011MD1810011+9999REMSYN060AAXX  04061 22422 12469 62701 10102 20088 40059 58001 82931;
0133224220999992000090412004+65890+034760FM-12+001099999V0203601N004010300019N0180001N1+01171+00801100671ADDGF105991021051004501031001MA1999999100531MD1210071+9999REMSYN066AAXX  04121 22422 42468 53604 10117 20080 30053 40067 52007 82530;
0138224220999992000090506004+65890+034760FM-12+001099999V0200301N010010036019N0150001N1+00961+00651100791ADDGA1061+003609099GF106991061091004501001001MD1810021+9999REMSYN070AAXX  05061 22422 11465 60310 10096 20065 40079 58002 86900 333 86912;
0159224220999992000090512004+65890+034760FM-12+001099999V0203601N011010048019N0190001N1+01071+00761100881ADDGA1061+004809099GF106991061091004501001001MA1999999100731MD1210071+9999REMSYN076AAXX  05121 22422 42469 63611 10107 20076 30073 40088 52007 86900 333 86916;
0112224220999992000090806004+65890+034760FM-12+001099999V0209999C000012200019N0300001N1+00941+00451101761ADDGF102991021001022501001011MD1810081+9999REMSYN060AAXX  08061 22422 42880 20000 10094 20045 40176 58008 82001;
0133224220999992000090812004+65890+034760FM-12+001099999V0201801N006010750019N0300001N1+01111+00511101751ADDGF105991021091004501031011MA1999999101601MD1810181+9999REMSYN066AAXX  08121 22422 42480 51806 10111 20051 30160 40175 58018 82931;
0166224220999992000090906004+65890+034760FM-12+001099999V0202301N007010033019N0060001N1+00881+00841100401ADDAY181061AY221061GA1081+003309099GF108991081091004501999999MD1710181+9999MW1801REMSYN076AAXX  09061 22422 11456 82307 10088 20084 40040 57018 78082 889// 333 88911;
0159224220999992000090912004+65890+034760FM-12+001099999V0201901N005010036019N0120001N1+01081+01001100151ADDGA1081+003609099GF108991081091004501999999MA1999999100001MD1710111+9999REMSYN076AAXX  09121 22422 42462 81905 10108 20100 30000 40015 57011 889// 333 88912;
0142224220999992000091006004+65890+034760FM-12+001099999V0202701N002012200019N0260001N1+00921+00801099951ADDAA199000091GF103991031001022501031011MD1610011+9999REMSYN060AAXX  10061 22422 32876 32702 10092 20080 49995 56001 83031;EQDQ01  00002PRCP99
0178224220999992000091012004+65890+034760FM-12+001099999V0202301N003012200019N0030001N1+01481+01111099921ADDGA1051+003609029GF199999051011004501001011MA1999999099781MD1310051+9999REMSYN076AAXX  10121 22422 42430 12303 10148 20111 39978 49992 53005 85101 333 85812;EQDQ01+000012SCOTCV
0159224220999992000091212004+65890+034760FM-12+001099999V0200201N009010033019N0210001N1+01011+00701100611ADDGA1051+003309099GF106991051091004501031001MA1999999100461MD1210061+9999REMSYN076AAXX  12121 22422 42471 60209 10101 20070 30046 40061 52006 85930 333 85911;
0206224220999992000091312004+65890+034760FM-12+001099999V0200401N056020039019N0110001N1+00861+00551101541ADDAY181061AY221061GA1051+003909099GF107991051091004501031001MA1999999101391MD1210121+9999MW1801REMSYN082AAXX  13121 22422 41461 70456 10086 20055 30139 40154 52012 78082 85930 333 85913;EQDQ01+005603WOSPD 
0159224220999992000091412004+65890+034760FM-12+001099999V0200401N009010036019N0140001N1+00831+00291102011ADDGA1071+003609099GF107991071091004501001001MA1999999101861MD1810011+9999REMSYN076AAXX  14121 22422 42464 70409 10083 20029 30186 40201 58001 87900 333 87912;
0184224220999992000091506004+65890+034760FM-12+001099999V0200501N010010039019N0180001N1+00621+00061102351ADDAA199000091GA1071+003909099GF199999071091004501001001MD1210111+9999REMSYN070AAXX  15061 22422 32468 50510 10062 20006 40235 52011 87900 333 87913;EQDQ01+000052SCOTCVQ02  00002PRCP99
0142224220999992000091906004+65890+034760FM-12+001099999V0202701N004010300019N0230001N1+00931+00611101451ADDAA199000091GF105991031051004501031001MD1110021+9999REMSYN060AAXX  19061 22422 32473 52704 10093 20061 40145 51002 83530;EQDQ01  00002PRCP99
0178224220999992000091912004+65890+034760FM-12+001099999V0202001N004010045019N0270001N1+01281+00651101491ADDGA1061+004509059GF199999061051004501031001MA1999999101341MD1110021+9999REMSYN076AAXX  19121 22422 42477 52004 10128 20065 30134 40149 51002 86530 333 86615;EQDQ01+000052SCOTCV
0133224220999992000092012004+65890+034760FM-12+001099999V0200201N008012200019N0280001N1+00771-00091102801ADDGF104991041091004501001001MA1999999102651MD1210131+9999REMSYN066AAXX  20121 22422 42478 40208 10077 21009 30265 40280 52013 84900;
0168224220999992000092106004+65890+034760FM-12+001099999V0202501N002010042019N0150001N1+00221+00001102851ADDAA199000091GA1061+004209059GF107991061051004501011001MD1710111+9999REMSYN070AAXX  21061 22422 32465 72502 10022 20000 40285 57011 86510 333 86614;EQDQ01  00002PRCP99
0159224220999992000092112004+65890+034760FM-12+001099999V0202501N002010048019N0140001N1+00861+00301102651ADDGA1081+004809059GF108991081051004501999999MA1999999102501MD1710151+9999REMSYN076AAXX  21121 22422 42464 82502 10086 20030 30250 40265 57015 885// 333 88616;
0168224220999992000092206004+65890+034760FM-12+001099999V0202801N001010048019N0200001N1+00691+00581102761ADDAA199000091GA1061+004809059GF106991061051004501001001MD1210051+9999REMSYN070AAXX  22061 22422 32470 62801 10069 20058 40276 52005 86500 333 86616;EQDQ01  00002PRCP99
0133224220999992000092212004+65890+034760FM-12+001099999V0203301N001012200019N0300001N1+01441+00761102891ADDGF105991021051004501001011MA1999999102741MD1310021+9999REMSYN066AAXX  22121 22422 42480 53301 10144 20076 30274 40289 53002 82501;
0133224220999992000092312004+65890+034760FM-12+001099999V0202801N004012200019N0260001N1+01391+00361102861ADDGF102991001001999999001011MA1999999102711MD1710071+9999REMSYN066AAXX  23121 22422 41976 22804 10139 20036 30271 40286 57007 80001;
0133224220999992000092412004+65890+034760FM-12+001099999V0202701N007010210019N0220001N1+01251+00591102291ADDGF108991081001022501071999MA1999999102141MD1710111+9999REMSYN066AAXX  24121 22422 42872 82707 10125 20059 30214 40229 57011 8807/;
0138224220999992000092506004+65890+034760FM-12+001099999V0203601N010010042019N0210001N1+00901+00271101511ADDGA1051+004209059GF105991051051004501001001MD1310061+9999REMSYN070AAXX  25061 22422 12471 53610 10090 20027 40151 53006 85500 333 85614;
0142224220999992000092606004+65890+034760FM-12+001099999V0203201N010010300019N0200001N1+00301-00081102481ADDAA199000091GF107991031091004501031011MD1210091+9999REMSYN060AAXX  26061 22422 32470 73210 10030 21008 40248 52009 83931;EQDQ01  00002PRCP99
0187224220999992000092912004+65890+034760FM-12+001099999V0202701N002010036019N0041001N1+00841+00781101371ADDAY181061AY221061GA1081+003609099GF108991081091004501999999MA1999999101221MD1610021+9999MW1801REMSYN082AAXX  29121 22422 41441 82702 10084 20078 30122 40137 56002 78082 889// 333 88912;
0159224220999992000093012004+65890+034760FM-12+001099999V0202801N003010039019N0250001N1+01271+00931101541ADDGA1061+003909099GF106991061091004501001001MA1999999101401MD1210181+9999REMSYN076AAXX  30121 22422 42475 62803 10127 20093 30140 40154 52018 86900 333 86913;
0140224220999992000100206004+65890+034760FM-12+001099999V0202301N001012200019N0050001N1+00741+00671101811ADDAY111061AY211061GF102991011001022501031011MD1610021+9999MW1101REMSYN066AAXX  02061 22422 11850 22301 10074 20067 40181 56002 71011 81031;
0142224220999992000100306004+65890+034760FM-12+001099999V0209999C000010300019N0130001N1+00861+00731101811ADDAA199000091GF107991031091004501031001MD1810021+9999REMSYN060AAXX  03061 22422 32463 70000 10086 20073 40181 58002 83930;EQDQ01  00002PRCP99
0187224220999992000100312004+65890+034760FM-12+001099999V0201301N002010039019N0070001N1+00961+00841101831ADDAY181061AY221061GA1051+003909099GF107991051091004501031001MA1999999101681MD1310031+9999MW1801REMSYN082AAXX  03121 22422 41457 71302 10096 20084 30168 40183 53003 78082 85930 333 85913;
0164224220999992000100406004+65890+034760FM-12+001099999V0201101N003019999999N0003001N1+00821+00821101961ADDAA199000091AY141061AY221061GF108991999999999999999999MD1210051+9999MW1451REMSYN060AAXX  04061 22422 31/03 81103 10082 20082 40196 52005 74542;EQDQ01  00002PRCP99
0164224220999992000100506004+65890+034760FM-12+001099999V0209999C000019999999N0002001N1+00861+00861102141ADDAA199000091AY141061AY241061GF108991999999999999999999MD1610011+9999MW1451REMSYN060AAXX  05061 22422 31/02 80000 10086 20086 40214 56001 74544;EQDQ01  00002PRCP99
0167224220999992000100512004+65890+034760FM-12+001099999V0201001N001010045019N0023001N1+01001+00971102211ADDAY141061AY221061GA1071+004509059GF107991071051004501001001MA1999999102061MW1101REMSYN076AAXX  05121 22422 41423 71001 10100 20097 30206 40221 71042 87500 333 87615;
0196224220999992000100606004+65890+034760FM-12+001099999V0201301N002010039019N0017001N1+01021+00951102331ADDAA199000091AY141061AY221061GA1061+003909059GF106991061051004501001001MD1210031+9999MW1101REMSYN076AAXX  06061 22422 31417 61302 10102 20095 40233 52003 71042 86500 333 86613;EQDQ01  00002PRCP99
0194224220999992000100612004+65890+034760FM-12+001099999V0202101N002010045019N0210001N1+01371+00821102621ADDAY131061AY201061GA1071+004509059GF107991999999004501999999MA1999999102471MD1210161+9999REMSYN076AAXX  06121 22422 42471 72102 10137 20082 30247 40262 52016 77530 333 87615;EQDQ01+000752PRSWM1
0187224220999992000100712004+65890+034760FM-12+001099999V0202701N002010042019N0070001N1+01151+01071103041ADDAY181061AY221061GA1061+004209099GF106991061091004501031001MA1999999102891MD1210151+9999MW1101REMSYN082AAXX  07121 22422 41457 62702 10115 20107 30289 40304 52015 71082 86930 333 86914;
0166224220999992000100806004+65890+034760FM-12+001099999V0202401N001010039019N0034001N1+00921+00881103221ADDAY181061AY221061GA1071+003909059GF107991071051004501001001MD1410001+9999MW1101REMSYN076AAXX  08061 22422 11434 72401 10092 20088 40322 54000 71082 87500 333 87613;
0166224220999992000100906004+65890+034760FM-12+001099999V0202001N002010051019N0040001N1+00971+00861102741ADDAY121061AY221061GA1051+005109059GF106991051051004501031001MD1710041+9999MW1101REMSYN076AAXX  09061 22422 42440 62002 10097 20086 40274 57004 71022 85530 333 85617;
0159224220999992000100912004+65890+034760FM-12+001099999V0201901N002010048019N0200001N1+01251+00981102721ADDGA1071+004809059GF108991071051004501001001MA1999999102571MD1810021+9999REMSYN076AAXX  09121 22422 42470 81902 10125 20098 30257 40272 58002 87500 333 87616;
0180224220999992000101006004+65890+034760FM-12+001099999V0202401N003010003019N0003001N1+00761+00711102931ADDAA199000091AY141061AY221061GA1091+999999999GF109991091999999999999999MD1310061+9999MW1471REMSYN060AAXX  10061 22422 31/03 92403 10076 20071 40293 53006 74742;EQDQ01  00002PRCP99
0171224220999992000101012004+65890+034760FM-12+001099999V0201901N002010003019N0004001N1+00581+00581102971ADDAY141061AY221061GA1091+999999999GF109991091999999999999999MA1999999102821MD1810011+9999MW1451REMSYN066AAXX  10121 22422 41/04 91902 10058 20058 30282 40297 58001 74542;
0133224220999992000101112004+65890+034760FM-12+001099999V0202301N005010210019N0170001N1+00941+00641102901ADDGF106991061001022501031001MA1999999102751MD1210051+9999REMSYN066AAXX  11121 22422 42867 62305 10094 20064 30275 40290 52005 86030;
0142224220999992000101206004+65890+034760FM-12+001099999V0201801N001010300019N0160001N1+00541+00401103061ADDAA199000091GF105991021051004501031001MD1210041+9999REMSYN060AAXX  12061 22422 32466 51801 10054 20040 40306 52004 82530;EQDQ01  00002PRCP99
0168224220999992000101306004+65890+034760FM-12+001099999V0201901N005010051019N0180001N1+00601+00411102451ADDAA199000091GA1061+005109059GF106991061051004501001001MD1710101+9999REMSYN070AAXX  13061 22422 32468 61905 10060 20041 40245 57010 86500 333 86617;EQDQ01  00002PRCP99
0187224220999992000101312004+65890+034760FM-12+001099999V0201901N005010042019N0080001N1+00671+00461102051ADDAY181061AY221061GA1071+004209099GF107991071091004501001001MA1999999101901MD1710181+9999MW1801REMSYN082AAXX  13121 22422 41458 71905 10067 20046 30190 40205 57018 78082 87900 333 87914;
0166224220999992000101406004+65890+034760FM-12+001099999V0201901N002010045019N0027001N1+00671+00661101111ADDAY121061AY221061GA1081+004509059GF108991081051004501001001MD1710201+9999MW1101REMSYN076AAXX  14061 22422 11427 81902 10067 20066 40111 57020 71022 88500 333 88615;
0149224220999992000101412004+65890+034760FM-12+001099999V0201801N001019999999N0060001N1+00761+00741100791ADDGF108991011001004501081021MA1999999100641MD1710131+9999REMSYN082AAXX  14121 22422 41456 81801 10076 20074 30064 40079 57013 81082 889// 333 88912;
0143224220999992000101512004+65890+034760FM-12+001099999V0202701N001012200019N0270001N1+00961+00501101701ADDGA1001+999999999GF100991001001999999001001MA1999999101551MD1210161+9999REMSYN060AAXX  15121 22422 42977 02701 10096 20050 30155 40170 52016;
0168224220999992000101606004+65890+034760FM-12+001099999V0202701N001010033019N0170001N1+00361+00341102121ADDAA199000091GA1051+003309059GF107991051051004501031001MD1110021+9999REMSYN070AAXX  16061 22422 32467 72701 10036 20034 40212 51002 85530 333 85611;EQDQ01  00002PRCP99
0159224220999992000101612004+65890+034760FM-12+001099999V0202901N001010042019N0170001N1+00801+00581102471ADDGA1071+004209059GF107991071051004501001001MA1999999102321MD1210171+9999REMSYN076AAXX  16121 22422 42467 72901 10080 20058 30232 40247 52017 87500 333 87614;
0168224220999992000101806004+65890+034760FM-12+001099999V0201901N002010048019N0190001N1+00671+00391102421ADDAA199000091GA1071+004809059GF107991071051004501001001MD1410001+9999REMSYN070AAXX  18061 22422 32469 71902 10067 20039 40242 54000 87500 333 87616;EQDQ01  00002PRCP99
0196224220999992000101906004+65890+034760FM-12+001099999V0202201N002010036019N0070001N1+00761+00671102461ADDAA199000091AY121061AY221061GA1071+003609059GF107991071051004501001001MD1610011+9999MW1101REMSYN076AAXX  19061 22422 32457 72202 10076 20067 40246 56001 71022 87500 333 87612;EQDQ01  00002PRCP99
0139224220999992000101912004+65890+034760FM-12+001099999V0202701N004010042019N0150001N1+00911+00671102321ADDGF106991061051004501001001MA1999999102171MD1710111+9999REMSYN072AAXX  19121 22422 42465 62704 10091 20067 30217 40232 57011 86500 86616;
0168224220999992000102206004+65890+034760FM-12+001099999V0201901N002010048019N0200001N1+00561+00441101661ADDAA199000091GA1061+004809059GF107991061051004501031001MD1710091+9999REMSYN070AAXX  22061 22422 32470 71902 10056 20044 40166 57009 86530 333 86616;EQDQ01  00002PRCP99
0171224220999992000102606004+65890+034760FM-12+001099999V0201801N001010048019N0180001N1+00451+00331098491ADDAA199000021AY101061AY201061GA1071+004809059GF107991999999004501999999MD1210041+9999MW1751REMSYN070AAXX  26061 22422 31468 71801 10045 20033 49849 52004 77500 333 87616;
0159224220999992000102612004+65890+034760FM-12+001099999V0202001N002010051019N0190001N1+00481+00381098771ADDGA1061+005109059GF107991061051004501031001MA1999999098621MD1210091+9999REMSYN076AAXX  26121 22422 42469 72002 10048 20038 39862 49877 52009 86530 333 86617;
0177224220999992000102706004+65890+034760FM-12+001099999V0200401N005010030019N0060001N1+00361+00291099091ADDAA199000021AY161061AY221061GA1071+003009029GF107991071071004501021001MD1810191+9999MW1611REMSYN076AAXX  27061 22422 31456 70405 10036 20029 49909 58019 76162 87720 333 87510;
0159224220999992000110312004+65890+034760FM-12+001099999V0202101N003010036019N0140001N1+00011-00021100931ADDGA1071+003609099GF107991071091004501021001MA1999999100781MD1310041+9999REMSYN076AAXX  03121 22422 42464 72103 10001 21002 30078 40093 53004 87920 333 87912;
0168224220999992000110406004+65890+034760FM-12+001099999V0201901N002010045019N0200001N1-00181-00201102151ADDAA199000091GA1081+004509059GF108991081051004501999999MD1210151+9999REMSYN070AAXX  04061 22422 32470 81902 11018 21020 40215 52015 885// 333 88615;EQDQ01  00002PRCP99
0159224220999992000110412004+65890+034760FM-12+001099999V0201801N002010048019N0220001N1+00111+00081102261ADDGA1081+004809059GF108991081051004501999999MA1999999102111MD1110011+9999REMSYN076AAXX  04121 22422 42472 81802 10011 20008 30211 40226 51001 885// 333 88616;
0168224220999992000110506004+65890+034760FM-12+001099999V0201801N008010036019N0160001N1+00541+00451101511ADDAA199000091GA1081+003609099GF108991081091004501999999MD1710151+9999REMSYN070AAXX  05061 22422 32466 81808 10054 20045 40151 57015 889// 333 88912;EQDQ01  00002PRCP99
0168224220999992000110706004+65890+034760FM-12+001099999V0202201N004010036019N0170001N1+00401+00141101231ADDAA199000091GA1071+003609099GF107991071091004501001001MD1210141+9999REMSYN070AAXX  07061 22422 32467 72204 10040 20014 40123 52014 87900 333 87912;EQDQ01  00002PRCP99
0159224220999992000110712004+65890+034760FM-12+001099999V0202401N004010042019N0180001N1+00551+00201101581ADDGA1051+004209099GF106991051091004501011001MA1999999101431MD1210031+9999REMSYN076AAXX  07121 22422 42468 62404 10055 20020 30143 40158 52003 85910 333 85914;
0180224220999992000110806004+65890+034760FM-12+001099999V0201901N002019999999N9999999N1+00021+00021102251ADDAA199000091AY141061AY221061GA1091+999999999GF109991091999999999999999MD1810021+9999MW1471REMSYN060AAXX  08061 22422 319/5 91902 10002 20002 40225 58002 74742;EQDQ01  00002PRCP99
0133224220999992000110812004+65890+034760FM-12+001099999V0201801N003019999999N0180001N1+00391+00371102001ADDGF108991081001999999071999MA1999999101851MD1710201+9999REMSYN066AAXX  08121 22422 42968 81803 10039 20037 30185 40200 57020 8807/;
0127224220999992000110906004+65890+034760FM-12+001099999V0202201N005019999999N0160001N1+00271+00191101231ADDAA124079091GF108991999999004501999999MD1710081+9999REMSYN064AAXX  09061 22422 32466 82205 10027 20019 40123 57008 333 78912;
0178224220999992000110912004+65890+034760FM-12+001099999V0202101N005010036019N0140001N1+00351+00221101271ADDGA1081+003609099GF108991999091004501999999MA1999999101121MD1110021+9999REMSYN076AAXX  09121 22422 42464 82105 10035 20022 30112 40127 51002 899// 333 88912;EQDQ01+000092SCOTLC
0168224220999992000111006004+65890+034760FM-12+001099999V0202201N002010042019N0070001N1+00261+00211101531ADDAA199000091GA1081+004209099GF108991081091004501999999MD1210041+9999REMSYN070AAXX  10061 22422 32457 82202 10026 20021 40153 52004 889// 333 88914;EQDQ01  00002PRCP99
0159224220999992000111012004+65890+034760FM-12+001099999V0201801N001010042019N0180001N1+00241+00141101661ADDGA1081+004209099GF108991081091001501999999MA1999999101511MD1210071+9999REMSYN076AAXX  10121 22422 42268 81801 10024 20014 30151 40166 52007 889// 333 88914;
0166224220999992000111106004+65890+034760FM-12+001099999V0201701N002010036019N0100001N1+00181+00131101431ADDAY181061AY221061GA1081+003609099GF108991081091004501999999MD1710091+9999MW1801REMSYN076AAXX  11061 22422 11460 81702 10018 20013 40143 57009 78082 889// 333 88912;
0138224220999992000111206004+65890+034760FM-12+001099999V0201601N001010036019N0160001N1+00001+00001101291ADDGA1061+003609099GF106991061091004501001001MD1310041+9999REMSYN070AAXX  12061 22422 12466 61601 10000 20000 40129 53004 86900 333 86912;
0184224220999992000111412004+65890+034760FM-12+001099999V0201801N008010042019N0080001N1+00191+00061101711ADDGA1081+004209099GF199999999999004501999999MA1999999101561MD1710051+9999MW1891REMSYN076AAXX  14121 22422 41458 51808 10019 20006 30156 40171 57005 789// 333 88914;EQDQ01+000052SCOTCV
0166224220999992000111506004+65890+034760FM-12+001099999V0201101N007010036019N0050001N1+00021+00021100831ADDAY181061AY221061GA1081+003609099GF108991081091004501999999MD1710061+9999MW1851REMSYN076AAXX  15061 22422 11450 81107 10002 20002 40083 57006 78582 889// 333 88912;
0187224220999992000111612004+65890+034760FM-12+001099999V0203601N007010042019N0045001N1+00021+00021100621ADDAY181061AY221061GA1071+004209099GF107991071091004501001001MA1999999100471MD1210151+9999MW1851REMSYN082AAXX  16121 22422 41445 73607 10002 20002 30047 40062 52015 78582 87900 333 87914;
0168224220999992000111706004+65890+034760FM-12+001099999V0203601N007010042019N0140001N1+00181-00101101501ADDAA199000091GA1061+004209099GF106991061091004501001001MD1210161+9999REMSYN070AAXX  17061 22422 32464 63607 10018 21010 40150 52016 86900 333 86914;EQDQ01  00002PRCP99
0168224220999992000111806004+65890+034760FM-12+001099999V0202801N005010039019N0140001N1-00261-00261102041ADDAA199000091GA1071+003909099GF107991071091004501001001MD1210031+9999REMSYN070AAXX  18061 22422 32464 72805 11026 21026 40204 52003 87900 333 87913;EQDQ01  00002PRCP99
0159224220999992000111912004+65890+034760FM-12+001099999V0200701N007010048019N0160001N1-00161-00461101981ADDGA1051+004809059GF106991051051004501031001MA1999999101831MD1610021+9999REMSYN076AAXX  19121 22422 42466 60707 11016 21046 30183 40198 56002 85530 333 85616;
0166224220999992000112106004+65890+034760FM-12+001099999V0200801N004010042019N0060001N1-00151-00171103741ADDAY181061AY221061GA1071+004209099GF107991071091004501001001MD1410001+9999MW1851REMSYN076AAXX  21061 22422 11456 70804 11015 21017 40374 54000 78582 87900 333 87914;
0142224220999992000112206004+65890+034760FM-12+001099999V0201901N002012200019N0190001N1-01321-01671103731ADDAA199000091GF103991021051004501031001MD1810071+9999REMSYN060AAXX  22061 22422 32469 31902 11132 21167 40373 58007 82530;EQDQ01  00002PRCP99
0168224220999992000112306004+65890+034760FM-12+001099999V0201801N004010045019N0140001N1-01151-01391103011ADDAA199000091GA1081+004509059GF108991081051004501999999MD1710071+9999REMSYN070AAXX  23061 22422 32464 81804 11115 21139 40301 57007 885// 333 88615;EQDQ01  00002PRCP99
0159224220999992000112312004+65890+034760FM-12+001099999V0202001N004010033019N0170001N1-00631-00861102721ADDGA1081+003309099GF108991081091004501999999MA1999999102561MD1710031+9999REMSYN076AAXX  23121 22422 42467 82004 11063 21086 30256 40272 57003 889// 333 88911;
0159224220999992000112712004+65890+034760FM-12+001099999V0202701N001010033019N0150001N1-00031-00121101801ADDGA1081+003309099GF108991081091004501999999MA1999999101651MD1210141+9999REMSYN076AAXX  27121 22422 42465 82701 11003 21012 30165 40180 52014 889// 333 88911;
0138224220999992000112806004+65890+034760FM-12+001099999V0209999C000010069019N0140001N1+00041-00021101881ADDGA1081+006909059GF108991081051004501999999MD1410001+9999REMSYN070AAXX  28061 22422 12464 80000 10004 21002 40188 54000 885// 333 88623;
0168224220999992000120506004+65890+034760FM-12+001099999V0202201N001010063019N0140001N1-00461-00551101831ADDAA199000091GA1081+006309059GF108991081051004501999999MD1310041+9999REMSYN070AAXX  05061 22422 32464 82201 11046 21055 40183 53004 885// 333 88621;EQDQ01  00002PRCP99
0168224220999992000120706004+65890+034760FM-12+001099999V0201901N003010063019N0180001N1+00521+00451099871ADDAA199000091GA1061+006309059GF108991061051004501021001MD1710081+9999REMSYN070AAXX  07061 22422 32468 81903 10052 20045 49987 57008 86520 333 86621;EQDQ01  00002PRCP99
0166224220999992000120806004+65890+034760FM-12+001099999V0201401N002010045019N0041001N1+00221+00191100371ADDAY181061AY221061GA1081+004509099GF108991081091004501999999MD1710161+9999MW1801REMSYN076AAXX  08061 22422 11441 81402 10022 20019 40037 57016 78082 889// 333 88915;
0166224220999992000120906004+65890+034760FM-12+001099999V0200601N002010048019N0045001N1-00021-00081100711ADDAY171061AY271061GA1081+004809059GF108991081051004501999999MD1210121+9999MW1711REMSYN076AAXX  09061 22422 11445 80602 11002 21008 40071 52012 77177 885// 333 88616;
0161224220999992000121112004+65890+034760FM-12+001099999V0202301N002010210019N0014001N1+00081+00031100041ADDAY161061AY221061GF108991081001022501021999MA1999999099891MD1310021+9999MW1101REMSYN072AAXX  11121 22422 41814 82302 10008 20003 39989 40004 53002 71062 8802/;
0168224220999992000121306004+65890+034760FM-12+001099999V0202001N002010033019N0140001N1+00231+00151100441ADDAA199000091GA1081+003309099GF108991081091004501999999MD1210031+9999REMSYN070AAXX  13061 22422 32464 82002 10023 20015 40044 52003 889// 333 88911;EQDQ01  00002PRCP99
0140224220999992000121406004+65890+034760FM-12+001099999V0202201N001010210019N0031001N1+00031+00001100181ADDAY161061AY221061GF108991081001022501021999MD1710081+9999MW1681REMSYN066AAXX  14061 22422 11831 82201 10003 20000 40018 57008 76862 8802/;
0142224220999992000121906004+65890+034760FM-12+001099999V0202801N003010210019N0150001N1-00701-00831101581ADDAA199000091GF108991051001022501031031MD1710031+9999REMSYN060AAXX  19061 22422 32865 82803 11070 21083 40158 57003 85033;EQDQ01  00002PRCP99
0163224220999992000122012004+65890+034760FM-12+001099999V0203201N006010051019N0150001N1-00281-00481101991ADDGA1071+005109059GF107991071051004501001001MD1210091+9999REMSYN076AAXX  20121 22422 42465 73206 11028 21048 31084 40199 52009 87500 333 87617;EQDQ01+010841APOSP 
0142224220999992000122106004+65890+034760FM-12+001099999V0203401N005010300019N0160001N1-00421-00551102621ADDAA199000091GF105991021051004501031001MD1210071+9999REMSYN060AAXX  21061 22422 32466 53405 11042 21055 40262 52007 82530;EQDQ01  00002PRCP99
0187224220999992000122212004+65890+034760FM-12+001099999V0201901N003010042019N0049001N1-00481-00611101051ADDAY171061AY271061GA1061+004209099GF107991061091004501001001MA1999999100901MD1710211+9999MW1711REMSYN082AAXX  22121 22422 41449 71903 11048 21061 30090 40105 57021 77177 86900 333 86914;
0138224220999992000122306004+65890+034760FM-12+001099999V0201201N003010057019N0170001N1-00621-00811100391ADDGA1061+005709059GF107991061051004501031001MD1710051+9999REMSYN070AAXX  23061 22422 12467 71203 11062 21081 40039 57005 86530 333 86619;
0179224220999992000122406004+65890+034760FM-12+001099999V0202101N002010036019N0048001N1-01051-01231100631ADDAY181061AY221061GA1081+003609099GF108991081091004501999999MD1810011+9999REMSYN076AAXX  24061 22422 11448 82102 11105 21123 40063 58001 78082 889// 333 88912;EQDQ01+000802PRSWM1
0187224220999992000122412004+65890+034760FM-12+001099999V0202201N001010045019N0050001N1-01061-01151100731ADDAY181061AY221061GA1081+004509099GF108991081091004501999999MA1999999100571MD1210061+9999MW1851REMSYN082AAXX  24121 22422 41450 82201 11106 21115 30057 40073 52006 78582 889// 333 88915;
0187224220999992000122418004+65890+034760FM-12+001099999V0202201N001010045019N0050001N1-01061-01151100731ADDAY181061AY221061GA1081+004509099GF108991081091004501999999MA1999999100571MD1210061+9999MW1851REMSYN082AAXX  24181 22422 41450 82201 11106 21115 30057 40073 52006 78582 889// 333 88915;
0166224220999992000122506004+65890+034760FM-12+001099999V0203401N008010036019N0060001N1-00951-01211100251ADDAY181061AY231061GA1071+003609099GF107991071091004501001001MD1710131+9999MW1851REMSYN076AAXX  25061 22422 11456 73408 11095 21121 40025 57013 78583 87900 333 87912;
0168224220999992000122606004+65890+034760FM-12+001099999V0202901N003010042019N0150001N1-01621-01751100521ADDAA199000091GA1051+004209099GF105991051091004501001001MD1210091+9999REMSYN070AAXX  26061 22422 32465 52903 11162 21175 40052 52009 85900 333 85914;EQDQ01  00002PRCP99
0152224220999992000122706004+65890+034760FM-12+001099999V0209999C000012200019N0180001N1-02551-02801100861ADDAA199000091GA1001+999999999GF100991001001999999001001MD1210091+9999REMSYN054AAXX  27061 22422 32968 00000 11255 21280 40086 52009;EQDQ01  00002PRCP99
0140224220999992000122806004+65890+034760FM-12+001099999V0200401N002010300019N0060001N1-00881-00951101291ADDAY181061AY211061GF105991031091004501031001MD1610011+9999MW1851REMSYN066AAXX  28061 22422 11456 50402 11088 21095 40129 56001 78581 83930;
0187224220999992000122812004+65890+034760FM-12+001099999V0201801N002010042019N0050001N1-00951-01021101391ADDAY171061AY271061GA1051+004209059GF108991051051004501021001MA1999999101231MD1810021+9999MW1711REMSYN082AAXX  28121 22422 41450 81802 11095 21102 30123 40139 58002 77177 85520 333 85614;
0168224220999992000123006004+65890+034760FM-12+001099999V0201001N002010063019N0160001N1-00721-00771100451ADDAA199000091GA1071+006309059GF107991071051004501001001MD1710131+9999REMSYN070AAXX  30061 22422 32466 71002 11072 21077 40045 57013 87500 333 87621;EQDQ01  00002PRCP99
0161224220999992000123012004+65890+034760FM-12+001099999V0202101N004010210019N0043001N1-00941-01011100491ADDAY171061AY221061GF108991081001022501071999MA1999999100341MD1310041+9999MW1711REMSYN072AAXX  30121 22422 41843 82104 11094 21101 30034 40049 53004 77172 8807/;
0142224220999992000123106004+65890+034760FM-12+001099999V0202301N003010210019N0160001N1+00501-00531101121ADDAA199000091GF106991061001022501031001MD1210051+9999REMSYN060AAXX  31061 22422 32866 62303 10050 21053 40112 52005 86030;EQDQ01  00002PRCP99
