0161224380999992000010100004+65200+036820FM-12+001899999V0200901N008019999999N0050001N1-01051-01181101491ADDAY171061AY221061GF108991081001999999021999MA1999999101561MD1210061+9999MW1711REMSYN072AAXX  01001 22438 41950 80908 11105 21118 30156 40149 52006 77172 8802/;
0112224380999992000010106004+65200+036820FM-12+001899999V0201201N003012200019N0270001N1-01451-01651102611ADDGF101991011001999999031001MD1210301+9999REMSYN060AAXX  01061 22438 42977 11203 11145 21165 40261 52030 81030;
0133224380999992000010112004+65200+036820FM-12+001899999V0201401N003012200019N0300001N1-01551-01831102501ADDGF102991021001999999031001MA1999999102271MD1810111+9999REMSYN066AAXX  01121 22438 42980 21403 11155 21183 30227 40250 58011 82030;
0122224380999992000010115004+65200+036820FM-12+001899999V0201701N006012200019N0300001N1-01611-01871102611ADDGA1001+999999999GF100991001001999999001001MD1310111+9999REMSYN054AAXX  01151 22438 42980 01706 11161 21187 40261 53011;
0175224380999992000010118004+65200+036820FM-12+001899999V0201701N005012200019N0290001N1-01671-01861102701ADDAA106000091GA1001+999999999GF100991001001999999001001KA1999M-01381MD1210091+9999REMSYN064AAXX  01181 22438 32979 01705 11167 21186 40270 52009 333 11138;EQDQ01  00002PRCP06
0122224380999992000010121004+65200+036820FM-12+001899999V0201801N005012200019N0250001N1-01641-01831102751ADDGA1001+999999999GF100991001001999999001001MD1210051+9999REMSYN054AAXX  01211 22438 42975 01805 11164 21183 40275 52005;
0143224380999992000010200004+65200+036820FM-12+001899999V0201801N005012200019N0230001N1-01601-01791102791ADDGA1001+999999999GF100991001001999999001001MA1999999102561MD1210041+9999REMSYN060AAXX  02001 22438 42973 01805 11160 21179 30256 40279 52004;
0191224380999992000010203004+65200+036820FM-12+001899999V0201801N005012200019N0250001N1-01711-01901102741ADDAA106000091AJ100079199999999GA1001+999999999GF100991001001999999001001IA1289MD1810051+9999REMSYN070AAXX  02031 22438 32975 01805 11171 21190 40274 58005 333 44007 55000;EQDQ01  00002PRCP06
0175224380999992000010206004+65200+036820FM-12+001899999V0201701N006012200019N0210001N1-01561-01691102641ADDAA106000091GA1001+999999999GF100991001001999999001001KA1999N-01821MD1710101+9999REMSYN064AAXX  02061 22438 32971 01706 11156 21169 40264 57010 333 21182;EQDQ01  00002PRCP06
0112224380999992000010209004+65200+036820FM-12+001899999V0201801N007012200019N0220001N1-01541-01731102701ADDGF101991011011004501001001MD1710061+9999REMSYN060AAXX  02091 22438 42472 11807 11154 21173 40270 57006 81100;
0143224380999992000010212004+65200+036820FM-12+001899999V0201901N009012200019N0270001N1-01371-01641102501ADDGA1001+999999999GF100991001001999999001001MA1999999102271MD1710081+9999REMSYN060AAXX  02121 22438 42977 01909 11137 21164 30227 40250 57008;
0122224380999992000010215004+65200+036820FM-12+001899999V0201701N009012200019N0240001N1-01601-01791102301ADDGA1001+999999999GF100991001001999999001001MD1810201+9999REMSYN054AAXX  02151 22438 42974 01709 11160 21179 40230 58020;
0175224380999992000010218004+65200+036820FM-12+001899999V0201801N007012200019N0240001N1-01661-01851102221ADDAA106000091GA1001+999999999GF100991001001999999001001KA1999M-01341MD1610081+9999REMSYN064AAXX  02181 22438 32974 01807 11166 21185 40222 56008 333 11134;EQDQ01  00002PRCP06
0122224380999992000010221004+65200+036820FM-12+001899999V0201701N008012200019N0140001N1-01651-01811102121ADDGA1001+999999999GF100991001001999999001001MD1710101+9999REMSYN054AAXX  02211 22438 41764 01708 11165 21181 40212 57010;
0143224380999992000010300004+65200+036820FM-12+001899999V0201801N006012200019N0220001N1-01681-02181102051ADDGA1001+999999999GF100991001001999999001001MA1999999101821MD1710071+9999REMSYN060AAXX  03001 22438 42972 01806 11168 21218 30182 40205 57007;
0175224380999992000010306004+65200+036820FM-12+001899999V0201701N009012200019N0180001N1-01431-01641101801ADDAA106000091GA1001+999999999GF100991001001999999001001KA1999N-01651MD1710131+9999REMSYN064AAXX  03061 22438 32968 01709 11143 21164 40180 57013 333 21165;EQDQ01  00002PRCP06
0140224380999992000010309004+65200+036820FM-12+001899999V0201901N015010075019N0036001N1-01121-01181101711ADDAY181031AY231031GF107991051031008001001041MD1710081+9999MW1381REMSYN066AAXX  03091 22438 41536 71915 11112 21118 40171 57008 73883 85304;
0161224380999992000010312004+65200+036820FM-12+001899999V0201701N012012200019N0180001N1-01141-01271101611ADDAY181061AY231061GF105991021051008001001041MA1999999101391MD1710101+9999MW1361REMSYN072AAXX  03121 22438 41568 51712 11114 21127 30139 40161 57010 73683 82504;
0140224380999992000010315004+65200+036820FM-12+001899999V0201801N008012200019N0190001N1-01271-01471101571ADDAY131031AY221031GF102991021051008001001001MD1610051+9999MW1021REMSYN066AAXX  03151 22438 41569 21808 11127 21147 40157 56005 70232 82500;
0180224380999992000010318004+65200+036820FM-12+001899999V0201701N011012200019N0170001N1-01361-01491101371ADDAA100000791AY131061AY211061GF102991021051008001001001KA1999M-01121MD1810201+9999MW1021REMSYN082AAXX  03181 22438 11567 21711 11136 21149 40137 58020 69900 70231 82500 333 11112;
0112224380999992000010321004+65200+036820FM-12+001899999V0201801N009012200019N0180001N1-01421-01551101271ADDGF101991011051008001001001MD1610101+9999REMSYN060AAXX  03211 22438 42568 11809 11142 21155 40127 56010 81500;
0143224380999992000010400004+65200+036820FM-12+001899999V0201701N008012200019N0200001N1-01451-01731101101ADDGA1001+999999999GF100991001001999999001001MA1999999100871MD1710171+9999REMSYN060AAXX  04001 22438 42970 01708 11145 21173 30087 40110 57017;
0219224380999992000010403004+65200+036820FM-12+001899999V0201701N009012200019N0180001N1-01491-01621100861ADDAA106000091AJ100079199999999AY131031AY201031GA1001+999999999GF100991001001999999001001IA1289MD1810241+9999MW1361REMSYN076AAXX  04031 22438 32968 01709 11149 21162 40086 58024 73630 333 44007 55000;EQDQ01  00002PRCP06
0193224380999992000010406004+65200+036820FM-12+001899999V0201701N007010075019N0230001N1-01531-01801100691ADDAA106000091AY131061AY211061GF105991051051008001001001KA1999N-01511MD1610171+9999MW1021REMSYN076AAXX  04061 22438 31573 51707 11153 21180 40069 56017 70231 85500 333 21151;EQDQ01  00002PRCP06
0112224380999992000010409004+65200+036820FM-12+001899999V0201601N006010075019N0250001N1-01481-01751100441ADDGF106991061051008001001001MD1810251+9999REMSYN060AAXX  04091 22438 42575 61606 11148 21175 40044 58025 86500;
0161224380999992000010412004+65200+036820FM-12+001899999V0201501N007010075019N0170001N1-01271-01401100121ADDAY181061AY221061GF107991061031008001071001MA1999999099891MD1710321+9999MW1021REMSYN072AAXX  04121 22438 41567 71507 11127 21140 39989 40012 57032 70282 86370;
0140224380999992000010415004+65200+036820FM-12+001899999V0201501N008010075019N0180001N1-01211-01341099831ADDAY131031AY221031GF107991071051008001071001MD1710291+9999MW1361REMSYN066AAXX  04151 22438 41568 71508 11121 21134 49983 57029 73632 87570;
0199224380999992000010418004+65200+036820FM-12+001899999V0201501N008010075019N0050001N1-01121-01181099661ADDAA100000791AY171061AY231061GF108991081001008001021999KA1999M+99999MD1610161+9999MW1711REMSYN082AAXX  04181 22438 11550 81508 11112 21118 49966 56016 69900 77173 8802/ 333 11121;EQDQ01 -01212ATMX  
0140224380999992000010421004+65200+036820FM-12+001899999V0201501N006010075019N0046001N1-01081-01241099581ADDAY171031AY231031GF108991081001008001021999MD1710081+9999MW1711REMSYN066AAXX  04211 22438 41546 81506 11108 21124 49958 57008 77173 8802/;
0161224380999992000010500004+65200+036820FM-12+001899999V0201601N006010075019N0050001N1-01011-01071099521ADDAY171061AY231061GF108991081001008001021999MA1999999099301MD1610061+9999MW1701REMSYN072AAXX  05001 22438 41550 81606 11101 21107 39930 49952 56006 77073 8802/;
0179224380999992000010503004+65200+036820FM-12+001899999V0201501N003010075019N0190001N1-01041-01171099461ADDAJ100089199999999AY171031AY231031GF108991081051008001999999IA1249MD1710061+9999MW1021REMSYN082AAXX  05031 22438 /1569 81503 11104 21117 49946 57006 70273 885// 333 48008 55000;
0180224380999992000010506004+65200+036820FM-12+001899999V0201401N004010075019N0190001N1-01051-01181099501ADDAA100001091AY171061AY221061GF107991071051008001001001KA1999N-01211MD1410001+9999MW1021REMSYN082AAXX  05061 22438 11569 71404 11105 21118 49950 54004 60010 70272 87500 333 21121;
0112224380999992000010509004+65200+036820FM-12+001899999V0201501N002010075019N0170001N1-01051-01181099611ADDGF108991081051008001999999MD1210111+9999REMSYN060AAXX  05091 22438 41567 81502 11105 21118 49961 52011 885//;
0133224380999992000010512004+65200+036820FM-12+001899999V0209999C000010075019N0150001N1-01161-01361099761ADDGF108991081051008001999999MA1999999099541MD1210151+9999REMSYN066AAXX  05121 22438 42565 80000 11116 21136 39954 49976 52015 885//;
0140224380999992000010515004+65200+036820FM-12+001899999V0201301N003010042019N0049001N1-01081-01281099941ADDAY171031AY221031GF108991081001004501021999MD1210181+9999MW1701REMSYN066AAXX  05151 22438 41449 81303 11108 21128 49994 52018 77072 8802/;
0152224380999992000010518004+65200+036820FM-12+001899999V0201201N001010075019N0120001N1-01021-01081100131ADDAA100000791GF108991081051008001999999KA1999M-01041MD1210181+9999REMSYN076AAXX  05181 22438 11562 81201 11102 21108 40013 52018 69900 885// 333 11104;
0140224380999992000010521004+65200+036820FM-12+001899999V0209999C000010075019N0050001N1-00941-01011100361ADDAY171031AY221031GF108991081001008001021999MD1210231+9999MW1701REMSYN066AAXX  05211 22438 41550 80000 11094 21101 40036 52023 77072 8802/;
0151224380999992000010603004+65200+036820FM-12+001899999V0209999C000010075019N0180001N1-00901-01101100781ADDAJ100089199999999GF108991081051008001999999IA1249MD1210171+9999REMSYN076AAXX  06031 22438 /2568 80000 11090 21110 40078 52017 885// 333 48008 55000;
0152224380999992000010606004+65200+036820FM-12+001899999V0201801N002010075019N0140001N1-00811-00991100941ADDAA102000591GF108991081051008001999999KA1999N-01081MD1210161+9999REMSYN076AAXX  06061 22438 12564 81802 11081 21099 40094 52016 69956 885// 333 21108;
0140224380999992000010609004+65200+036820FM-12+001899999V0203001N001010075019N0040001N1-00671-00911101101ADDAY181031AY221031GF108991081031008001999999MD1210161+9999MW1851REMSYN066AAXX  06091 22438 41540 83001 11067 21091 40110 52016 78582 883//;
0161224380999992000010612004+65200+036820FM-12+001899999V0201801N002010075019N0042001N1-00721-00771101111ADDAY181061AY221061GF108991081031008001999999MA1999999100891MD1110011+9999MW1851REMSYN072AAXX  06121 22438 41542 81802 11072 21077 30089 40111 51001 78582 883//;
0140224380999992000010615004+65200+036820FM-12+001899999V0201701N004012200019N0100001N1-00881-00911101111ADDAY181031AY221031GF102991021031008001001001MD1410001+9999MW1101REMSYN066AAXX  06151 22438 41560 21704 11088 21091 40111 54000 71082 82300;
0179224380999992000010703004+65200+036820FM-12+001899999V0201601N009010042019N0042001N1-00371-00451099911ADDAJ100109199999999AY181031AY231031GF108991081091004501999999IA1249MD1810321+9999MW1851REMSYN082AAXX  07031 22438 /1442 81609 11037 21045 49991 58032 78583 889// 333 48010 55000;
0180224380999992000010706004+65200+036820FM-12+001899999V0201701N010010042019N0037001N1-00291-00361099651ADDAA100000591AY181061AY231061GF108991081091004501999999KA1999N-01051MD1610261+9999MW1851REMSYN082AAXX  07061 22438 11437 81710 11029 21036 49965 56026 69950 78583 889// 333 21105;
0140224380999992000010709004+65200+036820FM-12+001899999V0201901N011010042019N0040001N1-00111-00151099451ADDAY181031AY231031GF108991081091004501999999MD1710201+9999MW1851REMSYN066AAXX  07091 22438 41440 81911 11011 21015 49945 57020 78583 889//;
0161224380999992000010712004+65200+036820FM-12+001899999V0201901N010010042019N0036001N1-00091-00111099261ADDAY181061AY231061GF108991081091004501999999MA1999999099051MD1710181+9999MW1851REMSYN072AAXX  07121 22438 41436 81910 11009 21011 39905 49926 57018 78583 889//;
0180224380999992000010718004+65200+036820FM-12+001899999V0202201N006010042019N0036001N1-00071-00071099231ADDAA100001091AY181061AY231061GF108991081091004501999999KA1999M-00021MD1710031+9999MW1851REMSYN082AAXX  07181 22438 11436 82206 11007 21007 49923 57003 60010 78583 889// 333 11002;
0140224380999992000010721004+65200+036820FM-12+001899999V0202301N005010075019N0150001N1-00051-00081099251ADDAY181031AY221031GF108991081051008001999999MD1310121+9999MW1021REMSYN066AAXX  07211 22438 41565 82305 11005 21008 49925 53012 70282 885//;
0161224380999992000010800004+65200+036820FM-12+001899999V0202401N004010075019N0170001N1-00091-00171099411ADDAY181061AY221061GF108991081051008001999999MA1999999099201MD1210161+9999MW1021REMSYN072AAXX  08001 22438 41567 82404 11009 21017 39920 49941 52016 70282 885//;
0145224380999992000010803004+65200+036820FM-12+001899999V0202401N004010075019N0180001N1-00111-00151099491ADDAJ100109199999999GF108991081051008001999999IA1249MD1110081+9999REMSYN070AAXX  08031 22438 /2568 82404 11011 21015 49949 51008 885// 333 48010;
0152224380999992000010806004+65200+036820FM-12+001899999V0202401N004010075019N0200001N1-00131-00171099541ADDAA100000191GF107991071051008001001001KA1999N-00111MD1210051+9999REMSYN076AAXX  08061 22438 12570 72404 11013 21017 49954 52005 69920 87500 333 21011;
0140224380999992000010809004+65200+036820FM-12+001899999V0201901N011010042019N0110001N1-00081-00121099421ADDAY131031AY221031GF108991081061004501999999MD1810121+9999MW1371REMSYN066AAXX  08091 22438 41461 81911 11008 21012 49942 58012 73732 886//;
0161224380999992000010812004+65200+036820FM-12+001899999V0201801N010010075019N0150001N1-00151-00201099111ADDAY131061AY221061GF108991081061008001999999MA1999999098901MD1710211+9999MW1371REMSYN072AAXX  08121 22438 41565 81810 11015 21020 39890 49911 57021 73732 886//;
0140224380999992000010815004+65200+036820FM-12+001899999V0201901N011010075019N0031001N1-00061-00091098731ADDAY171031AY231031GF108991081001008001021999MD1810381+9999MW1731REMSYN066AAXX  08151 22438 41531 81911 11006 21009 49873 58038 77373 8802/;
0199224380999992000010818004+65200+036820FM-12+001899999V0202001N013010075019N0044001N1+00021-00011098331ADDAA100000191AY171061AY231061GF108991081001008001021999KA1999M+99999MD1710101+9999MW1711REMSYN082AAXX  08181 22438 11544 82013 10002 21001 49833 57010 69920 77173 8802/ 333 11006;EQDQ01 -00062ATMX  
0175224380999992000010821004+65200+036820FM-12+001899999V0202101N012010075019N0050001N1+00121+00091999999ADDAY171031AY231031GF108991081001008001021999MD1610181+9999MW1711REMSYN066AAXX  08211 22438 41550 82112 10012 20009 49915 56018 77173 8802/;EQDQ01+099153APOSLPQ02 099153APOSLP
0180224380999992000010900004+65200+036820FM-12+001899999V0201101N012010075019N0050001N1-00011+99999097042ADDAY171061AY231061GF108991081001008001021999MA1999999097731MD1710111+9999MW1711REMSYN072AAXX  09001 22438 41550 81112 11001 20012 39773 49704 57011 77173 8802/;EQDQ01+097043APOSLP
0112224380999992000010909004+65200+036820FM-12+001899999V0202101N010010075019N0230001N1+00101-00131098791ADDGF107991071051008001001001MD1110111+9999REMSYN060AAXX  09091 22438 42573 72110 10010 21013 49879 51011 87500;
0133224380999992000010912004+65200+036820FM-12+001899999V0202101N010012200019N0250001N1+00021-00191098961ADDGF102991021051008001001001MA1999999098751MD1210171+9999REMSYN066AAXX  09121 22438 42575 22110 10002 21019 39875 49896 52017 82500;
0122224380999992000010915004+65200+036820FM-12+001899999V0202101N008012200019N0280001N1-00111-00301099111ADDGA1001+999999999GF100991001001999999001001MD1210151+9999REMSYN054AAXX  09151 22438 42978 02108 11011 21030 49911 52015;
0175224380999992000010918004+65200+036820FM-12+001899999V0202201N008012200019N0270001N1-00061-00271099271ADDAA106000091GA1001+999999999GF100991001001999999001001KA1999M+00151MD1210161+9999REMSYN064AAXX  09181 22438 32977 02208 11006 21027 49927 52016 333 10015;EQDQ01  00002PRCP06
0122224380999992000010921004+65200+036820FM-12+001899999V0202401N008012200019N0260001N1-00031-00301099481ADDGA1001+999999999GF100991001001999999001001MD1210211+9999REMSYN054AAXX  09211 22438 42976 02408 11003 21030 49948 52021;
0143224380999992000011000004+65200+036820FM-12+001899999V0202401N008012200019N0280001N1-00041-00311099661ADDGA1001+999999999GF100991001001999999001001MA1999999099451MD1210181+9999REMSYN060AAXX  10001 22438 42978 02408 11004 21031 39945 49966 52018;
0191224380999992000011003004+65200+036820FM-12+001899999V0202301N009012200019N0290001N1-00031-00301099831ADDAA106000091AJ100069199999999GA1001+999999999GF100991001001999999001001IA1309MD1210171+9999REMSYN070AAXX  10031 22438 32979 02309 11003 21030 49983 52017 333 42006 55000;EQDQ01  00002PRCP06
0165224380999992000011006004+65200+036820FM-12+001899999V0202401N009012200019N0350001N1-00021-00351099961ADDAA106000091GF102991021001999999041001KA1999N-00121MD1210131+9999REMSYN070AAXX  10061 22438 32981 22409 11002 21035 49996 52013 82040 333 21012;EQDQ01  00002PRCP06
0112224380999992000011009004+65200+036820FM-12+001899999V0202401N007012200019N0350001N1-00081-00401100181ADDGF102991021051999999031001MD1310221+9999REMSYN060AAXX  10091 22438 42981 22407 11008 21040 40018 53022 82530;
0119224380999992000011012004+65200+036820FM-12+001899999V0202501N010012200019N0350001N1-00181-00461100381ADDGF103991999999999999999999MA1999999100751REMSYN066AAXX  10121 22438 42981 32510 11018 21046 30075 40038 92019 83030;
0112224380999992000011015004+65200+036820FM-12+001899999V0202401N006012200019N0350001N1-00281-00551100501ADDGF101991011001999999041001MD1110131+9999REMSYN060AAXX  10151 22438 42981 12406 11028 21055 40050 51013 81040;
0175224380999992000011018004+65200+036820FM-12+001899999V0202601N009012200019N0300001N1-00341-00591100661ADDAA106000091GA1001+999999999GF100991001001999999001001KA1999M-00021MD1210161+9999REMSYN064AAXX  10181 22438 32980 02609 11034 21059 40066 52016 333 11002;EQDQ01  00002PRCP06
0122224380999992000011021004+65200+036820FM-12+001899999V0202701N008012200019N0270001N1-00391-00581100781ADDGA1001+999999999GF100991001001999999001001MD1210121+9999REMSYN054AAXX  10211 22438 42977 02708 11039 21058 40078 52012;
0143224380999992000011100004+65200+036820FM-12+001899999V0202601N008012200019N0250001N1-00501-00671100911ADDGA1001+999999999GF100991001001999999001001MA1999999100691MD1210131+9999REMSYN060AAXX  11001 22438 42975 02608 11050 21067 30069 40091 52013;
0191224380999992000011103004+65200+036820FM-12+001899999V0202701N009012200019N0250001N1-00531-00711101081ADDAA106000091AJ100069199999999GA1001+999999999GF100991001001999999001001IA1309MD1210171+9999REMSYN070AAXX  11031 22438 32975 02709 11053 21071 40108 52017 333 42006 55000;EQDQ01  00002PRCP06
0135224380999992000011106004+65200+036820FM-12+001899999V0202101N004012200019N0270001N1-00471-00671101161ADDGF101991011001999999031001KA1999N-00551MD1110081+9999REMSYN070AAXX  11061 22438 42977 12104 11047 21067 40116 51008 81030 333 21055;
0112224380999992000011109004+65200+036820FM-12+001899999V0202101N007010075019N0240001N1-00281-00481101081ADDGF107991071051008001001001MD1810081+9999REMSYN060AAXX  11091 22438 42574 72107 11028 21048 40108 58008 87500;
0112224380999992000011112004+65200+036820FM-12+001899999V0202101N009010300019N0210001N1-00431-00551100971ADDGF107991041051008001071001MD1710111+9999REMSYN060AAXX  11121 22438 42571 72109 11043 21055 40097 57011 84570;
0112224380999992000011115004+65200+036820FM-12+001899999V0201901N007010075019N0200001N1-00471-00571100781ADDGF107991061051008001071001MD1810191+9999REMSYN060AAXX  11151 22438 42570 71907 11047 21057 40078 58019 86570;
0165224380999992000011118004+65200+036820FM-12+001899999V0209999C000010075019N0190001N1-00351-00501100631ADDAA106000091GF108991081051008001999999KA1999M-00271MD1710151+9999REMSYN070AAXX  11181 22438 32569 82300 11035 21050 40063 57015 885// 333 11027;EQDQ01  00002PRCP06
0112224380999992000011121004+65200+036820FM-12+001899999V0202401N006010075019N0190001N1-00191-00271100671ADDGF108991081051008001999999MD1310051+9999REMSYN060AAXX  11211 22438 42569 82406 11019 21027 40067 53005 885//;
0133224380999992000011200004+65200+036820FM-12+001899999V0202401N006010075019N0190001N1-00141-00221100761ADDGF108991081051008001999999MA1999999100551MD1210091+9999REMSYN066AAXX  12001 22438 42569 82406 11014 21022 30055 40076 52009 885//;
0112224380999992000011209004+65200+036820FM-12+001899999V0202201N005012200019N0260001N1-00431-00551100961ADDGF103991001001999999001041MD1210061+9999REMSYN060AAXX  12091 22438 42976 32205 11043 21055 40096 52006 80004;
0133224380999992000011212004+65200+036820FM-12+001899999V0202101N008019999999N0250001N1-00291-00421100891ADDGF107991001001999999001041MA1999999100671MD1810071+9999REMSYN066AAXX  12121 22438 42975 72108 11029 21042 30067 40089 58007 80004;
0112224380999992000011215004+65200+036820FM-12+001899999V0202201N007010075019N0200001N1-00181-00321100751ADDGF108991081051008001999999MD1710141+9999REMSYN060AAXX  12151 22438 42570 82207 11018 21032 40075 57014 885//;
0181224380999992000011218004+65200+036820FM-12+001899999V0201901N009010075019N0200001N1-00091-00251100331ADDAA106000091GF108991081051008001999999KA1999M+99999MD1810411+9999REMSYN070AAXX  12181 22438 32570 81909 11009 21025 40033 58041 885// 333 11018;EQDQ01  00002PRCP06Q02 -00182ATMX  
0140224380999992000011221004+65200+036820FM-12+001899999V0202201N011010042019N0042001N1+00001-00111099951ADDAY181031AY231031GF108991081031004501999999MD1710381+9999MW1851REMSYN066AAXX  12211 22438 41442 82211 10000 21011 49995 57038 78583 883//;
0161224380999992000011300004+65200+036820FM-12+001899999V0202101N012010042019N0040001N1+00021-00061099611ADDAY181061AY231061GF108991081031004501999999MA1999999099401MD1710341+9999MW1851REMSYN072AAXX  13001 22438 41440 82112 10002 21006 39940 49961 57034 78583 883//;
0179224380999992000011303004+65200+036820FM-12+001899999V0202301N007010075019N0046001N1+00081+00031099531ADDAJ100069199999999AY181031AY231031GF108991081031008001999999IA1289MD1610081+9999MW1851REMSYN082AAXX  13031 22438 /1546 82307 10008 20003 49953 56008 78583 883// 333 44006 55000;
0106224380999992000011306004+65200+036820FM-12+001899999V0202401N006019999999N0160001N1+00001-00111099641ADDGF108991999999008001999999MD1310111+9999REMSYN054AAXX  13061 22438 11566 82406 10000 21011 49964 53011;
0112224380999992000011309004+65200+036820FM-12+001899999V0203101N006010075019N0190001N1-00071-00141099781ADDGF107991061031008001071001MD1210141+9999REMSYN060AAXX  13091 22438 42569 73106 11007 21014 49978 52014 86370;
0161224380999992000011312004+65200+036820FM-12+001899999V0203301N009010075019N0220001N1-00251-00471100281ADDAY131061AY221061GF107991061051008001071001MA1999999100071MD1310501+9999MW1361REMSYN072AAXX  13121 22438 41572 73309 11025 21047 30007 40028 53050 73632 86570;
0140224380999992000011315004+65200+036820FM-12+001899999V0203101N009010075019N0200001N1-00331-00571100681ADDAY131031AY221031GF107991071051008001001001MD1110391+9999MW1361REMSYN066AAXX  13151 22438 41570 73109 11033 21057 40068 51039 73632 87500;
0180224380999992000011318004+65200+036820FM-12+001899999V0202901N007010042019N0170001N1-00351-00601100841ADDAA100000791AY131061AY221061GF108991081061004501999999KA1999M+00081MD1210161+9999MW1021REMSYN082AAXX  13181 22438 11467 82907 11035 21060 40084 52016 69900 70232 886// 333 10008;
0116224380999992000011321004+65200+036820FM-12+001899999V0202501N002010042019N0130001N1-00521-00621100921ADDGF108991081061004501999999MD1110081+9999REMSYN064    AAXX  13211 22438 42463 82502 11052 21062 40092 51008 886//;
0137224380999992000011400004+65200+036820FM-12+001899999V0202401N001010042019N0150001N1-00591-00701100921ADDGF108991081061004501999999MA1999999100701MD1410001+9999REMSYN070    AAXX  14001 22438 42465 82401 11059 21070 30070 40092 54000 886//;
0185224380999992000011403004+65200+036820FM-12+001899999V0202601N004010042019N0130001N1-00451-00541100951ADDAA199000091AJ100069199999999GF108991081061004501999999IA1289MD1310031+9999REMSYN080    AAXX  14031 22438 32463 82604 11045 21054 40095 53003 886// 333 44006 55000;EQDQ01  00002PRCP99
0169224380999992000011406004+65200+036820FM-12+001899999V0202701N004010042019N0120001N1-00371-00421101081ADDAA199000091GF108991081061004501999999KA1999N-00621MD1210131+9999REMSYN074    AAXX  14061 22438 32462 82704 11037 21042 40108 52013 886// 333 21062;EQDQ01  00002PRCP99
0116224380999992000011409004+65200+036820FM-12+001899999V0202801N006010042019N0180001N1-00381-00521101181ADDGF108991081061004501999999MD1210101+9999REMSYN064    AAXX  14091 22438 42468 82806 11038 21052 40118 52010 886//;
0137224380999992000011412004+65200+036820FM-12+001899999V0202701N006010042019N0120001N1-00521-00661101351ADDGF108991081061004501999999MA1999999101131MD1210161+9999REMSYN070    AAXX  14121 22438 42462 82706 11052 21066 30113 40135 52016 886//;
0116224380999992000011415004+65200+036820FM-12+001899999V0202801N005010042019N0140001N1-00461-00661101371ADDGF108991081061004501999999MD1110021+9999REMSYN064    AAXX  14151 22438 42464 82805 11046 21066 40137 51002 886//;
0207224380999992000011418004+65200+036820FM-12+001899999V0202801N007010075019N0042001N1-00391-00441101361ADDAA199000091AY171061AY221061GF108991081001008001021071KA1999M-00371MD1410001+9999REMSYN080    AAXX  14181 22438 31542 82807 11039 21044 40136 54000 78172 88027 333 11037;EQDQ01+000812PRSWM1Q02  00002PRCP99
0144224380999992000011421004+65200+036820FM-12+001899999V0201601N007010075019N0130001N1-00371-00481101371ADDAY171031AY221031GF108991081051008001999999MD1410001+9999MW1021REMSYN070    AAXX  14211 22438 41563 81607 11037 21048 40137 54000 70272 885//;
0165224380999992000011500004+65200+036820FM-12+001899999V0202601N007010075019N0140001N1-00351-00461101341ADDAY171061AY221061GF108991081051008001999999MA1999999101121MD1810031+9999MW1021REMSYN076    AAXX  15001 22438 41564 82607 11035 21046 30112 40134 58003 70272 885//;
0184224380999992000011506004+65200+036820FM-12+001899999V0202201N010019999999N0048001N1-00211-00221100871ADDAA100000391AY171061AY231061GF108991081001999999021999KA1999N-00391MD1710251+9999MW1701REMSYN086    AAXX  15061 22438 11948 82210 11021 21022 40087 57025 69930 77073 8802/ 333 21039;
0144224380999992000011509004+65200+036820FM-12+001899999V0202501N009019999999N0042001N1-00461-00521100721ADDAY171031AY231031GF108991081001999999021999MD1710151+9999MW1711REMSYN070    AAXX  15091 22438 41942 82509 11046 21052 40072 57015 77173 8802/;
0165224380999992000011512004+65200+036820FM-12+001899999V0202701N010010300019N0130001N1-00341-00531100681ADDAY171061AY231061GF108991021051008001021999MA1999999100461MD1610041+9999MW1361REMSYN076    AAXX  15121 22438 41563 82710 11034 21053 30046 40068 56004 73673 8252/;
0144224380999992000011515004+65200+036820FM-12+001899999V0202801N007019999999N0150001N1-00321-00561100681ADDAY131031AY221031GF108991081001999999021999MD1410001+9999MW1021REMSYN070    AAXX  15151 22438 41965 82807 11032 21056 40068 54000 70232 8802/;
0184224380999992000011518004+65200+036820FM-12+001899999V0202901N006010300019N0200001N1-00261-00491100691ADDAA100000891AY131061AY221061GF106991041051008001021001KA1999M-00211MD1310021+9999MW1021REMSYN086    AAXX  15181 22438 11570 62906 11026 21049 40069 53002 69970 70232 84520 333 11021;
0116224380999992000011521004+65200+036820FM-12+001899999V0202901N005019999999N0220001N1-00451-00681100741ADDGF108991081001999999021999MD1210041+9999REMSYN064    AAXX  15211 22438 42972 82905 11045 21068 40074 52004 8802/;
0137224380999992000011600004+65200+036820FM-12+001899999V0202801N004019999999N0200001N1-00481-00721100791ADDGF108991081001999999021999MA1999999100571MD1110051+9999REMSYN070    AAXX  16001 22438 42970 82804 11048 21072 30057 40079 51005 8802/;
0185224380999992000011603004+65200+036820FM-12+001899999V0202901N004010075019N0180001N1-00521-00731100741ADDAA199000091AJ100079199999999GF107991071051008001001001IA1249MD1810051+9999REMSYN080    AAXX  16031 22438 32568 72904 11052 21073 40074 58005 87500 333 48007 55000;EQDQ01  00002PRCP99
0185224380999992000011606004+65200+036820FM-12+001899999V0202701N007019999999N0170001N1-00511-00681100591ADDAA199000091GF107991999051008001001001KA1999N-00521MD1710151+9999REMSYN074    AAXX  16061 22438 32567 72707 11051 21068 40059 57015 88500 333 21052;EQDQ01+000082SCOTLCQ02  00002PRCP99
0116224380999992000011609004+65200+036820FM-12+001899999V0202201N008010075019N0180001N1-00481-00681100401ADDGF108991081051008001999999MD1710191+9999REMSYN064    AAXX  16091 22438 42568 82208 11048 21068 40040 57019 885//;
0165224380999992000011612004+65200+036820FM-12+001899999V0202001N009010075019N0042001N1-00391-00511099831ADDAY171061AY231061GF108991081001008001021999MA1999999099611MD1810571+9999MW1711REMSYN076    AAXX  16121 22438 41542 82009 11039 21051 39961 49983 58057 77173 8802/;
0179224380999992000011615004+65200+036820FM-12+001899999V0201901N012010075019N0036001N1-00491-00591099232ADDAY171031AY231031GF108991999091008001021999MD1710601+9999MW1711REMSYN070    AAXX  16151 22438 41536 81912 11049 21059 49923 57060 77173 8892/;EQDQ01+000082SCOTLCQ02+099233APOSLP
0203224380999992000011618004+65200+036820FM-12+001899999V0201501N012010075019N0033001N1-00521-00551099551ADDAA100000591AY171061AY231061GF108991081001008001021999KA1999M-00391MD1710672+9999MW1711REMSYN086    AAXX  16181 22438 11533 81512 11052 21055 49955 57067 69940 77173 8802/ 333 11039;EQDQ01+000672APC3  
0163224380999992000011621004+65200+036820FM-12+001899999V0201501N012010075019N0034001N1-00551-00621097972ADDAY171031AY231031GF108991081001008001021999MD1710481+9999MW1711REMSYN070    AAXX  16211 22438 41534 81512 11055 21062 49797 57048 77173 8802/;EQDQ01+097973APOSLP
0216224380999992000011700004+65200+036820FM-12+001899999V0201501N012010075019N0032001N1-00561-00631097172ADDAY171061AY231061GF108991081001008001021999MA1999999097261MD1410001+9999MW1711REMSYN076    AAXX  17001 22438 41532 81512 11056 21063 39726 49717 57050 77173 8802/;EQDQ01+097173APOSLPQ02+000072APCTENQ03+000502APC3  
0183224380999992000011703004+65200+036820FM-12+001899999V0201601N007010075019N0041001N1-00481-00541097281ADDAJ100089199999999AY171031AY231031GF108991081001008001021999IA1289MD1610181+9999MW1711REMSYN086    AAXX  17031 22438 /1541 81607 11048 21054 49728 56018 77173 8802/ 333 44008 55000;
0184224380999992000011706004+65200+036820FM-12+001899999V0201601N007010075019N0160001N1-00461-00591097231ADDAA100001091AY171061AY231061GF108991081051008001999999KA1999N-00571MD1710051+9999MW1221REMSYN086    AAXX  17061 22438 11566 81607 11046 21059 49723 57005 60010 72273 885// 333 21057;
0144224380999992000011709004+65200+036820FM-12+001899999V0201501N005010075019N0026001N1-00501-00571097281ADDAY171031AY221031GF108991081001008001021999MD1310051+9999MW1731REMSYN070    AAXX  17091 22438 41526 81505 11050 21057 49728 53005 77372 8802/;
0165224380999992000011712004+65200+036820FM-12+001899999V0202001N006010075019N0030001N1-00371-00451097451ADDAY171061AY221061GF108991081001008001021999MA1999999097241MD1310171+9999MW1731REMSYN076    AAXX  17121 22438 41530 82006 11037 21045 39724 49745 53017 77372 8802/;
0144224380999992000011715004+65200+036820FM-12+001899999V0200901N009010075019N0044001N1-00391-00511097661ADDAY171031AY231031GF108991081001008001021999MD1210211+9999MW1701REMSYN070    AAXX  17151 22438 41544 80909 11039 21051 49766 52021 77073 8802/;
0184224380999992000011718004+65200+036820FM-12+001899999V0200701N012010075019N0039001N1-00431-00551097941ADDAA100003091AY171061AY231061GF108991081051008001999999KA1999M-00361MD1210281+9999MW1381REMSYN086    AAXX  17181 22438 11539 80712 11043 21055 49794 52028 60030 73873 885// 333 11036;
0144224380999992000011721004+65200+036820FM-12+001899999V0200801N012010075019N0038001N1-00481-00541098171ADDAY131031AY221031GF108991081051008001999999MD1210231+9999MW1381REMSYN070    AAXX  17211 22438 41538 80812 11048 21054 49817 52023 73832 885//;
0165224380999992000011800004+65200+036820FM-12+001899999V0200701N012010075019N0040001N1-00511-00581098421ADDAY131061AY221061GF108991081051008001999999MA1999999098211MD1210251+9999MW1381REMSYN076    AAXX  18001 22438 41540 80712 11051 21058 39821 49842 52025 73832 885//;
0144224380999992000011809004+65200+036820FM-12+001899999V0200501N014010075019N0040001N1-00631-00861099151ADDAY131031AY221031GF107991051051008001031001MD1210241+9999MW1381REMSYN070    AAXX  18091 22438 41540 70514 11063 21086 49915 52024 73832 85530;
0165224380999992000011812004+65200+036820FM-12+001899999V0200401N013010075019N0032001N1-00631-00821099351ADDAY131061AY221061GF108991051051008001031999MA1999999099131MD1210201+9999MW1381REMSYN076    AAXX  18121 22438 41532 80413 11063 21082 39913 49935 52020 73832 8553/;
0144224380999992000011815004+65200+036820FM-12+001899999V0200701N013010300019N0070001N1-00651-01061099561ADDAY131031AY221031GF107991041051008001031001MD1210211+9999MW1381REMSYN070    AAXX  18151 22438 41557 70713 11065 21106 49956 52021 73832 84530;
0184224380999992000011818004+65200+036820FM-12+001899999V0200401N013010042019N0036001N1-00701-00871099721ADDAA100000791AY181061AY231061GF108991061031004501031999KA1999M-00561MD1110161+9999MW1851REMSYN086    AAXX  18181 22438 11436 80413 11070 21087 49972 51016 69900 78583 8633/ 333 11056;
0144224380999992000011821004+65200+036820FM-12+001899999V0200501N013010042019N0040001N1-00711-00881099771ADDAY181031AY231031GF108991071031004501051999MD1210051+9999MW1851REMSYN070    AAXX  18211 22438 41440 80513 11071 21088 49977 52005 78583 8735/;
0165224380999992000011900004+65200+036820FM-12+001899999V0200401N012010042019N0042001N1-00731-00901099791ADDAY181061AY231061GF108991061031004501051999MA1999999099571MD1110021+9999MW1851REMSYN076    AAXX  19001 22438 41442 80412 11073 21090 39957 49979 51002 78583 8635/;
0183224380999992000011903004+65200+036820FM-12+001899999V0200501N012010075019N0040001N1-00751-00921099871ADDAJ100089199999999AY181031AY231031GF108991081051008001999999IA1249MD1310081+9999MW1381REMSYN086    AAXX  19031 22438 /1540 80512 11075 21092 49987 53008 73883 885// 333 48008 55000;
0203224380999992000011906004+65200+036820FM-12+001899999V0200601N012010075019N0043001N1-00821-01051099891ADDAA100000891AY181061AY231061GF108991081051008001999999KA1999N+99999MD1110021+9999MW1381REMSYN086    AAXX  19061 22438 11543 80612 11082 21105 49989 51002 69970 73883 885// 333 21076;EQDQ01 -00762ATMN  
0144224380999992000011909004+65200+036820FM-12+001899999V0200501N008010075019N0110001N1-00801-00981099891ADDAY131031AY221031GF108991081051008001999999MD1410001+9999MW1361REMSYN070    AAXX  19091 22438 41561 80508 11080 21098 49989 54000 73632 885//;
0165224380999992000011912004+65200+036820FM-12+001899999V0200501N006010075019N0140001N1-00871-01161099901ADDAY131061AY221061GF107991071031008001001001MA1999999099681MD1310021+9999MW1021REMSYN076    AAXX  19121 22438 41564 70506 11087 21116 39968 49990 53002 70232 87300;
0140224380999992000011915004+65200+036820FM-12+001899999V0200401N006010075019N0150001N1-00941-01151099901ADDAY181031AY221031GF107991071051008001001001MD1410001+9999MW1021REMSYN066AAXX  19151 22438 41565 70406 11094 21115 49990 54000 70282 87500;
0209224380999992000011918004+65200+036820FM-12+001899999V0200501N004019999999N0160001N1-01061-01171099851ADDAA100000791AY181061AY221061GF106991999051008001001001KA1999M-00731MD1810051+9999REMSYN082AAXX  19181 22438 11566 60504 11106 21117 49985 58005 69900 78082 87500 333 11073;EQDQ01+000072SCOTLCQ02+000802PRSWM1
0140224380999992000011921004+65200+036820FM-12+001899999V0200501N001010042019N0200001N1-01011-01291099741ADDAY181031AY221031GF107991071031004501001001MD1710111+9999MW1851REMSYN066AAXX  19211 22438 41470 70501 11101 21129 49974 57011 78582 87300;
0161224380999992000012000004+65200+036820FM-12+001899999V0209999C000010075019N0160001N1-01061-01341099611ADDAY181061AY221061GF107991071031008001001001MA1999999099391MD1710131+9999MW1021REMSYN072AAXX  20001 22438 41566 70000 11106 21134 39939 49961 57013 70282 87300;
0151224380999992000012003004+65200+036820FM-12+001899999V0200201N003010075019N0160001N1-01081-01381099461ADDAJ100089199999999GF108991081051008001999999IA1249MD1710151+9999REMSYN076AAXX  20031 22438 /2566 80203 11108 21138 49946 57015 885// 333 48008 55000;
0152224380999992000012006004+65200+036820FM-12+001899999V0200501N004010075019N0210001N1-01151-01351099381ADDAA100000791GF106991051051008001031001KA1999N-01111MD1610081+9999REMSYN076AAXX  20061 22438 12571 60504 11115 21135 49938 56008 69900 85530 333 21111;
0112224380999992000012009004+65200+036820FM-12+001899999V0200801N002010300019N0270001N1-01111-01391099211ADDGF106991021051008001031001MD1810171+9999REMSYN060AAXX  20091 22438 42577 60802 11111 21139 49921 58017 82530;
0133224380999992000012012004+65200+036820FM-12+001899999V0201001N001010300019N0290001N1-01211-01411099181ADDGF106991011051008001031011MA1999999098971MD1610021+9999REMSYN066AAXX  20121 22438 42579 61001 11121 21141 39897 49918 56002 81531;
0140224380999992000012015004+65200+036820FM-12+001899999V0200901N001010042019N0050001N1-01301-01461099191ADDAY181031AY221031GF107991071031004501001001MD1410001+9999MW1851REMSYN066AAXX  20151 22438 41450 70901 11130 21146 49919 54000 78582 87300;
0180224380999992000012018004+65200+036820FM-12+001899999V0200401N004012200019N0270001N1-01281-01481099081ADDAA100000791AY181061AY211061GF102991021051008001001001KA1999M-01081MD1810111+9999MW1021REMSYN082AAXX  20181 22438 11577 20404 11128 21148 49908 58011 69900 70281 82500 333 11108;
0140224380999992000012021004+65200+036820FM-12+001899999V0200201N007010075019N0210001N1-01191-01391099011ADDAY131031AY211031GF107991061051008001031001MD1610071+9999MW1361REMSYN066AAXX  20211 22438 41571 70207 11119 21139 49901 56007 73631 86530;
0180224380999992000012100004+65200+036820FM-12+001899999V0209999C000010075019N0160001N1-01061-01341999999ADDAY181061AY221061GF107991071031008001001001MA1999999099391MD1710131+9999MW1201REMSYN072AAXX  21001 22438 41566 70000 11106 21134 39939 49961 57013 72082 87300;EQDQ01+099613APOSLP
0179224380999992000012103004+65200+036820FM-12+001899999V0200301N011019999999N0045001N1-01051-01251098861ADDAJ100079199999999AY131031AY221031GF108991081001999999051999IA1299MD1810101+9999MW1381REMSYN082AAXX  21031 22438 /1945 80311 11105 21125 49886 58010 73832 8805/ 333 49007 55000;
0140224380999992000012109004+65200+036820FM-12+001899999V0200201N012019999999N0042001N1-00851-00921098741ADDAY171031AY231031GF108991081001999999021999MD1710051+9999MW1711REMSYN066AAXX  21091 22438 41942 80212 11085 21092 49874 57005 77173 8802/;
0155224380999992000012112004+65200+036820FM-12+001899999V0200201N011019999999N0044001N1-00791-00891999999ADDAY171061AY231061GF108991081001999999021999MA1999999098461MD1710061+9999MW1711REMSYN066AAXX  21121 22438 41944 80211 11079 21089 39846 57006 77173 8802/;
0140224380999992000012115004+65200+036820FM-12+001899999V0200201N013019999999N0040001N1-00751-00841098681ADDAY171031AY231031GF108991081001999999021999MD1410001+9999MW1711REMSYN066AAXX  21151 22438 41940 80213 11075 21084 49868 54000 77173 8802/;
0180224380999992000012118004+65200+036820FM-12+001899999V0200201N012019999999N0046001N1-00761-00891098741ADDAA100000891AY171061AY231061GF108991081001999999021999KA1999M-00751MD1310061+9999MW1711REMSYN082AAXX  21181 22438 11946 80212 11076 21089 49874 53006 69980 77173 8802/ 333 11075;
0140224380999992000012121004+65200+036820FM-12+001899999V0200201N010019999999N0180001N1-00831-01111098771ADDAY171031AY231031GF108991081001999999011999MD1210031+9999MW1361REMSYN066AAXX  21211 22438 41968 80210 11083 21111 49877 52003 73673 8801/;
0161224380999992000012200004+65200+036820FM-12+001899999V0200301N008019999999N0080001N1-00931-01231098821ADDAY171061AY231061GF108991081001999999011999MA1999999098601MD1210051+9999MW1361REMSYN072AAXX  22001 22438 41958 80308 11093 21123 39860 49882 52005 73673 8801/;
0180224380999992000012206004+65200+036820FM-12+001899999V0200201N003019999999N0110001N1-01041-01101099091ADDAA100000791AY131061AY221061GF107991031001999999031021KA1999M-01001MD1310201+9999MW1021REMSYN082AAXX  22061 22438 11961 70203 11104 21110 49909 53020 69900 70232 83032 333 11100;
0140224380999992000012209004+65200+036820FM-12+001899999V0203401N005010042019N0023001N1-00891-00961099131ADDAY181031AY221031GF108991081091004501999999MD1110041+9999MW1861REMSYN066AAXX  22091 22438 41423 83405 11089 21096 49913 51004 78682 889//;
0175224380999992000012212004+65200+036820FM-12+001899999V0203501N007010042019N0044001N1-00621-00811999999ADDAY181061AY231061GF108991081091004501999999MD1210051+9999MW1851REMSYN066AAXX  22121 22438 41444 83507 11062 21081 49718 52005 78583 889//;EQDQ01+097183APOSLPQ02 097183APOSLP
0159224380999992000012215004+65200+036820FM-12+001899999V0203301N008012200019N0190001N1-00741-01001099242ADDAY181031AY231031GF102991021091004501001001MD1210061+9999MW1361REMSYN066AAXX  22151 22438 41469 23308 11074 21100 49924 52006 73683 82900;EQDQ01+099243APOSLP
0150224380999992000012221004+65200+036820FM-12+001899999V0203301N008012200019N0300001N1-00961-01221099171ADDAY131031AY201031GA1001+999999999GF100991001001999999001001MD1110051+9999MW1371REMSYN060AAXX  22211 22438 41980 03308 11096 21122 49917 51005 73730;
0161224380999992000012300004+65200+036820FM-12+001899999V0203301N008019999999N0300001N1-01041-01321099421ADDAY111061AY211061GF108991041001999999031011MA1999999099201MD1210061+9999MW1361REMSYN072AAXX  23001 22438 41980 83308 11104 21132 39920 49942 52006 73611 84031;
0209224380999992000012303004+65200+036820FM-12+001899999V0203001N008019999999N0290001N1-01011-01211099701ADDAA199000091AJ100089199999999AY131031AY221031GF107991061001999999031021IA1299MD1310281+9999MW1361REMSYN082AAXX  23031 22438 31979 73008 11101 21121 49970 53028 73632 86032 333 49008 55000;EQDQ01  00002PRCP99
0163224380999992000012306004+65200+036820FM-12+001899999V0202501N007019999999N0060001N1-00891-01011099871ADDAY171061AY231061GF108991081001999999011071KA1999N-01051MD1110151+9999MW1711REMSYN076AAXX  23061 22438 41956 82507 11089 21101 49987 51015 77173 88017 333 21105;
0140224380999992000012309004+65200+036820FM-12+001899999V0203401N004010300019N0160001N1-00801-01071100081ADDAY181031AY231031GF107991031031004501071001MD1210211+9999MW1021REMSYN066AAXX  23091 22438 41466 73404 11080 21107 40008 52021 70283 83370;
0161224380999992000012312004+65200+036820FM-12+001899999V0200501N008010300019N0150001N1-01311-01511100451ADDAY181061AY231061GF107991021031004501071001MA1999999100221MD1310361+9999MW1361REMSYN072AAXX  23121 22438 41465 70508 11131 21151 30022 40045 53036 73683 82370;
0140224380999992000012315004+65200+036820FM-12+001899999V0200301N007010042019N0049001N1-01381-01581100711ADDAY181031AY231031GF107991071031004501001001MD1110261+9999MW1851REMSYN066AAXX  23151 22438 41449 70307 11138 21158 40071 51026 78583 87300;
0180224380999992000012318004+65200+036820FM-12+001899999V0200401N007010075019N0170001N1-01451-01651100911ADDAA100000191AY181061AY231061GF107991061031008001071001KA1999M-00781MD1210201+9999MW1361REMSYN082AAXX  23181 22438 11567 70407 11145 21165 40091 52020 69920 73683 86370 333 11078;
0140224380999992000012321004+65200+036820FM-12+001899999V0200401N005010042019N0042001N1-01491-01621101131ADDAY181031AY231031GF107991071031004501001001MD1210221+9999MW1851REMSYN066AAXX  23211 22438 41442 70405 11149 21162 40113 52022 78583 87300;
0161224380999992000012400004+65200+036820FM-12+001899999V0200401N004010075019N0180001N1-01511-01701101321ADDAY181061AY231061GF107991061031008001071001MA1999999101091MD1210191+9999MW1261REMSYN072AAXX  24001 22438 41568 70404 11151 21170 30109 40132 52019 72683 86370;
0152224380999992000012406004+65200+036820FM-12+001899999V0200501N005010075019N0150001N1-01511-01701101401ADDAA100000591GF108991081051008001999999KA1999N-01551MD1210041+9999REMSYN076AAXX  24061 22438 12565 80505 11151 21170 40140 52004 69960 885// 333 21155;
0133224380999992000012412004+65200+036820FM-12+001899999V0200401N003012200019N0160001N1-01561-01751101671ADDGF102991021051008001001001MA1999999101441MD1210151+9999REMSYN066AAXX  24121 22438 42566 20403 11156 21175 30144 40167 52015 82500;
0175224380999992000012418004+65200+036820FM-12+001899999V0200501N002012200019N0150001N1-01571-01761101801ADDAA199000091GA1001+999999999GF100991001001999999001001KA1999M-01481MD1110021+9999REMSYN064AAXX  24181 22438 32965 00502 11157 21176 40180 51002 333 11148;EQDQ01  00002PRCP99
0112224380999992000012421004+65200+036820FM-12+001899999V0209999C000012200019N0170001N1-01501-01701101821ADDGF103991001001999999001041MD1210021+9999REMSYN060AAXX  24211 22438 42967 30000 11150 21170 40182 52002 80004;
0133224380999992000012500004+65200+036820FM-12+001899999V0209999C000019999999N0150001N1-01461-01661101851ADDGF105991001001999999001041MA1999999101621MD1210031+9999REMSYN066AAXX  25001 22438 42965 50000 11146 21166 30162 40185 52003 80004;
0181224380999992000012503004+65200+036820FM-12+001899999V0201901N005019999999N0180001N1-01291-01491101941ADDAA199000091AJ100089199999999GF106991021001999999031011IA1299MD1310091+9999REMSYN076AAXX  25031 22438 32968 61905 11129 21149 40194 53009 82031 333 49008 55000;EQDQ01  00002PRCP99
0193224380999992000012506004+65200+036820FM-12+001899999V0202001N008010042019N0120001N1-01071-01271101251ADDAA199000091AY131061AY221061GF108991081061004501999999KA1999N-01571MD1810181+9999MW1361REMSYN076AAXX  25061 22438 31462 82008 11107 21127 40125 58018 73632 886// 333 21157;EQDQ01  00002PRCP99
0140224380999992000012509004+65200+036820FM-12+001899999V0202001N010010075019N0060001N1-00981-01151100971ADDAY131031AY221031GF108991081051008001999999MD1710281+9999MW1381REMSYN066AAXX  25091 22438 41556 82010 11098 21115 40097 57028 73832 885//;
0161224380999992000012512004+65200+036820FM-12+001899999V0202001N013010750019N0037001N1-01221-01421100881ADDAY131061AY221061GF107991021051008001001021MA1999999100661MD1610091+9999MW1381REMSYN072AAXX  25121 22438 41537 72013 11122 21142 30066 40088 56009 73832 82502;
0140224380999992000012515004+65200+036820FM-12+001899999V0202001N012019999999N0032001N1-01301-01501100941ADDAY131031AY221031GF106991001001999999001011MD1310051+9999MW1381REMSYN066AAXX  25151 22438 41932 62012 11130 21150 40094 53005 73832 80001;
0193224380999992000012518004+65200+036820FM-12+001899999V0201901N014019999999N0039001N1-01331-01531100941ADDAA199000091AY131061AY221061GF107991031001999999041021KA1999M-00971MD1410001+9999MW1381REMSYN076AAXX  25181 22438 31939 71914 11133 21153 40094 54000 73832 83042 333 11097;EQDQ01  00002PRCP99
0140224380999992000012521004+65200+036820FM-12+001899999V0202001N014019999999N0036001N1-01271-01471100881ADDAY131031AY221031GF107991021001999999041021MD1810061+9999MW1381REMSYN066AAXX  25211 22438 41936 72014 11127 21147 40088 58006 73832 82042;
0161224380999992000012600004+65200+036820FM-12+001899999V0202001N013019999999N0038001N1-01291-01491100801ADDAY131061AY221061GF106991011001999999041021MA1999999100571MD1710081+9999MW1381REMSYN072AAXX  26001 22438 41938 62013 11129 21149 30057 40080 57008 73832 81042;
0209224380999992000012603004+65200+036820FM-12+001899999V0201901N014019999999N0040001N1-01241-01441100591ADDAA199000091AJ100079199999999AY131031AY221031GF107991051001999999071021IA1299MD1810201+9999MW1381REMSYN082AAXX  26031 22438 31940 71914 11124 21144 40059 58020 73832 85072 333 49007 55000;EQDQ01  00002PRCP99
0209224380999992000012606004+65200+036820FM-12+001899999V0201901N015019999999N0050001N1-01181-01451100211ADDAA199000091AY131061AY221061GF106991001001999999001041KA1999N-01351MD1710381+9999MW1381REMSYN076AAXX  26061 22438 31950 61915 11118 21145 40021 57038 73832 86004 333 21135;EQDQ01+000062SCOTLCQ02  00002PRCP99
0190224380999992000012612004+65200+036820FM-12+001899999V0201901N017019999999N0022001N1-02261+99999099401ADDAY131061AY221061GF108991081001999999071999MA1999999099181MD1810512+9999MW1391REMSYN082AAXX  26121 22438 41922 81917 11226 21146 39918 49940 58051 73932 8807/ 333 91021;EQDQ01+000512APC3  
0150224380999992000012615004+65200+036820FM-12+001899999V0201901N027019999999N0019001N1-01211-01411099011ADDAY131031AY221031GF108991081001999999071999MD1610391+9999MW1391REMSYN076AAXX  26151 22438 41919 81927 11121 21141 49901 56039 73932 8807/ 333 91122;
0199224380999992000012618004+65200+036820FM-12+001899999V0201901N035019999999N0021001N1-01191-01411098741ADDAA199000091AY131061AY221061GF107991071001999999071999KA1120M-01061MD1610271+9999MW1391REMSYN082AAXX  26181 22438 31921 71935 11119 21141 49874 56027 73932 8707/ 333 11106 91122;EQDQ01  00002PRCP99
0150224380999992000012621004+65200+036820FM-12+001899999V0202001N013019999999N0034001N1-01081-01211098491ADDAY171031AY231031GF108991081001999999071999MD1710261+9999MW1711REMSYN076AAXX  26211 22438 41934 82013 11108 21121 49849 57026 77173 8807/ 333 91121;
0161224380999992000012700004+65200+036820FM-12+001899999V0202001N012019999999N0031001N1-01021-01151098241ADDAY171061AY231061GF108991081001999999021999MA1999999098021MD1710231+9999MW1711REMSYN072AAXX  27001 22438 41931 82012 11102 21115 39802 49824 57023 77173 8802/;
0195224380999992000012706004+65200+036820FM-12+001899999V0202101N008010075019N0150001N1-00811-01001999999ADDAA100000591AY171061AY231061GF108991051051008001021999KA1999N-01191MA1999999098051MD1710081+9999MW1021REMSYN082AAXX  27061 22438 11565 82108 11081 21100 39805 57008 69960 70273 8552/ 333 21119;
0140224380999992000012709004+65200+036820FM-12+001899999V0203201N006010075019N0040001N1-00371-00621098061ADDAY171031AY221031GF108991081001008001021999MD1310021+9999MW1711REMSYN066AAXX  27091 22438 41540 83206 11037 21062 49806 53002 77172 8802/;
0161224380999992000012712004+65200+036820FM-12+001899999V0203001N009019999999N0150001N1-00401-00591098111ADDAY171061AY221061GF107991061001999999031011MA1999999097901MD1210051+9999MW1021REMSYN072AAXX  27121 22438 41965 73009 11040 21059 39790 49811 52005 70272 86031;
0112224380999992000012715004+65200+036820FM-12+001899999V0202901N008012200019N0210001N1-00561-00781098151ADDGF102991021001999999031001MD1210041+9999REMSYN060AAXX  27151 22438 41971 22908 11056 21078 49815 52004 82030;
0162224380999992000012718004+65200+036820FM-12+001899999V0202701N005012200019N0280001N1-00771-00991098251ADDAA100000391GA1001+999999999GF100991001001999999001001KA1999M-00361MD1310091+9999REMSYN070AAXX  27181 22438 12978 02705 11077 21099 49825 53009 69930 333 11036;
0122224380999992000012721004+65200+036820FM-12+001899999V0202701N006012200019N0290001N1-00811-01041098331ADDGA1001+999999999GF100991001001999999001001MD1210081+9999REMSYN054AAXX  27211 22438 42979 02706 11081 21104 49833 52008;
0143224380999992000012800004+65200+036820FM-12+001899999V0202701N007012200019N0270001N1-00861-01101098391ADDGA1001+999999999GF100991001001999999001001MA1999999098171MD1210061+9999REMSYN060AAXX  28001 22438 42977 02707 11086 21110 39817 49839 52006;
0191224380999992000012803004+65200+036820FM-12+001899999V0202101N005012200019N0300001N1-00941-01191098481ADDAA199000091AJ100069199999999GA1001+999999999GF100991001001999999001001IA1299MD1210091+9999REMSYN070AAXX  28031 22438 32980 02105 11094 21119 49848 52009 333 49006 55000;EQDQ01  00002PRCP99
0140224380999992000012809004+65200+036820FM-12+001899999V0202101N009010075019N0260001N1-00861-01101098941ADDAY131031AY211031GF107991071051008001001001MD1310351+9999MW1361REMSYN066AAXX  28091 22438 41576 72109 11086 21110 49894 53035 73631 87500;
0140224380999992000012815004+65200+036820FM-12+001899999V0202201N008019999999N0170001N1-00891-01091098691ADDAY131031AY221031GF108991081001999999071999MD1110031+9999MW1361REMSYN066AAXX  28151 22438 41967 82208 11089 21109 49869 51003 73632 8807/;
0193224380999992000012818004+65200+036820FM-12+001899999V0202501N007010075019N0170001N1-00921-01121098741ADDAA199000091AY131061AY221061GF108991081051008001999999KA1999M-00851MD1310051+9999MW1361REMSYN076AAXX  28181 22438 31567 82507 11092 21112 49874 53005 73632 885// 333 11085;EQDQ01  00002PRCP99
0140224380999992000012821004+65200+036820FM-12+001899999V0202401N006019999999N0200001N1-01011-01141098791ADDAY131031AY221031GF107991071001999999031001MD1210061+9999MW1021REMSYN066AAXX  28211 22438 41970 72406 11101 21114 49879 52006 70232 87030;
0161224380999992000012900004+65200+036820FM-12+001899999V0202301N005019999999N0220001N1-01041-01171098851ADDAY131061AY221061GF105991051001999999031001MA1999999098631MD1210061+9999MW1021REMSYN072AAXX  29001 22438 41972 52305 11104 21117 39863 49885 52006 70232 85030;
0181224380999992000012903004+65200+036820FM-12+001899999V0202201N006019999999N0240001N1-01181-01451098901ADDAA199000091AJ100069199999999GF106991061001999999031001IA1299MD1210071+9999REMSYN076AAXX  29031 22438 32974 62206 11118 21145 49890 52007 86030 333 49006 55000;EQDQ01  00002PRCP99
0165224380999992000012906004+65200+036820FM-12+001899999V0202301N006019999999N0250001N1-01161-01431098931ADDAA199000091GF107991071001999999031001KA1999N-01181MD1110031+9999REMSYN070AAXX  29061 22438 32975 72306 11116 21143 49893 51003 87030 333 21118;EQDQ01  00002PRCP99
0112224380999992000012909004+65200+036820FM-12+001899999V0202101N006012200019N0300001N1-01151-01431099141ADDGF102991021051012501031001MD1310211+9999REMSYN060AAXX  29091 22438 42680 22106 11115 21143 49914 53021 82530;
0161224380999992000012912004+65200+036820FM-12+001899999V0201901N008012200019N0300001N1-01301-01651099201ADDAY131061AY211061GF101991011001999999031001MA1999999098981MD1110061+9999MW1361REMSYN072AAXX  29121 22438 42980 11908 11130 21165 39898 49920 51006 73631 81030;
0140224380999992000012915004+65200+036820FM-12+001899999V0201901N007012200019N0300001N1-01631-01761099221ADDAY131031AY201031GF101991011001999999031001MD1210021+9999MW1361REMSYN066AAXX  29151 22438 41980 11907 11163 21176 49922 52002 73630 81030;
0203224380999992000012918004+65200+036820FM-12+001899999V0201801N007012200019N0280001N1-01701-01831099091ADDAA199000091AY131061AY201061GA1001+999999999GF100991001001999999001001KA1999M-01141MD1810131+9999MW1361REMSYN070AAXX  29181 22438 31978 01807 11170 21183 49909 58013 73630 333 11114;EQDQ01  00002PRCP99
0140224380999992000012921004+65200+036820FM-12+001899999V0201501N009010075019N0160001N1-01221-01351098851ADDAY131031AY211031GF107991071051008001001001MD1710241+9999MW1361REMSYN066AAXX  29211 22438 41566 71509 11122 21135 49885 57024 73631 87500;
0161224380999992000013000004+65200+036820FM-12+001899999V0201501N009010075019N0140001N1-01061-01121098581ADDAY131061AY211061GF108991081051008001999999MA1999999098361MD1710271+9999MW1361REMSYN072AAXX  30001 22438 41564 81509 11106 21112 39836 49858 57027 73631 885//;
0193224380999992000013006004+65200+036820FM-12+001899999V0201701N014010075019N0120001N1-00471-00571097921ADDAA199000091AY131061AY221061GF108991081051008001999999KA1999N-01701MD1710351+9999MW1381REMSYN076AAXX  30061 22438 31562 81714 11047 21057 49792 57035 73832 885// 333 21170;EQDQ01  00002PRCP99
0140224380999992000013009004+65200+036820FM-12+001899999V0201701N015010075019N0036001N1-00331-00391097791ADDAY181031AY231031GF108991081031008001999999MD1610141+9999MW1851REMSYN066AAXX  30091 22438 41536 81715 11033 21039 49779 56014 78583 883//;
0161224380999992000013012004+65200+036820FM-12+001899999V0201701N014019999999N0050001N1-00061-00271097671ADDAY181061AY231061GF108991031999008001999999MA1999999097461MD1710111+9999MW1381REMSYN072AAXX  30121 22438 41550 81714 11006 21027 39746 49767 57011 73883 83///;
0140224380999992000013015004+65200+036820FM-12+001899999V0201701N014010075019N0045001N1-00031-00241097621ADDAY131031AY221031GF108991081051008001999999MD1610051+9999MW1381REMSYN066AAXX  30151 22438 41545 81714 11003 21024 49762 56005 73832 885//;
0180224380999992000013018004+65200+036820FM-12+001899999V0201801N014010075019N0150001N1-00011-00181097571ADDAA100000391AY131061AY221061GF108991081051008001999999KA1999M-00031MD1710051+9999MW1021REMSYN082AAXX  30181 22438 11565 81814 11001 21018 49757 57005 69930 70232 885// 333 11003;
0112224380999992000013021004+65200+036820FM-12+001899999V0201701N013010075019N0180001N1+00001-00201097561ADDGF107991071051008001001001MD1610011+9999REMSYN060AAXX  30211 22438 42568 71713 10000 21020 49756 56001 87500;
0133224380999992000013100004+65200+036820FM-12+001899999V0201801N013010075019N0200001N1-00031-00271097561ADDGF105991051051008001001001MA1999999097351MD1410001+9999REMSYN066AAXX  31001 22438 42570 51813 11003 21027 39735 49756 54000 85500;
0181224380999992000013103004+65200+036820FM-12+001899999V0201701N011010075019N0210001N1+00021-00121097171ADDAA199000091AJ100089199999999GF108991081051008001999999IA1299MD1710251+9999REMSYN076AAXX  31031 22438 32571 81711 10002 21012 49717 57025 885// 333 49008 55000;EQDQ01  00002PRCP99
0165224380999992000013106004+65200+036820FM-12+001899999V0201701N012010075019N0180001N1+00051-00121096941ADDAA199000091GF108991081051008001999999KA1999N-00031MD1710331+9999REMSYN070AAXX  31061 22438 32568 81712 10005 21012 49694 57033 885// 333 21003;EQDQ01  00002PRCP99
0140224380999992000013109004+65200+036820FM-12+001899999V0201701N012010075019N0033001N1+00021-00091096811ADDAY171031AY231031GF108991081001008001021999MD1610131+9999MW1711REMSYN066AAXX  31091 22438 41533 81712 10002 21009 49681 56013 77173 8802/;
0161224380999992000013112004+65200+036820FM-12+001899999V0202001N012010075019N0039001N1-00501-00571097071ADDAY171061AY231061GF107991061051008001031001MA1999999096861MD1310201+9999MW1381REMSYN072AAXX  31121 22438 41539 72012 11050 21057 39686 49707 53020 73873 86530;
0140224380999992000013115004+65200+036820FM-12+001899999V0202401N013010042019N0029001N1-00761-00811097361ADDAY181031AY231031GF107991061091004501031001MD1210291+9999MW1851REMSYN066AAXX  31151 22438 41429 72413 11076 21081 49736 52029 78583 86930;
0180224380999992000013118004+65200+036820FM-12+001899999V0202401N013010042019N0038001N1-00781-00841097521ADDAA100000591AY181061AY231061GF107991071091004501001001KA1999M+00061MD1110161+9999MW1851REMSYN082AAXX  31181 22438 11438 72413 11078 21084 49752 51016 69950 78583 87900 333 10006;
0140224380999992000013121004+65200+036820FM-12+001899999V0202401N013010075019N0039001N1-00811-00871097701ADDAY181031AY231031GF107991071091008001001001MD1210181+9999MW1381REMSYN066AAXX  31211 22438 41539 72413 11081 21087 49770 52018 73883 87900;
0161224380999992000020100004+65200+036820FM-12+001899999V0202401N012010075019N0040001N1-00831-00891097841ADDAY181061AY231061GF107991061091008001071001MA1999999097621MD1210141+9999MW1381REMSYN072AAXX  01001 22438 41540 72412 11083 21089 39762 49784 52014 73883 86970;
0179224380999992000020103004+65200+036820FM-12+001899999V0201801N009012200019N0200001N1-00891-01001097641ADDAJ100069199999999AY131031AY211031GF102991021001999999071001IA1249MD1810201+9999MW1361REMSYN082AAXX  01031 22438 /1970 21809 11089 21100 49764 58020 73631 82070 333 48006 55000;
0180224380999992000020106004+65200+036820FM-12+001899999V0201901N007010075019N0160001N1-00781-00841097481ADDAA100000591AY131061AY211061GF107991071051008001001001KA1999N-00971MD1710161+9999MW1361REMSYN082AAXX  01061 22438 11566 71907 11078 21084 49748 57016 69940 73631 87500 333 21097;
0159224380999992000020109004+65200+036820FM-12+001899999V0201801N007010042019N0015001N1-00781-00841999999ADDAY181031AY231031GF108991081091004501999999MD1610041+9999MW1851REMSYN066AAXX  01091 22438 41415 81807 11078 21084 49944 56004 78583 889//;EQDQ01+099443APOSLP
0161224380999992000020112004+65200+036820FM-12+001899999V0202301N003010075019N0190001N1-00741-00831097491ADDAY181061AY231061GF106991061031008001001001MA1999999097281MD1310061+9999MW1021REMSYN072AAXX  01121 22438 41569 62303 11074 21083 39728 49749 53006 70283 86300;
0140224380999992000020115004+65200+036820FM-12+001899999V0202401N009010075019N0200001N1-00761-00981097681ADDAY131031AY221031GF107991071051008001001001MD1210191+9999MW1361REMSYN066AAXX  01151 22438 41570 72409 11076 21098 49768 52019 73632 87500;
0199224380999992000020118004+65200+036820FM-12+001899999V0202601N007010075019N0180001N1-00771-00851999999ADDAA100000591AY131061AY221061GF108991081091008001999999KA1999M-00731MD1810031+9999MW1361REMSYN082AAXX  01181 22438 11568 82607 11077 21085 49865 58003 69960 73632 889// 333 11073;EQDQ01+098653APOSLP
0140224380999992000020121004+65200+036820FM-12+001899999V0202701N012010042019N0015001N1-00721-00811097651ADDAY181031AY231031GF108991081091004501999999MD1410001+9999MW1861REMSYN066AAXX  01211 22438 41415 82712 11072 21081 49765 54000 78683 889//;
0161224380999992000020200004+65200+036820FM-12+001899999V0202701N012010042019N0035001N1-00691-00741097681ADDAY181061AY231061GF107991071091004501001001MA1999999097471MD1310031+9999MW1851REMSYN072AAXX  02001 22438 41435 72712 11069 21074 39747 49768 53003 78583 87900;
0180224380999992000020206004+65200+036820FM-12+001899999V0202501N011010075019N0230001N1-00611-00801097961ADDAA100000891AY181061AY231061GF108991081051008001999999KA1999N-00781MD1210161+9999MW1021REMSYN082AAXX  02061 22438 11573 82511 11061 21080 49796 52016 69980 70283 885// 333 21078;
0112224380999992000020209004+65200+036820FM-12+001899999V0202501N007010075019N0200001N1-00561-00741098041ADDGF108991081051008001999999MD1110081+9999REMSYN060AAXX  02091 22438 42570 82507 11056 21074 49804 51008 885//;
0161224380999992000020212004+65200+036820FM-12+001899999V0202101N003010042019N0048001N1-00581-00651098071ADDAY171061AY221061GF108991081061004501999999MA1999999097861MD1210031+9999MW1771REMSYN072AAXX  02121 22438 41448 82103 11058 21065 39786 49807 52003 77772 886//;
0140224380999992000020215004+65200+036820FM-12+001899999V0202301N005019999999N0160001N1-00621-00701098051ADDAY171031AY221031GF108991081001999999021999MD1810021+9999MW1021REMSYN066AAXX  02151 22438 41966 82305 11062 21070 49805 58002 70272 8802/;
0180224380999992000020218004+65200+036820FM-12+001899999V0202301N004019999999N0170001N1-00641-00761098051ADDAA100000791AY171061AY221061GF108991081001999999021999KA1999M-00561MD1410001+9999MW1021REMSYN082AAXX  02181 22438 11967 82304 11064 21076 49805 54000 69900 70272 8802/ 333 11056;
0140224380999992000020221004+65200+036820FM-12+001899999V0202101N003019999999N0042001N1-00641-00681098011ADDAY171031AY221031GF108991081001999999021999MD1810041+9999MW1711REMSYN066AAXX  02211 22438 41942 82103 11064 21068 49801 58004 77172 8802/;
0161224380999992000020300004+65200+036820FM-12+001899999V0202101N002019999999N0046001N1-00671-00721097961ADDAY171061AY221061GF108991081001999999021999MA1999999097751MD1710051+9999MW1711REMSYN072AAXX  03001 22438 41946 82102 11067 21072 39775 49796 57005 77172 8802/;
0169224380999992000020303004+65200+036820FM-12+001899999V0203001N003019999999N0040001N1-00681-00731098051ADDAY171031AY221031GF108991081001999999021999KA1120N-00681MD1310091+9999MW1711REMSYN082AAXX  03031 22438 /1940 83003 11068 21073 49805 53009 77172 8802/ 333 21068 55000;
0174224380999992000020306004+65200+036820FM-12+001899999V0203001N004010075019N0180001N1-00561-00731999999ADDAA100000591AY171061AY221061GF108991081051008001999999KA1999N-00681MD1210151+9999MW1021REMSYN076AAXX  03061 22438 11568 83004 11056 21073 52015 69940 70272 885// 333 21068;
0133224380999992000020312004+65200+036820FM-12+001899999V0202801N004010042019N0200001N1-00711-00881098631ADDGF108991081061004501999999MA1999999098421MD1210241+9999REMSYN066AAXX  03121 22438 42470 82804 11071 21088 39842 49863 52024 886//;
0140224380999992000020315004+65200+036820FM-12+001899999V0202901N007010042019N0140001N1-00821-00921098901ADDAY131031AY221031GF108991081061004501999999MD1210261+9999MW1361REMSYN066AAXX  03151 22438 41464 82907 11082 21092 49890 52026 73632 886//;
0180224380999992000020318004+65200+036820FM-12+001899999V0202601N004012200019N0240001N1-01191-01321099041ADDAA100000791AY131061AY211061GF102991021001999999031001KA1999M-00581MD1110141+9999MW1021REMSYN082AAXX  03181 22438 11974 22604 11119 21132 49904 51014 69900 70231 82030 333 11058;
0112224380999992000020321004+65200+036820FM-12+001899999V0202801N005010075019N0190001N1-01211-01271099141ADDGF107991071051008001001001MD1210101+9999REMSYN060AAXX  03211 22438 42569 72805 11121 21127 49914 52010 87500;
0133224380999992000020400004+65200+036820FM-12+001899999V0202901N006010075019N0180001N1-01051-01111099221ADDGF107991071051008001001001MA1999999099001MD1210081+9999REMSYN066AAXX  04001 22438 42568 72906 11105 21111 39900 49922 52008 87500;
0181224380999992000020403004+65200+036820FM-12+001899999V0203101N006012200019N0190001N1-01261-01321099341ADDAA199000091AJ100069199999999GF103991031001999999031001IA1299MD1210121+9999REMSYN076AAXX  04031 22438 32969 33106 11126 21132 49934 52012 83030 333 49006 55000;EQDQ01  00002PRCP99
0122224380999992000020409004+65200+036820FM-12+001899999V0202301N004012200019N0290001N1-01091-01291099591ADDGA1001+999999999GF100991001001999999001001MD1210121+9999REMSYN054AAXX  04091 22438 42979 02304 11109 21129 49959 52012;
0155224380999992000020412004+65200+036820FM-12+001899999V0202001N005019999999N0300001N1-01061-01261099421ADDAY101061AY211061GF106991999999999999999999MA1999999099201MD1810101+9999MW1001REMSYN066AAXX  04121 22438 42980 62005 11106 21126 39920 49942 5801/ 70001;
0112224380999992000020415004+65200+036820FM-12+001899999V0201801N006019999999N0300001N1-01081-01211099271ADDGF107991031001999999031011MD1710151+9999REMSYN060AAXX  04151 22438 42980 71806 11108 21121 49927 57015 83031;
0165224380999992000020418004+65200+036820FM-12+001899999V0201701N006019999999N0140001N1-01131-01261099051ADDAA199000091GF107991071001999999071001KA1999M-01061MD1710221+9999REMSYN070AAXX  04181 22438 32964 71706 11113 21126 49905 57022 87070 333 11106;EQDQ01  00002PRCP99
0112224380999992000020421004+65200+036820FM-12+001899999V0201601N005010075019N0200001N1-01181-01241098851ADDGF108991051051008001071999MD1710201+9999REMSYN060AAXX  04211 22438 41570 81605 11118 21124 49885 57020 8557/;
0133224380999992000020500004+65200+036820FM-12+001899999V0201001N005010075019N0200001N1-01231-01291098651ADDGF108991081051008001999999MA1999999099431MD1710201+9999REMSYN066AAXX  05001 22438 42570 81005 11123 21129 39943 49865 57020 885//;
0174224380999992000020506004+65200+036820FM-12+001899999V0201001N006019999999N0040001N1-00771-00831099011ADDAA199000021AY171061AY221061GF108991081001999999021999KA1999N-01231MD1210371+9999MW1701REMSYN076AAXX  05061 22438 31940 81006 11077 21083 49901 52037 77072 8802/ 333 21123;
0140224380999992000020509004+65200+036820FM-12+001899999V0201201N004019999999N0120001N1-00821-01051099141ADDAY171031AY221031GF106991011001999999031041MD1210131+9999MW1021REMSYN066AAXX  05091 22438 41962 61204 11082 21105 49914 52013 70272 81034;
0180224380999992000020512004+65200+036820FM-12+001899999V0209999C000019999999N0150001N1-00821-01091099651ADDAY171061AY221061GF106991999001999999031001MA1999999099431MD1210291+9999MW1021REMSYN072AAXX  05121 22438 41965 60000 11082 21109 39943 49965 52029 70272 84030;EQDQ01+000042SCOTLC
0112224380999992000020515004+65200+036820FM-12+001899999V0201701N001019999999N0170001N1-00931-01091099881ADDGF106991061001999999031001MD1210231+9999REMSYN060AAXX  05151 22438 42967 61701 11093 21109 49988 52023 86030;
0180224380999992000020518004+65200+036820FM-12+001899999V0201701N001019999999N0045001N1-00961-01081100051ADDAA100000391AY171061AY221061GF108991081001999999021999KA1999M-00771MD1210171+9999MW1711REMSYN082AAXX  05181 22438 11945 81701 11096 21108 40005 52017 69930 77172 8802/ 333 11077;
0140224380999992000020521004+65200+036820FM-12+001899999V0202301N002019999999N0180001N1-00771-00951100161ADDAY171031AY221031GF108991081001999999051999MD1210111+9999MW1021REMSYN066AAXX  05211 22438 41968 82302 11077 21095 40016 52011 70272 8805/;
0161224380999992000020600004+65200+036820FM-12+001899999V0202601N002019999999N0190001N1-00751-00971100241ADDAY171061AY221061GF108991081001999999051999MA1999999100021MD1210081+9999MW1021REMSYN072AAXX  06001 22438 41969 82602 11075 21097 30002 40024 52008 70272 8805/;
0151224380999992000020603004+65200+036820FM-12+001899999V0202301N004019999999N0190001N1-00751-00941100311ADDAJ100069199999999GF108991081001999999051999IA1299MD1210071+9999REMSYN076AAXX  06031 22438 /2969 82304 11075 21094 40031 52007 8805/ 333 49006 55000;
0152224380999992000020606004+65200+036820FM-12+001899999V0201301N003019999999N0160001N1-00831-00891100321ADDAA100000791GF108991081001999999071999KA1999N-00861MD1110011+9999REMSYN076AAXX  06061 22438 32966 81303 11083 21089 40032 51001 69900 8807/ 333 21086;
0112224380999992000020609004+65200+036820FM-12+001899999V0201501N005010075019N0160001N1-00901-00971100251ADDGF108991051051008001071999MD1810071+9999REMSYN060AAXX  06091 22438 42566 81505 11090 21097 40025 58007 8557/;
0161224380999992000020612004+65200+036820FM-12+001899999V0201901N009010075019N0140001N1-00811-00921100121ADDAY131061AY221061GF108991071051008001999999MA1999999099901MD1710131+9999MW1361REMSYN072AAXX  06121 22438 41564 81909 11081 21092 39990 40012 57013 73632 875//;
0140224380999992000020615004+65200+036820FM-12+001899999V0201801N009012200019N0180001N1-00991-01111099791ADDAY131031AY211031GF103991021051008001001011MD1810331+9999MW1361REMSYN066AAXX  06151 22438 41568 31809 11099 21111 49979 58033 73631 82501;
0193224380999992000020618004+65200+036820FM-12+001899999V0201601N009012200019N0170001N1-00891-01111099241ADDAA199000091AY131061AY211061GF104991021051008001031011KA1999M-00751MD1810551+9999MW1361REMSYN076AAXX  06181 22438 31567 41609 11089 21111 49924 58055 73631 82531 333 11075;EQDQ01  00002PRCP99
0140224380999992000020621004+65200+036820FM-12+001899999V0201601N009010075019N0160001N1-00951-01021099801ADDAY141031AY211031GF108991081051008001999999MD1710441+9999MW1361REMSYN066AAXX  06211 22438 41566 81609 11095 21102 49980 57044 73641 885//;
0180224380999992000020700004+65200+036820FM-12+001899999V0201601N009010075019N0150001N1-00991-01001098402ADDAY131061AY211061GF108991081051008001999999MA1999999098181MD1710401+9999MW1361REMSYN072AAXX  07001 22438 41565 81609 11099 21100 39818 49840 57040 73631 885//;EQDQ01+098403APOSLP
0209224380999992000020703004+65200+036820FM-12+001899999V0201801N007010075019N0170001N1-00871-00981098391ADDAA199000091AJ100069199999999AY131031AY221031GF108991081051008001999999IA1299MD1610011+9999MW1361REMSYN082AAXX  07031 22438 31567 81807 11087 21098 49839 56001 73632 885// 333 49006 55000;EQDQ01  00002PRCP99
0193224380999992000020706004+65200+036820FM-12+001899999V0203001N008010075019N0180001N1-00831-00891098511ADDAA199000091AY131061AY221061GF108991081051008001999999KA1999N-01021MD1310121+9999MW1361REMSYN076AAXX  07061 22438 31568 83008 11083 21089 49851 53012 73632 885// 333 21102;EQDQ01  00002PRCP99
0140224380999992000020709004+65200+036820FM-12+001899999V0202901N005010075019N0200001N1-00801-00901098771ADDAY131031AY221031GF108991061051008001071999MD1210261+9999MW1021REMSYN066AAXX  07091 22438 41570 82905 11080 21090 49877 52026 70232 8657/;
0161224380999992000020712004+65200+036820FM-12+001899999V0202501N007019999999N0350001N1-00341-00591098981ADDAY131061AY221061GF106991061001999999071001MA1999999098771MD1110221+9999MW1361REMSYN072AAXX  07121 22438 41981 62507 11034 21059 39877 49898 51022 73632 86070;
0140224380999992000020715004+65200+036820FM-12+001899999V0202301N006019999999N0350001N1-00471-00711099121ADDAY131031AY211031GF105991031001999999031011MD1310141+9999MW1021REMSYN066AAXX  07151 22438 41981 52306 11047 21071 49912 53014 70231 83031;
0193224380999992000020718004+65200+036820FM-12+001899999V0202001N008012200019N0300001N1-00621-00851099161ADDAA199000091AY131061AY211061GF102991021001999999031011KA1999M-00321MD1110031+9999MW1361REMSYN076AAXX  07181 22438 31980 22008 11062 21085 49916 51003 73631 82031 333 11032;EQDQ01  00002PRCP99
0140224380999992000020721004+65200+036820FM-12+001899999V0201901N007019999999N0260001N1-00601-00791099011ADDAY131031AY211031GF105991051001999999061001MD1810151+9999MW1361REMSYN066AAXX  07211 22438 41976 51907 11060 21079 49901 58015 73631 85060;
0161224380999992000020800004+65200+036820FM-12+001899999V0201901N008010075019N0210001N1-00661-00821098811ADDAY131061AY211061GF106991061051008001001001MA1999999098591MD1710111+9999MW1361REMSYN072AAXX  08001 22438 41571 61908 11066 21082 39859 49881 57011 73631 86500;
0180224380999992000020806004+65200+036820FM-12+001899999V0201801N010019999999N0044001N1-00061-00101098331ADDAA100000391AY171061AY231061GF108991081001999999021999KA1999N-00661MD1710241+9999MW1711REMSYN082AAXX  08061 22438 11944 81810 11006 21010 49833 57024 69930 77173 8802/ 333 21066;
0160224380999992000020809004+65200+036820FM-12+001899999V0201901N010019999999N0130001N1-00011-00061098241ADDAY171031AY231031GA1021+008109029GF108991999999004501999999MD1710031+9999MW1361REMSYN070AAXX  08091 22438 41463 81910 11001 21006 49824 57003 73673 333 82527;
0161224380999992000020812004+65200+036820FM-12+001899999V0201901N002010300019N0040001N1+00001-00031098161ADDAY171061AY231061GF108991031051008001021999MA1999999097941MD1710081+9999MW1711REMSYN072AAXX  08121 22438 41540 81902 10000 21003 39794 49816 57008 77173 8352/;
0159224380999992000020815004+65200+036820FM-12+001899999V0201901N007010075019N0220001N1-00031-00121098081ADDAY171031AY231031GF107991999051008001001001MD1710081+9999MW1021REMSYN066AAXX  08151 22438 41572 71907 11003 21012 49808 57008 70273 86500;EQDQ01+000062SCOTLC
0180224380999992000020818004+65200+036820FM-12+001899999V0202001N009019999999N0040001N1+00001-00031098011ADDAA100000591AY171061AY231061GF108991081001999999021999KA1999M+00001MD1710071+9999MW1711REMSYN082AAXX  08181 22438 11940 82009 10000 21003 49801 57007 69950 77173 8802/ 333 10000;
0140224380999992000020821004+65200+036820FM-12+001899999V0202101N008019999999N0210001N1+00031-00081098051ADDAY171031AY231031GF108991081001999999021999MD1310031+9999MW1021REMSYN066AAXX  08211 22438 41971 82108 10003 21008 49805 53003 70273 8802/;
0161224380999992000020900004+65200+036820FM-12+001899999V0202101N007019999999N0200001N1+00011-00071098061ADDAY171061AY231061GF108991081001999999021999MA1999999097851MD1210021+9999MW1021REMSYN072AAXX  09001 22438 41970 82107 10001 21007 39785 49806 52002 70273 8802/;
0151224380999992000020903004+65200+036820FM-12+001899999V0202201N008019999999N0200001N1+00031-00081098151ADDAJ100069199999999GF108991081001999999071999IA1299MD1210091+9999REMSYN076AAXX  09031 22438 /2970 82208 10003 21008 49815 52009 8807/ 333 49006 55000;
0152224380999992000020906004+65200+036820FM-12+001899999V0201901N007019999999N0210001N1+00001-00111098241ADDAA100000191GF108991081001999999071999KA1999N-00031MD1210091+9999REMSYN076AAXX  09061 22438 12971 81907 10000 21011 49824 52009 69920 8807/ 333 21003;
0112224380999992000020909004+65200+036820FM-12+001899999V0202001N008010075019N0200001N1-00041-00171098391ADDGF108991081051008001999999MD1110151+9999REMSYN060AAXX  09091 22438 42570 82008 11004 21017 49839 51015 885//;
0112224380999992000020915004+65200+036820FM-12+001899999V0202401N003010075019N0600001N1-00171-00341098761ADDGF107991071051008001001001MD1210181+9999REMSYN060AAXX  09151 22438 42586 72403 11017 21034 49876 52018 87500;
0165224380999992000020918004+65200+036820FM-12+001899999V0202301N004010075019N0220001N1-00291-00421098901ADDAA199000091GF106991061051008001001001KA1999M+00031MD1210141+9999REMSYN070AAXX  09181 22438 32572 62304 11029 21042 49890 52014 86500 333 10003;EQDQ01  00002PRCP99
0122224380999992000020921004+65200+036820FM-12+001899999V0202301N005012200019N0300001N1-00551-00661099031ADDGA1001+999999999GF100991001001999999001001MD1210131+9999REMSYN054AAXX  09211 22438 42980 02305 11055 21066 49903 52013;
0143224380999992000021000004+65200+036820FM-12+001899999V0202301N005012200019N0300001N1-00711-00801099171ADDGA1001+999999999GF100991001001999999001001MA1999999098951MD1210141+9999REMSYN060AAXX  10001 22438 42980 02305 11071 21080 39895 49917 52014;
0181224380999992000021003004+65200+036820FM-12+001899999V0202101N006019999999N0250001N1-00691-00781099351ADDAA199000091AJ100069199999999GF106991061051999999001001IA1299MD1210181+9999REMSYN076AAXX  10031 22438 32975 62106 11069 21078 49935 52018 86500 333 49006 55000;EQDQ01  00002PRCP99
0135224380999992000021006004+65200+036820FM-12+001899999V0202101N005012200019N0300001N1-00751-00811099501ADDGF105991021051008001001011KA1999N-00751MD1210151+9999REMSYN070AAXX  10061 22438 42580 52105 11075 21081 49950 52015 82501 333 21075;
0112224380999992000021009004+65200+036820FM-12+001899999V0202301N006012200019N0350001N1-00711-00921099741ADDGF104991021061008001001011MD1310141+9999REMSYN060AAXX  10091 22438 42581 42306 11071 21092 49974 53014 82601;
0133224380999992000021012004+65200+036820FM-12+001899999V0202201N007012200019N0300001N1-00791-00971099921ADDGF103991031041008001001001MA1999999099701MD1210181+9999REMSYN066AAXX  10121 22438 42580 32207 11079 21097 39970 49992 52018 83400;
0112224380999992000021015004+65200+036820FM-12+001899999V0202001N006012200019N0280001N1-01021-01151100041ADDGF102991021001999999031001MD1210121+9999REMSYN060AAXX  10151 22438 42978 22006 11102 21115 40004 52012 82030;
0209224380999992000021018004+65200+036820FM-12+001899999V0201901N008012200019N0240001N1-00981-01101100031ADDAA199000091AY131061AY201061GF102991999001999999031001KA1999M-00641MD1810011+9999MW1361REMSYN076AAXX  10181 22438 31974 21908 11098 21110 40003 58001 73630 81030 333 11064;EQDQ01+000012SCOTLCQ02  00002PRCP99
0140224380999992000021021004+65200+036820FM-12+001899999V0201901N013010075019N0080001N1-00921-00991099781ADDAY131031AY211031GF108991081051008001999999MD1810251+9999MW1381REMSYN066AAXX  10211 22438 41558 81913 11092 21099 49978 58025 73831 885//;
0161224380999992000021100004+65200+036820FM-12+001899999V0201901N013010075019N0060001N1-00851-00921099471ADDAY131061AY211061GF108991081051008001999999MA1999999099251MD1710311+9999MW1381REMSYN072AAXX  11001 22438 41556 81913 11085 21092 39925 49947 57031 73831 885//;
0193224380999992000021106004+65200+036820FM-12+001899999V0201901N016010075019N0210001N1-00151-00421099101ADDAA199000091AY131061AY221061GF108991081051008001999999KA1999N-01051MD1710171+9999MW1371REMSYN076AAXX  11061 22438 31571 81916 11015 21042 49910 57017 73732 885// 333 21105;EQDQ01  00002PRCP99
0159224380999992000021109004+65200+036820FM-12+001899999V0201901N015010075019N0120001N1-00151-00351999999ADDAY131031AY221031GF108991081051008001999999MD1710111+9999MW1371REMSYN066AAXX  11091 22438 41562 81915 11015 21035 49799 57011 73732 885//;EQDQ01+097993APOSLP
0161224380999992000021112004+65200+036820FM-12+001899999V0202001N016010042019N0040001N1-00111-00181098861ADDAY181061AY231061GF108991081031004501999999MA1999999098651MD1710131+9999MW1381REMSYN072AAXX  11121 22438 41440 82016 11011 21018 39865 49886 57013 73883 883//;
0159224380999992000021115004+65200+036820FM-12+001899999V0202001N015019999999N0180001N1-00081-00241098891ADDAY131031AY221031GF107991999051008001001001MD1310031+9999MW1371REMSYN066AAXX  11151 22438 41568 72015 11008 21024 49889 53003 73732 88500;EQDQ01+000082SCOTLC
0180224380999992000021118004+65200+036820FM-12+001899999V0202001N011010075019N0210001N1-00031-00211098911ADDAA100000791AY131061AY221061GF105991051051008001001001KA1999M-00081MD1210021+9999MW1361REMSYN082AAXX  11181 22438 11571 52011 11003 21021 49891 52002 69900 73632 85500 333 11008;
0140224380999992000021121004+65200+036820FM-12+001899999V0202001N010012200019N0220001N1-00061-00241098971ADDAY131031AY211031GF103991031051008001001001MD1310061+9999MW1361REMSYN066AAXX  11211 22438 41572 32010 11006 21024 49897 53006 73631 83500;
0161224380999992000021200004+65200+036820FM-12+001899999V0202001N008012200019N0200001N1-00111-00301099021ADDAY131061AY211061GF102991021051008001001001MA1999999098811MD1210051+9999MW1361REMSYN072AAXX  12001 22438 41570 22008 11011 21030 39881 49902 52005 73631 82500;
0209224380999992000021203004+65200+036820FM-12+001899999V0202001N009010075019N0220001N1-00171-00281098991ADDAA199000091AJ100079199999999AY131031AY211031GF105991051051008001001001IA1299MD1210031+9999MW1361REMSYN082AAXX  12031 22438 31572 52009 11017 21028 49899 52003 73631 85500 333 49007 55000;EQDQ01  00002PRCP99
0193224380999992000021206004+65200+036820FM-12+001899999V0202101N012010075019N0030001N1-00151-00291099051ADDAA199000091AY131061AY221061GF108991081051008001999999KA1999N-00181MD1410001+9999MW1381REMSYN076AAXX  12061 22438 31530 82112 11015 21029 49905 54000 73832 885// 333 21018;EQDQ01  00002PRCP99
0140224380999992000021209004+65200+036820FM-12+001899999V0202301N006010075019N0200001N1-00181-00291099241ADDAY131031AY221031GF107991071051008001001001MD1310191+9999MW1021REMSYN066AAXX  12091 22438 41570 72306 11018 21029 49924 53019 70232 87500;
0161224380999992000021212004+65200+036820FM-12+001899999V0202601N006010075019N0210001N1-00041-00191099581ADDAY131061AY221061GF107991071051008001001001MA1999999099371MD1210341+9999MW1021REMSYN072AAXX  12121 22438 41571 72606 11004 21019 39937 49958 52034 70232 87500;
0131224380999992000021215004+65200+036820FM-12+001899999V0202801N006012200019N0300001N1-00281-00471099751ADDGF101991011001999999031001MD1210171+9999REMSYN060AAXX  12151 22438 42980 12806 11028 21047 49975 52050 81030;EQDQ01+000502APC3  
0175224380999992000021218004+65200+036820FM-12+001899999V0202801N006012200019N0350001N1-00381-00601100201ADDAA199000091GA1001+999999999GF100991001001999999001001KA1999M-00031MD1110241+9999REMSYN064AAXX  12181 22438 32981 02806 11038 21060 40020 51024 333 11003;EQDQ01  00002PRCP99
0122224380999992000021221004+65200+036820FM-12+001899999V0202801N003012200019N0350001N1-00471-00671100441ADDGA1001+999999999GF100991001001999999001001MD1210241+9999REMSYN054AAXX  12211 22438 42981 02803 11047 21067 40044 52024;
0143224380999992000021300004+65200+036820FM-12+001899999V0202801N003012200019N0350001N1-00621-00771100661ADDGA1001+999999999GF100991001001999999001001MA1999999100441MD1210221+9999REMSYN060AAXX  13001 22438 42981 02803 11062 21077 30044 40066 52022;
0181224380999992000021303004+65200+036820FM-12+001899999V0201901N006012200019N0300001N1-00711-00841100531ADDAA199000091AJ100079199999999GF103991001001999999001011IA1299MD1810131+9999REMSYN076AAXX  13031 22438 32980 31906 11071 21084 40053 58013 80001 333 49007 55000;EQDQ01  00002PRCP99
0165224380999992000021306004+65200+036820FM-12+001899999V0202001N006012200019N0350001N1-00491-00661100531ADDAA199000091GF105991021051008001001011KA1999N-00711MD1410001+9999REMSYN070AAXX  13061 22438 32581 52006 11049 21066 40053 54000 82501 333 21071;EQDQ01  00002PRCP99
0140224380999992000021309004+65200+036820FM-12+001899999V0201801N005010042019N0090001N1-00461-00491100481ADDAY111031AY221031GF108991081061004501999999MD1810051+9999MW1101REMSYN066AAXX  13091 22438 41459 81805 11046 21049 40048 58005 71012 886//;
0133224380999992000021312004+65200+036820FM-12+001899999V0201801N006010075019N0160001N1-00241-00271100401ADDGF108991081051008001999999MA1999999100191MD1710071+9999REMSYN066AAXX  13121 22438 42566 81806 11024 21027 30019 40040 57007 885//;
0112224380999992000021315004+65200+036820FM-12+001899999V0201801N005010075019N0170001N1-00281-00351100451ADDGF108991081051008001999999MD1710051+9999REMSYN060AAXX  13151 22438 42567 81805 11028 21035 40045 57005 885//;
0165224380999992000021318004+65200+036820FM-12+001899999V0201501N005012200019N0240001N1-00341-00451100291ADDAA199000091GF106991031051008001001011KA1999M-00231MD1710071+9999REMSYN070AAXX  13181 22438 32574 61505 11034 21045 40029 57007 83501 333 11023;EQDQ01  00002PRCP99
0112224380999992000021321004+65200+036820FM-12+001899999V0201601N006010075019N0200001N1-00371-00451100211ADDGF108991081051008001999999MD1710071+9999REMSYN060AAXX  13211 22438 42570 81606 11037 21045 40021 57007 885//;
0133224380999992000021400004+65200+036820FM-12+001899999V0201801N007010075019N0190001N1-00411-00501100141ADDGF108991081051008001999999MA1999999099921MD1710081+9999REMSYN066AAXX  14001 22438 42569 81807 11041 21050 39992 40014 57008 885//;
0174224380999992000021406004+65200+036820FM-12+001899999V0201501N005010075019N0040001N1-00101-00171099811ADDAA199000021AY181061AY221061GF108991081031008001999999KA1999N-00411MD1710121+9999MW1851REMSYN076AAXX  14061 22438 31540 81505 11010 21017 49981 57012 78582 883// 333 21041;
0140224380999992000021409004+65200+036820FM-12+001899999V0201601N006019999999N0200001N1-00131-00331099951ADDAY181031AY221031GF106991031001999999031041MD1610061+9999MW1021REMSYN066AAXX  14091 22438 41970 61606 11013 21033 49995 56006 70282 83034;
0161224380999992000021412004+65200+036820FM-12+001899999V0201501N005010120019N0220001N1-00081-00301099861ADDAY171061AY231061GF107991071051012501001001MA1999999099651MD1310011+9999MW1021REMSYN072AAXX  14121 22438 41672 71505 11008 21030 39965 49986 53001 70273 87500;
0152224380999992000021418004+65200+036820FM-12+001899999V0201601N005010075019N0160001N1-00111-00301099911ADDAA100000591GF108991081051008001999999KA1999M-00081MD1210031+9999REMSYN076AAXX  14181 22438 12566 81605 11011 21030 49991 52003 69940 885// 333 11008;
0112224380999992000021421004+65200+036820FM-12+001899999V0201401N004010075019N0150001N1-00141-00251099931ADDGF108991081051008001999999MD1210021+9999REMSYN060AAXX  14211 22438 42565 81404 11014 21025 49993 52002 885//;
0133224380999992000021500004+65200+036820FM-12+001899999V0201501N003010075019N0170001N1-00161-00301099951ADDGF108991081051008001999999MA1999999099741MD1210021+9999REMSYN066AAXX  15001 22438 42567 81503 11016 21030 39974 49995 52002 885//;
0165224380999992000021506004+65200+036820FM-12+001899999V0201701N004010075019N0220001N1-00231-00381099981ADDAA199000091GF107991071051008001001001KA1999N-00271MD1210011+9999REMSYN070AAXX  15061 22438 32572 71704 11023 21038 49998 52001 87500 333 21027;EQDQ01  00002PRCP99
0112224380999992000021509004+65200+036820FM-12+001899999V0201601N003010075019N0180001N1-00261-00361099971ADDGF108991081061008001999999MD1810011+9999REMSYN060AAXX  15091 22438 42568 81603 11026 21036 49997 58001 886//;
0133224380999992000021512004+65200+036820FM-12+001899999V0209999C000010042019N0150001N1-00101-00271099901ADDGF108991081061004501999999MA1999999099771MD1310011+9999REMSYN066AAXX  15121 22438 42465 80000 1101/ 21027 39977 49990 53001 886//;
0112224380999992000021515004+65200+036820FM-12+001899999V0201201N002010042019N0160001N1-00211-00301100011ADDGF108991081061004501999999MD1210031+9999REMSYN060AAXX  15151 22438 42466 81202 11021 21030 40001 52003 886//;
0165224380999992000021518004+65200+036820FM-12+001899999V0201901N003010042019N0150001N1-00241-00301099981ADDAA199000091GF108991081061004501999999KA1999M-00181MD1810031+9999REMSYN070AAXX  15181 22438 32465 81903 11024 21030 49998 58003 886// 333 11018;EQDQ01  00002PRCP99
0112224380999992000021521004+65200+036820FM-12+001899999V0202101N002010075019N0190001N1-00321-00421099991ADDGF107991051051008001071001MD1410001+9999REMSYN060AAXX  15211 22438 42569 72102 11032 21042 49999 54000 85570;
0133224380999992000021600004+65200+036820FM-12+001899999V0209999C000019999999N0190001N1-00411-00501099991ADDGF107991071001999999071001MA1999999099771MD1410001+9999REMSYN066AAXX  16001 22438 42969 70000 11041 21050 39977 49999 54000 87070;
0181224380999992000021603004+65200+036820FM-12+001899999V0209999C000010075019N0170001N1-00531-00601099991ADDAA199000091AJ100069199999999GF108991081051008001999999IA1299MD1410001+9999REMSYN076AAXX  16031 22438 32567 80000 11053 21060 49999 54000 885// 333 49006 55000;EQDQ01  00002PRCP99
0165224380999992000021606004+65200+036820FM-12+001899999V0209999C000010075019N0180001N1-00371-00481099991ADDAA199000091GF107991071051008001001001KA1999N-00531MD1410001+9999REMSYN070AAXX  16061 22438 32568 70000 11037 21048 49999 54000 87500 333 21053;EQDQ01  00002PRCP99
0112224380999992000021609004+65200+036820FM-12+001899999V0201701N003010075019N0180001N1-00291-00421100121ADDGF107991071051008001001001MD1310131+9999REMSYN060AAXX  16091 22438 42568 71703 11029 21042 40012 53013 87500;
0133224380999992000021612004+65200+036820FM-12+001899999V0201901N005010075019N0120001N1-00381-00501100201ADDGF106991051031008001031001MA1999999099981MD1110081+9999REMSYN066AAXX  16121 22438 42562 61905 11038 21050 39998 40020 51008 85330;
0112224380999992000021615004+65200+036820FM-12+001899999V0202001N004010075019N0200001N1-00371-00451100301ADDGF107991071051008001001001MD1210101+9999REMSYN060AAXX  16151 22438 42570 72004 11037 21045 40030 52010 87500;
0165224380999992000021618004+65200+036820FM-12+001899999V0202301N004010075019N0190001N1-00411-00531100381ADDAA199000091GF108991081051008001999999KA1999M-00281MD1210081+9999REMSYN070AAXX  16181 22438 32569 82304 11041 21053 40038 52008 885// 333 11028;EQDQ01  00002PRCP99
0112224380999992000021621004+65200+036820FM-12+001899999V0202101N007010075019N0200001N1-00481-00581100501ADDGF108991071051008001999999MD1210121+9999REMSYN060AAXX  16211 22438 42570 82107 11048 21058 40050 52012 875//;
0133224380999992000021700004+65200+036820FM-12+001899999V0202101N007010075019N0008001N1-00551-00661100641ADDGF108991071031008001999999MA1999999100421MD1210141+9999REMSYN066AAXX  17001 22438 42508 82107 11055 21066 30042 40064 52014 873//;
0181224380999992000021703004+65200+036820FM-12+001899999V0201901N004010075019N0200001N1-00661-00821100661ADDAA199000091AJ100069199999999GF108991081051008001999999IA1299MD1110021+9999REMSYN076AAXX  17031 22438 32570 81904 11066 21082 40066 51002 885// 333 49006 55000;EQDQ01  00002PRCP99
0112224380999992000021709004+65200+036820FM-12+001899999V0201101N004010300019N0220001N1-00621-00771100791ADDGF107991021051008001031001MD1210071+9999REMSYN060AAXX  17091 22438 42572 71104 11062 21077 40079 52007 82530;
0133224380999992000021712004+65200+036820FM-12+001899999V0201001N002019999999N0230001N1-00501-00671100811ADDGF106991061001999999031001MA1999999100591MD1110021+9999REMSYN066AAXX  17121 22438 42973 61002 11050 21067 30059 40081 51002 86030;
0112224380999992000021715004+65200+036820FM-12+001899999V0201601N002019999999N0210001N1-00531-00711100841ADDGF107991071001999999031001MD1210031+9999REMSYN060AAXX  17151 22438 42971 71602 11053 21071 40084 52003 87030;
0165224380999992000021718004+65200+036820FM-12+001899999V0201601N006010075019N0220001N1-00581-00691100831ADDAA199000091GF107991061051008001031001KA1999M-00501MD1810011+9999REMSYN070AAXX  17181 22438 32572 71606 11058 21069 40083 58001 86530 333 11050;EQDQ01  00002PRCP99
0112224380999992000021721004+65200+036820FM-12+001899999V0201001N005010075019N0200001N1-00551-00761100801ADDGF107991071051008001001001MD1710031+9999REMSYN060AAXX  17211 22438 42570 71005 11055 21076 40080 57003 87500;
0133224380999992000021800004+65200+036820FM-12+001899999V0200901N004010075019N0230001N1-00591-00781100751ADDGF107991071051008001001001MA1999999100531MD1710051+9999REMSYN066AAXX  18001 22438 42573 70904 11059 21078 30053 40075 57005 87500;
0179224380999992000021803004+65200+036820FM-12+001899999V0201101N006010042019N0042001N1-00521-00591100481ADDAJ100069199999999AY181031AY221031GF108991081031004501999999IA1299MD1810271+9999MW1851REMSYN082AAXX  18031 22438 /1442 81106 11052 21059 40048 58027 78582 883// 333 49006 55000;
0180224380999992000021806004+65200+036820FM-12+001899999V0201701N006010075019N0170001N1-00371-00451100401ADDAA100000791AY181061AY221061GF108991081051008001999999KA1999N-00601MD1610081+9999MW1021REMSYN082AAXX  18061 22438 11567 81706 11037 21045 40040 56008 69900 70282 885// 333 21060;
0140224380999992000021809004+65200+036820FM-12+001899999V0201701N006010042019N0036001N1-00161-00241100371ADDAY171031AY221031GF108991081031004501999999MD1710021+9999MW1861REMSYN066AAXX  18091 22438 41436 81706 11016 21024 40037 57002 78672 883//;
0161224380999992000021812004+65200+036820FM-12+001899999V0201501N006010042019N0042001N1-00131-00211100301ADDAY181061AY221061GF108991081031004501999999MA1999999100091MD1810071+9999MW1861REMSYN072AAXX  18121 22438 41442 81506 11013 21021 30009 40030 58007 78682 883//;
0140224380999992000021815004+65200+036820FM-12+001899999V0201701N006010042019N0037001N1-00151-00201100191ADDAY181031AY221031GF108991081031004501999999MD1710111+9999MW1851REMSYN066AAXX  18151 22438 41437 81706 11015 21020 40019 57011 78582 883//;
0180224380999992000021818004+65200+036820FM-12+001899999V0201701N007010042019N0040001N1-00181-00261100061ADDAA100002091AY181061AY231061GF108991081031004501999999KA1999M-00121MD1710131+9999MW1851REMSYN082AAXX  18181 22438 11440 81707 11018 21026 40006 57013 60020 78583 883// 333 11012;
0140224380999992000021821004+65200+036820FM-12+001899999V0201901N007010042019N0038001N1-00241-00301100031ADDAY181031AY231031GF108991081031004501999999MD1610031+9999MW1851REMSYN066AAXX  18211 22438 41438 81907 11024 21030 40003 56003 78583 883//;
0161224380999992000021900004+65200+036820FM-12+001899999V0202001N006010075019N0160001N1-00311-00411100111ADDAY181061AY231061GF107991071051008001001001MA1999999099901MD1310081+9999MW1021REMSYN072AAXX  19001 22438 41566 72006 11031 21041 39990 40011 53008 70283 87500;
0179224380999992000021903004+65200+036820FM-12+001899999V0202501N007010075019N0120001N1-00261-00361100061ADDAJ100129199999999AY131031AY221031GF108991081041008001999999IA1299MD1810051+9999MW1361REMSYN082AAXX  19031 22438 /1562 82507 11026 21036 40006 58005 73632 884// 333 49012 55000;
0140224380999992000021909004+65200+036820FM-12+001899999V0202401N007010075019N0140001N1-00201-00321099981ADDAY131031AY221031GF108991081041008001999999MD1710081+9999MW1361REMSYN066AAXX  19091 22438 41564 82407 11020 21032 49998 57008 73632 884//;
0161224380999992000021912004+65200+036820FM-12+001899999V0202401N007010075019N0110001N1-00361-00461100551ADDAY131061AY221061GF108991061051008001071999MA1999999100341MD1310241+9999MW1361REMSYN072AAXX  19121 22438 41561 82407 11036 21046 30034 40055 53024 73632 8657/;
0140224380999992000021915004+65200+036820FM-12+001899999V0202401N007010075019N0180001N1-00451-00581100781ADDAY131031AY221031GF107991071051008001001001MD1210231+9999MW1361REMSYN066AAXX  19151 22438 41568 72407 11045 21058 40078 52023 73632 87500;
0193224380999992000021918004+65200+036820FM-12+001899999V0202501N008010300019N0240001N1-00531-00671100941ADDAA199000091AY131061AY211061GF106991031051008001031001KA1999M-00191MD1110151+9999MW1361REMSYN076AAXX  19181 22438 31574 62508 11053 21067 40094 51015 73631 83530 333 11019;EQDQ01  00002PRCP99
0140224380999992000021921004+65200+036820FM-12+001899999V0202401N006012200019N0250001N1-00571-00711101041ADDAY131031AY211031GF102991021001999999031001MD1210101+9999MW1361REMSYN066AAXX  19211 22438 41975 22406 11057 21071 40104 52010 73631 82030;
0161224380999992000022000004+65200+036820FM-12+001899999V0202301N006012200019N0230001N1-00641-00761101121ADDAY131061AY211061GF103991031001999999031001MA1999999100901MD1210081+9999MW1021REMSYN072AAXX  20001 22438 41973 32306 11064 21076 30090 40112 52008 70231 83030;
0209224380999992000022003004+65200+036820FM-12+001899999V0202101N008010075019N0200001N1-00491-00591101141ADDAA199000091AJ100129199999999AY131031AY211031GF107991061051008001071001IA1299MD1110021+9999MW1321REMSYN082AAXX  20031 22438 31570 72108 11049 21059 40114 51002 73231 86570 333 49012 55000;EQDQ01  00002PRCP99
0193224380999992000022006004+65200+036820FM-12+001899999V0202101N008010300019N0180001N1-00341-00451101141ADDAA199000091AY131061AY211061GF108991031061008001031011KA1999N-00661MD1410001+9999MW1361REMSYN076AAXX  20061 22438 31568 82108 11034 21045 40114 54000 73631 83631 333 21066;EQDQ01  00002PRCP99
0140224380999992000022009004+65200+036820FM-12+001899999V0202101N008010042019N0022001N1-00331-00441101231ADDAY181031AY231031GF108991081031004501999999MD1310091+9999MW1851REMSYN066AAXX  20091 22438 41422 82108 11033 21044 40123 53009 78583 883//;
0161224380999992000022012004+65200+036820FM-12+001899999V0202101N008010042019N0048001N1-00301-00401101301ADDAY181061AY231061GF108991081031004501999999MA1999999101081MD1210071+9999MW1851REMSYN072AAXX  20121 22438 41448 82108 11030 21040 30108 40130 52007 78583 883//;
0140224380999992000022015004+65200+036820FM-12+001899999V0201801N009010042019N0041001N1-00391-00511101321ADDAY181031AY231031GF108991081031004501999999MD1110021+9999MW1851REMSYN066AAXX  20151 22438 41441 81809 11039 21051 40132 51002 78583 883//;
0180224380999992000022018004+65200+036820FM-12+001899999V0201901N009010042019N0050001N1-00431-00521101361ADDAA100000591AY181061AY231061GF108991081031004501999999KA1999M-00301MD1210041+9999MW1851REMSYN082AAXX  20181 22438 11450 81909 11043 21052 40136 52004 69940 78583 883// 333 11030;
0137224380999992000022021004+65200+036820FM-12+001899999V0201901N008010042019N0042001N1-00461-00551101381ADDGF108991999051004501081031MD1210021+9999REMSYN066AAXX  20211 22438 41442 81908 11046 21055 40138 52002 88583 884//;EQDQ01+000082SCOTLC
0161224380999992000022100004+65200+036820FM-12+001899999V0201901N008010042019N0048001N1-00481-00611101391ADDAY181061AY231061GF108991081031004501999999MA1999999101171MD1110011+9999MW1851REMSYN072AAXX  21001 22438 41448 81908 11048 21061 30117 40139 51001 78583 883//;
0180224380999992000022106004+65200+036820FM-12+001899999V0201801N006010075019N0150001N1-00371-00481101461ADDAA100000391AY181061AY231061GF108991081051008001999999KA1999N-00491MD1310081+9999MW1021REMSYN082AAXX  21061 22438 11565 81806 11037 21048 40146 53008 69930 70283 885// 333 21049;
0112224380999992000022109004+65200+036820FM-12+001899999V0202601N006010075019N0170001N1-00461-00591101491ADDGF107991071051008001001001MD1110031+9999REMSYN060AAXX  21091 22438 42567 72606 11046 21059 40149 51003 87500;
0133224380999992000022112004+65200+036820FM-12+001899999V0202501N003010075019N0180001N1-00531-00631101541ADDGF107991071051008001001001MA1999999101321MD1210051+9999REMSYN066AAXX  21121 22438 42568 72503 11053 21063 30132 40154 52005 87500;
0112224380999992000022115004+65200+036820FM-12+001899999V0202201N002012200019N0200001N1-00791-00931101571ADDGF102991021051008001001001MD1110031+9999REMSYN060AAXX  21151 22438 42570 22202 11079 21093 40157 51003 82500;
0175224380999992000022118004+65200+036820FM-12+001899999V0202101N004012200019N0180001N1-01151-01281101581ADDAA199000091GA1001+999999999GF100991001001999999001001KA1999M-00371MD1110011+9999REMSYN064AAXX  21181 22438 32968 02104 11115 21128 40158 51001 333 11037;EQDQ01  00002PRCP99
0122224380999992000022121004+65200+036820FM-12+001899999V0209999C000012200019N0200001N1-01301-01361101621ADDGA1001+999999999GF100991001001999999001001MD1310031+9999REMSYN054AAXX  21211 22438 42970 00000 11130 21136 40162 53003;
0143224380999992000022200004+65200+036820FM-12+001899999V0209999C000012200019N0200001N1-01411-01471101641ADDGA1001+999999999GF100991001001999999001001MA1999999101411MD1210021+9999REMSYN060AAXX  22001 22438 42970 00000 11141 21147 30141 40164 52002;
0181224380999992000022203004+65200+036820FM-12+001899999V0201401N001019999999N0130001N1-01321-01451101691ADDAA199000091AJ100159199999999GF108991081001999999021999IA1299MD1210051+9999REMSYN076AAXX  22031 22438 32963 81401 11132 21145 40169 52005 8802/ 333 49015 55000;EQDQ01  00002PRCP99
0193224380999992000022206004+65200+036820FM-12+001899999V0202301N002019999999N0080001N1-01321-01381101761ADDAA199000091AY111061AY211061GF107991071001999999071001KA1999N-01451MD1210071+9999MW1101REMSYN076AAXX  22061 22438 31958 72302 11132 21138 40176 52007 71011 87070 333 21145;EQDQ01  00002PRCP99
0112224380999992000022209004+65200+036820FM-12+001899999V0203501N002012200019N0140001N1-00921-00981101931ADDGF102991011001999999031011MD1310131+9999REMSYN060AAXX  22091 22438 42964 23502 11092 21098 40193 53013 81031;
0178224380999992000022212004+65200+036820FM-12+001899999V0203301N003012200019N0210001N1-00921-01031999999ADDGA1001+999999999GF100991001001999999001001MA1999999101831MD1110131+9999REMSYN060AAXX  22121 22438 42971 03303 11092 21103 30183 40106 51013;EQDQ01+101063APOSLPQ02 101063APOSLP
0185224380999992000022215004+65200+036820FM-12+001899999V0200201N002012200019N0004001N1-01201+99999102242ADDAY141031AY201031GA1001+999999999GF100991001001999999001001MD1210081+9999MW1481REMSYN060AAXX  22151 22438 41904 00202 11120 21220 40224 52008 74840;EQDQ01-002203ATOD  Q02+102243APOSLP
0193224380999992000022218004+65200+036820FM-12+001899999V0200301N001010042019N0070001N1-00921-00991102211ADDAA199000091AY141061AY211061GF108991081061004501999999KA1999M-00871MD1210071+9999MW1101REMSYN076AAXX  22181 22438 31457 80301 11092 21099 40221 52007 71041 886// 333 11087;EQDQ01  00002PRCP99
0140224380999992000022221004+65200+036820FM-12+001899999V0209999C000010042019N0023001N1-00911-00981102291ADDAY121031AY221031GF108991081061004501999999MD1210091+9999MW1101REMSYN066AAXX  22211 22438 41423 80000 11091 21098 40229 52009 71022 886//;
0161224380999992000022300004+65200+036820FM-12+001899999V0209999C000010042019N0021001N1-00901-00971102351ADDAY121061AY221061GF108991081061004501999999MA1999999102121MD1210061+9999MW1101REMSYN072AAXX  23001 22438 41421 80000 11090 21097 30212 40235 52006 71022 886//;
0209224380999992000022303004+65200+036820FM-12+001899999V0203301N002012200019N0060001N1-01081-01141102341ADDAA199000091AJ100159199999999AY111031AY211031GF103991001001999999001011IA1299MD1810011+9999MW1101REMSYN082AAXX  23031 22438 31956 33302 11108 21114 40234 58001 71011 80001 333 49015 55027;EQDQ01  00002PRCP99
0203224380999992000022306004+65200+036820FM-12+001899999V0209999C000012200019N0024001N1-01141-01201102431ADDAA199000091AY111061AY211061GA1001+999999999GF100991001001999999001001KA1999N-01101MD1310091+9999MW1101REMSYN070AAXX  23061 22438 31924 00000 11114 21120 40243 53009 71011 333 21110;EQDQ01  00002PRCP99
0150224380999992000022309004+65200+036820FM-12+001899999V0202701N001012200019N0050001N1-01061-01121102461ADDAY101031AY201031GA1001+999999999GF100991001001999999001001MD1110031+9999MW1101REMSYN060AAXX  23091 22438 41950 02701 11106 21112 40246 51003 71000;
0143224380999992000022312004+65200+036820FM-12+001899999V0203101N003012200019N0140001N1-00981-01061102461ADDGA1001+999999999GF100991001001999999001001MA1999999102231MD1410001+9999REMSYN060AAXX  23121 22438 42964 03103 11098 21106 30223 40246 54000;
0122224380999992000022315004+65200+036820FM-12+001899999V0202801N004012200019N0160001N1-01251-01311102471ADDGA1001+999999999GF100991001001999999001001MD1310011+9999REMSYN054AAXX  23151 22438 42966 02804 11125 21131 40247 53001;
0175224380999992000022318004+65200+036820FM-12+001899999V0203301N005012200019N0180001N1-01071-01131102471ADDAA199000091GA1001+999999999GF100991001001999999001001KA1999M-00971MD1410001+9999REMSYN064AAXX  23181 22438 32968 03305 11107 21113 40247 54000 333 11097;EQDQ01  00002PRCP99
0112224380999992000022321004+65200+036820FM-12+001899999V0203201N004012200019N0170001N1-01141-01201102431ADDGF101991001001999999001011MD1810041+9999REMSYN060AAXX  23211 22438 42967 13204 11114 21120 40243 58004 80001;
0143224380999992000022400004+65200+036820FM-12+001899999V0203101N002012200019N0150001N1-01231-01291102381ADDGA1001+999999999GF100991001001999999001001MA1999999102131MD1710051+9999REMSYN060AAXX  24001 22438 42965 03102 11123 21129 30213 40238 57005;
0181224380999992000022403004+65200+036820FM-12+001899999V0202901N003012200019N0190001N1-01351-01481102341ADDAA199000091AJ100159199999999GF101991001001999999001011IA1299MD1710041+9999REMSYN076AAXX  24031 22438 32969 12903 11135 21148 40234 57004 80001 333 49015 55047;EQDQ01  00002PRCP99
0175224380999992000022406004+65200+036820FM-12+001899999V0202601N002012200019N0200001N1-01221-01281102291ADDAA199000091GA1001+999999999GF100991001001999999001001KA1999N-01441MD1710051+9999REMSYN064AAXX  24061 22438 32970 02602 11122 21128 40229 57005 333 21144;EQDQ01  00002PRCP99
0112224380999992000022409004+65200+036820FM-12+001899999V0203101N003012200019N0150001N1-01151-01211102231ADDGF102991001001999999001011MD1710061+9999REMSYN060AAXX  24091 22438 42965 23103 11115 21121 40223 57006 80001;
0161224380999992000022412004+65200+036820FM-12+001899999V0202901N004012200019N0070001N1-01141-01201102131ADDAY171061AY201061GF102991001001999999001011MA1999999101901MD1710101+9999MW1761REMSYN072AAXX  24121 22438 41957 22904 11114 21120 30190 40213 57010 77670 80001;
0140224380999992000022415004+65200+036820FM-12+001899999V0203101N003012200019N0220001N1-01381-01441102041ADDAY171031AY201031GF102991001001999999001011MD1710091+9999MW1021REMSYN066AAXX  24151 22438 41972 23103 11138 21144 40204 57009 70270 80001;
0184224380999992000022418004+65200+036820FM-12+001899999V0203001N004012200019N0170001N1-01471-01531101931ADDAA199000021AY171061AY201061GA1001+999999999GF100991001001999999001001KA1999M-01131MD1710111+9999MW1021REMSYN070AAXX  24181 22438 31967 03004 11147 21153 40193 57011 70270 333 11113;
0122224380999992000022421004+65200+036820FM-12+001899999V0203201N003012200019N0170001N1-01521-01581101781ADDGA1001+999999999GF100991001001999999001001MD1710151+9999REMSYN054AAXX  24211 22438 42967 03203 11152 21158 40178 57015;
0143224380999992000022500004+65200+036820FM-12+001899999V0203201N002012200019N0170001N1-01601-01661101661ADDGA1001+999999999GF100991001001999999001001MA1999999101431MD1710121+9999REMSYN060AAXX  25001 22438 42967 03202 11160 21166 30143 40166 57012;
0181224380999992000022503004+65200+036820FM-12+001899999V0203401N002019999999N0150001N1-01491-01501101651ADDAA199000091AJ100159199999999GF107991071001999999071001IA1299MD1610011+9999REMSYN076AAXX  25031 22438 32965 73402 11149 21150 40165 56001 87070 333 49015 55077;EQDQ01  00002PRCP99
0181224380999992000022506004+65200+036820FM-12+001899999V0200601N003012200019N0160001N1-01361-01411101541ADDAA199000091GF102991999001999999031001KA1999N-01621MD1810111+9999REMSYN070AAXX  25061 22438 32966 20603 11136 21141 40154 58011 88030 333 21162;EQDQ01+000082SCOTLCQ02  00002PRCP99
0140224380999992000022509004+65200+036820FM-12+001899999V0203601N002010042019N0150001N1-01051-01111101541ADDAY181031AY211031GF106991051031004501061011MD1510001+9999MW1021REMSYN066AAXX  25091 22438 41465 63602 11105 21111 40154 55000 70281 85361;
0133224380999992000022512004+65200+036820FM-12+001899999V0200301N003012200019N0240001N1-01041-01171101521ADDGF102991021001999999031011MA1999999101401MD1810011+9999REMSYN066AAXX  25121 22438 42974 20303 11104 21117 30140 40152 58001 82031;
0122224380999992000022515004+65200+036820FM-12+001899999V0200201N003012200019N0210001N1-01291-01351101541ADDGA1001+999999999GF100991001001999999001001MD1310011+9999REMSYN054AAXX  25151 22438 42971 00203 11129 21135 40154 53001;
0162224380999992000022518004+65200+036820FM-12+001899999V0200301N003012200019N0170001N1-01341-02401101541ADDAA100000791GA1001+999999999GF100991001001999999001001KA1999M-01021MD1410001+9999REMSYN070AAXX  25181 22438 12867 00303 11134 21240 40154 54000 69900 333 11102;
0122224380999992000022521004+65200+036820FM-12+001899999V0200401N001012200019N0190001N1-01461+99999101541ADDGA1001+999999999GF100991001001999999001001MD1410001+9999REMSYN054AAXX  25211 22438 42969 00401 11146 21142 40154 54000;
0143224380999992000022600004+65200+036820FM-12+001899999V0209999C000012200019N0190001N1-01551+99999101541ADDGA1001+999999999GF100991001001999999001001MA1999999102311MD1410001+9999REMSYN060AAXX  26001 22438 42969 00000 11155 21133 30231 40154 54000;
0191224380999992000022603004+65200+036820FM-12+001899999V02099999999992200019N0140001N1-01571-01641101641ADDAA199000091AJ100159199999999GA1001+999999999GF100991001001999999001001IA1299MD1310111+9999REMSYN070AAXX  26031 22438 32964 04601 11157 21164 40164 53011 333 49015 55005;EQDQ01  00002PRCP99
0175224380999992000022606004+65200+036820FM-12+001899999V0203401N001012200019N0160001N1-01641-01701101731ADDAA199000091GA1001+999999999GF100991001001999999001001KA1999N-01661MD1110081+9999REMSYN064AAXX  26061 22438 32966 03401 11164 21170 40173 51008 333 21166;EQDQ01  00002PRCP99
0122224380999992000022609004+65200+036820FM-12+001899999V0203101N001012200019N0170001N1-01551-01611101781ADDGA1001+999999999GF100991001001999999001001MD1210051+9999REMSYN054AAXX  26091 22438 42967 03101 11155 21161 40178 52005;
0133224380999992000022612004+65200+036820FM-12+001899999V0203301N003012200019N0260001N1-01441-01571101881ADDGF101991001001999999001011MA1999999101651MD1210101+9999REMSYN066AAXX  26121 22438 42976 13303 11144 21157 30165 40188 52010 80001;
0112224380999992000022615004+65200+036820FM-12+001899999V0202901N003012200019N0220001N1-01521-01651101891ADDGF101991001001999999001011MD1110011+9999REMSYN060AAXX  26151 22438 42972 12903 11152 21165 40189 51001 80001;
0162224380999992000022618004+65200+036820FM-12+001899999V0209999C000012200019N0180001N1-01611-01671101891ADDAA100000791GA1001+999999999GF100991001001999999001001KA1999M-01441MD1410001+9999REMSYN070AAXX  26181 22438 12968 00000 11161 21167 40189 54000 69900 333 11144;
0150224380999992000022621004+65200+036820FM-12+001899999V0209999C000012200019N0090001N1-01661-01721101871ADDAY101031AY201031GA1001+999999999GF100991001001999999001001MD1810021+9999MW1101REMSYN060AAXX  26211 22438 41959 00000 11166 21172 40187 58002 71000;
0181224380999992000022703004+65200+036820FM-12+001899999V0201901N006019999999N0170001N1-01521-01581101671ADDAA199000091AJ100159199999999GF107991001001999999001011IA1299MD1710111+9999REMSYN076AAXX  27031 22438 32967 71906 11152 21158 40167 57011 80001 333 49015 55095;EQDQ01  00002PRCP99
0193224380999992000022706004+65200+036820FM-12+001899999V0202101N009019999999N0042001N1-01341-01471101491ADDAA199000091AY131061AY211061GF108991081001999999071999KA1999N-01681MD1710181+9999MW1381REMSYN076AAXX  27061 22438 31942 82109 11134 21147 40149 57018 73831 8807/ 333 21168;EQDQ01  00002PRCP99
0140224380999992000022709004+65200+036820FM-12+001899999V0202001N009019999999N0050001N1-01181-01311101321ADDAY131031AY221031GF107991071001999999071001MD1710171+9999MW1381REMSYN066AAXX  27091 22438 41950 72009 11118 21131 40132 57017 73832 87070;
0161224380999992000022712004+65200+036820FM-12+001899999V0202101N012010300019N0048001N1-00941-01061101101ADDAY131061AY221061GF107991031051008001071011MA1999999100881MD1810211+9999MW1381REMSYN072AAXX  27121 22438 41548 72112 11094 21106 30088 40110 58021 73832 83571;
0140224380999992000022715004+65200+036820FM-12+001899999V0202001N012010075019N0050001N1-01011-01211100881ADDAY131031AY221031GF107991071051008001001001MD1710221+9999MW1381REMSYN066AAXX  27151 22438 41550 72012 11101 21121 40088 57022 73832 87500;
0203224380999992000022718004+65200+036820FM-12+001899999V0201901N008012200019N0190001N1-01031-01231100651ADDAA199000091AY131061AY211061GA1001+999999999GF100991001001999999001001KA1999M-00901MD1610251+9999MW1371REMSYN070AAXX  27181 22438 31969 01908 11103 21123 40065 56025 73731 333 11090;EQDQ01  00002PRCP99
0140224380999992000022721004+65200+036820FM-12+001899999V0201801N007019999999N0180001N1-01061-01191100371ADDAY131031AY211031GF108991081001999999071999MD1710261+9999MW1361REMSYN066AAXX  27211 22438 41968 81807 11106 21119 40037 57026 73631 8807/;
0161224380999992000022800004+65200+036820FM-12+001899999V0201801N005010300019N0160001N1-01121-01251100131ADDAY131061AY211061GF107991031051008001071001MA1999999099911MD1710241+9999MW1021REMSYN072AAXX  28001 22438 41566 71805 11112 21125 39991 40013 57024 70231 83570;
0181224380999992000022803004+65200+036820FM-12+001899999V0201501N005010075019N0170001N1-01091-01221099701ADDAA199000091AJ100139199999999GF108991081051008001999999IA1299MD1810431+9999REMSYN076AAXX  28031 22438 32567 81505 11109 21122 49970 58043 885// 333 49013 55019;EQDQ01  00002PRCP99
0193224380999992000022806004+65200+036820FM-12+001899999V0201001N005010075019N0041001N1-00891-01001098941ADDAA199000021AY171061AY221061GF108991999091008001021999KA1999N-01151MD1710761+9999MW1711REMSYN076AAXX  28061 22438 31541 81005 11089 21100 49894 57076 77172 8892/ 333 21115;EQDQ01+000082SCOTLC
0140224380999992000022809004+65200+036820FM-12+001899999V0201201N004010075019N0032001N1-00651-00731098571ADDAY171031AY221031GF108991081001008001021999MD1610371+9999MW1731REMSYN066AAXX  28091 22438 41532 81204 11065 21073 49857 56037 77372 8802/;
0161224380999992000022812004+65200+036820FM-12+001899999V0201201N002010075019N0030001N1-00481-00541098291ADDAY171061AY221061GF108991081001008001021999MA1999999098081MD1710271+9999MW1731REMSYN072AAXX  28121 22438 41530 81202 11048 21054 39808 49829 57027 77372 8802/;
0140224380999992000022815004+65200+036820FM-12+001899999V0201701N001010075019N0170001N1-00351-00501098371ADDAY161031AY221031GF108991081051008001999999MD1610121+9999MW1021REMSYN066AAXX  28151 22438 41567 81701 11035 21050 49837 56012 70262 885//;
0199224380999992000022818004+65200+036820FM-12+001899999V0202701N005010075019N0180001N1-00261-00321098201ADDAA100002091AY171061AY221061GF108991081051008001999999KA1999M+99999MD1310031+9999MW1021REMSYN082AAXX  28181 22438 11568 82705 11026 21032 49820 53003 60020 70272 885// 333 11035;EQDQ01 -00352ATMX  
0112224380999992000022821004+65200+036820FM-12+001899999V0200601N003010075019N0180001N1-00301-00361098241ADDGF108991081051008001999999MD1210041+9999REMSYN060AAXX  28211 22438 42568 80603 11030 21036 49824 52004 885//;
0133224380999992000022900004+65200+036820FM-12+001899999V0201901N002010075019N0170001N1-00361-00411098291ADDGF108991081051008001999999MA1999999098081MD1210051+9999REMSYN066AAXX  29001 22438 42567 81902 11036 21041 39808 49829 52005 885//;
0179224380999992000022903004+65200+036820FM-12+001899999V0200701N009010042019N0038001N1-00411-00461098141ADDAJ100149199999999AY181031AY231031GF108991081031004501999999IA1299MD1810151+9999MW1851REMSYN082AAXX  29031 22438 /1438 80709 11041 21046 49814 58015 78583 883// 333 49014 55000;
0180224380999992000022906004+65200+036820FM-12+001899999V0200601N008010042019N0041001N1-00391-00441098311ADDAA100000791AY181061AY231061GF108991081031004501999999KA1999N-00411MD1310171+9999MW1851REMSYN082AAXX  29061 22438 11441 80608 11039 21044 49831 53017 69900 78583 883// 333 21041;
0140224380999992000022909004+65200+036820FM-12+001899999V0200601N010010075019N0032001N1-01201-01411098571ADDAY181031AY231031GF108991081091008001999999MD1210251+9999MW1851REMSYN066AAXX  29091 22438 41532 80610 11120 21141 49857 52025 78583 889//;
0161224380999992000022912004+65200+036820FM-12+001899999V0200401N009010042019N0035001N1-01361-01561098861ADDAY181061AY231061GF107991061031004501071001MA1999999098641MD1210291+9999MW1851REMSYN072AAXX  29121 22438 41435 70409 11136 21156 39864 49886 52029 78583 86370;
0140224380999992000022915004+65200+036820FM-12+001899999V0200301N007012200019N0210001N1-01561-01751099261ADDAY181031AY231031GF102991021031004501071001MD1310401+9999MW1361REMSYN066AAXX  29151 22438 41471 20307 11156 21175 49926 53040 73683 82370;
0190224380999992000022918004+65200+036820FM-12+001899999V0200601N005012200019N0240001N1-01631-01811099881ADDAA100000591AY181061AY231061GA1001+999999999GF100991001001999999001001KA1999M-00411MD1210611+9999MW1021REMSYN076AAXX  29181 22438 11974 00605 11163 21181 49988 52061 69950 70283 333 11041;
0112224380999992000022921004+65200+036820FM-12+001899999V0201001N004019999999N0200001N1-01681-01871100031ADDGF108991081001999999071999MD1110151+9999REMSYN060AAXX  29211 22438 42970 81004 11168 21187 40003 51015 8807/;
0133224380999992000030100004+65200+036820FM-12+001899999V0201201N002019999999N0190001N1-01761-01871100031ADDGF108991071001999999071999MA1999999099801MD1410001+9999REMSYN066AAXX  01001 22438 42969 81202 11176 21187 39980 40003 54000 8707/;
0179224380999992000030103004+65200+036820FM-12+001899999V0201001N007010075019N0048001N1-01481-01611099771ADDAJ100229199999999AY171031AY231031GF108991081001008001021999IA1299MD1810261+9999MW1711REMSYN082AAXX  01031 22438 /1548 81007 11148 21161 49977 58026 77173 8802/ 333 49022 55000;
0180224380999992000030106004+65200+036820FM-12+001899999V0200901N002010075019N0049001N1-01321-01451099501ADDAA100000791AY171061AY231061GF108991081001008001021999KA1999N-01821MD1710271+9999MW1711REMSYN082AAXX  01061 22438 11549 80902 11132 21145 49950 57027 69900 77173 8802/ 333 21182;
0140224380999992000030109004+65200+036820FM-12+001899999V0200801N002010075019N0026001N1+99999+99999099391ADDAY171031AY231031GF108991081001008001021999MD1710101+9999MW1731REMSYN066AAXX  01091 22438 41526 80802 1//94 21106 49939 57010 77373 8802/;
0155224380999992000030112004+65200+036820FM-12+001899999V0202101N008010075019N0043001N1-00411-00531999999ADDAY171061AY231061GF108991081001008001021999MA1999999099081MD1710091+9999MW1711REMSYN066AAXX  01121 22438 41543 82108 11041 21053 39908 57009 77173 8802/;
0140224380999992000030115004+65200+036820FM-12+001899999V0202001N008010042019N0050001N1-00091-00191099231ADDAY181031AY271031GF108991081091004501999999MD1710061+9999MW1851REMSYN066AAXX  01151 22438 41450 82008 11009 21019 49923 57006 78587 889//;
0180224380999992000030118004+65200+036820FM-12+001899999V0201901N009010075019N0150001N1-00041-00101099181ADDAA100000391AY181061AY271061GF108991081051008001999999KA1999M-00091MD1710051+9999MW1361REMSYN082AAXX  01181 22438 11565 81909 11004 21010 49918 57005 69930 73687 885// 333 11009;
0184224380999992000030121004+65200+036820FM-12+001899999V0201201N002019999999N0190001N1-01762-01872999999ADDGF108991071001999999071999MA1999999099801MD1410001+9999REMSYN066AAXX  01211 22438 42969 81202 11176 21187 39980 40003 54000 8707/;EQDQ01-001763ATOT  Q02-001873ATOD  Q03+100033APOSLP
0170224380999992000030203004+65200+036820FM-12+001899999V0201701N008010075019N0170001N1-00151-00231098542ADDAJ100199199999999GF108991081051008001999999IA1299MD1810391+9999REMSYN076AAXX  02031 22438 /2567 81708 11015 21023 49854 58039 885// 333 49019 55000;EQDQ01+098543APOSLP
0180224380999992000030206004+65200+036820FM-12+001899999V0201801N008010075019N0022001N1-00101-00141098201ADDAA100000791AY181061AY221061GF108991081091008001999999KA1999N-00151MD1710341+9999MW1861REMSYN082AAXX  02061 22438 11522 81808 11010 21014 49820 57034 69900 78682 889// 333 21015;
0112224380999992000030209004+65200+036820FM-12+001899999V0201901N013010075019N0140001N1+00011-00051098111ADDAW1021AZ181031GF107991061091008001071001REMSYN060AAXX  02091 22438 46564 71913 10001 21005 49811 7028/ 86970;
0155224380999992000030212004+65200+036820FM-12+001899999V0201901N013019999999N0006001N1+00071-00041098001ADDAY181061AY221061GF107991999999008001999999MA1999999097791MD1710111+9999MW1021REMSYN066AAXX  02121 22438 41506 71913 10007 21004 39779 49800 57011 70282;
0140224380999992000030215004+65200+036820FM-12+001899999V0201901N014010042019N0044001N1+00061+00031097761ADDAY181031AY221031GF108991081091004501999999MD1810241+9999MW1811REMSYN066AAXX  02151 22438 41444 81914 10006 20003 49776 58024 78182 889//;
0186224380999992000030218004+65200+036820FM-12+001899999V0202301N018010075019N0180001N1-00021-00081098021ADDAA100002091AY181061AY221061GF108991081051008001999999KA1120M+00131MD1310261+9999MW1021REMSYN088AAXX  02181 22438 11568 82318 11002 21008 49802 53026 60020 70282 885// 333 10013 91123;
0150224380999992000030221004+65200+036820FM-12+001899999V0202401N017010075019N0025001N1-00181-00231098411ADDAY181031AY231031GF108991081031008001999999MD1210391+9999MW1861REMSYN076AAXX  02211 22438 41525 82417 11018 21023 49841 52039 78683 883// 333 91124;
0171224380999992000030300004+65200+036820FM-12+001899999V0202401N017010075019N0042001N1-00351-00431098831ADDAY181061AY231061GF108991081031008001999999MA1999999098611MD1210411+9999MW1851REMSYN082AAXX  03001 22438 41542 82417 11035 21043 39861 49883 52041 78583 883// 333 91122;
0179224380999992000030303004+65200+036820FM-12+001899999V0202201N016012200019N0190001N1-00501-00711098811ADDAJ100149199999999AY181031AY231031GF102991021031004501001001IA1299MD1810021+9999MW1021REMSYN082AAXX  03031 22438 /1469 22216 11050 21071 49881 58002 70283 82300 333 49014 55000;
0180224380999992000030306004+65200+036820FM-12+001899999V0202301N009012200019N0260001N1-00461-00701098921ADDAA100003091AY181061AY231061GF101991011041008001001001KA1999N-00501MD1310111+9999MW1021REMSYN082AAXX  03061 22438 11576 12309 11046 21070 49892 53011 60030 70283 81400 333 21050;
0112224380999992000030309004+65200+036820FM-12+001899999V0202101N009012200019N0300001N1-00691-00941099031ADDGF103991021031008001031011MD1210111+9999REMSYN060AAXX  03091 22438 42580 32109 11069 21094 49903 52011 82331;
0161224380999992000030312004+65200+036820FM-12+001899999V0202301N012010075019N0270001N1-00581-00801099111ADDAY111061AY211061GF107991071031008001001001MA1999999098891MD1110081+9999MW1851REMSYN072AAXX  03121 22438 41577 72312 11058 21080 39889 49911 51008 78511 87300;
0140224380999992000030315004+65200+036820FM-12+001899999V0202301N009010300019N0350001N1-00671-01091099231ADDAY181031AY211031GF106991021031008001031011MD1310121+9999MW1021REMSYN066AAXX  03151 22438 41581 62309 11067 21109 49923 53012 70281 82331;
0190224380999992000030318004+65200+036820FM-12+001899999V0202201N006012200019N0290001N1-00841-01161099371ADDAA100000791AY181061AY211061GA1001+999999999GF100991001001999999001001KA1999M-00451MD1210141+9999MW1021REMSYN076AAXX  03181 22438 11979 02206 11084 21116 49937 52014 69900 70281 333 11045;
0112224380999992000030321004+65200+036820FM-12+001899999V0201801N005012200019N0210001N1-00911-01111099341ADDGF102991021001999999031001MD1810031+9999REMSYN060AAXX  03211 22438 42971 21805 11091 21111 49934 58003 82030;
0133224380999992000030400004+65200+036820FM-12+001899999V0201801N005010075019N0200001N1-00981-01151099291ADDGF106991061051008001001001MA1999999099071MD1710051+9999REMSYN066AAXX  04001 22438 42570 61805 11098 21115 39907 49929 57005 86500;
0174224380999992000030406004+65200+036820FM-12+001899999V0201501N009010042019N0040001N1-00501-00601098361ADDAA199000021AY181061AY221061GF108991081031004501999999KA1999N-01011MD1610291+9999MW1851REMSYN076AAXX  04061 22438 31440 81509 11050 21060 49836 56029 78582 883// 333 21101;
0159224380999992000030409004+65200+036820FM-12+001899999V0201601N009010042019N0028001N1-00291-00401096942ADDAY181031AY231031GF108991081041004501999999MD1710201+9999MW1851REMSYN066AAXX  04091 22438 41428 81609 11029 21040 49694 57020 78583 884//;EQDQ01+096943APOSLP
0149224380999992000030412004+65200+036820FM-12+001899999V0201801N009019999999N0030001N1-00181-00261999999ADDAY181061AY231061GF108991999999004501999999MA1999999097811MD1610071+9999MW1891REMSYN060AAXX  04121 22438 41430 81809 11018 21026 39781 56007 78983;
0140224380999992000030415004+65200+036820FM-12+001899999V0201801N006010042019N0190001N1-00311-00381098061ADDAY181031AY231031GF107991071031004501001001MD1610021+9999MW1021REMSYN066AAXX  04151 22438 41469 71806 11031 21038 49806 56002 70283 87300;
0180224380999992000030418004+65200+036820FM-12+001899999V0201801N005010042019N0042001N1-00191-00271098211ADDAA100000591AY181061AY231061GF108991081031004501999999KA1999M-00161MD1310151+9999MW1851REMSYN082AAXX  04181 22438 11442 81805 11019 21027 49821 53015 69960 78583 883// 333 11016;
0140224380999992000030421004+65200+036820FM-12+001899999V0201901N009010042019N0050001N1-00091-00131098361ADDAY181031AY231031GF108991081031004501999999MD1210151+9999MW1851REMSYN066AAXX  04211 22438 41450 81909 11009 21013 49836 52015 78583 883//;
0161224380999992000030500004+65200+036820FM-12+001899999V0202001N009010042019N0045001N1-00051-00081098531ADDAY181061AY231061GF108991081031004501999999MA1999999098321MD1210171+9999MW1851REMSYN072AAXX  05001 22438 41445 82009 11005 21008 39832 49853 52017 78583 883//;
0173224380999992000030503004+65200+036820FM-12+001899999V0201801N008010075019N0270001N1-00141-00251098841ADDAJ100149199999999AY181031AY231031GF106991051051008001071001IA1299MD1210311+9999MW1021REMSYN076AAXX  05031 22438 /1577 61808 11014 21025 49884 52031 70283 85570 333 49014;
0180224380999992000030506004+65200+036820FM-12+001899999V0201801N008010042019N0022001N1-00211-00271099001ADDAA100000591AY181061AY231061GF108991081031004501999999KA1999N-00311MD1110161+9999MW1861REMSYN082AAXX  05061 22438 11422 81808 11021 21027 49900 51016 69940 78683 883// 333 21031;
0140224380999992000030509004+65200+036820FM-12+001899999V0201901N006010075019N0220001N1-00161-00211099241ADDAY181031AY231031GF106991051031008001071001MD1310241+9999MW1021REMSYN066AAXX  05091 22438 41572 61906 11016 21021 49924 53024 70283 85370;
0161224380999992000030512004+65200+036820FM-12+001899999V0202001N003010075019N0200001N1-00221-00341099511ADDAY181061AY221061GF108991081031008001999999MA1999999099301MD1210271+9999MW1021REMSYN072AAXX  05121 22438 41570 82003 11022 21034 39930 49951 52027 70282 883//;
0140224380999992000030515004+65200+036820FM-12+001899999V0202101N001010075019N0022001N1-00161-00211099741ADDAY181031AY221031GF108991081031008001999999MD1210231+9999MW1861REMSYN066AAXX  05151 22438 41522 82101 11016 21021 49974 52023 78682 883//;
0180224380999992000030518004+65200+036820FM-12+001899999V0200201N001010075019N0028001N1-00301-00371099911ADDAA100001091AY181061AY221061GF108991081031008001999999KA1999M-00141MD1110161+9999MW1861REMSYN082AAXX  05181 22438 11528 80201 11030 21037 49991 51016 60010 78682 883// 333 11014;
0140224380999992000030521004+65200+036820FM-12+001899999V0200501N007010075019N0031001N1-00361-00411100061ADDAY171031AY231031GF108991081031008001999999MD1210151+9999MW1761REMSYN066AAXX  05211 22438 41531 80507 11036 21041 40006 52015 77673 883//;
0161224380999992000030600004+65200+036820FM-12+001899999V0200501N008010075019N0042001N1-00501-00571100181ADDAY181061AY231061GF108991081031008001999999MA1999999099961MD1310121+9999MW1851REMSYN072AAXX  06001 22438 42542 80508 11050 21057 39996 40018 53012 78583 883//;
0179224380999992000030603004+65200+036820FM-12+001899999V0200501N009010075019N0170001N1-00671-00791100231ADDAJ100179199999999AY181031AY231031GF108991081051008001999999IA1299MD1110051+9999MW1371REMSYN082AAXX  06031 22438 /1567 80509 11067 21079 40023 51005 73783 885// 333 49017 55012;
0180224380999992000030606004+65200+036820FM-12+001899999V0200301N007010075019N0170001N1-00651-00771100231ADDAA100002091AY181061AY231061GF108991081051008001999999KA1999N-00691MD1410001+9999MW1361REMSYN082AAXX  06061 22438 11567 80307 11065 21077 40023 54000 60020 73683 885// 333 21069;
0140224380999992000030609004+65200+036820FM-12+001899999V0200301N007010075019N0270001N1-00621-00741100201ADDAY131031AY221031GF108991081051008001999999MD1810031+9999MW1361REMSYN066AAXX  06091 22438 41577 80307 11062 21074 40020 58003 73632 885//;
0161224380999992000030612004+65200+036820FM-12+001899999V0200501N003010042019N0080001N1-00591-00631100101ADDAY131061AY221061GF108991081061004501999999MA1999999099881MD1710101+9999MW1101REMSYN072AAXX  06121 22438 41458 80503 11059 21063 39988 40010 57010 71032 886//;
0112224380999992000030615004+65200+036820FM-12+001899999V0209999C000010075019N0190001N1-00611-00761100001ADDGF108991081051008001999999MD1710101+9999REMSYN060AAXX  06151 22438 41569 80000 11061 21076 40000 57010 885//;
0165224380999992000030618004+65200+036820FM-12+001899999V0202401N004010075019N0180001N1-00651-00771099761ADDAA199000091GF108991081041008001999999KA1999M-00561MD1810241+9999REMSYN070AAXX  06181 22438 32568 82404 11065 21077 49976 58024 884// 333 11056;EQDQ01  00002PRCP99
0112224380999992000030621004+65200+036820FM-12+001899999V0201501N005010075019N0180001N1-00681-00801099431ADDGF108991081051008001999999MD1710331+9999REMSYN060AAXX  06211 22438 42568 81505 11068 21080 49943 57033 885//;
0133224380999992000030700004+65200+036820FM-12+001899999V0201201N006010075019N0180001N1-00711-00841099071ADDGF108991081051008001999999MA1999999098851MD1710361+9999REMSYN066AAXX  07001 22438 42568 81206 11071 21084 39885 49907 57036 885//;
0225224380999992000030703004+65200+036820FM-12+001899999V0201401N009010075019N0170001N1-00621-00741098571ADDAA199000091AJ100169199999999AY131031AY221031GF108991081051008001999999IA1299MD1810502+9999MW1361REMSYN082AAXX  07031 22438 31567 81409 11062 21074 49857 58050 73632 885// 333 49016 55000;EQDQ01+000502APC3  Q02  00002PRCP99
0170224380999992000030706004+65200+036820FM-12+001899999V0201401N011010075019N0130001N1-00581-00691098251ADDAA199000091AY131061AY221061GF107991061051008001031001MD1610321+9999MW1371REMSYN066AAXX  07061 22438 31563 71411 11058 21069 49825 56032 73732 86530;EQDQ01  00002PRCP99
0140224380999992000030709004+65200+036820FM-12+001899999V0201401N010010075019N0200001N1-00571-00831098011ADDAY131031AY221031GF108991081041008001999999MD1710241+9999MW1371REMSYN066AAXX  07091 22438 41570 81410 11057 21083 49801 57024 73732 884//;
0140224380999992000030712004+65200+036820FM-12+001899999V0201101N011010042019N0022001N1-00551-00731097801ADDAY181061AY231061GF108991081031004501999999MD1710211+9999MW1861REMSYN066AAXX  07121 22438 41422 81111 11055 21073 49780 57021 78683 883//;
0140224380999992000030715004+65200+036820FM-12+001899999V0201301N011010042019N0028001N1-00481-00591097701ADDAY181031AY231031GF108991081031004501999999MD1610101+9999MW1861REMSYN066AAXX  07151 22438 41428 81311 11048 21059 49770 56010 78683 883//;
0180224380999992000030718004+65200+036820FM-12+001899999V0201401N004010075019N0170001N1-00531-00711097641ADDAA100003091AY181061AY231061GF108991081051008001999999KA1999M-00481MD1710041+9999MW1021REMSYN082AAXX  07181 22438 11567 81404 11053 21071 49764 57004 60030 70283 885// 333 11048;
0140224380999992000030721004+65200+036820FM-12+001899999V0201501N003010042019N0040001N1-00561-00671097611ADDAY181031AY221031GF108991081031004501999999MD1710031+9999MW1851REMSYN066AAXX  07211 22438 41440 81503 11056 21067 49761 57003 78582 883//;
0161224380999992000030800004+65200+036820FM-12+001899999V0201501N003010075019N0035001N1-00601-00711097601ADDAY181061AY221061GF108991081031008001999999MA1999999097391MD1610011+9999MW1851REMSYN072AAXX  08001 22438 41535 81503 11060 21071 39739 49760 56001 78582 883//;
0180224380999992000030806004+65200+036820FM-12+001899999V0202001N007010075019N0230001N1-00461-00601097541ADDAA100001091AY181061AY231061GF107991061031008001071001KA1999N-00621MD1610011+9999MW1361REMSYN082AAXX  08061 22438 11573 72007 11046 21060 49754 56001 60010 73683 86370 333 21062;
0140224380999992000030809004+65200+036820FM-12+001899999V0202101N007010075019N0200001N1-00431-00621097541ADDAY131031AY221031GF108991081051008001999999MD1410001+9999MW1361REMSYN066AAXX  08091 22438 41570 82107 11043 21062 49754 54000 73632 885//;
0180224380999992000030812004+65200+036820FM-12+001899999V0202001N008010042019N0048001N1-00381-00481099642ADDAY181061AY231061GF108991081031004501999999MA1999999099422MD1810121+9999MW1851REMSYN072AAXX  08121 22438 41448 82008 11038 21048 39942 49964 58012 78583 883//;EQDQ01+099643APOSLP
0180224380999992000030818004+65200+036820FM-12+001899999V0202101N009010042019N0120001N1-00581-00691099711ADDAA100000391AY131061AY231061GF108991081041004501999999KA1999M-00301MD1310231+9999MW1361REMSYN082AAXX  08181 22438 11462 82109 11058 21069 49971 53023 69930 73633 884// 333 11030;
0140224380999992000030821004+65200+036820FM-12+001899999V0201901N009010075019N0180001N1-00621-00731099681ADDAY131031AY221031GF108991081051008001999999MD1810031+9999MW1361REMSYN066AAXX  08211 22438 41568 81909 11062 21073 49968 58003 73632 885//;
0161224380999992000030900004+65200+036820FM-12+001899999V0201901N009010075019N0180001N1-00651-00771099621ADDAY131061AY221061GF108991081051008001999999MA1999999099411MD1710061+9999MW1361REMSYN072AAXX  09001 22438 41568 81909 11065 21077 39941 49962 57006 73632 885//;
0225224380999992000030903004+65200+036820FM-12+001899999V0201601N007010120019N0050001N1-00581-00691097752ADDAA199000091AJ100219199999999AY131031AY221031GF108991081051012501999999IA1299MD1310011+9999MW1361REMSYN082AAXX  09031 22438 31650 81607 11058 21069 49775 53001 73632 885// 333 49021 55000;EQDQ01+097753APOSLPQ02  00002PRCP99
0174224380999992000030906004+65200+036820FM-12+001899999V0201201N003010075019N0044001N1-00651-00811097771ADDAA199000021AY181061AY231061GF107991071031008001001001KA1999N-00661MD1210021+9999MW1851REMSYN076AAXX  09061 22438 31544 71203 11065 21081 49777 52002 78583 87300 333 21066;
0140224380999992000030909004+65200+036820FM-12+001899999V0201301N003010300019N0140001N1-00781-00921097851ADDAY181031AY221031GF106991021031008001071011MD1210081+9999MW1021REMSYN066AAXX  09091 22438 41564 61303 11078 21092 49785 52008 70282 82371;
0161224380999992000030912004+65200+036820FM-12+001899999V0209999C000010300019N0150001N1-00501-00631098021ADDAY181061AY221061GF107991031031008001071011MA1999999097811MD1310171+9999MW1021REMSYN072AAXX  09121 22438 41565 70000 11050 21063 39781 49802 53017 70282 83371;
0140224380999992000030915004+65200+036820FM-12+001899999V0201801N001010075019N0046001N1-00541-00611098151ADDAY181031AY221031GF107991071031008001001001MD1210131+9999MW1851REMSYN066AAXX  09151 22438 41546 71801 11054 21061 49815 52013 78582 87300;
0180224380999992000030918004+65200+036820FM-12+001899999V0201301N003012200019N0170001N1-00671-00801098341ADDAA100000591AY181061AY211061GF102991021031008001001001KA1999M-00501MD1210191+9999MW1021REMSYN082AAXX  09181 22438 11567 21303 11067 21080 49834 52019 69950 70281 82300 333 11050;
0140224380999992000030921004+65200+036820FM-12+001899999V0201101N003010042019N0050001N1-00731-00821098481ADDAY181031AY211031GF106991061031004501001001MD1210141+9999MW1851REMSYN066AAXX  09211 22438 41450 61103 11073 21082 49848 52014 78581 86300;
0161224380999992000031000004+65200+036820FM-12+001899999V0201001N002010075019N0170001N1-00781-00921098631ADDAY181061AY211061GF107991051031008001071001MA1999999098421MD1210151+9999MW1021REMSYN072AAXX  10001 22438 41567 71002 11078 21092 39842 49863 52015 70281 85370;
0151224380999992000031003004+65200+036820FM-12+001899999V0200401N006012200019N0210001N1-00851-01081098851ADDAJ100219199999999GF102991021031004501001001IA1299MD1210221+9999REMSYN076AAXX  10031 22438 /2471 20406 11085 21108 49885 52022 82300 333 49021 55021;
0171224380999992000031006004+65200+036820FM-12+001899999V0200101N005019999999N0260001N1-00971-01181099021ADDAA100000391GF106991021001999999031011KA1999N+99999MD1210171+9999REMSYN076AAXX  10061 22438 12976 60105 11097 21118 49902 52017 69930 82031 333 21085;EQDQ01 -00852ATMN  
0122224380999992000031009004+65200+036820FM-12+001899999V0201701N005012200019N0300001N1-01221-01351099131ADDGA1001+999999999GF100991001001999999001001MD1110111+9999REMSYN054AAXX  10091 22438 42980 01705 11122 21135 49913 51011;
0143224380999992000031012004+65200+036820FM-12+001899999V0203401N005012200019N0300001N1-01341-01541099281ADDGA1001+999999999GF100991001001999999001001MA1999999099061MD1210151+9999REMSYN060AAXX  10121 22438 42980 03405 11134 21154 39906 49928 52015;
0122224380999992000031015004+65200+036820FM-12+001899999V0203201N005012200019N0550001N1-01511-01641099361ADDGA1001+999999999GF100991001001999999001001MD1210081+9999REMSYN054AAXX  10151 22438 41985 03205 11151 21164 49936 52008;
0175224380999992000031018004+65200+036820FM-12+001899999V0203201N001012200019N0280001N1-01621-01881099291ADDAA199000091GA1001+999999999GF100991001001999999001001KA1999M-00971MD1810071+9999REMSYN064AAXX  10181 22438 32978 03201 11162 21188 49929 58007 333 11097;EQDQ01  00002PRCP99
0122224380999992000031021004+65200+036820FM-12+001899999V0203001N001012200019N0190001N1-01461-01591099201ADDGA1001+999999999GF100991001001999999001001MD1710091+9999REMSYN054AAXX  10211 22438 42969 03001 11146 21159 49920 57009;
0143224380999992000031100004+65200+036820FM-12+001899999V0209999C000012200019N0160001N1-01501-01561099091ADDGA1001+999999999GF100991001001999999001001MA1999999098871MD1710111+9999REMSYN060AAXX  11001 22438 42966 00000 11150 21156 39887 49909 57011;
0181224380999992000031103004+65200+036820FM-12+001899999V0203501N004019999999N0150001N1-01561-01691099131ADDAA199000091AJ100249199999999GF106991001001999999001011IA1299MD1310031+9999REMSYN076AAXX  11031 22438 32965 63504 11156 21169 49913 53003 80001 333 49024 55088;EQDQ01  00002PRCP99
0165224380999992000031106004+65200+036820FM-12+001899999V0203301N005019999999N0260001N1-01481-01611099141ADDAA199000091GF106991001001999999001011KA1999N-01661MD1110011+9999REMSYN070AAXX  11061 22438 32976 63305 11148 21161 49914 51001 80001 333 21166;EQDQ01  00002PRCP99
0112224380999992000031109004+65200+036820FM-12+001899999V0203301N006019999999N0280001N1-01361-01491099201ADDGF106991031001999999031011MD1310061+9999REMSYN060AAXX  11091 22438 42978 63306 11136 21149 49920 53006 83031;
0133224380999992000031112004+65200+036820FM-12+001899999V0203001N006019999999N0230001N1-01081-01211099301ADDGF108991081001999999071999MA1999999099081MD1210101+9999REMSYN066AAXX  11121 22438 42973 83006 11108 21121 39908 49930 52010 8807/;
0140224380999992000031115004+65200+036820FM-12+001899999V0203101N008019999999N0280001N1-00691-00811099371ADDAY131031AY221031GF107991071001999999071011MD1310071+9999MW1361REMSYN066AAXX  11151 22438 41978 73108 11069 21081 49937 53007 73632 87071;
0193224380999992000031118004+65200+036820FM-12+001899999V0203001N009019999999N0070001N1-00621-00741099341ADDAA199000021AY171061AY231061GF108991081001999999021999KA1999M+99999MD1810031+9999MW1711REMSYN076AAXX  11181 22438 31957 83009 11062 21074 49934 58003 77173 8802/ 333 11069;EQDQ01 -00692ATMX  
0140224380999992000031121004+65200+036820FM-12+001899999V0203101N009019999999N0140001N1-00501-00601099271ADDAY171031AY231031GF107991071001999999071999MD1710071+9999MW1361REMSYN066AAXX  11211 22438 41964 73109 11050 21060 49927 57007 73673 8707/;
0161224380999992000031200004+65200+036820FM-12+001899999V0203001N008019999999N0120001N1-00411-00501099181ADDAY171061AY231061GF107991071001001501071001MA1999999098961MD1710091+9999MW1361REMSYN072AAXX  12001 22438 41262 73008 11041 21050 39896 49918 57009 73673 87070;
0180224380999992000031206004+65200+036820FM-12+001899999V0202901N010019999999N0180001N1-00591-00781099361ADDAA100000391AY131061AY221061GF106991031001999999031041KA1999N-00691MD1210061+9999MW1361REMSYN082AAXX  12061 22438 11968 62910 11059 21078 49936 52006 69930 73632 83034 333 21069;
0140224380999992000031209004+65200+036820FM-12+001899999V0203101N014019999999N0120001N1-00441-00751099511ADDAY131031AY221031GF107991001001999999001041MD1310151+9999MW1381REMSYN066AAXX  12091 22438 41962 73114 11044 21075 49951 53015 73832 80004;
0161224380999992000031212004+65200+036820FM-12+001899999V0203001N013019999999N0230001N1-00441-00951099701ADDAY131061AY221061GF107991061001999999031041MA1999999099481MD1210191+9999MW1371REMSYN072AAXX  12121 22438 41973 73013 11044 21095 39948 49970 52019 73732 86034;
0140224380999992000031215004+65200+036820FM-12+001899999V0202801N010019999999N0250001N1-00461-00941099901ADDAY131031AY221031GF107991041001999999031041MD1210201+9999MW1361REMSYN066AAXX  12151 22438 41975 72810 11046 21094 49990 52020 73632 84034;
0193224380999992000031218004+65200+036820FM-12+001899999V0202701N008012200019N0220001N1-00521-00931099971ADDAA199000091AY131061AY221061GF104991001001999999001041KA1999M-00441MD1110071+9999MW1361REMSYN076AAXX  12181 22438 31972 42708 11052 21093 49997 51007 73632 80004 333 11044;EQDQ01  00002PRCP99
0140224380999992000031221004+65200+036820FM-12+001899999V0202801N009019999999N0230001N1-00691-01111100071ADDAY131031AY211031GF105991001001999999001041MD1210101+9999MW1021REMSYN066AAXX  12211 22438 41973 52809 11069 21111 40007 52010 70231 80004;
0161224380999992000031300004+65200+036820FM-12+001899999V0202701N010019999999N0210001N1-00761-01161100151ADDAY131061AY211061GF106991001001999999001041MA1999999099931MD1210081+9999MW1021REMSYN072AAXX  13001 22438 41971 62710 11076 21116 39993 40015 52008 70231 80004;
0225224380999992000031303004+65200+036820FM-12+001899999V0202701N006019999999N0290001N1-00821-01241100461ADDAA199000091AJ100239199999999AY131031AY221031GF106991001001999999001041IA1299MD1310311+9999MW1361REMSYN082AAXX  13031 22438 31979 62706 11082 21124 40046 53031 73632 86004 333 49023 55006;EQDQ01+000062SCOTLCQ02  00002PRCP99
0193224380999992000031306004+65200+036820FM-12+001899999V0202101N006012200019N0350001N1-00901-01191100621ADDAA199000091AY131061AY211061GF103991001001999999001011KA1999N-00861MD1110161+9999MW1021REMSYN076AAXX  13061 22438 31981 32106 11090 21119 40062 51016 70231 80001 333 21086;EQDQ01  00002PRCP99
0140224380999992000031309004+65200+036820FM-12+001899999V0202001N009019999999N0350001N1-00881-01121100671ADDAY131031AY211031GF106991001001999999001041MD1210051+9999MW1361REMSYN066AAXX  13091 22438 41981 62009 11088 21112 40067 52005 73631 80004;
0161224380999992000031312004+65200+036820FM-12+001899999V0201901N009019999999N0350001N1-00561-01031100611ADDAY131061AY211061GF108991031001999999031041MA1999999100291MD1810061+9999MW1361REMSYN072AAXX  13121 22438 41981 81909 11056 21103 30029 40061 58006 73631 83034;
0140224380999992000031315004+65200+036820FM-12+001899999V0201901N014019999999N0200001N1-00441-00911100311ADDAY131031AY221031GF108991081001999999071999MD1810201+9999MW1381REMSYN066AAXX  13151 22438 41970 81914 11044 21091 40031 58020 73832 8807/;
0226224380999992000031318004+65200+036820FM-12+001899999V0201901N018010003019N0005001N1-00401-00491100171ADDAA199000091AY131061AY221061GA1091+999999999GF109991091999999999999999KA1120M-00441MD1710241+9999MW1391OA140102201REMSYN082AAXX  13181 22438 31/05 91918 11040 21049 40017 57024 73932 333 11044 91022 92993;EQDQ01  00002PRCP99
0177224380999992000031321004+65200+036820FM-12+001899999V0201901N018010001519N0000001N1-00371-00421099931ADDAY131031AY221031GA1091+999999999GF109991091999999999999999MD1710241+9999MW1391OA140102201REMSYN076AAXX  13211 22438 41/00 91918 11037 21042 49993 57024 73932 333 91022 92992;
0198224380999992000031400004+65200+036820FM-12+001899999V0201901N018010001519N0000001N1-00311-00351099671ADDAY131061AY221061GA1091+999999999GF109991091999999999999999MA1999999099451MD1710261+9999MW1391OA140102301REMSYN082AAXX  14001 22438 41/00 91918 11031 21035 39945 49967 57026 73932 333 91023 92992;
0154224380999992000031401004+65200+036820FM-12+001899999V0201901N015010003019N0004001N1-00261+99999099681ADDAY131999AY221999GA1091+999999999GF109991091999999999999999MD1310091+9999MW1391REMSYN064AAXX  14011 22438 41/04 91915 11026 49968 53009 73932 333 91023;
0250224380999992000031403004+65200+036820FM-12+001899999V0201801N018010001519N0000001N1-00261-00321099621ADDAA199000091AJ100209199999999AY131031AY221031GA1091+999999999GF109991091999999999999999GJ102829IA1299MD1610041+9999MW1391OA140102101REMSYN088AAXX  14031 22438 31/00 91818 11026 21032 49962 56004 73932 333 49020 55047 91021 92992;EQDQ01  00002PRCP99
0226224380999992000031406004+65200+036820FM-12+001899999V0201801N018010001519N0000001N1-00251-00311099591ADDAA199000091AY131061AY221061GA1091+999999999GF109991091999999999999999KA1120N-00441MD1710031+9999MW1391OA140102101REMSYN082AAXX  14061 22438 31/00 91818 11025 21031 49959 57003 73932 333 21044 91021 92992;EQDQ01  00002PRCP99
0160224380999992000031409004+65200+036820FM-12+001899999V0201901N015010003019N0004001N1-00261+99999099681ADDAY131031AY221031GA1091+999999999GF109991091999999999999999MD1310091+9999MW1391REMSYN070AAXX  14091 22438 41/04 91915 11026 21024 49968 53009 73932 333 91023;
0188224380999992000031412004+65200+036820FM-12+001899999V0201801N013010075019N0011001N1-00111-00191099641ADDAY131061AY221061GF108991081051008001999999MA1999999099431MD1810041+9999MW1381OA140101901REMSYN088AAXX  14121 22438 41511 81813 11011 21019 39943 49964 58004 73832 885// 333 91019 92995;
0150224380999992000031415004+65200+036820FM-12+001899999V0201901N012010075019N0019001N1-00071-00141099621ADDAY131031AY221031GF108991081051008001999999MD1610021+9999MW1381REMSYN076AAXX  14151 22438 41519 81912 11007 21014 49962 56002 73832 885// 333 92990;
0174224380999992000031418004+65200+036820FM-12+001899999V0201401N009010075019N0032001N1-00051-00081099521ADDAA199000021AY171061AY231061GF108991081001008001021999KA1999M-00071MD1810101+9999MW1731REMSYN076AAXX  14181 22438 31532 81409 11005 21008 49952 58010 77373 8802/ 333 11007;
0140224380999992000031421004+65200+036820FM-12+001899999V0201601N001010075019N0029001N1-00091-00131099301ADDAY171031AY231031GF108991081001008001021999MD1710221+9999MW1711REMSYN066AAXX  14211 22438 41529 81601 11009 21013 49930 57022 77173 8802/;
0140224380999992000031500004+65200+036820FM-12+001899999V0201501N009010075019N0034001N1-00281-00321099051ADDAY171061AY231061GF108991081001008001021999MD1710261+9999MW1711REMSYN066AAXX  15001 22438 41534 81509 11028 21032 49905 57026 77173 8802/;
0179224380999992000031503004+65200+036820FM-12+001899999V0201801N011019999999N0170001N1-00061-00121099111ADDAJ100209199999999AY171031AY231031GF108991081001999999051999IA1299MD1310061+9999MW1361REMSYN082AAXX  15031 22438 /1967 81811 11006 21012 49911 53006 73673 8805/ 333 49020 55000;
0180224380999992000031506004+65200+036820FM-12+001899999V0202301N011019999999N0120001N1-00221-00341099511ADDAA100000591AY171061AY231061GF105991031001999999031041KA1999N-00281MD1210401+9999MW1371REMSYN082AAXX  15061 22438 11962 52311 11022 21034 49951 52040 69940 73773 83034 333 21028;
0140224380999992000031509004+65200+036820FM-12+001899999V0202101N009019999999N0150001N1-00121-00321099891ADDAY131031AY221031GF105991001001999999001041MD1210381+9999MW1361REMSYN066AAXX  15091 22438 41965 52109 11012 21032 49989 52038 73632 80004;
0161224380999992000031512004+65200+036820FM-12+001899999V0201901N005010075019N0230001N1-00041-00251100191ADDAY131061AY221061GF107991071051008001001001MA1999999099981MD1210301+9999MW1021REMSYN072AAXX  15121 22438 41573 71905 11004 21025 39998 40019 52030 70232 87500;
0112224380999992000031515004+65200+036820FM-12+001899999V0201701N004012200019N0270001N1-00131-00391100321ADDGF107991021051008001001041MD1110131+9999REMSYN060AAXX  15151 22438 42577 71704 11013 21039 40032 51013 82504;
0165224380999992000031518004+65200+036820FM-12+001899999V0201401N004010075019N0250001N1-00161-00401100401ADDAA199000091GF107991071051008001001001KA1999M-00041MD1210081+9999REMSYN070AAXX  15181 22438 32575 71404 11016 21040 40040 52008 87500 333 11004;EQDQ01  00002PRCP99
0140224380999992000031521004+65200+036820FM-12+001899999V0200701N003019999999N0040001N1-00141-00221100431ADDAY171031AY221031GF108991081001999999021999MD1110031+9999MW1711REMSYN066AAXX  15211 22438 41940 80703 11014 21022 40043 51003 77172 8802/;
0161224380999992000031600004+65200+036820FM-12+001899999V0200601N002019999999N0045001N1-00111-00151100441ADDAY171061AY221061GF108991081001999999021999MA1999999100231MD1210011+9999MW1711REMSYN072AAXX  16001 22438 41945 80602 11011 21015 30023 40044 52001 77172 8802/;
0219224380999992000031603004+65200+036820FM-12+001899999V0201001N005010075019N0046001N1-00191-00251100481ADDAA124000591AJ100229199999999AY171031AY221031GF108991081001008001021999GJ102529IA1299MD1210041+9999MW1711REMSYN103AAXX  16031 22438 /1546 81005 11019 21025 40048 52004 77172 8802/ 333 49022 55042 555 21021 -9952 7995;
0180224380999992000031606004+65200+036820FM-12+001899999V0201401N005010075019N0024001N1-00091-00131100571ADDAA100000591AY171061AY211061GF108991081001008001021999KA1999N-00211MD1310091+9999MW1731REMSYN082AAXX  16061 22438 11524 81405 11009 21013 40057 53009 69950 77371 8802/ 333 21021;
0140224380999992000031609004+65200+036820FM-12+001899999V0201501N006010075019N0090001N1+00061+00011100821ADDAY171031AY221031GF108991081051008001999999MD1210241+9999MW1101REMSYN066AAXX  16091 22438 41559 81506 10006 20001 40082 52024 71072 885//;
0161224380999992000031612004+65200+036820FM-12+001899999V0201501N005010075019N0080001N1+00091-00021101021ADDAY171061AY221061GF108991081051008001999999MA1999999100801MD1210201+9999MW1101REMSYN072AAXX  16121 22438 41558 81505 10009 21002 30080 40102 52020 71072 885//;
0140224380999992000031615004+65200+036820FM-12+001899999V0201301N004010075019N0060001N1+00031-00051101311ADDAY171031AY221031GF108991081001008001021999MD1210221+9999MW1711REMSYN066AAXX  16151 22438 41556 81304 10003 21005 40131 52022 77172 8802/;
0180224380999992000031618004+65200+036820FM-12+001899999V0201001N005010075019N0060001N1+00001-00121101391ADDAA100000891AY171061AY221061GF108991081001008001021999KA1999M+00161MD1110151+9999MW1711REMSYN082AAXX  16181 22438 11556 81005 10000 21012 40139 51015 69970 77172 8802/ 333 10016;
0140224380999992000031621004+65200+036820FM-12+001899999V0201401N004010075019N0080001N1-00011-00071101591ADDAY171031AY221031GF108991081051008001999999MD1210201+9999MW1101REMSYN066AAXX  16211 22438 41558 81404 11001 21007 40159 52020 71072 885//;
0161224380999992000031700004+65200+036820FM-12+001899999V0201201N003010075019N0090001N1-00051-00111101771ADDAY171061AY221061GF108991081051008001999999MA1999999101551MD1210181+9999MW1101REMSYN072AAXX  17001 22438 41559 81203 11005 21011 30155 40177 52018 71072 885//;
0179224380999992000031703004+65200+036820FM-12+001899999V0200901N005010075019N0070001N1-00161-00221101941ADDAJ100229199999999AY121031AY221031GF107991071051008001001001IA1299MD1210171+9999MW1101REMSYN082AAXX  17031 22438 /1557 70905 11016 21022 40194 52017 71022 87500 333 49022 55000;
0180224380999992000031706004+65200+036820FM-12+001899999V0200901N006010075019N0060001N1-00081-00141102131ADDAA100000791AY121061AY221061GF107991071051008001001001KA1999N-00161MD1210191+9999MW1101REMSYN082AAXX  17061 22438 11556 70906 11008 21014 40213 52019 69900 71022 87500 333 21016;
0140224380999992000031709004+65200+036820FM-12+001899999V0200701N004010075019N0090001N1-00071-00161102221ADDAY121031AY221031GF107991061051008001071001MD1110091+9999MW1101REMSYN066AAXX  17091 22438 41559 70704 11007 21016 40222 51009 71022 86570;
0133224380999992000031712004+65200+036820FM-12+001899999V0200801N006012200019N0110001N1-00121-00271102311ADDGF102991011011008001031001MA1999999102091MD1210091+9999REMSYN066AAXX  17121 22438 42561 20806 11012 21027 30209 40231 52009 81130;
0112224380999992000031715004+65200+036820FM-12+001899999V0201101N006019999999N0150001N1-00091-00281102351ADDGF107991071001999999071001MD1110041+9999REMSYN060AAXX  17151 22438 42965 71106 11009 21028 40235 51004 87070;
0165224380999992000031718004+65200+036820FM-12+001899999V0200901N005019999999N0180001N1-00181-00361102381ADDAA199000091GF107991071001999999071001KA1999M-00071MD1210031+9999REMSYN070AAXX  17181 22438 32968 70905 11018 21036 40238 52003 87070 333 11007;EQDQ01  00002PRCP99
0112224380999992000031721004+65200+036820FM-12+001899999V0200901N002012200019N0210001N1-00301-00471102381ADDGF103991031001999999031001MD1410001+9999REMSYN060AAXX  17211 22438 42971 30902 11030 21047 40238 54000 83030;
0133224380999992000031800004+65200+036820FM-12+001899999V0200901N002019999999N0200001N1-00441-00601102381ADDGF105991051001999999071001MA1999999102161MD1410001+9999REMSYN066AAXX  18001 22438 42970 50902 11044 21060 30216 40238 54000 85070;
0181224380999992000031803004+65200+036820FM-12+001899999V0201401N002012200019N0120001N1-00531-00671102321ADDAA199000091AJ100199199999999GF101991001001999999001011IA1299MD1810061+9999REMSYN076AAXX  18031 22438 32962 11402 11053 21067 40232 58006 80001 333 49019 55042;EQDQ01  00002PRCP99
0122224380999992000031809004+65200+036820FM-12+001899999V0209999C000012200019N0200001N1-00011-00511102341ADDGA1001+999999999GF100991001001999999001001MD1810011+9999REMSYN054AAXX  18091 22438 42970 00000 11001 21051 40234 58001;
0143224380999992000031812004+65200+036820FM-12+001899999V0203001N003012200019N0130001N1-00231-00451102351ADDGA1001+999999999GF100991001001999999001001MA1999999102131MD1310011+9999REMSYN060AAXX  18121 22438 42963 03003 11023 21045 30213 40235 53001;
0122224380999992000031815004+65200+036820FM-12+001899999V0209999C000012200019N0170001N1-00171-00381102351ADDGA1001+999999999GF100991001001999999001001MD1410001+9999REMSYN054AAXX  18151 22438 42967 00000 11017 21038 40235 54000;
0175224380999992000031818004+65200+036820FM-12+001899999V0209999C000012200019N0120001N1-00491-00661102391ADDAA199000091GA1001+999999999GF100991001001999999001001KA1999M-00011MD1310041+9999REMSYN064AAXX  18181 22438 32962 00000 11049 21066 40239 53004 333 11001;EQDQ01  00002PRCP99
0112224380999992000031821004+65200+036820FM-12+001899999V0201801N004012200019N0140001N1-00431-00701102211ADDGF101991011001999999031001MD1810081+9999REMSYN060AAXX  18211 22438 42964 11804 11043 21070 40221 58008 81030;
0133224380999992000031900004+65200+036820FM-12+001899999V0201801N005012200019N0160001N1-00381-00671102311ADDGF102991021001999999031001MA1999999101991MD1710101+9999REMSYN066AAXX  19001 22438 42966 21805 11038 21067 30199 40231 57010 82030;
0181224380999992000031903004+65200+036820FM-12+001899999V0201801N004010042019N0140001N1-00401-00521102151ADDAA199000091AJ100199199999999GF108991081061004501999999IA1299MD1610061+9999REMSYN076AAXX  19031 22438 32464 81804 11040 21052 40215 56006 886// 333 49019 55108;EQDQ01  00002PRCP99
0165224380999992000031906004+65200+036820FM-12+001899999V0201901N005010075019N0190001N1-00371-00481102081ADDAA199000091GF108991081051008001999999KA1999N-00491MD1710071+9999REMSYN070AAXX  19061 22438 32569 81905 11037 21048 40208 57007 885// 333 21049;EQDQ01  00002PRCP99
0112224380999992000031909004+65200+036820FM-12+001899999V02099999999992200019N0280001N1-00181-00321101961ADDGF103991021001999999031011MD1810121+9999REMSYN060AAXX  19091 22438 42978 3/906 11018 21032 40196 58012 82031;
0133224380999992000031912004+65200+036820FM-12+001899999V0202201N009019999999N0230001N1-00081-00331101811ADDGF107991071001999999071001MA1999999101591MD1710151+9999REMSYN066AAXX  19121 22438 42973 72209 11008 21033 30159 40181 57015 87070;
0131224380999992000031915004+65200+036820FM-12+001899999V0202201N009019999999N0200001N1-00151-00331999999ADDGF108991081001999999071999MD1810271+9999REMSYN060AAXX  19151 22438 42970 82209 11015 21033 40254 58027 8807/;EQDQ01+102543APOSLP
0209224380999992000031918004+65200+036820FM-12+001899999V0202101N012019999999N0190001N1-00091-00381101311ADDAA199000091AY131061AY221061GF107991999001999999071999KA1999M-00061MD1610231+9999MW1361REMSYN076AAXX  19181 22438 31969 72112 11009 21038 40131 56023 73632 8807/ 333 11006;EQDQ01+000082SCOTLCQ02  00002PRCP99
0140224380999992000031921004+65200+036820FM-12+001899999V0202101N012019999999N0170001N1-00041-00281100971ADDAY131031AY221031GF107991071001999999071001MD1810341+9999MW1361REMSYN066AAXX  19211 22438 41967 72112 11004 21028 40097 58034 73632 87070;
0160224380999992000032000004+65200+036820FM-12+001899999V0202001N013019999999N0160001N1-00061-00241100571ADDAY131061AY221061GF107991071001999999071001MA1999999100361MD1710391+9999MW1371REMSYN071AAXX  20001 22438 4196672013 11006 21024 30036 40057 57039 73732 87070;
0268224380999992000032003004+65200+036820FM-12+001899999V0202101N015019999999N0023001N1-00081-00181099972ADDAA124000091AJ100169199999999AY131031AY221031GF108991081001999999021999GJ102229IA1299MD1810601+9999MW1381REMSYN101AAXX  20031 22438 31923 82115 11008 21018 49997 58060 73832 8802/ 333 49016 55037 555 21016 7000/ /-;EQDQ01+099973APOSLPQ02  00002PRCP99Q03  00003PRCP99
0199224380999992000032006004+65200+036820FM-12+001899999V0202001N016019999999N0010001N1-00061-00121099301ADDAA199000091AY131061AY221061GF108991081001999999071999KA1120N-00161MD1710671+9999MW1391REMSYN082AAXX  20061 22438 31910 82016 11006 21012 49930 57067 73932 8807/ 333 21016 91122;EQDQ01  00002PRCP99
0150224380999992000032009004+65200+036820FM-12+001899999V0202101N015010075019N0039001N1-00051-00141099011ADDAY131031AY221031GF107991061051008001071001MD1610291+9999MW1381REMSYN076AAXX  20091 22438 41539 72115 11005 21014 49901 56029 73832 86570 333 91121;
0171224380999992000032012004+65200+036820FM-12+001899999V0202101N017010075019N0040001N1-00031-00091098871ADDAY131061AY221061GF107991071051008001001001MA1999999098661MD1710141+9999MW1381REMSYN082AAXX  20121 22438 41540 72117 11003 21009 39866 49887 57014 73832 87500 333 91121;
0150224380999992000032015004+65200+036820FM-12+001899999V0202401N011012200019N0280001N1+00041-00131098901ADDAY131031AY221031GF104991041051008001001001MD1310031+9999MW1021REMSYN076AAXX  20151 22438 41578 42411 10004 21013 49890 53003 70232 84500 333 91120;
0193224380999992000032018004+65200+036820FM-12+001899999V0202601N012012200019N0300001N1-00061-00301099091ADDAA199000091AY131061AY211061GF102991021051008001001001KA1999M+00041MD1210191+9999MW1021REMSYN076AAXX  20181 22438 31580 22612 11006 21030 49909 52019 70231 82500 333 10004;EQDQ01  00002PRCP99
0112224380999992000032021004+65200+036820FM-12+001899999V0202601N012012200019N0300001N1-00151-00351099271ADDGF101991011001999999031001MD1210181+9999REMSYN060AAXX  20211 22438 42980 12612 11015 21035 49927 52018 81030;
0133224380999992000032100004+65200+036820FM-12+001899999V0202701N011012200019N0290001N1-00271-00431099401ADDGF102991021051008001001001MA1999999099191MD1210131+9999REMSYN066AAXX  21001 22438 42579 22711 11027 21043 39919 49940 52013 82500;
0175224380999992000032106004+65200+036820FM-12+001899999V0202401N008012200019N0300001N1-00161-00741099591ADDAA199000091GA1001+999999999GF100991001001999999001001KA1999N-00281MD1210111+9999REMSYN064AAXX  21061 22438 32980 02408 11016 21074 49959 52011 333 21028;EQDQ01  00002PRCP99
0112224380999992000032109004+65200+036820FM-12+001899999V0202501N007012200019N0300001N1-00111-00611099661ADDGF101991011011008001001001MD1210071+9999REMSYN060AAXX  21091 22438 42580 12507 11011 21061 49966 52007 81100;
0152224380999992000032112004+65200+036820FM-12+001899999V0202301N009012200019N0300001N1-00051-00541099811ADDGF102991999011008001001001MA1999999099501MD1210051+9999REMSYN066AAXX  21121 22438 42580 22309 11005 21054 39950 49981 52005 81100;EQDQ01+000012SCOTLC
0112224380999992000032115004+65200+036820FM-12+001899999V0202301N007012200019N0290001N1-00221-00611099701ADDGF102991021011008001001001MD1810011+9999REMSYN060AAXX  21151 22438 42579 22307 11022 21061 49970 58001 82100;
0165224380999992000032118004+65200+036820FM-12+001899999V0202401N006012200019N0280001N1-00441-00711099691ADDAA199000091GF103991031041012501001001KA1999M-00061MD1710021+9999REMSYN070AAXX  21181 22438 32678 32406 11044 21071 49969 57002 83400 333 11006;EQDQ01  00002PRCP99
0122224380999992000032121004+65200+036820FM-12+001899999V0202301N007012200019N0290001N1-00371-00741099651ADDGA1001+999999999GF100991001001999999001001MD1710041+9999REMSYN054AAXX  21211 22438 42979 02307 11037 21074 49965 57004;
0143224380999992000032200004+65200+036820FM-12+001899999V0202401N008012200019N0300001N1-00331-00761099601ADDGA1001+999999999GF100991001001999999001001MA1999999099381MD1710051+9999REMSYN060AAXX  22001 22438 42980 02408 11033 21076 39938 49960 57005;
0224224380999992000032203004+65200+036820FM-12+001899999V0202401N009012200019N0350001N1-00321-00751099541ADDAA124000091AJ100169199999999GF101991011001999999031001GJ107029IA1299MD1710061+9999REMSYN095AAXX  22031 22438 32981 12409 11032 21075 49954 57006 81030 333 49016 55117 555 2104- 7000/ /-;EQDQ01  00002PRCP99Q02  00003PRCP99
0175224380999992000032206004+65200+036820FM-12+001899999V0202501N009012200019N0350001N1-00241-00681099491ADDAA199000091GA1001+999999999GF100991001001999999001001KA1999N-00441MD1710051+9999REMSYN064AAXX  22061 22438 32981 02509 11024 21068 49949 57005 333 21044;EQDQ01  00002PRCP99
0122224380999992000032209004+65200+036820FM-12+001899999V0202201N007012200019N0350001N1-00271-00701099521ADDGA1001+999999999GF100991001001999999001001MD1310031+9999REMSYN054AAXX  22091 22438 42981 02207 11027 21070 49952 53003;
0143224380999992000032212004+65200+036820FM-12+001899999V0202001N005012200019N0350001N1-00211-00671099541ADDGA1001+999999999GF100991001001999999001001MA1999999099331MD1110021+9999REMSYN060AAXX  22121 22438 42981 02005 11021 21067 39933 49954 51002;
0122224380999992000032215004+65200+036820FM-12+001899999V0202001N006012200019N0350001N1-00521-01021099491ADDGA1001+999999999GF100991001001999999001001MD1810051+9999REMSYN054AAXX  22151 22438 42981 02006 11052 21102 49949 58005;
0175224380999992000032218004+65200+036820FM-12+001899999V0202201N006012200019N0350001N1-00611-01011099461ADDAA199000091GA1001+999999999GF100991001001999999001001KA1999M-00201MD1610041+9999REMSYN064AAXX  22181 22438 32981 02206 11061 21101 49946 56004 333 11020;EQDQ01  00002PRCP99
0106224380999992000032221004+65200+036820FM-12+001899999V0202301N006012200019N0350001N1-00961+99999099431ADDGF102991001001999999001011MD1710031+9999REMSYN054AAXX  22211 22438 42981 22306 11096 49943 57003 80001;
0133224380999992000032300004+65200+036820FM-12+001899999V0202301N005012200019N0350001N1-01111-01391099421ADDGF102991001001999999001011MA1999999099201MD1610011+9999REMSYN066AAXX  23001 22438 42981 22305 11111 21139 39920 49942 56001 80001;
0191224380999992000032303004+65200+036820FM-12+001899999V0202001N005012200019N0350001N1-00931-01281099281ADDAA199000091AJ100169199999999GA1001+999999999GF100991001001999999001001IA1299MD1810141+9999REMSYN070AAXX  23031 22438 32981 02005 11093 21128 49928 58014 333 49016 55118;EQDQ01  00002PRCP99
0175224380999992000032306004+65200+036820FM-12+001899999V0202001N006012200019N0350001N1-00851-01231099231ADDAA199000091GA1001+999999999GF100991001001999999001001KA1999N-01171MD1610051+9999REMSYN064AAXX  23061 22438 32981 02006 11085 21123 49923 56005 333 21117;EQDQ01  00002PRCP99
0112224380999992000032309004+65200+036820FM-12+001899999V0202101N007019999999N0350001N1-00491-00771099201ADDGF105991051001999999031001MD1610031+9999REMSYN060AAXX  23091 22438 42981 52107 11049 21077 49920 56003 85030;
0133224380999992000032312004+65200+036820FM-12+001899999V0202101N007012200019N0350001N1-00351-00501099201ADDGF102991011011999999031011MA1999999098981MD1410001+9999REMSYN066AAXX  23121 22438 42981 22107 11035 21050 39898 49920 54000 81131;
0112224380999992000032315004+65200+036820FM-12+001899999V0202001N006012200019N0350001N1-00471-00831099151ADDGF102991011051999999001011MD1810051+9999REMSYN060AAXX  23151 22438 42981 22006 11047 21083 49915 58005 81501;
0165224380999992000032318004+65200+036820FM-12+001899999V0202101N007019999999N0300001N1-00541-00921099101ADDAA199000091GF106991061001999999071001KA1999M-00331MD1710051+9999REMSYN070AAXX  23181 22438 32980 62107 11054 21092 49910 57005 86070 333 11033;EQDQ01  00002PRCP99
0112224380999992000032321004+65200+036820FM-12+001899999V0202201N004019999999N0280001N1-00621-00851099111ADDGF106991061001999999071001MD1310011+9999REMSYN060AAXX  23211 22438 42978 62204 11062 21085 49911 53001 86070;
0133224380999992000032400004+65200+036820FM-12+001899999V0202201N003019999999N0260001N1-00701-00911099111ADDGF106991061001999999071001MA1999999098891MD1410001+9999REMSYN066AAXX  24001 22438 42976 62203 11070 21091 39889 49911 54000 86070;
0181224380999992000032403004+65200+036820FM-12+001899999V0202101N004012200019N0270001N1-00751-01011099071ADDAA199000091AJ100169199999999GF101991011001999999031001IA1299MD1810041+9999REMSYN076AAXX  24031 22438 32977 12104 11075 21101 49907 58004 81030 333 49016 55086;EQDQ01  00002PRCP99
0181224380999992000032406004+65200+036820FM-12+001899999V0202101N004012200019N0290001N1-00871-00941099101ADDAA199000091GF102991011001999999031051KA1999N+99999MD1310031+9999REMSYN070AAXX  24061 22438 32979 22104 11087 21094 49910 53003 81035 333 21075;EQDQ01  00002PRCP99Q02 -00752ATMN  
0112224380999992000032409004+65200+036820FM-12+001899999V0202101N004010075019N0250001N1-00381-00531099251ADDGF107991061051008001031001MD1210151+9999REMSYN060AAXX  24091 22438 42575 72104 11038 21053 49925 52015 86530;
0161224380999992000032412004+65200+036820FM-12+001899999V0202201N004010300019N0060001N1-00341-00511099381ADDAY171061AY211061GF108991031051008001021999MA1999999099161MD1210131+9999MW1711REMSYN072AAXX  24121 22438 41556 82204 11034 21051 39916 49938 52013 77171 8352/;
0140224380999992000032415004+65200+036820FM-12+001899999V0202001N002019999999N0050001N1-00361-00411099481ADDAY171031AY221031GF108991081001999999021999MD1210101+9999MW1701REMSYN066AAXX  24151 22438 41950 82002 11036 21041 49948 52010 77072 8802/;
0180224380999992000032418004+65200+036820FM-12+001899999V0201901N001019999999N0048001N1-00371-00421099571ADDAA100000791AY171061AY221061GF108991081001999999021999KA1999M-00341MD1210091+9999MW1701REMSYN082AAXX  24181 22438 11948 81901 11037 21042 49957 52009 69900 77072 8802/ 333 11034;
0140224380999992000032421004+65200+036820FM-12+001899999V0200201N002019999999N0050001N1-00341-00381099681ADDAY171031AY221031GF108991081001999999021999MD1210111+9999MW1701REMSYN066AAXX  24211 22438 41950 80202 11034 21038 49968 52011 77072 8802/;
0161224380999992000032500004+65200+036820FM-12+001899999V0200301N002019999999N0046001N1-00301-00441099781ADDAY171061AY221061GF108991071001999999021999MA1999999099561MD1210101+9999MW1701REMSYN072AAXX  25001 22438 41946 80302 11030 21044 39956 49978 52010 77072 8702/;
0180224380999992000032506004+65200+036820FM-12+001899999V0203601N004010042019N0049001N1-00301-00341100121ADDAA100000191AY171061AY221061GF108991081001004501021999KA1999N-00371MD1610081+9999MW1701REMSYN082AAXX  25061 22438 11449 83604 11030 21034 40012 56008 69920 77072 8802/ 333 21037;
0140224380999992000032509004+65200+036820FM-12+001899999V0200201N002010042019N0180001N1-00271-00371100321ADDAY171031AY221031GF108991081061004501999999MD1310211+9999MW1021REMSYN066AAXX  25091 22438 41468 80202 11027 21037 40032 53021 70272 886//;
0161224380999992000032512004+65200+036820FM-12+001899999V0200301N003010075019N0240001N1-00271-00461100461ADDAY171061AY221061GF108991081051008001999999MA1999999100251MD1110141+9999MW1021REMSYN072AAXX  25121 22438 41574 80303 11027 21046 30025 40046 51014 70272 885//;
0112224380999992000032515004+65200+036820FM-12+001899999V0203401N001019999999N0300001N1-00301-00501100571ADDGF107991071001008001001001MD1210101+9999REMSYN060AAXX  25151 22438 42580 73401 11030 21050 40057 52010 87000;
0152224380999992000032518004+65200+036820FM-12+001899999V0203201N001012200019N0350001N1-00521-00851100641ADDAA100000791GF102991021051008001001001KA1999M-00231MD1210071+9999REMSYN076AAXX  25181 22438 12581 23201 11052 21085 40064 52007 69900 82500 333 11023;
0112224380999992000032521004+65200+036820FM-12+001899999V0202201N004012200019N0300001N1-00621-00921100681ADDGF101991011001999999031001MD1110041+9999REMSYN060AAXX  25211 22438 42980 12204 11062 21092 40068 51004 81030;
0133224380999992000032600004+65200+036820FM-12+001899999V0202201N004019999999N0230001N1-00681-00921100711ADDGF106991061001999999031011MA1999999100491MD1210031+9999REMSYN066AAXX  26001 22438 42973 62204 11068 21092 30049 40071 52003 86031;
0209224380999992000032603004+65200+036820FM-12+001899999V0202101N005012200019N0027001N1-00981-01011100771ADDAA199000091AJ100169199999999AY111031AY211031GF102991021001999999031001IA1299MD1210061+9999MW1101REMSYN082AAXX  26031 22438 31927 22105 11098 21101 40077 52006 71011 82030 333 49016 55000;EQDQ01  00002PRCP99
0193224380999992000032606004+65200+036820FM-12+001899999V0202101N004012200019N0008001N1-00811-00831100831ADDAA199000091AY141061AY211061GF102991011001999999031011KA1999N-01011MD1210061+9999MW1441REMSYN076AAXX  26061 22438 31908 22104 11081 21083 40083 52006 74441 81031 333 21101;EQDQ01  00002PRCP99
0140224380999992000032609004+65200+036820FM-12+001899999V0202501N003010300019N0009001N1-00651-00701100941ADDAY141031AY211031GF106991031011004501031011MD1210121+9999MW1441REMSYN066AAXX  26091 22438 41409 62503 11065 21070 40094 52012 74441 83131;
0161224380999992000032612004+65200+036820FM-12+001899999V0203201N003019999999N0019001N1-00441-00461101081ADDAY141061AY211061GF107991071001999999071001MA1999999100861MD1210141+9999MW1101REMSYN072AAXX  26121 22438 41919 73203 11044 21046 30086 40108 52014 71041 87070;
0112224380999992000032615004+65200+036820FM-12+001899999V0203501N004012200019N0210001N1-00461-00551101141ADDGF102991021001999999031011MD1110061+9999REMSYN060AAXX  26151 22438 42971 23504 11046 21055 40114 51006 82031;
0165224380999992000032618004+65200+036820FM-12+001899999V0202901N003012200019N0290001N1-00651-00891101281ADDAA199000091GF101991001001999999001011KA1999M-00411MD1310141+9999REMSYN070AAXX  26181 22438 32979 12903 11065 21089 40128 53014 80001 333 11041;EQDQ01  00002PRCP99
0122224380999992000032621004+65200+036820FM-12+001899999V0203401N003012200019N0260001N1-00611-00721101391ADDGA1001+999999999GF100991001001999999001001MD1110111+9999REMSYN054AAXX  26211 22438 42976 03403 11061 21072 40139 51011;
0143224380999992000032700004+65200+036820FM-12+001899999V0203501N002012200019N0250001N1-00691-00781101461ADDGA1001+999999999GF100991001001999999001001MA1999999101241MD1210071+9999REMSYN060AAXX  27001 22438 42975 03502 11069 21078 30124 40146 52007;
0165224380999992000032706004+65200+036820FM-12+001899999V0203301N005012200019N0250001N1-00641-00801101741ADDAA199000091GF101991001001999999001011KA1999N-00691MD1210151+9999REMSYN070AAXX  27061 22438 32975 13305 11064 21080 40174 52015 80001 333 21069;EQDQ01  00002PRCP99
0112224380999992000032709004+65200+036820FM-12+001899999V0203201N005012200019N0220001N1-00511-00761101931ADDGF101991011011008001001001MD1210191+9999REMSYN060AAXX  27091 22438 42572 13205 11051 21076 40193 52019 81100;
0133224380999992000032712004+65200+036820FM-12+001899999V0202901N005012200019N0200001N1-00461-00731102011ADDGF102991021011008001001001MA1999999101791MD1110071+9999REMSYN066AAXX  27121 22438 42570 22905 11046 21073 30179 40201 51007 82100;
0112224380999992000032715004+65200+036820FM-12+001899999V0202601N004012200019N0250001N1-00461-00891102021ADDGF102991001001999999001011MD1210011+9999REMSYN060AAXX  27151 22438 42975 22604 11046 21089 40202 52001 80001;
0165224380999992000032718004+65200+036820FM-12+001899999V0202501N005012200019N0220001N1-00571-01091101971ADDAA199000091GF102991001001999999001011KA1999M-00461MD1810051+9999REMSYN070AAXX  27181 22438 32972 22505 11057 21109 40197 58005 80001 333 11046;EQDQ01  00002PRCP99
0122224380999992000032721004+65200+036820FM-12+001899999V0202601N007012200019N0230001N1-00501-01041101871ADDGA1001+999999999GF100991001001999999001001MD1710101+9999REMSYN054AAXX  27211 22438 42973 02607 11050 21104 40187 57010;
0143224380999992000032800004+65200+036820FM-12+001899999V0202501N008012200019N0250001N1-00471-01041101741ADDGA1001+999999999GF100991001001999999001001MA1999999101521MD1710131+9999REMSYN060AAXX  28001 22438 42975 02508 11047 21104 30152 40174 57013;
0181224380999992000032803004+65200+036820FM-12+001899999V0202401N009019999999N0230001N1-00421-00651101661ADDAA199000091AJ100169199999999GF108991081001999999071999IA1299MD1710081+9999REMSYN076AAXX  28031 22438 32973 82409 11042 21065 40166 57008 8807/ 333 49016 55084;EQDQ01  00002PRCP99
0165224380999992000032806004+65200+036820FM-12+001899999V0202401N009019999999N0220001N1-00391-00581101581ADDAA199000091GF107991061001999999071011KA1999N-00571MD1710081+9999REMSYN070AAXX  28061 22438 32972 72409 11039 21058 40158 57008 86071 333 21057;EQDQ01  00002PRCP99
0140224380999992000032809004+65200+036820FM-12+001899999V0202501N010012200019N0300001N1-00321-00711101551ADDAY131031AY211031GF102991001001999999001011MD1610031+9999MW1361REMSYN066AAXX  28091 22438 41980 22510 11032 21071 40155 56003 73631 80001;
0171224380999992000032812004+65200+036820FM-12+001899999V0202701N011012200019N0300001N1-00131-00721101551ADDAY131061AY211061GA1001+999999999GF100991001001999999001001MA1999999101331MD1410001+9999MW1361REMSYN066AAXX  28121 22438 41980 02711 11013 21072 30133 40155 54000 73631;
0140224380999992000032815004+65200+036820FM-12+001899999V0202601N008019999999N0290001N1-00101-00601101581ADDAY131031AY211031GF106991061001999999071001MD1310031+9999MW1021REMSYN066AAXX  28151 22438 41979 62608 11010 21060 40158 53003 70231 86070;
0193224380999992000032818004+65200+036820FM-12+001899999V0202701N005019999999N0260001N1-00141-00401101661ADDAA199000091AY131061AY211061GF107991071001999999071001KA1999M-00101MD1210081+9999MW1021REMSYN076AAXX  28181 22438 31976 72705 11014 21040 40166 52008 70231 87070 333 11010;EQDQ01  00002PRCP99
0133224380999992000032900004+65200+036820FM-12+001899999V0202801N002019999999N0220001N1-00291-00491101731ADDGF107991071001999999071001MA1999999101511MD1210041+9999REMSYN066AAXX  29001 22438 42972 72802 11029 21049 30151 40173 52004 87070;
0181224380999992000032903004+65200+036820FM-12+001899999V0202601N007010042019N0190001N1-00311-00551101611ADDAA199000091AJ100169199999999GF108991081061004501999999IA1299MD1810121+9999REMSYN076AAXX  29031 22438 32469 82607 11031 21055 40161 58012 886// 333 49016 55100;EQDQ01  00002PRCP99
0135224380999992000032906004+65200+036820FM-12+001899999V0202301N007010042019N0180001N1-00261-00391101501ADDGF108991081061004501999999KA1999N-00371MD1710111+9999REMSYN070AAXX  29061 22438 42468 82307 11026 21039 40150 57011 886// 333 21037;
0112224380999992000032909004+65200+036820FM-12+001899999V0202301N009010075019N0250001N1-00171-00551101271ADDGF107991071051008001001001MD1810231+9999REMSYN060AAXX  29091 22438 42575 72309 11017 21055 40127 58023 87500;
0140224380999992000032915004+65200+036820FM-12+001899999V0202401N009010042019N0028001N1-00151-00291100751ADDAY181031AY231031GF108991081091004501999999MD1710231+9999MW1861REMSYN066AAXX  29151 22438 41428 82409 11015 21029 40075 57023 78683 889//;
0180224380999992000032918004+65200+036820FM-12+001899999V0202301N008010042019N0060001N1-00171-00281100551ADDAA100000591AY181061AY231061GF108991081091004501999999KA1999M-00091MD1610191+9999MW1851REMSYN082AAXX  29181 22438 11456 82308 11017 21028 40055 56019 69950 78583 889// 333 11009;
0140224380999992000032921004+65200+036820FM-12+001899999V0202401N007010042019N0050001N1-00201-00321100311ADDAY181031AY231031GF108991081091004501999999MD1810241+9999MW1851REMSYN066AAXX  29211 22438 41450 82407 11020 21032 40031 58024 78583 889//;
0161224380999992000033000004+65200+036820FM-12+001899999V0202401N008010042019N0050001N1-00221-00311100061ADDAY181061AY231061GF108991081091004501999999MA1999999099851MD1710251+9999MW1851REMSYN072AAXX  30001 22438 41450 82408 11022 21031 39985 40006 57025 78583 889//;
0179224380999992000033003004+65200+036820FM-12+001899999V0202301N008010042019N0038001N1-00021-00051099611ADDAJ100179199999999AY181031AY221031GF108991081091004501999999IA1299MD1810451+9999MW1851REMSYN082AAXX  30031 22438 /1438 82308 11002 21005 49961 58045 78582 889// 333 49017 55000;
0161224380999992000033012004+65200+036820FM-12+001899999V0202301N008019999999N0300001N1+00211-00101099461ADDAY181061AY221061GF106991031001999999031041MA1999999099251MD1810101+9999MW1021REMSYN072AAXX  30121 22438 41980 62308 10021 21010 39925 49946 58010 70282 83034;
0112224380999992000033015004+65200+036820FM-12+001899999V0202401N009010120019N0300001N1+00271-00121099221ADDGF107991061051012501031041MD1710241+9999REMSYN060AAXX  30151 22438 42680 72409 10027 21012 49922 57024 86534;
0152224380999992000033018004+65200+036820FM-12+001899999V0202501N010012200019N0280001N1+00181-00131099181ADDAA100000391GF104991021001999999031041KA1999M+00271MD1610041+9999REMSYN076AAXX  30181 22438 12978 42510 10018 21013 49918 56004 69930 82034 333 10027;
0122224380999992000033021004+65200+036820FM-12+001899999V0202501N009012200019N0300001N1+00131-00161099091ADDGA1001+999999999GF100991001001999999001001MD1710091+9999REMSYN054AAXX  30211 22438 42980 02509 10013 21016 49909 57009;
0143224380999992000033100004+65200+036820FM-12+001899999V0202401N009012200019N0270001N1+00081-00161099021ADDGA1001+999999999GF100991001001999999001001MA1999999099711MD1710071+9999REMSYN060AAXX  31001 22438 42977 02409 10008 21016 39971 49902 57007;
0197224380999992000033103004+65200+036820FM-12+001899999V0202901N009012200019N0300001N1+00131-00161098292ADDAA199000091AJ100159199999999GF102991021001999999031001IA1249MD1210271+9999REMSYN076AAXX  31031 22438 32980 22909 10013 21016 49829 52027 82030 333 48015 55021;EQDQ01+098293APOSLPQ02  00002PRCP99
0197224380999992000033106004+65200+036820FM-12+001899999V0203301N008012200019N0300001N1+00211-00131099802ADDAA199000091GF101991011001999999031001KA1999N+00071MD1310512+9999REMSYN070AAXX  31061 22438 32980 13308 10021 21013 49980 53051 81030 333 20007;EQDQ01+099803APOSLPQ02+000512APC3  Q03  00002PRCP99
0122224380999992000033109004+65200+036820FM-12+001899999V0203301N006012200019N0350001N1-00101-00571100271ADDGA1001+999999999GF100991001001999999001001MD1110471+9999REMSYN054AAXX  31091 22438 42981 03306 11010 21057 40027 51047;
0112224380999992000033115004+65200+036820FM-12+001899999V0200801N001019999999N0300001N1-00141-00621100631ADDGF107991001001999999001041MD1110051+9999REMSYN060AAXX  31151 22438 42980 70801 11014 21062 40063 51005 80004;
0165224380999992000033118004+65200+036820FM-12+001899999V0201301N005019999999N0300001N1-00201-00551100671ADDAA199000091GF106991001001999999001071KA1999M+00151MD1210031+9999REMSYN070AAXX  31181 22438 32980 61305 11020 21055 40067 52003 80007 333 10015;EQDQ01  00002PRCP99
0112224380999992000033121004+65200+036820FM-12+001899999V0201401N008019999999N0240001N1-00251-00511100511ADDGF108991081001999999071999MD1810161+9999REMSYN060AAXX  31211 22438 42974 81408 11025 21051 40051 58016 8807/;
0161224380999992000040100004+65200+036820FM-12+001899999V0201401N009019999999N0210001N1-00291-00521100311ADDAY131061AY221061GF108991081001999999071999MA1999999100091MD1710211+9999MW1381REMSYN072AAXX  01001 22438 41971 81409 11029 21052 30009 40031 57021 73832 8807/;
0179224380999992000040103004+65200+036820FM-12+001899999V0201101N005010075019N0042001N1-00281-00411100041ADDAJ100149199999999AY171031AY231031GF108991081001008001021999IA1299MD1710261+9999MW1711REMSYN082AAXX  01031 22438 /1542 81105 11028 21041 40004 57026 77173 8802/ 333 49014 55100;
0180224380999992000040106004+65200+036820FM-12+001899999V0201001N005010075019N0040001N1-00251-00411099881ADDAA100000791AY171061AY231061GF108991081001008001021999KA1999N-00351MD1610161+9999MW1711REMSYN082AAXX  01061 22438 11540 81005 11025 21041 49988 56016 69900 77173 8802/ 333 21035;
0140224380999992000040109004+65200+036820FM-12+001899999V0200901N005010075019N0044001N1-00091-00221099781ADDAY171031AY221031GF108991081001008001021999MD1710101+9999MW1701REMSYN066AAXX  01091 22438 41544 80905 11009 21022 49978 57010 77072 8802/;
0180224380999992000040112004+65200+036820FM-12+001899999V0201001N006010075019N0024001N1-00071-00141099611ADDAY171061AY221061GF108991081001008001021999MA1999999099401MD1810171+9999MW1731REMSYN072AAXX  01121 22438 41524 81006 11007 21014 39940 49961 58107 77372 8802/;EQDQ01+001072APC3  
0140224380999992000040115004+65200+036820FM-12+001899999V0201501N002010075019N0060001N1+00041-00071099401ADDAY171031AY261031GF108991081001008001021999MD1710211+9999MW1611REMSYN066AAXX  01151 22438 41556 81502 10004 21007 49940 57021 76176 8802/;
0179224380999992000040203004+65200+036820FM-12+001899999V0202701N014010042019N0170001N1-00261-00561099231ADDAJ100139199999999AY181031AY261031GF108991081091004501999999IA1299MD1310151+9999MW1021REMSYN082AAXX  02031 22438 /1467 82714 11026 21056 49923 53015 70286 889// 333 49013 55000;
0140224380999992000040209004+65200+036820FM-12+001899999V0202701N017010075019N0060001N1-00231-00421099641ADDAY181031AY221031GF107991071091008001001001MD1210211+9999MW1851REMSYN066AAXX  02091 22438 41556 72717 11023 21042 49964 52021 78582 87900;
0161224380999992000040212004+65200+036820FM-12+001899999V0203201N016012200019N0100001N1-00201-00551100061ADDAY181061AY231061GF104991021091008001031001MA1999999099851MD1310421+9999MW1151REMSYN072AAXX  02121 22438 41560 43216 11020 21055 39985 40006 53042 71583 82930;
0140224380999992000040215004+65200+036820FM-12+001899999V0203201N016012200019N0150001N1-00231-00951100641ADDAY131031AY201031GF102991021011008001001001MD1210581+9999MW1361REMSYN066AAXX  02151 22438 41565 23216 11023 21095 40064 52058 73630 82100;
0180224380999992000040218004+65200+036820FM-12+001899999V0203201N010012200019N0170001N1-00261-00961101061ADDAA100000591AY131061AY201061GF101991011011008001001001KA1999M-00201MD1210411+9999MW1021REMSYN082AAXX  02181 22438 11567 13210 11026 21096 40106 52041 69960 70230 81100 333 11020;
0122224380999992000040221004+65200+036820FM-12+001899999V0203301N007012200019N0200001N1-00401-00851101371ADDGA1001+999999999GF100991001001999999001001MD1210311+9999REMSYN054AAXX  02211 22438 42970 03307 11040 21085 40137 52031;
0143224380999992000040300004+65200+036820FM-12+001899999V0203201N005012200019N0220001N1-00461-00851101641ADDGA1001+999999999GF100991001001999999001001MA1999999101421MD1210271+9999REMSYN060AAXX  03001 22438 42972 03205 11046 21085 30142 40164 52027;
0181224380999992000040303004+65200+036820FM-12+001899999V0203201N004012200019N0290001N1-00581-01011101891ADDAA199000091AJ100129199999999GF101991011011008001001001IA1299MD1210251+9999REMSYN076AAXX  03031 22438 32579 13204 11058 21101 40189 52025 81100 333 49012 55022;EQDQ01  00002PRCP99
0165224380999992000040306004+65200+036820FM-12+001899999V0202401N001019999999N0300001N1-00441-00951102051ADDAA199000091GF108991001001999999001061KA1999N-00421MD1110161+9999REMSYN070AAXX  03061 22438 32980 82401 11044 21095 40205 51016 80006 333 21042;EQDQ01  00002PRCP99
0112224380999992000040309004+65200+036820FM-12+001899999V0202201N002010750019N0300001N1-00281-00661102181ADDGF107991011011008001001021MD1210131+9999REMSYN060AAXX  03091 22438 42580 72202 11028 21066 40218 52013 81102;
0133224380999992000040312004+65200+036820FM-12+001899999V0200501N003010750019N0350001N1-00151-00631102221ADDGF106991021011008001001021MA1999999102001MD1110041+9999REMSYN066AAXX  03121 22438 42581 60503 11015 21063 30200 40222 51004 82102;
0112224380999992000040315004+65200+036820FM-12+001899999V0200901N007019999999N0300001N1-00291-00711102141ADDGF107991001001999999001061MD1810081+9999REMSYN060AAXX  03151 22438 42980 70907 11029 21071 40214 58008 80006;
0165224380999992000040318004+65200+036820FM-12+001899999V0201201N007019999999N0270001N1-00451-00761102061ADDAA199000091GF107991001001999999001041KA1999M-00121MD1710081+9999REMSYN070AAXX  03181 22438 32977 71207 11045 21076 40206 57008 80004 333 11012;EQDQ01  00002PRCP99
0112224380999992000040321004+65200+036820FM-12+001899999V0201001N007019999999N0240001N1-00611-00801102031ADDGF107991001001999999001051MD1610031+9999REMSYN060AAXX  03211 22438 42974 71007 11061 21080 40203 56003 80005;
0133224380999992000040400004+65200+036820FM-12+001899999V0201101N007019999999N0220001N1-00771-00911101991ADDGF108991031001999999031041MA1999999101771MD1710041+9999REMSYN066AAXX  04001 22438 42972 81107 11077 21091 30177 40199 57004 83034;
0181224380999992000040403004+65200+036820FM-12+001899999V0201001N008012200019N0270001N1-00661-00941101861ADDAA199000091AJ100139199999999GF101991001001999999001011IA1299MD1810131+9999REMSYN076AAXX  04031 22438 32977 11008 11066 21094 40186 58013 80001 333 49013 55114;EQDQ01  00002PRCP99
0175224380999992000040406004+65200+036820FM-12+001899999V0200901N009012200019N0300001N1-00431-00811101741ADDAA199000091GA1001+999999999GF100991001001999999001001KA1999N-00781MD1710121+9999REMSYN064AAXX  04061 22438 32980 00909 11043 21081 40174 57012 333 21078;EQDQ01  00002PRCP99
0112224380999992000040409004+65200+036820FM-12+001899999V0200901N008019999999N0280001N1-00331-00611101641ADDGF106991001001999999001041MD1710101+9999REMSYN060AAXX  04091 22438 42978 60908 11033 21061 40164 57010 80004;
0133224380999992000040412004+65200+036820FM-12+001899999V0200901N009019999999N0280001N1-00291-00601101561ADDGF105991001001999999001041MA1999999101341MD1710081+9999REMSYN066AAXX  04121 22438 42978 50909 11029 21060 30134 40156 57008 80004;
0112224380999992000040415004+65200+036820FM-12+001899999V0201001N008019999999N0290001N1-00171-00581101451ADDGF108991001001999999001061MD1710111+9999REMSYN060AAXX  04151 22438 42979 81008 11017 21058 40145 57011 80006;
0165224380999992000040418004+65200+036820FM-12+001899999V0201301N006012200019N0280001N1-00321-00711101441ADDAA199000091GF102991001001999999001011KA1999M-00171MD1610011+9999REMSYN070AAXX  04181 22438 32978 21306 11032 21071 40144 56001 80001 333 11017;EQDQ01  00002PRCP99
0112224380999992000040421004+65200+036820FM-12+001899999V0201401N007019999999N0250001N1-00401-00651101341ADDGF106991001001999999001041MD1810091+9999REMSYN060AAXX  04211 22438 42975 61407 11040 21065 40134 58009 80004;
0112224380999992000040509004+65200+036820FM-12+001899999V0201501N010019999999N0300001N1+00111-00611100541ADDGF108991061001999999031041MD1810301+9999REMSYN060AAXX  05091 22438 42980 81510 10011 21061 40054 58030 86034;
0140224380999992000040515004+65200+036820FM-12+001899999V0201701N013010120019N0100001N1+00181-00131100001ADDAY161031AY221031GF108991081001012501021999MD1710291+9999MW1611REMSYN066AAXX  05151 22438 41660 81713 10018 21013 40000 57029 76162 8802/;
0199224380999992000040518004+65200+036820FM-12+001899999V0201801N014010075019N0080001N1+00171+00151099831ADDAA100000791AY161061AY221061GF108991081001008001021999KA1999M+99999MD1710171+9999MW1611REMSYN082AAXX  05181 22438 11558 81814 10017 20015 49983 57017 69900 76162 8802/ 333 11018;EQDQ01 -00182ATMX  
0140224380999992000040521004+65200+036820FM-12+001899999V0201901N016010075019N0150001N1+00241+00161099721ADDAY161031AY221031GF108991081051008001999999MD1610111+9999MW1021REMSYN066AAXX  05211 22438 41565 81916 10024 20016 49972 56011 70262 885//;
0161224380999992000040600004+65200+036820FM-12+001899999V0201801N016010075019N0180001N1+00261+00161099631ADDAY161061AY221061GF108991081051008001999999MA1999999099421MD1710091+9999MW1021REMSYN072AAXX  06001 22438 41568 81816 10026 20016 39942 49963 57009 70262 885//;
0151224380999992000040603004+65200+036820FM-12+001899999V0201801N013010021019N0120001N1+00291+00211099671ADDAJ100119199999999GF108991081061002501999999IA1299MD1310041+9999REMSYN076AAXX  06031 22438 /2362 81813 10029 20021 49967 53004 886// 333 49011 55000;
0161224380999992000040612004+65200+036820FM-12+001899999V0202001N013010300019N0260001N1-00021-00291099831ADDAY181061AY251061GF106991041091008001041011MA1999999099621MD1810021+9999MW1021REMSYN072AAXX  06121 22438 41576 62013 11002 21029 39962 49983 58002 70285 84941;
0112224380999992000040615004+65200+036820FM-12+001899999V0202001N012010075019N0280001N1-00141-00431099801ADDGF106991061051008001001001MD1710031+9999REMSYN060AAXX  06151 22438 42578 62012 11014 21043 49980 57003 86500;
0152224380999992000040618004+65200+036820FM-12+001899999V0202001N014012200019N0250001N1-00221-00371099691ADDAA100000891GF102991021051008001001001KA1999M+00291MD1810111+9999REMSYN076AAXX  06181 22438 12575 22014 11022 21037 49969 58011 69970 82500 333 10029;
0112224380999992000040621004+65200+036820FM-12+001899999V0202201N013010075019N0230001N1-00271-00471099611ADDGF105991051051008001001001MD1610081+9999REMSYN060AAXX  06211 22438 42573 52213 11027 21047 49961 56008 85500;
0133224380999992000040700004+65200+036820FM-12+001899999V0202201N013010075019N0200001N1-00311-00411099551ADDGF106991051051008001031001MA1999999099341MD1710061+9999REMSYN066AAXX  07001 22438 42570 62213 11031 21041 39934 49955 57006 85530;
0181224380999992000040703004+65200+036820FM-12+001899999V0202601N012012200019N0240001N1-00301-00431099881ADDAA199000091AJ100109199999999GF103991031001999999031001IA1219MD1310331+9999REMSYN076AAXX  07031 22438 31974 32612 11030 21043 49988 53033 83030 333 45010 55000;EQDQ01  00002PRCP99
0175224380999992000040706004+65200+036820FM-12+001899999V0202701N008012200019N0300001N1-00181-00401100471ADDAA199000091GA1001+999999999GF100991001001999999001001KA1999N-00361MD1310591+9999REMSYN064AAXX  07061 22438 32980 02708 11018 21040 40047 53059 333 21036;EQDQ01  00002PRCP99
0112224380999992000040709004+65200+036820FM-12+001899999V0203201N009012200019N0350001N1+00011-00431101141ADDGF101991001001999999001011MD1210661+9999REMSYN060AAXX  07091 22438 42981 13209 10001 21043 40114 52066 80001;
0133224380999992000040712004+65200+036820FM-12+001899999V0203301N006012200019N0280001N1-00011-00381101691ADDGF103991021001999999031011MA1999999101471MD1210551+9999REMSYN066AAXX  07121 22438 42978 33306 11001 21038 30147 40169 52055 82031;
0112224380999992000040715004+65200+036820FM-12+001899999V0203301N004019999999N0240001N1+00001-00301101941ADDGF106991061001999999071001MD1110251+9999REMSYN060AAXX  07151 22438 42974 63304 10000 21030 40194 51025 86070;
0165224380999992000040718004+65200+036820FM-12+001899999V0203501N004019999999N0210001N1-00081-00301102171ADDAA199000091GF106991051001999999031011KA1999M+00021MD1210231+9999REMSYN070AAXX  07181 22438 32971 63504 11008 21030 40217 52023 85031 333 10002;EQDQ01  00002PRCP99
0122224380999992000040721004+65200+036820FM-12+001899999V0203601N005012200019N0220001N1-00241-00461102371ADDGA1001+999999999GF100991001001999999001001MD1210201+9999REMSYN054AAXX  07211 22438 42972 03605 11024 21046 40237 52020;
0133224380999992000040800004+65200+036820FM-12+001899999V0203501N004012200019N0200001N1-00311-00511102581ADDGF101991001001999999001011MA1999999102361MD1210211+9999REMSYN066AAXX  08001 22438 42970 13504 11031 21051 30236 40258 52021 80001;
0165224380999992000040806004+65200+036820FM-12+001899999V0203201N002019999999N0230001N1-00071-00261102661ADDAA199000091GF106991061001999999031001KA1999N-00311MD1210031+9999REMSYN070AAXX  08061 22438 32973 63202 11007 21026 40266 52003 86030 333 21031;EQDQ01  00002PRCP99
0112224380999992000040809004+65200+036820FM-12+001899999V0203501N001012200019N0250001N1+00011-00301102801ADDGF101991011011008001001001MD1310141+9999REMSYN060AAXX  08091 22438 42575 13501 10001 21030 40280 53014 81100;
0133224380999992000040812004+65200+036820FM-12+001899999V0201001N002012200019N0230001N1+00001-00241102851ADDGF102991011011008001001011MA1999999102631MD1110051+9999REMSYN066AAXX  08121 22438 42573 21002 10000 21024 30263 40285 51005 81101;
0112224380999992000040815004+65200+036820FM-12+001899999V0209999C000012200019N0280001N1-00031-00271102851ADDGF101991001001999999001011MD1410001+9999REMSYN060AAXX  08151 22438 42978 10000 11003 21027 40285 54000 80001;
0175224380999992000040818004+65200+036820FM-12+001899999V0200901N001012200019N0240001N1-00091-00381102901ADDAA199000091GA1001+999999999GF100991001001999999001001KA1999M+00021MD1310051+9999REMSYN064AAXX  08181 22438 32974 00901 11009 21038 40290 53005 333 10002;EQDQ01  00002PRCP99
0122224380999992000040821004+65200+036820FM-12+001899999V0201501N002012200019N0250001N1-00231-00581102891ADDGA1001+999999999GF100991001001999999001001MD1810011+9999REMSYN054AAXX  08211 22438 42975 01502 11023 21058 40289 58001;
0143224380999992000040900004+65200+036820FM-12+001899999V0201601N003012200019N0230001N1-00291-00631102861ADDGA1001+999999999GF100991001001999999001001MA1999999102641MD1710031+9999REMSYN060AAXX  09001 22438 42973 01603 11029 21063 30264 40286 57003;
0181224380999992000040903004+65200+036820FM-12+001899999V0202101N004012200019N0270001N1-00151-00541102821ADDAA199000091AJ100109199999999GF102991001001999999001011IA1219MD1710041+9999REMSYN076AAXX  09031 22438 32977 22104 11015 21054 40282 57004 80001 333 45010 55109;EQDQ01  00002PRCP99
0175224380999992000040906004+65200+036820FM-12+001899999V0201901N005012200019N0280001N1-00081-00461102741ADDAA199000091GA1001+999999999GF100991001001999999001001KA1999N-00291MD1710081+9999REMSYN064AAXX  09061 22438 32978 01905 11008 21046 40274 57008 333 21029;EQDQ01  00002PRCP99
0112224380999992000040909004+65200+036820FM-12+001899999V0202601N005012200019N0280001N1-00011-00401102551ADDGF102991001001999999001011MD1810191+9999REMSYN060AAXX  09091 22438 42978 22605 11001 21040 40255 58019 80001;
0133224380999992000040912004+65200+036820FM-12+001899999V0202101N007012200019N0300001N1+00151-00511102301ADDGF102991001001999999001011MA1999999102081MD1710251+9999REMSYN066AAXX  09121 22438 42980 22107 10015 21051 30208 40230 57025 80001;
0165224380999992000040918004+65200+036820FM-12+001899999V0202001N007012200019N0270001N1-00171-00581101801ADDAA199000091GF101991001001999999001011KA1999M+00201MD1710241+9999REMSYN070AAXX  09181 22438 32977 12007 11017 21058 40180 57024 80001 333 10020;EQDQ01  00002PRCP99
0122224380999992000040921004+65200+036820FM-12+001899999V0202101N007012200019N0230001N1-00291-00601101601ADDGA1001+999999999GF100991001001999999001001MD1610201+9999REMSYN054AAXX  09211 22438 42973 02107 11029 21060 40160 56020;
0143224380999992000041000004+65200+036820FM-12+001899999V0202101N007012200019N0220001N1-00371-00621101441ADDGA1001+999999999GF100991001001999999001001MA1999999101221MD1710161+9999REMSYN060AAXX  10001 22438 42972 02107 11037 21062 30122 40144 57016;
0165224380999992000041006004+65200+036820FM-12+001899999V0202301N011019999999N0090001N1+00161-00031101031ADDAA199000091GF106991001001999999001031KA1999N-00421MD1810261+9999REMSYN070AAXX  10061 22438 32959 62311 10016 21003 40103 58026 80003 333 21042;EQDQ01  00002PRCP99
0112224380999992000041009004+65200+036820FM-12+001899999V0202101N010019999999N0120001N1+00121-00081101001ADDGF107991041001999999071031MD1710031+9999REMSYN060AAXX  10091 22438 42962 72110 10012 21008 40100 57003 84073;
0133224380999992000041012004+65200+036820FM-12+001899999V0202101N011019999999N0200001N1+00351-00061100961ADDGF107991061001999999071031MA1999999100751MD1710031+9999REMSYN066AAXX  10121 22438 42970 72111 10035 21006 30075 40096 57003 86073;
0112224380999992000041015004+65200+036820FM-12+001899999V0202201N008019999999N0200001N1+00281-00111100891ADDGF107991021001999999031031MD1710071+9999REMSYN060AAXX  10151 22438 42970 72208 10028 21011 40089 57007 82033;
0165224380999992000041018004+65200+036820FM-12+001899999V0202001N006019999999N0160001N1+00011-00141100941ADDAA199000091GF106991001001999999001041KA1999M+00511MD1310041+9999REMSYN070AAXX  10181 22438 32966 62006 10001 21014 40094 53004 80004 333 10051;EQDQ01  00002PRCP99
0122224380999992000041021004+65200+036820FM-12+001899999V0202001N006012200019N0170001N1-00061-00181100941ADDGA1001+999999999GF100991001001999999001001MD1410001+9999REMSYN054AAXX  10211 22438 42967 02006 11006 21018 40094 54000;
0133224380999992000041100004+65200+036820FM-12+001899999V0202001N005012200019N0160001N1-00181-00291100921ADDGF101991001001999999001011MA1999999100701MD1810021+9999REMSYN066AAXX  11001 22438 42966 12005 11018 21029 30070 40092 58002 80001;
0112224380999992000041109004+65200+036820FM-12+001899999V0202001N006012200019N0170001N1+00271+00031101111ADDGF103991011051008001031011MD1210051+9999REMSYN060AAXX  11091 22438 42567 32006 10027 20003 40111 52005 81531;
0140224380999992000041115004+65200+036820FM-12+001899999V0201901N006019999999N0090001N1+00201+00151101121ADDAY111031AY211031GF106991061001999999071041MD1410001+9999MW1101REMSYN066AAXX  11151 22438 41959 61906 10020 20015 40112 54000 71011 86074;
0193224380999992000041118004+65200+036820FM-12+001899999V0202001N006019999999N0080001N1+00141+00091101171ADDAA199000091AY111061AY211061GF107991061001999999071041KA1999M+00281MD1310041+9999MW1101REMSYN076AAXX  11181 22438 31958 72006 10014 20009 40117 53004 71011 86074 333 10028;EQDQ01  00002PRCP99
0140224380999992000041121004+65200+036820FM-12+001899999V0202101N006019999999N0090001N1+00111+00071101211ADDAY111031AY221031GF108991081001999999051999MD1210041+9999MW1101REMSYN066AAXX  11211 22438 41959 82106 10011 20007 40121 52004 71012 8805/;
0161224380999992000041200004+65200+036820FM-12+001899999V0202101N006019999999N0100001N1+00081+00031101231ADDAY121061AY221061GF108991081001999999051999MA1999999101011MD1210021+9999MW1101REMSYN072AAXX  12001 22438 41960 82106 10008 20003 30101 40123 52002 71022 8805/;
0209224380999992000041203004+65200+036820FM-12+001899999V0202001N007019999999N0080001N1+00191+00171101191ADDAA199000091AJ100059199999999AY121031AY221031GF108991081001999999021999IA1309MD1810041+9999MW1101REMSYN082AAXX  12031 22438 31958 82007 10019 20017 40119 58004 71022 8802/ 333 42005 55063;EQDQ01  00002PRCP99
0193224380999992000041206004+65200+036820FM-12+001899999V0202001N007019999999N0080001N1+00301+00251101171ADDAA199000091AY121061AY221061GF108991081001999999051999KA1999N+00081MD1610011+9999MW1101REMSYN076AAXX  12061 22438 31958 82007 10030 20025 40117 56001 71022 8805/ 333 20008;EQDQ01  00002PRCP99
0140224380999992000041209004+65200+036820FM-12+001899999V0202101N004019999999N0100001N1+00191-00031101141ADDAY121031AY221031GF107991061001999999031041MD1710031+9999MW1101REMSYN066AAXX  12091 22438 41960 72104 10019 21003 40114 57003 71022 86034;
0133224380999992000041212004+65200+036820FM-12+001899999V0202101N004012200019N0180001N1+00331-00141101071ADDGF103991001001999999001041MA1999999100861MD1710071+9999REMSYN066AAXX  12121 22438 42968 32104 10033 21014 30086 40107 57007 80004;
0112224380999992000041215004+65200+036820FM-12+001899999V0202101N006012200019N0240001N1+00411-00111100991ADDGF102991001001999999001011MD1710081+9999REMSYN060AAXX  12151 22438 42974 22106 10041 21011 40099 57008 80001;
0165224380999992000041218004+65200+036820FM-12+001899999V0202001N004019999999N0190001N1+00261-00071100941ADDAA199000091GF106991061001999999071011KA1999M+00461MD1710051+9999REMSYN070AAXX  12181 22438 32969 62004 10026 21007 40094 57005 86071 333 10046;EQDQ01  00002PRCP99
0112224380999992000041221004+65200+036820FM-12+001899999V0202101N001019999999N0180001N1-00011-00251100921ADDGF106991021001999999031041MD1710031+9999REMSYN060AAXX  12211 22438 42968 62101 11001 21025 40092 57003 82034;
0133224380999992000041300004+65200+036820FM-12+001899999V0209999C000019999999N0180001N1-00121-00351100891ADDGF105991001001999999001041MA1999999100671MD1710031+9999REMSYN066AAXX  13001 22438 42968 50000 11012 21035 30067 40089 57003 80004;
0180224380999992000041306004+65200+036820FM-12+001899999V0200601N002019999999N0080001N1+00141+00061100731ADDAA100000191AY161061AY221061GF108991081001999999021999KA1999N-00131MD1310011+9999MW1101REMSYN082AAXX  13061 22438 11958 80602 10014 20006 40073 53001 69910 71062 8802/ 333 21013;
0140224380999992000041309004+65200+036820FM-12+001899999V0203201N003019999999N0090001N1+00141-00081100751ADDAY121031AY221031GF108991081001999999021999MD1110021+9999MW1101REMSYN066AAXX  13091 22438 41959 83203 10014 21008 40075 51002 71022 8802/;
0140224380999992000041315004+65200+036820FM-12+001899999V0200701N002012200019N0080001N1+00201+00071100731ADDAY101031AY201031GF103991021001999999031011MD1810011+9999MW1101REMSYN066AAXX  13151 22438 41958 30702 10020 20007 40073 58001 71000 82031;
0180224380999992000041318004+65200+036820FM-12+001899999V0200801N004012200019N0080001N1-00021-00111100691ADDAA100000791AY101061AY201061GF102991021001999999031011KA1999M+00311MD1710041+9999MW1101REMSYN082AAXX  13181 22438 11958 20804 11002 21011 40069 57004 69900 71000 82031 333 10031;
0140224380999992000041321004+65200+036820FM-12+001899999V0200901N005012200019N0060001N1-00121-00171100691ADDAY101031AY201031GF102991011001999999031011MD1410001+9999MW1101REMSYN066AAXX  13211 22438 41956 20905 11012 21017 40069 54000 71000 81031;
0161224380999992000041400004+65200+036820FM-12+001899999V0200901N005019999999N0044001N1-00181-00201100691ADDAY111061AY211061GF106991001001999999001041MA1999999100481MD1410001+9999MW1101REMSYN072AAXX  14001 22438 41944 60905 11018 21020 30048 40069 54000 71011 80004;
0140224380999992000041409004+65200+036820FM-12+001899999V0201101N006019999999N0080001N1-00041-00101100141ADDAY161031AY241031GF108991081001999999021011MD1110181+9999MW1711REMSYN066AAXX  14091 22438 41958 81106 11004 21010 40014 51018 77164 88021;
0112224380999992000041415004+65200+036820FM-12+001899999V0201601N002010075019N0150001N1+00161+00081100061ADDGF108991081051008001999999MD1410001+9999REMSYN060AAXX  14151 22438 41565 81602 10016 20008 40006 54000 885//;
0171224380999992000041418004+65200+036820FM-12+001899999V0201801N004010075019N0120001N1+00241+00161100061ADDAA100000891GF108991081051008001999999KA1999M+99999MD1410001+9999REMSYN076AAXX  14181 22438 12562 81804 10024 20016 40006 54000 69980 885// 333 10018;EQDQ01 +00182ATMX  
0112224380999992000041421004+65200+036820FM-12+001899999V0201901N004010075019N0150001N1+00141+00061100041ADDGF108991081051008001999999MD1810021+9999REMSYN060AAXX  14211 22438 42565 81904 10014 20006 40004 58002 885//;
0133224380999992000041500004+65200+036820FM-12+001899999V0201801N005010075019N0170001N1+00111+00031100011ADDGF106991061051008001001001MA1999999099891MD1710031+9999REMSYN066AAXX  15001 22438 42567 61805 10011 20003 39989 40001 57003 86500;
0193224380999992000041506004+65200+036820FM-12+001899999V0201301N003019999999N0042001N1+00321+00301099901ADDAA199000091AY111061AY211061GF108991081001999999021999KA1999N+00111MD1810081+9999MW1101REMSYN076AAXX  15061 22438 31942 81303 10032 20030 49990 58008 71011 8802/ 333 20011;EQDQ01  00002PRCP99
0161224380999992000041512004+65200+036820FM-12+001899999V0200901N006019999999N0160001N1+00131+00051099831ADDAY141061AY221061GF107991051001999999071041MA1999999099621MD1410001+9999MW1021REMSYN072AAXX  15121 22438 41966 70906 10013 20005 39962 49983 54000 70242 85074;
0140224380999992000041515004+65200+036820FM-12+001899999V0201701N004010042019N0026001N1+00031-00031099911ADDAY161031AY221031GF108991071071004501021999MD1310081+9999MW1631REMSYN066AAXX  15151 22438 41426 81704 10003 21003 49991 53008 76362 8772/;
0180224380999992000041518004+65200+036820FM-12+001899999V0202201N007010075019N0040001N1+00011-00081099981ADDAA100001091AY161061AY221061GF108991081001008001021999KA1999M+00351MD1110071+9999MW1611REMSYN082AAXX  15181 22438 11540 82207 10001 21008 49998 51007 60010 76162 8802/ 333 10035;
0140224380999992000041521004+65200+036820FM-12+001899999V0203201N007019999999N0190001N1-00021-00081100101ADDAY161031AY221031GF107991071001999999071001MD1310121+9999MW1021REMSYN066AAXX  15211 22438 41969 73207 11002 21008 40010 53012 70262 87070;
0161224380999992000041600004+65200+036820FM-12+001899999V0202201N007019999999N0190001N1-00091-00161100241ADDAY161061AY221061GF106991061001999999071001MA1999999100031MD1210141+9999MW1021REMSYN072AAXX  16001 22438 41969 62207 11009 21016 30003 40024 52014 70262 86070;
0151224380999992000041603004+65200+036820FM-12+001899999V0202701N007010042019N0180001N1-00051-00141100421ADDAJ100039199999999GF108991081061004501999999IA1309MD1210181+9999REMSYN076AAXX  16031 22438 /2468 82707 11005 21014 40042 52018 886// 333 42003 55026;
0161224380999992000041612004+65200+036820FM-12+001899999V0202201N007010042019N0050001N1+00071+00011100841ADDAY161061AY221061GF108991071071004501021999MA1999999100631MD1110101+9999MW1611REMSYN072AAXX  16121 22438 41450 82207 10007 20001 30063 40084 51010 76162 8772/;
0140224380999992000041615004+65200+036820FM-12+001899999V0202301N003010300019N0210001N1+00121-00111100981ADDAY161031AY221031GF106991031051008001031011MD1310131+9999MW1021REMSYN066AAXX  16151 22438 41571 62303 10012 21011 40098 53013 70262 83531;
0180224380999992000041618004+65200+036820FM-12+001899999V0202001N003019999999N0220001N1-00011-00191101131ADDAA100000191AY161061AY221061GF105991051001999999071001KA1999M+00121MD1210151+9999MW1021REMSYN082AAXX  16181 22438 11972 52003 11001 21019 40113 52015 69910 70262 85070 333 10012;
0112224380999992000041621004+65200+036820FM-12+001899999V0202201N004012200019N0240001N1-00241-00461101301ADDGF102991011001999999031011MD1210171+9999REMSYN060AAXX  16211 22438 42974 22204 11024 21046 40130 52017 81031;
0133224380999992000041700004+65200+036820FM-12+001899999V0202101N003012200019N0230001N1-00301-00431101461ADDGF102991021001999999031011MA1999999101241MD1210161+9999REMSYN066AAXX  17001 22438 42973 22103 11030 21043 30124 40146 52016 82031;
0191224380999992000041703004+65200+036820FM-12+001899999V0201801N002012200019N0160001N1-00051-00111101641ADDAA199000091AJ100039199999999GA1001+999999999GF100991001001999999001001IA1309MD1210181+9999REMSYN070AAXX  17031 22438 32966 01802 11005 21011 40164 52018 333 42003 55026;EQDQ01  00002PRCP99
0175224380999992000041706004+65200+036820FM-12+001899999V0209999C000012200019N0200001N1+00271+00091101761ADDAA199000091GA1001+999999999GF100991001001999999001001KA1999N-00301MD1310131+9999REMSYN064AAXX  17061 22438 32970 00000 10027 20009 40176 53013 333 21030;EQDQ01  00002PRCP99
0112224380999992000041709004+65200+036820FM-12+001899999V0200901N004012200019N0250001N1+00131-00071101771ADDGF101991011011008001001001MD1410001+9999REMSYN060AAXX  17091 22438 42575 10904 10013 21007 40177 54000 81100;
0133224380999992000041712004+65200+036820FM-12+001899999V0200301N002012200019N0220001N1+00171-00051101681ADDGF102991001001999999001011MA1999999101461MD1810091+9999REMSYN066AAXX  17121 22438 42972 20302 10017 21005 30146 40168 58009 80001;
0112224380999992000041715004+65200+036820FM-12+001899999V0201001N007012200019N0230001N1+00141-00111101411ADDGF102991001001999999001011MD1710271+9999REMSYN060AAXX  17151 22438 42973 21007 10014 21011 40141 57027 80001;
0165224380999992000041718004+65200+036820FM-12+001899999V0201101N006012200019N0220001N1+00191-00091101171ADDAA199000091GF102991021001999999031001KA1999M+00291MD1710231+9999REMSYN070AAXX  17181 22438 32972 21106 10019 21009 40117 57023 82030 333 10029;EQDQ01  00002PRCP99
0140224380999992000041721004+65200+036820FM-12+001899999V0201801N009010075019N0060001N1+00501+00251100991ADDAY181031AY211031GF107991071091008001001001MD1710181+9999MW1801REMSYN066AAXX  17211 22438 41556 71809 10050 20025 40099 57018 78081 87900;
0161224380999992000041800004+65200+036820FM-12+001899999V0201801N010010075019N0080001N1+00431+00281100791ADDAY181061AY211061GF108991081091008001999999MA1999999100581MD1710201+9999MW1801REMSYN072AAXX  18001 22438 41558 81810 10043 20028 30058 40079 57020 78081 889//;
0179224380999992000041803004+65200+036820FM-12+001899999V0202201N006010042019N0070001N1+00301+00171101091ADDAJ100039199999999AY181031AY221031GF108991081061004501999999IA1309MD1310301+9999MW1101REMSYN082AAXX  18031 22438 /1457 82206 10030 20017 40109 53030 71082 886// 333 42003 55128;
0112224380999992000041809004+65200+036820FM-12+001899999V0202501N005010042019N0200001N1+00321+00111101601ADDGF108991081061004501999999MD1110141+9999REMSYN060AAXX  18091 22438 42470 82505 10032 20011 40160 51014 886//;
0133224380999992000041812004+65200+036820FM-12+001899999V0202201N004010042019N0180001N1+00241+00111101691ADDGF108991081061004501999999MA1999999101481MD1210091+9999REMSYN066AAXX  18121 22438 42468 82204 10024 20011 30148 40169 52009 886//;
0112224380999992000041815004+65200+036820FM-12+001899999V0202101N005010042019N0170001N1+00151+00041101681ADDGF108991081061004501999999MD1810011+9999REMSYN060AAXX  18151 22438 42467 82105 10015 20004 40168 58001 886//;
0165224380999992000041818004+65200+036820FM-12+001899999V0202101N005010042019N0170001N1+00241+00141101691ADDAA199000091GF108991081061004501999999KA1999M+00351MD1310011+9999REMSYN070AAXX  18181 22438 32467 82105 10024 20014 40169 53001 886// 333 10035;EQDQ01  00002PRCP99
0150224380999992000041821004+65200+036820FM-12+001899999V0202101N004010003019N0004001N1+00171+00141101701ADDAY141031AY221031GA1091+999999999GF109991091999999999999999MD1410001+9999MW1451REMSYN060AAXX  18211 22438 41/04 92104 10017 20014 40170 54000 74542;
0171224380999992000041900004+65200+036820FM-12+001899999V0202001N002010003019N0005001N1+00101+00071101691ADDAY141061AY221061GA1091+999999999GF109991091999999999999999MA1999999101471MD1810011+9999MW1451REMSYN066AAXX  19001 22438 41/05 92002 10010 20007 30147 40169 58001 74542;
0219224380999992000041903004+65200+036820FM-12+001899999V0202101N007010003019N0002001N1+00141+00141101661ADDAA199000091AJ100009199999999AY141031AY221031GA1091+999999999GF109991091999999999999999IA1309MD1710031+9999MW1451REMSYN076AAXX  19031 22438 31/02 92107 10014 20014 40166 57003 74542 333 42000 55000;EQDQ01  00002PRCP99
0193224380999992000041906004+65200+036820FM-12+001899999V0202001N005012200019N0200001N1+00231+00061101611ADDAA199000091AY141061AY211061GF101991001001999999001011KA1999N+00091MD1710041+9999MW1021REMSYN076AAXX  19061 22438 31970 12005 10023 20006 40161 57004 70241 80001 333 20009;EQDQ01  00002PRCP99
0112224380999992000041909004+65200+036820FM-12+001899999V0202101N007012200019N0290001N1+00411+00041101621ADDGF101991001001999999001011MD1310011+9999REMSYN060AAXX  19091 22438 42979 12107 10041 20004 40162 53001 80001;
0140224380999992000041915004+65200+036820FM-12+001899999V0202001N006010075019N0190001N1+00351+00251101571ADDAY181031AY221031GF107991071091008001001001MD1610011+9999MW1021REMSYN066AAXX  19151 22438 41569 72006 10035 20025 40157 56001 70282 87900;
0180224380999992000041918004+65200+036820FM-12+001899999V0202101N005012200019N0022001N1+00211+00061101591ADDAA100001091AY181061AY211061GF102991021041008001001001KA1999M+00711MD1310011+9999MW1101REMSYN082AAXX  19181 22438 11522 22105 10021 20006 40159 53001 60010 71081 82400 333 10071;
0140224380999992000041921004+65200+036820FM-12+001899999V0202201N005012200019N0007001N1-00011-00041101711ADDAY141031AY201031GF103991001001999999001011MD1310121+9999MW1431REMSYN066AAXX  19211 22438 41907 32205 11001 21004 40171 53012 74340 80001;
0161224380999992000042000004+65200+036820FM-12+001899999V0202101N005012200019N0009001N1-00071-00111101851ADDAY141061AY201061GF102991011001999999031011MA1999999101631MD1210141+9999MW1441REMSYN072AAXX  20001 22438 41909 22105 11007 21011 30163 40185 52014 74440 81031;
0209224380999992000042003004+65200+036820FM-12+001899999V0202101N005012200019N0150001N1+00111+00031101771ADDAA199000091AJ100009199999999AY141031AY201031GF102991001001999999001011IA1309MD1810081+9999MW1021REMSYN082AAXX  20031 22438 31965 22105 10011 20003 40177 58008 70240 80001 333 42000 55076;EQDQ01  00002PRCP99
0193224380999992000042006004+65200+036820FM-12+001899999V0202001N006012200019N0200001N1+00361+00211101761ADDAA199000091AY141061AY201061GF104991001001999999001041KA1999N-00071MD1410001+9999MW1021REMSYN076AAXX  20061 22438 31970 42006 10036 20021 40176 54000 70240 80004 333 21007;EQDQ01  00002PRCP99
0112224380999992000042009004+65200+036820FM-12+001899999V0202201N005019999999N0180001N1+00301+00141101711ADDGF108991001001999999001041MD1810051+9999REMSYN060AAXX  20091 22438 42968 82205 10030 20014 40171 58005 80004;
0133224380999992000042012004+65200+036820FM-12+001899999V0202001N004019999999N0220001N1+00451+00201101611ADDGF108991041001999999031041MA1999999101401MD1710101+9999REMSYN066AAXX  20121 22438 42972 82004 10045 20020 30140 40161 57010 84034;
0140224380999992000042015004+65200+036820FM-12+001899999V0202101N006019999999N0080001N1+00441+00191101471ADDAY161031AY221031GF108991081001999999021999MD1710141+9999MW1611REMSYN066AAXX  20151 22438 41958 82106 10044 20019 40147 57014 76162 8802/;
0180224380999992000042018004+65200+036820FM-12+001899999V0202101N006012200019N0005001N1+00321+00271101411ADDAA100000591AY161061AY241061GF103991031001999999031001KA1999M+00461MD1610061+9999MW1441REMSYN082AAXX  20181 22438 11905 32106 10032 20027 40141 56006 69950 74464 83030 333 10046;
0140224380999992000042021004+65200+036820FM-12+001899999V0202301N005012200019N0005001N1+00051-00011101441ADDAY141031AY201031GF102991021001999999031001MD1310021+9999MW1441REMSYN066AAXX  20211 22438 41905 22305 10005 21001 40144 53002 74440 82030;
0140224380999992000042109004+65200+036820FM-12+001899999V0209999C000019999999N0200001N1+00501+00171101941ADDAY141031AY211031GF107991021001999999031041MD1110131+9999MW1021REMSYN066AAXX  21091 22438 41970 70000 10050 20017 40194 51013 70241 82034;
0133224380999992000042112004+65200+036820FM-12+001899999V0200801N003019999999N0280001N1+00361+00011101891ADDGF107991061001999999071041MA1999999101681MD1810051+9999REMSYN066AAXX  21121 22438 42978 70803 10036 20001 30168 40189 58005 86074;
0112224380999992000042115004+65200+036820FM-12+001899999V0201301N002019999999N0210001N1+00281+00121101781ADDGF108991081001999999051999MD1710111+9999REMSYN060AAXX  21151 22438 42971 81302 10028 20012 40178 57011 8805/;
0165224380999992000042118004+65200+036820FM-12+001899999V0200901N004019999999N0200001N1+00101-00011101501ADDAA199000091GF108991081001999999051999KA1999M+00641MD1810291+9999REMSYN070AAXX  21181 22438 32970 80904 10010 21001 40150 58029 8805/ 333 10064;EQDQ01  00002PRCP99
0140224380999992000042121004+65200+036820FM-12+001899999V0201801N004019999999N0200001N1+00351+00251101291ADDAY161031AY221031GF107991071001999999071001MD1610201+9999MW1021REMSYN066AAXX  21211 22438 41970 71804 10035 20025 40129 56020 70262 87070;
0161224380999992000042200004+65200+036820FM-12+001899999V0201801N003019999999N0170001N1+00411+00311101071ADDAY161061AY221061GF107991071001999999071001MA1999999100861MD1710221+9999MW1021REMSYN072AAXX  22001 22438 41967 71803 10041 20031 30086 40107 57022 70262 87070;
0151224380999992000042203004+65200+036820FM-12+001899999V0202101N005019999999N0180001N1+00271+00141101021ADDAJ100009199999999GF106991061001999999071001IA1259MD1610051+9999REMSYN076AAXX  22031 22438 /2968 62105 10027 20014 40102 56005 86070 333 41000 55077;
0190224380999992000042206004+65200+036820FM-12+001899999V0202001N006012200019N0060001N1+00481+00431100981ADDAA100000791AY111061AY211061GA1001+999999999GF100991001001999999001001KA1999N+00081MD1710041+9999MW1101REMSYN076AAXX  22061 22438 11956 02006 10048 20043 40098 57004 69900 71011 333 20008;
0122224380999992000042209004+65200+036820FM-12+001899999V0202101N007012200019N0180001N1+00501+00331100951ADDGA1001+999999999GF100991001001999999001001MD1710051+9999REMSYN054AAXX  22091 22438 42968 02107 10050 20033 40095 57005;
0112224380999992000042215004+65200+036820FM-12+001899999V0202001N008010300019N0290001N1+00721+00151100741ADDGF107991011011008001031041MD1610071+9999REMSYN060AAXX  22151 22438 42579 72008 10072 20015 40074 56007 81134;
0165224380999992000042218004+65200+036820FM-12+001899999V0202101N008019999999N0240001N1+00491+00131100481ADDAA199000091GF107991061001999999071041KA1999M+00771MD1810261+9999REMSYN070AAXX  22181 22438 32974 72108 10049 20013 40048 58026 86074 333 10077;EQDQ01  00002PRCP99
0140224380999992000042221004+65200+036820FM-12+001899999V0202401N008012200019N0220001N1+00311+00151100431ADDAY161031AY211031GF102991021001999999031001MD1610051+9999MW1021REMSYN066AAXX  22211 22438 41972 22408 10031 20015 40043 56005 70261 82030;
0171224380999992000042300004+65200+036820FM-12+001899999V0202301N007012200019N0190001N1+00241+00111100391ADDAY161061AY211061GA1001+999999999GF100991001001999999001001MA1999999100181MD1710041+9999MW1021REMSYN066AAXX  23001 22438 41969 02307 10024 20011 30018 40039 57004 70261;
0151224380999992000042303004+65200+036820FM-12+001899999V0202801N011019999999N0280001N1+00221+00001100621ADDAJ100009199999999GF108991081001999999051999IA1259MD1310231+9999REMSYN076AAXX  23031 22438 /2978 82811 10022 20000 40062 53023 8805/ 333 41000 55109;
0171224380999992000042306004+65200+036820FM-12+001899999V0203101N010019999999N0200001N1+00121-00051101071ADDAA100000791GF108991081051999999999999KA1999N+99999MD1210441+9999REMSYN076AAXX  23061 22438 12970 83110 10012 21005 40107 52044 69900 885// 333 20022;EQDQ01 +00222ATMN  
0112224380999992000042309004+65200+036820FM-12+001899999V0203201N008012200019N0180001N1+00181-00101101671ADDGF102991011031008001031001MD1210601+9999REMSYN060AAXX  23091 22438 42568 23208 10018 21010 40167 52060 81330;
0133224380999992000042312004+65200+036820FM-12+001899999V0203301N005012200019N0230001N1+00201-00171101981ADDGF101991011011008001001001MA1999999101771MD1210311+9999REMSYN066AAXX  23121 22438 42573 13305 10020 21017 30177 40198 52031 81100;
0112224380999992000042315004+65200+036820FM-12+001899999V0203601N002012200019N0250001N1+00141-00241102061ADDGF102991011011008001001011MD1210071+9999REMSYN060AAXX  23151 22438 42575 23602 10014 21024 40206 52007 81101;
0165224380999992000042318004+65200+036820FM-12+001899999V0201201N003012200019N0280001N1-00041-00251102041ADDAA199000091GF104991001001999999001041KA1999M+00231MD1810021+9999REMSYN070AAXX  23181 22438 32978 41203 11004 21025 40204 58002 80004 333 10023;EQDQ01  00002PRCP99
0112224380999992000042321004+65200+036820FM-12+001899999V0201701N004012200019N0270001N1+00001-00361101881ADDGF104991001001999999001041MD1710161+9999REMSYN060AAXX  23211 22438 42977 41704 10000 21036 40188 57016 80004;
0133224380999992000042400004+65200+036820FM-12+001899999V0201801N005012200019N0250001N1+00081-00281101691ADDGF103991001001999999001041MA1999999101471MD1710191+9999REMSYN066AAXX  24001 22438 42975 31805 10008 21028 30147 40169 57019 80004;
0179224380999992000042403004+65200+036820FM-12+001899999V0201701N008010042019N0060001N1+00021-00071101241ADDAJ100009199999999AY181031AY211031GF108991081091004501999999IA1259MD1810451+9999MW1841REMSYN082AAXX  24031 22438 /1456 81708 10002 21007 40124 58045 78481 889// 333 41000 55087;
0140224380999992000042409004+65200+036820FM-12+001899999V0201701N009010075019N0180001N1+00261+00131100491ADDAY181031AY211031GF108991081051008001999999MD1610171+9999MW1021REMSYN066AAXX  24091 22438 41568 81709 10026 20013 40049 56017 70281 885//;
0112224380999992000042415004+65200+036820FM-12+001899999V0202101N003010075019N0260001N1+00281+00101100871ADDGF106991061051008001001001MD1210221+9999REMSYN060AAXX  24151 22438 42576 62103 10028 20010 40087 52022 86500;
0152224380999992000042418004+65200+036820FM-12+001899999V0202901N007010075019N0280001N1+00261-00041101121ADDAA100001091GF107991071051008001001001KA1999M+00381MD1210251+9999REMSYN076AAXX  24181 22438 12578 72907 10026 21004 40112 52025 60010 87500 333 10038;
0131224380999992000042421004+65200+036820FM-12+001899999V0202901N008012200019N0220001N1+00091-00111101301ADDGF103991001001999999001011MD1110171+9999REMSYN060AAXX  24211 22438 42572 32908 10009 21011 40130 51017 80001;EQDQ01+008002SCOLCB
0152224380999992000042500004+65200+036820FM-12+001899999V0202901N008012200019N0200001N1+00031-00111101411ADDGF101991001001999999001011MA1999999101191MD1210111+9999REMSYN066AAXX  25001 22438 42570 12908 10003 21011 30119 40141 52011 80001;EQDQ01+008002SCOLCB
0112224380999992000042509004+65200+036820FM-12+001899999V0200801N005010075019N0240001N1+00041-00101101821ADDGF108991081051008001999999MD1810021+9999REMSYN060AAXX  25091 22438 42574 80805 10004 21010 40182 58002 885//;
0131224380999992000042515004+65200+036820FM-12+001899999V0201001N010010075019N0220001N1+00051-00121100951ADDGF107991071051008001001001MD1710572+9999REMSYN060AAXX  25151 22438 42572 71010 10005 21012 40095 57057 87500;EQDQ01+000572APC3  
0181224380999992000042518004+65200+036820FM-12+001899999V0201601N009010075019N0250001N1+00631+00071100191ADDAA199000091GF108991061051008001001041KA1999M+99999MD1710751+9999REMSYN070AAXX  25181 22438 32575 81609 10063 20007 40019 57075 86504 333 10008;EQDQ01  00002PRCP99Q02 +00082ATMX  
0112224380999992000042521004+65200+036820FM-12+001899999V0202001N011010075019N0300001N1+00711+00171099781ADDGF106991061091008001001011MD1610411+9999REMSYN060AAXX  25211 22438 42580 62011 10071 20017 49978 56041 86901;
0161224380999992000042600004+65200+036820FM-12+001899999V0202001N010010075019N0060001N1+00641+00431099491ADDAY181061AY221061GF107991071091008001001001MA1999999099281MD1710291+9999MW1801REMSYN072AAXX  26001 22438 41556 72010 10064 20043 39928 49949 57029 78082 87900;
0199224380999992000042606004+65200+036820FM-12+001899999V0202701N008012200019N0240001N1+00421-00031100981ADDAA100000391AY181061AY221061GF106991031011008001001041KA1999N+00051MD1210802+9999MW1021REMSYN082AAXX  26061 22438 11574 62708 10042 21003 40098 52080 69930 70282 83104 333 20005;EQDQ01+000802APC3  
0112224380999992000042609004+65200+036820FM-12+001899999V0202701N006010075019N0280001N1+00301-00081101151ADDGF107991071041008001001001MD1110171+9999REMSYN060AAXX  26091 22438 42578 72706 10030 21008 40115 51017 87400;
0112224380999992000042615004+65200+036820FM-12+001899999V0202201N003012200019N0290001N1+00321-00091101361ADDGF104991011011008001001011MD1110081+9999REMSYN060AAXX  26151 22438 42579 42203 10032 21009 40136 51008 81101;
0165224380999992000042618004+65200+036820FM-12+001899999V0202101N003012200019N0270001N1+00211-00131101361ADDAA199000091GF104991041021008001001001KA1999M+00551MD1410001+9999REMSYN070AAXX  26181 22438 32577 42103 10021 21013 40136 54000 84200 333 10055;EQDQ01  00002PRCP99
0112224380999992000042621004+65200+036820FM-12+001899999V0202301N003012200019N0280001N1+00121-00171101421ADDGF103991031021008001001001MD1310051+9999REMSYN060AAXX  26211 22438 42578 32303 10012 21017 40142 53005 83200;
0152224380999992000042700004+65200+036820FM-12+001899999V0202401N003019999999N0250001N1+00071-00191101451ADDGF105991999021008001001001MA1999999101231MD1210031+9999REMSYN066AAXX  27001 22438 42575 52403 10007 21019 30123 40145 52003 84200;EQDQ01+000042SCOTLC
0181224380999992000042703004+65200+036820FM-12+001899999V0203001N007010075019N0260001N1-00021-00221101691ADDAA199000091AJ100009199999999GF107991071021008001001001IA1259MD1310241+9999REMSYN076AAXX  27031 22438 32576 73007 11002 21022 40169 53024 87200 333 41000 55107;EQDQ01  00002PRCP99
0165224380999992000042706004+65200+036820FM-12+001899999V0203201N009010075019N0220001N1+00031-00211101901ADDAA199000091GF108991081051008001999999KA1999N-00061MD1110211+9999REMSYN070AAXX  27061 22438 32572 83209 10003 21021 40190 51021 885// 333 21006;EQDQ01  00002PRCP99
0140224380999992000042709004+65200+036820FM-12+001899999V0203601N009010075019N0036001N1-00051-00171102331ADDAY181031AY221031GF108991081091008001999999MD1310431+9999MW1861REMSYN066AAXX  27091 22438 41536 83609 11005 21017 40233 53043 78682 889//;
0161224380999992000042712004+65200+036820FM-12+001899999V0203301N005012200019N0300001N1+00111-00121102791ADDAY181061AY211061GF102991021091008001001001MA1999999102571MD1210461+9999MW1021REMSYN072AAXX  27121 22438 41580 23305 10011 21012 30257 40279 52046 70281 82900;
0112224380999992000042715004+65200+036820FM-12+001899999V0203101N003012200019N0350001N1+00151-00131102821ADDGF102991021091008001001001MD1110031+9999REMSYN060AAXX  27151 22438 42581 23103 10015 21013 40282 51003 82900;
0152224380999992000042718004+65200+036820FM-12+001899999V0202701N001019999999N0270001N1-00091-00281102861ADDAA100000591GF105991051001999999081001KA1999M+00151MD1210041+9999REMSYN076AAXX  27181 22438 12977 52701 11009 21028 40286 52004 69940 85080 333 10015;
0112224380999992000042721004+65200+036820FM-12+001899999V0202201N005019999999N0220001N1-00181-00291102921ADDGF106991031001999999081041MD1210061+9999REMSYN060AAXX  27211 22438 42972 62205 11018 21029 40292 52006 83084;
0133224380999992000042800004+65200+036820FM-12+001899999V0202101N004019999999N0200001N1-00251-00341102971ADDGF107991021001999999031041MA1999999102751MD1210051+9999REMSYN066AAXX  28001 22438 42970 72104 11025 21034 30275 40297 52005 82034;
0181224380999992000042803004+65200+036820FM-12+001899999V0202101N006012200019N0300001N1-00061-00211102941ADDAA199000091AJ100009199999999GF103991021001999999031011IA1259MD1810031+9999REMSYN076AAXX  28031 22438 32980 32106 11006 21021 40294 58003 82031 333 41000 55065;EQDQ01  00002PRCP99
0165224380999992000042806004+65200+036820FM-12+001899999V0202101N006019999999N0300001N1+00171-00141102931ADDAA199000091GF107991031001999999031041KA1999N-00331MD1610011+9999REMSYN070AAXX  28061 22438 32980 72106 10017 21014 40293 56001 83034 333 21033;EQDQ01  00002PRCP99
0112224380999992000042809004+65200+036820FM-12+001899999V0202101N007010300019N0350001N1+00291-00361102861ADDGF107991011011008001071041MD1710071+9999REMSYN060AAXX  28091 22438 42581 72107 10029 21036 40286 57007 81174;
0112224380999992000042815004+65200+036820FM-12+001899999V0202301N005012200019N0350001N1+00341-00201102651ADDGF107991011011008001001041MD1610061+9999REMSYN060AAXX  28151 22438 42581 72305 10034 21020 40265 56006 81104;
0165224380999992000042818004+65200+036820FM-12+001899999V0202401N006019999999N0350001N1+00221-00381102561ADDAA199000091GF108991021001999999031041KA1999M+00431MD1710091+9999REMSYN070AAXX  28181 22438 32981 82406 10022 21038 40256 57009 82034 333 10043;EQDQ01  00002PRCP99
0112224380999992000042821004+65200+036820FM-12+001899999V0202101N006012200019N0300001N1+00051-00401102431ADDGF101991001001999999001011MD1710141+9999REMSYN060AAXX  28211 22438 42980 12106 10005 21040 40243 57014 80001;
0143224380999992000042900004+65200+036820FM-12+001899999V0202101N005012200019N0290001N1-00011-00401102271ADDGA1001+999999999GF100991001001999999001001MA1999999102051MD1710161+9999REMSYN060AAXX  29001 22438 42979 02105 11001 21040 30205 40227 57016;
0112224380999992000042909004+65200+036820FM-12+001899999V0202701N008019999999N0280001N1+00321-00061101531ADDGF108991081001999999011999MD1710261+9999REMSYN060AAXX  29091 22438 42978 82708 10032 21006 40153 57026 8801/;
0133224380999992000042912004+65200+036820FM-12+001899999V0203201N010019999999N0300001N1+00281-00241101481ADDGF108991081001999999051999MA1999999101271MD1610051+9999REMSYN066AAXX  29121 22438 42980 83210 10028 21024 30127 40148 56005 8805/;
0112224380999992000042915004+65200+036820FM-12+001899999V0201001N010010300019N0180001N1+00041-00051101691ADDGF107991021021008001071041MD1310201+9999REMSYN060AAXX  29151 22438 42568 71010 10004 21005 40169 53020 82274;
0165224380999992000042918004+65200+036820FM-12+001899999V0203601N013012200019N0270001N1-00031-00541102021ADDAA199000091GF102991021001999999031001KA1999M+00321MD1210331+9999REMSYN070AAXX  29181 22438 32977 23613 11003 21054 40202 52033 82030 333 10032;EQDQ01  00002PRCP99
0112224380999992000042921004+65200+036820FM-12+001899999V0203601N014012200019N0250001N1-00101-00641102191ADDGF103991031001999999031001MD1110171+9999REMSYN060AAXX  29211 22438 42975 33614 11010 21064 40219 51017 83030;
0133224380999992000043000004+65200+036820FM-12+001899999V0203601N015012200019N0280001N1-00131-00641102281ADDGF102991021001999999031001MA1999999102061MD1110091+9999REMSYN066AAXX  30001 22438 42978 23615 11013 21064 30206 40228 51009 82030;
0181224380999992000043003004+65200+036820FM-12+001899999V0203501N023012200019N0350001N1-00091-00591102431ADDAA199000091AJ100009199999999GF102991021001999999041001IA1259MD1110151+9999REMSYN076AAXX  30031 22438 32981 23523 11009 21059 40243 51015 82040 333 41000 55035;EQDQ01  00002PRCP99
0161224380999992000043012004+65200+036820FM-12+001899999V0203601N008010075019N0300001N1+00081-00421102901ADDAY181061AY211061GF106991061091008001081001MA1999999102681MD1210141+9999MW1021REMSYN072AAXX  30121 22438 41580 63608 10008 21042 30268 40290 52014 70281 86980;
0140224380999992000043015004+65200+036820FM-12+001899999V0200201N005010075019N0180001N1-00181-00321103031ADDAY181031AY221031GF107991061091008001061001MD1210131+9999MW1261REMSYN066AAXX  30151 22438 41568 70205 11018 21032 40303 52013 72682 86960;
0157224380999992000043018004+65200+036820FM-12+001899999V0200401N010010075019N0190001N1-00221-00371103141ADDAA100000591AY181061AY221061GF107991071091008001001001MD1210111+9999MW1021REMSYN072AAXX  30181 22438 11569 70410 11022 21037 40314 52011 69940 70282 87900;
0112224380999992000043021004+65200+036820FM-12+001899999V0200401N011010075019N0170001N1-00311-00411103241ADDGF107991071091008001001001MD1210101+9999REMSYN060AAXX  30211 22438 42567 70411 11031 21041 40324 52010 87900;
0161224380999992000050100004+65200+036820FM-12+001899999V0200401N010010075019N0180001N1-00391-00471103351ADDAY181061AY221061GF107991071091008001001001MA1999999103131MD1210111+9999MW1021REMSYN072AAXX  01001 22438 41568 70410 11039 21047 30313 40335 52011 70282 87900;
0112224380999992000050103004+65200+036820FM-12+001899999V0200401N011010075019N0190001N1-00341-00451103351ADDGF108991081051008001999999MD1410001+9999REMSYN060AAXX  01031 22438 /2569 80411 11034 21045 40335 54000 885//;
0133224380999992000050112004+65200+036820FM-12+001899999V0200201N010010075019N0250001N1-00171-00511103521ADDGF107991071051008001001001MA1999999103301MD1110011+9999REMSYN066AAXX  01121 22438 42575 70210 11017 21051 30330 40352 51001 87500;
0112224380999992000050115004+65200+036820FM-12+001899999V0200601N009010075019N0240001N1-00211-00501103491ADDGF107991071051008001001001MD1810031+9999REMSYN060AAXX  01151 22438 42574 70609 11021 21050 40349 58003 87500;
0165224380999992000050118004+65200+036820FM-12+001899999V0200601N010012200019N0280001N1-00321-00791103431ADDAA199000091GF105991031051008001001011KA1999M-00171MD1710061+9999REMSYN070AAXX  01181 22438 32578 50610 11032 21079 40343 57006 83501 333 11017;EQDQ01  00002PRCP99
0112224380999992000050121004+65200+036820FM-12+001899999V0200701N010012200019N0250001N1-00411-00791103331ADDGF103991031001999999031001MD1710101+9999REMSYN060AAXX  01211 22438 42975 30710 11041 21079 40333 57010 83030;
0133224380999992000050200004+65200+036820FM-12+001899999V0200701N009012200019N0240001N1-00521-00891103211ADDGF104991021051002501031001MA1999999102991MD1710121+9999REMSYN066AAXX  02001 22438 42374 40709 11052 21089 30299 40321 57012 82530;
0181224380999992000050203004+65200+036820FM-12+001899999V0200201N002019999999N0250001N1-00301-00641103191ADDAA199000091AJ100009199999999GF107991011001999999031041IA1259MD1610021+9999REMSYN076AAXX  02031 22438 32975 70202 11030 21064 40319 56002 81034 333 41000 55000;EQDQ01  00002PRCP99
0133224380999992000050212004+65200+036820FM-12+001899999V0202101N006019999999N0260001N1+00061-00371102641ADDGF105991001001999999001041MA1999999102421MD1810281+9999REMSYN066AAXX  02121 22438 42976 52106 10006 21037 30242 40264 58028 80004;
0112224380999992000050215004+65200+036820FM-12+001899999V0202001N005019999999N0300001N1+00131-00321102331ADDGF106991061001999999031001MD1710311+9999REMSYN060AAXX  02151 22438 42980 62005 10013 21032 40233 57031 86030;
0165224380999992000050218004+65200+036820FM-12+001899999V0202001N005019999999N0300001N1+00101-00291102061ADDAA199000091GF106991051001999999031041KA1999M+00131MD1710271+9999REMSYN070AAXX  02181 22438 32980 62005 10010 21029 40206 57027 85034 333 10013;EQDQ01  00002PRCP99
0112224380999992000050221004+65200+036820FM-12+001899999V0202001N006019999999N0280001N1+00091-00271101821ADDGF107991071001999999031001MD1710241+9999REMSYN060AAXX  02211 22438 42978 72006 10009 21027 40182 57024 87030;
0133224380999992000050300004+65200+036820FM-12+001899999V0202001N006019999999N0260001N1+00071-00261101621ADDGF106991061001999999031001MA1999999101401MD1710201+9999REMSYN066AAXX  03001 22438 42976 62006 10007 21026 30140 40162 57020 86030;
0152224380999992000050303004+65200+036820FM-12+001899999V0202001N004019999999N0270001N1+00131-00221101391ADDAA199000091GF107991071001999999031001MD1710231+9999REMSYN070AAXX  03031 22438 32977 72004 10013 21022 40139 57023 87030 333 55055;EQDQ01  00002PRCP99
0161224380999992000050312004+65200+036820FM-12+001899999V0202201N007010042019N0080001N1+00211+00161100811ADDAY151061AY221061GF108991081061004501999999MA1999999100601MD1710181+9999MW1511REMSYN072AAXX  03121 22438 41458 82207 10021 20016 30060 40081 57018 75152 886//;
0140224380999992000050315004+65200+036820FM-12+001899999V0202301N005010075019N0070001N1+00241+00191100651ADDAY161031AY251031GF108991081001008001021999MD1710161+9999MW1601REMSYN066AAXX  03151 22438 41557 82305 10024 20019 40065 57016 76065 8802/;
0180224380999992000050318004+65200+036820FM-12+001899999V0201601N001010075019N0210001N1+00221+00061100581ADDAA100000391AY161061AY251061GF107991071051008001001001KA1999M+00241MD1610071+9999MW1021REMSYN082AAXX  03181 22438 11571 71601 10022 20006 40058 56007 69930 70265 87500 333 10024;
0112224380999992000050321004+65200+036820FM-12+001899999V0202701N007012200019N0200001N1+00141+00031100561ADDGF102991021051008001001001MD1610021+9999REMSYN060AAXX  03211 22438 42570 22707 10014 20003 40056 56002 82500;
0133224380999992000050400004+65200+036820FM-12+001899999V0202701N008010300019N0200001N1+00051-00091100561ADDGF106991031051008001031001MA1999999100351MD1410001+9999REMSYN066AAXX  04001 22438 42570 62708 10005 21009 30035 40056 54000 83530;
0179224380999992000050403004+65200+036820FM-12+001899999V0201501N006019999999N0090001N1+00011-00081100701ADDAJ100009199999999AY111031AY211031GF105991051001999999031001IA1259MD1310141+9999MW1101REMSYN082AAXX  04031 22438 /1959 51506 10001 21008 40070 53014 71011 85030 333 41000 55000;
0152224380999992000050406004+65200+036820FM-12+001899999V0203301N006019999999N0210001N1+00091-00051100841ADDAA100000791GF108991081001999999071999KA1999N-00061MD1210131+9999REMSYN076AAXX  04061 22438 11971 83306 10009 21005 40084 52013 69900 8807/ 333 21006;
0112224380999992000050415004+65200+036820FM-12+001899999V0203101N006019999999N0300001N1+00371-00141101181ADDGF106991021021999999071001MD1210041+9999REMSYN060AAXX  04151 22438 42980 63106 10037 21014 40118 52004 82270;
0165224380999992000050418004+65200+036820FM-12+001899999V0203201N003019999999N0290001N1+00131-00191101151ADDAA199000091GF106991061001999999071001KA1999M+00281MD1810031+9999REMSYN070AAXX  04181 22438 32979 63203 10013 21019 40115 58003 86070 333 10028;EQDQ01  00002PRCP99
0112224380999992000050421004+65200+036820FM-12+001899999V0202401N005019999999N0260001N1+00081-00181101101ADDGF107991071001999999071001MD1110051+9999REMSYN060AAXX  04211 22438 42976 72405 10008 21018 40110 51005 87070;
0197224380999992000050503004+65200+036820FM-12+001899999V0201901N006019999999N0300001N1+00131-00071100491ADDAA199000091AJ100009199999999GF108991081001999999051999IA1259MD1810542+9999REMSYN076AAXX  05031 22438 32980 81906 10013 21007 40049 58054 8805/ 333 41000 55045;EQDQ01+000542APC3  Q02  00002PRCP99
0140224380999992000050509004+65200+036820FM-12+001899999V0202001N008019999999N0050001N1+00011-00111099881ADDAY161031AY221031GF108991081001999999021999MD1710301+9999MW1611REMSYN066AAXX  05091 22438 41950 82008 10001 21011 49988 57030 76162 8802/;
0161224380999992000050512004+65200+036820FM-12+001899999V0202201N004019999999N0060001N1+00211+00161099781ADDAY161061AY221061GF108991081001999999021999MA1999999099571MD1610101+9999MW1611REMSYN072AAXX  05121 22438 41956 82204 10021 20016 39957 49978 56010 76162 8802/;
0140224380999992000050515004+65200+036820FM-12+001899999V0202701N003019999999N0250001N1+00281+00201099761ADDAY161031AY221031GF108991081001999999051999MD1710021+9999MW1021REMSYN066AAXX  05151 22438 41975 82703 10028 20020 49976 57002 70262 8805/;
0180224380999992000050518004+65200+036820FM-12+001899999V0203001N004019999999N0230001N1+00121+00041099851ADDAA100000891AY161061AY221061GF107991061001999999071041KA1999M+00211MD1310091+9999MW1021REMSYN082AAXX  05181 22438 11973 73004 10012 20004 49985 53009 69970 70262 86074 333 10021;
0112224380999992000050521004+65200+036820FM-12+001899999V0203101N004012200019N0250001N1+00051-00031099931ADDGF101991001001999999001011MD1210081+9999REMSYN060AAXX  05211 22438 41975 13104 10005 21003 49993 52008 80001;
0143224380999992000050600004+65200+036820FM-12+001899999V0203201N004012200019N0270001N1+00081+00001100041ADDGA1001+999999999GF100991001001999999001001MA1999999099831MD1210111+9999REMSYN060AAXX  06001 22438 42977 03204 10008 20000 39983 40004 52011;
0181224380999992000050603004+65200+036820FM-12+001899999V0203301N002019999999N0250001N1+00071+00011100181ADDAA199000091AJ100009199999999GF106991061001999999071001IA1259MD1210141+9999REMSYN076AAXX  06031 22438 32975 63302 10007 20001 40018 52014 86070 333 41000 55001;EQDQ01  00002PRCP99
0133224380999992000050612004+65200+036820FM-12+001899999V0203301N005019999999N0260001N1+00281+00041101071ADDGF107991071001999999071001MA1999999100861MD1210331+9999REMSYN066AAXX  06121 22438 42976 73305 10028 20004 30086 40107 52033 87070;
0174224380999992000050618004+65200+036820FM-12+001899999V0203501N006010042019N0030001N1-00101-00171101851ADDAA199000021AY181061AY221061GF108991081091004501999999KA1999M+00311MD1310481+9999MW1851REMSYN076AAXX  06181 22438 31430 83506 11010 21017 40185 53048 78582 889// 333 10031;
0140224380999992000050621004+65200+036820FM-12+001899999V0203601N005012200019N0210001N1+00021-00091102051ADDAY181031AY211031GF103991021091008001071001MD1110201+9999MW1021REMSYN066AAXX  06211 22438 41571 33605 10002 21009 40205 51020 70281 82970;
0161224380999992000050700004+65200+036820FM-12+001899999V0203601N004010300019N0200001N1-00011-00121102271ADDAY181061AY211061GF105991021091008001071001MA1999999102051MD1210221+9999MW1021REMSYN072AAXX  07001 22438 41570 53604 11001 21012 30205 40227 52022 70281 82970;
0152224380999992000050706004+65200+036820FM-12+001899999V0203101N005012200019N0280001N1+00091-00111102331ADDAA100000591GF103991011011008001001011KA1999N-00101MD1210031+9999REMSYN076AAXX  07061 22438 12578 33105 10009 21011 40233 52003 69940 81101 333 21010;
0112224380999992000050709004+65200+036820FM-12+001899999V0202801N006012200019N0290001N1+00171-00081102361ADDGF107991021011008001001041MD1210021+9999REMSYN060AAXX  07091 22438 42579 72806 10017 21008 40236 52002 82104;
0133224380999992000050712004+65200+036820FM-12+001899999V0202301N003019999999N0350001N1+00321-00221102181ADDGF107991001001999999001041MA1999999101971MD1810171+9999REMSYN066AAXX  07121 22438 42981 72303 10032 21022 30197 40218 58017 80004;
0112224380999992000050715004+65200+036820FM-12+001899999V0202101N003019999999N0350001N1+00331-00141102011ADDGF107991001001999999001041MD1810171+9999REMSYN060AAXX  07151 22438 42981 72103 10033 21014 40201 58017 80004;
0165224380999992000050718004+65200+036820FM-12+001899999V0201701N004019999999N0260001N1+00091-00331101891ADDAA199000091GF108991061001999999071041KA1999M+00371MD1610121+9999REMSYN070AAXX  07181 22438 32976 81704 10009 21033 40189 56012 86074 333 10037;EQDQ01  00002PRCP99
0112224380999992000050721004+65200+036820FM-12+001899999V0202001N005019999999N0240001N1+00041-00161101711ADDGF108991061001999999071041MD1810181+9999REMSYN060AAXX  07211 22438 42974 82005 10004 21016 40171 58018 86074;
0133224380999992000050800004+65200+036820FM-12+001899999V0202101N005019999999N0220001N1-00011-00151101491ADDGF107991031001999999031041MA1999999101281MD1710221+9999REMSYN066AAXX  08001 22438 42972 72105 11001 21015 30128 40149 57022 83034;
0224224380999992000050803004+65200+036820FM-12+001899999V0201801N008019999999N0300001N1+00301-00181101001ADDAA124000091AJ100009199999999GF108991041001999999071041GJ103789IA1259MD1810491+9999REMSYN095AAXX  08031 22438 32980 81808 10030 21018 40100 58049 84074 333 41000 55063 555 21001 7000/ /-;EQDQ01  00002PRCP99Q02  00003PRCP99
0165224380999992000050806004+65200+036820FM-12+001899999V0202001N007019999999N0300001N1+00451+00031100721ADDAA199000091GF108991081001999999071999KA1999N-00011MD1610281+9999REMSYN070AAXX  08061 22438 32980 82007 10045 20003 40072 56028 8807/ 333 21001;EQDQ01  00002PRCP99
0161224380999992000050812004+65200+036820FM-12+001899999V0203101N004019999999N0090001N1+00201+00121100701ADDAY161061AY221061GF108991081001999999021999MA1999999100491MD1310091+9999MW1611REMSYN072AAXX  08121 22438 41959 83104 10020 20012 30049 40070 53009 76162 8802/;
0140224380999992000050815004+65200+036820FM-12+001899999V0203201N007019999999N0080001N1+00181+00101100911ADDAY161031AY221031GF108991081001999999021999MD1210211+9999MW1611REMSYN066AAXX  08151 22438 41958 83207 10018 20010 40091 52021 76162 8802/;
0180224380999992000050818004+65200+036820FM-12+001899999V0203301N005019999999N0200001N1+00161+00021101111ADDAA100000891AY161061AY221061GF105991051001999999031001KA1999M+00451MD1210191+9999MW1021REMSYN082AAXX  08181 22438 11970 53305 10016 20002 40111 52019 69970 70262 85030 333 10045;
0112224380999992000050821004+65200+036820FM-12+001899999V0203201N005012200019N0220001N1+00151-00021101261ADDGF103991031001999999031001MD1210151+9999REMSYN060AAXX  08211 22438 42972 33205 10015 21002 40126 52015 83030;
0133224380999992000050900004+65200+036820FM-12+001899999V0203301N004012200019N0250001N1+00121-00081101371ADDGF102991021001999999031001MA1999999101151MD1210111+9999REMSYN066AAXX  09001 22438 42975 23304 10012 21008 30115 40137 52011 82030;
0151224380999992000050903004+65200+036820FM-12+001899999V0203101N005012200019N0260001N1+00131-00191101471ADDAJ100009199999999GF102991021001999999031001IA1259MD1210101+9999REMSYN076AAXX  09031 22438 /2976 23105 10013 21019 40147 52010 82030 333 41000 55000;
0152224380999992000050906004+65200+036820FM-12+001899999V0203001N005010750019N0280001N1+00251-00111101611ADDAA100000791GF106991021051008001031041KA1999N+00101MD1210151+9999REMSYN076AAXX  09061 22438 12578 63005 10025 21011 40161 52015 69900 82534 333 20010;
0112224380999992000050909004+65200+036820FM-12+001899999V0203101N005012200019N0350001N1+00321+00001101771ADDGF103991021011008001031011MD1210161+9999REMSYN060AAXX  09091 22438 42581 33105 10032 20000 40177 52016 82131;
0133224380999992000050912004+65200+036820FM-12+001899999V0203401N003010300019N0350001N1+00461-00081101841ADDGF106991011011008001031011MA1999999101631MD1110071+9999REMSYN066AAXX  09121 22438 42581 63403 10046 21008 30163 40184 51007 81131;
0165224380999992000050918004+65200+036820FM-12+001899999V0201901N002019999999N0300001N1+00281-00141101741ADDAA199000091GF105991031001999999071011KA1999M+00641MD1810151+9999REMSYN070AAXX  09181 22438 32980 51902 10028 21014 40174 58015 83071 333 10064;EQDQ01  00002PRCP99
0112224380999992000050921004+65200+036820FM-12+001899999V0201801N006019999999N0300001N1+00221-00151101661ADDGF106991061001999999071001MD1610081+9999REMSYN060AAXX  09211 22438 42980 61806 10022 21015 40166 56008 86070;
0133224380999992000051000004+65200+036820FM-12+001899999V0201801N006019999999N0300001N1+00151-00201101571ADDGF106991031001999999031011MA1999999101351MD1710101+9999REMSYN066AAXX  10001 22438 42980 61806 10015 21020 30135 40157 57010 83031;
0165224380999992000051006004+65200+036820FM-12+001899999V0202001N008012200019N0350001N1+00711+00231101041ADDAA199000091GF103991011001999999031011KA1999N+00151MD1710331+9999REMSYN070AAXX  10061 22438 32981 32008 10071 20023 40104 57033 81031 333 20015;EQDQ01  00002PRCP99
0112224380999992000051009004+65200+036820FM-12+001899999V0202001N009010075019N0300001N1+00881+00091100811ADDGF108991071091008001061999MD1710231+9999REMSYN060AAXX  10091 22438 42580 82009 10088 20009 40081 57023 8796/;
0133224380999992000051012004+65200+036820FM-12+001899999V0201901N009010300019N0300001N1+00941+00211100561ADDGF107991021091008001061001MA1999999100351MD1710151+9999REMSYN066AAXX  10121 22438 42580 71909 10094 20021 30035 40056 57015 82960;
0140224380999992000051015004+65200+036820FM-12+001899999V0203301N004010075019N0060001N1+00461+00311100621ADDAY181031AY221031GF107991061091008001061001MD1310061+9999MW1801REMSYN066AAXX  10151 22438 41556 73304 10046 20031 40062 53006 78082 86960;
0180224380999992000051018004+65200+036820FM-12+001899999V0202601N001010300019N0210001N1+00441+00291100641ADDAA100000191AY181061AY221061GF107991021091008001071001KA1999M+01011MD1110021+9999MW1021REMSYN082AAXX  10181 22438 11571 72601 10044 20029 40064 51002 69910 70282 82970 333 10101;
0112224380999992000051021004+65200+036820FM-12+001899999V0209999C000019999999N0200001N1+00451+00201100581ADDGF107991071001999999071001MD1810061+9999REMSYN060AAXX  10211 22438 42970 70000 10045 20020 40058 58006 87070;
0133224380999992000051100004+65200+036820FM-12+001899999V0203101N005019999999N0220001N1+00341+00151100511ADDGF107991071001999999071001MA1999999100301MD1710071+9999REMSYN066AAXX  11001 22438 42972 73105 10034 20015 30030 40051 57007 87070;
0122224380999992000051103004+65200+036820FM-12+001899999V0209999C000019999999N0120001N1+00261+00161100281ADDGF107991031001999999031041MD1810231+9999REMSYN070AAXX  11031 22438 /2962 70000 10026 20016 40028 58023 83034 333 55055;
0180224380999992000051106004+65200+036820FM-12+001899999V0200901N007019999999N0003001N1+00381+00151100141ADDAA100000591AY111061AY211061GF106991041001999999031091KA1999N-00251MD1610141+9999MW1461REMSYN082AAXX  11061 22438 11903 60907 10038 20015 40014 56014 69940 74611 84039 333 21025;
0150224380999992000051109004+65200+036820FM-12+001899999V0200801N006010003019N0003001N1+00161+00131099911ADDAY141031AY221031GA1091+999999999GF109991091999999999999999MD1810231+9999MW1451REMSYN060AAXX  11091 22438 41/03 90806 10016 20013 49991 58023 74542;
0171224380999992000051112004+65200+036820FM-12+001899999V0200201N006010003019N0002001N1+00111+00081099941ADDAY101061AY221061GA1091+999999999GF109991091999999999999999MA1999999099731MD1310031+9999MW1451REMSYN066AAXX  11121 22438 41/02 90206 10011 20008 39973 49994 53003 74502;
0140224380999992000051115004+65200+036820FM-12+001899999V0200301N007010042019N0160001N1+00221+00031099911ADDAY141031AY221031GF108991081061004501999999MD1810031+9999MW1021REMSYN066AAXX  11151 22438 41466 80307 10022 20003 49991 58003 70242 886//;
0193224380999992000051118004+65200+036820FM-12+001899999V0200201N011010042019N0190001N1+00211+00051099991ADDAA199000091AY141061AY221061GF108991081061004501999999KA1999M+00381MD1310081+9999MW1021REMSYN076AAXX  11181 22438 31469 80211 10021 20005 49999 53008 70242 886// 333 10038;EQDQ01  00002PRCP99
0140224380999992000051121004+65200+036820FM-12+001899999V0200201N011010075019N0080001N1+00101+00021100151ADDAY181031AY221031GF108991081091008001999999MD1210161+9999MW1801REMSYN066AAXX  11211 22438 41558 80211 10010 20002 40015 52016 78082 889//;
0161224380999992000051200004+65200+036820FM-12+001899999V0200201N011010075019N0060001N1+00041-00021100331ADDAY181061AY221061GF108991081091008001999999MA1999999100121MD1210181+9999MW1801REMSYN072AAXX  12001 22438 41556 80211 10004 21002 30012 40033 52018 78082 889//;
0180224380999992000051206004+65200+036820FM-12+001899999V0203501N016010075019N0200001N1-00081-00531100411ADDAA100000591AY181061AY221061GF107991061011008001001041KA1999N-00061MD1210031+9999MW1021REMSYN082AAXX  12061 22438 11570 73516 11008 21053 40041 52003 69950 70282 86104 333 21006;
0133224380999992000051212004+65200+036820FM-12+001899999V0203601N017010300019N0200001N1+99999+99999100681ADDGF107991031041008001071041MA1999999100471MD1210161+9999REMSYN066AAXX  12121 22438 42570 73617 19998 21051 30047 40068 52016 83474;
0112224380999992000051215004+65200+036820FM-12+001899999V0203601N015010300019N0230001N1+00041-00661100831ADDGF107991021021008001071041MD1210141+9999REMSYN060AAXX  12151 22438 42573 73615 10004 21066 40083 52014 82274;
0165224380999992000051218004+65200+036820FM-12+001899999V0203601N013012200019N0250001N1-00021-00761100821ADDAA199000091GF106991021041008001001041KA1999M+00091MD1810011+9999REMSYN070AAXX  12181 22438 32575 63613 11002 21076 40082 58001 82404 333 10009;EQDQ01  00002PRCP99
0112224380999992000051221004+65200+036820FM-12+001899999V0203601N014012200019N0220001N1-00081-00721100731ADDGF106991031011008001001041MD1710091+9999REMSYN060AAXX  12211 22438 42572 63614 11008 21072 40073 57009 83104;
0133224380999992000051300004+65200+036820FM-12+001899999V0203601N013012200019N0240001N1-00111-00651100621ADDGF105991021011008001001041MA1999999100411MD1710101+9999REMSYN066AAXX  13001 22438 42574 53613 11011 21065 30041 40062 57010 82104;
0152224380999992000051303004+65200+036820FM-12+001899999V0203501N011012200019N0250001N1-00091-00551100501ADDAA199000091GF106991041011008001001011MD1710121+9999REMSYN070AAXX  13031 22438 32575 63511 11009 21055 40050 57012 84101 333 55000;EQDQ01  00002PRCP99
0165224380999992000051306004+65200+036820FM-12+001899999V0203501N011012200019N0290001N1-00031-00541100531ADDAA199000091GF104991021011008001001011KA1999N-00111MD1310031+9999REMSYN070AAXX  13061 22438 32579 43511 11003 21054 40053 53003 82101 333 21011;EQDQ01  00002PRCP99
0133224380999992000051312004+65200+036820FM-12+001899999V0203601N013010075019N0300001N1+00081-00491100551ADDGF107991061021008001001011MA1999999100341MD1410001+9999REMSYN066AAXX  13121 22438 42580 73613 10008 21049 30034 40055 54000 86201;
0112224380999992000051315004+65200+036820FM-12+001899999V0203601N013010075019N0300001N1+00051-00531100641ADDGF107991061091008001001011MD1310091+9999REMSYN060AAXX  13151 22438 42580 73613 10005 21053 40064 53009 86901;
0165224380999992000051318004+65200+036820FM-12+001899999V0203601N013010075019N0350001N1+00031-00681100661ADDAA199000091GF106991061021008001031011KA1999M+00091MD1110021+9999REMSYN070AAXX  13181 22438 32581 63613 10003 21068 40066 51002 86231 333 10009;EQDQ01  00002PRCP99
0112224380999992000051321004+65200+036820FM-12+001899999V0203601N014010075019N0300001N1+00001-00611100621ADDGF106991051021008001001011MD1810041+9999REMSYN060AAXX  13211 22438 42580 63614 10000 21061 40062 58004 85201;
0133224380999992000051400004+65200+036820FM-12+001899999V0203601N013010075019N0300001N1-00021-00561100591ADDGF106991061021008001001011MA1999999100381MD1710031+9999REMSYN066AAXX  14001 22438 42580 63613 11002 21056 30038 40059 57003 86201;
0166224380999992000051403004+65200+036820FM-12+001899999V0203601N017010075019N0300001N1-00041-00551100501ADDAA199000091GF108991081051008001999999GJ103669MD1810101+9999REMSYN076AAXX  14031 22438 32580 83617 11004 21055 40050 58010 885// 333 55061 91022;EQDQ01  00002PRCP99
0169224380999992000051409004+65200+036820FM-12+001899999V0203501N012019999999N0180001N1+00061-00401100641ADDAY181031AY221031GF107991999091008001999999MD1210071+9999MW1021REMSYN076AAXX  14091 22438 41568 73512 10006 21040 40064 52007 70282 889// 333 91121;EQDQ01+000082SCOTLC
0188224380999992000051412004+65200+036820FM-12+001899999V0203501N014010075019N0220001N1+00101-00431100781ADDAY181061AY221061GF108991061051008001071999MA1999999100511MD1210081+9999MW1021OA140101901REMSYN088AAXX  14121 22438 41572 83514 10010 21043 30051 40078 52008 70282 8657/ 333 91019 91121;
0122224380999992000051415004+65200+036820FM-12+001899999V0203401N012010075019N0240001N1+00181-00331100771ADDGF106991061051008001071001MD1110041+9999REMSYN070AAXX  14151 22438 42574 63412 10018 21033 40077 51004 86570 333 91120;
0152224380999992000051418004+65200+036820FM-12+001899999V0203401N012010075019N0280001N1-00021-00521100791ADDAA100000391GF107991071051008001001001KA1999M+00181MD1210031+9999REMSYN076AAXX  14181 22438 12578 73412 11002 21052 40079 52003 69930 87500 333 10018;
0122224380999992000051421004+65200+036820FM-12+001899999V0203401N013010075019N0260001N1-00051-00531100631ADDGF107991071051008001001001MD1810161+9999REMSYN070AAXX  14211 22438 42576 73413 11005 21053 40063 58016 87500 333 91118;
0143224380999992000051500004+65200+036820FM-12+001899999V0203401N014010075019N0270001N1-00041-00521100531ADDGF107991071051008001001001MA1999999100321MD1610101+9999REMSYN076AAXX  15001 22438 42577 73414 11004 21052 30032 40053 56010 87500 333 91118;
0152224380999992000051503004+65200+036820FM-12+001899999V0203301N008010075019N0300001N1-00041-00581100391ADDAA199000091GF108991081051008001999999MD1710141+9999REMSYN070AAXX  15031 22438 32580 83308 11004 21058 40039 57014 885// 333 55015;EQDQ01  00002PRCP99
0174224380999992000051506004+65200+036820FM-12+001899999V0203301N010010042019N0048001N1-00121-00251100411ADDAA199000021AY181061AY221061GF108991081091004501999999KA1999N-00081MD1310021+9999MW1851REMSYN076AAXX  15061 22438 31448 83310 11012 21025 40041 53002 78582 889// 333 21008;
0140224380999992000051509004+65200+036820FM-12+001899999V0203401N012010300019N0200001N1+00081-00321100531ADDAY181031AY221031GF107991011091004501071001MD1210121+9999MW1021REMSYN066AAXX  15091 22438 41470 73412 10008 21032 40053 52012 70282 81970;
0161224380999992000051512004+65200+036820FM-12+001899999V0203401N011010300019N0220001N1+00111-00411100781ADDAY181061AY221061GF108991021091004501051999MA1999999100561MD1310241+9999MW1021REMSYN072AAXX  15121 22438 41472 83411 10011 21041 30056 40078 53024 70282 8295/;
0112224380999992000051515004+65200+036820FM-12+001899999V0203301N012019999999N0200001N1+00101-00391100921ADDGF107991071001999999071001MD1210141+9999REMSYN060AAXX  15151 22438 42970 73312 10010 21039 40092 52014 87070;
0180224380999992000051518004+65200+036820FM-12+001899999V0203301N013010075019N0200001N1+00041-00321101021ADDAA100000191AY181061AY221061GF107991071091008001001001KA1999M+00111MD1210101+9999MW1021REMSYN082AAXX  15181 22438 31570 73313 10004 21032 40102 52010 69920 70282 87900 333 10011;
0140224380999992000051521004+65200+036820FM-12+001899999V0203301N016010042019N0040001N1+00061-00341101011ADDAY181031AY221031GF108991081091004501999999MD1810011+9999MW1851REMSYN066AAXX  15211 22438 41440 83316 10006 21034 40101 58001 78582 889//;
0161224380999992000051600004+65200+036820FM-12+001899999V0203501N017010042019N0046001N1+00031-00301100971ADDAY181061AY221061GF108991081091004501999999MA1999999100751MD1710041+9999MW1851REMSYN072AAXX  16001 22438 41446 83517 10003 21030 30075 40097 57004 78582 889//;
0181224380999992000051603004+65200+036820FM-12+001899999V0203401N016012200019N0190001N1+00061-00341101221ADDAY181031AY221031GF105991021021008001001011GJ100009MD1310251+9999MW1021OA140102001REMSYN088AAXX  16031 22438 /1569 53416 10006 21034 40122 53025 70282 82201 333 55000 91020 91121;
0186224380999992000051606004+65200+036820FM-12+001899999V0203401N013012200019N0250001N1+00161-00391101431ADDAA100000191AY181061AY221061GF107991021051008001001041KA1120N+00021MD1210201+9999MW1021REMSYN088AAXX  16061 22438 11575 73413 10016 21039 40143 52020 69920 70282 82504 333 20002 91121;
0112224380999992000051609004+65200+036820FM-12+001899999V0203401N008019999999N0300001N1+00201-00371101611ADDGF106991021001999999031011MD1210201+9999REMSYN060AAXX  16091 22438 42980 63408 10020 21037 40161 52020 82031;
0133224380999992000051612004+65200+036820FM-12+001899999V0203301N006019999999N0280001N1+00151-00301101771ADDGF107991071001999999071001MA1999999101561MD1210161+9999REMSYN066AAXX  16121 22438 42978 73306 10015 21030 30156 40177 52016 87070;
0112224380999992000051615004+65200+036820FM-12+001899999V0203201N007012200019N0290001N1+00181-00331101781ADDGF102991021021008001031011MD1110011+9999REMSYN060AAXX  16151 22438 42579 23207 10018 21033 40178 51001 82231;
0165224380999992000051618004+65200+036820FM-12+001899999V0203301N002019999999N0280001N1+00071-00391101671ADDAA199000091GF105991051001999999071001KA1999M+00241MD1810111+9999REMSYN070AAXX  16181 22438 32978 53302 10007 21039 40167 58011 85070 333 10024;EQDQ01  00002PRCP99
0112224380999992000051621004+65200+036820FM-12+001899999V0202501N005019999999N0230001N1+00051-00211101551ADDGF107991071001999999071001MD1710121+9999REMSYN060AAXX  16211 22438 42973 72505 10005 21021 40155 57012 87070;
0112224380999992000051709004+65200+036820FM-12+001899999V0201001N010012200019N0270001N1+00161-00501101511ADDGF104991021011008001001051MD1210051+9999REMSYN060AAXX  17091 22438 42577 41010 10016 21050 40151 52005 82105;
0133224380999992000051712004+65200+036820FM-12+001899999V0200401N007012200019N0600001N1+00141-00491101771ADDGF102991011011008001001011MA1999999101041MD1310261+9999REMSYN066AAXX  17121 22438 42586 20407 10014 21049 30104 40177 53026 81101;
0112224380999992000051715004+65200+036820FM-12+001899999V0200201N004012200019N0250001N1+00111-00491101841ADDGF104991011011008001001051MD1110071+9999REMSYN060AAXX  17151 22438 42575 40204 10011 21049 40184 51007 81105;
0165224380999992000051718004+65200+036820FM-12+001899999V0203201N003012200019N0220001N1+00041-00291101841ADDAA199000091GF104991001001999999001041KA1999M+00161MD1410001+9999REMSYN070AAXX  17181 22438 32972 43203 10004 21029 40184 54000 80004 333 10016;EQDQ01  00002PRCP99
0112224380999992000051721004+65200+036820FM-12+001899999V0200101N002019999999N0200001N1+00041-00071101821ADDGF105991001001999999001041MD1810021+9999REMSYN060AAXX  17211 22438 42970 50102 10004 21007 40182 58002 80004;
0133224380999992000051800004+65200+036820FM-12+001899999V0203401N003019999999N0210001N1+00021-00091101771ADDGF106991001001999999001041MA1999999101551MD1710051+9999REMSYN066AAXX  18001 22438 42971 63403 10002 21009 30155 40177 57005 80004;
0175224380999992000051803004+65200+036820FM-12+001899999V0200701N005019999999N0280001N1+00111-00151101801ADDAA199000091AJ100889199999999GF107991001001999999001041IA1259MD1310051+9999REMSYN070AAXX  18031 22438 32978 70705 10011 21015 40180 53005 80004 333 41088;EQDQ01  00002PRCP99
0197224380999992000051806004+65200+036820FM-12+001899999V0200701N003010075019N0240001N1+00191-00031101791ADDAA199000091GF108991081051008001999999KA1999N+00021MD1710011+9999REMSYN070AAXX  18061 22438 32574 80703 10019 21003 40179 57000 885// 333 20002;EQDQ01+000072APCTENQ02+000002APC3  Q03  00002PRCP99
0112224380999992000051809004+65200+036820FM-12+001899999V0200601N005010075019N0220001N1+00091-00111101831ADDGF108991081051008001999999MD1310031+9999REMSYN060AAXX  18091 22438 42572 80605 10009 21011 40183 53003 885//;
0112224380999992000051815004+65200+036820FM-12+001899999V0200801N005010075019N0250001N1+00151-00171101741ADDGF105991051051008001001001MD1610031+9999REMSYN060AAXX  18151 22438 42575 50805 10015 21017 40174 56003 85500;
0165224380999992000051818004+65200+036820FM-12+001899999V0201001N008019999999N0250001N1+00071-00191101721ADDAA199000091GF107991021001999999031041KA1999M+00211MD1710021+9999REMSYN070AAXX  18181 22438 32975 71008 10007 21019 40172 57002 82034 333 10021;EQDQ01  00002PRCP99
0112224380999992000051821004+65200+036820FM-12+001899999V0201001N006012200019N0230001N1+00041-00071101721ADDGF102991001001999999001011MD1410001+9999REMSYN060AAXX  18211 22438 42973 21006 10004 21007 40172 54000 80001;
0133224380999992000051900004+65200+036820FM-12+001899999V0201001N005012200019N0240001N1+00051-00121101691ADDGF104991001001999999001011MA1999999101471MD1710031+9999REMSYN066AAXX  19001 22438 42974 41005 10005 21012 30147 40169 57003 80001;
0152224380999992000051903004+65200+036820FM-12+001899999V0201201N001019999999N0280001N1+00261-00041101811ADDAA199000091GF106991041001999999031011MD1310131+9999REMSYN070AAXX  19031 22438 32978 61201 10026 21004 40181 53013 84031 333 55055;EQDQ01  00002PRCP99
0165224380999992000051906004+65200+036820FM-12+001899999V0200801N003019999999N0230001N1+00451+00221101831ADDAA199000091GF107991021001999999031041KA1999N+00011MD1110031+9999REMSYN070AAXX  19061 22438 32973 70803 10045 20022 40183 51003 82034 333 20001;EQDQ01  00002PRCP99
0133224380999992000051912004+65200+036820FM-12+001899999V0200801N006019999999N0240001N1+00341+00111101771ADDGF106991061001999999071001MA1999999101561MD1710051+9999REMSYN066AAXX  19121 22438 42974 60806 10034 20011 30156 40177 57005 86070;
0112224380999992000051915004+65200+036820FM-12+001899999V0200901N007012200019N0260001N1+00251+00011101651ADDGF103991031001999999031001MD1810121+9999REMSYN060AAXX  19151 22438 42976 30907 10025 20001 40165 58012 83030;
0165224380999992000051918004+65200+036820FM-12+001899999V0200901N006012200019N0260001N1+00211-00011101601ADDAA199000091GF102991021001999999031001KA1999M+00471MD1610051+9999REMSYN070AAXX  19181 22438 32976 20906 10021 21001 40160 56005 82030 333 10047;EQDQ01  00002PRCP99
0122224380999992000051921004+65200+036820FM-12+001899999V0201001N006012200019N0240001N1+00121-00051101621ADDGA1001+999999999GF100991001001999999001001MD1310011+9999REMSYN054AAXX  19211 22438 42974 01006 10012 21005 40162 53001;
0133224380999992000052000004+65200+036820FM-12+001899999V0201001N005012200019N0240001N1+00091-00051101621ADDGF102991021001999999031001MA1999999101401MD1410001+9999REMSYN066AAXX  20001 22438 42974 21005 10009 21005 30140 40162 54000 82030;
0152224380999992000052003004+65200+036820FM-12+001899999V0200801N003012200019N0350001N1+00261+00161101571ADDAA199000091GF102991001001999999001091MD1310041+9999REMSYN070AAXX  20031 22438 32981 20803 10026 20016 40157 53004 80009 333 55065;EQDQ01  00002PRCP99
0122224380999992000052009004+65200+036820FM-12+001899999V0200801N007012200019N0350001N1+00521+00141101571ADDGA1001+999999999GF100991001001999999001001MD1810021+9999REMSYN054AAXX  20091 22438 42981 00807 10052 20014 40157 58002;
0112224380999992000052015004+65200+036820FM-12+001899999V0200901N009012200019N0250001N1+00351+00201101491ADDGF101991001001999999001011MD1710031+9999REMSYN060AAXX  20151 22438 42975 10909 10035 20020 40149 57003 80001;
0165224380999992000052018004+65200+036820FM-12+001899999V0201001N007012200019N0260001N1+00311+00151101431ADDAA199000091GF102991001001999999001011KA1999M+00541MD1710061+9999REMSYN070AAXX  20181 22438 32976 21007 10031 20015 40143 57006 80001 333 10054;EQDQ01  00002PRCP99
0122224380999992000052021004+65200+036820FM-12+001899999V0201401N003012200019N0230001N1+00341-00201101481ADDGA1001+999999999GF100991001001999999001001MD1310051+9999REMSYN054AAXX  20211 22438 42973 01403 10034 21020 40148 53005;
0143224380999992000052100004+65200+036820FM-12+001899999V0201601N002012200019N0250001N1+00371-00221101511ADDGA1001+999999999GF100991001001999999001001MA1999999101301MD1210031+9999REMSYN060AAXX  21001 22438 42975 01602 10037 21022 30130 40151 52003;
0175224380999992000052106004+65200+036820FM-12+001899999V0202001N002012200019N0290001N1+01301+00931101571ADDAA199000091GA1001+999999999GF100991001001999999001001KA1999N+00291MD1210021+9999REMSYN064AAXX  21061 22438 32979 02002 10130 20093 40157 52002 333 20029;EQDQ01  00002PRCP99
0122224380999992000052109004+65200+036820FM-12+001899999V0200901N006012200019N0350001N1+00891+00191101551ADDGA1001+999999999GF100991001001999999001001MD1810021+9999REMSYN054AAXX  21091 22438 42981 00906 10089 20019 40155 58002;
0133224380999992000052112004+65200+036820FM-12+001899999V0200801N005012200019N0350001N1+00971-00071101481ADDGF102991001001999999001011MA1999999101271MD1710071+9999REMSYN066AAXX  21121 22438 42981 20805 10097 21007 30127 40148 57007 80001;
0122224380999992000052115004+65200+036820FM-12+001899999V0200901N009012200019N0350001N1+00911-00121101331ADDGA1001+999999999GF100991001001999999001001MD1810151+9999REMSYN054AAXX  21151 22438 42981 00909 10091 21012 40133 58015;
0165224380999992000052118004+65200+036820FM-12+001899999V0201001N007012200019N0300001N1+00641+00201101311ADDAA199000091GF102991001001999999001011KA1999M+01331MD1610021+9999REMSYN070AAXX  21181 22438 32980 21007 10064 20020 40131 56002 80001 333 10133;EQDQ01  00002PRCP99
0112224380999992000052121004+65200+036820FM-12+001899999V0201501N008012200019N0350001N1+00951+00531101301ADDGF102991021001999999081001MD1710011+9999REMSYN060AAXX  21211 22438 42981 21508 10095 20053 40130 57001 82080;
0133224380999992000052200004+65200+036820FM-12+001899999V0201601N009012200019N0350001N1+01141+00611101271ADDGF103991011001999999031011MA1999999101061MD1710031+9999REMSYN066AAXX  22001 22438 42981 31609 10114 20061 30106 40127 57003 81031;
0152224380999992000052203004+65200+036820FM-12+001899999V0201801N006012200019N0350001N1+01161+00611101251ADDAA199000091GF101991001001999999001011MD1710021+9999REMSYN070AAXX  22031 22438 32981 11806 10116 20061 40125 57002 80001 333 55159;EQDQ01  00002PRCP99
0165224380999992000052206004+65200+036820FM-12+001899999V0201901N007019999999N0350001N1+01511+00581101261ADDAA199000091GF107991001001999999001041KA1999N+00661MD1310011+9999REMSYN070AAXX  22061 22438 32981 71907 10151 20058 40126 53001 80004 333 20066;EQDQ01  00002PRCP99
0112224380999992000052209004+65200+036820FM-12+001899999V0202201N007019999999N0350001N1+01571+00271101291ADDGF107991001001999999001021MD1210031+9999REMSYN060AAXX  22091 22438 42981 72207 10157 20027 40129 52003 80002;
0112224380999992000052215004+65200+036820FM-12+001899999V0201901N005019999999N0350001N1+01681+00021101271ADDGF106991001001999999001021MD1810011+9999REMSYN060AAXX  22151 22438 42981 61905 10168 20002 40127 58001 80002;
0165224380999992000052218004+65200+036820FM-12+001899999V0201901N007019999999N0350001N1+01571-00141101251ADDAA199000091GF106991001001999999001021KA1999M+01981MD1710021+9999REMSYN070AAXX  22181 22438 32981 61907 10157 21014 40125 57002 80002 333 10198;EQDQ01  00002PRCP99
0112224380999992000052221004+65200+036820FM-12+001899999V0201701N005019999999N0350001N1+01221+00061101301ADDGF105991001001999999001021MD1310041+9999REMSYN060AAXX  22211 22438 42981 51705 10122 20006 40130 53004 80002;
0133224380999992000052300004+65200+036820FM-12+001899999V0201801N004019999999N0350001N1+01351-00021101321ADDGF106991001001999999001021MA1999999101111MD1110021+9999REMSYN066AAXX  23001 22438 42981 61804 10135 21002 30111 40132 51002 80002;
0152224380999992000052303004+65200+036820FM-12+001899999V0201801N004012200019N0280001N1+01251+00271101351ADDAA199000091GF103991001001999999001011MD1210031+9999REMSYN070AAXX  23031 22438 32978 31804 10125 20027 40135 52003 80001 333 55135;EQDQ01  00002PRCP99
0165224380999992000052306004+65200+036820FM-12+001899999V0202201N005012200019N0270001N1+01351+00171101401ADDAA199000091GF102991001001999999001011KA1999N+01221MD1210051+9999REMSYN070AAXX  23061 22438 32977 22205 10135 20017 40140 52005 80001 333 20122;EQDQ01  00002PRCP99
0165224380999992000052318004+65200+036820FM-12+001899999V0201201N005019999999N0260001N1+01331+00431101301ADDAA199000091GF106991041001999999031041KA1999M+01461MD1710031+9999REMSYN070AAXX  23181 22438 32976 61205 10133 20043 40130 57003 84034 333 10146;EQDQ01  00002PRCP99
0112224380999992000052321004+65200+036820FM-12+001899999V0201101N004010120019N0300001N1+01401+00361101261ADDGF107991071051012501001001MD1710041+9999REMSYN060AAXX  23211 22438 42680 71104 10140 20036 40126 57004 87500;
0133224380999992000052400004+65200+036820FM-12+001899999V0201201N004010120019N0270001N1+01441+00291101201ADDGF107991071051012501001001MA1999999100991MD1710061+9999REMSYN066AAXX  24001 22438 42677 71204 10144 20029 30099 40120 57006 87500;
0165224380999992000052406004+65200+036820FM-12+001899999V0202101N005019999999N0350001N1+01851+00361101181ADDAA199000091GF107991001001999999001021KA1999N+01301MD1710041+9999REMSYN070AAXX  24061 22438 32981 72105 10185 20036 40118 57004 80002 333 20130;EQDQ01  00002PRCP99
0112224380999992000052409004+65200+036820FM-12+001899999V0202301N006019999999N0350001N1+01541+00301101091ADDGF106991061001999999031011MD1610021+9999REMSYN060AAXX  24091 22438 42981 62306 10154 20030 40109 56002 86031;
0133224380999992000052412004+65200+036820FM-12+001899999V0202101N005012200019N0350001N1+01861+00581101091ADDGF102991021021008001001001MA1999999100891MD1410001+9999REMSYN066AAXX  24121 22438 42581 22105 10186 20058 30089 40109 54000 82200;
0112224380999992000052415004+65200+036820FM-12+001899999V0202101N005010750019N0350001N1+01911+00651101011ADDGF105991021021008001031011MD1810071+9999REMSYN060AAXX  24151 22438 42581 52105 10191 20065 40101 58007 82231;
0165224380999992000052418004+65200+036820FM-12+001899999V0209999C000012200019N0350001N1+01411-00171101011ADDAA199000091GF107991021091008001001041KA1999M+02111MD1610011+9999REMSYN070AAXX  24181 22438 32581 70000 10141 21017 40101 56001 82904 333 10211;EQDQ01  00002PRCP99
0147224380999992000052421004+65200+036820FM-12+001899999V0202501N009010075019N0300001N1+01291+00581101011ADDGF108991999091008001001001MD1410001+9999REMSYN060AAXX  24211 22438 42580 82509 10129 20058 40101 53000 86900;EQDQ01+000062SCOTLCQ02+000032APCTEN
0161224380999992000052500004+65200+036820FM-12+001899999V0202301N007010075019N0280001N1+01051+00621100981ADDAY181061AY221061GF107991051091008001001041MA1999999100771MD1810031+9999MW1021REMSYN072AAXX  25001 22438 41578 72307 10105 20062 30077 40098 58003 70282 85904;
0122224380999992000052503004+65200+036820FM-12+001899999V0202401N003012200019N0290001N1+01171+00591100961ADDGF105991011091008001001011MD1610021+9999REMSYN070AAXX  25031 22438 /2579 52403 10117 20059 40096 56002 81901 333 55127;
0152224380999992000052506004+65200+036820FM-12+001899999V0202001N004012200019N0300001N1+01461+00361100981ADDAA100000791GF101991011021008001001001KA1999N+01001MD1310021+9999REMSYN076AAXX  25061 22438 12580 12004 10146 20036 40098 53002 69900 81200 333 20100;
0112224380999992000052509004+65200+036820FM-12+001899999V0202201N004012200019N0300001N1+01391+00711100991ADDGF102991021021008001001001MD1110011+9999REMSYN060AAXX  25091 22438 42580 22204 10139 20071 40099 51001 82200;
0133224380999992000052512004+65200+036820FM-12+001899999V0201001N003012200019N0300001N1+01361+00801100991ADDGF106991021021008001001041MA1999999100781MD1410001+9999REMSYN066AAXX  25121 22438 42580 61003 10136 20080 30078 40099 54000 82204;
0112224380999992000052515004+65200+036820FM-12+001899999V0201201N001010120019N0300001N1+01331+00821100941ADDGF107991061091012501001011MD1810021+9999REMSYN060AAXX  25151 22438 42680 71201 10133 20082 40094 58002 86901;
0112224380999992000052521004+65200+036820FM-12+001899999V0202301N006010300019N0270001N1+01051+00641100921ADDGF106991021031008001071011MD1710021+9999REMSYN060AAXX  25211 22438 42577 62306 10105 20064 40092 57002 82371;
0133224380999992000052600004+65200+036820FM-12+001899999V0202401N007010300019N0290001N1+00871+00471100901ADDGF107991021021008001071011MA1999999100691MD1710021+9999REMSYN066AAXX  26001 22438 42579 72407 10087 20047 30069 40090 57002 82271;
0165224380999992000052606004+65200+036820FM-12+001899999V0202001N006019999999N0220001N1+01271+00821100891ADDAA199000091GF107991071001999999071001KA1999N+00841MD1810051+9999REMSYN070AAXX  26061 22438 32972 72006 10127 20082 40089 58005 87070 333 20084;EQDQ01  00002PRCP99
0112224380999992000052609004+65200+036820FM-12+001899999V0202001N008010300019N0200001N1+01341+00991100831ADDGF107991041031008001071001MD1710061+9999REMSYN060AAXX  26091 22438 42570 72008 10134 20099 40083 57006 84370;
0155224380999992000052612004+65200+036820FM-12+001899999V0201801N007010075019N0200001N1+01341+01111999999ADDAY181061AY221061GF107991061091008001071001MA1999999100451MD1810171+9999MW1021REMSYN066AAXX  26121 22438 41570 71807 10134 20111 30045 58017 70282 86970;
0112224380999992000052615004+65200+036820FM-12+001899999V0201101N005010075019N0170001N1+01101+00981100401ADDGF108991061021008001051999MD1710261+9999REMSYN060AAXX  26151 22438 42567 81105 10110 20098 40040 57026 8625/;
0152224380999992000052618004+65200+036820FM-12+001899999V0201701N006010120019N0200001N1+01431+01151100151ADDAA100000791GF108991081081008001999999KA1999M+01411MD1710241+9999REMSYN076AAXX  26181 22438 12570 81706 10143 20115 40015 57024 69900 888// 333 10141;
0140224380999992000052621004+65200+036820FM-12+001899999V0201801N006010042019N0031001N1+01101+01041100101ADDAY181031AY221031GF108991081091004501999999MD1610061+9999MW1811REMSYN066AAXX  26211 22438 41431 81806 10110 20104 40010 56006 78182 889//;
0161224380999992000052700004+65200+036820FM-12+001899999V0201801N007010075019N0060001N1+00991+00971100061ADDAY181061AY221061GF108991081091008001999999MA1999999099851MD1710041+9999MW1801REMSYN072AAXX  27001 22438 41556 81807 10099 20097 39985 40006 57004 78082 889//;
0150224380999992000052703004+65200+036820FM-12+001899999V0201901N009010075019N0210001N1+00731+00531099851ADDAY181031AY221031GF107991061091008001071001MD1810211+9999MW1021REMSYN076AAXX  27031 22438 /1571 71909 10073 20053 49985 58021 70282 86970 333 55011;
0180224380999992000052706004+65200+036820FM-12+001899999V0201901N009010120019N0220001N1+00751+00531099841ADDAA100002091AY181061AY221061GF107991071081008001001001KA1999N+00731MD1610011+9999MW1021REMSYN082AAXX  27061 22438 11572 71909 10075 20053 49984 56001 60020 70282 87800 333 20073;
0140224380999992000052709004+65200+036820FM-12+001899999V0201901N007010075019N0046001N1+00671+00581099841ADDAY181031AY221031GF108991081091008001999999MD1410001+9999MW1801REMSYN066AAXX  27091 22438 41546 81907 10067 20058 49984 54000 78082 889//;
0161224380999992000052712004+65200+036820FM-12+001899999V0203001N006010075019N0050001N1+00701+00611099931ADDAY181061AY221061GF108991081091008001999999MA1999999099721MD1310091+9999MW1801REMSYN072AAXX  27121 22438 41550 83006 10070 20061 39972 49993 53009 78082 889//;
0140224380999992000052715004+65200+036820FM-12+001899999V0202201N007010075019N0180001N1+00861+00521099961ADDAY181031AY221031GF107991071091008001001001MD1110031+9999MW1021REMSYN066AAXX  27151 22438 41568 72207 10086 20052 49996 51003 70282 87900;
0180224380999992000052718004+65200+036820FM-12+001899999V0202201N005010300019N0260001N1+00561+00471100041ADDAA100002091AY181061AY221061GF105991041021008001011001KA1999M+00751MD1310081+9999MW1021REMSYN082AAXX  27181 22438 11576 52205 10056 20047 40004 53008 60020 70282 84210 333 10075;
0112224380999992000052721004+65200+036820FM-12+001899999V0202701N009010120019N0220001N1+00511+00441100221ADDGF107991061081008001071001MD1310181+9999REMSYN060AAXX  27211 22438 42572 72709 10051 20044 40022 53018 86870;
0133224380999992000052800004+65200+036820FM-12+001899999V0202701N009010120019N0200001N1+00491+00401100421ADDGF107991051081008001071001MA1999999100211MD1210201+9999REMSYN066AAXX  28001 22438 42570 72709 10049 20040 30021 40042 52020 85870;
0122224380999992000052803004+65200+036820FM-12+001899999V0203201N004010075019N0240001N1+00601+00581100741ADDGF107991061051008001031001MD1210321+9999REMSYN070AAXX  28031 22438 12574 73204 10060 20058 40074 52032 86530 333 55011;
0193224380999992000052806004+65200+036820FM-12+001899999V0203001N004010300019N0100001N1+00641+00501100941ADDAA199000091AY121061AY221061GF105991021051008001031001KA1999N+00471MD1210201+9999MW1101REMSYN076AAXX  28061 22438 32560 53004 10064 20050 40094 52020 71022 82530 333 20047;EQDQ01  00002PRCP99
0112224380999992000052809004+65200+036820FM-12+001899999V0203101N003010300019N0230001N1+00791+00511101221ADDGF106991011021008001031011MD1210281+9999REMSYN060AAXX  28091 22438 42573 63103 10079 20051 40122 52028 81231;
0133224380999992000052812004+65200+036820FM-12+001899999V0202701N001012200019N0300001N1+00991+00501101291ADDGF106991011021008001001011MA1999999101081MD1110071+9999REMSYN066AAXX  28121 22438 42580 62701 10099 20050 30108 40129 51007 81201;
0112224380999992000052815004+65200+036820FM-12+001899999V0200801N002010300019N0300001N1+00901+00581101311ADDGF108991011051008001071999MD1110021+9999REMSYN060AAXX  28151 22438 42580 80802 10090 20058 40131 51002 8157/;
0181224380999992000052818004+65200+036820FM-12+001899999V0201001N007019999999N0290001N1+00661+00521101311ADDAA199000091GF107991999001022501051001KA1999M+00991MD1410001+9999REMSYN070AAXX  28181 22438 32879 71007 10066 20052 40131 54000 80050 333 10099;EQDQ01+000002SCOTLCQ02  00002PRCP99
0112224380999992000052821004+65200+036820FM-12+001899999V0200901N006019999999N0270001N1+00621+00581101341ADDGF108991081001999999051999MD1310031+9999REMSYN060AAXX  28211 22438 42977 80906 10062 20058 40134 53003 8805/;
0133224380999992000052900004+65200+036820FM-12+001899999V0201101N007019999999N0260001N1+00641+00621101361ADDGF108991081001999999051999MA1999999101251MD1210021+9999REMSYN066AAXX  29001 22438 42976 81107 10064 20062 30125 40136 52002 8805/;
0158224380999992000052903004+65200+036820FM-12+001899999V0200801N003019999999N0280001N1+00781+00701101401ADDAA199000091GF107991999001999999051999MD1210041+9999REMSYN060AAXX  29031 22438 32978 70803 10078 20070 40140 52004 8805/;EQDQ01+000082SCOTLCQ02  00002PRCP99
0112224380999992000052909004+65200+036820FM-12+001899999V0200701N002019999999N0280001N1+01281+00811101361ADDGF105991051001999999031041MD1710021+9999REMSYN060AAXX  29091 22438 42978 50702 10128 20081 40136 57002 85034;
0133224380999992000052912004+65200+036820FM-12+001899999V0200801N001019999999N0290001N1+01231+00761101331ADDGF106991061001999999031001MA1999999101121MD1710031+9999REMSYN066AAXX  29121 22438 42979 60801 10123 20076 30112 40133 57003 86030;
0131224380999992000052915004+65200+036820FM-12+001899999V0200901N004019999999N0270001N1+01141+00731101201ADDGF106991001001999999001041MD1810131+9999REMSYN060AAXX  29151 22438 42977 60904 10114 20073 40120 58013 86004;EQDQ01+000062SCOTLC
0112224380999992000052921004+65200+036820FM-12+001899999V0201101N002010300019N0220001N1+01281+00931101011ADDGF106991041051008001031041MD1710071+9999REMSYN060AAXX  29211 22438 42572 61102 10128 20093 40101 57007 84534;
0133224380999992000053000004+65200+036820FM-12+001899999V0201001N002010075019N0200001N1+01161+00921100921ADDGF108991061051008001031999MA1999999100711MD1710091+9999REMSYN066AAXX  30001 22438 42570 81002 10116 20092 30071 40092 57009 8653/;
0122224380999992000053009004+65200+036820FM-12+001899999V0200701N004012200019N0180001N1+01531+01141100731ADDGA1001+999999999GF100991001001999999001001MD1810121+9999REMSYN054AAXX  30091 22438 42968 00704 10153 20114 40073 58012;
0133224380999992000053012004+65200+036820FM-12+001899999V0200801N005010300019N0160001N1+01271+01001100621ADDGF106991031031004501031041MA1999999100421MD1710101+9999REMSYN066AAXX  30121 22438 42466 60805 10127 20100 30042 40062 57010 83334;
0193224380999992000053018004+65200+036820FM-12+001899999V0202101N002010042019N0160001N1+01641+01171100601ADDAA199000091AY191061AY221061GF106991061091004501031001KA1999M+01601MD1410001+9999MW1021REMSYN076AAXX  30181 22438 31466 62102 10164 20117 40060 54000 70292 86930 333 10160;EQDQ01  00002PRCP99
0112224380999992000053021004+65200+036820FM-12+001899999V0201801N003019999999N0200001N1+01191+00921100631ADDGF105991031001999999031041MD1310031+9999REMSYN060AAXX  30211 22438 42970 51803 10119 20092 40063 53003 83034;
0133224380999992000053100004+65200+036820FM-12+001899999V0202101N003019999999N0220001N1+01061+00841100691ADDGF106991031001999999031041MA1999999100481MD1210051+9999REMSYN066AAXX  31001 22438 42972 62103 10106 20084 30048 40069 52005 83034;
0133224380999992000053112004+65200+036820FM-12+001899999V0200301N002012200019N0190001N1+01381+01041100871ADDGF103991021021008001001011MA1999999100661MD1810061+9999REMSYN066AAXX  31121 22438 42569 30302 10138 20104 30066 40087 58006 82201;
0112224380999992000053115004+65200+036820FM-12+001899999V0200801N005010300019N0190001N1+01011+00781100711ADDGF107991041021008001071011MD1710161+9999REMSYN060AAXX  31151 22438 42569 70805 10101 20078 40071 57016 84271;
0174224380999992000053118004+65200+036820FM-12+001899999V0202501N009010075019N0080001N1+01461+01171100651ADDAA199000021AY171061AY211061GF108991081091008001999999KA1999M+01411MD1610051+9999MW1801REMSYN076AAXX  31181 22438 31558 82509 10146 20117 40065 56005 78071 889// 333 10141;
0140224380999992000053121004+65200+036820FM-12+001899999V0202301N006012200019N0120001N1+01051+00931100941ADDAY181031AY221031GF107991041091008001001011MD1310281+9999MW1021REMSYN066AAXX  31211 22438 41562 72306 10105 20093 40094 53028 70282 84901;
0161224380999992000060100004+65200+036820FM-12+001899999V0202301N005010300019N0140001N1+00921+00811101231ADDAY181061AY221061GF106991021091008001031011MA1999999101021MD1210291+9999MW1021REMSYN072AAXX  01001 22438 41564 62305 10092 20081 30102 40123 52029 70282 82931;
0122224380999992000060103004+65200+036820FM-12+001899999V0202201N004012200019N0046001N1+00621+00551101421ADDGF101991001001999999001011MD1210191+9999REMSYN070AAXX  01031 22438 /2946 12204 10062 20055 40142 52019 80001 333 55074;
0112224380999992000060109004+65200+036820FM-12+001899999V0202401N004012200019N0250001N1+01251+00671101571ADDGF106991011011008001001011MD1110041+9999REMSYN060AAXX  01091 22438 42575 62404 10125 20067 40157 51004 81101;
0112224380999992000060115004+65200+036820FM-12+001899999V0202201N00101220001CN0300001N1+01381+00581101581ADDGF108991021051008001001041MD1810011+9999REMSYN060AAXX  01151 22438 42580 82201 10138 20058 40158 58001 82504;
0112224380999992000060121004+65200+036820FM-12+001899999V0202201N003010300019N0240001N1+00781+00531101601ADDGF106991041051008001031001MD1310041+9999REMSYN060AAXX  01211 22438 42574 62203 10078 20053 40160 53004 84530;
0133224380999992000060200004+65200+036820FM-12+001899999V0202501N002019999999N0250001N1+00541+00421101571ADDGF107991021001999999031011MA1999999101361MD1810031+9999REMSYN066AAXX  02001 22438 42975 72502 10054 20042 30136 40157 58003 82031;
0152224380999992000060203004+65200+036820FM-12+001899999V0202501N003019999999N0300001N1+00801+00461101581ADDAA199000091GF107991011001999999031041MD1310011+9999REMSYN070AAXX  02031 22438 32980 72503 10080 20046 40158 53001 81034 333 55107;EQDQ01  00002PRCP99
0165224380999992000060206004+65200+036820FM-12+001899999V0202401N003010300019N0300001N1+00971+00501101611ADDAA199000091GF107991011011008001031041KA1999N+00531MD1210031+9999REMSYN070AAXX  02061 22438 32580 72403 10097 20050 40161 52003 81134 333 20053;EQDQ01  00002PRCP99
0112224380999992000060209004+65200+036820FM-12+001899999V0202401N004012200019N0300001N1+01061+00511101621ADDGF105991011011008001001041MD1110011+9999REMSYN060AAXX  02091 22438 42580 52404 10106 20051 40162 51001 81104;
0133224380999992000060212004+65200+036820FM-12+001899999V0202201N005012200019N0270001N1+01281+00531101561ADDGF102991011011008001001011MA1999999101351MD1810061+9999REMSYN066AAXX  02121 22438 42577 22205 10128 20053 30135 40156 58006 81101;
0112224380999992000060215004+65200+036820FM-12+001899999V0201901N002012200019N0280001N1+01421+00451101451ADDGF102991011011008001001011MD1710111+9999REMSYN060AAXX  02151 22438 42578 21902 10142 20045 40145 57011 81101;
0165224380999992000060218004+65200+036820FM-12+001899999V0202101N004012200019N0270001N1+00911+00471101371ADDAA199000091GF104991041001999999031001KA1999M+01421MD1710071+9999REMSYN070AAXX  02181 22438 32977 42104 10091 20047 40137 57007 84030 333 10142;EQDQ01  00002PRCP99
0112224380999992000060221004+65200+036820FM-12+001899999V0201801N004012200019N0300001N1+00981+00461101301ADDGF102991021001999999031001MD1710071+9999REMSYN060AAXX  02211 22438 42980 21804 10098 20046 40130 57007 82030;
0133224380999992000060300004+65200+036820FM-12+001899999V0202001N003012200019N0300001N1+00941+00461101251ADDGF103991031001999999031001MA1999999101041MD1710051+9999REMSYN066AAXX  03001 22438 42980 32003 10094 20046 30104 40125 57005 83030;
0152224380999992000060303004+65200+036820FM-12+001899999V0201501N004012200019N0300001N1+00941+00511101111ADDAA199000091GF102991021001999999031001MD1810141+9999REMSYN070AAXX  03031 22438 32980 21504 10094 20051 40111 58014 82030 333 55172;EQDQ01  00002PRCP99
0165224380999992000060306004+65200+036820FM-12+001899999V0202001N007010750019N0350001N1+01351+00761100871ADDAA199000091GF106991021011008001031041KA1999N+00901MD1710241+9999REMSYN070AAXX  03061 22438 32581 62007 10135 20076 40087 57024 82134 333 20090;EQDQ01  00002PRCP99
0112224380999992000060309004+65200+036820FM-12+001899999V0201401N005010075019N0300001N1+01321+00361100681ADDGF107991061091008001071001MD1710181+9999REMSYN060AAXX  03091 22438 42580 71405 10132 20036 40068 57018 86970;
0133224380999992000060312004+65200+036820FM-12+001899999V0201501N009010075019N0270001N1+01351+00711100391ADDGF107991071091008001001001MA1999999100191MD1810291+9999REMSYN066AAXX  03121 22438 42577 71509 10135 20071 30019 40039 58029 87900;
0140224380999992000060315004+65200+036820FM-12+001899999V0201401N010010075019N0230001N1+01131+00781100181ADDAY181031AY221031GF107991071091008001001001MD1610211+9999MW1021REMSYN066AAXX  03151 22438 41573 71410 10113 20078 40018 56021 70282 87900;
0180224380999992000060318004+65200+036820FM-12+001899999V0201601N007010075019N0044001N1+01021+00951100071ADDAA100000391AY181061AY221061GF107991071091008001001001KA1999M+01411MD1710121+9999MW1801REMSYN082AAXX  03181 22438 11544 71607 10102 20095 40007 57012 69930 78082 87900 333 10141;
0112224380999992000060321004+65200+036820FM-12+001899999V0202001N008010075019N0200001N1+00971+00891099981ADDGF107991061091008001071001MD1710091+9999REMSYN060AAXX  03211 22438 42570 72008 10097 20089 49998 57009 86970;
0152224380999992000060400004+65200+036820FM-12+001899999V0201701N006019999999N0210001N1+00901+00811099901ADDGF106991999091008001071001MA1999999099691MD1710081+9999REMSYN066AAXX  04001 22438 42571 61706 10090 20081 39969 49990 57008 80970;EQDQ01+000002SCOTLC
0122224380999992000060403004+65200+036820FM-12+001899999V0202001N005012200019N0290001N1+00961+00591100111ADDGF102991011021008001031001MD1310211+9999REMSYN070AAXX  04031 22438 /2579 22005 10096 20059 40011 53021 81230 333 55064;
0152224380999992000060406004+65200+036820FM-12+001899999V0202001N004012200019N0300001N1+01081+00531100161ADDAA100000591GF102991021011008001001001KA1999N+00871MD1110051+9999REMSYN076AAXX  04061 22438 12580 22004 10108 20053 40016 51005 69950 82100 333 20087;
0112224380999992000060409004+65200+036820FM-12+001899999V0202101N003010075019N0350001N1+01201-00021100181ADDGF107991061021008001001041MD1210031+9999REMSYN060AAXX  04091 22438 42581 72103 10120 21002 40018 52003 86204;
0133224380999992000060412004+65200+036820FM-12+001899999V0200301N004010075019N0350001N1+01001+00171100251ADDGF107991061091008001001041MA1999999100041MD1210061+9999REMSYN066AAXX  04121 22438 42581 70304 10100 20017 30004 40025 52006 86904;
0140224380999992000060415004+65200+036820FM-12+001899999V0202301N004010075019N0090001N1+00661+00451100291ADDAY181031AY221031GF108991081091008001999999MD1210041+9999MW1801REMSYN066AAXX  04151 22438 41559 82304 10066 20045 40029 52004 78082 889//;
0180224380999992000060418004+65200+036820FM-12+001899999V0200301N003010075019N0080001N1+00561+00371100291ADDAA100000591AY181061AY221061GF107991071091008001001001KA1999M+01331MD1410001+9999MW1801REMSYN082AAXX  04181 22438 11558 70303 10056 20037 40029 54000 69950 78082 87900 333 10133;
0140224380999992000060421004+65200+036820FM-12+001899999V0200601N002010075019N0190001N1+00471+00351100291ADDAY181031AY221031GF107991061091008001061001MD1410001+9999MW1021REMSYN066AAXX  04211 22438 41569 70602 10047 20035 40029 54000 70282 86960;
0161224380999992000060500004+65200+036820FM-12+001899999V0200601N002010075019N0200001N1+00311+00261100281ADDAY181061AY221061GF106991051021008001061001MA1999999100071MD1810011+9999MW1021REMSYN072AAXX  05001 22438 41570 60602 10031 20026 30007 40028 58001 70282 85260;
0122224380999992000060503004+65200+036820FM-12+001899999V0203401N002010075019N0220001N1+00551+00501100221ADDGF108991051051008001001011MD1810061+9999REMSYN070AAXX  05031 22438 /2572 83402 10055 20050 40022 58006 85501 333 55097;
0140224380999992000060509004+65200+036820FM-12+001899999V0202901N003010042019N0050001N1+00561+00541100261ADDAY181031AY221031GF108991081091004501999999MD1310031+9999MW1811REMSYN066AAXX  05091 22438 41450 82903 10056 20054 40026 53003 78182 889//;
0161224380999992000060512004+65200+036820FM-12+001899999V0200101N002010075019N0120001N1+00521+00471100341ADDAY181061AY221061GF108991081051008001999999MA1999999100131MD1310081+9999MW1251REMSYN072AAXX  05121 22438 41562 80102 10052 20047 30013 40034 53008 72582 885//;
0131224380999992000060515004+65200+036820FM-12+001899999V0203501N003010075019N0230001N1+00661+00501100411ADDGF107991999051008001001001MD1210151+9999REMSYN060AAXX  05151 22438 42573 73503 10066 20050 40041 52015 86500;EQDQ01+000062SCOTLC
0152224380999992000060518004+65200+036820FM-12+001899999V0203601N003012200019N0290001N1+00661+00351100601ADDAA100011991GF105991031051008001001011KA1999M+00711MD1210111+9999REMSYN076AAXX  05181 22438 12579 53603 10066 20035 40060 52011 60120 83501 333 10071;
0112224380999992000060521004+65200+036820FM-12+001899999V0200301N003010300019N0200001N1+00591+00541100721ADDGF106991031051008001031001MD1210121+9999REMSYN060AAXX  05211 22438 42570 60303 10059 20054 40072 52012 83530;
0112224380999992000060609004+65200+036820FM-12+001899999V0200101N008010300019N0250001N1+00621+00261101431ADDGF107991011011008001071001MD1210201+9999REMSYN060AAXX  06091 22438 42575 70108 10062 20026 40143 52020 81170;
0112224380999992000060612004+65200+036820FM-12+001899999V0200201N006019999999N0230001N1+00621+00311101231ADDGF108991081001999999051091MD1110101+9999REMSYN060AAXX  06121 22438 42973 80206 10062 20031 40123 51010 88059;
0112224380999992000060615004+65200+036820FM-12+001899999V0203401N006019999999N0240001N1+00701+00421101621ADDGF106991031001999999031041MD1210091+9999REMSYN060AAXX  06151 22438 42974 63406 10070 20042 40162 52009 83034;
0181224380999992000060618004+65200+036820FM-12+001899999V0203401N004019999999N0270001N1+00641+00461101621ADDAA199000091GF108991001001999999001011KA1999M+00701MD1410001+9999REMSYN070AAXX  06181 22438 32377 83404 10064 20046 40162 54000 80001 333 10070;EQDQ01+002502SCOLCBQ02  00002PRCP99
0122224380999992000060621004+65200+036820FM-12+001899999V0200801N001012200019N0220001N1+00411+00341101691ADDGA1001+999999999GF100991001001999999001001MD1310071+9999REMSYN054AAXX  06211 22438 42972 00801 10041 20034 40169 53007;
0143224380999992000060700004+65200+036820FM-12+001899999V0209999C000012200019N0200001N1+00581+00511101741ADDGA1001+999999999GF100991001001999999001001MA1999999101531MD1210051+9999REMSYN060AAXX  07001 22438 42970 00000 10058 20051 30153 40174 52005;
0152224380999992000060703004+65200+036820FM-12+001899999V0200801N003010075019N0200001N1+00561+00491101841ADDAA199000091GF107991071011008001001001MD1210101+9999REMSYN070AAXX  07031 22438 32570 70803 10056 20049 40184 52010 87100 333 55059;EQDQ01  00002PRCP99
0165224380999992000060706004+65200+036820FM-12+001899999V0200801N005010075019N0220001N1+00611+00501101871ADDAA199000091GF106991051011008001031001KA1999N+00411MD1110031+9999REMSYN070AAXX  07061 22438 32572 60805 10061 20050 40187 51003 85130 333 20041;EQDQ01  00002PRCP99
0112224380999992000060709004+65200+036820FM-12+001899999V0200801N006012200019N0270001N1+00621+00231101831ADDGF101991001001999999001011MD1810041+9999REMSYN060AAXX  07091 22438 42977 10806 10062 20023 40183 58004 80001;
0133224380999992000060712004+65200+036820FM-12+001899999V0200801N007012200019N0280001N1+00581+00211101721ADDGF102991001001999999001011MA1999999101511MD1710111+9999REMSYN066AAXX  07121 22438 42978 20807 10058 20021 30151 40172 57011 80001;
0112224380999992000060715004+65200+036820FM-12+001899999V0200801N007019999999N0260001N1+00501+00301101551ADDGF106991001001999999001041MD1810171+9999REMSYN060AAXX  07151 22438 42976 60807 10050 20030 40155 58017 80004;
0112224380999992000060718004+65200+036820FM-12+001899999V0200901N007019999999N0230001N1+00481+00411101451ADDGF107991001001999999001041MD1610101+9999REMSYN060AAXX  07181 22438 42973 70907 10048 20041 40145 56010 80004;
0133224380999992000060800004+65200+036820FM-12+001899999V0201001N003019999999N0220001N1+00451+00301101251ADDGF107991071001999999071001MA1999999101041MD1710091+9999REMSYN066AAXX  08001 22438 42972 71003 10045 20030 30104 40125 57009 87070;
0152224380999992000060803004+65200+036820FM-12+001899999V0200701N003012200019N0280001N1+00491+00321101151ADDAA199000091GF103991021001999999031011MD1710101+9999REMSYN070AAXX  08031 22438 32978 30703 10049 20032 40115 57010 82031 333 55122;EQDQ01  00002PRCP99
0112224380999992000060809004+65200+036820FM-12+001899999V0200801N005019999999N0200001N1+00661+00501100791ADDGF107991071001999999071001MD1610121+9999REMSYN060AAXX  08091 22438 42970 70805 10066 20050 40079 56012 87070;
0161224380999992000060812004+65200+036820FM-12+001899999V0201001N001019999999N0090001N1+00891+00581100591ADDAY161061AY221061GF108991081001999999071999MA1999999100381MD1810201+9999MW1601REMSYN072AAXX  08121 22438 41959 81001 10089 20058 30038 40059 58020 76062 8807/;
0140224380999992000060815004+65200+036820FM-12+001899999V0200501N004010075019N0060001N1+00761+00671100491ADDAY161031AY221031GF108991081001008001021999MD1610101+9999MW1611REMSYN066AAXX  08151 22438 41556 80504 10076 20067 40049 56010 76162 8802/;
0180224380999992000060818004+65200+036820FM-12+001899999V0200601N007010075019N0034001N1+00691+00651100321ADDAA100001091AY161061AY221061GF108991081001008001021999KA1999M+00941MD1710171+9999MW1631REMSYN082AAXX  08181 22438 11534 80607 10069 20065 40032 57017 60010 76362 8802/ 333 10094;
0140224380999992000060821004+65200+036820FM-12+001899999V0200601N007010075019N0030001N1+00631+00611100191ADDAY161031AY221031GF108991081001008001021999MD1710131+9999MW1631REMSYN066AAXX  08211 22438 41530 80607 10063 20061 40019 57013 76362 8802/;
0161224380999992000060900004+65200+036820FM-12+001899999V0200601N007010075019N0050001N1+00601+00581100041ADDAY161061AY221061GF108991081001008001021999MA1999999099831MD1710151+9999MW1611REMSYN072AAXX  09001 22438 41550 80607 10060 20058 39983 40004 57015 76162 8802/;
0150224380999992000060903004+65200+036820FM-12+001899999V0200301N004010075019N0060001N1+00611+00591100091ADDAY161031AY221031GF108991081001008001021999MD1310051+9999MW1611REMSYN076AAXX  09031 22438 /1556 80304 10061 20059 40009 53005 76162 8802/ 333 55038;
0140224380999992000060915004+65200+036820FM-12+001899999V0200201N006010300019N0160001N1+00461+00311100991ADDAY181031AY221031GF107991031051008001031011MD1210261+9999MW1021REMSYN066AAXX  09151 22438 41566 70206 10046 20031 40099 52026 70282 83531;
0180224380999992000060918004+65200+036820FM-12+001899999V0200401N003012200019N0250001N1+00441+00241101211ADDAA100003091AY181061AY211061GF102991021051008001011001KA1999M+00641MD1210221+9999MW1021REMSYN082AAXX  09181 22438 12575 20403 10044 20024 40121 52022 60030 70281 82510 333 10064;
0112224380999992000060921004+65200+036820FM-12+001899999V0202701N002010075019N0230001N1+00341+00171101331ADDGF107991061051008001031001MD1210021+9999REMSYN060AAXX  09211 22438 42573 72702 10034 20017 40133 52002 86530;
0133224380999992000061000004+65200+036820FM-12+001899999V0202701N003012200019N0260001N1+00401+00331101401ADDGF102991011011008001001011MA1999999101191MD1210071+9999REMSYN066AAXX  10001 22438 42576 22703 10040 20033 30119 40140 52007 81101;
0112224380999992000061009004+65200+036820FM-12+001899999V0202101N006012200019N0270001N1+00811+00451101691ADDGF103991011011008001031001MD1410001+9999REMSYN060AAXX  10091 22438 42577 32106 10081 20045 40169 54000 81130;
0133224380999992000061012004+65200+036820FM-12+001899999V0202101N009019999999N0280001N1+00891+00111101661ADDGF106991061001999999031001MA1999999101451MD1810031+9999REMSYN066AAXX  10121 22438 42978 62109 10089 20011 30145 40166 58003 86030;
0112224380999992000061015004+65200+036820FM-12+001899999V0202001N008019999999N0300001N1+00831+00171101521ADDGF105991051001999999031001MD1710141+9999REMSYN060AAXX  10151 22438 42980 52008 10083 20017 40152 57014 85030;
0181224380999992000061018004+65200+036820FM-12+001899999V0202001N009012200019N0300001N1+00861+00211101391ADDAA199000091GF102991021001999999031001KA1999M+99999MD1710131+9999REMSYN070AAXX  10181 22438 32980 22009 10086 20021 40139 57013 82030 333 10018;EQDQ01  00002PRCP99Q02 +00182ATMX  
0152224380999992000061103004+65200+036820FM-12+001899999V0201901N012019999999N0260001N1+00841+00361100891ADDAA199000091GF107991061001999999071041MD1810341+9999REMSYN070AAXX  11031 22438 32976 71912 10084 20036 40089 58034 86074 333 55141;EQDQ01  00002PRCP99
0165224380999992000061106004+65200+036820FM-12+001899999V0202101N012019999999N0250001N1+00931+00461100621ADDAA199000091GF108991081001999999071999KA1999N+00781MD1710271+9999REMSYN070AAXX  11061 22438 32975 82112 10093 20046 40062 57027 8807/ 333 20078;EQDQ01  00002PRCP99
0140224380999992000061109004+65200+036820FM-12+001899999V0202101N012010075019N0230001N1+00971+00451100521ADDAY181031AY221031GF108991051091008001071999MD1610101+9999MW1021REMSYN066AAXX  11091 22438 41573 82112 10097 20045 40052 56010 70282 8597/;
0161224380999992000061112004+65200+036820FM-12+001899999V0202201N008010300019N0260001N1+00961+00361100541ADDAY181061AY221061GF106991031091008001031011MA1999999100331MD1310021+9999MW1021REMSYN072AAXX  11121 22438 41576 62208 10096 20036 30033 40054 53002 70282 83931;
0112224380999992000061115004+65200+036820FM-12+001899999V0202301N007012200019N0290001N1+01161+00741100541ADDGF105991011021008001001011MD1410001+9999REMSYN060AAXX  11151 22438 42579 52307 10116 20074 40054 54000 81201;
0154224380999992000061118004+65200+036820FM-12+001899999V0202201N006019999999N0280001N1+01271+00921100511ADDGF106991021001999999031011KA1999M+99999MD1810021+9999REMSYN070AAXX  11181 22438 12978 62206 10127 20092 40051 58002 82031 333 10116;EQDQ01 +01162ATMX  
0112224380999992000061121004+65200+036820FM-12+001899999V0201101N005012200019N0280001N1+00991+00741100491ADDGF104991021001999999031011MD1710041+9999REMSYN060AAXX  11211 22438 42978 41105 10099 20074 40049 57004 82031;
0133224380999992000061200004+65200+036820FM-12+001899999V0202201N005019999999N0280001N1+00781+00651100441ADDGF106991051001999999051011MA1999999100231MD1710051+9999REMSYN066AAXX  12001 22438 42978 62205 10078 20065 30023 40044 57005 85051;
0152224380999992000061203004+65200+036820FM-12+001899999V0201501N003019999999N0260001N1+01041+00771100251ADDAA199000091GF107991061091999999071001MD1810191+9999REMSYN070AAXX  12031 22438 32976 71503 10104 20077 40025 58019 86970 333 55014;EQDQ01  00002PRCP99
0181224380999992000061206004+65200+036820FM-12+001899999V0201801N008019999999N0240001N1+01361+00811099991ADDAA199000091GF107991999091008001001001KA1999N+00751MD1710261+9999REMSYN070AAXX  12061 22438 32574 71808 10136 20081 49999 57026 88900 333 20075;EQDQ01+000082SCOTLCQ02  00002PRCP99
0133224380999992000061212004+65200+036820FM-12+001899999V0202001N004012200019N0270001N1+01761+01291099541ADDGF107991031021008001001041MA1999999099341MD1610171+9999REMSYN066AAXX  12121 22438 42577 72004 10176 20129 39934 49954 56017 83204;
0112224380999992000061215004+65200+036820FM-12+001899999V0201901N009010300019N0240001N1+01351+00951099291ADDGF108991021021008001071999MD1810251+9999REMSYN060AAXX  12151 22438 42574 81909 10135 20095 49929 58025 8227/;
0203224380999992000061306004+65200+036820FM-12+001899999V0202801N001010003019N0003001N1+00801+00781099511ADDAA199000091AY141061AY221061GA1091+999999999GF109991091999999999999999KA1999N+00661MD1310191+9999MW1451REMSYN070AAXX  13061 22438 31/03 92801 10080 20078 49951 53019 74542 333 20066;EQDQ01  00002PRCP99
0140224380999992000061309004+65200+036820FM-12+001899999V0202701N002010042019N0060001N1+00821+00761099821ADDAY181031AY241031GF108991081051004501999999MD1210311+9999MW1801REMSYN066AAXX  13091 22438 41456 82702 10082 20076 49982 52031 78084 885//;
0161224380999992000061312004+65200+036820FM-12+001899999V0203001N002010300019N0220001N1+00721+00591100131ADDAY181061AY241061GF107991031051008001031001MA1999999099921MD1210311+9999MW1021REMSYN072AAXX  13121 22438 41572 73002 10072 20059 39992 40013 52031 70284 83530;
0112224380999992000061315004+65200+036820FM-12+001899999V0203201N002012200019N0250001N1+00701+00401100511ADDGF103991011051008001031001MD1210381+9999REMSYN060AAXX  13151 22438 42575 33202 10070 20040 40051 52038 81530;
0152224380999992000061318004+65190+036820FM-12+001899999V0202901N001010075019N0300001N1+00691+00361100601ADDAA100000391GF105991051051008001001001KA1999M+00831MD1110091+9999REMSYN076AAXX  13181 22438 12580 52901 10069 20036 40060 51009 69930 85500 333 10083;
0112224380999992000061321004+65190+036820FM-12+001899999V0201301N002010750019N0270001N1+00441+00371100461ADDGF106991021051008001001051MD1810141+9999REMSYN060AAXX  13211 22438 42577 61302 10044 20037 40046 58014 82505;
0133224380999992000061400004+65190+036820FM-12+001899999V0201601N002010750019N0230001N1+00481+00381100381ADDGF108991021051008001001051MA1999999100171MD1710081+9999REMSYN066AAXX  14001 22438 42573 81602 10048 20038 30017 40038 57008 82505;
0112224380999992000061409004+65190+036820FM-12+001899999V0202201N009012200019N0290001N1+01131+00581099271ADDGF102991021021008001001011MD1310181+9999REMSYN060AAXX  14091 22438 42579 22209 10113 20058 49927 53018 82201;
0161224380999992000061412004+65190+036820FM-12+001899999V0201901N005010075019N0260001N1+01091+00621099281ADDAY181061AY221061GF107991061091008001071011MA1999999099081MD1110011+9999MW1251REMSYN072AAXX  14121 22438 41576 71905 10109 20062 39908 49928 51001 72582 86971;
0156224380999992000061415004+65190+036820FM-12+001899999V0202901N008010075019N0240001N1+01001+00501099371ADDAY181031AY221031GF107991071091008001001001MD1310091+9999MW1181REMSYN082AAXX  14151 22438 41574 72908 10100 20050 49937 53009 71882 87900 333 91826 91118;
0180224380999992000061418004+65190+036820FM-12+001899999V0202201N008012200019N0230001N1+00731+00451099411ADDAA100000591AY181061AY211061GF103991021091008001001011KA1999M+01191MD1110041+9999MW1021REMSYN082AAXX  14181 22438 11573 32208 10073 20045 49941 51004 69950 70281 82901 333 10119;
0112224380999992000061421004+65190+036820FM-12+001899999V0202301N006010075019N0220001N1+00711+00381099391ADDGF106991061091008001001001MD1810021+9999REMSYN060AAXX  14211 22438 42572 62306 10071 20038 49939 58002 86900;
0122224380999992000061503004+65190+036820FM-12+001899999V0202301N007010075019N0250001N1+00861+00621099181ADDGF107991061091008001071011MD1810171+9999REMSYN070AAXX  15031 22438 /2575 72307 10086 20062 49918 58017 86971 333 55098;
0152224380999992000061506004+65190+036820FM-12+001899999V0202301N008010075019N0280001N1+01001+00591099101ADDAA100000791GF107991061021008001001041KA1999N+00371MD1610081+9999REMSYN076AAXX  15061 22438 12578 72308 10100 20059 49910 56008 69900 86204 333 20037;
0112224380999992000061509004+65190+036820FM-12+001899999V0202101N006010075019N0300001N1+01011+00411099151ADDGF107991071091008001001001MD1310051+9999REMSYN060AAXX  15091 22438 42580 72106 10101 20041 49915 53005 87900;
0133224380999992000061512004+65190+036820FM-12+001899999V0202301N006010075019N0300001N1+00981+00341099211ADDGF107991061091008001001041MA1999999099011MD1210061+9999REMSYN066AAXX  15121 22438 42580 72306 10098 20034 39901 49921 52006 86904;
0140224380999992000061515004+65190+036820FM-12+001899999V0202401N008010075019N0300001N1+00771+00501099251ADDAY121031AY221031GF106991061091008001001011MD1210041+9999MW1801REMSYN066AAXX  15151 22438 41580 62408 10077 20050 49925 52004 78022 86901;
0180224380999992000061518004+65190+036820FM-12+001899999V0202301N007010300019N0230001N1+00651+00491099351ADDAA100000791AY181061AY221061GF107991021091008001071041KA1999M+01041MD1210101+9999MW1021REMSYN082AAXX  15181 22438 11573 72307 10065 20049 49935 52010 69900 70282 82974 333 10104;
0112224380999992000061521004+65190+036820FM-12+001899999V0202501N006010300019N0220001N1+00591+00501099411ADDGF107991011091008001071041MD1210051+9999REMSYN060AAXX  15211 22438 42572 72506 10059 20050 49941 52005 81974;
0133224380999992000061600004+65190+036820FM-12+001899999V0202501N005010300019N0230001N1+00501+00431099451ADDGF107991021031008001071041MA1999999099241MD1210041+9999REMSYN066AAXX  16001 22438 42573 72505 10050 20043 39924 49945 52004 82374;
0122224380999992000061603004+65190+036820FM-12+001899999V0202301N002012200019N0290001N1+00621+00511099521ADDGF103991021051008001031001MD1210071+9999REMSYN070AAXX  16031 22438 /2579 32302 10062 20051 49952 52007 82530 333 55008;
0152224380999992000061606004+65190+036820FM-12+001899999V0202401N002010075019N0270001N1+00701+00461099621ADDAA100000391GF107991071011008001001001KA1999N+00481MD1210101+9999REMSYN076AAXX  16061 22438 12577 72402 10070 20046 49962 52010 69930 87100 333 20048;
0112224380999992000061609004+65190+036820FM-12+001899999V0202401N003010075019N0280001N1+00841+00501099811ADDGF107991061051008001031001MD1210191+9999REMSYN060AAXX  16091 22438 42578 72403 10084 20050 49981 52019 86530;
0133224380999992000061612004+65190+036820FM-12+001899999V0202901N002012200019N0250001N1+00961+00501099971ADDGF103991021021008001031001MA1999999099761MD1210161+9999REMSYN066AAXX  16121 22438 42575 32902 10096 20050 39976 49997 52016 82230;
0112224380999992000061615004+65190+036820FM-12+001899999V0203101N002012200019N0240001N1+00861+00671100111ADDGF102991011021008001031011MD1210241+9999REMSYN060AAXX  16151 22438 42574 23102 10086 20067 40011 52024 81231;
0165224380999992000061618004+65190+036820FM-12+001899999V0203601N003010075019N0200001N1+00661+00551100241ADDAA199000091GF107991061051008001031001KA1999M+01001MD1210131+9999REMSYN070AAXX  16181 22438 32570 73603 10066 20055 40024 52013 86530 333 10100;EQDQ01  00002PRCP99
0140224380999992000061621004+65190+036820FM-12+001899999V0200101N005010075019N0060001N1+00551+00481100391ADDAY181031AY221031GF108991081091008001999999MD1210151+9999MW1801REMSYN066AAXX  16211 22438 41556 80105 10055 20048 40039 52015 78082 889//;
0161224380999992000061700004+65190+036820FM-12+001899999V0200201N006010075019N0500001N1+00511+00391100471ADDAY181061AY221061GF108991081051008001999999MA1999999100261MD1210081+9999MW1021REMSYN072AAXX  17001 22438 41584 80206 10051 20039 30026 40047 52008 70282 885//;
0150224380999992000061703004+65190+036820FM-12+001899999V0200101N009010042019N0050001N1+00441+00421100681ADDAY181031AY221031GF108991081091004501999999MD1310211+9999MW1801REMSYN076AAXX  17031 22438 /1450 80109 10044 20042 40068 53021 78082 889// 333 55092;
0180224380999992000061706004+65190+036820FM-12+001899999V0203601N009010075019N0070001N1+00421+00351100951ADDAA112000591AY181061AY221061GF108991081091008001999999KA1999N+00441MD1210271+9999MW1101REMSYN082AAXX  17061 22438 11557 83609 10042 20035 40095 52027 69962 71082 889// 333 20044;
0112224380999992000061709004+65190+036820FM-12+001899999V0203601N007010075019N0190001N1+00571+00251101021ADDGF108991081051008001999999MD1110071+9999REMSYN060AAXX  17091 22438 41569 83607 10057 20025 40102 51007 885//;
0133224380999992000061712004+65190+036820FM-12+001899999V0203401N006010075019N0240001N1+00631+00191101131ADDGF108991081041008001999999MA1999999100921MD1210111+9999REMSYN066AAXX  17121 22438 42574 83406 10063 20019 30092 40113 52011 884//;
0131224380999992000061715004+65190+036820FM-12+001899999V0203301N005019999999N0250001N1+00701+00271101201ADDGF107991999041008001001001MD1210071+9999REMSYN060AAXX  17151 22438 42575 73305 10070 20027 40120 52007 88400;EQDQ01+000082SCOTLC
0152224380999992000061718004+65190+036820FM-12+001899999V0203301N004010075019N0220001N1+00571+00251101061ADDAA100000191GF107991071041008001001001KA1999M+00741MD1210061+9999REMSYN076AAXX  17181 22438 12572 73304 10057 20025 40106 52006 69910 87400 333 10074;
0112224380999992000061721004+65190+036820FM-12+001899999V0203301N003010075019N0210001N1+00551+00411101341ADDGF107991051051008001071011MD1210081+9999REMSYN060AAXX  17211 22438 42571 73303 10055 20041 40134 52008 85571;
0112224380999992000061800004+65190+036820FM-12+001899999V0203301N002010075019N0220001N1+00481+00331101411ADDGF107991061051008001071011MD1210071+9999REMSYN060AAXX  18001 22438 42572 73302 10048 20033 40141 52007 86571;
0152224380999992000061803004+65190+036820FM-12+001899999V0203501N001012200019N0260001N1+00621+00261101551ADDAA199000091GF102991011011008001001011MD1310141+9999REMSYN070AAXX  18031 22438 32576 23501 10062 20026 40155 53014 81101 333 55005;EQDQ01  00002PRCP99
0112224380999992000061809004+65190+036820FM-12+001899999V0202801N005012200019N0300001N1+00851+00291101861ADDGF103991011011008001031011MD1210161+9999REMSYN060AAXX  18091 22438 42580 32805 10085 20029 40186 52016 81131;
0133224380999992000061812004+65190+036820FM-12+001899999V0202801N001012200019N0350001N1+01011-00051101931ADDGF102991011011008001001011MA1999999101721MD1110071+9999REMSYN066AAXX  18121 22438 42581 22801 10101 21005 30172 40193 51007 81101;
0131224380999992000061815004+65190+036820FM-12+001899999V0202501N004012200019N0350001N1+01041-00021102001ADDGF101991001001999999001011MD1210071+9999REMSYN060AAXX  18151 22438 42581 12504 10104 21002 40200 52007 80001;EQDQ01+008002SCOLCB
0165224380999992000061818004+65190+036820FM-12+001899999V0202201N003012200019N0350001N1+00961+00091102071ADDAA199000091GF101991001001999999001011KA1999M+01061MD1210071+9999REMSYN070AAXX  18181 22438 32981 12203 10096 20009 40207 52007 80001 333 10106;EQDQ01  00002PRCP99
0112224380999992000061821004+65190+036820FM-12+001899999V0201801N003012200019N0250001N1+00561+00351102121ADDGF102991021001999999031001MD1210051+9999REMSYN060AAXX  18211 22438 42975 21803 10056 20035 40212 52005 82030;
0133224380999992000061900004+65190+036820FM-12+001899999V0201801N002012200019N0260001N1+00481+00331102181ADDGF103991021001999999031011MA1999999101971MD1210061+9999REMSYN066AAXX  19001 22438 42976 31802 10048 20033 30197 40218 52006 82031;
0152224380999992000061903004+65190+036820FM-12+001899999V0201901N004019999999N0240001N1+00741+00451102111ADDAA199000091GF107991071001999999031001MD1810071+9999REMSYN070AAXX  19031 22438 32974 71904 10074 20045 40211 58007 87030 333 55141;EQDQ01  00002PRCP99
0165224380999992000061906004+65190+036820FM-12+001899999V0201901N004019999999N0260001N1+00941+00681102111ADDAA199000091GF107991071001999999031001KA1999N+00461MD1410001+9999REMSYN070AAXX  19061 22438 32976 71904 10094 20068 40211 54000 87030 333 20046;EQDQ01  00002PRCP99
0112224380999992000061909004+65190+036820FM-12+001899999V0202001N005012200019N0290001N1+01281+00611102081ADDGF108991021021008001001011MD1810031+9999REMSYN060AAXX  19091 22438 42579 82005 10128 20061 40208 58003 82201;
0133224380999992000061912004+65190+036820FM-12+001899999V0201901N006010750019N0300001N1+01341+00451101961ADDGF105991021021008001031011MA1999999101751MD1810121+9999REMSYN066AAXX  19121 22438 42580 51906 10134 20045 30175 40196 58012 82231;
0165224380999992000061918004+65190+036820FM-12+001899999V0202001N005010300019N0250001N1+01021+00641101771ADDAA199000091GF107991011021008001051001KA1999M+01361MD1610051+9999REMSYN070AAXX  19181 22438 32575 72005 10102 20064 40177 56005 81250 333 10136;EQDQ01  00002PRCP99
0112224380999992000061921004+65190+036820FM-12+001899999V0202201N004019999999N0230001N1+00861+00731101741ADDGF108991061001999999031051MD1710031+9999REMSYN060AAXX  19211 22438 42973 82204 10086 20073 40174 57003 86035;
0133224380999992000062000004+65190+036820FM-12+001899999V0201801N004019999999N0240001N1+00861+00761101631ADDGF106991061051999999031011MA1999999101421MD1810111+9999REMSYN066AAXX  20001 22438 42974 61804 10086 20076 30142 40163 58011 86531;
0152224380999992000062003004+65190+036820FM-12+001899999V0201901N009019999999N0260001N1+00881+00641101451ADDAA199000091GF106991051001999999071011MD1710181+9999REMSYN070AAXX  20031 22438 32976 61909 10088 20064 40145 57018 85071 333 55091;EQDQ01  00002PRCP99
0165224380999992000062006004+65190+036820FM-12+001899999V0201801N011019999999N0230001N1+01111+00821101211ADDAA199000091GF107991071001999999071001KA1999N+00851MD1710241+9999REMSYN070AAXX  20061 22438 32973 71811 10111 20082 40121 57024 87070 333 20085;EQDQ01  00002PRCP99
0133224380999992000062012004+65190+036820FM-12+001899999V0201801N010019999999N0240001N1+01251+00761100951ADDGF108991061001999999071041MA1999999100741MD1610071+9999REMSYN066AAXX  20121 22438 42974 81810 10125 20076 30074 40095 56007 86074;
0140224380999992000062015004+65190+036820FM-12+001899999V0202201N008010075019N0050001N1+01171+01131100991ADDAY181031AY221031GF108991071091008001071999MD1310041+9999MW1801REMSYN066AAXX  20151 22438 41550 82208 10117 20113 40099 53004 78082 8797/;
0180224380999992000062018004+65190+036820FM-12+001899999V0201901N007010075019N0090001N1+00961+00901100961ADDAA100000591AY181061AY221061GF108991081091008001999999KA1999M+01481MD1710031+9999MW1801REMSYN082AAXX  20181 22438 11559 81907 10096 20090 40096 57003 69950 78082 889// 333 10148;
0140224380999992000062021004+65190+036820FM-12+001899999V0202101N007019999999N0090001N1+00901+00811101051ADDAY181031AY221031GF107991021001999999031041MD1310091+9999MW1101REMSYN066AAXX  20211 22438 41959 72107 10090 20081 40105 53009 71082 82034;
0161224380999992000062100004+65190+036820FM-12+001899999V0202201N006019999999N0080001N1+00781+00701101171ADDAY181061AY221061GF107991061001999999071041MA1999999100961MD1210121+9999MW1101REMSYN072AAXX  21001 22438 41958 72206 10078 20070 30096 40117 52012 71082 86074;
0160224380999992000062103004+65190+036820FM-12+001899999V0202101N005010003019N0002001N1+00951+00931101281ADDAY141031AY221031GA1091+999999999GF109991091999999999999999MD1210111+9999MW1471REMSYN070AAXX  21031 22438 /1/02 92105 10095 20093 40128 52011 74742 333 53028;
0180224380999992000062106004+65190+036820FM-12+001899999V0202301N004012200019N0090001N1+01341+01231101441ADDAA100000591AY141061AY211061GF102991001001999999001011KA1999N+00761MD1210161+9999MW1101REMSYN082AAXX  21061 22438 11959 22304 10134 20123 40144 52016 69940 71041 80001 333 20076;
0112224380999992000062109004+65190+036820FM-12+001899999V0202201N004012200019N0270001N1+01361+00801101501ADDGF103991011011008001001011MD1110061+9999REMSYN060AAXX  21091 22438 42577 32204 10136 20080 40150 51006 81101;
0133224380999992000062112004+65190+036820FM-12+001899999V0202101N003012200019N0350001N1+01571+00731101541ADDGF102991011011008001001011MA1999999101331MD1210041+9999REMSYN066AAXX  21121 22438 42581 22103 10157 20073 30133 40154 52004 81101;
0112224380999992000062115004+65190+036820FM-12+001899999V0201001N003012200019N0350001N1+01411+00641101551ADDGF102991011011008001001011MD1110011+9999REMSYN060AAXX  21151 22438 42581 21003 10141 20064 40155 51001 81101;
0165224380999992000062118004+65190+036820FM-12+001899999V0200601N001012200019N0300001N1+01341+00561101461ADDAA199000091GF101991001001999999001011KA1999M+01821MD1810091+9999REMSYN070AAXX  21181 22438 32980 10601 10134 20056 40146 58009 80001 333 10182;EQDQ01  00002PRCP99
0112224380999992000062121004+65190+036820FM-12+001899999V0201801N004019999999N0270001N1+01261+00681101301ADDGF106991001001999999001011MD1310051+9999REMSYN060AAXX  21211 22438 42977 61804 10126 20068 40130 53005 80001;
0133224380999992000062200004+65190+036820FM-12+001899999V0201801N005012200019N0290001N1+01011+00451101591ADDGF103991001001999999001011MA1999999101381MD1210081+9999REMSYN066AAXX  22001 22438 42979 31805 10101 20045 30138 40159 52008 80001;
0152224380999992000062203004+65190+036820FM-12+001899999V0202201N002012200019N0280001N1+01171+01051101401ADDAA199000091GF102991021001999999031001MD1810181+9999REMSYN070AAXX  22031 22438 32978 22202 10117 20105 40140 58018 82030 333 55136;EQDQ01  00002PRCP99
0142224380999992000062206004+65190+036820FM-12+001899999V0202201N003019999999N0260001N1+01561+00851101381ADDAA199000091GF107991071001999999031001MD1610021+9999REMSYN060AAXX  22061 22438 32976 72203 10156 20085 40138 56002 87030;EQDQ01  00002PRCP99
0112224380999992000062215004+65190+036820FM-12+001899999V0200501N002010300019N0210001N1+01501+00921101311ADDGF108991021051008001051999MD1710031+9999REMSYN060AAXX  22151 22438 42571 80502 10150 20092 40131 57003 8255/;
0196224380999992000062218004+65190+036820FM-12+001899999V0201001N001019999999N0230001N1+01341+99999101301ADDAA199000091GF108991999001999999051001KA1999M+02011MA1999999100971MD1710021+9999REMSYN070AAXX  22181 22438 32973 81001 10134 30097 40130 57002 87050 333 10201;EQDQ01+000072SCOTLCQ02  00002PRCP99
0112224380999992000062221004+65190+036820FM-12+001899999V0209999C000010300019N0250001N1+01551+01201101321ADDGF108991011051008001051999MD1310021+9999REMSYN060AAXX  22211 22438 42575 80000 10155 20120 40132 53002 8155/;
0133224380999992000062300004+65190+036820FM-12+001899999V0209999C000010300019N0200001N1+01581+01021101321ADDGF108991021051008001071999MA1999999101111MD1410001+9999REMSYN066AAXX  23001 22438 42570 80000 10158 20102 30111 40132 54000 8257/;
0152224380999992000062303004+65190+036820FM-12+001899999V0200901N004019999999N0250001N1+01231+00671101281ADDAA199000091GF107991061001999999071041MD1810041+9999REMSYN070AAXX  23031 22438 32975 70904 10123 20067 40128 58004 86074 333 55055;EQDQ01  00002PRCP99
0165224380999992000062306004+65190+036820FM-12+001899999V0201001N001019999999N0350001N1+01821+00881101201ADDAA199000091GF107991051001999999071011KA1999N+01231MD1710071+9999REMSYN070AAXX  23061 22438 32981 71001 10182 20088 40120 57007 85071 333 20123;EQDQ01  00002PRCP99
0133224380999992000062312004+65190+036820FM-12+001899999V0202001N006012200019N0350001N1+02501+01141101041ADDGF103991001001999999001011MA1999999100841MD1810111+9999REMSYN066AAXX  23121 22438 42981 32006 10250 20114 30084 40104 58011 80001;
0112224380999992000062315004+65190+036820FM-12+001899999V0202001N007012200019N0350001N1+02441+01021100901ADDGF102991001001999999001011MD1710141+9999REMSYN060AAXX  23151 22438 42981 22007 10244 20102 40090 57014 80001;
0165224380999992000062318004+65190+036820FM-12+001899999V0202001N008012200019N0350001N1+02131+01211100861ADDAA199000091GF103991001001999999001011KA1999M+02611MD1610041+9999REMSYN070AAXX  23181 22438 32981 32008 10213 20121 40086 56004 80001 333 10261;EQDQ01  00002PRCP99
0112224380999992000062321004+65190+036820FM-12+001899999V0201801N007019999999N0350001N1+01961+01061100811ADDGF105991021001999999031011MD1710051+9999REMSYN060AAXX  23211 22438 42981 51807 10196 20106 40081 57005 82031;
0133224380999992000062400004+65190+036820FM-12+001899999V0201901N006019999999N0350001N1+01741+00861100761ADDGF106991041001999999031041MA1999999100561MD1710051+9999REMSYN066AAXX  24001 22438 42981 61906 10174 20086 30056 40076 57005 84034;
0152224380999992000062403004+65190+036820FM-12+001899999V0202301N004012200019N0350001N1+01711+00561100841ADDAA199000091GF102991001001999999001011MD1310081+9999REMSYN070AAXX  24031 22438 32981 22304 10171 20056 40084 53008 80001 333 55121;EQDQ01  00002PRCP99
0112224380999992000062409004+65190+036820FM-12+001899999V0202301N004012200019N0200001N1+01701+00981100951ADDGF104991021001999999031011MD1210061+9999REMSYN060AAXX  24091 22438 42970 42304 10170 20098 40095 52006 82031;
0133224380999992000062412004+65190+036820FM-12+001899999V0202001N003019999999N0240001N1+02051+01211100941ADDGF107991041001999999071041MA1999999100741MD1810011+9999REMSYN066AAXX  24121 22438 42974 72003 10205 20121 30074 40094 58001 84074;
0112224380999992000062415004+65190+036820FM-12+001899999V0202401N003019999999N0240001N1+01681+00951100921ADDGF107991071001999999071001MD1610021+9999REMSYN060AAXX  24151 22438 42974 72403 10168 20095 40092 56002 87070;
0174224380999992000062418004+65190+036820FM-12+001899999V0202201N005010075019N0090001N1+01321+00771100991ADDAA199000021AY181061AY221061GF108991061091008001071999KA1999M+02141MD1310071+9999MW1801REMSYN076AAXX  24181 22438 31559 82205 10132 20077 40099 53007 78082 8697/ 333 10214;
0140224380999992000062421004+65190+036820FM-12+001899999V0202001N005019999999N0250001N1+01221+00861101041ADDAY181031AY221031GF105991021001999999071011MD1110041+9999MW1021REMSYN066AAXX  24211 22438 41975 52005 10122 20086 40104 51004 70282 82071;
0161224380999992000062500004+65190+036820FM-12+001899999V0202001N004019999999N0230001N1+01081+00801101031ADDAY181061AY221061GF106991041001999999071011MA1999999100831MD1410001+9999MW1021REMSYN072AAXX  25001 22438 41973 62004 10108 20080 30083 40103 54000 70282 84071;
0122224380999992000062503004+65190+036820FM-12+001899999V0202101N003012200019N0280001N1+01241+01061101171ADDGF102991001001999999001011MD1310131+9999REMSYN070AAXX  25031 22438 42978 22103 10124 20106 40117 53013 80001 333 55107;
0112224380999992000062509004+65190+036820FM-12+001899999V0202601N002012200019N0300001N1+01591+01091101321ADDGF102991011021999999001011MD1210101+9999REMSYN060AAXX  25091 22438 42980 22602 10159 20109 40132 52010 81201;
0149224380999992000062512004+65190+036820FM-12+001899999V0201401N001012200019N0350001N1+01801+01361101471ADDGA1001+999999999GF100991001001999999001001MA1999999101271MD1210161+9999REMSYN066AAXX  25121 22438 42581 01401 10180 20136 30127 40147 52016 81201;
0112224380999992000062515004+65190+036820FM-12+001899999V0201001N002019999999N0300001N1+01661+01141101341ADDGF106991001001999999001011MD1810131+9999REMSYN060AAXX  25151 22438 42980 61002 10166 20114 40134 58013 80001;
0165224380999992000062518004+65190+036820FM-12+001899999V0200901N002019999999N0250001N1+01581+00841101311ADDAA199000091GF107991061001999999031011KA1999M+01981MD1610041+9999REMSYN070AAXX  25181 22438 32975 70902 10158 20084 40131 56004 86031 333 10198;EQDQ01  00002PRCP99
0112224380999992000062521004+65190+036820FM-12+001899999V0200901N001010300019N0260001N1+01501+00921101321ADDGF107991011051008001031001MD1310011+9999REMSYN060AAXX  25211 22438 42576 70901 10150 20092 40132 53001 81530;
0133224380999992000062600004+65190+036820FM-12+001899999V0201001N002010300019N0230001N1+01461+01001101361ADDGF106991021051008001031001MA1999999101151MD1310041+9999REMSYN066AAXX  26001 22438 42573 61002 10146 20100 30115 40136 53004 82530;
0152224380999992000062603004+65190+036820FM-12+001899999V0200801N003019999999N0280001N1+01501+00921101361ADDAA199000091GF105991031001999999031011MD1410001+9999REMSYN070AAXX  26031 22438 32978 50803 10150 20092 40136 54000 83031 333 55166;EQDQ01  00002PRCP99
0165224380999992000062606004+65190+036820FM-12+001899999V0200701N005012200019N0300001N1+01691+00761101251ADDAA199000091GF102991001001999999001011KA1999N+01461MD1810101+9999REMSYN070AAXX  26061 22438 32980 20705 10169 20076 40125 58010 80001 333 20146;EQDQ01  00002PRCP99
0112224380999992000062615004+65190+036820FM-12+001899999V0200901N010019999999N0230001N1+01471+00591101071ADDGF107991001001999999001041MD1710131+9999REMSYN060AAXX  26151 22438 42973 70910 10147 20059 40107 57013 80004;
0181224380999992000062618004+65190+036820FM-12+001899999V0200701N010019999999N0200001N1+02181+01191100611ADDAA199000091GF108991031001999999081061KA1999M+99999MD1610041+9999REMSYN070AAXX  26181 22438 32970 80710 10218 20119 40061 56004 83086 333 10173;EQDQ01  00002PRCP99Q02 +01732ATMX  
0112224380999992000062621004+65190+036820FM-12+001899999V0200501N006019999999N0190001N1+01231+01151100921ADDGF108991061001999999071041MD1310011+9999REMSYN060AAXX  26211 22438 42969 80506 10123 20115 40092 53001 86074;
0133224380999992000062700004+65190+036820FM-12+001899999V0200701N005019999999N0190001N1+01181+01101100941ADDGF108991051001999999071041MA1999999100731MD1210021+9999REMSYN066AAXX  27001 22438 41969 80705 10118 20110 30073 40094 52002 85074;
0150224380999992000062703004+65190+036820FM-12+001899999V0200801N007010075019N0029001N1+01151+01111100861ADDAY181031AY221031GF108991061091008001071999MD1810081+9999MW1811REMSYN076AAXX  27031 22438 /1529 80807 10115 20111 40086 58008 78182 8697/ 333 55120;
0180224380999992000062706004+65190+036820FM-12+001899999V0200701N007010075019N0044001N1+01231+01151100921ADDAA100000591AY181061AY221061GF108991071091008001071999KA1999N+01131MD1310061+9999MW1801REMSYN082AAXX  27061 22438 11544 80707 10123 20115 40092 53006 69940 78082 8797/ 333 20113;
0140224380999992000062709004+65190+036820FM-12+001899999V0200701N008010300019N0140001N1+01221+01141100891ADDAY181031AY221031GF107991021091008001071041MD1810031+9999MW1021REMSYN066AAXX  27091 22438 41564 70708 10122 20114 40089 58003 70282 82974;
0112224380999992000062715004+65190+036820FM-12+001899999V0200801N008010300019N0180001N1+01441+01241100751ADDGF106991031091008001061041MD1710071+9999REMSYN060AAXX  27151 22438 42568 60808 10144 20124 40075 57007 83964;
0152224380999992000062718004+65190+036820FM-12+001899999V0200801N009010300019N0170001N1+01291+01151100791ADDAA100000391GF107991011091008001061041KA1999M+01441MD1310041+9999REMSYN076AAXX  27181 22438 12567 70809 10129 20115 40079 53004 69930 81964 333 10144;
0112224380999992000062721004+65190+036820FM-12+001899999V0200901N008019999999N0180001N1+01381+01211100821ADDGF105991031001999999071041MD1110031+9999REMSYN060AAXX  27211 22438 42968 50908 10138 20121 40082 51003 83074;
0133224380999992000062800004+65190+036820FM-12+001899999V0200901N008012200019N0180001N1+01291+01121100851ADDGF103991021001999999031011MA1999999100641MD1210031+9999REMSYN066AAXX  28001 22438 42968 30908 10129 20112 30064 40085 52003 82031;
0150224380999992000062803004+65190+036820FM-12+001899999V0200801N004012200019N0230001N1+01251+01151100991ADDAY191031AY201031GF103991031001999999031001MD1310141+9999MW1021REMSYN076AAXX  28031 22438 /1973 30804 10125 20115 40099 53014 70290 83030 333 55066;
0180224380999992000062806004+65190+036820FM-12+001899999V0200701N003012200019N0210001N1+01371+01241101021ADDAA100001091AY181061AY201061GF102991021001999999031001KA1999N+01251MD1110031+9999MW1021REMSYN082AAXX  28061 22438 12971 20703 10137 20124 40102 51003 60010 70280 82030 333 20125;
0133224380999992000062812004+65190+036820FM-12+001899999V0200701N005012200019N0250001N1+01441+01291101131ADDGF102991021021012501001001MA1999999100921MD1210041+9999REMSYN066AAXX  28121 22438 42675 20705 10144 20129 30092 40113 52004 82200;
0112224380999992000062815004+65190+036820FM-12+001899999V0200801N004010075019N0180001N1+01421+01271101091ADDGF105991051021008001001001MD1810041+9999REMSYN060AAXX  28151 22438 42568 50804 10142 20127 40109 58004 85200;
0181224380999992000062818004+65190+036820FM-12+001899999V0200701N004019999999N0190001N1+01521+01371101131ADDAA199000091GF105991001001999999001011KA1999M+99999MD1310051+9999REMSYN070AAXX  28181 22438 32969 50704 10152 20137 40113 53005 80001 333 10145;EQDQ01  00002PRCP99Q02 +01452ATMX  
0112224380999992000062821004+65190+036820FM-12+001899999V0200701N004019999999N0180001N1+01421+01271101181ADDGF105991011001999999031011MD1210051+9999REMSYN060AAXX  28211 22438 42968 50704 10142 20127 40118 52005 81031;
0152224380999992000062903004+65190+036820FM-12+001899999V0200901N005019999999N0180001N1+01461+01281101251ADDAA199000091GF106991011001999999031041MD1210041+9999REMSYN070AAXX  29031 22438 32968 60905 10146 20128 40125 52004 81034 333 55124;EQDQ01  00002PRCP99
0165224380999992000062906004+65190+036820FM-12+001899999V0200801N007012200019N0190001N1+01531+01331101301ADDAA199000091GF103991001001999999001011KA1999N+01271MD1210051+9999REMSYN070AAXX  29061 22438 32969 30807 10153 20133 40130 52005 80001 333 20127;EQDQ01  00002PRCP99
0112224380999992000062909004+65190+036820FM-12+001899999V0200701N008012200019N0220001N1+01511+01311101411ADDGF102991001001999999001011MD1310111+9999REMSYN060AAXX  29091 22438 42972 20708 10151 20131 40141 53011 80001;
0133224380999992000062912004+65190+036820FM-12+001899999V0200701N006012200019N0260001N1+01781+01431101471ADDGF101991001001999999001011MA1999999101211MD1110011+9999REMSYN066AAXX  29121 22438 42976 10706 10178 20143 30121 40147 51001 80001;
0112224380999992000062915004+65190+036820FM-12+001899999V0200601N005012200019N0220001N1+01601+01391101361ADDGF101991001001999999001011MD1810051+9999REMSYN060AAXX  29151 22438 42972 10605 10160 20139 40136 58005 80001;
0165224380999992000062918004+65190+036820FM-12+001899999V0200801N007012200019N0260001N1+01561+01311101361ADDAA199000091GF102991001001999999001011KA1999M+01801MD1110011+9999REMSYN070AAXX  29181 22438 32976 20807 10156 20131 40136 51001 80001 333 10180;EQDQ01  00002PRCP99
0112224380999992000062921004+65190+036820FM-12+001899999V0200701N007012200019N0250001N1+01401+01121101401ADDGF101991001001999999001011MD1310041+9999REMSYN060AAXX  29211 22438 42975 10707 10140 20112 40140 53004 80001;
0133224380999992000063000004+65190+036820FM-12+001899999V0200701N007012200019N0230001N1+01191+01021101461ADDGF102991001001999999001011MA1999999101251MD1210061+9999REMSYN066AAXX  30001 22438 42973 20707 10119 20102 30125 40146 52006 80001;
0162224380999992000063003004+65190+036820FM-12+001899999V0200501N005012200019N0210001N1+01061+00921101361ADDAA199000091GA1001+999999999GF100991001001999999001001MD1810101+9999REMSYN064AAXX  30031 22438 32971 00505 10106 20092 40136 58010 333 55154;EQDQ01  00002PRCP99
0175224380999992000063006004+65190+036820FM-12+001899999V0200701N004012200019N0240001N1+01551+01291101321ADDAA199000091GA1001+999999999GF100991001001999999001001KA1999N+01061MD1710041+9999REMSYN064AAXX  30061 22438 32974 00704 10155 20129 40132 57004 333 20106;EQDQ01  00002PRCP99
0112224380999992000063009004+65190+036820FM-12+001899999V0200601N007012200019N0250001N1+01571+01321101391ADDGF102991001001999999001011MD1310071+9999REMSYN060AAXX  30091 22438 42975 20607 10157 20132 40139 53007 80001;
0133224380999992000063012004+65190+036820FM-12+001899999V0200801N011012200019N0230001N1+01391+01091101441ADDGF102991001001999999001011MA1999999101231MD1210051+9999REMSYN066AAXX  30121 22438 42973 20811 10139 20109 30123 40144 52005 80001;
0122224380999992000063015004+65190+036820FM-12+001899999V0200701N012012200019N0200001N1+01141+00981101361ADDGA1001+999999999GF100991001001999999001001MD1110021+9999REMSYN054AAXX  30151 22438 42970 00712 10114 20098 40136 51002;
0112224380999992000063021004+65190+036820FM-12+001899999V0200701N013019999999N0120001N1+00881+00841101611ADDGF105991051001999999071001MD1310101+9999REMSYN060AAXX  30211 22438 42962 50713 10088 20084 40161 53010 85070;
0133224380999992000070100004+65190+036820FM-12+001899999V0200701N013019999999N0110001N1+00741+00701101701ADDGF107991071001999999071001MA1999999101491MD1210091+9999REMSYN066AAXX  01001 22438 42961 70713 10074 20070 30149 40170 52009 87070;
0180224380999992000070103004+65190+036820FM-12+001899999V0200701N010010042019N0038001N1+00681+00661101571ADDAA199000091AY121031AY221031GF108991081061004501999999MD1810131+9999MW1101REMSYN076AAXX  01031 22438 31438 80710 10068 20066 40157 58013 71022 886// 333 55164;EQDQ01  00002PRCP99
0193224380999992000070106004+65190+036820FM-12+001899999V0200601N008010042019N0046001N1+00751+00711101621ADDAA199000091AY121061AY221061GF108991081061004501999999KA1999N+00661MD1310051+9999MW1101REMSYN076AAXX  01061 22438 31446 80608 10075 20071 40162 53005 71022 886// 333 20066;EQDQ01  00002PRCP99
0140224380999992000070109004+65190+036820FM-12+001899999V0200701N007010042019N0080001N1+00741+00671101661ADDAY181031AY221031GF108991081091004501999999MD1210041+9999MW1801REMSYN066AAXX  01091 22438 41458 80707 10074 20067 40166 52004 78082 889//;
0161224380999992000070112004+65190+036820FM-12+001899999V0200601N004010042019N0130001N1+00761+00701101701ADDAY181061AY221061GF108991081051004501999999MA1999999101491MD1210041+9999MW1261REMSYN072AAXX  01121 22438 41463 80604 10076 20070 30149 40170 52004 72682 885//;
0112224380999992000070115004+65190+036820FM-12+001899999V0200701N006010075019N0160001N1+00761+00651101661ADDGF108991081051008001999999MD1810041+9999REMSYN060AAXX  01151 22438 42566 80706 10076 20065 40166 58004 885//;
0152224380999992000070118004+65190+036820FM-12+001899999V0200701N004010300019N0170001N1+00731+00621101651ADDAA100000891GF108991031051008001051999KA1999M+00761MD1610011+9999REMSYN076AAXX  01181 22438 12567 80704 10073 20062 40165 56001 69970 8355/ 333 10076;
0140224380999992000070121004+65190+036820FM-12+001899999V0200601N006010075019N0130001N1+00711+00621101651ADDAY181031AY221031GF108991081051008001999999MD1410001+9999MW1021REMSYN066AAXX  01211 22438 41563 80606 10071 20062 40165 54000 70282 885//;
0161224380999992000070200004+65190+036820FM-12+001899999V0200701N007010075019N0150001N1+00671+00561101641ADDAY181061AY221061GF108991081051008001999999MA1999999101431MD1810011+9999MW1021REMSYN072AAXX  02001 22438 41565 80707 10067 20056 30143 40164 58001 70282 885//;
0140224380999992000070203004+65190+036820FM-12+001899999V0200601N007010075019N0070001N1+00641+00601101611ADDAY181031AY221031GF108991081091008001999999MD1710031+9999MW1801REMSYN066AAXX  02031 22438 /1557 80607 10064 20060 40161 57003 78082 889//;
0180224380999992000070206004+65190+036820FM-12+001899999V0200601N010010075019N0150001N1+00681+00611101611ADDAA100000591AY181061AY221061GF108991081051008001999999KA1999N+00641MD1410001+9999MW1021REMSYN082AAXX  02061 22438 11565 80610 10068 20061 40161 54000 69950 70282 885// 333 20064;
0112224380999992000070209004+65190+036820FM-12+001899999V0200501N011010075019N0190001N1+00621+00471101671ADDGF108991081051008001999999MD1310061+9999REMSYN060AAXX  02091 22438 42569 80511 10062 20047 40167 53006 885//;
0133224380999992000070212004+65190+036820FM-12+001899999V0200601N011010075019N0200001N1+00691+00491101641ADDGF107991071051008001001001MA1999999101431MD1810031+9999REMSYN066AAXX  02121 22438 42570 70611 10069 20049 30143 40164 58003 87500;
0112224380999992000070215004+65190+036820FM-12+001899999V0200601N011010075019N0240001N1+00721+00511101621ADDGF107991071051008001001001MD1610021+9999REMSYN060AAXX  02151 22438 42574 70611 10072 20051 40162 56002 87500;
0152224380999992000070218004+65190+036820FM-12+001899999V0200701N011010075019N0230001N1+00691+00411101551ADDAA100000791GF107991061091008001071001KA1999M+00731MD1810071+9999REMSYN076AAXX  02181 22438 12573 70711 10069 20041 40155 58007 69900 86970 333 10073;
0140224380999992000070221004+65190+036820FM-12+001899999V0200601N011010075019N0060001N1+00651+00441101511ADDAY181031AY221031GF107991061091008001081001MD1610041+9999MW1801REMSYN066AAXX  02211 22438 41556 70611 10065 20044 40151 56004 78082 86980;
0161224380999992000070300004+65190+036820FM-12+001899999V0200601N011010075019N0190001N1+00581+00401101491ADDAY181061AY221061GF106991051091008001071001MA1999999101281MD1710021+9999MW1021REMSYN072AAXX  03001 22438 41569 60611 10058 20040 30128 40149 57002 70282 85970;
0122224380999992000070303004+65190+036820FM-12+001899999V0200701N011010075019N0200001N1+00611+00391101551ADDGF107991051051008001071001MD1310061+9999REMSYN070AAXX  03031 22438 /2570 70711 10061 20039 40155 53006 85570 333 55000;
0152224380999992000070306004+65190+036820FM-12+001899999V0200701N011010075019N0210001N1+00661+00431101371ADDAA100000191GF107991051051008001071001KA1999N+00541MD1810181+9999REMSYN076AAXX  03061 22438 12571 70711 10066 20043 40137 58018 69910 85570 333 20054;
0112224380999992000070309004+65190+036820FM-12+001899999V0200601N010010300019N0250001N1+00741+00511101331ADDGF107991021051008001071001MD1610041+9999REMSYN060AAXX  03091 22438 42575 70610 10074 20051 40133 56004 82570;
0133224380999992000070312004+65190+036820FM-12+001899999V0200701N011019999999N0240001N1+00801+00531101221ADDGF107991071001008001071001MA1999999101011MD1810111+9999REMSYN066AAXX  03121 22438 42574 70711 10080 20053 30101 40122 58011 87070;
0112224380999992000070315004+65190+036820FM-12+001899999V0200701N007010075019N0200001N1+00781+00561101221ADDGF107991051051008001071001MD1410001+9999REMSYN060AAXX  03151 22438 42570 70707 10078 20056 40122 54000 85570;
0165224380999992000070318004+65190+036820FM-12+001899999V0200701N008010300019N0200001N1+00751+00531101181ADDAA199000091GF106991021051008001071001KA1999M+00831MD1810041+9999REMSYN070AAXX  03181 22438 32570 60708 10075 20053 40118 58004 82570 333 10083;EQDQ01  00002PRCP99
0112224380999992000070321004+65190+036820FM-12+001899999V0200701N008010075019N0190001N1+00711+00511101111ADDGF107991051051008001071001MD1710071+9999REMSYN060AAXX  03211 22438 42569 70708 10071 20051 40111 57007 85570;
0133224380999992000070400004+65190+036820FM-12+001899999V0200701N009010300019N0190001N1+00651+00441101061ADDGF106991031051008001071001MA1999999100851MD1710051+9999REMSYN066AAXX  04001 22438 42569 60709 10065 20044 30085 40106 57005 83570;
0152224380999992000070403004+65190+036820FM-12+001899999V0200701N004010300019N0200001N1+00801+00671101121ADDAA199000091GF107991021051008001071001MD1310061+9999REMSYN070AAXX  04031 22438 32570 70704 10080 20067 40112 53006 82570 333 55000;EQDQ01  00002PRCP99
0165224380999992000070406004+65190+036820FM-12+001899999V0200601N003010075019N0220001N1+00891+00731101161ADDAA199000091GF108991051051008001071999KA1999N+00581MD1210041+9999REMSYN070AAXX  04061 22438 32572 80603 10089 20073 40116 52004 8557/ 333 20058;EQDQ01  00002PRCP99
0112224380999992000070409004+65190+036820FM-12+001899999V0200801N003010300019N0240001N1+00961+00731101171ADDGF107991021051008001031011MD1110011+9999REMSYN060AAXX  04091 22438 42574 70803 10096 20073 40117 51001 82531;
0133224380999992000070412004+65190+036820FM-12+001899999V0200801N005010300019N0250001N1+00981+00701101171ADDGF106991021051008001031001MA1999999100961MD1410001+9999REMSYN066AAXX  04121 22438 42575 60805 10098 20070 30096 40117 54000 82530;
0112224380999992000070415004+65190+036820FM-12+001899999V0200901N005010300019N0240001N1+00881+00641101181ADDGF106991011051008001031001MD1310011+9999REMSYN060AAXX  04151 22438 42574 60905 10088 20064 40118 53001 81530;
0165224380999992000070418004+65190+036820FM-12+001899999V0200801N004010300019N0190001N1+00781+00581101191ADDAA199000091GF106991011051008001031011KA1999M+01001MD1210011+9999REMSYN070AAXX  04181 22438 32569 60804 10078 20058 40119 52001 81531 333 10100;EQDQ01  00002PRCP99
0133224380999992000070500004+65190+036820FM-12+001899999V0200801N006010075019N0200001N1+00791+00611101111ADDGF107991061051008001031001MA1999999100901MD1710031+9999REMSYN066AAXX  05001 22438 42570 70806 10079 20061 30090 40111 57003 86530;
0152224380999992000070503004+65190+036820FM-12+001899999V0200501N002010300019N0220001N1+00931+00711100961ADDAA199000091GF106991021041008001031001MD1810151+9999REMSYN070AAXX  05031 22438 32572 60502 10093 20071 40096 58015 82430 333 55007;EQDQ01  00002PRCP99
0165224380999992000070506004+65190+036820FM-12+001899999V0201501N002012200019N0260001N1+01331+01001100901ADDAA199000091GF102991001001999999001011KA1999N+00771MD1610061+9999REMSYN070AAXX  05061 22438 32976 21502 10133 20100 40090 56006 80001 333 20077;EQDQ01  00002PRCP99
0161224380999992000070512004+65190+036820FM-12+001899999V0200401N003010075019N0260001N1+01191+00821100821ADDAY181061AY211061GF107991061091008001001011MA1999999100611MD1710031+9999MW1251REMSYN072AAXX  05121 22438 41576 70403 10119 20082 30061 40082 57003 72581 86901;
0101224380999992000070515004+65190+036820FM-12+001899999V0200601N002010750019N0450001N1+02011+01121999999ADDGF105991011021002501001021ME1430099REMSYN054AAXX  05151 22438 42383 50602 10201 20112 47009 81202;
0171224380999992000070518004+65190+036820FM-12+001899999V0202001N005012200019N0300001N1+01221+00991100691ADDAA100000791GF107991021021008001001041KA1999M+99999MD1610041+9999REMSYN076AAXX  05181 22438 12580 72005 10122 20099 40069 56004 69900 82204 333 10010;EQDQ01 +00102ATMX  
0112224380999992000070521004+65190+036820FM-12+001899999V0201801N007012200019N0300001N1+01311+01001100661ADDGF106991031021008001001041MD1710031+9999REMSYN060AAXX  05211 22438 42580 61807 10131 20100 40066 57003 83204;
0133224380999992000070600004+65190+036820FM-12+001899999V0201801N00601220001CN0290001N1+01141+00711100621ADDGF108991021021008001001041MA1999999100421MD1710041+9999REMSYN066AAXX  06001 22438 42579 81806 10114 20071 30042 40062 57004 82204;
0190224380999992000070603004+65190+036820FM-12+001899999V0202201N001010001519N0000001N1+01201+01201100721ADDAA199000091AY141031AY221031GA1091+999999999GF109991091999999999999999MD1310091+9999MW1471REMSYN070AAXX  06031 22438 32/00 92201 10120 20120 40072 53009 74742 333 55090;EQDQ01  00002PRCP99
0193224380999992000070606004+65190+036820FM-12+001899999V0201001N002012200019N0190001N1+01521+01031100691ADDAA199000091AY141061AY221061GF106991021021008001001041KA1999N+01111MD1810021+9999MW1021REMSYN076AAXX  06061 22438 32569 61002 10152 20103 40069 58002 70242 82204 333 20111;EQDQ01  00002PRCP99
0112224380999992000070609004+65190+036820FM-12+001899999V0200801N003012200019N0220001N1+01481+00861100641ADDGF106991031091008001001041MD1710051+9999REMSYN060AAXX  06091 22438 42572 60803 10148 20086 40064 57005 83904;
0161224380999992000070612004+65190+036820FM-12+001899999V0203401N003010075019N0038001N1+01051+01021100691ADDAY181061AY221061GF107991071091008001001001MA1999999100681MD1310041+9999MW1811REMSYN072AAXX  06121 22438 41538 73403 10105 20102 30068 40069 53004 78182 87900;
0140224380999992000070615004+65190+036820FM-12+001899999V0203001N003010075019N0060001N1+01271+01101100671ADDAY181031AY221031GF107991061091008001071011MD1710081+9999MW1101REMSYN066AAXX  06151 22438 41556 73003 10127 20110 40067 57008 71082 86971;
0180224380999992000070618004+65190+036820FM-12+001899999V0202701N002019999999N0090001N1+01131+01051100691ADDAA100000891AY181061AY221061GF106991051001999999071011KA1999M+01591MD1310021+9999MW1101REMSYN082AAXX  06181 22438 11959 62702 10113 20105 40069 53002 69980 71082 85071 333 10159;
0112224380999992000070621004+65190+036820FM-12+001899999V0202201N004012200019N0180001N1+00711+00671100751ADDGF102991021001999999031011MD1210051+9999REMSYN060AAXX  06211 22438 42968 22204 10071 20067 40075 52005 82031;
0133224380999992000070700004+65190+036820FM-12+001899999V0202001N002012200019N0170001N1+00671+00631100821ADDGF104991031001999999031011MA1999999100611MD1210071+9999REMSYN066AAXX  07001 22438 42967 42002 10067 20063 30061 40082 52007 83031;
0165224380999992000070706004+65190+036820FM-12+001899999V0200201N002012200019N0350001N1+01241+00991101001ADDAA199000091GF102991011011008001031001KA1999N+00661MD1210091+9999REMSYN070AAXX  07061 22438 32581 20202 10124 20099 40100 52009 81130 333 20066;EQDQ01  00002PRCP99
0112224380999992000070709004+65190+036820FM-12+001899999V0203501N003012200019N0350001N1+01221+00901101111ADDGF102991021021012501031001MD1210111+9999REMSYN060AAXX  07091 22438 42681 23503 10122 20090 40111 52011 82230;
0133224380999992000070712004+65190+036820FM-12+001899999V0203601N002010750019N0350001N1+01321+00841101161ADDGF105991021011008001031011MA1999999100951MD1110051+9999REMSYN066AAXX  07121 22438 42581 53602 10132 20084 30095 40116 51005 82131;
0112224380999992000070715004+65190+036820FM-12+001899999V0203501N002010300019N0300001N1+01341+00801101141ADDGF107991011031008001031011MD1810021+9999REMSYN060AAXX  07151 22438 42580 73502 10134 20080 40114 58002 81331;
0165224380999992000070718004+65190+036820FM-12+001899999V0200201N002010300019N0300001N1+01241+00481101121ADDAA199000091GF107991011021008001031011KA1999M+01401MD1710021+9999REMSYN070AAXX  07181 22438 32580 70202 10124 20048 40112 57002 81231 333 10140;EQDQ01  00002PRCP99
0112224380999992000070721004+65190+036820FM-12+001899999V0201001N001010075019N0240001N1+01201+00321101061ADDGF107991061051008001031001MD1810061+9999REMSYN060AAXX  07211 22438 42574 71001 10120 20032 40106 58006 86530;
0133224380999992000070800004+65190+036820FM-12+001899999V0209999C000010075019N0250001N1+01121+00431101041ADDGF107991051051008001031001MA1999999100831MD1610021+9999REMSYN066AAXX  08001 22438 42575 70000 10112 20043 30083 40104 56002 85530;
0112224380999992000070809004+65190+036820FM-12+001899999V0200801N006010075019N0300001N1+01261+00941100751ADDGF106991051021008001031041MD1710091+9999REMSYN060AAXX  08091 22438 42580 60806 10126 20094 40075 57009 85234;
0133224380999992000070812004+65190+036820FM-12+001899999V0200901N011012200019N0300001N1+01231+00891100601ADDGF107991031021008001001041MA1999999100401MD1710141+9999REMSYN066AAXX  08121 22438 42580 70911 10123 20089 30040 40060 57014 83204;
0112224380999992000070815004+65190+036820FM-12+001899999V0200901N011010750019N0350001N1+01311+00781100431ADDGF106991021021008001031041MD1710171+9999REMSYN060AAXX  08151 22438 42581 60911 10131 20078 40043 57017 82234;
0165224380999992000070818004+65190+036820FM-12+001899999V0201001N005019999999N0250001N1+01211+00761100351ADDAA199000091GF107991071001999999071001KA1999M+01371MD1710091+9999REMSYN070AAXX  08181 22438 32975 71005 10121 20076 40035 57009 87070 333 10137;EQDQ01  00002PRCP99
0140224380999992000070821004+65190+036820FM-12+001899999V0201201N002010075019N0080001N1+01181+01091100171ADDAY181031AY221031GF107991071091008001001001MD1710181+9999MW1801REMSYN066AAXX  08211 22438 41558 71202 10118 20109 40017 57018 78082 87900;
0161224380999992000070900004+65190+036820FM-12+001899999V0201001N001010300019N0160001N1+01121+00071100021ADDAY181061AY211061GF107991041091008001071041MA1999999099811MD1710151+9999MW1021REMSYN072AAXX  09001 22438 41566 71001 10112 20007 39981 40002 57015 70281 84974;
0141224380999992000070903004+65190+036820FM-12+001899999V0201801N007010075019N0170001N1+01361+01232100031ADDGF107991071021008001001001MD1310011+9999REMSYN070AAXX  09031 22438 /2567 71807 10136 20123 40003 53001 87200 333 55085;EQDQ01+001233ATOD  
0152224380999992000070906004+65190+036820FM-12+001899999V0202101N006010075019N0160001N1+01471+01321100061ADDAA100001091GF107991051021008001001041KA1999N+01121MD1210041+9999REMSYN076AAXX  09061 22438 12566 72106 10147 20132 40006 52004 60010 85204 333 20112;
0112224380999992000070909004+65190+036820FM-12+001899999V0202101N006012200019N0290001N1+01441+00821100151ADDGF106991021021008001001041MD1210091+9999REMSYN060AAXX  09091 22438 42579 62106 10144 20082 40015 52009 82204;
0133224380999992000070912004+65190+036820FM-12+001899999V0202001N004012200019N0350001N1+01831+01131100191ADDGF105991031021008001001011MA1999999099991MD1310041+9999REMSYN066AAXX  09121 22438 42581 52004 10183 20113 39999 40019 53004 83201;
0112224380999992000070915004+65190+036820FM-12+001899999V0202001N003010075019N0350001N1+01691+00851100231ADDGF107991061021008001001011MD1210041+9999REMSYN060AAXX  09151 22438 42581 72003 10169 20085 40023 52004 86201;
0165224380999992000070918004+65190+036820FM-12+001899999V0201701N003010300019N0300001N1+01501+01001100251ADDAA199000091GF106991031021008001031011KA1999M+01901MD1110021+9999REMSYN070AAXX  09181 22438 32580 61703 10150 20100 40025 51002 83231 333 10190;EQDQ01  00002PRCP99
0112224380999992000070921004+65190+036820FM-12+001899999V0201901N005012200019N0260001N1+01361+01111100281ADDGF103991011021008001001011MD1210031+9999REMSYN060AAXX  09211 22438 42576 31905 10136 20111 40028 52003 81201;
0133224380999992000071000004+65190+036820FM-12+001899999V0202001N006010300019N0240001N1+01301+01091100291ADDGF106991021011008001031011MA1999999100091MD1210011+9999REMSYN066AAXX  10001 22438 42574 62006 10130 20109 30009 40029 52001 82131;
0152224380999992000071003004+65190+036820FM-12+001899999V0201701N002012200019N0300001N1+01461+00821100341ADDAA199000091GF102991001001999999001011MD1310051+9999REMSYN070AAXX  10031 22438 32980 21702 10146 20082 40034 53005 80001 333 55084;EQDQ01  00002PRCP99
0135224380999992000071006004+65190+036820FM-12+001899999V0200901N001019999999N0290001N1+01701+01031100311ADDGF106991061001999999051001KA1999N+01211MD1810031+9999REMSYN070AAXX  10061 22438 42979 60901 10170 20103 40031 58003 86050 333 20121;
0140224380999992000071009004+65190+036820FM-12+001899999V0201001N004010075019N0090001N1+01271+00981100301ADDAY181031AY221031GF108991051091008001051999MD1610011+9999MW1801REMSYN066AAXX  10091 22438 41559 81004 10127 20098 40030 56001 78082 8595/;
0161224380999992000071012004+65190+036820FM-12+001899999V0201001N005010075019N0140001N1+01161+01041100161ADDAY181061AY221061GF108991051091008001071999MA1999999099961MD1810141+9999MW1251REMSYN072AAXX  10121 22438 41564 81005 10116 20104 39996 40016 58014 72582 8597/;
0140224380999992000071015004+65190+036820FM-12+001899999V0201201N004010042019N0190001N1+01381+01301100111ADDAY181031AY221031GF108991061091004501071999MD1610051+9999MW1801REMSYN066AAXX  10151 22438 41469 81204 10138 20130 40011 56005 78082 8697/;
0180224380999992000071018004+65190+036820FM-12+001899999V0201601N004010300019N0160001N1+01561+01271099991ADDAA100005191AY181061AY221061GF108991031051004501051999KA1999M+01991MD1710121+9999MW1021REMSYN082AAXX  10181 22438 11466 81604 10156 20127 49999 57012 60050 70282 8355/ 333 10199;
0140224380999992000071021004+65190+036820FM-12+001899999V0202101N004010042019N0005001N1+01321+01281100011ADDAY161031AY241031GF108991081001004501021999MD1310021+9999MW1611REMSYN066AAXX  10211 22438 41405 82104 10132 20128 40001 53002 76164 8802/;
0161224380999992000071100004+65190+036820FM-12+001899999V0202301N005010042019N0008001N1+01281+01261100041ADDAY161061AY241061GF108991081001004501021999MA1999999099841MD1210031+9999MW1611REMSYN072AAXX  11001 22438 41408 82305 10128 20126 39984 40004 52003 76164 8802/;
0150224380999992000071103004+65190+036820FM-12+001899999V0202401N005012200019N0230001N1+01221+01141100371ADDAY161031AY241031GF106991011011008001001041MD1310331+9999MW1021REMSYN076AAXX  11031 22438 /1573 62405 10122 20114 40037 53033 70264 81104 333 55054;
0180224380999992000071106004+65190+036820FM-12+001899999V0202201N005012200019N0250001N1+01181+00841100541ADDAA100001091AY161061AY241061GF106991011011008001001041KA1999N+01221MD1110171+9999MW1021REMSYN082AAXX  11061 22438 11575 62205 10118 20084 40054 51017 60010 70264 81104 333 20122;
0112224380999992000071109004+65190+036820FM-12+001899999V0202101N004012200019N0300001N1+01341+01071100761ADDGF107991011021008001001011MD1210221+9999REMSYN060AAXX  11091 22438 42580 72104 10134 20107 40076 52022 81201;
0133224380999992000071112004+65190+036820FM-12+001899999V0202001N006012200019N0290001N1+01661+01321100851ADDGF107991011011008001001041MA1999999100651MD1110091+9999REMSYN066AAXX  11121 22438 42579 72006 10166 20132 30065 40085 51009 81104;
0112224380999992000071115004+65190+036820FM-12+001899999V0202101N003012200019N0290001N1+01641+01241100921ADDGF107991011011008001001041MD1210081+9999REMSYN060AAXX  11151 22438 42579 72103 10164 20124 40092 52008 81104;
0181224380999992000071118004+65190+036820FM-12+001899999V0202301N004012200019N0350001N1+01291+00551101011ADDAA199000091GF103991001001999999001011KA1999M+01681MD1210081+9999REMSYN070AAXX  11181 22438 32581 32304 10129 20055 40101 52008 80001 333 10168;EQDQ01+008002SCOLCBQ02  00002PRCP99
0112224380999992000071121004+65190+036820FM-12+001899999V0202101N003012200019N0300001N1+01201+00771101141ADDGF103991001001999999001011MD1210121+9999REMSYN060AAXX  11211 22438 42980 32103 10120 20077 40114 52012 80001;
0133224380999992000071200004+65190+036820FM-12+001899999V0202201N003019999999N0260001N1+01091+00741101241ADDGF106991011011999999001041MA1999999101031MD1210101+9999REMSYN066AAXX  12001 22438 42976 62203 10109 20074 30103 40124 52010 81104;
0152224380999992000071203004+65190+036820FM-12+001899999V0200801N003012200019N0290001N1+01181+00701101391ADDAA199000091GF103991001001999999001011MD1210151+9999REMSYN070AAXX  12031 22438 32979 30803 10118 20070 40139 52015 80001 333 55124;EQDQ01  00002PRCP99
0161224380999992000071212004+65190+036820FM-12+001899999V0200801N006019999999N0070001N1+01081+00941101431ADDAY111061AY211061GF108991081001999999021999MA1999999101221MD1410001+9999MW1101REMSYN072AAXX  12121 22438 41957 80806 10108 20094 30122 40143 54000 71011 8802/;
0134224380999992000071215004+65190+036820FM-12+001899999V0200801N005019999999N0050001N1+01021+00951101481ADDAY121031AY221031GF108991999999004501999999MD1810051+9999MW1101REMSYN060AAXX  12151 22438 41450 80805 10102 20095 40148 58005 71022;
0193224380999992000071218004+65190+036820FM-12+001899999V0200801N006010042019N0060001N1+01101+01061101341ADDAA199000091AY121061AY221061GF107991061061004501001041KA1999M+01331MD1610041+9999MW1101REMSYN076AAXX  12181 22438 31456 70806 10110 20106 40134 56004 71022 86604 333 10133;EQDQ01  00002PRCP99
0140224380999992000071221004+65190+036820FM-12+001899999V0200701N006010075019N0060001N1+01061+01021101241ADDAY121031AY221031GF107991071051008001001001MD1810101+9999MW1101REMSYN066AAXX  12211 22438 41556 70706 10106 20102 40124 58010 71022 87500;
0161224380999992000071300004+65190+036820FM-12+001899999V0200701N006010075019N0080001N1+00991+00971101121ADDAY121061AY221061GF107991071051008001001001MA1999999100911MD1710121+9999MW1101REMSYN072AAXX  13001 22438 41558 70706 10099 20097 30091 40112 57012 71022 87500;
0180224380999992000071303004+65190+036820FM-12+001899999V0200801N004019999999N0046001N1+01161+01161101071ADDAA199000091AY121031AY221031GF107991061001999999031011MD1610051+9999MW1101REMSYN076AAXX  13031 22438 31946 70804 10116 20116 40107 56005 71022 86031 333 55000;EQDQ01  00002PRCP99
0165224380999992000071306004+65190+036820FM-12+001899999V0200801N002012200019N0230001N1+01611+01341100981ADDAA199000091GF101991001001999999001011KA1999N+00921MD1710081+9999REMSYN070AAXX  13061 22438 32973 10802 10161 20134 40098 57008 80001 333 20092;EQDQ01  00002PRCP99
0112224380999992000071309004+65190+036820FM-12+001899999V0203601N006019999999N0290001N1+02411+01061100981ADDGF106991031021999999031001MD1710051+9999REMSYN060AAXX  13091 22438 42979 63606 10241 20106 40098 57005 83230;
0133224380999992000071312004+65190+036820FM-12+001899999V0201501N007010075019N0230001N1+02501+01421100791ADDGF108991051021008001001011MA1999999100591MD1810141+9999REMSYN066AAXX  13121 22438 42573 81507 10250 20142 30059 40079 58014 85201;
0112224380999992000071315004+65190+036820FM-12+001899999V0201601N005010300019N0200001N1+02201+01071100751ADDGF107991031051008001041011MD1610041+9999REMSYN060AAXX  13151 22438 42570 71605 10220 20107 40075 56004 83541;
0112224380999992000071321004+65190+036820FM-12+001899999V0201201N002019999999N0180001N1+01391+00911100791ADDGF106991061001999999031011MD1810031+9999REMSYN060AAXX  13211 22438 42968 61202 10139 20091 40079 58003 86031;
0133224380999992000071400004+65190+036820FM-12+001899999V0201101N004010300019N0180001N1+01161+00941100771ADDGF107991021051008001031001MA1999999100561MD1710021+9999REMSYN066AAXX  14001 22438 42568 71104 10116 20094 30056 40077 57002 82530;
0152224380999992000071403004+65190+036820FM-12+001899999V0201701N007010075019N0240001N1+01321+00861100791ADDAA199000091GF108991071051008001071999MD1310021+9999REMSYN070AAXX  14031 22438 32574 81707 10132 20086 40079 53002 8757/ 333 55112;EQDQ01  00002PRCP99
0174224380999992000071406004+65190+036820FM-12+001899999V0201501N002010075019N0090001N1+01661+01451100831ADDAA199000021AY181061AY221061GF108991061091008001071999KA1999N+01101MD1210041+9999MW1801REMSYN076AAXX  14061 22438 31559 81502 10166 20145 40083 52004 78082 8697/ 333 20110;
0140224380999992000071409004+65190+036820FM-12+001899999V0202101N006010075019N0220001N1+01881+01311100871ADDAY181031AY221031GF107991051091008001001041MD1210041+9999MW1021REMSYN066AAXX  14091 22438 41572 72106 10188 20131 40087 52004 70282 85904;
0161224380999992000071412004+65190+036820FM-12+001899999V0202101N007010075019N0280001N1+02211+01361100901ADDAY181061AY221061GF106991061021008001001001MA1999999100701MD1210041+9999MW1021REMSYN072AAXX  14121 22438 41578 62107 10221 20136 30070 40090 52004 70282 86200;
0112224380999992000071415004+65190+036820FM-12+001899999V0200801N003012200019N0220001N1+01681+01201100951ADDGF105991021021008001001041MD1210051+9999REMSYN060AAXX  14151 22438 42572 50803 10168 20120 40095 52005 82204;
0152224380999992000071418004+65190+036820FM-12+001899999V0201101N001012200019N0220001N1+01791+01331101031ADDAA100000591GF106991031021008001001041KA1999M+02421MD1210081+9999REMSYN076AAXX  14181 22438 12572 61101 10179 20133 40103 52008 69940 83204 333 10242;
0112224380999992000071421004+65190+036820FM-12+001899999V0201601N003010750019N0240001N1+01711+01391101091ADDGF105991021021008001031011MD1210061+9999REMSYN060AAXX  14211 22438 42574 51603 10171 20139 40109 52006 82231;
0133224380999992000071500004+65190+036820FM-12+001899999V0201701N002019999999N0210001N1+01531+01241101141ADDGF106991061001999999031011MA1999999100941MD1210051+9999REMSYN066AAXX  15001 22438 42971 61702 10153 20124 30094 40114 52005 86031;
0152224380999992000071503004+65190+036820FM-12+001899999V0201301N005019999999N0200001N1+01801+01541101101ADDAA199000091GF106991021001999999031041MD1810041+9999REMSYN070AAXX  15031 22438 32970 61305 10180 20154 40110 58004 82034 333 55100;EQDQ01  00002PRCP99
0165224380999992000071506004+65190+036820FM-12+001899999V0201001N003019999999N0220001N1+01961+01581101041ADDAA199000091GF107991001001999999001091KA1999N+01521MD1710061+9999REMSYN070AAXX  15061 22438 32972 71003 10196 20158 40104 57006 80009 333 20152;EQDQ01  00002PRCP99
0112224380999992000071509004+65190+036820FM-12+001899999V0200701N003012200019N0230001N1+01701+01381101031ADDGF102991001001999999001011MD1610011+9999REMSYN060AAXX  15091 22438 42973 20703 10170 20138 40103 56001 80001;
0133224380999992000071512004+65190+036820FM-12+001899999V0202101N004012200019N0300001N1+02621+01671101061ADDGF103991031021008001001001MA1999999100861MD1310031+9999REMSYN066AAXX  15121 22438 42580 32104 10262 20167 30086 40106 53003 83200;
0112224380999992000071515004+65190+036820FM-12+001899999V0202201N007012200019N0270001N1+02281+01571101011ADDGF106991041021008001001041MD1810051+9999REMSYN060AAXX  15151 22438 42577 62207 10228 20157 40101 58005 84204;
0152224380999992000071606004+65190+036820FM-12+001899999V0201501N002012200019N0240001N1+02181+01651101031ADDAA100005191GF107991011021012501001011KA1999N+01751MD1310031+9999REMSYN076AAXX  16061 22438 12674 71502 10218 20165 40103 53003 60050 81201 333 20175;
0168224380999992000071612004+65190+036820FM-12+001899999V0201901N004019999999N0350001N1+02301+01341999999ADDGF105991999011008001001001MA1999999100941MD1210051+9999REMSYN066AAXX  16121 22438 42581 51904 10230 20134 30094 40816 52005 86100;EQDQ01+000062SCOTLCQ02+108163APOSLP
0165224380999992000071618004+65190+036820FM-12+001899999V0201801N005019999999N0250001N1+01531+01141101501ADDAA199000091GF105991031001999999031011KA1999M+02491MD1210121+9999REMSYN070AAXX  16181 22438 32975 51805 10153 20114 40150 52012 83031 333 10249;EQDQ01  00002PRCP99
0112224380999992000071621004+65190+036820FM-12+001899999V0201901N005019999999N0240001N1+01521+01191101621ADDGF106991061001999999031001MD1210121+9999REMSYN060AAXX  16211 22438 42974 61905 10152 20119 40162 52012 86030;
0133224380999992000071700004+65190+036820FM-12+001899999V0201801N004019999999N0210001N1+01471+01231101701ADDGF105991041001999999031011MA1999999101491MD1210081+9999REMSYN066AAXX  17001 22438 42971 51804 10147 20123 30149 40170 52008 84031;
0122224380999992000071703004+65190+036820FM-12+001899999V0201901N005012200019N0260001N1+01711+01181101771ADDGF101991001001999999001011MD1210081+9999REMSYN070AAXX  17031 22438 42976 11905 10171 20118 40177 52008 80001 333 55149;
0165224380999992000071706004+65190+036820FM-12+001899999V0202101N006012200019N0290001N1+01911+01251101861ADDAA199000091GF102991011011999999001011KA1999N+01451MD1210091+9999REMSYN070AAXX  17061 22438 32979 22106 10191 20125 40186 52009 81101 333 20145;EQDQ01  00002PRCP99
0112224380999992000071709004+65190+036820FM-12+001899999V0202201N007012200019N0300001N1+01981+01391101901ADDGF102991011011008001001011MD1110041+9999REMSYN060AAXX  17091 22438 42580 22207 10198 20139 40190 51004 81101;
0133224380999992000071712004+65190+036820FM-12+001899999V0201901N003012200019N0350001N1+02131+01171101891ADDGF106991021011008001001041MA1999999101691MD1810011+9999REMSYN066AAXX  17121 22438 42581 61903 10213 20117 30169 40189 58001 82104;
0112224380999992000071715004+65190+036820FM-12+001899999V0200901N002012200019N0300001N1+01761+01201101831ADDGF106991011011008001001041MD1710061+9999REMSYN060AAXX  17151 22438 42580 60902 10176 20120 40183 57006 81104;
0165224380999992000071718004+65190+036820FM-12+001899999V0201001N006019999999N0280001N1+01501+01041101831ADDAA199000091GF107991001001999999001041KA1999M+02211MD1610011+9999REMSYN070AAXX  17181 22438 32978 71006 10150 20104 40183 56001 80004 333 10221;EQDQ01  00002PRCP99
0112224380999992000071721004+65190+036820FM-12+001899999V0200901N006012200019N0240001N1+01391+01061101831ADDGF102991001001999999001011MD1410001+9999REMSYN060AAXX  17211 22438 42974 20906 10139 20106 40183 54000 80001;
0133224380999992000071800004+65190+036820FM-12+001899999V0200901N006019999999N0220001N1+01211+00921101851ADDGF106991001001999999001041MA1999999101641MD1110021+9999REMSYN066AAXX  18001 22438 42972 60906 10121 20092 30164 40185 51002 80004;
0152224380999992000071803004+65190+036820FM-12+001899999V0202201N005010075019N0230001N1+01381+01121101801ADDAA199000091GF108991081041008001999999MD1810051+9999REMSYN070AAXX  18031 22438 32573 82205 10138 20112 40180 58005 884// 333 55168;EQDQ01  00002PRCP99
0112224380999992000071809004+65190+036820FM-12+001899999V0201001N010012200019N0180001N1+01781+01371101541ADDGF102991001001999999001011MD1610051+9999REMSYN060AAXX  18091 22438 42968 21010 10178 20137 40154 56005 80001;
0133224380999992000071812004+65190+036820FM-12+001899999V0200801N008019999999N0180001N1+01761+01311101441ADDGF106991001001999999001041MA1999999101241MD1810101+9999REMSYN066AAXX  18121 22438 42968 60808 10176 20131 30124 40144 58010 80004;
0112224380999992000071815004+65190+036820FM-12+001899999V0200701N007019999999N0190001N1+01641+01351101401ADDGF106991001001999999001041MD1610041+9999REMSYN060AAXX  18151 22438 42969 60707 10164 20135 40140 56004 80004;
0165224380999992000071818004+65190+036820FM-12+001899999V0200901N007019999999N0170001N1+01601+01331101351ADDAA199000091GF107991001001999999001041KA1999M+01791MD1710051+9999REMSYN070AAXX  18181 22438 32967 70907 10160 20133 40135 57005 80004 333 10179;EQDQ01  00002PRCP99
0112224380999992000071821004+65190+036820FM-12+001899999V0200501N002019999999N0170001N1+01531+01021101401ADDGF107991021001999999031041MD1310041+9999REMSYN060AAXX  18211 22438 42967 70502 10153 20102 40140 53004 82034;
0133224380999992000071900004+65190+036820FM-12+001899999V0209999C000019999999N0180001N1+01441+01121101401ADDGF107991021001999999031041MA1999999101191MD1410001+9999REMSYN066AAXX  19001 22438 42968 70000 10144 20112 30119 40140 54000 82034;
0116224380999992000071903004+65190+036820FM-12+001899999V0201101N001012200019N0190001N1+01921+01321101381ADDGF103991999999999999999999MD1810011+9999REMSYN064AAXX  19031 22438 /2969 31101 10192 20132 40138 58001 333 55093;
0165224380999992000071906004+65190+036820FM-12+001899999V0200801N004019999999N0150001N1+01621+01351101351ADDAA199000091GF107991001001999999001011KA1999N+01331MD1710021+9999REMSYN070AAXX  19061 22438 32965 70804 10162 20135 40135 57002 80001 333 20133;EQDQ01  00002PRCP99
0140224380999992000071909004+65190+036820FM-12+001899999V0201001N006012200019N0090001N1+01801+01421101411ADDAY121031AY221031GF105991031011008001001011MD1810051+9999MW1101REMSYN066AAXX  19091 22438 41559 51006 10180 20142 40141 58005 71022 83101;
0112224380999992000071915004+65190+036820FM-12+001899999V0200201N002012200019N0210001N1+02601+01541101271ADDGF102991011021008001001011MD1810031+9999REMSYN060AAXX  19151 22438 42571 20202 10260 20154 40127 58003 81201;
0165224380999992000071918004+65190+036820FM-12+001899999V0202101N002010300019N0290001N1+02481+01351101311ADDAA199000091GF108991031051012501031011KA1999M+02701MD1310031+9999REMSYN070AAXX  19181 22438 32679 82102 10248 20135 40131 53003 83531 333 10270;EQDQ01  00002PRCP99
0112224380999992000071921004+65190+036820FM-12+001899999V0200201N008012200019N0200001N1+02181+01701101371ADDGF103991021001008001031051MD1210061+9999REMSYN060AAXX  19211 22438 42598 30208 10218 20170 40137 52006 82035;
0112224380999992000072009004+65190+036820FM-12+001899999V0200201N001012200019N0300001N1+02131+01391101741ADDGF105991011021008001001041MD1210061+9999REMSYN060AAXX  20091 22438 42580 50201 10213 20139 40174 52006 81204;
0131224380999992000072015004+65190+036820FM-12+001899999V0202001N99999220001CN0290001N1+01151+99999101801ADDGF108991031011012501001041MD1110011+9999REMSYN060AAXX  20151 22438 42679 87072 10115 20170 40180 51001 83104;EQDQ01+017201WOSPD 
0174224380999992000072018004+65190+036820FM-12+001899999V0201101N002010075019N0036001N1+01861+01761101881ADDAA199000021AY181061AY221061GF107991071091008001001001KA1999M+02391MD1310071+9999MW1811REMSYN076AAXX  20181 22438 31536 71102 10186 20176 40188 53007 78182 87900 333 10239;
0140224380999992000072021004+65190+036820FM-12+001899999V0200901N005010075019N0160001N1+01721+01571101861ADDAY181031AY221031GF107991051091008001001041MD1810021+9999MW1021REMSYN066AAXX  20211 22438 41566 70905 10172 20157 40186 58002 70282 85904;
0161224380999992000072100004+65190+036820FM-12+001899999V0201001N004010075019N0180001N1+01541+01441101831ADDAY181061AY221061GF107991061091008001001031MA1999999101631MD1610031+9999MW1021REMSYN072AAXX  21001 22438 41568 71004 10154 20144 30163 40183 56003 70282 86903;
0150224380999992000072103004+65190+036820FM-12+001899999V0200901N003019999999N0080001N1+01701+01641101961ADDAY121031AY221031GF107991051001999999031041MD1310131+9999MW1101REMSYN076AAXX  21031 22438 /1958 70903 10170 20164 40196 53013 71022 85034 333 55140;
0152224380999992000072106004+65190+036820FM-12+001899999V0200801N002010300019N0140001N1+01701+01501102021ADDAA100002091GF108991021051012501071999KA1999N+01501MD1210061+9999REMSYN076AAXX  21061 22438 12664 80802 10170 20150 40202 52006 60020 8257/ 333 20150;
0112224380999992000072109004+65190+036820FM-12+001899999V0200601N004010750019N0180001N1+01891+01551102001ADDGF106991021021012501031041MD1810021+9999REMSYN060AAXX  21091 22438 42668 60604 10189 20155 40200 58002 82234;
0133224380999992000072112004+65190+036820FM-12+001899999V0200801N005010300019N0120001N1+01771+01511102011ADDGF107991031091012501031041MA1999999101811MD1310011+9999REMSYN066AAXX  21121 22438 42662 70805 10177 20151 30181 40201 53001 83934;
0140224380999992000072115004+65190+036820FM-12+001899999V0200501N001010300019N0150001N1+01801+01401102071ADDAY181031AY221031GF107991041091008001061041MD1210061+9999MW1021REMSYN066AAXX  21151 22438 41565 70501 10180 20140 40207 52006 70282 84964;
0180224380999992000072118004+65190+036820FM-12+001899999V0200701N004012200019N0110001N1+01731+01611101981ADDAA100000191AY181061AY211061GF103991021001999999031011KA1999M+01931MD1810091+9999MW1021REMSYN082AAXX  21181 22438 11961 30704 10173 20161 40198 58009 69910 70281 82031 333 10193;
0112224380999992000072121004+65190+036820FM-12+001899999V0209999C000012200019N0110001N1+01651+01571101991ADDGF102991001001999999001011MD1310011+9999REMSYN060AAXX  21211 22438 42961 20000 10165 20157 40199 53001 80001;
0152224380999992000072200004+65190+036820FM-12+001899999V0209999C000019999999N0120001N1+01491+01421101991ADDGF105991001001999999001021MA1999999101691MD1410001+9999REMSYN066AAXX  22001 22438 42962 50000 10149 20142 30169 40199 53000 80002;EQDQ01+000032APCTEN
0180224380999992000072203004+65190+036820FM-12+001899999V0200801N003019999999N0090001N1+01621+01551101911ADDAA199000091AY121031AY221031GF107991061001999999031011MD1810081+9999MW1101REMSYN076AAXX  22031 22438 31959 70803 10162 20155 40191 58008 71022 86031 333 55081;EQDQ01  00002PRCP99
0193224380999992000072206004+65190+036820FM-12+001899999V0200901N005019999999N0060001N1+01781+01661101831ADDAA199000091AY121061AY221061GF106991061001999999031001KA1999N+01461MD1710081+9999MW1101REMSYN076AAXX  22061 22438 31956 60905 10178 20166 40183 57008 71022 86030 333 20146;EQDQ01  00002PRCP99
0161224380999992000072212004+65190+036820FM-12+001899999V0200801N005010300019N0080001N1+01861+01711101751ADDAY121061AY221061GF106991011021008001031001MA1999999101551MD1810061+9999MW1101REMSYN072AAXX  22121 22438 41558 60805 10186 20171 30155 40175 58006 71022 81230;
0112224380999992000072221004+65190+036820FM-12+001899999V0201201N004019999999N0120001N1+01641+01561101621ADDGF108991081001999999071999MD1810041+9999REMSYN060AAXX  22211 22438 42962 81204 10164 20156 40162 58004 8807/;
0133224380999992000072300004+65190+036820FM-12+001899999V0201101N004010300019N0150001N1+01521+01471101611ADDGF107991041051008001071001MA1999999101401MD1710021+9999REMSYN066AAXX  23001 22438 42565 71104 10152 20147 30140 40161 57002 84570;
0152224380999992000072303004+65190+036820FM-12+001899999V0201301N001012200019N0230001N1+01861+01491101571ADDAA199000091GF107991021021012501001041MD1710031+9999REMSYN070AAXX  23031 22438 32673 71301 10186 20149 40157 57003 82204 333 55140;EQDQ01  00002PRCP99
0165224380999992000072306004+65190+036820FM-12+001899999V0200501N005019999999N0250001N1+01951+01511101431ADDAA199000091GF107991071001999999071001KA1999N+01521MD1810151+9999REMSYN070AAXX  23061 22438 32975 70505 10195 20151 40143 58015 87070 333 20152;EQDQ01  00002PRCP99
0140224380999992000072309004+65190+036820FM-12+001899999V0200601N002010075019N0200001N1+02021+01681101431ADDAY181031AY221031GF107991061091008001071001MD1610021+9999MW1021REMSYN066AAXX  23091 22438 41570 70602 10202 20168 40143 56002 70282 86970;
0112224380999992000072315004+65190+036820FM-12+001899999V0201001N001010075019N0200001N1+01901+01691101281ADDGF106991051091008001001031MD1410001+9999REMSYN060AAXX  23151 22438 42570 61001 10190 20169 40128 54000 85903;
0152224380999992000072318004+65190+036820FM-12+001899999V0201901N003010075019N0220001N1+01811+01611101271ADDAA100001091GF106991061091008001001001KA1999M+02061MD1710011+9999REMSYN076AAXX  23181 22438 13572 61903 10181 20161 40127 57001 60010 86900 333 10206;
0112224380999992000072321004+65190+036820FM-12+001899999V0201101N002019999999N0250001N1+01321+01171101281ADDGF106991061001999999031001MD1410001+9999REMSYN060AAXX  23211 22438 42975 61102 10132 20117 40128 54000 86030;
0133224380999992000072400004+65190+036820FM-12+001899999V0200901N002019999999N0230001N1+01181+01041101301ADDGF108991081001999999071001MA1999999101091MD1310021+9999REMSYN066AAXX  24001 22438 42973 80902 10118 20104 30109 40130 53002 88070;
0152224380999992000072403004+65190+036820FM-12+001899999V0202101N005012200019N0080001N1+01411+01301101311ADDAA199000091GF102991001001999999001011MD1110011+9999REMSYN070AAXX  24031 22438 32958 22105 10141 20130 40131 51001 80001 333 55073;EQDQ01  00002PRCP99
0165224380999992000072406004+65190+036820FM-12+001899999V0202001N005019999999N0210001N1+01741+01391101321ADDAA199000091GF106991051001999999071041KA1999N+01141MD1310021+9999REMSYN070AAXX  24061 22438 32971 62005 10174 20139 40132 53002 85074 333 20114;EQDQ01  00002PRCP99
0112224380999992000072409004+65190+036820FM-12+001899999V0202101N005012200019N0290001N1+01631+01251101321ADDGF101991011011008001001041MD1410001+9999REMSYN060AAXX  24091 22438 42579 12105 10163 20125 40132 54000 81104;
0133224380999992000072412004+65190+036820FM-12+001899999V0202201N005012200019N0190001N1+01711+01281101301ADDGF102991011011008001001041MA1999999101101MD1810021+9999REMSYN066AAXX  24121 22438 42569 22205 10171 20128 30110 40130 58002 81104;
0131224380999992000072415004+65190+036820FM-12+001899999V0203501N999990075019N0120001N1+01581+01381101351ADDGF107991071041008001001001MD1310041+9999REMSYN060AAXX  24151 22438 42562 78507 10158 20138 40135 53004 87400;EQDQ01+010701WOSPD 
0165224380999992000072418004+65190+036820FM-12+001899999V0200201N007010075019N0210001N1+01361+01231101461ADDAA199000091GF107991071051008001001001KA1999M+01761MD1210111+9999REMSYN070AAXX  24181 22438 32571 70207 10136 20123 40146 52011 87500 333 10176;EQDQ01  00002PRCP99
0140224380999992000072421004+65190+036820FM-12+001899999V0201101N004010042019N0036001N1+01231+01191101731ADDAY151031AY221031GF108991081061004501999999MD1310271+9999MW1531REMSYN066AAXX  24211 22438 41436 81104 10123 20119 40173 53027 75352 886//;
0161224380999992000072500004+65190+036820FM-12+001899999V0201001N005010042019N0060001N1+01071+01041102051ADDAY151061AY221061GF108991081061004501999999MA1999999101841MD1210321+9999MW1511REMSYN072AAXX  25001 22438 41456 81005 10107 20104 30184 40205 52032 75152 886//;
0150224380999992000072503004+65190+036820FM-12+001899999V0200601N008010075019N0140001N1+00961+00771101861ADDAY161031AY221031GF108991081051008001999999MD1810191+9999MW1021REMSYN076AAXX  25031 22438 /1564 80608 10096 20077 40186 58019 70262 885// 333 55139;
0180224380999992000072506004+65190+036820FM-12+001899999V0200701N008010075019N0200001N1+00961+00551101861ADDAA100000591AY151061AY221061GF108991081051008001999999KA1999N+00951MD1410001+9999MW1021REMSYN082AAXX  25061 22438 11570 80708 10096 20055 40186 54000 69940 70252 885// 333 20095;
0112224380999992000072509004+65190+036820FM-12+001899999V0200601N010010075019N0180001N1+01001+00411101821ADDGF107991071051008001001001MD1810041+9999REMSYN060AAXX  25091 22438 42568 70610 10100 20041 40182 58004 87500;
0152224380999992000072512004+65190+036820FM-12+001899999V0200601N010012200019N0210001N1+01021+00431102842ADDGF106991041051008001001011MA1999999101631MD1310021+9999REMSYN066AAXX  25121 22438 42571 60610 10102 20043 30163 40284 53002 84501;EQDQ01+102843APOSLP
0152224380999992000072603004+65190+036820FM-12+001899999V0200601N013010042019N0180001N1+00811+00651101011ADDAA199000091GF106991061051004501001001MD1710091+9999REMSYN070AAXX  26031 22438 32468 60613 10081 20065 40101 57009 86500 333 55092;EQDQ01  00002PRCP99
0165224380999992000072606004+65190+036820FM-12+001899999V0200601N013010300019N0190001N1+00921+00761100941ADDAA199000091GF107991031051008001071001KA1999N+00701MD1710071+9999REMSYN070AAXX  26061 22438 32569 70613 10092 20076 40094 57007 83570 333 20070;EQDQ01  00002PRCP99
0133224380999992000072612004+65190+036820FM-12+001899999V0200601N013012200019N0230001N1+01121+00611101371ADDGF103991021041008001001011MA1999999101161MD1410001+9999REMSYN066AAXX  26121 22438 42573 30613 10112 20061 30116 40137 54000 82401;
0112224380999992000072615004+65190+036820FM-12+001899999V0200601N013012200019N0220001N1+01021+00461101371ADDGF102991021051008001001001MD1410001+9999REMSYN060AAXX  26151 22438 42572 20613 10102 20046 40137 54000 82500;
0165224380999992000072618004+65190+036820FM-12+001899999V0200701N012012200019N0190001N1+00971+00431101401ADDAA199000091GF102991011051008001071001KA1999M+01141MD1310031+9999REMSYN070AAXX  26181 22438 32569 20712 10097 20043 40140 53003 81570 333 10114;EQDQ01  00002PRCP99
0112224380999992000072621004+65190+036820FM-12+001899999V0200601N011012200019N0180001N1+00821+00481101491ADDGF102991021001999999031001MD1210091+9999REMSYN060AAXX  26211 22438 42968 20611 10082 20048 40149 52009 82030;
0165224380999992000072706004+65190+036820FM-12+001899999V0200601N006010075019N0200001N1+01041+00641101541ADDAA199000091GF106991061051008001001001KA1999N+00421MD1310051+9999REMSYN070AAXX  27061 22438 32570 60606 10104 20064 40154 53005 86500 333 20042;EQDQ01  00002PRCP99
0131224380999992000072709004+65190+036820FM-12+001899999V0200601N009010075019N0170001N1+01121+00581101581ADDGF106991999051008001001001MD1210041+9999REMSYN060AAXX  27091 22438 42567 60609 10112 20058 40158 52004 85500;EQDQ01+000052SCOTLC
0133224380999992000072712004+65190+036820FM-12+001899999V0200601N008012200019N0180001N1+01141+00621101541ADDGF106991021011008001001011MA1999999101331MD1810041+9999REMSYN066AAXX  27121 22438 42568 60608 10114 20062 30133 40154 58004 82101;
0165224380999992000072718004+65190+036820FM-12+001899999V0200701N007019999999N0170001N1+00921+00641101451ADDAA199000091GF107991021001999999031011KA1999M+01151MD1710031+9999REMSYN070AAXX  27181 22438 32967 70707 10092 20064 40145 57003 82031 333 10115;EQDQ01  00002PRCP99
0112224380999992000072721004+65190+036820FM-12+001899999V0200601N006012200019N0180001N1+00881+00671101411ADDGF103991001001999999001011MD1710041+9999REMSYN060AAXX  27211 22438 42968 30606 10088 20067 40141 57004 80001;
0168224380999992000072800004+65190+036820FM-12+001899999V0209999C999999999999N0200001N1+00681+00521101351ADDGF106991001001999999001011MA1999999101151MD1710051+9999REMSYN066AAXX  28001 22438 42970 60075 10068 20052 30115 40135 57005 80001;EQDQ01+007503WOSPD Q020007503WOSPD 
0165224380999992000072806004+65190+036820FM-12+001899999V0200601N007010075019N0210001N1+01051+00801101241ADDAA199000091GF106991061021008001001001KA1999N+00641MD1710051+9999REMSYN070AAXX  28061 22438 32571 60607 10105 20080 40124 57005 86200 333 20064;EQDQ01  00002PRCP99
0112224380999992000072809004+65190+036820FM-12+001899999V0200201N005012200019N0220001N1+01131+00861101221ADDGF102991011011008001001011MD1610021+9999REMSYN060AAXX  28091 22438 42572 20205 10113 20086 40122 56002 81101;
0133224380999992000072812004+65190+036820FM-12+001899999V0203601N004012200019N0220001N1+01101+00821101111ADDGF101991011011008001001011MA1999999100901MD1810111+9999REMSYN066AAXX  28121 22438 42572 13604 10110 20082 30090 40111 58011 81101;
0112224380999992000072815004+65190+036820FM-12+001899999V0203601N003012200019N0220001N1+01121+00771101071ADDGF102991011011008001001011MD1610041+9999REMSYN060AAXX  28151 22438 42572 23603 10112 20077 40107 56004 81101;
0165224380999992000072818004+65190+036820FM-12+001899999V0200101N004012200019N0230001N1+01091+00781101081ADDAA199000091GF101991001001999999001011KA1999M+01151MD1310011+9999REMSYN070AAXX  28181 22438 32973 10104 10109 20078 40108 53001 80001 333 10115;EQDQ01  00002PRCP99
0122224380999992000072821004+65190+036820FM-12+001899999V0200901N001012200019N0200001N1+00991+00811101081ADDGA1001+999999999GF100991001001999999001001MD1410001+9999REMSYN054AAXX  28211 22438 42570 00901 10099 20081 40108 54000;
0143224380999992000072900004+65190+036820FM-12+001899999V0200901N001012200019N0200001N1+00911+00871101081ADDGA1001+999999999GF100991001001999999001001MA1999999100871MD1410001+9999REMSYN060AAXX  29001 22438 42970 00901 10091 20087 30087 40108 54000;
0162224380999992000072903004+65190+036820FM-12+001899999V0200701N002012200019N0280001N1+01181+00941101151ADDAA199000091GA1001+999999999GF100991001001999999001001MD1310071+9999REMSYN064AAXX  29031 22438 32978 00702 10118 20094 40115 53007 333 55161;EQDQ01  00002PRCP99
0175224380999992000072906004+65190+036820FM-12+001899999V0200701N002012200019N0300001N1+01321+00931101261ADDAA199000091GA1001+999999999GF100991001001999999001001KA1999N+00861MD1210111+9999REMSYN064AAXX  29061 22438 32980 00702 10132 20093 40126 52011 333 20086;EQDQ01  00002PRCP99
0122224380999992000072909004+65190+036820FM-12+001899999V0200901N003012200019N0300001N1+01381+01071101291ADDGA1001+999999999GF100991001001999999001001MD1110031+9999REMSYN054AAXX  29091 22438 42980 00903 10138 20107 40129 51003;
0143224380999992000072912004+65190+036820FM-12+001899999V0200701N004012200019N0280001N1+01311+01041101341ADDGA1001+999999999GF100991001001999999001001MA1999999101141MD1210061+9999REMSYN060AAXX  29121 22438 42978 00704 10131 20104 30114 40134 52006;
0122224380999992000072915004+65190+036820FM-12+001899999V0200701N003012200019N0300001N1+01261+01031101381ADDGA1001+999999999GF100991001001999999001001MD1210031+9999REMSYN054AAXX  29151 22438 42980 00703 10126 20103 40138 52003;
0165224380999992000072918004+65190+036820FM-12+001899999V0200401N003012200019N0260001N1+01151+01021101381ADDAA199000091GF101991011001999999031001KA1999M+01401MD1410001+9999REMSYN070AAXX  29181 22438 32976 10403 10115 20102 40138 54000 81030 333 10140;EQDQ01  00002PRCP99
0112224380999992000072921004+65190+036820FM-12+001899999V0200501N007012200019N0230001N1+01131+01051101441ADDGF102991021001999999031001MD1210061+9999REMSYN060AAXX  29211 22438 42973 20507 10113 20105 40144 52006 82030;
0133224380999992000073000004+65190+036820FM-12+001899999V0209999C000012200019N0280001N1+01091+01091101481ADDGF101991001001999999001011MA1999999101271MD1210041+9999REMSYN066AAXX  30001 22438 42978 10000 10109 20109 30127 40148 52004 80001;
0133224380999992000073012004+65190+036820FM-12+001899999V0200701N005010300019N0220001N1+01461+01381101381ADDGF107991021021008001071001MA1999999101171MD1410001+9999REMSYN066AAXX  30121 22438 42572 70705 10146 20138 30117 40138 54000 82270;
0112224380999992000073015004+65190+036820FM-12+001899999V0200801N005010300019N0200001N1+01361+00931101331ADDGF108991031021008001071001MD1810051+9999REMSYN060AAXX  30151 22438 42570 80805 10136 20093 40133 58005 83270;
0165224380999992000073018004+65190+036820FM-12+001899999V0200601N006010300019N0240001N1+01181+00881101211ADDAA199000091GF107991021011008001071001KA1999M+01581MD1710121+9999REMSYN070AAXX  30181 22438 32574 70606 10118 20088 40121 57012 82170 333 10158;EQDQ01  00002PRCP99
0112224380999992000073021004+65190+036820FM-12+001899999V0200301N004019999999N0210001N1+01061+00811101131ADDGF107991071001008001071001MD1710081+9999REMSYN060AAXX  30211 22438 42571 70304 10106 20081 40113 57008 87070;
0133224380999992000073100004+65190+036820FM-12+001899999V0200201N002019999999N0190001N1+00941+00711101061ADDGF107991071001008001071001MA1999999100851MD1710071+9999REMSYN066AAXX  31001 22438 42569 70202 10094 20071 30085 40106 57007 87070;
0112224380999992000073109004+65190+036820FM-12+001899999V0200401N004012200019N0230001N1+01341+01101100971ADDGF101991011001999999031001MD1410001+9999REMSYN060AAXX  31091 22438 42973 10404 10134 20110 40097 54000 81030;
0133224380999992000073112004+65190+036820FM-12+001899999V0200501N003012200019N0200001N1+01381+01151100971ADDGF101991011021012501001001MA1999999100781MD1310011+9999REMSYN066AAXX  31121 22438 42670 10503 10138 20115 30078 40097 53001 81200;
0112224380999992000073115004+65190+036820FM-12+001899999V0200401N003012200019N0230001N1+01371+01191101021ADDGF101991001001999999001011MD1310031+9999REMSYN060AAXX  31151 22438 42973 10403 10137 20119 40102 53003 80001;
0165224380999992000073118004+65190+036820FM-12+001899999V0200501N003012200019N0240001N1+01181+01091101051ADDAA199000091GF102991001001999999001011KA1999M+01401MD1210031+9999REMSYN070AAXX  31181 22438 32974 20503 10118 20109 40105 52003 80001 333 10140;EQDQ01  00002PRCP99
0112224380999992000073121004+65190+036820FM-12+001899999V0200601N002012200019N0260001N1+01101+01031101121ADDGF102991001001999999001011MD1310071+9999REMSYN060AAXX  31211 22438 42976 20602 10110 20103 40112 53007 80001;
0133224380999992000080100004+65190+036820FM-12+001899999V0200501N003012200019N0210001N1+01011+00951101171ADDGF103991021001999999031011MA1999999100961MD1210051+9999REMSYN066AAXX  01001 22438 42971 30503 10101 20095 30096 40117 52005 82031;
0112224380999992000080109004+65190+036820FM-12+001899999V0200901N010019999999N0160001N1+01251+00891101461ADDGF106991001001999999001041MD1210071+9999REMSYN060AAXX  01091 22438 42966 60910 10125 20089 40146 52007 80004;
0133224380999992000080112004+65190+036820FM-12+001899999V0200701N008010075019N0240001N1+01211+00951101461ADDGF106991051011008001001041MA1999999101251MD1810011+9999REMSYN066AAXX  01121 22438 42574 60708 10121 20095 30125 40146 58001 85104;
0112224380999992000080115004+65190+036820FM-12+001899999V0200801N009010075019N0250001N1+01121+00811101481ADDGF107991051041008001071041MD1310021+9999REMSYN060AAXX  01151 22438 42575 70809 10112 20081 40148 53002 85474;
0165224380999992000080118004+65190+036820FM-12+001899999V0200801N012019999999N0230001N1+01031+00801101481ADDAA199000091GF107991061001999999071041KA1999M+01271MD1410001+9999REMSYN070AAXX  01181 22438 32973 70812 10103 20080 40148 54000 86074 333 10127;EQDQ01  00002PRCP99
0112224380999992000080121004+65190+036820FM-12+001899999V0200701N012019999999N0200001N1+00871+00681101501ADDGF106991051001999999071011MD1310021+9999REMSYN060AAXX  01211 22438 42970 60712 10087 20068 40150 53002 85071;
0133224380999992000080200004+65190+036820FM-12+001899999V0200801N012019999999N0200001N1+00681+00561101641ADDGF106991051001999999071041MA1999999101321MD1110031+9999REMSYN066AAXX  02001 22438 42970 60812 10068 20056 30132 40164 51003 85074;
0152224380999992000080203004+65190+036820FM-12+001899999V0200701N010010075019N0190001N1+00901+00801101511ADDAA199000091GF108991081051008001999999MD1810021+9999REMSYN070AAXX  02031 22438 32569 80710 10090 20080 40151 58002 885// 333 55112;EQDQ01  00002PRCP99
0165224380999992000080206004+65190+036820FM-12+001899999V0200901N010010075019N0230001N1+00931+00811101531ADDAA199000091GF108991081051008001999999KA1999N+00651MD1310021+9999REMSYN070AAXX  02061 22438 32573 80910 10093 20081 40153 53002 885// 333 20065;EQDQ01  00002PRCP99
0112224380999992000080209004+65190+036820FM-12+001899999V0200801N007010075019N0190001N1+00961+00771101501ADDGF108991081051008001999999MD1810031+9999REMSYN060AAXX  02091 22438 42569 80807 10096 20077 40150 58003 885//;
0152224380999992000080212004+65190+036820FM-12+001899999V0200801N007012200019N0250001N1+01061+00741101501ADDGF103991999071008001031001MA1999999101291MD1410001+9999REMSYN066AAXX  02121 22438 42575 30807 10106 20074 30129 40150 54000 86730;EQDQ01+000062SCOTLC
0112224380999992000080215004+65190+036820FM-12+001899999V0200801N006010300019N0200001N1+00981+00761101471ADDGF107991011051008001031051MD1810031+9999REMSYN060AAXX  02151 22438 42570 70806 10098 20076 40147 58003 81535;
0165224380999992000080218004+65190+036820FM-12+001899999V0200801N010019999999N0130001N1+00921+00771101471ADDAA199000091GF108991061001999999031051KA1999M+00981MD1410001+9999REMSYN070AAXX  02181 22438 32963 80810 10092 20077 40147 54000 86035 333 10098;EQDQ01  00002PRCP99
0112224380999992000080221004+65190+036820FM-12+001899999V0200901N008019999999N0150001N1+00941+00801101571ADDGF108991081001999999051999MD1410001+9999REMSYN060AAXX  02211 22438 42965 80908 10094 20080 40157 54000 8805/;
0133224380999992000080300004+65190+036820FM-12+001899999V0200801N009010300019N0210001N1+00901+00761101451ADDGF108991021051008001051999MA1999999101241MD1810021+9999REMSYN066AAXX  03001 22438 42571 80809 10090 20076 30124 40145 58002 8255/;
0152224380999992000080303004+65190+036820FM-12+001899999V0200901N009010075019N0180001N1+01001+00921101401ADDAA199000091GF107991061051008001071001MD1710051+9999REMSYN070AAXX  03031 22438 32568 70909 10100 20092 40140 57005 86570 333 55000;EQDQ01  00002PRCP99
0181224380999992000080306004+65190+036820FM-12+001899999V0200601N007019999999N0190001N1+00981+00811101361ADDAA199000091GF107991999051008001071041KA1999N+00881MD1710041+9999REMSYN070AAXX  03061 22438 32569 70607 10098 20081 40136 57004 88574 333 20088;EQDQ01+000082SCOTLCQ02  00002PRCP99
0112224380999992000080309004+65190+036820FM-12+001899999V0200701N008010075019N0160001N1+01011+00951101341ADDGF107991061051008001071001MD1610021+9999REMSYN060AAXX  03091 22438 42566 70708 10101 20095 40134 56002 86570;
0133224380999992000080312004+65190+036820FM-12+001899999V0200701N009010300019N0170001N1+01001+00701101331ADDGF107991021051008001031041MA1999999101121MD1710011+9999REMSYN066AAXX  03121 22438 42567 70709 10100 20070 30112 40133 57001 82534;
0112224380999992000080315004+65190+036820FM-12+001899999V0200701N008012200019N0150001N1+00901+00621101281ADDGF107991021051008001001041MD1710051+9999REMSYN060AAXX  03151 22438 42565 70708 10090 20062 40128 57005 82504;
0165224380999992000080318004+65190+036820FM-12+001899999V0200701N008012200019N0160001N1+00861+00641101281ADDAA199000091GF107991031051008001001041KA1999M+01021MD1410001+9999REMSYN070AAXX  03181 22438 32566 70708 10086 20064 40128 54000 83504 333 10102;EQDQ01  00002PRCP99
0112224380999992000080321004+65190+036820FM-12+001899999V0200501N007010075019N0140001N1+00851+00771101261ADDGF107991051051008001071041MD1710031+9999REMSYN060AAXX  03211 22438 42564 70507 10085 20077 40126 57003 85574;
0133224380999992000080400004+65190+036820FM-12+001899999V0200501N007010075019N0130001N1+00791+00731101231ADDGF107991061051008001001041MA1999999101021MD1710021+9999REMSYN066AAXX  04001 22438 42563 70507 10079 20073 30102 40123 57002 86504;
0152224380999992000080403004+65190+036820FM-12+001899999V0203501N004010075019N0180001N1+00881+00741101271ADDAA199000091GF107991071051008001001011MD1310041+9999REMSYN070AAXX  04031 22438 32568 73504 10088 20074 40127 53004 87501 333 55001;EQDQ01  00002PRCP99
0165224380999992000080406004+65190+036820FM-12+001899999V0200401N003010075019N0250001N1+00881+00681101291ADDAA199000091GF108991081051008001999999KA1999N+00771MD1210021+9999REMSYN070AAXX  04061 22438 32575 80403 10088 20068 40129 52002 885// 333 20077;EQDQ01  00002PRCP99
0112224380999992000080409004+65190+036820FM-12+001899999V0200401N004010075019N0190001N1+00971+00711101311ADDGF108991081051008001999999MD1210021+9999REMSYN060AAXX  04091 22438 42569 80404 10097 20071 40131 52002 885//;
0133224380999992000080412004+65190+036820FM-12+001899999V0200301N003010300019N0240001N1+01031+00781101381ADDGF107991021051008001051001MA1999999101171MD1310071+9999REMSYN066AAXX  04121 22438 42574 70303 10103 20078 30117 40138 53007 82550;
0112224380999992000080415004+65190+036820FM-12+001899999V0200301N003010300019N0250001N1+00961+00811101361ADDGF107991021051008001051001MD1810021+9999REMSYN060AAXX  04151 22438 42575 70303 10096 20081 40136 58002 82550;
0165224380999992000080418004+65190+036820FM-12+001899999V0203601N003019999999N0270001N1+00901+00761101361ADDAA199000091GF107991061001999999031011KA1999M+01071MD1410001+9999REMSYN070AAXX  04181 22438 32977 73603 10090 20076 40136 54000 86031 333 10107;EQDQ01  00002PRCP99
0112224380999992000080421004+65190+036820FM-12+001899999V0200101N003012200019N0250001N1+00831+00591101361ADDGF102991021001999999031001MD1410001+9999REMSYN060AAXX  04211 22438 42975 20103 10083 20059 40136 54000 82030;
0112224380999992000080509004+65190+036820FM-12+001899999V0201001N005019999999N0300001N1+01131+00781101291ADDGF106991001001999999001011MD1810041+9999REMSYN060AAXX  05091 22438 42980 61005 10113 20078 40129 58004 80001;
0133224380999992000080512004+65190+036820FM-12+001899999V0202901N006019999999N0350001N1+01281+00771101211ADDGF106991011001999999031041MA1999999101001MD1710081+9999REMSYN066AAXX  05121 22438 42981 62906 10128 20077 30100 40121 57008 81034;
0112224380999992000080515004+65190+036820FM-12+001899999V0202401N005019999999N0300001N1+01291+00861101081ADDGF106991001001999999001041MD1810131+9999REMSYN060AAXX  05151 22438 42980 62405 10129 20086 40108 58013 80004;
0165224380999992000080518004+65190+036820FM-12+001899999V0202501N006019999999N0300001N1+01041+00701100941ADDAA199000091GF106991001001999999001041KA1999M+01331MD1710141+9999REMSYN070AAXX  05181 22438 32980 62506 10104 20070 40094 57014 80004 333 10133;EQDQ01  00002PRCP99
0112224380999992000080521004+65190+036820FM-12+001899999V02099999999999999999N0180001N1+00981+00931100821ADDGF107991001001999999041061MD1710141+9999REMSYN060AAXX  05211 22438 42968 73707 10098 20093 40082 57014 80046;
0112224380999992000080615004+65190+036820FM-12+001899999V0209999C000012200019N0300001N1+01251+00811100721ADDGF102991021001999999031001MD1810071+9999REMSYN060AAXX  06151 22438 42980 20000 10125 20081 40072 58007 82030;
0165224380999992000080618004+65190+036820FM-12+001899999V0201101N001019999999N0300001N1+01141+00981100621ADDAA199000091GF105991041001999999031011KA1999M+01231MD1710101+9999REMSYN070AAXX  06181 22438 32980 51101 10114 20098 40062 57010 84031 333 10123;EQDQ01  00002PRCP99
0112224380999992000080621004+65190+036820FM-12+001899999V0200901N002019999999N0280001N1+01041+00921100571ADDGF105991041001999999031011MD1710051+9999REMSYN060AAXX  06211 22438 42978 50902 10104 20092 40057 57005 84031;
0133224380999992000080700004+65190+036820FM-12+001899999V0200901N003019999999N0250001N1+00961+00851100541ADDGF106991031001999999031011MA1999999100331MD1710031+9999REMSYN066AAXX  07001 22438 42975 60903 10096 20085 30033 40054 57003 83031;
0152224380999992000080703004+65190+036820FM-12+001899999V0201501N003019999999N0270001N1+01051+00891100351ADDAA199000091GF106991021001999999031041MD1810191+9999REMSYN070AAXX  07031 22438 32977 61503 10105 20089 40035 58019 82034 333 55166;EQDQ01  00002PRCP99
0165224380999992000080706004+65190+036820FM-12+001899999V0201001N001019999999N0280001N1+01411+01091100241ADDAA199000091GF106991061001999999031011KA1999N+00951MD1610101+9999REMSYN070AAXX  07061 22438 32978 61001 10141 20109 40024 56010 86031 333 20095;EQDQ01  00002PRCP99
0112224380999992000080709004+65190+036820FM-12+001899999V0201101N002019999999N0290001N1+01651+01341100231ADDGF105991021021999999001011MD1610011+9999REMSYN060AAXX  07091 22438 42979 51102 10165 20134 40023 56001 82201;
0133224380999992000080712004+65190+036820FM-12+001899999V0200901N003012200019N0300001N1+01601+01201100211ADDGF106991031021008001001011MA1999999100011MD1810021+9999REMSYN066AAXX  07121 22438 42580 60903 10160 20120 30001 40021 58002 83201;
0112224380999992000080715004+65190+036820FM-12+001899999V0201001N003010075019N0260001N1+01501+01171100201ADDGF107991061091008001061031MD1610011+9999REMSYN060AAXX  07151 22438 42576 71003 10150 20117 40020 56001 86963;
0165224380999992000080718004+65190+036820FM-12+001899999V0201201N004010075019N0250001N1+01401+01121100201ADDAA199000091GF107991061091008001061001KA1999M+01721MD1410001+9999REMSYN070AAXX  07181 22438 32575 71204 10140 20112 40020 54000 86960 333 10172;EQDQ01  00002PRCP99
0112224380999992000080721004+65190+036820FM-12+001899999V0202001N006010075019N0220001N1+01321+01191100211ADDGF107991071091008001001001MD1310011+9999REMSYN060AAXX  07211 22438 42572 72006 10132 20119 40021 53001 87900;
0161224380999992000080800004+65190+036820FM-12+001899999V0202001N007010075019N0200001N1+01091+01021100241ADDAY181061AY221061GF107991071091008001001001MA1999999100041MD1210031+9999MW1251REMSYN072AAXX  08001 22438 41570 72007 10109 20102 30004 40024 52003 72582 87900;
0150224380999992000080803004+65190+036820FM-12+001899999V0201601N002010075019N0210001N1+01241+01221100341ADDAY181031AY221031GF107991061051008001031001MD1310101+9999MW1021REMSYN076AAXX  08031 22438 /1571 71602 10124 20122 40034 53010 70282 86530 333 55116;
0174224380999992000080806004+65190+036820FM-12+001899999V0201801N002010075019N0180001N1+01521+01411100341ADDAA199000021AY181061AY221061GF107991071051008001001001KA1999N+01051MD1410001+9999MW1151REMSYN076AAXX  08061 22438 31568 71802 10152 20141 40034 54000 71582 87500 333 20105;
0112224380999992000080809004+65190+036820FM-12+001899999V0200501N002010300019N0150001N1+01521+01301100331ADDGF108991031051008001051999MD1810011+9999REMSYN060AAXX  08091 22438 42565 80502 10152 20130 40033 58001 8355/;
0161224380999992000080812004+65190+036820FM-12+001899999V0200901N002010042019N0040001N1+01241+01241100161ADDAY161061AY221061GF108991081001004501021999MA1999999099961MD1810171+9999MW1631REMSYN072AAXX  08121 22438 41440 80902 10124 20124 39996 40016 58017 76362 8802/;
0140224380999992000080815004+65190+036820FM-12+001899999V0200801N003010042019N0070001N1+01241+01241099841ADDAY181031AY201031GF108991081091004501999999MD1710321+9999MW1821REMSYN066AAXX  08151 22438 41457 80803 10124 20124 49984 57032 78280 889//;
0157224380999992000080818004+65190+036820FM-12+001899999V0202701N002010075019N0080001N1+01181+01171099861ADDAA100007991AY181061AY221061GF107991071091008001001001MD1310121+9999MW1801REMSYN072AAXX  08181 22438 11558 72702 10118 20117 49986 53012 60080 78082 87900;
0159224380999992000080821004+65190+036820FM-12+001899999V0202301N004012200019N0180001N1+01121+01121100301ADDAY181031AY211031GF103991999051008001001001MD1310241+9999MW1021REMSYN066AAXX  08211 22438 41568 32304 10112 20112 40030 53024 70281 82500;EQDQ01+000022SCOTLC
0161224380999992000080900004+65190+036820FM-12+001899999V0202401N005012200019N0210001N1+01041+00881100371ADDAY181061AY211061GF102991011051008001031001MA1999999100171MD1210171+9999MW1021REMSYN072AAXX  09001 22438 41571 22405 10104 20088 30017 40037 52017 70281 81530;
0152224380999992000080906004+65190+036820FM-12+001899999V0202001N007012200019N0240001N1+01301+01151100411ADDAA100000591GF101991001001999999001011KA1999N+01021MD1410001+9999REMSYN076AAXX  09061 22438 12974 12007 10130 20115 40041 54000 69960 80001 333 20102;
0112224380999992000080909004+65190+036820FM-12+001899999V0202101N005012200019N0290001N1+01661+01091100431ADDGF102991021011008001001001MD1310021+9999REMSYN060AAXX  09091 22438 42579 22105 10166 20109 40043 53002 82100;
0133224380999992000080912004+65190+036820FM-12+001899999V0202101N005010075019N0350001N1+01681+01091100491ADDGF106991051011008001001011MA1999999100291MD1210061+9999REMSYN066AAXX  09121 22438 42581 62105 10168 20109 30029 40049 52006 85101;
0140224380999992000080915004+65190+036820FM-12+001899999V0202001N002010075019N0270001N1+01441+01101100461ADDAY181031AY221031GF107991061091008001061041MD1810031+9999MW1021REMSYN066AAXX  09151 22438 41577 72002 10144 20110 40046 58003 70282 86964;
0180224380999992000080918004+65190+036820FM-12+001899999V0202201N004010300019N0260001N1+01271+01071100431ADDAA100000791AY181061AY221061GF107991031091008001031041KA1999M+01711MD1610031+9999MW1021REMSYN082AAXX  09181 22438 11576 72204 10127 20107 40043 56003 69900 70282 83934 333 10171;
0112224380999992000080921004+65190+036820FM-12+001899999V0209999C000010300019N0220001N1+01161+00971100351ADDGF107991021091012501031041MD1810081+9999REMSYN060AAXX  09211 22438 42672 70000 10116 20097 40035 58008 82934;
0133224380999992000081000004+65190+036820FM-12+001899999V0202001N002010300019N0210001N1+01011+00861100321ADDGF107991021091008001031041MA1999999100111MD1610041+9999REMSYN066AAXX  10001 22438 42571 72002 10101 20086 30011 40032 56004 82934;
0180224380999992000081006004+65190+036820FM-12+001899999V0209999C000010075019N0350001N1+01391+01111100121ADDAA100000791AY181061AY221061GF107991051051008001031001KA1999N+00971MD1610051+9999MW1021REMSYN082AAXX  10061 22438 11581 70000 10139 20111 40012 56005 69900 70282 85530 333 20097;
0112224380999992000081009004+65190+036820FM-12+001899999V0209999C000010300019N0350001N1+01401+01101100151ADDGF107991041021008001031001MD1310031+9999REMSYN060AAXX  10091 22438 42581 70000 10140 20110 40015 53003 84230;
0133224380999992000081012004+65190+036820FM-12+001899999V0202401N002010300019N0300001N1+01481+00951100151ADDGF107991021021008001031011MA1999999099951MD1410001+9999REMSYN066AAXX  10121 22438 42580 72402 10148 20095 39995 40015 54000 82231;
0112224380999992000081015004+65190+036820FM-12+001899999V0202701N002010750019N0300001N1+01481+01031100171ADDGF105991021021012501031011MD1310021+9999REMSYN060AAXX  10151 22438 42680 52702 10148 20103 40017 53002 82231;
0152224380999992000081018004+65190+036820FM-12+001899999V0202201N003010750019N0290001N1+01221+01111100231ADDAA100000791GF105991021021008001031011KA1999M+01501MD1310061+9999REMSYN076AAXX  10181 22438 12579 52203 10122 20111 40023 53006 69900 82231 333 10150;
0112224380999992000081021004+65190+036820FM-12+001899999V0202301N002012200019N0250001N1+01021+00951100251ADDGF102991011051008001031001MD1110011+9999REMSYN060AAXX  10211 22438 42575 22302 10102 20095 40025 51001 81530;
0152224380999992000081103004+65190+036820FM-12+001899999V0202201N002012200019N0240001N1+01111+01031100051ADDAA199000091GF102991021001008001031011MD1310031+9999REMSYN070AAXX  11031 22438 32574 22202 10111 20103 40005 53003 82031 333 55116;EQDQ01  00002PRCP99
0131224380999992000081115004+65190+036820FM-12+001899999V0202101N002019999999N0230001N1+01491+01361100691ADDGF107991999091008001031031MD1210131+9999REMSYN060AAXX  11151 22438 42573 72102 10149 20136 40069 52013 80933;EQDQ01+000002SCOTLC
0180224380999992000081706004+65190+036820FM-12+001899999V0203201N002010075019N0036001N1+01161+01121100651ADDAA100000191AY151061AY221061GF108991081071008001999999KA1999N+01101MD1810021+9999MW1101REMSYN082AAXX  17061 22438 11536 83202 10116 20112 40065 58002 69910 71052 887// 333 20110;
0112224380999992000081709004+65190+036820FM-12+001899999V0200601N002010075019N0180001N1+01171+01051100791ADDGF108991081051008001999999MD1310041+9999REMSYN060AAXX  17091 22438 42568 80602 10117 20105 40079 53004 885//;
0133224380999992000081712004+65190+036820FM-12+001899999V0200801N006010075019N0220001N1+01211+01061100721ADDGF108991081051008001999999MA1999999100511MD1810071+9999REMSYN066AAXX  17121 22438 42572 80806 10121 20106 30051 40072 58007 885//;
0112224380999992000081715004+65190+036820FM-12+001899999V0200801N007010075019N0210001N1+01131+00971100751ADDGF107991061051008001071001MD1310031+9999REMSYN060AAXX  17151 22438 42571 70807 10113 20097 40075 53003 86570;
0165224380999992000081718004+65190+036820FM-12+001899999V0200701N008010075019N0140001N1+01031+00901100681ADDAA199000091GF108991061051008001071001KA1999M+01241MD1810071+9999REMSYN070AAXX  17181 22438 32564 80708 10103 20090 40068 58007 86570 333 10124;EQDQ01  00002PRCP99
0112224380999992000081721004+65190+036820FM-12+001899999V0200701N009010075019N0140001N1+01021+00901100661ADDGF108991081051008001999999MD1610021+9999REMSYN060AAXX  17211 22438 42564 80709 10102 20090 40066 56002 885//;
0133224380999992000081800004+65190+036820FM-12+001899999V0200701N010010075019N0120001N1+00991+00901100621ADDGF108991081051008001999999MA1999999100411MD1710041+9999REMSYN066AAXX  18001 22438 42562 80710 10099 20090 30041 40062 57004 885//;
0180224380999992000081806004+65190+036820FM-12+001899999V0200801N007010042019N0100001N1+00971+00931100641ADDAA100000591AY151061AY221061GF108991081061004501999999KA1999N+00951MD1410001+9999MW1501REMSYN082AAXX  18061 22438 11460 80807 10097 20093 40064 54000 69940 75052 886// 333 20095;
0140224380999992000081809004+65190+036820FM-12+001899999V0200801N006010075019N0130001N1+01021+00921100721ADDAY181031AY251031GF108991081091008001999999MD1310081+9999MW1251REMSYN066AAXX  18091 22438 41563 80806 10102 20092 40072 53008 72585 889//;
0161224380999992000081812004+65190+036820FM-12+001899999V0200701N006010075019N0150001N1+01041+00741100831ADDAY181061AY251061GF108991071051008001031999MA1999999100621MD1210111+9999MW1251REMSYN072AAXX  18121 22438 41565 80706 10104 20074 30062 40083 52011 72585 8753/;
0112224380999992000081815004+65190+036820FM-12+001899999V0200801N005010075019N0200001N1+01041+00641100871ADDGF107991061051008001031011MD1110041+9999REMSYN060AAXX  18151 22438 42570 70805 10104 20064 40087 51004 86531;
0152224380999992000081818004+65190+036820FM-12+001899999V0200601N004019999999N0210001N1+00961+00591100881ADDAA100001091GF108991031001999999031011KA1999M+01051MD1110011+9999REMSYN076AAXX  18181 22438 12971 80604 10096 20059 40088 51001 69990 83031 333 10105;
0112224380999992000081821004+65190+036820FM-12+001899999V0200501N002019999999N0210001N1+00881+00641100921ADDGF105991031001999999031011MD1310041+9999REMSYN060AAXX  18211 22438 42971 50502 10088 20064 40092 53004 83031;
0133224380999992000081900004+65190+036820FM-12+001899999V0200301N002012200019N0230001N1+00831+00641100951ADDGF103991021001999999031011MA1999999100741MD1210031+9999REMSYN066AAXX  19001 22438 42973 30302 10083 20064 30074 40095 52003 82031;
0165224380999992000081906004+65190+036820FM-12+001899999V0200701N006019999999N0260001N1+01151+00851100921ADDAA199000091GF105991001001999999001041KA1999N+00831MD1810051+9999REMSYN070AAXX  19061 22438 32976 50706 10115 20085 40092 58005 80004 333 20083;EQDQ01  00002PRCP99
0112224380999992000081909004+65190+036820FM-12+001899999V0200701N004019999999N0270001N1+01161+00841100961ADDGF106991001001999999001041MD1810041+9999REMSYN060AAXX  19091 22438 42977 60704 10116 20084 40096 58004 80004;
0133224380999992000081912004+65190+036820FM-12+001899999V0200701N005019999999N0280001N1+01151+00851101001ADDGF106991001001999999001041MA1999999100791MD1210041+9999REMSYN066AAXX  19121 22438 42978 60705 10115 20085 30079 40100 52004 80004;
0112224380999992000081915004+65190+036820FM-12+001899999V0200701N006019999999N0230001N1+01091+00861100921ADDGF107991001001999999001041MD1810081+9999REMSYN060AAXX  19151 22438 42973 70706 10109 20086 40092 58008 80004;
0165224380999992000081918004+65190+036820FM-12+001899999V0200801N006019999999N0210001N1+01041+00921100871ADDAA199000091GF107991001001999999001041KA1999M+01181MD1610051+9999REMSYN070AAXX  19181 22438 32971 70806 10104 20092 40087 56005 80004 333 10118;EQDQ01  00002PRCP99
0112224380999992000081921004+65190+036820FM-12+001899999V0201101N002019999999N0200001N1+00961+00901100811ADDGF107991001001999999001041MD1710061+9999REMSYN060AAXX  19211 22438 42970 71102 10096 20090 40081 57006 80004;
0133224380999992000082000004+65190+036820FM-12+001899999V0209999C000019999999N0190001N1+00881+00841100761ADDGF107991001001999999001041MA1999999100551MD1710051+9999REMSYN066AAXX  20001 22438 42969 70000 10088 20084 30055 40076 57005 80004;
0152224380999992000082003004+65190+036820FM-12+001899999V0201201N001010075019N0130001N1+00981+00951100711ADDAA199000091GF107991061051008001031011MD1710051+9999REMSYN070AAXX  20031 22438 32563 71201 10098 20095 40071 57005 86531 333 55117;EQDQ01  00002PRCP99
0165224380999992000082006004+65190+036820FM-12+001899999V0200701N002010075019N0140001N1+01201+01041100731ADDAA199000091GF107991071051008001031001KA1999N+00841MD1310021+9999REMSYN070AAXX  20061 22438 32564 70702 10120 20104 40073 53002 87530 333 20084;EQDQ01  00002PRCP99
0112224380999992000082009004+65190+036820FM-12+001899999V0200701N004010300019N0160001N1+01291+01101100771ADDGF107991041051008001031011MD1210051+9999REMSYN060AAXX  20091 22438 42566 70704 10129 20110 40077 52005 84531;
0127224380999992000082012004+65190+036820FM-12+001899999V0200701N005010075019N0120001N1+01221+01031999999ADDGF107991061011008001031001MA1999999100661MD1210091+9999REMSYN060AAXX  20121 22438 42562 70705 10122 20103 30066 52009 86130;
0112224380999992000082015004+65190+036820FM-12+001899999V0200501N003010075019N0180001N1+01181+00981100961ADDGF106991051011008001031001MD1210091+9999REMSYN060AAXX  20151 22438 42568 60503 10118 20098 40096 52009 85130;
0165224380999992000082018004+65190+036820FM-12+001899999V0200701N002010300019N0200001N1+01001+00851101061ADDAA199000091GF106991021051008001031011KA1999M+01331MD1210101+9999REMSYN070AAXX  20181 22438 32570 60702 10100 20085 40106 52010 82531 333 10133;EQDQ01  00002PRCP99
0112224380999992000082021004+65190+036820FM-12+001899999V0200201N001019999999N0200001N1+01061+00881101091ADDGF107991071001999999031001MD1110031+9999REMSYN060AAXX  20211 22438 42970 70201 10106 20088 40109 51003 87030;
0133224380999992000082100004+65190+036820FM-12+001899999V0209999C000010300019N0200001N1+01051+00851101091ADDGF107991011051008001031001MA1999999100881MD1410001+9999REMSYN066AAXX  21001 22438 42570 70000 10105 20085 30088 40109 54000 81530;
0152224380999992000082103004+65190+036820FM-12+001899999V0200301N001010300019N0220001N1+00961+00731101121ADDAA199000091GF105991031051008001031001MD1310031+9999REMSYN070AAXX  21031 22438 32572 50301 10096 20073 40112 53003 83530 333 55099;EQDQ01  00002PRCP99
0165224380999992000082106004+65190+036820FM-12+001899999V0200701N004012200019N0260001N1+01241+00931101171ADDAA199000091GF103991021021008001031001KA1999N+00941MD1210051+9999REMSYN070AAXX  21061 22438 32576 30704 10124 20093 40117 52005 82230 333 20094;EQDQ01  00002PRCP99
0112224380999992000082109004+65190+036820FM-12+001899999V0200501N006012200019N0270001N1+01351+00981101181ADDGF103991021021008001031001MD1110011+9999REMSYN060AAXX  21091 22438 42577 30506 10135 20098 40118 51001 82230;
0133224380999992000082112004+65190+036820FM-12+001899999V0200601N005010300019N0250001N1+01231+00641101191ADDGF106991031021008001031001MA1999999100981MD1210011+9999REMSYN066AAXX  21121 22438 42575 60605 10123 20064 30098 40119 52001 83230;
0112224380999992000082115004+65190+036820FM-12+001899999V0200601N005010120019N0220001N1+01201+01041101171ADDGF106991061021012501001001MD1810021+9999REMSYN060AAXX  21151 22438 42672 60605 10120 20104 40117 58002 86200;
0165224380999992000082118004+65190+036820FM-12+001899999V0200801N006010300019N0210001N1+01151+01031101171ADDAA199000091GF106991021011008001071001KA1999M+01421MD1410001+9999REMSYN070AAXX  21181 22438 32571 60806 10115 20103 40117 54000 82170 333 10142;EQDQ01  00002PRCP99
0112224380999992000082121004+65190+036820FM-12+001899999V0200801N005010300019N0190001N1+01121+01041101131ADDGF106991011011008001071001MD1810041+9999REMSYN060AAXX  21211 22438 42569 60805 10112 20104 40113 58004 81170;
0133224380999992000082200004+65190+036820FM-12+001899999V0200701N004019999999N0190001N1+01091+01031101111ADDGF107991071001008001071001MA1999999100901MD1610021+9999REMSYN066AAXX  22001 22438 42569 70704 10109 20103 30090 40111 56002 87070;
0152224380999992000082203004+65190+036820FM-12+001899999V0201501N001010075019N0200001N1+00901+00841101101ADDAA199000091GF107991061051008001031011MD1710011+9999REMSYN070AAXX  22031 22438 32570 71501 10090 20084 40110 57001 86531 333 55120;EQDQ01  00002PRCP99
0165224380999992000082206004+65190+036820FM-12+001899999V0201001N001010300019N0210001N1+01381+00891101081ADDAA199000091GF107991011051008001031051KA1999N+00891MD1710021+9999REMSYN070AAXX  22061 22438 32571 71001 10138 20089 40108 57002 81535 333 20089;EQDQ01  00002PRCP99
0112224380999992000082209004+65190+036820FM-12+001899999V0200701N002010750019N0220001N1+01421+01151101071ADDGF106991021021008001001051MD1710011+9999REMSYN060AAXX  22091 22438 42572 60702 10142 20115 40107 57001 82205;
0112224380999992000082215004+65190+036820FM-12+001899999V0200901N001012200019N0280001N1+01481+01061101041ADDGF106991021051008001001011MD1810031+9999REMSYN060AAXX  22151 22438 42578 60901 10148 20106 40104 58003 82501;
0165224380999992000082218004+65190+036820FM-12+001899999V0201001N001010300019N0260001N1+01341+00931101021ADDAA199000091GF107991021051008001031001KA1999M+01651MD1710021+9999REMSYN070AAXX  22181 22438 32576 71001 10134 20093 40102 57002 82530 333 10165;EQDQ01  00002PRCP99
0112224380999992000082221004+65190+036820FM-12+001899999V0201101N001012200019N0260001N1+01201+00921100871ADDGF102991011001999999031011MD1810131+9999REMSYN060AAXX  22211 22438 42976 21101 10120 20092 40087 58013 81031;
0133224380999992000082300004+65190+036820FM-12+001899999V0201201N002012200019N0230001N1+01071+00861100811ADDGF103991021001999999031011MA1999999100601MD1710081+9999REMSYN066AAXX  23001 22438 42973 31202 10107 20086 30060 40081 57008 82031;
0165224380999992000082306004+65190+036820FM-12+001899999V0200901N001019999999N0250001N1+01251+01021100661ADDAA199000091GF106991001001999999001091KA1999N+01051MD1710071+9999REMSYN070AAXX  23061 22438 32975 60901 10125 20102 40066 57007 80009 333 20105;EQDQ01  00002PRCP99
0112224380999992000082309004+65190+036820FM-12+001899999V0200801N006010075019N0260001N1+01311+01121100631ADDGF106991051011008001001091MD1610031+9999REMSYN060AAXX  23091 22438 42576 60806 10131 20112 40063 56003 85109;
0133224380999992000082312004+65190+036820FM-12+001899999V0200701N007012200019N0230001N1+01331+01171100581ADDGF106991031021008001001041MA1999999100381MD1710051+9999REMSYN066AAXX  23121 22438 42573 60707 10133 20117 30038 40058 57005 83204;
0112224380999992000082315004+65190+036820FM-12+001899999V0200701N006012200019N0220001N1+01301+01151100551ADDGF106991021021008001001041MD1710031+9999REMSYN060AAXX  23151 22438 42572 60706 10130 20115 40055 57003 82204;
0165224380999992000082318004+65190+036820FM-12+001899999V0200901N005012200019N0200001N1+01161+01091100361ADDAA199000091GF103991021021008001001011KA1999M+01401MD1310011+9999REMSYN070AAXX  23181 22438 32570 30905 10116 20109 40036 53001 82201 333 10140;EQDQ01  00002PRCP99
0133224380999992000082321004+65190+036820FM-12+001899999V0201001N003012200019N0170001N1+01021+00981100581ADDGF102991011011008001001011MA1999999100371MD1410001+9999REMSYN066AAXX  23211 22438 42567 21003 10102 20098 30037 40058 54000 81101;
0133224380999992000082400004+65190+036820FM-12+001899999V0201001N003012200019N0170001N1+01021+00981100581ADDGF102991011011008001001011MA1999999100371MD1410001+9999REMSYN066AAXX  24001 22438 42567 21003 10102 20098 30037 40058 54000 81101;
0165224380999992000082406004+65190+036820FM-12+001899999V0200801N002010300019N0300001N1+01281+01091100591ADDAA199000091GF106991021051008001031011KA1999N+00971MD1310041+9999REMSYN070AAXX  24061 22438 32580 60802 10128 20109 40059 53004 82531 333 20097;EQDQ01  00002PRCP99
0112224380999992000082409004+65190+036820FM-12+001899999V0200901N005010300019N0260001N1+01301+00991100581ADDGF105991021021008001031001MD1810011+9999REMSYN060AAXX  24091 22438 42576 50905 10130 20099 40058 58001 82230;
0112224380999992000082415004+65190+036820FM-12+001899999V0200801N004012200019N0230001N1+01261+00941100611ADDGF103991011011008001001091MD1310041+9999REMSYN060AAXX  24151 22438 42573 30804 10126 20094 40061 53004 81109;
0165224380999992000082418004+65190+036820FM-12+001899999V0200901N002012200019N0250001N1+01101+00981100631ADDAA199000091GF102991011001999999031011KA1999M+01401MD1210021+9999REMSYN070AAXX  24181 22438 32975 20902 10110 20098 40063 52002 81031 333 10140;EQDQ01  00002PRCP99
0112224380999992000082421004+65190+036820FM-12+001899999V0200901N001019999999N0250001N1+01101+00841100681ADDGF106991061001999999031001MD1210041+9999REMSYN060AAXX  24211 22438 42975 60901 10110 20084 40068 52004 86030;
0133224380999992000082500004+65190+036820FM-12+001899999V0209999C000010300019N0200001N1+01061+00841100731ADDGF106991021051008001031001MA1999999100521MD1210051+9999REMSYN066AAXX  25001 22438 42570 60000 10106 20084 30052 40073 52005 82530;
0152224380999992000082503004+65190+036820FM-12+001899999V0209999C000019999999N0220001N1+01121+00881100771ADDAA199000091GF107991071001999999071001MD1210041+9999REMSYN070AAXX  25031 22438 32972 70000 10112 20088 40077 52004 87070 333 55115;EQDQ01  00002PRCP99
0165224380999992000082506004+65190+036820FM-12+001899999V0200601N003019999999N0240001N1+01301+00991100861ADDAA199000091GF107991071001999999071001KA1999N+01061MD1310091+9999REMSYN070AAXX  25061 22438 32974 70603 10130 20099 40086 53009 87070 333 20106;EQDQ01  00002PRCP99
0112224380999992000082515004+65190+036820FM-12+001899999V0200301N002012200019N0270001N1+01301+01031101261ADDGF102991011021012501031001MD1210121+9999REMSYN060AAXX  25151 22438 42677 20302 10130 20103 40126 52012 81230;
0165224380999992000082518004+65190+036820FM-12+001899999V0200101N003012200019N0220001N1+01111+01041101371ADDAA199000091GF102991001001999999001031KA1999M+01421MD1210111+9999REMSYN070AAXX  25181 22438 32972 20103 10111 20104 40137 52011 80003 333 10142;EQDQ01  00002PRCP99
0122224380999992000082521004+65190+036820FM-12+001899999V0200101N001012200019N0190001N1+01101+01001101471ADDGA1001+999999999GF100991001001999999001001MD1210101+9999REMSYN054AAXX  25211 22438 42969 00101 10110 20100 40147 52010;
0152224380999992000082603004+65190+036820FM-12+001899999V0202201N002012200019N0300001N1+00941+00901101731ADDAA199000091GF101991001001999999001011MD1210151+9999REMSYN070AAXX  26031 22438 32980 12202 10094 20090 40173 52015 80001 333 55093;EQDQ01  00002PRCP99
0147224380999992000082609004+65190+036820FM-12+001899999V0203001N999992200019N0000001N1+01421+01311101841ADDGA1001+999999999GF100991001001999999001001MD1210141+9999REMSYN060AAXX  26091 22438 42600 03038 10142 20131 40184 52014 82201;EQDQ010003803WOSPD 
0112224380999992000082615004+65190+036820FM-12+001899999V0202101N003019999999N0240001N1+01401+00891101801ADDGF107991021001000251031051MD1810091+9999REMSYN060AAXX  26151 22438 4/074 72103 10140 20089 40180 58009 82035;
0165224380999992000082618004+65190+036820FM-12+001899999V0200501N003010300019N0250001N1+01301+01071101811ADDAA199000091GF107991021051008001031011KA1999M+01451MD1310011+9999REMSYN070AAXX  26181 22438 32575 70503 10130 20107 40181 53001 82531 333 10145;EQDQ01  00002PRCP99
0112224380999992000082621004+65190+036820FM-12+001899999V0202401N003012200019N0250001N1+01181+01031101861ADDGF103991031001999999031001MD1310051+9999REMSYN060AAXX  26211 22438 42975 32403 10118 20103 40186 53005 83030;
0133224380999992000082700004+65190+036820FM-12+001899999V0202201N002012200019N0200001N1+01101+00981101891ADDGF102991021001999999031001MA1999999101681MD1210031+9999REMSYN066AAXX  27001 22438 42970 22202 10110 20098 30168 40189 52003 82030;
0152224380999992000082703004+65190+036820FM-12+001899999V0202501N004019999999N0220001N1+01161+01031101931ADDAA199000091GF108991011001999999031041MD1210041+9999REMSYN070AAXX  27031 22438 32972 82504 10116 20103 40193 52004 81034 333 55078;EQDQ01  00002PRCP99
0112224380999992000082715004+65190+036820FM-12+001899999V0202301N006019999999N0240001N1+01471+01131101981ADDGF108991061001999999071041MD1810061+9999REMSYN060AAXX  27151 22438 42974 82306 10147 20113 40198 58006 86074;
0165224380999992000082718004+65190+036820FM-12+001899999V0202401N006012200019N0220001N1+01331+01121101911ADDAA199000091GF103991031001999999071001KA1999M+01661MD1710071+9999REMSYN070AAXX  27181 22438 32972 32406 10133 20112 40191 57007 83070 333 10166;EQDQ01  00002PRCP99
0112224380999992000082721004+65190+036820FM-12+001899999V0202301N007012200019N0210001N1+01211+01071101981ADDGF102991021001999999071001MD1310071+9999REMSYN060AAXX  27211 22438 42971 22307 10121 20107 40198 53007 82070;
0133224380999992000082800004+65190+036820FM-12+001899999V0202401N007019999999N0200001N1+01081+00971102071ADDGF105991051001999999071001MA1999999101861MD1210091+9999REMSYN066AAXX  28001 22438 42970 52407 10108 20097 30186 40207 52009 85070;
0165224380999992000082806004+65190+036820FM-12+001899999V0202101N003019999999N0250001N1+01381+01211102021ADDAA199000091GF106991001001999999001011KA1999N+01051MD1310071+9999REMSYN070AAXX  28061 22438 32975 62103 10138 20121 40202 53007 80001 333 20105;EQDQ01  00002PRCP99
0112224380999992000082809004+65190+036820FM-12+001899999V0202201N006019999999N0260001N1+01431+01221101921ADDGF106991001001999999001011MD1810101+9999REMSYN060AAXX  28091 22438 42976 62206 10143 20122 40192 58010 80001;
0133224380999992000082812004+65190+036820FM-12+001899999V0202201N006019999999N0240001N1+01551+01121101991ADDGF105991001001999999001011MA1999999101781MD1310071+9999REMSYN066AAXX  28121 22438 42974 52206 10155 20112 30178 40199 53007 80001;
0112224380999992000082815004+65190+036820FM-12+001899999V0202301N004012200019N0200001N1+01541+01171101851ADDGF102991001001999999001011MD1810141+9999REMSYN060AAXX  28151 22438 42970 22304 10154 20117 40185 58014 80001;
0165224380999992000082818004+65190+036820FM-12+001899999V0202501N003012200019N0240001N1+01521+01131101881ADDAA199000091GF102991001001999999001011KA1999M+01571MD1310031+9999REMSYN070AAXX  28181 22438 32974 22503 10152 20113 40188 53003 80001 333 10157;EQDQ01  00002PRCP99
0122224380999992000082821004+65190+036820FM-12+001899999V0202401N002012200019N0240001N1+01271+01121101911ADDGA1001+999999999GF100991001001999999001001MD1210031+9999REMSYN054AAXX  28211 22438 42974 02402 10127 20112 40191 52003;
0143224380999992000082900004+65190+036820FM-12+001899999V0202301N003012200019N0270001N1+01101+00971101961ADDGA1001+999999999GF100991001001999999001001MA1999999101751MD1210051+9999REMSYN060AAXX  29001 22438 42977 02303 10110 20097 30175 40196 52005;
0143224380999992000082912004+65190+036820FM-12+001899999V0202201N005012200019N0260001N1+01551+01141101921ADDGA1001+999999999GF100991001001999999001001MA1999999101711MD1810081+9999REMSYN060AAXX  29121 22438 42976 02205 10155 20114 30171 40192 58008;
0112224380999992000082915004+65190+036820FM-12+001899999V0202301N004019999999N0250001N1+01571+01161101871ADDGF106991061001999999071001MD1710051+9999REMSYN060AAXX  29151 22438 42975 62304 10157 20116 40187 57005 86070;
0165224380999992000082918004+65190+036820FM-12+001899999V0202201N003019999999N0230001N1+01341+01161101821ADDAA199000091GF106991061001999999071001KA1999M+01621MD1710051+9999REMSYN070AAXX  29181 22438 32973 62203 10134 20116 40182 57005 86070 333 10162;EQDQ01  00002PRCP99
0112224380999992000082921004+65190+036820FM-12+001899999V0202201N004019999999N0220001N1+01261+01031101771ADDGF105991021001999999031011MD1710051+9999REMSYN060AAXX  29211 22438 42972 52204 10126 20103 40177 57005 82031;
0133224380999992000083000004+65190+036820FM-12+001899999V0202201N003012200019N0190001N1+01191+01051101731ADDGF104991031001999999031011MA1999999101521MD1710041+9999REMSYN066AAXX  30001 22438 42969 42203 10119 20105 30152 40173 57004 83031;
0112224380999992000083009004+65190+036820FM-12+001899999V0202201N005012200019N0190001N1+01461+01201101701ADDGF103991001001999999001011MD1310021+9999REMSYN060AAXX  30091 22438 42969 32205 10146 20120 40170 53002 80001;
0133224380999992000083012004+65190+036820FM-12+001899999V0202301N003012200019N0180001N1+01521+01231101731ADDGF102991011021012501001011MA1999999101621MD1210031+9999REMSYN066AAXX  30121 22438 42668 22303 10152 20123 30162 40173 52003 81201;
0112224380999992000083015004+65190+036820FM-12+001899999V0202201N003012200019N0200001N1+01471+01301101721ADDGF101991011001999999031001MD1810011+9999REMSYN060AAXX  30151 22438 42970 12203 10147 20130 40172 58001 81030;
0165224380999992000083018004+65190+036820FM-12+001899999V0202101N002012200019N0200001N1+01341+01191101731ADDAA199000091GF102991021051008001001001KA1999M+01571MD1310011+9999REMSYN070AAXX  30181 22438 32570 22102 10134 20119 40173 53001 82500 333 10157;EQDQ01  00002PRCP99
0112224380999992000083021004+65190+036820FM-12+001899999V0202101N001012200019N0180001N1+01251+01201101751ADDGF103991031001999999031001MD1210021+9999REMSYN060AAXX  30211 22438 42968 32101 10125 20120 40175 52002 83030;
0133224380999992000083100004+65190+036820FM-12+001899999V0201001N001019999999N0200001N1+01141+01091101761ADDGF105991051001999999031001MA1999999101551MD1210011+9999REMSYN066AAXX  31001 22438 42970 51001 10114 20109 30155 40176 52001 85030;
0152224380999992000083103004+65190+036820FM-12+001899999V0209999C000019999999N0230001N1+01071+00971101691ADDAA199000091GF107991001001999999001041MD1810071+9999REMSYN070AAXX  31031 22438 32973 70000 10107 20097 40169 58007 80004 333 55117;EQDQ01  00002PRCP99
0181224380999992000083106004+65190+036820FM-12+001899999V0202201N002019999999N0250001N1+01361+01111101032ADDAA199000091GF107991021001999999031031KA1999N+01031MD1710061+9999REMSYN070AAXX  31061 22438 32975 72202 10136 20111 40103 57006 82033 333 20103;EQDQ01+101033APOSLPQ02  00002PRCP99
0112224380999992000083109004+65190+036820FM-12+001899999V0202001N005012200019N0250001N1+01571+01211101591ADDGF106991021011012501001041MD1710041+9999REMSYN060AAXX  31091 22438 42675 62005 10157 20121 40159 57004 82104;
0133224380999992000083112004+65190+036820FM-12+001899999V0202101N005012200019N0260001N1+01681+01111101521ADDGF107991021011012501001041MA1999999101321MD1710061+9999REMSYN066AAXX  31121 22438 42676 72105 10168 20111 30132 40152 57006 82104;
0112224380999992000083115004+65190+036820FM-12+001899999V0202001N004010300019N0240001N1+01561+01051101391ADDGF107991021011012501031041MD1810141+9999REMSYN060AAXX  31151 22438 42674 72004 10156 20105 40139 58014 82134;
0165224380999992000083118004+65190+036820FM-12+001899999V0201701N006019999999N0400001N1+01441+01261101331ADDAA199000091GF106991061001999999071011KA1999M+01751MD1610061+9999REMSYN070AAXX  31181 22438 32982 61706 10144 20126 40133 56006 86071 333 10175;EQDQ01  00002PRCP99
0133224380999992000090100004+65190+036820FM-12+001899999V0201801N007019999999N0190001N1+01291+01201101191ADDGF105991031001999999031011MA1999999100981MD1710081+9999REMSYN066AAXX  01001 22438 42969 51807 10129 20120 30098 40119 57008 83031;
0165224380999992000090106004+65190+036820FM-12+001899999V0200901N001010750019N0210001N1+01511+01151100111ADDAA199000091GF107991021021008001001051KA1999N+01261MD1710091+9999REMSYN070AAXX  01061 22438 32571 70901 10151 20115 40011 57009 82205 333 20126;EQDQ01  00002PRCP99
0131224380999992000090109004+65190+036820FM-12+001899999V0201001N002012200019N0230001N1+01751+01361100762ADDGF107991011011008001001041MD1810251+9999REMSYN060AAXX  01091 22438 42573 71002 10175 20136 40076 58025 81104;EQDQ01+100763APOSLP
0133224380999992000090112004+65190+036820FM-12+001899999V0200901N001010075019N0270001N1+01631+01231100661ADDGF107991051011008001031011MA1999999100461MD1610091+9999REMSYN066AAXX  01121 22438 42577 70901 10163 20123 30046 40066 56009 85131;
0112224380999992000090115004+65190+036820FM-12+001899999V0200801N001010300019N0250001N1+01621+00471100471ADDGF107991021051008001031011MD1810191+9999REMSYN060AAXX  01151 22438 42575 70801 10162 20047 40047 58019 82531;
0174224380999992000090118004+65190+036820FM-12+001899999V0200901N002010075019N0180001N1+01321+01211100291ADDAA199000021AY181061AY221061GF108991051051008001031021KA1999M+01861MD1710281+9999MW1251REMSYN076AAXX  01181 22438 31568 80902 10132 20121 40029 57028 72582 85532 333 10186;
0137224380999992000090200004+65190+036820FM-12+001899999V0202201N003010075019N0210001N1+01181+01031100021ADDGF107991071051008001001001MD1210091+9999REMSYN066AAXX  02001 22438 42571 72203 10118 20103 31982 40002 52009 87500;EQDQ01+019821APOSP 
0122224380999992000090203004+65190+036820FM-12+001899999V0202201N002019999999N0180001N1+01331+01251099851ADDGF108991081001999999071999MD1710171+9999REMSYN070AAXX  02031 22438 /2968 82202 10133 20125 49985 57017 8807/ 333 55056;
0180224380999992000090206004+65190+036820FM-12+001899999V0202001N001010075019N0024001N1+01401+01361099781ADDAA100000791AY161061AY221061GF108991081001008001021999KA1999N+01151MD1610081+9999MW1631REMSYN082AAXX  02061 22438 11524 82001 10140 20136 49978 56008 69900 76362 8802/ 333 20115;
0161224380999992000090212004+65190+036820FM-12+001899999V0203001N006010075019N0044001N1+01271+01251099931ADDAY161061AY221061GF108991081051008001999999MA1999999099731MD1210101+9999MW1101REMSYN072AAXX  02121 22438 41544 83006 10127 20125 39973 49993 52010 71062 885//;
0140224380999992000090215004+65190+036820FM-12+001899999V0203101N005010042019N0026001N1+01191+01151100051ADDAY151031AY221031GF108991081061004501999999MD1210121+9999MW1531REMSYN066AAXX  02151 22438 41426 83105 10119 20115 40005 52012 75352 886//;
0180224380999992000090218004+65190+036820FM-12+001899999V0202901N006010075019N0160001N1+01201+01111100251ADDAA100014091AY151061AY221061GF107991071051008001001001KA1999M+01431MD1210101+9999MW1021REMSYN082AAXX  02181 22438 11566 72906 10120 20111 40025 52010 60140 70252 87500 333 10143;
0112224380999992000090221004+65190+036820FM-12+001899999V0202501N005010075019N0150001N1+01251+01111100201ADDGF108991081051008001999999MD1110051+9999REMSYN060AAXX  02211 22438 42565 82505 10125 20111 40020 51005 885//;
0133224380999992000090300004+65190+036820FM-12+001899999V0202501N004010075019N0130001N1+01091+01031100251ADDGF108991081051008001999999MA1999999100041MD1210041+9999REMSYN066AAXX  03001 22438 42563 82504 10109 20103 30004 40025 52004 885//;
0122224380999992000090303004+65190+036820FM-12+001899999V0202401N002012200019N0230001N1+01041+00981100381ADDGF102991011051008001031011MD1310131+9999REMSYN070AAXX  03031 22438 /2573 22402 10104 20098 40038 53013 81531 333 55000;
0152224380999992000090306004+65190+036820FM-12+001899999V0202001N004012200019N0160001N1+01201+01171100441ADDAA100000391GF101991011011008001001001KA1999N+01031MD1210071+9999REMSYN076AAXX  03061 22438 12566 12004 10120 20117 40044 52007 69930 81100 333 20103;
0112224380999992000090309004+65190+036820FM-12+001899999V0202101N004012200019N0180001N1+01321+01151100611ADDGF102991011011008001031001MD1310171+9999REMSYN060AAXX  03091 22438 42568 22104 10132 20115 40061 53017 81130;
0133224380999992000090312004+65190+036820FM-12+001899999V0202101N005012200019N0140001N1+01501+01171100601ADDGF107991011011008001001041MA1999999100401MD1810011+9999REMSYN066AAXX  03121 22438 42564 72105 10150 20117 30040 40060 58001 81104;
0112224380999992000090315004+65190+036820FM-12+001899999V0202101N003010300019N0180001N1+01311+00141100681ADDGF108991021021008001031041MD1310081+9999REMSYN060AAXX  03151 22438 42568 82103 10131 20014 40068 53008 82234;
0165224380999992000090318004+65190+036820FM-12+001899999V0201801N002010300019N0200001N1+01201+00491100691ADDAA199000091GF108991041051008001031011KA1999M+01501MD1110011+9999REMSYN070AAXX  03181 22438 32570 81802 10120 20049 40069 51001 84531 333 10150;EQDQ01  00002PRCP99
0112224380999992000090321004+65190+036820FM-12+001899999V0201901N002010075019N0200001N1+01241+01091100701ADDGF107991071051008001001001MD1210011+9999REMSYN060AAXX  03211 22438 42570 71902 10124 20109 40070 52001 87500;
0133224380999992000090400004+65190+036820FM-12+001899999V0201901N002010075019N0220001N1+01181+01031100681ADDGF106991061051008001001001MA1999999100481MD1810021+9999REMSYN066AAXX  04001 22438 42572 61902 10118 20103 30048 40068 58002 86500;
0150224380999992000090403004+65190+036820FM-12+001899999V0201801N002010075019N0100001N1+01121+01051100611ADDAY181031AY221031GF108991081091008001999999MD1710071+9999MW1801REMSYN076AAXX  04031 22438 /1560 81802 10112 20105 40061 57007 78082 889// 333 55114;
0180224380999992000090406004+65190+036820FM-12+001899999V0201901N001010075019N0160001N1+01181+01121100531ADDAA100001091AY181061AY221061GF108991081091008001999999KA1999N+01101MD1710081+9999MW1021REMSYN082AAXX  04061 22438 11566 81901 10118 20112 40053 57008 69990 70282 889// 333 20110;
0140224380999992000090409004+65190+036820FM-12+001899999V0200401N001010075019N0070001N1+01131+01111100651ADDAY181031AY221031GF108991081091008001999999MD1310111+9999MW1801REMSYN066AAXX  04091 22438 41557 80401 10113 20111 40065 53011 78082 889//;
0161224380999992000090412004+65190+036820FM-12+001899999V0200401N002010075019N0060001N1+01151+01131100601ADDAY181061AY221061GF108991081091008001999999MA1999999100401MD1810041+9999MW1801REMSYN072AAXX  04121 22438 41556 80402 10115 20113 30040 40060 58004 78082 889//;
0140224380999992000090415004+65190+036820FM-12+001899999V0200501N003010075019N0050001N1+00971+00951100611ADDAY181031AY221031GF108991081091008001999999MD1410001+9999MW1801REMSYN066AAXX  04151 22438 41550 80503 10097 20095 40061 54000 78082 889//;
0180224380999992000090418004+65190+036820FM-12+001899999V0203601N003010075019N0060001N1+00911+00861100601ADDAA100011991AY181061AY221061GF108991081091008001999999KA1999M+01201MD1810011+9999MW1801REMSYN082AAXX  04181 22438 11556 83603 10091 20086 40060 58001 60120 78082 889// 333 10120;
0140224380999992000090421004+65190+036820FM-12+001899999V0203401N005012200019N0200001N1+00821+00761100541ADDAY181031AY211031GF101991001001999999001011MD1710061+9999MW1021REMSYN066AAXX  04211 22438 41970 13405 10082 20076 40054 57006 70281 80001;
0171224380999992000090500004+65190+036820FM-12+001899999V0203501N006012200019N0100001N1+00751+00671100471ADDAY181061AY211061GA1001+999999999GF100991001001999999001001MA1999999100261MD1710071+9999MW1021REMSYN066AAXX  05001 22438 41960 03506 10075 20067 30026 40047 57007 70281;
0116224380999992000090503004+65190+036820FM-12+001899999V0203601N006010075019N0230001N1+00921+00801999999ADDGF107991061051008001001011MD1310081+9999REMSYN064AAXX  05031 22438 /2573 73606 10092 20080 53008 86501 333 55000;
0133224380999992000090512004+65190+036820FM-12+001899999V0200301N007010075019N0270001N1+01081+00581100671ADDGF107991061051008001001011MA1999999100461MD1210081+9999REMSYN066AAXX  05121 22438 42577 70307 10108 20058 30046 40067 52008 86501;
0112224380999992000090515004+65190+036820FM-12+001899999V0200301N005010075019N0260001N1+01051+00481100741ADDGF107991051051008001001041MD1210071+9999REMSYN060AAXX  05151 22438 42576 70305 10105 20048 40074 52007 85504;
0193224380999992000090518004+65190+036820FM-12+001899999V0200401N008010075019N0230001N1+00961+00511100851ADDAA199000091AY181061AY221061GF107991061051008001001011KA1999M+01091MD1210111+9999MW1021REMSYN076AAXX  05181 22438 31573 70408 10096 20051 40085 52011 70282 86501 333 10109;EQDQ01  00002PRCP99
0131224380999992000090521004+65190+036820FM-12+001899999V0200301N009010075019N0200001N1+00901+00551100941ADDGF106991999051008001001001MD1210091+9999REMSYN060AAXX  05211 22438 42570 60309 10090 20055 40094 52009 85500;EQDQ01+000052SCOTLC
0133224380999992000090600004+65190+036820FM-12+001899999V0200401N007012200019N0200001N1+00781+00481101011ADDGF105991031051008001001011MA1999999100801MD1210071+9999REMSYN066AAXX  06001 22438 42570 50407 10078 20048 30080 40101 52007 83501;
0122224380999992000090603004+65190+036820FM-12+001899999V0200501N007010075019N0230001N1+00761+00461101071ADDGF107991061011008001001011MD1210061+9999REMSYN070AAXX  06031 22438 /2573 70507 10076 20046 40107 52006 86101 333 55038;
0152224380999992000090606004+65190+036820FM-12+001899999V0200501N007010075019N0240001N1+00761+00451101101ADDAA100000191GF107991071011008001001001KA1999N+00731MD1110031+9999REMSYN076AAXX  06061 22438 12574 70507 10076 20045 40110 51003 69910 87100 333 20073;
0140224380999992000090609004+65190+036820FM-12+001899999V0203601N007010075019N0230001N1+00751+00451101161ADDAY181031AY221031GF107991071091008001001001MD1310061+9999MW1021REMSYN066AAXX  06091 22438 41573 73607 10075 20045 40116 53006 70282 87900;
0180224380999992000090618004+65190+036820FM-12+001899999V0203301N007010075019N0090001N1+00721+00561101131ADDAA100000891AY181061AY231061GF107991061091008001071001KA1999M+00781MD1810041+9999MW1801REMSYN082AAXX  06181 22438 11559 73307 10072 20056 40113 58004 69980 78083 86970 333 10078;
0140224380999992000090621004+65190+036820FM-12+001899999V0203501N002010075019N0170001N1+00671+00581101271ADDAY181031AY221031GF108991061091008001071001MD1310051+9999MW1801REMSYN066AAXX  06211 22438 41567 83502 10067 20058 40127 53005 78082 86970;
0161224380999992000090700004+65190+036820FM-12+001899999V0203601N001010075019N0200001N1+00591+00451101301ADDAY181061AY221061GF107991051021008001071001MA1999999101091MD1110031+9999MW1021REMSYN072AAXX  07001 22438 41570 73601 10059 20045 30109 40130 51003 70282 85270;
0122224380999992000090703004+65190+036820FM-12+001899999V0200401N003010075019N0220001N1+00621+00361101401ADDGF107991061051008001031001MD1310101+9999REMSYN070AAXX  07031 22438 /2572 70403 10062 20036 40140 53010 86530 333 55007;
0152224380999992000090706004+65190+036820FM-12+001899999V0200401N003010075019N0250001N1+00781+00341101531ADDAA100007191GF107991061011008001031011KA1999N+00551MD1210131+9999REMSYN076AAXX  07061 22438 12575 70403 10078 20034 40153 52013 60070 86131 333 20055;
0112224380999992000090715004+65190+036820FM-12+001899999V0203201N001010075019N0260001N1+00801+00251101841ADDGF108991051051008001001041MD1210061+9999REMSYN060AAXX  07151 22438 42576 83201 10080 20025 40184 52006 85504;
0152224380999992000090718004+65190+036820FM-12+001899999V0202901N001010300019N0250001N1+00781+00291101931ADDAA100000391GF107991031051008001031041KA1999M+00831MD1210071+9999REMSYN076AAXX  07181 22438 11575 72901 10078 20029 40193 52007 69930 83534 333 10083;
0112224380999992000090721004+65190+036820FM-12+001899999V0209999C000019999999N0150001N1+00691+00331101951ADDGF105991051001999999041001MD1110091+9999REMSYN060AAXX  07211 22438 42965 50000 10069 20033 40195 51009 85040;
0133224380999992000090800004+65190+036820FM-12+001899999V0209999C000019999999N0280001N1+00671+00501101941ADDGF106991051001999999041011MA1999999101751MD1410001+9999REMSYN066AAXX  08001 22438 42978 60000 10067 20050 30175 40194 54000 85041;
0184224380999992000090803004+65190+036820FM-12+001899999V0209999C000010300019N0250001N1+00711+00291999999ADDAA199000091GF106991041021008001031011MD1310061+9999REMSYN070AAXX  08031 22438 32575 60000 10071 20029 40020 53006 84231 333 55008;EQDQ01+100203APOSLPQ02  00002PRCP99Q03 100203APOSLP
0181224380999992000090806004+65190+036820FM-12+001899999V0200101N001012200019N0280001N1+00891+00431102002ADDAA199000091GF102991011001999999031011KA1999N+00701MD1410001+9999REMSYN070AAXX  08061 22438 32978 20101 10089 20043 40200 54000 81031 333 20070;EQDQ01+102003APOSLPQ02  00002PRCP99
0112224380999992000090809004+65190+036820FM-12+001899999V0202001N004012200019N0300001N1+01071+00361101961ADDGF103991021011008001001011MD1810041+9999REMSYN060AAXX  08091 22438 42580 32004 10107 20036 40196 58004 82101;
0133224380999992000090812004+65190+036820FM-12+001899999V0202201N006012200019N0350001N1+01071+00531101921ADDGF105991021011012501001011MA1999999101711MD1710041+9999REMSYN066AAXX  08121 22438 42681 52206 10107 20053 30171 40192 57004 82101;
0112224380999992000090815004+65190+036820FM-12+001899999V0202201N006012200019N0300001N1+00931+00531101751ADDGF107991021011012501001041MD1710171+9999REMSYN060AAXX  08151 22438 42680 72206 10093 20053 40175 57017 82104;
0135224380999992000090818004+65190+036820FM-12+001899999V0201601N006019999999N0270001N1+00781+00411101601ADDGF105991011001999999031041KA1999M+01091MD1710151+9999REMSYN070AAXX  08181 22438 42977 51606 10078 20041 40160 57015 81034 333 10109;
0112224380999992000090821004+65190+036820FM-12+001899999V0201801N007019999999N0210001N1+00931+00811101451ADDGF107991041001999999071041MD1710151+9999REMSYN060AAXX  08211 22438 42971 71807 10093 20081 40145 57015 84074;
0133224380999992000090900004+65190+036820FM-12+001899999V0201801N008019999999N0200001N1+01001+00921101291ADDGF107991051001999999071041MA1999999101081MD1710161+9999REMSYN066AAXX  09001 22438 42970 71808 10100 20092 30108 40129 57016 85074;
0152224380999992000090903004+65190+036820FM-12+001899999V0201601N007019999999N0180001N1+00941+00811101051ADDAA199000091GF107991071001999999051001MD1710241+9999REMSYN070AAXX  09031 22438 32968 71607 10094 20081 40105 57024 87050 333 55101;EQDQ01  00002PRCP99
0174224380999992000090906004+65190+036820FM-12+001899999V0201801N008010075019N0100001N1+00961+00881100821ADDAA199000021AY181061AY221061GF108991051091008001051999KA1999N+00761MD1710231+9999MW1801REMSYN076AAXX  09061 22438 31560 81808 10096 20088 40082 57023 78082 8595/ 333 20076;
0140224380999992000090909004+65190+036820FM-12+001899999V0201701N009010075019N0100001N1+00961+00771100601ADDAY181031AY221031GF108991061091008001071999MD1710221+9999MW1801REMSYN066AAXX  09091 22438 41560 81709 10096 20077 40060 57022 78082 8697/;
0161224380999992000090912004+65190+036820FM-12+001899999V0201801N007010042019N0070001N1+00941+00881100481ADDAY181061AY261061GF108991081001004501021999MA1999999100271MD1610121+9999MW1611REMSYN072AAXX  09121 22438 41457 81807 10094 20088 30027 40048 56012 76186 8802/;
0140224380999992000090915004+65190+036820FM-12+001899999V0201701N004010075019N0150001N1+00981+00921100331ADDAY161031AY221031GF108991081051008001999999MD1710151+9999MW1211REMSYN066AAXX  09151 22438 41565 81704 10098 20092 40033 57015 72162 885//;
0180224380999992000090918004+65190+036820FM-12+001899999V0201801N003010075019N0130001N1+01001+00941100181ADDAA100002091AY181061AY261061GF108991081051008001999999KA1999M+00981MD1710151+9999MW1251REMSYN082AAXX  09181 22438 11563 81803 10100 20094 40018 57015 60020 72586 885// 333 10098;
0112224380999992000090921004+65190+036820FM-12+001899999V0201901N002010075019N0150001N1+01021+01001100091ADDGF107991071051008001001001MD1610091+9999REMSYN060AAXX  09211 22438 42565 71902 10102 20100 40009 56009 87500;
0161224380999992000091000004+65190+036820FM-12+001899999V0202001N002010075019N0150001N1+00991+00951100091ADDAY181061AY221061GF107991071051008001001001MA1999999099881MD1410001+9999MW1021REMSYN072AAXX  10001 22438 41565 72002 10099 20095 39988 40009 54000 70282 87500;
0122224380999992000091003004+65190+036820FM-12+001899999V0202101N002019999999N0210001N1+01031+00951100021ADDGF107991021001999999031041MD1810071+9999REMSYN070AAXX  10031 22438 /2971 72102 10103 20095 40002 58007 82034 333 55000;
0152224380999992000091006004+65190+036820FM-12+001899999V0202201N001010075019N0200001N1+01181+01001099991ADDAA100004191GF107991061051008001071001KA1999N+00981MD1610031+9999REMSYN076AAXX  10061 22438 12570 72201 10118 20100 49999 56003 60040 86570 333 20098;
0112224380999992000091009004+65190+036820FM-12+001899999V0202001N003010300019N0210001N1+01171+01021099991ADDGF107991021021008001071001MD1410001+9999REMSYN060AAXX  10091 22438 42571 72003 10117 20102 49999 54000 82270;
0133224380999992000091012004+65190+036820FM-12+001899999V0202001N005012200019N0250001N1+01211+01021100001ADDGF103991021021008001031001MA1999999099791MD1310011+9999REMSYN066AAXX  10121 22438 42575 32005 10121 20102 39979 40000 53001 82230;
0112224380999992000091015004+65190+036820FM-12+001899999V0202301N003010075019N0270001N1+01071+00861099961ADDGF107991051011008001031011MD1810041+9999REMSYN060AAXX  10151 22438 42577 72303 10107 20086 49996 58004 85131;
0165224380999992000091018004+65190+036820FM-12+001899999V0201801N005010075019N0210001N1+01001+00841099901ADDAA199000091GF107991061051008001071001KA1999M+01221MD1710061+9999REMSYN070AAXX  10181 22438 32571 71805 10100 20084 49990 57006 86570 333 10122;EQDQ01  00002PRCP99
0140224380999992000091021004+65190+036820FM-12+001899999V0201901N001010075019N0190001N1+00911+00821099781ADDAY181031AY221031GF107991051091008001071001MD1810121+9999MW1251REMSYN066AAXX  10211 22438 41569 71901 10091 20082 49978 58012 72582 85970;
0161224380999992000091100004+65190+036820FM-12+001899999V0201901N001010300019N0200001N1+00851+00741099651ADDAY181061AY221061GF106991041091008001071011MA1999999099441MD1710131+9999MW1021REMSYN072AAXX  11001 22438 41570 61901 10085 20074 39944 49965 57013 70282 84971;
0112224380999992000091109004+65190+036820FM-12+001899999V0203401N001010075019N0260001N1+01091+00991099751ADDGF107991061011008001031001MD1310041+9999REMSYN060AAXX  11091 22438 42576 73401 10109 20099 49975 53004 86130;
0112224380999992000091115004+65190+036820FM-12+001899999V0200401N001010075019N0250001N1+01081+00841099901ADDGF107991051021008001031011MD1210061+9999REMSYN060AAXX  11151 22438 42575 70401 10108 20084 49990 52006 85231;
0165224380999992000091118004+65190+036820FM-12+001899999V0200701N001010075019N0230001N1+00981+00851099921ADDAA199000091GF107991071011008001001001KA1999M+01161MD1110021+9999REMSYN070AAXX  11181 22438 32573 70701 10098 20085 49992 51002 87100 333 10116;EQDQ01  00002PRCP99
0112224380999992000091121004+65190+036820FM-12+001899999V0200601N003010075019N0210001N1+00991+00651099931ADDGF108991081051008001999999MD1210011+9999REMSYN060AAXX  11211 22438 42571 80603 10099 20065 49993 52001 885//;
0133224380999992000091200004+65190+036820FM-12+001899999V0200701N004010075019N0200001N1+00941+00681099941ADDGF107991071051008001001001MA1999999099721MD1210011+9999REMSYN066AAXX  12001 22438 42570 70704 10094 20068 39972 49994 52001 87500;
0150224380999992000091203004+65190+036820FM-12+001899999V0200601N007010042019N0026001N1+00901+00881100081ADDAY181031AY221031GF108991081091004501999999MD1310151+9999MW1811REMSYN076AAXX  12031 22438 /1426 80607 10090 20088 40008 53015 78182 889// 333 55010;
0180224380999992000091206004+65190+036820FM-12+001899999V0200701N008010150019N0019001N1+00921+00811100281ADDAA100007191AY181061AY221061GF107991051091017501071001KA1999N+00891MD1210201+9999MW1251REMSYN082AAXX  12061 22438 11719 70708 10092 20081 40028 52020 60070 72582 85970 333 20089;
0133224380999992000091212004+65190+036820FM-12+001899999V0200601N006019999999N0230001N1+01001+00641100511ADDGF107991071001999999071001MA1999999100301MD1210151+9999REMSYN066AAXX  12121 22438 42973 70606 10100 20064 30030 40051 52015 87070;
0152224380999992000091218004+65190+036820FM-12+001899999V0200501N005019999999N0210001N1+00821+00591100711ADDAA100005191GF107991071001999999071001KA1999M+01031MD1210091+9999REMSYN076AAXX  12181 22438 12971 70505 10082 20059 40071 52009 60050 87070 333 10103;
0112224380999992000091221004+65190+036820FM-12+001899999V0200701N004012200019N0220001N1+00811+00411100781ADDGF102991011001999999031011MD1210071+9999REMSYN060AAXX  12211 22438 42972 20704 10081 20041 40078 52007 81031;
0133224380999992000091300004+65190+036820FM-12+001899999V0200701N004012200019N0210001N1+00771+00431100861ADDGF102991021001999999031001MA1999999100651MD1210081+9999REMSYN066AAXX  13001 22438 42971 20704 10077 20043 30065 40086 52008 82030;
0150224380999992000091303004+65190+036820FM-12+001899999V0209999C000010075019N0100001N1+00791+00481100991ADDAY181031AY211031GF108991071091008001031999MD1210131+9999MW1801REMSYN076AAXX  13031 22438 /1560 80000 10079 20048 40099 52013 78081 8793/ 333 55004;
0140224380999992000091309004+65190+036820FM-12+001899999V0200201N003010075019N0260001N1+00881+00341101221ADDAY181031AY221031GF107991071011008001001001MD1210121+9999MW1021REMSYN066AAXX  13091 22438 41576 70203 10088 20034 40122 52012 70282 87100;
0161224380999992000091312004+65190+036820FM-12+001899999V0200201N002010075019N0230001N1+00821+00431101351ADDAY181061AY221061GF107991061011008001031001MA1999999101141MD1210131+9999MW1151REMSYN072AAXX  13121 22438 41573 70202 10082 20043 30114 40135 52013 71582 86130;
0140224380999992000091315004+65190+036820FM-12+001899999V0200301N003010075019N0100001N1+00691+00491101421ADDAY181031AY221031GF107991071091008001001001MD1210071+9999MW1801REMSYN066AAXX  13151 22438 41560 70303 10069 20049 40142 52007 78082 87900;
0180224380999992000091318004+65190+036820FM-12+001899999V0200301N003010075019N0200001N1+00761+00361101511ADDAA100006191AY181061AY221061GF106991061011008001001001KA1999M+00911MD1310091+9999MW1021REMSYN082AAXX  13181 22438 11570 60303 10076 20036 40151 53009 60060 70282 86100 333 10091;
0112224380999992000091321004+65190+036820FM-12+001899999V0200201N003010075019N0210001N1+00681+00271101571ADDGF106991061011008001001001MD1210061+9999REMSYN060AAXX  13211 22438 42571 60203 10068 20027 40157 52006 86100;
0133224380999992000091400004+65190+036820FM-12+001899999V0200201N004010075019N0230001N1+00601+00231101621ADDGF105991051051008001001001MA1999999101411MD1210051+9999REMSYN066AAXX  14001 22438 42573 50204 10060 20023 30141 40162 52005 85500;
0122224380999992000091403004+65190+036820FM-12+001899999V0200201N007010075019N0240001N1+00561+00161101641ADDGF107991071011008001001001MD1110021+9999REMSYN070AAXX  14031 22438 /2574 70207 10056 20016 40164 51002 87100 333 55042;
0152224380999992000091406004+65190+036820FM-12+001899999V0200201N007010042019N0250001N1+00671+00211101751ADDAA100000791GF106991061011004501001001KA1999N+00551MD1310111+9999REMSYN076AAXX  14061 22438 12475 60207 10067 20021 40175 53011 69900 86100 333 20055;
0180224380999992000091418004+65190+036820FM-12+001899999V0200301N009010075019N0230001N1+00591+00191101881ADDAA100000791AY181061AY221061GF107991071091008001001001KA1999M+00831MD1310061+9999MW1021REMSYN082AAXX  14181 22438 11573 70309 10059 20019 40188 53006 69900 70282 87900 333 10083;
0112224380999992000091421004+65190+036820FM-12+001899999V0200301N008010075019N0240001N1+00551+00061101931ADDGF107991061091008001071001MD1210051+9999REMSYN060AAXX  14211 22438 42574 70308 10055 20006 40193 52005 86970;
0133224380999992000091500004+65190+036820FM-12+001899999V0200201N008010075019N0210001N1+00501+00111101991ADDGF107991061091008001071001MA1999999101781MD1210061+9999REMSYN066AAXX  15001 22438 42571 70208 10050 20011 30178 40199 52006 86970;
0150224380999992000091503004+65190+036820FM-12+001899999V0200301N006010075019N0200001N1+00621+00311102041ADDAY181031AY221031GF106991061051008001001001MD1210051+9999MW1251REMSYN076AAXX  15031 22438 /1570 60306 10062 20031 40204 52005 72582 86500 333 55000;
0180224380999992000091506004+65190+036820FM-12+001899999V0200501N007010075019N0230001N1+00681+00321102141ADDAA100000391AY181061AY221061GF107991071011008001001001KA1999N+00481MD1310101+9999MW1021REMSYN082AAXX  15061 22438 11573 70507 10068 20032 40214 53010 69930 70282 87100 333 20048;
0112224380999992000091515004+65190+036820FM-12+001899999V0200301N002010075019N0300001N1+00741+00131102311ADDGF107991071011008001001001MD1410001+9999REMSYN060AAXX  15151 22438 42580 70302 10074 20013 40231 54000 87100;
0165224380999992000091518004+65190+036820FM-12+001899999V0203601N001010075019N0250001N1+00651+00041102321ADDAA199000091GF107991071051008001001001KA1999M+00791MD1310011+9999REMSYN070AAXX  15181 22438 32575 73601 10065 20004 40232 53001 87500 333 10079;EQDQ01  00002PRCP99
0112224380999992000091521004+65190+036820FM-12+001899999V0209999C000010075019N0220001N1+00681-00021102341ADDGF107991071011008001001001MD1210021+9999REMSYN060AAXX  15211 22438 42572 70000 10068 21002 40234 52002 87100;
0133224380999992000091600004+65190+036820FM-12+001899999V0209999C000010075019N0260001N1+00681+00111102371ADDGF107991071011008001001001MA1999999102161MD1210031+9999REMSYN066AAXX  16001 22438 42576 70000 10068 20011 30216 40237 52003 87100;
0140224380999992000091609004+65190+036820FM-12+001899999V0202201N006012200019N0260001N1+00871-00021102231ADDAY181031AY211031GF103991031001999999031001MD1810061+9999MW1021REMSYN066AAXX  16091 22438 41976 32206 10087 21002 40223 58006 70281 83030;
0112224380999992000091615004+65190+036820FM-12+001899999V0202101N005012200019N0250001N1+00691+00231101921ADDGF101991011001999999031001MD1710181+9999REMSYN060AAXX  16151 22438 42975 12105 10069 20023 40192 57018 81030;
0152224380999992000091618004+65190+036820FM-12+001899999V0201801N005012200019N0240001N1+00601+00341101821ADDAA100000791GF101991011001999999031001KA1999M+00901MD1610101+9999REMSYN076AAXX  16181 22438 12974 11805 10060 20034 40182 56010 69900 81030 333 10090;
0122224380999992000091621004+65190+036820FM-12+001899999V0200401N006012200019N0220001N1+00531+00311101741ADDGA1001+999999999GF100991001001999999001001MD1710081+9999REMSYN054AAXX  16211 22438 42972 00406 10053 20031 40174 57008;
0133224380999992000091700004+65190+036820FM-12+001899999V0200501N007012200019N0210001N1+00491+00351101671ADDGF101991011001999999031001MA1999999101461MD1710071+9999REMSYN066AAXX  17001 22438 42971 10507 10049 20035 30146 40167 57007 81030;
0112224380999992000091715004+65190+036820FM-12+001899999V0202301N006019999999N0240001N1+00821+00411101211ADDGF107991071001999999071001MD1710141+9999REMSYN060AAXX  17151 22438 42974 72306 10082 20041 40121 57014 87070;
0165224380999992000091718004+65190+036820FM-12+001899999V0202201N005019999999N0210001N1+00901+00581101191ADDAA199000091GF107991071001999999071001KA1999M+00891MD1610011+9999REMSYN070AAXX  17181 22438 32971 72205 10090 20058 40119 56001 87070 333 10089;EQDQ01  00002PRCP99
0112224380999992000091721004+65190+036820FM-12+001899999V0202601N006019999999N0220001N1+00861+00581101241ADDGF108991081001999999051999MD1310051+9999REMSYN060AAXX  17211 22438 42972 82606 10086 20058 40124 53005 8805/;
0133224380999992000091800004+65190+036820FM-12+001899999V0202401N005019999999N0200001N1+00781+00531101311ADDGF107991071001999999051999MA1999999101101MD1210071+9999REMSYN066AAXX  18001 22438 42970 72405 10078 20053 30110 40131 52007 8705/;
0165224380999992000091806004+65190+036820FM-12+001899999V0202701N003019999999N0250001N1+01011+00761101401ADDAA199000091GF107991071001999999051001KA1999N+00771MD1310091+9999REMSYN070AAXX  18061 22438 32975 72703 10101 20076 40140 53009 87050 333 20077;EQDQ01  00002PRCP99
0112224380999992000091815004+65190+036820FM-12+001899999V0202401N002010300019N0260001N1+01071+00821101501ADDGF107991021051008001051001MD1310031+9999REMSYN060AAXX  18151 22438 42576 72402 10107 20082 40150 53003 82550;
0165224380999992000091818004+65190+036820FM-12+001899999V0202401N003019999999N0240001N1+01021+00801101521ADDAA199000091GF106991061001999999031001KA1999M+01081MD1210021+9999REMSYN070AAXX  18181 22438 32974 62403 10102 20080 40152 52002 86030 333 10108;EQDQ01  00002PRCP99
0112224380999992000091821004+65190+036820FM-12+001899999V0202401N004019999999N0220001N1+00851+00721101481ADDGF107991071051999999001001MD1810041+9999REMSYN060AAXX  18211 22438 42972 72404 10085 20072 40148 58004 87500;
0152224380999992000091903004+65190+036820FM-12+001899999V0202801N009019999999N0220001N1+00841+00651101511ADDAA199000091GF106991061001999999071011MD1310031+9999REMSYN070AAXX  19031 22438 32972 62809 10084 20065 40151 53003 86071 333 55011;EQDQ01  00002PRCP99
0133224380999992000091912004+65190+036820FM-12+001899999V0202601N008019999999N0230001N1+01041+00681101571ADDGF107991071001999999071001MA1999999101361MD1410001+9999REMSYN066AAXX  19121 22438 42973 72608 10104 20068 30136 40157 54000 87070;
0112224380999992000091915004+65190+036820FM-12+001899999V0202701N007019999999N0220001N1+01001+00681101501ADDGF107991061001999999071041MD1810071+9999REMSYN060AAXX  19151 22438 42972 72707 10100 20068 40150 58007 86074;
0165224380999992000091918004+65190+036820FM-12+001899999V0202601N008019999999N0210001N1+00931+00671101321ADDAA199000091GF108991081001999999051999KA1999M+01211MD1710181+9999REMSYN070AAXX  19181 22438 32971 82608 10093 20067 40132 57018 8805/ 333 10121;EQDQ01  00002PRCP99
0112224380999992000091921004+65190+036820FM-12+001899999V0202601N013019999999N0300001N1+00821+00701101091ADDGF108991081001999999051999MD1810231+9999REMSYN060AAXX  19211 22438 42980 82613 10082 20070 40109 58023 8805/;
0127224380999992000092000004+65190+036820FM-12+001899999V0202601N014019999999N0190001N1+99999+99999100811ADDGF108991081001999999051999MA1999999100601MD1710281+9999REMSYN060AAXX  20001 22438 42969 82614 20071 30060 40081 57028 8805/;
0152224380999992000092003004+65190+036820FM-12+001899999V0203401N012010075019N0210001N1+00771+00641101201ADDAA199000091GF107991071051008001001001MD1310331+9999REMSYN070AAXX  20031 22438 32571 73412 10077 20064 40120 53033 87500 333 55003;EQDQ01  00002PRCP99
0133224380999992000092012004+65190+036820FM-12+001899999V0203501N011010075019N0250001N1+00771+00381102641ADDGF106991061011008001001001MA1999999102431MD1210431+9999REMSYN066AAXX  20121 22438 42575 63511 10077 20038 30243 40264 52043 86100;
0112224380999992000092015004+65190+036820FM-12+001899999V0203501N011010075019N0230001N1+00751+00381102801ADDGF106991061011008001001001MD1310161+9999REMSYN060AAXX  20151 22438 42573 63511 10075 20038 40280 53016 86100;
0174224380999992000092018004+65190+036820FM-12+001899999V0200201N006010075019N0110001N1+00641+00411102921ADDAA199000021AY181061AY221061GF107991061091008001031001KA1999M+00791MD1210111+9999MW1801REMSYN076AAXX  20181 22438 31561 70206 10064 20041 40292 52011 78082 86930 333 10079;
0140224380999992000092021004+65190+036820FM-12+001899999V0200801N002010075019N0180001N1+00511+00291102971ADDAY181031AY221031GF106991051091008001071001MD1110051+9999MW1021REMSYN066AAXX  20211 22438 41568 60802 10051 20029 40297 51005 70282 85970;
0180224380999992000092100004+65190+036820FM-12+001899999V0200801N001010075019N0190001N1+00461+00311999999ADDAY181061AY221061GF106991051011008001071001MA1999999102781MD1210031+9999MW1021REMSYN072AAXX  21001 22438 41569 60801 10046 20031 30278 40200 52003 70282 85170;EQDQ01+102003APOSLP
0122224380999992000092103004+65190+036820FM-12+001899999V0201601N001010075019N0210001N1+00541+00481103051ADDGF107991061051008001001011MD1210051+9999REMSYN070AAXX  21031 22438 /2571 71601 10054 20048 40305 52005 86501 333 55040;
0180224380999992000092106004+65190+036820FM-12+001899999V0201701N002010075019N0230001N1+00601+00441103051ADDAA100000591AY181061AY221061GF107991051051008001031011KA1999N+00461MD1410001+9999MW1031REMSYN082AAXX  21061 22438 11573 71702 10060 20044 40305 54000 69940 70382 85531 333 20046;
0112224380999992000092109004+65190+036820FM-12+001899999V0202101N002010300019N0220001N1+00741+00061103031ADDGF107991011051008001071999MD1810011+9999REMSYN060AAXX  21091 22438 42572 72102 10074 20006 40303 58001 8157/;
0133224380999992000092112004+65190+036820FM-12+001899999V0202301N004010300019N0230001N1+00781+00121102841ADDGF108991011051008001071999MA1999999102051MD1810191+9999REMSYN066AAXX  21121 22438 42573 82304 10078 20012 30205 40284 58019 8157/;
0171224380999992000092118004+65190+036820FM-12+001899999V0202901N002010075019N0200001N1+00901+00481102641ADDAA100000391GF107991071051008001001001KA1999M+99999MD1610061+9999REMSYN076AAXX  21181 22438 12570 72902 10090 20048 40264 56006 69930 87500 333 10083;EQDQ01 +00832ATMX  
0112224380999992000092121004+65190+036820FM-12+001899999V0202901N002010075019N0220001N1+00901+00671102641ADDGF107991071051008001001001MD1410001+9999REMSYN060AAXX  21211 22438 42572 72902 10090 20067 40264 54000 87500;
0133224380999992000092200004+65190+036820FM-12+001899999V0202801N001010075019N0240001N1+00861+00661102661ADDGF106991061051008001031001MA1999999102451MD1310021+9999REMSYN066AAXX  22001 22438 42574 62801 10086 20066 30245 40266 53002 86530;
0152224380999992000092203004+65190+036820FM-12+001899999V0203001N002019999999N0300001N1+00871+00641102671ADDAA199000091GF107991071001999999071001MD1110011+9999REMSYN070AAXX  22031 22438 32980 73002 10087 20064 40267 51001 87070 333 55009;EQDQ01  00002PRCP99
0165224380999992000092206004+65190+036820FM-12+001899999V0203201N001019999999N0250001N1+00891+00611102721ADDAA199000091GF107991071001999999071001KA1999N+00841MD1310051+9999REMSYN070AAXX  22061 22438 32975 73201 10089 20061 40272 53005 87070 333 20084;EQDQ01  00002PRCP99
0133224380999992000092212004+65190+036820FM-12+001899999V0202601N003010300019N0250001N1+01051+00821102931ADDGF106991031021008001071001MA1999999102821MD1210101+9999REMSYN066AAXX  22121 22438 42575 62603 10105 20082 30282 40293 52010 83270;
0131224380999992000092215004+65190+036820FM-12+001899999V0202401N004012200019N0230001N1+00931+00441103001ADDGF104991999051999999071001MD1210071+9999REMSYN060AAXX  22151 22438 42973 42404 10093 20044 40300 52007 85570;EQDQ01+000052SCOTLC
0165224380999992000092218004+65190+036820FM-12+001899999V0202301N004010075019N0220001N1+00921+00761102901ADDAA199000091GF106991051051008001071001KA1999M+01071MD1810101+9999REMSYN070AAXX  22181 22438 32572 62304 10092 20076 40290 58010 85570 333 10107;EQDQ01  00002PRCP99
0112224380999992000092221004+65190+036820FM-12+001899999V0202901N006012200019N0190001N1+00871+00771102931ADDGF101991011001999999031001MD1310031+9999REMSYN060AAXX  22211 22438 42969 12906 10087 20077 40293 53003 81030;
0143224380999992000092300004+65190+036820FM-12+001899999V0203001N007012200019N0190001N1+00791+00701102971ADDGA1001+999999999GF100991001001999999001001MA1999999102761MD1210041+9999REMSYN060AAXX  23001 22438 42969 03007 10079 20070 30276 40297 52004;
0152224380999992000092303004+65190+036820FM-12+001899999V0202701N006010300019N0180001N1+00721+00641103051ADDAA199000091GF106991031051008001031001MD1210081+9999REMSYN070AAXX  23031 22438 32568 62706 10072 20064 40305 52008 83530 333 55000;EQDQ01  00002PRCP99
0112224380999992000092315004+65190+036820FM-12+001899999V0202401N007012200019N0250001N1+00841+00461102811ADDGF103991031051008001001001MD1710171+9999REMSYN060AAXX  23151 22438 42575 32407 10084 20046 40281 57017 83500;
0181224380999992000092318004+65190+036820FM-12+001899999V0202401N002012200019N0270001N1+00941+00711102771ADDAA199000091GF101991001001999999001011KA1999M+99999MD1610041+9999REMSYN070AAXX  23181 22438 32977 12402 10094 20071 40277 56004 80001 333 10084;EQDQ01  00002PRCP99Q02 +00842ATMX  
0122224380999992000092321004+65190+036820FM-12+001899999V0201601N009012200019N0240001N1+00901+00761102711ADDGA1001+999999999GF100991001001999999001001MD1710061+9999REMSYN054AAXX  23211 22438 42974 01609 10090 20076 40271 57006;
0143224380999992000092400004+65190+036820FM-12+001899999V0202701N009012200019N0230001N1+00781+00621102651ADDGA1001+999999999GF100991001001999999001001MA1999999102441MD1710061+9999REMSYN060AAXX  24001 22438 42973 02709 10078 20062 30244 40265 57006;
0133224380999992000092412004+65190+036820FM-12+001899999V0202501N004019999999N0190001N1+01201+00771102371ADDGF107991001001999999001041MA1999999102161MD1710121+9999REMSYN066AAXX  24121 22438 42969 72504 10120 20077 30216 40237 57012 80004;
0112224380999992000092415004+65190+036820FM-12+001899999V0202501N003010300019N0220001N1+01101+00771102221ADDGF108991011051008001071999MD1710151+9999REMSYN060AAXX  24151 22438 42572 82503 10110 20077 40222 57015 8157/;
0165224380999992000092418004+65190+036820FM-12+001899999V0202601N004010042019N0200001N1+01041+00811102081ADDAA199000091GF108991081051004501999999KA1999M+01211MD1710111+9999REMSYN070AAXX  24181 22438 32470 82604 10104 20081 40208 57011 885// 333 10121;EQDQ01  00002PRCP99
0150224380999992000092503004+65190+036820FM-12+001899999V0202801N009010075019N0160001N1+00901+00811101781ADDAY181031AY221031GF108991061091008001071001MD1710121+9999MW1021REMSYN076AAXX  25031 22438 /1566 82809 10090 20081 40178 57012 70282 86970 333 55075;
0180224380999992000092506004+65190+036820FM-12+001899999V0202801N009010300019N0180001N1+00881+00761101581ADDAA100000391AY181061AY221061GF107991041091008001071001KA1999N+00901MD1710201+9999MW1021REMSYN082AAXX  25061 22438 11568 72809 10088 20076 40158 57020 69930 70282 84970 333 20090;
0112224380999992000092515004+65190+036820FM-12+001899999V0203301N008010075019N0260001N1+00591+00051101871ADDGF107991061091008001071001MD1210171+9999REMSYN060AAXX  25151 22438 42576 73308 10059 20005 40187 52017 86970;
0112224380999992000092609004+65190+036820FM-12+001899999V0203501N009010075019N0220001N1+00551-00191102361ADDGF107991071091008001001001MD1210091+9999REMSYN060AAXX  26091 22438 42572 73509 10055 21019 40236 52009 87900;
0165224380999992000092618004+65190+036820FM-12+001899999V0203501N004010075019N0230001N1+00491-00101102471ADDAA199000091GF107991071051008001001001KA1999M+00591MD1210041+9999REMSYN070AAXX  26181 22438 32573 73504 10049 21010 40247 52004 87500 333 10059;EQDQ01  00002PRCP99
0112224380999992000092621004+65190+036820FM-12+001899999V0203101N004012200019N0210001N1+00481+00151102281ADDGF103991011051008001031001MD1810151+9999REMSYN060AAXX  26211 22438 42571 33104 10048 20015 40228 58015 81530;
0133224380999992000092700004+65190+036820FM-12+001899999V0203101N002012200019N0200001N1+00411+00131102081ADDGF102991021041008001001001MA1999999101871MD1710201+9999REMSYN066AAXX  27001 22438 42570 23102 10041 20013 30187 40208 57020 82400;
0152224380999992000092703004+65190+036820FM-12+001899999V0202701N002010075019N0230001N1+00651+00321102161ADDAA199000091GF107991071051008001001001MD1310081+9999REMSYN070AAXX  27031 22438 32573 72702 10065 20032 40216 53008 87500 333 55001;EQDQ01  00002PRCP99
0165224380999992000092706004+65190+036820FM-12+001899999V0202901N003010300019N0270001N1+00781+00581102101ADDAA199000091GF107991021051008001051001KA1999N+00411MD1810061+9999REMSYN070AAXX  27061 22438 32577 72903 10078 20058 40210 58006 82550 333 20041;EQDQ01  00002PRCP99
0112224380999992000092709004+65190+036820FM-12+001899999V0202801N002010075019N0230001N1+00841+00641102051ADDGF108991061051008001071999MD1710051+9999REMSYN060AAXX  27091 22438 42573 82802 10084 20064 40205 57005 8657/;
0161224380999992000092712004+65190+036820FM-12+001899999V0202801N001010042019N0100001N1+00771+00621101971ADDAY181061AY221061GF108991081091004501999999MA1999999101751MD1710091+9999MW1251REMSYN072AAXX  27121 22438 41460 82801 10077 20062 30175 40197 57009 72582 889//;
0112224380999992000092715004+65190+036820FM-12+001899999V0202701N001010075019N0220001N1+00851+00591101841ADDGF108991051051008001051999MD1710121+9999REMSYN060AAXX  27151 22438 42572 82701 10085 20059 40184 57012 8555/;
0171224380999992000092718004+65190+036820FM-12+001899999V0202701N003010075019N0200001N1+00941+00771101721ADDAA100000191GF108991081051008001999999KA1999M+99999MD1710121+9999REMSYN076AAXX  27181 22438 12570 82703 10094 20077 40172 57012 69910 885// 333 10085;EQDQ01 +00852ATMX  
0112224380999992000092721004+65190+036820FM-12+001899999V0202801N001010075019N0200001N1+00901+00681101631ADDGF107991071051008001001001MD1710091+9999REMSYN060AAXX  27211 22438 42570 72801 10090 20068 40163 57009 87500;
0133224380999992000092800004+65190+036820FM-12+001899999V0202801N001010075019N0210001N1+00841+00591101561ADDGF107991071051008001001001MA1999999101351MD1710071+9999REMSYN066AAXX  28001 22438 42571 72801 10084 20059 30135 40156 57007 87500;
0133224380999992000092812004+65190+036820FM-12+001899999V0202901N004010042019N0200001N1+00811+00651101591ADDGF108991081061004501999999MA1999999101371MD1210011+9999REMSYN066AAXX  28121 22438 42470 82904 10081 20065 30137 40159 52001 886//;
0112224380999992000092815004+65190+036820FM-12+001899999V0202901N004010042019N0220001N1+00721+00611101581ADDGF108991081061004501999999MD1810011+9999REMSYN060AAXX  28151 22438 42472 82904 10072 20061 40158 58001 886//;
0165224380999992000092818004+65190+036820FM-12+001899999V0202601N004010075019N0250001N1+00661+00521101571ADDAA199000091GF107991071051008001999999KA1999M+00881MD1710021+9999REMSYN070AAXX  28181 22438 32575 72604 10066 20052 40157 57002 875// 333 10088;EQDQ01  00002PRCP99
0112224380999992000092821004+65190+036820FM-12+001899999V0202801N005010075019N0200001N1+00611+00501101541ADDGF108991081061008001999999MD1710021+9999REMSYN060AAXX  28211 22438 42570 82805 10061 20050 40154 57002 886//;
0133224380999992000092900004+65190+036820FM-12+001899999V0202801N005010075019N0190001N1+00571+00451101531ADDGF108991081061008001999999MA1999999101321MD1710021+9999REMSYN066AAXX  29001 22438 42569 82805 10057 20045 30132 40153 57002 886//;
0152224380999992000092903004+65190+036820FM-12+001899999V0202801N005010075019N0200001N1+00681+00551101511ADDAA199000091GF108991081051008001999999MD1710021+9999REMSYN070AAXX  29031 22438 32570 82805 10068 20055 40151 57002 885// 333 55002;EQDQ01  00002PRCP99
0165224380999992000092906004+65190+036820FM-12+001899999V0202501N006010300019N0200001N1+00881+00821101571ADDAA199000091GF107991031051008001071001KA1999N+00561MD1310061+9999REMSYN070AAXX  29061 22438 32570 72506 10088 20082 40157 53006 83570 333 20056;EQDQ01  00002PRCP99
0140224380999992000092909004+65190+036820FM-12+001899999V0202601N005019999999N0060001N1+00861+00681101561ADDAY161031AY211031GF108991081001999999021999MD1810011+9999MW1611REMSYN066AAXX  29091 22438 41956 82605 10086 20068 40156 58001 76161 8802/;
0174224380999992000092912004+65190+036820FM-12+001899999V0202501N006019999999N0100001N1+00941+00801101541ADDAY101061AY261061GF108991081001999999021999MA1999999101331MD1710021+9999REMSYN072AAXX  29121 22438 41960 82506 10094 20080 30133 40154 57002 78606 8802/;EQDQ01+000862PRSWM1
0140224380999992000092915004+65190+036820FM-12+001899999V0202501N003010075019N9999999N1+00891+00771101431ADDAY161031AY221031GF108991081001008001021999MD1810101+9999MW1611REMSYN066AAXX  29151 22438 41554 82503 10089 20077 40143 58010 76162 8802/;
0180224380999992000092918004+65190+036820FM-12+001899999V0202201N008010075019N0050001N1+00821+00711101261ADDAA100000591AY161061AY221061GF108991081001008001021999KA1999M+00941MD1710181+9999MW1611REMSYN082AAXX  29181 22438 11550 82208 10082 20071 40126 57018 69940 76162 8802/ 333 10094;
0140224380999992000092921004+65190+036820FM-12+001899999V0202601N007010075019N0160001N1+00761+00671101201ADDAY161031AY221031GF108991081051008001999999MD1610061+9999MW1021REMSYN066AAXX  29211 22438 41566 82607 10076 20067 40120 56006 70262 885//;
0180224380999992000093000004+65190+036820FM-12+001899999V0202701N006019999999N0180001N1+00701+00611101151ADDAY161061AY221061GF107991999051008001999999MA1999999100941MD1710051+9999MW1021REMSYN072AAXX  30001 22438 41568 72706 10070 20061 30094 40115 57005 70262 885//;EQDQ01+000082SCOTLC
0122224380999992000093003004+65190+036820FM-12+001899999V0202701N003010075019N0150001N1+00961+00881101311ADDGF108991081051008001999999MD1310161+9999REMSYN070AAXX  30031 22438 /2565 82703 10096 20088 40131 53016 885// 333 55010;
0152224380999992000093006004+65190+036820FM-12+001899999V0202801N003010075019N0160001N1+00981+00901101381ADDAA100000591GF108991051051008001071999KA1999N+00691MD1110071+9999REMSYN076AAXX  30061 22438 12566 82803 10098 20090 40138 51007 69950 8557/ 333 20069;
0112224380999992000093009004+65190+036820FM-12+001899999V0202801N002010075019N0150001N1+01001+00901101451ADDGF108991061051008001071999MD1210071+9999REMSYN060AAXX  30091 22438 42565 82802 10100 20090 40145 52007 8657/;
0133224380999992000093012004+65190+036820FM-12+001899999V0202701N002019999999N0130001N1+01041+00901101591ADDGF107991051001999999031041MA1999999101381MD1310141+9999REMSYN066AAXX  30121 22438 42963 72702 10104 20090 30138 40159 53014 85034;
0112224380999992000093015004+65190+036820FM-12+001899999V0202601N001010075019N0160001N1+01021+00881101691ADDGF108991081011008001999999MD1210101+9999REMSYN060AAXX  30151 22438 42566 82601 10102 20088 40169 52010 881//;
0165224380999992000093018004+65190+036820FM-12+001899999V0202201N001010075019N0180001N1+00971+00851101781ADDAA199000091GF108991081011008001999999KA1999M+01051MD1210091+9999REMSYN070AAXX  30181 22438 32568 82201 10097 20085 40178 52009 881// 333 10105;EQDQ01  00002PRCP99
0112224380999992000093021004+65190+036820FM-12+001899999V0202601N001010075019N0180001N1+00961+00901101781ADDGF108991081011008001999999MD1410001+9999REMSYN060AAXX  30211 22438 42568 82601 10096 20090 40178 54000 881//;
0133224380999992000100100004+65190+036820FM-12+001899999V0202701N001010075019N0160001N1+00901+00811101771ADDGF107991071051008001001001MA1999999101561MD1810011+9999REMSYN066AAXX  01001 22438 42566 72701 10090 20081 30156 40177 58001 87500;
0180224380999992000100103004+65190+036820FM-12+001899999V0202401N004010075019N0070001N1+00921+00881101701ADDAA199000091AY121031AY221031GF108991081051008001999999MD1710071+9999MW1101REMSYN076AAXX  01031 22438 31557 82404 10092 20088 40170 57007 71022 885// 333 55014;EQDQ01  00002PRCP99
0165224380999992000100106004+65190+036820FM-12+001899999V0202401N003010075019N0011001N1+00991+00971101691ADDAA199000091GF108991081051008001999999KA1999N+00891MD1610011+9999REMSYN070AAXX  01061 22438 31511 82403 10099 20097 40169 56001 885// 333 20089;EQDQ01  00002PRCP99
0140224380999992000100109004+65190+036820FM-12+001899999V0202401N003010075019N9999999N1+01091+01051101801ADDAY121031AY221031GF107991071051008001001001MD1310111+9999MW1101REMSYN066AAXX  01091 22438 41552 72403 10109 20105 40180 53011 71022 87500;
0133224380999992000100112004+65190+036820FM-12+001899999V0202801N004012200019N0220001N1+01131+00951101901ADDGF103991021051008001001011MA1999999101691MD1210101+9999REMSYN066AAXX  01121 22438 42572 32804 10113 20095 30169 40190 52010 82501;
0112224380999992000100115004+65190+036820FM-12+001899999V0202801N003010300019N0210001N1+00981+00851102001ADDGF106991021051008001031011MD1210101+9999REMSYN060AAXX  01151 22438 42571 62803 10098 20085 40200 52010 82531;
0165224380999992000100118004+65190+036820FM-12+001899999V0202301N004019999999N0180001N1+00951+00861101991ADDAA199000091GF106991061001999999071001KA1999M+01211MD1810011+9999REMSYN070AAXX  01181 22438 32968 62304 10095 20086 40199 58001 86070 333 10121;EQDQ01  00002PRCP99
0112224380999992000100121004+65190+036820FM-12+001899999V0202501N004019999999N0180001N1+00891+00781101991ADDGF106991061001999999071001MD1410001+9999REMSYN060AAXX  01211 22438 42968 62504 10089 20078 40199 54000 86070;
0133224380999992000100200004+65190+036820FM-12+001899999V0202601N004019999999N0280001N1+00861+00771101971ADDGF106991061001999999071001MA1999999101761MD1710021+9999REMSYN066AAXX  02001 22438 42978 62604 10086 20077 30176 40197 57002 86070;
0180224380999992000100203004+65190+036820FM-12+001899999V0202601N005019999999N0050001N1+00881+00861101921ADDAA199000091AY121031AY221031GF105991051001999999071001MD1710041+9999MW1101REMSYN076AAXX  02031 22438 31950 52605 10088 20086 40192 57004 71022 85070 333 55042;EQDQ01  00002PRCP99
0112224380999992000100215004+65190+036820FM-12+001899999V0202201N004012200019N0140001N1+00981+00811101901ADDGF101991001001999999001011MD1810041+9999REMSYN060AAXX  02151 22438 42964 12204 10098 20081 40190 58004 80001;
0165224380999992000100218004+65190+036820FM-12+001899999V0202201N005019999999N0150001N1+00961+00731101891ADDAA199000091GF106991021001999999031011KA1999M+01091MD1610011+9999REMSYN070AAXX  02181 22438 32965 62205 10096 20073 40189 56001 82031 333 10109;EQDQ01  00002PRCP99
0112224380999992000100221004+65190+036820FM-12+001899999V0202201N005012200019N0160001N1+00871+00731101941ADDGF102991001001999999001011MD1310051+9999REMSYN060AAXX  02211 22438 42966 22205 10087 20073 40194 53005 80001;
0133224380999992000100300004+65190+036820FM-12+001899999V0202201N004012200019N0150001N1+00791+00681101951ADDGF101991001001999999001011MA1999999101741MD1110011+9999REMSYN066AAXX  03001 22438 42965 12204 10079 20068 30174 40195 51001 80001;
0174224380999992000100306004+65190+036820FM-12+001899999V0201601N002010300019N0170001N1+00901+00711101911ADDAA199000021AY181061AY221061GF108991031091008001071999KA1999N+00771MD1810041+9999MW1251REMSYN076AAXX  03061 22438 31567 81602 10090 20071 40191 58004 72582 8397/ 333 20077;
0112224380999992000100309004+65190+036820FM-12+001899999V0201401N001010300019N0150001N1+00951+00741101931ADDGF108991021051008001071999MD1310021+9999REMSYN060AAXX  03091 22438 42565 81401 10095 20074 40193 53002 8257/;
0133224380999992000100312004+65190+036820FM-12+001899999V0201801N001019999999N0130001N1+01101+00741101781ADDGF108991081001999999071999MA1999999101671MD1810051+9999REMSYN066AAXX  03121 22438 42963 81801 10110 20074 30167 40178 58005 8807/;
0112224380999992000100315004+65190+036820FM-12+001899999V0201901N001019999999N0170001N1+01041+00731101801ADDGF108991081001999999071999MD1710081+9999REMSYN060AAXX  03151 22438 42967 81901 10104 20073 40180 57008 8807/;
0180224380999992000100318004+65190+036820FM-12+001899999V0202201N001010075019N0100001N1+00941+00801101821ADDAA100000791AY181061AY221061GF108991061091008001071999KA1999M+01111MD1310021+9999MW1801REMSYN082AAXX  03181 22438 11560 82201 10094 20080 40182 53002 69900 78082 8697/ 333 10111;
0140224380999992000100321004+65190+036820FM-12+001899999V0202301N001010075019N0100001N1+00901+00841101791ADDAY181031AY221031GF108991081091008001999999MD1810031+9999MW1801REMSYN066AAXX  03211 22438 41560 82301 10090 20084 40179 58003 78082 889//;
0161224380999992000100400004+65190+036820FM-12+001899999V0202201N002010075019N0100001N1+00851+00781101751ADDAY181061AY221061GF108991081091008001999999MA1999999101541MD1710041+9999MW1021REMSYN072AAXX  04001 22438 41560 82202 10085 20078 30154 40175 57004 70282 889//;
0122224380999992000100403004+65190+036820FM-12+001899999V0201101N005010075019N0120001N1+00761+00701101781ADDGF108991081051008001999999MD1310031+9999REMSYN070AAXX  04031 22438 /2562 81105 10076 20070 40178 53003 885// 333 55000;
0140224380999992000100415004+65190+036820FM-12+001899999V0201001N006010042019N0042001N1+00841+00781102031ADDAY121031AY221031GF108991081061004501999999MD1210071+9999MW1021REMSYN066AAXX  04151 22438 41442 81006 10084 20078 40203 52007 70222 886//;
0193224380999992000100418004+65190+036820FM-12+001899999V0201101N004010042019N0025001N1+00881+00841102041ADDAA199000091AY121061AY221061GF108991081061004501999999KA1999M+00871MD1110011+9999MW1101REMSYN076AAXX  04181 22438 31425 81104 10088 20084 40204 51001 71022 886// 333 10087;EQDQ01  00002PRCP99
0140224380999992000100421004+65190+036820FM-12+001899999V0201301N001010042019N0029001N1+00861+00821102091ADDAY121031AY221031GF108991081061004501999999MD1310051+9999MW1101REMSYN066AAXX  04211 22438 41429 81301 10086 20082 40209 53005 71022 886//;
0180224380999992000100503004+65190+036820FM-12+001899999V0201401N003010042019N0080001N1+00831+00781102161ADDAA199000091AY121031AY221031GF108991081061004501999999MD1110011+9999MW1101REMSYN076AAXX  05031 22438 31458 81403 10083 20078 40216 51001 71022 886// 333 55000;EQDQ01  00002PRCP99
0140224380999992000100515004+65190+036820FM-12+001899999V0201501N002010042019N0160001N1+01011+00901102231ADDAY161031AY211031GF108991081051004501999999MD1410001+9999MW1021REMSYN066AAXX  05151 22438 41466 81502 10101 20090 40223 54000 70261 885//;
0180224380999992000100518004+65190+036820FM-12+001899999V0201601N003010075019N0060001N1+00981+00941102261ADDAA100003091AY161061AY221061GF108991081001008001021999KA1999M+01121MD1310031+9999MW1601REMSYN082AAXX  05181 22438 11556 81603 10098 20094 40226 53003 60030 76062 8802/ 333 10112;
0140224380999992000100521004+65190+036820FM-12+001899999V0202101N004010042019N0036001N1+00971+00951102311ADDAY161031AY251031GF108991081071004501999999MD1210051+9999MW1531REMSYN066AAXX  05211 22438 41436 82104 10097 20095 40231 52005 75365 887//;
0161224380999992000100600004+65190+036820FM-12+001899999V0202101N004010042019N0029001N1+00951+00931102381ADDAY161061AY251061GF108991081071004501999999MA1999999102171MD1210071+9999MW1531REMSYN072AAXX  06001 22438 41429 82104 10095 20093 30217 40238 52007 75365 887//;
0160224380999992000100603004+65190+036820FM-12+001899999V0202601N001010003019N0003001N1+00981+00981102431ADDAY161031AY241031GA1091+999999999GF109991091999999999999999MD1210051+9999MW1471REMSYN070AAXX  06031 22438 /1/03 92601 10098 20098 40243 52005 74764 333 55000;
0180224380999992000100606004+65190+036820FM-12+001899999V0202001N002010075019N0070001N1+01021+01001102521ADDAA100006191AY161061AY241061GF108991081051008001999999KA1999N+00941MD1210091+9999MW1101REMSYN082AAXX  06061 22438 11557 82002 10102 20100 40252 52009 60060 71064 885// 333 20094;
0140224380999992000100609004+65190+036820FM-12+001899999V0203201N003010075019N0080001N1+01001+00981102641ADDAY121031AY221031GF108991081051008001999999MD1210121+9999MW1101REMSYN066AAXX  06091 22438 41558 83203 10100 20098 40264 52012 71022 885//;
0161224380999992000100612004+65190+036820FM-12+001899999V0202201N003010075019N0090001N1+01021+01001102771ADDAY121061AY221061GF108991081051008001999999MA1999999102561MD1210131+9999MW1101REMSYN072AAXX  06121 22438 41559 82203 10102 20100 30256 40277 52013 71022 885//;
0112224380999992000100615004+65190+036820FM-12+001899999V0202101N003010075019N0140001N1+01021+01001102831ADDGF107991071051008001031001MD1110061+9999REMSYN060AAXX  06151 22438 42564 72103 10102 20100 40283 51006 87530;
0165224380999992000100618004+65190+036820FM-12+001899999V0202201N002019999999N0150001N1+00901+00841102921ADDAA199000091GF105991051001999999031001KA1999M+01031MD1310141+9999REMSYN070AAXX  06181 22438 32965 52202 10090 20084 40292 53014 85030 333 10103;EQDQ01  00002PRCP99
0112224380999992000100621004+65190+036820FM-12+001899999V0202401N003012200019N0160001N1+00841+00801103011ADDGF103991031001999999031001MD1110041+9999REMSYN060AAXX  06211 22438 42966 32403 10084 20080 40301 51004 83030;
0133224380999992000100700004+65190+036820FM-12+001899999V0202201N003012200019N0160001N1+00781+00711103011ADDGF102991021001999999031001MA1999999102801MD1410001+9999REMSYN066AAXX  07001 22438 42966 22203 10078 20071 30280 40301 54000 82030;
0152224380999992000100703004+65190+036820FM-12+001899999V0202401N009019999999N0170001N1+00821+00701103031ADDAA199000091GF107991071001999999071001MD1310021+9999REMSYN070AAXX  07031 22438 32967 72409 10082 20070 40303 53002 87070 333 55007;EQDQ01  00002PRCP99
0112224380999992000100709004+65190+036820FM-12+001899999V0202101N009019999999N0190001N1+00891+00781103131ADDGF107991071001999999071001MD1210061+9999REMSYN060AAXX  07091 22438 42969 72109 10089 20078 40313 52006 87070;
0161224380999992000100712004+65190+036820FM-12+001899999V0202301N005019999999N0060001N1+00881+00821103181ADDAY161061AY221061GF108991081001999999071999MA1999999102971MD1210051+9999MW1101REMSYN072AAXX  07121 22438 41956 82305 10088 20082 30297 40318 52005 71062 8807/;
0140224380999992000100715004+65190+036820FM-12+001899999V0202101N004010075019N0050001N1+00851+00771103251ADDAY121031AY221031GF108991081051008001999999MD1210071+9999MW1101REMSYN066AAXX  07151 22438 41550 82104 10085 20077 40325 52007 71022 885//;
0180224380999992000100718004+65190+036820FM-12+001899999V0202201N003010042019N0050001N1+00971+00891103291ADDAA100000391AY121061AY221061GF108991081061004501999999KA1999M+00971MD1210041+9999MW1101REMSYN082AAXX  07181 22438 11450 82203 10097 20089 40329 52004 69930 71022 886// 333 10097;
0140224380999992000100721004+65190+036820FM-12+001899999V0202201N003010042019N0048001N1+00941+00881103361ADDAY121031AY221031GF108991081061004501999999MD1210071+9999MW1101REMSYN066AAXX  07211 22438 41448 82203 10094 20088 40336 52007 71022 886//;
0161224380999992000100800004+65190+036820FM-12+001899999V0202201N003010042019N0041001N1+00881+00841103401ADDAY121061AY221061GF108991081061004501999999MA1999999103191MD1210041+9999MW1101REMSYN072AAXX  08001 22438 41441 82203 10088 20084 30319 40340 52004 71022 886//;
0152224380999992000100803004+65190+036820FM-12+001899999V0202001N005019999999N0150001N1+00851+00741103361ADDAA199000091GF107991071001999999071001MD1810041+9999REMSYN070AAXX  08031 22438 32965 72005 10085 20074 40336 58004 87070 333 55000;EQDQ01  00002PRCP99
0193224380999992000100806004+65190+036820FM-12+001899999V0202101N004019999999N0060001N1+00991+00951103401ADDAA199000091AY121061AY221061GF107991071001999999071001KA1999N+00851MD1310041+9999MW1101REMSYN076AAXX  08061 22438 31956 72104 10099 20095 40340 53004 71022 87070 333 20085;EQDQ01  00002PRCP99
0112224380999992000100809004+65190+036820FM-12+001899999V0201901N007019999999N0120001N1+00901+00771103411ADDGF108991071001999999071999MD1110011+9999REMSYN060AAXX  08091 22438 42962 81907 10090 20077 40341 51001 8707/;
0112224380999992000100815004+65190+036820FM-12+001899999V0201601N004012200019N0170001N1+00891+00701103261ADDGF102991001001999999001011MD1610061+9999REMSYN060AAXX  08151 22438 42967 21604 10089 20070 40326 56006 80001;
0165224380999992000100818004+65190+036820FM-12+001899999V0201401N004012200019N0180001N1+00801+00621103221ADDAA199000091GF101991001001999999001011KA1999M+01051MD1710041+9999REMSYN070AAXX  08181 22438 32968 11404 10080 20062 40322 57004 80001 333 10105;EQDQ01  00002PRCP99
0112224380999992000100821004+65190+036820FM-12+001899999V0201701N005012200019N0170001N1+00731+00581103141ADDGF102991001001999999001011MD1710081+9999REMSYN060AAXX  08211 22438 42967 21705 10073 20058 40314 57008 80001;
0133224380999992000100900004+65190+036820FM-12+001899999V0201701N006012200019N0160001N1+00611+00501103041ADDGF103991011001999999031011MA1999999102831MD1710101+9999REMSYN066AAXX  09001 22438 42966 31706 10061 20050 30283 40304 57010 81031;
0163224380999992000100906004+65190+036820FM-12+001899999V0201701N004010075019N0150001N1+00981+00921999999ADDAA199000021AY181061AY211061GF108991081051008001999999KA1999N+00611ME1550009MW1251REMSYN070AAXX  09061 22438 31565 81704 10098 20092 45000 72581 885// 333 20061;
0112224380999992000100909004+65190+036820FM-12+001899999V0201401N005010075019N0140001N1+01041+00921102961ADDGF108991081051008001999999MD1810011+9999REMSYN060AAXX  09091 22438 42564 81405 10104 20092 40296 58001 885//;
0112224380999992000100915004+65190+036820FM-12+001899999V0201701N006010075019N0160001N1+01081+00901102981ADDGF108991081051008001999999MD1310041+9999REMSYN060AAXX  09151 22438 42566 81706 10108 20090 40298 53004 885//;
0152224380999992000100918004+65190+036820FM-12+001899999V0201601N004010075019N0150001N1+01021+00851102981ADDAA100000191GF107991071051008001001001KA1999M+01101MD1410001+9999REMSYN076AAXX  09181 22438 12565 71604 10102 20085 40298 54000 69910 87500 333 10110;
0112224380999992000100921004+65190+036820FM-12+001899999V0201701N004010075019N0150001N1+00991+00851103061ADDGF108991081051008001999999MD1310081+9999REMSYN060AAXX  09211 22438 42565 81704 10099 20085 40306 53008 885//;
0133224380999992000101000004+65190+036820FM-12+001899999V0201701N003010075019N0170001N1+00911+00741103151ADDGF107991071051008001001001MA1999999102941MD1210091+9999REMSYN066AAXX  10001 22438 42567 71703 10091 20074 30294 40315 52009 87500;
0152224380999992000101003004+65190+036820FM-12+001899999V0201501N006012200019N0160001N1+00871+00731103041ADDAA199000091GF103991031001999999031001MD1810111+9999REMSYN070AAXX  10031 22438 32966 31506 10087 20073 40304 58011 83030 333 55000;EQDQ01  00002PRCP99
0112224380999992000101009004+65190+036820FM-12+001899999V0202001N005012200019N0190001N1+00961+00641103101ADDGF103991021001999999031011MD1810011+9999REMSYN060AAXX  10091 22438 42969 32005 10096 20064 40310 58001 82031;
0133224380999992000101012004+65190+036820FM-12+001899999V0201901N006012200019N0190001N1+00951+00381103071ADDGF101991001001999999001011MA1999999102861MD1710031+9999REMSYN066AAXX  10121 22438 42969 11906 10095 20038 30286 40307 57003 80001;
0122224380999992000101015004+65190+036820FM-12+001899999V0201401N003012200019N0210001N1+00811+00461103051ADDGA1001+999999999GF100991001001999999001001MD1710021+9999REMSYN054AAXX  10151 22438 42971 01403 10081 20046 40305 57002;
0165224380999992000101018004+65190+036820FM-12+001899999V0201501N004012200019N0180001N1+00641+00411103071ADDAA199000091GF102991001001999999001011KA1999M+00971MD1310021+9999REMSYN070AAXX  10181 22438 32968 21504 10064 20041 40307 53002 80001 333 10097;EQDQ01  00002PRCP99
0112224380999992000101021004+65190+036820FM-12+001899999V0201501N005012200019N0150001N1+00581+00421103011ADDGF102991001001999999001011MD1810061+9999REMSYN060AAXX  10211 22438 42965 21505 10058 20042 40301 58006 80001;
0133224380999992000101100004+65190+036820FM-12+001899999V0201501N005012200019N0170001N1+00511+00341102931ADDGF101991001001999999001011MA1999999102721MD1710081+9999REMSYN066AAXX  11001 22438 42967 11505 10051 20034 30272 40293 57008 80001;
0152224380999992000101103004+65190+036820FM-12+001899999V0201301N004010075019N0200001N1+00721+00411102981ADDAA199000091GF106991061051008001001001MD1310051+9999REMSYN070AAXX  11031 22438 32570 61304 10072 20041 40298 53005 86500 333 55084;EQDQ01  00002PRCP99
0112224380999992000101109004+65190+036820FM-12+001899999V0201701N007019999999N0240001N1+00911+00361102951ADDGF106991061001999999071001MD1310031+9999REMSYN060AAXX  11091 22438 42974 61707 10091 20036 40295 53003 86070;
0152224380999992000101112004+65190+036820FM-12+001899999V0201301N003019999999N0250001N1+00881+00231103011ADDGF107991999001999999071001MA1999999102801MD1110021+9999REMSYN066AAXX  11121 22438 42975 71303 10088 20023 30280 40301 51002 88070;EQDQ01+000082SCOTLC
0112224380999992000101115004+65190+036820FM-12+001899999V0201501N006019999999N0022001N1+00841+00321103011ADDGF107991071001999999071001MD1410001+9999REMSYN060AAXX  11151 22438 42922 71506 10084 20032 40301 54000 87070;
0165224380999992000101118004+65190+036820FM-12+001899999V0201601N006019999999N0190001N1+00751+00321103081ADDAA199000091GF107991071001999999041001KA1999M+00921MD1310071+9999REMSYN070AAXX  11181 22438 32969 71606 10075 20032 40308 53007 87040 333 10092;EQDQ01  00002PRCP99
0112224380999992000101121004+65190+036820FM-12+001899999V0201501N005012200019N0200001N1+00611+00271103141ADDGF103991031001999999031001MD1210061+9999REMSYN060AAXX  11211 22438 42970 31505 10061 20027 40314 52006 83030;
0133224380999992000101200004+65190+036820FM-12+001899999V0201501N006019999999N0190001N1+00441+00161103181ADDGF105991051001999999031001MA1999999102971MD1210041+9999REMSYN066AAXX  12001 22438 42969 51506 10044 20016 30297 40318 52004 85030;
0168224380999992000101203004+65190+036820FM-12+001899999V0201501N005019999999N0200001N1+00371+00191103231ADDAA199000091GF105991999051008001001001MD1210051+9999REMSYN070AAXX  12031 22438 32570 51505 10037 20019 40323 52005 87500 333 55000;EQDQ01+000072SCOTLCQ02  00002PRCP99
0165224380999992000101206004+65190+036820FM-12+001899999V0201401N005010075019N0240001N1+00441+00111103281ADDAA199000091GF108991081011008001999999KA1999N+00371MD1210051+9999REMSYN070AAXX  12061 22438 32574 81405 10044 20011 40328 52005 881// 333 20037;EQDQ01  00002PRCP99
0112224380999992000101209004+65190+036820FM-12+001899999V0201501N004010075019N0250001N1+00511+00071103271ADDGF108991081051008001999999MD1810021+9999REMSYN060AAXX  12091 22438 42575 81504 10051 20007 40327 58002 885//;
0112224380999992000101215004+65190+036820FM-12+001899999V0201401N005010075019N0200001N1+00501-00121103181ADDGF108991081051008001999999MD1610021+9999REMSYN060AAXX  12151 22438 42570 81405 10050 21012 40318 56002 885//;
0165224380999992000101218004+65190+036820FM-12+001899999V0201401N004010075019N0180001N1+00541+00011103151ADDAA199000091GF107991071051008001001001KA1999M+00621MD1710031+9999REMSYN070AAXX  12181 22438 32568 71404 10054 20001 40315 57003 87500 333 10062;EQDQ01  00002PRCP99
0122224380999992000101221004+65190+036820FM-12+001899999V0201601N006012200019N0250001N1+00461+00041103061ADDGA1001+999999999GF100991001001999999001001MD1810091+9999REMSYN054AAXX  12211 22438 42975 01606 10046 20004 40306 58009;
0152224380999992000101300004+65190+036820FM-12+001899999V0201601N006012200019N0250001N1+00301+00031102961ADDGF101991001001999999001011MA1999999102741MD1710101+9999REMSYN066AAXX  13001 22438 42075 11606 10030 20003 30274 40296 57010 80001;EQDQ01+000252SCOLCB
0152224380999992000101303004+65190+036820FM-12+001899999V0201501N006012200019N0230001N1+00251-00021102831ADDAA199000091GF102991001001999999001011MD1710131+9999REMSYN070AAXX  13031 22438 32973 21506 10025 21002 40283 57013 80001 333 55000;EQDQ01  00002PRCP99
0165224380999992000101306004+65190+036820FM-12+001899999V0201501N006012200019N0220001N1+00321+00141102671ADDAA199000091GF101991001001999999001011KA1999N+00201MD1710131+9999REMSYN070AAXX  13061 22438 32972 11506 10032 20014 40267 57013 80001 333 20020;EQDQ01  00002PRCP99
0112224380999992000101309004+65190+036820FM-12+001899999V0201501N007012200019N0250001N1+00711+00321102441ADDGF103991031001999999071001MD1810251+9999REMSYN060AAXX  13091 22438 42975 31507 10071 20032 40244 58025 83070;
0133224380999992000101312004+65190+036820FM-12+001899999V0201501N005019999999N0220001N1+00751+00301102301ADDGF107991071001999999071001MA1999999102091MD1610141+9999REMSYN066AAXX  13121 22438 42972 71505 10075 20030 30209 40230 56014 87070;
0140224380999992000101315004+65190+036820FM-12+001899999V0201401N008010075019N0090001N1+00621+00461102181ADDAY161031AY221031GF108991081001008001021999MD1710121+9999MW1611REMSYN066AAXX  13151 22438 41559 81408 10062 20046 40218 57012 76162 8802/;
0180224380999992000101318004+65190+036820FM-12+001899999V0201801N009010075019N0090001N1+00601+00441101991ADDAA100000591AY161061AY221061GF108991081001008001021999KA1999M+00751MD1710091+9999MW1601REMSYN082AAXX  13181 22438 11559 81809 10060 20044 40199 57009 69940 76062 8802/ 333 10075;
0140224380999992000101321004+65190+036820FM-12+001899999V0201901N008010075019N0150001N1+00731+00641101881ADDAY161031AY221031GF108991081051008001999999MD1710111+9999MW1021REMSYN066AAXX  13211 22438 41565 81908 10073 20064 40188 57011 70262 885//;
0161224380999992000101400004+65190+036820FM-12+001899999V0201901N009010042019N0130001N1+00811+00741101751ADDAY161061AY221061GF108991081061004501999999MA1999999101541MD1710131+9999MW1021REMSYN072AAXX  14001 22438 41463 81909 10081 20074 30154 40175 57013 70262 886//;
0152224380999992000101406004+65190+036820FM-12+001899999V0201701N007010075019N0210001N1+00811+00641101291ADDAA100000391GF108991081051008001999999KA1999N+00601MD1710221+9999REMSYN076AAXX  14061 22438 12571 81707 10081 20064 40129 57022 69930 885// 333 20060;
0180224380999992000101412004+65190+036820FM-12+001899999V0201801N005010042019N0080001N1+00751+00731100851ADDAY161061AY221061GF108991999071004501021999MA1999999100641MD1610131+9999MW1611REMSYN072AAXX  14121 22438 41458 81805 10075 20073 30064 40085 56013 76162 8872/;EQDQ01+000082SCOTLC
0159224380999992000101415004+65190+036820FM-12+001899999V0202301N006010042019N0070001N1+00731+00711100771ADDAY161031AY221031GF108991999071004501021999MD1710091+9999MW1611REMSYN066AAXX  14151 22438 41457 82306 10073 20071 40077 57009 76162 8872/;EQDQ01+000082SCOTLC
0180224380999992000101418004+65190+036820FM-12+001899999V0202401N003010042019N0110001N1+00731+00711100761ADDAA100000591AY161061AY221061GF108991081061004501999999KA1999M+00821MD1610011+9999MW1021REMSYN082AAXX  14181 22438 11461 82403 10073 20071 40076 56001 69950 70262 886// 333 10082;
0140224380999992000101421004+65190+036820FM-12+001899999V0202101N003010042019N0043001N1+00701+00671100761ADDAY121031AY221031GF108991081061004501999999MD1410001+9999MW1101REMSYN066AAXX  14211 22438 41443 82103 10070 20067 40076 54000 71022 886//;
0161224380999992000101500004+65190+036820FM-12+001899999V0202001N002010042019N0044001N1+00691+00671100741ADDAY121061AY221061GF108991081061004501001999MA1999999100531MD1810021+9999MW1101REMSYN072AAXX  15001 22438 41444 82002 10069 20067 30053 40074 58002 71022 8860/;
0122224380999992000101503004+65190+036820FM-12+001899999V0203301N004010075019N0210001N1+00721+00611101011ADDGF108991051051008001031011MD1310271+9999REMSYN070AAXX  15031 22438 /2571 83304 10072 20061 40101 53027 85531 333 55000;
0152224380999992000101506004+65190+036820FM-12+001899999V0203201N003010075019N0270001N1+00761+00651101251ADDAA100000391GF108991071051008001001011KA1999N+00661MD1210241+9999REMSYN076AAXX  15061 22438 12577 83203 10076 20065 40125 52024 69930 87501 333 20066;
0112224380999992000101509004+65190+036820FM-12+001899999V0203201N003010300019N0230001N1+00811+00681101501ADDGF107991021051008001031011MD1210251+9999REMSYN060AAXX  15091 22438 42573 73203 10081 20068 40150 52025 82531;
0133224380999992000101512004+65190+036820FM-12+001899999V0203201N002010300019N0250001N1+00801+00671101701ADDGF106991011011008001031001MA1999999101491MD1210201+9999REMSYN066AAXX  15121 22438 42575 63202 10080 20067 30149 40170 52020 81130;
0112224380999992000101515004+65190+036820FM-12+001899999V0203201N002012200019N0240001N1+00701+00611101811ADDGF102991011051008001031001MD1210191+9999REMSYN060AAXX  15151 22438 42574 23202 10070 20061 40181 52019 81530;
0165224380999992000101518004+65190+036820FM-12+001899999V0202101N002012200019N0280001N1+00621+00601102031ADDAA199000091GF102991001001999999001011KA1999M+00841MD1210141+9999REMSYN070AAXX  15181 22438 32978 22102 10062 20060 40203 52014 80001 333 10084;EQDQ01  00002PRCP99
0112224380999992000101521004+65190+036820FM-12+001899999V0202201N002012200019N0210001N1+00581+00561102061ADDGF103991021051008001031011MD1110031+9999REMSYN060AAXX  15211 22438 42571 32202 10058 20056 40206 51003 82531;
0133224380999992000101600004+65190+036820FM-12+001899999V0202201N003010300019N0230001N1+00541+00521102061ADDGF105991041051008001031001MA1999999101851MD1410001+9999REMSYN066AAXX  16001 22438 42573 52203 10054 20052 30185 40206 54000 84530;
0152224380999992000101603004+65190+036820FM-12+001899999V0202201N005010075019N0200001N1+00621+00531102171ADDAA199000091GF107991071051008001001001MD1310111+9999REMSYN070AAXX  16031 22438 32570 72205 10062 20053 40217 53011 87500 333 55000;EQDQ01  00002PRCP99
0181224380999992000101606004+65190+036820FM-12+001899999V0202501N005010075019N0190001N1+00421+00371102221ADDAA199000091GF108991081051008001999999KA1999N+99999MD1110051+9999REMSYN070AAXX  16061 22438 32569 82505 10042 20037 40222 51005 885// 333 20051;EQDQ01  00002PRCP99Q02 +00512ATMN  
0112224380999992000101609004+65190+036820FM-12+001899999V0202801N006010075019N0180001N1+00581+00491102341ADDGF108991081051008001999999MD1310121+9999REMSYN060AAXX  16091 22438 42568 82806 10058 20049 40234 53012 885//;
0112224380999992000101612004+65190+036820FM-12+001899999V0202901N004010075019N0180001N1+00681+00571102501ADDGF108991081051008001999999MD1210161+9999REMSYN060AAXX  16121 22438 42568 82904 10068 20057 40250 52016 885//;
0112224380999992000101615004+65190+036820FM-12+001899999V0203001N004010075019N0180001N1+00641+00551102681ADDGF108991081051008001999999MD1210181+9999REMSYN060AAXX  16151 22438 42568 83004 10064 20055 40268 52018 885//;
0181224380999992000101618004+65190+036820FM-12+001899999V0203101N004019999999N0170001N1+00731+00581102871ADDAA199000091GF107991999051008001999999KA1999M+00691MD1210191+9999REMSYN070AAXX  16181 22438 32567 73104 10073 20058 40287 52019 885// 333 10069;EQDQ01+000082SCOTLCQ02  00002PRCP99
0112224380999992000101621004+65190+036820FM-12+001899999V0203201N005010075019N0160001N1+00621+00551103011ADDGF108991081051008001999999MD1210141+9999REMSYN060AAXX  16211 22438 42566 83205 10062 20055 40301 52014 885//;
0133224380999992000101700004+65190+036820FM-12+001899999V0203301N005010075019N0160001N1+00541+00471103161ADDGF107991071051008001001001MA1999999102951MD1210151+9999REMSYN066AAXX  17001 22438 42566 73305 10054 20047 30295 40316 52015 87500;
0152224380999992000101703004+65190+036820FM-12+001899999V0202801N002010075019N0160001N1+00491+00401103161ADDAA199000091GF108991081051008001999999MD1410001+9999REMSYN070AAXX  17031 22438 32566 82802 10049 20040 40316 54000 885// 333 55000;EQDQ01  00002PRCP99
0112224380999992000101709004+65190+036820FM-12+001899999V0202201N004010075019N0240001N1+00691+00461102231ADDGF108991081051008001999999MD1210041+9999REMSYN060AAXX  17091 22438 42574 82204 10069 20046 40223 52004 885//;
0131224380999992000101715004+65190+036820FM-12+001899999V0202101N004010075019N0180001N1+00761+00511103062ADDGF108991081051008001999999MD1710081+9999REMSYN060AAXX  17151 22438 42568 82104 10076 20051 40306 57008 885//;EQDQ01+103063APOSLP
0165224380999992000101718004+65190+036820FM-12+001899999V0202101N006010075019N0200001N1+00791+00511102961ADDAA199000091GF108991081051008001999999KA1999M+00761MD1710101+9999REMSYN070AAXX  17181 22438 32570 82106 10079 20051 40296 57010 885// 333 10076;EQDQ01  00002PRCP99
0112224380999992000101721004+65190+036820FM-12+001899999V0202201N006010075019N0230001N1+00871+00641102921ADDGF108991081051008001999999MD1610041+9999REMSYN060AAXX  17211 22438 42573 82206 10087 20064 40292 56004 885//;
0133224380999992000101800004+65190+036820FM-12+001899999V0202101N005010075019N0230001N1+00761+00511102891ADDGF108991081051008001999999MA1999999102681MD1710031+9999REMSYN066AAXX  18001 22438 42573 82105 10076 20051 30268 40289 57003 885//;
0152224380999992000101803004+65190+036820FM-12+001899999V0202201N012010300019N0230001N1+00721+00511102691ADDAA199000091GF106991031051008001041001MD1810201+9999REMSYN070AAXX  18031 22438 32573 62212 10072 20051 40269 58020 83540 333 55000;EQDQ01  00002PRCP99
0165224380999992000101806004+65190+036820FM-12+001899999V0202301N010019999999N0220001N1+00761+00511102661ADDAA199000091GF107991071001999999071001KA1999N+00721MD1610031+9999REMSYN070AAXX  18061 22438 32972 72310 10076 20051 40266 56003 87070 333 20072;EQDQ01  00002PRCP99
0112224380999992000101809004+65190+036820FM-12+001899999V0202201N010019999999N0200001N1+00831+00561102611ADDGF107991071001999999071001MD1710051+9999REMSYN060AAXX  18091 22438 42970 72210 10083 20056 40261 57005 87070;
0133224380999992000101812004+65190+036820FM-12+001899999V0202001N007019999999N0210001N1+00881+00591102651ADDGF108991081051999999999999MA1999999101441MD1310041+9999REMSYN066AAXX  18121 22438 42971 82007 10088 20059 30144 40265 53004 885//;
0140224380999992000101815004+65190+036820FM-12+001899999V0202301N007019999999N0070001N1+00901+00731102601ADDAY161031AY221031GF108991081001999999021999MD1810051+9999MW1611REMSYN066AAXX  18151 22438 41957 82307 10090 20073 40260 58005 76162 8802/;
0180224380999992000101818004+65190+036820FM-12+001899999V0202401N007010075019N0060001N1+00851+00771102561ADDAA100000891AY161061AY221061GF108991081001008001021999KA1999M+00941MD1710041+9999MW1611REMSYN082AAXX  18181 22438 11556 82407 10085 20077 40256 57004 69970 76162 8802/ 333 10094;
0140224380999992000101821004+65190+036820FM-12+001899999V0202401N009010075019N0160001N1+00811+00741102571ADDAY161031AY221031GF108991081051008001999999MD1310011+9999MW1021REMSYN066AAXX  18211 22438 41566 82409 10081 20074 40257 53001 70262 885//;
0161224380999992000101900004+65190+036820FM-12+001899999V0202301N009010075019N0140001N1+00751+00681102611ADDAY161061AY221061GF107991071051008001001001MA1999999102401MD1210041+9999MW1021REMSYN072AAXX  19001 22438 41564 72309 10075 20068 30240 40261 52004 70262 87500;
0122224380999992000101903004+65190+036820FM-12+001899999V0202501N005010075019N0160001N1+00711+00581102541ADDGF108991081051008001999999MD1810071+9999REMSYN070AAXX  19031 22438 /2566 82505 10071 20058 40254 58007 885// 333 55000;
0152224380999992000101906004+65190+036820FM-12+001899999V0202401N004010075019N0150001N1+00711+00591102541ADDAA100002091GF108991081051008001999999KA1999N+00711MD1410001+9999REMSYN076AAXX  19061 22438 12565 82404 10071 20059 40254 54000 60020 885// 333 20071;
0140224380999992000101909004+65190+036820FM-12+001899999V0202301N005010042019N0070001N1+00721+00611102511ADDAY121031AY221031GF108991081061004501999999MD1810031+9999MW1101REMSYN066AAXX  19091 22438 41457 82305 10072 20061 40251 58003 71022 886//;
0180224380999992000101912004+65190+036820FM-12+001899999V0202401N005019999999N0090001N1+00751+00641999999ADDAY121061AY221061GF108991081001999999071999MA1999999102261MD1710041+9999MW1101REMSYN072AAXX  19121 22438 41959 82405 10075 20064 30226 40157 57004 71022 8807/;EQDQ01+101573APOSLP
0140224380999992000101915004+65190+036820FM-12+001899999V0202401N005019999999N0080001N1+00741+00671102471ADDAY121031AY221031GF108991081001999999071999MD1410001+9999MW1101REMSYN066AAXX  19151 22438 41958 82405 10074 20067 40247 54000 71022 8807/;
0165224380999992000101918004+65190+036820FM-12+001899999V0202501N004019999999N0180001N1+00761+00671102471ADDAA199000091GF107991071001999999031001KA1999M+00781MD1410001+9999REMSYN070AAXX  19181 22438 32968 72504 10076 20067 40247 54000 87030 333 10078;EQDQ01  00002PRCP99
0112224380999992000101921004+65190+036820FM-12+001899999V0202601N006010075019N0200001N1+00811+00701102471ADDGF107991071051008001001001MD1410001+9999REMSYN060AAXX  19211 22438 42570 72606 10081 20070 40247 54000 87500;
0133224380999992000102000004+65190+036820FM-12+001899999V0202601N007010042019N0160001N1+00741+00611102451ADDGF107991071051004501001001MA1999999102241MD1810021+9999REMSYN066AAXX  20001 22438 42466 72607 10074 20061 30224 40245 58002 87500;
0152224380999992000102003004+65190+036820FM-12+001899999V0202801N007010075019N0170001N1+00751+00641102511ADDAA199000091GF107991071051008001001001MD1310061+9999REMSYN070AAXX  20031 22438 32567 72807 10075 20064 40251 53006 87500 333 55000;EQDQ01  00002PRCP99
0165224380999992000102006004+65190+036820FM-12+001899999V0202901N007010300019N0180001N1+00801+00671102571ADDAA199000091GF107991031051008001071001KA1999N+00721MD1210061+9999REMSYN070AAXX  20061 22438 32568 72907 10080 20067 40257 52006 83570 333 20072;EQDQ01  00002PRCP99
0112224380999992000102009004+65190+036820FM-12+001899999V0202801N006010075019N0210001N1+00811+00611102661ADDGF108991051051008001071001MD1210091+9999REMSYN060AAXX  20091 22438 42571 82806 10081 20061 40266 52009 85570;
0112224380999992000102015004+65190+036820FM-12+001899999V0202501N004012200019N0210001N1+00711+00551102711ADDGF103991031001999999031001MD1210021+9999REMSYN060AAXX  20151 22438 42971 32504 10071 20055 40271 52002 83030;
0165224380999992000102018004+65190+036820FM-12+001899999V0202101N005019999999N0180001N1+00671+00561102671ADDAA199000091GF105991051001999999071001KA1999M+00821MD1810041+9999REMSYN070AAXX  20181 22438 32968 52105 10067 20056 40267 58004 85070 333 10082;EQDQ01  00002PRCP99
0112224380999992000102021004+65190+036820FM-12+001899999V0202301N005019999999N0190001N1+00601+00551102591ADDGF106991061001999999071001MD1710081+9999REMSYN060AAXX  20211 22438 42969 62305 10060 20055 40259 57008 86070;
0133224380999992000102100004+65190+036820FM-12+001899999V0202501N004019999999N0190001N1+00661+00551102561ADDGF106991061001999999071001MA1999999102351MD1610031+9999REMSYN066AAXX  21001 22438 42969 62504 10066 20055 30235 40256 56003 86070;
0165224380999992000102106004+65190+036820FM-12+001899999V0202701N009019999999N0170001N1+00741+00611102441ADDAA199000091GF107991071001999999071001KA1999N+00631MD1610011+9999REMSYN070AAXX  21061 22438 32967 72709 10074 20061 40244 56001 87070 333 20063;EQDQ01  00002PRCP99
0112224380999992000102109004+65190+036820FM-12+001899999V0202701N008012200019N0180001N1+00801+00611102601ADDGF102991021001999999031001MD1310161+9999REMSYN060AAXX  21091 22438 42968 22708 10080 20061 40260 53016 82030;
0133224380999992000102112004+65190+036820FM-12+001899999V0202801N007012200019N0200001N1+00791+00561102751ADDGF102991021001999999031001MA1999999102541MD1210151+9999REMSYN066AAXX  21121 22438 42970 22807 10079 20056 30254 40275 52015 82030;
0122224380999992000102115004+65190+036820FM-12+001899999V0202801N006012200019N0220001N1+00661+00481102871ADDGA1001+999999999GF100991001001999999001001MD1210121+9999REMSYN054AAXX  21151 22438 42972 02806 10066 20048 40287 52012;
0175224380999992000102118004+65190+036820FM-12+001899999V0201601N005012200019N0160001N1+00621+00511102901ADDAA199000091GA1001+999999999GF100991001001999999001001KA1999M+00801MD1110031+9999REMSYN064AAXX  21181 22438 32966 01605 10062 20051 40290 51003 333 10080;EQDQ01  00002PRCP99
0122224380999992000102121004+65190+036820FM-12+001899999V0202301N005012200019N0160001N1+00571+00501102771ADDGA1001+999999999GF100991001001999999001001MD1810131+9999REMSYN054AAXX  21211 22438 42966 02305 10057 20050 40277 58013;
0143224380999992000102200004+65190+036820FM-12+001899999V0202401N005012200019N0170001N1+00511+00441102611ADDGA1001+999999999GF100991001001999999001001MA1999999102401MD1710161+9999REMSYN060AAXX  22001 22438 42967 02405 10051 20044 30240 40261 57016;
0150224380999992000102203004+65190+036820FM-12+001899999V0202201N007010300019N0140001N1+00621+00511102191ADDAY181031AY211031GF108991031051008001071999MD1810421+9999MW1021REMSYN076AAXX  22031 22438 /1564 82207 10062 20051 40219 58042 70281 8357/ 333 55067;
0180224380999992000102206004+65190+036820FM-12+001899999V0202101N006010075019N0120001N1+00691+00601101901ADDAA100002091AY181061AY211061GF108991081051008001999999KA1999N+00491MD1710291+9999MW1021REMSYN082AAXX  22061 22438 11562 82106 10069 20060 40190 57029 60020 70281 885// 333 20049;
0133224380999992000102212004+65190+036820FM-12+001899999V0202201N010010075019N0130001N1+00681+00421101101ADDGF108991061051008001021999MA1999999100891MD1710451+9999REMSYN066AAXX  22121 22438 42563 82210 10068 20042 30089 40110 57045 8652/;
0112224380999992000102215004+65190+036820FM-12+001899999V0202101N007010075019N0120001N1+00721+00511100711ADDGF108991061051008001021999MD1710391+9999REMSYN060AAXX  22151 22438 42562 82107 10072 20051 40071 57039 8652/;
0174224380999992000102218004+65190+036820FM-12+001899999V0202201N008010042019N0040001N1+00661+00591100311ADDAA199000021AY161061AY221061GF108991081001004501021999KA1999M+00721MD1710391+9999MW1631REMSYN076AAXX  22181 22438 31440 82208 10066 20059 40031 57039 76362 8802/ 333 10072;
0140224380999992000102221004+65190+036820FM-12+001899999V0202501N006010042019N0070001N1+00681+00611100001ADDAY161031AY221031GF108991081001004501021999MD1710311+9999MW1611REMSYN066AAXX  22211 22438 41457 82506 10068 20061 40000 57031 76162 8802/;
0161224380999992000102300004+65190+036820FM-12+001899999V0202401N005010075019N0110001N1+00621+00531099871ADDAY161061AY221061GF108991081051008001999999MA1999999099651MD1610141+9999MW1021REMSYN072AAXX  23001 22438 41561 82405 10062 20053 39965 49987 56014 70262 885//;
0150224380999992000102303004+65190+036820FM-12+001899999V0203101N012010075019N0080001N1+00641+00601100151ADDAY161031AY221031GF108991081001008001021999MD1310291+9999MW1601REMSYN076AAXX  23031 22438 /1558 83112 10064 20060 40015 53029 76062 8802/ 333 55000;
0180224380999992000102306004+65190+036820FM-12+001899999V0203001N012012200019N0250001N1+00611+00351100581ADDAA100003091AY161061AY211061GF103991031051008001001001KA1999N+00611MD1210431+9999MW1021REMSYN082AAXX  23061 22438 11575 33012 10061 20035 40058 52043 60030 70261 83500 333 20061;
0133224380999992000102312004+65190+036820FM-12+001899999V0203001N013012200019N0290001N1+00571+00031100891ADDGF102991021051008001001001MA1999999100681MD1210151+9999REMSYN066AAXX  23121 22438 42579 23013 10057 20003 30068 40089 52015 82500;
0112224380999992000102315004+65190+036820FM-12+001899999V0202901N013012200019N0270001N1+00521+00061100981ADDGF102991021051008001001001MD1210091+9999REMSYN060AAXX  23151 22438 42577 22913 10052 20006 40098 52009 82500;
0152224380999992000102318004+65190+036820FM-12+001899999V0203101N013012200019N0220001N1+00491-00021101041ADDAA100001091GF102991021051008001001001KA1999M+00651MD1210061+9999REMSYN076AAXX  23181 22438 12572 23113 10049 21002 40104 52006 60010 82500 333 10065;
0112224380999992000102321004+65190+036820FM-12+001899999V0203001N012012200019N0210001N1+00401-00031101031ADDGF103991031051008001001001MD1810021+9999REMSYN060AAXX  23211 22438 42571 33012 10040 21003 40103 58002 83500;
0152224380999992000102403004+65190+036820FM-12+001899999V0202801N007012200019N0250001N1+00031-00061100911ADDAA199000091GF103991031001999999071001MD1710071+9999REMSYN070AAXX  24031 22438 32975 32807 10003 21006 40091 57007 83070 333 55056;EQDQ01  00002PRCP99
0165224380999992000102406004+65190+036820FM-12+001899999V0202601N005010300019N0260001N1+00391-00071100781ADDAA199000091GF105991021051008001031001KA1999N+00281MD1710131+9999REMSYN070AAXX  24061 22438 32576 52605 10039 21007 40078 57013 82530 333 20028;EQDQ01  00002PRCP99
0112224380999992000102409004+65190+036820FM-12+001899999V0202401N004010075019N0250001N1+00541+00051100731ADDGF107991071051008001001001MD1610051+9999REMSYN060AAXX  24091 22438 42575 72404 10054 20005 40073 56005 87500;
0133224380999992000102412004+65190+036820FM-12+001899999V0202201N003010075019N0230001N1+00581+00101100591ADDGF108991081051008001999999MA1999999100381MD1810141+9999REMSYN066AAXX  24121 22438 42573 82203 10058 20010 30038 40059 58014 885//;
0106224380999992000102415004+65190+036820FM-12+001899999V0201601N003010075019N0240001N1+00511+00161999999ADDGF108991081051008001999999MD1710171+9999REMSYN054AAXX  24151 22438 42574 81603 10051 20016 57017 885//;
0165224380999992000102418004+65190+036820FM-12+001899999V0201301N006010075019N0230001N1+00461+00131100181ADDAA199000091GF108991081051008001999999KA1999M+00581MD1710241+9999REMSYN070AAXX  24181 22438 32573 81306 10046 20013 40018 57024 885// 333 10058;EQDQ01  00002PRCP99
0159224380999992000102421004+65190+036820FM-12+001899999V0201201N007010042019N0036001N1+00411+00291099861ADDAY161031AY221031GF108991999071004501021999MD1810321+9999MW1631REMSYN066AAXX  24211 22438 41436 81207 10041 20029 49986 58032 76362 8872/;EQDQ01+000082SCOTLC
0180224380999992000102500004+65190+036820FM-12+001899999V0201201N007010042019N0046001N1+00391+00321099501ADDAY161061AY221061GF108991999071004501021999MA1999999099291MD1710361+9999MW1601REMSYN072AAXX  25001 22438 41446 81207 10039 20032 39929 49950 57036 76062 8872/;EQDQ01+000082SCOTLC
0150224380999992000102503004+65190+036820FM-12+001899999V0201901N006010075019N0130001N1+00661+00571099191ADDAY161031AY221031GF108991081061008001999999MD1710311+9999MW1021REMSYN076AAXX  25031 22438 /1563 81906 10066 20057 49919 57031 70262 886// 333 55000;
0199224380999992000102506004+65190+036820FM-12+001899999V0201801N006010042019N0060001N1+00641+00621999999ADDAA100009991AY161061AY221061GF108991081001004501021999KA1999N+00391MD1710211+9999MW1601REMSYN082AAXX  25061 22438 11456 81806 10064 20062 49820 57021 60100 76062 8802/ 333 20039;EQDQ01+098203APOSLP
0159224380999992000102509004+65190+036820FM-12+001899999V0202001N005010075019N0130001N1+00681+00661098832ADDAY161031AY221031GF108991081051008001999999MD1710151+9999MW1021REMSYN066AAXX  25091 22438 41563 82005 10068 20066 49883 57015 70262 885//;EQDQ01+098833APOSLP
0112224380999992000102515004+65190+036820FM-12+001899999V0201901N005010075019N0170001N1+00721+00701098701ADDGF108991061051008001071999MD1710071+9999REMSYN060AAXX  25151 22438 42567 81905 10072 20070 49870 57007 8657/;
0180224380999992000102518004+65190+036820FM-12+001899999V0201901N006010075019N0140001N1+00741+00711098661ADDAA100003091AY181061AY221061GF108991081051008001999999KA1999M+00741MD1710041+9999MW1251REMSYN082AAXX  25181 22438 11564 81906 10074 20071 49866 57004 60030 72582 885// 333 10074;
0112224380999992000102521004+65190+036820FM-12+001899999V0201901N005010075019N0180001N1+00731+00681098591ADDGF107991071051008001001001MD1710071+9999REMSYN060AAXX  25211 22438 42568 71905 10073 20068 49859 57007 87500;
0152224380999992000102600004+65190+036820FM-12+001899999V0201901N006010075019N0200001N1+00681+00611098541ADDGF106991999051008001001001MA1999999098331MD1710051+9999REMSYN066AAXX  26001 22438 42570 61906 10068 20061 39833 49854 57005 85500;EQDQ01+000052SCOTLC
0122224380999992000102603004+65190+036820FM-12+001899999V0202301N007010075019N0180001N1+00681+00611098571ADDGF108991081051008001999999MD1310031+9999REMSYN070AAXX  26031 22438 /2568 82307 10068 20061 49857 53003 885// 333 55000;
0180224380999992000102606004+65190+036820FM-12+001899999V0202301N008010075019N0140001N1+00741+00651098721ADDAA100000391AY181061AY221061GF108991081091008001999999KA1999N+00631MD1210161+9999MW1801REMSYN082AAXX  26061 22438 11564 82308 10074 20065 49872 52016 69930 78082 889// 333 20063;
0161224380999992000102612004+65190+036820FM-12+001899999V0202201N005010300019N0210001N1+00621+00351098891ADDAY181061AY221061GF106991041091008001071001MA1999999098681MD1310091+9999MW1021REMSYN072AAXX  26121 22438 41571 62205 10062 20035 39868 49889 53009 70282 84970;
0112224380999992000102615004+65190+036820FM-12+001899999V0202001N003010075019N0190001N1+00581+00541098981ADDGF107991061051008001071001MD1210091+9999REMSYN060AAXX  26151 22438 42569 72003 10058 20054 49898 52009 86570;
0152224380999992000102618004+65190+036820FM-12+001899999V0202901N003010300019N0180001N1+00451+00271099061ADDAA100000191GF106991031041008001071001KA1999M+00741MD1210081+9999REMSYN076AAXX  26181 22438 11568 62903 10045 20027 49906 52008 69910 83470 333 10074;
0140224380999992000102621004+65190+036820FM-12+001899999V0200301N002010075019N0070001N1+00521+00521099081ADDAY181031AY221031GF107991071091008001001001MD1110021+9999MW1811REMSYN066AAXX  26211 22438 41557 70302 10052 20052 49908 51002 78182 87900;
0161224380999992000102700004+65190+036820FM-12+001899999V0200501N003010075019N0160001N1+00341+99999099051ADDAY181061AY221061GF107991071091008001001001MA1999999099831MD1810031+9999MW1251REMSYN072AAXX  27001 22438 41566 70503 10034 20039 39983 49905 58003 72582 87900;
0169224380999992000102703004+65190+036820FM-12+001899999V0203301N008010042019N0030001N1+00341+00321999999ADDAY181031AY221031GF108991081091004501999999MD1710141+9999MW1811REMSYN076AAXX  27031 22438 /1430 83308 10034 20032 49991 57014 78182 889// 333 55007;EQDQ01 099913APOSLP
0199224380999992000102706004+65190+036820FM-12+001899999V0201401N001010042019N0060001N1+00451+00401098752ADDAA100008991AY181061AY221061GF108991081091004501999999KA1999N+00301MD1710161+9999MW1801REMSYN082AAXX  27061 22438 11456 81401 10045 20040 49875 57016 60090 78082 889// 333 20030;EQDQ01+098753APOSLP
0161224380999992000102712004+65190+036820FM-12+001899999V0202001N007010075019N0180001N1+00361+00261099031ADDAY181061AY221061GF108991081041008001999999MA1999999098821MD1210301+9999MW1021REMSYN072AAXX  27121 22438 41568 82007 10036 20026 39882 49903 52030 70282 884//;
0140224380999992000102715004+65190+036820FM-12+001899999V0202201N004010042019N0100001N1+00311+00231099151ADDAY181031AY221031GF108991081091004501999999MD1110121+9999MW1801REMSYN066AAXX  27151 22438 41460 82204 10031 20023 49915 51012 78082 889//;
0180224380999992000102718004+65190+036820FM-12+001899999V0202001N005010075019N0160001N1+00291+00211099101ADDAA100001091AY181061AY221061GF105991051041008001001001KA1999M+00451MD1810051+9999MW1021REMSYN082AAXX  27181 22438 11566 52005 10029 20021 49910 58005 60010 70282 85400 333 10045;
0140224380999992000102721004+65190+036820FM-12+001899999V0200701N002010075019N0048001N1+00261+00211099361ADDAY181031AY221031GF108991081091008001999999MD1310361+9999MW1801REMSYN066AAXX  27211 22438 41548 80702 10026 20021 49936 53036 78082 889//;
0161224380999992000102800004+65190+036820FM-12+001899999V0200501N003010075019N0130001N1+00191+00141099771ADDAY181061AY221061GF108991081091008001999999MA1999999099561MD1210311+9999MW1021REMSYN072AAXX  28001 22438 41563 80503 10019 20014 39956 49977 52031 70282 889//;
0150224380999992000102803004+65190+036820FM-12+001899999V0200201N012010075019N0050001N1+00161+00081099781ADDAY181031AY221031GF108991081091008001999999MD1110021+9999MW1811REMSYN076AAXX  28031 22438 /1550 80212 10016 20008 49978 51002 78182 889// 333 55000;
0186224380999992000102806004+65190+036820FM-12+001899999V0200201N013010075019N0060001N1+00131+00091100091ADDAA100014091AY181061AY221061GF108991081091008001999999KA1120N+00161MD1310301+9999MW1831REMSYN088AAXX  28061 22438 11556 80213 10013 20009 40009 53030 60140 78382 889// 333 20016 91121;
0150224380999992000102809004+65190+036820FM-12+001899999V0200201N010010042019N0040001N1+00131+00091100341ADDAY181031AY221031GF108991081091004501999999MD1210251+9999MW1831REMSYN076AAXX  28091 22438 41440 80210 10013 20009 40034 52025 78382 889// 333 91120;
0112224380999992000102815004+65190+036820FM-12+001899999V0200201N009010075019N0200001N1+00101-00291100841ADDGF107991061051008001031001MD1210231+9999REMSYN060AAXX  28151 22438 42570 70209 10010 21029 40084 52023 86530;
0152224380999992000102818004+65190+036820FM-12+001899999V0200201N008010075019N0200001N1+00061-00201101021ADDAA100000891GF106991061051008001001001KA1999M+00161MD1210181+9999REMSYN076AAXX  28181 22438 12570 60208 10006 21020 40102 52018 69970 86500 333 10016;
0112224380999992000102821004+65190+036820FM-12+001899999V0203501N007012200019N0230001N1+00061-00171101141ADDGF103991031051008001001001MD1210121+9999REMSYN060AAXX  28211 22438 42573 33507 10006 21017 40114 52012 83500;
0133224380999992000102900004+65190+036820FM-12+001899999V0203501N006012200019N0200001N1+00041-00261101241ADDGF102991021051008001001001MA1999999101031MD1210101+9999REMSYN066AAXX  29001 22438 42570 23506 10004 21026 30103 40124 52010 82500;
0150224380999992000102903004+65190+036820FM-12+001899999V0203301N011012200019N0210001N1-00181-00421101061ADDAY181031AY211031GF103991031091008001001001MD1210181+9999MW1261REMSYN076AAXX  29031 22438 /1571 33311 11018 21042 40106 52018 72681 83900 333 55000;
0180224380999992000102906004+65190+036820FM-12+001899999V0203601N009010075019N0250001N1-00131-00421101171ADDAA100001091AY181061AY211061GF106991061091008001001001KA1999N-00241MD1210181+9999MW1021REMSYN082AAXX  29061 22438 11575 63609 11013 21042 40117 52018 60010 70281 86900 333 21024;
0112224380999992000102909004+65190+036820FM-12+001899999V0203501N009010075019N0280001N1-00021-00601101311ADDGF106991061011008001001001MD1210131+9999REMSYN060AAXX  29091 22438 42578 63509 11002 21060 40131 52013 86100;
0131224380999992000102915004+65190+036820FM-12+001899999V0203501N012010075019N0240001N1-00111-00571101981ADDGF107991999091008001001001MD1210031+9999REMSYN060AAXX  29151 22438 42574 73512 11011 21057 40198 52003 86900;EQDQ01+000062SCOTLC
0181224380999992000102918004+65190+036820FM-12+001899999V0203601N010012200019N0230001N1-00231-00601101362ADDAA199000091GF104991041011008001001001KA1999M+00001MD1810031+9999REMSYN070AAXX  29181 22438 32573 43610 11023 21060 40136 58003 84100 333 10000;EQDQ01+101363APOSLPQ02  00002PRCP99
0152224380999992000103003004+65190+036820FM-12+001899999V0200201N005010075019N0200001N1-00091-00281101461ADDAA199000091GF107991071041008001001001MD1810071+9999REMSYN070AAXX  30031 22438 32570 70205 11009 21028 40146 58007 87400 333 55000;EQDQ01  00002PRCP99
0165224380999992000103006004+65190+036820FM-12+001899999V0200401N005010075019N0230001N1-00081-00361101441ADDAA199000091GF105991051091008001001001KA1999N-00181MD1610021+9999REMSYN070AAXX  30061 22438 32573 50405 11008 21036 40144 56002 85900 333 21018;EQDQ01  00002PRCP99
0112224380999992000103009004+65190+036820FM-12+001899999V0200501N004010075019N0210001N1-00031-00541101471ADDGF106991061091008001001001MD1310031+9999REMSYN060AAXX  30091 22438 42571 60504 11003 21054 40147 53003 86900;
0133224380999992000103012004+65190+036820FM-12+001899999V0200601N004010075019N0230001N1-00011-00551101471ADDGF107991071091008001001001MA1999999101251MD1410001+9999REMSYN066AAXX  30121 22438 42573 70604 11001 21055 30125 40147 54000 87900;
0140224380999992000103015004+65190+036820FM-12+001899999V0201501N003010075019N0039001N1-00091-00511101541ADDAY181031AY221031GF107991071091008001001001MD1310071+9999MW1851REMSYN066AAXX  30151 22438 41539 71503 11009 21051 40154 53007 78582 87900;
0180224380999992000103018004+65190+036820FM-12+001899999V0201201N001010075019N0220001N1-00221-00611101661ADDAA100000391AY181061AY221061GF106991061091008001001001KA1999M+00061MD1210121+9999MW1021REMSYN082AAXX  30181 22438 11572 61201 11022 21061 40166 52012 69930 70282 86900 333 10006;
0112224380999992000103021004+65190+036820FM-12+001899999V0201801N005012200019N0200001N1-00251-00411101811ADDGF103991021011008001031001MD1210151+9999REMSYN060AAXX  30211 22438 42570 31805 11025 21041 40181 52015 82130;
0133224380999992000103100004+65190+036820FM-12+001899999V0201901N005012200019N0190001N1-00311-00451101941ADDGF102991021011008001031001MA1999999101721MD1210131+9999REMSYN066AAXX  31001 22438 42569 21905 11031 21045 30172 40194 52013 82130;
0122224380999992000103103004+65190+036820FM-12+001899999V0201701N004012200019N0200001N1-00341-00541101951ADDGF101991011001999999031001MD1310011+9999REMSYN070AAXX  31031 22438 /2970 11704 11034 21054 40195 53001 81030 333 55000;
0133224380999992000103112004+65190+036820FM-12+001899999V0201401N006012200019N0250001N1-00361-00971101621ADDGF107991011011008001001041MA1999999101401MD1810221+9999REMSYN066AAXX  31121 22438 42575 71406 11036 21097 30140 40162 58022 81104;
0112224380999992000103115004+65190+036820FM-12+001899999V0201201N010019999999N0230001N1-00311-00661101151ADDGF108991081001999999071999MD1810571+9999REMSYN060AAXX  31151 22438 42973 81210 11031 21066 40115 58057 8807/;
0193224380999992000103118004+65190+036820FM-12+001899999V0201101N007010042019N0023001N1-00521-00591100961ADDAA199000021AY171061AY221061GF108991999071004501021999KA1999M-00301MD1610191+9999MW1731REMSYN076AAXX  31181 22438 31423 81107 11052 21059 40096 56019 77372 8872/ 333 11030;EQDQ01+000082SCOTLC
0140224380999992000103121004+65190+036820FM-12+001899999V0201101N006010075019N0130001N1-00441-00641100711ADDAY171031AY221031GF108991081051008001999999MD1710151+9999MW1221REMSYN066AAXX  31211 22438 41563 81106 11044 21064 40071 57015 72272 885//;
0161224380999992000110100004+65190+036820FM-12+001899999V0201201N006010300019N0150001N1-00481-00611100691ADDAY171061AY221061GF108991031051008001071999MA1999999100471MD1710121+9999MW1021REMSYN072AAXX  01001 22438 41565 81206 11048 21061 30047 40069 57012 70272 8357/;
0151224380999992000110103004+65190+036820FM-12+001899999V0201201N006010075019N0190001N1-00511-00681100791ADDAJ100059199999999GF108991081051008001999999IA1229MD1310101+9999REMSYN076AAXX  01031 22438 /2569 81206 11051 21068 40079 53010 885// 333 46005 55018;
0152224380999992000110106004+65190+036820FM-12+001899999V0201101N006010075019N0200001N1-00361-00611100851ADDAA100003091GF108991081051008001999999KA1999N-00571MD1110061+9999REMSYN076AAXX  01061 22438 12570 81106 11036 21061 40085 51006 60030 885// 333 21057;
0112224380999992000110109004+65190+036820FM-12+001899999V0201201N008010075019N0240001N1-00271-00531100861ADDGF108991061051008001071999MD1210011+9999REMSYN060AAXX  01091 22438 42574 81208 11027 21053 40086 52001 8657/;
0112224380999992000110115004+65190+036820FM-12+001899999V0200901N011010075019N0200001N1-00341-00551100701ADDGF108991081051008001999999MD1710101+9999REMSYN060AAXX  01151 22438 42570 80911 11034 21055 40070 57010 885//;
0174224380999992000110118004+65190+036820FM-12+001899999V0201101N010010075019N0060001N1-00381-00581100701ADDAA199000021AY181061AY221061GF108991081091008001999999KA1999M-00251MD1410001+9999MW1851REMSYN076AAXX  01181 22438 31556 81110 11038 21058 40070 54000 78582 889// 333 11025;
0140224380999992000110121004+65190+036820FM-12+001899999V0200901N009010075019N0150001N1-00341-00481100871ADDAY181031AY231031GF108991081051008001999999MD1310171+9999MW1361REMSYN066AAXX  01211 22438 41565 80909 11034 21048 40087 53017 73683 885//;
0161224380999992000110200004+65190+036820FM-12+001899999V0201001N010010075019N0140001N1-00291-00391101071ADDAY181061AY231061GF108991081051008001999999MA1999999100851MD1210201+9999MW1361REMSYN072AAXX  02001 22438 41564 81010 11029 21039 30085 40107 52020 73683 885//;
0179224380999992000110203004+65190+036820FM-12+001899999V0200601N005010075019N0190001N1-00321-00421101351ADDAJ100059199999999AY131031AY221031GF108991081051008001999999IA1229MD1210281+9999MW1021REMSYN082AAXX  02031 22438 /1569 80605 11032 21042 40135 52028 70232 885// 333 46005 55000;
0180224380999992000110206004+65190+036820FM-12+001899999V0200901N005010075019N0220001N1-00061-00301101371ADDAA100001091AY131061AY221061GF108991081051008001999999KA1999N-00421MD1210221+9999MW1021REMSYN082AAXX  02061 22438 11572 80905 11006 21030 40137 52022 69990 70232 885// 333 21042;
0112224380999992000110215004+65190+036820FM-12+001899999V0201001N010010075019N0170001N1-00131-00331101781ADDGF108991081051008001999999MD1810021+9999REMSYN060AAXX  02151 22438 42567 81010 11013 21033 40178 58002 885//;
0140224380999992000110221004+65190+036820FM-12+001899999V0201001N013010075019N0150001N1-00231-00451101591ADDAY131031AY221031GF108991081051008001999999MD1710081+9999MW1361REMSYN066AAXX  02211 22438 41565 81013 11023 21045 40159 57008 73632 885//;
0161224380999992000110300004+65190+036820FM-12+001899999V0201101N012010120019N0130001N1-00281-00481101501ADDAY131061AY221061GF108991081051012501999999MA1999999101281MD1710091+9999MW1361REMSYN072AAXX  03001 22438 41663 81112 11028 21048 30128 40150 57009 73632 885//;
0179224380999992000110303004+65190+036820FM-12+001899999V0201001N011010042019N0160001N1-00341-00511101161ADDAJ100059199999999AY181031AY231031GF108991081091004501999999IA1309MD1810341+9999MW1871REMSYN082AAXX  03031 22438 /1466 81011 11034 21051 40116 58034 78783 889// 333 42005 55000;
0133224380999992000110312004+65190+036820FM-12+001899999V0202301N007010075019N0240001N1+00171+00121101181ADDGF108991081051008001999999MA1999999100961MD1310101+9999REMSYN066AAXX  03121 22438 42574 82307 10017 20012 30096 40118 53010 885//;
0112224380999992000110315004+65190+036820FM-12+001899999V0202401N006010075019N0230001N1+00201+00071101381ADDGF108991081051008001999999MD1210201+9999REMSYN060AAXX  03151 22438 42573 82406 10020 20007 40138 52020 885//;
0152224380999992000110318004+65190+036820FM-12+001899999V0202601N005010075019N0200001N1+00211+00081101561ADDAA100000591GF108991081051008001999999KA1999M+00211MD1210181+9999REMSYN076AAXX  03181 22438 12570 82605 10021 20008 40156 52018 69940 885// 333 10021;
0112224380999992000110321004+65190+036820FM-12+001899999V0202601N005010075019N0110001N1+00171-00021101771ADDGF107991071051008001001001MD1210111+9999REMSYN060AAXX  03211 22438 42561 72605 10017 21002 40177 52011 87500;
0133224380999992000110400004+65190+036820FM-12+001899999V0202501N004010075019N0220001N1+00101-00131101921ADDGF106991061051008001001001MA1999999101701MD1210151+9999REMSYN066AAXX  04001 22438 42572 62504 10010 21013 30170 40192 52015 86500;
0179224380999992000110403004+65190+036820FM-12+001899999V0202501N003010075019N0110001N1+00231+00131102131ADDAJ100039199999999AY181031AY221031GF108991081041008001999999IA1309MD1210211+9999MW1801REMSYN082AAXX  04031 22438 /1561 82503 10023 20013 40213 52021 78082 884// 333 42003 55000;
0180224380999992000110406004+65190+036820FM-12+001899999V0202301N006010075019N0140001N1+00311+00261102231ADDAA100000791AY181061AY221061GF108991081051008001999999KA1999N+00081MD1110101+9999MW1021REMSYN082AAXX  04061 22438 11564 82306 10031 20026 40223 51010 69900 70282 885// 333 20008;
0140224380999992000110409004+65190+036820FM-12+001899999V0202101N007010042019N0060001N1+00421+00401102361ADDAY151031AY221031GF108991081061004501999999MD1210141+9999MW1511REMSYN066AAXX  04091 22438 41456 82107 10042 20040 40236 52014 75152 886//;
0161224380999992000110412004+65190+036820FM-12+001899999V0201601N006010042019N0160001N1+00341+00241102381ADDAY151061AY221061GF108991081061004501999999MA1999999102171MD1110021+9999MW1021REMSYN072AAXX  04121 22438 41466 81606 10034 20024 30217 40238 51002 70252 886//;
0112224380999992000110415004+65190+036820FM-12+001899999V0201601N006010042019N0140001N1+00311+00311102331ADDGF108991081061004501999999MD1810051+9999REMSYN060AAXX  04151 22438 42464 81606 10031 20031 40233 58005 886//;
0152224380999992000110418004+65190+036820FM-12+001899999V0201501N005010042019N0140001N1+00401+00291102231ADDAA100000791GF108991081061004501999999KA1999M+00451MD1710101+9999REMSYN076AAXX  04181 22438 12464 81505 10040 20029 40223 57010 69900 886// 333 10045;
0112224380999992000110421004+65190+036820FM-12+001899999V0201601N007010042019N0140001N1+00401+00331102221ADDGF108991081061004501999999MD1610011+9999REMSYN060AAXX  04211 22438 42464 81607 10040 20033 40222 56001 886//;
0133224380999992000110500004+65190+036820FM-12+001899999V0201601N007010042019N0150001N1+00381+00311102221ADDGF108991081061004501999999MA1999999102021MD1410001+9999REMSYN066AAXX  05001 22438 42465 81607 10038 20031 30202 40222 54000 886//;
0112224380999992000110509004+65190+036820FM-12+001899999V0201801N009019999999N0230001N1+00711+00361101781ADDGF107991071001999999071001MD1710131+9999REMSYN060AAXX  05091 22438 42973 71809 10071 20036 40178 57013 87070;
0112224380999992000110515004+65190+036820FM-12+001899999V0201801N007019999999N0190001N1+00581+00441101711ADDGF107991071001999999071001MD1810051+9999REMSYN060AAXX  05151 22438 42969 71807 10058 20044 40171 58005 87070;
0165224380999992000110518004+65190+036820FM-12+001899999V0201701N009019999999N0180001N1+00571+00451101641ADDAA199000091GF108991081001999999071999KA1999M+00741MD1710061+9999REMSYN070AAXX  05181 22438 32968 81709 10057 20045 40164 57006 8807/ 333 10074;EQDQ01  00002PRCP99
0131224380999992000110521004+65190+036820FM-12+001899999V0201701N008019999999N0180001N1+00551+00461101601ADDGF107991999001999999071001MD1710051+9999REMSYN060AAXX  05211 22438 42968 71708 10055 20046 40160 57005 86070;EQDQ01+000062SCOTLC
0133224380999992000110600004+65190+036820FM-12+001899999V0201701N008019999999N0180001N1+00491+00401101551ADDGF108991081071999999999999MA1999999101341MD1710051+9999REMSYN066AAXX  06001 22438 42968 81708 10049 20040 30134 40155 57005 887//;
0152224380999992000110603004+65190+036820FM-12+001899999V0201601N008019999999N0200001N1+00571+00501101291ADDAA199000091GF108991081001999999051999MD1810261+9999REMSYN070AAXX  06031 22438 32970 81608 10057 20050 40129 58026 8805/ 333 55000;EQDQ01  00002PRCP99
0174224380999992000110606004+65190+036820FM-12+001899999V0201601N007010075019N0080001N1+00621+00531101181ADDAA199000021AY161061AY221061GF108991081001008001021999KA1999N+00481MD1610111+9999MW1601REMSYN076AAXX  06061 22438 31558 81607 10062 20053 40118 56011 76062 8802/ 333 20048;
0140224380999992000110609004+65190+036820FM-12+001899999V0201701N008010075019N0090001N1+00641+00501101081ADDAY181031AY221031GF108991081091008001999999MD1710101+9999MW1801REMSYN066AAXX  06091 22438 41559 81708 10064 20050 40108 57010 78082 889//;
0112224380999992000110615004+65190+036820FM-12+001899999V0201801N010010075019N0060001N1+00681+00471100891ADDGF107991071051008001001001MD1710091+9999REMSYN060AAXX  06151 22438 42556 71810 10068 20047 40089 57009 87500;
0186224380999992000110618004+65190+036820FM-12+001899999V0202001N011010075019N0230001N1+00721+00451100771ADDAA100000391AY181061AY221061GF108991061051008001051999KA1120M+00681MD1610021+9999MW1251REMSYN088AAXX  06181 22438 11573 82011 10072 20045 40077 56002 69930 72582 8655/ 333 10068 91120;
0122224380999992000110703004+65190+036820FM-12+001899999V0202101N011010075019N0210001N1+00601+00441101461ADDGF107991071051008001001001MD1210211+9999REMSYN070AAXX  07031 22438 /2571 72111 10060 20044 40146 52021 87500 333 55000;
0152224380999992000110706004+65190+036820FM-12+001899999V0202001N011012200019N0230001N1+00631+00401101591ADDAA100000791GF104991021051008001031001KA1999N+00601MD1110131+9999REMSYN076AAXX  07061 22438 12573 42011 10063 20040 40159 51013 69900 82530 333 20060;
0112224380999992000110709004+65190+036820FM-12+001899999V0202201N011019999999N0230001N1+00641+00461101771ADDGF107991071001999999071001MD1210181+9999REMSYN060AAXX  07091 22438 42973 72211 10064 20046 40177 52018 87070;
0112224380999992000110715004+65190+036820FM-12+001899999V0202101N009010075019N0210001N1+00501+00331102091ADDGF107991061051008001071001MD1210151+9999REMSYN060AAXX  07151 22438 42571 72109 10050 20033 40209 52015 86570;
0165224380999992000110718004+65190+036820FM-12+001899999V0202201N009010075019N0200001N1+00471+00351102221ADDAA199000091GF107991061051008001071001KA1999M+00661MD1210131+9999REMSYN070AAXX  07181 22438 32570 72209 10047 20035 40222 52013 86570 333 10066;EQDQ01  00002PRCP99
0112224380999992000110721004+65190+036820FM-12+001899999V0202101N006019999999N0180001N1+00411+00291102361ADDGF108991081001999999071999MD1210141+9999REMSYN060AAXX  07211 22438 42968 82106 10041 20029 40236 52014 8807/;
0133224380999992000110800004+65190+036820FM-12+001899999V0202101N004019999999N0170001N1+00341+00271102481ADDGF108991081001999999071999MA1999999102271MD1210121+9999REMSYN066AAXX  08001 22438 42967 82104 10034 20027 30227 40248 52012 8807/;
0112224380999992000110815004+65190+036820FM-12+001899999V0201701N010010075019N0160001N1+00321+00241102031ADDGF107991071051008001001001MD1710131+9999REMSYN060AAXX  08151 22438 42566 71710 10032 20024 40203 57013 87500;
0152224380999992000110818004+65190+036820FM-12+001899999V0201701N007010075019N0180001N1+00301+00221101891ADDAA100000791GF107991071051008001001001KA1999M+00411MD1810201+9999REMSYN076AAXX  08181 22438 12568 71707 10030 20022 40189 58020 69900 87500 333 10041;
0112224380999992000110821004+65190+036820FM-12+001899999V0201701N006010075019N0180001N1+00271+00221101771ADDGF108991081051008001999999MD1610091+9999REMSYN060AAXX  08211 22438 42568 81706 10027 20022 40177 56009 885//;
0133224380999992000110900004+65190+036820FM-12+001899999V0201701N006010075019N0170001N1+00251+00201101711ADDGF108991081051008001999999MA1999999101501MD1710061+9999REMSYN066AAXX  09001 22438 42567 81706 10025 20020 30150 40171 57006 885//;
0180224380999992000110906004+65190+036820FM-12+001899999V0202001N011010075019N0150001N1+00321+00171101721ADDAA100000591AY181061AY221061GF108991081051008001999999KA1999N+00251MD1610051+9999MW1021REMSYN082AAXX  09061 22438 11565 82011 10032 20017 40172 56005 69950 70282 885// 333 20025;
0112224380999992000110909004+65190+036820FM-12+001899999V0202001N010010075019N0180001N1+00341+00241101561ADDGF108991081051008001999999MD1310041+9999REMSYN060AAXX  09091 22438 42568 82010 10034 20024 40156 53004 885//;
0133224380999992000110912004+65190+036820FM-12+001899999V0202001N011010075019N0140001N1+00381+00261101541ADDGF108991081051008001999999MA1999999101331MD1810021+9999REMSYN066AAXX  09121 22438 42564 82011 10038 20026 30133 40154 58002 885//;
0112224380999992000110915004+65190+036820FM-12+001899999V0202001N010010075019N0160001N1+00381+00231101561ADDGF108991081051008001999999MD1310021+9999REMSYN060AAXX  09151 22438 42566 82010 10038 20023 40156 53002 885//;
0152224380999992000110918004+65190+036820FM-12+001899999V0202101N010010075019N0200001N1+00301+00141101561ADDAA100000791GF108991081011008001999999KA1999M+00401MD1410001+9999REMSYN076AAXX  09181 22438 12570 82110 10030 20014 40156 54000 69900 881// 333 10040;
0112224380999992000110921004+65190+036820FM-12+001899999V0202001N008010075019N0200001N1+00341+00241101581ADDGF108991061051008001071999MD1310021+9999REMSYN060AAXX  09211 22438 42570 82008 10034 20024 40158 53002 8657/;
0133224380999992000111000004+65190+036820FM-12+001899999V0202101N007010075019N0180001N1+00321+00221101611ADDGF108991071051008001071999MA1999999101401MD1210031+9999REMSYN066AAXX  10001 22438 42568 82107 10032 20022 30140 40161 52003 8757/;
0150224380999992000111003004+65190+036820FM-12+001899999V0202101N006010075019N0050001N1+00241+00181101701ADDAY161031AY221031GF108991081001008001021999MD1310091+9999MW1611REMSYN076AAXX  10031 22438 /1550 82106 10024 20018 40170 53009 76162 8802/ 333 55000;
0180224380999992000111006004+65190+036820FM-12+001899999V0201301N002010075019N0060001N1+00331+00231101731ADDAA100000591AY161061AY221061GF108991081001008001021999KA1999N+00241MD1110031+9999MW1611REMSYN082AAXX  10061 22438 11556 81302 10033 20023 40173 51003 69960 76162 8802/ 333 20024;
0140224380999992000111009004+65190+036820FM-12+001899999V0202001N007010075019N0220001N1+00281+00151101801ADDAY161031AY221031GF108991081051008001999999MD1310071+9999MW1021REMSYN066AAXX  10091 22438 41572 82007 10028 20015 40180 53007 70262 885//;
0161224380999992000111012004+65190+036820FM-12+001899999V0201901N006010075019N0220001N1+00281+00151101821ADDAY161061AY221061GF107991071051008001001001MA1999999101611MD1110021+9999MW1021REMSYN072AAXX  10121 22438 41572 71906 10028 20015 30161 40182 51002 70262 87500;
0112224380999992000111015004+65190+036820FM-12+001899999V0201901N006010075019N0190001N1+00231+00131101821ADDGF107991071051008001001001MD1410001+9999REMSYN060AAXX  10151 22438 42569 71906 10023 20013 40182 54000 87500;
0152224380999992000111018004+65190+036820FM-12+001899999V0201701N005010075019N0160001N1+00291+00211101791ADDAA100000891GF107991071051008001001001KA1999M+00341MD1810031+9999REMSYN076AAXX  10181 22438 12566 71705 10029 20021 40179 58003 69970 87500 333 10034;
0112224380999992000111021004+65190+036820FM-12+001899999V0201501N003010075019N0160001N1+00171+00121101721ADDGF108991061051008001071999MD1710081+9999REMSYN060AAXX  10211 22438 42566 81503 10017 20012 40172 57008 8657/;
0152224380999992000111100004+65190+036820FM-12+001899999V0201401N002019999999N0060001N1+00111+00061101631ADDGF107991999001999999071999MA1999999101411MD1710091+9999REMSYN066AAXX  11001 22438 42956 71402 10011 20006 30141 40163 57009 8807/;EQDQ01+000082SCOTLC
0150224380999992000111103004+65190+036820FM-12+001899999V0201401N004010075019N0060001N1+00001-00061101601ADDAY171031AY221031GF108991081001008001021999MD1610031+9999MW1701REMSYN076AAXX  11031 22438 /1556 81404 10000 21006 40160 56003 77072 8802/ 333 55000;
0199224380999992000111106004+65190+036820FM-12+001899999V0201601N008010075019N0160001N1-00101-00161101561ADDAA100000391AY171061AY221061GF108991081001008001021999KA1999N+99999MD1710041+9999MW1731REMSYN082AAXX  11061 22438 11566 81608 11010 21016 40156 57004 69930 77372 8802/ 333 20000;EQDQ01 +00002ATMN  
0140224380999992000111109004+65190+036820FM-12+001899999V0201501N005010075019N0180001N1-00041-00191101501ADDAY171031AY221031GF108991081051008001999999MD1710061+9999MW1021REMSYN066AAXX  11091 22438 41568 81505 11004 21019 40150 57006 70272 885//;
0140224380999992000111115004+65190+036820FM-12+001899999V0201501N004010075019N0160001N1-00051-00171101381ADDAY181031AY221031GF107991061091008001071001MD1710081+9999MW1851REMSYN066AAXX  11151 22438 41566 71504 11005 21017 40138 57008 78582 86970;
0180224380999992000111118004+65190+036820FM-12+001899999V0201601N004010042019N9999999N1-00061-00151101291ADDAA100000591AY181061AY221061GF107991071091004501071001KA1999M+00001MD1710091+9999MW1021REMSYN082AAXX  11181 22438 11455 71604 11006 21015 40129 57009 69940 70282 87970 333 10000;
0140224380999992000111121004+65190+036820FM-12+001899999V0202301N002010075019N0170001N1+00031-00031101311ADDAY121031AY221031GF107991071091008001001001MD1310021+9999MW1871REMSYN066AAXX  11211 22438 41567 72302 10003 21003 40131 53002 78722 87900;
0161224380999992000111200004+65190+036820FM-12+001899999V0202301N002010075019N0170001N1+00051-00011101371ADDAY181061AY221061GF107991061091008001071001MA1999999101141MD1210071+9999MW1021REMSYN072AAXX  12001 22438 41567 72302 10005 21001 30114 40137 52007 70282 86970;
0151224380999992000111203004+65190+036820FM-12+001899999V0202601N003010075019N0200001N1+00101-00041101341ADDAJ100019199999999GF108991061051008001051999IA1309MD1810031+9999REMSYN076AAXX  12031 22438 /2570 82603 10010 21004 40134 58003 8655/ 333 42001 55000;
0152224380999992000111206004+65190+036820FM-12+001899999V0202501N003010075019N0220001N1+00091-00081101421ADDAA100000591GF108991061051008001051999KA1999N-00071MD1310081+9999REMSYN076AAXX  12061 22438 12572 82503 10009 21008 40142 53008 69950 8655/ 333 21007;
0112224380999992000111215004+65190+036820FM-12+001899999V0202401N002010075019N0250001N1+00151+00071101711ADDGF108991081051008001999999MD1210071+9999REMSYN060AAXX  12151 22438 42575 82402 10015 20007 40171 52007 885//;
0165224380999992000111218004+65190+036820FM-12+001899999V0202501N003019999999N0230001N1+00261+00181101761ADDAA199000091GF108991081001999999071999KA1999M+00251MD1210061+9999REMSYN070AAXX  12181 22438 32973 82503 10026 20018 40176 52006 8807/ 333 10025;EQDQ01  00002PRCP99
0112224380999992000111221004+65190+036820FM-12+001899999V0202501N002019999999N0200001N1+00261+00161101871ADDGF108991081001999999071999MD1210111+9999REMSYN060AAXX  12211 22438 42970 82502 10026 20016 40187 52011 8807/;
0133224380999992000111300004+65190+036820FM-12+001899999V0202501N002019999999N0200001N1+00221+00091101971ADDGF108991081001999999071999MA1999999101761MD1210101+9999REMSYN066AAXX  13001 22438 42970 82502 10022 20009 30176 40197 52010 8807/;
0152224380999992000111303004+65190+036820FM-12+001899999V0202101N006019999999N0170001N1+00251+00171101951ADDAA199000091GF108991081051999999999999MD1810021+9999REMSYN070AAXX  13031 22438 32967 82106 10025 20017 40195 58002 885// 333 55000;EQDQ01  00002PRCP99
0112224380999992000111309004+65190+036820FM-12+001899999V0201901N006010042019N0130001N1+00281+00201102081ADDGF108991081061004501999999MD1210081+9999REMSYN060AAXX  13091 22438 42463 81906 10028 20020 40208 52008 886//;
0165224380999992000111318004+65190+036820FM-12+001899999V0201901N007010042019N0140001N1+00131+00051102091ADDAA199000091GF108991081051004501999999KA1999M+00301MD1410001+9999REMSYN070AAXX  13181 22438 32464 81907 10013 20005 40209 54000 885// 333 10030;EQDQ01  00002PRCP99
0112224380999992000111321004+65190+036820FM-12+001899999V0201801N007019999999N0160001N1+00101+00021102161ADDGF106991051051999999031001MD1310071+9999REMSYN060AAXX  13211 22438 42966 61807 10010 20002 40216 53007 85530;
0133224380999992000111400004+65190+036820FM-12+001899999V0201801N007019999999N0150001N1+00051-00011102271ADDGF105991031051999999031001MA1999999102051MD1210111+9999REMSYN066AAXX  14001 22438 42965 51807 10005 21001 30205 40227 52011 83530;
0112224380999992000111415004+65190+036820FM-12+001899999V0201701N012010075019N0210001N1+00121-00081101921ADDGF107991071051008001001001MD1710121+9999REMSYN060AAXX  14151 22438 42571 71712 10012 21008 40192 57012 87500;
0165224380999992000111418004+65190+036820FM-12+001899999V0201701N010010075019N0210001N1+00091-00021101821ADDAA199000091GF107991071051008001001001KA1999M+00181MD1710101+9999REMSYN070AAXX  14181 22438 32571 71710 10009 21002 40182 57010 87500 333 10018;EQDQ01  00002PRCP99
0112224380999992000111421004+65190+036820FM-12+001899999V0201501N010010075019N0190001N1+00021-00091101691ADDGF108991081051008001999999MD1710131+9999REMSYN060AAXX  14211 22438 42569 81510 10002 21009 40169 57013 885//;
0133224380999992000111500004+65190+036820FM-12+001899999V0201601N010010075019N0180001N1-00011-00101101541ADDGF108991081051008001999999MA1999999101321MD1710151+9999REMSYN066AAXX  15001 22438 42568 81610 11001 21010 30132 40154 57015 885//;
0179224380999992000111503004+65190+036820FM-12+001899999V0201301N005010042019N0035001N1-00061-00121101141ADDAJ100019199999999AY181031AY221031GF108991081091004501999999IA1229MD1810401+9999MW1851REMSYN082AAXX  15031 22438 /1435 81305 11006 21012 40114 58040 78582 889// 333 46001 55000;
0140224380999992000111509004+65190+036820FM-12+001899999V0201201N004010075019N0100001N1-00121-00221100701ADDAY171031AY221031GF108991081051008001999999MD1710171+9999MW1221REMSYN066AAXX  15091 22438 41560 81204 11012 21022 40070 57017 72272 885//;
0112224380999992000111515004+65190+036820FM-12+001899999V0203301N002010075019N0200001N1-00031-00211100541ADDGF107991071051008001001001MD1610041+9999REMSYN060AAXX  15151 22438 42570 73302 11003 21021 40054 56004 87500;
0152224380999992000111518004+65190+036820FM-12+001899999V0203001N003010075019N0200001N1+00021-00251100511ADDAA100002091GF108991081051008001999999KA1999M+00001MD1710031+9999REMSYN076AAXX  15181 22438 12570 83003 10002 21025 40051 57003 60020 885// 333 10000;
0112224380999992000111521004+65190+036820FM-12+001899999V0203201N004010300019N0220001N1+00071-00261100501ADDGF108991041051008001051999MD1610011+9999REMSYN060AAXX  15211 22438 42572 83204 10007 21026 40050 56001 8455/;
0133224380999992000111600004+65190+036820FM-12+001899999V0203101N005019999999N0200001N1+00051-00251100551ADDGF108991081001999999051999MA1999999100341MD1310051+9999REMSYN066AAXX  16001 22438 42970 83105 10005 21025 30034 40055 53005 8805/;
0112224380999992000111609004+65190+036820FM-12+001899999V0203301N007010075019N0250001N1-00091-00381100421ADDGF107991051051008001001011MD1210051+9999REMSYN060AAXX  16091 22438 42575 73307 11009 21038 40042 52005 85501;
0161224380999992000111612004+65190+036820FM-12+001899999V0203401N005010075019N0220001N1-00101-00361100511ADDAY181061AY221061GF107991071091008001001001MA1999999100301MD1210091+9999MW1261REMSYN072AAXX  16121 22438 41572 73405 11010 21036 30030 40051 52009 72682 87900;
0140224380999992000111615004+65190+036820FM-12+001899999V0203401N006010075019N0220001N1-00191-00401100621ADDAY181031AY221031GF107991071091008001001001MD1210111+9999MW1021REMSYN066AAXX  16151 22438 41572 73406 11019 21040 40062 52011 70282 87900;
0180224380999992000111618004+65190+036820FM-12+001899999V0200101N008010075019N0026001N1-00251-00411100741ADDAA100000591AY181061AY221061GF108991081091008001999999KA1999M+00041MD1210111+9999MW1881REMSYN082AAXX  16181 22438 11526 80108 11025 21041 40074 52011 69950 78882 889// 333 10004;
0140224380999992000111621004+65190+036820FM-12+001899999V0200301N007010075019N0200001N1-00221-00371100941ADDAY181031AY221031GF107991071091008001001001MD1310201+9999MW1261REMSYN066AAXX  16211 22438 41570 70307 11022 21037 40094 53020 72682 87900;
0161224380999992000111700004+65190+036820FM-12+001899999V0200301N008010075019N0180001N1-00261-00391101181ADDAY181061AY221061GF108991081091008001999999MA1999999100961MD1210241+9999MW1021REMSYN072AAXX  17001 22438 41568 80308 11026 21039 30096 40118 52024 70282 889//;
0145224380999992000111703004+65190+036820FM-12+001899999V0200101N008010075019N0190001N1-00201-00351101241ADDAJ100049199999999GF107991071091008001001001IA1229MD1110061+9999REMSYN070AAXX  17031 22438 /2569 70108 11020 21035 40124 51006 87900 333 46004;
0152224380999992000111706004+65190+036820FM-12+001899999V0203601N007010075019N0230001N1-00131-00331101411ADDAA100000591GF107991071091008001001001KA1999N-00291MD1310171+9999REMSYN076AAXX  17061 22438 12573 73607 11013 21033 40141 53017 69940 87900 333 21029;
0140224380999992000111709004+65190+036820FM-12+001899999V0203601N007010075019N0060001N1+00021-00191101521ADDAY181031AY221031GF107991071091008001001001MD1110111+9999MW1881REMSYN066AAXX  17091 22438 41556 73607 10002 21019 40152 51011 78882 87900;
0180224380999992000111712004+65190+036820FM-12+001899999V0203501N007019999999N0250001N1+00081-00171101621ADDAY181061AY221061GF105991999091008001001001MA1999999101501MD1210101+9999MW1021REMSYN072AAXX  17121 22438 41575 53507 10008 21017 30150 40162 52010 70282 86900;EQDQ01+000062SCOTLC
0112224380999992000111715004+65190+036820FM-12+001899999V0203601N006010075019N0230001N1+00061-00341101761ADDGF106991061091008001001001MD1210141+9999REMSYN060AAXX  17151 22438 42573 63606 10006 21034 40176 52014 86900;
0171224380999992000111718004+65190+036820FM-12+001899999V0203401N008012200019N0280001N1+00031-00481101821ADDAA100000791GF101991999091008001001001KA1999M+00121MD1110061+9999REMSYN076AAXX  17181 22438 12578 13408 10003 21048 40182 51006 69900 85900 333 10012;EQDQ01+000052SCOTLC
0112224380999992000111721004+65190+036820FM-12+001899999V0203501N009010075019N0270001N1+00011-00401101831ADDGF105991051091008001001001MD1210011+9999REMSYN060AAXX  17211 22438 42577 53509 10001 21040 40183 52001 85900;
0133224380999992000111800004+65190+036820FM-12+001899999V0203501N009010075019N0250001N1-00031-00471101831ADDGF106991061091008001001001MA1999999101611MD1410001+9999REMSYN066AAXX  18001 22438 42575 63509 11003 21047 30161 40183 54000 86900;
0151224380999992000111803004+65190+036820FM-12+001899999V0203401N006010075019N0240001N1-00051-00391101781ADDAJ100009199999999GF105991051011008001001001IA1229MD1310051+9999REMSYN076AAXX  18031 22438 /2574 53406 11005 21039 40178 53005 85100 333 46000 56004;
0187224380999992000111806004+65190+036820FM-12+001899999V0203501N004019999999N0070001N1-00121-00321101891ADDAA199000021AY181061AY221061GF106991999999008001999999KA1999N+99999MD1110011+9999MW1801REMSYN070AAXX  18061 22438 31557 63504 11012 21032 40189 51001 78082 333 21005;EQDQ01 -00052ATMN  
0112224380999992000111815004+65190+036820FM-12+001899999V0203201N004010075019N0200001N1+00001-00341101951ADDGF106991061011008001001001MD1410001+9999REMSYN060AAXX  18151 22438 42570 63204 10000 21034 40195 54000 86100;
0152224380999992000111818004+65190+036820FM-12+001899999V0203301N004010075019N0200001N1+00001-00411101951ADDAA100000191GF106991061011008001001001KA1999M+00081MD1410001+9999REMSYN076AAXX  18181 22438 12570 63304 10000 21041 40195 54000 69920 86100 333 10008;
0131224380999992000111821004+65190+036820FM-12+001899999V0203401N003019999999N0130001N1-00051-00371102001ADDGF105991999011008001001001MD1310051+9999REMSYN060AAXX  18211 22438 42563 53403 11005 21037 40200 53005 86100;EQDQ01+000062SCOTLC
0133224380999992000111900004+65190+036820FM-12+001899999V0203501N003012200019N0230001N1-00131-00361102071ADDGF103991031011008001001001MA1999999101851MD1210071+9999REMSYN066AAXX  19001 22438 42573 33503 11013 21036 30185 40207 52007 83100;
0112224380999992000111909004+65190+036820FM-12+001899999V0201401N008010075019N0230001N1-00161-00401101971ADDGF107991051051008001071001MD1310041+9999REMSYN060AAXX  19091 22438 42573 71408 11016 21040 40197 53004 85570;
0133224380999992000111912004+65190+036820FM-12+001899999V0200901N009010075019N0210001N1-00201-00511102001ADDGF107991061051008001071001MA1999999101781MD1110031+9999REMSYN066AAXX  19121 22438 42571 70909 11020 21051 30178 40200 51003 86570;
0112224380999992000111915004+65190+036820FM-12+001899999V0200901N005010300019N0200001N1-00241-00501102091ADDGF107991041051008001071001MD1310091+9999REMSYN060AAXX  19151 22438 42570 70905 11024 21050 40209 53009 84570;
0165224380999992000111918004+65190+036820FM-12+001899999V0200901N007010075019N0200001N1-00331-00611102271ADDAA199000091GF108991081051008001999999KA1999M-00081MD1210171+9999REMSYN070AAXX  19181 22438 32570 80907 11033 21061 40227 52017 885// 333 11008;EQDQ01  00002PRCP99
0112224380999992000111921004+65190+036820FM-12+001899999V0200901N007010075019N0200001N1-00401-00661102471ADDGF108991081051008001999999MD1210221+9999REMSYN060AAXX  19211 22438 42570 80907 11040 21066 40247 52022 885//;
0133224380999992000112000004+65190+036820FM-12+001899999V0200901N007010075019N0200001N1-00461-00701102691ADDGF108991081051008001999999MA1999999102471MD1210211+9999REMSYN066AAXX  20001 22438 42570 80907 11046 21070 30247 40269 52021 885//;
0181224380999992000112003004+65190+036820FM-12+001899999V0200901N007010075019N0170001N1-00331-00441102821ADDAA199000091AJ100059199999999GF108991081051008001999999IA1229MD1110131+9999REMSYN076AAXX  20031 22438 32567 80907 11033 21044 40282 51013 885// 333 46005 55000;EQDQ01  00002PRCP99
0112224380999992000112015004+65190+036820FM-12+001899999V0200701N008012200019N0210001N1-00641-00831103441ADDGF102991021041008001001001MD1110071+9999REMSYN060AAXX  20151 22438 42571 20708 11064 21083 40344 51007 82400;
0165224380999992000112018004+65190+036820FM-12+001899999V0201101N005012200019N0220001N1-00471-01001103631ADDAA199000091GF101991011041008001001001KA1999M-00301MD1310191+9999REMSYN070AAXX  20181 22438 32572 11105 11047 21100 40363 53019 81400 333 11030;EQDQ01  00002PRCP99
0112224380999992000112021004+65190+036820FM-12+001899999V0202101N001010075019N0200001N1-00481-00841103691ADDGF108991061051008001071999MD1110061+9999REMSYN060AAXX  20211 22438 42570 82101 11048 21084 40369 51006 8657/;
0133224380999992000112100004+65190+036820FM-12+001899999V0202301N004010075019N0180001N1-00441-00671103731ADDGF108991081051008001999999MA1999999103501MD1210031+9999REMSYN066AAXX  21001 22438 42568 82304 11044 21067 30350 40373 52003 885//;
0179224380999992000112103004+65190+036820FM-12+001899999V0202101N002010075019N0200001N1-00281-00411103711ADDAJ100069199999999AY181031AY221031GF108991081051008001999999IA1229MD1810011+9999MW1021REMSYN082AAXX  21031 22438 /1570 82102 11028 21041 40371 58001 70282 885// 333 46006 55000;
0112224380999992000112109004+65190+036820FM-12+001899999V0201401N003012200019N0280001N1-00401-00901103881ADDGF102991011051008001001011MD1210111+9999REMSYN060AAXX  21091 22438 42578 21403 11040 21090 40388 52011 81501;
0112224380999992000112115004+65190+036820FM-12+001899999V0201201N003012200019N0260001N1-00601-00711103921ADDGF102991011051008001001011MD1110011+9999REMSYN060AAXX  21151 22438 42576 21203 11060 21071 40392 51001 81501;
0162224380999992000112118004+65190+036820FM-12+001899999V0201901N003012200019N0250001N1-01031-01091104001ADDAA100000791GA1001+999999999GF100991001001999999001001KA1999M-00231MD1310071+9999REMSYN070AAXX  21181 22438 12975 01903 11103 21109 40400 53007 69900 333 11023;
0122224380999992000112121004+65190+036820FM-12+001899999V0201801N003012200019N0250001N1-01231-01361103971ADDGA1001+999999999GF100991001001999999001001MD1810031+9999REMSYN054AAXX  21211 22438 41975 01803 11123 21136 40397 58003;
0143224380999992000112200004+65190+036820FM-12+001899999V0201701N002012200019N0200001N1-01321-01551103951ADDGA1001+999999999GF100991001001999999001001MA1999999103711MD1710021+9999REMSYN060AAXX  22001 22438 42970 01702 11132 21155 30371 40395 57002;
0175224380999992000112203004+65190+036820FM-12+001899999V0201901N004010075019N0180001N1-01181-01311103851ADDAA199000091AJ100069199999999GF105991051051008001001001IA1229MD1810101+9999REMSYN070AAXX  22031 22438 32568 51904 11118 21131 40385 58010 85500 333 46006;EQDQ01  00002PRCP99
0133224380999992000112212004+65190+036820FM-12+001899999V0202401N008012200019N0190001N1-00601-00811103741ADDGF106991021051008001001041MA1999999103511MD1710031+9999REMSYN066AAXX  22121 22438 42569 62408 11060 21081 30351 40374 57003 82504;
0131224380999992000112215004+65190+036820FM-12+001899999V0202401N008019999999N0180001N1-00601-00791103701ADDGF107991001001999999001041MD1710041+9999REMSYN060AAXX  22151 22438 42568 72408 11060 21079 40370 57004 80004;EQDQ01+008002SCOLCB
0165224380999992000112218004+65190+036820FM-12+001899999V0203101N008012200019N0080001N1-00521-00891103641ADDAA199000091GF101991001001999999001011KA1999M-00501MD1710061+9999REMSYN070AAXX  22181 22438 32958 13108 11052 21089 40364 57006 80001 333 11050;EQDQ01  00002PRCP99
0122224380999992000112221004+65190+036820FM-12+001899999V0202101N007012200019N0200001N1-00491-00771103561ADDGA1001+999999999GF100991001001999999001001MD1710081+9999REMSYN054AAXX  22211 22438 42970 02107 11049 21077 40356 57008;
0128224380999992000112300004+65190+036820FM-12+001899999V0202201N007012200019N0190001N1-00551-00811103501ADDGA1001+999999999GF100991001001999999001001MD1710061+9999REMSYN060AAXX  23001 22438 42969 02207 11055 21081 40350 57006 80001;
0181224380999992000112303004+65190+036820FM-12+001899999V0202001N009010075019N0170001N1-00481-00611103351ADDAA199000091AJ100059199999999GF107991071051008001001001IA1229MD1810151+9999REMSYN076AAXX  23031 22438 32567 72009 11048 21061 40335 58015 87500 333 46005 55000;EQDQ01  00002PRCP99
0165224380999992000112306004+65190+036820FM-12+001899999V0202001N009010075019N0190001N1-00441-00641103201ADDAA199000091GF107991071051008001001001KA1999N-00561MD1710151+9999REMSYN070AAXX  23061 22438 32569 72009 11044 21064 40320 57015 87500 333 21056;EQDQ01  00002PRCP99
0140224380999992000112309004+65190+036820FM-12+001899999V0202101N010010075019N0180001N1-00381-00501103081ADDAY131031AY221031GF108991081051008001999999MD1710121+9999MW1361REMSYN066AAXX  23091 22438 41568 82110 11038 21050 40308 57012 73632 885//;
0161224380999992000112312004+65190+036820FM-12+001899999V0202001N010010075019N0160001N1-00261-00321102871ADDAY131061AY221061GF108991081051008001999999MA1999999102651MD1810211+9999MW1361REMSYN072AAXX  23121 22438 41566 82010 11026 21032 30265 40287 58021 73632 885//;
0140224380999992000112315004+65190+036820FM-12+001899999V0201701N010010075019N0160001N1-00221-00281102721ADDAY131031AY221031GF108991081051008001999999MD1610151+9999MW1361REMSYN066AAXX  23151 22438 41566 81710 11022 21028 40272 56015 73632 885//;
0209224380999992000112318004+65190+036820FM-12+001899999V0202001N020010075019N0160001N1-00141-00221102601ADDAA199000091AY131061AY221061GF108991081051008001999999KA1999M+99999MD1710121+9999MW1361REMSYN076AAXX  23181 22438 31566 82020 11014 21022 40260 57012 73632 885// 333 11022;EQDQ01  00002PRCP99Q02 -00222ATMX  
0140224380999992000112321004+65190+036820FM-12+001899999V0202001N011010075019N0160001N1-00131-00211102451ADDAY131031AY221031GF108991081051008001999999MD1710161+9999MW1361REMSYN066AAXX  23211 22438 41566 82011 11013 21021 40245 57016 73632 885//;
0161224380999992000112400004+65190+036820FM-12+001899999V0202001N011010075019N0160001N1-00111-00181102311ADDAY131061AY221061GF108991081051008001999999MA1999999102091MD1710141+9999MW1361REMSYN072AAXX  24001 22438 41566 82011 11011 21018 30209 40231 57014 73632 885//;
0209224380999992000112403004+65190+036820FM-12+001899999V0202101N010010075019N0180001N1-00231-00351102111ADDAA199000091AJ100069199999999AY161031AY231031GF108991081051008001999999IA1229MD1710191+9999MW1031REMSYN082AAXX  24031 22438 31568 82110 11023 21035 40211 57019 70363 885// 333 46006 55000;EQDQ01  00002PRCP99
0193224380999992000112406004+65190+036820FM-12+001899999V0202401N010010042019N0160001N1-00041-00131102041ADDAA199000091AY131061AY221061GF108991081051004501999999KA1999N-00241MD1610081+9999MW1361REMSYN076AAXX  24061 22438 31466 82410 11004 21013 40204 56008 73632 885// 333 21024;EQDQ01  00002PRCP99
0161224380999992000112412004+65190+036820FM-12+001899999V0202201N008010075019N0150001N1+00101-00041101951ADDAY181061AY231061GF108991081051008001999999MA1999999101631MD1810101+9999MW1021REMSYN072AAXX  24121 22438 41565 82208 10010 21004 30163 40195 58010 70283 885//;
0112224380999992000112415004+65190+036820FM-12+001899999V0202201N008010075019N0150001N1+00161+00081101941ADDGF108991081051008001999999MD1610011+9999REMSYN060AAXX  24151 22438 42565 82208 10016 20008 40194 56001 885//;
0152224380999992000112418004+65190+036820FM-12+001899999V0202501N006010075019N0270001N1+00171+00031101951ADDAA100000391GF108991081051008001999999KA1999M+00161MD1410001+9999REMSYN076AAXX  24181 22438 12577 82506 10017 20003 40195 54000 69930 885// 333 10016;
0112224380999992000112421004+65190+036820FM-12+001899999V0202401N006010075019N0160001N1+00181+00031102021ADDGF108991081051008001999999MD1310091+9999REMSYN060AAXX  24211 22438 42566 82406 10018 20003 40202 53009 885//;
0133224380999992000112500004+65190+036820FM-12+001899999V0202401N005010075019N0170001N1+00161+00021102141ADDGF108991081051008001999999MA1999999101921MD1210111+9999REMSYN066AAXX  25001 22438 42567 82405 10016 20002 30192 40214 52011 885//;
0181224380999992000112503004+65190+036820FM-12+001899999V0202301N007010075019N0170001N1+00101+00021102061ADDAA199000091AJ100039199999999GF108991081051008001999999IA1259MD1810081+9999REMSYN076AAXX  25031 22438 32567 82307 10010 20002 40206 58008 885// 333 41003 55000;EQDQ01  00002PRCP99
0133224380999992000112512004+65190+036820FM-12+001899999V0202101N012010042019N0110001N1+00081-00031102131ADDGF108991081061004501999999MA1999999101911MD1810031+9999REMSYN066AAXX  25121 22438 42461 82112 10008 21003 30191 40213 58003 886//;
0112224380999992000112515004+65190+036820FM-12+001899999V0202201N010010042019N0110001N1-00031-00121102151ADDGF108991081061004501999999MD1310021+9999REMSYN060AAXX  25151 22438 42461 82210 11003 21012 40215 53002 886//;
0165224380999992000112518004+65190+036820FM-12+001899999V0202201N010010042019N0120001N1-00011-00101102151ADDAA199000091GF108991081061004501999999KA1999M+00321MD1410001+9999REMSYN070AAXX  25181 22438 32462 82210 11001 21010 40215 54000 886// 333 10032;EQDQ01  00002PRCP99
0112224380999992000112521004+65190+036820FM-12+001899999V0202001N010010042019N0110001N1-00011-00101102141ADDGF108991081061004501999999MD1810011+9999REMSYN060AAXX  25211 22438 42461 82010 11001 21010 40214 58001 886//;
0133224380999992000112600004+65190+036820FM-12+001899999V0202101N009010042019N0110001N1-00031-00091102111ADDGF108991081061004501999999MA1999999101891MD1710031+9999REMSYN066AAXX  26001 22438 42461 82109 11003 21009 30189 40211 57003 886//;
0152224380999992000112603004+65190+036820FM-12+001899999V0202301N010010042019N0120001N1-00131-00211102021ADDAA199000091GF108991081061004501999999MD1810091+9999REMSYN070AAXX  26031 22438 32462 82310 11013 21021 40202 58009 886// 333 55000;EQDQ01  00002PRCP99
0112224380999992000112609004+65190+036820FM-12+001899999V0202101N009010042019N0110001N1-00081-00181101951ADDGF108991081061004501999999MD1710041+9999REMSYN060AAXX  26091 22438 42461 82109 11008 21018 40195 57004 886//;
0112224380999992000112615004+65190+036820FM-12+001899999V0202101N010010042019N0120001N1-00071-00171101871ADDGF108991081061004501999999MD1710041+9999REMSYN060AAXX  26151 22438 42462 82110 11007 21017 40187 57004 886//;
0165224380999992000112618004+65190+036820FM-12+001899999V0202201N007010042019N0120001N1-00081-00181101771ADDAA199000091GF108991081061004501999999KA1999M-00051MD1810091+9999REMSYN070AAXX  26181 22438 32462 82207 11008 21018 40177 58009 886// 333 11005;EQDQ01  00002PRCP99
0112224380999992000112621004+65190+036820FM-12+001899999V0202201N010010042019N0120001N1-00111-00211101701ADDGF108991081061004501999999MD1710071+9999REMSYN060AAXX  26211 22438 42462 82210 11011 21021 40170 57007 886//;
0133224380999992000112700004+65190+036820FM-12+001899999V0202301N011010042019N0120001N1-00141-00251101611ADDGF108991081061004501999999MA1999999101391MD1710091+9999REMSYN066AAXX  27001 22438 42462 82311 11014 21025 30139 40161 57009 886//;
0179224380999992000112703004+65190+036820FM-12+001899999V0202401N008010042019N0038001N1-00031-00091101581ADDAJ100019199999999AY181031AY221031GF108991081091004501999999IA1219MD1610031+9999MW1851REMSYN082AAXX  27031 22438 /1438 82408 11003 21009 40158 56003 78582 889// 333 45001 55000;
0180224380999992000112706004+65190+036820FM-12+001899999V0202401N006010075019N0050001N1-00041-00101101621ADDAA100000791AY181061AY221061GF108991081091008001999999KA1999N-00141MD1310041+9999MW1851REMSYN082AAXX  27061 22438 11550 82406 11004 21010 40162 53004 69900 78582 889// 333 21014;
0161224380999992000112712004+65190+036820FM-12+001899999V0202701N005010075019N0190001N1+00061-00081101841ADDAY181061AY221061GF108991081051008001999999MA1999999101621MD1210131+9999MW1021REMSYN072AAXX  27121 22438 41569 82705 10006 21008 30162 40184 52013 70282 885//;
0112224380999992000112715004+65190+036820FM-12+001899999V0202701N005010075019N0190001N1+00081-00061101971ADDGF108991081051008001999999MD1210131+9999REMSYN060AAXX  27151 22438 42569 82705 10008 21006 40197 52013 885//;
0152224380999992000112718004+65190+036820FM-12+001899999V0202701N004010075019N0190001N1+00101+00021102061ADDAA100002091GF108991081051008001999999KA1999M+00101MD1210091+9999REMSYN076AAXX  27181 22438 12569 82704 10010 20002 40206 52009 60020 885// 333 10010;
0112224380999992000112721004+65190+036820FM-12+001899999V0202301N003010075019N0160001N1+00071-00041102111ADDGF108991081051008001999999MD1210051+9999REMSYN060AAXX  27211 22438 42566 82303 10007 21004 40211 52005 885//;
0133224380999992000112800004+65190+036820FM-12+001899999V0202201N003010075019N0160001N1+00041-00101102111ADDGF108991081051008001999999MA1999999101891MD1410001+9999REMSYN066AAXX  28001 22438 42566 82203 10004 21010 30189 40211 54000 885//;
0152224380999992000112803004+65190+036820FM-12+001899999V0201901N005010075019N0170001N1+00031-00051102061ADDAA199000091GF108991081051008001999999MD1810051+9999REMSYN070AAXX  28031 22438 32567 81905 10003 21005 40206 58005 885// 333 55000;EQDQ01  00002PRCP99
0133224380999992000112812004+65190+036820FM-12+001899999V0202101N011010042019N0130001N1-00121-00221101881ADDGF108991081061004501999999MA1999999101661MD1710061+9999REMSYN066AAXX  28121 22438 42463 82111 11012 21022 30166 40188 57006 886//;
0112224380999992000112815004+65190+036820FM-12+001899999V0202101N011010042019N0130001N1-00171-00281101771ADDGF108991081041004501999999MD1810111+9999REMSYN060AAXX  28151 22438 42463 82111 11017 21028 40177 58011 884//;
0165224380999992000112818004+65190+036820FM-12+001899999V0202201N010012200019N0180001N1-00201-00351101691ADDAA199000091GF103991031001999999031001KA1999M+00051MD1710081+9999REMSYN070AAXX  28181 22438 32968 32210 11020 21035 40169 57008 83030 333 10005;EQDQ01  00002PRCP99
0122224380999992000112821004+65190+036820FM-12+001899999V0202101N010012200019N0190001N1-00311-00451101541ADDGA1001+999999999GF100991001001999999001001MD1810151+9999REMSYN054AAXX  28211 22438 42969 02110 11031 21045 40154 58015;
0133224380999992000112900004+65190+036820FM-12+001899999V0202201N010012200019N0190001N1-00381-00501101371ADDGF101991011001999999041001MA1999999101151MD1710171+9999REMSYN066AAXX  29001 22438 42969 12210 11038 21050 30115 40137 57017 81040;
0140224380999992000112909004+65190+036820FM-12+001899999V0202401N008010075019N0049001N1-00261-00301100851ADDAY181031AY221031GF108991081041008001999999MD1710111+9999MW1851REMSYN066AAXX  29091 22438 41549 82408 11026 21030 40085 57011 78582 884//;
0161224380999992000112912004+65190+036820FM-12+001899999V0202301N006010075019N0080001N1-00091-00221100761ADDAY181061AY221061GF108991081091008001999999MA1999999100541MD1710091+9999MW1851REMSYN072AAXX  29121 22438 41558 82306 11009 21022 30054 40076 57009 78582 889//;
0140224380999992000112915004+65190+036820FM-12+001899999V0202401N005010075019N0160001N1-00131-00231100681ADDAY181031AY221031GF108991081051008001999999MD1710081+9999MW1021REMSYN066AAXX  29151 22438 /1566 82405 11013 21023 40068 57008 70282 885//;
0174224380999992000112918004+65190+036820FM-12+001899999V0202501N004019999999N0070001N1-00161-00271100581ADDAA100000591AY181061AY221061GF108991999999008001999999KA1999M-00091MD1710101+9999MW1021REMSYN076AAXX  29181 22438 11557 82504 11016 21027 40058 57010 69940 70282 333 11009;
0140224380999992000112921004+65190+036820FM-12+001899999V0202501N005010042019N0039001N1-00181-00261100561ADDAY181031AY221031GF108991081091004501999999MD1610021+9999MW1851REMSYN066AAXX  29211 22438 41439 82505 11018 21026 40056 56002 78582 889//;
0161224380999992000113000004+65190+036820FM-12+001899999V0202501N004010075019N0160001N1-00221-00311100521ADDAY181061AY221061GF108991081051008001999999MA1999999100301MD1710041+9999MW1021REMSYN072AAXX  30001 22438 41566 82504 11022 21031 30030 40052 57004 70282 885//;
0112224380999992000113015004+65190+036820FM-12+001899999V0203001N004010075019N0260001N1+00131-00041101101ADDGF108991081051008001999999MD1210161+9999REMSYN060AAXX  30151 22438 42576 83004 10013 21004 40110 52016 885//;
0180224380999992000113018004+65190+036820FM-12+001899999V0202501N004010042019N0060001N1-00051-00081101121ADDAA100000791AY121061AY221061GF108991081061004501999999KA1999M+00181MD1210021+9999MW1101REMSYN082AAXX  30181 22438 11456 82504 11005 21008 40112 52002 69900 71022 886// 333 10018;
0140224380999992000113021004+65190+036820FM-12+001899999V0202501N003010042019N0090001N1-00041-00101101131ADDAY121031AY221031GF108991081061004501999999MD1210011+9999MW1101REMSYN066AAXX  30211 22438 41459 82503 11004 21010 40113 52001 71022 886//;
0133224380999992000120100004+65190+036820FM-12+001899999V0202401N004010075019N0130001N1-00101-00101101131ADDGF108991081051008001999999MA1999999100911MD1410001+9999REMSYN066AAXX  01001 22438 42563 82404 11010 21010 30091 40113 54000 885//;
0181224380999992000120103004+65190+036820FM-12+001899999V0201601N003010075019N0160001N1-00151-00261101051ADDAA199000091AJ100049199999999GF106991061051008001001001IA1219MD1810081+9999REMSYN076AAXX  01031 22438 32566 61603 11015 21026 40105 58008 86500 333 45004 55000;EQDQ01  00002PRCP99
0165224380999992000120106004+65190+036820FM-12+001899999V0201801N005010075019N0160001N1-00131-00271101051ADDAA199000091GF107991071051008001001001KA1999N-00151MD1410001+9999REMSYN070AAXX  01061 22438 32566 71805 11013 21027 40105 54000 87500 333 21015;EQDQ01  00002PRCP99
0112224380999992000120109004+65190+036820FM-12+001899999V0201601N002010075019N0170001N1-00241-00401101061ADDGF107991061091008001071001MD1310011+9999REMSYN060AAXX  01091 22438 42567 71602 11024 21040 40106 53001 86970;
0112224380999992000120115004+65190+036820FM-12+001899999V0201001N008010075019N0180001N1-00251-00411101041ADDGF106991061051008001001001MD1310021+9999REMSYN060AAXX  01151 22438 42568 61008 11025 21041 40104 53002 86500;
0112224380999992000120215004+65190+036820FM-12+001899999V0201401N005010042019N0140001N1-00461-00591101521ADDGF108991081061004501999999MD1810031+9999REMSYN060AAXX  02151 22438 42464 81405 11046 21059 40152 58003 886//;
0165224380999992000120218004+65190+036820FM-12+001899999V0201501N005010075019N0180001N1-00521-00651101501ADDAA199000091GF108991081051008001999999KA1999M-00381MD1710021+9999REMSYN070AAXX  02181 22438 32568 81505 11052 21065 40150 57002 885// 333 11038;EQDQ01  00002PRCP99
0112224380999992000120221004+65190+036820FM-12+001899999V0201601N006010075019N0180001N1-00531-00631101381ADDGF108991081051008001999999MD1810121+9999REMSYN060AAXX  02211 22438 42568 81606 11053 21063 40138 58012 885//;
0118224380999992000120300004+65190+036820FM-12+001899999V0201601N006019999999N0180001N1-00551-00661999999ADDGF108991999999008001999999MA1999999101011REMSYN065AAXX  03001 22438 42568 81606 11055 21066 30101 4023 57015 885//;
0181224380999992000120303004+65190+036820FM-12+001899999V0201501N006010075019N0150001N1-00521-00731100931ADDAA199000091AJ100079199999999GF108991081051008001999999IA1309MD1810301+9999REMSYN076AAXX  03031 22438 32565 81506 11052 21073 40093 58030 885// 333 42007 55000;EQDQ01  00002PRCP99
0159224380999992000120309004+65190+036820FM-12+001899999V0201401N010010042019N0024001N1-00501-00631100321ADDAY171031AY231031GF108991999021004501071999MD1710291+9999MW1731REMSYN066AAXX  03091 22438 41424 81410 11050 21063 40032 57029 77373 8827/;EQDQ01+000082SCOTLC
0140224380999992000120315004+65190+036820FM-12+001899999V0201201N008010075019N9999999N1-00621-00931099831ADDAY171031AY231031GF108991081051008001999999MD1710171+9999MW1351REMSYN066AAXX  03151 22438 41552 81208 11062 21093 49983 57017 73573 885//;
0180224380999992000120318004+65190+036820FM-12+001899999V0201101N007010042019N0040001N1-00781-01001099871ADDAA100004191AY181061AY271061GF108991081091004501999999KA1999M-00401MD1310051+9999MW1851REMSYN082AAXX  03181 22438 11440 81107 11078 21100 49987 53005 60040 78587 889// 333 11040;
0140224380999992000120321004+65190+036820FM-12+001899999V0201101N007010075019N0020001N1-00801-00981100081ADDAY181031AY231031GF108991081091008001999999MD1310211+9999MW1861REMSYN066AAXX  03211 22438 41520 81107 11080 21098 40008 53021 78683 889//;
0161224380999992000120400004+65190+036820FM-12+001899999V0201201N007010075019N0110001N1-00831-00971100281ADDAY181061AY231061GF108991081051008001999999MA1999999100061MD1210201+9999MW1021REMSYN072AAXX  04001 22438 41561 81207 11083 21097 30006 40028 52020 70283 885//;
0112224380999992000120409004+65190+036820FM-12+001899999V0200501N003010075019N0220001N1-00551-00931101231ADDGF108991081051008001999999MD1210261+9999REMSYN060AAXX  04091 22438 42572 80503 11055 21093 40123 52026 885//;
0112224380999992000120415004+65190+036820FM-12+001899999V0201201N003010075019N0220001N1-00621-00971101581ADDGF108991081051008001999999MD1110141+9999REMSYN060AAXX  04151 22438 42572 81203 11062 21097 40158 51014 885//;
0165224380999992000120418004+65190+036820FM-12+001899999V0201401N005010075019N0210001N1-00731-00941101731ADDAA199000091GF108991081051008001999999KA1999M-00551MD1210151+9999REMSYN070AAXX  04181 22438 32571 81405 11073 21094 40173 52015 885// 333 11055;EQDQ01  00002PRCP99
0112224380999992000120421004+65190+036820FM-12+001899999V0200801N001010075019N0200001N1-00751-00921101851ADDGF108991081051008001999999MD1210121+9999REMSYN060AAXX  04211 22438 42570 80801 11075 21092 40185 52012 885//;
0133224380999992000120500004+65190+036820FM-12+001899999V0209999C000010075019N0190001N1-00811-00931101961ADDGF107991071051008001001001MA1999999101741MD1210111+9999REMSYN066AAXX  05001 22438 42569 70000 11081 21093 30174 40196 52011 87500;
0181224380999992000120503004+65190+036820FM-12+001899999V0201601N004010075019N0180001N1-00931-01051101991ADDAA199000091AJ100089199999999GF108991081051008001999999IA1239MD1110031+9999REMSYN076AAXX  05031 22438 32568 81604 11093 21105 40199 51003 885// 333 47008 55000;EQDQ01  00002PRCP99
0193224380999992000120506004+65190+036820FM-12+001899999V0201901N006010042019N0033001N1-00881-01031102041ADDAA199000091AY121061AY221061GF108991081061004501999999KA1999N-00931MD1210051+9999MW1101REMSYN076AAXX  05061 22438 31433 81906 11088 21103 40204 52005 71022 886// 333 21093;EQDQ01  00002PRCP99
0133224380999992000120512004+65190+036820FM-12+001899999V0201901N007010075019N0180001N1-00781-00881102121ADDGF108991081051008001999999MA1999999101901MD1410001+9999REMSYN066AAXX  05121 22438 42568 81907 11078 21088 30190 40212 54000 885//;
0112224380999992000120515004+65190+036820FM-12+001899999V0202001N009010075019N0210001N1-00691-00811102061ADDGF107991071051008001001001MD1810061+9999REMSYN060AAXX  05151 22438 42571 72009 11069 21081 40206 58006 87500;
0193224380999992000120518004+65190+036820FM-12+001899999V0201801N010010075019N0240001N1-00761-00981101951ADDAA199000091AY131061AY221061GF106991061051008001001001KA1999M-00691MD1710111+9999MW1361REMSYN076AAXX  05181 22438 31574 61810 11076 21098 40195 57011 73632 86500 333 11069;EQDQ01  00002PRCP99
0140224380999992000120521004+65190+036820FM-12+001899999V0202001N012010075019N0120001N1-00791-00971101831ADDAY131031AY221031GF108991081061008001999999MD1710121+9999MW1381REMSYN066AAXX  05211 22438 41562 82012 11079 21097 40183 57012 73832 886//;
0161224380999992000120600004+65190+036820FM-12+001899999V0202001N012010075019N0080001N1-00811-00991101701ADDAY131061AY221061GF108991081051008001999999MA1999999101481MD1710131+9999MW1381REMSYN072AAXX  06001 22438 41558 82012 11081 21099 30148 40170 57013 73832 885//;
0209224380999992000120603004+65190+036820FM-12+001899999V0202001N013010075019N0140001N1-00591-00811101441ADDAA199000091AJ100129199999999AY131031AY221031GF108991081051008001999999IA1249MD1710261+9999MW1371REMSYN082AAXX  06031 22438 31564 82013 11059 21081 40144 57026 73732 885// 333 48012 55000;EQDQ01  00002PRCP99
0193224380999992000120606004+65190+036820FM-12+001899999V0202001N011010075019N0120001N1-00241-00311101291ADDAA199000091AY131061AY221061GF108991081051008001999999KA1999N-00811MD1710151+9999MW1361REMSYN076AAXX  06061 22438 31562 82011 11024 21031 40129 57015 73632 885// 333 21081;EQDQ01  00002PRCP99
0140224380999992000120615004+65190+036820FM-12+001899999V0202101N010010075019N0150001N1+00181+00071100901ADDAY151031AY221031GF108991081051008001999999MD1710131+9999MW1021REMSYN066AAXX  06151 22438 41565 82110 10018 20007 40090 57013 70252 885//;
0199224380999992000120618004+65190+036820FM-12+001899999V0202101N010010021019N0050001N1+00221+00171100671ADDAA100000791AY161061AY251061GF108991999021002501071999KA1999M+00191MD1710231+9999MW1611REMSYN082AAXX  06181 22438 11350 82110 10022 20017 40067 57023 69900 76165 8827/ 333 10019;EQDQ01+000082SCOTLC
0140224380999992000120621004+65190+036820FM-12+001899999V0202401N008010042019N0050001N1+00311+00261100551ADDAY161031AY251031GF108991081061004501999999MD1610111+9999MW1501REMSYN066AAXX  06211 22438 41450 82408 10031 20026 40055 56011 75065 886//;
0161224380999992000120700004+65190+036820FM-12+001899999V0202401N009010075019N0130001N1+00221+00141100491ADDAY161061AY251061GF108991081051008001999999MA1999999100271MD1710061+9999MW1021REMSYN072AAXX  07001 22438 41563 82409 10022 20014 30027 40049 57006 70265 885//;
0151224380999992000120703004+65190+036820FM-12+001899999V0202301N009010075019N0130001N1+00271+00221100301ADDAJ100009199999999GF108991081051008001999999IA1259MD1810191+9999REMSYN076AAXX  07031 22438 /2563 82309 10027 20022 40030 58019 885// 333 41000 55000;
0152224380999992000120706004+65190+036820FM-12+001899999V0202601N009010075019N0150001N1+00281+00181100261ADDAA100000591GF107991071051008001001001KA1999N+00181MD1610041+9999REMSYN076AAXX  07061 22438 12565 72609 10028 20018 40026 56004 69950 87500 333 20018;
0112224380999992000120709004+65190+036820FM-12+001899999V0202601N008010075019N0150001N1+00281+00161100521ADDGF108991081051008001999999MD1310261+9999REMSYN060AAXX  07091 22438 42565 82608 10028 20016 40052 53026 885//;
0112224380999992000120715004+65190+036820FM-12+001899999V0203001N004010075019N0140001N1+00361+00281100761ADDGF108991081051008001999999MD1210091+9999REMSYN060AAXX  07151 22438 42564 83004 10036 20028 40076 52009 885//;
0174224380999992000120718004+65190+036820FM-12+001899999V0202801N006010021019N0050001N1+00341+00291100811ADDAA199000021AY151061AY221061GF108991081061002501999999KA1999M+00361MD1210051+9999MW1511REMSYN076AAXX  07181 22438 31350 82806 10034 20029 40081 52005 75152 886// 333 10036;
0140224380999992000120721004+65190+036820FM-12+001899999V0202801N006010021019N0060001N1+00331+00281100831ADDAY151031AY221031GF108991081061002501999999MD1110021+9999MW1511REMSYN066AAXX  07211 22438 41356 82806 10033 20028 40083 51002 75152 886//;
0161224380999992000120800004+65190+036820FM-12+001899999V0202701N006010021019N0050001N1+00331+00281100831ADDAY151061AY221061GF108991081061002501999999MA1999999100621MD1410001+9999MW1511REMSYN072AAXX  08001 22438 41350 82706 10033 20028 30062 40083 54000 75152 886//;
0199224380999992000120806004+65190+036820FM-12+001899999V0202601N005010042019N0044001N1+00301+00271100461ADDAA100002091AY161061AY251061GF108991999071004501021999KA1999N+00261MD1610131+9999MW1611REMSYN082AAXX  08061 22438 11444 82605 10030 20027 40046 56013 60020 76165 8872/ 333 20026;EQDQ01+000082SCOTLC
0159224380999992000120809004+65190+036820FM-12+001899999V0202201N008010021019N0042001N1+00241+00221100281ADDAY161031AY221031GF108991999071002501021999MD1810181+9999MW1611REMSYN066AAXX  08091 22438 41342 82208 10024 20022 40028 58018 76162 8872/;EQDQ01+000082SCOTLC
0180224380999992000120812004+65190+036820FM-12+001899999V0202401N007010021019N0046001N1+00201+00151100121ADDAY161061AY221061GF108991999071002501021999MA1999999099911MD1710161+9999MW1611REMSYN072AAXX  08121 22438 41346 82407 10020 20015 39991 40012 57016 76162 8872/;EQDQ01+000082SCOTLC
0159224380999992000120815004+65190+036820FM-12+001899999V0202401N007010021019N0042001N1+00121+00071100071ADDAY161031AY221031GF108991999071002501021999MD1610051+9999MW1611REMSYN066AAXX  08151 22438 41342 82407 10012 20007 40007 56005 76162 8872/;EQDQ01+000082SCOTLC
0180224380999992000120818004+65190+036820FM-12+001899999V0200101N004019999999N0090001N1+00071-00011100131ADDAA100003091AY161061AY221061GF108991081001999999021999KA1999M+00311MD1310061+9999MW1611REMSYN082AAXX  08181 22438 11959 80104 10007 21001 40013 53006 60030 76162 8802/ 333 10031;
0140224380999992000120821004+65190+036820FM-12+001899999V0200401N005010075019N0130001N1+00031-00051100341ADDAY161031AY221031GF108991061051008001021999MD1310211+9999MW1021REMSYN066AAXX  08211 22438 41563 80405 10003 21005 40034 53021 70262 8652/;
0161224380999992000120900004+65190+036820FM-12+001899999V0200501N005010075019N0150001N1-00011-00091100591ADDAY161061AY221061GF107991071051008001001001MA1999999100381MD1210251+9999MW1021REMSYN072AAXX  09001 22438 41565 70505 11001 21009 30038 40059 52025 70262 87500;
0188224380999992000120903004+65190+036820FM-12+001899999V0200601N005010042019N0060001N1-00071-00201100571ADDAY181031AY221031GF108991081091004501999999KA1120N+99999MD1810021+9999MW1851REMSYN082AAXX  09031 22438 /1456 80605 11007 21020 40057 58002 78582 889// 333 21000 55000;EQDQ01 +00002ATMN  
0180224380999992000120906004+65190+036820FM-12+001899999V0200801N004010075019N0170001N1-00101-00291100601ADDAA100002091AY181061AY221061GF108991071051008001031999KA1999N-00071MD1310031+9999MW1021REMSYN082AAXX  09061 22438 11567 80804 11010 21029 40060 53003 60020 70282 8753/ 333 21007;
0112224380999992000120909004+65190+036820FM-12+001899999V0200901N002010075019N0210001N1-00081-00361100671ADDGF107991061051008001031001MD1310071+9999REMSYN060AAXX  09091 22438 42571 70902 11008 21036 40067 53007 86530;
0112224380999992000120915004+65190+036820FM-12+001899999V0200201N001010075019N0250001N1-00071-00491100781ADDGF107991071051008001001001MD1110031+9999REMSYN060AAXX  09151 22438 42575 70201 11007 21049 40078 51003 87500;
0152224380999992000120918004+65190+036820FM-12+001899999V0209999C000010300019N0250001N1-00121-00451100821ADDAA100000791GF107991011051008001031001KA1999M-00071MD1210041+9999REMSYN076AAXX  09181 22438 12575 70000 11012 21045 40082 52004 69900 81530 333 11007;
0140224380999992000120921004+65190+036820FM-12+001899999V0202201N002010075019N0200001N1-00101-00361100801ADDAY181031AY221031GF107991071051008001001001MD1810021+9999MW1021REMSYN066AAXX  09211 22438 41570 72202 11010 21036 40080 58002 70282 87500;
0161224380999992000121000004+65190+036820FM-12+001899999V0202301N002010075019N0200001N1-00151-00351100791ADDAY181061AY221061GF107991071051008001001001MA1999999100581MD1710011+9999MW1021REMSYN072AAXX  10001 22438 41570 72302 11015 21035 30058 40079 57001 70282 87500;
0151224380999992000121003004+65190+036820FM-12+001899999V0202601N003019999999N0250001N1-00201-00451100771ADDAJ100009199999999GF106991061001999999031001IA1219MD1710011+9999REMSYN076AAXX  10031 22438 /2975 62603 11020 21045 40077 57001 86030 333 45000 55000;
0171224380999992000121006004+65190+036820FM-12+001899999V0201701N005012200019N0260001N1-00321-00631100801ADDAA100000791GF103991031001999999031001KA1999N+99999MD1310021+9999REMSYN076AAXX  10061 22438 12976 31705 11032 21063 40080 53002 69900 83030 333 21020;EQDQ01 -00202ATMN  
0112224380999992000121015004+65190+036820FM-12+001899999V0201801N003019999999N0210001N1-00471-00571100831ADDGF107991001001999999001041MD1810011+9999REMSYN060AAXX  10151 22438 42971 71803 11047 21057 40083 58001 80004;
0165224380999992000121018004+65190+036820FM-12+001899999V0201701N005010750019N0220001N1-00531-00631100771ADDAA199000091GF108991021051008001001061KA1999M-00201MD1710061+9999REMSYN070AAXX  10181 22438 32572 81705 11053 21063 40077 57006 82506 333 11020;EQDQ01  00002PRCP99
0112224380999992000121021004+65190+036820FM-12+001899999V0201601N005010750019N0200001N1-00581-00651100681ADDGF108991031051008001001061MD1710091+9999REMSYN060AAXX  10211 22438 42570 81605 11058 21065 40068 57009 83506;
0133224380999992000121100004+65190+036820FM-12+001899999V0201501N005010075019N0180001N1-00641-00721100601ADDGF107991061051008001001061MA1999999100381MD1710081+9999REMSYN066AAXX  11001 22438 42568 71505 11064 21072 30038 40060 57008 86506;
0112224380999992000121115004+65190+036820FM-12+001899999V0202101N005010075019N0140001N1+00211+00131100371ADDGF108991081051008001999999MD1210121+9999REMSYN060AAXX  11151 22438 42564 82105 10021 20013 40037 52012 885//;
0152224380999992000121118004+65190+036820FM-12+001899999V0202101N006010075019N0160001N1+00251+00171100421ADDAA100000191GF108991081051008001999999KA1999M+00211MD1110051+9999REMSYN076AAXX  11181 22438 12566 82106 10025 20017 40042 51005 69910 885// 333 10021;
0112224380999992000121121004+65190+036820FM-12+001899999V0202101N004010075019N0140001N1+00271+00191100501ADDGF108991081051008001999999MD1210081+9999REMSYN060AAXX  11211 22438 42564 82104 10027 20019 40050 52008 885//;
0133224380999992000121200004+65190+036820FM-12+001899999V0202101N003010075019N0150001N1+00241+00191100591ADDGF108991081051008001999999MA1999999100381MD1210091+9999REMSYN066AAXX  12001 22438 42565 82103 10024 20019 30038 40059 52009 885//;
0151224380999992000121203004+65190+036820FM-12+001899999V0201901N005010075019N0180001N1+00211+00111100601ADDAJ100009199999999GF108991081051008001999999IA1259MD1110011+9999REMSYN076AAXX  12031 22438 /2568 81905 10021 20011 40060 51001 885// 333 41000 55000;
0140224380999992000121215004+65190+036820FM-12+001899999V0201801N004010075019N0150001N1+00341+00141100581ADDAY181031AY221031GF107991061051008001031001MD1810011+9999MW1021REMSYN066AAXX  12151 22438 41565 71804 10034 20014 40058 58001 70282 86530;
0180224380999992000121218004+65190+036820FM-12+001899999V0201901N004010042019N0100001N1+00221+00141100561ADDAA100000591AY181061AY221061GF108991081091004501999999KA1999M+00431MD1710021+9999MW1801REMSYN082AAXX  12181 22438 11460 81904 10022 20014 40056 57002 69950 78082 889// 333 10043;
0140224380999992000121221004+65190+036820FM-12+001899999V0201901N005010075019N0120001N1+00211+00111100601ADDAY181031AY221031GF108991071051008001051999MD1310041+9999MW1021REMSYN066AAXX  12211 22438 41562 81905 10021 20011 40060 53004 70282 8755/;
0161224380999992000121300004+65190+036820FM-12+001899999V0201801N005010075019N0120001N1+00191+00061100631ADDAY181061AY221061GF107991071051008001001001MA1999999100421MD1210031+9999MW1021REMSYN072AAXX  13001 22438 41562 71805 10019 20006 30042 40063 52003 70282 87500;
0122224380999992000121303004+65190+036820FM-12+001899999V0201901N007010075019N0140001N1+00261+00131100621ADDGF108991081051008001999999MD1810011+9999REMSYN070AAXX  13031 22438 /2564 81907 10026 20013 40062 58001 885// 333 55000;
0152224380999992000121306004+65190+036820FM-12+001899999V0201901N008010075019N0160001N1+00201+00071100631ADDAA100000591GF107991071051008001001001KA1999N+00181MD1310011+9999REMSYN076AAXX  13061 22438 12566 71908 10020 20007 40063 53001 69940 87500 333 20018;
0161224380999992000121312004+65190+036820FM-12+001899999V0201901N008010075019N0036001N1+00081+00001100631ADDAY181061AY221061GF108991081091008001999999MA1999999100421MD1410001+9999MW1851REMSYN072AAXX  13121 22438 41536 81908 10008 20000 30042 40063 54000 78582 889//;
0140224380999992000121315004+65190+036820FM-12+001899999V0201901N007010075019N0140001N1+00061-00051100591ADDAY181031AY221031GF108991081051008001999999MD1810041+9999MW1021REMSYN066AAXX  13151 22438 41564 81907 10006 21005 40059 58004 70282 885//;
0180224380999992000121318004+65190+036820FM-12+001899999V0201701N006010075019N0160001N1+00021-00071100531ADDAA100000191AY181061AY221061GF108991081051008001999999KA1999M+00231MD1710061+9999MW1021REMSYN082AAXX  13181 22438 11566 81706 10002 21007 40053 57006 69910 70282 885// 333 10023;
0112224380999992000121321004+65190+036820FM-12+001899999V0201701N005010075019N0160001N1+00031-00051100471ADDGF108991081051008001999999MD1710061+9999REMSYN060AAXX  13211 22438 42566 81705 10003 21005 40047 57006 885//;
0133224380999992000121400004+65190+036820FM-12+001899999V0201701N004010075019N0160001N1+00011-00081100301ADDGF107991071051008001001001MA1999999100191MD1710071+9999REMSYN066AAXX  14001 22438 42566 71704 10001 21008 30019 40030 57007 87500;
0180224380999992000121403004+65190+036820FM-12+001899999V0201501N003010075019N0070001N1+00011-00051100341ADDAA199000091AY121031AY221031GF108991081051008001999999MD1710061+9999MW1101REMSYN076AAXX  14031 22438 31557 81503 10001 21005 40034 57006 71022 885// 333 55000;EQDQ01  00002PRCP99
0112224380999992000121415004+65190+036820FM-12+001899999V0201001N004010075019N0160001N1-00031-00151100321ADDGF108991081051008001999999MD1810031+9999REMSYN060AAXX  14151 22438 42566 81004 11003 21015 40032 58003 885//;
0165224380999992000121418004+65190+036820FM-12+001899999V0201401N005010075019N0160001N1-00171-00171100261ADDAA199000091GF108991081051008001999999KA1999M+00031MD1810061+9999REMSYN070AAXX  14181 22438 32566 81405 11017 21017 40026 58006 885// 333 10003;EQDQ01  00002PRCP99
0112224380999992000121421004+65190+036820FM-12+001899999V0201701N007010075019N0150001N1-00131-00221100261ADDGF108991081051008001999999MD1410001+9999REMSYN060AAXX  14211 22438 42565 81707 11013 21022 40026 54000 885//;
0133224380999992000121500004+65190+036820FM-12+001899999V0201701N008010075019N0150001N1-00221-00231100241ADDGF108991081051008001999999MA1999999100021MD1810031+9999REMSYN066AAXX  15001 22438 42565 81708 11022 21023 30002 40024 58003 885//;
0133224380999992000121512004+65190+036820FM-12+001899999V0201501N004010300019N0200001N1-00101-00361100371ADDGF108991021051008001051999MA1999999100161MD1210071+9999REMSYN066AAXX  15121 22438 42570 81504 11010 21036 30016 40037 52007 8255/;
0112224380999992000121515004+65190+036820FM-12+001899999V0201701N005010075019N0200001N1-00101-00361100531ADDGF108991051051008001051999MD1210061+9999REMSYN060AAXX  15151 22438 42570 81705 11010 21036 40053 52006 8555/;
0152224380999992000121518004+65190+036820FM-12+001899999V0201601N004010075019N0180001N1-00101-00391100531ADDAA100000191GF108991081051008001999999KA1999M-00091MD1210101+9999REMSYN076AAXX  15181 22438 12568 81604 11010 21039 40053 52010 69920 885// 333 11009;
0112224380999992000121521004+65190+036820FM-12+001899999V0201401N005019999999N0200001N1-00141-00401100611ADDGF108991081001999999051999MD1210011+9999REMSYN060AAXX  15211 22438 42970 81405 11014 21040 40061 52001 8805/;
0133224380999992000121600004+65190+036820FM-12+001899999V0201401N005019999999N0200001N1-00161-00401100701ADDGF108991081001999999051999MA1999999100491MD1210081+9999REMSYN066AAXX  16001 22438 42970 81405 11016 21040 30049 40070 52008 8805/;
0181224380999992000121603004+65190+036820FM-12+001899999V0201301N004019999999N0200001N1-00201-00381100671ADDAA199000091AJ100009199999999GF108991081001999999071999IA1219MD1810031+9999REMSYN076AAXX  16031 22438 32970 81304 11020 21038 40067 58003 8807/ 333 45000 55000;EQDQ01  00002PRCP99
0112224380999992000121615004+65190+036820FM-12+001899999V0201701N004010075019N0210001N1-00171-00381100861ADDGF108991061051008001071999MD1110011+9999REMSYN060AAXX  16151 22438 42571 81704 11017 21038 40086 51001 8657/;
0165224380999992000121618004+65190+036820FM-12+001899999V0201701N003010075019N0200001N1-00191-00401100901ADDAA199000091GF108991081051008001999999KA1999M-00131MD1310041+9999REMSYN070AAXX  16181 22438 32570 81703 11019 21040 40090 53004 885// 333 11013;EQDQ01  00002PRCP99
0112224380999992000121621004+65190+036820FM-12+001899999V0201701N003010075019N0200001N1-00201-00381100981ADDGF108991081051008001999999MD1210081+9999REMSYN060AAXX  16211 22438 42570 81703 11020 21038 40098 52008 885//;
0133224380999992000121700004+65190+036820FM-12+001899999V0201701N003010075019N0190001N1-00221-00401101051ADDGF108991081051008001999999MA1999999100841MD1210071+9999REMSYN066AAXX  17001 22438 42569 81703 11022 21040 30084 40105 52007 885//;
0181224380999992000121703004+65190+036820FM-12+001899999V0201901N006010075019N0190001N1-00221-00371101031ADDAA199000091AJ100009199999999GF108991081051008001999999IA1219MD1810021+9999REMSYN076AAXX  17031 22438 32569 81906 11022 21037 40103 58002 885// 333 45000 55000;EQDQ01  00002PRCP99
0112224380999992000121715004+65190+036820FM-12+001899999V0202101N002019999999N0190001N1-00471-00671101351ADDGF108991081001999999071999MD1210081+9999REMSYN060AAXX  17151 22438 42969 82102 11047 21067 40135 52008 8807/;
0165224380999992000121718004+65190+036820FM-12+001899999V0202301N003019999999N0190001N1-00471-00671101401ADDAA199000091GF108991081001999999071999KA1999M-00221MD1210051+9999REMSYN070AAXX  17181 22438 32969 82303 11047 21067 40140 52005 8807/ 333 11022;EQDQ01  00002PRCP99
0112224380999992000121721004+65190+036820FM-12+001899999V0202201N002010075019N0180001N1-00481-00651101531ADDGF108991061051008001071999MD1310131+9999REMSYN060AAXX  17211 22438 42568 82202 11048 21065 40153 53013 8657/;
0133224380999992000121800004+65190+036820FM-12+001899999V0202201N002010075019N0180001N1-00501-00671101631ADDGF108991081051008001999999MA1999999101411MD1210101+9999REMSYN066AAXX  18001 22438 42568 82202 11050 21067 30141 40163 52010 885//;
0161224380999992000121812004+65190+036820FM-12+001899999V0202201N006010075019N0130001N1-00251-00311101651ADDAY181061AY221061GF108991081091008001999999MA1999999101431MD1110011+9999MW1851REMSYN072AAXX  18121 22438 41563 82206 11025 21031 30143 40165 51001 78582 889//;
0140224380999992000121815004+65190+036820FM-12+001899999V0202801N004010075019N0160001N1-00161-00501101661ADDAY181031AY221031GF108991081051008001999999MD1210011+9999MW1021REMSYN066AAXX  18151 22438 41566 82804 11016 21050 40166 52001 70282 885//;
0215224380999992000121818004+65190+036820FM-12+001899999V0203001N004010075019N0200001N1-00221-00501101661ADDAA100000191AY181061AY221061GF108991999051008001001001KA1999N+99999MD1410001+9999MW1021REMSYN082AAXX  18181 22438 11570 83004 11022 21050 40166 54000 69920 70282 87500 333 21014;EQDQ01+000072SCOTLCQ02 -00142ATMN  
0112224380999992000121821004+65190+036820FM-12+001899999V0202801N005010075019N0200001N1-00301-00501101661ADDGF108991081051008001999999MD1410001+9999REMSYN060AAXX  18211 22438 42570 82805 11030 21050 40166 54000 885//;
0133224380999992000121900004+65190+036820FM-12+001899999V0202901N005010075019N0190001N1-00341-00511101631ADDGF108991081051008001999999MA1999999101411MD1810031+9999REMSYN066AAXX  19001 22438 42569 82905 11034 21051 30141 40163 58003 885//;
0181224380999992000121903004+65190+036820FM-12+001899999V0202901N005010075019N0190001N1-00401-00591101621ADDAA199000091AJ100009199999999GF108991081051008001999999IA1219MD1610011+9999REMSYN076AAXX  19031 22438 32569 82905 11040 21059 40162 56001 885// 333 45000 55000;EQDQ01  00002PRCP99
0165224380999992000121906004+65190+036820FM-12+001899999V0202801N005010075019N0210001N1-00341-00551101611ADDAA199000091GF107991071051008001001001KA1999N-00401MD1710011+9999REMSYN070AAXX  19061 22438 32571 72805 11034 21055 40161 57001 87500 333 21040;EQDQ01  00002PRCP99
0112224380999992000121909004+65190+036820FM-12+001899999V0202901N007010075019N0260001N1-00231-00481101581ADDGF107991071051008001001001MD1710031+9999REMSYN060AAXX  19091 22438 42576 72907 11023 21048 40158 57003 87500;
0112224380999992000121915004+65190+036820FM-12+001899999V0203401N008010075019N0210001N1-00241-00431101551ADDGF107991071051008001001001MD1310051+9999REMSYN060AAXX  19151 22438 42571 73408 11024 21043 40155 53005 87500;
0152224380999992000121918004+65190+036820FM-12+001899999V0203201N006010075019N0190001N1-00201-00411101621ADDAA100000791GF106991061051008001001001KA1999M-00211MD1210071+9999REMSYN076AAXX  19181 22438 12569 63206 11020 21041 40162 52007 69900 86500 333 11021;
0112224380999992000121921004+65190+036820FM-12+001899999V0203301N008010075019N0190001N1-00221-00401101601ADDGF107991071051008001001001MD1810021+9999REMSYN060AAXX  19211 22438 42569 73308 11022 21040 40160 58002 87500;
0133224380999992000122000004+65190+036820FM-12+001899999V0203401N009010075019N0180001N1-00231-00421101761ADDGF108991081051008001999999MA1999999101541MD1710061+9999REMSYN066AAXX  20001 22438 42568 83409 11023 21042 30154 40176 57006 885//;
0181224380999992000122003004+65190+036820FM-12+001899999V0203401N009010300019N0190001N1-00161-00331101531ADDAA199000091AJ100009199999999GF105991031051008001071001IA1219MD1610011+9999REMSYN076AAXX  20031 22438 32569 53409 11016 21033 40153 56001 83570 333 45000 55000;EQDQ01  00002PRCP99
0163224380999992000122006004+65190+036820FM-12+001899999V0203301N010010042019N0110001N1-00161-00271101651ADDAY181061AY221061GF107991071091004501001001KA1999N-00251MD1310121+9999MW1851REMSYN076AAXX  20061 22438 41461 73310 11016 21027 40165 53012 78582 87900 333 21025;
0140224380999992000122009004+65190+036820FM-12+001899999V0203201N010010075019N0220001N1-00061-00341101701ADDAY181031AY221031GF107991071091008001001001MD1110051+9999MW1021REMSYN066AAXX  20091 22438 41572 73210 11006 21034 40170 51005 70282 87900;
0161224380999992000122012004+65190+036820FM-12+001899999V0203401N013010075019N0160001N1+00021-00311101671ADDAY181061AY221061GF108991081091008001999999MA1999999101451MD1810031+9999MW1021REMSYN072AAXX  20121 22438 41566 83413 10002 21031 30145 40167 58003 70282 889//;
0112224380999992000122015004+65190+036820FM-12+001899999V0200301N007010075019N0190001N1-00121-00411101951ADDGF108991081051008001999999MD1310271+9999REMSYN060AAXX  20151 22438 42569 80307 11012 21041 40195 53027 885//;
0152224380999992000122018004+65190+036820FM-12+001899999V0200501N009010075019N0190001N1-00271-00531102221ADDAA100000791GF108991081051008001999999KA1999M+00041MD1210281+9999REMSYN076AAXX  20181 22438 12569 80509 11027 21053 40222 52028 69900 885// 333 10004;
0112224380999992000122021004+65190+036820FM-12+001899999V0200301N003010075019N0190001N1-00331-00571102381ADDGF108991081051008001999999MD1110161+9999REMSYN060AAXX  20211 22438 42569 80303 11033 21057 40238 51016 885//;
0133224380999992000122100004+65190+036820FM-12+001899999V0200401N004010075019N0180001N1-00401-00621102501ADDGF108991081051008001999999MA1999999102281MD1210111+9999REMSYN066AAXX  21001 22438 42568 80404 11040 21062 30228 40250 52011 885//;
0173224380999992000122103004+65190+036820FM-12+001899999V0202701N002019999999N0020001N1-00281-00381102431ADDAJ100019199999999AY181031AY221031GF108991999999004501999999IA1229MD1810071+9999MW1861REMSYN076AAXX  21031 22438 /1420 82702 11028 21038 40243 58007 78682 333 46001 55000;
0157224380999992000122106004+65190+036820FM-12+001899999V0203501N005010075019N0180001N1-00241-00361102331ADDAA100000391AY181061AY221061GF107991071051008001001001MD1710101+9999MW1021REMSYN072AAXX  21061 22438 11568 73505 11024 21036 40233 57010 69930 70282 87500;
0140224380999992000122109004+65190+036820FM-12+001899999V0200301N003010042019N0050001N1-00151-00231102371ADDAY181031AY221031GF107991071091004501001001MD1310041+9999MW1851REMSYN066AAXX  21091 22438 41450 70303 11015 21023 40237 53004 78582 87900;
0161224380999992000122112004+65190+036820FM-12+001899999V0200901N004010075019N0190001N1-00141-00441102371ADDAY181061AY221061GF108991061051008001071999MA1999999102151MD1410001+9999MW1021REMSYN072AAXX  21121 22438 41569 80904 11014 21044 30215 40237 54000 70282 8657/;
0112224380999992000122115004+65190+036820FM-12+001899999V0201401N003010075019N0200001N1-00351-00641102381ADDGF108991081051008001999999MD1310011+9999REMSYN060AAXX  21151 22438 42570 81403 11035 21064 40238 53001 885//;
0152224380999992000122118004+65190+036820FM-12+001899999V0201501N003010075019N0220001N1-00481-00761102341ADDAA100001091GF106991061051008001001001KA1999M-00101MD1810041+9999REMSYN076AAXX  21181 22438 13572 61503 11048 21076 40234 58004 69990 86500 333 11010;
0159224380999992000122121004+65190+036820FM-12+001899999V0201901N002019999999N0080001N1-00541-00721102261ADDAY181031AY221031GF107991999091004501999999MD1710081+9999MW1851REMSYN066AAXX  21211 22438 41458 71902 11054 21072 40226 57008 78582 889//;EQDQ01+000082SCOTLC
0165224380999992000122200004+65190+036820FM-12+001899999V0201901N003010075019N0150001N1-00571-00831102231ADDAY181061AY221061GF108991081051008001999999MA1999999102011MD1610031+9999MW1021REMSYN076AAXX  22001 22438 41565 81903 11057 21083 30201 40223 56003 70282 885// 333;
0140224380999992000122209004+65190+036820FM-12+001899999V0201501N007012200019N0090001N1-01071-01351101521ADDAY101031AY201031GF102991011051008001031001MD1710161+9999MW1101REMSYN066AAXX  22091 22438 42559 21507 11107 21135 40152 57016 71000 81530;
0161224380999992000122212004+65190+036820FM-12+001899999V0201601N006012200019N0090001N1-01101-01301101331ADDAY101061AY201061GF101991011001999999031001MA1999999101111MD1710191+9999MW1101REMSYN072AAXX  22121 22438 41959 11606 11110 21130 30111 40133 57019 71000 81030;
0112224380999992000122215004+65190+036820FM-12+001899999V0201401N006012200019N0120001N1-01321-01521101151ADDGF102991021001999999031001MD1710191+9999REMSYN060AAXX  22151 22438 42962 21406 11132 21152 40115 57019 82030;
0175224380999992000122218004+65190+036820FM-12+001899999V0201701N006012200019N0120001N1-01421-01551101011ADDAA199000091GA1001+999999999GF100991001001999999001001KA1999M-00791MD1710141+9999REMSYN064AAXX  22181 22438 32962 01706 11142 21155 40101 57014 333 11079;EQDQ01  00002PRCP99
0122224380999992000122221004+65190+036820FM-12+001899999V0201601N008012200019N0160001N1-01351-01551100871ADDGA1001+999999999GF100991001001999999001001MD1710141+9999REMSYN054AAXX  22211 22438 42966 01608 11135 21155 40087 57014;
0133224380999992000122300004+65190+036820FM-12+001899999V0201501N009012200019N0140001N1-01411-01611100721ADDGF101991011001999999031001MA1999999100491MD1710151+9999REMSYN066AAXX  23001 22438 42964 11509 11141 21161 30049 40072 57015 81030;
0191224380999992000122303004+65190+036820FM-12+001899999V0201501N006012200019N0190001N1-01391-01591100641ADDAA199000091AJ100059199999999GA1001+999999999GF100991001001999999001001IA1239MD1610081+9999REMSYN070AAXX  23031 22438 32969 01506 11139 21159 40064 56008 333 47005 55000;EQDQ01  00002PRCP99
0175224380999992000122306004+65190+036820FM-12+001899999V0201601N007012200019N0210001N1-01451-01651100651ADDAA199000091GA1001+999999999GF100991001001999999001001KA1999N-01481MD1310011+9999REMSYN064AAXX  23061 22438 32971 01607 11145 21165 40065 53001 333 21148;EQDQ01  00002PRCP99
0112224380999992000122309004+65190+036820FM-12+001899999V0201601N006012200019N0220001N1-01481-01681100671ADDGF101991011001999999031001MD1210021+9999REMSYN060AAXX  23091 22438 42972 11606 11148 21168 40067 52002 81030;
0133224380999992000122312004+65190+036820FM-12+001899999V0201501N005012200019N0200001N1-01601-01791100711ADDGF102991021001999999031001MA1999999100481MD1210041+9999REMSYN066AAXX  23121 22438 42970 21505 11160 21179 30048 40071 52004 82030;
0112224380999992000122315004+65190+036820FM-12+001899999V0201501N005012200019N0180001N1-01731-01921100721ADDGF102991021001999999031001MD1210011+9999REMSYN060AAXX  23151 22438 42968 21505 11173 21192 40072 52001 82030;
0168224380999992000122318004+65190+036820FM-12+001899999V0201601N006012200019N0190001N1-01721-01911100731ADDAA199000091GA1021+009009019GF102991021001999999031001MD1210011+9999REMSYN070AAXX  23181 22438 32969 21606 11172 21191 40073 52001 82030 333 82030;EQDQ01  00002PRCP99
0112224380999992000122321004+65190+036820FM-12+001899999V0201501N005012200019N0180001N1-01741-01931100801ADDGF102991021001999999031001MD1310071+9999REMSYN060AAXX  23211 22438 42968 21505 11174 21193 40080 53007 82030;
0133224380999992000122400004+65190+036820FM-12+001899999V0201501N004012200019N0170001N1-01811-02001100881ADDGF102991021001999999031001MA1999999100651MD1210071+9999REMSYN066AAXX  24001 22438 41967 21504 11181 21200 30065 40088 52007 82030;
0191224380999992000122403004+65190+036820FM-12+001899999V0201701N004012200019N0200001N1-01581-01771100761ADDAA199000091AJ100059199999999GA1001+999999999GF100991001001999999001001IA1239MD1710121+9999REMSYN070AAXX  24031 22438 32970 01704 11158 21177 40076 57012 333 47005 55000;EQDQ01  00002PRCP99
0165224380999992000122406004+65190+036820FM-12+001899999V0201501N004012200019N0210001N1-01441-01571100771ADDAA199000091GF102991021051008001001001KA1999N-01811MD1310011+9999REMSYN070AAXX  24061 22438 32571 21504 11144 21157 40077 53001 82500 333 21181;EQDQ01  00002PRCP99
0140224380999992000122415004+65190+036820FM-12+001899999V0201801N002010042019N0050001N1-01211-01271100631ADDAY171031AY221031GF108991081001004501021999MD1710071+9999MW1711REMSYN066AAXX  24151 22438 41450 81802 11121 21127 40063 57007 77172 8802/;
0215224380999992000122418004+65190+036820FM-12+001899999V0201901N003010042019N0040001N1-01111-01171100541ADDAA100000191AY171061AY221061GF108991999071004501021999KA1999M+99999MD1710091+9999MW1711REMSYN082AAXX  24181 22438 11440 81903 11111 21117 40054 57009 69910 77172 8872/ 333 11117;EQDQ01+000082SCOTLCQ02 -01172ATMX  
0140224380999992000122421004+65190+036820FM-12+001899999V0201901N004010042019N0040001N1-01051-01111100441ADDAY171031AY221031GF108991081001004501021999MD1710101+9999MW1711REMSYN066AAXX  24211 22438 41440 81904 11105 21111 40044 57010 77172 8802/;
0161224380999992000122500004+65190+036820FM-12+001899999V0201801N004010075019N0120001N1-01021-01151100391ADDAY171061AY221061GF108991081051008001999999MA1999999100171MD1710051+9999MW1221REMSYN072AAXX  25001 22438 41562 81804 11102 21115 30017 40039 57005 72272 885//;
0151224380999992000122503004+65190+036820FM-12+001899999V0201701N006010042019N0190001N1-00931-01051100151ADDAJ100069199999999GF108991081051004501999999IA1239MD1810241+9999REMSYN076AAXX  25031 22438 /2469 81706 11093 21105 40015 58024 885// 333 47006 55000;
0152224380999992000122506004+65190+036820FM-12+001899999V0201601N007010075019N0200001N1-00851-01001099991ADDAA100000891GF107991071091008001001001KA1999N-01211MD1610161+9999REMSYN076AAXX  25061 22438 12570 71607 11085 21100 49999 56016 69980 87900 333 21121;
0140224380999992000122509004+65190+036820FM-12+001899999V0203301N009010075019N0022001N1-00761-00761099861ADDAY181031AY221031GF108991081091008001999999MD1710131+9999MW1851REMSYN066AAXX  25091 22438 41522 83309 11076 21076 49986 57013 78582 889//;
0140224380999992000122515004+65190+036820FM-12+001899999V0200701N007010075019N0021001N1-01021-01221099901ADDAY181031AY221031GF108991081091008001999999MD1310081+9999MW1851REMSYN066AAXX  25151 22438 41521 80707 11102 21122 49990 53008 78582 889//;
0180224380999992000122518004+65190+036820FM-12+001899999V0200701N005010075019N0160001N1-01201-01401099991ADDAA100002091AY181061AY221061GF107991071091008001001001KA1999M-00721MD1210091+9999MW1261REMSYN082AAXX  25181 22438 11566 70705 11120 21140 49999 52009 60020 72682 87900 333 11072;
0112224380999992000122521004+65190+036820FM-12+001899999V0200701N005010075019N0170001N1-01321-01451100131ADDGF108991081051008001999999MD1210141+9999REMSYN060AAXX  25211 22438 42567 80705 11132 21145 40013 52014 885//;
0133224380999992000122600004+65190+036820FM-12+001899999V0200701N005010075019N0160001N1-01391-01591100301ADDGF108991081051008001999999MA1999999100081MD1210171+9999REMSYN066AAXX  26001 22438 42566 80705 11139 21159 30008 40030 52017 885//;
0179224380999992000122603004+65190+036820FM-12+001899999V0201601N007010075019N0160001N1-01411-01621100241ADDAJ100089199999999AY131031AY221031GF108991081051008001999999IA1249MD1810061+9999MW1361REMSYN082AAXX  26031 22438 /1566 81607 11141 21162 40024 58006 73632 885// 333 48008 55000;
0180224380999992000122606004+65190+036820FM-12+001899999V0201501N004010075019N0020001N1-01351-01411100321ADDAA100000391AY181061AY221061GF108991081091008001999999KA1999N-01471MD1310091+9999MW1851REMSYN082AAXX  26061 22438 11520 81504 11135 21141 40032 53009 69930 78582 889// 333 21147;
0140224380999992000122615004+65190+036820FM-12+001899999V0201701N006010075019N0009001N1-01261-01391100511ADDAY181031AY221031GF107991071091008001001001MD1210081+9999MW1861REMSYN066AAXX  26151 22438 41509 71706 11126 21139 40051 52008 78682 87900;
0199224380999992000122618004+65190+036820FM-12+001899999V0202501N005010075019N0120001N1-01151-01281100541ADDAA100004191AY181061AY221061GF106991061091008001001001KA1999M+99999MD1110031+9999MW1021REMSYN082AAXX  26181 22438 11562 62505 11115 21128 40054 51003 60040 70282 86900 333 11126;EQDQ01 -01262ATMX  
0140224380999992000122621004+65190+036820FM-12+001899999V0202101N008010075019N0130001N1-01061-01191100681ADDAY131031AY221031GF108991081051008001999999MD1310141+9999MW1361REMSYN066AAXX  26211 22438 41563 82108 11106 21119 40068 53014 73632 885//;
0179224380999992000122703004+65190+036820FM-12+001899999V0202401N005010075019N0130001N1-01101-01231100811ADDAJ100109199999999AY131031AY221031GF107991071051008001001001IA1249MD1810041+9999MW1021REMSYN082AAXX  27031 22438 /1563 72405 11110 21123 40081 58004 70232 87500 333 48010 55000;
0180224380999992000122706004+65190+036820FM-12+001899999V0202401N005010075019N0100001N1-01151-01281100841ADDAA100000391AY131061AY221061GF107991071051008001001001KA1999N-01261MD1310031+9999MW1151REMSYN082AAXX  27061 22438 11560 72405 11115 21128 40084 53003 69930 71532 87500 333 21126;
0140224380999992000122709004+65190+036820FM-12+001899999V0202301N006010075019N0040001N1-01061-01261100951ADDAY181031AY221031GF107991071091008001001001MD1310011+9999MW1851REMSYN066AAXX  27091 22438 41540 72306 11106 21126 40095 53001 78582 87900;
0112224380999992000122715004+65190+036820FM-12+001899999V0201701N005010075019N0160001N1-01071-01131101121ADDGF108991081061008001999999MD1210081+9999REMSYN060AAXX  27151 22438 42566 81705 11107 21113 40112 52008 886//;
0152224380999992000122718004+65190+036820FM-12+001899999V0201701N003012200019N0250001N1-01211-01271101121ADDAA100000191GF103991031001999999031001KA1999M-01001MD1410001+9999REMSYN076AAXX  27181 22438 12975 31703 11121 21127 40112 54000 69910 83030 333 11100;
0112224380999992000122721004+65190+036820FM-12+001899999V0201401N003012200019N0250001N1-01351-01411101231ADDGF101991011001999999031001MD1310091+9999REMSYN060AAXX  27211 22438 42975 11403 11135 21141 40123 53009 81030;
0143224380999992000122800004+65190+036820FM-12+001899999V0201601N002012200019N0230001N1-01421-01551101291ADDGA1001+999999999GF100991001001999999001001MA1999999101061MD1210071+9999REMSYN060AAXX  28001 22438 42973 01602 11142 21155 30106 40129 52007;
0181224380999992000122803004+65190+036820FM-12+001899999V0203401N002019999999N0210001N1-01181-02311101271ADDAA199000091AJ100109199999999GF106991061001999999071001IA1249MD1710011+9999REMSYN076AAXX  28031 22438 32971 63402 11118 21231 40127 57001 86070 333 48010 55000;EQDQ01  00002PRCP99
0209224380999992000122806004+65190+036820FM-12+001899999V0201401N003010042019N0090001N1-00991-01052101341ADDAA199000091AY111061AY211061GF108991081061004501999999KA1999N-01421MD1310071+9999MW1101REMSYN076AAXX  28061 22438 31459 81403 11099 21105 40134 53007 71011 886// 333 21142;EQDQ01-001053ATOD  Q02  00002PRCP99
0112224380999992000122815004+65190+036820FM-12+001899999V0202401N004010075019N0220001N1-00611-00761101641ADDGF108991081051008001999999MD1310191+9999REMSYN060AAXX  28151 22438 42572 82404 11061 21076 40164 53019 885//;
0171224380999992000122818004+65190+036820FM-12+001899999V0202401N007010075019N0220001N1-00521-00611101691ADDAA100001091GF106991061051008001001001KA1999M+99999MD1110051+9999REMSYN076AAXX  28181 22438 12572 62407 11052 21061 40169 51005 60010 86500 333 11061;EQDQ01 -00612ATMX  
0112224380999992000122821004+65190+036820FM-12+001899999V0201801N006010075019N0200001N1-00701-00911101791ADDGF107991071051008001001001MD1310091+9999REMSYN060AAXX  28211 22438 42570 71806 11070 21091 40179 53009 87500;
0133224380999992000122900004+65190+036820FM-12+001899999V0201901N007010075019N0210001N1-00831-01021101921ADDGF107991071051008001001001MA1999999101691MD1210131+9999REMSYN066AAXX  29001 22438 42571 71907 11083 21102 30169 40192 52013 87500;
0181224380999992000122903004+65190+036820FM-12+001899999V0201301N004012200019N0250001N1-01161-01361101751ADDAA199000091AJ100109199999999GF102991021051008001001001IA1249MD1810171+9999REMSYN076AAXX  29031 22438 32575 21304 11116 21136 40175 58017 82500 333 48010 55000;EQDQ01  00002PRCP99
0165224380999992000122906004+65190+036820FM-12+001899999V0201301N003012200019N0250001N1-01211-01481101641ADDAA199000091GF101991011051008001001001KA1999N-01161MD1610101+9999REMSYN070AAXX  29061 22438 32575 11303 11121 21148 40164 56010 81500 333 21116;EQDQ01  00002PRCP99
0112224380999992000122909004+65190+036820FM-12+001899999V0201401N007012200019N0350001N1-01191-01631101691ADDGF103991031001999999031001MD1710051+9999REMSYN060AAXX  29091 22438 42981 31407 11119 21163 40169 57005 83030;
0112224380999992000122915004+65190+036820FM-12+001899999V0201201N006019999999N0270001N1-01401-01651101381ADDGF105991051001999999071001MD1710101+9999REMSYN060AAXX  29151 22438 42977 51206 11140 21165 40138 57010 85070;
0165224380999992000122918004+65190+036820FM-12+001899999V0201201N006019999999N0220001N1-01291-01561101201ADDAA199000091GF107991071001999999071001KA1999M-01151MD1710181+9999REMSYN070AAXX  29181 22438 32972 71206 11129 21156 40120 57018 87070 333 11115;EQDQ01  00002PRCP99
0112224380999992000122921004+65190+036820FM-12+001899999V0201001N005010075019N0200001N1-01151-01351101041ADDGF108991081051008001999999MD1710261+9999REMSYN060AAXX  29211 22438 42570 81005 11115 21135 40104 57026 885//;
0133224380999992000123000004+65190+036820FM-12+001899999V0201101N006010075019N0190001N1-01091-01291100851ADDGF107991071051008001001001MA1999999100631MD1710181+9999REMSYN066AAXX  30001 22438 42569 71106 11109 21129 30063 40085 57018 87500;
0209224380999992000123003004+65190+036820FM-12+001899999V0201201N008010075019N0150001N1-01021-01221100651ADDAA199000091AJ100109199999999AY131031AY221031GF108991071051008001999999IA1249MD1710201+9999MW1361REMSYN082AAXX  30031 22438 31565 81208 11102 21122 40065 57020 73632 875// 333 48010 55000;EQDQ01  00002PRCP99
0193224380999992000123006004+65190+036820FM-12+001899999V0201501N005010075019N0180001N1-01081-01281100571ADDAA199000091AY131061AY221061GF108991081051008001999999KA1999N-01311MD1610081+9999MW1021REMSYN076AAXX  30061 22438 31568 81505 11108 21128 40057 56008 70232 885// 333 21131;EQDQ01  00002PRCP99
0140224380999992000123015004+65190+036820FM-12+001899999V0201601N004010042019N0030001N1-01061-01261100861ADDAY181031AY221031GF107991071091004501001001MD1210111+9999MW1851REMSYN066AAXX  30151 22438 41430 71604 11106 21126 40086 52011 78582 87900;
0180224380999992000123018004+65190+036820FM-12+001899999V0201601N004010075019N0180001N1-01011-01141100961ADDAA100000391AY181061AY221061GF108991081051008001999999KA1999M-01021MD1210101+9999MW1021REMSYN082AAXX  30181 22438 11568 81604 11101 21114 40096 52010 69930 70282 885// 333 11102;
0112224380999992000123021004+65190+036820FM-12+001899999V0201701N004010075019N0180001N1-00921-01031101051ADDGF108991081051008001999999MD1210091+9999REMSYN060AAXX  30211 22438 42568 81704 11092 21103 40105 52009 885//;
0179224380999992000123103004+65190+036820FM-12+001899999V0202101N009010075019N0160001N1-00531-00631101231ADDAJ100109199999999AY131031AY221031GF108991081051008001999999IA1249MD1110061+9999MW1361REMSYN082AAXX  31031 22438 /1566 82109 11053 21063 40123 51006 73632 885// 333 48010 55000;
0140224380999992000123109004+65190+036820FM-12+001899999V0201901N009010042019N0140001N1-00291-00331101501ADDAY131031AY221031GF108991081061004501999999MD1210101+9999MW1361REMSYN066AAXX  31091 22438 41464 81909 11029 21033 40150 52010 73632 886//;
0112224380999992000123115004+65190+036820FM-12+001899999V0201801N006010042019N0180001N1-00121-00191101711ADDGF108991081061004501999999MD1210101+9999REMSYN060AAXX  31151 22438 42468 81806 11012 21019 40171 52010 886//;
0165224380999992000123118004+65190+036820FM-12+001899999V0201701N005010075019N0160001N1-00241-00351101741ADDAA199000091GF108991081051008001999999KA1999M-00101MD1110031+9999REMSYN070AAXX  31181 22438 32566 81705 11024 21035 40174 51003 885// 333 11010;EQDQ01  00002PRCP99
0112224380999992000123121004+65190+036820FM-12+001899999V0201601N004010075019N0160001N1-00331-00441101761ADDGF108991081051008001999999MD1210021+9999REMSYN060AAXX  31211 22438 42566 81604 11033 21044 40176 52002 885//;
