0219239330999992000010103004+60970+069070FM-12+0040USHH V0209999C000012200019N0040001N1-03791-03971103731ADDAA106000091AJ100369199999999AY101031AY201031GA1001+999999999GF100991001001999999001001IA1239MD1710091+9999MW1041REMSYN076AAXX  01031 23933 31996 00000 11379 21397 40373 57009 70400 333 47036 55000;EQDQ01  00002PRCP06
0165239330999992000010106004+60970+069070FM-12+0040USHH V0209999C000019999999N0100001N1-03571-03861103791ADDAA106000091GF106991061001999999031001KA1999N-03821MD1310061+9999REMSYN070AAXX  01061 23933 32997 60000 11357 21386 40379 53006 86030 333 21382;EQDQ01  00002PRCP06
0112239330999992000010109004+60970+069070FM-12+0040USHH V0200301N001019999999N0100001N1-03311-03601103711ADDGF106991061001999999031001MD1810061+9999REMSYN060AAXX  01091 23933 42997 60301 11331 21360 40371 58006 86030;
0133239330999992000010112004+60970+069070FM-12+0040USHH V0209999C000012200019N0100001N1-03211-03371103731ADDGF102991021001999999031001MA1999999103051MD1310021+9999REMSYN066AAXX  01121 23933 42997 20000 11321 21337 30305 40373 53002 82030;
0175239330999992000010115004+60970+069070FM-12+0040USHH V0200301N001012200019N0100001N1-03321-03501103851ADDAA106000091GA1001+999999999GF100991001001999999001001KA1999M-03211MD1210121+9999REMSYN064AAXX  01151 23933 32997 00301 11332 21350 40385 52012 333 11321;EQDQ01  00002PRCP06
0165239330999992000010118004+60970+069070FM-12+0040USHH V0209999C000012200019N0100001N1-03351-03531103711ADDAA106000091GF103991031001999999031001KA1999M-03211MD1810141+9999REMSYN070AAXX  01181 23933 32997 30000 11335 21353 40371 58014 83030 333 11321;EQDQ01  00002PRCP06
0112239330999992000010121004+60970+069070FM-12+0040USHH V0209999C000012200019N0100001N1-03271-03441103751ADDGF103991031001999999031001MD1310041+9999REMSYN060AAXX  01211 23933 42997 30000 11327 21344 40375 53004 83030;
0133239330999992000010200004+60970+069070FM-12+0040USHH V0202701N001012200019N0100001N1-03221-03391103831ADDGF103991031001999999031001MA1999999103151MD1210081+9999REMSYN066AAXX  02001 23933 42997 32701 11322 21339 30315 40383 52008 83030;
0179239330999992000010203004+60970+069070FM-12+0040USHH V0202701N001019999999N0100001N1-03291-03441103751ADDAJ100369199999999AY171031AY211031GF106991061001999999031001IA1239MD1810081+9999MW1711REMSYN082AAXX  02031 23933 /1997 62701 11329 21344 40375 58008 77171 86030 333 47036 55000;
0180239330999992000010206004+60970+069070FM-12+0040USHH V0209999C000019999999N0100001N1-03281-03441103721ADDAA100000391AY171061AY211061GF107991071001999999031001KA1999N-03411MD1710031+9999MW1021REMSYN082AAXX  02061 23933 11997 70000 11328 21344 40372 57003 69930 70271 87030 333 21341;
0112239330999992000010209004+60970+069070FM-12+0040USHH V0203001N001019999999N0100001N1-03261-03421103731ADDGF108991001001999999001011MD1310011+9999REMSYN060AAXX  02091 23933 42997 83001 11326 21342 40373 53001 80001;
0133239330999992000010212004+60970+069070FM-12+0040USHH V0209999C000019999999N0100001N1-03191-03371103751ADDGF106991001001999999001011MA1999999103071MD1210021+9999REMSYN066AAXX  02121 23933 42997 60000 11319 21337 30307 40375 52002 80001;
0135239330999992000010215004+60970+069070FM-12+0040USHH V0201001N001019999999N0100001N1-03161-03321103751ADDGF105991001001999999001011KA1999M-03161MD1410001+9999REMSYN070AAXX  02151 23933 /2997 51001 11316 21332 40375 54000 80001 333 11316;
0152239330999992000010218004+60970+069070FM-12+0040USHH V0209999C000019999999N0100001N1-03111-03281103751ADDAA100000791GF108991001001999999001071KA1999M-03161MD1410001+9999REMSYN076AAXX  02181 23933 12997 80000 11311 21328 40375 54000 69900 80007 333 11316;
0122239330999992000010221004+60970+069070FM-12+0040USHH V0201301N001012200019N0100001N1-03411-03581103851ADDGA1001+999999999GF100991001001999999001001MD1310101+9999REMSYN054AAXX  02211 23933 42997 01301 11341 21358 40385 53010;
0143239330999992000010300004+60970+069070FM-12+0040USHH V0209999C000012200019N0100001N1-03421-03641104001ADDGA1001+999999999GF100991001001999999001001MA1999999103321MD1210151+9999REMSYN060AAXX  03001 23933 42997 00000 11342 21364 30332 40400 52015;
0191239330999992000010303004+60970+069070FM-12+0040USHH V0209999C000012200019N0100001N1-03561-03771104231ADDAA106000091AJ100369199999999GA1001+999999999GF100991001001999999001001IA1239MD1210201+9999REMSYN070AAXX  03031 23933 32997 00000 11356 21377 40423 52020 333 47036 55000;EQDQ01  00002PRCP06
0203239330999992000010306004+60970+069070FM-12+0040USHH V0209999C000012200019N0040001N1-03621-03901104371ADDAA106000091AY101061AY201061GA1001+999999999GF100991001001999999001001KA1999N-03571MD1210141+9999MW1041REMSYN070AAXX  03061 23933 31996 00000 11362 21390 40437 52014 70400 333 21357;EQDQ01  00002PRCP06
0140239330999992000010309004+60970+069070FM-12+0040USHH V0209999C000012200019N0040001N1-03601-03901104471ADDAY101031AY201031GF102991001001999999001011MD1210101+9999MW1041REMSYN066AAXX  03091 23933 41996 20000 11360 21390 40447 52010 70400 80001;
0161239330999992000010312004+60970+069070FM-12+0040USHH V0209999C000012200019N0020001N1-03681-03971104561ADDAY101061AY201061GF102991001001999999001011MA1999999103851MD1210091+9999MW1041REMSYN072AAXX  03121 23933 41995 20000 11368 21397 30385 40456 52009 70400 80001;
0193239330999992000010315004+60970+069070FM-12+0040USHH V0201001N001012200019N0010001N1-03911-04171104551ADDAA106000091AY101031AY201031GF103991001001999999001011KA1999M-03601MD1810011+9999MW1041REMSYN076AAXX  03151 23933 31994 31001 11391 21417 40455 58001 70400 80001 333 11360;EQDQ01  00002PRCP06
0193239330999992000010318004+60970+069070FM-12+0040USHH V0201101N001012200019N0010001N1-03901-04171104441ADDAA106000091AY101061AY201061GF103991001001999999001011KA1999M-03601MD1710111+9999MW1041REMSYN076AAXX  03181 23933 31994 31101 11390 21417 40444 57011 70400 80001 333 11360;EQDQ01  00002PRCP06
0140239330999992000010321004+60970+069070FM-12+0040USHH V0209999C000012200019N0010001N1-03911-04111104361ADDAY101031AY201031GF102991001001999999001011MD1710081+9999MW1041REMSYN066AAXX  03211 23933 41994 20000 11391 21411 40436 57008 70400 80001;
0161239330999992000010400004+60970+069070FM-12+0040USHH V0200901N001019999999N0020001N1-03761-04051104231ADDAY111061AY211061GF106991001001999999001011MA1999999103521MD1710131+9999MW1041REMSYN072AAXX  04001 23933 41995 60901 11376 21405 30352 40423 57013 70411 80001;
0181239330999992000010403004+60970+069070FM-12+0040USHH V0201201N001019999999N0100001N1-03291-03571104031ADDAA106000091AJ100369199999999GF106991001001999999001011IA1239MD1710171+9999REMSYN076AAXX  04031 23933 32997 61201 11329 21357 40403 57017 80001 333 47036 55000;EQDQ01  00002PRCP06
0165239330999992000010406004+60970+069070FM-12+0040USHH V0201401N001019999999N0100001N1-03311-03601104011ADDAA106000091GF106991001001999999001011KA1999N-03921MD1710021+9999REMSYN070AAXX  04061 23933 32997 61401 11331 21360 40401 57002 80001 333 21392;EQDQ01  00002PRCP06
0112239330999992000010409004+60970+069070FM-12+0040USHH V0201001N001019999999N0100001N1-03161-03451103851ADDGF106991001001999999001011MD1710161+9999REMSYN060AAXX  04091 23933 42997 61001 11316 21345 40385 57016 80001;
0143239330999992000010412004+60970+069070FM-12+0040USHH V0201201N001012200019N0100001N1-03341-03621103841ADDGA1001+999999999GF100991001001999999001001MA1999999103141MD1710031+9999REMSYN060AAXX  04121 23933 42997 01201 11334 21362 30314 40384 57003;
0175239330999992000010415004+60970+069070FM-12+0040USHH V0201201N001012200019N0100001N1-03441-03741103801ADDAA106000091GA1001+999999999GF100991001001999999001001KA1999M-03161MD1710021+9999REMSYN064AAXX  04151 23933 32597 01201 11344 21374 40380 57002 333 11316;EQDQ01  00002PRCP06
0122239330999992000010421004+60970+069070FM-12+0040USHH V0201301N001012200019N0100001N1-03381-03681103501ADDGA1001+999999999GF100991001001999999001001MD1710151+9999REMSYN054AAXX  04211 23933 42997 01301 11338 21368 40350 57015;
0133239330999992000010500004+60970+069070FM-12+0040USHH V0201201N002012200019N0100001N1-03191-03501103331ADDGF102991001001999999001021MA1999999102651MD1710171+9999REMSYN066AAXX  05001 23933 42997 21202 11319 21350 30265 40333 57017 80002;
0179239330999992000010503004+60970+069070FM-12+0040USHH V0201101N004019999999N0100001N1-02811-03111103091ADDAJ100369199999999AY171031AY231031GF108991081001999999021999IA1239MD1710231+9999MW1711REMSYN082AAXX  05031 23933 /1997 81104 11281 21311 40309 57023 77173 8802/ 333 47036 55000;
0180239330999992000010506004+60970+069070FM-12+0040USHH V0201201N005019999999N0040001N1-02671-02851102971ADDAA100000791AY171061AY231061GF108991081001999999021999KA1999N-03441MD1710111+9999MW1711REMSYN082AAXX  05061 23933 11996 81205 11267 21285 40297 57011 69900 77173 8802/ 333 21344;
0140239330999992000010509004+60970+069070FM-12+0040USHH V0201101N005019999999N0040001N1-02491-02671102861ADDAY171031AY231031GF108991081001999999021999MD1710111+9999MW1711REMSYN066AAXX  05091 23933 41996 81105 11249 21267 40286 57011 77173 8802/;
0161239330999992000010512004+60970+069070FM-12+0040USHH V0201101N005019999999N0040001N1-02481-02661102741ADDAY171061AY231061GF108991081001999999021999MA1999999102081MD1710121+9999MW1711REMSYN072AAXX  05121 23933 41996 81105 11248 21266 30208 40274 57012 77173 8802/;
0163239330999992000010515004+60970+069070FM-12+0040USHH V0201101N006019999999N0040001N1-02581-02761102651ADDAY171031AY231031GF108991081001999999021999KA1999M-02481MD1710091+9999MW1711REMSYN076AAXX  05151 23933 /1996 81106 11258 21276 40265 57009 77173 8802/ 333 11248;
0180239330999992000010518004+60970+069070FM-12+0040USHH V0200801N003019999999N0040001N1-02771-02941102641ADDAA100003091AY171061AY231061GF108991081001999999021999KA1999M-02481MD1710011+9999MW1711REMSYN082AAXX  05181 23933 11996 80803 11277 21294 40264 57001 60030 77173 8802/ 333 11248;
0140239330999992000010521004+60970+069070FM-12+0040USHH V0200701N002019999999N0040001N1-03161-03321102731ADDAY171031AY231031GF108991081001999999021999MD1310071+9999MW1711REMSYN066AAXX  05211 23933 41996 80702 11316 21332 40273 53007 77173 8802/;
0161239330999992000010603004+60970+069070FM-12+0040USHH V0200701N002012200019N0100001N1-03481-03581102791ADDAJ100329199999999GA1001+999999999GF100991001001999999001001IA1239MD1310061+9999REMSYN070AAXX  06031 23933 /2997 00702 11348 21358 40279 53006 333 47032 55000;
0180239330999992000010606004+60970+069070FM-12+0040USHH V0200701N002019999999N0100001N1-03471-03701102781ADDAA100001091AY171061AY211061GF108991051001999999031091KA1999N-03421MD1810011+9999MW1701REMSYN082AAXX  06061 23933 11997 80702 11347 21370 40278 58001 60010 77071 85039 333 21342;
0140239330999992000010609004+60970+069070FM-12+0040USHH V0200801N002019999999N0100001N1-03411-03641102771ADDAY171031AY221031GF108991061001999999051091MD1410001+9999MW1701REMSYN066AAXX  06091 23933 41997 80802 11341 21364 40277 54000 77072 86059;
0161239330999992000010612004+60970+069070FM-12+0040USHH V0200701N002019999999N0040001N1-03441-03671102811ADDAY171061AY221061GF108991081001999999021999MA1999999102131MD1310041+9999MW1711REMSYN072AAXX  06121 23933 41996 80702 11344 21367 30213 40281 53004 77172 8802/;
0163239330999992000010615004+60970+069070FM-12+0040USHH V0200701N002019999999N0040001N1-03401-03611102811ADDAY171031AY231031GF108991081001999999021999KA1999M-03401MD1410001+9999MW1711REMSYN076AAXX  06151 23933 /1996 80702 11340 21361 40281 54000 77173 8802/ 333 11340;
0140239330999992000010621004+60970+069070FM-12+0040USHH V0200601N001019999999N0100001N1-03271-03441102731ADDAY171031AY231031GF108991081001999999021999MD1410001+9999MW1711REMSYN066AAXX  06211 23933 41997 80601 11327 21344 40273 54000 77173 8802/;
0190239330999992000010700004+60970+069070FM-12+0040USHH V02099999999992200019N0100001N1-03391-03551102691ADDAY171061AY231061GA1001+999999999GF100991001001999999001001MA1999999102011MD1810041+9999REMSYN072AAXX  07001 23933 41997 08701 11339 21355 30201 40269 58004 77073 8807/;EQDQ01+000702PRSWM1
0179239330999992000010703004+60970+069070FM-12+0040USHH V0200601N001019999999N0100001N1-03481-03641102751ADDAJ100329199999999AY171031AY221031GF108991081001999999071999IA1239MD1310051+9999MW1021REMSYN082AAXX  07031 23933 /1997 80601 11348 21364 40275 53005 70272 8807/ 333 47032 55000;
0199239330999992000010706004+60970+069070FM-12+0040USHH V0201001N002019999999N0100001N1-03571-03801102861ADDAA100000591AY171061AY221061GF108991081001999999071999KA1999N+99999MD1210111+9999MW1711REMSYN082AAXX  07061 23933 11997 81002 11357 21380 40286 52011 69940 77172 8807/ 333 21349;EQDQ01 -03492ATMN  
0140239330999992000010709004+60970+069070FM-12+0040USHH V0200401N001019999999N0100001N1-03531-03711102851ADDAY171031AY221031GF108991081001999999071999MD1810011+9999MW1701REMSYN066AAXX  07091 23933 41997 80401 11353 21371 40285 58001 77072 8807/;
0161239330999992000010712004+60970+069070FM-12+0040USHH V0200701N001019999999N0100001N1-03591-03741102861ADDAY171061AY221061GF108991001001999999001071MA1999999102171MD1310011+9999MW1221REMSYN072AAXX  07121 23933 41997 80701 11359 21374 30217 40286 53001 72272 80007;
0163239330999992000010715004+60970+069070FM-12+0040USHH V0200501N001019999999N0100001N1-03581-03741102831ADDAY171031AY221031GF108991081001999999021999KA1999M-03531MD1810031+9999MW1701REMSYN076AAXX  07151 23933 /1997 80501 11358 21374 40283 58003 77072 8802/ 333 11353;
0180239330999992000010718004+60970+069070FM-12+0040USHH V0200601N001019999999N0100001N1-03591-03741102791ADDAA100000791AY171061AY221061GF108991081001999999021999KA1999M-03531MD1710041+9999MW1711REMSYN082AAXX  07181 23933 11997 80601 11359 21374 40279 57004 69900 77172 8802/ 333 11353;
0140239330999992000010721004+60970+069070FM-12+0040USHH V0200901N001019999999N0500001N1-03551-03711102751ADDAY171031AY221031GF108991081001999999021999MD1710041+9999MW1711REMSYN066AAXX  07211 23933 41999 80901 11355 21371 40275 57004 77172 8802/;
0161239330999992000010800004+60970+069070FM-12+0040USHH V0200801N001019999999N0100001N1-03571-03741102711ADDAY171061AY221061GF108991081001999999021999MA1999999102021MD1710041+9999MW1711REMSYN072AAXX  08001 23933 41997 80801 11357 21374 30202 40271 57004 77172 8802/;
0179239330999992000010803004+60970+069070FM-12+0040USHH V0200901N001019999999N0100001N1-03671-03851102641ADDAJ100329199999999AY171031AY221031GF106991061001999999031001IA1239MD1710071+9999MW1021REMSYN082AAXX  08031 23933 /1997 60901 11367 21385 40264 57007 70272 86030 333 47032 55000;
0180239330999992000010806004+60970+069070FM-12+0040USHH V0200301N001019999999N0100001N1-03691-03851102611ADDAA100000891AY171061AY221061GF108991001001999999001081KA1999N-03671MD1710031+9999MW1701REMSYN082AAXX  08061 23933 11997 80301 11369 21385 40261 57003 69970 77072 80008 333 21367;
0140239330999992000010809004+60970+069070FM-12+0040USHH V0200301N002019999999N0100001N1-03751-03931102611ADDAY171031AY221031GF108991001001999999001081MD1410001+9999MW1701REMSYN066AAXX  08091 23933 41997 80302 11375 21393 40261 54000 77072 80008;
0171239330999992000010812004+60970+069070FM-12+0040USHH V0200401N001012200019N0100001N1-03811-03971102631ADDAY171061AY221061GA1001+999999999GF100991001001999999001001MA1999999101941MD1210021+9999MW1011REMSYN066AAXX  08121 23933 41997 00401 11381 21397 30194 40263 52002 70172;
0173239330999992000010815004+60970+069070FM-12+0040USHH V0209999C000012200019N0010001N1-04001-04151102651ADDAY101031AY201031GA1001+999999999GF100991001001999999001001KA1999M-03691MD1410001+9999MW1041REMSYN070AAXX  08151 23933 /1994 00000 11400 21415 40265 54000 70400 333 11369;
0190239330999992000010818004+60970+069070FM-12+0040USHH V0209999C000012200019N0010001N1-04111-04261102661ADDAA100000591AY101061AY201061GA1001+999999999GF100991001001999999001001KA1999M-03691MD1310011+9999MW1041REMSYN076AAXX  08181 23933 11994 00000 11411 21426 40266 53001 69960 70400 333 11369;
0150239330999992000010821004+60970+069070FM-12+0040USHH V0209999C000012200019N0010001N1-04181-04311102641ADDAY101031AY201031GA1001+999999999GF100991001001999999001001MD1810021+9999MW1041REMSYN060AAXX  08211 23933 41994 00000 11418 21431 40264 58002 70400;
0171239330999992000010900004+60970+069070FM-12+0040USHH V0209999C000012200019N0010001N1-04071-04201102671ADDAY101061AY201061GA1001+999999999GF100991001001999999001001MA1999999101961MD1310031+9999MW1041REMSYN066AAXX  09001 23933 41994 00000 11407 21420 30196 40267 53003 70400;
0219239330999992000010903004+60970+069070FM-12+0040USHH V0201201N001012200019N0010001N1-03841-04011102521ADDAA106000091AJ100329199999999AY101031AY201031GA1001+999999999GF100991001001999999001001IA1239MD1710101+9999MW1041REMSYN076AAXX  09031 23933 31994 01201 11384 21401 40252 57010 70400 333 47032 55000;EQDQ01  00002PRCP06
0140239330999992000010909004+60970+069070FM-12+0040USHH V0201401N002019999999N0100001N1-03621-03781102271ADDAY171031AY221031GF108991001001999999001081MD1710221+9999MW1021REMSYN066AAXX  09091 23933 41997 81402 11362 21378 40227 57022 70272 80008;
0161239330999992000010912004+60970+069070FM-12+0040USHH V0201201N002019999999N0100001N1-03401-03551101941ADDAY171061AY221061GF105991001001999999001011MA1999999101271MD1710311+9999MW1011REMSYN072AAXX  09121 23933 41997 51202 11340 21355 30127 40194 57031 70172 80001;
0163239330999992000010915004+60970+069070FM-12+0040USHH V0201401N003019999999N0040001N1-03051-03211101521ADDAY171031AY231031GF108991051001999999021071KA1999M-03051MD1710421+9999MW1711REMSYN076AAXX  09151 23933 /1996 81403 11305 21321 40152 57042 77173 85027 333 11305;
0199239330999992000010918004+60970+069070FM-12+0040USHH V0201401N004019999999N0040001N1-02701-02881101001ADDAA100001091AY171061AY231061GF108991081001999999021999KA1999M+99999MD1710501+9999MW1711REMSYN082AAXX  09181 23933 11996 81404 11270 21288 40100 57050 60010 77173 8802/ 333 11305;EQDQ01 -03052ATMX  
0140239330999992000010921004+60970+069070FM-12+0040USHH V0201201N003019999999N0020001N1-02331-02511100641ADDAY171031AY231031GF108991081001999999021999MD1710351+9999MW1711REMSYN066AAXX  09211 23933 41995 81203 11233 21251 40064 57035 77173 8802/;
0161239330999992000011000004+60970+069070FM-12+0040USHH V0201001N002019999999N0040001N1-01971-02091100451ADDAY171061AY231061GF108991081001999999021999MA1999999099811MD1710191+9999MW1711REMSYN072AAXX  10001 23933 41996 81002 11197 21209 39981 40045 57019 77173 8802/;
0179239330999992000011003004+60970+069070FM-12+0040USHH V0202101N002010300019N0040001N1-01561-01691100301ADDAJ100349199999999AY171031AY221031GF108991021071004501021999IA1239MD1710141+9999MW1711REMSYN082AAXX  10031 23933 /1496 82102 11156 21169 40030 57014 77172 8272/ 333 47034 55000;
0180239330999992000011006004+60970+069070FM-12+0040USHH V0202601N002019999999N0040001N1-01291-01421100261ADDAA100002091AY171061AY221061GF108991081001999999021999KA1999N-03051MD1710021+9999MW1711REMSYN082AAXX  10061 23933 11996 82602 11129 21142 40026 57002 60020 77172 8802/ 333 21305;
0140239330999992000011009004+60970+069070FM-12+0040USHH V0202601N002019999999N0100001N1-01161-01291100281ADDAY171031AY221031GF108991081001999999021999MD1310021+9999MW1711REMSYN066AAXX  10091 23933 41997 82602 11116 21129 40028 53002 77172 8802/;
0161239330999992000011012004+60970+069070FM-12+0040USHH V0202901N001019999999N0100001N1-01271-01401100331ADDAY171061AY221061GF108991081001999999021999MA1999999099721MD1210051+9999MW1711REMSYN072AAXX  10121 23933 41997 82901 11127 21140 39972 40033 52005 77172 8802/;
0163239330999992000011015004+60970+069070FM-12+0040USHH V0209999C000019999999N0100001N1-01241-01371100301ADDAY171031AY221031GF108991081001999999071999KA1999M-01161MD1810031+9999MW1701REMSYN076AAXX  10151 23933 /1997 80000 11124 21137 40030 58003 77072 8807/ 333 11116;
0199239330999992000011018004+60970+069070FM-12+0040USHH V0201101N001019999999N0100001N1-01091-01221100241ADDAA100001091AY171061AY221061GF108991081001999999021999KA1999M+99999MD1710061+9999MW1021REMSYN082AAXX  10181 23933 11997 81101 11109 21122 40024 57006 60010 70272 8802/ 333 11116;EQDQ01 -01162ATMX  
0140239330999992000011021004+60970+069070FM-12+0040USHH V0202301N001019999999N0100001N1-00321-00391100141ADDAY171031AY221031GF108991081001999999071999MD1710081+9999MW1711REMSYN066AAXX  10211 23933 41997 82301 11032 21039 40014 57008 77172 8807/;
0161239330999992000011100004+60970+069070FM-12+0040USHH V0202501N002010021019N0040001N1-00241-00271100111ADDAY171061AY221061GF108991081001002501021999MA1999999099521MD1710031+9999MW1711REMSYN072AAXX  11001 23933 41396 82502 11024 21027 39952 40011 57003 77172 8802/;
0179239330999992000011103004+60970+069070FM-12+0040USHH V0202401N002010021019N0040001N1-00281-00281100111ADDAJ100389199999999AY171031AY221031GF108991081001002501021999IA1239MD1410001+9999MW1711REMSYN082AAXX  11031 23933 /1396 82402 11028 21028 40011 54000 77172 8802/ 333 47038 55000;
0180239330999992000011106004+60970+069070FM-12+0040USHH V0202601N004019999999N0040001N1-00321-00391100191ADDAA100001091AY171061AY221061GF108991081001999999071999KA1999N-01241MD1310081+9999MW1711REMSYN082AAXX  11061 23933 11996 82604 11032 21039 40019 53008 69990 77172 8807/ 333 21124;
0140239330999992000011109004+60970+069070FM-12+0040USHH V0202901N003019999999N0100001N1-00311-00381100251ADDAY171031AY221031GF107991071001999999071001MD1210061+9999MW1701REMSYN066AAXX  11091 23933 41997 72903 11031 21038 40025 52006 77072 87070;
0161239330999992000011112004+60970+069070FM-12+0040USHH V0200201N001019999999N0100001N1-01021-01151100561ADDAY171061AY221061GF106991061001999999071001MA1999999099951MD1210291+9999MW1711REMSYN072AAXX  11121 23933 41997 60201 11102 21115 39995 40056 52029 77172 86070;
0163239330999992000011115004+60970+069070FM-12+0040USHH V0200301N001019999999N0040001N1-01451-01581100761ADDAY171031AY221031GF108991081001999999071999KA1999M-00281MD1210201+9999MW1711REMSYN076AAXX  11151 23933 /1996 80301 11145 21158 40076 52020 77172 8807/ 333 11028;
0180239330999992000011118004+60970+069070FM-12+0040USHH V0200601N001019999999N0100001N1-01911-02031100921ADDAA100001091AY171061AY221061GF108991081001999999021999KA1999M-00281MD1210141+9999MW1021REMSYN082AAXX  11181 23933 11997 80601 11191 21203 40092 52014 60010 70272 8802/ 333 11028;
0112239330999992000011121004+60970+069070FM-12+0040USHH V0200901N001012200019N0100001N1-02301-02421100981ADDGF103991001001999999001011MD1210061+9999REMSYN060AAXX  11211 23933 42997 30901 11230 21242 40098 52006 80001;
0161239330999992000011200004+60970+069070FM-12+0040USHH V0200301N001019999999N0100001N1-02341-02521101191ADDAY171061AY211061GF108991081001999999021999MA1999999100551MD1210201+9999MW1711REMSYN072AAXX  12001 23933 41997 80301 11234 21252 30055 40119 52020 77171 8802/;
0179239330999992000011203004+60970+069070FM-12+0040USHH V0200901N001019999999N0100001N1-02141-02331101071ADDAJ100409199999999AY171031AY221031GF108991081001999999021999IA1239MD1810121+9999MW1021REMSYN082AAXX  12031 23933 /1997 80901 11214 21233 40107 58012 70272 8802/ 333 47040 55000;
0180239330999992000011206004+60970+069070FM-12+0040USHH V0201101N001019999999N0100001N1-02111-02291101121ADDAA100000591AY171061AY221061GF108991081001999999021999KA1999N-02451MD1310051+9999MW1701REMSYN082AAXX  12061 23933 11997 81101 11211 21229 40112 53005 69940 77072 8802/ 333 21245;
0140239330999992000011209004+60970+069070FM-12+0040USHH V0200301N001019999999N0100001N1-01911-02101101101ADDAY171031AY221031GF108991081001999999021999MD1810011+9999MW1701REMSYN066AAXX  12091 23933 41997 80301 11191 21210 40110 58001 77072 8802/;
0161239330999992000011212004+60970+069070FM-12+0040USHH V0200101N001019999999N0100001N1-01991-02181101221ADDAY171061AY221061GF108991081001999999021999MA1999999100581MD1310111+9999MW1701REMSYN072AAXX  12121 23933 41997 80101 11199 21218 30058 40122 53011 77072 8802/;
0163239330999992000011215004+60970+069070FM-12+0040USHH V0200801N001019999999N0100001N1-02081-02261101231ADDAY171031AY221031GF108991081001999999021999KA1999M-01911MD1210011+9999MW1701REMSYN076AAXX  12151 23933 /1997 80801 11208 21226 40123 52001 77072 8802/ 333 11191;
0140239330999992000011221004+60970+069070FM-12+0040USHH V0200501N001019999999N0100001N1-02201-02381101361ADDAY171031AY221031GF108991081001999999021999MD1210071+9999MW1021REMSYN066AAXX  12211 23933 41997 80501 11220 21238 40136 52007 70272 8802/;
0161239330999992000011300004+60970+069070FM-12+0040USHH V0200601N001012200019N0100001N1-02401-02581101511ADDAY171061AY211061GF102991001001999999001011MA1999999100871MD1210151+9999MW1011REMSYN072AAXX  13001 23933 41997 20601 11240 21258 30087 40151 52015 70171 80001;
0151239330999992000011303004+60970+069070FM-12+0040USHH V0200701N002019999999N0100001N1-02601-02771101641ADDAJ100419199999999GF108991081001999999021999IA1239MD1210111+9999REMSYN076AAXX  13031 23933 /2997 80702 11260 21277 40164 52011 8802/ 333 47041 55000;
0171239330999992000011306004+60970+069070FM-12+0040USHH V0200601N001019999999N0100001N1-02841-03081101821ADDAA100000391GF108991031001999999031011KA1999N+99999MD1210181+9999REMSYN076AAXX  13061 23933 12997 80601 11284 21308 40182 52018 69930 83031 333 21261;EQDQ01 -02612ATMN  
0112239330999992000011309004+60970+069070FM-12+0040USHH V0200301N001012200019N0100001N1-03001-03171101841ADDGF103991001001999999001011MD1210011+9999REMSYN060AAXX  13091 23933 42997 30301 11300 21317 40184 52001 80001;
0161239330999992000011312004+60970+069070FM-12+0040USHH V0200901N001019999999N0100001N1-03051-03211101881ADDAY171061AY211061GF108991001001999999001071MA1999999101211MD1210041+9999MW1701REMSYN072AAXX  13121 23933 41997 80901 11305 21321 30121 40188 52004 77071 80007;
0163239330999992000011315004+60970+069070FM-12+0040USHH V0201401N002019999999N0040001N1-02741-02911101671ADDAY171031AY221031GF108991081001999999021999KA1999M-02601MD1810201+9999MW1711REMSYN076AAXX  13151 23933 /1996 81402 11274 21291 40167 58020 77172 8802/ 333 11260;
0199239330999992000011318004+60970+069070FM-12+0040USHH V0201201N002019999999N0040001N1-02411-02601101331ADDAA100000791AY171061AY221061GF108991081001999999021999KA1999M+99999MD1710321+9999MW1711REMSYN082AAXX  13181 23933 11996 81202 11241 21260 40133 57032 69900 77172 8802/ 333 11260;EQDQ01 -02602ATMX  
0184239330999992000011400004+60970+069070FM-12+004099999V0201401N004019999999N0040001N1-01551-01681100341ADDAY171061AY251061GF108991081001999999021999MA1999999099781MD1710502+9999MW1711REMSYN076    AAXX  14001 23933 41996 81404 11155 21168 39978 40034 57050 77175 8802/;EQDQ01+000502APC3  
0183239330999992000011403004+60970+069070FM-12+004099999V0201401N004019999999N0040001N1-01161-01291099891ADDAJ100409199999999AY171031AY231031GF108991081001999999021999IA1239MD1710481+9999MW1711REMSYN086    AAXX  14031 23933 /1996 81404 11116 21129 49989 57048 77173 8802/ 333 47040 55000;
0184239330999992000011406004+60970+069070FM-12+004099999V0201201N003019999999N0040001N1-00901-01061099631ADDAA100001091AY171061AY231061GF108991081001999999021999KA1999N-02741MD1710251+9999MW1711REMSYN086    AAXX  14061 23933 11996 81203 11090 21106 49963 57025 60010 77173 8802/ 333 21274;
0144239330999992000011409004+60970+069070FM-12+004099999V0201101N002019999999N0040001N1-00631-00781099471ADDAY171031AY231031GF108991081001999999021999MD1710161+9999MW1711REMSYN070    AAXX  14091 23933 41996 81102 11063 21078 49947 57016 77173 8802/;
0165239330999992000011412004+60970+069070FM-12+004099999V0203301N003019999999N0020001N1-01221-01351099681ADDAY171061AY231061GF108991081001999999021999MA1999999099071MD1310201+9999MW1711REMSYN076    AAXX  14121 23933 41995 83303 11122 21135 39907 49968 53020 77173 8802/;
0167239330999992000011415004+60970+069070FM-12+004099999V0203201N004019999999N0040001N1-02031-02281100101ADDAY171031AY231031GF108991081001999999021999KA1999M-00591MD1210391+9999MW1711REMSYN080    AAXX  14151 23933 /1996 83204 11203 21228 40010 52039 77173 8802/ 333 11059;
0184239330999992000011418004+60970+069070FM-12+004099999V0203401N003019999999N0040001N1-02401-02651100391ADDAA100005191AY171061AY231061GF108991081001999999071999KA1999M-00591MD1210291+9999MW1711REMSYN086    AAXX  14181 23933 11996 83403 11240 21265 40039 52029 60050 77173 8807/ 333 11059;
0144239330999992000011421004+60970+069070FM-12+004099999V0203201N003019999999N0040001N1-02751-02991100671ADDAY171031AY231031GF108991081001999999071999MD1210271+9999MW1711REMSYN070    AAXX  14211 23933 41996 83203 11275 21299 40067 52027 77173 8807/;
0165239330999992000011500004+60970+069070FM-12+004099999V0203201N003019999999N0040001N1-02691-02931100841ADDAY171061AY231061GF108991081001999999021999MA1999999100191MD1210171+9999MW1711REMSYN076    AAXX  15001 23933 41996 83203 11269 21293 30019 40084 52017 77173 8802/;
0193239330999992000011503004+60970+069070FM-12+004099999V0203301N004012200019N0100001N1-02801-03041101151ADDAJ100439199999999AY131031AY231031GA1001+999999999GF100991001001999999001001IA1239MD1210301+9999MW1381REMSYN080    AAXX  15031 23933 /1997 03304 11280 21304 40115 52030 73833 333 47043 55000;
0213239330999992000011506004+60970+069070FM-12+004099999V0203101N003012200019N0100001N1-02871-03051101531ADDAA100000591AY171061AY231061GA1001+999999999GF100991001001999999001001KA1999N+99999MD1210381+9999MW1021REMSYN080    AAXX  15061 23933 11997 03103 11287 21305 40153 52038 69940 70273 333 21281;EQDQ01 -02812ATMN  
0126239330999992000011509004+60970+069070FM-12+004099999V0203201N003012200019N0100001N1-02811-03041101771ADDGA1001+999999999GF100991001001999999001001MD1210241+9999REMSYN058    AAXX  15091 23933 42997 03203 11281 21304 40177 52024;
0157239330999992000011512004+60970+069070FM-12+004099999V0203001N002012200019N0100001N1-02991-03171102121ADDGA1001+999999999GF100991001001999999001001MA1999999101441MD1210331+9999REMSYN074    AAXX  15121 23933 42997 03002 11299 21317 30144 40212 52033 333 1/132;
0179239330999992000011515004+60970+069070FM-12+004099999V0202901N002012200019N0100001N1-03301-03531102321ADDAA199000091GA1001+999999999GF100991001001999999001001KA1999M-02791MD1210201+9999REMSYN068    AAXX  15151 23933 32997 02902 11330 21353 40232 52020 333 11279;EQDQ01  00002PRCP99
0179239330999992000011518004+60970+069070FM-12+004099999V0203001N002012200019N0100001N1-03331-03561102441ADDAA199000091GA1001+999999999GF100991001001999999001001KA1999M-02791MD1210121+9999REMSYN068    AAXX  15181 23933 32997 03002 11333 21356 40244 52012 333 11279;EQDQ01  00002PRCP99
0126239330999992000011521004+60970+069070FM-12+004099999V0202901N001012200019N0100001N1-03351-03591102521ADDGA1001+999999999GF100991001001999999001001MD1210081+9999REMSYN058    AAXX  15211 23933 42997 02901 11335 21359 40252 52008;
0126239330999992000011600004+60970+069070FM-12+004099999V0209999C000012200019N0100001N1-03661-03871102531ADDGA1001+999999999GF100991001001999999001001MD1410001+9999REMSYN058    AAXX  16001 23933 42997 00000 11366 21387 40253 54000;
0195239330999992000011603004+60970+069070FM-12+004099999V0209999C000012200019N0100001N1-03841-04071102461ADDAA199000091AJ100439199999999GA1001+999999999GF100991001001999999001001IA1239MD1810071+9999REMSYN074    AAXX  16031 23933 32997 00000 11384 21407 40246 58007 333 47043 55021;EQDQ01  00002PRCP99
0169239330999992000011606004+60970+069070FM-12+004099999V0201201N002019999999N0100001N1-03601-03841102301ADDAA199000091GF105991001001999999001011KA1999N-03851MD1710161+9999REMSYN074    AAXX  16061 23933 32997 51202 11360 21384 40230 57016 80001 333 21385;EQDQ01  00002PRCP99
0144239330999992000011609004+60970+069070FM-12+004099999V0201401N003019999999N0100001N1-03001-03231101961ADDAY171031AY221031GF108991001001999999001061MD1710311+9999MW1701REMSYN070    AAXX  16091 23933 41997 81403 11300 21323 40196 57031 77072 80006;
0165239330999992000011612004+60970+069070FM-12+004099999V0201501N002019999999N0040001N1-02401-02581101761ADDAY171061AY221061GF108991081001999999021999MA1999999101121MD1710181+9999MW1711REMSYN076    AAXX  16121 23933 41996 81502 11240 21258 30112 40176 57018 77172 8802/;
0167239330999992000011615004+60970+069070FM-12+004099999V0201201N002019999999N0040001N1-02231-02411101621ADDAY171031AY221031GF108991081001999999021999KA1999M-02231MD1710141+9999MW1711REMSYN080    AAXX  16151 23933 /1996 81202 11223 21241 40162 57014 77172 8802/ 333 11223;
0203239330999992000011618004+60970+069070FM-12+004099999V0201201N002019999999N0040001N1-01981-02171101421ADDAA100000591AY171061AY221061GF108991081001999999021999KA1999M+99999MD1710201+9999MW1711REMSYN086    AAXX  16181 23933 11996 81202 11198 21217 40142 57020 69940 77172 8802/ 333 11223;EQDQ01 -02232ATMX  
0144239330999992000011621004+60970+069070FM-12+004099999V0201201N001019999999N0040001N1-01791-01981101181ADDAY171031AY221031GF108991081001999999021999MD1710231+9999MW1711REMSYN070    AAXX  16211 23933 41996 81201 11179 21198 40118 57023 77172 8802/;
0184239330999992000011700004+60970+069070FM-12+004099999V0200301N003012200019N0040001N1-01521-01651101001ADDAY171061AY221061GF101991999001999999021999MA1999999100371MD1710181+9999MW1711REMSYN076    AAXX  17001 23933 41996 10303 11152 21165 30037 40100 57018 77172 8802/;EQDQ01+000082SCOTLC
0183239330999992000011703004+60970+069070FM-12+004099999V0200201N003019999999N0040001N1-01281-01411100771ADDAJ100439199999999AY171031AY231031GF108991081001999999021999IA1239MD1710211+9999MW1711REMSYN086    AAXX  17031 23933 /1996 80203 11128 21141 40077 57021 77173 8802/ 333 47043 55000;
0184239330999992000011706004+60970+069070FM-12+004099999V0203001N003019999999N0040001N1-01211-01341100641ADDAA100001091AY171061AY231061GF108991081001999999021999KA1999N-02231MD1710131+9999MW1711REMSYN086    AAXX  17061 23933 11996 83003 11121 21134 40064 57013 60010 77173 8802/ 333 21223;
0144239330999992000011709004+60970+069070FM-12+004099999V0202401N003019999999N0040001N1-01101-01231100541ADDAY171031AY231031GF108991081001999999021999MD1710101+9999MW1711REMSYN070    AAXX  17091 23933 41996 82403 11110 21123 40054 57010 77173 8802/;
0165239330999992000011712004+60970+069070FM-12+004099999V0202101N004019999999N0040001N1-01071-01201100541ADDAY171061AY231061GF108991051001999999021071MA1999999099931MD1410001+9999MW1711REMSYN076    AAXX  17121 23933 41996 82104 11107 21120 39993 40054 54000 77173 85027;
0167239330999992000011715004+60970+069070FM-12+004099999V0202101N004019999999N0100001N1-01041-01171100631ADDAY171031AY231031GF108991081001999999021999KA1999M-01041MD1310091+9999MW1711REMSYN080    AAXX  17151 23933 /1997 82104 11104 21117 40063 53009 77173 8802/ 333 11104;
0184239330999992000011718004+60970+069070FM-12+004099999V0202401N003019999999N0100001N1-01071-01201100671ADDAA100001091AY171061AY231061GF108991081001999999071999KA1999M-01041MD1210041+9999MW1711REMSYN086    AAXX  17181 23933 11997 82403 11107 21120 40067 52004 60010 77173 8807/ 333 11104;
0144239330999992000011721004+60970+069070FM-12+004099999V0202201N003010075019N0100001N1-01141-01271100721ADDAY171031AY231031GF108991061051008001021999MD1210051+9999MW1711REMSYN070    AAXX  17211 23933 41597 82203 11114 21127 40072 52005 77173 8652/;
0165239330999992000011800004+60970+069070FM-12+004099999V0202401N001010075019N0100001N1-01221-01351100771ADDAY171061AY231061GF108991051051008001031999MA1999999100161MD1210051+9999MW1021REMSYN076    AAXX  18001 23933 41597 82401 11122 21135 30016 40077 52005 70273 8553/;
0183239330999992000011803004+60970+069070FM-12+004099999V0202001N001019999999N0040001N1-01271-01401100841ADDAJ100439199999999AY171031AY221031GF108991081001999999071999IA1239MD1210071+9999MW1711REMSYN086    AAXX  18031 23933 /1996 82001 11127 21140 40084 52007 77172 8807/ 333 47043 55000;
0203239330999992000011806004+60970+069070FM-12+004099999V0202201N001019999999N0100001N1-01541-01811100941ADDAA100000191AY171061AY221061GF108991081001999999071999KA1999N+99999MD1210081+9999MW1711REMSYN086    AAXX  18061 23933 11997 82201 11154 21181 40094 52008 69920 77172 8807/ 333 21127;EQDQ01 -01272ATMN  
0144239330999992000011809004+60970+069070FM-12+004099999V0201501N002019999999N0100001N1-01691-01881100971ADDAY171031AY221031GF108991001001999999001091MD1210031+9999MW1021REMSYN070    AAXX  18091 23933 41997 81502 11169 21188 40097 52003 70272 80009;
0165239330999992000011812004+60970+069070FM-12+004099999V0200801N002019999999N0100001N1-01801-01991101061ADDAY171061AY221061GF108991021001999999031071MA1999999100431MD1210091+9999MW1021REMSYN076    AAXX  18121 23933 41997 80802 11180 21199 30043 40106 52009 70272 82037;
0139239330999992000011815004+60970+069070FM-12+004099999V0201201N001019999999N0100001N1-01771-01961101061ADDGF107991071001999999031001KA1999M-01541MD1410001+9999REMSYN074    AAXX  18151 23933 12997 71201 11177 21196 40106 54000 87030 333 11154;
0156239330999992000011818004+60970+069070FM-12+004099999V0201201N001019999999N0100001N1-01621-01811101141ADDAA100000791GF108991081001999999021999KA1999M-01541MD1210081+9999REMSYN080    AAXX  18181 23933 12997 81201 11162 21181 40114 52008 69900 8802/ 333 11154;
0116239330999992000011821004+60970+069070FM-12+004099999V0201301N001019999999N0100001N1-01401-01601101171ADDGF108991081001999999071999MD1210041+9999REMSYN064    AAXX  18211 23933 42997 81301 11140 21160 40117 52004 8807/;
0137239330999992000011900004+60970+069070FM-12+004099999V0202201N001019999999N0100001N1-01341-01541101241ADDGF108991081001999999021999MA1999999100621MD1210071+9999REMSYN070    AAXX  19001 23933 42997 82201 11134 21154 30062 40124 52007 8802/;
0185239330999992000011903004+60970+069070FM-12+004099999V0202201N001010075019N0100001N1-01401-01601101331ADDAA199000091AJ100439199999999GF107991071051008001001001IA1239MD1210091+9999REMSYN080    AAXX  19031 23933 32597 72201 11140 21160 40133 52009 87500 333 47043 55000;EQDQ01  00002PRCP99
0169239330999992000011906004+60970+069070FM-12+004099999V0202201N001010075019N0100001N1-01501-01631101451ADDAA199000091GF107991071051008001001001KA1999N-01771MD1210111+9999REMSYN074    AAXX  19061 23933 32597 72201 11150 21163 40145 52011 87500 333 21177;EQDQ01  00002PRCP99
0116239330999992000011909004+60970+069070FM-12+004099999V0201401N001019999999N0100001N1-01371-01501101551ADDGF107991071001999999051001MD1210111+9999REMSYN064    AAXX  19091 23933 42997 71401 11137 21150 40155 52011 87050;
0137239330999992000011912004+60970+069070FM-12+004099999V0201201N001019999999N0100001N1-01421-01551101721ADDGF105991001001999999001011MA1999999101101MD1210171+9999REMSYN070    AAXX  19121 23933 42997 51201 11142 21155 30110 40172 52017 80001;
0165239330999992000011915004+60970+069070FM-12+0040USHH V0201001N003012200019N0100001N1-01661-01791101731ADDAA199000091GF103991001001999999001011KA1999M-01371MD1410001+9999REMSYN070AAXX  19151 23933 32997 31003 11166 21179 40173 54000 80001 333 11137;EQDQ01  00002PRCP99
0175239330999992000011918004+60970+069070FM-12+0040USHH V0201001N002012200019N0100001N1-01541-01671101851ADDAA199000091GA1001+999999999GF100991001001999999001001KA1999M-01371MD1210121+9999REMSYN064AAXX  19181 23933 32997 01002 11154 21167 40185 52012 333 11137;EQDQ01  00002PRCP99
0122239330999992000011921004+60970+069070FM-12+0040USHH V0202401N002012200019N0100001N1-01641-01771101891ADDGA1001+999999999GF100991001001999999001001MD1210041+9999REMSYN054AAXX  19211 23933 42997 02402 11164 21177 40189 52004;
0193239330999992000012000004+60970+069070FM-12+0040USHH V0201201N004019999999N0020001N1-00831-01021999999ADDAA199000021AY171061AY231061GF108991081001999999021999KA1999N-00991MD1310121+9999MW1711REMSYN076AAXX  10601 23933 31995 81204 11083 21102 40080 53012 77173 8802/ 333 21099;EQDQ01+100803APOSLP
0172239330999992000012003004+60970+069070FM-12+0040USHH V0201101N002012200019N0100001N1-01781-01901101831ADDAA199000021AJ100439199999999GA1001+999999999GF100991001001999999001001IA1239MD1810071+9999REMSYN070AAXX  20031 23933 32997 01102 11178 21190 40183 58007 333 47043 55000;
0146239330999992000012006004+60970+069070FM-12+0040USHH V0201401N004019999999N0100001N1-01491-01621101771ADDAA199000021GF108991081001999999021999KA1999N-01821MD1710061+9999REMSYN070AAXX  20061 23933 32997 81404 11149 21162 40177 57006 8802/ 333 21182;
0112239330999992000012009004+60970+069070FM-12+0040USHH V0201301N004019999999N0100001N1-01321-01451101701ADDGF108991081001999999021999MD1710061+9999REMSYN060AAXX  20091 23933 42997 81304 11132 21145 40170 57006 8802/;
0133239330999992000012012004+60970+069070FM-12+0040USHH V0201501N004019999999N0100001N1-01101-01231101561ADDGF108991081001999999021999MA1999999100941MD1710141+9999REMSYN066AAXX  20121 23933 42997 81504 11110 21123 30094 40156 57014 8802/;
0193239330999992000012015004+60970+069070FM-12+0040USHH V0201401N005019999999N0100001N1-00991-01161101311ADDAA199000091AY131031AY221031GF108991001001999999001071KA1999M-00991MD1710251+9999MW1361REMSYN076AAXX  20151 23933 31997 81405 11099 21116 40131 57025 73632 80007 333 11099;EQDQ01  00002PRCP99
0209239330999992000012018004+60970+069070FM-12+0040USHH V0201501N005019999999N0100001N1-00921-01081101141ADDAA199000091AY131061AY221061GF108991001001999999001071KA1999M+99999MD1710161+9999MW1361REMSYN076AAXX  20181 23933 31997 81505 11092 21108 40114 57016 73632 80007 333 11099;EQDQ01  00002PRCP99Q02 -00992ATMX  
0140239330999992000012021004+60970+069070FM-12+0040USHH V0201401N005019999999N0100001N1-00871-01061100961ADDAY131031AY221031GF106991001001999999001011MD1710171+9999MW1361REMSYN066AAXX  20211 23933 41997 61405 11087 21106 40096 57017 73632 80001;
0161239330999992000012100004+60970+069070FM-12+0040USHH V0201301N006019999999N0100001N1-00871-01111100751ADDAY131061AY221061GF108991001001999999001081MA1999999100151MD1710211+9999MW1361REMSYN072AAXX  21001 23933 41997 81306 11087 21111 30015 40075 57021 73632 80008;
0209239330999992000012103004+60970+069070FM-12+0040USHH V0201401N005019999999N0100001N1-00891-01121100681ADDAA199000091AJ100399199999999AY131031AY221031GF108991001001999999001081IA1239MD1710071+9999MW1361REMSYN082AAXX  21031 23933 31997 81405 11089 21112 40068 57007 73632 80008 333 47039 55000;EQDQ01  00002PRCP99
0140239330999992000012109004+60970+069070FM-12+0040USHH V0200401N003019999999N0040001N1-00871-01061101101ADDAY171031AY231031GF108991041001999999021071MD1210291+9999MW1711REMSYN066AAXX  21091 23933 41996 80403 11087 21106 40110 52029 77173 84027;
0161239330999992000012112004+60970+069070FM-12+0040USHH V0201201N003019999999N0100001N1-00901-01061101471ADDAY171061AY231061GF108991021001999999021071MA1999999100861MD1210371+9999MW1361REMSYN072AAXX  21121 23933 41997 81203 11090 21106 30086 40147 52037 73673 82027;
0163239330999992000012115004+60970+069070FM-12+0040USHH V0201001N003019999999N0100001N1-00951-01111101671ADDAY131031AY221031GF108991001001999999001071KA1999M-00831MD1210201+9999MW1361REMSYN076AAXX  21151 23933 /1997 81003 11095 21111 40167 52020 73632 80007 333 11083;
0180239330999992000012118004+60970+069070FM-12+0040USHH V0201501N004019999999N0100001N1-00871-01021101721ADDAA100000591AY131061AY221061GF108991081001999999021999KA1999M-00831MD1210051+9999MW1361REMSYN082AAXX  21181 23933 11997 81504 11087 21102 40172 52005 69960 73632 8802/ 333 11083;
0161239330999992000012200004+60970+069070FM-12+0040USHH V0201301N004019999999N0100001N1-00861-01051101581ADDAY131061AY221061GF108991081001999999021999MA1999999100971MD1810151+9999MW1361REMSYN072AAXX  22001 23933 41997 81304 11086 21105 30097 40158 58015 73632 8802/;
0179239330999992000012203004+60970+069070FM-12+0040USHH V0201301N005019999999N0100001N1-00911-01111101391ADDAJ100389199999999AY131031AY221031GF108991051001999999021071IA1239MD1710191+9999MW1361REMSYN082AAXX  22031 23933 /1997 81305 11091 21111 40139 57019 73632 85027 333 47038 55000;
0163239330999992000012206004+60970+069070FM-12+0040USHH V0201401N004019999999N0040001N1-00911-01061101421ADDAY171061AY231061GF108991081001999999021999KA1999N-00991MD1310031+9999MW1711REMSYN076AAXX  22061 23933 11996 81404 11091 21106 40142 53003 77173 8802/ 333 21099;
0140239330999992000012209004+60970+069070FM-12+0040USHH V0201301N003019999999N0040001N1-00731-00901101511ADDAY171031AY231031GF108991081001999999021999MD1210111+9999MW1711REMSYN066AAXX  22091 23933 41996 81303 11073 21090 40151 52011 77173 8802/;
0161239330999992000012212004+60970+069070FM-12+0040USHH V0201201N002019999999N0040001N1-00681-00801101511ADDAY171061AY231061GF108991081001999999021999MA1999999100901MD1410001+9999MW1711REMSYN072AAXX  22121 23933 41996 81202 11068 21080 30090 40151 54000 77173 8802/;
0163239330999992000012215004+60970+069070FM-12+0040USHH V0201401N003019999999N0040001N1-00601-00791101471ADDAY171031AY231031GF108991081001999999021999KA1999M-00591MD1810041+9999MW1711REMSYN076AAXX  22151 23933 /1996 81403 11060 21079 40147 58004 77173 8802/ 333 11059;
0180239330999992000012218004+60970+069070FM-12+0040USHH V0201401N003019999999N0040001N1-00601-00751101521ADDAA100000591AY171061AY231061GF108991081001999999021999KA1999M-00591MD1310051+9999MW1711REMSYN082AAXX  22181 23933 11996 81403 11060 21075 40152 53005 69950 77173 8802/ 333 11059;
0140239330999992000012221004+60970+069070FM-12+0040USHH V0201401N003019999999N0040001N1-00631-00781101601ADDAY171031AY221031GF108991081001999999021999MD1210081+9999MW1711REMSYN066AAXX  22211 23933 41996 81403 11063 21078 40160 52008 77172 8802/;
0161239330999992000012300004+60970+069070FM-12+0040USHH V0201401N003019999999N0010001N1-00671-00791101701ADDAY171061AY221061GF108991081001999999021999MA1999999101091MD1210101+9999MW1751REMSYN072AAXX  23001 23933 41994 81403 11067 21079 30109 40170 52010 77572 8802/;
0179239330999992000012303004+60970+069070FM-12+0040USHH V0201401N001019999999N0100001N1-00761-00941101701ADDAJ100439199999999AY171031AY221031GF108991031001999999031071IA1239MD1410001+9999MW1021REMSYN082AAXX  23031 23933 /1997 81401 11076 21094 40170 54000 70272 83037 333 47043 55000;
0199239330999992000012306004+60970+069070FM-12+0040USHH V0201301N002019999999N0100001N1-00831-01061101741ADDAA100004191AY171061AY221061GF108991081001999999071999KA1999N+99999MD1210041+9999MW1021REMSYN082AAXX  23061 23933 11997 81302 11083 21106 40174 52004 60040 70272 8807/ 333 21076;EQDQ01 -00762ATMN  
0112239330999992000012309004+60970+069070FM-12+0040USHH V0201401N001019999999N0100001N1-00671-00951101691ADDGF108991081001999999071999MD1810051+9999REMSYN060AAXX  23091 23933 42997 81401 11067 21095 40169 58005 8807/;
0133239330999992000012312004+60970+069070FM-12+0040USHH V0201201N003019999999N0100001N1-00751-01051101661ADDGF108991081001999999071999MA1999999101051MD1710031+9999REMSYN066AAXX  23121 23933 42997 81203 11075 21105 30105 40166 57003 8807/;
0165239330999992000012315004+60970+069070FM-12+0040USHH V0201301N003019999999N0100001N1-00781-01091101581ADDAA199000091GF108991081001999999021999KA1999M-00671MD1710081+9999REMSYN070AAXX  23151 23933 32997 81303 11078 21109 40158 57008 8802/ 333 11067;EQDQ01  00002PRCP99
0174239330999992000012318004+60970+069070FM-12+0040USHH V0201301N003019999999N0100001N1-00901-01191101571ADDAA199000021AY171061AY221061GF108991081001999999071999KA1999M-00671MD1710011+9999MW1711REMSYN076AAXX  23181 23933 31997 81303 11090 21119 40157 57001 77172 8807/ 333 11067;
0140239330999992000012321004+60970+069070FM-12+0040USHH V0201401N003019999999N0100001N1-00921-01081101561ADDAY171031AY221031GF108991081001999999071999MD1710011+9999MW1711REMSYN066AAXX  23211 23933 41997 81403 11092 21108 40156 57001 77172 8807/;
0161239330999992000012400004+60970+069070FM-12+0040USHH V0201401N003010075019N0100001N1-00851-01001101511ADDAY171061AY221061GF108991051051008001011999MA1999999100901MD1710051+9999MW1701REMSYN072AAXX  24001 23933 41597 81403 11085 21100 30090 40151 57005 77072 8551/;
0179239330999992000012403004+60970+069070FM-12+0040USHH V0201301N003019999999N0100001N1-00981-01101101451ADDAJ100439199999999AY171031AY221031GF108991081001999999011999IA1239MD1710071+9999MW1701REMSYN082AAXX  24031 23933 /1997 81303 11098 21110 40145 57007 77072 8801/ 333 47043 55000;
0199239330999992000012406004+60970+069070FM-12+0040USHH V0201301N002019999999N0100001N1-01161-01291101401ADDAA100000391AY171061AY221061GF108991081001999999071999KA1999N+99999MD1710051+9999MW1701REMSYN082AAXX  24061 23933 11997 81302 11116 21129 40140 57005 69930 77072 8807/ 333 21098;EQDQ01 -00982ATMN  
0140239330999992000012409004+60970+069070FM-12+0040USHH V0201401N002019999999N0040001N1-01201-01331101311ADDAY171031AY221031GF108991081001999999021999MD1710091+9999MW1711REMSYN066AAXX  24091 23933 41996 81402 11120 21133 40131 57009 77172 8802/;
0161239330999992000012412004+60970+069070FM-12+0040USHH V0201101N002019999999N0040001N1-01291-01421101271ADDAY171061AY221061GF108991081001999999021999MA1999999100651MD1710041+9999MW1711REMSYN072AAXX  24121 23933 41996 81102 11129 21142 30065 40127 57004 77172 8802/;
0163239330999992000012415004+60970+069070FM-12+0040USHH V0201301N002019999999N0040001N1-01391-01521101261ADDAY171031AY221031GF108991081001999999021999KA1999M-00981MD1710011+9999MW1711REMSYN076AAXX  24151 23933 /1996 81302 11139 21152 40126 57001 77172 8802/ 333 11098;
0180239330999992000012418004+60970+069070FM-12+0040USHH V0201401N002019999999N0040001N1-01461-01591101211ADDAA100002091AY171061AY221061GF108991081001999999011999KA1999M-00981MD1710051+9999MW1711REMSYN082AAXX  24181 23933 11996 81402 11146 21159 40121 57005 60020 77172 8801/ 333 11098;
0140239330999992000012421004+60970+069070FM-12+0040USHH V0201301N001019999999N0040001N1-01511-01631101201ADDAY171031AY221031GF108991081001999999011999MD1710011+9999MW1711REMSYN066AAXX  24211 23933 41996 81301 11151 21163 40120 57001 77172 8801/;
0161239330999992000012500004+60970+069070FM-12+0040USHH V0202101N002019999999N0040001N1-01471-01601101201ADDAY171061AY221061GF108991081001999999011999MA1999999100571MD1310031+9999MW1711REMSYN072AAXX  25001 23933 41996 82102 11147 21160 30057 40120 53003 77172 8801/;
0179239330999992000012503004+60970+069070FM-12+0040USHH V0202101N001019999999N0040001N1-01571-01701101201ADDAJ100449199999999AY171031AY221031GF108991081001999999071999IA1239MD1410001+9999MW1711REMSYN082AAXX  25031 23933 /1996 82101 11157 21170 40120 54000 77172 8807/ 333 47044 55000;
0199239330999992000012506004+60970+069070FM-12+0040USHH V0201501N001019999999N0040001N1-01741-01861101251ADDAA100000591AY171061AY221061GF108991041001999999011071KA1999N+99999MD1310051+9999MW1711REMSYN082AAXX  25061 23933 11996 81501 11174 21186 40125 53005 69960 77172 84017 333 21158;EQDQ01 -01582ATMN  
0140239330999992000012509004+60970+069070FM-12+0040USHH V0202101N002019999999N0100001N1-01811-01931101361ADDAY171031AY221031GF108991021001999999011071MD1210111+9999MW1701REMSYN066AAXX  25091 23933 41997 82102 11181 21193 40136 52011 77072 82017;
0161239330999992000012512004+60970+069070FM-12+0040USHH V0202101N003019999999N0100001N1-01731-01851101521ADDAY171061AY221061GF108991031001999999011071MA1999999100891MD1210161+9999MW1701REMSYN072AAXX  25121 23933 41997 82103 11173 21185 30089 40152 52016 77072 83017;
0163239330999992000012515004+60970+069070FM-12+0040USHH V0202101N004019999999N0040001N1-01551-01681101671ADDAY171031AY231031GF108991081001999999021999KA1999M-01551MD1210151+9999MW1711REMSYN076AAXX  25151 23933 /1996 82104 11155 21168 40167 52015 77173 8802/ 333 11155;
0180239330999992000012518004+60970+069070FM-12+0040USHH V0202301N004019999999N0040001N1-01651-01781101861ADDAA100000191AY171061AY231061GF108991081001999999021999KA1999M-01551MD1210191+9999MW1711REMSYN082AAXX  25181 23933 11996 82304 11165 21178 40186 52019 69920 77173 8802/ 333 11155;
0140239330999992000012521004+60970+069070FM-12+0040USHH V0202401N004019999999N0100001N1-01781-01901102121ADDAY171031AY231031GF108991051001999999021071MD1210251+9999MW1701REMSYN066AAXX  25211 23933 41997 82404 11178 21190 40212 52025 77073 85027;
0161239330999992000012600004+60970+069070FM-12+0040USHH V0202401N004019999999N0100001N1-01911-02101102381ADDAY171061AY231061GF108991001001999999001071MA1999999101741MD1210261+9999MW1361REMSYN072AAXX  26001 23933 41997 82404 11191 21210 30174 40238 52026 73673 80007;
0179239330999992000012603004+60970+069070FM-12+0040USHH V0202401N004019999999N0100001N1-02011-02201102661ADDAJ100439199999999AY131031AY221031GF108991001001999999001081IA1239MD1210271+9999MW1011REMSYN082AAXX  26031 23933 /1997 82404 11201 21220 40266 52027 70132 80008 333 47043 55000;
0171239330999992000012606004+60970+069070FM-12+0040USHH V0202301N003019999999N0100001N1-02141-02331102911ADDAA100000191GF108991001001999999001081KA1999N+99999MD1210251+9999REMSYN076AAXX  26061 23933 12997 82303 11214 21233 40291 52025 69920 80008 333 21204;EQDQ01 -02042ATMN  
0112239330999992000012609004+60970+069070FM-12+0040USHH V0201301N001019999999N0100001N1-01911-02171103041ADDGF107991001001999999001011MD1210141+9999REMSYN060AAXX  26091 23933 42997 71301 11191 21217 40304 52014 80001;
0133239330999992000012612004+60970+069070FM-12+0040USHH V0201301N002019999999N0100001N1-01971-02161103081ADDGF108991081001999999021999MA1999999102421MD1210021+9999REMSYN066AAXX  26121 23933 42997 81302 11197 21216 30242 40308 52002 8802/;
0165239330999992000012615004+60970+069070FM-12+0040USHH V0200301N003019999999N0100001N1-01671-01861102851ADDAA199000091GF105991001001999999001011KA1999M-01671MD1810211+9999REMSYN070AAXX  26151 23933 32997 50303 11167 21186 40285 58021 80001 333 11167;EQDQ01  00002PRCP99
0209239330999992000012618004+60970+069070FM-12+0040USHH V0200201N004019999999N0100001N1-01331-01601102641ADDAA199000091AY131061AY221061GF108991081001999999071999KA1999M+99999MD1710201+9999MW1361REMSYN076AAXX  26181 23933 31997 80204 11133 21160 40264 57020 73632 8807/ 333 11167;EQDQ01  00002PRCP99Q02 -01672ATMX  
0140239330999992000012621004+60970+069070FM-12+0040USHH V0200101N004019999999N0100001N1-01401-01671102411ADDAY131031AY221031GF108991001001999999001071MD1710231+9999MW1361REMSYN066AAXX  26211 23933 41997 80104 11140 21167 40241 57023 73632 80007;
0161239330999992000012700004+60970+069070FM-12+0040USHH V0200601N003019999999N0100001N1-01411-01681102261ADDAY131061AY221061GF108991001001999999001071MA1999999101631MD1710151+9999MW1361REMSYN072AAXX  27001 23933 41997 80603 11141 21168 30163 40226 57015 73632 80007;
0209239330999992000012703004+60970+069070FM-12+0040USHH V0200901N004019999999N0100001N1-01231-01431102031ADDAA199000091AJ100449199999999AY131031AY221031GF108991021001999999031071IA1239MD1710231+9999MW1361REMSYN082AAXX  27031 23933 31997 80904 11123 21143 40203 57023 73632 82037 333 47044 55000;EQDQ01  00002PRCP99
0193239330999992000012706004+60970+069070FM-12+0040USHH V0200901N003019999999N0100001N1-01201-01401101941ADDAA199000091AY131061AY221061GF108991031001999999031081KA1999N-01681MD1710081+9999MW1361REMSYN076AAXX  27061 23933 31997 80903 11120 21140 40194 57008 73632 83038 333 21168;EQDQ01  00002PRCP99
0140239330999992000012709004+60970+069070FM-12+0040USHH V0201201N002019999999N0100001N1-01211-01411101751ADDAY131031AY221031GF108991011001999999031081MD1710191+9999MW1361REMSYN066AAXX  27091 23933 41997 81202 11121 21141 40175 57019 73632 81038;
0161239330999992000012712004+60970+069070FM-12+0040USHH V0200701N003019999999N0100001N1-01031-01231101601ADDAY131061AY221061GF108991081001999999011999MA1999999100981MD1710151+9999MW1361REMSYN072AAXX  27121 23933 41997 80703 11103 21123 30098 40160 57015 73632 8801/;
0163239330999992000012715004+60970+069070FM-12+0040USHH V0203001N003019999999N0040001N1-00851-01081101471ADDAY171031AY231031GF108991081001999999021999KA1999M-00841MD1710121+9999MW1711REMSYN076AAXX  27151 23933 /1996 83003 11085 21108 40147 57012 77173 8802/ 333 11084;
0199239330999992000012718004+60970+069070FM-12+0040USHH V0203101N002019999999N0040001N1-00761-00941101421ADDAA100000791AY171061AY231061GF108991081001999999021999KA1999M+99999MD1710051+9999MW1711REMSYN082AAXX  27181 23933 11996 83102 11076 21094 40142 57005 69900 77173 8802/ 333 11084;EQDQ01 -00842ATMX  
0140239330999992000012721004+60970+069070FM-12+0040USHH V0201701N004010300019N0100001N1-00741-00921101471ADDAY171031AY231031GF108991031071004501021999MD1310051+9999MW1361REMSYN066AAXX  27211 23933 41497 81704 11074 21092 40147 53005 73673 8372/;
0161239330999992000012800004+60970+069070FM-12+0040USHH V0201801N004012200019N0100001N1-00751-00921101511ADDAY171061AY231061GF103991031051008001001001MA1999999100901MD1210041+9999MW1361REMSYN072AAXX  28001 23933 41597 31804 11075 21092 30090 40151 52004 73673 83500;
0179239330999992000012803004+60970+069070FM-12+0040USHH V0202001N003012200019N0100001N1-00771-00911101781ADDAJ100409199999999AY131031AY201031GF102991021051008001001001IA1239MD1210271+9999MW1361REMSYN082AAXX  28031 23933 /1597 22003 11077 21091 40178 52027 73630 82500 333 47040 55000;
0180239330999992000012806004+60970+069070FM-12+0040USHH V0202101N003019999999N0100001N1-00811-00951101831ADDAA100000591AY131061AY211061GF108991031001999999031081KA1999N-00841MD1210051+9999MW1031REMSYN082AAXX  28061 23933 11997 82103 11081 21095 40183 52005 69950 70331 83038 333 21084;
0140239330999992000012809004+60970+069070FM-12+0040USHH V0203301N002019999999N0100001N1-00801-00941101781ADDAY171031AY221031GF108991001001999999001081MD1810051+9999MW1701REMSYN066AAXX  28091 23933 41997 83302 11080 21094 40178 58005 77072 80008;
0135239330999992000012815004+60970+069070FM-12+0040USHH V0202201N001019999999N0100001N1-00961-01071101561ADDGF108991081001999999021999KA1999M-00751MD1710171+9999REMSYN070AAXX  28151 23933 /2997 82201 11096 21107 40156 57017 8802/ 333 11075;
0180239330999992000012818004+60970+069070FM-12+0040USHH V0200901N001019999999N0040001N1-00951-01071101421ADDAA100000791AY171061AY221061GF108991081001999999091021KA1999M-00751MD1710141+9999MW1711REMSYN082AAXX  28181 23933 11996 80901 11095 21107 40142 57014 69900 77172 88092 333 11075;
0140239330999992000012821004+60970+069070FM-12+0040USHH V0202101N002019999999N0100001N1-00951-01071101311ADDAY171031AY221031GF108991081001999999021999MD1710121+9999MW1021REMSYN066AAXX  28211 23933 41997 82102 11095 21107 40131 57012 70272 8802/;
0161239330999992000012900004+60970+069070FM-12+0040USHH V0202101N002012200019N0100001N1-01181-01311101411ADDAY171061AY211061GF103991001001999999001011MA1999999100791MD1310101+9999MW1011REMSYN072AAXX  29001 23933 41997 32102 11118 21131 30079 40141 53010 70171 80001;
0151239330999992000012903004+60970+069070FM-12+0040USHH V0202201N003012200019N0100001N1-01471-01671101541ADDAJ100419199999999GF103991001001999999001011IA1239MD1210121+9999REMSYN076AAXX  29031 23933 /2997 32203 11147 21167 40154 52012 80001 333 47041 55000;
0171239330999992000012906004+60970+069070FM-12+0040USHH V0202001N003012200019N0100001N1-01661-01851101661ADDAA100001091GF102991001001999999001011KA1999N+99999MD1210121+9999REMSYN076AAXX  29061 23933 12997 22003 11166 21185 40166 52012 60010 80001 333 21147;EQDQ01 -01472ATMN  
0112239330999992000012909004+60970+069070FM-12+0040USHH V0202301N001012200019N0100001N1-01521-01721101701ADDGF102991001001999999001011MD1210041+9999REMSYN060AAXX  29091 23933 42997 22301 11152 21172 40170 52004 80001;
0133239330999992000012912004+60970+069070FM-12+0040USHH V0202501N002012200019N0100001N1-01641-01771101771ADDGF103991001001999999001011MA1999999101141MD1210071+9999REMSYN066AAXX  29121 23933 42997 32502 11164 21177 30114 40177 52007 80001;
0165239330999992000012915004+60970+069070FM-12+0040USHH V0202601N002012200019N0100001N1-01651-01781101821ADDAA199000091GF103991001001999999001011KA1999M-01471MD1210051+9999REMSYN070AAXX  29151 23933 32997 32602 11165 21178 40182 52005 80001 333 11147;EQDQ01  00002PRCP99
0174239330999992000012918004+60970+069070FM-12+0040USHH V0202701N003019999999N0100001N1-01581-01711101791ADDAA199000021AY171061AY211061GF108991041001999999011071KA1999M-01471MD1810031+9999MW1701REMSYN076AAXX  29181 23933 31997 82703 11158 21171 40179 58003 77071 84017 333 11147;
0140239330999992000012921004+60970+069070FM-12+0040USHH V0202801N003019999999N0100001N1-01531-01661101691ADDAY171031AY221031GF108991021001999999011071MD1710101+9999MW1021REMSYN066AAXX  29211 23933 41997 82803 11153 21166 40169 57010 70272 82017;
0161239330999992000013000004+60970+069070FM-12+0040USHH V0202901N002019999999N0100001N1-01531-01661101551ADDAY171061AY221061GF108991001001999999001071MA1999999100921MD1710141+9999MW1021REMSYN072AAXX  30001 23933 41997 82902 11153 21166 30092 40155 57014 70272 80007;
0179239330999992000013003004+60970+069070FM-12+0040USHH V0202701N003019999999N0100001N1-01521-01651101451ADDAJ100419199999999AY131031AY221031GF108991051001999999011071IA1239MD1710101+9999MW1361REMSYN082AAXX  30031 23933 /1997 82703 11152 21165 40145 57010 73632 85017 333 47041 55052;
0180239330999992000013006004+60970+069070FM-12+0040USHH V0202601N002019999999N0100001N1-01451-01581101381ADDAA100000791AY171061AY231061GF107991041001999999031011KA1999N-01671MD1710061+9999MW1221REMSYN082AAXX  30061 23933 11997 72602 11145 21158 40138 57006 69900 72273 84031 333 21167;
0140239330999992000013009004+60970+069070FM-12+0040USHH V0202401N001019999999N0100001N1-01311-01441101311ADDAY171031AY231031GF108991081001999999021999MD1710071+9999MW1731REMSYN066AAXX  30091 23933 41997 82401 11131 21144 40131 57007 77373 8802/;
0161239330999992000013012004+60970+069070FM-12+0040USHH V0209999C000019999999N0100001N1-01351-01481101351ADDAY171061AY221061GF108991041001999999031051MA1999999100731MD1310041+9999MW1221REMSYN072AAXX  30121 23933 41997 80000 11135 21148 30073 40135 53004 72272 84035;
0163239330999992000013015004+60970+069070FM-12+0040USHH V0202401N002019999999N0100001N1-01351-01481101421ADDAY171031AY221031GF108991081001999999071999KA1999M-01271MD1210071+9999MW1711REMSYN076AAXX  30151 23933 /1997 82402 11135 21148 40142 52007 77172 8807/ 333 11127;
0180239330999992000013018004+60970+069070FM-12+0040USHH V0202701N002019999999N0100001N1-01341-01471101491ADDAA100001091AY171061AY221061GF108991081001999999071999KA1999M-01271MD1210071+9999MW1021REMSYN082AAXX  30181 23933 11997 82702 11134 21147 40149 52007 60010 70272 8807/ 333 11127;
0112239330999992000013021004+60970+069070FM-12+0040USHH V0202601N001019999999N0100001N1-01491-01621101631ADDGF108991001001999999001071MD1210131+9999REMSYN060AAXX  30211 23933 42997 82601 11149 21162 40163 52013 80007;
0143239330999992000013100004+60970+069070FM-12+0040USHH V0202601N001012200019N0100001N1-01741-01861101821ADDGA1001+999999999GF100991001001999999001001MA1999999101191MD1210191+9999REMSYN060AAXX  31001 23933 42997 02601 11174 21186 30119 40182 52019;
0162239330999992000013106004+60970+069070FM-12+0040USHH V0202701N002012200019N0100001N1-01841-01961102161ADDAA100000791GA1001+999999999GF100991001001999999001001KA1999N-01851MD1210151+9999REMSYN070AAXX  31061 23933 12997 02702 11184 21196 40216 52015 69900 333 21185;
0122239330999992000013109004+60970+069070FM-12+0040USHH V0203201N001012200019N0100001N1-01711-01831102231ADDGA1001+999999999GF100991001001999999001001MD1210071+9999REMSYN054AAXX  31091 23933 42997 03201 11171 21183 40223 52007;
0171239330999992000013112004+60970+069070FM-12+0040USHH V0209999C000012200019N0100001N1-02311-02421102311ADDAY101061AY201061GA1001+999999999GF100991001001999999001001MA1999999101661MD1210071+9999MW1101REMSYN066AAXX  31121 23933 41997 00000 11231 21242 30166 40231 52007 71000;
0193239330999992000013115004+60970+069070FM-12+0040USHH V0201101N002012200019N0100001N1-02491-02611102341ADDAA199000091AY101031AY201031GF102991001001999999001011KA1999M-01701MD1210021+9999MW1101REMSYN076AAXX  31151 23933 31997 21102 11249 21261 40234 52002 71000 80001 333 11170;EQDQ01  00002PRCP99
0165239330999992000013118004+60970+069070FM-12+0040USHH V0201201N003019999999N0100001N1-02341-02461102261ADDAA199000091GF108991001001999999001071KA1999M-01701MD1810071+9999REMSYN070AAXX  31181 23933 32997 81203 11234 21246 40226 58007 80007 333 11170;EQDQ01  00002PRCP99
0140239330999992000013121004+60970+069070FM-12+0040USHH V0201201N002019999999N0100001N1-02281-02401102111ADDAY171031AY221031GF108991001001999999001071MD1710151+9999MW1761REMSYN066AAXX  31211 23933 41997 81202 11228 21240 40211 57015 77672 80007;
0161239330999992000020100004+60970+069070FM-12+0040USHH V0201101N003019999999N0100001N1-01641-01771101941ADDAY171061AY221061GF108991081001999999021999MA1999999101311MD1710151+9999MW1021REMSYN072AAXX  01001 23933 41997 81103 11164 21177 30131 40194 57015 70272 8802/;
0151239330999992000020103004+60970+069070FM-12+0040USHH V0201301N003019999999N0100001N1-01301-01431101791ADDAJ100429199999999GF108991081001999999021999IA1239MD1710141+9999REMSYN076AAXX  01031 23933 /2997 81303 11130 21143 40179 57014 8802/ 333 47042 55000;
0180239330999992000020106004+60970+069070FM-12+0040USHH V0201501N003019999999N0100001N1-01221-01281101641ADDAA100000791AY171061AY221061GF108991031001999999071021KA1999N-02521MD1710151+9999MW1701REMSYN082AAXX  01061 23933 11997 81503 11122 21128 40164 57015 69900 77072 83072 333 21252;
0140239330999992000020109004+60970+069070FM-12+0040USHH V0201201N003019999999N0100001N1-01001-01061101451ADDAY171031AY221031GF108991001001999999001071MD1710191+9999MW1701REMSYN066AAXX  01091 23933 41997 81203 11100 21106 40145 57019 77072 80007;
0161239330999992000020112004+60970+069070FM-12+0040USHH V0201401N003019999999N0100001N1-00981-01061101341ADDAY171061AY221061GF106991041001999999031011MA1999999100721MD1710111+9999MW1021REMSYN072AAXX  01121 23933 41997 61403 11098 21106 30072 40134 57011 70272 84031;
0163239330999992000020115004+60970+069070FM-12+0040USHH V0201001N003019999999N0040001N1-00711-00761101201ADDAY171031AY221031GF108991081001999999021999KA1999M-00711MD1710131+9999MW1711REMSYN076AAXX  01151 23933 /1996 81003 11071 21076 40120 57013 77172 8802/ 333 11071;
0199239330999992000020118004+60970+069070FM-12+0040USHH V0203001N002019999999N0040001N1-00591-00661101091ADDAA100000191AY171061AY231061GF108991081001999999021999KA1999M+99999MD1710111+9999MW1711REMSYN082AAXX  01181 23933 11996 83002 11059 21066 40109 57011 69920 77173 8802/ 333 11071;EQDQ01 -00712ATMX  
0140239330999992000020121004+60970+069070FM-12+0040USHH V0202901N002019999999N0040001N1-00491-00551101051ADDAY171031AY231031GF108991081001999999021999MD1710041+9999MW1711REMSYN066AAXX  01211 23933 41996 82902 11049 21055 40105 57004 77173 8802/;
0161239330999992000020200004+60970+069070FM-12+0040USHH V0202701N003010042019N0100001N1-00431-00491100971ADDAY171061AY231061GF108991081001004501021999MA1999999100381MD1710061+9999MW1701REMSYN072AAXX  02001 23933 41497 82703 11043 21049 30038 40097 57006 77073 8802/;
0179239330999992000020203004+60970+069070FM-12+0040USHH V0202701N003019999999N0100001N1-00431-00521100951ADDAJ100429199999999AY171031AY221031GF108991051001999999021071IA1239MD1710021+9999MW1711REMSYN082AAXX  02031 23933 /1997 82703 11043 21052 40095 57002 77172 85027 333 47042 55000;
0180239330999992000020206004+60970+069070FM-12+0040USHH V0203001N003019999999N0100001N1-00341-00451100921ADDAA100001091AY171061AY231061GF108991081001999999021999KA1999N-00711MD1710031+9999MW1711REMSYN082AAXX  02061 23933 11997 83003 11034 21045 40092 57003 60010 77173 8802/ 333 21071;
0140239330999992000020209004+60970+069070FM-12+0040USHH V0202501N003019999999N0100001N1-00331-00501100821ADDAY171031AY231031GF108991081001999999021999MD1710111+9999MW1711REMSYN066AAXX  02091 23933 41997 82503 11033 21050 40082 57011 77173 8802/;
0161239330999992000020212004+60970+069070FM-12+0040USHH V0202401N003019999999N0100001N1-00451-00651100771ADDAY171061AY231061GF108991081001999999021999MA1999999100181MD1710041+9999MW1381REMSYN072AAXX  02121 23933 41997 82403 11045 21065 30018 40077 57004 73873 8802/;
0163239330999992000020215004+60970+069070FM-12+0040USHH V0203101N003019999999N0100001N1-00521-00811100761ADDAY131031AY221031GF108991001001999999001071KA1999M-00301MD1710021+9999MW1361REMSYN076AAXX  02151 23933 /1997 83103 11052 21081 40076 57002 73632 80007 333 11030;
0180239330999992000020218004+60970+069070FM-12+0040USHH V0202501N003019999999N0100001N1-00601-00751100721ADDAA100000591AY171061AY231061GF108991081001999999021999KA1999M-00301MD1710041+9999MW1711REMSYN082AAXX  02181 23933 11997 82503 11060 21075 40072 57004 69940 77173 8802/ 333 11030;
0159239330999992000020221004+60970+069070FM-12+0040USHH V0203301N003019999999N0100001N1-00611-00841100711ADDAY171031AY231031GF108991999001999999031001MD1710011+9999MW1361REMSYN066AAXX  02211 23933 41997 83303 11061 21084 40071 57001 73673 86030;EQDQ01+000062SCOTLC
0161239330999992000020300004+60970+069070FM-12+0040USHH V0203101N003019999999N0100001N1-00711-00961100671ADDAY131061AY221061GF107991071001999999031001MA1999999100071MD1710041+9999MW1361REMSYN072AAXX  03001 23933 41997 73103 11071 21096 30007 40067 57004 73632 87030;
0179239330999992000020303004+60970+069070FM-12+0040USHH V0203301N003019999999N0100001N1-00751-00921100671ADDAJ100439199999999AY171031AY231031GF108991081001999999071999IA1239MD1410001+9999MW1711REMSYN082AAXX  03031 23933 /1997 83303 11075 21092 40067 54000 77173 8807/ 333 47043 55000;
0199239330999992000020306004+60970+069070FM-12+0040USHH V0203501N003019999999N0100001N1-00811-00951100671ADDAA100000591AY171061AY231061GF108991081001999999021999KA1999N+99999MD1410001+9999MW1711REMSYN082AAXX  03061 23933 11997 83503 11081 21095 40067 54000 69950 77173 8802/ 333 21074;EQDQ01 -00742ATMN  
0140239330999992000020309004+60970+069070FM-12+0040USHH V0201501N002019999999N0100001N1-00881-01031100621ADDAY171031AY231031GF108991081001999999021999MD1710051+9999MW1711REMSYN066AAXX  03091 23933 41997 81502 11088 21103 40062 57005 77173 8802/;
0161239330999992000020312004+60970+069070FM-12+0040USHH V0201601N002019999999N0040001N1-00921-01031100571ADDAY171061AY231061GF108991081001999999021999MA1999999099971MD1710051+9999MW1711REMSYN072AAXX  03121 23933 41996 81602 11092 21103 39997 40057 57005 77173 8802/;
0163239330999992000020315004+60970+069070FM-12+0040USHH V0201501N002019999999N0040001N1-01001-01131100541ADDAY171031AY221031GF108991081001999999011999KA1999M-00751MD1710041+9999MW1711REMSYN076AAXX  03151 23933 /1996 81502 11100 21113 40054 57004 77172 8801/ 333 11075;
0180239330999992000020318004+60970+069070FM-12+0040USHH V0201401N002019999999N0040001N1-01131-01261100471ADDAA100001091AY171061AY221061GF108991081001999999011999KA1999M-00751MD1710071+9999MW1711REMSYN082AAXX  03181 23933 11996 81402 11113 21126 40047 57007 60010 77172 8801/ 333 11075;
0140239330999992000020321004+60970+069070FM-12+0040USHH V0201601N003019999999N0100001N1-01261-01391100361ADDAY171031AY221031GF108991001001999999001021MD1710111+9999MW1701REMSYN066AAXX  03211 23933 41997 81603 11126 21139 40036 57011 77072 80002;
0161239330999992000020400004+60970+069070FM-12+0040USHH V0201201N003019999999N0100001N1-01361-01491100181ADDAY171061AY231061GF108991001001999999001071MA1999999099571MD1710181+9999MW1361REMSYN072AAXX  04001 23933 41997 81203 11136 21149 39957 40018 57018 73673 80007;
0179239330999992000020403004+60970+069070FM-12+0040USHH V0201401N004019999999N0100001N1-01331-01461100011ADDAJ100449199999999AY131031AY221031GF108991001001999999001071IA1239MD1710171+9999MW1361REMSYN082AAXX  04031 23933 /1997 81404 11133 21146 40001 57017 73632 80007 333 47044 55000;
0180239330999992000020406004+60970+069070FM-12+0040USHH V0201401N005019999999N0100001N1-01231-01361099721ADDAA100000591AY171061AY231061GF108991051001999999021071KA1999N-01371MD1710291+9999MW1711REMSYN082AAXX  04061 23933 11997 81405 11123 21136 49972 57029 69940 77173 85027 333 21137;
0140239330999992000020409004+60970+069070FM-12+0040USHH V0201601N003019999999N0040001N1-01081-01221099661ADDAY171031AY231031GF108991001001999999001071MD1710061+9999MW1711REMSYN066AAXX  04091 23933 41996 81603 11108 21122 49966 57006 77173 80007;
0161239330999992000020412004+60970+069070FM-12+0040USHH V0201201N002019999999N0040001N1-01101-01231099621ADDAY171061AY231061GF108991001001999999001071MA1999999099011MD1710041+9999MW1711REMSYN072AAXX  04121 23933 41996 81202 11110 21123 39901 49962 57004 77173 80007;
0163239330999992000020415004+60970+069070FM-12+0040USHH V0201301N002019999999N0040001N1-01061-01191099541ADDAY171031AY231031GF108991031001999999011071KA1999M-01061MD1710081+9999MW1711REMSYN076AAXX  04151 23933 /1996 81302 11106 21119 49954 57008 77173 83017 333 11106;
0180239330999992000020418004+60970+069070FM-12+0040USHH V0201701N002019999999N0040001N1-01031-01161099441ADDAA100001091AY171061AY231061GF108991081001999999021999KA1999M-01061MD1710101+9999MW1711REMSYN082AAXX  04181 23933 11996 81702 11103 21116 49944 57010 60010 77173 8802/ 333 11106;
0140239330999992000020421004+60970+069070FM-12+0040USHH V0201801N002019999999N0040001N1-01171-01231099411ADDAY171031AY221031GF108991081001999999021999MD1710031+9999MW1711REMSYN066AAXX  04211 23933 41996 81802 11117 21123 49941 57003 77172 8802/;
0161239330999992000020500004+60970+069070FM-12+0040USHH V0201801N003019999999N0100001N1-01221-01281099461ADDAY171061AY221061GF108991081001999999021999MA1999999098851MD1310051+9999MW1021REMSYN072AAXX  05001 23933 41997 81803 11122 21128 39885 49946 53005 70272 8802/;
0179239330999992000020503004+60970+069070FM-12+0040USHH V0201801N003019999999N0040001N1-01241-01371099561ADDAJ100459199999999AY171031AY231031GF108991081001999999011999IA1239MD1210101+9999MW1711REMSYN082AAXX  05031 23933 /1996 81803 11124 21137 49956 52010 77173 8801/ 333 47045 55000;
0180239330999992000020506004+60970+069070FM-12+0040USHH V0201801N003019999999N0040001N1-01341-01471099801ADDAA100000591AY171061AY231061GF108991081001999999071999KA1999N-01291MD1210241+9999MW1711REMSYN082AAXX  05061 23933 11996 81803 11134 21147 49980 52024 69950 77173 8807/ 333 21129;
0140239330999992000020509004+60970+069070FM-12+0040USHH V0201801N003019999999N0100001N1-01401-01531099951ADDAY171031AY231031GF106991021051999999031001MD1210151+9999MW1361REMSYN066AAXX  05091 23933 41997 61803 11140 21153 49995 52015 73673 82530;
0180239330999992000020512004+60970+069070FM-12+0040USHH V0201901N004012200019N0100001N1-01381-01521999999ADDAY131061AY221061GF102991021001999999031001MA1999999099521MD1210181+9999MW1361REMSYN072AAXX  05121 23933 41997 21904 11138 21152 39952 40113 52018 73632 82030;EQDQ01+101133APOSLP
0173239330999992000020515004+60970+069070FM-12+0040USHH V0201801N005012200019N0100001N1-01441-01571100351ADDAY131031AY221031GA1001+999999999GF100991001001999999001001KA1999M-01241MD1210221+9999MW1361REMSYN070AAXX  05151 23933 /1997 01805 11144 21157 40035 52022 73632 333 11124;
0209239330999992000020518004+60970+069070FM-12+0040USHH V0201701N003012200019N0100001N1-01521-01651100441ADDAA100000791AY131061AY221061GA1001+999999999GF100991001001999999001001KA1999N+99999MD1210071+9999MW1361REMSYN076AAXX  05181 23933 11997 01703 11152 21165 40044 52007 69900 73632 333 21124;EQDQ01 -01242ATMN  
0150239330999992000020521004+60970+069070FM-12+0040USHH V0201701N002012200019N0100001N1-01561-01691100531ADDAY131031AY221031GA1001+999999999GF100991001001999999001001MD1210091+9999MW1021REMSYN060AAXX  05211 23933 41997 01702 11156 21169 40053 52009 70232;
0143239330999992000020600004+60970+069070FM-12+0040USHH V0201701N001012200019N0100001N1-01741-01861100691ADDGA1001+999999999GF100991001001999999001001MA1999999100061MD1210161+9999REMSYN060AAXX  06001 23933 42997 01701 11174 21186 30006 40069 52016;
0191239330999992000020603004+60970+069070FM-12+0040USHH V0209999C000012200019N0100001N1-01921-02041100871ADDAA199000091AJ100469199999999GA1001+999999999GF100991001001999999001001IA1239MD1210181+9999REMSYN070AAXX  06031 23933 32997 00000 11192 21204 40087 52018 333 47046 55020;EQDQ01  00002PRCP99
0175239330999992000020606004+60970+069070FM-12+0040USHH V0201801N002012200019N0100001N1-01891-02011101041ADDAA199000091GA1001+999999999GF100991001001999999001001KA1999N-01951MD1210171+9999REMSYN064AAXX  06061 23933 32997 01802 11189 21201 40104 52017 333 21195;EQDQ01  00002PRCP99
0122239330999992000020609004+60970+069070FM-12+0040USHH V0202101N002012200019N0100001N1-01661-01791101221ADDGA1001+999999999GF100991001001999999001001MD1210181+9999REMSYN054AAXX  06091 23933 42997 02102 11166 21179 40122 52018;
0133239330999992000020612004+60970+069070FM-12+0040USHH V0202201N001012200019N0100001N1-01701-01831101391ADDGF103991001001999999001011MA1999999100761MD1210171+9999REMSYN066AAXX  06121 23933 42997 32201 11170 21183 30076 40139 52017 80001;
0165239330999992000020615004+60970+069070FM-12+0040USHH V0202301N004012200019N0100001N1-01601-01731101551ADDAA199000091GF102991001001999999001011KA1999M-01631MD1210161+9999REMSYN070AAXX  06151 23933 32997 22304 11160 21173 40155 52016 80001 333 11163;EQDQ01  00002PRCP99
0137239330999992000020618004+60970+069070FM-12+0040USHH V0202701N002019999999N0100001N1+99999+99999999999ADDAA199000091GF107991999999008001999999REMSYN069AAXX  06181 23933 32597 72702 1116 21176 40171 52016 87500 333 11163;EQDQ01  00002PRCP99
0122239330999992000020621004+60970+069070FM-12+0040USHH V0201001N001012200019N0100001N1-02241-02361101791ADDGA1001+999999999GF100991001001999999001001MD1210071+9999REMSYN054AAXX  06211 23933 42997 01001 11224 21236 40179 52007;
0133239330999992000020700004+60970+069070FM-12+0040USHH V0201201N002019999999N0100001N1-02191-02311101811ADDGF108991001001999999001071MA1999999101171MD1210021+9999REMSYN066AAXX  07001 23933 42997 81202 11219 21231 30117 40181 52002 80007;
0179239330999992000020703004+60970+069070FM-12+0040USHH V0200901N002019999999N0100001N1-01841-01961101801ADDAJ100469199999999AY171031AY221031GF108991081001999999021999IA1239MD1410001+9999MW1711REMSYN082AAXX  07031 23933 /1997 80902 11184 21196 40180 54000 77172 8802/ 333 47046 55056;
0180239330999992000020706004+60970+069070FM-12+0040USHH V0201401N002019999999N0100001N1-01601-01731101761ADDAA100000591AY171061AY221061GF107991001001999999001081KA1999N-02371MD1810041+9999MW1021REMSYN082AAXX  07061 23933 11997 71402 11160 21173 40176 58004 69940 70272 80008 333 21237;
0112239330999992000020709004+60970+069070FM-12+0040USHH V0201501N001019999999N0100001N1-01441-01571101751ADDGF106991031001999999031011MD1410001+9999REMSYN060AAXX  07091 23933 42997 61501 11144 21157 40175 54000 83031;
0133239330999992000020712004+60970+069070FM-12+0040USHH V0201001N002019999999N0100001N1-01471-01601101761ADDGF106991051001999999031011MA1999999101131MD1410001+9999REMSYN066AAXX  07121 23933 42997 61002 11147 21160 30113 40176 54000 85031;
0135239330999992000020715004+60970+069070FM-12+0040USHH V0201201N001019999999N0100001N1-01581-01711101761ADDGF107991061001999999031011KA1999M-01441MD1410001+9999REMSYN070AAXX  07151 23933 /2997 71201 11158 21171 40176 54000 86031 333 11144;
0152239330999992000020718004+60970+069070FM-12+0040USHH V0200901N001019999999N0100001N1-01461-01591101751ADDAA100000591GF106991051001999999031011KA1999M-01441MD1410001+9999REMSYN076AAXX  07181 23933 12997 60901 11146 21159 40175 54000 69940 85031 333 11144;
0112239330999992000020721004+60970+069070FM-12+0040USHH V0201201N002012200019N0100001N1-02061-02181101771ADDGF103991001001999999001011MD1410001+9999REMSYN060AAXX  07211 23933 42997 31202 11206 21218 40177 54000 80001;
0133239330999992000020800004+60970+069070FM-12+0040USHH V0201601N002019999999N0100001N1-01771-01891101741ADDGF105991001001999999001011MA1999999101111MD1810021+9999REMSYN066AAXX  08001 23933 42997 51602 11177 21189 30111 40174 58002 80001;
0151239330999992000020803004+60970+069070FM-12+0040USHH V0200901N001019999999N0100001N1-01761-01881101761ADDAJ100469199999999GF108991001001999999001071IA1239MD1310021+9999REMSYN076AAXX  08031 23933 /2997 80901 11176 21188 40176 53002 80007 333 47046 55031;
0174239330999992000020806004+60970+069070FM-12+0040USHH V0201001N002019999999N0100001N1-01841-02031101871ADDAA199000021AY171061AY221061GF106991031001999999031081KA1999N-02141MD1210111+9999MW1711REMSYN076AAXX  08061 23933 31997 61002 11184 21203 40187 52011 77172 83038 333 21214;
0150239330999992000020809004+60970+069070FM-12+0040USHH V0201001N001012200019N0100001N1-01691-01881101821ADDAY171031AY211031GA1001+999999999GF100991001001999999001001MD1810051+9999MW1021REMSYN060AAXX  08091 23933 41997 01001 11169 21188 40182 58005 70271;
0171239330999992000020812004+60970+069070FM-12+0040USHH V0201301N001012200019N0100001N1-01951-02141101841ADDAY171061AY211061GA1001+999999999GF100991001001999999001001MA1999999101211MD1310021+9999MW1021REMSYN066AAXX  08121 23933 41997 01301 11195 21214 30121 40184 53002 70271;
0182239330999992000020815004+60970+069070FM-12+0040USHH V0201401N001019999999N0100001N1-01881-02071999999ADDAY171031AY271031GF106991031001999999031081KA1999M-01691MD1810061+9999MW1711REMSYN076AAXX  08151 23933 /1997 61401 11188 21207 40278 58006 77177 83038 333 11169;EQDQ01+102783APOSLP
0180239330999992000020818004+60970+069070FM-12+0040USHH V0201001N001012200019N0100001N1-02101-02281101841ADDAA112000191AY171061AY211061GF102991001001999999001081KA1999M-01691MD1310051+9999MW1021REMSYN082AAXX  08181 23933 11997 21001 11210 21228 40184 53005 69922 70271 80008 333 11169;
0140239330999992000020821004+60970+069070FM-12+0040USHH V0200801N001019999999N0100001N1-02311-02491101841ADDAY171031AY211031GF108991081001999999021999MD1410001+9999MW1711REMSYN066AAXX  08211 23933 41997 80801 11231 21249 40184 54000 77171 8802/;
0161239330999992000020900004+60970+069070FM-12+0040USHH V0201101N001019999999N0100001N1-02371-02551101821ADDAY171061AY211061GF106991041001999999021011MA1999999101181MD1710021+9999MW1711REMSYN072AAXX  09001 23933 41997 61101 11237 21255 30118 40182 57002 77171 84021;
0150239330999992000020903004+60970+069070FM-12+0040USHH V0209999C000012200019N0100001N1-02501-02671101861ADDAY171031AY211031GF102991001001999999001011MD1310021+9999MW1021REMSYN076AAXX  09031 23933 /1997 20000 11250 21267 40186 53002 70271 80001 333 55041;
0180239330999992000020906004+60970+069070FM-12+0040USHH V0201101N001019999999N0100001N1-02551-02671101891ADDAA100000791AY111061AY211061GF108991001001999999001071KA1999N-02501MD1210031+9999MW1101REMSYN082AAXX  09061 23933 11997 81101 11255 21267 40189 52003 69900 71011 80007 333 21250;
0140239330999992000020909004+60970+069070FM-12+0040USHH V0209999C000019999999N0100001N1-02151-02271101901ADDAY171031AY221031GF108991001001999999001081MD1210031+9999MW1701REMSYN066AAXX  09091 23933 41997 80000 11215 21227 40190 52003 77072 80008;
0161239330999992000020912004+60970+069070FM-12+0040USHH V0201201N001012200019N0100001N1-02231-02341101941ADDAY171061AY211061GF103991001001999999001011MA1999999101301MD1210041+9999MW1021REMSYN072AAXX  09121 23933 41997 31201 11223 21234 30130 40194 52004 70271 80001;
0135239330999992000020915004+60970+069070FM-12+0040USHH V0209999C000012200019N0100001N1-02571-02681102071ADDGF102991001001999999001011KA1999M-02151MD1210111+9999REMSYN070AAXX  09151 23933 /2997 20000 11257 21268 40207 52011 80001 333 11215;
0152239330999992000020918004+60970+069070FM-12+0040USHH V0209999C000019999999N0100001N1-02481-02601102151ADDAA100000791GF106991001001999999001011KA1999M-02151MD1210081+9999REMSYN076AAXX  09181 23933 12997 60000 11248 21260 40215 52008 69900 80001 333 11215;
0112239330999992000020921004+60970+069070FM-12+0040USHH V0201101N001019999999N0100001N1-02551-02671102211ADDGF108991001001999999001071MD1210061+9999REMSYN060AAXX  09211 23933 42997 81101 11255 21267 40221 52006 80007;
0133239330999992000021000004+60970+069070FM-12+0040USHH V0209999C000019999999N0100001N1-02631-02741102361ADDGF108991001001999999001071MA1999999101701MD1210151+9999REMSYN066AAXX  10001 23933 42997 80000 11263 21274 30170 40236 52015 80007;
0181239330999992000021003004+60970+069070FM-12+0040USHH V0201201N002019999999N0100001N1-02601-02711102331ADDAA199000091AJ100459199999999GF108991081001999999021999IA1239MD1810031+9999REMSYN076AAXX  10031 23933 32997 81202 11260 21271 40233 58003 8802/ 333 47045 55043;EQDQ01  00002PRCP99
0174239330999992000021006004+60970+069070FM-12+0040USHH V0201101N001019999999N0100001N1-02531-02641102381ADDAA199000021AY171061AY221061GF108991081001999999011999KA1999N-02641MD1310051+9999MW1711REMSYN076AAXX  10061 23933 31997 81101 11253 21264 40238 53005 77172 8801/ 333 21264;
0140239330999992000021009004+60970+069070FM-12+0040USHH V0201101N002019999999N0100001N1-02451-02571102381ADDAY171031AY221031GF106991001001999999001011MD1210011+9999MW1021REMSYN066AAXX  10091 23933 41997 61102 11245 21257 40238 52001 70272 80001;
0161239330999992000021012004+60970+069070FM-12+0040USHH V0200801N001019999999N0100001N1-02241-02361102371ADDAY171061AY221061GF106991001001999999001011MA1999999101721MD1810011+9999MW1021REMSYN072AAXX  10121 23933 41997 60801 11224 21236 30172 40237 58001 70272 80001;
0135239330999992000021015004+60970+069070FM-12+0040USHH V0201101N002019999999N0100001N1-02051-02171102351ADDGF105991001001999999001011KA1999M-02051MD1710021+9999REMSYN070AAXX  10151 23933 /2997 51102 11205 21217 40235 57002 80001 333 11205;
0152239330999992000021018004+60970+069070FM-12+0040USHH V0200901N002019999999N0100001N1-02191-02311102351ADDAA100000791GF106991001001999999001011KA1999M-02051MD1410001+9999REMSYN076AAXX  10181 23933 12997 60902 11219 21231 40235 54000 69900 80001 333 11205;
0112239330999992000021021004+60970+069070FM-12+0040USHH V0200901N002019999999N0100001N1-02261-02381102351ADDGF108991001001999999001071MD1410001+9999REMSYN060AAXX  10211 23933 42997 80902 11226 21238 40235 54000 80007;
0133239330999992000021100004+60970+069070FM-12+0040USHH V0200901N002019999999N0100001N1-02231-02341102391ADDGF106991001001999999001011MA1999999101741MD1310041+9999REMSYN066AAXX  11001 23933 42997 60902 11223 21234 30174 40239 53004 80001;
0181239330999992000021103004+60970+069070FM-12+0040USHH V0200901N001019999999N0100001N1-01961-02081102411ADDAA199000091AJ100449199999999GF106991031001999999031011IA1239MD1210021+9999REMSYN076AAXX  11031 23933 32997 60901 11196 21208 40241 52002 83031 333 47044 55035;EQDQ01  00002PRCP99
0193239330999992000021106004+60970+069070FM-12+0040USHH V0201001N001019999999N0100001N1-02141-02331102541ADDAA199000091AY171061AY221061GF106991001001999999001011KA1999N-02351MD1210131+9999MW1021REMSYN076AAXX  11061 23933 31997 61001 11214 21233 40254 52013 70272 80001 333 21235;EQDQ01  00002PRCP99
0112239330999992000021109004+60970+069070FM-12+0040USHH V0201001N001019999999N0100001N1-01811-02001102501ADDGF106991021001999999031011MD1810031+9999REMSYN060AAXX  11091 23933 42997 61001 11181 21200 40250 58003 82031;
0161239330999992000021112004+60970+069070FM-12+0040USHH V0201101N002019999999N0100001N1-01581-01771102451ADDAY171061AY221061GF108991081001999999021999MA1999999101811MD1710051+9999MW1711REMSYN072AAXX  11121 23933 41997 81102 11158 21177 30181 40245 57005 77172 8802/;
0163239330999992000021115004+60970+069070FM-12+0040USHH V0201101N002019999999N0100001N1-01551-01741102481ADDAY171031AY221031GF106991061001999999031001KA1999M-01551MD1310031+9999MW1021REMSYN076AAXX  11151 23933 /1997 61102 11155 21174 40248 53003 70272 86030 333 11155;
0180239330999992000021118004+60970+069070FM-12+0040USHH V0201101N002019999999N0100001N1-01761-01951102411ADDAA100000391AY171061AY221061GF107991071001999999031001KA1999M-01551MD1810071+9999MW1711REMSYN082AAXX  11181 23933 11997 71102 11176 21195 40241 58007 69930 77172 87030 333 11155;
0140239330999992000021121004+60970+069070FM-12+0040USHH V0201201N002019999999N0100001N1-01571-01761102331ADDAY171031AY221031GF108991081001999999021999MD1710081+9999MW1711REMSYN066AAXX  11211 23933 41997 81202 11157 21176 40233 57008 77172 8802/;
0161239330999992000021200004+60970+069070FM-12+0040USHH V0201201N002019999999N0100001N1-01421-01621102251ADDAY171061AY221061GF108991081001999999021999MA1999999101621MD1710071+9999MW1711REMSYN072AAXX  12001 23933 41997 81202 11142 21162 30162 40225 57007 77172 8802/;
0179239330999992000021203004+60970+069070FM-12+0040USHH V0201101N002019999999N0100001N1-01401-01601102071ADDAJ100449199999999AY171031AY221031GF108991081001999999021999IA1239MD1710181+9999MW1711REMSYN082AAXX  12031 23933 /1997 81102 11140 21160 40207 57018 77172 8802/ 333 47044 55016;
0180239330999992000021206004+60970+069070FM-12+0040USHH V0201101N003019999999N0100001N1-01331-01461102091ADDAA100001091AY171061AY221061GF107991071001999999051001KA1999N-01881MD1710081+9999MW1021REMSYN082AAXX  12061 23933 11997 71103 11133 21146 40209 57008 60010 70272 87050 333 21188;
0180239330999992000021209004+60970+069070FM-12+0040USHH V0201101N003019999999N0100001N1-01331-01461102091ADDAA100001091AY171031AY221031GF107991071001999999051001KA1999N-01881MD1710081+9999MW1021REMSYN082AAXX  12091 23933 11997 71103 11133 21146 40209 57008 60010 70272 87050 333 21188;
0161239330999992000021212004+60970+069070FM-12+0040USHH V0201001N004019999999N0100001N1-01311-01371101911ADDAY171061AY221061GF107991071001999999031001MA1999999101291MD1710071+9999MW1021REMSYN072AAXX  12121 23933 41997 71004 11131 21137 30129 40191 57007 70272 87030;
0161239330999992000021215004+60970+069070FM-12+0040USHH V0201001N004019999999N0100001N1-01311-01371101911ADDAY171031AY221031GF107991071001999999031001MA1999999101291MD1710071+9999MW1021REMSYN072AAXX  12151 23933 41997 71004 11131 21137 30129 40191 57007 70272 87030;
0180239330999992000021218004+60970+069070FM-12+0040USHH V0200901N003019999999N0100001N1-01261-01321101771ADDAA100000891AY171061AY221061GF108991081001999999021999KA1999M-01211MD1710041+9999MW1711REMSYN082AAXX  12181 23933 11997 80903 11126 21132 40177 57004 69980 77172 8802/ 333 11121;
0157239330999992000021221004+60970+069070FM-12+0040USHH V0200901N002019999999N0100001N1-00671+99999101411ADDAA100000891AY171031AY221031GF108991081001999999021999MD1710071+9999MW1711REMSYN072AAXX  12211 23933 11997 80902 11067 20070 40141 57007 69980 77172 8802/;
0161239330999992000021300004+60970+069070FM-12+0040USHH V0201001N001019999999N0100001N1-01391-01451101601ADDAY171061AY221061GF107991071001999999031001MA1999999101981MD1710081+9999MW1221REMSYN072AAXX  13001 23933 41997 71001 11139 21145 30198 40160 57008 72272 87030;
0151239330999992000021303004+60970+069070FM-12+0040USHH V0201001N002019999999N0100001N1-01251-01311101481ADDAJ100479199999999GF108991081001999999021999IA1289MD1710121+9999REMSYN076AAXX  13031 23933 /2997 81002 11125 21131 40148 57012 8802/ 333 44047 55000;
0180239330999992000021306004+60970+069070FM-12+0040USHH V0200901N002019999999N0100001N1-01191-01321101391ADDAA100000591AY171061AY221061GF108991081001999999071999KA1999N-01451MD1710091+9999MW1701REMSYN082AAXX  13061 23933 11997 80902 11119 21132 40139 57009 69950 77072 8807/ 333 21145;
0140239330999992000021309004+60970+069070FM-12+0040USHH V0200301N002019999999N0100001N1-01191-01321101331ADDAY171031AY221031GF108991081001999999071999MD1710061+9999MW1701REMSYN066AAXX  13091 23933 41997 80302 11119 21132 40133 57006 77072 8807/;
0161239330999992000021312004+60970+069070FM-12+0040USHH V0200701N001019999999N0100001N1-01361-01491101341ADDAY171061AY221061GF108991081001999999071999MA1999999100721MD1310011+9999MW1711REMSYN072AAXX  13121 23933 41997 80701 11136 21149 30072 40134 53001 77172 8807/;
0163239330999992000021315004+60970+069070FM-12+0040USHH V0209999C000019999999N0040001N1-01461-01591101341ADDAY171031AY221031GF108991081001999999071999KA1999M-01191MD1410001+9999MW1711REMSYN076AAXX  13151 23933 /1996 80000 11146 21159 40134 54000 77172 8807/ 333 11119;
0180239330999992000021318004+60970+069070FM-12+0040USHH V0200101N001019999999N0040001N1-01631-01761101341ADDAA100000591AY171061AY221061GF108991081001999999071999KA1999M-01191MD1810011+9999MW1711REMSYN082AAXX  13181 23933 11996 80101 11163 21176 40134 58001 69940 77172 8807/ 333 11119;
0140239330999992000021321004+60970+069070FM-12+0040USHH V0209999C000019999999N0040001N1-01751-01871101341ADDAY171031AY221031GF108991081001999999021999MD1410001+9999MW1711REMSYN066AAXX  13211 23933 41996 80000 11175 21187 40134 54000 77172 8802/;
0161239330999992000021400004+60970+069070FM-12+0040USHH V0209999C000019999999N0040001N1-01691-01811101361ADDAY171061AY221061GF108991081001999999021999MA1999999100731MD1310021+9999MW1711REMSYN072AAXX  14001 23933 41996 80000 11169 21181 30073 40136 53002 77172 8802/;
0179239330999992000021403004+60970+069070FM-12+0040USHH V0202601N001019999999N0100001N1-01711-01831101351ADDAJ100479199999999AY171031AY221031GF108991081001999999071999IA1239MD1810011+9999MW1021REMSYN082AAXX  14031 23933 /1997 82601 11171 21183 40135 58001 70272 8807/ 333 47047 55000;
0180239330999992000021406004+60970+069070FM-12+0040USHH V0209999C000019999999N0100001N1-01641-01841101431ADDAA100000891AY171061AY221061GF106991021001999999031081KA1999N-01771MD1310081+9999MW1711REMSYN082AAXX  14061 23933 11997 60000 11164 21184 40143 53008 69970 77172 82038 333 21177;
0140239330999992000021409004+60970+069070FM-12+0040USHH V0202701N001019999999N0100001N1-01501-01771101411ADDAY171031AY221031GF106991001001999999001011MD1810021+9999MW1021REMSYN066AAXX  14091 23933 41997 62701 11150 21177 40141 58002 70272 80001;
0161239330999992000021412004+60970+069070FM-12+0040USHH V0202601N001019999999N0100001N1-01571-01841101461ADDAY171061AY221061GF106991031001999999031081MA1999999100831MD1310051+9999MW1701REMSYN072AAXX  14121 23933 41997 62601 11157 21184 30083 40146 53005 77072 83038;
0180239330999992000021418004+60970+069070FM-12+0040USHH V0202701N001019999999N0100001N1-01731-01921101451ADDAA100000791AY171061AY221061GF106991041001999999021081KA1999M-01501MD1710011+9999MW1701REMSYN082AAXX  14181 23933 11997 62701 11173 21192 40145 57001 69900 77072 84028 333 11150;
0140239330999992000021421004+60970+069070FM-12+0040USHH V0209999C000019999999N0100001N1-01951-02141101411ADDAY171031AY221031GF106991061001999999021001MD1710041+9999MW1701REMSYN066AAXX  14211 23933 41997 60000 11195 21214 40141 57004 77072 86020;
0161239330999992000021500004+60970+069070FM-12+0040USHH V0209999C000019999999N0100001N1-01771-01961101461ADDAY171061AY221061GF108991081001999999021999MA1999999100831MD1310051+9999MW1701REMSYN072AAXX  15001 23933 41997 80000 11177 21196 30083 40146 53005 77072 8802/;
0179239330999992000021503004+60970+069070FM-12+0040USHH V0202801N001019999999N0100001N1-01701-01891101381ADDAJ100479199999999AY171031AY221031GF106991061001999999031001IA1239MD1810081+9999MW1701REMSYN082AAXX  15031 23933 /1997 62801 11170 21189 40138 58008 77072 86030 333 47047 55006;
0180239330999992000021506004+60970+069070FM-12+0040USHH V0202901N002019999999N0100001N1-01681-01811101321ADDAA100000391AY171061AY221061GF107991071001999999051001KA1999N-02041MD1710061+9999MW1701REMSYN082AAXX  15061 23933 11997 72902 11168 21181 40132 57006 69930 77072 87050 333 21204;
0140239330999992000021509004+60970+069070FM-12+0040USHH V0209999C000019999999N0100001N1-01631-01821101331ADDAY171031AY221031GF108991031001999999031071MD1310011+9999MW1021REMSYN066AAXX  15091 23933 41997 80000 11163 21182 40133 53001 70272 83037;
0161239330999992000021512004+60970+069070FM-12+0040USHH V0202001N001019999999N0100001N1-01751-01941101361ADDAY171061AY221061GF108991031001999999031071MA1999999100731MD1210031+9999MW1701REMSYN072AAXX  15121 23933 41997 82001 11175 21194 30073 40136 52003 77072 83037;
0163239330999992000021515004+60970+069070FM-12+0040USHH V0209999C000019999999N0100001N1-01861-01981101381ADDAY171031AY221031GF108991001001999999001071KA1999M-01631MD1210021+9999MW1021REMSYN076AAXX  15151 23933 /1997 80000 11186 21198 40138 52002 70272 80007 333 11163;
0180239330999992000021518004+60970+069070FM-12+0040USHH V0209999C000019999999N0100001N1-01901-02021101561ADDAA100000791AY171061AY221061GF108991001001999999001071KA1999M-01631MD1210181+9999MW1021REMSYN082AAXX  15181 23933 11997 80000 11190 21202 40156 52018 69900 70272 80007 333 11163;
0122239330999992000021521004+60970+069070FM-12+0040USHH V0209999C000012200019N0100001N1-02091-02211101551ADDGA1001+999999999GF100991001001999999001001MD1810021+9999REMSYN054AAXX  15211 23933 42997 00000 11209 21221 40155 58002;
0143239330999992000021600004+60970+069070FM-12+0040USHH V0209999C000012200019N0100001N1-01961-02081101661ADDGA1001+999999999GF100991001001999999001001MA1999999101021MD1310111+9999REMSYN060AAXX  16001 23933 42997 00000 11196 21208 30102 40166 53011;
0181239330999992000021603004+60970+069070FM-12+0040USHH V0209999C000012200019N0100001N1-02181-02301101791ADDAA199000091AJ100469199999999GF103991001001999999001011IA1239MD1210131+9999REMSYN076AAXX  16031 23933 32997 30000 11218 21230 40179 52013 80001 333 47046 55017;EQDQ01  00002PRCP99
0174239330999992000021606004+60970+069070FM-12+0040USHH V0201001N001019999999N0100001N1-02111-02231101841ADDAA199000021AY171061AY221061GF108991021001999999031071KA1999N-02241MD1210051+9999MW1701REMSYN076AAXX  16061 23933 31997 81001 11211 21223 40184 52005 77072 82037 333 21224;
0161239330999992000021612004+60970+069070FM-12+0040USHH V0200901N002019999999N0100001N1-02131-02251101961ADDAY171061AY221061GF108991021001999999031071MA1999999101321MD1210061+9999MW1711REMSYN072AAXX  16121 23933 41997 80902 11213 21225 30132 40196 52006 77172 82037;
0163239330999992000021615004+60970+069070FM-12+0040USHH V0201001N002019999999N0040001N1-01861-01981101961ADDAY171031AY221031GF108991081001999999021999KA1999M-01861MD1210011+9999MW1711REMSYN076AAXX  16151 23933 /1996 81002 11186 21198 40196 52001 77172 8802/ 333 11186;
0199239330999992000021618004+60970+069070FM-12+0040USHH V0201201N001019999999N0100001N1-01361-01421101861ADDAA100000191AY171061AY221061GF108991081001999999021999KA1999M+99999MD1810091+9999MW1711REMSYN082AAXX  16181 23933 11997 81201 11136 21142 40186 58009 69920 77172 8802/ 333 11186;EQDQ01 -01862ATMX  
0140239330999992000021621004+60970+069070FM-12+0040USHH V0201201N002019999999N0040001N1-01141-01201101811ADDAY171031AY221031GF108991081001999999021999MD1710051+9999MW1711REMSYN066AAXX  16211 23933 41996 81202 11114 21120 40181 57005 77172 8802/;
0161239330999992000021700004+60970+069070FM-12+0040USHH V0201101N002019999999N0040001N1-01261-01321101771ADDAY171061AY221061GF108991081001999999021999MA1999999101151MD1710041+9999MW1711REMSYN072AAXX  17001 23933 41996 81102 11126 21132 30115 40177 57004 77172 8802/;
0179239330999992000021703004+60970+069070FM-12+0040USHH V0201101N002019999999N0100001N1-01191-01251101751ADDAJ100489199999999AY171031AY221031GF108991081001999999021999IA1239MD1710021+9999MW1711REMSYN082AAXX  17031 23933 /1997 81102 11119 21125 40175 57002 77172 8802/ 333 47048 55050;
0180239330999992000021706004+60970+069070FM-12+0040USHH V0201001N002019999999N0100001N1-01131-01261101781ADDAA100001091AY171061AY221061GF106991021001999999031081KA1999N-01871MD1310031+9999MW1701REMSYN082AAXX  17061 23933 11997 61002 11113 21126 40178 53003 60010 77072 82038 333 21187;
0140239330999992000021709004+60970+069070FM-12+0040USHH V0201001N001019999999N0100001N1-01001-01221101801ADDAY171031AY221031GF106991001001999999001081MD1210021+9999MW1701REMSYN066AAXX  17091 23933 41997 61001 11100 21122 40180 52002 77072 80008;
0161239330999992000021712004+60970+069070FM-12+0040USHH V0209999C000019999999N0100001N1-01031-01231101851ADDAY171061AY221061GF106991041001999999031011MA1999999101231MD1210051+9999MW1221REMSYN072AAXX  17121 23933 41997 60000 11103 21123 30123 40185 52005 72272 84031;
0163239330999992000021715004+60970+069070FM-12+0040USHH V0209999C000019999999N0100001N1-01051-01181101931ADDAY171031AY221031GF108991081001999999021999KA1999M-00991MD1210081+9999MW1711REMSYN076AAXX  17151 23933 21997 80000 11105 21118 40193 52008 77172 8802/ 333 11099;
0180239330999992000021718004+60970+069070FM-12+0040USHH V0209999C000019999999N0100001N1-01401-01601101991ADDAA100000591AY171061AY221061GF108991081001999999021999KA1999M-00991MD1210061+9999MW1701REMSYN082AAXX  17181 23933 11997 80000 11140 21160 40199 52006 69950 77072 8802/ 333 11099;
0140239330999992000021721004+60970+069070FM-12+0040USHH V0209999C000019999999N0100001N1-01391-01521102031ADDAY171031AY221031GF106991001001999999001081MD1210031+9999MW1701REMSYN066AAXX  17211 23933 41997 60000 11139 21152 40203 52003 77072 80008;
0161239330999992000021800004+60970+069070FM-12+0040USHH V0209999C000019999999N0100001N1-01491-01621102161ADDAY171061AY221061GF108991081001999999021999MA1999999101521MD1210121+9999MW1701REMSYN072AAXX  18001 23933 41997 80000 11149 21162 30152 40216 52012 77072 8802/;
0179239330999992000021803004+60970+069070FM-12+0040USHH V0209999C000019999999N0100001N1-01361-01561102241ADDAJ100489199999999AY171031AY221031GF107991071001999999021001IA1239MD1210091+9999MW1701REMSYN082AAXX  18031 23933 /1997 70000 11136 21156 40224 52009 77072 87020 333 47048 55000;
0180239330999992000021806004+60970+069070FM-12+0040USHH V0202601N003019999999N0100001N1-01201-01401102301ADDAA100000391AY171061AY221061GF108991001001999999001051KA1999N-01521MD1210061+9999MW1711REMSYN082AAXX  18061 23933 11997 82603 11120 21140 40230 52006 69930 77172 80005 333 21152;
0140239330999992000021809004+60970+069070FM-12+0040USHH V0202801N002019999999N0100001N1-01231-01361102451ADDAY171031AY221031GF108991001001999999001071MD1210151+9999MW1021REMSYN066AAXX  18091 23933 41997 82802 11123 21136 40245 52015 70272 80007;
0161239330999992000021812004+60970+069070FM-12+0040USHH V0209999C000019999999N0100001N1-01381-01581102591ADDAY171061AY221061GF108991021001999999031071MA1999999101961MD1210141+9999MW1701REMSYN072AAXX  18121 23933 41997 80000 11138 21158 30196 40259 52014 77072 82037;
0190239330999992000021818004+60970+069070FM-12+0040USHH V0209999C000012200019N0100001N1-01621-01751102881ADDAA100000791AY171061AY211061GA1001+999999999GF100991001001999999001001KA1999M-01171MD1210101+9999MW1021REMSYN076AAXX  18181 23933 11997 00000 11162 21175 40288 52010 69900 70271 333 11117;
0122239330999992000021821004+60970+069070FM-12+0040USHH V0209999C000012200019N0100001N1-01821-01941102901ADDGA1001+999999999GF100991001001999999001001MD1210021+9999REMSYN054AAXX  18211 23933 42997 00000 11182 21194 40290 52002;
0143239330999992000021900004+60970+069070FM-12+0040USHH V0209999C000012200019N0100001N1-01961-02081103131ADDGA1001+999999999GF100991001001999999001001MA1999999102471MD1210211+9999REMSYN060AAXX  19001 23933 42997 00000 11196 21208 30247 40313 52021;
0181239330999992000021903004+60970+069070FM-12+0040USHH V0209999C000019999999N0100001N1-02231-02341103261ADDAA199000091AJ100489199999999GF108991001001999999001071IA1239MD1210131+9999REMSYN076AAXX  19031 23933 32997 80000 11223 21234 40326 52013 80007 333 47048 55035;EQDQ01  00002PRCP99
0165239330999992000021906004+60970+069070FM-12+0040USHH V0209999C000012200019N0100001N1-02081-02201103291ADDAA199000091GF103991001001999999001011KA1999N-02241MD1210031+9999REMSYN070AAXX  19061 23933 32997 30000 11208 21220 40329 52003 80001 333 21224;EQDQ01  00002PRCP99
0112239330999992000021909004+60970+069070FM-12+0040USHH V0209999C000012200019N0100001N1-01801-01951103271ADDGF103991001001999999001011MD1410001+9999REMSYN060AAXX  19091 23933 42997 30000 11180 21195 40327 54000 80001;
0133239330999992000021912004+60970+069070FM-12+0040USHH V0209999C000019999999N0100001N1-02071-02191103321ADDGF105991001001999999001011MA1999999102661MD1310031+9999REMSYN066AAXX  19121 23933 42997 50000 11207 21219 30266 40332 53003 80001;
0165239330999992000021915004+60970+069070FM-12+0040USHH V0209999C000012200019N0100001N1-02201-02321103271ADDAA199000091GF103991001001999999001011KA1999M-01801MD1810051+9999REMSYN070AAXX  19151 23933 32997 30000 11220 21232 40327 58005 80001 333 11180;EQDQ01  00002PRCP99
0165239330999992000021918004+60970+069070FM-12+0040USHH V0201001N001012200019N0100001N1-02261-02381103131ADDAA199000091GF102991001001999999001011KA1999M-01801MD1710141+9999REMSYN070AAXX  19181 23933 32997 21001 11226 21238 40313 57014 80001 333 11180;EQDQ01  00002PRCP99
0112239330999992000021921004+60970+069070FM-12+0040USHH V0201301N002019999999N0100001N1-01381-01511102921ADDGF108991001001999999001071MD1710181+9999REMSYN060AAXX  19211 23933 42997 81302 11138 21151 40292 57018 80007;
0112239330999992000022000004+60970+069070FM-12+0040USHH V0201501N002019999999N0100001N1-01311-01371102871ADDGF108991001001999999001071MD1710051+9999REMSYN060AAXX  20001 23933 42997 81502 11131 21137 40287 57005 80007;
0181239330999992000022003004+60970+069070FM-12+0040USHH V0201601N003019999999N0100001N1-01241-01301102601ADDAA199000091AJ100489199999999GF108991001001999999001071IA1239MD1710271+9999REMSYN076AAXX  20031 23933 32997 81603 11124 21130 40260 57027 80007 333 47048 55047;EQDQ01  00002PRCP99
0174239330999992000022006004+60970+069070FM-12+0040USHH V0201501N002019999999N0040001N1-01011-01141102471ADDAA199000021AY171061AY221061GF108991081001999999021999KA1999N-02311MD1710131+9999MW1711REMSYN076AAXX  20061 23933 31996 81502 11101 21114 40247 57013 77172 8802/ 333 21231;
0140239330999992000022009004+60970+069070FM-12+0040USHH V0201701N002019999999N0040001N1-00801-00861102351ADDAY171031AY221031GF108991081001999999021999MD1710101+9999MW1711REMSYN066AAXX  20091 23933 41996 81702 11080 21086 40235 57010 77172 8802/;
0171239330999992000022012004+60970+069070FM-12+0040USHH V0201701N003019999999N0040001N1-00601-00711102311ADDAY171061AY231061GF108991081001999999021999MA1999999101701MD1710041+9999MW1701REMSYN082AAXX  20121 23933 41996 81703 11060 21071 30170 40231 57004 77073 8802/ 333 1/108;
0163239330999992000022015004+60970+069070FM-12+0040USHH V0201701N003019999999N0100001N1-00521-00551102321ADDAY171031AY221031GF108991081001999999021999KA1999M-00481MD1310011+9999MW1221REMSYN076AAXX  20151 23933 /1997 81703 11052 21055 40232 53001 72272 8802/ 333 11048;
0199239330999992000022018004+60970+069070FM-12+0040USHH V0201701N002019999999N0100001N1-00421-00511102171ADDAA100003091AY171061AY231061GF108991081001999999021999KA1999M+99999MD1810141+9999MW1021REMSYN082AAXX  20181 23933 11997 81702 11042 21051 40217 58014 60030 70273 8802/ 333 11048;EQDQ01 -00482ATMX  
0112239330999992000022021004+60970+069070FM-12+0040USHH V0202001N002019999999N0100001N1-00331-00401102081ADDGF108991081001999999021999MD1710091+9999REMSYN060AAXX  20211 23933 42997 82002 11033 21040 40208 57009 8802/;
0133239330999992000022100004+60970+069070FM-12+0040USHH V0202301N002019999999N0200001N1-00261-00321102081ADDGF108991081001999999021999MA1999999101481MD1410001+9999REMSYN066AAXX  21001 23933 42998 82302 11026 21032 30148 40208 54000 8802/;
0162239330999992000022103004+60970+069070FM-12+0040USHH V0202601N002019999999N0100001N1-00291-00361102141ADDAA199000021AJ100499199999999GF108991081001999999021999IA1239MD1210061+9999REMSYN076AAXX  21031 23933 32997 82602 11029 21036 40214 52006 8802/ 333 47049 55000;
0165239330999992000022106004+60970+069070FM-12+0040USHH V0202501N002019999999N0100001N1-00291-00391102211ADDAA199000091GF108991081001999999021999KA1999N-00511MD1210071+9999REMSYN070AAXX  21061 23933 32997 82502 11029 21039 40221 52007 8802/ 333 21051;EQDQ01  00002PRCP99
0112239330999992000022109004+60970+069070FM-12+0040USHH V0202301N002019999999N0100001N1-00231-00351102251ADDGF108991081001999999011999MD1210041+9999REMSYN060AAXX  21091 23933 42997 82302 11023 21035 40225 52004 8801/;
0187239330999992000022112004+60970+069070FM-12+0040USHH V0202401N003010300019N0100001N1-00221-00281102311ADDAY121061AY221061GA1041+003609069GF108991041071004501021999MA1999999101711MD1210061+9999MW1221REMSYN082AAXX  21121 23933 41497 82403 11022 21028 30171 40231 52006 72222 8472/ 333 84712;
0135239330999992000022115004+60970+069070FM-12+0040USHH V0202201N003010120019N0100001N1-00181-00321102251ADDGF107991071051012501001001KA1999M-00181MD1810061+9999REMSYN070AAXX  21151 23933 /2697 72203 11018 21032 40225 58006 87500 333 11018;
0152239330999992000022118004+60970+069070FM-12+0040USHH V0202201N003019999999N0100001N1-00311-00591102131ADDAA100000191GF108991081001999999011999KA1999M-00181MD1710121+9999REMSYN076AAXX  21181 23933 12997 82203 11031 21059 40213 57012 69920 8801/ 333 11018;
0112239330999992000022121004+60970+069070FM-12+0040USHH V0202201N005019999999N0100001N1-00531-00991102031ADDGF108991081001999999011999MD1710111+9999REMSYN060AAXX  21211 23933 42997 82205 11053 21099 40203 57011 8801/;
0133239330999992000022200004+60970+069070FM-12+0040USHH V0202301N005019999999N0100001N1-00521-00971102011ADDGF108991081001999999011999MA1999999101401MD1710021+9999REMSYN066AAXX  22001 23933 42997 82305 11052 21097 30140 40201 57002 8801/;
0209239330999992000022203004+60970+069070FM-12+0040USHH V0202201N006019999999N0100001N1-00691-01111101871ADDAA199000091AJ100499199999999AY131031AY221031GF108991021001999999031071IA1239MD1710141+9999MW1361REMSYN082AAXX  22031 23933 31997 82206 11069 21111 40187 57014 73632 82037 333 47049 55000;EQDQ01  00002PRCP99
0193239330999992000022206004+60970+069070FM-12+0040USHH V0202301N006019999999N0100001N1-00621-01111101841ADDAA199000091AY131061AY221061GF106991031001999999031011KA1999N-00691MD1710031+9999MW1361REMSYN076AAXX  22061 23933 31997 62306 11062 21111 40184 57003 73632 83031 333 21069;EQDQ01  00002PRCP99
0140239330999992000022209004+60970+069070FM-12+0040USHH V0202401N004019999999N0100001N1-00361-00881101821ADDAY131031AY221031GF108991051001999999031071MD1710011+9999MW1361REMSYN066AAXX  22091 23933 41997 82404 11036 21088 40182 57001 73632 85037;
0161239330999992000022212004+60970+069070FM-12+0040USHH V0202401N004019999999N0100001N1-00311-00771101811ADDAY131061AY221061GF108991051001999999031071MA1999999101211MD1710011+9999MW1361REMSYN072AAXX  22121 23933 41997 82404 11031 21077 30121 40181 57001 73632 85037;
0163239330999992000022215004+60970+069070FM-12+0040USHH V0202501N004019999999N0100001N1-00331-00631101851ADDAY171031AY231031GF108991081001999999021999KA1999M-00311MD1310041+9999MW1711REMSYN076AAXX  22151 23933 /1997 82504 11033 21063 40185 53004 77173 8802/ 333 11031;
0180239330999992000022218004+60970+069070FM-12+0040USHH V0202401N004010300019N0040001N1-00391-00541101921ADDAA100000791AY171061AY231061GF108991031071004501021999KA1999M-00311MD1210071+9999MW1711REMSYN082AAXX  22181 23933 11496 82404 11039 21054 40192 52007 69900 77173 8372/ 333 11031;
0140239330999992000022221004+60970+069070FM-12+0040USHH V0202501N003019999999N0100001N1-00541-00721102061ADDAY171031AY231031GF108991021001999999031071MD1210131+9999MW1021REMSYN066AAXX  22211 23933 41997 82503 11054 21072 40206 52013 70273 82037;
0161239330999992000022300004+60970+069070FM-12+0040USHH V0202501N002019999999N0100001N1-00691-00851102221ADDAY171061AY231061GF108991031001999999031071MA1999999101611MD1210161+9999MW1021REMSYN072AAXX  23001 23933 41997 82502 11069 21085 30161 40222 52016 70273 83037;
0151239330999992000022303004+60970+069070FM-12+0040USHH V0202501N002019999999N0100001N1-00851-01001102281ADDAJ100489199999999GF108991021001999999031071IA1239MD1210061+9999REMSYN076AAXX  23031 23933 /2997 82502 11085 21100 40228 52006 82037 333 47048 55011;
0152239330999992000022306004+60970+069070FM-12+0040USHH V0201501N002019999999N0100001N1-00771-01031102471ADDAA100000191GF106991001001999999001011KA1999N-00851MD1210191+9999REMSYN076AAXX  23061 23933 12997 61502 11077 21103 40247 52019 69920 80001 333 21085;
0112239330999992000022309004+60970+069070FM-12+0040USHH V0202301N001019999999N0100001N1-00491-00811102561ADDGF108991001001999999001051MD1210091+9999REMSYN060AAXX  23091 23933 42997 82301 11049 21081 40256 52009 80005;
0161239330999992000022312004+60970+069070FM-12+0040USHH V0202101N002019999999N0100001N1-00511-00761102601ADDAY171061AY221061GF108991081001999999021999MA1999999101991MD1210041+9999MW1701REMSYN072AAXX  23121 23933 41997 82102 11051 21076 30199 40260 52004 77072 8802/;
0163239330999992000022315004+60970+069070FM-12+0040USHH V0201601N002019999999N0040001N1-00541-00611102551ADDAY171031AY221031GF108991081001999999021999KA1999M-00491MD1810051+9999MW1711REMSYN076AAXX  23151 23933 /1996 81602 11054 21061 40255 58005 77172 8802/ 333 11049;
0157239330999992000022318004+60970+069070FM-12+0040USHH V0201801N001019999999N0100001N1-00601-00751102471ADDAA100000391AY171061AY221061GF108991081001999999041999MD1710081+9999MW1021REMSYN072AAXX  23181 23933 11997 81801 11060 21075 40247 57008 69930 70272 8804/;
0133239330999992000022400004+60970+069070FM-12+0040USHH V0201401N002019999999N0100001N1-01401+99999102311ADDGF106991061001999999031001MA1999999101681MD1710081+9999REMSYN066AAXX  24001 23933 42997 61402 11140 21067 30168 40231 57008 86030;
0151239330999992000022403004+60970+069070FM-12+0040USHH V0201401N001019999999N0100001N1-01491-01761102221ADDAJ100489199999999GF105991021001999999031011IA1239MD1710101+9999REMSYN076AAXX  24031 23933 /2997 51401 11149 21176 40222 57010 82031 333 47048 55034;
0152239330999992000022406004+60970+069070FM-12+0040USHH V0201501N002019999999N0100001N1-01341-01611102091ADDAA100000191GF108991041001999999081091KA1999N-01511MD1710121+9999REMSYN076AAXX  24061 23933 12997 81502 11134 21161 40209 57012 69920 84089 333 21151;
0112239330999992000022409004+60970+069070FM-12+0040USHH V0201601N002019999999N0100001N1-01161-01511101981ADDGF108991081001999999011999MD1710101+9999REMSYN060AAXX  24091 23933 42997 81602 11116 21151 40198 57010 8801/;
0133239330999992000022412004+60970+069070FM-12+0040USHH V0201301N002019999999N0100001N1-01111-01471101941ADDGF108991001001999999001071MA1999999101321MD1710041+9999REMSYN066AAXX  24121 23933 42997 81302 11111 21147 30132 40194 57004 80007;
0165239330999992000022415004+60970+069070FM-12+0040USHH V0201501N002019999999N0100001N1-01131-01481101831ADDAA199000091GF108991001001999999001071KA1999M-01111MD1710111+9999REMSYN070AAXX  24151 23933 32997 81502 11113 21148 40183 57011 80007 333 11111;EQDQ01  00002PRCP99
0165239330999992000022418004+60970+069070FM-12+0040USHH V0201001N001019999999N0100001N1-01291-01561101641ADDAA199000091GF105991001001999999001011KA1999M-01111MD1710191+9999REMSYN070AAXX  24181 23933 32997 51001 11129 21156 40164 57019 80001 333 11111;EQDQ01  00002PRCP99
0112239330999992000022421004+60970+069070FM-12+0040USHH V0209999C000012200019N0100001N1-01731-01921101491ADDGF103991001001999999001011MD1710161+9999REMSYN060AAXX  24211 23933 42997 30000 11173 21192 40149 57016 80001;
0133239330999992000022500004+60970+069070FM-12+0040USHH V0201001N001019999999N0100001N1-01741-01861101301ADDGF108991001001999999001011MA1999999100671MD1710191+9999REMSYN066AAXX  25001 23933 42997 81001 11174 21186 30067 40130 57019 80001;
0181239330999992000022503004+60970+069070FM-12+0040USHH V0201301N003019999999N0100001N1-01541-01671101011ADDAA199000091AJ100489199999999GF108991081001999999021999IA1239MD1710291+9999REMSYN076AAXX  25031 23933 32997 81303 11154 21167 40101 57029 8802/ 333 47048 55032;EQDQ01  00002PRCP99
0174239330999992000022506004+60970+069070FM-12+0040USHH V0201501N002019999999N0100001N1-01211-01411100831ADDAA199000021AY171061AY211061GF108991081001999999021999KA1999N-01971MD1710161+9999MW1711REMSYN076AAXX  25061 23933 31997 81502 11121 21141 40083 57016 77171 8802/ 333 21197;
0140239330999992000022509004+60970+069070FM-12+0040USHH V0201701N002019999999N0100001N1-00931-01181100711ADDAY171031AY221031GF108991081001999999011999MD1710111+9999MW1021REMSYN066AAXX  25091 23933 41997 81702 11093 21118 40071 57011 70272 8801/;
0161239330999992000022512004+60970+069070FM-12+0040USHH V0201601N002019999999N0100001N1-00861-01101100641ADDAY171061AY221061GF106991031001999999031011MA1999999100041MD1710071+9999MW1021REMSYN072AAXX  25121 23933 41997 61602 11086 21110 30004 40064 57007 70272 83031;
0135239330999992000022515004+60970+069070FM-12+0040USHH V0201701N003019999999N0100001N1-00891-01041100561ADDGF106991061001999999031001KA1999M-00861MD1710081+9999REMSYN070AAXX  25151 23933 /2997 61703 11089 21104 40056 57008 86030 333 11086;
0180239330999992000022518004+60970+069070FM-12+0040USHH V0201801N004019999999N0040001N1-01011-01141100451ADDAA100000791AY171061AY221061GF108991081001999999021999KA1999M-00861MD1710121+9999MW1711REMSYN082AAXX  25181 23933 11996 81804 11101 21114 40045 57012 69900 77172 8802/ 333 11086;
0140239330999992000022521004+60970+069070FM-12+0040USHH V0202001N004019999999N0100001N1-01141-01341100401ADDAY171031AY221031GF105991021001999999031011MD1710051+9999MW1021REMSYN066AAXX  25211 23933 41997 52004 11114 21134 40040 57005 70272 82031;
0161239330999992000022600004+60970+069070FM-12+0040USHH V0201801N003019999999N0100001N1-01321-01521100291ADDAY171061AY221061GF106991031001999999031011MA1999999099681MD1710111+9999MW1021REMSYN072AAXX  26001 23933 41997 61803 11132 21152 39968 40029 57011 70272 83031;
0179239330999992000022603004+60970+069070FM-12+0040USHH V0200901N002019999999N0100001N1-01671-01791100141ADDAJ100489199999999AY171031AY221031GF108991081001999999021999IA1239MD1710171+9999MW1711REMSYN082AAXX  26031 23933 /1997 80902 11167 21179 40014 57017 77172 8802/ 333 47048 55015;
0180239330999992000022606004+60970+069070FM-12+0040USHH V0202001N001019999999N0040001N1-01341-01471100081ADDAA100000791AY171061AY221061GF108991081001999999021999KA1999N-01701MD1710041+9999MW1711REMSYN082AAXX  26061 23933 11996 82001 11134 21147 40008 57004 69900 77172 8802/ 333 21170;
0140239330999992000022609004+60970+069070FM-12+0040USHH V0202301N003019999999N0100001N1-01151-01351100011ADDAY171031AY221031GF106991031001999999031011MD1710071+9999MW1701REMSYN066AAXX  26091 23933 41997 62303 11115 21135 40001 57007 77072 83031;
0161239330999992000022612004+60970+069070FM-12+0040USHH V0202301N002019999999N0100001N1-01251-01451100151ADDAY171061AY221061GF106991031001999999031011MA1999999099541MD1310141+9999MW1221REMSYN072AAXX  26121 23933 41997 62302 11125 21145 39954 40015 53014 72272 83031;
0163239330999992000022615004+60970+069070FM-12+0040USHH V0202301N004019999999N0040001N1-01391-01521100281ADDAY171031AY231031GF108991081001999999021999KA1999M-01141MD1210131+9999MW1711REMSYN076AAXX  26151 23933 /1996 82304 11139 21152 40028 52013 77173 8802/ 333 11114;
0180239330999992000022618004+60970+069070FM-12+0040USHH V0202601N002019999999N0100001N1-01491-01621100291ADDAA100001091AY171061AY231061GF108991081001999999021999KA1999M-01141MD1810011+9999MW1711REMSYN082AAXX  26181 23933 11997 82602 11149 21162 40029 58001 60010 77173 8802/ 333 11114;
0140239330999992000022621004+60970+069070FM-12+0040USHH V0202301N002019999999N0100001N1-01601-01731100351ADDAY171031AY221031GF108991081001999999021999MD1310061+9999MW1711REMSYN066AAXX  26211 23933 41997 82302 11160 21173 40035 53006 77172 8802/;
0161239330999992000022700004+60970+069070FM-12+0040USHH V0202801N002019999999N0100001N1-01901-02021100521ADDAY171061AY221061GF108991081001999999021999MA1999999099891MD1210171+9999MW1021REMSYN072AAXX  27001 23933 41997 82802 11190 21202 39989 40052 52017 70272 8802/;
0179239330999992000022703004+60970+069070FM-12+0040USHH V0203201N001019999999N0040001N1-02101-02221100671ADDAJ100489199999999AY171031AY221031GF108991081001999999021999IA1239MD1210141+9999MW1711REMSYN082AAXX  27031 23933 /1996 83201 11210 21222 40067 52014 77172 8802/ 333 47048 55009;
0180239330999992000022706004+60970+069070FM-12+0040USHH V0203501N001019999999N0100001N1-02111-02291100771ADDAA100000591AY171061AY221061GF108991081001999999011999KA1999N-02131MD1210101+9999MW1711REMSYN082AAXX  27061 23933 11997 83501 11211 21229 40077 52010 69940 77172 8801/ 333 21213;
0150239330999992000022709004+60970+069070FM-12+0040USHH V0201101N001012200019N0100001N1-02081-02331100941ADDAY171031AY211031GA1001+999999999GF100991001001999999001001MD1210171+9999MW1021REMSYN060AAXX  27091 23933 41997 01101 11208 21233 40094 52017 70271;
0133239330999992000022712004+60970+069070FM-12+0040USHH V0202801N001012200019N0100001N1-02171-02421101081ADDGF103991021001999999041011MA1999999100441MD1210141+9999REMSYN066AAXX  27121 23933 42997 32801 11217 21242 30044 40108 52014 82041;
0145239330999992000022715004+60970+069070FM-12+0040USHH V0203101N001012200019N0100001N1-02371-02551101191ADDGA1001+999999999GF100991001001999999001001KA1999M-02081MD1210111+9999REMSYN064AAXX  27151 23933 /2997 03101 11237 21255 40119 52011 333 11208;
0162239330999992000022718004+60970+069070FM-12+0040USHH V0209999C000012200019N0100001N1-02441-02621101241ADDAA100000191GA1001+999999999GF100991001001999999001001KA1999M-02081MD1210051+9999REMSYN070AAXX  27181 23933 12997 00000 11244 21262 40124 52005 69920 333 11208;
0122239330999992000022721004+60970+069070FM-12+0040USHH V0209999C000012200019N0100001N1-02631-02801101321ADDGA1001+999999999GF100991001001999999001001MD1210061+9999REMSYN054AAXX  27211 23933 42997 00000 11263 21280 40132 52006;
0143239330999992000022800004+60970+069070FM-12+0040USHH V0202801N002012200019N0100001N1-02751-02931101461ADDGA1001+999999999GF100991001001999999001001MA1999999100801MD1210141+9999REMSYN060AAXX  28001 23933 42997 02802 11275 21293 30080 40146 52014;
0181239330999992000022803004+60970+069070FM-12+0040USHH V0209999C000019999999N0100001N1-02791-02961101471ADDAA199000091AJ100489199999999GF107991001001999999001011IA1239MD1210011+9999REMSYN076AAXX  28031 23933 32997 70000 11279 21296 40147 52001 80001 333 47048 55055;EQDQ01  00002PRCP99
0174239330999992000022806004+60970+069070FM-12+0040USHH V0203001N001019999999N0100001N1-02691-02861101521ADDAA199000021AY171061AY211061GF108991001001999999001071KA1999N-02801MD1210051+9999MW1711REMSYN076AAXX  28061 23933 31997 83001 11269 21286 40152 52005 77171 80007 333 21280;
0140239330999992000022809004+60970+069070FM-12+0040USHH V0202701N001019999999N0100001N1-02441-02621101591ADDAY171031AY221031GF108991001001999999001071MD1210091+9999MW1711REMSYN066AAXX  28091 23933 41997 82701 11244 21262 40159 52009 77172 80007;
0161239330999992000022812004+60970+069070FM-12+0040USHH V0202601N001019999999N0100001N1-02451-02631101601ADDAY171061AY221061GF107991001001999999001011MA1999999100961MD1210011+9999MW1021REMSYN072AAXX  28121 23933 41997 72601 11245 21263 30096 40160 52001 70272 80001;
0135239330999992000022815004+60970+069070FM-12+0040USHH V0209999C000012200019N0100001N1-02561-02741101611ADDGF103991001001999999001011KA1999M-02441MD1810011+9999REMSYN070AAXX  28151 23933 /2997 30000 11256 21274 40161 58001 80001 333 11244;
0162239330999992000022818004+60970+069070FM-12+0040USHH V0209999C000012200019N0100001N1-02881-02991101501ADDAA100000391GA1001+999999999GF100991001001999999001001KA1999M-02441MD1710111+9999REMSYN070AAXX  28181 23933 12997 00000 11288 21299 40150 57011 69930 333 11244;
0122239330999992000022821004+60970+069070FM-12+0040USHH V0209999C000012200019N0100001N1-03271-03391101391ADDGA1001+999999999GF100991001001999999001001MD1710121+9999REMSYN054AAXX  28211 23933 42997 00000 11327 21339 40139 57012;
0143239330999992000022900004+60970+069070FM-12+0040USHH V0200901N001012200019N0100001N1-03491-03641101061ADDGA1001+999999999GF100991001001999999001001MA1999999100381MD1710341+9999REMSYN060AAXX  29001 23933 42997 00901 11349 21364 30038 40106 57034;
0181239330999992000022903004+60970+069070FM-12+0040USHH V0201001N002019999999N0100001N1-02841-03021100611ADDAA199000091AJ100489199999999GF107991001001999999001011IA1239MD1710421+9999REMSYN076AAXX  29031 23933 32997 71002 11284 21302 40061 57042 80001 333 47048 55058;EQDQ01  00002PRCP99
0174239330999992000022906004+60970+069070FM-12+0040USHH V0201601N004019999999N0040001N1-01901-02021100171ADDAA199000021AY171061AY231061GF108991081001999999021999KA1999N-03541MD1710421+9999MW1711REMSYN076AAXX  29061 23933 31996 81604 11190 21202 40017 57042 77173 8802/ 333 21354;
0140239330999992000022909004+60970+069070FM-12+0040USHH V0201601N004019999999N0040001N1-01571-01761099801ADDAY171031AY231031GF108991081001999999021999MD1710361+9999MW1711REMSYN066AAXX  29091 23933 41996 81604 11157 21176 49980 57036 77173 8802/;
0161239330999992000022912004+60970+069070FM-12+0040USHH V0201701N004019999999N0040001N1-01591-01781099611ADDAY171061AY231061GF108991081001999999021999MA1999999098991MD1710191+9999MW1711REMSYN072AAXX  29121 23933 41996 81704 11159 21178 39899 49961 57019 77173 8802/;
0163239330999992000022915004+60970+069070FM-12+0040USHH V0201701N002019999999N0040001N1-01541-01731099391ADDAY171031AY231031GF108991081001999999021999KA1999M-01541MD1710221+9999MW1711REMSYN076AAXX  29151 23933 /1996 81702 11154 21173 49939 57022 77173 8802/ 333 11154;
0199239330999992000022918004+60970+069070FM-12+0040USHH V0201901N002019999999N0020001N1-01401-01531099101ADDAA100002091AY171061AY221061GF108991081001999999021999KA1999M+99999MD1710281+9999MW1711REMSYN082AAXX  29181 23933 11995 81902 11140 21153 49910 57028 60020 77172 8802/ 333 11154;EQDQ01 -01542ATMX  
0140239330999992000022921004+60970+069070FM-12+0040USHH V0202001N003019999999N0040001N1-01271-01401098801ADDAY171031AY231031GF108991081001999999021999MD1710291+9999MW1711REMSYN066AAXX  29211 23933 41996 82003 11127 21140 49880 57029 77173 8802/;
0161239330999992000030100004+60970+069070FM-12+0040USHH V0201901N002019999999N0100001N1-01071-01201098591ADDAY171061AY231061GF108991081001999999021999MA1999999097991MD1710211+9999MW1711REMSYN072AAXX  01001 23933 41997 81902 11107 21120 39799 49859 57021 77173 8802/;
0180239330999992000030106004+60970+069070FM-12+0040USHH V0203201N002019999999N0100001N1-00661-00781098801ADDAA100003091AY171061AY231061GF108991081001999999071999KA1999N-01551MD1310301+9999MW1711REMSYN082AAXX  01061 23933 11997 83202 11066 21078 49880 53030 60030 77173 8807/ 333 21155;
0140239330999992000030109004+60970+069070FM-12+0040USHH V0203201N004019999999N0100001N1-01071-01351099651ADDAY171031AY231031GF108991021001999999031071MD1210831+9999MW1711REMSYN066AAXX  01091 23933 41997 83204 11107 21135 49965 52083 77173 82037;
0171239330999992000030112004+60970+069070FM-12+0040USHH V0203101N004019999999N0010001N1-01441-01641100561ADDAY171061AY231061GF108991081001999999021999MA1999999099951MD1210911+9999MW1731REMSYN082AAXX  01121 23933 41994 83104 11144 21164 39995 40056 52091 77373 8802/ 333 92990;
0173239330999992000030115004+60970+069070FM-12+0040USHH V0203001N002012200019N0100001N1-01951-02361101411ADDAY171031AY231031GA1001+999999999GF100991001001999999001001KA1999M-00621MD1210831+9999MW1221REMSYN070AAXX  01151 23933 /1997 03002 11195 21236 40141 52083 72273 333 11062;
0190239330999992000030118004+60970+069070FM-12+0040USHH V0202501N002012200019N0100001N1-02121-02441101851ADDAA100000591AY171061AY231061GA1001+999999999GF100991001001999999001001KA1999M-00621MD1210431+9999MW1021REMSYN076AAXX  01181 23933 11997 02502 11212 21244 40185 52043 69940 70273 333 11062;
0122239330999992000030121004+60970+069070FM-12+0040USHH V0202201N004012200019N0100001N1-01981-02391101961ADDGA1001+999999999GF100991001001999999001001MD1210111+9999REMSYN054AAXX  01211 23933 42997 02204 11198 21239 40196 52011;
0171239330999992000030200004+60970+069070FM-12+0040USHH V0202001N004012200019N0100001N1-01861-02271101921ADDAY131061AY221061GA1001+999999999GF100991001001999999001001MA1999999101291MD1810031+9999MW1381REMSYN066AAXX  02001 23933 41997 02004 11186 21227 30129 40192 58003 73832;
0190239330999992000030203004+60970+069070FM-12+0040USHH V0201801N005019999999N0100001N1-01671-02171101821ADDAA199000021AJ100499199999999AY131031AY221031GF108991081001999999021999IA1239MD1710101+9999MW1381REMSYN082AAXX  02031 23933 31997 81805 11167 21217 40182 57010 73832 8802/ 333 47049 55019;
0249239330999992000030206004+60970+069070FM-12+0040USHH V0202101N005019999999N0100001N1-01271-01541101471ADDAA199000091AY171061AY231061GF107991999001999999071999KA1120N-02151MD1710341+9999MW1371OA140101201OA249901201REMSYN094AAXX  02061 23933 31997 72105 11127 21154 40147 57034 73773 8807/ 333 21215 91012 91112 92990;EQDQ01+000082SCOTLCQ02  00002PRCP99
0140239330999992000030209004+60970+069070FM-12+0040USHH V0202201N003019999999N0100001N1-00671-01001101391ADDAY131031AY221031GF106991061001999999031001MD1710071+9999MW1361REMSYN066AAXX  02091 23933 41997 62203 11067 21100 40139 57007 73632 86030;
0161239330999992000030212004+60970+069070FM-12+0040USHH V0202001N004010075019N0100001N1-00471-00831101331ADDAY131061AY221061GF107991071051008001001001MA1999999100731MD1710051+9999MW1361REMSYN072AAXX  02121 23933 41597 72004 11047 21083 30073 40133 57005 73632 87500;
0135239330999992000030215004+60970+069070FM-12+0040USHH V0202201N004010075019N0220001N1+00151-00441101571ADDGF107991071051008001001001KA1999M+00311MD1710021+9999REMSYN070AAXX  02151 23933 /2572 72204 10015 21044 40157 57002 87500 333 10031;
0199239330999992000030218004+60970+069070FM-12+0040USHH V0202101N003010075019N0100001N1-00201-00481101221ADDAA100000391AY131061AY221061GF108991081051008001999999KA1999M+99999MD1710071+9999MW1361REMSYN082AAXX  02181 23933 11597 82103 11020 21048 40122 57007 69930 73632 885// 333 11038;EQDQ01 -00382ATMX  
0112239330999992000030221004+60970+069070FM-12+0040USHH V0201801N002019999999N0200001N1-00261-00531101111ADDGF108991081001008001071999MD1710111+9999REMSYN060AAXX  02211 23933 42598 81802 11026 21053 40111 57011 8807/;
0161239330999992000030300004+60970+069070FM-12+0040USHH V0202201N003010075019N0100001N1-00081-00301101041ADDAY131061AY221061GF108991081051008001999999MA1999999100441MD1710111+9999MW1021REMSYN072AAXX  03001 23933 41597 82203 11008 21030 30044 40104 57011 70232 885//;
0181239330999992000030303004+60970+069070FM-12+0040USHH V0202201N003010075019N0100001N1-00111-00341101061ADDAA199000091AJ100489199999999GF108991081051008001999999IA1239MD1310021+9999REMSYN076AAXX  03031 23933 32597 82203 11011 21034 40106 53002 885// 333 47048 55008;EQDQ01  00002PRCP99
0112239330999992000030309004+60970+069070FM-12+0040USHH V0202601N002019999999N0100001N1+00331-00341101361ADDGF106991061001999999031001MD1210051+9999REMSYN060AAXX  03091 23933 42997 62602 10033 21034 40136 52005 86030;
0133239330999992000030312004+60970+069070FM-12+0040USHH V0202201N002010120019N0100001N1+00151-00361101541ADDGF106991061051012501001001MA1999999100951MD1210181+9999REMSYN066AAXX  03121 23933 42697 62202 10015 21036 30095 40154 52018 86500;
0165239330999992000030315004+60970+069070FM-12+0040USHH V0202201N002019999999N0100001N1-00021-00451101671ADDAA199000091GF106991061001999999031001KA1999M+00351MD1210121+9999REMSYN070AAXX  03151 23933 32997 62202 11002 21045 40167 52012 86030 333 10035;EQDQ01  00002PRCP99
0165239330999992000030318004+60970+069070FM-12+0040USHH V0202101N002019999999N0100001N1-00081-00531101631ADDAA199000091GF105991021001999999031011KA1999M+00351MD1810041+9999REMSYN070AAXX  03181 23933 32997 52102 11008 21053 40163 58004 82031 333 10035;EQDQ01  00002PRCP99
0122239330999992000030321004+60970+069070FM-12+0040USHH V0202201N004012200019N0100001N1-00271-00801101501ADDGA1001+999999999GF100991001001999999001001MD1710131+9999REMSYN054AAXX  03211 23933 42997 02204 11027 21080 40150 57013;
0133239330999992000030400004+60970+069070FM-12+0040USHH V0202101N002019999999N0100001N1-00391-00841101481ADDGF105991021001999999031011MA1999999100881MD1710021+9999REMSYN066AAXX  04001 23933 42997 52102 11039 21084 30088 40148 57002 82031;
0181239330999992000030403004+60970+069070FM-12+0040USHH V0202101N004019999999N0100001N1-00431-00811101471ADDAA199000091AJ100489199999999GF105991021001999999031011IA1239MD1710011+9999REMSYN076AAXX  04031 23933 32997 52104 11043 21081 40147 57001 82031 333 47048 55019;EQDQ01  00002PRCP99
0165239330999992000030406004+60970+069070FM-12+0040USHH V0202101N002019999999N0100001N1-00251-00581101621ADDAA199000091GF105991001001999999001011KA1999N-00491MD1310151+9999REMSYN070AAXX  04061 23933 32997 52102 11025 21058 40162 53015 80001 333 21049;EQDQ01  00002PRCP99
0112239330999992000030409004+60970+069070FM-12+0040USHH V0202101N003012200019N0100001N1+00131-00291101771ADDGF103991001001999999001011MD1210161+9999REMSYN060AAXX  04091 23933 42997 32103 10013 21029 40177 52016 80001;
0133239330999992000030412004+60970+069070FM-12+0040USHH V0202301N003012200019N0100001N1+00131-00291102071ADDGF103991001001999999001011MA1999999101481MD1210301+9999REMSYN066AAXX  04121 23933 42997 32303 10013 21029 30148 40207 52030 80001;
0165239330999992000030415004+60970+069070FM-12+0040USHH V0202101N003012200019N0100001N1-00111-00401102331ADDAA199000091GF102991001001999999001011KA1999M+00131MD1210251+9999REMSYN070AAXX  04151 23933 32997 22103 11011 21040 40233 52025 80001 333 10013;EQDQ01  00002PRCP99
0165239330999992000030418004+60970+069070FM-12+0040USHH V0202101N003012200019N0100001N1-00231-00521102441ADDAA199000091GF103991001001999999001011KA1999M+00131MD1210111+9999REMSYN070AAXX  04181 23933 32997 32103 11023 21052 40244 52011 80001 333 10013;EQDQ01  00002PRCP99
0131239330999992000030421004+60970+069070FM-12+0040USHH V0202201N003019999999N0100001N1-00201-00481102441ADDGF105991001001999999001011MD1410001+9999REMSYN060AAXX  04211 23933 42397 52203 11020 21048 40244 54000 80001;EQDQ01+002502SCOLCB
0133239330999992000030500004+60970+069070FM-12+0040USHH V0202501N002019999999N0100001N1-00371-00621102461ADDGF105991001001999999001011MA1999999101861MD1310021+9999REMSYN066AAXX  05001 23933 42997 52502 11037 21062 30186 40246 53002 80001;
0181239330999992000030503004+60970+069070FM-12+0040USHH V0202101N004019999999N0100001N1-00471-00641102481ADDAA199000091AJ100489199999999GF105991001001999999001011IA1239MD1210021+9999REMSYN076AAXX  05031 23933 32997 52104 11047 21064 40248 52002 80001 333 47048 55099;EQDQ01  00002PRCP99
0165239330999992000030506004+60970+069070FM-12+0040USHH V0202101N002012200019N0100001N1-00241-00601102621ADDAA199000091GF102991001001999999001011KA1999N-00491MD1210141+9999REMSYN070AAXX  05061 23933 32997 22102 11024 21060 40262 52014 80001 333 21049;EQDQ01  00002PRCP99
0112239330999992000030509004+60970+069070FM-12+0040USHH V0201701N002019999999N0100001N1+00111-00221102631ADDGF108991081001999999021999MD1210021+9999REMSYN060AAXX  05091 23933 42997 81702 10011 21022 40263 52002 8802/;
0133239330999992000030512004+60970+069070FM-12+0040USHH V0202001N003019999999N0100001N1+00351-00391102581ADDGF105991021001999999031011MA1999999101991MD1810051+9999REMSYN066AAXX  05121 23933 42997 52003 10035 21039 30199 40258 58005 82031;
0163239330999992000030515004+60970+069070FM-12+0040USHH V0202101N004012200019N0100001N1+00071-00291102781ADDAY171031AY211031GF102991001001999999001011KA1999M+00351MD1310201+9999MW1021REMSYN076AAXX  05151 23933 /1997 22104 10007 21029 40278 53020 70271 80001 333 10035;
0190239330999992000030518004+60970+069070FM-12+0040USHH V0202101N004012200019N0100001N1-00141-00511102691ADDAA100000791AY171061AY211061GA1001+999999999GF100991001001999999001001KA1999M+00351MD1710101+9999MW1021REMSYN076AAXX  05181 23933 11997 02104 11014 21051 40269 57010 69900 70271 333 10035;
0122239330999992000030521004+60970+069070FM-12+0040USHH V0202001N002012200019N0100001N1-00311-00771102651ADDGA1001+999999999GF100991001001999999001001MD1710041+9999REMSYN054AAXX  05211 23933 42997 02002 11031 21077 40265 57004;
0143239330999992000030600004+60970+069070FM-12+0040USHH V0202201N003012200019N0100001N1-00581-00871102601ADDGA1001+999999999GF100991001001999999001001MA1999999102001MD1710051+9999REMSYN060AAXX  06001 23933 42997 02203 11058 21087 30200 40260 57005;
0181239330999992000030603004+60970+069070FM-12+0040USHH V0202101N002019999999N0100001N1-00741-00951102541ADDAA199000091AJ100489199999999GF106991001001999999001011IA1239MD1710071+9999REMSYN076AAXX  06031 23933 32997 62102 11074 21095 40254 57007 80001 333 47048 55056;EQDQ01  00002PRCP99
0165239330999992000030606004+60970+069070FM-12+0040USHH V0202401N002019999999N0100001N1-00511-00801102491ADDAA199000091GF106991001001999999001011KA1999N-00751MD1710051+9999REMSYN070AAXX  06061 23933 32997 62402 11051 21080 40249 57005 80001 333 21075;EQDQ01  00002PRCP99
0112239330999992000030609004+60970+069070FM-12+0040USHH V0201701N003019999999N0100001N1-00201-00551102411ADDGF106991001001999999001011MD1710071+9999REMSYN060AAXX  06091 23933 42997 61703 11020 21055 40241 57007 80001;
0133239330999992000030612004+60970+069070FM-12+0040USHH V0201601N002019999999N0100001N1-00201-00621102321ADDGF108991021001999999031071MA1999999101721MD1710091+9999REMSYN066AAXX  06121 23933 42997 81602 11020 21062 30172 40232 57009 82037;
0165239330999992000030615004+60970+069070FM-12+0040USHH V0201801N002019999999N0100001N1-00191-00651102271ADDAA199000091GF108991001001999999001071KA1999M-00191MD1710051+9999REMSYN070AAXX  06151 23933 32997 81802 11019 21065 40227 57005 80007 333 11019;EQDQ01  00002PRCP99
0165239330999992000030618004+60970+069070FM-12+0040USHH V0201601N003019999999N0100001N1-00241-00681102191ADDAA199000091GF105991001001999999001011KA1999M-00191MD1710081+9999REMSYN070AAXX  06181 23933 32997 51603 11024 21068 40219 57008 80001 333 11019;EQDQ01  00002PRCP99
0112239330999992000030621004+60970+069070FM-12+0040USHH V0201801N002019999999N0100001N1-00371-00771102121ADDGF105991001001999999001011MD1710071+9999REMSYN060AAXX  06211 23933 42997 51802 11037 21077 40212 57007 80001;
0133239330999992000030700004+60970+069070FM-12+0040USHH V0201801N002019999999N0100001N1-00521-00851102071ADDGF106991001001999999001011MA1999999101461MD1710061+9999REMSYN066AAXX  07001 23933 42997 61802 11052 21085 30146 40207 57006 80001;
0165239330999992000030706004+60970+069070FM-12+0040USHH V0201701N002019999999N0100001N1-00531-00801102001ADDAA199000091GF108991001001999999001071KA1999N-00641MD1710051+9999REMSYN070AAXX  07061 23933 32997 81702 11053 21080 40200 57005 80007 333 21064;EQDQ01  00002PRCP99
0112239330999992000030709004+60970+069070FM-12+0040USHH V0201301N002019999999N0100001N1-00271-00761101921ADDGF108991001001999999001071MD1710071+9999REMSYN060AAXX  07091 23933 42997 81302 11027 21076 40192 57007 80007;
0133239330999992000030712004+60970+069070FM-12+0040USHH V0201601N002019999999N0100001N1-00231-00871101941ADDGF108991021001999999031071MA1999999101341MD1310021+9999REMSYN066AAXX  07121 23933 42997 81602 11023 21087 30134 40194 53002 82037;
0165239330999992000030715004+60970+069070FM-12+0040USHH V0201101N001019999999N0100001N1-00591-01021102051ADDAA199000091GF105991001001999999001011KA1999M-00231MD1210101+9999REMSYN070AAXX  07151 23933 32997 51101 11059 21102 40205 52010 80001 333 11023;EQDQ01  00002PRCP99
0165239330999992000030718004+60970+069070FM-12+0040USHH V0202001N002012200019N0100001N1-00501-00951102061ADDAA199000091GF103991001001999999001011KA1999M-00231MD1210011+9999REMSYN070AAXX  07181 23933 32997 32002 11050 21095 40206 52001 80001 333 11023;EQDQ01  00002PRCP99
0122239330999992000030721004+60970+069070FM-12+0040USHH V0200801N002012200019N0100001N1-00601-01001102071ADDGA1001+999999999GF100991001001999999001001MD1210011+9999REMSYN054AAXX  07211 23933 42997 00802 11060 21100 40207 52001;
0143239330999992000030800004+60970+069070FM-12+0040USHH V0200901N001012200019N0100001N1-01501-01561102101ADDGA1001+999999999GF100991001001999999001001MA1999999101461MD1410001+9999REMSYN060AAXX  08001 23933 42997 00901 11150 21156 30146 40210 54000;
0165239330999992000030806004+60970+069070FM-12+0040USHH V0200801N003019999999N0100001N1-00921-01081101971ADDAA199000091GF108991001001999999001021KA1999N-01601MD1810121+9999REMSYN070AAXX  08061 23933 32997 80803 11092 21108 40197 58012 80002 333 21160;EQDQ01  00002PRCP99
0112239330999992000030809004+60970+069070FM-12+0040USHH V0201101N001019999999N0100001N1-00321-00831101871ADDGF108991001001999999001071MD1710091+9999REMSYN060AAXX  08091 23933 42997 81101 11032 21083 40187 57009 80007;
0133239330999992000030812004+60970+069070FM-12+0040USHH V0201201N002019999999N0100001N1-00331-00881101741ADDGF106991001001999999001011MA1999999101141MD1710131+9999REMSYN066AAXX  08121 23933 42997 61202 11033 21088 30114 40174 57013 80001;
0165239330999992000030815004+60970+069070FM-12+0040USHH V0201301N002019999999N0100001N1-00511-01011101631ADDAA199000091GF105991001001999999001011KA1999M-00321MD1710121+9999REMSYN070AAXX  08151 23933 32997 51302 11051 21101 40163 57012 80001 333 11032;EQDQ01  00002PRCP99
0165239330999992000030818004+60970+069070FM-12+0040USHH V0201301N002012200019N0100001N1-00581-01061101421ADDAA199000091GF103991001001999999001011KA1999M-00321MD1710211+9999REMSYN070AAXX  08181 23933 32997 31302 11058 21106 40142 57021 80001 333 11032;EQDQ01  00002PRCP99
0112239330999992000030821004+60970+069070FM-12+0040USHH V0201301N002012200019N0100001N1-00691-01021101341ADDGF102991001001999999001011MD1710081+9999REMSYN060AAXX  08211 23933 42997 21302 11069 21102 40134 57008 80001;
0133239330999992000030900004+60970+069070FM-12+0040USHH V0201401N003012200019N0100001N1-00801-01161101071ADDGF102991001001999999001011MA1999999100461MD1710271+9999REMSYN066AAXX  09001 23933 42997 21403 11080 21116 30046 40107 57027 80001;
0181239330999992000030903004+60970+069070FM-12+0040USHH V0201301N003019999999N0100001N1-00831-01251100981ADDAA199000091AJ100479199999999GF107991071001999999031001IA1239MD1710081+9999REMSYN076AAXX  09031 23933 32997 71303 11083 21125 40098 57008 87030 333 47047 55070;EQDQ01  00002PRCP99
0165239330999992000030906004+60970+069070FM-12+0040USHH V0201301N003019999999N0100001N1-00621-00931100811ADDAA199000091GF108991001001999999001071KA1999N-00861MD1710171+9999REMSYN070AAXX  09061 23933 32997 81303 11062 21093 40081 57017 80007 333 21086;EQDQ01  00002PRCP99
0142239330999992000030909004+60970+069070FM-12+0040USHH V0201401N003019999999N0100001N1-00371-00701100711ADDAA199000091GF108991031001999999021071MD1710091+9999REMSYN060AAXX  09091 23933 32997 81403 11037 21070 40071 57009 83027;EQDQ01  00002PRCP99
0133239330999992000030912004+60970+069070FM-12+0040USHH V0201301N004019999999N0100001N1-00151-00491100501ADDGF108991081001999999021999MA1999999099911MD1710211+9999REMSYN066AAXX  09121 23933 42997 81304 11015 21049 39991 40050 57021 8802/;
0163239330999992000030915004+60970+069070FM-12+0040USHH V0201401N005010300019N0100001N1-00221-00501100401ADDAY171031AY231031GF108991031071004501021999KA1999M-00151MD1710101+9999MW1711REMSYN076AAXX  09151 23933 /1497 81405 11022 21050 40040 57010 77173 8372/ 333 11015;
0180239330999992000030918004+60970+069070FM-12+0040USHH V0201401N004010300019N0040001N1-00231-00381100281ADDAA100000791AY171061AY231061GF108991021071004501021999KA1999M-00151MD1710121+9999MW1711REMSYN082AAXX  09181 23933 41496 81404 11023 21038 40028 57012 69900 77173 8272/ 333 11015;
0166239330999992000030921004+60970+069070FM-12+0040USHH V0201501N003010042019N0100001N1-00241-00331100311ADDAY171031AY231031GA1061+004209069GF108991061071004501021999MD1310031+9999MW1711REMSYN076AAXX  09211 23933 41497 81503 11024 21033 40031 53003 77173 8672/ 333 86714;
0161239330999992000031000004+60970+069070FM-12+0040USHH V0201701N003010042019N0100001N1-00211-00301100601ADDAY171061AY231061GF108991061071004501021999MA1999999100011MD1210291+9999MW1711REMSYN072AAXX  10001 23933 41497 81703 11021 21030 30001 40060 52029 77173 8672/;
0179239330999992000031003004+60970+069070FM-12+0040USHH V0202101N003010042019N0100001N1-00171-00251100901ADDAJ100479199999999AY171031AY231031GF108991061071004501021999IA1239MD1210301+9999MW1711REMSYN082AAXX  10031 23933 /1497 82103 11017 21025 40090 52030 77173 8672/ 333 47047 55005;
0140239330999992000031009004+60970+069070FM-12+0040USHH V0201901N003019999999N0100001N1+00151-00231101291ADDAY131031AY211031GF105991001001999999001011MD1210131+9999MW1021REMSYN066AAXX  10091 23933 41997 51903 10015 21023 40129 52013 70231 80001;
0161239330999992000031012004+60970+069070FM-12+0040USHH V0201401N003019999999N0100001N1-00011-00381101441ADDAY131061AY211061GF108991001001999999001011MA1999999100841MD1210141+9999MW1021REMSYN072AAXX  10121 23933 41997 81403 11001 21038 30084 40144 52014 70231 80001;
0135239330999992000031015004+60970+069070FM-12+0040USHH V0201301N003019999999N0100001N1-00261-00521101501ADDGF108991001001999999001021KA1999M+00221MD1210061+9999REMSYN070AAXX  10151 23933 /2997 81303 11026 21052 40150 52006 80002 333 10022;
0152239330999992000031018004+60970+069070FM-12+0040USHH V0201501N004019999999N0100001N1-00341-00621101441ADDAA100000791GF108991001001999999001021KA1999M+00221MD1810061+9999REMSYN076AAXX  10181 23933 12997 81504 11034 21062 40144 58006 69900 80002 333 10022;
0112239330999992000031021004+60970+069070FM-12+0040USHH V0201501N003019999999N0100001N1-00481-00681101381ADDGF108991001001999999001071MD1710061+9999REMSYN060AAXX  10211 23933 42997 81503 11048 21068 40138 57006 80007;
0133239330999992000031100004+60970+069070FM-12+0040USHH V0201301N004019999999N0100001N1-00601-00751101391ADDGF108991031001999999031071MA1999999100781MD1410001+9999REMSYN066AAXX  11001 23933 42997 81304 11060 21075 30078 40139 54000 83037;
0181239330999992000031103004+60970+069070FM-12+0040USHH V0201301N004019999999N0100001N1-00691-00851101391ADDAA199000091AJ100489199999999GF108991001001999999001021IA1239MD1410001+9999REMSYN076AAXX  11031 23933 32997 81304 11069 21085 40139 54000 80002 333 47048 55186;EQDQ01  00002PRCP99
0165239330999992000031106004+60970+069070FM-12+0040USHH V0201301N002010042019N0100001N1-00351-00631101421ADDAA199000091GF105991051051004501001001KA1999N-00751MD1210041+9999REMSYN070AAXX  11061 23933 32497 51302 11035 21063 40142 52004 85500 333 21075;EQDQ01  00002PRCP99
0112239330999992000031109004+60970+069070FM-12+0040USHH V0201301N002010075019N0100001N1-00251-00381101471ADDGF108991081051008001999999MD1210051+9999REMSYN060AAXX  11091 23933 42597 81302 11025 21038 40147 52005 885//;
0133239330999992000031112004+60970+069070FM-12+0040USHH V0201301N002019999999N0100001N1-00091-00341101521ADDGF106991061001999999031001MA1999999100921MD1210051+9999REMSYN066AAXX  11121 23933 42997 61302 11009 21034 30092 40152 52005 86030;
0165239330999992000031115004+60970+069070FM-12+0040USHH V0201301N003019999999N0100001N1+00001-00361101521ADDAA199000091GF105991021001999999031011KA1999M+00001MD1410001+9999REMSYN070AAXX  11151 23933 32997 51303 11000 21036 40152 54000 82031 333 11000;EQDQ01  00002PRCP99
0165239330999992000031118004+60970+069070FM-12+0040USHH V0201301N003012200019N0100001N1-00101-00321101471ADDAA199000091GF103991001001999999001011KA1999M+00001MD1810051+9999REMSYN070AAXX  11181 23933 32997 31303 11010 21032 40147 58005 80001 333 11000;EQDQ01  00002PRCP99
0112239330999992000031121004+60970+069070FM-12+0040USHH V0201201N003019999999N0100001N1-00201-00411101401ADDGF105991021001999999031011MD1710071+9999REMSYN060AAXX  11211 23933 42997 51203 11020 21041 40140 57007 82031;
0133239330999992000031200004+60970+069070FM-12+0040USHH V0201201N003019999999N0100001N1-00221-00401101361ADDGF106991021001999999031011MA1999999100761MD1710041+9999REMSYN066AAXX  12001 23933 42997 61203 11022 21040 30076 40136 57004 82031;
0181239330999992000031203004+60970+069070FM-12+0040USHH V0201301N004019999999N0100001N1-00211-00421101271ADDAA199000091AJ100479199999999GF106991061001999999031001IA1239MD1710091+9999REMSYN076AAXX  12031 23933 32997 61304 11021 21042 40127 57009 86030 333 47047 55041;EQDQ01  00002PRCP99
0165239330999992000031206004+60970+069070FM-12+0040USHH V0201401N002019999999N0100001N1-00031-00331101321ADDAA199000091GF108991081001999999071999KA1999N-00271MD1310051+9999REMSYN070AAXX  12061 23933 32997 81402 11003 21033 40132 53005 8807/ 333 21027;EQDQ01  00002PRCP99
0166239330999992000031209004+60970+069070FM-12+0040USHH V0201101N001010060019N0100001N1+00031-00221101381ADDAY161031AY221031GA1081+006009029GF108991081001008001021999MD1210071+9999MW1611REMSYN076AAXX  12091 23933 41597 81101 10003 21022 40138 52007 76162 8802/ 333 88520;
0161239330999992000031212004+60970+069070FM-12+0040USHH V0201201N001010075019N0100001N1+00071-00171101511ADDAY161061AY221061GF108991081001008001021999MA1999999100921MD1210131+9999MW1021REMSYN072AAXX  12121 23933 41597 81201 10007 21017 30092 40151 52013 70262 8802/;
0163239330999992000031215004+60970+069070FM-12+0040USHH V0201101N001010075019N0100001N1+00011-00131101651ADDAY171031AY221031GF108991081001008001021999KA1999M+00071MD1210141+9999MW1711REMSYN076AAXX  12151 23933 /1597 81101 10001 21013 40165 52014 77172 8802/ 333 10007;
0180239330999992000031218004+60970+069070FM-12+0040USHH V0201101N001019999999N0100001N1-00011-00091101671ADDAA100000791AY171061AY221061GF108991081001999999021999KA1999M+00071MD1210011+9999MW1711REMSYN082AAXX  12181 23933 11997 81101 11001 21009 40167 52001 69900 77172 8802/ 333 10007;
0140239330999992000031221004+60970+069070FM-12+0040USHH V0201001N001010075019N0100001N1-00071-00111101671ADDAY171031AY221031GF108991081001008001021999MD1410001+9999MW1701REMSYN066AAXX  12211 23933 41597 81001 11007 21011 40167 54000 77072 8802/;
0187239330999992000031300004+60970+069070FM-12+0040USHH V0201101N001010072019N0100001N1-00091-00131101621ADDAY171061AY221061GA1081+007209029GF108991081001008001021999MA1999999101021MD1810051+9999MW1021REMSYN082AAXX  13001 23933 41597 81101 11009 21013 30102 40162 58005 70272 8802/ 333 88524;
0151239330999992000031303004+60970+069070FM-12+0040USHH V0201001N001019999999N0100001N1-00051-00111101561ADDAJ100469199999999GF108991081001999999021999IA1239MD1710061+9999REMSYN076AAXX  13031 23933 /2997 81001 11005 21011 40156 57006 8802/ 333 47046 55010;
0152239330999992000031306004+60970+069070FM-12+0040USHH V0201201N004010120019N0100001N1+00141+00001101591ADDAA100000591GF107991071051012501001001KA1999N-00101MD1310041+9999REMSYN076AAXX  13061 23933 12697 71204 10014 20000 40159 53004 69940 87500 333 21010;
0112239330999992000031309004+60970+069070FM-12+0040USHH V0201001N003019999999N0100001N1+00331-00051101521ADDGF108991001001999999001081MD1810071+9999REMSYN060AAXX  13091 23933 42997 81003 10033 21005 40152 58007 80008;
0133239330999992000031312004+60970+069070FM-12+0040USHH V0201101N002019999999N0100001N1+00281-00111101531ADDGF108991001001999999001081MA1999999100941MD1310011+9999REMSYN066AAXX  13121 23933 42997 81102 10028 21011 30094 40153 53001 80008;
0165239330999992000031315004+60970+069070FM-12+0040USHH V0201001N002019999999N0100001N1+00011-00281101511ADDAA199000091GF105991001001999999001011KA1999M+00331MD1810021+9999REMSYN070AAXX  13151 23933 32997 51002 10001 21028 40151 58002 80001 333 10033;EQDQ01  00002PRCP99
0165239330999992000031318004+60970+069070FM-12+0040USHH V0200901N002019999999N0100001N1-00361-00721101481ADDAA199000091GF105991001001999999001011KA1999M+00331MD1710041+9999REMSYN070AAXX  13181 23933 32997 50902 11036 21072 40148 57004 80001 333 10033;EQDQ01  00002PRCP99
0133239330999992000031400004+60970+069070FM-12+0040USHH V0201201N002019999999N0100001N1-00461-00851101471ADDGF105991001001999999001011MA1999999100871MD1810031+9999REMSYN066AAXX  14001 23933 42997 51202 11046 21085 30087 40147 58003 80001;
0181239330999992000031403004+60970+069070FM-12+0040USHH V0201301N002019999999N0100001N1-00451-00841101411ADDAA199000091AJ100439199999999GF106991001001999999001011IA1239MD1710061+9999REMSYN076AAXX  14031 23933 32997 61302 11045 21084 40141 57006 80001 333 47043 55042;EQDQ01  00002PRCP99
0165239330999992000031406004+60970+069070FM-12+0040USHH V0201001N002012200019N0100001N1-00071-00841101381ADDAA199000091GF103991001001999999001011KA1999N-00561MD1710031+9999REMSYN070AAXX  14061 23933 32997 31002 11007 21084 40138 57003 80001 333 21056;EQDQ01  00002PRCP99
0112239330999992000031409004+60970+069070FM-12+0040USHH V0201001N002019999999N0100001N1+00291-00591101291ADDGF106991001001999999001041MD1710081+9999REMSYN060AAXX  14091 23933 42997 61002 10029 21059 40129 57008 80004;
0133239330999992000031412004+60970+069070FM-12+0040USHH V0201301N002019999999N0100001N1+00321-00421101441ADDGF107991071001999999031001MA1999999100851MD1310151+9999REMSYN066AAXX  14121 23933 42997 71302 10032 21042 30085 40144 53015 87030;
0165239330999992000031415004+60970+069070FM-12+0040USHH V0200901N002019999999N0100001N1-00031-00331101491ADDAA199000091GF105991021001999999031031KA1999M+00331MD1210041+9999REMSYN070AAXX  14151 23933 32997 50902 11003 21033 40149 52004 82033 333 10033;EQDQ01  00002PRCP99
0165239330999992000031418004+60970+069070FM-12+0040USHH V0201201N002019999999N0100001N1-00261-00451101511ADDAA199000091GF106991001001999999001011KA1999M+00331MD1210021+9999REMSYN070AAXX  14181 23933 32997 61202 11026 21045 40151 52002 80001 333 10033;EQDQ01  00002PRCP99
0128239330999992000031421004+60970+069070FM-12+0040USHH V0201201N001012200019N0100001N1-00521-00621101531ADDGA1001+999999999GF100991001001999999001001MD1210011+9999REMSYN060AAXX  14211 23933 42997 01201 11052 21062 40153 52001 82031;
0152239330999992000031500004+60970+069070FM-12+0040USHH V0200901N001019999999N0100001N1+99999+99999101591ADDGF106991031001999999031011MA1999999100981MD1210061+9999REMSYN066AAXX  15001 23933 42997 60901 11554 21064 30098 40159 52006 83031;EQDQ01-005543ATOT  
0213239330999992000031503004+60970+069070FM-12+0040USHH V0200801N001019999999N0100001N1-00591-00701101581ADDAA199000091AJ100429199999999GF107991051001999999031011IA1239MD1710011+9999REMSYN076AAXX  15031 23933 32997 70801 11059 21070 40158 58000 85031 333 47042 55076;EQDQ01+000082APCTENQ02+000002APC3  Q03  00002PRCP99
0165239330999992000031506004+60970+069070FM-12+0040USHH V0200901N001019999999N0100001N1-00221-00491101571ADDAA199000091GF108991081001999999021999KA1999N-00591MD1410001+9999REMSYN070AAXX  15061 23933 32997 80901 11022 21049 40157 54000 8802/ 333 21059;EQDQ01  00002PRCP99
0112239330999992000031509004+60970+069070FM-12+0040USHH V0200801N002019999999N0100001N1-00021-00401101631ADDGF108991081001999999071999MD1310061+9999REMSYN060AAXX  15091 23933 42997 80802 11002 21040 40163 53006 8807/;
0133239330999992000031512004+60970+069070FM-12+0040USHH V0200201N001019999999N0100001N1-00011-00351101651ADDGF108991041001999999031011MA1999999101051MD1210021+9999REMSYN066AAXX  15121 23933 42997 80201 11001 21035 30105 40165 52002 84031;
0165239330999992000031515004+60970+069070FM-12+0040USHH V0200101N001019999999N0100001N1-00201-00381101781ADDAA199000091GF105991021001999999031011KA1999M+00041MD1210131+9999REMSYN070AAXX  15151 23933 32997 50101 11020 21038 40178 52013 82031 333 10004;EQDQ01  00002PRCP99
0165239330999992000031518004+60970+069070FM-12+0040USHH V0200201N001019999999N0100001N1-00031-00501101711ADDAA199000091GF108991061001999999031011KA1999M+00041MD1810071+9999REMSYN070AAXX  15181 23933 32997 80201 11003 21050 40171 58007 86031 333 10004;EQDQ01  00002PRCP99
0112239330999992000031521004+60970+069070FM-12+0040USHH V0200201N001019999999N0100001N1-00621-00771101711ADDGF108991051001999999031011MD1710011+9999REMSYN060AAXX  15211 23933 42997 80201 11062 21077 40171 57001 85031;
0161239330999992000031600004+60970+069070FM-12+0040USHH V0200201N001019999999N0100001N1-00761-00851101771ADDAY171061AY221061GF108991081001999999021999MA1999999101161MD1310061+9999MW1711REMSYN072AAXX  16001 23933 41997 80201 11076 21085 30116 40177 53006 77172 8802/;
0179239330999992000031603004+60970+069070FM-12+0040USHH V0200301N002019999999N0100001N1-00881-01031101841ADDAJ100429199999999AY171031AY221031GF108991081001999999071999IA1239MD1210071+9999MW1701REMSYN082AAXX  16031 23933 /1997 80302 11088 21103 40184 52007 77072 8807/ 333 47042 55000;
0180239330999992000031606004+60970+069070FM-12+0040USHH V0200201N002019999999N0100001N1-00791-01061101991ADDAA100000791AY171061AY221061GF108991001001999999001081KA1999N-00881MD1210151+9999MW1701REMSYN082AAXX  16061 23933 11997 80202 11079 21106 40199 52015 69900 77072 80008 333 21088;
0140239330999992000031609004+60970+069070FM-12+0040USHH V0200301N003019999999N0100001N1-00631-00941102041ADDAY171031AY221031GF108991081001999999071999MD1210051+9999MW1021REMSYN066AAXX  16091 23933 41997 80303 11063 21094 40204 52005 70272 8807/;
0161239330999992000031612004+60970+069070FM-12+0040USHH V0200601N002019999999N0100001N1-00431-00741102101ADDAY171061AY221061GF108991081001999999071999MA1999999101501MD1210071+9999MW1021REMSYN072AAXX  16121 23933 41997 80602 11043 21074 30150 40210 52007 70272 8807/;
0135239330999992000031615004+60970+069070FM-12+0040USHH V0200201N002019999999N0100001N1-00501-00821102201ADDGF108991081001999999031999KA1999M-00431MD1210091+9999REMSYN070AAXX  16151 23933 /2997 80202 11050 21082 40220 52009 8803/ 333 11043;
0152239330999992000031618004+60970+069070FM-12+0040USHH V0200301N002012200019N0100001N1-00901-01151102211ADDAA100000791GF102991001001999999001011KA1999M-00431MD1210011+9999REMSYN076AAXX  16181 23933 12997 20302 11090 21115 40221 52001 69900 80001 333 11043;
0122239330999992000031621004+60970+069070FM-12+0040USHH V0209999C000012200019N0100001N1-01261-01391102271ADDGA1001+999999999GF100991001001999999001001MD1210041+9999REMSYN054AAXX  16211 23933 42997 00000 11126 21139 40227 52004;
0143239330999992000031700004+60970+069070FM-12+0040USHH V0209999C000012200019N0100001N1-01501-01561102301ADDGA1001+999999999GF100991001001999999001001MA1999999101661MD1210021+9999REMSYN060AAXX  17001 23933 42997 00000 11150 21156 30166 40230 52002;
0191239330999992000031703004+60970+069070FM-12+0040USHH V0203301N001012200019N0100001N1-01531-01591102331ADDAA199000091AJ100429199999999GA1001+999999999GF100991001001999999001001IA1239MD1210031+9999REMSYN070AAXX  17031 23933 32997 03301 11153 21159 40233 52003 333 47042 55039;EQDQ01  00002PRCP99
0165239330999992000031706004+60970+069070FM-12+0040USHH V0200101N001012200019N0100001N1-01061-01341102321ADDAA199000091GF102991001001999999001011KA1999N-01561MD1410001+9999REMSYN070AAXX  17061 23933 32997 20101 11106 21134 40232 54000 80001 333 21156;EQDQ01  00002PRCP99
0112239330999992000031709004+60970+069070FM-12+0040USHH V0200301N002012200019N0100001N1-00691-01111102271ADDGF102991001001999999001011MD1810031+9999REMSYN060AAXX  17091 23933 42997 20302 11069 21111 40227 58003 80001;
0143239330999992000031712004+60970+069070FM-12+0040USHH V0203001N001012200019N0100001N1-00591-01121102241ADDGA1001+999999999GF100991001001999999001001MA1999999101631MD1710031+9999REMSYN060AAXX  17121 23933 42997 03001 11059 21112 30163 40224 57003;
0175239330999992000031715004+60970+069070FM-12+0040USHH V0209999C000012200019N0100001N1-00961-01371102241ADDAA199000091GA1001+999999999GF100991001001999999001001KA1999M-00591MD1410001+9999REMSYN064AAXX  17151 23933 32997 00000 11096 21137 40224 54000 333 11059;EQDQ01  00002PRCP99
0175239330999992000031718004+60970+069070FM-12+0040USHH V0200101N002012200019N0200001N1-01251-01681102261ADDAA199000091GA1001+999999999GF100991001001999999001001KA1999M-00591MD1410001+9999REMSYN064AAXX  17181 23933 32998 00102 11125 21168 40226 54000 333 11059;EQDQ01  00002PRCP99
0122239330999992000031721004+60970+069070FM-12+0040USHH V0200301N002012200019N0100001N1-01611-01871102321ADDGA1001+999999999GF100991001001999999001001MD1310051+9999REMSYN054AAXX  17211 23933 42997 00302 11161 21187 40232 53005;
0143239330999992000031800004+60970+069070FM-12+0040USHH V0200101N002012200019N0100001N1-02051-02301102491ADDGA1001+999999999GF100991001001999999001001MA1999999101841MD1210161+9999REMSYN060AAXX  18001 23933 42997 00102 11205 21230 30184 40249 52016;
0191239330999992000031803004+60970+069070FM-12+0040USHH V0203601N002012200019N0100001N1-02191-02441102581ADDAA199000091AJ100429199999999GA1001+999999999GF100991001001999999001001IA1239MD1210091+9999REMSYN070AAXX  18031 23933 32997 03602 11219 21244 40258 52009 333 47042 55113;EQDQ01  00002PRCP99
0122239330999992000031809004+60970+069070FM-12+0040USHH V0202701N001012200019N0100001N1-01371-01721102691ADDGA1001+999999999GF100991001001999999001001MD1210051+9999REMSYN054AAXX  18091 23933 42997 02701 11137 21172 40269 52005;
0143239330999992000031812004+60970+069070FM-12+0040USHH V0202701N001012200019N0100001N1-01071-01601102831ADDGA1001+999999999GF100991001001999999001001MA1999999102201MD1210141+9999REMSYN060AAXX  18121 23933 42997 02701 11107 21160 30220 40283 52014;
0165239330999992000031815004+60970+069070FM-12+0040USHH V0209999C000012200019N0100001N1-01381-01811102971ADDAA199000091GF101991001001999999001011KA1999M-01021MD1210141+9999REMSYN070AAXX  18151 23933 32997 10000 11138 21181 40297 52014 80001 333 11102;EQDQ01  00002PRCP99
0175239330999992000031818004+60970+069070FM-12+0040USHH V0209999C000012200019N0100001N1-01641-01981103121ADDAA199000091GA1001+999999999GF100991001001999999001001KA1999M-01021MD1210141+9999REMSYN064AAXX  18181 23933 32997 00000 11164 21198 40312 52014 333 11102;EQDQ01  00002PRCP99
0122239330999992000031821004+60970+069070FM-12+0040USHH V0209999C000012200019N0100001N1-01831-02161103161ADDGA1001+999999999GF100991001001999999001001MD1210041+9999REMSYN054AAXX  18211 23933 42997 00000 11183 21216 40316 52004;
0143239330999992000031900004+60970+069070FM-12+0040USHH V0209999C000012200019N0100001N1-02031-02281103301ADDGA1001+999999999GF100991001001999999001001MA1999999102641MD1210121+9999REMSYN060AAXX  19001 23933 42997 00000 11203 21228 30264 40330 52012;
0191239330999992000031903004+60970+069070FM-12+0040USHH V0209999C000012200019N0100001N1-02081-02331103361ADDAA199000091AJ100429199999999GA1001+999999999GF100991001001999999001001IA1239MD1210061+9999REMSYN070AAXX  19031 23933 32997 00000 11208 21233 40336 52006 333 47042 55105;EQDQ01  00002PRCP99
0165239330999992000031906004+60970+069070FM-12+0040USHH V0202901N002012200019N0100001N1-01611-01971103341ADDAA199000091GF102991001001999999001011KA1999N-02121MD1410001+9999REMSYN070AAXX  19061 23933 32997 22902 11161 21197 40334 54000 80001 333 21212;EQDQ01  00002PRCP99
0112239330999992000031909004+60970+069070FM-12+0040USHH V0202501N003012200019N0100001N1-01221-01651103251ADDGF101991001001999999001011MD1810081+9999REMSYN060AAXX  19091 23933 42997 12503 11122 21165 40325 58008 80001;
0143239330999992000031912004+60970+069070FM-12+0040USHH V0202501N003012200019N0100001N1-01091-01531103221ADDGA1001+999999999GF100991001001999999001001MA1999999102591MD1710031+9999REMSYN060AAXX  19121 23933 42997 02503 11109 21153 30259 40322 57003;
0175239330999992000031915004+60970+069070FM-12+0040USHH V0202601N002012200019N0100001N1-01201-01641103191ADDAA199000091GA1001+999999999GF100991001001999999001001KA1999M-01081MD1710031+9999REMSYN064AAXX  19151 23933 32997 02602 11120 21164 40319 57003 333 11108;EQDQ01  00002PRCP99
0175239330999992000031918004+60970+069070FM-12+0040USHH V0202401N001012200019N0100001N1-01171-01611103061ADDAA199000091GA1001+999999999GF100991001001999999001001KA1999M-01081MD1710131+9999REMSYN064AAXX  19181 23933 32997 02401 11117 21161 40306 57013 333 11108;EQDQ01  00002PRCP99
0131239330999992000031921004+60970+069070FM-12+0040USHH V0202501N002019999999N0100001N1-01171-01611999999ADDGF106991061001999999031001MD1710151+9999REMSYN060AAXX  19211 23933 42997 62502 11117 21161 40192 57015 86030;EQDQ01+101923APOSLP
0133239330999992000032000004+60970+069070FM-12+0040USHH V0201001N001019999999N0100001N1-02041-02291102811ADDGF107991071001999999031001MA1999999102161MD1710021+9999REMSYN066AAXX  20001 23933 42997 71001 11204 21229 30216 40281 57002 87030;
0181239330999992000032003004+60970+069070FM-12+0040USHH V0201001N001019999999N0100001N1-02131-02311102601ADDAA199000091AJ100429199999999GF108991081001999999071999IA1239MD1710211+9999REMSYN076AAXX  20031 23933 32997 81001 11213 21231 40260 57021 8807/ 333 47042 55105;EQDQ01  00002PRCP99
0165239330999992000032006004+60970+069070FM-12+0040USHH V0201401N002019999999N0100001N1-01121-01401102281ADDAA199000091GF108991031001999999031071KA1999N-02141MD1710301+9999REMSYN070AAXX  20061 23933 32997 81402 11112 21140 40228 57030 83037 333 21214;EQDQ01  00002PRCP99
0140239330999992000032009004+60970+069070FM-12+0040USHH V0202101N002019999999N0100001N1-00391-00841102011ADDAY171031AY221031GF108991081001999999071999MD1710211+9999MW1711REMSYN066AAXX  20091 23933 41997 82102 11039 21084 40201 57021 77172 8807/;
0135239330999992000032015004+60970+069070FM-12+0040USHH V0202101N004019999999N0100001N1-00261-00561101531ADDGF108991081001999999071999KA1999M-00151MD1710251+9999REMSYN070AAXX  20151 23933 /2997 82104 11026 21056 40153 57025 8807/ 333 11015;
0180239330999992000032018004+60970+069070FM-12+0040USHH V0202201N004019999999N0100001N1-00271-00501101271ADDAA100000791AY171061AY221061GF108991081001999999021999KA1999M-00151MD1710261+9999MW1021REMSYN082AAXX  20181 23933 11997 82204 11027 21050 40127 57026 69900 70272 8802/ 333 11015;
0112239330999992000032021004+60970+069070FM-12+0040USHH V0201801N001019999999N0100001N1-00291-00601100891ADDGF108991081001999999021999MD1710371+9999REMSYN060AAXX  20211 23933 42997 81801 11029 21060 40089 57037 8802/;
0133239330999992000032100004+60970+069070FM-12+0040USHH V0202101N003019999999N0100001N1-00241-00681100691ADDGF108991081001999999071999MA1999999100101MD1710201+9999REMSYN066AAXX  21001 23933 42997 82103 11024 21068 30010 40069 57020 8807/;
0151239330999992000032103004+60970+069070FM-12+0040USHH V0202101N004019999999N0100001N1-00211-00671100561ADDAJ100429199999999GF108991081001999999071999IA1239MD1710131+9999REMSYN076AAXX  21031 23933 /2997 82104 11021 21067 40056 57013 8807/ 333 47042 55008;
0152239330999992000032106004+60970+069070FM-12+0040USHH V0202401N003019999999N0100001N1-00031-00471100461ADDAA100000791GF108991081001999999071999KA1999N-00321MD1710101+9999REMSYN076AAXX  21061 23933 12997 82403 11003 21047 40046 57010 69900 8807/ 333 21032;
0140239330999992000032109004+60970+069070FM-12+0040USHH V0202401N002010300019N0100001N1+00101-00071100491ADDAY171031AY221031GF108991021071002501021999MD1310041+9999MW1711REMSYN066AAXX  21091 23933 41397 82402 10010 21007 40049 53004 77172 8272/;
0161239330999992000032112004+60970+069070FM-12+0040USHH V0202401N003019999999N0100001N1+00221-00211100521ADDAY171061AY221061GF106991051001999999031091MA1999999099941MD1210031+9999MW1021REMSYN072AAXX  21121 23933 41997 62403 10022 21021 39994 40052 52003 70272 85039;
0128239330999992000032114004+60970+069070FM-12+0040USHH V0202401N003019999999N0100001N1+99999+99999100521ADDAY171999AY221999GF106991051001999999031091MD1210031+9999MW1021REMSYN054AAXX  21141 23933 41997 62403 40052 52003 70272 85039;
0163239330999992000032115004+60970+069070FM-12+0040USHH V0202401N003019999999N0100001N1+00041-00051100521ADDAY171031AY221031GF108991081001999999021999KA1999M+00261MD1410001+9999MW1711REMSYN076AAXX  21151 23933 /1997 82403 10004 21005 40052 54000 77172 8802/ 333 10026;
0180239330999992000032118004+60970+069070FM-12+0040USHH V0202401N003010300019N0100001N1+00041-00051100511ADDAA100000191AY171061AY221061GF108991021071002501011999KA1999M+00261MD1810011+9999MW1021REMSYN082AAXX  21181 23933 11397 82403 10004 21005 40051 58001 69920 70272 8271/ 333 10026;
0112239330999992000032121004+60970+069070FM-12+0040USHH V0202301N003019999999N0100001N1+00061-00141100551ADDGF108991081001999999011999MD1310031+9999REMSYN060AAXX  21211 23933 42997 82303 10006 21014 40055 53003 8801/;
0133239330999992000032200004+60970+069070FM-12+0040USHH V0202301N002012200019N0100001N1-00031-00331100661ADDGF104991021051008001031001MA1999999100071MD1210111+9999REMSYN066AAXX  22001 23933 42597 42302 11003 21033 30007 40066 52011 82530;
0151239330999992000032203004+60970+069070FM-12+0040USHH V0202401N003019999999N0100001N1-00121-00451100831ADDAJ100419199999999GF106991031001999999031091IA1239MD1210171+9999REMSYN076AAXX  22031 23933 /2997 62403 11012 21045 40083 52017 83039 333 47041 55000;
0171239330999992000032206004+60970+069070FM-12+0040USHH V0202201N003019999999N0100001N1+00161-00191100911ADDAA100999999GF106991041001999999031091KA1999N-00121MD1210091+9999REMSYN076AAXX  22061 23933 12997 62203 10016 21019 40091 52009 69000 84039 333 21012;EQDQ01  89992PRCP00
0112239330999992000032209004+60970+069070FM-12+0040USHH V0202101N004019999999N0100001N1+00221-00281100911ADDGF107991031001999999031091MD1410001+9999REMSYN060AAXX  22091 23933 42997 72104 10022 21028 40091 54000 83039;
0133239330999992000032212004+60970+069070FM-12+0040USHH V0202101N004019999999N0100001N1+00321-00251100901ADDGF107991071001999999031001MA1999999100321MD1810011+9999REMSYN066AAXX  22121 23933 42997 72104 10032 21025 30032 40090 58001 87030;
0165239330999992000032215004+60970+069070FM-12+0040USHH V0202401N004019999999N0100001N1+00161-00391100921ADDAA199000091GF106991061001999999031001KA1999M+00321MD1310021+9999REMSYN070AAXX  22151 23933 32997 62404 10016 21039 40092 53002 86030 333 10032;EQDQ01  00002PRCP99
0165239330999992000032218004+60970+069070FM-12+0040USHH V0202401N003012200019N0100001N1-00021-00471100831ADDAA199000091GF103991031001999999051001KA1999M+00321MD1810101+9999REMSYN070AAXX  22181 23933 32997 32403 11002 21047 40083 58010 83050 333 10032;EQDQ01  00002PRCP99
0112239330999992000032221004+60970+069070FM-12+0040USHH V0202101N004019999999N0100001N1-00091-00551100841ADDGF106991061001999999031001MD1310011+9999REMSYN060AAXX  22211 23933 42997 62104 11009 21055 40084 53001 86030;
0133239330999992000032300004+60970+069070FM-12+0040USHH V0202201N004019999999N0100001N1-00261-00711100841ADDGF106991051001999999031011MA1999999100251MD1410001+9999REMSYN066AAXX  23001 23933 42997 62204 11026 21071 30025 40084 54000 85031;
0181239330999992000032303004+60970+069070FM-12+0040USHH V0202201N002012200019N0100001N1-00261-00671100871ADDAA199000091AJ100419199999999GF103991001001999999001011IA1279MD1310031+9999REMSYN076AAXX  23031 23933 32997 32202 11026 21067 40087 53003 80001 333 43041 55052;EQDQ01  00002PRCP99
0165239330999992000032306004+60970+069070FM-12+0040USHH V0200901N001019999999N0100001N1+00111-00411100831ADDAA199000091GF108991001001999999001011KA1999N-00271MD1810031+9999REMSYN070AAXX  23061 23933 32997 80901 10011 21041 40083 58003 80001 333 21027;EQDQ01  00002PRCP99
0112239330999992000032309004+60970+069070FM-12+0040USHH V0201301N002019999999N0100001N1+00081-00421100701ADDGF108991081001999999011999MD1710131+9999REMSYN060AAXX  23091 23933 42997 81302 10008 21042 40070 57013 8801/;
0163239330999992000032315004+60970+069070FM-12+0040USHH V0201701N002019999999N0100001N1-00011-00041100261ADDAY171031AY221031GF108991081001999999021999KA1999M+00151MD1710261+9999MW1711REMSYN076AAXX  23151 23933 /1997 81702 11001 21004 40026 57026 77172 8802/ 333 10015;
0180239330999992000032318004+60970+069070FM-12+0040USHH V0202101N002010042019N0100001N1+00021-00091100171ADDAA100002091AY171061AY221061GF108991061071004501021999KA1999M+00151MD1710081+9999MW1021REMSYN082AAXX  23181 23933 11497 82102 10002 21009 40017 57008 60020 70272 8672/ 333 10015;
0112239330999992000032321004+60970+069070FM-12+0040USHH V0202201N003010042019N0100001N1+00011-00071100171ADDGF108991061071004501021999MD1410001+9999REMSYN060AAXX  23211 23933 42497 82203 10001 21007 40017 54000 8672/;
0133239330999992000032400004+60970+069070FM-12+0040USHH V0202101N003010042019N0100001N1-00151-00221100221ADDGF108991071071004501021999MA1999999099631MD1310041+9999REMSYN066AAXX  24001 23933 42497 82103 11015 21022 39963 40022 53004 8772/;
0151239330999992000032403004+60970+069070FM-12+0040USHH V0202101N002019999999N0100001N1-00121-00221100151ADDAJ100419199999999GF108991081001999999021999IA1279MD1810071+9999REMSYN076AAXX  24031 23933 /2997 82102 11012 21022 40015 58007 8802/ 333 43041 55000;
0180239330999992000032406004+60970+069070FM-12+0040USHH V0202101N002019999999N0100001N1-00081-00161100191ADDAA100000191AY171061AY221061GF108991081001999999071999KA1999N-00151MD1310041+9999MW1701REMSYN082AAXX  24061 23933 11997 82102 11008 21016 40019 53004 69920 77072 8807/ 333 21015;
0159239330999992000032409004+60970+069070FM-12+0040USHH V0202201N003019999999N0100001N1+00031-00171100161ADDAY171031AY221031GF108991999051999999021999MD1810021+9999MW1021REMSYN066AAXX  24091 23933 41997 82203 10003 21017 40016 58002 70272 8852/;EQDQ01+000082SCOTLC
0161239330999992000032412004+60970+069070FM-12+0040USHH V0202501N003010075019N0100001N1+00101-00251100211ADDAY171061AY221061GF107991071051008001001001MA1999999099631MD1310051+9999MW1021REMSYN072AAXX  24121 23933 41597 72503 10010 21025 39963 40021 53005 70272 87500;
0135239330999992000032415004+60970+069070FM-12+0040USHH V0202401N002010075019N0100001N1+00031-00341100311ADDGF106991061051008001001001KA1999M+00151MD1210101+9999REMSYN070AAXX  24151 23933 /2597 62402 10003 21034 40031 52010 86500 333 10015;
0162239330999992000032418004+60970+069070FM-12+0040USHH V0202201N003012200019N0100001N1-00101-00421100381ADDAA100000791GA1001+999999999GF100991001001999999001001KA1999M+00151MD1210061+9999REMSYN070AAXX  24181 23933 12997 02203 11010 21042 40038 52006 69900 333 10015;
0122239330999992000032421004+60970+069070FM-12+0040USHH V0202301N002012200019N0100001N1-00251-00611100561ADDGA1001+999999999GF100991001001999999001001MD1210181+9999REMSYN054AAXX  24211 23933 42997 02302 11025 21061 40056 52018;
0143239330999992000032500004+60970+069070FM-12+0040USHH V0202601N002012200019N0100001N1-00401-00661100761ADDGA1001+999999999GF100991001001999999001001MA1999999100171MD1210201+9999REMSYN060AAXX  25001 23933 42997 02602 11040 21066 30017 40076 52020;
0191239330999992000032503004+60970+069070FM-12+0040USHH V0202301N002012200019N0100001N1-00231-00661100901ADDAA199000091AJ100409199999999GA1001+999999999GF100991001001999999001001IA1279MD1210141+9999REMSYN070AAXX  25031 23933 32997 02302 11023 21066 40090 52014 333 43040 55034;EQDQ01  00002PRCP99
0165239330999992000032506004+60970+069070FM-12+0040USHH V0202201N004019999999N0100001N1+00141-00731101101ADDAA199000091GF106991001001999999001011KA1999N-00411MD1210201+9999REMSYN070AAXX  25061 23933 32997 62204 10014 21073 40110 52020 80001 333 21041;EQDQ01  00002PRCP99
0112239330999992000032509004+60970+069070FM-12+0040USHH V0201701N003019999999N0100001N1+00251-00701101031ADDGF108991001001999999001081MD1810071+9999REMSYN060AAXX  25091 23933 42997 81703 10025 21070 40103 58007 80008;
0161239330999992000032512004+60970+069070FM-12+0040USHH V0201701N002019999999N0020001N1+00071-00041100911ADDAY171061AY221061GF108991081001999999021999MA1999999100331MD1710111+9999MW1711REMSYN072AAXX  25121 23933 41995 81702 10007 21004 30033 40091 57011 77172 8802/;
0163239330999992000032515004+60970+069070FM-12+0040USHH V0201901N003010042019N0100001N1+00071+00011100781ADDAY171031AY221031GF108991081061004501999999KA1999M+00251MD1710131+9999MW1021REMSYN076AAXX  25151 23933 /1497 81903 10007 20001 40078 57013 70272 886// 333 10025;
0180239330999992000032518004+60970+069070FM-12+0040USHH V0201801N002010075019N0100001N1+00221+00061100761ADDAA100002091AY171061AY221061GF108991061051008001021999KA1999M+00251MD1710021+9999MW1021REMSYN082AAXX  25181 23933 11597 81802 10022 20006 40076 57002 60020 70272 8652/ 333 10025;
0112239330999992000032521004+60970+069070FM-12+0040USHH V0201901N003019999999N0100001N1+00191+00031100641ADDGF105991001001999999001011MD1710121+9999REMSYN060AAXX  25211 23933 42997 51903 10019 20003 40064 57012 80001;
0133239330999992000032600004+60970+069070FM-12+0040USHH V0201701N003019999999N0100001N1-00021-00201100501ADDGF106991031001999999031021MA1999999099911MD1710151+9999REMSYN066AAXX  26001 23933 42997 61703 11002 21020 39991 40050 57015 83032;
0179239330999992000032603004+60970+069070FM-12+0040USHH V0201701N003019999999N0100001N1+00031-00241100361ADDAJ100409199999999AY171031AY221031GF108991081001999999031999IA1279MD1710131+9999MW1021REMSYN082AAXX  26031 23933 /1997 81703 10003 21024 40036 57013 70272 8803/ 333 43040 55073;
0180239330999992000032606004+60970+069070FM-12+0040USHH V0201701N003019999999N0100001N1+00131-00221100121ADDAA100000791AY171061AY221061GF108991081001999999031999KA1999N-00021MD1710241+9999MW1021REMSYN082AAXX  26061 23933 11997 81703 10013 21022 40012 57024 69900 70272 8803/ 333 21002;
0112239330999992000032609004+60970+069070FM-12+0040USHH V0201401N003019999999N0100001N1+00251-00211099841ADDGF108991081001999999021999MD1710271+9999REMSYN060AAXX  26091 23933 42997 81403 10025 21021 49984 57027 8802/;
0163239330999992000032615004+60970+069070FM-12+0040USHH V0200501N002019999999N0020001N1-00011-00041099121ADDAY171031AY221031GF108991081001999999021999KA1999M+00251MD1710461+9999MW1711REMSYN076AAXX  26151 23933 /1995 80502 11001 21004 49912 57046 77172 8802/ 333 10025;
0180239330999992000032618004+60970+069070FM-12+0040USHH V0202201N002019999999N0040001N1-00061-00091098851ADDAA100002091AY171061AY221061GF108991081001999999021999KA1999M+00251MD1710271+9999MW1711REMSYN082AAXX  26181 23933 11996 82202 11006 21009 49885 57027 60020 77172 8802/ 333 10025;
0140239330999992000032621004+60970+069070FM-12+0040USHH V0203001N002010042019N0100001N1-00081-00111098761ADDAY171031AY221031GF108991061071004501021999MD1710091+9999MW1701REMSYN066AAXX  26211 23933 41497 83002 11008 21011 49876 57009 77072 8672/;
0161239330999992000032700004+60970+069070FM-12+0040USHH V0203001N002010042019N0040001N1-00021-00081098781ADDAY171061AY221061GF108991071071004501021999MA1999999098201MD1310011+9999MW1711REMSYN072AAXX  27001 23933 41496 83002 11002 21008 39820 49878 53001 77172 8772/;
0179239330999992000032703004+60970+069070FM-12+0040USHH V0203001N003019999999N0040001N1-00121-00211098961ADDAJ100419199999999AY171031AY221031GF108991081001999999021999IA1279MD1210181+9999MW1711REMSYN082AAXX  27031 23933 /1996 83003 11012 21021 49896 52018 77172 8802/ 333 43041 55000;
0180239330999992000032706004+60970+069070FM-12+0040USHH V0203101N003019999999N0100001N1-00171-00291099181ADDAA100002091AY171061AY221061GF108991081001999999021999KA1999N-00131MD1210221+9999MW1701REMSYN082AAXX  27061 23933 11997 83103 11017 21029 49918 52022 60020 77072 8802/ 333 21013;
0140239330999992000032709004+60970+069070FM-12+0040USHH V0203201N003019999999N0040001N1-00221-00351099501ADDAY171031AY221031GF108991081001999999021999MD1210321+9999MW1711REMSYN066AAXX  27091 23933 41996 83203 11022 21035 49950 52032 77172 8802/;
0161239330999992000032712004+60970+069070FM-12+0040USHH V0203301N004019999999N0100001N1-00421-00611099901ADDAY171061AY221061GF108991081001999999021999MA1999999099321MD1210401+9999MW1701REMSYN072AAXX  27121 23933 41997 83304 11042 21061 39932 49990 52040 77072 8802/;
0163239330999992000032715004+60970+069070FM-12+0040USHH V0203201N002010300019N0100001N1-00471-00751100361ADDAY171031AY221031GF106991021051012501031001KA1999M-00121MD1210451+9999MW1221REMSYN076AAXX  27151 23933 /1697 63202 11047 21075 40036 52045 72272 82530 333 11012;
0180239330999992000032718004+60970+069070FM-12+0040USHH V0203401N002019999999N0100001N1-00621-00891100711ADDAA100001091AY171061AY221061GF108991081001999999021999KA1999M-00121MD1210341+9999MW1021REMSYN082AAXX  27181 23933 11997 83402 11062 21089 40071 52034 60010 70272 8802/ 333 11012;
0112239330999992000032721004+60970+069070FM-12+0040USHH V0203401N002019999999N0100001N1-00851-01171101011ADDGF106991021001999999031011MD1210291+9999REMSYN060AAXX  27211 23933 42997 63402 11085 21117 40101 52029 82031;
0133239330999992000032800004+60970+069070FM-12+0040USHH V0200701N001019999999N0100001N1-01051-01411101251ADDGF106991041001999999031011MA1999999100631MD1210231+9999REMSYN066AAXX  28001 23933 42997 60701 11105 21141 30063 40125 52023 84031;
0179239330999992000032803004+60970+069070FM-12+0040USHH V0201301N002019999999N0040001N1-01051-01241101291ADDAJ100419199999999AY171031AY221031GF108991081001999999021999IA1279MD1210041+9999MW1711REMSYN082AAXX  28031 23933 /1996 81302 11105 21124 40129 52004 77172 8802/ 333 43041 55000;
0140239330999992000032809004+60970+069070FM-12+0040USHH V0202901N002019999999N0010001N1-00381-00641101351ADDAY171031AY221031GF108991081001999999021999MD1210031+9999MW1731REMSYN066AAXX  28091 23933 41994 82902 11038 21064 40135 52003 77372 8802/;
0161239330999992000032812004+60970+069070FM-12+0040USHH V0202401N003010075019N0100001N1-00481-00681101421ADDAY181061AY271061GF108991061091008001031001MA1999999100821MD1210071+9999MW1261REMSYN072AAXX  28121 23933 41597 82403 11048 21068 30082 40142 52007 72687 86930;
0135239330999992000032815004+60970+069070FM-12+0040USHH V0202401N002019999999N0100001N1-00691-01261101531ADDGF106991021001999999031011KA1999M-00461MD1210021+9999REMSYN070AAXX  28151 23933 /1997 62402 11069 21126 40153 52002 82031 333 11046;
0162239330999992000032818004+60970+069070FM-12+0040USHH V0202301N003012200019N0100001N1-00811-01171101441ADDAA100000791GA1001+999999999GF100991001001999999001001KA1999M-00381MD1810031+9999REMSYN070AAXX  28181 23933 12997 02303 11081 21117 40144 58003 69900 333 11038;
0143239330999992000032900004+60970+069070FM-12+0040USHH V0202201N004012200019N0100001N1-00951-01251101271ADDGA1001+999999999GF100991001001999999001001MA1999999100661MD1710091+9999REMSYN060AAXX  29001 23933 42997 02204 11095 21125 30066 40127 57009;
0181239330999992000032903004+60970+069070FM-12+0040USHH V0202301N004019999999N0100001N1-00861-01191101171ADDAA199000091AJ100419199999999GF106991001001999999001011IA1279MD1710101+9999REMSYN076AAXX  29031 23933 32997 62304 11086 21119 40117 57010 80001 333 43041 55019;EQDQ01  00002PRCP99
0193239330999992000032906004+60970+069070FM-12+0040USHH V0202301N006019999999N0100001N1-00451-01011101001ADDAA199000091AY131061AY211061GF106991021001999999031011KA1999N-00991MD1710161+9999MW1361REMSYN076AAXX  29061 23933 31997 62306 11045 21101 40100 57016 73631 82031 333 21099;EQDQ01  00002PRCP99
0140239330999992000032909004+60970+069070FM-12+0040USHH V0202301N005019999999N0100001N1-00251-00991100921ADDAY131031AY221031GF107991071001999999031001MD1710071+9999MW1361REMSYN066AAXX  29091 23933 41997 72305 11025 21099 40092 57007 73632 87030;
0161239330999992000032912004+60970+069070FM-12+0040USHH V0202301N004010075019N0100001N1-00191-00851100831ADDAY131061AY221061GF106991051051008001001011MA1999999100241MD1710091+9999MW1361REMSYN072AAXX  29121 23933 41597 62304 11019 21085 30024 40083 57009 73632 85501;
0193239330999992000032915004+60970+069070FM-12+0040USHH V0202101N004010120019N0100001N1-00411-00911100771ADDAA199000091AY131031AY221031GF105991051051012501001001KA1999M-00191MD1710061+9999MW1021REMSYN076AAXX  29151 23933 31697 52104 11041 21091 40077 57006 70232 85500 333 11019;EQDQ01  00002PRCP99
0203239330999992000032918004+60970+069070FM-12+0040USHH V0202101N004012200019N0100001N1-00471-00871100701ADDAA199000091AY131061AY211061GA1001+999999999GF100991001001999999001001KA1999M-00191MD1710071+9999MW1011REMSYN070AAXX  29181 23933 31997 02104 11047 21087 40070 57007 70131 333 11019;EQDQ01  00002PRCP99
0092239330999992000032921004+60970+069070FM-12+0040USHH V0202401N003012200019N0100001N1-00651+99999100801ADDGF103991031051012501001001REMSYN054AAXX  29211 23933 42697 32403 11065 2005/ 40080 83500;
0143239330999992000033000004+60970+069070FM-12+0040USHH V0202401N003012200019N0100001N1-00831-01021100711ADDGA1001+999999999GF100991001001999999001001MA1999999100111MD1410001+9999REMSYN060AAXX  30001 23933 42997 02403 11083 21102 30011 40071 54000;
0181239330999992000033003004+60970+069070FM-12+0040USHH V0202401N002019999999N0100001N1-00731-01161100671ADDAA199000091AJ100419199999999GF105991001001999999001011IA1279MD1710041+9999REMSYN076AAXX  30031 23933 32997 52402 11073 21116 40067 57004 80001 333 43041 55069;EQDQ01  00002PRCP99
0174239330999992000033006004+60970+069070FM-12+0040USHH V0202201N003010300019N0100001N1-00571-00871100601ADDAA199000021AY181061AY211061GF106991031091008001031011KA1999N-00891MD1710071+9999MW1851REMSYN076AAXX  30061 23933 31597 62203 11057 21087 40060 57007 78581 83931 333 21089;
0140239330999992000033009004+60970+069070FM-12+0040USHH V0202401N003010075019N0040001N1-00281-00691100491ADDAY181031AY221031GF106991051091008001001011MD1710101+9999MW1851REMSYN066AAXX  30091 23933 41596 62403 11028 21069 40049 57010 78582 85901;
0161239330999992000033012004+60970+069070FM-12+0040USHH V0202301N003010300019N0100001N1-00331-00721100441ADDAY181061AY221061GF106991031091008001021001MA1999999099851MD1710051+9999MW1851REMSYN072AAXX  30121 23933 41597 62303 11033 21072 39985 40044 57005 78582 83920;
0163239330999992000033015004+60970+069070FM-12+0040USHH V0202501N002019999999N0100001N1-00541-00721100401ADDAY181031AY221031GF106991061001999999031001KA1999M-00281MD1710051+9999MW1021REMSYN076AAXX  30151 23933 /1997 62502 11054 21072 40040 57005 70282 86030 333 11028;
0180239330999992000033018004+60970+069070FM-12+0040USHH V0202301N002012200019N0100001N1-00771-00871100461ADDAA100000791AY181061AY221061GF103991001001999999001011KA1999M-00281MD1310061+9999MW1021REMSYN082AAXX  30181 23933 11997 32302 11077 21087 40046 53006 69900 70282 80001 333 11028;
0140239330999992000033021004+60970+069070FM-12+0040USHH V0202501N001019999999N0005001N1-00931-00991100521ADDAY141031AY211031GF105991051001999999031001MD1210061+9999MW1441REMSYN066AAXX  30211 23933 41993 52501 11093 21099 40052 52006 74441 85030;
0161239330999992000033100004+60970+069070FM-12+0040USHH V0202401N002019999999N0040001N1-01561-01621100541ADDAY141061AY211061GF106991061001999999031001MA1999999099921MD1410001+9999MW1101REMSYN072AAXX  31001 23933 41996 62402 11156 21162 39992 40054 54000 71041 86030;
0151239330999992000033103004+60970+069070FM-12+0040USHH V0200901N002019999999N0100001N1-01411-01471100511ADDAJ100399199999999GF106991061001999999031001IA1279MD1810021+9999REMSYN076AAXX  31031 23933 /2997 60902 11141 21147 40051 58002 86030 333 43039 55070;
0165239330999992000033106004+60970+069070FM-12+0040USHH V0201601N003019999999N0100001N1-00681-00721100341ADDAA199000091GF108991081001999999071999KA1999N-01581MD1710161+9999REMSYN070AAXX  31061 23933 32997 81603 11068 21072 40034 57016 8807/ 333 21158;EQDQ01  00002PRCP99
0112239330999992000033109004+60970+069070FM-12+0040USHH V0201601N003019999999N0100001N1-00111-00461100021ADDGF108991001001999999001081MD1710311+9999REMSYN060AAXX  31091 23933 42997 81603 11011 21046 40002 57031 80008;
0133239330999992000033112004+60970+069070FM-12+0040USHH V0202101N004019999999N0100001N1-00081-00431099781ADDGF108991081001999999071999MA1999999099201MD1710231+9999REMSYN066AAXX  31121 23933 42997 82104 11008 21043 39920 49978 57023 8807/;
0163239330999992000033115004+60970+069070FM-12+0040USHH V0202201N004019999999N0040001N1-00221-00311099521ADDAY171031AY221031GF108991081001999999021999KA1999M-00081MD1710261+9999MW1711REMSYN076AAXX  31151 23933 /1996 82204 11022 21031 49952 57026 77172 8802/ 333 11008;
0159239330999992000033121004+60970+069070FM-12+0040USHH V0202101N005010042019N0020001N1-00021-00051098951ADDAY171031AY231031GF108991999071004501021999MD1710251+9999MW1381REMSYN066AAXX  31211 23933 41495 82105 11002 21005 49895 57025 73873 8872/;EQDQ01+000082SCOTLC
0161239330999992000040100004+60970+069070FM-12+0040USHH V0202401N005010042019N0040001N1+00041-00071098941ADDAY171061AY231061GF108991071071004501021999MA1999999098371MD1410001+9999MW1381REMSYN072AAXX  01001 23933 41496 82405 10004 21007 39837 49894 54000 73873 8772/;
0198239330999992000040103004+60970+069070FM-12+0040USHH V0202701N006010042019N0040001N1+00071-00011099251ADDAJ199999999999999AY181031AY231031GF108991081091004501999999IA1289MD1210301+9999MW1851REMSYN082AAXX  01031 23933 /1496 82706 10007 21001 49925 52030 78583 889// 333 44304 55010;EQDQ01  03042SNDP  
0180239330999992000040106004+60970+069070FM-12+0040USHH V0203001N009010042019N0040001N1-00031-00371099911ADDAA100004191AY181061AY231061GF106991061091004501001001KA1999N-00191MD1210661+9999MW1851REMSYN082AAXX  01061 23933 11496 63009 11003 21037 49991 52066 60040 78583 86900 333 21019;
0140239330999992000040109004+60970+069070FM-12+0040USHH V0202801N008010042019N0100001N1-00391-00801100791ADDAY181031AY221031GF106991061091004501001001MD1210871+9999MW1851REMSYN066AAXX  01091 23933 41497 62808 11039 21080 40079 52087 78582 86900;
0161239330999992000040112004+60970+069070FM-12+0040USHH V0202801N005012200019N0100001N1-00491-01071101401ADDAY181061AY211061GF102991021011008001001001MA1999999100791MD1210591+9999MW1021REMSYN072AAXX  01121 23933 41597 22805 11049 21107 30079 40140 52059 70281 82100;
0145239330999992000040115004+60970+069070FM-12+0040USHH V0202901N004012200019N0100001N1-00821-01281101891ADDGA1001+999999999GF100991001001999999001001KA1999M+00071MD1210491+9999REMSYN064AAXX  01151 23933 /2997 02904 11082 21128 40189 52049 333 10007;
0122239330999992000040121004+60970+069070FM-12+0040USHH V0202301N002012200019N0100001N1-01381-01731102491ADDGA1001+999999999GF100991001001999999001001MD1210211+9999REMSYN054AAXX  01211 23933 42997 02302 11138 21173 40249 52021;
0143239330999992000040200004+60970+069070FM-12+0040USHH V0201101N001012200019N0100001N1-01741-02001102591ADDGA1001+999999999GF100991001001999999001001MA1999999101951MD1210091+9999REMSYN060AAXX  02001 23933 42997 01101 11174 21200 30195 40259 52009;
0180239330999992000040203004+60970+069070FM-12+0040USHH V0201901N004019999999N0100001N1-01101-01541102591ADDAA199000091AJ100409199999999GF107991071001999999031001IA1279MD1210011+9999REMSYN075AAXX  02031 23933 32997 71904 11110 21154 40259 52001 87030 333 43040 5573;EQDQ01  00002PRCP99
0165239330999992000040206004+60970+069070FM-12+0040USHH V0201601N003019999999N0100001N1-00531-01171102251ADDAA199000091GF108991081001999999021999KA1999N-01901MD1810321+9999REMSYN070AAXX  02061 23933 32997 81603 11053 21117 40225 58032 8802/ 333 21190;EQDQ01  00002PRCP99
0140239330999992000040209004+60970+069070FM-12+0040USHH V0201601N005019999999N0100001N1-00191-00851101791ADDAY131031AY221031GF107991071001999999031001MD1710451+9999MW1381REMSYN066AAXX  02091 23933 41997 71605 11019 21085 40179 57045 73832 87030;
0161239330999992000040212004+60970+069070FM-12+0040USHH V0202001N005019999999N0100001N1+00201-00601101501ADDAY131061AY221061GF106991021001999999031011MA1999999100911MD1710281+9999MW1381REMSYN072AAXX  02121 23933 41997 62005 10020 21060 30091 40150 57028 73832 82031;
0165239330999992000040215004+60970+069070FM-12+0040USHH V0202101N004019999999N0100001N1+00211-00291101271ADDAA199000091GF108991001001999999001081KA1999M+00211MD1710231+9999REMSYN070AAXX  02151 23933 31997 82104 10021 21029 40127 57023 80008 333 10021;EQDQ01  00002PRCP99
0193239330999992000040218004+60970+069070FM-12+0040USHH V0202401N004019999999N0100001N1+00151-00231101081ADDAA199000091AY131061AY221061GF108991001001999999001081KA1999M+00211MD1710191+9999MW1021REMSYN076AAXX  02181 23933 31997 82404 10015 21023 40108 57019 70232 80008 333 10021;EQDQ01  00002PRCP99
0112239330999992000040221004+60970+069070FM-12+0040USHH V0202001N004019999999N0100001N1+00251-00051100881ADDGF108991081001999999021999MD1710191+9999REMSYN060AAXX  02211 23933 42997 82004 10025 21005 40088 57019 8802/;
0133239330999992000040300004+60970+069070FM-12+0040USHH V0202001N004019999999N0100001N1+00271-00031100721ADDGF108991081001999999021999MA1999999100141MD1710161+9999REMSYN066AAXX  03001 23933 42997 82004 10027 21003 30014 40072 57016 8802/;
0179239330999992000040303004+60970+069070FM-12+0040USHH V0202201N004010120019N0100001N1+00281+00011100651ADDAJ100409199999999AY171031AY221031GF107991071051012501001001IA1279MD1710071+9999MW1021REMSYN082AAXX  03031 23933 /1697 72204 10028 20001 40065 57007 70272 87500 333 43040 55037;
0163239330999992000040306004+60970+069070FM-12+0040USHH V0202301N006012200019N0100001N1+00471-00131100611ADDAY171061AY211061GF102991011011004501031001KA1999N+00141MD1710041+9999MW1021REMSYN076AAXX  03061 23933 11497 22306 10047 21013 40061 57004 70271 81130 333 20014;
0112239330999992000040309004+60970+069070FM-12+0040USHH V0202501N005010300019N0100001N1+00571-00071100601ADDGF106991041011008001031011MD1310011+9999REMSYN060AAXX  03091 23933 42597 62505 10057 21007 40060 53001 84131;
0133239330999992000040312004+60970+069070FM-12+0040USHH V0202601N005012200019N0100001N1+00511-00431100861ADDGF102991001001999999001011MA1999999100281MD1210241+9999REMSYN066AAXX  03121 23933 42997 22605 10051 21043 30028 40086 52024 80001;
0175239330999992000040315004+60970+069070FM-12+0040USHH V0203001N004012200019N0100001N1+00441-00751101251ADDAA199000091GA1001+999999999GF100991001001999999001001KA1999M+00571MD1210381+9999REMSYN064AAXX  03151 23933 32997 03004 10044 21075 40125 52038 333 10057;EQDQ01  00002PRCP99
0198239330999992000040318004+60970+069070FM-12+0040USHH V0202901N006012200019N0100001N1-00311-01031101661ADDAA199000091GA1001+999999999GF100991001001999999001001KA1120M+00571MD1210401+9999OA140101301REMSYN076AAXX  03181 23933 32997 02906 11031 21103 40166 52040 333 10057 91013 91113;EQDQ01  00002PRCP99
0122239330999992000040321004+60970+069070FM-12+0040USHH V0202901N006012200019N0100001N1-00641-01241102091ADDGA1001+999999999GF100991001001999999001001MD1210421+9999REMSYN054AAXX  03211 23933 42997 02906 11064 21124 40209 52042;
0153239330999992000040400004+60970+069070FM-12+0040USHH V0202901N005012200019N0100001N1-00991-01461102601ADDGA1001+999999999GF100991001001999999001001MA1999999101971MD1210491+9999REMSYN070AAXX  04001 23933 42997 02905 11099 21146 30197 40260 52049 333 91112;
0191239330999992000040403004+60970+069070FM-12+0040USHH V0203001N002012200019N0100001N1-00981-01281102971ADDAA199000091AJ100339199999999GA1001+999999999GF100991001001999999001001IA1279MD1210371+9999REMSYN070AAXX  04031 23933 32997 03002 11098 21128 40297 52037 333 43033 55093;EQDQ01  00002PRCP99
0165239330999992000040406004+60970+069070FM-12+0040USHH V0202401N003019999999N0100001N1-00761-01361103331ADDAA199000091GF108991001001999999001011KA1999N-01001MD1210371+9999REMSYN070AAXX  04061 23933 32997 82403 11076 21136 40333 52037 80001 333 21100;EQDQ01  00002PRCP99
0112239330999992000040409004+60970+069070FM-12+0040USHH V0200901N003019999999N0100001N1-00541-01241103511ADDGF108991001001999999001031MD1210191+9999REMSYN060AAXX  04091 23933 42997 80903 11054 21124 40351 52019 80003;
0133239330999992000040412004+60970+069070FM-12+0040USHH V0200801N002019999999N0100001N1-00611-01201103471ADDGF108991001001999999001031MA1999999102861MD1810041+9999REMSYN066AAXX  04121 23933 42997 80802 11061 21120 30286 40347 58004 80003;
0165239330999992000040415004+60970+069070FM-12+0040USHH V0201201N002019999999N0100001N1-00611-00961103311ADDAA199000091GF108991001001999999001071KA1999M-00521MD1710171+9999REMSYN070AAXX  04151 23933 32997 81202 11061 21096 40331 57017 80007 333 11052;EQDQ01  00002PRCP99
0165239330999992000040418004+60970+069070FM-12+0040USHH V0202201N004019999999N0100001N1-00581-01061103041ADDAA199000091GF108991081001999999021999KA1999M-00521MD1710271+9999REMSYN070AAXX  04181 23933 32997 82204 11058 21106 40304 57027 8802/ 333 11052;EQDQ01  00002PRCP99
0140239330999992000040421004+60970+069070FM-12+0040USHH V0201301N005019999999N0100001N1-00641-00681102591ADDAY171031AY231031GF108991081001999999021999MD1710441+9999MW1711REMSYN066AAXX  04211 23933 41997 81305 11064 21068 40259 57044 77173 8802/;
0161239330999992000040500004+60970+069070FM-12+0040USHH V0201201N007019999999N0020001N1-00581-00621102041ADDAY171061AY231061GF108991081001999999021999MA1999999101431MD1710551+9999MW1711REMSYN072AAXX  05001 23933 41995 81207 11058 21062 30143 40204 57055 77173 8802/;
0179239330999992000040503004+60970+069070FM-12+0040USHH V0201401N004010042019N0100001N1-00321-00391101711ADDAJ100359199999999AY171031AY231031GF108991081021004501999999IA1279MD1710321+9999MW1221REMSYN082AAXX  05031 23933 /1497 81404 11032 21039 40171 57032 72273 882// 333 43035 55092;
0180239330999992000040506004+60970+069070FM-12+0040USHH V0202001N003010042019N0100001N1+00051-00121101491ADDAA100002091AY181061AY271061GF108991081091004501999999KA1999N-00651MD1710211+9999MW1801REMSYN082AAXX  05061 23933 11497 82003 10005 21012 40149 57021 60020 78087 889// 333 21065;
0140239330999992000040509004+60970+069070FM-12+0040USHH V0201301N002019999999N0100001N1+00431+00121101371ADDAY181031AY221031GF108991081001999999031999MD1710121+9999MW1021REMSYN066AAXX  05091 23933 41997 81302 10043 20012 40137 57012 70282 8803/;
0163239330999992000040515004+60970+069070FM-12+0040USHH V0203301N004010042019N0040001N1-00541-00611101591ADDAY171031AY231031GF108991051071004501021999KA1999M+00431MD1310221+9999MW1711REMSYN076AAXX  05151 23933 /1496 83304 11054 21061 40159 53022 77173 8572/ 333 10043;
0180239330999992000040518004+60970+069070FM-12+0040USHH V0203301N004010042019N0100001N1-00771-01171101971ADDAA100005191AY171061AY231061GF108991071071004501021999KA1999M+00431MD1210381+9999MW1381REMSYN082AAXX  05181 23933 11497 83304 11077 21117 40197 52038 60050 73873 8772/ 333 10043;
0150239330999992000040521004+60970+069070FM-12+0040USHH V0203501N002012200019N0100001N1-01111-01401102331ADDAY131031AY211031GA1001+999999999GF100991001001999999001001MD1210341+9999MW1011REMSYN060AAXX  05211 23933 41997 03502 11111 21140 40233 52034 70131;
0171239330999992000040600004+60970+069070FM-12+0040USHH V0203601N002012200019N0100001N1-01271-01371102631ADDAY131061AY211061GA1001+999999999GF100991001001999999001001MA1999999102001MD1210301+9999MW1021REMSYN066AAXX  06001 23933 41997 03602 11127 21137 30200 40263 52030 70231;
0151239330999992000040603004+60970+069070FM-12+0040USHH V0203501N002012200019N0100001N1-01251-01381103011ADDAJ100359199999999GF102991001001999999001011IA1279MD1210381+9999REMSYN076AAXX  06031 23933 /2997 23502 11125 21138 40301 52038 80001 333 43035 55005;
0152239330999992000040606004+60970+069070FM-12+0040USHH V0200201N002019999999N0100001N1-00781-01051103261ADDAA100000891GF106991061001999999031001KA1999N-01311MD1210261+9999REMSYN076AAXX  06061 23933 12997 60202 11078 21105 40326 52026 69980 86030 333 21131;
0133239330999992000040612004+60970+069070FM-12+0040USHH V0200501N002019999999N0100001N1-00391-00841103391ADDGF106991001001999999001011MA1999999102781MD1810071+9999REMSYN066AAXX  06121 23933 42997 60502 11039 21084 30278 40339 58007 80001;
0165239330999992000040615004+60970+069070FM-12+0040USHH V0200401N001019999999N0100001N1-00641-01101103401ADDAA199000091GF108991001001999999001011KA1999M-00391MD1410001+9999REMSYN070AAXX  06151 23933 32997 80401 11064 21110 40340 54000 80001 333 11039;EQDQ01  00002PRCP99
0175239330999992000040618004+60970+069070FM-12+0040USHH V0201201N001012200019N0100001N1-00911-01211103401ADDAA199000091GA1001+999999999GF100991001001999999001001KA1999M-00391MD1410001+9999REMSYN064AAXX  06181 23933 32997 01201 11091 21121 40340 54000 333 11039;EQDQ01  00002PRCP99
0122239330999992000040621004+60970+069070FM-12+0040USHH V0201201N002012200019N0100001N1-01111-01461103331ADDGA1001+999999999GF100991001001999999001001MD1810081+9999REMSYN054AAXX  06211 23933 42997 01202 11111 21146 40333 58008;
0133239330999992000040700004+60970+069070FM-12+0040USHH V0201101N002012200019N0100001N1-00861-01191103231ADDGF102991001001999999001011MA1999999102611MD1710091+9999REMSYN066AAXX  07001 23933 42997 21102 11086 21119 30261 40323 57009 80001;
0181239330999992000040703004+60970+069070FM-12+0040USHH V0202101N003012200019N0100001N1-00601-01041103181ADDAA199000091AJ100359199999999GF102991001001999999001011IA1279MD1710051+9999REMSYN076AAXX  07031 23933 32997 22103 11060 21104 40318 57005 80001 333 43035 55114;EQDQ01  00002PRCP99
0165239330999992000040706004+60970+069070FM-12+0040USHH V0202201N006019999999N0100001N1-00141-00741103031ADDAA199000091GF106991001001999999001011KA1999N-01131MD1710141+9999REMSYN070AAXX  07061 23933 32997 62206 11014 21074 40303 57014 80001 333 21113;EQDQ01  00002PRCP99
0133239330999992000040712004+60970+069070FM-12+0040USHH V0202001N005012200019N0100001N1+00391-00451102501ADDGF102991001001999999001011MA1999999101921MD1710301+9999REMSYN066AAXX  07121 23933 42997 22005 10039 21045 30192 40250 57030 80001;
0175239330999992000040715004+60970+069070FM-12+0040USHH V0202101N005012200019N0100001N1+00231-00601102431ADDAA199000091GA1001+999999999GF100991001001999999001001KA1999M+00471MD1710081+9999REMSYN064AAXX  07151 23933 32997 02105 10023 21060 40243 57008 333 10047;EQDQ01  00002PRCP99
0203239330999992000040718004+60970+069070FM-12+0040USHH V0202101N006012200019N0100001N1+00151-00511102341ADDAA199000091AY131061AY201061GA1001+999999999GF100991001001999999001001KA1999M+00471MD1710081+9999MW1381REMSYN070AAXX  07181 23933 31997 02106 10015 21051 40234 57008 73830 333 10047;EQDQ01  00002PRCP99
0150239330999992000040721004+60970+069070FM-12+0040USHH V0202201N006012200019N0100001N1+00101-00461102291ADDAY131031AY201031GA1001+999999999GF100991001001999999001001MD1710061+9999MW1381REMSYN060AAXX  07211 23933 41997 02206 10010 21046 40229 57006 73830;
0171239330999992000040800004+60970+069070FM-12+0040USHH V0202201N006012200019N0100001N1-00011-00441102241ADDAY131061AY201061GA1001+999999999GF100991001001999999001001MA1999999101641MD1710061+9999MW1381REMSYN066AAXX  08001 23933 41997 02206 11001 21044 30164 40224 57006 73830;
0219239330999992000040803004+60970+069070FM-12+0040USHH V0202201N004012200019N0100001N1+00061-00411102101ADDAA199000091AJ100349199999999AY131031AY201031GA1001+999999999GF100991001001999999001001IA1279MD1710131+9999MW1021REMSYN076AAXX  08031 23933 31997 02204 10006 21041 40210 57013 70230 333 43034 55127;EQDQ01  00002PRCP99
0175239330999992000040806004+60970+069070FM-12+0040USHH V0202401N005012200019N0100001N1+00421-00131102081ADDAA199000091GA1001+999999999GF100991001001999999001001KA1999N-00071MD1710011+9999REMSYN064AAXX  08061 23933 32997 02405 10042 21013 40208 57001 333 21007;EQDQ01  00002PRCP99
0122239330999992000040809004+60970+069070FM-12+0040USHH V0202301N004012200019N0100001N1+00711-00171101921ADDGA1001+999999999GF100991001001999999001001MD1710151+9999REMSYN054AAXX  08091 23933 42997 02304 10071 21017 40192 57015;
0143239330999992000040812004+60970+069070FM-12+0040USHH V0202401N004012200019N0100001N1+00701-00091101791ADDGA1001+999999999GF100991001001999999001001MA1999999101221MD1710131+9999REMSYN060AAXX  08121 23933 42997 02404 10070 21009 30122 40179 57013;
0175239330999992000040815004+60970+069070FM-12+0040USHH V0202201N005012200019N0100001N1+00491-00241101691ADDAA199000091GA1001+999999999GF100991001001999999001001KA1999M+00801MD1710101+9999REMSYN064AAXX  08151 23933 32997 02205 10049 21024 40169 57010 333 10080;EQDQ01  00002PRCP99
0175239330999992000040818004+60970+069070FM-12+0040USHH V0202401N003012200019N0100001N1+00321-00251101601ADDAA199000091GA1001+999999999GF100991001001999999001001KA1999M+00801MD1710111+9999REMSYN064AAXX  08181 23933 32997 02403 10032 21025 40160 57011 333 10080;EQDQ01  00002PRCP99
0112239330999992000040821004+60970+069070FM-12+0040USHH V0201901N002019999999N0100001N1+00061-00081101581ADDGF106991061051999999001001MD1710021+9999REMSYN060AAXX  08211 23933 42997 61902 10006 21008 40158 57002 86500;
0161239330999992000040900004+60970+069070FM-12+0040USHH V0201701N003010042019N0100001N1+00061-00051101621ADDAY181061AY211061GF108991061031004501071999MA1999999101031MD1310041+9999MW1851REMSYN072AAXX  09001 23933 41497 81703 10006 21005 30103 40162 53004 78581 8637/;
0179239330999992000040903004+60970+069070FM-12+0040USHH V0203601N004010042019N0100001N1-00301-00431101801ADDAJ100269199999999AY181031AY271031GF108991051071004501071999IA1239MD1210171+9999MW1711REMSYN082AAXX  09031 23933 /1497 83604 11030 21043 40180 52017 77187 8577/ 333 47026 55128;
0180239330999992000040906004+60970+069070FM-12+0040USHH V0200401N004010300019N0100001N1-00251-00471102001ADDAA100000391AY171061AY221061GF108991021071004501021999KA1999N-00301MD1210201+9999MW1021REMSYN082AAXX  09061 23933 11497 80404 11025 21047 40200 52020 69930 70272 8272/ 333 21030;
0112239330999992000040909004+60970+069070FM-12+0040USHH V0200301N004019999999N0100001N1-00241-00531102251ADDGF106991011001999999031011MD1210251+9999REMSYN060AAXX  09091 23933 42997 60304 11024 21053 40225 52025 81031;
0143239330999992000040912004+60970+069070FM-12+0040USHH V0200201N003012200019N0100001N1-00241-01271102461ADDGA1001+999999999GF100991001001999999001001MA1999999101861MD1210211+9999REMSYN060AAXX  09121 23933 42997 00203 11024 21127 30186 40246 52021;
0145239330999992000040915004+60970+069070FM-12+0040USHH V0203301N001012200019N0100001N1-00531-01391102641ADDGA1001+999999999GF100991001001999999001001KA1999M-00241MD1210181+9999REMSYN064AAXX  09151 23933 /2997 03301 11053 21139 40264 52018 333 11024;
0162239330999992000040918004+60970+069070FM-12+0040USHH V0209999C000012200019N0100001N1-00791-01401102701ADDAA100000791GA1001+999999999GF100991001001999999001001KA1999M-00241MD1210051+9999REMSYN070AAXX  09181 23933 12997 00000 11079 21140 40270 52005 69900 333 11024;
0122239330999992000040921004+60970+069070FM-12+0040USHH V0202601N002012200019N0100001N1-00691-01481102701ADDGA1001+999999999GF100991001001999999001001MD1410001+9999REMSYN054AAXX  09211 23933 42997 02602 11069 21148 40270 54000;
0143239330999992000041000004+60970+069070FM-12+0040USHH V0202601N002012200019N0100001N1-00671-01511102731ADDGA1001+999999999GF100991001001999999001001MA1999999102121MD1310031+9999REMSYN060AAXX  10001 23933 42997 02602 11067 21151 30212 40273 53003;
0181239330999992000041003004+60970+069070FM-12+0040USHH V0203001N002012200019N0100001N1-00541-01351102741ADDAA199000091AJ100279199999999GF102991001001999999001011IA1279MD1210011+9999REMSYN076AAXX  10031 23933 32997 23002 11054 21135 40274 52001 80001 333 43027 55055;EQDQ01  00002PRCP99
0137239330999992000041006004+60970+069070FM-12+0040USHH V0202401N002019999999N0100001N1+00071-01091102681ADDAA199000091GF105991999999999999999999REMSYN069AAXX  10061 23933 32997 52402 10007 21109 40268 5804 80001 333 21083;EQDQ01  00002PRCP99
0112239330999992000041009004+60970+069070FM-12+0040USHH V0202301N005019999999N0100001N1+00331-01001102581ADDGF106991001001999999001021MD1710101+9999REMSYN060AAXX  10091 23933 42997 62305 10033 21100 40258 57010 80002;
0133239330999992000041012004+60970+069070FM-12+0040USHH V0202101N006012200019N0100001N1-00341-01051102471ADDGF102991001001999999001011MA1999999101881MD1710111+9999REMSYN066AAXX  10121 23933 42997 22106 11034 21105 30188 40247 57011 80001;
0175239330999992000041015004+60970+069070FM-12+0040USHH V0202401N003012200019N0100001N1+00221-00931102331ADDAA199000091GA1001+999999999GF100991001001999999001001KA1999M+00381MD1710141+9999REMSYN064AAXX  10151 23933 32997 02403 10022 21093 40233 57014 333 10038;EQDQ01  00002PRCP99
0175239330999992000041018004+60970+069070FM-12+0040USHH V0202301N003012200019N0100001N1+00081-00971102281ADDAA199000091GA1001+999999999GF100991001001999999001001KA1999M+00381MD1710051+9999REMSYN064AAXX  10181 23933 32997 02303 10008 21097 40228 57005 333 10038;EQDQ01  00002PRCP99
0122239330999992000041021004+60970+069070FM-12+0040USHH V0202301N004012200019N0100001N1+00011-01091102261ADDGA1001+999999999GF100991001001999999001001MD1710031+9999REMSYN054AAXX  10211 23933 42997 02304 10001 21109 40226 57003;
0143239330999992000041100004+60970+069070FM-12+0040USHH V0202301N003012200019N0100001N1-00121-01161102251ADDGA1001+999999999GF100991001001999999001001MA1999999101651MD1710011+9999REMSYN060AAXX  11001 23933 42997 02303 11012 21116 30165 40225 57001;
0181239330999992000041103004+60970+069070FM-12+0040USHH V0202401N006019999999N0100001N1-00071-01121102251ADDAA199000091AJ100269199999999GF107991001001999999001021IA1279MD1410001+9999REMSYN076AAXX  11031 23933 32997 72406 11007 21112 40225 54000 80002 333 43026 55131;EQDQ01  00002PRCP99
0203239330999992000041106004+60970+069070FM-12+0040USHH V0202201N004019999999N0100001N1+00311-00811102261ADDAA199000091GA1999+000159999GF105991001001999999001021KA1120N-00151MD1310021+9999REMSYN076AAXX  11061 23933 32997 52204 10031 21081 40226 53002 80002 333 21015 80008;EQDQ01  00002PRCP99Q02    003SCCGA1
0112239330999992000041109004+60970+069070FM-12+0040USHH V0202101N005012200019N0100001N1+00651-00711102251ADDGF102991001001999999001011MD1410001+9999REMSYN060AAXX  11091 23933 42997 22105 10065 21071 40225 54000 80001;
0133239330999992000041112004+60970+069070FM-12+0040USHH V0202101N006012200019N0100001N1+00661-00601102221ADDGF102991001001999999001011MA1999999101641MD1810031+9999REMSYN066AAXX  11121 23933 42997 22106 10066 21060 30164 40222 58003 80001;
0165239330999992000041115004+60970+069070FM-12+0040USHH V0202101N003012200019N0100001N1+00411-00541102141ADDAA199000091GF103991001001999999001011KA1999M+00701MD1710091+9999REMSYN070AAXX  11151 23933 32997 32103 10041 21054 40214 57009 80001 333 10070;EQDQ01  00002PRCP99
0175239330999992000041118004+60970+069070FM-12+0040USHH V0202401N005012200019N0100001N1+00281-00571102101ADDAA199000091GA1001+999999999GF100991001001999999001001KA1999M+00701MD1710041+9999REMSYN064AAXX  11181 23933 32997 02405 10028 21057 40210 57004 333 10070;EQDQ01  00002PRCP99
0122239330999992000041121004+60970+069070FM-12+0040USHH V0202201N005012200019N0100001N1+00191-00661102081ADDGA1001+999999999GF100991001001999999001001MD1710021+9999REMSYN054AAXX  11211 23933 42997 02205 10019 21066 40208 57002;
0143239330999992000041200004+60970+069070FM-12+0040USHH V0202301N004012200019N0100001N1+00101-00661102041ADDGA1001+999999999GF100991001001999999001001MA1999999101451MD1710041+9999REMSYN060AAXX  12001 23933 42997 02304 10010 21066 30145 40204 57004;
0181239330999992000041203004+60970+069070FM-12+0040USHH V0202201N004019999999N0100001N1+00191-00541102021ADDAA199000091AJ100209199999999GF106991001001999999001021IA1279MD1710021+9999REMSYN076AAXX  12031 23933 32997 62204 10019 21054 40202 57002 80002 333 43020 55124;EQDQ01  00002PRCP99
0165239330999992000041206004+60970+069070FM-12+0040USHH V0202001N002019999999N0100001N1+00601-00451101961ADDAA199000091GF108991001001999999001021KA1999N+00091MD1710041+9999REMSYN070AAXX  12061 23933 32997 82002 10060 21045 40196 57004 80002 333 20009;EQDQ01  00002PRCP99
0112239330999992000041209004+60970+069070FM-12+0040USHH V0201501N002019999999N0100001N1+00831-00381101881ADDGF108991001001999999001021MD1710081+9999REMSYN060AAXX  12091 23933 42997 81502 10083 21038 40188 57008 80002;
0133239330999992000041212004+60970+069070FM-12+0040USHH V0201501N002019999999N0100001N1+00761-00331101721ADDGF108991051001999999031021MA1999999101151MD1710161+9999REMSYN066AAXX  12121 23933 42997 81502 10076 21033 30115 40172 57016 85032;
0165239330999992000041215004+60970+069070FM-12+0040USHH V0201601N002019999999N0100001N1+00571-00531101651ADDAA199000091GF108991061001999999031021KA1999M+00891MD1710071+9999REMSYN070AAXX  12151 23933 32997 81602 10057 21053 40165 57007 86032 333 10089;EQDQ01  00002PRCP99
0165239330999992000041218004+60970+069070FM-12+0040USHH V0201801N001019999999N0100001N1+00401-00591101511ADDAA199000091GF108991081001999999071999KA1999M+00891MD1710161+9999REMSYN070AAXX  12181 23933 32997 81801 10040 21059 40151 57016 8807/ 333 10089;EQDQ01  00002PRCP99
0112239330999992000041221004+60970+069070FM-12+0040USHH V0200701N002010075019N0100001N1+00131-00221101381ADDGF108991081051008001999999MD1710131+9999REMSYN060AAXX  12211 23933 42597 80702 10013 21022 40138 57013 885//;
0133239330999992000041300004+60970+069070FM-12+0040USHH V0200901N001010075019N0100001N1+00121-00171101271ADDGF108991061051008001071999MA1999999100681MD1710011+9999REMSYN066AAXX  13001 23933 42597 80901 10012 21017 30068 40127 57001 8657/;
0181239330999992000041303004+60970+069070FM-12+0040USHH V0201201N002010300019N0100001N1+00251-00141101211ADDAA199000091AJ100149199999999GF108991021051008001021999IA1279MD1710061+9999REMSYN076AAXX  13031 23933 32597 81202 10025 21014 40121 57006 8252/ 333 43014 55083;EQDQ01  00002PRCP99
0165239330999992000041306004+60970+069070FM-12+0040USHH V0200301N002019999999N0100001N1+00501-00221101201ADDAA199000091GF108991081001999999071999KA1999N+00091MD1710011+9999REMSYN070AAXX  13061 23933 32997 80302 10050 21022 40120 57001 8807/ 333 20009;EQDQ01  00002PRCP99
0112239330999992000041309004+60970+069070FM-12+0040USHH V0200301N002019999999N0100001N1+00651-00261101111ADDGF106991061001999999031001MD1710071+9999REMSYN060AAXX  13091 23933 42997 60302 10065 21026 40111 57007 86030;
0133239330999992000041312004+60970+069070FM-12+0040USHH V0200401N002019999999N0100001N1+00601-00221101041ADDGF106991061001999999031001MA1999999100471MD1710071+9999REMSYN066AAXX  13121 23933 42997 60402 10060 21022 30047 40104 57007 86030;
0165239330999992000041315004+60970+069070FM-12+0040USHH V0200901N001019999999N0100001N1+00401-00121101061ADDAA199000091GF107991071001999999031001KA1999M+00721MD1410001+9999REMSYN070AAXX  13151 23933 32997 70901 10040 21012 40106 54000 87030 333 10072;EQDQ01  00002PRCP99
0174239330999992000041318004+60970+069070FM-12+0040USHH V0200901N001019999999N0100001N1+00371-00031101061ADDAA199000021AY161061AY221061GF108991081001999999071999KA1999M+00721MD1410001+9999MW1211REMSYN076AAXX  13181 23933 31997 80901 10037 21003 40106 54000 72162 8807/ 333 10072;
0140239330999992000041321004+60970+069070FM-12+0040USHH V0201201N001019999999N0100001N1+00261+00161101041ADDAY161031AY221031GF108991081001999999021999MD1710021+9999MW1021REMSYN066AAXX  13211 23933 41997 81201 10026 20016 40104 57002 70262 8802/;
0161239330999992000041400004+60970+069070FM-12+0040USHH V0209999C000019999999N0100001N1+00171+00131100971ADDAY161061AY221061GF108991081051999999999999MA1999999100381MD1710071+9999MW1021REMSYN072AAXX  14001 23933 41997 80000 10017 20013 30038 40097 57007 70262 885//;
0151239330999992000041403004+60970+069070FM-12+0040USHH V0200301N002010120019N0100001N1+00231+00131100941ADDAJ100109199999999GF108991061051012501051999IA1279MD1710021+9999REMSYN076AAXX  14031 23933 /2697 80302 10023 20013 40094 57002 8655/ 333 43010 55027;
0180239330999992000041406004+60970+069070FM-12+0040USHH V0200301N002010120019N0100001N1+00331+00091100971ADDAA100000591AY161061AY221061GF108991061051012501021999KA1999N+00171MD1310031+9999MW1211REMSYN082AAXX  14061 23933 11697 80302 10033 20009 40097 53003 69940 72162 8652/ 333 20017;
0112239330999992000041409004+60970+069070FM-12+0040USHH V0200201N003019999999N0100001N1+00361+00041100941ADDGF108991081001999999071999MD1810031+9999REMSYN060AAXX  14091 23933 42997 80203 10036 20004 40094 58003 8807/;
0163239330999992000041415004+60970+069070FM-12+0040USHH V0200301N001019999999N0100001N1+00211+00181101021ADDAY161031AY221031GF108991081001999999071999KA1999M+00421MD1310071+9999MW1611REMSYN076AAXX  14151 23933 /1997 80301 10021 20018 40102 53007 76162 8807/ 333 10042;
0180239330999992000041418004+60970+069070FM-12+0040USHH V0209999C000019999999N0100001N1+00161+00131101051ADDAA100001091AY161061AY221061GF108991081001999999021999KA1999M+00421MD1210031+9999MW1021REMSYN082AAXX  14181 23933 11997 80000 10016 20013 40105 52003 69990 70262 8802/ 333 10042;
0140239330999992000041421004+60970+069070FM-12+0040USHH V0200201N001019999999N0100001N1+00171+00171101061ADDAY161031AY221031GF108991081001999999071999MD1210011+9999MW1611REMSYN066AAXX  14211 23933 41997 80201 10017 20017 40106 52001 76162 8807/;
0161239330999992000041500004+60970+069070FM-12+0040USHH V0200301N001019999999N0100001N1+00121+00121101141ADDAY161061AY221061GF108991081001999999071999MA1999999100551MD1210081+9999MW1611REMSYN072AAXX  15001 23933 41997 80301 10012 20012 30055 40114 52008 76162 8807/;
0179239330999992000041503004+60970+069070FM-12+0040USHH V0200101N001019999999N0100001N1+00171+00141101261ADDAJ100079199999999AY161031AY221031GF108991081001999999071999IA1239MD1210121+9999MW1021REMSYN082AAXX  15031 23933 /1997 80101 10017 20014 40126 52012 70262 8807/ 333 47007 55000;
0112239330999992000041509004+60970+069070FM-12+0040USHH V0203301N002019999999N0100001N1+00591+00141101481ADDGF107991071001999999031001MD1210111+9999REMSYN060AAXX  15091 23933 42997 73302 10059 20014 40148 52011 87030;
0133239330999992000041512004+60970+069070FM-12+0040USHH V0200301N003012200019N0100001N1+00711+00091101541ADDGF104991021051008001031001MA1999999100971MD1210051+9999REMSYN066AAXX  15121 23933 42597 40303 10071 20009 30097 40154 52005 82530;
0165239330999992000041515004+60970+069070FM-12+0040USHH V0209999C000012200019N0100001N1+00461+00071101591ADDAA199000091GF102991001001999999001011KA1999M+00761MD1210031+9999REMSYN070AAXX  15151 23933 32997 20000 10046 20007 40159 52003 80001 333 10076;EQDQ01  00002PRCP99
0165239330999992000041518004+60970+069070FM-12+0040USHH V0202101N001012200019N0100001N1+00081+00081101411ADDAA199000091GF103991001001999999001011KA1999M+00761MD1810181+9999REMSYN070AAXX  15181 23933 32997 32101 10008 20008 40141 58018 80001 333 10076;EQDQ01  00002PRCP99
0112239330999992000041521004+60970+069070FM-12+0040USHH V0202001N001019999999N0100001N1+00051+00051101601ADDGF106991001001999999001011MD1810011+9999REMSYN060AAXX  15211 23933 42997 62001 10005 20005 40160 58001 80001;
0133239330999992000041600004+60970+069070FM-12+0040USHH V0202101N006019999999N0100001N1+00401+00201101501ADDGF108991061001999999071011MA1999999100911MD1710101+9999REMSYN066AAXX  16001 23933 42997 82106 10040 20020 30091 40150 57010 86071;
0181239330999992000041603004+60970+069070FM-12+0040USHH V0202401N004019999999N0100001N1+00461-00021101391ADDAA199000091AJ100009199999999GF108991001001999999001021IA1279MD1710111+9999REMSYN076AAXX  16031 23933 32997 82404 10046 21002 40139 57011 80002 333 43000 50057;EQDQ01  00002PRCP99
0165239330999992000041606004+60970+069070FM-12+0040USHH V0202701N003019999999N0100001N1+00891+00021101391ADDAA199000091GF108991001001999999001011KA1999N+00031MD1310021+9999REMSYN070AAXX  16061 23933 32997 82703 10089 20002 40139 53002 80001 333 20003;EQDQ01  00002PRCP99
0112239330999992000041609004+60970+069070FM-12+0040USHH V0202101N003019999999N0100001N1+01221+00061101391ADDGF108991001001999999001011MD1210011+9999REMSYN060AAXX  16091 23933 42997 82103 10122 20006 40139 52001 80001;
0133239330999992000041612004+60970+069070FM-12+0040USHH V0202201N005019999999N0100001N1+01221-00021101321ADDGF108991001001999999001011MA1999999100761MD1810071+9999REMSYN066AAXX  16121 23933 42997 82205 10122 21002 30076 40132 58007 80001;
0165239330999992000041615004+60970+069070FM-12+0040USHH V0202101N005019999999N0100001N1+00981+00041101231ADDAA199000091GF108991051001999999031021KA1999M+01321MD1710101+9999REMSYN070AAXX  16151 23933 32997 82105 10098 20004 40123 57010 85032 333 10132;EQDQ01  00002PRCP99
0165239330999992000041618004+60970+069070FM-12+0040USHH V0202201N005010075019N0100001N1+00951+00211101111ADDAA199000091GF107991071051008001001001KA1999M+01321MD1710121+9999REMSYN070AAXX  16181 23933 32597 72205 10095 20021 40111 57012 87500 333 10132;EQDQ01  00002PRCP99
0112239330999992000041621004+60970+069070FM-12+0040USHH V0202401N005019999999N0100001N1+00901+00171101011ADDGF108991001001999999001071MD1710101+9999REMSYN060AAXX  16211 23933 42997 82405 10090 20017 40101 57010 80007;
0174239330999992000041700004+60970+069070FM-12+0040USHH V0202101N004019999999N0100001N1+00711+00151100991ADDAY131061AY221061GF108991081001999999021999MA1999999100421MD1710021+9999REMSYN072AAXX  17001 23933 41997 82104 10071 20015 30042 40099 57002 73632 8802/;EQDQ01+000362PRSWM1
0179239330999992000041703004+60970+069070FM-12+0040USHH V0200801N003010075019N0100001N1+00551+00531101161ADDAJ100009199999999AY181031AY261031GF108991061031008001071999IA1259MD1310171+9999MW1801REMSYN082AAXX  17031 23933 /1597 80803 10055 20053 40116 53017 78086 8637/ 333 41000 55097;
0180239330999992000041706004+60970+069070FM-12+0040USHH V0202601N004012200019N0100001N1+00741+00231101351ADDAA100000591AY181061AY211061GF102991021001999999081001KA1999N+00541MD1210191+9999MW1021REMSYN082AAXX  17061 23933 11997 22604 10074 20023 40135 52019 69940 70281 82080 333 20054;
0112239330999992000041709004+60970+069070FM-12+0040USHH V0202801N004010075019N0100001N1+00851-00051101681ADDGF106991051051008001001011MD1210331+9999REMSYN060AAXX  17091 23933 42597 62804 10085 21005 40168 52033 85501;
0133239330999992000041712004+60970+069070FM-12+0040USHH V0202801N003010075019N0100001N1+00781-00171101781ADDGF108991081051008001999999MA1999999101211MD1210101+9999REMSYN066AAXX  17121 23933 42597 82803 10078 21017 30121 40178 52010 885//;
0135239330999992000041715004+60970+069070FM-12+0040USHH V0203001N003019999999N0100001N1+00321-00131102011ADDGF108991081001999999051999KA1999M+00881MD1210221+9999REMSYN070AAXX  17151 23933 /2997 83003 10032 21013 40201 52022 8805/ 333 10088;
0152239330999992000041718004+60970+069070FM-12+0040USHH V0202901N002010120019N0100001N1+00271-00041102231ADDAA100000791GF108991081051012501999999KA1999M+00881MD1210211+9999REMSYN076AAXX  17181 23933 12697 82902 10027 21004 40223 52021 69900 885// 333 10088;
0112239330999992000041721004+60970+069070FM-12+0040USHH V0200301N002010120019N0100001N1+00261+00021102461ADDGF108991081051012501999999MD1210231+9999REMSYN060AAXX  17211 23933 42697 80302 10026 20002 40246 52023 885//;
0133239330999992000041800004+60970+069070FM-12+0040USHH V0200101N001012200019N0100001N1-00161-00321102821ADDGF102991021001999999041001MA1999999102221MD1210351+9999REMSYN066AAXX  18001 23933 42997 20101 11016 21032 30222 40282 52035 82040;
0191239330999992000041803004+60970+069070FM-12+0040USHH V0200301N002012200019N0100001N1-00141-00651103141ADDAA199000091AJ100009199999999GA1001+999999999GF100991001001999999001001IA1259MD1210311+9999REMSYN070AAXX  18031 23933 32997 00302 11014 21065 40314 52031 333 41000 55064;EQDQ01  00002PRCP99
0175239330999992000041806004+60970+069070FM-12+0040USHH V0201201N002012200019N0100001N1+00061-00591103291ADDAA199000091GA1001+999999999GF100991001001999999001001KA1999N-00221MD1210161+9999REMSYN064AAXX  18061 23933 32997 01202 10006 21059 40329 52016 333 21022;EQDQ01  00002PRCP99
0112239330999992000041809004+60970+069070FM-12+0040USHH V0200901N002012200019N0100001N1+00321-00671103341ADDGF103991001001999999001011MD1210051+9999REMSYN060AAXX  18091 23933 42997 30902 10032 21067 40334 52005 80001;
0133239330999992000041812004+60970+069070FM-12+0040USHH V0202501N002012200019N0100001N1+00551-01001103251ADDGF102991001001999999001011MA1999999102661MD1810081+9999REMSYN066AAXX  18121 23933 42997 22502 10055 21100 30266 40325 58008 80001;
0175239330999992000041815004+60970+069070FM-12+0040USHH V0202001N001012200019N0100001N1+00341-00921103181ADDAA199000091GA1001+999999999GF100991001001999999001001KA1999M+00621MD1710081+9999REMSYN064AAXX  18151 23933 32997 02001 10034 21092 40318 57008 333 10062;EQDQ01  00002PRCP99
0175239330999992000041818004+60970+069070FM-12+0040USHH V0202201N004012200019N0100001N1+00291-00771103071ADDAA199000091GA1001+999999999GF100991001001999999001001KA1999M+00621MD1710111+9999REMSYN064AAXX  18181 23933 32997 02204 10029 21077 40307 57011 333 10062;EQDQ01  00002PRCP99
0122239330999992000041821004+60970+069070FM-12+0040USHH V0202401N006012200019N0100001N1+00271-00671102971ADDGA1001+999999999GF100991001001999999001001MD1710091+9999REMSYN054AAXX  18211 23933 42997 02406 10027 21067 40297 57009;
0133239330999992000041900004+60970+069070FM-12+0040USHH V0202401N005012200019N0100001N1+00181-00231102891ADDGF102991001001999999001011MA1999999102301MD1710081+9999REMSYN066AAXX  19001 23933 42997 22405 10018 21023 30230 40289 57008 80001;
0181239330999992000041903004+60970+069070FM-12+0040USHH V0202201N004019999999N0100001N1+00461-00141102841ADDAA199000091AJ100009199999999GF108991001001999999001021IA1259MD1710051+9999REMSYN076AAXX  19031 23933 32997 82204 10046 21014 40284 57005 80002 333 41000 55192;EQDQ01  00002PRCP99
0165239330999992000041906004+60970+069070FM-12+0040USHH V0202301N004019999999N0100001N1+00911-00051102701ADDAA199000091GF108991001001999999001021KA1999N+00181MD1710131+9999REMSYN070AAXX  19061 23933 32997 82304 10091 21005 40270 57013 80002 333 20018;EQDQ01  00002PRCP99
0112239330999992000041909004+60970+069070FM-12+0040USHH V0202301N005019999999N0100001N1+01151-00091102621ADDGF108991001001999999001071MD1710071+9999REMSYN060AAXX  19091 23933 42997 82305 10115 21009 40262 57007 80007;
0133239330999992000041912004+60970+069070FM-12+0040USHH V0202501N005019999999N0100001N1+01061-00071102561ADDGF108991001001999999001071MA1999999101991MD1710061+9999REMSYN066AAXX  19121 23933 42997 82505 10106 21007 30199 40256 57006 80007;
0165239330999992000041915004+60970+069070FM-12+0040USHH V0202501N004019999999N0100001N1+00901-00141102521ADDAA199000091GF108991061001999999031071KA1999M+01161MD1710051+9999REMSYN070AAXX  19151 23933 32997 82504 10090 21014 40252 57005 86037 333 10116;EQDQ01  00002PRCP99
0165239330999992000041918004+60970+069070FM-12+0040USHH V0202701N003019999999N0100001N1+00801-00301102491ADDAA199000091GF108991001001999999001011KA1999M+01161MD1710031+9999REMSYN070AAXX  19181 23933 32997 82703 10080 21030 40249 57003 80001 333 10116;EQDQ01  00002PRCP99
0112239330999992000041921004+60970+069070FM-12+0040USHH V0202701N003019999999N0100001N1+00781-00221102431ADDGF108991001001999999001011MD1710061+9999REMSYN060AAXX  19211 23933 42997 82703 10078 21022 40243 57006 80001;
0133239330999992000042000004+60970+069070FM-12+0040USHH V0202601N003019999999N0100001N1+00691-00381102401ADDGF108991021001999999031071MA1999999101821MD1710031+9999REMSYN066AAXX  20001 23933 42997 82603 10069 21038 30182 40240 57003 82037;
0197239330999992000042003004+60970+069070FM-12+0040USHH V0202801N002019999999N0100001N1+00841+00041102341ADDAA199000091AJ199992999999999GF108991001001999999001071IA1259MD1710061+9999REMSYN076AAXX  20031 23933 32997 82802 10084 20004 40234 57006 80007 333 41998 55090;EQDQ01  00002PRCP99Q02  09972SNDP  
0165239330999992000042006004+60970+069070FM-12+0040USHH V0202501N003012200019N0100001N1+01481+00251102221ADDAA199000091GF102991001001999999001011KA1999N+00611MD1710111+9999REMSYN070AAXX  20061 23933 32997 22503 10148 20025 40222 57011 80001 333 20061;EQDQ01  00002PRCP99
0112239330999992000042009004+60970+069070FM-12+0040USHH V0202201N004019999999N0100001N1+01681+00041102121ADDGF106991001001999999001011MD1710091+9999REMSYN060AAXX  20091 23933 42997 62204 10168 20004 40212 57009 80001;
0133239330999992000042012004+60970+069070FM-12+0040USHH V0202501N004019999999N0100001N1+01621+00301102041ADDGF108991001001999999001021MA1999999101481MD1710081+9999REMSYN066AAXX  20121 23933 42997 82504 10162 20030 30148 40204 57008 80002;
0165239330999992000042015004+60970+069070FM-12+0040USHH V0202401N003012200019N0100001N1+01361+00301102011ADDAA199000091GF103991021001999999051011KA1999M+01771MD1710041+9999REMSYN070AAXX  20151 23933 32997 32403 10136 20030 40201 57004 82051 333 10177;EQDQ01  00002PRCP99
0175239330999992000042018004+60970+069070FM-12+0040USHH V0202301N002012200019N0100001N1+01151+00301101971ADDAA199000091GA1001+999999999GF100991001001999999001001KA1999M+01771MD1710041+9999REMSYN064AAXX  20181 23933 32997 02302 10115 20030 40197 57004 333 10177;EQDQ01  00002PRCP99
0122239330999992000042021004+60970+069070FM-12+0040USHH V0202401N002012200019N0100001N1+00991+00341101961ADDGA1001+999999999GF100991001001999999001001MD1710031+9999REMSYN054AAXX  20211 23933 42997 02402 10099 20034 40196 57003;
0152239330999992000042103004+60970+069070FM-12+0040USHH V0202101N001019999999N0100001N1+00671+00361101811ADDAA199000091GF108991061001999999031011MD1710041+9999REMSYN070AAXX  21031 23933 32997 82101 10067 20036 40181 57004 86031 333 55121;EQDQ01  00002PRCP99
0165239330999992000042106004+60970+069070FM-12+0040USHH V0202201N004019999999N0100001N1+01401+00531101661ADDAA199000091GF108991001001999999001011KA1999N+00381MD1710141+9999REMSYN070AAXX  21061 23933 32997 82204 10140 20053 40166 57014 80001 333 20038;EQDQ01  00002PRCP99
0112239330999992000042109004+60970+069070FM-12+0040USHH V0202301N004019999999N0100001N1+01731+00581101461ADDGF108991001001999999001021MD1710201+9999REMSYN060AAXX  21091 23933 42997 82304 10173 20058 40146 57020 80002;
0133239330999992000042112004+60970+069070FM-12+0040USHH V0202401N005019999999N0100001N1+01741+00381101311ADDGF108991001001999999001021MA1999999100751MD1710151+9999REMSYN066AAXX  21121 23933 42997 82405 10174 20038 30075 40131 57015 80002;
0165239330999992000042115004+60970+069070FM-12+0040USHH V0202401N004019999999N0100001N1+01481+00531101151ADDAA199000091GF106991061001999999031001KA1999M+01831MD1710161+9999REMSYN070AAXX  21151 23933 32997 62404 10148 20053 40115 57016 86030 333 10183;EQDQ01  00002PRCP99
0174239330999992000042118004+60970+069070FM-12+0040USHH V0202901N005010042019N0100001N1+01131+00591101161ADDAA199000021AY181061AY221061GF107991071031004501001001KA1999M+01831MD1310011+9999MW1251REMSYN076AAXX  21181 23933 31497 72905 10113 20059 40116 53001 72582 87300 333 10183;
0122239330999992000042121004+60970+069070FM-12+0040USHH V0202901N003012200019N0100001N1+00821+00531101201ADDGA1001+999999999GF100991001001999999001001MD1210031+9999REMSYN054AAXX  21211 23933 42997 02903 10082 20053 40120 52003;
0165239330999992000042200004+60970+069070FM-12+0040USHH V0202401N004010120019N0100001N1+01491+00271999999ADDAA199000021GF108991061051012501021999KA1999M+02081MD1710231+9999REMSYN070AAXX  23181 23933 32697 82404 10149 20027 49991 57023 8652/ 333 10208;EQDQ01+099913APOSLP
0122239330999992000042203004+60970+069070FM-12+0040USHH V0203101N003019999999N0100001N1+00491+00081101751ADDGF108991001001999999001011MD1210351+9999REMSYN070AAXX  22031 23933 /2997 83103 10049 20008 40175 52035 80001 333 55101;
0135239330999992000042206004+60970+069070FM-12+0040USHH V0203001N002019999999N0100001N1+00561-00591101961ADDGF106991001001999999001021KA1999N+00481MD1210231+9999REMSYN070AAXX  22061 23933 12997 63002 10056 21059 40196 52023 80002 333 20048;
0107239330999992000042209004+60970+069070FM-12+0040USHH V0203001N002019999999N0100001N1+00561-00591999999ADDGF106991999999999999999999REMSYN069AAXX  22091 23933 12997 63002 10056 21059 4196 52023 80002 333 20048;
0165239330999992000042215004+60970+069070FM-12+0040USHH V0202101N001012200019N0100001N1+00491-00661102131ADDAA199000091GF105991021051008001001011KA1999M+00771MD1810081+9999REMSYN070AAXX  22151 23933 32597 52101 10049 21066 40213 58008 82501 333 10077;EQDQ01  00002PRCP99
0165239330999992000042218004+60970+069070FM-12+0040USHH V0202101N003010042019N0100001N1+00461-00721101841ADDAA199000091GF107991071051004501001001KA1999M+00771MD1710291+9999REMSYN070AAXX  22181 23933 32497 72103 10046 21072 40184 57029 87500 333 10077;EQDQ01  00002PRCP99
0112239330999992000042221004+60970+069070FM-12+0040USHH V0202301N006010075019N0100001N1+00551-00571101451ADDGF107991071051008001001001MD1710371+9999REMSYN060AAXX  22211 23933 42597 72306 10055 21057 40145 57037 87500;
0161239330999992000042300004+60970+069070FM-12+0040USHH V0202401N006010075019N0100001N1+00821+00001101141ADDAY161061AY221061GF107991051051008001001011MA1999999100571MD1710311+9999MW1211REMSYN072AAXX  23001 23933 41597 72406 10082 20000 30057 40114 57031 72162 85501;
0122239330999992000042303004+60970+069070FM-12+0040USHH V0202401N004010075019N0100001N1+00901+00321100991ADDGF108991061051008001001011MD1710151+9999REMSYN070AAXX  23031 23933 /2597 82404 10090 20032 40099 57015 86501 333 55136;
0152239330999992000042306004+60970+069070FM-12+0040USHH V0202401N004019999999N0100001N1+01551+00461100791ADDAA100000791GF105991051001999999031001KA1999N+00241MD1710181+9999REMSYN076AAXX  23061 23933 12997 52404 10155 20046 40079 57018 69900 85030 333 20024;
0122239330999992000042309004+60970+069070FM-12+0040USHH V0202301N004012200019N0100001N1+01991+00431100591ADDGA1001+999999999GF100991001001999999001001MD1710201+9999REMSYN054AAXX  23091 23933 42997 02304 10199 20043 40059 57020;
0133239330999992000042312004+60970+069070FM-12+0040USHH V0202401N005019999999N0100001N1+01951+00291100421ADDGF107991001001999999001021MA1999999099871MD1710171+9999REMSYN066AAXX  23121 23933 42997 72405 10195 20029 39987 40042 57017 80002;
0165239330999992000042315004+60970+069070FM-12+0040USHH V0202101N004010120019N0100001N1+01731+00361100151ADDAA199000091GF108991061051012501051999KA1999M+02081MD1710271+9999REMSYN070AAXX  23151 23933 32697 82104 10173 20036 40015 57027 8655/ 333 10208;EQDQ01  00002PRCP99
0112239330999992000042321004+60970+069070FM-12+0040USHH V0202501N002010120019N0100001N1+01131+00291099911ADDGF108991081051012501999999MD1710011+9999REMSYN060AAXX  23211 23933 42697 82502 10113 20029 49991 57001 885//;
0133239330999992000042400004+60970+069070FM-12+0040USHH V0202701N002010120019N0100001N1+00961+00461099921ADDGF108991081051012501999999MA1999999099361MD1410001+9999REMSYN066AAXX  24001 23933 42697 82702 10096 20046 39936 49992 54000 885//;
0152239330999992000042403004+60970+069070FM-12+0040USHH V0203001N003010300019N0100001N1+00761+00671100201ADDAA199000091GF108991021051012501021999MD1310271+9999REMSYN070AAXX  24031 23933 32697 83003 10076 20067 40020 53027 8252/ 333 55084;EQDQ01  00002PRCP99
0209239330999992000042406004+60970+069070FM-12+0040USHH V0203501N003010120019N0100001N1+00521+00201100601ADDAA199000091AY181061AY221061GF108991061051012501021999KA1999N+99999MD1210401+9999MW1021REMSYN076AAXX  24061 23933 31697 83503 10052 20020 40060 52040 70282 8652/ 333 20076;EQDQ01  00002PRCP99Q02 +00762ATMN  
0112239330999992000042409004+60970+069070FM-12+0040USHH V0202901N004010120019N0100001N1+00661-00081100921ADDGF105991051051012501001001MD1210321+9999REMSYN060AAXX  24091 23933 42697 52904 10066 21008 40092 52032 85500;
0135239330999992000042415004+60970+069070FM-12+0040USHH V0202701N003019999999N0100001N1+00291-00641101351ADDGF108991001001999999001011KA1999M+00761MD1210131+9999REMSYN070AAXX  24151 23933 /2997 82703 10029 21064 40135 52013 80001 333 10076;
0152239330999992000042418004+60970+069070FM-12+0040USHH V0200301N001019999999N0100001N1+00121-00761101391ADDAA100000791GF106991001001999999001011KA1999M+00761MD1210041+9999REMSYN076AAXX  24181 23933 12997 60301 10012 21076 40139 52004 69900 80001 333 10076;
0112239330999992000042421004+60970+069070FM-12+0040USHH V0201301N002019999999N0100001N1+00061-00761101301ADDGF106991001001999999001011MD1810091+9999REMSYN060AAXX  24211 23933 42997 61302 10006 21076 40130 58009 80001;
0133239330999992000042500004+60970+069070FM-12+0040USHH V0201201N002019999999N0100001N1+00011-00661101101ADDGF108991001001999999001071MA1999999100501MD1710211+9999REMSYN066AAXX  25001 23933 42997 81202 10001 21066 30050 40110 57021 80007;
0150239330999992000042503004+60970+069070FM-12+0040USHH V0201001N002010042019N0100001N1-00011-00131100791ADDAY181031AY221031GF108991061031004501071999MD1710301+9999MW1851REMSYN076AAXX  25031 23933 /1497 81002 11001 21013 40079 57030 78582 8637/ 333 55082;
0180239330999992000042506004+60970+069070FM-12+0040USHH V0200901N003019999999N0100001N1+00111+00111100541ADDAA100000791AY181061AY271061GF108991081001999999021999KA1999N-00021MD1710241+9999MW1711REMSYN082AAXX  25061 23933 11997 80903 10011 20011 40054 57024 69900 77187 8802/ 333 21002;
0140239330999992000042509004+60970+069070FM-12+0040USHH V0200201N004010042019N0100001N1+00221+00221100641ADDAY171031AY261031GF108991061071004501021999MD1310101+9999MW1681REMSYN066AAXX  25091 23933 41497 80204 10022 20022 40064 53010 76876 8672/;
0161239330999992000042512004+60970+069070FM-12+0040USHH V0200101N004010042019N0100001N1+00021+00021100981ADDAY171061AY261061GF108991061071004501021999MA1999999100391MD1210331+9999MW1681REMSYN072AAXX  25121 23933 41497 80104 10002 20002 30039 40098 52033 76876 8672/;
0163239330999992000042515004+60970+069070FM-12+0040USHH V0203601N002010042019N0100001N1-00011-00041101271ADDAY171031AY261031GF108991061071004501021999KA1999M+00221MD1210281+9999MW1021REMSYN076AAXX  25151 23933 /1497 83602 11001 21004 40127 52028 70276 8672/ 333 10022;
0180239330999992000042518004+60970+069070FM-12+0040USHH V0203201N002019999999N0100001N1-00071-00131101491ADDAA100001091AY171061AY261061GF108991081001999999021999KA1999M+00221MD1210221+9999MW1711REMSYN082AAXX  25181 23933 11997 83202 11007 21013 40149 52022 69990 77176 8802/ 333 10022;
0140239330999992000042521004+60970+069070FM-12+0040USHH V0203001N002019999999N0100001N1-00171-00201101671ADDAY171031AY221031GF107991001001999999001011MD1210181+9999MW1021REMSYN066AAXX  25211 23933 41997 73002 11017 21020 40167 52018 70272 80001;
0133239330999992000042600004+60970+069070FM-12+0040USHH V0202801N001012200019N0100001N1-00251-00251101831ADDGF102991021001999999031001MA1999999101231MD1210161+9999REMSYN066AAXX  26001 23933 42997 22801 11025 21025 30123 40183 52016 82030;
0150239330999992000042603004+60970+069070FM-12+0040USHH V0202901N002010120019N0100001N1-00011-00151101951ADDAY171031AY211031GF107991071051012501001001MD1210121+9999MW1021REMSYN076AAXX  26031 23933 /1697 72902 11001 21015 40195 52012 70271 87500 333 55000;
0180239330999992000042606004+60970+069070FM-12+0040USHH V0203001N003010075019N0100001N1+00251-00741102001ADDAA100000191AY171061AY211061GF106991061051008001001001KA1999N-00251MD1210061+9999MW1021REMSYN082AAXX  26061 23933 11597 63003 10025 21074 40200 52006 69920 70271 86500 333 21025;
0112239330999992000042609004+60970+069070FM-12+0040USHH V0202801N004010750019N0100001N1+00411-00801101971ADDGF108991031051008001001021MD1810031+9999REMSYN060AAXX  26091 23933 42597 82804 10041 21080 40197 58003 83502;
0161239330999992000042612004+60970+069070FM-12+0040USHH V0202301N004019999999N0040001N1+00211-00361101801ADDAY171061AY221061GF108991081001999999021999MA1999999101211MD1710171+9999MW1701REMSYN072AAXX  26121 23933 41996 82304 10021 21036 30121 40180 57017 77072 8802/;
0163239330999992000042615004+60970+069070FM-12+0040USHH V0201601N004010300019N0100001N1+00071+00041101351ADDAY171031AY221031GF108991031071004501021999KA1999M+00421MD1710451+9999MW1711REMSYN076AAXX  26151 23933 /1497 81604 10007 20004 40135 57045 77172 8372/ 333 10042;
0180239330999992000042618004+60970+069070FM-12+0040USHH V0201401N005010075019N0100001N1+00091+00041100951ADDAA100002091AY171061AY221061GF106991061051008001001001KA1999M+00421MD1710391+9999MW1021REMSYN082AAXX  26181 23933 11597 61405 10009 20004 40095 57039 60020 70272 86500 333 10042;
0112239330999992000042621004+60970+069070FM-12+0040USHH V0202101N005010075019N0100001N1+00281+00071100431ADDGF105991051051008001001001MD1710521+9999REMSYN060AAXX  26211 23933 42597 52105 10028 20007 40043 57052 85500;
0287239330999992000042700004+60970+069070FM-12+0040USHH V0202701N004012200019N0100001N1+00631+00241100331ADDGA1031+005109089GF105991021051008001001011KA1120N+99999MA1999999099761MD1710091+9999REMSYN172AAXX  27001 23933 42597 52704 10063 20024 39976 40033 57009 82501 96179 11458 70000 10238 20238 30071 40107 57010 60224 70262 83218 333 20207 50120 55/// 56000 83817 80850;EQDQ01 +02072ATMN  
0122239330999992000042703004+60970+069070FM-12+0040USHH V0202801N003019999999N0100001N1+00811+00211100381ADDGF108991001001999999001011MD1310051+9999REMSYN070AAXX  27031 23933 /2997 82803 10081 20021 40038 53005 80001 333 55075;
0152239330999992000042706004+60970+069070FM-12+0040USHH V0203001N003019999999N0100001N1+01081+00021100481ADDAA100000591GF108991001001999999001021KA1999N+00051MD1210111+9999REMSYN076AAXX  27061 23933 12997 83003 10108 20002 40048 52011 69940 80002 333 20005;
0112239330999992000042709004+60970+069070FM-12+0040USHH V0203101N004019999999N0100001N1+00991-00091100731ADDGF107991001001999999001021MD1210241+9999REMSYN060AAXX  27091 23933 42997 73104 10099 21009 40073 52024 80002;
0133239330999992000042712004+60970+069070FM-12+0040USHH V0203301N003010075019N0100001N1+00901-00071100831ADDGF108991081051008001999999MA1999999100261MD1210101+9999REMSYN066AAXX  27121 23933 42597 83303 10090 21007 30026 40083 52010 885//;
0165239330999992000042715004+60970+069070FM-12+0040USHH V0200301N003010075019N0100001N1+00551-00291100851ADDAA199000091GF108991081051008001999999KA1999M+01131MD1210021+9999REMSYN070AAXX  27151 23933 32597 80303 10055 21029 40085 52002 885// 333 10113;EQDQ01  00002PRCP99
0193239330999992000042718004+60970+069070FM-12+0040USHH V0200201N002010075019N0100001N1+00181-00191100881ADDAA199000091AY161061AY221061GF108991081051008001999999KA1999M+01131MD1210021+9999MW1021REMSYN076AAXX  27181 23933 31597 80202 10018 21019 40088 52002 70262 885// 333 10113;EQDQ01  00002PRCP99
0112239330999992000042721004+60970+069070FM-12+0040USHH V0200101N002010075019N0100001N1-00021-00201100901ADDGF108991081051008001999999MD1210011+9999REMSYN060AAXX  27211 23933 42597 80102 11002 21020 40090 52001 885//;
0133239330999992000042800004+60970+069070FM-12+0040USHH V0203301N002010075019N0100001N1-00041-00161100901ADDGF108991081051008001999999MA1999999100311MD1410001+9999REMSYN066AAXX  28001 23933 42597 83302 11004 21016 30031 40090 54000 885//;
0150239330999992000042803004+60970+069070FM-12+0040USHH V0203501N003010042019N0100001N1-00091-00111100991ADDAY171031AY221031GF108991061071004501021999MD1210081+9999MW1711REMSYN076AAXX  28031 23933 /1497 83503 11009 21011 40099 52008 77172 8672/ 333 55088;
0199239330999992000042806004+60970+069070FM-12+0040USHH V0200201N003010042019N0100001N1-00161-00181101141ADDAA100000791AY171061AY221061GF108991051071004501021999KA1999N+99999MD1210151+9999MW1711REMSYN082AAXX  28061 23933 11497 80203 11016 21018 40114 52015 69900 77172 8572/ 333 21009;EQDQ01 -00092ATMN  
0140239330999992000042809004+60970+069070FM-12+0040USHH V0203401N004010300019N0100001N1-00241-00401101381ADDAY171031AY221031GF108991031071004501021999MD1210241+9999MW1711REMSYN066AAXX  28091 23933 41497 83404 11024 21040 40138 52024 77172 8372/;
0161239330999992000042812004+60970+069070FM-12+0040USHH V0203401N003010300019N0100001N1-00171-00481101591ADDAY171061AY221061GF108991041071004501011999MA1999999100991MD1210211+9999MW1711REMSYN072AAXX  28121 23933 41497 83403 11017 21048 30099 40159 52021 77172 8471/;
0163239330999992000042815004+60970+069070FM-12+0040USHH V0203301N001012200019N0100001N1-00261-00741101671ADDAY171031AY211031GF102991021011004501001001KA1999M-00091MD1210081+9999MW1021REMSYN076AAXX  28151 23933 /1497 23301 11026 21074 40167 52008 70271 82100 333 11009;
0190239330999992000042818004+60970+069070FM-12+0040USHH V0203001N001012200019N0100001N1-00351-00751101701ADDAA100000891AY171061AY211061GA1001+999999999GF100991001001999999001001KA1999M-00091MD1210031+9999MW1021REMSYN076AAXX  28181 23933 11997 03001 11035 21075 40170 52003 69980 70271 333 11009;
0112239330999992000042821004+60970+069070FM-12+0040USHH V0202501N002010042019N0100001N1-00381-00751101701ADDGF106991061051004501001001MD1410001+9999REMSYN060AAXX  28211 23933 42497 62502 11038 21075 40170 54000 86500;
0133239330999992000042900004+60970+069070FM-12+0040USHH V0202801N003012200019N0100001N1-00341-00591101641ADDGF102991021051004501001001MA1999999101041MD1710061+9999REMSYN066AAXX  29001 23933 42497 22803 11034 21059 30104 40164 57006 82500;
0152239330999992000042903004+60970+069070FM-12+0040USHH V0202801N002012200019N0100001N1-00141-00371101631ADDAA199000091GF103991021051004501001011MD1710011+9999REMSYN070AAXX  29031 23933 32497 32802 11014 21037 40163 57001 82501 333 55017;EQDQ01  00002PRCP99
0165239330999992000042906004+60970+069070FM-12+0040USHH V0203001N005010042019N0100001N1+00171-00661101481ADDAA199000091GF108991061031004501001011KA1999N-00401MD1710141+9999REMSYN070AAXX  29061 23933 32497 83005 10017 21066 40148 57014 86301 333 21040;EQDQ01  00002PRCP99
0140239330999992000042909004+60970+069070FM-12+0040USHH V0200201N003010042019N0100001N1+00211-00591101431ADDAY181031AY221031GF108991061031004501001011MD1710051+9999MW1851REMSYN066AAXX  29091 23933 41497 80203 10021 21059 40143 57005 78582 86301;
0161239330999992000042912004+60970+069070FM-12+0040USHH V0203501N002010042019N0100001N1+00191-00621101421ADDAY181061AY221061GF107991071031004501001001MA1999999100831MD1710011+9999MW1871REMSYN072AAXX  29121 23933 41497 73502 10019 21062 30083 40142 57001 78782 87300;
0163239330999992000042915004+60970+069070FM-12+0040USHH V0200501N001012200019N0100001N1+00091-00751101381ADDAY181031AY221031GF103991031091004501001001KA1999M+00371MD1710041+9999MW1021REMSYN076AAXX  29151 23933 /1497 30501 10009 21075 40138 57004 70282 83900 333 10037;
0190239330999992000042918004+60970+069070FM-12+0040USHH V0201801N001012200019N0100001N1-00261-00631101381ADDAA100000791AY181061AY221061GA1001+999999999GF100991001001999999001001KA1999M+00371MD1710011+9999MW1021REMSYN076AAXX  29181 23933 11997 01801 11026 21063 40138 57001 69900 70282 333 10037;
0122239330999992000042921004+60970+069070FM-12+0040USHH V0200601N001012200019N0100001N1-00321-00531101531ADDGA1001+999999999GF100991001001999999001001MD1710031+9999REMSYN054AAXX  29211 23933 42997 00601 11032 21053 40153 57003;
0143239330999992000043000004+60970+069070FM-12+0040USHH V0200901N001012200019N0100001N1-00441-00571101331ADDGA1001+999999999GF100991001001999999001001MA1999999100731MD1710021+9999REMSYN060AAXX  30001 23933 42997 00901 11044 21057 30073 40133 57002;
0152239330999992000043003004+60970+069070FM-12+0040USHH V0202201N002019999999N0300001N1+00151-00171101311ADDAA199000091GF105991001001999999001011MD1710011+9999REMSYN070AAXX  30031 23933 32980 52202 10015 21017 40131 57001 80001 333 55112;EQDQ01  00002PRCP99
0165239330999992000043006004+60970+069070FM-12+0040USHH V0201201N003010075019N0100001N1+00561-00351101261ADDAA199000091GF106991061021008001001001KA1999N-00451MD1710031+9999REMSYN070AAXX  30061 23933 32597 61203 10056 21035 40126 57003 86200 333 21045;EQDQ01  00002PRCP99
0112239330999992000043009004+60970+069070FM-12+0040USHH V0202101N003010075019N0100001N1+00401-00191101321ADDGF107991061031008001001011MD1710041+9999REMSYN060AAXX  30091 23933 41597 72103 10040 21019 40132 57004 86301;
0161239330999992000043012004+60970+069070FM-12+0040USHH V0201301N003010075019N0100001N1+00511-00211101261ADDAY181061AY271061GF107991051091008001001011MA1999999100691MD1710041+9999MW1021REMSYN072AAXX  30121 23933 41597 71303 10051 21021 30069 40126 57004 70287 85901;
0163239330999992000043015004+60970+069070FM-12+0040USHH V0201501N002010750019N0100001N1+00351-00181101421ADDAY181031AY281031GF108991031031008001001071KA1999M+00631MD1310141+9999MW1021REMSYN076AAXX  30151 23933 /1597 81502 10035 21018 40142 53014 70288 83307 333 10063;
0180239330999992000043018004+60970+069070FM-12+0040USHH V0201601N002010075019N0100001N1+00251-00081101511ADDAA100000791AY181061AY221061GF108991081051008001999999KA1999M+00631MD1210091+9999MW1021REMSYN082AAXX  30181 23933 11597 81602 10025 21008 40151 52009 69900 70282 885// 333 10063;
0140239330999992000043021004+60970+069070FM-12+0040USHH V0201301N003010042019N0100001N1+00121+00071101541ADDAY181031AY221031GF108991081031004501999999MD1210031+9999MW1851REMSYN066AAXX  30211 23933 41497 81303 10012 20007 40154 52003 78582 883//;
0161239330999992000050100004+60970+069070FM-12+0040USHH V0201001N003010750019N0100001N1-00021-00021101511ADDAY181061AY221061GF108991041031008001001071MA1999999100911MD1810041+9999MW1021REMSYN072AAXX  01001 23933 41597 81003 11002 21002 30091 40151 58004 70282 84307;
0122239330999992000050103004+60970+069070FM-12+0040USHH V0200901N003019999999N0100001N1+00291-00101101491ADDGF106991031001999999031011MD1710011+9999REMSYN070AAXX  01031 23933 /2997 60903 10029 21010 40149 57001 83031 333 55107;
0152239330999992000050106004+60970+069070FM-12+0040USHH V0201101N004019999999N0100001N1+00811-00361101461ADDAA100000791GF108991031001999999031071KA1999N+00021MD1710011+9999REMSYN076AAXX  01061 23933 12997 81104 10081 21036 40146 57001 69900 83037 333 20002;
0112239330999992000050109004+60970+069070FM-12+0040USHH V0201101N004010075019N0100001N1+00941-00671101351ADDGF108991061051008001001011MD1710101+9999REMSYN060AAXX  01091 23933 42597 81104 10094 21067 40135 57010 86501;
0133239330999992000050112004+60970+069070FM-12+0040USHH V0201201N004010042019N0100001N1+00891-00601101381ADDGF108991081031004501999999MA1999999100811MD1310021+9999REMSYN066AAXX  01121 23933 42497 81204 10089 21060 30081 40138 53002 883//;
0165239330999992000050115004+60970+069070FM-12+0040USHH V0201101N004019999999N0100001N1+00671-00341101361ADDAA199000091GF108991081001999999021999KA1999M+01071MD1810021+9999REMSYN070AAXX  01151 23933 32997 81104 10067 21034 40136 58002 8802/ 333 10107;EQDQ01  00002PRCP99
0165239330999992000050118004+60970+069070FM-12+0040USHH V0201001N002019999999N0100001N1+00481-00291101371ADDAA199000091GF108991081001999999021999KA1999M+01071MD1710011+9999REMSYN070AAXX  01181 23933 32997 81002 10048 21029 40137 57001 8802/ 333 10107;EQDQ01  00002PRCP99
0112239330999992000050121004+60970+069070FM-12+0040USHH V0201001N002019999999N0100001N1+00411-00381101391ADDGF108991081001999999021999MD1710081+9999REMSYN060AAXX  01211 23933 42997 81002 10041 21038 40139 57008 8802/;
0133239330999992000050200004+60970+069070FM-12+0040USHH V0200901N002019999999N0100001N1+00271-00391101261ADDGF108991081001999999021999MA1999999100671MD1710021+9999REMSYN066AAXX  02001 23933 42997 80902 10027 21039 30067 40126 57002 8802/;
0152239330999992000050203004+60970+069070FM-12+0040USHH V0201001N006019999999N0100001N1+00541-00381101191ADDAA199000091GF106991021001999999031011MD1710051+9999REMSYN070AAXX  02031 23933 32997 61006 10054 21038 40119 57005 82031 333 55061;EQDQ01  00002PRCP99
0188239330999992000050206004+60970+069070FM-12+0040USHH V0201001N007019999999N0100001N1+00821-00711101021ADDAA199000091GF105991001001999999001011KA1120N+00261MD1710171+9999OA149901301REMSYN082AAXX  02061 23933 32997 51007 10082 21071 40102 57017 80001 333 20026 91113 91115;EQDQ01  00002PRCP99
0112239330999992000050209004+60970+069070FM-12+0040USHH V0201101N009019999999N0100001N1+00801-00861100851ADDGF106991001001999999001021MD1710171+9999REMSYN060AAXX  02091 23933 42997 61109 10080 21086 40085 57017 80002;
0160239330999992000050212004+60970+069070FM-12+0040USHH V0201101N007019999999N0100001N1+00841-00781100691ADDGF108991081001999999071999MA1999999100121MD1710161+9999OA140101401REMSYN082AAXX  02121 23933 42997 81107 10084 21078 30012 40069 57016 8807/ 333 91014 91115;
0165239330999992000050215004+60970+069070FM-12+0040USHH V0201201N005010042019N0100001N1+00641-00501100641ADDAA199000091GF108991081031004501999999KA1999M+00881MD1710051+9999REMSYN070AAXX  02151 23933 32497 81205 10064 21050 40064 57005 883// 333 10088;EQDQ01  00002PRCP99
0188239330999992000050218004+60970+069070FM-12+0040USHH V0201001N006019999999N0100001N1+00381-00111100491ADDAA199000091GF108991081001004501031999KA1120M+00881MD1710161+9999OA149901201REMSYN082AAXX  02181 23933 32497 81006 10038 21011 40049 57016 8803/ 333 10088 91112 91117;EQDQ01  00002PRCP99
0140239330999992000050221004+60970+069070FM-12+0040USHH V0201001N006010042019N0100001N1+00151+00081100261ADDAY181031AY221031GF108991081031004501999999MD1710231+9999MW1801REMSYN066AAXX  02211 23933 41497 81006 10015 20008 40026 57023 78082 883//;
0171239330999992000050300004+60970+069070FM-12+0040USHH V0201101N006010042019N0020001N1+00021+00021100131ADDAY181061AY221061GF108991081031004501999999MA1999999099551MD1710131+9999MW1851REMSYN082AAXX  03001 23933 41495 81106 10002 20002 39955 40013 57013 78582 883// 333 91116;
0179239330999992000050303004+60970+069070FM-12+0040USHH V0201401N003010042019N0100001N1+00071+00041100181ADDAJ100019199999999AY181031AY221031GF108991081031004501999999IA1309MD1310051+9999MW1261REMSYN082AAXX  03031 23933 /1497 81403 10007 20004 40018 53005 72682 883// 333 42001 55076;
0180239330999992000050306004+60970+069070FM-12+0040USHH V0201301N003010042019N0100001N1+00231+00071100271ADDAA100005191AY181061AY221061GF107991071031004501001001KA1999N-00011MD1210091+9999MW1021REMSYN082AAXX  03061 23933 11497 71303 10023 20007 40027 52009 60050 70282 87300 333 21001;
0112239330999992000050309004+60970+069070FM-12+0040USHH V0201101N004010042019N0100001N1+00641-00011100191ADDGF106991061031004501001001MD1810071+9999REMSYN060AAXX  03091 23933 42497 61104 10064 21001 40019 58007 86300;
0133239330999992000050312004+60970+069070FM-12+0040USHH V0200601N003019999999N0100001N1+00621-00161100171ADDGF106991061031999999001001MA1999999099601MD1710021+9999REMSYN066AAXX  03121 23933 42997 60603 10062 21016 39960 40017 57002 86300;
0146239330999992000050315004+60970+069070FM-12+0040USHH V0200401N003010300019N0100001N1+00361+00071100171ADDAA199000021GF106991021051012501031091KA1999M+00721MD1710011+9999REMSYN070AAXX  03151 23933 32697 60403 10036 20007 40017 57001 82539 333 10072;
0174239330999992000050318004+60970+069070FM-12+0040USHH V0200401N003010300019N0100001N1+00181+00051100181ADDAA199000021AY161061AY221061GF108991021051012501021999KA1999M+00721MD1310011+9999MW1611REMSYN076AAXX  03181 23933 31697 80403 10018 20005 40018 53001 76162 8252/ 333 10072;
0140239330999992000050321004+60970+069070FM-12+0040USHH V0200401N003019999999N0100001N1+00011+00011100201ADDAY171031AY261031GF108991081001999999021999MD1210021+9999MW1711REMSYN066AAXX  03211 23933 41997 80403 10001 20001 40020 52002 77176 8802/;
0150239330999992000050403004+60970+069070FM-12+0040USHH V0200301N002010042019N0100001N1-00011-00041100421ADDAY181031AY271031GF108991081071004501999999MD1210141+9999MW1701REMSYN076AAXX  04031 23933 /1497 80302 11001 21004 40042 52014 77087 887// 333 55052;
0180239330999992000050406004+60970+069070FM-12+0040USHH V0200201N002010042019N0100001N1+00271-00241100521ADDAA100000591AY181061AY271061GF108991081071004501999999KA1999N-00071MD1210111+9999MW1021REMSYN082AAXX  04061 23933 11497 80202 10027 21024 40052 52011 69960 70287 887// 333 21007;
0112239330999992000050409004+60970+069070FM-12+0040USHH V0200201N002010075019N0100001N1+00351-00551100611ADDGF108991081091008001999999MD1210091+9999REMSYN060AAXX  04091 23933 42597 80202 10035 21055 40061 52009 889//;
0161239330999992000050412004+60970+069070FM-12+0040USHH V0200101N002010042019N0100001N1+00351-00361100671ADDAY181061AY221061GF106991061051004501001001MA1999999100091MD1210061+9999MW1021REMSYN072AAXX  04121 23933 41497 60102 10035 21036 30009 40067 52006 70282 86500;
0112239330999992000050415004+60970+069070FM-12+0040USHH V0203301N001010075019N0100001N1+00271-00321100681ADDGF107991071091008001001999MD1210011+9999REMSYN060AAXX  04151 23933 /1597 73301 10027 21032 40068 52001 8790/;
0152239330999992000050418004+60970+069070FM-12+0040USHH V0209999C000010075019N0100001N1+00061-00371100661ADDAA100000791GF105991051051008001001001KA1999M+00431MD1810021+9999REMSYN076AAXX  04181 23933 11597 50000 10006 21037 40066 58002 69900 85500 333 10043;
0122239330999992000050421004+60970+069070FM-12+0040USHH V0209999C000012200019N0100001N1-00201-00261100671ADDGA1001+999999999GF100991001001999999001001MD1410001+9999REMSYN054AAXX  04211 23933 42997 00000 11020 21026 40067 54000;
0133239330999992000050500004+60970+069070FM-12+0040USHH V0209999C000012200019N0100001N1-00261-00261100681ADDGF102991021051008001001001MA1999999100091MD1210011+9999REMSYN066AAXX  05001 23933 42597 20000 11026 21026 30009 40068 52001 82500;
0152239330999992000050503004+60970+069070FM-12+0040USHH V0200701N001012200019N0100001N1+00291-00221100711ADDAA199000091GF101991011011004501001001MD1210041+9999REMSYN070AAXX  05031 23933 32497 10701 10029 21022 40071 52004 81100 333 55035;EQDQ01  00002PRCP99
0165239330999992000050506004+60970+069070FM-12+0040USHH V0200301N002012200019N0100001N1+00461-00671100721ADDAA199000091GF108991041011004501001011KA1999N-00281MD1210011+9999REMSYN070AAXX  05061 23933 32497 80302 10046 21067 40072 52001 84101 333 21028;EQDQ01  00002PRCP99
0112239330999992000050509004+60970+069070FM-12+0040USHH V0202901N003010042019N0100001N1+00681-00521100711ADDGF108991061051004501001011MD1410001+9999REMSYN060AAXX  05091 23933 42497 82903 10068 21052 40071 54000 86501;
0133239330999992000050512004+60970+069070FM-12+0040USHH V0202301N003010075019N0100001N1+00751-00671100751ADDGF108991061051008001001011MA1999999100181MD1310041+9999REMSYN066AAXX  05121 23933 42597 82303 10075 21067 30018 40075 53004 86501;
0165239330999992000050515004+60970+069070FM-12+0040USHH V0202101N002019999999N0100001N1+00651-00711100681ADDAA199000091GF108991051001999999031011KA1999M+00821MD1810071+9999REMSYN070AAXX  05151 23933 32997 82102 10065 21071 40068 58007 85031 333 10082;EQDQ01  00002PRCP99
0165239330999992000050518004+60970+069070FM-12+0040USHH V0201501N003010120019N0100001N1+00531-00491100561ADDAA199000091GF108991081051012501999999KA1999M+00821MD1710121+9999REMSYN070AAXX  05181 23933 32697 81503 10053 21049 40056 57012 885// 333 10082;EQDQ01  00002PRCP99
0140239330999992000050521004+60970+069070FM-12+0040USHH V0202101N002010120019N0040001N1+00481+00121100411ADDAY161031AY221031GF108991081051012501999999MD1710161+9999MW1611REMSYN066AAXX  05211 23933 41696 82102 10048 20012 40041 57016 76162 885//;
0161239330999992000050600004+60970+069070FM-12+0040USHH V0202201N002010120019N0040001N1+00441+00441100221ADDAY161061AY221061GF108991081051012501999999MA1999999099641MD1710191+9999MW1611REMSYN072AAXX  06001 23933 41696 82202 10044 20044 39964 40022 57019 76162 885//;
0144239330999992000050603004+60970+069070FM-12+0040USHH V0202301N002010042019N0100001N1+00501+00501100121ADDAY161031AY221031GF108991061071004501021999MD1710091+9999MW1611REMSYN070AAXX  06031 23933 /1497 82302 10050 20050 40012 57009 76162 8672/ 333;
0180239330999992000050606004+60970+069070FM-12+0040USHH V0203001N003010042019N0100001N1+00611+00541100201ADDAA100004191AY161061AY251061GF108991061091004501001071KA1999N+00431MD1310081+9999MW1021REMSYN082AAXX  06061 23933 11497 83003 10061 20054 40020 53008 60040 70265 86907 333 20043;
0140239330999992000050609004+60970+069070FM-12+0040USHH V0203001N004010042019N0100001N1+00621+00361100451ADDAY181031AY221031GF106991061091004501001001MD1210251+9999MW1251REMSYN066AAXX  06091 23933 41497 63004 10062 20036 40045 52025 72582 86900;
0161239330999992000050612004+60970+069070FM-12+0040USHH V0203101N004010075019N0100001N1+00651+00211100661ADDAY181061AY221061GF106991051051008001031011MA1999999100091MD1210211+9999MW1021REMSYN072AAXX  06121 23933 41597 63104 10065 20021 30009 40066 52021 70282 85531;
0163239330999992000050615004+60970+069070FM-12+0040USHH V0200901N002010075019N0100001N1+00481+00211100791ADDAY181031AY221031GF107991071051008001001001KA1999M+00841MD1210121+9999MW1021REMSYN076AAXX  06151 23933 /1597 70902 10048 20021 40079 52012 70282 87500 333 10084;
0180239330999992000050618004+60970+069070FM-12+0040USHH V0209999C000010042019N0100001N1+00341+00161100861ADDAA100001091AY181061AY221061GF106991061031004501001001KA1999M+00841MD1210071+9999MW1021REMSYN082AAXX  06181 23933 11497 60000 10034 20016 40086 52007 69990 70282 86300 333 10084;
0112239330999992000050621004+60970+069070FM-12+0040USHH V0200601N001010042019N0100001N1+00301+00171100861ADDGF108991081031004501999999MD1410001+9999REMSYN060AAXX  06211 23933 42497 80601 10030 20017 40086 54000 883//;
0152239330999992000050700004+60970+069070FM-12+0040USHH V0200901N001010075019N0100001N1+00201+00151100861ADDGF108991999051008001001001MA1999999100281MD1410001+9999REMSYN066AAXX  07001 23933 42597 80901 10020 20015 30028 40086 54000 87500;EQDQ01+000072SCOTLC
0150239330999992000050703004+60970+069070FM-12+0040USHH V0201501N002010075019N0100001N1+00421+00351100761ADDAY161031AY221031GF108991061051008001021999MD1710101+9999MW1611REMSYN076AAXX  07031 23933 /1597 81502 10042 20035 40076 57010 76162 8652/ 333 55051;
0180239330999992000050706004+60970+069070FM-12+0040USHH V0202201N003010075019N0100001N1+00591+00571100691ADDAA100000891AY161061AY221061GF108991071051008001021999KA1999N+00191MD1710061+9999MW1211REMSYN082AAXX  07061 23933 11597 82203 10059 20057 40069 57006 69970 72162 8752/ 333 20019;
0140239330999992000050709004+60970+069070FM-12+0040USHH V0202801N004010042019N0100001N1+00971+00481100721ADDAY181031AY221031GF107991061031004501031001MD1310041+9999MW1801REMSYN066AAXX  07091 23933 41497 72804 10097 20048 40072 53004 78082 86330;
0161239330999992000050712004+60970+069070FM-12+0040USHH V0202801N002010300019N0100001N1+01181+00271100711ADDAY181061AY221061GF106991041031004501031011MA1999999100151MD1810011+9999MW1021REMSYN072AAXX  07121 23933 41497 62802 10118 20027 30015 40071 58001 70282 84331;
0116239330999992000050715004+60970+069070FM-12+0040USHH V0200701N002010300019N0100001N1+00801+00561100661ADDGF106991021051008001031011MD1710061+9999REMSYN064AAXX  07151 23933 /2597 60702 10080 20056 40066 57006 82531 333;
0180239330999992000050718004+60970+069070FM-12+0040USHH V0200401N003019999999N0100001N1+00491+00471100591ADDAA100002091AY161061AY221061GF108991081001999999021999KA1999M+01271MD1710071+9999MW1611REMSYN082AAXX  07181 23933 11997 80403 10049 20047 40059 57007 60020 76162 8802/ 333 10127;
0140239330999992000050721004+60970+069070FM-12+0040USHH V0201101N002019999999N0100001N1+00501+00451100201ADDAY161031AY221031GF108991081001999999021999MD1710391+9999MW1021REMSYN066AAXX  07211 23933 41997 81102 10050 20045 40020 57039 70262 8802/;
0150239330999992000050803004+60970+069070FM-12+0040USHH V0201701N003010075019N0040001N1+00661+00661099541ADDAY181031AY221031GF108991081091008001999999MD1710361+9999MW1801REMSYN076AAXX  08031 23933 /1596 81703 10066 20066 49954 57036 78082 889// 333 55049;
0180239330999992000050806004+60970+069070FM-12+0040USHH V0202401N002010075019N0100001N1+00691+00601099481ADDAA100005191AY181061AY221061GF108991081091008001999999KA1999N+00481MD1710021+9999MW1021REMSYN082AAXX  08061 23933 11597 82402 10069 20060 49948 57002 60050 70282 889// 333 20048;
0112239330999992000050809004+60970+069070FM-12+0040USHH V0202601N003010075019N0100001N1+00791+00481099481ADDGF108991081091008001999999MD1410001+9999REMSYN060AAXX  08091 23933 42597 82603 10079 20048 49948 54000 889//;
0161239330999992000050812004+60970+069070FM-12+0040USHH V0202601N005010075019N0040001N1+00491+00421099401ADDAY181061AY221061GF108991081091008001999999MA1999999098841MD1810081+9999MW1801REMSYN072AAXX  08121 23933 41596 82605 10049 20042 39884 49940 58008 78082 889//;
0163239330999992000050815004+60970+069070FM-12+0040USHH V0202401N005010075019N0100001N1+00171+00141099451ADDAY181031AY221031GF108991081031008001999999KA1999M+00801MD1710041+9999MW1261REMSYN076AAXX  08151 23933 /1597 82405 10017 20014 49945 57004 72682 883// 333 10080;
0180239330999992000050818004+60970+069070FM-12+0040USHH V0202401N004019999999N0010001N1-00011-00011099331ADDAA100005191AY181061AY271061GF108991081001999999021999KA1999M+00801MD1710131+9999MW1731REMSYN082AAXX  08181 23933 11994 82404 11001 21001 49933 57013 60050 77387 8802/ 333 10080;
0140239330999992000050821004+60970+069070FM-12+0040USHH V0203301N004010042019N0040001N1-00331-00331099471ADDAY171031AY221031GF108991061071004501021999MD1310141+9999MW1711REMSYN066AAXX  08211 23933 41496 83304 11033 21033 49947 53014 77172 8672/;
0161239330999992000050900004+60970+069070FM-12+0040USHH V0203301N005010042019N0040001N1-00621-00621099771ADDAY171061AY231061GF108991081001004501021999MA1999999099171MD1210281+9999MW1711REMSYN072AAXX  09001 23933 41496 83305 11062 21062 39917 49977 52028 77173 8802/;
0179239330999992000050903004+60970+069070FM-12+0040USHH V0203001N006010042019N0040001N1-00721-00771100011ADDAJ100059199999999AY171031AY231031GF108991081001004501021999IA1309MD1210241+9999MW1711REMSYN082AAXX  09031 23933 /1496 83006 11072 21077 40001 52024 77173 8802/ 333 42005 55014;
0186239330999992000050906004+60970+069070FM-12+0040USHH V0203301N005010042019N0100001N1-00491-00591100361ADDAA100008991AY171061AY231061GF108991081031004501999999KA1120N-00721MD1210351+9999MW1021REMSYN088AAXX  09061 23933 11497 83305 11049 21059 40036 52035 60090 70273 883// 333 21072 91113;
0112239330999992000050909004+60970+069070FM-12+0040USHH V0203201N004010075019N0100001N1-00021-00081100141ADDGF107991071031008001999999MD1210381+9999REMSYN060AAXX  09091 23933 42597 73204 11002 21008 40014 52038 873//;
0133239330999992000050912004+60970+069070FM-12+0040USHH V0203301N005010075019N0100001N1+00111-00061101111ADDGF107991071031008001001001MA1999999100511MD1210371+9999REMSYN066AAXX  09121 23933 42597 73305 10011 21006 30051 40111 52037 87300;
0135239330999992000050915004+60970+069070FM-12+0040USHH V0203401N003012200019N0100001N1-00041-00491101361ADDGF102991021031012501001001KA1999M+00121MD1210251+9999REMSYN070AAXX  09151 23933 /2697 23403 11004 21049 40136 52025 82300 333 10012;
0146239330999992000050918004+60970+069070FM-12+0040USHH V0203201N002019999999N0100001N1-00341-00771101571ADDAA100000791GF108991999999999999999999KA1999M+00121MD1210211+9999REMSYN070AAXX  09181 23933 12997 83202 11034 21077 40157 52021 69900 333 10012;
0122239330999992000050921004+60970+069070FM-12+0040USHH V0200401N001012200019N0100001N1-00561-00981101701ADDGA1001+999999999GF100991001001999999001001MD1210121+9999REMSYN054AAXX  09211 23933 42997 00401 11056 21098 40170 52012;
0143239330999992000051000004+60970+069070FM-12+0040USHH V0203601N001012200019N0100001N1-00701-00991101881ADDGA1001+999999999GF100991001001999999001001MA1999999101271MD1210181+9999REMSYN060AAXX  10001 23933 42997 03601 11070 21099 30127 40188 52018;
0191239330999992000051003004+60970+069070FM-12+0040USHH V0203301N003012200019N0100001N1+00582-01011102021ADDAA199000091AJ100039199999999GA1001+999999999GF100991001001999999001001IA1279MD1210141+9999REMSYN070AAXX  10031 23933 32997 03303 10058 21101 40202 52014 333 43003 55022;EQDQ01  00002PRCP99
0175239330999992000051006004+60970+069070FM-12+0040USHH V0203501N002012200019N0100001N1-00291-01151102081ADDAA199000091GA1001+999999999GF100991001001999999001001KA1999N-00761MD1210071+9999REMSYN064AAXX  10061 23933 32997 03502 11029 21115 40208 52007 333 21076;EQDQ01  00002PRCP99
0122239330999992000051009004+60970+069070FM-12+0040USHH V0200801N002012200019N0100001N1+00061-01101102061ADDGA1001+999999999GF100991001001999999001001MD1810021+9999REMSYN054AAXX  10091 23933 42997 00802 10006 21110 40206 58002;
0156239330999992000051012004+60970+069070FM-12+0040USHH V0200801N003012200019N0100001N1+00041-01041101911ADDGF101991001001999999001091KA1999M+00031MA1999999101321MD1710141+9999REMSYN076AAXX  10121 23933 42997 10803 10004 21104 30132 40191 57014 80009 333 12003;
0175239330999992000051015004+60970+069070FM-12+0040USHH V0200501N002012200019N0100001N1-00031-01211101821ADDAA199000091GA1001+999999999GF100991001001999999001001KA1999M+00101MD1710101+9999REMSYN064AAXX  10151 23933 32997 00502 11003 21121 40182 57010 333 10010;EQDQ01  00002PRCP99
0175239330999992000051018004+60970+069070FM-12+0040USHH V0200701N002012200019N0100001N1-00261-00961101721ADDAA199000091GA1001+999999999GF100991001001999999001001KA1999M+00101MD1710101+9999REMSYN064AAXX  10181 23933 32997 00702 11026 21096 40172 57010 333 10010;EQDQ01  00002PRCP99
0122239330999992000051021004+60970+069070FM-12+0040USHH V0200701N001012200019N0100001N1-00451-00881101541ADDGA1001+999999999GF100991001001999999001001MD1710181+9999REMSYN054AAXX  10211 23933 42997 00701 11045 21088 40154 57018;
0143239330999992000051100004+60970+069070FM-12+0040USHH V0200601N002012200019N0100001N1-00561-00741101411ADDGA1001+999999999GF100991001001999999001001MA1999999100811MD1710131+9999REMSYN060AAXX  11001 23933 42997 00602 11056 21074 30081 40141 57013;
0191239330999992000051103004+60970+069070FM-12+0040USHH V0200301N003012200019N0100001N1-00401-00811101371ADDAA199000091AJ100009199999999GA1001+999999999GF100991001001999999001001IA1309MD1710041+9999REMSYN070AAXX  11031 23933 32997 00303 11040 21081 40137 57004 333 42000 55163;EQDQ01  00002PRCP99
0175239330999992000051106004+60970+069070FM-12+0040USHH V0200301N004012200019N0100001N1-00041-00971101301ADDAA199000091GA1001+999999999GF100991001001999999001001KA1999N-00591MD1710071+9999REMSYN064AAXX  11061 23933 32997 00304 11004 21097 40130 57007 333 21059;EQDQ01  00002PRCP99
0122239330999992000051109004+60970+069070FM-12+0040USHH V0200201N004012200019N0100001N1+00201-01071101151ADDGA1001+999999999GF100991001001999999001001MD1710141+9999REMSYN054AAXX  11091 23933 42997 00204 10020 21107 40115 57014;
0143239330999992000051112004+60970+069070FM-12+0040USHH V0200301N003012200019N0100001N1+00381-00901101071ADDGA1001+999999999GF100991001001999999001001MA1999999100481MD1710081+9999REMSYN060AAXX  11121 23933 42997 00303 10038 21090 30048 40107 57008;
0175239330999992000051115004+60970+069070FM-12+0040USHH V0200601N002012200019N0100001N1+00271-01061101031ADDAA199000091GA1001+999999999GF100991001001999999001001KA1999M+00431MD1710041+9999REMSYN064AAXX  11151 23933 32997 00602 10027 21106 40103 57004 333 10043;EQDQ01  00002PRCP99
0165239330999992000051118004+60970+069070FM-12+0040USHH V0200701N002012200019N0100001N1+00001-00801101051ADDAA199000091GF101991001001999999001011KA1999M+00431MD1310011+9999REMSYN070AAXX  11181 23933 32997 10702 10000 21080 40105 53001 80001 333 10043;EQDQ01  00002PRCP99
0122239330999992000051121004+60970+069070FM-12+0040USHH V0201401N001012200019N0100001N1-00171+99999101101ADDGA1001+999999999GF100991001001999999001001MD1210051+9999REMSYN054AAXX  11211 23933 42997 01401 11017 21014 40110 52005;
0143239330999992000051200004+60970+069070FM-12+0040USHH V0201101N002012200019N0100001N1-00161-00611101221ADDGA1001+999999999GF100991001001999999001001MA1999999100621MD1210121+9999REMSYN060AAXX  12001 23933 42997 01102 11016 21061 30062 40122 52012;
0152239330999992000051203004+60970+069070FM-12+0040USHH V0201201N002012200019N0100001N1+00151-00591101171ADDAA199000091GF102991001001999999001011MD1810041+9999REMSYN070AAXX  12031 23933 32997 21202 10015 21059 40117 58004 80001 333 55163;EQDQ01  00002PRCP99
0165239330999992000051206004+60970+069070FM-12+0040USHH V0200901N001012200019N0100001N1+00541-00861101161ADDAA199000091GF103991001001999999001011KA1999N-00171MD1310011+9999REMSYN070AAXX  12061 23933 32997 30901 10054 21086 40116 53001 80001 333 21017;EQDQ01  00002PRCP99
0112239330999992000051209004+60970+069070FM-12+0040USHH V0200701N002012200019N0100001N1+00781-00601101171ADDGF103991001001999999001011MD1210011+9999REMSYN060AAXX  12091 23933 42997 30702 10078 21060 40117 52001 80001;
0133239330999992000051212004+60970+069070FM-12+0040USHH V0200701N001019999999N0100001N1+01001-00821101171ADDGF106991001001999999001011MA1999999100601MD1410001+9999REMSYN066AAXX  12121 23933 42997 60701 10100 21082 30060 40117 54000 80001;
0165239330999992000051215004+60970+069070FM-12+0040USHH V0200701N001019999999N0100001N1+00811-00741101181ADDAA199000091GF108991001001999999001011KA1999M+01041MD1210011+9999REMSYN070AAXX  12151 23933 32997 80701 10081 21074 40118 52001 80001 333 10104;EQDQ01  00002PRCP99
0165239330999992000051218004+60970+069070FM-12+0040USHH V0201201N002012200019N0100001N1+00331-00141101261ADDAA199000091GF103991001001999999001011KA1999M+01041MD1210061+9999REMSYN070AAXX  12181 23933 32997 31202 10033 21014 40126 52006 80001 333 10104;EQDQ01  00002PRCP99
0112239330999992000051221004+60970+069070FM-12+0040USHH V0200801N002012200019N0100001N1+00301-00121101321ADDGF102991001001999999001011MD1210061+9999REMSYN060AAXX  12211 23933 42997 20802 10030 21012 40132 52006 80001;
0133239330999992000051300004+60970+069070FM-12+0040USHH V0201101N002019999999N0100001N1+00271+00001101371ADDGF108991001001999999001011MA1999999100781MD1210051+9999REMSYN066AAXX  13001 23933 42997 81102 10027 20000 30078 40137 52005 80001;
0152239330999992000051303004+60970+069070FM-12+0040USHH V0201201N002019999999N0100001N1+00781-00171101411ADDAA199000091GF108991001001999999001011MD1210061+9999REMSYN070AAXX  13031 23933 32997 81202 10078 21017 40141 52006 80001 333 55161;EQDQ01  00002PRCP99
0165239330999992000051306004+60970+069070FM-12+0040USHH V0202101N003019999999N0100001N1+01381-00301101441ADDAA199000091GF108991001001999999001011KA1999N+00201MD1210041+9999REMSYN070AAXX  13061 23933 32997 82103 10138 21030 40144 52004 80001 333 20020;EQDQ01  00002PRCP99
0112239330999992000051309004+60970+069070FM-12+0040USHH V0201701N003019999999N0100001N1+01531-00381101401ADDGF105991001001999999001011MD1810041+9999REMSYN060AAXX  13091 23933 42997 51703 10153 21038 40140 58004 80001;
0133239330999992000051312004+60970+069070FM-12+0040USHH V0201801N004012200019N0100001N1+01621-00471101321ADDGF101991001001999999001011MA1999999100761MD1710081+9999REMSYN066AAXX  13121 23933 42997 11804 10162 21047 30076 40132 57008 80001;
0175239330999992000051315004+60970+069070FM-12+0040USHH V0201301N003012200019N0100001N1+01431-00501101301ADDAA199000091GA1001+999999999GF100991001001999999001001KA1999M+01741MD1710021+9999REMSYN064AAXX  13151 23933 32997 01303 10143 21050 40130 57002 333 10174;EQDQ01  00002PRCP99
0175239330999992000051318004+60970+069070FM-12+0040USHH V0201501N002012200019N0100001N1+01021-00381101321ADDAA199000091GA1001+999999999GF100991001001999999001001KA1999M+01741MD1310021+9999REMSYN064AAXX  13181 23933 32997 01502 10102 21038 40132 53002 333 10174;EQDQ01  00002PRCP99
0122239330999992000051321004+60970+069070FM-12+0040USHH V0201201N002012200019N0100001N1+00791-00381101361ADDGA1001+999999999GF100991001001999999001001MD1210031+9999REMSYN054AAXX  13211 23933 42997 01202 10079 21038 40136 52003;
0133239330999992000051400004+60970+069070FM-12+0040USHH V0201301N003012200019N0100001N1+00731-00271101381ADDGF102991001001999999001011MA1999999100811MD1210021+9999REMSYN066AAXX  14001 23933 42997 21303 10073 21027 30081 40138 52002 80001;
0152239330999992000051403004+60970+069070FM-12+0040USHH V0201501N005019999999N0100001N1+00201+99999101341ADDAA199000091GF107991001001999999001011MD1810031+9999REMSYN070AAXX  14031 23933 32997 71505 10020 20023 40134 58003 80001 333 55159;EQDQ01  00002PRCP99
0171239330999992000051406004+60970+069070FM-12+0040USHH V0201401N005019999999N0100001N1+01621+00431101271ADDAA199000091GF107991001001999999001011KA1120N+00721MD1710071+9999REMSYN076AAXX  14061 23933 32997 71405 10162 20043 40127 57007 80001 333 20072 91112;EQDQ01  00002PRCP99
0112239330999992000051409004+60970+069070FM-12+0040USHH V0201501N006019999999N0100001N1+01851+00311101181ADDGF108991041001999999041011MD1710091+9999REMSYN060AAXX  14091 23933 42997 81506 10185 20031 40118 57009 84041;
0160239330999992000051412004+60970+069070FM-12+0040USHH V0201401N006019999999N0100001N1+01921+00451101081ADDGF106991021001999999041011MA1999999100521MD1710101+9999OA140101301REMSYN082AAXX  14121 23933 42997 61406 10192 20045 30052 40108 57010 82041 333 91013 91113;
0165239330999992000051415004+60970+069070FM-12+0040USHH V0201301N004010075019N0002001N1+01691+00551101081ADDAA199000091GF108991081051008001999999KA1999M+01951MD1410001+9999REMSYN070AAXX  14151 23933 32592 81304 10169 20055 40108 54000 885// 333 10195;EQDQ01  00002PRCP99
0171239330999992000051418004+60970+069070FM-12+0040USHH V0201801N003010075019N0100001N1+01511+00501101031ADDAA199000091GF107991071031008001001001KA1120M+01951MD1710051+9999REMSYN076AAXX  14181 23933 32597 71803 10151 20050 40103 57005 87300 333 10195 91112;EQDQ01  00002PRCP99
0151239330999992000051421004+60970+069070FM-12+0040USHH V0201201N003010075019N0020001N1+01081+00941100881ADDAA199000021AY181031AY221031GF108991081031008001999999MD1710151+9999MW1801REMSYN066AAXX  14211 23933 32595 81203 10108 20094 40088 57015 78082 883//;
0161239330999992000051500004+60970+069070FM-12+0040USHH V0201301N005010120019N0100001N1+01081+00921100801ADDAY181061AY221061GF108991081051012501999999MA1999999100241MD1710081+9999MW1021REMSYN072AAXX  15001 23933 41697 81305 10108 20092 30024 40080 57008 70282 885//;
0150239330999992000051503004+60970+069070FM-12+0040USHH V0201301N004010300019N0020001N1+01011+01011100721ADDAY181031AY261031GF108991041071004501021999MD1710081+9999MW1631REMSYN076AAXX  15031 23933 /1495 81304 10101 20101 40072 57008 76386 8472/ 333 55128;
0199239330999992000051506004+60970+069070FM-12+0040USHH V0201301N005010042019N0020001N1+00931+00931100521ADDAA100004191AY181061AY261061GF108991061071004501021999KA1999N+99999MD1710201+9999MW1631REMSYN082AAXX  15061 23933 11495 81305 10093 20093 40052 57020 60040 76386 8672/ 333 20100;EQDQ01 +01002ATMN  
0140239330999992000051509004+60970+069070FM-12+0040USHH V0202401N003010042019N0100001N1+01021+00981100601ADDAY161031AY221031GF107991061031004501031001MD1310081+9999MW1211REMSYN066AAXX  15091 23933 41497 72403 10102 20098 40060 53008 72162 86330;
0161239330999992000051512004+60970+069070FM-12+0040USHH V0202301N007010300019N0100001N1+01051+00591100871ADDAY181061AY261061GF106991041031004501031011MA1999999100311MD1210271+9999MW1021REMSYN072AAXX  15121 23933 41497 62307 10105 20059 30031 40087 52027 70286 84331;
0144239330999992000051515004+60970+069070FM-12+0040USHH V0202001N003012200019N0100001N1+99999+99999999999ADDGF102991001001999999001021KA1999M+01131MA1999999100521MD1310271+9999REMSYN064AAXX  15151 23933 /2997 22003 20095 30052 53027 80002 333 10113;
0122239330999992000051521004+60970+069070FM-12+0040USHH V0201001N001012200019N0100001N1+00551+00091101091ADDGA1001+999999999GF100991001001999999001001MD1810011+9999REMSYN054AAXX  15211 23933 42997 01001 10055 20009 40109 58001;
0133239330999992000051600004+60970+069070FM-12+0040USHH V0201501N002012200019N0100001N1+00611+00471101041ADDGF103991001001999999001011MA1999999100471MD1710051+9999REMSYN066AAXX  16001 23933 42997 31502 10061 20047 30047 40104 57005 80001;
0152239330999992000051603004+60970+069070FM-12+0040USHH V0201501N003019999999N0100001N1+00871+00531100951ADDAA199000091GF106991001001999999001011MD1710091+9999REMSYN070AAXX  16031 23933 32997 61503 10087 20053 40095 57009 80001 333 55057;EQDQ01  00002PRCP99
0165239330999992000051606004+60970+069070FM-12+0040USHH V0201301N005019999999N0100001N1+01171+00001100821ADDAA199000091GF108991031001999999031091KA1999N+00531MD1710121+9999REMSYN070AAXX  16061 23933 32997 81305 10117 20000 40082 57012 83039 333 20053;EQDQ01  00002PRCP99
0140239330999992000051609004+60970+069070FM-12+0040USHH V0201601N005010075019N0100001N1+01121+00061100771ADDAY161031AY221031GF108991081091008001999999MD1710051+9999MW1211REMSYN066AAXX  16091 23933 41597 81605 10112 20006 40077 57005 72162 889//;
0161239330999992000051612004+60970+069070FM-12+0040USHH V0202201N005010075019N0100001N1+00761+00621100811ADDAY161061AY281061GF108991081051008001999999MA1999999100241MD1310031+9999MW1601REMSYN072AAXX  16121 23933 41597 82205 10076 20062 30024 40081 53003 76068 885//;
0163239330999992000051615004+60970+069070FM-12+0040USHH V0201501N002010075019N0100001N1+00671+00631100791ADDAY181031AY261031GF107991061031008001031011KA1999M+01181MD1810021+9999MW1021REMSYN076AAXX  16151 23933 /1597 71502 10067 20063 40079 58002 70286 86331 333 10118;
0180239330999992000051618004+60970+069070FM-12+0040USHH V0202001N002012200019N0100001N1+00561+00511100801ADDAA100002091AY181061AY261061GF103991031051008001001001KA1999M+01181MD1310011+9999MW1021REMSYN082AAXX  16181 23933 11597 32002 10056 20051 40080 53001 60020 70286 83500 333 10118;
0112239330999992000051621004+60970+069070FM-12+0040USHH V0202101N003010075019N0100001N1+00491+00401100791ADDGF105991051051008001001001MD1810011+9999REMSYN060AAXX  16211 23933 42597 52103 10049 20040 40079 58001 85500;
0133239330999992000051700004+60970+069070FM-12+0040USHH V0201901N002010300019N0100001N1+00411+00231100801ADDGF108991021051008001031001MA1999999100221MD1410001+9999REMSYN066AAXX  17001 23933 42597 81902 10041 20023 30022 40080 54000 82530;
0176239330999992000051703004+60970+069070FM-12+0040USHH V0201801N002019999999N0100001N1+00701+00381100801ADDAA199000091GF108991001001999999001021IA1099IA2999+00209MD1210011+9999REMSYN076AAXX  17031 23933 32997 81802 10070 20038 40080 52001 80002 333 31002 55074;EQDQ01  00002PRCP99
0165239330999992000051706004+60970+069070FM-12+0040USHH V0201801N003010300019N0100001N1+01111-00071100771ADDAA199000091GF108991041021008001031011KA1999N+00401MD1810021+9999REMSYN070AAXX  17061 23933 32597 81803 10111 21007 40077 58002 84231 333 20040;EQDQ01  00002PRCP99
0112239330999992000051709004+60970+069070FM-12+0040USHH V0201401N005010075019N0100001N1+01151+00001100661ADDGF108991051051008001001011MD1710111+9999REMSYN060AAXX  17091 23933 42597 81405 10115 20000 40066 57011 85501;
0140239330999992000051712004+60970+069070FM-12+0040USHH V0201401N002010075019N0100001N1+01121+00461100591ADDAY161061AY221061GF108991081051008001999999MD1710071+9999MW1611REMSYN066AAXX  17121 23933 41597 81402 10112 20046 40059 57007 76162 885//;
0163239330999992000051715004+60970+069070FM-12+0040USHH V0201201N002010075019N0100001N1+01051+00701100391ADDAY161031AY221031GF108991081051008001999999KA1999M+01481MD1710201+9999MW1021REMSYN076AAXX  17151 23933 /1597 81202 10105 20070 40039 57020 70262 885// 333 10148;
0180239330999992000051718004+60970+069070FM-12+0040USHH V0201401N005010120019N0100001N1+01251+00381100131ADDAA100000791AY161061AY221061GF107991071051012501001001KA1999M+01481MD1710261+9999MW1021REMSYN082AAXX  17181 23933 11697 71405 10125 20038 40013 57026 69900 70262 87500 333 10148;
0112239330999992000051721004+60970+069070FM-12+0040USHH V0201101N001010075019N0100001N1+00891+00531100161ADDGF108991081091008001999999MD1310021+9999REMSYN060AAXX  17211 23933 42597 81101 10089 20053 40016 53002 889//;
0144239330999992000051800004+60970+069070FM-12+0040USHH V0202101N001019999999N0100001N1+00751+00591100201ADDAA199000021GF108991021001999999031021MA1999999099631MD1210041+9999REMSYN066AAXX  18001 23933 32997 82101 10075 20059 39963 40020 52004 82032;
0176239330999992000051803004+60970+069070FM-12+0040USHH V0201501N002019999999N0100001N1+01031+00701100211ADDAA124999999GF108991081001999999021999IA1099IA2999+00509KA1120N+00741MD1210021+9999REMSYN082AAXX  18031 23933 32997 81502 10103 20070 40021 52002 8802/ 333 20074 31005 7990/;
0165239330999992000051806004+60970+069070FM-12+0040USHH V0200701N002019999999N0100001N1+01371+00511100201ADDAA199000091GF107991021001999999031011KA1999N+00741MD1810011+9999REMSYN070AAXX  18061 23933 32997 70702 10137 20051 40020 58001 82031 333 20074;EQDQ01  00002PRCP99
0112239330999992000051809004+60970+069070FM-12+0040USHH V0201001N003019999999N0100001N1+01831+00621099961ADDGF106991021001999999031011MD1710231+9999REMSYN060AAXX  18091 23933 42997 61003 10183 20062 49996 57023 82031;
0133239330999992000051812004+60970+069070FM-12+0040USHH V0201201N003010750019N0100001N1+01941+00451099761ADDGF108991041051008001001071MA1999999099221MD1710191+9999REMSYN066AAXX  18121 23933 42597 81203 10194 20045 39922 49976 57019 84507;
0163239330999992000051815004+60970+069070FM-12+0040USHH V0201201N004010075019N0100001N1+01781+00431099681ADDAY181031AY221031GF108991081031008001999999KA1999M+02051MD1710081+9999MW1801REMSYN076AAXX  18151 23933 /1597 81204 10178 20043 49968 57008 78082 883// 333 10205;
0180239330999992000051818004+60970+069070FM-12+0040USHH V0200901N003012200019N0100001N1+01581+00531099401ADDAA100000791AY181061AY211061GF103991031051008001001001KA1999M+02051MD1710281+9999MW1021REMSYN082AAXX  18181 23933 11597 30903 10158 20053 49940 57028 69900 70281 83500 333 10205;
0112239330999992000051821004+60970+069070FM-12+0040USHH V0200801N003010075019N0100001N1+01521+00511099171ADDGF107991071051008001001001MD1710231+9999REMSYN060AAXX  18211 23933 42597 70803 10152 20051 49917 57023 87500;
0133239330999992000051900004+60970+069070FM-12+0040USHH V0201701N002010075019N0100001N1+01001+00301099251ADDGF106991061051008001001001MA1999999098701MD1310071+9999REMSYN066AAXX  19001 23933 42597 61702 10100 20030 39870 49925 53007 86500;
0150239330999992000051903004+60970+069070FM-12+0040USHH V0201701N002010075019N0040001N1+00631+00491099311ADDAY181031AY221031GF108991081091008001999999MD1210051+9999MW1801REMSYN076AAXX  19031 23933 /1596 81702 10063 20049 49931 52005 78082 889// 333 55097;
0199239330999992000051906004+60970+069070FM-12+0040USHH V0201401N002019999999N0040001N1+00471+00421099411ADDAA100000391AY161061AY221061GF108991081001999999021999KA1999N+99999MD1210091+9999MW1611REMSYN082AAXX  19061 23933 11996 81402 10047 20042 49941 52009 69930 76162 8802/ 333 20062;EQDQ01 +00622ATMN  
0159239330999992000051909004+60970+069070FM-12+0040USHH V0201101N002019999999N0100001N1+01021+00361099531ADDAY161031AY221031GF106991999051008001001001MD1210141+9999MW1021REMSYN066AAXX  19091 23933 41597 61102 10102 20036 49953 52014 70262 87500;EQDQ01+000072SCOTLC
0161239330999992000051912004+60970+069070FM-12+0040USHH V0201101N003010075019N0100001N1+01151+00301099741ADDAY161061AY221061GF106991051091008001001011MA1999999099191MD1210211+9999MW1021REMSYN072AAXX  19121 23933 41597 61103 10115 20030 39919 49974 52021 70262 85901;
0163239330999992000051915004+60970+069070FM-12+0040USHH V0201201N002010075019N0100001N1+00881+00291099811ADDAY181031AY221031GF106991061091008001001001KA1999M+01191MD1210061+9999MW1251REMSYN076AAXX  19151 23933 /1597 61202 10088 20029 49981 52006 72582 86900 333 10119;
0190239330999992000051918004+60970+069070FM-12+0040USHH V0201201N003012200019N0100001N1+00681+00221099921ADDAA100004191AY181061AY221061GA1001+999999999GF100991001001999999001001KA1999M+01191MD1210111+9999MW1021REMSYN076AAXX  19181 23933 11997 01203 10068 20022 49992 52011 60040 70282 333 10119;
0112239330999992000051921004+60970+069070FM-12+0040USHH V0201001N001012200019N0100001N1+00571+00411100031ADDGF103991031091008001001001MD1210101+9999REMSYN060AAXX  19211 23933 42597 31001 10057 20041 40003 52010 83900;
0133239330999992000052000004+60970+069070FM-12+0040USHH V0200901N002012200019N0100001N1+00571+00501100121ADDGF101991011051008001001001MA1999999099551MD1210091+9999REMSYN066AAXX  20001 23933 42597 10902 10057 20050 39955 40012 52009 81500;
0133239330999992000052003004+60970+069070FM-12+0040USHH V0201001N005010075019N0100001N1+00721+00501100211ADDAA199000021GF108991061051008001001021MD1210091+9999REMSYN070AAXX  20031 23933 32597 81005 10072 20050 40021 52009 86502 333 55062;
0165239330999992000052006004+60970+069070FM-12+0040USHH V0200701N004012200019N0100001N1+01201+00481100211ADDAA199000091GF103991031021008001001001KA1999N+00531MD1210011+9999REMSYN070AAXX  20061 23933 32597 30704 10120 20048 40021 52001 83200 333 20053;EQDQ01  00002PRCP99
0112239330999992000052009004+60970+069070FM-12+0040USHH V0200601N004012200019N0100001N1+01461+00451100131ADDGF106991041021008001001011MD1810081+9999REMSYN060AAXX  20091 23933 42597 60604 10146 20045 40013 58008 84201;
0161239330999992000052012004+60970+069070FM-12+0040USHH V0200801N001010075019N0100001N1+00891+00131100191ADDAY181061AY211061GF108991081031008001999999MA1999999099621MD1310051+9999MW1251REMSYN072AAXX  20121 23933 41597 80801 10089 20013 39962 40019 53005 72581 883//;
0163239330999992000052015004+60970+069070FM-12+0040USHH V0201201N001010042019N0100001N1+00761+00741100271ADDAY181031AY221031GF108991071031004501021999KA1999M+01561MD1210081+9999MW1801REMSYN076AAXX  20151 23933 /1497 81201 10076 20074 40027 52008 78082 8732/ 333 10156;
0180239330999992000052018004+60970+069070FM-12+0040USHH V0209999C000010075019N0100001N1+00701+00701100251ADDAA100007991AY181061AY221061GF106991061051008001001001KA1999M+01561MD1810021+9999MW1021REMSYN082AAXX  20181 23933 11597 60000 10070 20070 40025 58002 60080 70282 86500 333 10156;
0112239330999992000052021004+60970+069070FM-12+0040USHH V0200701N001010075019N0100001N1+00761+00701100091ADDGF108991051051008001001011MD1710161+9999REMSYN060AAXX  20211 23933 42597 80701 10076 20070 40009 57016 85501;
0133239330999992000052100004+60970+069070FM-12+0040USHH V0200601N003010075019N0100001N1+00961+00461100091ADDGF108991081051008001999999MA1999999099531MD1310011+9999REMSYN066AAXX  21001 23933 42597 80603 10096 20046 39953 40009 53001 885//;
0122239330999992000052103004+60970+069070FM-12+0040USHH V0201001N003010042019N0100001N1+00931+00611100241ADDGF108991081031004501999999MD1210141+9999REMSYN070AAXX  21031 23933 /2497 81003 10093 20061 40024 52014 883// 333 55090;
0152239330999992000052106004+60970+069070FM-12+0040USHH V0201501N001010042019N0100001N1+01011+00671100391ADDAA100000791GF108991061031004501071999KA1999N+00631MD1210161+9999REMSYN076AAXX  21061 23933 12497 81501 10101 20067 40039 52016 69900 8637/ 333 20063;
0112239330999992000052109004+60970+069070FM-12+0040USHH V0202001N001019999999N0100001N1+00941+00591100561ADDGF108991081051999999999999MD1210161+9999REMSYN060AAXX  21091 23933 42997 82001 10094 20059 40056 52016 885//;
0161239330999992000052112004+60970+069070FM-12+0040USHH V0202501N002010075019N0100001N1+00981+00561100691ADDAY161061AY221061GF108991081051008001999999MA1999999100131MD1210141+9999MW1611REMSYN072AAXX  21121 23933 41597 82502 10098 20056 30013 40069 52014 76162 885//;
0163239330999992000052115004+60970+069070FM-12+0040USHH V0203001N002010120019N0100001N1+00751+00551100731ADDAY161031AY221031GF108991081051012501999999KA1999M+01061MD1210031+9999MW1601REMSYN076AAXX  21151 23933 /1697 83002 10075 20055 40073 52003 76062 885// 333 10106;
0180239330999992000052118004+60970+069070FM-12+0040USHH V0202901N002010120019N0100001N1+00951+00761100891ADDAA100000391AY161061AY221061GF107991071051012501001001KA1999M+01061MD1210171+9999MW1021REMSYN082AAXX  21181 23933 11697 72902 10095 20076 40089 52017 69930 70262 87500 333 10106;
0112239330999992000052121004+60970+069070FM-12+0040USHH V0202401N002012200019N0100001N1+00861+00681100961ADDGF103991031001999999031001MD1210061+9999REMSYN060AAXX  21211 23933 42997 32402 10086 20068 40096 52006 83030;
0144239330999992000052200004+60970+069070FM-12+0040USHH V0202601N001019999999N0100001N1+00761+00761101071ADDAA199000021GF108991001001999999001021MA1999999100501MD1210111+9999REMSYN066AAXX  22001 23933 32997 82601 10076 20076 30050 40107 52011 80002;
0122239330999992000052203004+60970+069070FM-12+0040USHH V0200101N002010300019N0100001N1+01091+00641101221ADDGF106991041051008001031001MD1210161+9999REMSYN070AAXX  22031 23933 /2597 60102 10109 20064 40122 52016 84530 333 55002;
0152239330999992000052206004+60970+069070FM-12+0040USHH V0202701N003019999999N0100001N1+01441+00651101251ADDAA100000791GF105991001001999999001011KA1999N+00701MD1210031+9999REMSYN076AAXX  22061 23933 12997 52703 10144 20065 40125 52003 69900 80001 333 20070;
0112239330999992000052209004+60970+069070FM-12+0040USHH V0202801N004010300019N0100001N1+01621+00511101291ADDGF106991041051008001031001MD1210041+9999REMSYN060AAXX  22091 23933 42597 62804 10162 20051 40129 52004 84530;
0133239330999992000052212004+60970+069070FM-12+0040USHH V0202701N003012200019N0100001N1+01821+00751101311ADDGF102991021001999999041001MA1999999100751MD1210021+9999REMSYN066AAXX  22121 23933 42997 22703 10182 20075 30075 40131 52002 82040;
0165239330999992000052215004+60970+069070FM-12+0040USHH V0200601N002012200019N0100001N1+01711+00381101401ADDAA199000091GF101991001001999999001011KA1999M+01921MD1210091+9999REMSYN070AAXX  22151 23933 32997 10602 10171 20038 40140 52009 80001 333 10192;EQDQ01  00002PRCP99
0175239330999992000052218004+60970+069070FM-12+0040USHH V0200701N002012200019N0100001N1+01241+00611101641ADDAA199000091GA1001+999999999GF100991001001999999001001KA1999M+01921MD1210241+9999REMSYN064AAXX  22181 23933 32997 00702 10124 20061 40164 52024 333 10192;EQDQ01  00002PRCP99
0122239330999992000052221004+60970+069070FM-12+0040USHH V0200701N001012200019N0100001N1+00941+00641101751ADDGA1001+999999999GF100991001001999999001001MD1210101+9999REMSYN054AAXX  22211 23933 42997 00701 10094 20064 40175 52010;
0143239330999992000052300004+60970+069070FM-12+0040USHH V0200801N002012200019N0100001N1+00901+00591101881ADDGA1001+999999999GF100991001001999999001001MA1999999101311MD1210131+9999REMSYN060AAXX  23001 23933 42997 00802 10090 20059 30131 40188 52013;
0162239330999992000052303004+60970+069070FM-12+0040USHH V0200801N002012200019N0100001N1+01201+00581101951ADDAA199000091GA1001+999999999GF100991001001999999001001MD1210081+9999REMSYN064AAXX  23031 23933 32997 00802 10120 20058 40195 52008 333 55133;EQDQ01  00002PRCP99
0175239330999992000052306004+60970+069070FM-12+0040USHH V0203301N001012200019N0100001N1+01481+00151101971ADDAA199000091GA1001+999999999GF100991001001999999001001KA1999N+00891MD1210021+9999REMSYN064AAXX  23061 23933 32997 03301 10148 20015 40197 52002 333 20089;EQDQ01  00002PRCP99
0122239330999992000052309004+60970+069070FM-12+0040USHH V0200901N002012200019N0100001N1+01841+00251101911ADDGA1001+999999999GF100991001001999999001001MD1810061+9999REMSYN054AAXX  23091 23933 42997 00902 10184 20025 40191 58006;
0143239330999992000052312004+60970+069070FM-12+0040USHH V0202801N002012200019N0100001N1+02141+00321101701ADDGA1001+999999999GF100991001001999999001001MA1999999101151MD1710201+9999REMSYN060AAXX  23121 23933 42997 02802 10214 20032 30115 40170 57020;
0165239330999992000052315004+60970+069070FM-12+0040USHH V0202201N003012200019N0100001N1+02001+00401101691ADDAA199000091GF101991001001999999001011KA1999M+02171MD1710011+9999REMSYN070AAXX  23151 23933 32997 12203 10200 20040 40169 57001 80001 333 10217;EQDQ01  00002PRCP99
0165239330999992000052318004+60970+069070FM-12+0040USHH V0202201N004012200019N0100001N1+01731+00481101701ADDAA199000091GF102991001001999999001011KA1999M+02171MD1410001+9999REMSYN070AAXX  23181 23933 32997 22204 10173 20048 40170 54000 80001 333 10217;EQDQ01  00002PRCP99
0112239330999992000052321004+60970+069070FM-12+0040USHH V0202401N003010300019N0100001N1+01611+00461101671ADDGF106991041051012501031001MD1810031+9999REMSYN060AAXX  23211 23933 42697 62403 10161 20046 40167 58003 84530;
0133239330999992000052400004+60970+069070FM-12+0040USHH V0202701N003010120019N0100001N1+01531+00171101641ADDGF107991061051012501031001MA1999999101081MD1710031+9999REMSYN066AAXX  24001 23933 42697 72703 10153 20017 30108 40164 57003 86530;
0152239330999992000052403004+60970+069070FM-12+0040USHH V0202801N003019999999N0100001N1+01681+00711101661ADDAA199000091GF106991061001999999031001MD1310021+9999REMSYN070AAXX  24031 23933 32997 62803 10168 20071 40166 53002 86030 333 55162;EQDQ01  00002PRCP99
0165239330999992000052406004+60970+069070FM-12+0040USHH V0201201N002010075019N0100001N1+02211+00801101631ADDAA199000091GF105991051011008001031001KA1999N+01551MD1810021+9999REMSYN070AAXX  24061 23933 32597 51202 10221 20080 40163 58002 85130 333 20155;EQDQ01  00002PRCP99
0112239330999992000052409004+60970+069070FM-12+0040USHH V0201101N002012200019N0100001N1+02241+00851101621ADDGF103991031091008001001001MD1710011+9999REMSYN060AAXX  24091 23933 42597 31102 10224 20085 40162 57001 83900;
0133239330999992000052412004+60970+069070FM-12+0040USHH V0201201N002012200019N0100001N1+02321+00861101571ADDGF103991031091008001001001MA1999999101021MD1710051+9999REMSYN066AAXX  24121 23933 42597 31202 10232 20086 30102 40157 57005 83900;
0165239330999992000052415004+60970+069070FM-12+0040USHH V0201201N002012200019N0100001N1+02061+00891101591ADDAA199000091GF103991031091008001001001KA1999M+02401MD1310021+9999REMSYN070AAXX  24151 23933 32597 31202 10206 20089 40159 53002 83900 333 10240;EQDQ01  00002PRCP99
0165239330999992000052418004+60970+069070FM-12+0040USHH V0200901N001012200019N0100001N1+01741+00731101621ADDAA199000091GF102991021051008001001001KA1999M+02401MD1210021+9999REMSYN070AAXX  24181 23933 32597 20901 10174 20073 40162 52002 82500 333 10240;EQDQ01  00002PRCP99
0112239330999992000052421004+60970+069070FM-12+0040USHH V0200701N001010300019N0100001N1+01621+00671101611ADDGF105991021051008001031001MD1810011+9999REMSYN060AAXX  24211 23933 42597 50701 10162 20067 40161 58001 82530;
0133239330999992000052500004+60970+069070FM-12+0040USHH V0201001N001012200019N0100001N1+01431+01301101601ADDGF102991021001999999031001MA1999999101041MD1710011+9999REMSYN066AAXX  25001 23933 42997 21001 10143 20130 30104 40160 57001 82030;
0152239330999992000052503004+60970+069070FM-12+0040USHH V0201401N001012200019N0100001N1+02061+00951101561ADDAA199000091GF103991031001999999031001MD1710031+9999REMSYN070AAXX  25031 23933 32997 31401 10206 20095 40156 57003 83030 333 55141;EQDQ01  00002PRCP99
0165239330999992000052506004+60970+069070FM-12+0040USHH V0202801N002012200019N0200001N1+02351+01031101311ADDAA199000091GF102991021001999999031001KA1999N+01081MD1410001+9999REMSYN070AAXX  25061 23933 32998 22802 10235 20103 40131 54000 82030 333 20108;EQDQ01  00002PRCP99
0112239330999992000052509004+60970+069070FM-12+0040USHH V0201501N003012200019N0100001N1+02731+00941101321ADDGF103991031021008001001001MD1710181+9999REMSYN060AAXX  25091 23933 42597 31503 10273 20094 40132 57018 83200;
0161239330999992000052512004+60970+069070FM-12+0040USHH V0201601N003010075019N0100001N1+02471+00851101311ADDAY191061AY281061GF107991051091008001001011MA1999999100771MD1710011+9999MW1021REMSYN072AAXX  25121 23933 41597 71603 10247 20085 30077 40131 57001 70298 85901;
0163239330999992000052515004+60970+069070FM-12+0040USHH V0201101N002010075019N0100001N1+02161+00901101201ADDAY191031AY281031GF105991051091008001001001KA1999M+02801MD1710121+9999MW1021REMSYN076AAXX  25151 23933 /1597 51102 10216 20090 40120 57012 70298 85900 333 10280;
0180239330999992000052518004+60970+069070FM-12+0040USHH V0201101N003012200019N0100001N1+01961+00921101141ADDAA100002091AY191061AY281061GF103991031001999999041001KA1999M+02801MD1710061+9999MW1011REMSYN082AAXX  25181 23933 11997 31103 10196 20092 40114 57006 60020 70198 83040 333 10280;
0122239330999992000052521004+60970+069070FM-12+0040USHH V0202101N004012200019N0100001N1+01831+00841101031ADDGA1001+999999999GF100991001001999999001001MD1710121+9999REMSYN054AAXX  25211 23933 42997 02104 10183 20084 40103 57012;
0143239330999992000052600004+60970+069070FM-12+0040USHH V0202501N001012200019N0100001N1+01801+00761101061ADDGA1001+999999999GF100991001001999999001001MA1999999100501MD1310031+9999REMSYN060AAXX  26001 23933 42997 02501 10180 20076 30050 40106 53003;
0162239330999992000052603004+60970+069070FM-12+0040USHH V0202201N003012200019N0100001N1+02121+00931100951ADDAA199000091GA1001+999999999GF100991001001999999001001MD1810101+9999REMSYN064AAXX  26031 23933 32997 02203 10212 20093 40095 58010 333 55128;EQDQ01  00002PRCP99
0175239330999992000052606004+60970+069070FM-12+0040USHH V0202201N004012200019N0100001N1+02551+00821100831ADDAA199000091GA1001+999999999GF100991001001999999001001KA1999N+01721MD1710101+9999REMSYN064AAXX  26061 23933 32997 02204 10255 20082 40083 57010 333 20172;EQDQ01  00002PRCP99
0112239330999992000052609004+60970+069070FM-12+0040USHH V0202101N004010075019N0100001N1+02671+00621100731ADDGF105991051091008001001001MD1710101+9999REMSYN060AAXX  26091 23933 42597 52104 10267 20062 40073 57010 85900;
0101239330999992000052612004+60970+069070FM-12+0040USHH V0202101N003019999999N0100001N1+02611+00731999999ADDGF106991999999008001999999MA1999999100061REMSYN048AAXX  26121 23933 42597 62103 10261 20073 30006;
0165239330999992000052615004+60970+069070FM-12+0040USHH V0202901N001010075019N0100001N1+02311+01091100571ADDAA199000091GF108991061091008001001011KA1999M+02801MD1710031+9999REMSYN070AAXX  26151 23933 32597 82901 10231 20109 40057 57003 86901 333 10280;EQDQ01  00002PRCP99
0165239330999992000052618004+60970+069070FM-12+0040USHH V0202401N002010042019N0100001N1+01871+00941100881ADDAA199000091GF105991051091004501001001KA1999M+02801MD1410001+9999REMSYN070AAXX  26181 23933 32497 52402 10187 20094 40088 54000 85900 333 10280;EQDQ01  00002PRCP99
0112239330999992000052621004+60970+069070FM-12+0040USHH V0202501N003010750019N0100001N1+01611+00801100541ADDGF105991031051004501001021MD1710041+9999REMSYN060AAXX  26211 23933 42497 52503 10161 20080 40054 57004 83502;
0161239330999992000052700004+60970+069070FM-12+0040USHH V0202101N003010075019N0020001N1+01481+01221100541ADDAY181061AY221061GF107991071031008001001001MA1999999099991MD1410001+9999MW1801REMSYN072AAXX  27001 23933 41595 72103 10148 20122 39999 40054 54000 78082 87300;
0185239330999992000052703004+60970+069070FM-12+0040USHH V0202301N001019999999N0100001N1+01581+01361999999ADDAY181031AY221031GF108991999031008001071999MD1410001+9999MW1251REMSYN076AAXX  27031 23933 /1597 82301 10158 20136 40155 54000 72582 8037/ 333 55139;EQDQ01+000002SCOTLCQ02+101553APOSLP
0199239330999992000052706004+60970+069070FM-12+0040USHH V0202301N003019999999N0100001N1+01711+99999100511ADDAA100013091AY181061AY221061GF108991051031999999001011KA1999N+00271MD1710031+9999MW1021REMSYN082AAXX  27061 23933 11997 82303 10171 21126 40051 57003 60130 70282 85301 333 20027;EQDQ01-001263ATOD  
0112239330999992000052709004+60970+069070FM-12+0040USHH V0202301N002012200019N0100001N1+02061+01191100431ADDGF106991041091004501001011MD1710071+9999REMSYN060AAXX  27091 23933 42497 62302 10206 20119 40043 57007 84901;
0161239330999992000052712004+60970+069070FM-12+0040USHH V0203601N003010042019N0100001N1+01801+00991100401ADDAY191061AY221061GF106991051091004501041001MA1999999099851MD1210041+9999MW1291REMSYN072AAXX  27121 23933 41497 63603 10180 20099 39985 40040 52004 72992 85940;
0135239330999992000052715004+60970+069070FM-12+0040USHH V0203501N002010300019N0100001N1+01691+01131100471ADDGF106991021091004501031011KA1999M+02201MD1310071+9999REMSYN070AAXX  27151 23933 /2497 63502 10169 20113 40047 53007 82931 333 10220;
0152239330999992000052718004+60970+069070FM-12+0040USHH V0200201N001012200019N0100001N1+01351+01291100531ADDAA100000791GF102991021001999999031001KA1999M+02201MD1210051+9999REMSYN076AAXX  27181 23933 12997 20201 10135 20129 40053 52005 69900 82030 333 10220;
0112239330999992000052721004+60970+069070FM-12+0040USHH V0200301N002012200019N0100001N1+01271+01251100521ADDGF102991021001999999031001MD1810011+9999REMSYN060AAXX  27211 23933 42997 20302 10127 20125 40052 58001 82030;
0152239330999992000052803004+60970+069070FM-12+0040USHH V0200401N002012200019N0100001N1+01481+01211100431ADDAA199000091GF103991031051012501001001MD1710021+9999REMSYN070AAXX  28031 23933 32697 30402 10148 20121 40043 57002 83500 333 55126;EQDQ01  00002PRCP99
0165239330999992000052806004+60970+069070FM-12+0040USHH V0200101N003012200019N0100001N1+01771+01191100331ADDAA199000091GF103991031021008001001001KA1999N+01231MD1710101+9999REMSYN070AAXX  28061 23933 32597 30103 10177 20119 40033 57010 83200 333 20123;EQDQ01  00002PRCP99
0112239330999992000052809004+60970+069070FM-12+0040USHH V0200601N003012200019N0100001N1+02001+00701100211ADDGF102991021021008001001001MD1710111+9999REMSYN060AAXX  28091 23933 42597 20603 10200 20070 40021 57011 82200;
0133239330999992000052812004+60970+069070FM-12+0040USHH V0200601N003012200019N0100001N1+02031+00701100031ADDGF102991021021008001001011MA1999999099491MD1710181+9999REMSYN066AAXX  28121 23933 42597 20603 10203 20070 39949 40003 57018 82201;
0165239330999992000052815004+60970+069070FM-12+0040USHH V0200501N003019999999N0100001N1+01961+00561099961ADDAA199000091GF106991001001999999001011KA1999M+02061MD1710071+9999REMSYN070AAXX  28151 23933 32997 60503 10196 20056 49996 57007 80001 333 10206;EQDQ01  00002PRCP99
0165239330999992000052818004+60970+069070FM-12+0040USHH V0200601N002019999999N0100001N1+01611+01031099881ADDAA199000091GF108991001001999999001011KA1999M+02061MD1710081+9999REMSYN070AAXX  28181 23933 32997 80602 10161 20103 49988 57008 80001 333 10206;EQDQ01  00002PRCP99
0112239330999992000052821004+60970+069070FM-12+0040USHH V0200101N002010300019N0100001N1+01501+01111099761ADDGF108991031051008001071999MD1710121+9999REMSYN060AAXX  28211 23933 42597 80102 10150 20111 49976 57012 8357/;
0161239330999992000052900004+60970+069070FM-12+0040USHH V0200201N002010300019N0100001N1+01311+01271099771ADDAY161061AY221061GF108991021051008001021999MA1999999099221MD1410001+9999MW1611REMSYN072AAXX  29001 23933 41597 80202 10131 20127 39922 49977 54000 76162 8252/;
0180239330999992000052906004+60970+069070FM-12+0040USHH V0200201N004010300019N0100001N1+01751+01341099851ADDAA112004191AY161061AY221061GF108991041051004501031011KA1999N+01291MD1210091+9999MW1021REMSYN082AAXX  29061 23933 11497 80204 10175 20134 49985 52009 60042 70262 84531 333 20129;
0112239330999992000052909004+60970+069070FM-12+0040USHH V0200201N005012200019N0100001N1+02131+01491099921ADDGF106991021021008001001011MD1210081+9999REMSYN060AAXX  29091 23933 42597 60205 10213 20149 49992 52008 82201;
0133239330999992000052912004+60970+069070FM-12+0040USHH V0200301N005012200019N0100001N1+02191+00991100051ADDGF108991021021008001001011MA1999999099511MD1210121+9999REMSYN066AAXX  29121 23933 42597 80305 10219 20099 39951 40005 52012 82201;
0165239330999992000052915004+60970+069070FM-12+0040USHH V0200201N005010075019N0100001N1+02031+01021100161ADDAA199000091GF106991051091008001001011KA1999M+02241MD1210111+9999REMSYN070AAXX  29151 23933 32597 60205 10203 20102 40016 52011 85901 333 10224;EQDQ01  00002PRCP99
0171239330999992000052918004+60970+069070FM-12+0040USHH V0200301N006010075019N0100001N1+01711+01141100341ADDAA199000091GF106991061091008001001001KA1120M+02241MD1210171+9999REMSYN076AAXX  29181 23933 32597 60306 10171 20114 40034 52017 86900 333 10224 91012;EQDQ01  00002PRCP99
0112239330999992000052921004+60970+069070FM-12+0040USHH V0200101N007010075019N0100001N1+01191+00951100491ADDGF107991071091008001001001MD1210141+9999REMSYN060AAXX  29211 23933 42597 70107 10119 20095 40049 52014 87900;
0160239330999992000053000004+60970+069070FM-12+0040USHH V0200301N008010075019N0100001N1+00871+00641100601ADDGF108991081091008001999999MA1999999100031MD1210101+9999OA140101301REMSYN082AAXX  30001 23933 42597 80308 10087 20064 30003 40060 52010 889// 333 91013 91113;
0152239330999992000053003004+60970+069070FM-12+0040USHH V0203501N006010042019N0100001N1+00691+00561100801ADDAA199000091GF108991061071004501021999MD1210201+9999REMSYN070AAXX  30031 23933 32497 83506 10069 20056 40080 52020 8672/ 333 55097;EQDQ01  00002PRCP99
0188239330999992000053006004+60970+069070FM-12+0040USHH V0200101N005010042019N0100001N1+00731+00581100951ADDAA199000091GF108991061071004501021999KA1120N+00661MD1210151+9999OA140101201REMSYN082AAXX  30061 23933 32497 80105 10073 20058 40095 52015 8672/ 333 20066 91012 91114;EQDQ01  00002PRCP99
0112239330999992000053009004+60970+069070FM-12+0040USHH V0203501N004010075019N0100001N1+01001+00501100951ADDGF106991051011008001001011MD1210011+9999REMSYN060AAXX  30091 23933 42597 63504 10100 20050 40095 52001 85101;
0143239330999992000053012004+60970+069070FM-12+0040USHH V0200101N005012200019N0100001N1+01391+00511100981ADDGF103991001001999999001091MA1999999100421MD1210031+9999REMSYN076AAXX  30121 23933 42997 30105 10139 20051 30042 40098 52003 80009 333 91112;
0165239330999992000053015004+60970+069070FM-12+0040USHH V0203501N004012200019N0100001N1+01221+00561101071ADDAA199000091GF102991001001999999001011KA1999M+01431MD1210091+9999REMSYN070AAXX  30151 23933 32997 23504 10122 20056 40107 52009 80001 333 10143;EQDQ01  00002PRCP99
0175239330999992000053018004+60970+069070FM-12+0040USHH V0203601N004012200019N0100001N1+00871+00361101191ADDAA199000091GA1001+999999999GF100991001001999999001001KA1999M+01431MD1210111+9999REMSYN064AAXX  30181 23933 32997 03604 10087 20036 40119 52011 333 10143;EQDQ01  00002PRCP99
0122239330999992000053021004+60970+069070FM-12+0040USHH V0203601N003012200019N0100001N1+00711+00381101171ADDGA1001+999999999GF100991001001999999001001MD1810021+9999REMSYN054AAXX  30211 23933 42997 03603 10071 20038 40117 58002;
0133239330999992000053100004+60970+069070FM-12+0040USHH V0203601N003010042019N0100001N1+00601+00311101231ADDGF107991071031004501001001MA1999999100661MD1310061+9999REMSYN066AAXX  31001 23933 42497 73603 10060 20031 30066 40123 53006 87300;
0152239330999992000053103004+60970+069070FM-12+0040USHH V0200101N004010075019N0100001N1+00551+00361101361ADDAA199000091GF108991081051008001999999MD1210131+9999REMSYN070AAXX  31031 23933 32597 80104 10055 20036 40136 52013 885// 333 55073;EQDQ01  00002PRCP99
0165239330999992000053106004+60970+069070FM-12+0040USHH V0200301N004010075019N0100001N1+00691+00281101441ADDAA199000091GF105991051051008001001001KA1999N+00511MD1210081+9999REMSYN070AAXX  31061 23933 32597 50304 10069 20028 40144 52008 85500 333 20051;EQDQ01  00002PRCP99
0112239330999992000053109004+60970+069070FM-12+0040USHH V0200101N004012200019N0100001N1+01041+00251101441ADDGF102991021011008001001001MD1210011+9999REMSYN060AAXX  31091 23933 42597 20104 10104 20025 40144 52001 82100;
0133239330999992000053112004+60970+069070FM-12+0040USHH V0200201N004012200019N0100001N1+01201+00151101471ADDGF102991021011008001001001MA1999999100911MD1210031+9999REMSYN066AAXX  31121 23933 42597 20204 10120 20015 30091 40147 52003 82100;
0165239330999992000053115004+60970+069070FM-12+0040USHH V0200301N004012200019N0100001N1+01071+00041101521ADDAA199000091GF101991011011008001001001KA1999M+01261MD1210051+9999REMSYN070AAXX  31151 23933 32597 10304 10107 20004 40152 52005 81100 333 10126;EQDQ01  00002PRCP99
0175239330999992000053118004+60970+069070FM-12+0040USHH V0200201N004012200019N0100001N1+00811+00021101601ADDAA199000091GA1001+999999999GF100991001001999999001001KA1999M+01261MD1210071+9999REMSYN064AAXX  31181 23933 32997 00204 10081 20002 40160 52007 333 10126;EQDQ01  00002PRCP99
0122239330999992000053121004+60970+069070FM-12+0040USHH V0200201N004012200019N0100001N1+00521+00111101631ADDGA1001+999999999GF100991001001999999001001MD1210031+9999REMSYN054AAXX  31211 23933 42997 00204 10052 20011 40163 52003;
0143239330999992000060100004+60970+069070FM-12+0040USHH V0200201N003012200019N0100001N1+00521+00251101671ADDGA1001+999999999GF100991001001999999001001MA1999999101101MD1210041+9999REMSYN060AAXX  01001 23933 42997 00203 10052 20025 30110 40167 52004;
0152239330999992000060103004+60970+069070FM-12+0040USHH V0200301N004010075019N0100001N1+00551+00281101821ADDAA199000091GF108991081051008001999999MD1210151+9999REMSYN070AAXX  01031 23933 32597 80304 10055 20028 40182 52015 885// 333 55123;EQDQ01  00002PRCP99
0165239330999992000060106004+60970+069070FM-12+0040USHH V0200101N004010075019N0100001N1+00831+00211101881ADDAA199000091GF105991051051008001001001KA1999N+00521MD1210061+9999REMSYN070AAXX  01061 23933 32597 50104 10083 20021 40188 52006 85500 333 20052;EQDQ01  00002PRCP99
0122239330999992000060109004+60970+069070FM-12+0040USHH V0200101N004012200019N0100001N1+01211+00191101801ADDGA1001+999999999GF100991001001999999001001MD1210071+9999REMSYN054AAXX  01091 23933 42997 00104 10121 20019 40180 52007;
0143239330999992000060112004+60970+069070FM-12+0040USHH V0200101N004012200019N0100001N1+01391+00001101801ADDGA1001+999999999GF100991001001999999001001MA1999999101241MD1410001+9999REMSYN060AAXX  01121 23933 42997 00104 10139 20000 30124 40180 54000;
0175239330999992000060115004+60970+069070FM-12+0040USHH V0200201N002012200019N0100001N1+01401-00051101811ADDAA199000091GA1001+999999999GF100991001001999999001001KA1999M+01421MD1310011+9999REMSYN064AAXX  01151 23933 32997 00202 10140 21005 40181 53001 333 10142;EQDQ01  00002PRCP99
0175239330999992000060118004+60970+069070FM-12+0040USHH V0209999C000012200019N0100001N1+00801+00231101881ADDAA199000091GA1001+999999999GF100991001001999999001001KA1999M+01421MD1210061+9999REMSYN064AAXX  01181 23933 32997 00000 10080 20023 40188 52006 333 10142;EQDQ01  00002PRCP99
0122239330999992000060121004+60970+069070FM-12+0040USHH V0202601N001012200019N0100001N1+00631+00451101981ADDGA1001+999999999GF100991001001999999001001MD1210091+9999REMSYN054AAXX  01211 23933 42997 02601 10063 20045 40198 52009;
0133239330999992000060200004+60970+069070FM-12+0040USHH V0202601N001012200019N0100001N1+00731+00531101881ADDGF103991001001999999001011MA1999999101311MD1810091+9999REMSYN066AAXX  02001 23933 42997 32601 10073 20053 30131 40188 58009 80001;
0152239330999992000060203004+60970+069070FM-12+0040USHH V0203001N002012200019N0100001N1+01261+00381101831ADDAA199000091GF102991021001999999081001MD1710041+9999REMSYN070AAXX  02031 23933 32997 23002 10126 20038 40183 57004 82080 333 55144;EQDQ01  00002PRCP99
0165239330999992000060206004+60970+069070FM-12+0040USHH V0201901N002019999999N0100001N1+01631+00191101661ADDAA199000091GF105991051001999999031001KA1999N+00521MD1710171+9999REMSYN070AAXX  02061 23933 32997 51902 10163 20019 40166 57017 85030 333 20052;EQDQ01  00002PRCP99
0112239330999992000060209004+60970+069070FM-12+0040USHH V0201401N002010075019N0100001N1+01721+00151101481ADDGF105991051051008001001001MD1710181+9999REMSYN060AAXX  02091 23933 42597 51402 10172 20015 40148 57018 85500;
0133239330999992000060212004+60970+069070FM-12+0040USHH V0201001N002010075019N0100001N1+01901+00321101311ADDGF107991071051008001001001MA1999999100751MD1710171+9999REMSYN066AAXX  02121 23933 42597 71002 10190 20032 30075 40131 57017 87500;
0165239330999992000060215004+60970+069070FM-12+0040USHH V0201201N002010075019N0100001N1+01611+00511101211ADDAA199000091GF107991071051008001001001KA1999M+02011MD1710101+9999REMSYN070AAXX  02151 23933 32597 71202 10161 20051 40121 57010 87500 333 10201;EQDQ01  00002PRCP99
0174239330999992000060218004+60970+069070FM-12+0040USHH V0200601N002010075019N0100001N1+01441+00891101171ADDAA199000021AY161061AY221061GF107991071051008001001001KA1999M+02011MD1710041+9999MW1601REMSYN076AAXX  02181 23933 31597 70602 10144 20089 40117 57004 76062 87500 333 10201;
0150239330999992000060221004+60970+069070FM-12+0040USHH V0200501N002012200019N0100001N1+01021+00321101171ADDAY161031AY211031GA1001+999999999GF100991001001999999001001MD1410001+9999MW1011REMSYN060AAXX  02211 23933 41997 00502 10102 20032 40117 54000 70161;
0161239330999992000060300004+60970+069070FM-12+0040USHH V0200501N002012200019N0100001N1+00941+00671101171ADDAY161061AY211061GF102991001001999999001011MA1999999100601MD1810011+9999MW1021REMSYN072AAXX  03001 23933 41997 20502 10094 20067 30060 40117 58001 70261 80001;
0122239330999992000060303004+60970+069070FM-12+0040USHH V0200601N003012200019N0100001N1+01151+00761101301ADDGF101991011001999999031001MD1310141+9999REMSYN070AAXX  03031 23933 /2997 10603 10115 20076 40130 53014 81030 333 55133;
0152239330999992000060306004+60970+069070FM-12+0040USHH V0200701N003012200019N0100001N1+01331+00671101321ADDAA100000791GF101991011011008001001001KA1999N+00901MD1210021+9999REMSYN076AAXX  03061 23933 12597 10703 10133 20067 40132 52002 69900 81100 333 20090;
0112239330999992000060309004+60970+069070FM-12+0040USHH V0201101N002012200019N0100001N1+01521+00651101341ADDGF102991021011008001001001MD1210021+9999REMSYN060AAXX  03091 23933 42597 21102 10152 20065 40134 52002 82100;
0133239330999992000060312004+60970+069070FM-12+0040USHH V0200301N001012200019N0100001N1+01631+00531101261ADDGF101991011001999999031001MA1999999100701MD1810081+9999REMSYN066AAXX  03121 23933 42997 10301 10163 20053 30070 40126 58008 81030;
0175239330999992000060315004+60970+069070FM-12+0040USHH V0201501N002012200019N0100001N1+01621+00361101151ADDAA199000091GA1001+999999999GF100991001001999999001001KA1999M+01711MD1710111+9999REMSYN064AAXX  03151 23933 32997 01502 10162 20036 40115 57011 333 10171;EQDQ01  00002PRCP99
0175239330999992000060318004+60970+069070FM-12+0040USHH V0201501N001012200019N0100001N1+00991+00531101071ADDAA199000091GA1001+999999999GF100991001001999999001001KA1999M+01711MD1710081+9999REMSYN064AAXX  03181 23933 32997 01501 10099 20053 40107 57008 333 10171;EQDQ01  00002PRCP99
0122239330999992000060321004+60970+069070FM-12+0040USHH V0202201N002012200019N0100001N1+01231+00501100991ADDGA1001+999999999GF100991001001999999001001MD1710081+9999REMSYN054AAXX  03211 23933 42997 02202 10123 20050 40099 57008;
0133239330999992000060400004+60970+069070FM-12+0040USHH V0202001N003012200019N0100001N1+01261+00431100781ADDGF101991001001999999001011MA1999999100221MD1710211+9999REMSYN066AAXX  04001 23933 42997 12003 10126 20043 30022 40078 57021 80001;
0152239330999992000060403004+60970+069070FM-12+0040USHH V0201801N003019999999N0100001N1+01631+00801100591ADDAA199000091GF106991001001999999001011MD1710181+9999REMSYN070AAXX  04031 23933 32997 61803 10163 20080 40059 57018 80001 333 55177;EQDQ01  00002PRCP99
0165239330999992000060406004+60970+069070FM-12+0040USHH V0202201N004010300019N0100001N1+01971+00461100431ADDAA199000091GF108991031091004501041011KA1999N+00901MD1710151+9999REMSYN070AAXX  04061 23933 32497 82204 10197 20046 40043 57015 83941 333 20090;EQDQ01  00002PRCP99
0140239330999992000060409004+60970+069070FM-12+0040USHH V0202101N003010042019N0100001N1+01231+01121100501ADDAY181031AY221031GF108991081031004501999999MD1310051+9999MW1801REMSYN066AAXX  04091 23933 41497 82103 10123 20112 40050 53005 78082 883//;
0161239330999992000060412004+60970+069070FM-12+0040USHH V0203001N003010042019N0100001N1+01191+01181100571ADDAY181061AY221061GF108991081031004501999999MA1999999100011MD1210071+9999MW1801REMSYN072AAXX  04121 23933 41497 83003 10119 20118 30001 40057 52007 78082 883//;
0163239330999992000060415004+60970+069070FM-12+0040USHH V0202901N003010042019N0100001N1+01181+01171100621ADDAY181031AY221031GF108991071091004501021999KA1999M+02061MD1210051+9999MW1021REMSYN076AAXX  04151 23933 /1497 82903 10118 20117 40062 52005 70282 8792/ 333 10206;
0180239330999992000060418004+60970+069070FM-12+0040USHH V0203001N003010075019N0100001N1+01211+01151100621ADDAA100004191AY181061AY221061GF108991071051008001021999KA1999M+02061MD1410001+9999MW1021REMSYN082AAXX  04181 23933 11597 83003 10121 20115 40062 54000 60040 70282 8752/ 333 10206;
0112239330999992000060421004+60970+069070FM-12+0040USHH V0203001N002010075019N0100001N1+01171+01111100611ADDGF107991071051008001001001MD1810011+9999REMSYN060AAXX  04211 23933 42597 73002 10117 20111 40061 58001 87500;
0133239330999992000060500004+60970+069070FM-12+0040USHH V0202401N001010042019N0100001N1+01121+00921100601ADDGF108991081091004501999999MA1999999100041MD1710011+9999REMSYN066AAXX  05001 23933 42497 82401 10112 20092 30004 40060 57001 889//;
0152239330999992000060503004+60970+069070FM-12+0040USHH V0203001N002010042019N0100001N1+01301+01111100531ADDAA199000091GF106991061051004501001001MD1710071+9999REMSYN070AAXX  05031 23933 32497 63002 10130 20111 40053 57007 86500 333 55070;EQDQ01  00002PRCP99
0181239330999992000060506004+60970+069070FM-12+0040USHH V0202901N004010075019N0100001N1+01541+00641100471ADDAA199000091GF107991999091008001001001KA1999N+01121MD1710051+9999REMSYN070AAXX  05061 23933 32597 72904 10154 20064 40047 57005 86900 333 20112;EQDQ01+000062SCOTLCQ02  00002PRCP99
0112239330999992000060509004+60970+069070FM-12+0040USHH V0203001N003012200019N0100001N1+01711+00501100391ADDGF106991021021008001001011MD1710081+9999REMSYN060AAXX  05091 23933 42597 63003 10171 20050 40039 57008 82201;
0133239330999992000060512004+60970+069070FM-12+0040USHH V0203101N003012200019N0100001N1+01871+00431100281ADDGF105991011021008001001011MA1999999099731MD1710111+9999REMSYN066AAXX  05121 23933 42597 53103 10187 20043 39973 40028 57011 81201;
0165239330999992000060515004+60970+069070FM-12+0040USHH V0201301N002012200019N0100001N1+01841+00341100231ADDAA199000091GF105991021051008001001011KA1999M+01951MD1710051+9999REMSYN070AAXX  05151 23933 32597 51302 10184 20034 40023 57005 82501 333 10195;EQDQ01  00002PRCP99
0165239330999992000060518004+60970+069070FM-12+0040USHH V0200901N002012200019N0100001N1+01461+00851100111ADDAA199000091GF103991021051008001001011KA1999M+01951MD1710121+9999REMSYN070AAXX  05181 23933 32597 30902 10146 20085 40011 57012 82501 333 10195;EQDQ01  00002PRCP99
0112239330999992000060521004+60970+069070FM-12+0040USHH V0201201N002012200019N0100001N1+01331+01251099931ADDGF105991041051008001001011MD1710181+9999REMSYN060AAXX  05211 23933 42597 51202 10133 20125 49993 57018 84501;
0133239330999992000060600004+60970+069070FM-12+0040USHH V0202201N002010075019N0100001N1+01441+00981099791ADDGF107991061051008001031001MA1999999099251MD1710131+9999REMSYN066AAXX  06001 23933 42597 72202 10144 20098 39925 49979 57013 86530;
0150239330999992000060603004+60970+069070FM-12+0040USHH V0202601N001010042019N0100001N1+01361+01251099731ADDAY181031AY221031GF108991081031004501999999MD1710071+9999MW1251REMSYN076AAXX  06031 23933 /1497 82601 10136 20125 49973 57007 72582 883// 333 55140;
0180239330999992000060606004+60970+069070FM-12+0040USHH V0202001N002010042019N0100001N1+01511+01311099641ADDAA100000791AY181061AY221061GF106991061031004501001001KA1999N+01201MD1710081+9999MW1251REMSYN082AAXX  06061 23933 11497 62002 10151 20131 49964 57008 69900 72582 86300 333 20120;
0112239330999992000060609004+60970+069070FM-12+0040USHH V0202401N003010042019N0100001N1+01771+00981099561ADDGF107991061031004501001011MD1710081+9999REMSYN060AAXX  06091 23933 42497 72403 10177 20098 49956 57008 86301;
0133239330999992000060612004+60970+069070FM-12+0040USHH V0202901N003012200019N0100001N1+01781+00801099581ADDGF107991021021008001001011MA1999999099041MD1310021+9999REMSYN066AAXX  06121 23933 42597 72903 10178 20080 39904 49958 53002 82201;
0135239330999992000060615004+60970+069070FM-12+0040USHH V0202901N002010075019N0100001N1+01741+00701099551ADDGF107991051051008001001011KA1999M+01921MD1810031+9999REMSYN070AAXX  06151 23933 /2597 72902 10174 20070 49955 58003 85501 333 10192;
0152239330999992000060618004+60970+069070FM-12+0040USHH V0202301N001010075019N0100001N1+01281+00841099521ADDAA100000791GF105991051091008001001001KA1999M+01921MD1710041+9999REMSYN076AAXX  06181 23933 12597 52301 10128 20084 49952 57004 69900 85900 333 10192;
0131239330999992000060621004+60970+069070FM-12+0040USHH V0209999C000019999999N0100001N1+01181+00901099431ADDGF106991999091008001001001MD1710091+9999REMSYN060AAXX  06211 23933 42597 60000 10118 20090 49943 57009 84900;EQDQ01+000042SCOTLC
0133239330999992000060700004+60970+069070FM-12+0040USHH V0202901N002010075019N0100001N1+01211+01151099411ADDGF106991051051008001001011MA1999999098861MD1710021+9999REMSYN066AAXX  07001 23933 42597 62902 10121 20115 39886 49941 57002 85501;
0152239330999992000060703004+60970+069070FM-12+0040USHH V0202801N002012200019N0100001N1+01461+01041099401ADDAA199000091GF106991041011008001001011MD1410001+9999REMSYN070AAXX  07031 23933 32597 62802 10146 20104 49940 54000 84101 333 55095;EQDQ01  00002PRCP99
0165239330999992000060706004+60970+069070FM-12+0040USHH V0202901N003012200019N0100001N1+01641+00811099371ADDAA199000091GF106991031091004501001011KA1999N+01171MD1810031+9999REMSYN070AAXX  07061 23933 32497 62903 10164 20081 49937 58003 83901 333 20117;EQDQ01  00002PRCP99
0112239330999992000060709004+60970+069070FM-12+0040USHH V0203201N003010042019N0100001N1+01701+00511099411ADDGF106991051091004501031001MD1310041+9999REMSYN060AAXX  07091 23933 42497 63203 10170 20051 49941 53004 85930;
0127239330999992000060712004+60970+069070FM-12+0040USHH V0203501N003019999999N0100001N1+01671+00731099481ADDGF107991999999004501999999MA1999999098941MD1210071+9999REMSYN060AAXX  07121 23933 42497 73503 10167 20073 39894 49948 52007;
0163239330999992000060715004+60970+069070FM-12+0040USHH V0200201N005010042019N0100001N1+01201+00841099561ADDAY181031AY221031GF106991051031004501001011KA1999M+01791MD1210071+9999MW1021REMSYN076AAXX  07151 23933 /1497 60205 10120 20084 49956 52007 70282 85301 333 10179;
0180239330999992000060718004+60970+069070FM-12+0040USHH V0203501N004010042019N0100001N1+00881+00731099651ADDAA100000791AY181061AY221061GF108991081031004501999999KA1999M+01791MD1210081+9999MW1021REMSYN082AAXX  07181 23933 11497 83504 10088 20073 49965 52008 69900 70282 883// 333 10179;
0112239330999992000060721004+60970+069070FM-12+0040USHH V0203201N004010042019N0100001N1+00681+00551099661ADDGF108991081031004501999999MD1210011+9999REMSYN060AAXX  07211 23933 42497 83204 10068 20055 49966 52001 883//;
0133239330999992000060800004+60970+069070FM-12+0040USHH V0203101N004010042019N0100001N1+00591+00541099701ADDGF108991081051004501999999MA1999999099141MD1210041+9999REMSYN066AAXX  08001 23933 42497 83104 10059 20054 39914 49970 52004 885//;
0150239330999992000060803004+60970+069070FM-12+0040USHH V0203001N003010042019N0040001N1+00611+00611099821ADDAY161031AY221031GF108991081001004501021999MD1210121+9999MW1611REMSYN076AAXX  08031 23933 /1496 83003 10061 20061 49982 52012 76162 8802/ 333 55139;
0180239330999992000060806004+60970+069070FM-12+0040USHH V0203501N003010042019N0100001N1+00701+00701099861ADDAA100001091AY161061AY221061GF108991081001004501021999KA1999N+00571MD1210041+9999MW1611REMSYN082AAXX  08061 23933 11497 83503 10070 20070 49986 52004 60010 76162 8802/ 333 20057;
0140239330999992000060809004+60970+069070FM-12+0040USHH V0203601N004010075019N0100001N1+00841+00801100181ADDAY161031AY221031GF108991081051008001999999MD1210311+9999MW1021REMSYN066AAXX  08091 23933 41597 83604 10084 20080 40018 52031 70262 885//;
0161239330999992000060812004+60970+069070FM-12+0040USHH V0203501N005010075019N0100001N1+00971+00761100421ADDAY161061AY221061GF108991061051008001071999MA1999999099861MD1210251+9999MW1021REMSYN072AAXX  08121 23933 41597 83505 10097 20076 39986 40042 52025 70262 8657/;
0135239330999992000060815004+60970+069070FM-12+0040USHH V0203301N004010042019N0100001N1+00901+00641100631ADDGF108991061071004501021999KA1999M+01001MD1210201+9999REMSYN070AAXX  08151 23933 /2497 83304 10090 20064 40063 52020 8672/ 333 10100;
0152239330999992000060818004+60970+069070FM-12+0040USHH V0203201N003012200019N0100001N1+00861+00641100851ADDAA100001091GF102991001001999999001011KA1999M+01001MD1210221+9999REMSYN076AAXX  08181 23933 12997 23203 10086 20064 40085 52022 60010 80001 333 10100;
0122239330999992000060821004+60970+069070FM-12+0040USHH V0203501N003012200019N0100001N1+00761+00341100971ADDGA1001+999999999GF100991001001999999001001MD1210121+9999REMSYN054AAXX  08211 23933 42997 03503 10076 20034 40097 52012;
0143239330999992000060900004+60970+069070FM-12+0040USHH V0200101N003012200019N0100001N1+00661+00081101121ADDGA1001+999999999GF100991001001999999001001MA1999999100551MD1210151+9999REMSYN060AAXX  09001 23933 42997 00103 10066 20008 30055 40112 52015;
0175239330999992000060906004+60970+069070FM-12+0040USHH V0200201N003012200019N0100001N1+01261-00171101371ADDAA199000091GA1001+999999999GF100991001001999999001001KA1999N+00631MD1210081+9999REMSYN064AAXX  09061 23933 32997 00203 10126 21017 40137 52008 333 20063;EQDQ01  00002PRCP99
0112239330999992000060909004+60970+069070FM-12+0040USHH V0200301N003019999999N0100001N1+01501-00191101361ADDGF106991001001999999001011MD1810011+9999REMSYN060AAXX  09091 23933 42997 60303 10150 21019 40136 58001 80001;
0133239330999992000060912004+60970+069070FM-12+0040USHH V0201001N002019999999N0100001N1+01611-00071101331ADDGF105991001001999999001011MA1999999100771MD1710031+9999REMSYN066AAXX  09121 23933 42997 51002 10161 21007 30077 40133 57003 80001;
0165239330999992000060915004+60970+069070FM-12+0040USHH V0201201N001019999999N0100001N1+01511-00071101311ADDAA199000091GF106991061001999999031001KA1999M+01731MD1710021+9999REMSYN070AAXX  09151 23933 32997 61201 10151 21007 40131 57002 86030 333 10173;EQDQ01  00002PRCP99
0165239330999992000060918004+60970+069070FM-12+0040USHH V0202001N001010120019N0100001N1+01251+00131101291ADDAA199000091GF106991061051012501001001KA1999M+01731MD1710021+9999REMSYN070AAXX  09181 23933 32697 62001 10125 20013 40129 57002 86500 333 10173;EQDQ01  00002PRCP99
0112239330999992000060921004+60970+069070FM-12+0040USHH V0202001N002010075019N0100001N1+01331+00151101221ADDGF106991061051008001001001MD1710071+9999REMSYN060AAXX  09211 23933 42597 62002 10133 20015 40122 57007 86500;
0133239330999992000061000004+60970+069070FM-12+0040USHH V0202001N003010300019N0100001N1+01221+00321101191ADDGF106991021051008001031001MA1999999100631MD1710031+9999REMSYN066AAXX  10001 23933 42597 62003 10122 20032 30063 40119 57003 82530;
0152239330999992000061003004+60970+069070FM-12+0040USHH V0201901N003012200019N0100001N1+01631+00501101131ADDAA199000091GF103991031001999999031001MD1710061+9999REMSYN070AAXX  10031 23933 32997 31903 10163 20050 40113 57006 83030 333 55161;EQDQ01  00002PRCP99
0175239330999992000061006004+60970+069070FM-12+0040USHH V0201801N004012200019N0100001N1+02051+00451101031ADDAA199000091GA1001+999999999GF100991001001999999001001KA1999N+01171MD1710091+9999REMSYN064AAXX  10061 23933 32997 01804 10205 20045 40103 57009 333 20117;EQDQ01  00002PRCP99
0112239330999992000061009004+60970+069070FM-12+0040USHH V0201801N004012200019N0100001N1+02291+00621100951ADDGF101991001001999999001011MD1710081+9999REMSYN060AAXX  10091 23933 42997 11804 10229 20062 40095 57008 80001;
0133239330999992000061012004+60970+069070FM-12+0040USHH V0202001N004019999999N0100001N1+02321+00461100861ADDGF105991001001999999001011MA1999999100321MD1710081+9999REMSYN066AAXX  10121 23933 42997 52004 10232 20046 30032 40086 57008 80001;
0165239330999992000061015004+60970+069070FM-12+0040USHH V0202001N003019999999N0100001N1+02141+00321100831ADDAA199000091GF106991031001999999031011KA1999M+02431MD1710031+9999REMSYN070AAXX  10151 23933 32997 62003 10214 20032 40083 57003 83031 333 10243;EQDQ01  00002PRCP99
0165239330999992000061018004+60970+069070FM-12+0040USHH V0201501N002012200019N0100001N1+01831+00451100851ADDAA199000091GF104991001001999999001011KA1999M+02431MD1310011+9999REMSYN070AAXX  10181 23933 32997 41502 10183 20045 40085 53001 80001 333 10243;EQDQ01  00002PRCP99
0112239330999992000061021004+60970+069070FM-12+0040USHH V0201901N003019999999N0100001N1+01731+00641100811ADDGF106991031001999999031011MD1810041+9999REMSYN060AAXX  10211 23933 42997 61903 10173 20064 40081 58004 83031;
0133239330999992000061100004+60970+069070FM-12+0040USHH V0202101N003019999999N0100001N1+01611+00861100871ADDGF108991061001999999031011MA1999999100321MD1310061+9999REMSYN066AAXX  11001 23933 42997 82103 10161 20086 30032 40087 53006 86031;
0152239330999992000061103004+60970+069070FM-12+0040USHH V0201301N003019999999N0100001N1+01731+01171100881ADDAA199000091GF108991081001999999071999MD1210011+9999REMSYN070AAXX  11031 23933 32997 81303 10173 20117 40088 52001 8807/ 333 55147;EQDQ01  00002PRCP99
0174239330999992000061106004+60970+069070FM-12+0040USHH V0201501N002010042019N0100001N1+01941+01261100951ADDAA199000021AY161061AY221061GF108991051071004501021999KA1999N+01571MD1210071+9999MW1611REMSYN076AAXX  11061 23933 31497 81502 10194 20126 40095 52007 76162 8572/ 333 20157;
0140239330999992000061109004+60970+069070FM-12+0040USHH V0201301N003010075019N0100001N1+01901+01471100921ADDAY161031AY221031GF108991061051008001021999MD1810021+9999MW1211REMSYN066AAXX  11091 23933 41597 81303 10190 20147 40092 58002 72162 8652/;
0161239330999992000061112004+60970+069070FM-12+0040USHH V0200901N002010075019N0100001N1+01901+01691100881ADDAY161061AY221061GF108991061051008001021999MA1999999100341MD1710041+9999MW1601REMSYN072AAXX  11121 23933 41597 80902 10190 20169 30034 40088 57004 76062 8652/;
0163239330999992000061115004+60970+069070FM-12+0040USHH V0201801N002012200019N0100001N1+01931+01661100831ADDAY161031AY221031GF103991021051008001001011KA1999M+02011MD1710051+9999MW1021REMSYN076AAXX  11151 23933 /1597 31802 10193 20166 40083 57005 70262 82501 333 10201;
0180239330999992000061118004+60970+069070FM-12+0040USHH V0202001N002010750019N0100001N1+01831+01281100891ADDAA100002091AY161061AY211061GF108991031031004501001021KA1999M+02011MD1310051+9999MW1021REMSYN082AAXX  11181 23933 11497 82002 10183 20128 40089 53005 60020 70261 83302 333 10201;
0112239330999992000061121004+60970+069070FM-12+0040USHH V0202501N002012200019N0100001N1+01651+01151100921ADDGF103991031051004501001001MD1210031+9999REMSYN060AAXX  11211 23933 42497 32502 10165 20115 40092 52003 83500;
0133239330999992000061203004+60970+069070FM-12+0040USHH V0202401N001012200019N0100001N1+01531+01441100971ADDGF102991001001999999001011MA1999999100421MD1210051+9999REMSYN066AAXX  12031 23933 42997 22401 10153 20144 30042 40097 52005 80001;
0165239330999992000061206004+60970+069070FM-12+0040USHH V0202701N003012200019N0100001N1+01671+01271101261ADDAA199000091GF103991011011008001001011KA1999N+01481MD1210101+9999REMSYN070AAXX  12061 23933 32597 32703 10167 20127 40126 52010 81101 333 20148;EQDQ01  00002PRCP99
0112239330999992000061209004+60970+069070FM-12+0040USHH V0202901N003012200019N0100001N1+01891+01141101281ADDGF103991021021008001001011MD1210021+9999REMSYN060AAXX  12091 23933 42597 32903 10189 20114 40128 52002 82201;
0133239330999992000061212004+60970+069070FM-12+0040USHH V0209999V002012200019N0100001N1+02081+01051101251ADDGF102991021021008001001001MA1999999100701MD1810021+9999REMSYN066AAXX  12121 23933 42597 29902 10208 20105 30070 40125 58002 82200;
0175239330999992000061215004+60970+069070FM-12+0040USHH V0202701N003012200019N0100001N1+01981+00821101241ADDAA199000091GA1001+999999999GF100991001001999999001001KA1999M+02101MD1710011+9999REMSYN064AAXX  12151 23933 32997 02703 10198 20082 40124 57001 333 10210;EQDQ01  00002PRCP99
0175239330999992000061218004+60970+069070FM-12+0040USHH V0202301N001012200019N0100001N1+01411+01001101301ADDAA199000091GA1001+999999999GF100991001001999999001001KA1999M+02101MD1310051+9999REMSYN064AAXX  12181 23933 32997 02301 10141 20100 40130 53005 333 10210;EQDQ01  00002PRCP99
0122239330999992000061221004+60970+069070FM-12+0040USHH V0201901N001012200019N0100001N1+01161+01091101291ADDGA1001+999999999GF100991001001999999001001MD1810011+9999REMSYN054AAXX  12211 23933 42997 01901 10116 20109 40129 58001;
0118239330999992000061300004+60970+069070FM-12+0040USHH V0201401N001012200019N0100001N1+01661+01061999999ADDGF101991999999008001999999MA1999999100681REMSYN065AAXX  13001 23933 42597 11401 10166 20106 30068 0124 57005 81500;
0162239330999992000061303004+60970+069070FM-12+0040USHH V0202001N002012200019N0100001N1+02021+01241101241ADDAA199000091GA1001+999999999GF100991001001999999001001MD1310011+9999REMSYN064AAXX  13031 23933 32997 02002 10202 20124 40124 53001 333 55174;EQDQ01  00002PRCP99
0165239330999992000061306004+60970+069070FM-12+0040USHH V0202001N002012200019N0100001N1+02291+01151101131ADDAA199000091GF103991031021008001001001KA1999N+01141MD1810111+9999REMSYN070AAXX  13061 23933 32597 32002 10229 20115 40113 58011 83200 333 20114;EQDQ01  00002PRCP99
0112239330999992000061309004+60970+069070FM-12+0040USHH V0202401N004012200019N0100001N1+02471+00731101011ADDGF103991031021008001001001MD1710111+9999REMSYN060AAXX  13091 23933 42597 32404 10247 20073 40101 57011 83200;
0133239330999992000061312004+60970+069070FM-12+0040USHH V0202401N003012200019N0100001N1+02541+00641100891ADDGF102991021011008001001011MA1999999100361MD1710111+9999REMSYN066AAXX  13121 23933 42597 22403 10254 20064 30036 40089 57011 82101;
0165239330999992000061315004+60970+069070FM-12+0040USHH V0202301N003012200019N0100001N1+02451+00611100901ADDAA199000091GF102991001001999999001011KA1999M+02611MD1410001+9999REMSYN070AAXX  13151 23933 32997 22303 10245 20061 40090 54000 80001 333 10261;EQDQ01  00002PRCP99
0175239330999992000061318004+60960+069690FM-12+0040USHH V0201501N001012200019N0100001N1+01811+00941100911ADDAA199000091GA1001+999999999GF100991001001999999001001KA1999M+02611MD1410001+9999REMSYN064AAXX  13181 23933 32997 01501 10181 20094 40091 54000 333 10261;EQDQ01  00002PRCP99
0112239330999992000061321004+60960+069690FM-12+0040USHH V0201201N001012200019N0100001N1+01921+00891100921ADDGF103991001001999999001011MD1310011+9999REMSYN060AAXX  13211 23933 42997 31201 10192 20089 40092 53001 80001;
0133239330999992000061400004+60960+069690FM-12+0040USHH V0201001N002012200019N0100001N1+01791+01621100961ADDGF106991031051008001001011MA1999999100401MD1210031+9999REMSYN066AAXX  14001 23933 42597 61002 10179 20162 30040 40096 52003 83501;
0162239330999992000061403004+60960+069690FM-12+0040USHH V0201801N002012200019N0100001N1+02191+01521100891ADDAA199000091GA1001+999999999GF100991001001999999001001MD1810051+9999REMSYN064AAXX  14031 23933 32997 01802 10219 20152 40089 58005 333 55175;EQDQ01  00002PRCP99
0165239330999992000061406004+60960+069690FM-12+0040USHH V0201601N003012200019N0100001N1+02481+01581100851ADDAA199000091GF103991031021008001001001KA1999N+01701MD1710031+9999REMSYN070AAXX  14061 23933 32597 31603 10248 20158 40085 57003 83200 333 20170;EQDQ01  00002PRCP99
0112239330999992000061409004+60960+069690FM-12+0040USHH V0202101N003010042019N0100001N1+02621+01351100781ADDGF108991061031004501001011MD1710071+9999REMSYN060AAXX  14091 23933 42497 82103 10262 20135 40078 57007 86301;
0133239330999992000061412004+60960+069690FM-12+0040USHH V0201501N003010750019N0100001N1+02751+01351100661ADDGF108991021031004501001021MA1999999100131MD1710121+9999REMSYN066AAXX  14121 23933 42497 81503 10275 20135 30013 40066 57012 82302;
0165239330999992000061415004+60960+069690FM-12+0040USHH V0202101N002019999999N0100001N1+02491+01061100621ADDAA199000091GF105991051001999999031001KA1999M+02791MD1710041+9999REMSYN070AAXX  14151 23933 32997 52102 10249 20106 40062 57004 85030 333 10279;EQDQ01  00002PRCP99
0165239330999992000061418004+60960+069690FM-12+0040USHH V0201301N001012200019N0100001N1+02161+01201100621ADDAA199000091GF102991021001999999031001KA1999M+02791MD1710011+9999REMSYN070AAXX  14181 23933 32997 21301 10216 20120 40062 57001 82030 333 10279;EQDQ01  00002PRCP99
0112239330999992000061421004+60960+069690FM-12+0040USHH V0201501N002019999999N0100001N1+02011+01171100571ADDGF106991061001999999031001MD1710051+9999REMSYN060AAXX  14211 23933 42997 61502 10201 20117 40057 57005 86030;
0133239330999992000061500004+60960+069690FM-12+0040USHH V0202001N002019999999N0100001N1+01941+01101100581ADDGF105991021001999999031011MA1999999100041MD1310011+9999REMSYN066AAXX  15001 23933 42997 52002 10194 20110 30004 40058 53001 82031;
0165239330999992000061506004+60960+069690FM-12+0040USHH V0201001N003019999999N0100001N1+02041+01031100541ADDAA199000091GF106991001001999999001021KA1999N+01871MD1810081+9999REMSYN070AAXX  15061 23933 32997 61003 10204 20103 40054 58008 80002 333 20187;EQDQ01  00002PRCP99
0112239330999992000061509004+60960+069690FM-12+0040USHH V0201001N002010300019N0100001N1+02141+01221100271ADDGF106991021091008001031011MD1710271+9999REMSYN060AAXX  15091 23933 42597 61002 10214 20122 40027 57027 82931;
0161239330999992000061512004+60960+069690FM-12+0040USHH V0202701N003010300019N0100001N1+01731+01611100151ADDAY191061AY281061GF107991041091008001031001MA1999999099601MD1710131+9999MW1291REMSYN072AAXX  15121 23933 41597 72703 10173 20161 39960 40015 57013 72998 84930;
0135239330999992000061515004+60960+069690FM-12+0040USHH V0202001N002010300019N0100001N1+01761+01611100101ADDGF106991021091004501031011KA1999M+02231MD1710051+9999REMSYN070AAXX  15151 23933 /2497 62002 10176 20161 40010 57005 82931 333 10223;
0152239330999992000061518004+60960+069690FM-12+0040USHH V0202201N002010300019N0100001N1+01691+01491100081ADDAA100008991GF106991031051008001031001KA1999M+02231MD1710021+9999REMSYN076AAXX  15181 23933 12597 62202 10169 20149 40008 57002 60090 83530 333 10223;
0112239330999992000061521004+60960+069690FM-12+0040USHH V0202201N002019999999N0100001N1+01591+01281100091ADDGF108991081001999999051999MD1310011+9999REMSYN060AAXX  15211 23933 42997 82202 10159 20128 40009 53001 8805/;
0133239330999992000061600004+60960+069690FM-12+0040USHH V0202001N002010120019N0100001N1+01551+01351100101ADDGF106991061051012501001001MA1999999099551MD1210011+9999REMSYN066AAXX  16001 23933 42697 62002 10155 20135 39955 40010 52001 86500;
0152239330999992000061603004+60960+069690FM-12+0040USHH V0201101N002010075019N0100001N1+01731+01381100041ADDAA199000091GF108991061051008001001011MD1810061+9999REMSYN070AAXX  16031 23933 32597 81102 10173 20138 40004 58006 86501 333 55098;EQDQ01  00002PRCP99
0165239330999992000061606004+60960+069690FM-12+0040USHH V0201101N003010300019N0100001N1+01861+01371099921ADDAA199000091GF106991031031004501031011KA1999N+01511MD1710111+9999REMSYN070AAXX  16061 23933 32497 61103 10186 20137 49992 57011 83331 333 20151;EQDQ01  00002PRCP99
0140239330999992000061609004+60960+069690FM-12+0040USHH V0201001N002010300019N0100001N1+01901+01511099801ADDAY181031AY221031GF107991041091004501031011MD1710111+9999MW1021REMSYN066AAXX  16091 23933 41497 71002 10190 20151 49980 57011 70282 84931;
0161239330999992000061612004+60960+069690FM-12+0040USHH V0201701N002010300019N0100001N1+02011+01321099731ADDAY181061AY221061GF108991041091004501031011MA1999999099201MD1710071+9999MW1251REMSYN072AAXX  16121 23933 41497 81702 10201 20132 39920 49973 57007 72582 84931;
0135239330999992000061615004+60960+069690FM-12+0040USHH V0202601N002010042019N0100001N1+01801+01381099791ADDGF106991051091004501031001KA1999M+02091MD1310051+9999REMSYN070AAXX  16151 23933 /2497 62602 10180 20138 49979 53005 85930 333 10209;
0180239330999992000061618004+60960+069690FM-12+0040USHH V0202301N002010042019N0100001N1+01571+01431099851ADDAA100000791AY181061AY221061GF108991061091004501021999KA1999M+02091MD1210061+9999MW1021REMSYN082AAXX  16181 23933 11497 82302 10157 20143 49985 52006 69900 70282 8692/ 333 10209;
0112239330999992000061621004+60960+069690FM-12+0040USHH V0202701N003010042019N0100001N1+01551+01501099981ADDGF108991061091004501021999MD1710121+9999REMSYN060AAXX  16211 23933 42497 82703 10155 20150 49998 57012 8692/;
0161239330999992000061700004+60960+069690FM-12+0040USHH V0202601N003010042019N0100001N1+01481+01461100211ADDAY181061AY221061GF107991061091004501031001MA1999999099661MD1210231+9999MW1021REMSYN072AAXX  17001 23933 41497 72603 10148 20146 39966 40021 52023 70282 86930;
0150239330999992000061703004+60960+069690FM-12+0040USHH V0202401N003010300019N0100001N1+01541+01431100451ADDAY181031AY221031GF105991031021008001031011MD1210241+9999MW1021REMSYN076AAXX  17031 23933 /1597 52403 10154 20143 40045 52024 70282 83231 333 55073;
0152239330999992000061706004+60960+069690FM-12+0040USHH V0202501N005012200019N0100001N1+01861+00901100111ADDAA100001091GF102991021011008001001001KA1999N+01461MD1210211+9999REMSYN076AAXX  17061 23933 12597 22505 10186 20090 40011 52021 60010 82100 333 20146;
0112239330999992000061709004+60960+069690FM-12+0040USHH V0202601N005012200019N0100001N1+02011+00501100821ADDGF103991031021008001001001MD1210171+9999REMSYN060AAXX  17091 23933 42597 32605 10201 20050 40082 52017 83200;
0165239330999992000061715004+60960+069690FM-12+0040USHH V0202601N004012200019N0100001N1+02111+00451101101ADDAA199000091GF104991021011008001001011KA1999M+02241MD1210101+9999REMSYN070AAXX  17151 23933 32597 42604 10211 20045 40110 52010 82101 333 10224;EQDQ01  00002PRCP99
0165239330999992000061718004+60960+069690FM-12+0040USHH V0202001N001010750019N0100001N1+01801+00711101161ADDAA199000091GF108991021051008001001071KA1999M+02241MD1210051+9999REMSYN070AAXX  17181 23933 32597 82001 10180 20071 40116 52005 82507 333 10224;EQDQ01  00002PRCP99
0133239330999992000061800004+60960+069690FM-12+0040USHH V0201401N003010075019N0100001N1+01691+01291101201ADDGF107991051051008001031001MA1999999100641MD1810061+9999REMSYN066AAXX  18001 23933 42597 71403 10169 20129 30064 40120 58006 85530;
0152239330999992000061803004+60960+069690FM-12+0040USHH V0201601N003010075019N0100001N1+01801+01301101171ADDAA199000091GF108991081051008001999999MD1710031+9999REMSYN070AAXX  18031 23933 32597 81603 10180 20130 40117 57003 885// 333 55139;EQDQ01  00002PRCP99
0165239330999992000061806004+60960+069690FM-12+0040USHH V0202001N004019999999N0100001N1+02381+01371101051ADDAA199000091GF106991001001999999001011KA1999N+01611MD1710101+9999REMSYN070AAXX  18061 23933 32997 62004 10238 20137 40105 57010 80001 333 20161;EQDQ01  00002PRCP99
0112239330999992000061809004+60960+069690FM-12+0040USHH V0202201N005010750019N0100001N1+02591+01391101051ADDGF108991031021008001001071MD1410001+9999REMSYN060AAXX  18091 23933 42597 82205 10259 20139 40105 54000 83207;
0133239330999992000061812004+60960+069690FM-12+0040USHH V0202601N004010075019N0100001N1+02551+01401101121ADDGF108991051091008001071999MA1999999100581MD1310071+9999REMSYN066AAXX  18121 23933 42597 82604 10255 20140 30058 40112 53007 8597/;
0181239330999992000061815004+60960+069690FM-12+0040USHH V0202501N002010075019N0100001N1+02331+01721101171ADDAA199000091GF107991999091008001001001KA1999M+02771MD1210041+9999REMSYN070AAXX  18151 23933 32597 72502 10233 20172 40117 52004 85900 333 10277;EQDQ01+000052SCOTLCQ02  00002PRCP99
0165239330999992000061818004+60960+069690FM-12+0040USHH V0202601N003012200019N0100001N1+02161+01651101381ADDAA199000091GF103991031051008001001001KA1999M+02771MD1210211+9999REMSYN070AAXX  18181 23933 32597 32603 10216 20165 40138 52021 83500 333 10277;EQDQ01  00002PRCP99
0112239330999992000061821004+60960+069690FM-12+0040USHH V0202601N002012200019N0100001N1+01921+01571101551ADDGF102991001001999999001011MD1210171+9999REMSYN060AAXX  18211 23933 42997 22602 10192 20157 40155 52017 80001;
0133239330999992000061900004+60960+069690FM-12+0040USHH V0202701N003012200019N0100001N1+01831+01691101771ADDGF103991001001999999001011MA1999999101211MD1210211+9999REMSYN066AAXX  19001 23933 42997 32703 10183 20169 30121 40177 52021 80001;
0152239330999992000061903004+60960+069690FM-12+0040USHH V0200901N002012200019N0100001N1+02091+01221101921ADDAA199000091GF102991001001999999001011MD1210161+9999REMSYN070AAXX  19031 23933 32997 20902 10209 20122 40192 52016 80001 333 55087;EQDQ01  00002PRCP99
0165239330999992000061906004+60960+069690FM-12+0040USHH V0201101N003012200019N0100001N1+02201+01001102021ADDAA199000091GF103991001001999999001011KA1999N+01761MD1210101+9999REMSYN070AAXX  19061 23933 32997 31103 10220 20100 40202 52010 80001 333 20176;EQDQ01  00002PRCP99
0112239330999992000061909004+60960+069690FM-12+0040USHH V0201201N003012200019N0100001N1+02441+01321102011ADDGF103991021021008001001011MD1410001+9999REMSYN060AAXX  19091 23933 42597 31203 10244 20132 40201 54000 82201;
0133239330999992000061912004+60960+069690FM-12+0040USHH V0200401N002010750019N0100001N1+02481+01311101961ADDGF106991021021008001001021MA1999999101421MD1810051+9999REMSYN066AAXX  19121 23933 42597 60402 10248 20131 30142 40196 58005 82202;
0165239330999992000061915004+60960+069690FM-12+0040USHH V0200201N002012200019N0100001N1+02211+01061102011ADDAA199000091GF105991021021008001001011KA1999M+02561MD1310041+9999REMSYN070AAXX  19151 23933 32597 50202 10221 20106 40201 53004 82201 333 10256;EQDQ01  00002PRCP99
0165239330999992000061918004+60960+069690FM-12+0040USHH V0200601N002012200019N0100001N1+01991+01181102111ADDAA199000091GF102991011001999999031011KA1999M+02561MD1210101+9999REMSYN070AAXX  19181 23933 32997 20602 10199 20118 40211 52010 81031 333 10256;EQDQ01  00002PRCP99
0112239330999992000061921004+60960+069690FM-12+0040USHH V0200701N002012200019N0100001N1+01891+01211102101ADDGF103991021001999999031011MD1810021+9999REMSYN060AAXX  19211 23933 42997 30702 10189 20121 40210 58002 82031;
0133239330999992000062000004+60960+069690FM-12+0040USHH V0201001N002019999999N0100001N1+01991+01361102151ADDGF106991041001999999031011MA1999999101601MD1310061+9999REMSYN066AAXX  20001 23933 42997 61002 10199 20136 30160 40215 53006 84031;
0150239330999992000062003004+60960+069690FM-12+0040USHH V0202101N004010075019N0020001N1+01731+01731102331ADDAY191031AY281031GF108991081091008001999999MD1210171+9999MW1951REMSYN076AAXX  20031 23933 /1595 82104 10173 20173 40233 52017 79598 889// 333 55169;
0180239330999992000062006004+60960+069690FM-12+0040USHH V0200301N002010075019N0100001N1+02061+01591102151ADDAA100005191AY191061AY281061GF106991051091008001031001KA1999N+01721MD1810171+9999MW1021REMSYN082AAXX  20061 23933 11597 60302 10206 20159 40215 58017 60050 70298 85930 333 20172;
0112239330999992000062009004+60960+069690FM-12+0040USHH V0200601N003012200019N0100001N1+02271+01541102171ADDGF103991021051008001001011MD1310021+9999REMSYN060AAXX  20091 23933 42597 30603 10227 20154 40217 53002 82501;
0133239330999992000062012004+60960+069690FM-12+0040USHH V0200601N002012200019N0100001N1+02411+01471102111ADDGF102991001001999999001011MA1999999101571MD1810051+9999REMSYN066AAXX  20121 23933 42997 20602 10241 20147 30157 40211 58005 80001;
0135239330999992000062015004+60960+069690FM-12+0040USHH V0200901N003012200019N0100001N1+02331+01511102131ADDGF106991021021008001001011KA1999M+02461MD1310011+9999REMSYN070AAXX  20151 23933 /2597 60903 10233 20151 40213 53001 82201 333 10246;
0152239330999992000062018004+60960+069690FM-12+0040USHH V0200901N004010750019N0100001N1+02171+01681102131ADDAA100002091GF108991031091008001001071KA1999M+02461MD1410001+9999REMSYN076AAXX  20181 23933 12597 80904 10217 20168 40213 54000 60020 83907 333 10246;
0140239330999992000062021004+60960+069690FM-12+0040USHH V0201301N005010075019N0100001N1+01901+01821102121ADDAY191031AY221031GF108991061091008001031071MD1810011+9999MW1291REMSYN066AAXX  20211 23933 41597 81305 10190 20182 40212 58001 72992 86937;
0161239330999992000062100004+60960+069690FM-12+0040USHH V0201301N003010300019N0100001N1+01861+01781102171ADDAY191061AY221061GF108991031091008001031011MA1999999101621MD1310051+9999MW1021REMSYN072AAXX  21001 23933 41597 81303 10186 20178 30162 40217 53005 70292 83931;
0152239330999992000062103004+60960+069690FM-12+0040USHH V0201001N002010300019N0100001N1+02011+01781102221ADDAA199000091GF108991041091008001031011MD1210051+9999REMSYN070AAXX  21031 23933 32597 81002 10201 20178 40222 52005 84931 333 55122;EQDQ01  00002PRCP99
0165239330999992000062106004+60960+069690FM-12+0040USHH V0200901N003010300019N0100001N1+02181+01811102131ADDAA199000091GF108991021021008001031011KA1999N+01831MD1810091+9999REMSYN070AAXX  21061 23933 32597 80903 10218 20181 40213 58009 82231 333 20183;EQDQ01  00002PRCP99
0112239330999992000062109004+60960+069690FM-12+0040USHH V0200601N003012200019N0100001N1+02451+01941102011ADDGF103991001001999999001011MD1710111+9999REMSYN060AAXX  21091 23933 42997 30603 10245 20194 40201 57011 80001;
0133239330999992000062112004+60960+069690FM-12+0040USHH V0200901N003012200019N0100001N1+02571+02141101821ADDGF103991001001999999001011MA1999999101281MD1710191+9999REMSYN066AAXX  21121 23933 42997 30903 10257 20214 30128 40182 57019 80001;
0165239330999992000062115004+60960+069690FM-12+0040USHH V0201001N002019999999N0100001N1+02501+02141101721ADDAA199000091GF106991001001999999001011KA1999M+02631MD1710101+9999REMSYN070AAXX  21151 23933 32997 61002 10250 20214 40172 57010 80001 333 10263;EQDQ01  00002PRCP99
0165239330999992000062118004+60960+069690FM-12+0040USHH V0201601N002012200019N0100001N1+02451+02121101651ADDAA199000091GF102991021001999999031011KA1999M+02631MD1710071+9999REMSYN070AAXX  21181 23933 32997 21602 10245 20212 40165 57007 82031 333 10263;EQDQ01  00002PRCP99
0112239330999992000062121004+60960+069690FM-12+0040USHH V0202001N003012200019N0100001N1+02321+01841101491ADDGF103991031001999999031001MD1710171+9999REMSYN060AAXX  21211 23933 42997 32003 10232 20184 40149 57017 83030;
0161239330999992000062200004+60960+069690FM-12+0040USHH V0202501N003010075019N0100001N1+02231+01971101641ADDAY191061AY281061GF106991061091008001001001MA1999999101091MD1310141+9999MW1951REMSYN072AAXX  22001 23933 41597 62503 10223 20197 30109 40164 53014 79598 86900;
0150239330999992000062203004+60960+069690FM-12+0040USHH V0202701N003012200019N0100001N1+02351+01961101491ADDAY191031AY281031GF105991021051008001001011MD1810141+9999MW1021REMSYN076AAXX  22031 23933 /1597 52703 10235 20196 40149 58014 70298 82501 333 55116;
0180239330999992000062206004+60960+069690FM-12+0040USHH V0202801N003012200019N0100001N1+02671+01741101491ADDAA100000391AY191061AY281061GF105991031021008001001011KA1999N+02141MD1410001+9999MW1021REMSYN082AAXX  22061 23933 11597 52803 10267 20174 40149 54000 69930 70298 83201 333 20214;
0112239330999992000062209004+60960+069690FM-12+0040USHH V0203001N002012200019N0100001N1+02851+01841101351ADDGF102991021021008001001001MD1810131+9999REMSYN060AAXX  22091 23933 42597 23002 10285 20184 40135 58013 82200;
0161239330999992000062212004+60960+069690FM-12+0040USHH V0201301N002010075019N0100001N1+02731+01931101201ADDAY191061AY211061GF107991051091008001001021MA1999999100661MD1710161+9999MW1171REMSYN072AAXX  22121 23933 41597 71302 10273 20193 30066 40120 57016 71791 85902;
0176239330999992000062215004+60960+069690FM-12+0040USHH V0202001N002012200019N0100001N1+02261+01851101161ADDAY191031AY281031GF106991031091008001001011HL10009KA1120M+03041MD1710051+9999MW1021REMSYN082AAXX  22151 23933 /1597 62002 10226 20185 40116 57005 70298 83901 333 10304 93225;
0186239330999992000062218004+60960+069690FM-12+0040USHH V0202701N005010075019N0100001N1+02061+01841101381ADDAA100006191AY191061AY281061GF106991061091008001001001KA1120M+03041MD1310221+9999MW1951REMSYN088AAXX  22181 23933 11597 62705 10206 20184 40138 53022 60060 79598 86900 333 10304 91112;
0140239330999992000062221004+60960+069690FM-12+0040USHH V0201701N002010300019N0100001N1+01961+01781101211ADDAY191031AY281031GF106991021091008001031011MD1810171+9999MW1021REMSYN066AAXX  22211 23933 41597 61702 10196 20178 40121 58017 70298 82931;
0161239330999992000062300004+60960+069690FM-12+0040USHH V0202601N002019999999N0100001N1+01921+01771101231ADDAY191061AY281061GF106991021001999999031011MA1999999100681MD1310021+9999MW1021REMSYN072AAXX  23001 23933 41997 62602 10192 20177 30068 40123 53002 70298 82031;
0122239330999992000062303004+60960+069690FM-12+0040USHH V0200301N001010120019N0100001N1+02221+02051101191ADDGF106991051051012501001011MD1810041+9999REMSYN070AAXX  23031 23933 /2697 60301 10222 20205 40119 58004 85501 333 55104;
0199239330999992000062306004+60960+069690FM-12+0040USHH V0202501N001010075019N0100001N1+02241+02101101211ADDAA100003091AY181061AY221061GF108991081091008001999999KA1999N+99999MD1310021+9999MW1021REMSYN082AAXX  23061 23933 11597 82501 10224 20210 40121 53002 60030 70282 889// 333 21187;EQDQ01 -01872ATMN  
0112239330999992000062309004+60960+069690FM-12+0040USHH V0200601N003010075019N0100001N1+02201+01971101091ADDGF106991051091008001001011MD1710121+9999REMSYN060AAXX  23091 23933 42597 60603 10220 20197 40109 57012 85901;
0133239330999992000062312004+60960+069690FM-12+0040USHH V0200601N002010075019N0100001N1+02121+01871101251ADDGF108991081091008001999999MA1999999100701MD1310161+9999REMSYN066AAXX  23121 23933 42597 80602 10212 20187 30070 40125 53016 889//;
0135239330999992000062315004+60960+069690FM-12+0040USHH V0200601N002010075019N0100001N1+02001+01671101291ADDGF105991051051008001001001KA1999M+02461MD1210041+9999REMSYN070AAXX  23151 23933 /2597 50602 10200 20167 40129 52004 85500 333 10246;
0152239330999992000062318004+60960+069690FM-12+0040USHH V0200701N001010075019N0100001N1+01861+01611101381ADDAA100000791GF106991061051008001001001KA1999M+02461MD1210091+9999REMSYN076AAXX  23181 23933 12597 60701 10186 20161 40138 52009 69900 86500 333 10246;
0112239330999992000062321004+60960+069690FM-12+0040USHH V0200601N002012200019N0100001N1+01711+01521101451ADDGF103991031051004501001001MD1210061+9999REMSYN060AAXX  23211 23933 42497 30602 10171 20152 40145 52006 83500;
0143239330999992000062400004+60960+069690FM-12+0040USHH V0200801N002012200019N0100001N1+01741+01731101541ADDGA1001+999999999GF100991001001999999001001MA1999999100981MD1210091+9999REMSYN060AAXX  24001 23933 42997 00802 10174 20173 30098 40154 52009;
0162239330999992000062403004+60960+069690FM-12+0040USHH V0200801N003012200019N0100001N1+02001+01351101681ADDAA199000091GA1001+999999999GF100991001001999999001001MD1210151+9999REMSYN064AAXX  24031 23933 32997 00803 10200 20135 40168 52015 333 55117;EQDQ01  00002PRCP99
0165239330999992000062406004+60960+069690FM-12+0040USHH V0200801N004012200019N0100001N1+02161+01101101801ADDAA199000091GF102991021021008001001001KA1999N+01601MD1210121+9999REMSYN070AAXX  24061 23933 32597 20804 10216 20110 40180 52012 82200 333 20160;EQDQ01  00002PRCP99
0112239330999992000062409004+60960+069690FM-12+0040USHH V0200701N003012200019N0100001N1+02261+00971101811ADDGF102991021021008001001001MD1210011+9999REMSYN060AAXX  24091 23933 42597 20703 10226 20097 40181 52001 82200;
0133239330999992000062412004+60960+069690FM-12+0040USHH V0201001N003012200019N0100001N1+02261+01181101801ADDGF102991021011008001001001MA1999999101251MD1810011+9999REMSYN066AAXX  24121 23933 42597 21003 10226 20118 30125 40180 58001 82100;
0175239330999992000062415004+60960+069690FM-12+0040USHH V0201001N004012200019N0100001N1+02111+00811101801ADDAA199000091GA1001+999999999GF100991001001999999001001KA1999M+02341MD1410001+9999REMSYN064AAXX  24151 23933 32997 01004 10211 20081 40180 54000 333 10234;EQDQ01  00002PRCP99
0175239330999992000062418004+60960+069690FM-12+0040USHH V0201101N003012200019N0100001N1+01841+00781101851ADDAA199000091GA1001+999999999GF100991001001999999001001KA1999M+02341MD1310041+9999REMSYN064AAXX  24181 23933 32997 01103 10184 20078 40185 53004 333 10234;EQDQ01  00002PRCP99
0122239330999992000062421004+60960+069690FM-12+0040USHH V0201101N002012200019N0100001N1+01671+00681101891ADDGA1001+999999999GF100991001001999999001001MD1210041+9999REMSYN054AAXX  24211 23933 42997 01102 10167 20068 40189 52004;
0143239330999992000062500004+60960+069690FM-12+0040USHH V0201301N002012200019N0100001N1+01691+00681101921ADDGA1001+999999999GF100991001001999999001001MA1999999101361MD1210031+9999REMSYN060AAXX  25001 23933 42997 01302 10169 20068 30136 40192 52003;
0162239330999992000062503004+60960+069690FM-12+0040USHH V0201301N003012200019N0100001N1+01901+01031101921ADDAA199000091GA1001+999999999GF100991001001999999001001MD1410001+9999REMSYN064AAXX  25031 23933 32997 01303 10190 20103 40192 54000 333 55167;EQDQ01  00002PRCP99
0181239330999992000062506004+60960+069690FM-12+0040USHH V0202001N003012200019N0100001N1+02291+01151101831ADDAA199000091GA1001+999999999GF100991001001999999001001KA1999N+01611MD1810081+9999REMSYN070AAXX  25061 23933 32997 02003 10229 20115 40183 58008 82100 333 20161;EQDQ01  00002PRCP99
0112239330999992000062509004+60960+069690FM-12+0040USHH V0201201N003012200019N0100001N1+02421+01001101711ADDGF101991011011008001001001MD1710111+9999REMSYN060AAXX  25091 23933 42597 11203 10242 20100 40171 57011 81100;
0143239330999992000062512004+60960+069690FM-12+0040USHH V0201401N003012200019N0100001N1+02451+00881101581ADDGA1001+999999999GF100991001001999999001001MA1999999101041MD1710131+9999REMSYN060AAXX  25121 23933 42997 01403 10245 20088 30104 40158 57013;
0175239330999992000062515004+60960+069690FM-12+0040USHH V0201301N002012200019N0100001N1+02361+01181101401ADDAA199000091GA1001+999999999GF100991001001999999001001KA1999M+02501MD1710191+9999REMSYN064AAXX  25151 23933 32997 01302 10236 20118 40140 57019 333 10250;EQDQ01  00002PRCP99
0175239330999992000062518004+60960+069690FM-12+0040USHH V0201301N002012200019N0100001N1+01941+01341101391ADDAA199000091GA1001+999999999GF100991001001999999001001KA1999M+02501MD1710011+9999REMSYN064AAXX  25181 23933 32997 01302 10194 20134 40139 57001 333 10250;EQDQ01  00002PRCP99
0122239330999992000062521004+60960+069690FM-12+0040USHH V0202201N002012200019N0100001N1+02071+01261101291ADDGA1001+999999999GF100991001001999999001001MD1710101+9999REMSYN054AAXX  25211 23933 42997 02202 10207 20126 40129 57010;
0133239330999992000062600004+60960+069690FM-12+0040USHH V0202201N002012200019N0100001N1+02051+01271101281ADDGF101991011011004501001001MA1999999100731MD1710011+9999REMSYN066AAXX  26001 23933 42497 12202 10205 20127 30073 40128 57001 81100;
0194239330999992000062603004+60960+069690FM-12+0040USHH V0202201N002012200019N0100001N1+02271+01501999999ADDAA199000091GA1001+999999999GF100991001001999999001001MD1710091+9999REMSYN064AAXX  26031 23933 32997 02202 10227 20150 40019 57009 333 55173;EQDQ01+100193APOSLPQ02  00002PRCP99Q03 100193APOSLP
0181239330999992000062606004+60960+069690FM-12+0040USHH V0202001N002012200019N0100001N1+02631+01551101152ADDAA199000091GF102991021021008001001001KA1999N+01921MD1710031+9999REMSYN070AAXX  26061 23933 32597 22002 10263 20155 40115 57003 82200 333 20192;EQDQ01+101153APOSLPQ02  00002PRCP99
0112239330999992000062609004+60960+069690FM-12+0040USHH V0201001N003012200019N0100001N1+02561+01421101101ADDGF103991031021008001001001MD1710051+9999REMSYN060AAXX  26091 23933 42597 31003 10256 20142 40110 57005 83200;
0133239330999992000062612004+60960+069690FM-12+0040USHH V0201301N002012200019N0100001N1+02701+01511100981ADDGF102991021021012501001011MA1999999100441MD1710121+9999REMSYN066AAXX  26121 23933 42697 21302 10270 20151 30044 40098 57012 82201;
0165239330999992000062615004+60960+069690FM-12+0040USHH V0201301N002012200019N0100001N1+02551+01641100951ADDAA199000091GF102991001001999999001021KA1999M+02741MD1710031+9999REMSYN070AAXX  26151 23933 32997 21302 10255 20164 40095 57003 80002 333 10274;EQDQ01  00002PRCP99
0165239330999992000062618004+60960+069690FM-12+0040USHH V0209999C000012200019N0100001N1+02241+01441101001ADDAA199000091GF103991021051004501001011KA1999M+02741MD1310041+9999REMSYN070AAXX  26181 23933 32497 30000 10224 20144 40100 53004 82501 333 10274;EQDQ01  00002PRCP99
0112239330999992000062621004+60960+069690FM-12+0040USHH V0202801N001012200019N0100001N1+02051+01351101011ADDGF106991041051004501001011MD1210011+9999REMSYN060AAXX  26211 23933 42497 62801 10205 20135 40101 52001 84501;
0133239330999992000062700004+60960+069690FM-12+0040USHH V0209999C000012200019N0100001N1+02011+01511101081ADDGF106991031031004501001011MA1999999100531MD1210071+9999REMSYN066AAXX  27001 23933 42497 60000 10201 20151 30053 40108 52007 83301;
0152239330999992000062703004+60960+069690FM-12+0040USHH V0200901N003010042019N0100001N1+02111+02021101131ADDAA199000091GF108991071031004501001011MD1210031+9999REMSYN070AAXX  27031 23933 32497 80903 10211 20202 40113 52003 87301 333 55164;EQDQ01  00002PRCP99
0193239330999992000062706004+60960+069690FM-12+0040USHH V0201101N005010042019N0100001N1+02191+01581101231ADDAA199000091AY181061AY221061GF108991051031004501001011KA1999N+02001MD1210101+9999MW1021REMSYN076AAXX  27061 23933 31497 81105 10219 20158 40123 52010 70282 85301 333 20200;EQDQ01  00002PRCP99
0112239330999992000062709004+60960+069690FM-12+0040USHH V0200801N005010075019N0500001N1+02221+01441101311ADDGF106991061051008001001001MD1210081+9999REMSYN060AAXX  27091 23933 42599 60805 10222 20144 40131 52008 86500;
0133239330999992000062712004+60960+069690FM-12+0040USHH V0200701N004010750019N0100001N1+02161+01151101391ADDGF105991021051008001081011MA1999999100841MD1210081+9999REMSYN066AAXX  27121 23933 42597 50704 10216 20115 30084 40139 52008 82581;
0135239330999992000062715004+60960+069690FM-12+0040USHH V0200601N004012200019N0100001N1+02001+00991101461ADDGF103991031031012501001001KA1999M+02341MD1210071+9999REMSYN070AAXX  27151 23933 /2697 30604 10200 20099 40146 52007 83300 333 10234;
0152239330999992000062718004+60960+069690FM-12+0040USHH V0200501N003012200019N0100001N1+01631+00701101631ADDAA100001091GF102991001001999999001011KA1999M+02341MD1210161+9999REMSYN076AAXX  27181 23933 12997 20503 10163 20070 40163 52016 69990 80001 333 10234;
0112239330999992000062721004+60960+069690FM-12+0040USHH V0200601N005012200019N0100001N1+01511+00651101741ADDGF101991001001999999001011MD1210111+9999REMSYN060AAXX  27211 23933 42997 10605 10151 20065 40174 52011 80001;
0143239330999992000062800004+60960+069690FM-12+0040USHH V0200801N004012200019N0100001N1+01401+00931101741ADDGA1001+999999999GF100991001001999999001001MA1999999101291MD1210011+9999REMSYN060AAXX  28001 23933 42997 00804 10140 20093 30129 40174 52001;
0152239330999992000062803004+60960+069690FM-12+0040USHH V0200601N003010075019N0100001N1+01521+00821101891ADDAA199000091GF105991051021008001001001MD1210041+9999REMSYN070AAXX  28031 23933 32597 50603 10152 20082 40189 52004 85200 333 55073;EQDQ01  00002PRCP99
0165239330999992000062806004+60960+069690FM-12+0040USHH V0200601N004012200019N0100001N1+01551+00651102041ADDAA199000091GF103991031011008001001001KA1999N+01361MD1210151+9999REMSYN070AAXX  28061 23933 32597 30604 10155 20065 40204 52015 83100 333 20136;EQDQ01  00002PRCP99
0122239330999992000062809004+60960+069690FM-12+0040USHH V0200601N004012200019N0100001N1+01701+00511101841ADDGA1001+999999999GF100991001001999999001001MD1810201+9999REMSYN054AAXX  28091 23933 42997 00604 10170 20051 40184 58020;
0143239330999992000062812004+60960+069690FM-12+0040USHH V0200701N004012200019N0100001N1+01781+00581101771ADDGA1001+999999999GF100991001001999999001001MA1999999101211MD1710071+9999REMSYN060AAXX  28121 23933 42997 00704 10178 20058 30121 40177 57007;
0175239330999992000062815004+60960+069690FM-12+0040USHH V0200501N003012200019N0100001N1+01681+00671101641ADDAA199000091GA1001+999999999GF100991001001999999001001KA1999M+01811MD1710131+9999REMSYN064AAXX  28151 23933 32997 00503 10168 20067 40164 57013 333 10181;EQDQ01  00002PRCP99
0165239330999992000062818004+60960+069690FM-12+0040USHH V0200601N002012200019N0100001N1+01481+00761101711ADDAA199000091GF102991021041008001001001KA1999M+01811MD1310071+9999REMSYN070AAXX  28181 23933 32597 20602 10148 20076 40171 53007 82400 333 10181;EQDQ01  00002PRCP99
0112239330999992000062821004+60960+069690FM-12+0040USHH V0200601N001012200019N0100001N1+01291+00821101711ADDGF103991031001999999031001MD1410001+9999REMSYN060AAXX  28211 23933 42997 30601 10129 20082 40171 54000 83030;
0143239330999992000062900004+60960+069690FM-12+0040USHH V0200501N001012200019N0100001N1+01431+00841101741ADDGA1001+999999999GF100991001001999999001001MA1999999101181MD1310031+9999REMSYN060AAXX  29001 23933 42997 00501 10143 20084 30118 40174 53003;
0152239330999992000062903004+60960+069690FM-12+0040USHH V0200701N003012200019N0100001N1+01671+00821101731ADDAA199000091GF102991011021008001001011MD1810011+9999REMSYN070AAXX  29031 23933 32597 20703 10167 20082 40173 58001 81201 333 55180;EQDQ01  00002PRCP99
0165239330999992000062906004+60960+069690FM-12+0040USHH V0200601N003010075019N0100001N1+01831+00641101741ADDAA199000091GF106991061021008001001001KA1999N+01211MD1310011+9999REMSYN070AAXX  29061 23933 32597 60603 10183 20064 40174 53001 86200 333 20121;EQDQ01  00002PRCP99
0112239330999992000062909004+60960+069690FM-12+0040USHH V0200701N003012200019N0100001N1+01931+00551101781ADDGF105991041021008001001011MD1210041+9999REMSYN060AAXX  29091 23933 42597 50703 10193 20055 40178 52004 84201;
0152239330999992000062912004+60960+069690FM-12+0040USHH V0200401N004019999999N0100001N1+01941+00561101701ADDGF105991999021008001001001MA1999999101141MD1810081+9999REMSYN066AAXX  29121 23933 42597 50404 10194 20056 30114 40170 58008 86200;EQDQ01+000062SCOTLC
0165239330999992000062915004+60960+069690FM-12+0040USHH V0200401N002010075019N0100001N1+01821+00611101691ADDAA199000091GF106991061051008001001001KA1999M+02021MD1710011+9999REMSYN070AAXX  29151 23933 32597 60402 10182 20061 40169 57001 86500 333 10202;EQDQ01  00002PRCP99
0165239330999992000062918004+60960+069690FM-12+0040USHH V0200601N002012200019N0100001N1+01531+00431101771ADDAA199000091GF102991021051008001001001KA1999M+02021MD1310081+9999REMSYN070AAXX  29181 23933 32597 20602 10153 20043 40177 53008 82500 333 10202;EQDQ01  00002PRCP99
0122239330999992000062921004+60960+069690FM-12+0040USHH V0200601N002012200019N0100001N1+01311+00761101831ADDGA1001+999999999GF100991001001999999001001MD1210061+9999REMSYN054AAXX  29211 23933 42997 00602 10131 20076 40183 52006;
0143239330999992000063000004+60960+069690FM-12+0040USHH V0200801N001012200019N0100001N1+01381+00821101891ADDGA1001+999999999GF100991001001999999001001MA1999999101331MD1210061+9999REMSYN060AAXX  30001 23933 42997 00801 10138 20082 30133 40189 52006;
0152239330999992000063003004+60960+069690FM-12+0040USHH V0200401N001012200019N0100001N1+01591+00701101881ADDAA199000091GF102991001001999999001011MD1810011+9999REMSYN070AAXX  30031 23933 32997 20401 10159 20070 40188 58001 80001 333 55151;EQDQ01  00002PRCP99
0165239330999992000063006004+60960+069690FM-12+0040USHH V0200301N002012200019N0100001N1+01691+00681101851ADDAA199000091GF107991021021008001001011KA1999N+01131MD1710031+9999REMSYN070AAXX  30061 23933 32597 70302 10169 20068 40185 57003 82201 333 20113;EQDQ01  00002PRCP99
0112239330999992000063009004+60960+069690FM-12+0040USHH V0203601N003012200019N0100001N1+01931+00651101781ADDGF105991031021008001001011MD1710071+9999REMSYN060AAXX  30091 23933 42597 53603 10193 20065 40178 57007 83201;
0133239330999992000063012004+60960+069690FM-12+0040USHH V0209999C000010750019N0100001N1+01971+00711101661ADDGF108991011011008001001021MA1999999101111MD1710111+9999REMSYN066AAXX  30121 23933 42597 80000 10197 20071 30111 40166 57011 81102;
0165239330999992000063015004+60960+069690FM-12+0040USHH V0201701N002010075019N0100001N1+01871+00851101531ADDAA199000091GF106991061051008001001001KA1999M+02031MD1710201+9999REMSYN070AAXX  30151 23933 32597 61702 10187 20085 40153 57020 86500 333 10203;EQDQ01  00002PRCP99
0165239330999992000063018004+60960+069690FM-12+0040USHH V0202101N002010075019N0100001N1+01841+00841101451ADDAA199000091GF107991071051008001001001KA1999M+02031MD1710081+9999REMSYN070AAXX  30181 23933 32597 72102 10184 20084 40145 57008 87500 333 10203;EQDQ01  00002PRCP99
0112239330999992000063021004+60960+069690FM-12+0040USHH V0202601N003010075019N0100001N1+01671+00921101421ADDGF106991061051008001001001MD1210031+9999REMSYN060AAXX  30211 23933 42597 62603 10167 20092 40142 52003 86500;
0152239330999992000070100004+60960+069690FM-12+0040USHH V0202601N003019999999N0100001N1+01571+00991101301ADDGF105991999051008001071001MA1999999100741MD1710121+9999REMSYN066AAXX  01001 23933 42597 52603 10157 20099 30074 40130 57012 86570;EQDQ01+000062SCOTLC
0152239330999992000070103004+60960+069690FM-12+0040USHH V0202101N004012200019N0100001N1+01801+01021101111ADDAA199000091GF102991001001999999001011MD1710191+9999REMSYN070AAXX  01031 23933 32997 22104 10180 20102 40111 57019 80001 333 55157;EQDQ01  00002PRCP99
0165239330999992000070106004+60960+069690FM-12+0040USHH V0202401N005012200019N0100001N1+02291+00861100971ADDAA199000091GF102991021001999999041001KA1999N+01551MD1710131+9999REMSYN070AAXX  01061 23933 32997 22405 10229 20086 40097 57013 82040 333 20155;EQDQ01  00002PRCP99
0112239330999992000070109004+60960+069690FM-12+0040USHH V0202701N005010300019N0100001N1+02571+01121100891ADDGF106991021051008001031021MD1710061+9999REMSYN060AAXX  01091 23933 42597 62705 10257 20112 40089 57006 82532;
0133239330999992000070112004+60960+069690FM-12+0040USHH V0202901N003010300019N0100001N1+02501+01191100841ADDGF107991021041008001031001MA1999999100311MD1710051+9999REMSYN066AAXX  01121 23933 42597 72903 10250 20119 30031 40084 57005 82430;
0165239330999992000070115004+60960+069690FM-12+0040USHH V0203101N003010075019N0100001N1+02251+01171100881ADDAA199000091GF106991061051008001031001KA1999M+02601MD1310031+9999REMSYN070AAXX  01151 23933 32597 63103 10225 20117 40088 53003 86530 333 10260;EQDQ01  00002PRCP99
0165239330999992000070118004+60960+069690FM-12+0040USHH V0202701N002010042019N0100001N1+02081+01451100901ADDAA199000091GF106991061031004501001001KA1999M+02601MD1210021+9999REMSYN070AAXX  01181 23933 32497 62702 10208 20145 40090 52002 86300 333 10260;EQDQ01  00002PRCP99
0140239330999992000070121004+60960+069690FM-12+0040USHH V0209999C000010042019N0100001N1+01581+01021100971ADDAY121031AY221031GF106991061031004501001001MD1210051+9999MW1251REMSYN066AAXX  01211 23933 41497 60000 10158 20102 40097 52005 72522 86300;
0133239330999992000070200004+60960+069690FM-12+0040USHH V0209999C000019999999N0100001N1+01571+01061100971ADDGF107991021001999999031011MA1999999100411MD1410001+9999REMSYN066AAXX  02001 23933 42997 70000 10157 20106 30041 40097 54000 82031;
0133239330999992000070203004+60960+069690FM-12+0040USHH V0200701N002019999999N0100001N1+01951+01151100951ADDAA199000021GF105991051011999999001001MD1210021+9999REMSYN070AAXX  02031 23933 32997 50702 10195 20115 40095 52002 85100 333 55102;
0165239330999992000070206004+60960+069690FM-12+0040USHH V0200801N002010021019N0100001N1+01991+01341100961ADDAA199000021GF108991999011002501031001KA1999N+01571MD1210011+9999REMSYN070AAXX  02061 23933 32397 80802 10199 20134 40096 52001 88130 333 20157;EQDQ01+000082SCOTLC
0112239330999992000070209004+60960+069690FM-12+0040USHH V0200801N003019999999N0100001N1+02181+01451100861ADDGF106991041001999999081011MD1810101+9999REMSYN060AAXX  02091 23933 42997 60803 10218 20145 40086 58010 84081;
0161239330999992000070212004+60960+069690FM-12+0040USHH V0201001N001010042019N0100001N1+01911+01581100851ADDAY181061AY221061GF107991071031004501001001MA1999999100351MD1310041+9999MW1801REMSYN072AAXX  02121 23933 41497 71001 10191 20158 30035 40085 53004 78082 87300;
0163239330999992000070215004+60960+069690FM-12+0040USHH V0201101N003010042019N0100001N1+01901+01851100341ADDAY181031AY221031GF108991051031004501001011KA1999M+02231MD1810151+9999MW1021REMSYN076AAXX  02151 23933 /1497 81103 10190 20185 40034 58015 70282 85301 333 10223;
0180239330999992000070218004+60960+069690FM-12+0040USHH V0200801N001010042019N0100001N1+01771+01751100781ADDAA100000591AY181061AY221061GF107991071031004501001001KA1999M+02231MD1310031+9999MW1021REMSYN082AAXX  02181 23933 11497 70801 10177 20175 40078 53003 69940 70282 87300 333 10223;
0131239330999992000070221004+60960+069690FM-12+0040USHH V0202001N002010042019N0100001N1+01741+01741999999ADDGF108991061031004501001071MD1810111+9999REMSYN060AAXX  02211 23933 42497 82002 10174 20174 40167 58011 86307;EQDQ01+101673APOSLP
0133239330999992000070300004+60960+069690FM-12+0040USHH V0200301N002010042019N0100001N1+01681+01681100581ADDGF107991071031004501001001MA1999999100031MD1710091+9999REMSYN066AAXX  03001 23933 42497 70302 10168 20168 30003 40058 57009 87300;
0150239330999992000070303004+60960+069690FM-12+0040USHH V0200701N002010042019N0100001N1+01701+01591100531ADDAY121031AY221031GF107991071031004501001001MD1710051+9999MW1251REMSYN076AAXX  03031 23933 /1497 70702 10170 20159 40053 57005 72522 87300 333 55090;
0180239330999992000070306004+60960+069690FM-12+0040USHH V0201001N002010042019N0100001N1+01921+01601100511ADDAA100000391AY181061AY221061GF107991071091004501001001KA1999N+01681MD1710011+9999MW1021REMSYN082AAXX  03061 23933 11497 71002 10192 20160 40051 57001 69930 70282 87900 333 20168;
0140239330999992000070309004+60960+069690FM-12+0040USHH V0200301N004010042019N0100001N1+01431+01411100551ADDAY181031AY221031GF108991081031004501999999MD1310071+9999MW1021REMSYN066AAXX  03091 23933 41497 80304 10143 20141 40055 53007 70282 883//;
0161239330999992000070312004+60960+069690FM-12+0040USHH V0200201N004010042019N0100001N1+01341+01191100741ADDAY181061AY221061GF108991081031004501999999MA1999999100181MD1210181+9999MW1021REMSYN072AAXX  03121 23933 41497 80204 10134 20119 30018 40074 52018 70282 883//;
0135239330999992000070315004+60960+069690FM-12+0040USHH V0200601N003010042019N0100001N1+01271+01061100891ADDGF108991081051004501999999KA1999M+02151MD1210151+9999REMSYN070AAXX  03151 23933 /2497 80603 10127 20106 40089 52015 885// 333 10215;
0152239330999992000070318004+60960+069690FM-12+0040USHH V0200701N004010042019N0500001N1+01231+01021101001ADDAA100002091GF108991081051004501999999KA1999M+02151MD1210111+9999REMSYN076AAXX  03181 23933 12499 80704 10123 20102 40100 52011 60020 885// 333 10215;
0140239330999992000070321004+60960+069690FM-12+0040USHH V0200601N003010042019N0100001N1+01211+01021101021ADDAY121031AY221031GF108991081051004501999999MD1210021+9999MW1211REMSYN066AAXX  03211 23933 41497 80603 10121 20102 40102 52002 72122 885//;
0161239330999992000070400004+60960+069690FM-12+0040USHH V0200601N003010042019N0100001N1+01221+00941100931ADDAY161061AY221061GF108991081051004501999999MA1999999100371MD1810091+9999MW1611REMSYN072AAXX  04001 23933 41497 80603 10122 20094 30037 40093 58009 76162 885//;
0169239330999992000070403004+60960+069690FM-12+0040USHH V0200801N006010042019N0040001N1+01091+01091100751ADDAY161031AY221031GF108991999071004501021999MD1710181+9999MW1611REMSYN076AAXX  04031 23933 /1496 80806 10109 20109 40075 57018 76162 8872/ 333 55015;EQDQ01+000082SCOTLC
0221239330999992000070406004+60960+069690FM-12+0040USHH V0200601N005010042019N0100001N1+00931+00931100661ADDAA100005191AY161061AY221061GF108991999071004501021999KA1120N+99999MD1710091+9999MW1611REMSYN088AAXX  04061 23933 11497 80605 10093 20093 40066 57009 60050 76162 8872/ 333 20108 91113;EQDQ01+000082SCOTLCQ02 +01082ATMN  
0140239330999992000070409004+60960+069690FM-12+0040USHH V0200701N005019999999N0100001N1+01041+01041100481ADDAY161031AY221031GF108991081001999999021999MD1710181+9999MW1021REMSYN066AAXX  04091 23933 41997 80705 10104 20104 40048 57018 70262 8802/;
0171239330999992000070412004+60960+069690FM-12+0040USHH V0201101N004010042019N0040001N1+01031+01031100261ADDAY191061AY281061GF108991061091004501021999MA1999999099701MD1710221+9999MW1951REMSYN082AAXX  04121 23933 41496 81104 10103 20103 39970 40026 57022 79598 8692/ 333 91113;
0163239330999992000070415004+60960+069690FM-12+0040USHH V0200801N005010042019N0100001N1+01131+01111099941ADDAY191031AY281031GF108991081031004501999999KA1999M+01191MD1710311+9999MW1251REMSYN076AAXX  04151 23933 /1497 80805 10113 20111 49994 57031 72598 883// 333 10119;
0180239330999992000070418004+60960+069690FM-12+0040USHH V0200901N003010042019N0100001N1+01231+01211099851ADDAA100020191AY181061AY221061GF108991081031004501999999KA1999M+01191MD1710091+9999MW1021REMSYN082AAXX  04181 23933 11497 80903 10123 20121 49985 57009 60200 70282 883// 333 10119;
0161239330999992000070500004+60960+069690FM-12+0040USHH V0202101N002010042019N0040001N1+01471+01471099641ADDAY161061AY221061GF108991081051004501999999MA1999999099101MD1710061+9999MW1611REMSYN072AAXX  05001 23933 41496 82102 10147 20147 39910 49964 57006 76162 885//;
0150239330999992000070503004+60960+069690FM-12+0040USHH V0202401N003010042019N0040001N1+01371+01371099821ADDAY161031AY221031GF108991081051004501999999MD1710171+9999MW1611REMSYN076AAXX  05031 23933 /1496 82403 10137 20137 49982 57017 76162 885// 333 55000;
0180239330999992000070506004+60960+069690FM-12+0040USHH V0202201N002010042019N0100001N1+01301+01271100011ADDAA100004191AY151061AY221061GF108991081031004501999999KA1999N+01101MD1210191+9999MW1511REMSYN082AAXX  05061 23933 11497 82202 10130 20127 40001 52019 60040 75152 883// 333 20110;
0140239330999992000070509004+60960+069690FM-12+0040USHH V0202201N002010021019N0100001N1+01261+01221100101ADDAY151031AY221031GF108991081061002501999999MD1210081+9999MW1201REMSYN066AAXX  05091 23933 41397 82202 10126 20122 40010 52008 72052 886//;
0161239330999992000070512004+60960+069690FM-12+0040USHH V0200701N001010042019N0100001N1+01311+01241100171ADDAY161061AY251061GF108991081061004501999999MA1999999099611MD1210071+9999MW1211REMSYN072AAXX  05121 23933 41497 80701 10131 20124 39961 40017 52007 72165 886//;
0163239330999992000070515004+60960+069690FM-12+0040USHH V0203501N003010042019N0100001N1+01221+01101100261ADDAY161031AY251031GF108991081061004501999999KA1999M+01491MD1210091+9999MW1511REMSYN076AAXX  05151 23933 /1497 83503 10122 20110 40026 52009 75165 886// 333 10149;
0180239330999992000070518004+60960+069690FM-12+0040USHH V0203601N003010042019N0040001N1+01001+01001100331ADDAA100002091AY161061AY251061GF108991081061004501999999KA1999M+01491MD1210071+9999MW1511REMSYN082AAXX  05181 23933 11496 83603 10100 20100 40033 52007 60020 75165 886// 333 10149;
0140239330999992000070521004+60960+069690FM-12+0040USHH V0203401N003010042019N0040001N1+00931+00931100351ADDAY151031AY221031GF108991081061004501999999MD1210021+9999MW1511REMSYN066AAXX  05211 23933 41496 83403 10093 20093 40035 52002 75152 886//;
0186239330999992000070603004+60960+069690FM-12+0040USHH V0203601N003010042019N0100001N1+00891+00851100511ADDAA112002091AY151031AY221031GF108991081061004501999999KA1120N+00891MD1210091+9999MW1511REMSYN088AAXX  06031 23933 /1497 83603 10089 20085 40051 52009 75152 886// 333 20089 60022 7004/;
0180239330999992000070606004+60960+069690FM-12+0040USHH V0200201N002010042019N0100001N1+00991+00811100521ADDAA100002091AY151061AY221061GF108991081031004501999999KA1999N+00891MD1210021+9999MW1021REMSYN082AAXX  06061 23933 11497 80202 10099 20081 40052 52002 60020 70252 883// 333 20089;
0112239330999992000070609004+60960+069690FM-12+0040USHH V0200101N003010042019N0100001N1+01021+00841100701ADDGF108991081031004501999999MD1210081+9999REMSYN060AAXX  06091 23933 42497 80103 10102 20084 40070 52008 883//;
0133239330999992000070612004+60960+069690FM-12+0040USHH V0200201N003010042019N0100001N1+01231+00821100751ADDGF108991081031004501999999MA1999999100191MD1210051+9999REMSYN066AAXX  06121 23933 42497 80203 10123 20082 30019 40075 52005 883//;
0135239330999992000070615004+60960+069690FM-12+0040USHH V0200401N002010750019N0100001N1+01281+00841100691ADDGF108991031031004501001071KA1999M+01381MD1810061+9999REMSYN070AAXX  06151 23933 /2497 80402 10128 20084 40069 58006 83307 333 10138;
0152239330999992000070618004+60960+069690FM-12+0040USHH V0200201N001012200019N0100001N1+01001+00841100611ADDAA100000791GF103991031051008001001001KA1999M+01381MD1710081+9999REMSYN076AAXX  06181 23933 12597 30201 10100 20084 40061 57008 69900 83500 333 10138;
0112239330999992000070621004+60960+069690FM-12+0040USHH V0203601N001012200019N0100001N1+01001+00941100551ADDGF103991031051008001001001MD1710061+9999REMSYN060AAXX  06211 23933 42597 33601 10100 20094 40055 57006 83500;
0133239330999992000070700004+60960+069690FM-12+0040USHH V0203601N002012200019N0100001N1+00951+00891100551ADDGF108991031051008001001011MA1999999099991MD1410001+9999REMSYN066AAXX  07001 23933 42597 83602 10095 20089 39999 40055 54000 83501;
0152239330999992000070703004+60960+069690FM-12+0040USHH V0203301N003012200019N0100001N1+01191+00801100431ADDAA199000091GF101991001001999999001011MD1810121+9999REMSYN070AAXX  07031 23933 32997 13303 10119 20080 40043 58012 80001 333 55029;EQDQ01  00002PRCP99
0165239330999992000070706004+60960+069690FM-12+0040USHH V0203501N004010042019N0100001N1+01431+00771100381ADDAA199000091GF106991061031004501001001KA1999N+00911MD1710051+9999REMSYN070AAXX  07061 23933 32497 63504 10143 20077 40038 57005 86300 333 20091;EQDQ01  00002PRCP99
0112239330999992000070709004+60960+069690FM-12+0040USHH V0203401N003010042019N0100001N1+01451+00881100391ADDGF107991071031004501001001MD1310021+9999REMSYN060AAXX  07091 23933 42497 73403 10145 20088 40039 53002 87300;
0133239330999992000070712004+60960+069690FM-12+0040USHH V0203001N003010042019N0100001N1+01601+00761100411ADDGF106991051031004501031001MA1999999099871MD1210031+9999REMSYN066AAXX  07121 23933 42497 63003 10160 20076 39987 40041 52003 85330;
0163239330999992000070715004+60960+069690FM-12+0040USHH V0203101N003010042019N0100001N1+01351+00921100471ADDAY181031AY221031GF106991061031004501001001KA1999M+01721MD1210041+9999MW1021REMSYN076AAXX  07151 23933 11497 63103 10135 20092 40047 52004 70282 86300 333 10172;
0180239330999992000070718004+60960+069690FM-12+0040USHH V0203101N002012200019N0100001N1+01211+00921100441ADDAA100000891AY181061AY211061GF102991021051008001001001KA1999M+01721MD1810031+9999MW1021REMSYN082AAXX  07181 23933 11597 23102 10121 20092 40044 58003 69980 70281 82500 333 10172;
0112239330999992000070721004+60960+069690FM-12+0040USHH V0203101N003012200019N0100001N1+01121+00741100421ADDGF102991021051008001031001MD1710021+9999REMSYN060AAXX  07211 23933 42597 23103 10112 20074 40042 57002 82530;
0133239330999992000070800004+60960+069690FM-12+0040USHH V0202801N003019999999N0100001N1+01161+00941100381ADDGF107991041001999999031011MA1999999099821MD1710041+9999REMSYN066AAXX  08001 23933 42997 72803 10116 20094 39982 40038 57004 84031;
0184239330999992000070803004+60960+069690FM-12+0040USHH V0203001N003019999999N0100001N1+01421+00821999999ADDAA199000091GF105991051001999999031001MD1310031+9999REMSYN070AAXX  08031 23933 32997 53003 10142 20082 40141 53003 85030 333 55089;EQDQ01+101413APOSLPQ02  00002PRCP99Q03 101413APOSLP
0181239330999992000070806004+60960+069690FM-12+0040USHH V0203101N004012200019N0100001N1+01761+00581100392ADDAA199000091GF103991031001999999031001KA1999N+01101MD1810021+9999REMSYN070AAXX  08061 23933 32997 33104 10176 20058 40039 58002 83030 333 20110;EQDQ01+100393APOSLPQ02  00002PRCP99
0112239330999992000070809004+60960+069690FM-12+0040USHH V0203001N004010300019N0100001N1+01971+00501100411ADDGF105991021011008001031001MD1310041+9999REMSYN060AAXX  08091 23933 42597 53004 10197 20050 40041 53004 82130;
0133239330999992000070812004+60960+069690FM-12+0040USHH V0202801N004012200019N0100001N1+02091+00681100441ADDGF103991021011008001001011MA1999999099901MD1210031+9999REMSYN066AAXX  08121 23933 42597 32804 10209 20068 39990 40044 52003 82101;
0175239330999992000070818004+60960+069690FM-12+0040USHH V0202701N002012200019N0100001N1+01581+01131100501ADDAA199000091GA1001+999999999GF100991001001999999001001KA1999M+02111MD1210011+9999REMSYN064AAXX  08181 23933 32997 02702 10158 20113 40050 52001 333 10211;EQDQ01  00002PRCP99
0112239330999992000070821004+60960+069690FM-12+0040USHH V0202601N002012200019N0100001N1+01431+01211100701ADDGF102991021001999999031001MD1210201+9999REMSYN060AAXX  08211 23933 42997 22602 10143 20121 40070 52020 82030;
0133239330999992000070900004+60960+069690FM-12+0040USHH V0203001N001012200019N0100001N1+01291+01221100781ADDGF103991031051004501001001MA1999999100221MD1210071+9999REMSYN066AAXX  09001 23933 42497 33001 10129 20122 30022 40078 52007 83500;
0152239330999992000070903004+60960+069690FM-12+0040USHH V0209999C000019999999N0100001N1+01701+01001100861ADDAA199000091GF106991061001999999031001MD1210091+9999REMSYN070AAXX  09031 23933 32997 60000 10170 20100 40086 52009 86030 333 55167;EQDQ01  00002PRCP99
0165239330999992000070906004+60960+069690FM-12+0040USHH V0202601N002012200019N0100001N1+01941+01261100911ADDAA199000091GF103991021021008001001011KA1999N+01261MD1210061+9999REMSYN070AAXX  09061 23933 32597 32602 10194 20126 40091 52006 82201 333 20126;EQDQ01  00002PRCP99
0112239330999992000070909004+60960+069690FM-12+0040USHH V0200601N003010075019N0100001N1+01971+01221100911ADDGF107991051031008001031011MD1410001+9999REMSYN060AAXX  09091 23933 42597 70603 10197 20122 40091 54000 85331;
0133239330999992000070912004+60960+069690FM-12+0040USHH V0201001N002010300019N0100001N1+02061+01301100951ADDGF105991021021008001031001MA1999999100401MD1210031+9999REMSYN066AAXX  09121 23933 42597 51002 10206 20130 30040 40095 52003 82230;
0165239330999992000070915004+60960+069690FM-12+0040USHH V0200901N002012200019N0100001N1+01971+01261100961ADDAA199000091GF103991031051008001001001KA1999M+02111MD1210111+9999REMSYN070AAXX  09151 23933 32597 30902 10197 20126 40096 52011 83500 333 10211;EQDQ01  00002PRCP99
0165239330999992000070918004+60960+069690FM-12+0040USHH V0200701N001012200019N0100001N1+01531+01351101021ADDAA199000091GF102991021051008001001001KA1999M+02111MD1210051+9999REMSYN070AAXX  09181 23933 32597 20701 10153 20135 40102 52005 82500 333 10211;EQDQ01  00002PRCP99
0112239330999992000070921004+60960+069690FM-12+0040USHH V0202701N001012200019N0100001N1+01331+01291101041ADDGF102991001001999999001011MD1210021+9999REMSYN060AAXX  09211 23933 42997 22701 10133 20129 40104 52002 80001;
0133239330999992000071000004+60960+069690FM-12+0040USHH V0202001N001019999999N0100001N1+01401+01361101081ADDGF106991001001999999001011MA1999999100521MD1210041+9999REMSYN066AAXX  10001 23933 42997 62001 10140 20136 30052 40108 52004 80001;
0152239330999992000071003004+60960+069690FM-12+0040USHH V0203101N001012200019N0100001N1+01921+01341101121ADDAA199000091GF102991001001999999001011MD1210051+9999REMSYN070AAXX  10031 23933 32997 23101 10192 20134 40112 52005 80001 333 55142;EQDQ01  00002PRCP99
0165239330999992000071006004+60960+069690FM-12+0040USHH V0203101N001012200019N0100001N1+02121+00941101111ADDAA199000091GF101991001001999999001011KA1999N+01231MD1810021+9999REMSYN070AAXX  10061 23933 32997 13101 10212 20094 40111 58002 80001 333 20123;EQDQ01  00002PRCP99
0122239330999992000071009004+60960+069690FM-12+0040USHH V0203001N002012200019N0100001N1+02301+01051101051ADDGA1001+999999999GF100991001001999999001001MD1710051+9999REMSYN054AAXX  10091 23933 42997 03002 10230 20105 40105 57005;
0143239330999992000071012004+60960+069690FM-12+0040USHH V0203301N002012200019N0100001N1+02391+01261101061ADDGA1001+999999999GF100991001001999999001001MA1999999100511MD1310011+9999REMSYN060AAXX  10121 23933 42997 03302 10239 20126 30051 40106 53001;
0165239330999992000071015004+60960+069690FM-12+0040USHH V0201401N002012200019N0100001N1+02281+01211100971ADDAA199000091GF101991011021008001001001KA1999M+02471MD1810091+9999REMSYN070AAXX  10151 23933 32597 11402 10228 20121 40097 58009 81200 333 10247;EQDQ01  00002PRCP99
0165239330999992000071018004+60960+069690FM-12+0040USHH V0201301N002012200019N0100001N1+01801+01361101031ADDAA199000091GF102991021051008001001001KA1999M+02471MD1310051+9999REMSYN070AAXX  10181 23933 32597 21302 10180 20136 40103 53005 82500 333 10247;EQDQ01  00002PRCP99
0112239330999992000071021004+60960+069690FM-12+0040USHH V0201401N001012200019N0100001N1+01671+01591101061ADDGF103991031051008001001001MD1210031+9999REMSYN060AAXX  10211 23933 42597 31401 10167 20159 40106 52003 83500;
0133239330999992000071100004+60960+069690FM-12+0040USHH V0201001N001010075019N0100001N1+01901+01691101131ADDGF105991051051008001001001MA1999999100581MD1210081+9999REMSYN066AAXX  11001 23933 42597 51001 10190 20169 30058 40113 52008 85500;
0152239330999992000071103004+60960+069690FM-12+0040USHH V0200901N001010075019N0100001N1+02171+01691101171ADDAA199000091GF106991061051008001001001MD1210041+9999REMSYN070AAXX  11031 23933 32597 60901 10217 20169 40117 52004 86500 333 55177;EQDQ01  00002PRCP99
0165239330999992000071106004+60960+069690FM-12+0040USHH V0200901N001012200019N0100001N1+02471+01141101181ADDAA199000091GF102991021021008001001001KA1999N+01611MD1210021+9999REMSYN070AAXX  11061 23933 32597 20901 10247 20114 40118 52002 82200 333 20161;EQDQ01  00002PRCP99
0112239330999992000071109004+60960+069690FM-12+0040USHH V0201001N002012200019N0100001N1+02531+01121101181ADDGF102991021021008001001011MD1410001+9999REMSYN060AAXX  11091 23933 42597 21002 10253 20112 40118 54000 82201;
0133239330999992000071112004+60960+069690FM-12+0040USHH V0200201N001012200019N0100001N1+02641+01371101181ADDGF105991031051008001001011MA1999999100641MD1410001+9999REMSYN066AAXX  11121 23933 42597 50201 10264 20137 30064 40118 54000 83501;
0181239330999992000071115004+60960+069690FM-12+0040USHH V0203301N001019999999N0100001N1+02491+01431101351ADDAA199000091GF105991999011008001081001KA1999M+02671MD1310171+9999REMSYN070AAXX  11151 23933 32597 53301 10249 20143 40135 53017 80180 333 10267;EQDQ01+000002SCOTLCQ02  00002PRCP99
0175239330999992000071118004+60960+069690FM-12+0040USHH V0200301N001012200019N0100001N1+02101+01641101511ADDAA199000091GA1001+999999999GF100991001001999999001001KA1999M+02671MD1210151+9999REMSYN064AAXX  11181 23933 32997 00301 10210 20164 40151 52015 333 10267;EQDQ01  00002PRCP99
0112239330999992000071121004+60960+069690FM-12+0040USHH V0209999C000012200019N0100001N1+01691+01391101431ADDGF102991021021008001001011MD1810091+9999REMSYN060AAXX  11211 23933 42597 20000 10169 20139 40143 58009 82201;
0133239330999992000071200004+60960+069690FM-12+0040USHH V0200301N001012200019N0100001N1+01691+01411101511ADDGF103991001001999999001011MA1999999100951MD1210081+9999REMSYN066AAXX  12001 23933 42997 30301 10169 20141 30095 40151 52008 80001;
0168239330999992000071203004+60960+069690FM-12+0040USHH V0201001N999992200019N0100001N1+02131+01491101601ADDAA199000091GF102991021001999999031011MD1210101+9999REMSYN070AAXX  12031 23933 32997 26001 10213 20149 40160 52010 82031 333 55167;EQDQ01+010101WOSPD Q02  00002PRCP99
0165239330999992000071206004+60960+069690FM-12+0040USHH V0200601N001012200019N0100001N1+02281+01501102031ADDAA199000091GF102991001001999999001011KA1999N+01601MD1210431+9999REMSYN070AAXX  12061 23933 32997 20601 10228 20150 40203 52043 80001 333 20160;EQDQ01  00002PRCP99
0133239330999992000071212004+60960+069690FM-12+0040USHH V0200601N002012200019N0100001N1+02501+01061101481ADDGF102991001001999999001011MA1999999100941MD1810051+9999REMSYN066AAXX  12121 23933 42997 20602 10250 20106 30094 40148 58005 80001;
0165239330999992000071215004+60960+069690FM-12+0040USHH V0203001N002012200019N0100001N1+02481+01131101451ADDAA199000091GF102991001001999999001011KA1999M+02551MD1810031+9999REMSYN070AAXX  12151 23933 32997 23002 10248 20113 40145 58003 80001 333 10255;EQDQ01  00002PRCP99
0165239330999992000071218004+60960+069690FM-12+0040USHH V0209999C000012200019N0100001N1+01791+01311101521ADDAA199000091GF103991001001999999001011KA1999M+02551MD1310051+9999REMSYN070AAXX  12181 23933 32997 30000 10179 20131 40152 53005 80001 333 10255;EQDQ01  00002PRCP99
0112239330999992000071221004+60960+069690FM-12+0040USHH V0202301N002012200019N0100001N1+01611+01431101511ADDGF103991001001999999001011MD1410001+9999REMSYN060AAXX  12211 23933 42997 32302 10161 20143 40151 54000 80001;
0133239330999992000071300004+60960+069690FM-12+0040USHH V0202401N001010042019N0100001N1+01691+01571101561ADDGF106991061051004501001001MA1999999101001MD1210041+9999REMSYN066AAXX  13001 23933 42497 62401 10169 20157 30100 40156 52004 86500;
0152239330999992000071303004+60960+069690FM-12+0040USHH V0202601N001012200019N0100001N1+02221+01771101561ADDAA199000091GF102991021011008001001011MD1410001+9999REMSYN070AAXX  13031 23933 32597 22601 10222 20177 40156 54000 82101 333 55170;EQDQ01  00002PRCP99
0165239330999992000071306004+60960+069690FM-12+0040USHH V0200501N002012200019N0100001N1+02571+01701101551ADDAA199000091GF102991021021008001001001KA1999N+01161MD1410001+9999REMSYN070AAXX  13061 23933 32597 20502 10257 20170 40155 54000 82200 333 20116;EQDQ01  00002PRCP99
0112239330999992000071309004+60960+069690FM-12+0040USHH V0203301N002012200019N0100001N1+02881+01121101501ADDGF103991021021008001001011MD1810051+9999REMSYN060AAXX  13091 23933 42597 33302 10288 20112 40150 58005 82201;
0171239330999992000071312004+60960+069690FM-12+0040USHH V0201501N003010300019N0100001N1+02111+01631101571ADDAY191061AY281061GF107991021021008001071001MA1999999101021MD1310061+9999MW1291REMSYN082AAXX  13121 23933 41597 71503 10211 20163 30102 40157 53006 72998 82270 333 91112;
0135239330999992000071315004+60960+069690FM-12+0040USHH V0203301N003012200019N0100001N1+02391+01601101491ADDGF103991021001999999031011KA1999M+02951MD1810071+9999REMSYN070AAXX  13151 23933 /2997 33303 10239 20160 40149 58007 82031 333 10295;
0152239330999992000071318004+60960+069690FM-12+0040USHH V0203301N001012200019N0100001N1+02091+01721101581ADDAA100001091GF105991021011008001001011KA1999M+02951MD1310081+9999REMSYN076AAXX  13181 23933 32597 53301 10209 20172 40158 53008 60010 82101 333 10295;
0112239330999992000071321004+60960+069690FM-12+0040USHH V0202101N003012200019N0100001N1+01741+01431101851ADDGF103991021001999999031011MD1210261+9999REMSYN060AAXX  13211 23933 42997 32103 10174 20143 40185 52026 82031;
0133239330999992000071400004+60960+069690FM-12+0040USHH V0200501N003012200019N0100001N1+01411+01121102061ADDGF103991001001999999001021MA1999999101491MD1210201+9999REMSYN066AAXX  14001 23933 42997 30503 10141 20112 30149 40206 52020 80002;
0152239330999992000071403004+60960+069690FM-12+0040USHH V0200301N002012200019N0100001N1+01421+00821102121ADDAA199000091GF103991021011004501001011MD1210061+9999REMSYN070AAXX  14031 23933 32497 30302 10142 20082 40212 52006 82101 333 55131;EQDQ01  00002PRCP99
0181239330999992000071406004+60960+069690FM-12+0040USHH V0200301N003012200019N0100001N1+01551+00821102121ADDAA199000091GF103991021011008001001011KA1999N+99999MD1410001+9999REMSYN070AAXX  14061 23933 32597 30303 10155 20082 40212 54000 82101 333 20295;EQDQ01  00002PRCP99Q02 +02952ATMN  
0112239330999992000071409004+60960+069690FM-12+0040USHH V0202001N007012200019N0100001N1+01801+00851102111ADDGF102991021011008001001001MD1410001+9999REMSYN060AAXX  14091 23933 42597 22007 10180 20085 40211 54000 82100;
0143239330999992000071412004+60960+069690FM-12+0040USHH V0202001N005012200019N0100001N1+01991+01271102121ADDGA1001+999999999GF100991001001999999001001MA1999999101551MD1410001+9999REMSYN060AAXX  14121 23933 42997 02005 10199 20127 30155 40212 54000;
0175239330999992000071418004+60960+069690FM-12+0040USHH V0209999C000012200019N0100001N1+01491+00971102311ADDAA199000091GA1001+999999999GF100991001001999999001001KA1999M+02061MD1210181+9999REMSYN064AAXX  14181 23933 32997 00000 10149 20097 40231 52018 333 10206;EQDQ01  00002PRCP99
0122239330999992000071421004+60960+069690FM-12+0040USHH V0203001N001012200019N0100001N1+01231+00991102261ADDGA1001+999999999GF100991001001999999001001MD1810061+9999REMSYN054AAXX  14211 23933 42997 03001 10123 20099 40226 58006;
0133239330999992000071500004+60960+069690FM-12+0040USHH V0203201N001012200019N0100001N1+01251+00931102341ADDGF102991001001999999001011MA1999999101771MD1210081+9999REMSYN066AAXX  15001 23933 42997 23201 10125 20093 30177 40234 52008 80001;
0152239330999992000071503004+60960+069690FM-12+0040USHH V0200201N001012200019N0100001N1+01631+00991102441ADDAA199000091GF103991001001999999001011MD1210111+9999REMSYN070AAXX  15031 23933 32997 30201 10163 20099 40244 52011 80001 333 55175;EQDQ01  00002PRCP99
0165239330999992000071506004+60960+069690FM-12+0040USHH V0201001N001012200019N0100001N1+01941+00711102361ADDAA199000091GF104991001001999999001011KA1999N+01171MD1810081+9999REMSYN070AAXX  15061 23933 32997 41001 10194 20071 40236 58008 80001 333 20117;EQDQ01  00002PRCP99
0112239330999992000071509004+60960+069690FM-12+0040USHH V0200601N001012200019N0100001N1+02211+00841102341ADDGF103991001001999999001011MD1710011+9999REMSYN060AAXX  15091 23933 42997 30601 10221 20084 40234 57001 80001;
0133239330999992000071512004+60960+069690FM-12+0040USHH V0203101N001012200019N0100001N1+02291+00741102301ADDGF101991001001999999001011MA1999999101751MD1710041+9999REMSYN066AAXX  15121 23933 42997 13101 10229 20074 30175 40230 57004 80001;
0165239330999992000071515004+60960+069690FM-12+0040USHH V0202501N002019999999N0100001N1+02201+00891102131ADDAA199000091GF106991001001999999001031KA1999M+02401MD1710171+9999REMSYN070AAXX  15151 23933 32997 62502 10220 20089 40213 57017 80003 333 10240;EQDQ01  00002PRCP99
0165239330999992000071518004+60960+069690FM-12+0040USHH V0202301N001019999999N0100001N1+01651+00451102081ADDAA199000091GF106991001001999999001031KA1999M+02401MD1710051+9999REMSYN070AAXX  15181 23933 32997 62301 10165 20045 40208 57005 80003 333 10240;EQDQ01  00002PRCP99
0133239330999992000071600004+60960+069690FM-12+0040USHH V0202501N001019999999N0100001N1+01691+01051102011ADDGF106991001001999999001031MA1999999101451MD1810081+9999REMSYN066AAXX  16001 23933 42997 62501 10169 20105 30145 40201 58008 80003;
0152239330999992000071603004+60960+069690FM-12+0040USHH V0202901N001019999999N0100001N1+02041+01241101981ADDAA199000091GF105991051001999999031001MD1710021+9999REMSYN070AAXX  16031 23933 32997 52901 10204 20124 40198 57002 85030 333 55140;EQDQ01  00002PRCP99
0165239330999992000071606004+60960+069690FM-12+0040USHH V0203101N001019999999N0100001N1+02141+01441101931ADDAA199000091GF106991061001999999031001KA1999N+01601MD1710051+9999REMSYN070AAXX  16061 23933 32997 63101 10214 20144 40193 57005 86030 333 20160;EQDQ01  00002PRCP99
0140239330999992000071609004+60960+069690FM-12+0040USHH V0202801N002010075019N0100001N1+01761+01581101951ADDAY191031AY281031GF108991061091008001031999MD1310011+9999MW1801REMSYN066AAXX  16091 23933 41597 82802 10176 20158 40195 53001 78098 8693/;
0161239330999992000071612004+60960+069690FM-12+0040USHH V0202801N003012200019N0100001N1+02181+01391101831ADDAY191061AY281061GF103991031001999999031001MA1999999101281MD1810111+9999MW1251REMSYN072AAXX  16121 23933 41997 32803 10218 20139 30128 40183 58011 72598 83030;
0135239330999992000071615004+60960+069690FM-12+0040USHH V0203201N002012200019N0100001N1+02141+01641101741ADDGF102991001001999999001011KA1999M+02231MD1710091+9999REMSYN070AAXX  16151 23933 /2997 23202 10214 20164 40174 57009 80001 333 10223;
0152239330999992000071618004+60960+069690FM-12+0040USHH V0202801N002012200019N0100001N1+01811+01771101831ADDAA100005191GF103991031001999999031001KA1999M+02231MD1310081+9999REMSYN076AAXX  16181 23933 32997 32802 10181 20177 40183 53008 60050 83030 333 10223;
0112239330999992000071621004+60960+069690FM-12+0040USHH V0202601N002012200019N0100001N1+01811+01761101721ADDGF103991031001999999041001MD1810111+9999REMSYN060AAXX  16211 23933 42997 32602 10181 20176 40172 58011 83040;
0133239330999992000071700004+60960+069690FM-12+0040USHH V0202601N003012200019N0100001N1+01851+01821101741ADDGF103991001001999999001011MA1999999101191MD1310031+9999REMSYN066AAXX  17001 23933 42997 32603 10185 20182 30119 40174 53003 80001;
0162239330999992000071703004+60960+069690FM-12+0040USHH V0202901N005012200019N0100001N1+02191+01771101771ADDAA199000091GA1001+999999999GF100991001001999999001001MD1310031+9999REMSYN064AAXX  17031 23933 32997 02905 10219 20177 40177 53003 333 55172;EQDQ01  00002PRCP99
0165239330999992000071706004+60960+069690FM-12+0040USHH V0202701N006019999999N0100001N1+02501+01911101771ADDAA199000091GF106991001001999999001011KA1999N+01751MD1410001+9999REMSYN070AAXX  17061 23933 32997 62706 10250 20191 40177 54000 80001 333 20175;EQDQ01  00002PRCP99
0112239330999992000071709004+60960+069690FM-12+0040USHH V0203001N003012200019N0100001N1+02781+01931101611ADDGF103991011011008001001011MD1710041+9999REMSYN060AAXX  17091 23933 42597 33003 10278 20193 40161 57004 81101;
0133239330999992000071712004+60960+069690FM-12+0040USHH V0203001N006012200019N0100001N1+02781+01581101501ADDGF103991001001999999001011MA1999999100971MD1710011+9999REMSYN066AAXX  17121 23933 42997 33006 10278 20158 30097 40150 57001 80001;
0163239330999992000071715004+60960+069690FM-12+0040USHH V0203301N001010075019N0100001N1+02541+01991101491ADDAY191031AY281031GF108991071091008001031999KA1999M+02851MD1710021+9999MW1951REMSYN076AAXX  17151 23933 /1597 83301 10254 20199 40149 57002 79598 8793/ 333 10285;
0180239330999992000071718004+60960+069690FM-12+0040USHH V0202101N001012200019N0100001N1+02121+01881101401ADDAA100000591AY191061AY281061GF103991031001999999031001KA1999M+02851MD1710101+9999MW1021REMSYN082AAXX  17181 23933 11997 32101 10212 20188 40140 57010 69960 70298 83030 333 10285;
0112239330999992000071721004+60960+069060FM-12+0040USHH V0202901N003012200019N0100001N1+02061+01661101331ADDGF102991021001999999031001MD1710071+9999REMSYN060AAXX  17211 23933 42997 22903 10206 20166 40133 57007 82030;
0133239330999992000071800004+60960+069060FM-12+0040USHH V0203001N001012200019N0100001N1+02011+01801101291ADDGF102991021001999999031001MA1999999100791MD1710041+9999REMSYN066AAXX  18001 23933 42997 23001 10201 20180 30079 40129 57004 82030;
0158239330999992000071803004+60960+069060FM-12+0040USHH V0201601N001019999999N0100001N1+02151+01571101301ADDAA112999929GF106991061001999999071001KA1120N+01501MD1310011+9999REMSYN082AAXX  18031 23933 /2997 61601 10215 20157 40130 53001 86070 333 20150 69902 7000/;
0152239330999992000071806004+60960+069060FM-12+0040USHH V0203001N001012200019N0100001N1+02391+01621101441ADDAA100000791GF102991001001999999001021KA1999N+02001MD1210151+9999REMSYN076AAXX  18061 23933 32997 23001 10239 20162 40144 52015 69900 80002 333 20200;
0112239330999992000071809004+60960+069060FM-12+0040USHH V02099999999990750019N0100001N1+02491+01701101361ADDGF105991011021001501031011MD1810081+9999REMSYN060AAXX  18091 23933 42297 53701 10249 20170 40136 58008 81231;
0161239330999992000071812004+60960+069060FM-12+0040USHH V0209999C000010075019N0100001N1+01911+01791101421ADDAY191061AY281061GF108991081091008001999999MA1999999100871MD1310051+9999MW1951REMSYN072AAXX  18121 23933 41597 80000 10191 20179 30087 40142 53005 79598 889//;
0163239330999992000071815004+60960+069060FM-12+0040USHH V0203301N003019999999N0100001N1+01921+01791101391ADDAY191031AY281031GF108991031001999999031051KA1999M+02511MD1810041+9999MW1021REMSYN076AAXX  18151 23933 /1997 83303 10192 20179 40139 58004 70298 83035 333 10251;
0180239330999992000071818004+60960+069060FM-12+0040USHH V0202001N003019999999N0100001N1+01831+01641101551ADDAA100003091AY191061AY281061GF106991031001999999031051KA1999M+02511MD1210161+9999MW1021REMSYN082AAXX  18181 23933 11997 62003 10183 20164 40155 52016 60030 70298 83035 333 10251;
0112239330999992000071821004+60960+069060FM-12+0040USHH V0203001N004012200019N0100001N1+01511+01221101731ADDGF102991001001999999001021MD1210181+9999REMSYN060AAXX  18211 23933 42997 23004 10151 20122 40173 52018 80002;
0143239330999992000071900004+60960+069060FM-12+0040USHH V0203001N005012200019N0100001N1+01371+01201101791ADDGA1001+999999999GF100991001001999999001001MA1999999101231MD1210061+9999REMSYN060AAXX  19001 23933 42997 03005 10137 20120 30123 40179 52006;
0152239330999992000071903004+60960+069060FM-12+0040USHH V0200501N002012200019N0100001N1+01541+01211101951ADDAA199000091GF105991031091008001001011MD1210161+9999REMSYN070AAXX  19031 23933 32597 50502 10154 20121 40195 52016 83901 333 55062;EQDQ01  00002PRCP99
0165239330999992000071906004+60960+069060FM-12+0040USHH V0200401N004012200019N0100001N1+01711+01351102041ADDAA199000091GF102991021011008001001001KA1999N+01371MD1210091+9999REMSYN070AAXX  19061 23933 32597 20404 10171 20135 40204 52009 82100 333 20137;EQDQ01  00002PRCP99
0122239330999992000071909004+60960+069060FM-12+0040USHH V0200301N004012200019N0100001N1+01981+01591102001ADDGA1001+999999999GF100991001001999999001001MD1810031+9999REMSYN054AAXX  19091 23933 42997 00304 10198 20159 40200 58003;
0143239330999992000071912004+60960+069060FM-12+0040USHH V0200201N003012200019N0100001N1+02091+00901102031ADDGA1001+999999999GF100991001001999999001001MA1999999101481MD1310031+9999REMSYN060AAXX  19121 23933 42997 00203 10209 20090 30148 40203 53003;
0139239330999992000071915004+60960+069060FM-12+0040USHH V02099999999999999999N0100001N1+01031+99999101991ADDAA199000091KA1999M+02131MD1810041+9999REMSYN070AAXX  19151 23933 32997 ///// 10103 20203 40199 58004 80001 333 10213;EQDQ01  00002PRCP99
0175239330999992000071918004+60960+069060FM-12+0040USHH V0201901N003012200019N0100001N1+01611+01061102151ADDAA199000091GA1001+999999999GF100991001001999999001001KA1999M+02131MD1310151+9999REMSYN064AAXX  19181 23933 32997 01903 10161 20106 40215 53015 333 10213;EQDQ01  00002PRCP99
0112239330999992000071921004+60960+069060FM-12+0040USHH V0202701N003012200019N0100001N1+01311+01091102301ADDGF101991001001999999001011MD1210141+9999REMSYN060AAXX  19211 23933 42997 12703 10131 20109 40230 52014 80001;
0143239330999992000072000004+60960+069060FM-12+0040USHH V0202601N003012200019N0100001N1+01311+01241102301ADDGA1001+999999999GF100991001001999999001001MA1999999101731MD1410001+9999REMSYN060AAXX  20001 23933 42997 02603 10131 20124 30173 40230 54000;
0162239330999992000072003004+60960+069060FM-12+0040USHH V0203201N002012200019N0100001N1+01641+01201102281ADDAA199000091GA1001+999999999GF100991001001999999001001MD1410001+9999REMSYN064AAXX  20031 23933 32997 03202 10164 20120 40228 54000 333 55170;EQDQ01  00002PRCP99
0165239330999992000072006004+60960+069060FM-12+0040USHH V0203301N002012200019N0100001N1+01911+00991102321ADDAA199000091GF102991021011008001001001KA1999N+01261MD1210041+9999REMSYN070AAXX  20061 23933 32597 23302 10191 20099 40232 52004 82100 333 20126;EQDQ01  00002PRCP99
0131239330999992000072009004+60960+069060FM-12+0040USHH V0201001N999992200019N0100001N1+02021+00881102351ADDGF101991011011999999001001MD1210031+9999REMSYN060AAXX  20091 23933 42997 16004 10202 20088 40235 52003 81100;EQDQ01+010401WOSPD 
0133239330999992000072012004+60960+069060FM-12+0040USHH V0202001N004012200019N0100001N1+02071+00821102351ADDGF102991001001999999001011MA1999999101801MD1410001+9999REMSYN066AAXX  20121 23933 42997 22004 10207 20082 30180 40235 54000 80001;
0165239330999992000072015004+60960+069060FM-12+0040USHH V0200301N002012200019N0100001N1+01951+00841102331ADDAA199000091GF103991001001999999001011KA1999M+02091MD1710021+9999REMSYN070AAXX  20151 23933 32997 30302 10195 20084 40233 57002 80001 333 10209;EQDQ01  00002PRCP99
0165239330999992000072018004+60960+069060FM-12+0040USHH V0201601N001012200019N0100001N1+01441+01091102361ADDAA199000091GF103991021001999999031011KA1999M+02091MD1310041+9999REMSYN070AAXX  20181 23933 32997 31601 10144 20109 40236 53004 82031 333 10209;EQDQ01  00002PRCP99
0112239330999992000072021004+60960+069060FM-12+0040USHH V0202401N002012200019N0100001N1+01511+00931102391ADDGF103991001001999999001011MD1210011+9999REMSYN060AAXX  20211 23933 42997 32402 10151 20093 40239 52001 80001;
0133239330999992000072100004+60960+069060FM-12+0040USHH V0202801N003019999999N0100001N1+01571+01041102381ADDGF105991051001999999031001MA1999999101821MD1810011+9999REMSYN066AAXX  21001 23933 42997 52803 10157 20104 30182 40238 58001 85030;
0168239330999992000072103004+60960+069060FM-12+0040USHH V0202601N003019999999N0100001N1+01731+01281102391ADDAA199000091GF106991999001999999031001MD1310021+9999REMSYN070AAXX  21031 23933 32997 62603 10173 20128 40239 53002 83030 333 55169;EQDQ01+000032SCOTLCQ02  00002PRCP99
0165239330999992000072106004+60960+069060FM-12+0040USHH V0200601N003012200019N0100001N1+01871+01031102371ADDAA199000091GF102991001001999999001011KA1999N+01441MD1810031+9999REMSYN070AAXX  21061 23933 32997 20603 10187 20103 40237 58003 80001 333 20144;EQDQ01  00002PRCP99
0122239330999992000072109004+60960+069060FM-12+0040USHH V0200101N003012200019N0100001N1+01951+00431102531ADDGA1001+999999999GF100991001001999999001001MD1310171+9999REMSYN054AAXX  21091 23933 42997 00103 10195 20043 40253 53017;
0133239330999992000072112004+60960+069060FM-12+0040USHH V0200201N003012200019N0100001N1+01841+00611102431ADDGF103991031011008001001001MA1999999101871MD1810111+9999REMSYN066AAXX  21121 23933 42597 30203 10184 20061 30187 40243 58011 83100;
0165239330999992000072115004+60960+069060FM-12+0040USHH V0200801N003012200019N0100001N1+01551+00671102641ADDAA199000091GF102991021011008001001001KA1999M+01991MD1310211+9999REMSYN070AAXX  21151 23933 32597 20803 10155 20067 40264 53021 82100 333 10199;EQDQ01  00002PRCP99
0165239330999992000072118004+60960+069060FM-12+0040USHH V0200201N002010075019N0100001N1+01191+00801102571ADDAA199000091GF106991061051008001001001KA1999M+01991MD1810081+9999REMSYN070AAXX  21181 23933 32597 60202 10119 20080 40257 58008 86500 333 10199;EQDQ01  00002PRCP99
0112239330999992000072121004+60960+069060FM-12+0040USHH V0203201N001010075019N0100001N1+01271+00711103081ADDGF106991061051008001001001MD1310301+9999REMSYN060AAXX  21211 23933 42597 63201 10127 20071 40308 53030 86500;
0133239330999992000072200004+60960+069060FM-12+0040USHH V0203401N002019999999N0100001N1+01031+01021102581ADDGF105991051001008001031001MA1999999102011MD1810491+9999REMSYN066AAXX  22001 23933 42597 53402 10103 20102 30201 40258 58049 85030;
0152239330999992000072203004+60960+069060FM-12+0040USHH V0203501N002012200019N0100001N1+01401+01021102491ADDAA199000091GF102991001001999999001011MD1710091+9999REMSYN070AAXX  22031 23933 32997 23502 10140 20102 40249 57009 80001 333 55137;EQDQ01  00002PRCP99
0165239330999992000072206004+60960+069060FM-12+0040USHH V0203101N003012200019N0100001N1+01751+00861102441ADDAA199000091GF102991011021008001001011KA1999N+01071MD1710041+9999REMSYN070AAXX  22061 23933 32597 23103 10175 20086 40244 57004 81201 333 20107;EQDQ01  00002PRCP99
0112239330999992000072209004+60960+069060FM-12+0040USHH V0203201N004012200019N0100001N1+01971+00651102151ADDGF103991021021008001001011MD1710281+9999REMSYN060AAXX  22091 23933 42597 33204 10197 20065 40215 57028 82201;
0133239330999992000072212004+60960+069060FM-12+0040USHH V0203201N003012200019N0100001N1+02061+00711102011ADDGF105991031011008001001011MA1999999101461MD1710141+9999REMSYN066AAXX  22121 23933 42597 53203 10206 20071 30146 40201 57014 83101;
0165239330999992000072215004+60960+069060FM-12+0040USHH V0200101N003012200019N0100001N1+01881+00681102041ADDAA199000091GF103991021001999999031011KA1999M+02141MD1310021+9999REMSYN070AAXX  22151 23933 32997 30103 10188 20068 40204 53002 82031 333 10214;EQDQ01  00002PRCP99
0165239330999992000072218004+60960+069060FM-12+0040USHH V0203101N003012200019N0100001N1+01591+00731101861ADDAA199000091GF103991021001999999071021KA1999M+02141MD1810181+9999REMSYN070AAXX  22181 23933 32997 33103 10159 20073 40186 58018 82072 333 10214;EQDQ01  00002PRCP99
0112239330999992000072221004+60960+069060FM-12+0040USHH V0203201N003010300019N0100001N1+01231+00821101781ADDGF106991021011008001031001MD1710081+9999REMSYN060AAXX  22211 23933 42597 63203 10123 20082 40178 57008 82130;
0133239330999992000072300004+60960+069060FM-12+0040USHH V0203301N003019999999N0100001N1+01311+00931101831ADDGF106991061001999999071001MA1999999101271MD1310051+9999REMSYN066AAXX  23001 23933 42997 63303 10131 20093 30127 40183 53005 86070;
0152239330999992000072303004+60960+069060FM-12+0040USHH V0203301N002010075019N0100001N1+01311+01021101751ADDAA199000091GF108991061051008001071999MD1810081+9999REMSYN070AAXX  23031 23933 32597 83302 10131 20102 40175 58008 8657/ 333 55154;EQDQ01  00002PRCP99
0165239330999992000072306004+60960+069060FM-12+0040USHH V0203501N003019999999N0100001N1+01571+01091101671ADDAA199000091GF107991071001999999031001KA1999N+01231MD1710081+9999REMSYN070AAXX  23061 23933 32997 73503 10157 20109 40167 57008 87030 333 20123;EQDQ01  00002PRCP99
0140239330999992000072309004+60960+069060FM-12+0040USHH V0200101N003010300019N0100001N1+01791+01061101631ADDAY121031AY221031GF108991031051008001071999MD1710041+9999MW1041REMSYN066AAXX  23091 23933 41597 80103 10179 20106 40163 57004 70422 8357/;
0161239330999992000072312004+60960+069060FM-12+0040USHH V0200101N003010300019N0100001N1+01761+01131101631ADDAY121061AY221061GF107991031051008001071999MA1999999101071MD1410001+9999MW1041REMSYN072AAXX  23121 23933 41597 70103 10176 20113 30107 40163 54000 70422 8357/;
0193239330999992000072315004+60960+069060FM-12+0040USHH V0200201N002010300019N0100001N1+01721+01181101611ADDAA199000091AY121031AY221031GF105991021051008001031001KA1999M+01861MD1710021+9999MW1041REMSYN076AAXX  23151 23933 31597 50202 10172 20118 40161 57002 70422 82530 333 10186;EQDQ01  00002PRCP99
0193239330999992000072318004+60960+069060FM-12+0040USHH V0203201N002010075019N0100001N1+01411+01301101591ADDAA199000091AY161061AY221061GF108991051051008001071999KA1999M+01861MD1710021+9999MW1041REMSYN076AAXX  23181 23933 31597 83202 10141 20130 40159 57002 70462 8557/ 333 10186;EQDQ01  00002PRCP99
0140239330999992000072321004+60960+069060FM-12+0040USHH V0200101N002010300019N0100001N1+01371+01291101641ADDAY121031AY221031GF107991031051008001071999MD1310051+9999MW1041REMSYN066AAXX  23211 23933 41597 70102 10137 20129 40164 53005 70422 8357/;
0161239330999992000072400004+60960+069060FM-12+0040USHH V0203401N002012200019N0100001N1+01241+01241101651ADDAY101061AY201061GF101991001001999999001011MA1999999101091MD1210011+9999MW1041REMSYN072AAXX  24001 23933 41997 13402 10124 20124 30109 40165 52001 70400 80001;
0122239330999992000072403004+60960+069060FM-12+0040USHH V0200601N002012200019N0100001N1+01541+01251101731ADDGF102991001001999999001011MD1210081+9999REMSYN070AAXX  24031 23933 /2997 20602 10154 20125 40173 52008 80001 333 55029;
0152239330999992000072406004+60960+069060FM-12+0040USHH V0200401N002012200019N0100001N1+01851+00921101561ADDAA100005191GF103991021021008001001011KA1999N+01211MD1810171+9999REMSYN076AAXX  24061 23933 32597 30402 10185 20092 40156 58017 60050 82201 333 20121;
0131239330999992000072409004+60960+069060FM-12+0040USHH V0203301N002012200019N0100001N1+02031+01061101461ADDGF102991999031004501001021MD1810091+9999REMSYN060AAXX  24091 23933 42497 23302 10203 20106 40146 58009 83302;EQDQ01+000032SCOTLC
0133239330999992000072412004+60960+069060FM-12+0040USHH V0203001N002012200019N0100001N1+02101+00611101411ADDGF102991021021008001001001MA1999999100861MD1710051+9999REMSYN066AAXX  24121 23933 42597 23002 10210 20061 30086 40141 57005 82200;
0165239330999992000072415004+60960+069060FM-12+0040USHH V0202901N002012200019N0100001N1+01971+01111101251ADDAA199000091GF102991011011008001001011KA1999M+02151MD1710161+9999REMSYN070AAXX  24151 23933 32597 22902 10197 20111 40125 57016 81101 333 10215;EQDQ01  00002PRCP99
0175239330999992000072418004+60960+069060FM-12+0040USHH V0202601N001012200019N0100001N1+01601+01241101201ADDAA199000091GA1001+999999999GF100991001001999999001001KA1999M+02151MD1710061+9999REMSYN064AAXX  24181 23933 32997 02601 10160 20124 40120 57006 333 10215;EQDQ01  00002PRCP99
0131239330999992000072421004+60960+069060FM-12+0040USHH V0202601N001012200019N0100001N1+01391+01221101201ADDGF102991999001999999031001MD1410001+9999REMSYN060AAXX  24211 23933 42997 22601 10139 20122 40120 54000 80030;EQDQ01+000002SCOTLC
0143239330999992000072500004+60960+069060FM-12+0040USHH V0202601N001012200019N0100001N1+01331+01241101061ADDGA1001+999999999GF100991001001999999001001MA1999999100501MD1710141+9999REMSYN060AAXX  25001 23933 42997 02601 10133 20124 30050 40106 57014;
0162239330999992000072503004+60960+069060FM-12+0040USHH V0202801N002012200019N0100001N1+01781+01431101121ADDAA199000091GA1001+999999999GF100991001001999999001001MD1310061+9999REMSYN064AAXX  25031 23933 32997 02802 10178 20143 40112 53006 333 55161;EQDQ01  00002PRCP99
0165239330999992000072506004+60960+069060FM-12+0040USHH V0202701N001012200019N0100001N1+02171+01091100881ADDAA199000091GF103991011011008001001011KA1999N+01281MD1810021+9999REMSYN070AAXX  25061 23933 32597 32701 10217 20109 40088 58002 81101 333 20128;EQDQ01  00002PRCP99
0112239330999992000072509004+60960+069060FM-12+0040USHH V0203101N002012200019N0100001N1+02321+01901100811ADDGF105991031011008001001011MD1710061+9999REMSYN060AAXX  25091 23933 42597 53102 10232 20190 40081 57006 83101;
0133239330999992000072512004+60960+069060FM-12+0040USHH V0202801N002010075019N0100001N1+02241+00881100761ADDGF107991051011008001001011MA1999999100221MD1710061+9999REMSYN066AAXX  25121 23933 42597 72802 10224 20088 30022 40076 57006 85101;
0165239330999992000072515004+60960+069060FM-12+0040USHH V0202001N002019999999N0100001N1+02111+01231100811ADDAA199000091GF106991061001999999031001KA1999M+02461MD1310051+9999REMSYN070AAXX  25151 23933 32997 62002 10211 20123 40081 53005 86030 333 10246;EQDQ01  00002PRCP99
0165239330999992000072518004+60960+069060FM-12+0040USHH V0203301N002019999999N0100001N1+01881+00891100761ADDAA199000091GF106991061001999999031001KA1999M+02461MD1810061+9999REMSYN070AAXX  25181 23933 32997 63302 10188 20089 40076 58006 86030 333 10246;EQDQ01  00002PRCP99
0112239330999992000072521004+60960+069060FM-12+0040USHH V0202201N002019999999N0100001N1+01931+01111100721ADDGF106991061001999999031001MD1710031+9999REMSYN060AAXX  25211 23933 42997 62202 10193 20111 40072 57003 86030;
0133239330999992000072600004+60960+069060FM-12+0040USHH V0202501N003019999999N0100001N1+01811+01271100551ADDGF105991051001999999031001MA1999999100001MD1710181+9999REMSYN066AAXX  26001 23933 42997 52503 10181 20127 30000 40055 57018 85030;
0150239330999992000072603004+60960+069060FM-12+0040USHH V0202401N003010042019N0100001N1+01761+01631100571ADDAY181031AY221031GF107991071031004501001001MD1310021+9999MW1251REMSYN076AAXX  26031 23933 /1497 72403 10176 20163 40057 53002 72582 87300 333 55114;
0180239330999992000072606004+60960+069060FM-12+0040USHH V0202901N003010042019N0100001N1+01831+01691100651ADDAA100001091AY181061AY221061GF108991081031004501999999KA1999N+01681MD1210081+9999MW1101REMSYN082AAXX  26061 23933 11497 82903 10183 20169 40065 52008 60010 71082 883// 333 20168;
0140239330999992000072609004+60960+069060FM-12+0040USHH V0203301N002010042019N0100001N1+01551+01481100891ADDAY121031AY221031GF108991081031004501999999MD1210241+9999MW1101REMSYN066AAXX  26091 23933 41497 83302 10155 20148 40089 52024 71022 883//;
0103239330999992000072612004+60960+069060FM-12+0040USHH V0200201N002019999999N0100001N1+01651+99999999999ADDGF107991999999004501999999REMSYN065AAXX  26121 23933 42497 70202 10165 2013 30044 40100 52010 87300;
0146239330999992000072615004+60960+069060FM-12+0040USHH V0202601N002019999999N0100001N1+01621+01201101061ADDAA199000021GF105991021001999999031011KA1999M+01961MD1210061+9999REMSYN070AAXX  26151 23933 32997 52602 10162 20120 40106 52006 82031 333 10196;
0152239330999992000072618004+60960+069060FM-12+0040USHH V0202501N003019999999N0100001N1+01271+01121101241ADDAA100000791GF106991061001999999031001KA1999M+01961MD1210181+9999REMSYN076AAXX  26181 23933 32997 62503 10127 20112 40124 52018 69900 86030 333 10196;
0112239330999992000072621004+60960+069060FM-12+0040USHH V0202501N002019999999N0100001N1+00941+00841101221ADDGF105991051001999999031001MD1810031+9999REMSYN060AAXX  26211 23933 42997 52502 10094 20084 40122 58003 85030;
0133239330999992000072700004+60960+069060FM-12+0040USHH V0200801N002019999999N0100001N1+00971+00861101211ADDGF106991061001999999031001MA1999999100651MD1410001+9999REMSYN066AAXX  27001 23933 42997 60802 10097 20086 30065 40121 54000 86030;
0152239330999992000072703004+60960+069060FM-12+0040USHH V0200701N002019999999N0100001N1+01101+00771101281ADDAA199000091GF106991061001999999031001MD1210061+9999REMSYN070AAXX  27031 23933 32997 60702 10110 20077 40128 52006 86030 333 55033;EQDQ01  00002PRCP99
0180239330999992000072706004+60960+069060FM-12+0040USHH V0200801N002010075019N0100001N1+01201+00881101331ADDAA100000791AY121061AY211061GF108991081001008001021999KA1999N+00931MD1210061+9999MW1621REMSYN082AAXX  27061 23933 11597 80802 10120 20088 40133 52006 69900 76221 8802/ 333 20093;
0140239330999992000072709004+60960+069060FM-12+0040USHH V0200701N002010075019N0100001N1+01131+00951101281ADDAY181031AY221031GF108991081031008001999999MD1810051+9999MW1801REMSYN066AAXX  27091 23933 41597 80702 10113 20095 40128 58005 78082 883//;
0161239330999992000072712004+60960+069060FM-12+0040USHH V0200601N002010075019N0100001N1+01111+00901101451ADDAY181061AY221061GF108991081031008001999999MA1999999100891MD1310171+9999MW1251REMSYN072AAXX  27121 23933 41597 80602 10111 20090 30089 40145 53017 72582 883//;
0163239330999992000072715004+60960+069060FM-12+0040USHH V0200801N002010075019N0100001N1+01091+00931101471ADDAY181031AY221031GF108991081031008001999999KA1999M+01291MD1210021+9999MW1601REMSYN076AAXX  27151 23933 /1597 80802 10109 20093 40147 52002 76082 883// 333 10129;
0199239330999992000072718004+60960+069060FM-12+0040USHH V0200801N002010075019N0100001N1+01091+00901101461ADDAA118002091AY181061AY221061GF108991999051008001031999KA1999M+01291MD1810011+9999MW1021REMSYN082AAXX  27181 23933 11597 80802 10109 20090 40146 58001 60023 70282 8853/ 333 10129;EQDQ01+000082SCOTLC
0131239330999992000072721004+60960+069060FM-12+0040USHH V0200701N002010075019N0100001N1+00991+00901101491ADDGF108991999051008001031999MD1310031+9999REMSYN060AAXX  27211 23933 42597 80702 10099 20090 40149 53003 8853/;EQDQ01+000082SCOTLC
0152239330999992000072800004+60960+069060FM-12+0040USHH V0203301N001010075019N0100001N1+01041+00741101651ADDGF108991999051008001031999MA1999999101091MD1210161+9999REMSYN066AAXX  28001 23933 42597 83301 10104 20074 30109 40165 52016 8853/;EQDQ01+000082SCOTLC
0133239330999992000072803004+60960+069060FM-12+0040USHH V0200801N002012200019N0100001N1+01371+01031101751ADDAA199000021GF103991021011008001001011MD1210101+9999REMSYN070AAXX  28031 23933 32597 30802 10137 20103 40175 52010 82101 333 55002;
0165239330999992000072806004+60960+069060FM-12+0040USHH V0200901N002012200019N0100001N1+01651+00981101771ADDAA199000091GF103991021011008001001011KA1999N+01011MD1210021+9999REMSYN070AAXX  28061 23933 32597 30902 10165 20098 40177 52002 82101 333 20101;EQDQ01  00002PRCP99
0112239330999992000072809004+60960+069060FM-12+0040USHH V0201401N003010075019N0100001N1+01911+01091101771ADDGF105991051021008001001001MD1410001+9999REMSYN060AAXX  28091 23933 42597 51403 10191 20109 40177 54000 85200;
0133239330999992000072812004+60960+069060FM-12+0040USHH V0201001N003012200019N0100001N1+01981+01061101681ADDGF103991021011008001001011MA1999999101131MD1810081+9999REMSYN066AAXX  28121 23933 42597 31003 10198 20106 30113 40168 58008 82101;
0165239330999992000072815004+60960+069060FM-12+0040USHH V0201001N003019999999N0100001N1+01891+01211101721ADDAA199000091GF105991001001999999001011KA1999M+02201MD1310031+9999REMSYN070AAXX  28151 23933 32997 51003 10189 20121 40172 53003 80001 333 10220;EQDQ01  00002PRCP99
0165239330999992000072818004+60960+069060FM-12+0040USHH V0200901N002012200019N0100001N1+01491+01321101851ADDAA199000091GF102991001001999999001011KA1999M+02201MD1210131+9999REMSYN070AAXX  28181 23933 32997 20902 10149 20132 40185 52013 80001 333 10220;EQDQ01  00002PRCP99
0112239330999992000072821004+60960+069060FM-12+0040USHH V0202701N002012200019N0100001N1+01441+01221101801ADDGF102991001001999999001011MD1810051+9999REMSYN060AAXX  28211 23933 42997 22702 10144 20122 40180 58005 80001;
0133239330999992000072900004+60960+069060FM-12+0040USHH V0200901N002012200019N0100001N1+01131+01071101861ADDGF103991001001999999001011MA1999999101301MD1310061+9999REMSYN066AAXX  29001 23933 42997 30902 10113 20107 30130 40186 53006 80001;
0152239330999992000072903004+60960+069060FM-12+0040USHH V0201101N002019999999N0100001N1+01471+01321101731ADDAA199000091GF106991061001999999031001MD1810131+9999REMSYN070AAXX  29031 23933 32997 61102 10147 20132 40173 58013 86030 333 55135;EQDQ01  00002PRCP99
0165239330999992000072906004+60960+069060FM-12+0040USHH V0201101N002010300019N0100001N1+01701+01461101841ADDAA199000091GF106991011011008001031011KA1999N+01161MD1210111+9999REMSYN070AAXX  29061 23933 32597 61102 10170 20146 40184 52011 81131 333 20116;EQDQ01  00002PRCP99
0112239330999992000072909004+60960+069060FM-12+0040USHH V0201601N004010300019N0100001N1+01891+01421101691ADDGF106991021011008001031011MD1810141+9999REMSYN060AAXX  29091 23933 42597 61604 10189 20142 40169 58014 82131;
0133239330999992000072912004+60960+069060FM-12+0040USHH V0201101N004012200019N0100001N1+01961+01521101601ADDGF103991021001999999031011MA1999999101051MD1710091+9999REMSYN066AAXX  29121 23933 42997 31104 10196 20152 30105 40160 57009 82031;
0165239330999992000072915004+60960+069060FM-12+0040USHH V0201101N004012200019N0100001N1+01951+01601101631ADDAA199000091GF103991031001999999031001KA1999M+02101MD1310031+9999REMSYN070AAXX  29151 23933 32997 31104 10195 20160 40163 53003 83030 333 10210;EQDQ01  00002PRCP99
0165239330999992000072918004+60960+069060FM-12+0040USHH V0200901N003012200019N0100001N1+01771+01701101591ADDAA199000091GF103991031051008001001001KA1999M+02101MD1810051+9999REMSYN070AAXX  29181 23933 32597 30903 10177 20170 40159 58005 83500 333 10210;EQDQ01  00002PRCP99
0112239330999992000072921004+60960+069060FM-12+0040USHH V0201001N004012200019N0100001N1+01481+01431101481ADDGF101991001001999999001011MD1710111+9999REMSYN060AAXX  29211 23933 42997 11004 10148 20143 40148 57011 80001;
0133239330999992000073000004+60960+069060FM-12+0040USHH V0201001N003012200019N0100001N1+01531+01511101621ADDGF103991031051008001001001MA1999999101061MD1310141+9999REMSYN066AAXX  30001 23933 42597 31003 10153 20151 30106 40162 53014 83500;
0152239330999992000073003004+60960+069060FM-12+0040USHH V0201101N002012200019N0100001N1+01831+01541101471ADDAA199000091GF102991001001999999001011MD1810151+9999REMSYN070AAXX  30031 23933 32997 21102 10183 20154 40147 58015 80001 333 55039;EQDQ01  00002PRCP99
0165239330999992000073006004+60960+069060FM-12+0040USHH V0201101N003010042019N0100001N1+02281+01691101461ADDAA199000091GF106991061051004501001001KA1999N+01441MD1410001+9999REMSYN070AAXX  30061 23933 32497 61103 10228 20169 40146 54000 86500 333 20144;EQDQ01  00002PRCP99
0131239330999992000073009004+60960+069060FM-12+0040USHH V0201001N004019999999N0100001N1+02391+01811101361ADDGF105991999021008001001001MD1710091+9999REMSYN060AAXX  30091 23933 42597 51004 10239 20181 40136 57009 83200;EQDQ01+000032SCOTLC
0133239330999992000073012004+60960+069060FM-12+0040USHH V0201101N004012200019N0100001N1+02481+01651101321ADDGF103991021021008001001011MA1999999100781MD1710041+9999REMSYN066AAXX  30121 23933 42597 31104 10248 20165 30078 40132 57004 82201;
0175239330999992000073015004+60960+069060FM-12+0040USHH V0209999C000012200019N0100001N1+02471+02041101271ADDAA199000091GA1001+999999999GF100991001001999999001001KA1999M+02701MD1710051+9999REMSYN064AAXX  30151 23933 32997 00000 10247 20204 40127 57005 333 10270;EQDQ01  00002PRCP99
0175239330999992000073018004+60960+069060FM-12+0040USHH V0209999C000012200019N0100001N1+02111+01861101301ADDAA199000091GA1001+999999999GF100991001001999999001001KA1999M+02701MD1310021+9999REMSYN064AAXX  30181 23933 32997 00000 10211 20186 40130 53002 333 10270;EQDQ01  00002PRCP99
0122239330999992000073021004+60960+069060FM-12+0040USHH V0209999C000012200019N0100001N1+01951+01871101251ADDGA1001+999999999GF100991001001999999001001MD1710051+9999REMSYN054AAXX  30211 23933 42997 00000 10195 20187 40125 57005;
0133239330999992000073100004+60960+069060FM-12+0040USHH V0209999C000012200019N0100001N1+01791+01711101261ADDGF101991011001999999031001MA1999999100701MD1410001+9999REMSYN066AAXX  31001 23933 42997 10000 10179 20171 30070 40126 54000 81030;
0152239330999992000073103004+60960+069060FM-12+0040USHH V0209999C000010075019N0100001N1+02021+01861101261ADDAA199000091GF106991061021008001031001MD1210011+9999REMSYN070AAXX  31031 23933 32597 60000 10202 20186 40126 52001 86230 333 55150;EQDQ01  00002PRCP99
0165239330999992000073106004+60960+069060FM-12+0040USHH V0209999C000010075019N0100001N1+02521+02051101191ADDAA199000091GF105991051011008001001001KA1999N+01791MD1810061+9999REMSYN070AAXX  31061 23933 32597 50000 10252 20205 40119 58006 85100 333 20179;EQDQ01  00002PRCP99
0112239330999992000073109004+60960+069060FM-12+0040USHH V0201401N003010075019N0100001N1+02681+02151101261ADDGF105991051091008001001001MD1310071+9999REMSYN060AAXX  31091 23933 42597 51403 10268 20215 40126 53007 85900;
0133239330999992000073112004+60960+069060FM-12+0040USHH V0201201N005012200019N0100001N1+02611+01691101101ADDGF102991021011008001001001MA1999999100561MD1810161+9999REMSYN066AAXX  31121 23933 42597 21205 10261 20169 30056 40110 58016 82100;
0165239330999992000073115004+60960+069060FM-12+0040USHH V0201101N003010075019N0100001N1+02521+01831101071ADDAA199000091GF106991061051008001001001KA1999M+03051MD1710031+9999REMSYN070AAXX  31151 23933 32597 61103 10252 20183 40107 57003 86500 333 10305;EQDQ01  00002PRCP99
0165239330999992000073118004+60960+069060FM-12+0040USHH V0201301N002010075019N0100001N1+02281+01801101001ADDAA199000091GF107991071031008001001001KA1999M+02751MD1710081+9999REMSYN070AAXX  31181 23933 32597 71302 10228 20180 40100 57008 87300 333 10275;EQDQ01  00002PRCP99
0140239330999992000073121004+60960+069060FM-12+0040USHH V0201501N002010075019N0100001N1+02031+01851100911ADDAY191031AY281031GF107991071091008001001001MD1710091+9999MW1291REMSYN066AAXX  31211 23933 41597 71502 10203 20185 40091 57009 72998 87900;
0187239330999992000080100004+60960+069060FM-12+0040USHH V0209999C000010048019N0044001N1+01991+01921100611ADDAY141061AY221061GA1081+004809069GF108991081061004501999999MA1999999099771MD1710081+9999MW1951REMSYN082AAXX  01001 23933 41444 80000 10199 20192 39977 40061 57008 79542 886// 333 88716;
0150239330999992000080103004+60960+069060FM-12+0040USHH V0201201N002010075019N0040001N1+01841+01811100851ADDAY191031AY281031GF108991081091008001999999MD1810091+9999MW1801REMSYN076AAXX  01031 23933 /1596 81202 10184 20181 40085 58009 78098 889// 333 55131;
0180239330999992000080106004+60960+069060FM-12+0040USHH V0202701N001010075019N0100001N1+01971+01941100761ADDAA100026991AY191061AY281061GF107991071031008001999999KA1999N+01791MD1710091+9999MW1251REMSYN082AAXX  01061 23933 31597 72701 10197 20194 40076 57009 60270 72598 873// 333 20179;
0133239330999992000080112004+60960+069060FM-12+0040USHH V0200501N001010300019N0100001N1+02491+01921100541ADDGF106991031031008001031011MA1999999100011MD1710101+9999REMSYN066AAXX  01121 23933 42597 60501 10249 20192 30001 40054 57010 83331;
0176239330999992000080115004+60960+069060FM-12+0040USHH V0201501N001019999999N0100001N1+02201+02041100631ADDAY131031AY211031GF106991999999008001999999KA1999M+02511MD1310071+9999MW1231REMSYN070AAXX  01151 23933 /2597 61501 10220 20204 40063 53007 72331 333 10251;EQDQ01+000002PRSWM1
0180239330999992000080118004+60960+069060FM-12+0040USHH V0209999C000012200019N0100001N1+01911+01901100631ADDAA100000591AY121061AY221061GF104991021001999999031031KA1999M+02511MD1410001+9999MW1021REMSYN082AAXX  01181 23933 11997 40000 10191 20190 40063 54000 69940 70222 82033 333 10251;
0140239330999992000080121004+60960+069060FM-12+0040USHH V0209999C000019999999N0005001N1+01801+01791100641ADDAY141031AY211031GF105991001001999999031011MD1310011+9999MW1281REMSYN066AAXX  01211 23933 41993 50000 10180 20179 40064 53001 72841 80031;
0161239330999992000080200004+60960+069060FM-12+0040USHH V0209999C000012200019N0100001N1+01711+01711100591ADDAY141061AY211061GF104991001001999999031011MA1999999100041MD1810051+9999MW1101REMSYN072AAXX  02001 23933 41997 40000 10171 20171 30004 40059 58005 71041 80031;
0133239330999992000080203004+60960+069060FM-12+0040USHH V0209999C000012200019N0100001N1+02011+01901100621ADDAA199000021GF103991001001999999001011MD1310041+9999REMSYN070AAXX  02031 23933 32997 30000 10201 20190 40062 53004 80001 333 55054;
0165239330999992000080206004+60960+069060FM-12+0040USHH V0200201N002012200019N0100001N1+02301+01871100591ADDAA199000091GF103991021011008001001011KA1999N+01701MD1810041+9999REMSYN070AAXX  02061 23933 32597 30202 10230 20187 40059 58004 82101 333 20170;EQDQ01  00002PRCP99
0112239330999992000080209004+60960+069060FM-12+0040USHH V0201201N001010075019N0100001N1+02481+01731100581ADDGF106991051021008001001011MD1410001+9999REMSYN060AAXX  02091 23933 42597 61201 10248 20173 40058 54000 85201;
0133239330999992000080212004+60960+069060FM-12+0040USHH V0203001N002012200019N0100001N1+02661+01601100561ADDGF103991021091008001001011MA1999999100031MD1810021+9999REMSYN066AAXX  02121 23933 42597 33002 10266 20160 30003 40056 58002 82901;
0165239330999992000080215004+60960+069060FM-12+0040USHH V0203001N002012200019N0100001N1+02301+01871100741ADDAA199000091GF103991021021008001001011KA1999M+02731MD1310171+9999REMSYN070AAXX  02151 23933 32597 33002 10230 20187 40074 53017 82201 333 10273;EQDQ01  00002PRCP99
0165239330999992000080218004+60960+069060FM-12+0040USHH V0202801N002012200019N0100001N1+01931+01541100761ADDAA199000091GF102991021001999999031001KA1999M+02731MD1210021+9999REMSYN070AAXX  02181 23933 32997 22802 10193 20154 40076 52002 82030 333 10273;EQDQ01  00002PRCP99
0112239330999992000080221004+60960+069060FM-12+0040USHH V0202701N002012200019N0100001N1+01631+01401100591ADDGF102991021001999999031011MD1810181+9999REMSYN060AAXX  02211 23933 42997 22702 10163 20140 40059 58018 82031;
0133239330999992000080300004+60960+069060FM-12+0040USHH V0202801N003012200019N0100001N1+01551+01511100641ADDGF102991021001999999041011MA1999999100091MD1310051+9999REMSYN066AAXX  03001 23933 42997 22803 10155 20151 30009 40064 53005 82041;
0152239330999992000080303004+60960+069060FM-12+0040USHH V0202601N005012200019N0100001N1+01671+01591100641ADDAA199000091GF103991001001999999031011MD1710011+9999REMSYN070AAXX  03031 23933 32997 32605 10167 20159 40064 57001 80031 333 55139;EQDQ01  00002PRCP99
0165239330999992000080306004+60960+069060FM-12+0040USHH V0202801N003012200019N0100001N1+01931+01691100631ADDAA199000091GF106991041021008001001011KA1999N+01511MD1410001+9999REMSYN070AAXX  03061 23933 32597 62803 10193 20169 40063 54000 84201 333 20151;EQDQ01  00002PRCP99
0112239330999992000080309004+60960+069060FM-12+0040USHH V0203001N002019999999N0100001N1+01991+01731100631ADDGF107991071001008001031001MD1410001+9999REMSYN060AAXX  03091 23933 42597 73002 10199 20173 40063 54000 87030;
0133239330999992000080312004+60960+069060FM-12+0040USHH V0202401N002010075019N0100001N1+02011+01561100751ADDGF106991061031008001001011MA1999999100211MD1310131+9999REMSYN066AAXX  03121 23933 42597 62402 10201 20156 30021 40075 53013 86301;
0165239330999992000080315004+60960+069060FM-12+0040USHH V0202101N002010075019N0100001N1+01871+01261100661ADDAA199000091GF106991061051008001001011KA1999M+02151MD1810101+9999REMSYN070AAXX  03151 23933 32597 62102 10187 20126 40066 58010 86501 333 10215;EQDQ01  00002PRCP99
0165239330999992000080318004+60960+069060FM-12+0040USHH V0201001N001010075019N0100001N1+01651+01231100611ADDAA199000091GF106991061051008001001011KA1999M+02151MD1710051+9999REMSYN070AAXX  03181 23933 32597 61001 10165 20123 40061 57005 86501 333 10215;EQDQ01  00002PRCP99
0112239330999992000080321004+60960+069060FM-12+0040USHH V0201501N001010075019N0100001N1+01621+01241100581ADDGF106991061051008001001011MD1710021+9999REMSYN060AAXX  03211 23933 42597 61501 10162 20124 40058 57002 86501;
0133239330999992000080400004+60960+069060FM-12+0040USHH V0201401N003010075019N0100001N1+01581+01251100251ADDGF106991051051008001001011MA1999999099701MD1710341+9999REMSYN066AAXX  04001 23933 42597 61403 10158 20125 39970 40025 57034 85501;
0150239330999992000080403004+60960+069060FM-12+0040USHH V0201301N003010300019N0100001N1+01521+01371100211ADDAY151031AY221031GF108991041071008001021999MD1710041+9999MW1111REMSYN076AAXX  04031 23933 /1597 81303 10152 20137 40021 57004 71152 8472/ 333 55086;
0180239330999992000080406004+60960+069060FM-12+0040USHH V0201401N002010075019N0040001N1+01531+01511099761ADDAA100000891AY181061AY261061GF108991081091008001999999KA1999N+01461MD1710441+9999MW1801REMSYN082AAXX  04061 23933 11596 81402 10153 20151 49976 57044 69970 78086 889// 333 20146;
0140239330999992000080409004+60960+069060FM-12+0040USHH V0201201N002010042019N0040001N1+01741+01621099361ADDAY181031AY251031GF108991081071004501999999MD1710401+9999MW1581REMSYN066AAXX  04091 23933 41496 81202 10174 20162 49936 57040 75885 887//;
0161239330999992000080412004+60960+069060FM-12+0040USHH V0202701N003010042019N0040001N1+01551+01531099291ADDAY181061AY251061GF108991081011004501999999MA1999999098751MD1710071+9999MW1801REMSYN072AAXX  04121 23933 41496 82703 10155 20153 39875 49929 57007 78085 881//;
0163239330999992000080415004+60960+069060FM-12+0040USHH V0202601N008010075019N0100001N1+01491+01441099751ADDAY181031AY221031GF108991081051008001999999KA1999M+01991MD1310461+9999MW1021REMSYN076AAXX  04151 23933 /1597 82608 10149 20144 49975 53046 70282 885// 333 10199;
0186239330999992000080418004+60960+069060FM-12+0040USHH V0202701N005010075019N0100001N1+01611+01421099931ADDAA100033091AY181061AY221061GF107991071051008001001001KA1120M+01991MD1210181+9999MW1021REMSYN088AAXX  04181 23933 11597 72705 10161 20142 49993 52018 60330 70282 87500 333 10199 91112;
0112239330999992000080421004+60960+069060FM-12+0040USHH V0202501N004010075019N0100001N1+01501+01351100061ADDGF108991081051008001999999MD1210121+9999REMSYN060AAXX  04211 23933 42597 82504 10150 20135 40006 52012 885//;
0133239330999992000080500004+60960+069060FM-12+0040USHH V0202601N002010075019N0100001N1+01471+01341100211ADDGF106991061051008001001011MA1999999099661MD1210151+9999REMSYN066AAXX  05001 23933 42597 62602 10147 20134 39966 40021 52015 86501;
0152239330999992000080503004+60960+069060FM-12+0040USHH V0202501N003010300019N0100001N1+01461+01351100081ADDAA199000091GF106991011011008001031011MD1810131+9999REMSYN070AAXX  05031 23933 32597 62503 10146 20135 40008 58013 81131 333 55000;EQDQ01  00002PRCP99
0165239330999992000080506004+60960+069060FM-12+0040USHH V0202601N002012200019N0100001N1+01891+01301100061ADDAA199000091GF105991031021008001001011KA1999N+01431MD1710011+9999REMSYN070AAXX  05061 23933 32597 52602 10189 20130 40006 57001 83201 333 20143;EQDQ01  00002PRCP99
0112239330999992000080509004+60960+069060FM-12+0040USHH V0201201N001012200019N0100001N1+02001+01201099971ADDGF105991031021008001001011MD1710101+9999REMSYN060AAXX  05091 23933 42597 51201 10200 20120 49997 57010 83201;
0133239330999992000080512004+60960+069060FM-12+0040USHH V0200801N002010300019N0100001N1+01981+01311099881ADDGF107991031051008001031001MA1999999099351MD1710071+9999REMSYN066AAXX  05121 23933 42597 70802 10198 20131 39935 49988 57007 83530;
0163239330999992000080515004+60960+069060FM-12+0040USHH V0202201N002010042019N0040001N1+01691+01571099691ADDAY181031AY261031GF108991081031004501999999KA1999M+02131MD1710201+9999MW1801REMSYN076AAXX  05151 23933 /1496 82202 10169 20157 49969 57020 78086 883// 333 10213;
0180239330999992000080518004+60960+069060FM-12+0040USHH V0200501N003010042019N0020001N1+01601+01601099321ADDAA100005191AY181061AY261061GF108991081031004501999999KA1999M+02131MD1710371+9999MW1811REMSYN082AAXX  05181 23933 11495 80503 10160 20160 49932 57037 60050 78186 883// 333 10213;
0140239330999992000080521004+60960+069060FM-12+0040USHH V0200901N005010042019N0020001N1+01611+01611098961ADDAY181031AY221031GF108991081031004501999999MD1710371+9999MW1021REMSYN066AAXX  05211 23933 41495 80905 10161 20161 49896 57037 70282 883//;
0161239330999992000080600004+60960+069060FM-12+0040USHH V0200501N003010042019N0040001N1+01501+01501098791ADDAY181061AY221061GF108991081031004501999999MA1999999098251MD1710161+9999MW1021REMSYN072AAXX  06001 23933 41496 80503 10150 20150 39825 49879 57016 70282 883//;
0150239330999992000080603004+60960+069060FM-12+0040USHH V0200301N003010042019N0100001N1+01641+01641098691ADDAY161031AY221031GF108991051071004501021999MD1710101+9999MW1611REMSYN076AAXX  06031 23933 /1497 80303 10164 20164 49869 57010 76162 8572/ 333 55072;
0180239330999992000080606004+60960+069060FM-12+0040USHH V0203301N002010042019N0100001N1+01791+01691098711ADDAA100025991AY161061AY221061GF107991071051004501001001KA1999N+01491MD1310021+9999MW1211REMSYN082AAXX  06061 23933 11497 73302 10179 20169 49871 53002 60260 72162 87500 333 20149;
0140239330999992000080609004+60960+069060FM-12+0040USHH V0202601N004010042019N0020001N1+01511+01501098941ADDAY191031AY281031GF108991081031004501999999MD1210231+9999MW1951REMSYN066AAXX  06091 23933 41495 82604 10151 20150 49894 52023 79598 883//;
0161239330999992000080612004+60960+069060FM-12+0040USHH V0202801N005010042019N0020001N1+01311+01241099211ADDAY191061AY281061GF108991081031004501999999MA1999999098661MD1210261+9999MW1911REMSYN072AAXX  06121 23933 41495 82805 10131 20124 39866 49921 52026 79198 883//;
0163239330999992000080615004+60960+069060FM-12+0040USHH V0202801N005010042019N0100001N1+01191+01091099551ADDAY151031AY221031GF108991081051004501999999KA1999M+01831MD1210341+9999MW1501REMSYN076AAXX  06151 23933 /1497 82805 10119 20109 49955 52034 75052 885// 333 10183;
0180239330999992000080618004+60960+069060FM-12+0040USHH V0202801N004010042019N0100001N1+01111+01061099411ADDAA100033091AY151061AY221061GF108991081051004501999999KA1999M+01831MD1810141+9999MW1501REMSYN082AAXX  06181 23933 11497 82804 10111 20106 49941 58014 60330 75052 885// 333 10183;
0159239330999992000080621004+60960+069060FM-12+0040USHH V0202801N003010042019N0100001N1+99999+99999099461ADDAY151031AY221031GF108991081051004501999999MD1310051+9999MW1501REMSYN066AAXX  06211 23933 41497 82803 11107 20103 49946 53005 75052 885//;EQDQ01-001073ATOT  
0161239330999992000080700004+60960+069060FM-12+0040USHH V0202801N003010042019N0100001N1+01091+01051099511ADDAY151061AY221061GF108991081051004501999999MA1999999098961MD1210051+9999MW1501REMSYN072AAXX  07001 23933 41497 82803 10109 20105 39896 49951 52005 75052 885//;
0150239330999992000080703004+60960+069060FM-12+0040USHH V0202901N005010006019N0100001N1+01131+01091099601ADDAY151031AY221031GF108991081051000751999999MD1210091+9999MW1021REMSYN076AAXX  07031 23933 /1197 82905 10113 20109 49960 52009 70252 885// 333 55000;
0180239330999992000080706004+60960+069060FM-12+0040USHH V0202801N004010075019N0100001N1+01391+01061099771ADDAA100000791AY151061AY221061GF107991071031008001001001KA1999N+01091MD1210171+9999MW1021REMSYN082AAXX  07061 23933 11597 72804 10139 20106 49977 52017 69900 70252 87300 333 20109;
0112239330999992000080709004+60960+069060FM-12+0040USHH V0202501N005010075019N0100001N1+01771+00981099891ADDGF108991061021008001001011MD1210131+9999REMSYN060AAXX  07091 23933 42597 82505 10177 20098 49989 52013 86201;
0133239330999992000080712004+60960+069060FM-12+0040USHH V0202801N005010075019N0100001N1+01791+00801100061ADDGF106991061021008001001001MA1999999099511MD1210161+9999REMSYN066AAXX  07121 23933 42597 62805 10179 20080 39951 40006 52016 86200;
0165239330999992000080715004+60960+069060FM-12+0040USHH V0202501N002012200019N0100001N1+01611+00861100061ADDAA199000091GF103991021001999999031011KA1999M+01901MD1410001+9999REMSYN070AAXX  07151 23933 32997 32502 10161 20086 40006 54000 82031 333 10190;EQDQ01  00002PRCP99
0165239330999992000080718004+60960+069060FM-12+0040USHH V0202301N002012200019N0100001N1+01371+00821100131ADDAA199000091GF102991021001999999031001KA1999M+01901MD1310061+9999REMSYN070AAXX  07181 23933 32997 22302 10137 20082 40013 53006 82030 333 10190;EQDQ01  00002PRCP99
0112239330999992000080721004+60960+069060FM-12+0040USHH V0202601N002012200019N0100001N1+01151+00821100151ADDGF102991021001999999031001MD1210021+9999REMSYN060AAXX  07211 23933 42997 22602 10115 20082 40015 52002 82030;
0133239330999992000080800004+60960+069060FM-12+0040USHH V0202301N002012200019N0100001N1+01091+00861100231ADDGF103991001001999999001011MA1999999099671MD1210081+9999REMSYN066AAXX  08001 23933 42997 32302 10109 20086 39967 40023 52008 80001;
0152239330999992000080803004+60960+069060FM-12+0040USHH V0202201N002019999999N0100001N1+01301+01091100331ADDAA199000091GF107991071001999999031001MD1210101+9999REMSYN070AAXX  08031 23933 32997 72202 10130 20109 40033 52010 87030 333 55084;EQDQ01  00002PRCP99
0165239330999992000080806004+60960+069060FM-12+0040USHH V0202201N002010042019N0100001N1+01611+01421100371ADDAA199000091GF107991071031004501001001KA1999N+01091MD1210051+9999REMSYN070AAXX  08061 23933 32497 72202 10161 20142 40037 52005 87300 333 20109;EQDQ01  00002PRCP99
0112239330999992000080809004+60960+069060FM-12+0040USHH V0203001N002010042019N0100001N1+01711+00931100551ADDGF107991071031004501001001MD1210181+9999REMSYN060AAXX  08091 23933 42497 73002 10171 20093 40055 52018 87300;
0133239330999992000080812004+60960+069060FM-12+0040USHH V0209999C000010300019N0100001N1+01821+00901100511ADDGF107991031031004501031011MA1999999099961MD1810041+9999REMSYN066AAXX  08121 23933 42497 70000 10182 20090 39996 40051 58004 83331;
0165239330999992000080815004+60960+069060FM-12+0040USHH V0209999C000010750019N0100001N1+01831+00971100571ADDAA199000091GF105991021021008001031011KA1999M+01841MD1210061+9999REMSYN070AAXX  08151 23933 32597 50000 10183 20097 40057 52006 82231 333 10184;EQDQ01  00002PRCP99
0165239330999992000080818004+60960+069060FM-12+0040USHH V0209999C000012200019N0100001N1+01331+01311100731ADDAA199000091GF103991021051008001001011KA1999M+01851MD1210161+9999REMSYN070AAXX  08181 23933 32597 30000 10133 20131 40073 52016 82501 333 10185;EQDQ01  00002PRCP99
0112239330999992000080821004+60960+069060FM-12+0040USHH V0209999C000012200019N0100001N1+01231+01231100771ADDGF105991021051008001001011MD1210031+9999REMSYN060AAXX  08211 23933 42597 50000 10123 20123 40077 52003 82501;
0133239330999992000080900004+60960+069060FM-12+0040USHH V0209999C000010075019N0100001N1+01211+01211100861ADDGF106991061031008001001001MA1999999100301MD1210091+9999REMSYN066AAXX  09001 23933 42597 60000 10121 20121 30030 40086 52009 86300;
0152239330999992000080903004+60960+069060FM-12+0040USHH V0203201N002010075019N0100001N1+01451+01411100801ADDAA199000091GF108991061031008001001021MD1810051+9999REMSYN070AAXX  09031 23933 32597 83202 10145 20141 40080 58005 86302 333 55047;EQDQ01  00002PRCP99
0165239330999992000080906004+60960+069060FM-12+0040USHH V0201301N001010075019N0100001N1+01621+01531100961ADDAA199000091GF108991081031008001999999KA1999N+01011MD1310151+9999REMSYN070AAXX  09061 23933 32597 81301 10162 20153 40096 53015 883// 333 20101;EQDQ01  00002PRCP99
0112239330999992000080909004+60960+069060FM-12+0040USHH V0203101N002010300019N0100001N1+01791+01731100911ADDGF106991041021004501031001MD1810041+9999REMSYN060AAXX  09091 23933 42497 63102 10179 20173 40091 58004 84230;
0161239330999992000080912004+60960+069060FM-12+0040USHH V0202401N002010075019N0100001N1+01621+01591100991ADDAY191061AY281061GF106991061091008001001001MA1999999100431MD1310071+9999MW1291REMSYN072AAXX  09121 23933 41597 62402 10162 20159 30043 40099 53007 72998 86900;
0135239330999992000080915004+60960+069060FM-12+0040USHH V0200101N002010042019N0100001N1+01631+01261101071ADDGF106991061051004501001001KA1999M+02091MD1210081+9999REMSYN070AAXX  09151 23933 /2497 60102 10163 20126 40107 52008 86500 333 10209;
0165239330999992000080918004+60960+069060FM-12+0040USHH V0209999C000010042019N0100001N1+01391+01281101251ADDAA199000091GF106991061051004501001001KA1999M+02091MD1210181+9999REMSYN070AAXX  09181 23933 32497 60000 10139 20128 40125 52018 86500 333 10209;EQDQ01  00002PRCP99
0133239330999992000081000004+60960+069060FM-12+0040USHH V0209999C000010042019N0100001N1+01431+01391101361ADDGF106991061051004501001001MA1999999100801MD1310161+9999REMSYN066AAXX  10001 23933 42497 60000 10143 20139 30080 40136 53016 86500;
0162239330999992000081003004+60960+069060FM-12+0040USHH V0209999C000012200019N0100001N1+01671+01591101241ADDAA199000091GA1001+999999999GF100991001001999999001001MD1810121+9999REMSYN064AAXX  10031 23933 32997 00000 10167 20159 40124 58012 333 55040;EQDQ01  00002PRCP99
0165239330999992000081006004+60960+069060FM-12+0040USHH V0209999C000012200019N0100001N1+01931+01501101271ADDAA199000091GF103991021011008001001011KA1999N+01391MD1310041+9999REMSYN070AAXX  10061 23933 32597 30000 10193 20150 40127 53004 82101 333 20139;EQDQ01  00002PRCP99
0112239330999992000081009004+60960+069060FM-12+0040USHH V0202801N002010075019N0100001N1+02061+01421101261ADDGF105991051031008001001001MD1810011+9999REMSYN060AAXX  10091 23933 42597 52802 10206 20142 40126 58001 85300;
0133239330999992000081012004+60960+069060FM-12+0040USHH V0202801N002010075019N0100001N1+02251+01311101321ADDGF105991051021008001001001MA1999999100771MD1310061+9999REMSYN066AAXX  10121 23933 42597 52802 10225 20131 30077 40132 53006 85200;
0165239330999992000081015004+60960+069060FM-12+0040USHH V0202001N001012200019N0100001N1+02051+01331101321ADDAA199000091GF103991031051008001001001KA1999M+02261MD1410001+9999REMSYN070AAXX  10151 23933 32597 32001 10205 20133 40132 54000 83500 333 10226;EQDQ01  00002PRCP99
0165239330999992000081018004+60960+069060FM-12+0040USHH V0209999C000012200019N0100001N1+01501+01441101341ADDAA199000091GF102991021051008001001001KA1999M+02261MD1310011+9999REMSYN070AAXX  10181 23933 32597 20000 10150 20144 40134 53001 82500 333 10226;EQDQ01  00002PRCP99
0112239330999992000081021004+60960+069060FM-12+0040USHH V0209999C000010075019N0100001N1+01461+01361101161ADDGF105991051051008001001001MD1810181+9999REMSYN060AAXX  10211 23933 42597 50000 10146 20136 40116 58018 85500;
0133239330999992000081100004+60960+069060FM-12+0040USHH V0202001N001012200019N0100001N1+01291+01291101171ADDGF105991041051008001001011MA1999999100611MD1310011+9999REMSYN066AAXX  11001 23933 42597 52001 10129 20129 30061 40117 53001 84501;
0152239330999992000081103004+60960+069060FM-12+0040USHH V0201301N002012200019N0100001N1+01511+01511101111ADDAA199000091GF106991031051008001001011MD1810061+9999REMSYN070AAXX  11031 23933 32597 61302 10151 20151 40111 58006 83501 333 55140;EQDQ01  00002PRCP99
0165239330999992000081106004+60960+069060FM-12+0040USHH V0201501N003010075019N0100001N1+01951+01271101011ADDAA199000091GF108991071031008001031001KA1999N+01261MD1710091+9999REMSYN070AAXX  11061 23933 32597 81503 10195 20127 40101 57009 87330 333 20126;EQDQ01  00002PRCP99
0140239330999992000081109004+60960+069060FM-12+0040USHH V0201201N002010075019N0100001N1+02011+01801100891ADDAY181031AY221031GF108991081091008001999999MD1710111+9999MW1801REMSYN066AAXX  11091 23933 41597 81202 10201 20180 40089 57011 78082 889//;
0135239330999992000081115004+60960+069060FM-12+0040USHH V0201401N003019999999N0100001N1+01911+01781100571ADDGF106991031001999999031011KA1999M+02191MD1710211+9999REMSYN070AAXX  11151 23933 /2997 61403 10191 20178 40057 57021 83031 333 10219;
0180239330999992000081118004+60960+069060FM-12+0040USHH V0201201N002010075019N0100001N1+01871+01811100441ADDAA100000791AY191061AY281061GF107991071031008001001001KA1999M+02191MD1710121+9999MW1951REMSYN082AAXX  11181 23933 11597 71202 10187 20181 40044 57012 69900 79598 87300 333 10219;
0140239330999992000081121004+60960+069060FM-12+0040USHH V0202401N002010075019N0100001N1+01571+01511100531ADDAY191031AY281031GF107991071031008001001001MD1310081+9999MW1291REMSYN066AAXX  11211 23933 41597 72402 10157 20151 40053 53008 72998 87300;
0161239330999992000081200004+60960+069060FM-12+0040USHH V0202501N002010075019N0100001N1+01551+01461100471ADDAY191061AY281061GF107991071031008001001001MA1999999099921MD1810061+9999MW1021REMSYN072AAXX  12001 23933 41597 72502 10155 20146 39992 40047 58006 70298 87300;
0122239330999992000081203004+60960+069060FM-12+0040USHH V0202101N002012200019N0100001N1+01531+01521100551ADDGF103991031011008001001001MD1310081+9999REMSYN070AAXX  12031 23933 /2597 32102 10153 20152 40055 53008 83100 333 55050;
0152239330999992000081206004+60960+069060FM-12+0040USHH V0203001N002012200019N0100001N1+01911+01451100611ADDAA100018091GF102991011011008001001011KA1999N+01531MD1210071+9999REMSYN076AAXX  12061 23933 12597 23002 10191 20145 40061 52007 60180 81101 333 20153;
0112239330999992000081209004+60960+069060FM-12+0040USHH V0202401N002012200019N0100001N1+02101+01251100671ADDGF102991011011008001001011MD1210061+9999REMSYN060AAXX  12091 23933 42597 22402 10210 20125 40067 52006 81101;
0133239330999992000081212004+60960+069060FM-12+0040USHH V0202401N002012200019N0100001N1+02201+01351100821ADDGF102991011011008001001011MA1999999100281MD1210151+9999REMSYN066AAXX  12121 23933 42597 22402 10220 20135 30028 40082 52015 81101;
0165239330999992000081215004+60960+069060FM-12+0040USHH V0202101N002012200019N0100001N1+01971+01111100741ADDAA199000091GF102991021021008001001011KA1999M+02291MD1810081+9999REMSYN070AAXX  12151 23933 32597 22102 10197 20111 40074 58008 82201 333 10229;EQDQ01  00002PRCP99
0165239330999992000081218004+60960+069060FM-12+0040USHH V0202301N003012200019N0100001N1+01811+01201100751ADDAA199000091GF102991021001999999031001KA1999M+02291MD1410001+9999REMSYN070AAXX  12181 23933 32997 22303 10181 20120 40075 54000 82030 333 10229;EQDQ01  00002PRCP99
0122239330999992000081221004+60960+069060FM-12+0040USHH V0202201N003012200019N0100001N1+01591+01161100691ADDGA1001+999999999GF100991001001999999001001MD1810061+9999REMSYN054AAXX  12211 23933 42997 02203 10159 20116 40069 58006;
0133239330999992000081300004+60960+069060FM-12+0040USHH V0201101N002012200019N0100001N1+01171+01171100841ADDGF102991011021008001001011MA1999999100281MD1210141+9999REMSYN066AAXX  13001 23933 42597 21102 10117 20117 30028 40084 52014 81201;
0152239330999992000081303004+60960+069060FM-12+0040USHH V0202401N002010300019N0100001N1+01491+01491100651ADDAA199000091GF105991031011008001031011MD1810181+9999REMSYN070AAXX  13031 23933 32597 52402 10149 20149 40065 58018 83131 333 55134;EQDQ01  00002PRCP99
0165239330999992000081306004+60960+069060FM-12+0040USHH V0202101N002012200019N0100001N1+02051+01451100701ADDAA199000091GF105991031021008001001011KA1999N+01181MD1210061+9999REMSYN070AAXX  13061 23933 32597 52102 10205 20145 40070 52006 83201 333 20118;EQDQ01  00002PRCP99
0140239330999992000081309004+60960+069060FM-12+0040USHH V0200901N002010300019N0100001N1+01931+01611100691ADDAY191031AY281031GF106991031011008001031011MD1810011+9999MW1291REMSYN066AAXX  13091 23933 41597 60902 10193 20161 40069 58001 72998 83131;
0161239330999992000081312004+60960+069060FM-12+0040USHH V0202501N003012200019N0100001N1+02111+01201100551ADDAY191061AY281061GF106991031031008001001011MA1999999100011MD1710141+9999MW1021REMSYN072AAXX  13121 23933 41597 62503 10211 20120 30001 40055 57014 70298 83301;
0163239330999992000081315004+60960+069060FM-12+0040USHH V0202401N003019999999N0100001N1+01601+01241100651ADDAY181031AY221031GF106991031001999999031011KA1999M+02191MD1310091+9999MW1021REMSYN076AAXX  13151 23933 /1997 62403 10160 20124 40065 53009 70282 83031 333 10219;
0180239330999992000081318004+60960+069060FM-12+0040USHH V0202501N003019999999N0100001N1+01331+01171100651ADDAA100000891AY181061AY221061GF105991021001999999031011KA1999M+02191MD1810011+9999MW1021REMSYN082AAXX  13181 23933 11997 52503 10133 20117 40065 58001 69970 70282 82031 333 10219;
0112239330999992000081321004+60960+069060FM-12+0040USHH V0202501N003012200019N0100001N1+01131+01111100571ADDGF103991031011008001001001MD1710081+9999REMSYN060AAXX  13211 23933 42597 32503 10113 20111 40057 57008 83100;
0161239330999992000081400004+60960+069060FM-12+0040USHH V0202601N003012200019N0100001N1+01021+01021100581ADDAY141061AY211061GF104991001001999999031011MA1999999100021MD1310011+9999MW1101REMSYN072AAXX  14001 23933 41997 42603 10102 20102 30002 40058 53001 71041 80031;
0180239330999992000081403004+60960+069060FM-12+0040USHH V0202801N003010042019N0500001N1+01101+01091100561ADDAA199000091AY111031AY211031GF108991081061004501999999MD1810021+9999MW1101REMSYN076AAXX  14031 23933 31499 82803 10110 20109 40056 58002 71011 886// 333 55085;EQDQ01  00002PRCP99
0165239330999992000081406004+60960+069060FM-12+0040USHH V0202701N003010042019N0100001N1+01281+01211100581ADDAA199000091GF107991071051004501001001KA1999N+00991MD1310021+9999REMSYN070AAXX  14061 23933 32497 72703 10128 20121 40058 53002 87500 333 20099;EQDQ01  00002PRCP99
0112239330999992000081409004+60960+069060FM-12+0040USHH V0202701N003010075019N0100001N1+01441+01051100611ADDGF106991061051008001001001MD1210041+9999REMSYN060AAXX  14091 23933 42597 62703 10144 20105 40061 52004 86500;
0133239330999992000081412004+60960+069060FM-12+0040USHH V0202801N004012200019N0100001N1+01541+00881100601ADDGF105991031051008001001011MA1999999100051MD1810011+9999REMSYN066AAXX  14121 23933 42597 52804 10154 20088 30005 40060 58001 83501;
0165239330999992000081415004+60960+069060FM-12+0040USHH V0202601N003012200019N0100001N1+01381+01041100631ADDAA199000091GF103991021051008001001011KA1999M+02161MD1310021+9999REMSYN070AAXX  14151 23933 32597 32603 10138 20104 40063 53002 82501 333 10216;EQDQ01  00002PRCP99
0165239330999992000081418004+60960+069060FM-12+0040USHH V0202801N003012200019N0100001N1+01211+01111100631ADDAA199000091GF105991031051008001001011KA1999M+01631MD1410001+9999REMSYN070AAXX  14181 23933 32597 52803 10121 20111 40063 54000 83501 333 10163;EQDQ01  00002PRCP99
0112239330999992000081421004+60960+069060FM-12+0040USHH V0202601N002010075019N0100001N1+01041+00981100061ADDGF105991051051008001001001MD1810031+9999REMSYN060AAXX  14211 23933 42597 52602 10104 20098 40006 58003 85500;
0152239330999992000081500004+60960+069060FM-12+0040USHH V0202401N002010075019N0100001N1+01111+01021100662ADDGF106991061051008001001001MA1999999100111MD1310071+9999REMSYN066AAXX  15001 23933 42597 62402 10111 20102 30011 40066 53007 86500;EQDQ01+100663APOSLP
0152239330999992000081503004+60960+069060FM-12+0040USHH V0202601N002010300019N0100001N1+01351+01221100671ADDAA199000091GF105991031011008001031011MD1410001+9999REMSYN070AAXX  15031 23933 32597 52602 10135 20122 40067 54000 83131 333 55006;EQDQ01  00002PRCP99
0165239330999992000081506004+60960+069060FM-12+0040USHH V0202601N002012200019N0100001N1+01811+01771100671ADDAA199000091GF102991001001999999001011KA1999N+01041MD1310011+9999REMSYN070AAXX  15061 23933 32997 22602 10181 20177 40067 53001 80001 333 20104;EQDQ01  00002PRCP99
0112239330999992000081509004+60960+069060FM-12+0040USHH V0202401N003012200019N0100001N1+02021+01971100621ADDGF105991031021008001001011MD1810041+9999REMSYN060AAXX  15091 23933 42597 52403 10202 20197 40062 58004 83201;
0133239330999992000081512004+60960+069060FM-12+0040USHH V0200601N003010075019N0100001N1+02191+01021100451ADDGF106991061021008001001011MA1999999099911MD1710171+9999REMSYN066AAXX  15121 23933 42597 60603 10219 20102 39991 40045 57017 86201;
0137239330999992000081518004+60960+069060FM-12+0040USHH V0200301N004019999999N0100001N1+01731+01131999999ADDAA199000091GF106991999999008001999999REMSYN069AAXX  15181 23933 32597 60304 10173 20113 4004 58003 82131 333 10222;EQDQ01  00002PRCP99
0140239330999992000081521004+60960+069060FM-12+0040USHH V0200601N001010300019N0100001N1+01551+01311100421ADDAY181031AY221031GF106991021031008001031011MD1710021+9999MW1021REMSYN066AAXX  15211 23933 41597 60601 10155 20131 40042 57002 70282 82331;
0133239330999992000081600004+60960+069060FM-12+0040USHH V0201001N001019999999N0100001N1+01361+01301100481ADDGF106991051001999999031011MA1999999099921MD1310051+9999REMSYN066AAXX  16001 23933 42997 61001 10136 20130 39992 40048 53005 85031;
0122239330999992000081603004+60960+069060FM-12+0040USHH V0202401N002010075019N0100001N1+01331+01271100521ADDGF106991061051008001031001MD1210041+9999REMSYN070AAXX  16031 23933 /2597 62402 10133 20127 40052 52004 86530 333 55114;
0174239330999992000081606004+60960+069060FM-12+0040USHH V0209999C000010075019N0100001N1+01491+01441100511ADDAA199000021AY181061AY221061GF106991061031008001031999KA1999N+01381MD1410001+9999MW1251REMSYN076AAXX  16061 23933 31597 60000 10149 20144 40051 54000 72582 8633/ 333 20138;
0140239330999992000081609004+60960+069060FM-12+0040USHH V0202501N002010042019N0100001N1+01601+01571100411ADDAY191031AY281031GF108991081031004501999999MD1810101+9999MW1951REMSYN066AAXX  16091 23933 41497 82502 10160 20157 40041 58010 79598 883//;
0161239330999992000081612004+60960+069060FM-12+0040USHH V0202701N002010042019N0100001N1+01801+01781100431ADDAY191061AY281061GF108991061031004501031011MA1999999099881MD1310021+9999MW1021REMSYN072AAXX  16121 23933 41497 82702 10180 20178 39988 40043 53002 70298 86331;
0135239330999992000081615004+60960+069060FM-12+0040USHH V0201501N002010042019N0100001N1+01591+01561100171ADDGF108991051031004501031999KA1999M+01891MD1710261+9999REMSYN070AAXX  16151 23933 /2497 81502 10159 20156 40017 57026 8533/ 333 10189;
0180239330999992000081618004+60960+069060FM-12+0040USHH V0202501N002010075019N0100001N1+01481+01411100031ADDAA112003091AY181061AY221061GF108991081091008001999999KA1999M+01891MD1710141+9999MW1801REMSYN082AAXX  16181 23933 11597 82502 10148 20141 40003 57014 60032 78082 889// 333 10189;
0140239330999992000081621004+60960+069060FM-12+0040USHH V0202901N002010075019N0100001N1+01491+01411099861ADDAY181031AY221031GF108991081021008001999999MD1710161+9999MW1021REMSYN066AAXX  16211 23933 41597 82902 10149 20141 49986 57016 70282 882//;
0161239330999992000081700004+60960+069060FM-12+0040USHH V0200301N003010075019N0100001N1+01511+01441099811ADDAY181061AY221061GF108991081031008001999999MA1999999099271MD1710051+9999MW1251REMSYN072AAXX  17001 23933 41597 80303 10151 20144 39927 49981 57005 72582 883//;
0150239330999992000081703004+60960+069060FM-12+0040USHH V0200201N003010075019N0100001N1+01431+01341099881ADDAY181031AY221031GF108991081031008001999999MD1310071+9999MW1021REMSYN076AAXX  17031 23933 /1597 80203 10143 20134 49988 53007 70282 883// 333 55014;
0199239330999992000081706004+60960+069060FM-12+0040USHH V0202401N003010075019N0100001N1+01291+00741100201ADDAA100005191AY181061AY221061GF108991081031008001999999KA1999N+99999MD1210301+9999MW1021REMSYN082AAXX  17061 23933 11597 82403 10129 20074 40020 52030 60050 70282 883// 333 20141;EQDQ01 +01412ATMN  
0112239330999992000081709004+60960+069060FM-12+0040USHH V0202901N002010750019N0100001N1+01551+00981100211ADDGF106991021021008001001021MD1210021+9999REMSYN060AAXX  17091 23933 42597 62902 10155 20098 40021 52002 82202;
0133239330999992000081712004+60960+069060FM-12+0040USHH V0202401N002010300019N0100001N1+01631+01131100331ADDGF108991021051008001071011MA1999999099781MD1210121+9999REMSYN066AAXX  17121 23933 42597 82402 10163 20113 39978 40033 52012 82571;
0135239330999992000081715004+60960+069060FM-12+0040USHH V0202401N002019999999N0100001N1+01431+01191100201ADDGF108991081001999999021999KA1999M+01791MD1810131+9999REMSYN070AAXX  17151 23933 /2997 82402 10143 20119 40020 58013 8802/ 333 10179;
0152239330999992000081718004+60960+069060FM-12+0040USHH V0209999C000019999999N0100001N1+01301+01301100211ADDAA100000791GF108991081001999999021999KA1999M+01791MD1410001+9999REMSYN076AAXX  17181 23933 12997 80000 10130 20130 40021 54000 69900 8802/ 333 10179;
0112239330999992000081721004+60960+069060FM-12+0040USHH V0203101N001010075019N0100001N1+01221+01191100161ADDGF108991081051008001999999MD1810051+9999REMSYN060AAXX  17211 23933 42597 83101 10122 20119 40016 58005 885//;
0133239330999992000081800004+60960+069060FM-12+0040USHH V0209999C000010042019N0100001N1+01231+01211100121ADDGF108991081061004501999999MA1999999099561MD1710041+9999REMSYN066AAXX  18001 23933 42497 80000 10123 20121 39956 40012 57004 886//;
0174239330999992000081806004+60960+069060FM-12+0040USHH V0200201N002010042019N0100001N1+01511+01351100131ADDAA199000021AY151061AY211061GF108991081071004501999999KA1999N+01241MD1310041+9999MW1501REMSYN076AAXX  18061 23933 31497 80202 10151 20135 40013 53004 75051 887// 333 20124;
0140239330999992000081809004+60960+069060FM-12+0040USHH V0200101N002010042019N0100001N1+01661+01281100141ADDAY151031AY221031GF108991081051004501999999MD1210011+9999MW1021REMSYN066AAXX  18091 23933 41497 80102 10166 20128 40014 52001 70252 885//;
0161239330999992000081812004+60960+069060FM-12+0040USHH V0200201N002010042019N0100001N1+01581+01311100211ADDAY161061AY251061GF108991051071004501031999MA1999999099661MD1210071+9999MW1021REMSYN072AAXX  18121 23933 41497 80202 10158 20131 39966 40021 52007 70265 8573/;
0182239330999992000081815004+60960+069060FM-12+0040USHH V0200201N001010042019N0040001N1+01451+01321100331ADDAY161031AY221031GF108991999071004501021999KA1999M+01711MD1210121+9999MW1611REMSYN076AAXX  18151 23933 /1496 80201 10145 20132 40033 52012 76162 8872/ 333 10171;EQDQ01+000082SCOTLC
0199239330999992000081818004+60960+069060FM-12+0040USHH V0203501N002010042019N0040001N1+01371+01291100261ADDAA100002091AY161061AY221061GF108991999071004501021999KA1999M+01711MD1810081+9999MW1611REMSYN082AAXX  18181 23933 11496 83502 10137 20129 40026 58008 60020 76162 8872/ 333 10171;EQDQ01+000082SCOTLC
0140239330999992000081821004+60960+069060FM-12+0040USHH V0203501N002010075019N0100001N1+01361+01321100261ADDAY161031AY221031GF108991081061008001999999MD1410001+9999MW1211REMSYN066AAXX  18211 23933 41597 83502 10136 20132 40026 54000 72162 886//;
0161239330999992000081900004+60960+069060FM-12+0040USHH V0203301N002010021019N0040001N1+01361+01341100191ADDAY161061AY221061GF108991081061002501999999MA1999999099631MD1810071+9999MW1611REMSYN072AAXX  19001 23933 41396 83302 10136 20134 39963 40019 58007 76162 886//;
0150239330999992000081903004+60960+069060FM-12+0040USHH V0203001N002010042019N0040001N1+01391+01351100111ADDAY161031AY221031GF108991071071004501021999MD1710071+9999MW1611REMSYN076AAXX  19031 23933 /1496 83002 10139 20135 40011 57007 76162 8772/ 333 55000;
0163239330999992000081906004+60960+069060FM-12+0040USHH V0203201N003010042019N0040001N1+01441+01351100101ADDAY161061AY251061GF108991081071004501999999KA1999N+01351MD1710011+9999MW1511REMSYN076AAXX  19061 23933 11496 83203 10144 20135 40010 57001 75165 887// 333 20135;
0140239330999992000081909004+60960+069060FM-12+0040USHH V0203401N002010042019N0100001N1+01471+01451100181ADDAY181031AY261031GF108991071071004501021999MD1310081+9999MW1211REMSYN066AAXX  19091 23933 41497 83402 10147 20145 40018 53008 72186 8772/;
0161239330999992000081912004+60960+069060FM-12+0040USHH V0203001N002010042019N0040001N1+01421+01381100211ADDAY181061AY261061GF108991071071004501021999MA1999999099661MD1210031+9999MW1611REMSYN072AAXX  19121 23933 41496 83002 10142 20138 39966 40021 52003 76186 8772/;
0163239330999992000081915004+60960+069060FM-12+0040USHH V0203001N002010042019N0100001N1+01371+01351100221ADDAY161031AY221031GF108991071071004501021999KA1999M+01541MD1410001+9999MW1611REMSYN076AAXX  19151 23933 /1497 83002 10137 20135 40022 54000 76162 8772/ 333 10154;
0180239330999992000081918004+60960+069060FM-12+0040USHH V0203001N002010042019N0100001N1+01391+01381100131ADDAA100010991AY161061AY221061GF108991081071004501999999KA1999M+01541MD1810081+9999MW1611REMSYN082AAXX  19181 23933 11497 83002 10139 20138 40013 58008 60110 76162 887// 333 10154;
0140239330999992000081921004+60960+069060FM-12+0040USHH V0202701N002010042019N0100001N1+01361+01341099981ADDAY161031AY221031GF108991081071004501999999MD1710161+9999MW1611REMSYN066AAXX  19211 23933 41497 82702 10136 20134 49998 57016 76162 887//;
0161239330999992000082000004+60960+069060FM-12+0040USHH V0202801N002010042019N0100001N1+01321+01301099971ADDAY161061AY251061GF108991081061004501999999MA1999999099411MD1710011+9999MW1501REMSYN072AAXX  20001 23933 41497 82802 10132 20130 39941 49997 57001 75065 886//;
0150239330999992000082003004+60960+069060FM-12+0040USHH V0202801N002010042019N0100001N1+01341+01261099861ADDAY161031AY251031GF108991081061004501999999MD1710101+9999MW1501REMSYN076AAXX  20031 23933 /1497 82802 10134 20126 49986 57010 75065 886// 333 55000;
0180239330999992000082006004+60960+069060FM-12+0040USHH V0202801N004010042019N0100001N1+01341+01311099691ADDAA100007991AY161061AY251061GF108991081071004501999999KA1999N+01311MD1710171+9999MW1601REMSYN082AAXX  20061 23933 /1497 82804 10134 20131 49969 57017 60080 76065 887// 333 20131;
0140239330999992000082009004+60960+069060FM-12+0040USHH V0202801N003010042019N0100001N1+01361+01301099691ADDAY161031AY221031GF108991081071004501999999MD1410001+9999MW1601REMSYN066AAXX  20091 23933 41497 82803 10136 20130 49969 54000 76062 887//;
0161239330999992000082012004+60960+069060FM-12+0040USHH V0202801N003010042019N0100001N1+01341+01281099731ADDAY161061AY221061GF108991081071004501999999MA1999999099181MD1310041+9999MW1211REMSYN072AAXX  20121 23933 41497 82803 10134 20128 39918 49973 53004 72162 887//;
0163239330999992000082015004+60960+069060FM-12+0040USHH V0202701N003010042019N0100001N1+01301+01241099691ADDAY161031AY251031GF108991081061004501999999KA1999M+01381MD1810041+9999MW1511REMSYN076AAXX  20151 23933 /1497 82703 10130 20124 49969 58004 75165 886// 333 10138;
0180239330999992000082018004+60960+069060FM-12+0040USHH V0202701N002010042019N0040001N1+01291+01271099631ADDAA100007991AY161061AY251061GF108991081061004501999999KA1999M+01381MD1710061+9999MW1511REMSYN082AAXX  20181 23933 11496 82702 10129 20127 49963 57006 60080 75165 886// 333 10138;
0140239330999992000082021004+60960+069060FM-12+0040USHH V0202301N002010042019N0100001N1+01261+01221099561ADDAY181031AY251031GF106991061071004501001001MD1710071+9999MW1021REMSYN066AAXX  20211 23933 41497 62302 10126 20122 49956 57007 70285 86700;
0161239330999992000082100004+60960+069060FM-12+0040USHH V0202101N002010042019N0100001N1+01221+01121099451ADDAY181061AY251061GF108991081061004501999999MA1999999098901MD1710111+9999MW1511REMSYN072AAXX  21001 23933 41497 82102 10122 20112 39890 49945 57011 75185 886//;
0150239330999992000082103004+60960+069060FM-12+0040USHH V0200501N004010042019N0100001N1+01271+01211099411ADDAY181031AY251031GF108991081061004501999999MD1710041+9999MW1511REMSYN076AAXX  21031 23933 /1497 80504 10127 20121 49941 57004 75185 886// 333 55000;
0180239330999992000082106004+60960+069060FM-12+0040USHH V0200501N004010042019N0100001N1+01651+01641099531ADDAA100026991AY181061AY251061GF108991081061004501999999KA1999N+01191MD1310131+9999MW1511REMSYN082AAXX  21061 23933 11497 80504 10165 20164 49953 53013 60270 75185 886// 333 20119;
0140239330999992000082109004+60960+069060FM-12+0040USHH V0200501N004010042019N0100001N1+01301+01281099511ADDAY151031AY221031GF108991081061004501999999MD1810031+9999MW1201REMSYN066AAXX  21091 23933 41497 80504 10130 20128 49951 58003 72052 886//;
0161239330999992000082112004+60960+069060FM-12+0040USHH V0200601N004012200019N0100001N1+01501+01171099501ADDAY151061AY221061GF107991031031008001001011MA1999999098961MD1410001+9999MW1021REMSYN072AAXX  21121 23933 41597 70604 10150 20117 39896 49950 54000 70252 83301;
0135239330999992000082115004+60960+069060FM-12+0040USHH V0200201N002010075019N0100001N1+01371+01111099571ADDGF107991061031008001001011KA1999M+01691MD1310061+9999REMSYN070AAXX  21151 23933 /2597 70202 10137 20111 49957 53006 86301 333 10169;
0152239330999992000082118004+60960+069060FM-12+0040USHH V0203201N001010075019N0100001N1+01271+01121099601ADDAA100004191GF106991061031008001031001KA1999M+01691MD1210031+9999REMSYN076AAXX  21181 23933 12597 63201 10127 20112 49960 52003 60040 86330 333 10169;
0140239330999992000082121004+60960+069060FM-12+0040USHH V0203201N001010042019N0100001N1+01211+01111099571ADDAY181031AY251031GF108991081061004501999999MD1810031+9999MW1511REMSYN066AAXX  21211 23933 41497 83201 10121 20111 49957 58003 75185 886//;
0161239330999992000082200004+60960+069060FM-12+0040USHH V0203001N001010042019N0100001N1+01171+01131099731ADDAY151061AY221061GF108991081061004501999999MA1999999099181MD1710161+9999MW1021REMSYN072AAXX  22001 23933 41497 83001 10117 20113 39918 49973 57016 70252 886//;
0122239330999992000082203004+60960+069060FM-12+0040USHH V0200301N001010075019N0100001N1+01241+01201099771ADDGF107991061031008001001011MD1210041+9999REMSYN070AAXX  22031 23933 /2597 70301 10124 20120 49977 52004 86301 333 55014;
0152239330999992000082206004+60960+069060FM-12+0040USHH V0200101N002010042019N0100001N1+01371+01061099721ADDAA100000791GF108991071021004501999999KA1999N+01141MD1810051+9999REMSYN076AAXX  22061 23933 12497 80102 10137 20106 49972 58005 69900 872// 333 20114;
0112239330999992000082209004+60960+069060FM-12+0040USHH V0203301N002010075019N0100001N1+01551+01171099781ADDGF107991061031008001001011MD1310071+9999REMSYN060AAXX  22091 23933 42597 73302 10155 20117 49978 53007 86301;
0133239330999992000082212004+60960+069060FM-12+0040USHH V0203001N002010042019N0100001N1+01561+01151099881ADDGF106991051051004501001011MA1999999099341MD1210101+9999REMSYN066AAXX  22121 23933 42497 63002 10156 20115 39934 49988 52010 85501;
0174239330999992000082215004+60960+069060FM-12+0040USHH V0203101N002010075019N0100001N1+01431+01151100001ADDAA199000021AY161031AY221031GF106991051031008001001011KA1999M+01601MD1210101+9999MW1211REMSYN076AAXX  22151 23933 31597 63102 10143 20115 40000 52010 72162 85301 333 10160;
0180239330999992000082218004+60960+069060FM-12+0040USHH V0203101N002019999999N0100001N1+01291+01071100071ADDAA100000791AY181061AY221061GF106991061001999999031001KA1999M+01601MD1210071+9999MW1021REMSYN082AAXX  22181 23933 12997 63102 10129 20107 40007 52007 69900 70282 86030 333 10160;
0112239330999992000082221004+60960+069060FM-12+0040USHH V0203101N002019999999N0100001N1+01141+00971100121ADDGF106991061001999999031001MD1210051+9999REMSYN060AAXX  22211 23933 42997 63102 10114 20097 40012 52005 86030;
0152239330999992000082300004+60960+069060FM-12+0040USHH V0203201N002019999999N0100001N1+01071+00851100201ADDGF106991999001999999031001MA1999999099641MD1210081+9999REMSYN066AAXX  23001 23933 42997 63202 10107 20085 39964 40020 52008 80030;EQDQ01+000002SCOTLC
0133239330999992000082303004+60960+069060FM-12+0040USHH V0202901N003010075019N0100001N1+00941+00671100391ADDAA199000021GF108991081051008001999999MD1210191+9999REMSYN070AAXX  23031 23933 32597 82903 10094 20067 40039 52019 885// 333 55026;
0165239330999992000082306004+60960+069060FM-12+0040USHH V0203001N003010075019N0100001N1+01031+00781100481ADDAA199000091GF108991081051008001999999KA1999N+00941MD1210091+9999REMSYN070AAXX  23061 23933 32597 83003 10103 20078 40048 52009 885// 333 20094;EQDQ01  00002PRCP99
0112239330999992000082309004+60960+069060FM-12+0040USHH V0202801N003010075019N0100001N1+01231+00781100471ADDGF107991071051008001001001MD1810011+9999REMSYN060AAXX  23091 23933 42597 72803 10123 20078 40047 58001 87500;
0133239330999992000082312004+60960+069060FM-12+0040USHH V0202601N002010075019N0100001N1+01291+00891100611ADDGF108991081051008001999999MA1999999100051MD1310141+9999REMSYN066AAXX  23121 23933 42597 82602 10129 20089 30005 40061 53014 885//;
0165239330999992000082315004+60960+069060FM-12+0040USHH V0203001N001010075019N0100001N1+01171+00921100751ADDAA199000091GF107991071051008001001001KA1999M+01391MD1210141+9999REMSYN070AAXX  23151 23933 32597 73001 10117 20092 40075 52014 87500 333 10139;EQDQ01  00002PRCP99
0165239330999992000082318004+60960+069060FM-12+0040USHH V0203001N001012200019N0100001N1+01061+00761100811ADDAA199000091GF102991021011008001001001KA1999M+01391MD1210061+9999REMSYN070AAXX  23181 23933 32597 23001 10106 20076 40081 52006 82100 333 10139;EQDQ01  00002PRCP99
0112239330999992000082321004+60960+069060FM-12+0040USHH V0202501N001012200019N0100001N1+00791+00671100871ADDGF103991031001999999031001MD1210051+9999REMSYN060AAXX  23211 23933 42997 32501 10079 20067 40087 52005 83030;
0133239330999992000082400004+60960+069060FM-12+0040USHH V0202401N001019999999N0100001N1+00691+00651100931ADDGF106991061001999999031001MA1999999100361MD1210061+9999REMSYN066AAXX  24001 23933 42997 62401 10069 20065 30036 40093 52006 86030;
0152239330999992000082403004+60960+069060FM-12+0040USHH V0202501N001010042019N0100001N1+01031+00621100981ADDAA199000091GF107991071071004501001001MD1210061+9999REMSYN070AAXX  24031 23933 32497 72501 10103 20062 40098 52006 87700 333 55005;EQDQ01  00002PRCP99
0165239330999992000082406004+60960+069060FM-12+0040USHH V0202001N001010300019N0100001N1+01391+00641101021ADDAA199000091GF106991031011008001031011KA1999N+00661MD1210041+9999REMSYN070AAXX  24061 23933 32597 62001 10139 20064 40102 52004 83131 333 20066;EQDQ01  00002PRCP99
0140239330999992000082409004+60960+069060FM-12+0040USHH V0202001N001010300019N0100001N1+01541+00651101021ADDAY181031AY221031GF106991021031004501031011MD1410001+9999MW1021REMSYN066AAXX  24091 23933 42497 62001 10154 20065 40102 54000 70282 82331;
0161239330999992000082412004+60960+069060FM-12+0040USHH V0209999C000010042019N0100001N1+01431+00641101041ADDAY181061AY221061GF107991071031004501001001MA1999999100481MD1210021+9999MW1801REMSYN072AAXX  24121 23933 41497 70000 10143 20064 30048 40104 52002 78082 87300;
0163239330999992000082415004+60960+069060FM-12+0040USHH V0201401N001010075019N0100001N1+01291+00891101111ADDAY181031AY221031GF107991071051008001001001KA1999M+01641MD1210071+9999MW1021REMSYN076AAXX  24151 23933 /1597 71401 10129 20089 40111 52007 70282 87500 333 10164;
0180239330999992000082418004+60960+069060FM-12+0040USHH V0201001N002019999999N0100001N1+01111+00971101151ADDAA100000791AY181061AY221061GF107991071001008001031001KA1999M+01641MD1210041+9999MW1021REMSYN082AAXX  24181 23933 11597 71002 10111 20097 40115 52004 69900 70282 87030 333 10164;
0112239330999992000082421004+60960+069060FM-12+0040USHH V0201001N002019999999N0100001N1+01021+00981101181ADDGF106991061001999999031001MD1210031+9999REMSYN060AAXX  24211 23933 42997 61002 10102 20098 40118 52003 86030;
0168239330999992000082500004+60960+069060FM-12+0040USHH V0201001N002019999999N0100001N1+01031+01021999999ADDGF106991061001999999031001MA1999999100631MD1210011+9999REMSYN066AAXX  25001 23933 42997 61002 10103 20102 30063 40019 52001 86030;EQDQ01+100193APOSLPQ02 100193APOSLP
0152239330999992000082503004+60960+069060FM-12+0040USHH V0201101N002019999999N0100001N1+01151+00991101101ADDAA199000091GF105991051001999999031001MD1810091+9999REMSYN070AAXX  25031 23933 32997 51102 10115 20099 40110 58009 85030 333 55047;EQDQ01  00002PRCP99
0152239330999992000082506004+60960+069060FM-12+0040USHH V0201401N003010300019N0100001N1+01491+01071100931ADDAA100000791GF108991021011008001071999KA1999N+01011MD1710171+9999REMSYN076AAXX  25061 23933 12597 81403 10149 20107 40093 57017 69900 8217/ 333 20101;
0140239330999992000082509004+60960+069060FM-12+0040USHH V0202601N003010075019N0100001N1+01271+01211100781ADDAY161031AY221031GF108991081031008001999999MD1710151+9999MW1601REMSYN066AAXX  25091 23933 41597 82603 10127 20121 40078 57015 76062 883//;
0161239330999992000082512004+60960+069060FM-12+0040USHH V0201001N003010075019N0100001N1+01151+01051100581ADDAY161061AY221061GF108991081051008001999999MA1999999100021MD1710201+9999MW1211REMSYN072AAXX  25121 23933 41597 81003 10115 20105 30002 40058 57020 72162 885//;
0182239330999992000082515004+60960+069060FM-12+0040USHH V0201101N002010042019N0100001N1+01161+01091100221ADDAY161031AY221031GF108991999071004501021999KA1999M+01541MD1710361+9999MW1611REMSYN076AAXX  25151 23933 /1497 81102 10116 20109 40022 57036 76162 8872/ 333 10154;EQDQ01+000082SCOTLC
0180239330999992000082518004+60960+069060FM-12+0040USHH V0201101N003010042019N0100001N1+01211+01111099901ADDAA100008991AY161061AY221061GF108991061071004501021999KA1999M+01541MD1710311+9999MW1611REMSYN082AAXX  25181 23933 11497 81103 10121 20111 49990 57031 60090 76162 8672/ 333 10154;
0112239330999992000082521004+60960+069060FM-12+0040USHH V0201401N001010042019N0100001N1+01291+01221099651ADDGF108991071071004501021999MD1710251+9999REMSYN060AAXX  25211 23933 42497 81401 10129 20122 49965 57025 8772/;
0161239330999992000082600004+60960+069060FM-12+0040USHH V0202101N002010042019N0100001N1+01211+01151099511ADDAY161061AY221061GF108991061071004501071999MA1999999098961MD1710141+9999MW1611REMSYN072AAXX  26001 23933 41497 82102 10121 20115 39896 49951 57014 76162 8677/;
0150239330999992000082603004+60960+069060FM-12+0040USHH V0201201N002010042019N0100001N1+01231+01181099481ADDAY161031AY221031GF108991061071004501071999MD1710031+9999MW1601REMSYN076AAXX  26031 23933 /1497 81202 10123 20118 49948 57003 76062 8677/ 333 55047;
0180239330999992000082606004+60960+069060FM-12+0040USHH V0201201N002010042019N0100001N1+01111+01021099501ADDAA100055191AY161061AY221061GF108991071071004501021999KA1999N+01111MD1310021+9999MW1021REMSYN082AAXX  26061 23933 11497 81202 10111 20102 49950 53002 60550 70262 8772/ 333 20111;
0140239330999992000082609004+60960+069060FM-12+0040USHH V0202301N005010042019N0100001N1+01131+01021099591ADDAY181031AY251031GF108991051031004501031999MD1210091+9999MW1801REMSYN066AAXX  26091 23933 41497 82305 10113 20102 49959 52009 78085 8533/;
0161239330999992000082612004+60960+069060FM-12+0040USHH V0203101N005010042019N0100001N1+01021+00901099891ADDAY181061AY251061GF108991081051004501999999MA1999999099341MD1210301+9999MW1511REMSYN072AAXX  26121 23933 41497 83105 10102 20090 39934 49989 52030 75185 885//;
0163239330999992000082615004+60960+069060FM-12+0040USHH V0203101N006010042019N0100001N1+00931+00181100461ADDAY151031AY221031GF108991081051004501999999KA1999M+01231MD1210561+9999MW1021REMSYN076AAXX  26151 23933 /1497 83106 10093 20018 40046 52056 70252 885// 333 10123;
0135239330999992000082618004+60960+069060FM-12+0040USHH V0203001N005010042019N0100001N1+00891+00651100841ADDGF108991081051004501999999KA1999M+01231MD1210381+9999REMSYN070AAXX  26181 23933 12497 83005 10089 20065 40084 52038 885// 333 10123;
0112239330999992000082621004+60960+069060FM-12+0040USHH V0202901N002012200019N0100001N1+00871+00651101121ADDGF102991021051008001001001MD1210281+9999REMSYN060AAXX  26211 23933 42597 22902 10087 20065 40112 52028 82500;
0143239330999992000082700004+60960+069060FM-12+0040USHH V0203001N003012200019N0100001N1+00731+00581101371ADDGA1001+999999999GF100991001001999999001001MA1999999100801MD1210251+9999REMSYN060AAXX  27001 23933 42997 03003 10073 20058 30080 40137 52025;
0162239330999992000082703004+60960+069060FM-12+0040USHH V0202901N003012200019N0100001N1+00841+00531101551ADDAA199000091GA1001+999999999GF100991001001999999001001MD1210181+9999REMSYN064AAXX  27031 23933 32997 02903 10084 20053 40155 52018 333 55002;EQDQ01  00002PRCP99
0165239330999992000082706004+60960+069060FM-12+0040USHH V0202901N003010075019N0100001N1+01091+00451101671ADDAA199000091GF106991061021008001001001KA1999N+00751MD1210131+9999REMSYN070AAXX  27061 23933 32597 62903 10109 20045 40167 52013 86200 333 20075;EQDQ01  00002PRCP99
0142239330999992000082709004+60960+069060FM-12+0040USHH V0202701N003010075019N0100001N1+01341+00401101731ADDAA199000091GF105991051021008001001001MD1210061+9999REMSYN060AAXX  27091 23933 32597 52703 10134 20040 40173 52006 85200;EQDQ01  00002PRCP99
0133239330999992000082712004+60960+069060FM-12+0040USHH V0202801N003012200019N0100001N1+01391+00511101791ADDGF102991021011008001001001MA1999999101231MD1210061+9999REMSYN066AAXX  27121 23933 42597 22803 10139 20051 30123 40179 52006 82100;
0165239330999992000082715004+60960+069060FM-12+0040USHH V0202301N003012200019N0100001N1+01091+00591101801ADDAA199000091GF102991001001999999001011KA1999M+01441MD1210011+9999REMSYN070AAXX  27151 23933 32997 22303 10109 20059 40180 52001 80001 333 10144;EQDQ01  00002PRCP99
0165239330999992000082718004+60960+069060FM-12+0040USHH V0202201N004012200019N0100001N1+01001+00511101571ADDAA199000091GF102991001001999999001011KA1999M+01441MD1810231+9999REMSYN070AAXX  27181 23933 32997 22204 10100 20051 40157 58023 80001 333 10144;EQDQ01  00002PRCP99
0122239330999992000082721004+60960+069060FM-12+0040USHH V0202401N002012200019N0100001N1+01031+00591101441ADDGA1001+999999999GF100991001001999999001001MD1710131+9999REMSYN054AAXX  27211 23933 42997 02402 10103 20059 40144 57013;
0133239330999992000082800004+60960+069060FM-12+0040USHH V0202301N004019999999N0100001N1+00931+00531101321ADDGF105991001001999999001011MA1999999100751MD1710131+9999REMSYN066AAXX  28001 23933 42997 52304 10093 20053 30075 40132 57013 80001;
0152239330999992000082803004+60960+069060FM-12+0040USHH V0202601N002010300019N0100001N1+00901+00721101161ADDAA199000091GF108991041051008001021999MD1710161+9999REMSYN070AAXX  28031 23933 32597 82602 10090 20072 40116 57016 8452/ 333 55139;EQDQ01  00002PRCP99
0193239330999992000082806004+60960+069060FM-12+0040USHH V0202601N003010042019N0100001N1+01281+00971101001ADDAA199000091AY161061AY221061GF107991071031004501001001KA1999N+00841MD1710151+9999MW1021REMSYN076AAXX  28061 23933 31497 72603 10128 20097 40100 57015 70262 87300 333 20084;EQDQ01  00002PRCP99
0140239330999992000082809004+60960+069060FM-12+0040USHH V0202901N003010042019N0100001N1+01341+00991100881ADDAY181031AY221031GF106991051031004501031001MD1710121+9999MW1251REMSYN066AAXX  28091 23933 41497 62903 10134 20099 40088 57012 72582 85330;
0138239330999992000082812004+60960+069060FM-12+0040USHH V0202701N003019999999N0100001N1+01311+00981100791ADDGF106991999999004501999999MA1999999100231MD1710091+9999REMSYN071AAXX  28121 23933 41497 62703 10131 20098 30023 40079 57009 7258 85302;
0163239330999992000082815004+60960+069060FM-12+0040USHH V0203001N002010042019N0100001N1+01141+01001100881ADDAY181031AY221031GF106991051031004501031001KA1999M+01541MD1310091+9999MW1021REMSYN076AAXX  28151 23933 /1497 63002 10114 20100 40088 53009 70282 85330 333 10154;
0180239330999992000082818004+60960+069060FM-12+0040USHH V0203101N001012200019N0100001N1+00931+00861100841ADDAA100003091AY121061AY251061GF102991001001999999001011KA1999M+01541MD1210051+9999MW1021REMSYN082AAXX  28181 23933 11997 23101 10093 20086 40084 52005 60030 70225 80001 333 10154;
0122239330999992000082821004+60960+069060FM-12+0040USHH V0203201N002012200019N0100001N1+00781+00741100871ADDGA1001+999999999GF100991001001999999001001MD1310031+9999REMSYN054AAXX  28211 23933 42997 03202 10078 20074 40087 53003;
0133239330999992000082900004+60960+069060FM-12+0040USHH V0203201N001010075019N0100001N1+00711+00671101031ADDGF106991061051008001001001MA1999999100461MD1210161+9999REMSYN066AAXX  29001 23933 42597 63201 10071 20067 30046 40103 52016 86500;
0122239330999992000082903004+60960+069060FM-12+0040USHH V0203401N002019999999N0100001N1+00851+00731100971ADDGF106991061001008001031011MD1810061+9999REMSYN070AAXX  29031 23933 /2597 63402 10085 20073 40097 58006 86031 333 55050;
0152239330999992000082906004+60960+069060FM-12+0040USHH V0203001N003010075019N0100001N1+00951+00711101041ADDAA100000591GF108991081051008001999999KA1999N+00691MD1210081+9999REMSYN076AAXX  29061 23933 12597 83003 10095 20071 40104 52008 69940 885// 333 20069;
0112239330999992000082909004+60960+069060FM-12+0040USHH V0203201N005010075019N0100001N1+01171+00681101041ADDGF107991071031008001999999MD1410001+9999REMSYN060AAXX  29091 23933 42597 73205 10117 20068 40104 54000 873//;
0161239330999992000082912004+60960+069060FM-12+0040USHH V0203101N003010075019N0100001N1+01201+00561101121ADDAY181061AY221061GF106991061031008001001001MA1999999100561MD1310081+9999MW1021REMSYN072AAXX  29121 23933 41597 63103 10120 20056 30056 40112 53008 70282 86300;
0163239330999992000082915004+60960+069060FM-12+0040USHH V0203301N001010042019N0100001N1+00971+00671101161ADDAY181031AY221031GF107991071031004501001001KA1999M+01291MD1210041+9999MW1251REMSYN076AAXX  29151 23933 /1497 73301 10097 20067 40116 52004 72582 87300 333 10129;
0180239330999992000082918004+60960+069060FM-12+0040USHH V0203201N002010042019N0100001N1+00841+00551101211ADDAA100000591AY181061AY221061GF106991061051004501001001KA1999M+01291MD1210041+9999MW1021REMSYN082AAXX  29181 23933 11497 63202 10084 20055 40121 52004 69950 70282 86500 333 10129;
0112239330999992000082921004+60960+069060FM-12+0040USHH V0203301N002010042019N0100001N1+00791+00551101231ADDGF107991071051004501001001MD1210021+9999REMSYN060AAXX  29211 23933 42497 73302 10079 20055 40123 52002 87500;
0133239330999992000083000004+60960+069060FM-12+0040USHH V0203101N002010042019N0100001N1+00701+00511101291ADDGF108991081051004501999999MA1999999100721MD1210061+9999REMSYN066AAXX  30001 23933 42497 83102 10070 20051 30072 40129 52006 885//;
0133239330999992000083003004+60960+069060FM-12+0040USHH V0203201N002010042019N0100001N1+00761+00511101361ADDAA199000021GF107991071051004501001001MD1210071+9999REMSYN070AAXX  30031 23933 32497 73202 10076 20051 40136 52007 87500 333 55000;
0165239330999992000083006004+60960+069060FM-12+0040USHH V0203301N003010042019N0100001N1+01041+00381101441ADDAA199000091GF107991071051004501001001KA1999N+00661MD1210091+9999REMSYN070AAXX  30061 23933 32497 73303 10104 20038 40144 52009 87500 333 20066;EQDQ01  00002PRCP99
0112239330999992000083009004+60960+069060FM-12+0040USHH V0203401N003010300019N0100001N1+01171+00301101541ADDGF106991041031004501031001MD1210101+9999REMSYN060AAXX  30091 23933 42497 63403 10117 20030 40154 52010 84330;
0133239330999992000083012004+60960+069060FM-12+0040USHH V0203501N002010042019N0100001N1+01161+00211101641ADDGF106991061051004501001001MA1999999101081MD1210101+9999REMSYN066AAXX  30121 23933 42497 63502 10116 20021 30108 40164 52010 86500;
0181239330999992000083015004+60960+069060FM-12+0040USHH V0203001N002012200019N0100001N1+00891+00671999999ADDAA199000091GF102991001001999999001041KA1999M+01251MD1210101+9999REMSYN070AAXX  30151 23933 32997 23002 10089 20067 40075 52010 80004 333 10125;EQDQ01+100753APOSLPQ02  00002PRCP99
0175239330999992000083018004+60960+069060FM-12+0040USHH V0202701N002012200019N0100001N1+00561+00321101871ADDAA199000091GA1001+999999999GF100991001001999999001001KA1999M+01251MD1210071+9999REMSYN064AAXX  30181 23933 32997 02702 10056 20032 40187 52007 333 10125;EQDQ01  00002PRCP99
0122239330999992000083021004+60960+069060FM-12+0040USHH V0202501N001012200019N0100001N1+00421+00271102001ADDGA1001+999999999GF100991001001999999001001MD1210161+9999REMSYN054AAXX  30211 23933 42997 02501 10042 20027 40200 52016;
0143239330999992000083100004+60960+069060FM-12+0040USHH V0202601N001012200019N0100001N1+00441+00291101941ADDGA1001+999999999GF100991001001999999001001MA1999999101351MD1810061+9999REMSYN060AAXX  31001 23933 42997 02601 10044 20029 30135 40194 58006;
0152239330999992000083103004+60960+069060FM-12+0040USHH V0202301N002012200019N0100001N1+00911+00291101891ADDAA199000091GF102991021011999999001001MD1710031+9999REMSYN070AAXX  31031 23933 32997 22302 10091 20029 40189 57003 82100 333 55062;EQDQ01  00002PRCP99
0165239330999992000083106004+60960+069060FM-12+0040USHH V0202201N002010120019N0100001N1+01091+00451101881ADDAA199000091GF108991081051012501999999KA1999N+00411MD1410001+9999REMSYN070AAXX  31061 23933 32697 82202 10109 20045 40188 54000 885// 333 20041;EQDQ01  00002PRCP99
0140239330999992000083109004+60960+069060FM-12+0040USHH V0202201N002010042019N0100001N1+01211+00641101751ADDAY161031AY221031GF108991061071004501021999MD1810131+9999MW1611REMSYN066AAXX  31091 23933 41497 82202 10121 20064 40175 58013 76162 8672/;
0161239330999992000083112004+60960+069060FM-12+0040USHH V0202301N004010075019N0100001N1+01201+01051101661ADDAY161061AY221061GF108991061051008001021999MA1999999101101MD1710091+9999MW1021REMSYN072AAXX  31121 23933 41597 82304 10120 20105 30110 40166 57009 70262 8652/;
0129239330999992000083115004+60960+069060FM-12+0040USHH V0209999C000010042019N0100001N1+01281+01141999999ADDGF108991061031004501021999KA1999M+01351MD1310031+9999REMSYN064AAXX  31151 23933 /2497 80000 10128 20114 53003 8632/ 333 10135;
0162239330999992000083118004+60960+069060FM-12+0040USHH V0209999C000012200019N0100001N1+01071+01021101791ADDAA100002091GA1001+999999999GF100991001001999999001001KA1999M+01351MD1210101+9999REMSYN070AAXX  31181 23933 32997 00000 10107 20102 40179 52010 60020 333 10135;
0122239330999992000083121004+60960+069060FM-12+0040USHH V0209999C000012200019N0100001N1+00881+00841101891ADDGA1001+999999999GF100991001001999999001001MD1210091+9999REMSYN054AAXX  31211 23933 42997 00000 10088 20084 40189 52009;
0161239330999992000090100004+60960+069060FM-12+0040USHH V0203201N001010012019N0001001N1+00861+00841102061ADDAY141061AY221061GF108991081061001501999999MA1999999101481MD1210161+9999MW1451REMSYN072AAXX  01001 23933 41291 83201 10086 20084 30148 40206 52016 74542 886//;
0180239330999992000090103004+60960+069060FM-12+0040USHH V0200901N001010012019N0001001N1+00881+00821102231ADDAA199000091AY141031AY221031GF108991081061001501999999MD1210171+9999MW1451REMSYN076AAXX  01031 23933 31291 80901 10088 20082 40223 52017 74542 886// 333 55035;EQDQ01  00002PRCP99
0193239330999992000090106004+60960+069060FM-12+0040USHH V0201301N001010021019N0010001N1+01071+01071102271ADDAA199000091AY141061AY221061GF108991081061002501999999KA1999N+00851MD1210051+9999MW1281REMSYN076AAXX  01061 23933 31394 81301 10107 20107 40227 52005 72842 886// 333 20085;EQDQ01  00002PRCP99
0112239330999992000090109004+60960+069060FM-12+0040USHH V0202201N001012200019N0100001N1+01421+01021102351ADDGF103991021011008001001011MD1210091+9999REMSYN060AAXX  01091 23933 42597 32201 10142 20102 40235 52009 82101;
0133239330999992000090112004+60960+069060FM-12+0040USHH V0201401N001012200019N0100001N1+01681+00671102241ADDGF102991001001999999001011MA1999999101681MD1810111+9999REMSYN066AAXX  01121 23933 42997 21401 10168 20067 30168 40224 58011 80001;
0165239330999992000090115004+60960+069060FM-12+0040USHH V0209999C000010042019N0100001N1+01411+00741102081ADDAA199000091GF107991071051004501001001KA1999M+01741MD1710171+9999REMSYN070AAXX  01151 23933 32497 70000 10141 20074 40208 57017 87500 333 10174;EQDQ01  00002PRCP99
0165239330999992000090118004+60960+069060FM-12+0040USHH V0202301N002010042019N0100001N1+01511+00811102061ADDAA199000091GF106991061051004501001001KA1999M+01741MD1710011+9999REMSYN070AAXX  01181 23933 32497 62302 10151 20081 40206 57001 86500 333 10174;EQDQ01  00002PRCP99
0112239330999992000090121004+60960+069060FM-12+0040USHH V0202401N002019999999N0100001N1+01391+00981102071ADDGF106991061001999999031001MD1410001+9999REMSYN060AAXX  01211 23933 42997 62402 10139 20098 40207 54000 86030;
0133239330999992000090200004+60960+069060FM-12+0040USHH V0202301N001010042019N0100001N1+01311+00891102151ADDGF107991071011004501001001MA1999999101581MD1310081+9999REMSYN066AAXX  02001 23933 42497 72301 10131 20089 30158 40215 53008 87100;
0152239330999992000090203004+60960+069060FM-12+0040USHH V0202301N002010075019N0100001N1+01461+01061102041ADDAA199000091GF108991081051008001999999MD1810101+9999REMSYN070AAXX  02031 23933 32597 82302 10146 20106 40204 58010 885// 333 55055;EQDQ01  00002PRCP99
0165239330999992000090206004+60960+069060FM-12+0040USHH V0202601N002010075019N0100001N1+01681+01231102051ADDAA199000091GF107991051051008001031001KA1999N+01311MD1310011+9999REMSYN070AAXX  02061 23933 32597 72602 10168 20123 40205 53001 85530 333 20131;EQDQ01  00002PRCP99
0112239330999992000090209004+60960+069060FM-12+0040USHH V0203201N003010300019N0100001N1+02201+01191102061ADDGF108991021021004501031051MD1210021+9999REMSYN060AAXX  02091 23933 42497 83203 10220 20119 40206 52002 82235;
0133239330999992000090212004+60960+069060FM-12+0040USHH V0202701N001010042019N0100001N1+02091+01091102061ADDGF108991061031004501001021MA1999999101511MD1410001+9999REMSYN066AAXX  02121 23933 42497 82701 10209 20109 30151 40206 54000 86302;
0165239330999992000090215004+60960+069060FM-12+0040USHH V0202101N001019999999N0100001N1+01731+01071102071ADDAA199000091GF108991031001999999031011KA1999M+02231MD1410001+9999REMSYN070AAXX  02151 23933 32997 82101 10173 20107 40207 54000 83031 333 10223;EQDQ01  00002PRCP99
0165239330999992000090218004+60960+069060FM-12+0040USHH V0202201N002012200019N0100001N1+01771+00981102121ADDAA199000091GF102991021011008001001001KA1999M+02231MD1310051+9999REMSYN070AAXX  02181 23933 32597 22202 10177 20098 40212 53005 82100 333 10223;EQDQ01  00002PRCP99
0122239330999992000090221004+60960+069060FM-12+0040USHH V0202301N002012200019N0100001N1+01601+00931102121ADDGA1001+999999999GF100991001001999999001001MD1410001+9999REMSYN054AAXX  02211 23933 42997 02302 10160 20093 40212 54000;
0133239330999992000090300004+60960+069060FM-12+0040USHH V0201301N001019999999N0100001N1+01221+00941102131ADDGF106991061001999999031001MA1999999101561MD1410001+9999REMSYN066AAXX  03001 23933 42997 61301 10122 20094 30156 40213 54000 86030;
0152239330999992000090303004+60960+069060FM-12+0040USHH V0202101N002019999999N0100001N1+01491+00951102251ADDAA199000091GF106991061001999999031011MD1310131+9999REMSYN070AAXX  03031 23933 32997 62102 10149 20095 40225 53013 86031 333 55038;EQDQ01  00002PRCP99
0181239330999992000090306004+60960+069060FM-12+0040USHH V0202001N003012200019N0100001N1+01951+01391102181ADDAA199000091GF102991001001999999001011KA1999N+01231MD1810061+9999REMSYN070AAXX  03061 23933 32997 22003 10195 20139 40218 58006 82001 333 20123;EQDQ01+000022SCOTLCQ02  00002PRCP99
0106239330999992000090309004+60960+069060FM-12+0040USHH V0202601N004019999999N0100001N1+02171+00821102231ADDGF105991999999999999999999MD1310111+9999REMSYN054AAXX  03091 23933 42997 52604 10217 20082 40223 53011;
0133239330999992000090312004+60960+069060FM-12+0040USHH V0202201N004012200019N0100001N1+02111+00731102211ADDGF104991021001999999031011MA1999999101661MD1810081+9999REMSYN066AAXX  03121 23933 42997 42204 10211 20073 30166 40221 58008 82031;
0165239330999992000090315004+60960+069060FM-12+0040USHH V0202001N002019999999N0100001N1+01831+00771102031ADDAA199000091GF108991001001999999001011KA1999M+02251MD1710191+9999REMSYN070AAXX  03151 23933 32997 82002 10183 20077 40203 57019 80001 333 10225;EQDQ01  00002PRCP99
0165239330999992000090318004+60960+069060FM-12+0040USHH V0202201N004012200019N0100001N1+01601+00561102051ADDAA199000091GF102991001001999999001011KA1999M+02251MD1310021+9999REMSYN070AAXX  03181 23933 32997 22204 10160 20056 40205 53002 80001 333 10225;EQDQ01  00002PRCP99
0112239330999992000090321004+60960+069060FM-12+0040USHH V0202301N004012200019N0100001N1+01491+00621102021ADDGF103991001001999999001011MD1810031+9999REMSYN060AAXX  03211 23933 42997 32304 10149 20062 40202 58003 80001;
0133239330999992000090400004+60960+069060FM-12+0040USHH V0202501N003019999999N0100001N1+01391+00701102021ADDGF108991001001999999001011MA1999999101451MD1710011+9999REMSYN066AAXX  04001 23933 42997 82503 10139 20070 30145 40202 57001 80001;
0152239330999992000090403004+60960+069060FM-12+0040USHH V0202301N004019999999N0100001N1+01321+00651101481ADDAA199000091GF106991001001999999001011MD1310031+9999REMSYN070AAXX  04031 23933 32997 62304 10132 20065 40148 53003 80001 333 55098;EQDQ01  00002PRCP99
0181239330999992000090406004+60960+069060FM-12+0040USHH V0202301N004019999999N0100001N1+01811+00951102162ADDAA199000091GF107991061001999999031011KA1999N+01241MD1210121+9999REMSYN070AAXX  04061 23933 32997 72304 10181 20095 40216 52012 86031 333 20124;EQDQ01+102163APOSLPQ02  00002PRCP99
0122239330999992000090409004+60960+069060FM-12+0040USHH V0202701N004012200019N0100001N1+02221+00861102141ADDGA1001+999999999GF100991001001999999001001MD1810011+9999REMSYN054AAXX  04091 23933 42997 02704 10222 20086 40214 58001;
0143239330999992000090412004+60960+069060FM-12+0040USHH V0202401N003012200019N0100001N1+02291+00811101971ADDGA1001+999999999GF100991001001999999001001MA1999999101421MD1710171+9999REMSYN060AAXX  04121 23933 42997 02403 10229 20081 30142 40197 57017;
0175239330999992000090415004+60960+069060FM-12+0040USHH V0202101N001012200019N0100001N1+01911+00731101981ADDAA199000091GA1001+999999999GF100991001001999999001001KA1999M+02401MD1410001+9999REMSYN064AAXX  04151 23933 32997 02101 10191 20073 40198 54000 333 10240;EQDQ01  00002PRCP99
0122239330999992000090421004+60960+069060FM-12+0040USHH V0202601N001012200019N0100001N1+01461+00731102121ADDGA1001+999999999GF100991001001999999001001MD1410001+9999REMSYN054AAXX  04211 23933 42997 02601 10146 20073 40212 54000;
0133239330999992000090500004+60960+069060FM-12+0040USHH V0209999C000019999999N0100001N1+01051+00801102071ADDGF106991061001999999031011MA1999999101501MD1810061+9999REMSYN066AAXX  05001 23933 42997 60000 10105 20080 30150 40207 58006 86031;
0152239330999992000090503004+60960+069060FM-12+0040USHH V0201101N001019999999N0100001N1+01201+01041102081ADDAA199000091GF106991021001999999031011MD1310011+9999REMSYN070AAXX  05031 23933 32997 61101 10120 20104 40208 53001 82031 333 55112;EQDQ01  00002PRCP99
0165239330999992000090506004+60960+069060FM-12+0040USHH V0202301N001012200019N0100001N1+02001+00951102001ADDAA199000091GF103991021001999999031011KA1999N+01021MD1810061+9999REMSYN070AAXX  05061 23933 32997 32301 10200 20095 40200 58006 82031 333 20102;EQDQ01  00002PRCP99
0112239330999992000090509004+60960+069060FM-12+0040USHH V0202401N003012200019N0100001N1+02401+00851102031ADDGF101991001001999999001011MD1310031+9999REMSYN060AAXX  05091 23933 42997 12403 10240 20085 40203 53003 80001;
0133239330999992000090512004+60960+069060FM-12+0040USHH V0202301N002012200019N0100001N1+02341+00741101911ADDGF101991001001999999001011MA1999999101361MD1810121+9999REMSYN066AAXX  05121 23933 42997 12302 10234 20074 30136 40191 58012 80001;
0175239330999992000090515004+60960+069060FM-12+0040USHH V0202801N002012200019N0100001N1+01911+00551101811ADDAA199000091GA1001+999999999GF100991001001999999001001KA1999M+02451MD1710101+9999REMSYN064AAXX  05151 23933 32997 02802 10191 20055 40181 57010 333 10245;EQDQ01  00002PRCP99
0175239330999992000090518004+60960+069060FM-12+0040USHH V0202101N003012200019N0100001N1+01871+00701101941ADDAA199000091GA1001+999999999GF100991001001999999001001KA1999M+02451MD1310121+9999REMSYN064AAXX  05181 23933 32997 02103 10187 20070 40194 53012 333 10245;EQDQ01  00002PRCP99
0122239330999992000090521004+60960+069060FM-12+0040USHH V0202201N003012200019N0100001N1+01701+00511101951ADDGA1001+999999999GF100991001001999999001001MD1210011+9999REMSYN054AAXX  05211 23933 42997 02203 10170 20051 40195 52001;
0143239330999992000090600004+60960+069060FM-12+0040USHH V0200801N002012200019N0100001N1+00901+00621101961ADDGA1001+999999999GF100991001001999999001001MA1999999101391MD1410001+9999REMSYN060AAXX  06001 23933 42997 00802 10090 20062 30139 40196 54000;
0162239330999992000090603004+60960+069060FM-12+0040USHH V0201201N002012200019N0100001N1+01121+00971101831ADDAA199000091GA1001+999999999GF100991001001999999001001MD1810121+9999REMSYN064AAXX  06031 23933 32997 01202 10112 20097 40183 58012 333 55112;EQDQ01  00002PRCP99
0175239330999992000090606004+60960+069060FM-12+0040USHH V0201401N003012200019N0100001N1+01941+01051101761ADDAA199000091GA1001+999999999GF100991001001999999001001KA1999N+00851MD1710061+9999REMSYN064AAXX  06061 23933 32997 01403 10194 20105 40176 57006 333 20085;EQDQ01  00002PRCP99
0133239330999992000090612004+60960+069060FM-12+0040USHH V0201401N002012200019N0100001N1+02081+00941101501ADDGF103991001001999999001011MA1999999100951MD1710141+9999REMSYN066AAXX  06121 23933 42997 31402 10208 20094 30095 40150 57014 80001;
0165239330999992000090615004+60960+069060FM-12+0040USHH V0201401N002012200019N0100001N1+01671+00991101411ADDAA199000091GF103991001001999999001011KA1999M+02211MD1710011+9999REMSYN070AAXX  06151 23933 32997 31402 10167 20099 40141 57001 80001 333 10221;EQDQ01  00002PRCP99
0175239330999992000090618004+60960+069060FM-12+0040USHH V0201701N002012200019N0100001N1+01591+01001101371ADDAA199000091GA1001+999999999GF100991001001999999001001KA1999M+02211MD1710041+9999REMSYN064AAXX  06181 23933 32997 01702 10159 20100 40137 57004 333 10221;EQDQ01  00002PRCP99
0122239330999992000090621004+60960+069060FM-12+0040USHH V0201401N002012200019N0100001N1+01431+00941101281ADDGA1001+999999999GF100991001001999999001001MD1710091+9999REMSYN054AAXX  06211 23933 42997 01402 10143 20094 40128 57009;
0133239330999992000090700004+60960+069060FM-12+0040USHH V0201001N002019999999N0100001N1+01251+00921101211ADDGF106991001001999999001011MA1999999100651MD1710071+9999REMSYN066AAXX  07001 23933 42997 61002 10125 20092 30065 40121 57007 80001;
0152239330999992000090703004+60960+069060FM-12+0040USHH V0201501N002019999999N0100001N1+01281+00861101351ADDAA199000091GF107991071001999999031011MD1310141+9999REMSYN070AAXX  07031 23933 32997 71502 10128 20086 40135 53014 87031 333 55126;EQDQ01  00002PRCP99
0165239330999992000090706004+60960+069060FM-12+0040USHH V0201201N002012200019N0100001N1+01471+01091101181ADDAA199000091GF104991041001999999031001KA1999N+01121MD1810171+9999REMSYN070AAXX  07061 23933 32997 41202 10147 20109 40118 58017 84030 333 20112;EQDQ01  00002PRCP99
0112239330999992000090709004+60960+069060FM-12+0040USHH V0202001N003010300019N0100001N1+02061+01161101161ADDGF108991031051008001071999MD1710011+9999REMSYN060AAXX  07091 23933 42597 82003 10206 20116 40116 57001 8357/;
0161239330999992000090712004+60960+069060FM-12+0040USHH V0202101N003010075019N0100001N1+01941+01141101131ADDAY181061AY211061GF108991081031008001999999MA1999999100581MD1710031+9999MW1251REMSYN072AAXX  07121 23933 41597 82103 10194 20114 30058 40113 57003 72581 883//;
0163239330999992000090715004+60960+069060FM-12+0040USHH V0202301N003010075019N0100001N1+01601+01021101071ADDAY181031AY221031GF105991051051008001001001KA1999M+02091MD1710071+9999MW1021REMSYN076AAXX  07151 23933 /1597 52303 10160 20102 40107 57007 70282 85500 333 10209;
0190239330999992000090718004+60960+069060FM-12+0040USHH V0202401N002012200019N0100001N1+01511+01101101101ADDAA100000791AY181061AY211061GA1001+999999999GF100991001001999999001001KA1999M+02091MD1310031+9999MW1021REMSYN076AAXX  07181 23933 11997 02402 10151 20110 40110 53003 69900 70281 333 10209;
0122239330999992000090721004+60960+069060FM-12+0040USHH V0202501N002012200019N0100001N1+01421+01141101051ADDGA1001+999999999GF100991001001999999001001MD1810031+9999REMSYN054AAXX  07211 23933 42997 02502 10142 20114 40105 58003;
0133239330999992000090800004+60960+069060FM-12+0040USHH V0202701N002010042019N0100001N1+01371+01031101061ADDGF108991081051004501999999MA1999999100501MD1710011+9999REMSYN066AAXX  08001 23933 42497 82702 10137 20103 30050 40106 57001 885//;
0152239330999992000090803004+60960+069060FM-12+0040USHH V0202901N003010075019N0100001N1+01211+00991101121ADDAA199000091GF108991061051008001031999MD1310061+9999REMSYN070AAXX  08031 23933 32597 82903 10121 20099 40112 53006 8653/ 333 55056;EQDQ01  00002PRCP99
0165239330999992000090806004+60960+069060FM-12+0040USHH V0202801N003019999999N0100001N1+01221+00901101181ADDAA199000091GF106991021001999999031011KA1999N+01211MD1210061+9999REMSYN070AAXX  08061 23933 32997 62803 10122 20090 40118 52006 82031 333 20121;EQDQ01  00002PRCP99
0112239330999992000090809004+60960+069060FM-12+0040USHH V0202501N003010075019N0100001N1+01411+00561101231ADDGF106991051051008001031999MD1210051+9999REMSYN060AAXX  08091 23933 42597 62503 10141 20056 40123 52005 8553/;
0133239330999992000090812004+60960+069060FM-12+0040USHH V0202801N002010042019N0100001N1+01291+00431101301ADDGF108991081051004501999999MA1999999100741MD1210071+9999REMSYN066AAXX  08121 23933 42497 82802 10129 20043 30074 40130 52007 885//;
0165239330999992000090815004+60960+069060FM-12+0040USHH V0202601N002010042019N0100001N1+01151+00461101361ADDAA199000091GF108991081031004501999999KA1999M+01541MD1210061+9999REMSYN070AAXX  08151 23933 32497 82602 10115 20046 40136 52006 883// 333 10154;EQDQ01  00002PRCP99
0174239330999992000090818004+60960+069060FM-12+0040USHH V0203001N002010042019N0100001N1+01031+00621100981ADDAA199000021AY181061AY221061GF108991081031004501999999KA1999M+01541MD1810381+9999MW1251REMSYN076AAXX  08181 23933 31497 83002 10103 20062 40098 58038 72582 883// 333 10154;
0140239330999992000090821004+60960+069060FM-12+0040USHH V0203401N002010042019N0100001N1+00791+00641100821ADDAY191031AY281031GF108991081031004501999999MD1710171+9999MW1951REMSYN066AAXX  08211 23933 41497 83402 10079 20064 40082 57017 79598 883//;
0161239330999992000090900004+60960+069060FM-12+0040USHH V0203001N001010042019N0100001N1+00771+00651100611ADDAY191061AY281061GF108991081031004501999999MA1999999100041MD1710211+9999MW1801REMSYN072AAXX  09001 23933 41497 83001 10077 20065 30004 40061 57021 78098 883//;
0150239330999992000090903004+60960+069060FM-12+0040USHH V0203001N003010042019N0100001N1+00771+00711100591ADDAY181031AY221031GF108991081031004501999999MD1710021+9999MW1801REMSYN076AAXX  09031 23933 /1497 83003 10077 20071 40059 57002 78082 883// 333 55056;
0180239330999992000090906004+60960+069060FM-12+0040USHH V0202801N003010042019N0100001N1+00841+00581100641ADDAA100016091AY181061AY251061GF106991061031004501001001KA1999N+00751MD1310051+9999MW1021REMSYN082AAXX  09061 23933 11497 62803 10084 20058 40064 53005 60160 70285 86300 333 20075;
0140239330999992000090909004+60960+069060FM-12+0040USHH V0203001N004010090019N0100001N1+00951+00531100941ADDAY181031AY221031GF107991071081004501001001MD1210301+9999MW1021REMSYN066AAXX  09091 23933 41497 73004 10095 20053 40094 52030 70282 87800;
0161239330999992000090912004+60960+069060FM-12+0040USHH V0202801N004010042019N0100001N1+00801+00581101251ADDAY181061AY221061GF107991071031004501001001MA1999999100681MD1210311+9999MW1801REMSYN072AAXX  09121 23933 41497 72804 10080 20058 30068 40125 52031 78082 87300;
0173239330999992000090915004+60960+069060FM-12+0040USHH V0202701N002012200019N0100001N1+00611+00131101451ADDAY181031AY211031GA1001+999999999GF100991001001999999001001KA1999M+01011MD1210201+9999MW1021REMSYN070AAXX  09151 23933 /1997 02702 10061 20013 40145 52020 70281 333 10101;
0162239330999992000090918004+60960+069060FM-12+0040USHH V0202501N002012200019N0100001N1+00431+00151101431ADDAA112011991GA1001+999999999GF100991001001999999001001KA1999M+01011MD1810041+9999REMSYN070AAXX  09181 23933 /2997 02502 10043 20015 40143 58004 60122 333 10101;
0122239330999992000090921004+60960+069060FM-12+0040USHH V0202301N002012200019N0100001N1+00321+00111101421ADDGA1001+999999999GF100991001001999999001001MD1710011+9999REMSYN054AAXX  09211 23933 42997 02302 10032 20011 40142 57001;
0143239330999992000091000004+60960+069060FM-12+0040USHH V0202501N002012200019N0100001N1+00241+00141101461ADDGA1001+999999999GF100991001001999999001001MA1999999100871MD1310041+9999REMSYN060AAXX  10001 23933 42997 02502 10024 20014 30087 40146 53004;
0152239330999992000091003004+60960+069060FM-12+0040USHH V0202601N001012200019N0100001N1+00471+00081101451ADDAA199000091GF102991001001999999001021MD1810011+9999REMSYN070AAXX  10031 23933 32997 22601 10047 20008 40145 58001 80002 333 55014;EQDQ01  00002PRCP99
0165239330999992000091006004+60960+069060FM-12+0040USHH V0202701N002019999999N0100001N1+00901+00231101391ADDAA199000091GF107991071001999999031001KA1999N+00241MD1710041+9999REMSYN070AAXX  10061 23933 32997 72702 10090 20023 40139 57004 87030 333 20024;EQDQ01  00002PRCP99
0112239330999992000091009004+60960+069060FM-12+0040USHH V0203101N001010042019N0100001N1+01051+00211101301ADDGF107991071031004501001001MD1710081+9999REMSYN060AAXX  10091 23933 42497 73101 10105 20021 40130 57008 87300;
0133239330999992000091012004+60960+069060FM-12+0040USHH V0202001N001010075019N0100001N1+01041+00301101221ADDGF107991071051008001001001MA1999999100661MD1710081+9999REMSYN066AAXX  10121 23933 42597 72001 10104 20030 30066 40122 57008 87500;
0165239330999992000091015004+60960+069060FM-12+0040USHH V0201701N001010042019N0100001N1+00871+00301101321ADDAA199000091GF107991071031004501001001KA1999M+01111MD1310091+9999REMSYN070AAXX  10151 23933 32497 71701 10087 20030 40132 53009 87300 333 10111;EQDQ01  00002PRCP99
0165239330999992000091018004+60960+069060FM-12+0040USHH V0202201N002010042019N0100001N1+00811+00321101321ADDAA199000091GF107991071031004501001001KA1999M+01111MD1410001+9999REMSYN070AAXX  10181 23933 32497 72202 10081 20032 40132 54000 87300 333 10111;EQDQ01  00002PRCP99
0112239330999992000091021004+60960+069060FM-12+0040USHH V0209999C000019999999N0100001N1+00651+00261101041ADDGF107991071001004501031001MD1810281+9999REMSYN060AAXX  10211 23933 42497 70000 10065 20026 40104 58028 87030;
0133239330999992000091100004+60960+069060FM-12+0040USHH V0201101N002010075019N0100001N1+00541+00371100951ADDGF107991071051008001001001MA1999999100381MD1710091+9999REMSYN066AAXX  11001 23933 42597 71102 10054 20037 30038 40095 57009 87500;
0152239330999992000091103004+60960+069060FM-12+0040USHH V0201101N001010012019N0100001N1+00661+00431100981ADDAA199000091GF108991081061001501999999MD1310031+9999REMSYN070AAXX  11031 23933 32297 81101 10066 20043 40098 53003 886// 333 55075;EQDQ01  00002PRCP99
0112239330999992000091109004+60960+069060FM-12+0040USHH V0201501N003010300019N0100001N1+01151+00001100851ADDGF108991021011008001031091MD1710091+9999REMSYN060AAXX  11091 23933 42597 81503 10115 20000 40085 57009 82139;
0133239330999992000091112004+60960+069060FM-12+0040USHH V0201201N003010075019N0100001N1+01051+00021100791ADDGF108991081051008001999999MA1999999100231MD1710061+9999REMSYN066AAXX  11121 23933 42597 81203 10105 20002 30023 40079 57006 885//;
0165239330999992000091115004+60960+069060FM-12+0040USHH V0201301N001010075019N0100001N1+00901+00021100801ADDAA199000091GF106991061051008001001001KA1999M+01191MD1410001+9999REMSYN070AAXX  11151 23933 32597 61301 10090 20002 40080 54000 86500 333 10119;EQDQ01  00002PRCP99
0165239330999992000091118004+60960+069060FM-12+0040USHH V0200901N001010075019N0100001N1+00771+00211100721ADDAA199000091GF105991051051008001001001KA1999M+01191MD1810081+9999REMSYN070AAXX  11181 23933 32597 50901 10077 20021 40072 58008 85500 333 10119;EQDQ01  00002PRCP99
0112239330999992000091121004+60960+069060FM-12+0040USHH V0201201N001010042019N0100001N1+00681+00351100681ADDGF107991071051004501001001MD1710041+9999REMSYN060AAXX  11211 23933 42497 71201 10068 20035 40068 57004 87500;
0161239330999992000091200004+60960+069060FM-12+0040USHH V0200801N001010042019N0100001N1+00551+00311100671ADDAY161061AY221061GF108991081051004501999999MA1999999100101MD1710011+9999MW1611REMSYN072AAXX  12001 23933 41497 80801 10055 20031 30010 40067 57001 76162 885//;
0140239330999992000091203004+60960+069060FM-12+0040USHH V0200301N001010042019N0100001N1+00571+00431100671ADDAY161031AY221031GF108991061051004501031999MD1410001+9999MW1611REMSYN066AAXX  12031 23933 /1497 80301 10057 20043 40067 54000 76162 8653/;
0180239330999992000091206004+60960+069060FM-12+0040USHH V0200601N002010300019N0100001N1+00621+00411100701ADDAA100001091AY161061AY221061GF108991021071004501071999KA1999N+00531MD1310031+9999MW1611REMSYN082AAXX  12061 23933 11497 80602 10062 20041 40070 53003 60010 76162 8277/ 333 20053;
0140239330999992000091209004+60960+069060FM-12+0040USHH V0200601N003010042019N0100001N1+00681-00021100691ADDAY161031AY221031GF108991081051004501999999MD1810011+9999MW1021REMSYN066AAXX  12091 23933 41497 80603 10068 21002 40069 58001 70262 885//;
0161239330999992000091212004+60960+069060FM-12+0040USHH V0201001N003010042019N0100001N1+00701+00251100781ADDAY161061AY221061GF108991051071004501021999MA1999999100211MD1310091+9999MW1611REMSYN072AAXX  12121 23933 41497 81003 10070 20025 30021 40078 53009 76162 8572/;
0163239330999992000091215004+60960+069060FM-12+0040USHH V0200601N001010042019N0100001N1+00611+00131100911ADDAY161031AY221031GF108991081051004501999999KA1999M+00911MD1210131+9999MW1021REMSYN076AAXX  12151 23933 /1497 80601 10061 20013 40091 52013 70262 885// 333 10091;
0124239330999992000091218004+60960+069060FM-12+0040USHH V0209999C000019999999N0100001N1+00411+00151999999ADDGF105991021001999999031011KA1999M+00911ME1552059REMSYN064AAXX  12181 23933 12997 50000 10041 20015 45205 82031 333 10091;
0122239330999992000091221004+60960+069060FM-12+0040USHH V0209999C000012200019N0100001N1+00201+00041101041ADDGA1001+999999999GF100991001001999999001001MD1210061+9999REMSYN054AAXX  12211 23933 42997 00000 10020 20004 40104 52006;
0152239330999992000091300004+60960+069060FM-12+0040USHH V0209999C000012200019N0100001N1+00091+00011101281ADDGF104991001001999999001011MA1999999100691MD1210241+9999REMSYN066AAXX  13001 23933 42997 40000 10009 20001 30069 40128 52024 84001;EQDQ01+000042SCOTLC
0152239330999992000091303004+60960+069060FM-12+0040USHH V0209999C000012200019N0100001N1+00431+00121101321ADDAA199000091GF102991001001999999001011MD1210051+9999REMSYN070AAXX  13031 23933 32997 20000 10043 20012 40132 52005 80001 333 55000;EQDQ01  00002PRCP99
0165239330999992000091306004+60960+069060FM-12+0040USHH V0200901N001012200019N0100001N1+00811+00141101451ADDAA199000091GF102991021021008001001001KA1999N+00091MD1210171+9999REMSYN070AAXX  13061 23933 32597 20901 10081 20014 40145 52017 82200 333 20009;EQDQ01  00002PRCP99
0112239330999992000091309004+60960+069060FM-12+0040USHH V0200301N001012200019N0100001N1+01071+00091101381ADDGF102991011071004501031001MD1810061+9999REMSYN060AAXX  13091 23933 42497 20301 10107 20009 40138 58006 81730;
0133239330999992000091312004+60960+069060FM-12+0040USHH V0201301N002010042019N0100001N1+01001+00091101531ADDGF106991061051004501001001MA1999999100971MD1210151+9999REMSYN066AAXX  13121 23933 42497 61302 10100 20009 30097 40153 52015 86500;
0165239330999992000091315004+60960+069060FM-12+0040USHH V0201401N001012200019N0100001N1+00681+00271101551ADDAA199000091GF102991021031999999001001KA1999M+01191MD1210011+9999REMSYN070AAXX  13151 23933 32997 21401 10068 20027 40155 52001 82300 333 10119;EQDQ01  00002PRCP99
0181239330999992000091318004+60960+069060FM-12+0040USHH V0201001N002012200019N0100001N1+00361-00021101531ADDAA199000091GF103991031031999999001001KA1999M+99999MD1810031+9999REMSYN070AAXX  13181 23933 32997 31002 10036 21002 40153 58003 83300 333 10012;EQDQ01  00002PRCP99Q02 +00122ATMX  
0112239330999992000091321004+60960+069060FM-12+0040USHH V0201001N002012200019N0100001N1+00171-00211101481ADDGF102991021031999999001001MD1710051+9999REMSYN060AAXX  13211 23933 42997 21002 10017 21021 40148 57005 82300;
0133239330999992000091400004+60960+069060FM-12+0040USHH V0201001N003012200019N0100001N1+00151-00231101301ADDGF103991031031999999001001MA1999999100721MD1710171+9999REMSYN066AAXX  14001 23933 42997 31003 10015 21023 30072 40130 57017 83300;
0152239330999992000091403004+60960+069060FM-12+0040USHH V0201101N004010042019N0100001N1+00531+00121101171ADDAA199000091GF108991081021004501999999MD1710121+9999REMSYN070AAXX  14031 23933 32497 81104 10053 20012 40117 57012 882// 333 55097;EQDQ01  00002PRCP99
0174239330999992000091406004+60960+069060FM-12+0040USHH V0201001N006010075019N0100001N1+00631+00471101021ADDAA199000021AY161061AY221061GF108991081071008001999999KA1999N+00091MD1710151+9999MW1611REMSYN076AAXX  14061 23933 31597 81006 10063 20047 40102 57015 76162 887// 333 20009;
0140239330999992000091409004+60960+069060FM-12+0040USHH V0200801N006010042019N0020001N1+00701+00611100391ADDAY161031AY221031GF108991081071004501999999MD1710631+9999MW1611REMSYN066AAXX  14091 23933 41495 80806 10070 20061 40039 57063 76162 887//;
0161239330999992000091412004+60960+069060FM-12+0040USHH V0201101N006010042019N0020001N1+00731+00621099981ADDAY161061AY221061GF108991081071004501999999MA1999999099411MD1710411+9999MW1611REMSYN072AAXX  14121 23933 41495 81106 10073 20062 39941 49998 57041 76162 887//;
0163239330999992000091415004+60960+069060FM-12+0040USHH V0201101N004010042019N0020001N1+00821+00671099661ADDAY161031AY221031GF108991081071004501999999KA1999M+00861MD1710311+9999MW1611REMSYN076AAXX  14151 23933 /1495 81104 10082 20067 49966 57031 76162 887// 333 10086;
0180239330999992000091418004+60960+069060FM-12+0040USHH V0201201N006010042019N0100001N1+00831+00681099341ADDAA100019191AY161061AY221061GF108991081071004501999999KA1999M+00861MD1710321+9999MW1611REMSYN082AAXX  14181 23933 11497 81206 10083 20068 49934 57032 60190 76162 887// 333 10086;
0150239330999992000091421004+60960+069060FM-12+0040USHH V0201001N006010042019N0040001N1+00901+00711099001ADDAY161031AY221031GF108991081071004501999999MD1710341+9999MW1611REMSYN076AAXX  14211 23933 41496 81006 10090 20071 49900 57034 76162 887// 333 91114;
0171239330999992000091500004+60960+069060FM-12+0040USHH V0201401N006010042019N0040001N1+00991+00801098941ADDAY161061AY251061GF108991081061004501999999MA1999999098391MD1710051+9999MW1511REMSYN082AAXX  15001 23933 41496 81406 10099 20080 39839 49894 57005 75165 886// 333 91112;
0150239330999992000091503004+60960+069060FM-12+0040USHH V0201201N003010042019N0100001N1+00961+00801098981ADDAY181031AY221031GF108991081071004501999999MD1310021+9999MW1251REMSYN076AAXX  15031 23933 /1497 81203 10096 20080 49898 53002 72582 887// 333 55000;
0199239330999992000091506004+60960+069060FM-12+0040USHH V0201501N003010075019N0100001N1+01011+00711999999ADDAA100006191AY181061AY221061GF108991081031008001999999KA1999N+00831MD1210231+9999MW1811REMSYN082AAXX  15061 23933 11597 81503 10101 20071 49214 52023 60060 78182 883// 333 20083;EQDQ01+092143APOSLP
0140239330999992000091509004+60960+069060FM-12+0040USHH V0201301N004010075019N0100001N1+01191+00451099161ADDAY181031AY221031GF106991061031008001011001MD1810051+9999MW1021REMSYN066AAXX  15091 23933 41597 61304 10119 20045 49916 58005 70282 86310;
0161239330999992000091512004+60960+069060FM-12+0040USHH V0200901N003010300019N0100001N1+01101+00461099281ADDAY181061AY221061GF105991031031008001031011MA1999999098731MD1310121+9999MW1021REMSYN072AAXX  15121 23933 41597 50903 10110 20046 39873 49928 53012 70282 83331;
0163239330999992000091515004+60960+069060FM-12+0040USHH V0200501N002010075019N0100001N1+00851+00681099421ADDAY181031AY221031GF107991071031008001001001KA1999M+01271MD1210131+9999MW1021REMSYN076AAXX  15151 23933 /1597 70502 10085 20068 49942 52013 70282 87300 333 10127;
0171239330999992000091518004+60960+069060FM-12+0040USHH V0200601N002019999999N0100001N1+00811+00701099521ADDAA100000591GF106991999031004501001001KA1999M+01271MD1210101+9999REMSYN076AAXX  15181 23933 12497 60602 10081 20070 49952 52010 69940 87300 333 10127;EQDQ01+000072SCOTLC
0112239330999992000091521004+60960+069060FM-12+0040USHH V0200401N003010042019N0100001N1+00811+00741099671ADDGF107991071031004501001001MD1210151+9999REMSYN060AAXX  15211 23933 42497 70403 10081 20074 49967 52015 87300;
0161239330999992000091600004+60960+069060FM-12+0040USHH V0200301N005010042019N0100001N1+00621+00561099981ADDAY181061AY221061GF107991071031004501001001MA1999999099411MD1210301+9999MW1801REMSYN072AAXX  16001 23933 41497 70305 10062 20056 39941 49998 52030 78082 87300;
0150239330999992000091603004+60960+069060FM-12+0040USHH V0200301N004010042019N0100001N1+00591+00521100211ADDAY181031AY251031GF108991081061004501999999MD1210231+9999MW1511REMSYN076AAXX  16031 23933 /1497 80304 10059 20052 40021 52023 75185 886// 333 55047;
0180239330999992000091606004+60960+069060FM-12+0040USHH V0200401N004010042019N0100001N1+00541+00401100561ADDAA100001091AY181061AY251061GF108991081061004501999999KA1999N+00591MD1210351+9999MW1501REMSYN082AAXX  16061 23933 11497 80404 10054 20040 40056 52035 60010 75085 886// 333 20059;
0140239330999992000091609004+60960+069060FM-12+0040USHH V0200601N003010042019N0100001N1+00561+00321100911ADDAY151031AY221031GF108991061071004501021999MD1210351+9999MW1021REMSYN066AAXX  16091 23933 41497 80603 10056 20032 40091 52035 70252 8672/;
0133239330999992000091612004+60960+069060FM-12+0040USHH V0200201N002010300019N0100001N1+00611+00271101171ADDGF108991031071004501021999MA1999999100601MD1210261+9999REMSYN066AAXX  16121 23933 42497 80202 10061 20027 30060 40117 52026 8372/;
0135239330999992000091615004+60960+069060FM-12+0040USHH V0203401N001010042019N0100001N1+00581+00291101411ADDGF108991081061004501999999KA1999M+00631MD1210241+9999REMSYN070AAXX  16151 23933 /2497 83401 10058 20029 40141 52024 886// 333 10063;
0171239330999992000091618004+60960+069060FM-12+0040USHH V0200101N001010042019N0100001N1+00521+00141101641ADDAA100000091GF108991081061004501999999KA1999M+00631MD1210231+9999REMSYN076AAXX  16181 23933 12497 80101 10052 20014 40164 52023 60000 886// 333 10063;EQDQ01  00002PRCP00
0112239330999992000091621004+60960+069060FM-12+0040USHH V0200401N001010075019N0100001N1+00391+00131101771ADDGF107991071051008001001001MD1210131+9999REMSYN060AAXX  16211 23933 42597 70401 10039 20013 40177 52013 87500;
0133239330999992000091700004+60960+069060FM-12+0040USHH V0203301N002019999999N0100001N1+00261-00041101931ADDGF106991061031999999021001MA1999999101331MD1210151+9999REMSYN066AAXX  17001 23933 42997 63302 10026 21004 30133 40193 52015 86320;
0152239330999992000091703004+60960+069060FM-12+0040USHH V0200301N002010075019N0100001N1+00371+00031102011ADDAA199000091GF108991081051008001999999MD1210091+9999REMSYN070AAXX  17031 23933 32597 80302 10037 20003 40201 52009 885// 333 55000;EQDQ01  00002PRCP99
0165239330999992000091706004+60960+069060FM-12+0040USHH V0201101N001010075019N0100001N1+00501+00091102021ADDAA199000091GF108991081051008001999999KA1999N+00261MD1210021+9999REMSYN070AAXX  17061 23933 32597 81101 10050 20009 40202 52002 885// 333 20026;EQDQ01  00002PRCP99
0112239330999992000091709004+60960+069060FM-12+0040USHH V0201001N002010300019N0100001N1+00641+00051101881ADDGF108991031051008001051001MD1810131+9999REMSYN060AAXX  17091 23933 42597 81002 10064 20005 40188 58013 83550;
0133239330999992000091712004+60960+069060FM-12+0040USHH V0200701N002010075019N0100001N1+00631+00031101801ADDGF108991081051008001999999MA1999999101231MD1710081+9999REMSYN066AAXX  17121 23933 42597 80702 10063 20003 30123 40180 57008 885//;
0165239330999992000091715004+60960+069060FM-12+0040USHH V0201001N002010075019N0100001N1+00481+00151101661ADDAA199000091GF107991071051008001001001KA1999M+00681MD1710161+9999REMSYN070AAXX  17151 23933 32597 71002 10048 20015 40166 57016 87500 333 10068;EQDQ01  00002PRCP99
0165239330999992000091718004+60960+069060FM-12+0040USHH V0201001N002010075019N0100001N1+00401+00061101531ADDAA199000091GF107991071051008001001001KA1999M+00681MD1710131+9999REMSYN070AAXX  17181 23933 32597 71002 10040 20006 40153 57013 87500 333 10068;EQDQ01  00002PRCP99
0112239330999992000091721004+60960+069060FM-12+0040USHH V0200701N002019999999N0100001N1+00361+00041101311ADDGF108991081001999999021999MD1710221+9999REMSYN060AAXX  17211 23933 42997 80702 10036 20004 40131 57022 8802/;
0133239330999992000091800004+60960+069060FM-12+0040USHH V0201001N003019999999N0100001N1+00381+00091101031ADDGF108991081001999999071999MA1999999100441MD1710281+9999REMSYN066AAXX  18001 23933 42997 81003 10038 20009 30044 40103 57028 8807/;
0150239330999992000091803004+60960+069060FM-12+0040USHH V0200801N003019999999N0100001N1+00431+00261100781ADDAY161031AY221031GF108991081001999999071999MD1710241+9999MW1611REMSYN076AAXX  18031 23933 /1997 80803 10043 20026 40078 57024 76162 8807/ 333 55000;
0180239330999992000091806004+60960+069060FM-12+0040USHH V0200701N004019999999N0100001N1+00551+00311100581ADDAA100000791AY161061AY221061GF108991081001999999021999KA1999N+00331MD1710191+9999MW1611REMSYN082AAXX  18061 23933 11997 80704 10055 20031 40058 57019 69900 76162 8802/ 333 20033;
0140239330999992000091809004+60960+069060FM-12+0040USHH V0200901N004010042019N0100001N1+00511+00371100431ADDAY161031AY221031GF108991051071004501021999MD1710151+9999MW1611REMSYN066AAXX  18091 23933 41497 80904 10051 20037 40043 57015 76162 8572/;
0161239330999992000091812004+60960+069060FM-12+0040USHH V0201001N004010042019N0100001N1+00441+00321100491ADDAY161061AY221061GF108991081001004501021999MA1999999099911MD1310051+9999MW1611REMSYN072AAXX  18121 23933 41497 81004 10044 20032 39991 40049 53005 76162 8802/;
0182239330999992000091815004+60960+069060FM-12+0040USHH V0200501N003010042019N0100001N1+00961+00211100381ADDAY161031AY221031GF108991061071004501021999KA1999M+99999MD1810111+9999MW1611REMSYN076AAXX  18151 23933 /1497 80503 10096 20021 40038 58011 76162 8672/ 333 10069;EQDQ01 +00692ATMX  
0180239330999992000091818004+60960+069060FM-12+0040USHH V0200401N004010042019N0100001N1+00381+00201100291ADDAA100070191AY161061AY221061GF108991061071004501021999KA1999M+00691MD1710091+9999MW1601REMSYN082AAXX  18181 23933 11497 80404 10038 20020 40029 57009 60700 76062 8672/ 333 10069;
0140239330999992000091821004+60960+069060FM-12+0040USHH V0200301N003010042019N0100001N1+00361+00131100271ADDAY161031AY221031GF108991061071004501021999MD1710021+9999MW1601REMSYN066AAXX  18211 23933 41497 80303 10036 20013 40027 57002 76062 8672/;
0161239330999992000091900004+60960+069060FM-12+0040USHH V0203401N003010042019N0100001N1+00351+00001100271ADDAY161061AY221061GF108991061071004501021999MA1999999099691MD1410001+9999MW1601REMSYN072AAXX  19001 23933 41497 83403 10035 20000 39969 40027 54000 76062 8672/;
0169239330999992000091903004+60960+069060FM-12+0040USHH V0203201N003019999999N0100001N1+00321-00121100311ADDAY161031AY221031GF105991999031999999011001MD1310041+9999MW1601REMSYN076AAXX  19031 23933 /1997 53203 10032 21012 40031 53004 76062 80310 333 55000;EQDQ01+000002SCOTLC
0152239330999992000091906004+60960+069060FM-12+0040USHH V0203201N003019999999N0100001N1+00621-00161100461ADDAA100001091GF105991001001999999001011KA1999N+00331MD1210161+9999REMSYN076AAXX  19061 23933 12997 53203 10062 21016 40046 52016 60010 80001 333 20033;
0112239330999992000091909004+60960+069060FM-12+0040USHH V0203201N004012200019N0100001N1+00701-00251100441ADDGF105991031031008001001011MD1810031+9999REMSYN060AAXX  19091 23933 42597 53204 10070 21025 40044 58003 83301;
0133239330999992000091912004+60960+069060FM-12+0040USHH V0203001N002019999999N0100001N1+00621-00341100561ADDGF108991031001999999031011MA1999999099991MD1310131+9999REMSYN066AAXX  19121 23933 42997 83002 10062 21034 39999 40056 53013 83031;
0146239330999992000091915004+60960+069060FM-12+0040USHH V0203001N003019999999N0100001N1+00521+00351100581ADDAA199000021GF108991051001999999031011KA1999M+00781MD1210021+9999REMSYN070AAXX  19151 23933 32997 83003 10052 20035 40058 52002 85031 333 10078;
0146239330999992000091918004+60960+069060FM-12+0040USHH V0203001N002019999999N0100001N1+00481+00321100591ADDAA112031091GF108991999999999999999999KA1999M+00781MD1410001+9999REMSYN070AAXX  19181 23933 32997 83002 10048 20032 40059 54000 60312 333 10078;
0112239330999992000091921004+60960+069060FM-12+0040USHH V0203001N003019999999N0100001N1+00261+00051100621ADDGF108991061001999999031011MD1310031+9999REMSYN060AAXX  19211 23933 42997 83003 10026 20005 40062 53003 86031;
0161239330999992000092000004+60960+069060FM-12+0040USHH V0202001N002019999999N0100001N1+00401+00141100431ADDAY161061AY221061GF108991081001999999071999MA1999999099851MD1810191+9999MW1611REMSYN072AAXX  20001 23933 41997 82002 10040 20014 39985 40043 58019 76162 8807/;
0150239330999992000092003004+60960+069060FM-12+0040USHH V0202301N003010042019N0100001N1+00521+00471100251ADDAY161031AY221031GF108991061071004501021999MD1710171+9999MW1021REMSYN076AAXX  20031 23933 /1497 82303 10052 20047 40025 57017 70262 8672/ 333 55091;
0152239330999992000092006004+60960+069060FM-12+0040USHH V0202701N003010042019N0100001N1+00811+00701100081ADDAA100000591GF108991051071004501071999KA1999N+00231MD1710171+9999REMSYN076AAXX  20061 23933 12497 82703 10081 20070 40008 57017 69940 8577/ 333 20023;
0140239330999992000092009004+60960+069060FM-12+0040USHH V0202601N003010042019N0100001N1+00891+00781100051ADDAY181031AY221031GF108991081031004501999999MD1710031+9999MW1801REMSYN066AAXX  20091 23933 41497 82603 10089 20078 40005 57003 78082 883//;
0161239330999992000092012004+60960+069060FM-12+0040USHH V0202401N003010042019N0100001N1+01061+00641100111ADDAY181061AY221061GF108991051031004501021999MA1999999099551MD1310061+9999MW1021REMSYN072AAXX  20121 23933 41497 82403 10106 20064 39955 40011 53006 70282 8532/;
0182239330999992000092015004+60960+069060FM-12+0040USHH V0202301N003010042019N0100001N1+00901+00591099971ADDAY181031AY221031GF108991061031004501021999KA1999M+99999MD1810151+9999MW1021REMSYN076AAXX  20151 23933 /1497 82303 10090 20059 49997 58015 70282 8632/ 333 10011;EQDQ01 +00112ATMX  
0199239330999992000092018004+60960+069060FM-12+0040USHH V0202601N003010042019N0100001N1+00801+00621099771ADDAA100001091AY181061AY201061GF108991081031004501999999KA1999M+99999MD1710191+9999MW1821REMSYN082AAXX  20181 23933 11497 82603 10080 20062 49977 57019 60010 78280 883// 333 10011;EQDQ01 +00112ATMX  
0140239330999992000092021004+60960+069060FM-12+0040USHH V0202401N003010042019N0100001N1+00721+00481099591ADDAY181031AY221031GF108991061031004501071001MD1710181+9999MW1021REMSYN066AAXX  20211 23933 41497 82403 10072 20048 49959 57018 70282 86370;
0161239330999992000092100004+60960+069060FM-12+0040USHH V0202601N004010042019N0100001N1+00681+00461099561ADDAY151061AY221061GF108991081061004501999999MA1999999099011MD1710021+9999MW1511REMSYN072AAXX  21001 23933 41497 82604 10068 20046 39901 49956 57002 75152 886//;
0150239330999992000092103004+60960+069060FM-12+0040USHH V0203501N003010075019N0100001N1+00101-00041099761ADDAY181031AY251031GF108991081031008001999999MD1310181+9999MW1831REMSYN076AAXX  21031 23933 /1597 83503 10010 21004 49976 53018 78385 883// 333 55000;
0180239330999992000092106004+60960+069060FM-12+0040USHH V0203501N003010075019N0040001N1+00051-00091100041ADDAA100005191AY181061AY251061GF108991081031008001999999KA1999N+00051MD1210271+9999MW1851REMSYN082AAXX  21061 23933 11596 83503 10005 21009 40004 52027 60050 78585 883// 333 20005;
0140239330999992000092109004+60960+069060FM-12+0040USHH V0203401N003010075019N0100001N1+00071-00041100531ADDAY181031AY271031GF108991081031008001999999MD1210491+9999MW1851REMSYN066AAXX  21091 23933 41597 83403 10007 21004 40053 52049 78587 883//;
0161239330999992000092112004+60960+069060FM-12+0040USHH V0203201N004010075019N0040001N1+00021-00151100871ADDAY181061AY271061GF108991081031008001999999MA1999999100291MD1210341+9999MW1851REMSYN072AAXX  21121 23933 41596 83204 10002 21015 30029 40087 52034 78587 883//;
0163239330999992000092115004+60960+069060FM-12+0040USHH V0203001N004010075019N0100001N1-00011-00421101121ADDAY171031AY221031GF108991081051008001999999KA1999M+00101MD1210231+9999MW1021REMSYN076AAXX  21151 23933 /1597 83004 11001 21042 40112 52023 70272 885// 333 10010;
0162239330999992000092118004+60960+069060FM-12+0040USHH V0203301N003012200019N0200001N1-00101-00421101121ADDAA100002091GA1001+999999999GF100991001001999999001001KA1999M+00101MD1410001+9999REMSYN070AAXX  21181 23933 12998 03303 11010 21042 40112 54000 60020 333 10010;
0112239330999992000092121004+60960+069060FM-12+0040USHH V0202901N003010075019N0100001N1-00101-00461101201ADDGF108991061051008001999999MD1310081+9999REMSYN060AAXX  21211 23933 42597 82903 11010 21046 40120 53008 865//;
0133239330999992000092200004+60960+069060FM-12+0040USHH V0203201N004010300019N0100001N1-00121-00511101341ADDGF106991031011004501031011MA1999999100741MD1210141+9999REMSYN066AAXX  22001 23933 42497 63204 11012 21051 30074 40134 52014 83131;
0176239330999992000092203004+60960+069060FM-12+0040USHH V0203001N004010300019N0100001N1-00111-00501101411ADDAA124999999GF105991031071004501031001IA1129IA2999-00509KA1120N-00171MD1210071+9999REMSYN082AAXX  22031 23933 32497 53004 11011 21050 40141 52007 83730 333 21017 33105 7002/;
0174239330999992000092206004+60960+069060FM-12+0040USHH V0202701N004010042019N0100001N1+00011-00451101521ADDAA199000021AY181061AY221061GF106991061031004501031001KA1999N-00171MD1210111+9999MW1801REMSYN076AAXX  22061 23933 31497 62704 10001 21045 40152 52011 78082 86330 333 21017;
0112239330999992000092209004+60960+069060FM-12+0040USHH V0203001N004010042019N0100001N1+00151-00171101591ADDGF108991081031004501999999MD1210081+9999REMSYN060AAXX  22091 23933 42497 83004 10015 21017 40159 52008 883//;
0161239330999992000092212004+60960+069060FM-12+0040USHH V0202901N004010042019N0040001N1+00121-00261101611ADDAY181061AY271061GF108991081071004501999999MA1999999101021MD1210021+9999MW1731REMSYN072AAXX  22121 23933 41496 82904 10012 21026 30102 40161 52002 77387 887//;
0163239330999992000092215004+60960+069060FM-12+0040USHH V0202701N003010300019N0100001N1+00111-00311101671ADDAY181031AY221031GF106991021071004501031001KA1999M+00201MD1210061+9999MW1021REMSYN076AAXX  22151 23933 /1497 62703 10011 21031 40167 52006 70282 82730 333 10020;
0180239330999992000092218004+60960+069060FM-12+0040USHH V0202701N004010042019N0040001N1+00041-00101101521ADDAA100000791AY181061AY221061GF108991081031004501999999KA1999M+00201MD1810151+9999MW1851REMSYN082AAXX  22181 23933 11496 82704 10004 21010 40152 58015 69900 78582 883// 333 10020;
0140239330999992000092221004+60960+069060FM-12+0040USHH V0202501N003010042019N0040001N1+00021-00091101441ADDAY181031AY221031GF108991081031004501999999MD1710081+9999MW1851REMSYN066AAXX  22211 23933 42496 82503 10002 21009 40144 57008 78582 883//;
0152239330999992000092300004+60960+069060FM-12+0040USHH V0202701N006012200019N0200001N1-00101-00231101111ADDGF102991999051008001001001MA1999999100391MD1210161+9999REMSYN066AAXX  23001 23933 42598 22706 11010 21023 30039 40111 52016 87500;EQDQ01+000072SCOTLC
0150239330999992000092303004+60960+069060FM-12+0040USHH V0202201N003010042019N0100001N1+00021-00071101211ADDAY181031AY221031GF108991081071004501999999MD1410001+9999MW1711REMSYN076AAXX  23031 23933 /1497 82203 10002 21007 40121 54000 77182 887// 333 55059;
0180239330999992000092306004+60960+069060FM-12+0040USHH V0203101N001010042019N0100001N1+00111+00001101311ADDAA100003091AY181061AY221061GF108991081071004501999999KA1999N+00001MD1210101+9999MW1711REMSYN082AAXX  23061 23933 11497 83101 10011 20000 40131 52010 60030 77182 887// 333 20000;
0140239330999992000092309004+60960+069060FM-12+0040USHH V0203401N002010042019N0100001N1+00261+00081101631ADDAY181031AY221031GF108991081031004501999999MD1210321+9999MW1501REMSYN066AAXX  23091 23933 41497 83402 10026 20008 40163 52032 75082 883//;
0133239330999992000092312004+60960+069060FM-12+0040USHH V0203301N002010042019N0100001N1+00251+00011101701ADDGF108991061031004501031999MA1999999101111MD1210071+9999REMSYN066AAXX  23121 23933 41497 83302 10025 20001 30111 40170 52007 8633/;
0163239330999992000092315004+60960+069060FM-12+0040USHH V0203401N003010042019N0040001N1+00031-00051101841ADDAY181031AY271031GF108991061071004501021999KA1999M+00301MD1210141+9999MW1711REMSYN076AAXX  23151 23933 /1496 83403 10003 21005 40184 52014 77187 8672/ 333 10030;
0180239330999992000092318004+60960+069060FM-12+0040USHH V0203101N002010042019N0100001N1-00041-00101101991ADDAA100001091AY181061AY271061GF106991061071004501001001KA1999M+00301MD1210141+9999MW1711REMSYN082AAXX  23181 23933 11497 63102 11004 21010 40199 52014 60010 77187 86700 333 10030;
0140239330999992000092321004+60960+069060FM-12+0040USHH V0200301N003010042019N0100001N1-00031-00151102141ADDAY171031AY221031GF106991061071004501001001MD1210151+9999MW1021REMSYN066AAXX  23211 23933 41497 60303 11003 21015 40214 52015 70272 86700;
0161239330999992000092400004+60960+069060FM-12+0040USHH V0200401N002010042019N0100001N1-00031-00121102281ADDAY171061AY221061GF106991061071004501001001MA1999999101681MD1210141+9999MW1021REMSYN072AAXX  24001 23933 41497 60402 11003 21012 30168 40228 52014 70272 86700;
0157239330999992000092403004+60960+069060FM-12+0040USHH V0200101N003019999999N0100001N1-00091-00211999999ADDGF105991051001999999031001MD1210141+9999REMSYN070AAXX  24031 23933 /2997 50103 11009 21021 40824 52014 85030 333 55000;EQDQ01+108243APOSLPQ02 108243APOSLP
0171239330999992000092406004+60960+069060FM-12+0040USHH V0203401N002012200019N0100001N1+00161-00351102502ADDAA100003091GF105991031021008001001011KA1999N-00091MD1210091+9999REMSYN076AAXX  24061 23933 12597 53402 10016 21035 40250 52009 60030 83201 333 21009;EQDQ01+102503APOSLP
0112239330999992000092409004+60960+069060FM-12+0040USHH V0203601N002010075019N0100001N1+00251-00311102541ADDGF107991071051008001001001MD1410001+9999REMSYN060AAXX  24091 23933 42597 73602 10025 21031 40254 54204 87500;
0133239330999992000092412004+60960+069060FM-12+0040USHH V0200401N001010075019N0100001N1+00261-00301102681ADDGF106991061051008001001001MA1999999102091MD1210131+9999REMSYN066AAXX  24121 23933 42597 60401 10026 21030 30209 40268 52013 86500;
0165239330999992000092415004+60960+069060FM-12+0040USHH V0209999C000010042019N0100001N1+00101-00251102661ADDAA199000091GF108991061031004501031999KA1999M+00341MD1810021+9999REMSYN070AAXX  24151 23933 32497 80000 10010 21025 40266 58002 8633/ 333 10034;EQDQ01  00002PRCP99
0175239330999992000092418004+60960+069060FM-12+0040USHH V0209999C000012200019N0100001N1-00191-00351102501ADDAA199000091GA1001+999999999GF100991001001999999001001KA1999M+00341MD1710171+9999REMSYN064AAXX  24181 23933 32997 00000 11019 21035 40250 57017 333 10034;EQDQ01  00002PRCP99
0112239330999992000092421004+60960+069060FM-12+0040USHH V0209999C000012200019N0100001N1-00221-00351102411ADDGF102991021001999999031001MD1710091+9999REMSYN060AAXX  24211 23933 42997 20000 11022 21035 40241 57009 82030;
0133239330999992000092500004+60960+069060FM-12+0040USHH V0201001N011012200019N0100001N1-00041-00281102271ADDGF103991031001999999031001MA1999999101671MD1710141+9999REMSYN066AAXX  25001 23933 42997 31011 11004 21028 30167 40227 57014 83030;
0152239330999992000092503004+60960+069060FM-12+0040USHH V0202201N002010042019N0100001N1+00021-00611102081ADDAA199000091GF107991071061004501001001MD1710191+9999REMSYN070AAXX  25031 23933 32497 72202 10002 21061 40208 57019 87600 333 55000;EQDQ01  00002PRCP99
0165239330999992000092506004+60960+069060FM-12+0040USHH V0202201N003010042019N0100001N1+00201-00821102031ADDAA199000091GF107991071061004501001001KA1999N-00221MD1710041+9999REMSYN070AAXX  25061 23933 32497 72203 10020 21082 40203 57004 87600 333 21022;EQDQ01  00002PRCP99
0112239330999992000092509004+60960+069060FM-12+0040USHH V0202201N004010042019N0100001N1+00341-00831101801ADDGF107991071061004501001001MD1710231+9999REMSYN060AAXX  25091 23933 42497 72204 10034 21083 40180 57023 87600;
0133239330999992000092512004+60960+069060FM-12+0040USHH V0202001N001010042019N0100001N1+00331-00771101471ADDGF107991061021004501001011MA1999999100881MD1710331+9999REMSYN066AAXX  25121 23933 42497 72001 10033 21077 30088 40147 57033 86201;
0165239330999992000092515004+60960+069060FM-12+0040USHH V0202001N001019999999N0100001N1+00171-00501101361ADDAA199000091GF108991081001999999021999KA1999M+00531MD1710111+9999REMSYN070AAXX  25151 23933 32997 82001 10017 21050 40136 57011 8802/ 333 10053;EQDQ01  00002PRCP99
0165239330999992000092518004+60960+069060FM-12+0040USHH V0201801N002019999999N0100001N1+00161-00281101151ADDAA199000091GF108991081001999999021999KA1999M+00531MD1710211+9999REMSYN070AAXX  25181 23933 32997 81802 10016 21028 40115 57021 8802/ 333 10053;EQDQ01  00002PRCP99
0140239330999992000092521004+60960+069060FM-12+0040USHH V0201801N002019999999N0100001N1+00081-00151101011ADDAY171031AY221031GF108991081001999999021999MD1710141+9999MW1701REMSYN066AAXX  25211 23933 41997 81802 10008 21015 40101 57014 77072 8802/;
0161239330999992000092600004+60960+069060FM-12+0040USHH V0201601N002019999999N0100001N1+00041-00051100871ADDAY171061AY221061GF108991081001999999021999MA1999999100291MD1710131+9999MW1701REMSYN072AAXX  26001 23933 41997 81602 10004 21005 30029 40087 57013 77072 8802/;
0179239330999992000092603004+60960+069060FM-12+0040USHH V0201601N002010300019N0100001N1+00011-00051100651ADDAJ100019199999999AY171031AY221031GF108991021071004501021999IA1309MD1710221+9999MW1711REMSYN082AAXX  26031 23933 /1497 81602 10001 21005 40065 57022 77172 8272/ 333 42001 55068;
0209239330999992000092606004+60960+069060FM-12+0040USHH V0201501N002010042019N0100001N1+00081-00031100661ADDAA100001091AY171061AY221061GF108991999071004501021999KA1999N+00011MD1310011+9999REMSYN082AAXX  26061 23933 11497 81502 10008 21003 40066 53001 60010 77872 8872/ 333 20001;EQDQ01+000082SCOTLCQ02+000782PRSWM1
0140239330999992000092609004+60960+069060FM-12+0040USHH V0201601N003010075019N0040001N1+00161+00051100521ADDAY181031AY271031GF108991081031008001999999MD1810141+9999MW1851REMSYN066AAXX  26091 23933 41596 81603 10016 20005 40052 58014 78587 883//;
0161239330999992000092612004+60960+069060FM-12+0040USHH V0201601N003010075019N0100001N1+00211+00081100481ADDAY181061AY221061GF108991081031008001999999MA1999999099901MD1710041+9999MW1021REMSYN072AAXX  26121 23933 41597 81603 10021 20008 39990 40048 57004 70282 883//;
0163239330999992000092615004+60960+069060FM-12+0040USHH V0201401N003010006019N0100001N1+00201+00071100481ADDAY181031AY221031GF108991081031000751999999KA1999M+00241MD1410001+9999MW1801REMSYN076AAXX  26151 23933 /1197 81403 10020 20007 40048 54000 78082 883// 333 10024;
0180239330999992000092618004+60960+069060FM-12+0040USHH V0201401N003010075019N0100001N1+00121+00011100321ADDAA100001091AY181061AY221061GF108991081031008001999999KA1999M+00241MD1810161+9999MW1801REMSYN082AAXX  26181 23933 11597 81403 10012 20001 40032 58016 60010 78082 883// 333 10024;
0140239330999992000092621004+60960+069060FM-12+0040USHH V0201001N002010075019N0100001N1+00121+00011100201ADDAY181031AY221031GF108991081031008001999999MD1710121+9999MW1801REMSYN066AAXX  26211 23933 41597 81002 10012 20001 40020 57012 78082 883//;
0161239330999992000092700004+60960+069060FM-12+0040USHH V0201001N003010075019N0100001N1+00141+00061100091ADDAY181061AY221061GF108991081031008001999999MA1999999099511MD1710111+9999MW1801REMSYN072AAXX  27001 23933 41597 81003 10014 20006 39951 40009 57011 78082 883//;
0150239330999992000092703004+60960+069060FM-12+0040USHH V0201001N001010042019N0020001N1+00291+00291100001ADDAY181031AY261031GF108991081001004501021999MD1710091+9999MW1611REMSYN076AAXX  27031 23933 /1495 81001 10029 20029 40000 57009 76186 8802/ 333 55000;
0180239330999992000092706004+60960+069060FM-12+0040USHH V0202401N003010042019N0020001N1+00651+00561100081ADDAA100006191AY181061AY261061GF108991081051004501999999KA1999N+00101MD1310091+9999MW1101REMSYN082AAXX  27061 23933 11495 82403 10065 20056 40008 53009 60060 71086 885// 333 20010;
0140239330999992000092709004+60960+069060FM-12+0040USHH V0202301N003010042019N0100001N1+00621+00531100241ADDAY181031AY221031GF108991081031004501999999MD1210161+9999MW1801REMSYN066AAXX  27091 23933 41497 82303 10062 20053 40024 52016 78082 883//;
0161239330999992000092712004+60960+069060FM-12+0040USHH V0202101N002010042019N0100001N1+00561+00441100331ADDAY181061AY221061GF108991081031004501999999MA1999999099761MD1210091+9999MW1251REMSYN072AAXX  27121 23933 41497 82102 10056 20044 39976 40033 52009 72582 883//;
0163239330999992000092715004+60960+069060FM-12+0040USHH V0209999C000012200019N0100001N1+00301+00221100411ADDAY181031AY221031GF105991031051008001001011KA1999M+00671MD1210071+9999MW1021REMSYN076AAXX  27151 23933 /1597 50000 10030 20022 40041 52007 70282 83501 333 10067;
0199239330999992000092718004+60960+069060FM-12+0040USHH V0209999C000012200019N0100001N1+00121+00091100431ADDAA100000891AY121061AY221061GF101991999051008001031999KA1999M+00671MD1210021+9999MW1101REMSYN082AAXX  27181 23933 11597 10000 10012 20009 40043 52002 69980 71022 8553/ 333 10067;EQDQ01+000052SCOTLC
0112239330999992000092721004+60960+069060FM-12+0040USHH V0202901N001010075019N0100001N1+00261+00211100441ADDGF108991081051008001999999MD1210011+9999REMSYN060AAXX  27211 23933 42597 82901 10026 20021 40044 52001 885//;
0133239330999992000092800004+60960+069060FM-12+0040USHH V0209999C000010075019N0100001N1+00281+00231100421ADDGF108991081051008001999999MA1999999099841MD1810021+9999REMSYN066AAXX  28001 23933 42597 80000 10028 20023 39984 40042 58002 885//;
0180239330999992000092803004+60960+069060FM-12+0040USHH V0200301N001010042019N0100001N1+00281+00251100441ADDAA199000091AY121031AY221031GF108991061061004501021999MD1310021+9999MW1101REMSYN076AAXX  28031 23933 31497 80301 10028 20025 40044 53002 71022 8662/ 333 55000;EQDQ01  00002PRCP99
0165239330999992000092806004+60960+069060FM-12+0040USHH V0200401N003010042019N0100001N1+00261+00211100431ADDAA199000091GF108991081071004501999999KA1999N+00091MD1810011+9999REMSYN070AAXX  28061 23933 32497 80403 10026 20021 40043 58001 887// 333 20009;EQDQ01  00002PRCP99
0112239330999992000092809004+60960+069060FM-12+0040USHH V0200401N003010042019N0100001N1+00271+00171100421ADDGF108991071071004501021999MD1710011+9999REMSYN060AAXX  28091 23933 42497 80403 10027 20017 40042 57001 8772/;
0181239330999992000092812004+60960+069060FM-12+0040USHH V0203501N003010042019N0100001N1+00221+00121100421ADDAY121061AY221061GF108991999071004501021999MD1410001+9999MW1611REMSYN072AAXX  28121 23933 41497 83503 10022 20012 31984 40042 54000 76122 8872/;EQDQ01+000082SCOTLCQ02+019841APOSP 
0163239330999992000092815004+60960+069060FM-12+0040USHH V0203601N003010042019N0100001N1+00121+00011100511ADDAY161031AY221031GF108991061071004501021999KA1999M+00371MD1310091+9999MW1611REMSYN076AAXX  28151 23933 /1497 83603 10012 20001 40051 53009 76162 8672/ 333 10037;
0180239330999992000092818004+60960+069060FM-12+0040USHH V0201601N003010042019N0100001N1+00071-00101100471ADDAA100000791AY161061AY221061GF108991081051004501999999KA1999M+00371MD1810041+9999MW1211REMSYN082AAXX  28181 23933 11497 81603 10007 21010 40047 58004 69900 72162 885// 333 10037;
0140239330999992000092821004+60960+069060FM-12+0040USHH V0203301N004010042019N0100001N1+00011-00221100311ADDAY171031AY221031GF108991061071004501021999MD1710161+9999MW1711REMSYN066AAXX  28211 23933 41497 83304 10001 21022 40031 57016 77172 8672/;
0161239330999992000092900004+60960+069060FM-12+0040USHH V0203201N003010042019N0040001N1-00011-00241100341ADDAY171061AY221061GF108991061071004501021999MA1999999099751MD1310021+9999MW1711REMSYN072AAXX  29001 23933 41496 83203 11001 21024 39975 40034 53002 77172 8672/;
0150239330999992000092903004+60960+069060FM-12+0040USHH V0203201N004010075019N0100001N1-00041-00411100401ADDAY171031AY221031GF108991081021008001999999MD1210061+9999MW1711REMSYN076AAXX  29031 23933 /1597 83204 11004 21041 40040 52006 77172 882// 333 55000;
0180239330999992000092906004+60960+069060FM-12+0040USHH V0203301N003010300019N0100001N1+00051-00531100451ADDAA100000591AY171061AY221061GF105991031011008001031011KA1999N-00041MD1210061+9999MW1021REMSYN082AAXX  29061 23933 11597 53303 10005 21053 40045 52006 69940 70272 83131 333 21004;
0140239330999992000092909004+60960+069060FM-12+0040USHH V0203301N003010075019N0100001N1+00131-00661100531ADDAY121031AY221031GF107991071051008001999999MD1210081+9999MW1021REMSYN066AAXX  29091 23933 42597 73303 10013 21066 40053 52008 70222 875//;
0133239330999992000092912004+60960+069060FM-12+0040USHH V0202701N003010300019N0100001N1+00161-00751100721ADDGF107991031051008001031001MA1999999100141MD1210191+9999REMSYN066AAXX  29121 23933 42597 72703 10016 21075 30014 40072 52019 83530;
0135239330999992000092915004+60960+069060FM-12+0040USHH V0202801N002010075019N0100001N1-00041-00651100681ADDGF106991061051008001001001KA1999M+00281MD1810051+9999REMSYN070AAXX  29151 23933 /2597 62802 11004 21065 40068 58005 86500 333 10028;
0152239330999992000092918004+60960+069060FM-12+0040USHH V0209999C000010300019N0100001N1+00091-00441100691ADDAA100000791GF106991041051008001031001KA1999M+00281MD1310011+9999REMSYN076AAXX  29181 23933 12597 60000 10009 21044 40069 53001 69900 84530 333 10028;
0112239330999992000092921004+60960+069060FM-12+0040USHH V0209999C000012200019N0100001N1-00171-00441100711ADDGF103991031051008001001001MD1210021+9999REMSYN060AAXX  29211 23933 42597 30000 11017 21044 40071 52002 83500;
0198239330999992000093003004+60960+069060FM-12+0040USHH V0201101N002019999999N0100001N1-00111-00241100961ADDAJ199993999999999AY171031AY221031GF108991081001999999021999IA1289MD1210191+9999MW1711REMSYN082AAXX  30031 23933 /1997 81102 11011 21024 40096 52019 77172 8802/ 333 44997 55002;EQDQ01  09982SNDP  
0180239330999992000093006004+60960+069060FM-12+0040USHH V0201001N003010300019N0100001N1+00031-00081101041ADDAA100000391AY171061AY221061GF108991021071004501021999KA1999N-00221MD1210081+9999MW1711REMSYN082AAXX  30061 23933 12497 81003 10003 21008 40104 52008 69930 77172 8272/ 333 21022;
0140239330999992000093009004+60960+069060FM-12+0040USHH V0200901N001010042019N0100001N1+00091-00021101161ADDAY181031AY271031GF108991081031004501999999MD1210121+9999MW1851REMSYN066AAXX  30091 23933 41497 80901 10009 21002 40116 52012 78587 883//;
0161239330999992000093012004+60960+069060FM-12+0040USHH V0200901N001010042019N0100001N1+00061+00011101141ADDAY181061AY221061GF108991081031004501999999MA1999999100551MD1810021+9999MW1851REMSYN072AAXX  30121 23933 41497 80901 10006 20001 30055 40114 58002 78582 883//;
0163239330999992000093015004+60960+069060FM-12+0040USHH V0200301N001019999999N0010001N1+00011-00021101221ADDAY181031AY271031GF108991081001999999071999KA1999M+00141MD1310081+9999MW1731REMSYN076AAXX  30151 23933 /1994 80301 10001 21002 40122 53008 77387 8807/ 333 10014;
0180239330999992000093018004+60960+069060FM-12+0040USHH V0209999C000019999999N0040001N1-00101-00141101291ADDAA100002091AY181061AY271061GF108991041071999999021999KA1999M+00141MD1210061+9999MW1851REMSYN082AAXX  30181 23933 11996 80000 11010 21014 40129 52006 60020 78587 8472/ 333 10014;
0140239330999992000093021004+60960+069060FM-12+0040USHH V0200201N003010300019N0040001N1-00161+99999101431ADDAY181031AY271031GF108991041071004501021999MD1210141+9999MW1851REMSYN066AAXX  30211 23933 41496 80203 11016 21014 40143 52014 78587 8472/;
0161239330999992000100100004+60960+069060FM-12+0040USHH V0203401N002010042019N0100001N1-00241-00331101581ADDAY181061AY221061GF108991051071004501021999MA1999999100981MD1210151+9999MW1021REMSYN072AAXX  01001 23933 41497 83402 11024 21033 30098 40158 52015 70282 8572/;
0170239330999992000100103004+60960+069060FM-12+0040USHH V0200301N001010042019N0100001N1-00161-00331101741ADDAJ199993999999999GF108991081021004501999999IA1289MD1210161+9999REMSYN076AAXX  01031 23933 /2497 80301 11016 21033 40174 52016 882// 333 44997 55000;EQDQ01  09982SNDP  
0180239330999992000100106004+60960+069060FM-12+0040USHH V0200401N002010042019N0100001N1-00011-00181101931ADDAA100002091AY171061AY221061GF108991081021004501999999KA1999N-00241MD1210191+9999MW1711REMSYN082AAXX  01061 23933 13497 80402 11001 21018 40193 52019 60020 77172 882// 333 21024;
0140239330999992000100109004+60960+069060FM-12+0040USHH V0203401N002010042019N0100001N1+00021-00331102031ADDAY171031AY221031GF107991071051004501999999MD1210111+9999MW1021REMSYN066AAXX  01091 23933 41497 73402 10002 21033 40203 52011 70272 875//;
0174239330999992000100112004+60960+069060FM-12+0040USHH V0200401N001010075019N0100001N1+00031-00491102231ADDAY171061AY221061GF107991071051008001001001MA1999999101641MD1210201+9999REMSYN072AAXX  01121 23933 41597 70401 10003 21049 30164 40223 52020 77872 87500;EQDQ01+000782PRSWM1
0135239330999992000100115004+60960+069060FM-12+0040USHH V0200201N001010075019N0100001N1+00001-00111102331ADDGF108991081051008001999999KA1999M+00181MD1210101+9999REMSYN070AAXX  01151 23933 /2597 80201 10000 21011 40233 52010 885// 333 10018;
0152239330999992000100118004+60960+069060FM-12+0040USHH V0200101N001010075019N0100001N1-00031-00211102451ADDAA100001091GF108991081051008001999999KA1999M+00181MD1210111+9999REMSYN076AAXX  01181 23933 12597 80101 11003 21021 40245 52011 60010 885// 333 10018;
0112239330999992000100121004+60960+069060FM-12+0040USHH V0200401N002010075019N0100001N1-00061-00301102511ADDGF108991081051008001999999MD1210061+9999REMSYN060AAXX  01211 23933 42597 80402 11006 21030 40251 52006 885//;
0133239330999992000100200004+60960+069060FM-12+0040USHH V0200701N001010075019N0100001N1-00121-00631102731ADDGF108991081051008001999999MA1999999102141MD1210231+9999REMSYN066AAXX  02001 23933 42597 80701 11012 21063 30214 40273 52023 885//;
0197239330999992000100203004+60960+069060FM-12+0040USHH V0209999C000010075019N0100001N1-00101-00931102821ADDAA199000091AJ199993999999999GF108991081051008001999999IA1259MD1210091+9999REMSYN076AAXX  02031 23933 32597 80000 11010 21093 40282 52009 885// 333 41997 55000;EQDQ01  00002PRCP99Q02  09982SNDP  
0165239330999992000100206004+60960+069060FM-12+0040USHH V0203201N001010075019N0100001N1+00121-00781102911ADDAA199000091GF106991061051008001001001KA1999N-00121MD1210091+9999REMSYN070AAXX  02061 23933 32597 63201 10012 21078 40291 52009 86500 333 21012;EQDQ01  00002PRCP99
0140239330999992000100209004+60960+069060FM-12+0040USHH V0203301N002010021019N0100001N1+00041-00831103011ADDAY181031AY221031GF107991071031002501001001MD1210091+9999MW1851REMSYN066AAXX  02091 23933 41397 73302 10004 21083 40301 52009 78582 87300;
0133239330999992000100212004+60960+069060FM-12+0040USHH V0203201N001010075019N0100001N1+00091-00631103111ADDGF106991061031008001001001MA1999999102511MD1210101+9999REMSYN066AAXX  02121 23933 41597 63201 10009 21063 30251 40311 52010 86300;
0145239330999992000100215004+60960+069060FM-12+0040USHH V0209999C000012200019N0100001N1-00211-00561103271ADDGA1001+999999999GF100991001001999999001001KA1999M+00221MD1210151+9999REMSYN064AAXX  02151 23933 /2997 00000 11021 21056 40327 52015 333 10022;
0162239330999992000100218004+60960+069060FM-12+0040USHH V0202601N001012200019N0100001N1-00321-00561103331ADDAA100000791GA1001+999999999GF100991001001999999001001KA1999M+00221MD1210061+9999REMSYN070AAXX  02181 23933 12997 02601 11032 21056 40333 52006 69900 333 10022;
0106239330999992000100221004+60960+069060FM-12+0040USHH V0200401N001019999999N0100001N1-00331-00541103401ADDGF108991999999999999999999MD1210071+9999REMSYN054AAXX  02211 23933 42997 80401 11033 21054 40340 52007;
0133239330999992000100300004+60960+069060FM-12+0040USHH V0202601N001010075019N0100001N1-00231-00551103411ADDGF106991061051008001001001MA1999999102801MD1210011+9999REMSYN066AAXX  03001 23933 42597 62601 11023 21055 30280 40341 52001 86500;
0152239330999992000100303004+60960+069060FM-12+0040USHH V0209999C000010075019N0100001N1-00121-00751103371ADDAA199000091GF108991081051008001999999MD1810041+9999REMSYN070AAXX  03031 23933 32597 80000 11012 21075 40337 58004 885// 333 55026;EQDQ01  00002PRCP99
0165239330999992000100306004+60960+069060FM-12+0040USHH V0202301N001010075019N0100001N1-00011-00701103311ADDAA199000091GF108991081051008001999999KA1999N-00401MD1710061+9999REMSYN070AAXX  03061 23933 32597 82301 11001 21070 40331 57006 885// 333 21040;EQDQ01  00002PRCP99
0112239330999992000100309004+60960+069060FM-12+0040USHH V0202601N003010075019N0100001N1+00061-00841103171ADDGF108991081051008001999999MD1710131+9999REMSYN060AAXX  03091 23933 42597 82603 10006 21084 40317 57013 885//;
0133239330999992000100312004+60960+069060FM-12+0040USHH V0202201N002010120019N0100001N1+00031-00891103011ADDGF108991081051012501999999MA1999999102411MD1710161+9999REMSYN066AAXX  03121 23933 42697 82202 10003 21089 30241 40301 57016 885//;
0165239330999992000100315004+60960+069060FM-12+0040USHH V0202001N002010120019N0100001N1-00041-00831102831ADDAA199000091GF108991081051012501999999KA1999M+00111MD1710181+9999REMSYN070AAXX  03151 23933 32697 82002 11004 21083 40283 57018 885// 333 10011;EQDQ01  00002PRCP99
0165239330999992000100318004+60960+069060FM-12+0040USHH V0201901N002010120019N0100001N1-00051-00801102701ADDAA199000091GF108991081051012501999999KA1999M+00111MD1710131+9999REMSYN070AAXX  03181 23933 32697 81902 11005 21080 40270 57013 885// 333 10011;EQDQ01  00002PRCP99
0112239330999992000100321004+60960+069060FM-12+0040USHH V0201701N002010075019N0100001N1-00061-00661102551ADDGF108991081051008001999999MD1710151+9999REMSYN060AAXX  03211 23933 42597 81702 11006 21066 40255 57015 885//;
0141239330999992000100400004+60960+069060FM-12+0040USHH V0201601N002010300019N0100001N1-00141-00371102501ADDAY171061AY221061GF108991021071004501021999MA1999999101901MW1701REMSYN066AAXX  04001 23933 41497 81602 11014 21037 30190 40250 77072 8272/;
0150239330999992000100403004+60960+069060FM-12+0040USHH V0201501N002019999999N0100001N1-00181-00391102501ADDAY171031AY221031GF107991071001999999031001MD1410001+9999MW1021REMSYN076AAXX  04031 23933 /1997 71502 11018 21039 40250 54000 70272 87030 333 55000;
0180239330999992000100406004+60960+069060FM-12+0040USHH V0201401N003010075019N0100001N1+00001-00391102601ADDAA100000591AY171061AY221061GF106991061051008001001001KA1999N-00181MD1210011+9999MW1021REMSYN082AAXX  04061 23933 12597 61403 10000 21039 40260 52001 69950 70272 86500 333 21018;
0112239330999992000100409004+60960+069060FM-12+0040USHH V0201001N002010042019N0100001N1+00231-00561102691ADDGF107991071011004501001001MD1210101+9999REMSYN060AAXX  04091 23933 42497 71002 10023 21056 40269 52010 87100;
0133239330999992000100412004+60960+069060FM-12+0040USHH V0200901N002010042019N0100001N1+00131-00581102781ADDGF107991071031004501001001MA1999999102191MD1210091+9999REMSYN066AAXX  04121 23933 42497 70902 10013 21058 30219 40278 52009 87300;
0165239330999992000100415004+60960+069060FM-12+0040USHH V0200901N001010075019N0100001N1+00041-00541102911ADDAA199000091GF108991081031008001999999KA1999M+00261MD1210131+9999REMSYN070AAXX  04151 23933 32597 80901 10004 21054 40291 52013 883// 333 10026;EQDQ01  00002PRCP99
0165239330999992000100418004+60960+069060FM-12+0040USHH V0200301N001010075019N0100001N1-00051-00581103031ADDAA199000091GF108991081031008001999999KA1999M+00261MD1210101+9999REMSYN070AAXX  04181 23933 32597 80301 11005 21058 40303 52010 883// 333 10026;EQDQ01  00002PRCP99
0112239330999992000100421004+60960+069060FM-12+0040USHH V0209999C000010042019N0100001N1-00051-00501103141ADDGF108991081051004501999999MD1210111+9999REMSYN060AAXX  04211 23933 42497 80000 11005 21050 40314 52011 885//;
0133239330999992000100500004+60960+069060FM-12+0040USHH V0209999C000010042019N0100001N1-00081-00421103251ADDGF108991081051004501999999MA1999999102641MD1210111+9999REMSYN066AAXX  05001 23933 42497 80000 11008 21042 30264 40325 52011 885//;
0152239330999992000100503004+60960+069060FM-12+0040USHH V0209999C000010042019N0100001N1-00091-00481103361ADDAA199000091GF108991081051004501999999MD1210111+9999REMSYN070AAXX  05031 23933 32497 80000 11009 21048 40336 52011 885// 333 55026;EQDQ01  00002PRCP99
0165239330999992000100506004+60960+069060FM-12+0040USHH V0209999C000010042019N0100001N1+00011-00431103491ADDAA199000091GF108991081051004501999999KA1999N-00091MD1210131+9999REMSYN070AAXX  05061 23933 32497 80000 10001 21043 40349 52013 885// 333 21009;EQDQ01  00002PRCP99
0112239330999992000100509004+60960+069060FM-12+0040USHH V0202201N001010075019N0100001N1+00131-00581103451ADDGF108991081051008001999999MD1810031+9999REMSYN060AAXX  05091 23933 42597 82201 10013 21058 40345 58003 885//;
0133239330999992000100512004+60960+069060FM-12+0040USHH V0203001N001010075019N0100001N1+00121-00591103451ADDGF108991081051008001999999MA1999999102851MD1410001+9999REMSYN066AAXX  05121 23933 42597 83001 10012 21059 30285 40345 54000 885//;
0165239330999992000100515004+60960+069060FM-12+0040USHH V0202501N002010075019N0100001N1+00051-00491103391ADDAA199000091GF107991071051008001001001KA1999M+00181MD1710061+9999REMSYN070AAXX  05151 23933 32597 72502 10005 21049 40339 57006 87500 333 10018;EQDQ01  00002PRCP99
0165239330999992000100518004+60960+069060FM-12+0040USHH V0202801N002010120019N0100001N1+00011-00331103371ADDAA199000091GF108991081051012501999999KA1999M+00181MD1710021+9999REMSYN070AAXX  05181 23933 32697 82802 10001 21033 40337 57002 885// 333 10018;EQDQ01  00002PRCP99
0112239330999992000100521004+60960+069060FM-12+0040USHH V0202401N002019999999N0100001N1-00031-00441103321ADDGF108991081001999999021999MD1710061+9999REMSYN060AAXX  05211 23933 42997 82402 11003 21044 40332 57006 8802/;
0133239330999992000100600004+60960+069060FM-12+0040USHH V0202801N002019999999N0100001N1-00021-00361103231ADDGF108991081001999999021999MA1999999102621MD1710091+9999REMSYN066AAXX  06001 23933 42997 82802 11002 21036 30262 40323 57009 8802/;
0169239330999992000100603004+60960+069060FM-12+0040USHH V0202801N002010042019N0100001N1-00021-00231999999ADDAY171031AY221031GF108991081071004501999999MD1710021+9999MW1701REMSYN076AAXX  06031 23933 /1497 82802 11002 21023 40199 57002 77072 887// 333 55000;EQDQ01 101993APOSLP
0199239330999992000100606004+60960+069060FM-12+0040USHH V0202901N002010075019N0100001N1+00021-00251103172ADDAA100000791AY171061AY221061GF108991081051008001999999KA1999N-00031MD1710031+9999MW1701REMSYN082AAXX  06061 23933 11597 82902 10002 21025 40317 57003 69900 77072 885// 333 21003;EQDQ01+103173APOSLP
0159239330999992000100609004+60960+069060FM-12+0040USHH V0203301N002010075019N0100001N1+00011-00211103151ADDAY171031AY221031GF108991999051008001001001MD1710021+9999MW1701REMSYN066AAXX  06091 23933 41597 83302 10001 21021 40315 57002 77072 87500;EQDQ01+000072SCOTLC
0180239330999992000100612004+60960+069060FM-12+0040USHH V0203301N003019999999N0100001N1+00201-00301999999ADDAY171061AY221061GF106991051001999999031011MA1999999102601MD1310051+9999MW1021REMSYN072AAXX  06121 23933 41997 63303 10020 21030 30260 40030 53005 70272 85031;EQDQ01+100303APOSLP
0135239330999992000100615004+60960+069060FM-12+0040USHH V0203101N002010042019N0100001N1+00061-00341103191ADDGF107991071051004501001001KA1999M+00251MD1810011+9999REMSYN070AAXX  06151 23933 /2497 73102 10006 21034 40319 58001 87500 333 10025;
0152239330999992000100618004+60960+069060FM-12+0040USHH V0200301N001010042019N0100001N1+00121-00231103231ADDAA100000791GF108991081051004501999999KA1999M+00251MD1210041+9999REMSYN076AAXX  06181 23933 13497 80301 10012 21023 40323 52004 69900 885// 333 10025;
0140239330999992000100621004+60960+069060FM-12+0040USHH V0200201N001010042019N0100001N1-00031-00181103341ADDAY181031AY221031GF106991061031004501031001MD1210101+9999MW1261REMSYN066AAXX  06211 23933 41497 60201 11003 21018 40334 52010 72682 86330;
0161239330999992000100700004+60960+069060FM-12+0040USHH V0201001N002010042019N0100001N1-00101-00281103421ADDAY181061AY221061GF108991081051004501999999MA1999999102821MD1210081+9999MW1021REMSYN072AAXX  07001 23933 41497 81002 11010 21028 30282 40342 52008 70282 885//;
0170239330999992000100703004+60960+069060FM-12+0040USHH V0201401N001010042019N0100001N1-00201-00531103511ADDAJ199993999999999GF108991081051004501999999IA1309MD1210091+9999REMSYN076AAXX  07031 23933 /2497 81401 11020 21053 40351 52009 885// 333 42997 55007;EQDQ01  09982SNDP  
0152239330999992000100706004+60960+069060FM-12+0040USHH V0202001N001010042019N0100001N1-00101-00531103561ADDAA100000791GF108991081051004501999999KA1999N-00201MD1210051+9999REMSYN076AAXX  07061 23933 12497 82001 11010 21053 40356 52005 69900 885// 333 21020;
0112239330999992000100709004+60960+069060FM-12+0040USHH V0202201N002010075019N0100001N1+00011-00431103481ADDGF108991081051008001999999MD1810081+9999REMSYN060AAXX  07091 23933 42597 82202 10001 21043 40348 58008 885//;
0133239330999992000100712004+60960+069060FM-12+0040USHH V0202301N002010042019N0100001N1+00111-00271103331ADDGF108991081051004501999999MA1999999102731MD1710141+9999REMSYN066AAXX  07121 23933 42497 82302 10011 21027 30273 40333 57014 885//;
0165239330999992000100715004+60960+069060FM-12+0040USHH V0202401N004010075019N0100001N1+00081-00151103211ADDAA199000091GF106991061051008001001001KA1999M+00261MD1710121+9999REMSYN070AAXX  07151 23933 32597 62404 10008 21015 40321 57012 86500 333 10026;EQDQ01  00002PRCP99
0165239330999992000100718004+60960+069060FM-12+0040USHH V0202501N002010075019N0100001N1+00011-00101103091ADDAA199000091GF106991061051008001001001KA1999M+00261MD1710121+9999REMSYN070AAXX  07181 23933 32597 62502 10001 21010 40309 57012 86500 333 10026;EQDQ01  00002PRCP99
0112239330999992000100721004+60960+069060FM-12+0040USHH V0202501N003010075019N0100001N1+00021-00091102961ADDGF106991061051008001001001MD1710121+9999REMSYN060AAXX  07211 23933 42597 62503 10002 21009 40296 57012 86500;
0133239330999992000100800004+60960+069060FM-12+0040USHH V0202401N003019999999N0100001N1+00061-00111102761ADDGF107991071001999999031001MA1999999102171MD1710201+9999REMSYN066AAXX  08001 23933 42997 72403 10006 21011 30217 40276 57020 87030;
0152239330999992000100803004+60960+069060FM-12+0040USHH V0202401N003010075019N0100001N1+00151-00361102561ADDAA199000091GF108991081031008001999999MD1710201+9999REMSYN070AAXX  08031 23933 32597 82403 10015 21036 40256 57020 883// 333 55000;EQDQ01  00002PRCP99
0174239330999992000100806004+60960+069060FM-12+0040USHH V0202601N003010075019N0100001N1+00321+00221102411ADDAA199000021AY181061AY221061GF108991081031008001999999KA1999N-00011MD1710151+9999MW1801REMSYN076AAXX  08061 23933 31597 82603 10032 20022 40241 57015 78082 883// 333 21001;
0140239330999992000100809004+60960+069060FM-12+0040USHH V0202701N003010075019N0100001N1+00501+00451102381ADDAY181031AY261031GF108991081051008001999999MD1710021+9999MW1611REMSYN066AAXX  08091 23933 41597 82703 10050 20045 40238 57002 76186 885//;
0161239330999992000100812004+60960+069060FM-12+0040USHH V0203001N001010075019N0040001N1+00671+00561102391ADDAY181061AY261061GF108991081051008001999999MA1999999101811MD1710011+9999MW1611REMSYN072AAXX  08121 23933 41596 83001 10067 20056 30181 40239 57001 76186 885//;
0163239330999992000100815004+60960+069060FM-12+0040USHH V0203501N001010075019N0100001N1+00621+00511102541ADDAY161031AY221031GF108991081051008001999999KA1999M+00701MD1310151+9999MW1021REMSYN076AAXX  08151 23933 /1597 83501 10062 20051 40254 53015 70262 885// 333 10070;
0152239330999992000100818004+60960+069060FM-12+0040USHH V0203501N001010075019N0100001N1+00591+00451102621ADDAA100002091GF106991061051008001001001KA1999M+00701MD1210081+9999REMSYN076AAXX  08181 23933 12597 63501 10059 20045 40262 52008 60020 86500 333 10070;
0140239330999992000100821004+60960+069060FM-12+0040USHH V0203401N001010042019N0100001N1+00441+00291102731ADDAY161031AY221031GF106991061031004501031001MD1210101+9999MW1211REMSYN066AAXX  08211 23933 41497 63401 10044 20029 40273 52010 72162 86330;
0161239330999992000100900004+60960+069060FM-12+0040USHH V0203501N003010075019N0100001N1+00311+00051102851ADDAY161061AY221061GF108991081051008001999999MA1999999102261MD1210121+9999MW1021REMSYN072AAXX  09001 23933 41597 83503 10031 20005 30226 40285 52012 70262 885//;
0122239330999992000100903004+60960+069060FM-12+0040USHH V0200201N002010075019N0100001N1+00051-00151102961ADDGF106991061031008001001001MD1210111+9999REMSYN070AAXX  09031 23933 /2597 60202 10005 21015 40296 52011 86300 333 55000;
0180239330999992000100906004+60960+069060FM-12+0040USHH V0200201N003010042019N0100001N1+00141+00031103061ADDAA100000791AY181061AY221061GF107991071031004501001001KA1999N+00051MD1210091+9999MW1801REMSYN082AAXX  09061 23933 11497 70203 10014 20003 40306 52009 69900 78082 87300 333 20005;
0140239330999992000100909004+60960+069060FM-12+0040USHH V0200401N002010042019N0100001N1+00261+00101103151ADDAY181031AY221031GF106991061031004501001001MD1310091+9999MW1251REMSYN066AAXX  09091 23933 41497 60402 10026 20010 40315 53009 72582 86300;
0161239330999992000100912004+60960+069060FM-12+0040USHH V0200401N003010042019N0100001N1+00251-00021103271ADDAY181061AY221061GF108991081031004501999999MA1999999102671MD1210121+9999MW1021REMSYN072AAXX  09121 23933 41497 80403 10025 21002 30267 40327 52012 70282 883//;
0135239330999992000100915004+60960+069060FM-12+0040USHH V0200601N001010042019N0100001N1+00201+00041103401ADDGF108991051061004501071999KA1999M+00481MD1210131+9999REMSYN070AAXX  09151 23933 /2497 80601 10020 20004 40340 52013 8567/ 333 10048;
0152239330999992000100918004+60960+069060FM-12+0040USHH V0200601N002010075019N0100001N1+00151+00041103551ADDAA100000791GF108991081051008001999999KA1999M+00481MD1210151+9999REMSYN076AAXX  09181 23933 12597 80602 10015 20004 40355 52015 69900 885// 333 10048;
0112239330999992000100921004+60960+069060FM-12+0040USHH V0200601N001010075019N0100001N1+00111+00031103621ADDGF108991081051008001999999MD1210071+9999REMSYN060AAXX  09211 23933 42597 80601 10011 20003 40362 52007 885//;
0161239330999992000101000004+60960+069060FM-12+0040USHH V0200801N002010042019N0100001N1+00061-00021103641ADDAY181061AY221061GF108991081031004501999999MA1999999103041MD1210021+9999MW1801REMSYN072AAXX  10001 23933 41497 80802 10006 21002 30304 40364 52002 78082 883//;
0139239330999992000101003004+60960+069060FM-12+0040USHH V0200301N001010021019N0010001N1+00051-00011999999ADDAY181031AY221031GF108991081061002501999999ME1552029MW1101REMSYN070AAXX  10031 23933 /1394 80301 10005 21001 45202 71082 886// 333 55005;
0180239330999992000101006004+60960+069060FM-12+0040USHH V0200901N001010042019N0100001N1+00181+00131103711ADDAA100000791AY181061AY241061GF108991081061004501999999KA1999N+00051MD1210051+9999MW1021REMSYN082AAXX  10061 23933 11497 80901 10018 20013 40371 52005 69900 70284 886// 333 20005;
0140239330999992000101009004+60960+069060FM-12+0040USHH V0200501N001010042019N0100001N1+00221+00141103751ADDAY151031AY221031GF108991081071004501999999MD1210041+9999MW1511REMSYN066AAXX  10091 23933 41497 80501 10022 20014 40375 52004 75152 887//;
0161239330999992000101012004+60960+069060FM-12+0040USHH V0200401N002010042019N0100001N1+00141-00031103771ADDAY151061AY221061GF108991081071004501999999MA1999999103171MD1210021+9999MW1021REMSYN072AAXX  10121 23933 41497 80402 10014 21003 30317 40377 52002 70252 887//;
0135239330999992000101015004+60960+069060FM-12+0040USHH V0209999C000010042019N0100001N1+00161-00091103801ADDGF108991081051004501999999KA1999M+00251MD1210031+9999REMSYN070AAXX  10151 23933 /2497 80000 10016 21009 40380 52003 885// 333 10025;
0180239330999992000101018004+60960+069060FM-12+0040USHH V0201001N001010042019N0100001N1+00161+00021103811ADDAA100000791AY161061AY221061GF108991081051004501999999KA1999M+00251MD1210011+9999MW1611REMSYN082AAXX  10181 23933 11497 81001 10016 20002 40381 52001 69900 76162 885// 333 10025;
0140239330999992000101021004+60960+069060FM-12+0040USHH V0201001N001019999999N0100001N1+00171+00031103811ADDAY161031AY221031GF108991081001999999021999MD1410001+9999MW1021REMSYN066AAXX  10211 23933 41997 81001 10017 20003 40381 54000 70262 8802/;
0161239330999992000101100004+60960+069060FM-12+0040USHH V0201101N001010300019N0100001N1+00141+00061103781ADDAY161061AY221061GF108991021051008001021999MA1999999103181MD1810031+9999MW1021REMSYN072AAXX  11001 23933 41597 81101 10014 20006 30318 40378 58003 70262 8252/;
0122239330999992000101103004+60960+069060FM-12+0040USHH V0200801N001010075019N0100001N1+00181+00071103901ADDGF108991081051008001999999MD1310121+9999REMSYN070AAXX  11031 23933 /2597 80801 10018 20007 40390 53012 885// 333 55000;
0152239330999992000101106004+60960+069060FM-12+0040USHH V0201101N002010075019N0100001N1+00261+00081103951ADDAA100000791GF108991081051008001999999KA1999N+00141MD1210051+9999REMSYN076AAXX  11061 23933 12597 81102 10026 20008 40395 52005 69900 885// 333 20014;
0112239330999992000101109004+60960+069060FM-12+0040USHH V0201101N001010075019N0100001N1+00361+00011103951ADDGF108991081051008001999999MD1410001+9999REMSYN060AAXX  11091 23933 42597 81101 10036 20001 40395 54000 885//;
0165239330999992000101115004+60960+069060FM-12+0040USHH V0200701N002010075019N0100001N1+00281+00101103941ADDAA199000091GF108991081051008001999999KA1999M+00381MD1310011+9999REMSYN070AAXX  11151 23933 32597 80702 10028 20010 40394 53001 885// 333 10038;EQDQ01  00002PRCP99
0165239330999992000101118004+60960+069060FM-12+0040USHH V0200701N001010075019N0100001N1+00261+00101103951ADDAA199000091GF108991081051008001999999KA1999M+00381MD1210011+9999REMSYN070AAXX  11181 23933 32597 80701 10026 20010 40395 52001 885// 333 10038;EQDQ01  00002PRCP99
0140239330999992000101121004+60960+069060FM-12+0040USHH V0201101N001010075019N0100001N1+00221+00091103951ADDAY161031AY221031GF108991081051008001999999MD1410001+9999MW1021REMSYN066AAXX  11211 23933 41597 81101 10022 20009 40395 54000 70262 885//;
0161239330999992000101200004+60960+069060FM-12+0040USHH V0201001N001019999999N0100001N1+00211+00111103951ADDAY161061AY221061GF108991081001999999021999MA1999999103351MD1410001+9999MW1021REMSYN072AAXX  12001 23933 41997 81001 10021 20011 30335 40395 54000 70262 8802/;
0122239330999992000101203004+60960+069060FM-12+0040USHH V0200601N002010075019N0100001N1+00191+00081104031ADDGF108991081051008001999999MD1310081+9999REMSYN070AAXX  12031 23933 /2597 80602 10019 20008 40403 53008 885// 333 55000;
0152239330999992000101206004+60960+069060FM-12+0040USHH V0200901N002010075019N0100001N1+00231+00131104041ADDAA100000791GF108991081051008001999999KA1999N+00161MD1210011+9999REMSYN076AAXX  12061 23933 12597 80902 10023 20013 40404 52001 69900 885// 333 20016;
0140239330999992000101209004+60960+069060FM-12+0040USHH V0200801N002010075019N0100001N1+00251+00121103981ADDAY181031AY221031GF108991081031008001999999MD1810061+9999MW1251REMSYN066AAXX  12091 23933 41597 80802 10025 20012 40398 58006 72582 883//;
0161239330999992000101212004+60960+069060FM-12+0040USHH V0200801N002010075019N0100001N1+00231+00101104021ADDAY181061AY221061GF108991081051008001999999MA1999999103421MD1310041+9999MW1021REMSYN072AAXX  12121 23933 41597 80802 10023 20010 30342 40402 53004 70282 885//;
0135239330999992000101215004+60960+069060FM-12+0040USHH V0200401N001010075019N0100001N1+00201-00021103931ADDGF108991081051008001999999KA1999M+00301MD1810091+9999REMSYN070AAXX  12151 23933 /2597 80401 10020 21002 40393 58009 885// 333 10030;
0152239330999992000101218004+60960+069060FM-12+0040USHH V0200801N001010075019N0100001N1+00181-00011103941ADDAA100001091GF108991081051008001999999KA1999M+00301MD1310011+9999REMSYN076AAXX  12181 23933 12597 80801 10018 21001 40394 53001 69990 885// 333 10030;
0112239330999992000101221004+60960+069060FM-12+0040USHH V0200901N002010075019N0100001N1+00141-00181103931ADDGF107991071051008001001001MD1810011+9999REMSYN060AAXX  12211 23933 42597 70902 10014 21018 40393 58001 87500;
0133239330999992000101300004+60960+069060FM-12+0040USHH V0200801N001010075019N0100001N1+00001-00211103961ADDGF108991081051008001999999MA1999999103351MD1310021+9999REMSYN066AAXX  13001 23933 42597 80801 10000 21021 30335 40396 53002 885//;
0122239330999992000101303004+60960+069060FM-12+0040USHH V0200701N002010075019N0100001N1-00041-00191103901ADDGF108991081051008001999999MD1810061+9999REMSYN070AAXX  13031 23933 /2597 80702 11004 21019 40390 58006 885// 333 55000;
0165239330999992000101306004+60960+069060FM-12+0040USHH V0200601N001010042019N0100001N1+00101-00191103831ADDAA199000091GF107991071031004501001001KA1999N-00041MD1710061+9999REMSYN070AAXX  13061 23933 32497 70601 10010 21019 40383 57006 87300 333 21004;EQDQ01  00002PRCP99
0112239330999992000101309004+60960+069060FM-12+0040USHH V0200601N003010042019N0100001N1+00041-00361103741ADDGF106991061031004501001001MD1710091+9999REMSYN060AAXX  13091 23933 42497 60603 10004 21036 40374 57009 86300;
0133239330999992000101312004+60960+069060FM-12+0040USHH V0200501N002010075019N0100001N1-00011-00321103611ADDGF108991081051008001999999MA1999999103001MD1710141+9999REMSYN066AAXX  13121 23933 42597 80502 11001 21032 30300 40361 57014 885//;
0165239330999992000101315004+60960+069060FM-12+0040USHH V0200901N001019999999N0100001N1-00111-00201103431ADDAA199000091GF107991071001999999031001KA1999M+00181MD1710181+9999REMSYN070AAXX  13151 23933 32997 70901 11011 21020 40343 57018 87030 333 10018;EQDQ01  00002PRCP99
0165239330999992000101318004+60960+069060FM-12+0040USHH V0200901N001019999999N0100001N1-00121-00181103351ADDAA199000091GF107991071001999999031001KA1999M+00181MD1710081+9999REMSYN070AAXX  13181 23933 32997 70901 11012 21018 40335 57008 87030 333 10018;EQDQ01  00002PRCP99
0112239330999992000101321004+60960+069060FM-12+0040USHH V0200401N001019999999N0100001N1-00161-00251103211ADDGF108991081001999999071999MD1710141+9999REMSYN060AAXX  13211 23933 42997 80401 11016 21025 40321 57014 8807/;
0133239330999992000101400004+60960+069060FM-12+0040USHH V0203601N001019999999N0500001N1-00081-00171103061ADDGF108991081001999999021999MA1999999102451MD1710151+9999REMSYN066AAXX  14001 23933 42999 83601 11008 21017 30245 40306 57015 8802/;
0152239330999992000101403004+60960+069060FM-12+0040USHH V0203501N002010300019N0100001N1-00101-00231102991ADDAA199000091GF108991021011004501021999MD1710061+9999REMSYN070AAXX  14031 23933 32497 83502 11010 21023 40299 57006 8212/ 333 55038;EQDQ01  00002PRCP99
0174239330999992000101406004+60960+069060FM-12+0040USHH V0203401N002010042019N0100001N1-00091-00191102901ADDAA199000021AY181061AY221061GF108991081031004501999999KA1999N-00161MD1710091+9999MW1851REMSYN076AAXX  14061 23933 31497 83402 11009 21019 40290 57009 78582 883// 333 21016;
0133239330999992000101412004+60960+069060FM-12+0040USHH V0200401N002010075019N0100001N1-00071-00351102801ADDGF107991071051008001001001MA1999999102201MD1710031+9999REMSYN066AAXX  14121 23933 42597 70402 11007 21035 30220 40280 57003 87500;
0135239330999992000101415004+60960+069060FM-12+0040USHH V0200801N003010042019N0100001N1-00041-00411102841ADDGF108991081051004501999999KA1999M-00011MD1310041+9999REMSYN070AAXX  14151 23933 /2497 80803 11004 21041 40284 53004 885// 333 11001;
0152239330999992000101418004+60960+069060FM-12+0040USHH V0200701N001010042019N0100001N1-00041-00311102801ADDAA100000791GF108991081051004501999999KA1999M-00011MD1810041+9999REMSYN076AAXX  14181 23933 12497 80701 11004 21031 40280 58004 69900 885// 333 11001;
0140239330999992000101421004+60960+069060FM-12+0040USHH V0200801N001010042019N0100001N1-00021-00291102781ADDAY181031AY221031GF108991081031004501999999MD1710021+9999MW1851REMSYN066AAXX  14211 23933 41497 80801 11002 21029 40278 57002 78582 883//;
0161239330999992000101500004+60960+069060FM-12+0040USHH V0200401N001010042019N0100001N1-00111-00341102781ADDAY181061AY221061GF108991081031004501999999MA1999999102181MD1410001+9999MW1851REMSYN072AAXX  15001 23933 42497 80401 11011 21034 30218 40278 54000 78582 883//;
0198239330999992000101503004+60960+069060FM-12+0040USHH V0200401N001010042019N0100001N1-00111-00301102791ADDAJ199993999999999AY181031AY221031GF108991081051004501999999IA1229MD1310011+9999MW1021REMSYN082AAXX  15031 23933 /1497 80401 11011 21030 40279 53001 70282 885// 333 46997 55000;EQDQ01  09982SNDP  
0180239330999992000101506004+60960+069060FM-12+0040USHH V0200201N001010042019N0100001N1+00041-00291102761ADDAA100000791AY181061AY221061GF108991081051004501999999KA1999N-00141MD1810021+9999MW1021REMSYN082AAXX  15061 23933 11497 80201 10004 21029 40276 58002 69900 70282 885// 333 21014;
0112239330999992000101509004+60960+069060FM-12+0040USHH V0200701N001010042019N0100001N1+00111-00311102701ADDGF108991081031004501999999MD1710061+9999REMSYN060AAXX  15091 23933 42497 80701 10011 21031 40270 57006 883//;
0133239330999992000101512004+60960+069060FM-12+0040USHH V0200801N001010075019N0100001N1+00081-00281102661ADDGF108991081051008001999999MA1999999102071MD1710041+9999REMSYN066AAXX  15121 23933 42597 80801 10008 21028 30207 40266 57004 885//;
0165239330999992000101515004+60960+069060FM-12+0040USHH V0201401N001010075019N0100001N1+00061-00171102591ADDAA199000091GF108991081051008001999999KA1999M+00131MD1710071+9999REMSYN070AAXX  15151 23933 32597 81401 10006 21017 40259 57007 885// 333 10013;EQDQ01  00002PRCP99
0165239330999992000101518004+60960+069060FM-12+0040USHH V0202001N001010075019N0100001N1+00041-00361102561ADDAA199000091GF108991081051008001999999KA1999M+00131MD1710031+9999REMSYN070AAXX  15181 23933 32597 82001 10004 21036 40256 57003 885// 333 10013;EQDQ01  00002PRCP99
0112239330999992000101521004+60960+069060FM-12+0040USHH V0202001N001010075019N0100001N1+00041-00431102461ADDGF108991081051008001999999MD1710101+9999REMSYN060AAXX  15211 23933 42597 82001 10004 21043 40246 57010 885//;
0133239330999992000101600004+60960+069060FM-12+0040USHH V0202401N002019999999N0100001N1+00001-00271102231ADDGF108991031011004501999999MA1999999101631MD1710241+9999REMSYN066AAXX  16001 23933 42497 82402 10000 21027 30163 40223 57024 831//;
0152239330999992000101603004+60960+069060FM-12+0040USHH V0202301N003010300019N0100001N1-00051-00431102111ADDAA199000091GF108991041011008001021999MD1710121+9999REMSYN070AAXX  16031 23933 32597 82303 11005 21043 40211 57012 8412/ 333 55000;EQDQ01  00002PRCP99
0165239330999992000101606004+60960+069060FM-12+0040USHH V0202401N003010042019N0100001N1+00081-00501101991ADDAA199000091GF108991081071004501999999KA1999N-00051MD1710121+9999REMSYN070AAXX  16061 23933 32497 82403 10008 21050 40199 57012 887// 333 21005;EQDQ01  00002PRCP99
0140239330999992000101609004+60960+069060FM-12+0040USHH V0202201N003010042019N0100001N1-00051-00471101881ADDAY181031AY221031GF108991061031004501021999MD1710111+9999MW1851REMSYN066AAXX  16091 23933 41497 82203 11005 21047 40188 57011 78582 8632/;
0161239330999992000101612004+60960+069060FM-12+0040USHH V0202501N003010300019N0040001N1-00121-00381101791ADDAY181061AY271061GF108991031071004501021999MA1999999101191MD1710091+9999MW1711REMSYN072AAXX  16121 23933 41496 82503 11012 21038 30119 40179 57009 77187 8372/;
0163239330999992000101615004+60960+069060FM-12+0040USHH V0202801N003010042019N0100001N1-00151-00321101741ADDAY171031AY221031GF108991081051004501999999KA1999M-00021MD1710051+9999MW1781REMSYN076AAXX  16151 23933 /1497 82803 11015 21032 40174 57005 77872 885// 333 11002;
0180239330999992000101618004+60960+069060FM-12+0040USHH V0202801N003010042019N0100001N1-00101-00321101721ADDAA100000191AY181061AY271061GF107991071031004501001001KA1999M-00021MD1210021+9999MW1261REMSYN082AAXX  16181 23933 11497 72803 11010 21032 40172 52002 69920 72687 87300 333 11002;
0112239330999992000101621004+60960+069060FM-12+0040USHH V0202701N002010075019N0100001N1-00021-00261101661ADDGF107991071051008001001001MD1710061+9999REMSYN060AAXX  16211 23933 42597 72702 11002 21026 40166 57006 87500;
0133239330999992000101700004+60960+069060FM-12+0040USHH V0203101N002010075019N0100001N1+00061-00171101751ADDGF108991081051008001999999MA1999999101161MD1310101+9999REMSYN066AAXX  17001 23933 42597 83102 10006 21017 30116 40175 53010 885//;
0170239330999992000101703004+60960+069060FM-12+0040USHH V0203101N002010075019N0100001N1+00061-00211101931ADDAJ199993999999999GF108991081051008001999999IA1239MD1210181+9999REMSYN076AAXX  17031 23933 /2597 83102 10006 21021 40193 52018 885// 333 47997 55000;EQDQ01  09982SNDP  
0180239330999992000101706004+60960+069060FM-12+0040USHH V0203301N002010075019N0100001N1+00101-00361102101ADDAA100000791AY181061AY221061GF107991071051008001001001KA1999N-00111MD1210171+9999MW1021REMSYN082AAXX  17061 23933 11597 73302 10010 21036 40210 52017 69900 70282 87500 333 21011;
0140239330999992000101709004+60960+069060FM-12+0040USHH V0203401N002010075019N0100001N1+00191-00501102261ADDAY181031AY221031GF107991071031008001001001MD1210161+9999MW1851REMSYN066AAXX  17091 23933 41597 73402 10019 21050 40226 52016 78582 87300;
0161239330999992000101712004+60960+069060FM-12+0040USHH V0203301N002019999999N0100001N1+00151-00591102421ADDAY181061AY221061GF108991081001999999021999MA1999999101831MD1210161+9999MW1021REMSYN072AAXX  17121 23933 41997 83302 10015 21059 30183 40242 52016 70282 8802/;
0135239330999992000101715004+60960+069060FM-12+0040USHH V0203401N003012200019N0100001N1+00041-00621102571ADDGF104991041051008001001001KA1999M+00201MD1210151+9999REMSYN070AAXX  17151 23933 /2597 43403 10004 21062 40257 52015 84500 333 10020;
0152239330999992000101718004+60960+069060FM-12+0040USHH V0202501N003010075019N0100001N1-00131-00681102681ADDAA100000791GF107991071051008001001001KA1999M+00201MD1210101+9999REMSYN076AAXX  17181 23933 12597 72503 11013 21068 40268 52010 69900 87500 333 10020;
0112239330999992000101721004+60960+069060FM-12+0040USHH V0202801N003019999999N0100001N1-00101-00551102651ADDGF108991081001999999021999MD1810031+9999REMSYN060AAXX  17211 23933 42997 82803 11010 21055 40265 58003 8802/;
0161239330999992000101800004+60960+069060FM-12+0040USHH V0202901N003010300019N0100001N1-00041-00191102671ADDAY171061AY221061GF108991021071004501021999MA1999999102071MD1310021+9999MW1711REMSYN072AAXX  18001 23933 41497 82903 11004 21019 30207 40267 53002 77172 8272/;
0179239330999992000101803004+60960+069060FM-12+0040USHH V0202901N002010042019N0100001N1+00031-00051102771ADDAJ100019199999999AY171031AY221031GF108991061071004501021999IA1239MD1210111+9999MW1221REMSYN082AAXX  18031 23933 /1497 82902 10003 21005 40277 52011 72272 8672/ 333 47001 55000;
0180239330999992000101806004+60960+069060FM-12+0040USHH V0203301N002010075019N0100001N1+00071-00161102851ADDAA100000891AY171061AY221061GF105991051051008001001001KA1999N-00131MD1210081+9999MW1021REMSYN082AAXX  18061 23933 11597 53302 10007 21016 40285 52008 69970 70272 85500 333 21013;
0112239330999992000101809004+60960+069060FM-12+0040USHH V0202801N001010075019N0100001N1+00261-00261102861ADDGF107991071051008001001001MD1210011+9999REMSYN060AAXX  18091 23933 42597 72801 10026 21026 40286 52001 87500;
0146239330999992000101815004+60960+069060FM-12+0040USHH V0202401N003010075019N0100001N1+00151-00131102511ADDAA199000021GF107991071051008001001001KA1999M+00271MD1710241+9999REMSYN070AAXX  18151 23933 32597 72403 10015 21013 40251 57024 87500 333 10027;
0165239330999992000101818004+60960+069060FM-12+0040USHH V0202501N003019999999N0100001N1+00261-00011102111ADDAA199000091GF108991081001999999021999KA1999M+00271MD1710401+9999REMSYN070AAXX  18181 23933 32997 82503 10026 21001 40211 57040 8802/ 333 10027;EQDQ01  00002PRCP99
0140239330999992000101821004+60960+069060FM-12+0040USHH V0202401N003010075019N0100001N1+00301+00091101791ADDAY181031AY221031GF108991081031008001999999MD1710321+9999MW1811REMSYN066AAXX  18211 23933 41597 82403 10030 20009 40179 57032 78182 883//;
0161239330999992000101900004+60960+069060FM-12+0040USHH V0202801N004010075019N0100001N1+00271+00091101501ADDAY181061AY221061GF108991081031008001999999MA1999999100911MD1710291+9999MW1811REMSYN072AAXX  19001 23933 41597 82804 10027 20009 30091 40150 57029 78182 883//;
0150239330999992000101903004+60960+069060FM-12+0040USHH V0202701N004010075019N0100001N1+00231+00041101391ADDAY181031AY221031GF108991081031008001999999MD1710111+9999MW1811REMSYN076AAXX  19031 23933 /1597 82704 10023 20004 40139 57011 78182 883// 333 55001;
0180239330999992000101906004+60960+069060FM-12+0040USHH V0202701N004010075019N0100001N1+00331+00141101161ADDAA100002091AY181061AY221061GF108991081031008001999999KA1999N+00151MD1710231+9999MW1251REMSYN082AAXX  19061 23933 11597 82704 10033 20014 40116 57023 60020 72582 883// 333 20015;
0112239330999992000101909004+60960+069060FM-12+0040USHH V0202801N004010075019N0100001N1+00421+00141101101ADDGF108991081031008001999999MD1710061+9999REMSYN060AAXX  19091 23933 42597 82804 10042 20014 40110 57006 883//;
0161239330999992000101912004+60960+069060FM-12+0040USHH V0202901N004010075019N0100001N1+00371+00141100911ADDAY181061AY221061GF108991081031008001999999MA1999999100331MD1710181+9999MW1811REMSYN072AAXX  19121 23933 41597 82904 10037 20014 30033 40091 57018 78182 883//;
0163239330999992000101915004+60960+069060FM-12+0040USHH V0202901N003010075019N0100001N1+00331+00261100721ADDAY181031AY221031GF108991081031008001999999KA1999M+00481MD1710191+9999MW1801REMSYN076AAXX  19151 23933 /1597 82903 10033 20026 40072 57019 78082 883// 333 10048;
0180239330999992000101918004+60960+069060FM-12+0040USHH V0202901N002010075019N0100001N1+00281+00231100561ADDAA100002091AY181061AY221061GF108991081031008001999999KA1999M+00481MD1710161+9999MW1801REMSYN082AAXX  19181 23933 11597 82902 10028 20023 40056 57016 60020 78082 883// 333 10048;
0140239330999992000101921004+60960+069060FM-12+0040USHH V0203001N001010075019N0100001N1+00211+00131100571ADDAY181031AY221031GF108991081031008001999999MD1310011+9999MW1801REMSYN066AAXX  19211 23933 41597 83001 10021 20013 40057 53001 78082 883//;
0180239330999992000102000004+60960+069060FM-12+0040USHH V0202901N002010075019N0100001N1+00281+00231100561ADDAA100002091AY181061AY221061GF108991081031008001999999KA1999M+00481MD1710161+9999MW1801REMSYN082AAXX  20001 23933 11597 82902 10028 20023 40056 57016 60020 78082 883// 333 10048;
0198239330999992000102003004+60960+069060FM-12+0040USHH V0200301N004010075019N0100001N1-00201-00351100951ADDAJ199993999999999AY181031AY221031GF108991081031008001999999IA1309MD1210291+9999MW1851REMSYN082AAXX  20031 23933 /1597 80304 11020 21035 40095 52029 78582 883// 333 42997 55000;EQDQ01  09982SNDP  
0199239330999992000102006004+60960+069060FM-12+0040USHH V0200401N005012200019N0100001N1-00541-00921101471ADDAA100005191AY181061AY221061GF105991031031004501001011KA1999N+99999MD1210501+9999MW1261REMSYN082AAXX  20061 23933 11497 50405 11054 21092 40147 52050 60050 72682 83301 333 21020;EQDQ01 -00202ATMN  
0112239330999992000102009004+60960+069060FM-12+0040USHH V0200201N005012200019N0100001N1-00681-01411101851ADDGF102991021011008001001001MD1210381+9999REMSYN060AAXX  20091 23933 42597 20205 11068 21141 40185 52038 82100;
0143239330999992000102012004+60960+069060FM-12+0040USHH V0200601N004012200019N0100001N1-00841-01481102261ADDGA1001+999999999GF100991001001999999001001MA1999999101651MD1210411+9999REMSYN060AAXX  20121 23933 42997 00604 11084 21148 30165 40226 52041;
0145239330999992000102015004+60960+069060FM-12+0040USHH V0200701N004012200019N0100001N1-01021-01631102521ADDGA1001+999999999GF100991001001999999001001KA1999M-00111MD1210241+9999REMSYN064AAXX  20151 23933 /2997 00704 11102 21163 40252 52024 333 11011;
0162239330999992000102018004+60960+069060FM-12+0040USHH V0203501N003012200019N0100001N1-01121-01711102721ADDAA100005191GA1001+999999999GF100991001001999999001001KA1999M-00211MD1210201+9999REMSYN070AAXX  20181 23933 12997 03503 11112 21171 40272 52020 60050 333 11021;
0122239330999992000102021004+60960+069060FM-12+0040USHH V0203501N002012200019N0100001N1-01141-01611102941ADDGA1001+999999999GF100991001001999999001001MD1210221+9999REMSYN054AAXX  20211 23933 42997 03502 11114 21161 40294 52022;
0143239330999992000102100004+60960+069060FM-12+0040USHH V0203101N001012200019N0100001N1-01231-01541103021ADDGA1001+999999999GF100991001001999999001001MA1999999102791MD1210081+9999REMSYN060AAXX  21001 23933 42997 03101 11123 21154 30279 40302 52008;
0197239330999992000102103004+60960+069060FM-12+0040USHH V0203301N002019999999N0100001N1-01321-01531102971ADDAA199000091AJ199993999999999GF107991001001999999001011IA1309MD1810051+9999REMSYN076AAXX  21031 23933 32997 73302 11132 21153 40297 58005 80001 333 42997 55038;EQDQ01  00002PRCP99Q02  09982SNDP  
0165239330999992000102106004+60960+069060FM-12+0040USHH V0202901N002019999999N0100001N1-00991-01521102931ADDAA199000091GF105991001001999999001011KA1999N-01341MD1710041+9999REMSYN070AAXX  21061 23933 32997 52902 11099 21152 40293 57004 80001 333 21134;EQDQ01  00002PRCP99
0112239330999992000102109004+60960+069060FM-12+0040USHH V0202401N002019999999N0100001N1-00661-01271102811ADDGF106991001001999999001011MD1710101+9999REMSYN060AAXX  21091 23933 42997 62402 11066 21127 40281 57010 80001;
0133239330999992000102112004+60960+069060FM-12+0040USHH V0202101N002019999999N0100001N1-00681-01301102671ADDGF107991021001999999031011MA1999999102061MD1710141+9999REMSYN066AAXX  21121 23933 42997 72102 11068 21130 30206 40267 57014 82031;
0112239330999992000102115004+60960+069060FM-12+0040USHH V0202401N002019999999N0100001N1-00661-01271102811ADDGF106991001001999999001011MD1710101+9999REMSYN060AAXX  21151 23933 42997 62402 11066 21127 40281 57010 80001;
0165239330999992000102118004+60960+069060FM-12+0040USHH V0202501N003019999999N0100001N1-00761-01311102331ADDAA199000091GF105991051001999999031001KA1999M-00641MD1710131+9999REMSYN070AAXX  21181 23933 32997 52503 11076 21131 40233 57013 85030 333 11064;EQDQ01  00002PRCP99
0112239330999992000102121004+60960+069060FM-12+0040USHH V0202101N002019999999N0100001N1-00681-01201102081ADDGF106991061001999999031001MD1710251+9999REMSYN060AAXX  21211 23933 42997 62102 11068 21120 40208 57025 86030;
0133239330999992000102200004+60960+069060FM-12+0040USHH V0202401N001019999999N0100001N1-00621-00971101971ADDGF108991001001999999001011MA1999999101361MD1710111+9999REMSYN066AAXX  22001 23933 42997 82401 11062 21097 30136 40197 57011 80001;
0197239330999992000102203004+60960+069060FM-12+0040USHH V0202401N001012200019N0100001N1-00611-00841101981ADDAA199000091AJ199993999999999GF103991001001999999001011IA1309MD1810011+9999REMSYN076AAXX  22031 23933 32997 32401 11061 21084 40198 58001 80001 333 42997 55074;EQDQ01  00002PRCP99Q02  09982SNDP  
0175239330999992000102206004+60960+069060FM-12+0040USHH V0202101N001012200019N0100001N1-00221-00691102201ADDAA199000091GA1001+999999999GF100991001001999999001001KA1999N-00731MD1210031+9999REMSYN064AAXX  22061 23933 32997 02101 11022 21069 40220 52003 333 21073;EQDQ01  00002PRCP99
0122239330999992000102209004+60960+069060FM-12+0040USHH V0202801N002012200019N0100001N1+00001-00501102001ADDGA1001+999999999GF100991001001999999001001MD1410001+9999REMSYN054AAXX  22091 23933 42997 02802 10000 21050 40200 54000;
0133239330999992000102212004+60960+069060FM-12+0040USHH V0202301N002019999999N0100001N1-00041-00551102031ADDGF107991061001999999031011MA1999999101431MD1310031+9999REMSYN066AAXX  22121 23933 42997 72302 11004 21055 30143 40203 53003 86031;
0165239330999992000102215004+60960+069060FM-12+0040USHH V0202501N002010300019N0100001N1-00161-00401101971ADDAA199000091GF108991021051008001021999KA1999M+00031MD1810061+9999REMSYN070AAXX  22151 23933 32597 82502 11016 21040 40197 58006 8252/ 333 10003;EQDQ01  00002PRCP99
0165239330999992000102218004+60960+069060FM-12+0040USHH V0202401N003019999999N0100001N1-00141-00281101871ADDAA199000091GF108991081001999999021999KA1999M+00031MD1710101+9999REMSYN070AAXX  22181 23933 32997 82403 11014 21028 40187 57010 8802/ 333 10003;EQDQ01  00002PRCP99
0112239330999992000102221004+60960+069060FM-12+0040USHH V0202401N003019999999N0100001N1-00181-00261101751ADDGF108991081001999999021999MD1710121+9999REMSYN060AAXX  22211 23933 42997 82403 11018 21026 40175 57012 8802/;
0133239330999992000102300004+60960+069060FM-12+0040USHH V0202301N002010042019N0100001N1-00041-00131101651ADDGF107991071061004501001001MA1999999101051MD1710101+9999REMSYN066AAXX  23001 23933 42497 72302 11004 21013 30105 40165 57010 87600;
0197239330999992000102303004+60960+069060FM-12+0040USHH V0202501N003010042019N0100001N1-00021-00111101511ADDAA199000091AJ199993999999999GF108991081061004501999999IA1309MD1710141+9999REMSYN076AAXX  23031 23933 32497 82503 11002 21011 40151 57014 886// 333 42997 55079;EQDQ01  00002PRCP99Q02  09982SNDP  
0193239330999992000102306004+60960+069060FM-12+0040USHH V0202401N002010042019N0100001N1+00011-00041101441ADDAA199000091AY121061AY221061GF108991081061004501999999KA1999N-00201MD1710061+9999MW1101REMSYN076AAXX  23061 23933 31497 82402 10001 21004 40144 57006 71022 886// 333 21020;EQDQ01  00002PRCP99
0112239330999992000102309004+60960+069060FM-12+0040USHH V0202401N002010075019N0100001N1+00191+00061101401ADDGF108991081051008001999999MD1710041+9999REMSYN060AAXX  23091 23933 42597 82402 10019 20006 40140 57004 885//;
0133239330999992000102312004+60960+069060FM-12+0040USHH V0202101N003010075019N0100001N1+00221+00001101241ADDGF108991081051008001999999MA1999999100651MD1710161+9999REMSYN066AAXX  23121 23933 42597 82103 10022 20000 30065 40124 57016 885//;
0165239330999992000102315004+60960+069060FM-12+0040USHH V0202201N005010075019N0100001N1+00281-00241100911ADDAA199000091GF107991071051008001001001KA1999M+00321MD1710321+9999REMSYN070AAXX  23151 23933 32597 72205 10028 21024 40091 57032 87500 333 10032;EQDQ01  00002PRCP99
0174239330999992000102318004+60960+069060FM-12+0040USHH V0202401N004010075019N0100001N1+00271-00181100771ADDAA199000021AY171061AY221061GF108991081051008001999999KA1999M+00321MD1710181+9999MW1711REMSYN076AAXX  23181 23933 31597 82404 10027 21018 40077 57018 77172 885// 333 10032;
0140239330999992000102321004+60960+069060FM-12+0040USHH V0202201N002010075019N0100001N1+00241-00121100531ADDAY171031AY221031GF108991081051008001999999MD1710241+9999MW1021REMSYN066AAXX  23211 23933 41597 82202 10024 21012 40053 57024 70272 885//;
0133239330999992000102400004+60960+069060FM-12+0040USHH V0201901N002010075019N0100001N1+00251+00011100241ADDGF108991081051008001999999MA1999999099661MD1710291+9999REMSYN066AAXX  24001 23933 42597 81902 10025 20001 39966 40024 57029 885//;
0122239330999992000102403004+60960+069060FM-12+0040USHH V0202101N002010075019N0100001N1+00241-00031100091ADDGF108991081051008001999999MD1710151+9999REMSYN070AAXX  24031 23933 /2597 82102 10024 21003 40009 57015 885// 333 55000;
0180239330999992000102406004+60960+069060FM-12+0040USHH V0201801N002010075019N0100001N1+00231-00021099951ADDAA100000791AY161061AY221061GF108991081051008001999999KA1999N+00241MD1710121+9999MW1611REMSYN082AAXX  24061 23933 11597 81802 10023 21002 49995 57012 69900 76162 885// 333 20024;
0140239330999992000102409004+60960+069060FM-12+0040USHH V0202201N003010042019N0100001N1+00201+00041099931ADDAY161031AY221031GF108991081001004501021999MD1710021+9999MW1611REMSYN066AAXX  24091 23933 41497 82203 10020 20004 49993 57002 76162 8802/;
0161239330999992000102412004+60960+069060FM-12+0040USHH V0202201N003010075019N0100001N1+00231+00071099951ADDAY161061AY221061GF108991081051008001999999MA1999999099381MD1310021+9999MW1211REMSYN072AAXX  24121 23933 41597 82203 10023 20007 39938 49995 53002 72162 885//;
0182239330999992000102415004+60960+069060FM-12+0040USHH V0202201N003010042019N0100001N1+00241+00161100071ADDAY161031AY221031GF108991999071004501021999KA1999M+00301MD1210111+9999MW1611REMSYN076AAXX  24151 23933 /1497 82203 10024 20016 40007 52011 76162 8872/ 333 10030;EQDQ01+000082SCOTLC
0180239330999992000102418004+60960+069060FM-12+0040USHH V0201901N002010042019N0100001N1+00181+00131100011ADDAA100002091AY161061AY251061GF108991081061004501999999KA1999M+00301MD1810061+9999MW1511REMSYN082AAXX  24181 23933 11497 81902 10018 20013 40001 58006 60020 75165 886// 333 10030;
0140239330999992000102421004+60960+069060FM-12+0040USHH V0202201N002010075019N0100001N1+00221+00191100071ADDAY161031AY251031GF108991081051008001999999MD1310061+9999MW1611REMSYN066AAXX  24211 23933 41597 82202 10022 20019 40007 53006 76165 885//;
0180239330999992000102500004+60960+069060FM-12+0040USHH V0202301N003010042019N0100001N1-00011+99999100161ADDAY161061AY251061GF108991999071004501021999MA1999999099581MD1210091+9999MW1611REMSYN072AAXX  25001 23933 41497 82303 11001 20004 39958 40016 52009 76165 8872/;EQDQ01+000082SCOTLC
0150239330999992000102503004+60960+069060FM-12+0040USHH V0202401N002010042019N0005001N1+00121+00041100281ADDAY141031AY221031GF108991081061004501999999MD1210161+9999MW1441REMSYN076AAXX  25031 23933 /1493 82402 10012 20004 40028 52016 74442 886// 333 55000;
0199239330999992000102506004+60960+069060FM-12+0040USHH V0202401N002010042019N0020001N1+00041-00021100471ADDAA100002091AY161061AY241061GF108991081061004501999999KA1999N+99999MD1210191+9999MW1101REMSYN082AAXX  25061 23933 11495 82402 10004 21002 40047 52019 60020 71064 886// 333 20011;EQDQ01 +00112ATMN  
0112239330999992000102509004+60960+069060FM-12+0040USHH V0202201N002010075019N0100001N1+00121+00011100661ADDGF108991061051008001021999MD1210191+9999REMSYN060AAXX  25091 23933 42597 82202 10012 20001 40066 52019 8652/;
0161239330999992000102512004+60960+069060FM-12+0040USHH V0202501N002010042019N0100001N1+00141+00001101081ADDAY181061AY221061GF108991081031004501999999MA1999999100491MD1210411+9999MW1021REMSYN072AAXX  25121 23933 41497 82502 10014 20000 30049 40108 52041 70282 883//;
0163239330999992000102515004+60960+069060FM-12+0040USHH V0202701N002010042019N0100001N1+00111+00001101171ADDAY181031AY221031GF108991081031004501999999KA1999M+00161MD1210091+9999MW1251REMSYN076AAXX  25151 23933 /1497 82702 10011 20000 40117 52009 72582 883// 333 10016;
0180239330999992000102518004+60960+069060FM-12+0040USHH V0202901N003019999999N0040001N1+00111+00031101351ADDAA100000791AY181061AY221061GF108991031051004501999999KA1999M+00161MD1210181+9999MW1101REMSYN082AAXX  25181 23933 11496 82903 10011 20003 40135 52018 69900 71082 835// 333 10016;
0112239330999992000102521004+60960+069060FM-12+0040USHH V0202801N004010042019N0100001N1-00021-00201101611ADDGF108991081051004501999999MD1210251+9999REMSYN060AAXX  25211 23933 42497 82804 11002 21020 40161 52025 885//;
0161239330999992000102600004+60960+069060FM-12+0040USHH V0203001N002010042019N0100001N1-00011-00211101691ADDAY181061AY221061GF108991081031004501999999MA1999999101091MD1210081+9999MW1851REMSYN072AAXX  26001 23933 41497 83002 11001 21021 30109 40169 52008 78582 883//;
0180239330999992000102606004+60960+069060FM-12+0040USHH V0202401N003010300019N0100001N1+00001-00171101601ADDAA100000791AY181061AY221061GF106991021071004501031011KA1999N-00061MD1810121+9999MW1021REMSYN082AAXX  26061 23933 11497 62403 10000 21017 40160 58012 69900 70282 82731 333 21006;
0140239330999992000102609004+60960+069060FM-12+0040USHH V0202101N004010042019N0100001N1+00131-00011101371ADDAY181031AY281031GF108991081031004501999999MD1710221+9999MW1871REMSYN066AAXX  26091 23933 41497 82104 10013 21001 40137 57022 78788 883//;
0135239330999992000102615004+60960+069060FM-12+0040USHH V0202201N004010075019N0100001N1+00221-00151101181ADDGF108991061051008001021999KA1999M+00241MD1710071+9999REMSYN070AAXX  26151 23933 /2597 82204 10022 21015 40118 57007 8652/ 333 10024;
0129239330999992000102618004+60960+069060FM-12+0040USHH V0202401N004010075019N0100001N1+00341-00161101181ADDAA100000591GF108991081051008001999999MD1410001+9999REMSYN066AAXX  26181 23933 13597 82404 10034 21016 40118 54000 69960 885//;
0112239330999992000102621004+60960+069060FM-12+0040USHH V0202501N004012200019N0100001N1+00261-00201101231ADDGF102991001001999999001011MD1310051+9999REMSYN060AAXX  26211 23933 42997 22504 10026 21020 40123 53005 80001;
0133239330999992000102700004+60960+069060FM-12+0040USHH V0202301N004010042019N0100001N1+00291-00161101221ADDGF108991081051004501999999MA1999999100631MD1810011+9999REMSYN066AAXX  27001 23933 42497 82304 10029 21016 30063 40122 58001 885//;
0152239330999992000102703004+60960+069060FM-12+0040USHH V0202201N004010075019N0100001N1+00201-00231101311ADDAA199000091GF108991081051008001999999MD1310091+9999REMSYN070AAXX  27031 23933 32597 82204 10020 21023 40131 53009 885// 333 55000;EQDQ01  00002PRCP99
0165239330999992000102706004+60960+069060FM-12+0040USHH V0202301N004010075019N0100001N1+00211-00191101311ADDAA199000091GF108991081051008001999999KA1999N+00201MD1410001+9999REMSYN070AAXX  27061 23933 32597 82304 10021 21019 40131 54000 885// 333 20020;EQDQ01  00002PRCP99
0112239330999992000102709004+60960+069060FM-12+0040USHH V0202501N002010075019N0100001N1+00261-00161101181ADDGF108991081051008001999999MD1810131+9999REMSYN060AAXX  27091 23933 42597 82502 10026 21016 40118 58013 885//;
0133239330999992000102712004+60960+069060FM-12+0040USHH V0202401N002010075019N0100001N1+00191-00251101171ADDGF108991081051008001999999MA1999999100581MD1710011+9999REMSYN066AAXX  27121 23933 42597 82402 10019 21025 30058 40117 57001 885//;
0165239330999992000102715004+60960+069060FM-12+0040USHH V0203601N003019999999N0100001N1+00151-00131101041ADDAA199000091GF108991001001999999001011KA1999M+00281MD1710131+9999REMSYN070AAXX  27151 23933 32997 83603 10015 21013 40104 57013 80001 333 10028;EQDQ01  00002PRCP99
0174239330999992000102718004+60960+069060FM-12+0040USHH V0203601N002019999999N0100001N1+00181+00051100971ADDAA199000021AY161061AY221061GF108991081001999999021999KA1999M+00281MD1710061+9999MW1611REMSYN076AAXX  27181 23933 31997 83602 10018 20005 40097 57006 76162 8802/ 333 10028;
0140239330999992000102721004+60960+069060FM-12+0040USHH V0203601N002010300019N0100001N1+00241+00141100901ADDAY161031AY251031GF108991041061004501021999MD1710071+9999MW1511REMSYN066AAXX  27211 23933 41497 83602 10024 20014 40090 57007 75165 8462/;
0161239330999992000102800004+60960+069060FM-12+0040USHH V0203601N002010042019N0100001N1+00291+00161100841ADDAY161061AY251061GF108991081061004501999999MA1999999100261MD1710061+9999MW1511REMSYN072AAXX  28001 23933 41497 83602 10029 20016 30026 40084 57006 75165 886//;
0150239330999992000102803004+60960+069060FM-12+0040USHH V0202301N003010042019N0100001N1+00351+00301100791ADDAY151031AY221031GF108991081061004501999999MD1710051+9999MW1511REMSYN076AAXX  28031 23933 /1497 82303 10035 20030 40079 57005 75152 886// 333 55000;
0180239330999992000102806004+60960+069060FM-12+0040USHH V0202001N003010075019N0100001N1+00411+00341100791ADDAA100010991AY161061AY251061GF108991081051008001999999KA1999N+00151MD1410001+9999MW1211REMSYN082AAXX  28061 23933 11597 82003 10041 20034 40079 54000 60110 72165 885// 333 20015;
0112239330999992000102809004+60960+069060FM-12+0040USHH V0202201N003010075019N0100001N1+00491+00371100741ADDGF108991081051008001999999MD1810041+9999REMSYN060AAXX  28091 23933 42597 82203 10049 20037 40074 58004 885//;
0133239330999992000102812004+60960+069060FM-12+0040USHH V0202001N002010075019N0100001N1+00521+00381100791ADDGF108991081051008001999999MA1999999100221MD1310051+9999REMSYN066AAXX  28121 23933 42597 82002 10052 20038 30022 40079 53005 885//;
0180239330999992000102818004+60960+069060FM-12+0040USHH V0202201N002010075019N0100001N1+00511+00321100391ADDAA100000591AY181061AY221061GF108991081031008001999999KA1999M+00561MD1710131+9999MW1801REMSYN082AAXX  28181 23933 11597 82202 10051 20032 40039 57013 69950 78082 883// 333 10056;
0140239330999992000102821004+60960+069060FM-12+0040USHH V0202301N005010075019N0100001N1+00601+00441100181ADDAY181031AY221031GF108991081051008001999999MD1710211+9999MW1611REMSYN066AAXX  28211 23933 41597 82305 10060 20044 40018 57021 76182 885//;
0161239330999992000102900004+60960+069060FM-12+0040USHH V0202301N003010075019N0100001N1+00661+00481100091ADDAY181061AY221061GF108991081051008001999999MA1999999099521MD1710091+9999MW1021REMSYN072AAXX  29001 23933 41597 82303 10066 20048 39952 40009 57009 70282 885//;
0158239330999992000102903004+60960+069060FM-12+0040USHH V0202301N003010075019N0100001N1+00611+00121099931ADDAA112003091GF108991081051008001999999KA1120N+00511MD1710151+9999REMSYN082AAXX  29031 23933 /2597 82303 10061 20012 49993 57015 885// 333 20051 60032 7004/;
0152239330999992000102906004+60960+069060FM-12+0040USHH V0202401N004010075019N0100001N1+00641+00411099841ADDAA100003091GF108991081051008001999999KA1999N+00511MD1710091+9999REMSYN076AAXX  29061 23933 12597 82404 10064 20041 49984 57009 60030 885// 333 20051;
0140239330999992000102909004+60960+069060FM-12+0040USHH V0202101N003010075019N0100001N1+00701+00451099731ADDAY181031AY221031GF108991081031008001999999MD1710111+9999MW1801REMSYN066AAXX  29091 23933 41597 82103 10070 20045 49973 57011 78082 883//;
0161239330999992000102912004+60960+069060FM-12+0040USHH V0202501N003010075019N0100001N1+00521+00211099631ADDAY181061AY221061GF108991081031008001999999MA1999999099071MD1710101+9999MW1801REMSYN072AAXX  29121 23933 41597 82503 10052 20021 39907 49963 57010 78082 883//;
0135239330999992000102915004+60960+069060FM-12+0040USHH V0202401N003010075019N0100001N1+00271+00031099811ADDGF106991061051008001001001KA1999M+00731MD1310171+9999REMSYN070AAXX  29151 23933 /2597 62403 10027 20003 49981 53017 86500 333 10073;
0152239330999992000102918004+60960+069060FM-12+0040USHH V0202201N002012200019N0100001N1+00101-00251099751ADDAA100001091GF103991031051008001001001KA1999M+00731MD1810061+9999REMSYN076AAXX  29181 23933 12597 32202 10010 21025 49975 58006 69990 83500 333 10073;
0112239330999992000102921004+60960+069060FM-12+0040USHH V0202401N003012200019N0100001N1+00081-00311099741ADDGF103991031051008001001001MD1710011+9999REMSYN060AAXX  29211 23933 42597 32403 10008 21031 49974 57001 83500;
0143239330999992000103000004+60960+069060FM-12+0040USHH V0202501N002012200019N0100001N1+00071-00291099721ADDGA1001+999999999GF100991001001999999001001MA1999999099151MD1710021+9999REMSYN060AAXX  30001 23933 42997 02502 10007 21029 39915 49972 57002;
0152239330999992000103003004+60960+069060FM-12+0040USHH V0202601N004010300019N0100001N1-00241-00681099751ADDAA199000091GF106991021021008001031021MD1310021+9999REMSYN070AAXX  30031 23933 32597 62604 11024 21068 49975 53002 82232 333 55000;EQDQ01  00002PRCP99
0165239330999992000103006004+60960+069060FM-12+0040USHH V0202701N003010075019N0100001N1-00221-00731099911ADDAA199000091GF105991051021008001001001KA1999N-00231MD1210161+9999REMSYN070AAXX  30061 23933 32597 52703 11022 21073 49991 52016 85200 333 21023;EQDQ01  00002PRCP99
0112239330999992000103009004+60960+069060FM-12+0040USHH V0202901N004012200019N0100001N1-00161-00721099871ADDGF106991031021008001001011MD1810041+9999REMSYN060AAXX  30091 23933 42597 62904 11016 21072 49987 58004 83201;
0161239330999992000103012004+60960+069060FM-12+0040USHH V0202601N003010042019N0100001N1-00281-00901100021ADDAY181061AY271061GF106991061031004501999999MA1999999099431MD1310141+9999MW1801REMSYN072AAXX  30121 23933 41497 62603 11028 21090 39943 40002 53014 78087 863//;
0163239330999992000103015004+60960+069060FM-12+0040USHH V0203101N003010075019N0100001N1-00701-01081100231ADDAY181031AY271031GF108991081051008001999999KA1999M-00271MD1210201+9999MW1261REMSYN076AAXX  30151 23933 /1597 83103 11070 21108 40023 52020 72687 885// 333 11027;
0193239330999992000103018004+60960+069060FM-12+0040USHH V0203401N002010075019N0100001N1-01121-01561100391ADDAA100000791AY181061AY221061GF108991081031008001999999KA1999M-00211MD1210151+9999REMSYN082AAXX  30181 23933 11597 83402 11112 21156 40039 52015 69900 78282 883// 333 11021;EQDQ01+000822PRSWM1
0140239330999992000103021004+60960+069060FM-12+0040USHH V0203101N004012200019N0100001N1-01301-01911100651ADDAY181031AY221031GF103991031021008001001001MD1210261+9999MW1261REMSYN066AAXX  30211 23933 42597 33104 11130 21191 40065 52026 72682 83200;
0119239330999992000103100004+60960+069060FM-12+0040USHH V0203001N003012200019N0100001N1+99999+99999999999ADDGA1001+999999999GF100991001001999999001001REMSYN065AAXX  31001 23933 41997 03003 1113 21186 30032 40093 52028 70282;
0186239330999992000103103004+60960+069060FM-12+0040USHH V0201501N003012200019N0100001N1-01591-01691101141ADDAJ199993999999999GF103991999071004501001001IA1279MD1210191+9999REMSYN076AAXX  31031 23933 /2497 31503 11159 21169 40114 52019 81700 333 43997 55047;EQDQ01+000012SCOTLCQ02  09982SNDP  
0152239330999992000103106004+60960+069060FM-12+0040USHH V0203101N003019999999N0100001N1-01381-01731101281ADDAA100000791GF106991031001999999031011KA1999N-01501MD1210151+9999REMSYN076AAXX  31061 23933 12997 63103 11138 21173 40128 52015 69900 83031 333 21150;
0112239330999992000103109004+60960+069060FM-12+0040USHH V0202501N001010300019N0100001N1-01121-01561101311ADDGF108991021051008001031011MD1210031+9999REMSYN060AAXX  31091 23933 42597 82501 11112 21156 40131 52003 82531;
0152239330999992000103112004+60960+069060FM-12+0040USHH V0203101N003019999999N0100001N1-01381-01731101281ADDAA100000791GF106991031001999999031011KA1999N-01501MD1210151+9999REMSYN076AAXX  31121 23933 12997 63103 11138 21173 40128 52015 69900 83031 333 21150;
0163239330999992000103115004+60960+069060FM-12+0040USHH V0209999C000019999999N0100001N1-01191-01541101551ADDAY171031AY221031GF108991001001999999001071KA1999M-01111MD1210181+9999MW1711REMSYN076AAXX  31151 23933 /1997 80000 11119 21154 40155 52018 77172 80007 333 11111;
0190239330999992000103118004+60960+069060FM-12+0040USHH V0209999C000012200019N0100001N1-01361-01631101571ADDAA100000591AY171061AY221061GA1001+999999999GF100991001001999999001001KA1999M-01111MD1210021+9999MW1021REMSYN076AAXX  31181 23933 11997 00000 11136 21163 40157 52002 69940 70272 333 11111;
0150239330999992000103121004+60960+069060FM-12+0040USHH V0202401N001012200019N0100001N1-01321-01591101601ADDAY171031AY221031GA1001+999999999GF100991001001999999001001MD1210031+9999MW1021REMSYN060AAXX  31211 23933 41997 02401 11132 21159 40160 52003 70272;
0143239330999992000110100004+60960+069060FM-12+0040USHH V0202501N002012200019N0100001N1-01421-01691101601ADDGA1001+999999999GF100991001001999999001001MA1999999100981MD1410001+9999REMSYN060AAXX  01001 23933 42997 02502 11142 21169 30098 40160 54000;
0170239330999992000110103004+60960+069060FM-12+0040USHH V0202501N003012200019N0100001N1-01501-01841101571ADDAJ199993999999999GF102991001001999999001021IA1279MD1810041+9999REMSYN076AAXX  01031 23933 /2997 22503 11150 21184 40157 58004 80002 333 43997 55000;EQDQ01  09982SNDP  
0112239330999992000110109004+60960+069060FM-12+0040USHH V0202701N003012200019N0100001N1-00661-01071101461ADDGF102991021021008001001001MD1710061+9999REMSYN060AAXX  01091 23933 42597 22703 11066 21107 40146 57006 82200;
0165239330999992000110115004+60960+069060FM-12+0040USHH V0202501N003010075019N0100001N1-00581-00971101471ADDAA199000091GF108991081051008001999999KA1999M-00521MD1210011+9999REMSYN070AAXX  01151 23933 32597 82503 11058 21097 40147 52001 885// 333 11052;EQDQ01  00002PRCP99
0165239330999992000110118004+60960+069060FM-12+0040USHH V0202601N003010075019N0100001N1-00681-01061101571ADDAA199000091GF107991071051008001001001KA1999M-00521MD1210101+9999REMSYN070AAXX  01181 23933 32597 72603 11068 21106 40157 52010 87500 333 11052;EQDQ01  00002PRCP99
0112239330999992000110121004+60960+069060FM-12+0040USHH V0202601N002010120019N0100001N1-00671-00951101671ADDGF107991071051012501001001MD1210101+9999REMSYN060AAXX  01211 23933 42697 72602 11067 21095 40167 52010 87500;
0133239330999992000110200004+60960+069060FM-12+0040USHH V0200801N002010120019N0100001N1-00711-01001101821ADDGF108991081051012501999999MA1999999101211MD1210151+9999REMSYN066AAXX  02001 23933 42697 80802 11071 21100 30121 40182 52015 885//;
0197239330999992000110203004+60960+069060FM-12+0040USHH V0200801N001010120019N0100001N1-00271-00641101991ADDAA199000091AJ199993999999999GF108991081051012501999999IA1279MD1210181+9999REMSYN076AAXX  02031 23933 32697 80801 11027 21064 40199 52018 885// 333 43997 55000;EQDQ01  00002PRCP99Q02  09982SNDP  
0165239330999992000110206004+60960+069060FM-12+0040USHH V0201001N002010120019N0100001N1-00251-00731101951ADDAA199000091GF108991081051012501999999KA1999N-00711MD1810031+9999REMSYN070AAXX  02061 23933 32697 81002 11025 21073 40195 58003 885// 333 21071;EQDQ01  00002PRCP99
0112239330999992000110209004+60960+069060FM-12+0040USHH V0201301N001010120019N0100001N1-00631-01031101971ADDGF108991081061012501999999MD1410001+9999REMSYN060AAXX  02091 23933 42697 81301 11063 21103 40197 54000 886//;
0133239330999992000110212004+60960+069060FM-12+0040USHH V0201001N002010075019N0100001N1-00651-00971101971ADDGF108991081061008001999999MA1999999101361MD1410001+9999REMSYN066AAXX  02121 23933 42597 81002 11065 21097 30136 40197 54000 886//;
0163239330999992000110215004+60960+069060FM-12+0040USHH V0200501N002010075019N0100001N1-00841-01121102081ADDAY181031AY221031GF108991081031008001999999KA1999M-00651MD1310111+9999MW1851REMSYN076AAXX  02151 23933 /1597 80502 11084 21112 40208 53011 78582 883// 333 11065;
0180239330999992000110218004+60960+069060FM-12+0040USHH V0200401N003010075019N0100001N1-01071-01201102311ADDAA100000191AY171061AY221061GF106991061051008001001001KA1999M-00651MD1210211+9999MW1711REMSYN082AAXX  02181 23933 11597 60403 11107 21120 40231 52021 69920 77172 86500 333 11065;
0122239330999992000110221004+60960+069060FM-12+0040USHH V0200301N001012200019N0100001N1-01401-01461102511ADDGA1001+999999999GF100991001001999999001001MD1210201+9999REMSYN054AAXX  02211 23933 42997 00301 11140 21146 40251 52020;
0143239330999992000110300004+60960+069060FM-12+0040USHH V0203101N001012200019N0100001N1-01481-01541102781ADDGA1001+999999999GF100991001001999999001001MA1999999102141MD1210261+9999REMSYN060AAXX  03001 23933 42997 03101 11148 21154 30214 40278 52026;
0151239330999992000110303004+60960+069060FM-12+0040USHH V0202901N002010075019N0100001N1-01221-01221103001ADDAJ100049199999999GF108991081051008001999999IA1239MD1210231+9999REMSYN076AAXX  03031 23933 /2597 82902 11122 21122 40300 52023 885// 333 47004 55000;
0180239330999992000110306004+60960+069060FM-12+0040USHH V0203101N002010750019N0100001N1-01131-01191103261ADDAA100000791AY171061AY221061GF108991021051008001001071KA1999N-01481MD1210261+9999MW1781REMSYN082AAXX  03061 23933 11597 83102 11113 21119 40326 52026 69900 77872 82507 333 21148;
0140239330999992000110309004+60960+069060FM-12+0040USHH V0203401N002012200019N0100001N1-01021-01021999999ADDAY171031AY211031GF102991001001999999001011MD1210201+9999MW1221REMSYN066AAXX  03091 23933 41997 23402 11102 21102 4345/ 52020 72271 80001;
0143239330999992000110312004+60960+069060FM-12+0040USHH V0200401N001012200019N0100001N1-01321-01381103731ADDGA1001+999999999GF100991001001999999001001MA1999999103101MD1210271+9999REMSYN060AAXX  03121 23933 42997 00401 11132 21138 30310 40373 52027;
0145239330999992000110315004+60960+069060FM-12+0040USHH V0200101N001012200019N0100001N1-01481-01751103881ADDGA1001+999999999GF100991001001999999001001KA1999M-01321MD1210141+9999REMSYN064AAXX  03151 23933 /2997 00101 11148 21175 40388 52014 333 11132;
0162239330999992000110318004+60960+069060FM-12+0040USHH V0202901N002012200019N0100001N1-01521-01791104071ADDAA100000791GA1001+999999999GF100991001001999999001001KA1999M-00991MD1210181+9999REMSYN070AAXX  03181 23933 12997 02902 11152 21179 40407 52018 69900 333 11099;
0122239330999992000110321004+60960+069060FM-12+0040USHH V0209999C000012200019N0100001N1-01581-01771104211ADDGA1001+999999999GF100991001001999999001001MD1210141+9999REMSYN054AAXX  03211 23933 42997 00000 11158 21177 40421 52014;
0143239330999992000110400004+60960+069060FM-12+0040USHH V0202401N001012200019N0100001N1-01571-01761104291ADDGA1001+999999999GF100991001001999999001001MA1999999103641MD1210081+9999REMSYN060AAXX  04001 23933 42997 02401 11157 21176 30364 40429 52008;
0152239330999992000110403004+60960+069060FM-12+0040USHH V0209999C000019999999N0100001N1-01541-01671104491ADDAA199000091GF106991001001999999001011MD1210201+9999REMSYN070AAXX  04031 23933 32997 60000 11154 21167 40449 52020 80001 333 55005;EQDQ01  00002PRCP99
0165239330999992000110406004+60960+069060FM-12+0040USHH V0202301N001019999999N0100001N1-01251-01521104421ADDAA199000091GF105991001001999999001011KA1999N-01531MD1810061+9999REMSYN070AAXX  04061 23933 32997 52301 11125 21152 40442 58006 80001 333 21153;EQDQ01  00002PRCP99
0112239330999992000110409004+60960+069060FM-12+0040USHH V0201301N001019999999N0100001N1-01091-01451104401ADDGF108991001001999999001021MD1710021+9999REMSYN060AAXX  04091 23933 42997 81301 11109 21145 40440 57002 80002;
0133239330999992000110412004+60960+069060FM-12+0040USHH V0201401N002019999999N0100001N1-01171-01521104391ADDGF108991001001999999001021MA1999999103751MD1710011+9999REMSYN066AAXX  04121 23933 42997 81402 11117 21152 30375 40439 57001 80002;
0165239330999992000110415004+60960+069060FM-12+0040USHH V0201601N002019999999N0100001N1-01151-01211104311ADDAA199000091GF106991001001999999001021KA1999M-01101MD1710081+9999REMSYN070AAXX  04151 23933 32997 61602 11115 21121 40431 57008 80002 333 11110;EQDQ01  00002PRCP99
0165239330999992000110418004+60960+069060FM-12+0040USHH V0201201N003019999999N0100001N1-01151-01431104261ADDAA199000091GF108991001001999999001021KA1999M-01101MD1710051+9999REMSYN070AAXX  04181 23933 32997 81203 11115 21143 40426 57005 80002 333 11110;EQDQ01  00002PRCP99
0112239330999992000110421004+60960+069060FM-12+0040USHH V0201101N004019999999N0100001N1-01301-01571104221ADDGF108991001001999999001021MD1710041+9999REMSYN060AAXX  04211 23933 42997 81104 11130 21157 40422 57004 80002;
0143239330999992000110500004+60960+069060FM-12+0040USHH V0200901N004012200019N0100001N1-01341-01541104251ADDGA1001+999999999GF100991001001999999001001MA1999999103611MD1310031+9999REMSYN060AAXX  05001 23933 42997 00904 11134 21154 30361 40425 53003;
0186239330999992000110503004+60960+069060FM-12+0040USHH V0201101N003012200019N0100001N1-01571-01841104321ADDAA199000091GA1001+999999999GF100991001001999999001001IA1069IA2999+00109MD1210061+9999REMSYN070AAXX  05031 23933 32997 01103 11157 21184 40432 52006 333 37001 55000;EQDQ01  00002PRCP99
0175239330999992000110506004+60960+069060FM-12+0040USHH V0201101N003012200019N0100001N1-01481-01821104451ADDAA199000091GA1001+999999999GF100991001001999999001001KA1999N-01571MD1210131+9999REMSYN064AAXX  05061 23933 32997 01103 11148 21182 40445 52013 333 21157;EQDQ01  00002PRCP99
0122239330999992000110509004+60960+069060FM-12+0040USHH V0201201N003012200019N0100001N1-01221-01741104501ADDGA1001+999999999GF100991001001999999001001MD1210061+9999REMSYN054AAXX  05091 23933 42997 01203 11122 21174 40450 52006;
0143239330999992000110512004+60960+069060FM-12+0040USHH V0200801N002012200019N0100001N1-01421-01771104621ADDGA1001+999999999GF100991001001999999001001MA1999999103981MD1210121+9999REMSYN060AAXX  05121 23933 42997 00802 11142 21177 30398 40462 52012;
0175239330999992000110515004+60960+069060FM-12+0040USHH V0200801N002012200019N0100001N1-01531-01661104851ADDAA199000091GA1001+999999999GF100991001001999999001001KA1999M-01221MD1210221+9999REMSYN064AAXX  05151 23933 32997 00802 11153 21166 40485 52022 333 11122;EQDQ01  00002PRCP99
0175239330999992000110518004+60960+069060FM-12+0040USHH V0201101N002012200019N0100001N1-01641-01771104861ADDAA199000091GA1001+999999999GF100991001001999999001001KA1999M-01221MD1210011+9999REMSYN064AAXX  05181 23933 32997 01102 11164 21177 40486 52001 333 11122;EQDQ01  00002PRCP99
0122239330999992000110521004+60960+069060FM-12+0040USHH V0201001N002012200019N0100001N1-01721-01841104761ADDGA1001+999999999GF100991001001999999001001MD1810011+9999REMSYN054AAXX  05211 23933 42997 01002 11172 21184 40476 58001;
0143239330999992000110600004+60960+069060FM-12+0040USHH V0201001N001012200019N0100001N1-01691-01811104821ADDGA1001+999999999GF100991001001999999001001MA1999999104171MD1310061+9999REMSYN060AAXX  06001 23933 42997 01001 11169 21181 30417 40482 53006;
0181239330999992000110603004+60960+069060FM-12+0040USHH V0201201N001019999999N0100001N1-01801-01991104891ADDAA199000091AJ100019199999999GF106991001001999999001011IA1239MD1210071+9999REMSYN076AAXX  06031 23933 32997 61201 11180 21199 40489 52007 80001 333 47001 55007;EQDQ01  00002PRCP99
0165239330999992000110606004+60960+069060FM-12+0040USHH V0201201N002012200019N0100001N1-01491-01691104891ADDAA199000091GF102991001001999999001011KA1999N-01801MD1410001+9999REMSYN070AAXX  06061 23933 32997 21202 11149 21169 40489 54000 80001 333 21180;EQDQ01  00002PRCP99
0122239330999992000110609004+60960+069060FM-12+0040USHH V0201301N001012200019N0100001N1-01061-01421104941ADDGA1001+999999999GF100991001001999999001001MD1310061+9999REMSYN054AAXX  06091 23933 42997 01301 11106 21142 40494 53006;
0143239330999992000110612004+60960+069060FM-12+0040USHH V0201101N001012200019N0100001N1-01241-01511104911ADDGA1001+999999999GF100991001001999999001001MA1999999104271MD1810031+9999REMSYN060AAXX  06121 23933 42997 01101 11124 21151 30427 40491 58003;
0175239330999992000110615004+60960+069060FM-12+0040USHH V0201801N001012200019N0100001N1-01301-01651104931ADDAA199000091GA1001+999999999GF100991001001999999001001KA1999M-01041MD1310021+9999REMSYN064AAXX  06151 23933 32997 01801 11130 21165 40493 53002 333 11104;EQDQ01  00002PRCP99
0175239330999992000110618004+60960+069060FM-12+0040USHH V0202101N002012200019N0100001N1-01311-01661104891ADDAA199000091GA1001+999999999GF100991001001999999001001KA1999M-01041MD1810041+9999REMSYN064AAXX  06181 23933 32997 02102 11131 21166 40489 58004 333 11104;EQDQ01  00002PRCP99
0122239330999992000110621004+60960+069060FM-12+0040USHH V0202201N002012200019N0100001N1-01361-01631104801ADDGA1001+999999999GF100991001001999999001001MD1710091+9999REMSYN054AAXX  06211 23933 42997 02202 11136 21163 40480 57009;
0143239330999992000110700004+60960+069060FM-12+0040USHH V0202401N003012200019N0100001N1-01381-01651104721ADDGA1001+999999999GF100991001001999999001001MA1999999104081MD1710081+9999REMSYN060AAXX  07001 23933 42997 02403 11138 21165 30408 40472 57008;
0181239330999992000110703004+60960+069060FM-12+0040USHH V0202501N004010075019N0100001N1-01431-01561104591ADDAA199000091AJ100019199999999GF108991081051008001999999IA1239MD1710131+9999REMSYN076AAXX  07031 23933 32597 82504 11143 21156 40459 57013 885// 333 47001 55004;EQDQ01  00002PRCP99
0193239330999992000110706004+60960+069060FM-12+0040USHH V0202101N002010075019N0100001N1-01201-01331104421ADDAA199000021AY171061AY221061GF108991999051008001021999KA1999N-01431MD1710171+9999MW1711REMSYN076AAXX  07061 23933 31597 82102 11120 21133 40442 57017 77172 8852/ 333 21143;EQDQ01+000082SCOTLC
0140239330999992000110709004+60960+069060FM-12+0040USHH V0202201N003019999999N0100001N1-00941-01061104261ADDAY171031AY221031GF108991081001999999021999MD1710151+9999MW1711REMSYN066AAXX  07091 23933 41997 82203 11094 21106 40426 57015 77172 8802/;
0161239330999992000110712004+60960+069060FM-12+0040USHH V0202401N002019999999N0100001N1-00851-01001104071ADDAY171061AY221061GF108991081001999999021999MA1999999103441MD1710191+9999MW1221REMSYN072AAXX  07121 23933 41997 82402 11085 21100 30344 40407 57019 72272 8802/;
0135239330999992000110715004+60960+069060FM-12+0040USHH V0202601N004019999999N0100001N1-00811-00991103901ADDGF108991081001999999021999KA1999M-00741MD1710161+9999REMSYN070AAXX  07151 23933 /2997 82604 11081 21099 40390 57016 8802/ 333 11074;
0152239330999992000110718004+60960+069060FM-12+0040USHH V0202301N003010075019N0100001N1-00861-01051103781ADDAA100000791GF108991081061008001999999KA1999M-00741MD1710121+9999REMSYN076AAXX  07181 23933 12597 82303 11086 21105 40378 57012 69900 886// 333 11074;
0112239330999992000110721004+60960+069060FM-12+0040USHH V0202501N003010075019N0100001N1-00851-01041103691ADDGF108991081061008001999999MD1710091+9999REMSYN060AAXX  07211 23933 42597 82503 11085 21104 40369 57009 886//;
0133239330999992000110800004+60960+069060FM-12+0040USHH V0202501N003010075019N0100001N1-00911-01111103571ADDGF108991081061008001999999MA1999999102951MD1710121+9999REMSYN066AAXX  08001 23933 42597 82503 11091 21111 30295 40357 57012 886//;
0165239330999992000110806004+60960+069060FM-12+0040USHH V0202601N004010075019N0100001N1-00611-00841103531ADDAA199000091GF108991081051008001999999KA1999N-00911MD1310011+9999REMSYN070AAXX  08061 23933 32597 82604 11061 21084 40353 53001 885// 333 21091;EQDQ01  00002PRCP99
0112239330999992000110809004+60960+069060FM-12+0040USHH V0202701N003010042019N0100001N1-00301-00541103521ADDGF108991051051004501071999MD1810011+9999REMSYN060AAXX  08091 23933 42497 82703 11030 21054 40352 58001 8557/;
0133239330999992000110812004+60960+069060FM-12+0040USHH V0202601N002010042019N0100001N1-00201-00411103561ADDGF108991061051004501071999MA1999999102951MD1310051+9999REMSYN066AAXX  08121 23933 42497 82602 11020 21041 30295 40356 53005 8657/;
0181239330999992000110815004+60960+069060FM-12+0040USHH V0202601N003012200019N0100001N1-00211-00361103511ADDAA199000091GF103991001001999999001011KA1999M-00161MD1810051+9999REMSYN070AAXX  08151 23933 32397 32603 11021 21036 40351 58005 80001 333 11016;EQDQ01+002502SCOLCBQ02  00002PRCP99
0181239330999992000110818004+60960+069060FM-12+0040USHH V0202601N003012200019N0100001N1-00241-00361103501ADDAA199000091GF102991001001999999001011KA1999M-00161MD1710011+9999REMSYN070AAXX  08181 23933 32297 22603 11024 21036 40350 57001 80001 333 11016;EQDQ01+001502SCOLCBQ02  00002PRCP99
0131239330999992000110821004+60960+069060FM-12+0040USHH V0202601N003012200019N0100001N1-00301-00371103431ADDGF103991001001999999001011MD1710071+9999REMSYN060AAXX  08211 23933 42397 32603 11030 21037 40343 57007 80001;EQDQ01+002502SCOLCB
0152239330999992000110900004+60960+069060FM-12+0040USHH V0202701N003012200019N0100001N1-00101-00201103421ADDGF103991001001999999001011MA1999999102811MD1710011+9999REMSYN066AAXX  09001 23933 42397 32703 11010 21020 30281 40342 57001 80001;EQDQ01+002502SCOLCB
0181239330999992000110903004+60960+069060FM-12+0040USHH V0202601N003012200019N0100001N1-00221-00381103441ADDAA199000091AJ100029199999999GF103991001001999999031011IA1239MD1310021+9999REMSYN076AAXX  09031 23933 32997 32603 11022 21038 40344 53002 80031 333 47002 55000;EQDQ01  00002PRCP99
0165239330999992000110906004+60960+069060FM-12+0040USHH V0202501N002019999999N0100001N1-00141-00291103501ADDAA199000091GF106991061001999999031001KA1999N-00301MD1210061+9999REMSYN070AAXX  09061 23933 32997 62502 11014 21029 40350 52006 86030 333 21030;EQDQ01  00002PRCP99
0112239330999992000110909004+60960+069060FM-12+0040USHH V0202501N002012200019N0100001N1+00011-00291103451ADDGF102991001001999999001021MD1810041+9999REMSYN060AAXX  09091 23933 42997 22502 10001 21029 40345 58004 80002;
0133239330999992000110912004+60960+069060FM-12+0040USHH V0202301N004012200019N0100001N1-00161-00451103421ADDGF102991011051008001001011MA1999999102811MD1710041+9999REMSYN066AAXX  09121 23933 42597 22304 11016 21045 30281 40342 57004 81501;
0165239330999992000110915004+60960+069060FM-12+0040USHH V0202501N003019999999N0100001N1-00301-00571103381ADDAA199000091GF107991071001999999031001KA1999M+00031MD1710041+9999REMSYN070AAXX  09151 23933 32997 72503 11030 21057 40338 57004 87030 333 10003;EQDQ01  00002PRCP99
0165239330999992000110918004+60960+069060FM-12+0040USHH V0202601N003012200019N0100001N1-00261-00871103111ADDAA199000091GF102991021001999999031001KA1999M+00031MD1710271+9999REMSYN070AAXX  09181 23933 32997 22603 11026 21087 40311 57027 82030 333 10003;EQDQ01  00002PRCP99
0112239330999992000110921004+60960+069060FM-12+0040USHH V0202501N004019999999N0100001N1-00251-01191103041ADDGF105991051001999999031001MD1710071+9999REMSYN060AAXX  09211 23933 42997 52504 11025 21119 40304 57007 85030;
0133239330999992000111000004+60960+069060FM-12+0040USHH V0202501N003012200019N0100001N1-00271-01331102911ADDGF102991021001999999031001MA1999999102311MD1710121+9999REMSYN066AAXX  10001 23933 42997 22503 11027 21133 30231 40291 57012 82030;
0181239330999992000111003004+60960+069060FM-12+0040USHH V0202801N004012200019N0100001N1-00281-01301102991ADDAA199000091AJ100029199999999GF102991021001999999031001IA1239MD1310081+9999REMSYN076AAXX  10031 23933 32997 22804 11028 21130 40299 53008 82030 333 47002 55004;EQDQ01  00002PRCP99
0165239330999992000111006004+60960+069060FM-12+0040USHH V0202501N004019999999N0100001N1-00181-01271102831ADDAA199000091GF106991051001999999031011KA1999N-00361MD1810161+9999REMSYN070AAXX  10061 23933 32997 62504 11018 21127 40283 58016 85031 333 21036;EQDQ01  00002PRCP99
0112239330999992000111009004+60960+069060FM-12+0040USHH V0202701N004012200019N0100001N1-00011-01171102761ADDGF106991021051008001001011MD1710071+9999REMSYN060AAXX  10091 23933 42597 62704 11001 21117 40276 57007 82501;
0133239330999992000111012004+60960+069060FM-12+0040USHH V0202801N005010075019N0100001N1+00061-01161102721ADDGF106991061051008001001001MA1999999102131MD1710031+9999REMSYN066AAXX  10121 23933 42597 62805 10006 21116 30213 40272 57003 86500;
0165239330999992000111015004+60960+069060FM-12+0040USHH V0202901N004010075019N0100001N1+00011-01141102711ADDAA199000091GF107991071051008001001001KA1999M+00111MD1710021+9999REMSYN070AAXX  10151 23933 32597 72904 10001 21114 40271 57002 87500 333 10011;EQDQ01  00002PRCP99
0165239330999992000111018004+60960+069060FM-12+0040USHH V0202901N003010075019N0100001N1-00051-01141102771ADDAA199000091GF107991071051008001001001KA1999M+00111MD1310061+9999REMSYN070AAXX  10181 23933 32597 72903 11005 21114 40277 53006 87500 333 10011;EQDQ01  00002PRCP99
0112239330999992000111021004+60960+069060FM-12+0040USHH V0202701N004019999999N0100001N1-00201-01001102891ADDGF106991061001999999031001MD1210121+9999REMSYN060AAXX  10211 23933 42997 62704 11020 21100 40289 52012 86030;
0133239330999992000111100004+60960+069060FM-12+0040USHH V0202801N003019999999N0100001N1-00301-00881102991ADDGF105991051001999999031001MA1999999102391MD1210101+9999REMSYN066AAXX  11001 23933 42997 52803 11030 21088 30239 40299 52010 85030;
0181239330999992000111103004+60960+069060FM-12+0040USHH V0202801N002019999999N0100001N1-00261-00711102981ADDAA199000091AJ100019199999999GF106991061001999999031001IA1239MD1810011+9999REMSYN076AAXX  11031 23933 32997 62802 11026 21071 40298 58001 86030 333 47001 55000;EQDQ01  00002PRCP99
0165239330999992000111106004+60960+069060FM-12+0040USHH V0202801N002019999999N0100001N1-00171-00661103031ADDAA199000091GF107991061001999999031011KA1999N-00311MD1310041+9999REMSYN070AAXX  11061 23933 32997 72802 11017 21066 40303 53004 86031 333 21031;EQDQ01  00002PRCP99
0112239330999992000111109004+60960+069060FM-12+0040USHH V0202801N002010120019N0100001N1-00031-00651102971ADDGF106991051051012501031001MD1810051+9999REMSYN060AAXX  11091 23933 42697 62802 11003 21065 40297 58005 85530;
0133239330999992000111112004+60960+069060FM-12+0040USHH V0202401N001019999999N0100001N1-00081-00651102981ADDGF106991061001999999031001MA1999999102381MD1310011+9999REMSYN066AAXX  11121 23933 42997 62401 11008 21065 30238 40298 53001 86030;
0165239330999992000111115004+60960+069060FM-12+0040USHH V0202501N002012200019N0100001N1-00211-00841102951ADDAA199000091GF102991021001999999031001KA1999M+00001MD1810031+9999REMSYN070AAXX  11151 23933 32997 22502 11021 21084 40295 58003 82030 333 10000;EQDQ01  00002PRCP99
0165239330999992000111118004+60960+069060FM-12+0040USHH V0202601N002012200019N0100001N1-00341-01131102911ADDAA199000091GF103991001001999999001011KA1999M+00001MD1710041+9999REMSYN070AAXX  11181 23933 32997 32602 11034 21113 40291 57004 80001 333 10000;EQDQ01  00002PRCP99
0122239330999992000111121004+60960+069060FM-12+0040USHH V0202801N002012200019N0100001N1-00501-01341102841ADDGA1001+999999999GF100991001001999999001001MD1710081+9999REMSYN054AAXX  11211 23933 42997 02802 11050 21134 40284 57008;
0143239330999992000111200004+60960+069060FM-12+0040USHH V0202601N002012200019N0100001N1-00641-01401102821ADDGA1001+999999999GF100991001001999999001001MA1999999102211MD1710021+9999REMSYN060AAXX  12001 23933 42997 02602 11064 21140 30221 40282 57002;
0181239330999992000111203004+60960+069060FM-12+0040USHH V0202601N002012200019N0100001N1-00811-01431102941ADDAA199000091AJ100019199999999GF103991031001999999031001IA1239MD1310021+9999REMSYN076AAXX  12031 23933 32997 32602 11081 21143 40294 53002 83030 333 47001 55001;EQDQ01  00002PRCP99
0165239330999992000111206004+60960+069060FM-12+0040USHH V0202501N001012200019N0100001N1-00701-01441102851ADDAA199000091GF103991001001999999001011KA1999N-00811MD1210011+9999REMSYN070AAXX  12061 23933 32997 32501 11070 21144 40285 52001 80001 333 21081;EQDQ01  00002PRCP99
0112239330999992000111209004+60960+069060FM-12+0040USHH V0209999C000012200019N0100001N1-00501-01241102841ADDGF103991001001999999001011MD1810011+9999REMSYN060AAXX  12091 23933 42997 30000 11050 21124 40284 58001 80001;
0133239330999992000111212004+60960+069060FM-12+0040USHH V0209999C000012200019N0100001N1-00701-01441102791ADDGF102991001001999999001011MA1999999102181MD1710051+9999REMSYN066AAXX  12121 23933 42997 20000 11070 21144 30218 40279 57005 80001;
0181239330999992000111215004+60960+069060FM-12+0040USHH V0202501N002012200019N0100001N1-00621-01551102911ADDAA199000091GF102991001001999999001011KA1999M-00501MD1310121+9999REMSYN070AAXX  12151 23933 32997 22502 11062 21155 40291 53012 82001 333 11050;EQDQ01+000022SCOTLCQ02  00002PRCP99
0181239330999992000111218004+60960+069060FM-12+0040USHH V0209999C000012200019N0100001N1-00841-01541102761ADDAA199000091GF102991001001999999001011KA1999M-00501MD1810151+9999REMSYN070AAXX  12181 23933 32997 20000 11084 21154 40276 58015 82001 333 11050;EQDQ01+000022SCOTLCQ02  00002PRCP99
0122239330999992000111221004+60960+069060FM-12+0040USHH V0201001N002012200019N0100001N1-01201-01401102771ADDGA1001+999999999GF100991001001999999001001MD1710011+9999REMSYN054AAXX  12211 23933 42997 01002 11120 21140 40277 57001;
0143239330999992000111300004+60960+069060FM-12+0040USHH V0209999C000012200019N0100001N1-01301-01361102751ADDGA1001+999999999GF100991001001999999001001MA1999999102121MD1710021+9999REMSYN060AAXX  13001 23933 42997 00000 11130 21136 30212 40275 57002;
0152239330999992000111303004+60960+069060FM-12+0040USHH V0200701N001010075019N0100001N1-01101-01281102771ADDAA199000091GF108991061051008001071999MD1310021+9999REMSYN070AAXX  13031 23933 32597 80701 11110 21128 40277 53002 8657/ 333 55005;EQDQ01  00002PRCP99
0165239330999992000111306004+60960+069060FM-12+0040USHH V0209999C000019999999N0100001N1-00931-01281102871ADDAA199000091GF108991061001999999031021KA1999N-01301MD1210121+9999REMSYN070AAXX  13061 23933 32997 80000 11093 21128 40287 52012 86032 333 21130;EQDQ01  00002PRCP99
0112239330999992000111309004+60960+069060FM-12+0040USHH V0200101N001019999999N0100001N1-00701-01131102951ADDGF106991061001999999031001MD1210081+9999REMSYN060AAXX  13091 23933 42997 60101 11070 21113 40295 52008 86030;
0165239330999992000111318004+60960+069060FM-12+0040USHH V0209999C000019999999N0100001N1-01041-01171103011ADDAA199000091GF106991001001999999001011KA1999M-00671MD1810021+9999REMSYN070AAXX  13181 23933 32997 60000 11104 21117 40301 58002 80001 333 11067;EQDQ01  00002PRCP99
0112239330999992000111321004+60960+069060FM-12+0040USHH V0209999C000019999999N0100001N1-00831-00931103041ADDGF107991071001999999031001MD1310041+9999REMSYN060AAXX  13211 23933 42997 70000 11083 21093 40304 53004 87030;
0133239330999992000111400004+60960+069060FM-12+0040USHH V0209999C000019999999N0100001N1-00941-01061103061ADDGF105991051001999999031001MA1999999102441MD1210021+9999REMSYN066AAXX  14001 23933 42997 50000 11094 21106 30244 40306 52002 85030;
0181239330999992000111403004+60960+069060FM-12+0040USHH V0209999C000019999999N0100001N1-01091-01221103161ADDAA199000091AJ100019199999999GF105991051001999999031001IA1239MD1210091+9999REMSYN076AAXX  14031 23933 32997 50000 11109 21122 40316 52009 85030 333 47001 55001;EQDQ01  00002PRCP99
0165239330999992000111406004+60960+069060FM-12+0040USHH V0209999C000019999999N0100001N1-00921-01081103241ADDAA199000091GF105991001001999999001011KA1999N-01091MD1210091+9999REMSYN070AAXX  14061 23933 32997 50000 11092 21108 40324 52009 80001 333 21109;EQDQ01  00002PRCP99
0112239330999992000111409004+60960+069060FM-12+0040USHH V0209999C000012200019N0100001N1-00661-00981103291ADDGF103991001001999999001011MD1210051+9999REMSYN060AAXX  14091 23933 42997 30000 11066 21098 40329 52005 80001;
0133239330999992000111412004+60960+069060FM-12+0040USHH V0209999C000019999999N0100001N1-00801-00981103361ADDGF106991001001999999001021MA1999999102741MD1210071+9999REMSYN066AAXX  14121 23933 42997 60000 11080 21098 30274 40336 52007 80002;
0165239330999992000111415004+60960+069060FM-12+0040USHH V0209999C000019999999N0100001N1-00801-00971103381ADDAA199000091GF108991001001999999001021KA1999M-00661MD1210021+9999REMSYN070AAXX  14151 23933 32997 80000 11080 21097 40338 52002 80002 333 11066;EQDQ01  00002PRCP99
0165239330999992000111418004+60960+069060FM-12+0040USHH V0209999C000019999999N0100001N1-00851-00991103381ADDAA199000091GF108991001001999999001021KA1999M-00661MD1410001+9999REMSYN070AAXX  14181 23933 32997 80000 11085 21099 40338 54000 80002 333 11066;EQDQ01  00002PRCP99
0112239330999992000111421004+60960+069060FM-12+0040USHH V0201101N001019999999N0100001N1-00981-01151103371ADDGF107991071001999999031001MD1810021+9999REMSYN060AAXX  14211 23933 42997 71101 11098 21115 40337 58002 87030;
0133239330999992000111500004+60960+069060FM-12+0040USHH V0200801N001019999999N0100001N1-01031-01161103341ADDGF107991071001999999031001MA1999999102711MD1710031+9999REMSYN066AAXX  15001 23933 42997 70801 11103 21116 30271 40334 57003 87030;
0197239330999992000111503004+60960+069060FM-12+0040USHH V0201201N002019999999N0100001N1-01001-01001103931ADDAA199000091AJ100019199999999GF106991061001999999031001IA1229MD1310592+9999REMSYN076AAXX  15031 23933 32997 61202 11100 21100 40393 53059 86030 333 46001 55002;EQDQ01+000592APC3  Q02  00002PRCP99
0165239330999992000111506004+60960+069060FM-12+0040USHH V0201101N002019999999N0100001N1-00941-01101103281ADDAA199000091GF105991051001999999031001KA1999N-01031MD1810641+9999REMSYN070AAXX  15061 23933 32997 51102 11094 21110 40328 58064 85030 333 21103;EQDQ01  00002PRCP99
0112239330999992000111509004+60960+069060FM-12+0040USHH V0201201N002019999999N0100001N1-00751-00971103191ADDGF108991081001999999071999MD1710091+9999REMSYN060AAXX  15091 23933 42997 81202 11075 21097 40319 57009 8807/;
0133239330999992000111512004+60960+069060FM-12+0040USHH V0201301N002010075019N0100001N1-00731-00901103131ADDGF108991081051008001999999MA1999999102511MD1710061+9999REMSYN066AAXX  15121 23933 42597 81302 11073 21090 30251 40313 57006 885//;
0165239330999992000111515004+60960+069060FM-12+0040USHH V0201401N002019999999N0100001N1-00811-00951103081ADDAA199000091GF106991061001999999031001KA1999M-00701MD1710051+9999REMSYN070AAXX  15151 23933 32997 61402 11081 21095 40308 57005 86030 333 11070;EQDQ01  00002PRCP99
0174239330999992000111518004+60960+069060FM-12+0040USHH V0201401N002010075019N0100001N1-00781-00921103021ADDAA199000021AY171061AY221061GF108991081051008001999999KA1999M-00701MD1710061+9999MW1711REMSYN076AAXX  15181 23933 31597 81402 11078 21092 40302 57006 77172 885// 333 11070;
0140239330999992000111521004+60960+069060FM-12+0040USHH V0201401N003010075019N0100001N1-00771-00951102951ADDAY171031AY221031GF108991081051008001999999MD1710061+9999MW1711REMSYN066AAXX  15211 23933 41597 81403 11077 21095 40295 57006 77172 885//;
0124239330999992000111600004+60960+069060FM-12+0040USHH V0201301N002019999999N0100001N1-00751-00921999999ADDGF108991999999008001999999MA1999999102271REMSYN071AAXX  16001 23933 41597 81302 11075 21092 30227 4288 57007 77172 885//;
0179239330999992000111603004+60960+069060FM-12+0040USHH V0201301N003010075019N0100001N1-00731-00861102861ADDAJ100029199999999AY171031AY221031GF108991081051008001999999IA1239MD1710021+9999MW1711REMSYN082AAXX  16031 23933 /1597 81303 11073 21086 40286 57002 77172 885// 333 47002 55000;
0180239330999992000111606004+60960+069060FM-12+0040USHH V0201201N002019999999N0100001N1-00731-00901102861ADDAA100000791AY171061AY221061GF107991071001999999031001KA1999N-00811MD1410001+9999MW1711REMSYN082AAXX  16061 23933 11997 71202 11073 21090 40286 54000 69900 77172 87030 333 21081;
0140239330999992000111609004+60960+069060FM-12+0040USHH V0201401N003019999999N0100001N1-00701-00871102851ADDAY171031AY221031GF107991071001999999031001MD1810011+9999MW1221REMSYN066AAXX  16091 23933 41997 71403 11070 21087 40285 58001 72272 87030;
0180239330999992000111612004+60960+069060FM-12+0040USHH V0201001N003019999999N0100001N1-00911-01061999999ADDAY171061AY221061GF108991081001999999031001MA1999999102131MD1710111+9999MW1021REMSYN072AAXX  16121 23933 41997 81003 11091 21106 30213 40374 57011 70272 88030;EQDQ01+103743APOSLP
0135239330999992000111615004+60960+069060FM-12+0040USHH V0201501N004019999999N0100001N1-00981-01191102491ADDGF108991081001999999071999KA1999M-00701MD1710271+9999REMSYN070AAXX  16151 23933 /2997 81504 11098 21119 40249 57027 8807/ 333 11070;
0152239330999992000111618004+60960+069060FM-12+0040USHH V0201401N005019999999N0100001N1-01011-01291102381ADDAA100000791GF108991081001999999071999KA1999M-00701MD1710111+9999REMSYN076AAXX  16181 23933 12997 81405 11101 21129 40238 57011 69900 8807/ 333 11070;
0112239330999992000111621004+60960+069060FM-12+0040USHH V0201301N006019999999N0100001N1-00981-01241102201ADDGF108991081001999999071999MD1710181+9999REMSYN060AAXX  16211 23933 42997 81306 11098 21124 40220 57018 8807/;
0161239330999992000111700004+60960+069060FM-12+0040USHH V0201301N007019999999N0100001N1-00961-01221102051ADDAY171061AY221061GF108991081001999999021999MA1999999101441MD1710131+9999MW1711REMSYN072AAXX  17001 23933 41997 81307 11096 21122 30144 40205 57013 77172 8802/;
0179239330999992000111703004+60960+069060FM-12+0040USHH V0201401N005019999999N0100001N1-00971-01231101951ADDAJ100029199999999AY171031AY221031GF108991081001999999071999IA1229MD1710111+9999MW1711REMSYN082AAXX  17031 23933 /1997 81405 11097 21123 40195 57011 77172 8807/ 333 46002 55000;
0180239330999992000111706004+60960+069060FM-12+0040USHH V0201401N005019999999N0040001N1-00931-01181101991ADDAA100000791AY171061AY221061GF108991081001999999071999KA1999N-01011MD1310051+9999MW1711REMSYN082AAXX  17061 23933 11996 81405 11093 21118 40199 53005 69900 77172 8807/ 333 21101;
0140239330999992000111709004+60960+069060FM-12+0040USHH V0201301N005019999999N0040001N1-00831-01111102111ADDAY171031AY221031GF108991081001999999071999MD1210121+9999MW1711REMSYN066AAXX  17091 23933 41996 81305 11083 21111 40211 52012 77172 8807/;
0161239330999992000111712004+60960+069060FM-12+0040USHH V0201301N005019999999N0100001N1-00891-01161102191ADDAY171061AY231061GF108991081001999999011999MA1999999101581MD1210081+9999MW1711REMSYN072AAXX  17121 23933 41997 81305 11089 21116 30158 40219 52008 77173 8801/;
0163239330999992000111715004+60960+069060FM-12+0040USHH V0201301N004019999999N0100001N1-00921-01171102171ADDAY171031AY221031GF108991081001999999021999KA1999M-00801MD1810021+9999MW1711REMSYN076AAXX  17151 23933 /1997 81304 11092 21117 40217 58002 77172 8802/ 333 11080;
0180239330999992000111718004+60960+069060FM-12+0040USHH V0201101N004019999999N0100001N1-00951-01211102131ADDAA100000891AY171061AY221061GF108991081001999999021999KA1999M-00801MD1710041+9999MW1711REMSYN082AAXX  17181 23933 11997 81104 11095 21121 40213 57004 69970 77172 8802/ 333 11080;
0140239330999992000111721004+60960+069060FM-12+0040USHH V0201201N005019999999N0100001N1-01151-01431102141ADDAY171031AY221031GF108991081001999999021999MD1710011+9999MW1711REMSYN066AAXX  17211 23933 41997 81205 11115 21143 40214 57001 77172 8802/;
0161239330999992000111800004+60960+069060FM-12+0040USHH V0201001N005019999999N0100001N1-01211-01411101851ADDAY171061AY231061GF108991081001999999071999MA1999999101231MD1710281+9999MW1711REMSYN072AAXX  18001 23933 41997 81005 11121 21141 30123 40185 57028 77173 8807/;
0179239330999992000111803004+60960+069060FM-12+0040USHH V0201101N006019999999N0010001N1-01281-01481101631ADDAJ100039199999999AY171031AY231031GF108991081001999999071999IA1299MD1710221+9999MW1711REMSYN082AAXX  18031 23933 /1994 81106 11128 21148 40163 57022 77173 8807/ 333 49003 55000;
0199239330999992000111806004+60960+069060FM-12+0040USHH V0201101N007010042019N0010001N1-01311-01511999999ADDAA100003091AY171061AY231061GF108991081001004501021999KA1999N-01281MD1710241+9999MW1731REMSYN082AAXX  18061 23933 11494 81107 11131 21151 40394 57024 60030 77373 8802/ 333 21128;EQDQ01+103943APOSLP
0159239330999992000111809004+60960+069060FM-12+0040USHH V0201001N007010042019N0010001N1-01481-01681101272ADDAY171031AY231031GF108991081001004501021999MD1710131+9999MW1731REMSYN066AAXX  18091 23933 41494 81007 11148 21168 40127 57013 77373 8802/;EQDQ01+101273APOSLP
0161239330999992000111812004+60960+069060FM-12+0040USHH V0201101N005010042019N0010001N1-01491-01691101171ADDAY171061AY231061GF108991081001004501021999MA1999999100541MD1710101+9999MW1731REMSYN072AAXX  18121 23933 41494 81105 11149 21169 30054 40117 57010 77373 8802/;
0163239330999992000111815004+60960+069060FM-12+0040USHH V0200801N004010042019N0010001N1-01401-01751101101ADDAY171031AY231031GF108991081021004501999999KA1999M-01281MD1710061+9999MW1731REMSYN076AAXX  18151 23933 /1494 80804 11140 21175 40110 57006 77373 882// 333 11128;
0180239330999992000111818004+60960+069060FM-12+0040USHH V0200601N002010042019N0010001N1-01391-01741101001ADDAA100004191AY171061AY231061GF108991081001004501021999KA1999M-01281MD1710091+9999MW1731REMSYN082AAXX  18181 23933 11494 80602 11139 21174 40100 57009 60040 77373 8802/ 333 11128;
0140239330999992000111821004+60960+069060FM-12+0040USHH V0200501N002019999999N0010001N1-01461-01811101111ADDAY171031AY221031GF108991081001999999021999MD1310091+9999MW1731REMSYN066AAXX  18211 23933 41994 80502 11146 21181 40111 53009 77372 8802/;
0161239330999992000111900004+60960+069060FM-12+0040USHH V0200301N002019999999N0040001N1-01501-01841101211ADDAY171061AY221061GF108991081001999999021999MA1999999100581MD1210101+9999MW1711REMSYN072AAXX  19001 23933 41996 80302 11150 21184 30058 40121 52010 77172 8802/;
0179239330999992000111903004+60960+069060FM-12+0040USHH V0200101N001019999999N0100001N1-01491-01691101181ADDAJ100049199999999AY171031AY221031GF108991081001999999021999IA1299MD1810031+9999MW1221REMSYN082AAXX  19031 23933 /1997 80101 11149 21169 40118 58003 72272 8802/ 333 49004 55000;
0180239330999992000111906004+60960+069060FM-12+0040USHH V0200301N001019999999N0040001N1-01461-01661101241ADDAA100003091AY171061AY221061GF108991081001999999021999KA1999N-01491MD1310071+9999MW1711REMSYN082AAXX  19061 23933 11996 80301 11146 21166 40124 53007 60030 77172 8802/ 333 21149;
0140239330999992000111909004+60960+069060FM-12+0040USHH V0203301N001019999999N0040001N1-01431-01631101301ADDAY171031AY221031GF108991081001999999021999MD1210061+9999MW1711REMSYN066AAXX  19091 23933 41996 83301 11143 21163 40130 52006 77172 8802/;
0161239330999992000111912004+60960+069060FM-12+0040USHH V0203301N001019999999N0040001N1-01531-01721101411ADDAY171061AY221061GF108991081001999999021999MA1999999100781MD1210101+9999MW1711REMSYN072AAXX  19121 23933 41996 83301 11153 21172 30078 40141 52010 77172 8802/;
0180239330999992000111918004+60960+069060FM-12+0040USHH V0203201N001019999999N0040001N1-01571-01771101531ADDAA100001091AY171061AY221061GF108991081001999999021999KA1999M-01401MD1210071+9999MW1711REMSYN082AAXX  19181 23933 11996 83201 11157 21177 40153 52007 60010 77172 8802/ 333 11140;
0140239330999992000111921004+60960+069060FM-12+0040USHH V0209999C000019999999N0040001N1-01781-01971101551ADDAY171031AY221031GF108991001001999999001071MD1210021+9999MW1711REMSYN066AAXX  19211 23933 41996 80000 11178 21197 40155 52002 77172 80007;
0161239330999992000112000004+60960+069060FM-12+0040USHH V0201101N001019999999N0040001N1-01921-02111101671ADDAY171061AY221061GF108991001001999999001071MA1999999101041MD1210121+9999MW1711REMSYN072AAXX  20001 23933 41996 81101 11192 21211 30104 40167 52012 77172 80007;
0179239330999992000112003004+60960+069060FM-12+0040USHH V0209999C000019999999N0040001N1-01941-02131101771ADDAJ100119199999999AY171031AY221031GF108991081001999999021999IA1249MD1210101+9999MW1711REMSYN082AAXX  20031 23933 /1996 80000 11194 21213 40177 52010 77172 8802/ 333 48011 55000;
0180239330999992000112006004+60960+069060FM-12+0040USHH V0209999C000019999999N0100001N1-01821-02011101881ADDAA100001091AY171061AY221061GF108991001001999999001071KA1999N-01941MD1210111+9999MW1781REMSYN082AAXX  20061 23933 11997 80000 11182 21201 40188 52011 60010 77872 80007 333 21194;
0140239330999992000112009004+60960+069060FM-12+0040USHH V0200301N001019999999N0100001N1-01511-01701102021ADDAY171031AY221031GF108991001001999999001071MD1210141+9999MW1781REMSYN066AAXX  20091 23933 41997 80301 11151 21170 40202 52014 77872 80007;
0161239330999992000112012004+60960+069060FM-12+0040USHH V0200201N001010750019N0100001N1-01701-01891102231ADDAY171061AY221061GF108991031051008001001071MA1999999101591MD1210201+9999MW1781REMSYN072AAXX  20121 23933 41597 80201 11170 21189 30159 40223 52020 77872 83507;
0163239330999992000112015004+60960+069060FM-12+0040USHH V0200101N002019999999N0100001N1-01781-01971102251ADDAY171031AY221031GF108991001001999999001071KA1999M-01511MD1210021+9999MW1781REMSYN076AAXX  20151 23933 /1997 80102 11178 21197 40225 52002 77872 80007 333 11151;
0180239330999992000112018004+60960+069060FM-12+0040USHH V0203501N002010075019N0100001N1-01951-02141102451ADDAA100000191AY171061AY221061GF108991051051008001001071KA1999M-01511MD1210201+9999MW1781REMSYN082AAXX  20181 23933 11597 83502 11195 21214 40245 52020 69920 77872 85507 333 11151;
0140239330999992000112021004+60960+069060FM-12+0040USHH V0203601N001010750019N0100001N1-01961-02151102431ADDAY171031AY221031GF108991031051008001001071MD1810031+9999MW1781REMSYN066AAXX  20211 23933 41597 83601 11196 21215 40243 58003 77872 83507;
0161239330999992000112100004+60960+069060FM-12+0040USHH V0203201N002019999999N0100001N1-01831-02021102491ADDAY171061AY221061GF108991081001999999021999MA1999999101851MD1310071+9999MW1711REMSYN072AAXX  21001 23933 41997 83202 11183 21202 30185 40249 53007 77172 8802/;
0179239330999992000112103004+60960+069060FM-12+0040USHH V0200201N002019999999N0100001N1-01611-01801102631ADDAJ100119199999999AY171031AY221031GF108991081001999999021999IA1249MD1210141+9999MW1711REMSYN082AAXX  21031 23933 /1997 80202 11161 21180 40263 52014 77172 8802/ 333 48011 55000;
0180239330999992000112106004+60960+069060FM-12+0040USHH V0203501N002019999999N0100001N1-01591-01781102741ADDAA100000591AY171061AY221061GF108991031001999999031091KA1999N-01961MD1210111+9999MW1711REMSYN082AAXX  21061 23933 11997 83502 11159 21178 40274 52011 69940 77172 83039 333 21196;
0140239330999992000112109004+60960+069060FM-12+0040USHH V0203501N002019999999N0100001N1-01581-01851102751ADDAY171031AY221031GF108991081001999999021999MD1210011+9999MW1711REMSYN066AAXX  21091 23933 41997 83502 11158 21185 40275 52001 77172 8802/;
0161239330999992000112112004+60960+069060FM-12+0040USHH V0203601N001019999999N0100001N1-01721-01911102801ADDAY171061AY221061GF108991081001999999011999MA1999999102161MD1210051+9999MW1711REMSYN072AAXX  21121 23933 41997 83601 11172 21191 30216 40280 52005 77172 8801/;
0163239330999992000112115004+60960+069060FM-12+0040USHH V0203601N001019999999N0100001N1-01811-02001102891ADDAY171031AY221031GF108991081001999999011999KA1999M-01571MD1210091+9999MW1711REMSYN076AAXX  21151 23933 /1997 83601 11181 21200 40289 52009 77172 8801/ 333 11157;
0180239330999992000112118004+60960+069060FM-12+0040USHH V0200101N001019999999N0040001N1-01921-02111102931ADDAA100000591AY171061AY221061GF108991001001999999001071KA1999M-01571MD1210041+9999MW1711REMSYN082AAXX  21181 23933 11996 80101 11192 21211 40293 52004 69950 77172 80007 333 11157;
0140239330999992000112121004+60960+069060FM-12+0040USHH V0203201N001019999999N0100001N1-02101-02221102981ADDAY171031AY221031GF108991001001999999001071MD1210041+9999MW1021REMSYN066AAXX  21211 23933 41997 83201 11210 21222 40298 52004 70272 80007;
0161239330999992000112200004+60960+069060FM-12+0040USHH V0203101N001019999999N0100001N1-02041-02161102981ADDAY171061AY221061GF108991001001999999001071MA1999999102331MD1410001+9999MW1711REMSYN072AAXX  22001 23933 41997 83101 11204 21216 30233 40298 54000 77172 80007;
0179239330999992000112203004+60960+069060FM-12+0040USHH V0203201N002019999999N0100001N1-02161-02341102951ADDAJ100139199999999AY171031AY221031GF108991031001999999031071IA1249MD1810031+9999MW1711REMSYN082AAXX  22031 23933 /1997 83202 11216 21234 40295 58003 77172 83037 333 48013 55000;
0180239330999992000112206004+60960+069060FM-12+0040USHH V0202601N001019999999N0100001N1-02171-02351102931ADDAA100000191AY171061AY221061GF108991081001999999071999KA1999N-02181MD1710021+9999MW1711REMSYN082AAXX  22061 23933 11997 82601 11217 21235 40293 57002 69920 77172 8807/ 333 21218;
0150239330999992000112209004+60960+069060FM-12+0040USHH V0202701N002012200019N0100001N1-02201-02381102911ADDAY171031AY221031GA1001+999999999GF100991001001999999001001MD1710021+9999MW1021REMSYN060AAXX  22091 23933 41997 02702 11220 21238 40291 57002 70272;
0143239330999992000112212004+60960+069060FM-12+0040USHH V0202601N003012200019N0100001N1-02401-02651102891ADDGA1001+999999999GF100991001001999999001001MA1999999102241MD1710021+9999REMSYN060AAXX  22121 23933 42997 02603 11240 21265 30224 40289 57002;
0135239330999992000112215004+60960+069060FM-12+0040USHH V0202701N003019999999N0100001N1-02231-02481102751ADDGF108991001001999999001011KA1999M-02151MD1710141+9999REMSYN070AAXX  22151 23933 /2997 82703 11223 21248 40275 57014 80001 333 11215;
0152239330999992000112218004+60960+069060FM-12+0040USHH V0202601N002019999999N0100001N1-02101-02281102601ADDAA100000791GF105991001001999999001011KA1999M-02151MD1710151+9999REMSYN076AAXX  22181 23933 12997 52602 11210 21228 40260 57015 69900 80001 333 11215;
0140239330999992000112221004+60960+069060FM-12+0040USHH V0202501N003019999999N0100001N1-01981-02171102431ADDAY171031AY221031GF108991001001999999001071MD1710171+9999MW1781REMSYN066AAXX  22211 23933 41997 82503 11198 21217 40243 57017 77872 80007;
0179239330999992000112303004+60960+069060FM-12+0040USHH V0202501N003010075019N0100001N1-01881-02141102021ADDAJ100139199999999AY171031AY221031GF106991061051008001001001IA1249MD1710291+9999MW1021REMSYN082AAXX  23031 23933 /1597 62503 11188 21214 40202 57029 70272 86500 333 48013 55017;
0180239330999992000112306004+60960+069060FM-12+0040USHH V0202901N005019999999N0100001N1-01551-01821101941ADDAA100000791AY171061AY211061GF108991081001999999071999KA1999N-02211MD1710081+9999MW1781REMSYN082AAXX  23061 23933 11997 82905 11155 21182 40194 57008 69900 77871 8807/ 333 21221;
0140239330999992000112309004+60960+069060FM-12+0040USHH V0202901N005019999999N0040001N1-01291-01561101921ADDAY171031AY231031GF108991081001999999021999MD1710011+9999MW1711REMSYN066AAXX  23091 23933 41996 82905 11129 21156 40192 57001 77173 8802/;
0161239330999992000112312004+60960+069060FM-12+0040USHH V0202801N004010075019N0100001N1-01161-01451101991ADDAY171061AY231061GF108991081051008001999999MA1999999101371MD1310071+9999MW1221REMSYN072AAXX  23121 23933 41597 82804 11116 21145 30137 40199 53007 72273 885//;
0163239330999992000112315004+60960+069060FM-12+0040USHH V0202801N004010075019N0100001N1-01071-01271101971ADDAY131031AY221031GF106991061051008001001001KA1999M-01031MD1810021+9999MW1381REMSYN076AAXX  23151 23933 /1597 62804 11107 21127 40197 58002 73832 86500 333 11103;
0180239330999992000112318004+60960+069060FM-12+0040USHH V0202901N005010120019N0100001N1-01051-01251101941ADDAA100000791AY131061AY221061GF107991061051012501031001KA1999M-01031MD1710031+9999MW1381REMSYN082AAXX  23181 23933 11697 72905 11105 21125 40194 57003 69900 73832 86530 333 11103;
0140239330999992000112321004+60960+069060FM-12+0040USHH V0202801N005010075019N0100001N1-01261-01461101971ADDAY131031AY221031GF107991071051008001001001MD1310031+9999MW1381REMSYN066AAXX  23211 23933 41597 72805 11126 21146 40197 53003 73832 87500;
0161239330999992000112400004+60960+069060FM-12+0040USHH V0202701N004010075019N0100001N1-01191-01391101911ADDAY131061AY221061GF107991071051008001001001MA1999999101291MD1810061+9999MW1381REMSYN072AAXX  24001 23933 41597 72704 11119 21139 30129 40191 58006 73832 87500;
0209239330999992000112403004+60960+069060FM-12+0040USHH V0202801N005010075019N0100001N1-01201-01401102031ADDAA199000091AJ100139199999999AY131031AY221031GF107991071051008001001001IA1249MD1310111+9999MW1381REMSYN082AAXX  24031 23933 31597 72805 11120 21140 40203 53011 73832 87500 333 48013 5500/;EQDQ01  00002PRCP99
0209239330999992000112406004+60960+069060FM-12+0040USHH V0203101N004010075019N0100001N1-01361-01561102011ADDAA199000091AY131061AY281061GF106991051051008001001011KA1999N+99999MD1810011+9999MW1021REMSYN076AAXX  24061 23933 31597 63104 11136 21156 40201 58001 70238 85501 333 21128;EQDQ01  00002PRCP99Q02 -01282ATMN  
0112239330999992000112409004+60960+069060FM-12+0040USHH V0202801N004012200019N0100001N1-01291-01561102141ADDGF105991031051008001001011MD1310121+9999REMSYN060AAXX  24091 23933 42597 52804 11129 21156 40214 53012 83501;
0133239330999992000112412004+60960+069060FM-12+0040USHH V0202901N004012200019N0100001N1-01401-01671102151ADDGF103991031001999999031001MA1999999101521MD1210011+9999REMSYN066AAXX  24121 23933 42997 32904 11140 21167 30152 40215 52001 83030;
0165239330999992000112415004+60960+069060FM-12+0040USHH V0202701N003019999999N0100001N1-01461-01731102241ADDAA199000091GF108991001001999999001011KA1999M-01201MD1210091+9999REMSYN070AAXX  24151 23933 32997 82703 11146 21173 40224 52009 80001 333 11120;EQDQ01  00002PRCP99
0165239330999992000112418004+60960+069060FM-12+0040USHH V0202801N003019999999N0100001N1-01511-01781102261ADDAA199000091GF105991001001999999001011KA1999M-01201MD1210011+9999REMSYN070AAXX  24181 23933 32997 52803 11151 21178 40226 52001 80001 333 11120;EQDQ01  00002PRCP99
0112239330999992000112421004+60960+069060FM-12+0040USHH V0202901N003010075019N0100001N1-01451-01721102261ADDGF107991071051008001001001MD1210011+9999REMSYN060AAXX  24211 23933 42597 72903 11145 21172 40226 52001 87500;
0133239330999992000112500004+60960+069060FM-12+0040USHH V0202901N002010075019N0100001N1-01441-02711102181ADDGF107991071051008001001001MA1999999101551MD1810081+9999REMSYN066AAXX  25001 23933 42597 72902 11144 21271 30155 40218 58008 87500;
0197239330999992000112503004+60960+069060FM-12+0040USHH V0202601N002010075019N0100001N1-01131-01412102031ADDAA199000091AJ100139199999999GF107991071051008001001001IA1249MD1710151+9999REMSYN076AAXX  25031 23933 32597 72602 11113 21141 40203 57015 87500 333 48013 55020;EQDQ01-001413ATOD  Q02  00002PRCP99
0165239330999992000112506004+60960+069060FM-12+0040USHH V0202501N003010300019N0100001N1-00811-00991101911ADDAA199000091GF108991021051008001031011KA1999N-01531MD1710101+9999REMSYN070AAXX  25061 23933 32597 82503 11081 21099 40191 57010 82531 333 21153;EQDQ01  00002PRCP99
0140239330999992000112509004+60960+069060FM-12+0040USHH V0202601N003019999999N0100001N1-00531-00711101811ADDAY171031AY221031GF108991081001999999071999MD1710101+9999MW1781REMSYN066AAXX  25091 23933 41997 82603 11053 21071 40181 57010 77872 8807/;
0161239330999992000112512004+60960+069060FM-12+0040USHH V0202801N004010075019N0100001N1-00401-00741101751ADDAY171061AY221061GF108991081051008001999999MA1999999101151MD1710051+9999MW1781REMSYN072AAXX  25121 23933 41597 82804 11040 21074 30115 40175 57005 77872 885//;
0163239330999992000112515004+60960+069060FM-12+0040USHH V0203001N004010075019N0100001N1-00541-00831101801ADDAY171031AY221031GF108991081051008001999999KA1999M-00401MD1310041+9999MW1781REMSYN076AAXX  25151 23933 /1597 83004 11054 21083 40180 53004 77872 885// 333 11040;
0180239330999992000112518004+60960+069060FM-12+0040USHH V0202801N005010075019N0100001N1-00681-00971101821ADDAA100000791AY171061AY221061GF108991081051008001999999KA1999M-00401MD1210021+9999MW1021REMSYN082AAXX  25181 23933 11597 82805 11068 21097 40182 52002 69900 70272 885// 333 11040;
0112239330999992000112521004+60960+069060FM-12+0040USHH V0202701N003010075019N0100001N1-00881-01121101881ADDGF108991081051008001999999MD1210061+9999REMSYN060AAXX  25211 23933 42597 82703 11088 21112 40188 52006 885//;
0133239330999992000112600004+60960+069060FM-12+0040USHH V0202801N003010075019N0100001N1-00991-01191101921ADDGF108991081051008001999999MA1999999101301MD1210031+9999REMSYN066AAXX  26001 23933 41597 82803 11099 21119 30130 40192 52003 885//;
0151239330999992000112603004+60960+069060FM-12+0040USHH V0202301N003010075019N0100001N1-01171-01301101961ADDAJ100109199999999GF107991071051008001001001IA1249MD1210041+9999REMSYN076AAXX  26031 23933 /2597 72303 11117 21130 40196 52004 87500 333 48010 55000;
0152239330999992000112606004+60960+069060FM-12+0040USHH V0202601N002010075019N0100001N1-01091-01221102111ADDAA100000791GF107991071051008001001001KA1999N-01171MD1210141+9999REMSYN076AAXX  26061 23933 12597 72602 11109 21122 40211 52014 69900 87500 333 21117;
0159239330999992000112609004+60960+069060FM-12+0040USHH V0202601N001010075019N0100001N1-00961-01171102211ADDAY171031AY221031GF108991999051008001001071MD1210121+9999MW1711REMSYN066AAXX  26091 23933 41597 82601 11096 21117 40221 52012 77172 88507;EQDQ01+000082SCOTLC
0161239330999992000112612004+60960+069060FM-12+0040USHH V0202501N001010075019N0100001N1-01011-01211102221ADDAY171061AY221061GF108991081051008001999999MA1999999101591MD1810011+9999MW1711REMSYN072AAXX  26121 23933 41597 82501 11101 21121 30159 40222 58001 77172 885//;
0163239330999992000112615004+60960+069060FM-12+0040USHH V0201201N001010075019N0040001N1-01031-01161102301ADDAY171031AY221031GF108991081001008001021999KA1999M-00931MD1310081+9999MW1711REMSYN076AAXX  26151 23933 /1596 81201 11103 21116 40230 53008 77172 8802/ 333 11093;
0180239330999992000112618004+60960+069060FM-12+0040USHH V0202201N001019999999N0100001N1-01131-01261102301ADDAA100001091AY171061AY221061GF108991081001999999021999KA1999M-00931MD1410001+9999MW1221REMSYN082AAXX  26181 23933 11997 82201 11113 21126 40230 54000 69990 72272 8802/ 333 11093;
0163239330999992000112621004+60960+069060FM-12+0040USHH V0201201N001012200019N0100001N1-01411-01541102321ADDAY101031AY221031GA1001+999999999GF100991001001999999001001MD1310021+9999REMSYN060AAXX  26211 23933 41997 01201 11141 21154 40232 53002 77202;EQDQ01+000722PRSWM1
0143239330999992000112700004+60960+069060FM-12+0040USHH V0209999C000012200019N0100001N1-01621-01751102271ADDGA1001+999999999GF100991001001999999001001MA1999999101631MD1810061+9999REMSYN060AAXX  27001 23933 42997 00000 11162 21175 30163 40227 58006;
0151239330999992000112703004+60960+069060FM-12+0040USHH V0209999C000012200019N0100001N1-01481-01681102141ADDAJ100119199999999GF102991021001999999031001IA1249MD1710131+9999REMSYN076AAXX  27031 23933 12997 20000 11148 21168 40214 57013 82030 333 48011 55000;
0180239330999992000112706004+60960+069060FM-12+0040USHH V0202001N002019999999N0040001N1-01001-01131101991ADDAA100000191AY171061AY221061GF108991081001999999021999KA1999N-01651MD1710131+9999MW1711REMSYN082AAXX  27061 23933 11996 82002 11100 21113 40199 57013 69920 77172 8802/ 333 21165;
0140239330999992000112709004+60960+069060FM-12+0040USHH V0201801N002019999999N0040001N1-00801-00901101631ADDAY171031AY221031GF108991081001999999021999MD1710351+9999MW1711REMSYN066AAXX  27091 23933 41996 81802 11080 21090 40163 57035 77172 8802/;
0161239330999992000112712004+60960+069060FM-12+0040USHH V0202201N003010042019N0100001N1-00641-00721101271ADDAY171061AY221061GF106991061071004501001001MA1999999100661MD1710361+9999MW1021REMSYN072AAXX  27121 23933 41497 62203 11064 21072 30066 40127 57036 70272 86700;
0135239330999992000112715004+60960+069060FM-12+0040USHH V0202701N003010042019N0100001N1-00561-00821101031ADDGF107991071051004501001001KA1999M-00521MD1710241+9999REMSYN070AAXX  27151 23933 /2497 72703 11056 21082 40103 57024 87500 333 11052;
0199239330999992000112718004+60960+069060FM-12+0040USHH V0202601N002010042019N0100001N1-00581-00801100801ADDAA100000591AY171061AY221061GF108991999071004501021999KA1999M-00521MD1710221+9999MW1711REMSYN082AAXX  27181 23933 11497 82602 11058 21080 40080 57022 69950 77172 8872/ 333 11052;EQDQ01+000082SCOTLC
0140239330999992000112721004+60960+069060FM-12+0040USHH V0202201N002019999999N0100001N1-00541-00681100471ADDAY171031AY221031GF108991081001999999021999MD1710221+9999MW1711REMSYN066AAXX  27211 23933 41997 82202 11054 21068 40047 57022 77172 8802/;
0161239330999992000112800004+60960+069060FM-12+0040USHH V0202301N002019999999N0100001N1-00511-00651100201ADDAY171061AY221061GF108991081001999999021999MA1999999099601MD1710271+9999MW1711REMSYN072AAXX  28001 23933 41997 82302 11051 21065 39960 40020 57027 77172 8802/;
0179239330999992000112803004+60960+069060FM-12+0040USHH V0203101N001010042019N0010001N1-00481-00581100091ADDAJ100159199999999AY171031AY221031GF108991081021004501999999IA1249MD1710101+9999MW1711REMSYN082AAXX  28031 23933 /1494 83101 11048 21058 40009 57010 77172 882// 333 48015 55000;
0199239330999992000112806004+60960+069060FM-12+0040USHH V0203501N002019999999N0100001N1-00811-00951100261ADDAA100005191AY171061AY221061GF108991081001999999021999KA1999N+99999MD1310161+9999MW1711REMSYN082AAXX  28061 23933 11997 83502 11081 21095 40026 53016 60050 77172 8802/ 333 21058;EQDQ01 -00582ATMN  
0140239330999992000112809004+60960+069060FM-12+0040USHH V0203501N003019999999N0100001N1-00951-01111100481ADDAY171031AY221031GF108991081001999999021999MD1210221+9999MW1781REMSYN066AAXX  28091 23933 41997 83503 11095 21111 40048 52022 77872 8802/;
0161239330999992000112812004+60960+069060FM-12+0040USHH V0203501N003019999999N0100001N1-01341-01541100921ADDAY171061AY221061GF108991061001999999031071MA1999999100311MD1210431+9999MW1711REMSYN072AAXX  28121 23933 41997 83503 11134 21154 30031 40092 52043 77172 86037;
0163239330999992000112815004+60960+069060FM-12+0040USHH V0203501N003012200019N0100001N1-02031-02281101231ADDAY171031AY221031GF101991011051008001001001KA1999M-00481MD1210281+9999MW1021REMSYN076AAXX  28151 23933 /1597 13503 11203 21228 40123 52028 70272 81500 333 11048;
0180239330999992000112818004+60960+069060FM-12+0040USHH V0203401N003019999999N0100001N1-02201-02451101601ADDAA100001091AY171061AY221061GF108991081001999999021999KA1999M-00481MD1210371+9999MW1711REMSYN082AAXX  28181 23933 11997 83403 11220 21245 40160 52037 60010 77172 8802/ 333 11048;
0150239330999992000112821004+60960+069060FM-12+0040USHH V0203301N002012200019N0100001N1-02481-02801101941ADDAY171031AY221031GA1001+999999999GF100991001001999999001001MD1210321+9999MW1021REMSYN060AAXX  28211 23933 41997 03302 11248 21280 40194 52032 70272;
0143239330999992000112900004+60960+069060FM-12+0040USHH V0200301N002012200019N0100001N1-02771-03151102271ADDGA1001+999999999GF100991001001999999001001MA1999999101611MD1210331+9999REMSYN060AAXX  29001 23933 42597 00302 11277 21315 30161 40227 52033;
0161239330999992000112903004+60960+069060FM-12+0040USHH V0202801N001012200019N0100001N1-02941-03311102491ADDAJ100159199999999GA1001+999999999GF100991001001999999001001IA1249MD1210221+9999REMSYN070AAXX  29031 23933 12997 02801 11294 21331 40249 52022 333 48015 55000;
0152239330999992000112906004+60960+069060FM-12+0040USHH V0203201N001012200019N0100001N1-03041-03341102611ADDAA100000791GF102991001001999999001021KA1999N-02991MD1210101+9999REMSYN076AAXX  29061 23933 12997 23201 11304 21334 40261 52010 69900 80002 333 21299;
0112239330999992000112909004+60960+069060FM-12+0040USHH V0209999C000012200019N0100001N1-03001-03301102681ADDGF102991001001999999001011MD1210071+9999REMSYN060AAXX  29091 23933 42997 20000 11300 21330 40268 52007 80001;
0127239330999992000112912004+60960+069060FM-12+0040USHH V0201001N001019999999N0100001N1-02961-03191102651ADDGF108991999999999999999999MA1999999101971MD1810031+9999REMSYN060AAXX  29121 23933 42997 81001 11296 21319 30197 40265 58003;
0163239330999992000112915004+60960+069060FM-12+0040USHH V0201101N001010075019N0100001N1-02871-03131102471ADDAY171031AY221031GF108991061051008001001071KA1999M-02871MD1710161+9999MW1781REMSYN076AAXX  29151 23933 /1597 81101 11287 21313 40247 57016 77872 86507 333 11287;
0199239330999992000112918004+60960+069060FM-12+0040USHH V0201101N002010075019N0100001N1-02811-03041102371ADDAA100000791AY171061AY221061GF108991061051008001001071KA1999M+99999MD1710101+9999MW1781REMSYN082AAXX  29181 23933 11597 81102 11281 21304 40237 57010 69900 77872 86507 333 11287;EQDQ01 -02872ATMX  
0140239330999992000112921004+60960+069060FM-12+0040USHH V0201201N003012200019N0100001N1-02991-03231102291ADDAY171031AY221031GF102991001001999999001011MD1710101+9999MW1021REMSYN066AAXX  29211 23933 41997 21203 11299 21323 40229 57010 70272 80001;
0161239330999992000113000004+60960+069060FM-12+0040USHH V0201101N002010750019N0100001N1-02961-03191102171ADDAY171061AY221061GF108991031051008001001071MA1999999101511MD1710101+9999MW1781REMSYN072AAXX  30001 23933 41597 81102 11296 21319 30151 40217 57010 77872 83507;
0179239330999992000113003004+60960+069060FM-12+0040USHH V0201001N003012200019N0100001N1-03091-03321102251ADDAJ100169199999999AY171031AY221031GF102991001001999999001011IA1239MD1310061+9999MW1021REMSYN082AAXX  30031 23933 /1997 21003 11309 21332 40225 53006 70272 80001 333 47016 55008;
0152239330999992000113006004+60960+069060FM-12+0040USHH V0201001N003019999999N0100001N1-03051-03271102321ADDAA100000191GF108991001001999999001071KA1999N-03091MD1210071+9999REMSYN076AAXX  30061 23933 12997 81003 11305 21327 40232 52007 69920 80007 333 21309;
0112239330999992000113009004+60960+069060FM-12+0040USHH V0201001N004019999999N0100001N1-03321-03561102341ADDGF108991001001999999001071MD1210021+9999REMSYN060AAXX  30091 23933 42997 81004 11332 21356 40234 52002 80007;
0161239330999992000113012004+60960+069060FM-12+0040USHH V0201001N005019999999N0100001N1-03451-03671102361ADDAY171061AY221061GF108991031001999999031071MA1999999101671MD1210011+9999MW1781REMSYN072AAXX  30121 23933 41997 81005 11345 21367 30167 40236 52001 77872 83037;
0163239330999992000113015004+60960+069060FM-12+0040USHH V0201201N003019999999N0100001N1-02451-02701102191ADDAY171031AY221031GF108991081001999999021999KA1999M-02421MD1810131+9999MW1781REMSYN076AAXX  30151 23933 /1997 81203 11245 21270 40219 58013 77872 8802/ 333 11242;
0180239330999992000113018004+60960+069060FM-12+0040USHH V0200901N004019999999N0100001N1-02371-02611102001ADDAA100000891AY171061AY221061GF108991081001999999021999KA1999M-02421MD1710181+9999MW1781REMSYN082AAXX  30181 23933 11997 80904 11237 21261 40200 57018 69970 77872 8802/ 333 11242;
0140239330999992000113021004+60960+069060FM-12+0040USHH V0201001N005019999999N0100001N1-02281-02531101861ADDAY171031AY221031GF108991081001999999021999MD1710141+9999MW1711REMSYN066AAXX  30211 23933 41997 81005 11228 21253 40186 57014 77172 8802/;
0161239330999992000120100004+60960+069060FM-12+0040USHH V0201201N004019999999N0100001N1-02211-02471101731ADDAY171061AY221061GF108991081001999999021999MA1999999101091MD1710131+9999MW1711REMSYN072AAXX  01001 23933 41997 81204 11221 21247 30109 40173 57013 77172 8802/;
0179239330999992000120103004+60960+069060FM-12+0040USHH V0201101N004019999999N0040001N1-02121-02371101541ADDAJ100209199999999AY171031AY221031GF108991081001999999021999IA1239MD1710191+9999MW1711REMSYN082AAXX  01031 23933 /1996 81104 11212 21237 40154 57019 77172 8802/ 333 47020 55000;
0180239330999992000120106004+60960+069060FM-12+0040USHH V0201101N004019999999N0040001N1-01971-02231101521ADDAA100002091AY171061AY221061GF108991081001999999021999KA1999N-02451MD1710021+9999MW1711REMSYN082AAXX  01061 23933 11996 81104 11197 21223 40152 57002 60020 77172 8802/ 333 21245;
0140239330999992000120109004+60960+069060FM-12+0040USHH V0201001N002019999999N0040001N1-01851-02041101271ADDAY171031AY221031GF108991081001999999021999MD1710241+9999MW1711REMSYN066AAXX  01091 23933 41996 81002 11185 21204 40127 57024 77172 8802/;
0161239330999992000120112004+60960+069060FM-12+0040USHH V0200901N002019999999N0040001N1-01821-02011101111ADDAY171061AY221061GF108991081001999999021999MA1999999100481MD1710161+9999MW1711REMSYN072AAXX  01121 23933 41996 80902 11182 21201 30048 40111 57016 77172 8802/;
0163239330999992000120115004+60960+069060FM-12+0040USHH V0209999C000019999999N0100001N1-01801-01991100971ADDAY171031AY221031GF108991081001999999021999KA1999M-01801MD1710141+9999MW1781REMSYN076AAXX  01151 23933 /1997 80000 11180 21199 40097 57014 77872 8802/ 333 11180;
0199239330999992000120118004+60960+069060FM-12+0040USHH V0209999C000019999999N0040001N1-01711-01901100831ADDAA100001091AY171061AY221061GF108991081001999999021999KA1999M+99999MD1710141+9999MW1711REMSYN082AAXX  01181 23933 11996 80000 11171 21190 40083 57014 60010 77172 8802/ 333 11180;EQDQ01 -01802ATMX  
0140239330999992000120121004+60960+069060FM-12+0040USHH V0209999C000019999999N0100001N1-02011-02201100711ADDAY171031AY221031GF108991001001999999001071MD1710131+9999MW1781REMSYN066AAXX  01211 23933 41997 80000 11201 21220 40071 57013 77872 80007;
0161239330999992000120200004+60960+069060FM-12+0040USHH V0203101N001019999999N0100001N1-02121-02301100581ADDAY171061AY221061GF108991081001999999021999MA1999999099941MD1710131+9999MW1781REMSYN072AAXX  02001 23933 41997 83101 11212 21230 39994 40058 57013 77872 8802/;
0179239330999992000120203004+60960+069060FM-12+0040USHH V0203001N001019999999N0040001N1-02161-02411100461ADDAJ100179199999999AY171031AY221031GF108991081001999999021999IA1239MD1710121+9999MW1711REMSYN082AAXX  02031 23933 /1996 83001 11216 21241 40046 57012 77172 8802/ 333 47017 55000;
0180239330999992000120206004+60960+069060FM-12+0040USHH V0203101N002019999999N0040001N1-02211-02471100411ADDAA100000591AY171061AY221061GF108991081001999999071999KA1999N-02171MD1710051+9999MW1711REMSYN082AAXX  02061 23933 11996 83102 11221 21247 40041 57005 69960 77172 8807/ 333 21217;
0140239330999992000120209004+60960+069060FM-12+0040USHH V0203001N003010300019N0100001N1-02281-02531100411ADDAY171031AY221031GF106991041051008001031001MD1410001+9999MW1781REMSYN066AAXX  02091 23933 41597 63003 11228 21253 40041 54000 77872 84530;
0161239330999992000120212004+60960+069060FM-12+0040USHH V0203001N002019999999N0040001N1-02271-02521100461ADDAY171061AY221061GF108991081001999999021999MA1999999099821MD1310051+9999MW1711REMSYN072AAXX  02121 23933 41996 83002 11227 21252 39982 40046 53005 77172 8802/;
0163239330999992000120215004+60960+069060FM-12+0040USHH V0203201N001019999999N0100001N1-02431-02681100571ADDAY171031AY221031GF108991001001999999001071KA1999M-02161MD1210111+9999MW1221REMSYN076AAXX  02151 23933 /1997 83201 11243 21268 40057 52011 72272 80007 333 11216;
0190239330999992000120218004+60960+069060FM-12+0040USHH V0202801N003012200019N0100001N1-02811-03041100651ADDAA100000591AY171061AY211061GA1001+999999999GF100991001001999999001001KA1999M-02161MD1210071+9999MW1021REMSYN076AAXX  02181 23933 11997 02803 11281 21304 40065 52007 69950 70271 333 11216;
0122239330999992000120221004+60960+069060FM-12+0040USHH V0202701N002012200019N0100001N1-02951-03191100821ADDGA1001+999999999GF100991001001999999001001MD1210171+9999REMSYN054AAXX  02211 23933 42997 02702 11295 21319 40082 52017;
0143239330999992000120300004+60960+069060FM-12+0040USHH V0202701N003012200019N0100001N1-03091-03321100921ADDGA1001+999999999GF100991001001999999001001MA1999999100261MD1210091+9999REMSYN060AAXX  03001 23933 42997 02703 11309 21332 30026 40092 52009;
0172239330999992000120303004+60960+069060FM-12+0040USHH V0202701N001012200019N0100001N1-03191-03431100931ADDAA199000021AJ100179199999999GA1001+999999999GF100991001001999999001001IA1239MD1210011+9999REMSYN070AAXX  03031 23933 32997 02701 11319 21343 40093 52001 333 47017 55000;
0175239330999992000120306004+60960+069060FM-12+0040USHH V0203001N002012200019N0100001N1-03201-03431101041ADDAA199000091GA1001+999999999GF100991001001999999001001KA1999N-03191MD1210111+9999REMSYN064AAXX  03061 23933 32997 03002 11320 21343 40104 52011 333 21319;EQDQ01  00002PRCP99
0122239330999992000120309004+60960+069060FM-12+0040USHH V0203001N002012200019N0100001N1-03201-03501101111ADDGA1001+999999999GF100991001001999999001001MD1210061+9999REMSYN054AAXX  03091 23933 42997 03002 11320 21350 40111 52006;
0143239330999992000120312004+60960+069060FM-12+0040USHH V0203001N001012200019N0100001N1-03311-03601101211ADDGA1001+999999999GF100991001001999999001001MA1999999100541MD1210101+9999REMSYN060AAXX  03121 23933 42997 03001 11331 21360 30054 40121 52010;
0175239330999992000120315004+60960+069060FM-12+0040USHH V0202801N001012200019N0100001N1-03391-03681101231ADDAA199000091GA1001+999999999GF100991001001999999001001KA1999M-03181MD1210021+9999REMSYN064AAXX  03151 23933 32997 02801 11339 21368 40123 52002 333 11318;EQDQ01  00002PRCP99
0165239330999992000120318004+60960+069060FM-12+0040USHH V0202901N001019999999N0100001N1-03431-03711101201ADDAA199000091GF107991071001999999031001KA1999M-03181MD1810031+9999REMSYN070AAXX  03181 23933 32997 72901 11343 21371 40120 58003 87030 333 11318;EQDQ01  00002PRCP99
0112239330999992000120321004+60960+069060FM-12+0040USHH V0202901N002019999999N0100001N1-03341-03621101201ADDGF108991001001999999001071MD1410001+9999REMSYN060AAXX  03211 23933 42997 82902 11334 21362 40120 54000 80007;
0143239330999992000120400004+60960+069060FM-12+0040USHH V0202901N002012200019N0100001N1-03491-03771101231ADDGA1001+999999999GF100991001001999999001001MA1999999100551MD1310021+9999REMSYN060AAXX  04001 23933 42997 02902 11349 21377 30055 40123 53002;
0181239330999992000120403004+60960+069060FM-12+0040USHH V0203001N001012200019N0100001N1-03551-03831101321ADDAA199000091AJ100179199999999GF102991021001999999031001IA1239MD1210091+9999REMSYN076AAXX  04031 23933 32997 23001 11355 21383 40132 52009 82030 333 47017 55000;EQDQ01  00002PRCP99
0165239330999992000120406004+60960+069060FM-12+0040USHH V0203101N001012200019N0100001N1-03501-03801101391ADDAA199000091GF102991001001999999001011KA1999N-03551MD1210071+9999REMSYN070AAXX  04061 23933 32997 23101 11350 21380 40139 52007 80001 333 21355;EQDQ01  00002PRCP99
0112239330999992000120409004+60960+069060FM-12+0040USHH V0203001N002019999999N0100001N1-03361-03651101531ADDGF105991001001999999001021MD1210151+9999REMSYN060AAXX  04091 23933 42997 53002 11336 21365 40153 52015 80002;
0133239330999992000120412004+60960+069060FM-12+0040USHH V0203001N002019999999N0100001N1-03391-03681101731ADDGF108991001001999999001021MA1999999101061MD1210201+9999REMSYN066AAXX  04121 23933 42997 83002 11339 21368 30106 40173 52020 80002;
0175239330999992000120415004+60960+069060FM-12+0040USHH V0203201N002012200019N0100001N1-03461-03741101891ADDAA199000091GA1001+999999999GF100991001001999999001001KA1999M-03351MD1210151+9999REMSYN064AAXX  04151 23933 32997 03202 11346 21374 40189 52015 333 11335;EQDQ01  00002PRCP99
0175239330999992000120418004+60960+069060FM-12+0040USHH V0203301N001012200019N0100001N1-03581-03861102071ADDAA199000091GA1001+999999999GF100991001001999999001001KA1999M-03351MD1210181+9999REMSYN064AAXX  04181 23933 32997 03301 11358 21386 40207 52018 333 11335;EQDQ01  00002PRCP99
0122239330999992000120421004+60960+069060FM-12+0040USHH V0203201N001012200019N0100001N1-03621-03901102241ADDGA1001+999999999GF100991001001999999001001MD1210161+9999REMSYN054AAXX  04211 23933 42997 03201 11362 21390 40224 52016;
0191239330999992000120503004+60960+069060FM-12+0040USHH V0203601N001012200019N0100001N1-03661-03941102581ADDAA199000091AJ100179199999999GA1001+999999999GF100991001001999999001001IA1239MD1210191+9999REMSYN070AAXX  05031 23933 32997 03601 11366 21394 40258 52019 333 47017 55000;EQDQ01  00002PRCP99
0175239330999992000120506004+60960+069060FM-12+0040USHH V0202801N001012200019N0100001N1-03601-03901102711ADDAA199000091GA1001+999999999GF100991001001999999001001KA1999N-03661MD1210131+9999REMSYN064AAXX  05061 23933 32997 02801 11360 21390 40271 52013 333 21366;EQDQ01  00002PRCP99
0150239330999992000120509004+60960+069060FM-12+0040USHH V0209999C000012200019N0100001N1-03431-03711102811ADDAY101031AY201031GA1001+999999999GF100991001001999999001001MD1210111+9999MW1041REMSYN060AAXX  05091 23933 41997 00000 11343 21371 40281 52011 70400;
0161239330999992000120512004+60960+069060FM-12+0040USHH V0203601N001019999999N0040001N1-03301-03601102821ADDAY101061AY201061GF108991001001999999001021MA1999999102141MD1210011+9999MW1041REMSYN072AAXX  05121 23933 41996 83601 11330 21360 30214 40282 52001 70400 80002;
0193239330999992000120515004+60960+069060FM-12+0040USHH V0209999C000019999999N0100001N1-03111-03341102831ADDAA199000091AY121031AY221031GF108991001001999999001021KA1999M-03091MD1210011+9999MW1041REMSYN076AAXX  05151 23933 31997 80000 11311 21334 40283 52001 70422 80002 333 11309;EQDQ01  00002PRCP99
0193239330999992000120518004+60960+069060FM-12+0040USHH V0202601N002019999999N0100001N1-02801-03041102671ADDAA199000021AY171061AY221061GF108991081001999999071999KA1999M+99999MD1810141+9999MW1711REMSYN076AAXX  05181 23933 31997 82602 11280 21304 40267 58014 77172 8807/ 333 11309;EQDQ01 -03092ATMX  
0140239330999992000120521004+60960+069060FM-12+0040USHH V0202501N002019999999N0100001N1-02841-03081102651ADDAY171031AY221031GF105991051001999999031001MD1710021+9999MW1021REMSYN066AAXX  05211 23933 41997 52502 11284 21308 40265 57002 70272 85030;
0161239330999992000120600004+60960+069060FM-12+0040USHH V0202401N003019999999N0100001N1-02851-03081102651ADDAY171061AY221061GF107991071001999999031001MA1999999101991MD1410001+9999MW1021REMSYN072AAXX  06001 23933 41997 72403 11285 21308 30199 40265 54000 70272 87030;
0161239330999992000120603004+60960+069060FM-12+0040USHH V0202801N003012200019N0100001N1-02931-03171102721ADDAJ100169199999999GA1001+999999999GF100991001001999999001001IA1239MD1310071+9999REMSYN070AAXX  06031 23933 /2997 02803 11293 21317 40272 53007 333 47016 55000;
0152239330999992000120606004+60960+069060FM-12+0040USHH V0202701N003019999999N0100001N1-02891-03131102771ADDAA100000791GF107991071001999999031001KA1999N-03091MD1210051+9999REMSYN076AAXX  06061 23933 12997 72703 11289 21313 40277 52005 69900 87030 333 21309;
0140239330999992000120609004+60960+069060FM-12+0040USHH V0202601N003019999999N0100001N1-02441-02691102791ADDAY171031AY221031GF108991081001999999071999MD1210031+9999MW1781REMSYN066AAXX  06091 23933 41997 82603 11244 21269 40279 52003 77872 8807/;
0161239330999992000120612004+60960+069060FM-12+0040USHH V0202801N002019999999N0100001N1-02151-02401102821ADDAY171061AY221061GF108991081001999999071999MA1999999102171MD1210031+9999MW1781REMSYN072AAXX  06121 23933 41997 82802 11215 21240 30217 40282 52003 77872 8807/;
0163239330999992000120615004+60960+069060FM-12+0040USHH V0202601N004019999999N0100001N1-02251-02501102891ADDAY171031AY221031GF108991081001999999021999KA1999M-02151MD1210071+9999MW1781REMSYN076AAXX  06151 23933 /1997 82604 11225 21250 40289 52007 77872 8802/ 333 11215;
0190239330999992000120618004+60960+069060FM-12+0040USHH V0202701N003012200019N0100001N1-02321-02571102891ADDAA100000591AY171061AY221061GA1001+999999999GF100991001001999999001001KA1999M-02151MD1410001+9999MW1021REMSYN076AAXX  06181 23933 11997 02703 11232 21257 40289 54000 69950 70272 333 11215;
0122239330999992000120621004+60960+069060FM-12+0040USHH V0203601N001012200019N0100001N1-02251-02501102981ADDGA1001+999999999GF100991001001999999001001MD1310091+9999REMSYN054AAXX  06211 23933 42997 03601 11225 21250 40298 53009;
0143239330999992000120700004+60960+069060FM-12+0040USHH V0202601N001012200019N0100001N1-02151-02401102801ADDGA1001+999999999GF100991001001999999001001MA1999999102151MD1810181+9999REMSYN060AAXX  07001 23933 42997 02601 11215 21240 30215 40280 58018;
0151239330999992000120703004+60960+069060FM-12+0040USHH V0209999C000019999999N0100001N1-02141-02331102851ADDAJ100189199999999GF107991071001999999031001IA1239MD1310051+9999REMSYN076AAXX  07031 23933 /2997 70000 11214 21233 40285 53005 87030 333 47018 55000;
0152239330999992000120706004+60960+069060FM-12+0040USHH V0209999C000019999999N0100001N1-02141-02391102681ADDAA100000191GF106991021001999999031021KA1999N-02321MD1810171+9999REMSYN076AAXX  07061 23933 12997 60000 11214 21239 40268 58017 69920 82032 333 21232;
0112239330999992000120709004+60960+069060FM-12+0040USHH V0200901N003019999999N0100001N1-02251-02501102541ADDGF105991021001999999031011MD1710141+9999REMSYN060AAXX  07091 23933 42997 50903 11225 21250 40254 57014 82031;
0161239330999992000120712004+60960+069060FM-12+0040USHH V0202001N003019999999N0040001N1-01881-02291102141ADDAY171061AY231061GF106991061001008001031001MA1999999101501MD1710391+9999MW1781REMSYN072AAXX  07121 23933 41596 62003 11188 21229 30150 40214 57039 77873 86030;
0163239330999992000120715004+60960+069060FM-12+0040USHH V0202001N003019999999N0040001N1-01621-01961101851ADDAY171031AY231031GF108991081001999999021999KA1999M-01621MD1710281+9999MW1781REMSYN076AAXX  07151 23933 /1996 82003 11162 21196 40185 57028 77873 8802/ 333 11162;
0199239330999992000120718004+60960+069060FM-12+0040USHH V0202101N005019999999N0100001N1-01541-01881101311ADDAA100000591AY171061AY231061GF108991081001999999021999KA1999M+99999MD1710541+9999MW1781REMSYN082AAXX  07181 23933 11997 82105 11154 21188 40131 57054 69960 77873 8802/ 333 11162;EQDQ01 -01622ATMX  
0140239330999992000120721004+60960+069060FM-12+0040USHH V0202201N005010042019N0010001N1-01301-01571100971ADDAY171031AY231031GF108991081001004501021999MD1710321+9999MW1731REMSYN066AAXX  07211 23933 41494 82205 11130 21157 40097 57032 77373 8802/;
0171239330999992000120800004+60960+069060FM-12+0040USHH V0202201N005010042019N0010001N1-01011-01291100791ADDAY171061AY231061GF108991081001004501021999MA1999999100181MD1710181+9999MW1731REMSYN082AAXX  08001 23933 41494 82205 11101 21129 30018 40079 57018 77373 8802/ 333 91112;
0179239330999992000120803004+60960+069060FM-12+0040USHH V0202401N003010042019N0010001N1-00781-00921100731ADDAJ100229199999999AY171031AY231031GF108991081001004501021999IA1239MD1710021+9999MW1731REMSYN082AAXX  08031 23933 /1494 82403 11078 21092 40073 57002 77373 8802/ 333 47022 55005;
0203239330999992000120806004+60960+069060FM-12+0040USHH V0202601N004019999999N0100001N1-00581-00801100901ADDAA100007191AY171061AY231061GF108991081001999999071999KA1120N-01621MD1310141+9999MW1381OA149901201REMSYN094AAXX  08061 23933 11997 82604 11058 21080 40090 53014 60070 73873 8807/ 333 21162 91112 92990;
0103239330999992000120809004+60960+069060FM-12+0040USHH V0202801N004019999999N0100001N1-00521+99999999999ADDGF108991999999008001999999REMSYN065AAXX  08091 23933 41597 82804 11052 1073 40117 52026 73832 885//;
0161239330999992000120812004+60960+069060FM-12+0040USHH V0202801N004010042019N0100001N1-00481-00651101441ADDAY131061AY221061GF108991081001004501021999MA1999999100841MD1210281+9999MW1021REMSYN072AAXX  08121 23933 41497 82804 11048 21065 30084 40144 52028 70232 8802/;
0163239330999992000120815004+60960+069060FM-12+0040USHH V0200301N003010075019N0100001N1-00691-00981101851ADDAY171031AY221031GF108991051051008001071999KA1999M-00461MD1210401+9999MW1781REMSYN076AAXX  08151 23933 /1597 80303 11069 21098 40185 52040 77872 8557/ 333 11046;
0190239330999992000120818004+60960+069060FM-12+0040USHH V0200401N001012200019N0100001N1-01341-01771101891ADDAA100000391AY171061AY211061GA1001+999999999GF100991001001999999001001KA1999M-00461MD1210031+9999MW1021REMSYN076AAXX  08181 23933 11997 00401 11134 21177 40189 52003 69930 70271 333 11046;
0112239330999992000120821004+60960+069060FM-12+0040USHH V0200701N001012200019N0100001N1-01651-01911101901ADDGF103991001001999999001011MD1410001+9999REMSYN060AAXX  08211 23933 42997 30701 11165 21191 40190 54000 80001;
0161239330999992000120900004+60960+069060FM-12+0040USHH V0201101N002019999999N0100001N1-01731-01851101831ADDAY171061AY221061GF108991031071999999021999MA1999999101181MD1810091+9999MW1711REMSYN072AAXX  09001 23933 42997 81102 11173 21185 30118 40183 58009 77172 8372/;
0198239330999992000120903004+60960+069060FM-12+0040USHH V0201301N003010300019N0100001N1-01361-01521101291ADDAJ100239199999999AY171031AY221031GF108991031071001501021999IA1239MD1710512+9999MW1781REMSYN082AAXX  09031 23933 /1297 81303 11136 21152 40129 57051 77872 8372/ 333 47023 55000;EQDQ01+000512APC3  
0180239330999992000120906004+60960+069060FM-12+0040USHH V0202301N002010042019N0500001N1-00681-00801100881ADDAA100000791AY171061AY281061GF108991081001004501021999KA1999N-01731MD1710391+9999MW1731REMSYN082AAXX  09061 23933 11499 82302 11068 21080 40088 57039 69900 77378 8802/ 333 21173;
0140239330999992000120909004+60960+069060FM-12+0040USHH V0202201N004010042019N0100001N1-00721-00891100681ADDAY171031AY231031GF108991051071004501021999MD1710201+9999MW1781REMSYN066AAXX  09091 23933 41497 82204 11072 21089 40068 57020 77873 8572/;
0161239330999992000120912004+60960+069060FM-12+0040USHH V0202401N003019999999N0100001N1-00751-00881100591ADDAY171061AY231061GF108991081001999999021999MA1999999099991MD1710091+9999MW1781REMSYN072AAXX  09121 23933 41997 82403 11075 21088 39999 40059 57009 77873 8802/;
0163239330999992000120915004+60960+069060FM-12+0040USHH V0202401N004019999999N0100001N1-00671-00831100521ADDAY171031AY221031GF108991081001999999071999KA1999M-00651MD1710071+9999MW1021REMSYN076AAXX  09151 23933 /1997 82404 11067 21083 40052 57007 70272 8807/ 333 11065;
0180239330999992000120918004+60960+069060FM-12+0040USHH V0202401N003019999999N0100001N1-00601-00751100511ADDAA100003091AY171061AY231061GF108991081001999999071999KA1999M-00651MD1710011+9999MW1711REMSYN082AAXX  09181 23933 11997 82403 11060 21075 40051 57001 60030 77173 8807/ 333 11065;
0140239330999992000120921004+60960+069060FM-12+0040USHH V0202701N003010120019N0100001N1-00541-00681100591ADDAY171031AY221031GF108991051041012501021999MD1310081+9999MW1021REMSYN066AAXX  09211 23933 41697 82703 11054 21068 40059 53008 70272 8542/;
0161239330999992000121000004+60960+069060FM-12+0040USHH V0202701N002010075019N0100001N1-00501-00631100721ADDAY171061AY221061GF108991081051008001999999MA1999999100121MD1210131+9999MW1021REMSYN072AAXX  10001 23933 41597 82702 11050 21063 30012 40072 52013 70272 885//;
0151239330999992000121003004+60960+069060FM-12+0040USHH V0203001N002010042019N0100001N1-00461-00521100911ADDAJ100229199999999GF108991081051004501999999IA1239MD1210201+9999REMSYN076AAXX  10031 23933 /2497 83002 11046 21052 40091 52020 885// 333 47022 55000;
0180239330999992000121006004+60960+069060FM-12+0040USHH V0203401N002010042019N0040001N1-00691-00891101271ADDAA100000191AY171061AY221061GF108991081051004501999999KA1999N-00671MD1210341+9999MW1711REMSYN082AAXX  10061 23933 11496 83402 11069 21089 40127 52034 69920 77172 885// 333 21067;
0140239330999992000121009004+60960+069060FM-12+0040USHH V0203501N001010075019N0100001N1-01131-01411101541ADDAY171031AY221031GF106991061051008001001001MD1210261+9999MW1021REMSYN066AAXX  10091 23933 41597 63501 11113 21141 40154 52026 70272 86500;
0161239330999992000121012004+60960+069060FM-12+0040USHH V0209999C000010300019N0100001N1-01391-01591101801ADDAY171061AY221061GF107991021051008001031001MA1999999101181MD1210261+9999MW1021REMSYN072AAXX  10121 23933 41597 70000 11139 21159 30118 40180 52026 70272 82530;
0135239330999992000121015004+60960+069060FM-12+0040USHH V0201101N001010300019N0100001N1-01481-01681101931ADDGF107991031051008001031001KA1999M-00351MD1210121+9999REMSYN070AAXX  10151 23933 /2597 71101 11148 21168 40193 52012 83530 333 11035;
0152239330999992000121018004+60960+069060FM-12+0040USHH V0201101N002010075019N0100001N1-01561-01751102011ADDAA100000791GF108991081051008001999999KA1999M-00351MD1210081+9999REMSYN076AAXX  10181 23933 12597 81102 11156 21175 40201 52008 69900 885// 333 11035;
0140239330999992000121021004+60960+069060FM-12+0040USHH V0201201N002010075019N0100001N1-01361-01561101911ADDAY171031AY221031GF108991081051008001999999MD1810091+9999MW1781REMSYN066AAXX  10211 23933 41597 81202 11136 21156 40191 58009 77872 885//;
0161239330999992000121100004+60960+069060FM-12+0040USHH V0201101N002010075019N0100001N1-01191-01391101871ADDAY171061AY221061GF108991081051008001999999MA1999999101251MD1710041+9999MW1781REMSYN072AAXX  11001 23933 41597 81102 11119 21139 30125 40187 57004 77872 885//;
0151239330999992000121103004+60960+069060FM-12+0040USHH V0203601N001010075019N0100001N1-01071-01201101921ADDAJ100239199999999GF108991081051008001999999IA1239MD1310051+9999REMSYN076AAXX  11031 23933 /2597 83601 11107 21120 40192 53005 885// 333 47023 55000;
0180239330999992000121106004+60960+069060FM-12+0040USHH V0209999C000010075019N0100001N1-00901-01061101911ADDAA100000191AY171061AY221061GF108991081051008001999999KA1999N-01561MD1410001+9999MW1781REMSYN082AAXX  11061 23933 11597 80000 11090 21106 40191 54000 69920 77872 885// 333 21156;
0140239330999992000121109004+60960+069060FM-12+0040USHH V0209999C000019999999N0040001N1-00901-01061101911ADDAY171031AY221031GF108991081001999999021999MD1410001+9999MW1711REMSYN066AAXX  11091 23933 41996 80000 11090 21106 40191 54000 77172 8802/;
0161239330999992000121112004+60960+069060FM-12+0040USHH V0209999C000019999999N0040001N1-00931-01091101871ADDAY171061AY221061GF108991081001999999021999MA1999999101261MD1810041+9999MW1711REMSYN072AAXX  11121 23933 41996 80000 11093 21109 30126 40187 58004 77172 8802/;
0163239330999992000121115004+60960+069060FM-12+0040USHH V0203501N001010042019N0040001N1-01021-01151102031ADDAY171031AY221031GF108991081001004501021999KA1999M-00901MD1310141+9999MW1711REMSYN076AAXX  11151 23933 /1496 83501 11102 21115 40203 53014 77172 8802/ 333 11090;
0180239330999992000121118004+60960+069060FM-12+0040USHH V0209999C000019999999N0100001N1-01211-01341102061ADDAA100003091AY171061AY221061GF108991021001999999031071KA1999M-00901MD1210031+9999MW1781REMSYN082AAXX  11181 23933 11997 80000 11121 21134 40206 52003 60030 77872 82037 333 11090;
0163239330999992000121121004+60960+069060FM-12+0040USHH V0203501N001010042019N0010001N1-01021-01151102031ADDAY171031AY221031GF108991081001004501021999KA1999M-00901MD1310141+9999MW1731REMSYN076AAXX  11211 23933 /1494 83501 11102 21115 40203 53014 77372 8802/ 333 11090;
0161239330999992000121200004+60960+069060FM-12+0040USHH V0200201N001019999999N0100001N1-01641-01831102261ADDAY171061AY211061GF108991031001999999031071MA1999999101621MD1210031+9999MW1781REMSYN072AAXX  12001 23933 41997 80201 11164 21183 30162 40226 52003 77871 83037;
0179239330999992000121203004+60960+069060FM-12+0040USHH V0200601N001019999999N0100001N1-01711-01831102321ADDAJ100239199999999AY171031AY221031GF108991081001999999021999IA1239MD1210061+9999MW1021REMSYN082AAXX  12031 23933 /1997 80601 11171 21183 40232 52006 70272 8802/ 333 47023 55000;
0180239330999992000121206004+60960+069060FM-12+0040USHH V0200801N002019999999N0100001N1-01511-01641102331ADDAA100001091AY171061AY221061GF108991081001999999071999KA1999N-01711MD1210011+9999MW1021REMSYN082AAXX  12061 23933 11997 80802 11151 21164 40233 52001 60010 70272 8807/ 333 21171;
0112239330999992000121209004+60960+069060FM-12+0040USHH V0200701N001010300019N0100001N1-01401-01531102321ADDGF108991021051008001031011MD1410001+9999REMSYN060AAXX  12091 23933 42597 80701 11140 21153 40232 54000 82531;
0161239330999992000121212004+60960+069060FM-12+0040USHH V0200801N002019999999N0100001N1-01431-01561102311ADDAY171061AY221061GF106991061001999999031001MA1999999101681MD1810011+9999MW1781REMSYN072AAXX  12121 23933 41997 60802 11143 21156 30168 40231 58001 77872 86030;
0163239330999992000121215004+60960+069060FM-12+0040USHH V0200501N001019999999N0100001N1-01881-02071102371ADDAY171031AY221031GF108991081001999999021999KA1999M-01401MD1310051+9999MW1781REMSYN076AAXX  12151 23933 /1997 80501 11188 21207 40237 53005 77872 8802/ 333 11140;
0180239330999992000121218004+60960+069060FM-12+0040USHH V0200301N001012200019N0100001N1-02271-02451102331ADDAA100000791AY171061AY221061GF103991031001999999031001KA1999M-01401MD1810051+9999MW1021REMSYN082AAXX  12181 23933 11997 30301 11227 21245 40233 58005 69900 70272 83030 333 11140;
0140239330999992000121221004+60960+069060FM-12+0040USHH V0209999C000019999999N0100001N1-02211-02401102381ADDAY171031AY221031GF108991081001999999071999MD1310051+9999MW1781REMSYN066AAXX  12211 23933 41997 80000 11221 21240 40238 53005 77872 8807/;
0161239330999992000121300004+60960+069060FM-12+0040USHH V0200801N001019999999N0100001N1-02081-02261102361ADDAY171061AY221061GF108991081001999999021999MA1999999101711MD1810021+9999MW1781REMSYN072AAXX  13001 23933 41997 80801 11208 21226 30171 40236 58002 77872 8802/;
0179239330999992000121303004+60960+069060FM-12+0040USHH V0209999C000010075019N0100001N1-01861-02051102231ADDAJ100279199999999AY171031AY221031GF108991081051008001999999IA1239MD1710121+9999MW1021REMSYN082AAXX  13031 23933 /1597 80000 11186 21205 40223 57012 70272 885// 333 47027 55000;
0180239330999992000121306004+60960+069060FM-12+0040USHH V0201101N001019999999N0100001N1-01681-01871102221ADDAA100000791AY171061AY221061GF108991081001999999021999KA1999N-02271MD1710011+9999MW1101REMSYN082AAXX  13061 23933 11997 81101 11168 21187 40222 57001 69900 71072 8802/ 333 21227;
0140239330999992000121309004+60960+069060FM-12+0040USHH V0200901N001019999999N0100001N1-01421-01551102101ADDAY171031AY221031GF108991081001999999021999MD1710111+9999MW1711REMSYN066AAXX  13091 23933 41997 80901 11142 21155 40210 57011 77172 8802/;
0161239330999992000121312004+60960+069060FM-12+0040USHH V0201501N002010042019N0100001N1-01131-01261102441ADDAY171061AY221061GF108991051071004501021999MA1999999101411MD1710061+9999MW1021REMSYN072AAXX  13121 23933 41497 81502 11113 21126 30141 40244 57006 70272 8572/;
0135239330999992000121315004+60960+069060FM-12+0040USHH V0202101N001010042019N0100001N1-01031-01161101901ADDGF108991051071004501021999KA1999M-01031MD1710131+9999REMSYN070AAXX  13151 23933 /2497 82101 11103 21116 40190 57013 8572/ 333 11103;
0171239330999992000121318004+60960+069060FM-12+0040USHH V0202001N001010075019N0100001N1-00941-01101101831ADDAA100000791GF108991081051008001999999KA1999M+99999MD1710061+9999REMSYN076AAXX  13181 23933 12597 82001 11094 21110 40183 57006 69900 885// 333 11103;EQDQ01 -01032ATMX  
0112239330999992000121321004+60960+069060FM-12+0040USHH V0202601N002019999999N0100001N1-00731-00901101601ADDGF108991081051999999999999MD1710231+9999REMSYN060AAXX  13211 23933 42997 82602 11073 21090 40160 57023 885//;
0161239330999992000121400004+60960+069060FM-12+0040USHH V0202601N002019999999N0100001N1-00621-00771101491ADDAY171061AY221061GF108991081001999999021999MA1999999100881MD1710111+9999MW1711REMSYN072AAXX  14001 23933 41997 82602 11062 21077 30088 40149 57011 77172 8802/;
0179239330999992000121403004+60960+069060FM-12+0040USHH V0202501N002010075019N0007001N1-00611-00761101451ADDAJ100279199999999AY171031AY221031GF108991081051008001999999IA1239MD1710041+9999MW1781REMSYN082AAXX  14031 23933 /1507 82502 11061 21076 40145 57004 77872 885// 333 47027 55000;
0180239330999992000121406004+60960+069060FM-12+0040USHH V0202801N002010075019N0100001N1-00641-00801101441ADDAA100000191AY171061AY221061GF108991081051008001999999KA1999N-01031MD1710011+9999MW1781REMSYN082AAXX  14061 23933 11597 82802 11064 21080 40144 57001 69920 77872 885// 333 21103;
0140239330999992000121409004+60960+069060FM-12+0040USHH V0202601N002010075019N0100001N1-00601-00751101431ADDAY171031AY221031GF108991081051008001999999MD1710011+9999MW1781REMSYN066AAXX  14091 23933 41597 82602 11060 21075 40143 57001 77872 885//;
0161239330999992000121412004+60960+069060FM-12+0040USHH V0202701N002010075019N0100001N1-00581-00691101421ADDAY171061AY221061GF108991081051008001999999MA1999999100811MD1710011+9999MW1781REMSYN072AAXX  14121 23933 41597 82702 11058 21069 30081 40142 57001 77872 885//;
0163239330999992000121415004+60960+069060FM-12+0040USHH V0202201N001019999999N0100001N1-00561-00701101391ADDAY171031AY221031GF108991081001999999021999KA1999M-00551MD1710031+9999MW1711REMSYN076AAXX  14151 23933 /1997 82201 11056 21070 40139 57003 77172 8802/ 333 11055;
0180239330999992000121418004+60960+069060FM-12+0040USHH V0202301N001019999999N0040001N1-00551-00691101391ADDAA100000891AY171061AY221061GF108991081001999999021999KA1999M-00551MD1410001+9999MW1711REMSYN082AAXX  14181 23933 11996 82301 11055 21069 40139 54000 69980 77172 8802/ 333 11055;
0140239330999992000121421004+60960+069060FM-12+0040USHH V0202501N002019999999N0040001N1-00581-00731101401ADDAY171031AY221031GF108991081001999999021999MD1310011+9999MW1711REMSYN066AAXX  14211 23933 41996 82502 11058 21073 40140 53001 77172 8802/;
0161239330999992000121500004+60960+069060FM-12+0040USHH V0202201N001019999999N0040001N1-00611-00761101391ADDAY171061AY221061GF108991081001999999021999MA1999999100781MD1810011+9999MW1711REMSYN072AAXX  15001 23933 41996 82201 11061 21076 30078 40139 58001 77172 8802/;
0179239330999992000121503004+60960+069060FM-12+0040USHH V0202001N001010120019N0100001N1-00621-00741101351ADDAJ100319199999999AY171031AY221031GF106991061051012501001001IA1239MD1710041+9999MW1221REMSYN082AAXX  15031 23933 /1697 62001 11062 21074 40135 57004 72272 86500 333 47031 55000;
0199239330999992000121506004+60960+069060FM-12+0040USHH V0200801N001010300019N0100001N1-00781-00881101351ADDAA100003091AY171061AY221061GF108991041051012501021999KA1999N+99999MD1410001+9999MW1781REMSYN082AAXX  15061 23933 11697 80801 11078 21088 40135 54000 60030 77872 8452/ 333 21062;EQDQ01 -00622ATMN  
0140239330999992000121509004+60960+069060FM-12+0040USHH V0209999C000010120019N0100001N1-00711-00841101341ADDAY171031AY221031GF107991061051012501031001MD1710011+9999MW1021REMSYN066AAXX  15091 23933 41697 70000 11071 21084 40134 57001 70272 86530;
0161239330999992000121512004+60960+069060FM-12+0040USHH V0201001N001010120019N0100001N1-00761-00851101371ADDAY171061AY221061GF107991071051012501001001MA1999999100761MD1310031+9999MW1021REMSYN072AAXX  15121 23933 41697 71001 11076 21085 30076 40137 53003 70272 87500;
0182239330999992000121515004+60960+069060FM-12+0040USHH V0201201N001010075019N0100001N1-00781-00841101381ADDAY171031AY221031GF108991999051008001001001KA1999M-00611MD1210011+9999MW1781REMSYN076AAXX  15151 23933 /1597 81201 11078 21084 40138 52001 77872 87500 333 11061;EQDQ01+000072SCOTLC
0180239330999992000121518004+60960+069060FM-12+0040USHH V0201001N001019999999N0040001N1-00801-00901101381ADDAA100000391AY171061AY221061GF108991081001999999021999KA1999M-00611MD1410001+9999MW1711REMSYN082AAXX  15181 23933 11996 81001 11080 21090 40138 54000 69930 77172 8802/ 333 11061;
0140239330999992000121521004+60960+069060FM-12+0040USHH V0201101N001010075019N0100001N1-00781-00881101411ADDAY171031AY221031GF108991081051008001999999MD1310031+9999MW1781REMSYN066AAXX  15211 23933 41597 81101 11078 21088 40141 53003 77872 885//;
0161239330999992000121600004+60960+069060FM-12+0040USHH V0209999C000010075019N0100001N1-00801-00941101431ADDAY171061AY221061GF108991081051008001999999MA1999999100821MD1210021+9999MW1781REMSYN072AAXX  16001 23933 41597 80000 11080 21094 30082 40143 52002 77872 885//;
0179239330999992000121603004+60960+069060FM-12+0040USHH V0209999C000010300019N0040001N1-00811-00871101471ADDAJ100319199999999AY171031AY221031GF108991031051008001021999IA1239MD1210041+9999MW1711REMSYN082AAXX  16031 23933 /1596 80000 11081 21087 40147 52004 77172 8352/ 333 47031 55000;
0180239330999992000121606004+60960+069060FM-12+0040USHH V0209999C000019999999N0100001N1-00831-00931101521ADDAA100000191AY171061AY221061GF108991081001999999071999KA1999N-00811MD1210051+9999MW1781REMSYN082AAXX  16061 23933 11997 80000 11083 21093 40152 52005 69920 77872 8807/ 333 21081;
0140239330999992000121609004+60960+069060FM-12+0040USHH V0209999C000010075019N0100001N1-00801-00901101551ADDAY171031AY221031GF108991081051008001999999MD1210031+9999MW1781REMSYN066AAXX  16091 23933 41597 80000 11080 21090 40155 52003 77872 885//;
0161239330999992000121612004+60960+069060FM-12+0040USHH V0209999C000010075019N0040001N1-00821-00921101731ADDAY171061AY221061GF108991061051008001021999MA1999999101121MD1210181+9999MW1711REMSYN072AAXX  16121 23933 41596 80000 11082 21092 30112 40173 52018 77172 8652/;
0163239330999992000121615004+60960+069060FM-12+0040USHH V0209999C000010120019N0100001N1-00871-00981101611ADDAY171031AY221031GF108991081051012501999999KA1999M-00751MD1810121+9999MW1781REMSYN076AAXX  16151 23933 /1697 80000 11087 21098 40161 58012 77872 885// 333 11075;
0180239330999992000121618004+60960+069060FM-12+0040USHH V0209999C000019999999N0100001N1-00901-01011101601ADDAA100000791AY171061AY221061GF108991081001999999021999KA1999M-00751MD1710011+9999MW1781REMSYN082AAXX  16181 23933 11997 80000 11090 21101 40160 57001 69900 77872 8802/ 333 11075;
0140239330999992000121621004+60960+069060FM-12+0040USHH V0209999C000010075019N0040001N1-00901-01011101621ADDAY171031AY221031GF108991061051008001021999MD1310021+9999MW1711REMSYN066AAXX  16211 23933 41596 80000 11090 21101 40162 53002 77172 8652/;
0161239330999992000121700004+60960+069060FM-12+0040USHH V0201201N001019999999N0100001N1-00971-01091101651ADDAY171061AY221061GF108991081001999999021999MA1999999101041MD1210031+9999MW1781REMSYN072AAXX  17001 23933 41997 81201 11097 21109 30104 40165 52003 77872 8802/;
0179239330999992000121703004+60960+069060FM-12+0040USHH V0209999C000010042019N0040001N1-00991-01111101061ADDAJ100319199999999AY171031AY221031GF108991051051004501021999IA1239MD1210021+9999MW1711REMSYN082AAXX  17031 23933 /1496 80000 11099 21111 40106 52002 77172 8552/ 333 47031 55000;
0180239330999992000121706004+60960+069060FM-12+0040USHH V0209999C000019999999N0100001N1-01011-01141101711ADDAA100000191AY171061AY221061GF108991081001999999071999KA1999N-00991MD1210031+9999MW1781REMSYN082AAXX  17061 23933 11997 80000 11101 21114 40171 52003 69920 77872 8807/ 333 21099;
0140239330999992000121709004+60960+069060FM-12+0040USHH V0203401N001019999999N0100001N1-00921-01061101751ADDAY171031AY221031GF108991081001999999021999MD1210051+9999MW1781REMSYN066AAXX  17091 23933 41997 83401 11092 21106 40175 52005 77872 8802/;
0161239330999992000121712004+60960+069060FM-12+0040USHH V0202901N001010300019N0040001N1-00911-01061101811ADDAY171061AY221061GF108991031051004501021999MA1999999101201MD1210061+9999MW1711REMSYN072AAXX  17121 23933 41496 82901 11091 21106 30120 40181 52006 77172 8352/;
0163239330999992000121715004+60960+069060FM-12+0040USHH V0209999C000010042019N0040001N1-01021-01151101851ADDAY171031AY221031GF108991051051004501021999KA1999M-00791MD1210031+9999MW1711REMSYN076AAXX  17151 23933 /1496 80000 11102 21115 40185 52003 77172 8552/ 333 11079;
0180239330999992000121718004+60960+069060FM-12+0040USHH V0209999C000010042019N0100001N1-01111-01241101841ADDAA100000791AY171061AY221061GF107991071051004501001001KA1999M-00791MD1810011+9999MW1021REMSYN082AAXX  17181 23933 11497 70000 11111 21124 40184 58001 69900 70272 87500 333 11079;
0140239330999992000121721004+60960+069060FM-12+0040USHH V0203101N001010075019N0100001N1-01071-01201101951ADDAY171031AY221031GF108991081051008001999999MD1310091+9999MW1781REMSYN066AAXX  17211 23933 41597 83101 11107 21120 40195 53009 77872 885//;
0161239330999992000121800004+60960+069060FM-12+0040USHH V0203001N001010042019N0100001N1-01201-01331102001ADDAY171061AY221061GF108991051051004501021999MA1999999101381MD1210051+9999MW1781REMSYN072AAXX  18001 23933 41497 83001 11120 21133 30138 40200 52005 77872 8552/;
0179239330999992000121803004+60960+069060FM-12+0040USHH V0202601N001010075019N0100001N1-01221-01351102041ADDAJ100319199999999AY171031AY221031GF108991081051008001999999IA1239MD1210031+9999MW1781REMSYN082AAXX  18031 23933 /1597 82601 11122 21135 40204 52003 77872 885// 333 47031 55000;
0180239330999992000121806004+60960+069060FM-12+0040USHH V0202701N001010075019N0100001N1-01211-01341102111ADDAA100000791AY171061AY221061GF108991081051008001999999KA1999N-01221MD1210071+9999MW1781REMSYN082AAXX  18061 23933 11597 82701 11121 21134 40211 52007 69900 77872 885// 333 21122;
0140239330999992000121809004+60960+069060FM-12+0040USHH V0202801N001010075019N0100001N1-01131-01261102141ADDAY171031AY221031GF107991071051008001001001MD1210031+9999MW1781REMSYN066AAXX  18091 23933 41597 72801 11113 21126 40214 52003 77872 87500;
0171239330999992000121812004+60960+069060FM-12+0040USHH V0209999C000019999999N0040001N1-01131-01261102181ADDAY171061AY221061GF108991081001999999021999MA1999999101551MD1210041+9999MW1711REMSYN082AAXX  18121 23933 41996 80000 11113 21126 30155 40218 52004 77172 8802/ 333 93555;
0163239330999992000121815004+60960+069060FM-12+0040USHH V0209999C000019999999N0100001N1-01191-01321102151ADDAY171031AY221031GF108991081001999999021999KA1999M-01131MD1810031+9999MW1781REMSYN076AAXX  18151 23933 /1997 80000 11119 21132 40215 58003 77872 8802/ 333 11113;
0180239330999992000121818004+60960+069060FM-12+0040USHH V0201001N001019999999N0100001N1-01281-01411102081ADDAA100000191AY171061AY221061GF108991081001999999021999KA1999M-01131MD1710071+9999MW1781REMSYN082AAXX  18181 23933 11997 81001 11128 21141 40208 57007 69920 77872 8802/ 333 11113;
0140239330999992000121821004+60960+069060FM-12+0040USHH V0203601N001019999999N0040001N1-01391-01521102121ADDAY171031AY221031GF108991081001999999021999MD1310041+9999MW1711REMSYN066AAXX  18211 23933 41996 83601 11139 21152 40212 53004 77172 8802/;
0161239330999992000121900004+60960+069060FM-12+0040USHH V0203601N001019999999N0040001N1-01621+99999101961ADDAY171061AY221061GF108991081001999999021999MA1999999101331MD1810161+9999MW1711REMSYN072AAXX  19001 23933 41996 83601 11162 20181 30133 40196 58016 77172 8802/;
0179239330999992000121903004+60960+069060FM-12+0040USHH V0200301N001019999999N0040001N1-01911-02101101851ADDAJ100329199999999AY171031AY221031GF108991081001999999021999IA1239MD1710111+9999MW1711REMSYN082AAXX  19031 23933 /1996 80301 11191 21210 40185 57011 77172 8802/ 333 47032 55000;
0199239330999992000121906004+60960+069060FM-12+0040USHH V0209999C000019999999N0040001N1-02111-02291101861ADDAA100000191AY171061AY221061GF108991031001999999031091KA1999N+99999MD1410001+9999MW1021REMSYN082AAXX  19061 23933 11996 80000 11211 21229 40186 54000 69920 70272 83039 333 21191;EQDQ01 -01912ATMN  
0140239330999992000121909004+60960+069060FM-12+0040USHH V0209999C000019999999N0040001N1-01951-02141101831ADDAY171031AY221031GF107991071001999999031001MD1810021+9999MW1781REMSYN066AAXX  19091 23933 41996 70000 11195 21214 40183 58002 77872 87030;
0161239330999992000121912004+60960+069060FM-12+0040USHH V0209999C000019999999N0100001N1-01961-02151101971ADDAY171061AY221061GF107991071001999999031001MA1999999101331MD1310131+9999MW1021REMSYN072AAXX  19121 23933 41997 70000 11196 21215 30133 40197 53013 70272 87030;
0145239330999992000121915004+60960+069060FM-12+0040USHH V0209999C000012200019N0100001N1-02211-02401101951ADDGA1001+999999999GF100991001001999999001001KA1999M-01911MD1810021+9999REMSYN064AAXX  19151 23933 /2997 00000 11221 21240 40195 58002 333 11191;
0152239330999992000121918004+60960+069060FM-12+0040USHH V0209999C000019999999N0100001N1-02491-02741102091ADDAA100000791GF108991001001999999001011KA1999M-01911MD1310121+9999REMSYN076AAXX  19181 23933 12997 80000 11249 21274 40209 53012 69900 80001 333 11191;
0139239330999992000121921004+60960+069060FM-12+0040USHH V0209999C000019999999N0100001N1-02581-02761102171ADDAY171031AY221031GF107991999999999999999999MD1210081+9999MW1781REMSYN065AAXX  19211 23933 41997 70000 11258 21276 40217 52008 77872 8700;
0161239330999992000122000004+60960+069060FM-12+0040USHH V0209999C000019999999N0040001N1-02491-02741102281ADDAY171061AY221061GF108991081001999999021999MA1999999101621MD1210111+9999MW1711REMSYN072AAXX  20001 23933 41996 80000 11249 21274 30162 40228 52011 77172 8802/;
0179239330999992000122003004+60960+069060FM-12+0040USHH V0209999C000019999999N0100001N1-02501-02741102341ADDAJ100329199999999AY171031AY221031GF108991081001999999021999IA1239MD1210061+9999MW1781REMSYN082AAXX  20031 23933 /1997 80000 11250 21274 40234 52006 77872 8802/ 333 47032 55000;
0180239330999992000122006004+60960+069060FM-12+0040USHH V0201001N001019999999N0100001N1-02571-02811102491ADDAA100000791AY171061AY221061GF108991001001999999001071KA1999N-02581MD1210151+9999MW1781REMSYN082AAXX  20061 23933 11997 81001 11257 21281 40249 52015 69900 77872 80007 333 21258;
0140239330999992000122009004+60960+069060FM-12+0040USHH V0201001N001019999999N0100001N1-02561-02811102541ADDAY171031AY221031GF108991001001999999001071MD1210051+9999MW1781REMSYN066AAXX  20091 23933 41997 81001 11256 21281 40254 52005 77872 80007;
0161239330999992000122012004+60960+069060FM-12+0040USHH V0201101N002019999999N0100001N1-02531-02771102531ADDAY171061AY221061GF108991051001999999031071MA1999999101871MD1810011+9999MW1781REMSYN072AAXX  20121 23933 41997 81102 11253 21277 30187 40253 58001 77872 85037;
0163239330999992000122015004+60960+069060FM-12+0040USHH V0201301N003019999999N0040001N1-01961-02151102571ADDAY171031AY221031GF108991081001999999021999KA1999M-01961MD1310051+9999MW1711REMSYN076AAXX  20151 23933 /1996 81303 11196 21215 40257 53005 77172 8802/ 333 11196;
0180239330999992000122018004+60960+069060FM-12+0040USHH V0201301N002019999999N0040001N1-02001-02191102491ADDAA100000391AY171061AY221061GF108991081001999999071999KA1999M-01961MD1810081+9999MW1711REMSYN082AAXX  20181 23933 11996 81302 11200 21219 40249 58008 69930 77172 8807/ 333 11196;
0140239330999992000122021004+60960+069060FM-12+0040USHH V0201201N003019999999N0040001N1-01821-02011102401ADDAY171031AY221031GF108991081001999999021999MD1710081+9999MW1711REMSYN066AAXX  20211 23933 41996 81203 11182 21201 40240 57008 77172 8802/;
0161239330999992000122100004+60960+069060FM-12+0040USHH V0201201N003019999999N0040001N1-01611-01801102271ADDAY171061AY231061GF108991081001999999021999MA1999999101631MD1710131+9999MW1711REMSYN072AAXX  21001 23933 41996 81203 11161 21180 30163 40227 57013 77173 8802/;
0179239330999992000122103004+60960+069060FM-12+0040USHH V0201301N004019999999N0020001N1-01401-01601102111ADDAJ100349199999999AY171031AY231031GF108991081001999999021999IA1239MD1710151+9999MW1731REMSYN082AAXX  21031 23933 /1995 81304 11140 21160 40211 57015 77373 8802/ 333 47034 55000;
0180239330999992000122106004+60960+069060FM-12+0040USHH V0201201N004019999999N0040001N1-01191-01321102091ADDAA100003091AY171061AY231061GF108991081001999999021999KA1999N-02001MD1710021+9999MW1711REMSYN082AAXX  21061 23933 11996 81204 11119 21132 40209 57002 60030 77173 8802/ 333 21200;
0140239330999992000122109004+60960+069060FM-12+0040USHH V0201501N004019999999N0040001N1-01151-01351102071ADDAY171031AY231031GF108991081001999999021999MD1710021+9999MW1711REMSYN066AAXX  21091 23933 41996 81504 11115 21135 40207 57002 77173 8802/;
0161239330999992000122112004+60960+069060FM-12+0040USHH V0201301N003019999999N0100001N1-01191-01321102091ADDAY171061AY231061GF108991081001999999021999MA1999999101461MD1310021+9999MW1781REMSYN072AAXX  21121 23933 41997 81303 11119 21132 30146 40209 53002 77873 8802/;
0163239330999992000122115004+60960+069060FM-12+0040USHH V0201301N002019999999N0040001N1-01171-01301102061ADDAY171031AY221031GF108991081001999999021999KA1999M-01101MD1810031+9999MW1711REMSYN076AAXX  21151 23933 /1996 81302 11117 21130 40206 58003 77172 8802/ 333 11110;
0180239330999992000122118004+60960+069060FM-12+0040USHH V0201101N002019999999N0040001N1-01121-01251102081ADDAA100004191AY171061AY221061GF108991081001999999021999KA1999M-01101MD1310021+9999MW1711REMSYN082AAXX  21181 23933 11996 81102 11112 21125 40208 53002 60040 77172 8802/ 333 11110;
0140239330999992000122121004+60960+069060FM-12+0040USHH V0201201N002019999999N0040001N1-01091-01221102031ADDAY171031AY221031GF108991081001999999021999MD1810051+9999MW1711REMSYN066AAXX  21211 23933 41996 81202 11109 21122 40203 58005 77172 8802/;
0161239330999992000122200004+60960+069060FM-12+0040USHH V0201301N003019999999N0040001N1-01191-01321102061ADDAY171061AY221061GF108991081001999999021999MA1999999101431MD1310031+9999MW1711REMSYN072AAXX  22001 23933 41996 81303 11119 21132 30143 40206 53003 77172 8802/;
0179239330999992000122203004+60960+069060FM-12+0040USHH V0201101N002019999999N0040001N1-01281-01411102111ADDAJ100359199999999AY171031AY221031GF108991081001999999021999IA1239MD1210051+9999MW1711REMSYN082AAXX  22031 23933 /1996 81102 11128 21141 40211 52005 77172 8802/ 333 47035 55000;
0199239330999992000122206004+60960+069060FM-12+0040USHH V0201001N001019999999N0100001N1-01581-01711102291ADDAA100004191AY171061AY221061GF108991041001999999031071KA1999N+99999MD1210171+9999MW1781REMSYN082AAXX  22061 23933 11997 81001 11158 21171 40229 52017 60040 77872 84037 333 21128;EQDQ01 -01282ATMN  
0140239330999992000122209004+60960+069060FM-12+0040USHH V0200801N002012200019N0100001N1-01741-01931102351ADDAY171031AY211031GF102991001001999999001011MD1210061+9999MW1021REMSYN066AAXX  22091 23933 41997 20802 11174 21193 40235 52006 70271 80001;
0161239330999992000122212004+60960+069060FM-12+0040USHH V0200901N002019999999N0100001N1-01911-02101102491ADDAY171061AY211061GF105991001001999999001011MA1999999101851MD1210141+9999MW1021REMSYN072AAXX  22121 23933 41997 50902 11191 21210 30185 40249 52014 70271 80001;
0163239330999992000122215004+60960+069060FM-12+0040USHH V0200801N001019999999N0100001N1-01991-02181102531ADDAY171031AY221031GF108991081001999999071999KA1999M-01261MD1210031+9999MW1781REMSYN076AAXX  22151 23933 /1997 80801 11199 21218 40253 52003 77872 8807/ 333 11126;
0180239330999992000122218004+60960+069060FM-12+0040USHH V0200901N002019999999N0040001N1-01841-02031102521ADDAA100000391AY171061AY221061GF108991081001999999021999KA1999M-01261MD1410001+9999MW1711REMSYN082AAXX  22181 23933 11996 80902 11184 21203 40252 54000 69930 77172 8802/ 333 11126;
0140239330999992000122221004+60960+069060FM-12+0040USHH V0201001N004019999999N0100001N1-01781-01971102461ADDAY171031AY221031GF108991081001999999021999MD1810061+9999MW1781REMSYN066AAXX  22211 23933 41997 81004 11178 21197 40246 58006 77872 8802/;
0161239330999992000122300004+60960+069060FM-12+0040USHH V0201001N004019999999N0100001N1-01881-02071102371ADDAY171061AY221061GF108991081001999999021999MA1999999101331MD1710091+9999MW1021REMSYN072AAXX  23001 23933 41997 81004 11188 21207 30133 40237 57009 70272 8802/;
0151239330999992000122303004+60960+069060FM-12+0040USHH V0200901N004019999999N0100001N1-01901-02091102121ADDAJ100369199999999GF106991061001999999031001IA1239MD1710251+9999REMSYN076AAXX  23031 23933 /2997 60904 11190 21209 40212 57025 86030 333 47036 55000;
0152239330999992000122306004+60960+069060FM-12+0040USHH V0201001N004019999999N0100001N1-01891-02081101881ADDAA100000191GF108991081001999999021999KA1999N-02001MD1710231+9999REMSYN076AAXX  23061 23933 12997 81004 11189 21208 40188 57023 69920 8802/ 333 21200;
0140239330999992000122309004+60960+069060FM-12+0040USHH V0200701N005019999999N0040001N1-01721-01911101441ADDAY171031AY231031GF108991081001999999021999MD1710441+9999MW1711REMSYN066AAXX  23091 23933 41996 80705 11172 21191 40144 57044 77173 8802/;
0161239330999992000122312004+60960+069060FM-12+0040USHH V0201101N007010042019N0010001N1-01661-01851101231ADDAY171061AY231061GF108991081001004501021999MA1999999100601MD1710211+9999MW1731REMSYN072AAXX  23121 23933 41494 81107 11166 21185 30060 40123 57021 77373 8802/;
0163239330999992000122315004+60960+069060FM-12+0040USHH V0201301N006010042019N0010001N1-01541-01811101021ADDAY171031AY231031GF108991081001004501021999KA1999M-01521MD1710211+9999MW1731REMSYN076AAXX  23151 23933 /1494 81306 11154 21181 40102 57021 77373 8802/ 333 11152;
0186239330999992000122318004+60960+069060FM-12+0040USHH V0201201N005019999999N0010001N1-01621-01811100941ADDAA100002091AY171061AY231061GF108991081001999999021999KA1120M-01521MD1710081+9999MW1731REMSYN088AAXX  23181 23933 11994 81205 11162 21181 40094 57008 60020 77373 8802/ 333 11152 91113;
0140239330999992000122321004+60960+069060FM-12+0040USHH V0201101N005019999999N0040001N1-01571-01761100951ADDAY171031AY231031GF108991081001999999021999MD1310011+9999MW1711REMSYN066AAXX  23211 23933 41996 81105 11157 21176 40095 53001 77173 8802/;
0161239330999992000122400004+60960+069060FM-12+0040USHH V0201301N004019999999N0040001N1-01511-01701101001ADDAY171061AY231061GF108991081001004501011999MA1999999100371MD1210051+9999MW1711REMSYN072AAXX  24001 23933 41496 81304 11151 21170 30037 40100 52005 77173 8801/;
0179239330999992000122403004+60960+069060FM-12+0040USHH V0201201N002019999999N0040001N1-01811-02001101111ADDAJ100379199999999AY171031AY211031GF108991081001999999021999IA1239MD1210111+9999MW1711REMSYN082AAXX  24031 23933 /1996 81202 11181 21200 40111 52011 77171 8802/ 333 47037 55000;
0180239330999992000122406004+60960+069060FM-12+0040USHH V0202001N002019999999N0100001N1-01741-02001101261ADDAA100000891AY171061AY221061GF108991001001999999001011KA1999N-01811MD1210151+9999MW1021REMSYN082AAXX  24061 23933 11997 82002 11174 21200 40126 52015 69970 70272 80001 333 21181;
0140239330999992000122409004+60960+069060FM-12+0040USHH V0201401N002019999999N0040001N1-01861-02121101411ADDAY171031AY221031GF108991081001999999011999MD1210151+9999MW1711REMSYN066AAXX  24091 23933 41996 81402 11186 21212 40141 52015 77172 8801/;
0161239330999992000122412004+60960+069060FM-12+0040USHH V0201401N001019999999N0040001N1-02001-02261101531ADDAY171061AY221061GF108991081001999999021999MA1999999100891MD1210111+9999MW1711REMSYN072AAXX  24121 23933 41996 81401 11200 21226 30089 40153 52011 77172 8802/;
0163239330999992000122415004+60960+069060FM-12+0040USHH V0201301N002019999999N0040001N1-02051-02241101571ADDAY171031AY221031GF108991081001999999021999KA1999M-01701MD1210041+9999MW1711REMSYN076AAXX  24151 23933 /1996 81302 11205 21224 40157 52004 77172 8802/ 333 11170;
0180239330999992000122418004+60960+069060FM-12+0040USHH V0201101N003019999999N0040001N1-01751-01941101581ADDAA100000591AY171061AY221061GF108991081001999999011999KA1999M-01701MD1210021+9999MW1711REMSYN082AAXX  24181 23933 11996 81103 11175 21194 40158 52002 69960 77172 8801/ 333 11170;
0140239330999992000122421004+60960+069060FM-12+0040USHH V0200901N002019999999N0040001N1-02221-02401101591ADDAY171031AY221031GF108991081001999999011999MD1410001+9999MW1711REMSYN066AAXX  24211 23933 41996 80902 11222 21240 40159 54000 77172 8801/;
0161239330999992000122500004+60960+069060FM-12+0040USHH V0201101N001019999999N0040001N1-02251-02431101571ADDAY171061AY221061GF108991081001999999021999MA1999999100931MD1810021+9999MW1711REMSYN072AAXX  25001 23933 41996 81101 11225 21243 30093 40157 58002 77172 8802/;
0179239330999992000122503004+60960+069060FM-12+0040USHH V0200901N001019999999N0100001N1-02141-02331101511ADDAJ100389199999999AY171031AY221031GF108991001001999999001071IA1239MD1710061+9999MW1781REMSYN082AAXX  25031 23933 /1997 80901 11214 21233 40151 57006 77872 80007 333 47038 55000;
0199239330999992000122506004+60960+069060FM-12+0040USHH V0200901N001019999999N0100001N1-02321-02501101681ADDAA100000591AY171061AY221061GF108991001001999999001011KA1999N+99999MD1310171+9999MW1021REMSYN082AAXX  25061 23933 11997 80901 11232 21250 40168 53017 69950 70272 80001 333 21225;EQDQ01 -02252ATMN  
0112239330999992000122509004+60960+069060FM-12+0040USHH V0201101N001019999999N0100001N1-02341-02521101641ADDGF108991001001999999001011MD1810041+9999REMSYN060AAXX  25091 23933 42997 81101 11234 21252 40164 58004 80001;
0133239330999992000122512004+60960+069060FM-12+0040USHH V0201001N001019999999N0100001N1-02381-02631101761ADDGF108991021001999999031011MA1999999101121MD1310121+9999REMSYN066AAXX  25121 23933 42997 81001 11238 21263 30112 40176 53012 82031;
0135239330999992000122515004+60960+069060FM-12+0040USHH V0201101N001019999999N0100001N1-02451-02701101701ADDGF108991001001999999001011KA1999M-02141MD1810061+9999REMSYN070AAXX  25151 23933 /2997 81101 11245 21270 40170 58006 80001 333 11214;
0152239330999992000122518004+60960+069060FM-12+0040USHH V0209999C000019999999N0100001N1-02721-02961101751ADDAA100000791GF108991001001999999001011KA1999M-02141MD1310031+9999REMSYN076AAXX  25181 23933 12997 80000 11272 21296 40175 53003 69900 80001 333 11214;
0140239330999992000122521004+60960+069060FM-12+0040USHH V0209999C000019999999N0100001N1-02831-03061101681ADDAY171031AY221031GF108991081001999999021999MD1810071+9999MW1781REMSYN066AAXX  25211 23933 41997 80000 11283 21306 40168 58007 77872 8802/;
0161239330999992000122600004+60960+069060FM-12+0040USHH V0200301N002019999999N0100001N1-02951-03191101611ADDAY171061AY221061GF108991081001999999021999MA1999999100941MD1710081+9999MW1781REMSYN072AAXX  26001 23933 41997 80302 11295 21319 30094 40161 57008 77872 8802/;
0179239330999992000122603004+60960+069060FM-12+0040USHH V0200601N001019999999N0100001N1-02921-03151101541ADDAJ100389199999999AY171031AY221031GF108991081001999999021999IA1239MD1710051+9999MW1781REMSYN082AAXX  26031 23933 /1997 80601 11292 21315 40154 57005 77872 8802/ 333 47038 55000;
0180239330999992000122606004+60960+069060FM-12+0040USHH V0200601N001019999999N0100001N1-02751-02991101541ADDAA100000791AY171061AY221061GF108991001001999999001071KA1999N-02951MD1710051+9999MW1781REMSYN082AAXX  26061 23933 11997 80601 11275 21299 40154 57005 69900 77872 80007 333 21295;
0161239330999992000122612004+60960+069060FM-12+0040USHH V0203401N001019999999N0100001N1-02851-03081101511ADDAY171061AY221061GF108991001001999999001071MA1999999100851MD1310031+9999MW1781REMSYN072AAXX  26121 23933 41997 83401 11285 21308 30085 40151 53003 77872 80007;
0172239330999992000122615004+60960+069060FM-12+0040USHH V0209999C000019999999N0100001N1-02951-03191999999ADDAY171031AY221031GF108991001001999999001071KA1999M-02751MD1210041+9999ME1100569MW1781REMSYN076AAXX  26151 23933 /1997 80000 11295 21319 41056 52004 77872 80007 333 11275;
0180239330999992000122618004+60960+069060FM-12+0040USHH V0203101N001019999999N0100001N1-03011-03251101711ADDAA100000591AY171061AY221061GF108991001001999999001071KA1999M-02751MD1210151+9999MW1781REMSYN082AAXX  26181 23933 11997 83101 11301 21325 40171 52015 69940 77872 80007 333 11275;
0140239330999992000122621004+60960+069060FM-12+0040USHH V0202901N001019999999N0100001N1-03051-03271101811ADDAY171031AY221031GF108991081001999999011999MD1210101+9999MW1711REMSYN066AAXX  26211 23933 41997 82901 11305 21327 40181 52010 77172 8801/;
0161239330999992000122700004+60960+069060FM-12+0040USHH V0202701N001019999999N0100001N1-03061-03291101911ADDAY171061AY221061GF108991081001999999011999MA1999999101241MD1210101+9999MW1781REMSYN072AAXX  27001 23933 41997 82701 11306 21329 30124 40191 52010 77872 8801/;
0179239330999992000122703004+60960+069060FM-12+0040USHH V0203001N001019999999N0100001N1-03241-03481101871ADDAJ100389199999999AY171031AY221031GF108991001001999999001071IA1239MD1810041+9999MW1781REMSYN082AAXX  27031 23933 /1997 83001 11324 21348 40187 58004 77872 80007 333 47038 55000;
0190239330999992000122706004+60960+069060FM-12+0040USHH V0209999C000012200019N0100001N1-03211-03431101951ADDAA100000791AY171061AY211061GA1001+999999999GF100991001001999999001001KA1999N-03241MD1310081+9999MW1021REMSYN076AAXX  27061 23933 11997 00000 11321 21343 40195 53008 69900 70271 333 21324;
0122239330999992000122709004+60960+069060FM-12+0040USHH V0209999C000012200019N0100001N1-03251-03481101991ADDGA1001+999999999GF100991001001999999001001MD1210041+9999REMSYN054AAXX  27091 23933 42997 00000 11325 21348 40199 52004;
0143239330999992000122712004+60960+069060FM-12+0040USHH V0209999C000012200019N0100001N1-03451-03671102061ADDGA1001+999999999GF100991001001999999001001MA1999999101381MD1210061+9999REMSYN060AAXX  27121 23933 42997 00000 11345 21367 30138 40206 52006;
0145239330999992000122715004+60960+069060FM-12+0040USHH V0200501N001012200019N0100001N1-03381-03611102091ADDGA1001+999999999GF100991001001999999001001KA1999M-03191MD1210031+9999REMSYN064AAXX  27151 23933 /2997 00501 11338 21361 40209 52003 333 11319;
0162239330999992000122718004+60960+069060FM-12+0040USHH V0209999C000012200019N0100001N1-03521-03801102121ADDAA100000791GA1001+999999999GF100991001001999999001001KA1999M-03191MD1210021+9999REMSYN070AAXX  27181 23933 12997 00000 11352 21380 40212 52002 69900 333 11319;
0140239330999992000122721004+60960+069060FM-12+0040USHH V0209999C000019999999N0100001N1-03531-03831102141ADDAY171031AY211031GF108991001001999999001071MD1210021+9999MW1781REMSYN066AAXX  27211 23933 41997 80000 11353 21383 40214 52002 77871 80007;
0161239330999992000122800004+60960+069060FM-12+0040USHH V0209999C000019999999N0100001N1-03481-03701102251ADDAY171061AY221061GF108991001001999999001021MA1999999101561MD1210111+9999MW1021REMSYN072AAXX  28001 23933 41997 80000 11348 21370 30156 40225 52011 70272 80002;
0179239330999992000122803004+60960+069060FM-12+0040USHH V0209999C000019999999N0100001N1-03461-03671102331ADDAJ100329199999999AY171031AY221031GF108991001001999999001071IA1239MD1210091+9999MW1781REMSYN082AAXX  28031 23933 /1997 80000 11346 21367 40233 52009 77872 80007 333 47032 55000;
0180239330999992000122806004+60960+069060FM-12+0040USHH V0209999C000019999999N0100001N1-03501-03741102401ADDAA100000791AY171061AY221061GF108991001001999999001021KA1999N-03571MD1210061+9999MW1021REMSYN082AAXX  28061 23933 11997 80000 11350 21374 40240 52006 69900 70272 80002 333 21357;
0140239330999992000122809004+60960+069060FM-12+0040USHH V0209999C000019999999N0100001N1-03501-03741102481ADDAY171031AY221031GF105991001001999999001021MD1210081+9999MW1781REMSYN066AAXX  28091 23933 41997 50000 11350 21374 40248 52008 77872 80002;
0161239330999992000122812004+60960+069060FM-12+0040USHH V0201101N002019999999N0100001N1-03561-03831102561ADDAY171061AY221061GF108991001001999999001021MA1999999101871MD1210081+9999MW1781REMSYN072AAXX  28121 23933 41997 81102 11356 21383 30187 40256 52008 77872 80002;
0163239330999992000122815004+60960+069060FM-12+0040USHH V0201101N001019999999N0100001N1-03381-03611102611ADDAY171031AY221031GF108991001001999999001071KA1999M-03361MD1210061+9999MW1781REMSYN076AAXX  28151 23933 /1997 81101 11338 21361 40261 52006 77872 80007 333 11336;
0199239330999992000122818004+60960+069060FM-12+0040USHH V0201101N001019999999N0100001N1-03201-03431102601ADDAA100000791AY171061AY221061GF108991001001999999001071KA1999M+99999MD1810011+9999MW1781REMSYN082AAXX  28181 23933 11997 81101 11320 21343 40260 58001 69900 77872 80007 333 11336;EQDQ01 -03362ATMX  
0140239330999992000122821004+60960+069060FM-12+0040USHH V0201901N001010075019N0100001N1-03231-03461102651ADDAY171031AY221031GF106991061051008001001001MD1310051+9999MW1781REMSYN066AAXX  28211 23933 41597 61901 11323 21346 40265 53005 77872 86500;
0161239330999992000122900004+60960+069060FM-12+0040USHH V0202901N001019999999N0100001N1-03381-03611102611ADDAY171061AY221061GF108991001001999999001071MA1999999101931MD1810041+9999MW1781REMSYN072AAXX  29001 23933 41997 82901 11338 21361 30193 40261 58004 77872 80007;
0180239330999992000122906004+60960+069060FM-12+0040USHH V0209999C000019999999N0100001N1-03521-03741102721ADDAA100000791AY171061AY221061GF108991001001999999001071KA1999N-03571MD1210091+9999MW1021REMSYN082AAXX  29061 23933 11997 80000 11352 21374 40272 52009 69900 70272 80007 333 21357;
0122239330999992000122909004+60960+069060FM-12+0040USHH V0203001N001012200019N0100001N1-03381-03611102761ADDGA1001+999999999GF100991001001999999001001MD1210051+9999REMSYN054AAXX  29091 23933 42997 03001 11338 21361 40276 52005;
0161239330999992000122912004+60960+069060FM-12+0040USHH V0209999C000019999999N0100001N1-03521-03741102961ADDAY171061AY221061GF108991001001999999001071MA1999999102271MD1210191+9999MW1781REMSYN072AAXX  29121 23933 41997 80000 11352 21374 30227 40296 52019 77872 80007;
0163239330999992000122915004+60960+069060FM-12+0040USHH V0209999C000019999999N0100001N1-03481-03701102931ADDAY171031AY221031GF108991001001999999001021KA1999M-03301MD1810051+9999MW1781REMSYN076AAXX  29151 23933 /1997 80000 11348 21370 40293 58005 77872 80002 333 11330;
0180239330999992000122918004+60960+069060FM-12+0040USHH V0209999C000019999999N0100001N1-03541-03771102991ADDAA100000791AY171061AY221061GF108991001001999999001071KA1999M-03301MD1310061+9999MW1781REMSYN082AAXX  29181 23933 11997 80000 11354 21377 40299 53006 69900 77872 80007 333 11330;
0140239330999992000122921004+60960+069060FM-12+0040USHH V0209999C000019999999N0100001N1-03591-03801103071ADDAY171031AY221031GF108991001001999999001071MD1210081+9999MW1781REMSYN066AAXX  29211 23933 41997 80000 11359 21380 40307 52008 77872 80007;
0161239330999992000123000004+60960+069060FM-12+0040USHH V0209999C000019999999N0100001N1-03661-03941103241ADDAY171061AY221061GF108991001001999999001071MA1999999102541MD1210161+9999MW1781REMSYN072AAXX  30001 23933 41997 80000 11366 21394 30254 40324 52016 77872 80007;
0179239330999992000123003004+60960+069060FM-12+0040USHH V0209999C000019999999N0100001N1-03801-04091103281ADDAJ100389199999999AY171031AY221031GF108991001001999999001071IA1239MD1210041+9999MW1781REMSYN082AAXX  30031 23933 /1997 80000 11380 21409 40328 52004 77872 80007 333 47038 55000;
0174239330999992000123006004+60960+069060FM-12+0040USHH V0209999C000019999999N0100001N1-03711-04011103361ADDAA100000791AY171061AY221061GF108991999999999999999999KA1999N-03801MD1210101+9999MW1041REMSYN076AAXX  30061 23933 11997 80000 11371 21401 40336 52010 69900 70472 333 21380;
0150239330999992000123009004+60960+069060FM-12+0040USHH V0209999C000012200019N0010001N1-03721-04011103511ADDAY111031AY211031GA1001+999999999GF100991001001999999001001MD1210131+9999MW1041REMSYN060AAXX  30091 23933 41994 00000 11372 21401 40351 52013 70411;
0180239330999992000123012004+60960+069060FM-12+0040USHH V0201101N001019999999N0040001N1-03711-04011999999ADDAY171061AY211061GF108991001001999999001071MA1999999102901MD1210091+9999MW1781REMSYN072AAXX  30121 23933 41996 81101 11371 21401 30290 40260 52009 77871 80007;EQDQ01+102603APOSLP
0163239330999992000123015004+60960+069060FM-12+0040USHH V0200801N001019999999N0100001N1-03611-03901103671ADDAY171031AY221031GF108991001001999999001071KA1999M-03611MD1210071+9999MW1781REMSYN076AAXX  30151 23933 /1997 80801 11361 21390 40367 52007 77872 80007 333 11361;
0199239330999992000123018004+60960+069060FM-12+0040USHH V0201101N001019999999N0100001N1-03431-03641103711ADDAA100000791AY171061AY221061GF108991001001999999001071KA1999M+99999MD1210061+9999MW1781REMSYN082AAXX  30181 23933 11997 81101 11343 21364 40371 52006 69900 77872 80007 333 11361;EQDQ01 -03612ATMX  
0140239330999992000123021004+60960+069060FM-12+0040USHH V0201001N001019999999N0100001N1-03491-03701103821ADDAY171031AY221031GF108991001001999999001071MD1210091+9999MW1781REMSYN066AAXX  30211 23933 41997 81001 11349 21370 40382 52009 77872 80007;
0161239330999992000123100004+60960+069060FM-12+0040USHH V0201001N001019999999N0100001N1-03601-03841103791ADDAY171061AY221061GF108991001001999999001071MA1999999103091MD1810031+9999MW1781REMSYN072AAXX  31001 23933 41997 81001 11360 21384 30309 40379 58003 77872 80007;
0179239330999992000123103004+60960+069060FM-12+0040USHH V0201001N001019999999N0010001N1-03831-04091103781ADDAJ100389199999999AY171031AY221031GF108991001001999999001071IA1239MD1710011+9999MW1761REMSYN082AAXX  31031 23933 /1994 81001 11383 21409 40378 57001 77672 80007 333 47038 55000;
0180239330999992000123106004+60960+069060FM-12+0040USHH V0201201N002019999999N0100001N1-03351-03651103771ADDAA100000791AY171061AY221061GF108991001001999999001071KA1999N-03831MD1310011+9999MW1781REMSYN082AAXX  31061 23933 11997 81202 11335 21365 40377 53001 69900 77872 80007 333 21383;
0140239330999992000123109004+60960+069060FM-12+0040USHH V0201101N001019999999N0100001N1-03251-03481103741ADDAY171031AY221031GF108991001001999999001011MD1810031+9999MW1021REMSYN066AAXX  31091 23933 41997 81101 11325 21348 40374 58003 70272 80001;
0161239330999992000123112004+60960+069060FM-12+0040USHH V0201201N001019999999N0100001N1-03181-03411103741ADDAY171061AY221061GF108991001001999999001011MA1999999103061MD1410001+9999MW1021REMSYN072AAXX  31121 23933 41997 81201 11318 21341 30306 40374 54000 70272 80001;
0145239330999992000123115004+60960+069060FM-12+0040USHH V0201301N002012200019N0100001N1-03151-03381103691ADDGA1001+999999999GF100991001001999999001001KA1999M-03131MD1810051+9999REMSYN064AAXX  31151 23933 /2997 01302 11315 21338 40369 58005 333 11313;
0199239330999992000123118004+60960+069060FM-12+0040USHH V0201101N002019999999N0100001N1-02881-03121103591ADDAA100000791AY171061AY221061GF108991081001999999071999KA1999M+99999MD1710091+9999MW1781REMSYN082AAXX  31181 23933 11997 81102 11288 21312 40359 57009 69900 77872 8807/ 333 11313;EQDQ01 -03132ATMX  
0140239330999992000123121004+60960+069060FM-12+0040USHH V0201101N003019999999N0100001N1-02651-02901103481ADDAY171031AY221031GF108991081001999999071999MD1710111+9999MW1781REMSYN066AAXX  31211 23933 41997 81103 11265 21290 40348 57011 77872 8807/;
