0187283340999992000010100004+57350+058220FM-12+024499999V0200901N004010060019N0150001N1-02011-02421102071ADDAY171061AY231061GA1081+006009029GF108991081001008001021999MA1999999098771MD1210111+9999MW1711REMSYN082AAXX  01001 28334 41565 80904 11201 21242 39877 40207 52011 77173 8802/ 333 88520;
0195283340999992000010103004+57350+058220FM-12+024499999V0200901N004010060019N0150001N1-02131-02531102181ADDAJ100579199999999AY171031AY231031GA1081+006009029GF108991081001008001021999IA1239MD1210091+9999MW1711REMSYN082AAXX  01031 28334 /1565 80904 11213 21253 40218 52009 77173 8802/ 333 47057 88520;
0221283340999992000010106004+57350+058220FM-12+024499999V0200901N006010060019N0060001N1-02221-02611102371ADDAA112001091AY171061AY231061GA1081+006009029GF108991081001008001021999KA1120N+99999MD1210181+9999MW1711REMSYN088AAXX  01061 28334 11556 80906 11222 21261 40237 52018 60012 77173 8802/ 333 21214 88520;EQDQ01 -02142ATMN  
0166283340999992000010109004+57350+058220FM-12+024499999V0200901N006010069019N0500001N1-02291-02771102541ADDAY171031AY231031GA1061+006909029GF107991061011008001071001MD1210141+9999MW1011REMSYN076AAXX  01091 28334 41599 70906 11229 21277 40254 52014 70173 86170 333 86523;
0187283340999992000010112004+57350+058220FM-12+024499999V0200901N004010069019N0150001N1-02471-02941102811ADDAY171061AY231061GA1051+006909029GF108991051001008001071071MA1999999099421MD1210241+9999MW1711REMSYN082AAXX  01121 28334 41565 80904 11247 21294 39942 40281 52024 77173 85077 333 85523;
0173283340999992000010115004+57350+058220FM-12+024499999V0200901N004012200019N0500001N1-02771-03151103101ADDAY171031AY211031GA1001+999999999GF100991001001999999001001KA1999M-02121MD1210241+9999MW1011REMSYN070AAXX  01151 28334 /1984 00904 11277 21315 40310 52024 70171 333 11212;
0162283340999992000010118004+57350+058220FM-12+024499999V0200901N002012200019N0500001N1-03011-03391103421ADDAA112000591GA1001+999999999GF100991001001999999001001KA1999M-02121MD1210281+9999REMSYN070AAXX  01181 28334 12984 00902 11301 21339 40342 52028 69962 333 11212;
0122283340999992000010121004+57350+058220FM-12+024499999V0209999C000012200019N0500001N1-03171-03541103661ADDGA1001+999999999GF100991001001999999001001MD1210201+9999REMSYN054AAXX  01211 28334 42984 00000 11317 21354 40366 52020;
0143283340999992000010200004+57350+058220FM-12+024499999V0200901N002012200019N0500001N1-03231-03661103891ADDGA1001+999999999GF100991001001999999001001MA1999999100361MD1210221+9999REMSYN060AAXX  02001 28334 42984 00902 11323 21366 30036 40389 52022;
0168283340999992000010203004+57350+058220FM-12+024499999V0209999C000012200019N0500001N1-03321-03691103981ADDAA106000091GA1001+999999999GF100991001001999999001001IA1239MD1210081+9999REMSYN064AAXX  02031 28334 32984 00000 11332 21369 40398 52008 333 47057;EQDQ01  00002PRCP06
0175283340999992000010206004+57350+058220FM-12+024499999V0209999C000012200019N0500001N1-03361-03721104251ADDAA106000091GA1001+999999999GF100991001001999999001001KA1999N-03321MD1210241+9999REMSYN064AAXX  02061 28334 32999 00000 11336 21372 40425 52024 333 21332;EQDQ01  00002PRCP06
0112283340999992000010209004+57350+058220FM-12+024499999V0209999C000012200019N0500001N1-02921-03371104261ADDGF102991001001999999001021MD1210091+9999REMSYN060AAXX  02091 28334 42999 20000 11292 21337 40426 52009 80002;
0133283340999992000010212004+57350+058220FM-12+024499999V0209999C000012200019N0500001N1-02661-03041104251ADDGF102991001001999999001021MA1999999100791MD1210021+9999REMSYN066AAXX  02121 28334 42999 20000 11266 21304 30079 40425 52002 80002;
0175283340999992000010215004+57350+058220FM-12+024499999V0209999C000012200019N0500001N1-02891-03271104161ADDAA106000091GA1001+999999999GF100991001001999999001001KA1999M-02651MD1810121+9999REMSYN064AAXX  02151 28334 32984 00000 11289 21327 40416 58012 333 11265;EQDQ01  00002PRCP06
0175283340999992000010218004+57350+058220FM-12+024499999V0209999C000012200019N0500001N1-03301-03671104211ADDAA106000091GA1001+999999999GF100991001001999999001001KA1999M-02651MD1710011+9999REMSYN064AAXX  02181 28334 32984 00000 11330 21367 40421 57001 333 11265;EQDQ01  00002PRCP06
0122283340999992000010221004+57350+058220FM-12+024499999V0209999C000012200019N0500001N1-03501-03871104191ADDGA1001+999999999GF100991001001999999001001MD1710041+9999REMSYN054AAXX  02211 28334 42984 00000 11350 21387 40419 57004;
0143283340999992000010300004+57350+058220FM-12+024499999V0209999C000012200019N0500001N1-03651-04001104201ADDGA1001+999999999GF100991001001999999001001MA1999999100601MD1710021+9999REMSYN060AAXX  03001 28334 42984 00000 11365 21400 30060 40420 57002;
0168283340999992000010303004+57350+058220FM-12+024499999V0209999C000012200019N0500001N1-03631-03971104111ADDAA106000091GA1001+999999999GF100991001001999999001001IA1239MD1710081+9999REMSYN064AAXX  03031 28334 32984 00000 11363 21397 40411 57008 333 47056;EQDQ01  00002PRCP06
0175283340999992000010306004+57350+058220FM-12+024499999V0209999C000012200019N0500001N1-03651-04001104121ADDAA106000091GA1001+999999999GF100991001001999999001001KA1999N-03731MD1410001+9999REMSYN064AAXX  03061 28334 32999 00000 11365 21400 40412 54000 333 21373;EQDQ01  00002PRCP06
0122283340999992000010309004+57350+058220FM-12+024499999V0209999C000012200019N0500001N1-02911-03291103891ADDGA1001+999999999GF100991001001999999001001MD1810111+9999REMSYN054AAXX  03091 28334 42999 00000 11291 21329 40389 58011;
0143283340999992000010312004+57350+058220FM-12+024499999V0209999C000012200019N0500001N1-02421-02811103681ADDGA1001+999999999GF100991001001999999001001MA1999999100281MD1710131+9999REMSYN060AAXX  03121 28334 42999 00000 11242 21281 30028 40368 57013;
0175283340999992000010315004+57350+058220FM-12+024499999V0209999C000012200019N0500001N1-02711-03011103601ADDAA106000091GA1001+999999999GF100991001001999999001001KA1999M-02411MD1710121+9999REMSYN064AAXX  03151 28334 32984 00000 11271 21301 40360 57012 333 11241;EQDQ01  00002PRCP06
0175283340999992000010318004+57350+058220FM-12+024499999V0209999C000012200019N0500001N1-02931-03241103691ADDAA106000091GA1001+999999999GF100991001001999999001001KA1999M-02411MD1210061+9999REMSYN064AAXX  03181 28334 32984 00000 11293 21324 40369 52006 333 11241;EQDQ01  00002PRCP06
0122283340999992000010321004+57350+058220FM-12+024499999V0209999C000012200019N0500001N1-03121-03421103581ADDGA1001+999999999GF100991001001999999001001MD1810141+9999REMSYN054AAXX  03211 28334 42984 00000 11312 21342 40358 58014;
0143283340999992000010400004+57350+058220FM-12+024499999V0209999C000012200019N0500001N1-03391-03681103451ADDGA1001+999999999GF100991001001999999001001MA1999999099911MD1710171+9999REMSYN060AAXX  04001 28334 42984 00000 11339 21368 39991 40345 57017;
0230283340999992000010403004+57350+058220FM-12+024499999V0201401N002010060019N0150001N1-02292-02542103111ADDAJ100579199999999AY171031AY221031GA1081+006009029GF108991081001008001021999IA1239MD1710171+9999MW1711REMSYN082AAXX  04031 28334 41565 81402 11229 21254 40311 57017 77172 8802/ 333 47057 88520;EQDQ01-002293ATOT  Q02-002543ATOD  
0202283340999992000010406004+57350+058220FM-12+024499999V0209999C000010060019N0020001N1-01141-01421102671ADDAA112001091AY171061AY221061GA1081+006009029GF108991081001008001021999KA1120N-03391MD1710281+9999MW1731REMSYN088AAXX  04061 28334 11520 80000 11114 21142 40267 57028 60012 77372 8802/ 333 21339 88520;
0166283340999992000010409004+57350+058220FM-12+024499999V0201401N002010060019N0020001N1-01011-01291102441ADDAY171031AY221031GA1081+006009029GF108991081001008001021999MD1710211+9999MW1731REMSYN076AAXX  04091 28334 41520 81402 11101 21129 40244 57021 77372 8802/ 333 88520;
0159283340999992000010412004+57350+058220FM-12+024499999V0209999C000010060019N0020001N1-00981-01191102231ADDGA1081+006009029GF108991081001008001021999MA1999999099051MD1710201+9999REMSYN076AAXX  04121 28334 41520 80000 11098 21119 39905 40223 57020 8802/ 333 88520;
0185283340999992000010415004+57350+058220FM-12+024499999V0209999C000010060019N0020001N1-00921-01121101981ADDAY171031AY221031GA1081+006009029GF108991081001008001021999KA1120M-00911MD1710231+9999MW1731REMSYN082AAXX  04151 28334 /1520 80000 11092 21112 40198 57023 77372 8802/ 333 11091 88520;
0202283340999992000010418004+57350+058220FM-12+024499999V0209999C000010060019N0150001N1-00931-01141101821ADDAA112002091AY171061AY221061GA1081+006009029GF108991081001008001021999KA1120M-00911MD1710161+9999MW1711REMSYN088AAXX  04181 28334 11565 80000 11093 21114 40182 57016 60022 77172 8802/ 333 11091 88520;
0166283340999992000010421004+57350+058220FM-12+024499999V0209999C000010060019N0150001N1-00951-01161101721ADDAY171031AY221031GA1081+006009029GF108991081001008001021999MD1710101+9999MW1711REMSYN076AAXX  04211 28334 41565 80000 11095 21116 40172 57010 77172 8802/ 333 88520;
0195283340999992000010503004+57350+058220FM-12+024499999V0209999C000010060019N0150001N1-01211-01411101611ADDAJ100609199999999AY171031AY221031GA1081+006009029GF108991081001008001021999IA1239MD1710051+9999MW1711REMSYN082AAXX  05031 28334 /1565 80000 11121 21141 40161 57005 77172 8802/ 333 47060 88520;
0221283340999992000010506004+57350+058220FM-12+024499999V0209999C000010060019N0060001N1-01221-01421101611ADDAA112001091AY171061AY221061GA1081+006009069GF108991999071008001021999KA1120N-01221MD1410001+9999MW1711REMSYN088AAXX  05061 28334 11556 80000 11122 21142 40161 54000 60012 77172 8872/ 333 21122 88720;EQDQ01+000082SCOTLC
0166283340999992000010509004+57350+058220FM-12+024499999V0209999C000010069019N0200001N1-01041-01321101601ADDAY171031AY221031GA1051+006909029GF106991051071008001011001MD1310021+9999MW1711REMSYN076AAXX  05091 28334 41570 60000 11104 21132 40160 53002 77172 85710 333 85823;
0161283340999992000010512004+57350+058220FM-12+024499999V0209999C000010750019N0200001N1-01321-01591101691ADDAY171061AY221061GF108991031011008001001071MA1999999098491MD1210051+9999MW1701REMSYN072AAXX  05121 28334 41570 80000 11132 21159 39849 40169 52005 77072 83107;
0163283340999992000010515004+57350+058220FM-12+024499999V0209999C000019999999N0060001N1-01571-01761101731ADDAY171031AY221031GF108991001001999999001071KA1999M-01011MD1410001+9999MW1101REMSYN076AAXX  05151 28334 /1956 80000 11157 21176 40173 54000 71072 80007 333 11101;
0202283340999992000010518004+57350+058220FM-12+024499999V0209999C000010060019N0150001N1-01281-01771101561ADDAA112000591AY171061AY221061GA1081+006009029GF108991081001008001021999KA1120M-01011MD1810101+9999MW1711REMSYN088AAXX  05181 28334 11565 80000 11128 21177 40156 58010 69942 77172 8802/ 333 11101 88520;
0166283340999992000010521004+57350+058220FM-12+024499999V0202301N002010060019N0150001N1-01161-01361101531ADDAY171031AY221031GA1081+006009029GF108991081001008001021999MD1710031+9999MW1711REMSYN076AAXX  05211 28334 41565 82302 11116 21136 40153 57003 77172 8802/ 333 88520;
0195283340999992000010603004+57350+058220FM-12+024499999V0202301N002010060019N0150001N1-01141-01341101461ADDAJ100639199999999AY171031AY221031GA1081+006009029GF108991081001008001021999IA1239MD1710021+9999MW1711REMSYN082AAXX  06031 28334 /1565 82302 11114 21134 40146 57002 77172 8802/ 333 47063 88520;
0202283340999992000010606004+57350+058220FM-12+024499999V0209999C000010060019N0200001N1-01121-01321101611ADDAA112003091AY171061AY221061GA1081+006009029GF108991081001008001021999KA1120N-01571MD1310151+9999MW1711REMSYN088AAXX  06061 28334 11570 80000 11112 21132 40161 53015 60032 77172 8802/ 333 21157 88520;
0166283340999992000010609004+57350+058220FM-12+024499999V0201801N002010060019N0060001N1-01041-01321101611ADDAY171031AY221031GA1081+006009029GF108991081001008001021999MD1210011+9999MW1101REMSYN076AAXX  06091 28334 41556 81802 11104 21132 40161 52001 71072 8802/ 333 88520;
0187283340999992000010612004+57350+058220FM-12+024499999V0209999C000010060019N0060001N1-01081-01361101541ADDAY171061AY221061GA1081+006009029GF108991081001008001021999MA1999999098371MD1810081+9999MW1221REMSYN082AAXX  06121 28334 41556 80000 11108 21136 39837 40154 58008 72272 8802/ 333 88520;
0185283340999992000010615004+57350+058220FM-12+024499999V0209999C000010060019N0150001N1-01121-01401101531ADDAY171031AY221031GA1081+006009029GF108991081001008001021999KA1120M-01031MD1710011+9999MW1711REMSYN082AAXX  06151 28334 /1565 80000 11112 21140 40153 57001 77172 8802/ 333 11103 88520;
0185283340999992000010621004+57350+058220FM-12+024499999V0200901N004010060019N0020001N1-01621-01881101381ADDAY171031AY221031GA1081+006009069GF108991999071008001021999MD1710031+9999MW1731REMSYN076AAXX  06211 28334 41520 80904 11162 21188 40138 57003 77372 8872/ 333 88720;EQDQ01+000082SCOTLC
0206283340999992000010700004+57350+058220FM-12+024499999V0200701N004010060019N0020001N1-01781-02041101411ADDAY171061AY221061GA1081+006009069GF108991999071008001021999MA1999999098161MD1310011+9999MW1731REMSYN082AAXX  07001 28334 41520 80704 11178 21204 39816 40141 53001 77372 8872/ 333 88720;EQDQ01+000082SCOTLC
0156283340999992000010703004+57350+058220FM-12+024499999V0200501N004019999999N0150001N1-02111-02441101551ADDAY171031AY221031GF106991061001999999011001IA1239MD1210091+9999MW1701REMSYN076AAXX  07031 28334 /1965 60504 11211 21244 40155 52009 77072 86010 333 47067;
0215283340999992000010706004+57350+058220FM-12+024499999V0200501N004019999999N0200001N1-02361-02681101721ADDAA112002091AY171061AY221061GF106991001001999999001011KA1999N+99999MD1210131+9999MW1701REMSYN082AAXX  07061 28334 11970 60504 11236 21268 40172 52013 60022 77072 86001 333 21211;EQDQ01+000062SCOTLCQ02 -02112ATMN  
0140283340999992000010709004+57350+058220FM-12+024499999V0200501N004019999999N0500001N1-02261-02661101791ADDAY171031AY221031GF105991051001999999011001MD1210081+9999MW1011REMSYN066AAXX  07091 28334 41999 50504 11226 21266 40179 52008 70172 85010;
0170283340999992000010712004+57350+058220FM-12+024499999V0200501N004019999999N0200001N1-02391-02781999999ADDAY171061AY221061GF106991061001999999011001MA1999999098571MD1210111+9999ME1101929MW1701REMSYN072AAXX  07121 28334 41970 60504 11239 21278 39857 41192 52011 77072 86010;
0140283340999992000010715004+57350+058220FM-12+024499999V0200501N004019999999N0500001N1-02661-03041102031ADDAY171031AY221031GF105991051001999999011001MD1210071+9999MW1101REMSYN066AAXX  07151 28334 /1984 50504 11266 21304 40203 52007 71072 85010;
0180283340999992000010718004+57350+058220FM-12+024499999V0209999C000019999999N0500001N1-02751-03131102171ADDAA112000191AY171061AY221061GF105991051001999999031001KA1999M-02101MD1210141+9999MW1021REMSYN082AAXX  07181 28334 11984 50000 11275 21313 40217 52014 69922 70272 85030 333 11210;
0112283340999992000010721004+57350+058220FM-12+024499999V0209999C000019999999N0500001N1-02811-03181102201ADDGF105991051001999999031001MD1210011+9999REMSYN060AAXX  07211 28334 42984 50000 11281 21318 40220 52001 85030;
0133283340999992000010800004+57350+058220FM-12+024499999V0209999C000019999999N0500001N1-02951+99999102271ADDGF105991051001999999031001MA1999999098831MD1210041+9999REMSYN066AAXX  08001 28334 42984 50000 11295 21233 39883 40227 52004 85030;
0166283340999992000010803004+57350+058220FM-12+024499999V0209999C000010060019N0150001N1-02621-03011102071ADDAY171031AY211031GA1081+006009029GF108991081001008001021999MD1810141+9999MW1711REMSYN076AAXX  08031 28334 /1565 80000 11262 21301 40207 58014 77171 8802/ 333 88520;
0202283340999992000010806004+57350+058220FM-12+024499999V0209999C000010060019N0200001N1-02281-02601101981ADDAA112000591AY171061AY221061GA1081+006009029GF108991081001008001021999KA1120N-02951MD1710051+9999MW1711REMSYN088AAXX  08061 28334 11570 80000 11228 21260 40198 57005 69942 77172 8802/ 333 21295 88520;
0140283340999992000010809004+57350+058220FM-12+024499999V0203601N002010300019N0200001N1-02061-02461101741ADDAY171031AY221031GF105991021011008001031051MD1710201+9999MW1711REMSYN066AAXX  08091 28334 41570 53602 11206 21246 40174 57020 77172 82135;
0187283340999992000010812004+57350+058220FM-12+024499999V0203601N002010060019N0070001N1-01931-02341101681ADDAY171061AY221061GA1081+006009029GF108991081001008001021999MA1999999098411MD1710031+9999MW1731REMSYN082AAXX  08121 28334 41557 83602 11193 21234 39841 40168 57003 77372 8802/ 333 88520;
0185283340999992000010815004+57350+058220FM-12+024499999V0203601N002010060019N0020001N1-01961-02301101721ADDAY171031AY221031GA1081+006009029GF108991081001008001021999KA1120M-01921MD1310021+9999MW1731REMSYN082AAXX  08151 28334 /1520 83602 11196 21230 40172 53002 77372 8802/ 333 11192 88520;
0166283340999992000010821004+57350+058220FM-12+024499999V0209999C000010060019N0150001N1-01791-02051101701ADDAY171031AY221031GA1081+006009029GF108991081001008001021999MD1310011+9999MW1711REMSYN076AAXX  08211 28334 41565 80000 11179 21205 40170 53001 77172 8802/ 333 88520;
0187283340999992000010900004+57350+058220FM-12+024499999V0209999C000010060019N0150001N1-01831-02091101831ADDAY171061AY221061GA1081+006009029GF108991081001008001021999MA1999999098561MD1210121+9999MW1711REMSYN082AAXX  09001 28334 41565 80000 11183 21209 39856 40183 52012 77172 8802/ 333 88520;
0195283340999992000010903004+57350+058220FM-12+024499999V0209999C000010060019N0150001N1-01631-01891101761ADDAJ100679199999999AY171031AY221031GA1081+006009029GF108991081001008001021999IA1239MD1810041+9999MW1711REMSYN082AAXX  09031 28334 /1565 80000 11163 21189 40176 58004 77172 8802/ 333 47067 88520;
0166283340999992000010909004+57350+058220FM-12+024499999V0202301N004010069019N0200001N1-00851-01081101531ADDAY171031AY221031GA1081+006909029GF108991081001008001021999MD1810131+9999MW1701REMSYN076AAXX  09091 28334 41570 82304 11085 21108 40153 58013 77072 8802/ 333 88523;
0206283340999992000010912004+57350+058220FM-12+024499999V0202301N004010069019N0500001N1-00751-00971101341ADDAY171061AY221061GA1081+006909029GF108991999071008001021999MA1999999098221MD1710171+9999MW1021REMSYN082AAXX  09121 28334 41599 82304 11075 21097 39822 40134 57017 70272 8872/ 333 88823;EQDQ01+000082SCOTLC
0204283340999992000010915004+57350+058220FM-12+024499999V0202301N004010060019N0020001N1-00601-00751101151ADDAY181031AY271031GA1081+006009029GF108991999071008001021999KA1120M-00591MD1710171+9999MW1731REMSYN082AAXX  09151 28334 /1520 82304 11060 21075 40115 57017 77387 8872/ 333 11059 88820;EQDQ01+000082SCOTLC
0202283340999992000010918004+57350+058220FM-12+024499999V0202301N002010060019N0020001N1-00541-00681101071ADDAA112001091AY181061AY271061GA1081+006009029GF108991081001008001021999KA1120M-00591MD1710071+9999MW1731REMSYN088AAXX  09181 28334 11520 82302 11054 21068 40107 57007 60012 77387 8802/ 333 11059 88520;
0166283340999992000010921004+57350+058220FM-12+024499999V0202301N002010060019N0020001N1-00451-00581101061ADDAY171031AY231031GA1081+006009029GF108991081001008001021999MD1410001+9999MW1731REMSYN076AAXX  09211 28334 41520 82302 11045 21058 40106 54000 77373 8802/ 333 88520;
0187283340999992000011000004+57350+058220FM-12+024499999V0202301N002010060019N0150001N1-00361-00501101091ADDAY171061AY231061GA1081+006009029GF108991081001008001021999MA1999999098021MD1310041+9999MW1711REMSYN082AAXX  10001 28334 41565 82302 11036 21050 39802 40109 53004 77173 8802/ 333 88520;
0156283340999992000011003004+57350+058220FM-12+024499999V0202301N002019999999N0150001N1-00281-00411101111ADDAY171031AY221031GF108991081001999999021999IA1239MD1210031+9999MW1711REMSYN076AAXX  10031 28334 /1965 82302 11028 21041 40111 52003 77172 8802/ 333 47063;
0202283340999992000011006004+57350+058220FM-12+024499999V0202301N002010060019N0200001N1-00181-00321101231ADDAA112001091AY171061AY221061GA1081+006009029GF108991081001008001021999KA1120N-00601MD1210131+9999MW1711REMSYN088AAXX  10061 28334 11570 82302 11018 21032 40123 52013 60012 77172 8802/ 333 21060 88520;
0166283340999992000011009004+57350+058220FM-12+024499999V0202301N004010060019N0200001N1-00101-00261101271ADDAY171031AY221031GA1081+006009029GF108991081001008001021999MD1210041+9999MW1711REMSYN076AAXX  10091 28334 41570 82304 11010 21026 40127 52004 77172 8802/ 333 88520;
0187283340999992000011012004+57350+058220FM-12+024499999V0202301N002010060019N0200001N1-00081-00241101381ADDAY181061AY271061GA1081+006009029GF108991081001008001021999MA1999999098341MD1210131+9999MW1871REMSYN082AAXX  10121 28334 41570 82302 11008 21024 39834 40138 52013 78787 8802/ 333 88520;
0163283340999992000011015004+57350+058220FM-12+024499999V0209999C000019999999N0500001N1-00121-00321101441ADDAY181031AY221031GF107991071001999999031001KA1999M-00071MD1210041+9999MW1011REMSYN076AAXX  10151 28334 /1984 70000 11012 21032 40144 52004 70182 87030 333 11007;
0221283340999992000011018004+57350+058220FM-12+024499999V0209999C000010060019N0500001N1-00121-00221101361ADDAA112001091AY181061AY221061GA1081+006009029GF108991999071008001021999KA1120M-00071MD1810081+9999MW1271REMSYN088AAXX  10181 28334 11584 80000 11012 21022 40136 58008 60012 72782 8872/ 333 11007 88820;EQDQ01+000082SCOTLC
0166283340999992000011021004+57350+058220FM-12+024499999V0202501N004010060019N0150001N1-00151-00231101371ADDAY181031AY221031GA1081+006009099GF108991081031008001999999MD1310011+9999MW1871REMSYN076AAXX  10211 28334 41565 82504 11015 21023 40137 53001 78782 883// 333 88920;
0187283340999992000011100004+57350+058220FM-12+024499999V0202501N004010060019N0500001N1-00191-00301101341ADDAY181061AY221061GA1081+006009099GF108991081031008001999999MA1999999098281MD1810031+9999MW1021REMSYN082AAXX  11001 28334 41584 82504 11019 21030 39828 40134 58003 70282 883// 333 88920;
0195283340999992000011103004+57350+058220FM-12+024499999V0202701N004010060019N0150001N1-00221-00311101301ADDAJ100629199999999AY181031AY221031GA1081+006009099GF108991081031008001999999IA1279MD1710091+9999MW1871REMSYN082AAXX  11031 28334 /1565 82704 11022 21031 40130 57009 78782 883// 333 43062 88920;
0202283340999992000011106004+57350+058220FM-12+024499999V0202701N002010060019N0200001N1-00211-00361101331ADDAA112000891AY181061AY271061GA1081+006009029GF108991081001999999021999KA1120N-00221MD1310041+9999MW1711REMSYN088AAXX  11061 28334 11970 82702 11021 21036 40133 53004 69972 77187 8802/ 333 21022 88520;
0166283340999992000011109004+57350+058220FM-12+024499999V0202701N002010060019N0200001N1-00181-00361101311ADDAY171031AY221031GA1081+006009029GF108991081001008001021999MD1810011+9999MW1711REMSYN076AAXX  11091 28334 41570 82702 11018 21036 40131 58001 77172 8802/ 333 88520;
0187283340999992000011112004+57350+058220FM-12+024499999V0202701N002010060019N0200001N1-00211-00361101321ADDAY171061AY221061GA1081+006009029GF108991081001008001021999MA1999999098251MD1410001+9999MW1711REMSYN082AAXX  11121 28334 41570 82702 11021 21036 39825 40132 54000 77172 8802/ 333 88520;
0185283340999992000011115004+57350+058220FM-12+024499999V0209999C000010060019N0150001N1-00261-00361101391ADDAY181031AY271031GA1081+006009099GF108991081031008001999999KA1120M-00171MD1310071+9999MW1851REMSYN082AAXX  11151 28334 /1565 80000 11026 21036 40139 53007 78587 883// 333 11017 88920;
0202283340999992000011118004+57350+058220FM-12+024499999V0209999C000010060019N0150001N1-00261-00361101631ADDAA112001091AY181061AY271061GA1081+006009099GF108991081031008001999999KA1120M-00171MD1210231+9999MW1851REMSYN088AAXX  11181 28334 11565 80000 11026 21036 40163 52023 60012 78587 883// 333 11017 88920;
0140283340999992000011121004+57350+058220FM-12+024499999V0209999C000019999999N0500001N1-00281-00441101741ADDAY181031AY221031GF108991081001999999021999MD1210111+9999MW1021REMSYN066AAXX  11211 28334 41984 80000 11028 21044 40174 52011 70282 8802/;
0161283340999992000011200004+57350+058220FM-12+024499999V0209999C000019999999N0500001N1-00301-00471101821ADDAY171061AY221061GF108991081001999999021999MA1999999098731MD1210071+9999MW1021REMSYN072AAXX  12001 28334 41984 80000 11030 21047 39873 40182 52007 70272 8802/;
0128283340999992000011203004+57350+058220FM-12+024499999V0209999C000019999999N0500001N1-00341-00551101951ADDGF106991061001999999031001IA1279MD1210121+9999REMSYN070AAXX  12031 28334 /1984 60000 11034 21055 40195 52012 86030 333 43062;
0199283340999992000011206004+57350+058220FM-12+024499999V0202301N002010300019N0200001N1-00421-00581101931ADDAA112000591AY171061AY221061GF108991021071008001011999KA1999N+99999MD1810021+9999MW1711REMSYN082AAXX  12061 28334 11570 82302 11042 21058 40193 58002 69952 77172 8271/ 333 21034;EQDQ01 -00342ATMN  
0140283340999992000011209004+57350+058220FM-12+024499999V0202301N002010300019N0200001N1-00361-00581101921ADDAY171031AY221031GF107991021071008001011999MD1410001+9999MW1711REMSYN066AAXX  12091 28334 41570 72302 11036 21058 40192 54000 77172 8271/;
0161283340999992000011212004+57350+058220FM-12+024499999V0202301N002019999999N0500001N1-00421-00651101941ADDAY171061AY221061GF108991081001999999021999MA1999999098841MD1310011+9999MW1021REMSYN072AAXX  12121 28334 41999 82302 11042 21065 39884 40194 53001 70272 8802/;
0163283340999992000011215004+57350+058220FM-12+024499999V0202301N002010300019N0150001N1-00511-00721101841ADDAY171031AY221031GF107991021071008001011999KA1999M-00331MD1810111+9999MW1711REMSYN076AAXX  12151 28334 /1565 72302 11051 21072 40184 58011 77172 8271/ 333 11033;
0221283340999992000011218004+57350+058220FM-12+024499999V0209999C000010060019N0150001N1-00521-00691101751ADDAA112000591AY171061AY221061GA1081+006009069GF108991999071008001021999KA1120M-00331MD1710091+9999MW1711REMSYN088AAXX  12181 28334 11565 80000 11052 21069 40175 57009 69962 77172 8872/ 333 11033 88720;EQDQ01+000082SCOTLC
0185283340999992000011221004+57350+058220FM-12+024499999V0209999C000010060019N0150001N1-00541-00681101641ADDAY171031AY221031GA1081+006009069GF108991999071008001021999MD1710101+9999MW1711REMSYN076AAXX  12211 28334 41565 80000 11054 21068 40164 57010 77172 8872/ 333 88720;EQDQ01+000082SCOTLC
0206283340999992000011300004+57350+058220FM-12+024499999V0202301N002010060019N0150001N1-00611-00761101671ADDAY171061AY221061GA1081+006009069GF108991081999008001021999MA1999999098651MD1310011+9999MW1711REMSYN082AAXX  13001 28334 41565 82302 11061 21076 39865 40167 53001 77172 8802/ 333 88720;EQDQ01+000002SCOLCG
0214283340999992000011303004+57350+058220FM-12+024499999V0202301N002010060019N0500001N1-00511-00651101721ADDAJ100629199999999AY171031AY221031GA1081+006009069GF108991999071008001021999IA1239MD1210061+9999MW1021REMSYN082AAXX  13031 28334 /1584 82302 11051 21065 40172 52006 70272 8872/ 333 47062 88720;EQDQ01+000082SCOTLC
0202283340999992000011306004+57350+058220FM-12+024499999V0202301N002010060019N0200001N1-00361-00441101811ADDAA112001091AY181061AY271061GA1081+006009029GF108991081001008001021999KA1120N-00621MD1210111+9999MW1871REMSYN088AAXX  13061 28334 11570 82302 11036 21044 40181 52011 60012 78787 8802/ 333 21062 88520;
0166283340999992000011309004+57350+058220FM-12+024499999V0202301N002010060019N0500001N1-00221-00341101861ADDAY181031AY221031GA1081+006009029GF108991081001008001021999MD1210061+9999MW1021REMSYN076AAXX  13091 28334 41599 82302 11022 21034 40186 52006 70282 8802/ 333 88520;
0159283340999992000011312004+57350+058220FM-12+024499999V0202301N002010060019N0500001N1-00231-00521101741ADDGA1081+006009029GF108991081001008001021999MA1999999098661MD1810121+9999REMSYN076AAXX  13121 28334 42599 82302 11023 21052 39866 40174 58012 8802/ 333 88520;
0157283340999992000011315004+57350+058220FM-12+024499999V0202301N004010060019N0500001N1-00361-00651101441ADDGA1081+006009029GF108991081001008001021999KA1120M-00211MD1710301+9999REMSYN076AAXX  13151 28334 /2584 82304 11036 21065 40144 57030 8802/ 333 11021 88520;
0208283340999992000011318004+57350+058220FM-12+024499999V0202301N012010060019N0020001N1-00361-00501100861ADDAA112000191AY171061AY231061GA1081+006009059GF108991081001008001021999KA1120M-00211MD1710561+9999MW1731REMSYN094AAXX  13181 28334 11520 82312 11036 21050 40086 57056 69922 77373 8802/ 333 11021 88520 92982;
0176283340999992000011321004+57350+058220FM-12+024499999V0202301N006010060019N0020001N1-00351-00491100531ADDAY171031AY231031GA1081+006009059GF108991081001008001021999MD1710321+9999MW1731REMSYN086    AAXX  13211 28334 41520 82306 11035 21049 40053 57032 77373 8802/ 333 88520 92980;
0191283340999992000011400004+57350+058220FM-12+024499999V0202301N004010060019N0020001N1-00301-00431100491ADDAY171061AY231061GA1081+006009029GF108991081001008001021999MA1999999097441MD1710041+9999MW1731REMSYN086    AAXX  14001 28334 41520 82304 11030 21043 39744 40049 57004 77373 8802/ 333 88520;
0199283340999992000011403004+57350+058220FM-12+024499999V0202501N008010060019N0150001N1-00141-00281100481ADDAJ100669199999999AY171031AY231031GA1081+006009029GF108991081001008001021999IA1279MD1310011+9999MW1711REMSYN086    AAXX  14031 28334 /1565 82508 11014 21028 40048 53001 77173 8802/ 333 43066 88520;
0184283340999992000011406004+57350+058220FM-12+024499999V0202701N004019999999N0500001N1-00101-00361100861ADDAA112008991AY171061AY231061GF108991081001999999021999KA1999N-00361MD1210371+9999MW1021REMSYN086    AAXX  14061 28334 11999 82704 11010 21036 40086 52037 60092 70273 8802/ 333 21036;
0142283340999992000011409004+57350+058220FM-12+024499999V0202701N006010069019N0500001N1-00141-00401100951ADDGA1081+006909029GF108991081001008001021999MD1210091+9999REMSYN074    AAXX  14091 28334 41599 82706 11014 21040 40095 52009 8802/ 333 88523;
0191283340999992000011412004+57350+058220FM-12+024499999V0202701N004010069019N0500001N1-00221-00581101061ADDAY171061AY231061GA1051+006909099GF106991051031008001031001MA1999999098001MD1210091+9999MW1011REMSYN086    AAXX  14121 28334 41599 62704 11022 21058 39800 40106 52009 70173 85330 333 85923;
0189283340999992000011415004+57350+058220FM-12+024499999V0202701N002010060019N0150001N1-00261-00611101181ADDAY181031AY271031GA1081+006009029GF108991081001008001021999KA1120M-00091MD1210121+9999MW1871REMSYN086    AAXX  14151 28334 /1565 82702 11026 21061 40118 52012 78787 8802/ 333 11009 88520;
0206283340999992000011418004+57350+058220FM-12+024499999V0209999C000010060019N0500001N1-00481-00761101091ADDAA112001091AY181061AY271061GA1081+006009029GF108991081001008001021999KA1120M-00091MD1810111+9999MW1021REMSYN092    AAXX  14181 28334 11584 80000 11048 21076 40109 58011 60012 70287 8802/ 333 11009 88520;
0142283340999992000011421004+57350+058220FM-12+024499999V0209999C000010060019N0500001N1-00561-00821101171ADDGA1081+006009029GF108991081001008001021999MD1310071+9999REMSYN074    AAXX  14211 28334 42584 80000 11056 21082 40117 53007 8802/ 333 88520;
0163283340999992000011500004+57350+058220FM-12+024499999V0209999C000010060019N0500001N1-00911-01161101481ADDGA1081+006009029GF108991081001008001021999MA1999999098331MD1210251+9999REMSYN080    AAXX  15001 28334 42584 80000 11091 21116 39833 40148 52025 8802/ 333 88520;
0203283340999992000011506004+57350+058220FM-12+024499999V0209999C000019999999N0200001N1-01411-01761102191ADDAA112000891AY171061AY221061GF107991071001999999011001KA1999N+99999MD1210281+9999MW1711REMSYN086    AAXX  15061 28334 11970 70000 11141 21176 40219 52028 69972 77172 87010 333 21131;EQDQ01 -01312ATMN  
0144283340999992000011509004+57350+058220FM-12+024499999V0209999C000019999999N0200001N1-01291-01641102231ADDAY171031AY221031GF107991071001999999011001MD1210051+9999MW1711REMSYN070    AAXX  15091 28334 41970 70000 11129 21164 40223 52005 77172 87010;
0184283340999992000011512004+57350+058220FM-12+024499999V0209999C000019999999N0200001N1-01261-01611999999ADDAY171061AY221061GF107991071001999999011001MA1999999099101MD1210091+9999MW1711REMSYN076    AAXX  15121 28334 41970 70000 11126 21161 39910 40730 52009 77172 87010;EQDQ01+107303APOSLP
0167283340999992000011515004+57350+058220FM-12+024499999V0209999C000019999999N0150001N1-01271-01621102321ADDAY171031AY221031GF107991071001999999011001KA1999M-01251MD1410001+9999MW1711REMSYN080    AAXX  15151 28334 /1965 70000 11127 21162 40232 54000 77172 87010 333 11125;
0184283340999992000011518004+57350+058220FM-12+024499999V0209999C000019999999N0500001N1-01251-01601102351ADDAA112000591AY171061AY221061GF106991061001999999031001KA1999M-01251MD1310051+9999MW1011REMSYN086    AAXX  15181 28334 11984 60000 11125 21160 40235 53005 69952 70172 86030 333 11125;
0183283340999992000011521004+57350+058220FM-12+024499999V0209999C000010060019N0150001N1-01081-01361102241ADDAY181031AY221031GA1081+006009099GF108991081031008001999999MD1810101+9999REMSYN080    AAXX  15211 28334 41565 80000 11108 21136 40224 58010 78082 883// 333 88920;EQDQ01+000802PRSWM1
0144283340999992000011609004+57350+058220FM-12+024499999V0202301N002019999999N0020001N1-00371-00521101671ADDAY171031AY221031GF108991081001999999031999MD1710101+9999MW1731REMSYN070    AAXX  16091 28334 41920 82302 11037 21052 40167 57010 77372 8803/;
0165283340999992000011612004+57350+058220FM-12+024499999V0202301N002019999999N0200001N1-00451-00611101561ADDAY171061AY221061GF108991081001999999021999MA1999999098471MD1710111+9999MW1711REMSYN076    AAXX  16121 28334 41970 82302 11045 21061 39847 40156 57011 77172 8802/;
0189283340999992000011615004+57350+058220FM-12+024499999V0202301N002010069019N0500001N1-00471-00671101381ADDAY171031AY221031GA1051+006909029GF106991051071008001011001KA1120M-00361MD1710181+9999MW1011REMSYN086    AAXX  16151 28334 /1584 62302 11047 21067 40138 57018 70172 85710 333 11036 85823;
0206283340999992000011618004+57350+058220FM-12+024499999V0202301N002010060019N0150001N1-00491-00701101191ADDAA112003091AY171061AY221061GA1081+006009029GF108991081001008001021999KA1120M-00361MD1710191+9999MW1711REMSYN092    AAXX  16181 28334 11565 82302 11049 21070 40119 57019 60032 77172 8802/ 333 11036 88520;
0170283340999992000011621004+57350+058220FM-12+024499999V0202301N004010060019N0150001N1-00521-00691101041ADDAY171031AY231031GA1081+006009029GF108991081001008001021999MD1710151+9999MW1711REMSYN080    AAXX  16211 28334 41565 82304 11052 21069 40104 57015 77173 8802/ 333 88520;
0191283340999992000011700004+57350+058220FM-12+024499999V0202301N004010060019N0020001N1-00571-00711100901ADDAY171061AY231061GA1081+006009029GF108991081001008001021999MA1999999097821MD1710131+9999MW1731REMSYN086    AAXX  17001 28334 41520 82304 11057 21071 39782 40090 57013 77373 8802/ 333 88520;
0199283340999992000011703004+57350+058220FM-12+024499999V0202301N002010060019N0150001N1-00761-00941100821ADDAJ100709199999999AY171031AY231031GA1081+006009029GF108991081001008001021999IA1239MD1710111+9999MW1711REMSYN086    AAXX  17031 28334 /1565 82302 11076 21094 40082 57011 77173 8802/ 333 47070 88520;
0225283340999992000011706004+57350+058220FM-12+024499999V0202301N002010060019N0200001N1-00831-01061100821ADDAA112001091AY171061AY231061GA1081+006009029GF108991081001008001021999KA1120N+99999MD1710011+9999MW1711REMSYN092    AAXX  17061 28334 11570 82302 11083 21106 40082 57001 60012 77173 8802/ 333 21077 88520;EQDQ01 -00772ATMN  
0183283340999992000011709004+57350+058220FM-12+024499999V0202301N002010069019N0200001N1-00881-01071100771ADDAY181031AY271031GA1051+006909099GF107991071031008001001091MD1710051+9999REMSYN080    AAXX  17091 28334 41570 72302 11088 21107 40077 57005 78087 87309 333 85923;EQDQ01+000802PRSWM1
0191283340999992000011712004+57350+058220FM-12+024499999V0209999C000010069019N0500001N1-00931-01141100791ADDAY181061AY221061GA1051+006909099GF106991051031008001071999MA1999999097661MD1310011+9999MW1011REMSYN086    AAXX  17121 28334 41599 60000 11093 21114 39766 40079 53001 70182 8537/ 333 85923;
0139283340999992000011715004+57350+058220FM-12+024499999V0209999C000019999999N0500001N1-01271-01541100831ADDGF108991081001999999051001KA1999M-00751MD1810011+9999REMSYN074    AAXX  17151 28334 /2984 80000 11127 21154 40083 58001 88050 333 11075;
0156283340999992000011718004+57350+058220FM-12+024499999V0209999C000019999999N0500001N1-01151-01431100731ADDAA112000391GF108991081001999999011001KA1999M-00751MD1710061+9999REMSYN080    AAXX  17181 28334 12984 80000 11115 21143 40073 57006 69932 88010 333 11075;
0116283340999992000011721004+57350+058220FM-12+024499999V0209999C000019999999N0500001N1-00111-01381100671ADDGF108991081001999999011001MD1710061+9999REMSYN064    AAXX  17211 28334 42984 80000 11011 21138 40067 57006 88010;
0137283340999992000011800004+57350+058220FM-12+024499999V0202301N002019999999N0500001N1-01031-01311100641ADDGF106991061001999999011001MA1999999097511MD1710021+9999REMSYN070    AAXX  18001 28334 42984 62302 11103 21131 39751 40064 57002 86010;
0179283340999992000011803004+57350+058220FM-12+024499999V0202301N002019999999N0500001N1-01011-01291100681ADDAA199000091AJ100709199999999GF108991081001999999011001IA1239MD1310041+9999REMSYN074    AAXX  18031 28334 32984 82302 11101 21129 40068 53004 88010 333 47070;EQDQ01  00002PRCP99
0200283340999992000011806004+57350+058220FM-12+024499999V0209999C000010300019N0200001N1-00961-01221100711ADDAA199000021AY171061AY221061GA1041+006909069GF107991041071008001011001KA1120N-01271MD1210041+9999MW1711REMSYN086    AAXX  18061 28334 31570 70000 11096 21122 40071 52004 77172 84710 333 21127 84723;
0170283340999992000011809004+57350+058220FM-12+024499999V0209999C000010069019N0500001N1-00781-01051100861ADDAY171031AY221031GA1051+006909099GF106991051031008001031001MD1210151+9999MW1011REMSYN080    AAXX  18091 28334 41599 60000 11078 21105 40086 52015 70172 85330 333 85923;
0165283340999992000011812004+57350+058220FM-12+024499999V0209999C000019999999N0500001N1-00901-01191100901ADDAY171061AY221061GF108991081001999999021999MA1999999097771MD1210031+9999MW1031REMSYN076    AAXX  18121 28334 41999 80000 11090 21119 39777 40090 52003 70372 8802/;
0116283340999992000011815004+57350+058220FM-12+024499999V0209999C000019999999N0500001N1-01021-01311101041ADDGF107991071001999999031001MD1210131+9999REMSYN064    AAXX  18151 28334 /2984 70000 11102 21131 40104 52013 87030;
0166283340999992000011818004+57350+058220FM-12+024499999V0209999C000012200019N0500001N1-01381-01651101051ADDAA112000591GA1001+999999999GF100991001001999999001001KA1999M-00771MD1810041+9999REMSYN074    AAXX  18181 28334 12984 00000 11138 21165 40105 58004 69942 333 11077;
0116283340999992000011821004+57350+058220FM-12+024499999V0209999C000019999999N0500001N1-01311-01581101171ADDGF108991081001999999021999MD1310121+9999REMSYN064    AAXX  18211 28334 42984 80000 11131 21158 40117 53012 8802/;
0156283340999992000011900004+57350+058220FM-12+024499999V0209999C000019999999N0500001N1-01481+99999101161ADDGF108991999071999999011999MA1999999098001MD1210021+9999REMSYN070    AAXX  19001 28334 42984 80000 11148 21136 39800 40116 52002 8871/;EQDQ01+000082SCOTLC
0179283340999992000011903004+57350+058220FM-12+024499999V0209999C000019999999N0500001N1-00941-01191101201ADDAA199000091AJ100709199999999GF108991081001999999021999IA1239MD1210061+9999REMSYN074    AAXX  19031 28334 32984 80000 11094 21119 40120 52006 8802/ 333 47070;EQDQ01  00002PRCP99
0169283340999992000011906004+57350+058220FM-12+024499999V0209999C000019999999N0500001N1-00871-01111101321ADDAA199000091GF105991051001999999041001KA1999N-01381MD1210131+9999REMSYN074    AAXX  19061 28334 32999 50000 11087 21111 40132 52013 85040 333 21138;EQDQ01  00002PRCP99
0135283340999992000011909004+57350+058220FM-12+024499999V0209999C000010075019N0500001N1-00761-01021101301ADDGF108991999071008001011999MD1810011+9999REMSYN064    AAXX  19091 28334 42599 80000 11076 21102 40130 58001 8871/;EQDQ01+000082SCOTLC
0156283340999992000011912004+57350+058220FM-12+024499999V0209999C000010075019N0500001N1-00741-01001101101ADDGF108991999071008001011999MA1999999097981MD1710201+9999REMSYN070    AAXX  19121 28334 42599 80000 11074 21100 39798 40110 57020 8871/;EQDQ01+000082SCOTLC
0181283340999992000011915004+57350+058220FM-12+024499999V0209999C000010075019N0500001N1-00691-01061100881ADDAA199000091GF108991999071008001011999KA1999M-00681MD1710211+9999REMSYN070AAXX  19151 28334 32584 80000 11069 21106 40088 57021 8871/ 333 11068;EQDQ01+000082SCOTLCQ02  00002PRCP99
0181283340999992000011918004+57350+058220FM-12+024499999V0209999C000010075019N0500001N1-00651-01011100761ADDAA199000091GF108991999071008001011999KA1999M-00681MD1710101+9999REMSYN070AAXX  19181 28334 32584 80000 11065 21101 40076 57010 8871/ 333 11068;EQDQ01+000082SCOTLCQ02  00002PRCP99
0112283340999992000011921004+57350+058220FM-12+024499999V0201301N006019999999N0500001N1-00501-00911100541ADDGF108991081001999999021999MD1710201+9999REMSYN060AAXX  19211 28334 42984 81306 11050 21091 40054 57020 8802/;
0152283340999992000012000004+57350+058220FM-12+024499999V0201401N004010075019N0500001N1-00451-00881100231ADDGF108991999071008001011999MA1999999097181MD1710291+9999REMSYN066AAXX  20001 28334 42584 81404 11045 21088 39718 40023 57029 8871/;EQDQ01+000082SCOTLC
0191283340999992000012003004+57350+058220FM-12+024499999V0201401N004010075019N0500001N1-00481-00881100031ADDAA199000091AJ100709199999999GF108991999071008001011999IA1239MD1710201+9999REMSYN070AAXX  20031 28334 32584 81404 11048 21088 40003 57020 8871/ 333 47070;EQDQ01+000082SCOTLCQ02  00002PRCP99
0165283340999992000012006004+57350+058220FM-12+024499999V0201401N002019999999N0500001N1-00601-00911099811ADDAA199000091GF108991081001999999021999KA1999N-00691MD1710231+9999REMSYN070AAXX  20061 28334 32999 81402 11060 21091 49981 57023 8802/ 333 21069;EQDQ01  00002PRCP99
0138283340999992000012009004+57350+058220FM-12+024499999V0201401N004010069019N0500001N1-00531-00901099491ADDGA1051+006909019GF107991051071008001011001MD1710301+9999REMSYN070AAXX  20091 28334 42599 71404 11053 21090 49949 57030 85710 333 85023;
0159283340999992000012012004+57350+058220FM-12+024499999V0201401N002010069019N0500001N1-00461-00811099371ADDGA1051+006909019GF107991051071008001011001MA1999999096351MD1710101+9999REMSYN076AAXX  20121 28334 42599 71402 11046 21081 39635 49937 57010 85710 333 85023;
0165283340999992000012015004+57350+058220FM-12+024499999V0201401N002019999999N0500001N1-00661-00981099321ADDAA199000091GF106991061001999999031001KA1999M-00451MD1710081+9999REMSYN070AAXX  20151 28334 32984 61402 11066 21098 49932 57008 86030 333 11045;EQDQ01  00002PRCP99
0196283340999992000012018004+57350+058220FM-12+024499999V0201401N002010060019N0150001N1-00591-00811099301ADDAA199000021AY171061AY221061GA1081+006009029GF108991081001008001021999KA1120M-00451MD1710021+9999MW1711REMSYN082AAXX  20181 28334 31565 81402 11059 21081 49930 57002 77172 8802/ 333 11045 88520;
0166283340999992000012021004+57350+058220FM-12+024499999V0201401N002010060019N0150001N1-00571-00791099371ADDAY171031AY221031GA1081+006009029GF108991081001008001021999MD1310081+9999MW1711REMSYN076AAXX  20211 28334 41565 81402 11057 21079 49937 53008 77172 8802/ 333 88520;
0180283340999992000012100004+57350+058220FM-12+024499999V0201401N004010075019N0500001N1-00601-00871099711ADDAY171061AY221061GF108991999071008001011999MA1999999096651MD1210321+9999MW1021REMSYN072AAXX  21001 28334 41584 81404 11060 21087 39665 49971 52032 70272 8871/;EQDQ01+000082SCOTLC
0192283340999992000012103004+57350+058220FM-12+024499999V0202001N004010075019N0150001N1-00681-00921099841ADDAJ100689199999999AY171031AY221031GF108991999071008001011999IA1239MD1210111+9999MW1711REMSYN076AAXX  21031 28334 /1565 82004 11068 21092 49984 52011 77172 8871/ 333 47068;EQDQ01+000082SCOTLC
0221283340999992000012106004+57350+058220FM-12+024499999V0202001N002010069019N0200001N1-00571-00791100041ADDAA112001091AY171061AY221061GA1081+006909069GF108991999071008001011999KA1120N-00681MD1210231+9999MW1711REMSYN088AAXX  21061 28334 11570 82002 11057 21079 40004 52023 60012 77172 8871/ 333 21068 88723;EQDQ01+000082SCOTLC
0138283340999992000012109004+57350+058220FM-12+024499999V0202001N004010069019N0500001N1-00421-00841100311ADDGA1061+006909099GF106991061031008001001001MD1210271+9999REMSYN070AAXX  21091 28334 41599 62004 11042 21084 40031 52027 86300 333 86923;
0187283340999992000012112004+57350+058220FM-12+024499999V0201801N002010069019N0500001N1-00481-00921100371ADDAY181061AY221061GA1051+006909099GF108991051031008001001081MA1999999097311MD1210051+9999MW1261REMSYN082AAXX  21121 28334 41599 81802 11048 21092 39731 40037 52005 72682 85308 333 85923;
0135283340999992000012115004+57350+058220FM-12+024499999V0201801N002019999999N0500001N1-00601-01041100411ADDGF108991081001999999011999KA1999M-00411MD1210021+9999REMSYN070AAXX  21151 28334 /2984 81802 11060 21104 40041 52002 8801/ 333 11041;
0202283340999992000012118004+57350+058220FM-12+024499999V0201801N002010060019N0150001N1-00631-01031100601ADDAA112000591AY121061AY221061GA1081+006009029GF108991081001008001021999KA1120M-00411MD1210191+9999MW1711REMSYN088AAXX  21181 28334 11565 81802 11063 21103 40060 52019 69942 77122 8802/ 333 11041 88520;
0166283340999992000012121004+57350+058220FM-12+024499999V0209999C000010069019N0150001N1-00611-00961100441ADDAY171031AY221031GA1081+006909029GF108991081001008001021999MD1810161+9999MW1711REMSYN076AAXX  21211 28334 41565 80000 11061 21096 40044 58016 77172 8802/ 333 88523;
0140283340999992000012200004+57350+058220FM-12+024499999V0209999C000019999999N0500001N1-00761-01111100491ADDAY171061AY221061GF108991081001999999031001MD1310031+9999MW1021REMSYN066AAXX  22001 28334 41984 80000 11076 21111 40049 53003 70272 88030;
0145283340999992000012203004+57350+058220FM-12+024499999V0209999C000019999999N0500001N1-00671-01001100611ADDAJ100689199999999GF108991081001999999021999IA1239MD1210141+9999REMSYN070AAXX  22031 28334 /2984 80000 11067 21100 40061 52014 8802/ 333 47068;
0221283340999992000012206004+57350+058220FM-12+024499999V0209999C000010069019N0500001N1-00901-01191100861ADDAA112000591AY171061AY221061GA1051+006909099GF106991051031008001031001KA1120N+99999MD1210201+9999MW1221REMSYN088AAXX  22061 28334 11599 60000 11090 21119 40086 52020 69942 72272 85330 333 21076 85923;EQDQ01 -00762ATMN  
0092283340999992000012209004+57350+058220FM-12+024499999V0209999C000010075019N0500001N1-00721-01201100931ADDGF105991051031008001001021REMSYN054AAXX  22091 28334 42599 50000 11072 21120 40093 85302;
0133283340999992000012212004+57350+058220FM-12+024499999V0209999C000012200019N0500001N1-01061-01421101191ADDGF102991001001999999001011MA1999999098041MD1210221+9999REMSYN066AAXX  22121 28334 42999 20000 11106 21142 39804 40119 52022 80001;
0135283340999992000012215004+57350+058220FM-12+024499999V0209999C000012200019N0500001N1-01101-01461101271ADDGF102991021001999999031001KA1999M-00711MD1210071+9999REMSYN070AAXX  22151 28334 /3984 20000 11110 21146 40127 52007 82030 333 11071;
0193283340999992000012218004+57350+058220FM-12+024499999V0209999C000010069019N0500001N1-01491-01831101341ADDAA112000191GA1051+006909069GF108991999071008001011999KA1120M-00661MD1210021+9999REMSYN082AAXX  22181 28334 12584 80000 11149 21183 40134 52002 69922 8871/ 333 11066 85723;EQDQ01+000082SCOTLC
0112283340999992000012221004+57350+058220FM-12+024499999V0209999C000019999999N0500001N1-01551-01891101451ADDGF108991081001999999011999MD1210111+9999REMSYN060AAXX  22211 28334 42984 80000 11155 21189 40145 52011 8801/;
0128283340999992000012300004+57350+058220FM-12+024499999V0209999C000012200019N0500001N1-01671-02011101581ADDGA1001+999999999GF100991001001999999001001MD1210091+9999REMSYN060AAXX  23001 28334 42984 00000 11167 21201 398// 40158 52009;
0191283340999992000012303004+57350+058220FM-12+024499999V0209999C000019999999N0500001N1+99999+99999101581ADDAA199000091AJ100689199999999GF108991081001999999021999IA1239MD1210011+9999REMSYN070AAXX  23031 28334 32984 80000 11557 21191 40158 52001 8802/ 333 47068;EQDQ01-005573ATOT  Q02  00002PRCP99
0193283340999992000012306004+57350+058220FM-12+024499999V0209999C000019999999N0060001N1-01251-01451101571ADDAA199000091AY111061AY211061GF108991081001008001011999KA1999N-01681MD1210041+9999MW1101REMSYN076AAXX  23061 28334 32556 80000 11125 21145 40157 52004 71011 8801/ 333 21168;EQDQ01  00002PRCP99
0112283340999992000012309004+57350+058220FM-12+024499999V0209999C000019999999N0500001N1-00951-01161101511ADDGF107991071001999999051001MD1810021+9999REMSYN060AAXX  23091 28334 42999 70000 11095 21116 40151 58002 87050;
0159283340999992000012312004+57350+058220FM-12+024499999V0209999C000010060019N0500001N1-00911-01111101461ADDGA1071+006009059GF107991071051008001001001MA1999999098311MD1710051+9999REMSYN076AAXX  23121 28334 42599 70000 11091 21111 39831 40146 57005 87500 333 87620;
0187283340999992000012315004+57350+058220FM-12+024499999V0209999C000010060019N0500001N1-01091-01291101361ADDAA199000091GA1071+006009059GF107991071051008001001001KA1120M-00901MD1710111+9999REMSYN076AAXX  23151 28334 32584 70000 11109 21129 40136 57011 87500 333 11090 87620;EQDQ01  00002PRCP99
0165283340999992000012318004+57350+058220FM-12+024499999V0209999C000019999999N0500001N1-01101-01301101291ADDAA199000091GF107991071001999999031001KA1999M-00901MD1710071+9999REMSYN070AAXX  23181 28334 32984 70000 11110 21130 40129 57007 87030 333 11090;EQDQ01  00002PRCP99
0112283340999992000012321004+57350+058220FM-12+024499999V0209999C000019999999N0500001N1-01021-01221101321ADDGF108991081001999999021999MD1310041+9999REMSYN060AAXX  23211 28334 42984 80000 11102 21122 40132 53004 8802/;
0133283340999992000012400004+57350+058220FM-12+024499999V0209999C000019999999N0500001N1-00981-01241101291ADDGF108991081001999999021999MA1999999098141MD1810031+9999REMSYN066AAXX  24001 28334 42984 80000 11098 21124 39814 40129 58003 8802/;
0173283340999992000012403004+57350+058220FM-12+024499999V0209999C000019999999N0500001N1-01061-01261101211ADDAJ100699199999999AY171031AY221031GF108991081001999999021999IA1239MD1710081+9999MW1021REMSYN076AAXX  24031 28334 /1984 80000 11106 21126 40121 57008 70272 8802/ 333 47069;
0180283340999992000012406004+57350+058220FM-12+024499999V0209999C000019999999N0200001N1-01001-01201101231ADDAA112000391AY171061AY221061GF108991081001999999021999KA1999N-01101MD1310021+9999MW1711REMSYN082AAXX  24061 28334 11970 80000 11100 21120 40123 53002 69932 77172 8802/ 333 21110;
0166283340999992000012409004+57350+058220FM-12+024499999V0202001N002010069019N0200001N1-00961-01221101321ADDAY171031AY221031GA1051+006909099GF108991051031008001031001MD1210101+9999MW1711REMSYN076AAXX  24091 28334 41570 82002 11096 21122 40132 52010 77172 85330 333 85923;
0187283340999992000012412004+57350+058220FM-12+024499999V0202301N002010069019N0200001N1-01151-01431101521ADDAY171061AY231061GA1051+006909099GF106991051031008001031001MA1999999098351MD1210171+9999MW1711REMSYN082AAXX  24121 28334 41570 62302 11115 21143 39835 40152 52017 77173 85330 333 85923;
0185283340999992000012415004+57350+058220FM-12+024499999V0202301N002010069019N0550001N1-01441-01791101771ADDAY171031AY231031GA1061+006909099GF106991061031008001001001KA1120M-00951MD1210201+9999MW1021REMSYN082AAXX  24151 28334 /1585 62302 11144 21179 40177 52020 70273 86300 333 11095 86923;
0180283340999992000012418004+57350+058220FM-12+024499999V0202301N004010300019N0500001N1-01891-02151102061ADDAA112000391AY171061AY231061GF107991031031008001031001KA1999M-00951MD1210221+9999MW1031REMSYN082AAXX  24181 28334 11584 72304 11189 21215 40206 52022 69932 70373 83330 333 11095;
0138283340999992000012421004+57350+058220FM-12+024499999V0202301N004010060019N0500001N1+99999+99999102271ADDGA1051+006009099GF107991051031008001031001MD1210191+9999REMSYN070AAXX  24211 28334 42584 72304 11997 21223 40227 52019 85330 333 85920;
0180283340999992000012500004+57350+058220FM-12+024499999V0202301N004012200019N0150001N1-02021-02211102421ADDAY171061AY221061GF101991999001999999011001MA1999999099111MD1210151+9999MW1711REMSYN072AAXX  25001 28334 41965 12304 11202 21221 39911 40242 52015 77172 87010;EQDQ01+000072SCOTLC
0173283340999992000012503004+57350+058220FM-12+024499999V0202301N002019999999N0150001N1-02181-02431102551ADDAJ100669199999999AY171031AY221031GF106991061001999999011001IA1239MD1210101+9999MW1711REMSYN076AAXX  25031 28334 /1965 62302 11218 21243 40255 52010 77172 86010 333 47066;
0180283340999992000012506004+57350+058220FM-12+024499999V0209999C000019999999N0060001N1-02241-02561102801ADDAA112000191AY171061AY221061GF106991061001999999011001KA1999N-02191MD1210241+9999MW1101REMSYN082AAXX  25061 28334 11956 60000 11224 21256 40280 52024 69922 71072 86010 333 21219;
0112283340999992000012509004+57350+058220FM-12+024499999V0202501N002019999999N0500001N1-02051-02451102921ADDGF106991061001999999011001MD1210141+9999REMSYN060AAXX  25091 28334 42999 62502 11205 21245 40292 52014 86010;
0133283340999992000012512004+57350+058220FM-12+024499999V0202501N002019999999N0500001N1-01771-02101103001ADDGF108991081001999999011999MA1999999099701MD1210111+9999REMSYN066AAXX  25121 28334 42999 82502 11177 21210 39970 40300 52011 8801/;
0145283340999992000012515004+57350+058220FM-12+024499999V0209999C000012200019N0500001N1-02021-02351103101ADDGA1001+999999999GF100991001001999999001001KA1999M-01761MD1210071+9999REMSYN064AAXX  25151 28334 12984 00000 11202 21235 40310 52007 333 11176;
0152283340999992000012518004+57350+058220FM-12+024499999V0209999C000019999999N0500001N1-02001-02341103031ADDAA112000191GF108991081001999999031001KA1999M-01761MD1810061+9999REMSYN076AAXX  25181 28334 12984 80000 11200 21234 40303 58006 69922 88030 333 11176;
0112283340999992000012521004+57350+058220FM-12+024499999V0209999C000019999999N0500001N1-02021-02351102861ADDGF107991071001999999031001MD1710171+9999REMSYN060AAXX  25211 28334 42984 70000 11202 21235 40286 57017 87030;
0161283340999992000012600004+57350+058220FM-12+024499999V0209999C000019999999N0150001N1-01801-02061102551ADDAY171061AY221061GF108991081001999999021999MA1999999099261MD1710271+9999MW1711REMSYN072AAXX  26001 28334 41965 80000 11180 21206 39926 40255 57027 77172 8802/;
0173283340999992000012603004+57350+058220FM-12+024499999V0209999C000019999999N0500001N1-01661-01921102181ADDAJ100669199999999AY171031AY221031GF108991081001999999021999IA1239MD1710351+9999MW1021REMSYN076AAXX  26031 28334 /1984 80000 11166 21192 40218 57035 70272 8802/ 333 47066;
0180283340999992000012606004+57350+058220FM-12+024499999V0209999C000019999999N0500001N1-00881-01481101911ADDAA112000191AY171061AY221061GF108991081001999999021999KA1999N-02031MD1710161+9999MW1021REMSYN082AAXX  26061 28334 11999 80000 11088 21148 40191 57016 69922 70272 8802/ 333 21203;
0112283340999992000012609004+57350+058220FM-12+024499999V0201401N002019999999N0500001N1-00701-01331101861ADDGF108991081001999999021999MD1710021+9999REMSYN060AAXX  26091 28334 42999 81402 11070 21133 40186 57002 8802/;
0133283340999992000012612004+57350+058220FM-12+024499999V0201401N004019999999N0500001N1-00521-01161101711ADDGF108991081001999999021999MA1999999098601MD1710131+9999REMSYN066AAXX  26121 28334 42999 81404 11052 21116 39860 40171 57013 8802/;
0135283340999992000012615004+57350+058220FM-12+024499999V0201401N004019999999N0500001N1-00681-01251101591ADDGF108991081001999999021999KA1999M-00511MD1710131+9999REMSYN070AAXX  26151 28334 /2984 81404 11068 21125 40159 57013 8802/ 333 11051;
0152283340999992000012618004+57350+058220FM-12+024499999V0209999C000019999999N0500001N1-00721-01301101371ADDAA112000791GF108991081001999999021999KA1999M-00511MD1710221+9999REMSYN076AAXX  26181 28334 12984 80000 11072 21130 40137 57022 69902 8802/ 333 11051;
0140283340999992000012621004+57350+058220FM-12+024499999V0202301N002019999999N0150001N1-00601-01131101231ADDAY171031AY221031GF108991081001999999021999MD1710121+9999MW1711REMSYN066AAXX  26211 28334 41965 82302 11060 21113 40123 57012 77172 8802/;
0161283340999992000012700004+57350+058220FM-12+024499999V0202301N002019999999N0150001N1-00621-01111101121ADDAY171061AY221061GF108991081001999999021999MA1999999098021MD1710111+9999MW1711REMSYN072AAXX  27001 28334 41965 82302 11062 21111 39802 40112 57011 77172 8802/;
0173283340999992000012703004+57350+058220FM-12+024499999V0202301N002019999999N0500001N1-00661-01031101051ADDAJ100669199999999AY171031AY221031GF108991081001999999011999IA1239MD1710071+9999MW1021REMSYN076AAXX  27031 28334 /1984 82302 11066 21103 40105 57007 70272 8801/ 333 47066;
0180283340999992000012706004+57350+058220FM-12+024499999V0202301N002019999999N0200001N1-00531-00711101011ADDAA112000591AY171061AY221061GF108991081001999999021999KA1999N-00721MD1710021+9999MW1711REMSYN082AAXX  27061 28334 11970 82302 11053 21071 40101 57002 69952 77172 8802/ 333 21072;
0140283340999992000012709004+57350+058220FM-12+024499999V0209999C000019999999N0200001N1-00481-00681100971ADDAY171031AY221031GF108991081001999999021999MD1710031+9999MW1711REMSYN066AAXX  27091 28334 41970 80000 11048 21068 40097 57003 77172 8802/;
0187283340999992000012712004+57350+058220FM-12+024499999V0202301N002010060019N0500001N1-00621-00891101061ADDAY171061AY281061GA1051+006009099GF105991051031008001001001MA1999999097961MD1310061+9999MW1261REMSYN082AAXX  27121 28334 41599 52302 11062 21089 39796 40106 53006 72678 85300 333 85920;
0135283340999992000012715004+57350+058220FM-12+024499999V0202301N002012200019N0500001N1-01191-01911101391ADDGF102991021031008001001001KA1999M-00471MD1210251+9999REMSYN070AAXX  27151 28334 /1584 22302 11119 21191 40139 52025 82300 333 11047;
0162283340999992000012718004+57350+058220FM-12+024499999V0209999C000012200019N0500001N1-01621-02121101721ADDAA112000591GA1001+999999999GF100991001001999999001001KA1999M-00471MD1210271+9999REMSYN070AAXX  27181 28334 12984 00000 11162 21212 40172 52027 69952 333 11047;
0122283340999992000012721004+57350+058220FM-12+024499999V0209999C000012200019N0500001N1-01811-02311101761ADDGA1001+999999999GF100991001001999999001001MD1210021+9999REMSYN054AAXX  27211 28334 42984 00000 11181 21231 40176 52002;
0143283340999992000012800004+57350+058220FM-12+024499999V0209999C000012200019N0500001N1-02001-02411101871ADDGA1001+999999999GF100991001001999999001001MA1999999098571MD1210071+9999REMSYN060AAXX  28001 28334 42984 00000 11200 21241 39857 40187 52007;
0185283340999992000012803004+57350+058220FM-12+024499999V0209999C000012200019N0500001N1-02041-02381101821ADDAA199000091AJ100669199999999GA1001+999999999GF100991001001999999001001IA1239MD1810041+9999REMSYN064AAXX  28031 28334 32984 00000 11204 21238 40182 58004 333 47066;EQDQ01  00002PRCP99
0175283340999992000012806004+57350+058220FM-12+024499999V0209999C000012200019N0500001N1-01761-02101101731ADDAA199000091GA1001+999999999GF100991001001999999001001KA1999N-02041MD1710061+9999REMSYN064AAXX  28061 28334 32999 00000 11176 21210 40173 57006 333 21204;EQDQ01  00002PRCP99
0112283340999992000012809004+57350+058220FM-12+024499999V0202301N002012200019N0500001N1-01331-01761101631ADDGF103991031031008001001001MD1710041+9999REMSYN060AAXX  28091 28334 42599 32302 11133 21176 40163 57004 83300;
0133283340999992000012812004+57350+058220FM-12+024499999V0202301N002010300019N0500001N1-01631-02051101621ADDGF105991021011008001031051MA1999999098381MD1710051+9999REMSYN066AAXX  28121 28334 42599 52302 11163 21205 39838 40162 57005 82135;
0165283340999992000012815004+57350+058220FM-12+024499999V0209999C000019999999N0500001N1-01501-01921101581ADDAA199000091GF108991001001999999001071KA1999M-01321MD1710021+9999REMSYN070AAXX  28151 28334 32984 80000 11150 21192 40158 57002 80007 333 11132;EQDQ01  00002PRCP99
0174283340999992000012818004+57350+058220FM-12+024499999V0202301N002019999999N0150001N1-01291-01561101591ADDAA199000021AY171061AY221061GF105991051001999999011001KA1999M-01321MD1310031+9999MW1711REMSYN076AAXX  28181 28334 31965 52302 11129 21156 40159 53003 77172 85010 333 11132;
0140283340999992000012821004+57350+058220FM-12+024499999V0202301N002019999999N0150001N1-01231-01501101591ADDAY171031AY221031GF108991081001999999011999MD1210011+9999MW1711REMSYN066AAXX  28211 28334 41965 82302 11123 21150 40159 52001 77172 8801/;
0161283340999992000012900004+57350+058220FM-12+024499999V0202301N002019999999N0500001N1-01201-01471101611ADDAY171061AY221061GF108991081001999999011999MA1999999098421MD1210021+9999MW1021REMSYN072AAXX  29001 28334 41984 82302 11120 21147 39842 40161 52002 70272 8801/;
0145283340999992000012903004+57350+058220FM-12+024499999V0202301N002019999999N0500001N1-01261-01531101631ADDAJ100559199999999GF108991081001999999011999IA1239MD1210021+9999REMSYN070AAXX  29031 28334 /2984 82302 11126 21153 40163 52002 8801/ 333 47055;
0180283340999992000012906004+57350+058220FM-12+024499999V0202301N002019999999N0200001N1-01281-01551101631ADDAA112000391AY171061AY221061GF108991081001999999021999KA1999N-01501MD1810011+9999MW1711REMSYN082AAXX  29061 28334 11970 82302 11128 21155 40163 58001 69932 77172 8802/ 333 21150;
0140283340999992000012909004+57350+058220FM-12+024499999V0202301N002010300019N0500001N1-01061-01421101511ADDAY171031AY221031GF108991031071008001011999MD1710081+9999MW1021REMSYN066AAXX  29091 28334 41599 82302 11106 21142 40151 57008 70272 8371/;
0159283340999992000012912004+57350+058220FM-12+024499999V0202301N002010069019N0500001N1-00981-01341101421ADDGA1061+006909029GF108991061071008001011999MA1999999098261MD1710091+9999REMSYN076AAXX  29121 28334 42599 82302 11098 21134 39826 40142 57009 8671/ 333 86823;
0163283340999992000012915004+57350+058220FM-12+024499999V0202301N002019999999N0500001N1-00941-01341101341ADDAY171031AY221031GF108991081001999999021999KA1999M-00931MD1710061+9999MW1021REMSYN076AAXX  29151 28334 /1984 82302 11094 21134 40134 57006 70272 8802/ 333 11093;
0199283340999992000012918004+57350+058220FM-12+024499999V0202301N002019999999N0150001N1-00701-01031101261ADDAA112000591AY171061AY231061GF108991081001999999021999KA1999M+99999MD1710061+9999MW1711REMSYN082AAXX  29181 28334 11965 82302 11070 21103 40126 57006 69962 77173 8802/ 333 11093;EQDQ01 -00932ATMX  
0140283340999992000012921004+57350+058220FM-12+024499999V0202301N002019999999N0020001N1-00641-00921101251ADDAY171031AY231031GF108991081001999999021999MD1310011+9999MW1731REMSYN066AAXX  29211 28334 41920 82302 11064 21092 40125 53001 77373 8802/;
0161283340999992000013000004+57350+058220FM-12+024499999V0202301N002019999999N0020001N1-00521-00771101241ADDAY171061AY221061GF108991081001999999021999MA1999999098151MD1410001+9999MW1731REMSYN072AAXX  30001 28334 41920 82302 11052 21077 39815 40124 54000 77372 8802/;
0173283340999992000013003004+57350+058220FM-12+024499999V0202301N002019999999N0150001N1-00501-00631101261ADDAJ100699199999999AY171031AY221031GF108991081001999999021999IA1239MD1310021+9999MW1711REMSYN076AAXX  30031 28334 /1965 82302 11050 21063 40126 53002 77172 8802/ 333 47069;
0202283340999992000013006004+57350+058220FM-12+024499999V0202301N004010069019N0060001N1-00441-00601101551ADDAA112002091AY181061AY271061GA1051+006909099GF106991051031008001031001KA1120N-00941MD1210291+9999MW1261REMSYN088AAXX  30061 28334 11556 62304 11044 21060 40155 52029 60022 72687 85330 333 21094 85923;
0166283340999992000013009004+57350+058220FM-12+024499999V0202301N002010069019N0500001N1-00581-00921101711ADDAY181031AY221031GA1051+006909099GF106991051031008001031001MD1210131+9999MW1021REMSYN076AAXX  30091 28334 41599 62302 11058 21092 40171 52013 70282 85330 333 85923;
0187283340999992000013012004+57350+058220FM-12+024499999V0209999C000010069019N0500001N1-00761-01211101891ADDAY181061AY221061GA1051+006909099GF105991051031008001001001MA1999999098761MD1210171+9999MW1011REMSYN082AAXX  30121 28334 41599 50000 11076 21121 39876 40189 52017 70182 85300 333 85923;
0145283340999992000013015004+57350+058220FM-12+024499999V0209999C000012200019N0500001N1-00981-01451102161ADDGA1001+999999999GF100991001001999999001001KA1999M-00431MD1210221+9999REMSYN064AAXX  30151 28334 /2984 00000 11098 21145 40216 52022 333 11043;
0162283340999992000013018004+57350+058220FM-12+024499999V0209999C000012200019N0500001N1-01681-02101102271ADDAA112002091GA1001+999999999GF100991001001999999001001KA1999M-00431MD1210021+9999REMSYN070AAXX  30181 28334 12984 00000 11168 21210 40227 52002 60022 333 11043;
0122283340999992000013021004+57350+058220FM-12+024499999V0209999C000012200019N0500001N1-01941-02351102361ADDGA1001+999999999GF100991001001999999001001MD1210071+9999REMSYN054AAXX  30211 28334 42984 00000 11194 21235 40236 52007;
0133283340999992000013100004+57350+058220FM-12+024499999V0209999C000019999999N0500001N1-01761-02171102461ADDGF108991081001999999021999MA1999999099171MD1210101+9999REMSYN066AAXX  31001 28334 42984 80000 11176 21217 39917 40246 52010 8802/;
0173283340999992000013103004+57350+058220FM-12+024499999V0209999C000019999999N0500001N1-01371-01801102321ADDAJ100699199999999AY171031AY221031GF108991081001999999021999IA1239MD1810081+9999MW1021REMSYN076AAXX  31031 28334 /1984 80000 11137 21180 40232 58008 70272 8802/ 333 47069;
0180283340999992000013106004+57350+058220FM-12+024499999V0209999C000019999999N0500001N1-00741-00911102101ADDAA112000191AY171061AY221061GF108991081001999999021999KA1999N-01941MD1710131+9999MW1021REMSYN082AAXX  31061 28334 11999 80000 11074 21091 40210 57013 69922 70272 8802/ 333 21194;
0140283340999992000013109004+57350+058220FM-12+024499999V0209999C000019999999N0200001N1-00131-00301101931ADDAY171031AY221031GF108991081001999999021999MD1710101+9999MW1711REMSYN066AAXX  31091 28334 41970 80000 11013 21030 40193 57010 77172 8802/;
0187283340999992000013112004+57350+058220FM-12+024499999V0202001N004010060019N0500001N1-00071-00321101741ADDAY171061AY221061GA1061+006009099GF106991061031008001001001MA1999999098691MD1710171+9999MW1011REMSYN082AAXX  31121 28334 41599 62004 11007 21032 39869 40174 57017 70172 86300 333 86920;
0135283340999992000013115004+57350+058220FM-12+024499999V0202001N004012200019N0500001N1-00171-00481101671ADDGF103991031031008001001001KA1999M-00061MD1710081+9999REMSYN070AAXX  31151 28334 /2584 32004 11017 21048 40167 57008 83300 333 11006;
0152283340999992000013118004+57350+058220FM-12+024499999V0202001N006012200019N0500001N1-00201-00481101571ADDAA112000391GF103991031031008001001001KA1999M-00061MD1710111+9999REMSYN076AAXX  31181 28334 12584 32006 11020 21048 40157 57011 69932 83300 333 11006;
0122283340999992000013121004+57350+058220FM-12+024499999V0202001N004012200019N0500001N1-00651-00931101341ADDGA1001+999999999GF100991001001999999001001MD1710261+9999REMSYN054AAXX  31211 28334 42984 02004 11065 21093 40134 57026;
0196283340999992000020100004+57350+058220FM-12+024499999V0202001N006010072019N0150001N1-00601-00831999999ADDAY181061AY211061GA1081+007209099GF108991081031008001999999MA1999999098061MD1710111+9999ME1430189MW1841REMSYN082AAXX  01001 28334 41565 82006 11060 21083 39806 47018 57011 78481 883// 333 88924;
0202283340999992000020106004+57350+058220FM-12+024499999V0202001N002010060019N0200001N1-00201-00381100741ADDAA112000591AY181061AY271061GA1081+006009029GF108991081001008001021999KA1120N-00651MD1710071+9999MW1711REMSYN088AAXX  01061 28334 11570 82002 11020 21038 40074 57007 69942 77187 8802/ 333 21065 88520;
0161283340999992000020112004+57350+058220FM-12+024499999V0202001N002019999999N0500001N1-00201-00381100681ADDAY171061AY221061GF108991081001999999021999MA1999999097631MD1710021+9999MW1021REMSYN072AAXX  01121 28334 41999 82002 11020 21038 39763 40068 57002 70272 8802/;
0176283340999992000020115004+57350+058220FM-12+024499999V0202001N002010060019N0500001N1-00241-00501100651ADDGA1081+006009029GF108991999071008001021999KA1120M+00161MD1710021+9999REMSYN076AAXX  01151 28334 /2584 82002 11024 21050 40065 57002 8872/ 333 10016 88820;EQDQ01+000082SCOTLC
0202283340999992000020118004+57350+058220FM-12+024499999V0202001N002010060019N0150001N1-00291-00561100591ADDAA112000591AY171061AY221061GA1081+006009029GF108991081001008001021999KA1120M-00161MD1710071+9999MW1711REMSYN088AAXX  01181 28334 11565 82002 11029 21056 40059 57007 69942 77172 8802/ 333 11016 88520;
0166283340999992000020121004+57350+058220FM-12+024499999V0202001N002010060019N0500001N1-00341-00591100551ADDAY171031AY221031GA1081+006009029GF108991081001008001021999MD1710041+9999MW1021REMSYN076AAXX  01211 28334 41584 82002 11034 21059 40055 57004 70272 8802/ 333 88520;
0187283340999992000020200004+57350+058220FM-12+024499999V0202001N002010060019N0500001N1-00411-00671100441ADDAY171061AY221061GA1081+006009029GF108991081001008001021999MA1999999097381MD1710121+9999MW1021REMSYN082AAXX  02001 28334 41584 82002 11041 21067 39738 40044 57012 70272 8802/ 333 88520;
0195283340999992000020203004+57350+058220FM-12+024499999V0202001N002010060019N0150001N1-00491-00701100351ADDAJ100689199999999AY171031AY221031GA1081+006009029GF108991081001008001021999IA1239MD1710091+9999MW1711REMSYN082AAXX  02031 28334 /1565 82002 11049 21070 40035 57009 77172 8802/ 333 47068 88520;
0202283340999992000020206004+57350+058220FM-12+024499999V0209999C000010069019N0060001N1-00491-00621100351ADDAA112000591AY171061AY221061GA1081+006909029GF108991081001008001021999KA1120N-00501MD1410001+9999MW1711REMSYN088AAXX  02061 28334 11556 80000 11049 21062 40035 54000 69942 77172 8802/ 333 21050 88523;
0185283340999992000020209004+57350+058220FM-12+024499999V0209999C000010069019N0060001N1-00421-00681100311ADDAY171031AY221031GA1081+006909069GF108991999071008001021999MD1810031+9999MW1711REMSYN076AAXX  02091 28334 41556 80000 11042 21068 40031 58003 77172 8872/ 333 88723;EQDQ01+000082SCOTLC
0187283340999992000020212004+57350+058220FM-12+024499999V0202301N002010069019N0200001N1-00451-00721100301ADDAY171061AY221061GA1081+006909069GF108991061071008001071041MA1999999097251MD1710011+9999MW1701REMSYN082AAXX  02121 28334 41570 82302 11045 21072 39725 40030 57001 77072 86774 333 88723;
0163283340999992000020215004+57350+058220FM-12+024499999V0209999C000019999999N0500001N1-00511-00761100331ADDAY171031AY221031GF108991081001999999021999KA1999M-00411MD1310021+9999MW1021REMSYN076AAXX  02151 28334 /1984 80000 11051 21076 40033 53002 70272 8802/ 333 11041;
0180283340999992000020218004+57350+058220FM-12+024499999V0209999C000019999999N0150001N1-00581-00761100361ADDAA112000191AY171061AY221061GF108991081001999999021999KA1999M-00411MD1310011+9999MW1711REMSYN082AAXX  02181 28334 11965 80000 11058 21076 40036 53001 69912 77172 8802/ 333 11041;
0159283340999992000020221004+57350+058220FM-12+024499999V0209999C000012200019N0500001N1-00981-01191100451ADDAY171031AY211031GF102991999001999999011001MD1210051+9999MW1011REMSYN066AAXX  02211 28334 41984 20000 11098 21119 40045 52005 70171 83010;EQDQ01+000032SCOTLC
0171283340999992000020300004+57350+058220FM-12+024499999V0209999C000012200019N0500001N1-01221-01491100421ADDAY171061AY211061GA1001+999999999GF100991001001999999001001MA1999999097271MD1810061+9999MW1011REMSYN066AAXX  03001 28334 41984 00000 11122 21149 39727 40042 58006 70171;
0173283340999992000020303004+57350+058220FM-12+024499999V0202301N002019999999N0150001N1-01561-01831100471ADDAJ100689199999999AY171031AY211031GF108991081001999999021999IA1239MD1410001+9999MW1711REMSYN076AAXX  03031 28334 /1965 82302 11156 21183 40047 54000 77171 8802/ 333 47068;
0202283340999992000020306004+57350+058220FM-12+024499999V0209999C000010069019N0500001N1-01501-01701100471ADDAA112000191AY171061AY211061GA1051+006909099GF106991051031008001031001KA1120N-01561MD1210021+9999MW1011REMSYN088AAXX  03061 28334 11599 60000 11150 21170 40047 52002 69922 70171 85330 333 21156 85923;
0138283340999992000020309004+57350+058220FM-12+024499999V0202301N002010069019N0500001N1-00861-01241100221ADDGA1051+006909099GF106991051031008001031001MD1810171+9999REMSYN070AAXX  03091 28334 42599 62302 11086 21124 40022 58017 85330 333 85923;
0187283340999992000020312004+57350+058220FM-12+024499999V0202001N004010060019N0200001N1-00691-00981099971ADDAY171061AY231061GA1081+006009029GF108991081001008001021999MA1999999096891MD1710231+9999MW1711REMSYN082AAXX  03121 28334 41570 82004 11069 21098 39689 49997 57023 77173 8802/ 333 88520;
0185283340999992000020315004+57350+058220FM-12+024499999V0201801N004010060019N0150001N1-00771-00991099611ADDAY171031AY231031GA1081+006009029GF108991081001008001021999KA1120M-00681MD1710351+9999MW1711REMSYN082AAXX  03151 28334 /1565 81804 11077 21099 49961 57035 77173 8802/ 333 11068 88520;
0202283340999992000020318004+57350+058220FM-12+024499999V0202001N002010069019N0060001N1-00731-00941099461ADDAA112001091AY171061AY231061GA1081+006909029GF108991081001008001021999KA1120M-00681MD1710141+9999MW1711REMSYN088AAXX  03181 28334 11556 82002 11073 21094 49946 57014 60012 77173 8802/ 333 11068 88523;
0166283340999992000020321004+57350+058220FM-12+024499999V0202001N002010069019N0020001N1-00761-00941099361ADDAY171031AY221031GA1081+006909029GF108991081001008001021999MD1710101+9999MW1731REMSYN076AAXX  03211 28334 41520 82002 11076 21094 49936 57010 77372 8802/ 333 88523;
0187283340999992000020400004+57350+058220FM-12+024499999V0202001N002010069019N0020001N1-00751-00921099361ADDAY171061AY221061GA1081+006909029GF108991081001008001021999MA1999999096301MD1410001+9999MW1731REMSYN082AAXX  04001 28334 41520 82002 11075 21092 39630 49936 54000 77372 8802/ 333 88523;
0195283340999992000020403004+57350+058220FM-12+024499999V0202301N002010069019N0500001N1-00731-00901099401ADDAJ100719199999999AY171031AY221031GA1081+006909029GF108991081001008001021999IA1239MD1310041+9999MW1021REMSYN082AAXX  04031 28334 /1584 82302 11073 21090 49940 53004 70272 8802/ 333 47071 88523;
0202283340999992000020406004+57350+058220FM-12+024499999V0209999C000010060019N0200001N1-00711-00841099571ADDAA112002091AY171061AY221061GA1081+006009029GF108991081001008001021999KA1120N-00771MD1210071+9999MW1711REMSYN088AAXX  04061 28334 11570 80000 11071 21084 49957 52007 60022 77172 8802/ 333 21077 88520;
0166283340999992000020409004+57350+058220FM-12+024499999V0209999C000010069019N0500001N1-00681-00881099531ADDAY171031AY221031GA1081+006909029GF108991081001008001021999MD1210051+9999MW1021REMSYN076AAXX  04091 28334 41599 80000 11068 21088 49953 52005 70272 8802/ 333 88523;
0187283340999992000020412004+57350+058220FM-12+024499999V0209999C000010060019N0500001N1-00711-00961099671ADDAY171061AY221061GA1061+006009069GF106991061071008001001001MA1999999096601MD1210141+9999MW1011REMSYN082AAXX  04121 28334 41599 60000 11071 21096 39660 49967 52014 70172 86700 333 86720;
0185283340999992000020415004+57350+058220FM-12+024499999V0209999C000010060019N0150001N1-00831-01021099851ADDAY171031AY221031GA1081+006009069GF108991081071008001999999KA1120M-00671MD1210161+9999MW1711REMSYN082AAXX  04151 28334 /1565 80000 11083 21102 49985 52016 77172 887// 333 11067 88720;
0221283340999992000020418004+57350+058220FM-12+024499999V0202301N002010060019N0500001N1-01021-01221100241ADDAA100999999AY171061AY221061GA1081+006009069GF108991081071008001999999KA1120M-00671MD1210361+9999MW1021REMSYN088AAXX  04181 28334 11584 82302 11102 21122 40024 52036 69320 70272 887// 333 11067 88720;EQDQ01  93192PRCP00
0166283340999992000020421004+57350+058220FM-12+024499999V0202301N002010060019N0150001N1-01091-01291100281ADDAY171031AY221031GA1081+006009069GF108991081071008001999999MD1210031+9999MW1711REMSYN076AAXX  04211 28334 41565 82302 11109 21129 40028 52003 77172 887// 333 88720;
0187283340999992000020500004+57350+058220FM-12+024499999V0202301N002010060019N0500001N1-01121-01321100491ADDAY171061AY221061GA1081+006009069GF108991081071008001999999MA1999999097351MD1210201+9999MW1021REMSYN082AAXX  05001 28334 41584 82302 11112 21132 39735 40049 52020 70272 887// 333 88720;
0167283340999992000020503004+57350+058220FM-12+024499999V0202301N002010060019N0500001N1-01161-01441100571ADDAJ100719199999999GA1081+006009069GF108991081071008001999999IA1239MD1210081+9999REMSYN076AAXX  05031 28334 /2584 82302 11116 21144 40057 52008 887// 333 47071 88720;
0152283340999992000020506004+57350+058220FM-12+024499999V0202301N002012200019N0500001N1-01081-01441100601ADDAA112000391GF102991021001999999011001KA1999N-01161MD1210031+9999REMSYN076AAXX  05061 28334 12999 22302 11108 21144 40060 52003 69932 82010 333 21116;
0166283340999992000020509004+57350+058220FM-12+024499999V0202301N002010069019N0500001N1-00921-01261100711ADDAY171031AY231031GA1051+006909099GF106991051031008001031001MD1210131+9999MW1381REMSYN076AAXX  05091 28334 41599 62302 11092 21126 40071 52013 73873 85330 333 85923;
0161283340999992000020512004+57350+058220FM-12+024499999V0202301N002012200019N0500001N1-01021-01381100771ADDAY171061AY231061GF103991031001999999011001MA1999999097641MD1210051+9999MW1011REMSYN072AAXX  05121 28334 41999 32302 11102 21138 39764 40077 52005 70173 83010;
0112283340999992000020515004+57350+058220FM-12+024499999V0209999C000012200019N0500001N1-01081-01361100861ADDGF103991031001999999011001MD1210081+9999REMSYN060AAXX  05151 28334 /2984 30000 11108 21136 40086 52008 83010;
0202283340999992000020518004+57350+058220FM-12+024499999V0202301N002010060019N0150001N1-01171-01441101071ADDAA112000391AY171061AY221061GA1081+006009029GF108991081001008001021999KA1120M-00911MD1210181+9999MW1711REMSYN088AAXX  05181 28334 11565 82302 11117 21144 40107 52018 69932 77172 8802/ 333 11091 88520;
0166283340999992000020521004+57350+058220FM-12+024499999V0202301N002010060019N0150001N1-01181-01451101171ADDAY171031AY221031GA1081+006009029GF108991081001008001021999MD1210091+9999MW1711REMSYN076AAXX  05211 28334 41565 82302 11118 21145 40117 52009 77172 8802/ 333 88520;
0187283340999992000020600004+57350+058220FM-12+024499999V0202301N002010060019N0150001N1-01201-01471101241ADDAY171061AY221061GA1081+006009029GF108991081001008001021999MA1999999098061MD1210071+9999MW1711REMSYN082AAXX  06001 28334 41565 82302 11120 21147 39806 40124 52007 77172 8802/ 333 88520;
0145283340999992000020603004+57350+058220FM-12+024499999V0209999C000012200019N0500001N1-01351-01621101331ADDAJ100709199999999GF103991031001999999041001IA1239MD1210081+9999REMSYN070AAXX  06031 28334 /1984 30000 11135 21162 40133 52008 83040 333 47070;
0221283340999992000020606004+57350+058220FM-12+024499999V0209999C000010069019N0060001N1-01611-01801101471ADDAA112000591AY171061AY211061GA1061+006909029GF107991061081008001001021KA1120N+99999MD1210111+9999MW1101REMSYN088AAXX  06061 28334 11556 70000 11161 21180 40147 52011 69962 71071 86802 333 21136 86823;EQDQ01 -01362ATMN  
0112283340999992000020609004+57350+058220FM-12+024499999V0209999C000010300019N0500001N1-01061-01341101481ADDGF108991021051008001021999MD1210071+9999REMSYN060AAXX  06091 28334 42599 80000 11106 21134 40148 52007 8252/;
0159283340999992000020612004+57350+058220FM-12+024499999V0209999C000010069019N0500001N1-00931-01281101531ADDGA1081+006909029GF108991081001008001021999MA1999999098381MD1210061+9999REMSYN076AAXX  06121 28334 42599 80000 11093 21128 39838 40153 52006 8802/ 333 88523;
0187283340999992000020615004+57350+058220FM-12+024499999V0202301N002010069019N0500001N1-01041-01401101671ADDAA199000091GA1071+006909029GF107991071071008001011001KA1120M-00831MD1210131+9999REMSYN076AAXX  06151 28334 32584 72302 11104 21140 40167 52013 87710 333 11083 87823;EQDQ01  00002PRCP99
0203283340999992000020618004+57350+058220FM-12+024499999V0202301N002010069019N0500001N1-01061-01421101631ADDAA199000091GA1071+006909029GF107991071071008001011001KA1120N+99999MD1810041+9999REMSYN076AAXX  06181 28334 32584 72302 11106 21142 40163 58004 87710 333 21083 87823;EQDQ01  00002PRCP99Q02 -00832ATMN  
0112283340999992000020621004+57350+058220FM-12+024499999V0209999C000019999999N0500001N1-00961-01261101841ADDGF108991081001999999021999MD1310211+9999REMSYN060AAXX  06211 28334 42984 80000 11096 21126 40184 53021 8802/;
0163283340999992000020700004+57350+058220FM-12+024499999V0209999C000019999999N0500001N1-00901-01151101661ADDAA100999999GF108991999999999999999999MA1999999098511MD1810171+9999REMSYN066AAXX  07001 28334 42984 80000 11090 21115 39851 40166 58017 6802/;EQDQ01  80192PRCP00
0173283340999992000020703004+57350+058220FM-12+024499999V0202301N002019999999N0150001N1-00941-01151101581ADDAJ100709199999999AY171031AY221031GF108991081001999999021999IA1239MD1710081+9999MW1711REMSYN076AAXX  07031 28334 /1965 82302 11094 21115 40158 57008 77172 8802/ 333 47070;
0180283340999992000020706004+57350+058220FM-12+024499999V0209999C000019999999N0500001N1-00961-01261101621ADDAA112000191AY171061AY221061GF108991081001999999021999KA1999N-01061MD1310041+9999MW1021REMSYN082AAXX  07061 28334 11999 80000 11096 21126 40162 53004 69922 70272 8802/ 333 21106;
0140283340999992000020709004+57350+058220FM-12+024499999V0209999C000019999999N0500001N1-00661-01161101551ADDAY171031AY221031GF108991081001999999021999MD1810031+9999MW1221REMSYN066AAXX  07091 28334 41999 80000 11066 21116 40155 58003 72272 8802/;
0161283340999992000020712004+57350+058220FM-12+024499999V0209999C000019999999N0500001N1-00581-01101101441ADDAY171061AY221061GF106991061001999999031001MA1999999098391MD1710111+9999MW1021REMSYN072AAXX  07121 28334 41999 60000 11058 21110 39839 40144 57011 70272 86030;
0135283340999992000020715004+57350+058220FM-12+024499999V0209999C000019999999N0500001N1-00721-01061101421ADDGF106991061001999999031001KA1999M-00571MD1710031+9999REMSYN070AAXX  07151 28334 /2984 60000 11072 21106 40142 57003 86030 333 11057;
0180283340999992000020718004+57350+058220FM-12+024499999V0209999C000019999999N0200001N1-01191-01391101421ADDAA112000391AY171061AY221061GF107991071001999999011001KA1999M-00571MD1710061+9999MW1701REMSYN082AAXX  07181 28334 11970 70000 11119 21139 40142 57006 69932 77072 87010 333 11057;
0112283340999992000020721004+57350+058220FM-12+024499999V0209999C000019999999N0500001N1-01421-01551101471ADDGF108991081001999999021999MD1310021+9999REMSYN060AAXX  07211 28334 41984 80000 11142 21155 40147 53002 8802/;
0161283340999992000020800004+57350+058220FM-12+024499999V0209999C000019999999N0500001N1-01441-01571101491ADDAY171061AY221061GF108991081001999999011001MA1999999098281MD1210021+9999MW1221REMSYN072AAXX  08001 28334 41984 80000 11144 21157 39828 40149 52002 72272 88010;
0164283340999992000020803004+57350+058220FM-12+024499999V0209999C000019999999N0500001N1-01721-01911101551ADDAJ100679199999999GF108991999001999999041001IA1239MD1210021+9999REMSYN070AAXX  08031 28334 /2984 80000 11172 21191 40155 52002 87040 333 47067;EQDQ01+000072SCOTLC
0152283340999992000020806004+57350+058220FM-12+024499999V0209999C000019999999N0500001N1-01691-01881101611ADDAA112000391GF107991071001999999081001KA1999N-01731MD1210061+9999REMSYN076AAXX  08061 28334 12999 70000 11169 21188 40161 52006 69932 87080 333 21173;
0112283340999992000020809004+57350+058220FM-12+024499999V0209999C000012200019N0500001N1-00761-01311101441ADDGF103991031001999999041001MD1810041+9999REMSYN060AAXX  08091 28334 42999 30000 11076 21131 40144 58004 83040;
0133283340999992000020812004+57350+058220FM-12+024499999V0209999C000019999999N0500001N1-00681-01061101451ADDGF107991071001999999011001MA1999999098331MD1310011+9999REMSYN066AAXX  08121 28334 42999 70000 11068 21106 39833 40145 53001 87010;
0163283340999992000020815004+57350+058220FM-12+024499999V0209999C000012200019N0500001N1-01061-01261101491ADDAY171031AY211031GF103991031001999999041001KA1999M-00671MD1410001+9999MW1011REMSYN076AAXX  08151 28334 /1984 30000 11106 21126 40149 54000 70171 83040 333 11067;
0180283340999992000020818004+57350+058220FM-12+024499999V0209999C000012200019N0500001N1-01501-01701101711ADDAA112000191AY171061AY211061GF103991031001999999041001KA1999M-00671MD1310161+9999MW1021REMSYN082AAXX  08181 28334 11984 30000 11150 21170 40171 53016 69922 70271 83040 333 11067;
0112283340999992000020821004+57350+058220FM-12+024499999V0209999C000012200019N0500001N1-01631-01821101751ADDGF103991031001999999041001MD1210021+9999REMSYN060AAXX  08211 28334 42984 30000 11163 21182 40175 52002 83040;
0133283340999992000020900004+57350+058220FM-12+024499999V0209999C000012200019N0500001N1-01691-01881101661ADDGF103991031001999999041001MA1999999098411MD1810101+9999REMSYN066AAXX  09001 28334 42984 30000 11169 21188 39841 40166 58010 83040;
0173283340999992000020903004+57350+058220FM-12+024499999V0202301N002019999999N0150001N1-01261-01391101591ADDAJ100699199999999AY171031AY211031GF108991081001999999021999IA1239MD1710011+9999MW1711REMSYN076AAXX  09031 28334 /1965 82302 11126 21139 40159 57001 77171 8802/ 333 47069;
0180283340999992000020906004+57350+058220FM-12+024499999V0209999C000012200019N0200001N1-01111-01311101491ADDAA112000191AY171061AY211061GF103991031001999999031001KA1999N-01691MD1710081+9999MW1711REMSYN082AAXX  09061 28334 11970 30000 11111 21131 40149 57008 69922 77171 83030 333 21169;
0166283340999992000020909004+57350+058220FM-12+024499999V0202301N002010069019N0500001N1-00681-01061101401ADDAY171031AY211031GA1061+006909059GF106991061051008001001001MD1710041+9999MW1031REMSYN076AAXX  09091 28334 41599 62302 11068 21106 40140 57004 70371 86500 333 86623;
0187283340999992000020912004+57350+058220FM-12+024499999V0201601N002010069019N0200001N1-00771-00991101381ADDAY171061AY211061GA1081+006909029GF108991081001008001021999MA1999999098261MD1710021+9999MW1711REMSYN082AAXX  09121 28334 41570 81602 11077 21099 39826 40138 57002 77171 8802/ 333 88523;
0185283340999992000020915004+57350+058220FM-12+024499999V0201601N002010069019N0500001N1-00851-01081101401ADDAY171031AY221031GA1081+006909029GF108991081001008001021999KA1120M-00671MD1410001+9999MW1021REMSYN082AAXX  09151 28334 /1584 81602 11085 21108 40140 54000 70272 8802/ 333 11067 88523;
0202283340999992000020918004+57350+058220FM-12+024499999V0209999C000010060019N0500001N1-00751-00971101401ADDAA112000391AY171061AY221061GA1081+006009029GF108991081001008001021999KA1120M-00671MD1310021+9999MW1021REMSYN088AAXX  09181 28334 11584 80000 11075 21097 40140 53002 69932 70272 8802/ 333 11067 88520;
0138283340999992000020921004+57350+058220FM-12+024499999V0209999C000010060019N0500001N1-00801-00981101431ADDGA1081+006009029GF108991081001008001021999MD1210011+9999REMSYN070AAXX  09211 28334 42584 80000 11080 21098 40143 52001 8802/ 333 88520;
0187283340999992000021000004+57350+058220FM-12+024499999V0209999C000010060019N0150001N1-00831-00971101431ADDAY171061AY221061GA1081+006009029GF108991081001008001021999MA1999999098291MD1410001+9999MW1711REMSYN082AAXX  10001 28334 41565 80000 11083 21097 39829 40143 54000 77172 8802/ 333 88520;
0195283340999992000021003004+57350+058220FM-12+024499999V0209999C000010060019N0500001N1-00641-00831101341ADDAJ100699199999999AY171031AY221031GA1081+006009029GF108991081001008001021999IA1239MD1810051+9999MW1021REMSYN082AAXX  10031 28334 /1584 80000 11064 21083 40134 58005 70272 8802/ 333 47069 88520;
0202283340999992000021006004+57350+058220FM-12+024499999V0201801N002010069019N0500001N1-00431-00701101271ADDAA112000591AY171061AY221061GA1081+006909029GF108991081001008001021999KA1120N-00851MD1710051+9999MW1021REMSYN088AAXX  10061 28334 11599 81802 11043 21070 40127 57005 69942 70272 8802/ 333 21085 88523;
0138283340999992000021009004+57350+058220FM-12+024499999V0201801N002010069019N0500001N1-00261-00671101181ADDGA1061+006909029GF108991061071008001071999MD1710071+9999REMSYN070AAXX  10091 28334 42599 81802 11026 21067 40118 57007 8677/ 333 86823;
0161283340999992000021012004+57350+058220FM-12+024499999V0209999C000019999999N0020001N1-00301-00471101151ADDAY171061AY221061GF108991081001999999021999MA1999999098081MD1710041+9999MW1731REMSYN072AAXX  10121 28334 41920 80000 11030 21047 39808 40115 57004 77372 8802/;
0163283340999992000021015004+57350+058220FM-12+024499999V0209999C000019999999N0150001N1-00351-00491101141ADDAY171031AY221031GF108991081001999999011999KA1999M-00251MD1710011+9999MW1711REMSYN076AAXX  10151 28334 /1965 80000 11035 21049 40114 57001 77172 8801/ 333 11025;
0180283340999992000021018004+57350+058220FM-12+024499999V0209999C000019999999N0150001N1-00441-00571101151ADDAA112002091AY171061AY221061GF108991081001999999021999KA1999M-00251MD1410001+9999MW1711REMSYN082AAXX  10181 28334 11965 80000 11044 21057 40115 54000 60022 77172 8802/ 333 11025;
0166283340999992000021021004+57350+058220FM-12+024499999V0209999C000010069019N0150001N1-00351-00491101131ADDAY171031AY221031GA1081+006909029GF108991081001008001021999MD1810011+9999MW1711REMSYN076AAXX  10211 28334 41565 80000 11035 21049 40113 58001 77172 8802/ 333 88523;
0187283340999992000021100004+57350+058220FM-12+024499999V0209999C000010069019N0150001N1-00371-00521101171ADDAY171061AY221061GA1081+006909029GF108991081001008001021999MA1999999098101MD1310041+9999MW1711REMSYN082AAXX  11001 28334 41565 80000 11037 21052 39810 40117 53004 77172 8802/ 333 88523;
0195283340999992000021103004+57350+058220FM-12+024499999V0209999C000010069019N0500001N1-00281-00411101211ADDAJ100739199999999AY171031AY221031GA1081+006909029GF108991081001008001021999IA1239MD1210051+9999MW1021REMSYN082AAXX  11031 28334 /1584 80000 11028 21041 40121 52005 70272 8802/ 333 47073 88523;
0202283340999992000021106004+57350+058220FM-12+024499999V0209999C000010069019N0200001N1-00161-00271101411ADDAA112002091AY171061AY221061GA1081+006909029GF108991081001008001021999KA1120N-00441MD1210141+9999MW1711REMSYN088AAXX  11061 28334 /1570 80000 11016 21027 40141 52014 60022 77172 8802/ 333 21044 88523;
0166283340999992000021109004+57350+058220FM-12+024499999V0209999C000010060019N0200001N1-00081-00181101461ADDAY171031AY221031GA1081+006009029GF108991081001008001021999MD1210071+9999MW1711REMSYN076AAXX  11091 28334 41570 80000 11008 21018 40146 52007 77172 8802/ 333 88520;
0187283340999992000021112004+57350+058220FM-12+024499999V0209999C000010060019N0500001N1+00041-00051101491ADDAY171061AY221061GA1081+006009029GF108991081001008001021999MA1999999098461MD1210041+9999MW1021REMSYN082AAXX  11121 28334 41599 80000 10004 21005 39846 40149 52004 70272 8802/ 333 88520;
0185283340999992000021115004+57350+058220FM-12+024499999V0209999C000010060019N0500001N1-00021-00111101411ADDAY171031AY221031GA1081+006009029GF108991081001008001021999KA1120M+00051MD1810091+9999MW1021REMSYN082AAXX  11151 28334 /1584 80000 11002 21011 40141 58009 70272 8802/ 333 10005 88520;
0202283340999992000021118004+57350+058220FM-12+024499999V0209999C000010060019N0500001N1-00031-00061101371ADDAA112000891AY171061AY251061GA1081+006009029GF108991081071008001999999KA1120M+00051MD1710041+9999MW1021REMSYN088AAXX  11181 28334 11584 80000 11003 21006 40137 57004 69972 70275 887// 333 10005 88820;
0166283340999992000021121004+57350+058220FM-12+024499999V0209999C000010069019N0060001N1-00091-00091101301ADDAY121031AY221031GA1081+006909029GF108991081071008001999999MD1710071+9999MW1101REMSYN076AAXX  11211 28334 41556 80000 11009 21009 40130 57007 71022 887// 333 88823;
0178283340999992000021200004+57350+058220FM-12+024499999V0209999C000010069019N0500001N1-00131-00161101241ADDGA1081+006909029GF108991999071008001021999MA1999999098191MD1710071+9999REMSYN076AAXX  12001 28334 42584 80000 11013 21016 39819 40124 57007 8872/ 333 88823;EQDQ01+000082SCOTLC
0214283340999992000021203004+57350+058220FM-12+024499999V0209999C000010069019N0150001N1-00141-00171101191ADDAJ100739199999999AY171031AY221031GA1081+006909029GF108991999071008001021999IA1279MD1710051+9999MW1701REMSYN082AAXX  12031 28334 /1565 80000 11014 21017 40119 57005 77072 8872/ 333 43073 88823;EQDQ01+000082SCOTLC
0202283340999992000021206004+57350+058220FM-12+024499999V0209999C000010060019N0200001N1-00121-00181101171ADDAA112000391AY171061AY221061GA1081+006009029GF108991081001008001021999KA1120N-00141MD1710021+9999MW1701REMSYN088AAXX  12061 28334 11570 80000 11012 21018 40117 57002 69932 77072 8802/ 333 21014 88520;
0166283340999992000021209004+57350+058220FM-12+024499999V0209999C000010069019N0500001N1-00071-00221101091ADDAY171031AY221031GA1081+006909029GF108991081001008001021999MD1710061+9999MW1021REMSYN076AAXX  12091 28334 41599 80000 11007 21022 40109 57006 70272 8802/ 333 88523;
0206283340999992000021212004+57350+058220FM-12+024499999V0209999C000010069019N0500001N1-00061-00241101091ADDAY171061AY221061GA1081+006909029GF108991999071008001021999MA1999999098061MD1410001+9999MW1021REMSYN082AAXX  12121 28334 41599 80000 11006 21024 39806 40109 54000 70272 8872/ 333 88823;EQDQ01+000082SCOTLC
0185283340999992000021215004+57350+058220FM-12+024499999V0209999C000010069019N0150001N1-00151-00301101121ADDAY171031AY221031GA1081+006909029GF108991081001008001021999KA1120M-00051MD1310011+9999MW1701REMSYN082AAXX  12151 28334 /1565 80000 11015 21030 40112 53001 77072 8802/ 333 11005 88523;
0202283340999992000021218004+57350+058220FM-12+024499999V0209999C000010069019N0150001N1-00231-00381101161ADDAA112000591AY171061AY221061GA1081+006909029GF108991081001008001021999KA1120M-00051MD1210031+9999MW1701REMSYN088AAXX  12181 28334 11565 80000 11023 21038 40116 52003 69942 77072 8802/ 333 11005 88523;
0166283340999992000021221004+57350+058220FM-12+024499999V0209999C000010060019N0150001N1-00351-00461101211ADDAY171031AY221031GA1081+006009029GF108991081001008001021999MD1210041+9999MW1711REMSYN076AAXX  12211 28334 41565 80000 11035 21046 40121 52004 77172 8802/ 333 88520;
0187283340999992000021300004+57350+058220FM-12+024499999V0209999C000010060019N0150001N1-00361-00471101211ADDAY171061AY221061GA1081+006009029GF108991081001008001021999MA1999999098141MD1410001+9999MW1711REMSYN082AAXX  13001 28334 41565 80000 11036 21047 39814 40121 54000 77172 8802/ 333 88520;
0195283340999992000021303004+57350+058220FM-12+024499999V0209999C000010060019N0150001N1-00301-00371101181ADDAJ100739199999999AY171031AY221031GA1081+006009029GF108991081001008001021999IA1279MD1810031+9999MW1711REMSYN082AAXX  13031 28334 /1565 80000 11030 21037 40118 58003 77172 8802/ 333 43073 88520;
0202283340999992000021306004+57350+058220FM-12+024499999V0209999C000010069019N0200001N1-00181-00261101081ADDAA112001091AY171061AY221061GA1081+006909059GF108991081051008001001001KA1120N-00361MD1710081+9999MW1711REMSYN088AAXX  13061 28334 11570 80000 11018 21026 40108 57008 60012 77172 88500 333 21036 88623;
0166283340999992000021309004+57350+058220FM-12+024499999V0209999C000010060019N0200001N1-00031-00121101031ADDAY171031AY221031GA1081+006009029GF108991081001008001021999MD1710031+9999MW1711REMSYN076AAXX  13091 28334 41570 80000 11003 21012 40103 57003 77172 8802/ 333 88520;
0187283340999992000021312004+57350+058220FM-12+024499999V0209999C000010060019N0200001N1-00111-00211101111ADDAY171061AY221061GA1081+006009029GF108991081001008001021999MA1999999098051MD1310051+9999MW1711REMSYN082AAXX  13121 28334 41570 80000 11011 21021 39805 40111 53005 77172 8802/ 333 88520;
0185283340999992000021315004+57350+058220FM-12+024499999V0209999C000010060019N0500001N1-00271-00431101141ADDAY171031AY221031GA1081+006009029GF108991081001008001021999KA1120M-00021MD1210031+9999MW1021REMSYN082AAXX  13151 28334 /1584 80000 11027 21043 40114 52003 70272 8802/ 333 11002 88520;
0202283340999992000021318004+57350+058220FM-12+024499999V0209999C000010060019N0500001N1-00331-00471101151ADDAA112000891AY171061AY221061GA1081+006009029GF108991081001008001021999KA1120M-00021MD1410001+9999MW1021REMSYN088AAXX  13181 28334 11584 80000 11033 21047 40115 54000 69982 70272 8802/ 333 11002 88520;
0138283340999992000021321004+57350+058220FM-12+024499999V0209999C000010060019N0500001N1-00451-00581101111ADDGA1081+006009029GF108991081001008001021999MD1810051+9999REMSYN070AAXX  13211 28334 42584 80000 11045 21058 40111 58005 8802/ 333 88520;
0187283340999992000021400004+57350+058220FM-12+024499999V0209999C000010060019N0150001N1-00511-00611101061ADDAY171061AY221061GA1081+006009029GF108991081001008001021999MA1999999097971MD1710061+9999MW1711REMSYN082AAXX  14001 28334 41565 80000 11051 21061 39797 40106 57006 77172 8802/ 333 88520;
0195283340999992000021403004+57350+058220FM-12+024499999V0201601N002010060019N0150001N1-00461-00591100981ADDAJ100749199999999AY171031AY221031GA1081+006009029GF108991081001008001021999IA1239MD1710061+9999MW1711REMSYN082AAXX  14031 28334 /1565 81602 11046 21059 40098 57006 77172 8802/ 333 47074 88520;
0202283340999992000021406004+57350+058220FM-12+024499999V0201801N002010069019N0060001N1-00351-00461100931ADDAA112000591AY171061AY221061GA1081+006909029GF108991081001008001021999KA1120N-00511MD1710041+9999MW1701REMSYN088AAXX  14061 28334 11556 81802 11035 21046 40093 57004 69962 77072 8802/ 333 21051 88523;
0185283340999992000021409004+57350+058220FM-12+024499999V0209999C000010069019N0200001N1-00221-00411100941ADDAY171031AY221031GA1081+006909029GF108991999071008001021999MD1310021+9999MW1701REMSYN076AAXX  14091 28334 41570 80000 11022 21041 40094 53002 77072 8872/ 333 88823;EQDQ01+000082SCOTLC
0206283340999992000021412004+57350+058220FM-12+024499999V0209999C000010069019N0200001N1-00211-00371100931ADDAY171061AY221061GA1081+006909029GF108991999071008001021999MA1999999097881MD1810011+9999MW1701REMSYN082AAXX  14121 28334 41570 80000 11021 21037 39788 40093 58001 77072 8872/ 333 88823;EQDQ01+000082SCOTLC
0204283340999992000021415004+57350+058220FM-12+024499999V0209999C000010060019N0060001N1-00261-00361100971ADDAY171031AY221031GA1081+006009029GF108991999071008001021999KA1120M-00201MD1310041+9999MW1711REMSYN082AAXX  14151 28334 /1556 80000 11026 21036 40097 53004 77172 8872/ 333 11020 88820;EQDQ01+000082SCOTLC
0183283340999992000021418004+57350+058220FM-12+024499999V0209999C000010060019N0500001N1-00281-00441101091ADDAA112001091AY171061AY221061GA1081+006009029GF108991081001008001021999MD1710121+9999MW1711REMSYN082AAXX  14181 28334 41584 80000 11028 21044 40109 57012 60012 77172 8802/ 333 88820;
0166283340999992000021421004+57350+058220FM-12+024499999V0209999C000010060019N0500001N1-00301-00371101511ADDAY171031AY221031GA1081+006009029GF108991081001008001021999MD1310041+9999MW1711REMSYN076AAXX  14211 28334 42584 80000 11030 21037 40151 53004 77172 8802/ 333 88520;
0133283340999992000021500004+57350+058220FM-12+024499999V02099999999992200019N0500001N1-00431-00551101111ADDGF103991031001999999011001MA1999999098031MD1810381+9999REMSYN066AAXX  15001 28334 42984 3000/ 11043 21055 39803 40111 58038 83010;
0145283340999992000021503004+57350+058220FM-12+024499999V0209999C000019999999N0500001N1-00511-00661101051ADDAJ100749199999999GF108991081001999999021999IA1239MD1710081+9999REMSYN070AAXX  15031 28334 /1984 80000 11051 21066 40105 57008 8802/ 333 47074;
0202283340999992000021506004+57350+058220FM-12+024499999V0209999C000010060019N0200001N1-00401-00551101171ADDAA112000191AY171061AY221061GA1081+006009029GF108991081001008001021999KA1120N-00511MD1310141+9999MW1711REMSYN088AAXX  15061 28334 11570 80000 11040 21055 40117 53014 69922 77172 8802/ 333 21051 88520;
0166283340999992000021509004+57350+058220FM-12+024499999V0202301N002010060019N0020001N1-00281-00441101131ADDAY171031AY221031GA1081+006009029GF108991081001008001021999MD1810021+9999MW1731REMSYN076AAXX  15091 28334 41520 82302 11028 21044 40113 58002 77372 8802/ 333 88520;
0187283340999992000021512004+57350+058220FM-12+024499999V0202301N004010060019N0200001N1-00261-00421101421ADDAY171061AY221061GA1081+006009029GF108991081001008001021999MA1999999098351MD1310281+9999MW1711REMSYN082AAXX  15121 28334 41570 82304 11026 21042 39835 40142 53028 77172 8802/ 333 88520;
0185283340999992000021515004+57350+058220FM-12+024499999V0202301N002010060019N0150001N1-00321-00491101501ADDAY171031AY221031GA1081+006009029GF108991081001008001021999KA1120M-00251MD1210071+9999MW1711REMSYN082AAXX  15151 28334 /1565 82302 11032 21049 40150 52007 77172 8802/ 333 11025 88520;
0221283340999992000021518004+57350+058220FM-12+024499999V0202301N002010069019N0500001N1-00361-00471101531ADDAA112002091AY171061AY221061GA1081+006909029GF108991999071008001021999KA1120M-00251MD1210031+9999MW1221REMSYN088AAXX  15181 28334 11584 82302 11036 21047 40153 52003 60022 72272 8872/ 333 11025 88823;EQDQ01+000082SCOTLC
0138283340999992000021521004+57350+058220FM-12+024499999V0202301N002010069019N0500001N1-00391-00541101611ADDGA1061+006909029GF108991061071008001071999MD1210071+9999REMSYN070AAXX  15211 28334 42584 82302 11039 21054 40161 52007 8677/ 333 86823;
0178283340999992000021600004+57350+058220FM-12+024499999V0202001N002010060019N0500001N1-00471-00641101621ADDGA1081+006009029GF108991999071008001021999MA1999999098531MD1210011+9999REMSYN076AAXX  16001 28334 42584 82002 11047 21064 39853 40162 52001 8872/ 333 88820;EQDQ01+000082SCOTLC
0173283340999992000021603004+57350+058220FM-12+024499999V0201801N002019999999N0060001N1-00481-00651101591ADDAJ100779199999999AY171031AY221031GF108991081001999999021999IA1239MD1810031+9999MW1711REMSYN076AAXX  16031 28334 /1956 81802 11048 21065 40159 58003 77172 8802/ 333 47077;
0180283340999992000021606004+57350+058220FM-12+024499999V0201801N002019999999N0200001N1-00451-00651101461ADDAA112001091AY171061AY221061GF108991081001999999021999KA1999N-00491MD1710131+9999MW1711REMSYN082AAXX  16061 28334 11970 81802 11045 21065 40146 57013 60012 77172 8802/ 333 21049;
0140283340999992000021609004+57350+058220FM-12+024499999V0201801N002019999999N0200001N1-00301-00541101431ADDAY171031AY221031GF108991081001999999011999MD1710021+9999MW1711REMSYN066AAXX  16091 28334 41970 81802 11030 21054 40143 57002 77172 8801/;
0187283340999992000021612004+57350+058220FM-12+024499999V0201801N002010069019N0200001N1-00291-00491101461ADDAY171061AY221061GA1081+006909029GF108991081071008001999999MA1999999098381MD1310031+9999MW1711REMSYN082AAXX  16121 28334 41570 81802 11029 21049 39838 40146 53003 77172 887// 333 88823;
0185283340999992000021615004+57350+058220FM-12+024499999V0201801N002010060019N0150001N1-00451-00611101601ADDAY171031AY221031GA1081+006009029GF108991081001008001021999KA1120M-00281MD1210131+9999MW1711REMSYN082AAXX  16151 28334 /1565 81802 11045 21061 40160 52013 77172 8802/ 333 11028 88520;
0180283340999992000021618004+57350+058220FM-12+024499999V0209999C000019999999N0500001N1-00481-00681101781ADDAA112002091AY171061AY211061GF108991081001999999021999KA1999M-00281MD1210171+9999MW1021REMSYN082AAXX  16181 28334 /1984 80000 11048 21068 40178 52017 60022 70271 8802/ 333 11028;
0112283340999992000021621004+57350+058220FM-12+024499999V0209999C000019999999N0500001N1-00521-00731101791ADDGF108991081001999999021999MD1410001+9999REMSYN060AAXX  16211 28334 42984 80000 11052 21073 40179 54000 8802/;
0187283340999992000021700004+57350+058220FM-12+024499999V0209999C000010060019N0150001N1-00501-00671101751ADDAY171061AY221061GA1081+006009029GF108991081001008001021999MA1999999098641MD1810041+9999MW1711REMSYN082AAXX  17001 28334 41565 80000 11050 21067 39864 40175 58004 77172 8802/ 333 88520;
0195283340999992000021703004+57350+058220FM-12+024499999V0209999C000010060019N0150001N1-00461-00591101801ADDAJ100809199999999AY171031AY221031GA1081+006009029GF108991081001008001021999IA1239MD1310061+9999MW1711REMSYN082AAXX  17031 28334 /1565 80000 11046 21059 40180 53006 77172 8802/ 333 47080 88520;
0202283340999992000021706004+57350+058220FM-12+024499999V0202301N002010060019N0200001N1-00341-00551101821ADDAA112001091AY171061AY281061GA1051+006009099GF108991051031008001031001KA1120N-00521MD1210031+9999MW1851REMSYN088AAXX  17061 28334 11570 82302 11034 21055 40182 52003 60012 78578 85330 333 21052 85920;
0166283340999992000021709004+57350+058220FM-12+024499999V0202301N002010069019N0500001N1-00191-00571101861ADDAY171031AY281031GA1061+006909099GF106991061031008001001001MD1210051+9999MW1021REMSYN076AAXX  17091 28334 41599 62302 11019 21057 40186 52005 70278 86300 333 86923;
0187283340999992000021712004+57350+058220FM-12+024499999V0202301N002010060019N0200001N1-00411-00831102061ADDAY181061AY271061GA1071+006009099GF107991071031008001011001MA1999999098951MD1210171+9999MW1851REMSYN082AAXX  17121 28334 41570 72302 11041 21083 39895 40206 52017 78587 87310 333 87920;
0163283340999992000021715004+57350+058220FM-12+024499999V0202301N002019999999N0500001N1-00461-00851102131ADDAY181031AY211031GF108991021001008001071071KA1999M-00181MD1210071+9999MW1011REMSYN076AAXX  17151 28334 /1584 82302 11046 21085 40213 52007 70181 82077 333 11018;
0180283340999992000021718004+57350+058220FM-12+024499999V0209999C000012200019N0500001N1-00921-01121102311ADDAA112000391AY181061AY211061GF103991031001999999041001KA1999M-00181MD1210121+9999MW1011REMSYN082AAXX  17181 28334 11984 30000 11092 21112 40231 52012 69932 70181 83040 333 11018;
0138283340999992000021721004+57350+058220FM-12+024499999V0209999C000010069019N0500001N1-00911-01061102431ADDGA1051+006909099GF107991051031008001031001MD1210111+9999REMSYN070AAXX  17211 28334 42584 70000 11091 21106 40243 52011 85330 333 85923;
0159283340999992000021800004+57350+058220FM-12+024499999V0209999C000010060019N0500001N1-00891-01041102561ADDGA1081+006009099GF108991081031008001999999MA1999999099381MD1210131+9999REMSYN076AAXX  18001 28334 42584 80000 11089 21104 39938 40256 52013 883// 333 88920;
0197283340999992000021803004+57350+058220FM-12+024499999V0209999C000010069019N0500001N1-00851-01001102641ADDAA199000091AJ100809199999999GA1081+006909029GF108991081001008001021999IA1239MD1210081+9999REMSYN076AAXX  18031 28334 32584 80000 11085 21100 40264 52008 8802/ 333 47080 88523;EQDQ01  00002PRCP99
0202283340999992000021806004+57350+058220FM-12+024499999V0209999C000010075019N0060001N1-00541-00681102741ADDAA199000091AY121061AY221061GA1011+001509009GF108991081001008001021999MD1210141+9999MW1101REMSYN082AAXX  18061 28334 31556 80000 11054 21068 40274 52014 71022 8802/ 333 81092 88520;EQDQ01  00002PRCP99
0138283340999992000021809004+57350+058220FM-12+024499999V0202301N002010069019N0500001N1-00411-00641102811ADDGA1061+006909029GF107991061011008001041001MD1210081+9999REMSYN070AAXX  18091 28334 42599 72302 11041 21064 40281 52008 86140 333 86823;
0187283340999992000021812004+57350+058220FM-12+024499999V0202501N002010069019N0200001N1-00411-00711102931ADDAY171061AY221061GA1061+006909029GF108991061071008001071999MA1999999099791MD1210111+9999MW1711REMSYN082AAXX  18121 28334 41570 82502 11041 21071 39979 40293 52011 77172 8677/ 333 86823;
0163283340999992000021815004+57350+058220FM-12+024499999V0202301N002019999999N0150001N1-00531-00741103011ADDAY171031AY221031GF108991081001999999021999KA1999M-00381MD1210071+9999MW1711REMSYN076AAXX  18151 28334 /1965 82302 11053 21074 40301 52007 77172 8802/ 333 11038;
0202283340999992000021818004+57350+058220FM-12+024499999V0209999C000010069019N0500001N1-00531-00741103051ADDAA112001091AY171061AY221061GA1071+006909029GF107991071001008001021999KA1120M-00381MD1210041+9999MW1011REMSYN088AAXX  18181 28334 11584 70000 11053 21074 40305 52004 69992 70172 8702/ 333 11038 87523;
0112283340999992000021821004+57350+058220FM-12+024499999V0209999C000019999999N0500001N1-00541-00751103061ADDGF108991081001999999021999MD1210011+9999REMSYN060AAXX  18211 28334 42984 80000 11054 21075 40306 52001 8802/;
0159283340999992000021900004+57350+058220FM-12+024499999V0209999C000010069019N0500001N1-00571-00751103111ADDGA1071+006909029GF107991071001008001021999MA1999999099961MD1210051+9999REMSYN076AAXX  19001 28334 42584 70000 11057 21075 39996 40311 52005 8702/ 333 87523;
0155283340999992000021903004+57350+058220FM-12+024499999V0209999C000012200019N0500001N1-00741-00951103201ADDAJ100809199999999GA1001+999999999GF100991001001999999001001IA1239MD1210071+9999REMSYN064AAXX  19031 28334 /2984 00000 11074 21095 40320 52007 333 47080;
0152283340999992000021906004+57350+058220FM-12+024499999V0209999C000012200019N0500001N1-00721-00971103411ADDAA112000191GF102991001001999999001021KA1999N-00741MD1210201+9999REMSYN076AAXX  19061 28334 12999 20000 11072 21097 40341 52020 69922 80002 333 21074;
0112283340999992000021909004+57350+058220FM-12+024499999V0209999C000019999999N0500001N1-00521-00891103341ADDGF108991081001999999021999MD1810051+9999REMSYN060AAXX  19091 28334 42999 80000 11052 21089 40334 58005 8802/;
0161283340999992000021912004+57350+058220FM-12+024499999V0209999C000019999999N0500001N1-00381-00791103311ADDAY171061AY211061GF108991081001999999021999MA1999999100161MD1710021+9999MW1021REMSYN072AAXX  19121 28334 41999 80000 11038 21079 30016 40331 57002 70271 8802/;
0135283340999992000021915004+57350+058220FM-12+024499999V0209999C000019999999N0500001N1-00401-00741103191ADDGF108991081001999999021999KA1999M-00371MD1710111+9999REMSYN070AAXX  19151 28334 /2984 80000 11040 21074 40319 57011 8802/ 333 11037;
0174283340999992000021918004+57350+058220FM-12+024499999V0202301N002010069019N0500001N1-00441-00641103091ADDAA112000791GA1081+006909029GF108991081001008001021999KA1120M-00371MD1710101+9999REMSYN082AAXX  19181 28334 12584 82302 11044 21064 40309 57010 69902 8802/ 333 11037 88523;
0157283340999992000021921004+57350+058220FM-12+024499999V0202301N002010069019N0500001N1-00561-00701103121ADDGA1081+006909029GF108991999071008001021999MD1310021+9999REMSYN070AAXX  19211 28334 42584 82302 11056 21070 40312 53002 8872/ 333 88823;EQDQ01+000082SCOTLC
0206283340999992000022000004+57350+058220FM-12+024499999V0202301N002010069019N0060001N1-00511-00681103121ADDAY121061AY221061GA1081+006909029GF108991999071008001021999MA1999999099971MD1410001+9999MW1101REMSYN082AAXX  20001 28334 41556 82302 11051 21068 39997 40312 54000 71022 8872/ 333 88823;EQDQ01+000082SCOTLC
0241283340999992000022003004+57350+058220FM-12+024499999V0202301N004010069019N0060001N1-00491-00621103071ADDAA199000091AJ100769199999999AY121031AY221031GA1081+006909029GF108991999071008001021999IA1239MD1810051+9999MW1101REMSYN082AAXX  20031 28334 31556 82304 11049 21062 40307 58005 71022 8872/ 333 47076 88823;EQDQ01+000082SCOTLCQ02  00002PRCP99
0231283340999992000022006004+57350+058220FM-12+024499999V0202001N002010069019N0060001N1-00461-00701103091ADDAA199000091AY121061AY221061GA1081+006909029GF108991999071008001021999KA1120N-00591MD1310031+9999MW1101REMSYN082AAXX  20061 28334 31556 82002 11046 21070 40309 53003 71022 8872/ 333 21059 88823;EQDQ01+000082SCOTLCQ02  00002PRCP99
0157283340999992000022009004+57350+058220FM-12+024499999V0202001N004010069019N0500001N1-00301-00571103041ADDGA1081+006909029GF108991999071008001021999MD1810031+9999REMSYN070AAXX  20091 28334 42599 82004 11030 21057 40304 58003 8872/ 333 88823;EQDQ01+000082SCOTLC
0159283340999992000022012004+57350+058220FM-12+024499999V0202001N004010060019N0500001N1-00171-00441103021ADDGA1081+006009059GF108991081081008001999999MA1999999099921MD1410001+9999REMSYN076AAXX  20121 28334 42599 82004 11017 21044 39992 40302 54000 888// 333 88620;
0187283340999992000022015004+57350+058220FM-12+024499999V0202001N004010060019N0500001N1-00321-00561103091ADDAA199000091GA1081+006009059GF108991081051008001999999KA1120M-00161MD1310051+9999REMSYN076AAXX  20151 28334 32584 82004 11032 21056 40309 53005 885// 333 11016 88620;EQDQ01  00002PRCP99
0165283340999992000022018004+57350+058220FM-12+024499999V0209999C000019999999N0500001N1-00501-00711103121ADDAA199000091GF105991051001999999031001KA1999M-00161MD1410001+9999REMSYN070AAXX  20181 28334 32984 50000 11050 21071 40312 54000 85030 333 11016;EQDQ01  00002PRCP99
0112283340999992000022021004+57350+058220FM-12+024499999V0209999C000019999999N0500001N1-00631-00821103161ADDGF105991051001999999031001MD1810031+9999REMSYN060AAXX  20211 28334 42984 50000 11063 21082 40316 58003 85030;
0143283340999992000022100004+57350+058220FM-12+024499999V0209999C000012200019N0500001N1-00811-00991103181ADDGA1001+999999999GF100991001001999999001001MA1999999100001MD1410001+9999REMSYN060AAXX  21001 28334 42984 00000 11081 21099 30000 40318 54000;
0175283340999992000022106004+57350+058220FM-12+024499999V0209999C000012200019N0500001N1-00391-00801103031ADDAA199000091GA1001+999999999GF100991001001999999001001KA1999N-00901MD1310131+9999REMSYN064AAXX  21061 28334 32999 00000 11039 21080 40303 53013 333 21090;EQDQ01  00002PRCP99
0112283340999992000022109004+57350+058220FM-12+024499999V0202301N002012200019N0500001N1-00121-00711102911ADDGF101991011001999999011001MD1710081+9999REMSYN060AAXX  21091 28334 42999 12302 11012 21071 40291 57008 81010;
0133283340999992000022112004+57350+058220FM-12+024499999V0202301N002019999999N0500001N1-00181-01221102901ADDGF106991051001999999041021MA1999999099791MD1710021+9999REMSYN066AAXX  21121 28334 42999 62302 11018 21122 39979 40290 57002 85042;
0165283340999992000022115004+57350+058220FM-12+024499999V0202001N002019999999N0500001N1-00351-01201102801ADDAA199000091GF108991051001999999041071KA1999M-00101MD1710111+9999REMSYN070AAXX  21151 28334 32984 82002 11035 21120 40280 57011 85047 333 11010;EQDQ01  00002PRCP99
0165283340999992000022118004+57350+058220FM-12+024499999V0202001N002019999999N0500001N1-00421-01261102701ADDAA199000091GF108991051001999999041071KA1999M-00101MD1710111+9999REMSYN070AAXX  21181 28334 32984 82002 11042 21126 40270 57011 85047 333 11010;EQDQ01  00002PRCP99
0112283340999992000022121004+57350+058220FM-12+024499999V0202001N002019999999N0500001N1-00501-01231102641ADDGF108991001001999999001071MD1710071+9999REMSYN060AAXX  21211 28334 42984 82002 11050 21123 40264 57007 80007;
0133283340999992000022200004+57350+058220FM-12+024499999V0202301N004019999999N0500001N1-00641-01291102601ADDGF105991051001999999081001MA1999999099451MD1710051+9999REMSYN066AAXX  22001 28334 42984 52304 11064 21129 39945 40260 57005 85080;
0175283340999992000022203004+57350+058220FM-12+024499999V0202301N004019999999N0500001N1-00691-01261102561ADDAA199000091AJ100759199999999GF108991081001999999071999IA1239MD1710041+9999REMSYN070AAXX  22031 28334 32984 82304 11069 21126 40256 57004 8807/ 333 47075;EQDQ01  00002PRCP99
0165283340999992000022206004+57350+058220FM-12+024499999V0202001N002010300019N0500001N1-00611-01101102571ADDAA199000091GF107991011011008001041021KA1999N-00751MD1310021+9999REMSYN070AAXX  22061 28334 32599 72002 11061 21110 40257 53002 81142 333 21075;EQDQ01  00002PRCP99
0166283340999992000022209004+57350+058220FM-12+024499999V0209999C000010060019N0020001N1-00411-00641102601ADDAY181031AY271031GA1081+006009099GF108991081031008001999999MD1210041+9999MW1861REMSYN076AAXX  22091 28334 41520 80000 11041 21064 40260 52004 78687 883// 333 88920;
0187283340999992000022212004+57350+058220FM-12+024499999V0202301N002010060019N0060001N1-00331-00681102641ADDAY181061AY271061GA1081+006009029GF108991081001008001021999MA1999999099521MD1210051+9999MW1711REMSYN082AAXX  22121 28334 41556 82302 11033 21068 39952 40264 52005 77187 8802/ 333 88520;
0185283340999992000022215004+57350+058220FM-12+024499999V0202301N002010060019N0500001N1-00361-00761102641ADDAY181031AY271031GA1081+006009029GF108991081001008001021999KA1120M-00321MD1410001+9999MW1021REMSYN082AAXX  22151 28334 /1584 82302 11036 21076 40264 54000 70287 8802/ 333 11032 88520;
0180283340999992000022218004+57350+058220FM-12+024499999V0209999C000012200019N0500001N1-00701-01081102681ADDAA112000391AY171061AY211061GF103991031001999999041001KA1999M-00321MD1410001+9999MW1011REMSYN082AAXX  22181 28334 11984 30000 11070 21108 40268 54000 69932 70171 83040 333 11032;
0112283340999992000022221004+57350+058220FM-12+024499999V0209999C000019999999N0500001N1-01141-01671102641ADDGF108991051001999999041071MD1810081+9999REMSYN060AAXX  22211 28334 42984 80000 11114 21167 40264 58008 85047;
0133283340999992000022300004+57350+058220FM-12+024499999V0209999C000019999999N0500001N1-01441-01951102671ADDGF108991031001999999041071MA1999999099431MD1710011+9999REMSYN066AAXX  23001 28334 42984 80000 11144 21195 39943 40267 57001 83047;
0175283340999992000022303004+57350+058220FM-12+024499999V0209999C000012200019N0500001N1-01861-02351102641ADDAA199000091AJ100739199999999GF102991021001999999041001IA1239MD1710091+9999REMSYN070AAXX  23031 28334 32984 20000 11186 21235 40264 57009 82040 333 47073;EQDQ01  00002PRCP99
0165283340999992000022306004+57350+058220FM-12+024499999V0209999C000012200019N0500001N1-01041-01551102591ADDAA199000091GF102991021001999999041001KA1999N-01861MD1310061+9999REMSYN070AAXX  23061 28334 32999 20000 11104 21155 40259 53006 82040 333 21186;EQDQ01  00002PRCP99
0131283340999992000022309004+57350+058220FM-12+024499999V0209999C000019999999N0500001N1+99999-01131102261ADDGF105991021001999999041011MD1810201+9999REMSYN060AAXX  23091 28334 42999 50000 10009 21113 40226 58020 82041;EQDQ01+000093ATOT  
0165283340999992000022312004+57350+058220FM-12+024499999V0209999C000012200019N0500001N1-01041-01551102591ADDAA199000091GF102991021001999999041001KA1999N-01861MD1310061+9999REMSYN070AAXX  23121 28334 32999 20000 11104 21155 40259 53006 82040 333 21186;EQDQ01  00002PRCP99
0165283340999992000022315004+57350+058220FM-12+024499999V0209999C000012200019N0500001N1-00081-01141102121ADDAA199000091GF101991011001999999041001KA1999M+00101MD1710131+9999REMSYN070AAXX  23151 28334 32984 10000 11008 21114 40212 57013 81040 333 10010;EQDQ01  00002PRCP99
0175283340999992000022318004+57350+058220FM-12+024499999V0209999C000012200019N0500001N1-01181-01801102231ADDAA199000091GA1001+999999999GF100991001001999999001001KA1999M+00101MD1710021+9999REMSYN064AAXX  23181 28334 32984 00000 11118 21180 40223 57002 333 10010;EQDQ01  00002PRCP99
0102283340999992000022321004+57350+058220FM-12+024499999V0209999C000012200019N0500001N1-01561-01901102261ADDGA1001+999999999GF100991001001999999001001REMSYN048AAXX  23211 28334 42984 00000 11156 21190 40226;
0175283340999992000022403004+57350+058220FM-12+024499999V0209999C000012200019N0500001N1-01931-02191102121ADDAA199000091AJ100739199999999GF103991011001999999041021IA1239MD1710101+9999REMSYN070AAXX  24031 28334 32999 30000 11193 21219 40212 57010 81042 333 47073;EQDQ01  00002PRCP99
0165283340999992000022406004+57350+058220FM-12+024499999V0209999C000019999999N0500001N1-01291-01721101851ADDAA199000091GF105991031001999999041021KA1999N-01971MD1710201+9999REMSYN070AAXX  24061 28334 32999 50000 11129 21172 40185 57020 83042 333 21197;EQDQ01  00002PRCP99
0131283340999992000022409004+57350+058220FM-12+024499999V0209999C000019999999N0500001N1+00131-01041101361ADDGF106991999001999999031001MD1710301+9999REMSYN060AAXX  24091 28334 42999 60000 10013 21104 40136 57030 85030;EQDQ01+000052SCOTLC
0133283340999992000022412004+57350+058220FM-12+024499999V0209999C000019999999N0500001N1+00271-01111101051ADDGF106991061001999999051001MA1999999098051MD1710291+9999REMSYN066AAXX  24121 28334 42999 60000 10027 21111 39805 40105 57029 86050;
0165283340999992000022415004+57350+058220FM-12+024499999V0209999C000019999999N0500001N1-00031-00731100961ADDAA199000091GF108991081001999999011999KA1999M+00281MD1710121+9999REMSYN070AAXX  24151 28334 32984 80000 11003 21073 40096 57012 8801/ 333 10028;EQDQ01  00002PRCP99
0165283340999992000022418004+57350+058220FM-12+024499999V0202301N006019999999N0500001N1-00281-00851101121ADDAA199000091GF105991051001999999031001KA1999M+00281MD1310131+9999REMSYN070AAXX  24181 28334 32984 52306 11028 21085 40112 53013 85030 333 10028;EQDQ01  00002PRCP99
0112283340999992000022421004+57350+058220FM-12+024499999V0202301N008012200019N0500001N1-00531-00991101261ADDGF102991021001017501031001MD1210121+9999REMSYN060AAXX  24211 28334 42784 22308 11053 21099 40126 52012 82030;
0143283340999992000022500004+57350+058220FM-12+024499999V0202301N008012200019N0500001N1-00701-01131101271ADDGA1001+999999999GF100991001001999999001001MA1999999098151MD1810021+9999REMSYN060AAXX  25001 28334 42984 02308 11070 21113 39815 40127 58002;
0192283340999992000022503004+57350+058220FM-12+024499999V0202301N004012200019N0500001N1-01021-01301101291ADDAJ100709199999999AY171031AY211031GF104991999001999999031001IA1239MD1710011+9999MW1031REMSYN076AAXX  25031 28334 /1999 42304 11102 21130 40129 57001 70371 85030 333 47070;EQDQ01+000052SCOTLC
0086283340999992000022506004+57350+058220FM-12+024499999V0202001N004019999999N0500001N1-01181-01451101061ADDGF105991999999008001999999REMSYN048AAXX  25061 28334 11599 52004 11118 21145 40106;
0182283340999992000022509004+57350+058220FM-12+024499999V0202001N004010069019N0200001N1-00841-01161100831ADDAA109999999AY171031AY231031GA1061+006909029GF107991061071008001071999MW1711REMSYN076AAXX  25091 28334 41570 72004 11084 21116 40083 67018 77173 8677/ 333 86823;EQDQ01  70102PRCP09
0206283340999992000022512004+57350+058220FM-12+024499999V0202301N004010060019N0200001N1-00881-01161100741ADDAY171061AY231061GA1081+006009029GF199999081001008001021999MA1999999098621MD1710091+9999MW1711REMSYN082AAXX  25121 28334 41570 62304 11088 21116 39862 40074 57009 77173 8802/ 333 88520;EQDQ01+000062SCOTCV
0204283340999992000022515004+57350+058220FM-12+024499999V0202301N004010060019N0020001N1-01041-01171100611ADDAY171031AY231031GA1081+006009029GF108991999071008001021001KA1120M-00831MD1710141+9999MW1731REMSYN082AAXX  25151 28334 /1520 82304 11104 21117 40061 57014 77373 88720 333 11083 88820;EQDQ01+000082SCOTLC
0221283340999992000022518004+57350+058220FM-12+024499999V0202301N004010060019N0020001N1-01191-01321100641ADDAA112001091AY171061AY231061GA1081+006009029GF108991999071008001021999KA1120M-00831MD1410001+9999MW1731REMSYN088AAXX  25181 28334 11520 82304 11119 21132 40064 54000 60012 77373 8872/ 333 11083 88820;EQDQ01+000082SCOTLC
0185283340999992000022521004+57350+058220FM-12+024499999V0202301N004010060019N0020001N1-01231-01291100581ADDAY171031AY221031GA1081+006009029GF108991999071008001021999MD1810061+9999MW1731REMSYN076AAXX  25211 28334 41520 82304 11123 21129 40058 58006 77372 8872/ 333 88820;EQDQ01+000082SCOTLC
0206283340999992000022600004+57350+058220FM-12+024499999V0202301N004010060019N0150001N1+99999+99999999999ADDAY171061AY221061GA1081+006009029GF108991081001008001021999MA1999999097371MD1710051+9999MW1711REMSYN082AAXX  26001 28334 41565 82304 1130/ 21136 39737 40/54 57005 77172 8802/ 333 88520;EQDQ01-003003ATOT  
0195283340999992000022603004+57350+058220FM-12+024499999V0202301N002010060019N0500001N1-01371-01501100531ADDAJ100729199999999AY171031AY221031GA1081+006009029GF108991081001008001021999IA1239MD1710021+9999MW1021REMSYN082AAXX  26031 28334 /1599 82302 11137 21150 40053 57002 70272 8802/ 333 47072 88520;
0180283340999992000022606004+57350+058220FM-12+024499999V0202301N002010750019N0500001N1-01271-01471100531ADDAA112002091AY171061AY221061GF106991021071008001071041KA1999N-01381MD1310011+9999MW1221REMSYN082AAXX  26061 28334 11599 62302 11127 21147 40053 53001 60022 72272 82774 333 21138;
0166283340999992000022609004+57350+058220FM-12+024499999V0202301N002010069019N0200001N1-01031-01391100521ADDAY171031AY221031GA1061+006909029GF106991061011008001001001MD1210031+9999MW1701REMSYN076AAXX  26091 28334 41570 62302 11103 21139 40052 52003 77072 86100 333 86823;
0187283340999992000022612004+57350+058220FM-12+024499999V0202301N006010069019N0200001N1-01091-01451100571ADDAY171061AY221061GA1061+006909029GF107991061071008001021001MA1999999097431MD1210041+9999MW1701REMSYN082AAXX  26121 28334 41570 72306 11109 21145 39743 40057 52004 77072 86720 333 86823;
0185283340999992000022615004+57350+058220FM-12+024499999V0202301N006010060019N0150001N1-01181-01451100661ADDAY171031AY231031GA1081+006009029GF108991081001008001071999KA1120M-01001MD1210071+9999MW1701REMSYN082AAXX  26151 28334 /1565 82306 11118 21145 40066 52007 77073 8807/ 333 11100 88520;
0221283340999992000022618004+57350+058220FM-12+024499999V0202301N002010069019N0150001N1-01341-01611100721ADDAA112001091AY171061AY231061GA1061+006909029GF108991999011008001001001KA1120M-01001MD1210051+9999MW1701REMSYN088AAXX  26181 28334 41565 82302 11134 21161 40072 52005 60012 77073 86100 333 11100 86823;EQDQ01+000062SCOTLC
0140283340999992000022621004+57350+058220FM-12+024499999V0202301N002019999999N0150001N1-01481-01751100821ADDAY171031AY221031GF105991051001999999031001MD1210081+9999MW1701REMSYN066AAXX  26211 28334 41965 52302 11148 21175 40082 52008 77072 85030;
0161283340999992000022700004+57350+058220FM-12+024499999V0202301N002019999999N0150001N1-01531-01721100821ADDAY171061AY221061GF106991061001999999031001MA1999999097631MD1410001+9999MW1701REMSYN072AAXX  27001 28334 41965 62302 11153 21172 39763 40082 54000 77072 86030;
0195283340999992000022703004+57350+058220FM-12+024499999V0202301N002010060019N0200001N1-01551-01741100871ADDAJ100739199999999AY171031AY221031GA1071+006009029GF107991071071008001021001IA1239MD1310041+9999MW1701REMSYN082AAXX  27031 28334 /1570 72302 11155 21174 40087 53004 77072 87720 333 47073 87820;
0180283340999992000022706004+57350+058220FM-12+024499999V0202301N002019999999N0500001N1-01381-01581101021ADDAA112001091AY171061AY221061GF105991001001999999001021KA1999N-01551MD1210161+9999MW1011REMSYN082AAXX  27061 28334 11999 52302 11138 21158 40102 52016 60012 70172 80002 333 21155;
0112283340999992000022709004+57350+058220FM-12+024499999V0209999C000019999999N0500001N1-01101-01461101071ADDGF106991001001999999001021MD1210091+9999REMSYN060AAXX  27091 28334 42999 60000 11110 21146 40107 52009 80002;
0161283340999992000022712004+57350+058220FM-12+024499999V0209999C000019999999N0500001N1-00981-01391101081ADDAY171061AY221061GF106991061001999999031001MA1999999097941MD1210021+9999MW1221REMSYN072AAXX  27121 28334 41999 60000 11098 21139 39794 40108 52002 72272 86030;
0121283340999992000022715004+57350+058220FM-12+024499999V0209999C000012200019N0500001N1-01521-01861101261ADDGF102991021001999999041001MD1210111+9999REMSYN069AAXX  27151 28334 /2984 20000 11152 21186 40126 52011 82040 333 1109;
0162283340999992000022718004+57350+058220FM-12+024499999V0209999C000012200019N0500001N1-02231-02411101451ADDAA112000191GA1001+999999999GF100991001001999999001001KA1999M-00971MD1210101+9999REMSYN070AAXX  27181 28334 12984 00000 11223 21241 40145 52010 69922 333 11097;
0122283340999992000022721004+57350+058220FM-12+024499999V0209999C000012200019N0500001N1-02691-02861101651ADDGA1001+999999999GF100991001001999999001001MD1210121+9999REMSYN054AAXX  27211 28334 42984 00000 11269 21286 40165 52012;
0143283340999992000022800004+57350+058220FM-12+024499999V0209999C000012200019N0500001N1-02991-03171101831ADDGA1001+999999999GF100991001001999999001001MA1999999098411MD1210441+9999REMSYN060AAXX  28001 28334 42484 00000 11299 21317 39841 40183 52044;
0175283340999992000022803004+57350+058220FM-12+024499999V0209999C000012200019N0500001N1-03181-03341102021ADDAA199000091AJ100739199999999GF101991001001999999001021IA1239MD1210161+9999REMSYN070AAXX  28031 28334 32999 10000 11318 21334 40202 52016 80002 333 47073;EQDQ01  00002PRCP99
0135283340999992000022806004+57350+058220FM-12+024499999V0209999C000012200019N0500001N1-02791-02961102141ADDGF102991001001999999001021KA1999N-03201MD1210161+9999REMSYN070AAXX  28061 28334 42999 20000 11279 21296 40214 52016 80002 333 21320;
0112283340999992000022809004+57350+058220FM-12+024499999V0209999C000012200019N0500001N1-01642-02141102031ADDGF101991001001999999001011MD1210051+9999REMSYN060AAXX  28091 28334 42999 10000 11164 21214 40203 52005 80001;
0143283340999992000022812004+57350+058220FM-12+024499999V0202301N002012200019N0500001N1-01791-02201102111ADDGA1001+999999999GF100991001001999999001001MA1999999098841MD1210061+9999REMSYN060AAXX  28121 28334 42999 02302 11179 21220 39884 40211 52006;
0165283340999992000022815004+57350+058220FM-12+024499999V0209999C000012200019N0500001N1-02021-02351102111ADDAA199000091GF102991021001999999041001KA1999M-01631MD1810031+9999REMSYN070AAXX  28151 28334 32984 20000 11202 21235 40211 58003 82040 333 11163;EQDQ01  00002PRCP99
0175283340999992000022818004+57350+058220FM-12+024499999V0202301N002012200019N0500001N1-02021-02281102021ADDAA199000091GA1001+999999999GF100991001001999999001001KA1999M-01631MD1710091+9999REMSYN064AAXX  28181 28334 32984 02302 11202 21228 40202 57009 333 11163;EQDQ01  00002PRCP99
0122283340999992000022821004+57350+058220FM-12+024499999V0202301N002012200019N0500001N1-02281-02461101791ADDGA1001+999999999GF100991001001999999001001MD1710261+9999REMSYN054AAXX  28211 28334 42984 02302 11228 21246 40179 57026;
0206283340999992000022900004+57350+058220FM-12+024499999V0202301N004010060019N0150001N1-02061-02181101161ADDAY171061AY211061GA1081+006009029GF108991081001008001021999MA1999999097881MD1710582+9999MW1711REMSYN082AAXX  29001 28334 41565 82304 11206 21218 39788 40116 57058 77171 8802/ 333 88520;EQDQ01+000582APC3  
0195283340999992000022903004+57350+058220FM-12+024499999V0202301N008010060019N0200001N1-01621-01751100741ADDAJ100739199999999AY171031AY231031GA1081+006009029GF108991081001008001021999IA1239MD1710351+9999MW1711REMSYN082AAXX  29031 28334 /1570 82308 11162 21175 40074 57035 77173 8802/ 333 47073 88520;
0202283340999992000022906004+57350+058220FM-12+024499999V0202301N008010060019N0020001N1-01431-01561100481ADDAA112001091AY171061AY231061GA1081+006009029GF108991081001008001021999KA1120N-02291MD1710221+9999MW1731REMSYN088AAXX  29061 28334 11520 82308 11143 21156 40048 57022 60012 77373 8802/ 333 21229 88520;
0166283340999992000022909004+57350+058220FM-12+024499999V0202301N008010060019N0200001N1-01151-01351100191ADDAY171031AY231031GA1081+006009029GF108991081001008001021999MD1710251+9999MW1711REMSYN076AAXX  29091 28334 41570 82308 11115 21135 40019 57025 77173 8802/ 333 88520;
0187283340999992000022912004+57350+058220FM-12+024499999V0202301N008010060019N0020001N1-01061-01261100091ADDAY171061AY231061GA1081+006009029GF108991081001008001021999MA1999999096981MD1710081+9999MW1731REMSYN082AAXX  29121 28334 41520 82308 11106 21126 39698 40009 57008 77373 8802/ 333 88520;
0185283340999992000022915004+57350+058220FM-12+024499999V0202301N004010060019N0500001N1-00821-00961099991ADDAY171031AY231031GA1081+006009029GF108991081001008001021999KA1120M-00811MD1710081+9999MW1381REMSYN082AAXX  29151 28334 /1584 82304 11082 21096 49999 57008 73873 8802/ 333 11081 88520;
0221283340999992000022918004+57350+058220FM-12+024499999V0202301N008010060019N0150001N1-00541-00641099831ADDAA112003091AY171061AY231061GA1081+006009029GF108991081001008001021999KA1120M+99999MD1710121+9999MW1711REMSYN088AAXX  29181 28334 11565 82308 11054 21064 49983 57012 60032 77173 8802/ 333 11081 88520;EQDQ01 -00812ATMX  
0166283340999992000022921004+57350+058220FM-12+024499999V0202301N008010060019N0020001N1-00511-00581099671ADDAY171031AY231031GA1081+006009029GF108991081001008001021999MD1710151+9999MW1731REMSYN076AAXX  29211 28334 41520 82308 11051 21058 49967 57015 77373 8802/ 333 88520;
0193283340999992000030100004+57350+058220FM-12+024499999V0202301N012010060019N0020001N1-00341-00421099671ADDAY171061AY231061GA1081+006009059GF108991081001008001021999MA1999999096651MD1310021+9999MW1731REMSYN088AAXX  01001 28334 41520 82312 11034 21042 39665 49967 53002 77373 8802/ 333 88520 92982;
0220283340999992000030103004+57350+058220FM-12+024499999V0202301N006010060019N0200001N1-00011-00131099961ADDAJ100749199999999AY171031AY231031GA1081+006009089GF108991999071008001021999IA1239MD1210321+9999MW1711REMSYN088AAXX  01031 28334 /1570 82306 11001 21013 49996 52032 77173 8872/ 333 47074 88820 92980;EQDQ01+000082SCOTLC
0202283340999992000030106004+57350+058220FM-12+024499999V0202701N006010060019N0200001N1+00181-00191100541ADDAA112007191AY181061AY271061GA1071+006009099GF107991071031008001001001KA1120N-00821MD1210581+9999MW1871REMSYN088AAXX  01061 28334 11570 72706 10018 21019 40054 52058 60072 78787 87300 333 21082 87920;
0166283340999992000030109004+57350+058220FM-12+024499999V0202901N006010060019N0500001N1+00151-00331101101ADDAY181031AY221031GA1071+006009099GF107991071031008001001001MD1210541+9999MW1021REMSYN076AAXX  01091 28334 41599 72906 10015 21033 40110 52054 70282 87300 333 87920;
0180283340999992000030112004+57350+058220FM-12+024499999V0202901N002019999999N0500001N1+00121-00361101461ADDAY181061AY211061GF107991999011008001001001MA1999999098441MD1210351+9999MW1011REMSYN072AAXX  01121 28334 41599 72902 10012 21036 39844 40146 52035 70181 82100;EQDQ01+000022SCOTLC
0157283340999992000030115004+57350+058220FM-12+024499999V0209999C000010069019N0500001N1-00011-00381101751ADDGA1081+006909029GF108991081041008001999999KA1120M+00191MD1210261+9999REMSYN076AAXX  01151 28334 /2584 80000 11001 21038 40175 52026 884// 333 10019 88823;
0193283340999992000030118004+57350+058220FM-12+024499999V0209999C000010069019N0500001N1-00021-00451101891ADDAA112001091GA1081+006909029GF108991999071008001021999KA1120M+00191MD1210141+9999REMSYN082AAXX  01181 28334 12584 80000 11002 21045 40189 52014 60012 8872/ 333 10019 88823;EQDQ01+000082SCOTLC
0138283340999992000030121004+57350+058220FM-12+024499999V0202301N002010069019N0500001N1-00111-00501102041ADDGA1071+006909029GF107991071071008001021999MD1210131+9999REMSYN070AAXX  01211 28334 42584 72302 11011 21050 40204 52013 8772/ 333 87823;
0159283340999992000030200004+57350+058220FM-12+024499999V0202301N002010069019N0500001N1-00191-01571102091ADDGA1071+006909029GF107991071071008001021999MA1999999099001MD1210031+9999REMSYN076AAXX  02001 28334 42584 72302 11019 21157 39900 40209 52003 8772/ 333 87823;
0175283340999992000030203004+57350+058220FM-12+024499999V0202301N002019999999N0500001N1-00251-00511102101ADDAA199000091AJ100749199999999GF108991051001999999031021IA1239MD1210011+9999REMSYN070AAXX  02031 28334 32999 82302 11025 21051 40210 52001 85032 333 47074;EQDQ01  00002PRCP99
0157283340999992000030206004+57350+058220FM-12+024499999V0202301N004010069019N0500001N1-00141-00401102061ADDGA1051+006909099GF106991999031008001031001MD1810021+9999REMSYN070AAXX  02061 28334 12599 62304 11014 21040 40206 58002 87330 333 85923;EQDQ01+000072SCOTLC
0138283340999992000030209004+57350+058220FM-12+024499999V0202301N006010069019N0500001N1-00121-00591101871ADDGA1051+006909099GF106991051031008001031021MD1710151+9999REMSYN070AAXX  02091 28334 42599 62306 11012 21059 40187 57015 85332 333 85923;
0152283340999992000030212004+57350+058220FM-12+024499999V0202301N008019999999N0500001N1+00041-00441102011ADDGF106991999001999999031001MA1999999098961MD1310131+9999REMSYN066AAXX  02121 28334 42999 62308 10004 21044 39896 40201 53013 85030;EQDQ01+000052SCOTLC
0175283340999992000030215004+57350+058220FM-12+024499999V0202301N008012200019N0500001N1-00021-00421102131ADDAA199000091GA1001+999999999GF100991001001999999001001KA1999M+00131MD1210111+9999REMSYN064AAXX  02151 28334 32984 02308 11002 21042 40213 52011 333 10013;EQDQ01  00002PRCP99
0187283340999992000030218004+57350+058220FM-12+024499999V0202501N006012200019N0500001N1-00191-00401102111ADDAA199000091GA1041+006909029GF104991041011008001001001KA1120M+00131MD1810031+9999REMSYN076AAXX  02181 28334 32584 42506 11019 21040 40211 58003 84100 333 10013 84823;EQDQ01  00002PRCP99
0122283340999992000030221004+57350+058220FM-12+024499999V0202301N006012200019N0500001N1-00291-00491102181ADDGA1001+999999999GF100991001001999999001001MD1310041+9999REMSYN054AAXX  02211 28334 42984 02306 11029 21049 40218 53004;
0133283340999992000030300004+57350+058220FM-12+024499999V0202301N008012200019N0500001N1-00331-00611102201ADDGF102991021011008001001001MA1999999099101MD1210021+9999REMSYN066AAXX  03001 28334 42584 22308 11033 21061 39910 40220 52002 82100;
0197283340999992000030303004+57350+058220FM-12+024499999V0202301N004010069019N0500001N1-00301-00501102281ADDAA199000091AJ100739199999999GA1081+006909099GF108991081031008001999999IA1239MD1210071+9999REMSYN076AAXX  03031 28334 32599 82304 11030 21050 40228 52007 883// 333 47073 88923;EQDQ01  00002PRCP99
0159283340999992000030309004+57350+058220FM-12+024499999V0202301N002010069019N0500001N1-00191-01571102091ADDGA1071+006909029GF107991071071008001021999MA1999999099001MD1210031+9999REMSYN076AAXX  03091 28334 42584 72302 11019 21157 39900 40209 52003 8772/ 333 87823;
0178283340999992000030312004+57350+058220FM-12+024499999V0202001N002010060019N0500001N1-00071-00382102301ADDGA1081+006009029GF108991999071008001021999MA1999999099231MD1410001+9999REMSYN076AAXX  03121 28334 42599 82002 11007 21038 39923 40230 54000 8872/ 333 88820;EQDQ01+000082SCOTLC
0203283340999992000030315004+57350+058220FM-12+024499999V0202301N004010060019N0500001N1-00161-00401102281ADDAA199000091GA1081+006009029GF108991999071008001021999KA1120M-00051MD1810031+9999REMSYN076AAXX  03151 28334 32584 82304 11016 21040 40228 58003 8872/ 333 11005 88820;EQDQ01+000082SCOTLCQ02  00002PRCP99
0165283340999992000030318004+57350+058220FM-12+024499999V0202301N004019999999N0500001N1-00181-00461102381ADDAA199000091GF107991071001999999031001KA1999M-00051MD1310101+9999REMSYN070AAXX  03181 28334 32984 72304 11018 21046 40238 53010 87030 333 11005;EQDQ01  00002PRCP99
0157283340999992000030321004+57350+058220FM-12+024499999V0202301N004010069019N0500001N1-00231-00471102411ADDGA1081+006909029GF108991999071008001021999MD1210021+9999REMSYN070AAXX  03211 28334 42584 82304 11023 21047 40241 52002 8872/ 333 88823;EQDQ01+000082SCOTLC
0178283340999992000030400004+57350+058220FM-12+024499999V0202301N004010069019N0500001N1-00301-00541102531ADDGA1081+006909029GF108991999071008001021999MA1999999099421MD1210101+9999REMSYN076AAXX  04001 28334 42584 82304 11030 21054 39942 40253 52010 8872/ 333 88823;EQDQ01+000082SCOTLC
0175283340999992000030403004+57350+058220FM-12+024499999V0202301N004019999999N0500001N1-00281-00481102551ADDAA199000091AJ100729199999999GF107991071001999999031001IA1239MD1210031+9999REMSYN070AAXX  04031 28334 32999 72304 11028 21048 40255 52003 87030 333 47072;EQDQ01  00002PRCP99
0165283340999992000030406004+57350+058220FM-12+024499999V0202301N002012200019N0500001N1-00221-00581102601ADDAA199000091GF101991001001999999001021KA1999N-00301MD1210051+9999REMSYN070AAXX  04061 28334 32999 12302 11022 21058 40260 52005 80002 333 21030;EQDQ01  00002PRCP99
0112283340999992000030409004+57350+058220FM-12+024499999V0202301N004012200019N0500001N1+00151-00231102581ADDGF103991021001999999031021MD1210021+9999REMSYN060AAXX  04091 28334 42999 32304 10015 21023 40258 52002 82032;
0133283340999992000030412004+57350+058220FM-12+024499999V0202301N004019999999N0500001N1+00281-00271102581ADDGF106991031001999999071051MA1999999099521MD1410001+9999REMSYN066AAXX  04121 28334 42999 62304 10028 21027 39952 40258 54000 83075;
0165283340999992000030415004+57350+058220FM-12+024499999V0209999C000019999999N0500001N1-00021-00541102611ADDAA199000091GF106991061001999999031001KA1999M+00291MD1210011+9999REMSYN070AAXX  04151 28334 32984 60000 11002 21054 40261 52001 86030 333 10029;EQDQ01  00002PRCP99
0165283340999992000030418004+57350+058220FM-12+024499999V0209999C000019999999N0500001N1+00041-00471102611ADDAA199000091GF105991051001999999031001KA1999M+00291MD1210011+9999REMSYN070AAXX  04181 28334 32984 50000 10004 21047 40261 52001 85030 333 10029;EQDQ01  00002PRCP99
0157283340999992000030421004+57350+058220FM-12+024499999V0202301N002010060019N0500001N1-00061-00541102551ADDGA1081+006009029GF108991999071008001021999MD1810071+9999REMSYN070AAXX  04211 28334 42584 82302 11006 21054 40255 58007 8872/ 333 88820;EQDQ01+000082SCOTLC
0143283340999992000030500004+57350+058220FM-12+024499999V0202301N002012200019N0500001N1-00141-00581102561ADDGA1001+999999999GF100991001001999999001001MA1999999099471MD1410001+9999REMSYN060AAXX  05001 28334 42984 02302 11014 21058 39947 40256 54000;
0175283340999992000030503004+57350+058220FM-12+024499999V0209999C000019999999N0500001N1-00381-00751102601ADDAA199000091AJ100729199999999GF105991051001999999041001IA1239MD1210011+9999REMSYN070AAXX  05031 28334 32999 50000 11038 21075 40260 52001 85040 333 47072;EQDQ01  00002PRCP99
0165283340999992000030506004+57350+058220FM-12+024499999V0209999C000012200019N0500001N1-00161-00681102551ADDAA199000091GF102991001001999999001021KA1999N-00391MD1810021+9999REMSYN070AAXX  05061 28334 32999 20000 11016 21068 40255 58002 80002 333 21039;EQDQ01  00002PRCP99
0122283340999992000030509004+57350+058220FM-12+024499999V0209999C000012200019N0500001N1+00471-00571102351ADDGA1001+999999999GF100991001001999999001001MD1710131+9999REMSYN054AAXX  05091 28334 42999 00000 10047 21057 40235 57013;
0143283340999992000030512004+57350+058220FM-12+024499999V0202301N002012200019N0500001N1+00411-00851102291ADDGA1001+999999999GF100991001001999999001001MA1999999099261MD1710071+9999REMSYN060AAXX  05121 28334 42999 02302 10041 21085 39926 40229 57007;
0161283340999992000030515004+57350+058220FM-12+024499999V0209999C000012200019N0500001N1-00011-01011102281ADDAA199000091GA1001+999999999GF100991001001999999001001KA1999M+00661REMSYN064AAXX  05151 28334 32984 00000 11001 21101 40228 97005 333 10066;EQDQ01  00002PRCP99
0175283340999992000030518004+57350+058220FM-12+024499999V0209999C000012200019N0500001N1-00281-01191102281ADDAA199000091GA1001+999999999GF100991001001999999001001KA1999M+00661MD1710041+9999REMSYN064AAXX  05181 28334 32984 00000 11028 21119 40228 57004 333 10066;EQDQ01  00002PRCP99
0122283340999992000030521004+57350+058220FM-12+024499999V0209999C000012200019N0500001N1-00671-01391102241ADDGA1001+999999999GF100991001001999999001001MD1710071+9999REMSYN054AAXX  05211 28334 42984 00000 11067 21139 40224 57007;
0143283340999992000030600004+57350+058220FM-12+024499999V0209999C000012200019N0500001N1-01121-01741102101ADDGA1001+999999999GF100991001001999999001001MA1999999099001MD1710101+9999REMSYN060AAXX  06001 28334 42984 00000 11112 21174 39900 40210 57010;
0175283340999992000030603004+57350+058220FM-12+024499999V0209999C000012200019N0500001N1-01571-01841102211ADDAA199000091AJ100729199999999GF101991011001999999041001IA1239MD1710051+9999REMSYN070AAXX  06031 28334 32999 10000 11157 21184 40221 57005 81040 333 47072;EQDQ01  00002PRCP99
0165283340999992000030606004+57350+058220FM-12+024499999V0209999C000012200019N0500001N1-00801-01071102031ADDAA199000091GF102991021001999999041001KA1999N-01571MD1710081+9999REMSYN070AAXX  06061 28334 32999 20000 11080 21107 40203 57008 82040 333 21157;EQDQ01  00002PRCP99
0112283340999992000030609004+57350+058220FM-12+024499999V0209999C000019999999N0500001N1+00201-00731101761ADDGF105991001001999999001021MD1710141+9999REMSYN060AAXX  06091 28334 42999 50000 10020 21073 40176 57014 80002;
0133283340999992000030612004+57350+058220FM-12+024499999V0209999C000019999999N0500001N1+00141-01071101681ADDGF105991001001999999001021MA1999999098651MD1710081+9999REMSYN066AAXX  06121 28334 42999 50000 10014 21107 39865 40168 57008 80002;
0203283340999992000030615004+57350+058220FM-12+024499999V0209999C000010069019N0500001N1+00041-00931101701ADDAA199000091GA1081+006909069GF108991999071008001011999KA1120M+00211MD1410001+9999REMSYN076AAXX  06151 28334 32584 80000 10004 21093 40170 54000 8871/ 333 10021 88723;EQDQ01+000082SCOTLCQ02  00002PRCP99
0175283340999992000030618004+57350+058220FM-12+024499999V0209999C000012200019N0500001N1-00451-01161101731ADDAA199000091GA1001+999999999GF100991001001999999001001KA1999M+00211MD1810021+9999REMSYN064AAXX  06181 28334 32984 00000 11045 21116 40173 58002 333 10021;EQDQ01  00002PRCP99
0112283340999992000030621004+57350+058220FM-12+024499999V0209999C000019999999N0500001N1-00341-00851101691ADDGF108991081001999999021999MD1710031+9999REMSYN060AAXX  06211 28334 42984 80000 11034 21085 40169 57003 8802/;
0156283340999992000030700004+57350+058220FM-12+024499999V0209999C000019999999N0500001N1-00281-00851101731ADDGF108991081001999999021999KA1999M+01051MA1999999098641MD1310041+9999REMSYN076AAXX  07001 28334 42984 80000 11028 21085 39864 40173 53004 8802/ 333 17105;
0175283340999992000030703004+57350+058220FM-12+024499999V0209999C000019999999N0500001N1-00311-00811101801ADDAA199000091AJ100729199999999GF108991001001999999021999IA1239MD1210071+9999REMSYN070AAXX  07031 28334 32999 80000 11031 21081 40180 52007 8002/ 333 47072;EQDQ01  00002PRCP99
0165283340999992000030706004+57350+058220FM-12+024499999V0209999C000019999999N0500001N1-00211-00641101871ADDAA199000091GF108991081001999999021999KA1999N-00451MD1210081+9999REMSYN070AAXX  07061 28334 32999 80000 11021 21064 40187 52008 8802/ 333 21045;EQDQ01  00002PRCP99
0112283340999992000030709004+57350+058220FM-12+024499999V0209999C000019999999N0500001N1-00061-00471101871ADDGF108991081001999999021999MD1210031+9999REMSYN060AAXX  07091 28334 42999 80000 11006 21047 40187 52003 8802/;
0133283340999992000030712004+57350+058220FM-12+024499999V0209999C000019999999N0500001N1+00031-00561101801ADDGF108991081001999999021999MA1999999098761MD1810061+9999REMSYN066AAXX  07121 28334 42999 80000 10003 21056 39876 40180 58006 8802/;
0165283340999992000030715004+57350+058220FM-12+024499999V0209999C000019999999N0500001N1-00061-00371101811ADDAA199000091GF108991081001999999021999KA1999M+00041MD1410001+9999REMSYN070AAXX  07151 28334 32984 80000 11006 21037 40181 54000 8802/ 333 10004;EQDQ01  00002PRCP99
0175283340999992000030718004+57350+058220FM-12+024499999V0209999C000012200019N0500001N1-00161-00401101781ADDAA199000091GA1001+999999999GF100991001001999999001001KA1999M+00041MD1810041+9999REMSYN064AAXX  07181 28334 32984 00000 11016 21040 40178 58004 333 10004;EQDQ01  00002PRCP99
0122283340999992000030721004+57350+058220FM-12+024499999V0209999C000012200019N0500001N1-00201-00351101751ADDGA1001+999999999GF100991001001999999001001MD1710151+9999REMSYN054AAXX  07211 28334 42984 00000 11020 21035 40175 57015;
0133283340999992000030800004+57350+058220FM-12+024499999V0209999C000019999999N0500001N1-00261-00391101601ADDGF107991071001999999031001MA1999999098521MD1710151+9999REMSYN066AAXX  08001 28334 42984 70000 11026 21039 39852 40160 57015 87030;
0175283340999992000030803004+57350+058220FM-12+024499999V0209999C000019999999N0500001N1-00181-00361101391ADDAA199000091AJ100729199999999GF108991081001999999021999IA1239MD1710191+9999REMSYN070AAXX  08031 28334 32999 80000 11018 21036 40139 57019 8802/ 333 47072;EQDQ01  00002PRCP99
0165283340999992000030806004+57350+058220FM-12+024499999V0202301N002019999999N0500001N1+00181-00011100941ADDAA199000091GF108991081001999999021999KA1999N-00261MD1710391+9999REMSYN070AAXX  08061 28334 32999 82302 10018 21001 40094 57039 8802/ 333 21026;EQDQ01  00002PRCP99
0161283340999992000030812004+57350+058220FM-12+024499999V0202301N002019999999N0200001N1+00441+00241100611ADDAY161061AY271061GF108991081001999999021999MA1999999097651MD1710051+9999MW1611REMSYN072AAXX  08121 28334 42970 82302 10044 20024 39765 40061 57005 76167 8802/;
0135283340999992000030815004+57350+058220FM-12+024499999V0202301N002010300019N0500001N1+00051-00181100601ADDGF108991021071008001011999KA1999M+00451MD1710051+9999REMSYN070AAXX  08151 28334 /2584 82302 10005 21018 40060 57005 8271/ 333 10045;
0202283340999992000030818004+57350+058220FM-12+024499999V0209999C000010060019N0500001N1-00081-00301100531ADDAA112002091AY161061AY221061GA1081+006009069GF108991081071008001999999KA1120M+00451MD1710091+9999MW1021REMSYN088AAXX  08181 28334 11584 80000 11008 21030 40053 57009 60022 70262 887// 333 10045 88720;
0138283340999992000030821004+57350+058220FM-12+024499999V0202301N004010060019N0500001N1-00131-00301100451ADDGA1081+006009069GF108991081071008001999999MD1710091+9999REMSYN070AAXX  08211 28334 42584 82304 11013 21030 40045 57009 887// 333 88720;
0159283340999992000030900004+57350+058220FM-12+024499999V0202301N004010060019N0500001N1-00201-00351100291ADDGA1081+006009069GF108991081071008001999999MA1999999097261MD1710161+9999REMSYN076AAXX  09001 28334 42584 82304 11020 21035 39726 40029 57016 887// 333 88720;
0213283340999992000030903004+57350+058220FM-12+024499999V0202301N004010060019N0500001N1-00181-00391100051ADDAA199000091AJ100709199999999GA1081+006009029GF108991999071008001021999IA1239MD1710221+9999REMSYN076AAXX  09031 28334 32599 82304 11018 21039 40005 57022 8872/ 333 47070 88820;EQDQ01+000082SCOTLCQ02  00002PRCP99
0196283340999992000030906004+57350+058220FM-12+024499999V0201801N002010060019N0005001N1-00231-00381099821ADDAA199000021AY171061AY221061GA1081+006009029GF108991081001008001021999KA1120N-00201MD1710241+9999MW1751REMSYN082AAXX  09061 28334 31505 81802 11023 21038 49982 57024 77572 8802/ 333 21020 88520;
0185283340999992000030909004+57350+058220FM-12+024499999V0201801N004010060019N0060001N1-00061-00401099671ADDAY171031AY221031GA1081+006009029GF108991999071008001021999MD1710121+9999MW1711REMSYN076AAXX  09091 28334 41556 81804 11006 21040 49967 57012 77172 8872/ 333 88820;EQDQ01+000082SCOTLC
0206283340999992000030912004+57350+058220FM-12+024499999V0202301N004010060019N0020001N1-00071-00221099801ADDAY181061AY271061GA1081+006009029GF108991999071008001021999MA1999999096801MD1310121+9999MW1861REMSYN082AAXX  09121 28334 41520 82304 11007 21022 39680 49980 53012 78687 8872/ 333 88820;EQDQ01+000082SCOTLC
0163283340999992000030915004+57350+058220FM-12+024499999V0202301N002012200019N0500001N1-00201-00381100221ADDAY181031AY211031GF102991021031008001001001KA1999M-00031MD1210391+9999MW1261REMSYN076AAXX  09151 28334 /1584 22302 11020 21038 40022 52039 72681 82300 333 11003;
0131283340999992000030918004+57350+058220FM-12+024499999V0209999C002019999999N0500001N1-00261-00291100621ADDGF106991999001999999021999MD1010421+9999REMSYN060AAXX  09181 28334 42984 60002 11026 21029 40062 50042 8802/;EQDQ01+000082SCOTLC
0122283340999992000030921004+57350+058220FM-12+024499999V0209999C000012200019N0500001N1-01562+99999100651ADDGA1001+999999999GF100991001001999999001001MD1210031+9999REMSYN054AAXX  09211 28334 42984 00000 11156 21078 40065 52003;
0143283340999992000031000004+57350+058220FM-12+024499999V0209999C000012200019N0500001N1-00521-00731100711ADDGA1001+999999999GF100991001001999999001001MA1999999097641MD1210061+9999REMSYN060AAXX  10001 28334 42984 00000 11052 21073 39764 40071 52006;
0156283340999992000031003004+57350+058220FM-12+024499999V0209999C000019999999N0500001N1-00581-00761100641ADDAA199000021AJ100719199999999GF105991051001999999041001IA1279MD1810081+9999REMSYN070AAXX  10031 28334 32999 50000 11058 21076 40064 58008 85040 333 43071;
0187283340999992000031006004+57350+058220FM-12+024499999V0201801N002010069019N0500001N1-00271-00611100341ADDAA199000091GA1071+006909029GF107991071071008001011999KA1120N-00581MD1710251+9999REMSYN076AAXX  10061 28334 32599 71802 11027 21061 40034 57025 8771/ 333 21058 87823;EQDQ01  00002PRCP99
0166283340999992000031009004+57350+058220FM-12+024499999V0201801N004010069019N0200001N1+00081-00421100131ADDAY171031AY221031GA1071+006909029GF107991071071008001011999MD1710181+9999MW1711REMSYN076AAXX  10091 28334 41570 71804 10008 21042 40013 57018 77172 8771/ 333 87823;
0187283340999992000031012004+57350+058220FM-12+024499999V0201801N002010060019N0500001N1+00151-00071100121ADDAY171061AY221061GA1081+006009029GF108991081071008001999999MA1999999097141MD1710011+9999MW1021REMSYN082AAXX  10121 28334 41599 81802 10015 21007 39714 40012 57001 70272 887// 333 88820;
0185283340999992000031015004+57350+058220FM-12+024499999V0201801N004010060019N0500001N1+00151-00051100031ADDAY161031AY221031GA1081+006009029GF108991081071008001999999KA1120M+00161MD1710091+9999MW1021REMSYN082AAXX  10151 28334 /1584 81804 10015 21005 40003 57009 70262 887// 333 10016 88820;
0237283340999992000031018004+57350+058220FM-12+024499999V0202001N004010069019N0500001N1+00241-00031100111ADDAA112000791AY161061AY221061GA1081+006909029GF108991999071008001021999KA1120M+99999MD1310091+9999MW1211REMSYN088AAXX  10181 28334 11584 82004 10024 21003 40011 53009 69902 72162 8872/ 333 10016 88823;EQDQ01+000082SCOTLCQ02 +00162ATMX  
0157283340999992000031021004+57350+058220FM-12+024499999V0201801N004010060019N0500001N1+00241+00031100151ADDGA1081+006009029GF108991999071008001021999MD1210041+9999REMSYN070AAXX  10211 28334 42584 81804 10024 20003 40015 52004 8872/ 333 88820;EQDQ01+000082SCOTLC
0178283340999992000031100004+57350+058220FM-12+024499999V0201801N004010060019N0500001N1+00271+00061100151ADDGA1081+006009029GF108991999071008001021999MA1999999097181MD1410001+9999REMSYN076AAXX  11001 28334 42584 81804 10027 20006 39718 40015 54000 8872/ 333 88820;EQDQ01+000082SCOTLC
0167283340999992000031103004+57350+058220FM-12+024499999V0201801N004010060019N0500001N1+00321+00031100131ADDAJ100689199999999GA1081+006009029GF108991081071008001999999IA1279MD1810011+9999REMSYN076AAXX  11031 28334 /2599 81804 10032 20003 40013 58001 887// 333 43068 88820;
0174283340999992000031106004+57350+058220FM-12+024499999V0202301N004010060019N0500001N1+00531-00151100061ADDAA112000891GA1081+006009029GF108991081071008001999999KA1120N+00151MD1710051+9999REMSYN082AAXX  11061 28334 12599 82304 10053 21015 40006 57005 69972 887// 333 20015 88820;
0185283340999992000031109004+57350+058220FM-12+024499999V0201601N004010060019N0200001N1+00591-00011999999ADDAY161031AY221031GA1081+006009029GF108991081071008001999999MD1710231+9999MW1611REMSYN076AAXX  11091 28334 41570 81604 10059 21001 49689 57023 76162 887// 333 88820;EQDQ01+096893APOSLP
0187283340999992000031112004+57350+058220FM-12+024499999V0201801N004010060019N0500001N1+00411+00131099851ADDAY161061AY221061GA1081+006009099GF108991081031008001999999MA1999999096911MD1310021+9999MW1021REMSYN082AAXX  11121 28334 41599 81804 10041 20013 39691 49985 53002 70262 883// 333 88920;
0185283340999992000031115004+57350+058220FM-12+024499999V0201801N004010060019N0500001N1+00301+00141099981ADDAY161031AY221031GA1081+006009069GF108991081071008001999999KA1120M+00601MD1210121+9999MW1021REMSYN082AAXX  11151 28334 /1584 81804 10030 20014 49998 52012 70262 887// 333 10060 88720;
0202283340999992000031118004+57350+058220FM-12+024499999V0201801N004010060019N0500001N1+00131-00011100241ADDAA112000791AY161061AY221061GA1081+006009069GF108991081071008001999999KA1120M+00601MD1210231+9999MW1021REMSYN088AAXX  11181 28334 11584 81804 10013 21001 40024 52023 69902 70262 887// 333 10060 88720;
0166283340999992000031121004+57350+058220FM-12+024499999V0202001N004010060019N0500001N1-00211-00401100571ADDAY171031AY221031GA1071+006009069GF107991071071008001001001MD1210271+9999MW1011REMSYN076AAXX  11211 28334 41584 72004 11021 21040 40057 52027 70172 87700 333 87720;
0159283340999992000031200004+57350+058220FM-12+024499999V0202001N004010060019N0500001N1-00441-00641100851ADDGA1071+006009069GF107991071071008001001001MA1999999097871MD1210341+9999REMSYN076AAXX  12001 28334 42584 72004 11044 21064 39787 40085 52034 87700 333 87720;
0145283340999992000031203004+57350+058220FM-12+024499999V0202301N002019999999N0500001N1-00641-00831101111ADDAJ100669199999999GF106991061001999999071051IA1279MD1210271+9999REMSYN070AAXX  12031 28334 /2999 62302 11064 21083 40111 52027 86075 333 43066;
0157283340999992000031209004+57350+058220FM-12+024499999V0202301N002010069019N0500001N1-00311-00551101511ADDGA1071+006909099GF199999071031008001001001MD1210121+9999REMSYN070AAXX  12091 28334 42599 62302 11031 21055 40151 52012 87300 333 87923;EQDQ01+000062SCOTCV
0159283340999992000031212004+57350+058220FM-12+024499999V0209999C000010069019N0500001N1-00191-00471101521ADDGA1051+006909099GF105991051031008001001001MA1999999098451MD1210021+9999REMSYN076AAXX  12121 28334 42599 50000 11019 21047 39845 40152 52002 85300 333 85923;
0165283340999992000031215004+57350+058220FM-12+024499999V0209999C000019999999N0500001N1-00311-00511101561ADDAA199000091GF106991061001999999041001KA1999M-00181MD1210031+9999REMSYN070AAXX  12151 28334 32984 60000 11031 21051 40156 52003 86040 333 11018;EQDQ01  00002PRCP99
0165283340999992000031218004+57350+058220FM-12+024499999V0209999C000019999999N0500001N1-00591-00781101471ADDAA199000091GF108991081001999999011999KA1999M-00181MD1210011+9999REMSYN070AAXX  12181 28334 32984 80000 11059 21078 40147 52001 8801/ 333 11018;EQDQ01  00002PRCP99
0112283340999992000031221004+57350+058220FM-12+024499999V0209999C000019999999N0500001N1-00661-00821101561ADDGF108991081001999999011999MD1810041+9999REMSYN060AAXX  12211 28334 42984 80000 11066 21082 40156 58004 8801/;
0175283340999992000031303004+57350+058220FM-12+024499999V0209999C000019999999N0500001N1-00791-00971101581ADDAA199000091AJ100639199999999GF105991051001999999041001IA1239MD1810011+9999REMSYN070AAXX  13031 28334 32999 50000 11079 21097 40158 58001 85040 333 47063;EQDQ01  00002PRCP99
0165283340999992000031306004+57350+058220FM-12+024499999V0209999C000012200019N0500001N1-00471-00951101521ADDAA199000091GF102991001001999999001091KA1999N-00801MD1710011+9999REMSYN070AAXX  13061 28334 32999 20000 11047 21095 40152 57001 80009 333 21080;EQDQ01  00002PRCP99
0142283340999992000031309004+57350+058220FM-12+024499999V0202901N002012200019N0500001N1-00151-00921101491ADDAA199000091GF102991011011008001001091MD1410001+9999REMSYN060AAXX  13091 28334 32599 22902 11015 21092 40149 54000 81109;EQDQ01  00002PRCP99
0133283340999992000031312004+57350+058220FM-12+024499999V0202901N002019999999N0500001N1-00141-01091101501ADDGF106991001001999999001061MA1999999098441MD1310011+9999REMSYN066AAXX  13121 28334 42999 62902 11014 21109 39844 40150 53001 80006;
0159283340999992000031315004+57350+058220FM-12+024499999V0209999C000019999999N0500001N1-00391-01111101591ADDAA199000091GF106991999999999999999999KA1999M-00101MD1210061+9999REMSYN064AAXX  13151 28334 32984 60000 11039 21111 40159 52006 333 11010;EQDQ01  00002PRCP99
0165283340999992000031318004+57350+058220FM-12+024499999V0203601N002019999999N0500001N1-00621-01111101641ADDAA199000091GF105991051001999999041001KA1999M-00101MD1210031+9999REMSYN070AAXX  13181 28334 32984 53602 11062 21111 40164 52003 85040 333 11010;EQDQ01  00002PRCP99
0112283340999992000031321004+57350+058220FM-12+024499999V0200501N002019999999N0500001N1-00761-01211101641ADDGF106991061001999999041001MD1810011+9999REMSYN060AAXX  13211 28334 42984 60502 11076 21121 40164 58001 86040;
0133283340999992000031400004+57350+058220FM-12+024499999V0200501N002019999999N0500001N1-00891-01331101671ADDGF105991051001999999041001MA1999999098521MD1410001+9999REMSYN066AAXX  14001 28334 42984 50502 11089 21133 39852 40167 54000 85040;
0175283340999992000031403004+57350+058220FM-12+024499999V0202301N002019999999N0500001N1-00891-01281101661ADDAA199000091AJ100629199999999GF107991071001999999041001IA1239MD1810011+9999REMSYN070AAXX  14031 28334 32999 72302 11089 21128 40166 58001 87040 333 47062;EQDQ01  00002PRCP99
0165283340999992000031406004+57350+058220FM-12+024499999V0203401N004019999999N0500001N1-00811-01041101571ADDAA199000091GF107991071001999999011999KA1999N-00891MD1710081+9999REMSYN070AAXX  14061 28334 32999 73404 11081 21104 40157 57008 8701/ 333 21089;EQDQ01  00002PRCP99
0138283340999992000031409004+57350+058220FM-12+024499999V0203201N004010069019N0500001N1-00541-00961101561ADDGA1061+006909029GF108991051011008001011999MD1310031+9999REMSYN070AAXX  14091 28334 42599 83204 11054 21096 40156 53003 8511/ 333 86823;
0133283340999992000031412004+57350+058220FM-12+024499999V0203201N004012200019N0500001N1-00431-01031101561ADDGF103991031011008001011999MA1999999098471MD1210011+9999REMSYN066AAXX  14121 28334 42599 33204 11043 21103 39847 40156 52001 8311/;
0165283340999992000031415004+57350+058220FM-12+024499999V0202901N004012200019N0500001N1-00521-01061101671ADDAA199000091GF103991031071008001011999KA1999M-00421MD1210091+9999REMSYN070AAXX  14151 28334 32584 32904 11052 21106 40167 52009 8371/ 333 11042;EQDQ01  00002PRCP99
0193283340999992000031418004+57350+058220FM-12+024499999V0202501N002010750019N0500001N1-00731-01031101751ADDAA199000091AY171061AY211061GF108991021071008001001071KA1999M-00421MD1210061+9999MW1021REMSYN076AAXX  14181 28334 31584 82502 11073 21103 40175 52006 70271 82707 333 11042;EQDQ01  00002PRCP99
0140283340999992000031421004+57350+058220FM-12+024499999V0202501N002019999999N0200001N1-00941-01151101861ADDAY171031AY221031GF108991081001999999021999MD1210081+9999MW1701REMSYN066AAXX  14211 28334 41970 82502 11094 21115 40186 52008 77072 8802/;
0161283340999992000031500004+57350+058220FM-12+024499999V0202501N002010300019N0500001N1-01051-01181101931ADDAY171061AY221061GF106991021071008001011001MA1999999098761MD1210061+9999MW1011REMSYN072AAXX  15001 28334 41584 62502 11105 21118 39876 40193 52006 70172 82710;
0145283340999992000031503004+57350+058220FM-12+024499999V0202301N002010750019N0500001N1-01111-01171102021ADDAJ100629199999999GF106991031081008001001091IA1239MD1210081+9999REMSYN070AAXX  15031 28334 /2599 62302 11111 21117 40202 52008 83809 333 47062;
0152283340999992000031506004+57350+058220FM-12+024499999V0202701N004019999999N0500001N1-00691-00941102071ADDAA112000391GF106991001001999999001081KA1999N-01111MD1210091+9999REMSYN076AAXX  15061 28334 12999 62704 11069 21094 40207 52009 69932 80008 333 21111;
0112283340999992000031509004+57350+058220FM-12+024499999V0202701N004010300019N0500001N1-00571-00831102161ADDGF106991031071008001011001MD1210111+9999REMSYN060AAXX  15091 28334 42599 62704 11057 21083 40216 52011 83710;
0178283340999992000031512004+57350+058220FM-12+024499999V0202701N002010060019N0500001N1-00501-00951102161ADDGA1081+006009029GF108991999071008001021999MA1999999099041MD1410001+9999REMSYN076AAXX  15121 28334 42599 82702 11050 21095 39904 40216 54000 8872/ 333 88820;EQDQ01+000082SCOTLC
0165283340999992000031515004+57350+058220FM-12+024499999V0202701N002019999999N0500001N1-00651-01011102251ADDAA199000091GF105991051001999999041001KA1999M-00491MD1310081+9999REMSYN070AAXX  15151 28334 32984 52702 11065 21101 40225 53008 85040 333 11049;EQDQ01  00002PRCP99
0175283340999992000031518004+57350+058220FM-12+024499999V0209999C000012200019N0500001N1-01021-01381102331ADDAA199000091GA1001+999999999GF100991001001999999001001KA1999M-00491MD1210031+9999REMSYN064AAXX  15181 28334 32984 00000 11102 21138 40233 52003 333 11049;EQDQ01  00002PRCP99
0112283340999992000031521004+57350+058220FM-12+024499999V0209999C000019999999N0500001N1-01111-01471102341ADDGF108991081001999999051001MD1410001+9999REMSYN060AAXX  15211 28334 42984 80000 11111 21147 40234 54000 88050;
0159283340999992000031600004+57350+058220FM-12+024499999V0209999C000010069019N0500001N1-01051-01331102361ADDGA1081+006909059GF108991081051008001001001MA1999999099181MD1310031+9999REMSYN076AAXX  16001 28334 42584 80000 11105 21133 39918 40236 53003 88500 333 88623;
0197283340999992000031603004+57350+058220FM-12+024499999V0209999C000010069019N0500001N1-01101-01231102421ADDAA199000091AJ100629199999999GA1081+006909059GF108991081051008001001001IA1239MD1210041+9999REMSYN076AAXX  16031 28334 32599 80000 11110 21123 40242 52004 88500 333 47062 88623;EQDQ01  00002PRCP99
0138283340999992000031609004+57350+058220FM-12+024499999V0202301N002010069019N0500001N1-00311-00511102331ADDGA1061+006909099GF106991061031008001999999MD1810011+9999REMSYN070AAXX  16091 28334 42599 62302 11031 21051 40233 58001 863// 333 86923;
0133283340999992000031612004+57350+058220FM-12+024499999V0202301N004012200019N0500001N1-00331-00541102331ADDGF103991031011008001001001MA1999999099221MD1410001+9999REMSYN066AAXX  16121 28334 42599 32304 11033 21054 39922 40233 54000 83100;
0152283340999992000031615004+57350+058220FM-12+024499999V0209999C000012200019N0500001N1-00611-00761102391ADDAA199000091GA1001+999999999GF100991001001999999001001MD1319999+9999REMSYN054AAXX  16151 28334 32984 00000 11061 21076 40239 530//;EQDQ01  00002PRCP99
0175283340999992000031618004+57350+058220FM-12+024499999V0209999C000012200019N0500001N1-01141-01271102501ADDAA199000091GA1001+999999999GF100991001001999999001001KA1999M-00181MD1210051+9999REMSYN064AAXX  16181 28334 32984 00000 11114 21127 40250 52005 333 11018;EQDQ01  00002PRCP99
0122283340999992000031621004+57350+058220FM-12+024499999V0209999C000012200019N0500001N1-01301-01431102511ADDGA1001+999999999GF100991001001999999001001MD1810021+9999REMSYN054AAXX  16211 28334 42984 00000 11130 21143 40251 58002;
0143283340999992000031700004+57350+058220FM-12+024499999V0209999C000012200019N0500001N1-01571-01701102651ADDGA1001+999999999GF100991001001999999001001MA1999999099381MD1810101+9999REMSYN060AAXX  17001 28334 42984 00000 11157 21170 39938 40265 58010;
0173283340999992000031703004+57350+058220FM-12+024499999V0209999C000010300019N0200001N1-01711-01831102711ADDAJ100629199999999AY171031AY211031GF107991031071008001011001IA1239MD1210051+9999MW1701REMSYN076AAXX  17031 28334 /1570 70000 11171 21183 40271 52005 77071 83710 333 47062;
0180283340999992000031706004+57350+058220FM-12+024499999V0209999C000012200019N0200001N1-01061-01261102661ADDAA112000791AY171061AY211061GF103991011011008001071001KA1999N-01721MD1210031+9999MW1701REMSYN082AAXX  17061 28334 11570 30000 11106 21126 40266 52003 69902 77071 81170 333 21172;
0166283340999992000031709004+57350+058220FM-12+024499999V0209999C000010060019N0500001N1-00121-00961102551ADDAY171031AY211031GA1061+006009099GF106991061031008001001001MD1410001+9999MW1031REMSYN076AAXX  17091 28334 41599 60000 11012 21096 40255 54000 70371 86300 333 86920;
0187283340999992000031712004+57350+058220FM-12+024499999V0203201N002010060019N0500001N1-00201-00871102621ADDAY181061AY271061GA1061+006009099GF107991061031008001011001MA1999999099521MD1310061+9999MW1031REMSYN082AAXX  17121 28334 41599 73202 11020 21087 39952 40262 53006 70387 86310 333 86920;
0135283340999992000031715004+57350+058220FM-12+024499999V0209999C000012200019N0500001N1-00381-00871102701ADDGF102991021051008001011001KA1999M-00021MD1210051+9999REMSYN070AAXX  17151 28334 /2584 20000 11038 21087 40270 52005 82510 333 11002;
0152283340999992000031718004+57350+058220FM-12+024499999V0209999C000012200019N0500001N1-00861-01241102971ADDAA112000791GF101991011001999999031001KA1999M-00021MD1210221+9999REMSYN076AAXX  17181 28334 12984 10000 11086 21124 40297 52022 69902 81030 333 11002;
0112283340999992000031721004+57350+058220FM-12+024499999V0209999C000019999999N0500001N1-00941-01241103011ADDGF107991071001999999031001MD1310021+9999REMSYN060AAXX  17211 28334 42984 70000 11094 21124 40301 53002 87030;
0133283340999992000031800004+57350+058220FM-12+024499999V0209999C000019999999N0500001N1-00931-01141103131ADDGF108991081001999999021999MA1999999099931MD1210121+9999REMSYN066AAXX  18001 28334 42984 80000 11093 21114 39993 40313 52012 8802/;
0197283340999992000031803004+57350+058220FM-12+024499999V0202301N002010069019N0500001N1-00811-01041103161ADDAA199000091AJ100609199999999GA1071+006909059GF107991071051008001001001IA1239MD1210051+9999REMSYN076AAXX  18031 28334 32599 72302 11081 21104 40316 52005 87500 333 47060 87623;EQDQ01  00002PRCP99
0165283340999992000031806004+57350+058220FM-12+024499999V0209999C000019999999N0500001N1-00561-00781103211ADDAA199000091GF106991001001999999011999KA1999N-00941MD1210071+9999REMSYN070AAXX  18061 28334 32999 60000 11056 21078 40321 52007 8001/ 333 21094;EQDQ01  00002PRCP99
0138283340999992000031809004+57350+058220FM-12+024499999V0203201N002010069019N0500001N1-00111-00401103181ADDGA1061+006909029GF106991061021008001001001MD1210021+9999REMSYN070AAXX  18091 28334 42599 63202 11011 21040 40318 52002 86200 333 86823;
0159283340999992000031812004+57350+058220FM-12+024499999V0202901N002010069019N0500001N1-00081-00211103301ADDGA1061+006909029GF106991061021008001001001MA1999999100201MD1210131+9999REMSYN076AAXX  18121 28334 42599 62902 11008 21021 30020 40330 52013 86200 333 86823;
0165283340999992000031815004+57350+058220FM-12+024499999V0209999C000012200019N0500001N1-00341-00591103381ADDAA199000091GF102991021001999999041001KA1999M-00071MD1210051+9999REMSYN070AAXX  18151 28334 32984 20000 11034 21059 40338 52005 82040 333 11007;EQDQ01  00002PRCP99
0165283340999992000031818004+57350+058220FM-12+024499999V0209999C000019999999N0500001N1-00691-00981103521ADDAA199000091GF108991021001999999041071KA1999M-00071MD1210091+9999REMSYN070AAXX  18181 28334 32984 80000 11069 21098 40352 52009 82047 333 11007;EQDQ01  00002PRCP99
0112283340999992000031821004+57350+058220FM-12+024499999V0209999C000019999999N0500001N1-01051-01231103651ADDGF108991001001999999001071MD1210081+9999REMSYN060AAXX  18211 28334 42984 80000 11105 21123 40365 52008 80007;
0133283340999992000031900004+57350+058220FM-12+024499999V0209999C000019999999N0500001N1-01481-01611103781ADDGF108991001001999999001071MA1999999100491MD1210071+9999REMSYN066AAXX  19001 28334 42984 80000 11148 21161 30049 40378 52007 80007;
0203283340999992000031903004+57350+058220FM-12+024499999V0209999C000019999999N0060001N1-01711-01831103881ADDAA199000091AJ100619199999999AY121031AY221031GF108991001001999999001071IA1239MD1210071+9999MW1101REMSYN076AAXX  19031 28334 31956 80000 11171 21183 40388 52007 71022 80007 333 47061;EQDQ01  00002PRCP99
0165283340999992000031906004+57350+058220FM-12+024499999V0209999C000019999999N0500001N1-00871-01111103751ADDAA199000091GF105991001001999999001021KA1999N-01711MD1810011+9999REMSYN070AAXX  19061 28334 32999 50000 11087 21111 40375 58001 80002 333 21171;EQDQ01  00002PRCP99
0112283340999992000031909004+57350+058220FM-12+024499999V0209999C000019999999N0500001N1+00091-00711103611ADDGF105991001001999999001021MD1710041+9999REMSYN060AAXX  19091 28334 42999 50000 10009 21071 40361 57004 80002;
0133283340999992000031912004+57350+058220FM-12+024499999V0209999C000019999999N0500001N1+00111-00601103601ADDGF108991001001999999011999MA1999999100501MD1710011+9999REMSYN066AAXX  19121 28334 42999 80000 10011 21060 30050 40360 57001 8001/;
0165283340999992000031915004+57350+058220FM-12+024499999V0209999C000019999999N0500001N1-00151-00671103561ADDAA199000091GF108991001001999999011999KA1999M+00121MD1710061+9999REMSYN070AAXX  19151 28334 32984 80000 11015 21067 40356 57006 8001/ 333 10012;EQDQ01  00002PRCP99
0165283340999992000031918004+57350+058220FM-12+024499999V0209999C000019999999N0500001N1-00391-00881103511ADDAA199000091GF108991001001999999011999KA1999M+00121MD1710091+9999REMSYN070AAXX  19181 28334 32984 80000 11039 21088 40351 57009 8001/ 333 10012;EQDQ01  00002PRCP99
0112283340999992000031921004+57350+058220FM-12+024499999V0209999C000019999999N0500001N1-00421-00921103381ADDGF108991001001999999011999MD1710121+9999REMSYN060AAXX  19211 28334 42984 80000 11042 21092 40338 57012 8001/;
0143283340999992000032000004+57350+058220FM-12+024499999V0209999C000012200019N0500001N1-00591-01071103341ADDGA1001+999999999GF100991001001999999001001MA1999999100171MD1710061+9999REMSYN060AAXX  20001 28334 42984 00000 11059 21107 30017 40334 57006;
0175283340999992000032003004+57350+058220FM-12+024499999V0209999C000019999999N0500001N1-00741-01001103201ADDAA199000091AJ100619199999999GF106991051001999999031011IA1239MD1710141+9999REMSYN070AAXX  20031 28334 32999 60000 11074 21100 40320 57014 85031 333 47061;EQDQ01  00002PRCP99
0165283340999992000032006004+57350+058220FM-12+024499999V0202301N002012200019N0500001N1-00211-00561103031ADDAA199000091GF103991001001999999001091KA1999N-00741MD1710111+9999REMSYN070AAXX  20061 28334 32999 32302 11021 21056 40303 57011 80009 333 21074;EQDQ01  00002PRCP99
0131283340999992000032009004+57350+058220FM-12+024499999V0202301N002012200019N0500001N1+00231-00951102791ADDGF101991999001999999041001MD1710171+9999REMSYN060AAXX  20091 28334 42999 12302 10023 21095 40279 57017 80040;EQDQ01+000002SCOTLC
0165283340999992000032015004+57350+058220FM-12+024499999V0202301N004019999999N0500001N1-00031-00591102491ADDAA199000091GF106991061001999999041001KA1999M+00271MD1810331+9999REMSYN070AAXX  20151 28334 32984 62304 11003 21059 40249 58033 86040 333 10027;EQDQ01  00002PRCP99
0165283340999992000032018004+57350+058220FM-12+024499999V0202701N008019999999N0500001N1-00161-00651102321ADDAA199000091GF106991061001999999031001KA1999M+00271MD1710181+9999REMSYN070AAXX  20181 28334 32984 62708 11016 21065 40232 57018 86030 333 10027;EQDQ01  00002PRCP99
0112283340999992000032021004+57350+058220FM-12+024499999V0202701N008019999999N0500001N1-00211-00561102241ADDGF108991081001999999011999MD1710091+9999REMSYN060AAXX  20211 28334 42984 82708 11021 21056 40224 57009 8801/;
0133283340999992000032100004+57350+058220FM-12+024499999V0202701N008019999999N0500001N1-00241-00531102181ADDGF108991081001999999011999MA1999999099091MD1710061+9999REMSYN066AAXX  21001 28334 42984 82708 11024 21053 39909 40218 57006 8801/;
0214283340999992000032103004+57350+058220FM-12+024499999V0202501N006010060019N0200001N1-00271-00461102121ADDAJ100599199999999AY171031AY221031GA1081+006009069GF108991999071008001021999IA1239MD1710061+9999MW1701REMSYN082AAXX  21031 28334 /1570 82506 11027 21046 40212 57006 77072 8872/ 333 47059 88720;EQDQ01+000082SCOTLC
0180283340999992000032106004+57350+058220FM-12+024499999V0202301N004012200019N0500001N1-00011-00661102001ADDAA112000791AY171061AY221061GF105991021011008001041091KA1999N-00271MD1710091+9999MW1011REMSYN082AAXX  21061 28334 11599 52304 11001 21066 40200 57009 69902 70172 82149 333 21027;
0112283340999992000032109004+57350+058220FM-12+024499999V0202301N006012200019N0500001N1+00221-00701101861ADDGF103991001001999999001051MD1710101+9999REMSYN060AAXX  21091 28334 42999 32306 10022 21070 40186 57010 80005;
0133283340999992000032112004+57350+058220FM-12+024499999V0202001N004012200019N0500001N1+00321-00761101741ADDGF102991001001999999001021MA1999999098731MD1710111+9999REMSYN066AAXX  21121 28334 42999 22004 10032 21076 39873 40174 57011 80002;
0175283340999992000032115004+57350+058220FM-12+024499999V0202301N004012200019N0500001N1+00091-00881101721ADDAA199000021GA1001+999999999GF100991001001999999001001KA1999M+00351MD1710021+9999REMSYN064AAXX  21151 28334 32984 02304 10009 21088 40172 57102 333 10035;EQDQ01+001022APC3  
0175283340999992000032118004+57350+058220FM-12+024499999V0202301N004012200019N0500001N1-00201-00781101861ADDAA199000091GA1001+999999999GF100991001001999999001001KA1999M+00351MD1310101+9999REMSYN064AAXX  21181 28334 32984 02304 11020 21078 40186 53010 333 10035;EQDQ01  00002PRCP99
0112283340999992000032121004+57350+058220FM-12+024499999V0202301N002019999999N0500001N1-00291-00631101731ADDGF108991001001999999001071MD1810141+9999REMSYN060AAXX  21211 28334 42984 82302 11029 21063 40173 58014 80007;
0133283340999992000032200004+57350+058220FM-12+024499999V0209999C000019999999N0500001N1-00461-00851101661ADDGF105991051001999999031001MA1999999098561MD1710081+9999REMSYN066AAXX  22001 28334 42984 50000 11046 21085 39856 40166 57008 85030;
0175283340999992000032203004+57350+058220FM-12+024499999V0202301N002010300019N0500001N1-00571-00951101611ADDAA199000091AJ100569199999999GF105991031051008001011001IA1239MD1710051+9999REMSYN070AAXX  22031 28334 32599 52302 11057 21095 40161 57005 83510 333 47056;EQDQ01  00002PRCP99
0203283340999992000032206004+57350+058220FM-12+024499999V0202301N002010069019N0500001N1-00081-00271101511ADDAA199000091GA1081+006909059GF199999081051008001999999KA1120N-00571MD1710041+9999REMSYN076AAXX  22061 28334 32599 62302 11008 21027 40151 57004 885// 333 21057 88623;EQDQ01+000062SCOTCVQ02  00002PRCP99
0138283340999992000032209004+57350+058220FM-12+024499999V0202301N002010069019N0500001N1+00181-00381101411ADDGA1071+006909069GF107991071071008001011999MD1710081+9999REMSYN070AAXX  22091 28334 42599 72302 10018 21038 40141 57008 8771/ 333 87723;
0133283340999992000032212004+57350+058220FM-12+024499999V0202301N002012200019N0500001N1+00311-00741101281ADDGF103991001001999999001091MA1999999098281MD1710111+9999REMSYN066AAXX  22121 28334 42999 32302 10031 21074 39828 40128 57011 80009;
0165283340999992000032215004+57350+058220FM-12+024499999V0209999C000019999999N0500001N1+00081-00691101311ADDAA199000091GF105991001001999999001091KA1999M+00321MD1410001+9999REMSYN070AAXX  22151 28334 32984 50000 10008 21069 40131 54000 80009 333 10032;EQDQ01  00002PRCP99
0165283340999992000032218004+57350+058220FM-12+024499999V0209999C000010750019N0500001N1-00261-00561101251ADDAA199000091GF108991021051008001001071KA1999M+00321MD1810091+9999REMSYN070AAXX  22181 28334 32584 80000 11026 21056 40125 58009 82507 333 10032;EQDQ01  00002PRCP99
0112283340999992000032221004+57350+058220FM-12+024499999V0209999C000010300019N0500001N1-00291-00521101171ADDGF108991031081008001021999MD1710091+9999REMSYN060AAXX  22211 28334 42584 80000 11029 21052 40117 57009 8382/;
0133283340999992000032300004+57350+058220FM-12+024499999V0209999C000019999999N0500001N1-00251-00471101051ADDGF108991081001999999021999MA1999999097991MD1710111+9999REMSYN066AAXX  23001 28334 42984 80000 11025 21047 39799 40105 57011 8802/;
0163283340999992000032306004+57350+058220FM-12+024499999V0209999C000019999999N0060001N1+00071-00271100741ADDAY171061AY221061GF108991081001999999021999KA1999N-00351MD1710081+9999MW1101REMSYN076AAXX  23061 28334 11956 80000 10007 21027 40074 57008 71072 8802/ 333 21035;
0138283340999992000032309004+57350+058220FM-12+024499999V0202001N002010060019N0500001N1+00261-00481100611ADDGA1061+006009099GF106991061031008001001001MD1710101+9999REMSYN070AAXX  23091 28334 42599 62002 10026 21048 40061 57010 86300 333 86920;
0159283340999992000032312004+57350+058220FM-12+024499999V0202301N002010069019N0500001N1+00181-00571100531ADDGA1071+006909099GF107991071031008001001001MA1999999097541MD1710091+9999REMSYN076AAXX  23121 28334 42599 72302 10018 21057 39754 40053 57009 87300 333 87923;
0152283340999992000032318004+57350+058220FM-12+024499999V0209999C000019999999N0500001N1-00131-00501100441ADDAA112000791GF108991081001999999021999KA1999M+00291MD1710081+9999REMSYN076AAXX  23181 28334 12984 80000 11013 21050 40044 57008 69902 8802/ 333 10029;
0140283340999992000032321004+57350+058220FM-12+024499999V0202301N002019999999N0200001N1-00171-00551100331ADDAY171031AY221031GF108991081001999999021999MD1710101+9999MW1711REMSYN066AAXX  23211 28334 41970 82302 11017 21055 40033 57010 77172 8802/;
0161283340999992000032400004+57350+058220FM-12+024499999V0202301N002019999999N0200001N1-00191-00541100321ADDAY171061AY221061GF108991081001999999021999MA1999999097291MD1710021+9999MW1711REMSYN072AAXX  24001 28334 41970 82302 11019 21054 39729 40032 57002 77172 8802/;
0173283340999992000032403004+57350+058220FM-12+024499999V0209999C000019999999N0500001N1-00081-00271100321ADDAJ100609199999999AY171031AY221031GF108991081001999999021999IA1239MD1310021+9999MW1711REMSYN076AAXX  24031 28334 /1999 80000 11008 21027 40032 53002 77172 8802/ 333 47060;
0202283340999992000032406004+57350+058220FM-12+024499999V0202301N002010069019N0500001N1+00031-00261100481ADDAA112003091AY171061AY221061GA1071+006909029GF107991071071008001021999KA1120N-00191MD1210171+9999MW1011REMSYN088AAXX  24061 28334 11599 72302 10003 21026 40048 52017 60032 70172 8772/ 333 21019 87823;
0166283340999992000032409004+57350+058220FM-12+024499999V0202501N004010069019N0500001N1+00191-00401100561ADDAY181031AY221031GA1071+006909099GF107991071031008001001001MD1210091+9999MW1011REMSYN076AAXX  24091 28334 41599 72504 10019 21040 40056 52009 70182 87300 333 87923;
0187283340999992000032412004+57350+058220FM-12+024499999V0202501N002010069019N0500001N1+00261-00601100691ADDAY181061AY221061GA1051+006909099GF105991051031008001001001MA1999999097701MD1210131+9999MW1011REMSYN082AAXX  24121 28334 41599 52502 10026 21060 39770 40069 52013 70182 85300 333 85923;
0157283340999992000032415004+57350+058220FM-12+024499999V0209999C000010099019N0500001N1+00031-00591100731ADDGA1051+009909099GF105991051031008001001001KA1120M+00271MD1210021+9999REMSYN076AAXX  24151 28334 12584 50000 10003 21059 40073 52002 85300 333 10027 85933;
0162283340999992000032418004+57350+058220FM-12+024499999V0209999C000012200019N0500001N1-00291-00561100851ADDAA112000591GA1001+999999999GF100991001001999999001001KA1999M+00271MD1210071+9999REMSYN070AAXX  24181 28334 12984 00000 11029 21056 40085 52007 69952 333 10027;
0122283340999992000032421004+57350+058220FM-12+024499999V0209999C000012200019N0500001N1-00371-00551100761ADDGA1001+999999999GF100991001001999999001001MD1810091+9999REMSYN054AAXX  24211 28334 42984 00000 11037 21055 40076 58009;
0187283340999992000032500004+57350+058220FM-12+024499999V0202301N002010060019N0150001N1-00401-00521100651ADDAY171061AY221061GA1081+006009029GF108991081001008001021999MA1999999097591MD1710111+9999MW1711REMSYN082AAXX  25001 28334 41565 82302 11040 21052 39759 40065 57011 77172 8802/ 333 88520;
0214283340999992000032503004+57350+058220FM-12+024499999V0202001N002010060019N0200001N1-00111-00211100491ADDAJ100609199999999AY171031AY221031GA1081+006009069GF108991999071008001021999IA1239MD1710131+9999MW1701REMSYN082AAXX  25031 28334 /1570 82002 11011 21021 40049 57013 77072 8872/ 333 47060 88720;EQDQ01+000082SCOTLC
0202283340999992000032506004+57350+058220FM-12+024499999V0202001N006010060019N0060001N1+00321+00001100481ADDAA112002091AY171061AY221061GA1061+006009099GF107991061031008001071001KA1120N-00401MD1310051+9999MW1101REMSYN088AAXX  25061 28334 11556 72006 10032 20000 40048 53005 60022 71072 86370 333 21040 86920;
0138283340999992000032509004+57350+058220FM-12+024499999V0202001N004010060019N0500001N1+00371-00161100521ADDGA1071+006009099GF108991071031008001071999MD1210041+9999REMSYN070AAXX  25091 28334 42599 82004 10037 21016 40052 52004 8737/ 333 87920;
0206283340999992000032512004+57350+058220FM-12+024499999V0201801N004010060019N0060001N1+00301+00061100471ADDAY161061AY251061GA1081+006009029GF108991999071008001021999MA1999999097501MD1810051+9999MW1581REMSYN082AAXX  25121 28334 41556 81804 10030 20006 39750 40047 58005 75865 8872/ 333 88820;EQDQ01+000082SCOTLC
0185283340999992000032515004+57350+058220FM-12+024499999V0201801N002010060019N0060001N1+00131+00051100401ADDAY161031AY251031GA1081+006009069GF108991081071008001999999KA1120M+00401MD1710091+9999MW1591REMSYN082AAXX  25151 28334 /1556 81802 10013 20005 40040 57009 75965 887// 333 10040 88720;
0221283340999992000032518004+57350+058220FM-12+024499999V0201801N002010060019N0060001N1+00131+00051100381ADDAA112004191AY161061AY251061GA1081+006009029GF108991999071008001021999KA1120M+00401MD1710021+9999MW1711REMSYN088AAXX  25181 28334 11556 81802 10013 20005 40038 57002 60042 77165 8872/ 333 10040 88820;EQDQ01+000082SCOTLC
0221283340999992000032521004+57350+058220FM-12+024499999V0201801N002010060019N0060001N1+00131+00051100381ADDAA112004191AY161031AY251031GA1081+006009029GF108991999071008001021999KA1120M+00401MD1710021+9999MW1711REMSYN088AAXX  25211 28334 11556 81802 10013 20005 40038 57002 60042 77165 8872/ 333 10040 88820;EQDQ01+000082SCOTLC
0161283340999992000032600004+57350+058220FM-12+024499999V0209999C000019999999N0060001N1-00101-00191100121ADDAY171061AY221061GF105991051001999999031001MA1999999097101MD1710201+9999MW1011REMSYN072AAXX  26001 28334 41956 50000 11010 21019 39710 40012 57020 70172 85030;
0195283340999992000032603004+57350+058220FM-12+024499999V0209999C000010069019N0060001N1-00101-00191099961ADDAJ100589199999999AY121031AY221031GA1051+006909099GF106991051031008001071001IA1279MD1710151+9999MW1101REMSYN082AAXX  26031 28334 /1556 60000 11010 21019 49996 57015 71022 85370 333 43058 85923;
0174283340999992000032606004+57350+058220FM-12+024499999V0209999C000010069019N0500001N1+00111-00181099831ADDAA112001091GA1051+006909099GF106991051031008001071001KA1120N-00101MD1710101+9999REMSYN082AAXX  26061 28334 12599 60000 10011 21018 49983 57010 69992 85370 333 21010 85923;
0166283340999992000032609004+57350+058220FM-12+024499999V0209999C000010069019N0500001N1+00181-00331099581ADDAY181031AY221031GA1071+006909099GF107991071031008001001001MD1710241+9999MW1031REMSYN076AAXX  26091 28334 41599 70000 10018 21033 49958 57024 70382 87300 333 87923;
0161283340999992000032612004+57350+058220FM-12+024499999V0202701N002010300019N0500001N1+00171-00411099591ADDAY181061AY221061GF108991031071008001011999MA1999999096821MD1310011+9999MW1031REMSYN072AAXX  26121 28334 41599 82702 10017 21041 39682 49959 53001 70382 8371/;
0204283340999992000032615004+57350+058220FM-12+024499999V0202901N002010060019N0500001N1-00031-00301099721ADDAY171031AY221031GA1081+006009029GF108991999071008001021999KA1120M+00191MD1210111+9999MW1021REMSYN082AAXX  26151 28334 /1584 82902 11003 21030 49972 52011 70272 8872/ 333 10019 88820;EQDQ01+000082SCOTLC
0221283340999992000032618004+57350+058220FM-12+024499999V0203201N002010060019N0150001N1-00151-00451099911ADDAA112000391AY171061AY221061GA1081+006009029GF108991999071008001021999KA1120M+00191MD1210171+9999MW1711REMSYN088AAXX  26181 28334 11565 83202 11015 21045 49991 52017 69932 77172 8872/ 333 10019 88820;EQDQ01+000082SCOTLC
0166283340999992000032621004+57350+058220FM-12+024499999V0203201N004010069019N0500001N1-00371-00741100131ADDAY171031AY221031GA1061+006909029GF106991061081008001001001MD1210191+9999MW1011REMSYN076AAXX  26211 28334 41584 63204 11037 21074 40013 52019 70172 86800 333 86823;
0187283340999992000032700004+57350+058220FM-12+024499999V0202701N004010069019N0500001N1-00401-00741100261ADDAY171061AY221061GA1061+006909029GF107991061081008001041001MA1999999097211MD1210121+9999MW1031REMSYN082AAXX  27001 28334 41584 72704 11040 21074 39721 40026 52012 70372 86840 333 86823;
0167283340999992000032703004+57350+058220FM-12+024499999V0202901N002010069019N0500001N1-00381-00641100381ADDAJ100589199999999GA1071+006909029GF107991071071008001041001IA1239MD1210121+9999REMSYN076AAXX  27031 28334 /2599 72902 11038 21064 40038 52012 87740 333 47058 87823;
0221283340999992000032706004+57350+058220FM-12+024499999V0202301N004010060019N0200001N1-00341-00701100621ADDAA112000191AY171061AY221061GA1081+006009029GF108991999071008001021999KA1120N-00411MD1210231+9999MW1711REMSYN088AAXX  27061 28334 11570 82304 11034 21070 40062 52023 69922 77172 8872/ 333 21041 88820;EQDQ01+000082SCOTLC
0166283340999992000032709004+57350+058220FM-12+024499999V0202901N004010060019N0200001N1-00251-00651100831ADDAY181031AY271031GA1071+006009099GF107991071031008001001001MD1210211+9999MW1851REMSYN076AAXX  27091 28334 41570 72904 11025 21065 40083 52021 78587 87300 333 87920;
0187283340999992000032712004+57350+058220FM-12+024499999V0202901N004010060019N0500001N1-00171-00551101051ADDAY181061AY221061GA1071+006009099GF107991071031008001001001MA1999999098001MD1210221+9999MW1021REMSYN082AAXX  27121 28334 41599 72904 11017 21055 39800 40105 52022 70282 87300 333 87920;
0157283340999992000032715004+57350+058220FM-12+024499999V0202701N002010060019N0500001N1-00331-00651101371ADDGA1051+006009099GF105991051031008001001001KA1120M-00161MD1210291+9999REMSYN076AAXX  27151 28334 /2584 52702 11033 21065 40137 52029 85300 333 11016 85920;
0150283340999992000032721004+57350+058220FM-12+024499999V0202701N002012200019N0500001N1-00651-00891101781ADDAY181031AY221031GA1001+999999999GF100991001001999999001001MD1210131+9999MW1261REMSYN060AAXX  27211 28334 41984 02702 11065 21089 40178 52013 72682;
0133283340999992000032800004+57350+058220FM-12+024499999V0202701N002019999999N0500001N1-00661-00901101931ADDGF108991081001999999021999MA1999999098811MD1210151+9999REMSYN066AAXX  28001 28334 42984 82702 11066 21090 39881 40193 52015 8802/;
0145283340999992000032803004+57350+058220FM-12+024499999V0209999C000019999999N0500001N1-00691-00941102151ADDAJ100589199999999GF106991061001999999031001IA1239MD1210201+9999REMSYN070AAXX  28031 28334 12999 60000 11069 21094 40215 52020 86030 333 47058;
0152283340999992000032806004+57350+058220FM-12+024499999V0202301N002012200019N0500001N1-00221-00811102261ADDAA112000891GF103991031011008001001001KA1999N-00691MD1210161+9999REMSYN076AAXX  28061 28334 12599 32302 11022 21081 40226 52016 69982 83100 333 21069;
0138283340999992000032809004+57350+058220FM-12+024499999V0201401N002010069019N0500001N1-00161-00801102341ADDGA1051+006909099GF105991051031008001001001MD1210091+9999REMSYN070AAXX  28091 28334 42599 51402 11016 21080 40234 52009 85300 333 85923;
0133283340999992000032812004+57350+058220FM-12+024499999V0202301N002010300019N0500001N1-00061-00961102281ADDGF105991031011008001041091MA1999999099211MD1810051+9999REMSYN066AAXX  28121 28334 42599 52302 11006 21096 39921 40228 58005 83149;
0187283340999992000032815004+57350+058220FM-12+024499999V0202301N002010069019N0500001N1-00191-00891102311ADDAA199000091GA1061+006909059GF107991061051008001031001KA1120M-00051MD1310011+9999REMSYN076AAXX  28151 28334 32599 72302 11019 21089 40231 53001 86530 333 11005 86623;EQDQ01  00002PRCP99
0175283340999992000032818004+57350+058220FM-12+024499999V0209999C000012200019N0500001N1-00401-00851102361ADDAA199000091GA1001+999999999GF100991001001999999001001KA1999M-00051MD1210021+9999REMSYN064AAXX  28181 28334 32984 00000 11040 21085 40236 52002 333 11005;EQDQ01  00002PRCP99
0143283340999992000032900004+57350+058220FM-12+024499999V0209999C000012200019N0500001N1-00781-01141102401ADDGA1001+999999999GF100991001001999999001001MA1999999099231MD1810021+9999REMSYN060AAXX  29001 28334 42984 00000 11078 21114 39923 40240 58002;
0175283340999992000032903004+57350+058220FM-12+024499999V0209999C000012200019N0500001N1-00881-01121102371ADDAA199000091AJ100579199999999GF103991031001999999041001IA1239MD1710041+9999REMSYN070AAXX  29031 28334 32999 30000 11088 21112 40237 57004 83040 333 47057;EQDQ01  00002PRCP99
0165283340999992000032906004+57350+058220FM-12+024499999V0202301N006012200019N0500001N1-00151-01331102181ADDAA199000091GF103991001001999999001091KA1999N-00891MD1710081+9999REMSYN070AAXX  29061 28334 32999 32306 11015 21133 40218 57008 80009 333 21089;EQDQ01  00002PRCP99
0138283340999992000032909004+57350+058220FM-12+024499999V0202301N006010300019N0500001N1-00031-01161102031ADDGA1041+006909029GF105991041021008001041001MD1710141+9999REMSYN070AAXX  29091 28334 42599 52306 11003 21116 40203 57014 84240 333 84823;
0133283340999992000032912004+57350+058220FM-12+024499999V0202301N006012200019N0500001N1-00041-01351101931ADDGF103991021081008001001091MA1999999098871MD1710101+9999REMSYN066AAXX  29121 28334 42599 32306 11004 21135 39887 40193 57010 82809;
0165283340999992000032915004+57350+058220FM-12+024499999V0202301N006012200019N0500001N1-00211-01121101861ADDAA199000091GF103991011001999999041051KA1999M+00001MD1710091+9999REMSYN070AAXX  29151 28334 32999 32306 11021 21112 40186 57009 81045 333 10000;EQDQ01  00002PRCP99
0175283340999992000032918004+57350+058220FM-12+024499999V0202301N002012200019N0500001N1-00331-00881101891ADDAA199000091GA1001+999999999GF100991001001999999001001KA1999M+00001MD1310021+9999REMSYN064AAXX  29181 28334 32984 02302 11033 21088 40189 53002 333 10000;EQDQ01  00002PRCP99
0122283340999992000032921004+57350+058220FM-12+024499999V0202301N002012200019N0500001N1-00411-00831101861ADDGA1001+999999999GF100991001001999999001001MD1810041+9999REMSYN054AAXX  29211 28334 42984 02302 11041 21083 40186 58004;
0143283340999992000033000004+57350+058220FM-12+024499999V0209999C000012200019N0500001N1-00461-00851101791ADDGA1001+999999999GF100991001001999999001001MA1999999098691MD1710071+9999REMSYN060AAXX  30001 28334 42984 00000 11046 21085 39869 40179 57007;
0175283340999992000033003004+57350+058220FM-12+024499999V0202301N002019999999N0500001N1-00621-01061101701ADDAA199000091AJ100559199999999GF108991001001999999001071IA1239MD1710111+9999REMSYN070AAXX  30031 28334 32999 82302 11062 21106 40170 57011 80007 333 47055;EQDQ01  00002PRCP99
0165283340999992000033006004+57350+058220FM-12+024499999V0202301N004019999999N0500001N1-00281-00941101591ADDAA199000091GF106991061001999999041021KA1999N-00621MD1710071+9999REMSYN070AAXX  30061 28334 32999 62304 11028 21094 40159 57007 86042 333 21062;EQDQ01  00002PRCP99
0138283340999992000033009004+57350+058220FM-12+024499999V0202301N010010069019N0500001N1-00061-01101101331ADDGA1051+006909099GF106991051031008001001021MD1710221+9999REMSYN070AAXX  30091 28334 42599 62310 11006 21110 40133 57022 85302 333 85923;
0206283340999992000033012004+57350+058220FM-12+024499999V0202301N010010060019N0500001N1-00181-00791101131ADDAY171061AY221061GA1081+006009029GF199999081001008001021999MA1999999098071MD1710221+9999MW1711REMSYN082AAXX  30121 28334 41599 62310 11018 21079 39807 40113 57022 77172 8802/ 333 88520;EQDQ01+000062SCOTCV
0182283340999992000033015004+57350+058220FM-12+024499999V0202301N004019999999N0500001N1-00281-00851101071ADDAY171031AY221031GF106991999001999999021999KA1999M-00051MD1710071+9999MW1021REMSYN076AAXX  30151 28334 /1999 62304 11028 21085 40107 57007 70272 8802/ 333 11005;EQDQ01+000082SCOTLC
0221283340999992000033018004+57350+058220FM-12+024499999V0209999C000010060019N0500001N1-00311-00591101001ADDAA112000791AY171061AY221061GA1081+006009029GF108991999071008001021999KA1120M-00051MD1710061+9999MW1221REMSYN088AAXX  30181 28334 11584 80000 11031 21059 40100 57006 69902 72272 8872/ 333 11005 88820;EQDQ01+000082SCOTLC
0166283340999992000033021004+57350+058220FM-12+024499999V0202301N002010060019N0020001N1-00351-00531100861ADDAY171031AY221031GA1051+006009029GF108991051071008001021999MD1710141+9999MW1721REMSYN076AAXX  30211 28334 41520 82302 11035 21053 40086 57014 77272 8572/ 333 85820;
0187283340999992000033100004+57350+058220FM-12+024499999V0202301N002010060019N0150001N1-00321-00531100771ADDAY171061AY221061GA1081+006009029GF108991081071008001999999MA1999999097711MD1710091+9999MW1711REMSYN082AAXX  31001 28334 41565 82302 11032 21053 39771 40077 57009 77172 887// 333 88820;
0195283340999992000033103004+57350+058220FM-12+024499999V0202301N002010069019N0060001N1-00291-00421100721ADDAJ100579199999999AY171031AY221031GA1081+006909059GF108991081071008001999999IA1239MD1710051+9999MW1711REMSYN082AAXX  31031 28334 /1556 82302 11029 21042 40072 57005 77172 887// 333 47057 88623;
0166283340999992000033106004+57350+058220FM-12+024499999V0202501N002010069019N0200001N1-00231-00351100701ADDAY171061AY221061GA1081+006909029GF108991081071008001999999MD1710011+9999MW1701REMSYN076AAXX  31061 28334 11570 82502 11023 21035 40070 57001 77072 887// 333 88823;
0166283340999992000033109004+57350+058220FM-12+024499999V0202301N002010060019N0500001N1-00061-00341100681ADDAY171031AY221031GA1081+006009029GF108991081071008001999999MD1410001+9999MW1021REMSYN076AAXX  31091 28334 41599 82302 11006 21034 40068 54000 70272 887// 333 88820;
0187283340999992000033112004+57350+058220FM-12+024499999V0202501N002010060019N0500001N1+00071-00401100641ADDAY171061AY221061GA1081+006009029GF108991081071008001999999MA1999999097601MD1810051+9999MW1021REMSYN082AAXX  31121 28334 41599 82502 10007 21040 39760 40064 58005 70272 887// 333 88820;
0157283340999992000033115004+57350+058220FM-12+024499999V0202301N004010060019N0500001N1+00061-00411100591ADDGA1081+006009029GF108991081071008001999999KA1120M+00081MD1710011+9999REMSYN076AAXX  31151 28334 /2599 82304 10006 21041 40059 57001 887// 333 10008 88820;
0174283340999992000033118004+57350+058220FM-12+024499999V0202301N004010060019N0500001N1+00121-00331100831ADDAA112000791GA1081+006009029GF108991081071008001999999KA1120M+00081MD1310241+9999REMSYN082AAXX  31181 28334 12584 82304 10012 21033 40083 53024 69902 887// 333 10008 88820;
0138283340999992000033121004+57350+058220FM-12+024499999V0202301N004010060019N0500001N1+00161-00281100851ADDGA1081+006009029GF108991081071008001999999MD1210021+9999REMSYN070AAXX  31211 28334 42584 82304 10016 21028 40085 52002 887// 333 88820;
0159283340999992000040100004+57350+058220FM-12+024499999V0202301N004010060019N0500001N1+00151-00261100891ADDGA1081+006009029GF108991081071008001999999MA1999999097891MD1210041+9999REMSYN076AAXX  01001 28334 42584 82304 10015 21026 39789 40089 52004 887// 333 88820;
0175283340999992000040103004+57350+058220FM-12+024499999V0202301N004019999999N0500001N1+00181-00191101171ADDAA199000091AJ100569199999999GF108991081001999999021999IA1279MD1210271+9999REMSYN070AAXX  01031 28334 32999 82304 10018 21019 40117 52027 8802/ 333 43056;EQDQ01  00002PRCP99
0165283340999992000040106004+57350+058220FM-12+024499999V0202301N002012200019N0500001N1+00501-00191101401ADDAA199000091GF103991021011008001001021KA1999N+00061MD1210271+9999REMSYN070AAXX  01061 28334 32599 32302 10050 21019 40140 52027 82102 333 20006;EQDQ01  00002PRCP99
0138283340999992000040109004+57350+058220FM-12+024499999V0202301N002010069019N0500001N1+00511-00241101641ADDGA1071+006909059GF107991071001008001051001MD1210231+9999REMSYN070AAXX  01091 28334 42599 72302 10051 21024 40164 52023 87050 333 87623;
0133283340999992000040112004+57350+058220FM-12+024499999V0202301N002019999999N0500001N1+00611-00211101801ADDGF107991071001999999051001MA1999999098821MD1210171+9999REMSYN066AAXX  01121 28334 42999 72302 10061 21021 39882 40180 52017 87050;
0175283340999992000040115004+57350+058220FM-12+024499999V0209999C000012200019N0500001N1+00371-00061101951ADDAA199000091GA1001+999999999GF100991001001999999001001KA1999M+00621MD1210111+9999REMSYN064AAXX  01151 28334 32999 00000 10037 21006 40195 52011 333 10062;EQDQ01  00002PRCP99
0175283340999992000040118004+57350+058220FM-12+024499999V0209999C000012200019N0500001N1-00061-00341102061ADDAA199000091GA1001+999999999GF100991001001999999001001KA1999M+00621MD1210071+9999REMSYN064AAXX  01181 28334 32984 00000 11006 21034 40206 52007 333 10062;EQDQ01  00002PRCP99
0122283340999992000040121004+57350+058220FM-12+024499999V0209999C000012200019N0500001N1-00111-00361102091ADDGA1001+999999999GF100991001001999999001001MD1210021+9999REMSYN054AAXX  01211 28334 42984 00000 11011 21036 40209 52002;
0143283340999992000040200004+57350+058220FM-12+024499999V0209999C000012200019N0500001N1-00171-00381102081ADDGA1001+999999999GF100991001001999999001001MA1999999099011MD1810011+9999REMSYN060AAXX  02001 28334 42984 00000 11017 21038 39901 40208 58001;
0145283340999992000040203004+57350+058220FM-12+024499999V0209999C000019999999N0500001N1-00131-00351102071ADDAJ100559199999999GF106991061001999999081001IA1279MD1710011+9999REMSYN070AAXX  02031 28334 42999 60000 11013 21035 40207 57001 86080 333 43055;
0165283340999992000040206004+57350+058220FM-12+024499999V0202301N002019999999N0500001N1+00401-00291101921ADDAA199000091GF105991011001999999081051KA1999N-00181MD1710091+9999REMSYN070AAXX  02061 28334 32999 52302 10040 21029 40192 57009 81085 333 21018;EQDQ01  00002PRCP99
0138283340999992000040209004+57350+058220FM-12+024499999V0202301N004010069019N0500001N1+00571-00271101751ADDGA1051+006909029GF107991051011008001041051MD1710151+9999REMSYN070AAXX  02091 28334 42599 72304 10057 21027 40175 57015 85145 333 85823;
0133283340999992000040212004+57350+058220FM-12+024499999V0202001N004019999999N0500001N1+00621-00381101531ADDGF108991051001999999071071MA1999999098551MD1710211+9999REMSYN066AAXX  02121 28334 42999 82004 10062 21038 39855 40153 57021 85077;
0185283340999992000040215004+57350+058220FM-12+024499999V0202001N006010060019N0500001N1+00371-00031101471ADDAY161031AY221031GA1061+006009029GF108991061071008001021999KA1120M+00651MD1710081+9999MW1211REMSYN082AAXX  02151 28334 /1599 82006 10037 21003 40147 57008 72162 8672/ 333 10065 86820;
0152283340999992000040218004+57350+058220FM-12+024499999V0202001N008019999999N0500001N1+00181-00191101521ADDAA112000791GF108991081001999999021999KA1999M+00651MD1310031+9999REMSYN076AAXX  02181 28334 12984 82008 10018 21019 40152 53003 69902 8802/ 333 10065;
0112283340999992000040221004+57350+058220FM-12+024499999V0202301N004010300019N0500001N1+00151-00201101621ADDGF108991031071008001021999MD1210091+9999REMSYN060AAXX  02211 28334 42584 82304 10015 21020 40162 52009 8372/;
0133283340999992000040300004+57350+058220FM-12+024499999V0202301N002019999999N0500001N1+00111-00181101671ADDGF108991081001999999021999MA1999999098641MD1210051+9999REMSYN066AAXX  03001 28334 42984 82302 10011 21018 39864 40167 52005 8802/;
0156283340999992000040303004+57350+058220FM-12+024499999V0202501N002019999999N0500001N1+00211+00051101711ADDAA199000021AJ100559199999999GF108991081001999999021999IA1279MD1210051+9999REMSYN070AAXX  03031 28334 32999 82502 10021 20005 40171 52005 8802/ 333 43055;
0165283340999992000040306004+57350+058220FM-12+024499999V0202501N002019999999N0500001N1+00301-00021101951ADDAA199000091GF108991081001999999021999KA1999N-00111MD1210241+9999REMSYN070AAXX  03061 28334 32999 82502 10030 21002 40195 52024 8802/ 333 21011;EQDQ01  00002PRCP99
0112283340999992000040309004+57350+058220FM-12+024499999V0209999C000019999999N0500001N1+00481+00081102191ADDGF107991071001999999031001MD1210241+9999REMSYN060AAXX  03091 28334 42999 70000 10048 20008 40219 52024 87030;
0133283340999992000040312004+57350+058220FM-12+024499999V0202301N002019999999N0500001N1+00541+00051102171ADDGF106991061001999999031001MA1999999099171MD1410001+9999REMSYN066AAXX  03121 28334 42999 62302 10054 20005 39917 40217 54000 86030;
0163283340999992000040315004+57350+058220FM-12+024499999V0209999C000019999999N0500001N1+00441+00111102361ADDAY161031AY221031GF108991081001999999021999KA1999M+00551MD1310171+9999MW1211REMSYN076AAXX  03151 28334 /1999 80000 10044 20011 40236 53017 72162 8802/ 333 10055;
0180283340999992000040318004+57350+058220FM-12+024499999V0209999C000019999999N0500001N1+00271-00091102361ADDAA112000791AY161061AY221061GF107991071001999999011001KA1999M+00551MD1810021+9999MW1011REMSYN082AAXX  03181 28334 11984 70000 10027 21009 40236 58002 69902 70162 87010 333 10055;
0112283340999992000040321004+57350+058220FM-12+024499999V0209999C000019999999N0500001N1+00131-00161102481ADDGF108991081001999999021999MD1310111+9999REMSYN060AAXX  03211 28334 42984 80000 10013 21016 40248 53011 8802/;
0133283340999992000040400004+57350+058220FM-12+024499999V0209999C000012200019N0500001N1-00011-00161102501ADDGF102991001001999999001021MA1999999099441MD1210011+9999REMSYN066AAXX  04001 28334 42984 20000 11001 21016 39944 40250 52001 80002;
0156283340999992000040403004+57350+058220FM-12+024499999V0209999C000019999999N0500001N1-00011-00131102451ADDAA199000021AJ100519199999999GF108991061001999999071021IA1279MD1810051+9999REMSYN070AAXX  04031 28334 32999 80000 11001 21013 40245 58005 86072 333 43051;
0165283340999992000040406004+57350+058220FM-12+024499999V0201401N002019999999N0500001N1+00381-00051102311ADDAA199000091GF108991081001999999021999KA1999N-00111MD1710111+9999REMSYN070AAXX  04061 28334 32999 81402 10038 21005 40231 57011 8802/ 333 21011;EQDQ01  00002PRCP99
0112283340999992000040409004+57350+058220FM-12+024499999V0201401N002019999999N0500001N1+00731-00121102031ADDGF108991081001999999071999MD1710221+9999REMSYN060AAXX  04091 28334 42999 81402 10073 21012 40203 57022 8807/;
0206283340999992000040412004+57350+058220FM-12+024499999V0201401N002010060019N0500001N1+00891+00021101721ADDAY161061AY221061GA1081+006009029GF108991999071008001021999MA1999999098781MD1710281+9999MW1021REMSYN082AAXX  04121 28334 41599 81402 10089 20002 39878 40172 57028 70262 8872/ 333 88820;EQDQ01+000082SCOTLC
0176283340999992000040415004+57350+058220FM-12+024499999V0201401N002010060019N0500001N1+00751+00131101541ADDGA1081+006009029GF108991999071008001021999KA1120M+00901MD1710211+9999REMSYN076AAXX  04151 28334 /2599 81402 10075 20013 40154 57021 8872/ 333 10090 88820;EQDQ01+000082SCOTLC
0152283340999992000040418004+57350+058220FM-12+024499999V0209999C000019999999N0500001N1+00601+00151101511ADDAA112000791GF108991081001999999021999KA1999M+00901MD1710031+9999REMSYN076AAXX  04181 28334 12984 80000 10060 20015 40151 57003 69902 8802/ 333 10090;
0112283340999992000040421004+57350+058220FM-12+024499999V0209999C000019999999N0500001N1+00481+00121101151ADDGF107991071001999999031001MD1710361+9999REMSYN060AAXX  04211 28334 42984 70000 10048 20012 40115 57036 87030;
0187283340999992000040500004+57350+058220FM-12+024499999V0209999C000010060019N0150001N1+00401+00171101091ADDAY161061AY221061GA1081+006009029GF108991081001008001021999MA1999999098111MD1710071+9999MW1611REMSYN082AAXX  05001 28334 41565 80000 10040 20017 39811 40109 57007 76162 8802/ 333 88520;
0195283340999992000040503004+57350+058220FM-12+024499999V0201801N002010060019N0200001N1+00421+00271101131ADDAJ100459199999999AY161031AY221031GA1081+006009029GF108991081001008001021999IA1279MD1310041+9999MW1611REMSYN082AAXX  05031 28334 /1570 81802 10042 20027 40113 53004 76162 8802/ 333 43045 88520;
0202283340999992000040506004+57350+058220FM-12+024499999V0202301N002010060019N0060001N1+00661+00521101121ADDAA112001091AY161061AY221061GA1081+006009029GF108991081001008001021999KA1120N+00401MD1210021+9999MW1611REMSYN088AAXX  05061 28334 11556 82302 10066 20052 40112 52002 60012 76162 8802/ 333 20040 88520;
0140283340999992000040509004+57350+058220FM-12+024499999V0202301N002019999999N0060001N1+00501+00301101451ADDAY161031AY251031GF108991081001999999021999MD1210171+9999MW1101REMSYN066AAXX  05091 28334 41956 82302 10050 20030 40145 52017 71065 8802/;
0187283340999992000040512004+57350+058220FM-12+024499999V0202501N002010060019N0060001N1+00301+00141101501ADDAY161061AY251061GA1081+006009029GF108991081001008001021999MA1999999098501MD1210161+9999MW1511REMSYN082AAXX  05121 28334 41556 82502 10030 20014 39850 40150 52016 75165 8802/ 333 88520;
0185283340999992000040515004+57350+058220FM-12+024499999V0209999C000010060019N0060001N1+00261+00161101651ADDAY151031AY241031GA1081+006009029GF108991081001008001021999KA1120M+00671MD1210131+9999MW1511REMSYN082AAXX  05151 28334 /1556 80000 10026 20016 40165 52013 75154 8802/ 333 10067 88520;
0202283340999992000040518004+57350+058220FM-12+024499999V0209999C000010060019N0005001N1+00231+00131101791ADDAA112003091AY151061AY241061GA1081+006009029GF108991081001008001021999KA1120M+00671MD1210141+9999MW1511REMSYN088AAXX  05181 28334 11505 80000 10023 20013 40179 52014 60032 75154 8802/ 333 10067 88520;
0166283340999992000040521004+57350+058220FM-12+024499999V0202301N002010060019N0005001N1+00201+00121102041ADDAY151031AY241031GA1081+006009029GF108991081001008001021999MD1210241+9999MW1511REMSYN076AAXX  05211 28334 41505 82302 10020 20012 40204 52024 75154 8802/ 333 88520;
0187283340999992000040600004+57350+058220FM-12+024499999V0202301N002010060019N0005001N1+00071+00011102221ADDAY151061AY241061GA1081+006009029GF108991081001008001021999MA1999999099161MD1210151+9999MW1441REMSYN082AAXX  06001 28334 41505 82302 10007 20001 39916 40222 52015 74454 8802/ 333 88520;
0195283340999992000040603004+57350+058220FM-12+024499999V0203401N002010060019N0060001N1-00321-00511102441ADDAJ100409199999999AY141031AY221031GA1071+006009029GF107991071071008001021001IA1239MD1210171+9999MW1101REMSYN082AAXX  06031 28334 /1556 73402 11032 21051 40244 52017 71042 87720 333 47040 87820;
0180283340999992000040606004+57350+058220FM-12+024499999V0200701N004010300019N0500001N1-00201-00701102611ADDAA112000791AY141061AY221061GF108991021011008001021999KA1999N-00331MD1210181+9999MW1031REMSYN082AAXX  06061 28334 11599 80704 11020 21070 40261 52018 69902 70342 8212/ 333 21033;
0112283340999992000040609004+57350+058220FM-12+024499999V0200901N002019999999N0500001N1+00121-00401102591ADDGF106991031001999999041091MD1210021+9999REMSYN060AAXX  06091 28334 42999 60902 10012 21040 40259 52002 83049;
0133283340999992000040612004+57350+058220FM-12+024499999V0200901N002012200019N0500001N1+00431-00351102561ADDGF104991011001999999041081MA1999999099541MD1210011+9999REMSYN066AAXX  06121 28334 42999 40902 10043 21035 39954 40256 52001 81048;
0165283340999992000040615004+57350+058220FM-12+024499999V0209999C000012200019N0500001N1+00241-00321102631ADDAA199000091GF103991001001999999001081KA1999M+00491MD1210041+9999REMSYN070AAXX  06151 28334 32999 30000 10024 21032 40263 52004 80008 333 10049;EQDQ01  00002PRCP99
0175283340999992000040618004+57350+058220FM-12+024499999V0209999C000012200019N0500001N1-00141-00581102801ADDAA199000091GA1001+999999999GF100991001001999999001001KA1999M+00491MD1210131+9999REMSYN064AAXX  06181 28334 32984 00000 11014 21058 40280 52013 333 10049;EQDQ01  00002PRCP99
0122283340999992000040621004+57350+058220FM-12+024499999V0209999C000012200019N0500001N1-00291-00751102791ADDGA1001+999999999GF100991001001999999001001MD1810041+9999REMSYN054AAXX  06211 28334 42984 00000 11029 21075 40279 58004;
0143283340999992000040700004+57350+058220FM-12+024499999V0209999C000012200019N0500001N1-00361-00761102751ADDGA1001+999999999GF100991001001999999001001MA1999999099631MD1710041+9999REMSYN060AAXX  07001 28334 42984 00000 11036 21076 39963 40275 57004;
0185283340999992000040703004+57350+058220FM-12+024499999V0209999C000012200019N0500001N1-00241-00721102701ADDAA199000091AJ100399199999999GA1001+999999999GF100991001001999999001001IA1239MD1710031+9999REMSYN064AAXX  07031 28334 32999 00000 11024 21072 40270 57003 333 47039;EQDQ01  00002PRCP99
0175283340999992000040706004+57350+058220FM-12+024499999V0209999C000012200019N0500001N1+00391-00411102571ADDAA199000091GA1001+999999999GF100991001001999999001001KA1999N-00361MD1710071+9999REMSYN064AAXX  07061 28334 32999 00000 10039 21041 40257 57007 333 21036;EQDQ01  00002PRCP99
0122283340999992000040709004+57350+058220FM-12+024499999V0209999C000012200019N0500001N1+01061-00171102361ADDGA1001+999999999GF100991001001999999001001MD1710121+9999REMSYN054AAXX  07091 28334 42999 00000 10106 21017 40236 57012;
0143283340999992000040712004+57350+058220FM-12+024499999V0209999C000012200019N0500001N1+01201-00271102311ADDGA1001+999999999GF100991001001999999001001MA1999999099381MD1710031+9999REMSYN060AAXX  07121 28334 42999 00000 10120 21027 39938 40231 57003;
0142283340999992000040715004+57350+058220FM-12+024499999V0209999C000012200019N0500001N1+00961-00191102301ADDAA199000091GF102991001001999999001021MD1710041+9999REMSYN060AAXX  07151 28334 32999 20000 10096 21019 40230 57004 80002;EQDQ01  00002PRCP99
0175283340999992000040718004+57350+058220FM-12+024499999V0209999C000012200019N0500001N1+00101-00541102301ADDAA199000091GA1001+999999999GF100991001001999999001001KA1999M+01211MD1710101+9999REMSYN064AAXX  07181 28334 32984 00000 10010 21054 40230 57010 333 10121;EQDQ01  00002PRCP99
0122283340999992000040721004+57350+058220FM-12+024499999V0209999C000012200019N0500001N1-00131-00761102321ADDGA1001+999999999GF100991001001999999001001MD1410001+9999REMSYN054AAXX  07211 28334 42984 00000 11013 21076 40232 54000;
0143283340999992000040800004+57350+058220FM-12+024499999V0209999C000012200019N0500001N1-00241-00801102271ADDGA1001+999999999GF100991001001999999001001MA1999999099181MD1810061+9999REMSYN060AAXX  08001 28334 42984 00000 11024 21080 39918 40227 58006;
0175283340999992000040803004+57350+058220FM-12+024499999V0209999C000019999999N0500001N1-00201-00781102211ADDAA199000091AJ100379199999999GF107991071001999999031001IA1239MD1710061+9999REMSYN070AAXX  08031 28334 32999 70000 11020 21078 40221 57006 87030 333 47037;EQDQ01  00002PRCP99
0175283340999992000040806004+57350+058220FM-12+024499999V0209999C000012200019N0500001N1+00671+00001101971ADDAA199000091GA1001+999999999GF100991001001999999001001KA1999N-00241MD1710131+9999REMSYN064AAXX  08061 28334 32999 00000 10067 20000 40197 57013 333 21024;EQDQ01  00002PRCP99
0122283340999992000040809004+57350+058220FM-12+024499999V0209999C000012200019N0500001N1+01331+00111101761ADDGA1001+999999999GF100991001001999999001001MD1710171+9999REMSYN054AAXX  08091 28334 42999 00000 10133 20011 40176 57017;
0133283340999992000040812004+57350+058220FM-12+024499999V0209999C000012200019N0500001N1+01531+00041101531ADDGF101991011011999999001001MA1999999098651MD1710171+9999REMSYN066AAXX  08121 28334 42999 10000 10153 20004 39865 40153 57017 81100;
0165283340999992000040815004+57350+058220FM-12+024499999V0209999C000012200019N0500001N1+01151+00111101531ADDAA199000091GF103991001001999999001081KA1999M+01571MD1710041+9999REMSYN070AAXX  08151 28334 32999 30000 10115 20011 40153 57004 80008 333 10157;EQDQ01  00002PRCP99
0175283340999992000040818004+57350+058220FM-12+024499999V0209999C000012200019N0500001N1+00201-00521101711ADDAA199000091GA1001+999999999GF100991001001999999001001KA1999M+01571MD1310061+9999REMSYN064AAXX  08181 28334 32984 00000 10020 21052 40171 53006 333 10157;EQDQ01  00002PRCP99
0122283340999992000040821004+57350+058220FM-12+024499999V0209999C000012200019N0500001N1-00121-00751101741ADDGA1001+999999999GF100991001001999999001001MD1210011+9999REMSYN054AAXX  08211 28334 42984 00000 11012 21075 40174 52001;
0143283340999992000040900004+57350+058220FM-12+024499999V0209999C000012200019N0500001N1-00221-00581101781ADDGA1001+999999999GF100991001001999999001001MA1999999098701MD1210021+9999REMSYN060AAXX  09001 28334 42984 00000 11022 21058 39870 40178 52002;
0175283340999992000040903004+57350+058220FM-12+024499999V0209999C000019999999N0500001N1-00181-00461101911ADDAA199000091AJ100339199999999GF106991061001999999031001IA1279MD1210151+9999REMSYN070AAXX  09031 28334 32999 60000 11018 21046 40191 52015 86030 333 43033;EQDQ01  00002PRCP99
0165283340999992000040906004+57350+058220FM-12+024499999V0209999C000019999999N0500001N1+00431+00121102001ADDAA199000091GF107991071001999999031001KA1999N-00221MD1210031+9999REMSYN070AAXX  09061 28334 32999 70000 10043 20012 40200 52003 87030 333 21022;EQDQ01  00002PRCP99
0112283340999992000040909004+57350+058220FM-12+024499999V0200201N002019999999N0500001N1+00301+00031102151ADDGF108991081001999999021999MD1210251+9999REMSYN060AAXX  09091 28334 42999 80202 10030 20003 40215 52025 8802/;
0133283340999992000040912004+57350+058220FM-12+024499999V0200201N002019999999N0500001N1+00291+00081102411ADDGF108991081001999999021999MA1999999099381MD1210251+9999REMSYN066AAXX  09121 28334 42999 80202 10029 20008 39938 40241 52025 8802/;
0135283340999992000040915004+57350+058220FM-12+024499999V0200501N002019999999N0500001N1+00171-00051102601ADDGF108991081001999999021999KA1999M+00441MD1210161+9999REMSYN070AAXX  09151 28334 /2999 80502 10017 21005 40260 52016 8802/ 333 10044;
0162283340999992000040918004+57350+058220FM-12+024499999V0209999C000012200019N0500001N1-00131-00351102811ADDAA112000791GA1001+999999999GF100991001001999999001001KA1999M+00441MD1210181+9999REMSYN070AAXX  09181 28334 12984 00000 11013 21035 40281 52018 69902 333 10044;
0122283340999992000040921004+57350+058220FM-12+024499999V0209999C000012200019N0500001N1-00241-00431102891ADDGA1001+999999999GF100991001001999999001001MD1210061+9999REMSYN054AAXX  09211 28334 42984 00000 11024 21043 40289 52006;
0143283340999992000041000004+57350+058220FM-12+024499999V0209999C000012200019N0500001N1-00351-00531102991ADDGA1001+999999999GF100991001001999999001001MA1999999099871MD1210091+9999REMSYN060AAXX  10001 28334 42984 00000 11035 21053 39987 40299 52009;
0185283340999992000041003004+57350+058220FM-12+024499999V0209999C000012200019N0500001N1-00411-00641103011ADDAA199000091AJ100339199999999GA1001+999999999GF100991001001999999001001IA1279MD1410001+9999REMSYN064AAXX  10031 28334 32999 00000 11041 21064 40301 54000 333 43033;EQDQ01  00002PRCP99
0175283340999992000041006004+57350+058220FM-12+024499999V0200901N002012200019N0500001N1+00431-00901102881ADDAA199000091GA1001+999999999GF100991001001999999001001KA1999N-00421MD1810021+9999REMSYN064AAXX  10061 28334 32999 00902 10043 21090 40288 58002 333 21042;EQDQ01  00002PRCP99
0122283340999992000041009004+57350+058220FM-12+024499999V0201401N002012200019N0500001N1+00761-01171102701ADDGA1001+999999999GF100991001001999999001001MD1710141+9999REMSYN054AAXX  10091 28334 42999 01402 10076 21117 40270 57014;
0143283340999992000041012004+57350+058220FM-12+024499999V0201401N002012200019N0500001N1+00961-01031102541ADDGA1001+999999999GF100991001001999999001001MA1999999099571MD1710141+9999REMSYN060AAXX  10121 28334 42999 01402 10096 21103 39957 40254 57014;
0175283340999992000041015004+57350+058220FM-12+024499999V0209999C000012200019N0500001N1+00851-00741102431ADDAA199000091GA1001+999999999GF100991001001999999001001KA1999M+01101MD1710121+9999REMSYN064AAXX  10151 28334 32999 00000 10085 21074 40243 57012 333 10110;EQDQ01  00002PRCP99
0175283340999992000041018004+57350+058220FM-12+024499999V0209999C000012200019N0500001N1+00161-00501102491ADDAA199000091GA1001+999999999GF100991001001999999001001KA1999M+01101MD1710011+9999REMSYN064AAXX  10181 28334 32984 00000 10016 21050 40249 57001 333 10110;EQDQ01  00002PRCP99
0122283340999992000041021004+57350+058220FM-12+024499999V0209999C000012200019N0500001N1+00071-00431102421ADDGA1001+999999999GF100991001001999999001001MD1710081+9999REMSYN054AAXX  10211 28334 42984 00000 10007 21043 40242 57008;
0143283340999992000041100004+57350+058220FM-12+024499999V0209999C000012200019N0500001N1-00061-00481102421ADDGA1001+999999999GF100991001001999999001001MA1999999099351MD1710011+9999REMSYN060AAXX  11001 28334 42984 00000 11006 21048 39935 40242 57001;
0185283340999992000041103004+57350+058220FM-12+024499999V0209999C000012200019N0500001N1-00271-00611102401ADDAA199000091AJ100249199999999GA1001+999999999GF100991001001999999001001IA1239MD1710041+9999REMSYN064AAXX  11031 28334 32999 00000 11027 21061 40240 57004 333 47024;EQDQ01  00002PRCP99
0175283340999992000041106004+57350+058220FM-12+024499999V0209999C000012200019N0500001N1+00621+00121102221ADDAA199000091GA1001+999999999GF100991001001999999001001KA1999N-00281MD1710081+9999REMSYN064AAXX  11061 28334 32999 00000 10062 20012 40222 57008 333 21028;EQDQ01  00002PRCP99
0112283340999992000041109004+57350+058220FM-12+024499999V0209999C000019999999N0500001N1+01181+00091102131ADDGF105991051001999999041001MD1710031+9999REMSYN060AAXX  11091 28334 42999 50000 10118 20009 40213 57003 85040;
0127283340999992000041112004+57350+058220FM-12+024499999V0209999C000019999999N0500001N1-00272+99999101891ADDGF105991021001999999031021MA1999999098961MD1710241+9999REMSYN060AAXX  11121 28334 42999 50000 11027 39896 40189 57024 82032;
0197283340999992000041115004+57350+058220FM-12+024499999V0209999C000019999999N0500001N1+00821-00301101631ADDAA199000091AJ199991999999999GF108991081001999999021999IA1309MD1710281+9999REMSYN076AAXX  11151 28334 32999 80000 10082 21030 40163 57028 8802/ 333 42999 50000;EQDQ01  00002PRCP99Q02  09962SNDP  
0165283340999992000041118004+57350+058220FM-12+024499999V0201401N002019999999N0500001N1+00501-00371101741ADDAA199000091GF108991081001999999071999KA1999M+01191MD1310071+9999REMSYN070AAXX  11181 28334 32984 81402 10050 21037 40174 53007 8807/ 333 10119;EQDQ01  00002PRCP99
0138283340999992000041121004+57350+058220FM-12+024499999V0209999C000010069019N0500001N1+00291-00331101531ADDGA1061+006909029GF108991061011008001071999MD1810231+9999REMSYN070AAXX  11211 28334 42584 80000 10029 21033 40153 58023 8617/ 333 86823;
0159283340999992000041200004+57350+058220FM-12+024499999V0209999C000010069019N0500001N1+00281-00411101291ADDGA1061+006909029GF108991061011008001071999MA1999999098281MD1710241+9999REMSYN076AAXX  12001 28334 42584 80000 10028 21041 39828 40129 57024 8617/ 333 86823;
0195283340999992000041203004+57350+058220FM-12+024499999V0200901N002010069019N0500001N1+00311-00171101111ADDAJ100189199999999AY161031AY221031GA1051+006909029GF108991051011008001021999IA1309MD1710161+9999MW1601REMSYN082AAXX  12031 28334 /1599 80902 10031 21017 40111 57016 76062 8512/ 333 42018 85823;
0185283340999992000041206004+57350+058220FM-12+024499999V0200901N002010069019N0200001N1+00251+00121101021ADDAY161061AY221061GA1081+006909069GF108991081071008001999999KA1120N+00221MD1710101+9999MW1611REMSYN082AAXX  12061 28334 11570 80902 10025 20012 40102 57010 76162 887// 333 20022 88723;
0185283340999992000041209004+57350+058220FM-12+024499999V0200501N002010069019N0200001N1+00241+00111100811ADDAY161031AY221031GA1081+006909069GF108991999071008001021999MD1710201+9999MW1611REMSYN076AAXX  12091 28334 41570 80502 10024 20011 40081 57020 76162 8872/ 333 88723;EQDQ01+000082SCOTLC
0206283340999992000041212004+57350+058220FM-12+024499999V0209999C000010069019N0500001N1+00281+00151100671ADDAY161061AY221061GA1081+006909069GF108991999071008001021999MA1999999097691MD1710131+9999MW1021REMSYN082AAXX  12121 28334 41599 80000 10028 20015 39769 40067 57013 70262 8872/ 333 88723;EQDQ01+000082SCOTLC
0204283340999992000041215004+57350+058220FM-12+024499999V0209999C000010069019N0200001N1+00261+00161100661ADDAY161031AY251031GA1081+006909069GF108991999071008001021999KA1120M+00321MD1710021+9999MW1601REMSYN082AAXX  12151 28334 /1570 80000 10026 20016 40066 57002 76065 8872/ 333 10032 88723;EQDQ01+000082SCOTLC
0221283340999992000041218004+57350+058220FM-12+024499999V0209999C000010069019N0150001N1+00201+00121100631ADDAA112003091AY161061AY251061GA1081+006909069GF108991999071008001021999KA1120M+00321MD1710021+9999MW1601REMSYN088AAXX  12181 28334 11565 80000 10020 20012 40063 57002 60032 76065 8872/ 333 10032 88723;EQDQ01+000082SCOTLC
0185283340999992000041221004+57350+058220FM-12+024499999V0209999C000010069019N0500001N1+00161+00051100561ADDAY161031AY221031GA1081+006909069GF108991999071008001021999MD1710081+9999MW1021REMSYN076AAXX  12211 28334 41584 80000 10016 20005 40056 57008 70262 8872/ 333 88723;EQDQ01+000082SCOTLC
0206283340999992000041300004+57350+058220FM-12+024499999V0209999C000010069019N0500001N1+00141+00001100541ADDAY161061AY221061GA1081+006909069GF108991999071008001021999MA1999999097551MD1710021+9999MW1021REMSYN082AAXX  13001 28334 41584 80000 10014 20000 39755 40054 57002 70262 8872/ 333 88723;EQDQ01+000082SCOTLC
0195283340999992000041303004+57350+058220FM-12+024499999V0209999C000010069019N0200001N1+00081-00031100531ADDAJ100169199999999AY181031AY221031GA1081+006909099GF108991081031008001999999IA1279MD1710021+9999MW1831REMSYN082AAXX  13031 28334 /1570 80000 10008 21003 40053 57002 78382 883// 333 43016 88923;
0202283340999992000041306004+57350+058220FM-12+024499999V0200501N002010060019N0200001N1+00191+00061100461ADDAA112000591AY181061AY251061GA1081+006009029GF108991081001008001021999KA1120N+00081MD1710051+9999MW1511REMSYN088AAXX  13061 28334 /1570 80502 10019 20006 40046 57005 69962 75185 8802/ 333 20008 88520;
0166283340999992000041309004+57350+058220FM-12+024499999V0200501N002010060019N0200001N1+00211+00081100511ADDAY151031AY221031GA1081+006009029GF108991081001008001021999MD1310051+9999MW1511REMSYN076AAXX  13091 28334 41570 80502 10021 20008 40051 53005 75152 8802/ 333 88520;
0187283340999992000041312004+57350+058220FM-12+024499999V0200501N002010060019N0500001N1+00301+00141100611ADDAY151061AY221061GA1081+006009029GF108991081001008001021999MA1999999097641MD1210111+9999MW1021REMSYN082AAXX  13121 28334 41599 80502 10030 20014 39764 40061 52011 70252 8802/ 333 88520;
0185283340999992000041315004+57350+058220FM-12+024499999V0200501N002010060019N0200001N1+00241+00111100701ADDAY151031AY221031GA1081+006009029GF108991081001008001021999KA1120M+00311MD1210071+9999MW1511REMSYN082AAXX  13151 28334 /1570 80502 10024 20011 40070 52007 75152 8802/ 333 10031 88520;
0202283340999992000041318004+57350+058220FM-12+024499999V0209999C000010060019N0500001N1+00111+00001100791ADDAA112000391AY151061AY221061GA1081+006009029GF108991081001008001021999KA1120M+00311MD1210081+9999MW1021REMSYN088AAXX  13181 28334 11584 80000 10011 21000 40079 52008 69932 70252 8802/ 333 10031 88520;
0138283340999992000041321004+57350+058220FM-12+024499999V0209999C000010060019N0500001N1+00101-00011100811ADDGA1081+006009029GF108991081001008001021999MD1210021+9999REMSYN070AAXX  13211 28334 42584 80000 10010 21001 40081 52002 8802/ 333 88520;
0133283340999992000041400004+57350+058220FM-12+024499999V0209999C000019999999N0500001N1+00101-00011100951ADDGF108991081001999999021999MA1999999097941MD1210131+9999REMSYN066AAXX  14001 28334 42984 80000 10010 21001 39794 40095 52013 8802/;
0145283340999992000041403004+57350+058220FM-12+024499999V0209999C000019999999N0500001N1+00211+00081101021ADDAJ100149199999999GF108991081001999999071999IA1309MD1210081+9999REMSYN070AAXX  14031 28334 /2999 80000 10021 20008 40102 52008 8807/ 333 42014;
0152283340999992000041406004+57350+058220FM-12+024499999V0203201N002010300019N0500001N1+00391+00051101101ADDAA112000591GF108991031071008001071999KA1999N+00101MD1210101+9999REMSYN076AAXX  14061 28334 12599 83202 10039 20005 40110 52010 69962 8377/ 333 20010;
0138283340999992000041409004+57350+058220FM-12+024499999V0203201N002010069019N0500001N1+00611+00051101161ADDGA1061+006909029GF108991061071008001021999MD1210081+9999REMSYN070AAXX  14091 28334 42599 83202 10061 20005 40116 52008 8672/ 333 86823;
0165283340999992000041415004+57350+058220FM-12+024499999V0209999C000012200019N0500001N1+00821-00141101241ADDAA199000091GF101991011051008001001001KA1999M+00901MD1210051+9999REMSYN070AAXX  14151 28334 32599 10000 10082 21014 40124 52005 81500 333 10090;EQDQ01  00002PRCP99
0175283340999992000041418004+57350+058220FM-12+024499999V0209999C000012200019N0500001N1+00321-00431101461ADDAA199000091GA1001+999999999GF100991001001999999001001KA1999M+00901MD1210171+9999REMSYN064AAXX  14181 28334 32984 00000 10032 21043 40146 52017 333 10090;EQDQ01  00002PRCP99
0116283340999992000041421004+57350+058220FM-12+024499999V0209999C000012200019N0500001N1+00031+99999101621ADDGA1001+999999999GF100991001001999999001001MD1210121+9999REMSYN048AAXX  14211 28334 42984 00000 10003 40162 52012;
0143283340999992000041500004+57350+058220FM-12+024499999V0209999C000012200019N0500001N1-00141-00871101771ADDGA1001+999999999GF100991001001999999001001MA1999999098711MD1210131+9999REMSYN060AAXX  15001 28334 42984 00000 11014 21087 39871 40177 52013;
0175283340999992000041503004+57350+058220FM-12+024499999V0202301N002019999999N0500001N1-00041-00771101881ADDAA199000091AJ100129199999999GF107991071001999999031001IA1309MD1210121+9999REMSYN070AAXX  15031 28334 32999 72302 11004 21077 40188 52012 87030 333 42012;EQDQ01  00002PRCP99
0165283340999992000041506004+57350+058220FM-12+024499999V0209999C000012200019N0500001N1+00981-00021101991ADDAA199000091GF102991001001999999001021KA1999N-00141MD1210211+9999REMSYN070AAXX  15061 28334 32999 20000 10098 21002 40199 52021 80002 333 21014;EQDQ01  00002PRCP99
0122283340999992000041509004+57350+058220FM-12+024499999V0209999C000012200019N0500001N1+01481+00151101941ADDGA1001+999999999GF100991001001999999001001MD1210011+9999REMSYN054AAXX  15091 28334 42999 00000 10148 20015 40194 52001;
0143283340999992000041512004+57350+058220FM-12+024499999V0209999C000012200019N0500001N1+01521+00041102021ADDGA1001+999999999GF100991001001999999001001MA1999999099131MD1210081+9999REMSYN060AAXX  15121 28334 42999 00000 10152 20004 39913 40202 52008;
0165283340999992000041515004+57350+058220FM-12+024499999V0209999C000012200019N0500001N1+01211+00021101891ADDAA199000091GF102991001001999999001021KA1999M+01601MD1810161+9999REMSYN070AAXX  15151 28334 32999 20000 10121 20002 40189 58016 80002 333 10160;EQDQ01  00002PRCP99
0165283340999992000041518004+57350+058220FM-12+024499999V0209999C000012200019N0500001N1+00681-00291102111ADDAA199000091GF102991001001999999001021KA1999M+01601MD1310161+9999REMSYN070AAXX  15181 28334 32984 20000 10068 21029 40211 53016 80002 333 10160;EQDQ01  00002PRCP99
0122283340999992000041521004+57350+058220FM-12+024499999V0209999C000012200019N0500001N1+00461-00211102171ADDGA1001+999999999GF100991001001999999001001MD1210021+9999REMSYN054AAXX  15211 28334 42984 00000 10046 21021 40217 52002;
0143283340999992000041600004+57350+058220FM-12+024499999V0209999C000012200019N0500001N1+00421+00031102201ADDGA1001+999999999GF100991001001999999001001MA1999999099181MD1210031+9999REMSYN060AAXX  16001 28334 42984 00000 10042 20003 39918 40220 52003;
0175283340999992000041603004+57350+058220FM-12+024499999V0209999C000012200019N0500001N1+00681+00221102251ADDAA199000091AJ100089199999999GF102991001001999999001021IA1309MD1210091+9999REMSYN070AAXX  16031 28334 32984 20000 10068 20022 40225 52009 80002 333 42008;EQDQ01  00002PRCP99
0165283340999992000041606004+57350+058220FM-12+024499999V0202301N004012200019N0500001N1+01301+00231102071ADDAA199000091GF103991031001999999081001KA1999N+00421MD1810121+9999REMSYN070AAXX  16061 28334 32999 32304 10130 20023 40207 58012 83080 333 20042;EQDQ01  00002PRCP99
0112283340999992000041609004+57350+058220FM-12+024499999V0202301N004012200019N0500001N1+01541+00211102031ADDGF105991031021008001001041MD1710011+9999REMSYN060AAXX  16091 28334 42599 52304 10154 20021 40203 57001 83204;
0133283340999992000041612004+57350+058220FM-12+024499999V0202301N008010750019N0500001N1+01511+00131101921ADDGF106991021021008001001051MA1999999099031MD1710111+9999REMSYN066AAXX  16121 28334 42599 62308 10151 20013 39903 40192 57011 82205;
0165283340999992000041615004+57350+058220FM-12+024499999V0202301N002010300019N0500001N1+01221+00171101911ADDAA199000091GF106991011011008001041011KA1999M+01571MD1710041+9999REMSYN070AAXX  16151 28334 32599 62302 10122 20017 40191 57004 81141 333 10157;EQDQ01  00002PRCP99
0165283340999992000041618004+57350+058220FM-12+024499999V0202301N002019999999N0500001N1+00981+00291101941ADDAA199000091GF108991081001999999071999KA1999M+01571MD1310011+9999REMSYN070AAXX  16181 28334 32984 82302 10098 20029 40194 53001 8807/ 333 10157;EQDQ01  00002PRCP99
0112283340999992000041621004+57350+058220FM-12+024499999V0209999C000019999999N0500001N1+00791+00251101941ADDGF108991021001999999041071MD1810021+9999REMSYN060AAXX  16211 28334 42984 80000 10079 20025 40194 58002 82047;
0143283340999992000041700004+57350+058220FM-12+024499999V0209999C000012200019N0500001N1+00551+00181102041ADDGA1001+999999999GF100991001001999999001001MA1999999099041MD1310061+9999REMSYN060AAXX  17001 28334 42984 00000 10055 20018 39904 40204 53006;
0185283340999992000041703004+57350+058220FM-12+024499999V0209999C000012200019N0500001N1+00651+00261102191ADDAA199000091AJ100009199999999GA1001+999999999GF100991001001999999001001IA1259MD1210161+9999REMSYN064AAXX  17031 28334 32999 00000 10065 20026 40219 52016 333 41000;EQDQ01  00002PRCP99
0175283340999992000041706004+57350+058220FM-12+024499999V0202301N002012200019N0500001N1+01361+00451102201ADDAA199000091GA1001+999999999GF100991001001999999001001KA1999N+00451MD1210081+9999REMSYN064AAXX  17061 28334 32999 02302 10136 20045 40220 52008 333 20045;EQDQ01  00002PRCP99
0112283340999992000041709004+57350+058220FM-12+024499999V0202301N002010750019N0500001N1+01581-00251102151ADDGF105991031021008001001051MD1810021+9999REMSYN060AAXX  17091 28334 42599 52302 10158 21025 40215 58002 83205;
0159283340999992000041712004+57350+058220FM-12+024499999V0202301N002010069019N0500001N1+01661+00321102081ADDGA1051+006909029GF106991061021008001001051MA1999999099191MD1710071+9999REMSYN076AAXX  17121 28334 42599 62302 10166 20032 39919 40208 57007 86205 333 85823;
0187283340999992000041715004+57350+058220FM-12+024499999V0209999C000010069019N0500001N1+01421+00451102121ADDAA199000091GA1051+006909029GF105991051011008001001001KA1120M+01671MD1310041+9999REMSYN076AAXX  17151 28334 32599 50000 10142 20045 40212 53004 85100 333 10167 85823;EQDQ01  00002PRCP99
0140283340999992000041721004+57350+058220FM-12+024499999V0209999C000019999999N0500001N1+00821+00581102311ADDAY161031AY221031GF108991081001999999021999MD1210111+9999MW1211REMSYN066AAXX  17211 28334 41984 80000 10082 20058 40231 52011 72162 8802/;
0161283340999992000041800004+57350+058220FM-12+024499999V0202301N002019999999N0060001N1+00701+00551102411ADDAY161061AY221061GF108991081001999999021999MA1999999099431MD1210091+9999MW1611REMSYN072AAXX  18001 28334 41956 82302 10070 20055 39943 40241 52009 76162 8802/;
0173283340999992000041803004+57350+058220FM-12+024499999V0209999C000019999999N0500001N1+00521+00401102561ADDAJ100009199999999AY161031AY221031GF108991081001999999021999IA1259MD1210121+9999MW1211REMSYN076AAXX  18031 28334 /1999 80000 10052 20040 40256 52012 72162 8802/ 333 41000;
0202283340999992000041806004+57350+058220FM-12+024499999V0200701N002010069019N0500001N1+00561+00321102781ADDAA112003091AY161061AY221061GA1061+006909099GF106991061031008001001001KA1120N+00521MD1210211+9999MW1011REMSYN088AAXX  18061 28334 11599 60702 10056 20032 40278 52021 60032 70162 86300 333 20052 86923;
0138283340999992000041809004+57350+058220FM-12+024499999V0200501N002010069019N0500001N1+01021-00321102801ADDGA1061+006909099GF106991061031008001001001MD1210071+9999REMSYN070AAXX  18091 28334 42599 60502 10102 21032 40280 52007 86300 333 86923;
0133283340999992000041812004+57350+058220FM-12+024499999V0200901N004010300019N0500001N1+00911+00231102891ADDGF106991021031008001031001MA1999999099911MD1210081+9999REMSYN066AAXX  18121 28334 42599 60904 10091 20023 39991 40289 52008 82330;
0146283340999992000041815004+57350+058220FM-12+024499999V0200901N002010300019N0500001N1+00741+00151102961ADDAA199000021GF106991021041008001061001KA1999M+01031MD1210051+9999REMSYN070AAXX  18151 28334 32599 60902 10074 20015 40296 52005 82460 333 10103;
0196283340999992000041818004+57350+058220FM-12+024499999V0209999C000010069019N0150001N1+00461-00081102981ADDAA199000021AY181061AY221061GA1081+006909099GF108991081031008001999999KA1120M+01031MD1810011+9999MW1801REMSYN082AAXX  18181 28334 31565 80000 10046 21008 40298 58001 78082 883// 333 10103 88923;
0166283340999992000041821004+57350+058220FM-12+024499999V0209999C000010069019N0500001N1+00441-00071102901ADDAY181031AY221031GA1081+006909099GF108991081031008001999999MD1710081+9999MW1021REMSYN076AAXX  18211 28334 41584 80000 10044 21007 40290 57008 70282 883// 333 88923;
0133283340999992000041900004+57350+058220FM-12+024499999V0209999C000019999999N0500001N1+00251-00141102881ADDGF106991061001999999031001MA1999999099821MD1710051+9999REMSYN066AAXX  19001 28334 42984 60000 10025 21014 39982 40288 57005 86030;
0145283340999992000041903004+57350+058220FM-12+024499999V0209999C000012200019N0500001N1+00241+00001102831ADDAJ100009199999999GF102991021011008001041001IA1259MD1710051+9999REMSYN070AAXX  19031 28334 /2599 20000 10024 21000 40283 57005 82140 333 41000;
0152283340999992000041906004+57350+058220FM-12+024499999V0209999C000019999999N0500001N1+00921+00211102831ADDAA112000791GF105991051001999999041001KA1999N+00241MD1310081+9999REMSYN076AAXX  19061 28334 12999 50000 10092 20021 40283 53008 69902 85040 333 20024;
0112283340999992000041909004+57350+058220FM-12+024499999V0209999C000019999999N0500001N1+01281+00381102711ADDGF105991051001999999031001MD1810081+9999REMSYN060AAXX  19091 28334 42999 50000 10128 20038 40271 58008 85030;
0133283340999992000041912004+57350+058220FM-12+024499999V0201401N002010300019N0500001N1+01321+00251102641ADDGF106991021011008001031001MA1999999099711MD1710061+9999REMSYN066AAXX  19121 28334 42599 61402 10132 20025 39971 40264 57006 82130;
0165283340999992000041915004+57350+058220FM-12+024499999V0209999C000019999999N0500001N1+00901-00051102631ADDAA199000091GF107991071001999999031001KA1999M+01331MD1710051+9999REMSYN070AAXX  19151 28334 32999 70000 10090 21005 40263 57005 87030 333 10133;EQDQ01  00002PRCP99
0165283340999992000041918004+57350+058220FM-12+024499999V0209999C000019999999N0500001N1+00761+00091102491ADDAA199000091GF107991071001999999031001KA1999M+01341MD1710161+9999REMSYN070AAXX  19181 28334 32984 70000 10076 20009 40249 57016 87030 333 10134;EQDQ01  00002PRCP99
0112283340999992000041921004+57350+058220FM-12+024499999V0209999C000019999999N0500001N1+00581+00041102381ADDGF106991061001999999031001MD1710121+9999REMSYN060AAXX  19211 28334 42984 60000 10058 20004 40238 57012 86030;
0159283340999992000042000004+57350+058220FM-12+024499999V0209999C000010060019N0500001N1+00521+00111102251ADDGA1081+006009099GF108991081031008001999999MA1999999099251MD1710121+9999REMSYN076AAXX  20001 28334 42584 80000 10052 20011 39925 40225 57012 883// 333 88920;
0173283340999992000042003004+57350+058220FM-12+024499999V0209999C000010300019N0500001N1+00621+00381102211ADDAJ100009199999999AY191031AY221031GF108991021051008001021999IA1259MD1710031+9999MW1291REMSYN076AAXX  20031 28334 /1599 80000 10062 20038 40221 57003 72992 8252/ 333 41000;
0202283340999992000042006004+57350+058220FM-12+024499999V0209999C000010069019N0500001N1+00931+00811102111ADDAA112001091AY191061AY281061GA1081+006909099GF108991081031008001999999KA1120N+00521MD1710061+9999MW1021REMSYN088AAXX  20061 28334 11599 80000 10093 20081 40211 57006 60012 70298 883// 333 20052 88923;
0138283340999992000042009004+57350+058220FM-12+024499999V0209999C000010069019N0500001N1+01331+00551101991ADDGA1061+006909099GF107991061031008001001021MD1710081+9999REMSYN070AAXX  20091 28334 42599 70000 10133 20055 40199 57008 86302 333 86923;
0178283340999992000042012004+57350+058220FM-12+024499999V0209999C000010069019N0500001N1+01321+00681102041ADDGA1061+006909099GF199999061031008001041021MA1999999099131MD1310051+9999REMSYN076AAXX  20121 28334 42599 50000 10132 20068 39913 40204 53005 86342 333 86923;EQDQ01+000052SCOTCV
0165283340999992000042015004+57350+058220FM-12+024499999V0209999C000012200019N0500001N1+01211+00461102071ADDAA199000091GF102991011031008001001011KA1999M+01451MD1210021+9999REMSYN070AAXX  20151 28334 32599 20000 10121 20046 40207 52002 81301 333 10145;EQDQ01  00002PRCP99
0150283340999992000042021004+57350+058220FM-12+024499999V0209999C000012200019N0060001N1+00121+00011102221ADDAY101031AY201031GA1001+999999999GF100991001001999999001001MD1210011+9999MW1101REMSYN060AAXX  20211 28334 41956 00000 10012 20001 40222 52001 71000;
0180283340999992000042103004+57350+058220FM-12+024499999V0209999C000012200019N0060001N1+00101-00041102251ADDAA199000091AY141031AY201031GA1001+999999999GF100991001001999999001001MD1210011+9999MW1281REMSYN060AAXX  21031 28334 31956 00000 10010 21004 40225 52001 72840;EQDQ01  00002PRCP99
0203283340999992000042106004+57350+058220FM-12+024499999V0209999C000012200019N0500001N1+01011+00531102141ADDAA199000091AY141061AY201061GA1001+999999999GF100991001001999999001001KA1999N-00051MD1810011+9999MW1021REMSYN070AAXX  21061 28334 31999 00000 10101 20053 40214 58001 70240 333 21005;EQDQ01  00002PRCP99
0122283340999992000042109004+57350+058220FM-12+024499999V0202901N002012200019N0500001N1+01671+00761102041ADDGA1001+999999999GF100991001001999999001001MD1710031+9999REMSYN054AAXX  21091 28334 42999 02902 10167 20076 40204 57003;
0143283340999992000042112004+57350+058220FM-12+024499999V0203401N002012200019N0500001N1+01761+00461101931ADDGA1001+999999999GF100991001001999999001001MA1999999099071MD1710091+9999REMSYN060AAXX  21121 28334 42999 03402 10176 20046 39907 40193 57009;
0175283340999992000042115004+57350+058220FM-12+024499999V0209999C000012200019N0500001N1+01521+00211101951ADDAA199000091GA1001+999999999GF100991001001999999001001KA1999M+01771MD1710011+9999REMSYN064AAXX  21151 28334 32999 00000 10152 20021 40195 57001 333 10177;EQDQ01  00002PRCP99
0175283340999992000042118004+57350+058220FM-12+024499999V0209999C000012200019N0500001N1+00741+00501102151ADDAA199000091GA1001+999999999GF100991001001999999001001KA1999M+01771MD1310121+9999REMSYN064AAXX  21181 28334 32984 00000 10074 20050 40215 53012 333 10177;EQDQ01  00002PRCP99
0112283340999992000042121004+57350+058220FM-12+024499999V0209999C000012200019N0500001N1+00261+00081102271ADDGF102991021001999999041001MD1210051+9999REMSYN060AAXX  21211 28334 42984 20000 10026 20008 40227 52005 82040;
0133283340999992000042200004+57350+058220FM-12+024499999V0209999C000012200019N0500001N1+00071-00071102381ADDGF102991021001999999041001MA1999999099321MD1210091+9999REMSYN066AAXX  22001 28334 42984 20000 10007 21007 39932 40238 52009 82040;
0152283340999992000042203004+57350+058220FM-12+024499999V0209999C000012200019N0500001N1+00161+00001102451ADDAA199000091GA1001+999999999GF100991001001999999001001MD1210081+9999REMSYN054AAXX  22031 28334 32999 00000 10016 21000 40245 52008;EQDQ01  00002PRCP99
0175283340999992000042206004+57350+058220FM-12+024499999V0209999C000012200019N0500001N1+01371+00481102311ADDAA199000091GA1001+999999999GF100991001001999999001001KA1999N+00071MD1410001+9999REMSYN064AAXX  22061 28334 32999 00000 10137 20048 40231 54000 333 20007;EQDQ01  00002PRCP99
0112283340999992000042209004+57350+058220FM-12+024499999V0209999C000012200019N0500001N1+02001+00781102221ADDGF103991031011008001001001MD1810031+9999REMSYN060AAXX  22091 28334 42599 30000 10200 20078 40222 58003 83100;
0175283340999992000042215004+57350+058220FM-12+024499999V0209999C000012200019N0500001N1+02011+00641101981ADDAA199000091GA1001+999999999GF100991001001999999001001KA1999M+02091MD1710131+9999REMSYN064AAXX  22151 28334 32999 00000 10201 20064 40198 57013 333 10209;EQDQ01  00002PRCP99
0175283340999992000042218004+57350+058220FM-12+024499999V0209999C000012200019N0500001N1+01021+00511102081ADDAA199000091GA1001+999999999GF100991001001999999001001KA1999M+02091MD1410001+9999REMSYN064AAXX  22181 28334 32984 00000 10102 20051 40208 54000 333 10209;EQDQ01  00002PRCP99
0122283340999992000042221004+57350+058220FM-12+024499999V0209999C000012200019N0500001N1+00641+00221102051ADDGA1001+999999999GF100991001001999999001001MD1810071+9999REMSYN054AAXX  22211 28334 42984 00000 10064 20022 40205 58007;
0133283340999992000042300004+57350+058220FM-12+024499999V0209999C000019999999N0500001N1+00181-00131102041ADDGF105991001001999999001081MA1999999099001MD1710071+9999REMSYN066AAXX  23001 28334 42984 50000 10018 21013 39900 40204 57007 80008;
0142283340999992000042303004+57350+058220FM-12+024499999V0209999C000019999999N0500001N1+00271+00141101971ADDAA199000091GF106991001001999999001021MD1710061+9999REMSYN060AAXX  23031 28334 32999 60000 10027 20014 40197 57006 80002;EQDQ01  00002PRCP99
0165283340999992000042306004+57350+058220FM-12+024499999V0209999C000010300019N0500001N1+01801+00321101641ADDAA199000091GF106991021011008001031021KA1999N+00181MD1710151+9999REMSYN070AAXX  23061 28334 32599 60000 10180 20032 40164 57015 82132 333 20018;EQDQ01  00002PRCP99
0131283340999992000042309004+57350+058220FM-12+024499999V0202301N002019999999N0500001N1+02101+00501101521ADDGF108991001001999999001011MD1710091+9999REMSYN060AAXX  23091 28334 42199 82302 10210 20050 40152 57009 80001;EQDQ01+000752SCOLCB
0133283340999992000042312004+57350+058220FM-12+024499999V0202301N002019999999N0500001N1+01921+00531101461ADDGF108991081001999999021999MA1999999098621MD1710081+9999REMSYN066AAXX  23121 28334 42999 82302 10192 20053 39862 40146 57008 8802/;
0135283340999992000042315004+57350+058220FM-12+024499999V0209999C000019999999N0060001N1+01501+00851101231ADDGF108991081001999999021999KA1999M+02151MD1710261+9999REMSYN070AAXX  23151 28334 /1956 80000 10150 20085 40123 57026 8802/ 333 10215;
0180283340999992000042318004+57350+058220FM-12+024499999V0209999C000019999999N0020001N1+01141+00971101191ADDAA112001091AY161061AY251061GF108991081001999999021999KA1999M+02151MD1710071+9999MW1511REMSYN082AAXX  23181 28334 11920 80000 10114 20097 40119 57007 60012 75165 8802/ 333 10215;
0140283340999992000042321004+57350+058220FM-12+024499999V0209999C000019999999N0150001N1+00891+00781101211ADDAY161031AY251031GF108991081001999999021999MD1710011+9999MW1611REMSYN066AAXX  23211 28334 41965 80000 10089 20078 40121 57001 76165 8802/;
0161283340999992000042400004+57350+058220FM-12+024499999V0209999C000019999999N0060001N1+00521+00401101191ADDAY161061AY251061GF108991081001999999021999MA1999999098221MD1710061+9999MW1101REMSYN072AAXX  24001 28334 41956 80000 10052 20040 39822 40119 57006 71065 8802/;
0140283340999992000042403004+57350+058220FM-12+024499999V0209999C000019999999N0060001N1+00881+00681101171ADDAY121031AY221031GF108991081001999999021999MD1310021+9999MW1101REMSYN066AAXX  24031 28334 /1956 80000 10088 20068 40117 53002 71022 8802/;
0174283340999992000042406004+57350+058220FM-12+024499999V0203401N002010069019N0500001N1+01041+00681101331ADDAA112002091GA1061+006909099GF106991061031008001081001KA1120N+00521MD1210181+9999REMSYN082AAXX  24061 28334 12599 63402 10104 20068 40133 52018 60022 86380 333 20052 86923;
0112283340999992000042409004+57350+058220FM-12+024499999V0203601N004010750019N0500001N1+01211+00461101451ADDGF106991021011008001031041MD1210131+9999REMSYN060AAXX  24091 28334 42599 63604 10121 20046 40145 52013 82134;
0165283340999992000042415004+57350+058220FM-12+024499999V0209999C000012200019N0500001N1+01351-00021101521ADDAA199000091GF103991011001999999041051KA1999M+01511MD1210011+9999REMSYN070AAXX  24151 28334 32999 30000 10135 21002 40152 52001 81045 333 10151;EQDQ01  00002PRCP99
0165283340999992000042418004+57350+058220FM-12+024499999V0209999C000012200019N0500001N1+00661+00221101701ADDAA199000091GF102991021001999999041001KA1999M+01511MD1210101+9999REMSYN070AAXX  24181 28334 32984 20000 10066 20022 40170 52010 82040 333 10151;EQDQ01  00002PRCP99
0122283340999992000042421004+57350+058220FM-12+024499999V0209999C000012200019N0500001N1+00181+00051101731ADDGA1001+999999999GF100991001001999999001001MD1810021+9999REMSYN054AAXX  24211 28334 42984 00000 10018 20005 40173 58002;
0159283340999992000042500004+57350+058220FM-12+024499999V0209999C000010069019N0500001N1+00071-00041101691ADDGA1061+006909029GF106991061081008001061041MA1999999098651MD1710051+9999REMSYN076AAXX  25001 28334 42584 60000 10007 21004 39865 40169 57005 86864 333 86823;
0168283340999992000042503004+57350+058220FM-12+024499999V0209999C000010069019N0500001N1+00611+00191101491ADDAA199000091GA1061+006909059GF106991061051008001041001MD1710131+9999REMSYN070AAXX  25031 28334 32599 60000 10061 20019 40149 57013 86540 333 86623;EQDQ01  00002PRCP99
0112283340999992000042509004+57350+058220FM-12+024499999V0202301N002012200019N0500001N1+01621+00881101351ADDGF103991001001999999001021MD1710011+9999REMSYN060AAXX  25091 28334 42999 32302 10162 20088 40135 57001 80002;
0133283340999992000042512004+57350+058220FM-12+024499999V0202301N002012200019N0500001N1+01761+00401101351ADDGF103991011011008001031021MA1999999098511MD1310021+9999REMSYN066AAXX  25121 28334 42599 32302 10176 20040 39851 40135 53002 81132;
0187283340999992000042515004+57350+058220FM-12+024499999V0202301N002010300019N0500001N1+01461+00191101521ADDAA199000091GA1041+006909029GF105991041081008001041001KA1120M+01771MD1210121+9999REMSYN076AAXX  25151 28334 32599 52302 10146 20019 40152 52012 84840 333 10177 84823;EQDQ01  00002PRCP99
0165283340999992000042518004+57350+058220FM-12+024499999V0202301N002019999999N0500001N1+00761+00361101811ADDAA199000091GF105991051001999999031001KA1999M+01771MD1210221+9999REMSYN070AAXX  25181 28334 32984 52302 10076 20036 40181 52022 85030 333 10177;EQDQ01  00002PRCP99
0122283340999992000042521004+57350+058220FM-12+024499999V0209999C000012200019N0500001N1+00291+00111102031ADDGA1001+999999999GF100991001001999999001001MD1210161+9999REMSYN054AAXX  25211 28334 42984 00000 10029 20011 40203 52016;
0143283340999992000042600004+57350+058220FM-12+024499999V0209999C000012200019N0500001N1+00171+00031102221ADDGA1001+999999999GF100991001001999999001001MA1999999099191MD1210181+9999REMSYN060AAXX  26001 28334 42984 00000 10017 20003 39919 40222 52018;
0142283340999992000042603004+57350+058220FM-12+024499999V0209999C000012200019N0500001N1+00331+00071102341ADDAA199000091GF102991021001999999041001MD1210121+9999REMSYN060AAXX  26031 28334 32999 20000 10033 20007 40234 52012 82040;EQDQ01  00002PRCP99
0165283340999992000042606004+57350+058220FM-12+024499999V0202301N002012200019N0500001N1+01381-00071102211ADDAA199000091GF102991001001999999001011KA1999N+00171MD1810021+9999REMSYN070AAXX  26061 28334 32999 22302 10138 21007 40221 58002 80001 333 20017;EQDQ01  00002PRCP99
0112283340999992000042609004+57350+058220FM-12+024499999V0202301N002019999999N0500001N1+01811+00021102061ADDGF106991001001999999001011MD1710101+9999REMSYN060AAXX  26091 28334 42999 62302 10181 20002 40206 57010 80001;
0133283340999992000042612004+57350+058220FM-12+024499999V0202501N002019999999N0500001N1+02121+00041101821ADDGF105991001001999999001011MA1999999098991MD1710201+9999REMSYN066AAXX  26121 28334 42999 52502 10212 20004 39899 40182 57020 80001;
0165283340999992000042615004+57350+058220FM-12+024499999V0202501N002012200019N0500001N1+01951+00001101721ADDAA199000091GF104991021001999999041011KA1999M+02151MD1710121+9999REMSYN070AAXX  26151 28334 32999 42502 10195 20000 40172 57012 82041 333 10215;EQDQ01  00002PRCP99
0175283340999992000042618004+57350+058220FM-12+024499999V0209999C000012200019N0500001N1+01331+00891101761ADDAA199000091GA1001+999999999GF100991001001999999001001KA1999M+02151MD1710021+9999REMSYN064AAXX  26181 28334 32984 00000 10133 20089 40176 57002 333 10215;EQDQ01  00002PRCP99
0122283340999992000042621004+57350+058220FM-12+024499999V0209999C000012200019N0500001N1+01281+00861101631ADDGA1001+999999999GF100991001001999999001001MD1710121+9999REMSYN054AAXX  26211 28334 42984 00000 10128 20086 40163 57012;
0133283340999992000042700004+57350+058220FM-12+024499999V0202301N002012200019N0500001N1+01241+00611101571ADDGF101991001001999999001021MA1999999098661MD1710071+9999REMSYN066AAXX  27001 28334 42984 12302 10124 20061 39866 40157 57007 80002;
0152283340999992000042703004+57350+058220FM-12+024499999V0202301N002012200019N0500001N1+01491+00551101451ADDAA199000091GA1001+999999999GF100991001001999999001001MD1710091+9999REMSYN054AAXX  27031 28334 32999 02302 10149 20055 40145 57009;EQDQ01  00002PRCP99
0165283340999992000042706004+57350+058220FM-12+024499999V0202301N002012200019N0500001N1+02161+00781101321ADDAA199000091GF102991001001999999001021KA1999N+01241MD1710051+9999REMSYN070AAXX  27061 28334 32999 22302 10216 20078 40132 57005 80002 333 20124;EQDQ01  00002PRCP99
0138283340999992000042709004+57350+058220FM-12+024499999V0202301N01001007501CN0500001N1+02281+00701101271ADDGA1041+006909099GF105991051031008001041021MD1710041+9999REMSYN070AAXX  27091 28334 42599 52310 10228 20070 40127 57004 85342 333 84923;
0165283340999992000042712004+57350+058220FM-12+024499999V0202301N016010069019N0500001N1+02241+00851101041ADDGA1051+006909099GF106991061031008001031001MA1999999098251MD1710231+9999REMSYN082AAXX  27121 28334 42599 62316 10224 20085 39825 40104 57023 86330 333 85923 91016;
0187283340999992000042715004+57350+058220FM-12+024499999V0202301N002010069019N0500001N1+01921+00861100871ADDAA199000091GA1051+006909099GF106991061031008001041001KA1120M+02311MD1710201+9999REMSYN076AAXX  27151 28334 32599 62302 10192 20086 40087 57020 86340 333 10231 85923;EQDQ01  00002PRCP99
0202283340999992000042718004+57350+058220FM-12+024499999V0202301N002010069019N0500001N1+01191+01051100941ADDAA199000021AY191061AY281061GA1081+006909099GF108991081031008001999999KA1120M+02311MD1410001+9999MW1801REMSYN088AAXX  27181 28334 31584 82302 10119 20105 40094 54000 78098 883// 333 10231 88923 91115;
0166283340999992000042721004+57350+058220FM-12+024499999V0202301N002010069019N0500001N1+01011+00851101021ADDAY181031AY221031GA1081+006909099GF108991081031008001999999MD1310051+9999MW1021REMSYN076AAXX  27211 28334 41584 82302 10101 20085 40102 53005 70282 883// 333 88923;
0159283340999992000042800004+57350+058220FM-12+024499999V0203201N004010069019N0500001N1+00431+00231101411ADDGA1081+006909099GF108991081031008001999999MA1999999098421MD1210321+9999REMSYN076AAXX  28001 28334 42584 83204 10043 20023 39842 40141 52032 883// 333 88923;
0138283340999992000042803004+57350+058220FM-12+024499999V0203601N004010069019N0500001N1+00311-00071101491ADDGA1071+006909099GF107991071031008001001001MD1210071+9999REMSYN070AAXX  28031 28334 /2599 73604 10031 21007 40149 52007 87300 333 87923;
0174283340999992000042806004+57350+058220FM-12+024499999V0203201N004010750019N0500001N1+00441-00201101621ADDAA112006191GA1041+006909029GF105991041011008001001021KA1120N+00311MD1210131+9999REMSYN082AAXX  28061 28334 12599 53204 10044 21020 40162 52013 60062 84102 333 20031 84823;
0133283340999992000042812004+57350+058220FM-12+024499999V0203601N004010075019N0500001N1+00711-00601101741ADDGF106991061011008001001001MA1999999098771MD1210051+9999REMSYN066AAXX  28121 28334 42599 63604 10071 21060 39877 40174 52005 86100;
0187283340999992000042815004+57350+058220FM-12+024499999V0203601N004010069019N0500001N1+00421-00831101881ADDAA199000091GA1061+006909099GF106991061031008001001001KA1120M+00841MD1210101+9999REMSYN076AAXX  28151 28334 32599 63604 10042 21083 40188 52010 86300 333 10084 86923;EQDQ01  00002PRCP99
0187283340999992000042818004+57350+058220FM-12+024499999V0203601N004010069019N0500001N1+00241-00251102221ADDAA199000091GA1061+006909099GF106991061031008001001001KA1120M+00841MD1210311+9999REMSYN076AAXX  28181 28334 32584 63604 10024 21025 40222 52031 86300 333 10084 86923;EQDQ01  00002PRCP99
0122283340999992000042821004+57350+058220FM-12+024499999V0209999C000012200019N0500001N1+00121-00141102251ADDGA1001+999999999GF100991001001999999001001MD1210011+9999REMSYN054AAXX  28211 28334 42984 00000 10012 21014 40225 52001;
0161283340999992000042900004+57350+058220FM-12+024499999V0209999C000010300019N0500001N1-00081-00291102291ADDAY171061AY211061GF105991021031008001031001MA1999999099221MD1210031+9999MW1271REMSYN072AAXX  29001 28334 41599 50000 11008 21029 39922 40229 52003 72771 82330;
0112283340999992000042903004+57350+058220FM-12+024499999V0209999C000019999999N0500001N1+00041-00391102341ADDGF105991051001999999041001MD1210061+9999REMSYN060AAXX  29031 28334 /2999 50000 10004 21039 40234 52006 85040;
0152283340999992000042906004+57350+058220FM-12+024499999V0203401N002010750019N0500001N1+00321-00191102091ADDAA112000791GF105991031011008001001021KA1999N-00081MD1810211+9999REMSYN076AAXX  29061 28334 12599 53402 10032 21019 40209 58021 69902 83102 333 21008;
0157283340999992000042909004+57350+058220FM-12+024499999V0203401N002019999999N0500001N1+00511-00721101971ADDGA1031+006909029GF106991999011008001001001MD1710101+9999REMSYN070AAXX  29091 28334 42599 63402 10051 21072 40197 57010 83100 333 83823;EQDQ01+000032SCOTLC
0159283340999992000042912004+57350+058220FM-12+024499999V0203201N002010750019N0500001N1+00721-00501101821ADDGA1041+006909029GF105991041011008001001021MA1999999098851MD1710121+9999REMSYN076AAXX  29121 28334 42599 53202 10072 21050 39885 40182 57012 84102 333 84823;
0165283340999992000042915004+57350+058220FM-12+024499999V0203601N002012200019N0500001N1+00401-00771101721ADDAA199000091GF103991021011008001001021KA1999M+00731MD1710141+9999REMSYN070AAXX  29151 28334 32599 33602 10040 21077 40172 57014 82102 333 10073;EQDQ01  00002PRCP99
0133283340999992000043000004+57350+058220FM-12+024499999V0209999C000019999999N0500001N1-00251-00561101381ADDGF108991081001999999021999MA1999999098321MD1710181+9999REMSYN066AAXX  30001 28334 42984 80000 11025 21056 39832 40138 57018 8802/;
0142283340999992000043003004+57350+058220FM-12+024499999V0209999C000010300019N0500001N1+00171-00491101151ADDAA199000091GF108991021071008001011999MD1710181+9999REMSYN060AAXX  30031 28334 32599 80000 10017 21049 40115 57018 8271/;EQDQ01  00002PRCP99
0187283340999992000043006004+57350+058220FM-12+024499999V0202301N002010069019N0500001N1+00541-00581100851ADDAA199000091GA1061+006909029GF108991061071008001021999KA1120N-00251MD1710251+9999REMSYN076AAXX  30061 28334 32599 82302 10054 21058 40085 57025 8672/ 333 21025 86823;EQDQ01  00002PRCP99
0138283340999992000043009004+57350+058220FM-12+024499999V0202301N006010069019N0500001N1+00741-00501100601ADDGA1051+006909029GF108991051071008001021999MD1710231+9999REMSYN070AAXX  30091 28334 42599 82306 10074 21050 40060 57023 8572/ 333 85823;
0206283340999992000043012004+57350+058220FM-12+024499999V0201801N006010069019N0200001N1+00501+00091100471ADDAY161061AY251061GA1081+006909069GF108991999071008001021999MA1999999097521MD1710141+9999MW1581REMSYN082AAXX  30121 28334 41570 81806 10050 20009 39752 40047 57014 75865 8872/ 333 88723;EQDQ01+000082SCOTLC
0204283340999992000043015004+57350+058220FM-12+024499999V0202001N002010060019N0200001N1+00531+00181100191ADDAY161031AY251031GA1081+006009069GF108991999071008001021999KA1120M+00801MD1710271+9999MW1581REMSYN082AAXX  30151 28334 /1570 82002 10053 20018 40019 57027 75865 8872/ 333 10080 88720;EQDQ01+000082SCOTLC
0221283340999992000043018004+57350+058220FM-12+024499999V0202001N002010060019N0150001N1+00481+00261100151ADDAA112000591AY161061AY251061GA1081+006009069GF108991999071008001021999KA1120M+00801MD1710041+9999MW1581REMSYN088AAXX  30181 28334 11565 82002 10048 20026 40015 57004 69962 75865 8872/ 333 10080 88720;EQDQ01+000082SCOTLC
0185283340999992000043021004+57350+058220FM-12+024499999V0202001N002010060019N0500001N1+00411+00211099781ADDAY161031AY251031GA1081+006009069GF108991999071008001021999MD1710371+9999MW1021REMSYN076AAXX  30211 28334 41584 82002 10041 20021 49978 57037 70265 8872/ 333 88720;EQDQ01+000082SCOTLC
0206283340999992000050100004+57350+058220FM-12+024499999V0209999C000010060019N0500001N1+00401+00251099491ADDAY161061AY251061GA1081+006009069GF108991999071008001021999MA1999999096561MD1710281+9999MW1021REMSYN082AAXX  01001 28334 41584 80000 10040 20025 39656 49949 57028 70265 8872/ 333 88720;EQDQ01+000082SCOTLC
0140283340999992000050103004+57350+058220FM-12+024499999V0202301N002019999999N0070001N1+00531+00411099251ADDAY161031AY211031GF108991001001999999001021MD1710221+9999MW1621REMSYN066AAXX  01031 28334 /1957 82302 10053 20041 49925 57022 76261 80002;
0202283340999992000050106004+57350+058220FM-12+024499999V0201401N004010060019N0060001N1+00501+00381099201ADDAA112000891AY161061AY221061GA1081+006009029GF108991081001008001021999KA1120N+00401MD1710051+9999MW1611REMSYN088AAXX  01061 28334 11556 81404 10050 20038 49920 57005 69982 76162 8802/ 333 20040 88520;
0166283340999992000050109004+57350+058220FM-12+024499999V0201401N002010060019N0060001N1+00441+00371099411ADDAY161031AY221031GA1081+006009029GF108991081001008001021999MD1310191+9999MW1611REMSYN076AAXX  01091 28334 41556 81402 10044 20037 49941 53019 76162 8802/ 333 88520;
0187283340999992000050112004+57350+058220FM-12+024499999V0209999C000010060019N0070001N1+00251+00091099691ADDAY171061AY261061GA1081+006009029GF108991081001008001021999MA1999999096731MD1210251+9999MW1711REMSYN082AAXX  01121 28334 41557 80000 10025 20009 39673 49969 52025 77176 8802/ 333 88520;
0185283340999992000050115004+57350+058220FM-12+024499999V0209999C000010001519N0020001N1+00041-00051099811ADDAY171031AY221031GA1081+000159029GF108991081001008001021999KA1120M+00541MD1210091+9999MW1731REMSYN082AAXX  01151 28334 /1520 80000 10004 21005 49981 52009 77372 8802/ 333 10054 88500;
0202283340999992000050118004+57350+058220FM-12+024499999V0209999C000010060019N0020001N1-00041-00161099821ADDAA112013091AY181061AY271061GA1081+006009029GF108991081001008001021999KA1120M+00541MD1410001+9999MW1731REMSYN088AAXX  01181 28334 11520 80000 11004 21016 49982 54000 60132 77387 8802/ 333 10054 88520;
0187283340999992000050200004+57350+058220FM-12+024499999V0209999C000010060019N0200001N1-00111-00211099671ADDAY171061AY221061GA1081+006009029GF108991081001008001021999MA1999999096671MD1710051+9999MW1711REMSYN082AAXX  02001 28334 41570 80000 11011 21021 39667 49967 57005 77172 8802/ 333 88520;
0195283340999992000050203004+57350+058220FM-12+024499999V0209999C000010069019N0500001N1-00051-00231099611ADDAJ100049199999999AY171031AY221031GA1081+006909029GF108991081001008001021999IA1309MD1710051+9999MW1021REMSYN082AAXX  02031 28334 /1599 80000 11005 21023 49961 57005 70272 8802/ 333 42004 88523;
0221283340999992000050206004+57350+058220FM-12+024499999V0209999C000010069019N0080001N1+00051-00181099541ADDAA112003091AY171061AY221061GA1081+006909029GF199999081001008001021999KA1120N-00111MD1710061+9999MW1711REMSYN088AAXX  02061 28334 11558 70000 10005 21018 49954 57006 60032 77172 8802/ 333 21011 88523;EQDQ01+000072SCOTCV
0185283340999992000050209004+57350+058220FM-12+024499999V0202501N002010069019N0005001N1+00041-00191099581ADDAY171031AY221031GA1081+006909029GF199999081001008001021999MD1310041+9999MW1751REMSYN076AAXX  02091 28334 41505 72502 10004 21019 49958 53004 77572 8802/ 333 88523;EQDQ01+000072SCOTCV
0206283340999992000050212004+57350+058220FM-12+024499999V0202501N002010069019N0005001N1+00101-00101099591ADDAY171061AY221061GA1081+006909029GF199999081071008001021999MA1999999096621MD1210021+9999MW1741REMSYN082AAXX  02121 28334 41505 72502 10010 21010 39662 49959 52002 77472 8872/ 333 88523;EQDQ01+000072SCOTCV
0182283340999992000050215004+57350+058220FM-12+024499999V0209999C000010075019N0200001N1+00081+00031099651ADDAY171031AY251031GF108991999071008001021999KA1999M+00111MD1210051+9999MW1511REMSYN076AAXX  02151 28334 /1570 80000 10008 20003 49965 52005 75175 8872/ 333 10011;EQDQ01+000082SCOTLC
0221283340999992000050218004+57350+058220FM-12+024499999V0209999C000010069019N0150001N1+00021-00041099801ADDAA112006191AY171061AY251061GA1081+006909029GF108991999071008001021999KA1120M+00111MD1210141+9999MW1711REMSYN088AAXX  02181 28334 11565 80000 10002 21004 49980 52014 60062 77175 8872/ 333 10011 88523;EQDQ01+000082SCOTLC
0166283340999992000050221004+57350+058220FM-12+024499999V0209999C000010060019N0020001N1-00021-00081099851ADDAY171031AY221031GA1081+006009029GF108991081001008001021999MD1210041+9999MW1731REMSYN076AAXX  02211 28334 41520 80000 11002 21008 49985 52004 77372 8802/ 333 88520;
0187283340999992000050300004+57350+058220FM-12+024499999V0209999C000010060019N0060001N1-00191-00251099751ADDAY171061AY221061GA1081+006009029GF108991081001008001021999MA1999999096751MD1810101+9999MW1711REMSYN082AAXX  03001 28334 41556 80000 11019 21025 39675 49975 58010 77172 8802/ 333 88520;
0195283340999992000050303004+57350+058220FM-12+024499999V0209999C000010060019N0020001N1-00241-00361099861ADDAJ100069199999999AY171031AY221031GA1081+006009029GF108991081001008001021999IA1309MD1310091+9999MW1731REMSYN082AAXX  03031 28334 /1520 80000 11024 21036 49986 53009 77372 8802/ 333 42006 88520;
0202283340999992000050306004+57350+058220FM-12+024499999V0202001N002010060019N0070001N1+00131-00011099751ADDAA112005191AY171061AY221061GA1081+006009029GF108991081001008001021999KA1120N-00241MD1810071+9999MW1711REMSYN088AAXX  03061 28334 11557 82002 10013 21001 49975 58007 60052 77172 8802/ 333 21024 88520;
0166283340999992000050309004+57350+058220FM-12+024499999V0202901N004010060019N0070001N1+00081-00151100021ADDAY171031AY221031GA1081+006009029GF108991081001008001021999MD1310261+9999MW1711REMSYN076AAXX  03091 28334 41557 82904 10008 21015 40002 53026 77172 8802/ 333 88520;
0206283340999992000050312004+57350+058220FM-12+024499999V0202901N004010060019N0200001N1-00021-00261100311ADDAY171061AY251061GA1081+006009069GF108991999071008001021999MA1999999097291MD1210261+9999MW1511REMSYN082AAXX  03121 28334 41570 82904 11002 21026 39729 40031 52026 75175 8872/ 333 88720;EQDQ01+000082SCOTLC
0185283340999992000050315004+57350+058220FM-12+024499999V0202501N002010060019N0070001N1-00071-00281100611ADDAY171031AY251031GA1081+006009029GF108991081001008001021999KA1120M+00141MD1210301+9999MW1711REMSYN082AAXX  03151 28334 /1557 82502 11007 21028 40061 52030 77175 8802/ 333 10014 88520;
0202283340999992000050318004+57350+058220FM-12+024499999V0209999C000010060019N0020001N1-00101-00281100661ADDAA112001091AY171061AY251061GA1081+006009029GF108991081001008001021999KA1120M+00141MD1210041+9999MW1731REMSYN088AAXX  03181 28334 11520 80000 11010 21028 40066 52004 60012 77375 8802/ 333 10014 88520;
0166283340999992000050321004+57350+058220FM-12+024499999V0209999C000010051019N0020001N1-00121-00271100761ADDAY171031AY221031GA1081+005109029GF108991081001004501021999MD1210091+9999MW1731REMSYN076AAXX  03211 28334 41420 80000 11012 21027 40076 52009 77372 8802/ 333 88517;
0187283340999992000050400004+57350+058220FM-12+024499999V0202501N002010051019N0500001N1-00131-00281100811ADDAY171061AY221061GA1081+005109029GF108991081001004501021999MA1999999097771MD1210051+9999MW1221REMSYN082AAXX  04001 28334 41499 82502 11013 21028 39777 40081 52005 72272 8802/ 333 88517;
0167283340999992000050403004+57350+058220FM-12+024499999V0202501N002010051019N0500001N1-00061-00271100921ADDAJ100079199999999GA1081+005109029GF108991081001004501021999IA1279MD1210121+9999REMSYN076AAXX  04031 28334 /2499 82502 11006 21027 40092 52012 8802/ 333 43007 88517;
0193283340999992000050406004+57350+058220FM-12+024499999V0202701N002010060019N0500001N1+00041-00261101001ADDAA112003091GA1081+006009029GF108991999071008001021999KA1120N-00161MD1210091+9999REMSYN082AAXX  04061 28334 12599 82702 10004 21026 40100 52009 60032 8872/ 333 21016 88820;EQDQ01+000082SCOTLC
0138283340999992000050409004+57350+058220FM-12+024499999V0202301N002010060019N0500001N1+00351-00121100981ADDGA1071+006009029GF107991071071008001031001MD1210011+9999REMSYN070AAXX  04091 28334 42599 72302 10035 21012 40098 52001 87730 333 87820;
0187283340999992000050412004+57350+058220FM-12+024499999V0209999C000010060019N0250001N1+00251+00151100971ADDAY181061AY281061GA1071+006009099GF107991071031008001001001MA1999999097971MD1810021+9999MW1801REMSYN082AAXX  04121 28334 41575 70000 10025 20015 39797 40097 58002 78088 87300 333 87920;
0185283340999992000050415004+57350+058220FM-12+024499999V0209999C000010060019N0500001N1+00311+00151100991ADDAY181031AY221031GA1081+006009099GF108991081031008001999999KA1120M+00361MD1310031+9999MW1031REMSYN082AAXX  04151 28334 /1599 80000 10031 20015 40099 53003 70382 883// 333 10036 88920;
0180283340999992000050418004+57350+058220FM-12+024499999V0209999C000019999999N0500001N1+00191+00061101051ADDAA112003091AY181061AY221061GF108991081001999999021999KA1999M+00361MD1210051+9999MW1021REMSYN082AAXX  04181 28334 11984 80000 10019 20006 40105 52005 60032 70282 8802/ 333 10036;
0122283340999992000050421004+57350+058220FM-12+024499999V0209999C000012200019N0500001N1+00231+00071101011ADDGA1001+999999999GF100991001001999999001001MD1810041+9999REMSYN054AAXX  04211 28334 42984 00000 10023 20007 40101 58004;
0133283340999992000050500004+57350+058220FM-12+024499999V0202301N002019999999N0500001N1+00231+00011101041ADDGF108991081001999999021999MA1999999098041MD1310031+9999REMSYN066AAXX  05001 28334 42984 82302 10023 20001 39804 40104 53003 8802/;
0168283340999992000050503004+57350+058220FM-12+024499999V0202301N002010069019N0500001N1+00281-00021101081ADDAA199000091GA1061+006909029GF106991061081008001041001MD1210041+9999REMSYN070AAXX  05031 28334 32599 62302 10028 21002 40108 52004 86840 333 86823;EQDQ01  00002PRCP99
0187283340999992000050506004+57350+058220FM-12+024499999V0202301N002010069019N0500001N1+00601+00061101061ADDAA199000091GA1061+006909029GF106991061081008001041011KA1120N+00191MD1210021+9999REMSYN076AAXX  05061 28334 32599 62302 10060 20006 40106 52002 86841 333 20019 86823;EQDQ01  00002PRCP99
0112283340999992000050509004+57350+058220FM-12+024499999V0202301N004019999999N0500001N1+01001+00001100981ADDGF108991081001999999021999MD1810041+9999REMSYN060AAXX  05091 28334 42999 82304 10100 20000 40098 58004 8802/;
0187283340999992000050512004+57350+058220FM-12+024499999V0202301N004010069019N0060001N1+00701+00191101051ADDAY161061AY221061GA1081+006909029GF108991081001008001021999MA1999999098101MD1310041+9999MW1611REMSYN082AAXX  05121 28334 41556 82304 10070 20019 39810 40105 53004 76162 8802/ 333 88523;
0185283340999992000050515004+57350+058220FM-12+024499999V0202301N002010060019N0060001N1+00521+00381101031ADDAY161031AY221031GA1081+006009029GF108991081001008001021999KA1120M+01011MD1810041+9999MW1611REMSYN082AAXX  05151 28334 /1556 82302 10052 20038 40103 58004 76162 8802/ 333 10101 88520;
0221283340999992000050518004+57350+058220FM-12+024499999V0202301N002010069019N0060001N1+00521+00411100891ADDAA112001091AY161061AY221061GA1081+006909069GF108991999071008001021999KA1120M+01011MD1710131+9999MW1211REMSYN088AAXX  05181 28334 11556 82302 10052 20041 40089 57013 60012 72162 8872/ 333 10101 88723;EQDQ01+000082SCOTLC
0138283340999992000050521004+57350+058220FM-12+024499999V0202301N004010069019N0500001N1+00441+00291100981ADDGA1071+006909029GF107991071071008001001001MD1310071+9999REMSYN070AAXX  05211 28334 42584 72304 10044 20029 40098 53007 87700 333 87823;
0159283340999992000050600004+57350+058220FM-12+024499999V0202301N002010051019N0500001N1+00341+00241101111ADDGA1081+005109099GF108991081031004501999999MA1999999098121MD1210121+9999REMSYN076AAXX  06001 28334 42499 82302 10034 20024 39812 40111 52012 883// 333 88917;
0173283340999992000050603004+57350+058220FM-12+024499999V0202301N004010060019N0500001N1+00361+00261101161ADDGA1081+006009029GF108991999071008001021999MD1010051+9999REMSYN070AAXX  06031 28334 /2599 82304 10036 20026 40116 50116 8872/ 333 88820;EQDQ01+000082SCOTLCQ02+001162APC3  
0185283340999992000050609004+57350+058220FM-12+024499999V0202001N002010069019N0070001N1+00841+00681101151ADDAY161031AY221031GA1081+006909029GF108991999071008001021999MD1410001+9999MW1211REMSYN076AAXX  06091 28334 41557 82002 10084 20068 40115 54000 72162 8872/ 333 88823;EQDQ01+000082SCOTLC
0204283340999992000050615004+57350+058220FM-12+024499999V0202301N002010069019N0070001N1+99999+99999101091ADDAY161031AY221031GA1081+006909069GF108991999071008001021999KA1120M+00851MD1410001+9999MW1611REMSYN082AAXX  06151 28334 /1557 82302 10756 20037 40109 54000 76162 8872/ 333 10085 88723;EQDQ01+000082SCOTLC
0175283340999992000050618004+57350+058220FM-12+024499999V0202301N002010075019N0500001N1-00641+99999101081ADDAA101007991AA230008091GF108991999031008001021011MD1810331+9999REMSYN082AAXX  06181 28334 11584 82302 11064 20053 40108 58033 60072 88321 333 60085 884//;EQDQ01+000082SCOTLC
0166283340999992000050621004+57350+058220FM-12+024499999V0209999C000010069019N0060001N1+00622-00511101061ADDAY181031AY221031GA1081+006909099GF108991081031008001999999MD1710021+9999MW1801REMSYN076AAXX  06211 28334 41556 80000 10062 21051 40106 57002 78082 883// 333 88923;
0187283340999992000050700004+57350+058220FM-12+024499999V0202301N002010060019N0060001N1+00621+99999101041ADDAY161061AY221061GA1081+006009029GF108991081001008001021999MA1999999098081MD1710021+9999MW1611REMSYN082AAXX  07001 28334 41556 82302 10062 20651 39808 40104 57002 76162 8802/ 333 88520;
0138283340999992000050703004+57350+058220FM-12+024499999V0202301N002010060019N0500001N1+00691+00561101041ADDGA1081+006009029GF108991081001008001021999MD1310011+9999REMSYN070AAXX  07031 28334 /1599 82302 10069 20056 40104 53001 8802/ 333 88520;
0221283340999992000050706004+57350+058220FM-12+024499999V0202301N002010060019N0060001N1+00831+00681101051ADDAA112002091AY161061AY221061GA1081+006009069GF108991999071008001021999KA1120N+00621MD1210021+9999MW1611REMSYN088AAXX  07061 28334 11556 82302 10083 20068 40105 52002 60022 76162 8872/ 333 20062 88720;EQDQ01+000082SCOTLC
0185283340999992000050709004+57350+058220FM-12+024499999V0209999C000010069019N0500001N1+01321+01111100891ADDAY161031AY221031GA1081+006909069GF108991999071008001021999MD1810091+9999MW1021REMSYN076AAXX  07091 28334 41599 80000 10132 20111 40089 58009 70262 8872/ 333 88723;EQDQ01+000082SCOTLC
0206283340999992000050712004+57350+058220FM-12+024499999V0202301N004010060019N0500001N1+01411+01141100671ADDAY161061AY221061GA1081+006009069GF108991999071008001021999MA1999999097811MD1710211+9999MW1021REMSYN082AAXX  07121 28334 41599 82304 10141 20114 39781 40067 57021 70262 8872/ 333 88720;EQDQ01+000082SCOTLC
0204283340999992000050715004+57350+058220FM-12+024499999V0202301N002010060019N0070001N1+01181+01031100601ADDAY161031AY221031GA1081+006009069GF108991999071008001021999KA1120M+01421MD1710101+9999MW1611REMSYN082AAXX  07151 28334 /1557 82302 10118 20103 40060 57010 76162 8872/ 333 10142 88720;EQDQ01+000082SCOTLC
0202283340999992000050718004+57350+058220FM-12+024499999V0209999C000010060019N0150001N1+00761+00671100621ADDAA112001091AY161061AY221061GA1081+006009029GF108991081071008001999999KA1120M+01421MD1710021+9999MW1611REMSYN088AAXX  07181 28334 11565 80000 10076 20067 40062 57002 60012 76162 887// 333 10142 88820;
0166283340999992000050721004+57350+058220FM-12+024499999V0203201N002010060019N0150001N1+00621+00581100551ADDAY161031AY221031GA1081+006009029GF108991081071008001999999MD1710081+9999MW1611REMSYN076AAXX  07211 28334 41565 83202 10062 20058 40055 57008 76162 887// 333 88820;
0161283340999992000050800004+57350+058220FM-12+024499999V0203201N002010042019N0500001N1+00441+00321100661ADDAY161061AY221061GF108991081071004501999999MA1999999097691MD1310081+9999MW1021REMSYN072AAXX  08001 28334 41499 83202 10044 20032 39769 40066 53008 70262 887//;
0166283340999992000050803004+57350+058220FM-12+024499999V0203201N002010051019N0500001N1+00101-00221100861ADDAY151031AY221031GA1061+005109029GF107991061021004501081001MD1210171+9999MW1011REMSYN076AAXX  08031 28334 /1499 73202 10010 21022 40086 52017 70152 86280 333 86817;
0202283340999992000050806004+57350+058220FM-12+024499999V0203201N004010069019N0500001N1+00331-00751100951ADDAA112005191AY151061AY221061GA1061+006909099GF106991061031008001001001KA1120N+00101MD1210101+9999MW1011REMSYN088AAXX  08061 28334 11599 63204 10033 21075 40095 52010 60052 70152 86300 333 20010 86923;
0138283340999992000050809004+57350+058220FM-12+024499999V0202701N008010069019N0500001N1+00481-00921101021ADDGA1061+006909029GF106991061021008001001001MD1210081+9999REMSYN070AAXX  08091 28334 42599 62708 10048 21092 40102 52008 86200 333 86823;
0133283340999992000050812004+57350+058220FM-12+024499999V0202701N006012200019N0500001N1+00611-00931101061ADDGF103991031021008001001001MA1999999098091MD1210051+9999REMSYN066AAXX  08121 28334 42599 32706 10061 21093 39809 40106 52005 83200;
0165283340999992000050815004+57350+058220FM-12+024499999V0203201N002012200019N0500001N1+00531-00731101101ADDAA199000091GF102991021021008001001001KA1999M+00681MD1210041+9999REMSYN070AAXX  08151 28334 32599 23202 10053 21073 40110 52004 82200 333 10068;EQDQ01  00002PRCP99
0175283340999992000050818004+57350+058220FM-12+024499999V0209999C000012200019N0500001N1+00161-00751101201ADDAA199000091GA1001+999999999GF100991001001999999001001KA1999M+00681MD1210061+9999REMSYN064AAXX  08181 28334 32984 00000 10016 21075 40120 52006 333 10068;EQDQ01  00002PRCP99
0122283340999992000050821004+57350+058220FM-12+024499999V0209999C000012200019N0500001N1-00181-00931101371ADDGA1001+999999999GF100991001001999999001001MD1210121+9999REMSYN054AAXX  08211 28334 42984 00000 11018 21093 40137 52012;
0133283340999992000050900004+57350+058220FM-12+024499999V0209999C000019999999N0500001N1-00271-01011101391ADDGF106991001001999999001081MA1999999098321MD1210011+9999REMSYN066AAXX  09001 28334 42999 60000 11027 21101 39832 40139 52001 80008;
0142283340999992000050903004+57350+058220FM-12+024499999V0209999C000019999999N0500001N1+00071-00501101401ADDAA199000091GF105991001001999999001081MD1210051+9999REMSYN060AAXX  09031 28334 32999 50000 10007 21050 40140 52005 80008;EQDQ01  00002PRCP99
0187283340999992000050906004+57350+058220FM-12+024499999V0202301N002010069019N0500001N1+00861-00271101281ADDAA199000091GA1051+006909029GF106991051011008001001021KA1120N-00271MD1810041+9999REMSYN076AAXX  09061 28334 32599 62302 10086 21027 40128 58004 85102 333 21027 85823;EQDQ01  00002PRCP99
0138283340999992000050909004+57350+058220FM-12+024499999V0202001N002010069019N0500001N1+01101-00411101191ADDGA1051+006909029GF105991051011008001001001MD1710051+9999REMSYN070AAXX  09091 28334 42599 52002 10110 21041 40119 57005 85100 333 85823;
0159283340999992000050912004+57350+058220FM-12+024499999V0209999C000010069019N0500001N1+01221-00271101081ADDGA1051+006909029GF106991051011008001001021MA1999999098191MD1710091+9999REMSYN076AAXX  09121 28334 42599 60000 10122 21027 39819 40108 57009 85102 333 85823;
0165283340999992000050915004+57350+058220FM-12+024499999V0209999C000012200019N0500001N1+01131-00251101001ADDAA199000091GF103991031001999999041001KA1999M+01231MD1710101+9999REMSYN070AAXX  09151 28334 32999 30000 10113 21025 40100 57010 83040 333 10123;EQDQ01  00002PRCP99
0165283340999992000050918004+57350+058220FM-12+024499999V0209999C000012200019N0500001N1+00521-00301101051ADDAA199000091GF101991001001999999001021KA1999M+01231MD1710011+9999REMSYN070AAXX  09181 28334 32984 10000 10052 21030 40105 57001 80002 333 10123;EQDQ01  00002PRCP99
0112283340999992000050921004+57350+058220FM-12+024499999V0209999C000019999999N0500001N1+00161-00321100981ADDGF106991001001999999001051MD1710111+9999REMSYN060AAXX  09211 28334 42984 60000 10016 21032 40098 57011 80005;
0206283340999992000051000004+57350+058220FM-12+024499999V0200701N002010060019N0200001N1+00531+00231100831ADDAY161061AY211061GA1081+006009069GF108991999071008001021999MA1999999097871MD1710101+9999MW1611REMSYN082AAXX  10001 28334 41570 80702 10053 20023 39787 40083 57010 76161 8872/ 333 88720;EQDQ01+000082SCOTLC
0185283340999992000051003004+57350+058220FM-12+024499999V0200701N004010069019N0500001N1+00421+00181100761ADDAY161031AY221031GA1081+006909069GF108991999071008001021999MD1710081+9999MW1021REMSYN076AAXX  10031 28334 /1599 80704 10042 20018 40076 57008 70262 8872/ 333 88723;EQDQ01+000082SCOTLC
0202283340999992000051006004+57350+058220FM-12+024499999V0200501N008010069019N0500001N1+00671+00151100571ADDAA112003091AY161061AY221061GA1081+006909029GF108991081001008001021999KA1120N+00161MD1710161+9999MW1021REMSYN088AAXX  10061 28334 11599 80508 10067 20015 40057 57016 60032 70262 8802/ 333 20016 88523;
0157283340999992000051009004+57350+058220FM-12+024499999V0200701N012010069019N0500001N1+01031+00111100411ADDGA1081+006909059GF108991999051008001021999MD1710121+9999REMSYN070AAXX  10091 28334 42599 80712 10103 20011 40041 57012 8852/ 333 88623;EQDQ01+000082SCOTLC
0159283340999992000051012004+57350+058220FM-12+024499999V0200701N016010069019N0500001N1+00971-00021100361ADDGA1081+006909029GF108991081001008001021999MA1999999097451MD1710061+9999REMSYN076AAXX  10121 28334 42599 80716 10097 21002 39745 40036 57006 8802/ 333 88523;
0193283340999992000051015004+57350+058220FM-12+024499999V0200701N016010069019N0500001N1+00921-00071100341ADDAA199000091GA1081+006909059GF108991081001008001021999KA1120M+01101MD1710021+9999REMSYN082AAXX  10151 28334 32599 80716 10092 21007 40034 57002 8802/ 333 10110 88523 91118;EQDQ01  00002PRCP99
0193283340999992000051018004+57350+058220FM-12+024499999V0200701N016010069019N0500001N1+00631+00031100551ADDAA199000091GA1081+006909059GF108991081001008001021999KA1120M+01101MD1310181+9999REMSYN082AAXX  10181 28334 32584 80716 10063 20003 40055 53018 8802/ 333 10110 88523 91118;EQDQ01  00002PRCP99
0144283340999992000051021004+57350+058220FM-12+024499999V0200701N016010069019N0500001N1+00411+00041100381ADDGA1081+006909059GF108991081001008001021999MD1810191+9999REMSYN076AAXX  10211 28334 42584 80716 10041 20004 40038 58019 8802/ 333 88523 91118;
0133283340999992000051100004+57350+058220FM-12+024499999V0200701N016019999999N0500001N1+00211-00041100401ADDGF105991051001004501041001MA1999999097421MD1410001+9999REMSYN066AAXX  11001 28334 42484 50716 10021 21004 39742 40040 54000 85040;
0142283340999992000051103004+57350+058220FM-12+024499999V0200701N002012200019N0500001N1+00291-00101100431ADDAA199000091GF103991001001999999001081MD1310041+9999REMSYN060AAXX  11031 28334 32999 30702 10029 21010 40043 53004 80008;EQDQ01  00002PRCP99
0165283340999992000051106004+57350+058220FM-12+024499999V0200201N004012200019N0500001N1+00541-00141100421ADDAA199000091GF103991031001999999031001KA1999N+00191MD1210011+9999REMSYN070AAXX  11061 28334 32999 30204 10054 21014 40042 52001 83030 333 20019;EQDQ01  00002PRCP99
0122283340999992000051109004+57350+058220FM-12+024499999V0200201N004012200019N0500001N1+00941-00071100341ADDGA1001+999999999GF100991001001999999001001MD1810041+9999REMSYN054AAXX  11091 28334 42999 00204 10094 21007 40034 58004;
0143283340999992000051112004+57350+058220FM-12+024499999V0200201N004012200019N0500001N1+01061-00221100251ADDGA1001+999999999GF100991001001999999001001MA1999999097351MD1710081+9999REMSYN060AAXX  11121 28334 42999 00204 10106 21022 39735 40025 57008;
0165283340999992000051118004+57350+058220FM-12+024499999V0209999C000012200019N0500001N1+00541-00011100511ADDAA199000091GF102991021001999999031001KA1999M+01071MD1210111+9999REMSYN070AAXX  11181 28334 32984 20000 10054 21001 40051 52011 82030 333 10107;EQDQ01  00002PRCP99
0122283340999992000051121004+57350+058220FM-12+024499999V0209999C000012200019N0500001N1+00311-00071100531ADDGA1001+999999999GF100991001001999999001001MD1210061+9999REMSYN054AAXX  11211 28334 42984 00000 10031 21007 40053 52006;
0143283340999992000051200004+57350+058220FM-12+024499999V0209999C000012200019N0500001N1-00221-00521100721ADDGA1001+999999999GF100991001001999999001001MA1999999097671MD1210051+9999REMSYN060AAXX  12001 28334 42999 00000 11022 21052 39767 40072 52005;
0152283340999992000051203004+57350+058220FM-12+024499999V0209999C000012200019N0500001N1+00311-00041100671ADDAA199000091GA1001+999999999GF100991001001999999001001MD1210021+9999REMSYN054AAXX  12031 28334 32999 00000 10031 21004 40067 52002;EQDQ01  00002PRCP99
0165283340999992000051206004+57350+058220FM-12+024499999V0201601N002010300019N0500001N1+01111+00021100601ADDAA199000091GF107991031011008001031001KA1999N-00221MD1210011+9999REMSYN070AAXX  12061 28334 32599 71602 10111 20002 40060 52001 83130 333 21022;EQDQ01  00002PRCP99
0138283340999992000051209004+57350+058220FM-12+024499999V0201601N002010300019N0500001N1+01211+00551100551ADDGA1041+006909029GF107991041011008001031001MD1310041+9999REMSYN070AAXX  12091 28334 42599 71602 10121 20055 40055 53004 84130 333 84823;
0159283340999992000051212004+57350+058220FM-12+024499999V0201601N002010069019N0500001N1+01211-00021100481ADDGA1071+006909029GF107991071021008001001001MA1999999097601MD1710061+9999REMSYN076AAXX  12121 28334 42599 71602 10121 21002 39760 40048 57006 87200 333 87823;
0165283340999992000051215004+57350+058220FM-12+024499999V0201801N002010300019N0500001N1+01041+00001100501ADDAA199000091GF106991021021008001031001KA1999M+01261MD1410001+9999REMSYN070AAXX  12151 28334 32599 61802 10104 20000 40050 54000 82230 333 10126;EQDQ01  00002PRCP99
0175283340999992000051218004+57350+058220FM-12+024499999V0201801N002012200019N0500001N1+00641-00141100531ADDAA199000091GA1001+999999999GF100991001001999999001001KA1999M+01261MD1310011+9999REMSYN064AAXX  12181 28334 32984 01802 10064 21014 40053 53001 333 10126;EQDQ01  00002PRCP99
0122283340999992000051221004+57350+058220FM-12+024499999V0209999C000012200019N0500001N1+00381+00011100511ADDGA1001+999999999GF100991001001999999001001MD1710051+9999REMSYN054AAXX  12211 28334 42984 00000 10038 20001 40051 57005;
0159283340999992000051300004+57350+058220FM-12+024499999V0209999C000010060019N0500001N1+00301+00011100271ADDGA1061+006009029GF107991061081008001041001MA1999999097311MD1710231+9999REMSYN076AAXX  13001 28334 42599 70000 10030 20001 39731 40027 57023 86840 333 86820;
0142283340999992000051303004+57350+058220FM-12+024499999V0201601N004019999999N0500001N1+00461-00021100081ADDAA199000091GF105991051001999999031001MD1710201+9999REMSYN060AAXX  13031 28334 32999 51604 10046 21002 40008 57020 85030;EQDQ01  00002PRCP99
0215283340999992000051306004+57350+058220FM-12+024499999V0201801N004010069019N0500001N1+01281+00531099841ADDAA199000021AY161061AY221061GA1081+006909029GF108991999071008001021999KA1120N+00301MD1710141+9999MW1211REMSYN082AAXX  13061 28334 31599 81804 10128 20053 49984 57014 72162 8872/ 333 20030 88823;EQDQ01+000082SCOTLC
0185283340999992000051309004+57350+058220FM-12+024499999V0201801N004010069019N0200001N1+01061+00771099801ADDAY161031AY221031GA1081+006909029GF108991999071008001021999MD1710061+9999MW1611REMSYN076AAXX  13091 28334 41570 81804 10106 20077 49980 57006 76162 8872/ 333 88823;EQDQ01+000082SCOTLC
0206283340999992000051312004+57350+058220FM-12+024499999V0201601N004010069019N0200001N1+01121+00731099791ADDAY161061AY221061GA1081+006909029GF108991999071008001021999MA1999999096921MD1710011+9999MW1611REMSYN082AAXX  13121 28334 41570 81604 10112 20073 39692 49979 57001 76162 8872/ 333 88823;EQDQ01+000082SCOTLC
0133283340999992000051315004+57350+058220FM-12+024499999V0201601N002019999999N0500001N1+00821+00591099921ADDGF107991999999008001999999MD1310101+9999REMSYN081AAXX  13151 28334 /1599 71602 10082 20059 49992 53010 7262 8772/ 333 10127 87823;
0202283340999992000051318004+57350+058220FM-12+024499999V0201601N002010069019N0500001N1+00501+00301100011ADDAA112003091AY161061AY221061GA1071+006909029GF107991071071008001021999KA1120M+01271MD1210051+9999MW1221REMSYN088AAXX  13181 28334 11584 71602 10050 20030 40001 52005 60032 72262 8772/ 333 10127 87823;
0166283340999992000051321004+57350+058220FM-12+024499999V0201801N002010060019N0150001N1+00441+00241100111ADDAY161031AY251031GA1081+006009029GF108991081071008001999999MD1210091+9999MW1611REMSYN076AAXX  13211 28334 41565 81802 10044 20024 40011 52009 76165 887// 333 88820;
0187283340999992000051400004+57350+058220FM-12+024499999V0201801N002010060019N0500001N1+00381+00201100271ADDAY161061AY221061GA1061+006009029GF108991061071008001011999MA1999999097321MD1210161+9999MW1021REMSYN082AAXX  14001 28334 41599 81802 10038 20020 39732 40027 52016 70262 8671/ 333 86820;
0138283340999992000051403004+57350+058220FM-12+024499999V0201801N002010069019N0500001N1+00381+00041100331ADDGA1061+006909099GF106991061031008001001001MD1210101+9999REMSYN070AAXX  14031 28334 /2599 61802 10038 20004 40033 52010 86300 333 86923;
0202283340999992000051406004+57350+058220FM-12+024499999V0201601N004010060019N0500001N1+00541-00011100521ADDAA112005191AY181061AY221061GA1071+006009099GF107991071031008001001001KA1120N+00381MD1210151+9999MW1031REMSYN088AAXX  14061 28334 11599 71604 10054 21001 40052 52015 60052 70382 87300 333 20038 87920;
0166283340999992000051409004+57350+058220FM-12+024499999V0202001N004010060019N0500001N1+00781-00141100531ADDAY181031AY221031GA1061+006009099GF106991061031008001001001MD1210031+9999MW1271REMSYN076AAXX  14091 28334 41599 62004 10078 21014 40053 52003 72782 86300 333 86920;
0187283340999992000051412004+57350+058220FM-12+024499999V0202001N004010060019N0500001N1+00931-00301100531ADDAY181061AY221061GA1061+006009099GF106991061031008001001001MA1999999097621MD1210021+9999MW1021REMSYN082AAXX  14121 28334 41599 62004 10093 21030 39762 40053 52002 70282 86300 333 86920;
0168283340999992000051415004+57350+058220FM-12+024499999V0209999C000010060019N0500001N1+00771-00191100571ADDAA199000021GA1051+006009099GF105991051031008001001001KA1120M+00941MD1210021+9999REMSYN076AAXX  14151 28334 32599 50000 10077 21019 40057 52002 85300 333 10094 85920;
0152283340999992000051418004+57350+058220FM-12+024499999V0209999C000012200019N0500001N1+00271-00461100691ADDAA112000791GF102991021001999999041011KA1999M+00941MD1210061+9999REMSYN076AAXX  14181 28334 12984 20000 10027 21046 40069 52006 69902 82041 333 10094;
0112283340999992000051421004+57350+058220FM-12+024499999V0209999C000012200019N0500001N1-00141-00651100741ADDGF104991041001999999031001MD1410001+9999REMSYN060AAXX  14211 28334 42984 40000 11014 21065 40074 54000 84030;
0159283340999992000051500004+57350+058220FM-12+024499999V0209999C000010060019N0500001N1+00791+00612100701ADDGA1061+006009029GF106991061071008001021999MA1999999097771MD1310071+9999REMSYN076AAXX  15001 28334 42599 60000 10079 20061 39777 40070 53007 8672/ 333 86820;
0142283340999992000051503004+57350+058220FM-12+024499999V0209999C000019999999N0500001N1+00381+00151100741ADDAA199000091GF106991001001999999001011MD1410001+9999REMSYN060AAXX  15031 28334 32999 60000 10038 20015 40074 54000 80001;EQDQ01  00002PRCP99
0187283340999992000051506004+57350+058220FM-12+024499999V0201801N002010069019N0500001N1+00931+00211100631ADDAA199000091GA1051+006909029GF105991051021008001001001KA1120N-00141MD1810061+9999REMSYN076AAXX  15061 28334 32599 51802 10093 20021 40063 58006 85200 333 21014 85823;EQDQ01  00002PRCP99
0138283340999992000051509004+57350+058220FM-12+024499999V0201801N004010069019N0500001N1+01041+00151100391ADDGA1061+006909029GF106991061021008001001001MD1710221+9999REMSYN070AAXX  15091 28334 42599 61804 10104 20015 40039 57022 86200 333 86823;
0187283340999992000051512004+57350+058220FM-12+024499999V0201801N002010060019N0500001N1+00581+00151100481ADDAY161061AY221061GA1071+006009029GF107991071071008001999999MA1999999097541MD1310051+9999MW1211REMSYN082AAXX  15121 28334 41599 71802 10058 20015 39754 40048 53005 72162 877// 333 87820;
0157283340999992000051515004+57350+058220FM-12+024499999V0201801N002010060019N0500001N1+00701+00401100211ADDGA1051+006009029GF105991051071008001999999KA1120M+01051MD1710251+9999REMSYN076AAXX  15151 28334 /1599 51802 10070 20040 40021 57025 857// 333 10105 85820;
0211283340999992000051518004+57350+058220FM-12+024499999V0201801N006010060019N0150001N1+00091-00051999999ADDAA112000791AY171061AY261061GA1081+006009029GF108991081071008001999999KA1120M+01051MD1310031+9999ME1100039MW1711REMSYN088AAXX  15181 28334 11565 81806 10009 21005 41003 53003 69902 77176 887// 333 10105 88820;
0166283340999992000051521004+57350+058220FM-12+024499999V0201801N006010060019N0150001N1-00021-00081100371ADDAY171031AY261031GA1081+006009029GF108991081071008001999999MD1210031+9999MW1611REMSYN076AAXX  15211 28334 41565 81806 11002 21008 40037 52003 76176 887// 333 88820;
0187283340999992000051600004+57350+058220FM-12+024499999V0201401N004010060019N0500001N1+00051-00061100351ADDAY171061AY261061GA1081+006009029GF108991081071008001999999MA1999999097351MD1410001+9999MW1021REMSYN082AAXX  16001 28334 41599 81404 10005 21006 39735 40035 54000 70276 887// 333 88820;
0166283340999992000051603004+57350+058220FM-12+024499999V0201801N004010060019N0500001N1+00111-00061100391ADDAY161031AY221031GA1081+006009029GF108991081071008001999999MD1310051+9999MW1021REMSYN076AAXX  16031 28334 /1599 81804 10011 21006 40039 53005 70262 887// 333 88820;
0202283340999992000051606004+57350+058220FM-12+024499999V0201801N002010060019N0500001N1+00401-00221100451ADDAA112003091AY161061AY221061GA1061+006009029GF106991061021008001061001KA1120N-00021MD1210091+9999MW1011REMSYN088AAXX  16061 28334 11599 61802 10040 21022 40045 52009 60032 70162 86260 333 21002 86820;
0166283340999992000051609004+57350+058220FM-12+024499999V0202301N002010069019N0500001N1+00471+00081100551ADDAY181031AY221031GA1061+006909099GF106991061031008001001021MD1210101+9999MW1271REMSYN076AAXX  16091 28334 41599 62302 10047 20008 40055 52010 72782 86302 333 86923;
0187283340999992000051612004+57350+058220FM-12+024499999V0202301N002010060019N0500001N1+00311+00071100521ADDAY181061AY261061GA1061+006009029GF108991061071008001011999MA1999999097611MD1210021+9999MW1271REMSYN082AAXX  16121 28334 41599 82302 10031 20007 39761 40052 52002 72786 8671/ 333 86820;
0157283340999992000051615004+57350+058220FM-12+024499999V0209999C000010069019N0500001N1+00291-00011100591ADDGA1071+006909069GF108991071061008001001011KA1120M+00481MD1210011+9999REMSYN076AAXX  16151 28334 /2599 80000 10029 21001 40059 52001 87601 333 10048 87723;
0152283340999992000051618004+57350+058220FM-12+024499999V0209999C000019999999N0500001N1+00071-00321100581ADDAA112000591GF105991021001999999041021KA1999M+00481MD1810041+9999REMSYN076AAXX  16181 28334 12984 50000 10007 21032 40058 58004 69952 82042 333 10048;
0112283340999992000051621004+57350+058220FM-12+024499999V0209999C000019999999N0500001N1-00041-00461100261ADDGF108991081001999999021999MD1710331+9999REMSYN060AAXX  16211 28334 42984 80000 11004 21046 40026 57033 8802/;
0161283340999992000051700004+57350+058220FM-12+024499999V0209999C000019999999N0020001N1+00011-00141099911ADDAY171061AY221061GF108991081001999999021999MA1999999096921MD1710331+9999MW1731REMSYN072AAXX  17001 28334 41920 80000 10001 21014 39692 49991 57033 77372 8802/;
0173283340999992000051703004+57350+058220FM-12+024499999V0209999C000010075019N0200001N1+00051-00011099691ADDAJ100069199999999AY171031AY221031GF108991081001008001021999IA1279MD1710211+9999MW1711REMSYN076AAXX  17031 28334 /1570 80000 10005 21001 49969 57021 77172 8802/ 333 43006;
0202283340999992000051706004+57350+058220FM-12+024499999V0209999C000010060019N0200001N1+00251+00201099721ADDAA112008991AY171061AY251061GA1081+006009029GF108991081001008001021999KA1120N-00041MD1310051+9999MW1511REMSYN088AAXX  17061 28334 /1570 80000 10025 20020 49972 53005 60092 75175 8802/ 333 21004 88520;
0185283340999992000051709004+57350+058220FM-12+024499999V0202301N001010060019N0200001N1+00281+00181099701ADDAY161031AY251031GA1081+006009029GF108991999071008001021999MD1810011+9999MW1611REMSYN076AAXX  17091 28334 41570 82301 10028 20018 49970 58001 76165 8872/ 333 88820;EQDQ01+000082SCOTLC
0187283340999992000051712004+57350+058220FM-12+024499999V0202301N002010069019N0200001N1+00371+00301099901ADDAY161061AY251061GA1071+006909099GF107991071031008001001001MA1999999096961MD1310211+9999MW1611REMSYN082AAXX  17121 28334 41570 72302 10037 20030 39696 49990 53021 76165 87300 333 87923;
0163283340999992000051715004+57350+058220FM-12+024499999V0209999C000010300019N0500001N1+00431+00181099991ADDAY161031AY221031GF106991021011008001031001KA1999M+00441MD1210091+9999MW1011REMSYN076AAXX  17151 28334 /1599 60000 10043 20018 49999 52009 70162 82130 333 10044;
0182283340999992000051718004+57350+058220FM-12+024499999V0209999C000010060019N0500001N1+00211+00051100001ADDAA112002091AY161061AY221061GA1061+006009029GF106991061081008001001001KA1120M+00441MW1021REMSYN082AAXX  17181 28334 11584 60000 10021 20005 40000 60022 70262 86800 333 10044 86820;
0112283340999992000051721004+57350+058220FM-12+024499999V0209999C000012200019N0500001N1+00001-00111100011ADDGF104991031081008001001011MD1710021+9999REMSYN060AAXX  17211 28334 42584 40000 10000 21011 40001 57002 83801;
0187283340999992000051800004+57350+058220FM-12+024499999V0209999C000010069019N0500001N1-00081-00261100041ADDAY121061AY221061GA1051+006909029GF108991051011008001031999MA1999999097011MD1710011+9999MW1101REMSYN082AAXX  18001 28334 41599 80000 11008 21026 39701 40004 57001 71022 8513/ 333 85823;
0175283340999992000051803004+57350+058220FM-12+024499999V0209999C000010300019N0500001N1+00391-00081099881ADDAA199000091AJ100009199999999GF106991011031008001031011IA1259MD1710071+9999REMSYN070AAXX  18031 28334 32599 60000 10039 21008 49988 57007 81331 333 41000;EQDQ01  00002PRCP99
0187283340999992000051806004+57350+058220FM-12+024499999V0202701N002010060019N0500001N1+00611+00111099771ADDAA199000091GA1071+006009099GF107991071031008001001001KA1120N-00081MD1710091+9999REMSYN076AAXX  18061 28334 32599 72702 10061 20011 49977 57009 87300 333 21008 87920;EQDQ01  00002PRCP99
0166283340999992000051809004+57350+058220FM-12+024499999V0203601N004010060019N0500001N1+00611+00081099761ADDAY181031AY221031GA1081+006009099GF108991081031008001999999MD1710011+9999MW1031REMSYN076AAXX  18091 28334 41599 83604 10061 20008 49976 57001 70382 883// 333 88920;
0187283340999992000051812004+57350+058220FM-12+024499999V0203401N004010060019N0500001N1+00761+00111099721ADDAY181061AY221061GA1081+006009099GF108991081031008001999999MA1999999096811MD1710031+9999MW1021REMSYN082AAXX  18121 28334 41599 83404 10076 20011 39681 49972 57003 70282 883// 333 88920;
0185283340999992000051815004+57350+058220FM-12+024499999V0203201N004010069019N0500001N1+00581+00131099761ADDAY181031AY221031GA1081+006909029GF108991081001008001021999KA1120M+00771MD1310031+9999MW1021REMSYN082AAXX  18151 28334 /1599 83204 10058 20013 49976 53003 70282 8802/ 333 10077 88523;
0221283340999992000051818004+57350+058220FM-12+024499999V0202701N004010069019N0150001N1+00531+00121099791ADDAA112000391AY181061AY261061GA1081+006909069GF108991999071008001021999KA1120M+00771MD1210021+9999MW1631REMSYN088AAXX  18181 28334 11565 82704 10053 20012 49979 52002 69932 76386 8872/ 333 10077 88723;EQDQ01+000082SCOTLC
0185283340999992000051821004+57350+058220FM-12+024499999V0202701N004010069019N0150001N1+00491+00271099681ADDAY161031AY221031GA1081+006909069GF108991999071008001021999MD1810111+9999MW1611REMSYN076AAXX  18211 28334 41565 82704 10049 20027 49968 58011 76162 8872/ 333 88723;EQDQ01+000082SCOTLC
0185283340999992000051900004+57350+058220FM-12+024499999V0202701N004010060019N0200001N1+00321+00221099581ADDAY161061AY221061GA1081+006009069GF108991999071008001021999MD1710111+9999MW1611REMSYN076AAXX  19001 28334 41570 82704 10032 20022 49958 57011 76162 8872/ 333 88720;EQDQ01+000082SCOTLC
0202283340999992000051906004+57350+058220FM-12+024499999V0202501N002010060019N0070001N1+00201+00151099601ADDAA112005191AY171061AY261061GA1081+006009029GF108991081001008001021999KA1120N+00191MD1310021+9999MW1681REMSYN088AAXX  19061 28334 11557 82502 10020 20015 49960 53002 60052 76876 8802/ 333 20019 88520;
0166283340999992000051909004+57350+058220FM-12+024499999V0202501N002010060019N0500001N1+00241+00141099681ADDAY171031AY261031GA1081+006009029GF108991081001008001021999MD1210081+9999MW1231REMSYN076AAXX  19091 28334 41599 82502 10024 20014 49968 52008 72376 8802/ 333 88520;
0187283340999992000051912004+57350+058220FM-12+024499999V0209999C000010060019N0500001N1+00271+00171099681ADDAY171061AY261061GA1081+006009069GF108991081071008001999999MA1999999096721MD1410001+9999MW1221REMSYN082AAXX  19121 28334 41599 80000 10027 20017 39672 49968 54000 72276 887// 333 88720;
0185283340999992000051915004+57350+058220FM-12+024499999V0209999C000010060019N0020001N1+00231-00051099561ADDAY171031AY261031GA1081+006009069GF108991081071008001999999KA1120M+00281MD1810121+9999MW1731REMSYN082AAXX  19151 28334 /1520 80000 10023 21005 49956 58012 77376 887// 333 10028 88720;
0202283340999992000051918004+57350+058220FM-12+024499999V0209999C000010060019N0070001N1+00081-00091099301ADDAA112007191AY171061AY261061GA1081+006009069GF108991081071008001999999KA1120M+00281MD1710271+9999MW1611REMSYN088AAXX  19181 28334 11557 80000 10008 21009 49930 57027 60072 76176 887// 333 10028 88720;
0166283340999992000051921004+57350+058220FM-12+024499999V0200501N002010069019N0500001N1+00201-00051099251ADDAY161031AY221031GA1081+006909069GF108991081071008001999999MD1710031+9999MW1201REMSYN076AAXX  19211 28334 41584 80502 10020 21005 49925 57003 72062 887// 333 88723;
0187283340999992000052000004+57350+058220FM-12+024499999V0203601N002010060019N0500001N1+00301-00051099301ADDAY161061AY251061GA1051+006009029GF107991051081008001031001MA1999999096361MD1310061+9999MW1011REMSYN082AAXX  20001 28334 41599 73602 10030 21005 39636 49930 53006 70165 85830 333 85820;
0169283340999992000052003004+57350+058220FM-12+024499999V0203601N002010120019N0500001N1+00501+00301099361ADDAA112007091GF106991051081008001031001IA1119IA2999+00409MD1210031+9999REMSYN088AAXX  20031 28334 /2599 63602 10050 20030 49936 52003 85830 333 32004 53004 60072 7013/;
0202283340999992000052006004+57350+058220FM-12+024499999V0203601N002010060019N0500001N1+00621+00281099421ADDAA112007191AY161061AY221061GA1051+006009029GF108991051081008001031001KA1120N+00081MD1210121+9999MW1031REMSYN088AAXX  20061 28334 11599 83602 10062 20028 49942 52012 60072 70362 85830 333 20008 85820;
0138283340999992000052009004+57350+058220FM-12+024499999V0203601N004010069019N0500001N1+00841+00451099611ADDGA1051+006909099GF107991051031008001001011MD1210211+9999REMSYN070AAXX  20091 28334 42599 73604 10084 20045 49961 52021 85301 333 85923;
0187283340999992000052012004+57350+058220FM-12+024499999V0209999C000010069019N0500001N1+00731+00451099801ADDAY181061AY221061GA1051+006909099GF106991051031008001001031MA1999999096891MD1210171+9999MW1221REMSYN082AAXX  20121 28334 41599 60000 10073 20045 39689 49980 52017 72282 85303 333 85923;
0204283340999992000052015004+57350+058220FM-12+024499999V0203601N002010069019N0200001N1+00641-00361100051ADDAY181031AY261031GA1081+006909029GF108991999071008001021999KA1120M+00851MD1210231+9999MW1611REMSYN082AAXX  20151 28334 /1570 83602 10064 21036 40005 52023 76186 8872/ 333 10085 88523;EQDQ01+000082SCOTLC
0221283340999992000052018004+57350+058220FM-12+024499999V0203601N002010069019N0500001N1+00531+00261100201ADDAA112002091AY181061AY261061GA1081+006909029GF108991999071008001021999KA1120M+00851MD1210141+9999MW1021REMSYN088AAXX  20181 28334 11584 83602 10053 20026 40020 52014 60022 70286 8872/ 333 10085 88523;EQDQ01+000082SCOTLC
0185283340999992000052021004+57350+058220FM-12+024499999V0209999C000010069019N0150001N1+00501+00251100051ADDAY161031AY221031GA1081+006909029GF108991999071008001021999MD1810151+9999MW1611REMSYN076AAXX  20211 28334 41565 80000 10050 20025 40005 58015 76162 8872/ 333 88523;EQDQ01+000082SCOTLC
0187283340999992000052100004+57350+058220FM-12+024499999V0209999C000010069019N0500001N1+00391+00161100261ADDAY161061AY221061GA1061+006909029GF106991061071008001021001MA1999999097301MD1310191+9999MW1011REMSYN082AAXX  21001 28334 41599 60000 10039 20016 39730 40026 53019 70162 86720 333 86523;
0138283340999992000052103004+57350+058220FM-12+024499999V0203601N002010069019N0500001N1+00571+00411100371ADDGA1071+006909029GF107991071071008001021001MD1210131+9999REMSYN070AAXX  21031 28334 /2599 73602 10057 20041 40037 52013 87720 333 87523;
0221283340999992000052106004+57350+058220FM-12+024499999V0203601N002010069019N0200001N1+00651+00441100451ADDAA112002091AY161061AY221061GA1081+006909069GF108991999071008001021999KA1120N+00391MD1210081+9999MW1611REMSYN088AAXX  21061 28334 11570 83602 10065 20044 40045 52008 60022 76162 8872/ 333 20039 88723;EQDQ01+000082SCOTLC
0185283340999992000052109004+57350+058220FM-12+024499999V0203401N002010069019N0200001N1+01021+00731100351ADDAY161031AY221031GA1081+006909069GF108991999071008001021999MD1810061+9999MW1611REMSYN076AAXX  21091 28334 41570 83402 10102 20073 40035 58006 76162 8872/ 333 88723;EQDQ01+000082SCOTLC
0206283340999992000052112004+57350+058220FM-12+024499999V0203401N002010069019N0200001N1+00871+00731100621ADDAY161061AY221061GA1081+006909069GF108991999071008001021999MA1999999097701MD1310251+9999MW1611REMSYN082AAXX  21121 28334 41570 83402 10087 20073 39770 40062 53025 76162 8872/ 333 88723;EQDQ01+000082SCOTLC
0204283340999992000052115004+57350+058220FM-12+024499999V0200201N002010069019N0200001N1+00781+00621100751ADDAY161031AY251031GA1081+006909069GF108991999071008001021999KA1120M+01031MD1210121+9999MW1511REMSYN082AAXX  21151 28334 /1570 80202 10078 20062 40075 52012 75165 8872/ 333 10103 88723;EQDQ01+000082SCOTLC
0202283340999992000052118004+57350+058220FM-12+024499999V0209999C000010069019N0500001N1+00691+00561100911ADDAA112006191AY161061AY221061GA1081+006909069GF108991081071008001999999KA1120M+01031MD1210141+9999MW1021REMSYN088AAXX  21181 28334 11584 80000 10069 20056 40091 52014 60062 70262 887// 333 10103 88723;
0138283340999992000052121004+57350+058220FM-12+024499999V0209999C000010069019N0500001N1+00581+00491101041ADDGA1081+006909069GF108991081071008001999999MD1210121+9999REMSYN070AAXX  21211 28334 42584 80000 10058 20049 40104 52012 887// 333 88723;
0159283340999992000052200004+57350+058220FM-12+024499999V0209999C000010060019N0500001N1+00461+00361101151ADDGA1081+006009069GF108991081071008001999999MA1999999098171MD1210091+9999REMSYN076AAXX  22001 28334 42599 80000 10046 20036 39817 40115 52009 887// 333 88720;
0157283340999992000052203004+57350+058220FM-12+024499999V0209999C000010069019N0500001N1+00651+00541101321ADDGA1081+006909069GF108991999071008001021999MD1210191+9999REMSYN070AAXX  22031 28334 /2599 80000 10065 20054 40132 52019 8872/ 333 88723;EQDQ01+000082SCOTLC
0174283340999992000052206004+57350+058220FM-12+024499999V0200501N002010069019N0500001N1+01071+00581101491ADDAA112000391GA1061+006909099GF106991061031008001001001KA1120N+00461MD1210211+9999REMSYN082AAXX  22061 28334 12599 60502 10107 20058 40149 52021 69932 86300 333 20046 86923;
0138283340999992000052209004+57350+058220FM-12+024499999V0200901N002010069019N0500001N1+01331+00561101571ADDGA1061+006909099GF106991061031008001001001MD1210101+9999REMSYN070AAXX  22091 28334 42599 60902 10133 20056 40157 52010 86300 333 86923;
0159283340999992000052212004+57350+058220FM-12+024499999V0200201N002010069019N0500001N1+01611+00231101561ADDGA1051+006909029GF106991051021008001001011MA1999999098691MD1210021+9999REMSYN076AAXX  22121 28334 42599 60202 10161 20023 39869 40156 52002 85201 333 85823;
0165283340999992000052215004+57350+058220FM-12+024499999V0200501N002019999999N0500001N1+01551-00071101601ADDAA199000091GF107991021001999999041011KA1999M+01731MD1210031+9999REMSYN070AAXX  22151 28334 32999 70502 10155 21007 40160 52003 82041 333 10173;EQDQ01  00002PRCP99
0168283340999992000052218004+57350+058220FM-12+024499999V0209999C000019999999N0500001N1+00921+00111101831ADDAA199000021AY131061AY201061GF105991999999999999999999KA1999M+01731MD1210161+9999MW1501REMSYN070AAXX  22181 28334 32984 50000 10092 20011 40183 52016 75030 333 10173;
0122283340999992000052221004+57350+058220FM-12+024499999V0209999C000012200019N0500001N1+00631+00101101861ADDGA1001+999999999GF100991001001999999001001MD1410001+9999REMSYN054AAXX  22211 28334 42984 00000 10063 20010 40186 54000;
0133283340999992000052300004+57350+058220FM-12+024499999V0209999C000012200019N0500001N1+00391+00111102191ADDGF103991031001999999031001MA1999999099171MD1810291+9999REMSYN066AAXX  23001 28334 42984 30000 10039 20011 39917 40219 58029 83030;
0133283340999992000052303004+57350+058220FM-12+024499999V0209999C000012200019N0500001N1+00761+00341102131ADDAA199000021GA1001+999999999GF100991001001999999001001MD1710021+9999REMSYN054AAXX  23031 28334 32999 00000 10076 20034 40213 57002;
0146283340999992000052306004+57350+058220FM-12+024499999V0200501N002012200019N0500001N1+01811+00381101961ADDAA199000021GF103991021021008001041001KA1999N+00391MD1710051+9999REMSYN070AAXX  23061 28334 32599 30502 10181 20038 40196 57005 82240 333 20039;
0138283340999992000052309004+57350+058220FM-12+024499999V0200501N002010069019N0500001N1+02001+00901101871ADDGA1061+006909099GF106991061031008001001001MD1710071+9999REMSYN070AAXX  23091 28334 42599 60502 10200 20090 40187 57007 86300 333 86923;
0159283340999992000052312004+57350+058220FM-12+024499999V0209999C000010069019N0500001N1+02061+01001101801ADDGA1051+006909099GF106991051031008001031001MA1999999098971MD1710061+9999REMSYN076AAXX  23121 28334 42599 60000 10206 20100 39897 40180 57006 85330 333 85923;
0165283340999992000052315004+57350+058220FM-12+024499999V0209999C000010300019N0500001N1+01991+01051101741ADDAA199000091GF106991031031008001031001KA1999M+02081MD1710071+9999REMSYN070AAXX  23151 28334 32599 60000 10199 20105 40174 57007 83330 333 10208;EQDQ01  00002PRCP99
0165283340999992000052318004+57350+058220FM-12+024499999V0209999C000019999999N0500001N1+01311+00561101851ADDAA199000091GF106991061001999999081001KA1999M+02081MD1310041+9999REMSYN070AAXX  23181 28334 32984 60000 10131 20056 40185 53004 86080 333 10208;EQDQ01  00002PRCP99
0112283340999992000052321004+57350+058220FM-12+024499999V0209999C000019999999N0500001N1+01001+00551101921ADDGF106991061001999999081001MD1210041+9999REMSYN060AAXX  23211 28334 42984 60000 10100 20055 40192 52004 86080;
0161283340999992000052400004+57350+058220FM-12+024499999V0209999C000019999999N0060001N1+00721+00321101991ADDAY121061AY221061GF106991061001999999041001MA1999999099021MD1210041+9999MW1101REMSYN072AAXX  24001 28334 41956 60000 10072 20032 39902 40199 52004 71022 86040;
0170283340999992000052403004+57350+058220FM-12+024499999V0209999C000012200019N0060001N1+01321+00881101931ADDAA199000091AY111031AY211031GF103991031001999999041001MD1410001+9999MW1101REMSYN066AAXX  24031 28334 31956 30000 10132 20088 40193 54000 71011 83040;EQDQ01  00002PRCP99
0165283340999992000052406004+57350+058220FM-12+024499999V0209999C000012200019N0500001N1+02131+01071101811ADDAA199000091GF103991001001999999001021KA1999N+00721MD1810031+9999REMSYN070AAXX  24061 28334 32999 30000 10213 20107 40181 58003 80002 333 20072;EQDQ01  00002PRCP99
0112283340999992000052409004+57350+058220FM-12+024499999V0209999C000012200019N0500001N1+02231+00761101741ADDGF103991001001999999001021MD1710071+9999REMSYN060AAXX  24091 28334 42999 30000 10223 20076 40174 57007 80002;
0154283340999992000052412004+57350+058220FM-12+024499999V0209999C000019999999N0500001N1+02421+00761101661ADDAY101061AY261061GF105991001001999999001021MA1999999098861REMSYN066AAXX  24121 28334 42999 50000 10242 20076 39886 40166 77006 80002;EQDQ01+000702PRSWM1
0165283340999992000052415004+57350+058220FM-12+024499999V0209999C000012200019N0500001N1+02211+00771101641ADDAA199000091GF101991001001999999001021KA1999M+02431MD1710031+9999REMSYN070AAXX  24151 28334 32999 10000 10221 20077 40164 57003 80002 333 10243;EQDQ01  00002PRCP99
0175283340999992000052418004+57350+058220FM-12+024499999V0209999C000012200019N0500001N1+01471+00811101761ADDAA199000091GA1001+999999999GF100991001001999999001001KA1999M+02431MD1310041+9999REMSYN064AAXX  24181 28334 32984 00000 10147 20081 40176 53004 333 10243;EQDQ01  00002PRCP99
0122283340999992000052421004+57350+058220FM-12+024499999V0209999C000012200019N0500001N1+01071+00641101821ADDGA1001+999999999GF100991001001999999001001MD1210021+9999REMSYN054AAXX  24211 28334 42984 00000 10107 20064 40182 52002;
0143283340999992000052500004+57350+058220FM-12+024499999V0209999C000012200019N0500001N1+00841+00481101851ADDGA1001+999999999GF100991001001999999001001MA1999999098891MD1410001+9999REMSYN060AAXX  25001 28334 42999 00000 10084 20048 39889 40185 54000;
0152283340999992000052503004+57350+058220FM-12+024499999V0209999C000012200019N0500001N1+01001+00611101811ADDAA199000091GA1001+999999999GF100991001001999999001001MD1810021+9999REMSYN054AAXX  25031 28334 32999 00000 10100 20061 40181 58002;EQDQ01  00002PRCP99
0165283340999992000052506004+57350+058220FM-12+024499999V0201801N002012200019N0500001N1+02322+00921101541ADDAA199000091GF103991031021008001001001KA1999N+00841MD1710121+9999REMSYN070AAXX  25061 28334 32599 31802 10232 20092 40154 57012 83200 333 20084;EQDQ01  00002PRCP99
0138283340999992000052509004+57350+058220FM-12+024499999V0202001N004010069019N0500001N1+02251+00701101481ADDGA1061+006909029GF107991061021008001001081MD1710071+9999REMSYN070AAXX  25091 28334 42599 72004 10225 20070 40148 57007 86208 333 86823;
0159283340999992000052512004+57350+058220FM-12+024499999V0202301N002010069019N0500001N1+02311+00431101351ADDGA1061+006909029GF107991061021008001001011MA1999999098551MD1710131+9999REMSYN076AAXX  25121 28334 42599 72302 10231 20043 39855 40135 57013 86201 333 86823;
0165283340999992000052515004+57350+058220FM-12+024499999V0202301N002010300019N0500001N1+01971+00301101331ADDAA199000091GF107991031041008001071001KA1999M+02451MD1710041+9999REMSYN070AAXX  25151 28334 32599 72302 10197 20030 40133 57004 83470 333 10245;EQDQ01  00002PRCP99
0165283340999992000052518004+57350+058220FM-12+024499999V0209999C000012200019N0500001N1+01521+00151101381ADDAA199000091GF104991011021008001081011KA1999M+02451MD1410001+9999REMSYN070AAXX  25181 28334 32584 40000 10152 20015 40138 54000 81281 333 10245;EQDQ01  00002PRCP99
0112283340999992000052521004+57350+058220FM-12+024499999V0209999C000010300019N0500001N1+01151+00061101371ADDGF107991031081008001081001MD1810051+9999REMSYN060AAXX  25211 28334 42584 70000 10115 20006 40137 58005 83880;
0133283340999992000052600004+57350+058220FM-12+024499999V0209999C000010300019N0500001N1+00971+00021101351ADDGF107991031081008001081001MA1999999098421MD1710041+9999REMSYN066AAXX  26001 28334 42599 70000 10097 20002 39842 40135 57004 83880;
0142283340999992000052603004+57350+058220FM-12+024499999V0209999C000010300019N0500001N1+01431+00271101301ADDAA199000091GF105991021031008001081001MD1410001+9999REMSYN060AAXX  26031 28334 32599 50000 10143 20027 40130 54000 82380;EQDQ01  00002PRCP99
0187283340999992000052606004+57350+058220FM-12+024499999V0202301N002010069019N0500001N1+01941+00771101141ADDAA199000091GA1061+006909099GF106991061031008001001001KA1120N+00971MD1810101+9999REMSYN076AAXX  26061 28334 32599 62302 10194 20077 40114 58010 86300 333 20097 86923;EQDQ01  00002PRCP99
0166283340999992000052609004+57350+058220FM-12+024499999V0202301N002010069019N0500001N1+02211+00701100981ADDAY181031AY221031GA1061+006909029GF106991061031008001061001MD1710141+9999MW1021REMSYN076AAXX  26091 28334 41599 62302 10221 20070 40098 57014 70282 86360 333 86823;
0187283340999992000052612004+57350+058220FM-12+024499999V0202701N002010069019N0500001N1+02181+01101100931ADDAY181061AY221061GA1061+006909029GF106991061031008001061021MA1999999098131MD1710051+9999MW1021REMSYN082AAXX  26121 28334 41599 62702 10218 20110 39813 40093 57005 70282 86362 333 86823;
0157283340999992000052615004+57350+058220FM-12+024499999V0202701N002010069019N0500001N1+01811+01031100931ADDGA1061+006909029GF106991061031008001061001KA1120M+02251MD1710021+9999REMSYN076AAXX  26151 28334 /2599 62702 10181 20103 40093 57002 86360 333 10225 86823;
0152283340999992000052618004+57350+058220FM-12+024499999V0202701N002019999999N0500001N1+01531+00861100971ADDAA112000791GF105991051001999999071001KA1999M+02251MD1310011+9999REMSYN076AAXX  26181 28334 12984 52702 10153 20086 40097 53001 69902 85070 333 10225;
0122283340999992000052621004+57350+058220FM-12+024499999V0209999C000012200019N0500001N1+01021+00461101021ADDGA1001+999999999GF100991001001999999001001MD1810021+9999REMSYN054AAXX  26211 28334 42984 00000 10102 20046 40102 58002;
0161283340999992000052700004+57350+058220FM-12+024499999V0209999C000012200019N0500001N1+00811+00321101051ADDAY101061AY201061GF102991021001999999041001MA1999999098111MD1310011+9999MW1101REMSYN072AAXX  27001 28334 41999 20000 10081 20032 39811 40105 53001 71000 82040;
0152283340999992000052703004+57350+058220FM-12+024499999V0209999C000012200019N0500001N1+01361+00971100971ADDAA199000091GA1001+999999999GF100991001001999999001001MD1810011+9999REMSYN054AAXX  27031 28334 32999 00000 10136 20097 40097 58001;EQDQ01  00002PRCP99
0174283340999992000052706004+57350+058220FM-12+024499999V0203401N002010750019N0500001N1+01851+00731999999ADDAA199000091GF105991031021008001001021KA1999N+00811MD1710021+9999ME1100099REMSYN070AAXX  27061 28334 32599 53402 10185 20073 41009 57002 83202 333 20081;EQDQ01  00002PRCP99
0112283340999992000052709004+57350+058220FM-12+024499999V0203401N002010750019N0500001N1+02091+00891100821ADDGF105991031021008001001021MD1710071+9999REMSYN060AAXX  27091 28334 42599 53402 10209 20089 40082 57007 83202;
0152283340999992000052712004+57350+058220FM-12+024499999V0203401N999992200019N0500001N1+02141+00831100861ADDGF106991031021008001001061MA1999999098971MD1810051+9999REMSYN066AAXX  27121 28334 42599 63474 10214 20083 39897 40086 58005 83206;EQDQ01+007403WOSPD 
0165283340999992000052715004+57350+058220FM-12+024499999V0203401N002012200019N0500001N1+02151+00641100781ADDAA199000091GF102991001001999999001021KA1999M+02191MD1310021+9999REMSYN070AAXX  27151 28334 32999 23402 10215 20064 40078 53002 80002 333 10219;EQDQ01  00002PRCP99
0165283340999992000052718004+57350+058220FM-12+024499999V0209999C000019999999N0500001N1+01741+00701100851ADDAA199000091GF105991051001999999041001KA1999M+02191MD1210041+9999REMSYN070AAXX  27181 28334 32984 50000 10174 20070 40085 52004 85040 333 10219;EQDQ01  00002PRCP99
0112283340999992000052721004+57350+058220FM-12+024499999V0209999C000019999999N0500001N1+01231+00681100911ADDGF105991051001999999041001MD1410001+9999REMSYN060AAXX  27211 28334 42984 50000 10123 20068 40091 54000 85040;
0159283340999992000052800004+57350+058220FM-12+024499999V0209999C000010060019N0500001N1+00991+00581100891ADDGA1081+006009059GF108991081051008001999999MA1999999097971MD1810051+9999REMSYN076AAXX  28001 28334 42599 80000 10099 20058 39797 40089 58005 885// 333 88620;
0142283340999992000052803004+57350+058220FM-12+024499999V0209999C000010075019N0500001N1+01241+00731100781ADDAA199000091GF106991061051008001041011MD1710071+9999REMSYN060AAXX  28031 28334 32599 60000 10124 20073 40078 57007 86541;EQDQ01  00002PRCP99
0187283340999992000052809004+57350+058220FM-12+024499999V0202701N006010069019N0500001N1+01971+01101100191ADDAY191031AY281031GA1061+006909029GF106991061031008001061001MA1999999097391MD1710211+9999MW1291REMSYN082AAXX  28091 28334 41599 62706 10197 20110 39739 40019 57021 72998 86360 333 86823;
0157283340999992000052815004+57350+058220FM-12+024499999V0203201N004010069019N0500001N1+01621+00861099431ADDGA1061+006909029GF106991061031008001061001KA1120M+02281MD1310201+9999REMSYN076AAXX  28151 28334 /2599 63204 10162 20086 49943 53020 86360 333 10228 86823;
0147283340999992000052821004+57350+058220FM-12+024499999V0209999C000012200019N0500001N1+00931+00511100502ADDGF101991001001999999001021MD1810051+9999REMSYN060AAXX  28211 28334 42584 10000 10093 20051 40050 58005 80002;EQDQ01+008002SCOLCBQ02+100503APOSLP
0133283340999992000052900004+57350+058220FM-12+024499999V0203201N002012200019N0500001N1+00911+00561100491ADDGF103991031011008001001001MA1999999097581MD1710011+9999REMSYN066AAXX  29001 28334 42599 33202 10091 20056 39758 40049 57001 83100;
0142283340999992000052903004+57350+058220FM-12+024499999V0203201N002019999999N0500001N1+00881+00401100531ADDAA199000091GF108991081001999999021999MD1310041+9999REMSYN060AAXX  29031 28334 32999 83202 10088 20040 40053 53004 8802/;EQDQ01  00002PRCP99
0203283340999992000052906004+57350+058220FM-12+024499999V0203201N004010060019N0500001N1+01141+00621100551ADDAA199000091GA1081+006009029GF108991999071008001021999KA1120N+00871MD1210041+9999REMSYN076AAXX  29061 28334 32599 83204 10114 20062 40055 52004 8872/ 333 20087 88820;EQDQ01+000082SCOTLCQ02  00002PRCP99
0166283340999992000052909004+57350+058220FM-12+024499999V0203401N004010060019N0500001N1+01391+00381100641ADDAY181031AY221031GA1051+006009099GF107991051031008001041011MD1210111+9999MW1251REMSYN076AAXX  29091 28334 41599 73404 10139 20038 40064 52011 72582 85341 333 85920;
0187283340999992000052912004+57350+058220FM-12+024499999V0203401N004010300019N0500001N1+01791+00061100671ADDAY181061AY221061GA1041+006009099GF106991041031008001041011MA1999999097841MD1210071+9999MW1011REMSYN082AAXX  29121 28334 41599 63404 10179 20006 39784 40067 52007 70182 84341 333 84920;
0157283340999992000052915004+57350+058220FM-12+024499999V0203401N002010300019N0500001N1+01791+00111100791ADDGA1041+006009029GF106991041021008001061011KA1120M+01921MD1210121+9999REMSYN076AAXX  29151 28334 /2599 63402 10179 20011 40079 52012 84261 333 10192 84820;
0202283340999992000052918004+57350+058220FM-12+024499999V0203401N004012200019N0500001N1+01591+00191100941ADDAA112000791AY181061AY221061GA1021+006009099GF104991021031008001061011KA1120M+01921MD1210131+9999MW1801REMSYN088AAXX  29181 28334 11584 43404 10159 20019 40094 52013 69902 78082 82361 333 10192 82920;
0112283340999992000052921004+57350+058220FM-12+024499999V0203601N002012200019N0500001N1+01321+00231101061ADDGF102991021021008001041001MD1210091+9999REMSYN060AAXX  29211 28334 42584 23602 10132 20023 40106 52009 82240;
0133283340999992000053000004+57350+058220FM-12+024499999V0209999C000012200019N0500001N1+00961+00251101241ADDGF102991001001999999001021MA1999999098311MD1210131+9999REMSYN066AAXX  30001 28334 42999 20000 10096 20025 39831 40124 52013 80002;
0112283340999992000053003004+57350+058220FM-12+024499999V0203601N002019999999N0500001N1+01291+00251101281ADDGF105991021001999999031071MD1210081+9999REMSYN060AAXX  30031 28334 /2999 53602 10129 20025 40128 52008 82037;
0152283340999992000053006004+57350+058220FM-12+024499999V0203601N004012200019N0500001N1+01551+00461101271ADDAA112000791GF101991001001999999001011KA1999N+00961MD1210021+9999REMSYN076AAXX  30061 28334 12999 13604 10155 20046 40127 52002 69902 80001 333 20096;
0112283340999992000053009004+57350+058220FM-12+024499999V02099999999992200019N0500001N1+99999+99999101251ADDGF101991001001999999001011MD1210011+9999REMSYN060AAXX  30091 28334 42999 130// 13604 20050 40125 52001 80001;
0133283340999992000053012004+57350+058220FM-12+024499999V0203601N004012200019N0500001N1+02131+00551101171ADDGF103991001001999999001011MA1999999098361MD1810061+9999REMSYN066AAXX  30121 28334 42999 33604 10213 20055 39836 40117 58006 80001;
0165283340999992000053015004+57350+058220FM-12+024499999V0203601N002019999999N0500001N1+02061+00131101161ADDAA199000091GF105991021001999999041011KA1999M+02201MD1710021+9999REMSYN070AAXX  30151 28334 32999 53602 10206 20013 40116 57002 82041 333 10220;EQDQ01  00002PRCP99
0165283340999992000053018004+57350+058220FM-12+024499999V0209999C000012200019N0500001N1+01371+00411101361ADDAA199000091GF102991001001999999001011KA1999M+02201MD1310141+9999REMSYN070AAXX  30181 28334 32984 20000 10137 20041 40136 53014 80001 333 10220;EQDQ01  00002PRCP99
0112283340999992000053021004+57350+058220FM-12+024499999V0209999C000012200019N0500001N1+00671+00031101481ADDGF102991001001999999001011MD1210031+9999REMSYN060AAXX  30211 28334 42984 20000 10067 20003 40148 52003 80001;
0133283340999992000053100004+57350+058220FM-12+024499999V0209999C000019999999N0500001N1+00361+00011101701ADDGF105991001001999999001011MA1999999098691MD1210181+9999REMSYN066AAXX  31001 28334 42999 50000 10036 20001 39869 40170 52018 80001;
0142283340999992000053103004+57350+058220FM-12+024499999V0209999C000012200019N0500001N1+01121+00211101701ADDAA199000091GF104991001001999999001051MD1210091+9999REMSYN060AAXX  31031 28334 32999 40000 10112 20021 40170 52009 80005;EQDQ01  00002PRCP99
0165283340999992000053106004+57350+058220FM-12+024499999V0209999C000012200019N0500001N1+01711+00531101611ADDAA199000091GF103991001001999999001011KA1999N+00331MD1810031+9999REMSYN070AAXX  31061 28334 32999 30000 10171 20053 40161 58003 80001 333 20033;EQDQ01  00002PRCP99
0112283340999992000053109004+57350+058220FM-12+024499999V0200201N002019999999N0500001N1+02011+00461101501ADDGF106991001001999999001011MD1710081+9999REMSYN060AAXX  31091 28334 42999 60202 10201 20046 40150 57008 80001;
0133283340999992000053112004+57350+058220FM-12+024499999V0200201N002019999999N0500001N1+02131+00431101451ADDGF105991001001999999001011MA1999999098631MD1710041+9999REMSYN066AAXX  31121 28334 42999 50202 10213 20043 39863 40145 57004 80001;
0175283340999992000053115004+57350+058220FM-12+024499999V0209999C000012200019N0500001N1+02101+00341101401ADDAA199000091GA1001+999999999GF100991001001999999001001KA1999M+02171MD1710051+9999REMSYN064AAXX  31151 28334 32999 00000 10210 20034 40140 57005 333 10217;EQDQ01  00002PRCP99
0175283340999992000053118004+57350+058220FM-12+024499999V0209999C000012200019N0500001N1+01481+00361101521ADDAA199000091GA1001+999999999GF100991001001999999001001KA1999M+02171MD1310061+9999REMSYN064AAXX  31181 28334 32984 00000 10148 20036 40152 53006 333 10217;EQDQ01  00002PRCP99
0122283340999992000053121004+57350+058220FM-12+024499999V0209999C000012200019N0500001N1+01171+00271101601ADDGA1001+999999999GF100991001001999999001001MD1210051+9999REMSYN054AAXX  31211 28334 42984 00000 10117 20027 40160 52005;
0143283340999992000060100004+57350+058220FM-12+024499999V0209999C000012200019N0500001N1+00541+00021101781ADDGA1001+999999999GF100991001001999999001001MA1999999098791MD1210101+9999REMSYN060AAXX  01001 28334 42999 00000 10054 20002 39879 40178 52010;
0142283340999992000060103004+57350+058220FM-12+024499999V0209999C000012200019N0500001N1+01081+00191101751ADDAA199000091GF101991011001999999041001MD1210041+9999REMSYN060AAXX  01031 28334 32999 10000 10108 20019 40175 52004 81040;EQDQ01  00002PRCP99
0193283340999992000060106004+57350+058220FM-12+024499999V0209999C000010300019N0500001N1+01841+01131101711ADDAA199000091AY181061AY221061GF107991021031008001051001KA1999N+00541MD1210031+9999MW1031REMSYN076AAXX  01061 28334 31599 70000 10184 20113 40171 52003 70382 82350 333 20054;EQDQ01  00002PRCP99
0112283340999992000060109004+57350+058220FM-12+024499999V0203201N002012200019N0500001N1+02121+00991101591ADDGF104991041001999999031001MD1810081+9999REMSYN060AAXX  01091 28334 42999 43202 10212 20099 40159 58008 84030;
0133283340999992000060112004+57350+058220FM-12+024499999V0203201N002012200019N0500001N1+02261+01021101511ADDGF104991041001999999041001MA1999999098711MD1710071+9999REMSYN066AAXX  01121 28334 42999 43202 10226 20102 39871 40151 57007 84040;
0165283340999992000060115004+57350+058220FM-12+024499999V0202901N002019999999N0500001N1+02251+00921101511ADDAA199000091GF105991051001999999041001KA1999M+02301MD1410001+9999REMSYN070AAXX  01151 28334 32999 52902 10225 20092 40151 54000 85040 333 10230;EQDQ01  00002PRCP99
0165283340999992000060118004+57350+058220FM-12+024499999V0209999C000012200019N0500001N1+01641+00771101641ADDAA199000091GF102991021001999999041001KA1999M+02301MD1210071+9999REMSYN070AAXX  01181 28334 32984 20000 10164 20077 40164 52007 82040 333 10230;EQDQ01  00002PRCP99
0112283340999992000060121004+57350+058220FM-12+024499999V0209999C000012200019N0500001N1+01111+00401101821ADDGF103991031001999999041001MD1210111+9999REMSYN060AAXX  01211 28334 42984 30000 10111 20040 40182 52011 83040;
0161283340999992000060200004+57350+058220FM-12+024499999V0209999C000010300019N0500001N1+00661+00021101931ADDAY191061AY221061GF105991021031008001031001MA1999999098951MD1210061+9999MW1171REMSYN072AAXX  02001 28334 41599 50000 10066 20002 39895 40193 52006 71792 82330;
0142283340999992000060203004+57350+058220FM-12+024499999V0209999C000012200019N0500001N1+01261+00581101861ADDAA199000091GF102991001001999999001011MD1410001+9999REMSYN060AAXX  02031 28334 32999 20000 10126 20058 40186 54000 80001;EQDQ01  00002PRCP99
0165283340999992000060206004+57350+058220FM-12+024499999V0203201N002012200019N0500001N1+02111+00401101781ADDAA199000091GF102991001001999999001011KA1999N+00661MD1410001+9999REMSYN070AAXX  02061 28334 32999 23202 10211 20040 40178 54000 80001 333 20066;EQDQ01  00002PRCP99
0142283340999992000060209004+57350+058220FM-12+024499999V0209999C000012200019N0500001N1+02481+00341101611ADDAA199000091GF102991001001999999001091MD1810121+9999REMSYN060AAXX  02091 28334 32999 20000 10248 20034 40161 58012 80009;EQDQ01  00002PRCP99
0133283340999992000060212004+57350+058220FM-12+024499999V0203401N002012200019N0500001N1+02661+00251101521ADDGF102991011021008001001091MA1999999098741MD1710091+9999REMSYN066AAXX  02121 28334 42599 23402 10266 20025 39874 40152 57009 81209;
0165283340999992000060215004+57350+058220FM-12+024499999V0202901N002012200019N0500001N1+02561+00321101451ADDAA199000091GF102991001001999999001091KA1999M+02701MD1710071+9999REMSYN070AAXX  02151 28334 32999 22902 10256 20032 40145 57007 80009 333 10270;EQDQ01  00002PRCP99
0175283340999992000060218004+57350+058220FM-12+024499999V0209999C000012200019N0500001N1+02021+00511101441ADDAA199000091GA1001+999999999GF100991001001999999001001KA1999M+02701MD1710061+9999REMSYN064AAXX  02181 28334 32984 00000 10202 20051 40144 57006 333 10270;EQDQ01  00002PRCP99
0112283340999992000060221004+57350+058220FM-12+024499999V0209999C000012200019N0500001N1+01501+01111101411ADDGF101991011001999999041001MD1710071+9999REMSYN060AAXX  02211 28334 42984 10000 10150 20111 40141 57007 81040;
0133283340999992000060300004+57350+058220FM-12+024499999V0209999C000012200019N0500001N1+01531+01101101351ADDGF102991021001999999081001MA1999999098491MD1710051+9999REMSYN066AAXX  03001 28334 42999 20000 10153 20110 39849 40135 57005 82080;
0152283340999992000060303004+57350+058220FM-12+024499999V0209999C000012200019N0500001N1+01951+01311101271ADDAA199000091GA1001+999999999GF100991001001999999001001MD1710041+9999REMSYN054AAXX  03031 28334 32999 00000 10195 20131 40127 57004;EQDQ01  00002PRCP99
0187283340999992000060306004+57350+058220FM-12+024499999V0202001N002012200019N0500001N1+02161+00531101161ADDAA199000091GA1021+006909099GF102991021031008001001001KA1120N+01391MD1710091+9999REMSYN076AAXX  03061 28334 32599 22002 10216 20053 40116 57009 82300 333 20139 82923;EQDQ01  00002PRCP99
0138283340999992000060309004+57350+058220FM-12+024499999V0202001N002010069019N0500001N1+02641+00231101041ADDGA1051+006909099GF105991051031008001001001MD1710091+9999REMSYN070AAXX  03091 28334 42599 52002 10264 20023 40104 57009 85300 333 85923;
0187283340999992000060312004+57350+058220FM-12+024499999V0202301N002010069019N0500001N1+02341+00451101061ADDAY191061AY281061GA1061+006909099GF106991061031008001001001MA1999999098271MD1410001+9999MW1171REMSYN082AAXX  03121 28334 41599 62302 10234 20045 39827 40106 54000 71798 86300 333 86923;
0185283340999992000060315004+57350+058220FM-12+024499999V0202301N002010069019N0500001N1+02411+00651100951ADDAY191031AY281031GA1071+006909099GF107991071031008001001001KA1120M+02641MD1810101+9999MW1171REMSYN082AAXX  03151 28334 /1599 72302 10241 20065 40095 58010 71798 87300 333 10264 87923;
0180283340999992000060318004+57350+058220FM-12+024499999V0202301N002012200019N0500001N1+01561+00361101151ADDAA112000791AY191061AY281061GF102991021021008001001021KA1999M+02641MD1310121+9999MW1291REMSYN082AAXX  03181 28334 11584 22302 10156 20036 40115 53012 69902 72998 82202 333 10264;
0138283340999992000060321004+57350+058220FM-12+024499999V0202301N002010060019N0500001N1+01591+01031101151ADDGA1071+006009099GF107991071031008001001001MD1410001+9999REMSYN070AAXX  03211 28334 42584 72302 10159 20103 40115 54000 87300 333 87920;
0133283340999992000060400004+57350+058220FM-12+024499999V0209999C000012200019N0500001N1+01531+01041101221ADDGF103991031001999999081001MA1999999098361MD1310071+9999REMSYN066AAXX  04001 28334 42999 30000 10153 20104 39836 40122 53007 83080;
0142283340999992000060403004+57350+058220FM-12+024499999V0202901N002012200019N0500001N1+01541+00981101291ADDAA199000091GF103991001001999999001081MD1210071+9999REMSYN060AAXX  04031 28334 32999 32902 10154 20098 40129 52007 80008;EQDQ01  00002PRCP99
0135283340999992000060406004+57350+058220FM-12+024499999V0200201N004012200019N0500001N1+01691+00291101291ADDGF103991031011008001001001KA1999N+01531MD1210011+9999REMSYN070AAXX  04061 28334 42599 30204 10169 20029 40129 52001 83100 333 20153;
0138283340999992000060409004+57350+058220FM-12+024499999V0203401N004010060019N0500001N1+01951+00381101241ADDGA1051+006009029GF105991051011008001001001MD1810031+9999REMSYN070AAXX  04091 28334 42599 53404 10195 20038 40124 58003 85100 333 85820;
0133283340999992000060412004+57350+058220FM-12+024499999V0202701N002010750019N0500001N1+02091+00411101121ADDGF105991031011008001001021MA1999999098311MD1710101+9999REMSYN066AAXX  04121 28334 42599 52702 10209 20041 39831 40112 57010 83102;
0165283340999992000060415004+57350+058220FM-12+024499999V0209999C000019999999N0500001N1+01971+00341101041ADDAA199000091GF106991001001999999001081KA1999M+02151MD1710091+9999REMSYN070AAXX  04151 28334 32999 60000 10197 20034 40104 57009 80008 333 10215;EQDQ01  00002PRCP99
0165283340999992000060418004+57350+058220FM-12+024499999V0209999C000019999999N0500001N1+01531+00701101071ADDAA199000091GF107991001001999999001081KA1999M+02151MD1710011+9999REMSYN070AAXX  04181 28334 32984 70000 10153 20070 40107 57001 80008 333 10215;EQDQ01  00002PRCP99
0112283340999992000060421004+57350+058220FM-12+024499999V0209999C000019999999N0500001N1+01071+00461101081ADDGF107991071001999999051001MD1710041+9999REMSYN060AAXX  04211 28334 42984 70000 10107 20046 40108 57004 87050;
0133283340999992000060500004+57350+058220FM-12+024499999V0209999C000019999999N0500001N1+00881+00401101021ADDGF107991071001999999051001MA1999999098091MD1710081+9999REMSYN066AAXX  05001 28334 42999 70000 10088 20040 39809 40102 57008 87050;
0142283340999992000060503004+57350+058220FM-12+024499999V0209999C000019999999N0500001N1+01291+00761100831ADDAA199000091GF105991001001999999001021MD1710141+9999REMSYN060AAXX  05031 28334 32999 50000 10129 20076 40083 57014 80002;EQDQ01  00002PRCP99
0187283340999992000060506004+57350+058220FM-12+024499999V0202301N002010069019N0500001N1+01991+00461100561ADDAA199000091GA1061+006909029GF106991061031008001061021KA1120N+00881MD1710201+9999REMSYN076AAXX  05061 28334 32599 62302 10199 20046 40056 57020 86362 333 20088 86823;EQDQ01  00002PRCP99
0166283340999992000060509004+57350+058220FM-12+024499999V0202301N002010060019N0200001N1+01921+00561100431ADDAY161031AY221031GA1081+006009029GF108991081001008001021999MD1710131+9999MW1611REMSYN076AAXX  05091 28334 41570 82302 10192 20056 40043 57013 76162 8802/ 333 88520;
0161283340999992000060512004+57350+058220FM-12+024499999V0202301N002012200019N0500001N1+01671+00501100431ADDAY161061AY211061GF102991021031008001001031MA1999999097601MD1710021+9999MW1211REMSYN072AAXX  05121 28334 41599 22302 10167 20050 39760 40043 57002 72161 82303;
0163283340999992000060515004+57350+058220FM-12+024499999V0202301N002012200019N0500001N1+01701+00621100431ADDAY161031AY201031GF102991021021008001081011KA1999M+02001MD1410001+9999MW1021REMSYN076AAXX  05151 28334 /1599 22302 10170 20062 40043 54000 70260 82281 333 10200;
0180283340999992000060518004+57350+058220FM-12+024499999V0209999C000010750019N0500001N1+01441+00731100511ADDAA112001091AY161061AY211061GF105991031021008001001021KA1999M+02001MD1310051+9999MW1031REMSYN082AAXX  05181 28334 11584 50000 10144 20073 40051 53005 60012 70361 83202 333 10200;
0166283340999992000060521004+57350+058220FM-12+024499999V0209999C000010069019N0005001N1+01111+00861100551ADDAY141031AY221031GA1051+006909029GF106991051031008001061021MD1410001+9999MW1461REMSYN076AAXX  05211 28334 41505 60000 10111 20086 40055 54000 74642 85362 333 85823;
0161283340999992000060600004+57350+058220FM-12+024499999V0209999C000012200019N0060001N1+00831+00561100481ADDAY141061AY211061GF103991021021008001001021MA1999999097561MD1810091+9999MW1281REMSYN072AAXX  06001 28334 41556 30000 10083 20056 39756 40048 58009 72841 82202;
0142283340999992000060603004+57350+058220FM-12+024499999V0202301N002012200019N0500001N1-00181+99999100391ADDAA199000091GF103991021031008001041011MD1710051+9999REMSYN060AAXX  06031 28334 32599 32302 11018 20084 40039 57005 82341;EQDQ01  00002PRCP99
0193283340999992000060606004+57350+058220FM-12+024499999V0202501N002010300019N0500001N1+01341+01051100331ADDAA199000091AY161061AY251061GF106991021011008001081001KA1999N+00831MD1710041+9999MW1031REMSYN076AAXX  06061 28334 31599 62502 10134 20105 40033 57004 70365 82180 333 20083;EQDQ01  00002PRCP99
0138283340999992000060609004+57350+058220FM-12+024499999V0202701N004010069019N0500001N1+01561+00711100231ADDGA1051+006909099GF106991051031008001001021MD1710081+9999REMSYN070AAXX  06091 28334 42599 62704 10156 20071 40023 57008 85302 333 85923;
0187283340999992000060612004+57350+058220FM-12+024499999V0203201N004010069019N0500001N1+01311+00611100321ADDAY191061AY281061GA1051+006909029GF106991051021008001061021MA1999999097451MD1310061+9999MW1021REMSYN082AAXX  06121 28334 41599 63204 10131 20061 39745 40032 53006 70298 85262 333 85823;
0157283340999992000060615004+57350+058220FM-12+024499999V0202701N004010300019N0500001N1+01411+00561100251ADDGA1041+006909099GF105991041031008001031021KA1120M+01601MD1810061+9999REMSYN076AAXX  06151 28334 /2599 52704 10141 20056 40025 58006 84332 333 10160 84923;
0202283340999992000060618004+57350+058220FM-12+024499999V0202701N004010069019N0060001N1+01031+00381100271ADDAA112000791AY191061AY281061GA1081+006909099GF108991081091008001999999KA1120M+01601MD1710021+9999MW1291REMSYN088AAXX  06181 28334 11556 82704 10103 20038 40027 57002 69902 72998 889// 333 10160 88923;
0140283340999992000060621004+57350+058220FM-12+024499999V0209999C000012200019N0020001N1+00611+00401100201ADDAY141031AY211031GF102991021001999999041001MD1710101+9999MW1461REMSYN066AAXX  06211 28334 41920 20000 10061 20040 40020 57010 74641 82040;
0171283340999992000060700004+57350+058220FM-12+024499999V0209999C000012200019N0020001N1+00381+00231100161ADDAY141061AY211061GA1001+999999999GF100991001001999999001001MA1999999097211MD1710061+9999MW1461REMSYN066AAXX  07001 28334 41920 00000 10038 20023 39721 40016 57006 74641;
0140283340999992000060703004+57350+058220FM-12+024499999V0209999C000012200019N0060001N1+00781+00701100121ADDAY141031AY211031GF102991021001999999041001MD1410001+9999MW1281REMSYN066AAXX  07031 28334 /1956 20000 10078 20070 40012 54000 72841 82040;
0202283340999992000060706004+57350+058220FM-12+024499999V0209999C000010750019N0500001N1+01441+00581100071ADDAA112003091AY141061AY211061GA1041+006009029GF106991041021008001001021KA1120N+00381MD1310011+9999MW1031REMSYN088AAXX  07061 28334 11599 60000 10144 20058 40007 53001 60032 70341 84202 333 20038 84820;
0138283340999992000060709004+57350+058220FM-12+024499999V0203201N004010060019N0500001N1+01541+00561100121ADDGA1061+006009029GF106991061021008001001001MD1210061+9999REMSYN070AAXX  07091 28334 42599 63204 10154 20056 40012 52006 86200 333 86820;
0172283340999992000060712004+57350+058220FM-12+024499999V0203201N004010060019N0500001N1+01511+00581100261ADDGA1071+006009029GF107991999999008001999999MA1999999097411MD1210141+9999REMSYN070AAXX  07121 28334 42599 73204 10151 20058 39741 40026 52413 333 87520;EQDQ01+004132APC3  
0185283340999992000060715004+57350+058220FM-12+024499999V0203201N004010060019N0200001N1+01011+00781100571ADDAY181031AY221031GA1081+006009099GF108991081031008001999999KA1120M+01571MD1210251+9999MW1801REMSYN082AAXX  07151 28334 /1570 83204 10101 20078 40057 52025 78082 883// 333 10157 88920;
0202283340999992000060718004+57350+058220FM-12+024499999V0203201N004010069019N0500001N1+01001+00841100751ADDAA112000891AY181061AY221061GA1051+006909099GF105991051031008001001001KA1120M+01571MD1210181+9999MW1011REMSYN088AAXX  07181 28334 11584 53204 10100 20084 40075 52018 69972 70182 85300 333 10157 85923;
0138283340999992000060721004+57350+058220FM-12+024499999V0203201N004010069019N0500001N1+00961+00801100871ADDGA1081+006909099GF108991081031008001999999MD1210111+9999REMSYN070AAXX  07211 28334 42584 83204 10096 20080 40087 52011 883// 333 88923;
0178283340999992000060800004+57350+058220FM-12+024499999V0202901N004010069019N0500001N1+00821+00621100991ADDGA1081+006909029GF108991999071008001021999MA1999999098051MD1210101+9999REMSYN076AAXX  08001 28334 42599 82904 10082 20062 39805 40099 52010 8872/ 333 88823;EQDQ01+000082SCOTLC
0138283340999992000060803004+57350+058220FM-12+024499999V0202901N004010069019N0500001N1+00831+00171101081ADDGA1051+006909029GF106991051021008001001031MD1210091+9999REMSYN070AAXX  08031 28334 /2599 62904 10083 20017 40108 52009 85203 333 85823;
0152283340999992000060806004+57350+058220FM-12+024499999V0202901N004010075019N0500001N1+01231+00211101081ADDAA112000391GF106991061021008001001001KA1999N+00821MD1210051+9999REMSYN076AAXX  08061 28334 12599 62904 10123 20021 40108 52005 69932 86200 333 20082;
0157283340999992000060809004+57350+058220FM-12+024499999V0203401N004010069019N0500001N1+01441+00061101141ADDGA1051+006909029GF106991999021008001001001MD1210071+9999REMSYN070AAXX  08091 28334 42599 63404 10144 20006 40114 52007 85200 333 85823;EQDQ01+000052SCOTLC
0159283340999992000060812004+57350+058220FM-12+024499999V0203401N004010069019N0500001N1+01561+00251101221ADDGA1051+006909029GF105991051021008001001001MA1999999098351MD1210091+9999REMSYN076AAXX  08121 28334 42599 53404 10156 20025 39835 40122 52009 85200 333 85823;
0187283340999992000060815004+57350+058220FM-12+024499999V0203401N002010069019N0500001N1+01501+00851101321ADDAA199000091GA1061+006909029GF106991061071008001021999KA1120M+01571MD1210101+9999REMSYN076AAXX  08151 28334 32599 63402 10150 20085 40132 52010 8672/ 333 10157 86823;EQDQ01  00002PRCP99
0165283340999992000060818004+57350+058220FM-12+024499999V0209999C000012200019N0500001N1+00811+00501101491ADDAA199000091GF102991021001999999041001KA1999M+01571MD1210091+9999REMSYN070AAXX  08181 28334 32984 20000 10081 20050 40149 52009 82040 333 10157;EQDQ01  00002PRCP99
0171283340999992000060900004+57350+058220FM-12+024499999V0209999C000012200019N0060001N1+00351+00201101831ADDAY101061AY201061GA1001+999999999GF100991001001999999001001MA1999999098821MD1210121+9999MW1101REMSYN066AAXX  09001 28334 41956 00000 10035 20020 39882 40183 52012 71000;
0142283340999992000060903004+57350+058220FM-12+024499999V0209999C000012200019N0500001N1+00891+00531101651ADDAA199000091GF102991001001999999001021MD1810111+9999REMSYN060AAXX  09031 28334 32999 20000 10089 20053 40165 58011 80002;EQDQ01  00002PRCP99
0165283340999992000060906004+57350+058220FM-12+024499999V0202301N002012200019N0500001N1+01631+00681101491ADDAA199000091GF102991001001999999001021KA1999N+00351MD1710091+9999REMSYN070AAXX  09061 28334 32999 22302 10163 20068 40149 57009 80002 333 20035;EQDQ01  00002PRCP99
0112283340999992000060909004+57350+058220FM-12+024499999V0202301N002012200019N0500001N1+01971+00681101331ADDGF102991001001999999001021MD1710111+9999REMSYN060AAXX  09091 28334 42999 22302 10197 20068 40133 57011 80002;
0143283340999992000060912004+57350+058220FM-12+024499999V0209999C000012200019N0500001N1+02161+00681101161ADDGA1001+999999999GF100991001001999999001001MA1999999098361MD1710151+9999REMSYN060AAXX  09121 28334 42999 00000 10216 20068 39836 40116 57015;
0175283340999992000060915004+57350+058220FM-12+024499999V0202001N002012200019N0500001N1+02121+00561101051ADDAA199000091GA1001+999999999GF100991001001999999001001KA1999M+02171MD1710121+9999REMSYN064AAXX  09151 28334 32999 02002 10212 20056 40105 57012 333 10217;EQDQ01  00002PRCP99
0181283340999992000060918004+57350+058220FM-12+024499999V0209999C000012200019N0500001N1+01521+00211101001ADDAA199000091GA1001+999999999GF100991001001999999001001KA1120M+02171MD1710101+9999REMSYN070AAXX  09181 28334 32984 00000 10152 20021 40100 57010 333 10217 50131;EQDQ01  00002PRCP99
0122283340999992000060921004+57350+058220FM-12+024499999V0209999C000012200019N0500001N1+01031+00041100991ADDGA1001+999999999GF100991001001999999001001MD1710071+9999REMSYN054AAXX  09211 28334 42984 00000 10103 20004 40099 57007;
0161283340999992000061000004+57350+058220FM-12+024499999V0209999C000012200019N0060001N1+00451-00291100861ADDAY101061AY201061GF103991031001999999041001MA1999999097891MD1710181+9999MW1101REMSYN072AAXX  10001 28334 41956 30000 10045 21029 39789 40086 57018 71000 83040;
0142283340999992000061003004+57350+058220FM-12+024499999V0201601N002019999999N0500001N1+00991+00381100661ADDAA199000091GF108991001001999999001081MD1710141+9999REMSYN060AAXX  10031 28334 32999 81602 10099 20038 40066 57014 80008;EQDQ01  00002PRCP99
0165283340999992000061006004+57350+058220FM-12+024499999V0202001N004019999999N0500001N1+01831+00771100481ADDAA199000091GF107991051001999999071051KA1999N+00451MD1710091+9999REMSYN070AAXX  10061 28334 32999 72004 10183 20077 40048 57009 85075 333 20045;EQDQ01  00002PRCP99
0112283340999992000061009004+57350+058220FM-12+024499999V0201801N002010300019N0500001N1+01811+00941100471ADDGF108991031081008001071999MD1710011+9999REMSYN060AAXX  10091 28334 42599 81802 10181 20094 40047 57001 8387/;
0187283340999992000061012004+57350+058220FM-12+024499999V0201801N002010069019N0200001N1+01511+01241100481ADDAY181061AY261061GA1061+006909029GF108991061071008001021999MA1999999097641MD1710011+9999MW1611REMSYN082AAXX  10121 28334 41570 81802 10151 20124 39764 40048 57001 76186 8672/ 333 86823;
0185283340999992000061015004+57350+058220FM-12+024499999V0201401N002010069019N0500001N1+01501+01171100231ADDAY161031AY221031GA1051+006909029GF108991051081008001071999KA1120M+01921MD1710251+9999MW1021REMSYN082AAXX  10151 28334 /1599 81402 10150 20117 40023 57025 70262 8587/ 333 10192 85823;
0199283340999992000061018004+57350+058220FM-12+024499999V0201801N002019999999N0500001N1+01481+01091100101ADDAA112001091AY161061AY211061GF108991999001008001041001KA1999M+01921MD1710131+9999MW1011REMSYN082AAXX  10181 28334 11599 81802 10148 20109 40010 57013 60012 70161 82040 333 10192;EQDQ01+000022SCOTLC
0112283340999992000061021004+57350+058220FM-12+024499999V0209999C000019999999N0500001N1+01291+01021100141ADDGF106991061001999999081001MD1310021+9999REMSYN060AAXX  10211 28334 42984 60000 10129 20102 40014 53002 86080;
0159283340999992000061100004+57350+058220FM-12+024499999V0201801N002010069019N0500001N1+01131+00991100201ADDGA1051+006909059GF105991051051008001001001MA1999999097331MD1210051+9999REMSYN076AAXX  11001 28334 42599 51802 10113 20099 39733 40020 52005 85500 333 85623;
0138283340999992000061103004+57350+058220FM-12+024499999V0202301N002010069019N0500001N1+01341+01051100361ADDGA1051+006909029GF105991051071008001021999MD1210171+9999REMSYN070AAXX  11031 28334 /2599 52302 10134 20105 40036 52017 8572/ 333 85823;
0135283340999992000061106004+57350+058220FM-12+024499999V0202001N004010075019N0500001N1+01591+00841100541ADDAA112000791GF107991071031008001001001MD1210191+9999REMSYN072AAXX  11061 28334 12599 72004 10159 20084 40054 52019 69902 87300 87920;
0138283340999992000061109004+57350+058220FM-12+024499999V0201801N004010060019N0500001N1+01711+00761100681ADDGA1061+006009099GF106991061031008001001001MD1210151+9999REMSYN070AAXX  11091 28334 42599 61804 10171 20076 40068 52015 86300 333 86920;
0185283340999992000061115004+57350+058220FM-12+024499999V0201801N002010060019N0500001N1+01671+01201100911ADDAY181031AY221031GA1051+006009099GF105991051031008001001001KA1120M+01751MD1210121+9999MW1011REMSYN082AAXX  11151 28334 /1599 51802 10167 20120 40091 52012 70182 85300 333 10175 85920;
0129283340999992000061118004+57350+058220FM-12+024499999V0209999C000010075019N0500001N1+01241+00801101111ADDAA112000891GF106991061031008001001001MD1210141+9999REMSYN066AAXX  11181 28334 12599 60000 10124 20080 40111 52014 69982 86300;
0138283340999992000061121004+57350+058220FM-12+024499999V0209999C000010060019N0500001N1+01031+00621101241ADDGA1071+006009029GF107991071071008001021001MD1210111+9999REMSYN070AAXX  11211 28334 42584 70000 10103 20062 40124 52011 87720 333 87820;
0133283340999992000061200004+57350+058220FM-12+024499999V0209999C000010300019N0500001N1+00911+00611101341ADDGF106991031031008001041001MA1999999098411MD1210091+9999REMSYN066AAXX  12001 28334 42599 60000 10091 20061 39841 40134 52009 83340;
0142283340999992000061203004+57350+058220FM-12+024499999V0209999C000019999999N0500001N1+00961+00841101351ADDAA199000091GF106991061001999999051001MD1210021+9999REMSYN060AAXX  12031 28334 32999 60000 10096 20084 40135 52002 86050;EQDQ01  00002PRCP99
0131283340999992000061209004+57350+058220FM-12+024499999V0202001N002019999999N0500001N1+01601+00271101391ADDGF105991999021008001001001MD1810031+9999REMSYN060AAXX  12091 28334 42599 52002 10160 20027 40139 58003 83200;EQDQ01+000032SCOTLC
0133283340999992000061212004+57350+058220FM-12+024499999V0202001N002012200019N0500001N1+01911+00761101311ADDGF102991021021008001001001MA1999999098481MD1710051+9999REMSYN066AAXX  12121 28334 42599 22002 10191 20076 39848 40131 57005 82200;
0165283340999992000061215004+57350+058220FM-12+024499999V0203201N002012200019N0500001N1+01731+00781101271ADDAA199000091GF101991011021008001001001KA1999M+01981MD1710051+9999REMSYN070AAXX  12151 28334 32599 13202 10173 20078 40127 57005 81200 333 10198;EQDQ01  00002PRCP99
0175283340999992000061218004+57350+058220FM-12+024499999V0209999C000012200019N0000001N1+01631+00941101281ADDAA199000091GA1001+999999999GF100991001001999999001001KA1999M+01981MD1410001+9999REMSYN064AAXX  12181 28334 32000 00000 10163 20094 40128 54000 333 10198;EQDQ01  00002PRCP99
0143283340999992000061300004+57350+058220FM-12+024499999V0209999C000012200019N0500001N1+01011+00551101201ADDGA1001+999999999GF100991001001999999001001MA1999999098281MD1710141+9999REMSYN060AAXX  13001 28334 42999 00000 10101 20055 39828 40120 57014;
0152283340999992000061303004+57350+058220FM-12+024499999V0209999C000012200019N0500001N1+01161+00741101131ADDAA199000091GA1001+999999999GF100991001001999999001001MD1710061+9999REMSYN054AAXX  13031 28334 32999 00000 10116 20074 40113 57006;EQDQ01  00002PRCP99
0165283340999992000061306004+57350+058220FM-12+024499999V0201801N002012200019N0500001N1+02101+01531100891ADDAA199000091GF102991011011008001001021KA1999N+01011MD1710131+9999REMSYN070AAXX  13061 28334 32599 21802 10210 20153 40089 57013 81102 333 20101;EQDQ01  00002PRCP99
0157283340999992000061309004+57350+058220FM-12+024499999V0201801N002010069019N0500001N1+02411+01611100621ADDGA1051+006909029GF106991999021008001001001MD1710231+9999REMSYN070AAXX  13091 28334 42599 61802 10241 20161 40062 57023 85200 333 85823;EQDQ01+000052SCOTLC
0133283340999992000061312004+57350+058220FM-12+024499999V0201801N002010750019N0500001N1+02411+01221100471ADDGF106991031021008001001021MA1999999097711MD1710151+9999REMSYN066AAXX  13121 28334 42599 61802 10241 20122 39771 40047 57015 83202;
0187283340999992000061315004+57350+058220FM-12+024499999V0209999C000010750019N0500001N1+02301+01031100371ADDAA199000091GA1041+006909029GF107991041011008001001061KA1120M+02451MD1710101+9999REMSYN076AAXX  13151 28334 32599 70000 10230 20103 40037 57010 84106 333 10245 84823;EQDQ01  00002PRCP99
0165283340999992000061318004+57350+058220FM-12+024499999V0209999C000012200019N0500001N1+01721+00981100421ADDAA199000091GF102991021001999999041001KA1999M+02451MD1710011+9999REMSYN070AAXX  13181 28334 32984 20000 10172 20098 40042 57001 82040 333 10245;EQDQ01  00002PRCP99
0112283340999992000061321004+57340+058210FM-12+024499999V0209999C000019999999N0500001N1+01331+00741100351ADDGF107991071001999999041001MD1710121+9999REMSYN060AAXX  13211 28334 42984 70000 10133 20074 40035 57012 87040;
0161283340999992000061400004+57340+058210FM-12+024499999V0209999C000019999999N0500001N1+01291+00821100291ADDAY121061AY221061GF107991051001999999041021MA1999999097421MD1710061+9999MW1101REMSYN072AAXX  14001 28334 41999 70000 10129 20082 39742 40029 57006 71022 85042;
0142283340999992000061403004+57340+058210FM-12+024499999V0209999C000019999999N0500001N1+01441+01221100161ADDAA199000091GF108991081001999999071999MD1710101+9999REMSYN060AAXX  14031 28334 32999 80000 10144 20122 40016 57010 8807/;EQDQ01  00002PRCP99
0187283340999992000061406004+57340+058210FM-12+024499999V0209999C000010069019N0500001N1+01831+01451100071ADDAA199000091GA1051+006909029GF107991051021008001081021KA1120N+01291MD1710051+9999REMSYN076AAXX  14061 28334 32599 70000 10183 20145 40007 57005 85282 333 20129 85823;EQDQ01  00002PRCP99
0138283340999992000061409004+57340+058210FM-12+024499999V0200501N004010069019N0500001N1+02131+01431099881ADDGA1071+006909069GF108991071071008001011999MD1710161+9999REMSYN070AAXX  14091 28334 42599 80504 10213 20143 49988 57016 8771/ 333 87723;
0187283340999992000061412004+57340+058210FM-12+024499999V0202301N006010051019N0060001N1+01441+01331099961ADDAY191061AY281061GA1081+005109099GF108991081031004501999999MA1999999097121MD1310011+9999MW1951REMSYN082AAXX  14121 28334 41456 82306 10144 20133 39712 49996 53001 79598 883// 333 88917;
0185283340999992000061415004+57340+058210FM-12+024499999V0209999C000010051019N0200001N1+01211+01151099991ADDAY191031AY281031GA1081+005109029GF108991081071004501999999KA1120M+02251MD1210011+9999MW1611REMSYN082AAXX  14151 28334 /1470 80000 10121 20115 49999 52001 76198 887// 333 10225 88817;
0221283340999992000061418004+57340+058210FM-12+024499999V0201601N002010060019N0500001N1+01211+01111100121ADDAA112021191AY191061AY281061GA1081+006009069GF108991999071008001021999KA1120M+02251MD1210131+9999MW1211REMSYN088AAXX  14181 28334 11599 81602 10121 20111 40012 52013 60212 72198 8872/ 333 10225 88720;EQDQ01+000082SCOTLC
0138283340999992000061421004+57340+058210FM-12+024499999V0201801N002010069019N0500001N1+01141+00981100161ADDGA1071+006909029GF107991071081008001001001MD1210031+9999REMSYN070AAXX  14211 28334 42584 71802 10114 20098 40016 52003 87800 333 87823;
0133283340999992000061500004+57340+058210FM-12+024499999V0201801N002019999999N0500001N1+01081+00921100171ADDGF107991021051999999021001MA1999999097291MD1410001+9999REMSYN066AAXX  15001 28334 42999 71802 10108 20092 39729 40017 54000 82520;
0112283340999992000061503004+57340+058210FM-12+024499999V0201801N002019999999N0500001N1+01231+00991100121ADDGF106991061001999999081001MD1810031+9999REMSYN060AAXX  15031 28334 /2999 61802 10123 20099 40012 58003 86080;
0202283340999992000061506004+57340+058210FM-12+024499999V0202001N002010060019N0200001N1+01311+01091100111ADDAA112002091AY181061AY221061GA1081+006009099GF108991081031008001999999KA1120N+01041MD1410001+9999MW1801REMSYN088AAXX  15061 28334 11570 82002 10131 20109 40011 54000 60022 78082 883// 333 20104 88920;
0166283340999992000061509004+57340+058210FM-12+024499999V0202701N002010060019N0500001N1+01641+01121099961ADDAY181031AY221031GA1061+006009099GF106991061031008001001001MD1810121+9999MW1011REMSYN076AAXX  15091 28334 41599 62702 10164 20112 49996 58012 70182 86300 333 86920;
0187283340999992000061512004+57340+058210FM-12+024499999V0202701N002010060019N0500001N1+01771+01021099941ADDAY181061AY221061GA1051+006009099GF105991051031008001001001MA1999999097131MD1710011+9999MW1011REMSYN082AAXX  15121 28334 41599 52702 10177 20102 39713 49994 57001 70182 85300 333 85920;
0135283340999992000061515004+57340+058210FM-12+024499999V0209999C000012200019N0500001N1+01761+01151099911ADDGF103991031031008001001001KA1999M+01811MD1710031+9999REMSYN070AAXX  15151 28334 /2599 30000 10176 20115 49991 57003 83300 333 10181;
0174283340999992000061518004+57340+058210FM-12+024499999V0209999C000010060019N0500001N1+01431+01131099981ADDAA112000791GA1071+006009059GF107991071051008001001001KA1120M+01811MD1310041+9999REMSYN082AAXX  15181 28334 12599 70000 10143 20113 49998 53004 69902 87500 333 10181 87620;
0138283340999992000061521004+57340+058210FM-12+024499999V0209999C000010060019N0500001N1+01001+00811099981ADDGA1071+006009059GF107991071051008001001001MD1810051+9999REMSYN070AAXX  15211 28334 42584 70000 10100 20081 49998 58005 87500 333 87620;
0206283340999992000061600004+57340+058210FM-12+024499999V0209999C000010060019N0060001N1+01231+00981099941ADDAY161061AY221061GA1081+006009029GF108991999051008001021999MA1999999097081MD1710011+9999MW1101REMSYN082AAXX  16001 28334 41556 80000 10123 20098 39708 49994 57001 71062 8852/ 333 88520;EQDQ01+000082SCOTLC
0166283340999992000061603004+57340+058210FM-12+024499999V0209999C000010069019N0500001N1+01361+01181099961ADDAY161031AY221031GA1051+006909029GF106991051071008001081001MD1310031+9999MW1211REMSYN076AAXX  16031 28334 /1599 60000 10136 20118 49996 53003 72162 85780 333 85823;
0180283340999992000061606004+57340+058210FM-12+024499999V0202301N002010300019N0500001N1+02011+01631100061ADDAA112000591AY161061AY221061GF105991031031008001031001KA1999N+01001MD1210171+9999MW1011REMSYN082AAXX  16061 28334 11599 52302 10201 20163 40006 52017 69942 70162 83330 333 20100;
0166283340999992000061609004+57340+058210FM-12+024499999V0202901N004010069019N0500001N1+01641+00971100131ADDAY191031AY221031GA1051+006909099GF106991051091008001031001MD1210031+9999MW1951REMSYN076AAXX  16091 28334 41599 62904 10164 20097 40013 52003 79592 85930 333 85923;
0161283340999992000061612004+57340+058210FM-12+024499999V0202501N002010300019N0500001N1+02031+00921100261ADDAY191061AY281061GF106991031031008001041001MA1999999097471MD1210161+9999MW1021REMSYN072AAXX  16121 28334 41599 62502 10203 20092 39747 40026 52016 70298 83340;
0135283340999992000061615004+57340+058210FM-12+024499999V0202301N002012200019N0500001N1+01921+00921100471ADDGF102991021031008001001001KA1999M+02041MD1210191+9999REMSYN070AAXX  16151 28334 /2599 22302 10192 20092 40047 52019 82300 333 10204;
0162283340999992000061618004+57340+058210FM-12+024499999V0209999C000012200019N0500001N1+01361+01111100701ADDAA112000791GA1001+999999999GF100991001001999999001001KA1999M+02041MD1210171+9999REMSYN070AAXX  16181 28334 12999 00000 10136 20111 40070 52017 69902 333 10204;
0112283340999992000061621004+57340+058210FM-12+024499999V0209999C000012200019N0500001N1+00931+00781100841ADDGF102991021001999999041001MD1210101+9999REMSYN060AAXX  16211 28334 42984 20000 10093 20078 40084 52010 82040;
0133283340999992000061700004+57340+058210FM-12+024499999V0209999C000012200019N0500001N1+00811+00681101001ADDGF102991021001999999041001MA1999999098061MD1210131+9999REMSYN066AAXX  17001 28334 42999 20000 10081 20068 39806 40100 52013 82040;
0142283340999992000061703004+57340+058210FM-12+024499999V0209999C000012200019N0500001N1+01311+01131100971ADDAA199000091GF102991021001999999041001MD1210041+9999REMSYN060AAXX  17031 28334 32999 20000 10131 20113 40097 52004 82040;EQDQ01  00002PRCP99
0165283340999992000061706004+57340+058210FM-12+024499999V0202001N002010750019N0500001N1+02031+00991100901ADDAA199000091GF107991021031008001001081KA1999N+00811MD1810011+9999REMSYN070AAXX  17061 28334 32599 72002 10203 20099 40090 58001 82308 333 20081;EQDQ01  00002PRCP99
0134283340999992000061709004+57340+058210FM-12+024499999V0202001N002019999999N0200001N1+01981+01061100861ADDAY181031AY221031GF108991999999008001999999MD1710051+9999MW1801REMSYN060AAXX  17091 28334 41570 82002 10198 20106 40086 57005 78082;
0161283340999992000061712004+57340+058210FM-12+024499999V0202001N002019999999N0500001N1+01481+01261100771ADDAY181061AY261061GF108991081071999999999999MA1999999097911MD1710131+9999MW1211REMSYN072AAXX  17121 28334 41999 82002 10148 20126 39791 40077 57013 72186 887//;
0176283340999992000061715004+57340+058210FM-12+024499999V0209999C000010069019N0500001N1+01411+01351100711ADDGA1081+006909029GF108991999071008001021999KA1120M+02041MD1710061+9999REMSYN076AAXX  17151 28334 /2599 80000 10141 20135 40071 57006 8872/ 333 10204 88823;EQDQ01+000082SCOTLC
0180283340999992000061718004+57340+058210FM-12+024499999V0209999C000019999999N0060001N1+01401+01341100771ADDAA112002091AY181061AY221061GF108991051001999999031071KA1999M+02051MD1310061+9999MW1101REMSYN082AAXX  17181 28334 11956 80000 10140 20134 40077 53006 60022 71082 85037 333 10205;
0150283340999992000061721004+57340+058210FM-12+024499999V0209999C000012200019N0060001N1+01311+01251100931ADDAY111031AY211031GA1001+999999999GF100991001001999999001001MD1210151+9999MW1101REMSYN060AAXX  17211 28334 41956 00000 10131 20125 40093 52015 71011;
0161283340999992000061800004+57340+058210FM-12+024499999V0209999C000012200019N0060001N1+01461+01391101051ADDAY111061AY211061GF103991001001999999001021MA1999999098191MD1210131+9999MW1101REMSYN072AAXX  18001 28334 41956 30000 10146 20139 39819 40105 52013 71011 80002;
0140283340999992000061803004+57340+058210FM-12+024499999V0209999C000010300019N0070001N1+01981+01641101021ADDAY121031AY221031GF107991021071008001021021MD1210021+9999MW1101REMSYN066AAXX  18031 28334 /1557 70000 10198 20164 40102 52002 71022 82722;
0174283340999992000061806004+57340+058210FM-12+024499999V0202301N002010069019N0500001N1+02051+01131101111ADDAA112000591GA1051+006909029GF107991051071008001071001KA1120N+01311MD1210091+9999REMSYN082AAXX  18061 28334 12599 72302 10205 20113 40111 52009 69942 85770 333 20131 85823;
0112283340999992000061809004+57340+058210FM-12+024499999V0202301N002010750019N0500001N1+02541+01411101111ADDGF105991031021008001001091MD1210041+9999REMSYN060AAXX  18091 28334 42599 52302 10254 20141 40111 52004 83209;
0187283340999992000061812004+57340+058210FM-12+024499999V0209999C000010051019N0200001N1+02101+01901101231ADDAY191061AY281061GA1071+005109099GF107991071031004501001001MA1999999098431MD1210091+9999MW1951REMSYN082AAXX  18121 28334 41470 70000 10210 20190 39843 40123 52009 79598 87300 333 87917;
0185283340999992000061815004+57340+058210FM-12+024499999V0209999C000010060019N0200001N1+02031+01811101291ADDAY191031AY281031GA1061+006009099GF106991061031008001041021KA1120M+02701MD1210061+9999MW1951REMSYN082AAXX  18151 28334 /1570 60000 10203 20181 40129 52006 79598 86342 333 10270 86920;
0180283340999992000061818004+57340+058210FM-12+024499999V0209999C000012200019N0060001N1+01781+01681101371ADDAA112006191AY191061AY281061GF103991021031008001001021KA1999M+02701MD1210051+9999MW1101REMSYN082AAXX  18181 28334 11556 30000 10178 20168 40137 52005 60062 71098 82302 333 10270;
0108283340999992000061821004+57340+058210FM-12+024499999V0209999C000019999999N0001001N1+01481+01441101491ADDAY141031AY291031MD1210081+9999MW1451REMSYN060AAXX  18211 28334 41/01 /0000 10148 20144 40149 52008 74549;
0161283340999992000061900004+57340+058210FM-12+024499999V0209999C000012200019N0005001N1+01341+01321101571ADDAY141061AY201061GF102991021001999999081001MA1999999098681MD1210061+9999MW1421REMSYN072AAXX  19001 28334 41905 20000 10134 20132 39868 40157 52006 74240 82080;
0151283340999992000061903004+57340+058210FM-12+024499999V0209999C000012200019N0500001N1+01851+01741101661ADDAA199000021AY141031AY201031GF102991021001999999041021MD1210151+9999MW1021REMSYN066AAXX  19031 28334 31999 20000 10185 20174 40166 52015 70240 82042;
0203283340999992000061906004+57340+058210FM-12+024499999V0209999C000012200019N0500001N1+02611+01861101551ADDAA199000091AY141061AY201061GA1001+999999999GF100991001001999999001001KA1999N+01311MD1810041+9999MW1011REMSYN070AAXX  19061 28334 31999 00000 10261 20186 40155 58004 70140 333 20131;EQDQ01  00002PRCP99
0112283340999992000061909004+57340+058210FM-12+024499999V0209999C000012200019N0500001N1+03031+01521101521ADDGF102991021011999999001001MD1410001+9999REMSYN060AAXX  19091 28334 42999 20000 10303 20152 40152 54000 82100;
0133283340999992000061912004+57340+058210FM-12+024499999V0201801N002012200019N0500001N1+03141+01031101431ADDGF102991021011008001001001MA1999999098711MD1810081+9999REMSYN066AAXX  19121 28334 42599 21802 10314 20103 39871 40143 58008 82100;
0165283340999992000061915004+57340+058210FM-12+024499999V0209999C000012200019N0500001N1+03131+01451101411ADDAA199000091GF105991021011008001001011KA1999M+03191MD1710021+9999REMSYN070AAXX  19151 28334 32599 50000 10313 20145 40141 57002 82101 333 10319;EQDQ01  00002PRCP99
0165283340999992000061918004+57340+058210FM-12+024499999V0209999C000012200019N0500001N1+02431+01511101591ADDAA199000091GF103991031001999999041001KA1999M+03191MD1310121+9999REMSYN070AAXX  19181 28334 32999 30000 10243 20151 40159 53012 83040 333 10319;EQDQ01  00002PRCP99
0112283340999992000061921004+57340+058210FM-12+024499999V0209999C000012200019N0500001N1+01991+01241101621ADDGF103991031001999999041001MD1810011+9999REMSYN060AAXX  19211 28334 42984 30000 10199 20124 40162 58001 83040;
0187283340999992000062000004+57340+058210FM-12+024499999V0209999C000010069019N0060001N1+01601+01241101771ADDAY111061AY211061GA1051+006909029GF106991051021008001041001MA1999999098901MD1310101+9999MW1101REMSYN082AAXX  20001 28334 41556 60000 10160 20124 39890 40177 53010 71011 85240 333 85823;
0168283340999992000062003004+57340+058210FM-12+024499999V0209999C000010069019N0500001N1+02091+01581101751ADDAA199000091GA1051+006909029GF105991051021008001001001MD1210031+9999REMSYN070AAXX  20031 28334 32599 50000 10209 20158 40175 52003 85200 333 85823;EQDQ01  00002PRCP99
0187283340999992000062006004+57340+058210FM-12+024499999V0200501N002010069019N0500001N1+02601+01721101901ADDAA199000091GA1051+006909099GF106991051031008001001021KA1120N+01601MD1210201+9999REMSYN076AAXX  20061 28334 32599 60502 10260 20172 40190 52020 85302 333 20160 85923;EQDQ01  00002PRCP99
0187283340999992000062012004+57340+058210FM-12+024499999V0200501N006010069019N0500001N1+03221+01441101761ADDAY191061AY211061GA1061+006909099GF106991061031008001001001MA1999999099041MD1710061+9999MW1171REMSYN082AAXX  20121 28334 42599 60506 10322 20144 39904 40176 57006 71791 86300 333 86923;
0215283340999992000062015004+57340+058210FM-12+024499999V0209999C000010069019N0500001N1+02361+01301101931ADDAA199000091AY191031AY221031GA1061+006909099GF106991061031008001001001KA1120M+03301MD1310091+9999MW1171REMSYN082AAXX  20151 28334 31599 60000 10236 20130 40193 53009 71792 86300 333 10330 86923;EQDQ01  00002PRCP99
0209283340999992000062018004+57340+058210FM-12+024499999V0209999C000012200019N0500001N1+02041+99999101991ADDAA199000091AY191061AY211061GF103991031001999999041001KA1999M+03301MD1210021+9999MW1011REMSYN076AAXX  20181 28334 31999 30000 10204 21138 40199 52002 70191 83040 333 10330;EQDQ01-001383ATOD  Q02  00002PRCP99
0112283340999992000062021004+57340+058210FM-12+024499999V0209999C000019999999N0500001N1+01861+01411101991ADDGF106991061001999999031001MD1810011+9999REMSYN060AAXX  20211 28334 42984 60000 10186 20141 40199 58001 86030;
0161283340999992000062100004+57340+058210FM-12+024499999V0209999C000012200019N0060001N1+01721+01481102011ADDAY111061AY211061GF103991031001999999041001MA1999999099151MD1310011+9999MW1101REMSYN072AAXX  21001 28334 41956 30000 10172 20148 39915 40201 53001 71011 83040;
0170283340999992000062103004+57340+058210FM-12+024499999V0209999C000012200019N0060001N1+02121+01781101971ADDAA199000091AY101031AY201031GF103991031001999999041001MD1410001+9999MW1101REMSYN066AAXX  21031 28334 31956 30000 10212 20178 40197 54000 71000 83040;EQDQ01  00002PRCP99
0165283340999992000062106004+57340+058210FM-12+024499999V0201601N002012200019N0500001N1+02881+01731101681ADDAA199000091GF102991021011008001001011KA1999N+01721MD1810221+9999REMSYN070AAXX  21061 28334 32599 21602 10288 20173 40168 58022 82101 333 20172;EQDQ01  00002PRCP99
0166283340999992000062109004+57340+058210FM-12+024499999V0201601N002010060019N0500001N1+02971+01541101571ADDAY191031AY211031GA1051+006009099GF106991051031008001041021MD1710091+9999MW1171REMSYN076AAXX  21091 28334 41599 61602 10297 20154 40157 57009 71791 85342 333 85920;
0187283340999992000062112004+57340+058210FM-12+024499999V0201601N002010060019N0500001N1+03021+01201101431ADDAY191061AY211061GA1061+006009099GF106991061031008001001001MA1999999098701MD1710141+9999MW1291REMSYN082AAXX  21121 28334 41599 61602 10302 20120 39870 40143 57014 72991 86300 333 86920;
0165283340999992000062115004+57340+058210FM-12+024499999V0201801N002012200019N0500001N1+02981+01641101381ADDAA199000091GF103991031031008001001001KA1999M+03291MD1710051+9999REMSYN070AAXX  21151 28334 32599 31802 10298 20164 40138 57005 83300 333 10329;EQDQ01  00002PRCP99
0193283340999992000062118004+57340+058210FM-12+024499999V0201801N002012200019N0060001N1+02501+01491101431ADDAA199000091AY111061AY211061GF103991031031008001001001KA1999M+03291MD1410001+9999MW1101REMSYN076AAXX  21181 28334 31556 31802 10250 20149 40143 54000 71011 83300 333 10329;EQDQ01  00002PRCP99
0112283340999992000062121004+57340+058210FM-12+024499999V0209999C000012200019N0060001N1+02171+01551101441ADDGF102991021031008001001001MD1810011+9999REMSYN060AAXX  21211 28334 41556 20000 10217 20155 40144 58001 82300;
0133283340999992000062200004+57340+058210FM-12+024499999V0209999C000012200019N0500001N1+01791+01501101441ADDGF102991021031008001001001MA1999999098601MD1710041+9999REMSYN066AAXX  22001 28334 42599 20000 10179 20150 39860 40144 57004 82300;
0170283340999992000062203004+57340+058210FM-12+024499999V0209999C000012200019N0500001N1+02191+01721101411ADDAA199000091AY191031AY201031GF103991021031008001041021MD1310011+9999MW1171REMSYN066AAXX  22031 28334 31599 30000 10219 20172 40141 53001 71790 82342;EQDQ01  00002PRCP99
0165283340999992000062206004+57340+058210FM-12+024499999V0209999C000012200019N0500001N1+02541+01731101381ADDAA199000091GF102991011011008001001021KA1999N+01791MD1410001+9999REMSYN070AAXX  22061 28334 32599 20000 10254 20173 40138 54000 81102 333 20179;EQDQ01  00002PRCP99
0138283340999992000062209004+57340+058210FM-12+024499999V0202701N004010069019N0500001N1+02881+01691101231ADDGA1061+006909099GF106991061031008001001021MD1810111+9999REMSYN070AAXX  22091 28334 42599 62704 10288 20169 40123 58011 86302 333 86923;
0187283340999992000062212004+57340+058210FM-12+024499999V0202301N002010060019N0500001N1+02961+01591101121ADDAY191061AY211061GA1061+006009099GF107991061031008001081001MA1999999098401MD1710101+9999MW1171REMSYN082AAXX  22121 28334 41599 72302 10296 20159 39840 40112 57010 71791 86380 333 86920;
0193283340999992000062215004+57340+058210FM-12+024499999V0209999C000010300019N0500001N1+02191+01641101201ADDAA199000091AY191031AY221031GF108991031031008001071999KA1999M+03111MD1310011+9999MW1031REMSYN076AAXX  22151 28334 31599 80000 10219 20164 40120 53001 70392 8337/ 333 10311;EQDQ01  00002PRCP99
0196283340999992000062218004+57340+058210FM-12+024499999V0209999C000010069019N0500001N1+01921+01601101181ADDAA199000021AY191061AY261061GA1051+006909029GF107991051081008001071021KA1120M+03111MD1810051+9999MW1601REMSYN082AAXX  22181 28334 31599 70000 10192 20160 40118 58005 76096 85872 333 10311 85823;
0112283340999992000062221004+57340+058210FM-12+024499999V0209999C000010750019N0500001N1+01691+01591101171ADDGF105991011031008001081021MD1710031+9999REMSYN060AAXX  22211 28334 42584 50000 10169 20159 40117 57003 81382;
0133283340999992000062300004+57340+058210FM-12+024499999V0209999C000010300019N0500001N1+01611+01471101141ADDGF107991031081008001091021MA1999999098291MD1710041+9999REMSYN066AAXX  23001 28334 42599 70000 10161 20147 39829 40114 57004 83892;
0140283340999992000062303004+57340+058210FM-12+024499999V0209999C000010300019N0500001N1+01801+01581101131ADDAY161031AY221031GF107991021081008001081021MD1310011+9999MW1601REMSYN066AAXX  23031 28334 /1599 70000 10180 20158 40113 53001 76062 82882;
0180283340999992000062306004+57340+058210FM-12+024499999V0201401N002012200019N0500001N1+02181+01521100981ADDAA112000391AY161061AY211061GF103991021031008001041011KA1999N+01551MD1810111+9999MW1011REMSYN082AAXX  23061 28334 11599 31402 10218 20152 40098 58011 69932 70161 82341 333 20155;
0138283340999992000062309004+57340+058210FM-12+024499999V0200901N002010060019N0500001N1+02551+01211100891ADDGA1051+006009029GF105991051021008001001001MD1710061+9999REMSYN070AAXX  23091 28334 42599 50902 10255 20121 40089 57006 85200 333 85820;
0133283340999992000062312004+57340+058210FM-12+024499999V0201101N002010075019N0500001N1+02811+01341100781ADDGF105991051021008001001091MA1999999098051MD1710081+9999REMSYN066AAXX  23121 28334 42599 51102 10281 20134 39805 40078 57008 85209;
0146283340999992000062315004+57340+058210FM-12+024499999V0209999C000012200019N0500001N1+02461+01451100801ADDAA199000021GF102991021011008001001011KA1999M+02941MD1710011+9999REMSYN070AAXX  23151 28334 32599 20000 10246 20145 40080 57001 82101 333 10294;
0165283340999992000062318004+57340+058210FM-12+024499999V0209999C000012200019N0500001N1+02271+01721100851ADDAA199000091GF102991021001999999031001KA1999M+02941MD1310031+9999REMSYN070AAXX  23181 28334 32999 20000 10227 20172 40085 53003 82030 333 10294;EQDQ01  00002PRCP99
0140283340999992000062321004+57340+058210FM-12+024499999V0209999C000019999999N0060001N1+02041+01811100851ADDAY111031AY211031GF108991081001999999071999MD1710021+9999MW1101REMSYN066AAXX  23211 28334 41956 80000 10204 20181 40085 57002 71011 8807/;
0161283340999992000062400004+57340+058210FM-12+024499999V0209999C000019999999N0060001N1+01641+01451100891ADDAY111061AY211061GF106991061001999999031001MA1999999098051MD1410001+9999MW1101REMSYN072AAXX  24001 28334 41956 60000 10164 20145 39805 40089 54000 71011 86030;
0142283340999992000062403004+57340+058210FM-12+024499999V0209999C000019999999N0500001N1+01791+01401100861ADDAA199000091GF105991051001999999031001MD1810011+9999REMSYN060AAXX  24031 28334 32999 50000 10179 20140 40086 58001 85030;EQDQ01  00002PRCP99
0165283340999992000062406004+57340+058210FM-12+024499999V0209999C000010750019N0500001N1+02541+01501100931ADDAA199000091GF105991021011008001001021KA1999N+01641MD1310131+9999REMSYN070AAXX  24061 28334 32599 50000 10254 20150 40093 53013 82102 333 20164;EQDQ01  00002PRCP99
0138283340999992000062409004+57340+058210FM-12+024499999V0201401N004010750019N0500001N1+02701+01351100891ADDGA1041+006909099GF105991041031008001001021MD1810021+9999REMSYN070AAXX  24091 28334 42599 51404 10270 20135 40089 58002 84302 333 84923;
0133283340999992000062412004+57340+058210FM-12+024499999V0200501N004019999999N0500001N1+02761+01281100871ADDGF105991021001999999041021MA1999999098131MD1710021+9999REMSYN066AAXX  24121 28334 42999 50504 10276 20128 39813 40087 57002 82042;
0165283340999992000062415004+57340+058210FM-12+024499999V0200901N002010300019N0500001N1+02541+01731100801ADDAA199000091GF105991021031008001081001KA1999M+02771MD1710081+9999REMSYN070AAXX  24151 28334 32599 50902 10254 20173 40080 57008 82380 333 10277;EQDQ01  00002PRCP99
0215283340999992000062418004+57340+058210FM-12+024499999V0200901N004010069019N0500001N1+02381+01591100961ADDAA199000091AY191061AY221061GA1051+006909099GF106991051031008001041001KA1120M+02771MD1310141+9999MW1171REMSYN082AAXX  24181 28334 31599 60904 10238 20159 40096 53014 71792 85340 333 10277 85923;EQDQ01  00002PRCP99
0140283340999992000062421004+57340+058210FM-12+024499999V0209999C000019999999N0500001N1+02081+01651101051ADDAY191031AY221031GF106991061001999999031001MD1210061+9999MW1171REMSYN066AAXX  24211 28334 41984 60000 10208 20165 40105 52006 71792 86030;
0161283340999992000062500004+57340+058210FM-12+024499999V0209999C000019999999N0500001N1+01781+01471101111ADDAY191061AY221061GF106991061001999999031001MA1999999098281MD1210031+9999MW1021REMSYN072AAXX  25001 28334 41999 60000 10178 20147 39828 40111 52003 70292 86030;
0170283340999992000062503004+57340+058210FM-12+024499999V0209999C000019999999N0060001N1+02001+01601101121ADDAA199000091AY121031AY221031GF108991081001999999021999MD1210031+9999MW1101REMSYN066AAXX  25031 28334 31956 80000 10200 20160 40112 52003 71022 8802/;EQDQ01  00002PRCP99
0193283340999992000062506004+57340+058210FM-12+024499999V0200901N002019999999N0060001N1+02301+01721100921ADDAA199000091AY121061AY221061GF105991001001999999001021KA1999N+01781MD1810171+9999MW1101REMSYN076AAXX  25061 28334 31956 50902 10230 20172 40092 58017 71022 80002 333 20178;EQDQ01  00002PRCP99
0112283340999992000062509004+57340+058210FM-12+024499999V0200701N002010750019N0500001N1+02681+02011100791ADDGF105991021021008001001021MD1710081+9999REMSYN060AAXX  25091 28334 42599 50702 10268 20201 40079 57008 82202;
0159283340999992000062512004+57340+058210FM-12+024499999V0200901N004010069019N0500001N1+02731+02151100651ADDGA1051+006909099GF105991051031008001001001MA1999999097931MD1710131+9999REMSYN076AAXX  25121 28334 42599 50904 10273 20215 39793 40065 57013 85300 333 85923;
0209283340999992000062515004+57340+058210FM-12+024499999V0200901N002012200019N0500001N1+02721+02041100571ADDAA199000091AY191031AY211031GF103991999031008001001001KA1999M+02761MD1710081+9999MW1171REMSYN076AAXX  25151 28334 31599 30902 10272 20204 40057 57008 71791 82300 333 10276;EQDQ01+000022SCOTLCQ02  00002PRCP99
0196283340999992000062518004+57340+058210FM-12+024499999V0200901N002010060019N0200001N1+01781+01591100921ADDAA199000021AY191061AY221061GA1081+006009099GF108991081031008001999999KA1120M+02761MD1310251+9999MW1951REMSYN082AAXX  25181 28334 31570 80902 10178 20159 40092 53025 79592 883// 333 10276 88920;
0166283340999992000062521004+57340+058210FM-12+024499999V0209999C000010060019N0150001N1+01551+01461100731ADDAY191031AY281031GA1081+006009099GF108991081031008001999999MD1810221+9999MW1951REMSYN076AAXX  25211 28334 41565 80000 10155 20146 40073 58022 79598 883// 333 88920;
0187283340999992000062600004+57340+058210FM-12+024499999V0209999C000010060019N0200001N1+01661+01641100661ADDAY191061AY281061GA1081+006009099GF108991081031008001999999MA1999999097831MD1710051+9999MW1951REMSYN082AAXX  26001 28334 41570 80000 10166 20164 39783 40066 57005 79598 883// 333 88920;
0166283340999992000062603004+57340+058210FM-12+024499999V0209999C000010081019N0500001N1+01751+01721100561ADDAY191031AY281031GA1051+008109029GF107991071011008001081021MD1710091+9999MW1251REMSYN076AAXX  26031 28334 /1599 70000 10175 20172 40056 57009 72598 87182 333 85827;
0180283340999992000062606004+57340+058210FM-12+024499999V0200701N006019999999N0500001N1+02321+01701100371ADDAA112016091AY191061AY281061GF105991031001999999061041KA1999N+01551MD1710131+9999MW1011REMSYN082AAXX  26061 28334 11999 50706 10232 20170 40037 57013 60162 70198 83064 333 20155;
0112283340999992000062609004+57340+058210FM-12+024499999V0200501N006012200019N0500001N1+02671+01481100211ADDGF103991011011008001001021MD1710121+9999REMSYN060AAXX  26091 28334 42599 30506 10267 20148 40021 57012 81102;
0133283340999992000062612004+57340+058210FM-12+024499999V0200501N006012200019N0500001N1+02721+01331100091ADDGF103991011011008001041021MA1999999097371MD1710121+9999REMSYN066AAXX  26121 28334 42599 30506 10272 20133 39737 40009 57012 81142;
0168283340999992000062615004+57340+058210FM-12+024499999V0200501N006010069019N0500001N1+02581+01211100101ADDAA199000021GA1051+006909099GF106991051031008001061021KA1120M+02761MD1710011+9999REMSYN076AAXX  26151 28334 32599 60506 10258 20121 40010 57001 85362 333 10276 85923;
0165283340999992000062618004+57340+058210FM-12+024499999V0200501N004019999999N0500001N1+02081+01311100231ADDAA199000091GF107991051001999999081081KA1999M+02761MD1310091+9999REMSYN070AAXX  26181 28334 32999 70504 10208 20131 40023 53009 85088 333 10276;EQDQ01  00002PRCP99
0112283340999992000062621004+57340+058210FM-12+024499999V0209999C000019999999N0500001N1+01751+01401100261ADDGF106991041001999999081051MD1810011+9999REMSYN060AAXX  26211 28334 42984 60000 10175 20140 40026 58001 84085;
0159283340999992000062700004+57340+058210FM-12+024499999V0209999C000010069019N0500001N1+01671+01441100291ADDGA1051+006909029GF106991051011008001031021MA1999999097461MD1310021+9999REMSYN076AAXX  27001 28334 42599 60000 10167 20144 39746 40029 53002 85132 333 85823;
0142283340999992000062703004+57340+058210FM-12+024499999V0209999C000012200019N0500001N1+01821+01481100311ADDAA199000091GF104991031081008001001051MD1210041+9999REMSYN060AAXX  27031 28334 32599 40000 10182 20148 40031 52004 83805;EQDQ01  00002PRCP99
0138283340999992000062709004+57340+058210FM-12+024499999V0200501N004010750019N0500001N1+02551+01571100201ADDGA1041+006909029GF105991041011008001001021MD1710011+9999REMSYN070AAXX  27091 28334 42599 50504 10255 20157 40020 57001 84102 333 84823;
0159283340999992000062712004+57340+058210FM-12+024499999V0200501N004010069019N0500001N1+02631+01431100211ADDGA1061+006909099GF106991061031008001001001MA1999999097481MD1310011+9999REMSYN076AAXX  27121 28334 42599 60504 10263 20143 39748 40021 53001 86300 333 86923;
0215283340999992000062715004+57340+058210FM-12+024499999V0209999C000010069019N0500001N1+02431+01611100241ADDAA199000091AY191031AY221031GA1051+006909099GF106991051031008001001011KA1120M+02661MD1210011+9999MW1171REMSYN082AAXX  27151 28334 31599 60000 10243 20161 40024 52001 71792 85301 333 10266 85923;EQDQ01  00002PRCP99
0225283340999992000062718004+57340+058210FM-12+024499999V0200501N002019999999N0500001N1+02091+01661100321ADDAA199000091AY191061AY221061GF108991999001999999041001KA1999M+99999MD1210051+9999MW1021REMSYN076AAXX  27181 28334 31999 80502 10209 20166 40032 52005 70292 86040 333 10066;EQDQ01+000062SCOTLCQ02  00002PRCP99Q03 +00662ATMX  
0112283340999992000062721004+57340+058210FM-12+024499999V0209999C000019999999N0500001N1+01941+01591100521ADDGF106991061001999999041001MD1210171+9999REMSYN060AAXX  27211 28334 42984 60000 10194 20159 40052 52017 86040;
0161283340999992000062800004+57340+058210FM-12+024499999V0209999C000012200019N0500001N1+01681+01491100551ADDAY191061AY211061GF103991031001999999041001MA1999999097721MD1210011+9999MW1171REMSYN072AAXX  28001 28334 41999 30000 10168 20149 39772 40055 52001 71791 83040;
0142283340999992000062803004+57340+058210FM-12+024499999V0200501N002019999999N0500001N1+01871+01381100571ADDAA199000091GF105991001001999999001011MD1210041+9999REMSYN060AAXX  28031 28334 32999 50502 10187 20138 40057 52004 80001;EQDQ01  00002PRCP99
0165283340999992000062806004+57340+058210FM-12+024499999V0200501N006010750019N0500001N1+02261+01651100621ADDAA199000091GF105991021011008001001021KA1999N+01681MD1210091+9999REMSYN070AAXX  28061 28334 32599 50506 10226 20165 40062 52009 82102 333 20168;EQDQ01  00002PRCP99
0138283340999992000062809004+57340+058210FM-12+024499999V0200501N004010069019N0500001N1+02041+01381100721ADDGA1051+006909099GF106991051031008001031001MD1210071+9999REMSYN070AAXX  28091 28334 42599 60504 10204 20138 40072 52007 85330 333 85923;
0159283340999992000062812004+57340+058210FM-12+024499999V0200501N008010069019N0500001N1+02121+00991100731ADDGA1051+006909099GF106991051031008001031001MA1999999097941MD1210021+9999REMSYN076AAXX  28121 28334 42599 60508 10212 20099 39794 40073 52002 85330 333 85923;
0185283340999992000062815004+57340+058210FM-12+024499999V0200501N006010069019N0500001N1+01981+01351100901ADDAY181031AY221031GA1071+006909099GF107991071031008001001001KA1120M+02281MD1210151+9999MW1801REMSYN082AAXX  28151 28334 /1599 70506 10198 20135 40090 52015 78082 87300 333 10228 87923;
0202283340999992000062818004+57340+058210FM-12+024499999V0200501N002010069019N0500001N1+01781+01391100971ADDAA112000791AY181061AY221061GA1051+006909099GF106991051031008001041001KA1120M+02281MD1210061+9999MW1011REMSYN088AAXX  28181 28334 11599 60502 10178 20139 40097 52006 69902 70182 85340 333 10228 85923;
0112283340999992000062821004+57340+058210FM-12+024499999V0200501N002019999999N0500001N1+01641+01281101021ADDGF106991061001999999031001MD1210031+9999REMSYN060AAXX  28211 28334 42984 60502 10164 20128 40102 52003 86030;
0133283340999992000062900004+57340+058210FM-12+024499999V0200501N002019999999N0500001N1+01501+01141101061ADDGF108991081001999999021999MA1999999098211MD1210031+9999REMSYN066AAXX  29001 28334 42999 80502 10150 20114 39821 40106 52003 8802/;
0112283340999992000062903004+57340+058210FM-12+024499999V0200501N002019999999N0500001N1+01601+01051101081ADDGF108991081001999999021999MD1210021+9999REMSYN060AAXX  29031 28334 /2999 80502 10160 20105 40108 52002 8802/;
0174283340999992000062906004+57340+058210FM-12+024499999V0200901N002010069019N0500001N1+01581+01221101091ADDAA112000791GA1081+006909059GF108991081051008001999999KA1120N+01501MD1210011+9999REMSYN082AAXX  29061 28334 12599 80902 10158 20122 40109 52001 69902 885// 333 20150 88623;
0138283340999992000062909004+57340+058210FM-12+024499999V0200901N002010069019N0500001N1+01961+01251101111ADDGA1061+006909059GF107991061041008001061021MD1210051+9999REMSYN070AAXX  29091 28334 42599 70902 10196 20125 40111 52005 86462 333 86623;
0159283340999992000062912004+57340+058210FM-12+024499999V0200901N002010069019N0500001N1+02061+01241101101ADDGA1061+006909059GF107991061021008001001021MA1999999098291MD1410001+9999REMSYN076AAXX  29121 28334 42599 70902 10206 20124 39829 40110 54000 86202 333 86623;
0165283340999992000062915004+57340+058210FM-12+024499999V0209999C000010300019N0500001N1+02051+01291101111ADDAA199000091GF106991021021008001031011KA1999M+02151MD1310011+9999REMSYN070AAXX  29151 28334 32599 60000 10205 20129 40111 53001 82231 333 10215;EQDQ01  00002PRCP99
0165283340999992000062918004+57340+058210FM-12+024499999V0209999C000012200019N0500001N1+01581+01131101311ADDAA199000091GF103991021001999999031011KA1999M+02151MD1210151+9999REMSYN070AAXX  29181 28334 32999 30000 10158 20113 40131 52015 82031 333 10215;EQDQ01  00002PRCP99
0112283340999992000062921004+57340+058210FM-12+024499999V0209999C000012200019N0500001N1+01421+01021101351ADDGF102991021001999999041001MD1210031+9999REMSYN060AAXX  29211 28334 42984 20000 10142 20102 40135 52003 82040;
0133283340999992000063000004+57340+058210FM-12+024499999V0209999C000012200019N0500001N1+01011+00811101451ADDGF102991021001999999041001MA1999999098531MD1210051+9999REMSYN066AAXX  30001 28334 42999 20000 10101 20081 39853 40145 52005 82040;
0142283340999992000063003004+57340+058210FM-12+024499999V0209999C000012200019N0500001N1+01501+01061101431ADDAA199000091GF102991021001999999041001MD1210021+9999REMSYN060AAXX  30031 28334 32999 20000 10150 20106 40143 52002 82040;EQDQ01  00002PRCP99
0187283340999992000063006004+57340+058210FM-12+024499999V0200901N004012200019N0500001N1+02081+00891101421ADDAA199000091GA1041+006909029GF104991041021008001001001KA1120N+01011MD1210051+9999REMSYN076AAXX  30061 28334 32599 40904 10208 20089 40142 52005 84200 333 20101 84823;EQDQ01  00002PRCP99
0138283340999992000063009004+57340+058210FM-12+024499999V0200901N004010300019N0500001N1+02081+00711101351ADDGA1041+006909029GF105991041021008001061001MD1810061+9999REMSYN070AAXX  30091 28334 42599 50904 10208 20071 40135 58006 84260 333 84823;
0159283340999992000063012004+57340+058210FM-12+024499999V0200901N004010069019N0500001N1+02261+00881101461ADDGA1051+006909029GF105991051081008001001001MA1999999098661MD1310121+9999REMSYN076AAXX  30121 28334 42599 50904 10226 20088 39866 40146 53012 85800 333 85823;
0165283340999992000063015004+57340+058210FM-12+024499999V0200901N002012200019N0500001N1+02151+00861101461ADDAA199000091GF102991021051008001001001KA1999M+02321MD1810011+9999REMSYN070AAXX  30151 28334 32599 20902 10215 20086 40146 58001 82500 333 10232;EQDQ01  00002PRCP99
0175283340999992000063018004+57340+058210FM-12+024499999V0209999C000012200019N0500001N1+01551+01091101551ADDAA199000091GA1001+999999999GF100991001001999999001001KA1999M+02321MD1310031+9999REMSYN064AAXX  30181 28334 32999 00000 10155 20109 40155 53003 333 10232;EQDQ01  00002PRCP99
0150283340999992000063021004+57340+058210FM-12+024499999V0209999C000012200019N0060001N1+01191+00991101641ADDAY101031AY201031GA1001+999999999GF100991001001999999001001MD1210051+9999MW1101REMSYN060AAXX  30211 28334 41956 00000 10119 20099 40164 52005 71000;
0171283340999992000070100004+57340+058210FM-12+024499999V0209999C000012200019N0020001N1+00871+00851101661ADDAY101061AY201061GA1001+999999999GF100991001001999999001001MA1999999098721MD1810011+9999MW1101REMSYN066AAXX  01001 28334 41920 00000 10087 20085 39872 40166 58001 71000;
0152283340999992000070103004+57340+058210FM-12+024499999V0209999C000012200019N0500001N1+01411+01121101621ADDAA199000091GA1001+999999999GF100991001001999999001001MD1310031+9999REMSYN054AAXX  01031 28334 32999 00000 10141 20112 40162 53003;EQDQ01  00002PRCP99
0187283340999992000070106004+57340+058210FM-12+024499999V0209999C000010069019N0500001N1+02151+01291101541ADDAA199000091GA1051+006909029GF105991051021008001001001KA1120N+00871MD1810021+9999REMSYN076AAXX  01061 28334 32599 50000 10215 20129 40154 58002 85200 333 20087 85823;EQDQ01  00002PRCP99
0138283340999992000070109004+57340+058210FM-12+024499999V0209999C000010069019N0500001N1+02311+01201101471ADDGA1061+006909029GF106991061021008001001001MD1710051+9999REMSYN070AAXX  01091 28334 42599 60000 10231 20120 40147 57005 86200 333 86823;
0159283340999992000070112004+57340+058210FM-12+024499999V0209999C000010069019N0500001N1+02301+01271101401ADDGA1061+006909029GF106991061021008001001001MA1999999098611MD1710071+9999REMSYN076AAXX  01121 28334 42599 60000 10230 20127 39861 40140 57007 86200 333 86823;
0187283340999992000070118004+57340+058210FM-12+024499999V0209999C000010060019N0500001N1+01871+01481101411ADDAA199000091GA1061+006009099GF106991061031008001031001KA1120M+02361MD1310021+9999REMSYN076AAXX  01181 28334 32599 60000 10187 20148 40141 53002 86330 333 10236 86920;EQDQ01  00002PRCP99
0138283340999992000070121004+57340+058210FM-12+024499999V0209999C000010060019N0500001N1+01421+01251101441ADDGA1061+006009099GF107991061031008001031001MD1810221+9999REMSYN070AAXX  01211 28334 42584 70000 10142 20125 40144 58022 86330 333 86920;
0133283340999992000070200004+57340+058210FM-12+024499999V0209999C000012200019N0500001N1+01511+01401101431ADDGF103991031001999999031001MA1999999098561MD1410001+9999REMSYN066AAXX  02001 28334 42999 30000 10151 20140 39856 40143 54000 83030;
0168283340999992000070203004+57340+058210FM-12+024499999V0209999C000010069019N0500001N1+01711+01491101361ADDAA199000091GA1061+006909029GF106991061011008001001001MD1810041+9999REMSYN070AAXX  02031 28334 32599 60000 10171 20149 40136 58004 86100 333 86823;EQDQ01  00002PRCP99
0187283340999992000070206004+57340+058210FM-12+024499999V0202301N002010069019N0500001N1+02201+01331101251ADDAA199000091GA1051+006909029GF106991051011008001001021KA1120N+01421MD1710061+9999REMSYN076AAXX  02061 28334 32599 62302 10220 20133 40125 57006 85102 333 20142 85823;EQDQ01  00002PRCP99
0138283340999992000070209004+57340+058210FM-12+024499999V0209999C000010069019N0500001N1+02261+01181101171ADDGA1051+006909099GF106991051031008001001011MD1710081+9999REMSYN070AAXX  02091 28334 42599 60000 10226 20118 40117 57008 85301 333 85923;
0159283340999992000070212004+57340+058210FM-12+024499999V0202301N002010069019N0500001N1+02241+01131101131ADDGA1061+006909099GF106991061031008001001001MA1999999098341MD1710041+9999REMSYN076AAXX  02121 28334 42599 62302 10224 20113 39834 40113 57004 86300 333 86923;
0187283340999992000070215004+57340+058210FM-12+024499999V0209999C000010069019N0500001N1+02181+01291101091ADDAA199000091GA1061+006909099GF106991061031008001041001KA1120M+02281MD1710041+9999REMSYN076AAXX  02151 28334 32599 60000 10218 20129 40109 57004 86340 333 10228 86923;EQDQ01  00002PRCP99
0165283340999992000070218004+57340+058210FM-12+024499999V0209999C000019999999N0500001N1+01901+01491101061ADDAA199000091GF106991061001999999031001KA1999M+02281MD1710061+9999REMSYN070AAXX  02181 28334 32999 60000 10190 20149 40106 57006 86030 333 10228;EQDQ01  00002PRCP99
0112283340999992000070221004+57340+058210FM-12+024499999V0209999C000019999999N0500001N1+01621+01291101001ADDGF105991051001999999031001MD1710081+9999REMSYN060AAXX  02211 28334 42984 50000 10162 20129 40100 57008 85030;
0153283340999992000070300004+57340+058210FM-12+024499999V0209999C000010069019N0500001N1+01481+01301999999ADDGA1051+006909099GF106991051031008001041001MA1999999098141MD1710021+9999REMSYN070AAXX  03001 28334 42599 60000 10148 20130 39814 57002 85340 333 85923;
0142283340999992000070303004+57340+058210FM-12+024499999V0209999C000019999999N0500001N1+01541+01281100971ADDAA199000091GF108991081001999999021999MD1710021+9999REMSYN060AAXX  03031 28334 32999 80000 10154 20128 40097 57002 8802/;EQDQ01  00002PRCP99
0165283340999992000070306004+57340+058210FM-12+024499999V0209999C000010300019N0500001N1+01911+01101100701ADDAA199000091GF108991021031008001021999KA1999N+01481MD1710221+9999REMSYN070AAXX  03061 28334 32599 80000 10191 20110 40070 57022 8232/ 333 20148;EQDQ01  00002PRCP99
0140283340999992000070309004+57340+058210FM-12+024499999V0209999C000010300019N0200001N1+01981+01431100571ADDAY181031AY221031GF108991021031008001041999MD1710101+9999MW1801REMSYN066AAXX  03091 28334 41570 80000 10198 20143 40057 57010 78082 8234/;
0187283340999992000070312004+57340+058210FM-12+024499999V0209999C000010060019N0200001N1+01711+01691100401ADDAY181061AY261061GA1081+006009029GF108991081071008001999999MA1999999097581MD1710191+9999MW1611REMSYN082AAXX  03121 28334 41570 80000 10171 20169 39758 40040 57019 76186 887// 333 88820;
0198283340999992000070315004+57340+058210FM-12+024499999V0209999C000010069019N0020001N1+01431+01321999999ADDAY161031AY221031GA1081+006909029GF108991999071008001021999KA1120M+02021MD1710311+9999MW1611REMSYN076AAXX  03151 28334 /1520 80000 10143 20132 57031 76162 8872/ 333 10202 88823;EQDQ01+000082SCOTLC
0221283340999992000070318004+57340+058210FM-12+024499999V0200501N002010069019N0060001N1+01411+01321099961ADDAA112006191AY161061AY221061GA1081+006909029GF108991999071008001021999KA1120M+02021MD1710151+9999MW1611REMSYN088AAXX  03181 28334 11556 80502 10141 20132 49996 57015 60062 76162 8872/ 333 10202 88823;EQDQ01+000082SCOTLC
0185283340999992000070321004+57340+058210FM-12+024499999V0200501N002010069019N0060001N1+01241+01171099891ADDAY161031AY221031GA1081+006909029GF108991999071008001021999MD1710081+9999MW1611REMSYN076AAXX  03211 28334 41556 80502 10124 20117 49989 57008 76162 8872/ 333 88823;EQDQ01+000082SCOTLC
0206283340999992000070400004+57340+058210FM-12+024499999V0209999C000010069019N0150001N1+01221+01191099891ADDAY161061AY221061GA1081+006909029GF108991999071008001021999MA1999999097041MD1410001+9999MW1611REMSYN082AAXX  04001 28334 41565 80000 10122 20119 39704 49989 54000 76162 8872/ 333 88823;EQDQ01+000082SCOTLC
0185283340999992000070403004+57340+058210FM-12+024499999V0209999C000010069019N0500001N1+01381+01341099921ADDAY161031AY221031GA1081+006909029GF108991999071008001021999MD1310031+9999MW1021REMSYN076AAXX  04031 28334 /1599 80000 10138 20134 49992 53003 70262 8872/ 333 88823;EQDQ01+000082SCOTLC
0202283340999992000070406004+57340+058210FM-12+024499999V0209999C000010069019N0500001N1+01441+01331100031ADDAA112045091AY161061AY251061GA1081+006909029GF108991081071008001999999KA1120N+01221MD1210121+9999MW1021REMSYN088AAXX  04061 28334 11599 80000 10144 20133 40003 52012 60452 70265 887// 333 20122 88823;
0138283340999992000070409004+57340+058210FM-12+024499999V0203201N002010060019N0500001N1+01641+01321100081ADDGA1061+006009099GF107991061031008001061001MD1210071+9999REMSYN070AAXX  04091 28334 42599 73202 10164 20132 40008 52007 86360 333 86920;
0159283340999992000070412004+57340+058210FM-12+024499999V0202201N002010051019N0500001N1+01841+01331100131ADDGA1061+005109099GF107991061031004501041001MA1999999097321MD1210061+9999REMSYN076AAXX  04121 28334 42499 72202 10184 20133 39732 40013 52006 86340 333 86917;
0165283340999992000070415004+57340+058210FM-12+024499999V02099999999990300019N0500001N1+01681+01301100201ADDAA199000091GF106991031081008001081041KA1999M+01981MD1210051+9999REMSYN070AAXX  04151 28334 32599 64502 10168 20130 40020 52005 83884 333 10198;EQDQ01  00002PRCP99
0187283340999992000070418004+57340+058210FM-12+024499999V0200701N004010069019N0500001N1+01251+00931100311ADDAA199000091GA1061+006909029GF107991061081008001081021KA1120M+01981MD1210071+9999REMSYN076AAXX  04181 28334 32584 70704 10125 20093 40031 52007 86882 333 10198 86823;EQDQ01  00002PRCP99
0206283340999992000070500004+57340+058210FM-12+024499999V0200701N002010069019N0200001N1+00821+00781100381ADDAY161061AY251061GA1081+006909069GF108991999071008001021999MA1999999097461MD1310051+9999MW1581REMSYN082AAXX  05001 28334 41570 80702 10082 20078 39746 40038 53005 75865 8872/ 333 88723;EQDQ01+000082SCOTLC
0221283340999992000070506004+57340+058210FM-12+024499999V0209999C000010069019N0200001N1+00941+00881100401ADDAA112002091AY161061AY251061GA1081+006909069GF108991999071008001021999KA1120N+00811MD1310041+9999MW1581REMSYN088AAXX  05061 28334 11570 80000 10094 20088 40040 53004 60022 75865 8872/ 333 20081 88723;EQDQ01+000082SCOTLC
0185283340999992000070509004+57340+058210FM-12+024499999V0200501N002010069019N0500001N1+01051+00931100491ADDAY161031AY251031GA1081+006909069GF108991999071008001021999MD1210101+9999MW1581REMSYN076AAXX  05091 28334 41599 80502 10105 20093 40049 52010 75865 8872/ 333 88723;EQDQ01+000082SCOTLC
0187283340999992000070512004+57340+058210FM-12+024499999V0200501N004010060019N0500001N1+01201+00921100571ADDAY161061AY251061GA1081+006009099GF108991081031008001999999MA1999999097681MD1210081+9999MW1021REMSYN082AAXX  05121 28334 41599 80504 10120 20092 39768 40057 52008 70265 883// 333 88920;
0157283340999992000070515004+57340+058210FM-12+024499999V0200501N004010051019N0500001N1+01211+00921100631ADDGA1071+005109029GF107991071081004501041001KA1120M+01281MD1210061+9999REMSYN076AAXX  05151 28334 /2499 70504 10121 20092 40063 52006 87840 333 10128 87817;
0174283340999992000070518004+57340+058210FM-12+024499999V0209999C000010300019N0500001N1+01011+00901100741ADDAA112015091GA1041+006909099GF106991041031008001031001KA1120M+01281MD1210091+9999REMSYN082AAXX  05181 28334 12584 60000 10101 20090 40074 52009 60152 84330 333 10128 84923;
0138283340999992000070521004+57340+058210FM-12+024499999V0209999C000010069019N0500001N1+00881+00821100751ADDGA1071+006909099GF107991071031008001001001MD1410001+9999REMSYN070AAXX  05211 28334 42584 70000 10088 20082 40075 54000 87300 333 87923;
0159283340999992000070600004+57340+058210FM-12+024499999V0209999C000010069019N0500001N1+00891+00851100761ADDGA1071+006909069GF107991071071008001021001MA1999999097841MD1310011+9999REMSYN076AAXX  06001 28334 42599 70000 10089 20085 39784 40076 53001 87720 333 87723;
0142283340999992000070603004+57340+058210FM-12+024499999V0209999C000019999999N0500001N1+00951+00861100911ADDAA199000091GF108991081001999999021999MD1210151+9999REMSYN060AAXX  06031 28334 32999 80000 10095 20086 40091 52015 8802/;EQDQ01  00002PRCP99
0187283340999992000070606004+57340+058210FM-12+024499999V0200501N004010069019N0500001N1+01201+00701100841ADDAA199000091GA1071+006909069GF107991071071008001021001KA1120N+00881MD1810041+9999REMSYN076AAXX  06061 28334 32599 70504 10120 20070 40084 58004 87720 333 20088 87723;EQDQ01  00002PRCP99
0138283340999992000070609004+57340+058210FM-12+024499999V0200501N002010069019N0500001N1+01481+00641100781ADDGA1051+006909099GF106991051031008001041001MD1310021+9999REMSYN070AAXX  06091 28334 42599 60502 10148 20064 40078 53002 85340 333 85923;
0187283340999992000070612004+57340+058210FM-12+024499999V0209999C000010069019N0500001N1+01421+00801100801ADDAY181061AY221061GA1051+006909099GF106991051031008001031001MA1999999097931MD1810041+9999MW1021REMSYN082AAXX  06121 28334 41599 60000 10142 20080 39793 40080 58004 70282 85330 333 85923;
0135283340999992000070615004+57340+058210FM-12+024499999V0209999C000019999999N0500001N1+01461+00711100871ADDGF106991051041999999041011KA1999M+01501MD1310081+9999REMSYN070AAXX  06151 28334 /2999 60000 10146 20071 40087 53008 85441 333 10150;
0152283340999992000070618004+57340+058210FM-12+024499999V0209999C000019999999N0500001N1+01181+00941101031ADDAA112000791GF105991051001999999031001KA1999M+01501MD1210131+9999REMSYN076AAXX  06181 28334 12984 50000 10118 20094 40103 52013 69902 85030 333 10150;
0150283340999992000070621004+57340+058210FM-12+024499999V0209999C000012200019N0060001N1+00991+00821101111ADDAY101031AY201031GA1001+999999999GF100991001001999999001001MD1210051+9999MW1101REMSYN060AAXX  06211 28334 41956 00000 10099 20082 40111 52005 71000;
0161283340999992000070700004+57340+058210FM-12+024499999V0209999C000019999999N0005001N1+00501+00411101181ADDAY141061AY211061GF105991051001999999031001MA1999999098211MD1210021+9999MW1441REMSYN072AAXX  07001 28334 41905 50000 10050 20041 39821 40118 52002 74441 85030;
0148283340999992000070703004+57340+058210FM-12+024499999V0209999C000012200019N0060001N1+00721+00641101181ADDAA199000091GF102991021081999999041011MD1210021+9999REMSYN066AAXX  07031 28334 31956 20000 10072 20064 40118 52002 82841 80002;EQDQ01  00002PRCP99
0159283340999992000070712004+57340+058210FM-12+024499999V0209999C000010069019N0500001N1+01821+01691101001ADDGA1061+006909029GF106991061021008001001001MA1999999098181MD1710041+9999REMSYN076AAXX  07121 28334 42599 60000 10182 20169 39818 40100 57004 86200 333 86823;
0165283340999992000070715004+57340+058210FM-12+024499999V0209999C000012200019N0500001N1+01881+00641100981ADDAA199000091GF101991011051008001001001KA1999M+02061MD1710021+9999REMSYN070AAXX  07151 28334 32599 10000 10188 20064 40098 57002 81500 333 10206;EQDQ01  00002PRCP99
0175283340999992000070718004+57340+058210FM-12+024499999V0209999C000012200019N0500001N1+01371+00761101181ADDAA199000091GA1001+999999999GF100991001001999999001001KA1999M+02061MD1310141+9999REMSYN064AAXX  07181 28334 32984 00000 10137 20076 40118 53014 333 10206;EQDQ01  00002PRCP99
0122283340999992000070721004+57340+058210FM-12+024499999V0209999C000012200019N0500001N1+00931+00511101241ADDGA1001+999999999GF100991001001999999001001MD1210011+9999REMSYN054AAXX  07211 28334 42984 00000 10093 20051 40124 52001;
0171283340999992000070800004+57340+058210FM-12+024499999V0209999C000012200019N0005001N1+00561+00401101291ADDAY141061AY201061GA1001+999999999GF100991001001999999001001MA1999999098311MD1410001+9999MW1441REMSYN066AAXX  08001 28334 41905 00000 10056 20040 39831 40129 54000 74440;
0180283340999992000070803004+57340+058210FM-12+024499999V0209999C000012200019N0500001N1+01051+00781101151ADDAA199000091AY141031AY201031GA1001+999999999GF100991001001999999001001MD1810071+9999MW1021REMSYN060AAXX  08031 28334 31999 00000 10105 20078 40115 58007 70240;EQDQ01  00002PRCP99
0165283340999992000070806004+57340+058210FM-12+024499999V0209999C000012200019N0500001N1+02041+00891101011ADDAA199000091GF101991011011008001001001KA1999N+00541MD1710041+9999REMSYN070AAXX  08061 28334 31599 10000 10204 20089 40101 57004 81100 333 20054;EQDQ01  00002PRCP99
0138283340999992000070809004+57340+058210FM-12+024499999V0209999C000010069019N0500001N1+02221+00841100951ADDGA1061+006909029GF106991061021008001001001MD1710051+9999REMSYN070AAXX  08091 28334 42599 60000 10222 20084 40095 57005 86200 333 86823;
0159283340999992000070812004+57340+058210FM-12+024499999V0209999C000010300019N0500001N1+02241+00821100851ADDGA1041+006909029GF106991041021008001031001MA1999999098061MD1710091+9999REMSYN076AAXX  08121 28334 42599 60000 10224 20082 39806 40085 57009 84230 333 84823;
0165283340999992000070815004+57340+058210FM-12+024499999V0209999C000012200019N0500001N1+02221+01021100761ADDAA199000091GF103991021021008001081001KA1999M+02311MD1710091+9999REMSYN070AAXX  08151 28334 32599 30000 10222 20102 40076 57009 82280 333 10231;EQDQ01  00002PRCP99
0165283340999992000070818004+57340+058210FM-12+024499999V0209999C000012200019N0500001N1+01571+01221100811ADDAA199000091GF102991011001999999041021KA1999M+02311MD1710011+9999REMSYN070AAXX  08181 28334 32984 20000 10157 20122 40081 57001 81042 333 10231;EQDQ01  00002PRCP99
0140283340999992000070821004+57340+058210FM-12+024499999V0209999C000012200019N0020001N1+01151+01021100851ADDAY101031AY201031GF102991011001999999041051MD1410001+9999MW1101REMSYN066AAXX  08211 28334 41920 20000 10115 20102 40085 54000 71000 81045;
0171283340999992000070900004+57340+058210FM-12+024499999V0209999C000012200019N0005001N1+00831+00771999999ADDAY141061AY201061GA1001+999999999GF100991001001999999001001MA1999999098011MD1310051+9999MW1441REMSYN066AAXX  09001 28334 41905 00000 10083 20077 39801 43005 53005 74440;
0180283340999992000070903004+57340+058210FM-12+024499999V0209999C000012200019N0060001N1+01191+01051100901ADDAA199000091AY141031AY201031GA1001+999999999GF100991001001999999001001MD1410001+9999MW1101REMSYN060AAXX  09031 28334 31956 00000 10119 20105 40090 54000 71040;EQDQ01  00002PRCP99
0175283340999992000070906004+57340+058210FM-12+024499999V0209999C000012200019N0500001N1+02071+01061100781ADDAA199000091GA1001+999999999GF100991001001999999001001KA1999N+00811MD1810041+9999REMSYN064AAXX  09061 28334 32999 00000 10207 20106 40078 58004 333 20081;EQDQ01  00002PRCP99
0131283340999992000070909004+57340+058210FM-12+024499999V0209999C000012200019N0500001N1+02331+01171100661ADDGF104991999021008001001001MD1710081+9999REMSYN060AAXX  09091 28334 42599 40000 10233 20117 40066 57008 83200;EQDQ01+000032SCOTLC
0152283340999992000070912004+57340+058210FM-12+024499999V0209999C000012200019N0500001N1+02421+01121100591ADDGF104991999021008001001001MA1999999097831MD1710061+9999REMSYN066AAXX  09121 28334 42599 40000 10242 20112 39783 40059 57006 83200;EQDQ01+000032SCOTLC
0165283340999992000070915004+57340+058210FM-12+024499999V0200901N002012200019N0500001N1+02251+01071100611ADDAA199000091GF102991021001999999041001KA1999M+02481MD1410001+9999REMSYN070AAXX  09151 28334 32999 20902 10225 20107 40061 54000 82040 333 10248;EQDQ01  00002PRCP99
0165283340999992000070918004+57340+058210FM-12+024499999V0209999C000012200019N0500001N1+01521+01171100731ADDAA199000091GF102991021001999999041001KA1999M+02481MD1310051+9999REMSYN070AAXX  09181 28334 32984 20000 10152 20117 40073 53005 82040 333 10248;EQDQ01  00002PRCP99
0112283340999992000070921004+57340+058210FM-12+024499999V0209999C000012200019N0500001N1+01201+01041100821ADDGF103991031001999999041001MD1210051+9999REMSYN060AAXX  09211 28334 42984 30000 10120 20104 40082 52005 83040;
0171283340999992000071000004+57340+058210FM-12+024499999V0209999C000012200019N0020001N1+00911+00861100911ADDAY141061AY201061GA1001+999999999GF100991001001999999001001MA1999999097981MD1210051+9999MW1461REMSYN066AAXX  10001 28334 41920 00000 10091 20086 39798 40091 52005 74640;
0180283340999992000071003004+57340+058210FM-12+024499999V0209999C000012200019N0060001N1+01371+01141100831ADDAA199000091AY141031AY201031GA1001+999999999GF100991001001999999001001MD1810021+9999MW1101REMSYN060AAXX  10031 28334 31956 00000 10137 20114 40083 58002 71040;EQDQ01  00002PRCP99
0215283340999992000071006004+57340+058210FM-12+024499999V0200701N004012200019N0500001N1+02191+01181100811ADDAA199000091AY141061AY211061GA1041+006909029GF104991041011008001001001KA1120N+00901MD1710021+9999MW1031REMSYN082AAXX  10061 28334 31599 40704 10219 20118 40081 57002 70341 84100 333 20090 84823;EQDQ01  00002PRCP99
0138283340999992000071009004+57340+058210FM-12+024499999V0200701N004010069019N0500001N1+02371+01251100681ADDGA1051+006909099GF105991051031008001001001MD1710031+9999REMSYN070AAXX  10091 28334 42599 50704 10237 20125 40068 57003 85300 333 85923;
0159283340999992000071012004+57340+058210FM-12+024499999V0200701N004010069019N0500001N1+02411+01281100611ADDGA1051+006909099GF105991051031008001001001MA1999999097851MD1710061+9999REMSYN076AAXX  10121 28334 42599 50704 10241 20128 39785 40061 57006 85300 333 85923;
0165283340999992000071015004+57340+058210FM-12+024499999V0209999C000010750019N0500001N1+02191+01131100731ADDAA199000091GF105991021031008001001021KA1999M+02481MD1310091+9999REMSYN070AAXX  10151 28334 32599 50000 10219 20113 40073 53009 82302 333 10248;EQDQ01  00002PRCP99
0165283340999992000071018004+57340+058210FM-12+024499999V0209999C000012200019N0500001N1+01721+01351100811ADDAA199000091GF102991021001999999041001KA1999M+02481MD1210041+9999REMSYN070AAXX  10181 28334 32984 20000 10172 20135 40081 52004 82040 333 10248;EQDQ01  00002PRCP99
0150283340999992000071021004+57340+058210FM-12+024499999V0209999C000012200019N0060001N1+01351+01171100951ADDAY101031AY201031GA1001+999999999GF100991001001999999001001MD1210101+9999MW1101REMSYN060AAXX  10211 28334 41956 00000 10135 20117 40095 52010 71000;
0171283340999992000071100004+57340+058210FM-12+024499999V0209999C000012200019N0060001N1+01061+00941101111ADDAY101061AY201061GA1001+999999999GF100991001001999999001001MA1999999098201MD1210121+9999MW1101REMSYN066AAXX  11001 28334 41956 00000 10106 20094 39820 40111 52012 71000;
0170283340999992000071103004+57340+058210FM-12+024499999V0209999C000012200019N0060001N1+01521+01301101211ADDAA199000091AY101031AY201031GF102991001001999999001021MD1210151+9999MW1101REMSYN066AAXX  11031 28334 31956 20000 10152 20130 40121 52015 71000 80002;EQDQ01  00002PRCP99
0168283340999992000071106004+57340+058210FM-12+024499999V0200901N002012200019N0500001N1+02231+01321101061ADDAA199000091GA1031+006909029GF103991031011008001001001MD1810081+9999REMSYN070AAXX  11061 28334 32599 30902 10223 20132 40106 58008 83100 333 83823;EQDQ01  00002PRCP99
0168283340999992000071109004+57340+058210FM-12+024499999V0200901N002012200019N0500001N1+02231+01321101061ADDAA199000091GA1031+006909029GF103991031011008001001001MD1810081+9999REMSYN070AAXX  11091 28334 32599 30902 10223 20132 40106 58008 83100 333 83823;EQDQ01  00002PRCP99
0187283340999992000071112004+57340+058210FM-12+024499999V0209999C000010069019N0500001N1+02291+01361101051ADDAY181061AY221061GA1051+006909099GF107991051031008001001021MA1999999098261MD1410001+9999MW1031REMSYN082AAXX  11121 28334 41599 70000 10229 20136 39826 40105 54000 70382 85302 333 85923;
0215283340999992000071115004+57340+058210FM-12+024499999V0200901N002010060019N0500001N1+02291+01471101141ADDAA199000091AY191031AY221031GA1081+006009099GF108991081091008001999999KA1120M+02331MD1310091+9999MW1291REMSYN082AAXX  11151 28334 31599 80902 10229 20147 40114 53009 72992 889// 333 10233 88920;EQDQ01  00002PRCP99
0193283340999992000071118004+57340+058210FM-12+024499999V0209999C000019999999N0500001N1+01661+01391101251ADDAA199000091AY191061AY221061GF108991051001999999071021KA1999M+02331MD1210051+9999MW1021REMSYN076AAXX  11181 28334 31984 80000 10166 20139 40125 52005 70292 85072 333 10233;EQDQ01  00002PRCP99
0112283340999992000071121004+57340+058210FM-12+024499999V0209999C000019999999N0500001N1+01541+01301101351ADDGF106991051001999999041999MD1210091+9999REMSYN060AAXX  11211 28334 42984 60000 10154 20130 40135 52009 8504/;
0161283340999992000071200004+57340+058210FM-12+024499999V0209999C000019999999N0060001N1+01271+01151101421ADDAY121061AY221061GF106991051001999999041021MA1999999098531MD1210041+9999MW1101REMSYN072AAXX  12001 28334 41956 60000 10127 20115 39853 40142 52004 71022 85042;
0170283340999992000071203004+57340+058210FM-12+024499999V0209999C000019999999N0060001N1+01521+01391101401ADDAA199000091AY121031AY221031GF106991061001999999071001MD1210061+9999MW1101REMSYN066AAXX  12031 28334 31956 60000 10152 20139 40140 52006 71022 86070;EQDQ01  00002PRCP99
0165283340999992000071206004+57340+058210FM-12+024499999V0209999C000019999999N0500001N1+02161+01451101451ADDAA199000091GF106991061001999999031001KA1999N+01271MD1210061+9999REMSYN070AAXX  12061 28334 32999 60000 10216 20145 40145 52006 86030 333 20127;EQDQ01  00002PRCP99
0112283340999992000071209004+57340+058210FM-12+024499999V0209999C000019999999N0500001N1+02401+01481101481ADDGF106991061001999999031001MD1210051+9999REMSYN060AAXX  12091 28334 42999 60000 10240 20148 40148 52005 86030;
0133283340999992000071212004+57340+058210FM-12+024499999V0200501N002010750019N0500001N1+02711+01361101521ADDGF105991021031008001001021MA1999999098761MD1210061+9999REMSYN066AAXX  12121 28334 42599 50502 10271 20136 39876 40152 52006 82302;
0165283340999992000071215004+57340+058210FM-12+024499999V0209999C000010750019N0500001N1+02461+01431101541ADDAA199000091GF105991021031008001001021KA1999M+02751MD1410001+9999REMSYN070AAXX  12151 28334 32599 50000 10246 20143 40154 54000 82302 333 10275;EQDQ01  00002PRCP99
0165283340999992000071218004+57340+058210FM-12+024499999V0209999C000019999999N0500001N1+01981+01521101551ADDAA199000091GF108991031001999999041071KA1999M+02751MD1810031+9999REMSYN070AAXX  12181 28334 32984 80000 10198 20152 40155 58003 83047 333 10275;EQDQ01  00002PRCP99
0140283340999992000071221004+57340+058210FM-12+024499999V0209999C000012200019N0060001N1+01661+01391101621ADDAY111031AY211031GF103991031001999999041001MD1310031+9999MW1101REMSYN066AAXX  12211 28334 41956 30000 10166 20139 40162 53003 71011 83040;
0191283340999992000071300004+57340+058210FM-12+024499999V0209999C000012200019N0005001N1+01061+01001101801ADDAA199000091AY141061AY211061GF103991031001999999041001MA1999999098871MD1210111+9999MW1461REMSYN072AAXX  13001 28334 31905 30000 10106 20100 39887 40180 52011 74641 83040;EQDQ01  00002PRCP99
0170283340999992000071303004+57340+058210FM-12+024499999V0209999C000012200019N0060001N1+01441+01291101771ADDAA199000091AY141031AY201031GF103991031001999999031001MD1410001+9999MW1101REMSYN066AAXX  13031 28334 31956 30000 10144 20129 40177 54000 71040 83030;EQDQ01  00002PRCP99
0193283340999992000071306004+57340+058210FM-12+024499999V0209999C000012200019N0500001N1+02371+01401101671ADDAA199000091AY141061AY201061GF103991031001999999031001KA1999N+01061MD1410001+9999MW1021REMSYN076AAXX  13061 28334 31999 30000 10237 20140 40167 54000 70240 83030 333 20106;EQDQ01  00002PRCP99
0157283340999992000071309004+57340+058210FM-12+024499999V0209999C000010069019N0500001N1+02731+01561101601ADDGA1051+006909029GF108991999021008001001001MD1810041+9999REMSYN070AAXX  13091 28334 42599 80000 10273 20156 40160 58004 85200 333 85823;EQDQ01+000052SCOTLC
0133283340999992000071312004+57340+058210FM-12+024499999V0209999C000012200019N0500001N1+02791+01471101531ADDGF103991031021008001001001MA1999999098781MD1710061+9999REMSYN066AAXX  13121 28334 42599 30000 10279 20147 39878 40153 57006 83200;
0165283340999992000071315004+57340+058210FM-12+024499999V0209999C000012200019N0500001N1+02631+01381101561ADDAA199000091GF102991021011008001001001KA1999M+02841MD1310011+9999REMSYN070AAXX  13151 28334 32599 20000 10263 20138 40156 53001 82100 333 10284;EQDQ01  00002PRCP99
0165283340999992000071318004+57340+058210FM-12+024499999V0209999C000012200019N0500001N1+01871+01461101761ADDAA199000091GF102991021001999999041001KA1999M+02841MD1210131+9999REMSYN070AAXX  13181 28334 32984 20000 10187 20146 40176 52013 82040 333 10284;EQDQ01  00002PRCP99
0112283340999992000071321004+57340+058210FM-12+024499999V0209999C000012200019N0500001N1+01551+01291101841ADDGF102991021001999999041001MD1210041+9999REMSYN060AAXX  13211 28334 42984 20000 10155 20129 40184 52004 82040;
0161283340999992000071400004+57340+058210FM-12+024499999V0209999C000012200019N0005001N1+01091+01051102001ADDAY141061AY201061GF103991031001999999041001MA1999999099071MD1210111+9999MW1461REMSYN072AAXX  14001 28334 41905 30000 10109 20105 39907 40200 52011 74640 83040;
0180283340999992000071403004+57340+058210FM-12+024499999V0209999C000012200019N0060001N1+01541+01271102001ADDAA199000091AY141031AY201031GA1001+999999999GF100991001001999999001001MD1210051+9999MW1101REMSYN060AAXX  14031 28334 31956 00000 10154 20127 40200 52005 71040;EQDQ01  00002PRCP99
0193283340999992000071406004+57340+058210FM-12+024499999V0209999C000012200019N0500001N1+02461+01181101911ADDAA199000091AY141061AY201061GF102991001001999999001021KA1999N+01091MD1410001+9999MW1031REMSYN076AAXX  14061 28334 31999 20000 10246 20118 40191 54000 70340 80002 333 20109;EQDQ01  00002PRCP99
0112283340999992000071409004+57340+058210FM-12+024499999V0209999C000012200019N0500001N1+02721+01221101981ADDGF102991021011008001001001MD1310091+9999REMSYN060AAXX  14091 28334 42599 20000 10272 20122 40198 53009 82100;
0159283340999992000071412004+57340+058210FM-12+024499999V0209999C000010069019N0500001N1+02641+01271101911ADDGA1051+006909029GF106991051011008001001021MA1999999099141MD1810071+9999REMSYN076AAXX  14121 28334 42599 60000 10264 20127 39914 40191 58007 85102 333 85823;
0165283340999992000071415004+57340+058210FM-12+024499999V0209999C000012200019N0500001N1+02501+01491101881ADDAA199000091GF102991001001999999001021KA1999M+02761MD1710041+9999REMSYN070AAXX  14151 28334 32999 20000 10250 20149 40188 57004 80002 333 10276;EQDQ01  00002PRCP99
0175283340999992000071418004+57340+058210FM-12+024499999V0209999C000012200019N0500001N1+01971+01281102011ADDAA199000091GA1001+999999999GF100991001001999999001001KA1999M+02761MD1310061+9999REMSYN064AAXX  14181 28334 32984 00000 10197 20128 40201 53006 333 10276;EQDQ01  00002PRCP99
0122283340999992000071421004+57340+058210FM-12+024499999V0209999C000012200019N0500001N1+01601+01241102121ADDGA1001+999999999GF100991001001999999001001MD1210081+9999REMSYN054AAXX  14211 28334 42984 00000 10160 20124 40212 52008;
0161283340999992000071500004+57340+058210FM-12+024499999V0209999C000012200019N0005001N1+01121+00981102191ADDAY141061AY201061GF102991021001999999041001MA1999999099261MD1210021+9999MW1461REMSYN072AAXX  15001 28334 41905 20000 10112 20098 39926 40219 52002 74640 82040;
0170283340999992000071503004+57340+058210FM-12+024499999V0209999C000012200019N0060001N1+01611+01441102191ADDAA199000091AY141031AY201031GF102991021011008001001001MD1210051+9999MW1101REMSYN066AAXX  15031 28334 31556 20000 10161 20144 40219 52005 71040 82100;EQDQ01  00002PRCP99
0193283340999992000071506004+57340+058210FM-12+024499999V0209999C000012200019N0060001N1+02491+01881102111ADDAA199000091AY141061AY201061GF101991011011008001001001KA1999N+01121MD1210011+9999MW1101REMSYN076AAXX  15061 28334 31556 10000 10249 20188 40211 52001 71040 81100 333 20112;EQDQ01  00002PRCP99
0166283340999992000071509004+57340+058210FM-12+024499999V0209999C000010069019N0500001N1+02721+01971102051ADDAY191031AY211031GA1061+006909099GF106991061031008001001001MD1810031+9999MW1291REMSYN076AAXX  15091 28334 41599 60000 10272 20197 40205 58003 72991 86300 333 86923;
0186283340999992000071512004+57340+058210FM-12+024499999V0209999C000010069019N0060001N1+02541+01941102051ADDAY191061AY211061GA1071+006909029GF107991071021008001061001MA1999999099271MD1710021+9999MW1291REMSYN081AAXX  15121 28334 41556 70000 10254 20194 39927 40205 5700272991 87260 333 87823;
0209283340999992000071515004+57340+058210FM-12+024499999V0209999C000019999999N0060001N1+02541+01921102051ADDAA199000091AY191031AY211031GF108991001001999999001071KA1999M+02851MD1410001+9999MW1031REMSYN076AAXX  15151 28334 31556 80000 10254 20192 40205 54000 70391 80007 333 10285;EQDQ01+008002SCOLCBQ02  00002PRCP99
0193283340999992000071518004+57340+058210FM-12+024499999V0209999C000019999999N0060001N1+02061+01811102131ADDAA199000091AY191061AY211061GF107991021001999999071051KA1999M+02851MD1310031+9999MW1101REMSYN076AAXX  15181 28334 31956 70000 10206 20181 40213 53003 71091 82075 333 10285;EQDQ01  00002PRCP99
0161283340999992000071600004+57340+058210FM-12+024499999V0209999C000019999999N0005001N1+01531+01501102301ADDAY141061AY221061GF108991001001999999001071MA1999999099411MD1210091+9999MW1461REMSYN072AAXX  16001 28334 41905 80000 10153 20150 39941 40230 52009 74642 80007;
0180283340999992000071603004+57340+058210FM-12+024499999V0209999C000012200019N0060001N1+01711+01611102301ADDAA199000091AY141031AY211031GA1001+999999999GF100991001001999999001001MD1210021+9999MW1101REMSYN060AAXX  16031 28334 31956 00000 10171 20161 40230 52002 71041;EQDQ01  00002PRCP99
0203283340999992000071606004+57340+058210FM-12+024499999V0209999C000012200019N0500001N1+02541+01631102161ADDAA199000091AY141061AY201061GA1001+999999999GF100991001001999999001001KA1999N+01531MD1810051+9999MW1021REMSYN070AAXX  16061 28334 32999 00000 10254 20163 40216 58005 70240 333 20153;EQDQ01  00002PRCP99
0138283340999992000071609004+57340+058210FM-12+024499999V0209999C000010060019N0500001N1+02821+01651102071ADDGA1061+006009029GF106991061021008001001001MD1710071+9999REMSYN070AAXX  16091 28334 42599 60000 10282 20165 40207 57007 86200 333 86820;
0159283340999992000071612004+57340+058210FM-12+024499999V0209999C000010069019N0500001N1+02901+01791101981ADDGA1051+006909029GF106991051021008001001011MA1999999099231MD1710081+9999REMSYN076AAXX  16121 28334 42599 60000 10290 20179 39923 40198 57008 85201 333 85823;
0187283340999992000071615004+57340+058210FM-12+024499999V0209999C000010069019N0500001N1+02541+01671102021ADDAA199000091GA1051+006909029GF107991051021008001001011KA1120M+02991MD1310011+9999REMSYN076AAXX  16151 28334 32599 70000 10254 20167 40202 53001 85201 333 10299 85823;EQDQ01  00002PRCP99
0165283340999992000071618004+57340+058210FM-12+024499999V0209999C000019999999N0500001N1+02111+01691102121ADDAA199000091GF108991031001999999071051KA1999M+02991MD1210051+9999REMSYN070AAXX  16181 28334 32984 80000 10211 20169 40212 52005 83075 333 10299;EQDQ01  00002PRCP99
0112283340999992000071621004+57340+058210FM-12+024499999V0209999C000019999999N0500001N1+01821+01461102151ADDGF108991001001999999001071MD1410001+9999REMSYN060AAXX  16211 28334 42984 80000 10182 20146 40215 54000 80007;
0161283340999992000071700004+57340+058210FM-12+024499999V0209999C000019999999N0005001N1+01491+01341102181ADDAY141061AY221061GF105991051001999999041001MA1999999099291MD1410001+9999MW1461REMSYN072AAXX  17001 28334 41905 50000 10149 20134 39929 40218 54000 74642 85040;
0170283340999992000071703004+57340+058210FM-12+024499999V0209999C000012200019N0060001N1+01881+01631101801ADDAA199000091AY141031AY211031GF101991011001999999041001MD1310041+9999MW1101REMSYN066AAXX  17031 28334 31956 10000 10188 20163 4018/ 53004 71041 81040;EQDQ01  00002PRCP99
0203283340999992000071706004+57340+058210FM-12+024499999V0209999C000012200019N0500001N1+02741+01761102061ADDAA199000091AY141061AY211061GA1001+999999999GF100991001001999999001001KA1999N+01491MD1810031+9999MW1011REMSYN070AAXX  17061 28334 31999 00000 10274 20176 40206 58003 70141 333 20149;EQDQ01  00002PRCP99
0112283340999992000071709004+57340+058210FM-12+024499999V0209999C000012200019N0500001N1+02951+01541102011ADDGF103991031011008001001001MD1710041+9999REMSYN060AAXX  17091 28334 42599 30000 10295 20154 40201 57004 83100;
0159283340999992000071712004+57340+058210FM-12+024499999V0209999C000010069019N0500001N1+03091+01631101901ADDGA1051+006909099GF105991051031008001001001MA1999999099161MD1710101+9999REMSYN076AAXX  17121 28334 42599 50000 10309 20163 39916 40190 57010 85300 333 85923;
0163283340999992000071715004+57340+058210FM-12+024499999V0209999C000019999999N0060001N1+02511+01781101921ADDAY191031AY281031GF106991051001999999081011KA1999M+03151MD1710021+9999MW1291REMSYN076AAXX  17151 28334 /1956 60000 10251 20178 40192 57002 72998 85081 333 10315;
0180283340999992000071718004+57340+058210FM-12+024499999V0209999C000012200019N0060001N1+02181+01841101981ADDAA112000591AY191061AY281061GF101991011001999999041001KA1999M+03151MD1310021+9999MW1101REMSYN082AAXX  17181 28334 11956 10000 10218 20184 40198 53002 69942 71098 81040 333 10315;
0150283340999992000071721004+57340+058210FM-12+024499999V0209999C000012200019N0060001N1+01901+01751102011ADDAY101031AY201031GA1001+999999999GF100991001001999999001001MD1410001+9999MW1101REMSYN060AAXX  17211 28334 41956 00000 10190 20175 40201 54000 71000;
0171283340999992000071800004+57340+058210FM-12+024499999V0209999C000012200019N0060001N1+01581+01511102031ADDAY101061AY201061GA1001+999999999GF100991001001999999001001MA1999999099151MD1810031+9999MW1101REMSYN066AAXX  18001 28334 41956 00000 10158 20151 39915 40203 58003 71000;
0180283340999992000071803004+57340+058210FM-12+024499999V0209999C000012200019N0060001N1+01751+01591101991ADDAA199000091AY141031AY201031GA1001+999999999GF100991001001999999001001MD1710011+9999MW1101REMSYN060AAXX  18031 28334 31956 00000 10175 20159 40199 57001 71040;EQDQ01  00002PRCP99
0203283340999992000071806004+57340+058210FM-12+024499999V0209999C000012200019N0500001N1+02761+01531101951ADDAA199000091AY141061AY201061GA1001+999999999GF100991001001999999001001KA1999N+01581MD1310051+9999MW1021REMSYN070AAXX  18061 28334 31999 00000 10276 20153 40195 53005 70240 333 20158;EQDQ01  00002PRCP99
0157283340999992000071809004+57340+058210FM-12+024499999V0209999C000010069019N0500001N1+02941+99999101871ADDGA1061+006909019GF106991061031008001001001MD1810071+9999REMSYN070AAXX  18091 28334 42599 60000 10294 20294 40187 58007 86300 333 86023;EQDQ01+002943ATOD  
0182283340999992000071812004+57340+058210FM-12+024499999V0209999C000010075019N0500001N1+02501+01471101841ADDAA124070191AY191061AY281061GF106991061031008001001001MA1999999099061MD1710061+9999MW1171REMSYN082AAXX  18121 28334 41599 60000 10250 20147 39906 40184 57006 71798 86300 333 78023;
0163283340999992000071815004+57340+058210FM-12+024499999V0209999C000010300019N0500001N1+02281+01331101821ADDAY191031AY221031GF105991021011008001041001KA1999M+02971MD1710041+9999MW1291REMSYN076AAXX  18151 28334 /1599 50000 10228 20133 40182 57004 72992 82140 333 10297;
0190283340999992000071818004+57340+058210FM-12+024499999V0209999C000012200019N0500001N1+02061+01661101841ADDAA112000791AY191061AY211061GA1001+999999999GF100991001001999999001001KA1999M+02971MD1410001+9999MW1011REMSYN076AAXX  18181 28334 11984 00000 10206 20166 40184 54000 69902 70191 333 10297;
0122283340999992000071821004+57340+058210FM-12+024499999V0209999C000012200019N0500001N1+01861+01631101841ADDGA1001+999999999GF100991001001999999001001MD1810021+9999REMSYN054AAXX  18211 28334 42984 00000 10186 20163 40184 58002;
0171283340999992000071900004+57340+058210FM-12+024499999V0209999C000012200019N0005001N1+01721+01591101871ADDAY141061AY201061GA1001+999999999GF100991001001999999001001MA1999999099011MD1310011+9999MW1461REMSYN066AAXX  19001 28334 41905 00000 10172 20159 39901 40187 53001 74640;
0180283340999992000071903004+57340+058210FM-12+024499999V0209999C000012200019N0060001N1+01981+01781101851ADDAA199000091AY141031AY201031GA1001+999999999GF100991001001999999001001MD1210011+9999MW1281REMSYN060AAXX  19031 28334 31956 00000 10198 20178 40185 52001 72840;EQDQ01  00002PRCP99
0175283340999992000071906004+57340+058210FM-12+024499999V0200501N002012200019N0500001N1+02551+01881101671ADDAA199000091GA1001+999999999GF100991001001999999001001KA1999N+01721MD1810121+9999REMSYN064AAXX  19061 28334 32999 00502 10255 20188 40167 58012 333 20172;EQDQ01  00002PRCP99
0112283340999992000071909004+57340+058210FM-12+024499999V0200501N002012200019N0500001N1+02721+01751101691ADDGF101991011011008001001001MD1310031+9999REMSYN060AAXX  19091 28334 42599 10502 10272 20175 40169 53003 81100;
0159283340999992000071912004+57340+058210FM-12+024499999V0200501N002012200019N0500001N1+02831+01481101781ADDGA1031+006909099GF103991031031008001001001MA1999999098911MD1810021+9999REMSYN076AAXX  19121 28334 42599 30502 10283 20148 39891 40178 58002 83300 333 83923;
0165283340999992000071915004+57340+058210FM-12+024499999V0209999C000012200019N0500001N1+02561+01621101751ADDAA199000091GF103991001001999999001091KA1999M+02881MD1310071+9999REMSYN070AAXX  19151 28334 32999 30000 10256 20162 40175 53007 80009 333 10288;EQDQ01  00002PRCP99
0175283340999992000071918004+57340+058210FM-12+024499999V0209999C000012200019N0500001N1+02051+01731101911ADDAA199000091GA1001+999999999GF100991001001999999001001KA1999M+02881MD1210111+9999REMSYN064AAXX  19181 28334 32984 00000 10205 20173 40191 52011 333 10288;EQDQ01  00002PRCP99
0122283340999992000071921004+57340+058210FM-12+024499999V0209999C000012200019N0500001N1+01811+01631101991ADDGA1001+999999999GF100991001001999999001001MD1210051+9999REMSYN054AAXX  19211 28334 42984 00000 10181 20163 40199 52005;
0161283340999992000072000004+57340+058210FM-12+024499999V0209999C000012200019N0060001N1+01521+01471102121ADDAY101061AY201061GF101991001001999999001011MA1999999099231MD1210091+9999MW1101REMSYN072AAXX  20001 28334 41956 10000 10152 20147 39923 40212 52009 71000 80001;
0170283340999992000072003004+57340+058210FM-12+024499999V0209999C000012200019N0060001N1+01811+01641102111ADDAA199000091AY101031AY201031GF101991011011008001001001MD1210021+9999MW1101REMSYN066AAXX  20031 28334 31556 10000 10181 20164 40211 52002 71000 81100;EQDQ01  00002PRCP99
0165283340999992000072006004+57340+058210FM-12+024499999V0200901N002010300019N0500001N1+02411+01611102081ADDAA199000091GF106991021021008001081001KA1999N+01521MD1210031+9999REMSYN070AAXX  20061 28334 32599 60902 10241 20161 40208 52003 82280 333 20152;EQDQ01  00002PRCP99
0138283340999992000072009004+57340+058210FM-12+024499999V0200501N004010069019N0500001N1+02551+01591102071ADDGA1061+006909099GF106991061031008001001001MD1210011+9999REMSYN070AAXX  20091 28334 42599 60504 10255 20159 40207 52001 86300 333 86923;
0159283340999992000072012004+57340+058210FM-12+024499999V0200501N004010069019N0500001N1+02601+01571102041ADDGA1061+006909099GF106991061031008001031001MA1999999099261MD1810031+9999REMSYN076AAXX  20121 28334 42599 60504 10260 20157 39926 40204 58003 86330 333 86923;
0165283340999992000072015004+57340+058210FM-12+024499999V0209999C000012200019N0500001N1+02521+01641102031ADDAA199000091GF102991021031008001001001KA1999M+02651MD1710021+9999REMSYN070AAXX  20151 28334 32599 20000 10252 20164 40203 57002 82300 333 10265;EQDQ01  00002PRCP99
0165283340999992000072018004+57340+058210FM-12+024499999V0209999C000012200019N0500001N1+02021+01681102171ADDAA199000091GF101991011031008001001001KA1999M+02651MD1310091+9999REMSYN070AAXX  20181 28334 32584 10000 10202 20168 40217 53009 81300 333 10265;EQDQ01  00002PRCP99
0122283340999992000072021004+57340+058210FM-12+024499999V0209999C000012200019N0500001N1+01831+01611102251ADDGA1001+999999999GF100991001001999999001001MD1210071+9999REMSYN054AAXX  20211 28334 42984 00000 10183 20161 40225 52007;
0171283340999992000072100004+57340+058210FM-12+024499999V0209999C000012200019N0005001N1+01391+01331102311ADDAY141061AY201061GA1001+999999999GF100991001001999999001001MA1999999099411MD1210021+9999MW1461REMSYN066AAXX  21001 28334 41905 00000 10139 20133 39941 40231 52002 74640;
0180283340999992000072103004+57340+058210FM-12+024499999V0209999C000012200019N0060001N1+01631+01441102351ADDAA199000091AY141031AY201031GA1001+999999999GF100991001001999999001001MD1210051+9999MW1101REMSYN060AAXX  21031 28334 31956 00000 10163 20144 40235 52005 71040;EQDQ01  00002PRCP99
0203283340999992000072106004+57340+058210FM-12+024499999V0209999C000012200019N0060001N1+02361+01601102241ADDAA199000091AY141061AY201061GA1001+999999999GF100991001001999999001001KA1999N+01391MD1810021+9999MW1101REMSYN070AAXX  21061 28334 31956 00000 10236 20160 40224 58002 71040 333 20139;EQDQ01  00002PRCP99
0138283340999992000072109004+57340+058210FM-12+024499999V0209999C000010069019N0500001N1+02721+01641102161ADDGA1051+006909029GF105991051021008001001001MD1710051+9999REMSYN070AAXX  21091 28334 42599 50000 10272 20164 40216 57005 85200 333 85823;
0152283340999992000072112004+57340+058210FM-12+024499999V0209999C000012200019N0500001N1+02821+01651101472ADDGF103991031021008001001001MA1999999099311MD1710081+9999REMSYN066AAXX  21121 28334 42599 30000 10282 20165 39931 40147 57008 83200;EQDQ01+101473APOSLP
0185283340999992000072115004+57340+058210FM-12+024499999V0209999C000010060019N0200001N1+01771+01591102301ADDAY191031AY281031GA1081+006009099GF108991081091008001999999KA1120M+02931MD1310131+9999MW1951REMSYN082AAXX  21151 28334 /1570 80000 10177 20159 40230 53013 79598 889// 333 10293 88920;
0202283340999992000072118004+57340+058210FM-12+024499999V0209999C000010060019N0060001N1+01671+01621102341ADDAA112007991AY191061AY281061GA1061+006009099GF106991061031008001001001KA1120M+02931MD1210021+9999MW1291REMSYN088AAXX  21181 28334 11556 60000 10167 20162 40234 52002 60082 72998 86300 333 10293 86920;
0150283340999992000072121004+57340+058210FM-12+024499999V0209999C000012200019N0005001N1+01501+01491102361ADDAY141031AY201031GA1001+999999999GF100991001001999999001001MD1410001+9999MW1441REMSYN060AAXX  21211 28334 41905 00000 10150 20149 40236 54000 74440;
0190283340999992000072200004+57340+058210FM-12+024499999V0209999C000012200019N0002001N1+01371+01371102391ADDAY141061AY201061GA1001+999999999GF100991001001999999001001MA1999999099471MD1310011+9999MW1461REMSYN066AAXX  22001 28334 41902 00000 10137 20137 39947 40239 53001 74740;EQDQ01+000472PRSWM1
0169283340999992000072203004+57340+058210FM-12+024499999V0209999C000012200019N0005001N1+01351+01351102421ADDAY141031AY201031GA1001+999999999GF100991001001999999001001MD1210031+9999MW1421REMSYN060AAXX  22031 28334 /1905 00000 10135 20135 40242 52003 74340;EQDQ01+000432PRSWM1
0190283340999992000072206004+57340+058210FM-12+024499999V0209999C000012200019N0060001N1+02161+01841102431ADDAA112000591AY141061AY201061GA1001+999999999GF100991001001999999001001KA1999N+01331MD1210101+9999MW1101REMSYN076AAXX  22061 28334 11956 00000 10216 20184 40243 52010 69942 71040 333 20133;
0112283340999992000072209004+57340+058210FM-12+024499999V0209999C000010750019N0500001N1+02581+01621102411ADDGF105991021031008001001021MD1210021+9999REMSYN060AAXX  22091 28334 42599 50000 10258 20162 40241 52002 82302;
0159283340999992000072212004+57340+058210FM-12+024499999V0209999C000010069019N0500001N1+02501+01401102401ADDGA1051+006909099GF105991051031008001001001MA1999999099601MD1810021+9999REMSYN076AAXX  22121 28334 42599 50000 10250 20140 39960 40240 58002 85300 333 85923;
0165283340999992000072215004+57340+058210FM-12+024499999V0209999C000012200019N0500001N1+02381+01551102421ADDAA199000091GF102991001001999999001021KA1999M+02611MD1310011+9999REMSYN070AAXX  22151 28334 32999 20000 10238 20155 40242 53001 80002 333 10261;EQDQ01  00002PRCP99
0175283340999992000072218004+57340+058210FM-12+024499999V0209999C000012200019N0500001N1+01961+01401102481ADDAA199000091GA1001+999999999GF100991001001999999001001KA1999M+02611MD1210011+9999REMSYN064AAXX  22181 28334 32984 00000 10196 20140 40248 52001 333 10261;EQDQ01  00002PRCP99
0150283340999992000072221004+57340+058210FM-12+024499999V0209999C000012200019N0060001N1+01751+01501102381ADDAY101031AY201031GA1001+999999999GF100991001001999999001001MD1810121+9999MW1101REMSYN060AAXX  22211 28334 41956 00000 10175 20150 40238 58012 71000;
0171283340999992000072300004+57340+058210FM-12+024499999V0209999C000012200019N0005001N1+01341+01261102321ADDAY141061AY201061GA1001+999999999GF100991001001999999001001MA1999999099411MD1710091+9999MW1461REMSYN066AAXX  23001 28334 41905 00000 10134 20126 39941 40232 57009 74640;
0180283340999992000072303004+57340+058210FM-12+024499999V0209999C000012200019N0060001N1+01581+01481102271ADDAA199000091AY141031AY201031GA1001+999999999GF100991001001999999001001MD1710021+9999MW1101REMSYN060AAXX  23031 28334 31956 00000 10158 20148 40227 57002 71040;EQDQ01  00002PRCP99
0203283340999992000072306004+57340+058210FM-12+024499999V0209999C000012200019N0500001N1+02421+01691101991ADDAA199000091AY141061AY201061GA1001+999999999GF100991001001999999001001KA1999N+01331MD1710201+9999MW1021REMSYN070AAXX  23061 28334 31999 00000 10242 20169 40199 57020 70240 333 20133;EQDQ01  00002PRCP99
0138283340999992000072309004+57340+058210FM-12+024499999V0203001N002010069019N0500001N1+02721+01661101801ADDGA1051+006909099GF105991051031008001001001MD1710151+9999REMSYN070AAXX  23091 28334 42599 53002 10272 20166 40180 57015 85300 333 85923;
0159283340999992000072312004+57340+058210FM-12+024499999V0202901N002010069019N0500001N1+02851+01731101651ADDGA1051+006909029GF105991051021008001061001MA1999999098901MD1710141+9999REMSYN076AAXX  23121 28334 42599 52902 10285 20173 39890 40165 57014 85260 333 85823;
0185283340999992000072315004+57340+058210FM-12+024499999V0209999C000010069019N0500001N1+02161+01831101711ADDAY191031AY281031GA1081+006909099GF108991081031008001999999KA1120M+02931MD1410001+9999MW1171REMSYN082AAXX  23151 28334 /1599 80000 10216 20183 40171 54000 71798 883// 333 10293 88923;
0190283340999992000072318004+57340+058210FM-12+024499999V0209999C000012200019N0500001N1+01921+01861101731ADDAA112000791AY191061AY281061GA1001+999999999GF100991001001999999001001KA1999M+02931MD1410001+9999MW1171REMSYN076AAXX  23181 28334 11984 00000 10192 20186 40173 54000 69902 71798 333 10293;
0150283340999992000072321004+57340+058210FM-12+024499999V0209999C000012200019N0005001N1+01721+01691101731ADDAY141031AY201031GA1001+999999999GF100991001001999999001001MD1810031+9999MW1461REMSYN060AAXX  23211 28334 41905 00000 10172 20169 40173 58003 74640;
0171283340999992000072400004+57340+058210FM-12+024499999V0209999C000012200019N0005001N1+01541+01521101701ADDAY141061AY201061GA1001+999999999GF100991001001999999001001MA1999999098831MD1710041+9999MW1461REMSYN066AAXX  24001 28334 41905 00000 10154 20152 39883 40170 57004 74640;
0140283340999992000072403004+57340+058210FM-12+024499999V0209999C000012200019N0005001N1+01661+01581101601ADDAY141031AY201031GF103991031001999999031001MD1710081+9999MW1461REMSYN066AAXX  24031 28334 /1905 30000 10166 20158 40160 57008 74640 83030;
0180283340999992000072406004+57340+058210FM-12+024499999V0209999C000019999999N0060001N1+02161+01771101531ADDAA112000791AY141061AY211061GF108991001001999999001071KA1999N+01541MD1710021+9999MW1101REMSYN082AAXX  24061 28334 11956 80000 10216 20177 40153 57002 69902 71041 80007 333 20154;
0185283340999992000072409004+57340+058210FM-12+024499999V0209999C000010060019N0060001N1+02171+01931101461ADDAY161031AY251031GA1081+006009069GF108991999061008001021999MD1710071+9999MW1201REMSYN076AAXX  24091 28334 41556 80000 10217 20193 40146 57007 72065 8862/ 333 88720;EQDQ01+000082SCOTLC
0206283340999992000072412004+57340+058210FM-12+024499999V0209999C000010060019N0060001N1+02061+01871101421ADDAY161061AY251061GA1081+006009069GF108991999071008001021999MA1999999098611MD1710051+9999MW1211REMSYN082AAXX  24121 28334 41556 80000 10206 20187 39861 40142 57005 72165 8872/ 333 88720;EQDQ01+000082SCOTLC
0185283340999992000072415004+57340+058210FM-12+024499999V0209999C000010069019N0060001N1+01821+01651101361ADDAY161031AY251031GA1061+006909029GF107991061071008001041001KA1120M+02291MD1710081+9999MW1211REMSYN082AAXX  24151 28334 /1556 70000 10182 20165 40136 57008 72165 86740 333 10229 86823;
0202283340999992000072418004+57340+058210FM-12+024499999V0209999C000010069019N0020001N1+01751+01691101311ADDAA112003091AY161061AY251061GA1061+006909029GF108991061071008001071999KA1120M+02291MD1710051+9999MW1601REMSYN088AAXX  24181 28334 11520 80000 10175 20169 40131 57005 60032 76065 8677/ 333 10229 86823;
0166283340999992000072421004+57340+058210FM-12+024499999V0209999C000010069019N0005001N1+01681+01611101301ADDAY161031AY241031GA1081+006909029GF108991081071008001999999MD1710021+9999MW1601REMSYN076AAXX  24211 28334 41505 80000 10168 20161 40130 57002 76064 887// 333 88823;
0187283340999992000072500004+57340+058210FM-12+024499999V0209999C000010069019N0005001N1+01651+01591101221ADDAY161061AY241061GA1061+006909029GF108991061071008001021999MA1999999098381MD1710081+9999MW1601REMSYN082AAXX  25001 28334 41505 80000 10165 20159 39838 40122 57008 76064 8672/ 333 86823;
0166283340999992000072503004+57340+058210FM-12+024499999V0209999C000010069019N0020001N1+01721+01651101191ADDAY141031AY221031GA1081+006909029GF108991081071008001999999MD1710031+9999MW1281REMSYN076AAXX  25031 28334 /1520 80000 10172 20165 40119 57003 72842 887// 333 88823;
0202283340999992000072506004+57340+058210FM-12+024499999V0209999C000010069019N0020001N1+01881+01781101141ADDAA112002091AY141061AY221061GA1081+006909029GF108991081071008001999999KA1120N+01651MD1710031+9999MW1101REMSYN088AAXX  25061 28334 11520 80000 10188 20178 40114 57003 60022 71042 887// 333 20165 88823;
0138283340999992000072509004+57340+058210FM-12+024499999V0209999C000010069019N0500001N1+02361+01871101011ADDGA1061+006909029GF106991061021008001001001MD1710081+9999REMSYN070AAXX  25091 28334 42599 60000 10236 20187 40101 57008 86200 333 86823;
0159283340999992000072512004+57340+058210FM-12+024499999V0209999C000010069019N0500001N1+02661+01841100911ADDGA1051+006909029GF105991051021008001001001MA1999999098171MD1710071+9999REMSYN076AAXX  25121 28334 42599 50000 10266 20184 39817 40091 57007 85200 333 85823;
0165283340999992000072515004+57340+058210FM-12+024499999V0209999C000012200019N0500001N1+02581+01951100841ADDAA199000091GF103991031001999999031001KA1999M+02741MD1710081+9999REMSYN070AAXX  25151 28334 32999 30000 10258 20195 40084 57008 83030 333 10274;EQDQ01  00002PRCP99
0193283340999992000072518004+57340+058210FM-12+024499999V0209999C000012200019N0060001N1+02131+01911100881ADDAA199000091AY111061AY211061GF103991031001999999031001KA1999M+02741MD1410001+9999MW1101REMSYN076AAXX  25181 28334 31956 30000 10213 20191 40088 54000 71011 83030 333 10274;EQDQ01  00002PRCP99
0140283340999992000072521004+57340+058210FM-12+024499999V0209999C000019999999N0005001N1+01981+01821100921ADDAY141031AY221031GF105991051001999999031001MD1310021+9999MW1461REMSYN066AAXX  25211 28334 41905 50000 10198 20182 40092 53002 74642 85030;
0161283340999992000072600004+57340+058210FM-12+024499999V0209999C000010300019N0005001N1+01691+01641100861ADDAY141061AY221061GF105991031011008001031001MA1999999098031MD1810081+9999MW1441REMSYN072AAXX  26001 28334 41505 50000 10169 20164 39803 40086 58008 74442 83130;
0196283340999992000072603004+57340+058210FM-12+024499999V0209999C000010069019N0060001N1+01971+01861100851ADDAA199000091AY141031AY221031GA1051+006909029GF105991051021008001001001MD1310011+9999MW1101REMSYN076AAXX  26031 28334 31556 50000 10197 20186 40085 53001 71042 85200 333 85823;EQDQ01  00002PRCP99
0215283340999992000072606004+57340+058210FM-12+024499999V0209999C000010069019N0500001N1+02701+02151100831ADDAA199000091AY141061AY221061GA1051+006909029GF105991051021008001001001KA1120N+01691MD1210061+9999MW1021REMSYN082AAXX  26061 28334 31599 50000 10270 20215 40083 52006 70242 85200 333 20169 85823;EQDQ01  00002PRCP99
0140283340999992000072609004+57340+058210FM-12+024499999V0209999C000010075019N0060001N1+01741+01671101091ADDAY191031AY281031GF106991051031008001041001MD1210161+9999MW1171REMSYN066AAXX  26091 28334 41556 60000 10174 20167 40109 52016 71798 85340;
0155283340999992000072612004+57340+058210FM-12+024499999V0209999C000019999999N0500001N1+02221+01791999999ADDAY191061AY281061GF105991051001999999041021MA1999999098121MD1810141+9999MW1011REMSYN066AAXX  26121 28334 41999 50000 10222 20179 39812 58014 70198 85042;
0135283340999992000072615004+57340+058210FM-12+024499999V0209999C000019999999N0500001N1+02261+01851100871ADDGF105991001001999999001021KA1999M+02751MD1710031+9999REMSYN070AAXX  26151 28334 /2999 50000 10226 20185 40087 57003 80002 333 10275;
0152283340999992000072618004+57340+058210FM-12+024499999V0209999C000019999999N0500001N1+02061+01811100931ADDAA112005191GF105991001001999999001021KA1999M+02751MD1310041+9999REMSYN076AAXX  26181 28334 12984 50000 10206 20181 40093 53004 60052 80002 333 10275;
0112283340999992000072621004+57340+058210FM-12+024499999V0209999C000019999999N0500001N1+01911+01731100951ADDGF105991051001999999031001MD1410001+9999REMSYN060AAXX  26211 28334 42984 50000 10191 20173 40095 54000 85030;
0161283340999992000072700004+57340+058210FM-12+024499999V0209999C000012200019N0020001N1+01701+01671100941ADDAY141061AY211061GF102991021001999999031001MA1999999098111MD1810021+9999MW1461REMSYN072AAXX  27001 28334 41920 20000 10170 20167 39811 40094 58002 74641 82030;
0170283340999992000072703004+57340+058210FM-12+024499999V0209999C000012200019N0060001N1+01901+01741100901ADDAA199000091AY141031AY201031GF102991001001999999001021MD1710031+9999MW1101REMSYN066AAXX  27031 28334 31956 20000 10190 20174 40090 57003 71040 80002;EQDQ01  00002PRCP99
0193283340999992000072706004+57340+058210FM-12+024499999V0209999C000012200019N0500001N1+02471+01841100811ADDAA199000091AY141061AY201061GF103991031011008001001011KA1999N+01701MD1710031+9999MW1031REMSYN076AAXX  27061 28334 31599 30000 10247 20184 40081 57003 70340 83101 333 20170;EQDQ01  00002PRCP99
0138283340999992000072709004+57340+058210FM-12+024499999V0202501N002012200019N0500001N1+02641+01911100791ADDGA1041+006909099GF105991041031008001001011MD1410001+9999REMSYN070AAXX  27091 28334 42599 52502 10264 20191 40079 54000 84301 333 84923;
0159283340999992000072712004+57340+058210FM-12+024499999V0202501N002010069019N0500001N1+02791+01901100771ADDGA1051+006909099GF106991051031008001001011MA1999999098041MD1810011+9999REMSYN076AAXX  27121 28334 42599 62502 10279 20190 39804 40077 58001 85301 333 85923;
0165283340999992000072715004+57340+058210FM-12+024499999V0209999C000012200019N0500001N1+02461+01591100761ADDAA199000091GF102991001001999999001091KA1999M+02841MD1710041+9999REMSYN070AAXX  27151 28334 32999 20000 10246 20159 40076 57004 80009 333 10284;EQDQ01  00002PRCP99
0165283340999992000072718004+57340+058210FM-12+024499999V0209999C000012200019N0500001N1+02021+01771100861ADDAA199000091GF103991031001999999031001KA1999M+02841MD1310051+9999REMSYN070AAXX  27181 28334 32984 30000 10202 20177 40086 53005 83030 333 10284;EQDQ01  00002PRCP99
0112283340999992000072721004+57340+058210FM-12+024499999V0209999C000012200019N0500001N1+01871+01691100841ADDGF102991021001999999041001MD1810031+9999REMSYN060AAXX  27211 28334 42984 20000 10187 20169 40084 58003 82040;
0190283340999992000072800004+57340+058210FM-12+024499999V0201901N999992200019N9999999N1+99999+99999100861ADDAY101061AY201061GF104991999001008001041001MA1999999098021MD1410001+9999MW1101REMSYN066AAXX  28001 28334 415// 41956 20000 39802 40086 54000 71000 82040;EQDQ01+005603WOSPD Q02+000022SCOTLC
0186283340999992000072803004+57340+058210FM-12+024499999V0209999C000012200019N0070001N1+01991+01731100891ADDAA199000091AY141031AY201031GF102991001001999999001999MD1310061+9999MW1101REMSYN066AAXX  28031 28334 31957 20000 10199 20173 40089 53006 71040 8040/;EQDQ01+000042SCOLCGQ02  00002PRCP99
0187283340999992000072806004+57340+058210FM-12+024499999V0201801N002012200019N0500001N1+02551+01901999999ADDAA199000091AY141061AY201061GF102991001001999999001051KA1999N+01621MD1410001+9999MW1031REMSYN070AAXX  28061 28334 31999 21802 10255 20190 54000 70340 80005 333 20162;EQDQ01  00002PRCP99
0166283340999992000072809004+57340+058210FM-12+024499999V0202001N002010060019N0070001N1+02031+01791101001ADDAY191031AY281031GA1061+006009099GF108991061091008001041021MD1310121+9999MW1951REMSYN076AAXX  28091 28334 41557 82002 10203 20179 40100 53012 79598 86942 333 86920;
0161283340999992000072812004+57340+058210FM-12+024499999V0202001N002010300019N0500001N1+02561+02091100901ADDAY191061AY281061GF106991031031008001041051MA1999999098151MD1810051+9999MW1011REMSYN072AAXX  28121 28334 41599 62002 10256 20209 39815 40090 58005 70198 83345;
0185283340999992000072815004+57340+058210FM-12+024499999V0209999C000010300019N0500001N1+02131+01861100961ADDAY191031AY281031GA1041+006909099GF106991041091008001031021KA1120M+02631MD1310021+9999MW1251REMSYN082AAXX  28151 28334 /1599 60000 10213 20186 40096 53002 72598 84932 333 10263 84923;
0180283340999992000072818004+57340+058210FM-12+024499999V0209999C000012200019N0060001N1+01981+01821101021ADDAA112004191AY191061AY281061GF103991011001999999041021KA1999M+02631MD1210041+9999MW1101REMSYN082AAXX  28181 28334 11956 30000 10198 20182 40102 52004 60042 71098 81042 333 10263;
0140283340999992000072821004+57340+058210FM-12+024499999V0209999C000012200019N0060001N1+01801+01741101041ADDAY111031AY211031GF104991021001999999041051MD1210011+9999MW1101REMSYN066AAXX  28211 28334 41956 40000 10180 20174 40104 52001 71011 82045;
0161283340999992000072900004+57340+058210FM-12+024499999V0209999C000019999999N0005001N1+01561+01521101061ADDAY141061AY211061GF108991031001999999081071MA1999999098211MD1810011+9999MW1461REMSYN072AAXX  29001 28334 41905 80000 10156 20152 39821 40106 58001 74641 83087;
0161283340999992000072903004+57340+058210FM-12+024499999V0209999C000012200019N0070001N1+01941+01871101021ADDAA199000021AY141031AY211031GA1001+999999999GF100991001001999999001001MD1410001+9999MW1101REMSYN060AAXX  29031 28334 31957 00000 10194 20187 40102 54000 71041;
0193283340999992000072906004+57340+058210FM-12+024499999V0209999C000012200019N0500001N1+02551+01841100961ADDAA199000091AY141061AY201061GF102991021001999999081001KA1999N+01561MD1410001+9999MW1031REMSYN076AAXX  29061 28334 31999 20000 10255 20184 40096 54000 70340 82080 333 20156;EQDQ01  00002PRCP99
0112283340999992000072909004+57340+058210FM-12+024499999V0209999C000012200019N0500001N1+02821+01901100911ADDGF103991021021008001081001MD1810021+9999REMSYN060AAXX  29091 28334 42599 30000 10282 20190 40091 58002 82280;
0133283340999992000072912004+57340+058210FM-12+024499999V0209999C000010300019N0500001N1+02811+01881100871ADDGF105991021021008001051001MA1999999098151MD1710041+9999REMSYN066AAXX  29121 28334 42599 50000 10281 20188 39815 40087 57004 82250;
0165283340999992000072915004+57340+058210FM-12+024499999V0209999C000019999999N0500001N1+02681+01961100801ADDAA199000091GF105991001001999999001011KA1999M+02901MD1710091+9999REMSYN070AAXX  29151 28334 32999 50000 10268 20196 40080 57009 80001 333 10290;EQDQ01  00002PRCP99
0165283340999992000072918004+57340+058210FM-12+024499999V0209999C000019999999N0500001N1+02291+02011100801ADDAA199000091GF107991071001999999051001KA1999M+02901MD1710031+9999REMSYN070AAXX  29181 28334 32984 70000 10229 20201 40080 57003 87050 333 10290;EQDQ01  00002PRCP99
0112283340999992000072921004+57340+058210FM-12+024499999V0209999C000019999999N0500001N1+02111+01901100671ADDGF105991051001999999041001MD1710141+9999REMSYN060AAXX  29211 28334 42984 50000 10211 20190 40067 57014 85040;
0187283340999992000073000004+57340+058210FM-12+024499999V0209999C000010060019N0060001N1+01991+01811100651ADDAY121061AY221061GA1071+006009099GF107991071051008001001001MA1999999097851MD1710041+9999MW1101REMSYN082AAXX  30001 28334 41556 70000 10199 20181 39785 40065 57004 71022 87500 333 87920;
0140283340999992000073003004+57340+058210FM-12+024499999V0209999C000010300019N0500001N1+02211+02021100661ADDAY181031AY221031GF105991031031008001081011MD1310041+9999MW1011REMSYN066AAXX  30031 28334 /1599 50000 10221 20202 40066 53004 70182 83381;
0202283340999992000073006004+57340+058210FM-12+024499999V0202301N004010069019N0500001N1+02291+01731100771ADDAA112000791AY181061AY221061GA1071+006909099GF107991071031008001001021KA1120N+01981MD1210101+9999MW1031REMSYN088AAXX  30061 28334 11599 72304 10229 20173 40077 52010 69902 70382 87302 333 20198 87923;
0138283340999992000073009004+57340+058210FM-12+024499999V0202501N004010069019N0500001N1+02451+01711100811ADDGA1051+006909099GF106991051031008001001021MD1210061+9999REMSYN070AAXX  30091 28334 42599 62504 10245 20171 40081 52006 85302 333 85923;
0187283340999992000073012004+57340+058210FM-12+024499999V0202301N002010060019N0200001N1+02021+01681100941ADDAY191061AY281061GA1061+006009099GF107991061091008001041021MA1999999098131MD1210081+9999MW1951REMSYN082AAXX  30121 28334 41570 72302 10202 20168 39813 40094 52008 79598 86942 333 86920;
0163283340999992000073015004+57340+058210FM-12+024499999V0209999C000012200019N0500001N1+02001+01791100961ADDAY181031AY221031GF104991021031008001041011KA1999M+02631MD1210021+9999MW1011REMSYN076AAXX  30151 28334 /1599 40000 10200 20179 40096 52002 70182 82341 333 10263;
0202283340999992000073018004+57340+058210FM-12+024499999V0209999C000010069019N0500001N1+01881+01781101091ADDAA112001091AY181061AY221061GA1051+006909099GF106991051031008001031001KA1120M+02631MD1210121+9999MW1801REMSYN088AAXX  30181 28334 11584 60000 10188 20178 40109 52012 60012 78082 85330 333 10263 85923;
0166283340999992000073021004+57340+058210FM-12+024499999V0209999C000010069019N0500001N1+01651+01571101121ADDAY181031AY221031GA1061+006909099GF106991061031008001001001MD1210011+9999MW1021REMSYN076AAXX  30211 28334 41584 60000 10165 20157 40112 52001 70282 86300 333 86923;
0187283340999992000073100004+57340+058210FM-12+024499999V0202301N002010069019N0500001N1+01741+01671101201ADDAY181061AY221061GA1071+006909099GF107991071031008001001001MA1999999098371MD1210091+9999MW1031REMSYN082AAXX  31001 28334 41599 72302 10174 20167 39837 40120 52009 70382 87300 333 87923;
0112283340999992000073103004+57340+058210FM-12+024499999V0209999C000019999999N0500001N1+01821+01481101261ADDGF108991081001999999021999MD1210061+9999REMSYN060AAXX  31031 28334 /2999 80000 10182 20148 40126 52006 8802/;
0174283340999992000073106004+57340+058210FM-12+024499999V0202501N002010069019N0500001N1+01811+01541101331ADDAA112001091GA1081+006909099GF108991081031008001999999KA1120N+01651MD1810071+9999REMSYN082AAXX  31061 28334 12599 82502 10181 20154 40133 58007 60012 883// 333 20165 88923;
0138283340999992000073109004+57340+058210FM-12+024499999V0202501N002010069019N0500001N1+02131+01471101331ADDGA1061+006909099GF107991061031008001001021MD1310031+9999REMSYN070AAXX  31091 28334 42599 72502 10213 20147 40133 53003 86302 333 86923;
0159283340999992000073112004+57340+058210FM-12+024499999V0202701N002012200019N0500001N1+02261+01321101351ADDGA1041+006909029GF106991031011008001001041MA1999999098551MD1210021+9999REMSYN076AAXX  31121 28334 42599 62702 10226 20132 39855 40135 52002 83104 333 84823;
0165283340999992000073115004+57340+058210FM-12+024499999V0202501N002012200019N0500001N1+02251+01481101351ADDAA199000091GF102991001001999999001021KA1999M+02281MD1410001+9999REMSYN070AAXX  31151 28334 32999 22502 10225 20148 40135 54000 80002 333 10228;EQDQ01  00002PRCP99
0165283340999992000073118004+57340+058210FM-12+024499999V0209999C000012200019N0500001N1+01831+01611101341ADDAA199000091GF102991001001999999001021KA1999M+02281MD1810041+9999REMSYN070AAXX  31181 28334 32984 20000 10183 20161 40134 58004 80002 333 10228;EQDQ01  00002PRCP99
0112283340999992000073121004+57340+058210FM-12+024499999V0209999C000012200019N0500001N1+01791+01641101191ADDGF102991001001999999001021MD1710151+9999REMSYN060AAXX  31211 28334 42984 20000 10179 20164 40119 57015 80002;
0161283340999992000080100004+57340+058210FM-12+024499999V0209999C000019999999N0060001N1+01661+01541101171ADDAY111061AY211061GF105991051001999999041001MA1999999098331MD1710031+9999MW1101REMSYN072AAXX  01001 28334 41956 50000 10166 20154 39833 40117 57003 71011 85040;
0168283340999992000080103004+57340+058210FM-12+024499999V0209999C000010069019N0500001N1+01821+01701100991ADDAA199000091GA1071+006909099GF107991071031008001001001MD1710161+9999REMSYN070AAXX  01031 28334 32599 70000 10182 20170 40099 57016 87300 333 87923;EQDQ01  00002PRCP99
0187283340999992000080106004+57340+058210FM-12+024499999V0202501N004010069019N0500001N1+02381+01841100881ADDAA199000091GA1061+006909099GF106991061031008001001001KA1120N+01661MD1710061+9999REMSYN076AAXX  01061 28334 32599 62504 10238 20184 40088 57006 86300 333 20166 86923;EQDQ01  00002PRCP99
0138283340999992000080109004+57340+058210FM-12+024499999V0202501N008012200019N0500001N1+02541+01351100891ADDGA1041+006909029GF104991041021008001001001MD1310021+9999REMSYN070AAXX  01091 28334 42599 42508 10254 20135 40089 53002 84200 333 84823;
0159283340999992000080112004+57340+058210FM-12+024499999V0202701N006012200019N0500001N1+02461+01351100941ADDGA1041+006909029GF104991041021008001001001MA1999999098171MD1210041+9999REMSYN076AAXX  01121 28334 42599 42706 10246 20135 39817 40094 52004 84200 333 84823;
0165283340999992000080115004+57340+058210FM-12+024499999V0203201N002012200019N0500001N1+02421+01361100981ADDAA199000091GF101991011021008001001001KA1999M+02601MD1210041+9999REMSYN070AAXX  01151 28334 32599 13202 10242 20136 40098 52004 81200 333 10260;EQDQ01  00002PRCP99
0165283340999992000080118004+57340+058210FM-12+024499999V0209999C000012200019N0500001N1+01931+01561101241ADDAA199000091GF102991001001999999001021KA1999M+02601MD1210211+9999REMSYN070AAXX  01181 28334 32984 20000 10193 20156 40124 52021 80002 333 10260;EQDQ01  00002PRCP99
0140283340999992000080121004+57340+058210FM-12+024499999V0209999C000012200019N0060001N1+01581+01351101271ADDAY101031AY201031GF103991031001999999031001MD1410001+9999MW1101REMSYN066AAXX  01211 28334 41956 30000 10158 20135 40127 54000 71000 83030;
0161283340999992000080200004+57340+058210FM-12+024499999V0209999C000012200019N0005001N1+01321+01251101331ADDAY141061AY201061GF103991031001999999031001MA1999999098451MD1310031+9999MW1441REMSYN072AAXX  02001 28334 41905 30000 10132 20125 39845 40133 53003 74440 83030;
0196283340999992000080203004+57340+058210FM-12+024499999V0209999C000010069019N0060001N1+01441+01331101321ADDAA199000091AY141031AY211031GA1071+006909059GF107991071051008001001001MD1410001+9999MW1101REMSYN076AAXX  02031 28334 31556 70000 10144 20133 40132 54000 71041 87500 333 87623;EQDQ01  00002PRCP99
0193283340999992000080206004+57340+058210FM-12+024499999V0209999C000019999999N0500001N1+02051+01571101051ADDAA199000091AY141061AY211061GF107991071001999999011001KA1999N+01321MD1810201+9999MW1031REMSYN076AAXX  02061 28334 31999 70000 10205 20157 40105 58020 70341 87010 333 20132;EQDQ01  00002PRCP99
0112283340999992000080209004+57340+058210FM-12+024499999V0209999C000019999999N0500001N1+02441+01601100921ADDGF107991071001999999051001MD1710101+9999REMSYN060AAXX  02091 28334 42999 70000 10244 20160 40092 57010 87050;
0133283340999992000080212004+57340+058210FM-12+024499999V0209999C000019999999N0500001N1+02471+01571100811ADDGF107991071001999999011001MA1999999098051MD1710101+9999REMSYN066AAXX  02121 28334 42999 70000 10247 20157 39805 40081 57010 87010;
0165283340999992000080215004+57340+058210FM-12+024499999V0200701N002012200019N0500001N1+02291+01811100731ADDAA199000091GF103991031001999999031001KA1999M+02721MD1710101+9999REMSYN070AAXX  02151 28334 32999 30702 10229 20181 40073 57010 83030 333 10272;EQDQ01  00002PRCP99
0165283340999992000080218004+57340+058210FM-12+024499999V0209999C000012200019N0500001N1+01931+01721100621ADDAA199000091GF102991021001999999041021KA1999M+02721MD1710131+9999REMSYN070AAXX  02181 28334 32984 20000 10193 20172 40062 57013 82042 333 10272;EQDQ01  00002PRCP99
0112283340999992000080221004+57340+058210FM-12+024499999V0209999C000012200019N0500001N1+01761+01641100451ADDGF101991001001999999001021MD1710141+9999REMSYN060AAXX  02211 28334 42984 10000 10176 20164 40045 57014 80002;
0161283340999992000080300004+57340+058210FM-12+024499999V0209999C000012200019N0060001N1+01571+01511100561ADDAY101061AY201061GF101991001001999999001021MA1999999097721MD1310081+9999MW1101REMSYN072AAXX  03001 28334 41956 10000 10157 20151 39772 40056 53008 71000 80002;
0170283340999992000080303004+57340+058210FM-12+024499999V0209999C000012200019N0060001N1+01751+01601100631ADDAA199000091AY141031AY201031GF102991011021008001041021MD1210091+9999MW1101REMSYN066AAXX  03031 28334 31556 20000 10175 20160 40063 52009 71040 81242;EQDQ01  00002PRCP99
0193283340999992000080306004+57340+058210FM-12+024499999V0209999C000010750019N0500001N1+02341+01851100591ADDAA199000091AY141061AY211061GF105991021021008001041011KA1999N+01551MD1210021+9999MW1031REMSYN076AAXX  03061 28334 31599 50000 10234 20185 40059 52002 70341 82241 333 20155;EQDQ01  00002PRCP99
0112283340999992000080309004+57340+058210FM-12+024499999V0209999C000012200019N0500001N1+02881+01641100291ADDGF103991021021008001001011MD1810241+9999REMSYN060AAXX  03091 28334 42599 30000 10288 20164 40029 58024 82201;
0133283340999992000080312004+57340+058210FM-12+024499999V0209999C000019999999N0500001N1+02891+01561100211ADDGF106991001001999999001021MA1999999097511MD1710081+9999REMSYN066AAXX  03121 28334 42999 60000 10289 20156 39751 40021 57008 80002;
0187283340999992000080406004+57340+058210FM-12+024499999V0202501N004010060019N0500001N1+01981+01591100661ADDAA199000091GA1071+006009069GF107991071071008001001001KA1120N+01531MD1210121+9999REMSYN076AAXX  04061 28334 32599 72504 10198 20159 40066 52012 87700 333 20153 87720;EQDQ01  00002PRCP99
0138283340999992000080409004+57340+058210FM-12+024499999V0202501N002010069019N0500001N1+02051+01471100671ADDGA1051+006909099GF106991051031008001001011MD1210021+9999REMSYN070AAXX  04091 28334 42599 62502 10205 20147 40067 52002 85301 333 85923;
0178283340999992000080412004+57340+058210FM-12+024499999V0209999C000010001519N0500001N1+02191+01461100601ADDGA1051+000159079GF108991999031008001071051MA1999999097821MD1810051+9999REMSYN076AAXX  04121 28334 42599 80000 10219 20146 39782 40060 58005 88375 333 85300;EQDQ01+000082SCOTLC
0203283340999992000080415004+57340+058210FM-12+024499999V0209999C000010069019N0500001N1+02071+01591100501ADDAA199000091GA1061+006909099GF108991999051008001071999KA1120M+02201MD1710111+9999REMSYN076AAXX  04151 28334 32599 80000 10207 20159 40050 57011 8857/ 333 10220 86923;EQDQ01+000082SCOTLCQ02  00002PRCP99
0165283340999992000080418004+57340+058210FM-12+024499999V0209999C000010300019N0500001N1+01761+01521100511ADDAA199000091GF106991021031008001031001KA1999M+02201MD1710021+9999REMSYN070AAXX  04181 28334 32584 60000 10176 20152 40051 57002 82330 333 10220;EQDQ01  00002PRCP99
0112283340999992000080421004+57340+058210FM-12+024499999V0209999C000019999999N0500001N1+01501+01341100451ADDGF105991051001999999031001MD1710081+9999REMSYN060AAXX  04211 28334 42984 50000 10150 20134 40045 57008 85030;
0159283340999992000080500004+57340+058210FM-12+024499999V0209999C000010069019N0500001N1+01461+01351100341ADDGA1051+006909099GF106991051031008001031001MA1999999097491MD1710121+9999REMSYN076AAXX  05001 28334 42599 60000 10146 20135 39749 40034 57012 85330 333 85923;
0168283340999992000080503004+57340+058210FM-12+024499999V0209999C000010069019N0500001N1+01801+01491100211ADDAA199000091GA1051+006909099GF106991051031008001031001MD1710091+9999REMSYN070AAXX  05031 28334 32599 60000 10180 20149 40021 57009 85330 333 85923;EQDQ01  00002PRCP99
0187283340999992000080506004+57340+058210FM-12+024499999V0202701N004010060019N0500001N1+01981+01311100131ADDAA199000091GA1061+006009099GF107991061031008001041021KA1120N+01461MD1710051+9999REMSYN076AAXX  05061 28334 32599 72704 10198 20131 40013 57005 86342 333 20146 86920;EQDQ01  00002PRCP99
0138283340999992000080509004+57340+058210FM-12+024499999V0202701N002010060019N0500001N1+02121+01061100101ADDGA1061+006009099GF107991061031008001081051MD1710021+9999REMSYN070AAXX  05091 28334 42599 72702 10212 20106 40010 57002 86385 333 86920;
0159283340999992000080512004+57340+058210FM-12+024499999V0202701N002010300019N0500001N1+02131+01231100091ADDGA1041+006009099GF106991041031008001041051MA1999999097321MD1710011+9999REMSYN076AAXX  05121 28334 42599 62702 10213 20123 39732 40009 57001 84345 333 84920;
0215283340999992000080515004+57340+058210FM-12+024499999V0202301N002010300019N0500001N1+01691+01291100191ADDAA199000091AY191031AY221031GA1041+006009099GF106991041031008001041051KA1120M+02411MD1310051+9999MW1021REMSYN082AAXX  05151 28334 31599 62302 10169 20129 40019 53005 70292 84345 333 10241 84920;EQDQ01  00002PRCP99
0185283340999992000080518004+57340+058210FM-12+024499999V0209999C000010300019N0500001N1+01511+01351100261ADDAY191061AY221061GA1041+006909099GF107991041031008001031001KA1120M+02411MD1210051+9999MW1031REMSYN082AAXX  05181 28334 41584 70000 10151 20135 40026 52005 70392 84330 333 10241 84923;
0138283340999992000080521004+57340+058210FM-12+024499999V0209999C000010069019N0500001N1+01441+01291100311ADDGA1071+006909099GF107991071031008001001001MD1210041+9999REMSYN070AAXX  05211 28334 42584 70000 10144 20129 40031 52004 87300 333 87923;
0178283340999992000080600004+57340+058210FM-12+024499999V0203201N002010060019N0500001N1+01321+00991100451ADDGA1081+006009029GF108991999071008001021999MA1999999097581MD1210121+9999REMSYN076AAXX  06001 28334 42599 83202 10132 20099 39758 40045 52012 8872/ 333 88820;EQDQ01+000082SCOTLC
0168283340999992000080603004+57340+058210FM-12+024499999V0203201N002010069019N0500001N1+01881+00951100391ADDAA199000091GA1051+006909099GF106991051031008001001021MD1410001+9999REMSYN070AAXX  06031 28334 32599 63202 10188 20095 40039 54000 85302 333 85923;EQDQ01  00002PRCP99
0187283340999992000080606004+57340+058210FM-12+024499999V0202501N002010069019N0500001N1+01641+00641100571ADDAA199000091GA1051+006909099GF107991051031008001001021KA1120N+01321MD1310151+9999REMSYN076AAXX  06061 28334 32599 72502 10164 20064 40057 53015 85302 333 20132 85923;EQDQ01  00002PRCP99
0138283340999992000080609004+57340+058210FM-12+024499999V0202501N002010069019N0500001N1+01941+00891100501ADDGA1051+006909099GF105991051031008001001001MD1810041+9999REMSYN070AAXX  06091 28334 42599 52502 10194 20089 40050 58004 85300 333 85923;
0187283340999992000080612004+57340+058210FM-12+024499999V0202301N002010069019N0200001N1+01601+01201100541ADDAY181061AY221061GA1071+006909099GF107991071031008001001001MA1999999097701MD1310011+9999MW1801REMSYN082AAXX  06121 28334 41570 72302 10160 20120 39770 40054 53001 78082 87300 333 87923;
0185283340999992000080615004+57340+058210FM-12+024499999V0209999C000010069019N0500001N1+01581+01401100511ADDAY181031AY221031GA1061+006909099GF106991061031008001001001KA1120M+02011MD1810031+9999MW1011REMSYN082AAXX  06151 28334 /1599 60000 10158 20140 40051 58003 70182 86300 333 10201 86923;
0202283340999992000080618004+57340+058210FM-12+024499999V0209999C000010060019N0500001N1+01311+01181100541ADDAA112000591AY181061AY261061GA1071+006009029GF107991071081008001001001KA1120M+02011MD1410001+9999MW1211REMSYN088AAXX  06181 28334 11584 70000 10131 20118 40054 54000 69962 72186 87800 333 10201 87820;
0112283340999992000080621004+57340+058210FM-12+024499999V0209999C000012200019N0500001N1+01121+01061100581ADDGF101991011001999999041001MD1310021+9999REMSYN060AAXX  06211 28334 42984 10000 10112 20106 40058 53002 81040;
0159283340999992000080700004+57340+058210FM-12+024499999V0209999C000010069019N0500001N1+00921+00861100651ADDGA1061+006909099GF106991061081008001041001MA1999999097731MD1210041+9999REMSYN076AAXX  07001 28334 42599 60000 10092 20086 39773 40065 52004 86840 333 86923;
0112283340999992000080703004+57340+058210FM-12+024499999V0209999C000010300019N0500001N1+01121+99999100671ADDGF106991031051008001081051MD1210041+9999REMSYN060AAXX  07031 28334 /2599 60000 10112 20188 40067 52004 83585;
0174283340999992000080706004+57340+058210FM-12+024499999V0202701N004010069019N0500001N1+01421+00921100681ADDAA112000791GA1051+006909099GF106991051031008001031001KA1120N+00881MD1210051+9999REMSYN082AAXX  07061 28334 12599 62704 10142 20092 40068 52005 69902 85330 333 20088 85923;
0166283340999992000080709004+57340+058210FM-12+024499999V0202701N004010069019N0500001N1+01481+01041100741ADDAY181031AY221031GA1051+006909099GF106991051031008001031001MD1210061+9999MW1251REMSYN076AAXX  07091 28334 41599 62704 10148 20104 40074 52006 72582 85330 333 85923;
0187283340999992000080712004+57340+058210FM-12+024499999V0202701N002010069019N0500001N1+01561+01311100691ADDAY181061AY221061GA1061+006909099GF106991051031008001001021MA1999999097841MD1810041+9999MW1251REMSYN082AAXX  07121 28334 41599 62702 10156 20131 39784 40069 58004 72582 85302 333 86923;
0185283340999992000080715004+57340+058210FM-12+024499999V0202701N002010069019N0500001N1+01341+01111100691ADDAY181031AY221031GA1051+006909099GF106991051031008001031011KA1120M+01601MD1710021+9999MW1251REMSYN082AAXX  07151 28334 /1599 62702 10134 20111 40069 57002 72582 85331 333 10160 85923;
0174283340999992000080718004+57340+058210FM-12+024499999V0209999C000010060019N0500001N1+01221+01111100601ADDAA112002091GA1061+006009099GF106991061031008001001001KA1120M+01601MD1710101+9999REMSYN082AAXX  07181 28334 11584 60000 10122 20111 40060 57010 60022 86300 333 10160 86920;
0166283340999992000080721004+57340+058210FM-12+024499999V0209999C000010069019N0500001N1+01001+00951100611ADDAY181031AY221031GA1051+006909099GF105991051031008001001001MD1710021+9999MW1011REMSYN076AAXX  07211 28334 41584 50000 10100 20095 40061 57002 70182 85300 333 85923;
0187283340999992000080800004+57340+058210FM-12+024499999V0202301N002010060019N0500001N1+00951+00931100621ADDAY181061AY221061GA1081+006009099GF108991081031008001999999MA1999999097711MD1310011+9999MW1031REMSYN082AAXX  08001 28334 41599 82302 10095 20093 39771 40062 53001 70382 883// 333 88920;
0166283340999992000080803004+57340+058210FM-12+024499999V0202701N002010060019N0200001N1+01181+01041100671ADDAY181031AY221031GA1081+006009099GF108991081031008001999999MD1210071+9999MW1801REMSYN076AAXX  08031 28334 /1570 82702 10118 20104 40067 52007 78082 883// 333 88920;
0202283340999992000080806004+57340+058210FM-12+024499999V0202701N002010060019N0500001N1+01291+01121100771ADDAA112002091AY181061AY251061GA1081+006009099GF108991081031008001999999KA1120N+00931MD1210111+9999MW1021REMSYN088AAXX  08061 28334 11599 82702 10129 20112 40077 52011 60022 70285 883// 333 20093 88920;
0138283340999992000080809004+57340+058210FM-12+024499999V0202701N004010060019N0500001N1+01401+00931100881ADDGA1051+006009099GF108991051031008001071999MD1210121+9999REMSYN070AAXX  08091 28334 42599 82704 10140 20093 40088 52012 8537/ 333 85920;
0187283340999992000080812004+57340+058210FM-12+024499999V0202701N002010060019N0500001N1+01291+01141101071ADDAY151061AY221061GA1051+006009099GF108991051031008001071999MA1999999098191MD1210181+9999MW1021REMSYN082AAXX  08121 28334 41599 82702 10129 20114 39819 40107 52018 70252 8537/ 333 85920;
0204283340999992000080815004+57340+058210FM-12+024499999V0202901N002010060019N0200001N1+01311+01181101171ADDAY171031AY251031GA1081+006009069GF108991999071008001021999KA1120M+01431MD1210101+9999MW1511REMSYN082AAXX  08151 28334 /1570 82902 10131 20118 40117 52010 75175 8872/ 333 10143 88720;EQDQ01+000082SCOTLC
0202283340999992000080818004+57340+058210FM-12+024499999V0209999C000010069019N0500001N1+01261+01141101241ADDAA112000591AY171061AY251061GA1081+006909099GF108991081031008001999999KA1120M+01431MD1210061+9999MW1021REMSYN088AAXX  08181 28334 11584 80000 10126 20114 40124 52006 69942 70275 883// 333 10143 88923;
0138283340999992000080821004+57340+058210FM-12+024499999V0209999C000010069019N0500001N1+01101+01031101371ADDGA1081+006909099GF108991081031008001999999MD1210111+9999REMSYN070AAXX  08211 28334 42584 80000 10110 20103 40137 52011 883// 333 88923;
0159283340999992000080900004+57340+058210FM-12+024499999V0209999C000010069019N0500001N1+01081+01001101391ADDGA1081+006909099GF108991081031008001999999MA1999999098481MD1210021+9999REMSYN076AAXX  09001 28334 42599 80000 10108 20100 39848 40139 52002 883// 333 88923;
0112283340999992000080903004+57340+058210FM-12+024499999V0209999C000019999999N0500001N1+01321+01251101391ADDGF108991081001999999021999MD1210031+9999REMSYN060AAXX  09031 28334 /2999 80000 10132 20125 40139 52003 8802/;
0152283340999992000080906004+57340+058210FM-12+024499999V0209999C000010300019N0500001N1+01611+01261101381ADDAA112000791GF107991021021008001031001KA1999N+01081MD1210021+9999REMSYN076AAXX  09061 28334 12599 70000 10161 20126 40138 52002 69902 82230 333 20108;
0138283340999992000080909004+57340+058210FM-12+024499999V0202701N002010060019N0500001N1+01801+01141101391ADDGA1061+006009099GF108991061031008001071999MD1210021+9999REMSYN070AAXX  09091 28334 42599 82702 10180 20114 40139 52002 8637/ 333 86920;
0159283340999992000080912004+57340+058210FM-12+024499999V0209999C000010069019N0500001N1+01991+01301101391ADDGA1061+006909099GF106991061031008001031001MA1999999098571MD1210021+9999REMSYN076AAXX  09121 28334 42599 60000 10199 20130 39857 40139 52002 86330 333 86923;
0165283340999992000080915004+57340+058210FM-12+024499999V0209999C000012200019N0500001N1+02041+01201101351ADDAA199000091GF102991001001999999001021KA1999M+02121MD1810031+9999REMSYN070AAXX  09151 28334 32999 20000 10204 20120 40135 58003 80002 333 10212;EQDQ01  00002PRCP99
0165283340999992000080918004+57340+058210FM-12+024499999V0209999C000012200019N0500001N1+01391+01221101491ADDAA199000091GF101991001001999999001021KA1999M+02121MD1410001+9999REMSYN070AAXX  09181 28334 32984 10000 10139 20122 40149 54006 80002 333 10212;EQDQ01  00002PRCP99
0169283340999992000080921004+57340+058210FM-12+024499999V0209999C000012200019N0060001N1+01181-01042101511ADDAY101031AY201031GA1001+999999999GF100991001001999999001001MD1410001+9999MW1101REMSYN060AAXX  09211 28334 41956 00000 10118 21104 40151 54000 71000;EQDQ01-001043ATOD  
0161283340999992000081000004+57340+058210FM-12+024499999V0209999C000019999999N0060001N1+01141-01031101481ADDAY111061AY211061GF107991071001999999071001MA1999999098571MD1810031+9999MW1101REMSYN072AAXX  10001 28334 41956 70000 10114 21103 39857 40148 58003 71011 87070;
0159283340999992000081003004+57340+058210FM-12+024499999V0209999C000010300019N0060001N1+01281+01222101451ADDAY181031AY221031GF107991021031008001031001MD1710021+9999MW1101REMSYN066AAXX  10031 28334 /1556 70000 10128 20122 40145 57002 71082 82330;EQDQ01+001223ATOD  
0199283340999992000081006004+57340+058210FM-12+024499999V0209999C000019999999N0500001N1+02001+01511999999ADDAA112000591AY181061AY221061GF105991051001999999031001KA1999N+01141MD1710081+9999MW1011REMSYN082AAXX  10061 28334 11999 50000 10200 20151 40028 57008 69942 70182 85030 333 20114;EQDQ01+100283APOSLP
0166283340999992000081009004+57340+058210FM-12+024499999V0209999C000010060019N0200001N1+02251+01661101131ADDAY191031AY281031GA1081+006009099GF108991081031008001999999MD1710131+9999MW1951REMSYN076AAXX  10091 28334 41570 80000 10225 20166 40113 57013 79598 883// 333 88920;
0185283340999992000081015004+57340+058210FM-12+024499999V0201801N002010060019N0200001N1+02081+01991100921ADDAY191031AY221031GA1081+006009099GF108991081091008001999999KA1120M+02301MD1710151+9999MW1951REMSYN082AAXX  10151 28334 /1570 81802 10208 20199 40092 57015 79592 889// 333 10230 88920;
0172283340999992000081103004+57340+058210FM-12+024499999V0209999C000010060019N0020001N1+01451+99999100861ADDAY161031AY241031GA1081+006009059GF108991081001008001021999MD1710031+9999MW1621REMSYN082AAXX  11031 28334 /1520 80000 10145 20147 40086 57003 76264 8802/ 333 88520 96042;
0202283340999992000081106004+57340+058210FM-12+024499999V0209999C000010060019N0020001N1+01561+01541100901ADDAA112007991AY161061AY241061GA1081+006009029GF108991081001008001021999KA1120N+01261MD1310061+9999MW1621REMSYN088AAXX  11061 28334 11520 80000 10156 20154 40090 53006 60082 76264 8802/ 333 20126 88520;
0187283340999992000081112004+57340+058210FM-12+024499999V0209999C000010069019N0500001N1+01861+01371101051ADDAY161061AY221061GA1051+006909099GF106991051031008001001021MA1999999098231MD1210151+9999MW1021REMSYN082AAXX  11121 28334 41599 60000 10186 20137 39823 40105 52015 70262 85302 333 85923;
0162283340999992000081118004+57340+058210FM-12+024499999V0209999C000012200019N0500001N1+01431+01281101011ADDAA112005191GA1001+999999999GF100991001001999999001001KA1999M+01901MD1810111+9999REMSYN070AAXX  11181 28334 12984 00000 10143 20128 40101 58011 60052 333 10190;
0112283340999992000081121004+57340+058210FM-12+024499999V0209999C000019999999N0005001N1+01351+01261101071ADDGF105991051001999999031001MD1310051+9999REMSYN060AAXX  11211 28334 41905 50000 10135 20126 40107 53005 85030;
0171283340999992000081200004+57340+058210FM-12+024499999V0209999C000010003019N0005001N1+01241+01221101091ADDAY141061AY211061GA1091+999999999GF109991091999999999999999MA1999999098211MD1210011+9999MW1451REMSYN066AAXX  12001 28334 41/05 90000 10124 20122 39821 40109 52001 74541;
0180283340999992000081203004+57340+058210FM-12+024499999V0209999C000012200019N0005001N1+00871+00851101161ADDAA199000091AY141031AY201031GA1001+999999999GF100991001001999999001001MD1210021+9999MW1441REMSYN060AAXX  12031 28334 31905 00000 10087 20085 40116 52002 74440;EQDQ01  00002PRCP99
0215283340999992000081206004+57340+058210FM-12+024499999V0202501N002010069019N0500001N1+01871+01121101111ADDAA199000091AY141061AY211061GA1051+006909029GF106991051011008001001011KA1120N+00851MD1210051+9999MW1031REMSYN082AAXX  12061 28334 31599 62502 10187 20112 40111 52005 70341 85101 333 20085 85823;EQDQ01  00002PRCP99
0166283340999992000081209004+57340+058210FM-12+024499999V0209999C000010069019N0500001N1+01941+01121101071ADDAY181031AY221031GA1061+006909029GF107991061021008001061011MD1810031+9999MW1251REMSYN076AAXX  12091 28334 41599 70000 10194 20112 40107 58003 72582 86261 333 86823;
0161283340999992000081212004+57340+058210FM-12+024499999V0209999C000010750019N0500001N1+01631+01361101101ADDAY191061AY281061GF105991031031008001001021MA1999999098251MD1410001+9999MW1291REMSYN072AAXX  12121 28334 41599 50000 10163 20136 39825 40110 54000 72998 83302;
0185283340999992000081215004+57340+058210FM-12+024499999V0209999C000010060019N0500001N1+01411+01261101091ADDAY191031AY281031GA1051+006009099GF106991051091008001071001KA1120M+02001MD1810021+9999MW1951REMSYN082AAXX  12151 28334 /1599 60000 10141 20126 40109 58002 79598 85970 333 10200 85920;
0253283340999992000081218004+57340+058210FM-12+024499999V0209999C000012200019N0500001N1+01351+01191101241ADDAA112007191AY191061AY281061GA1051+006909099GF199999999999999999001001KA1120M+02001MD1310131+9999MW1011REMSYN088AAXX  12181 28334 11584 00000 10135 20119 40124 53013 60072 70198 85330 333 10200 85923;EQDQ01+000002SCOTCVQ02+000002SCOTLCQ03+000002SCOLCG
0112283340999992000081221004+57340+058210FM-12+024499999V0209999C000012200019N0500001N1+01211+01051101321ADDGF102991001001999999001021MD1210071+9999REMSYN060AAXX  12211 28334 42984 20000 10121 20105 40132 52007 80002;
0133283340999992000081300004+57340+058210FM-12+024499999V0202001N002012200019N0500001N1+00941+00841101411ADDGF102991021001999999041001MA1999999098491MD1210061+9999REMSYN066AAXX  13001 28334 42984 22002 10094 20084 39849 40141 52006 82040;
0123283340999992000081303004+57340+058210FM-12+024499999V0202501N004019999999N0060001N1+01061+00941101501ADDAA199000021GF108991081001999999021999MD1210091+9999REMSYN060AAXX  13031 28334 32956 82504 10106 20094 40150 52009 8802/;
0187283340999992000081306004+57340+058210FM-12+024499999V0202701N004010060019N0500001N1+01571+01121101411ADDAA199000091GA1071+006009099GF107991071031008001001001KA1120N+00941MD1810031+9999REMSYN076AAXX  13061 28334 32599 72704 10157 20112 40141 58003 87300 333 20094 87920;EQDQ01  00002PRCP99
0138283340999992000081309004+57340+058210FM-12+024499999V0202701N004010069019N0500001N1+01821+00851101421ADDGA1061+006909029GF106991061021008001041001MD1310021+9999REMSYN070AAXX  13091 28334 42599 62704 10182 20085 40142 53002 86240 333 86823;
0187283340999992000081312004+57340+058210FM-12+024499999V0203201N004010051019N0500001N1+01561+01051101471ADDAY181061AY221061GA1061+005109099GF106991061031004501061001MA1999999098601MD1210031+9999MW1251REMSYN082AAXX  13121 28334 41499 63204 10156 20105 39860 40147 52003 72582 86360 333 86917;
0185283340999992000081315004+57340+058210FM-12+024499999V0209999C000010060019N0500001N1+01581+01331101501ADDAY181031AY221031GA1061+006009099GF106991061031008001081021KA1120M+01981MD1210031+9999MW1021REMSYN082AAXX  13151 28334 /1599 60000 10158 20133 40150 52003 70282 86382 333 10198 86920;
0180283340999992000081318004+57340+058210FM-12+024499999V0209999C000019999999N0500001N1+01331+01121101551ADDAA112001091AY181061AY221061GF105991051001999999031001KA1999M+01981MD1210031+9999MW1011REMSYN082AAXX  13181 28334 11984 50000 10133 20112 40155 52003 60012 70182 85030 333 10198;
0161283340999992000081400004+57340+058210FM-12+024499999V0209999C000012200019N0005001N1+00941+00901101601ADDAY141061AY211061GF101991011001999999041001MA1999999098671MD1310021+9999MW1451REMSYN072AAXX  14001 28334 41905 10000 10094 20090 39867 40160 53002 74541 81040;
0165283340999992000081406004+57340+058210FM-12+024499999V0202301N003010120019N0500001N1+01701+00671100991ADDAA199000091GF105991051051012501001001KA1999N+00971MD1710071+9999REMSYN070AAXX  14061 28334 32699 52303 10170 20067 40099 57007 85500 333 20097;EQDQ01  00002PRCP99
0138283340999992000081409004+57340+058210FM-12+024499999V0209999C000010060019N0500001N1+01901+01261101391ADDGA1081+006009099GF108991081031008001999999MD1710081+9999REMSYN070AAXX  14091 28334 41599 80000 10190 20126 40139 57008 883// 333 88920;
0159283340999992000081412004+57340+058210FM-12+024499999V0202001N002010060019N0500001N1+01631+01251101411ADDGA1081+006009099GF108991081031008001999999MA1999999098551MD1710011+9999REMSYN076AAXX  14121 28334 42599 82002 10163 20125 39855 40141 57001 883// 333 88920;
0221283340999992000081418004+57340+058210FM-12+024499999V0209999C000010060019N0060001N1+01361+01301101161ADDAA112000391AY181061AY261061GA1081+006009069GF108991999071008001021999KA1120M+02111MD1710151+9999MW1581REMSYN088AAXX  14181 28334 11556 80000 10136 20130 40116 57015 69932 75886 8872/ 333 10211 88720;EQDQ01+000082SCOTLC
0185283340999992000081421004+57340+058210FM-12+024499999V0209999C000010045019N0060001N1+01371+01271101011ADDAY151031AY221031GA1081+004509069GF108991999071004501021999MD1710141+9999MW1501REMSYN076AAXX  14211 28334 41456 80000 10137 20127 40101 57014 75052 8872/ 333 88715;EQDQ01+000082SCOTLC
0187283340999992000081500004+57340+058210FM-12+024499999V0209999C000010069019N0060001N1+01321+01261100931ADDAY151061AY221061GA1081+006909029GF108991081001008001021999MA1999999098061MD1710081+9999MW1101REMSYN082AAXX  15001 28334 41556 80000 10132 20126 39806 40093 57008 71052 8802/ 333 88523;
0166283340999992000081503004+57340+058210FM-12+024499999V0209999C000010069019N0060001N1+01341+01301100881ADDAY161031AY221031GA1081+006909029GF108991081001008001021999MD1710051+9999MW1101REMSYN076AAXX  15031 28334 /1556 80000 10134 20130 40088 57005 71062 8802/ 333 88523;
0180283340999992000081506004+57340+058210FM-12+024499999V0209999C000019999999N0500001N1+01421+01311100981ADDAA112002091AY161061AY221061GF108991081001999999021999KA1999N+01311MD1310111+9999MW1021REMSYN082AAXX  15061 28334 11999 80000 10142 20131 40098 53011 60022 70262 8802/ 333 20131;
0138283340999992000081509004+57340+058210FM-12+024499999V0209999C000010069019N0500001N1+01701+01421100761ADDGA1051+006909099GF106991051031008001041001MD1810201+9999REMSYN070AAXX  15091 28334 42599 60000 10170 20142 40076 58020 85340 333 85923;
0159283340999992000081512004+57340+058210FM-12+024499999V0209999C000010069019N0500001N1+01941+01281100611ADDGA1051+006909099GF106991051031008001001021MA1999999097801MD1710121+9999REMSYN076AAXX  15121 28334 42599 60000 10194 20128 39780 40061 57012 85302 333 85923;
0165283340999992000081515004+57340+058210FM-12+024499999V0209999C000010300019N0500001N1+01871+01421100671ADDAA199000091GF105991021031008001041001KA1999M+01971MD1310061+9999REMSYN070AAXX  15151 28334 32599 50000 10187 20142 40067 53006 82340 333 10197;EQDQ01  00002PRCP99
0135283340999992000081518004+57340+058210FM-12+024499999V0209999C000019999999N0500001N1+01361+01271100601ADDGF105991051001999999041001KA1999M+01971MD1810131+9999REMSYN070AAXX  15181 28334 42984 50000 10136 20127 40060 58013 85040 333 10197;
0150283340999992000081521004+57340+058210FM-12+024499999V0209999C000012200019N0005001N1+01131+01091100571ADDAY141031AY211031GA1001+999999999GF100991001001999999001001MD1710051+9999MW1461REMSYN060AAXX  15211 28334 41905 00000 10113 20109 40057 57005 74641;
0190283340999992000081600004+57340+058210FM-12+024499999V0209999C000012200019N0005001N1+01001+00951100521ADDAY141061AY211061GA1001+999999999GF100991001001999999001001MA1999999097621MD1710061+9999MW1441REMSYN066AAXX  16001 28334 41905 00000 10100 20095 39762 40052 57006 74541;EQDQ01+000452PRSWM1
0196283340999992000081606004+57340+058210FM-12+024499999V0209999C000010300019N0060001N1+01271+01211100441ADDAA199000021AY161061AY221061GA1031+006909099GF108991031031008001021999KA1120N+01001MD1710011+9999MW1611REMSYN082AAXX  16061 28334 31556 80000 10127 20121 40044 57001 76162 8332/ 333 20100 83923;
0166283340999992000081609004+57340+058210FM-12+024499999V0209999C000010069019N0200001N1+01411+01241100421ADDAY161031AY251031GA1071+006909099GF107991071031008001001001MD1410001+9999MW1611REMSYN076AAXX  16091 28334 41570 70000 10141 20124 40042 54000 76165 87300 333 87923;
0140283340999992000081612004+57340+058210FM-12+024499999V0209999C000010300019N0500001N1+01571+01301100351ADDAY161061AY251061GF105991031031008001071001MD1810061+9999MW1011REMSYN066AAXX  16121 28334 41599 50000 10157 20130 40035 58006 70165 83370;
0135283340999992000081615004+57340+058210FM-12+024499999V0209999C000010300019N0500001N1+01571+01221100321ADDGF105991021031008001071001KA1999M+01611MD1710031+9999REMSYN070AAXX  16151 28334 /2599 50000 10157 20122 40032 57003 82370 333 10161;
0174283340999992000081618004+57340+058210FM-12+024499999V0209999C000010069019N0500001N1+01381+01101100351ADDAA112008991GA1051+006909099GF106991051031008001031001KA1120M+01611MD1310011+9999REMSYN082AAXX  16181 28334 12584 60000 10138 20110 40035 53001 60092 85330 333 10161 85923;
0166283340999992000081621004+57340+058210FM-12+024499999V0209999C000010069019N0060001N1+01201+01041100441ADDAY121031AY221031GA1051+006909099GF106991051031008001041001MD1210071+9999MW1101REMSYN076AAXX  16211 28334 41556 60000 10120 20104 40044 52007 71022 85340 333 85923;
0187283340999992000081700004+57340+058210FM-12+024499999V0209999C000010300019N0005001N1+00721+00651100401ADDAY141061AY221061GA1021+006909099GF105991021031008001031001MA1999999097471MD1810091+9999MW1461REMSYN082AAXX  17001 28334 41505 50000 10072 20065 39747 40040 58009 74642 82330 333 82923;
0196283340999992000081703004+57340+058210FM-12+024499999V0209999C000010069019N0060001N1+00981+00901100311ADDAA199000091AY141031AY221031GA1051+006909099GF106991051031008001031021MD1710061+9999MW1101REMSYN076AAXX  17031 28334 31556 60000 10098 20090 40031 57006 71042 85332 333 85923;EQDQ01  00002PRCP99
0215283340999992000081706004+57340+058210FM-12+024499999V0202501N002010069019N0500001N1+01421+00981100181ADDAA199000091AY141061AY221061GA1061+006909099GF107991061031008001041091KA1120N+00651MD1710071+9999MW1031REMSYN082AAXX  17061 28334 31599 72502 10142 20098 40018 57007 70342 86349 333 20065 86923;EQDQ01  00002PRCP99
0187283340999992000081712004+57340+058210FM-12+024499999V0202501N002010060019N0500001N1+01221+01051100241ADDAY191061AY281061GA1081+006009099GF108991081031008001999999MA1999999097371MD1310031+9999MW1031REMSYN082AAXX  17121 28334 41599 82502 10122 20105 39737 40024 53003 70398 883// 333 88920;
0157283340999992000081715004+57340+058210FM-12+024499999V0203201N004010060019N0500001N1+01221+00731100361ADDGA1051+006009099GF106991051031008001061001KA1120M+01511MD1210111+9999REMSYN076AAXX  17151 28334 /2599 63204 10122 20073 40036 52011 85360 333 10151 85920;
0187283340999992000081806004+57340+058210FM-12+024499999V0202701N002010060019N0500001N1+01221+00861100951ADDAA199000091GA1081+006009029GF108991081071008001999999KA1120N+00891MD1210101+9999REMSYN076AAXX  18061 28334 32599 82702 10122 20086 40095 52010 887// 333 20089 88820;EQDQ01  00002PRCP99
0138283340999992000081809004+57340+058210FM-12+024499999V0209999C000010060019N0500001N1+01421+00981100981ADDGA1081+006009029GF108991081071008001999999MD1210061+9999REMSYN070AAXX  18091 28334 42599 80000 10142 20098 40098 52006 887// 333 88820;
0165283340999992000081818004+57340+058210FM-12+024499999V0209999C000019999999N0500001N1+01041+00901101101ADDAA199000091GF106991041001999999041051KA1999M+01571MD1210021+9999REMSYN070AAXX  18181 28334 32984 60000 10104 20090 40110 52002 84045 333 10157;EQDQ01  00002PRCP99
0140283340999992000081821004+57340+058210FM-12+024499999V0209999C000019999999N0060001N1+00871+00781101101ADDAY121031AY221031GF108991061001999999031051MD1810021+9999MW1101REMSYN066AAXX  18211 28334 41956 80000 10087 20078 40110 58002 71022 86035;
0161283340999992000081900004+57340+058210FM-12+024499999V0209999C000019999999N0005001N1+00761+00711101681ADDAY141061AY221061GF106991031001999999031091MA1999999098141MD1710031+9999MW1461REMSYN072AAXX  19001 28334 41905 60000 10076 20071 39814 40168 57003 74642 83039;
0186283340999992000081903004+57340+058210FM-12+024499999V0209999C000019999999N0060001N1+00791+00731101072ADDAA199000091AY141031AY221031GF108991081001999999051001MD1410001+9999MW1281REMSYN066AAXX  19031 28334 31956 80000 10079 20073 40107 54000 72842 88050;EQDQ01+101073APOSLPQ02  00002PRCP99
0132283340999992000081909004+57340+058210FM-12+024499999V0209999C000010069019N0500001N1+01251+99999100991ADDGA1051+006909099GF106991051031008001031001MD1410001+9999REMSYN064AAXX  19091 28334 42599 60000 10125 40099 54000 85330 333 85923;
0187283340999992000081912004+57340+058210FM-12+024499999V0209999C000010069019N0500001N1+01901+01471100891ADDAY191061AY281061GA1051+006909099GF106991051031008001041021MA1999999098071MD1810091+9999MW1291REMSYN082AAXX  19121 28334 41599 60000 10190 20147 39807 40089 58009 72998 85342 333 85923;
0157283340999992000081915004+57340+058210FM-12+024499999V0209999C000010069019N0500001N1+01681+01281100861ADDGA1051+006909099GF106991051031008001041021KA1120M+01951MD1710041+9999REMSYN076AAXX  19151 28334 /2599 60000 10168 20128 40086 57004 85342 333 10195 85923;
0157283340999992000081918004+57340+058210FM-12+024499999V0209999C000019999999N0060001N1+01271+01121100761ADDAA112001091AY121061AY221061GF106991061001999999031001MD1710151+9999MW1101REMSYN072AAXX  19181 28334 11956 60000 10127 20112 40076 57015 60012 71022 86030;
0140283340999992000081921004+57340+058210FM-12+024499999V0209999C000019999999N0060001N1+01091+01021100711ADDAY111031AY211031GF105991051001999999031001MD1710071+9999MW1101REMSYN066AAXX  19211 28334 41956 50000 10109 20102 40071 57007 71011 85030;
0161283340999992000082000004+57340+058210FM-12+024499999V0209999C000012200019N0005001N1+00851+00821100671ADDAY141061AY211061GF103991031001999999031001MA1999999097751MD1710061+9999MW1441REMSYN072AAXX  20001 28334 41905 30000 10085 20082 39775 40067 57006 74441 83030;
0170283340999992000082003004+57340+058210FM-12+024499999V0209999C000012200019N0005001N1+00891+00821100681ADDAA199000091AY141031AY201031GF103991001001999999001011MD1310011+9999MW1441REMSYN066AAXX  20031 28334 31905 30000 10089 20082 40068 53001 74440 80001;EQDQ01  00002PRCP99
0215283340999992000082006004+57340+058210FM-12+024499999V0209999C000010069019N0500001N1+01451+01211100631ADDAA199000091AY141061AY211061GA1051+006909099GF106991051031008001001011KA1120N+00841MD1210011+9999MW1031REMSYN082AAXX  20061 28334 31599 60000 10145 20121 40063 52001 70341 85301 333 20084 85923;EQDQ01  00002PRCP99
0166283340999992000082009004+57340+058210FM-12+024499999V0202701N002010069019N0500001N1+01831+01141100551ADDAY181031AY221031GA1051+006909099GF106991051031008001001021MD1810041+9999MW1021REMSYN076AAXX  20091 28334 41599 62702 10183 20114 40055 58004 70282 85302 333 85923;
0159283340999992000082012004+57340+058210FM-12+024499999V0202901N002010750019N0500001N1+01691+01101100531ADDGA1041+006909099GF105991041031008001001021MA1999999097691MD1710041+9999REMSYN076AAXX  20121 28334 42599 52902 10169 20110 39769 40053 57004 84302 333 84923;
0165283340999992000082015004+57340+058210FM-12+024499999V0209999C000019999999N0500001N1+01521+01031100581ADDAA199000091GF105991051001999999031001KA1999M+01891MD1310041+9999REMSYN070AAXX  20151 28334 32999 50000 10152 20103 40058 53004 85030 333 10189;EQDQ01  00002PRCP99
0165283340999992000082018004+57340+058210FM-12+024499999V0209999C000012200019N0500001N1+01191+00951100701ADDAA199000091GF102991021001999999041001KA1999M+01891MD1210081+9999REMSYN070AAXX  20181 28334 32984 20000 10119 20095 40070 52008 82040 333 10189;EQDQ01  00002PRCP99
0112283340999992000082021004+57340+058210FM-12+024499999V0209999C000019999999N0500001N1+01001+00851100681ADDGF107991071001999999031001MD1810041+9999REMSYN060AAXX  20211 28334 42984 70000 10100 20085 40068 58004 87030;
0161283340999992000082100004+57340+058210FM-12+024499999V0209999C000010300019N0500001N1+00961+00881100611ADDAY181061AY211061GF106991021031008001031001MA1999999097701MD1710071+9999MW1251REMSYN072AAXX  21001 28334 41584 60000 10096 20088 39770 40061 57007 72581 82330;
0112283340999992000082103004+57340+058210FM-12+024499999V0209999C000019999999N0500001N1+01061+00981100421ADDGF108991081001999999021999MD1710171+9999REMSYN060AAXX  21031 28334 /2999 80000 10106 20098 40042 57017 8802/;
0193283340999992000082106004+57340+058210FM-12+024499999V0202501N002010060019N0500001N1+01281+01111100431ADDAA112003091GA1071+006009029GF107991071071008001071001KA1120M+99999MD1310031+9999REMSYN082AAXX  21061 28334 12599 72502 10128 20111 40043 53003 60032 87770 333 10096 87820;EQDQ01 +00962ATMX  
0166283340999992000082109004+57340+058210FM-12+024499999V0202701N006010051019N0500001N1+01511+00971100401ADDAY161031AY221031GA1061+005109099GF107991061031004501041011MD1810011+9999MW1011REMSYN076AAXX  21091 28334 41499 72706 10151 20097 40040 58001 70162 86341 333 86917;
0187283340999992000082112004+57340+058210FM-12+024499999V0202901N004010060019N0500001N1+01351+01121100471ADDAY181061AY261061GA1061+006009099GF107991061031008001061001MA1999999097611MD1310061+9999MW1801REMSYN082AAXX  21121 28334 41599 72904 10135 20112 39761 40047 53006 78086 86360 333 86920;
0163283340999992000082115004+57340+058210FM-12+024499999V0203201N002010300019N0500001N1+01261+00901100621ADDAY181031AY221031GF106991031081008001081001KA1999M+01611MD1210131+9999MW1011REMSYN076AAXX  21151 28334 /1599 63202 10126 20090 40062 52013 70182 83880 333 10161;
0152283340999992000082118004+57340+058210FM-12+024499999V0209999C000019999999N0500001N1+01091+00761100681ADDAA112002091GF105991051001999999041001KA1999M+01611MD1210041+9999REMSYN076AAXX  21181 28334 12984 50000 10109 20076 40068 52004 60022 85040 333 10161;
0138283340999992000082121004+57340+058210FM-12+024499999V0202701N002010069019N0500001N1+00991+00741100701ADDGA1081+006909059GF108991081051008001001001MD1210011+9999REMSYN070AAXX  21211 28334 42584 82702 10099 20074 40070 52001 88500 333 88623;
0154283340999992000082200004+57340+058210FM-12+024499999V0202701N002010075019N0500001N1+00931+00821100751ADDAA124076291GF108991081051008001001001MA1999999097841MD1210051+9999REMSYN076AAXX  22001 28334 42584 82702 10093 20082 39784 40075 52005 88500 333 78623;
0168283340999992000082203004+57340+058210FM-12+024499999V0202701N002010069019N0500001N1+00921+00801100791ADDAA199000091GA1071+006909059GF107991071051008001001001MD1210031+9999REMSYN070AAXX  22031 28334 32599 72702 10092 20080 40079 52003 87500 333 87623;EQDQ01  00002PRCP99
0187283340999992000082206004+57340+058210FM-12+024499999V0202701N004010060019N0500001N1+01281+00841100811ADDAA199000091GA1071+006009099GF107991071031008001001001KA1120N+00921MD1210061+9999REMSYN076AAXX  22061 28334 32599 72704 10128 20084 40081 52006 87300 333 20092 87920;EQDQ01  00002PRCP99
0138283340999992000082209004+57340+058210FM-12+024499999V0202701N006010060019N0500001N1+01351+00821100841ADDGA1081+006009099GF108991081031008001999999MD1210041+9999REMSYN070AAXX  22091 28334 42599 82706 10135 20082 40084 52004 883// 333 88920;
0159283340999992000082212004+57340+058210FM-12+024499999V0202701N002010069019N0500001N1+01461+00821100881ADDGA1061+006909099GF108991061031008001001001MA1999999098021MD1210051+9999REMSYN076AAXX  22121 28334 42599 82702 10146 20082 39802 40088 52005 86300 333 86923;
0165283340999992000082215004+57340+058210FM-12+024499999V0209999C000010750019N0500001N1+01351+00981100841ADDAA199000091GF105991021031008001031011KA1999M+01501MD1810051+9999REMSYN070AAXX  22151 28334 32599 50000 10135 20098 40084 58005 82331 333 10150;EQDQ01  00002PRCP99
0193283340999992000082218004+57340+058210FM-12+024499999V0209999C000012200019N0020001N1+00851+00771100931ADDAA199000091AY111061AY211061GF102991021001999999041001KA1999M+01501MD1310031+9999MW1101REMSYN076AAXX  22181 28334 31920 20000 10085 20077 40093 53003 71011 82040 333 10150;EQDQ01  00002PRCP99
0150283340999992000082221004+57340+058210FM-12+024499999V0209999C000012200019N0001001N1+00691+00541100381ADDAY141031AY201031GA1001+999999999GF100991001001999999001001MD1210021+9999MW1461REMSYN060AAXX  22211 28334 41901 00000 10069 20054 40038 52002 74640;
0187283340999992000082300004+57340+058210FM-12+024499999V0209999C000010051019N0005001N1+00461+00441101051ADDAY141061AY211061GA1081+005109029GF108991081071004501999999MA1999999098071MD1210051+9999MW1421REMSYN082AAXX  23001 28334 41405 80000 10046 20044 39807 40105 52005 74241 887// 333 88817;
0196283340999992000082303004+57340+058210FM-12+024499999V0209999C000010051019N0005001N1+00491+00471101121ADDAA199000091AY141031AY221031GA1061+005109029GF107991061071004501031001MD1210081+9999MW1441REMSYN076AAXX  23031 28334 31405 70000 10049 20047 40112 52008 74442 86730 333 86817;EQDQ01  00002PRCP99
0193283340999992000082306004+57340+058210FM-12+024499999V0203601N002019999999N0500001N1+01882+00581101201ADDAA199000091AY141061AY221061GF106991061001999999041021KA1999N+00431MD1210151+9999MW1011REMSYN076AAXX  23061 28334 31999 63602 10188 20058 40120 52015 70142 86042 333 20043;EQDQ01  00002PRCP99
0112283340999992000082309004+57340+058210FM-12+024499999V0209999C000019999999N0500001N1+01361+00621101111ADDGF106991061001999999041021MD1810061+9999REMSYN060AAXX  23091 28334 42999 60000 10136 20062 40111 58006 86042;
0133283340999992000082312004+57340+058210FM-12+024499999V0203201N002010300019N0500001N1+01401+00581101021ADDGF106991021031008001031021MA1999999098151MD1710091+9999REMSYN066AAXX  23121 28334 42599 63202 10140 20058 39815 40102 57009 82332;
0165283340999992000082315004+57340+058210FM-12+024499999V0209999C000012200019N0500001N1+01271+00641100961ADDAA199000091GF103991031001999999031001KA1999M+01481MD1710071+9999REMSYN070AAXX  23151 28334 32999 30000 10127 20064 40096 57007 83030 333 10148;EQDQ01  00002PRCP99
0203283340999992000082318004+57340+058210FM-12+024499999V0209999C000012200019N0060001N1+00661+00521100951ADDAA199000091AY111061AY211061GA1001+999999999GF100991001001999999001001KA1999M+01481MD1710081+9999MW1101REMSYN070AAXX  23181 28334 31956 00000 10066 20052 40095 57008 71011 333 10148;EQDQ01  00002PRCP99
0150283340999992000082321004+57340+058210FM-12+024499999V0209999C000012200019N0005001N1+00531+00461100851ADDAY141031AY201031GA1001+999999999GF100991001001999999001001MD1710111+9999MW1461REMSYN060AAXX  23211 28334 41905 00000 10053 20046 40085 57011 74640;
0180283340999992000082400004+57340+058210FM-12+024499999V0209999C000019999999N0060001N1+00351+00331100691ADDAY141061AY211061GF108991999001999999031001MA1999999097711MD1710181+9999MW1281REMSYN072AAXX  24001 28334 41956 80000 10035 20033 39771 40069 57018 72841 87030;EQDQ01+000072SCOTLC
0140283340999992000082403004+57340+058210FM-12+024499999V0209999C000010300019N0200001N1+00671+00561100521ADDAY181031AY221031GF106991031031008001031001MD1710121+9999MW1801REMSYN066AAXX  24031 28334 /1570 60000 10067 20056 40052 57012 78082 83330;
0180283340999992000082406004+57340+058210FM-12+024499999V0209999C000019999999N0500001N1+01221+01001100391ADDAA112000591AY181061AY221061GF106991061001999999031001KA1999N+00341MD1710071+9999MW1021REMSYN082AAXX  24061 28334 11999 60000 10122 20100 40039 57007 69942 70282 86030 333 20034;
0157283340999992000082409004+57340+058210FM-12+024499999V0209999C000010069019N0500001N1+01491+01051100341ADDGA1081+006909029GF108991999071008001021999MD1710031+9999REMSYN070AAXX  24091 28334 42599 80000 10149 20105 40034 57003 8872/ 333 88823;EQDQ01+000082SCOTLC
0178283340999992000082412004+57340+058210FM-12+024499999V0200901N002010069019N0500001N1+01331+01101100441ADDGA1081+006909029GF108991999071008001021999MA1999999097581MD1310091+9999REMSYN076AAXX  24121 28334 42599 80902 10133 20110 39758 40044 53009 8872/ 333 88823;EQDQ01+000082SCOTLC
0176283340999992000082415004+57340+058210FM-12+024499999V0200901N002010069019N0500001N1+01261+01111100461ADDGA1081+006909029GF108991999071008001021999KA1120M+01551MD1210011+9999REMSYN076AAXX  24151 28334 /2599 80902 10126 20111 40046 52001 8872/ 333 10155 88823;EQDQ01+000082SCOTLC
0202283340999992000082418004+57340+058210FM-12+024499999V0209999C000010069019N0500001N1+01001+00941100581ADDAA112000791AY181061AY221061GA1061+006909099GF106991061031008001001001KA1120M+01551MD1210081+9999MW1251REMSYN088AAXX  24181 28334 11584 60000 10100 20094 40058 52008 69902 72582 86300 333 10155 86923;
0112283340999992000082421004+57340+058210FM-12+024499999V0209999C000019999999N0500001N1+00891+00821100501ADDGF108991081001999999021999MD1810081+9999REMSYN060AAXX  24211 28334 42984 80000 10089 20082 40050 58008 8802/;
0161283340999992000082500004+57340+058210FM-12+024499999V0209999C000019999999N0005001N1+00871+00811100321ADDAY141061AY221061GF108991081001999999021999MA1999999097411MD1710181+9999MW1461REMSYN072AAXX  25001 28334 41905 80000 10087 20081 39741 40032 57018 74642 8802/;
0140283340999992000082503004+57340+058210FM-12+024499999V0209999C000019999999N0005001N1+01261+01211100191ADDAY141031AY221031GF108991081001999999021999MD1710081+9999MW1441REMSYN066AAXX  25031 28334 /1905 80000 10126 20121 40019 57008 74442 8802/;
0202283340999992000082506004+57340+058210FM-12+024499999V0202001N002010051019N0500001N1+01351+01261100071ADDAA112002091AY151061AY241061GA1081+005109069GF108991081071004501999999KA1120N+00871MD1710111+9999MW1201REMSYN088AAXX  25061 28334 11499 82002 10135 20126 40007 57011 60022 72054 887// 333 20087 88717;
0166283340999992000082509004+57340+058210FM-12+024499999V0202301N004010051019N0500001N1+01341+01131100121ADDAY181031AY221031GA1081+005109099GF108991081031004501999999MD1310051+9999MW1021REMSYN076AAXX  25091 28334 41499 82304 10134 20113 40012 53005 70282 883// 333 88917;
0187283340999992000082512004+57340+058210FM-12+024499999V0202301N002010060019N0500001N1+01181+01031100261ADDAY181061AY221061GA1061+006009099GF108991061031008001071999MA1999999097381MD1210111+9999MW1601REMSYN082AAXX  25121 28334 41599 82302 10118 20103 39738 40026 52011 76082 8637/ 333 86920;
0185283340999992000082515004+57340+058210FM-12+024499999V0209999C000010069019N0500001N1+01181+01041100421ADDAY161031AY251031GA1061+006909029GF108991061071008001071999KA1120M+01421MD1210161+9999MW1201REMSYN082AAXX  25151 28334 /1599 80000 10118 20104 40042 52016 72065 8677/ 333 10142 86823;
0202283340999992000082518004+57340+058210FM-12+024499999V0202301N002010069019N0500001N1+01131+00971100561ADDAA112004191AY161061AY251061GA1051+006909099GF105991051031008001001001KA1120M+01421MD1210131+9999MW1011REMSYN088AAXX  25181 28334 11584 52302 10113 20097 40056 52013 60042 70165 85300 333 10142 85923;
0138283340999992000082521004+57340+058210FM-12+024499999V0202301N002010069019N0500001N1+01111+00891100701ADDGA1071+006909099GF107991071031008001001001MD1210131+9999REMSYN070AAXX  25211 28334 42584 72302 10111 20089 40070 52013 87300 333 87923;
0159283340999992000082600004+57340+058210FM-12+024499999V0202301N002010069019N0500001N1+00091+99999100871ADDGA1081+006909099GF108991081031008001999999MA1999999097961MD1210161+9999REMSYN076AAXX  26001 28334 42584 82302 10009 20089 39796 40087 52016 883// 333 88923;
0149283340999992000082603004+57340+058210FM-12+024499999V0202501N002010069019N0500001N1+01041+00841101041ADDAA199000021GA1081+006909099GF108991081031008001999999MD1210171+9999REMSYN070AAXX  26031 28334 32599 82502 10104 20084 40104 52017 883// 333 88923;
0187283340999992000082606004+57340+058210FM-12+024499999V0202701N002010069019N0500001N1+01241+00931101201ADDAA199000091GA1081+006909099GF108991081031008001999999KA1120N+01041MD1210181+9999REMSYN076AAXX  26061 28334 32599 82702 10124 20093 40120 52018 883// 333 20104 88923;EQDQ01  00002PRCP99
0138283340999992000082609004+57340+058210FM-12+024499999V0202701N002010069019N0500001N1+01291+00781101361ADDGA1081+006909099GF108991081031008001999999MD1210161+9999REMSYN070AAXX  26091 28334 42599 82702 10129 20078 40136 52016 883// 333 88923;
0159283340999992000082612004+57340+058210FM-12+024499999V0202701N002010069019N0500001N1+01421+00951101551ADDGA1061+006909099GF106991061031008001001001MA1999999098071MD1210201+9999REMSYN076AAXX  26121 28334 42599 62702 10142 20095 39807 40155 52020 86300 333 86923;
0187283340999992000082615004+57340+058210FM-12+024499999V0202701N002010069019N0500001N1+01301+00931101781ADDAA199000091GA1061+006909099GF106991061031008001001001KA1120M+01431MD1210201+9999REMSYN076AAXX  26151 28334 32599 62702 10130 20093 40178 52020 86300 333 10143 86923;EQDQ01  00002PRCP99
0165283340999992000082618004+57340+058210FM-12+024499999V0209999C000012200019N0500001N1+01101+00971101871ADDAA199000091GF102991021001999999041001KA1999M+01431MD1210071+9999REMSYN070AAXX  26181 28334 32984 20000 10110 20097 40187 52007 82040 333 10143;EQDQ01  00002PRCP99
0150283340999992000082621004+57340+058210FM-12+024499999V0209999C000012200019N0060001N1+00721+00651102031ADDAY101031AY201031GA1001+999999999GF100991001001999999001001MD1210121+9999MW1101REMSYN060AAXX  26211 28334 41956 00000 10072 20065 40203 52012 71000;
0171283340999992000082700004+57340+058210FM-12+024499999V0209999C000010001519N0001001N1+00531+00511102161ADDAY141061AY201061GA1091+999999999GF109991091999999999999999MA1999999099161MD1210101+9999MW1451REMSYN066AAXX  27001 28334 41/01 90000 10053 20051 39916 40216 52010 74540;
0196283340999992000082703004+57340+058210FM-12+024499999V0209999C000010069019N0060001N1+00551+00531102251ADDAA199000091AY141031AY211031GA1081+006909059GF108991081051008001999999MD1210101+9999MW1281REMSYN076AAXX  27031 28334 31556 80000 10055 20053 40225 52010 72841 885// 333 88623;EQDQ01  00002PRCP99
0215283340999992000082706004+57340+058210FM-12+024499999V0209999C000010069019N0500001N1+00981+00811102471ADDAA199000091AY141061AY211061GA1081+006909059GF108991081051008001999999KA1120N+00481MD1210251+9999MW1021REMSYN082AAXX  27061 28334 31599 80000 10098 20081 40247 52025 70241 885// 333 20048 88623;EQDQ01  00002PRCP99
0138283340999992000082709004+57340+058210FM-12+024499999V0209999C000010069019N0500001N1+01521+00711102311ADDGA1051+006909099GF106991051031008001041001MD1810101+9999REMSYN070AAXX  27091 28334 42599 60000 10152 20071 40231 58010 85340 333 85923;
0159283340999992000082712004+57340+058210FM-12+024499999V0209999C000010069019N0500001N1+01661+00481102231ADDGA1051+006909099GF106991051031008001031001MA1999999099351MD1710061+9999REMSYN076AAXX  27121 28334 42599 60000 10166 20048 39935 40223 57006 85330 333 85923;
0203283340999992000082715004+57340+058210FM-12+024499999V0209999C000010069019N0500001N1+01381+00681102191ADDAA199000091GA1051+006909099GF106991051031008001031001KA1120M+99999MD1710071+9999REMSYN076AAXX  27151 28334 32599 60000 10138 20068 40219 57007 85330 333 11069 85923;EQDQ01  00002PRCP99Q02 -00692ATMX  
0219283340999992000082718004+57340+058210FM-12+024499999V0209999C000012200019N0060001N1+00541+99999101172ADDAA199000091AY111061AY211061GA1001+999999999GF100991001001999999001001KA1999M+01691MD1710031+9999MW1101REMSYN070AAXX  27181 28334 31956 00000 10054 20078 40117 57003 71011 333 10169;EQDQ01+101173APOSLPQ02  00002PRCP99
0150283340999992000082721004+57340+058210FM-12+024499999V0209999C000012200019N0060001N1+00661+00571101241ADDAY101031AY201031GA1001+999999999GF100991001001999999001001MD1410001+9999MW1101REMSYN060AAXX  27211 28334 41956 00000 10066 20057 40124 54000 71000;
0171283340999992000082800004+57340+058210FM-12+024499999V0209999C000012200019N0060001N1+00501+00451102221ADDAY101061AY201061GA1001+999999999GF100991001001999999001001MA1999999099221MD1810031+9999MW1101REMSYN066AAXX  28001 28334 41956 00000 10050 20045 39922 40222 58003 71000;
0164283340999992000082803004+57340+058210FM-12+024499999V0209999C000012200019N0005001N1+00281+00251102241ADDAA199000091AY141031AY201031GF102991999999999999999999MD1710011+9999MW1441REMSYN060AAXX  28031 28334 31905 20000 10028 20025 40224 57001 74440;EQDQ01  00002PRCP99
0193283340999992000082806004+57340+058210FM-12+024499999V0202501N002012200019N0500001N1+01521+01061102001ADDAA199000091AY141061AY201061GF103991001001999999001021KA1999N+00271MD1710091+9999MW1031REMSYN076AAXX  28061 28334 31999 32502 10152 20106 40200 57009 70340 80002 333 20027;EQDQ01  00002PRCP99
0138283340999992000082809004+57340+058210FM-12+024499999V0202501N002010069019N0500001N1+01571+00841101861ADDGA1051+006909099GF107991051031008001031001MD1710141+9999REMSYN070AAXX  28091 28334 42599 72502 10157 20084 40186 57014 85330 333 85923;
0159283340999992000082812004+57340+058210FM-12+024499999V0202901N002010750019N0500001N1+01741+00821101691ADDGA1041+006909099GF107991041031008001001021MA1999999098841MD1710141+9999REMSYN076AAXX  28121 28334 42599 72902 10174 20082 39884 40169 57014 84302 333 84923;
0163283340999992000082815004+57340+058210FM-12+024499999V0202901N002019999999N0500001N1+01551+00951101621ADDAY161031AY221031GF108991081001999999021999KA1999M+01771MD1710031+9999MW1611REMSYN076AAXX  28151 28334 /1999 82902 10155 20095 40162 57003 76162 8802/ 333 10177;
0112283340999992000082821004+57340+058210FM-12+024499999V0209999C000019999999N0500001N1+01101+00981101791ADDGF107991071001999999031001MD1810131+9999REMSYN060AAXX  28211 28334 42984 70000 10110 20098 40179 58013 87030;
0133283340999992000082900004+57340+058210FM-12+024499999V0202901N002019999999N0500001N1+01061+00971101771ADDGF107991071001999999031001MA1999999098851MD1710011+9999REMSYN066AAXX  29001 28334 42984 72902 10106 20097 39885 40177 57001 87030;
0166283340999992000082903004+57340+058210FM-12+024499999V0209999C000010069019N0500001N1+01201+01171101911ADDAY181031AY221031GA1051+006909099GF107991051031008001031001MD1310151+9999MW1021REMSYN076AAXX  29031 28334 /1599 70000 10120 20117 40191 53015 70282 85330 333 85923;
0202283340999992000082906004+57340+058210FM-12+024499999V0203201N002010069019N0500001N1+01421+00981101771ADDAA112001091AY181061AY221061GA1061+006909099GF106991061031008001001001KA1120N+01061MD1810121+9999MW1011REMSYN088AAXX  29061 28334 11599 63202 10142 20098 40177 58012 60012 70182 86300 333 20106 86923;
0138283340999992000082909004+57340+058210FM-12+024499999V0202901N004010069019N0500001N1+01731+00781101651ADDGA1061+006909029GF106991061021008001081001MD1710081+9999REMSYN070AAXX  29091 28334 42599 62904 10173 20078 40165 57008 86280 333 86823;
0159283340999992000082912004+57340+058210FM-12+024499999V0203201N002010069019N0500001N1+01721+00951101601ADDGA1061+006909029GF107991061081008001081001MA1999999098751MD1710051+9999REMSYN076AAXX  29121 28334 42599 73202 10172 20095 39875 40160 57005 86880 333 86823;
0187283340999992000082915004+57340+058210FM-12+024499999V0209999C000010069019N0500001N1+01621+01121101461ADDAA199000091GA1051+006909099GF106991051031008001031001KA1120M+01741MD1710151+9999REMSYN076AAXX  29151 28334 32599 60000 10162 20112 40146 57015 85330 333 10174 85923;EQDQ01  00002PRCP99
0185283340999992000082918004+57340+058210FM-12+024499999V0209999C000010069019N0150001N1+01341+01181101531ADDAY181061AY221061GA1081+006909099GF108991081031008001999999KA1120M+01741MD1310041+9999MW1801REMSYN082AAXX  29181 28334 11565 80000 10134 20118 40153 53004 78082 883// 333 10174 88923;
0160283340999992000082921004+57340+058210FM-12+024499999V0209999C000010069019N0005001N1+01281+01261101611ADDAY181031AY241031GA1081+006909099GF108991999999008001999999MD1210071+9999MW1441REMSYN070AAXX  29211 28334 41505 80000 10128 20126 40161 52007 74484 333 88923;
0187283340999992000083000004+57340+058210FM-12+024499999V0209999C000010069019N0060001N1+01171+01111101691ADDAY141061AY221061GA1071+006909099GF107991071031008001001001MA1999999098781MD1210071+9999MW1281REMSYN082AAXX  30001 28334 41556 70000 10117 20111 39878 40169 52007 72842 87300 333 87923;
0138283340999992000083003004+57340+058210FM-12+024499999V0209999C000010069019N0500001N1+01091+01031101831ADDGA1081+006909059GF108991081051008001999999MD1210121+9999REMSYN070AAXX  30031 28334 /2599 80000 10109 20103 40183 52012 885// 333 88623;
0174283340999992000083006004+57340+058210FM-12+024499999V0209999C000010069019N0500001N1+01291+00941101921ADDAA112006191GA1071+006909099GF107991071031008001001001KA1120N+01091MD1210111+9999REMSYN082AAXX  30061 28334 12599 70000 10129 20094 40192 52011 60062 87300 333 20109 87923;
0138283340999992000083009004+57340+058210FM-12+024499999V0202901N002010069019N0500001N1+01551+01091101931ADDGA1061+006909099GF106991061031008001001001MD1210041+9999REMSYN070AAXX  30091 28334 42599 62902 10155 20109 40193 52004 86300 333 86923;
0133283340999992000083012004+57340+058210FM-12+024499999V0203401N002012200019N0500001N1+01421+00921101961ADDGF103991031031008001001001MA1999999099071MD1210021+9999REMSYN066AAXX  30121 28334 42599 33402 10142 20092 39907 40196 52002 83300;
0165283340999992000083015004+57340+058210FM-12+024499999V0209999C000012200019N0500001N1+01471+01131101941ADDAA199000091GF102991021001999999041001KA1999M+01561MD1810021+9999REMSYN070AAXX  30151 28334 32999 20000 10147 20113 40194 58002 82040 333 10156;EQDQ01  00002PRCP99
0165283340999992000083018004+57340+058210FM-12+024499999V0209999C000012200019N0500001N1+00342+00301102041ADDAA199000091GF101991011001999999041001KA1999M+01561MD1310051+9999REMSYN070AAXX  30181 28334 32984 10000 10034 20030 40204 53005 81040 333 10156;EQDQ01  00002PRCP99
0150283340999992000083021004+57340+058210FM-12+024499999V0209999C000012200019N0005001N1+00611+00561102151ADDAY141031AY201031GA1001+999999999GF100991001001999999001001MD1210011+9999MW1461REMSYN060AAXX  30211 28334 41905 00000 10061 20056 40215 52001 74640;
0171283340999992000083100004+57340+058210FM-12+024499999V0209999C000010001519N0001001N1+00511+00461102181ADDAY141061AY201061GA1091+999999999GF109991091999999999999999MA1999999099181MD1210041+9999MW1451REMSYN066AAXX  31001 28334 41/01 90000 10051 20046 39918 40218 52004 74540;
0180283340999992000083103004+57340+058210FM-12+024499999V02099999999990001519N0001001N1+00551+00551102231ADDAA199000091AY141031AY201031GA1091+999999999GF109991091999999999999999MD1210061+9999MW1451REMSYN060AAXX  31031 28334 31/01 9//// 10055 20055 40223 52006 74540;EQDQ01  00002PRCP99
0193283340999992000083106004+57340+058210FM-12+024499999V0209999C000019999999N0020001N1+01201+00851102301ADDAA199000091AY141061AY211061GF105991051001999999041021KA1999N+00481MD1210111+9999MW1281REMSYN076AAXX  31061 28334 31920 50000 10120 20085 40230 52011 72841 85042 333 20048;EQDQ01  00002PRCP99
0138283340999992000083109004+57340+058210FM-12+024499999V0209999C000010069019N0500001N1+01841+01231102241ADDGA1051+006909099GF105991051011008001001001MD1210031+9999REMSYN070AAXX  31091 28334 42599 50000 10184 20123 40224 52003 85100 333 85923;
0133283340999992000083112004+57340+058210FM-12+024499999V0209999C000010750019N0500001N1+01821+01041102241ADDGF105991021011008001001021MA1999999099381MD1410001+9999REMSYN066AAXX  31121 28334 42599 50000 10182 20104 39938 40224 54000 82102;
0165283340999992000083115004+57340+058210FM-12+024499999V0209999C000010300019N0500001N1+01561+00851102271ADDAA199000091GF105991021031008001041001KA1999M+01891MD1410001+9999REMSYN070AAXX  31151 28334 32599 50000 10156 20085 40227 54000 82340 333 10189;EQDQ01  00002PRCP99
0175283340999992000083118004+57340+058210FM-12+024499999V0209999C000012200019N0500001N1+01051+00701102201ADDAA199000091GA1001+999999999GF100991001001999999001001KA1999M+01891MD1810121+9999REMSYN064AAXX  31181 28334 32984 00000 10105 20070 40220 58012 333 10189;EQDQ01  00002PRCP99
0150283340999992000083121004+57340+058210FM-12+024499999V0209999C000012200019N0005001N1+00981+00811102261ADDAY141031AY201031GA1001+999999999GF100991001001999999001001MD1310051+9999MW1461REMSYN060AAXX  31211 28334 41905 00000 10098 20081 40226 53005 74640;
0171283340999992000090100004+57340+058210FM-12+024499999V0209999C000010001519N0001001N1+00671+00631102301ADDAY141061AY201061GA1091+999999999GF109991091999999999999999MA1999999099321MD1410001+9999MW1471REMSYN066AAXX  01001 28334 41/01 90000 10067 20063 39932 40230 54000 74740;
0180283340999992000090103004+57340+058210FM-12+024499999V0209999C000010001519N0001001N1+00491+00491102361ADDAA199000091AY141031AY201031GA1091+999999999GF109991091999999999999999MD1310041+9999MW1451REMSYN060AAXX  01031 28334 31/01 90000 10049 20049 40236 53004 74540;EQDQ01  00002PRCP99
0193283340999992000090106004+57340+058210FM-12+024499999V0209999C000012200019N0500001N1+01541+01031102251ADDAA199000091AY141061AY201061GF101991011021008001001001KA1999N+00481MD1410001+9999MW1031REMSYN076AAXX  01061 28334 31599 10000 10154 20103 40225 54000 70340 81200 333 20048;EQDQ01  00002PRCP99
0138283340999992000090109004+57340+058210FM-12+024499999V0201401N002010069019N0500001N1+02131+00811102131ADDGA1061+006909029GF106991061021008001001001MD1810061+9999REMSYN070AAXX  01091 28334 42599 61402 10213 20081 40213 58006 86200 333 86823;
0138283340999992000090112004+57340+058210FM-12+024499999V0209999C000010069019N0500001N1+02231+00811102081ADDGA1061+006909029GF106991061021008001001001MD1710041+9999REMSYN070AAXX  01121 28334 42599 60000 10223 20081 40208 57004 86200 333 86823;
0165283340999992000090115004+57340+058210FM-12+024499999V0209999C000012200019N0500001N1+01921+01051102061ADDAA199000091GF101991001001999999001011KA1999M+02261MD1710051+9999REMSYN070AAXX  01151 28334 32999 10000 10192 20105 40206 57005 80001 333 10226;EQDQ01  00002PRCP99
0175283340999992000090118004+57340+058210FM-12+024499999V0209999C000012200019N0500001N1+01351+01031102221ADDAA199000091GA1001+999999999GF100991001001999999001001KA1999M+02261MD1210101+9999REMSYN064AAXX  01181 28334 32984 00000 10135 20103 40222 52010 333 10226;EQDQ01  00002PRCP99
0150283340999992000090121004+57340+058210FM-12+024499999V0209999C000012200019N0005001N1+01121+00981102261ADDAY141031AY201031GA1001+999999999GF100991001001999999001001MD1210021+9999MW1461REMSYN060AAXX  01211 28334 41905 00000 10112 20098 40226 52002 74640;
0190283340999992000090200004+57340+058210FM-12+024499999V0209999C000012200019N0001001N1+00691+00621102351ADDAY141061AY201061GA1001+999999999GF100991001001999999001001MA1999999099371MD1210041+9999MW1461REMSYN066AAXX  02001 28334 41901 00000 10069 20062 39937 40235 52004 74740;EQDQ01+000472PRSWM1
0196283340999992000090203004+57340+058210FM-12+024499999V0209999C000012200019N0001001N1+00721+00701102381ADDAA199000091AY141031AY201031GA1001+999999999GF100991001001999999001001MD1210031+9999MW1441REMSYN060AAXX  02031 28334 31901 00000 10072 20070 40238 52003 74540;EQDQ01+000452PRSWM1Q02  00002PRCP99
0193283340999992000090206004+57340+058210FM-12+024499999V0209999C000019999999N0500001N1+01671+01111102131ADDAA199000091AY141061AY211061GF105991021001999999041051KA1999N+00641MD1810151+9999MW1031REMSYN076AAXX  02061 28334 31999 50000 10167 20111 40213 58015 70341 82045 333 20064;EQDQ01  00002PRCP99
0112283340999992000090209004+57340+058210FM-12+024499999V0209999C000010750019N0500001N1+02321+00981101991ADDGF106991021021008001001051MD1710071+9999REMSYN060AAXX  02091 28334 42599 60000 10232 20098 40199 57007 82205;
0159283340999992000090212004+57340+058210FM-12+024499999V0209999C000010750019N0500001N1+02221+00891101931ADDGA1041+006909029GF107991041021008001001061MA1999999099111MD1710071+9999REMSYN076AAXX  02121 28334 42599 70000 10222 20089 39911 40193 57007 84206 333 84823;
0165283340999992000090215004+57340+058210FM-12+024499999V0209999C000019999999N0500001N1+01761+01071101961ADDAA199000091GF106991031001999999081061KA1999M+02351MD1710011+9999REMSYN070AAXX  02151 28334 32999 60000 10176 20107 40196 57001 83086 333 10235;EQDQ01  00002PRCP99
0175283340999992000090218004+57340+058210FM-12+024499999V0209999C000012200019N0500001N1+01431+01171102061ADDAA199000091GA1001+999999999GF100991001001999999001001KA1999M+02351MD1310061+9999REMSYN064AAXX  02181 28334 32984 00000 10143 20117 40206 53006 333 10235;EQDQ01  00002PRCP99
0150283340999992000090221004+57340+058210FM-12+024499999V0209999C000012200019N0060001N1+01041+00901102101ADDAY101031AY201031GA1001+999999999GF100991001001999999001001MD1410001+9999MW1101REMSYN060AAXX  02211 28334 41956 00000 10104 20090 40210 54000 71000;
0161283340999992000090300004+57340+058210FM-12+024499999V0209999C000019999999N0060001N1+00891+00781102141ADDAY111061AY211061GF106991061001999999031001MA1999999099181MD1310021+9999MW1101REMSYN072AAXX  03001 28334 41956 60000 10089 20078 39918 40214 53002 71011 86030;
0170283340999992000090303004+57340+058210FM-12+024499999V0209999C000019999999N0060001N1+00931+00851102141ADDAA199000091AY141031AY221031GF106991061001999999031001MD1210011+9999MW1101REMSYN066AAXX  03031 28334 31956 60000 10093 20085 40214 52001 71042 86030;EQDQ01  00002PRCP99
0193283340999992000090306004+57340+058210FM-12+024499999V0209999C000019999999N0500001N1+01581+01021102041ADDAA199000091AY141061AY221061GF106991031001999999041081KA1999N+00891MD1810041+9999MW1021REMSYN076AAXX  03061 28334 31999 60000 10158 20102 40204 58004 70242 83048 333 20089;EQDQ01  00002PRCP99
0112283340999992000090309004+57340+058210FM-12+024499999V0201801N002019999999N0500001N1+02241+00821101951ADDGF105991001001999999001081MD1710011+9999REMSYN060AAXX  03091 28334 42999 51802 10224 20082 40195 57001 80008;
0133283340999992000090312004+57340+058210FM-12+024499999V0202301N002019999999N0500001N1+02311+00801101921ADDGF105991021001999999041081MA1999999099111MD1710031+9999REMSYN066AAXX  03121 28334 42999 52302 10231 20080 39911 40192 57003 82048;
0165283340999992000090315004+57340+058210FM-12+024499999V0209999C000019999999N0500001N1+01961+00881101951ADDAA199000091GF105991021001999999041081KA1999M+02401MD1410001+9999REMSYN070AAXX  03151 28334 32999 50000 10196 20088 40195 54000 82048 333 10240;EQDQ01  00002PRCP99
0175283340999992000090318004+57340+058210FM-12+024499999V0209999C000012200019N0500001N1+01211+00951102061ADDAA199000091GA1001+999999999GF100991001001999999001001KA1999M+02401MD1310031+9999REMSYN064AAXX  03181 28334 32984 00000 10121 20095 40206 53003 333 10240;EQDQ01  00002PRCP99
0122283340999992000090321004+57340+058210FM-12+024499999V0209999C000012200019N0500001N1+00891+00771102121ADDGA1001+999999999GF100991001001999999001001MD1210021+9999REMSYN054AAXX  03211 28334 42984 00000 10089 20077 40212 52002;
0161283340999992000090400004+57340+058210FM-12+024499999V0209999C000012200019N0005001N1+00571+00501102191ADDAY141061AY201061GF101991011001999999041001MA1999999099201MD1210041+9999MW1461REMSYN072AAXX  04001 28334 41905 10000 10057 20050 39920 40219 52004 74640 81040;
0152283340999992000090403004+57340+058210FM-12+024499999V0209999C000012200019N0060001N1+00551+00461102231ADDAA199000091GA1001+999999999GF100991001001999999001001MD1210041+9999REMSYN054AAXX  04031 28334 31956 00000 10055 20046 40223 52004;EQDQ01  00002PRCP99
0193283340999992000090406004+57340+058210FM-12+024499999V0209999C000012200019N0500001N1+01601+00991102181ADDAA199000091AY141061AY201061GF102991021001999999041001KA1999N+00441MD1210051+9999MW1031REMSYN076AAXX  04061 28334 31999 20000 10160 20099 40218 52005 70340 82040 333 20044;EQDQ01  00002PRCP99
0112283340999992000090409004+57340+058210FM-12+024499999V0209999C000012200019N0500001N1+02401+00701102001ADDGF102991021001999999041001MD1810101+9999REMSYN060AAXX  04091 28334 42999 20000 10240 20070 40200 58010 82040;
0133283340999992000090412004+57340+058210FM-12+024499999V0201801N002012200019N0500001N1+02381+00951101981ADDGF102991001001999999001021MA1999999099171MD1710021+9999REMSYN066AAXX  04121 28334 42999 21802 10238 20095 39917 40198 57002 80002;
0165283340999992000090415004+57340+058210FM-12+024499999V0209999C000012200019N0500001N1+02001+00931101991ADDAA199000091GF102991001001999999001021KA1999M+02501MD1710021+9999REMSYN070AAXX  04151 28334 32999 20000 10200 20093 40199 57002 80002 333 10250;EQDQ01  00002PRCP99
0175283340999992000090418004+57340+058210FM-12+024499999V0209999C000012200019N0500001N1+01241+01001101981ADDAA199000091GA1001+999999999GF100991001001999999001001KA1999M+02501MD1710081+9999REMSYN064AAXX  04181 28334 32984 00000 10124 20100 40198 57008 333 10250;EQDQ01  00002PRCP99
0150283340999992000090421004+57340+058210FM-12+024499999V0209999C000012200019N0060001N1+00911+00811102031ADDAY101031AY201031GA1001+999999999GF100991001001999999001001MD1310011+9999MW1101REMSYN060AAXX  04211 28334 41956 00000 10091 20081 40203 53001 71000;
0171283340999992000090500004+57340+058210FM-12+024499999V0209999C000012200019N0005001N1+00601+00561102051ADDAY141061AY201061GA1001+999999999GF100991001001999999001001MA1999999099071MD1810011+9999MW1441REMSYN066AAXX  05001 28334 41905 00000 10060 20056 39907 40205 58001 74440;
0180283340999992000090503004+57340+058210FM-12+024499999V0209999C000012200019N0060001N1+00421+00401102061ADDAA199000091AY141031AY201031GA1001+999999999GF100991001001999999001001MD1710021+9999MW1281REMSYN060AAXX  05031 28334 31956 00000 10042 20040 40206 57002 72840;EQDQ01  00002PRCP99
0193283340999992000090506004+57340+058210FM-12+024499999V0209999C000012200019N0500001N1+01531+01021101821ADDAA199000091AY141061AY201061GF102991001001999999001021KA1999N+00411MD1710111+9999MW1031REMSYN076AAXX  05061 28334 31999 20000 10153 20102 40182 57011 70340 80002 333 20041;EQDQ01  00002PRCP99
0112283340999992000090509004+57340+058210FM-12+024499999V0201801N002010750019N0500001N1+02311+00711101601ADDGF105991011011008001001021MD1710141+9999REMSYN060AAXX  05091 28334 42599 51802 10231 20071 40160 57014 81102;
0133283340999992000090512004+57340+058210FM-12+024499999V0209999C000019999999N0500001N1+02331+00901101431ADDGF106991021001999999031021MA1999999098641MD1710161+9999REMSYN066AAXX  05121 28334 42999 60000 10233 20090 39864 40143 57016 82032;
0165283340999992000090515004+57340+058210FM-12+024499999V0209999C000012200019N0500001N1+01871+00881101431ADDAA199000091GF102991001001999999001011KA1999M+02341MD1710051+9999REMSYN070AAXX  05151 28334 32999 20000 10187 20088 40143 57005 80001 333 10234;EQDQ01  00002PRCP99
0175283340999992000090518004+57340+058210FM-12+024499999V0209999C000012200019N0500001N1+01311+01021101511ADDAA199000091GA1001+999999999GF100991001001999999001001KA1999M+02341MD1310021+9999REMSYN064AAXX  05181 28334 32999 00000 10131 20102 40151 53002 333 10234;EQDQ01  00002PRCP99
0122283340999992000090521004+57340+058210FM-12+024499999V0209999C000012200019N0500001N1+01001+00851101501ADDGA1001+999999999GF100991001001999999001001MD1810041+9999REMSYN054AAXX  05211 28334 42984 00000 10100 20085 40150 58004;
0171283340999992000090600004+57340+058210FM-12+024499999V0209999C000012200019N0005001N1+00601+00561101531ADDAY141061AY201061GA1001+999999999GF100991001001999999001001MA1999999098551MD1710021+9999MW1461REMSYN066AAXX  06001 28334 41905 00000 10060 20056 39855 40153 57002 74640;
0180283340999992000090603004+57340+058210FM-12+024499999V0209999C000012200019N0020001N1+00581+00561101441ADDAA199000091AY141031AY201031GA1001+999999999GF100991001001999999001001MD1710081+9999MW1101REMSYN060AAXX  06031 28334 31920 00000 10058 20056 40144 57008 71040;EQDQ01  00002PRCP99
0193283340999992000090606004+57340+058210FM-12+024499999V0209999C000012200019N0500001N1+01651+01001101201ADDAA199000091AY141061AY201061GF102991001001999999001091KA1999N+00581MD1710121+9999MW1031REMSYN076AAXX  06061 28334 31999 20000 10165 20100 40120 57012 70340 80009 333 20058;EQDQ01  00002PRCP99
0112283340999992000090609004+57340+058210FM-12+024499999V0201401N002012200019N0500001N1+02381+00801101021ADDGF103991011001999999041091MD1710111+9999REMSYN060AAXX  06091 28334 42999 31402 10238 20080 40102 57011 81049;
0133283340999992000090612004+57340+058210FM-12+024499999V0201801N002019999999N0500001N1+02271+00811101001ADDGF106991051001999999081091MA1999999098211MD1710031+9999REMSYN066AAXX  06121 28334 42999 61802 10227 20081 39821 40100 57003 85089;
0165283340999992000090615004+57340+058210FM-12+024499999V0209999C000019999999N0500001N1+01861+01211101041ADDAA199000091GF107991061001999999081051KA1999M+02411MD1310011+9999REMSYN070AAXX  06151 28334 32999 70000 10186 20121 40104 53001 86085 333 10241;EQDQ01  00002PRCP99
0145283340999992000090618004+57340+058210FM-12+024499999V0209999C000012200019N0500001N1+01421+01041101101ADDGA1001+999999999GF100991001001999999001001KA1999M+02411MD1210021+9999REMSYN064AAXX  06181 28334 42984 00000 10142 20104 40110 52002 333 10241;
0122283340999992000090621004+57340+058210FM-12+024499999V0209999C000012200019N0500001N1+01241+00931101091ADDGA1001+999999999GF100991001001999999001001MD1810031+9999REMSYN054AAXX  06211 28334 42984 00000 10124 20093 40109 58003;
0133283340999992000090700004+57340+058210FM-12+024499999V0209999C000012200019N0500001N1+00981+00901101171ADDGF102991021001999999031001MA1999999098251MD1310041+9999REMSYN066AAXX  07001 28334 42984 20000 10098 20090 39825 40117 53004 82030;
0170283340999992000090703004+57340+058210FM-12+024499999V0209999C000019999999N0020001N1+00901+00861101291ADDAA199000091AY141031AY211031GF106991021001999999031021MD1210111+9999MW1461REMSYN066AAXX  07031 28334 31920 60000 10090 20086 40129 52011 74641 82032;EQDQ01  00002PRCP99
0193283340999992000090706004+57340+058210FM-12+024499999V0209999C000019999999N0500001N1+01931+01231101231ADDAA199000091AY141061AY221061GF105991021001999999041021KA1999N+00901MD1210051+9999MW1011REMSYN076AAXX  07061 28334 31999 50000 10193 20123 40123 52005 70142 82042 333 20090;EQDQ01  00002PRCP99
0112283340999992000090709004+57340+058210FM-12+024499999V0209999C000010750019N0500001N1+02251+00731101201ADDGF106991031031008001001021MD1410001+9999REMSYN060AAXX  07091 28334 42599 60000 10225 20073 40120 54000 83302;
0187283340999992000090712004+57340+058210FM-12+024499999V0209999C000010060019N0200001N1+02031+01431101231ADDAY181061AY221061GA1081+006009099GF108991081031008001999999MA1999999098421MD1310011+9999MW1801REMSYN082AAXX  07121 28334 41570 80000 10203 20143 39842 40123 53001 78082 883// 333 88920;
0185283340999992000090715004+57340+058210FM-12+024499999V0209999C000010060019N0200001N1+01771+01721101201ADDAY181031AY221031GA1081+006009099GF108991081031008001999999KA1120M+02351MD1810051+9999MW1251REMSYN082AAXX  07151 28334 /1570 80000 10177 20172 40120 58005 72582 883// 333 10235 88920;
0202283340999992000090718004+57340+058210FM-12+024499999V0209999C000010060019N0500001N1+01681+01541101241ADDAA112003091AY181061AY261061GA1061+006009029GF107991061081008001071001KA1120M+02351MD1310031+9999MW1211REMSYN088AAXX  07181 28334 11584 70000 10168 20154 40124 53003 60032 72186 86870 333 10235 86820;
0112283340999992000090721004+57340+058210FM-12+024499999V0209999C000012200019N0500001N1+01541+01281101291ADDGF102991021001999999041001MD1210031+9999REMSYN060AAXX  07211 28334 42984 20000 10154 20128 40129 52003 82040;
0143283340999992000090800004+57340+058210FM-12+024499999V0209999C000012200019N0500001N1+01261+01131101371ADDGA1001+999999999GF100991001001999999001001MA1999999098481MD1210051+9999REMSYN060AAXX  08001 28334 42984 00000 10126 20113 39848 40137 52005;
0140283340999992000090803004+57340+058210FM-12+024499999V0209999C000012200019N0020001N1+01081+01001101441ADDAY101031AY201031GF102991011001999999031091MD1210051+9999MW1101REMSYN066AAXX  08031 28334 /1920 20000 10108 20100 40144 52005 71000 81039;
0152283340999992000090806004+57340+058210FM-12+024499999V0209999C000012200019N0500001N1+02141+01111101251ADDAA112000191GF102991001001999999001021KA1999N+01051MD1810081+9999REMSYN076AAXX  08061 28334 12999 20000 10214 20111 40125 58008 69912 80002 333 20105;
0112283340999992000090809004+57340+058210FM-12+024499999V0202301N004019999999N0500001N1+02441+01151101131ADDGF105991001001999999001021MD1710101+9999REMSYN060AAXX  08091 28334 42999 52304 10244 20115 40113 57010 80002;
0165283340999992000090815004+57340+058210FM-12+024499999V0209999C000019999999N0500001N1+01901+01241101141ADDAA199000091GF107991071001999999031001KA1999M+02501MD1310011+9999REMSYN070AAXX  08151 28334 32999 70000 10190 20124 40114 53001 87030 333 10250;EQDQ01  00002PRCP99
0215283340999992000090818004+57340+058210FM-12+024499999V0209999C000010060019N0500001N1+01851+01381101051ADDAA199000091AY181061AY221061GA1081+006009099GF108991081031008001999999KA1120M+02501MD1810091+9999MW1031REMSYN082AAXX  08181 28334 31584 80000 10185 20138 40105 58009 70382 883// 333 10250 88920;EQDQ01  00002PRCP99
0138283340999992000090821004+57340+058210FM-12+024499999V0209999C000010060019N0500001N1+01641+01261101141ADDGA1081+006009099GF108991081031008001999999MD1310061+9999REMSYN070AAXX  08211 28334 42584 80000 10164 20126 40114 53006 883// 333 88920;
0159283340999992000090900004+57340+058210FM-12+024499999V0202701N002010060019N0060001N1+01491+01231101411ADDGA1081+006009099GF108991081031008001999999MA1999999098541MD1210251+9999REMSYN076AAXX  09001 28334 42556 82702 10149 20123 39854 40141 52025 883// 333 88920;
0166283340999992000090903004+57340+058210FM-12+024499999V0209999C000010060019N0200001N1+01621+01431101561ADDAY181031AY221031GA1081+006009099GF108991081031008001999999MD1210161+9999MW1801REMSYN076AAXX  09031 28334 /1570 80000 10162 20143 40156 52016 78082 883// 333 88920;
0180283340999992000090906004+57340+058210FM-12+024499999V0209999C000019999999N0500001N1+01781+01451101511ADDAA112000791AY181061AY221061GF107991071001999999071001KA1999N+01481MD1810031+9999MW1011REMSYN082AAXX  09061 28334 11999 70000 10178 20145 40151 58003 69902 70182 87070 333 20148;
0112283340999992000090909004+57340+058210FM-12+024499999V0203601N002019999999N0500001N1+01151+00431101561ADDGF107991071001999999041001MD1710031+9999REMSYN060AAXX  09091 28334 42999 73602 10115 20043 40156 57003 87040;
0133283340999992000090912004+57340+058210FM-12+024499999V0203601N002019999999N0500001N1+01101+00481101581ADDGF107991001001999999001081MA1999999098661MD1310021+9999REMSYN066AAXX  09121 28334 42999 73602 10110 20048 39866 40158 53002 80008;
0135283340999992000090915004+57340+058210FM-12+024499999V0203601N002019999999N0500001N1+00971+00451101591ADDGF107991021001999999031081KA1999M+01791MD1410001+9999REMSYN070AAXX  09151 28334 /2999 73602 10097 20045 40159 54000 82038 333 10179;
0152283340999992000090918004+57340+058210FM-12+024499999V0209999C000019999999N0500001N1+00801+00381101671ADDAA112000791GF108991081001999999021999KA1999M+01791MD1310061+9999REMSYN076AAXX  09181 28334 12984 80000 10080 20038 40167 53006 69902 8802/ 333 10179;
0112283340999992000090921004+57340+058210FM-12+024499999V0209999C000019999999N0500001N1+00741+00411101641ADDGF108991081001999999021999MD1810051+9999REMSYN060AAXX  09211 28334 42984 80000 10074 20041 40164 58005 8802/;
0161283340999992000091000004+57340+058210FM-12+024499999V0209999C000019999999N0005001N1+00301+00251101571ADDAY141061AY221061GF106991061001999999031001MA1999999098561MD1710111+9999MW1461REMSYN072AAXX  10001 28334 41905 60000 10030 20025 39856 40157 57011 74642 86030;
0170283340999992000091003004+57340+058210FM-12+024499999V0209999C000019999999N0020001N1+00221+00191101591ADDAA199000091AY141031AY221031GF108991081001999999021999MD1310011+9999MW1281REMSYN066AAXX  10031 28334 31920 80000 10022 20019 40159 53001 72842 8802/;EQDQ01  00002PRCP99
0193283340999992000091006004+57340+058210FM-12+024499999V0209999C000019999999N0500001N1+00781+00411101321ADDAA199000091AY141061AY221061GF106991061001999999081001KA1999N+00221MD1810181+9999MW1011REMSYN076AAXX  10061 28334 31999 60000 10078 20041 40132 58018 70142 86080 333 20022;EQDQ01  00002PRCP99
0138283340999992000091009004+57340+058210FM-12+024499999V0209999C000010069019N0500001N1+01211+00381101101ADDGA1051+006909029GF108991051021008001031001MD1710181+9999REMSYN070AAXX  10091 28334 42599 80000 10121 20038 40110 57018 85230 333 85823;
0159283340999992000091012004+57340+058210FM-12+024499999V0202501N002010300019N0500001N1+01131+00361101041ADDGA1031+006909029GF108991031021008001071999MA1999999098131MD1710081+9999REMSYN076AAXX  10121 28334 42599 82502 10113 20036 39813 40104 57008 8327/ 333 83823;
0165283340999992000091015004+57340+058210FM-12+024499999V0209999C000019999999N0500001N1+00901+00451101001ADDAA199000091GF108991081001999999071999KA1999M+01231MD1710061+9999REMSYN070AAXX  10151 28334 32999 80000 10090 20045 40100 57006 8807/ 333 10123;EQDQ01  00002PRCP99
0165283340999992000091018004+57340+058210FM-12+024499999V0209999C000019999999N0500001N1+00791+00341100951ADDAA199000091GF108991081001999999021999KA1999M+01231MD1710061+9999REMSYN070AAXX  10181 28334 32984 80000 10079 20034 40095 57006 8802/ 333 10123;EQDQ01  00002PRCP99
0138283340999992000091021004+57340+058210FM-12+024499999V0209999C000010069019N0500001N1+00651+00291100821ADDGA1081+006909099GF108991081031008001999999MD1710141+9999REMSYN070AAXX  10211 28334 42584 80000 10065 20029 40082 57014 883// 333 88923;
0159283340999992000091100004+57340+058210FM-12+024499999V0209999C000010069019N0500001N1+00631+00451100721ADDGA1081+006909099GF108991081031008001999999MA1999999097771MD1710101+9999REMSYN076AAXX  11001 28334 42584 80000 10063 20045 39777 40072 57010 883// 333 88923;
0196283340999992000091103004+57340+058210FM-12+024499999V0209999C000010069019N0060001N1+00541+00401100661ADDAA199000091AY121031AY221031GA1081+006909099GF108991081031008001999999MD1710071+9999MW1101REMSYN076AAXX  11031 28334 31556 80000 10054 20040 40066 57007 71022 883// 333 88923;EQDQ01  00002PRCP99
0187283340999992000091106004+57340+058210FM-12+024499999V0209999C000010069019N0500001N1+00911+00651100541ADDAA199000091GA1071+006909059GF107991071051008001001001KA1120N+00541MD1710071+9999REMSYN076AAXX  11061 28334 32599 70000 10091 20065 40054 57007 87500 333 20054 87623;EQDQ01  00002PRCP99
0138283340999992000091109004+57340+058210FM-12+024499999V0209999C000010069019N0500001N1+01031+00741100451ADDGA1081+006909099GF108991081031008001999999MD1710081+9999REMSYN070AAXX  11091 28334 42599 80000 10103 20074 40045 57008 883// 333 88923;
0159283340999992000091112004+57340+058210FM-12+024499999V0209999C000010069019N0500001N1+01111+00641100391ADDGA1081+006909099GF108991081031008001999999MA1999999097501MD1710051+9999REMSYN076AAXX  11121 28334 42599 80000 10111 20064 39750 40039 57005 883// 333 88923;
0185283340999992000091115004+57340+058210FM-12+024499999V0209999C000010060019N0200001N1+00871+00771100371ADDAY181031AY221031GA1081+006009099GF108991081031008001999999KA1120M+01141MD1710041+9999MW1801REMSYN082AAXX  11151 28334 /1570 80000 10087 20077 40037 57004 78082 883// 333 10114 88920;
0202283340999992000091118004+57340+058210FM-12+024499999V0209999C000010060019N0500001N1+00781+00741100301ADDAA112001091AY181061AY221061GA1081+006009099GF108991081031008001999999KA1120M+01141MD1710081+9999MW1021REMSYN088AAXX  11181 28334 11584 80000 10078 20074 40030 57008 60012 70282 883// 333 10114 88920;
0166283340999992000091121004+57340+058210FM-12+024499999V0209999C000010060019N0500001N1+00661+00641100231ADDAY181031AY221031GA1081+006009099GF108991081031008001999999MD1710071+9999MW1021REMSYN076AAXX  11211 28334 41584 80000 10066 20064 40023 57007 70282 883// 333 88920;
0187283340999992000091200004+57340+058210FM-12+024499999V0209999C000010060019N0150001N1+00591+00571100241ADDAY181061AY221061GA1081+006009099GF108991081031008001999999MA1999999097311MD1410001+9999MW1801REMSYN082AAXX  12001 28334 41565 80000 10059 20057 39731 40024 54000 78082 883// 333 88920;
0166283340999992000091203004+57340+058210FM-12+024499999V0209999C000010060019N0060001N1+00781+00781100271ADDAY181031AY241031GA1081+006009099GF108991081031008001999999MD1310041+9999MW1281REMSYN076AAXX  12031 28334 /1556 80000 10078 20078 40027 53004 72884 883// 333 88920;
0202283340999992000091206004+57340+058210FM-12+024499999V0209999C000010069019N0060001N1+01001+00801100291ADDAA112003091AY181061AY241061GA1081+006909099GF108991081031008001999999KA1120N+00581MD1210041+9999MW1101REMSYN088AAXX  12061 28334 11556 80000 10100 20080 40029 52004 60032 71084 883// 333 20058 88923;
0144283340999992000091209004+57340+058210FM-12+024499999V0209999C000010069019N0060001N1+01021+00901100451ADDGA1061+006909099GF106991061031008001001001MD1210171+9999REMSYN076AAXX  12091 28334 4/556 60000 10102 20090 40045 52017 72582 86300 333 86923;
0187283340999992000091212004+57340+058210FM-12+024499999V0209999C000010069019N0500001N1+01201+00881100581ADDAY181061AY221061GA1051+006909099GF106991051031008001001021MA1999999097691MD1210131+9999MW1251REMSYN082AAXX  12121 28334 41599 60000 10120 20088 39769 40058 52013 72582 85302 333 85923;
0157283340999992000091215004+57340+058210FM-12+024499999V0209999C000010069019N0500001N1+00881+00641100771ADDGA1051+006909099GF106991051031008001031001KA1120M+01251MD1210161+9999REMSYN076AAXX  12151 28334 /2599 60000 10088 20064 40077 52016 85330 333 10125 85923;
0202283340999992000091218004+57340+058210FM-12+024499999V0202701N002010060019N0200001N1+00831+00741100771ADDAA112003091AY181061AY221061GA1081+006009099GF108991081031008001999999KA1120M+01251MD1810011+9999MW1801REMSYN088AAXX  12181 28334 /1570 82702 10083 20074 40077 58001 60032 78082 883// 333 10125 88920;
0166283340999992000091221004+57340+058210FM-12+024499999V0209999C001010060019N0500001N1+00741+00701100821ADDAY181031AY221031GA1071+006009099GF107991071031008001001001MD1310041+9999MW1011REMSYN076AAXX  12211 28334 41584 70001 10074 20070 40082 53004 70182 87300 333 87920;
0133283340999992000091300004+57340+058210FM-12+024499999V0209999C000012200019N0005001N1+00671+00651100851ADDGF103991031031008001001001MA1999999097921MD1210041+9999REMSYN066AAXX  13001 28334 41505 30000 10067 20065 39792 40085 52004 83300;
0140283340999992000091303004+57340+058210FM-12+024499999V0209999C000012200019N0005001N1+00441+00441100931ADDAY141031AY201031GF103991031001999999041001MD1210031+9999MW1441REMSYN066AAXX  13031 28334 /1905 30000 10044 20044 40093 52003 74440 83040;
0183283340999992000091306004+57340+058210FM-12+024499999V0209999C000010060019N0060001N1+00971+00891100921ADDAA112002091AY141061AY211061GA1051+006009029GF107991051071008001031001MD1210051+9999MW1101REMSYN082AAXX  13061 28334 41556 70000 10097 20089 40092 52005 60022 71041 85730 333 85820;
0157283340999992000091309004+57340+058210FM-12+024499999V0209999C000010060019N0500001N1+01341+00991100801ADDGA1081+006009029GF108991999071008001021999MD1810071+9999REMSYN070AAXX  13091 28334 42599 80000 10134 20099 40080 58007 8872/ 333 88820;EQDQ01+000082SCOTLC
0202283340999992000091318004+57340+058210FM-12+024499999V0209999C000010060019N0150001N1+00981+00901100271ADDAA112007191AY161061AY221061GA1081+006009029GF108991081001008001021999KA1120M+01351MD1710221+9999MW1611REMSYN088AAXX  13181 28334 11565 80000 10098 20090 40027 57022 60072 76162 8802/ 333 10135 88520;
0140283340999992000091321004+57340+058210FM-12+024499999V0209999C000019999999N0500001N1+00921+00881099991ADDAY161031AY221031GF108991081001999999021999MD1710281+9999MW1211REMSYN066AAXX  13211 28334 41984 80000 10092 20088 49999 57028 72162 8802/;
0161283340999992000091400004+57340+058210FM-12+024499999V0209999C000019999999N0500001N1+00861+00841099771ADDAY161061AY221061GF108991081001999999021999MA1999999096881MD1710211+9999MW1211REMSYN072AAXX  14001 28334 41984 80000 10086 20084 39688 49977 57021 72162 8802/;
0166283340999992000091403004+57340+058210FM-12+024499999V0209999C000010060019N0060001N1+01001+00941099461ADDAY161031AY251031GA1081+006009029GF108991081001008001021999MD1710291+9999MW1611REMSYN076AAXX  14031 28334 /1556 80000 10100 20094 49946 57029 76165 8802/ 333 88520;
0202283340999992000091406004+57340+058210FM-12+024499999V0202501N006010060019N0500001N1+01471+00211099281ADDAA112007191AY161061AY251061GA1081+006009029GF108991081001008001021999KA1120N+00861MD1710131+9999MW1021REMSYN088AAXX  14061 28334 11599 82506 10147 20021 49928 57013 60072 70265 8802/ 333 20086 88520;
0166283340999992000091409004+57340+058210FM-12+024499999V0202301N006010060019N0500001N1+00891+00611099361ADDAY151031AY221031GA1081+006009069GF108991081071008001999999MD1310021+9999MW1021REMSYN076AAXX  14091 28334 41599 82306 10089 20061 49936 53002 70252 887// 333 88720;
0187283340999992000091412004+57340+058210FM-12+024499999V0202501N006010060019N0500001N1+00871+00581099311ADDAY151061AY221061GA1081+006009069GF108991081071008001999999MA1999999096441MD1810041+9999MW1021REMSYN082AAXX  14121 28334 41599 82506 10087 20058 39644 49931 58004 70252 887// 333 88720;
0185283340999992000091415004+57340+058210FM-12+024499999V0202501N002010060019N0200001N1+00741+00671099291ADDAY161031AY251031GA1071+006009069GF108991071071008001021999KA1120M+01471MD1710041+9999MW1601REMSYN082AAXX  14151 28334 /1570 82502 10074 20067 49929 57004 76065 8772/ 333 10147 87720;
0180283340999992000091418004+57340+058210FM-12+024499999V0202501N002019999999N0060001N1+00681+00641099241ADDAA112001091AY161061AY251061GF108991081001999999021999KA1999M+01491MD1710051+9999MW1611REMSYN082AAXX  14181 28334 11956 82502 10068 20064 49924 57005 60012 76165 8802/ 333 10149;
0140283340999992000091421004+57340+058210FM-12+024499999V0202501N002019999999N0150001N1+00671+00631099271ADDAY161031AY251031GF108991081001999999021999MD1310031+9999MW1611REMSYN066AAXX  14211 28334 41965 82502 10067 20063 49927 53003 76165 8802/;
0187283340999992000091500004+57340+058210FM-12+024499999V0202301N004010060019N0500001N1+00661+00591099521ADDAY161061AY251061GA1051+006009069GF108991051071008001011999MA1999999096621MD1210241+9999MW1021REMSYN082AAXX  15001 28334 41584 82304 10066 20059 39662 49952 52024 70265 8571/ 333 85720;
0185283340999992000091503004+57340+058210FM-12+024499999V0202701N006010060019N0070001N1+00771+00611099601ADDAY161031AY251031GA1081+006009029GF108991999071008001021999MD1210121+9999MW1611REMSYN076AAXX  15031 28334 /1557 82706 10077 20061 49960 52012 76165 8872/ 333 88820;EQDQ01+000082SCOTLC
0221283340999992000091506004+57340+058210FM-12+024499999V0202701N006010060019N0500001N1+00701+00501099711ADDAA112010991AY161061AY251061GA1081+006009069GF108991999071008001021999KA1120N+00661MD1210101+9999MW1021REMSYN088AAXX  15061 28334 11599 82706 10070 20050 49971 52010 60112 70265 8872/ 333 20066 88720;EQDQ01+000082SCOTLC
0159283340999992000091509004+57340+058210FM-12+024499999V0202901N006010075019N0500001N1+00651+00291100011ADDAY161031AY251031GF108991999071008001021999MD1210281+9999MW1611REMSYN066AAXX  15091 28334 41599 82906 10065 20029 40001 52028 76165 8872/;EQDQ01+000082SCOTLC
0206283340999992000091512004+57340+058210FM-12+024499999V0203201N004010060019N0200001N1+00601+00461100331ADDAY161061AY251061GA1081+006009069GF108991999071008001021999MA1999999097391MD1210311+9999MW1581REMSYN082AAXX  15121 28334 41570 83204 10060 20046 39739 40033 52031 75865 8872/ 333 88720;EQDQ01+000082SCOTLC
0204283340999992000091515004+57340+058210FM-12+024499999V0202701N002010060019N0200001N1+00551+00381100531ADDAY161031AY251031GA1081+006009069GF108991999071008001021999KA1120M+00691MD1210191+9999MW1511REMSYN082AAXX  15151 28334 /1570 82702 10055 20038 40053 52019 75165 8872/ 333 10069 88720;EQDQ01+000082SCOTLC
0221283340999992000091518004+57340+058210FM-12+024499999V0202701N002010051019N0500001N1+00511+00371100681ADDAA112003091AY161061AY251061GA1081+005109029GF108991999071004501021999KA1120M+00721MD1210141+9999MW1021REMSYN088AAXX  15181 28334 11484 82702 10051 20037 40068 52014 60032 70265 8872/ 333 10072 88817;EQDQ01+000082SCOTLC
0138283340999992000091521004+57340+058210FM-12+024499999V0202901N002010045019N0500001N1+00471+00351100821ADDGA1071+004509029GF107991071071004501021001MD1210141+9999REMSYN070AAXX  15211 28334 42484 72902 10047 20035 40082 52014 87720 333 87815;
0206283340999992000091600004+57340+058210FM-12+024499999V0202701N004010060019N0060001N1+00461+00361100971ADDAY161061AY251061GA1081+006009069GF108991999071008001021999MA1999999097991MD1210131+9999MW1511REMSYN082AAXX  16001 28334 41556 82704 10046 20036 39799 40097 52013 75165 8872/ 333 88720;EQDQ01+000082SCOTLC
0185283340999992000091603004+57340+058210FM-12+024499999V0209999C000010060019N0060001N1+00471+00421101081ADDAY151031AY221031GA1081+006009069GF108991999071008001021999MD1210121+9999MW1501REMSYN076AAXX  16031 28334 /1556 80000 10047 20042 40108 52012 75052 8872/ 333 88720;EQDQ01+000082SCOTLC
0202283340999992000091606004+57340+058210FM-12+024499999V0209999C000010069019N0500001N1+00601+00411101341ADDAA112000591AY151061AY221061GA1071+006909099GF107991071031008001001001KA1120N+00441MD1210261+9999MW1011REMSYN088AAXX  16061 28334 11599 70000 10060 20041 40134 52026 69952 70152 87300 333 20044 87923;
0138283340999992000091609004+57340+058210FM-12+024499999V0209999C000010069019N0500001N1+01021+00551101371ADDGA1071+006909099GF107991071031008001001001MD1210081+9999REMSYN070AAXX  16091 28334 42599 70000 10102 20055 40137 52008 87300 333 87923;
0159283340999992000091612004+57340+058210FM-12+024499999V0202701N002010069019N0500001N1+00881+00481101441ADDGA1071+006909099GF107991071031008001001001MA1999999098511MD1210061+9999REMSYN076AAXX  16121 28334 42599 72702 10088 20048 39851 40144 52006 87300 333 87923;
0168283340999992000091615004+57340+058210FM-12+024499999V0209999C000010069019N0500001N1+00701+00401101531ADDAA199000021GA1071+006909099GF107991071031008001001001KA1120M+01051MD1210051+9999REMSYN076AAXX  16151 28334 32599 70000 10070 20040 40153 52005 87300 333 10105 87923;
0165283340999992000091618004+57340+058210FM-12+024499999V0200701N002010300019N0500001N1+00591+00501101361ADDAA199000091GF107991021011008001031001KA1999M+01051MD1810171+9999REMSYN070AAXX  16181 28334 32584 70702 10059 20050 40136 58017 82130 333 10105;EQDQ01  00002PRCP99
0206283340999992000091700004+57340+058210FM-12+024499999V0200701N002010060019N0150001N1+00601+00361100911ADDAY161061AY251061GA1081+006009069GF108991999071008001021999MA1999999097951MD1710281+9999MW1581REMSYN082AAXX  17001 28334 41565 80702 10060 20036 39795 40091 57028 75865 8872/ 333 88720;EQDQ01+000082SCOTLC
0168283340999992000091703004+57340+058210FM-12+024499999V0200501N004010075019N0200001N1+00541+00421100551ADDAY161031AY251031GF108991999071008001021999MD1710351+9999MW1611REMSYN075AAXX  17031 28334 /1570 80504 10054 20042 40055 57035 76165 8872/ 33 88720;EQDQ01+000082SCOTLC
0221283340999992000091706004+57340+058210FM-12+024499999V0200901N002010060019N0200001N1+00581+00491100371ADDAA112003091AY161061AY251061GA1081+006009069GF108991999071008001021999KA1120N+00541MD1710171+9999MW1611REMSYN088AAXX  17061 28334 11570 80902 10058 20049 40037 57017 60032 76165 8872/ 333 20054 88720;EQDQ01+000082SCOTLC
0185283340999992000091709004+57340+058210FM-12+024499999V0200901N002010060019N0500001N1+00681+00611100251ADDAY161031AY221031GA1081+006009069GF108991999071008001021999MD1710101+9999MW1021REMSYN076AAXX  17091 28334 41599 80902 10068 20061 40025 57010 70262 8872/ 333 88720;EQDQ01+000082SCOTLC
0206283340999992000091712004+57340+058210FM-12+024499999V0200901N002010060019N0200001N1+00771+00701100251ADDAY161061AY221061GA1081+006009069GF108991999071008001021999MA1999999097341MD1310011+9999MW1611REMSYN082AAXX  17121 28334 41570 80902 10077 20070 39734 40025 53001 76162 8872/ 333 88720;EQDQ01+000082SCOTLC
0157283340999992000091715004+57340+058210FM-12+024499999V0209999C000010060019N0500001N1+00641+00431100341ADDGA1051+006009069GF107991051071008001071001KA1120M+00781MD1210061+9999REMSYN076AAXX  17151 28334 /2599 70000 10064 20043 40034 52006 85770 333 10078 85720;
0152283340999992000091718004+57340+058210FM-12+024499999V0209999C000019999999N0500001N1+00581+00421100341ADDAA112006191GF108991081001999999021999KA1999M+00781MD1810011+9999REMSYN076AAXX  17181 28334 12984 80000 10058 20042 40034 58001 60062 8802/ 333 10078;
0140283340999992000091721004+57340+058210FM-12+024499999V0209999C000019999999N0060001N1+00561+00441100341ADDAY121031AY221031GF107991071001999999031001MD1410001+9999MW1101REMSYN066AAXX  17211 28334 41956 70000 10056 20044 40034 54000 71022 87030;
0161283340999992000091800004+57340+058210FM-12+024499999V0209999C000019999999N0005001N1+00221+00191100171ADDAY141061AY221061GF107991071001999999031001MA1999999097201MD1810191+9999MW1441REMSYN072AAXX  18001 28334 41905 70000 10022 20019 39720 40017 58019 74442 87030;
0166283340999992000091803004+57340+058210FM-12+024499999V0209999C000010060019N0020001N1+00381+00331100131ADDAY161031AY251031GA1081+006009029GF108991081001008001021999MD1710021+9999MW1511REMSYN076AAXX  18031 28334 /1520 80000 10038 20033 40013 57002 75165 8802/ 333 88520;
0221283340999992000091806004+57340+058210FM-12+024499999V0203201N002010051019N0500001N1+00411+00261100111ADDAA112000391AY161061AY251061GA1081+005109069GF108991999071004501021999KA1120N+00221MD1710021+9999MW1501REMSYN088AAXX  18061 28334 11499 83202 10041 20026 40011 57002 69932 75065 8872/ 333 20022 88717;EQDQ01+000082SCOTLC
0166283340999992000091809004+57340+058210FM-12+024499999V0203201N002010051019N0500001N1+00431+00281100271ADDAY161031AY251031GA1081+005109029GF108991081001004501021999MD1310161+9999MW1211REMSYN076AAXX  18091 28334 41499 83202 10043 20028 40027 53016 72165 8802/ 333 88517;
0187283340999992000091812004+57340+058210FM-12+024499999V0203201N004010051019N0200001N1+00451+00251100481ADDAY161061AY251061GA1081+005109029GF108991081001004501021999MA1999999097521MD1210201+9999MW1611REMSYN082AAXX  18121 28334 41470 83204 10045 20025 39752 40048 52020 76165 8802/ 333 88517;
0185283340999992000091815004+57340+058210FM-12+024499999V0203601N002010060019N0500001N1+00311+00211100741ADDAY161031AY221031GA1061+006009069GF108991061071008001071999KA1120M+00461MD1210241+9999MW1211REMSYN082AAXX  18151 28334 /1584 83602 10031 20021 40074 52024 72162 8677/ 333 10046 86720;
0180283340999992000091818004+57340+058210FM-12+024499999V0203601N002019999999N0500001N1+00301+00201100941ADDAA112002091AY161061AY221061GF108991081001999999021999KA1999M+00461MD1210191+9999MW1021REMSYN082AAXX  18181 28334 11984 83602 10030 20020 40094 52019 60022 70262 8802/ 333 10046;
0112283340999992000091821004+57340+058210FM-12+024499999V0203601N002019999999N0500001N1+00301+00141101101ADDGF108991081001999999031001MD1210161+9999REMSYN060AAXX  18211 28334 42984 83602 10030 20014 40110 52016 88030;
0159283340999992000091900004+57340+058210FM-12+024499999V0209999C000010060019N0500001N1+00211+00021101401ADDGA1061+006009069GF106991061071008001001001MA1999999098391MD1210281+9999REMSYN076AAXX  19001 28334 42584 60000 10021 20002 39839 40140 52028 86700 333 86720;
0138283340999992000091903004+57340+058210FM-12+024499999V0203201N002010060019N0500001N1+00231+00071101441ADDGA1061+006009069GF106991061071008001001001MD1210041+9999REMSYN070AAXX  19031 28334 /2599 63202 10023 20007 40144 52004 86700 333 86720;
0152283340999992000091906004+57340+058210FM-12+024499999V0202901N002012200019N0500001N1+00511+00011101561ADDAA112001091GF101991001001999999001011KA1999N+00211MD1210141+9999REMSYN076AAXX  19061 28334 32999 12902 10051 20001 40156 52014 60012 80001 333 20021;
0138283340999992000091909004+57340+058210FM-12+024499999V0203401N002010069019N0500001N1+00881+00001101571ADDGA1071+006909029GF107991071081008001001001MD1210051+9999REMSYN070AAXX  19091 28334 42599 73402 10088 20000 40157 52005 87800 333 87823;
0159283340999992000091912004+57340+058210FM-12+024499999V0202901N002010069019N0500001N1+01051+00271101631ADDGA1061+006909029GF107991061021008001041021MA1999999098701MD1210081+9999REMSYN076AAXX  19121 28334 42599 72902 10105 20027 39870 40163 52008 86242 333 86823;
0165283340999992000091915004+57340+058210FM-12+024499999V0202701N002010300019N0500001N1+00831+00171101681ADDAA199000091GF106991021081008001041091KA1999M+01061MD1210031+9999REMSYN070AAXX  19151 28334 32584 62702 10083 20017 40168 52003 82849 333 10106;EQDQ01  00002PRCP99
0187283340999992000091918004+57340+058210FM-12+024499999V0209999C000010069019N0500001N1+00571+00361101831ADDAA199000091GA1051+006909029GF107991051081008001001071KA1120M+01061MD1210121+9999REMSYN076AAXX  19181 28334 32584 70000 10057 20036 40183 52012 85807 333 10106 85823;EQDQ01  00002PRCP99
0112283340999992000091921004+57340+058210FM-12+024499999V0209999C000010300019N0500001N1+00571+00431101791ADDGF107991021011008001031021MD1810041+9999REMSYN060AAXX  19211 28334 42584 70000 10057 20043 40179 58004 82132;
0168283340999992000092003004+57340+058210FM-12+024499999V0202301N002010069019N0500001N1+00691+00561101681ADDAA199000091GA1051+006909099GF108991051031008001071999MD1710051+9999REMSYN070AAXX  20031 28334 32599 82302 10069 20056 40168 57005 8537/ 333 85923;EQDQ01  00002PRCP99
0187283340999992000092006004+57340+058210FM-12+024499999V0202301N004010069019N0500001N1+00961+00651101601ADDAA199000091GA1061+006909099GF108991061031008001031001KA1120N+00561MD1710041+9999REMSYN076AAXX  20061 28334 32599 82304 10096 20065 40160 57004 86330 333 20056 86923;EQDQ01  00002PRCP99
0138283340999992000092009004+57340+058210FM-12+024499999V0202701N004010069019N0500001N1+01221+00561101371ADDGA1051+006909029GF106991051021008001001091MD1710201+9999REMSYN070AAXX  20091 28334 42599 62704 10122 20056 40137 57020 85209 333 85823;
0133283340999992000092012004+57340+058210FM-12+024499999V0202501N004012200019N0500001N1+01351+00411101251ADDGF102991011021008001001021MA1999999098361MD1710111+9999REMSYN066AAXX  20121 28334 42599 22504 10135 20041 39836 40125 57011 81202;
0165283340999992000092015004+57340+058210FM-12+024499999V0202301N004012200019N0500001N1+01101+00581101271ADDAA199000091GF102991001001999999001021KA1999M+01361MD1410001+9999REMSYN070AAXX  20151 28334 32984 22304 10110 20058 40127 54000 80002 333 10136;EQDQ01  00002PRCP99
0165283340999992000092018004+57340+058210FM-12+024499999V0202301N004012200019N0500001N1+00991+00531101141ADDAA199000091GF101991001001999999001021KA1999M+01361MD1710101+9999REMSYN070AAXX  20181 28334 32984 12304 10099 20053 40114 57010 80002 333 10136;EQDQ01  00002PRCP99
0142283340999992000092021004+57340+058210FM-12+024499999V0202301N004012200019N0500001N1+00991+00531101141ADDAA199000091GF101991001001999999001021MD1710101+9999REMSYN060AAXX  20211 28334 32984 12304 10099 20053 40114 57010 80002;EQDQ01  00002PRCP99
0159283340999992000092100004+57340+058210FM-12+024499999V0202501N002010069019N0500001N1+00891+00581101041ADDGA1071+006909029GF107991071021008001001021MA1999999098101MD1710021+9999REMSYN076AAXX  21001 28334 42584 72502 10089 20058 39810 40104 57002 87202 333 87823;
0183283340999992000092103004+57340+058210FM-12+024499999V0202901N002010069019N0500001N1+00231-00301101441ADDAA112000191AY171031AY221031GA1061+006909099GF106991061031008001001001MD1310331+9999MW1221REMSYN082AAXX  21031 28334 /1599 62902 10023 21030 40144 53033 69912 72272 86300 333 86923;
0221283340999992000092106004+57340+058210FM-12+024499999V0203601N002010069019N0500001N1+00231-00171101701ADDAA112000191AY171061AY221061GA1081+006909099GF108991081031008001999999KA1120N+99999MD1210251+9999MW1031REMSYN088AAXX  21061 28334 11599 83602 10023 21017 40170 52025 69912 70372 883// 333 20084 88923;EQDQ01 +00842ATMN  
0138283340999992000092109004+57340+058210FM-12+024499999V0203601N002010069019N0500001N1+00351-00181101821ADDGA1081+006909099GF108991081031008001999999MD1210131+9999REMSYN070AAXX  21091 28334 42599 83602 10035 21018 40182 52013 883// 333 88923;
0159283340999992000092112004+57340+058210FM-12+024499999V0203601N002010069019N0500001N1+00391-00171101941ADDGA1071+006909099GF107991071031008001001001MA1999999098921MD1210111+9999REMSYN076AAXX  21121 28334 42599 73602 10039 21017 39892 40194 52011 87300 333 87923;
0185283340999992000092115004+57340+058210FM-12+024499999V0203601N002010069019N0500001N1+00221-00811102131ADDAY171031AY221031GA1081+006909059GF108991081051008001999999KA1120M+00401MD1210181+9999MW1031REMSYN082AAXX  21151 28334 /1584 83602 10022 21081 40213 52018 70372 885// 333 10040 88623;
0190283340999992000092118004+57340+058210FM-12+024499999V0209999C000012200019N0500001N1-00121-00441102461ADDAA112000791AY171061AY211061GA1001+999999999GF100991001001999999001001KA1999M+00401MD1210281+9999MW1011REMSYN076AAXX  21181 28334 11984 00000 11012 21044 40246 52028 69902 70171 333 10040;
0122283340999992000092121004+57340+058210FM-12+024499999V0209999C000012200019N0500001N1-00181-00401102471ADDGA1001+999999999GF100991001001999999001001MD1210011+9999REMSYN054AAXX  21211 28334 42984 00000 11018 21040 40247 52001;
0143283340999992000092200004+57340+058210FM-12+024499999V0209999C000012200019N0500001N1-00441-00551102511ADDGA1001+999999999GF100991001001999999001001MA1999999099471MD1210081+9999REMSYN060AAXX  22001 28334 42984 00000 11044 21055 39947 40251 52008;
0152283340999992000092203004+57340+058210FM-12+024499999V0209999C000012200019N0500001N1-00521-00691102541ADDAA199000091GA1001+999999999GF100991001001999999001001MD1210051+9999REMSYN054AAXX  22031 28334 32999 00000 11052 21069 40254 52005;EQDQ01  00002PRCP99
0165283340999992000092206004+57340+058210FM-12+024499999V0209999C000012200019N0500001N1+00021-00621102631ADDAA199000091GF102991021011008001001001KA1999N-00521MD1210041+9999REMSYN070AAXX  22061 28334 32599 20000 10002 21062 40263 52004 82100 333 21052;EQDQ01  00002PRCP99
0138283340999992000092209004+57340+058210FM-12+024499999V0209999C000010750019N0500001N1+00351-00431102581ADDGA1041+006909029GF106991041011008001001021MD1810021+9999REMSYN070AAXX  22091 28334 42599 60000 10035 21043 40258 58002 84102 333 84823;
0133283340999992000092212004+57340+058210FM-12+024499999V0209999C000019999999N0500001N1+00431-00631102471ADDGF105991001001999999001021MA1999999099451MD1710091+9999REMSYN066AAXX  22121 28334 42999 50000 10043 21063 39945 40247 57009 80002;
0165283340999992000092215004+57340+058210FM-12+024499999V0209999C000012200019N0500001N1+00151-00811102471ADDAA199000091GF102991001001999999001021KA1999M+00441MD1710031+9999REMSYN070AAXX  22151 28334 32984 20000 10015 21081 40247 57003 80002 333 10044;EQDQ01  00002PRCP99
0175283340999992000092218004+57340+058210FM-12+024499999V0209999C000012200019N0500001N1+00331-00801102461ADDAA199000091GA1001+999999999GF100991001001999999001001KA1999M+00441MD1410001+9999REMSYN064AAXX  22181 28334 32984 00000 10033 21080 40246 54000 333 10044;EQDQ01  00002PRCP99
0122283340999992000092221004+57340+058210FM-12+024499999V0209999C000012200019N0500001N1-00421-01071102511ADDGA1001+999999999GF100991001001999999001001MD1810031+9999REMSYN054AAXX  22211 28334 42984 00000 11042 21107 40251 58003;
0143283340999992000092300004+57340+058210FM-12+024499999V0209999C000012200019N0500001N1-00611-00891102281ADDGA1001+999999999GF100991001001999999001001MA1999999099281MD1710111+9999REMSYN060AAXX  23001 28334 42984 00000 11061 21089 39928 40228 57011;
0168283340999992000092303004+57340+058210FM-12+024499999V0209999C000010069019N0500001N1-00421-00611102291ADDAA199000091GA1061+006909069GF107991061071008001011001MD1710111+9999REMSYN070AAXX  23031 28334 32599 70000 11042 21061 40229 57011 86710 333 86723;EQDQ01  00002PRCP99
0165283340999992000092306004+57340+058210FM-12+024499999V0209999C000019999999N0500001N1+00071-00161102221ADDAA199000091GF108991081001999999071999KA1999N-00611MD1710011+9999REMSYN070AAXX  23061 28334 32999 80000 10007 21016 40222 57001 8807/ 333 21061;EQDQ01  00002PRCP99
0166283340999992000092309004+57340+058210FM-12+024499999V0202901N002010069019N0500001N1+00361-00171102191ADDAY171031AY221031GA1071+006909069GF108991071071008001021999MD1410001+9999MW1021REMSYN076AAXX  23091 28334 41599 82902 10036 21017 40219 54000 70272 8772/ 333 87723;
0159283340999992000092312004+57340+058210FM-12+024499999V0203401N002010300019N0500001N1+00591+00021102161ADDGA1041+006909029GF107991041081008001031001MA1999999099171MD1310011+9999REMSYN076AAXX  23121 28334 42599 73402 10059 20002 39917 40216 53001 84830 333 84823;
0135283340999992000092315004+57340+058210FM-12+024499999V0209999C000012200019N0500001N1+00451+00091102211ADDGF102991021081008001001001KA1999M+00601MD1210021+9999REMSYN070AAXX  23151 28334 /2584 20000 10045 20009 40221 52002 82800 333 10060;
0162283340999992000092318004+57340+058210FM-12+024499999V0209999C000012200019N0500001N1+00161+00081102281ADDAA112000791GA1001+999999999GF100991001001999999001001KA1999M+00601MD1210041+9999REMSYN070AAXX  23181 28334 12984 00000 10016 20008 40228 52004 69902 333 10060;
0112283340999992000092321004+57340+058210FM-12+024499999V0209999C000019999999N0500001N1-00071-00191102371ADDGF106991061001999999041001MD1210071+9999REMSYN060AAXX  23211 28334 42984 60000 11007 21019 40237 52007 86040;
0155283340999992000092400004+57340+058210FM-12+024499999V0209999C000019999999N0005001N1-00161-00191102431ADDAY141061AY211061GF108991999999999999999999MA1999999099351MD1210051+9999MW1461REMSYN066AAXX  24001 28334 41905 80000 11016 21019 39935 40243 52005 74641;
0170283340999992000092403004+57340+058210FM-12+024499999V0209999C000019999999N0005001N1-00111-00141102551ADDAA199000091AY141031AY221031GF108991081001999999021999MD1210111+9999MW1441REMSYN066AAXX  24031 28334 31905 80000 11011 21014 40255 52011 74442 8802/;EQDQ01  00002PRCP99
0193283340999992000092406004+57340+058210FM-12+024499999V0209999C000019999999N0500001N1+00241+00081102621ADDAA199000091AY141061AY221061GF106991061001999999031001KA1999N-00201MD1210111+9999MW1011REMSYN076AAXX  24061 28334 31999 60000 10024 20008 40262 52011 70142 86030 333 21020;EQDQ01  00002PRCP99
0138283340999992000092409004+57340+058210FM-12+024499999V0203201N002010069019N0500001N1+00601-00451102711ADDGA1051+006909099GF106991051031008001001021MD1210131+9999REMSYN070AAXX  24091 28334 42599 63202 10060 21045 40271 52013 85302 333 85923;
0159283340999992000092412004+57340+058210FM-12+024499999V0203401N004010069019N0500001N1+00641-00381102621ADDGA1051+006909099GF106991051031008001031021MA1999999099621MD1810081+9999REMSYN076AAXX  24121 28334 42599 63404 10064 21038 39962 40262 58008 85332 333 85923;
0187283340999992000092415004+57340+058210FM-12+024499999V0209999C000010069019N0500001N1+00471-00131102701ADDAA199000091GA1061+006909099GF106991061031008001001001KA1120M+00681MD1310061+9999REMSYN076AAXX  24151 28334 32584 60000 10047 21013 40270 53006 86300 333 10068 86923;EQDQ01  00002PRCP99
0175283340999992000092418004+57340+058210FM-12+024499999V0209999C000012200019N0500001N1-00131-00221102601ADDAA199000091GA1001+999999999GF100991001001999999001001KA1999M+00681MD1810151+9999REMSYN064AAXX  24181 28334 31984 00000 11013 21022 40260 58015 333 10068;EQDQ01  00002PRCP99
0122283340999992000092421004+57340+058210FM-12+024499999V0209999C000012200019N0500001N1-00331-00461102611ADDGA1001+999999999GF100991001001999999001001MD1710051+9999REMSYN054AAXX  24211 28334 42984 00000 11033 21046 40261 57005;
0171283340999992000092500004+57340+058210FM-12+024499999V0209999C000012200019N0005001N1-00421-00541102431ADDAY141061AY201061GA1001+999999999GF100991001001999999001001MA1999999099311MD1710171+9999MW1461REMSYN066AAXX  25001 28334 41905 00000 11042 21054 39931 40243 57017 74640;
0170283340999992000092503004+57340+058210FM-12+024499999V0209999C000019999999N0020001N1-00221-00251102281ADDAA199000091AY141031AY211031GF108991081001999999021999MD1710121+9999MW1421REMSYN066AAXX  25031 28334 31920 80000 11022 21025 40228 57012 74241 8802/;EQDQ01  00002PRCP99
0215283340999992000092506004+57340+058210FM-12+024499999V0209999C000010069019N0060001N1+00061-00161102061ADDAA199000091AY141061AY211061GA1061+006909029GF108991061081008001071999KA1120N-00421MD1710181+9999MW1101REMSYN082AAXX  25061 28334 31556 80000 10006 21016 40206 57018 71041 8687/ 333 21042 86823;EQDQ01  00002PRCP99
0153283340999992000092509004+57340+058210FM-12+024499999V0209999C000010069019N0500001N1+00331+99999101751ADDGA1051+006909029GF108991051081008001071999MA1999999100071MD1710271+9999REMSYN070AAXX  25091 28334 42599 80000 10033 30007 40175 57027 8587/ 333 85823;
0152283340999992000092512004+57340+058210FM-12+024499999V0202301N002019999999N0500001N1+00541+00371101531ADDGF108991081001999999021999MA1999999098552MD1710191+9999REMSYN066AAXX  25121 28334 42999 82302 10054 20037 39855 40153 57019 8802/;EQDQ01+098553APOSP 
0181283340999992000092515004+57340+058210FM-12+024499999V0202301N002019999999N0500001N1+00711-00301101311ADDAA199000091GF107991999001999999071999KA1999M+00721MD1710191+9999REMSYN070AAXX  25151 28334 32984 72302 10071 21030 40131 57019 8807/ 333 10072;EQDQ01+000082SCOTLCQ02  00002PRCP99
0165283340999992000092518004+57340+058210FM-12+024499999V0202301N004019999999N0500001N1+00601+00311101161ADDAA199000091GF108991081001999999021999KA1999M+00721MD1710161+9999REMSYN070AAXX  25181 28334 32984 82304 10060 20031 40116 57016 8802/ 333 10072;EQDQ01  00002PRCP99
0166283340999992000092521004+57340+058210FM-12+024499999V0202301N002010069019N0200001N1+00491+00371100961ADDAY161031AY221031GA1081+006909029GF108991081001008001021999MD1710211+9999MW1611REMSYN076AAXX  25211 28334 41570 82302 10049 20037 40096 57021 76162 8802/ 333 88523;
0187283340999992000092600004+57340+058210FM-12+024499999V0202001N002010069019N0200001N1+00561+00491100771ADDAY161061AY221061GA1081+006909029GF108991081001008001021999MA1999999097821MD1710171+9999MW1611REMSYN082AAXX  26001 28334 41570 82002 10056 20049 39782 40077 57017 76162 8802/ 333 88523;
0221283340999992000092606004+57340+058210FM-12+024499999V0202501N002010051019N0200001N1+00711+00591100291ADDAA112003091AY161061AY251061GA1081+005109069GF108991999071004501021999KA1120N+00491MD1710281+9999MW1581REMSYN088AAXX  26061 28334 11470 82502 10071 20059 40029 57028 60032 75865 8872/ 333 20049 88717;EQDQ01+000082SCOTLC
0168283340999992000092609004+57340+058210FM-12+024499999V0209999C000010042019N0200001N1+00711+00621100241ADDAY161031AY251031GF108991999071004501021999MD1710041+9999MW1611REMSYN075AAXX  26091 28334 41470 80000 10071 20062 40024 57004 76165 8872/ 333 8717;EQDQ01+000082SCOTLC
0206283340999992000092612004+57340+058210FM-12+024499999V0202301N004010051019N0500001N1+00771+00641100281ADDAY161061AY251061GA1081+005109069GF108991999071004501021999MA1999999097361MD1310041+9999MW1211REMSYN082AAXX  26121 28334 41499 82304 10077 20064 39736 40028 53004 72165 8872/ 333 88717;EQDQ01+000082SCOTLC
0185283340999992000092615004+57340+058210FM-12+024499999V0209999C000010060019N0060001N1+00571+00521100361ADDAY121031AY221031GA1071+006009029GF107991071081008001001001KA1120M+00801MD1210061+9999MW1101REMSYN082AAXX  26151 28334 /1556 70000 10057 20052 40036 52006 71022 87800 333 10080 87820;
0221283340999992000092618004+57340+058210FM-12+024499999V0209999C000010060019N0150001N1+00461+00291100451ADDAA112006191AY161061AY221061GA1081+006009069GF108991999071008001021999KA1120M+00801MD1210071+9999MW1611REMSYN088AAXX  26181 28334 11565 80000 10046 20029 40045 52007 60062 76162 8872/ 333 10080 88720;EQDQ01+000082SCOTLC
0166283340999992000092621004+57340+058210FM-12+024499999V0209999C000010060019N0500001N1+00261+00131100451ADDAY161031AY221031GA1081+006009069GF108991081071008001999999MD1810021+9999MW1021REMSYN076AAXX  26211 28334 41584 80000 10026 20013 40045 58002 70262 887// 333 88720;
0143283340999992000092700004+57340+058210FM-12+024499999V0209999C000012200019N0500001N1+00021-00191100481ADDGA1001+999999999GF100991001001999999001001MA1999999097481MD1310011+9999REMSYN060AAXX  27001 28334 42984 00000 10002 21019 39748 40048 53001;
0150283340999992000092703004+57340+058210FM-12+024499999V0209999C000012200019N0005001N1+00011-00071100511ADDAY141031AY201031GA1001+999999999GF100991001001999999001001MD1210031+9999MW1461REMSYN060AAXX  27031 28334 /1905 00000 10001 21007 40051 52003 74640;
0221283340999992000092706004+57340+058210FM-12+024499999V0209999C000010060019N0060001N1+00201+00091100521ADDAA112000891AY171061AY261061GA1081+006009069GF108991999071008001021999KA1120N+00011MD1210031+9999MW1711REMSYN088AAXX  27061 28334 11556 80000 10020 20009 40052 52003 69972 77176 8872/ 333 20001 88720;EQDQ01+000082SCOTLC
0166283340999992000092709004+57340+058210FM-12+024499999V0209999C000010060019N0500001N1+00251+00121100501ADDAY181031AY271031GA1051+006009099GF106991051031008001081001MD1810021+9999MW1261REMSYN076AAXX  27091 28334 41599 60000 10025 20012 40050 58002 72687 85380 333 85920;
0187283340999992000092712004+57340+058210FM-12+024499999V0209999C000010060019N0500001N1+00381-00051100491ADDAY181061AY271061GA1071+006009099GF107991071031008001001001MA1999999097521MD1410001+9999MW1031REMSYN082AAXX  27121 28334 41599 70000 10038 21005 39752 40049 54000 70387 87300 333 87920;
0185283340999992000092715004+57340+058210FM-12+024499999V0209999C000010060019N0500001N1+00191-00031100511ADDAY171031AY221031GA1061+006009029GF106991061081008001001001KA1120M+00391MD1810011+9999MW1221REMSYN082AAXX  27151 28334 /1584 60000 10019 21003 40051 58001 72272 86800 333 10039 86820;
0190283340999992000092718004+57340+058210FM-12+024499999V0209999C000012200019N0005001N1-00131-00161100561ADDAA112001091AY171061AY241061GA1001+999999999GF100991001001999999001001KA1999M+00391MD1410001+9999MW1461REMSYN076AAXX  27181 28334 11905 00000 11013 21016 40056 54000 60012 74674 333 10039;
0150283340999992000092721004+57340+058210FM-12+024499999V0209999C000012200019N0001001N1-00281-00311100561ADDAY141031AY201031GA1001+999999999GF100991001001999999001001MD1810011+9999MW1441REMSYN060AAXX  27211 28334 41901 00000 11028 21031 40056 58001 74440;
0187283340999992000092800004+57340+058210FM-12+024499999V0209999C000010060019N0060001N1-00131-00161100571ADDAY141061AY211061GA1081+006009069GF108991081061008001999999MA1999999097541MD1310021+9999MW1281REMSYN082AAXX  28001 28334 41556 80000 11013 21016 39754 40057 53002 72841 886// 333 88720;
0166283340999992000092803004+57340+058210FM-12+024499999V0209999C000010060019N0060001N1+00031-00081100591ADDAY151031AY221031GA1081+006009069GF108991081061008001999999MD1210051+9999MW1201REMSYN076AAXX  28031 28334 /1556 80000 10003 21008 40059 52005 72052 886// 333 88720;
0202283340999992000092806004+57340+058210FM-12+024499999V0203201N002010069019N0060001N1+00221+00001100701ADDAA112000191AY151061AY221061GA1081+006909029GF108991081001008001021999KA1120N-00331MD1210121+9999MW1021REMSYN088AAXX  28061 28334 11556 83202 10022 20000 40070 52012 69912 70252 8802/ 333 21033 88523;
0166283340999992000092809004+57340+058210FM-12+024499999V0203201N002010060019N0200001N1+00281+00181100891ADDAY171031AY261031GA1081+006009029GF108991081001008001021999MD1210201+9999MW1711REMSYN076AAXX  28091 28334 41570 83202 10028 20018 40089 52020 77176 8802/ 333 88520;
0187283340999992000092812004+57340+058210FM-12+024499999V0203201N002010069019N0500001N1+00351+00271101081ADDAY171061AY261061GA1081+006909029GF108991081001008001021999MA1999999098091MD1210181+9999MW1211REMSYN082AAXX  28121 28334 41599 83202 10035 20027 39809 40108 52018 72176 8802/ 333 88523;
0086283340999992000092815004+57340+058210FM-12+024499999V0203201N002019999999N0500001N1+00261+00051101421ADDGF108991999999008001999999REMSYN048AAXX  28151 28334 /1584 83202 10026 20005 40142;
0221283340999992000092818004+57340+058210FM-12+024499999V0209999C000010060019N0150001N1+00201+00041101371ADDAA112002091AY181061AY251061GA1081+006009069GF108991999071008001021999KA1120M+00361MD1810051+9999MW1511REMSYN088AAXX  28181 28334 11565 80000 10020 20004 40137 58005 60022 75185 8872/ 333 10036 88720;EQDQ01+000082SCOTLC
0140283340999992000092821004+57340+058210FM-12+024499999V0203201N002012200019N0500001N1+00101-00071101441ADDAY171031AY211031GF102991021001999999021001MD1310061+9999MW1221REMSYN066AAXX  28211 28334 41984 23202 10010 21007 40144 53006 72271 82020;
0180283340999992000092900004+57340+058210FM-12+024499999V0202901N002019999999N0500001N1+00021-00091101531ADDAY171061AY211061GF108991999001999999021001MA1999999098501MD1210081+9999MW1221REMSYN072AAXX  29001 28334 41984 82902 10002 21009 39850 40153 52008 72271 80020;EQDQ01+000002SCOTLC
0157283340999992000092903004+57340+058210FM-12+024499999V0202901N002010060019N0500001N1-00031-00061101591ADDGA1081+006009069GF108991999071008001021999MD1210051+9999REMSYN070AAXX  29031 28334 /2599 82902 11003 21006 40159 52005 8872/ 333 88720;EQDQ01+000082SCOTLC
0157283340999992000092909004+57340+058210FM-12+024499999V0202501N002010069019N0500001N1+00341-00071101621ADDGA1081+006909069GF108991999071008001011999MD1810021+9999REMSYN070AAXX  29091 28334 42599 82502 10034 21007 40162 58002 8871/ 333 88723;EQDQ01+000082SCOTLC
0204283340999992000092915004+57340+058210FM-12+024499999V0202701N002010060019N0150001N1+00321+00221101511ADDAY161031AY221031GA1081+006009029GF108991999071008001021999KA1120M+00371MD1710051+9999MW1611REMSYN082AAXX  29151 28334 /1565 82702 10032 20022 40151 57005 76162 8872/ 333 10037 88820;EQDQ01+000082SCOTLC
0237283340999992000092918004+57340+058210FM-12+024499999V0202701N004010069019N0500001N1+00501+00381101571ADDAA112002091AY161061AY221061GA1081+006909029GF108991999071008001021999KA1120M+99999MD1310071+9999MW1021REMSYN088AAXX  29181 28334 11584 82704 10050 20038 40157 53007 60022 70262 8872/ 333 10037 88823;EQDQ01+000082SCOTLCQ02 +00372ATMX  
0112283340999992000092921004+57340+058210FM-12+024499999V0202301N004019999999N0500001N1+00521+00381101581ADDGF108991081001999999021999MD1210011+9999REMSYN060AAXX  29211 28334 41984 82304 10052 20038 40158 52001 8802/;
0185283340999992000093003004+57340+058210FM-12+024499999V0202701N002010060019N0060001N1+00471+00401101491ADDAY161031AY251031GA1081+006009029GF108991999071008001021999MD1710061+9999MW1511REMSYN076AAXX  30031 28334 /1556 82702 10047 20040 40149 57006 75165 8872/ 333 88820;EQDQ01+000082SCOTLC
0221283340999992000093006004+57340+058210FM-12+024499999V0202701N002010069019N0200001N1+00511+00441101441ADDAA112002091AY161061AY251061GA1081+006909069GF108991999071008001021999KA1120N+00321MD1710051+9999MW1501REMSYN088AAXX  30061 28334 11570 82702 10051 20044 40144 57005 60022 75065 8872/ 333 20032 88723;EQDQ01+000082SCOTLC
0185283340999992000093009004+57340+058210FM-12+024499999V0202701N002010069019N0200001N1+00591+00471101461ADDAY151031AY221031GA1081+006909069GF108991999071008001021999MD1310031+9999MW1501REMSYN076AAXX  30091 28334 41570 82702 10059 20047 40146 53003 75052 8872/ 333 88723;EQDQ01+000082SCOTLC
0187283340999992000093012004+57340+058210FM-12+024499999V0202701N002010051019N0500001N1+00731+00451101491ADDAY151061AY221061GA1061+005109029GF107991061021004501061001MA1999999098531MD1210041+9999MW1011REMSYN082AAXX  30121 28334 41499 72702 10073 20045 39853 40149 52004 70152 86260 333 86817;
0185283340999992000093015004+57340+058210FM-12+024499999V0209999C000010060019N0500001N1+00591+00471101571ADDAY161031AY221031GA1061+006009029GF108991061081008001071999KA1120M+00781MD1210061+9999MW1031REMSYN082AAXX  30151 28334 /1584 80000 10059 20047 40157 52006 70362 8687/ 333 10078 86820;
0221283340999992000093018004+57340+058210FM-12+024499999V0202701N002010060019N0500001N1+00571+00481101601ADDAA112002091AY161061AY221061GA1081+006009029GF199999081071008001021001KA1120M+00781MD1210031+9999MW1011REMSYN088AAXX  30181 28334 11584 72702 10057 20048 40160 52003 60022 70162 88720 333 10078 88820;EQDQ01+000072SCOTCV
0157283340999992000093021004+57340+058210FM-12+024499999V0209999C000010060019N0500001N1+00501+00411101571ADDGA1081+006009029GF108991999071008001021999MD1810041+9999REMSYN070AAXX  30211 28334 42584 80000 10050 20041 40157 58004 8872/ 333 88820;EQDQ01+000082SCOTLC
0178283340999992000100100004+57340+058210FM-12+024499999V0209999C000010060019N0500001N1+00491+00421101591ADDGA1081+006009029GF108991999071008001021999MA1999999098601MD1310021+9999REMSYN076AAXX  01001 28334 42584 80000 10049 20042 39860 40159 53002 8872/ 333 88820;EQDQ01+000082SCOTLC
0212283340999992000100103004+57340+058210FM-12+024499999V0209999C000010060019N0060001N1+00551+00501101641ADDAA199000091AY121031AY221031GA1081+006009029GF108991999071008001021999MD1210061+9999MW1101REMSYN076AAXX  01031 28334 31556 80000 10055 20050 40164 52006 71022 8872/ 333 88820;EQDQ01+000082SCOTLCQ02  00002PRCP99
0203283340999992000100106004+57340+058210FM-12+024499999V0201101N002010060019N0500001N1+00531+00461101741ADDAA199000091GA1081+006009029GF108991999071008001021999KA1120N+00491MD1810091+9999REMSYN076AAXX  01061 28334 32599 81102 10053 20046 40174 58009 8872/ 333 20049 88820;EQDQ01+000082SCOTLCQ02  00002PRCP99
0112283340999992000100109004+57340+058210FM-12+024499999V0209999C000010300019N0500001N1+00591+00331101801ADDGF108991031011008001071999MD1310071+9999REMSYN060AAXX  01091 28334 42599 80000 10059 20033 40180 53007 8317/;
0187283340999992000100112004+57340+058210FM-12+024499999V0209999C000010300019N0500001N1+00601+00341101891ADDAY151061AY221061GA1041+006009029GF108991041071008001071999MA1999999098911MD1210091+9999MW1021REMSYN082AAXX  01121 28334 41599 80000 10060 20034 39891 40189 52009 70252 8477/ 333 84820;
0157283340999992000100115004+57340+058210FM-12+024499999V0209999C000010060019N0500001N1+00461+00211102021ADDGA1061+006009029GF106991061081008001001001KA1120M+00731MD1210101+9999REMSYN076AAXX  01151 28334 /2584 60000 10046 20021 40202 52010 86800 333 10073 86820;
0174283340999992000100118004+57340+058210FM-12+024499999V0209999C000010060019N0500001N1+00341+00131102101ADDAA112000191GA1081+006009029GF108991081081008001001001KA1120M+00731MD1210071+9999REMSYN082AAXX  01181 28334 12584 80000 10034 20013 40210 52007 69912 88800 333 10073 88820;
0112283340999992000100121004+57340+058210FM-12+024499999V0209999C000019999999N0500001N1+00201+00011102101ADDGF108991081071999999999999MD1810011+9999REMSYN060AAXX  01211 28334 42984 80000 10020 20001 40210 58001 887//;
0133283340999992000100200004+57340+058210FM-12+024499999V0209999C000019999999N0500001N1+00181+00021102141ADDGF108991081071999999999999MA1999999099101MD1310031+9999REMSYN066AAXX  02001 28334 42984 80000 10018 20002 39910 40214 53003 887//;
0140283340999992000100203004+57340+058210FM-12+024499999V0209999C000019999999N0020001N1+00091+00041102171ADDAY171031AY221031GF108991081001999999021999MD1210031+9999MW1731REMSYN066AAXX  02031 28334 /1920 80000 10009 20004 40217 52003 77372 8802/;
0221283340999992000100206004+57340+058210FM-12+024499999V0209999C000010060019N0005001N1+00021-00041102351ADDAA112000591AY181061AY271061GA1081+006009099GF108991081031008001999999KA1120N+99999MD1210161+9999MW1821REMSYN088AAXX  02061 28334 11505 80000 10002 21004 40235 52016 69942 78287 883// 333 20009 88920;EQDQ01 +00092ATMN  
0166283340999992000100209004+57340+058210FM-12+024499999V0209999C000010060019N0060001N1+00051+00021102331ADDAY181031AY221031GA1081+006009099GF108991081031008001999999MD1810021+9999MW1261REMSYN076AAXX  02091 28334 41556 80000 10005 20002 40233 58002 72682 883// 333 88920;
0187283340999992000100212004+57340+058210FM-12+024499999V0200501N002010060019N0060001N1+00081+00051102581ADDAY181061AY221061GA1081+006009099GF108991081031008001999999MA1999999099511MD1310241+9999MW1801REMSYN082AAXX  02121 28334 41556 80502 10008 20005 39951 40258 53024 78082 883// 333 88920;
0185283340999992000100215004+57340+058210FM-12+024499999V0200501N002010069019N0500001N1+00001-00151102731ADDAY181031AY221031GA1081+006909099GF108991081031008001999999KA1120M+00101MD1210151+9999MW1201REMSYN082AAXX  02151 28334 /1584 80502 10000 21015 40273 52015 72082 883// 333 10010 88923;
0162283340999992000100218004+57340+058210FM-12+024499999V0209999C000012200019N0500001N1-00101-00361103011ADDAA112004191GA1001+999999999GF100991001001999999001001KA1999M+00101MD1210251+9999REMSYN070AAXX  02181 28334 11984 00000 11010 21036 40301 52025 60042 333 10010;
0122283340999992000100221004+57340+058210FM-12+024499999V0209999C000012200019N0500001N1-00241-00531103061ADDGA1001+999999999GF100991001001999999001001MD1210041+9999REMSYN054AAXX  02211 28334 42984 00000 11024 21053 40306 52004;
0133283340999992000100300004+57340+058210FM-12+024499999V0209999C000019999999N0500001N1-00261-00421103071ADDGF108991081001999999021999MA1999999099961MD1210011+9999REMSYN066AAXX  03001 28334 42984 80000 11026 21042 39996 40307 52001 8802/;
0149283340999992000100303004+57340+058210FM-12+024499999V0209999C000010069019N0500001N1-00281-00441103201ADDAA199000021GA1051+006909099GF106991051031008001041001MD1210121+9999REMSYN070AAXX  03031 28334 32599 60000 11028 21044 40320 52012 85340 333 85923;
0165283340999992000100306004+57340+058210FM-12+024499999V0209999C000019999999N0500001N1+00081-00221103161ADDAA199000091GF108991071001999999051081KA1999N-00281MD1810011+9999REMSYN070AAXX  03061 28334 32999 80000 10008 21022 40316 58001 87058 333 21028;EQDQ01  00002PRCP99
0138283340999992000100309004+57340+058210FM-12+024499999V0209999C000010069019N0500001N1+00281-00051103141ADDGA1081+006909099GF108991081031008001999999MD1410001+9999REMSYN070AAXX  03091 28334 42599 80000 10028 21005 40314 54000 883// 333 88923;
0159283340999992000100312004+57340+058210FM-12+024499999V0209999C000010069019N0500001N1+00241-00031103101ADDGA1081+006909099GF108991081031008001999999MA1999999100041MD1810031+9999REMSYN076AAXX  03121 28334 42599 80000 10024 21003 30004 40310 58003 883// 333 88923;
0187283340999992000100315004+57340+058210FM-12+024499999V0209999C000010069019N0500001N1+00211-00011103031ADDAA199000091GA1081+006909099GF108991081031008001999999KA1120M+00291MD1710071+9999REMSYN076AAXX  03151 28334 32584 80000 10021 21001 40303 57007 883// 333 10029 88923;EQDQ01  00002PRCP99
0157283340999992000100318004+57340+058210FM-12+024499999V0209999C000010069019N0500001N1+00081-00031102961ADDGA1071+006909099GF107991071031008001001001KA1120M+00291MD1710091+9999REMSYN076AAXX  03181 28334 42584 70000 10008 21003 40296 57009 87300 333 10029 87923;
0150283340999992000100321004+57340+058210FM-12+024499999V0209999C000012200019N0060001N1-00161-00251102841ADDAY111031AY211031GA1001+999999999GF100991001001999999001001MD1710131+9999MW1101REMSYN060AAXX  03211 28334 41956 00000 11016 21025 40284 57013 71011;
0171283340999992000100400004+57340+058210FM-12+024499999V0202301N002012200019N0060001N1+00011-00051102621ADDAY141061AY211061GA1001+999999999GF100991001001999999001001MA1999999099551MD1710201+9999MW1281REMSYN066AAXX  04001 28334 41956 02302 10001 21005 39955 40262 57020 72841;
0140283340999992000100403004+57340+058210FM-12+024499999V0202301N002019999999N0060001N1+00061-00081102381ADDAY161031AY221031GF108991081001999999021999MD1710231+9999MW1101REMSYN066AAXX  04031 28334 /1956 82302 10006 21008 40238 57023 71062 8802/;
0221283340999992000100406004+57340+058210FM-12+024499999V0209999C000010060019N0060001N1+00101+00051102291ADDAA112000791AY171061AY261061GA1081+006009069GF108991999071008001021999KA1120N-00161MD1710081+9999MW1581REMSYN088AAXX  04061 28334 11556 80000 10010 20005 40229 57008 69902 75876 8872/ 333 21016 88720;EQDQ01+000082SCOTLC
0185283340999992000100409004+57340+058210FM-12+024499999V0209999C000010060019N0500001N1+00291+00211102271ADDAY171031AY221031GA1081+006009069GF108991999071008001021999MD1410001+9999MW1021REMSYN076AAXX  04091 28334 41599 80000 10029 20021 40227 54000 70272 8872/ 333 88720;EQDQ01+000082SCOTLC
0161283340999992000100412004+57340+058210FM-12+024499999V0209999C000012200019N0500001N1+00381+00261102361ADDAY161061AY251061GF103991021021008001041001MA1999999099341MD1310101+9999MW1011REMSYN072AAXX  04121 28334 41599 30000 10038 20026 39934 40236 53010 70165 82240;
0157283340999992000100415004+57340+058210FM-12+024499999V0209999C000010060019N0500001N1+00301+00221102461ADDGA1051+006009029GF106991051081008001061001KA1120M+00401MD1210091+9999REMSYN076AAXX  04151 28334 /2584 60000 10030 20022 40246 52009 85860 333 10040 85820;
0152283340999992000100418004+57340+058210FM-12+024499999V0209999C000019999999N0500001N1+00251+00151102601ADDAA112001091GF108991081001999999021999KA1999M+00401MD1210121+9999REMSYN076AAXX  04181 28334 12984 80000 10025 20015 40260 52012 60012 8802/ 333 10040;
0112283340999992000100421004+57340+058210FM-12+024499999V0200701N002019999999N0500001N1+00211+00051102731ADDGF108991081001999999021999MD1210131+9999REMSYN060AAXX  04211 28334 42984 80702 10021 20005 40273 52013 8802/;
0133283340999992000100500004+57340+058210FM-12+024499999V0200701N002010300019N0500001N1+00101-00041102851ADDGF108991031021008001021999MA1999999099781MD1210101+9999REMSYN066AAXX  05001 28334 42584 80702 10010 21004 39978 40285 52010 8322/;
0142283340999992000100503004+57340+058210FM-12+024499999V0209999C000010300019N0500001N1+00061-00111102991ADDAA199000091GF108991021011008001071999MD1210131+9999REMSYN060AAXX  05031 28334 32599 80000 10006 21011 40299 52013 8217/;EQDQ01  00002PRCP99
0187283340999992000100506004+57340+058210FM-12+024499999V0200501N002010060019N0500001N1+00151-00101103171ADDAA199000091GA1071+006009099GF107991071031008001041001KA1120N+00061MD1210181+9999REMSYN076AAXX  05061 28334 32599 70502 10015 21010 40317 52018 87340 333 20006 87920;EQDQ01  00002PRCP99
0166283340999992000100509004+57340+058210FM-12+024499999V0200701N002010069019N0500001N1+00171-00241103321ADDAY181031AY221031GA1061+006909099GF108991061031008001071999MD1210151+9999MW1271REMSYN076AAXX  05091 28334 41599 80702 10017 21024 40332 52015 72782 8637/ 333 86923;
0187283340999992000100512004+57340+058210FM-12+024499999V0209999C000010069019N0500001N1+00161-00151103381ADDAY181061AY221061GA1061+006909099GF108991061031008001021999MA1999999100301MD1210061+9999MW1271REMSYN082AAXX  05121 28334 41599 80000 10016 21015 30030 40338 52006 72782 8632/ 333 86923;
0157283340999992000100515004+57340+058210FM-12+024499999V0209999C000010069019N0500001N1+00081-00251103531ADDGA1061+006909099GF108991061031008001021999KA1120M+00241MD1210131+9999REMSYN076AAXX  05151 28334 /2584 80000 10008 21025 40353 52013 8632/ 333 10024 86923;
0152283340999992000100518004+57340+058210FM-12+024499999V0209999C000019999999N0500001N1+00021-00251103611ADDAA112000191GF108991081001999999021999KA1999M+00241MD1210081+9999REMSYN076AAXX  05181 28334 12984 80000 10002 21025 40361 52008 69912 8802/ 333 10024;
0112283340999992000100521004+57340+058210FM-12+024499999V0209999C000019999999N0500001N1-00051-00331103671ADDGF108991081001999999021999MD1210051+9999REMSYN060AAXX  05211 28334 42984 80000 11005 21033 40367 52005 8802/;
0133283340999992000100600004+57340+058210FM-12+024499999V0209999C000019999999N0500001N1-00081-00401103711ADDGF108991081001999999021999MA1999999100601MD1210041+9999REMSYN066AAXX  06001 28334 42984 80000 11008 21040 30060 40371 52004 8802/;
0170283340999992000100603004+57340+058210FM-12+024499999V0209999C000019999999N0060001N1-00081-00331103721ADDAA199000091AY121031AY221031GF108991081001999999021999MD1210011+9999MW1101REMSYN066AAXX  06031 28334 31956 80000 11008 21033 40372 52001 71022 8802/;EQDQ01  00002PRCP99
0203283340999992000100606004+57340+058210FM-12+024499999V0209999C000010069019N0500001N1+00011-00261103771ADDAA199000091GA1081+006909029GF108991999071008001021999KA1120N-00081MD1210051+9999REMSYN076AAXX  06061 28334 32599 80000 10001 21026 40377 52005 8872/ 333 21008 88823;EQDQ01+000082SCOTLCQ02  00002PRCP99
0138283340999992000100609004+57340+058210FM-12+024499999V0202701N002010069019N0500001N1+00181-00361103761ADDGA1081+006909099GF108991081031008001999999MD1410001+9999REMSYN070AAXX  06091 28334 42599 82702 10018 21036 40376 54000 883// 333 88923;
0159283340999992000100612004+57340+058210FM-12+024499999V0202901N002010069019N0500001N1+00261-00401103731ADDGA1081+006909059GF108991081051008001999999MA1999999100651MD1810011+9999REMSYN076AAXX  06121 28334 42599 82902 10026 21040 30065 40373 58001 885// 333 88623;
0187283340999992000100615004+57340+058210FM-12+024499999V0209999C000010069019N0500001N1+00161-00251103721ADDAA199000091GA1071+006909059GF107991071051008001001001KA1120M+00271MD1710021+9999REMSYN076AAXX  06151 28334 32584 70000 10016 21025 40372 57002 87500 333 10027 87623;EQDQ01  00002PRCP99
0175283340999992000100618004+57340+058210FM-12+024499999V0202701N002012200019N0500001N1-00081-00231103771ADDAA199000091GA1001+999999999GF100991001001999999001001KA1999M+00271MD1310021+9999REMSYN064AAXX  06181 28334 32984 02702 11008 21023 40377 53002 333 10027;EQDQ01  00002PRCP99
0122283340999992000100621004+57340+058210FM-12+024499999V0202301N002012200019N0500001N1-00151-00301103801ADDGA1001+999999999GF100991001001999999001001MD1210021+9999REMSYN054AAXX  06211 28334 42984 02302 11015 21030 40380 52002;
0143283340999992000100700004+57340+058210FM-12+024499999V0209999C000012200019N0500001N1-00251-00381103791ADDGA1001+999999999GF100991001001999999001001MA1999999100651MD1810021+9999REMSYN060AAXX  07001 28334 42984 00000 11025 21038 30065 40379 58002;
0138283340999992000100703004+57340+058210FM-12+024499999V0203201N002010069019N0500001N1+00021-00181103801ADDGA1061+006909029GF107991061081008001041001MD1310041+9999REMSYN070AAXX  07031 28334 42599 73202 10002 21018 40380 53004 86840 333 86823;
0215283340999992000100706004+57340+058210FM-12+024499999V0209999C000010069019N0200001N1+00161-00061103861ADDAA199000021AY151061AY211061GA1081+006909069GF108991999071008001021999KA1120N-00251MD1210071+9999MW1511REMSYN082AAXX  07061 28334 31570 80000 10016 21006 40386 52007 75151 8872/ 333 21025 88723;EQDQ01+000082SCOTLC
0185283340999992000100709004+57340+058210FM-12+024499999V0209999C000010069019N0500001N1+00301+00061103851ADDAY151031AY221031GA1081+006909069GF108991999071008001021999MD1210021+9999MW1021REMSYN076AAXX  07091 28334 41599 80000 10030 20006 40385 52002 70252 8872/ 333 88723;EQDQ01+000082SCOTLC
0159283340999992000100712004+57340+058210FM-12+024499999V0209999C000010069019N0500001N1+00341+00111103841ADDGA1061+006909069GF107991061071008001021999MA1999999100771MD1810011+9999REMSYN076AAXX  07121 28334 42599 70000 10034 20011 30077 40384 58001 8672/ 333 86723;
0176283340999992000100715004+57340+058210FM-12+024499999V0209999C000010069019N0500001N1+00421+00051103831ADDGA1081+006909029GF108991999071008001021999KA1120M+00441MD1410001+9999REMSYN076AAXX  07151 28334 /2584 80000 10042 20005 40383 54000 8872/ 333 10044 88823;EQDQ01+000082SCOTLC
0162283340999992000100718004+57340+058210FM-12+024499999V0209999C000012200019N0500001N1+00201-00021103821ADDAA112000191GA1001+999999999GF100991001001999999001001KA1999M+00441MD1810031+9999REMSYN070AAXX  07181 28334 12984 00000 10020 21002 40382 58003 69912 333 10044;
0122283340999992000100721004+57340+058210FM-12+024499999V0209999C000012200019N0500001N1+00071-00051103811ADDGA1001+999999999GF100991001001999999001001MD1710041+9999REMSYN054AAXX  07211 28334 42984 00000 10007 21005 40381 57004;
0143283340999992000100800004+57340+058210FM-12+024499999V0209999C000012200019N0060001N1-00031-00181103771ADDGA1001+999999999GF100991001001999999001001MA1999999100651MD1710051+9999REMSYN060AAXX  08001 28334 42956 00000 11003 21018 30065 40377 57005;
0170283340999992000100803004+57340+058210FM-12+024499999V0209999C000019999999N0060001N1-00011-00131103701ADDAA199000091AY111031AY211031GF107991071001999999071001MD1710051+9999MW1101REMSYN066AAXX  08031 28334 31956 70000 11001 21013 40370 57005 71011 87070;EQDQ01  00002PRCP99
0165283340999992000100806004+57340+058210FM-12+024499999V0209999C000019999999N0500001N1+00181+00051103661ADDAA199000091GF108991081001999999071999KA1999N-00031MD1710031+9999REMSYN070AAXX  08061 28334 32999 80000 10018 20005 40366 57003 8807/ 333 21003;EQDQ01  00002PRCP99
0112283340999992000100809004+57340+058210FM-12+024499999V0209999C000019999999N0500001N1+00581+00181103501ADDGF107991061001999999041999MD1710101+9999REMSYN060AAXX  08091 28334 42999 70000 10058 20018 40350 57010 8604/;
0133283340999992000100812004+57340+058210FM-12+024499999V0202701N002019999999N0500001N1+00881+00151103291ADDGF107991061001999999081051MA1999999100301MD1710171+9999REMSYN066AAXX  08121 28334 42999 72702 10088 20015 30030 40329 57017 86085;
0185283340999992000100815004+57340+058210FM-12+024499999V0203201N004010300019N0150001N1+00671+00181103221ADDAY161031AY251031GA1041+006909069GF108991041071008001021999KA1120M+00931MD1710101+9999MW1581REMSYN082AAXX  08151 28334 /1565 83204 10067 20018 40322 57010 75865 8472/ 333 10093 84723;
0202283340999992000100818004+57340+058210FM-12+024499999V0202301N002010069019N0060001N1+00551+00411103111ADDAA112000391AY161061AY251061GA1061+006909069GF108991061071008001021999KA1120M+00931MD1710121+9999MW1101REMSYN088AAXX  08181 28334 11556 82302 10055 20041 40311 57012 69932 71065 8672/ 333 10093 86723;
0185283340999992000100821004+57340+058210FM-12+024499999V0209999C000010060019N0060001N1+00621+00551103021ADDAY151031AY221031GA1081+006009069GF108991999071008001021999MD1710071+9999MW1501REMSYN076AAXX  08211 28334 41556 80000 10062 20055 40302 57007 75052 8872/ 333 88720;EQDQ01+000082SCOTLC
0206283340999992000100900004+57340+058210FM-12+024499999V0209999C000010060019N0060001N1+00641+00601102951ADDAY151061AY221061GA1081+006009069GF108991999071008001021999MA1999999099941MD1710071+9999MW1511REMSYN082AAXX  09001 28334 41556 80000 10064 20060 39994 40295 57007 75152 8872/ 333 88720;EQDQ01+000082SCOTLC
0185283340999992000100903004+57340+058210FM-12+024499999V0209999C000010060019N0200001N1+00661+00591102911ADDAY161031AY251031GA1081+006009069GF108991999071008001021999MD1710031+9999MW1581REMSYN076AAXX  09031 28334 /1570 80000 10066 20059 40291 57003 75865 8872/ 333 88720;EQDQ01+000082SCOTLC
0202283340999992000100906004+57340+058210FM-12+024499999V0200501N002010069019N0500001N1+00621+00531102971ADDAA112001091AY161061AY251061GA1071+006909029GF107991071071008001021001KA1120N+00551MD1310051+9999MW1511REMSYN088AAXX  09061 28334 11599 70502 10062 20053 40297 53005 60012 75165 87720 333 20055 87823;
0206283340999992000100912004+57340+058210FM-12+024499999V0200501N002010069019N0500001N1+00531+00211103071ADDAY161061AY251061GA1081+006909029GF199999071071008001021001MA1999999100041MD1210051+9999MW1011REMSYN082AAXX  09121 28334 41599 70502 10053 20021 30004 40307 52005 70165 87720 333 88823;EQDQ01+000072SCOTCV
0157283340999992000100915004+57340+058210FM-12+024499999V0200501N002010069019N0500001N1+00381+00151103111ADDGA1071+006909029GF107991071071008001021001KA1120M+00671MD1210031+9999REMSYN076AAXX  09151 28334 /2584 70502 10038 20015 40311 52003 87720 333 10067 87823;
0174283340999992000100918004+57340+058210FM-12+024499999V0209999C000010069019N0500001N1+00271+00061103161ADDAA112001091GA1071+006909059GF107991071051008001001001KA1120M+00671MD1210021+9999REMSYN082AAXX  09181 28334 12584 70000 10027 20006 40316 52002 60012 87500 333 10067 87623;
0138283340999992000100921004+57340+058210FM-12+024499999V0209999C000010069019N0500001N1+00211+00021103151ADDGA1071+006909059GF107991071051008001001001MD1810011+9999REMSYN070AAXX  09211 28334 42584 70000 10021 20002 40315 58001 87500 333 87623;
0159283340999992000101000004+57340+058210FM-12+024499999V0209999C000010069019N0500001N1+00191+00031103161ADDGA1061+006909059GF106991061051008001001001MA1999999100091MD1310011+9999REMSYN076AAXX  10001 28334 42584 60000 10019 20003 30009 40316 53001 86500 333 86623;
0168283340999992000101003004+57340+058210FM-12+024499999V0200501N002010069019N0500001N1+00211+00021103171ADDAA199000091GA1051+006909029GF107991051071008001071001MD1210011+9999REMSYN070AAXX  10031 28334 32599 70502 10021 20002 40317 52001 85770 333 85823;EQDQ01  00002PRCP99
0165283340999992000101006004+57340+058210FM-12+024499999V0209999C000010075019N0500001N1+00301+00031103221ADDAA199000091GF108991081071008001999999KA1999N+00191MD1210071+9999REMSYN070AAXX  10061 28334 32599 80000 10030 20003 40322 52007 887// 333 20019;EQDQ01  00002PRCP99
0138283340999992000101009004+57340+058210FM-12+024499999V0200201N002010069019N0500001N1+00441+00051103221ADDGA1071+006909099GF107991071031008001999999MD1810011+9999REMSYN070AAXX  10091 28334 42599 70202 10044 20005 40322 58001 873// 333 87923;
0159283340999992000101012004+57340+058210FM-12+024499999V0200701N002010069019N0500001N1+00441-00041103241ADDGA1051+006909099GF106991051031008001081001MA1999999100201MD1310021+9999REMSYN076AAXX  10121 28334 42599 60702 10044 21004 30020 40324 53002 85380 333 85923;
0165283340999992000101015004+57340+058210FM-12+024499999V0209999C000012200019N0500001N1+00101-00071103331ADDAA199000091GF102991021041999999001001KA1999M+00491MD1210051+9999REMSYN070AAXX  10151 28334 32984 20000 10010 21007 40333 52005 82400 333 10049;EQDQ01  00002PRCP99
0165283340999992000101018004+57340+058210FM-12+024499999V0209999C000019999999N0500001N1-00141+99999103401ADDAA199000091GF106991061001999999031001KA1999M+00621MD1210041+9999REMSYN070AAXX  10181 28334 32984 60000 11014 21002 40340 52004 86030 333 10062;EQDQ01  00002PRCP99
0112283340999992000101021004+57340+058210FM-12+024499999V0209999C000019999999N0500001N1+00011-00051103361ADDGF108991081001999999021999MD1810021+9999REMSYN060AAXX  10211 28334 42984 80000 10001 21005 40336 58002 8802/;
0133283340999992000101100004+57340+058210FM-12+024499999V0209999C000010300019N0500001N1+00141+00031103391ADDGF108991031061008001021999MA1999999100311MD1310041+9999REMSYN066AAXX  11001 28334 42584 80000 10014 20003 30031 40339 53004 8362/;
0168283340999992000101103004+57340+058210FM-12+024499999V0209999C000010069019N0500001N1+00161+00051103451ADDAA199000091GA1081+006909069GF108991081061008001999999MD1210051+9999REMSYN070AAXX  11031 28334 32599 80000 10016 20005 40345 52005 886// 333 88723;EQDQ01  00002PRCP99
0187283340999992000101106004+57340+058210FM-12+024499999V0200201N002010069019N0500001N1+00241+00051103551ADDAA199000091GA1081+006909069GF108991081071008001999999KA1120N-00141MD1210141+9999REMSYN076AAXX  11061 28334 32599 80202 10024 20005 40355 52014 887// 333 21014 88723;EQDQ01  00002PRCP99
0138283340999992000101109004+57340+058210FM-12+024499999V0209999C000010060019N0500001N1+00421+00031103431ADDGA1081+006009069GF108991081071008001999999MD1310101+9999REMSYN070AAXX  11091 28334 42599 80000 10042 20003 40343 53010 887// 333 88720;
0206283340999992000101112004+57340+058210FM-12+024499999V0209999C000010060019N0500001N1+00341+00131103431ADDAY161061AY251061GA1081+006009069GF108991999071008001021999MA1999999100371MD1710011+9999MW1221REMSYN082AAXX  11121 28334 41599 80000 10034 20013 30037 40343 57001 72265 8872/ 333 88720;EQDQ01+000082SCOTLC
0176283340999992000101115004+57340+058210FM-12+024499999V0209999C000010060019N0500001N1+00311+00131103491ADDGA1081+006009069GF108991999071008001021999KA1120M+00451MD1310061+9999REMSYN076AAXX  11151 28334 /2584 80000 10031 20013 40349 53006 8872/ 333 10045 88720;EQDQ01+000082SCOTLC
0152283340999992000101118004+57340+058210FM-12+024499999V0209999C000019999999N0500001N1+00281+00121103491ADDAA112000591GF108991081001999999021999KA1999M+00451MD1410001+9999REMSYN076AAXX  11181 28334 12984 80000 10028 20012 40349 54000 69942 8802/ 333 10045;
0112283340999992000101121004+57340+058210FM-12+024499999V0209999C000019999999N0500001N1+00271+00171103501ADDGF108991081001999999021999MD1410001+9999REMSYN060AAXX  11211 28334 42984 80000 10027 20017 40350 54000 8802/;
0133283340999992000101200004+57340+058210FM-12+024499999V0209999C000019999999N0500001N1+00271+00111103531ADDGF108991081001999999071999MA1999999100461MD1310031+9999REMSYN066AAXX  12001 28334 42984 80000 10027 20011 30046 40353 53003 8807/;
0168283340999992000101203004+57340+058210FM-12+024499999V0209999C000010069019N0500001N1+00261+00131103551ADDAA199000091GA1051+006909029GF105991051071008001021999MD1210021+9999REMSYN070AAXX  12031 28334 32599 50000 10026 20013 40355 52002 8572/ 333 85823;EQDQ01  00002PRCP99
0203283340999992000101206004+57340+058210FM-12+024499999V0209999C000010069019N0500001N1+00321+00061103551ADDAA199000091GA1081+006909029GF108991999071008001021999KA1120N+00261MD1210011+9999REMSYN076AAXX  12061 28334 32599 80000 10032 20006 40355 52001 8872/ 333 20026 88823;EQDQ01+000082SCOTLCQ02  00002PRCP99
0157283340999992000101209004+57340+058210FM-12+024499999V0209999C000010069019N0500001N1+00411-00041103521ADDGA1081+006909029GF108991999071008001021999MD1810021+9999REMSYN070AAXX  12091 28334 42599 80000 10041 21004 40352 58002 8872/ 333 88823;EQDQ01+000082SCOTLC
0178283340999992000101212004+57340+058210FM-12+024499999V0209999C000010069019N0500001N1+00401+00121103491ADDGA1081+006909029GF108991999071008001021999MA1999999100441MD1710031+9999REMSYN076AAXX  12121 28334 42599 80000 10040 20012 30044 40349 57003 8872/ 333 88823;EQDQ01+000082SCOTLC
0203283340999992000101215004+57340+058210FM-12+024499999V0209999C000010069019N0500001N1+00331+00071103491ADDAA199000091GA1081+006909029GF108991999071008001021999KA1120M+00421MD1410001+9999REMSYN076AAXX  12151 28334 32584 80000 10033 20007 40349 54000 8872/ 333 10042 88823;EQDQ01+000082SCOTLCQ02  00002PRCP99
0187283340999992000101218004+57340+058210FM-12+024499999V0209999C000010069019N0500001N1+00181+00021103531ADDAA199000091GA1071+006909059GF107991071051008001001001KA1120M+00421MD1410001+9999REMSYN076AAXX  12181 28334 32584 70000 10018 20002 40353 54000 87500 333 10042 87623;EQDQ01  00002PRCP99
0138283340999992000101221004+57340+058210FM-12+024499999V0209999C000010069019N0500001N1+00171+00011103501ADDGA1081+006909059GF108991081051008001999999MD1810031+9999REMSYN070AAXX  12211 28334 42584 80000 10017 20001 40350 58003 885// 333 88623;
0187283340999992000101300004+57340+058210FM-12+024499999V0209999C000010069019N0500001N1+00191+00061103441ADDAY161061AY221061GA1081+006909059GF108991081051008001999999MA1999999100381MD1710031+9999MW1021REMSYN082AAXX  13001 28334 41584 80000 10019 20006 30038 40344 57003 70262 885// 333 88623;
0140283340999992000101303004+57340+058210FM-12+024499999V0209999C000010300019N0060001N1+00191+00061103421ADDAY161031AY221031GF108991031081008001021999MD1710031+9999MW1101REMSYN066AAXX  13031 28334 /1556 80000 10019 20006 40342 57003 71062 8382/;
0202283340999992000101306004+57340+058210FM-12+024499999V0200701N002010069019N0500001N1+00191-00181103401ADDAA112002091AY161061AY221061GA1061+006909029GF108991061051008001021999KA1120N+00171MD1710031+9999MW1021REMSYN088AAXX  13061 28334 11599 80702 10019 21018 40340 57003 60022 70262 8652/ 333 20017 86823;
0166283340999992000101309004+57340+058210FM-12+024499999V0200201N002010069019N0500001N1+00261-00101103311ADDAY171031AY221031GA1061+006909029GF107991061021008001031001MD1710081+9999MW1011REMSYN076AAXX  13091 28334 41599 70202 10026 21010 40331 57008 70172 86230 333 86823;
0159283340999992000101312004+57340+058210FM-12+024499999V0200201N002010069019N0500001N1+00331-00181103181ADDGA1051+006909029GF107991051021008001021001MA1999999100131MD1710111+9999REMSYN076AAXX  13121 28334 42599 70202 10033 21018 30013 40318 57011 85220 333 85823;
0176283340999992000101315004+57340+058210FM-12+024499999V0200201N002010060019N0500001N1+00251-00181103181ADDGA1051+006009029GF108991999071008001021999KA1120M+00431MD1710021+9999REMSYN076AAXX  13151 28334 /2584 80202 10025 21018 40318 57002 8872/ 333 10043 85820;EQDQ01+000082SCOTLC
0152283340999992000101318004+57340+058210FM-12+024499999V0200201N002010300019N0500001N1+00171-00211103151ADDAA112000791GF108991021051008001021001KA1999M+00431MD1710041+9999REMSYN076AAXX  13181 28334 12584 80202 10017 21021 40315 57004 69902 82520 333 10043;
0138283340999992000101321004+57340+058210FM-12+024499999V0200201N002010069019N0500001N1+00121-00201103081ADDGA1051+006909029GF108991051051008001021999MD1710061+9999REMSYN070AAXX  13211 28334 42584 80202 10012 21020 40308 57006 8552/ 333 85823;
0159283340999992000101400004+57340+058210FM-12+024499999V0200201N002010069019N0500001N1+00041-00261103021ADDGA1071+006909059GF107991071051008001011001MA1999999099941MD1710071+9999REMSYN076AAXX  14001 28334 42584 70202 10004 21026 39994 40302 57007 87510 333 87623;
0142283340999992000101403004+57340+058210FM-12+024499999V0209999C000010300019N0500001N1-00041-00321102991ADDAA199000091GF107991021051008001031001MD1710041+9999REMSYN060AAXX  14031 28334 32599 70000 11004 21032 40299 57004 82530;EQDQ01  00002PRCP99
0187283340999992000101406004+57340+058210FM-12+024499999V0209999C000010069019N0500001N1+00071-00261102991ADDAA199000091GA1081+006909059GF108991081051008001999999KA1120N-00041MD1310011+9999REMSYN076AAXX  14061 28334 32599 80000 10007 21026 40299 53001 885// 333 21004 88623;EQDQ01  00002PRCP99
0112283340999992000101409004+57340+058210FM-12+024499999V0200201N002010300019N0500001N1+00361-00381102851ADDGF107991031051008001071001MD1810101+9999REMSYN060AAXX  14091 28334 42599 70202 10036 21038 40285 58010 83570;
0133283340999992000101412004+57340+058210FM-12+024499999V0209999C000019999999N0500001N1+00391-00451102811ADDGF106991061001999999041001MA1999999099771MD1710041+9999REMSYN066AAXX  14121 28334 42999 60000 10039 21045 39977 40281 57004 86040;
0165283340999992000101415004+57340+058210FM-12+024499999V0209999C000012200019N0500001N1-00011-00381102821ADDAA199000091GF102991021001999999041001KA1999M+00401MD1710041+9999REMSYN070AAXX  14151 28334 32984 20000 11001 21038 40282 57004 82040 333 10040;EQDQ01  00002PRCP99
0175283340999992000101418004+57340+058210FM-12+024499999V0209999C000012200019N0500001N1-00071-00351102751ADDAA199000091GA1001+999999999GF100991001001999999001001KA1999M+00401MD1710061+9999REMSYN064AAXX  14181 28334 32984 00000 11007 21035 40275 57006 333 10040;EQDQ01  00002PRCP99
0122283340999992000101421004+57340+058210FM-12+024499999V0209999C000012200019N0500001N1-00121-00411102741ADDGA1001+999999999GF100991001001999999001001MD1710021+9999REMSYN054AAXX  14211 28334 42984 00000 11012 21041 40274 57002;
0143283340999992000101500004+57340+058210FM-12+024499999V0209999C000012200019N0500001N1-00321-00491102691ADDGA1001+999999999GF100991001001999999001001MA1999999099641MD1710011+9999REMSYN060AAXX  15001 28334 42984 00000 11032 21049 39964 40269 57001;
0142283340999992000101503004+57340+058210FM-12+024499999V0209999C000019999999N0500001N1-00271-00371102771ADDAA199000091GF108991081001999999021999MD1310031+9999REMSYN060AAXX  15031 28334 32999 80000 11027 21037 40277 53003 8802/;EQDQ01  00002PRCP99
0187283340999992000101506004+57340+058210FM-12+024499999V0209999C000010060019N0500001N1-00171-00311102771ADDAA199000091GA1081+006009029GF108991081071008001999999KA1120N-00321MD1210011+9999REMSYN076AAXX  15061 28334 32599 80000 11017 21031 40277 52001 887// 333 21032 88820;EQDQ01  00002PRCP99
0112283340999992000101509004+57340+058210FM-12+024499999V0209999C000012200019N0500001N1+00131-00291102681ADDGF101991011011008001001001MD1710061+9999REMSYN060AAXX  15091 28334 42599 10000 10013 21029 40268 57006 81100;
0143283340999992000101512004+57340+058210FM-12+024499999V0209999C000012200019N0500001N1+00321-00321102581ADDGA1001+999999999GF100991001001999999001001MA1999999099541MD1710081+9999REMSYN060AAXX  15121 28334 42999 00000 10032 21032 39954 40258 57008;
0175283340999992000101515004+57340+058210FM-12+024499999V0209999C000012200019N0500001N1-00161-00361102641ADDAA199000091GA1001+999999999GF100991001001999999001001KA1999M+00441MD1310011+9999REMSYN064AAXX  15151 28334 32984 00000 11016 21036 40264 53001 333 10044;EQDQ01  00002PRCP99
0165283340999992000101518004+57340+058210FM-12+024499999V0209999C000012200019N0500001N1-00351-00401102671ADDAA199000091GF101991011001999999041001KA1999M+00441MD1410001+9999REMSYN070AAXX  15181 28334 32984 10000 11035 21040 40267 54000 81040 333 10044;EQDQ01  00002PRCP99
0122283340999992000101521004+57340+058210FM-12+024499999V0209999C000012200019N0500001N1-00521-00591102681ADDGA1001+999999999GF100991001001999999001001MD1810011+9999REMSYN054AAXX  15211 28334 42984 00000 11052 21059 40268 58001;
0171283340999992000101600004+57340+058210FM-12+024499999V0209999C000012200019N0500001N1-00651-00701102691ADDAY101061AY201061GA1001+999999999GF100991001001999999001001MA1999999099541MD1410001+9999MW1101REMSYN066AAXX  16001 28334 41984 00000 11065 21070 39954 40269 54000 71000;
0170283340999992000101603004+57340+058210FM-12+024499999V0209999C000012200019N0200001N1-00631-00711102721ADDAA199000091AY111031AY211031GF102991001001999999031071MD1310031+9999MW1101REMSYN066AAXX  16031 28334 31970 20000 11063 21071 40272 53003 71011 80037;EQDQ01  00002PRCP99
0193283340999992000101606004+57340+058210FM-12+024499999V0209999C000012200019N0060001N1-00191-00401102701ADDAA199000091AY101061AY201061GF101991011001999999041001KA1999N-00651MD1210041+9999MW1101REMSYN076AAXX  16061 28334 31956 10000 11019 21040 40270 52004 71000 81040 333 21065;EQDQ01  00002PRCP99
0112283340999992000101609004+57340+058210FM-12+024499999V0202501N002019999999N0500001N1+00411-00141102611ADDGF106991031001999999031021MD1810021+9999REMSYN060AAXX  16091 28334 42999 62502 10041 21014 40261 58002 83032;
0133283340999992000101612004+57340+058210FM-12+024499999V0202701N002019999999N0500001N1+00461-00141102641ADDGF107991051001999999041021MA1999999099621MD1310031+9999REMSYN066AAXX  16121 28334 42999 72702 10046 21014 39962 40264 53003 85042;
0165283340999992000101615004+57340+058210FM-12+024499999V0202701N002019999999N0500001N1+00321-00221102721ADDAA199000091GF108991081001999999021999KA1999M+00451MD1210061+9999REMSYN070AAXX  16151 28334 32984 82702 10032 21022 40272 52006 8802/ 333 10045;EQDQ01  00002PRCP99
0165283340999992000101618004+57340+058210FM-12+024499999V0202701N002019999999N0500001N1+00181-00291102771ADDAA199000091GF108991081001999999021999KA1999M+00451MD1210031+9999REMSYN070AAXX  16181 28334 32984 82702 10018 21029 40277 52003 8802/ 333 10045;EQDQ01  00002PRCP99
0138283340999992000101621004+57340+058210FM-12+024499999V0202701N002010069019N0500001N1+00121-00301102801ADDGA1081+006909059GF108991081051008001999999MD1210031+9999REMSYN070AAXX  16211 28334 42584 82702 10012 21030 40280 52003 885// 333 88623;
0159283340999992000101700004+57340+058210FM-12+024499999V0209999C000010069019N0500001N1+00031-00301102821ADDGA1081+006909059GF108991081051008001999999MA1999999099751MD1210011+9999REMSYN076AAXX  17001 28334 42584 80000 10003 21030 39975 40282 52001 885// 333 88623;
0168283340999992000101703004+57340+058210FM-12+024499999V0202701N002010069019N0500001N1+00061-00341102821ADDAA199000091GA1081+006909059GF108991081051008001999999MD1410001+9999REMSYN070AAXX  17031 28334 32599 82702 10006 21034 40282 54000 885// 333 88623;EQDQ01  00002PRCP99
0187283340999992000101706004+57340+058210FM-12+024499999V0209999C000010069019N0500001N1+00161-00281102891ADDAA199000091GA1081+006909059GF108991081051008001999999KA1120N+00031MD1310071+9999REMSYN076AAXX  17061 28334 32599 80000 10016 21028 40289 53007 885// 333 20003 88623;EQDQ01  00002PRCP99
0138283340999992000101709004+57340+058210FM-12+024499999V0209999C000010069019N0500001N1+00281-00171102971ADDGA1061+006909059GF107991061051008001021001MD1210091+9999REMSYN070AAXX  17091 28334 42599 70000 10028 21017 40297 52009 86520 333 86623;
0159283340999992000101712004+57340+058210FM-12+024499999V0202701N002010069019N0500001N1+00331-00211103151ADDGA1061+006909059GF108991061051008001021999MA1999999100101MD1210191+9999REMSYN076AAXX  17121 28334 42599 82702 10033 21021 30010 40315 52019 8652/ 333 86623;
0187283340999992000101715004+57340+058210FM-12+024499999V0209999C000010069019N0500001N1+00201-00171103171ADDAA199000091GA1081+006909059GF108991081051008001999999KA1120M+00391MD1410001+9999REMSYN076AAXX  17151 28334 32584 80000 10020 21017 40317 54000 885// 333 10039 88623;EQDQ01  00002PRCP99
0187283340999992000101718004+57340+058210FM-12+024499999V0209999C000010069019N0500001N1+00141-00181103251ADDAA199000091GA1081+006909059GF108991081051008001999999KA1120M+00391MD1310071+9999REMSYN076AAXX  17181 28334 32584 80000 10014 21018 40325 53007 885// 333 10039 88623;EQDQ01  00002PRCP99
0138283340999992000101721004+57340+058210FM-12+024499999V0209999C000010069019N0500001N1+00101-00161103311ADDGA1081+006909059GF108991081051008001999999MD1210061+9999REMSYN070AAXX  17211 28334 42584 80000 10010 21016 40331 52006 885// 333 88623;
0159283340999992000101800004+57340+058210FM-12+024499999V0209999C000010069019N0500001N1+00081-00121103351ADDGA1081+006909059GF108991081051008001999999MA1999999100261MD1210031+9999REMSYN076AAXX  18001 28334 42584 80000 10008 21012 30026 40335 52003 885// 333 88623;
0170283340999992000101803004+57340+058210FM-12+024499999V0203401N002019999999N0060001N1+00051-00091103431ADDAA199000091AY121031AY221031GF108991081001999999021999MD1210081+9999MW1101REMSYN066AAXX  18031 28334 31956 83402 10005 21009 40343 52008 71022 8802/;EQDQ01  00002PRCP99
0165283340999992000101806004+57340+058210FM-12+024499999V0209999C000019999999N0060001N1+00181-00071103491ADDAA199000091GF108991081001999999021999KA1999N+00051MD1210061+9999REMSYN070AAXX  18061 28334 32956 80000 10018 21007 40349 52006 8802/ 333 20005;EQDQ01  00002PRCP99
0112283340999992000101809004+57340+058210FM-12+024499999V0203401N002019999999N0500001N1+00291-00041103481ADDGF108991081001999999021999MD1210021+9999REMSYN060AAXX  18091 28334 42999 83402 10029 21004 40348 52002 8802/;
0107283340999992000101812004+57340+058210FM-12+024499999V0203401N002019999999N0500001N1+00301+00011103511ADDGF108991999999999999999999MA1999999100451REMSYN054AAXX  18121 28334 42999 83402 10030 20001 30045 40351;
0165283340999992000101815004+57340+058210FM-12+024499999V0203401N002019999999N0500001N1+00311+00071103481ADDAA199000091GF108991081001999999021999KA1999M+00321MD1810031+9999REMSYN070AAXX  18151 28334 32984 83402 10031 20007 40348 58003 8802/ 333 10032;EQDQ01  00002PRCP99
0165283340999992000101818004+57340+058210FM-12+024499999V0203401N002019999999N0500001N1+00291+00081103471ADDAA199000091GF108991081001999999021999KA1999M+00321MD1710051+9999REMSYN070AAXX  18181 28334 32984 83402 10029 20008 40347 57005 8802/ 333 10032;EQDQ01  00002PRCP99
0112283340999992000101821004+57340+058210FM-12+024499999V0203401N002019999999N0500001N1+00271+00091103381ADDGF108991081001999999021999MD1710061+9999REMSYN060AAXX  18211 28334 42984 83402 10027 20009 40338 57006 8802/;
0133283340999992000101900004+57340+058210FM-12+024499999V0203201N002019999999N0500001N1+00281+00121103241ADDGF108991081001999999021999MA1999999100191MD1710121+9999REMSYN066AAXX  19001 28334 42984 83202 10028 20012 30019 40324 57012 8802/;
0186283340999992000101903004+57340+058210FM-12+024499999V0202701N004019999999N0060001N1+00211+00161103181ADDAA199000091AY121031AY221031GF108991999021999999021999MD1710081+9999MW1101REMSYN066AAXX  19031 28334 31956 82704 10021 20016 40318 57008 71022 8822/;EQDQ01+000082SCOTLCQ02  00002PRCP99
0203283340999992000101906004+57340+058210FM-12+024499999V0202501N002010069019N0500001N1+00241+00111102981ADDAA199000091GA1081+006909029GF108991999071008001021999KA1120N+00201MD1710191+9999REMSYN076AAXX  19061 28334 32599 82502 10024 20011 40298 57019 8872/ 333 20020 88823;EQDQ01+000082SCOTLCQ02  00002PRCP99
0138283340999992000101909004+57340+058210FM-12+024499999V0202501N002010069019N0500001N1+00501+00091102691ADDGA1061+006909029GF108991061071008001011999MD1710241+9999REMSYN070AAXX  19091 28334 42599 82502 10050 20009 40269 57024 8671/ 333 86823;
0159283340999992000101912004+57340+058210FM-12+024499999V0202701N004010069019N0500001N1+00451+00031102571ADDGA1061+006909029GF108991061071008001011999MA1999999099551MD1710131+9999REMSYN076AAXX  19121 28334 42599 82704 10045 20003 39955 40257 57013 8671/ 333 86823;
0203283340999992000101915004+57340+058210FM-12+024499999V0202701N004010069019N0500001N1+00181-00161102461ADDAA199000091GA1081+006909029GF108991999071008001021999KA1120M+00511MD1710141+9999REMSYN076AAXX  19151 28334 32584 82704 10018 21016 40246 57014 8872/ 333 10051 88823;EQDQ01+000082SCOTLCQ02  00002PRCP99
0203283340999992000101918004+57340+058210FM-12+024499999V0202701N002010069019N0500001N1+00151-00131102361ADDAA199000091GA1081+006909029GF108991999071008001021999KA1120M+00511MD1710101+9999REMSYN076AAXX  19181 28334 32584 82702 10015 21013 40236 57010 8872/ 333 10051 88823;EQDQ01+000082SCOTLCQ02  00002PRCP99
0157283340999992000101921004+57340+058210FM-12+024499999V0202701N004010069019N0500001N1+00151-00101102141ADDGA1081+006909029GF108991999071008001021999MD1710211+9999REMSYN070AAXX  19211 28334 42584 82704 10015 21010 40214 57021 8872/ 333 88823;EQDQ01+000082SCOTLC
0206283340999992000102000004+57340+058210FM-12+024499999V0202701N002010069019N0500001N1+00161+00021102021ADDAY151061AY221061GA1081+006909029GF108991999071008001021999MA1999999098981MD1710121+9999MW1021REMSYN082AAXX  20001 28334 41584 82702 10016 20002 39898 40202 57012 70252 8872/ 333 88823;EQDQ01+000082SCOTLC
0185283340999992000102003004+57340+058210FM-12+024499999V0202701N002010069019N0200001N1+00171+00091101961ADDAY151031AY221031GA1081+006909029GF108991999071008001021999MD1710061+9999MW1511REMSYN076AAXX  20031 28334 /1570 82702 10017 20009 40196 57006 75152 8872/ 333 88823;EQDQ01+000082SCOTLC
0202283340999992000102006004+57340+058210FM-12+024499999V0202901N002010051019N0060001N1+00261+00211101871ADDAA112000591AY151061AY221061GA1081+005109069GF108991081061004501999999KA1120N+00151MD1710071+9999MW1511REMSYN088AAXX  20061 28334 11456 82902 10026 20021 40187 57007 69942 75152 886// 333 20015 88717;
0166283340999992000102009004+57340+058210FM-12+024499999V0202701N002010060019N0060001N1+00371+00301101871ADDAY151031AY221031GA1081+006009069GF108991081061008001999999MD1310011+9999MW1501REMSYN076AAXX  20091 28334 41556 82702 10037 20030 40187 53001 75052 886// 333 88720;
0187283340999992000102012004+57340+058210FM-12+024499999V0209999C000010060019N0500001N1+00471+00371101931ADDAY161061AY251061GA1081+006009069GF108991081071008001999999MA1999999098931MD1210071+9999MW1201REMSYN082AAXX  20121 28334 41599 80000 10047 20037 39893 40193 52007 72065 887// 333 88720;
0157283340999992000102015004+57340+058210FM-12+024499999V0209999C000010069019N0500001N1+00331+00281102191ADDGA1061+006909029GF106991061081008001001001KA1120M+00501MD1210231+9999REMSYN076AAXX  20151 28334 /2584 60000 10033 20028 40219 52023 86800 333 10050 86823;
0202283340999992000102018004+57340+058210FM-12+024499999V0200701N004010069019N0150001N1+00181+00021102541ADDAA112001091AY151061AY221061GA1061+006909069GF107991061071008001011001KA1120M+00501MD1210321+9999MW1501REMSYN088AAXX  20181 28334 11565 70704 10018 20002 40254 52032 69992 75052 86710 333 10050 86723;
0140283340999992000102021004+57340+058210FM-12+024499999V0200901N002010300019N0500001N1-00161-00461102761ADDAY171031AY221031GF106991031021008001081001MD1210191+9999MW1011REMSYN066AAXX  20211 28334 41584 60902 11016 21046 40276 52019 70172 83280;
0171283340999992000102100004+57340+058210FM-12+024499999V0209999C000012200019N0500001N1-00481-00651103071ADDAY171061AY211061GA1001+999999999GF100991001001999999001001MA1999999099931MD1210261+9999MW1011REMSYN066AAXX  21001 28334 41984 00000 11048 21065 39993 40307 52026 70171;
0112283340999992000102103004+57340+058210FM-12+024499999V0209999C000012200019N0500001N1-00651-00771103231ADDGF101991011001999999041001MD1210131+9999REMSYN060AAXX  21031 28334 /2999 10000 11065 21077 40323 52013 81040;
0152283340999992000102106004+57340+058210FM-12+024499999V0209999C000012200019N0500001N1-00321-00711103281ADDAA112000191GF101991011001999999041011KA1999N-00651MD1210091+9999REMSYN076AAXX  21061 28334 12999 10000 11032 21071 40328 52009 69912 81041 333 21065;
0112283340999992000102109004+57340+058210FM-12+024499999V0202701N002012200019N0500001N1+00131-00291103221ADDGF104991041001999999041021MD1810011+9999REMSYN060AAXX  21091 28334 42999 42702 10013 21029 40322 58001 84042;
0133283340999992000102112004+57340+058210FM-12+024499999V0209999C000019999999N0500001N1+00061-00131103201ADDGF108991081001999999071999MA1999999100111MD1710031+9999REMSYN066AAXX  21121 28334 42999 80000 10006 21013 30011 40320 57003 8807/;
0185283340999992000102115004+57340+058210FM-12+024499999V0209999C000010069019N0500001N1+00021-00121103081ADDAY171031AY221031GA1071+006909029GF107991071021008001001001KA1120M+00161MD1710111+9999MW1011REMSYN082AAXX  21151 28334 /1584 70000 10002 21012 40308 57011 70172 87200 333 10016 87823;
0152283340999992000102118004+57340+058210FM-12+024499999V0209999C000019999999N0500001N1+00141-00241102881ADDAA112000791GF108991081001999999021999KA1999M+00161MD1710181+9999REMSYN076AAXX  21181 28334 12984 80000 10014 21024 40288 57018 69902 8802/ 333 10016;
0112283340999992000102121004+57340+058210FM-12+024499999V0209999C000019999999N0500001N1+00241+00141102711ADDGF108991081001999999021999MD1710161+9999REMSYN060AAXX  21211 28334 42984 80000 10024 20014 40271 57016 8802/;
0206283340999992000102200004+57340+058210FM-12+024499999V0202501N002010069019N0150001N1+00331+00261102521ADDAY161061AY251061GA1081+006909029GF108991999021008001021999MA1999999099481MD1710181+9999MW1581REMSYN082AAXX  22001 28334 41565 82502 10033 20026 39948 40252 57018 75865 8822/ 333 88823;EQDQ01+000082SCOTLC
0157283340999992000102203004+57340+058210FM-12+024499999V0202501N002010060019N0200001N1+00311+00261102411ADDGA1081+006009029GF108991999071008001021999MD1710101+9999REMSYN070AAXX  22031 28334 /1570 82502 10031 20026 40241 57010 8872/ 333 88820;EQDQ01+000082SCOTLC
0221283340999992000102206004+57340+058210FM-12+024499999V0203201N002010060019N0200001N1+00371+00301102371ADDAA112002091AY161061AY251061GA1081+006009029GF108991999071008001021999KA1120N+00021MD1710031+9999MW1581REMSYN088AAXX  22061 28334 11570 83202 10037 20030 40237 57003 60022 75865 8872/ 333 20002 88820;EQDQ01+000082SCOTLC
0185283340999992000102209004+57340+058210FM-12+024499999V0203201N002010060019N0200001N1+00451+00401102331ADDAY161031AY251031GA1081+006009029GF108991999071008001021999MD1710041+9999MW1581REMSYN076AAXX  22091 28334 41570 83202 10045 20040 40233 57004 75865 8872/ 333 88820;EQDQ01+000082SCOTLC
0206283340999992000102212004+57340+058210FM-12+024499999V0202701N002010060019N0200001N1+00441+00371102371ADDAY161061AY251061GA1081+006009029GF108991999071008001021999MA1999999099351MD1310041+9999MW1581REMSYN082AAXX  22121 28334 41570 82702 10044 20037 39935 40237 53004 75865 8872/ 333 88820;EQDQ01+000082SCOTLC
0185283340999992000102215004+57340+058210FM-12+024499999V0202701N002010060019N0150001N1+00361+00311102391ADDAY161031AY251031GA1081+006009069GF108991081071008001999999KA1120M+00461MD1210011+9999MW1501REMSYN082AAXX  22151 28334 /1565 82702 10036 20031 40239 52001 75065 887// 333 10046 88720;
0202283340999992000102218004+57340+058210FM-12+024499999V0202701N002010060019N0150001N1+00391+00341102331ADDAA112005191AY161061AY251061GA1081+006009069GF108991081071008001999999KA1120M+00461MD1810051+9999MW1511REMSYN088AAXX  22181 28334 11565 82702 10039 20034 40233 58005 60052 75165 887// 333 10046 88720;
0166283340999992000102221004+57340+058210FM-12+024499999V0209999C000010060019N0150001N1+00421+00401102301ADDAY151031AY221031GA1081+006009069GF108991081071008001999999MD1710031+9999MW1511REMSYN076AAXX  22211 28334 41565 80000 10042 20040 40230 57003 75152 887// 333 88720;
0171283340999992000102300004+57340+058210FM-12+024499999V0209999C000010075019N0150001N1+00391+00371102211ADDAY151061AY221061GF108991081071008001999999MA1999999099191MD1710091+9999MW1501REMSYN082AAXX  23001 28334 41565 80000 10039 20037 39919 40221 57009 75052 887// 333 99720;
0166283340999992000102303004+57340+058210FM-12+024499999V0209999C000010060019N0500001N1+00371+00321102071ADDAY151031AY221031GA1081+006009069GF108991081071008001999999MD1710131+9999MW1021REMSYN076AAXX  23031 28334 /1599 80000 10037 20032 40207 57013 70252 887// 333 88720;
0202283340999992000102306004+57340+058210FM-12+024499999V0209999C000010060019N0500001N1+00411+00261101891ADDAA112002091AY161061AY251061GA1081+006009069GF108991081071008001999999KA1120N+00361MD1710181+9999MW1021REMSYN088AAXX  23061 28334 11599 80000 10041 20026 40189 57018 60022 70265 887// 333 20036 88720;
0138283340999992000102309004+57340+058210FM-12+024499999V0202301N002010060019N0500001N1+00431+00181101631ADDGA1081+006009069GF108991081071008001999999MD1710251+9999REMSYN070AAXX  23091 28334 42599 82302 10043 20018 40163 57025 887// 333 88720;
0187283340999992000102312004+57340+058210FM-12+024499999V0202301N002010060019N0500001N1+00361+00191101401ADDAY161061AY251061GA1061+006009069GF108991061071008001071999MA1999999098401MD1710231+9999MW1021REMSYN082AAXX  23121 28334 41599 82302 10036 20019 39840 40140 57023 70265 8677/ 333 86720;
0157283340999992000102315004+57340+058210FM-12+024499999V0202301N004010060019N0500001N1+00321+00141101121ADDGA1081+006009069GF108991081071008001999999KA1120M+00451MD1710271+9999REMSYN076AAXX  23151 28334 /2584 82304 10032 20014 40112 57027 887// 333 10045 88720;
0202283340999992000102318004+57340+058210FM-12+024499999V0202301N004010060019N0150001N1+00241+00191100941ADDAA112002091AY161061AY251061GA1081+006009069GF108991081071008001999999KA1120M+00451MD1710181+9999MW1511REMSYN088AAXX  23181 28334 11565 82304 10024 20019 40094 57018 60022 75165 887// 333 10045 88720;
0166283340999992000102321004+57340+058210FM-12+024499999V0202301N002010060019N0150001N1+00201+00151100751ADDAY161031AY251031GA1081+006009069GF108991081071008001999999MD1710191+9999MW1581REMSYN076AAXX  23211 28334 41565 82302 10020 20015 40075 57019 75865 887// 333 88720;
0166283340999992000102400004+57340+058210FM-12+024499999V0202301N002010060019N0500001N1+00181+00131100491ADDAY161061AY251061GA1081+006009069GF108991081071008001999999MD1710251+9999MW1021REMSYN076AAXX  24001 28334 41584 82302 10018 20013 40049 57025 70265 887// 333 88720;
0166283340999992000102403004+57340+058210FM-12+024499999V0202301N002010060019N0150001N1+00171+00121100371ADDAY161031AY251031GA1081+006009069GF108991081071008001999999MD1710131+9999MW1581REMSYN076AAXX  24031 28334 /1565 82302 10017 20012 40037 57013 75865 887// 333 88720;
0221283340999992000102406004+57340+058210FM-12+024499999V0202701N002010069019N0200001N1+00301+00171100401ADDAA112004191AY161061AY251061GA1081+006909069GF108991999071008001021999KA1120N+00171MD1310051+9999MW1581REMSYN088AAXX  24061 28334 11570 82702 10030 20017 40040 53005 60042 75865 8872/ 333 20017 88723;EQDQ01+000082SCOTLC
0166283340999992000102409004+57340+058210FM-12+024499999V0202901N004010060019N0500001N1+00311+00151100531ADDAY161031AY251031GA1071+006009099GF107991071031008001041011MD1210131+9999MW1201REMSYN076AAXX  24091 28334 41599 72904 10031 20015 40053 52013 72065 87341 333 87920;
0187283340999992000102412004+57340+058210FM-12+024499999V0202901N002010060019N0500001N1+00261+00081100761ADDAY161061AY251061GA1071+006009099GF108991071031008001041999MA1999999097771MD1210211+9999MW1201REMSYN082AAXX  24121 28334 41599 82902 10026 20008 39777 40076 52021 72065 8734/ 333 87920;
0185283340999992000102415004+57340+058210FM-12+024499999V0202901N004010069019N0500001N1+00211+00021100931ADDAY161031AY221031GA1071+006909069GF108991071071008001071999KA1120M+00471MD1210171+9999MW1021REMSYN082AAXX  24151 28334 /1584 82904 10021 20002 40093 52017 70262 8777/ 333 10047 87723;
0221283340999992000102418004+57340+058210FM-12+024499999V0202701N002010060019N0500001N1+00161-00031101051ADDAA112002091AY161061AY251061GA1081+006009069GF108991999071008001021999KA1120M+00421MD1210101+9999MW1201REMSYN088AAXX  24181 28334 11584 82702 10016 21003 40105 52010 60022 72065 8872/ 333 10042 88720;EQDQ01+000082SCOTLC
0138283340999992000102421004+57340+058210FM-12+024499999V0202701N002010060019N0500001N1+00131-00071101161ADDGA1081+006009069GF108991081071008001999999MD1210111+9999REMSYN070AAXX  24211 28334 41584 82702 10013 21007 40116 52011 887// 333 88720;
0159283340999992000102500004+57340+058210FM-12+024499999V0202701N002010060019N0500001N1+00061-00111101331ADDGA1081+006009069GF108991081071008001999999MA1999999098301MD1210151+9999REMSYN076AAXX  25001 28334 42584 82702 10006 21011 39830 40133 52015 887// 333 88720;
0138283340999992000102503004+57340+058210FM-12+024499999V0202701N002010060019N0500001N1+00041-00321101481ADDGA1081+006009069GF108991081071008001999999MD1210151+9999REMSYN070AAXX  25031 28334 /2584 82702 10004 21032 40148 52015 887// 333 88720;
0174283340999992000102506004+57340+058210FM-12+024499999V0202701N002010069019N0500001N1+00041-00361101661ADDAA112000891GA1081+006909059GF108991081051008001999999KA1120N+00041MD1210171+9999REMSYN082AAXX  25061 28334 12599 82702 10004 21036 40166 52017 69972 885// 333 20004 88623;
0138283340999992000102509004+57340+058210FM-12+024499999V0202701N002010069019N0500001N1+00141-00301101791ADDGA1081+006909059GF108991081051008001999999MD1210141+9999REMSYN070AAXX  25091 28334 42599 82702 10014 21030 40179 52014 885// 333 88623;
0133283340999992000102512004+57340+058210FM-12+024499999V0202701N002012200019N0500001N1+00261-00401101851ADDGF102991011011008001041001MA1999999098831MD1210071+9999REMSYN066AAXX  25121 28334 42599 22702 10026 21040 39883 40185 52007 81140;
0157283340999992000102515004+57340+058210FM-12+024499999V0202701N002010069019N0500001N1+00221-00211101941ADDGA1081+006909059GF108991081051008001999999KA1120M+00271MD1210081+9999REMSYN076AAXX  25151 28334 43584 82702 10022 21021 40194 52008 885// 333 10027 88623;
0165283340999992000102518004+57340+058210FM-12+024499999V0202701N002012200019N0500001N1+00271-00091102001ADDAA199000091GF101991011001999999041001KA1999M+00271MD1210061+9999REMSYN070AAXX  25181 28334 32984 12702 10027 21009 40200 52006 81040 333 10027;EQDQ01  00002PRCP99
0138283340999992000102521004+57340+058210FM-12+024499999V0202501N002010069019N0500001N1+00151-00071102021ADDGA1081+006909029GF108991081021008001999999MD1210011+9999REMSYN070AAXX  25211 28334 42584 82502 10015 21007 40202 52001 882// 333 88823;
0133283340999992000102600004+57340+058210FM-12+024499999V0202501N002019999999N0500001N1+00181-00011102021ADDGF107991071001999999021001MA1999999098981MD1410001+9999REMSYN066AAXX  26001 28334 42984 72502 10018 21001 39898 40202 54000 87020;
0142283340999992000102603004+57340+058210FM-12+024499999V0202501N002010300019N0500001N1+00181-00011102021ADDAA199000091GF108991031021008001051999MD1410001+9999REMSYN060AAXX  26031 28334 32599 82502 10018 21001 40202 54000 8325/;EQDQ01  00002PRCP99
0165283340999992000102606004+57340+058210FM-12+024499999V0202301N004010300019N0500001N1+00291+00021101981ADDAA199000091GF105991031081008001041011KA1999N+00151MD1810021+9999REMSYN070AAXX  26061 28334 32599 52304 10029 20002 40198 58002 83841 333 20015;EQDQ01  00002PRCP99
0138283340999992000102609004+57340+058210FM-12+024499999V0202001N006010060019N0500001N1+00441-00141101991ADDGA1071+006009069GF107991071071008001001001MD1310021+9999REMSYN070AAXX  26091 28334 42599 72006 10044 21014 40199 53002 87700 333 87720;
0159283340999992000102612004+57340+058210FM-12+024499999V0202001N004010060019N0500001N1+00331-00211101991ADDGA1071+006009069GF107991071071008001001001MA1999999098971MD1810011+9999REMSYN076AAXX  26121 28334 42599 72004 10033 21021 39897 40199 58001 87700 333 87720;
0187283340999992000102615004+57340+058210FM-12+024499999V0202001N004010069019N0500001N1+00321-00191101941ADDAA199000091GA1081+006909029GF108991081071008001999999KA1120M+00451MD1710051+9999REMSYN076AAXX  26151 28334 32584 82004 10032 21019 40194 57005 887// 333 10045 88823;EQDQ01  00002PRCP99
0187283340999992000102618004+57340+058210FM-12+024499999V0202301N002010060019N0500001N1+00321-00161101831ADDAA199000091GA1081+006009069GF108991081071008001999999KA1120M+00451MD1710101+9999REMSYN076AAXX  26181 28334 32584 82302 10032 21016 40183 57010 887// 333 10045 88720;EQDQ01  00002PRCP99
0138283340999992000102621004+57340+058210FM-12+024499999V0202301N002010060019N0500001N1+00291-00101101721ADDGA1081+006009069GF108991081071008001999999MD1710111+9999REMSYN070AAXX  26211 28334 42584 82302 10029 21010 40172 57011 887// 333 88720;
0159283340999992000102700004+57340+058210FM-12+024499999V0202301N002010060019N0500001N1+00211-00101101601ADDGA1081+006009069GF108991081071008001999999MA1999999098581MD1710131+9999REMSYN076AAXX  27001 28334 42584 82302 10021 21010 39858 40160 57013 887// 333 88720;
0168283340999992000102703004+57340+058210FM-12+024499999V0202301N002010060019N0500001N1+00271+00061101511ADDAA199000091GA1081+006009069GF108991081071008001999999MD1710081+9999REMSYN070AAXX  27031 28334 32584 82302 10027 20006 40151 57008 887// 333 88720;EQDQ01  00002PRCP99
0196283340999992000102706004+57340+058210FM-12+024499999V0202001N004010060019N0200001N1+00471+00191101421ADDAA199000021AY161061AY221061GA1081+006009069GF108991081071008001999999KA1120N+00211MD1710071+9999MW1611REMSYN082AAXX  27061 28334 31570 82004 10047 20019 40142 57007 76162 887// 333 20021 88720;
0166283340999992000102709004+57340+058210FM-12+024499999V0202001N002010069019N0200001N1+00571+00301101371ADDAY161031AY221031GA1061+006909029GF108991061071008001021999MD1710031+9999MW1611REMSYN076AAXX  27091 28334 41570 82002 10057 20030 40137 57003 76162 8672/ 333 86823;
0187283340999992000102712004+57340+058210FM-12+024499999V0202001N002010069019N0200001N1+00521+00271101271ADDAY161061AY221061GA1061+006909029GF108991061071008001021999MA1999999098291MD1710111+9999MW1611REMSYN082AAXX  27121 28334 41570 82002 10052 20027 39829 40127 57011 76162 8672/ 333 86823;
0185283340999992000102715004+57340+058210FM-12+024499999V0202301N002010069019N0150001N1+00431+00311101281ADDAY161031AY221031GA1081+006909069GF108991081071008001999999KA1120M+00581MD1410001+9999MW1611REMSYN082AAXX  27151 28334 /1565 82302 10043 20031 40128 54000 76162 887// 333 10058 88723;
0202283340999992000102718004+57340+058210FM-12+024499999V0202301N002010069019N0500001N1+00411+00311101271ADDAA112005191AY161061AY221061GA1081+006909069GF108991081071008001999999KA1120M+00581MD1810011+9999MW1021REMSYN088AAXX  27181 28334 11584 82302 10041 20031 40127 58001 60052 70262 887// 333 10058 88723;
0166283340999992000102721004+57340+058210FM-12+024499999V0202301N002010069019N0150001N1+00401+00331101261ADDAY161031AY221031GA1081+006909069GF108991081071008001999999MD1710011+9999MW1611REMSYN076AAXX  27211 28334 41565 82302 10040 20033 40126 57001 76162 887// 333 88723;
0187283340999992000102800004+57340+058210FM-12+024499999V0202301N002010069019N0500001N1+00481+00411101281ADDAY161061AY221061GA1081+006909069GF108991081071008001999999MA1999999098301MD1310031+9999MW1021REMSYN082AAXX  28001 28334 41584 82302 10048 20041 39830 40128 53003 70262 887// 333 88723;
0166283340999992000102803004+57340+058210FM-12+024499999V0202301N002010069019N0060001N1+00531+00461101281ADDAY121031AY221031GA1081+006909069GF108991081071008001999999MD1410001+9999MW1011REMSYN076AAXX  28031 28334 /1556 82302 10053 20046 40128 54000 70122 887// 333 88723;
0202283340999992000102806004+57340+058210FM-12+024499999V0202501N004010060019N0060001N1+00581+00511101461ADDAA112003091AY121061AY221061GA1081+006009069GF108991081071008001999999KA1120N+00401MD1810101+9999MW1101REMSYN088AAXX  28061 28334 11556 82504 10058 20051 40146 58010 60032 71022 887// 333 20040 88720;
0166283340999992000102809004+57340+058210FM-12+024499999V0202501N006010051019N0020001N1+00621+00551101041ADDAY151031AY221031GA1081+005109069GF108991081071004501999999MD1710121+9999MW1511REMSYN076AAXX  28091 28334 41420 82506 10062 20055 40104 57012 75152 887// 333 88717;
0206283340999992000102812004+57340+058210FM-12+024499999V0202301N004010060019N0060001N1+00711+00591100891ADDAY161061AY251061GA1081+006009069GF108991999071008001021999MA1999999097951MD1710131+9999MW1511REMSYN082AAXX  28121 28334 41556 82304 10071 20059 39795 40089 57013 75165 8872/ 333 88720;EQDQ01+000082SCOTLC
0204283340999992000102815004+57340+058210FM-12+024499999V0202301N004010060019N0060001N1+00751+00671100821ADDAY161031AY251031GA1081+006009069GF108991999071008001021999KA1120M+00761MD1710061+9999MW1581REMSYN082AAXX  28151 28334 /1556 82304 10075 20067 40082 57006 75865 8872/ 333 10076 88720;EQDQ01+000082SCOTLC
0221283340999992000102818004+57340+058210FM-12+024499999V0202301N006010060019N0060001N1+00731+00641100791ADDAA112005191AY161061AY251061GA1081+006009069GF108991999071008001021999KA1120M+00761MD1710041+9999MW1581REMSYN088AAXX  28181 28334 11556 82306 10073 20064 40079 57004 60052 75865 8872/ 333 10076 88720;EQDQ01+000082SCOTLC
0185283340999992000102821004+57340+058210FM-12+024499999V0202301N004010060019N0060001N1+00671+00581100741ADDAY161031AY251031GA1081+006009069GF108991999071008001021999MD1710051+9999MW1581REMSYN076AAXX  28211 28334 41556 82304 10067 20058 40074 57005 75865 8872/ 333 88720;EQDQ01+000082SCOTLC
0206283340999992000102900004+57340+058210FM-12+024499999V0202301N002010060019N0060001N1+00651+00561100571ADDAY161061AY251061GA1081+006009069GF108991999071008001021999MA1999999097641MD1710161+9999MW1581REMSYN082AAXX  29001 28334 41556 82302 10065 20056 39764 40057 57016 75865 8872/ 333 88720;EQDQ01+000082SCOTLC
0185283340999992000102903004+57340+058210FM-12+024499999V0202301N002010060019N0150001N1+00581+00511100531ADDAY161031AY251031GA1081+006009069GF108991999071008001021999MD1710051+9999MW1501REMSYN076AAXX  29031 28334 /1565 82302 10058 20051 40053 57005 75065 8872/ 333 88720;EQDQ01+000082SCOTLC
0237283340999992000102906004+57340+058210FM-12+024499999V0202701N002010060019N0200001N1+00531+00411100491ADDAA112013091AY161061AY251061GA1081+006009069GF108991999071008001021999KA1120N+99999MD1710051+9999MW1581REMSYN088AAXX  29061 28334 11570 82702 10053 20041 40049 57005 60132 75865 8872/ 333 20065 88720;EQDQ01+000082SCOTLCQ02 +00652ATMN  
0166283340999992000102909004+57340+058210FM-12+024499999V0209999C000010069019N0200001N1+00091+00011100581ADDAY181031AY261031GA1071+006909099GF107991071031008001071001MD1310051+9999MW1851REMSYN076AAXX  29091 28334 41570 70000 10009 20001 40058 53005 78586 87370 333 87923;
0159283340999992000102912004+57340+058210FM-12+024499999V0209999C000010069019N0500001N1+00131+00051100691ADDGA1071+006909099GF107991071031008001001001MA1999999097691MD1210101+9999REMSYN076AAXX  29121 28334 42599 70000 10013 20005 39769 40069 52010 87300 333 87923;
0174283340999992000102918004+57340+058210FM-12+024499999V0202301N002010069019N0500001N1+00041-00051100561ADDAA112004191GA1081+006909099GF108991081031008001999999KA1120M+00591MD1710121+9999REMSYN082AAXX  29181 28334 12584 82302 10004 21005 40056 57012 60042 883// 333 10059 88923;
0140283340999992000102921004+57340+058210FM-12+024499999V0202301N002019999999N0150001N1+00011-00081100461ADDAY181031AY221031GF107991071001999999021001MD1710101+9999MW1711REMSYN066AAXX  29211 28334 41965 72302 10001 21008 40046 57010 77182 87020;
0161283340999992000103000004+57340+058210FM-12+024499999V0202701N002010075019N0150001N1-00051-00141100451ADDAY181061AY221061GF107991071031008001021001MA1999999097431MD1710031+9999MW1711REMSYN072AAXX  30001 28334 41565 72702 11005 21014 39743 40045 57003 77182 87320;
0167283340999992000103003004+57340+058210FM-12+024499999V0203401N002010060019N0500001N1-00311-00551100691ADDAJ100019199999999GA1081+006009029GF108991081071008001999999IA1309MD1310211+9999REMSYN076AAXX  30031 28334 /2599 83402 11031 21055 40069 53021 887// 333 42001 88820;
0140283340999992000103009004+57340+058210FM-12+024499999V0202701N004019999999N0200001N1-00311-00361100951ADDAY171031AY221031GF108991081001999999021999MD1210061+9999MW1711REMSYN066AAXX  30091 28334 42970 82704 11031 21036 40095 52006 77172 8802/;
0185283340999992000103015004+57340+058210FM-12+024499999V0202301N004010069019N0500001N1-00431-00661101321ADDAY181031AY221031GA1071+006909099GF107991071031008001001001KA1120M-00351MD1210171+9999MW1021REMSYN082AAXX  30151 28334 /1584 72304 11043 21066 40132 52017 70282 87300 333 11035 87923;
0190283340999992000103018004+57340+058210FM-12+024499999V0202301N004012200019N0500001N1-00511-00681101511ADDAA112000391AY181061AY211061GA1001+999999999GF100991001001999999001001KA1999M-00351MD1210171+9999MW1011REMSYN076AAXX  30181 28334 /1984 02304 11051 21068 40151 52017 69932 70181 333 11035;
0122283340999992000103021004+57340+058210FM-12+024499999V0202301N002012200019N0500001N1-00591-00701101541ADDGA1001+999999999GF100991001001999999001001MD1210021+9999REMSYN054AAXX  30211 28334 42984 02302 11059 21070 40154 52002;
0143283340999992000103100004+57340+058210FM-12+024499999V0209999C000012200019N0500001N1-00771-00831101531ADDGA1001+999999999GF100991001001999999001001MA1999999098411MD1810021+9999REMSYN060AAXX  31001 28334 42984 00000 11077 21083 39841 40153 58002;
0197283340999992000103103004+57340+058210FM-12+024499999V0209999C000010069019N0500001N1-00801-00861101501ADDAA199000091AJ100019199999999GA1081+006909059GF108991081051008001999999IA1309MD1710051+9999REMSYN076AAXX  31031 28334 32599 80000 11080 21086 40150 57005 885// 333 42001 88623;EQDQ01  00002PRCP99
0174283340999992000103106004+57340+058210FM-12+024499999V0209999C000010300019N0200001N1-00451-00581101511ADDAA199000021AY171061AY221061GF105991031021008001071021KA1999N-00811MD1310061+9999MW1711REMSYN076AAXX  31061 28334 31570 50000 11045 21058 40151 53006 77172 83272 333 21081;
0166283340999992000103109004+57340+058210FM-12+024499999V0202901N002010069019N0200001N1-00361-00801101581ADDAY181031AY271031GA1081+006909099GF108991081031008001999999MD1210071+9999MW1851REMSYN076AAXX  31091 28334 41570 82902 11036 21080 40158 52007 78587 883// 333 88923;
0187283340999992000103112004+57340+058210FM-12+024499999V0202901N004010069019N0500001N1-00621-00811101871ADDAY181061AY221061GA1071+006909099GF107991071031008001001001MA1999999098751MD1210261+9999MW1021REMSYN082AAXX  31121 28334 41599 72904 11062 21081 39875 40187 52026 70282 87300 333 87923;
0185283340999992000103115004+57340+058210FM-12+024499999V0202901N002010069019N0150001N1-00831-01021102181ADDAY181031AY221031GA1061+006909099GF106991061031008001001001KA1120M-00351MD1210271+9999MW1851REMSYN082AAXX  31151 28334 /1565 62902 11083 21102 40218 52027 78582 86300 333 11035 86923;
0180283340999992000103118004+57340+058210FM-12+024499999V0209999C000012200019N0500001N1-01021-01191102511ADDAA112000191AY181061AY211061GF103991031031008001001001KA1999M-00351MD1210301+9999MW1011REMSYN082AAXX  31181 28334 11584 30000 11102 21119 40251 52030 69922 70181 83300 333 11035;
0166283340999992000103121004+57340+058210FM-12+024499999V0209999C000010069019N0150001N1-01071-01251102691ADDAY181031AY211031GA1071+006909099GF107991071031008001001001MD1210161+9999MW1851REMSYN076AAXX  31211 28334 41565 70000 11107 21125 40269 52016 78581 87300 333 87923;
0187283340999992000110100004+57340+058210FM-12+024499999V0209999C000010069019N0500001N1-01091-01221102651ADDAY181061AY211061GA1061+006909099GF106991061031008001001001MA1999999099531MD1210051+9999MW1011REMSYN082AAXX  01001 28334 41584 60000 11109 21122 39953 40265 52005 70181 86300 333 86923;
0112283340999992000110103004+57340+058210FM-12+024499999V0209999C000019999999N0500001N1-01291-01441102851ADDGF108991001001999999001071MD1210081+9999REMSYN060AAXX  01031 28334 /2984 80000 11129 21144 40285 52008 80007;
0152283340999992000110106004+57340+058210FM-12+024499999V0209999C000019999999N0500001N1-00981-01241102721ADDAA112000391GF108991061001999999071071KA1999N-01291MD1810091+9999REMSYN076AAXX  01061 28334 12999 80000 11098 21124 40272 58009 69932 86077 333 21129;
0166283340999992000110109004+57340+058210FM-12+024499999V0201801N002010060019N0005001N1-00701-00871102141ADDAY171031AY221031GA1081+006009029GF108991081001008001021999MD1710521+9999MW1751REMSYN076AAXX  01091 28334 41505 81802 11070 21087 40214 57052 77572 8802/ 333 88520;
0187283340999992000110112004+57340+058210FM-12+024499999V0202301N004010069019N0500001N1-00411-00601101781ADDAY171061AY221061GA1071+006909029GF108991071001008001071999MA1999999098681MD1710321+9999MW1221REMSYN082AAXX  01121 28334 41599 82304 11041 21060 39868 40178 57032 72272 8707/ 333 87523;
0191283340999992000110115004+57340+058210FM-12+024499999V0202901N002019999999N0020001N1-00101-00161101691ADDAY171031AY261031GA1999+000159999GF108991081001008001021999MD1710051+9999MW1731REMSYN082AAXX  01151 28334 /1520 82902 11010 21016 40169 57005 77376 8802/ 333 16005 80520;EQDQ01    003SCCGA1
0186283340999992000110118004+57340+058210FM-12+024499999V0202301N002010075019N0020001N1-00021-00051101741ADDAA112008991AY171061AY261061GF108991081001008001021999KA1120M-00051MD1310061+9999MW1731REMSYN088AAXX  01181 28334 11520 82302 11002 21005 40174 53006 60092 77376 8802/ 333 11005 51083;
0166283340999992000110121004+57340+058210FM-12+024499999V0209999C000010060019N0020001N1+00061+00011101761ADDAY171031AY261031GA1081+006009029GF108991081001008001021999MD1210031+9999MW1611REMSYN076AAXX  01211 28334 41520 80000 10006 20001 40176 52003 76176 8802/ 333 88520;
0193283340999992000110200004+57340+058210FM-12+024499999V0209999C000010051019N0005001N1+00111+00081101791ADDAY171061AY261061GA1081+005109079GF108991081061004501999999MA1999999098751MD1210031+9999MW1511REMSYN088AAXX  02001 28334 41405 80000 10011 20008 39875 40179 52003 75176 886// 333 88717 96046;
0195283340999992000110203004+57340+058210FM-12+024499999V0209999C000010051019N0020001N1+00191+00161101721ADDAJ100089199999999AY151031AY241031GA1081+005109069GF108991081061004501999999IA1279MD1810051+9999MW1421REMSYN082AAXX  02031 28334 /1420 80000 10019 20016 40172 58005 74254 886// 333 43008 88717;
0166283340999992000110209004+57340+058210FM-12+024499999V0202501N002010060019N0060001N1+00291+00271101681ADDAY161031AY251031GA1081+006009029GF108991081001008001021999MD1310051+9999MW1511REMSYN076AAXX  02091 28334 41556 82502 10029 20027 40168 53005 75165 8802/ 333 88520;
0204283340999992000110215004+57340+058210FM-12+024499999V0202301N002010060019N0020001N1+00331+00301101891ADDAY161031AY251031GA1081+006009069GF108991999061008001021999KA1120M+00341MD1210091+9999MW1531REMSYN082AAXX  02151 28334 /1520 82302 10033 20030 40189 52009 75365 8862/ 333 10034 88720;EQDQ01+000082SCOTLC
0221283340999992000110218004+57340+058210FM-12+024499999V0202301N002010060019N0020001N1+00371+00351102071ADDAA112006191AY161061AY251061GA1081+006009069GF108991999061008001021999KA1120M+00341MD1210191+9999MW1531REMSYN088AAXX  02181 28334 11520 82302 10037 20035 40207 52019 60062 75365 8862/ 333 10034 88720;EQDQ01+000082SCOTLC
0112283340999992000110221004+57340+058210FM-12+024499999V0202301N002019999999N0020001N1+00391+00371102231ADDGF108991081001999999021999MD1210151+9999REMSYN060AAXX  02211 28334 42920 82302 10039 20037 40223 52015 8802/;
0161283340999992000110300004+57340+058210FM-12+024499999V0209999C000019999999N0005001N1+00381+00361102401ADDAY121061AY241061GF108991001001999999021999MA1999999099381MD1210171+9999MW1421REMSYN072AAXX  03001 28334 41905 80000 10038 20036 39938 40240 52017 74224 8002/;
0179283340999992000110303004+57340+058210FM-12+024499999V0209999C000010075019N0005001N1+00351+00331102571ADDAJ100009199999999AY151031AY241031GF108991081061008001999999IA1259MD1210151+9999MW1421REMSYN082AAXX  03031 28334 /1505 80000 10035 20033 40257 52015 74254 886// 333 41000 887//;
0221283340999992000110306004+57340+058210FM-12+024499999V0209999C000010060019N0020001N1-00031-00061102861ADDAA112001091AY151061AY241061GA1081+006009069GF108991081061008001999999KA1120N+99999MD1210241+9999MW1201REMSYN088AAXX  03061 28334 11520 80000 11003 21006 40286 52024 60012 72054 886// 333 20033 88720;EQDQ01 +00332ATMN  
0166283340999992000110309004+57340+058210FM-12+024499999V0209999C000010060019N0020001N1-00081-00111102941ADDAY151031AY221031GA1081+006009069GF108991081061008001999999MD1210081+9999MW1511REMSYN076AAXX  03091 28334 41520 80000 11008 21011 40294 52008 75152 886// 333 88720;
0187283340999992000110312004+57340+058210FM-12+024499999V0209999C000010060019N0020001N1-00111-00151103021ADDAY151061AY221061GA1081+006009069GF108991081061008001999999MA1999999099921MD1210071+9999MW1561REMSYN082AAXX  03121 28334 41520 80000 11011 21015 39992 40302 52007 75652 886// 333 88720;
0185283340999992000110315004+57340+058210FM-12+024499999V0209999C000010060019N0020001N1-00121-00171103131ADDAY151031AY221031GA1081+006009069GF108991081061008001999999KA1120M+00361MD1210111+9999MW1561REMSYN082AAXX  03151 28334 /1520 80000 11012 21017 40313 52011 75652 886// 333 10036 88720;
0202283340999992000110318004+57340+058210FM-12+024499999V0209999C000010060019N0060001N1-00081-00121103191ADDAA112000891AY151061AY221061GA1081+006009069GF108991081061008001999999KA1120M+00361MD1210041+9999MW1521REMSYN088AAXX  03181 28334 11556 80000 11008 21012 40319 52004 69972 75252 886// 333 10036 88720;
0166283340999992000110321004+57340+058210FM-12+024499999V0209999C000010060019N0060001N1-00101-00121103151ADDAY151031AY211031GA1081+006009069GF108991081061008001999999MD1810021+9999MW1101REMSYN076AAXX  03211 28334 41556 80000 11010 21012 40315 58002 71051 886// 333 88720;
0161283340999992000110400004+57340+058210FM-12+024499999V0209999C000010075019N0060001N1-00041-00071103181ADDAY151061AY221061GF108991081061008001999999MA1999999100081MD1310031+9999MW1101REMSYN072AAXX  04001 28334 41556 80000 11004 21007 30008 40318 53003 71052 886//;
0166283340999992000110403004+57340+058210FM-12+024499999V0209999C000010060019N0060001N1+00071+00011103191ADDAY121031AY221031GA1081+006009069GF108991081061008001999999MD1210021+9999MW1101REMSYN076AAXX  04031 28334 /1556 80000 10007 20001 40319 52002 71022 886// 333 88720;
0202283340999992000110406004+57340+058210FM-12+024499999V0209999C000010060019N0005001N1+00071+00041103191ADDAA112000791AY141061AY221061GA1081+006009069GF108991081061008001999999KA1120N-00121MD1810011+9999MW1461REMSYN088AAXX  04061 28334 11505 80000 10007 20004 40319 58001 69902 74642 886// 333 21012 88720;
0185283340999992000110409004+57340+058210FM-12+024499999V0209999C000010060019N0005001N1+00201+00171103231ADDAY141031AY251031GA1081+006009069GF108991081061008001999999MD1310051+9999MW1441REMSYN076AAXX  04091 28334 41505 80000 10020 20017 40323 53005 74545 886// 333 88720;EQDQ01+000452PRSWM1
0187283340999992000110412004+57340+058210FM-12+024499999V0209999C000010060019N0005001N1+00211+00181103291ADDAY141061AY221061GA1081+006009069GF108991081061008001999999MA1999999100221MD1210061+9999MW1441REMSYN082AAXX  04121 28334 41505 80000 10021 20018 30022 40329 52006 74442 886// 333 88720;
0185283340999992000110415004+57340+058210FM-12+024499999V0209999C000010060019N0020001N1+00231+00211103411ADDAY141031AY251031GA1081+006009069GF108991081061008001999999KA1120M+00241MD1210121+9999MW1421REMSYN082AAXX  04151 28334 /1520 80000 10023 20021 40341 52012 74245 886// 333 10024 88720;
0202283340999992000110418004+57340+058210FM-12+024499999V0209999C000010060019N0020001N1+00231+00211103481ADDAA112000891AY141061AY251061GA1081+006009069GF108991081061008001999999KA1120M+00241MD1210071+9999MW1421REMSYN088AAXX  04181 28334 11520 80000 10023 20021 40348 52007 69972 74245 886// 333 10024 88720;
0166283340999992000110421004+57340+058210FM-12+024499999V0209999C000010060019N0020001N1+00221+00191103551ADDAY121031AY221031GA1081+006009069GF108991081061008001999999MD1210071+9999MW1031REMSYN076AAXX  04211 28334 41520 80000 10022 20019 40355 52007 70322 886// 333 88720;
0187283340999992000110500004+57340+058210FM-12+024499999V0209999C000010060019N0060001N1+00121+00071103681ADDAY121061AY221061GA1081+006009069GF108991081061008001999999MA1999999100511MD1210031+9999MW1021REMSYN082AAXX  05001 28334 42556 80000 10012 20007 30051 40368 52003 70222 886// 333 88720;
0142283340999992000110503004+57340+058210FM-12+024499999V0209999C000010075019N0500001N1+00131+00101103621ADDAA199000091GF108991081061008001999999MD1210021+9999REMSYN060AAXX  05031 28334 32584 80000 10013 20010 40362 52002 886//;EQDQ01  00002PRCP99
0185283340999992000110506004+57340+058210FM-12+024499999V0209999C000010060019N0060001N1+00211+00181103811ADDAY121061AY251061GA1081+006009069GF108991081061008001999999KA1120N+00121MD1210231+9999MW1511REMSYN082AAXX  05061 28334 21556 80000 10021 20018 40381 52023 75125 886// 333 20012 88720;
0138283340999992000110509004+57340+058210FM-12+024499999V0209999C000010060019N0500001N1+00271+00191103841ADDGA1081+006009069GF108991081071008001999999MD1210021+9999REMSYN070AAXX  05091 28334 42599 80000 10027 20019 40384 52002 887// 333 88720;
0187283340999992000110512004+57340+058210FM-12+024499999V0209999C000010060019N0500001N1+00281+00231103881ADDAY151061AY221061GA1081+006009069GF108991081071008001999999MA1999999100811MD1210051+9999MW1201REMSYN082AAXX  05121 28334 41599 80000 10028 20023 30081 40388 52005 72052 887// 333 88720;
0185283340999992000110515004+57340+058210FM-12+024499999V0209999C000010060019N0060001N1+00201+00171103941ADDAY151031AY221031GA1081+006009069GF108991081061008001999999KA1120M+00301MD1210051+9999MW1501REMSYN082AAXX  05151 28334 /1556 80000 10020 20017 40394 52005 75052 886// 333 10030 88720;
0202283340999992000110518004+57340+058210FM-12+024499999V0209999C000010060019N0500001N1+00131+00081103991ADDAA112000791AY151061AY221061GA1081+006009069GF108991081061008001999999KA1120M+00301MD1210031+9999MW1021REMSYN088AAXX  05181 28334 11584 80000 10013 20008 40399 52003 69902 70252 886// 333 10030 88720;
0138283340999992000110521004+57340+058210FM-12+024499999V0209999C000010060019N0500001N1+00121+00071104061ADDGA1081+006009069GF108991081061008001999999MD1210071+9999REMSYN070AAXX  05211 28334 42584 81000 10012 20007 40406 52007 886// 333 88720;
0159283340999992000110600004+57340+058210FM-12+024499999V0209999C000010060019N0500001N1+00041-00031104051ADDGA1081+006009069GF108991081061008001999999MA1999999100941MD1810021+9999REMSYN076AAXX  06001 28334 42584 80000 10004 21003 30094 40405 58002 886// 333 88720;
0149283340999992000110603004+57340+058210FM-12+024499999V0209999C000010060019N0500001N1-00061-00091104131ADDAA199000021GA1081+006009059GF108991081051008001999999MD1310061+9999REMSYN070AAXX  06031 28334 32584 80000 11006 21009 40413 53006 885// 333 88620;
0215283340999992000110606004+57340+058210FM-12+024499999V0209999C000010060019N0060001N1-00111-00171104211ADDAA199000091AY121061AY221061GA1081+006009069GF108991081061008001999999KA1120N-00061MD1210071+9999MW1101REMSYN082AAXX  06061 28334 31556 80000 11011 21017 40421 52007 71022 886// 333 21006 88720;EQDQ01  00002PRCP99
0138283340999992000110609004+57340+058210FM-12+024499999V0209999C000010060019N0500001N1-00131-00271104251ADDGA1081+006009059GF108991081051008001999999MD1210041+9999REMSYN070AAXX  06091 28334 42599 80000 11013 21027 40425 52004 885// 333 88620;
0159283340999992000110612004+57340+058210FM-12+024499999V0209999C000010060019N0500001N1-00291-00461104301ADDGA1081+006009059GF108991081051008001999999MA1999999101141MD1210031+9999REMSYN076AAXX  06121 28334 42599 80000 11029 21046 30114 40430 52003 885// 333 88620;
0187283340999992000110615004+57340+058210FM-12+024499999V0200901N002010060019N0500001N1-00391+99999104351ADDAA199000091GA1081+006009059GF108991081051008001999999KA1120M-00051MD1210041+9999REMSYN076AAXX  06151 28334 32584 80902 11039 21/54 40435 52004 885// 333 11005 88620;EQDQ01  00002PRCP99
0187283340999992000110618004+57340+058210FM-12+024499999V0201101N002010060019N0500001N1-00471-00671104391ADDAA199000091GA1081+006009059GF108991081051008001999999KA1120M-00051MD1210041+9999REMSYN076AAXX  06181 28334 32584 81102 11047 21067 40439 52004 885// 333 11005 88620;EQDQ01  00002PRCP99
0138283340999992000110621004+57340+058210FM-12+024499999V0201401N002010060019N0500001N1-00501-00741104471ADDGA1081+006009059GF108991081051008001999999MD1210051+9999REMSYN070AAXX  06211 28334 42584 81402 11050 21074 40447 52005 885// 333 88620;
0159283340999992000110700004+57340+058210FM-12+024499999V0202001N002010069019N0500001N1-00961+99999104501ADDGA1081+006909019GF108991001001999999021999MA1999999101301MD1210031+9999REMSYN076AAXX  07001 28334 42984 82002 11096 21078 30130 40450 52003 8002/ 333 88423;
0142283340999992000110703004+57340+058210FM-12+024499999V0209999C000012200019N0500001N1-00741-00871104551ADDAA199000091GF102991001001999999041061MD1210031+9999REMSYN060AAXX  07031 28334 32984 20000 11074 21087 40455 52003 80046;EQDQ01  00002PRCP99
0165283340999992000110706004+57340+058210FM-12+024499999V0209999C000012200019N0500001N1-00621-00771104591ADDAA199000091GF101991001001999999001021KA1999N-00741MD1210051+9999REMSYN070AAXX  07061 28334 32999 10000 11062 21077 40459 52005 80002 333 21074;EQDQ01  00002PRCP99
0138283340999992000110709004+57340+058210FM-12+024499999V0209999C000010069019N0500001N1-00611-00721999999ADDGA1061+006909059GF108991061051008001071999MD1210051+9999REMSYN070AAXX  07091 28334 42599 80000 11061 21072 44064 52005 8657/ 333 86623;
0159283340999992000110712004+57340+058210FM-12+024499999V0209999C000010069019N0500001N1-00261-00361104641ADDGA1081+006909029GF108991081081008001999999MA1999999101611MD1410001+9999REMSYN076AAXX  07121 28334 42599 80000 11026 21036 30161 40464 54000 888// 333 88823;
0175283340999992000110715004+57340+058210FM-12+024499999V0200701N002012200019N0500001N1-00261-00361104651ADDAA199000091GA1001+999999999GF100991001001999999001001KA1999M-00241MD1410001+9999REMSYN064AAXX  07151 28334 32984 00702 11026 21036 40465 54000 333 11024;EQDQ01  00002PRCP99
0175283340999992000110718004+57340+058210FM-12+024499999V0209999C000012200019N0500001N1-00391-00541104641ADDAA199000091GA1001+999999999GF100991001001999999001001KA1999M-00251MD1310011+9999REMSYN064AAXX  07181 28334 32984 00000 11039 21054 40464 53001 333 11025;EQDQ01  00002PRCP99
0122283340999992000110721004+57340+058210FM-12+024499999V0209999C000012200019N0500001N1-00451-00611104671ADDGA1001+999999999GF100991001001999999001001MD1210031+9999REMSYN054AAXX  07211 28334 42984 00000 11045 21061 40467 52003;
0143283340999992000110800004+57340+058210FM-12+024499999V0209999C000012200019N0500001N1-00611-00801104741ADDGA1001+999999999GF100991001001999999001001MA1999999101531MD1210041+9999REMSYN060AAXX  08001 28334 42984 00000 11061 21080 30153 40474 52004;
0165283340999992000110806004+57340+058210FM-12+024499999V0209999C000012200019N0500001N1-00471-00641104721ADDAA199000091GF102991001001999999001011KA1999N-00661MD1310011+9999REMSYN070AAXX  08061 28334 32999 20000 11047 21064 40472 53001 80001 333 21066;EQDQ01  00002PRCP99
0112283340999992000110809004+57340+058210FM-12+024499999V0202301N002012200019N0500001N1-00081-00611104671ADDGF102991001001999999001011MD1810011+9999REMSYN060AAXX  08091 28334 42999 22302 11008 21061 40467 58001 80001;
0133283340999992000110812004+57340+058210FM-12+024499999V0202301N002012200019N0500001N1-00141-00741104661ADDGF102991001001999999001011MA1999999101511MD1710021+9999REMSYN066AAXX  08121 28334 42999 22302 11014 21074 30151 40466 57002 80001;
0165283340999992000110815004+57340+058210FM-12+024499999V0209999C000012200019N0500001N1-00331-00841104761ADDAA199000091GF101991001001999999001011KA1999M-00071MD1310071+9999REMSYN070AAXX  08151 28334 32984 10000 11033 21084 40476 53007 80001 333 11007;EQDQ01  00002PRCP99
0175283340999992000110818004+57340+058210FM-12+024499999V0209999C000012200019N0500001N1-00561-00741104831ADDAA199000091GA1001+999999999GF100991001001999999001001KA1999M-00071MD1210041+9999REMSYN064AAXX  08181 28334 32984 00000 11056 21074 40483 52004 333 11007;EQDQ01  00002PRCP99
0122283340999992000110821004+57340+058210FM-12+024499999V0209999C000012200019N0500001N1-00651-00851104901ADDGA1001+999999999GF100991001001999999001001MD1210061+9999REMSYN054AAXX  08211 28334 42984 00000 11065 21085 40490 52006;
0143283340999992000110900004+57340+058210FM-12+024499999V0209999C000012200019N0500001N1-00781-01001104901ADDGA1001+999999999GF100991001001999999001001MA1999999101661MD1810021+9999REMSYN060AAXX  09001 28334 42984 00000 11078 21100 30166 40490 58002;
0152283340999992000110903004+57340+058210FM-12+024499999V0209999C000012200019N0500001N1-00981-01241104941ADDAA199000091GA1001+999999999GF100991001001999999001001MD1310011+9999REMSYN054AAXX  09031 28334 32984 00000 11098 21124 40494 53001;EQDQ01  00002PRCP99
0165283340999992000110906004+57340+058210FM-12+024499999V0209999C000012200019N0500001N1-00791-01011104961ADDAA199000091GF101991001001999999001011KA1999N-00981MD1210051+9999REMSYN070AAXX  09061 28334 32999 10000 11079 21101 40496 52005 80001 333 21098;EQDQ01  00002PRCP99
0112283340999992000110909004+57340+058210FM-12+024499999V0209999C000012200019N0500001N1-00061-00781104851ADDGF101991001001999999001011MD1810021+9999REMSYN060AAXX  09091 28334 42999 10000 11006 21078 40485 58002 80001;
0133283340999992000110912004+57340+058210FM-12+024499999V0209999C000012200019N0500001N1-00161-00891104831ADDGF101991001001999999001011MA1999999101671MD1710031+9999REMSYN066AAXX  09121 28334 42999 10000 11016 21089 30167 40483 57003 80001;
0145283340999992000110915004+57340+058210FM-12+024499999V0209999C000012200019N0500001N1-00681-00921104871ADDGA1001+999999999GF100991001001999999001001KA1999M-00051MD1710031+9999REMSYN064AAXX  09151 28334 /2984 00000 11068 21092 40487 57003 333 11005;
0175283340999992000110918004+57340+058210FM-12+024499999V0209999C000012200019N0500001N1-00981-01191104881ADDAA199000091GA1001+999999999GF100991001001999999001001KA1999M-00051MD1710031+9999REMSYN064AAXX  09181 28334 32984 00000 11098 21119 40488 57003 333 11005;EQDQ01  00002PRCP99
0122283340999992000110921004+57340+058210FM-12+024499999V0209999C000012200019N0500001N1-01171-01371104871ADDGA1001+999999999GF100991001001999999001001MD1710031+9999REMSYN054AAXX  09211 28334 42984 00000 11117 21137 40487 57003;
0143283340999992000111000004+57340+058210FM-12+024499999V0209999C000012200019N0500001N1-01271-01481104811ADDGA1001+999999999GF100991001001999999001001MA1999999101511MD1710071+9999REMSYN060AAXX  10001 28334 42984 00000 11127 21148 30151 40481 57007;
0152283340999992000111003004+57340+058210FM-12+024499999V0209999C000012200019N0500001N1-01471-01671104771ADDAA199000091GA1001+999999999GF100991001001999999001001MD1710061+9999REMSYN054AAXX  10031 28334 32984 00000 11147 21167 40477 57006;EQDQ01  00002PRCP99
0175283340999992000111006004+57340+058210FM-12+024499999V0209999C000012200019N0500001N1-01321-01521104731ADDAA199000091GA1001+999999999GF100991001001999999001001KA1999N-01471MD1710021+9999REMSYN064AAXX  10061 28334 32999 00000 11132 21152 40473 57002 333 21147;EQDQ01  00002PRCP99
0112283340999992000111009004+57340+058210FM-12+024499999V0209999C000012200019N0500001N1-00371-00811104471ADDGF101991011001999999041001MD1710131+9999REMSYN060AAXX  10091 28334 42999 10000 11037 21081 40447 57013 81040;
0152283340999992000111012004+57340+058210FM-12+024499999V0209999C000012200019N0500001N1+99999+99999104311ADDGF102991021001999999041001MA1999999101161MD1710141+9999REMSYN066AAXX  10121 28334 42999 20000 11826 21087 30116 40431 57014 82040;EQDQ01-008263ATOT  
0133283340999992000111015004+57340+058210FM-12+024499999V0209999C000012200019N0500001N1-00261-01871104311ADDGF102991021001999999041001MA1999999101161MD1710141+9999REMSYN066AAXX  10151 28334 42999 20000 11026 21187 30116 40431 57014 82040;
0112283340999992000111021004+57340+058210FM-12+024499999V0209999C000012200019N0500001N1-01301-01431104301ADDGF102991001001999999001031MD1710051+9999REMSYN060AAXX  10211 28334 42984 20000 11130 21143 40430 57005 80003;
0133283340999992000111100004+57340+058210FM-12+024499999V0209999C000012200019N0500001N1-01411-01541104251ADDGF102991021001999999041031MA1999999100951MD1710061+9999REMSYN066AAXX  11001 28334 42984 20000 11141 21154 30095 40425 57006 82043;
0142283340999992000111103004+57340+058210FM-12+024499999V0209999C000012200019N0500001N1-01461-01591104191ADDAA199000091GF102991021001999999041001MD1710051+9999REMSYN060AAXX  11031 28334 32984 20000 11146 21159 40419 57005 82040;EQDQ01  00002PRCP99
0165283340999992000111106004+57340+058210FM-12+024499999V0209999C000012200019N0500001N1-01271-01381104151ADDAA199000091GF101991011001999999041001KA1999N-01461MD1710011+9999REMSYN070AAXX  11061 28334 32999 10000 11127 21138 40415 57001 81040 333 21146;EQDQ01  00002PRCP99
0163283340999992000111109004+57340+058210FM-12+024499999V0209999C000012200019N0060001N1-00521-00691103971ADDAY101031AY201031GA1001+999999999GF100991001001999999001001MD1710101+9999REMSYN060AAXX  11091 28334 41956 00000 11052 21069 40397 57010 77000;EQDQ01+000702PRSWM1
0171283340999992000111112004+57340+058210FM-12+024499999V0209999C000012200019N0060001N1-00091-00381103721ADDAY101061AY201061GA1001+999999999GF100991001001999999001001MA1999999100611MD1710181+9999MW1101REMSYN066AAXX  11121 28334 41956 00000 11009 21038 30061 40372 57018 71000;
0209283340999992000111115004+57340+058210FM-12+024499999V0209999C000012200019N0060001N1-00521-00691103741ADDAA199000091AY101031AY201031GA1001+999999999GF100991001001999999001001KA1120M-00081MD1710041+9999MW1101REMSYN076AAXX  11151 28334 31956 00000 11052 21069 40374 57004 71000 333 11008 53000;EQDQ01  00002PRCP99
0203283340999992000111118004+57340+058210FM-12+024499999V0209999C000012200019N0060001N1-01021-01151103661ADDAA199000091AY101061AY201061GA1001+999999999GF100991001001999999001001KA1999M-00081MD1710141+9999MW1101REMSYN070AAXX  11181 28334 31956 00000 11102 21115 40366 57014 71000 333 11008;EQDQ01  00002PRCP99
0150283340999992000111121004+57340+058210FM-12+024499999V0209999C000012200019N0060001N1-01231-01361103561ADDAY101031AY201031GA1001+999999999GF100991001001999999001001MD1710111+9999MW1101REMSYN060AAXX  11211 28334 41956 00000 11123 21136 40356 57011 71000;
0161283340999992000111200004+57340+058210FM-12+024499999V0209999C000012200019N0060001N1-01301-01431103481ADDAY101061AY201061GF101991011001999999031001MA1999999100221MD1710111+9999MW1101REMSYN072AAXX  12001 28334 41956 10000 11130 21143 30022 40348 57011 71000 81030;
0170283340999992000111203004+57340+058210FM-12+024499999V0209999C000012200019N0060001N1-01401-01531103411ADDAA199000091AY101031AY201031GF101991001001999999001091MD1710081+9999MW1101REMSYN066AAXX  12031 28334 31956 10000 11140 21153 40341 57008 71000 80009;EQDQ01  00002PRCP99
0165283340999992000111206004+57340+058210FM-12+024499999V0209999C000012200019N0500001N1-01381-01511103331ADDAA199000091GF101991001001999999001091KA1999N-01411MD1710071+9999REMSYN070AAXX  12061 28334 32999 10000 11138 21151 40333 57007 80009 333 21141;EQDQ01  00002PRCP99
0112283340999992000111209004+57340+058210FM-12+024499999V0209999C000019999999N0500001N1-00601-00951103151ADDGF106991061051999999001001MD1710081+9999REMSYN060AAXX  12091 28334 42999 60000 11060 21095 40315 57008 86500;
0133283340999992000111212004+57340+058210FM-12+024499999V0209999C000019999999N0500001N1-00411-00911103041ADDGF108991021001999999051041MA1999999099901MD1710091+9999REMSYN066AAXX  12121 28334 42999 80000 11041 21091 39990 40304 57009 82054;
0165283340999992000111215004+57340+058210FM-12+024499999V0209999C000012200019N0500001N1-01001-01171103071ADDAA199000091GF103991001001999999001041KA1999M-00401MD1710041+9999REMSYN070AAXX  12151 28334 32984 30000 11100 21117 40307 57004 80004 333 11040;EQDQ01  00002PRCP99
0165283340999992000111218004+57340+058210FM-12+024499999V0209999C000012200019N0500001N1-01271-01401103081ADDAA199000091GF103991001001999999001021KA1999M-00401MD1710031+9999REMSYN070AAXX  12181 28334 32984 30000 11127 21140 40308 57003 80002 333 11040;EQDQ01  00002PRCP99
0122283340999992000111221004+57340+058210FM-12+024499999V0209999C000012200019N0500001N1-01451-01581103011ADDGA1001+999999999GF100991001001999999001001MD1710081+9999REMSYN054AAXX  12211 28334 42984 00000 11145 21158 40301 57008;
0143283340999992000111300004+57340+058210FM-12+024499999V0209999C000012200019N0500001N1-01541-01671102971ADDGA1001+999999999GF100991001001999999001001MA1999999099711MD1710041+9999REMSYN060AAXX  13001 28334 42984 00000 11154 21167 39971 40297 57004;
0152283340999992000111303004+57340+058210FM-12+024499999V0209999C000012200019N0500001N1-01621-01741102921ADDAA199000091GA1001+999999999GF100991001001999999001001MD1710071+9999REMSYN054AAXX  13031 28334 32984 00000 11162 21174 40292 57007;EQDQ01  00002PRCP99
0165283340999992000111306004+57340+058210FM-12+024499999V0209999C000012200019N0500001N1-01471-01601102841ADDAA199000091GF102991011001999999041051KA1999N-01521MD1710061+9999REMSYN070AAXX  13061 28334 32999 20000 11147 21160 40284 57006 81045 333 21152;EQDQ01  00002PRCP99
0112283340999992000111309004+57340+058210FM-12+024499999V0209999C000012200019N0500001N1-00481-00841102641ADDGF102991011001999999041021MD1710081+9999REMSYN060AAXX  13091 28334 42999 20000 11048 21084 40264 57008 81042;
0165283340999992000111318004+57340+058210FM-12+024499999V0209999C000019999999N0500001N1-01121-01251102611ADDAA199000091GF108991001001999999001071KA1999M-00391MD1710031+9999REMSYN070AAXX  13181 28334 32984 80000 11112 21125 40261 57003 80007 333 11039;EQDQ01  00002PRCP99
0112283340999992000111321004+57340+058210FM-12+024499999V0209999C000019999999N0500001N1-01171-01301102601ADDGF108991001001999999001071MD1710021+9999REMSYN060AAXX  13211 28334 42984 80000 11117 21130 40260 57002 80007;
0133283340999992000111400004+57340+058210FM-12+024499999V0209999C000019999999N0500001N1-01221-01351102541ADDGF108991001001999999001071MA1999999099331MD1710071+9999REMSYN066AAXX  14001 28334 42984 80000 11122 21135 39933 40254 57007 80007;
0142283340999992000111403004+57340+058210FM-12+024499999V0209999C000019999999N0500001N1-01151-01281102551ADDAA199000091GF108991051001999999041071MD1310021+9999REMSYN060AAXX  14031 28334 32984 80000 11115 21128 40255 53002 85047;EQDQ01  00002PRCP99
0193283340999992000111406004+57340+058210FM-12+024499999V0209999C000019999999N0060001N1-01011-01141102661ADDAA199000091AY121061AY221061GF108991021001999999031071KA1999N-01221MD1210111+9999MW1101REMSYN076AAXX  14061 28334 31956 80000 11101 21114 40266 52011 71022 82037 333 21122;EQDQ01  00002PRCP99
0140283340999992000111409004+57340+058210FM-12+024499999V0209999C000019999999N0060001N1-00261-00631102561ADDAY121031AY221031GF106991001001999999001081MD1410001+9999MW1101REMSYN066AAXX  14091 28334 41956 60000 11026 21063 40256 54000 71022 80008;
0161283340999992000111412004+57340+058210FM-12+024499999V0209999C000019999999N0060001N1-00191-00811102601ADDAY121061AY221061GF106991001001999999001081MA1999999099501MD1310041+9999MW1101REMSYN072AAXX  14121 28334 41956 60000 11019 21081 39950 40260 53004 71022 80008;
0165283340999992000111415004+57340+058210FM-12+024499999V0209999C000012200019N0500001N1-00541-00921102731ADDAA199000091GF102991001001999999001081KA1999M-00181MD1210091+9999REMSYN070AAXX  14151 28334 32984 20000 11054 21092 40273 52009 80008 333 11018;EQDQ01  00002PRCP99
0165283340999992000111418004+57340+058210FM-12+024499999V0209999C000012200019N0500001N1-00871-01021102831ADDAA199000091GF102991001001999999001081KA1999M-00181MD1210061+9999REMSYN070AAXX  14181 28334 32984 20000 11087 21102 40283 52006 80008 333 11018;EQDQ01  00002PRCP99
0122283340999992000111421004+57340+058210FM-12+024499999V0209999C000012200019N0500001N1-01161-01291102911ADDGA1001+999999999GF100991001001999999001001MD1210051+9999REMSYN054AAXX  14211 28334 42984 00000 11116 21129 40291 52005;
0133283340999992000111500004+57340+058210FM-12+024499999V0209999C000012200019N0500001N1-01301-01431102961ADDGF102991001001999999001031MA1999999099741MD1210041+9999REMSYN066AAXX  15001 28334 41984 20000 11130 21143 39974 40296 52004 80003;
0142283340999992000111503004+57340+058210FM-12+024499999V0209999C000012200019N0500001N1-01481-01611103041ADDAA199000091GF102991011001999999041081MD1210031+9999REMSYN060AAXX  15031 28334 32984 20000 11148 21161 40304 52003 81048;EQDQ01  00002PRCP99
0165283340999992000111506004+57340+058210FM-12+024499999V0209999C000019999999N0500001N1-01451-01581103161ADDAA199000091GF105991031051999999001041KA1999N-01481MD1210131+9999REMSYN070AAXX  15061 28334 32999 50000 11145 21158 40316 52013 83504 333 21148;EQDQ01  00002PRCP99
0166283340999992000111509004+57340+058210FM-12+024499999V0209999C000010069019N0060001N1-00741-01001103091ADDAY121031AY221031GA1061+006909029GF106991061081008001001001MD1210021+9999MW1101REMSYN076AAXX  15091 28334 41556 60000 11074 21100 40309 52002 71022 86800 333 86823;
0187283340999992000111512004+57340+058210FM-12+024499999V0209999C000010069019N0060001N1-00471-00671102981ADDAY121061AY221061GA1061+006909029GF108991061021008001071999MA1999999099841MD1810081+9999MW1101REMSYN082AAXX  15121 28334 41556 80000 11047 21067 39984 40298 58008 71022 8627/ 333 86823;
0193283340999992000111515004+57340+058210FM-12+024499999V0209999C000012200019N0060001N1-00611-00761102851ADDAA199000091AY111031AY211031GF102991021001999999041001KA1999M-00461MD1710141+9999MW1101REMSYN076AAXX  15151 28334 31956 20000 11061 21076 40285 57014 71011 82040 333 11046;EQDQ01  00002PRCP99
0193283340999992000111518004+57340+058210FM-12+024499999V0209999C000012200019N0060001N1-01021-01151102851ADDAA199000091AY111061AY211061GF103991001001999999001081KA1999M-00461MD1710051+9999MW1101REMSYN076AAXX  15181 28334 31956 30000 11102 21115 40285 57005 71011 80008 333 11046;EQDQ01  00002PRCP99
0140283340999992000111521004+57340+058210FM-12+024499999V0209999C000019999999N0060001N1-01181-01311102781ADDAY111031AY211031GF105991001001999999001081MD1710091+9999MW1101REMSYN066AAXX  15211 28334 41956 50000 11118 21131 40278 57009 71011 80008;
0161283340999992000111600004+57340+058210FM-12+024499999V0209999C000019999999N0060001N1-01351-01481102721ADDAY111061AY211061GF108991001001999999001071MA1999999099481MD1710081+9999MW1101REMSYN072AAXX  16001 28334 41956 80000 11135 21148 39948 40272 57008 71011 80007;
0170283340999992000111603004+57340+058210FM-12+024499999V0209999C000019999999N0060001N1-01041-01171102571ADDAA199000091AY121031AY221031GF108991001001999999001071MD1710101+9999MW1101REMSYN066AAXX  16031 28334 31956 80000 11104 21117 40257 57010 71022 80007;EQDQ01  00002PRCP99
0193283340999992000111606004+57340+058210FM-12+024499999V0202001N002019999999N0060001N1-00471-00781102281ADDAA199000091AY121061AY221061GF108991081001999999021999KA1999N-01361MD1710221+9999MW1101REMSYN076AAXX  16061 28334 31956 82002 11047 21078 40228 57022 71022 8802/ 333 21136;EQDQ01  00002PRCP99
0140283340999992000111609004+57340+058210FM-12+024499999V0202001N004019999999N0020001N1-00291-00391101881ADDAY171031AY221031GF108991081001999999021999MD1710361+9999MW1731REMSYN066AAXX  16091 28334 41920 82004 11029 21039 40188 57036 77372 8802/;
0161283340999992000111612004+57340+058210FM-12+024499999V0202001N002019999999N0020001N1-00281-00341101461ADDAY171061AY221061GF108991081001999999021999MA1999999098391MD1710411+9999MW1731REMSYN072AAXX  16121 28334 41920 82002 11028 21034 39839 40146 57041 77372 8802/;
0163283340999992000111615004+57340+058210FM-12+024499999V0202001N006019999999N0500001N1-00181-00261101171ADDAY171031AY221031GF108991081001999999021999KA1999M-00171MD1710271+9999MW1221REMSYN076AAXX  16151 28334 /1984 82006 11018 21026 40117 57027 72272 8802/ 333 11017;
0221283340999992000111618004+57340+058210FM-12+024499999V0202001N006010060019N0500001N1-00091-00191100981ADDAA112007991AY171061AY221061GA1081+006009029GF108991081001008001021999KA1120M+99999MD1710191+9999MW1221REMSYN088AAXX  16181 28334 11584 82006 11009 21019 40098 57019 60082 72272 8802/ 333 11017 88520;EQDQ01 -00172ATMX  
0166283340999992000111621004+57340+058210FM-12+024499999V0202001N006010060019N0500001N1-00051-00211100941ADDAY171031AY221031GA1081+006009029GF108991081001008001021999MD1710041+9999MW1711REMSYN076AAXX  16211 28334 41584 82006 11005 21021 40094 57004 77172 8802/ 333 88520;
0187283340999992000111700004+57340+058210FM-12+024499999V0202001N006010060019N0500001N1+00061-00031101211ADDAY151061AY221061GA1081+006009069GF108991081061008001999999MA1999999098181MD1310271+9999MW1511REMSYN082AAXX  17001 28334 41584 82006 10006 21003 39818 40121 53027 75152 886// 333 88720;
0173283340999992000111703004+57340+058210FM-12+024499999V0202301N004019999999N0060001N1+00041-00051101421ADDAJ100099199999999AY171031AY261031GF108991081001999999021999IA1279MD1210201+9999MW1681REMSYN076AAXX  17031 28334 /1956 82304 10004 21005 40142 52020 76876 8802/ 333 43009;
0221283340999992000111706004+57340+058210FM-12+024499999V0209999C000010060019N0500001N1+00061-00021101471ADDAA112004191AY171061AY261061GA1081+006009099GF108991999031008001071999KA1120N-00181MD1210061+9999MW1021REMSYN088AAXX  17061 28334 11599 80000 10006 21002 40147 52006 60042 70276 8837/ 333 21018 88920;EQDQ01+000082SCOTLC
0166283340999992000111709004+57340+058210FM-12+024499999V0209999C000010060019N0060001N1+00081+00001101361ADDAY151031AY221031GA1081+006009069GF108991081071008001999999MD1810111+9999MW1511REMSYN076AAXX  17091 28334 41556 80000 10008 21000 40136 58011 75152 887// 333 88720;
0187283340999992000111712004+57340+058210FM-12+024499999V0202301N002010060019N0020001N1+00031-00051100941ADDAY171061AY251061GA1081+006009069GF108991081071008001999999MA1999999097931MD1710401+9999MW1731REMSYN082AAXX  17121 28334 41520 82302 10003 21005 39793 40094 57040 77375 887// 333 88720;
0204283340999992000111715004+57340+058210FM-12+024499999V0201601N004010060019N0150001N1-00061-00181100661ADDAY181031AY271031GA1081+006009099GF108991999031008001071999KA1120M+00091MD1710291+9999MW1871REMSYN082AAXX  17151 28334 /1565 81604 11006 21018 40066 57029 78787 8837/ 333 10009 88920;EQDQ01+000082SCOTLC
0202283340999992000111718004+57340+058210FM-12+024499999V0201601N002010060019N0060001N1-00021-00081100461ADDAA112003091AY171061AY221061GA1081+006009099GF108991081031008001999999KA1120M+00091MD1710201+9999MW1711REMSYN088AAXX  17181 28334 11556 81602 11002 21008 40046 57020 60032 77172 883// 333 10009 88920;
0166283340999992000111721004+57340+058210FM-12+024499999V0202001N002010060019N0060001N1+00011-00041100261ADDAY171031AY221031GA1081+006009099GF108991081031008001999999MD1710181+9999MW1711REMSYN076AAXX  17211 28334 41556 82002 10001 21004 40026 57018 77172 883// 333 88920;
0187283340999992000111800004+57340+058210FM-12+024499999V0202301N004010060019N0060001N1-00011-00041100361ADDAY171061AY221061GA1081+006009099GF108991081031008001999999MA1999999097361MD1310101+9999MW1711REMSYN082AAXX  18001 28334 41556 82304 11001 21004 39736 40036 53010 77172 883// 333 88920;
0195283340999992000111803004+57340+058210FM-12+024499999V0202701N004010060019N0500001N1-00161-00241100621ADDAJ100199199999999AY181031AY221031GA1081+006009099GF108991081031008001999999IA1279MD1210231+9999MW1251REMSYN082AAXX  18031 28334 /1584 82704 11016 21024 40062 52023 72582 883// 333 43019 88920;
0221283340999992000111806004+57340+058210FM-12+024499999V0202701N004010060019N0070001N1-00221-00371101091ADDAA112006191AY181061AY271061GA1081+006009029GF108991081001008001021999KA1120N+99999MD1210441+9999MW1711REMSYN088AAXX  18061 28334 11557 82704 11022 21037 40109 52044 60062 77187 8802/ 333 21016 88520;EQDQ01 -00162ATMN  
0166283340999992000111809004+57340+058210FM-12+024499999V0202701N004010060019N0500001N1-00191-00401101261ADDAY171031AY221031GA1081+006009029GF108991081001008001021999MD1210181+9999MW1021REMSYN076AAXX  18091 28334 41599 82704 11019 21040 40126 52018 70272 8802/ 333 88520;
0187283340999992000111812004+57340+058210FM-12+024499999V0202701N004010060019N0200001N1-00251-00441101411ADDAY171061AY221061GA1081+006009029GF108991081001008001021999MA1999999098341MD1210131+9999MW1711REMSYN082AAXX  18121 28334 41570 82704 11025 21044 39834 40141 52013 77172 8802/ 333 88520;
0196283340999992000111815004+57340+058210FM-12+024499999V0202901N004010060019N0150001N1-00451-00681101601ADDAA199000021AY171031AY221031GA1081+006009029GF108991081001008001021999KA1120M-00151MD1210171+9999MW1711REMSYN082AAXX  18151 28334 31565 82904 11045 21068 40160 52017 77172 8802/ 333 11015 88520;
0202283340999992000111818004+57340+058210FM-12+024499999V0202901N004010060019N0150001N1-00561-00741101701ADDAA112001091AY171061AY221061GA1081+006009029GF108991081001008001021999KA1120M-00151MD1210081+9999MW1711REMSYN088AAXX  18181 28334 11565 82904 11056 21074 40170 52008 60012 77172 8802/ 333 11015 88520;
0166283340999992000111821004+57340+058210FM-12+024499999V0202701N004010060019N0500001N1-00671-00831101901ADDAY171031AY221031GA1061+006009069GF106991061071008001001001MD1210191+9999MW1011REMSYN076AAXX  18211 28334 41584 62704 11067 21083 40190 52019 70172 86700 333 86720;
0187283340999992000111900004+57340+058210FM-12+024499999V0202701N002010060019N0500001N1-00701-00871101921ADDAY171061AY221061GA1051+006009059GF105991051081999999001001MA1999999098791MD1210011+9999MW1011REMSYN082AAXX  19001 28334 41984 52702 11070 21087 39879 40192 52001 70172 85800 333 85620;
0167283340999992000111903004+57340+058210FM-12+024499999V0202701N002010060019N0500001N1-00861-01011102021ADDAJ100189199999999GA1071+006009059GF107991071081008001001001IA1249MD1210071+9999REMSYN076AAXX  19031 28334 /2584 72702 11086 21101 40202 52007 87800 333 48018 87620;
0180283340999992000111906004+57340+058210FM-12+024499999V0202701N004010300019N0020001N1-00811-00951102041ADDAA112000891AY181061AY271061GF108991021031008001011999KA1999N-00871MD1210021+9999MW1731REMSYN082AAXX  19061 28334 11520 82704 11081 21095 40204 52002 69972 77387 8231/ 333 21087;
0140283340999992000111909004+57340+058210FM-12+024499999V0202701N002019999999N0020001N1-00641-00831102041ADDAY171031AY221031GF108991081001999999021999MD1210031+9999MW1731REMSYN066AAXX  19091 28334 41920 82702 11064 21083 40204 52003 77372 8802/;
0187283340999992000111912004+57340+058210FM-12+024499999V0202501N002010060019N0070001N1-00621-00771102101ADDAY181061AY271061GA1061+006009099GF108991061031008001021999MA1999999098981MD1210071+9999MW1851REMSYN082AAXX  19121 28334 41557 82502 11062 21077 39898 40210 52007 78587 8632/ 333 86920;
0140283340999992000111915004+57340+058210FM-12+024499999V0202901N002019999999N0070001N1-00681-00841102151ADDAY181031AY271031GF108991081001999999021999MD1210031+9999MW1731REMSYN066AAXX  19151 28334 /1957 82902 11068 21084 40215 52003 77387 8802/;
0180283340999992000111918004+57340+058210FM-12+024499999V0202701N002019999999N0150001N1-00771-00911102131ADDAA112003091AY181061AY271061GF105991051001999999021071KA1999M-00611MD1810021+9999MW1711REMSYN082AAXX  19181 28334 11965 52702 11077 21091 40213 58002 60032 77187 85027 333 11061;
0140283340999992000111921004+57340+058210FM-12+024499999V0202701N002019999999N0500001N1-00871-01021102101ADDAY171031AY221031GF106991061001999999021001MD1710051+9999MW1101REMSYN066AAXX  19211 28334 41984 62702 11087 21102 40210 57005 71072 86020;
0161283340999992000112000004+57340+058210FM-12+024499999V0209999C000019999999N0500001N1-00931-01051102041ADDAY171061AY221061GF108991081001999999071999MA1999999098871MD1710071+9999MW1221REMSYN072AAXX  20001 28334 41984 80000 11093 21105 39887 40204 57007 72272 8807/;
0173283340999992000112003004+57340+058210FM-12+024499999V0209999C000019999999N0150001N1-01061-01191102011ADDAJ100239199999999AY171031AY221031GF108991081001999999011999IA1249MD1710031+9999MW1701REMSYN076AAXX  20031 28334 /1965 80000 11106 21119 40201 57003 77072 8801/ 333 48023;
0202283340999992000112006004+57340+058210FM-12+024499999V0209999C000010069019N0200001N1-00961-01161102061ADDAA112000591AY171061AY221061GA1051+006909069GF108991051061008001021999KA1120N-01061MD1310051+9999MW1701REMSYN088AAXX  20061 28334 11570 80000 11096 21116 40206 53005 69942 77072 8562/ 333 21106 85723;
0166283340999992000112009004+57340+058210FM-12+024499999V0209999C000010069019N0200001N1-00971-01231102121ADDAY171031AY221031GA1051+006909069GF108991051061008001011999MD1210051+9999MW1701REMSYN076AAXX  20091 28334 41570 80000 11097 21123 40212 52005 77072 8561/ 333 85723;
0187283340999992000112012004+57340+058210FM-12+024499999V0209999C000010069019N0200001N1-01241-01441102241ADDAY171061AY221061GA1051+006909069GF108991051061008001011999MA1999999099041MD1210101+9999MW1701REMSYN082AAXX  20121 28334 41570 80000 11124 21144 39904 40224 52010 77072 8561/ 333 85723;
0173283340999992000112015004+57340+058210FM-12+024499999V0209999C000012200019N0500001N1-01741-02001102471ADDAY171031AY211031GA1001+999999999GF100991001001999999001001KA1999M-00951MD1210151+9999MW1011REMSYN070AAXX  20151 28334 /1984 00000 11174 21200 40247 52015 70171 333 11095;
0167283340999992000112018004+57340+058210FM-12+024499999V0209999C000012200019N0500001N1-02161-02411102671ADDAA112000891AY171061AY211061GA1001+999999999GF100991001001999999001001MD1210141+9999MW1021REMSYN066AAXX  20181 28334 11984 00000 11216 21241 40267 52014 69982 70271;
0122283340999992000112021004+57340+058210FM-12+024499999V0200201N002012200019N0500001N1-02311-02551102811ADDGA1001+999999999GF100991001001999999001001MD1210111+9999REMSYN054AAXX  20211 28334 42984 00202 11231 21255 40281 52011;
0147283340999992000112100004+57340+058210FM-12+024499999V0200201N002012200019N0500001N1-02471-02711102931ADDGA1001+999999999GF100991001001999999001001MA1999999099531MD1210091+9999REMSYN064AAXX  21001 28334 42984 00202 11247 21271 39953 40293 52009 555;
0156283340999992000112103004+57340+058210FM-12+024499999V0200201N002012200019N0500001N1-02541-02781103021ADDAA199000091GA1001+999999999GF100991001001999999001001MD1210091+9999REMSYN058AAXX  21031 28334 32984 00202 11254 21278 40302 52009 555;EQDQ01  00002PRCP99
0181283340999992000112106004+57340+058210FM-12+024499999V0209999C000012200019N0500001N1-02681-02931103181ADDAA199000091GF102991011001999999041081KA1999N+99999MD1210131+9999REMSYN070AAXX  21061 28334 32999 20000 11268 21293 40318 52013 81048 333 21254;EQDQ01  00002PRCP99Q02 -02542ATMN  
0122283340999992000112109004+57340+058210FM-12+024499999V0209999C000012200019N0500001N1-02201-02451103141ADDGA1001+999999999GF100991001001999999001001MD1210031+9999REMSYN054AAXX  21091 28334 42999 00000 11220 21245 40314 52003;
0143283340999992000112112004+57340+058210FM-12+024499999V0209999C000012200019N0500001N1-02171-02421103231ADDGA1001+999999999GF100991001001999999001001MA1999999099871MD1210091+9999REMSYN060AAXX  21121 28334 42999 00000 11217 21242 39987 40323 52009;
0175283340999992000112115004+57340+058210FM-12+024499999V0209999C000012200019N0500001N1-02451-02701103371ADDAA199000091GA1001+999999999GF100991001001999999001001KA1999M-02161MD1210111+9999REMSYN064AAXX  21151 28334 32984 00000 11245 21270 40337 52011 333 11216;EQDQ01  00002PRCP99
0175283340999992000112118004+57340+058210FM-12+024499999V0209999C000012200019N0500001N1-02771-03011103531ADDAA199000091GA1001+999999999GF100991001001999999001001KA1999M-02161MD1210091+9999REMSYN064AAXX  21181 28334 32984 00000 11277 21301 40353 52009 333 11216;EQDQ01  00002PRCP99
0122283340999992000112121004+57340+058210FM-12+024499999V0209999C000012200019N0500001N1-02891-03131103621ADDGA1001+999999999GF100991001001999999001001MD1210081+9999REMSYN054AAXX  21211 28334 42984 00000 11289 21313 40362 52008;
0143283340999992000112200004+57340+058210FM-12+024499999V0209999C000012200019N0500001N1-02971-03211103701ADDGA1001+999999999GF100991001001999999001001MA1999999100211MD1210061+9999REMSYN060AAXX  22001 28334 42984 00000 11297 21321 30021 40370 52006;
0156283340999992000112203004+57340+058210FM-12+024499999V0209999C000012200019N0500001N1-03181-03411103821ADDAA199000091GA1001+999999999GF100991001001999999001001MD1210091+9999REMSYN058AAXX  22031 28334 32984 00000 11318 21341 40382 52009 333;EQDQ01  00002PRCP99
0175283340999992000112206004+57340+058210FM-12+024499999V0209999C000012200019N0500001N1-03031-03341103871ADDAA199000091GA1001+999999999GF100991001001999999001001KA1999N-03181MD1210071+9999REMSYN064AAXX  22061 28334 32999 00000 11303 21334 40387 52007 333 21318;EQDQ01  00002PRCP99
0143283340999992000112212004+57340+058210FM-12+024499999V0209999C000012200019N0500001N1-02161-02411103801ADDGA1001+999999999GF100991001001999999001001MA1999999100421MD1210031+9999REMSYN060AAXX  22121 28334 42999 00000 11216 21241 30042 40380 52003;
0175283340999992000112215004+57340+058210FM-12+024499999V0209999C000012200019N0500001N1-02421-02661103871ADDAA199000091GA1001+999999999GF100991001001999999001001KA1999M-02151MD1210041+9999REMSYN064AAXX  22151 28334 32984 00000 11242 21266 40387 52004 333 11215;EQDQ01  00002PRCP99
0175283340999992000112218004+57340+058210FM-12+024499999V0209999C000012200019N0500001N1-02501-02741103941ADDAA199000091GA1001+999999999GF100991001001999999001001KA1999M-02151MD1210051+9999REMSYN064AAXX  22181 28334 32984 00000 11250 21274 40394 52005 333 11215;EQDQ01  00002PRCP99
0122283340999992000112221004+57340+058210FM-12+024499999V0202701N002012200019N0500001N1-02501-02741103961ADDGA1001+999999999GF100991001001999999001001MD1210021+9999REMSYN054AAXX  22211 28334 42984 02702 11250 21274 40396 52002;
0133283340999992000112300004+57340+058210FM-12+024499999V0202501N002019999999N0500001N1-02391-02641103931ADDGF107991001001999999001051MA1999999100521MD1810011+9999REMSYN066AAXX  23001 28334 42984 72502 11239 21264 30052 40393 58001 80005;
0175283340999992000112303004+57340+058210FM-12+024499999V0202501N002019999999N0500001N1-02251-02501103911ADDAA199000091AJ100199199999999GF106991041001999999081051IA1249MD1310011+9999REMSYN070AAXX  23031 28334 32984 62502 11225 21250 40391 53001 84085 333 48019;EQDQ01  00002PRCP99
0151283340999992000112306004+57340+058210FM-12+024499999V0202501N002012200019N0500001N1-02221-02471103941ADDAA199000021AY171061AY211061GF102991021001999999071001MD1210031+9999MW1701REMSYN066AAXX  23061 28334 31999 22502 11222 21247 40394 52003 77071 82070;
0140283340999992000112309004+57340+058210FM-12+024499999V0203201N002019999999N0500001N1-01901-02231103841ADDAY171031AY211031GF106991001001999999001091MD1810061+9999MW1031REMSYN066AAXX  23091 28334 41999 63202 11190 21223 40384 58006 70371 80009;
0133283340999992000112312004+57340+058210FM-12+024499999V0202501N002019999999N0500001N1-01831-02161103661ADDGF106991001001999999001091MA1999999100341MD1710161+9999REMSYN066AAXX  23121 28334 42999 62502 11183 21216 30034 40366 57016 80009;
0135283340999992000112315004+57340+058210FM-12+024499999V0202501N002012200019N0500001N1-01921-02181103811ADDGF102991001001999999001021KA1999M-01821MD1310131+9999REMSYN070AAXX  23151 28334 /2984 22502 11192 21218 40381 53013 80002 333 11182;
0162283340999992000112318004+57340+058210FM-12+024499999V0202701N002012200019N0500001N1-01901-02161103861ADDAA112000791GA1001+999999999GF100991001001999999001001KA1999M-01821MD1210051+9999REMSYN070AAXX  23181 28334 12984 02702 11190 21216 40386 52005 69902 333 11182;
0122283340999992000112321004+57340+058210FM-12+024499999V0202701N002012200019N0500001N1-01881-02141103901ADDGA1001+999999999GF100991001001999999001001MD1210041+9999REMSYN054AAXX  23211 28334 42984 02702 11188 21214 40390 52004;
0133283340999992000112400004+57340+058210FM-12+024499999V0209999C000019999999N0500001N1-02001-02261103981ADDGF105991001001999999001011MA1999999100621MD1210041+9999REMSYN066AAXX  24001 28334 42984 50000 11200 21226 30062 40398 52004 80001;
0165283340999992000112406004+57340+058210FM-12+024499999V0209999C000012200019N0500001N1-02151-02401104181ADDAA199000091GF102991021001999999031001KA1999N-02141MD1210111+9999REMSYN070AAXX  24061 28334 32999 20000 11215 21240 40418 52011 82030 333 21214;EQDQ01  00002PRCP99
0112283340999992000112409004+57340+058210FM-12+024499999V0209999C000012200019N0500001N1-01741-02081104221ADDGF102991001001999999001021MD1210091+9999REMSYN060AAXX  24091 28334 42999 20000 11174 21208 40422 52009 80002;
0175283340999992000112415004+57340+058210FM-12+024499999V0209999C000012200019N0500001N1-02011-02201104141ADDAA199000091GA1001+999999999GF100991001001999999001001KA1999M-01731MD1710091+9999REMSYN064AAXX  24151 28334 32984 00000 11201 21220 40414 57009 333 11173;EQDQ01  00002PRCP99
0179283340999992000112418004+57340+058210FM-12+024499999V0209999C000012200019N0500001N1-02031-02221104111ADDAA199000091GA1001+999999999GF100991001001999999001001KA1120M-01731MD1710031+9999REMSYN068AAXX  24181 28334 32984 00000 11203 21222 40411 57003 333 11173 555;EQDQ01  00002PRCP99
0122283340999992000112421004+57340+058210FM-12+024499999V0209999C000012200019N0500001N1-02061-02251104031ADDGA1001+999999999GF100991001001999999001001MD1710091+9999REMSYN054AAXX  24211 28334 42984 00000 11206 21225 40403 57009;
0143283340999992000112500004+57340+058210FM-12+024499999V0209999C000012200019N0500001N1-02271-02521104011ADDGA1001+999999999GF100991001001999999001001MA1999999100611MD1710041+9999REMSYN060AAXX  25001 28334 42984 00000 11227 21252 30061 40401 57004;
0189283340999992000112503004+57340+058210FM-12+024499999V0209999C000012200019N0500001N1-02451-02701104021ADDAA199000091AJ100199199999999GA1001+999999999GF100991001001999999001001IA1239MD1410001+9999REMSYN068AAXX  25031 28334 32984 00000 11245 21270 40402 54000 333 47019 555;EQDQ01  00002PRCP99
0191283340999992000112506004+57340+058210FM-12+024499999V0209999C000012200019N0500001N1-02581-02821104021ADDAA199000091GA1001+999999999GF100991001001999999001001KA1999N+99999MD1810031+9999REMSYN064AAXX  25061 28334 32999 00000 11258 21282 40402 58003 333 21245;EQDQ01  00002PRCP99Q02 -02452ATMN  
0122283340999992000112509004+57340+058210FM-12+024499999V0209999C000012200019N0500001N1-01482-01821103791ADDGA1001+999999999GF100991001001999999001001MD1710081+9999REMSYN054AAXX  25091 28334 42999 00000 11148 21182 40379 57008;
0133283340999992000112512004+57340+058210FM-12+024499999V0209999C000012200019N0500001N1-01641-01901103711ADDGF102991011001999999041081MA1999999100411MD1710091+9999REMSYN066AAXX  25121 28334 42999 20000 11164 21190 30041 40371 57009 81048;
0175283340999992000112515004+57340+058210FM-12+024499999V0209999C000012200019N0500001N1-01921-02111103711ADDAA199000091GA1001+999999999GF100991001001999999001001KA1999M-01401MD1710041+9999REMSYN064AAXX  25151 28334 32984 00000 11192 21211 40371 57004 333 11140;EQDQ01  00002PRCP99
0175283340999992000112518004+57340+058210FM-12+024499999V0209999C000012200019N0500001N1-02391-02641103691ADDAA199000091GA1001+999999999GF100991001001999999001001KA1999M-01401MD1710081+9999REMSYN064AAXX  25181 28334 32984 00000 11239 21264 40369 57008 333 11140;EQDQ01  00002PRCP99
0122283340999992000112521004+57340+058210FM-12+024499999V0209999C000012200019N0500001N1-02551-02801103611ADDGA1001+999999999GF100991001001999999001001MD1710101+9999REMSYN054AAXX  25211 28334 42984 00000 11255 21280 40361 57010;
0143283340999992000112600004+57340+058210FM-12+024499999V0209999C000012200019N0500001N1-02681-02931103461ADDGA1001+999999999GF100991001001999999001001MA1999999100031MD1710161+9999REMSYN060AAXX  26001 28334 42984 00000 11268 21293 30003 40346 57016;
0197283340999992000112603004+57340+058210FM-12+024499999V0209999C000010069019N0500001N1-02601-02841103431ADDAA199000091AJ100199199999999GA1071+006909059GF107991071051999999999999IA1239MD1710021+9999REMSYN076AAXX  26031 28334 32984 70000 11260 21284 40343 57002 875// 333 47019 87623;EQDQ01  00002PRCP99
0185283340999992000112606004+57340+058210FM-12+024499999V0209999C000010060019N0200001N1-02181-02431103321ADDAY171061AY221061GA1081+006009029GF108991081001008001021999KA1120N-02681MD1710051+9999MW1711REMSYN082AAXX  26061 28334 11570 80000 11218 21243 40332 57005 77172 8802/ 333 21268 88520;
0140283340999992000112609004+57340+058210FM-12+024499999V0209999C000019999999N0500001N1-01591-01861103171ADDAY171031AY221031GF105991001001999999001081MD1710081+9999MW1011REMSYN066AAXX  26091 28334 41999 50000 11159 21186 40317 57008 70172 80008;
0161283340999992000112612004+57340+058210FM-12+024499999V0209999C000019999999N0500001N1-01561-01751103101ADDAY171061AY221061GF105991031001999999031081MA1999999099831MD1710051+9999MW1021REMSYN072AAXX  26121 28334 41999 50000 11156 21175 39983 40310 57005 70272 83038;
0145283340999992000112615004+57340+058210FM-12+024499999V0209999C000012200019N0500001N1-01821-02011103171ADDGA1001+999999999GF100991001001999999001001KA1999M-01551MD1310031+9999REMSYN064AAXX  26151 28334 /2984 00000 11182 21201 40317 53003 333 11155;
0152283340999992000112618004+57340+058210FM-12+024499999V0209999C000019999999N0500001N1-01681-01871103161ADDAA112000191GF105991001001999999001071KA1999M-01551MD1410001+9999REMSYN076AAXX  26181 28334 12984 50000 11168 21187 40316 54000 69922 80007 333 11155;
0112283340999992000112621004+57340+058210FM-12+024499999V0209999C000012200019N0500001N1-01651-01841103131ADDGF103991001001999999001011MD1810021+9999REMSYN060AAXX  26211 28334 42984 30000 11165 21184 40313 58002 80001;
0143283340999992000112700004+57340+058210FM-12+024499999V0209999C000012200019N0500001N1-01531-01721103061ADDGA1001+999999999GF100991001001999999001001MA1999999099791MD1710051+9999REMSYN060AAXX  27001 28334 42984 00000 11153 21172 39979 40306 57005;
0181283340999992000112706004+57340+058210FM-12+024499999V0209999C000012200019N0500001N1-01981-02171103181ADDAA199000091GF102991011001999999041041KA1999N+99999MD1210031+9999REMSYN070AAXX  27061 28334 32999 20000 11198 21217 40318 52003 81044 333 21182;EQDQ01  00002PRCP99Q02 -01822ATMN  
0112283340999992000112709004+57340+058210FM-12+024499999V0209999C000012200019N0500001N1-01451-01791103021ADDGF101991001001999999001021MD1810081+9999REMSYN060AAXX  27091 28334 42999 10000 11145 21179 40302 58008 80002;
0133283340999992000112712004+57340+058210FM-12+024499999V0209999C000012200019N0500001N1-01471-01721102901ADDGF102991011001999999041091MA1999999099641MD1710121+9999REMSYN066AAXX  27121 28334 42999 20000 11147 21172 39964 40290 57012 81049;
0175283340999992000112715004+57340+058210FM-12+024499999V0209999C000012200019N0500001N1-01721-01911102801ADDAA199000091GA1001+999999999GF100991001001999999001001KA1999M-01441MD1710131+9999REMSYN064AAXX  27151 28334 32984 00000 11172 21191 40280 57013 333 11144;EQDQ01  00002PRCP99
0175283340999992000112718004+57340+058210FM-12+024499999V0202301N002012200019N0500001N1-01541-01731102551ADDAA199000091GA1001+999999999GF100991001001999999001001KA1999M-01441MD1710211+9999REMSYN064AAXX  27181 28334 32984 02302 11154 21173 40255 57021 333 11144;EQDQ01  00002PRCP99
0112283340999992000112721004+57340+058210FM-12+024499999V0202301N002012200019N0500001N1-01471-01741102191ADDGF102991011001999999041081MD1710351+9999REMSYN060AAXX  27211 28334 42984 22302 11147 21174 40219 57035 81048;
0133283340999992000112800004+57340+058210FM-12+024499999V0202301N002012200019N0500001N1-01381-01651101961ADDGF103991001001999999001061MA1999999098741MD1710211+9999REMSYN066AAXX  28001 28334 42984 32302 11138 21165 39874 40196 57021 80006;
0195283340999992000112803004+57340+058210FM-12+024499999V0202301N002010060019N0150001N1-01371-01571101921ADDAJ100189199999999AY171031AY221031GA1081+006009029GF108991081001008001021999IA1239MD1710041+9999MW1711REMSYN082AAXX  28031 28334 /1565 82302 11137 21157 40192 57004 77172 8802/ 333 47018 88520;
0180283340999992000112806004+57340+058210FM-12+024499999V0202701N002019999999N0200001N1-01271-01471101921ADDAA112001091AY171061AY221061GF108991081001999999021999KA1999N-01721MD1310011+9999MW1711REMSYN082AAXX  28061 28334 11970 82702 11127 21147 40192 53001 69992 77172 8802/ 333 21172;
0166283340999992000112809004+57340+058210FM-12+024499999V0202501N002010069019N0200001N1-01111-01311101891ADDAY181031AY271031GA1081+006909099GF108991081031008001999999MD1410001+9999MW1851REMSYN076AAXX  28091 28334 41570 82502 11111 21131 40189 54000 78587 883// 333 88923;
0187283340999992000112812004+57340+058210FM-12+024499999V0202501N002010069019N0500001N1-01031-01161101951ADDAY181061AY221061GA1081+006909099GF108991081031008001999999MA1999999098781MD1310071+9999MW1021REMSYN082AAXX  28121 28334 41599 82502 11103 21116 39878 40195 53007 70282 883// 333 88923;
0157283340999992000112815004+57340+058210FM-12+024499999V0202501N002010069019N0500001N1-00851-00961101971ADDGA1081+006909099GF108991081031008001999999KA1120M-00841MD1210041+9999REMSYN076AAXX  28151 28334 /2584 82502 11085 21096 40197 52004 883// 333 11084 88923;
0193283340999992000112818004+57340+058210FM-12+024499999V0202501N002010069019N0500001N1-00631-00781102101ADDAA112001091GA1081+006909029GF108991081001008001021999KA1120M+99999MD1210151+9999REMSYN082AAXX  28181 28334 12584 82502 11063 21078 40210 52015 69992 8802/ 333 11084 88523;EQDQ01 -00842ATMX  
0138283340999992000112821004+57340+058210FM-12+024499999V0202501N002010060019N0500001N1-00521-00661102181ADDGA1081+006009029GF108991081001008001021999MD1210091+9999REMSYN070AAXX  28211 28334 42584 82502 11052 21066 40218 52009 8802/ 333 88520;
0133283340999992000112900004+57340+058210FM-12+024499999V0209999C000012200019N0500001N1-00801-00981102441ADDGF102991001001999999001031MA1999999099271MD1210211+9999REMSYN066AAXX  29001 28334 42984 20000 11080 21098 39927 40244 52021 80003;
0155283340999992000112903004+57340+058210FM-12+024499999V0209999C000012200019N0500001N1-00981-01221102621ADDAJ100199199999999GA1001+999999999GF100991001001999999001001IA1239MD1210161+9999REMSYN064AAXX  29031 28334 /2984 00000 11098 21122 40262 52016 333 47019;
0203283340999992000112906004+57340+058210FM-12+024499999V0209999C000010069019N0500001N1-01081-01211102741ADDAA199000091GA1071+006909059GF108991071051008001021999KA1120N+99999MD1210101+9999REMSYN076AAXX  29061 28334 32599 80000 11108 21121 40274 52010 8752/ 333 21098 87623;EQDQ01  00002PRCP99Q02 -00982ATMN  
0138283340999992000112909004+57340+058210FM-12+024499999V0202301N002010069019N0500001N1-00821-00961102601ADDGA1071+006909059GF108991071051008001021999MD1810101+9999REMSYN070AAXX  29091 28334 42599 82302 11082 21096 40260 58010 8752/ 333 87623;
0187283340999992000112912004+57340+058210FM-12+024499999V0202301N002010060019N0500001N1-00601-00711102471ADDAY171061AY221061GA1081+006009029GF108991081001008001021999MA1999999099331MD1710101+9999MW1221REMSYN082AAXX  29121 28334 41599 82302 11060 21071 39933 40247 57010 72272 8802/ 333 88520;
0176283340999992000112915004+57340+058210FM-12+024499999V0202501N002010060019N0500001N1-00551-00731102521ADDGA1081+006009099GF108991999031008001021999KA1120M-00511MD1310061+9999REMSYN076AAXX  29151 28334 /2584 82502 11055 21073 40252 53006 8832/ 333 11051 88920;EQDQ01+000082SCOTLC
0174283340999992000112918004+57340+058210FM-12+024499999V0202501N002010069019N0500001N1-00671-00871102491ADDAA112000191GA1071+006909099GF107991071031008001001001KA1120M-00511MD1810041+9999REMSYN082AAXX  29181 28334 12584 72502 11067 21087 40249 58004 69912 87300 333 11051 87923;
0138283340999992000112921004+57340+058210FM-12+024499999V0202501N004010069019N0500001N1-00651-00891102401ADDGA1081+006909099GF108991081031008001999999MD1710091+9999REMSYN070AAXX  29211 28334 42584 82504 11065 21089 40240 57009 883// 333 88923;
0159283340999992000113000004+57340+058210FM-12+024499999V0202501N004010069019N0500001N1-00791-01061102471ADDGA1081+006909059GF108991081051008001999999MA1999999099301MD1310041+9999REMSYN076AAXX  30001 28334 42584 82504 11079 21106 39930 40247 53004 885// 333 88623;
0175283340999992000113003004+57340+058210FM-12+024499999V0202501N002010300019N0500001N1-00821-01011102451ADDAA199000091AJ100199199999999GF105991021051008001041001IA1239MD1810021+9999REMSYN070AAXX  30031 28334 32584 52502 11082 21101 40245 58002 82540 333 47019;EQDQ01  00002PRCP99
0187283340999992000113006004+57340+058210FM-12+024499999V0202501N002010060019N0500001N1-00801-01021102371ADDAA199000091GA1081+006009069GF108991081071008001999999KA1120N-00821MD1710081+9999REMSYN076AAXX  30061 28334 32599 82502 11080 21102 40237 57008 887// 333 21082 88720;EQDQ01  00002PRCP99
0138283340999992000113009004+57340+058210FM-12+024499999V0202001N002010060019N0500001N1-00721-00931102241ADDGA1081+006009069GF108991081071008001999999MD1710011+9999REMSYN070AAXX  30091 28334 42599 82002 11072 21093 40224 57001 887// 333 88720;
0206283340999992000113012004+57340+058210FM-12+024499999V0202001N002010060019N0200001N1-00641-00831102041ADDAY171061AY221061GA1081+006009069GF108991999071008001021999MA1999999098911MD1710191+9999MW1711REMSYN082AAXX  30121 28334 41570 82002 11064 21083 39891 40204 57019 77172 8872/ 333 88720;EQDQ01+000082SCOTLC
0185283340999992000113015004+57340+058210FM-12+024499999V0202001N002010060019N0500001N1-00631-00861101911ADDAY171031AY221031GA1081+006009069GF108991081071008001999999KA1120M-00621MD1710121+9999MW1021REMSYN082AAXX  30151 28334 /1584 82002 11063 21086 40191 57012 70272 887// 333 11062 88720;
0180283340999992000113018004+57340+058210FM-12+024499999V0202001N002019999999N0150001N1-00651-00851101691ADDAA112000191AY171061AY221061GF108991081001999999011999KA1999M-00621MD1710221+9999MW1711REMSYN082AAXX  30181 28334 11965 82002 11065 21085 40169 57022 69922 77172 8801/ 333 11062;
0140283340999992000113021004+57340+058210FM-12+024499999V0202001N002019999999N0150001N1-00701-00911101541ADDAY171031AY221031GF108991081001999999011999MD1710151+9999MW1711REMSYN066AAXX  30211 28334 41965 82002 11070 21091 40154 57015 77172 8801/;
0161283340999992000120100004+57340+058210FM-12+024499999V0202301N002019999999N0150001N1-00751-00921101461ADDAY171061AY221061GF108991081001999999011999MA1999999098341MD1710081+9999MW1711REMSYN072AAXX  01001 28334 41965 82302 11075 21092 39834 40146 57008 77172 8801/;
0173283340999992000120103004+57340+058210FM-12+024499999V0202301N002019999999N0150001N1-00811-00951101391ADDAJ100209199999999AY171031AY221031GF108991081001999999071999IA1239MD1710091+9999MW1701REMSYN076AAXX  01031 28334 /1965 82302 11081 21095 40139 57009 77072 8807/ 333 47020;
0180283340999992000120106004+57340+058210FM-12+024499999V0209999C000019999999N0500001N1-00771-00951101331ADDAA112003091AY171061AY221061GF108991081001999999021999KA1999N-00811MD1710041+9999MW1701REMSYN082AAXX  01061 28334 11999 80000 11077 21095 40133 57004 60032 77072 8802/ 333 21081;
0140283340999992000120109004+57340+058210FM-12+024499999V0209999C000019999999N0200001N1-00701-00871101291ADDAY171031AY221031GF108991081001999999021999MD1710041+9999MW1711REMSYN066AAXX  01091 28334 41970 80000 11070 21087 40129 57004 77172 8802/;
0161283340999992000120112004+57340+058210FM-12+024499999V0209999C000019999999N0020001N1-00701-00831101191ADDAY171061AY221061GF108991081001999999021999MA1999999098071MD1710101+9999MW1731REMSYN072AAXX  01121 28334 41920 80000 11070 21083 39807 40119 57010 77372 8802/;
0163283340999992000120115004+57340+058210FM-12+024499999V0202301N002019999999N0150001N1-00701-00871101121ADDAY171031AY221031GF108991081001999999021999KA1999M-00691MD1710071+9999MW1701REMSYN076AAXX  01151 28334 /1965 82302 11070 21087 40112 57007 77072 8802/ 333 11069;
0180283340999992000120118004+57340+058210FM-12+024499999V0202301N002019999999N0150001N1-00701+99999101011ADDAA112001091AY171061AY221061GF108991081001999999021999KA1999M-00691MD1710101+9999MW1711REMSYN082AAXX  01181 28334 11965 82302 11070 20087 40101 57010 69992 77172 8802/ 333 11069;
0140283340999992000120121004+57340+058210FM-12+024499999V0202301N002019999999N0150001N1-00721-00851100931ADDAY171031AY221031GF106991061001999999021001MD1710081+9999MW1711REMSYN066AAXX  01211 28334 41965 62302 11072 21085 40093 57008 77172 86020;
0161283340999992000120200004+57340+058210FM-12+024499999V0202301N002010210019N0150001N1-00751-00881100911ADDAY171061AY221061GF108991081001022501021999MA1999999097801MD1710011+9999MW1711REMSYN072AAXX  02001 28334 41865 82302 11075 21088 39780 40091 57001 77172 8802/;
0173283340999992000120203004+57340+058210FM-12+024499999V0202301N002019999999N0500001N1-00641-00801100911ADDAJ100219199999999AY171031AY221031GF108991081001999999021999IA1239MD1310021+9999MW1021REMSYN076AAXX  02031 28334 /1984 82302 11064 21080 40091 53002 70272 8802/ 333 47021;
0174283340999992000120206004+57340+058210FM-12+024499999V0209999C000010069019N0500001N1-00551-00731100951ADDAA112000391GA1071+006909059GF107991071051008001001001KA1120N-00751MD1210051+9999REMSYN082AAXX  02061 28334 12599 70000 11055 21073 40095 52005 69932 87500 333 21075 87623;
0138283340999992000120209004+57340+058210FM-12+024499999V0202501N002010069019N0500001N1-00521-00731100941ADDGA1081+006909059GF108991081051008001999999MD1810011+9999REMSYN070AAXX  02091 28334 42599 82502 11052 21073 40094 58001 885// 333 88623;
0206283340999992000120212004+57340+058210FM-12+024499999V0209999C000010069019N0200001N1-00521-00691100881ADDAY171061AY221061GA1081+006909069GF108991999071008001021999MA1999999097801MD1710061+9999MW1711REMSYN082AAXX  02121 28334 41570 80000 11052 21069 39780 40088 57006 77172 8872/ 333 88723;EQDQ01+000082SCOTLC
0204283340999992000120215004+57340+058210FM-12+024499999V0202501N002010069019N0150001N1-00421-00541100811ADDAY171031AY221031GA1081+006909069GF108991999071008001021999KA1120M-00411MD1710071+9999MW1711REMSYN082AAXX  02151 28334 41565 82502 11042 21054 40081 57007 77172 8872/ 333 11041 88723;EQDQ01+000082SCOTLC
0180283340999992000120218004+57340+058210FM-12+024499999V0202501N002019999999N0500001N1-00401-00521100881ADDAA112000391AY171061AY221061GF107991071001999999011001KA1999M-00411MD1310081+9999MW1221REMSYN082AAXX  02181 28334 11984 72502 11040 21052 40088 53008 69932 72272 87010 333 11041;
0133283340999992000120300004+57340+058210FM-12+024499999V0202501N004012200019N0500001N1-00881-01121101111ADDGF102991021001999999011001MA1999999097971MD1210151+9999REMSYN066AAXX  03001 28334 42984 22504 11088 21112 39797 40111 52015 82010;
0123283340999992000120303004+57340+058210FM-12+024499999V0202901N004012200019N0500001N1-01761-02021101521ADDAA199000021GF101991011001999999041001MD1210291+9999REMSYN060AAXX  03031 28334 32984 12904 11176 21202 40152 52029 81040;
0165283340999992000120306004+57340+058210FM-12+024499999V0203201N002012200019N0500001N1-02211-02541101771ADDAA112000891GF101991999999999999999999KA1999N+99999MD1210201+9999REMSYN070AAXX  03061 28334 12999 13202 11221 21254 40177 52020 69982 333 21176;EQDQ01 -01762ATMN  
0122283340999992000120309004+57340+058210FM-12+024499999V0202901N002012200019N0500001N1-02241-02561101901ADDGA1001+999999999GF100991001001999999001001MD1210121+9999REMSYN054AAXX  03091 28334 42999 02902 11224 21256 40190 52012;
0143283340999992000120312004+57340+058210FM-12+024499999V0202901N002012200019N0500001N1-02451-02771102061ADDGA1001+999999999GF100991001001999999001001MA1999999098711MD1210131+9999REMSYN060AAXX  03121 28334 42999 02902 11245 21277 39871 40206 52013;
0175283340999992000120315004+57340+058210FM-12+024499999V0202901N002012200019N0500001N1-02691-03001102231ADDAA199000091GA1001+999999999GF100991001001999999001001KA1999M-01751MD1210131+9999REMSYN064AAXX  03151 28334 32984 02902 11269 21300 40223 52013 333 11175;EQDQ01  00002PRCP99
0175283340999992000120318004+57340+058210FM-12+024499999V0209999C000012200019N0500001N1-02861-03161102301ADDAA199000091GA1001+999999999GF100991001001999999001001KA1999M-01751MD1210031+9999REMSYN064AAXX  03181 28334 32984 00000 11286 21316 40230 52003 333 11175;EQDQ01  00002PRCP99
0122283340999992000120321004+57340+058210FM-12+024499999V0209999C000012200019N0500001N1-02961-03261102301ADDGA1001+999999999GF100991001001999999001001MD1810021+9999REMSYN054AAXX  03211 28334 42984 00000 11296 21326 40230 58002;
0143283340999992000120400004+57340+058210FM-12+024499999V0209999C000012200019N0500001N1-03351-03721102351ADDGA1001+999999999GF100991001001999999001001MA1999999098851MD1410001+9999REMSYN060AAXX  04001 28334 42984 00000 11335 21372 39885 40235 54000;
0175283340999992000120403004+57340+058210FM-12+024499999V0209999C000012200019N0500001N1-03291-03571102341ADDAA199000091AJ100219199999999GF102991021001999999041001IA1239MD1410001+9999REMSYN070AAXX  04031 28334 32984 20000 11329 21357 40234 54000 82040 333 47021;EQDQ01  00002PRCP99
0165283340999992000120406004+57340+058210FM-12+024499999V0209999C000019999999N0500001N1-03231-03521102291ADDAA199000091GF105991001001999999001081KA1999N-03351MD1810021+9999REMSYN070AAXX  04061 28334 32999 50000 11323 21352 40229 58002 80008 333 21335;EQDQ01  00002PRCP99
0112283340999992000120409004+57340+058210FM-12+024499999V0209999C000019999999N0500001N1-02851-03151102141ADDGF106991001001999999001081MD1710111+9999REMSYN060AAXX  04091 28334 42999 60000 11285 21315 40214 57011 80008;
0133283340999992000120412004+57340+058210FM-12+024499999V0209999C000019999999N0500001N1-02551-02801102011ADDGF108991001001999999001071MA1999999098651MD1710071+9999REMSYN066AAXX  04121 28334 42999 80000 11255 21280 39865 40201 57007 80007;
0165283340999992000120415004+57340+058210FM-12+024499999V0200501N002019999999N0500001N1-02221-02471101881ADDAA199000091GF108991001001999999001071KA1999M-02211MD1710091+9999REMSYN070AAXX  04151 28334 32984 80502 11222 21247 40188 57009 80007 333 11221;EQDQ01  00002PRCP99
0174283340999992000120418004+57340+058210FM-12+024499999V0200501N002019999999N0150001N1-02211-02541101871ADDAA199000021AY171061AY221061GF108991081001999999021999KA1999M-02111MD1710011+9999MW1701REMSYN076AAXX  04181 28334 31965 80502 11221 21254 40187 57001 77072 8802/ 333 11211;
0150283340999992000120421004+57340+058210FM-12+024499999V0200501N002012200019N0500001N1-02311-02631101871ADDAY171031AY201031GA1001+999999999GF100991001001999999001001MD1710011+9999MW1011REMSYN060AAXX  04211 28334 41384 00502 11231 21263 40187 57001 70170;
0133283340999992000120500004+57340+058210FM-12+024499999V0200501N002012200019N0500001N1-02461-02851102121ADDGF103991001001999999001081MA1999999098761MD1310221+9999REMSYN066AAXX  05001 28334 42984 30502 11246 21285 39876 40212 53022 80008;
0164283340999992000120503004+57340+058210FM-12+024499999V0200501N002012200019N0500001N1-02781-03091102451ADDAJ100219199999999GF101991999001999999041001IA1239MD1210271+9999REMSYN070AAXX  05031 28334 /2984 10502 11278 21309 40245 52027 82040 333 47021;EQDQ01+000022SCOTLC
0181283340999992000120506004+57340+058210FM-12+024499999V0200501N002012200019N0500001N1-02891-03201102741ADDAA112000591GA1001+999999999GF100991001001999999001001KA1999N+99999MD1210271+9999REMSYN070AAXX  05061 28334 12999 00502 11289 21320 40274 52027 69942 333 21278;EQDQ01 -02782ATMN  
0122283340999992000120509004+57340+058210FM-12+024499999V0200501N002012200019N0500001N1-02681-03071102851ADDGA1001+999999999GF100991001001999999001001MD1210141+9999REMSYN054AAXX  05091 28334 42999 00502 11268 21307 40285 52014;
0143283340999992000120512004+57340+058210FM-12+024499999V0200501N002012200019N0500001N1-02631-03011103041ADDGA1001+999999999GF100991001001999999001001MA1999999099631MD1210191+9999REMSYN060AAXX  05121 28334 42999 00502 11263 21301 39963 40304 52019;
0175283340999992000120515004+57340+058210FM-12+024499999V0200501N002012200019N0500001N1-02951-03261103271ADDAA199000091GA1001+999999999GF100991001001999999001001KA1999M-02621MD1210161+9999REMSYN064AAXX  05151 28334 32984 00502 11295 21326 40327 52016 333 11262;EQDQ01  00002PRCP99
0175283340999992000120518004+57340+058210FM-12+024499999V0209999C000012200019N0500001N1-03181-03471103491ADDAA199000091GA1001+999999999GF100991001001999999001001KA1999M-02621MD1210191+9999REMSYN064AAXX  05181 28334 32984 00000 11318 21347 40349 52019 333 11262;EQDQ01  00002PRCP99
0122283340999992000120521004+57340+058210FM-12+024499999V0209999C000012200019N0500001N1-03451-03741103661ADDGA1001+999999999GF100991001001999999001001MD1210121+9999REMSYN054AAXX  05211 28334 42984 00000 11345 21374 40366 52012;
0143283340999992000120600004+57340+058210FM-12+024499999V0209999C000012200019N0500001N1-03501-03801103731ADDGA1001+999999999GF100991001001999999001001MA1999999100171MD1210071+9999REMSYN060AAXX  06001 28334 42984 00000 11350 21380 30017 40373 52007;
0185283340999992000120603004+57340+058210FM-12+024499999V0209999C000012200019N0500001N1-03561-03831103821ADDAA199000091AJ100219199999999GA1001+999999999GF100991001001999999001001IA1239MD1210071+9999REMSYN064AAXX  06031 28334 32984 00000 11356 21383 40382 52007 333 47021;EQDQ01  00002PRCP99
0152283340999992000120606004+57340+058210FM-12+024499999V0209999C000012200019N0500001N1-03631-03901103891ADDAA199000091GA1001+999999999GF100991001001999999001001MD1210071+9999REMSYN054AAXX  06061 28334 32999 00000 11363 21390 40389 52007;EQDQ01  00002PRCP99
0122283340999992000120609004+57340+058210FM-12+024499999V0209999C000012200019N0500001N1-02931-03241103811ADDGA1001+999999999GF100991001001999999001001MD1210031+9999REMSYN054AAXX  06091 28334 42999 00000 11293 21324 40381 52003;
0143283340999992000120612004+57340+058210FM-12+024499999V0209999C000012200019N0500001N1-02761-03131103931ADDGA1001+999999999GF100991001001999999001001MA1999999100461MD1210121+9999REMSYN060AAXX  06121 28334 42999 00000 11276 21313 30046 40393 52012;
0175283340999992000120615004+57340+058210FM-12+024499999V0209999C000012200019N0500001N1-03021-03321103991ADDAA199000091GA1001+999999999GF100991001001999999001001KA1999M-02751MD1210031+9999REMSYN064AAXX  06151 28334 32984 00000 11302 21332 40399 52003 333 11275;EQDQ01  00002PRCP99
0203283340999992000120618004+57340+058210FM-12+024499999V0209999C000012200019N0060001N1-03161-03451104031ADDAA199000091AY101061AY201061GA1001+999999999GF100991001001999999001001KA1999M-02751MD1210011+9999MW1101REMSYN070AAXX  06181 28334 31956 00000 11316 21345 40403 52001 71000 333 11275;EQDQ01  00002PRCP99
0150283340999992000120621004+57340+058210FM-12+024499999V0209999C000012200019N0060001N1-03211-03501104071ADDAY101031AY201031GA1001+999999999GF100991001001999999001001MD1210041+9999MW1101REMSYN060AAXX  06211 28334 41956 00000 11321 21350 40407 52004 71000;
0171283340999992000120700004+57340+058210FM-12+024499999V0209999C000012200019N0060001N1-03261-03551104091ADDAY101061AY201061GA1001+999999999GF100991001001999999001001MA1999999100551MD1210011+9999MW1101REMSYN066AAXX  07001 28334 41956 00000 11326 21355 30055 40409 52001 71000;
0203283340999992000120703004+57340+058210FM-12+024499999V0209999C000012200019N0060001N1-03351-03651104111ADDAA199000091AJ100209199999999AY101031AY201031GF101991011001999999041001IA1239MD1410001+9999MW1101REMSYN076AAXX  07031 28334 31956 10000 11335 21365 40411 54000 71000 81040 333 47020;EQDQ01  00002PRCP99
0165283340999992000120706004+57340+058210FM-12+024499999V0209999C000019999999N0500001N1-03261-03551104041ADDAA199000091GF106991021001999999061021KA1999N-03371MD1810051+9999REMSYN070AAXX  07061 28334 32999 60000 11326 21355 40404 58005 82062 333 21337;EQDQ01  00002PRCP99
0112283340999992000120709004+57340+058210FM-12+024499999V0209999C000012200019N0500001N1-02901-03201103851ADDGF102991001001999999001021MD1710131+9999REMSYN060AAXX  07091 28334 42999 20000 11290 21320 40385 57013 80002;
0141283340999992000120712004+57340+058210FM-12+024499999V0209999C000012200019N0500001N1-02591-02911103651ADDAY111061AY251061GF103991001001999999001091MA1999999100221MW1701REMSYN066AAXX  07121 28334 42999 30000 11259 21291 30022 40365 77015 80009;
0146283340999992000120715004+57340+058210FM-12+024499999V0209999C000012200019N0500001N1-02281-02601103421ADDAA199000021GF102991001001999999001091KA1999M-02161MD1710181+9999REMSYN070AAXX  07151 28334 32984 20000 11228 21260 40342 57018 80009 333 11216;
0165283340999992000120718004+57340+058210FM-12+024499999V0202301N002019999999N0500001N1-01901-02311103221ADDAA199000021GF108991001001999999001071KA1999M+99999MD1710141+9999REMSYN070AAXX  07181 28334 32984 82302 11190 21231 40322 57014 80007 333 11216;EQDQ01 -02162ATMX  
0112283340999992000120721004+57340+058210FM-12+024499999V0202301N002019999999N0500001N1-01771-02181103011ADDGF107991031001999999031061MD1710201+9999REMSYN060AAXX  07211 28334 42984 72302 11177 21218 40301 57020 83036;
0133283340999992000120800004+57340+058210FM-12+024499999V0202301N004019999999N0500001N1-01571-01991102801ADDGF108991081001999999021999MA1999999099521MD1710181+9999REMSYN066AAXX  08001 28334 42984 82304 11157 21199 39952 40280 57018 8802/;
0175283340999992000120803004+57340+058210FM-12+024499999V0202301N002019999999N0500001N1-01401-01751102721ADDAA199000091AJ100209199999999GF108991081001999999021999IA1239MD1710051+9999REMSYN070AAXX  08031 28334 32984 82302 11140 21175 40272 57005 8802/ 333 47020;EQDQ01  00002PRCP99
0185283340999992000120806004+57340+058210FM-12+024499999V0202301N002010060019N0200001N1-01401-01601102711ADDAY171061AY221061GA1081+006009029GF108991081001008001021999KA1120N-02281MD1710011+9999MW1711REMSYN082AAXX  08061 28334 11570 82302 11140 21160 40271 57001 77172 8802/ 333 21228 88520;
0166283340999992000120809004+57340+058210FM-12+024499999V0202301N002010060019N0200001N1-01351-01621102741ADDAY171031AY221031GA1081+006009029GF108991081001008001021999MD1310041+9999MW1711REMSYN076AAXX  08091 28334 41570 82302 11135 21162 40274 53004 77172 8802/ 333 88520;
0187283340999992000120812004+57340+058210FM-12+024499999V0201801N002010060019N0500001N1-01301-01571102731ADDAY171061AY221061GA1081+006009029GF108991081001008001021999MA1999999099491MD1810011+9999MW1021REMSYN082AAXX  08121 28334 41599 81802 11130 21157 39949 40273 58001 70272 8802/ 333 88520;
0185283340999992000120815004+57340+058210FM-12+024499999V0202001N002010060019N0500001N1-01201-01471102691ADDAY171031AY221031GA1081+006009029GF108991081001008001021999KA1120M-01191MD1710021+9999MW1021REMSYN082AAXX  08151 28334 /1584 82002 11120 21147 40269 57002 70272 8802/ 333 11119 88520;
0202283340999992000120818004+57340+058210FM-12+024499999V0202001N002010060019N0500001N1-01171-01371102481ADDAA112000391AY171061AY221061GA1081+006009029GF108991081001008001021999KA1120M-01191MD1710201+9999MW1221REMSYN088AAXX  08181 28334 11584 82002 11117 21137 40248 57020 69932 72272 8802/ 333 11119 88520;
0166283340999992000120821004+57340+058210FM-12+024499999V0202001N002010060019N0150001N1-01081-01211102301ADDAY171031AY221031GA1081+006009029GF108991081001008001021999MD1710161+9999MW1701REMSYN076AAXX  08211 28334 42565 82002 11108 21121 40230 57016 77072 8802/ 333 88520;
0187283340999992000120900004+57340+058210FM-12+024499999V0202301N002010060019N0150001N1-00921-01031102061ADDAY171061AY251061GA1081+006009029GF108991081001008001021999MA1999999098891MD1710221+9999MW1561REMSYN082AAXX  09001 28334 42565 82302 11092 21103 39889 40206 57022 75675 8802/ 333 88520;
0195283340999992000120903004+57340+058210FM-12+024499999V0202301N004010060019N0150001N1-00821-00921101841ADDAJ100209199999999AY151031AY221031GA1081+006009029GF108991081001008001021999IA1279MD1710201+9999MW1561REMSYN082AAXX  09031 28334 /2565 82304 11082 21092 40184 57020 75652 8802/ 333 43020 88520;
0202283340999992000120906004+57340+058210FM-12+024499999V0202301N002010060019N0060001N1-00721-00811101831ADDAA112000891AY151061AY221061GA1081+006009029GF108991081001008001021999KA1120N-01201MD1310011+9999MW1711REMSYN088AAXX  09061 28334 11556 82302 11072 21081 40183 53001 69972 77152 8802/ 333 21120 88520;
0166283340999992000120909004+57340+058210FM-12+024499999V0202301N002010060019N0060001N1-00531-00671101581ADDAY171031AY221031GA1081+006009029GF108991081001008001021999MD1710221+9999MW1711REMSYN076AAXX  09091 28334 41556 82302 11053 21067 40158 57022 77172 8802/ 333 88520;
0187283340999992000120912004+57340+058210FM-12+024499999V0202301N002010060019N0060001N1-00511-00651101561ADDAY171061AY221061GA1081+006009029GF108991081001008001021999MA1999999098461MD1710021+9999MW1701REMSYN082AAXX  09121 28334 42556 82302 11051 21065 39846 40156 57002 77072 8802/ 333 88520;
0185283340999992000120915004+57340+058210FM-12+024499999V0202001N002010060019N0060001N1-00501-00631101621ADDAY171031AY221031GA1081+006009029GF108991081001008001021999KA1120M-00491MD1310061+9999MW1711REMSYN082AAXX  09151 28334 /1556 82002 11050 21063 40162 53006 77172 8802/ 333 11049 88520;
0221283340999992000120918004+57340+058210FM-12+024499999V0202301N002010060019N0150001N1-00651-00811101731ADDAA112002091AY171061AY221061GA1081+006009029GF108991081001008001021999KA1120M+99999MD1210091+9999MW1711REMSYN088AAXX  09181 28334 11565 82302 11065 21081 40173 52009 60022 77172 8802/ 333 11071 88520;EQDQ01 -00712ATMX  
0166283340999992000120921004+57340+058210FM-12+024499999V0202301N002010060019N0150001N1-00741-00871101701ADDAY171031AY221031GA1081+006009029GF108991081001008001021999MD1810071+9999MW1711REMSYN076AAXX  09211 28334 41565 82302 11074 21087 40170 58007 77172 8802/ 333 88520;
0187283340999992000121000004+57340+058210FM-12+024499999V0202301N002010060019N0500001N1-00691-00851101711ADDAY171061AY221061GA1081+006009029GF108991081001008001021999MA1999999098581MD1310011+9999MW1021REMSYN082AAXX  10001 28334 41584 82302 11069 21085 39858 40171 53001 70272 8802/ 333 88520;
0195283340999992000121003004+57340+058210FM-12+024499999V0202301N002010060019N0150001N1-00661-00821101801ADDAJ100199199999999AY171031AY221031GA1081+006009029GF108991081001008001021999IA1279MD1210101+9999MW1711REMSYN082AAXX  10031 28334 /1565 82302 11066 21082 40180 52010 77172 8802/ 333 43019 88520;
0202283340999992000121006004+57340+058210FM-12+024499999V0202301N002010060019N0500001N1-00681-00881101891ADDAA112000591AY171061AY221061GA1081+006009029GF108991081001008001021999KA1120N-00741MD1210081+9999MW1021REMSYN088AAXX  10061 28334 11599 82302 11068 21088 40189 52008 69952 70272 8802/ 333 21074 88520;
0138283340999992000121009004+57340+058210FM-12+024499999V0202301N002010060019N0500001N1-00651-00851101981ADDGA1081+006009029GF108991081001008001021999MD1210091+9999REMSYN070AAXX  10091 28334 42599 82302 11065 21085 40198 52009 8802/ 333 88520;
0159283340999992000121012004+57340+058210FM-12+024499999V0209999C000010060019N0500001N1-00671-00871102071ADDGA1081+006009029GF108991081001008001021999MA1999999098941MD1210091+9999REMSYN076AAXX  10121 28334 42599 80000 11067 21087 39894 40207 52009 8802/ 333 88520;
0157283340999992000121015004+57340+058210FM-12+024499999V0202301N002010060019N0500001N1-00671-00831102151ADDGA1081+006009029GF108991081001008001021999KA1120M-00641MD1210081+9999REMSYN076AAXX  10151 28334 /2584 82302 11067 21083 40215 52008 8802/ 333 11064 88520;
0174283340999992000121018004+57340+058210FM-12+024499999V0202301N002010060019N0500001N1-00641-00801102221ADDAA112000791GA1081+006009029GF108991081001008001021999KA1120M-00641MD1210071+9999REMSYN082AAXX  10181 28334 12584 82302 11064 21080 40222 52007 69902 8802/ 333 11064 88520;
0138283340999992000121021004+57340+058210FM-12+024499999V0202301N004010060019N0500001N1-00601-00741102371ADDGA1081+006009029GF108991081001008001021999MD1210141+9999REMSYN070AAXX  10211 28334 42584 82304 11060 21074 40237 52014 8802/ 333 88520;
0159283340999992000121100004+57340+058210FM-12+024499999V0202301N004010060019N0500001N1-00541-00641102401ADDGA1081+006009029GF108991081001008001021999MA1999999099271MD1210041+9999REMSYN076AAXX  11001 28334 42584 82304 11054 21064 39927 40240 52004 8802/ 333 88520;
0165283340999992000121106004+57340+058210FM-12+024499999V0202301N002010075019N0500001N1-00491-00621102311ADDAA199000091GF108991081001008001021999KA1999N-00671MD1810121+9999REMSYN070AAXX  11061 28334 32599 82302 11049 21062 40231 58012 8802/ 333 21067;EQDQ01  00002PRCP99
0166283340999992000121109004+57340+058210FM-12+024499999V0202301N002010060019N0060001N1-00431-00551102321ADDAY121031AY221031GA1081+006009029GF108991081001008001021999MD1310021+9999MW1101REMSYN076AAXX  11091 28334 41556 82302 11043 21055 40232 53002 71022 8802/ 333 88520;
0187283340999992000121112004+57340+058210FM-12+024499999V0209999C000010060019N0060001N1-00371-00481102281ADDAY121061AY221061GA1081+006009029GF108991081001008001021999MA1999999099171MD1810031+9999MW1101REMSYN082AAXX  11121 28334 41556 80000 11037 21048 39917 40228 58003 71022 8802/ 333 88520;
0215283340999992000121115004+57340+058210FM-12+024499999V0202001N002010060019N0060001N1-00301-00371102231ADDAA199000091AY121031AY221031GA1081+006009029GF108991081001008001021999KA1120M-00261MD1710041+9999MW1101REMSYN082AAXX  11151 28334 31556 82002 11030 21037 40223 57004 71022 8802/ 333 11026 88520;EQDQ01  00002PRCP99
0196283340999992000121118004+57340+058210FM-12+024499999V0209999C000010060019N0060001N1-00321-00421102161ADDAA199000021AY171061AY221061GA1081+006009029GF108991081001008001021999KA1120M-00261MD1710071+9999MW1711REMSYN082AAXX  11181 28334 31556 80000 11032 21042 40216 57007 77172 8802/ 333 11026 88520;
0166283340999992000121121004+57340+058210FM-12+024499999V0202301N002010060019N0060001N1-00381-00461102101ADDAY171031AY221031GA1081+006009029GF108991081001008001021999MD1710061+9999MW1711REMSYN076AAXX  11211 28334 41556 82302 11038 21046 40210 57006 77172 8802/ 333 88520;
0187283340999992000121200004+57340+058210FM-12+024499999V0202301N002010060019N0500001N1-00421-00541102071ADDAY171061AY221061GA1081+006009029GF108991081001008001021999MA1999999098961MD1710041+9999MW1021REMSYN082AAXX  12001 28334 41584 82302 11042 21054 39896 40207 57004 70272 8802/ 333 88520;
0167283340999992000121203004+57340+058210FM-12+024499999V0209999C000010060019N0500001N1-00461-00591101971ADDAJ100219199999999GA1081+006009029GF108991081001008001021999IA1239MD1710101+9999REMSYN076AAXX  12031 28334 /2584 80000 11046 21059 40197 57010 8802/ 333 47021 88520;
0202283340999992000121206004+57340+058210FM-12+024499999V0202301N002010060019N0200001N1-00501-00631102121ADDAA112001091AY171061AY221061GA1081+006009029GF108991081001008001021999KA1120N-00461MD1310141+9999MW1711REMSYN088AAXX  12061 28334 11570 82302 11050 21063 40212 53014 69992 77172 8802/ 333 21046 88520;
0166283340999992000121209004+57340+058210FM-12+024499999V0202301N002010060019N0200001N1-00511-00681102171ADDAY171031AY221031GA1081+006009029GF108991081001008001021999MD1210051+9999MW1711REMSYN076AAXX  12091 28334 41570 82302 11051 21068 40217 52005 77172 8802/ 333 88520;
0187283340999992000121212004+57340+058210FM-12+024499999V0202301N002010060019N0200001N1-00551-00661102201ADDAY171061AY221061GA1081+006009029GF108991081001008001021999MA1999999099081MD1210031+9999MW1711REMSYN082AAXX  12121 28334 41570 82302 11055 21066 39908 40220 52003 77172 8802/ 333 88520;
0185283340999992000121215004+57340+058210FM-12+024499999V0202301N002010060019N0150001N1-00591-00701102261ADDAY171031AY221031GA1081+006009029GF108991081001008001021999KA1120M-00451MD1210051+9999MW1711REMSYN082AAXX  12151 28334 /1565 82302 11059 21070 40226 52005 77172 8802/ 333 11045 88520;
0202283340999992000121218004+57340+058210FM-12+024499999V0202301N002010060019N0150001N1-00641-00721102261ADDAA112001091AY171061AY221061GA1081+006009029GF108991081001008001021999KA1120M-00451MD1410001+9999MW1701REMSYN088AAXX  12181 28334 11565 82302 11064 21072 40226 54000 60012 77072 8802/ 333 11045 88520;
0166283340999992000121221004+57340+058210FM-12+024499999V0209999C000010060019N0060001N1-00671-00751102301ADDAY171031AY221031GA1081+006009029GF108991081001008001021999MD1310031+9999MW1101REMSYN076AAXX  12211 28334 41556 80000 11067 21075 40230 53003 71072 8802/ 333 88520;
0187283340999992000121300004+57340+058210FM-12+024499999V0209999C000010060019N0060001N1-00641-00721102311ADDAY121061AY221061GA1081+006009029GF108991081001008001021999MA1999999099171MD1210011+9999MW1101REMSYN082AAXX  13001 28334 41556 80000 11064 21072 39917 40231 52001 71022 8802/ 333 88520;
0195283340999992000121303004+57340+058210FM-12+024499999V0209999C000010060019N0060001N1-00641-00721102301ADDAJ100259199999999AY121031AY221031GA1081+006009029GF108991081001008001021999IA1239MD1810011+9999MW1101REMSYN082AAXX  13031 28334 /1556 80000 11064 21072 40230 58001 71022 8802/ 333 47025 88520;
0129283340999992000121306004+57340+058210FM-12+024499999V0209999C000010075019N0500001N1-00601-00711102321ADDAA112000591GF108991081001008001021999MD1310021+9999REMSYN066AAXX  13061 28334 12599 80000 11060 21071 40232 53002 69952 8802/;
0138283340999992000121309004+57340+058210FM-12+024499999V0202701N002010060019N0500001N1-00541-00681102351ADDGA1081+006009029GF108991081001008001021999MD1210041+9999REMSYN070AAXX  13091 28334 42599 82702 11054 21068 40235 52004 8802/ 333 88520;
0159283340999992000121312004+57340+058210FM-12+024499999V0209999C000010060019N0500001N1-00621-00741102331ADDGA1081+006009029GF108991081001008001021999MA1999999099191MD1810031+9999REMSYN076AAXX  13121 28334 42599 80000 11062 21074 39919 40233 58003 8802/ 333 88520;
0215283340999992000121315004+57340+058210FM-12+024499999V0209999C000010060019N0500001N1-00661-00781102241ADDAA199000091AY121031AY221031GA1081+006009029GF108991081001008001021999KA1120M-00531MD1710081+9999MW1101REMSYN082AAXX  13151 28334 31599 80000 11066 21078 40224 57008 71022 8802/ 333 11053 88520;EQDQ01  00002PRCP99
0215283340999992000121318004+57340+058210FM-12+024499999V0209999C000010060019N0020001N1-00711-00761102051ADDAA199000091AY121061AY221061GA1081+006009069GF108991081061008001999999KA1120M-00531MD1710201+9999MW1101REMSYN082AAXX  13181 28334 31520 80000 11071 21076 40205 57020 71022 886// 333 11053 88720;EQDQ01  00002PRCP99
0166283340999992000121321004+57340+058210FM-12+024499999V0209999C000010060019N0020001N1-00721-00771101891ADDAY121031AY221031GA1081+006009069GF108991081061008001999999MD1710151+9999MW1101REMSYN076AAXX  13211 28334 41520 80000 11072 21077 40189 57015 71022 886// 333 88720;
0187283340999992000121400004+57340+058210FM-12+024499999V0209999C000010060019N0060001N1-00761-00811101761ADDAY121061AY221061GA1081+006009069GF108991081061008001999999MA1999999098631MD1710131+9999MW1101REMSYN082AAXX  14001 28334 41556 80000 11076 21081 39863 40176 57013 71022 886// 333 88720;
0197283340999992000121403004+57340+058210FM-12+024499999V0209999C000010060019N0500001N1-00781-00841101581ADDAA199000091AJ100259199999999GA1081+006009069GF108991081061008001999999IA1239MD1710191+9999REMSYN076AAXX  14031 28334 32584 80000 11078 21084 40158 57019 886// 333 47025 88720;EQDQ01  00002PRCP99
0187283340999992000121406004+57340+058210FM-12+024499999V0209999C000010060019N0500001N1-00781-00841101461ADDAA199000091GA1081+006009069GF108991081061008001999999KA1120N-00791MD1710121+9999REMSYN076AAXX  14061 28334 32599 80000 11078 21084 40146 57012 886// 333 21079 88720;EQDQ01  00002PRCP99
0166283340999992000121409004+57340+058210FM-12+024499999V0209999C000010060019N0200001N1-00721-00771101301ADDAY171031AY221031GA1081+006009029GF108991081001008001021999MD1710141+9999MW1711REMSYN076AAXX  14091 28334 41570 80000 11072 21077 40130 57014 77172 8802/ 333 88520;
0187283340999992000121412004+57340+058210FM-12+024499999V0209999C000010060019N0500001N1-00701-00751101231ADDAY171061AY221061GA1081+006009029GF108991081001008001021999MA1999999098111MD1710071+9999MW1221REMSYN082AAXX  14121 28334 41599 80000 11070 21075 39811 40123 57007 72272 8802/ 333 88520;
0185283340999992000121415004+57340+058210FM-12+024499999V0209999C000010060019N0150001N1-00721-00771101181ADDAY171031AY221031GA1081+006009029GF108991081001008001021999KA1120M-00691MD1710051+9999MW1711REMSYN082AAXX  14151 28334 /1565 80000 11072 21077 40118 57005 77172 8802/ 333 11069 88520;
0180283340999992000121418004+57340+058210FM-12+024499999V0209999C000019999999N0060001N1-00821-00881101241ADDAA112000891AY171061AY221061GF108991081001008001071999KA1999M-00551MD1310051+9999MW1711REMSYN082AAXX  14181 28334 11556 80000 11082 21088 40124 53005 69982 77172 8807/ 333 11055;
0166283340999992000121421004+57340+058210FM-12+024499999V0209999C000010060019N0500001N1-00861-00881101241ADDAY171031AY221031GA1081+006009029GF108991081001008001021999MD1410001+9999MW1221REMSYN076AAXX  14211 28334 41584 80000 11086 21088 40124 54000 72272 8802/ 333 88520;
0187283340999992000121500004+57340+058210FM-12+024499999V0209999C000010060019N0500001N1-01041-01171101231ADDAY171061AY221061GA1081+006009029GF108991081001008001021999MA1999999098081MD1810031+9999MW1021REMSYN082AAXX  15001 28334 41584 80000 11104 21117 39808 40123 58003 70272 8802/ 333 88520;
0195283340999992000121503004+57340+058210FM-12+024499999V0209999C000010060019N0150001N1-01021-01151101141ADDAJ100259199999999AY171031AY221031GA1081+006009029GF108991081001008001021999IA1239MD1710091+9999MW1711REMSYN082AAXX  15031 28334 /1565 80000 11102 21115 40114 57009 77172 8802/ 333 47025 88520;
0180283340999992000121506004+57340+058210FM-12+024499999V0209999C000019999999N0200001N1-00951-01071101021ADDAA112001091AY171061AY221061GF107991071001999999071001KA1999N-01041MD1710101+9999MW1701REMSYN082AAXX  15061 28334 11970 70000 11095 21107 40102 57010 69992 77072 87070 333 21104;
0140283340999992000121509004+57340+058210FM-12+024499999V0209999C000019999999N0200001N1-00841-00901101001ADDAY171031AY221031GF107991071001999999071001MD1710011+9999MW1711REMSYN066AAXX  15091 28334 41970 70000 11084 21090 40100 57001 77172 87070;
0161283340999992000121512004+57340+058210FM-12+024499999V0209999C000019999999N0500001N1-00861-00931101031ADDAY171061AY221061GF107991061001999999071081MA1999999097911MD1310031+9999MW1021REMSYN072AAXX  15121 28334 41999 70000 11086 21093 39791 40103 53003 70272 86078;
0135283340999992000121515004+57340+058210FM-12+024499999V0209999C000019999999N0500001N1-00911-00981101011ADDGF108991081001999999021999KA1999M-00801MD1810031+9999REMSYN070AAXX  15151 28334 /2984 80000 11091 21098 40101 58003 8802/ 333 11080;
0152283340999992000121518004+57340+058210FM-12+024499999V0209999C000019999999N0500001N1-00911-00981101061ADDAA112000391GF108991081001999999021999KA1999M-00801MD1310051+9999REMSYN076AAXX  15181 28334 12984 80000 11091 21098 40106 53005 69932 8802/ 333 11080;
0127283340999992000121600004+57340+058210FM-12+024499999V0209999C000019999999N0500001N1+99999+99999101091ADDGF108991081001999999021999MA1999999097951MD1210011+9999REMSYN060AAXX  16001 28334 42984 80000 21101 39795 40109 52001 8802/;
0175283340999992000121603004+57340+058210FM-12+024499999V0209999C000019999999N0500001N1-00861-00971101031ADDAA199000091AJ100259199999999GF108991081001999999021999IA1239MD1810041+9999REMSYN070AAXX  16031 28334 32984 80000 11086 21097 40103 58004 8802/ 333 47025;EQDQ01  00002PRCP99
0196283340999992000121606004+57340+058210FM-12+024499999V0200701N002010069019N0200001N1-00741-00911101021ADDAA199000021AY171061AY221061GA1051+006909029GF108991051001008001021999KA1120N-00941MD1410001+9999MW1711REMSYN082AAXX  16061 28334 31570 80702 11074 21091 40102 54000 77172 8502/ 333 21094 85523;
0140283340999992000121609004+57340+058210FM-12+024499999V0200701N002010750019N0200001N1-00731-00901100981ADDAY171031AY221031GF108991021001008001021091MD1810041+9999MW1711REMSYN066AAXX  16091 28334 41570 80702 11073 21090 40098 58004 77172 82029;
0187283340999992000121612004+57340+058210FM-12+024499999V0200701N002010069019N0200001N1-00721-00891100941ADDAY171061AY221061GA1061+006909029GF108991061001008001021999MA1999999097821MD1710051+9999MW1711REMSYN082AAXX  16121 28334 41570 80702 11072 21089 39782 40094 57005 77172 8602/ 333 86523;
0185283340999992000121615004+57340+058210FM-12+024499999V0200701N002010060019N0005001N1-00771-00871100911ADDAY171031AY221031GA1081+006009029GF108991081001008001021999KA1120M+00701MD1710021+9999MW1751REMSYN082AAXX  16151 28334 /1505 80702 11077 21087 40091 57002 77572 8802/ 333 10070 88520;
0202283340999992000121618004+57340+058210FM-12+024499999V0200701N002010060019N0005001N1-00771-00911100901ADDAA112017091AY171061AY221061GA1081+006009029GF108991081001008001021999KA1120M-00701MD1710011+9999MW1741REMSYN088AAXX  16181 28334 11505 80702 11077 21091 40090 57001 60172 77472 8802/ 333 11070 88520;
0166283340999992000121621004+57340+058210FM-12+024499999V0200701N002010060019N0020001N1-00741-00831100911ADDAY171031AY221031GA1081+006009029GF108991081001008001021999MD1310011+9999MW1731REMSYN076AAXX  16211 28334 41520 80702 11074 21083 40091 53001 77372 8802/ 333 88520;
0187283340999992000121700004+57340+058210FM-12+024499999V0200701N002010060019N0020001N1-00701-00791100951ADDAY171061AY221061GA1081+006009029GF108991081001008001021999MA1999999097841MD1210041+9999MW1731REMSYN082AAXX  17001 28334 41520 80702 11070 21079 39784 40095 52004 77372 8802/ 333 88520;
0195283340999992000121703004+57340+058210FM-12+024499999V0200701N002010060019N0150001N1-00681-00761100981ADDAJ100339199999999AY171031AY221031GA1081+006009029GF108991081001008001021999IA1239MD1210031+9999MW1711REMSYN082AAXX  17031 28334 /1565 80702 11068 21076 40098 52003 77172 8802/ 333 47033 88520;
0202283340999992000121706004+57340+058210FM-12+024499999V0209999C000010060019N0200001N1-00641-00721101071ADDAA112005191AY171061AY221061GA1081+006009029GF108991081001008001021999KA1120N-00771MD1210101+9999MW1711REMSYN088AAXX  17061 28334 11570 80000 11064 21072 40107 52010 60052 77172 8802/ 333 21077 88520;
0166283340999992000121709004+57340+058210FM-12+024499999V0209999C000010060019N0500001N1-00561-00701101221ADDAY171031AY221031GA1081+006009029GF108991081001008001021999MD1210161+9999MW1021REMSYN076AAXX  17091 28334 41599 80000 11056 21070 40122 52016 70272 8802/ 333 88520;
0187283340999992000121712004+57340+058210FM-12+024499999V0209999C000010060019N0200001N1-00601-00711101271ADDAY171061AY221061GA1081+006009029GF108991081001008001021999MA1999999098171MD1210041+9999MW1711REMSYN082AAXX  17121 28334 41570 80000 11060 21071 39817 40127 52004 77172 8802/ 333 88520;
0163283340999992000121715004+57340+058210FM-12+024499999V0209999C000010060019N0014001N1-00721-00741101311ADDGA1081+006009029GF108991081001008001021999KA1120M-00551MD1210041+9999REMSYN082AAXX  17151 28334 //514 80000 11072 21074 40131 52004 72272 8802/ 333 11055 88520;
0202283340999992000121718004+57340+058210FM-12+024499999V0209999C000010060019N0060001N1-00641-00761101141ADDAA112004191AY171061AY221061GA1081+006009029GF108991081001008001021999KA1120M-00551MD1810171+9999MW1711REMSYN088AAXX  17181 28334 11556 80000 11064 21076 40114 58017 60042 77172 8802/ 333 11055 88520;
0166283340999992000121721004+57340+058210FM-12+024499999V0200701N002010060019N0060001N1-00721-00851101161ADDAY171031AY221031GA1081+006009029GF108991081001008001021999MD1410001+9999MW1021REMSYN076AAXX  17211 28334 41556 80702 11072 21085 40116 54000 70272 8802/ 333 88520;
0187283340999992000121800004+57340+058210FM-12+024499999V0200701N002010060019N0500001N1-00741-00871101141ADDAY171061AY221061GA1081+006009029GF108991081001008001021999MA1999999098021MD1810021+9999MW1021REMSYN082AAXX  18001 28334 41584 80702 11074 21087 39802 40114 58002 70272 8802/ 333 88520;
0195283340999992000121803004+57340+058210FM-12+024499999V0200701N002010060019N0060001N1-00751-00881101081ADDAJ100349199999999AY171031AY221031GA1081+006009029GF108991081001008001021999IA1239MD1710061+9999MW1711REMSYN082AAXX  18031 28334 /1556 80702 11075 21088 40108 57006 77172 8802/ 333 47034 88520;
0202283340999992000121806004+57340+058210FM-12+024499999V0200901N002010060019N0060001N1-00721-00881101071ADDAA112000591AY171061AY221061GA1081+006009029GF108991081001008001021999KA1120N-00751MD1710011+9999MW1731REMSYN088AAXX  18061 28334 11556 80902 11072 21088 40107 57001 69962 77372 8802/ 333 21075 88520;
0166283340999992000121809004+57340+058210FM-12+024499999V0200901N002010060019N0020001N1-00711-00881100991ADDAY171031AY221031GA1081+006009029GF108991081001008001021999MD1710071+9999MW1731REMSYN076AAXX  18091 28334 41520 80902 11071 21088 40099 57007 77372 8802/ 333 88520;
0187283340999992000121812004+57340+058210FM-12+024499999V0200701N004010060019N0070001N1-00731-00901100921ADDAY171061AY231061GA1081+006009029GF108991081001008001021999MA1999999097811MD1710071+9999MW1711REMSYN082AAXX  18121 28334 41557 80704 11073 21090 39781 40092 57007 77173 8802/ 333 88520;
0185283340999992000121815004+57340+058210FM-12+024499999V0200701N002010060019N0020001N1-00901-01061100961ADDAY171031AY231031GA1081+006009029GF108991081001008001021999KA1120M-00701MD1310021+9999MW1731REMSYN082AAXX  18151 28334 /1520 80702 11090 21106 40096 53002 77373 8802/ 333 11070 88520;
0202283340999992000121818004+57340+058210FM-12+024499999V0200701N004010060019N0020001N1-01121-01251101081ADDAA112006191AY171061AY231061GA1081+006009029GF108991081001008001021999KA1120M-00701MD1210101+9999MW1731REMSYN088AAXX  18181 28334 11520 80704 11112 21125 40108 52010 60062 77373 8802/ 333 11070 88520;
0166283340999992000121821004+57340+058210FM-12+024499999V0200701N004010060019N0020001N1-01161-01291101151ADDAY171031AY231031GA1081+006009029GF108991081001008001021999MD1210061+9999MW1731REMSYN076AAXX  18211 28334 41520 80704 11116 21129 40115 52006 77373 8802/ 333 88520;
0187283340999992000121900004+57340+058210FM-12+024499999V02099999999990060019N0020001N1-01301-01431101301ADDAY171061AY231061GA1081+006009029GF108991081001008001021999MA1999999098111MD1210121+9999MW1731REMSYN082AAXX  19001 28334 41520 84504 11130 21143 39811 40130 52012 77373 8802/ 333 88520;
0195283340999992000121903004+57340+058210FM-12+024499999V02099999999990060019N0150001N1-01421-01621101411ADDAJ100399199999999AY171031AY231031GA1081+006009029GF108991081001008001021999IA1239MD1210101+9999MW1711REMSYN082AAXX  19031 28334 /1565 84504 11142 21162 40141 52010 77173 8802/ 333 47039 88520;
0180283340999992000121906004+57340+058210FM-12+024499999V0200701N002019999999N0200001N1-01461-01661101471ADDAA112005191AY171061AY211061GF106991001001999999001081KA1999N-01421MD1210051+9999MW1711REMSYN082AAXX  19061 28334 11970 60702 11146 21166 40147 52005 60052 77171 80008 333 21142;
0140283340999992000121909004+57340+058210FM-12+024499999V0200701N002019999999N0500001N1-01381-01651101551ADDAY171031AY221031GF107991051001999999041091MD1210081+9999MW1031REMSYN066AAXX  19091 28334 41999 70702 11138 21165 40155 52008 70372 85049;
0187283340999992000121912004+57340+058210FM-12+024499999V0209999C002010060019N0200001N1-01271-01541101601ADDAY171061AY221061GA1081+006009029GF108991081001008001021999MA1999999098401MD1210061+9999MW1701REMSYN082AAXX  19121 28334 41570 80002 11127 21154 39840 40160 52006 77072 8802/ 333 88520;
0185283340999992000121915004+57340+058210FM-12+024499999V0200701N002010060019N0500001N1-01181-01381101621ADDAY171031AY221031GA1081+006009029GF108991081001008001021999KA1120M-01121MD1210031+9999MW1021REMSYN082AAXX  19151 28334 /1584 80702 11118 21138 40162 52003 70272 8802/ 333 11112 88520;
0202283340999992000121918004+57340+058210FM-12+024499999V0209999C000010060019N0150001N1-01151-01351101621ADDAA112000591AY171061AY221061GA1081+006009029GF108991081001008001021999KA1120M-01121MD1210021+9999MW1711REMSYN088AAXX  19181 28334 11565 80000 11115 21135 40162 52002 69952 77172 8802/ 333 11112 88520;
0166283340999992000121921004+57340+058210FM-12+024499999V0209999C000010060019N0500001N1-01191-01391101651ADDAY171031AY221031GA1081+006009029GF108991081001008001021999MD1210011+9999MW1021REMSYN076AAXX  19211 28334 41584 80000 11119 21139 40165 52001 70272 8802/ 333 88520;
0187283340999992000122000004+57340+058210FM-12+024499999V0209999C000010060019N0150001N1-01171-01371101681ADDAY171061AY221061GA1081+006009029GF108991081001008001021999MA1999999098491MD1210031+9999MW1711REMSYN082AAXX  20001 28334 41565 80000 11117 21137 39849 40168 52003 77172 8802/ 333 88520;
0195283340999992000122003004+57340+058210FM-12+024499999V0209999C000010060019N0150001N1-00821-00961101621ADDAJ100409199999999AY171031AY221031GA1081+006009029GF108991081001008001021999IA1239MD1810011+9999MW1711REMSYN082AAXX  20031 28334 /1565 80000 11082 21096 40162 58001 77172 8802/ 333 47040 88520;
0202283340999992000122006004+57340+058210FM-12+024499999V0201801N002010060019N0200001N1-00471-00601101531ADDAA112000891AY171061AY221061GA1081+006009029GF108991081001008001021999KA1120N-01191MD1710041+9999MW1711REMSYN088AAXX  20061 28334 11570 81802 11047 21060 40153 57004 69972 77172 8802/ 333 21119 88520;
0166283340999992000122009004+57340+058210FM-12+024499999V0201801N002010069019N0500001N1-00281-00441101521ADDAY171031AY221031GA1061+006909069GF107991061071008001071001MD1310011+9999MW1221REMSYN076AAXX  20091 28334 41599 71802 11028 21044 40152 53001 72272 86770 333 86723;
0161283340999992000122012004+57340+058210FM-12+024499999V0201401N002019999999N0020001N1-00241-00361101381ADDAY171061AY221061GF108991081001999999021999MA1999999098311MD1810141+9999MW1731REMSYN072AAXX  20121 28334 41920 81402 11024 21036 39831 40138 58014 77372 8802/;
0185283340999992000122015004+57340+058210FM-12+024499999V0201601N002010060019N0150001N1-00231-00421101281ADDAY171031AY221031GA1081+006009029GF108991081001008001021999KA1120M-00201MD1710091+9999MW1701REMSYN082AAXX  20151 28334 /1565 81602 11023 21042 40128 57009 77072 8802/ 333 11020 88520;
0202283340999992000122018004+57340+058210FM-12+024499999V0202001N004010060019N0500001N1-00281-00621101281ADDAA112002091AY171061AY221061GA1081+006009029GF108991081001008001021999KA1120M-00201MD1410001+9999MW1021REMSYN088AAXX  20181 28334 11584 82004 11028 21062 40128 54000 60022 70272 8802/ 333 11020 88520;
0166283340999992000122021004+57340+058210FM-12+024499999V0202001N004010060019N0150001N1-00361-00611101311ADDAY171031AY221031GA1081+006009029GF108991081001008001021999MD1310021+9999MW1711REMSYN076AAXX  20211 28334 41565 82004 11036 21061 40131 53002 77172 8802/ 333 88520;
0187283340999992000122100004+57340+058210FM-12+024499999V0202301N002010060019N0500001N1-00651-00891101471ADDAY171061AY221061GA1081+006009029GF108991081001008001021999MA1999999098361MD1210121+9999MW1021REMSYN082AAXX  21001 28334 41584 82302 11065 21089 39836 40147 52012 70272 8802/ 333 88520;
0167283340999992000122103004+57340+058210FM-12+024499999V0202501N004010060019N0500001N1-00841-01071101551ADDAJ100429199999999GA1081+006009029GF108991081001008001021999IA1239MD1210051+9999REMSYN076AAXX  21031 28334 /2584 82504 11084 21107 40155 52005 8802/ 333 47042 88520;
0221283340999992000122106004+57340+058210FM-12+024499999V0209999C000010060019N0200001N1-00941-01191101691ADDAA112000591AY171061AY221061GA1081+006009029GF108991081001008001021999KA1120N+99999MD1210131+9999MW1711REMSYN088AAXX  21061 28334 11570 80000 11094 21119 40169 52013 69942 77172 8802/ 333 21084 88520;EQDQ01 -00842ATMN  
0166283340999992000122109004+57340+058210FM-12+024499999V0209999C000010060019N0500001N1-00921-01221101751ADDAY171031AY221031GA1081+006009029GF108991081001008001021999MD1210181+9999MW1221REMSYN076AAXX  21091 28334 41599 80000 11092 21122 40175 52018 72272 8802/ 333 88520;
0166283340999992000122112004+57340+058210FM-12+024499999V0209999C000010060019N0500001N1-01021-01301101811ADDAY171061AY221061GA1081+006009029GF108991081001008001021999MD1210051+9999MW1221REMSYN076AAXX  21121 28334 41599 80000 11102 21130 40181 52005 72272 8802/ 333 88520;
0185283340999992000122115004+57340+058210FM-12+024499999V0209999C000010060019N0500001N1-01061-01261101851ADDAY171031AY221031GA1081+006009029GF108991081001008001021999KA1120M-00831MD1210041+9999MW1221REMSYN082AAXX  21151 28334 /1584 80000 11106 21126 40185 52004 72272 8802/ 333 11083 88520;
0202283340999992000122118004+57340+058210FM-12+024499999V0209999C000010060019N0500001N1-01181-01451101941ADDAA112001091AY171061AY221061GA1081+006009029GF108991081001008001021999KA1120M-00831MD1210061+9999MW1021REMSYN088AAXX  21181 28334 11584 80000 11118 21145 40194 52006 60012 70272 8802/ 333 11083 88520;
0166283340999992000122121004+57340+058210FM-12+024499999V0209999C000010060019N0150001N1-01221-01421101991ADDAY171031AY221031GA1081+006009029GF108991081001008001021999MD1210051+9999MW1711REMSYN076AAXX  21211 28334 41565 80000 11122 21142 40199 52005 77172 8802/ 333 88520;
0187283340999992000122200004+57340+058210FM-12+024499999V0209999C000010060019N0150001N1-01241-01441102011ADDAY171061AY221061GA1081+006009029GF108991081001008001021999MA1999999098811MD1210021+9999MW1701REMSYN082AAXX  22001 28334 41565 80000 11124 21144 39881 40201 52002 77072 8802/ 333 88520;
0202283340999992000122206004+57340+058210FM-12+024499999V0209999C000010069019N0200001N1-01181-01241102031ADDAA112000391AY171061AY221061GA1081+006909029GF108991081001008001021999KA1120N-01271MD1310021+9999MW1711REMSYN088AAXX  22061 28334 11570 80000 11118 21124 40203 53002 69932 77172 8802/ 333 21127 88523;
0140283340999992000122209004+57340+058210FM-12+024499999V0209999C000019999999N0500001N1-01141-01201101921ADDAY171031AY221031GF108991081001999999011999MD1810091+9999MW1021REMSYN066AAXX  22091 28334 41999 80000 11114 21120 40192 58009 70272 8801/;
0187283340999992000122212004+57340+058210FM-12+024499999V0209999C000010069019N0200001N1-01151-01281101821ADDAY171061AY221061GA1051+006909029GF108991051001008001021999MA1999999098641MD1710101+9999MW1701REMSYN082AAXX  22121 28334 41570 80000 11115 21128 39864 40182 57010 77072 8502/ 333 85523;
0163283340999992000122215004+57340+058210FM-12+024499999V0209999C000019999999N0150001N1-01061-01191101471ADDAY171031AY221031GF108991081001999999021999KA1999M-01051MD1710331+9999MW1711REMSYN076AAXX  22151 28334 /1965 80000 11106 21119 40147 57033 77172 8802/ 333 11105;
0180283340999992000122218004+57340+058210FM-12+024499999V0200501N003019999999N0500001N1-01101-01301101501ADDAA112000591AY171061AY221061GF108991081001999999021999KA1999M-01051MD1310021+9999MW1021REMSYN082AAXX  22181 28334 11984 80503 11110 21130 40150 53002 69952 70272 8802/ 333 11105;
0166283340999992000122221004+57340+058210FM-12+024499999V0200501N004010060019N0150001N1-01421-01621101291ADDAY171031AY231031GA1081+006009029GF108991081001008001021999MD1810241+9999MW1711REMSYN076AAXX  22211 28334 41565 80504 11142 21162 40129 58024 77173 8802/ 333 88520;
0187283340999992000122300004+57340+058210FM-12+024499999V0200501N006010060019N0060001N1-01741-01931100851ADDAY171061AY231061GA1081+006009029GF108991081001008001021999MA1999999097631MD1710461+9999MW1711REMSYN082AAXX  23001 28334 41556 80506 11174 21193 39763 40085 57046 77173 8802/ 333 88520;
0195283340999992000122303004+57340+058210FM-12+024499999V0200501N006010060019N0060001N1-01801-01991100761ADDAJ100459199999999AY171031AY231031GA1081+006009029GF108991081001008001021999IA1239MD1710101+9999MW1711REMSYN082AAXX  23031 28334 /1556 80506 11180 21199 40076 57010 77173 8802/ 333 47045 88520;
0221283340999992000122306004+57340+058210FM-12+024499999V0200701N004010060019N0200001N1-02091-02421100651ADDAA112002091AY171061AY231061GA1081+006009029GF108991081001008001021999KA1120N+99999MD1710151+9999MW1711REMSYN088AAXX  23061 28334 11570 80704 11209 21242 40065 57015 60022 77173 8802/ 333 21180 88520;EQDQ01 -01802ATMN  
0140283340999992000122309004+57340+058210FM-12+024499999V0200501N002010075019N0200001N1-02111-02441100591ADDAY171031AY231031GF108991081001008001021999MD1710051+9999MW1711REMSYN066AAXX  23091 28334 41570 80502 11211 21244 40059 57005 77173 8802/;
0161283340999992000122312004+57340+058210FM-12+024499999V0209999C000019999999N0500001N1-02141-02471100641ADDAY171061AY221061GF108991061001999999021071MA1999999097371MD1310041+9999MW1021REMSYN072AAXX  23121 28334 41999 80000 11214 21247 39737 40064 53004 70272 86027;
0163283340999992000122315004+57340+058210FM-12+024499999V0200501N002019999999N0150001N1-02081-02331100691ADDAY171031AY221031GF108991081001999999011999KA1999M-01791MD1210051+9999MW1701REMSYN076AAXX  23151 28334 /1965 80502 11208 21233 40069 52005 77072 8801/ 333 11179;
0180283340999992000122318004+57340+058210FM-12+024499999V0200501N002019999999N0150001N1-01911-02171100741ADDAA112002091AY171061AY221061GF108991081001999999011999KA1999M-01791MD1210081+9999MW1701REMSYN082AAXX  23181 28334 11965 80502 11191 21217 40074 52008 60022 77072 8801/ 333 11179;
0140283340999992000122321004+57340+058210FM-12+024499999V0200501N004019999999N0150001N1-01961-02221100861ADDAY171031AY221031GF108991081001999999011999MD1210101+9999MW1701REMSYN066AAXX  23211 28334 41965 80504 11196 21222 40086 52010 77072 8801/;
0180283340999992000122400004+57340+058210FM-12+024499999V0202301N004019999999N0150001N1+99999-02021100861ADDAY171061AY221061GF108991081001999999021999MA1999999097631MD1210031+9999MW1701REMSYN072AAXX  24001 28334 41965 82304 10183 21202 39763 40086 52003 77072 8802/;EQDQ01+001833ATOT  
0173283340999992000122403004+57340+058210FM-12+024499999V0202301N002019999999N0150001N1-01841-02101100861ADDAJ100459199999999AY171031AY221031GF108991081001999999021999IA1239MD1410001+9999MW1701REMSYN076AAXX  24031 28334 /1965 82302 11184 21210 40086 54000 77072 8802/ 333 47045;
0180283340999992000122406004+57340+058210FM-12+024499999V0201801N001019999999N0200001N1-01791-02051100861ADDAA112001091AY171061AY221061GF108991081001999999071001KA1999N-02081MD1410001+9999MW1701REMSYN082AAXX  24061 28334 11970 81801 11179 21205 40086 54000 69992 77072 88070 333 21208;
0134283340999992000122409004+57340+058210FM-12+024499999V0209999C000019999999N0060001N1-01661-01921100761ADDAY171031AY201031GF107991999999999999999999MD1810091+9999MW1701REMSYN060AAXX  24091 28334 41956 70000 11166 21192 40076 58009 77070;
0160283340999992000122412004+57340+058210FM-12+024499999V0209999C000010300019N0060001N1-01691-01881100731ADDAY171061AY221061GF107991031061008001081081MA1999999097511MD1710031+9999MW1771REMSYN071AAXX  24121 28334 41556 70000 11169 2118839751 40073 57003 77772 83688;
0173283340999992000122415004+57340+058210FM-12+024499999V0209999C000012200019N0500001N1-02051-02241100831ADDAY171031AY211031GA1001+999999999GF100991001001999999001001KA1999M-01581MD1310061+9999MW1011REMSYN070AAXX  24151 28334 /1984 00000 11205 21224 40083 53006 70171 333 11158;
0190283340999992000122418004+57340+058210FM-12+024499999V0209999C000012200019N0060001N1-02401-02651101041ADDAA112000591AY101061AY201061GA1001+999999999GF100991001001999999001001KA1999M-01581MD1210151+9999MW1101REMSYN076AAXX  24181 28334 11956 00000 11240 21265 40104 52015 69962 71000 333 11158;
0166283340999992000122421004+57340+058210FM-12+024499999V0209999C000010060019N0060001N1-02471-02711101151ADDAY101031AY211031GA1081+006009029GF108991081001008001021999MD1210101+9999MW1101REMSYN076AAXX  24211 28334 41556 80000 11247 21271 40115 52010 71001 8802/ 333 88520;
0161283340999992000122500004+57340+058210FM-12+024499999V0201801N001012200019N0060001N1-02201-02451101111ADDAY171061AY211061GF104991001001999999001051MA1999999097821MD1410001+9999MW1701REMSYN072AAXX  25001 28334 41956 41801 11220 21245 39782 40111 54000 77071 80005;
0173283340999992000122503004+57340+058210FM-12+024499999V0201401N001019999999N0060001N1-02071-02261101011ADDAJ100459199999999AY171031AY221031GF108991081001999999021999IA1239MD1810091+9999MW1711REMSYN076AAXX  25031 28334 /1956 81401 11207 21226 40101 58009 77172 8802/ 333 47045;
0180283340999992000122506004+57340+058210FM-12+024499999V0209999C000019999999N0500001N1-02101-02281101081ADDAA112000391AY171061AY221061GF108991081001999999021999KA1999N-02471MD1310071+9999MW1021REMSYN082AAXX  25061 28334 /1999 80000 11210 21228 40108 53007 69932 70272 8802/ 333 21247;
0112283340999992000122509004+57340+058210FM-12+024499999V0209999C000019999999N0500001N1-01841-02031101001ADDGF106991001001999999001021MD1810041+9999REMSYN060AAXX  25091 28334 42999 60000 11184 21203 40100 58004 80002;
0187283340999992000122512004+57340+058210FM-12+024499999V0209999C000010060019N0200001N1-01801-01991100981ADDAY171061AY221061GA1081+006009029GF108991081001008001021999MA1999999097741MD1710021+9999MW1711REMSYN082AAXX  25121 28334 41570 80000 11180 21199 39774 40098 57002 77172 8802/ 333 88520;
0185283340999992000122515004+57340+058210FM-12+024499999V0209999C000010060019N0150001N1-01741-01931100901ADDAY171031AY221031GA1081+006009029GF108991081001008001021999KA1120M-01731MD1710071+9999MW1711REMSYN082AAXX  25151 28334 /1565 80000 11174 21193 40090 57007 77172 8802/ 333 11173 88520;
0180283340999992000122518004+57340+058210FM-12+024499999V0209999C000019999999N0500001N1-01831-02021100911ADDAA112001091AY171061AY221061GF108991001001999999001071KA1999M-01731MD1410001+9999MW1021REMSYN082AAXX  25181 28334 11984 80000 11183 21202 40091 54000 60012 70272 80007 333 11173;
0140283340999992000122521004+57340+058210FM-12+024499999V0209999C000019999999N0150001N1-01841-02031100821ADDAY171031AY221031GF108991081001999999021999MD1810081+9999MW1701REMSYN066AAXX  25211 28334 41965 80000 11184 21203 40082 58008 77072 8802/;
0161283340999992000122600004+57340+058210FM-12+024499999V0209999C000019999999N0150001N1-01611-01801100881ADDAY171061AY221061GF107991071001999999011001MA1999999097661MD1310071+9999MW1711REMSYN072AAXX  26001 28334 41965 70000 11161 21180 39766 40088 53007 77172 87010;
0173283340999992000122603004+57340+058210FM-12+024499999V0209999C000019999999N0150001N1-01711-01901101051ADDAJ100469199999999AY171031AY221031GF107991071001999999011001IA1239MD1210161+9999MW1711REMSYN076AAXX  26031 28334 /1965 70000 11171 21190 40105 52016 77172 87010 333 47046;
0140283340999992000122609004+57340+058210FM-12+024499999V0209999C000019999999N0500001N1-01671-01861101291ADDAY171031AY221031GF108991081001999999011999MD1210061+9999MW1221REMSYN066AAXX  26091 28334 41999 80000 11167 21186 40129 52006 72272 8801/;
0187283340999992000122612004+57340+058210FM-12+024499999V0209999C000010069019N0200001N1-01641-01831101401ADDAY171061AY221061GA1081+006909029GF108991081001008001021999MA1999999098171MD1210121+9999MW1711REMSYN082AAXX  26121 28334 41570 80000 11164 21183 39817 40140 52012 77172 8802/ 333 88523;
0185283340999992000122615004+57340+058210FM-12+024499999V0209999C000010060019N0150001N1-01681-01871101511ADDAY171031AY221031GA1081+006009029GF108991081001008001021999KA1120M-01631MD1210091+9999MW1701REMSYN082AAXX  26151 28334 /1565 80000 11168 21187 40151 52009 77072 8802/ 333 11163 88520;
0221283340999992000122618004+57340+058210FM-12+024499999V0209999C000010060019N0150001N1-01241-01371101501ADDAA112001091AY171061AY221061GA1081+006009029GF108991081001008001021999KA1120M+99999MD1210051+9999MW1701REMSYN088AAXX  26181 28334 11565 80000 11124 21137 40150 52005 60012 77072 8802/ 333 11163 88520;EQDQ01 -01632ATMX  
0166283340999992000122621004+57340+058210FM-12+024499999V0209999C000010060019N0500001N1-01201-01331101581ADDAY171031AY221031GA1081+006009029GF108991081001008001021999MD1210081+9999MW1021REMSYN076AAXX  26211 28334 41584 80000 11120 21133 40158 52008 70272 8802/ 333 88520;
0187283340999992000122700004+57340+058210FM-12+024499999V0209999C000010060019N0500001N1-01461-01661101581ADDAY171061AY221061GA1081+006009029GF108991081001008001021999MA1999999098371MD1810021+9999MW1021REMSYN082AAXX  27001 28334 41584 80000 11146 21166 39837 40158 58002 70272 8802/ 333 88520;
0195283340999992000122703004+57340+058210FM-12+024499999V0209999C000010060019N0500001N1-01001-01201101471ADDAJ100479199999999AY171031AY221031GA1081+006009029GF108991081001008001021999IA1239MD1710061+9999MW1021REMSYN082AAXX  27031 28334 /1584 80000 11100 21120 40147 57006 70272 8802/ 333 47047 88520;
0180283340999992000122706004+57340+058210FM-12+024499999V0209999C000019999999N0060001N1-01151-01281101311ADDAA112000591AY171061AY221061GF107991061001999999021021KA1999N-01681MD1710161+9999MW1701REMSYN082AAXX  27061 28334 11956 70000 11115 21128 40131 57016 69962 77072 86022 333 21168;
0140283340999992000122709004+57340+058210FM-12+024499999V0209999C000019999999N0200001N1-01141-01271101321ADDAY171031AY221031GF108991071001999999011081MD1310071+9999MW1711REMSYN066AAXX  27091 28334 41970 80000 11114 21127 40132 53007 77172 87018;
0161283340999992000122712004+57340+058210FM-12+024499999V0209999C000019999999N0500001N1-01281-01411101431ADDAY171061AY221061GF106991021001999999031081MA1999999098241MD1210081+9999MW1011REMSYN072AAXX  27121 28334 41999 60000 11128 21141 39824 40143 52008 70172 82038;
0163283340999992000122715004+57340+058210FM-12+024499999V0209999C000012200019N0150001N1-01681-01871101661ADDAY171031AY211031GF102991001001999999001081KA1999M-00991MD1210171+9999MW1701REMSYN076AAXX  27151 28334 /1965 20000 11168 21187 40166 52017 77071 80008 333 11099;
0202283340999992000122718004+57340+058210FM-12+024499999V0209999C000010060019N0150001N1-01731-01921101881ADDAA112000191AY171061AY211061GA1081+006009029GF108991081001008001021999KA1120M-00991MD1210211+9999MW1711REMSYN088AAXX  27181 28334 11565 80000 11173 21192 40188 52021 69922 77171 8802/ 333 11099 88520;
0166283340999992000122721004+57340+058210FM-12+024499999V0209999C000010060019N0500001N1-02091-02281102101ADDAY171031AY221031GA1081+006009029GF108991081001008001021999MD1210171+9999MW1021REMSYN076AAXX  27211 28334 41584 80000 11209 21228 40210 52017 70272 8802/ 333 88520;
0187283340999992000122800004+57340+058210FM-12+024499999V0209999C000010060019N0150001N1-01871-02061102261ADDAY171061AY221061GA1081+006009029GF108991081001008001021999MA1999999098971MD1210181+9999MW1701REMSYN082AAXX  28001 28334 41565 80000 11187 21206 39897 40226 52018 77072 8802/ 333 88520;
0195283340999992000122803004+57340+058210FM-12+024499999V0209999C000010060019N0500001N1-01681-01871102351ADDAJ100489199999999AY171031AY221031GA1081+006009029GF108991081001008001021999IA1239MD1210111+9999MW1021REMSYN082AAXX  28031 28334 /1584 80000 11168 21187 40235 52011 70272 8802/ 333 47048 88520;
0202283340999992000122806004+57340+058210FM-12+024499999V0209999C000010060019N0200001N1-01661-01851102401ADDAA112000391AY171061AY221061GA1081+006009029GF108991081001008001021999KA1120N-02101MD1210051+9999MW1711REMSYN088AAXX  28061 28334 11570 80000 11166 21185 40240 52005 69932 77172 8802/ 333 21210 88520;
0161283340999992000122812004+57340+058210FM-12+024499999V0209999C000019999999N0500001N1-01861-02051102381ADDAY171061AY221061GF108991001001999999001091MA1999999099091MD1810041+9999MW1031REMSYN072AAXX  28121 28334 41999 80000 11186 21205 39909 40238 58004 70372 80009;
0152283340999992000122818004+57340+058210FM-12+024499999V0200501N001019999999N0500001N1-01991-02251102391ADDAA112000791GF108991001001999999001071KA1999M-01651MD1810011+9999REMSYN076AAXX  28181 28334 12984 80501 11199 21225 40239 58001 69902 80007 333 11165;
0112283340999992000122821004+57340+058210FM-12+024499999V0200501N001019999999N0500001N1-01881-02141102411ADDGF108991001001999999001071MD1310041+9999REMSYN060AAXX  28211 28334 42984 80501 11188 21214 40241 53004 80007;
0143283340999992000122900004+57340+058210FM-12+024499999V0200501N001012200019N0500001N1-02151-02471102401ADDGA1001+999999999GF100991001001999999001001MA1999999099081MD1810041+9999REMSYN060AAXX  29001 28334 42984 00501 11215 21247 39908 40240 58004;
0175283340999992000122903004+57340+058210FM-12+024499999V0200501N001019999999N0500001N1-02371-02611102511ADDAA199000091AJ100479199999999GF108991001001999999001071IA1239MD1310071+9999REMSYN070AAXX  29031 28334 32984 80501 11237 21261 40251 53007 80007 333 47047;EQDQ01  00002PRCP99
0165283340999992000122906004+57340+058210FM-12+024499999V0209999C000019999999N0500001N1-02381-02631102671ADDAA199000091GF105991051001999999041011KA1999N-02391MD1210101+9999REMSYN070AAXX  29061 28334 32999 50000 11238 21263 40267 52010 85041 333 21239;EQDQ01  00002PRCP99
0112283340999992000122909004+57340+058210FM-12+024499999V0209999C000012200019N0500001N1-02021-02281102601ADDGF102991001001999999001021MD1210031+9999REMSYN060AAXX  29091 28334 42999 20000 11202 21228 40260 52003 80002;
0133283340999992000122912004+57340+058210FM-12+024499999V0209999C000012200019N0500001N1-02001-02261102761ADDGF102991001001999999001021MA1999999099441MD1210161+9999REMSYN066AAXX  29121 28334 42999 20000 11200 21226 39944 40276 52016 80002;
0165283340999992000122915004+57340+058210FM-12+024499999V0209999C000012200019N0500001N1-02261-02441102961ADDAA199000091GF102991001001999999001021KA1999M-01991MD1210151+9999REMSYN070AAXX  29151 28334 32984 20000 11226 21244 40296 52015 80002 333 11199;EQDQ01  00002PRCP99
0175283340999992000122918004+57340+058210FM-12+024499999V0209999C000012200019N0500001N1-02821-03061102951ADDAA199000091GA1001+999999999GF100991001001999999001001KA1999M-01991MD1810081+9999REMSYN064AAXX  29181 28334 32984 00000 11282 21306 40295 58008 333 11199;EQDQ01  00002PRCP99
0122283340999992000122921004+57340+058210FM-12+024499999V0209999C000012200019N0500001N1-02791-03031102901ADDGA1001+999999999GF100991001001999999001001MD1710051+9999REMSYN054AAXX  29211 28334 42984 00000 11279 21303 40290 57005;
0159283340999992000123000004+57340+058210FM-12+024499999V0209999C000010069019N0500001N1-02701-02941102771ADDGA1081+006909029GF108991081001008001021999MA1999999099361MD1710101+9999REMSYN076AAXX  30001 28334 42584 80000 11270 21294 39936 40277 57010 8802/ 333 88523;
0197283340999992000123003004+57340+058210FM-12+024499999V0209999C000010069019N0500001N1-02081-02331102461ADDAA199000091AJ100469199999999GA1081+006909029GF108991081001008001021999IA1239MD1710221+9999REMSYN076AAXX  30031 28334 32584 80000 11208 21233 40246 57022 8802/ 333 47046 88523;EQDQ01  00002PRCP99
0196283340999992000123006004+57340+058210FM-12+024499999V0209999C000010069019N0200001N1-01641-01831102221ADDAA199000021AY171061AY221061GA1081+006909029GF108991081001008001021999KA1120N-02871MD1710181+9999MW1701REMSYN082AAXX  30061 28334 31570 80000 11164 21183 40222 57018 77072 8802/ 333 21287 88523;
0166283340999992000123009004+57340+058210FM-12+024499999V0209999C000010069019N0060001N1-01181-01381102041ADDAY171031AY221031GA1081+006909029GF108991081001008001021999MD1710121+9999MW1731REMSYN076AAXX  30091 28334 41556 80000 11118 21138 40204 57012 77372 8802/ 333 88523;
0187283340999992000123012004+57340+058210FM-12+024499999V0209999C000010069019N0060001N1-00921-01121101961ADDAY171061AY221061GA1081+006909029GF108991081001008001021999MA1999999098791MD1710051+9999MW1711REMSYN082AAXX  30121 28334 41556 80000 11092 21112 39879 40196 57005 77172 8802/ 333 88523;
0185283340999992000123015004+57340+058210FM-12+024499999V0200501N003010069019N0020001N1-01201-01331102141ADDAY171031AY221031GA1081+006909029GF108991081001008001021999KA1120M-00911MD1310151+9999MW1731REMSYN082AAXX  30151 28334 /1520 80503 11120 21133 40214 53015 77372 8802/ 333 11091 88523;
0202283340999992000123018004+57340+058210FM-12+024499999V0200501N003010060019N0020001N1-01361-01561102371ADDAA112002091AY171061AY221061GA1081+006009029GF108991081001008001021999KA1120M-00911MD1210211+9999MW1731REMSYN088AAXX  30181 28334 11520 80503 11136 21156 40237 52021 60022 77372 8802/ 333 11091 88520;
0166283340999992000123021004+57340+058210FM-12+024499999V0200501N009010060019N0150001N1-01421-01621102421ADDAY171031AY221031GA1081+006009029GF108991081001008001021999MD1210031+9999MW1711REMSYN076AAXX  30211 28334 41565 80509 11142 21162 40242 52003 77172 8802/ 333 88520;
0187283340999992000123100004+57340+058210FM-12+024499999V0209999C000010060019N0150001N1-01401-01601102451ADDAY171061AY221061GA1081+006009029GF108991081001008001021999MA1999999099211MD1210031+9999MW1711REMSYN082AAXX  31001 28334 41565 80000 11140 21160 39921 40245 52003 77172 8802/ 333 88520;
0195283340999992000123103004+57340+058210FM-12+024499999V0209999C000010060019N0060001N1-01281-01481102301ADDAJ100499199999999AY171031AY221031GA1081+006009029GF108991081001008001021999IA1239MD1810131+9999MW1101REMSYN082AAXX  31031 28334 /1556 80000 11128 21148 40230 58013 71072 8802/ 333 47049 88520;
0202283340999992000123106004+57340+058210FM-12+024499999V0200701N001010060019N0060001N1-01101-01231102251ADDAA112003091AY171061AY221061GA1081+006009029GF108991081001008001021999KA1120N-01421MD1710021+9999MW1101REMSYN088AAXX  31061 28334 11556 80701 11110 21123 40225 57002 60032 71072 8802/ 333 21142 88520;
0166283340999992000123109004+57340+058210FM-12+024499999V0209999C000010060019N0020001N1-00911-00981102191ADDAY171031AY221031GA1081+006009029GF108991081001008001011999MD1710041+9999MW1731REMSYN076AAXX  31091 28334 41520 80000 11091 21098 40219 57004 77372 8801/ 333 88520;
0187283340999992000123112004+57340+058210FM-12+024499999V0200701N001010060019N0500001N1-00891-00961102111ADDAY171061AY221061GA1081+006009029GF108991081001008001021999MA1999999098941MD1710081+9999MW1101REMSYN082AAXX  31121 28334 41599 80701 11089 21096 39894 40211 57008 71072 8802/ 333 88520;
0135283340999992000123115004+57340+058210FM-12+024499999V0200701N001019999999N0500001N1-00881-00951102041ADDGF108991081001999999011999KA1999M-00841MD1710071+9999REMSYN070AAXX  31151 28334 /2984 80701 11088 21095 40204 57007 8801/ 333 11084;
0171283340999992000123118004+57340+058210FM-12+024499999V0200701N001019999999N0500001N1-00761-00851101941ADDAA112002091GF107991071001999999011001KA1999M+99999MD1710061+9999REMSYN076AAXX  31181 28334 12984 70701 11076 21085 40194 57006 60022 87010 333 11084;EQDQ01 -00842ATMX  
0112283340999992000123121004+57340+058210FM-12+024499999V0200701N001019999999N0500001N1-00751-00841101871ADDGF107991071001999999011001MD1710061+9999REMSYN060AAXX  31211 28334 42984 70701 11075 21084 40187 57006 87010;
