0269313000999992000010100004+53750+127230FM-12+023299999V0209999C000012200019N0200001N1-03671-03911104291ADDAA106000091AJ100219199999999AY101061AY201061GA1001+999999999GF100991001001999999001001IA1239KA1120N-03711MA1999999100901MD1310031+9999MW1401REMSYN098AAXX  01001 31300 31998 00000 11367 21391 30090 40429 53003 74000 333 21371 47021 555 1/138 7000/;EQDQ01  00002PRCP06
0122313000999992000010103004+53750+127230FM-12+023299999V0209999C000012200019N0500001N1-03161-03381104221ADDGA1001+999999999GF100991001001999999001001MD1410001+9999REMSYN054AAXX  01031 31300 42999 00000 11316 21338 40422 54000;
0122313000999992000010106004+53750+127230FM-12+023299999V0209999C000012200019N0500001N1-02951-03191104091ADDGA1001+999999999GF100991001001999999001001MD1810111+9999REMSYN054AAXX  01061 31300 42999 00000 11295 21319 40409 58011;
0122313000999992000010109004+53750+127230FM-12+023299999V0209999C000012200019N0500001N1-03131-03361104071ADDGA1001+999999999GF100991001001999999001001MD1610031+9999REMSYN054AAXX  01091 31300 42984 00000 11313 21336 40407 56003;
0224313000999992000010112004+53750+127230FM-12+023299999V0209999C000012200019N0500001N1-03441-03671104051ADDAA106000091AY101061AY201061GA1001+999999999GF100991001001999999001001KA1999M-02941MA1999999100701MD1810091+9999MW1401REMSYN076AAXX  01121 31300 31984 00000 11344 21367 30070 40405 58009 74000 333 11294;EQDQ01  00002PRCP06
0150313000999992000010115004+53750+127230FM-12+023299999V0209999C000012200019N0500001N1-03471-03701103971ADDAY101031AY201031GA1001+999999999GF100991001001999999001001MD1710091+9999MW1401REMSYN060AAXX  01151 31300 41984 00000 11347 21370 40397 57009 74000;
0150313000999992000010118004+53750+127230FM-12+023299999V0200401N001012200019N0500001N1-03401-03611103751ADDAY101061AY201061GA1001+999999999GF100991001001999999001001MD1710201+9999MW1401REMSYN060AAXX  01181 31300 41984 00401 11340 21361 40375 57020 74000;
0144313000999992000010121004+53750+127230FM-12+023299999V0209999C000012200019N0100001N1-03481+99999103691ADDAY101031AY201031GA1001+999999999GF100991001001999999001001MD1710071+9999MW1401REMSYN054AAXX  01211 31300 41960 00000 11348 40369 57007 74000;
0269313000999992000010200004+53750+127230FM-12+023299999V0209999C000012200019N0200001N1-03451-03671103561ADDAA106000091AJ100219199999999AY101061AY201061GA1001+999999999GF100991001001999999001001IA1239KA1120N-03531MA1999999100211MD1710131+9999MW1401REMSYN098AAXX  02001 31300 31998 00000 11345 21367 30021 40356 57013 74000 333 21353 47021 555 1/136 7000/;EQDQ01  00002PRCP06
0122313000999992000010203004+53750+127230FM-12+023299999V0202001N001012200019N0500001N1-03011-03251103291ADDGA1001+999999999GF100991001001999999001001MD1710191+9999REMSYN054AAXX  02031 31300 42999 02001 11301 21325 40329 57019;
0112313000999992000010206004+53750+127230FM-12+023299999V0202201N001019999999N0500001N1-02791-03031103081ADDGF106991001001999999001021MD1710181+9999REMSYN060AAXX  02061 31300 42999 62201 11279 21303 40308 57018 80002;
0112313000999992000010209004+53750+127230FM-12+023299999V0202201N001019999999N0500001N1-02681-02931102961ADDGF108991001001999999001071MD1610101+9999REMSYN060AAXX  02091 31300 42984 82201 11268 21293 40296 56010 80007;
0196313000999992000010212004+53750+127230FM-12+023299999V0201801N001019999999N0500001N1-02191-02371102701ADDAA106000091GF108991001001999999001071KA1120M-02191MA1999999099551MD1810101+9999REMSYN086AAXX  02121 31300 32984 81801 11219 21237 39955 40270 5801/ 80007 333 11219 555 19120;EQDQ01  00002PRCP06
0140313000999992000010215004+53750+127230FM-12+023299999V0200601N001019999999N0170001N1-01971-02161102461ADDAY171031AY221031GF108991081001999999021999MD1710211+9999MW1711REMSYN066AAXX  02151 31300 41967 80601 11197 21216 40246 57021 77172 8802/;
0140313000999992000010218004+53750+127230FM-12+023299999V0209999C000019999999N0200001N1-01891-02081102361ADDAY171061AY221061GF108991081001999999021999MD1710081+9999MW1711REMSYN066AAXX  02181 31300 41970 80000 11189 21208 40236 57008 77172 8802/;
0140313000999992000010221004+53750+127230FM-12+023299999V0200401N003019999999N0110001N1-01621-01651102241ADDAY171031AY221031GF108991021001999999021999MD1710091+9999MW1711REMSYN066AAXX  02211 31300 41961 80403 11162 21165 40224 57009 77172 8202/;
0246313000999992000010300004+53750+127230FM-12+023299999V0200401N003019999999N0040001N1-01541-01671102191ADDAA112002091AJ100239199999999AY171061AY221061GF108991081001999999021999IA1239KA1120N-02201MA1999999099141MD1610031+9999MW1731REMSYN110AAXX  03001 31300 11996 80403 11154 21167 39914 40219 56003 60022 77372 8802/ 333 21220 47023 555 1/116 7002/;
0140313000999992000010303004+53750+127230FM-12+023299999V0200501N003019999999N0020001N1-01291-01421102201ADDAY171031AY221031GF108991081001999999021999MD1310031+9999MW1731REMSYN066AAXX  03031 31300 41995 80503 11129 21142 40220 53003 77372 8802/;
0140313000999992000010306004+53750+127230FM-12+023299999V0200601N002019999999N0040001N1-01261-01391102241ADDAY171061AY221061GF108991081001999999021999MD1110031+9999MW1731REMSYN066AAXX  03061 31300 41996 80602 11126 21139 40224 51003 77372 8802/;
0140313000999992000010309004+53750+127230FM-12+023299999V0200601N002019999999N0060001N1-01231-01361102391ADDAY171031AY221031GF108991081001999999011999MD1210171+9999MW1711REMSYN066AAXX  03091 31300 41956 80602 11123 21136 40239 52017 77172 8801/;
0201313000999992000010312004+53750+127230FM-12+023299999V0202201N001019999999N0100001N1-01411-01541102581ADDAA112005191AY171061AY221061GF108991081001999999021999KA1999M-01191MA1999999099551MD1210161+9999MW1711REMSYN088AAXX  03121 31300 11960 82201 11141 21154 39955 40258 52016 60052 77172 8802/ 333 11119;
0140313000999992000010315004+53750+127230FM-12+023299999V0209999C000019999999N0110001N1-01681-01811102791ADDAY171031AY221031GF108991081001999999021999MD1210171+9999MW1711REMSYN066AAXX  03151 31300 41961 80000 11168 21181 40279 52017 77172 8802/;
0140313000999992000010318004+53750+127230FM-12+023299999V0209999C000019999999N0150001N1-01731-01921102891ADDAY171061AY221061GF108991081001999999021999MD1110091+9999MW1711REMSYN066AAXX  03181 31300 41965 80000 11173 21192 40289 51009 77172 8802/;
0140313000999992000010321004+53750+127230FM-12+023299999V0209999C000019999999N0250001N1-01811-01931103021ADDAY171031AY221031GF108991081001999999021999MD1310121+9999MW1711REMSYN066AAXX  03211 31300 41975 80000 11181 21193 40302 53012 77172 8802/;
0246313000999992000010400004+53750+127230FM-12+023299999V0209999C000019999999N0200001N1-02221-02331103221ADDAA112002091AJ100299199999999AY171061AY221061GF108991081001999999021999IA1239KA1120N-02221MA1999999100051MD1210141+9999MW1711REMSYN110AAXX  04001 31300 11998 80000 11222 21233 30005 40322 52014 60022 77172 8802/ 333 21222 47029 555 1/127 7007/;
0140313000999992000010403004+53750+127230FM-12+023299999V0209999C000019999999N0500001N1-02021-02211103301ADDAY171031AY221031GF108991001001999999001071MD1210101+9999MW1021REMSYN066AAXX  04031 31300 41999 80000 11202 21221 40330 52010 70272 80007;
0140313000999992000010406004+53750+127230FM-12+023299999V0209999C000019999999N0500001N1-01911-02101103291ADDAY171061AY221061GF108991081001999999071999MD1110011+9999MW1021REMSYN066AAXX  04061 31300 41999 80000 11191 21210 40329 51001 70272 8807/;
0140313000999992000010409004+53750+127230FM-12+023299999V0209999C000019999999N0500001N1-02021-02211103351ADDAY171031AY221031GF108991001001999999001071MD1310041+9999MW1021REMSYN066AAXX  04091 31300 41984 80000 11202 21221 40335 53004 70272 80007;
0201313000999992000010412004+53750+127230FM-12+023299999V0209999C000019999999N0190001N1-02191-02371103421ADDAA112000591AY171061AY221061GF108991001001999999001071KA1999M-01801MA1999999100251MD1210051+9999MW1711REMSYN088AAXX  04121 31300 11969 80000 11219 21237 30025 40342 52005 69962 77172 80007 333 11180;
0159313000999992000010415004+53750+127230FM-12+023299999V0202201N001019999999N0220001N1-02261-02441999999ADDAY171031AY221031GF108991001001999999001071MD1810011+9999MW1711REMSYN066AAXX  04151 31300 41972 82201 11226 21244 40239 58001 77172 80007;EQDQ01+102393APOSLP
0137313000999992000010418004+53750+127230FM-12+023299999V0203501N001019999999N0005001N1-02131-02311103391ADDGF108991001001999999001071MD1610011+9999REMSYN066AAXX  04181 31300 4/605 83501 11213 21231 40339 56001 77172 80007;EQDQ01+012502SCOLCB
0140313000999992000010421004+53750+127230FM-12+023299999V0209999C000019999999N0190001N1-02391-02571103431ADDAY171031AY221031GF108991001001999999001051MD1410001+9999MW1711REMSYN066AAXX  04211 31300 41969 80000 11239 21257 40343 54000 77172 80005;
0213313000999992000010500004+53750+127230FM-12+023299999V0209999C000019999999N0200001N1-02391-02571103481ADDAA112000591AY171061AY221061GF108991031001999999031071IA1239KA1120N-02421MA1999999100281MD1310051+9999MW1711REMSYN094AAXX  05001 31300 11998 80000 11239 21257 30028 40348 53005 69942 77172 83037 333 21242 47029;
0140313000999992000010503004+53750+127230FM-12+023299999V0209999C000019999999N0100001N1-02161-02341103401ADDAY171031AY221031GF108991041001999999071071MD1810051+9999MW1711REMSYN066AAXX  05031 31300 41997 80000 11216 21234 40340 58005 77172 84077;
0140313000999992000010506004+53750+127230FM-12+023299999V0200901N001019999999N0200001N1-01911-02171103291ADDAY171061AY221061GF108991031001999999031071MD1710071+9999MW1711REMSYN066AAXX  05061 31300 41998 80901 11191 21217 40329 57007 77172 83037;
0140313000999992000010509004+53750+127230FM-12+023299999V0209999C000019999999N0500001N1-02301-02491103341ADDAY171031AY221031GF108991001001999999001011MD1410001+9999MW1021REMSYN066AAXX  05091 31300 41984 80000 11230 21249 40334 54000 70272 80001;
0198313000999992000010512004+53750+127230FM-12+023299999V0209999C000019999999N0500001N1-02091-02281103301ADDAA112000191AY171061AY221061GF108991051001999999031071MA1999999100141MD1810021+9999MW1021REMSYN098AAXX  05121 31300 11984 80000 11209 21228 30014 40330 58002 69922 70272 85037 333 1189/ 555 1/120;
0112313000999992000010515004+53750+127230FM-12+023299999V0202601N001019999999N0500001N1-01991-02181103161ADDGF108991081001999999071999MD1710121+9999REMSYN060AAXX  05151 31300 42984 82601 11199 21218 40316 57012 8807/;
0140313000999992000010521004+53750+127230FM-12+023299999V0200601N001019999999N0160001N1-01461-01661102961ADDAY171031AY221031GF108991081001999999021999MD1810101+9999MW1711REMSYN066AAXX  05211 31300 41966 80601 11146 21166 40296 58010 77172 8802/;
0140313000999992000010603004+53750+127230FM-12+023299999V0200301N003019999999N0500001N1-01171-01521102691ADDAY171031AY221031GF108991081001999999021999MD1710111+9999MW1021REMSYN066AAXX  06031 31300 41999 80303 11117 21152 40269 57011 70272 8802/;
0140313000999992000010606004+53750+127230FM-12+023299999V0200101N004019999999N0500001N1-01111-01551102381ADDAY171061AY221061GF108991031001999999031071MD1810291+9999MW1021REMSYN066AAXX  06061 31300 41999 80104 11111 21155 40238 58029 70272 83037;
0112313000999992000010609004+53750+127230FM-12+023299999V0200101N003019999999N0500001N1-01111-01471102081ADDGF108991041001999999031071MD1710291+9999REMSYN060AAXX  06091 31300 42984 80103 11111 21147 40208 57029 84037;
0245313000999992000010612004+53750+127230FM-12+023299999V0200301N005019999999N0170001N1-01011-01371101801ADDAA112000191AY131061AY221061GF108991081001999999021999KA1120M-01001MA1999999098821MD1710261+9999MW1361OA140101001OA249901401REMSYN110AAXX  06121 31300 11967 80305 11101 21137 39882 40180 57026 69922 73632 8802/ 333 11100 91010 91114 555 1/111;
0156313000999992000010615004+53750+127230FM-12+023299999V0200201N005019999999N0080001N1-00911-01301101541ADDAY171031AY231031GF108991081001999999021999MD1710251+9999MW1711REMSYN082AAXX  06151 31300 41958 80205 11091 21130 40154 57025 77173 8802/ 333 91011 91013;
0167313000999992000010621004+53750+127230FM-12+023299999V0203601N006019999999N0150001N1-00671-01091100921ADDAY171031AY231031GF108991081001999999021999MD1710401+9999MW1361OA140101201REMSYN082AAXX  06211 31300 41965 83606 11067 21109 40092 57040 73673 8802/ 333 91012 91112;
0294313000999992000010700004+53750+127230FM-12+023299999V0203501N006019999999N0040001N1-00621-01061100671ADDAA112000391AA224000591AJ100269199999999AY171061AY231061GF108991081001999999021999IA1239KA1120N-01021MA1999999097761MD1710241+9999MW1711OA140101201OA249901401REMSYN125AAXX  07001 31300 11996 83506 11062 21106 39776 40067 57024 69932 77173 8802/ 333 21102 47026 91012 91114 555 1/108 7995/ /-;
0167313000999992000010703004+53750+127230FM-12+023299999V0200201N005019999999N0100001N1-00511-01151100461ADDAY171031AY231031GF108991081001999999021999MD1710191+9999MW1361OA140101201REMSYN082AAXX  07031 31300 41997 80205 11051 21115 40046 57019 73673 8802/ 333 91012 91113;
0167313000999992000010706004+53750+127230FM-12+023299999V0200201N006019999999N0100001N1-00511-01101100331ADDAY171061AY231061GF108991081001999999071999MD1710131+9999MW1361OA140101201REMSYN082AAXX  07061 31300 41997 80206 11051 21110 40033 57013 73673 8807/ 333 91012 91112;
0167313000999992000010709004+53750+127230FM-12+023299999V0200101N007019999999N0140001N1-00511-01151100271ADDAY131031AY221031GF108991081001999999021011MD1610061+9999MW1361OA140101101REMSYN082AAXX  07091 31300 41964 80107 11051 21115 40027 56006 73632 88021 333 91011 91115;
0245313000999992000010712004+53750+127230FM-12+023299999V0203601N007019999999N0150001N1-00601-01101100191ADDAA112000191AY131061AY221061GF108991081001999999021999KA1120M-00471MA1999999097271MD1810111+9999MW1361OA140101501OA249901501REMSYN110AAXX  07121 31300 11965 83607 11060 21110 39727 40019 58011 69922 73632 8802/ 333 11047 91015 91115 555 1/107;
0167313000999992000010715004+53750+127230FM-12+023299999V0200601N007019999999N0150001N1-00571-01001100001ADDAY131031AY221031GF108991081001999999021999MD1710171+9999MW1361OA140101701REMSYN082AAXX  07151 31300 41965 80607 11057 21100 40000 57017 73632 8802/ 333 91017 91117;
0167313000999992000010718004+53750+127230FM-12+023299999V0203601N006019999999N0090001N1-00551-01161099931ADDAY171061AY231061GF108991081001999999021999MD1710071+9999MW1711OA140101701REMSYN082AAXX  07181 31300 41959 83606 11055 21116 49993 57007 77173 8802/ 333 91017 91118;
0167313000999992000010721004+53750+127230FM-12+023299999V0200101N007019999999N0150001N1-00681-01351099951ADDAY171031AY231031GF108991081001999999021999MD1410001+9999MW1361OA140101701REMSYN082AAXX  07211 31300 41965 80107 11068 21135 49995 54000 73673 8802/ 333 91017 91118;
0293313000999992000010800004+53750+127230FM-12+023299999V0203601N005010120019N0100001N1-00591-01631999999ADDAA112000391AJ100249199999999AY171061AY231061GF108991081051012501999999IA1299KA1120N-00751MA1999999999999MD1410001+9999MW1361OA140101501OA249901801REMSYN116AAXX  08001 31300 11697 83605 11059 21163 39999 54000 69932 73673 885// 333 21075 49024 91015 91118 555 1/108 7995/;EQDQ01 099993APOSP 
0176313000999992000010803004+53750+127230FM-12+023299999V0203601N006010300019N0500001N1-00491-01441999999ADDAY131031AY221031GF106991031051012501031011MD1310151+9999ME1310069MW1361OA140101401REMSYN082AAXX  08031 31300 41699 63606 11049 21144 48006 53015 73632 83531 333 91014 91117;
0167313000999992000010806004+53750+127230FM-12+023299999V0203501N006010300019N0500001N1-00441-01471100071ADDAY131061AY221061GF107991021051012501031011MD1210021+9999MW1361OA140101201REMSYN082AAXX  08061 31300 41699 73506 11044 21147 40007 52002 73632 82531 333 91012 91114;
0167313000999992000010809004+53750+127230FM-12+023299999V0203601N006010300019N0500001N1-00621-01551100231ADDAY131031AY221031GF107991021051012501031011MD1210141+9999MW1361OA140101401REMSYN082AAXX  08091 31300 41684 73606 11062 21155 40023 52014 73632 82531 333 91014 91114;
0258313000999992000010812004+53750+127230FM-12+023299999V0200101N005019999999N0500001N1-00701-01631100371ADDAA106000091AY131061AY221061GF108991081001999999071999KA1120M-00441MA1999999097461MD1210121+9999MW1361OA140101101OA249901401REMSYN104AAXX  08121 31300 31984 80105 11070 21163 39746 40037 52012 73632 8807/ 333 11044 91011 91114 555 1/109;EQDQ01  00002PRCP06
0167313000999992000010815004+53750+127230FM-12+023299999V0203401N005019999999N0500001N1-00771-01681100381ADDAY131031AY221031GF108991051001999999041071MD1410001+9999MW1361OA140101101REMSYN082AAXX  08151 31300 41984 83405 11077 21168 40038 54000 73632 85047 333 91011 91112;
0150313000999992000010818004+53750+127230FM-12+023299999V0203501N004019999999N0500001N1-00881-01741100421ADDAY131061AY221061GF108991061001999999041031MD1310031+9999MW1021REMSYN076AAXX  08181 31300 41984 83504 11088 21174 40042 53003 70232 86043 333 91114;
0122313000999992000010821004+53750+127230FM-12+023299999V0201101N003019999999N0500001N1-02052-02621101141ADDGF108991011001999999041051MD1210571+9999REMSYN070AAXX  08211 31300 42984 81103 11205 21262 40114 52057 81045 333 91111;
0202313000999992000010900004+53750+127230FM-12+023299999V0201201N001019999999N0500001N1-02011-02501101271ADDAA106000091GF108991081001999999071999KA1120N-02061MA1999999098191MD1210131+9999REMSYN092AAXX  09001 31300 32999 81201 11201 21250 39819 40127 52013 8807/ 333 21206 555 1/118 7000/;EQDQ01  00002PRCP06
0112313000999992000010903004+53750+127230FM-12+023299999V0200601N001012200019N0500001N1-01871-02451101371ADDGF103991001001999999001011MD1210101+9999REMSYN060AAXX  09031 31300 42999 30601 11187 21245 40137 52010 80001;
0112313000999992000010909004+53750+127230FM-12+023299999V0201101N002012200019N0500001N1-01971-02461101751ADDGF103991001001999999001021MD1310271+9999REMSYN060AAXX  09091 31300 42984 31102 11197 21246 40175 53027 80002;
0206313000999992000010912004+53750+127230FM-12+023299999V0209999C000012200019N0500001N1-02121-02521101911ADDAA106000091GA1001+999999999GF100991001001999999001001KA1120M-01771MA1999999098801MD1210151+9999REMSYN080AAXX  09121 31300 32984 00000 11212 21252 39880 40191 52015 333 11177 555 1/122;EQDQ01  00002PRCP06
0122313000999992000010915004+53750+127230FM-12+023299999V0209999C000012200019N0500001N1-02441-02691102131ADDGA1001+999999999GF100991001001999999001001MD1210171+9999REMSYN054AAXX  09151 31300 42984 00000 11244 21269 40213 52017;
0150313000999992000010918004+53750+127230FM-12+023299999V0209999C000012200019N0500001N1-02661-02901102331ADDAY101061AY201061GA1001+999999999GF100991001001999999001001MD1210161+9999MW1401REMSYN060AAXX  09181 31300 41984 00000 11266 21290 40233 52016 74000;
0150313000999992000010921004+53750+127230FM-12+023299999V0209999C000012200019N0060001N1-02831-03001102341ADDAY101031AY201031GA1001+999999999GF100991001001999999001001MD1410001+9999MW1101REMSYN060AAXX  09211 31300 41956 00000 11283 21300 40234 54000 71000;
0253313000999992000011000004+53750+127230FM-12+023299999V0209999C000019999999N0040001N1-02951-03191102551ADDAA106000091AJ100239199999999AY101061AY201061GF108991999999999999999999IA1299KA1120N-02981MA1999999099301MD1310171+9999MW1101REMSYN098AAXX  10001 31300 31996 80000 11295 21319 39930 40255 53017 71000 333 21298 49023 555 1/135 7000/;EQDQ01  00002PRCP06
0134313000999992000011003004+53750+127230FM-12+023299999V0209999C000019999999N0040001N1-02591-02841102581ADDAY101031AY201031GF108991999999999999999999MD1210091+9999MW1101REMSYN060AAXX  10031 31300 41996 80000 11259 21284 40258 52009 71000;
0112313000999992000011006004+53750+127230FM-12+023299999V0201801N001012200019N0500001N1-02361+99999102561ADDGF102991001001999999001021MD1410001+9999REMSYN060AAXX  10061 31300 42999 21801 11236 21235 40256 54000 80002;
0112313000999992000011009004+53750+127230FM-12+023299999V0209999C000012200019N0500001N1-02471+99999102821ADDGF102991001001999999001021MD1310241+9999REMSYN060AAXX  10091 31300 42984 20000 11247 21246 40282 53024 80002;
0234313000999992000011012004+53750+127230FM-12+023299999V02099999999992200019N0080001N1-02711-02941103071ADDAA106000091AY101061AY201061GA1001+999999999GF100991001001999999001001KA1120M-02361MA1999999099841MD1210211+9999MW1101REMSYN086AAXX  10121 31300 31958 0000/ 11271 21294 39984 40307 52021 71000 333 11236 555 8/033;EQDQ01  00002PRCP06
0150313000999992000011015004+53750+127230FM-12+023299999V0209999C000012200019N0007001N1-02831-03061103191ADDAY141031AY201031GA1001+999999999GF100991001001999999001001MD1210111+9999MW1441REMSYN060AAXX  10151 31300 41907 00000 11283 21306 40319 52011 74440;
0150313000999992000011018004+53750+127230FM-12+023299999V0209999C000012200019N0015001N1-02951-03191103381ADDAY141061AY201061GA1001+999999999GF100991001001999999001001MD1210151+9999MW1101REMSYN060AAXX  10181 31300 41915 00000 11295 21319 40338 52015 71040;
0150313000999992000011021004+53750+127230FM-12+023299999V0209999C000012200019N0032001N1-03131-03361103481ADDAY101031AY201031GA1001+999999999GF100991001001999999001001MD1210091+9999MW1101REMSYN060AAXX  10211 31300 41932 00000 11313 21336 40348 52009 71000;
0269313000999992000011100004+53750+127230FM-12+023299999V0209999C000012200019N0040001N1-03211-03431103581ADDAA106000091AJ100239199999999AY101061AY201061GA1001+999999999GF100991001001999999001001IA1299KA1120N-03211MA1999999100281MD1210091+9999MW1101REMSYN098AAXX  11001 31300 31996 00000 11321 21343 30028 40358 52009 71000 333 21321 49023 555 1/135 7000/;EQDQ01  00002PRCP06
0150313000999992000011103004+53750+127230FM-12+023299999V0209999C000012200019N0200001N1-02791-03031103621ADDAY101031AY201031GA1001+999999999GF100991001001999999001001MD1110081+9999MW1401REMSYN060AAXX  11031 31300 41998 00000 11279 21303 40362 51008 74000;
0122313000999992000011106004+53750+127230FM-12+023299999V0209999C000012200019N0500001N1-02391-02641103361ADDGA1001+999999999GF100991001001999999001001MD1810201+9999REMSYN054AAXX  11061 31300 42999 00000 11239 21264 40336 58020;
0150313000999992000011109004+53750+127230FM-12+023299999V0209999C000012200019N0025001N1-02541-02781103391ADDAY101031AY201031GA1001+999999999GF100991001001999999001001MD1310021+9999MW1101REMSYN060AAXX  11091 31300 41925 00000 11254 21278 40339 53002 71000;
0224313000999992000011112004+53750+127230FM-12+023299999V0209999C000012200019N0025001N1-02741-02981103361ADDAA106000091AY101061AY201061GA1001+999999999GF100991001001999999001001KA1999M-02361MA1999999100121MD1810061+9999MW1101REMSYN076AAXX  11121 31300 31925 00000 11274 21298 30012 40336 58006 71000 333 11236;EQDQ01  00002PRCP06
0180313000999992000011115004+53750+127230FM-12+023299999V0209999C000012200019N0033001N1-02951-03191103311ADDAA106000091AY101031AY201031GA1001+999999999GF100991001001999999001001MD1710081+9999MW1101REMSYN060AAXX  11151 31300 31933 00000 11295 21319 40331 57008 71000;EQDQ01  00002PRCP06
0269313000999992000011200004+53750+127230FM-12+023299999V0209999C000012200019N0100001N1-03331-03561103011ADDAA106000091AJ100239199999999AY101061AY201061GA1001+999999999GF100991001001999999001001IA1299KA1120N-03351MA1999999099711MD1610081+9999MW1401REMSYN098AAXX  12001 31300 31997 00000 11333 21356 39971 40301 56008 74000 333 21335 49023 555 1/136 7000/;EQDQ01  00002PRCP06
0150313000999992000011203004+53750+127230FM-12+023299999V0209999C000012200019N0100001N1-02971-03211102851ADDAY101031AY201031GA1001+999999999GF100991001001999999001001MD1810121+9999MW1401REMSYN060AAXX  12031 31300 41997 00000 11297 21321 40285 58012 74000;
0122313000999992000011206004+53750+127230FM-12+023299999V0209999C000012200019N0500001N1-02661-02901102631ADDGA1001+999999999GF100991001001999999001001MD1710171+9999REMSYN054AAXX  12061 31300 42999 00000 11266 21290 40263 57017;
0122313000999992000011209004+53750+127230FM-12+023299999V0209999C000012200019N0500001N1-02881-03121102631ADDGA1001+999999999GF100991001001999999001001MD1610021+9999REMSYN054AAXX  12091 31300 42984 00000 11288 21312 40263 56002;
0234313000999992000011212004+53750+127230FM-12+023299999V0209999C000012200019N0270001N1-03031-03271102661ADDAA106000091AY101061AY201061GA1001+999999999GF100991001001999999001001KA1120M-02661MA1999999099411MD1310011+9999MW1401REMSYN086AAXX  12121 31300 31977 00000 11303 21327 39941 40266 53001 74000 333 11266 555 1/133;EQDQ01  00002PRCP06
0150313000999992000011215004+53750+127230FM-12+023299999V0209999C000012200019N0080001N1-03171-03411102651ADDAY101031AY201031GA1001+999999999GF100991001001999999001001MD1810031+9999MW1101REMSYN060AAXX  12151 31300 41958 00000 11317 21341 40265 58003 71000;
0150313000999992000011218004+53750+127230FM-12+023299999V0209999C000012200019N0130001N1-03351-03591102691ADDAY101061AY201061GA1001+999999999GF100991001001999999001001MD1310011+9999MW1401REMSYN060AAXX  12181 31300 41963 00000 11335 21359 40269 53001 74000;
0150313000999992000011221004+53750+127230FM-12+023299999V0209999C000012200019N0070001N1-03361-03591102681ADDAY101031AY201031GA1001+999999999GF100991001001999999001001MD1810011+9999MW1101REMSYN060AAXX  12211 31300 41957 00000 11336 21359 40268 58001 71000;
0236313000999992000011300004+53750+127230FM-12+023299999V0209999C000012200019N0100001N1-03451-03671102811ADDAA106000091AY101061AY201061GA1001+999999999GF100991001001999999001001IA1299KA1120N-03481MA1999999099481MD1310101+9999MW1401REMSYN082AAXX  13001 31300 31997 00000 11345 21367 39948 40281 53010 74000 333 21348 49023;EQDQ01  00002PRCP06
0150313000999992000011303004+53750+127230FM-12+023299999V0209999C000012200019N0200001N1-02991-03231102771ADDAY101031AY201031GA1001+999999999GF100991001001999999001001MD1110031+9999MW1401REMSYN060AAXX  13031 31300 41998 00000 11299 21323 40277 51003 74000;
0122313000999992000011306004+53750+127230FM-12+023299999V0209999C000012200019N0500001N1-02631-02871102711ADDGA1001+999999999GF100991001001999999001001MD1410001+9999REMSYN054AAXX  13061 31300 42999 00000 11263 21287 40271 54000;
0122313000999992000011309004+53750+127230FM-12+023299999V0209999C000012200019N0500001N1-02871-03121102841ADDGA1001+999999999GF100991001001999999001001MD1310091+9999REMSYN054AAXX  13091 31300 42984 00000 11287 21312 40284 53009;
0224313000999992000011312004+53750+127230FM-12+023299999V0209999C000012200019N0500001N1-03031-03271102921ADDAA106000091AY101061AY201061GA1001+999999999GF100991001001999999001001KA1999M-02621MA1999999099661MD1210061+9999MW1401REMSYN076AAXX  13121 31300 31984 00000 11303 21327 39966 40292 52006 74000 333 11262;EQDQ01  00002PRCP06
0150313000999992000011315004+53750+127230FM-12+023299999V0209999C000012200019N0500001N1-03151-03381103021ADDAY101031AY201031GA1001+999999999GF100991001001999999001001MD1210081+9999MW1401REMSYN060AAXX  13151 31300 41984 00000 11315 21338 40302 52008 74000;
0150313000999992000011318004+53750+127230FM-12+023299999V0209999C000012200019N0500001N1-03171-03411103041ADDAY101061AY201061GA1001+999999999GF100991001001999999001001MD1110011+9999MW1401REMSYN060AAXX  13181 31300 41984 00000 11317 21341 40304 51001 74000;
0154313000999992000011321004+53750+127230FM-12+023299999V0209999C000012200019N0500001N1-03271-03511103091ADDAY101031AY201031GA1001+999999999GF100991001001999999001001MD1310031+9999MW1401REMSYN064    AAXX  13211 31300 41984 00000 11327 21351 40309 53003 74000;
0245313000999992000011400004+53750+127230FM-12+023299999V0209999C000012200019N0500001N1-03371-03591103221ADDAA199000091AJ100239199999999GA1001+999999999GF100991001001999999001001IA1299KA1120N-03381MA1999999099901MD1210121+9999REMSYN096    AAXX  14001 31300 31999 00000 11337 21359 39990 40322 52012 333 21338 49023 555 1/135 7000/;EQDQ01  00002PRCP99
0116313000999992000011403004+53750+127230FM-12+023299999V0209999C000012200019N0500001N1-02731-02981103221ADDGF102991001001999999001021MD1210091+9999REMSYN064    AAXX  14031 31300 42999 20000 11273 21298 40322 52009 80002;
0116313000999992000011406004+53750+127230FM-12+023299999V0209999C000012200019N0500001N1-02611-02851103131ADDGF102991001001999999001021MD1810071+9999REMSYN064    AAXX  14061 31300 42999 20000 11261 21285 40313 58007 80002;
0144313000999992000011409004+53750+127230FM-12+023299999V0209999C000012200019N0500001N1-02811-03041103221ADDAY101031AY201031GF102991001001999999001021MD1310061+9999MW1401REMSYN070    AAXX  14091 31300 42984 20000 11281 21304 40322 53006 74000 80002;
0238313000999992000011412004+53750+127230FM-12+023299999V0209999C000012200019N0200001N1-02961-03191103311ADDAA199000091AY101061AY201061GA1001+999999999GF100991001001999999001001KA1120M-02561MA1999999100041MD1210061+9999MW1401REMSYN090    AAXX  14121 31300 31970 00000 11296 21319 30004 40331 52006 74000 333 11256 555 1/134;EQDQ01  00002PRCP99
0154313000999992000011415004+53750+127230FM-12+023299999V0209999C000012200019N0160001N1-03031-03271103341ADDAY101031AY201031GA1001+999999999GF100991001001999999001001MD1110021+9999MW1401REMSYN064    AAXX  14151 31300 41966 00000 11303 21327 40334 51002 74000;
0154313000999992000011418004+53750+127230FM-12+023299999V0209999C000012200019N0140001N1-03071-03291103351ADDAY101061AY201061GA1001+999999999GF100991001001999999001001MD1410001+9999MW1401REMSYN064    AAXX  14181 31300 41964 00000 11307 21329 40335 54000 74000;
0116313000999992000011421004+53750+127230FM-12+023299999V0209999C000012200019N0180001N1-03071-03291103351ADDGF103991001001999999001011MD1410001+9999REMSYN064    AAXX  14211 31300 41968 30000 11307 21329 40335 54000 80001;
0235313000999992000011500004+53750+127230FM-12+023299999V0209999C000012200019N9999999N1-03041-03271103341ADDAA199000091AJ100239199999999GF102991001001999999001011IA1299KA1120N-03101MA1999999098061MD1410001+9999REMSYN102    AAXX  15001 31300 3//// 20000 11304 21327 30806 40334 54000 80001 333 21310 49023 555 1/131 7000/;EQDQ01  00002PRCP99
0144313000999992000011503004+53750+127230FM-12+023299999V0209999C000019999999N0040001N1-02691-02931103301ADDAY171031AY211031GF108991001001999999001051MD1410001+9999MW1711REMSYN070    AAXX  15031 31300 41996 80000 11269 21293 40330 54000 77171 80005;
0144313000999992000011506004+53750+127230FM-12+023299999V0209999C000019999999N0100001N1-02521-02771103171ADDAY171061AY211061GF108991001001999999001071MD1810091+9999MW1711REMSYN070    AAXX  15061 31300 41997 80000 11252 21277 40317 58009 77171 80007;
0144313000999992000011509004+53750+127230FM-12+023299999V0209999C000019999999N0130001N1-02661-02901103221ADDAY171031AY221031GF108991001001999999001051MD1310021+9999MW1711REMSYN070    AAXX  15091 31300 41963 80000 11266 21290 40322 53002 77172 80005;
0215313000999992000011512004+53750+127230FM-12+023299999V0209999C000019999999N0140001N1-02771-03011103321ADDAA112000191AY171061AY221061GF108991001001999999001051KA1120M-02501MA1999999100082MD1110091+9999MW1711REMSYN102    AAXX  15121 31300 11964 80000 11277 21301 30008 40332 51009 69922 77172 80005 333 11250 555 1/131;
0144313000999992000011515004+53750+127230FM-12+023299999V0209999C000012200019N0500001N1-02931-03171103331ADDAY171031AY211031GF103991001001999999001011MD1410001+9999MW1021REMSYN070    AAXX  15151 31300 41984 30000 11293 21317 40333 54000 70271 80001;
0154313000999992000011518004+53750+127230FM-12+023299999V0209999C000012200019N0500001N1-03131-03361103321ADDAY171061AY211061GA1001+999999999GF100991001001999999001001MD1810031+9999MW1021REMSYN064    AAXX  15181 31300 41984 00000 11313 21336 40332 58003 70271;
0126313000999992000011521004+53750+127230FM-12+023299999V0209999C000012200019N0500001N1-03231-03481103341ADDGA1001+999999999GF100991001001999999001001MD1410001+9999REMSYN058    AAXX  15211 31300 42984 00000 11323 21348 40334 54000;
0244313000999992000011600004+53750+127230FM-12+023299999V0209999C000012200019N0100001N1-03311-03531103371ADDAA112000191AJ100239199999999AY101061AY201061GA1001+999999999GF100991001001999999001001IA1299KA1120N-03331MA1999999100051MD1410001+9999MW1401REMSYN092    AAXX  16001 31300 11997 00000 11331 21353 30005 40337 54000 69922 74000 333 21333 49023;
0154313000999992000011603004+53750+127230FM-12+023299999V0209999C000012200019N0500001N1-02881-03121103291ADDAY101031AY201031GA1001+999999999GF100991001001999999001001MD1810011+9999MW1401REMSYN064    AAXX  16031 31300 41999 00000 11288 21312 40329 58001 74000;
0126313000999992000011606004+53750+127230FM-12+023299999V0209999C000012200019N0500001N1-02631-02871103161ADDGA1001+999999999GF100991001001999999001001MD1710091+9999REMSYN058    AAXX  16061 31300 42599 00000 11263 21287 40316 57009;
0154313000999992000011609004+53750+127230FM-12+023299999V0209999C000012200019N0500001N1-02751-02991103141ADDAY101031AY201031GA1001+999999999GF100991001001999999001001MD1710041+9999MW1401REMSYN064    AAXX  16091 31300 41984 00000 11275 21299 40314 57004 74000;
0228313000999992000011612004+53750+127230FM-12+023299999V0209999C000012200019N0190001N1-02881-03121103281ADDAA199000091AY101061AY201061GA1001+999999999GF100991001001999999001001KA1999M-02551MA1999999100031MD1310121+9999MW1401REMSYN080    AAXX  16121 31300 31969 00000 11288 21312 30003 40328 53012 74000 333 11255;EQDQ01  00002PRCP99
0154313000999992000011615004+53750+127230FM-12+023299999V0209999C000012200019N0170001N1-03141-03361103351ADDAY101031AY201031GA1001+999999999GF100991001001999999001001MD1110031+9999MW1401REMSYN064    AAXX  16151 31300 41967 00000 11314 21336 40335 51003 74000;
0154313000999992000011618004+53750+127230FM-12+023299999V0209999C000012200019N0200001N1-03271-03511103381ADDAY101061AY201061GA1001+999999999GF100991001001999999001001MD1410001+9999MW1401REMSYN064    AAXX  16181 31300 41970 00000 11327 21351 40338 54000 74000;
0154313000999992000011621004+53750+127230FM-12+023299999V0209999C000012200019N0210001N1-03331-03561103231ADDAY101031AY201031GA1001+999999999GF100991001001999999001001MD1810141+9999MW1401REMSYN064    AAXX  16211 31300 41971 00000 11333 21356 40323 58014 74000;
0257313000999992000011700004+53750+127230FM-12+023299999V0209999C000012200019N0100001N1-03351-03591103241ADDAA199000091AJ100239199999999AY101061AY201061GA1001+999999999GF100991001001999999001001IA1299KA1120N-03381MA1999999099921MD1410001+9999MW1401REMSYN086    AAXX  17001 31300 31997 00000 11335 21359 39992 40324 54000 74000 333 21338 49023;EQDQ01  00002PRCP99
0154313000999992000011703004+53750+127230FM-12+023299999V0209999C000012200019N0200001N1-02891-03131103161ADDAY101031AY201031GA1001+999999999GF100991001001999999001001MD1810011+9999MW1401REMSYN064    AAXX  17031 31300 41998 00000 11289 21313 40316 58001 74000;
0126313000999992000011706004+53750+127230FM-12+023299999V0209999C000012200019N0500001N1-02531-02771103001ADDGA1001+999999999GF100991001001999999001001MD1710111+9999REMSYN058    AAXX  17061 31300 42999 00000 11253 21277 40300 57011;
0126313000999992000011709004+53750+127230FM-12+023299999V0209999C000012200019N0500001N1-02721-02961103061ADDGA1001+999999999GF100991001001999999001001MD1310031+9999REMSYN058    AAXX  17091 31300 42984 00000 11272 21296 40306 53003;
0228313000999992000011712004+53750+127230FM-12+023299999V0209999C000012200019N0080001N1-02911-03151103091ADDAA199000091AY101061AY201061GA1001+999999999GF100991001001999999001001KA1999M-02521MA1999999099841MD1110011+9999MW1101REMSYN080    AAXX  17121 31300 31958 00000 11291 21315 39984 40309 51001 71000 333 11252;EQDQ01  00002PRCP99
0154313000999992000011715004+53750+127230FM-12+023299999V0209999C000012200019N0090001N1-03151-03381103131ADDAY101031AY281031GA1001+999999999GF100991001001999999001001MD1410001+9999MW1001REMSYN064    AAXX  17151 31300 41959 00000 11315 21338 40313 54000 70008;
0140313000999992000011718004+53750+127230FM-12+023299999V0209999C000012200019N0060001N1-03251-03481999999ADDAY101061AY201061GA1001+999999999GF100991001001999999001001MW1101REMSYN064    AAXX  17181 31300 41956 00000 11325 21348 4/306 5/009 71000;
0173313000999992000011721004+53750+127230FM-12+023299999V0209999C000012200019N0160001N1-03371+99999999999ADDAY101031AY201031GA1001+999999999GF100991001001999999001001MD1710071+9999MW1401REMSYN064    AAXX  17211 31300 41966 00000 11337 27359 40899 57007 74000;EQDQ01+108993APOSLP
0273313000999992000011800004+53750+127230FM-12+023299999V0209999C000012200019N0100001N1-03401-03611103071ADDAA199000091AJ100239199999999AY101061AY201061GA1001+999999999GF100991001001999999001001IA1299KA1120N-03441MA1999999099761MD1310081+9999MW1401REMSYN102    AAXX  18001 31300 31997 00000 11340 21361 39976 40307 53008 74000 333 21344 49023 555 1/137 7000/;EQDQ01  00002PRCP99
0154313000999992000011803004+53750+127230FM-12+023299999V0209999C000012200019N0500001N1-02911-03151102941ADDAY101031AY201031GA1001+999999999GF100991001001999999001001MD1810061+9999MW1401REMSYN064    AAXX  18031 31300 41999 00000 11291 21315 40294 58006 74000;
0126313000999992000011806004+53750+127230FM-12+023299999V0209999C000012200019N0500001N1-02521-02771102781ADDGA1001+999999999GF100991001001999999001001MD1710111+9999REMSYN058    AAXX  18061 31300 42999 00000 11252 21277 40278 57011;
0126313000999992000011809004+53750+127230FM-12+023299999V0209999C000012200019N0500001N1-02701-02941102811ADDGA1001+999999999GF100991001001999999001001MD1410001+9999REMSYN058    AAXX  18091 31300 42984 00000 11270 21294 40281 54000;
0228313000999992000011812004+53750+127230FM-12+023299999V0209999C000012200019N0200001N1-02831-03061102871ADDAA199000091AY101061AY201061GF103991001001999999001011KA1120M-02491MA1999999099641MD1310051+9999MW1401REMSYN096    AAXX  18121 31300 31970 30000 11283 21306 39964 40287 53005 74000 80001 333 11249 555 1/132;EQDQ01  00002PRCP99
0154313000999992000011815004+53750+127230FM-12+023299999V0209999C000012200019N0160001N1-03111-03341102911ADDAY101031AY201031GA1001+999999999GF100991001001999999001001MD1410001+9999MW1401REMSYN064    AAXX  18151 31300 41966 00000 11311 21334 40291 54000 74000;
0154313000999992000011818004+53750+127230FM-12+023299999V0209999C000012200019N0120001N1-03151-03381102921ADDAY101061AY201061GA1001+999999999GF100991001001999999001001MD1410001+9999MW1401REMSYN064    AAXX  18181 31300 41962 00000 11315 21338 40292 54000 74000;
0154313000999992000011821004+53750+127230FM-12+023299999V0209999C000012200019N0140001N1-03371-03591102951ADDAY101031AY201031GA1001+999999999GF100991001001999999001001MD1410001+9999MW1401REMSYN064    AAXX  18211 31300 41964 00000 11337 21359 40295 54000 74000;
0273313000999992000011900004+53750+127230FM-12+023299999V0209999C000012200019N0040001N1-03381-03611103071ADDAA199000091AJ100239199999999AY101061AY201061GA1001+999999999GF100991001001999999001001IA1299KA1120N-03481MA1999999099751MD1310111+9999MW1101REMSYN102    AAXX  19001 31300 31996 00000 11338 21361 39975 40307 53011 71000 333 21348 49023 555 1/135 7000/;EQDQ01  00002PRCP99
0154313000999992000011903004+53750+127230FM-12+023299999V0209999C000012200019N0040001N1-02911-03151103011ADDAY101031AY201031GA1001+999999999GF100991001001999999001001MD1110011+9999MW1101REMSYN064    AAXX  19031 31300 41996 00000 11291 21315 40301 51001 71000;
0116313000999992000011906004+53750+127230FM-12+023299999V0201901N001012200019N0500001N1-02451-02701102851ADDGF102991001001999999001011MD1810091+9999REMSYN064    AAXX  19061 31300 42999 21901 11245 21270 40285 58009 80001;
0154313000999992000011909004+53750+127230FM-12+023299999V0209999C000012200019N0220001N1-02651-02901103071ADDAY101031AY201031GA1001+999999999GF100991001001999999001001MD1310191+9999MW1401REMSYN064    AAXX  19091 31300 41972 00000 11265 21290 40307 53019 74000;
0175313000999992000011912004+53750+127230FM-12+023299999V02099999999999999999N0200001N1-02851-03071103131ADDAA199000091AY101061AY201061KA1120M-02421MD1210021+9999MW1401REMSYN084    AAXX  19121 31300 31970 /0/// 11285 21307 40313 52002 74000 333 11242 555 6/133;EQDQ01  00002PRCP99
0154313000999992000011915004+53750+127230FM-12+023299999V0209999C000012200019N0160001N1-03111-03341103211ADDAY101031AY201031GA1001+999999999GF100991001001999999001001MD1210051+9999MW1401REMSYN064    AAXX  19151 31300 41966 00000 11311 21334 40321 52005 74000;
0150313000999992000011918004+53750+127230FM-12+023299999V0209999C000012200019N0170001N1-03271-03511103291ADDAY101061AY201061GA1001+999999999GF100991001001999999001001MD1210051+9999MW1401REMSYN060AAXX  19181 31300 41967 00000 11327 21351 40329 52005 74000;
0150313000999992000011921004+53750+127230FM-12+023299999V0209999C000012200019N0200001N1-03231-03461103271ADDAY101031AY201031GA1001+999999999GF100991001001999999001001MD1410001+9999MW1401REMSYN060AAXX  19211 31300 41970 00000 11323 21346 40327 54000 74000;
0269313000999992000012000004+53750+127230FM-12+023299999V0209999C000012200019N0040001N1-03281-03511103341ADDAA199000091AJ100239199999999AY101061AY201061GA1001+999999999GF100991001001999999001001IA1299KA1120N-03331MA1999999100031MD1310051+9999MW1101REMSYN098AAXX  20001 31300 31996 00000 11328 21351 30003 40334 53005 71000 333 21333 49023 555 1/138 7000/;EQDQ01  00002PRCP99
0122313000999992000012003004+53750+127230FM-12+023299999V0209999C000012200019N0500001N1-02811-03041103381ADDGA1001+999999999GF100991001001999999001001MD1110101+9999REMSYN054AAXX  20031 31300 42999 00000 11281 21304 40338 51010;
0122313000999992000012006004+53750+127230FM-12+023299999V0209999C000012200019N0500001N1-02441-02691103201ADDGA1001+999999999GF100991001001999999001001MD1810121+9999REMSYN054AAXX  20061 31300 42999 00000 11244 21269 40320 58012;
0150313000999992000012009004+53750+127230FM-12+023299999V0209999C000012200019N0140001N1-02661-02901103241ADDAY101031AY201031GA1001+999999999GF100991001001999999001001MD1410001+9999MW1401REMSYN060AAXX  20091 31300 41964 00000 11266 21290 40324 54000 74000;
0224313000999992000012012004+53750+127230FM-12+023299999V0209999C000012200019N0110001N1-02771-03011103411ADDAA199000091AY101061AY201061GA1001+999999999GF100991001001999999001001KA1999M-02331MA1999999100161MD1310151+9999MW1401REMSYN076AAXX  20121 31300 31961 00000 11277 21301 30016 40341 53015 74000 333 11233;EQDQ01  00002PRCP99
0122313000999992000012015004+53750+127230FM-12+023299999V0209999C000012200019N0200001N1-03091-03321103441ADDGA1001+999999999GF100991001001999999001001MD1810011+9999REMSYN054AAXX  20151 31300 41970 00000 11309 21332 40344 58001;
0140313000999992000012018004+53750+127230FM-12+023299999V0209999C000019999999N0090001N1-03221-03461103451ADDAY101061AY201061GF108991001001999999001051MD1410001+9999MW1101REMSYN066AAXX  20181 31300 41959 80000 11322 21346 40345 54000 71000 80005;
0140313000999992000012021004+53750+127230FM-12+023299999V0209999C000019999999N0080001N1-03161-03381103301ADDAY171031AY221031GF108991001001999999001071MD1810141+9999MW1711REMSYN066AAXX  20211 31300 41958 80000 11316 21338 40330 58014 77172 80007;
0246313000999992000012100004+53750+127230FM-12+023299999V0209999C000012200019N0100001N1-03311-03531103401ADDAA112000791AJ100239199999999AY171061AY211061GF103991001001999999001021IA1299KA1120N-03321MA1999999100081MD1310071+9999MW1401REMSYN110AAXX  21001 31300 11997 30000 11331 21353 30008 40340 53007 69902 74071 80002 333 21332 49023 555 1/138 7990/;
0150313000999992000012103004+53750+127230FM-12+023299999V0209999C000012200019N0200001N1-02631-02871103271ADDAY101031AY201031GA1001+999999999GF100991001001999999001001MD1810031+9999MW1401REMSYN060AAXX  21031 31300 41998 00000 11263 21287 40327 58003 74000;
0122313000999992000012106004+53750+127230FM-12+023299999V0209999C000012200019N0500001N1-02471-02711103191ADDGA1001+999999999GF100991001001999999001001MD1710061+9999REMSYN054AAXX  21061 31300 42999 00000 11247 21271 40319 57006;
0122313000999992000012109004+53750+127230FM-12+023299999V0209999C000012200019N0500001N1-02731-02981103301ADDGA1001+999999999GF100991001001999999001001MD1310071+9999REMSYN054AAXX  21091 31300 42984 00000 11273 21298 40330 53007;
0234313000999992000012112004+53750+127230FM-12+023299999V0209999C000012200019N0200001N1-02881-03121103261ADDAA199000091AY101061AY201061GA1001+999999999GF100991001001999999001001KA1120M-02471MA1999999100011MD1810051+9999MW1401REMSYN086AAXX  21121 31300 31970 00000 11288 21312 30001 40326 58005 74000 333 11247 555 1/135;EQDQ01  00002PRCP99
0150313000999992000012115004+53750+127230FM-12+023299999V0209999C000012200019N0500001N1-03281-03511103321ADDAY101031AY201031GA1001+999999999GF100991001001999999001001MD1410001+9999MW1401REMSYN060AAXX  21151 31300 41984 00000 11328 21351 40332 54000 74000;
0150313000999992000012118004+53750+127230FM-12+023299999V0209999C000012200019N0500001N1-03411-03641103331ADDAY101061AY201061GA1001+999999999GF100991001001999999001001MD1410001+9999MW1401REMSYN060AAXX  21181 31300 41984 00000 11341 21364 40333 54000 74000;
0150313000999992000012121004+53750+127230FM-12+023299999V0209999C000012200019N0500001N1-03591-03801103351ADDAY101031AY201031GA1001+999999999GF100991001001999999001001MD1810011+9999MW1401REMSYN060AAXX  21211 31300 41984 00000 11359 21380 40335 58001 74000;
0269313000999992000012200004+53750+127230FM-12+023299999V0209999C000012200019N0100001N1-03551-03771103421ADDAA199000091AJ100239199999999AY101061AY201061GA1001+999999999GF100991001001999999001001IA1299KA1120N-03591MA1999999100061MD1310061+9999MW1401REMSYN098AAXX  22001 31300 31997 00000 11355 21377 30006 40342 53006 74000 333 21359 49023 555 1/142 7000/;EQDQ01  00002PRCP99
0122313000999992000012203004+53750+127230FM-12+023299999V0209999C000012200019N0500001N1-02561-02811103281ADDGA1001+999999999GF100991001001999999001001MD1410001+9999REMSYN054AAXX  22031 31300 42999 00000 11256 21281 40328 54000;
0122313000999992000012206004+53750+127230FM-12+023299999V0203301N003012200019N0500001N1-02201-02521103231ADDGA1001+999999999GF100991001001999999001001MD1410001+9999REMSYN054AAXX  22061 31300 42999 03303 11220 21252 40323 54000;
0122313000999992000012209004+53750+127230FM-12+023299999V0203001N003012200019N0500001N1-02211-02871103351ADDGA1001+999999999GF100991001001999999001001MD1310121+9999REMSYN054AAXX  22091 31300 42984 03003 11221 21287 40335 53012;
0196313000999992000012212004+53750+127230FM-12+023299999V0203101N002012200019N0500001N1-02511-02981103391ADDAA199000091GA1001+999999999GF100991001001999999001001KA1999M-02161MA1999999100181MD1410001+9999REMSYN070AAXX  22121 31300 32984 03102 11251 21298 30018 40339 54000 333 11216;EQDQ01  00002PRCP99
0122313000999992000012215004+53750+127230FM-12+023299999V0203301N003012200019N0500001N1-02411-03071103411ADDGA1001+999999999GF100991001001999999001001MD1310031+9999REMSYN054AAXX  22151 31300 42984 03303 11241 21307 40341 53003;
0132313000999992000012218004+53750+127230FM-12+023299999V0203301N003012200019N0500001N1-02441-03091103361ADDGA1001+999999999GF100991001001999999001001MD1810051+9999REMSYN064AAXX  22181 31300 42984 03303 11244 21309 40336 58005 333 91110;
0160313000999992000012221004+53750+127230FM-12+023299999V0203301N004012200019N0500001N1-02591-03331103381ADDAY131031AY201031GA1001+999999999GF100991001001999999001001MD1410001+9999MW1361REMSYN070AAXX  22211 31300 41984 03304 11259 21333 40338 54000 73630 333 91110;
0286313000999992000012300004+53750+127230FM-12+023299999V0202901N003012200019N0500001N1-02681-03421103511ADDAA199000091AJ100239199999999AY131061AY201061GA1001+999999999GF100991001001999999001001IA1299KA1120N-02721MA1999999100271MD1310111+9999MW1021OA149901001REMSYN104AAXX  23001 31300 31999 02903 11268 21342 30027 40351 53011 70230 333 21272 49023 91110 555 1/133 7000/;EQDQ01  00002PRCP99
0122313000999992000012303004+53750+127230FM-12+023299999V0203301N004012200019N0500001N1-02481-03331103371ADDGA1001+999999999GF100991001001999999001001MD1810111+9999REMSYN054AAXX  23031 31300 42999 03304 11248 21333 40337 58011;
0122313000999992000012306004+53750+127230FM-12+023299999V0203301N003012200019N0500001N1-02341-03211103301ADDGA1001+999999999GF100991001001999999001001MD1610041+9999REMSYN054AAXX  23061 31300 42999 03303 11234 21321 40330 56004;
0122313000999992000012309004+53750+127230FM-12+023299999V0203201N001012200019N0500001N1-02381-03241103421ADDGA1001+999999999GF100991001001999999001001MD1310101+9999REMSYN054AAXX  23091 31300 42984 03201 11238 21324 40342 53010;
0196313000999992000012312004+53750+127230FM-12+023299999V0203201N002012200019N0500001N1-02371-03121103371ADDAA199000091GA1001+999999999GF100991001001999999001001KA1999M-02281MA1999999100171MD1810051+9999REMSYN070AAXX  23121 31300 32984 03202 11237 21312 30017 40337 58005 333 11228;EQDQ01  00002PRCP99
0122313000999992000012315004+53750+127230FM-12+023299999V0203001N002012200019N0500001N1-02531-03011103321ADDGA1001+999999999GF100991001001999999001001MD1810061+9999REMSYN054AAXX  23151 31300 42984 03002 11253 21301 40332 58006;
0122313000999992000012318004+53750+127230FM-12+023299999V0201701N001012200019N0500001N1-02531-02991103371ADDGA1001+999999999GF100991001001999999001001MD1810051+9999REMSYN054AAXX  23181 31300 42984 01701 11253 21299 40337 58005;
0157313000999992000012321004+53750+127230FM-12+023299999V0202601N002012200019N0500001N1-02291-03051103341ADDGA1001+999999999GF100991001001999999001001MD1710031+9999REMSYN054AAXX  23211 31300 42984 02602 11229 21305 40334 56000;EQDQ01+000062APCTENQ02+000002APC3  
0241313000999992000012400004+53750+127230FM-12+023299999V0203001N002012200019N0500001N1-02351-03111103411ADDAA199000091AJ100239199999999GA1001+999999999GF100991001001999999001001IA1299KA1120N-02551MA1999999100211MD1310051+9999REMSYN092AAXX  24001 31300 32999 03002 11235 21311 30021 40341 53005 333 21255 49023 555 1/132 7000/;EQDQ01  00002PRCP99
0122313000999992000012403004+53750+127230FM-12+023299999V0203001N002012200019N0500001N1-02131-02901103291ADDGA1001+999999999GF100991001001999999001001MD1810081+9999REMSYN054AAXX  24031 31300 42999 03002 11213 21290 40329 58008;
0112313000999992000012406004+53750+127230FM-12+023299999V0202401N002019999999N0500001N1-01851-02751103151ADDGF105991021001999999031011MD1710091+9999REMSYN060AAXX  24061 31300 42999 52402 11185 21275 40315 57009 82031;
0112313000999992000012409004+53750+127230FM-12+023299999V0202401N001012200019N0500001N1-02041-02811103051ADDGF103991021001999999031021MD1710131+9999REMSYN060AAXX  24091 31300 42984 32401 11204 21281 40305 57013 82032;
0196313000999992000012412004+53750+127230FM-12+023299999V0200601N001012200019N0500001N1-02351-02831102931ADDAA199000091GF102991001001999999001011KA1120M-01841MA1999999099761MD1710151+9999REMSYN086AAXX  24121 31300 32984 20601 11235 21283 39976 40293 57015 80001 333 11184 555 1/132;EQDQ01  00002PRCP99
0112313000999992000012415004+53750+127230FM-12+023299999V0209999C000019999999N0500001N1-02581-02891102701ADDGF108991001001999999001051MD1710261+9999REMSYN060AAXX  24151 31300 42984 80000 11258 21289 40270 57026 80005;
0132313000999992000012421004+53750+127230FM-12+023299999V0203101N003012200019N0500001N1-01531-02341102611ADDGA1001+999999999GF100991001001999999001001MD1310081+9999REMSYN064AAXX  24211 31300 42984 03103 11153 21234 40261 53008 333 91111;
0303313000999992000012500004+53750+127230FM-12+023299999V0203401N007012200019N0500001N1-01411-02351102681ADDAA199000091AJ100229199999999AY131061AY201061GA1001+999999999GF100991001001999999001001IA1299KA1120N-02661MA1999999099631MD1210091+9999MW1361OA140101301OA249901301REMSYN110AAXX  25001 31300 31999 03407 11141 21235 39963 40268 52009 73630 333 21266 49022 91013 91113 555 1/120 7000/;EQDQ01  00002PRCP99
0150313000999992000012503004+53750+127230FM-12+023299999V0203401N005012200019N0500001N1-01131-02091102781ADDAY131031AY201031GA1001+999999999GF100991001001999999001001MD1210121+9999MW1361REMSYN060AAXX  25031 31300 41999 03405 11113 21209 40278 52012 73630;
0167313000999992000012506004+53750+127230FM-12+023299999V0203301N005012200019N0500001N1-01001-02101102831ADDAY131061AY201061GF102991001001999999001011MD1210061+9999MW1021OA140101001REMSYN082AAXX  25061 31300 41999 23305 11100 21210 40283 52006 70230 80001 333 91010 91113;
0122313000999992000012509004+53750+127230FM-12+023299999V0202801N002012200019N0500001N1-01291-02241103001ADDGF103991021001999999041011MD1210141+9999REMSYN070AAXX  25091 31300 42984 32802 11129 21224 40300 52014 82041 333 91112;
0234313000999992000012512004+53750+127230FM-12+023299999V0203301N006012200019N0500001N1-01111+99999102971ADDAA199000091GA1001+999999999GF100991001001999999001001KA1120M-00991MA1999999099941MD1810011+9999OA140101101OA249901101REMSYN086AAXX  25121 31300 32984 03306 11111 39994 40297 58001 333 11099 91011 91111 555 1/115;EQDQ01  00002PRCP99
0132313000999992000012515004+53750+127230FM-12+023299999V0203101N005012200019N0500001N1-01151-02111103151ADDGA1001+999999999GF100991001001999999001001MD1310071+9999REMSYN064AAXX  25151 31300 42984 03105 11115 21211 40315 53007 333 91111;
0132313000999992000012518004+53750+127230FM-12+023299999V0203001N004012200019N0500001N1-01111-02071103151ADDGA1001+999999999GF100991001001999999001001MD1410001+9999REMSYN064AAXX  25181 31300 42984 03004 11111 21207 40315 54000 333 91111;
0122313000999992000012521004+53750+127230FM-12+023299999V0209999C000012200019N0500001N1-02051-02541103361ADDGA1001+999999999GF100991001001999999001001MD1310101+9999REMSYN054AAXX  25211 31300 42984 00000 11205 21254 40336 53010;
0269313000999992000012600004+53750+127230FM-12+023299999V0209999C000012200019N0040001N1-02271-02501103441ADDAA199000091AJ100229199999999AY101061AY201061GA1001+999999999GF100991001001999999001001IA1299KA1120N-02301MA1999999100261MD1110051+9999MW1101REMSYN098AAXX  26001 31300 31996 00000 11227 21250 30026 40344 51005 71000 333 21230 49022 555 1/130 7000/;EQDQ01  00002PRCP99
0140313000999992000012603004+53750+127230FM-12+023299999V0201201N001019999999N0040001N1-01711-01901103251ADDAY101031AY201031GF105991001001999999001011MD1810121+9999MW1101REMSYN066AAXX  26031 31300 41996 51201 11171 21190 40325 58012 71000 80001;
0112313000999992000012606004+53750+127230FM-12+023299999V0201901N001019999999N0500001N1-01021-01851102981ADDGF106991001001999999001011MD1710181+9999REMSYN060AAXX  26061 31300 42999 61901 11102 21185 40298 57018 80001;
0112313000999992000012609004+53750+127230FM-12+023299999V0202701N001012200019N0500001N1-01381-02091102951ADDGF102991001001999999001011MD1710071+9999REMSYN060AAXX  26091 31300 42984 22701 11138 21209 40295 57007 80001;
0206313000999992000012612004+53750+127230FM-12+023299999V0203001N001012200019N0500001N1-01951-02361102881ADDAA199000091GA1001+999999999GF100991001001999999001001KA1120M-01021MA1999999099761MD1710131+9999REMSYN080AAXX  26121 31300 32984 03001 11195 21236 39976 40288 57013 333 11102 555 1/129;EQDQ01  00002PRCP99
0150313000999992000012615004+53750+127230FM-12+023299999V0209999C000012200019N0004001N1-02311-02491102741ADDAY141031AY201031GA1001+999999999GF100991001001999999001001MD1710181+9999MW1441REMSYN060AAXX  26151 31300 41904 00000 11231 21249 40274 57018 74440;
0150313000999992000012618004+53750+127230FM-12+023299999V0209999C000012200019N0022001N1-02471-02651102681ADDAY141061AY201061GA1001+999999999GF100991001001999999001001MD1710091+9999MW1101REMSYN060AAXX  26181 31300 41922 00000 11247 21265 40268 57009 71040;
0150313000999992000012621004+53750+127230FM-12+023299999V0209999C000012200019N0006001N1-02391-02571102671ADDAY141031AY201031GA1001+999999999GF100991001001999999001001MD1410001+9999MW1441REMSYN060AAXX  26211 31300 41906 00000 11239 21257 40267 54000 74440;
0269313000999992000012700004+53750+127230FM-12+023299999V0209999C000012200019N0040001N1-02551-02801102611ADDAA199000091AJ100229199999999AY141061AY201061GA1001+999999999GF100991001001999999001001IA1299KA1120N-02561MA1999999099431MD1810061+9999MW1101REMSYN098AAXX  27001 31300 31996 00000 11255 21280 39943 40261 58006 71040 333 21256 49022 555 1/129 7000/;EQDQ01  00002PRCP99
0169313000999992000012703004+53750+127230FM-12+023299999V0201501N001012200019N0200001N1-01561-01692102441ADDAY101031AY201031GA1001+999999999GF100991001001999999001001MD1710051+9999MW1401REMSYN060AAXX  27031 31300 41998 01501 11156 21169 40244 57005 74000;EQDQ01-001693ATOD  
0122313000999992000012706004+53750+127230FM-12+023299999V0200701N001012200019N0500001N1-00811-01321102271ADDGA1001+999999999GF100991001001999999001001MD1710081+9999REMSYN054AAXX  27061 31300 42999 00701 11081 21132 40227 57008;
0122313000999992000012709004+53750+127230FM-12+023299999V0202101N001012200019N0230001N1-01171-01611102381ADDGA1001+999999999GF100991001001999999001001MD1310061+9999REMSYN054AAXX  27091 31300 42973 02101 11117 21161 40238 53006;
0206313000999992000012712004+53750+127230FM-12+023299999V0203101N001012200019N0500001N1-01471-01741102371ADDAA199000091GA1001+999999999GF100991001001999999001001KA1120M-00721MA1999999099311MD1810051+9999REMSYN080AAXX  27121 31300 32984 03101 11147 21174 39931 40237 58005 333 11072 555 1/123;EQDQ01  00002PRCP99
0122313000999992000012715004+53750+127230FM-12+023299999V0200601N003012200019N0500001N1-01511-01781102331ADDGA1001+999999999GF100991001001999999001001MD1710041+9999REMSYN054AAXX  27151 31300 41984 00603 11151 21178 40233 57004;
0122313000999992000012718004+53750+127230FM-12+023299999V0202701N001012200019N0500001N1-02131-02331102401ADDGA1001+999999999GF100991001001999999001001MD1410001+9999REMSYN054AAXX  27181 31300 42984 02701 11213 21233 40240 54000;
0131313000999992000012721004+53750+127230FM-12+023299999V0203401N001019999999N0500001N1-01951-02141102381ADDGF106991999001999999031001MD1110011+9999REMSYN060AAXX  27211 31300 42984 63401 11195 21214 40238 51001 80030;EQDQ01+000002SCOTLC
0225313000999992000012800004+53750+127230FM-12+023299999V0209999C000019999999N0500001N1-02001-02191102481ADDAA199000091AJ100229199999999GF107991061001999999031011IA1299KA1120N-02151MA1999999099361MD1310081+9999REMSYN092AAXX  28001 31300 32999 70000 11200 21219 39936 40248 53008 86031 333 21215 49022 555 1/123;EQDQ01  00002PRCP99
0112313000999992000012803004+53750+127230FM-12+023299999V0200901N001019999999N0500001N1-01571-01841102501ADDGF107991071001999999051001MD1210071+9999REMSYN060AAXX  28031 31300 42999 70901 11157 21184 40250 52007 87050;
0112313000999992000012806004+53750+127230FM-12+023299999V0209999C000019999999N0500001N1-01331-01761102311ADDGF108991081001999999071999MD1810151+9999REMSYN060AAXX  28061 31300 42999 80000 11133 21176 40231 58015 8807/;
0112313000999992000012809004+53750+127230FM-12+023299999V0202201N002019999999N0500001N1-01331-01801102581ADDGF105991031001999999031011MD1310261+9999REMSYN060AAXX  28091 31300 42984 52202 11133 2118/ 40258 53026 83031;
0196313000999992000012812004+53750+127230FM-12+023299999V0203201N002019999999N0500001N1-01131-02091102871ADDAA199000091GF107991051001999999031011KA1120M-01121MA1999999099841MD1219999+9999REMSYN086AAXX  28121 31300 32984 73202 11113 21209 39984 40287 520// 85031 333 11112 555 1/117;EQDQ01  00002PRCP99
0112313000999992000012815004+53750+127230FM-12+023299999V0203301N002019999999N0500001N1-01261-02211102991ADDGF107991031001999999031011MD1210101+9999REMSYN060AAXX  28151 31300 42984 73302 11126 21221 40299 52010 83031;
0112313000999992000012818004+53750+127230FM-12+023299999V0200101N004019999999N0500001N1-01431-02251103151ADDGF108991021001999999041051MD1210141+9999REMSYN060AAXX  28181 31300 42984 80104 11143 21225 40315 52014 82045;
0122313000999992000012821004+53750+127230FM-12+023299999V0200201N005019999999N0500001N1-01551-02481103361ADDGF108991021001999999041021MD1210201+9999REMSYN070AAXX  28211 31300 42984 80205 11155 21248 40336 52020 82042 333 91111;
0241313000999992000012900004+53750+127230FM-12+023299999V0203601N003012200019N0500001N1-01651-02451103641ADDAA199000091AJ100229199999999GA1001+999999999GF100991001001999999001001IA1299KA1120N-01661MA1999999100541MD1210261+9999REMSYN092AAXX  29001 31300 32999 03603 11165 21245 30054 40364 52026 333 21166 49022 555 1/117 7000/;EQDQ01  00002PRCP99
0122313000999992000012903004+53750+127230FM-12+023299999V0200301N004012200019N0500001N1-01471-02401103791ADDGA1001+999999999GF100991001001999999001001MD1210151+9999REMSYN054AAXX  29031 31300 42999 00304 11147 21240 40379 52015;
0122313000999992000012906004+53750+127230FM-12+023299999V0203601N003012200019N0500001N1-01451-02381103821ADDGA1001+999999999GF100991001001999999001001MD1110041+9999REMSYN054AAXX  29061 31300 42999 03603 11145 21238 40382 51004;
0122313000999992000012909004+53750+127230FM-12+023299999V0201701N002012200019N0500001N1-01531-02461103831ADDGA1001+999999999GF100991001001999999001001MD1410001+9999REMSYN054AAXX  29091 31300 42984 01702 11153 21246 40383 54000;
0196313000999992000012912004+53750+127230FM-12+023299999V0202701N003012200019N0500001N1-01591-02511103851ADDAA199000091GA1001+999999999GF100991001001999999001001KA1999M-01371MA1999999100741MD1310011+9999REMSYN070AAXX  29121 31300 32984 02703 11159 21251 30074 40385 53001 333 11137;EQDQ01  00002PRCP99
0122313000999992000012915004+53750+127230FM-12+023299999V0201801N002012200019N9999999N1-01721-02631103871ADDGA1001+999999999GF100991001001999999001001MD1410001+9999REMSYN054AAXX  29151 31300 4290/ 01802 11172 21263 40387 54000;
0132313000999992000012921004+53750+127230FM-12+023299999V0200601N002012200019N0500001N1-01931-02871103891ADDGA1001+999999999GF100991001001999999001001MD1510001+9999REMSYN064AAXX  29211 31300 42984 00602 11193 21287 40389 55000 333 91111;
0231313000999992000013000004+53750+127230FM-12+023299999V0200301N001012200019N0500001N1-02121-02791103921ADDAA199000091AJ100219199999999GF101991001001999999001011IA1299KA1120N-02201MA1999999100741MD1410001+9999REMSYN098AAXX  30001 31300 32999 10301 11212 21279 30074 40392 54000 80001 333 21220 49021 555 1/130 7000/;EQDQ01  00002PRCP99
0141313000999992000013003004+53750+127230FM-12+023299999V0203501N002012200019N0500001N1-01511-02321103142ADDGA1001+999999999GF100991001001999999001001MD1810041+9999REMSYN054AAXX  30031 31300 41999 03502 11151 21232 40314 58004;EQDQ01+103143APOSLP
0112313000999992000013006004+53750+127230FM-12+023299999V0202201N001012200019N0500001N1-01231-02181103581ADDGF102991001001999999001011MD1710181+9999REMSYN060AAXX  30061 31300 41999 22201 11123 21218 40358 57018 80001;
0112313000999992000013009004+53750+127230FM-12+023299999V0202301N001019999999N0500001N1-01521-02331103491ADDGF106991011001999999041011MD1710121+9999REMSYN060AAXX  30091 31300 42984 62301 11152 21233 40349 57012 81041;
0196313000999992000013012004+53750+127230FM-12+023299999V0209999C000012200019N0500001N1-01831-02331103441ADDAA199000091GF103991001001999999001011KA1120M-01201MA1999999100321MD1610081+9999REMSYN086AAXX  30121 31300 32984 30000 11183 21233 30032 40344 56008 80001 333 11120 555 1/128;EQDQ01  00002PRCP99
0122313000999992000013015004+53750+127230FM-12+023299999V0209999C000012200019N0500001N1-02101-02431103341ADDGA1001+999999999GF100991001001999999001001MD1810141+9999REMSYN054AAXX  30151 31300 42984 00000 11210 21243 40334 58014;
0112313000999992000013018004+53750+127230FM-12+023299999V0201701N001019999999N0500001N1-01961-02371103231ADDGF106991001001999999001021MD1710101+9999REMSYN060AAXX  30181 31300 42984 61701 11196 21237 40323 57010 80002;
0112313000999992000013021004+53750+127230FM-12+023299999V0203101N001019999999N0500001N1-01971-02301103051ADDGF106991021001999999041011MD1710171+9999REMSYN060AAXX  30211 31300 42984 63101 11197 21230 40305 57017 82041;
0231313000999992000013100004+53750+127230FM-12+023299999V0202201N002019999999N0500001N1-01811-02221102901ADDAA199000091AJ100219199999999GF107991021001999999041011IA1299KA1120N-02001MA1999999097792MD1710121+9999REMSYN098AAXX  31001 31300 32999 72202 11181 21222 39779 40290 57012 82041 333 21200 49021 555 1/123 7000/;EQDQ01  00002PRCP99
0131313000999992000013103004+53750+127230FM-12+023299999V0202701N002012200019N0500001N1-00652-01481102641ADDGF102991001001999999001011MD1710111+9999REMSYN060AAXX  31031 31300 42999 22702 11065 21148 40264 57011 80001;EQDQ01-000653ATOT  
0112313000999992000013106004+53750+127230FM-12+023299999V0202501N002019999999N0500001N1-00251-01241102401ADDGF106991001001999999001011MD1710201+9999REMSYN060AAXX  31061 31300 42999 62502 11025 21124 40240 57020 80001;
0112313000999992000013109004+53750+127230FM-12+023299999V0202401N001012200019N0500001N1-00641-01521102361ADDGF102991001001999999001011MD1610071+9999REMSYN060AAXX  31091 31300 42984 22401 11064 21152 40236 56007 80001;
0196313000999992000013112004+53750+127230FM-12+023299999V0203001N002012200019N0500001N1-01111-02732102341ADDAA199000091GA1001+999999999GF100991001001999999001001KA1999M-00051MA1999999099331MD1810081+9999REMSYN070AAXX  31121 31300 32984 03002 11111 21273 39933 40234 58008 333 11005;EQDQ01  00002PRCP99
0131313000999992000013115004+53750+127230FM-12+023299999V0209999C000012200019N0500001N1-01201-01821999999ADDGA1001+999999999GF100991001001999999001001MD1410001+9999ME1202359REMSYN054AAXX  31151 31300 41984 00000 11120 21182 42235 54000;
0122313000999992000013118004+53750+127230FM-12+023299999V0209999C000012200019N0500001N1-01461-01971102361ADDGA1001+999999999GF100991001001999999001001MD1810031+9999REMSYN054AAXX  31181 31300 42984 00000 11146 21197 40236 58003;
0112313000999992000013121004+53750+127230FM-12+023299999V0209999C000019999999N0500001N1-01501-01921102291ADDGF105991001001999999001011MD1710071+9999REMSYN060AAXX  31211 31300 42984 50000 11150 21192 40229 57007 80001;
0231313000999992000020100004+53750+127230FM-12+023299999V0209999C000012200019N0500001N1-01551-01891102341ADDAA199000091AJ100219199999999GF103991021001999999031091IA1299KA1120N-01601MA1999999099281MD1310051+9999REMSYN098AAXX  01001 31300 32999 30000 11155 21189 39928 40234 53005 82039 333 21160 49021 555 1/122 7000/;EQDQ01  00002PRCP99
0112313000999992000020103004+53750+127230FM-12+023299999V0202201N002012200019N0500001N1-01051-01681102281ADDGF101991001001999999001011MD1410001+9999REMSYN060AAXX  01031 31300 42999 12202 11105 21168 40228 54000 80001;
0122313000999992000020106004+53750+127230FM-12+023299999V0202201N002012200019N0500001N1-00771-01751102181ADDGA1001+999999999GF100991001001999999001001MD1810071+9999REMSYN054AAXX  01061 31300 42999 02202 11077 21175 40218 58007;
0122313000999992000020109004+53750+127230FM-12+023299999V0203301N001012200019N0500001N1-01111-01731102111ADDGA1001+999999999GF100991001001999999001001MD1610101+9999REMSYN054AAXX  01091 31300 42999 03301 11111 21173 40211 56010;
0196313000999992000020111004+53750+127230FM-12+023299999V0209999C000012200019N0500001N1-01681-01941102311ADDAA199000091GA1001+999999999GF100991001001999999001001KA1999M-00771MA1999999099231MD1310121+9999REMSYN070AAXX  01111 31300 32984 00000 11168 21194 39923 40231 53012 333 11077;EQDQ01  00002PRCP99
0196313000999992000020112004+53750+127230FM-12+023299999V0209999C000012200019N0500001N1-01681-01941102311ADDAA199000091GA1001+999999999GF100991001001999999001001KA1999M-00771MA1999999099231MD1310121+9999REMSYN070AAXX  01121 31300 32984 00000 11168 21194 39923 40231 53012 333 11077;EQDQ01  00002PRCP99
0122313000999992000020115004+53750+127230FM-12+023299999V0209999C000012200019N0500001N1-02021-02211102341ADDGA1001+999999999GF100991001001999999001001MD1810011+9999REMSYN054AAXX  01151 31300 42984 00000 11202 21221 40234 58001;
0122313000999992000020118004+53750+127230FM-12+023299999V0202501N001012200019N0450001N1-02231-02411102361ADDGA1001+999999999GF100991001001999999001001MD1410001+9999REMSYN054AAXX  01181 31300 42983 02501 11223 21241 40236 54000;
0150313000999992000020121004+53750+127230FM-12+023299999V0209999C000012200019N0280001N1-02411-02601102461ADDAY101031AY201031GA1001+999999999GF100991001001999999001001MD1310071+9999MW1401REMSYN060AAXX  01211 31300 41978 00000 11241 21260 40246 53007 74000;
0263313000999992000020200004+53750+127230FM-12+023299999V0209999C000012200019N0200001N1-02481-02661102571ADDAA199000091AJ100209199999999AY101061AY201061GA1001+999999999GF100991001001999999001001IA1299KA1120N-02501MA1999999099391MD1210101+9999MW1401REMSYN092AAXX  02001 31300 31998 00000 11248 21266 39939 40257 52010 74000 333 21250 49020 555 1/132;EQDQ01  00002PRCP99
0122313000999992000020203004+53750+127230FM-12+023299999V0209999C000012200019N0500001N1-01611-01741102481ADDGA1001+999999999GF100991001001999999001001MD1110021+9999REMSYN054AAXX  02031 31300 42999 00000 11161 21174 40248 51002;
0122313000999992000020206004+53750+127230FM-12+023299999V0202001N001012200019N0500001N1-01311-01741102331ADDGA1001+999999999GF100991001001999999001001MD1810111+9999REMSYN054AAXX  02061 31300 42999 02001 11131 21174 40233 58011;
0122313000999992000020209004+53750+127230FM-12+023299999V0209999C000012200019N0500001N1-01511-01931102361ADDGA1001+999999999GF100991001001999999001001MD1410001+9999REMSYN054AAXX  02091 31300 42999 00000 11151 21193 40236 54000;
0196313000999992000020212004+53750+127230FM-12+023299999V0209999C000012200019N0500001N1-01951-02071102431ADDAA199000091GA1001+999999999GF100991001001999999001001KA1999M-01281MA1999999099331MD1310031+9999REMSYN070AAXX  02121 31300 32984 00000 11195 21207 39933 40243 53003 333 11128;EQDQ01  00002PRCP99
0122313000999992000020215004+53750+127230FM-12+023299999V0209999C000012200019N0500001N1-02251-02431102471ADDGA1001+999999999GF100991001001999999001001MD1410001+9999REMSYN054AAXX  02151 31300 42984 00000 11225 21243 40247 54000;
0122313000999992000020218004+53750+127230FM-12+023299999V0209999C000012200019N0500001N1-02411+99999102471ADDGA1001+999999999GF100991001001999999001001MD1810031+9999REMSYN054AAXX  02181 31300 42984 00000 11241 21/60 40247 58003;
0122313000999992000020221004+53750+127230FM-12+023299999V0209999C000012200019N0500001N1-02531-02701102511ADDGA1001+999999999GF100991001001999999001001MD1310031+9999REMSYN054AAXX  02211 31300 42984 00000 11253 21270 40251 53003;
0240313000999992000020300004+53750+127230FM-12+023299999V0209999C000012200019N0500001N1-02571-02741102611ADDAA199000091AJ100209199999999AY101061AY201061GF103991001001999999001011IA1299MA1999999099421MD1210091+9999MW1401REMSYN098AAXX  03001 31300 31999 30000 11257 21274 39942 40261 52009 74000 80001 333 49020 555 1/131 7000/;EQDQ01  00002PRCP99
0112313000999992000020303004+53750+127230FM-12+023299999V0201901N001019999999N0500001N1-01731-01851102501ADDGF106991001001999999001011MD1410001+9999REMSYN060AAXX  03031 31300 42999 61901 11173 21185 40250 54000 80001;
0106313000999992000020306004+53750+127230FM-12+023299999V0202201N001019999999N0500001N1-01271+99999102371ADDGF108991999999999999999999MD1810081+9999REMSYN054AAXX  03061 31300 42999 82201 11127 20170 40237 58008;
0112313000999992000020309004+53750+127230FM-12+023299999V0209999C000019999999N0500001N1-01611-01951102491ADDGF107991001001999999001011MD1310081+9999REMSYN060AAXX  03091 31300 42984 70000 11161 21195 40249 53008 80001;
0186313000999992000020312004+53750+127230FM-12+023299999V0209999C000019999999N0500001N1-01931-02121102621ADDAA199000091GF106991001001999999001011KA1999M-01221MA1999999099511MD1210091+9999REMSYN076AAXX  03121 31300 32984 60000 11193 21212 39951 40262 52009 80001 333 11122;EQDQ01  00002PRCP99
0140313000999992000020315004+53750+127230FM-12+023299999V0209999C000019999999N0180001N1-02191-02371102621ADDAY121031AY221031GF108991001001999999001071MD1810041+9999MW1401REMSYN066AAXX  03151 31300 41968 80000 11219 21237 40262 58004 74022 80007;
0140313000999992000020318004+53750+127230FM-12+023299999V0209999C000019999999N0140001N1-02371-02551102671ADDAY121061AY221061GF105991001001999999001011MD1310021+9999MW1401REMSYN066AAXX  03181 31300 41964 50000 11237 21255 40267 53002 74022 80001;
0150313000999992000020321004+53750+127230FM-12+023299999V0209999C000012200019N0200001N1-02631-02801102691ADDAY111031AY211031GA1001+999999999GF100991001001999999001001MD1410001+9999MW1401REMSYN060AAXX  03211 31300 41970 00000 11263 21280 40269 54000 74011;
0269313000999992000020400004+53750+127230FM-12+023299999V0209999C000012200019N0100001N1-02751-02931102761ADDAA199000091AJ100209199999999AY111061AY211061GA1001+999999999GF100991001001999999001001IA1249KA1120N-02841MA1999999099541MD1310051+9999MW1401REMSYN098AAXX  04001 31300 31997 00000 11275 21293 39954 40276 53005 74011 333 21284 48020 555 1/133 7000/;EQDQ01  00002PRCP99
0150313000999992000020403004+53750+127230FM-12+023299999V0201801N001012200019N0200001N1-02011-02201102601ADDAY101031AY201031GA1001+999999999GF100991001001999999001001MD1810071+9999MW1401REMSYN060AAXX  04031 31300 41998 01801 11201 21220 40260 58007 74000;
0122313000999992000020406004+53750+127230FM-12+023299999V0209999C000012200019N0500001N1-01661-01851102591ADDGA1001+999999999GF100991001001999999001001MD1310031+9999REMSYN054AAXX  04061 31300 42999 00000 11166 21185 40259 53003;
0122313000999992000020409004+53750+127230FM-12+023299999V0200401N001012200019N0500001N1-01841-02031102711ADDGA1001+999999999GF100991001001999999001001MD1210111+9999REMSYN054AAXX  04091 31300 42984 00401 11184 21203 40271 52011;
0206313000999992000020412004+53750+127230FM-12+023299999V0209999C000012200019N0500001N1-02291-02481102801ADDAA199000091GA1001+999999999GF100991001001999999001001KA1120M-01611MA1999999099641MD1210031+9999REMSYN080AAXX  04121 31300 32984 00000 11229 21248 39964 40280 52003 333 11161 555 1/131;EQDQ01  00002PRCP99
0150313000999992000020415004+53750+127230FM-12+023299999V0200901N001012200019N0180001N1-02591-02771102861ADDAY101031AY201031GA1001+999999999GF100991001001999999001001MD1110021+9999MW1401REMSYN060AAXX  04151 31300 41968 00901 11259 21277 40286 51002 74000;
0150313000999992000020418004+53750+127230FM-12+023299999V0209999C000012200019N0150001N1-02821-03001102981ADDAY101061AY201061GA1001+999999999GF100991001001999999001001MD1110081+9999MW1401REMSYN060AAXX  04181 31300 41965 00000 11282 21300 40298 51008 74000;
0150313000999992000020421004+53750+127230FM-12+023299999V0209999C000012200019N0190001N1-02911-03151103021ADDAY101031AY201031GA1001+999999999GF100991001001999999001001MD1210031+9999MW1401REMSYN060AAXX  04211 31300 41969 00000 11291 21315 40302 52003 74000;
0269313000999992000020500004+53750+127230FM-12+023299999V0209999C000012200019N0100001N1-03051-03271103111ADDAA199000091AJ100209199999999AY101061AY201061GA1001+999999999GF100991001001999999001001IA1249KA1120N-03111MA1999999099831MD1210061+9999MW1401REMSYN098AAXX  05001 31300 31997 00000 11305 21327 39983 40311 52006 74000 333 21311 48020 555 1/135 7000/;EQDQ01  00002PRCP99
0150313000999992000020503004+53750+127230FM-12+023299999V0201801N001012200019N0500001N1-02301-02491103051ADDAY101031AY201031GA1001+999999999GF100991001001999999001001MD1210051+9999MW1401REMSYN060AAXX  05031 31300 41999 01801 11230 21249 40305 52005 74000;
0122313000999992000020506004+53750+127230FM-12+023299999V0209999C000012200019N0500001N1-01941-02131103001ADDGA1001+999999999GF100991001001999999001001MD1410001+9999REMSYN054AAXX  05061 31300 42999 00000 11194 21213 40300 54000;
0122313000999992000020509004+53750+127230FM-12+023299999V0209999C000012200019N0500001N1-02071-02261103031ADDGA1001+999999999GF100991001001999999001001MD1410001+9999REMSYN054AAXX  05091 31300 42999 00000 11207 21226 40303 54000;
0224313000999992000020512004+53750+127230FM-12+023299999V0200901N001012200019N0110001N1-02391-02571103111ADDAA199000091AY101061AY201061GA1001+999999999GF100991001001999999001001KA1999M-01811MA1999999099921MD1310041+9999MW1401REMSYN076AAXX  05121 31300 31961 00901 11239 21257 39992 40311 53004 74000 333 11181;EQDQ01  00002PRCP99
0150313000999992000020515004+53750+127230FM-12+023299999V0209999C000012200019N0070001N1-02721-02901103181ADDAY101031AY201031GA1001+999999999GF100991001001999999001001MD1110031+9999MW1101REMSYN060AAXX  05151 31300 41957 00000 11272 21290 40318 51003 71000;
0150313000999992000020518004+53750+127230FM-12+023299999V0209999C000012200019N0060001N1-02931-03111999999ADDAY101061AY201061GA1001+999999999GF100991001001999999001001MD1410001+9999MW1101REMSYN060AAXX  05181 31300 41956 00000 11293 21311 40/20 54000 71000;
0150313000999992000020521004+53750+127230FM-12+023299999V0209999C000012200019N0140001N1-03061-03291103161ADDAY101031AY201031GA1001+999999999GF100991001001999999001001MD1810071+9999MW1401REMSYN060AAXX  05211 31300 41964 00000 11306 21329 40316 58007 74000;
0253313000999992000020600004+53750+127230FM-12+023299999V0209999C000012200019N0100001N1-03011-03251103131ADDAA199000091AJ100209199999999AY101061AY201061GA1001+999999999GF100991001001999999001001IA1249KA1120N-03111MA1999999099861MD1610021+9999MW1401REMSYN082AAXX  06001 31300 31997 00000 11301 21325 39986 40313 56002 74000 333 21311 48020;EQDQ01  00002PRCP99
0150313000999992000020603004+53750+127230FM-12+023299999V0209999C000012200019N0200001N1-02331-02511102931ADDAY101031AY201031GA1001+999999999GF100991001001999999001001MD1810101+9999MW1401REMSYN060AAXX  06031 31300 41998 00000 11233 21251 40293 58010 74000;
0122313000999992000020606004+53750+127230FM-12+023299999V0203001N001012200019N0500001N1-01901-02091102671ADDGA1001+999999999GF100991001001999999001001MD1710201+9999REMSYN054AAXX  06061 31300 42999 03001 11190 21209 40267 57020;
0122313000999992000020609004+53750+127230FM-12+023299999V0203001N001012200019N0500001N1-02011-02201102611ADDGA1001+999999999GF100991001001999999001001MD1610081+9999REMSYN054AAXX  06091 31300 42999 03001 11201 21220 40261 56008;
0234313000999992000020612004+53750+127230FM-12+023299999V0209999C000012200019N0060001N1-02331-02511102571ADDAA199000091AY101061AY201061GA1001+999999999GF100991001001999999001001KA1120M-01861MA1999999099421MD1810061+9999MW1101REMSYN086AAXX  06121 31300 31956 00000 11233 21251 39942 40257 58006 71000 333 11186 555 1/128;EQDQ01  00002PRCP99
0150313000999992000020615004+53750+127230FM-12+023299999V0209999C000012200019N0060001N1-02601-02771102451ADDAY101031AY201031GA1001+999999999GF100991001001999999001001MD1710161+9999MW1101REMSYN060AAXX  06151 31300 41956 00000 11260 21277 40245 57016 71000;
0150313000999992000020618004+53750+127230FM-12+023299999V0209999C000012200019N0070001N1-02661-02831102441ADDAY101061AY201061GA1001+999999999GF100991001001999999001001MD1610031+9999MW1101REMSYN060AAXX  06181 31300 41957 00000 11266 21283 40244 56003 71000;
0150313000999992000020621004+53750+127230FM-12+023299999V0209999C000012200019N0160001N1-02961-03131102431ADDAY101031AY201031GA1001+999999999GF100991001001999999001001MD1810051+9999MW1401REMSYN060AAXX  06211 31300 41966 00000 11296 21313 40243 58005 74000;
0269313000999992000020700004+53750+127230FM-12+023299999V0209999C000012200019N0200001N1-03011-03251102471ADDAA199000091AJ100209199999999AY101061AY201061GA1001+999999999GF100991001001999999001001IA1249KA1120N-03061MA1999999099221MD1310041+9999MW1401REMSYN098AAXX  07001 31300 31998 00000 11301 21325 39922 40247 53004 74000 333 21306 48020 555 1/134 7000/;EQDQ01  00002PRCP99
0150313000999992000020703004+53750+127230FM-12+023299999V0202101N001012200019N0200001N1-02131-02311102261ADDAY101031AY201031GA1001+999999999GF100991001001999999001001MD1810081+9999MW1401REMSYN060AAXX  07031 31300 41998 02101 11213 21231 40226 58008 74000;
0122313000999992000020706004+53750+127230FM-12+023299999V0202101N001012200019N0500001N1-01451-01651102051ADDGA1001+999999999GF100991001001999999001001MD1710121+9999REMSYN054AAXX  07061 31300 42999 02101 11145 21165 40205 57012;
0122313000999992000020709004+53750+127230FM-12+023299999V0202701N001012200019N0500001N1-01631-01971102181ADDGA1001+999999999GF100991001001999999001001MD1310101+9999REMSYN054AAXX  07091 31300 42999 02701 11163 21197 40218 53010;
0196313000999992000020712004+53750+127230FM-12+023299999V0203101N002012200019N0500001N1-01621-02121102071ADDAA199000091GA1001+999999999GF100991001001999999001001KA1999M-01401MA1999999099011MD1810111+9999REMSYN070AAXX  07121 31300 32984 03102 11162 21212 39901 40207 58011 333 11140;EQDQ01  00002PRCP99
0116313000999992000020715004+53750+127230FM-12+023299999V0203301N002012200019N0500001N1-02011+99999102011ADDGA1001+999999999GF100991001001999999001001MD1710111+9999REMSYN048AAXX  07151 31300 42984 03302 11201 40201 57011;
0122313000999992000020718004+53750+127230FM-12+023299999V0200601N002012200019N0500001N1-01991-02401101981ADDGA1001+999999999GF100991001001999999001001MD1610031+9999REMSYN054AAXX  07181 31300 42984 00602 11199 21240 40198 56003;
0122313000999992000020721004+53750+127230FM-12+023299999V0203101N001012200019N0500001N1-02271-02591101941ADDGA1001+999999999GF100991001001999999001001MD1810071+9999REMSYN054AAXX  07211 31300 42984 03101 11227 21259 40194 58007;
0269313000999992000020800004+53750+127230FM-12+023299999V0202001N002012200019N0100001N1-02411-02601101931ADDAA199000091AJ100209199999999AY101061AY201061GA1001+999999999GF100991001001999999001001IA1249KA1120N-02551MA1999999098781MD1210021+9999MW1401REMSYN098AAXX  08001 31300 31997 02002 11241 21260 39878 40193 52002 74000 333 21255 48020 555 1/129 7000/;EQDQ01  00002PRCP99
0122313000999992000020803004+53750+127230FM-12+023299999V0201801N001012200019N0500001N1-01331-01851101671ADDGA1001+999999999GF100991001001999999001001MD1210121+9999REMSYN054AAXX  08031 31300 42999 01801 11133 21185 40167 52012;
0122313000999992000020806004+53750+127230FM-12+023299999V0202701N001012200019N0500001N1-00891-01751101461ADDGA1001+999999999GF100991001001999999001001MD1210161+9999REMSYN054AAXX  08061 31300 42999 02701 11089 21175 40146 52016;
0122313000999992000020809004+53750+127230FM-12+023299999V0202001N002012200019N0500001N1-01251-01871101491ADDGA1001+999999999GF100991001001999999001001MD1410001+9999REMSYN054AAXX  08091 31300 42999 02002 11125 21187 40149 54000;
0206313000999992000020812004+53750+127230FM-12+023299999V0200301N001012200019N0500001N1-01811-02141101581ADDAA199000091GA1001+999999999GF100991001001999999001001KA1120M-00891MA1999999098521MD1310021+9999REMSYN080AAXX  08121 31300 32984 00301 11181 21214 39852 40158 53002 333 11089 555 1/128;EQDQ01  00002PRCP99
0150313000999992000020815004+53750+127230FM-12+023299999V0201801N001012200019N0190001N1-02271-02451101581ADDAY101031AY201031GA1001+999999999GF100991001001999999001001MD1810071+9999MW1401REMSYN060AAXX  08151 31300 41969 01801 11227 21245 40158 58007 74000;
0122313000999992000020818004+53750+127230FM-12+023299999V0200801N002012200019N0500001N1-02171-02351101561ADDGA1001+999999999GF100991001001999999001001MD1410001+9999REMSYN054AAXX  08181 31300 42984 00802 11217 21235 40156 54000;
0122313000999992000020821004+53750+127230FM-12+023299999V0200601N002012200019N0500001N1-02031-02441101521ADDGA1001+999999999GF100991001001999999001001MD1810021+9999REMSYN054AAXX  08211 31300 42984 00602 11203 21244 40152 58002;
0246313000999992000020900004+53750+127230FM-12+023299999V0200401N002012200019N0500001N1-02151-02471999999ADDAA199000091AJ100199199999999GF102991001001999999001011IA1249KA1120N-02331MA1999999099431MD1410001+9999REMSYN097AAXX  09001 31300 32999 20402 11215 21247 39943 40256 54000 80001 333 21233 48019 555 1/1+9 #0-.;EQDQ01+102563APOSLPQ02  00002PRCP99
0112313000999992000020903004+53750+127230FM-12+023299999V0203301N001012200019N0500001N1-01201-01921101381ADDGF103991001001999999001011MD1810041+9999REMSYN060AAXX  09031 31300 42999 33301 11120 21192 40138 58004 80001;
0112313000999992000020906004+53750+127230FM-12+023299999V0202401N002012200019N0500001N1-00791-01871101201ADDGF101991001001999999001011MD1710141+9999REMSYN060AAXX  09061 31300 42999 12402 11079 21187 40120 57014 80001;
0112313000999992000020909004+53750+127230FM-12+023299999V0203601N002012200019N0500001N1-01061-02021101231ADDGF102991001001999999001021MD1510001+9999REMSYN060AAXX  09091 31300 42999 23602 11106 21202 40123 55000 80002;
0206313000999992000020912004+53750+127230FM-12+023299999V0200601N002012200019N0500001N1-01281-02231101251ADDAA199000091GA1001+999999999GF100991001001999999001001KA1120M-00771MA1999999098251MD1410001+9999REMSYN080AAXX  09121 31300 32984 00602 11128 21223 39825 40125 54000 333 11077 555 1/123;EQDQ01  00002PRCP99
0122313000999992000020915004+53750+127230FM-12+023299999V0200801N001012200019N0500001N1-01701-02131101241ADDGA1001+999999999GF100991001001999999001001MD1810051+9999REMSYN054AAXX  09151 31300 42984 00801 1117/ 21213 40124 58005;
0122313000999992000020918004+53750+127230FM-12+023299999V0203301N001012200019N0500001N1-01411-02021101161ADDGA1001+999999999GF100991001001999999001001MD1710051+9999REMSYN054AAXX  09181 31300 42984 03301 11141 21202 40116 57005;
0122313000999992000020921004+53750+127230FM-12+023299999V0200201N003012200019N0500001N1-01391-02101101091ADDGA1001+999999999GF100991001001999999001001MD1710071+9999REMSYN054AAXX  09211 31300 42984 00203 11139 21210 40109 57007;
0250313000999992000021000004+53750+127230FM-12+023299999V0200301N002012200019N0500001N1-01411-02121101131ADDAA124000091AJ100199199999999GF103991001001999999001011IA1249KA1120N-01711MA1999999098121MD1310041+9999REMSYN101AAXX  10001 31300 32999 30302 11141 21212 39812 40113 53004 80001 333 21171 48019 555 1/122 7000/ /-;EQDQ01  00002PRCP99Q02  00003PRCP99
0112313000999992000021003004+53750+127230FM-12+023299999V0200601N001012200019N0500001N1-01011-01981101081ADDGF102991001001999999001011MD1410001+9999REMSYN060AAXX  10031 31300 42999 20601 11101 21198 40108 54000 80001;
0112313000999992000021006004+53750+127230FM-12+023299999V0203101N003019999999N0500001N1-00911-02021101011ADDGF105991001001999999001011MD1810061+9999REMSYN060AAXX  10061 31300 42999 53103 11091 21202 40101 58006 80001;
0112313000999992000021009004+53750+127230FM-12+023299999V0203501N002012200019N0500001N1-01091-02051101081ADDGF102991001001999999001021MD1610051+9999REMSYN060AAXX  10091 31300 42999 23502 11109 21205 40108 56005 80002;
0206313000999992000021012004+53750+127230FM-12+023299999V0209999C000012200019N0500001N1-01551-02251101161ADDAA199000091GA1001+999999999GF100991001001999999001001KA1120M-00901MA1999999098141MD1310031+9999REMSYN080AAXX  10121 31300 32984 00000 11155 21225 39814 40116 53003 333 11090 555 1/124;EQDQ01  00002PRCP99
0122313000999992000021015004+53750+127230FM-12+023299999V0201201N001012200019N0500001N1-01771-02031101191ADDGA1001+999999999GF100991001001999999001001MD1410001+9999REMSYN054AAXX  10151 31300 42984 01201 11177 21203 40119 54000;
0122313000999992000021018004+53750+127230FM-12+023299999V0201801N002012200019N0500001N1-01711-02131101151ADDGA1001+999999999GF100991001001999999001001MD1810031+9999REMSYN054AAXX  10181 31300 42984 01802 11171 21213 40115 58003;
0122313000999992000021021004+53750+127230FM-12+023299999V0200301N001012200019N0500001N1-01851-02341101161ADDGA1001+999999999GF100991001001999999001001MD1410001+9999REMSYN054AAXX  10211 31300 42984 00301 11185 21234 40116 54000;
0231313000999992000021100004+53750+127230FM-12+023299999V0200601N003012200019N0500001N1-01701-02391101161ADDAA199000091AJ100199199999999GF101991001001999999001021IA1249KA1120N-01901MA1999999098121MD1310011+9999REMSYN098AAXX  11001 31300 32999 10603 11170 21239 39812 40116 53001 80002 333 21190 48019 555 1/121 7000/;EQDQ01  00002PRCP99
0122313000999992000021103004+53750+127230FM-12+023299999V0200301N002012200019N0500001N1-01311-02251101151ADDGA1001+999999999GF100991001001999999001001MD1110031+9999REMSYN054AAXX  11031 31300 42999 00302 11131 21225 40115 51003;
0112313000999992000021106004+53750+127230FM-12+023299999V0203201N003012200019N0500001N1-01161-01991101131ADDGF101991001001999999001011MD1410001+9999REMSYN060AAXX  11061 31300 42999 13203 11116 21199 40113 54000 80001;
0112313000999992000021109004+53750+127230FM-12+023299999V0203401N004012200019N0500001N1-01451-02381101381ADDGF101991001001999999001011MD1310211+9999REMSYN060AAXX  11091 31300 42999 13404 11145 21238 40138 53021 80001;
0186313000999992000021112004+53750+127230FM-12+023299999V0203201N004012200019N0500001N1-01571-02491101421ADDAA199000091GF103991001001999999001011KA1999M-01161MA1999999098381MD1110021+9999REMSYN076AAXX  11121 31300 32984 33204 11157 21249 39838 40142 51002 80001 333 11116;EQDQ01  00002PRCP99
0112313000999992000021115004+53750+127230FM-12+023299999V0203201N004012200019N0500001N1-01751-02661101531ADDGF102991001001999999001011MD1310101+9999REMSYN060AAXX  11151 31300 42984 23204 11175 21266 40153 53010 80001;
0122313000999992000021118004+53750+127230FM-12+023299999V0203401N005012200019N0500001N1-01831-02861101581ADDGF102991001001999999001011MD1110041+9999REMSYN070AAXX  11181 31300 42984 23405 11183 21286 40158 51004 80001 333 91111;
0112313000999992000021121004+53750+127230FM-12+023299999V0203301N004012200019N0500001N1-01951-02841101661ADDGF102991001001999999001011MD1310051+9999REMSYN060AAXX  11211 31300 42984 23304 11195 21284 40166 53005 80001;
0231313000999992000021200004+53750+127230FM-12+023299999V0202201N001012200019N0500001N1-02171-02931101771ADDAA199000091AJ100199199999999GF102991001001999999001011IA1249KA1120N-02201MA1999999098651MD1210081+9999REMSYN098AAXX  12001 31300 32999 22201 11217 21293 39865 40177 52008 80001 333 21220 48019 555 1/127 7000/;EQDQ01  00002PRCP99
0147313000999992000021203004+53750+127230FM-12+023299999V0203401N004012200019N0500001N1-01691-02601999999ADDGF102991001001999999001011MD1210071+9999REMSYN060AAXX  12031 31300 42999 23404 11169 21260 40078 52007 80001;EQDQ01+100783APOSLPQ02 100783APOSLP
0112313000999992000021206004+53750+127230FM-12+023299999V0203301N003019999999N0500001N1-01601-02521101801ADDGF108991001001999999001071MD1110031+9999REMSYN060AAXX  12061 31300 42999 83303 11160 21252 40180 51003 80007;
0147313000999992000021209004+53750+127230FM-12+023299999V0203601N002019999999N0500001N1-01671-02591101941ADDGF108991999001999999041001MD1210141+9999REMSYN060AAXX  12091 31300 42999 83602 11167 21259 40194 52062 86040;EQDQ01+000062SCOTLCQ02+000622APC3  
0186313000999992000021212004+53750+127230FM-12+023299999V0202901N002012200019N0500001N1-01851-02751101951ADDAA199000091GF102991001001999999001021KA1999M-01571MA1999999098871MD1410001+9999REMSYN076AAXX  12121 31300 32984 22902 11185 21275 39887 40195 54000 80002 333 11157;EQDQ01  00002PRCP99
0112313000999992000021215004+53750+127230FM-12+023299999V0203401N003019999999N0500001N1-01941-02831102001ADDGF108991001001999999001051MD1310031+9999REMSYN060AAXX  12151 31300 42984 83403 11194 21283 40200 53003 80005;
0112313000999992000021218004+53750+127230FM-12+023299999V02099999999999999999N0500001N1-02111-02881102021ADDGF108991001001999999001021MD1410001+9999REMSYN060AAXX  12181 31300 42984 84502 11211 21288 40202 54000 80002;
0112313000999992000021221004+53750+127230FM-12+023299999V0203201N002019999999N0500001N1-02181-02941102081ADDGF106991001001999999001021MD1310051+9999REMSYN060AAXX  12211 31300 42984 63202 11218 21294 40208 53005 80002;
0231313000999992000021300004+53750+127230FM-12+023299999V0200101N001012200019N0500001N1-02081-02851101941ADDAA199000091AJ100189199999999GF101991001001999999001011IA1249KA1120N-02341MA1999999098831MD1810121+9999REMSYN098AAXX  13001 31300 32999 10101 11208 21285 39883 40194 58012 80001 333 21234 48018 555 1/127 7000/;EQDQ01  00002PRCP99
0112313000999992000021303004+53750+127230FM-12+023299999V0200101N001012200019N0500001N1-01661-02581101891ADDGF101991001001999999001011MD1410001+9999REMSYN060AAXX  13031 31300 42999 10101 11166 21258 40189 54000 80001;
0112313000999992000021306004+53750+127230FM-12+023299999V0203301N002012200019N0500001N1-01481-02541101871ADDGF101991001001999999001011MD1410001+9999REMSYN060AAXX  13061 31300 42999 13302 11148 21254 40187 54000 80001;
0112313000999992000021309004+53750+127230FM-12+023299999V0203301N003012200019N0500001N1-01581-02631101971ADDGF103991001001999999001021MD1310081+9999REMSYN060AAXX  13091 31300 42999 33303 11158 21263 40197 53008 80002;
0165313000999992000021312004+53750+127230FM-12+023299999V0202801N002019999999N0500001N1-02041-02611101921ADDAA199000091GF105991001001999999001021KA1999M-01611MD1710081+9999REMSYN070AAXX  13121 31300 32984 52802 11204 21261 40192 57008 80002 333 11161;EQDQ01  00002PRCP99
0122313000999992000021315004+53750+127230FM-12+023299999V0201801N001012200019N0500001N1-02451-02851101881ADDGA1001+999999999GF100991001001999999001001MD1710081+9999REMSYN054AAXX  13151 31300 42984 01801 11245 21285 40188 57008;
0122313000999992000021318004+53750+127230FM-12+023299999V0202401N001012200019N0500001N1-02091-02661101791ADDGA1001+999999999GF100991001001999999001001MD1710051+9999REMSYN054AAXX  13181 31300 42984 02401 11209 21266 40179 57005;
0122313000999992000021321004+53750+127230FM-12+023299999V0200401N001012200019N0500001N1-01971-02641101691ADDGA1001+999999999GF100991001001999999001001MD1710091+9999REMSYN054AAXX  13211 31300 42984 00401 11197 21264 40169 57009;
0225313000999992000021400004+53750+127230FM-12+023299999V0200701N002012200019N0500001N1-01871-02551101621ADDAA199000091AJ100189199999999GA1001+999999999GF100991001001999999001001IA1249KA1120N-02461MA1999999098541MD1710051+9999REMSYN076AAXX  14001 31300 32999 00702 11187 21255 39854 40162 57005 333 21246 48018;EQDQ01  00002PRCP99
0142313000999992000021403004+53750+127230FM-12+023299999V0203201N001019999999N0500001N1-01431-02361101481ADDAA199000091GF108991001001999999001071MD1710081+9999REMSYN060AAXX  14031 31300 32999 83201 11143 21236 40148 57008 80007;EQDQ01  00002PRCP99
0112313000999992000021406004+53750+127230FM-12+023299999V0203401N001019999999N0500001N1-01271-02221101381ADDGF108991001001999999001071MD1710081+9999REMSYN060AAXX  14061 31300 42999 83401 11127 21222 40138 57008 80007;
0229313000999992000021412004+53750+127230FM-12+023299999V0203201N003012200019N0500001N1-01351-02291101221ADDAA199000091GA1001+999999999GF100991001001999999001001KA1120M-01191MA1999999098221MD1710111+9999OA149901001REMSYN092AAXX  14121 31300 32984 03203 11135 21229 39822 40122 57011 80007 333 11119 91110 555 1/116;EQDQ01  00002PRCP99
0112313000999992000021415004+53750+127230FM-12+023299999V0203301N002019999999N0500001N1-01441-02371101201ADDGF108991001001999999001071MD1610031+9999REMSYN060AAXX  14151 31300 42984 83302 11144 21237 40120 56003 80007;
0112313000999992000021418004+53750+127230FM-12+023299999V02099999999999999999N0500001N1-01551-02481101241ADDGF108991021001999999031071MD1310031+9999REMSYN060AAXX  14181 31300 42984 83/03 11155 21248 40124 53003 82037;
0112313000999992000021421004+53750+127230FM-12+023299999V0200101N001019999999N0500001N1-01671-02471101261ADDGF108991081001999999071999MD1410001+9999REMSYN060AAXX  14211 31300 42984 80101 11167 21247 40126 54000 8807/;
0225313000999992000021500004+53750+127230FM-12+023299999V02099999999999999999N0500001N1-01101+99999101431ADDAA199000091AJ100189199999999GF106991031001999999041021IA1249KA1120N-01721MA1999999098381MD1310161+9999REMSYN092AAXX  15001 31300 32999 6//// 1111/ 39838 40143 53016 83042 333 21172 48018 555 1/121 7000/;EQDQ01  00002PRCP99
0112313000999992000021503004+53750+127230FM-12+023299999V0200101N003012200019N0500001N1-01191-02141101371ADDGF104991031001999999041021MD1410001+9999REMSYN060AAXX  15031 31300 42999 40103 11119 21214 40137 54000 83042;
0112313000999992000021506004+53750+127230FM-12+023299999V0200201N002019999999N0500001N1-01151-02111101381ADDGF107991021001999999041071MD1310021+9999REMSYN060AAXX  15061 31300 42999 70202 11115 21211 40138 53002 82047;
0112313000999992000021509004+53750+127230FM-12+023299999V0203501N004019999999N0500001N1-01231-02061101461ADDGF108991081001999999011999MD1210071+9999REMSYN060AAXX  15091 31300 42999 83504 11123 21206 40146 52007 8801/;
0196313000999992000021512004+53750+127230FM-12+023299999V0203201N003019999999N0500001N1-01311-02251101491ADDAA199000091GF108991001001999999001071KA1120M-01111MA1999999098491MD1210021+9999REMSYN086AAXX  15121 31300 32984 83203 11131 21225 39849 40149 52002 80007 333 11111 555 1/115;EQDQ01  00002PRCP99
0112313000999992000021515004+53750+127230FM-12+023299999V0203201N002019999999N0500001N1-01481-02291101541ADDGF105991001001999999001011MD1210021+9999REMSYN060AAXX  15151 31300 42984 53202 11148 21229 40154 52002 80001;
0122313000999992000021518004+53750+127230FM-12+023299999V0203301N003012200019N0500001N1-01611-02411101571ADDGA1001+999999999GF100991001001999999001001MD1210021+9999REMSYN054AAXX  15181 31300 42984 03303 11161 21241 40157 52002;
0122313000999992000021521004+53750+127230FM-12+023299999V0203201N003012200019N0500001N1-01751-02541101641ADDGA1001+999999999GF100991001001999999001001MD1210051+9999REMSYN054AAXX  15211 31300 42984 03203 11175 21254 40164 52005;
0231313000999992000021600004+53750+127230FM-12+023299999V0209999C000012200019N0500001N1-01991-02571999999ADDAA199000091AJ100189199999999GF102991001001999999001011IA1249KA1120N-02121MA1999999098751MD1210171+9999REMSYN082AAXX  16001 31300 32999 20000 11199 21257 39875 49185 52017 80001 333 21212 48018;EQDQ01+091853APOSLPQ02  00002PRCP99
0112313000999992000021603004+53750+127230FM-12+023299999V0209999C002012200019N0500001N1-01131-02091101691ADDGF103991001001999999001011MD1810051+9999REMSYN060AAXX  16031 31300 42999 30002 11113 21209 40169 58005 80001;
0112313000999992000021606004+53750+127230FM-12+023299999V0200401N004019999999N0500001N1-00911-01861101691ADDGF106991001001999999001011MD1310021+9999REMSYN060AAXX  16061 31300 42999 60404 11091 21186 40169 53002 80001;
0112313000999992000021609004+53750+127230FM-12+023299999V0200101N003019999999N0500001N1-01051-02011101911ADDGF107991001001999999001051MD1210201+9999REMSYN060AAXX  16091 31300 42999 70103 11105 21201 40191 52020 80005;
0186313000999992000021612004+53750+127230FM-12+023299999V0202401N001012200019N0500001N1-01291-02241101941ADDAA199000091GF102991001001999999001011KA1999M-00861MA1999999098921MD1410001+9999REMSYN076AAXX  16121 31300 32984 22401 11129 21224 39892 40194 54000 80001 333 11086;EQDQ01  00002PRCP99
0122313000999992000021615004+53750+127230FM-12+023299999V0202101N001012200019N0500001N1-01251-02201101931ADDGA1001+999999999GF100991001001999999001001MD1410001+9999REMSYN054AAXX  16151 31300 42984 02101 11125 21220 40193 54000;
0122313000999992000021618004+53750+127230FM-12+023299999V0209999C000012200019N0500001N1-01451-02381102021ADDGA1001+999999999GF100991001001999999001001MD1310071+9999REMSYN054AAXX  16181 31300 42984 00000 11145 21238 40202 53007;
0112313000999992000021621004+53750+127230FM-12+023299999V0203101N003012200019N0500001N1-01471-02281102101ADDGF102991001001999999001011MD1210061+9999REMSYN060AAXX  16211 31300 42984 23103 11147 21228 40210 52006 80001;
0215313000999992000021700004+53750+127230FM-12+023299999V0203301N003012200019N0500001N1-01501-02311102151ADDAA199000091AJ100189199999999GF101991001001999999001011IA1249KA1120N-01651MA1999999099101MD1210051+9999REMSYN082AAXX  17001 31300 32999 13303 11150 21231 39910 40215 52005 80001 333 21165 48018;EQDQ01  00002PRCP99
0122313000999992000021703004+53750+127230FM-12+023299999V0203601N002012200019N0500001N1-01011-01981102091ADDGA1001+999999999GF100991001001999999001001MD1410001+9999REMSYN054AAXX  17031 31300 42999 03602 11101 21198 40209 54000;
0122313000999992000021706004+53750+127230FM-12+023299999V0201301N001012200019N9999999N1-00721-01741101951ADDGA1001+999999999GF100991001001999999001001MD1810101+9999REMSYN054AAXX  17061 31300 429/9 01301 11072 21174 40195 58010;
0122313000999992000021709004+53750+127230FM-12+023299999V0203501N001012200019N0500001N1-00911-01941101981ADDGA1001+999999999GF100991001001999999001001MD1410001+9999REMSYN054AAXX  17091 31300 42999 03501 11091 21194 40198 54000;
0205313000999992000021712004+53750+127230FM-12+023299999V0200601N001012200019N0500001N1-01201-02151102001ADDAA199000091GA1001+999999999GF100991001001999999001001KA1120M-00701MA1999999098991MD1810011+9999REMSYN079AAXX  17121 31300 32984 00601 11120 21215 39899 40200 58001 333 11070 555 1/87;EQDQ01  00002PRCP99
0122313000999992000021715004+53750+127230FM-12+023299999V0203501N001012200019N0500001N1-01711-02401102031ADDGA1001+999999999GF100991001001999999001001MD1610031+9999REMSYN054AAXX  17151 31300 42984 03501 11171 21240 40203 56003;
0144313000999992000021718004+53750+127230FM-12+023299999V0201601N001012200019N0500001N1-02051-02541999999ADDAY101061AY201061GA1001+999999999GF100991001001999999001001MD1810011+9999MW1401REMSYN054AAXX  17181 31300 41984 01601 11205 21254 58001 74000;
0150313000999992000021721004+53750+127230FM-12+023299999V0200401N001012200019N0280001N1-02321-02571102101ADDAY101031AY201031GA1001+999999999GF100991001001999999001001MD1410001+9999MW1401REMSYN060AAXX  17211 31300 41978 00401 11232 21257 40210 54000 74000;
0260313000999992000021800004+53750+127230FM-12+023299999V0209999C000012200019N0500001N1-02361-02551101991ADDAA124000091AJ100179199999999GA1001+999999999GF100991001001999999001001IA1249KA1120N-02441MA1999999098931MD1810021+9999REMSYN095AAXX  18001 31300 32999 00000 11236 21255 39893 40199 58002 333 21244 48017 555 1/125 7000/ /-;EQDQ01  00002PRCP99Q02  00003PRCP99
0122313000999992000021803004+53750+127230FM-12+023299999V0202601N002012200019N0500001N1-01381-01901101881ADDGA1001+999999999GF100991001001999999001001MD1710081+9999REMSYN054AAXX  18031 31300 42999 02602 11138 21190 40188 57008;
0112313000999992000021806004+53750+127230FM-12+023299999V0202201N003012200019N0500001N1-00951-01781101691ADDGF102991001001999999001011MD1710131+9999REMSYN060AAXX  18061 31300 42999 22203 11095 21178 40169 57013 80001;
0112313000999992000021809004+53750+127230FM-12+023299999V0203401N004012200019N0500001N1-01071-02031101741ADDGF102991001001999999001011MD1310031+9999REMSYN060AAXX  18091 31300 42999 23404 11107 21203 40174 53003 80001;
0112313000999992000021821004+53750+127230FM-12+023299999V0203301N002012200019N0500001N1-01531-02341101771ADDGF102991001001999999001011MD1810061+9999REMSYN060AAXX  18211 31300 42984 23302 11153 21234 40177 58006 80001;
0247313000999992000021900004+53750+127230FM-12+023299999V0203401N002012200019N0500001N1-01571-02271101741ADDAA199000091AJ100179199999999GF103991999001999999041001IA1249KA1120N-02001MA1999999098691MD1710041+9999REMSYN098AAXX  19001 31300 32999 33402 11157 21227 39869 40174 57004 82040 333 21200 48017 555 1/119 7000/;EQDQ01+000022SCOTLCQ02  00002PRCP99
0112313000999992000021903004+53750+127230FM-12+023299999V0200301N003012200019N0500001N1-01201-02031101661ADDGF102991001001999999001021MD1610031+9999REMSYN060AAXX  19031 31300 42999 20303 11120 21203 40166 56003 80002;
0112313000999992000021906004+53750+127230FM-12+023299999V0200401N002012200019N0500001N1-01001-01971101581ADDGF102991001001999999001011MD1810061+9999REMSYN060AAXX  19061 31300 42999 20402 11100 21197 40158 58006 80001;
0122313000999992000021909004+53750+127230FM-12+023299999V0203301N002012200019N0500001N1-01091-02051101591ADDGA1001+999999999GF100991001001999999001001MD1410001+9999REMSYN054AAXX  19091 31300 42999 03302 11109 21205 40159 54000;
0196313000999992000021912004+53750+127230FM-12+023299999V0209999C000012200019N0500001N1-01711-02301101661ADDAA199000091GF102991001001999999001011KA1120M-00961MA1999999098601MD1410001+9999REMSYN086AAXX  19121 31300 32984 20000 11171 21230 39860 40166 54000 80001 333 11096 555 1/125;EQDQ01  00002PRCP99
0112313000999992000021915004+53750+127230FM-12+023299999V0201801N001019999999N0500001N1-01501-02101101611ADDGF108991001001999999001071MD1810031+9999REMSYN060AAXX  19151 31300 42984 81801 11150 21210 40161 58003 80007;
0112313000999992000021918004+53750+127230FM-12+023299999V0201801N001019999999N0500001N1-01561-02261101601ADDGF108991001001999999001071MD1710021+9999REMSYN060AAXX  19181 31300 42984 81801 11156 21226 40160 57002 80007;
0112313000999992000021921004+53750+127230FM-12+023299999V0209999C000019999999N0500001N1-01611-02311101601ADDGF108991001001999999001071MD1410001+9999REMSYN060AAXX  19211 31300 42984 80000 11161 21231 40160 54000 80007;
0224313000999992000022000004+53750+127230FM-12+023299999V0203301N001012200019N0500001N1-01711-02401999999ADDAA199000091AJ100169199999999GF102991011001999999041011IA1249KA1120N-01851MA1999999098581MD1310031+9999ME1211649REMSYN082AAXX  20001 31300 32999 23301 11171 21240 39858 42164 53003 81041 333 21185 48016;EQDQ01  00002PRCP99
0112313000999992000022003004+53750+127230FM-12+023299999V0203301N001012200019N0500001N1-01201-02151101551ADDGF102991001001999999001011MD1810031+9999REMSYN060AAXX  20031 31300 42999 23301 11120 21215 40155 58003 80001;
0112313000999992000022006004+53750+127230FM-12+023299999V0203301N003012200019N0500001N1-01041-02011101481ADDGF102991011001999999041011MD1710041+9999REMSYN060AAXX  20061 31300 42999 23303 11104 21201 40148 57004 81041;
0112313000999992000022009004+53750+127230FM-12+023299999V0203301N002019999999N0500001N1-01191-02141101501ADDGF107991031001999999041011MD1410001+9999REMSYN060AAXX  20091 31300 42999 73302 11119 21214 40150 54000 83041;
0196313000999992000022012004+53750+127230FM-12+023299999V0201501N001019999999N0500001N1-01481-02411101611ADDAA199000091GF105991011001999999041011KA1120M-00941MA1999999098571MD1310061+9999REMSYN086AAXX  20121 31300 32984 51501 11148 21241 39857 40161 53006 81041 333 11094 555 1/123;EQDQ01  00002PRCP99
0112313000999992000022015004+53750+127230FM-12+023299999V0201501N001012200019N0500001N1-02011-02501101731ADDGF103991001001999999001011MD1210061+9999REMSYN060AAXX  20151 31300 42984 31501 11201 21250 40173 52006 80001;
0112313000999992000022018004+53750+127230FM-12+023299999V0200301N001012200019N0500001N1-02061-02631101801ADDGF102991001001999999001011MD1210061+9999REMSYN060AAXX  20181 31300 42984 20301 11206 21263 40180 52006 80001;
0112313000999992000022021004+53750+127230FM-12+023299999V0203401N003012200019N0500001N1-01731-02421101821ADDGF102991001001999999001011MD1210071+9999REMSYN060AAXX  20211 31300 42984 23403 11173 21242 40182 52007 80001;
0194313000999992000022100004+53750+127230FM-12+023299999V0200901N001012200019N0500001N1-01851-02431101921ADDAA199000091AJ100169199999999GF102991001001999999001011IA1249KA1120N-02301MD1210091+9999REMSYN076AAXX  21001 31300 32999 20901 11185 21243 40192 52009 80001 333 21230 48016;EQDQ01  00002PRCP99
0112313000999992000022103004+53750+127230FM-12+023299999V0202801N001012200019N0500001N1-01331-02041101971ADDGF102991011001999999031011MD1110071+9999REMSYN060AAXX  21031 31300 42999 22801 11133 21204 40197 51007 81031;
0112313000999992000022106004+53750+127230FM-12+023299999V0202301N002012200019N0500001N1-01051-02981101801ADDGF103991001001999999001011MD1810101+9999REMSYN060AAXX  21061 31300 42999 32302 11105 21298 40180 58010 80001;
0112313000999992000022109004+53750+127230FM-12+023299999V0201001N001012200019N0500001N1-01231-02181101821ADDGF103991001001999999001011MD1410001+9999REMSYN060AAXX  21091 31300 42999 31001 11123 21218 40182 54000 80001;
0196313000999992000022112004+53750+127230FM-12+023299999V0202201N002012200019N0500001N1-01601-02401101941ADDAA199000091GA1001+999999999GF100991001001999999001001KA1999M-01021MA1999999098881MD1310061+9999REMSYN070AAXX  21121 31300 32984 02202 11160 21240 39888 40194 53006 333 11102;EQDQ01  00002PRCP99
0150313000999992000022115004+53750+127230FM-12+023299999V0209999C000012200019N0070001N1-02221-02611102061ADDAY101031AY201031GA1001+999999999GF100991001001999999001001MD1210051+9999MW1101REMSYN060AAXX  21151 31300 41957 00000 11222 21261 40206 52005 71000;
0150313000999992000022118004+53750+127230FM-12+023299999V0202001N001012200019N0060001N1+99999+99999102081ADDAY101061AY201061GA1001+999999999GF100991001001999999001001MD1410001+9999MW1101REMSYN060AAXX  21181 31300 41956 02001 11/35 21260 40208 54000 71000;
0150313000999992000022121004+53750+127230FM-12+023299999V0202001N001012200019N0160001N1-02521-02771102051ADDAY101031AY201031GA1001+999999999GF100991001001999999001001MD1810051+9999MW1401REMSYN060AAXX  21211 31300 41966 02001 11252 21277 40205 58005 74000;
0269313000999992000022200004+53750+127230FM-12+023299999V0201901N001012200019N0040001N1-02511-02751102051ADDAA199000091AJ100169199999999AY101061AY201061GA1001+999999999GF100991001001999999001001IA1289KA1120N-02621MA1999999098881MD1410001+9999MW1101REMSYN098AAXX  22001 31300 31996 01901 11251 21275 39888 40205 54000 71000 333 21262 44016 555 1/126 7000/;EQDQ01  00002PRCP99
0122313000999992000022203004+53750+127230FM-12+023299999V0203201N001012200019N0500001N1-01461-01891101901ADDGA1001+999999999GF100991001001999999001001MD1810031+9999REMSYN054AAXX  22031 31300 42999 03201 11146 21189 40190 58003;
0112313000999992000022206004+53750+127230FM-12+023299999V0203201N001012200019N0500001N1-01171-02121101751ADDGF102991001001999999001011MD1710101+9999REMSYN060AAXX  22061 31300 42999 23201 11117 21212 40175 57010 80001;
0122313000999992000022209004+53750+127230FM-12+023299999V0203301N001012200019N0500001N1-01351-02291101771ADDGA1001+999999999GF100991001001999999001001MD1610011+9999REMSYN054AAXX  22091 31300 42999 03301 11135 21229 40177 56001;
0196313000999992000022212004+53750+127230FM-12+023299999V0203601N003012200019N0500001N1-01541-02471101181ADDAA199000091GA1001+999999999GF100991001001999999001001KA1999M-01121MA1999999098801MD1310041+9999REMSYN070AAXX  22121 31300 32984 03603 11154 21247 39880 40118 53004 333 11112;EQDQ01  00002PRCP99
0122313000999992000022215004+53750+127230FM-12+023299999V0203201N001012200019N0500001N1-01831-02731101871ADDGA1001+999999999GF100991001001999999001001MD1410001+9999REMSYN054AAXX  22151 31300 42984 03201 11183 21273 40187 54000;
0122313000999992000022218004+53750+127230FM-12+023299999V0203301N003012200019N0500001N1-01851-02751101871ADDGA1001+999999999GF100991001001999999001001MD1410001+9999REMSYN054AAXX  22181 31300 42984 03303 11185 21275 40187 54000;
0122313000999992000022221004+53750+127230FM-12+023299999V0203301N003012200019N0500001N1-01931-02831101961ADDGA1001+999999999GF100991001001999999001001MD1110061+9999REMSYN054AAXX  22211 31300 42984 03303 11193 21283 40196 51006;
0241313000999992000022300004+53750+127230FM-12+023299999V0200501N002012200019N0500001N1-01981-02761102001ADDAA199000091AJ100169199999999GA1001+999999999GF100991001001999999001001IA1289KA1120N-02281MA1999999098891MD1310031+9999REMSYN092AAXX  23001 31300 32999 00502 11198 21276 39889 40200 53003 333 21228 44016 555 1/119 7000/;EQDQ01  00002PRCP99
0122313000999992000022303004+53750+127230FM-12+023299999V0203301N003012200019N0500001N1-01571-02491101991ADDGA1001+999999999GF100991001001999999001001MD1210041+9999REMSYN054AAXX  23031 31300 42999 03303 11157 21249 40199 52004;
0122313000999992000022306004+53750+127230FM-12+023299999V0203301N002012200019N0500001N1-01331-02401101921ADDGA1001+999999999GF100991001001999999001001MD1810031+9999REMSYN054AAXX  23061 31300 42999 03302 11133 21240 40192 58003;
0122313000999992000022309004+53750+127230FM-12+023299999V0203301N003012200019N0500001N1-01421-02491102061ADDGA1001+999999999GF100991001001999999001001MD1310131+9999REMSYN054AAXX  23091 31300 42999 03303 11142 21249 40206 53013;
0209313000999992000022312004+53750+127230FM-12+023299999V0202901N002012200019N0008001N1-01741-02651102191ADDAA199000091GA1001+999999999GF100991001001999999001001KA1120M-01281MA1999999099121MD1210091+9999REMSYN083AAXX  23121 31300 32908 02902 11174 21265 39912 40219 52009 333 11128 555 1/126 /-;EQDQ01  00002PRCP99
0122313000999992000022315004+53750+127230FM-12+023299999V0201201N002012200019N0500001N1-01701-02611102321ADDGA1001+999999999GF100991001001999999001001MD1210121+9999REMSYN054AAXX  23151 31300 42984 01202 11170 21261 40232 52012;
0122313000999992000022318004+53750+127230FM-12+023299999V0201801N001012200019N0500001N1-02331-02511102481ADDGA1001+999999999GF100991001001999999001001MD1210091+9999REMSYN054AAXX  23181 31300 42984 01801 11233 21251 40248 52009;
0269313000999992000022400004+53750+127230FM-12+023299999V0209999C000012200019N0200001N1-02511-02691102521ADDAA199000091AJ100169199999999AY101061AY201061GA1001+999999999GF100991001001999999001001IA1289KA1120N-02661MA1999999099341MD1310061+9999MW1401REMSYN098AAXX  24001 31300 31998 00000 11251 21269 39934 40252 53006 74000 333 21266 44016 555 1/127 7000/;EQDQ01  00002PRCP99
0122313000999992000022403004+53750+127230FM-12+023299999V0200401N002012200019N0500001N1-01421-02131102341ADDGA1001+999999999GF100991001001999999001001MD1810041+9999REMSYN054AAXX  24031 31300 42999 00402 11142 21213 40234 58004;
0122313000999992000022406004+53750+127230FM-12+023299999V0202101N002012200019N0500001N1-01201-02151102201ADDGA1001+999999999GF100991001001999999001001MD1710121+9999REMSYN054AAXX  24061 31300 42999 02102 11120 21215 40220 57012;
0112313000999992000022409004+53750+127230FM-12+023299999V0202701N001012200019N0500001N1-01411-02351102221ADDGF102991001001999999001011MD1410001+9999REMSYN060AAXX  24091 31300 42999 22701 11141 21235 40222 54000 80001;
0205313000999992000022412004+53750+127230FM-12+023299999V0209999C000012200019N0500001N1-01871-02451102301ADDAA199000091GA1001+999999999GF100991001001999999001001KA1120M-01201MA1999999099201MD1310021+9999REMSYN079AAXX  24121 3130032984 00000 11187 21245 39920 40230 53002 333 11120 555 1/127;EQDQ01  00002PRCP99
0122313000999992000022415004+53750+127230FM-12+023299999V0209999C000012200019N0500001N1-02391-02571102371ADDGA1001+999999999GF100991001001999999001001MD1410001+9999REMSYN054AAXX  24151 31300 42984 00000 11239 21257 40237 54000;
0122313000999992000022418004+53750+127230FM-12+023299999V0209999C000012200019N0500001N1-02611-02791102391ADDGA1001+999999999GF100991001001999999001001MD1410001+9999REMSYN054AAXX  24181 31300 42984 00000 11261 21279 40239 54000;
0122313000999992000022421004+53750+127230FM-12+023299999V0209999C000012200019N0500001N1-02861-03101102381ADDGA1001+999999999GF100991001001999999001001MD1810051+9999REMSYN054AAXX  24211 31300 42984 00000 11286 21310 40238 58005;
0269313000999992000022500004+53750+127230FM-12+023299999V0209999C000012200019N0500001N1-02721-02901102331ADDAA199000091AJ100159199999999AY101061AY201061GA1001+999999999GF100991001001999999001001IA1289KA1120N-02961MA1999999099131MD1610021+9999MW1401REMSYN098AAXX  25001 31300 31999 00000 11272 21290 39913 40233 56002 74000 333 21296 44015 555 1/128 7000/;EQDQ01  00002PRCP99
0141313000999992000022503004+53750+127230FM-12+023299999V0200901N001012200019N0500001N1-01602-02201102161ADDGA1001+999999999GF100991001001999999001001MD1810031+9999REMSYN054AAXX  25031 31300 42999 00901 11160 21220 40216 58003;EQDQ01-001603ATOT  
0122313000999992000022506004+53750+127230FM-12+023299999V0209999C000012200019N0500001N1-01171-02121101971ADDGA1001+999999999GF100991001001999999001001MD1710141+9999REMSYN054AAXX  25061 31300 42999 00000 11117 21212 40197 57014;
0112313000999992000022509004+53750+127230FM-12+023299999V0209999C000019999999N0500001N1-01351-02291101941ADDGF107991001001999999001041MD1610041+9999REMSYN060AAXX  25091 31300 42999 70000 11135 21229 40194 56004 80004;
0196313000999992000022512004+53750+127230FM-12+023299999V0209999C000012200019N0500001N1-01891-02221102091ADDAA199000091GF102991001001999999001011KA1120M-01111MA1999999098991MD1310071+9999REMSYN086AAXX  25121 31300 32984 20000 11189 21222 39899 40209 53007 80001 333 11111 555 1/126;EQDQ01  00002PRCP99
0122313000999992000022515004+53750+127230FM-12+023299999V0209999C000012200019N0500001N1-02311-02491102141ADDGA1001+999999999GF100991001001999999001001MD1410001+9999REMSYN054AAXX  25151 31300 42984 00000 11231 21249 40214 54000;
0122313000999992000022518004+53750+127230FM-12+023299999V0209999C000012200019N0500001N1-02401-02581102181ADDGA1001+999999999GF100991001001999999001001MD1310031+9999REMSYN054AAXX  25181 31300 42984 00000 11240 21258 40218 53003;
0112313000999992000022521004+53750+127230FM-12+023299999V0209999C000012200019N0500001N1-02591-02771102201ADDGF102991001001999999001011MD1410001+9999REMSYN060AAXX  25211 31300 42984 20000 11259 21277 40220 54000 80001;
0253313000999992000022600004+53750+127230FM-12+023299999V0202701N001012200019N0500001N1-02651-02831102231ADDAA199000091AJ100159199999999AY101061AY201061GF102991999999999999999999IA1289KA1120N-02781MA1999999099051MD1310031+9999MW1401REMSYN098AAXX  26001 31300 31999 22701 11265 21283 39905 40223 53003 74000 333 21278 44015 555 1/128 7000/;EQDQ01  00002PRCP99
0112313000999992000022603004+53750+127230FM-12+023299999V0201701N001019999999N0500001N1-01611-01951102111ADDGF107991001001999999001051MD1410001+9999REMSYN060AAXX  26031 31300 42999 71701 11161 21195 40211 54000 80005;
0112313000999992000022606004+53750+127230FM-12+023299999V0202301N002019999999N0500001N1-01181-01901101971ADDGF107991001001999999001051MD1810091+9999REMSYN060AAXX  26061 31300 42999 72302 11118 21190 40197 58009 80005;
0112313000999992000022609004+53750+127230FM-12+023299999V0203101N002019999999N0500001N1-01251-02081101971ADDGF106991031001999999041011MD1410001+9999REMSYN060AAXX  26091 31300 42999 63102 11125 21208 40197 54000 83041;
0206313000999992000022612004+53750+127230FM-12+023299999V0201801N002012200019N0500001N1-01731-02421102141ADDAA199000091GA1001+999999999GF100991001001999999001001KA1120M-01121MA1999999099071MD1310111+9999REMSYN080AAXX  26121 31300 32984 01802 11173 21242 39907 40214 53011 333 11112 555 1/124;EQDQ01  00002PRCP99
0122313000999992000022615004+53750+127230FM-12+023299999V0209999C000012200019N0500001N1-02001-02261102181ADDGA1001+999999999GF100991001001999999001001MD1410001+9999REMSYN054AAXX  26151 31300 42984 00000 11200 21226 40218 54000;
0150313000999992000022618004+53750+127230FM-12+023299999V0201801N001012200019N0160001N1-02441-02621102281ADDAY101061AY201061GA1001+999999999GF100991001001999999001001MD1310051+9999MW1401REMSYN060AAXX  26181 31300 41966 01801 11244 21262 40228 53005 74000;
0150313000999992000022621004+53750+127230FM-12+023299999V0201801N002012200019N0200001N1-02471-02651102351ADDAY101031AY201031GA1001+999999999GF100991001001999999001001MD1210051+9999MW1401REMSYN060AAXX  26211 31300 41970 01802 11247 21265 40235 52005 74000;
0241313000999992000022700004+53750+127230FM-12+023299999V0202601N001012200019N0500001N1-01861-02271102391ADDAA199000091AJ100159199999999GA1001+999999999GF100991001001999999001001IA1289KA1120N-02551MA1999999099291MD1210121+9999REMSYN092AAXX  27001 31300 32999 02601 11186 21227 39929 40239 52012 333 21255 44015 555 1/121 7000/;EQDQ01  00002PRCP99
0112313000999992000022703004+53750+127230FM-12+023299999V0200201N002012200019N0500001N1-01201-02031102371ADDGF104991001001999999001021MD1110061+9999REMSYN060AAXX  27031 31300 42999 40202 11120 21203 40237 51006 80002;
0112313000999992000022706004+53750+127230FM-12+023299999V0200501N003019999999N0500001N1-01031-02001102371ADDGF107991001001999999001021MD1310021+9999REMSYN060AAXX  27061 31300 42999 70503 11103 21200 40237 53002 80002;
0112313000999992000022709004+53750+127230FM-12+023299999V0203601N003012200019N0500001N1-01251-02331102461ADDGF101991001001999999001011MD1210071+9999REMSYN060AAXX  27091 31300 42999 13603 11125 21233 40246 52007 80001;
0206313000999992000022712004+53750+127230FM-12+023299999V0202601N001012200019N0500001N1-01611-02531102541ADDAA199000091GA1001+999999999GF100991001001999999001001KA1120M-01101MA1999999099461MD1110021+9999REMSYN080AAXX  27121 31300 32984 02601 11161 21253 39946 40254 51002 333 11110 555 1/124;EQDQ01  00002PRCP99
0122313000999992000022715004+53750+127230FM-12+023299999V0202701N001012200019N0500001N1-01931-02611102571ADDGA1001+999999999GF100991001001999999001001MD1410001+9999REMSYN054AAXX  27151 31300 42984 02701 11193 21261 40257 54000;
0122313000999992000022718004+53750+127230FM-12+023299999V0201901N001012200019N0500001N1-02191-02761102581ADDGA1001+999999999GF100991001001999999001001MD1610021+9999REMSYN054AAXX  27181 31300 42984 01901 11219 21276 40258 56002;
0122313000999992000022721004+53750+127230FM-12+023299999V0200601N001012200019N0500001N1-02531-02841102621ADDGA1001+999999999GF100991001001999999001001MD1410001+9999REMSYN054AAXX  27211 31300 42984 00601 11253 21284 40262 54000;
0241313000999992000022800004+53750+127230FM-12+023299999V0209999C000012200019N0500001N1-02511-02691102601ADDAA199000091AJ100159199999999GA1001+999999999GF100991001001999999001001IA1289KA1120N-02651MA1999999099421MD1819999+9999REMSYN092AAXX  28001 31300 32999 00000 11251 21269 39942 40260 58/02 333 21265 44015 555 1/126 7000/;EQDQ01  00002PRCP99
0122313000999992000022803004+53750+127230FM-12+023299999V0201401N002012200019N0500001N1-01621-02221102371ADDGA1001+999999999GF100991001001999999001001MD1710121+9999REMSYN054AAXX  28031 31300 42999 01402 11162 21222 40237 57012;
0112313000999992000022806004+53750+127230FM-12+023299999V0202701N001012200019N0500001N1-01271-02101102161ADDGF103991001001999999001011MD1710161+9999REMSYN060AAXX  28061 31300 42999 32701 11127 21210 40216 57016 80001;
0112313000999992000022809004+53750+127230FM-12+023299999V0209999C000012200019N0500001N1-01371-02311102131ADDGF102991001001999999001011MD1710041+9999REMSYN060AAXX  28091 31300 42999 20000 11137 21231 40213 57004 80001;
0196313000999992000022812004+53750+127230FM-12+023299999V0203301N001012200019N0500001N1-01991-02401102271ADDAA199000091GA1001+999999999GF100991001001999999001001KA1999M-01261MA1999999099151MD1310051+9999REMSYN070AAXX  28121 31300 32984 03301 11199 21240 39915 40227 53005 333 11126;EQDQ01  00002PRCP99
0112313000999992000022815004+53750+127230FM-12+023299999V0209999C000012200019N0500001N1-02311-02551102271ADDGF102991001001999999001021MD1810031+9999REMSYN060AAXX  28151 31300 42984 20000 11231 21255 40227 58003 80002;
0122313000999992000022818004+53750+127230FM-12+023299999V0209999C000012200019N0300001N1-02521-02701102331ADDGA1001+999999999GF100991001001999999001001MD1310031+9999REMSYN054AAXX  28181 31300 42980 00000 11252 21270 40233 53003;
0150313000999992000022821004+53750+127230FM-12+023299999V0209999C000012200019N0140001N1-02661-02831102301ADDAY101031AY201031GA1001+999999999GF100991001001999999001001MD1810051+9999MW1401REMSYN060AAXX  28211 31300 41964 00000 11266 21283 40230 58005 74000;
0259313000999992000022900004+53750+127230FM-12+023299999V02099999999992200019N0500001N1-02411-02601102261ADDAA199000091AJ100159199999999AY101061AY201061GF103991001001999999001011IA1289KA1120N-02661MA1999999099101MD1410001+9999MW1401REMSYN104AAXX  29001 31300 31999 3/000 11241 21260 39910 40226 54000 74000 80001 333 21266 44015 555 1/126 7000/;EQDQ01  00002PRCP99
0112313000999992000022903004+53750+127230FM-12+023299999V0202101N001012200019N0500001N1-01551-02061101991ADDGF102991001001999999001011MD1810161+9999REMSYN060AAXX  29031 31300 42999 22101 11155 21206 40199 58016 80001;
0122313000999992000022906004+53750+127230FM-12+023299999V0202401N001012200019N0500001N1-01001-01731101711ADDGA1001+999999999GF100991001001999999001001MD1710211+9999REMSYN054AAXX  29061 31300 42999 02401 11100 21173 40171 57021;
0131313000999992000022909004+53750+127230FM-12+023299999V0200501N001019999999N0500001N1-00951-01711101601ADDGF108991001001999999001021MD1710111+9999REMSYN060AAXX  29091 31300 42999 80501 11095 21171 40160 57801 80002;EQDQ01+008017APC3  
0196313000999992000022912004+53750+127230FM-12+023299999V0209999C000019999999N0500001N1-01091-01711101641ADDAA199000091GF108991081001999999021999KA1120M-00911MA1999999098651MD1310021+9999REMSYN086AAXX  29121 31300 32984 80000 11109 21171 39865 40164 53002 8802/ 333 11091 555 1/113;EQDQ01  00002PRCP99
0112313000999992000022915004+53750+127230FM-12+023299999V0200501N001019999999N0500001N1-01531-01871101641ADDGF106991001001999999001011MD1810051+9999REMSYN060AAXX  29151 31300 42984 60501 11153 21187 40164 58005 80001;
0097313000999992000022918004+53750+127230FM-12+023299999V0209999C000019999999N0500001N1-01891-02081999999ADDGF106991999999999999999999REMSYN059AAXX  29181 31300 42984 60000 11189 21208 4014 53005 80001;
0112313000999992000022921004+53750+127230FM-12+023299999V0209999C000019999999N0500001N1-02031-02221101901ADDGF108991001001999999001011MD1210151+9999REMSYN060AAXX  29211 31300 42984 80000 11203 21222 40190 52015 80001;
0275313000999992000030100004+53750+127230FM-12+023299999V0202401N001019999999N0040001N1-01991-02111102081ADDAA199000091AJ100159199999999AY121061AY221061GF107991001001999999001011IA1289KA1120N-02101MA1999999999999MD1210171+9999MW1101REMSYN104AAXX  01001 31300 31996 72401 11199 21211 35897 40208 52017 71022 80001 333 21210 44015 555 1/121 7000/;EQDQ01  00002PRCP99Q02 058973APOSP 
0112313000999992000030103004+53750+127230FM-12+023299999V0202201N001012200019N0500001N1-01081-01611101981ADDGF102991001001999999001011MD1110011+9999REMSYN060AAXX  01031 31300 42999 22201 11108 21161 40198 51001 80001;
0122313000999992000030106004+53750+127230FM-12+023299999V0202301N001012200019N0500001N1-00531-01331101891ADDGA1001+999999999GF100991001001999999001001MD1810021+9999REMSYN054AAXX  01061 31300 42999 02301 11053 21133 40189 58002;
0122313000999992000030109004+53750+127230FM-12+023299999V0203201N005012200019N0500001N1-00421-01771101721ADDGA1001+999999999GF100991001001999999001001MD1310041+9999REMSYN054AAXX  01091 31300 42999 03205 11042 21177 40172 53004;
0196313000999992000030112004+53750+127230FM-12+023299999V0209999C000012200019N0500001N1-01111-01841102081ADDAA199000091GA1001+999999999GF100991001001999999001001KA1999M-00301MA1999999099081MD1210081+9999REMSYN070AAXX  01121 31300 32984 00000 11111 21184 39908 40208 52008 333 11030;EQDQ01  00002PRCP99
0122313000999992000030115004+53750+127230FM-12+023299999V0209999C000012200019N0500001N1-01591-01861102141ADDGA1001+999999999GF100991001001999999001001MD1410001+9999REMSYN054AAXX  01151 31300 42984 00000 11159 21186 40214 54000;
0122313000999992000030118004+53750+127230FM-12+023299999V0202101N001012200019N0500001N1-01681-01941102151ADDGA1001+999999999GF100991001001999999001001MD1410001+9999REMSYN054AAXX  01181 31300 42984 02101 11168 21194 40215 54000;
0112313000999992000030121004+53750+127230FM-12+023299999V0209999C000019999999N0500001N1-01891-02081102071ADDGF105991001001999999001011MD1810111+9999REMSYN060AAXX  01211 31300 42984 50000 11189 21208 40207 58011 80001;
0231313000999992000030200004+53750+127230FM-12+023299999V0202701N001019999999N0200001N1-01761-01951101931ADDAA199000091AJ100159199999999GF105991001001999999001011IA1289KA1120N-01961MA1999999098851MD1710121+9999REMSYN098AAXX  02001 31300 32998 52701 11176 21195 39885 40193 57012 80001 333 21196 44015 555 1/126 7000/;EQDQ01  00002PRCP99
0131313000999992000030203004+53750+127230FM-12+023299999V0201501N001019999999N0500001N1-00582-01361101541ADDGF107991001001999999001011MD1710241+9999REMSYN060AAXX  02031 31300 42999 71501 11058 21136 40154 57024 80001;EQDQ01-000583ATOT  
0112313000999992000030206004+53750+127230FM-12+023299999V0201601N002019999999N0500001N1-00451-01161101331ADDGF108991001001999999001051MD1710181+9999REMSYN060AAXX  02061 31300 42999 81602 11045 21116 40133 57018 80005;
0112313000999992000030209004+53750+127230FM-12+023299999V0201201N001019999999N0500001N1-00461-01171101201ADDGF108991001001999999001071MD1710131+9999REMSYN060AAXX  02091 31300 42999 81201 11046 21117 40120 57013 80007;
0196313000999992000030212004+53750+127230FM-12+023299999V0201201N001012200019N0500001N1-00691-01261101081ADDAA199000091GF102991001001999999001021KA1120M-00391MA1999999098151MD1710151+9999REMSYN086AAXX  02121 31300 32984 21201 11069 21126 39815 40108 57015 80002 333 11039 555 1/111;EQDQ01  00002PRCP99
0112313000999992000030215004+53750+127230FM-12+023299999V0201301N002012200019N0500001N1-00701-01271100971ADDGF102991001001999999001021MD1710111+9999REMSYN060AAXX  02151 31300 42984 21302 11070 21127 40097 57011 80002;
0112313000999992000030218004+53750+127230FM-12+023299999V0200801N002019999999N0500001N1-01071-01431100921ADDGF106991001001999999001021MD1610091+9999REMSYN060AAXX  02181 31300 42984 60802 11107 21143 40092 56009 80002;
0112313000999992000030221004+53750+127230FM-12+023299999V0200801N002012200019N0500001N1-01281-01481100781ADDGF102991001001999999001021MD1710161+9999REMSYN060AAXX  02211 31300 42984 20802 11128 21148 40078 57016 80002;
0215313000999992000030300004+53750+127230FM-12+023299999V0200301N002012200019N0500001N1-01271-01471100771ADDAA199000091AJ100149199999999GF103991001001999999001021IA1289KA1120N-01451MA1999999097781MD1610011+9999REMSYN082AAXX  03001 31300 32999 30302 11127 21147 39778 40077 56001 80002 333 21145 44014;EQDQ01  00002PRCP99
0112313000999992000030303004+53750+127230FM-12+023299999V0201001N001012200019N0500001N1-00571-01141100471ADDGF102991001001999999001011MD1810111+9999REMSYN060AAXX  03031 31300 42999 21001 11057 21114 40047 58011 80001;
0112313000999992000030306004+53750+127230FM-12+023299999V0200901N001019999999N0500001N1-00211-00971100331ADDGF106991001001999999001021MD1710191+9999REMSYN060AAXX  03061 31300 42999 60901 11021 21097 40033 57019 80002;
0112313000999992000030309004+53750+127230FM-12+023299999V0200401N004019999999N0500001N1-00411-01251100311ADDGF108991001001999999001021MD1710051+9999REMSYN060AAXX  03091 31300 42999 80404 11041 21125 40031 57005 80002;
0211313000999992000030312004+53750+127230FM-12+023299999V02099999999999999999N0200001N1-00571-01091100371ADDAA112000791AY171061AY221061GF108991041001999999041071KA1120M-00181MA1999999097481MD1310051+9999MW1711REMSYN098AAXX  03121 31300 11970 80/03 11057 21109 39748 40037 53005 69902 77172 84047 333 11018 555 1/107;
0140313000999992000030315004+53750+127230FM-12+023299999V0200301N003019999999N0220001N1-00701-01031100311ADDAY171031AY221031GF108991021001999999041071MD1810081+9999MW1711REMSYN066AAXX  03151 31300 41972 80303 11070 21103 40031 58008 77172 82047;
0140313000999992000030318004+53750+127230FM-12+023299999V0200301N002019999999N0180001N1-00711-01051100191ADDAY171061AY221061GF108991001001999999001071MD1710111+9999MW1711REMSYN066AAXX  03181 31300 41968 80302 11071 21105 40019 57011 77172 80007;
0140313000999992000030321004+53750+127230FM-12+023299999V0201801N001019999999N0150001N1-00731-00941100101ADDAY171031AY221031GF108991041001999999011071MD1710091+9999MW1711REMSYN066AAXX  03211 31300 41965 81801 11073 21094 40010 57009 77172 84017;
0230313000999992000030400004+53750+127230FM-12+023299999V0201001N002010300019N0500001N1-00711-01091100041ADDAA112000191AJ100149199999999AY171061AY221061GF108991021071008001021999IA1289KA1120N-00801MA1999999097141MD1710061+9999MW1711REMSYN094AAXX  04001 31300 11599 81002 11071 21109 39714 40004 57006 69922 77172 8272/ 333 21080 44014;
0140313000999992000030403004+53750+127230FM-12+023299999V0200901N003010300019N0500001N1-00561-01221100071ADDAY171031AY221031GF108991021071008001021999MD1310051+9999MW1221REMSYN066AAXX  04031 31300 41599 80903 11056 21122 40007 53005 72272 8272/;
0140313000999992000030406004+53750+127230FM-12+023299999V0203101N002019999999N0500001N1-00451-01111100151ADDAY171061AY221061GF108991021071999999011999MD1210091+9999MW1021REMSYN066AAXX  04061 31300 41999 83102 11045 21111 40015 52009 70272 8271/;
0153313000999992000030409004+53750+127230FM-12+023299999V02099999999999999999N0500001N1+99999+99999100301ADDAY121031AY281031GF108991001001999999999999MD1210191+9999MW1021REMSYN060AAXX  04091 31300 41999 8/5/3 22108 4003/ 52019 70228 801//;EQDQ01+000012SCOLCG
0211313000999992000030412004+53750+127230FM-12+023299999V0203101N001019999999N0500001N1-00651-01201100571ADDAA112000791AY171061AY221061GF108991001001999999001071KA1120M-00401MA1999999097661MD1210191+9999MW1021REMSYN098AAXX  04121 31300 11984 83101 11065 21120 39766 40057 52019 69902 70272 80007 333 11040 555 1/110;
0112313000999992000030415004+53750+127230FM-12+023299999V0203101N001019999999N0500001N1-01001-01441100691ADDGF108991001001999999001071MD1210081+9999REMSYN060AAXX  04151 31300 42984 83101 11100 21144 40069 52008 80007;
0112313000999992000030418004+53750+127230FM-12+023299999V0209999C000019999999N0500001N1-01341-01691100831ADDGF108991001001999999001021MD1210101+9999REMSYN060AAXX  04181 31300 42984 80000 11134 21169 40083 52010 80002;
0112313000999992000030421004+53750+127230FM-12+023299999V0203601N001019999999N0500001N1-01261-01611100861ADDGF108991001001999999001021MD1210051+9999REMSYN060AAXX  04211 31300 42984 83601 11126 21161 40086 52005 80002;
0215313000999992000030500004+53750+127230FM-12+023299999V0200101N003019999999N0500001N1-01181-01621101021ADDAA199000091AJ100149199999999GF106991001001999999001021IA1289KA1120N-01401MA1999999098041MD1210151+9999REMSYN082AAXX  05001 31300 32999 60103 11118 21162 39804 40102 52015 80002 333 21140 44014;EQDQ01  00002PRCP99
0112313000999992000030503004+53750+127230FM-12+023299999V0203601N003012200019N0500001N1-00771-01371101041ADDGF103991001001999999001011MD1210061+9999REMSYN060AAXX  05031 31300 42999 33603 11077 21137 40104 52006 80001;
0112313000999992000030506004+53750+127230FM-12+023299999V0200201N004019999999N0500001N1-00711-01361101031ADDGF106991031001999999041011MD1410001+9999REMSYN060AAXX  05061 31300 42999 60204 11071 21136 40103 54000 83041;
0112313000999992000030509004+53750+127230FM-12+023299999V0200101N004019999999N0500001N1-00911-01531101191ADDGF107991001001999999001021MD1310141+9999REMSYN060AAXX  05091 31300 42999 70104 11091 21153 40119 53014 80002;
0196313000999992000030512004+53750+127230FM-12+023299999V0200401N003019999999N0500001N1-01031-01561101331ADDAA199000091GF108991001001999999001071KA1120M-00691MA1999999098361MD1210121+9999REMSYN086AAXX  05121 31300 32984 80403 11103 21156 39836 40133 52012 80007 333 11069 555 1/114;EQDQ01  00002PRCP99
0112313000999992000030515004+53750+127230FM-12+023299999V0200501N003019999999N0500001N1-01081-01521101421ADDGF106991001001999999001021MD1210081+9999REMSYN060AAXX  05151 31300 42984 60503 11108 21152 40142 52008 80002;
0112313000999992000030518004+53750+127230FM-12+023299999V0200201N002019999999N0500001N1-01171-01611101431ADDGF105991001001999999001011MD1410001+9999REMSYN060AAXX  05181 31300 42984 50202 11117 21161 40143 54000 80001;
0112313000999992000030521004+53750+127230FM-12+023299999V02099999999999999999N0500001N1-01191-01711101431ADDGF108991001001999999001071MD1410001+9999REMSYN060AAXX  05211 31300 42984 821/2 11119 21171 40143 54000 80007;
0231313000999992000030600004+53750+127230FM-12+023299999V0203401N002019999999N0500001N1-01251-01771101591ADDAA199000091AJ100149199999999GF108991001001999999001071IA1289KA1120N-01291MA1999999098591MD1310151+9999REMSYN098AAXX  06001 31300 32999 83402 11125 21177 39859 40159 53015 80007 333 21129 44014 555 1/113 7000/;EQDQ01  00002PRCP99
0112313000999992000030603004+53750+127230FM-12+023299999V0200401N004019999999N0500001N1-00991-01581101571ADDGF108991001001999999001051MD1110011+9999REMSYN060AAXX  06031 31300 42999 80404 11099 21158 40157 51001 80005;
0112313000999992000030606004+53750+127230FM-12+023299999V0200201N004019999999N0500001N1-00871-01531101551ADDGF108991001001999999001051MD1810021+9999REMSYN060AAXX  06061 31300 42999 80204 11087 21153 40155 58002 80005;
0112313000999992000030609004+53750+127230FM-12+023299999V0203401N002019999999N0500001N1-00961-01731101581ADDGF108991001001999999001051MD1310031+9999REMSYN060AAXX  06091 31300 42999 83402 11096 21173 40158 53003 80005;
0186313000999992000030612004+53750+127230FM-12+023299999V0203201N003019999999N0500001N1-01171-02121101621ADDAA199000091GF106991001001999999001011KA1999M-00761MA1999999098621MD1110011+9999REMSYN076AAXX  06121 31300 32984 63203 11117 21212 39862 40162 51001 80001 333 11076;EQDQ01  00002PRCP99
0122313000999992000030615004+53750+127230FM-12+023299999V0203401N005019999999N0500001N1-01351-02291101541ADDGF105991001001999999001011MD1810081+9999REMSYN070AAXX  06151 31300 42984 53405 11135 21229 40154 58008 80001 333 91110;
0132313000999992000030618004+53750+127230FM-12+023299999V0203601N002012200019N0500001N1-01551-02361101421ADDGA1001+999999999GF100991001001999999001001MD1710151+9999REMSYN064AAXX  06181 31300 42984 03602 11155 21236 40142 57015 333 91110;
0122313000999992000030621004+53750+127230FM-12+023299999V0201801N001012200019N0500001N1-01771-02561101531ADDGA1001+999999999GF100991001001999999001001MD1310081+9999REMSYN054AAXX  06211 31300 42984 01801 11177 21256 40153 53008;
0231313000999992000030700004+53750+127230FM-12+023299999V0203601N001012200019N0500001N1-01651-02451101461ADDAA199000091AJ100139199999999GF103991001001999999001011IA1309KA1120N-01871MA1999999098421MD1810051+9999REMSYN098AAXX  07001 31300 32999 33601 11165 21245 39842 40146 58005 80001 333 21187 42013 555 1/118 7000/;EQDQ01  00002PRCP99
0112313000999992000030703004+53750+127230FM-12+023299999V0200601N002012200019N0500001N1-01281-02111101341ADDGF103991001001999999001011MD1710081+9999REMSYN060AAXX  07031 31300 42999 30602 11128 21211 40134 57008 80001;
0112313000999992000030706004+53750+127230FM-12+023299999V0203301N004012200019N0500001N1-01081-02041101271ADDGF102991001001999999001021MD1710051+9999REMSYN060AAXX  07061 31300 42999 23304 11108 21204 40127 57005 80002;
0122313000999992000030709004+53750+127230FM-12+023299999V0203201N003012200019N0500001N1-01211-02161101341ADDGA1001+999999999GF100991001001999999001001MD1310061+9999REMSYN054AAXX  07091 31300 42999 03203 11121 21216 40134 53006;
0196313000999992000030712004+53750+127230FM-12+023299999V0203201N002012200019N0500001N1-01431-02361101441ADDAA199000091GA1001+999999999GF100991001001999999001001KA1999M-01071MA1999999098421MD1110071+9999REMSYN070AAXX  07121 31300 32984 03202 11143 21236 39842 40144 51007 333 11107;EQDQ01  00002PRCP99
0122313000999992000030715004+53750+127230FM-12+023299999V0203401N004019999999N0500001N1-01511-02441101451ADDGF106991031001999999041021MD1410001+9999REMSYN070AAXX  07151 31300 42984 63404 11151 21244 40145 54000 83042 333 91111;
0122313000999992000030718004+53750+127230FM-12+023299999V0202701N003012200019N0500001N1-02121-02691101861ADDGA1001+999999999GF100991001001999999001001MD1210061+9999REMSYN054AAXX  07181 31300 42984 02703 11212 21269 40186 52006;
0112313000999992000030721004+53750+127230FM-12+023299999V0203301N004012200019N0500001N1-01811-02711101581ADDGF102991021001999999041001MD1110021+9999REMSYN060AAXX  07211 31300 42984 23304 11181 21271 40158 51002 82040;
0215313000999992000030800004+53750+127230FM-12+023299999V0203301N002012200019N0500001N1-01771-02681101681ADDAA199000091AJ100139199999999GF102991001001999999001011IA1309KA1120N-01901MA1999999098611MD1310091+9999REMSYN082AAXX  08001 31300 32999 23302 11177 21268 39861 40168 53009 80001 333 21190 42013;EQDQ01  00002PRCP99
0132313000999992000030803004+53750+127230FM-12+023299999V0203201N005012200019N0500001N1-01491-02421101621ADDGA1001+999999999GF100991001001999999001001MD1810031+9999REMSYN064AAXX  08031 31300 42999 03205 11149 21242 40162 58003 333 91110;
0122313000999992000030806004+53750+127230FM-12+023299999V0203201N004012200019N0500001N1-01291-02241101591ADDGA1001+999999999GF100991001001999999001001MD1410001+9999REMSYN054AAXX  08061 31300 42999 03204 11129 21224 40159 54000;
0122313000999992000030809004+53750+127230FM-12+023299999V0203201N004012200019N0500001N1-01391-02461101611ADDGA1001+999999999GF100991001001999999001001MD1410001+9999REMSYN054AAXX  08091 31300 42999 03204 11139 21246 40161 54000;
0206313000999992000030812004+53750+127230FM-12+023299999V0202701N001012200019N0500001N1-01691-02731101761ADDAA199000091GA1001+999999999GF100991001001999999001001KA1120M-01271MA1999999098701MD1310121+9999REMSYN080AAXX  08121 31300 32984 02701 11169 21273 39870 40176 53012 333 11127 555 1/121;EQDQ01  00002PRCP99
0149313000999992000030815004+53750+127230FM-12+023299999V0203201N006012200019N0500001N1-01781-02691101751ADDGA1001+999999999GF100991001001999999001001MD1810021+9999OA140101001REMSYN070AAXX  08151 31300 42984 03206 11178 21269 40175 58002 333 91010 91111;
0132313000999992000030818004+53750+127230FM-12+023299999V0203201N004012200019N0500001N1-01831-02731101751ADDGA1001+999999999GF100991001001999999001001MD1410001+9999REMSYN064AAXX  08181 31300 42984 03204 11183 21273 40175 54000 333 91111;
0116313000999992000030821004+53750+127230FM-12+023299999V0203301N004019999999N0500001N1-01841-02741101751ADDGF107991999999999999999999MD1410001+9999REMSYN064AAXX  08211 31300 42984 73304 11184 21274 40175 54000 333 91111;
0265313000999992000030900004+53750+127230FM-12+023299999V0203301N005019999999N0500001N1-01711-02621101781ADDAA199000091AJ100109199999999GF106991031051999999031011IA1309KA1120N-01851MA1999999098721MD1310041+9999OA140101001OA249901101REMSYN110AAXX  09001 31300 32999 63305 11171 21262 39872 40178 53004 83531 333 21185 42010 91010 91111 555 1/117 7000/;EQDQ01  00002PRCP99
0139313000999992000030903004+53750+127230FM-12+023299999V0203301N005012200019N0500001N1-01351-02291101731ADDGF102991001001999999001021MD1410001+9999OA140101001REMSYN076AAXX  09031 31300 42999 23305 11135 21229 40173 54000 80002 333 91010 91110;
0122313000999992000030906004+53750+127230FM-12+023299999V0203301N003019999999N0500001N1-01031-02131101541ADDGF105991001001999999001021MD1810161+9999REMSYN070AAXX  09061 31300 42999 53303 11103 21213 40154 58016 80002 333 91110;
0112313000999992000030909004+53750+127230FM-12+023299999V0203301N003019999999N0500001N1-01051-02151101421ADDGF107991001001999999001011MD1710111+9999REMSYN060AAXX  09091 31300 42999 73303 11105 21215 40142 57011 80001;
0196313000999992000030912004+53750+127230FM-12+023299999V0209999C000012200019N0500001N1-01441-02251101431ADDAA199000091GF103991001001999999001011KA1120M-00961MA1999999098411MD1610041+9999REMSYN086AAXX  09121 31300 32984 30000 11144 21225 39841 40143 56004 80001 333 11096 555 1/121;EQDQ01  00002PRCP99
0112313000999992000030915004+53750+127230FM-12+023299999V0203201N001012200019N0500001N1-01711-02401101261ADDGF103991001001999999001011MD1810191+9999REMSYN060AAXX  09151 31300 42984 33201 11171 21240 40126 58019 80001;
0112313000999992000030918004+53750+127230FM-12+023299999V0200801N001019999999N0500001N1-01881-02561101201ADDGF105991001001999999999999MD1710091+9999REMSYN060AAXX  09181 31300 42984 50801 11188 21256 40120 57009 800//;
0112313000999992000030921004+53750+127230FM-12+023299999V0202401N001019999999N0500001N1-01811-02141101131ADDGF106991021001999999041021MD1710051+9999REMSYN060AAXX  09211 31300 42984 62401 11181 21214 40113 57005 82042;
0231313000999992000031000004+53750+127230FM-12+023299999V0203301N003012200019N0500001N1-01211-02041101061ADDAA199000091AJ100109199999999GF102991001001999999001011IA1309KA1120N-01901MA1999999098081MD1410001+9999REMSYN098AAXX  10001 31300 32999 23303 11121 21204 39808 40106 54000 80001 333 21190 42010 555 1/112 7000/;EQDQ01  00002PRCP99
0128313000999992000031003004+53750+127230FM-12+023299999V02099999999992200019N0500001N1-00911-01791101061ADDGA1001+999999999GF100991001001999999001001MD1310031+9999REMSYN060AAXX  10031 31300 42999 004// 11091 21179 40106 53003 8002/;
0122313000999992000031006004+53750+127230FM-12+023299999V0203301N004010750019N0500001N1-00791-01651101041ADDGF107991021011008001001021MD1810011+9999REMSYN070AAXX  10061 31300 42599 73304 11079 21165 40104 58001 82102 333 91110;
0112313000999992000031009004+53750+127230FM-12+023299999V0203101N003019999999N0500001N1-00881-01811101051ADDGF108991011001999999041021MD1410001+9999REMSYN060AAXX  10091 31300 42999 83103 11088 21181 40105 54000 81042;
0182313000999992000031012004+53750+127230FM-12+023299999V0202701N001019999999N0500001N1-01151-01871101071ADDAA199000091GF108991001001999999001071MA1999999098101MD1410001+9999REMSYN085AAXX  10121 31300 32984 82701 11115 21187 39810 40107 54000 80007 333 110/6 555 1/17;EQDQ01  00002PRCP99
0112313000999992000031015004+53750+127230FM-12+023299999V0209999C000019999999N0500001N1-01311-01921101141ADDGF105991001001999999001011MD1310041+9999REMSYN060AAXX  10151 31300 42984 50000 11131 21192 40114 53004 80001;
0122313000999992000031018004+53750+127230FM-12+023299999V0203301N004012200019N0500001N1-01221-02051101181ADDGA1001+999999999GF100991001001999999001001MD1210061+9999REMSYN054AAXX  10181 31300 42984 03304 11122 21205 40118 52006;
0112313000999992000031021004+53750+127230FM-12+023299999V0203301N003012200019N0500001N1-01251-02081101171ADDGF107991021041012501001011MD1810011+9999REMSYN060AAXX  10211 31300 42684 73303 11125 21208 40117 58001 82401;
0231313000999992000031100004+53750+127230FM-12+023299999V0203301N004010750019N0500001N1-01221-02051101241ADDAA199000091AJ100099199999999GF107991031051012501001021IA1309KA1120N-01441MA1999999098251MD1710061+9999REMSYN098AAXX  11001 31300 32699 73304 11122 21205 39825 40124 57006 83502 333 21144 42009 555 1/114 7000/;EQDQ01  00002PRCP99
0112313000999992000031103004+53750+127230FM-12+023299999V0203301N003010120019N0500001N1-00971-01901101231ADDGF108991051021012501001021MD1210011+9999REMSYN060AAXX  11031 31300 42699 83303 11097 21190 40123 52001 85202;
0112313000999992000031106004+53750+127230FM-12+023299999V0203201N003012200019N0500001N1-00931-01821101271ADDGF106991041021012501001011MD1210051+9999REMSYN060AAXX  11061 31300 42699 63203 11093 21182 40127 52005 84201;
0112313000999992000031109004+53750+127230FM-12+023299999V0203301N004012200019N0500001N1-01011-01981101371ADDGF104991021051012501001011MD1210091+9999REMSYN060AAXX  11091 31300 42699 43304 11101 21198 40137 52009 82501;
0206313000999992000031112004+53750+127230FM-12+023299999V0202901N001012200019N0500001N1-01331-02151101461ADDAA199000091GA1001+999999999GF100991001001999999001001KA1120M-00841MA1999999098461MD1210061+9999REMSYN080AAXX  11121 31300 32984 02901 11133 21215 39846 40146 52006 333 11084 555 1/121;EQDQ01  00002PRCP99
0122313000999992000031115004+53750+127230FM-12+023299999V0203301N001012200019N0500001N1-01571-02381101531ADDGA1001+999999999GF100991001001999999001001MD1110031+9999REMSYN054AAXX  11151 31300 42984 03301 11157 21238 40153 51003;
0122313000999992000031118004+53750+127230FM-12+023299999V0209999C000012200019N0500001N1-01881-02461101641ADDGA1001+999999999GF100991001001999999001001MD1310061+9999REMSYN054AAXX  11181 31300 42984 00000 11188 21246 40164 53006;
0122313000999992000031121004+53750+127230FM-12+023299999V0209999C000012200019N0500001N1-02111-02361101661ADDGA1001+999999999GF100991001001999999001001MD1410001+9999REMSYN054AAXX  11211 31300 42984 00000 11211 21236 40166 54000;
0231313000999992000031200004+53750+127230FM-12+023299999V0202101N002012200019N0500001N1-01391-01911101601ADDAA199000091AJ100099199999999GF102991011001999999041011IA1309KA1120N-02151MA1999999098571MD1310021+9999REMSYN098AAXX  12001 31300 32999 22102 11139 21191 39857 40160 53002 81041 333 21215 42009 555 1/114 7000/;EQDQ01  00002PRCP99
0112313000999992000031203004+53750+127230FM-12+023299999V0200301N005012200019N0500001N1-00831-01871101591ADDGF102991001001999999001021MD1210061+9999REMSYN060AAXX  12031 31300 42999 20305 11083 21187 40159 52006 80002;
0112313000999992000031206004+53750+127230FM-12+023299999V0200101N003012200019N0500001N1-00671-01861101631ADDGF103991001001999999001021MD1210061+9999REMSYN060AAXX  12061 31300 42999 30103 11067 21186 40163 52006 80002;
0122313000999992000031209004+53750+127230FM-12+023299999V0200501N002012200019N0500001N1-00661-01841101681ADDGA1001+999999999GF100991001001999999001001MD1110051+9999REMSYN054AAXX  12091 31300 42999 00502 11066 21184 40168 51005;
0185313000999992000031212004+53750+127230FM-12+023299999V0202301N001012200019N0500001N1-01111-01951101831ADDAA199000091GA1001+999999999GF100991001001999999001001KA1120M-00571MD1210091+9999REMSYN074AAXX  12121 31300 32984 02301 11111 21195 40183 52009 333 11057 555 1/116;EQDQ01  00002PRCP99
0122313000999992000031215004+53750+127230FM-12+023299999V0202101N001012200019N0500001N1-01371-01721101861ADDGA1001+999999999GF100991001001999999001001MD1410001+9999REMSYN054AAXX  12151 31300 42984 02101 11137 21172 40186 54000;
0122313000999992000031218004+53750+127230FM-12+023299999V0200401N001012200019N0500001N1-01111-01841101851ADDGA1001+999999999GF100991001001999999001001MD1310021+9999REMSYN054AAXX  12181 31300 42984 00401 11111 21184 40185 53002;
0122313000999992000031221004+53750+127230FM-12+023299999V0202301N002012200019N0500001N1-01081-01921101851ADDGA1001+999999999GF100991001001999999001001MD1410001+9999REMSYN054AAXX  12211 31300 42984 02302 11108 21192 40185 54000;
0231313000999992000031300004+53750+127230FM-12+023299999V0201001N002012200019N0500001N1-00921-01881101831ADDAA199000091AJ100089199999999GF102991001001999999001011IA1309KA1120N-01451MA1999999098851MD1510001+9999REMSYN098AAXX  13001 31300 32999 21002 11092 21188 39885 40183 55000 80001 333 21145 42008 555 1/110 7000/;EQDQ01  00002PRCP99
0112313000999992000031303004+53750+127230FM-12+023299999V0203101N003012200019N0500001N1-00501-01591101721ADDGF103991001001999999001011MD1810051+9999REMSYN060AAXX  13031 31300 42999 33103 11050 21159 40172 58005 80001;
0112313000999992000031306004+53750+127230FM-12+023299999V0200101N003012200019N0500001N1-00291-01561101711ADDGF104991001001999999001011MD1310011+9999REMSYN060AAXX  13061 31300 42999 40103 11029 21156 40171 53001 80001;
0122313000999992000031309004+53750+127230FM-12+023299999V0201801N001012200019N0500001N1-00241-01661101721ADDGA1001+999999999GF100991001001999999001001MD1210021+9999REMSYN054AAXX  13091 31300 42999 01801 11024 21166 40172 52002;
0196313000999992000031312004+53750+127230FM-12+023299999V0201001N001012200019N0500001N1-00621-01681101801ADDAA199000091GA1001+999999999GF100991001001999999001001KA1999M-00221MA1999999098861MD1110031+9999REMSYN070AAXX  13121 31300 32984 01001 11062 21168 39886 40180 51003 333 11022;EQDQ01  00002PRCP99
0122313000999992000031315004+53750+127230FM-12+023299999V0201801N001012200019N0500001N1-01131-01571101861ADDGA1001+999999999GF100991001001999999001001MD1410001+9999REMSYN054AAXX  13151 31300 42984 01801 11113 21157 40186 54000;
0122313000999992000031318004+53750+127230FM-12+023299999V0203301N001012200019N0500001N1-01571-01911101861ADDGA1001+999999999GF100991001001999999001001MD1810051+9999REMSYN054AAXX  13181 31300 42984 03301 11157 21191 40186 58005;
0122313000999992000031321004+53750+127230FM-12+023299999V0201001N002012200019N0500001N1-01591-01861101811ADDGA1001+999999999GF100991001001999999001001MD1710051+9999REMSYN054AAXX  13211 31300 42984 01002 11159 21186 40181 57005;
0231313000999992000031400004+53750+127230FM-12+023299999V0201901N001012200019N0500001N1-01231-01581101791ADDAA199000091AJ100079199999999GF102991001001999999001011IA1309KA1120N-01721MA1999999098791MD1310031+9999REMSYN098AAXX  14001 31300 32999 21901 11123 21158 39879 40179 53003 80001 333 21172 42007 555 1/111 7000/;EQDQ01  00002PRCP99
0112313000999992000031403004+53750+127230FM-12+023299999V0203401N003019999999N0500001N1-00411-01361101661ADDGF105991001001999999001011MD1810041+9999REMSYN060AAXX  14031 31300 42999 53403 11041 21136 40166 58004 80001;
0112313000999992000031406004+53750+127230FM-12+023299999V0203401N002012200019N0500001N1-00271-01271101461ADDGF103991001001999999001011MD1610191+9999REMSYN060AAXX  14061 31300 42999 33402 11027 21127 40146 56019 80001;
0112313000999992000031409004+53750+127230FM-12+023299999V0200301N003019999999N0500001N1-00421-01491101491ADDGF107991001001999999001011MD1310021+9999REMSYN060AAXX  14091 31300 42999 70303 11042 21149 40149 53002 80001;
0206313000999992000031412004+53750+127230FM-12+023299999V0209999C000012200019N0500001N1-00821-01771101541ADDAA199000091GA1001+999999999GF100991001001999999001001KA1120M-00201MA1999999098581MD1410001+9999REMSYN080AAXX  14121 31300 32984 00000 11082 21177 39858 40154 54000 333 11020 555 1/114;EQDQ01  00002PRCP99
0122313000999992000031415004+53750+127230FM-12+023299999V0209999C000012200019N0500001N1-01251-01521101561ADDGA1001+999999999GF100991001001999999001001MD1810021+9999REMSYN054AAXX  14151 31300 42984 00000 11125 21152 40156 58002;
0122313000999992000031418004+53750+127230FM-12+023299999V0201201N001012200019N0500001N1-01451-01651101591ADDGA1001+999999999GF100991001001999999001001MD1410001+9999REMSYN054AAXX  14181 31300 42984 01201 11145 21165 40159 54000;
0122313000999992000031421004+53750+127230FM-12+023299999V0201901N002012200019N0500001N1-01711-01831101621ADDGA1001+999999999GF100991001001999999001001MD1410001+9999REMSYN054AAXX  14211 31300 42984 01902 11171 21183 40162 54000;
0243313000999992000031500004+53750+127230FM-12+023299999V0203101N002012200019N0500001N1-01171+99999101621ADDAA199000091AJ100049199999999GA1001+999999999GF100991001001999999001001IA1259KA1120N-01751MA1999999098621MD1310061+9999REMSYN094AAXX  15001 31300 32999 03102 11117 21044 39862 40162 53006 333 21175 41004 555 1/PI UPPPXA V;EQDQ01  00002PRCP99
0122313000999992000031503004+53750+127230FM-12+023299999V0200101N003012200019N0500001N1-00471-01401101521ADDGA1001+999999999GF100991001001999999001001MD1810021+9999REMSYN054AAXX  15031 31300 42999 00103 11047 21140 40152 58002;
0122313000999992000031506004+53750+127230FM-12+023299999V0201901N003012200019N0500001N1-00201-01201101411ADDGA1001+999999999GF100991001001999999001001MD1710071+9999REMSYN054AAXX  15061 31300 42999 01903 11020 21120 40141 57007;
0122313000999992000031509004+53750+127230FM-12+023299999V0202101N002012200019N0500001N1-00371-01401101411ADDGA1001+999999999GF100991001001999999001001MD1710021+9999REMSYN054AAXX  15091 31300 42999 02102 11037 21140 40141 57002;
0206313000999992000031512004+53750+127230FM-12+023299999V0200601N001012200019N0500001N1-00801-01361101591ADDAA199000091GA1001+999999999GF100991001001999999001001KA1120M-00161MA1999999098631MD1310121+9999REMSYN080AAXX  15121 31300 32984 00601 11080 21136 39863 40159 53012 333 11016 555 1/113;EQDQ01  00002PRCP99
0122313000999992000031515004+53750+127230FM-12+023299999V0202601N001012200019N0500001N1-01211-01481101631ADDGA1001+999999999GF100991001001999999001001MD1410001+9999REMSYN054AAXX  15151 31300 42984 02601 11121 21148 40163 54000;
0122313000999992000031518004+53750+127230FM-12+023299999V0209999C000012200019N0500001N1-01521-01721101541ADDGA1001+999999999GF100991001001999999001001MD1810121+9999REMSYN054AAXX  15181 31300 42984 00000 11152 21172 40154 58012;
0122313000999992000031521004+53750+127230FM-12+023299999V0202301N001012200019N0500001N1-01771-01891101571ADDGA1001+999999999GF100991001001999999001001MD1410001+9999REMSYN054AAXX  15211 31300 42984 02301 11177 21189 40157 54000;
0241313000999992000031600004+53750+127230FM-12+023299999V0209999C000012200019N0500001N1-01431-01631101561ADDAA199000091AJ100049199999999GA1001+999999999GF100991001001999999001001IA1259KA1120N-01801MA1999999098541MD1310031+9999REMSYN092AAXX  16001 31300 32999 00000 11143 21163 39854 40156 53003 333 21180 41004 555 1/112 7000/;EQDQ01  00002PRCP99
0122313000999992000031603004+53750+127230FM-12+023299999V0201701N001012200019N0500001N1-00571-01291101351ADDGA1001+999999999GF100991001001999999001001MD1810111+9999REMSYN054AAXX  16031 31300 42999 01701 11057 21129 40135 58011;
0122313000999992000031606004+53750+127230FM-12+023299999V0201701N002012200019N0500001N1-00251-01301101181ADDGA1001+999999999GF100991001001999999001001MD1710131+9999REMSYN054AAXX  16061 31300 42999 01702 11025 21130 40118 57013;
0122313000999992000031609004+53750+127230FM-12+023299999V0202201N002012200019N0500001N1-00291-01431101121ADDGA1001+999999999GF100991001001999999001001MD1610061+9999REMSYN054AAXX  16091 31300 42999 02202 11029 21143 40112 56006;
0206313000999992000031612004+53750+127230FM-12+023299999V0200401N001012200019N0500001N1-00731-01431101221ADDAA199000091GA1001+999999999GF100991001001999999001001KA1120M-00201MA1999999098281MD1310041+9999REMSYN080AAXX  16121 31300 32984 00401 11073 21143 39828 40122 53004 333 11020 555 1/113;EQDQ01  00002PRCP99
0122313000999992000031615004+53750+127230FM-12+023299999V0209999C000012200019N0500001N1-01121-01471101281ADDGA1001+999999999GF100991001001999999001001MD1210021+9999REMSYN054AAXX  16151 31300 42984 00000 11112 21147 40128 52002;
0122313000999992000031618004+53750+127230FM-12+023299999V0209999C000012200019N0500001N1-01461-01591101321ADDGA1001+999999999GF100991001001999999001001MD1410001+9999REMSYN054AAXX  16181 31300 42984 00000 11146 21159 40132 54000;
0122313000999992000031621004+53750+127230FM-12+023299999V0209999C000012200019N0500001N1-01691-01811101381ADDGA1001+999999999GF100991001001999999001001MD1310031+9999REMSYN054AAXX  16211 31300 42984 00000 11169 21181 40138 53003;
0241313000999992000031700004+53750+127230FM-12+023299999V0202701N001012200019N0500001N1-01311-01511101391ADDAA199000091AJ100019199999999GA1001+999999999GF100991001001999999001001IA1259KA1120N-01881MA1999999098391MD1210061+9999REMSYN092AAXX  17001 31300 32999 02701 11131 21151 39839 40139 52006 333 21188 41001 555 1/110 7000/;EQDQ01  00002PRCP99
0112313000999992000031703004+53750+127230FM-12+023299999V0201801N001012200019N0500001N1-00331-01391101281ADDGF101991001001999999001011MD1410001+9999REMSYN060AAXX  17031 31300 42999 11801 11033 21139 40128 54000 80001;
0112313000999992000031706004+53750+127230FM-12+023299999V0202201N001012200019N0500001N1-00051-01371101211ADDGF102991011011008001001011MD1810041+9999REMSYN060AAXX  17061 31300 42599 22201 11005 21137 40121 58004 81101;
0112313000999992000031709004+53750+127230FM-12+023299999V0202001N002012200019N0500001N1-00111-01371101231ADDGF104991021021008001001021MD1310011+9999REMSYN060AAXX  17091 31300 42599 42002 11011 21137 40123 53001 82202;
0206313000999992000031712004+53750+127230FM-12+023299999V0200301N003012200019N0500001N1-00451-01551101391ADDAA199000091GA1001+999999999GF100991001001999999001001KA1120M+00011MA1999999098491MD1210131+9999REMSYN080AAXX  17121 31300 32984 00303 11045 21155 39849 40139 52013 333 10001 555 1/110;EQDQ01  00002PRCP99
0122313000999992000031715004+53750+127230FM-12+023299999V0200401N002012200019N0500001N1-00831-01661101521ADDGA1001+999999999GF100991001001999999001001MD1210071+9999REMSYN054AAXX  17151 31300 42984 00402 11083 21166 40152 52007;
0122313000999992000031721004+53750+127230FM-12+023299999V0202101N001012200019N0500001N1-01451-01581101651ADDGA1001+999999999GF100991001001999999001001MD1310031+9999REMSYN054AAXX  17211 31300 42984 02101 11145 21158 40165 53003;
0231313000999992000031800004+53750+127230FM-12+023299999V0202101N001019999999N0500001N1-00841-01371101641ADDAA199000091AJ100019199999999GF108991001001999999001021IA1259KA1120N-01501MA1999999098681MD1210061+9999REMSYN098AAXX  18001 31300 32999 82101 11084 21137 39868 40164 52006 80002 333 21150 41001 555 1/108 7000/;EQDQ01  00002PRCP99
0112313000999992000031803004+53750+127230FM-12+023299999V0200301N002019999999N0500001N1-00311-01351101551ADDGF108991001001999999001021MD1810031+9999REMSYN060AAXX  18031 31300 42999 80302 11031 21135 40155 58003 80002;
0112313000999992000031806004+53750+127230FM-12+023299999V0200301N002010750019N0500001N1-00061-01271101471ADDGF107991021011008001001021MD1710051+9999REMSYN060AAXX  18061 31300 42599 70302 11006 21127 40147 57005 82102;
0112313000999992000031809004+53750+127230FM-12+023299999V0200301N001012200019N0500001N1-00231-01371101511ADDGF104991011051008001001011MD1310021+9999REMSYN060AAXX  18091 31300 42599 40301 11023 21137 40151 53002 81501;
0206313000999992000031812004+53750+127230FM-12+023299999V0203301N003012200019N0500001N1-00611-01891101691ADDAA199000091GA1001+999999999GF100991001001999999001001KA1120M-00021MA1999999098761MD1210141+9999REMSYN080AAXX  18121 31300 32984 03303 11061 21189 39876 40169 52014 333 11002 555 1/111;EQDQ01  00002PRCP99
0122313000999992000031815004+53750+127230FM-12+023299999V0203301N003012200019N0500001N1-00831-01661101761ADDGA1001+999999999GF100991001001999999001001MD1210041+9999REMSYN054AAXX  18151 31300 42984 03303 11083 21166 40176 52004;
0122313000999992000031818004+53750+127230FM-12+023299999V0203601N001012200019N0500001N1-01001-01851101851ADDGA1001+999999999GF100991001001999999001001MD1210061+9999REMSYN054AAXX  18181 31300 42984 03601 11100 21185 40185 52006;
0122313000999992000031821004+53750+127230FM-12+023299999V0201601N003012200019N0500001N1-01301-01651101881ADDGA1001+999999999GF100991001001999999001001MD1410001+9999REMSYN054AAXX  18211 31300 42984 01603 11130 21165 40188 54000;
0225313000999992000031900004+53750+127230FM-12+023299999V0203501N002012200019N0500001N1-00831-01661101841ADDAA199000091AJ100009199999999GA1001+999999999GF100991001001999999001001IA1259KA1120N-01351MA1999999098871MD1310031+9999REMSYN076AAXX  19001 31300 32999 03502 11083 21166 39887 40184 53003 333 21135 41998;EQDQ01  00002PRCP99
0122313000999992000031903004+53750+127230FM-12+023299999V0200501N002012200019N0500001N1-00451-01551101781ADDGA1001+999999999GF100991001001999999001001MD1810011+9999REMSYN054AAXX  19031 31300 42999 00502 11045 21155 40178 58001;
0122313000999992000031906004+53750+127230FM-12+023299999V0200401N001012200019N0500001N1-00191-01551101661ADDGA1001+999999999GF100991001001999999001001MD1710091+9999REMSYN054AAXX  19061 31300 42999 00401 11019 21155 40166 57009;
0122313000999992000031909004+53750+127230FM-12+023299999V0200201N002012200019N0500001N1-00301-01591101671ADDGA1001+999999999GF100991001001999999001001MD1410001+9999REMSYN054AAXX  19091 31300 42999 00202 11030 21159 40167 54000;
0206313000999992000031912004+53750+127230FM-12+023299999V0203201N001012200019N0500001N1-00631-01631101821ADDAA199000091GA1001+999999999GF100991001001999999001001KA1120M-00171MA1999999098881MD1310111+9999REMSYN080AAXX  19121 31300 32984 03201 11063 21163 39888 40182 53011 333 11017 555 1/112;EQDQ01  00002PRCP99
0122313000999992000031915004+53750+127230FM-12+023299999V0209999C000012200019N0500001N1-01011-01741102021ADDGA1001+999999999GF100991001001999999001001MD1210151+9999REMSYN054AAXX  19151 31300 42984 00000 11101 21174 40202 52015;
0122313000999992000031918004+53750+127230FM-12+023299999V0202301N001012200019N0500001N1-01371-01641102061ADDGA1001+999999999GF100991001001999999001001MD1410001+9999REMSYN054AAXX  19181 31300 42984 02301 11137 21164 40206 54000;
0122313000999992000031921004+53750+127230FM-12+023299999V0202201N001012200019N0500001N1-01601-01791102121ADDGA1001+999999999GF100991001001999999001001MD1310031+9999REMSYN054AAXX  19211 31300 42984 02201 11160 21179 40212 53003;
0241313000999992000032000004+53750+127230FM-12+023299999V0209999C000012200019N0500001N1-01151-01501102141ADDAA199000091AJ199992999999999GF102991001001999999001011IA1259KA1120N-01661MA1999999099141MD1210081+9999REMSYN092AAXX  20001 31300 32999 20000 11115 21150 39914 40214 52008 80001 333 21166 41998 555 7000/;EQDQ01  00002PRCP99Q02  09972SNDP  
0122313000999992000032003004+53750+127230FM-12+023299999V0202101N001012200019N0500001N1-00371-01531102031ADDGA1001+999999999GF100991001001999999001001MD1810031+9999REMSYN054AAXX  20031 31300 42999 02101 11037 21153 40203 58003;
0112313000999992000032006004+53750+127230FM-12+023299999V0203301N002012200019N0500001N1-00221-01661101961ADDGF103991021011008001001011MD1710051+9999REMSYN060AAXX  20061 31300 42599 33302 11022 21166 40196 57005 82101;
0112313000999992000032009004+53750+127230FM-12+023299999V0203201N003012200019N0500001N1-00241-01631101961ADDGF103991021011008001001011MD1410001+9999REMSYN060AAXX  20091 31300 42599 33203 11024 21163 40196 54000 82101;
0196313000999992000032012004+53750+127230FM-12+023299999V0200101N002012200019N0500001N1-00511-01611102121ADDAA199000091GA1001+999999999GF100991001001999999001001KA1999M-00151MA1999999099181MD1310121+9999REMSYN070AAXX  20121 31300 32984 00102 11051 21161 39918 40212 53012 333 11015;EQDQ01  00002PRCP99
0122313000999992000032015004+53750+127230FM-12+023299999V0200201N001012200019N0500001N1-00911-01791102291ADDGA1001+999999999GF100991001001999999001001MD1210121+9999REMSYN054AAXX  20151 31300 42984 00201 11091 21179 40229 52012;
0122313000999992000032018004+53750+127230FM-12+023299999V0209999C000012200019N0500001N1-01231-01851102421ADDGA1001+999999999GF100991001001999999001001MD1210101+9999REMSYN054AAXX  20181 31300 42984 00000 11123 21185 40242 52010;
0122313000999992000032021004+53750+127230FM-12+023299999V0202101N001012200019N0500001N1-01551-01681102501ADDGA1001+999999999GF100991001001999999001001MD1210041+9999REMSYN054AAXX  20211 31300 42984 02101 11155 21168 40250 52004;
0257313000999992000032100004+53750+127230FM-12+023299999V0201801N001012200019N0500001N1-01171-01521102481ADDAA199000091AJ199992999999999GA1001+999999999GF100991001001999999001001IA1259KA1120N-01601MA1999999099451MD1110011+9999REMSYN092AAXX  21001 31300 32999 01801 11117 21152 39945 40248 51001 333 21160 41998 555 1/107 7000/;EQDQ01  00002PRCP99Q02  09972SNDP  
0112313000999992000032103004+53750+127230FM-12+023299999V0201801N003012200019N0500001N1-00411-01541102341ADDGF103991021011008001001011MD1810041+9999REMSYN060AAXX  21031 31300 42599 31803 11041 21154 40234 58004 82101;
0122313000999992000032106004+53750+127230FM-12+023299999V0203201N005010750019N0500001N1-00221-01611102121ADDGF105991031021008001001021MD1710201+9999REMSYN070AAXX  21061 31300 42599 53205 11022 21161 40212 57020 83202 333 91111;
0112313000999992000032109004+53750+127230FM-12+023299999V0203201N004010750019N0500001N1-00251-01611102091ADDGF105991021041012501081021MD1610031+9999REMSYN060AAXX  21091 31300 42699 53204 11025 21161 40209 56003 82482;
0185313000999992000032112004+53750+127230FM-12+023299999V0203201N002012200019N9999999N1-00581+99999102802ADDAA199000091GF101991011051999999001001KA1120M-00151MD1310151+9999REMSYN074AAXX  21121 31300 32//4 13202 11058 4028/ 53015 81500 333 11015 555 1/110;EQDQ01+102803APOSLPQ02  00002PRCP99
0122313000999992000032115004+53750+127230FM-12+023299999V0202401N001012200019N0500001N1-00971-01821102381ADDGA1001+999999999GF100991001001999999001001MD1110051+9999REMSYN054AAXX  21151 31300 42984 02401 11097 21182 40238 51005;
0122313000999992000032118004+53750+127230FM-12+023299999V0202101N001012200019N0500001N1-01261-01781102461ADDGA1001+999999999GF100991001001999999001001MD1310061+9999REMSYN054AAXX  21181 31300 42984 02101 11126 21178 40246 53006;
0122313000999992000032121004+53750+127230FM-12+023299999V0202101N001012200019N0500001N1-01571-01841102481ADDGA1001+999999999GF100991001001999999001001MD1810031+9999REMSYN054AAXX  21211 31300 42984 02101 11157 21184 40248 58003;
0257313000999992000032200004+53750+127230FM-12+023299999V0201501N001012200019N0500001N1-01161-01691102421ADDAA199000091AJ199992999999999GA1001+999999999GF100991001001999999001001IA1259KA1120N-01651MA1999999099411MD1410001+9999REMSYN092AAXX  22001 31300 32999 01501 11116 21169 39941 40242 54000 333 21165 41998 555 1/110 7000/;EQDQ01  00002PRCP99Q02  09972SNDP  
0112313000999992000032203004+53750+127230FM-12+023299999V0200901N001012200019N0500001N1-00391-01571102221ADDGF102991001001999999001011MD1810121+9999REMSYN060AAXX  22031 31300 42999 20901 11039 21157 40222 58012 80001;
0112313000999992000032206004+53750+127230FM-12+023299999V0200501N003012200019N0500001N1-00151-01461101921ADDGF101991001001999999001011MD1710261+9999REMSYN060AAXX  22061 31300 42999 10503 11015 21146 40192 57026 80001;
0112313000999992000032209004+53750+127230FM-12+023299999V0200201N004019999999N0500001N1-00381-01551101951ADDGF106991001001999999001051MD1410001+9999REMSYN060AAXX  22091 31300 42999 60204 11038 21155 40195 54000 80005;
0196313000999992000032212004+53750+127230FM-12+023299999V0200301N003019999999N0500001N1-00611-01811101931ADDAA199000091GF107991001001999999001011KA1120M-00121MA1999999098991MD1510041+9999REMSYN086AAXX  22121 31300 32984 70303 11061 21181 39899 40193 55004 80001 333 11012 555 1/109;EQDQ01  00002PRCP99
0112313000999992000032215004+53750+127230FM-12+023299999V0200301N003019999999N0500001N1-01001-01971101981ADDGF107991001001999999001021MD1410001+9999REMSYN060AAXX  22151 31300 42984 70303 11100 21197 40198 54000 80002;
0112313000999992000032218004+53750+127230FM-12+023299999V0209999C000019999999N0500001N1-00921-01811101811ADDGF108991001001999999001071MD1810151+9999REMSYN060AAXX  22181 31300 42984 80000 11092 21181 40181 58015 80007;
0112313000999992000032221004+53750+127230FM-12+023299999V0200301N001019999999N0500001N1-01071-01801101751ADDGF108991001001999999001071MD1710081+9999REMSYN060AAXX  22211 31300 42999 80301 11107 21180 40175 57008 80007;
0215313000999992000032300004+53750+127230FM-12+023299999V0200301N002019999999N0500001N1-00901-01701101721ADDAA199000091AJ100009199999999GF106991001001999999001011IA1259KA1120N-01251MA1999999098751MD1710011+9999REMSYN082AAXX  23001 31300 32999 60302 11090 21170 39875 40172 57001 80001 333 21125 41998;EQDQ01  00002PRCP99
0112313000999992000032303004+53750+127230FM-12+023299999V0200201N004012200019N0500001N1-00451-01551101581ADDGF102991001001999999001011MD1710081+9999REMSYN060AAXX  23031 31300 42999 20204 11045 21155 40158 57008 80001;
0112313000999992000032306004+53750+127230FM-12+023299999V0200301N004012200019N0500001N1-00371-01531101441ADDGF102991001001999999001011MD1710131+9999REMSYN060AAXX  23061 31300 42999 20304 11037 21153 40144 57013 80001;
0122313000999992000032309004+53750+127230FM-12+023299999V0200201N003012200019N0500001N1-00461-01641101441ADDGA1001+999999999GF100991001001999999001001MD1410001+9999REMSYN054AAXX  23091 31300 42999 00203 11046 21164 40144 54000;
0206313000999992000032312004+53750+127230FM-12+023299999V0203101N003012200019N0500001N1-00671-01711101491ADDAA199000091GA1001+999999999GF100991001001999999001001KA1120M-00301MA1999999098551MD1310011+9999REMSYN080AAXX  23121 31300 32984 03103 11067 21171 39855 40149 53001 333 11030 555 1/109;EQDQ01  00002PRCP99
0122313000999992000032315004+53750+127230FM-12+023299999V0200401N001012200019N0500001N1-00881-01891101521ADDGA1001+999999999GF100991001001999999001001MD1410001+9999REMSYN054AAXX  23151 31300 42984 00401 11088 21189 40152 54000;
0122313000999992000032318004+53750+127230FM-12+023299999V0200401N001012200019N0500001N1-01171-02001101631ADDGA1001+999999999GF100991001001999999001001MD1310081+9999REMSYN054AAXX  23181 31300 42984 00401 11117 21200 40163 53008;
0122313000999992000032321004+53750+127230FM-12+023299999V0200201N001012200019N0500001N1-01211-02041101581ADDGA1001+999999999GF100991001001999999001001MD1810051+9999REMSYN054AAXX  23211 31300 42999 00201 11121 21204 40158 58005;
0257313000999992000032400004+53750+127230FM-12+023299999V0200401N002012200019N0500001N1-00911-01791101611ADDAA199000091AJ199992999999999GA1001+999999999GF100991001001999999001001IA1259KA1120N-01361MA1999999098641MD1310061+9999REMSYN092AAXX  24001 31300 32999 00402 11091 21179 39864 40161 53006 333 21136 41998 555 1/106 7000/;EQDQ01  00002PRCP99Q02  09972SNDP  
0122313000999992000032403004+53750+127230FM-12+023299999V0203501N003012200019N0500001N1-00571-01731101551ADDGA1001+999999999GF100991001001999999001001MD1810021+9999REMSYN054AAXX  24031 31300 42999 03503 11057 21173 40155 58002;
0112313000999992000032406004+53750+127230FM-12+023299999V0200201N003012200019N0500001N1-00371-01661101441ADDGF101991011011008001001001MD1710081+9999REMSYN060AAXX  24061 31300 42599 10203 11037 21166 40144 57008 81100;
0112313000999992000032409004+53750+127230FM-12+023299999V0200201N003012200019N0500001N1-00491-01781101451ADDGF102991021041012501001001MD1410001+9999REMSYN060AAXX  24091 31300 42699 20203 11049 21178 40145 54000 82400;
0206313000999992000032412004+53750+127230FM-12+023299999V0203601N001012200019N0500001N1-00791-01791101591ADDAA199000091GA1001+999999999GF100991001001999999001001KA1120M-00351MA1999999098631MD1310091+9999REMSYN080AAXX  24121 31300 32984 03601 11079 21179 39863 40159 53009 333 11035 555 1/110;EQDQ01  00002PRCP99
0122313000999992000032415004+53750+127230FM-12+023299999V0203201N001012200019N0500001N1-01071-01801101621ADDGA1001+999999999GF100991001001999999001001MD1410001+9999REMSYN054AAXX  24151 31300 42984 03201 11107 21180 40162 54000;
0122313000999992000032418004+53750+127230FM-12+023299999V0203501N003012200019N0500001N1-01051-01891101611ADDGA1001+999999999GF100991001001999999001001MD1410001+9999REMSYN054AAXX  24181 31300 42984 03503 11105 21189 40161 54000;
0122313000999992000032421004+53750+127230FM-12+023299999V0200101N002012200019N0500001N1-01301-02121101721ADDGA1001+999999999GF100991001001999999001001MD1310081+9999REMSYN054AAXX  24211 31300 42999 00102 11130 21212 40172 53008;
0257313000999992000032500004+53750+127230FM-12+023299999V0200201N002012200019N0500001N1-01031-01871101731ADDAA199000091AJ199992999999999GA1001+999999999GF100991001001999999001001IA1259KA1120N-01441MA1999999098751MD1210041+9999REMSYN092AAXX  25001 31300 32999 00202 11103 21187 39875 40173 52004 333 21144 41998 555 1/106 7000/;EQDQ01  00002PRCP99Q02  09972SNDP  
0132313000999992000032503004+53750+127230FM-12+023299999V0200301N004012200019N0500001N1-00661-01761101621ADDGA1001+999999999GF100991001001999999001001MD1810061+9999REMSYN064AAXX  25031 31300 42999 00304 11066 21176 40162 58006 333 91111;
0132313000999992000032506004+53750+127230FM-12+023299999V0200301N003012200019N0500001N1-00441-01741101551ADDGA1001+999999999GF100991001001999999001001MD1710051+9999REMSYN064AAXX  25061 31300 42999 00303 11044 21174 40155 57005 333 91111;
0122313000999992000032509004+53750+127230FM-12+023299999V0203301N003012200019N0500001N1-00601-01951101581ADDGA1001+999999999GF100991001001999999001001MD1310011+9999REMSYN054AAXX  25091 31300 42999 03303 11060 21195 40158 53001;
0206313000999992000032512004+53750+127230FM-12+023299999V0200601N002012200019N0500001N1-00911-01941101651ADDAA199000091GA1001+999999999GF100991001001999999001001KA1120M-00401MA1999999098681MD1110031+9999REMSYN080AAXX  25121 31300 32984 00602 11091 21194 39868 40165 51003 333 11040 555 1/107;EQDQ01  00002PRCP99
0122313000999992000032515004+53750+127230FM-12+023299999V0209999C000012200019N0500001N1-01211-02041101611ADDGA1001+999999999GF100991001001999999001001MD1810071+9999REMSYN054AAXX  25151 31300 42984 00000 11121 21204 40161 58007;
0122313000999992000032518004+53750+127230FM-12+023299999V0209999C000012200019N0500001N1-01531-02231101611ADDGA1001+999999999GF100991001001999999001001MD1710041+9999REMSYN054AAXX  25181 31300 42984 00000 11153 21223 40161 57004;
0122313000999992000032521004+53750+127230FM-12+023299999V0202101N001012200019N0500001N1-01711-02051101591ADDGA1001+999999999GF100991001001999999001001MD1710031+9999REMSYN054AAXX  25211 31300 42999 02101 11171 21205 40159 57003;
0225313000999992000032600004+53750+127230FM-12+023299999V0200601N001012200019N0500001N1-01321-01841101481ADDAA199000091AJ100009199999999GA1001+999999999GF100991001001999999001001IA1259KA1120N-01801MA1999999098481MD1710061+9999REMSYN076AAXX  26001 31300 32999 00601 11132 21184 39848 40148 57006 333 21180 41998;EQDQ01  00002PRCP99
0112313000999992000032603004+53750+127230FM-12+023299999V0201401N002012200019N0500001N1-00471-01461101221ADDGF102991001001999999001011MD1710171+9999REMSYN060AAXX  26031 31300 42999 21402 11047 21146 40122 57017 80001;
0112313000999992000032606004+53750+127230FM-12+023299999V0202101N002019999999N0500001N1-00241-01391100931ADDGF106991001001999999001011MD1710251+9999REMSYN060AAXX  26061 31300 42999 62102 11024 21139 40093 57025 80001;
0112313000999992000032609004+53750+127230FM-12+023299999V0201501N001019999999N0500001N1-00231-01371100801ADDGF108991001001999999001011MD1710121+9999REMSYN060AAXX  26091 31300 42999 81501 11023 21137 40080 57012 80001;
0196313000999992000032612004+53750+127230FM-12+023299999V0200901N002019999999N0500001N1-00441-01601100891ADDAA199000091GF108991001001999999001071KA1120M-00151MA1999999098001MD1310061+9999REMSYN086AAXX  26121 31300 32984 80902 11044 21160 39800 40089 53006 80007 333 11015 555 14105;EQDQ01  00002PRCP99
0112313000999992000032615004+53750+127230FM-12+023299999V0200901N001019999999N0500001N1-00471-01591100901ADDGF108991081001999999071999MD1410001+9999REMSYN060AAXX  26151 31300 42984 80901 11047 21159 40090 54000 8807/;
0112313000999992000032618004+53750+127230FM-12+023299999V0201201N003019999999N0500001N1-00501-01661100821ADDGF108991081001999999071999MD1810081+9999REMSYN060AAXX  26181 31300 42984 81203 11050 21166 40082 58008 8807/;
0112313000999992000032621004+53750+127230FM-12+023299999V0201501N002019999999N0500001N1-00631-01711101021ADDGF108991081001999999071999MD1310181+9999REMSYN060AAXX  26211 31300 42999 81502 11063 21171 40102 53018 8807/;
0202313000999992000032700004+53750+127230FM-12+023299999V0201201N004019999999N0500001N1-00441-01531101171ADDAA199000091GF108991001001999999001071KA1120N-00701MA1999999098271MD1210171+9999REMSYN092AAXX  27001 31300 32999 81204 11044 21153 39827 40117 52017 80007 333 21070 555 14103 7000/;EQDQ01  00002PRCP99
0112313000999992000032703004+53750+127230FM-12+023299999V0201601N002019999999N0500001N1-00171-01151101271ADDGF108991001001999999001071MD1210131+9999REMSYN060AAXX  27031 31300 42999 81602 11017 21115 40127 52013 80007;
0112313000999992000032706004+53750+127230FM-12+023299999V0201601N003019999999N0500001N1-00071-00881101311ADDGF108991021011999999001021MD1210051+9999REMSYN060AAXX  27061 31300 42999 81603 11007 21088 40131 52005 82102;
0140313000999992000032709004+53750+127230FM-12+023299999V0203301N001010075019N0200001N1-00081-00901101441ADDAY181031AY221031GF108991051091008001001021MD1210111+9999MW1851REMSYN066AAXX  27091 31300 41598 83301 11008 21090 40144 52011 78582 85902;
0214313000999992000032712004+53750+127230FM-12+023299999V0209999C000010750019N0500001N1-00281-00901101661ADDAA112000791AY181061AY221061GF106991021051008001001021KA1120M-00031MA1999999098761MD1210201+9999MW1021REMSYN101AAXX  27121 31300 11584 60000 11028 21090 39876 40166 52020 69902 70282 82502 333 11003 555 1/103 /-;
0112313000999992000032715004+53750+127230FM-12+023299999V0209999C000012200019N0500001N1-00661-00941101871ADDGF102991001001999999001021MD1210171+9999REMSYN060AAXX  27151 31300 42984 20000 11066 21094 40187 52017 80002;
0122313000999992000032718004+53750+127230FM-12+023299999V0203401N001012200019N0500001N1-00871-01021101851ADDGA1001+999999999GF100991001001999999001001MD1810051+9999REMSYN054AAXX  27181 31300 42984 03401 11087 21102 40185 58005;
0112313000999992000032721004+53750+127230FM-12+023299999V0201901N001012200019N0500001N1-01051-01181101961ADDGF102991001001999999001011MD1310091+9999REMSYN060AAXX  27211 31300 42999 21901 11105 21118 40196 53009 80001;
0181313000999992000032800004+53750+127230FM-12+023299999V0203401N002012200019N0500001N1-00531-01331101991ADDAA199000091GF102991001001999999001021KA1120N-01201MD1210091+9999REMSYN086AAXX  28001 31300 32999 23402 11053 21133 40199 52009 80002 333 21120 555 14102 7000/;EQDQ01  00002PRCP99
0122313000999992000032803004+53750+127230FM-12+023299999V0203401N004012200019N0500001N1-00111-01431101951ADDGA1001+999999999GF100991001001999999001001MD1410001+9999REMSYN054AAXX  28031 31300 42999 03404 11011 21143 40195 54000;
0122313000999992000032806004+53750+127230FM-12+023299999V0203501N003012200019N0500001N1+00101+99999101731ADDGA1001+999999999GF100991001001999999001001MD1810201+9999REMSYN054AAXX  28061 31300 42999 03503 10010 2/148 40173 58020;
0122313000999992000032809004+53750+127230FM-12+023299999V0203101N002012200019N0500001N1+00041-01421101661ADDGA1001+999999999GF100991001001999999001001MD1710061+9999REMSYN054AAXX  28091 31300 42999 03102 10004 21142 40166 57006;
0206313000999992000032812004+53750+127230FM-12+023299999V0200901N001012200019N0500001N1-00401-01401101691ADDAA199000091GA1001+999999999GF100991001001999999001001KA1120M+00111MA1999999098781MD1710021+9999REMSYN080AAXX  28121 31300 32984 00901 11040 21140 39878 40169 57002 333 10011 555 14105;EQDQ01  00002PRCP99
0122313000999992000032815004+53750+127230FM-12+023299999V0209999C000012200019N0500001N1-00751-01351101661ADDGA1001+999999999GF100991001001999999001001MD1710061+9999REMSYN054AAXX  28151 31300 42984 00000 11075 21135 40166 57006;
0122313000999992000032818004+53750+127230FM-12+023299999V0200701N001012200019N0500001N1-00941-01451101531ADDGA1001+999999999GF100991001001999999001001MD1710161+9999REMSYN054AAXX  28181 31300 42984 00701 11094 21145 40153 57016;
0112313000999992000032821004+53750+127230FM-12+023299999V0209999C000019999999N0500001N1-01131-01481101351ADDGF106991001001999999001021MD1710191+9999REMSYN060AAXX  28211 31300 42999 60000 11113 21148 40135 57019 80002;
0202313000999992000032900004+53750+127230FM-12+023299999V0201501N002012200019N0500001N1-00391-01711101121ADDAA199000091GF103991011001999999081011KA1120N-01251MA1999999098221MD1710151+9999REMSYN092AAXX  29001 31300 32999 31502 11039 21171 39822 40112 57015 81081 333 21125 555 14101 7000/;EQDQ01  00002PRCP99
0112313000999992000032903004+53750+127230FM-12+023299999V0201501N002019999999N0500001N1-00051-01491100751ADDGF107991021001999999081021MD1710311+9999REMSYN060AAXX  29031 31300 42999 71502 11005 21149 40075 57031 82082;
0112313000999992000032906004+53750+127230FM-12+023299999V0201401N002019999999N0500001N1+00271-00901100371ADDGF108991021001999999031071MD1710341+9999REMSYN060AAXX  29061 31300 42999 81402 10027 21090 40037 57034 82037;
0112313000999992000032909004+53750+127230FM-12+023299999V0201201N004019999999N0500001N1+00221-01271100261ADDGF108991081001999999071999MD1610121+9999REMSYN060AAXX  29091 31300 42999 81204 10022 21127 40026 56012 8807/;
0196313000999992000032912004+53750+127230FM-12+023299999V0201201N002019999999N0500001N1+00071-00971100271ADDAA199000091GF108991081001999999011999KA1120M+00331MA1999999097451MD1410001+9999REMSYN086AAXX  29121 31300 32984 81202 10007 21097 39745 40027 54000 8801/ 333 10033 555 14101;EQDQ01  00002PRCP99
0112313000999992000032915004+53750+127230FM-12+023299999V0200301N002019999999N0500001N1-00011-00971100221ADDGF108991081001999999011999MD1810061+9999REMSYN060AAXX  29151 31300 42984 80302 11001 21097 40022 58006 8801/;
0112313000999992000032918004+53750+127230FM-12+023299999V0200201N002019999999N0500001N1-00091-00961100151ADDGF108991041001999999031071MD1710081+9999REMSYN060AAXX  29181 31300 42984 80202 11009 21096 40015 57008 84037;
0140313000999992000032921004+53750+127230FM-12+023299999V0200501N002019999999N0500001N1-00251-00511100161ADDAY171031AY221031GF108991081001999999011999MD1410001+9999MW1711REMSYN066AAXX  29211 31300 41999 80502 11025 21051 40016 54000 77172 8801/;
0217313000999992000033000004+53750+127230FM-12+023299999V0200401N001019999999N0500001N1-00071-00841100161ADDAA112000791AY171061AY221061GF108991021001999999041021KA1120N-00301MA1999999097341MD1310031+9999MW1021REMSYN104AAXX  30001 31300 11999 80401 11007 21084 39734 40016 53003 69902 70272 82042 333 21030 555 14102 7990/;
0112313000999992000033003004+53750+127230FM-12+023299999V0200301N003010750019N0500001N1+00251-00651100091ADDGF108991021011008001001051MD1810041+9999REMSYN060AAXX  30031 31300 42599 80303 10025 21065 40009 58004 82105;
0140313000999992000033006004+53750+127230FM-12+023299999V0203501N002010075019N0200001N1+00161-00561100041ADDAY181061AY221061GF108991061091008001001021MD1710061+9999MW1851REMSYN066AAXX  30061 31300 41598 83502 10016 21056 40004 57006 78582 86902;
0140313000999992000033009004+53750+127230FM-12+023299999V0203601N003019999999N0500001N1+00081-00601100061ADDAY181031AY221031GF108991001001999999001071MD1310011+9999MW1021REMSYN066AAXX  30091 31300 41999 83603 10008 21060 40006 53001 70282 80007;
0211313000999992000033012004+53750+127230FM-12+023299999V0200301N002019999999N0500001N1-00071-00631100161ADDAA112000791AY181061AY221061GF108991001001999999001071KA1120M+00351MA1999999097341MD1210091+9999MW1021REMSYN098AAXX  30121 31300 11984 80302 11007 21063 39734 40016 52009 69902 70282 80007 333 10035 555 14101;
0112313000999992000033015004+53750+127230FM-12+023299999V0209999C000019999999N0500001N1-00171-00661100181ADDGF107991051001999999031011MD1410001+9999REMSYN060AAXX  30151 31300 42984 70000 11017 21066 40018 54000 85031;
0112313000999992000033018004+53750+127230FM-12+023299999V0209999C000019999999N0500001N1-00181-00521100181ADDGF108991081001999999071999MD1410001+9999REMSYN060AAXX  30181 31300 42984 80000 11018 21052 40018 54000 8807/;
0112313000999992000033021004+53750+127230FM-12+023299999V0203301N003010300019N0500001N1-00241-00461100191ADDGF108991011071004501021999MD1410001+9999REMSYN060AAXX  30211 31300 42499 83303 11024 21046 40019 54000 8172/;
0201313000999992000033100004+53750+127230FM-12+023299999V0203601N002010750019N0200001N1-00071-00601100291ADDAA112000791AY171061AY221061GF108991041091008001001071KA1999N-00261MA1999999097461MD1310121+9999MW1021REMSYN088AAXX  31001 31300 11598 83602 11007 21060 39746 40029 53012 69902 70272 84907 333 21026;
0112313000999992000033103004+53750+127230FM-12+023299999V0200401N003010120019N0500001N1+00241-00551100321ADDGF108991051021012501001021MD1210061+9999REMSYN060AAXX  31031 31300 42699 80403 10024 21055 40032 52006 85202;
0140313000999992000033106004+53750+127230FM-12+023299999V0203201N004010075019N0040001N1+00091-00341100381ADDAY181061AY221061GF108991061091008001001021MD1210041+9999MW1851REMSYN066AAXX  31061 31300 41596 83204 10009 21034 40038 52004 78582 86902;
0140313000999992000033109004+53750+127230FM-12+023299999V0203301N005010075019N0500001N1+00011-00451100481ADDAY181031AY221031GF108991061091008001001071MD1210091+9999MW1021REMSYN066AAXX  31091 31300 41599 83305 10001 21045 40048 52009 70282 86907;
0228313000999992000033112004+53750+127230FM-12+023299999V0203301N002010075019N0500001N1-00061-00701100661ADDAA112000591AY181061AY221061GF108991051091008001001071KA1120M+00241MA1999999097821MD1210171+9999MW1021OA149901001REMSYN104AAXX  31121 31300 11584 83302 11006 21070 39782 40066 52017 69942 70282 85907 333 10024 91110 555 14103;
0122313000999992000033115004+53750+127230FM-12+023299999V0203301N004010300019N0500001N1-00211-00881100721ADDGF107991021051008001041051MD1110041+9999REMSYN070AAXX  31151 31300 42584 73304 11021 21088 40072 51004 82545 333 91110;
0112313000999992000033118004+53750+127230FM-12+023299999V0203101N002019999999N0500001N1-00351+99999100791ADDGF106991021001999999041051MD1310061+9999REMSYN060AAXX  31181 31300 42984 63102 11035 21005 40079 53006 82045;
0112313000999992000033121004+53750+127230FM-12+023299999V0200401N001019999999N0500001N1-00511-01101100891ADDGF108991001001999999001071MD1210071+9999REMSYN060AAXX  31211 31300 42999 80401 11051 21110 40089 52007 80007;
0197313000999992000040100004+53750+127230FM-12+023299999V0203101N002012200019N0500001N1-00331-01161101041ADDAA124999999GF103991001001999999001021IA1149IA2999-00709KA1120N-00571MA1999999098161MD1210171+9999REMSYN088AAXX  01001 31300 32999 33102 11033 21116 39816 40104 52017 80002 333 21057 34107 7994/;
0112313000999992000040103004+53750+127230FM-12+023299999V0200801N002010750019N0500001N1-00031-00951101011ADDGF108991031011008001001071MD1410001+9999REMSYN060AAXX  01031 31300 42599 80802 11003 21095 40101 54000 83107;
0112313000999992000040106004+53750+127230FM-12+023299999V0200101N002010075019N0500001N1+00011-00931101061ADDGF108991061091008001001071MD1310051+9999REMSYN060AAXX  01061 31300 42599 80102 10001 21093 40106 53005 86907;
0112313000999992000040109004+53750+127230FM-12+023299999V0203101N002010075019N0500001N1-00041-01021101161ADDGF105991051091008001001001MD1210091+9999REMSYN060AAXX  01091 31300 42599 53102 11004 21102 40116 52009 85900;
0206313000999992000040112004+53750+127230FM-12+023299999V0203301N003012200019N0500001N1-00251-01481101371ADDAA199000091GA1001+999999999GF100991001001999999001001KA1120M+00071MA1999999098491MD1210191+9999REMSYN080AAXX  01121 31300 32984 03303 11025 21148 39849 40137 52019 333 10007 555 14105;EQDQ01  00002PRCP99
0122313000999992000040115004+53750+127230FM-12+023299999V0209999C000012200019N0500001N1-00611-01531101521ADDGA1001+999999999GF100991001001999999001001MD1210111+9999REMSYN054AAXX  01151 31300 42984 00000 11061 21153 40152 52011;
0122313000999992000040118004+53750+127230FM-12+023299999V0209999C000012200019N0500001N1-00951-01531101641ADDGA1001+999999999GF100991001001999999001001MD1210071+9999REMSYN054AAXX  01181 31300 42984 00000 11095 21153 40164 52007;
0122313000999992000040121004+53750+127230FM-12+023299999V0209999C000012200019N0500001N1-01221-01571101711ADDGA1001+999999999GF100991001001999999001001MD1110041+9999REMSYN054AAXX  01211 31300 42999 00000 11122 21157 40171 51004;
0196313000999992000040200004+53750+127230FM-12+023299999V0201801N001012200019N0500001N1-00721-01531101741ADDAA199000091GA1001+999999999GF100991001001999999001001KA1999N-01301MA1999999098801MD1310091+9999REMSYN070AAXX  02001 31300 32999 01801 11072 21153 39880 40174 53009 333 21130;EQDQ01  00002PRCP99
0122313000999992000040203004+53750+127230FM-12+023299999V0202201N002012200019N0500001N1+00051-01401999999ADDGA1001+999999999GF100991001001999999001001MD1810131+9999REMSYN054AAXX  02031 31300 42999 02202 10005 21140 4/153 58013;
0112313000999992000040206004+53750+127230FM-12+023299999V0202101N003010750019N0500001N1+00271-01261101321ADDGF108991021011008001001021MD1710181+9999REMSYN060AAXX  02061 31300 42599 82103 10027 21126 40132 57018 82102;
0112313000999992000040209004+53750+127230FM-12+023299999V0202201N001019999999N0500001N1+00151-01291101361ADDGF108991061001999999051021MD1310031+9999REMSYN060AAXX  02091 31300 42999 82201 10015 21129 40136 53003 86052;
0186313000999992000040212004+53750+127230FM-12+023299999V0200501N001012200019N0500001N1-00211-01221101411ADDAA199000091GF103991001001999999001021KA1999M+01031MA1999999098531MD1110011+9999REMSYN076AAXX  02121 31300 32984 30501 11021 21122 39853 40141 51001 80002 333 14103;EQDQ01  00002PRCP99
0122313000999992000040215004+53750+127230FM-12+023299999V0209999C000012200019N0500001N1-00551-01061101411ADDGA1001+999999999GF100991001001999999001001MD1810031+9999REMSYN054AAXX  02151 31300 42984 00000 11055 21106 40141 58003;
0122313000999992000040218004+53750+127230FM-12+023299999V0200701N001012200019N0500001N1-00791-01301101451ADDGA1001+999999999GF100991001001999999001001MD1410001+9999REMSYN054AAXX  02181 31300 42984 00701 11079 21130 40145 54000;
0116313000999992000040221004+53750+127230FM-12+023299999V0209999C000012200019N0500001N1-00971-01431999999ADDGA1001+999999999GF100991001001999999001001MD1810021+9999REMSYN048AAXX  02211 31300 42999 00000 11097 21143 58002;
0196313000999992000040300004+53750+127230FM-12+023299999V0209999C000012200019N0500001N1-00411-01141101401ADDAA199000091GA1001+999999999GF100991001001999999001001KA1999N-01041MA1999999098501MD1310021+9999REMSYN070AAXX  03001 31300 32999 00000 11041 21114 39850 40140 53002 333 21104;EQDQ01  00002PRCP99
0112313000999992000040303004+53750+127230FM-12+023299999V0201401N003019999999N0500001N1+00221-00881101281ADDGF105991021021999999001011MD1810051+9999REMSYN060AAXX  03031 31300 42999 51403 10022 21088 40128 58005 82201;
0112313000999992000040306004+53750+127230FM-12+023299999V0201801N003012200019N0500001N1+00331-01001101121ADDGF106991021021012501001011MD1710151+9999REMSYN060AAXX  03061 31300 42699 61803 10033 21100 40112 57015 82201;
0112313000999992000040309004+53750+127230FM-12+023299999V0201401N002019999999N0500001N1+00271-01001101021ADDGF108991001001999999001071MD1710101+9999REMSYN060AAXX  03091 31300 42999 81402 10027 21100 40102 57010 80007;
0196313000999992000040312004+53750+127230FM-12+023299999V0200201N002019999999N0500001N1+00071-01211101061ADDAA199000091GF108991051001999999011071KA1120M+00381MA1999999098221MD1310021+9999REMSYN086AAXX  03121 31300 32984 80202 10007 21121 39822 40106 53002 85017 333 10038 555 14101;EQDQ01  00002PRCP99
0112313000999992000040315004+53750+127230FM-12+023299999V0200301N003019999999N0500001N1+00031-01321101031ADDGF108991031001999999011071MD1810031+9999REMSYN060AAXX  03151 31300 42984 80303 10003 21132 40103 58003 83017;
0122313000999992000040318004+53750+127230FM-12+023299999V0200301N004019999999N0500001N1-00131-01351101021ADDGF108991081001999999011999MD1610031+9999REMSYN070AAXX  03181 31300 42984 80304 11013 21135 40102 56003 8801/ 333 91110;
0122313000999992000040321004+53750+127230FM-12+023299999V0200201N005019999999N0500001N1-00391-01441101031ADDGF105991031001999999041011MD1810021+9999REMSYN070AAXX  03211 31300 42999 50205 11039 21144 40103 58002 83041 333 91111;
0226313000999992000040400004+53750+127230FM-12+023299999V0200301N003012200019N0500001N1-00221-01771101101ADDAA199000091GF107991021051008001001011IA1149IA2999-00609KA1120N-00551MA1999999098231MD1310091+9999REMSYN098AAXX  04001 31300 32599 70303 11022 21177 39823 40110 53009 82501 333 21055 555 14001 34106 7000/;EQDQ01  00002PRCP99
0112313000999992000040403004+53750+127230FM-12+023299999V0200301N003019999999N0500001N1+00141-01501100991ADDGF107991021001999999031011MD1810071+9999REMSYN060AAXX  04031 31300 42999 70303 10014 21150 40099 58007 82031;
0112313000999992000040406004+53750+127230FM-12+023299999V0200401N004019999999N0500001N1+00261-01531100891ADDGF105991021001999999031021MD1710091+9999REMSYN060AAXX  04061 31300 42999 50404 10026 21153 40089 57009 82032;
0112313000999992000040409004+53750+127230FM-12+023299999V0200201N002019999999N0500001N1+00141-01681100831ADDGF106991001001999999001021MD1710071+9999REMSYN060AAXX  04091 31300 42999 60202 10014 21168 40083 57007 80002;
0186313000999992000040412004+53750+127230FM-12+023299999V0203301N003012200019N0500001N1-00061-01451100941ADDAA199000091GF103991001001999999001021KA1999M+00301MA1999999098091MD1310091+9999REMSYN076AAXX  04121 31300 32984 33303 11006 21145 39809 40094 53009 80002 333 10030;EQDQ01  00002PRCP99
0112313000999992000040415004+53750+127230FM-12+023299999V0203201N003012200019N0500001N1-00281-01681100971ADDGF102991001001999999001011MD1410001+9999REMSYN060AAXX  04151 31300 42984 23203 11028 21168 40097 54000 80001;
0122313000999992000040418004+53750+127230FM-12+023299999V0203401N002012200019N0500001N1-00511-01751100981ADDGA1001+999999999GF100991001001999999001001MD1810011+9999REMSYN054AAXX  04181 31300 42984 03402 11051 21175 40098 58001;
0122313000999992000040421004+53750+127230FM-12+023299999V0203401N003012200019N0500001N1-00651-01901101021ADDGA1001+999999999GF100991001001999999001001MD1310021+9999REMSYN054AAXX  04211 31300 42999 03403 11065 21190 40102 53002;
0196313000999992000040500004+53750+127230FM-12+023299999V0200101N003012200019N0500001N1-00391-01571100971ADDAA199000091GA1001+999999999GF100991001001999999001001KA1999N-00691MA1999999098081MD1810021+9999REMSYN070AAXX  05001 31300 32999 00103 11039 21157 39808 40097 58002 333 21069;EQDQ01  00002PRCP99
0122313000999992000040503004+53750+127230FM-12+023299999V0200501N003012200019N0500001N1+00011-01301100841ADDGA1001+999999999GF100991001001999999001001MD1710091+9999REMSYN054AAXX  05031 31300 42999 00503 10001 21130 40084 57009;
0112313000999992000040506004+53750+127230FM-12+023299999V0200601N003019999999N0500001N1+00171-01371100671ADDGF106991001001999999001071MD1710141+9999REMSYN060AAXX  05061 31300 42999 60603 10017 21137 40067 57014 80007;
0112313000999992000040509004+53750+127230FM-12+023299999V0200201N002012200019N0500001N1+00151-01491100591ADDGF103991001001999999001011MD1710081+9999REMSYN060AAXX  05091 31300 42999 30202 10015 21149 40059 57008 80001;
0196313000999992000040800004+53750+127230FM-12+023299999V0200901N001012200019N0500001N1-00221-01081101051ADDAA199000091GA1001+999999999GF100991001001999999001001KA1999N-00881MA1999999098181MD1310021+9999REMSYN070AAXX  08001 31300 32999 00901 11022 21108 39818 40105 53002 333 21088;EQDQ01  00002PRCP99
0122313000999992000040803004+53750+127230FM-12+023299999V0202201N002012200019N0500001N1+00471-00841100831ADDGA1001+999999999GF100991001001999999001001MD1810151+9999REMSYN054AAXX  08031 31300 42999 02202 10047 21084 40083 58015;
0215313000999992000041000004+53750+127230FM-12+023299999V0200601N002019999999N0200001N1-00011-00821100181ADDAA199000091AJ100039199999999GF108991021001999999011051IA1279KA1120N-00511MA1999999097351MD1310181+9999REMSYN082AAXX  10001 31300 32998 80602 11001 21082 39735 40018 53018 82015 333 21051 43003;EQDQ01  00002PRCP99
0112313000999992000041003004+53750+127230FM-12+023299999V0200501N002010750019N0200001N1+00151-00761100221ADDGF108991041021008001001051MD1110061+9999REMSYN060AAXX  10031 31300 42598 80502 10015 21076 40022 51006 84205;
0112313000999992000041006004+53750+127230FM-12+023299999V0200301N003010075019N0200001N1+00121-00441100291ADDGF108991061091008001001051MD1310071+9999REMSYN060AAXX  10061 31300 42598 80303 10012 21044 40029 53007 86905;
0140313000999992000041009004+53750+127230FM-12+023299999V0200701N001012200019N0200001N1+00021-00421100481ADDAY181031AY221031GF108991041091008001001011MD1210171+9999MW1021REMSYN066AAXX  10091 31300 41598 80701 10002 21042 40048 52017 70282 84901;
0220313000999992000041012004+53750+127230FM-12+023299999V0209999C000010075019N0250001N1-00091-00211100691ADDAA112000791AY181061AY221061GF108991051091008001031011KA1999N+99999MA1999999097851MD1210201+9999MW1851REMSYN088AAXX  10121 31300 11575 80000 11009 21021 39785 40069 52020 69902 78582 85931 333 20030;EQDQ01 +00302ATMN  
0140313000999992000041015004+53750+127230FM-12+023299999V0209999C000019999999N0500001N1-00431-00591100721ADDAY181031AY221031GF105991001001999999001011MD1810021+9999MW1021REMSYN066AAXX  10151 31300 41984 50000 11043 21059 40072 58002 70282 80001;
0140313000999992000041018004+53750+127230FM-12+023299999V0203401N002012200019N0500001N1-00631-00941100741ADDAY181061AY211061GF103991001001999999001011MD1410001+9999MW1021REMSYN066AAXX  10181 31300 41984 33402 11063 21094 40074 54000 70281 80001;
0112313000999992000041021004+53750+127230FM-12+023299999V0201201N001012200019N0500001N1-00591-00811100731ADDGF102991001001999999001011MD1810011+9999REMSYN060AAXX  10211 31300 42999 21201 11059 21081 40073 58001 80001;
0122313000999992000041103004+53750+127230FM-12+023299999V0200501N003012200019N0500001N1+00301-00581100521ADDGA1001+999999999GF100991001001999999001001MD1810111+9999REMSYN054AAXX  11031 31300 42999 00503 10030 21058 40052 58011;
0122313000999992000041106004+53750+127230FM-12+023299999V0200301N004012200019N0500001N1+00471-00491100391ADDGA1001+999999999GF100991001001999999001001MD1710111+9999REMSYN054AAXX  11061 31300 42999 00304 10047 21049 40039 57011;
0122313000999992000041109004+53750+127230FM-12+023299999V0200101N004012200019N0500001N1+00331-00621100351ADDGA1001+999999999GF100991001001999999001001MD1710041+9999REMSYN054AAXX  11091 31300 42999 00104 10033 21062 40035 57004;
0196313000999992000041112004+53750+127230FM-12+023299999V0200201N001012200019N0500001N1+00121-00631100611ADDAA199000091GA1001+999999999GF100991001001999999001001KA1999M+00471MA1999999097791MD1310231+9999REMSYN070AAXX  11121 31300 32984 00201 10012 21063 39779 40061 53023 333 10047;EQDQ01  00002PRCP99
0122313000999992000041115004+53750+127230FM-12+023299999V0200501N002012200019N0500001N1+00071-00661100621ADDGA1001+999999999GF100991001001999999001001MD1410001+9999REMSYN054AAXX  11151 31300 42984 00502 10007 21066 40062 54000;
0112313000999992000041118004+53750+127230FM-12+023299999V0202801N001012200019N0350001N1-00011-00691100631ADDGF104991001001999999001021MD1410001+9999REMSYN060AAXX  11181 31300 42981 42801 11001 21069 40063 54000 80002;
0112313000999992000041121004+53750+127230FM-12+023299999V0200501N002010750019N0500001N1+00081-00531100761ADDGF108991021051008001001021MD1310141+9999REMSYN060AAXX  11211 31300 42599 80502 10008 21053 40076 53014 82502;
0186313000999992000041200004+53750+127230FM-12+023299999V0200601N003010300019N0500001N1+00241-00471100771ADDAA199000091GF107991031041008001031011KA1999N-00101MA1999999097951MD1110021+9999REMSYN076AAXX  12001 31300 32599 70603 10024 21047 39795 40077 51002 83431 333 21010;EQDQ01  00002PRCP99
0140313000999992000041221004+53750+127230FM-12+023299999V0200101N002019999999N0200001N1+00031-00081100871ADDAY171031AY221031GF108991081001999999021999MD1310071+9999MW1711REMSYN066AAXX  12211 31300 41998 80102 10003 21008 40087 53007 77172 8802/;
0201313000999992000041300004+53750+127230FM-12+023299999V0200101N003010300019N0500001N1+00061-00371100961ADDAA112000591AY171061AY221061GF108991031071008001021999KA1999N-00051MA1999999098121MD1210091+9999MW1021REMSYN088AAXX  13001 31300 11599 80103 10006 21037 39812 40096 52009 69942 70272 8372/ 333 21005;
0112313000999992000041309004+53750+127230FM-12+023299999V0200101N004010075019N0500001N1+00271-00621101121ADDGF106991061091008001001001MD1310111+9999REMSYN060AAXX  13091 31300 42599 60104 10027 21062 40112 53011 86900;
0122313000999992000041321004+53750+127230FM-12+023299999V0209999C000012200019N0500001N1-00221-00441101181ADDGA1001+999999999GF100991001001999999001001MD1410001+9999REMSYN054AAXX  13211 31300 42999 00000 11022 21044 40118 54000;
0140313000999992000041406004+53750+127230FM-12+023299999V0200201N002010075019N0500001N1+00611-00681101041ADDAY181061AY211061GF108991061091008001001071MD1610011+9999MW1021REMSYN066AAXX  14061 31300 41599 80202 10061 21068 40104 56001 70281 86907;
0230313000999992000041500004+53750+127230FM-12+023299999V0200901N001010075019N0500001N1+00221-00421101451ADDAA112000891AJ100009199999999AY181061AY221061GF106991051091008001001021IA1259KA1120N-00101MA1999999098611MD1210021+9999MW1021REMSYN094AAXX  15001 31300 11599 60901 10022 21042 39861 40145 52002 69982 70282 85902 333 21010 41998;
0112313000999992000041503004+53750+127230FM-12+023299999V0200401N003012200019N0500001N1+00551-00701101421ADDGF106991031021012501001011MD1410001+9999REMSYN060AAXX  15031 31300 42699 60403 10055 21070 40142 54000 83201;
0186313000999992000041512004+53750+127230FM-12+023299999V0200601N002012200019N0500001N1+00171-00821101551ADDAA199000091GF102991001001999999001021KA1999M+00731MA1999999098701MD1210071+9999REMSYN076AAXX  15121 31300 32984 20602 10017 21082 39870 40155 52007 80002 333 10073;EQDQ01  00002PRCP99
0122313000999992000041621004+53750+127230FM-12+023299999V0201501N001012200019N0500001N1-00411-00661101431ADDGA1001+999999999GF100991001001999999001001MD1310041+9999REMSYN054AAXX  16211 31300 42999 01501 11041 21066 40143 53004;
0196313000999992000041800004+53750+127230FM-12+023299999V0200101N001012200019N0500001N1+00451-00731101431ADDAA199000091GA1001+999999999GF100991001001999999001001KA1999N-00441MA1999999098611MD1210061+9999REMSYN070AAXX  18001 31300 32999 00101 10045 21073 39861 40143 52006 333 21044;EQDQ01  00002PRCP99
0112313000999992000041818004+53750+127230FM-12+023299999V0209999C000012200019N0500001N1-00221-00611101261ADDGF102991001001999999001011MD1810071+9999REMSYN060AAXX  18181 31300 42984 20000 11022 21061 40126 58007 80001;
0112313000999992000041906004+53750+127230FM-12+023299999V0201501N004010750019N0500001N1+00711-00441100821ADDGF108991031031008001001071MD1710051+9999REMSYN060AAXX  19061 31300 42599 81504 10071 21044 40082 57005 83307;
0112313000999992000042003004+53750+127230FM-12+023299999V0201801N002012200019N0500001N1+01001-00301101171ADDGF103991031031008001001001MD1810081+9999REMSYN060AAXX  20031 31300 42599 31802 10100 21030 40117 58008 83300;
0196313000999992000042012004+53750+127230FM-12+023299999V0200901N003012200019N0500001N1+00641-00771100991ADDAA199000091GA1001+999999999GF100991001001999999001001KA1999M+01221MA1999999098211MD1410001+9999REMSYN070AAXX  20121 31300 32984 00903 10064 21077 39821 40099 54000 333 10122;EQDQ01  00002PRCP99
0140313000999992000042118004+53750+127230FM-12+023299999V0200201N002010042019N0500001N1+00391+00191100711ADDAY161061AY221061GF108991051071004501021999MD1810031+9999MW1611REMSYN066AAXX  21181 31300 41484 80202 10039 20019 40071 58003 76162 8572/;
0201313000999992000042200004+53750+127230FM-12+023299999V0200301N002010042019N0500001N1+00491+00081100671ADDAA112003091AY161061AY221061GF108991061071004501071999KA1999N+00341MA1999999097891MD1410001+9999MW1021REMSYN088AAXX  22001 31300 11499 80302 10049 20008 39789 40067 54000 60032 70262 8677/ 333 20034;
0122313000999992000042203004+53750+127230FM-12+023299999V0200201N004010042019N0500001N1+00531+00041100621ADDGF108991081051004501999999MD1810051+9999REMSYN070AAXX  22031 31300 42499 80204 10053 20004 40062 58005 885// 333 91110;
0112313000999992000042206004+53750+127230FM-12+023299999V0203601N004010075019N0500001N1+00741+00061100511ADDGF108991061051008001001021MD1710091+9999REMSYN060AAXX  22061 31300 42599 83604 10074 20006 40051 57009 86502;
0122313000999992000042209004+53750+127230FM-12+023299999V0200301N004010750019N0500001N1+00651-00061100461ADDGF108991031051008001001021MD1610061+9999REMSYN070AAXX  22091 31300 42599 80304 10065 21006 40046 56006 83502 333 91110;
0112313000999992000042421004+53750+127230FM-12+023299999V0200101N004019999999N0500001N1+00481-00291101021ADDGF107991041001999999031021MD1210141+9999REMSYN060AAXX  24211 31300 42999 70104 10048 21029 40102 52014 84032;
0209313000999992000042500004+53750+127230FM-12+023299999V0200101N005010300019N0500001N1+00551-00221101181ADDAA199000091GF107991031041012501031011KA1120N+00411MA1999999098381MD1210161+9999OA140101001REMSYN088AAXX  25001 31300 32699 70105 10055 21022 39838 40118 52016 83431 333 20041 91010 91110;EQDQ01  00002PRCP99
0112313000999992000042515004+53750+127230FM-12+023299999V0200301N003010300019N0500001N1+00891-00091101321ADDGF106991021051008001031001MD1210121+9999REMSYN060AAXX  25151 31300 42584 60303 10089 21009 40132 52012 82530;
0112313000999992000042518004+53750+127230FM-12+023299999V0200501N001019999999N0500001N1+00551-00091101411ADDGF107991071001999999031001MD1110051+9999REMSYN060AAXX  25181 31300 42984 70501 10055 21009 40141 51005 87030;
0186313000999992000042700004+53750+127230FM-12+023299999V0209999C000019999999N0500001N1+00971+00131100841ADDAA199000091GF107991001001999999001021KA1999N-00051MA1999999098091MD1810021+9999REMSYN076AAXX  27001 31300 32999 70000 10097 20013 39809 40084 58002 80002 333 21005;EQDQ01  00002PRCP99
0112313000999992000042706004+53750+127230FM-12+023299999V0202101N003012200019N0500001N1+02141+00251100351ADDGF102991021011008001001001MD1710101+9999REMSYN060AAXX  27061 31300 42599 22103 10214 20025 40035 57010 82100;
0122313000999992000042718004+53750+127230FM-12+023299999V0201001N001012200019N0200001N1+00711+00021100461ADDGA1001+999999999GF100991001001999999001001MD1310031+9999REMSYN054AAXX  27181 31300 42970 01001 10071 20002 40046 53003;
0186313000999992000042800004+53750+127230FM-12+023299999V0201301N003012200019N0500001N1+01411-00041100421ADDAA199000091GF101991001001999999001011KA1999N+00341MA1999999097731MD1410001+9999REMSYN076AAXX  28001 31300 32999 11303 10141 21004 39773 40042 54000 80001 333 20034;EQDQ01  00002PRCP99
0152313000999992000042803004+53750+127230FM-12+023299999V0201301N003012200019N0500001N1+02011+00111100211ADDAA199000091GA1001+999999999GF100991001001999999001001MD1810151+9999REMSYN054AAXX  28031 31300 32999 01303 10201 20011 40021 58015;EQDQ01  00002PRCP99
0152313000999992000042806004+53750+127230FM-12+023299999V0201301N003012200019N0500001N1+02351-00191099981ADDAA199000091GA1001+999999999GF100991001001999999001001MD1710211+9999REMSYN054AAXX  28061 31300 32999 01303 10235 21019 49998 57021;EQDQ01  00002PRCP99
0186313000999992000042812004+53750+127230FM-12+023299999V0201201N001019999999N0300001N1+01521+00451100061ADDAA199000091GF106991001001999999001011KA1999M+02421MA1999999097381MD1310091+9999REMSYN076AAXX  28121 31300 32980 61201 10152 20045 39738 40006 53009 80001 333 10242;EQDQ01  00002PRCP99
0196313000999992000042900004+53750+127230FM-12+023299999V0201201N003012200019N0500001N1+01451+00231100181ADDAA199000091GA1001+999999999GF100991001001999999001001KA1999N+01051MA1999999097501MD1410001+9999REMSYN070AAXX  29001 31300 32999 01203 10145 20023 39750 40018 54000 333 20105;EQDQ01  00002PRCP99
0186313000999992000042912004+53750+127230FM-12+023299999V0201401N003019999999N0300001N1+01771+00061100031ADDAA199000091GF106991001001999999001011KA1999M+02401MA1999999097371MD1310311+9999REMSYN076AAXX  29121 31300 32980 61403 10177 20006 39737 40003 53031 80001 333 10240;EQDQ01  00002PRCP99
0112313000999992000042915004+53750+127230FM-12+023299999V0201501N001019999999N0240001N1+01591+00171100191ADDGF107991001001999999001011MD1210151+9999REMSYN060AAXX  29151 31300 42974 71501 10159 20017 40019 52015 80001;
0186313000999992000043000004+53750+127230FM-12+023299999V0201301N003019999999N0200001N1+01471+00041100431ADDAA199000091GF108991031001999999031071KA1999N+00841MA1999999097741MD1210091+9999REMSYN076AAXX  30001 31300 32998 81303 10147 20004 39774 40043 52009 83037 333 20084;EQDQ01  00002PRCP99
0112313000999992000043015004+53750+127230FM-12+023299999V0209999C000019999999N0100001N1+01001+00401100761ADDGF108991001001999999001071MD1210101+9999REMSYN060AAXX  30151 31300 42960 80000 10100 20040 40076 52010 80007;
0112313000999992000043021004+53750+127230FM-12+023299999V0209999C000019999999N0100001N1+00471+00221101111ADDGF107991001001999999001011MD1210191+9999REMSYN060AAXX  30211 31300 42997 70000 10047 20022 40111 52019 80001;
0141313000999992000050103004+53750+127230FM-12+023299999V0202301N002012200019N0100001N1+02342+00021100961ADDGA1001+999999999GF100991001001999999001001MD1810021+9999REMSYN054AAXX  01031 31300 42997 02302 10234 20002 40096 58002;EQDQ01+002343ATOT  
0214313000999992000050200004+53750+127230FM-12+023299999V0201301N003012200019N0040001N1+01821+00191100631ADDAA199000091AY101061AY201061GF102991001001999999001011KA1999N+00601MA1999999097941MD1810081+9999MW1051REMSYN082AAXX  02001 31300 31996 21303 10182 20019 39794 40063 58008 70500 80001 333 20060;EQDQ01  00002PRCP99
0122313000999992000050206004+53750+127230FM-12+023299999V0201801N005019999999N0100001N1+02541+00151099971ADDGF106991001001999999001011MD1710371+9999REMSYN070AAXX  02061 31300 42997 61805 10254 20015 49997 57037 80001 333 91111;
0150313000999992000050221004+53750+127230FM-12+023299999V0203201N002010042019N0100001N1+00321+00141100461ADDAY181031AY221031GF108991081091004501999999MD1210111+9999MW1801REMSYN076AAXX  02211 31300 41497 83202 10032 20014 40046 52011 78082 889// 333 91110;
0112313000999992000050403004+53750+127230FM-12+023299999V0200301N003012200019N0500001N1+00911-00361102001ADDGF103991031011008001001001MD1810041+9999REMSYN060AAXX  04031 31300 42599 30303 10091 21036 40200 58004 83100;
0131313000999992000050406004+53750+127230FM-12+023299999V0200701N003012200019N0500001N1+01001-00711101871ADDGF102991999011008001001001MD1710071+9999REMSYN060AAXX  04061 31300 42599 20703 10100 21071 40187 57007 83100;EQDQ01+000032SCOTLC
0196313000999992000050412004+53750+127230FM-12+023299999V0200901N001012200019N0500001N1+00601-00901102011ADDAA199000091GA1001+999999999GF100991001001999999001001KA1999M+01121MA1999999099191MD1310121+9999REMSYN070AAXX  04121 31300 32999 00901 10060 21090 39919 40201 53012 333 10112;EQDQ01  00002PRCP99
0122313000999992000050421004+53750+127230FM-12+023299999V0209999C000012200019N0500001N1-00351-00631102331ADDGA1001+999999999GF100991001001999999001001MD1310041+9999REMSYN054AAXX  04211 31300 42999 00000 11035 21063 40233 53004;
0131313000999992000050506004+53750+127230FM-12+023299999V0202201N005010120019N0500001N1+01581-01171101241ADDGF108991051021012501001021MD1710532+9999REMSYN060AAXX  05061 31300 42699 82205 10158 21117 40124 57053 85202;EQDQ01+000532APC3  
0186313000999992000050600004+53750+127230FM-12+023299999V0202001N001019999999N0500001N1+01121-00051100501ADDAA199000091GF108991081001999999071999KA1999N+00751MA1999999097781MD1210141+9999REMSYN076AAXX  06001 31300 32999 82001 10112 21005 39778 40050 52014 8807/ 333 20075;EQDQ01  00002PRCP99
0106313000999992000050603004+53750+127230FM-12+023299999V0200101N003019999999N0500001N1+01511+00431999999ADDGF107991071001999999041001MD1210151+9999REMSYN054AAXX  06031 31300 42999 70103 10151 20043 52015 87040;
0112313000999992000050618004+53750+127230FM-12+023299999V0201301N003019999999N0180001N1+01271+00091100041ADDGF108991001001999999001011MD1710221+9999REMSYN060AAXX  06181 31300 42968 81303 10127 20009 40004 57022 80001;
0112313000999992000050621004+53750+127230FM-12+023299999V0201501N003012200019N0200001N1+01251+00211099901ADDGF103991001001999999001011MD1710151+9999REMSYN060AAXX  06211 31300 42998 31503 10125 20021 49990 57015 80001;
0112313000999992000050721004+53750+127230FM-12+023299999V0202801N002012200019N0500001N1+00491-00621100961ADDGF102991021001999999031011MD1210261+9999REMSYN060AAXX  07211 31300 42999 22802 10049 21062 40096 52026 82031;
0139313000999992000050803004+53750+127230FM-12+023299999V0203201N005012200019N0500001N1+01151-01071101091ADDGF104991041011008001001001MD1110021+9999OA140101101REMSYN076AAXX  08031 31300 42599 43205 10115 21107 40109 51002 84100 333 91011 91111;
0186313000999992000050812004+53750+127230FM-12+023299999V0209999C000010300019N0500001N1+00911-00641101331ADDAA199000091GF106991021041012501061001KA1999M+01461MA1999999098561MD1210091+9999REMSYN076AAXX  08121 31300 32699 60000 10091 21064 39856 40133 52009 82460 333 10146;EQDQ01  00002PRCP99
0112313000999992000050909004+53750+127230FM-12+023299999V0201601N002019999999N0500001N1+01731-00901100751ADDGF108991001001999999001071MD1710131+9999REMSYN060AAXX  09091 31300 42999 81602 10173 21090 40075 57013 80007;
0173313000999992000051000004+53750+127230FM-12+023299999V0209999C000019999999N0100001N1+01031+00321101111ADDAA112000791GF107991001001999999001011KA1999N+00291MA1999999098361MD1610021+9999REMSYN082AAXX  10001 31300 12997 70000 10103 20032 39836 40111 56002 69902 80001 333 20029;
0112313000999992000051021004+53750+127230FM-12+023299999V0200501N001019999999N0100001N1+00701+00061101201ADDGF106991051001999999031021MD1810021+9999REMSYN060AAXX  10211 31300 42997 60501 10070 20006 40120 58002 85032;
0112313000999992000051103004+53750+127230FM-12+023299999V0201401N003012200019N0200001N1+01931-00121101031ADDGF106991021021012501001011MD1810131+9999REMSYN060AAXX  11031 31300 42698 61403 10193 21012 40103 58013 82201;
0112313000999992000051106004+53750+127230FM-12+023299999V0202801N003010075019N0200001N1+01911+00001100841ADDGF106991061031008001001011MD1710181+9999REMSYN060AAXX  11061 31300 42598 62803 10191 20000 40084 57018 86301;
0186313000999992000051112004+53750+127230FM-12+023299999V0200901N001019999999N0100001N1+01291+00321101111ADDAA199000091GF107991031001999999031011KA1999M+02111MA1999999098391MD1310201+9999REMSYN076AAXX  11121 31300 32997 70901 10129 20032 39839 40111 53020 83031 333 10211;EQDQ01  00002PRCP99
0112313000999992000051115004+53750+127230FM-12+023299999V0200901N001019999999N0160001N1+00941+00361101361ADDGF106991031001999999031021MD1210201+9999REMSYN060AAXX  11151 31300 42966 60901 10094 20036 40136 52020 83032;
0112313000999992000051118004+53750+127230FM-12+023299999V0200601N001010075019N0220001N1+00891+00411101371ADDGF107991051051008001031001MD1110011+9999REMSYN060AAXX  11181 31300 42572 70601 10089 20041 40137 51001 85530;
0112313000999992000051121004+53750+127230FM-12+023299999V0200801N002010075019N0200001N1+00831+00361101381ADDGF108991081051008001999999MD1410001+9999REMSYN060AAXX  11211 31300 42598 80802 10083 20036 40138 54000 885//;
0186313000999992000051200004+53750+127230FM-12+023299999V0201201N001010075019N0500001N1+01071+00551101281ADDAA199000091GF108991081091008001999999KA1999N+00801MA1999999098541MD1810061+9999REMSYN076AAXX  12001 31300 32599 81201 10107 20055 39854 40128 58006 889// 333 20080;EQDQ01  00002PRCP99
0186313000999992000051300004+53750+127230FM-12+023299999V0200701N002019999999N0500001N1+00971+00151101231ADDAA199000091GF108991071001999999031021KA1999N+00671MA1999999098481MD1210071+9999REMSYN076AAXX  13001 31300 32999 80702 10097 20015 39848 40123 52007 87032 333 20067;EQDQ01  00002PRCP99
0112313000999992000051303004+53750+127230FM-12+023299999V0200501N003010300019N0500001N1+01411+00291101081ADDGF106991011011012501031001MD1810131+9999REMSYN060AAXX  13031 31300 42699 60503 10141 20029 40108 58013 81130;
0186313000999992000051312004+53750+127230FM-12+023299999V0200601N001010300019N0500001N1+01511-00121100831ADDAA199000091GF108991021051012501031011KA1999M+01901MA1999999098141MD1310031+9999REMSYN076AAXX  13121 31300 32699 80601 10151 21012 39814 40083 53003 82531 333 10190;EQDQ01  00002PRCP99
0112313000999992000051315004+53750+127230FM-12+023299999V0200701N002012200019N0500001N1+00991+00381101011ADDGF103991031001999999031001MD1210121+9999REMSYN060AAXX  13151 31300 42984 30702 10099 20038 40101 52012 83030;
0112313000999992000051318004+53750+127230FM-12+023299999V0200801N001019999999N0500001N1+00941+00401101071ADDGF108991061001999999031021MD1210051+9999REMSYN060AAXX  13181 31300 42984 80801 10094 20040 40107 52005 86032;
0112313000999992000051321004+53750+127230FM-12+023299999V0200501N001019999999N0500001N1+00751+00211101161ADDGF108991081001999999051999MD1210071+9999REMSYN060AAXX  13211 31300 42999 80501 10075 20021 40116 52007 8805/;
0186313000999992000051400004+53750+127230FM-12+023299999V0209999C000010300019N0500001N1+01051+00381101161ADDAA199000091GF107991031051012501031001KA1999N+00711MA1999999098411MD1210031+9999REMSYN076AAXX  14001 31300 32699 70000 10105 20038 39841 40116 52003 83530 333 20071;EQDQ01  00002PRCP99
0140313000999992000051406004+53750+127230FM-12+023299999V0202201N002012200019N0500001N1+01661+00621100921ADDAY191061AY281061GF107991031031008001001011MD1710111+9999MW1021REMSYN066AAXX  14061 31300 41599 72202 10166 20062 40092 57011 70298 83301;
0112313000999992000051409004+53750+127230FM-12+023299999V0202701N003010300019N0500001N1+01731+00451100951ADDGF107991031041012501081011MD1310031+9999REMSYN060AAXX  14091 31300 42699 72703 10173 20045 40095 53003 83481;
0169313000999992000051412004+53750+127230FM-12+023299999V0200501N002012200019N0500001N1+01321+00501101051ADDAA112000791GA1001+999999999GF100991001001999999001001MA1999999098331MD1210061+9999REMSYN075AAXX  14121 31300 12999 00502 10132 20050 39833 40105 52006 69902 333 1018;
0122313000999992000051415004+53750+127230FM-12+023299999V0202001N001012200019N0500001N1+00731+00481101221ADDGA1001+999999999GF100991001001999999001001MD1210111+9999REMSYN054AAXX  14151 31300 42984 02001 10073 20048 40122 52011;
0122313000999992000051418004+53750+127230FM-12+023299999V0202101N001012200019N0500001N1+00441+00321101291ADDGA1001+999999999GF100991001001999999001001MD1110041+9999REMSYN054AAXX  14181 31300 42984 02101 10044 20032 40129 51004;
0112313000999992000051421004+53750+127230FM-12+023299999V0209999C000012200019N0500001N1+00331+00201101401ADDGF102991001001999999001021MD1110111+9999REMSYN060AAXX  14211 31300 42999 20000 10033 20020 40140 51011 80002;
0122313000999992000051515004+53750+127230FM-12+023299999V0209999C000012200019N0500001N1+00591+00431101451ADDGA1001+999999999GF100991001001999999001001MD1310181+9999REMSYN054AAXX  15151 31300 42984 00000 10059 20043 40145 53018;
0150313000999992000051521004+53750+127230FM-12+023299999V0200901N001012200019N0500001N1+00131+00051101511ADDAY141031AY201031GA1001+999999999GF100991001001999999001001MD1410001+9999MW1281REMSYN060AAXX  15211 31300 41999 00901 10013 20005 40151 54000 72840;
0194313000999992000051600004+53750+127230FM-12+023299999V0203001N002012200019N0500001N1+01361-00121101391ADDAY101061AY221061GA1001+999999999GF100991001001999999001001KA1999N-00021MA1999999098661MD1410001+9999MW1401REMSYN076AAXX  16001 31300 12999 03002 10136 21012 39866 40139 54000 74002 333 21002;
0122313000999992000051603004+53750+127230FM-12+023299999V0200201N003012200019N0500001N1+01771-00251101051ADDGA1001+999999999GF100991001001999999001001MD1810291+9999REMSYN054AAXX  16031 31300 42999 00203 10177 21025 40105 58029;
0112313000999992000051606004+53750+127230FM-12+023299999V0203001N004012200019N0500001N1+02021-00821100741ADDGF101991001001999999001021MD1710291+9999REMSYN060AAXX  16061 31300 42999 13004 10202 21082 40074 57029 80002;
0112313000999992000051621004+53750+127230FM-12+023299999V0202401N001010300019N0500001N1+00271-00251100731ADDGF105991021051012501031001MD1310041+9999REMSYN060AAXX  16211 31300 42699 52401 10027 21025 40073 53004 82530;
0186313000999992000051800004+53750+127230FM-12+023299999V0200601N003012200019N0500001N1+00881-00821101411ADDAA199000091GF102991021011008001001001KA1999N+00091MA1999999098631MD1210071+9999REMSYN076AAXX  18001 31300 32599 20603 10088 21082 39863 40141 52007 82100 333 20009;EQDQ01  00002PRCP99
0122313000999992000051806004+53750+127230FM-12+023299999V0203601N003010075019N0500001N1+01171-00901101361ADDGF105991051031008001001001MD1410001+9999REMSYN070AAXX  18061 31300 42599 53603 10117 21090 40136 54000 85300 333 91111;
0196313000999992000051812004+53750+127230FM-12+023299999V0203301N003012200019N0500001N1+00811-01171101621ADDAA199000091GA1001+999999999GF100991001001999999001001KA1999M+01331MA1999999098831MD1210161+9999REMSYN070AAXX  18121 31300 32999 03303 10081 21117 39883 40162 52016 333 10133;EQDQ01  00002PRCP99
0112313000999992000051903004+53750+127230FM-12+023299999V0200601N003012200019N0500001N1+01291-00741101551ADDGF102991001001999999001021MD1810141+9999REMSYN060AAXX  19031 31300 42999 20603 10129 21074 40155 58014 80002;
0112313000999992000051906004+53750+127230FM-12+023299999V0200201N002012200019N0500001N1+01451-01271101321ADDGF103991001001999999001011MD1710221+9999REMSYN060AAXX  19061 31300 42999 30202 10145 21127 40132 57022 80001;
0122313000999992000051915004+53750+127230FM-12+023299999V0202101N001012200019N0500001N1+00311-00481101351ADDGA1001+999999999GF100991001001999999001001MD1410001+9999REMSYN054AAXX  19151 31300 42984 02101 10031 21048 40135 54000;
0122313000999992000051918004+53750+127230FM-12+023299999V0209999C000012200019N0500001N1-00071-00461101391ADDGA1001+999999999GF100991001001999999001001MD1410001+9999REMSYN054AAXX  19181 31300 42984 00000 11007 21046 40139 54000;
0112313000999992000051921004+53750+127230FM-12+023299999V0209999C000012200019N0500001N1-00031-00631101391ADDGF101991001001999999001011MD1410001+9999REMSYN060AAXX  19211 31300 42999 10000 11003 21063 40139 54000 80001;
0186313000999992000052000004+53750+127230FM-12+023299999V0202401N001012200019N0500001N1+01061-00501101361ADDAA199000091GF103991001001999999001021KA1999N-00311MA1999999098601MD1310071+9999REMSYN076AAXX  20001 31300 32999 32401 10106 21050 39860 40136 53007 80002 333 21031;EQDQ01  00002PRCP99
0112313000999992000052003004+53750+127230FM-12+023299999V0202701N001012200019N0500001N1+01711-00671101041ADDGF103991001001999999001021MD1810241+9999REMSYN060AAXX  20031 31300 42999 32701 10171 21067 40104 58024 80002;
0112313000999992000052006004+53750+127230FM-12+023299999V0201201N002012200019N0500001N1+01881-00301100781ADDGF102991011011012501001011MD1710241+9999REMSYN060AAXX  20061 31300 42699 21202 10188 21030 40078 57024 81101;
0186313000999992000052012004+53750+127230FM-12+023299999V0200301N001012200019N0500001N1+01471-00541100751ADDAA199000091GF103991011051012501001011KA1999M+01971MA1999999098051MD1310041+9999REMSYN076AAXX  20121 31300 32699 30301 10147 21054 39805 40075 53004 81501 333 10197;EQDQ01  00002PRCP99
0122313000999992000052021004+53750+127230FM-12+023299999V0209999C000012200019N0200001N1+00181-00361100961ADDGA1001+999999999GF100991001001999999001001MD1410001+9999REMSYN054AAXX  20211 31300 42998 00000 10018 21036 40096 54000;
0131313000999992000052103004+53750+127230FM-12+023299999V0200601N003012200019N0500001N1+02002+00021100661ADDGF104991021021008001001021MD1810121+9999REMSYN060AAXX  21031 31300 42599 40603 10200 20002 40066 58012 82202;EQDQ01+002003ATOT  
0112313000999992000052106004+53750+127230FM-12+023299999V0200201N002010300019N0500001N1+02121+00001100461ADDGF107991041031008001031021MD1710181+9999REMSYN060AAXX  21061 31300 42599 70202 10212 20000 40046 57018 84332;
0112313000999992000052118004+53750+127230FM-12+023299999V0209999C000012200019N0500001N1+01091+00411100721ADDGF103991001001999999001011MD1210081+9999REMSYN060AAXX  21181 31300 42984 30000 10109 20041 40072 52008 80001;
0122313000999992000052121004+53750+127230FM-12+023299999V0201601N001012200019N0500001N1+00721+00291100831ADDGA1001+999999999GF100991001001999999001001MD1210071+9999REMSYN054AAXX  21211 31300 42999 01601 10072 20029 40083 52007;
0196313000999992000052200004+53750+127230FM-12+023299999V0201501N001012200019N0500001N1+01371+00381100731ADDAA199000091GA1001+999999999GF100991001001999999001001KA1999N+00701MA1999999098031MD1810031+9999REMSYN070AAXX  22001 31300 32999 01501 10137 20038 39803 40073 58003 333 20070;EQDQ01  00002PRCP99
0180313000999992000052300004+53750+127230FM-12+023299999V0200601N001019999999N0200001N1+99999+99999100821ADDAA199000091GF105991001001999999001011KA1999N+00391MA1999999098111MD1210051+9999REMSYN070AAXX  23001 31300 32998 50601 20023 39811 40082 52005 80001 333 20039;EQDQ01  00002PRCP99
0112313000999992000052306004+53750+127230FM-12+023299999V0201901N003012200019N0200001N1+02311+00191100461ADDGF106991041031008001001011MD1710211+9999REMSYN060AAXX  23061 31300 42598 61903 10231 20019 40046 57021 84301;
0186313000999992000052312004+53750+127230FM-12+023299999V0209999C000019999999N0200001N1+01571+00501100341ADDAA199000091GF106991001001999999001011KA1999M+02351MA1999999097671MD1510001+9999REMSYN076AAXX  23121 31300 32998 60000 10157 20050 39767 40034 55000 80001 333 10235;EQDQ01  00002PRCP99
0112313000999992000052315004+53750+127230FM-12+023299999V0209999C000019999999N0160001N1+01201+00431100301ADDGF108991041001999999031011MD1810071+9999REMSYN060AAXX  23151 31300 42966 80000 10120 20043 40030 58007 84031;
0140313000999992000052318004+53750+127230FM-12+023299999V0209999C000019999999N0080001N1+01391+00431100201ADDAY121061AY221061GF108991051001999999031011MD1610081+9999MW1051REMSYN066AAXX  23181 31300 41958 80000 10139 20043 40020 56008 70522 85031;
0140313000999992000052321004+53750+127230FM-12+023299999V0200901N002010300019N0100001N1+01161+00701100201ADDAY161031AY221031GF108991021071004501021999MD1810021+9999MW1611REMSYN066AAXX  23211 31300 41497 80902 10116 20070 40020 58002 76162 8272/;
0228313000999992000052400004+53750+127230FM-12+023299999V0201301N002010300019N0100001N1+01151+00951100151ADDAA112000791AY181061AY221061GF108991031091008001051999IA1099IA2999+01009MA1999999097451MD1710061+9999MW1801REMSYN110AAXX  24001 31300 11597 81302 10115 20095 39745 40015 57006 69902 78082 8395/ 333 2/110 555 10012 31010 70/+-;
0140313000999992000052406004+53750+127230FM-12+023299999V0201401N003010042019N0100001N1+01191+00111099671ADDAY181061AY221061GF108991081091004501999999MD1710221+9999MW1801REMSYN066AAXX  24061 31300 41497 81403 10119 20011 49967 57022 78082 889//;
0112313000999992000052421004+53750+127230FM-12+023299999V0202401N002012200019N0200001N1+00911+00781099421ADDGF103991031061004501001001MD1210071+9999REMSYN060AAXX  24211 31300 42498 32402 10091 20078 49942 52007 83600;
0173313000999992000052500004+53750+127230FM-12+023299999V0202201N002012200019N0500001N1+01311+00821099431ADDAA112000891GF104991021031008001031011KA1999N+00871MA1999999096751MD1110041+9999REMSYN082AAXX  25001 31300 12599 42202 10131 20082 39675 49943 51004 69972 82331 333 20087;
0112313000999992000052518004+53750+127230FM-12+023299999V0209999C000012200019N0500001N1+00551+00231100571ADDGF102991021001999999051001MD1210131+9999REMSYN060AAXX  25181 31300 42984 20000 10055 20023 40057 52013 82050;
0122313000999992000052521004+53750+127230FM-12+023299999V0209999C000012200019N0500001N1+00381+00201100761ADDGA1001+999999999GF100991001001999999001001MD1210181+9999REMSYN054AAXX  25211 31300 42999 00000 10038 20020 40076 52018;
0196313000999992000052600004+53750+127230FM-12+023299999V0200201N001012200019N0500001N1+01251+00321100771ADDAA199000091GA1001+999999999GF100991001001999999001001KA1999N+00291MA1999999098051MD1210081+9999REMSYN070AAXX  26001 31300 32999 00201 10125 20032 39805 40077 52008 333 20029;EQDQ01  00002PRCP99
0140313000999992000052615004+53750+127230FM-12+023299999V0200301N003012200019N0500001N1+01571+00461100281ADDAY181031AY211031GF103991031001999999031001MD1310091+9999MW1021REMSYN066AAXX  26151 31300 41984 30303 10157 20046 40028 53009 70281 83030;
0140313000999992000052618004+53750+127230FM-12+023299999V0209999C000010120019N0500001N1+01171+00591100271ADDAY181061AY211061GF107991071051012501001001MD1810041+9999MW1021REMSYN066AAXX  26181 31300 41684 70000 10117 20059 40027 58004 70281 87500;
0140313000999992000052621004+53750+127230FM-12+023299999V0209999C000010300019N0500001N1+01101+00701100281ADDAY181031AY221031GF107991031031008001031011MD1510001+9999MW1021REMSYN066AAXX  26211 31300 41599 70000 10110 20070 40028 55000 70282 83331;
0241313000999992000052700004+53750+127230FM-12+023299999V0209999C000010300019N0500001N1+01151+00821100371ADDAA112000591AY181061AY221061GF106991041091008001031001IA1099IA2999+00609KA1120N+00881MA1999999097661MD1210091+9999MW1021REMSYN110AAXX  27001 31300 11599 60000 10115 20082 39766 40037 52009 69942 70282 84930 333 20088 555 11015 31006 7994/;
0140313000999992000052703004+53750+127230FM-12+023299999V0209999C000010075019N0500001N1+01251+00991100301ADDAY191031AY281031GF105991051031008001001001MD1810051+9999MW1951REMSYN066AAXX  27031 31300 41599 50000 10125 20099 40030 58005 79598 85300;
0173313000999992000052712004+53750+127230FM-12+023299999V0209999C000012200019N0500001N1+01411+00431100071ADDAA112002091GF103991021051012501001011KA1999M+01991MA1999999097391MD1610031+9999REMSYN082AAXX  27121 31300 12699 30000 10141 20043 39739 40007 56003 60022 82501 333 10199;
0241313000999992000052800004+53750+127230FM-12+023299999V0202201N002012200019N0500001N1+01471+00591099541ADDAA112000791AY181061AY211061GF102991021001999999031001IA1099IA2999+00709KA1120N+00891MA1999999096931MD1710061+9999MW1021REMSYN110AAXX  28001 31300 11999 22202 10147 20059 39693 49954 57006 69902 70281 82030 333 20089 555 11023 31007 7002/;
0122313000999992000052815004+53750+127230FM-12+023299999V0202701N001012200019N0500001N1+00421+00001099641ADDGA1001+999999999GF100991001001999999001001MD1410001+9999REMSYN054AAXX  28151 31300 42984 02701 10042 21000 49964 54000;
0112313000999992000052821004+53750+127230FM-12+023299999V0202201N001012200019N0500001N1+00251-00111099521ADDGF102991021021999999001001MD1210021+9999REMSYN060AAXX  28211 31300 42999 22201 10025 21011 49952 52002 82200;
0226313000999992000052900004+53750+127230FM-12+023299999V0203601N003010750019N0500001N1+01251+00001099421ADDAA199000091GF107991021031008001001021IA1099IA2999+00109KA1120N+00021MA1999999096741MD1410001+9999REMSYN098AAXX  29001 31300 32599 73603 10125 20000 39674 49942 54000 82302 333 20002 555 11023 31001 7000/;EQDQ01  00002PRCP99
0112313000999992000052909004+53750+127230FM-12+023299999V0200301N003010300019N0500001N1+01301+00301100001ADDGF107991041031008001061021MD1210251+9999REMSYN060AAXX  29091 31300 42599 70303 10130 20030 40000 52025 84362;
0112313000999992000052915004+53750+127230FM-12+023299999V0200601N002012200019N0500001N1+00871+00231100511ADDGF104991021051012501001011MD1210171+9999REMSYN060AAXX  29151 31300 42699 40602 10087 20023 40051 52017 82501;
0112313000999992000052921004+53750+127230FM-12+023299999V0209999C000019999999N0500001N1+00761+00231100771ADDGF107991051001999999031021MD1210131+9999REMSYN060AAXX  29211 31300 42999 70000 10076 20023 40077 52013 85032;
0226313000999992000053000004+53750+127230FM-12+023299999V0201801N002010300019N0500001N1+01291+00501100851ADDAA199000091GF107991021051008001031021IA1019IA2999+00409KA1120N+00621MA1999999098141MD1210141+9999REMSYN098AAXX  30001 31300 32599 71802 10129 20050 39814 40085 52014 82532 333 20062 555 10025 30004 7000/;EQDQ01  00002PRCP99
0112313000999992000053003004+53750+127230FM-12+023299999V0201601N002010750019N0500001N1+01611+00361100731ADDGF108991041021008001001071MD1810091+9999REMSYN060AAXX  30031 31300 42599 81602 10161 20036 40073 58009 84207;
0186313000999992000053012004+53750+127230FM-12+023299999V0200901N002012200019N0500001N1+01421+00301100771ADDAA199000091GF103991021041012501001011KA1999M+02001MA1999999098071MD1310091+9999REMSYN076AAXX  30121 31300 32699 30902 10142 20030 39807 40077 53009 82401 333 10200;EQDQ01  00002PRCP99
0122313000999992000053018004+53750+127230FM-12+023299999V0209999C000012200019N0500001N1+00471+00301100941ADDGA1001+999999999GF100991001001999999001001MD1410001+9999REMSYN054AAXX  30181 31300 42984 00000 10047 20030 40094 54000;
0112313000999992000053021004+53750+127230FM-12+023299999V0209999C000019999999N0500001N1+00661+00351100981ADDGF105991051001999999031001MD1310051+9999REMSYN060AAXX  30211 31300 42999 50000 10066 20035 40098 53005 85030;
0186313000999992000053100004+53750+127230FM-12+023299999V0201401N002019999999N0500001N1+01391+00501100901ADDAA199000091GF107991071001999999031001KA1999N+00331MA1999999098201MD1410001+9999REMSYN076AAXX  31001 31300 32999 71402 10139 20050 39820 40090 54000 87030 333 20033;EQDQ01  00002PRCP99
0140313000999992000053106004+53750+127230FM-12+023299999V0200301N002010300019N0500001N1+01561+00861100711ADDAY181061AY211061GF106991041091008001031001MD1710091+9999MW1021REMSYN066AAXX  31061 31300 41599 60302 10156 20086 40071 57009 70281 84930;
0112313000999992000053109004+53750+127230FM-12+023299999V0200301N001010300019N0500001N1+01791+00921100601ADDGF106991041091008001031011MD1710091+9999REMSYN060AAXX  31091 31300 42599 60301 10179 20092 40060 57009 84931;
0201313000999992000053112004+53750+127230FM-12+023299999V0201501N002010075019N0500001N1+01471+00941100701ADDAA112000391AY191061AY281061GF106991061091008001001011KA1999M+01851MA1999999098011MD1310071+9999MW1171REMSYN088AAXX  31121 31300 11599 61502 10147 20094 39801 40070 53007 69932 71798 86901 333 10185;
0140313000999992000053121004+53750+127230FM-12+023299999V0209999C000010300019N0500001N1+00811+00681100891ADDAY181031AY221031GF107991041091008001031001MD1310031+9999MW1021REMSYN066AAXX  31211 31300 41599 70000 10081 20068 40089 53003 70282 84930;
0169313000999992000060106004+53750+127230FM-12+023299999V0203301N003019999999N0500001N1+01951+00551100861ADDAY181061AY221061GF106991999031008001001001MD1010001+9999MW1811REMSYN076AAXX  01061 31300 41599 63303 10195 20055 40086 50000 78182 88300 333 91011;EQDQ01+000082SCOTLC
0201313000999992000060112004+53750+127230FM-12+023299999V0202001N001010300019N0500001N1+01441+00931101001ADDAA112002091AY181061AY211061GF106991031091008001031001KA1999M+02001MA1999999098301MD1310121+9999MW1021REMSYN088AAXX  01121 31300 11599 62001 10144 20093 39830 40100 53012 60022 70281 83930 333 10200;
0122313000999992000060118004+53750+127230FM-12+023299999V0209999C000012200019N0500001N1+00771+00641101171ADDGA1001+999999999GF100991001001999999001001MD1410001+9999REMSYN054AAXX  01181 31300 42984 00000 10077 20064 40117 54000;
0122313000999992000060121004+53750+127230FM-12+023299999V0209999C000012200019N0500001N1+00671+00561101301ADDGA1001+999999999GF100991001001999999001001MD1310121+9999REMSYN054AAXX  01211 31300 42999 00000 10067 20056 40130 53012;
0202313000999992000060200004+53750+127230FM-12+023299999V0200301N003012200019N0500001N1+01772+00771101211ADDAA199000091GF101991001001999999001011KA1999N+00521MA1999999098541MD1110021+9999REMSYN076AAXX  02001 31300 32999 10303 10177 20077 39854 40121 51002 80001 333 20052;EQDQ01+001773ATOT  Q02  00002PRCP99
0186313000999992000060212004+53750+127230FM-12+023299999V0200901N002012200019N0500001N1+01901+00561100861ADDAA199000091GF103991021051012501001011KA1999M+02661MA1999999098211MD1310081+9999REMSYN076AAXX  02121 31300 32699 30902 10190 20056 39821 40086 53008 82501 333 10266;EQDQ01  00002PRCP99
0112313000999992000060218004+53750+127230FM-12+023299999V0209999C000012200019N0500001N1+00971+00561101031ADDGF103991031051012501001001MD1410001+9999REMSYN060AAXX  02181 31300 42684 30000 10097 20056 40103 54000 83500;
0112313000999992000060221004+53750+127230FM-12+023299999V0209999C000019999999N0500001N1+01031+00641100931ADDGF106991001001999999001011MD1810091+9999REMSYN060AAXX  02211 31300 42999 60000 10103 20064 40093 58009 80001;
0186313000999992000060300004+53750+127230FM-12+023299999V0201301N002019999999N0500001N1+02051+00561100711ADDAA199000091GF107991001001999999001021KA1999N+00801MA1999999098071MD1710121+9999REMSYN076AAXX  03001 31300 32999 71302 10205 20056 39807 40071 57012 80002 333 20080;EQDQ01  00002PRCP99
0112313000999992000060306004+53750+127230FM-12+023299999V0201901N002012200019N0500001N1+02871+00771100001ADDGF102991001001999999001011MD1710381+9999REMSYN060AAXX  03061 31300 42999 21902 10287 20077 40000 57038 80001;
0112313000999992000060309004+53750+127230FM-12+023299999V0201901N002019999999N0500001N1+02931+01181099891ADDGF106991001001999999001021MD1710101+9999REMSYN060AAXX  03091 31300 42999 61902 10293 20118 49989 57010 80002;
0186313000999992000060312004+53750+127230FM-12+023299999V0200901N002019999999N0500001N1+02351+01071099841ADDAA199000091GF107991021001999999031021KA1999M+03001MA1999999097251MD1710101+9999REMSYN076AAXX  03121 31300 32999 70902 10235 20107 39725 49984 57010 82032 333 10300;EQDQ01  00002PRCP99
0112313000999992000060321004+53750+127230FM-12+023299999V0202701N001010300019N0500001N1+01571+01351099601ADDGF107991021031008001081011MD1610041+9999REMSYN060AAXX  03211 31300 42599 72701 10157 20135 49960 56004 82381;
0173313000999992000060400004+53750+127230FM-12+023299999V0203201N001010300019N0500001N1+01991+01281099451ADDAA112000591GF106991021051012501031011KA1999N+01531MA1999999096851MD1810101+9999REMSYN082AAXX  04001 31300 12699 63201 10199 20128 39685 49945 58010 69962 82531 333 20153;
0140313000999992000060409004+53750+127230FM-12+023299999V0203301N002010750019N0500001N1+02071+00731099831ADDAY181031AY221031GF106991041091008001001021MD1210171+9999MW1021REMSYN066AAXX  04091 31300 41599 63302 10207 20073 49983 52017 70282 84902;
0201313000999992000060412004+53750+127230FM-12+023299999V0203501N002012200019N0500001N1+01631+00801100011ADDAA112000791AY181061AY221061GF103991031031008001001001KA1999M+02331MA1999999097351MD1210131+9999MW1021REMSYN088AAXX  04121 31300 11599 33502 10163 20080 39735 40001 52013 69902 70282 83300 333 10233;
0112313000999992000060421004+53750+127230FM-12+023299999V0203601N003010300019N0500001N1+01441+00561100221ADDGF107991041091008001031001MD1210181+9999REMSYN060AAXX  04211 31300 42599 73603 10144 20056 40022 52018 84930;
0186313000999992000060512004+53750+127230FM-12+023299999V0209999C000010300019N0500001N1+01411+00921100801ADDAA199000091GF106991031051012501031001KA1999M+01921MA1999999098101MD1210141+9999REMSYN076AAXX  05121 31300 32699 60000 10141 20092 39810 40080 52014 83530 333 10192;EQDQ01  00002PRCP99
0140313000999992000060521004+53750+127230FM-12+023299999V0209999C000010075019N0500001N1+00991+00811101211ADDAY181031AY221031GF107991071091008001001001MD1210151+9999MW1251REMSYN066AAXX  05211 31300 41599 70000 10099 20081 40121 52015 72582 87900;
0122313000999992000060615004+53750+127230FM-12+023299999V0202101N001012200019N0500001N1+00811+00401101201ADDGA1001+999999999GF100991001001999999001001MD1210091+9999REMSYN054AAXX  06151 31300 42984 02101 10081 20040 40120 52009;
0122313000999992000060618004+53750+127230FM-12+023299999V0209999C000012200019N0500001N1+00451+00251101271ADDGA1001+999999999GF100991001001999999001001MD1210031+9999REMSYN054AAXX  06181 31300 42984 00000 10045 20025 40127 52003;
0122313000999992000060621004+53750+127230FM-12+023299999V0209999C000012200019N0500001N1+00551+00261101261ADDGA1001+999999999GF100991001001999999001001MD1410001+9999REMSYN054AAXX  06211 31300 42999 00000 10055 20026 40126 54000;
0196313000999992000060712004+53750+127230FM-12+023299999V0209999C000012200019N0500001N1+01161+00641100641ADDAA199000091GA1001+999999999GF100991001001999999001001KA1999M+02411MA1999999097971MD1610021+9999REMSYN070AAXX  07121 31300 32999 00000 10116 20064 39797 40064 56002 333 10241;EQDQ01  00002PRCP99
0142313000999992000060803004+53750+127230FM-12+023299999V0202701N001019999999N0500001N1+02611+00701100521ADDAA199000091GF107991041031999999001011MD1810121+9999REMSYN060AAXX  08031 31300 32999 72701 10261 20070 40052 58012 84301;EQDQ01  00002PRCP99
0186313000999992000060812004+53750+127230FM-12+023299999V0209999C000012200019N0500001N1+02061+00611100451ADDAA199000091GF102991021001999999031011KA1999M+02751MA1999999097821MD1310031+9999REMSYN076AAXX  08121 31300 32999 20000 10206 20061 39782 40045 53003 82031 333 10275;EQDQ01  00002PRCP99
0112313000999992000060906004+53750+127230FM-12+023299999V0201201N002012200019N0500001N1+02721+00401100291ADDGF105991031031008001001011MD1710181+9999REMSYN060AAXX  09061 31300 42599 51202 10272 20040 40029 57018 83301;
0186313000999992000060912004+53750+127230FM-12+023299999V0209999C000010750019N0200001N1+02011+01021100421ADDAA199000091GF105991021041012501031011KA1999M+02881MA1999999097781MD1210061+9999REMSYN076AAXX  09121 31300 32698 50000 10201 20102 39778 40042 52006 82431 333 10288;EQDQ01  00002PRCP99
0196313000999992000061000004+53750+127230FM-12+023299999V0209999C000012200019N0500001N1+01901+00101100731ADDAA199000091GA1001+999999999GF100991001001999999001001KA1999N+00901MA1999999098091MD1210031+9999REMSYN070AAXX  10001 31300 32999 00000 10190 20010 39809 40073 52003 333 20090;EQDQ01  00002PRCP99
0112313000999992000061006004+53750+127230FM-12+023299999V0200201N003012200019N0500001N1+03161+00731100341ADDGF104991011021008001001011MD1710181+9999REMSYN060AAXX  10061 31300 42599 40203 10316 20073 40034 57018 81201;
0196313000999992000061012004+53750+127230FM-12+023299999V0209999C000012200019N0500001N1+02431+01391100511ADDAA199000091GA1001+999999999GF100991001001999999001001KA1999M+03201MA1999999097921MD1310181+9999REMSYN070AAXX  10121 31300 32999 00000 10243 20139 39792 40051 53018 333 10320;EQDQ01  00002PRCP99
0112313000999992000061021004+53750+127230FM-12+023299999V0209999C000019999999N0500001N1+01251+00981100711ADDGF107991001001999999001011MD1410001+9999REMSYN060AAXX  10211 31300 42999 70000 10125 20098 40071 54000 80001;
0186313000999992000061100004+53750+127230FM-12+023299999V0201801N001019999999N0200001N1+01891+01041100611ADDAA199000091GF105991001001999999001011KA1999N+01081MA1999999097961MD1810041+9999REMSYN076AAXX  11001 31300 32998 51801 10189 20104 39796 40061 58004 80001 333 20108;EQDQ01  00002PRCP99
0184313000999992000061112004+53750+127230FM-12+023299999V0203301N004010075019N0500001N1+02531+01271099881ADDAY191061AY281061GF107991071091008001001001KA1999M+03451MA1999999097311MD1710021+9999MW1171REMSYN082AAXX  11121 31300 11599 73304 10253 20127 39731 49988 57002 71798 87900 333 10345;
0140313000999992000061118004+53750+127230FM-12+023299999V0203401N003010300019N0500001N1+02051+01211100231ADDAY191061AY211061GF106991041091008001051999MD1210111+9999MW1021REMSYN066AAXX  11181 31300 41584 63403 10205 20121 40023 52011 70291 8495/;
0139313000999992000061121004+53750+127230FM-12+023299999V0203401N004019999999N0500001N1+01911+00821100341ADDGF106991041001999999041011MD1210081+9999OA140101101REMSYN076AAXX  11211 31300 42999 63404 10191 20082 40034 52008 84041 333 91011 91111;
0196313000999992000061212004+53750+127230FM-12+023299999V0203201N003012200019N0500001N1+02111+00021100441ADDAA199000091GA1001+999999999GF100991001001999999001001KA1999M+02561MA1999999097811MD1310081+9999REMSYN070AAXX  12121 31300 32999 03203 10211 20002 39781 40044 53008 333 10256;EQDQ01  00002PRCP99
0122313000999992000061218004+53750+127230FM-12+023299999V0203201N002012200019N0500001N1+01611+00061100611ADDGA1001+999999999GF100991001001999999001001MD1210071+9999REMSYN054AAXX  12181 31300 42984 03202 10161 20006 40061 52007;
0122313000999992000061221004+53750+127230FM-12+023299999V0209999C000012200019N0500001N1+01381+00451100801ADDGA1001+999999999GF100991001001999999001001MD1210161+9999REMSYN054AAXX  12211 31300 42999 00000 10138 20045 40080 52016;
0112313000999992000061303004+53750+127230FM-12+023299999V0200201N002012200019N0500001N1+02381+00111100561ADDGF102991011011008001001011MD1710111+9999REMSYN060AAXX  13031 31300 42599 20202 10238 20011 40056 57011 81101;
0186313000999992000061312004+53750+127230FM-12+023299999V0200301N001012200019N0500001N1+02251+00481100341ADDAA199000091GF102991021041012501001001KA1999M+02771MA1999999097731MD1310051+9999REMSYN076AAXX  13121 31300 32699 20301 10225 20048 39773 40034 53005 82400 333 10277;EQDQ01  00002PRCP99
0080313000999992000061315004+53750+127230FM-12+023299999V0209999C000019999999N0230001N1+01571+00731100461ADDMD1210061+9999REMSYN054AAXX  13151 31300 42973 /0000 10157 20073 40046 52006;
0122313000999992000061321004+53750+127220FM-12+023299999V0201601N001012200019N0200001N1+01101+00701100531ADDGA1001+999999999GF100991001001999999001001MD1310031+9999REMSYN054AAXX  13211 31300 42998 01601 10110 20070 40053 53003;
0189313000999992000061400004+53750+127220FM-12+023299999V0200301N002012200019N0500001N1+02171+00941100431ADDAA199000091GA1001+999999999GF100991001001999999001001IA1019MA1999999097811MD1410001+9999REMSYN070AAXX  14001 31300 32999 00302 10217 20094 39781 40043 54000 333 30095;EQDQ01  00002PRCP99
0112313000999992000061403004+53750+127220FM-12+023299999V0200401N004012200019N0500001N1+02601+00591100331ADDGF102991021011008001001011MD1810061+9999REMSYN060AAXX  14031 31300 42599 20404 10260 20059 40033 58006 82101;
0112313000999992000061406004+53750+127220FM-12+023299999V0200501N003012200019N0500001N1+02731+00291100191ADDGF102991001001999999001011MD1710131+9999REMSYN060AAXX  14061 31300 42999 20503 10273 20029 40019 57013 80001;
0112313000999992000061409004+53750+127220FM-12+023299999V0203601N003012200019N0500001N1+02761+00131100141ADDGF101991001001999999001011MD1710051+9999REMSYN060AAXX  14091 31300 42999 13603 10276 20013 40014 57005 80001;
0122313000999992000061421004+53750+127220FM-12+023299999V0209999C000012200019N0100001N1+00951+00671100471ADDGA1001+999999999GF100991001001999999001001MD1310041+9999REMSYN054AAXX  14211 31300 42997 00000 10095 20067 40047 53004;
0140313000999992000061503004+53750+127220FM-12+023299999V0203101N001019999999N0040001N1+02371+00981100251ADDAY111031AY211031GF105991031001999999031011MD1810091+9999MW1051REMSYN066AAXX  15031 31300 41996 53101 10237 20098 40025 58009 70511 83031;
0211313000999992000061512004+53750+127220FM-12+023299999V0200601N001012200019N0500001N1+01361+00951100931ADDAA112000591AY191061AY211061GA1001+999999999GF100991001001999999001001KA1999M+02661MA1999999098231MD1210271+9999MW1021REMSYN082AAXX  15121 31300 11999 00601 10136 20095 39823 40093 52027 69942 70291 333 10266;
0122313000999992000061521004+53750+127220FM-12+023299999V0209999C000012200019N0500001N1+00731+00091101601ADDGA1001+999999999GF100991001001999999001001MD1210181+9999REMSYN054AAXX  15211 31300 42999 00000 10073 20009 40160 52018;
0112313000999992000061606004+53750+127220FM-12+023299999V0203301N003012200019N0500001N1+02471+00061101331ADDGF103991001001999999001011MD1710171+9999REMSYN060AAXX  16061 31300 42999 33303 10247 20006 40133 57017 80001;
0112313000999992000061621004+53750+127220FM-12+023299999V0209999C000012200019N0100001N1+00891+00671101331ADDGF102991001001999999001011MD1710071+9999REMSYN060AAXX  16211 31300 42997 20000 10089 20067 40133 57007 80001;
0159313000999992000061703004+53750+127220FM-12+023299999V0202201N001019999999N0040001N1+02842+01141100731ADDAY121031AY221031GF107991001001999999001011MD1710281+9999MW1051REMSYN066AAXX  17031 31300 41996 72201 10284 20114 40073 57028 70522 80001;EQDQ01+002843ATOT  
0122313000999992000061721004+53750+127220FM-12+023299999V0203301N003012200019N0100001N1+01621+00611101081ADDGA1001+999999999GF100991001001999999001001MD1210271+9999REMSYN054AAXX  17211 31300 42997 03303 10162 20061 40108 52027;
0140313000999992000061821004+53750+127220FM-12+023299999V0209999C000019999999N0040001N1+00881+00591101131ADDAY111031AY211031GF106991061001999999031001MD1810021+9999MW1051REMSYN066AAXX  18211 31300 41996 60000 10088 20059 40113 58002 70511 86030;
0214313000999992000061900004+53750+127220FM-12+023299999V0201701N001012200019N0010001N1+01471+00741100991ADDAA199000091AY111061AY211061GF102991001001999999001011KA1999N+00771MA1999999098291MD1710081+9999MW1051REMSYN082AAXX  19001 31300 31994 21701 10147 20074 39829 40099 57008 70511 80001 333 20077;EQDQ01  00002PRCP99
0150313000999992000061903004+53750+127220FM-12+023299999V0201801N001012200019N0010001N1+02431+01061100661ADDAY101031AY201031GA1001+999999999GF100991001001999999001001MD1710231+9999MW1051REMSYN060AAXX  19031 31300 41994 01801 10243 20106 40066 57023 70500;
0112313000999992000061909004+53750+127220FM-12+023299999V0202401N002010300019N0100001N1+02631+01211100291ADDGF107991021031008001031011MD1710071+9999REMSYN060AAXX  19091 31300 42597 72402 10263 20121 40029 57007 82331;
0184313000999992000061912004+53750+127220FM-12+023299999V0201901N001010300019N0200001N1+02171+01321100331ADDAY191061AY211061GF106991031031008001031001KA1999M+02901MA1999999097711MD1410001+9999MW1021REMSYN082AAXX  19121 31300 12598 61901 10217 20132 39771 40033 54000 70291 83330 333 10290;
0112313000999992000061921004+53750+127220FM-12+023299999V0201801N001012200019N0200001N1+01351+01141100461ADDGF102991001001999999001011MD1310061+9999REMSYN060AAXX  19211 31300 42998 21801 10135 20114 40046 53006 80001;
0186313000999992000062000004+53750+127220FM-12+023299999V0203601N001012200019N0200001N1+02401+01191100361ADDAA199000091GF102991001001999999001011KA1999N+01281MA1999999097771MD1410001+9999REMSYN076AAXX  20001 31300 32998 23601 10240 20119 39777 40036 54000 80001 333 20128;EQDQ01  00002PRCP99
0112313000999992000062006004+53750+127220FM-12+023299999V0202701N002012200019N0500001N1+02971+01301100091ADDGF107991031031008001001011MD1710131+9999REMSYN060AAXX  20061 31300 42599 72702 10297 20130 40009 57013 83301;
0207313000999992000062012004+53750+127220FM-12+023299999V0200601N005010075019N0100001N1+02591+01591100091ADDAA112002091AY191061AY281061GF108991081091008001999999KA1120M+03111MA1999999097521MD1310081+9999MW1951REMSYN094AAXX  20121 31300 11597 80605 10259 20159 39752 40009 53008 60022 79598 889// 333 10311 91111;
0140313000999992000062021004+53750+127220FM-12+023299999V0209999C000010300019N0040001N1+01691+01601100321ADDAY181031AY221031GF106991021091008001031021MD1310061+9999MW1051REMSYN066AAXX  20211 31300 41596 60000 10169 20160 40032 53006 70582 82932;
0201313000999992000062100004+53750+127220FM-12+023299999V0203401N001012200019N0040001N1+02091+01691100281ADDAA112002091AY181061AY221061GF102991001001999999001011KA1999N+01681MA1999999097661MD1410001+9999MW1051REMSYN088AAXX  21001 31300 11996 23401 10209 20169 39766 40028 54000 60022 70582 80001 333 20168;
0112313000999992000062106004+53750+127220FM-12+023299999V0202001N001010750019N0500001N1+02791+01471100091ADDGF106991041091008001001021MD1710061+9999REMSYN060AAXX  21061 31300 42599 62001 10279 20147 40009 57006 84902;
0112313000999992000062121004+53750+127220FM-12+023299999V0209999C000012200019N0100001N1+01711+01521100091ADDGF102991021041012501001001MD1410001+9999REMSYN060AAXX  21211 31300 42697 20000 10171 20152 40009 54000 82400;
0186313000999992000062200004+53750+127220FM-12+023299999V0200601N001012200019N0100001N1+02291+01651100081ADDAA199000091GF103991001001999999001011KA1999N+01701MA1999999097491MD1310051+9999REMSYN076AAXX  22001 31300 32997 30601 10229 20165 39749 40008 53005 80001 333 20170;EQDQ01  00002PRCP99
0112313000999992000062203004+53750+127220FM-12+023299999V0201201N003019999999N0100001N1+02671+01541099971ADDGF108991001001999999001071MD1810081+9999REMSYN060AAXX  22031 31300 42997 81203 10267 20154 49997 58008 80007;
0112313000999992000062206004+53750+127220FM-12+023299999V0201201N002010750019N0200001N1+02811+01561099751ADDGF108991021011008001001071MD1710201+9999REMSYN060AAXX  22061 31300 42598 81202 10281 20156 49975 57020 82107;
0140313000999992000062218004+53750+127220FM-12+023299999V0200201N002010075019N0500001N1+01641+01451099871ADDAY191061AY281061GF108991081091008001999999MD1210241+9999MW1801REMSYN066AAXX  22181 31300 41584 80202 10164 20145 49987 52024 78098 889//;
0139313000999992000062306004+53750+127220FM-12+023299999V0200101N006010075019N0500001N1+01381+00891100151ADDGF108991081091008001999999MD1810061+9999OA140101401REMSYN076AAXX  23061 31300 42599 80106 10138 20089 40015 58006 889// 333 91014 91114;
0201313000999992000062400004+53750+127220FM-12+023299999V0200101N002010042019N0500001N1+01311+00981100251ADDAA112007191AY181061AY221061GF108991081091004501999999KA1999N+01161MA1999999097561MD1810121+9999MW1021REMSYN088AAXX  24001 31300 11499 80102 10131 20098 39756 40025 58012 60072 70282 889// 333 20116;
0207313000999992000062412004+53750+127220FM-12+023299999V0200501N003010075019N0500001N1+01381+01051100081ADDAA112006191AY181061AY221061GF108991061091008001001021KA1120M+01551MA1999999097401MD1310101+9999MW1021REMSYN094AAXX  24121 31300 11599 80503 10138 20105 39740 40008 53010 60062 70282 86902 333 10155 91111;
0140313000999992000062415004+53750+127220FM-12+023299999V0200501N004010075019N0500001N1+01331+01001100121ADDAY181031AY221031GF108991081091008001999999MD1210041+9999MW1251REMSYN066AAXX  24151 31300 41584 80504 10133 20100 40012 52004 72582 889//;
0140313000999992000062418004+53750+127220FM-12+023299999V0200901N003010042019N0500001N1+01301+00931100001ADDAY181061AY221061GF108991081091004501999999MD1810131+9999MW1021REMSYN066AAXX  24181 31300 41484 80903 10130 20093 40000 58013 70282 889//;
0140313000999992000062421004+53750+127220FM-12+023299999V0201201N002010042019N0200001N1+01711+01641099891ADDAY181031AY221031GF108991081091004501999999MD1710061+9999MW1251REMSYN066AAXX  24211 31300 41498 81202 10171 20164 49989 57006 72582 889//;
0201313000999992000062512004+53750+127220FM-12+023299999V0200701N001010075019N0500001N1+01771+01601099901ADDAA112007991AY181061AY221061GF107991051091008001031001KA1999M+02081MA1999999097271MD1310011+9999MW1801REMSYN088AAXX  25121 31300 11599 70701 10177 20160 39727 49990 53001 60082 78082 85930 333 10208;
0122313000999992000062621004+53750+127220FM-12+023299999V0209999C000012200019N0500001N1+01241+01141100381ADDGA1001+999999999GF100991001001999999001001MD1210061+9999REMSYN054AAXX  26211 31300 42999 00000 10124 20114 40038 52006;
0112313000999992000062703004+53750+127220FM-12+023299999V0201401N001012200019N0500001N1+02501+01291100261ADDGF102991021021008001001001MD1810061+9999REMSYN060AAXX  27031 31300 42599 21401 10250 20129 40026 58006 82200;
0202313000999992000062712004+53750+127220FM-12+023299999V0209999C000012200019N0500001N1+02231+01741100331ADDAA199000091GF102991999051012501001001KA1999M+02701MA1999999097731MD1310141+9999REMSYN076AAXX  27121 31300 32699 20000 10223 20174 39773 40033 53014 83500 333 10270;EQDQ01+000032SCOTLCQ02  00002PRCP99
0186313000999992000062800004+53750+127220FM-12+023299999V0200901N002012200019N0500001N1+02271+01611100491ADDAA199000091GF101991001001999999001011KA1999N+01591MA1999999097891MD1110011+9999REMSYN076AAXX  28001 31300 32999 10902 10227 20161 39789 40049 51001 80001 333 20159;EQDQ01  00002PRCP99
0186313000999992000062812004+53750+127220FM-12+023299999V0200901N002019999999N0500001N1+02371+01511100231ADDAA199000091GF106991001001999999001011KA1999M+02951MA1999999097651MD1310091+9999REMSYN076AAXX  28121 31300 32999 60902 10237 20151 39765 40023 53009 80001 333 10295;EQDQ01  00002PRCP99
0112313000999992000062821004+53750+127220FM-12+023299999V0209999C000010075019N0500001N1+01901+01451100461ADDGF107991051091008001031001MD1310081+9999REMSYN060AAXX  28211 31300 42599 70000 10190 20145 40046 53008 85930;
0202313000999992000062900004+53750+127220FM-12+023299999V0201201N002010300019N0500001N1+02291+01441100391ADDAA199000091GF107991021051008001031011KA1999N+99999MA1999999097791MD1810031+9999REMSYN076AAXX  29001 31300 32599 71202 10229 20144 39779 40039 58003 82531 333 21190;EQDQ01  00002PRCP99Q02 -01902ATMN  
0112313000999992000062903004+53750+127220FM-12+023299999V0201201N003019999999N0500001N1+02701+01591100281ADDGF108991021001999999031071MD1710081+9999REMSYN060AAXX  29031 31300 42999 81203 10270 20159 40028 57008 82037;
0112313000999992000062918004+53750+127220FM-12+023299999V0200901N002019999999N0500001N1+01791+01291100191ADDGF105991021001999999031011MD1410001+9999REMSYN060AAXX  29181 31300 42984 50902 10179 20129 40019 54000 82031;
0112313000999992000062921004+53750+127220FM-12+023299999V0200301N002010300019N0500001N1+01631+01131100231ADDGF107991021041012501081011MD1310021+9999REMSYN060AAXX  29211 31300 42699 70302 10163 20113 40023 53002 82481;
0140313000999992000063006004+53750+127220FM-12+023299999V0200201N002010075019N0500001N1+02371+01401100021ADDAY181061AY221061GF108991051051008001031021MD1810241+9999MW1021REMSYN066AAXX  30061 31300 41599 80202 10237 20140 40002 58024 70282 85532;
0201313000999992000063012004+53750+127220FM-12+023299999V0200501N002010075019N0100001N1+02011+01841100191ADDAA112002091AY191061AY281061GF108991081091008001999999KA1999M+02541MA1999999097571MD1210101+9999MW1951REMSYN088AAXX  30121 31300 11597 80502 10201 20184 39757 40019 52010 60022 79598 889// 333 10254;
0112313000999992000063021004+53750+127220FM-12+023299999V0200501N001010075019N0500001N1+01751+01591100301ADDGF108991061091008001051999MD1310061+9999REMSYN060AAXX  30211 31300 42599 80501 10175 20159 40030 53006 8695/;
0201313000999992000070100004+53750+127220FM-12+023299999V0200701N002010075019N0200001N1+01721+01591100381ADDAA112002091AY181061AY221061GF108991061091008001051999KA1999N+01711MA1999999097721MD1210071+9999MW1251REMSYN088AAXX  01001 31300 11598 80702 10172 20159 39772 40038 52007 60022 72582 8695/ 333 20171;
0140313000999992000070103004+53750+127220FM-12+023299999V0200201N001010075019N0500001N1+01831+01631100431ADDAY181031AY221031GF108991081091008001999999MD1210061+9999MW1021REMSYN066AAXX  01031 31300 41599 80201 10183 20163 40043 52006 70282 889//;
0112313000999992000070106004+53750+127220FM-12+023299999V0200701N001010750019N0500001N1+02351+01721100311ADDGF105991031011008001001021MD1810061+9999REMSYN060AAXX  01061 31300 42599 50701 10235 20172 40031 58006 83102;
0112313000999992000070121004+53750+127220FM-12+023299999V0209999C000010075019N0500001N1+01721+01601100811ADDGF107991071091008001001001MD1310091+9999REMSYN060AAXX  01211 31300 42599 70000 10172 20160 40081 53009 87900;
0186313000999992000070200004+53750+127220FM-12+023299999V0201501N001010075019N0500001N1+02011+01781100671ADDAA199000091GF106991061061008001001001KA1999N+01681MA1999999098031MD1210081+9999REMSYN076AAXX  02001 31300 32599 61501 10201 20178 39803 40067 52008 86600 333 20168;EQDQ01  00002PRCP99
0112313000999992000070203004+53750+127220FM-12+023299999V0200901N001010075019N0500001N1+02521+01811100581ADDGF106991061031008001001001MD1810031+9999REMSYN060AAXX  02031 31300 42599 60901 10252 20181 40058 58003 86300;
0112313000999992000070206004+53750+127220FM-12+023299999V0200901N001010300019N0500001N1+02751+01751100531ADDGF107991041031008001031011MD1610041+9999REMSYN060AAXX  02061 31300 42599 70901 10275 20175 40053 56004 84331;
0186313000999992000070212004+53750+127220FM-12+023299999V0200701N001019999999N0500001N1+02441+01871100521ADDAA199000091GF106991001001999999001021KA1999M+02911MA1999999097941MD1310061+9999REMSYN076AAXX  02121 31300 32999 60701 10244 20187 39794 40052 53006 80002 333 10291;EQDQ01  00002PRCP99
0112313000999992000070215004+53750+127220FM-12+023299999V0200801N002019999999N0500001N1+02281+01751100651ADDGF108991061001999999041021MD1110101+9999REMSYN060AAXX  02151 31300 42984 80802 10228 20175 40065 51010 86042;
0192313000999992000070300004+53750+127220FM-12+023299999V0201601N004010750019N0500001N1+02381+01741100311ADDAA199000091GF108991021051012501001021KA1120N+02171MA1999999097721MD1710021+9999REMSYN082AAXX  03001 31300 32699 81604 10238 20174 39772 40031 57002 82502 333 20217 91111;EQDQ01  00002PRCP99
0140313000999992000070306004+53750+127220FM-12+023299999V0201801N003010300019N0500001N1+03021+01991100151ADDAY181061AY221061GF108991041031008001031021MD1710031+9999MW1021REMSYN066AAXX  03061 31300 41599 81803 10302 20199 40015 57003 70282 84332;
0173313000999992000070312004+53750+127220FM-12+023299999V0201501N001010300019N0500001N1+02741+02091100151ADDAA112000791GF108991041091008001031021KA1999M+03121MA1999999097601MD1310111+9999REMSYN082AAXX  03121 31300 12599 81501 10274 20209 39760 40015 53011 69902 84932 333 10312;
0150313000999992000070315004+53750+127220FM-12+023299999V0200201N002010075019N0150001N1+01921+01771100221ADDAY191031AY281031GF108991081091008001999999MD1010001+9999MW1951REMSYN076AAXX  03151 31300 41565 80202 10192 20177 40022 50000 79598 889// 333 91111;
0140313000999992000070318004+53750+127220FM-12+023299999V0209999C000010075019N0500001N1+01881+01741100241ADDAY191061AY281061GF108991081091008001999999MD1410001+9999MW1021REMSYN066AAXX  03181 31300 41584 80000 10188 20174 40024 54000 70298 889//;
0112313000999992000070403004+53750+127220FM-12+023299999V0201901N002010075019N0500001N1+02251+01891100361ADDGF108991081091008001999999MD1310201+9999REMSYN060AAXX  04031 31300 42599 81902 10225 20189 40036 53020 889//;
0140313000999992000070406004+53750+127220FM-12+023299999V0200301N001010075019N0500001N1+02421+01951100371ADDAY191061AY281061GF107991051091008001061011MD1010031+9999MW1291REMSYN066AAXX  04061 31300 41599 70301 10242 20195 40037 50003 72998 85961;
0112313000999992000070409004+53750+127220FM-12+023299999V0203301N003010075019N0500001N1+02011+01521100551ADDGF107991051091008001061001MD1310131+9999REMSYN060AAXX  04091 31300 42599 73303 10201 20152 40055 53013 85960;
0173313000999992000070412004+53750+127220FM-12+023299999V0202801N001010300019N0500001N1+02071+01501100771ADDAA112000791GF106991041091008001061001KA1999M+02551MA1999999098141MD1110221+9999REMSYN082AAXX  04121 31300 12599 62801 10207 20150 39814 40077 51022 69902 84960 333 10255;
0122313000999992000070503004+53750+127220FM-12+023299999V0203401N003012200019N0500001N1+02381+00801101481ADDGA1001+999999999GF100991001001999999001001MD1110011+9999REMSYN054AAXX  05031 31300 42999 03403 10238 20080 40148 51001;
0112313000999992000070506004+53750+127220FM-12+023299999V0200701N002012200019N0500001N1+02591+00581101441ADDGF102991001001999999001021MD1810021+9999REMSYN060AAXX  05061 31300 42999 20702 10259 20058 40144 58002 80002;
0112313000999992000070509004+53750+127220FM-12+023299999V0209999C000019999999N0500001N1+02691+00851101301ADDGF106991001001999999001021MD1710131+9999REMSYN060AAXX  05091 31300 42999 60000 10269 20085 40130 57013 80002;
0186313000999992000070512004+53750+127220FM-12+023299999V0209999C000012200019N0500001N1+01961+01211101341ADDAA199000091GF102991001001999999001021KA1999M+02801MA1999999098681MD1610021+9999REMSYN076AAXX  05121 31300 32999 20000 10196 20121 39868 40134 56002 80002 333 10280;EQDQ01  00002PRCP99
0112313000999992000070515004+53750+127220FM-12+023299999V0209999C000012200019N0500001N1+01471+01211101391ADDGF103991001001999999001011MD1410001+9999REMSYN060AAXX  05151 31300 42984 30000 10147 20121 40139 54000 80001;
0186313000999992000070600004+53750+127220FM-12+023299999V0209999C000019999999N0500001N1+01691+01121101321ADDAA199000091GF107991051001999999031021KA1999N+01141MA1999999098631MD1310031+9999REMSYN076AAXX  06001 31300 32999 70000 10169 20112 39863 40132 53003 85032 333 20114;EQDQ01  00002PRCP99
0140313000999992000070603004+53750+127220FM-12+023299999V0201901N001010120019N0500001N1+01931+01391101281ADDAY181031AY221031GF108991051091012501051021MD1810011+9999MW1811REMSYN066AAXX  06031 31300 41699 81901 10193 20139 40128 58001 78182 85952;
0173313000999992000070612004+53750+127220FM-12+023299999V0200201N002010075019N0500001N1+01971+01591101221ADDAA112000391GF106991051051008001031001KA1999M+02271MA1999999098571MD1310081+9999REMSYN082AAXX  06121 31300 12599 60202 10197 20159 39857 40122 53008 69932 85530 333 10227;
0112313000999992000070618004+53750+127220FM-12+023299999V0203601N001012200019N0500001N1+01431+01341101291ADDGF101991001001999999001011MD1310071+9999REMSYN060AAXX  06181 31300 42984 13601 10143 20134 40129 53007 80001;
0122313000999992000070621004+53750+127220FM-12+023299999V0209999C000012200019N0500001N1+01251+01131101331ADDGA1001+999999999GF100991001001999999001001MD1110021+9999REMSYN054AAXX  06211 31300 42999 00000 10125 20113 40133 51002;
0186313000999992000070712004+53750+127220FM-12+023299999V0200101N001012200019N0500001N1+02271+01591100711ADDAA199000091GF103991001001999999001011KA1999M+02881MA1999999098101MD1710051+9999REMSYN076AAXX  07121 31300 32999 30101 10227 20159 39810 40071 57005 80001 333 10288;EQDQ01  00002PRCP99
0112313000999992000070803004+53750+127220FM-12+023299999V0201201N002010075019N0500001N1+02601+01661100511ADDGF108991061031008001031071MD1710141+9999REMSYN060AAXX  08031 31300 42599 81202 10260 20166 40051 57014 86337;
0186313000999992000070812004+53750+127220FM-12+023299999V0200701N002010075019N0500001N1+02431+01531100191ADDAA199000091GF108991071091008001031071KA1999M+02771MA1999999097611MD1710011+9999REMSYN076AAXX  08121 31300 32599 80702 10243 20153 39761 40019 57001 87937 333 10277;EQDQ01  00002PRCP99
0112313000999992000070821004+53750+127220FM-12+023299999V0209999C000010075019N0500001N1+02191+01631100091ADDGF108991081091008001999999MD1310021+9999REMSYN060AAXX  08211 31300 42599 80000 10219 20163 40009 53002 889//;
0201313000999992000070912004+53750+127220FM-12+023299999V0209999C000010120019N0500001N1+02161+02051100031ADDAA112003091AY181061AY221061GF108991061051012501071999KA1999M+02611MA1999999097431MD1410001+9999MW1021REMSYN088AAXX  09121 31300 11699 80000 10216 20205 39743 40003 54000 60032 70282 8657/ 333 10261;
0140313000999992000070918004+53750+127220FM-12+023299999V0209999C000010300019N0500001N1+01951+01841099691ADDAY161061AY221061GF108991021071004501021999MD1710241+9999MW1211REMSYN066AAXX  09181 31300 41484 80000 10195 20184 49969 57024 72162 8272/;
0140313000999992000070921004+53750+127220FM-12+023299999V0200101N001010300019N0200001N1+01911+01811099621ADDAY161031AY221031GF108991031071004501021999MD1510071+9999MW1631REMSYN066AAXX  09211 31300 41498 80101 10191 20181 49962 55007 76362 8372/;
0201313000999992000071000004+53750+127220FM-12+023299999V0200901N001012200019N0500001N1+02231+01881099651ADDAA112024991AY161061AY211061GF104991021051008001031011KA1999N+01911MA1999999097061MD1210051+9999MW1021REMSYN088AAXX  10001 31300 11599 40901 10223 20188 39706 49965 52005 60252 70261 82531 333 20191;
0112313000999992000071003004+53750+127220FM-12+023299999V0202201N003012200019N0500001N1+02711+01871099611ADDGF104991031021008001001011MD1110011+9999REMSYN060AAXX  10031 31300 42599 42203 10271 20187 49961 51001 83201;
0122313000999992000071018004+53750+127220FM-12+023299999V0209999C000012200019N0500001N1+01671+01421099741ADDGA1001+999999999GF100991001001999999001001MD1410001+9999REMSYN054AAXX  10181 31300 42984 00000 10167 20142 49974 54000;
0150313000999992000071021004+53750+127220FM-12+023299999V0209999C000012200019N0040001N1+01561+01491099731ADDAY101031AY201031GA1001+999999999GF100991001001999999001001MD1810021+9999MW1401REMSYN060AAXX  10211 31300 41996 00000 10156 20149 49973 58002 74000;
0184313000999992000071112004+53750+127220FM-12+023299999V0203101N003010075019N0500001N1+01991+01551099401ADDAY191061AY281061GF106991061091008001001001KA1999M+02771MA1999999096801MD1310081+9999MW1291REMSYN082AAXX  11121 31300 11599 63103 10199 20155 39680 49940 53008 72998 86900 333 10277;
0140313000999992000071118004+53750+127220FM-12+023299999V0209999C000010075019N0500001N1+01651+01401099361ADDAY191061AY281061GF108991081091008001999999MD1310021+9999MW1021REMSYN066AAXX  11181 31300 41584 80000 10165 20140 49936 53002 70298 889//;
0112313000999992000071121004+53750+127220FM-12+023299999V0209999C000010075019N0200001N1+01651+01571099321ADDGF108991081091008001999999MD1810031+9999REMSYN060AAXX  11211 31300 42598 80000 10165 20157 49932 58003 889//;
0112313000999992000071203004+53750+127220FM-12+023299999V0200601N002010075019N0500001N1+01771+01481099271ADDGF108991081091008001999999MD1410001+9999REMSYN060AAXX  12031 31300 42599 80602 10177 20148 49927 54000 889//;
0140313000999992000071206004+53750+127220FM-12+023299999V0200301N002010042019N0100001N1+01701+01511099351ADDAY181061AY251061GF108991081051004501999999MD1310071+9999MW1531REMSYN066AAXX  12061 31300 41497 80302 10170 20151 49935 53007 75385 885//;
0201313000999992000071212004+53750+127220FM-12+023299999V0200901N001010042019N0500001N1+01511+01381099481ADDAA112014091AY181061AY251061GF108991071091004501031999KA1999M+01991MA1999999096831MD1210021+9999MW1021REMSYN088AAXX  12121 31300 11499 80901 10151 20138 39683 49948 52002 60142 70285 8793/ 333 10199;
0140313000999992000071218004+53750+127220FM-12+023299999V0203601N003010042019N0500001N1+01371+01191099451ADDAY181061AY221061GF108991071091004501031999MD1810061+9999MW1021REMSYN066AAXX  12181 31300 41484 83603 10137 20119 49945 58006 70282 8793/;
0140313000999992000071221004+53750+127220FM-12+023299999V0200101N003010075019N0500001N1+01391+01051099591ADDAY181031AY221031GF108991071091008001031021MD1310141+9999MW1021REMSYN066AAXX  12211 31300 41599 80103 10139 20105 49959 53014 70282 87932;
0140313000999992000071303004+53750+127220FM-12+023299999V0200301N004010042019N0500001N1+01341+00991099701ADDAY181031AY221031GF108991081091004501999999MD1310101+9999MW1801REMSYN066AAXX  13031 31300 41499 80304 10134 20099 49970 53010 78082 889//;
0140313000999992000071306004+53750+127220FM-12+023299999V0200101N003010042019N0500001N1+01471+01111099721ADDAY181061AY221061GF107991051051004501041001MD1110021+9999MW1021REMSYN066AAXX  13061 31300 41499 70103 10147 20111 49972 51002 70282 85540;
0196313000999992000071312004+53750+127220FM-12+023299999V0200401N004012200019N0500001N1+01321+00971100021ADDAA112002091GF103991021041012501031001KA1120M+01601MA1999999097341MD1210181+9999OA140101001REMSYN094AAXX  13121 31300 12699 30404 10132 20097 39734 40002 52018 60022 82430 333 10160 91010 91110;
0149313000999992000071315004+53750+127220FM-12+023299999V0200401N004012200019N0500001N1+01131+00801100021ADDGA1001+999999999GF100991001001999999001001MD1410001+9999OA140101001REMSYN070AAXX  13151 31300 42999 00404 10113 20080 40002 54000 333 91010 91110;
0112313000999992000071321004+53750+127220FM-12+023299999V0200301N003010300019N0500001N1+01221+00841100121ADDGF107991021051012501031001MD1210051+9999REMSYN060AAXX  13211 31300 42699 70303 10122 20084 40012 52005 82530;
0186313000999992000071400004+53750+127220FM-12+023299999V0203101N002010300019N0500001N1+01421+00921100201ADDAA199000091GF107991021051012501031001KA1999N+01131MA1999999097521MD1210101+9999REMSYN076AAXX  14001 31300 32699 73102 10142 20092 39752 40020 52010 82530 333 20113;EQDQ01  00002PRCP99
0112313000999992000071403004+53750+127220FM-12+023299999V0203501N003010300019N0500001N1+01711+00991100221ADDGF106991021051012501031011MD1210041+9999REMSYN060AAXX  14031 31300 42699 63503 10171 20099 40022 52004 82531;
0140313000999992000071421004+53750+127220FM-12+023299999V0209999C000010042019N0500001N1+01311+01201100691ADDAY161031AY221031GF108991061051004501041999MD1410001+9999MW1611REMSYN066AAXX  14211 31300 41499 80000 10131 20120 40069 54000 76162 8654/;
0173313000999992000071509004+53750+127220FM-12+023299999V0200101N001012200019N0500001N1+01821+01441100861ADDAA112000791GF102991021001999999031001KA1999M+01801MA1999999098211MD1310091+9999REMSYN082AAXX  15091 31300 12999 20101 10182 20144 39821 40086 53009 69902 82030 333 10180;
0186313000999992000071600004+53750+127220FM-12+023299999V0209999C000019999999N0500001N1+01681+01281101181ADDAA199000091GF107991071001999999051001KA1999N+01101MA1999999098501MD1210051+9999REMSYN076AAXX  16001 31300 32999 70000 10168 20128 39850 40118 52005 87050 333 20110;EQDQ01  00002PRCP99
0112313000999992000071606004+53750+127220FM-12+023299999V0200401N002012200019N0500001N1+02441+01431100811ADDGF103991031021008001001001MD1710211+9999REMSYN060AAXX  16061 31300 42599 30402 10244 20143 40081 57021 83200;
0196313000999992000071612004+53750+127220FM-12+023299999V0203601N002012200019N0500001N1+02051+01331100851ADDAA199000091GA1001+999999999GF100991001001999999001001KA1999M+02501MA1999999098211MD1410001+9999REMSYN070AAXX  16121 31300 32999 03602 10205 20133 39821 40085 54000 333 10250;EQDQ01  00002PRCP99
0112313000999992000071618004+53750+127220FM-12+023299999V0200701N003019999999N0500001N1+01451+01251100991ADDGF106991061001999999031001MD1410001+9999REMSYN060AAXX  16181 31300 42984 60703 10145 20125 40099 54000 86030;
0112313000999992000071621004+53750+127220FM-12+023299999V0201701N001019999999N0500001N1+01391+01221101051ADDGF105991051001999999031001MD1310051+9999REMSYN060AAXX  16211 31300 42999 51701 10139 20122 40105 53005 85030;
0112313000999992000071703004+53750+127220FM-12+023299999V0201701N002012200019N0500001N1+02321+01541100871ADDGF102991021011008001001001MD1810111+9999REMSYN060AAXX  17031 31300 42599 21702 10232 20154 40087 58011 82100;
0112313000999992000071706004+53750+127220FM-12+023299999V0201901N001012200019N0500001N1+02641+01441100651ADDGF102991021011008001001011MD1710181+9999REMSYN060AAXX  17061 31300 42599 21901 10264 20144 40065 57018 82101;
0112313000999992000071709004+53750+127220FM-12+023299999V0201801N001012200019N0500001N1+02721+01621100541ADDGF102991021011008001001001MD1710101+9999REMSYN060AAXX  17091 31300 42599 21801 10272 20162 40054 57010 82100;
0186313000999992000071800004+53750+127220FM-12+023299999V0209999C000019999999N0500001N1+02011+01441100761ADDAA199000091GF105991051001999999031001KA1999N+01331MA1999999098121MD1410001+9999REMSYN076AAXX  18001 31300 32999 50000 10201 20144 39812 40076 54000 85030 333 20133;EQDQ01  00002PRCP99
0112313000999992000071806004+53750+127220FM-12+023299999V0202701N001012200019N0500001N1+02741+01691100361ADDGF104991021011008001001011MD1710191+9999REMSYN060AAXX  18061 31300 42599 42701 10274 20169 40036 57019 82101;
0112313000999992000071809004+53750+127220FM-12+023299999V0203001N001012200019N0500001N1+02791+01651100321ADDGF102991011011008001001011MD1710041+9999REMSYN060AAXX  18091 31300 42599 23001 10279 20165 40032 57004 81101;
0112313000999992000071818004+53750+127220FM-12+023299999V0209999C000012200019N0500001N1+01501+01391100661ADDGF103991021051999999001011MD1210161+9999REMSYN060AAXX  18181 31300 42984 30000 10150 20139 40066 52016 82501;
0112313000999992000071903004+53750+127220FM-12+023299999V0200901N002012200019N0500001N1+02681+01321100441ADDGF102991011011008001001011MD1810131+9999REMSYN060AAXX  19031 31300 42599 20902 10268 20132 40044 58013 81101;
0112313000999992000071906004+53750+127220FM-12+023299999V0201501N002012200019N0500001N1+02821+01311100361ADDGF103991021021008001081021MD1710071+9999REMSYN060AAXX  19061 31300 42599 31502 10282 20131 40036 57007 82282;
0112313000999992000071909004+53750+127220FM-12+023299999V0201801N001012200019N0500001N1+02691+01541100261ADDGF103991031001999999031001MD1610111+9999REMSYN060AAXX  19091 31300 42999 31801 10269 20154 40026 56011 83030;
0186313000999992000071912004+53750+127220FM-12+023299999V0200701N001019999999N0500001N1+02271+01831100271ADDAA199000091GF106991061001999999031001KA1999M+02991MA1999999097671MD1810021+9999REMSYN076AAXX  19121 31300 32999 60701 10227 20183 39767 40027 58002 86030 333 10299;EQDQ01  00002PRCP99
0112313000999992000071921004+53750+127220FM-12+023299999V0201301N003019999999N0500001N1+02181+01351100061ADDGF106991061001999999031001MD1710051+9999REMSYN060AAXX  19211 31300 42999 61303 10218 20135 40006 57005 86030;
0112313000999992000072003004+53750+127220FM-12+023299999V0201201N003010300019N0500001N1+02311+01681099821ADDGF108991031051008001071999MD1710101+9999REMSYN060AAXX  20031 31300 42599 81203 10231 20168 49982 57010 8357/;
0112313000999992000072006004+53750+127220FM-12+023299999V0201301N002010300019N0500001N1+02301+01551099671ADDGF108991021011008001071999MD1710151+9999REMSYN060AAXX  20061 31300 42599 81302 10230 20155 49967 57015 8217/;
0140313000999992000072009004+53750+127220FM-12+023299999V0200901N001010075019N0500001N1+02171+01691099471ADDAY121031AY221031GF108991051051008001051999MD1710201+9999MW1211REMSYN066AAXX  20091 31300 41599 80901 10217 20169 49947 57020 72122 8555/;
0220313000999992000072012004+53750+127220FM-12+023299999V0209999C000010042019N0100001N1+01911+01781099411ADDAA112002091AY181061AY261061GF108991999071004501021999KA1999M+02351MA1999999096801MD1510081+9999MW1611REMSYN088AAXX  20121 31300 11497 80000 10191 20178 39680 49941 55008 60022 76186 8872/ 333 10235;EQDQ01+000082SCOTLC
0159313000999992000072021004+53750+127220FM-12+023299999V0200701N003010042019N0200001N1+01741+01621099041ADDAY191031AY281031GF108991999071004501021999MD1610081+9999MW1631REMSYN066AAXX  20211 31300 41498 80703 10174 20162 49904 56008 76398 8872/;EQDQ01+000082SCOTLC
0220313000999992000072100004+53750+127220FM-12+023299999V0201201N003010042019N0200001N1+01771+01551098961ADDAA112002091AY191061AY281061GF108991999071004501021999KA1999N+01731MA1999999096351MD1710081+9999MW1631REMSYN088AAXX  21001 31300 11498 81203 10177 20155 39635 49896 57008 60022 76398 8872/ 333 20173;EQDQ01+000082SCOTLC
0112313000999992000072103004+53750+127220FM-12+023299999V0200301N004010042019N0500001N1+01871+01551098901ADDGF108991081091004501999999MD1410001+9999REMSYN060AAXX  21031 31300 42499 80304 10187 20155 49890 54000 889//;
0112313000999992000072106004+53750+127220FM-12+023299999V0203201N003010042019N0500001N1+01841+01521099001ADDGF108991081091004501999999MD1310041+9999REMSYN060AAXX  21061 31300 42499 83203 10184 20152 49900 53004 889//;
0201313000999992000072112004+53750+127220FM-12+023299999V0200801N003010042019N0500001N1+01871+01321099141ADDAA112000591AY181061AY221061GF108991061071004501021999KA1999M+01921MA1999999096531MD1310101+9999MW1021REMSYN088AAXX  21121 31300 11499 80803 10187 20132 39653 49914 53010 69942 70282 8672/ 333 10192;
0122313000999992000072115004+53750+127220FM-12+023299999V0203601N005010042019N0500001N1+01851+01181099151ADDGF108991061071004501021999MD1110011+9999REMSYN070AAXX  21151 31300 42484 83605 10185 20118 49915 51001 8672/ 333 91114;
0122313000999992000072118004+53750+127220FM-12+023299999V0203601N004010042019N0500001N1+01751+01191099141ADDGF108991061071004501021999MD1810021+9999REMSYN070AAXX  21181 31300 42484 83604 10175 20119 49914 58002 8672/ 333 91110;
0122313000999992000072121004+53750+127220FM-12+023299999V0203601N004010075019N0500001N1+01691+01351099131ADDGF108991051051008001011999MD1310011+9999REMSYN070AAXX  21211 31300 42599 83604 10169 20135 49913 53001 8551/ 333 91110;
0192313000999992000072200004+53750+127220FM-12+023299999V0200301N003010075019N0500001N1+01851+01201099051ADDAA199000091GF108991051091008001051999KA1120N+01661MA1999999096441MD1810071+9999REMSYN082AAXX  22001 31300 32599 80303 10185 20120 39644 49905 58007 8595/ 333 20166 91110;EQDQ01  00002PRCP99
0112313000999992000072203004+53750+127220FM-12+023299999V0200201N002010300019N0500001N1+02171+01091098981ADDGF107991031031008001031001MD1610041+9999REMSYN060AAXX  22031 31300 42599 70202 10217 20109 49898 56004 83330;
0112313000999992000072206004+53750+127220FM-12+023299999V0200301N003010300019N0500001N1+02091+01091098891ADDGF107991031051012501061011MD1810101+9999REMSYN060AAXX  22061 31300 42699 70303 10209 20109 49889 58010 83561;
0140313000999992000072221004+53750+127220FM-12+023299999V0203601N002010075019N0500001N1+01491+01271098791ADDAY181031AY221031GF107991061091008001031001MD1710041+9999MW1801REMSYN066AAXX  22211 31300 41599 73602 10149 20127 49879 57004 78082 86930;
0201313000999992000072300004+53750+127220FM-12+023299999V0203301N001010042019N0500001N1+01631+01251098791ADDAA112000391AY181061AY251061GF108991051071004501071999KA1999N+01441MA1999999096171MD1310011+9999MW1201REMSYN088AAXX  23001 31300 11499 83301 10163 20125 39617 49879 53001 69932 72085 8577/ 333 20144;
0140313000999992000072303004+53750+127220FM-12+023299999V0200601N002010300019N0500001N1+01851+01201098781ADDAY181031AY221031GF107991041031008001031001MD1410001+9999MW1021REMSYN066AAXX  23031 31300 41599 70602 10185 20120 49878 54000 70282 84330;
0140313000999992000072306004+53750+127220FM-12+023299999V0200101N001010042019N0500001N1+01841+01231098931ADDAY181061AY221061GF108991061091004501051999MD1310151+9999MW1801REMSYN066AAXX  23061 31300 41499 80101 10184 20123 49893 53015 78082 8695/;
0140313000999992000072321004+53750+127220FM-12+023299999V0201201N001010075019N0500001N1+01391+01131099631ADDAY181031AY221031GF107991061091008001051999MD1210101+9999MW1021REMSYN066AAXX  23211 31300 41599 71201 10139 20113 49963 52010 70282 8695/;
0140313000999992000072503004+53750+127220FM-12+023299999V0200701N001010075019N0500001N1+01671+01331100241ADDAY181031AY221031GF108991061091008001051999MD1210031+9999MW1021REMSYN066AAXX  25031 31300 41599 80701 10167 20133 40024 52003 70282 8695/;
0201313000999992000072512004+53750+127220FM-12+023299999V0200301N003010075019N0500001N1+01591+01231100321ADDAA112001091AY181061AY221061GF107991061051008001001011KA1999M+01911MA1999999097651MD1210061+9999MW1021REMSYN088AAXX  25121 31300 11599 70303 10159 20123 39765 40032 52006 69992 70282 86501 333 10191;
0112313000999992000072515004+53750+127220FM-12+023299999V0200301N003010075019N0500001N1+01531+01201100361ADDGF108991081051008001999999MD1110041+9999REMSYN060AAXX  25151 31300 42584 80303 10153 20120 40036 51004 885//;
0112313000999992000072518004+53750+127220FM-12+023299999V0209999C000010075019N0500001N1+01511+01241100361ADDGF108991081051008001999999MD1410001+9999REMSYN060AAXX  25181 31300 42584 80000 10151 20124 40036 54000 885//;
0112313000999992000072609004+53750+127220FM-12+023299999V0200201N003010750019N0500001N1+01851+01221100261ADDGF105991021031008001001021MD1610011+9999REMSYN060AAXX  26091 31300 42599 50203 10185 20122 40026 56001 82302;
0112313000999992000072615004+53750+127220FM-12+023299999V0200701N002019999999N0500001N1+01491+01221100361ADDGF106991061001999999031001MD1210031+9999REMSYN060AAXX  26151 31300 42984 60702 10149 20122 40036 52003 86030;
0112313000999992000072618004+53750+127220FM-12+023299999V0209999C000019999999N0500001N1+01451+01231100361ADDGF106991061001999999031001MD1410001+9999REMSYN060AAXX  26181 31300 42984 60000 10145 20123 40036 54000 86030;
0112313000999992000072621004+53750+127220FM-12+023299999V0209999C000010300019N0500001N1+01351+01141100371ADDGF107991031051012501031001MD1410001+9999REMSYN060AAXX  26211 31300 42699 70000 10135 20114 40037 54000 83530;
0186313000999992000072700004+53750+127220FM-12+023299999V0200901N001010300019N0500001N1+01801+01261100391ADDAA199000091GF107991021031008001031001KA1999N+01331MA1999999097741MD1310061+9999REMSYN076AAXX  27001 31300 32599 70901 10180 20126 39774 40039 53006 82330 333 20133;EQDQ01  00002PRCP99
0186313000999992000072712004+53750+127220FM-12+023299999V0200501N001012200019N0500001N1+01971+01551100251ADDAA199000091GF102991021091008001031001KA1999M+02441MA1999999097631MD1310021+9999REMSYN076AAXX  27121 31300 32599 20501 10197 20155 39763 40025 53002 82930 333 10244;EQDQ01  00002PRCP99
0112313000999992000072718004+53750+127220FM-12+023299999V0200801N001012200019N0500001N1+01691+01471100341ADDGF102991021001999999031001MD1210021+9999REMSYN060AAXX  27181 31300 42984 20801 10169 20147 40034 52002 82030;
0112313000999992000072721004+53750+127220FM-12+023299999V0200701N002012200019N0500001N1+01711+01491100351ADDGF102991001001999999001011MD1210011+9999REMSYN060AAXX  27211 31300 42999 20702 10171 20149 40035 52001 80001;
0228313000999992000072812004+53750+127220FM-12+023299999V0200401N002010042019N0200001N1+01831+01631099721ADDAA112009991AY191061AY281061GF108991081091004501999999KA1120M+02451MA1999999097091MD1510001+9999MW1951OA149901301REMSYN104AAXX  28121 31300 11470 80402 10183 20163 39709 49972 55000 60102 79598 889// 333 10245 91113 555 11021;
0159313000999992000072821004+53750+127220FM-12+023299999V0200401N002010042019N0100001N1+01661+01491099561ADDAY181031AY261031GF108991999071004501021999MD1810031+9999MW1611REMSYN066AAXX  28211 31300 41497 80402 10166 20149 49956 58003 76186 8872/;EQDQ01+000082SCOTLC
0117313000999992000072903004+53750+127220FM-12+023299999V0200401N002019999999N0500001N1+02001+01721099801ADDGF108991999999004501999999MD1210131+9999REMSYN065AAXX  29031 31300 42499 80402 10200 20172 49980 52013 7022 889//;
0112313000999992000072915004+53750+127220FM-12+023299999V0200401N002010075019N0500001N1+01741+01531100111ADDGF106991061051008001001001MD1210051+9999REMSYN060AAXX  29151 31300 42584 60402 10174 20153 40011 52005 86500;
0112313000999992000072921004+53750+127220FM-12+023299999V0200301N003010075019N0500001N1+01741+01451100061ADDGF107991051051008001041001MD1610021+9999REMSYN060AAXX  29211 31300 42599 70303 10174 20145 40006 56002 85540;
0201313000999992000073000004+53750+127220FM-12+023299999V0200201N002010300019N0500001N1+01691+01431100101ADDAA112000391AY161061AY221061GF108991021071004501071999KA1999N+01651MA1999999097451MD1310041+9999MW1611REMSYN088AAXX  30001 31300 11499 80202 10169 20143 39745 40010 53004 69932 76162 8277/ 333 20165;
0140313000999992000073003004+53750+127220FM-12+023299999V0200301N003010300019N0500001N1+01741+01411100071ADDAY161031AY221031GF108991031071004501021999MD1810031+9999MW1611REMSYN066AAXX  30031 31300 41499 80303 10174 20141 40007 58003 76162 8372/;
0140313000999992000073006004+53750+127220FM-12+023299999V0200201N002010300019N0500001N1+01951+01511099911ADDAY161061AY221061GF105991031051004501031001MD1710131+9999MW1211REMSYN066AAXX  30061 31300 41499 50202 10195 20151 49991 57013 72162 83530;
0112313000999992000073009004+53750+127220FM-12+023299999V0200101N002010300019N0500001N1+01941+01481099781ADDGF106991041041008001061021MD1710131+9999REMSYN060AAXX  30091 31300 42599 60102 10194 20148 49978 57013 84462;
0173313000999992000073012004+53750+127220FM-12+023299999V0201701N001010300019N0500001N1+01891+01511099781ADDAA112000591GF106991041091008001031001KA1999M+02221MA1999999097161MD1410001+9999REMSYN082AAXX  30121 31300 12599 61701 10189 20151 39716 49978 54000 69962 84930 333 10222;
0112313000999992000073021004+53750+127220FM-12+023299999V0201801N001019999999N0500001N1+01411+01321099911ADDGF106991061001999999031001MD1210021+9999REMSYN060AAXX  30211 31300 42999 61801 10141 20132 49991 52002 86030;
0201313000999992000073100004+53750+127220FM-12+023299999V0201801N001012200019N0500001N1+02031+01611099941ADDAA112000591AY181061AY211061GF103991031021008001001001KA1999N+01401MA1999999097331MD1210091+9999MW1021REMSYN088AAXX  31001 31300 11599 31801 10203 20161 39733 49994 52009 69962 70281 83200 333 20140;
0173313000999992000073112004+53750+127220FM-12+023299999V0209999C000012200019N0500001N1+01911+01691100341ADDAA112000591GF102991021041012501001001KA1999M+02551MA1999999097701MD1210111+9999REMSYN082AAXX  31121 31300 12699 20000 10191 20169 39770 40034 52011 69952 82400 333 10255;
0150313000999992000073121004+53750+127220FM-12+023299999V0209999C000012200019N0500001N1+01301+01261100671ADDAY101031AY201031GA1001+999999999GF100991001001999999001001MD1210031+9999MW1401REMSYN060AAXX  31211 31300 41999 00000 10130 20126 40067 52003 74000;
0186313000999992000080100004+53750+127220FM-12+023299999V0209999C000019999999N0500001N1+02001+01541100731ADDAA199000091GF105991051001999999031001KA1999N+01281MA1999999098091MD1210121+9999REMSYN076AAXX  01001 31300 32999 50000 10200 20154 39809 40073 52012 85030 333 20128;EQDQ01  00002PRCP99
0122313000999992000080118004+53750+127220FM-12+023299999V0209999C000012200019N0500001N1+01831+01641100971ADDGA1001+999999999GF100991001001999999001001MD1210071+9999REMSYN054AAXX  01181 31300 42984 00000 10183 20164 40097 52007;
0186313000999992000080200004+53750+127220FM-12+023299999V0201301N001012200019N0500001N1+02081+01691101121ADDAA199000091GF103991001001999999001011KA1999N+01441MA1999999098481MD1210081+9999REMSYN076AAXX  02001 31300 32999 31301 10208 20169 39848 40112 52008 80001 333 20144;EQDQ01  00002PRCP99
0112313000999992000080203004+53750+127220FM-12+023299999V0202101N001010750019N0500001N1+02731+01561100961ADDGF105991041031008001001021MD1810101+9999REMSYN060AAXX  02031 31300 42599 52101 10273 20156 40096 58010 84302;
0140313000999992000080209004+53750+127220FM-12+023299999V0202701N001010300019N0500001N1+02551+01751100891ADDAY191031AY281031GF106991031031008001031021MD1610071+9999MW1021REMSYN066AAXX  02091 31300 41599 62701 10255 20175 40089 56007 70298 83332;
0173313000999992000080212004+53750+127220FM-12+023299999V0209999C000010300019N0500001N1+02101+01921101011ADDAA112000591GF106991031051008001031021KA1999M+02821MA1999999098371MD1310071+9999REMSYN082AAXX  02121 31300 12599 60000 10210 20192 39837 40101 53007 69952 83532 333 10282;
0112313000999992000080218004+53750+127220FM-12+023299999V0209999C000012200019N0500001N1+01571+01491101221ADDGF102991001001999999001011MD1310081+9999REMSYN060AAXX  02181 31300 42984 20000 10157 20149 40122 53008 80001;
0112313000999992000080303004+53750+127220FM-12+023299999V0201801N001012200019N0500001N1+02741+01941101151ADDGF102991011011008001001011MD1810091+9999REMSYN060AAXX  03031 31300 42599 21801 10274 20194 40115 58009 81101;
0186313000999992000080312004+53750+127220FM-12+023299999V0209999C000012200019N0500001N1+02301+01941101191ADDAA199000091GF102991001001999999001021KA1999M+02901MA1999999098571MD1310131+9999REMSYN076AAXX  03121 31300 32999 20000 10230 20194 39857 40119 53013 80002 333 10290;EQDQ01  00002PRCP99
0112313000999992000080321004+53750+127220FM-12+023299999V0209999C000012200019N0500001N1+01551+01461101451ADDGF101991001001999999001011MD1310161+9999REMSYN060AAXX  03211 31300 42999 10000 10155 20146 40145 53016 80001;
0186313000999992000080412004+53750+127220FM-12+023299999V0209999C000019999999N0500001N1+02411+02081101091ADDAA199000091GF106991001001999999001011KA1999M+03131MA1999999098491MD1610011+9999REMSYN076AAXX  04121 31300 32999 60000 10241 20208 39849 40109 56001 80001 333 10313;EQDQ01  00002PRCP99
0112313000999992000080421004+53750+127220FM-12+023299999V0209999C000012200019N0500001N1+01751+01691101231ADDGF102991001001999999001011MD1610021+9999REMSYN060AAXX  04211 31300 42999 20000 10175 20169 40123 56002 80001;
0112313000999992000080503004+53750+127220FM-12+023299999V0201901N002012200019N0500001N1+02901+02001101021ADDGF102991021011008001001011MD1810101+9999REMSYN060AAXX  05031 31300 42599 21902 10290 20200 40102 58010 82101;
0112313000999992000080518004+53750+127220FM-12+023299999V0200301N002012200019N0500001N1+01851+01621101001ADDGF103991031001999999031001MD1210021+9999REMSYN060AAXX  05181 31300 42984 30302 10185 20162 40100 52002 83030;
0112313000999992000080706004+53750+127220FM-12+023299999V0200701N002010300019N0500001N1+02481+01761100871ADDGF107991031031008001041051MD1810181+9999REMSYN060AAXX  07061 31300 42599 70702 10248 20176 40087 58018 83345;
0112313000999992000080715004+53750+127220FM-12+023299999V0202901N001010075019N0500001N1+01891+01811101101ADDGF108991051051008001041021MD1810031+9999REMSYN060AAXX  07151 31300 42584 82901 10189 20181 40110 58003 85542;
0112313000999992000080803004+53750+127220FM-12+023299999V0201501N001010042019N0500001N1+02121+01881101101ADDGF108991081051004501999999MD1210031+9999REMSYN060AAXX  08031 31300 42499 81501 10212 20188 40110 52003 885//;
0156313000999992000080815004+53750+127220FM-12+023299999V0209999C000010075019N0500001N1+02231+99999100871ADDGF108991081091008001999999KA1999M+02401MA1999999098251MD1710061+9999REMSYN076AAXX  08151 31300 42584 80000 10223 20243 39825 40087 57006 889// 333 10240;
0140313000999992000080821004+53750+127220FM-12+023299999V0209999C000010300019N0500001N1+01891+01831100841ADDAY181031AY221031GF106991031031008001031001MD1410001+9999MW1021REMSYN066AAXX  08211 31300 42599 60000 10189 20183 40084 54000 70282 83330;
0173313000999992000080900004+53750+127220FM-12+023299999V0200101N001010075019N0500001N1+02191+01821100831ADDAA112011991GF107991071091008001001001KA1999N+01881MA1999999098211MD1310031+9999REMSYN082AAXX  09001 31300 12599 70101 10219 20182 39821 40083 53003 60122 87900 333 20188;
0112313000999992000080903004+53750+127220FM-12+023299999V0209999C000012200019N0500001N1+02411+01921100641ADDGF103991031031008001001001MD1810061+9999REMSYN060AAXX  09031 31300 42599 30000 10241 20192 40064 58006 83300;
0122313000999992000080909004+53750+127220FM-12+023299999V0209999C000012200019N0500001N1+02661+01791100521ADDGA1001+999999999GF100991001001999999001001MD1710121+9999REMSYN054AAXX  09091 31300 42999 00000 10266 20179 40052 57012;
0186313000999992000080912004+53750+127220FM-12+023299999V0209999C000012200019N0500001N1+02151+01851100671ADDAA199000091GF102991021041012501001001KA1999M+02771MA1999999098051MD1310101+9999REMSYN076AAXX  09121 31300 32699 20000 10215 20185 39805 40067 53010 82400 333 10277;EQDQ01  00002PRCP99
0112313000999992000080921004+53750+127220FM-12+023299999V0209999C000012200019N0500001N1+01591+01541100671ADDGF101991001001999999001011MD1410001+9999REMSYN060AAXX  09211 31300 42999 10000 10159 20154 40067 54000 80001;
0196313000999992000081012004+53750+127220FM-12+023299999V0209999C000012200019N0500001N1+02121+01691100771ADDAA199000091GA1001+999999999GF100991001001999999001001KA1999M+02901MA1999999098141MD1310071+9999REMSYN070AAXX  10121 31300 32999 00000 10212 20169 39814 40077 53007 333 10290;EQDQ01  00002PRCP99
0122313000999992000081018004+53750+127220FM-12+023299999V0209999C000012200019N0500001N1+01481+01371100891ADDGA1001+999999999GF100991001001999999001001MD1410001+9999REMSYN054AAXX  10181 31300 42984 00000 10148 20137 40089 54000;
0122313000999992000081021004+53750+127220FM-12+023299999V0209999C000012200019N0500001N1+01351+01261100981ADDGA1001+999999999GF100991001001999999001001MD1210061+9999REMSYN054AAXX  10211 31300 42999 00000 10135 20126 40098 52006;
0122313000999992000081103004+53750+127220FM-12+023299999V0209999C000012200019N0500001N1+02631+01771100771ADDGA1001+999999999GF100991001001999999001001MD1810111+9999REMSYN054AAXX  11031 31300 42999 00000 10263 20177 40077 58011;
0150313000999992000081121004+53750+127220FM-12+023299999V0209999C000012200019N0005001N1+01611+01541100761ADDAY141031AY201031GA1001+999999999GF100991001001999999001001MD1310031+9999MW1441REMSYN060AAXX  11211 31300 41993 00000 10161 20154 40076 53003 74440;
0150313000999992000081203004+53750+127220FM-12+023299999V0201801N001012200019N0500001N1+02881+02041100591ADDAY141031AY201031GA1001+999999999GF100991001001999999001001MD1210061+9999MW1021REMSYN060AAXX  12031 31300 41999 01801 10288 20204 40059 52006 70240;
0112313000999992000081206004+53750+127220FM-12+023299999V0201901N003012200019N0500001N1+03211+02011100451ADDGF102991011011008001001011MD1210101+9999REMSYN060AAXX  12061 31300 42599 21903 10321 20201 40045 52010 81101;
0112313000999992000081306004+53750+127220FM-12+023299999V0201601N001019999999N0500001N1+03071+01961100211ADDGF107991001001999999001011MD1710111+9999REMSYN060AAXX  13061 31300 42999 71601 10307 20196 40021 57011 80001;
0112313000999992000081309004+53750+127220FM-12+023299999V0209999C000019999999N0500001N1+02991+02021100091ADDGF108991001001999999001021MD1710111+9999REMSYN060AAXX  13091 31300 42999 80000 10299 20202 40009 57011 80002;
0186313000999992000081312004+53750+127220FM-12+023299999V0209999C000019999999N0500001N1+02501+02151100181ADDAA199000091GF106991001001999999001021KA1999M+03111MA1999999097611MD1310041+9999REMSYN076AAXX  13121 31300 32984 60000 10250 20215 39761 40018 53004 80002 333 10311;EQDQ01  00002PRCP99
0112313000999992000081321004+53750+127220FM-12+023299999V0200701N001019999999N0500001N1+01911+01781100231ADDGF106991041001999999031021MD1410001+9999REMSYN060AAXX  13211 31300 42984 60701 10191 20178 40023 54000 84032;
0112313000999992000081406004+53750+127220FM-12+023299999V0201401N002010300019N0500001N1+02941+01801099831ADDGF105991021031008001031001MD1710191+9999REMSYN060AAXX  14061 31300 42599 51402 10294 20180 49983 57019 82330;
0186313000999992000081412004+53750+127220FM-12+023299999V0209999C000012200019N0500001N1+02401+02031099751ADDAA199000091GF102991021041008001001001KA1999M+03031MA1999999097181MD1310031+9999REMSYN076AAXX  14121 31300 32584 20000 10240 20203 39718 49975 53003 82400 333 10303;EQDQ01  00002PRCP99
0112313000999992000081421004+53750+127220FM-12+023299999V0201101N001010075019N0500001N1+01971+01761099781ADDGF108991081061008001999999MD1610031+9999REMSYN060AAXX  14211 31300 42599 81101 10197 20176 49978 56003 886//;
0112313000999992000081521004+53750+127220FM-12+023299999V0200901N001010042019N0500001N1+01881+01801099491ADDGF108991051071004501021999MD1210061+9999REMSYN060AAXX  15211 31300 42499 80901 10188 20180 49949 52006 8572/;
0112313000999992000081606004+53750+127220FM-12+023299999V0201901N003010075019N0500001N1+02551+01231099901ADDGF106991061021008001001001MD1210111+9999REMSYN060AAXX  16061 31300 42599 61903 10255 20123 49990 52011 86200;
0201313000999992000081612004+53750+127220FM-12+023299999V0209999C000010075019N0500001N1+01941+01551100201ADDAA112000791AY181061AY221061GF107991071091008001999999KA1999M+02551MA1999999097571MD1210151+9999MW1801REMSYN088AAXX  16121 31300 11584 70000 10194 20155 39757 40020 52015 69902 78082 879// 333 10255;
0140313000999992000081621004+53750+127220FM-12+023299999V0202601N001010075019N0500001N1+01641+01561100371ADDAY181031AY221031GF108991081091008001999999MD1810051+9999MW1801REMSYN066AAXX  16211 31300 41599 82601 10164 20156 40037 58005 78082 889//;
0112313000999992000081703004+53750+127220FM-12+023299999V0200101N001010075019N0500001N1+02051+01621100351ADDGF106991061091008001001001MD1810041+9999REMSYN060AAXX  17031 31300 42599 60101 10205 20162 40035 58004 86900;
0140313000999992000081718004+53750+127220FM-12+023299999V0209999C000010075019N0500001N1+01441+01141100671ADDAY181061AY221061GF108991081091008001999999MD1310031+9999MW1251REMSYN066AAXX  17181 31300 41584 80000 10144 20114 40067 53003 72582 889//;
0140313000999992000081721004+53750+127220FM-12+023299999V0202101N001010075019N0500001N1+01321+01191100861ADDAY151031AY221031GF107991071061008001001001MD1210181+9999MW1511REMSYN066AAXX  17211 31300 41599 72101 10132 20119 40086 52018 75152 87600;
0112313000999992000081806004+53750+127220FM-12+023299999V0203101N002010300019N0500001N1+01711+01101101001ADDGF107991031031008001061011MD1110031+9999REMSYN060AAXX  18061 31300 42599 73102 10171 20110 40100 51003 83361;
0112313000999992000081815004+53750+127220FM-12+023299999V0202301N001010120019N0500001N1+01291+01121101151ADDGF107991061051012501031001MD1410001+9999REMSYN060AAXX  18151 31300 42684 72301 10129 20112 40115 54000 86530;
0106313000999992000081821004+53750+127220FM-12+023299999V0209999C000019999999N0500001N1+01231+01041101171ADDGF107991999999012501999999MD1310021+9999REMSYN054AAXX  18211 31300 42699 70000 10123 20104 40117 53002;
0186313000999992000081900004+53750+127220FM-12+023299999V0200101N002010075019N0500001N1+01451+00991101151ADDAA199000091GF107991071061008001001001KA1999N+01171MA1999999098451MD1410001+9999REMSYN076AAXX  19001 31300 32599 70102 10145 20099 39845 40115 54000 87600 333 20117;EQDQ01  00002PRCP99
0112313000999992000081909004+53750+127220FM-12+023299999V0200201N002012200019N0500001N1+01881+01201101191ADDGF102991021031008001001001MD1410001+9999REMSYN060AAXX  19091 31300 42599 20202 10188 20120 40119 54000 82300;
0196313000999992000081912004+53750+127220FM-12+023299999V0209999C000012200019N0500001N1+01441+01271101311ADDAA199000091GA1001+999999999GF100991001001999999001001KA1999M+01971MA1999999098601MD1310071+9999REMSYN070AAXX  19121 31300 32999 00000 10144 20127 39860 40131 53007 333 10197;EQDQ01  00002PRCP99
0122313000999992000081918004+53750+127220FM-12+023299999V0209999C000012200019N0500001N1+01001+00901101411ADDGA1001+999999999GF100991001001999999001001MD1410001+9999REMSYN054AAXX  19181 31300 42984 00000 10100 20090 40141 54000;
0112313000999992000082021004+53750+127220FM-12+023299999V0209999C000019999999N0500001N1+00951+00891101391ADDGF106991001001999999001011MD1410001+9999REMSYN060AAXX  20211 31300 42999 60000 10095 20089 40139 54000 80001;
0186313000999992000082100004+53750+127220FM-12+023299999V0209999C000019999999N0500001N1+01721+01251101321ADDAA199000091GF106991001001999999001021KA1999N+00941MA1999999098641MD1310011+9999REMSYN076AAXX  21001 31300 32999 60000 10172 20125 39864 40132 53001 80002 333 20094;EQDQ01  00002PRCP99
0112313000999992000082109004+53750+127220FM-12+023299999V0209999C000019999999N0500001N1+02251+01311101011ADDGF105991051001999999031001MD1710061+9999REMSYN060AAXX  21091 31300 42999 50000 10225 20131 40101 57006 85030;
0112313000999992000082115004+53750+127220FM-12+023299999V0209999C000019999999N0500001N1+01901+01451101121ADDGF108991081001999999071999MD1310091+9999REMSYN060AAXX  21151 31300 42984 80000 10190 20145 40112 53009 8807/;
0112313000999992000082206004+53750+127220FM-12+023299999V0200601N003010075019N0500001N1+02211+01511101131ADDGF107991061031008001031001MD1810071+9999REMSYN060AAXX  22061 31300 42599 70603 10221 20151 40113 58007 86330;
0112313000999992000082209004+53750+127220FM-12+023299999V0203501N002010300019N0500001N1+02081+01451101101ADDGF106991031051008001031011MD1710041+9999REMSYN060AAXX  22091 31300 42599 63502 10208 20145 40110 57004 83531;
0186313000999992000082212004+53750+127220FM-12+023299999V0201401N001010075019N0500001N1+01811+01471101181ADDAA199000091GF106991051051008001031001KA1999M+02351MA1999999098521MD1310061+9999REMSYN076AAXX  22121 31300 32584 61401 10181 20147 39852 40118 53006 85530 333 10235;EQDQ01  00002PRCP99
0112313000999992000082221004+53750+127220FM-12+023299999V0203401N003019999999N0500001N1+01451+01001101231ADDGF106991001001999999001011MD1410001+9999REMSYN060AAXX  22211 31300 42999 63403 10145 20100 40123 54000 80001;
0112313000999992000082315004+53750+127220FM-12+023299999V0200701N002019999999N0500001N1+01711+01331101121ADDGF106991031001999999051011MD1810021+9999REMSYN060AAXX  23151 31300 42984 60702 10171 20133 40112 58002 83051;
0186313000999992000082412004+53750+127220FM-12+023299999V0200301N002010075019N0500001N1+01881+01091100791ADDAA199000091GF107991071051008001001001KA1999M+02061MA1999999098141MD1310041+9999REMSYN076AAXX  24121 31300 32584 70302 10188 20109 39814 40079 53004 87500 333 10206;EQDQ01  00002PRCP99
0112313000999992000082415004+53750+127220FM-12+023299999V0200301N002010075019N0500001N1+01691+01201100841ADDGF107991071051008001001001MD1110031+9999REMSYN060AAXX  24151 31300 42584 70302 10169 20120 40084 51003 87500;
0112313000999992000082418004+53750+127220FM-12+023299999V0209999C000010075019N0500001N1+01381+00871100871ADDGF108991081051008001999999MD1410001+9999REMSYN060AAXX  24181 31300 42584 80000 10138 20087 40087 54000 885//;
0112313000999992000082421004+53750+127220FM-12+023299999V0200101N001010075019N0500001N1+01561+01071100911ADDGF107991051051008001041011MD1310061+9999REMSYN060AAXX  24211 31300 42599 70101 10156 20107 40091 53006 85541;
0112313000999992000082503004+53750+127220FM-12+023299999V0200201N003012200019N0500001N1+02011+01031100901ADDGF106991021031008001001011MD1410001+9999REMSYN060AAXX  25031 31300 42599 60203 10201 20103 40090 54000 82301;
0166313000999992000082612004+53750+127220FM-12+023299999V0201201N001012200019N0500001N1+01681+01111101601ADDGA1001+999999999GF100991001001999999001001KA1999M+02471MA1999999098951MD1210171+9999REMSYN070AAXX  26121 31300 42984 01201 10168 20111 39895 40160 52017 333 10247;
0122313000999992000082618004+53750+127220FM-12+023299999V0209999C000012200019N0500001N1+00771+00681101881ADDGA1001+999999999GF100991001001999999001001MD1110031+9999REMSYN054AAXX  26181 31300 42984 00000 10077 20068 40188 51003;
0122313000999992000082621004+53750+127220FM-12+023299999V0209999C000012200019N0500001N1+00501+00451101961ADDGA1001+999999999GF100991001001999999001001MD1310051+9999REMSYN054AAXX  26211 31300 42999 00000 10050 20045 40196 53005;
0186313000999992000082712004+53750+127220FM-12+023299999V0209999C000012200019N0500001N1+01611+01301101641ADDAA199000091GF102991001001999999001011KA1999M+02471MA1999999098941MD1810051+9999REMSYN076AAXX  27121 31300 32984 20000 10161 20130 39894 40164 58005 80001 333 10247;EQDQ01  00002PRCP99
0122313000999992000082715004+53750+127220FM-12+023299999V0209999C000012200019N0500001N1+01131+00971101711ADDGA1001+999999999GF100991001001999999001001MD1310031+9999REMSYN054AAXX  27151 31300 42984 00000 10113 20097 40171 53003;
0122313000999992000082806004+53750+127220FM-12+023299999V0201401N003012200019N0500001N1+02111+00551101651ADDGA1001+999999999GF100991001001999999001001MD1710101+9999REMSYN054AAXX  28061 31300 42999 01403 10211 20055 40165 57010;
0201313000999992000083012004+53750+127220FM-12+023299999V0200601N001010300019N0500001N1+01521+01471100521ADDAA112003091AY191061AY281061GF106991021091008001031001KA1999M+02221MA1999999097851MD1210171+9999MW1021REMSYN088AAXX  30121 31300 11584 60601 10152 20147 39785 40052 52017 60032 70298 82930 333 10222;
0150313000999992000083021004+53750+127220FM-12+023299999V0209999C000012200019N0005001N1+00851+00811100791ADDAY141031AY201031GA1001+999999999GF100991001001999999001001MD1410001+9999MW1461REMSYN060AAXX  30211 31300 41993 00000 10085 20081 40079 54000 74640;
0214313000999992000083100004+53750+127220FM-12+023299999V0209999C000012200019N0500001N1+01441+01331100781ADDAA199000091AY141061AY201061GF101991001001999999001011KA1999N+00841MA1999999098091MD1310051+9999MW1281REMSYN082AAXX  31001 31300 31999 10000 10144 20133 39809 40078 53005 72840 80001 333 20084;EQDQ01  00002PRCP99
0122313000999992000083103004+53750+127220FM-12+023299999V0201201N001012200019N0500001N1+02331+01631100651ADDGA1001+999999999GF100991001001999999001001MD1810051+9999REMSYN054AAXX  31031 31300 42999 01201 10233 20163 40065 58005;
0122313000999992000083106004+53750+127220FM-12+023299999V0201401N002012200019N0500001N1+02571+01551100531ADDGA1001+999999999GF100991001001999999001001MD1710091+9999REMSYN054AAXX  31061 31300 42999 01402 10257 20155 40053 57009;
0112313000999992000083118004+53750+127220FM-12+023299999V0209999C000010300019N0500001N1+02011+01821100571ADDGF107991041091008001051021MD1410001+9999REMSYN060AAXX  31181 31300 42584 70000 10201 20182 40057 54000 84952;
0112313000999992000083121004+53750+127220FM-12+023299999V0209999C000010042019N0100001N1+01971+01841100621ADDGF108991081061004501999999MD1310041+9999REMSYN060AAXX  31211 31300 42497 80000 10197 20184 40062 53004 886//;
0112313000999992000090103004+53750+127220FM-12+023299999V0201501N002010120019N0200001N1+02201+01811100701ADDGF107991071051012501001001MD1210011+9999REMSYN060AAXX  01031 31300 42698 71502 10220 20181 40070 52001 87500;
0186313000999992000090112004+53750+127220FM-12+023299999V0200801N001012200019N0500001N1+02191+01891100521ADDAA199000091GF103991021051012501031001KA1999M+02661MA1999999097911MD1310021+9999REMSYN076AAXX  01121 31300 32684 30801 10219 20189 39791 40052 53002 82530 333 10266;EQDQ01  00002PRCP99
0112313000999992000090115004+53750+127220FM-12+023299999V0201101N001012200019N0500001N1+02151+01801100551ADDGF102991021001999999031001MD1110031+9999REMSYN060AAXX  01151 31300 42984 21101 10215 20180 40055 51003 82030;
0112313000999992000090118004+53750+127220FM-12+023299999V0200301N001012200019N0500001N1+01831+01661100581ADDGF102991021001999999031001MD1810011+9999REMSYN060AAXX  01181 31300 42984 20301 10183 20166 40058 58001 82030;
0112313000999992000090121004+53750+127220FM-12+023299999V0209999C000012200019N0500001N1+01621+01551100801ADDGF103991031001999999031011MD1310211+9999REMSYN060AAXX  01211 31300 42999 30000 10162 20155 40080 53021 83031;
0112313000999992000090203004+53750+127220FM-12+023299999V0201801N001010300019N0500001N1+02391+01851100951ADDGF107991031091008001031011MD1210091+9999REMSYN060AAXX  02031 31300 42599 71801 10239 20185 40095 52009 83931;
0112313000999992000090209004+53750+127220FM-12+023299999V0203301N002010750019N0500001N1+02271+01271101101ADDGF107991021091008001001021MD1410001+9999REMSYN060AAXX  02091 31300 42599 73302 10227 20127 40110 54000 82902;
0147313000999992000090210004+53750+127220FM-12+023299999V0203401N001012200019N0500001N1+99999+00691102012ADDGF102991001001999999001011MD1810061+9999REMSYN060AAXX  02101 31300 42999 23401 10071 20069 40201 58006 80001;EQDQ01+000713ATOT  Q02+102013APOSLP
0186313000999992000090212004+53750+127220FM-12+023299999V0200601N002012200019N0500001N1+01941+01191101441ADDAA199000091GF102991011001999999041011KA1999M+02621MA1999999098781MD1310311+9999REMSYN076AAXX  02121 31300 32984 20602 10194 20119 39878 40144 53031 81041 333 10262;EQDQ01  00002PRCP99
0112313000999992000090218004+53750+127220FM-12+023299999V0200601N003010075019N0500001N1+01601+01021101321ADDGF107991071051008001001001MD1810161+9999REMSYN060AAXX  02181 31300 42584 70603 10160 20102 40132 58016 87500;
0112313000999992000090221004+53750+127220FM-12+023299999V0200901N001019999999N0500001N1+01551+01041101231ADDGF107991071001999999051001MD1710081+9999REMSYN060AAXX  02211 31300 42999 70901 10155 20104 40123 57008 87050;
0186313000999992000090300004+53750+127220FM-12+023299999V0202201N002010120019N0500001N1+01921+01281100951ADDAA199000091GF106991061051012501031001KA1999N+01531MA1999999098301MD1710241+9999REMSYN076AAXX  03001 31300 32699 62202 10192 20128 39830 40095 57024 86530 333 20153;EQDQ01  00002PRCP99
0112313000999992000090303004+53750+127220FM-12+023299999V0201401N003010300019N0500001N1+02411+01611100601ADDGF107991021051012501031021MD1710301+9999REMSYN060AAXX  03031 31300 42699 71403 10241 20161 40060 57030 82532;
0158313000999992000090306004+53750+127220FM-12+023299999V0201601N006019999999N0500001N1+02991+01401100121ADDGF106991001001999999001021MD1710411+9999OA140100901REMSYN076AAXX  03061 31300 42999 61606 10299 20140 40012 57041 86002 333 91009 91111;EQDQ01+000062SCOTLC
0202313000999992000090600004+53750+127220FM-12+023299999V0201701N001010120019N0500001N1+00751+00381101041ADDAA199000091GF108991999051012501001001KA1999N+00091MA1999999098261MD1310081+9999REMSYN076AAXX  06001 31300 32699 81701 10075 20038 39826 40104 53008 86500 333 20009;EQDQ01+000062SCOTLCQ02  00002PRCP99
0112313000999992000090603004+53750+127220FM-12+023299999V0200701N001010120019N0500001N1+01221+00581100991ADDGF106991061051012501001001MD1410001+9999REMSYN060AAXX  06031 31300 42699 60701 10122 20058 40099 54000 86500;
0112313000999992000090606004+53750+127220FM-12+023299999V0203601N001010120019N0500001N1+01511+00741100861ADDGF107991071051012501001001MD1810091+9999REMSYN060AAXX  06061 31300 42699 73601 10151 20074 40086 58009 87500;
0140313000999992000090609004+53750+127220FM-12+023299999V0203301N004010075019N0200001N1+01281+01051100881ADDAY181031AY221031GF108991081091008001999999MD1410001+9999MW1801REMSYN066AAXX  06091 31300 41598 83304 10128 20105 40088 54000 78082 889//;
0140313000999992000090618004+53750+127220FM-12+023299999V0200601N001010075019N0500001N1+01041+00841101051ADDAY181061AY221061GF108991081091008001999999MD1410001+9999MW1021REMSYN066AAXX  06181 31300 41584 80601 10104 20084 40105 54000 70282 889//;
0112313000999992000090621004+53750+127220FM-12+023299999V0200901N001010120019N0500001N1+01111+00761101081ADDGF106991061051012501001011MD1310031+9999REMSYN060AAXX  06211 31300 42699 60901 10111 20076 40108 53003 86501;
0140313000999992000090703004+53750+127220FM-12+023299999V0200301N002010075019N0500001N1+01461+00951101241ADDAY181031AY221031GF108991081091008001999999MD1210101+9999MW1801REMSYN066AAXX  07031 31300 41599 80302 10146 20095 40124 52010 78082 889//;
0140313000999992000090706004+53750+127220FM-12+023299999V0200201N002010075019N0500001N1+01631+01091101221ADDAY181061AY221061GF107991071091008001001001MD1410001+9999MW1021REMSYN066AAXX  07061 31300 41599 70202 10163 20109 40122 54000 70282 87900;
0140313000999992000090709004+53750+127220FM-12+023299999V0200601N003010075019N0500001N1+01461+01021101381ADDAY181031AY221031GF107991071091008001001001MD1310131+9999MW1801REMSYN066AAXX  07091 31300 41599 70603 10146 20102 40138 53013 78082 87900;
0112313000999992000090721004+53750+127220FM-12+023299999V0200601N001010750019N0500001N1+01221+00901101861ADDGF105991021051012501031011MD1210111+9999REMSYN060AAXX  07211 31300 42699 50601 10122 20090 40186 52011 82531;
0112313000999992000090803004+53750+127220FM-12+023299999V0201501N002010075019N0500001N1+01711+00971102031ADDGF107991051091008001031011MD1110051+9999REMSYN060AAXX  08031 31300 42599 71502 10171 20097 40203 51005 85931;
0140313000999992000090806004+53750+127220FM-12+023299999V0200701N001010075019N0500001N1+01641+00991101961ADDAY181061AY221061GF107991061051008001031001MD1810071+9999MW1021REMSYN066AAXX  08061 31300 41599 70701 10164 20099 40196 58007 70282 86530;
0112313000999992000090809004+53750+127220FM-12+023299999V0209999C000012200019N0500001N1+01651+01111101861ADDGF103991031041008001001001MD1710101+9999REMSYN060AAXX  08091 31300 42599 30000 10165 20111 40186 57010 83400;
0173313000999992000090812004+53750+127220FM-12+023299999V0200601N001010300019N0500001N1+01351+01201101941ADDAA112000391GF106991041091008001031001KA1999M+01761MA1999999099211MD1310061+9999REMSYN082AAXX  08121 31300 12584 60601 10135 20120 39921 40194 53006 69932 84930 333 10176;
0112313000999992000090815004+53750+127220FM-12+023299999V0200401N001019999999N0500001N1+01171+01071102021ADDGF106991041001999999031011MD1210061+9999REMSYN060AAXX  08151 31300 42984 60401 10117 20107 40202 52006 84031;
0186313000999992000090912004+53750+127220FM-12+023299999V0209999C000012200019N0500001N1+01231+01131101671ADDAA199000091GF102991011051012501001011KA1999M+01821MA1999999098931MD1310111+9999REMSYN076AAXX  09121 31300 32684 20000 10123 20113 39893 40167 53011 81501 333 10182;EQDQ01  00002PRCP99
0203313000999992000091000004+53750+127220FM-12+023299999V0201701N001012200019N9999999N1+01071+00971101501ADDAY141061AY201061GF103991031001999999031001KA1999N+00801MA1999999098751MD1410001+9999MW1421REMSYN082AAXX  10001 31300 11999 31701 10107 20097 39875 40150 54000 74240 83030 333 20080;EQDQ01+500002VODIS 
0214313000999992000091100004+53750+127220FM-12+023299999V0201901N001012200019N0200001N1+01061+00921101611ADDAA199000091AY141061AY201061GF102991021001999999031001KA1999N+00721MA1999999098861MD1210061+9999MW1281REMSYN082AAXX  11001 31300 31998 21901 10106 20092 39886 40161 52006 72840 82030 333 20072;EQDQ01  00002PRCP99
0112313000999992000091203004+53750+127220FM-12+023299999V0201601N001012200019N0500001N1+01791+01151101181ADDGF101991001001999999001011MD1810211+9999REMSYN060AAXX  12031 31300 42999 11601 10179 20115 40118 58021 80001;
0112313000999992000091206004+53750+127220FM-12+023299999V0201601N001019999999N0500001N1+02171+01221100951ADDGF107991011001999999041011MD1710211+9999REMSYN060AAXX  12061 31300 42999 71601 10217 20122 40095 57021 81041;
0112313000999992000091209004+53750+127220FM-12+023299999V0201801N001012200019N0500001N1+02121+01301100811ADDGF104991021041008001001011MD1710131+9999REMSYN060AAXX  12091 31300 42599 41801 10212 20130 40081 57013 82401;
0186313000999992000091212004+53750+127220FM-12+023299999V0209999C000012200019N0500001N1+01451+01251100951ADDAA199000091GF102991001001999999001011KA1999M+02251MA1999999098251MD1710071+9999REMSYN076AAXX  12121 31300 32984 20000 10145 20125 39825 40095 57007 80001 333 10225;EQDQ01  00002PRCP99
0112313000999992000091215004+53750+127220FM-12+023299999V0202101N002019999999N0500001N1+01261+01111101101ADDGF107991071001999999031001MD1310131+9999REMSYN060AAXX  12151 31300 42984 72102 10126 20111 40110 53013 87030;
0112313000999992000091218004+53750+127220FM-12+023299999V0203201N002019999999N0500001N1+01201+00971101261ADDGF106991061001999999031001MD1210151+9999REMSYN060AAXX  12181 31300 42984 63202 10120 20097 40126 52015 86030;
0122313000999992000091221004+53750+127220FM-12+023299999V0202401N002012200019N0500001N1+01191+00451101461ADDGA1001+999999999GF100991001001999999001001MD1210201+9999REMSYN054AAXX  12211 31300 42999 02402 10119 20045 40146 52020;
0196313000999992000091312004+53750+127220FM-12+023299999V0202401N001012200019N0500001N1+01011+00761101771ADDAA199000091GA1001+999999999GF100991001001999999001001KA1999M+01991MA1999999099011MD1310081+9999REMSYN070AAXX  13121 31300 32984 02401 10101 20076 39901 40177 53008 333 10199;EQDQ01  00002PRCP99
0122313000999992000091318004+53750+127220FM-12+023299999V0209999C000012200019N0500001N1+00351+00301101871ADDGA1001+999999999GF100991001001999999001001MD1310021+9999REMSYN054AAXX  13181 31300 42984 00000 10035 20030 40187 53002;
0122313000999992000091321004+53750+127220FM-12+023299999V0209999C000012200019N0500001N1+00211+00131101921ADDGA1001+999999999GF100991001001999999001001MD1110041+9999REMSYN054AAXX  13211 31300 42999 00000 10021 20013 40192 51004;
0196313000999992000091400004+53750+127220FM-12+023299999V0203301N001012200019N0500001N1+00741+00361101871ADDAA199000091GA1001+999999999GF100991001001999999001001KA1999N+00171MA1999999099101MD1310031+9999REMSYN070AAXX  14001 31300 32999 03301 10074 20036 39910 40187 53003 333 20017;EQDQ01  00002PRCP99
0122313000999992000091406004+53750+127220FM-12+023299999V0202101N002012200019N0500001N1+02151+00891101411ADDGA1001+999999999GF100991001001999999001001MD1710211+9999REMSYN054AAXX  14061 31300 42999 02102 10215 20089 40141 57021;
0112313000999992000091506004+53750+127220FM-12+023299999V0201401N003010300019N0500001N1+02351+01191100541ADDGF105991041051012501031001MD1710211+9999REMSYN060AAXX  15061 31300 42699 51403 10235 20119 40054 57021 84530;
0184313000999992000091512004+53750+127220FM-12+023299999V0200601N002010075019N0500001N1+01891+01211100441ADDAY191061AY281061GF108991081091008001999999KA1999M+02371MA1999999097801MD1310121+9999MW1171REMSYN082AAXX  15121 31300 11584 80602 10189 20121 39780 40044 53012 71798 889// 333 10237;
0140313000999992000091515004+53750+127220FM-12+023299999V0203301N001010075019N0500001N1+01361+01241100661ADDAY191031AY281031GF107991071091008001001001MD1310161+9999MW1021REMSYN066AAXX  15151 31300 41584 73301 10136 20124 40066 53016 70298 87900;
0140313000999992000091521004+53750+127220FM-12+023299999V0209999C000010075019N0005001N1+01151+01101100591ADDAY141031AY201031GF108991081091008001999999MD1110041+9999MW1801REMSYN066AAXX  15211 31300 41593 80000 10115 20110 40059 51004 78040 889//;
0201313000999992000091600004+53750+127220FM-12+023299999V0203301N001010042019N0200001N1+01161+00921100611ADDAA112002091AY181061AY241061GF108991081061004501999999KA1999N+01141MA1999999097901MD1310021+9999MW1511REMSYN088AAXX  16001 31300 11498 83301 10116 20092 39790 40061 53002 60022 75184 886// 333 20114;
0140313000999992000091603004+53750+127220FM-12+023299999V0200301N002010075019N0500001N1+01131+00741100801ADDAY181031AY251031GF108991081051008001999999MD1310171+9999MW1021REMSYN066AAXX  16031 31300 41599 80302 10113 20074 40080 53017 70285 885//;
0140313000999992000091606004+53750+127220FM-12+023299999V0200201N002010075019N0500001N1+01321+00651100801ADDAY181061AY251061GF107991071051008001001001MD1110021+9999MW1021REMSYN066AAXX  16061 31300 41599 70202 10132 20065 40080 51002 70285 87500;
0183313000999992000091612004+53750+127220FM-12+023299999V0202901N002012200019N0500001N1+01121+00171100971ADDAA112001091GA1001+999999999GF100991001001999999001001KA1999M+01401MA1999999098241MD1210111+9999REMSYN076AAXX  16121 31300 12984 02902 10112 20017 39824 40097 52011 69992 333 10140;
0122313000999992000091615004+53750+127220FM-12+023299999V0203601N001012200019N0500001N1+00671+00121101061ADDGA1001+999999999GF100991001001999999001001MD1210031+9999REMSYN054AAXX  16151 31300 42984 03601 10067 20012 40106 52003;
0122313000999992000091703004+53750+127220FM-12+023299999V0203601N003012200019N0500001N1+01391+00041101031ADDGA1001+999999999GF100991001001999999001001MD1810041+9999REMSYN054AAXX  17031 31300 42999 03603 10139 20004 40103 58004;
0196313000999992000091812004+53750+127220FM-12+023299999V0209999C000012200019N0500001N1+00871+00411101061ADDAA199000091GA1001+999999999GF100991001001999999001001KA1999M+01701MA1999999098301MD1310091+9999REMSYN070AAXX  18121 31300 32984 00000 10087 20041 39830 40106 53009 333 10170;EQDQ01  00002PRCP99
0186313000999992000091900004+53750+127220FM-12+023299999V0201501N003010075019N0500001N1+01131+00231101081ADDAA199000091GF107991051051008001041021KA1999N-00011MA1999999098341MD1810061+9999REMSYN076AAXX  19001 31300 32599 71503 10113 20023 39834 40108 58006 85542 333 21001;EQDQ01  00002PRCP99
0122313000999992000091909004+53750+127220FM-12+023299999V0201301N001010075019N0500001N1+01771+00531100711ADDGF108991061051008001001021MD1310011+9999REMSYN070AAXX  19091 31300 42599 81301 10177 20053 40071 53001 86502 333 91110;
0140313000999992000091918004+53750+127220FM-12+023299999V0209999C000010075019N0500001N1+00991+00821100821ADDAY181061AY221061GF108991081091008001999999MD1810011+9999MW1021REMSYN066AAXX  19181 31300 41584 80000 10099 20082 40082 58001 70282 889//;
0201313000999992000092000004+53750+127220FM-12+023299999V0209999C000012200019N0500001N1+01011+00801100901ADDAA112000591AY181061AY221061GF103991031061004501001001KA1999N+00791MA1999999098161MD1410001+9999MW1021REMSYN088AAXX  20001 31300 11499 30000 10101 20080 39816 40090 54000 69942 70282 83600 333 20079;
0112313000999992000092003004+53750+127220FM-12+023299999V0202101N002010075019N0500001N1+01171+00621100981ADDGF108991081091008001999999MD1310091+9999REMSYN060AAXX  20031 31300 42599 82102 10117 20062 40098 53009 889//;
0183313000999992000092012004+53750+127220FM-12+023299999V0202701N001012200019N0500001N1+00671+00231101841ADDAA112001091GA1001+999999999GF100991001001999999001001KA1999M+01401MA1999999099041MD1210291+9999REMSYN076AAXX  20121 31300 12984 02701 10067 20023 39904 40184 52029 60012 333 10140;
0186313000999992000092100004+53750+127220FM-12+023299999V0209999C000012200019N0500001N1+00611+00161102031ADDAA199000091GF102991001001999999001011KA1999N-00161MA1999999099241MD1810061+9999REMSYN076AAXX  21001 31300 32999 20000 10061 20016 39924 40203 58006 80001 333 21016;EQDQ01  00002PRCP99
0122313000999992000092103004+53750+127220FM-12+023299999V0201301N002012200019N0500001N1+01611+00271101811ADDGA1001+999999999GF100991001001999999001001MD1710141+9999REMSYN054AAXX  21031 31300 42999 01302 10161 20027 40181 57014;
0122313000999992000092118004+53750+127220FM-12+023299999V0201701N001012200019N0500001N1+01231+00551101391ADDGA1001+999999999GF100991001001999999001001MD1710071+9999REMSYN054AAXX  21181 31300 42984 01701 10123 20055 40139 57007;
0122313000999992000092121004+53750+127220FM-12+023299999V0209999C000012200019N0500001N1+00771+00501101421ADDGA1001+999999999GF100991001001999999001001MD1610021+9999REMSYN054AAXX  21211 31300 42999 00000 10077 20050 40142 56002;
0186313000999992000092212004+53750+127220FM-12+023299999V0201301N002012200019N0500001N1+01931+01021100961ADDAA199000091GF103991001001999999001011KA1999M+02351MA1999999098311MD1310091+9999REMSYN076AAXX  22121 31300 32984 31302 10193 20102 39831 40096 53009 80001 333 10235;EQDQ01  00002PRCP99
0140313000999992000092306004+53750+127220FM-12+023299999V0200701N002010075019N0200001N1+01611+01281101201ADDAY191061AY281061GF108991051031008001061021MD1810081+9999MW1021REMSYN066AAXX  23061 31300 41598 80702 10161 20128 40120 58008 70298 85362;
0173313000999992000092312004+53750+127220FM-12+023299999V0200601N002012200019N0500001N1+01631+01181101151ADDAA112003091GF102991001001999999001011KA1999M+01851MA1999999098471MD1810011+9999REMSYN082AAXX  23121 31300 12984 20602 10163 20118 39847 40115 58001 60032 80001 333 10185;
0112313000999992000092318004+53750+127220FM-12+023299999V0201101N004019999999N0500001N1+01791+00861100891ADDGF105991001001999999031011MD1710121+9999REMSYN060AAXX  23181 31300 42984 51104 10179 20086 40089 57012 80031;
0112313000999992000092509004+53750+127220FM-12+023299999V0202301N001010120019N0500001N1+01011+00621101461ADDGF106991051051012501031001MD1210151+9999REMSYN060AAXX  25091 31300 42699 62301 10101 20062 40146 52015 85530;
0112313000999992000092606004+53750+127220FM-12+023299999V0201501N001019999999N0500001N1+01511+00291101811ADDGF105991021001999999041011MD1710151+9999REMSYN060AAXX  26061 31300 42999 51501 10151 20029 40181 57015 82041;
0186313000999992000092700004+53750+127220FM-12+023299999V0209999C000019999999N0500001N1+00911+00461101881ADDAA199000091GF107991041001999999031021KA1999N+00341MA1999999099111MD1810101+9999REMSYN076AAXX  27001 31300 32999 70000 10091 20046 39911 40188 58010 84032 333 20034;EQDQ01  00002PRCP99
0112313000999992000092703004+53750+127220FM-12+023299999V0201501N002010300019N0500001N1+01471+00381101801ADDGF107991021051012501031011MD1610031+9999REMSYN060AAXX  27031 31300 42699 71502 10147 20038 40180 56003 82531;
0112313000999992000092709004+53750+127220FM-12+023299999V0201001N001012200019N0500001N1+01711+00641101441ADDGF103991011051012501031011MD1710081+9999REMSYN060AAXX  27091 31300 42699 31001 10171 20064 40144 57008 81531;
0186313000999992000092712004+53750+127220FM-12+023299999V0200401N001012200019N0500001N1+01071+00591101511ADDAA199000091GF102991021001999999041001KA1999M+01851MA1999999098761MD1310011+9999REMSYN076AAXX  27121 31300 32984 20401 10107 20059 39876 40151 53001 82040 333 10185;EQDQ01  00002PRCP99
0112313000999992000092809004+53750+127220FM-12+023299999V0203501N004019999999N0500001N1+01141-00361102171ADDGF105991001001999999001021MD1310021+9999REMSYN060AAXX  28091 31300 42999 53504 10114 21036 40217 53002 80002;
0112313000999992000092821004+53750+127220FM-12+023299999V0209999C000012200019N0500001N1-00191-00351102501ADDGF102991001001999999001011MD1810051+9999REMSYN060AAXX  28211 31300 42999 20000 11019 21035 40250 58005 80001;
0112313000999992000092903004+53750+127220FM-12+023299999V0200401N001019999999N0500001N1+01061+00021102101ADDGF106991031001999999041091MD1810121+9999REMSYN060AAXX  29031 31300 42999 60401 10106 20002 40210 58012 83049;
0112313000999992000092918004+53750+127220FM-12+023299999V0209999C000019999999N0500001N1+00691+00461101971ADDGF108991061001999999031021MD1210021+9999REMSYN060AAXX  29181 31300 42984 80000 10069 20046 40197 52002 86032;
0112313000999992000093003004+53750+127220FM-12+023299999V0200101N002019999999N0500001N1+01071+00431101981ADDGF108991081001999999071999MD1110031+9999REMSYN060AAXX  30031 31300 42999 80102 10107 20043 40198 51003 8807/;
0122313000999992000100109004+53750+127220FM-12+023299999V0200201N002012200019N0500001N1+01141-00361101961ADDGA1001+999999999GF100991001001999999001001MD1410001+9999REMSYN054AAXX  01091 31300 42999 00202 10114 21036 40196 54000;
0196313000999992000100112004+53750+127220FM-12+023299999V0209999C000012200019N0500001N1+00771-00381102111ADDAA199000091GA1001+999999999GF100991001001999999001001KA1999M+01471MA1999999099311MD1310111+9999REMSYN070AAXX  01121 31300 32984 00000 10077 21038 39931 40211 53011 333 10147;EQDQ01  00002PRCP99
0122313000999992000100121004+53750+127220FM-12+023299999V0209999C000012200019N0500001N1-00311-00451102191ADDGA1001+999999999GF100991001001999999001001MD1710031+9999REMSYN054AAXX  01211 31300 42984 00000 11031 21045 40219 57003;
0196313000999992000100200004+53750+127220FM-12+023299999V0203001N001012200019N0500001N1+00151-00331102201ADDAA199000091GA1001+999999999GF100991001001999999001001KA1999N-00331MA1999999099341MD1310071+9999REMSYN070AAXX  02001 31300 32999 03001 10015 21033 39934 40220 53007 333 21033;EQDQ01  00002PRCP99
0141313000999992000100203004+53750+127220FM-12+023299999V0202301N001012200019N0500001N1+01272+00021101981ADDGA1001+999999999GF100991001001999999001001MD1710111+9999REMSYN054AAXX  02031 31300 42999 02301 10127 20002 40198 57011;EQDQ01+001273ATOT  
0112313000999992000100206004+53750+127220FM-12+023299999V0202001N002012200019N0500001N1+01591-00141101711ADDGF102991001001999999001021MD1710231+9999REMSYN060AAXX  02061 31300 42999 22002 10159 21014 40171 57023 80002;
0196313000999992000100212004+53750+127220FM-12+023299999V0201401N001012200019N0500001N1+00501-00291101881ADDAA199000091GA1001+999999999GF100991001001999999001001KA1999M+01611MA1999999099071MD1310121+9999REMSYN070AAXX  02121 31300 32984 01401 10050 21029 39907 40188 53012 333 10161;EQDQ01  00002PRCP99
0122313000999992000100221004+53750+127220FM-12+023299999V0202201N001012200019N0500001N1-00351-00531101931ADDGA1001+999999999GF100991001001999999001001MD1410001+9999REMSYN054AAXX  02211 31300 42984 02201 11035 21053 40193 54000;
0122313000999992000100315004+53750+127220FM-12+023299999V0209999C000012200019N0500001N1+00161-00191101741ADDGA1001+999999999GF100991001001999999001001MD1110011+9999REMSYN054AAXX  03151 31300 42984 00000 10016 21019 40174 51001;
0122313000999992000100318004+53750+127220FM-12+023299999V0209999C000012200019N0500001N1-00051-00291101761ADDGA1001+999999999GF100991001001999999001001MD1410001+9999REMSYN054AAXX  03181 31300 42984 00000 11005 21029 40176 54000;
0122313000999992000100421004+53750+127220FM-12+023299999V0209999C000012200019N0500001N1-00351-00461102151ADDGA1001+999999999GF100991001001999999001001MD1310101+9999REMSYN054AAXX  04211 31300 42984 00000 11035 21046 40215 53010;
0122313000999992000100503004+53750+127220FM-12+023299999V0202101N002012200019N0500001N1+01071+00091102001ADDGA1001+999999999GF100991001001999999001001MD1810041+9999REMSYN054AAXX  05031 31300 42999 02102 10107 20009 40200 58004;
0122313000999992000100518004+53750+127220FM-12+023299999V0209999C000012200019N0500001N1-00111-00231102241ADDGA1001+999999999GF100991001001999999001001MD1110041+9999REMSYN054AAXX  05181 31300 42984 00000 11011 21023 40224 51004;
0196313000999992000100600004+53750+127220FM-12+023299999V0209999C000012200019N0500001N1+00161-00281102341ADDAA199000091GA1001+999999999GF100991001001999999001001KA1999N-00241MA1999999099471MD1210071+9999REMSYN070AAXX  06001 31300 32999 00000 10016 21028 39947 40234 52007 333 21024;EQDQ01  00002PRCP99
0131313000999992000100603004+53750+127220FM-12+023299999V0201201N003019999999N0500001N1+01312+00111102121ADDGF105991051001999999041001MD1810091+9999REMSYN060AAXX  06031 31300 42999 51203 10131 20011 40212 58009 85040;EQDQ01+001313ATOT  
0220313000999992000100612004+53750+127220FM-12+023299999V0202401N001010075019N0500001N1+01051+00531102181ADDAA112000391AY181061AY221061GF108991081091008001999999KA1999M+99999MA1999999099421MD1310171+9999MW1251REMSYN088AAXX  06121 31300 11584 82401 10105 20053 39942 40218 53017 69932 72582 889// 333 11008;EQDQ01 -00082ATMX  
0140313000999992000100618004+53750+127220FM-12+023299999V0209999C000010075019N0300001N1+00701+00401102221ADDAY181061AY221061GF108991081091008001999999MD1410001+9999MW1801REMSYN066AAXX  06181 31300 41580 80000 10070 20040 40222 54000 78082 889//;
0140313000999992000100621004+53750+127220FM-12+023299999V0209999C000010120019N0500001N1+00681+00551102201ADDAY181031AY221031GF108991071051012501001021MD1810021+9999MW1021REMSYN066AAXX  06211 31300 41684 80000 10068 20055 40220 58002 70282 87502;
0140313000999992000100703004+53750+127220FM-12+023299999V0201601N002010300019N0040001N1+01191+00321101961ADDAY121031AY221031GF107991021051012501031021MD1710121+9999MW1101REMSYN066AAXX  07031 31300 41696 71602 10119 20032 40196 57012 71022 82532;
0140313000999992000100821004+53750+127220FM-12+023299999V0200101N002010300019N0500001N1+00551+00121100831ADDAY161031AY221031GF108991021071004501071999MD1210121+9999MW1021REMSYN066AAXX  08211 31300 41484 80102 10055 20012 40083 52012 70262 8277/;
0112313000999992000100903004+53750+127220FM-12+023299999V0203301N003010042019N0500001N1+00861+00131101031ADDGF108991061071004501071999MD1210061+9999REMSYN060AAXX  09031 31300 42499 83303 10086 20013 40103 52006 8677/;
0112313000999992000100906004+53750+127220FM-12+023299999V0203501N003010075019N0500001N1+00911+00111101181ADDGF106991061091008001001001MD1210071+9999REMSYN060AAXX  09061 31300 42599 63503 10091 20011 40118 52007 86900;
0186313000999992000101000004+53750+127220FM-12+023299999V0200901N001010120019N0500001N1+00021-00191101541ADDAA199000091GF107991061051012501031001KA1999N-00161MA1999999098681MD1310071+9999REMSYN076AAXX  10001 31300 32699 70901 10002 21019 39868 40154 53007 86530 333 21016;EQDQ01  00002PRCP99
0112313000999992000101009004+53750+127220FM-12+023299999V0200301N001010075019N0500001N1+00561+00011101421ADDGF107991071091008001001001MD1710041+9999REMSYN060AAXX  10091 31300 42599 70301 10056 20001 40142 57004 87900;
0186313000999992000101100004+53750+127220FM-12+023299999V0203401N005010075019N0500001N1+00081-00491101331ADDAA199000091GF107991061091008001031001KA1999N+00041MA1999999098481MD1310091+9999REMSYN076AAXX  11001 31300 32599 73405 10008 21049 39848 40133 53009 86930 333 20004;EQDQ01  00002PRCP99
0192313000999992000101112004+53750+127220FM-12+023299999V0203201N004019999999N0500001N1+00171-00731101321ADDAA199000091GF106991021001999999041021KA1120M+00411MA1999999098481MD1410001+9999REMSYN082AAXX  11121 31300 32984 63204 10017 21073 39848 40132 54000 82042 333 10041 91111;EQDQ01  00002PRCP99
0112313000999992000101118004+53750+127220FM-12+023299999V0202401N001010300019N0500001N1-00201-00651101181ADDGF108991031051012501041021MD1710091+9999REMSYN060AAXX  11181 31300 42684 82401 11020 21065 40118 57009 83542;
0112313000999992000101318004+53750+127220FM-12+023299999V0200101N005019999999N0500001N1-00271-01281101271ADDGF108991081001999999011999MD1210111+9999REMSYN060AAXX  13181 31300 42984 80105 11027 21128 40127 52011 8801/;
0139313000999992000101321004+53750+127220FM-12+023299999V0200101N005019999999N0500001N1-00431-01491101381ADDGF108991081001999999071999MD1210101+9999OA140101001REMSYN076AAXX  13211 31300 42984 80105 11043 21149 40138 52010 8807/ 333 91010 91111;
0275313000999992000101400004+53750+127220FM-12+023299999V0200201N007019999999N0200001N1-00491-01571101491ADDAA112000791AY171061AY221061GF108991081001999999021999IA1149IA2999-00709KA1120N-00521MA1999999098571MD1210091+9999MW1701OA140101201OA249901401REMSYN122AAXX  14001 31300 11998 80207 11049 21157 39857 40149 52009 69902 77072 8802/ 333 21052 91012 91114 555 14105 34107 7990/;
0167313000999992000101403004+53750+127220FM-12+023299999V0200201N006019999999N0500001N1-00391-01441101441ADDAY171031AY221031GF108991051001999999021071MD1810031+9999MW1021OA140101201REMSYN082AAXX  14031 31300 41999 80206 11039 21144 40144 58003 70272 85027 333 91012 91114;
0150313000999992000101406004+53750+127220FM-12+023299999V0200101N004019999999N0500001N1-00351-01431101451ADDAY171061AY221061GF108991001001999999001071MD1310011+9999MW1021REMSYN076AAXX  14061 31300 41999 80104 11035 21143 40145 53001 70272 80007 333 91113;
0152313000999992000101412004+53750+127220FM-12+023299999V0200101N005019999999N0500001N1-00911-02211101911ADDAA112000791GF106991001001999999001071KA1999M+00211MD1210151+9999REMSYN076AAXX  14121 31300 32984 60105 11091 21221 40191 52015 69902 80007 333 10021;
0139313000999992000101415004+53750+127220FM-12+023299999V0200101N005012200019N0500001N1-01141-02381102021ADDGF102991001001999999001011MD1210081+9999OA140101201REMSYN076AAXX  14151 31300 42984 20105 11114 21238 40202 52008 80001 333 91012 91114;
0122313000999992000101421004+53750+127220FM-12+023299999V0203101N002012200019N0500001N1-01551-02481102111ADDGA1001+999999999GF100991001001999999001001MD1410001+9999REMSYN054AAXX  14211 31300 42984 03102 11155 21248 40211 54000;
0196313000999992000101500004+53750+127220FM-12+023299999V0200501N002012200019N0500001N1-01251-02331102201ADDAA199000091GA1001+999999999GF100991001001999999001001KA1999N-01561MA1999999099181MD1310121+9999REMSYN070AAXX  15001 31300 32999 00502 11125 21233 39918 40220 53012 333 21156;EQDQ01  00002PRCP99
0112313000999992000101518004+53750+127220FM-12+023299999V0209999C000019999999N0500001N1-00751-01951101031ADDGF108991021001999999041071MD1710221+9999REMSYN060AAXX  15181 31300 42984 80000 11075 21195 40103 57022 82047;
0140313000999992000101606004+53750+127220FM-12+023299999V0203601N001019999999N0040001N1-00211-01061100181ADDAY171061AY221061GF108991081001999999021999MD1710221+9999MW1711REMSYN066AAXX  16061 31300 41996 83601 11021 21106 40018 57022 77172 8802/;
0186313000999992000101621004+53750+127220FM-12+023299999V0200101N007019999999N0500001N1-00961-01881101161ADDAY131031AY221031GF108991001001999999001071MD1210532+9999MW1361OA140101401REMSYN082AAXX  16211 31300 41984 80107 11096 21188 40116 52053 73632 80007 333 91014 91119;EQDQ01+000532APC3  
0196313000999992000101712004+53750+127220FM-12+023299999V0200101N001012200019N0500001N1-01351-02291102271ADDAA199000091GA1001+999999999GF100991001001999999001001KA1999M+00801MA1999999099241MD1210151+9999REMSYN070AAXX  17121 31300 32984 00101 11135 21229 39924 40227 52015 333 10080;EQDQ01  00002PRCP99
0122313000999992000101803004+53750+127220FM-12+023299999V0200101N001012200019N0500001N1-00751-01711102141ADDGA1001+999999999GF100991001001999999001001MD1810171+9999REMSYN054AAXX  18031 31300 42999 00101 11075 21171 40214 58017;
0112313000999992000101818004+53750+127220FM-12+023299999V0209999C000019999999N0500001N1-00631-01031101531ADDGF106991021001999999031021MD1710141+9999REMSYN060AAXX  18181 31300 42984 60000 11063 21103 40153 57014 82032;
0198313000999992000102000004+53750+127220FM-12+023299999V0209999C000019999999N0500001N1-00551-01061101051ADDAA199000091GF105991031001999999031011IA1259KA1120N-00811MA1999999098151MD1410001+9999REMSYN082AAXX  20001 31300 32999 50000 11055 21106 39815 40105 54000 83031 333 21081 41///;EQDQ01  00002PRCP99
0112313000999992000102003004+53750+127220FM-12+023299999V0203201N002012200019N0500001N1-00051-00991101121ADDGF102991021011012501001001MD1310111+9999REMSYN060AAXX  20031 31300 42699 23202 11005 21099 40112 53011 82100;
0112313000999992000102006004+53750+127220FM-12+023299999V0200601N003012200019N0500001N1+00011-00931101111ADDGF102991021011008001001001MD1810011+9999REMSYN060AAXX  20061 31300 42599 20603 10001 21093 40111 58001 82100;
0122313000999992000102015004+53750+127220FM-12+023299999V0209999C000012200019N0500001N1-01051-01181101581ADDGA1001+999999999GF100991001001999999001001MD1210081+9999REMSYN054AAXX  20151 31300 42984 00000 11105 21118 40158 52008;
0236313000999992000102200004+53750+127220FM-12+023299999V0209999C000012200019N0500001N1-01021-01081102131ADDAA199000091AY101061AY201061GA1001+999999999GF100991001001999999001001IA1259KA1120N-01411MA1999999099141MD1310031+9999MW1401REMSYN082AAXX  22001 31300 31999 00000 11102 21108 39914 40213 53003 74000 333 21141 41///;EQDQ01  00002PRCP99
0122313000999992000102206004+53750+127220FM-12+023299999V0209999C000012200019N0500001N1+00191-00941101911ADDGA1001+999999999GF100991001001999999001001MD1610031+9999REMSYN054AAXX  22061 31300 42999 00000 10019 21094 40191 56003;
0122313000999992000102209004+53750+127220FM-12+023299999V0203401N001012200019N0500001N1-00131-01101101931ADDGA1001+999999999GF100991001001999999001001MD1810011+9999REMSYN054AAXX  22091 31300 42999 03401 11013 21110 40193 58001;
0112313000999992000102215004+53750+127220FM-12+023299999V0200601N002012200019N0500001N1-00251-00941101821ADDGF102991001001999999001011MD1410001+9999REMSYN060AAXX  22151 31300 42984 20602 11025 21094 40182 54000 80001;
0122313000999992000102218004+53750+127220FM-12+023299999V0203001N001012200019N0500001N1-00851-01171101891ADDGA1001+999999999GF100991001001999999001001MD1410001+9999REMSYN054AAXX  22181 31300 42984 03001 11085 21117 40189 54000;
0140313000999992000102303004+53750+127220FM-12+023299999V0209999C000019999999N0500001N1+00271-00881101791ADDAY141031AY211031GF107991001001999999001011MD1210081+9999MW1021REMSYN066AAXX  23031 31300 41999 70000 10027 21088 40179 52008 70241 80001;
0112313000999992000102315004+53750+127220FM-12+023299999V0200701N001019999999N0500001N1+00131-00581101711ADDGF108991081001999999071999MD1810021+9999REMSYN060AAXX  23151 31300 42984 80701 10013 21058 40171 58002 8807/;
0140313000999992000102318004+53750+127220FM-12+023299999V0200601N002010075019N0350001N1+00171-00171101521ADDAY181061AY221061GF108991051091008001021999MD1710181+9999MW1261REMSYN066AAXX  23181 31300 41581 80602 10017 21017 40152 57018 72682 8592/;
0159313000999992000102406004+53750+127220FM-12+023299999V0203201N004010042019N0040001N1+00091+00061100161ADDAY171061AY221061GF108991071071004501021999MD1710672+9999MW1711REMSYN066AAXX  24061 31300 41496 83204 10009 20006 40016 57067 77172 8772/;EQDQ01+000672APC3  
0186313000999992000102409004+53750+127220FM-12+023299999V0203301N004010042019N0030001N1-00061-00061099711ADDAY171031AY231031GF108991999071004501021999MD1710461+9999MW1731OA140101001REMSYN082AAXX  24091 31300 41430 83304 11006 21006 49971 57046 77373 8872/ 333 91010 91111;EQDQ01+000082SCOTLC
0243313000999992000102412004+53750+127220FM-12+023299999V0200301N007010042019N0040001N1-00081-00171099431ADDAA112009991AY171061AY231061GF108991999071004501021999KA1120M+00151MA1999999096621MD1710271+9999MW1731OA140101201REMSYN100AAXX  24121 31300 11440 80307 11008 21017 39662 49943 57027 60102 77373 8872/ 333 10015 91012 91114;EQDQ01+000082SCOTLC
0159313000999992000102421004+53750+127220FM-12+023299999V0200201N001010042019N0038001N1-00111-00201099731ADDAY171031AY231031GF108991999071004501021999MD1210141+9999MW1731REMSYN066AAXX  24211 31300 41438 80201 11011 21020 49973 52014 77373 8872/;EQDQ01+000082SCOTLC
0207313000999992000102500004+53750+127220FM-12+023299999V0200201N004010075019N0200001N1-00071-00611100111ADDAA112004191AY171061AY231061GF107991061051008001031001KA1120N-00111MA1999999097291MD1210391+9999MW1361REMSYN094AAXX  25001 31300 11598 70204 11007 21061 39729 40011 52039 60042 73673 86530 333 21011 91111;
0132313000999992000102515004+53750+127220FM-12+023299999V0203301N004012200019N0500001N1-00571-01531101551ADDGA1001+999999999GF100991001001999999001001MD1210141+9999REMSYN064AAXX  25151 31300 42984 03304 11057 21153 40155 52014 333 91111;
0106313000999992000102606004+53750+127220FM-12+023299999V0203301N004019999999N0500001N1+99999+99999101651ADDGF107991041001999999031021MD1810071+9999REMSYN054AAXX  26061 31300 42999 73304 21145 40165 58007 84032;
0122313000999992000102615004+53750+127220FM-12+023299999V0209999C000012200019N0500001N1-01091-01711101981ADDGA1001+999999999GF100991001001999999001001MD1210061+9999REMSYN054AAXX  26151 31300 42984 00000 11109 21171 40198 52006;
0150313000999992000102721004+53750+127220FM-12+023299999V0209999C000012200019N0500001N1-01551-01681101801ADDAY101031AY201031GA1001+999999999GF100991001001999999001001MD1710081+9999MW1401REMSYN060AAXX  27211 31300 41984 00000 11155 21168 40180 57008 74000;
0150313000999992000102803004+53750+127220FM-12+023299999V0209999C000012200019N0500001N1-00681-01201101441ADDAY141031AY201031GA1001+999999999GF100991001001999999001001MD1810221+9999MW1021REMSYN060AAXX  28031 31300 41999 00000 11068 21120 40144 58022 70240;
0140313000999992000102906004+53750+127220FM-12+023299999V0209999C000019999999N0500001N1-00251-01031100841ADDAY141061AY211061GF106991001001999999001011MD1710111+9999MW1021REMSYN066AAXX  29061 31300 41999 60000 11025 21103 40084 57011 70241 80001;
0186313000999992000102912004+53750+127220FM-12+023299999V0209999C000019999999N0500001N1-01061-01341100861ADDAA199000091GF107991001001999999001011KA1999M-00201MA1999999097911MD1310011+9999REMSYN076AAXX  29121 31300 32984 70000 11106 21134 39791 40086 53001 80001 333 11020;EQDQ01  00002PRCP99
0150313000999992000102918004+53750+127220FM-12+023299999V0209999C000012200019N0060001N1-01401-01531100901ADDAY101061AY201061GA1001+999999999GF100991001001999999001001MD1310031+9999MW1101REMSYN060AAXX  29181 31300 41956 00000 11140 21153 40090 53003 71000;
0243313000999992000103100004+53750+127220FM-12+023299999V0209999C000019999999N0500001N1-01111-01241101161ADDAA199000091AJ100089199999999GF107991001001999999001021IA2999-02109KA1120N-01381MA1999999098191MD1710011+9999REMSYN104AAXX  31001 31300 32999 70000 11111 21124 39819 40116 57001 80002 333 21138 47008 555 1/113 3/121 7000/;EQDQ01  00002PRCP99
0175313000999992000110112004+53750+127220FM-12+023299999V0209999C000012200019N0500001N1-00851-01101101931ADDAA199000091GA1001+999999999GF100991001001999999001001KA1999M-00201MD1310071+9999REMSYN064AAXX  01121 31300 32984 00000 11085 21110 40193 53007 333 11020;EQDQ01  00002PRCP99
0112313000999992000110203004+53750+127220FM-12+023299999V0200301N003019999999N0500001N1+00201-00681101221ADDGF108991061001999999031071MD1710191+9999REMSYN060AAXX  02031 31300 42999 80303 10020 21068 40122 57019 86037;
0215313000999992000110300004+53750+127220FM-12+023299999V0200301N004019999999N0500001N1-00131-00501101931ADDAA199000091AJ100079199999999GF108991081001999999071999IA1239KA1120N-00211MA1999999099041MD1210211+9999REMSYN082AAXX  03001 31300 32999 80304 11013 21050 39904 40193 52021 8807/ 333 21021 47007;EQDQ01  00002PRCP99
0140313000999992000110309004+53750+127220FM-12+023299999V0201201N001019999999N0180001N1+00021-00311102121ADDAY171031AY221031GF108991081001999999011999MD1110041+9999MW1711REMSYN066AAXX  03091 31300 41968 81201 10002 21031 40212 51004 77172 8801/;
0201313000999992000110312004+53750+127220FM-12+023299999V0209999C000019999999N0500001N1-00041-00281102161ADDAA112000191AY171061AY221061GF108991081001999999011999KA1999M+00091MA1999999099271MD1410001+9999MW1021REMSYN088AAXX  03121 31300 11984 80000 11004 21028 39927 40216 54000 69922 70272 8801/ 333 10009;
0112313000999992000110315004+53750+127220FM-12+023299999V0209999C000019999999N0500001N1-00061-00481102161ADDGF108991081001999999021999MD1410001+9999REMSYN060AAXX  03151 31300 42984 80000 11006 21048 40216 54000 8802/;
0140313000999992000110421004+53750+127220FM-12+023299999V0201901N004010075019N0120001N1+00011-00311099341ADDAY171031AY231031GF108991061071008001021999MD1310141+9999MW1711REMSYN066AAXX  04211 31300 41562 81904 10001 21031 49934 53014 77173 8672/;
0159313000999992000110518004+53750+127220FM-12+023299999V0200901N002019999999N0500001N1-00201-00351100821ADDAY181061AY221061GF108991999071999999021999MD1210091+9999MW1021REMSYN066AAXX  05181 31300 41984 80902 11020 21035 40082 52009 70282 8872/;EQDQ01+000082SCOTLC
0249313000999992000110600004+53750+127220FM-12+023299999V0209999C000010042019N0100001N1-00191-00271101011ADDAA112002091AJ100209199999999AY171061AY221061GF108991999071004501021999IA1239KA1120N-00241MA1999999098151MD1210091+9999MW1711REMSYN094AAXX  06001 31300 11497 80000 11019 21027 39815 40101 52009 60022 77172 8872/ 333 21024 47020;EQDQ01+000082SCOTLC
0159313000999992000110618004+53750+127220FM-12+023299999V0209999C000010042019N0160001N1-00501-00601101211ADDAY171061AY221061GF108991999071004501021999MD1410001+9999MW1711REMSYN066AAXX  06181 31300 41466 80000 11050 21060 40121 54000 77172 8872/;EQDQ01+000082SCOTLC
0112313000999992000110706004+53750+127220FM-12+023299999V0200401N003010120019N0500001N1-00561-01221101271ADDGF108991061051012501001071MD1210121+9999REMSYN060AAXX  07061 31300 42699 80403 11056 21122 40127 52012 86507;
0122313000999992000110821004+53750+127220FM-12+023299999V0209999C000012200019N0500001N1-02531-02771102391ADDGA1001+999999999GF100991001001999999001001MD1410001+9999REMSYN054AAXX  08211 31300 42984 00000 11253 21277 40239 54000;
0112313000999992000120503004+53750+127220FM-12+023299999V0209999C000019999999N0500001N1-02911-03221101911ADDGF108991001001999999001051MD1210131+9999REMSYN060AAXX  05031 31300 42999 80000 11291 21322 40191 52013 80005;
0253313000999992000120600004+53750+127220FM-12+023299999V0209999C000012200019N0005001N1-02901-03131102881ADDAA199000091AJ100219199999999AY141061AY201061GA1001+999999999GF100991001001999999001001IA1239KA1120N-02961MA1999999099641MD1210151+9999MW1441REMSYN082AAXX  06001 31300 31993 00000 11290 21313 39964 40288 52015 74440 333 21296 47021;EQDQ01  00002PRCP99
0150313000999992000120606004+53750+127220FM-12+023299999V0209999C000012200019N0500001N1-02251-02501102831ADDAY141061AY201061GA1001+999999999GF100991001001999999001001MD1410001+9999MW1401REMSYN060AAXX  06061 31300 41999 00000 11225 21250 40283 54000 74040;
0209313000999992000120700004+53750+127220FM-12+023299999V0200901N001019999999N0500001N1-02661-02901999999ADDAA199000091AJ100219199999999GF108991001001999999001051IA1239KA1120N-02851MA1999999099491MD1710131+9999REMSYN076AAXX  07001 31300 32999 80901 11266 21290 39949 57013 80005 333 21285 47021;EQDQ01  00002PRCP99
0201313000999992000120712004+53750+127220FM-12+023299999V0209999C000019999999N0270001N1-02441-02621102511ADDAA112000591AY171061AY221061GF108991001001999999001071KA1999M-02181MA1999999099341MD1310021+9999MW1711REMSYN088AAXX  07121 31300 11977 80000 11244 21262 39934 40251 53002 69952 77172 80007 333 11218;
0150313000999992000120718004+53750+127220FM-12+023299999V0209999C000012200019N0250001N1-02851-03021102431ADDAY171061AY211061GA1001+999999999GF100991001001999999001001MD1610021+9999MW1401REMSYN060AAXX  07181 31300 41975 00000 11285 21302 40243 56002 74071;
0240313000999992000120800004+53750+127220FM-12+023299999V0209999C000012200019N0100001N1-03171-03411102491ADDAA112000591AJ100229199999999AY101061AY201061GA1001+999999999GF100991001001999999001001IA1239KA1120N-03201MA1999999099221MD1410001+9999MW1401REMSYN088AAXX  08001 31300 11997 00000 11317 21341 39922 40249 54000 69942 74000 333 21320 47022;
0202313000999992000120912004+53750+127220FM-12+023299999V0200101N003012200019N0500001N1-02311-02551102131ADDAA112000791GA1001+999999999GF100991001001999999001001KA1999M+99999MA1999999098981MD1810091+9999REMSYN076AAXX  09121 31300 12984 00103 11231 21255 39898 40213 58009 69902 333 11251;EQDQ01 -02512ATMX  
0167313000999992000121103004+53750+127220FM-12+023299999V0203401N005019999999N0500001N1-01951-02631101591ADDAY131031AY211031GF108991001001999999001051MD1410001+9999MW1361OA140101001REMSYN082AAXX  11031 31300 41999 83405 11195 21263 40159 54000 73631 80005 333 91010 91112;
0140313000999992000121203004+53750+127220FM-12+023299999V0209999C000012200019N0100001N1-02491-02741101291ADDAY141031AY201031GF102991001001999999001021MD1810061+9999MW1401REMSYN066AAXX  12031 31300 41997 20000 11249 21274 40129 58006 74040 80002;
0140313000999992000121206004+53750+127220FM-12+023299999V0209999C000012200019N0500001N1-02251-02431101221ADDAY141061AY201061GF104991001001999999001011MD1610031+9999MW1021REMSYN066AAXX  12061 31300 41999 40000 11225 21243 40122 56003 70240 80001;
0142313000999992000121415004+53750+127220FM-12+023299999V0209999C000012200019N0500001N1-02771-03011102121ADDAY101031GA1001+999999999GF100991001001999999001001MD1110011+9999MW1401REMSYN060AAXX  14151 31300 41984 00000 11277 21301 40212 51001 7400/;
0243313000999992000121500004+53750+127220FM-12+023299999V0209999C000012200019N0040001N1-03211-03431102061ADDAA199000091AJ100219199999999AY111061AY211061GF102991001001999999001011IA1239KA1120N-03251MA1999999098811MD1710081+9999MW1101REMSYN088AAXX  15001 31300 31996 20000 11321 21343 39881 40206 57008 71011 80001 333 21325 47021;EQDQ01  00002PRCP99
0253313000999992000121600004+53750+127220FM-12+023299999V0209999C000012200019N0010001N1-03051-03271101931ADDAA199000091AJ100219199999999AY101061AY201061GA1001+999999999GF100991001001999999001001IA1239KA1120N-03231MA1999999098691MD1810021+9999MW1101REMSYN082AAXX  16001 31300 31994 00000 11305 21327 39869 40193 58002 71000 333 21323 47021;EQDQ01  00002PRCP99
0150313000999992000121603004+53750+127220FM-12+023299999V0209999C000012200019N0100001N1-02951-03191101901ADDAY101031AY201031GA1001+999999999GF100991001001999999001001MD1610021+9999MW1401REMSYN060AAXX  16031 31300 41997 00000 11295 21319 40190 56002 74000;
0150313000999992000121821004+53750+127220FM-12+023299999V0209999C000012200019N0140001N1-03701-03911103141ADDAY101031AY201031GA1001+999999999GF100991001001999999001001MD1710081+9999MW1401REMSYN060AAXX  18211 31300 41964 00000 11370 21391 40314 57008 74000;
0150313000999992000121903004+53750+127220FM-12+023299999V0209999C000012200019N0005001N1-03441-03671103041ADDAY141031AY201031GA1001+999999999GF100991001001999999001001MD1810041+9999MW1441REMSYN060AAXX  19031 31300 41993 00000 11344 21367 40304 58004 74440;
0150313000999992000121906004+53750+127220FM-12+023299999V0209999C000012200019N0100001N1-03151-03381102941ADDAY141061AY201061GA1001+999999999GF100991001001999999001001MD1710071+9999MW1401REMSYN060AAXX  19061 31300 41997 00000 11315 21338 40294 57007 74040;
0150313000999992000121918004+53750+127220FM-12+023299999V0209999C000012200019N0005001N1-03661-03871102991ADDAY141061AY201061GA1001+999999999GF100991001001999999001001MD1710051+9999MW1441REMSYN060AAXX  19181 31300 41905 00000 11366 21387 40299 57005 74440;
0150313000999992000122003004+53750+127220FM-12+023299999V0209999C000012200019N0002001N1-03571-03801102771ADDAY141031AY201031GA1001+999999999GF100991001001999999001001MD1710091+9999MW1441REMSYN060AAXX  20031 31300 41992 00000 11357 21380 40277 57009 74440;
0224313000999992000122012004+53750+127220FM-12+023299999V0209999C000012200019N0006001N1-03601-03841102451ADDAA199000091AY141061AY201061GA1001+999999999GF100991001001999999001001KA1999M-03331MA1999999099131MD1710091+9999MW1461REMSYN076AAXX  20121 31300 31906 00000 11360 21384 39913 40245 57009 74640 333 11333;EQDQ01  00002PRCP99
0150313000999992000122021004+53750+127220FM-12+023299999V0209999C000012200019N0006001N1-03711-03951102251ADDAY141031AY201031GA1001+999999999GF100991001001999999001001MD1710081+9999MW1441REMSYN060AAXX  20211 31300 41906 00000 11371 21395 40225 57008 74440;
0150313000999992000122103004+53750+127220FM-12+023299999V0209999C000012200019N0002001N1-03391-03611102351ADDAY141031AY201031GA1001+999999999GF100991001001999999001001MD1310141+9999MW1441REMSYN060AAXX  21031 31300 41992 00000 11339 21361 40235 53014 74440;
0140313000999992000122106004+53750+127220FM-12+023299999V0209999C000012200019N0100001N1-03191-03431102201ADDAY141061AY201061GF102991001001999999001021MD1810121+9999MW1401REMSYN066AAXX  21061 31300 41997 20000 11319 21343 40220 58012 74040 80002;
0253313000999992000122300004+53750+127220FM-12+023299999V0209999C000012200019N0001001N1-03711-03951102741ADDAA199000091AJ100219199999999AY141061AY201061GA1001+999999999GF100991001001999999001001IA1239KA1120N-03761MA1999999099401MD1310081+9999MW1461REMSYN082AAXX  23001 31300 31991 00000 11371 21395 39940 40274 53008 74640 333 21376 47021;EQDQ01  00002PRCP99
0201313000999992000122412004+53750+127220FM-12+023299999V0209999C000019999999N0230001N1-03151-03381102751ADDAA112000591AY171061AY221061GF108991001001999999001051KA1999M-03061MA1999999099471MD1110021+9999MW1021REMSYN088AAXX  24121 31300 11973 80000 11315 21338 39947 40275 51002 69942 70272 80005 333 11306;
0134313000999992000122421004+53750+127220FM-12+023299999V0209999C000012200019N0250001N1-03171-03411102941ADDAY101031AY201031GF102991999999999999999999MD1310101+9999MW1401REMSYN060AAXX  24211 31300 41975 20000 11317 21341 40294 53010 74000;
0150313000999992000122621004+53750+127220FM-12+023299999V0209999C000012200019N0190001N1-03551-03771103441ADDAY101031AY201031GA1001+999999999GF100991001001999999001001MD1410001+9999MW1401REMSYN060AAXX  26211 31300 41969 00000 11355 21377 40344 54000 74000;
0150313000999992000122703004+53750+127220FM-12+023299999V0209999C000012200019N0040001N1-03111-03341103351ADDAY141031AY201031GA1001+999999999GF100991001001999999001001MD1610011+9999MW1101REMSYN060AAXX  27031 31300 41996 00000 11311 21334 40335 56001 71040;
0150313000999992000122721004+53750+127220FM-12+023299999V0209999C000012200019N0005001N1-03641-03871103211ADDAY141031AY201031GA1001+999999999GF100991001001999999001001MD1310011+9999MW1441REMSYN060AAXX  27211 31300 41905 00000 11364 21387 40321 53001 74440;
0150313000999992000122803004+53750+127220FM-12+023299999V0209999C000012200019N0020001N1-03351-03591103261ADDAY141031AY201031GA1001+999999999GF100991001001999999001001MD1410001+9999MW1101REMSYN060AAXX  28031 31300 41995 00000 11335 21359 40326 54000 71040;
0140313000999992000122806004+53750+127220FM-12+023299999V0209999C000012200019N0100001N1-03051-03271103181ADDAY141061AY201061GF102991001001999999001011MD1810041+9999MW1401REMSYN066AAXX  28061 31300 41997 20000 11305 21327 40318 58004 74040 80001;
0150313000999992000123009004+53750+127220FM-12+023299999V0209999C000012200019N0500001N1-03291-03511103041ADDAY101031AY201031GA1001+999999999GF100991001001999999001001MD1410001+9999MW1401REMSYN060AAXX  30091 31300 41984 00000 11329 21351 40304 54000 74000;
0150313000999992000123021004+53750+127220FM-12+023299999V0209999C000012200019N0005001N1-03751-03991102781ADDAY141031AY241031GA1001+999999999GF100991001001999999001001MD1810061+9999MW1401REMSYN060AAXX  30211 31300 41905 00000 11375 21399 40278 58006 74044;
0253313000999992000123100004+53750+127220FM-12+023299999V0209999C000012200019N0005001N1-03741-03951102851ADDAA199000091AJ100229199999999AY141061AY201061GA1001+999999999GF100991001001999999001001IA1239KA1120N-03771MA1999999099501MD1310081+9999MW1441REMSYN082AAXX  31001 31300 31993 00000 11374 21395 39950 40285 53008 74440 333 21377 47022;EQDQ01  00002PRCP99
0150313000999992000123109004+53750+127220FM-12+023299999V0209999C000012200019N0070001N1-03471-03701102741ADDAY101031AY201031GA1001+999999999GF100991001001999999001001MD1310081+9999MW1101REMSYN060AAXX  31091 31300 41957 00000 11347 21370 40274 53008 71000;
0224313000999992000123112004+53750+127220FM-12+023299999V0209999C000012200019N0070001N1-03491-03701102761ADDAA199000091AY101061AY201061GA1001+999999999GF100991001001999999001001KA1999M-03241MA1999999099441MD1210021+9999MW1101REMSYN076AAXX  31121 31300 31957 00000 11349 21370 39944 40276 52002 71000 333 11324;EQDQ01  00002PRCP99
0150313000999992000123121004+53750+127220FM-12+023299999V0209999C000012200019N0060001N1-03821-04031102851ADDAY101031AY201031GA1001+999999999GF100991001001999999001001MD1410001+9999MW1101REMSYN060AAXX  31211 31300 41956 00000 11382 21403 40285 54000 71000;
