0208315940999992000010100004+49420+130080FM-12+013599999V0209999C000012200019N0100001N1-03511-03671104051ADDAA106000091GA1001+999999999GF100991001001999999001001IA1239KA1120N-03581MA1999999102061MD1310061+9999REMSYN076AAXX  01001 31594 32997 00000 11351 21367 30206 40405 53006 333 21358 47015;EQDQ01  00002PRCP06
0122315940999992000010103004+49420+130080FM-12+013599999V0209999C000012200019N0200001N1-02791-02961103931ADDGA1001+999999999GF100991001001999999001001MD1810071+9999REMSYN054AAXX  01031 31594 42998 00000 11279 21296 40393 58007;
0122315940999992000010106004+49420+130080FM-12+013599999V0202801N002012200019N0200001N1-02381-02701103791ADDGA1001+999999999GF100991001001999999001001MD1710111+9999REMSYN054AAXX  01061 31594 42998 02802 11238 21270 40379 57011;
0122315940999992000010109004+49420+130080FM-12+013599999V0200401N002012200019N0230001N1-02611-02791103741ADDGA1001+999999999GF100991001001999999001001MD1810061+9999REMSYN054AAXX  01091 31594 42973 00402 11261 21279 40374 58006;
0122315940999992000010115004+49420+130080FM-12+013599999V0209999C000012200019N0170001N1-03161-03321103591ADDGA1001+999999999GF100991001001999999001001MD1710131+9999REMSYN054AAXX  01151 31594 42967 00000 11316 21332 40359 57013;
0122315940999992000010118004+49420+130080FM-12+013599999V0209999C000012200019N0180001N1-03441-03611999999ADDGA1001+999999999GF100991001001999999001001MD1710161+9999REMSYN054AAXX  01181 31594 42968 00000 11344 21361 49345 57016;
0122315940999992000010121004+49420+130080FM-12+013599999V0209999C000012200019N0150001N1-03331-03501103311ADDGA1001+999999999GF100991001001999999001001MD1710131+9999REMSYN054AAXX  01211 31594 42965 00000 11333 21350 40331 57013;
0198315940999992000010200004+49420+130080FM-12+013599999V0209999C000019999999N0100001N1-03241+99999103121ADDAA106000091GF108991001001999999001041IA1239KA1120N-03511MA1999999101171MD1710171+9999REMSYN082AAXX  02001 31594 32997 80000 11324 21242 30117 40312 57017 80004 333 21351 47015;EQDQ01  00002PRCP06
0112315940999992000010203004+49420+130080FM-12+013599999V0200301N001019999999N0100001N1-02751-02931102881ADDGF108991081001999999021999MD1710201+9999REMSYN060AAXX  02031 31594 42997 80301 11275 21293 40288 57020 8802/;
0112315940999992000010206004+49420+130080FM-12+013599999V0200101N001019999999N0100001N1-02261-02441102461ADDGF108991081001999999021999MD1710381+9999REMSYN060AAXX  02061 31594 42997 80101 11226 21244 40246 57038 8802/;
0140315940999992000010209004+49420+130080FM-12+013599999V0209999C000010042019N0044001N1-02111-02231102311ADDAY171031AY221031GF108991081001004501021999MD1710131+9999MW1711REMSYN066AAXX  02091 31594 41444 80000 11211 21223 40231 57013 77172 8802/;
0201315940999992000010212004+49420+130080FM-12+013599999V0200101N001010042019N0028001N1-01951-02071102111ADDAA112001091AY171061AY221061GF108991081001004501021999KA1999M-01891MA1999999100271MD1810191+9999MW1731REMSYN088AAXX  02121 31594 11428 80101 11195 21207 30027 40211 58019 60012 77372 8802/ 333 11189;
0166315940999992000010215004+49420+130080FM-12+013599999V0201801N002010048019N0026001N1-01921-02041102121ADDAY171031AY221031GA1081+004809029GF108991081001004501021999MD1310011+9999MW1731REMSYN076AAXX  02151 31594 41426 81802 11192 21204 40212 53001 77372 8802/ 333 88516;
0166315940999992000010218004+49420+130080FM-12+013599999V0201801N001010048019N0034001N1-01941-02061102151ADDAY171061AY221061GA1081+004809029GF108991081001004501021999MD1210031+9999MW1731REMSYN076AAXX  02181 31594 41434 81801 11194 21206 40215 52003 77372 8802/ 333 88516;
0166315940999992000010221004+49420+130080FM-12+013599999V0201601N001010051019N0036001N1-01731-01851102171ADDAY171031AY221031GA1081+005109029GF108991081001004501021999MD1310041+9999MW1731REMSYN076AAXX  02211 31594 41436 81601 11173 21185 40217 53004 77372 8802/ 333 88517;
0252315940999992000010300004+49420+130080FM-12+013599999V0201601N001010054019N0020001N1-01611-01741102341ADDAA112004191AJ100179199999999AY171061AY221061GA1081+005409029GF108991081001004501021999IA1239KA1120N-01981MA1999999100531MD1210181+9999MW1731REMSYN100AAXX  03001 31594 11495 81601 11161 21174 30053 40234 52018 60042 77372 8802/ 333 21198 47017 88518;
0140315940999992000010303004+49420+130080FM-12+013599999V0201801N001019999999N0040001N1-01481-01611102401ADDAY171031AY221031GF108991001001999999001071MD1210061+9999MW1711REMSYN066AAXX  03031 31594 41996 81801 11148 21161 40240 52006 77172 80007;
0140315940999992000010306004+49420+130080FM-12+013599999V0203501N003019999999N0040001N1-01441-01641102421ADDAY171061AY221061GF108991001001999999001071MD1210031+9999MW1711REMSYN066AAXX  03061 31594 41996 83503 11144 21164 40242 52003 77172 80007;
0140315940999992000010309004+49420+130080FM-12+013599999V0203501N004019999999N0035001N1-01711-01831102641ADDAY171031AY221031GF108991081001999999021999MD1210191+9999MW1731REMSYN066AAXX  03091 31594 41935 83504 11171 21183 40264 52019 77372 8802/;
0201315940999992000010312004+49420+130080FM-12+013599999V0203501N001019999999N0050001N1-01891-02081102891ADDAA112001091AY171061AY221061GF108991081001999999021999KA1999M-01391MA1999999101041MD1210231+9999MW1711REMSYN088AAXX  03121 31594 11950 83501 11189 21208 30104 40289 52023 60012 77172 8802/ 333 11139;
0140315940999992000010315004+49420+130080FM-12+013599999V0203101N002019999999N0060001N1-02081-02211102991ADDAY171031AY221031GF108991081001999999021999MD1210091+9999MW1711REMSYN066AAXX  03151 31594 41956 83102 11208 21221 40299 52009 77172 8802/;
0140315940999992000010318004+49420+130080FM-12+013599999V0203401N002019999999N0070001N1-02121-02241103091ADDAY171061AY221061GF108991081001999999021999MD1210101+9999MW1711REMSYN066AAXX  03181 31594 41957 83402 11212 21224 40309 52010 77172 8802/;
0140315940999992000010321004+49420+130080FM-12+013599999V0203301N003019999999N0060001N1-02201-02381103191ADDAY171031AY221031GF108991081001999999021999MD1210081+9999MW1711REMSYN066AAXX  03211 31594 41956 83303 11220 21238 40319 52008 77172 8802/;
0213315940999992000010400004+49420+130080FM-12+013599999V0203401N002019999999N0040001N1-02361-02481103281ADDAA112001091AY171061AY221061GF108991031001999999051071IA1239KA1120N-02361MA1999999101381MD1210071+9999MW1711REMSYN094AAXX  04001 31594 11996 83402 11236 21248 30138 40328 52007 60012 77172 83057 333 21236 47020;
0140315940999992000010403004+49420+130080FM-12+013599999V0203301N003019999999N0040001N1-02261-02531103301ADDAY171031AY221031GF108991001001999999001071MD1210031+9999MW1711REMSYN066AAXX  04031 31594 41996 83303 11226 21253 40330 52003 77172 80007;
0140315940999992000010406004+49420+130080FM-12+013599999V0203201N003019999999N0040001N1-02161-02341103291ADDAY171061AY221061GF108991041001999999051071MD1410001+9999MW1711REMSYN066AAXX  04061 31594 41996 83203 11216 21234 40329 54000 77172 84057;
0140315940999992000010409004+49420+130080FM-12+013599999V0203401N002019999999N0050001N1-02241-02421103391ADDAY171031AY221031GF108991061001999999051071MD1310101+9999MW1711REMSYN066AAXX  04091 31594 41950 83402 11224 21242 40339 53010 77172 86057;
0201315940999992000010412004+49420+130080FM-12+013599999V0203501N002019999999N0050001N1-02371-02551103371ADDAA112000891AY171061AY221061GF108991001001999999001071KA1999M-01891MA1999999101471MD1810041+9999MW1711REMSYN088AAXX  04121 31594 11950 83502 11237 21255 30147 40337 58004 69972 77172 80007 333 11189;
0140315940999992000010415004+49420+130080FM-12+013599999V0203501N002019999999N0100001N1-02461-02631103401ADDAY171031AY221031GF108991001001999999001071MD1310031+9999MW1711REMSYN066AAXX  04151 31594 41960 83502 11246 21263 40340 53003 77172 80007;
0140315940999992000010418004+49420+130080FM-12+013599999V0203301N002019999999N0049001N1-02401-02581103451ADDAY171061AY221061GF108991081001999999021999MD1210051+9999MW1711REMSYN066AAXX  04181 31594 41949 83302 11240 21258 40345 52005 77172 8802/;
0140315940999992000010421004+49420+130080FM-12+013599999V0203301N001019999999N0050001N1-02451-02631103441ADDAY171031AY221031GF108991081001999999021999MD1810011+9999MW1711REMSYN066AAXX  04211 31594 41950 83301 11245 21263 40344 58001 77172 8802/;
0232315940999992000010500004+49420+130080FM-12+013599999V0203201N001019999999N0040001N1-02411-02601103431ADDAA112000591AY171061AY221061GF108991081001999999071999IA1239KA1120M+99999MA1999999101531MD1510011+9999MW1711REMSYN094AAXX  05001 31594 11996 83201 11241 21260 30153 40343 55001 69952 77172 8807/ 333 11250 47022;EQDQ01 -02502ATMX  
0140315940999992000010503004+49420+130080FM-12+013599999V0202801N001019999999N0040001N1-02161-02411103371ADDAY171031AY221031GF108991001001999999001071MD1810041+9999MW1711REMSYN066AAXX  05031 31594 41996 82801 11216 21241 40337 58004 77172 80007;
0140315940999992000010506004+49420+130080FM-12+013599999V0202901N001019999999N0100001N1-02171-02491103281ADDAY171061AY221061GF108991001001999999001061MD1510091+9999MW1021REMSYN066AAXX  05061 31594 41997 82901 11217 21249 40328 55009 70272 80006;
0112315940999992000010509004+49420+130080FM-12+013599999V0209999C000012200019N0160001N1-02441-02621103311ADDGF103991031001999999031001MD1010011+9999REMSYN060AAXX  05091 31594 42966 30000 11244 21262 40331 50001 83030;
0223315940999992000010512004+49420+130080FM-12+013599999V0201001N001010069019N0070001N1-02361-02551103331ADDAA112000591AY171061AY211061GA1051+006909059GF108991051051008001071999KA1120M-02021MA1999999101431MD1310021+9999MW1711REMSYN094AAXX  05121 31594 11557 81001 11236 21255 30143 40333 53002 69942 77171 8557/ 333 11202 85623;
0140315940999992000010515004+49420+130080FM-12+013599999V0201001N001019999999N0140001N1-02361-02551103261ADDAY171031AY221031GF108991081001999999071999MD1810071+9999MW1021REMSYN066AAXX  05151 31594 41964 81001 11236 21255 40326 58007 70272 8807/;
0150315940999992000010518004+49420+130080FM-12+013599999V0209999C000012200019N0170001N1-02771+99999103091ADDAY171061AY211061GA1001+999999999GF100991001001999999001001MD1710191+9999MW1021REMSYN060AAXX  05181 31594 41967 00000 11277 21234 40309 57019 70271;
0112315940999992000010521004+49420+130080FM-12+013599999V0209999C000019999999N0160001N1-02471-02591102771ADDGF108991001001999999001071MD1710291+9999REMSYN060AAXX  05211 31594 42966 80000 11247 21259 40277 57029 80007;
0159315940999992000010603004+49420+130080FM-12+013599999V0209999C000019999999N0020001N1-01851-01971101971ADDAY171031AY221031GF108991081001999999021999MD1710502+9999MW1731REMSYN066AAXX  06031 31594 41995 80000 11185 21197 40197 57050 77372 8802/;EQDQ01+000502APC3  
0140315940999992000010606004+49420+130080FM-12+013599999V0200701N003019999999N0040001N1-01421-01551101551ADDAY171061AY221061GF108991081001999999021999MD1710381+9999MW1711REMSYN066AAXX  06061 31594 41996 80703 11142 21155 40155 57038 77172 8802/;
0140315940999992000010609004+49420+130080FM-12+013599999V0201401N003019999999N0070001N1-00651-01061100951ADDAY171031AY221031GF108991081001999999021999MD1710541+9999MW1711REMSYN066AAXX  06091 31594 41957 81403 11065 21106 40095 57054 77172 8802/;
0223315940999992000010612004+49420+130080FM-12+013599999V0203501N002010051019N0029001N1-01171-01231100851ADDAA112002091AY171061AY221061GA1081+005109029GF108991081001004501021999KA1120M-00631MA1999999099091MD1710131+9999MW1731REMSYN094AAXX  06121 31594 11429 83502 11117 21123 39909 40085 57013 60022 77372 8802/ 333 11063 88517;
0185315940999992000010615004+49420+130080FM-12+013599999V0203601N999990042019N0018001N1-01061-01061100601ADDAY171031AY221031GA1081+004209029GF108991081001004501021999MD1710231+9999MW1731REMSYN076AAXX  06151 31594 41418 88602 11106 21106 40060 57023 77372 8802/ 333 88514;EQDQ01+010201WOSPD 
0167315940999992000010621004+49420+130080FM-12+013599999V0203001N006010042019N0017001N1-01661-01791100211ADDAY171031AY231031GF108991081001004501021011MD1710141+9999MW1731OA149901101REMSYN082AAXX  06211 31594 41417 83006 11166 21179 40021 57014 77373 88021 333 91111 92982;
0216315940999992000010700004+49420+130080FM-12+013599999V0202901N003010042019N0010001N1-01951-02071100121ADDAA112007991AJ100329199999999AY171061AY221061GF108991081001004501021999IA1239KA1120N-01981MA1999999098321MW1731REMSYN094AAXX  07001 31594 11494 82903 11195 21207 39832 40012 60082 77372 8802/ 333 21198 47032 91110;
0140315940999992000010703004+49420+130080FM-12+013599999V0202701N004010042019N0010001N1-01891-02011100061ADDAY171031AY231031GF108991081001004501021999MD1710061+9999MW1731REMSYN066AAXX  07031 31594 41494 82704 11189 21201 40006 57006 77373 8802/;
0150315940999992000010706004+49420+130080FM-12+013599999V0202401N005010042019N0010001N1-02021-02141100031ADDAY171061AY231061GF108991081001004501021999MD1610031+9999MW1731REMSYN076AAXX  07061 31594 41494 82405 11202 21214 40003 56003 77373 8802/ 333 91110;
0172315940999992000010709004+49420+130080FM-12+013599999V0202501N008010036019N0050001N1-02251-02501100141ADDAY171031AY231031GA1081+003609059GF108991081001004501021999MD1310091+9999MW1711REMSYN082AAXX  07091 31594 41450 82508 11225 21250 40014 53009 77173 8802/ 333 88512 91110;
0201315940999992000010712004+49420+130080FM-12+013599999V0202301N005019999999N0050001N1-02211-02331100241ADDAA112006191AY171061AY231061GF108991081001999999021999KA1999M-01881MA1999999098421MD1210101+9999MW1711REMSYN088AAXX  07121 31594 11950 82305 11221 21233 39842 40024 52010 60062 77173 8802/ 333 11188;
0140315940999992000010715004+49420+130080FM-12+013599999V0201701N006019999999N0050001N1-02271-02451100271ADDAY171031AY231031GF108991081001999999021999MD1210021+9999MW1711REMSYN066AAXX  07151 31594 41950 81706 11227 21245 40027 52002 77173 8802/;
0140315940999992000010718004+49420+130080FM-12+013599999V0201601N004019999999N0070001N1-02311-02491100331ADDAY171061AY231061GF108991081001999999021999MD1210061+9999MW1711REMSYN066AAXX  07181 31594 41957 81604 11231 21249 40033 52006 77173 8802/;
0150315940999992000010721004+49420+130080FM-12+013599999V0201101N003012200019N0120001N1-02331-02511100361ADDAY171031AY211031GA1001+999999999GF100991001001999999001001MD1210031+9999MW1011REMSYN060AAXX  07211 31594 41962 01103 11233 21251 40036 52003 70171;
0223315940999992000010800004+49420+130080FM-12+013599999V0201301N004012200019N0100001N1-02321-02501100471ADDAA100001091AY171061AY211061GA1001+999999999GF100991001001999999001001IA1239KA1120N-02351MA1999999098641MD1210111+9999MW1021REMSYN088AAXX  08001 31594 11997 01304 11232 21250 39864 40047 52011 69990 70271 333 21235 47035;
0122315940999992000010803004+49420+130080FM-12+013599999V0201201N003012200019N0200001N1-02161-02561100531ADDGA1001+999999999GF100991001001999999001001MD1210071+9999REMSYN054AAXX  08031 31594 42998 01203 11216 21256 40053 52007;
0112315940999992000010806004+49420+130080FM-12+013599999V0202501N002019999999N0200001N1-02021-02511100731ADDGF108991001001999999001011MD1210201+9999REMSYN060AAXX  08061 31594 42998 82502 11202 21251 40073 52020 80001;
0140315940999992000010809004+49420+130080FM-12+013599999V0209999C000019999999N0070001N1-02351-02671100861ADDAY171031AY221031GF108991081001999999021999MD1110111+9999MW1711REMSYN066AAXX  08091 31594 41957 80000 11235 21267 40086 51011 77172 8802/;
0201315940999992000010812004+49420+130080FM-12+013599999V0201601N002019999999N0060001N1-02261-02441100801ADDAA112000791AY171061AY221061GF108991001001999999001071KA1999M-01901MA1999999098961MD1810061+9999MW1711REMSYN088AAXX  08121 31594 11956 81602 11226 21244 39896 40080 58006 69902 77172 80007 333 11190;
0140315940999992000010815004+49420+130080FM-12+013599999V0201401N003019999999N0050001N1-02121-02301100831ADDAY171031AY221031GF108991081001999999021999MD1310041+9999MW1711REMSYN066AAXX  08151 31594 41950 81403 11212 21230 40083 53004 77172 8802/;
0140315940999992000010818004+49420+130080FM-12+013599999V0201501N001019999999N0070001N1-02071-02261100801ADDAY171061AY221061GF108991001001999999001071MD1810031+9999MW1711REMSYN066AAXX  08181 31594 41957 81501 11207 21226 40080 58003 77172 80007;
0140315940999992000010821004+49420+130080FM-12+013599999V0201301N002010042019N0028001N1-01951-02071101021ADDAY171031AY221031GF108991081001004501021999MD1310241+9999MW1731REMSYN066AAXX  08211 31594 41428 81302 11195 21207 40102 53024 77372 8802/;
0200315940999992000010900004+49420+130080FM-12+013599999V0201601N002019999999N0100001N1-01771-01891101261ADDAA112002091AY121061AY271061GF108991081001999999021999IA1239MA1999999099451MD1210241+9999MW1271REMSYN094AAXX  09001 31594 11997 81602 11177 21189 39945 40126 52024 60022 72727 8802/ 333 2/233 47036;
0140315940999992000010903004+49420+130080FM-12+013599999V0202601N004019999999N0200001N1-01531-01871101411ADDAY171031AY221031GF108991081001999999021999MD1210171+9999MW1221REMSYN066AAXX  09031 31594 41998 82604 11153 21187 40141 52017 72272 8802/;
0149315940999992000010909004+49420+130080FM-12+013599999V0202201N001019999999N0029001N1-01571-01701999999ADDAY171031AY221031GF108991081001999999021999MD1210181+9999ME1101679MW1731REMSYN066AAXX  09091 31594 41929 82201 11157 21170 41167 52018 77372 8802/;
0201315940999992000010912004+49420+130080FM-12+013599999V0201701N002019999999N0070001N1-01591-01721101791ADDAA112001091AY171061AY221061GF108991081001999999021999KA1999M-01401MA1999999099981MD1210121+9999MW1711REMSYN088AAXX  09121 31594 11957 81702 11159 21172 39998 40179 52012 60012 77172 8802/ 333 11140;
0140315940999992000010915004+49420+130080FM-12+013599999V0203401N003019999999N0028001N1-01751-01871101881ADDAY171031AY221031GF108991081001999999021999MD1210081+9999MW1731REMSYN066AAXX  09151 31594 41928 83403 11175 21187 40188 52008 77372 8802/;
0140315940999992000010918004+49420+130080FM-12+013599999V0209999C000019999999N0060001N1-01981-02101101981ADDAY171061AY221061GF108991001001999999001071MD1210091+9999MW1711REMSYN066AAXX  09181 31594 41956 80000 11198 21210 40198 52009 77172 80007;
0140315940999992000010921004+49420+130080FM-12+013599999V0200201N002019999999N0080001N1-02421-02551102131ADDAY171031AY221031GF108991001001999999001071MD1210111+9999MW1711REMSYN066AAXX  09211 31594 41958 80202 11242 21255 40213 52011 77172 80007;
0213315940999992000011000004+49420+130080FM-12+013599999V0203601N002012200019N0100001N1-02441-02561102371ADDAA100000591AY171061AY211061GF102991001001999999001011IA1239KA1120N-02441MA1999999100491MD1210231+9999MW1021REMSYN094AAXX  10001 31594 11997 23602 11244 21256 30049 40237 52023 69960 70271 80001 333 21244 47036;
0122315940999992000011003004+49420+130080FM-12+013599999V0203501N003012200019N0100001N1-02591-02711102571ADDGA1001+999999999GF100991001001999999001001MD1210191+9999REMSYN054AAXX  10031 31594 42997 03503 11259 21271 40257 52019;
0122315940999992000011006004+49420+130080FM-12+013599999V0203401N003012200019N0200001N1-02071-02321102691ADDGA1001+999999999GF100991001001999999001001MD1210071+9999REMSYN054AAXX  10061 31594 42998 03403 11207 21232 40269 52007;
0122315940999992000011009004+49420+130080FM-12+013599999V0200101N002012200019N0180001N1-02821-03001103011ADDGA1001+999999999GF100991001001999999001001MD1210341+9999REMSYN054AAXX  10091 31594 42968 00102 11282 21300 40301 52034;
0196315940999992000011012004+49420+130080FM-12+013599999V0200401N003012200019N0160001N1-02961-03071103201ADDAA106000091GA1001+999999999GF100991001001999999001001KA1999M-01571MA1999999101261MD1210171+9999REMSYN070AAXX  10121 31594 32966 00403 11296 21307 30126 40320 52017 333 11157;EQDQ01  00002PRCP06
0122315940999992000011015004+49420+130080FM-12+013599999V0209999C000012200019N0150001N1-03371-03531103321ADDGA1001+999999999GF100991001001999999001001MD1110081+9999REMSYN054AAXX  10151 31594 42965 00000 11337 21353 40332 51008;
0122315940999992000011018004+49420+130080FM-12+013599999V0209999C000012200019N0160001N1-03341-03501103361ADDGA1001+999999999GF100991001001999999001001MD1310051+9999REMSYN054AAXX  10181 31594 42966 00000 11334 21350 40336 53005;
0122315940999992000011021004+49420+130080FM-12+013599999V0209999C000012200019N0140001N1-03631-03781103471ADDGA1001+999999999GF100991001001999999001001MD1210091+9999REMSYN054AAXX  10211 31594 42964 00000 11363 21378 40347 52009;
0236315940999992000011100004+49420+130080FM-12+013599999V0209999C000012200019N0020001N1-03691-03851103601ADDAA106000091AY101061AY201061GA1001+999999999GF100991001001999999001001IA1239KA1120N-03871MA1999999101601MD1210121+9999MW1101REMSYN082AAXX  11001 31594 31995 00000 11369 21385 30160 40360 52012 71000 333 21387 47034;EQDQ01  00002PRCP06
0122315940999992000011103004+49420+130080FM-12+013599999V0209999C000012200019N0100001N1-03221-03391103661ADDGA1001+999999999GF100991001001999999001001MD1210101+9999REMSYN054AAXX  11031 31594 42997 00000 11322 21339 40366 52010;
0122315940999992000011106004+49420+130080FM-12+013599999V0203101N002012200019N0100001N1-02561-02811103581ADDGA1001+999999999GF100991001001999999001001MD1810031+9999REMSYN054AAXX  11061 31594 42997 03102 11256 21281 40358 58003;
0122315940999992000011109004+49420+130080FM-12+013599999V0203501N001012200019N0110001N1-02651-02831103591ADDGA1001+999999999GF100991001001999999001001MD1310011+9999REMSYN054AAXX  11091 31594 42961 03501 11265 21283 40359 53001;
0196315940999992000011112004+49420+130080FM-12+013599999V0209999C000012200019N0110001N1-03131-03301103691ADDAA106000091GA1001+999999999GF100991001001999999001001KA1999M-02401MA1999999101741MD1210061+9999REMSYN070AAXX  11121 31594 32961 00000 11313 21330 30174 40369 52006 333 11240;EQDQ01  00002PRCP06
0122315940999992000011115004+49420+130080FM-12+013599999V0201501N001012200019N0130001N1-03411-03581103591ADDGA1001+999999999GF100991001001999999001001MD1810131+9999REMSYN054AAXX  11151 31594 42963 01501 11341 21358 40359 58013;
0122315940999992000011118004+49420+130080FM-12+013599999V0209999C000012200019N0140001N1-03551-03711103451ADDGA1001+999999999GF100991001001999999001001MD1710151+9999REMSYN054AAXX  11181 31594 42964 00000 11355 21371 40345 57015;
0122315940999992000011121004+49420+130080FM-12+013599999V0209999C000012200019N0130001N1-03501-03671103261ADDGA1001+999999999GF100991001001999999001001MD1710181+9999REMSYN054AAXX  11211 31594 42963 00000 11350 21367 40326 57018;
0208315940999992000011200004+49420+130080FM-12+013599999V0209999C000012200019N0100001N1-03511-03671103121ADDAA106000091GA1001+999999999GF100991001001999999001001IA1239KA1120N-03771MA1999999101151MD1610131+9999REMSYN076AAXX  12001 31594 32997 00000 11351 21367 30115 40312 56013 333 21377 47034;EQDQ01  00002PRCP06
0122315940999992000011203004+49420+130080FM-12+013599999V0209999C000012200019N0100001N1-02761-02931102901ADDGA1001+999999999GF100991001001999999001001MD1710171+9999REMSYN054AAXX  12031 31594 42997 00000 11276 21293 40290 57017;
0122315940999992000011206004+49420+130080FM-12+013599999V0209999C000012200019N0200001N1-02531-02841102711ADDGA1001+999999999GF100991001001999999001001MD1710161+9999REMSYN054AAXX  12061 31594 42998 00000 11253 21284 40271 57016;
0122315940999992000011209004+49420+130080FM-12+013599999V0200201N001012200019N0140001N1-02981-03151102761ADDGA1001+999999999GF100991001001999999001001MD1310011+9999REMSYN054AAXX  12091 31594 42964 00201 11298 21315 40276 53001;
0196315940999992000011212004+49420+130080FM-12+013599999V0200101N001012200019N0120001N1-03101-03281102791ADDAA106000091GA1001+999999999GF100991001001999999001001KA1999M-02281MA1999999100851MD1110021+9999REMSYN070AAXX  12121 31594 32962 00101 11310 21328 30085 40279 51002 333 11228;EQDQ01  00002PRCP06
0122315940999992000011215004+49420+130080FM-12+013599999V0209999C000012200019N0150001N1-03251-03421102811ADDGA1001+999999999GF100991001001999999001001MD1410001+9999REMSYN054AAXX  12151 31594 42965 00000 11325 21342 40281 54000;
0122315940999992000011218004+49420+130080FM-12+013599999V0200401N001012200019N0150001N1-03561-03711102831ADDGA1001+999999999GF100991001001999999001001MD1410001+9999REMSYN054AAXX  12181 31594 42965 00401 11356 21371 40283 54000;
0122315940999992000011221004+49420+130080FM-12+013599999V0201501N001012200019N0130001N1-03891-04111102841ADDGA1001+999999999GF100991001001999999001001MD1810021+9999REMSYN054AAXX  12211 31594 42963 01501 11389 21411 40284 58002;
0236315940999992000011300004+49420+130080FM-12+013599999V0209999C000012200019N0020001N1-03981-04211102911ADDAA106000091AY101061AY201061GA1001+999999999GF100991001001999999001001IA1239KA1120N-04061MA1999999100891MD1310061+9999MW1101REMSYN082AAXX  13001 31594 31995 00000 11398 21421 30089 40291 53006 71000 333 21406 47034;EQDQ01  00002PRCP06
0150315940999992000011303004+49420+130080FM-12+013599999V0201801N002012200019N0040001N1-03181-03341102851ADDAY101031AY201031GA1001+999999999GF100991001001999999001001MD1010011+9999MW1101REMSYN060AAXX  13031 31594 41996 01802 11318 21334 40285 50001 71000;
0122315940999992000011306004+49420+130080FM-12+013599999V0203401N002012200019N0100001N1-02881-03121102821ADDGA1001+999999999GF100991001001999999001001MD1410001+9999REMSYN054AAXX  13061 31594 42997 03402 11288 21312 40282 54000;
0122315940999992000011309004+49420+130080FM-12+013599999V0203601N001012200019N0160001N1-03161-03321102931ADDGA1001+999999999GF100991001001999999001001MD1310081+9999REMSYN054AAXX  13091 31594 42966 03601 11316 21332 40293 53008;
0196315940999992000011312004+49420+130080FM-12+013599999V0209999C000012200019N0150001N1-03321-03501102971ADDAA106000091GA1001+999999999GF100991001001999999001001KA1999M-02761MA1999999101011MD1210031+9999REMSYN070AAXX  13121 31594 32965 00000 11332 21350 30101 40297 52003 333 11276;EQDQ01  00002PRCP06
0122315940999992000011315004+49420+130080FM-12+013599999V0209999C000012200019N0140001N1-03551-03711103041ADDGA1001+999999999GF100991001001999999001001MD1210051+9999REMSYN054AAXX  13151 31594 42964 00000 11355 21371 40304 52005;
0122315940999992000011318004+49420+130080FM-12+013599999V0209999C000012200019N0170001N1-03871-04011103121ADDGA1001+999999999GF100991001001999999001001MD1210051+9999REMSYN054AAXX  13181 31594 42967 00000 11387 21401 40312 52005;
0126315940999992000011321004+49420+130080FM-12+013599999V0209999C000012200019N0100001N1-03931-04161103061ADDGA1001+999999999GF100991001001999999001001MD1210031+9999REMSYN058    AAXX  13211 31594 42960 00000 11393 21416 40306 52003;
0257315940999992000011400004+49420+130080FM-12+013599999V0209999C000012200019N0040001N1-03901-04111103191ADDAA199000091AJ100349199999999AY101061AY201061GA1001+999999999GF100991001001999999001001IA1239KA1120N-04041MA1999999101181MD1210041+9999MW1101REMSYN086    AAXX  14001 31594 31996 00000 11390 21411 30118 40319 52004 71000 333 21404 47034;EQDQ01  00002PRCP99
0154315940999992000011403004+49420+130080FM-12+013599999V0209999C000012200019N0040001N1-03091-03321103091ADDAY101031AY201031GA1001+999999999GF100991001001999999001001MD1810031+9999MW1101REMSYN064    AAXX  14031 31594 41996 00000 11309 21332 40309 58003 71000;
0126315940999992000011406004+49420+130080FM-12+013599999V0202701N001012200019N0100001N1-02871-03251103051ADDGA1001+999999999GF100991001001999999001001MD1710021+9999REMSYN058    AAXX  14061 31594 42997 02701 11287 21325 40305 57002;
0126315940999992000011409004+49420+130080FM-12+013599999V0200201N001012200019N0140001N1-03051-03271103141ADDGA1001+999999999GF100991001001999999001001MD1310071+9999REMSYN058    AAXX  14091 31594 42964 00201 11305 21327 40314 53007;
0200315940999992000011412004+49420+130080FM-12+013599999V0209999C000012200019N0120001N1-03271-03441103241ADDAA199000091GA1001+999999999GF100991001001999999001001KA1999M-02861MA1999999101271MD1210071+9999REMSYN074    AAXX  14121 31594 32962 00000 11327 21344 30127 40324 52007 333 11286;EQDQ01  00002PRCP99
0126315940999992000011415004+49420+130080FM-12+013599999V0209999C000012200019N0130001N1-03611-03781103311ADDGA1001+999999999GF100991001001999999001001MD1010051+9999REMSYN058    AAXX  14151 31594 42963 00000 11361 21378 40331 50005;
0126315940999992000011418004+49420+130080FM-12+013599999V0209999C000012200019N0150001N1-03551-03711103361ADDGA1001+999999999GF100991001001999999001001MD1310051+9999REMSYN058    AAXX  14181 31594 42965 00000 11355 21371 40336 53005;
0126315940999992000011421004+49420+130080FM-12+013599999V0209999C000012200019N0170001N1-03751-03991103381ADDGA1001+999999999GF100991001001999999001001MD1410001+9999REMSYN058    AAXX  14211 31594 42967 00000 11375 21399 40338 54000;
0247315940999992000011500004+49420+130080FM-12+013599999V0209999C000019999999N0040001N1-03691-03901103461ADDAA199000091AJ100349199999999AY111061AY211061GF108991001001999999001011IA1239KA1120N-03891MA1999999101461MD1310091+9999MW1101REMSYN092    AAXX  15001 31594 31996 80000 11369 2139/ 30146 40346 53009 71011 80001 333 21389 47034;EQDQ01  00002PRCP99
0116315940999992000011503004+49420+130080FM-12+013599999V0200101N001019999999N0100001N1-03001-03171103441ADDGF108991001001999999001011MD1110041+9999REMSYN064    AAXX  15031 31594 42997 80101 11300 21317 40344 51004 80001;
0116315940999992000011506004+49420+130080FM-12+013599999V0202401N002019999999N0200001N1-02721-03031103251ADDGF108991001001999999001011MD1810171+9999REMSYN064    AAXX  15061 31594 42998 82402 11272 21303 40325 58017 80001;
0116315940999992000011509004+49420+130080FM-12+013599999V0209999C000019999999N0160001N1-03011-03251103281ADDGF108991001001999999001011MD1310011+9999REMSYN064    AAXX  15091 31594 42966 80000 11301 21325 40328 53001 80001;
0190315940999992000011512004+49420+130080FM-12+013599999V0209999C000012200019N0140001N1-03471-03701103351ADDAA199000091GF102991001001999999001011KA1999M-02651MA1999999101371MD1210031+9999REMSYN080    AAXX  15121 31594 32964 20000 11347 21370 30137 40335 52003 80001 333 11265;EQDQ01  00002PRCP99
0116315940999992000011515004+49420+130080FM-12+013599999V0200101N001019999999N0130001N1-03511-03671103361ADDGF108991001001999999001011MD1210011+9999REMSYN064    AAXX  15151 31594 42963 80101 11351 21367 40336 52001 80001;
0126315940999992000011518004+49420+130080FM-12+013599999V0209999C000012200019N0100001N1-03741-03881103411ADDGA1001+999999999GF100991001001999999001001MD1210031+9999REMSYN058    AAXX  15181 31594 42960 00000 11374 21388 40341 52003;
0126315940999992000011521004+49420+130080FM-12+013599999V0209999C000012200019N0100001N1-03751-03991103421ADDGA1001+999999999GF100991001001999999001001MD1410001+9999REMSYN058    AAXX  15211 31594 42960 00000 11375 21399 40342 54000;
0247315940999992000011600004+49420+130080FM-12+013599999V0200201N001012200019N0040001N1-03481-03641103451ADDAA199000091AJ100349199999999AY101061AY201061GF102991001001999999001011IA1239KA1120N-04061MA1999999101471MD1210061+9999MW1101REMSYN092    AAXX  16001 31594 31996 20201 11348 21364 30147 40345 52006 71000 80001 333 21406 47034;EQDQ01  00002PRCP99
0126315940999992000011603004+49420+130080FM-12+013599999V0203501N002012200019N0100001N1-03141-03301103361ADDGA1001+999999999GF100991001001999999001001MD1810061+9999REMSYN058    AAXX  16031 31594 42997 03502 11314 21330 40336 58006;
0126315940999992000011606004+49420+130080FM-12+013599999V0203301N002012200019N0100001N1-02701-02941103251ADDGA1001+999999999GF100991001001999999001001MD1710081+9999REMSYN058    AAXX  16061 31594 42997 03302 11270 21294 40325 57008;
0126315940999992000011609004+49420+130080FM-12+013599999V0200401N001012200019N0100001N1-02841-03021103271ADDGA1001+999999999GF100991001001999999001001MD1310011+9999REMSYN058    AAXX  16091 31594 42960 00401 11284 21302 40327 53001;
0200315940999992000011612004+49420+130080FM-12+013599999V0200201N001012200019N0120001N1-03291-03441103261ADDAA199000091GA1001+999999999GF100991001001999999001001KA1999M-02661MA1999999101291MD1810051+9999REMSYN074    AAXX  16121 31594 32962 00201 11329 21344 30129 40326 58005 333 11266;EQDQ01  00002PRCP99
0126315940999992000011615004+49420+130080FM-12+013599999V0209999C000012200019N0110001N1-03441-03611103241ADDGA1001+999999999GF100991001001999999001001MD1710031+9999REMSYN058    AAXX  16151 31594 42961 00000 11344 21361 40324 57003;
0126315940999992000011618004+49420+130080FM-12+013599999V0201601N001012200019N0130001N1-03511-03671103231ADDGA1001+999999999GF100991001001999999001001MD1310011+9999REMSYN058    AAXX  16181 31594 42963 01601 11351 21367 40323 53001;
0126315940999992000011621004+49420+130080FM-12+013599999V0201501N001012200019N0100001N1-03811-03971103261ADDGA1001+999999999GF100991001001999999001001MD1410001+9999REMSYN058    AAXX  16211 31594 42960 01501 11381 21397 40326 54000;
0257315940999992000011700004+49420+130080FM-12+013599999V0209999C000012200019N0020001N1-03681-03851103231ADDAA199000091AJ100349199999999AY101061AY201061GA1001+999999999GF100991001001999999001001IA1239KA1120N-03881MA1999999101241MD1510011+9999MW1101REMSYN086    AAXX  17001 31594 31995 00000 11368 21385 30124 40323 55001 71000 333 21388 47034;EQDQ01  00002PRCP99
0144315940999992000011703004+49420+130080FM-12+013599999V0209999C000012200019N0040001N1-02881-03121103121ADDAY101031AY201031GF102991001001999999001011MD1810041+9999MW1101REMSYN070    AAXX  17031 31594 41996 20000 11288 21312 40312 58004 71000 80001;
0144315940999992000011706004+49420+130080FM-12+013599999V0203501N002019999999N0100001N1-02781-03031103061ADDAY171061AY211061GF108991001001999999001071MD1710061+9999MW1221REMSYN070    AAXX  17061 31594 41997 83502 11278 21303 40306 57006 72271 80007;
0126315940999992000011709004+49420+130080FM-12+013599999V0200401N002012200019N0180001N1-03031-03211103081ADDGA1001+999999999GF100991001001999999001001MD1310011+9999REMSYN058    AAXX  17091 31594 42968 00402 11303 21321 40308 53001;
0187315940999992000011712004+49420+130080FM-12+013599999V0209999C000012200019N0110001N1-03401-03551103141ADDAA100000791GA1001+999999999GF100991001001999999001001KA1999M-02661MA1999999101171MD1210021+9999REMSYN080    AAXX  17121 31594 12961 00000 11340 21355 30117 40314 52002 69900 333 11266;
0126315940999992000011715004+49420+130080FM-12+013599999V0209999C000012200019N0120001N1-03501-03671103161ADDGA1001+999999999GF100991001001999999001001MD1210021+9999REMSYN058    AAXX  17151 31594 42962 00000 11350 21367 40316 52002;
0126315940999992000011718004+49420+130080FM-12+013599999V0209999C000012200019N0110001N1-03711-03951103161ADDGA1001+999999999GF100991001001999999001001MD1810021+9999REMSYN058    AAXX  17181 31594 42961 00000 11371 21395 40316 58002;
0126315940999992000011721004+49420+130080FM-12+013599999V0209999C000012200019N0100001N1-03851-04071103121ADDGA1001+999999999GF100991001001999999001001MD1710061+9999REMSYN058    AAXX  17211 31594 42960 00000 11385 21407 40312 57006;
0257315940999992000011800004+49420+130080FM-12+013599999V0209999C000012200019N0040001N1-03941-04161103121ADDAA199000091AJ100339199999999AY101061AY201061GA1001+999999999GF100991001001999999001001IA1239KA1120N-03941MA1999999101111MD1410001+9999MW1101REMSYN086    AAXX  18001 31594 31996 00000 11394 21416 30111 40312 54000 71000 333 21394 47033;EQDQ01  00002PRCP99
0154315940999992000011803004+49420+130080FM-12+013599999V0209999C000012200019N0040001N1-03451-03671103091ADDAY101031AY201031GA1001+999999999GF100991001001999999001001MD1310011+9999MW1101REMSYN064    AAXX  18031 31594 41996 00000 11345 21367 40309 53001 71000;
0115315940999992000011806004+49420+130080FM-12+013599999V0200201N001012200019N0100001N1-02521-02841999999ADDGA1001+999999999GF100991001001999999001001ME1552049REMSYN052    AAXX  18061 31594 42997 00201 11252 21284 45204;
0116315940999992000011809004+49420+130080FM-12+013599999V0209999C000019999999N0110001N1-03291-03441102961ADDGF108991001001999999001011MD1710161+9999REMSYN064    AAXX  18091 31594 42961 80000 11329 21344 40296 57016 80001;
0200315940999992000011812004+49420+130080FM-12+013599999V0209999C000012200019N0120001N1-03511-03671102891ADDAA199000091GA1001+999999999GF100991001001999999001001KA1999M-02511MA1999999100921MD1710081+9999REMSYN074    AAXX  18121 31594 32962 00000 11351 21367 30092 40289 57008 333 11251;EQDQ01  00002PRCP99
0126315940999992000011815004+49420+130080FM-12+013599999V0209999C000012200019N0140001N1-03651-03811102901ADDGA1001+999999999GF100991001001999999001001MD1610011+9999REMSYN058    AAXX  18151 31594 42964 00000 11365 21381 40290 56001;
0116315940999992000011818004+49420+130080FM-12+013599999V0209999C000012200019N0120001N1-03741-03951102891ADDGF103991001001999999001011MD1810011+9999REMSYN064    AAXX  18181 31594 42962 30000 11374 21395 40289 58001 80001;
0116315940999992000011821004+49420+130080FM-12+013599999V0209999C000012200019N0100001N1-03901-04111102861ADDGF102991001001999999001011MD1710051+9999REMSYN064    AAXX  18211 31594 42960 20000 11390 21411 40286 57005 80001;
0247315940999992000011900004+49420+130080FM-12+013599999V0209999C000019999999N0040001N1-04031-04261103061ADDAA199000091AJ100339199999999AY111061AY211061GF106991001001999999001011IA1239KA1120N-04031MA1999999101041MD1310191+9999MW1101REMSYN092    AAXX  19001 31594 31996 60000 11403 21426 30104 40306 53019 71011 80001 333 21403 47033;EQDQ01  00002PRCP99
0144315940999992000011903004+49420+130080FM-12+013599999V0209999C000012200019N0040001N1-03401-03611103021ADDAY111031AY211031GF102991001001999999001011MD1110011+9999MW1101REMSYN070    AAXX  19031 31594 41996 20000 11340 21361 40302 51001 71011 80001;
0116315940999992000011906004+49420+130080FM-12+013599999V0203001N002012200019N0200001N1-02921-03221102881ADDGF102991001001999999001011MD1810091+9999REMSYN064    AAXX  19061 31594 42998 23002 11292 21322 40288 58009 80001;
0116315940999992000011909004+49420+130080FM-12+013599999V0203501N002012200019N0150001N1-03361-03591102941ADDGF102991001001999999001011MD1310011+9999REMSYN064    AAXX  19091 31594 42965 23502 11336 21359 40294 53001 80001;
0200315940999992000011912004+49420+130080FM-12+013599999V0200101N001012200019N0200001N1-03441-03671103041ADDAA199000091GA1001+999999999GF100991001001999999001001KA1999M-02871MA1999999101071MD1210101+9999REMSYN074    AAXX  19121 31594 32970 00101 11344 21367 30107 40304 52010 333 11287;EQDQ01  00002PRCP99
0122315940999992000011915004+49420+130080FM-12+013599999V0209999C000012200019N0170001N1-03571-03741103141ADDGA1001+999999999GF100991001001999999001001MD1210091+9999REMSYN054AAXX  19151 31594 42967 00000 11357 21374 40314 52009;
0122315940999992000011918004+49420+130080FM-12+013599999V0200201N001012200019N0160001N1-03591-03741103211ADDGA1001+999999999GF100991001001999999001001MD1210071+9999REMSYN054AAXX  19181 31594 42966 00201 11359 21374 40321 52007;
0112315940999992000011921004+49420+130080FM-12+013599999V0209999C000012200019N0150001N1-03851-04071103351ADDGF102991001001999999001011MD1210101+9999REMSYN060AAXX  19211 31594 42965 20000 11385 21407 40335 52010 80001;
0243315940999992000012000004+49420+130080FM-12+013599999V0209999C000012200019N0040001N1-03611-03841103461ADDAA199000091AJ100339199999999AY101061AY201061GF102991001001999999001011IA1239KA1120N-03991MA1999999101471MD1210141+9999MW1101REMSYN088AAXX  20001 31594 31996 20000 11361 21384 30147 40346 52014 71000 80001 333 21399 47033;EQDQ01  00002PRCP99
0080315940999992000012003004+49420+130080FM-12+013599999V0209999C000019999999N0100001N1-03241+99999103521ADDMD1210081+9999REMSYN054AAXX  20031 31594 42997 /0000 11324 2348/ 40352 52008;
0122315940999992000012006004+49420+130080FM-12+013599999V0203501N002012200019N0100001N1-02971-03281103451ADDGA1001+999999999GF100991001001999999001001MD1810041+9999REMSYN054AAXX  20061 31594 12997 03502 11297 21328 40345 58004;
0122315940999992000012009004+49420+130080FM-12+013599999V0209999C000012200019N0120001N1-03231-03461103561ADDGA1001+999999999GF100991001001999999001001MD1310091+9999REMSYN054AAXX  20091 31594 42962 00000 11323 21346 40356 53009;
0196315940999992000012012004+49420+130080FM-12+013599999V0201601N001012200019N0140001N1-03321-03561103561ADDAA199000091GA1001+999999999GF100991001001999999001001KA1999M-02911MA1999999101591MD1810011+9999REMSYN070AAXX  20121 31594 32964 01601 11332 21356 30159 40356 58001 333 11291;EQDQ01  00002PRCP99
0122315940999992000012015004+49420+130080FM-12+013599999V0201601N001012200019N0160001N1-03461-03611103641ADDGA1001+999999999GF100991001001999999001001MD1310071+9999REMSYN054AAXX  20151 31594 42966 01601 11346 21361 40364 53007;
0122315940999992000012018004+49420+130080FM-12+013599999V0209999C000012200019N0130001N1-03651-03811103701ADDGA1001+999999999GF100991001001999999001001MD1210041+9999REMSYN054AAXX  20181 31594 42963 00000 11365 21381 40370 52004;
0122315940999992000012021004+49420+130080FM-12+013599999V0209999C000012200019N0130001N1-03911-04011103721ADDGA1001+999999999GF100991001001999999001001MD1410001+9999REMSYN054AAXX  20211 31594 42963 00000 11391 21401 40372 54000;
0253315940999992000012100004+49420+130080FM-12+013599999V0209999C000012200019N0040001N1-03861-04071103711ADDAA199000091AJ100339199999999AY101061AY201061GA1001+999999999GF100991001001999999001001IA1239KA1120N-04071MA1999999101691MD1810011+9999MW1101REMSYN082AAXX  21001 31594 31996 00000 11386 21407 30169 40371 58001 71000 333 21407 47033;EQDQ01  00002PRCP99
0157315940999992000012103004+49420+130080FM-12+013599999V0201501N002012200019N0100001N1-02572-02882103551ADDGA1001+999999999GF100991001001999999001001MD1710051+9999REMSYN054AAXX  21031 31594 42997 01502 11257 21288 40355 57005;EQDQ01-002573ATOT  Q02-002883ATOD  
0122315940999992000012106004+49420+130080FM-12+013599999V0201601N002012200019N0100001N1-02161-02561103381ADDGA1001+999999999GF100991001001999999001001MD1710141+9999REMSYN054AAXX  21061 31594 42997 01602 11216 21256 40338 57014;
0112315940999992000012109004+49420+130080FM-12+013599999V0201201N001012200019N0140001N1-02451-02771103351ADDGF102991001001999999001011MD1710051+9999REMSYN060AAXX  21091 31594 42964 21201 11245 21277 40335 57005 80001;
0186315940999992000012112004+49420+130080FM-12+013599999V0209999C000012200019N0170001N1-02821-03001103351ADDAA199000091GF103991001001999999001091KA1999M-02151MA1999999101421MD1510031+9999REMSYN076AAXX  21121 31594 32967 30000 11282 21300 30142 40335 55003 80009 333 11215;EQDQ01  00002PRCP99
0112315940999992000012115004+49420+130080FM-12+013599999V0209999C000019999999N0130001N1-02921-03091103381ADDGF108991001001999999001011MD1210031+9999REMSYN060AAXX  21151 31594 42963 80000 11292 21309 40338 52003 80001;
0112315940999992000012118004+49420+130080FM-12+013599999V0209999C000012200019N0140001N1-03021-03191103411ADDGF102991001001999999001011MD1210021+9999REMSYN060AAXX  21181 31594 42964 20000 11302 21319 40341 52002 80001;
0122315940999992000012121004+49420+130080FM-12+013599999V0209999C000012200019N0150001N1-03241-03421103401ADDGA1001+999999999GF100991001001999999001001MD1710031+9999REMSYN054AAXX  21211 31594 42965 00000 11324 21342 40340 57003;
0225315940999992000012200004+49420+130080FM-12+013599999V0209999C000012200019N0100001N1-03641-03871103441ADDAA199000091AJ100339199999999GA1001+999999999GF100991001001999999001001IA1239KA1120N-03711MA1999999101451MD1310011+9999REMSYN076AAXX  22001 31594 32997 00000 11364 21387 30145 40344 53001 333 21371 47033;EQDQ01  00002PRCP99
0157315940999992000012203004+49420+130080FM-12+013599999V0209999C000012200019N0100001N1-02472-02712103391ADDGA1001+999999999GF100991001001999999001001MD1210041+9999REMSYN054AAXX  22031 31594 42997 00000 11247 21271 40339 52004;EQDQ01-002473ATOT  Q02-002713ATOD  
0122315940999992000012206004+49420+130080FM-12+013599999V0203201N002012200019N0200001N1-02371-02841103251ADDGA1001+999999999GF100991001001999999001001MD1710131+9999REMSYN054AAXX  22061 31594 42998 03202 11237 21284 40325 57013;
0122315940999992000012209004+49420+130080FM-12+013599999V0200201N002012200019N0100001N1-02791-03031103201ADDGA1001+999999999GF100991001001999999001001MD1710091+9999REMSYN054AAXX  22091 31594 42960 00202 11279 21303 40320 57009;
0196315940999992000012212004+49420+130080FM-12+013599999V0200101N002012200019N0120001N1-03521-03671103341ADDAA199000091GA1001+999999999GF100991001001999999001001KA1999M-02351MA1999999101361MD1310091+9999REMSYN070AAXX  22121 31594 32962 00102 11352 21367 30136 40334 53009 333 11235;EQDQ01  00002PRCP99
0122315940999992000012215004+49420+130080FM-12+013599999V0203601N003012200019N0140001N1-03301-03471103271ADDGA1001+999999999GF100991001001999999001001MD1810061+9999REMSYN054AAXX  22151 31594 42964 03603 11330 21347 40327 58006;
0122315940999992000012218004+49420+130080FM-12+013599999V0200201N002012200019N0130001N1-03541-03711103311ADDGA1001+999999999GF100991001001999999001001MD1310031+9999REMSYN054AAXX  22181 31594 42963 00202 11354 21371 40331 53003;
0122315940999992000012221004+49420+130080FM-12+013599999V0200301N002012200019N0110001N1-03641-03811103291ADDGA1001+999999999GF100991001001999999001001MD1810031+9999REMSYN054AAXX  22211 31594 42961 00302 11364 21381 40329 58003;
0253315940999992000012300004+49420+130080FM-12+013599999V0200101N001012200019N0020001N1-03841-04071103391ADDAA199000091AJ100339199999999AY101061AY201061GA1001+999999999GF100991001001999999001001IA1239KA1120N-03901MA1999999101381MD1310081+9999MW1101REMSYN082AAXX  23001 31594 31995 00101 11384 21407 30138 40339 53008 71000 333 21390 47033;EQDQ01  00002PRCP99
0122315940999992000012303004+49420+130080FM-12+013599999V0203401N002012200019N0200001N1-03231-03461103381ADDGA1001+999999999GF100991001001999999001001MD1110041+9999REMSYN054AAXX  23031 31594 42998 03402 11323 21346 40338 51004;
0122315940999992000012306004+49420+130080FM-12+013599999V0203101N004012200019N0200001N1-02751-02991103251ADDGA1001+999999999GF100991001001999999001001MD1810091+9999REMSYN054AAXX  23061 31594 42998 03104 11275 21299 40325 58009;
0122315940999992000012309004+49420+130080FM-12+013599999V0203201N004012200019N0180001N1-02931-03241103361ADDGA1001+999999999GF100991001001999999001001MD1310101+9999REMSYN054AAXX  23091 31594 42968 03204 11293 21324 40336 53010;
0196315940999992000012312004+49420+130080FM-12+013599999V0203601N002012200019N0150001N1-03281-03441103451ADDAA199000091GA1001+999999999GF100991001001999999001001KA1999M-02611MA1999999101481MD1210051+9999REMSYN070AAXX  23121 31594 32965 03602 11328 21344 30148 40345 52005 333 11261;EQDQ01  00002PRCP99
0122315940999992000012315004+49420+130080FM-12+013599999V0203601N001012200019N0150001N1-03441-03611103371ADDGA1001+999999999GF100991001001999999001001MD1810091+9999REMSYN054AAXX  23151 31594 42965 03601 11344 21361 40337 58009;
0122315940999992000012318004+49420+130080FM-12+013599999V0200101N002012200019N0170001N1-03581-03741103361ADDGA1001+999999999GF100991001001999999001001MD1710021+9999REMSYN054AAXX  23181 31594 42967 00102 11358 21374 40336 57002;
0122315940999992000012321004+49420+130080FM-12+013599999V0209999C000012200019N0110001N1-03981-04211103371ADDGA1001+999999999GF100991001001999999001001MD1710031+9999REMSYN054AAXX  23211 31594 42961 00000 11398 21421 40337 57003;
0253315940999992000012400004+49420+130080FM-12+013599999V0200201N002012200019N0020001N1-03911-04111103421ADDAA199000091AJ100329199999999AY101061AY201061GA1001+999999999GF100991001001999999001001IA1239KA1120N-04101MA1999999101401MD1310061+9999MW1101REMSYN082AAXX  24001 31594 31995 00202 11391 21411 30140 40342 53006 71000 333 21410 47032;EQDQ01  00002PRCP99
0122315940999992000012403004+49420+130080FM-12+013599999V0203401N003012200019N0100001N1-03301-03531103371ADDGA1001+999999999GF100991001001999999001001MD1010001+9999REMSYN054AAXX  24031 31594 42997 03403 11330 21353 40337 50000;
0122315940999992000012406004+49420+130080FM-12+013599999V0203501N003012200019N0200001N1-02871-03151103271ADDGA1001+999999999GF100991001001999999001001MD1710061+9999REMSYN054AAXX  24061 31594 42998 03503 11287 21315 40327 57006;
0122315940999992000012409004+49420+130080FM-12+013599999V0203401N003012200019N0170001N1-02931-03171999999ADDGA1001+999999999GF100991001001999999001001MD1310011+9999REMSYN054AAXX  24091 31594 42967 03403 11293 21317 43128 53001;
0196315940999992000012412004+49420+130080FM-12+013599999V0203501N002012200019N0160001N1-03241-03481103261ADDAA199000091GA1001+999999999GF100991001001999999001001KA1999M-02811MA1999999101301MD1810051+9999REMSYN070AAXX  24121 31594 32966 03502 11324 21348 30130 40326 58005 333 11281;EQDQ01  00002PRCP99
0122315940999992000012415004+49420+130080FM-12+013599999V0200301N002012200019N0150001N1-03461-03671103191ADDGA1001+999999999GF100991001001999999001001MD1710081+9999REMSYN054AAXX  24151 31594 42965 00302 11346 21367 40319 57008;
0122315940999992000012418004+49420+130080FM-12+013599999V0209999C000012200019N0130001N1-03751-03931103091ADDGA1001+999999999GF100991001001999999001001MD1710131+9999REMSYN054AAXX  24181 31594 42963 00000 11375 21393 40309 57013;
0122315940999992000012421004+49420+130080FM-12+013599999V0209999C000012200019N0100001N1-03791-04031102921ADDGA1001+999999999GF100991001001999999001001MD1710111+9999REMSYN054AAXX  24211 31594 42960 00000 11379 21403 40292 57011;
0253315940999992000012500004+49420+130080FM-12+013599999V0200501N003012200019N0040001N1-03521-03741102871ADDAA199000091AJ100329199999999AY101061AY201061GA1001+999999999GF100991001001999999001001IA1239KA1120N-03991MA1999999100901MD1510021+9999MW1101REMSYN082AAXX  25001 31594 31996 00503 11352 21374 30090 40287 55002 71000 333 21399 47032;EQDQ01  00002PRCP99
0122315940999992000012503004+49420+130080FM-12+013599999V0203001N002012200019N0100001N1-02931-03241102811ADDGA1001+999999999GF100991001001999999001001MD1810011+9999REMSYN054AAXX  25031 31594 42997 03002 11293 21324 40281 58001;
0122315940999992000012506004+49420+130080FM-12+013599999V0203401N004012200019N0200001N1-02461-02771102771ADDGA1001+999999999GF100991001001999999001001MD1610011+9999REMSYN054AAXX  25061 31594 42998 03404 11246 21277 40277 56001;
0122315940999992000012509004+49420+130080FM-12+013599999V0203501N003012200019N0220001N1-02641-02881102861ADDGA1001+999999999GF100991001001999999001001MD1310081+9999REMSYN054AAXX  25091 31594 42972 03503 11264 21288 40286 53008;
0196315940999992000012512004+49420+130080FM-12+013599999V0203601N004012200019N0210001N1-02661-02771102951ADDAA199000091GA1001+999999999GF100991001001999999001001KA1999M-02351MA1999999101041MD1210081+9999REMSYN070AAXX  25121 31594 32971 03604 11266 21277 30104 40295 52008 333 11235;EQDQ01  00002PRCP99
0112315940999992000012515004+49420+130080FM-12+013599999V0203401N003019999999N0230001N1-02771-02881103021ADDGF106991001001999999001011MD1210061+9999REMSYN060AAXX  25151 31594 42973 63403 11277 21288 40302 52006 80001;
0122315940999992000012518004+49420+130080FM-12+013599999V0209999C000012200019N0220001N1-02761-02931103081ADDGA1001+999999999GF100991001001999999001001MD1210061+9999REMSYN054AAXX  25181 31594 42972 00000 11276 21293 40308 52006;
0122315940999992000012521004+49420+130080FM-12+013599999V0200901N001012200019N0200001N1-03501-03671103281ADDGA1001+999999999GF100991001001999999001001MD1210141+9999REMSYN054AAXX  25211 31594 42970 00901 11350 21367 40328 52014;
0225315940999992000012600004+49420+130080FM-12+013599999V0209999C000012200019N0100001N1-03481-03641103441ADDAA199000091AJ100329199999999GA1001+999999999GF100991001001999999001001IA1239KA1120N-03641MA1999999101461MD1210161+9999REMSYN076AAXX  26001 31594 32997 00000 11348 21364 30146 40344 52016 333 21364 47032;EQDQ01  00002PRCP99
0122315940999992000012603004+49420+130080FM-12+013599999V0200101N001012200019N0100001N1-02791-03031103331ADDGA1001+999999999GF100991001001999999001001MD1710061+9999REMSYN054AAXX  26031 31594 42997 00101 11279 21303 40333 57006;
0122315940999992000012606004+49420+130080FM-12+013599999V0203101N001012200019N0100001N1-02101-02501103211ADDGA1001+999999999GF100991001001999999001001MD1710061+9999REMSYN054AAXX  26061 31594 42997 03101 11210 21250 40321 57006;
0122315940999992000012609004+49420+130080FM-12+013599999V0201701N001012200019N0150001N1-02531-02841103271ADDGA1001+999999999GF100991001001999999001001MD1310031+9999REMSYN054AAXX  26091 31594 42965 01701 11253 21284 40327 53003;
0196315940999992000012612004+49420+130080FM-12+013599999V0201501N002012200019N0180001N1-02531-02771103241ADDAA199000091GA1001+999999999GF100991001001999999001001KA1999M-02001MA1999999101341MD1810031+9999REMSYN070AAXX  26121 31594 32968 01502 11253 21277 30134 40324 58003 333 11200;EQDQ01  00002PRCP99
0122315940999992000012615004+49420+130080FM-12+013599999V0209999C000012200019N0160001N1-03201-03371103161ADDGA1001+999999999GF100991001001999999001001MD1710131+9999REMSYN054AAXX  26151 31594 42966 00000 11320 21337 40316 57013;
0122315940999992000012618004+49420+130080FM-12+013599999V0209999C000012200019N0140001N1-03171-03341103041ADDGA1001+999999999GF100991001001999999001001MD1710121+9999REMSYN054AAXX  26181 31594 42964 00000 11317 21334 40304 57012;
0122315940999992000012621004+49420+130080FM-12+013599999V0201401N002012200019N0150001N1-03311-03471102901ADDGA1001+999999999GF100991001001999999001001MD1710151+9999REMSYN054AAXX  26211 31594 42965 01402 11331 21347 40290 57015;
0225315940999992000012700004+49420+130080FM-12+013599999V0201301N001012200019N0200001N1-03261-03421102861ADDAA199000091AJ100319199999999GA1001+999999999GF100991001001999999001001IA1239KA1120N-03381MA1999999100901MD1710041+9999REMSYN076AAXX  27001 31594 32998 01301 11326 21342 30090 40286 57004 333 21338 47031;EQDQ01  00002PRCP99
0122315940999992000012703004+49420+130080FM-12+013599999V0201401N002012200019N0200001N1-02551-02801102721ADDGA1001+999999999GF100991001001999999001001MD1710071+9999REMSYN054AAXX  27031 31594 42998 01402 11255 21280 40272 57007;
0122315940999992000012706004+49420+130080FM-12+013599999V0203601N003012200019N0200001N1-01711-02131102561ADDGA1001+999999999GF100991001001999999001001MD1710101+9999REMSYN054AAXX  27061 31594 42998 03603 11171 21213 40256 57010;
0122315940999992000012709004+49420+130080FM-12+013599999V0203501N002012200019N0220001N1-02271-02671102531ADDGA1001+999999999GF100991001001999999001001MD1710071+9999REMSYN054AAXX  27091 31594 42972 03502 11227 21267 40253 57007;
0196315940999992000012712004+49420+130080FM-12+013599999V0209999C000012200019N0200001N1-02351-02601102711ADDAA199000091GA1001+999999999GF100991001001999999001001KA1999M-01651MA1999999100831MD1310171+9999REMSYN070AAXX  27121 31594 32970 00000 11235 21260 30083 40271 53017 333 11165;EQDQ01  00002PRCP99
0122315940999992000012718004+49420+130080FM-12+013599999V0201301N001012200019N0170001N1-02721-02901102811ADDGA1001+999999999GF100991001001999999001001MD1110021+9999REMSYN054AAXX  27181 31594 42967 01301 11272 21290 40281 51002;
0122315940999992000012721004+49420+130080FM-12+013599999V0201601N003012200019N0130001N1-02051-02241102751ADDGA1001+999999999GF100991001001999999001001MD1410001+9999REMSYN054AAXX  27211 31594 42963 01603 11205 21224 40275 54000;
0225315940999992000012800004+49420+130080FM-12+013599999V0201401N002012200019N0100001N1-02511-02691102801ADDAA199000091AJ100319199999999GA1001+999999999GF100991001001999999001001IA1239KA1120N-02941MA1999999100911MD1310011+9999REMSYN076AAXX  28001 31594 32997 01402 11251 21269 30091 40280 53001 333 21294 47031;EQDQ01  00002PRCP99
0122315940999992000012803004+49420+130080FM-12+013599999V0201601N003012200019N0100001N1-01471-01901102651ADDGA1001+999999999GF100991001001999999001001MD1810081+9999REMSYN054AAXX  28031 31594 42997 01603 11147 21190 40265 58008;
0122315940999992000012806004+49420+130080FM-12+013599999V0201701N002012200019N0100001N1-01271-01791102521ADDGA1001+999999999GF100991001001999999001001MD1710111+9999REMSYN054AAXX  28061 31594 42997 01702 11127 21179 40252 57011;
0122315940999992000012809004+49420+130080FM-12+013599999V0209999C000012200019N0110001N1-01751-02171102561ADDGA1001+999999999GF100991001001999999001001MD1310021+9999REMSYN054AAXX  28091 31594 42961 00000 11175 21217 40256 53002;
0224315940999992000012812004+49420+130080FM-12+013599999V0200601N002012200019N0050001N1-02101-02351102611ADDAA199000091AY101061AY201061GA1001+999999999GF100991001001999999001001KA1999M-01191MA1999999100751MD1110011+9999MW1101REMSYN076AAXX  28121 31594 31950 00602 11210 21235 30075 40261 51001 71000 333 11119;EQDQ01  00002PRCP99
0150315940999992000012815004+49420+130080FM-12+013599999V0200301N001012200019N0060001N1-02341-02521102721ADDAY101031AY201031GA1001+999999999GF100991001001999999001001MD1210091+9999MW1101REMSYN060AAXX  28151 31594 41956 00301 11234 21252 40272 52009 71000;
0122315940999992000012818004+49420+130080FM-12+013599999V0209999C000012200019N0120001N1-02671-02851102811ADDGA1001+999999999GF100991001001999999001001MD1210061+9999REMSYN054AAXX  28181 31594 42962 00000 11267 21285 40281 52006;
0112315940999992000012821004+49420+130080FM-12+013599999V0209999C000019999999N0100001N1-02891-03071102971ADDGF108991001001999999001011MD1210151+9999REMSYN060AAXX  28211 31594 42960 80000 11289 21307 40297 52015 80001;
0243315940999992000012900004+49420+130080FM-12+013599999V0200701N001019999999N0040001N1-02791-02901103101ADDAA199000091AJ100319199999999AY111061AY211061GF108991001001999999001071IA1239KA1120N-03041MA1999999101181MD1210131+9999MW1101REMSYN088AAXX  29001 31594 31996 80701 11279 21290 30118 40310 52013 71011 80007 333 21304 47031;EQDQ01  00002PRCP99
0140315940999992000012903004+49420+130080FM-12+013599999V0203501N003019999999N0040001N1-02261-02381103171ADDAY121031AY221031GF108991001001999999001071MD1110101+9999MW1101REMSYN066AAXX  29031 31594 41996 83503 11226 21238 40317 51010 71022 80007;
0140315940999992000012906004+49420+130080FM-12+013599999V0203201N002019999999N0040001N1-02091-02341103131ADDAY121061AY221061GF108991001001999999001071MD1810021+9999MW1101REMSYN066AAXX  29061 31594 41996 83202 11209 21234 40313 58002 71022 80007;
0140315940999992000012909004+49420+130080FM-12+013599999V0203601N002019999999N0050001N1-02401-02581103291ADDAY121031AY221031GF108991001001999999001071MD1310131+9999MW1101REMSYN066AAXX  29091 31594 41950 83602 11240 21258 40329 53013 71022 80007;
0220315940999992000012912004+49420+130080FM-12+013599999V0200101N002019999999N0040001N1-02561-02681103992ADDAA112000791AY171061AY221061GF108991001001999999001071KA1999M-02051MA1999999101481MD1210091+9999MW1711REMSYN088AAXX  29121 31594 11940 80102 11256 21268 30148 40399 52009 69902 77172 80007 333 11205;EQDQ01+103993APOSLP
0140315940999992000012915004+49420+130080FM-12+013599999V0209999C000012200019N0060001N1-02921-03031103441ADDAY171031AY211031GF102991001001999999001011MD1210031+9999MW1021REMSYN066AAXX  29151 31594 41956 20000 11292 21303 40344 52003 70271 80001;
0150315940999992000012918004+49420+130080FM-12+013599999V0201601N001012200019N0070001N1-03081-03251103471ADDAY171061AY211061GA1001+999999999GF100991001001999999001001MD1110011+9999MW1021REMSYN060AAXX  29181 31594 41957 01601 11308 21325 40347 51001 70271;
0112315940999992000012921004+49420+130080FM-12+013599999V0201901N001019999999N0050001N1-03211-03371103491ADDGF108991001001999999001011MD1310011+9999REMSYN060AAXX  29211 31594 42950 81901 11321 21337 40349 53001 80001;
0240315940999992000013000004+49420+130080FM-12+013599999V0209999C000012200019N0040001N1-03361-03531103581ADDAA100000791AJ100319199999999AY111061AY211061GA1001+999999999GF100991001001999999001001IA1239KA1120N-03391MA1999999101601MD1210071+9999MW1101REMSYN088AAXX  30001 31594 11996 00000 11336 21353 30160 40358 52007 69900 71011 333 21339 47031;
0150315940999992000013003004+49420+130080FM-12+013599999V0203401N001012200019N0040001N1-02681-02861103581ADDAY101031AY201031GA1001+999999999GF100991001001999999001001MD1210061+9999MW1101REMSYN060AAXX  30031 31594 41996 03401 11268 21286 40358 52006 71000;
0122315940999992000013006004+49420+130080FM-12+013599999V0203401N002012200019N0100001N1-02331-02801103421ADDGA1001+999999999GF100991001001999999001001MD1810141+9999REMSYN054AAXX  30061 31594 42997 03402 11233 21280 40342 58014;
0122315940999992000013009004+49420+130080FM-12+013599999V0203401N001012200019N0180001N1-02401-02721103521ADDGA1001+999999999GF100991001001999999001001MD1310101+9999REMSYN054AAXX  30091 31594 42968 03401 11240 21272 40352 53010;
0196315940999992000013012004+49420+130080FM-12+013599999V0200101N002012200019N0160001N1-02731-02851103561ADDAA199000091GA1001+999999999GF100991001001999999001001KA1999M-02171MA1999999101641MD1210021+9999REMSYN070AAXX  30121 31594 32966 00102 11273 21285 30164 40356 52002 333 11217;EQDQ01  00002PRCP99
0122315940999992000013015004+49420+130080FM-12+013599999V0200201N002012200019N0180001N1-02811-02921103511ADDGA1001+999999999GF100991001001999999001001MD1810061+9999REMSYN054AAXX  30151 31594 42968 00202 11281 21292 40351 58006;
0122315940999992000013018004+49420+130080FM-12+013599999V0209999C000012200019N0150001N1-03251-03421103511ADDGA1001+999999999GF100991001001999999001001MD1610041+9999REMSYN054AAXX  30181 31594 42965 00000 11325 21342 40351 56004;
0122315940999992000013021004+49420+130080FM-12+013599999V0209999C000012200019N0120001N1-03441-03611103431ADDGA1001+999999999GF100991001001999999001001MD1810091+9999REMSYN054AAXX  30211 31594 42962 00000 11344 21361 40343 58009;
0253315940999992000013100004+49420+130080FM-12+013599999V0209999C000012200019N0020001N1-03221-03391103431ADDAA199000091AJ100319199999999AY101061AY201061GA1001+999999999GF100991001001999999001001IA1239KA1120N-03581MA1999999101471MD1310021+9999MW1101REMSYN082AAXX  31001 31594 31995 00000 11322 21339 30147 40343 53002 71000 333 21358 47031;EQDQ01  00002PRCP99
0122315940999992000013103004+49420+130080FM-12+013599999V0209999C000012200019N0100001N1-02331-02511103331ADDGA1001+999999999GF100991001001999999001001MD1810031+9999REMSYN054AAXX  31031 31594 42997 00000 11233 21251 40333 58003;
0122315940999992000013106004+49420+130080FM-12+013599999V0203501N003012200019N0200001N1-01661-02081103021ADDGA1001+999999999GF100991001001999999001001MD1710241+9999REMSYN054AAXX  31061 31594 42998 03503 11166 21208 40302 57024;
0122315940999992000013109004+49420+130080FM-12+013599999V0200201N001012200019N0200001N1-01741-02151102961ADDGA1001+999999999GF100991001001999999001001MD1710071+9999REMSYN054AAXX  31091 31594 42970 00201 11174 21215 40296 57007;
0196315940999992000013112004+49420+130080FM-12+013599999V0201501N002012200019N0190001N1-02231-02551102921ADDAA199000091GA1001+999999999GF100991001001999999001001KA1999M-01521MA1999999101051MD1710081+9999REMSYN070AAXX  31121 31594 32969 01502 11223 21255 30105 40292 57008 333 11152;EQDQ01  00002PRCP99
0122315940999992000013115004+49420+130080FM-12+013599999V0201601N002012200019N0170001N1-02321-02641102821ADDGA1001+999999999GF100991001001999999001001MD1710111+9999REMSYN054AAXX  31151 31594 42967 01602 11232 21264 40282 57011;
0122315940999992000013118004+49420+130080FM-12+013599999V0201301N002012200019N0170001N1-02071-02321102711ADDGA1001+999999999GF100991001001999999001001MD1710091+9999REMSYN054AAXX  31181 31594 42967 01302 11207 21232 40271 57009;
0122315940999992000013121004+49420+130080FM-12+013599999V0201401N002012200019N0200001N1-02041-02291102581ADDGA1001+999999999GF100991001001999999001001MD1710111+9999REMSYN054AAXX  31211 31594 42970 01402 11204 21229 40258 57011;
0225315940999992000020100004+49420+130080FM-12+013599999V0201401N002012200019N0100001N1-01971-02231102661ADDAA199000091AJ100319199999999GA1001+999999999GF100991001001999999001001IA1239KA1120N-02681MA1999999100811MD1310071+9999REMSYN076AAXX  01001 31594 32997 01402 11197 21223 30081 40266 53007 333 21268 47031;EQDQ01  00002PRCP99
0122315940999992000020103004+49420+130080FM-12+013599999V0201701N001012200019N0100001N1-01511-01931102601ADDGA1001+999999999GF100991001001999999001001MD1810031+9999REMSYN054AAXX  01031 31594 42997 01701 11151 21193 40260 58003;
0122315940999992000020106004+49420+130080FM-12+013599999V0203501N002012200019N0200001N1-01191-01811102431ADDGA1001+999999999GF100991001001999999001001MD1710141+9999REMSYN054AAXX  01061 31594 42998 03502 11119 21181 40243 57014;
0122315940999992000020109004+49420+130080FM-12+013599999V0209999C000012200019N0200001N1-01551-01971102471ADDGA1001+999999999GF100991001001999999001001MD1310021+9999REMSYN054AAXX  01091 31594 42998 00000 11155 21197 40247 53002;
0196315940999992000020112004+49420+130080FM-12+013599999V0209999C000012200019N0160001N1-02261-02441102531ADDAA199000091GA1001+999999999GF100991001001999999001001KA1999M-01101MA1999999100661MD1410001+9999REMSYN070AAXX  01121 31594 32966 00000 11226 21244 30066 40253 54000 333 11110;EQDQ01  00002PRCP99
0122315940999992000020115004+49420+130080FM-12+013599999V0209999C000012200019N0140001N1-02351-02531102591ADDGA1001+999999999GF100991001001999999001001MD1310061+9999REMSYN054AAXX  01151 31594 42964 00000 11235 21253 40259 53006;
0122315940999992000020118004+49420+130080FM-12+013599999V0209999C000012200019N0170001N1-02561-02741102631ADDGA1001+999999999GF100991001001999999001001MD1110021+9999REMSYN054AAXX  01181 31594 42967 00000 11256 21274 40263 51002;
0122315940999992000020121004+49420+130080FM-12+013599999V0201501N001012200019N0150001N1-02671-02791102691ADDGA1001+999999999GF100991001001999999001001MD1310041+9999REMSYN054AAXX  01211 31594 42965 01501 11267 21279 40269 53004;
0253315940999992000020200004+49420+130080FM-12+013599999V0201301N001012200019N0040001N1-02811-02921102701ADDAA199000091AJ100319199999999AY101061AY201061GA1001+999999999GF100991001001999999001001IA1239KA1120N-02821MA1999999100781MD1410001+9999MW1101REMSYN082AAXX  02001 31594 31996 01301 11281 21292 30078 40270 54000 71000 333 21282 47031;EQDQ01  00002PRCP99
0141315940999992000020203004+49420+130080FM-12+013599999V0201901N002012200019N0100001N1-01562-01901102591ADDGA1001+999999999GF100991001001999999001001MD1810011+9999REMSYN054AAXX  02031 31594 42997 01902 11156 21190 40259 58001;EQDQ01-001563ATOT  
0122315940999992000020206004+49420+130080FM-12+013599999V0200401N001012200019N0100001N1-01191-01711102491ADDGA1001+999999999GF100991001001999999001001MD1710071+9999REMSYN054AAXX  02061 31594 42997 00401 11119 21171 40249 57007;
0122315940999992000020209004+49420+130080FM-12+013599999V0209999C000012200019N0100001N1-01761-02101102541ADDGA1001+999999999GF100991001001999999001001MD1310011+9999REMSYN054AAXX  02091 31594 42997 00000 11176 21210 40254 53001;
0196315940999992000020212004+49420+130080FM-12+013599999V0200401N001012200019N0110001N1-02291-02481102631ADDAA199000091GA1001+999999999GF100991001001999999001001KA1999M-01151MA1999999100751MD1210041+9999REMSYN070AAXX  02121 31594 32961 00401 11229 21248 30075 40263 52004 333 11115;EQDQ01  00002PRCP99
0122315940999992000020215004+49420+130080FM-12+013599999V0203501N001012200019N0120001N1-02561-02701102661ADDGA1001+999999999GF100991001001999999001001MD1010011+9999REMSYN054AAXX  02151 31594 42962 03501 11256 21270 40266 50001;
0122315940999992000020218004+49420+130080FM-12+013599999V0209999C000012200019N0110001N1-02761-02871102681ADDGA1001+999999999GF100991001001999999001001MD1410001+9999REMSYN054AAXX  02181 31594 42961 00000 11276 21287 40268 54000;
0122315940999992000020221004+49420+130080FM-12+013599999V0209999C000012200019N0100001N1-02971-03151102671ADDGA1001+999999999GF100991001001999999001001MD1810021+9999REMSYN054AAXX  02211 31594 42960 00000 11297 21315 40267 58002;
0253315940999992000020300004+49420+130080FM-12+013599999V0209999C000012200019N0040001N1-03001-03171102691ADDAA199000091AJ100319199999999AY101061AY201061GA1001+999999999GF100991001001999999001001IA1239KA1120N-03021MA1999999100761MD1310021+9999MW1101REMSYN082AAXX  03001 31594 31996 00000 11300 21317 30076 40269 53002 71000 333 21302 47031;EQDQ01  00002PRCP99
0122315940999992000020303004+49420+130080FM-12+013599999V0202901N002012200019N0100001N1-02041-02371102641ADDGA1001+999999999GF100991001001999999001001MD1210031+9999REMSYN054AAXX  03031 31594 42997 02902 11204 21237 40264 52003;
0122315940999992000020306004+49420+130080FM-12+013599999V0202701N001012200019N0100001N1-01631-02051102441ADDGA1001+999999999GF100991001001999999001001MD1710161+9999REMSYN054AAXX  03061 31594 42997 02701 11163 21205 40244 57016;
0122315940999992000020309004+49420+130080FM-12+013599999V0201401N001012200019N0100001N1-02041-02291102561ADDGA1001+999999999GF100991001001999999001001MD1310091+9999REMSYN054AAXX  03091 31594 42997 01401 11204 21229 40256 53009;
0196315940999992000020312004+49420+130080FM-12+013599999V0201701N002012200019N0120001N1-02631-02801102631ADDAA199000091GA1001+999999999GF100991001001999999001001KA1999M-01591MA1999999100741MD1210021+9999REMSYN070AAXX  03121 31594 32962 01702 11263 21280 30074 40263 52002 333 11159;EQDQ01  00002PRCP99
0122315940999992000020315004+49420+130080FM-12+013599999V0209999C000012200019N0100001N1-02531-02641102711ADDGA1001+999999999GF100991001001999999001001MD1210081+9999REMSYN054AAXX  03151 31594 42960 00000 11253 21264 40271 52008;
0122315940999992000020318004+49420+130080FM-12+013599999V0201501N001012200019N0140001N1-02931-03051102781ADDGA1001+999999999GF100991001001999999001001MD1210041+9999REMSYN054AAXX  03181 31594 42964 01501 11293 21305 40278 52004;
0122315940999992000020321004+49420+130080FM-12+013599999V0201501N001012200019N0120001N1-02851-03021102781ADDGA1001+999999999GF100991001001999999001001MD1410001+9999REMSYN054AAXX  03211 31594 42962 01501 11285 21302 40278 54000;
0243315940999992000020400004+49420+130080FM-12+013599999V0209999C000012200019N0040001N1-02861-03031102911ADDAA199000091AJ100309199999999AY101061AY201061GF103991031001999999031001IA1239KA1120N-03041MA1999999100991MD1310131+9999MW1101REMSYN088AAXX  04001 31594 31996 30000 11286 21303 30099 40291 53013 71000 83030 333 21304 47030;EQDQ01  00002PRCP99
0112315940999992000020403004+49420+130080FM-12+013599999V0209999C000019999999N0100001N1-01921-02181102911ADDGF108991001001999999001011MD1210071+9999REMSYN060AAXX  04031 31594 42997 80000 11192 21218 40291 52007 80001;
0150315940999992000020406004+49420+130080FM-12+013599999V0203501N002012200019N0040001N1-01791-02121102761ADDAY101061AY201061GA1001+999999999GF100991001001999999001001MD1810141+9999MW1101REMSYN060AAXX  04061 31594 41996 03502 11179 21212 40276 58014 71000;
0150315940999992000020409004+49420+130080FM-12+013599999V0203201N001012200019N0040001N1-02091-02341102761ADDAY101031AY201031GA1001+999999999GF100991001001999999001001MD1610021+9999MW1101REMSYN060AAXX  04091 31594 41996 03201 11209 21234 40276 56002 71000;
0196315940999992000020412004+49420+130080FM-12+013599999V0200101N001012200019N0110001N1-02261-02441102911ADDAA199000091GA1001+999999999GF100991001001999999001001KA1999M-01701MA1999999101041MD1210141+9999REMSYN070AAXX  04121 31594 32961 00101 11226 21244 30104 40291 52014 333 11170;EQDQ01  00002PRCP99
0122315940999992000020415004+49420+130080FM-12+013599999V0201601N001012200019N0100001N1-02841-03021103021ADDGA1001+999999999GF100991001001999999001001MD1210061+9999REMSYN054AAXX  04151 31594 42960 01601 11284 21302 40302 52006;
0122315940999992000020418004+49420+130080FM-12+013599999V0201601N001012200019N0100001N1-03101-03381103151ADDGA1001+999999999GF100991001001999999001001MD1210111+9999REMSYN054AAXX  04181 31594 42960 01601 11310 21338 40315 52011;
0122315940999992000020421004+49420+130080FM-12+013599999V0209999C000012200019N0100001N1-03241-03421103151ADDGA1001+999999999GF100991001001999999001001MD1810011+9999REMSYN054AAXX  04211 31594 42960 00000 11324 21342 40315 58001;
0253315940999992000020500004+49420+130080FM-12+013599999V0209999C000012200019N0020001N1-03201-03371103221ADDAA199000091AJ100309199999999AY101061AY201061GA1001+999999999GF100991001001999999001001IA1239KA1120N-03331MA1999999101261MD1310061+9999MW1101REMSYN082AAXX  05001 31594 31995 00000 11320 21337 30126 40322 53006 71000 333 21333 47030;EQDQ01  00002PRCP99
0141315940999992000020503004+49420+130080FM-12+013599999V0209999C000012200019N0020001N1-02022-02281103161ADDGA1001+999999999GF100991001001999999001001MD1010041+9999REMSYN054AAXX  05031 31594 41995 00000 11202 21228 40316 50004;EQDQ01-002023ATOT  
0140315940999992000020506004+49420+130080FM-12+013599999V0203001N001019999999N0040001N1-01721-02141103011ADDAY111061AY211061GF105991001001999999001011MD1710121+9999MW1101REMSYN066AAXX  05061 31594 41996 53001 11172 21214 40301 57012 71011 80001;
0140315940999992000020509004+49420+130080FM-12+013599999V0209999C000019999999N0040001N1-02091-02421103021ADDAY121031AY221031GF108991001001999999001011MD1510021+9999MW1101REMSYN066AAXX  05091 31594 41996 80000 11209 21242 40302 55002 71022 80001;
0188315940999992000020512004+49420+130080FM-12+013599999V0203401N001012200019N0050001N1-02601-02771103021ADDAA199000091GA1001+999999999GF100991001001999999001001MA1999999101121MD1810041+9999REMSYN075AAXX  05121 31594 31950 03401 11260 21277 30112 40302 58004 1011 333 11159;EQDQ01  00002PRCP99
0150315940999992000020515004+49420+130080FM-12+013599999V0201501N001012200019N0060001N1-02781-02961102941ADDAY101031AY201031GA1001+999999999GF100991001001999999001001MD1710101+9999MW1101REMSYN060AAXX  05151 31594 41956 01501 11278 21296 40294 57010 71000;
0150315940999992000020518004+49420+130080FM-12+013599999V0200401N001012200019N0060001N1-02961-03131102941ADDAY101061AY201061GA1001+999999999GF100991001001999999001001MD1610011+9999MW1101REMSYN060AAXX  05181 31594 41956 00401 11296 21313 40294 56001 71000;
0150315940999992000020521004+49420+130080FM-12+013599999V0200101N002012200019N0050001N1-03231-03391102841ADDAY101031AY201031GA1001+999999999GF100991001001999999001001MD1810121+9999MW1101REMSYN060AAXX  05211 31594 41950 00102 11323 21339 40284 58012 71000;
0243315940999992000020600004+49420+130080FM-12+013599999V0209999C000019999999N0020001N1-03151-03321102801ADDAA199000091AJ100309199999999AY111061AY211061GF108991001001999999001011IA1239KA1120N-03331MA1999999100851MD1510041+9999MW1101REMSYN088AAXX  06001 31594 31995 80000 11315 21332 30085 40280 55004 71011 80001 333 21333 47030;EQDQ01  00002PRCP99
0140315940999992000020603004+49420+130080FM-12+013599999V0203401N002019999999N0040001N1-02351-02531102631ADDAY121031AY221031GF108991001001999999001011MD1810101+9999MW1101REMSYN066AAXX  06031 31594 41996 83402 11235 21253 40263 58010 71022 80001;
0140315940999992000020606004+49420+130080FM-12+013599999V0203401N004019999999N0040001N1-01901-02231102391ADDAY121061AY221061GF108991001001999999001071MD1710201+9999MW1101REMSYN066AAXX  06061 31594 41996 83404 11190 21223 40239 57020 71022 80007;
0112315940999992000020609004+49420+130080FM-12+013599999V0200201N003012200019N0100001N1-02111-02361102351ADDGF102991001001999999001011MD1710051+9999REMSYN060AAXX  06091 31594 42997 20203 11211 21236 40235 57005 80001;
0186315940999992000020612004+49420+130080FM-12+013599999V0203401N003012200019N0120001N1-02291-02481102371ADDAA199000091GF102991001001999999001011KA1999M-01791MA1999999100501MD1410001+9999REMSYN076AAXX  06121 31594 32962 23403 11229 21248 30050 40237 54000 80001 333 11179;EQDQ01  00002PRCP99
0122315940999992000020615004+49420+130080FM-12+013599999V0203301N004012200019N0150001N1-02361-02551102301ADDGA1001+999999999GF100991001001999999001001MD1810081+9999REMSYN054AAXX  06151 31594 42965 03304 11236 21255 40230 58008;
0122315940999992000020618004+49420+130080FM-12+013599999V0203501N003012200019N0160001N1-02521-02601102291ADDGA1001+999999999GF100991001001999999001001MD1610011+9999REMSYN054AAXX  06181 31594 42966 03503 11252 21260 40229 56001;
0122315940999992000020621004+49420+130080FM-12+013599999V0203501N002012200019N0140001N1-02741-02851102231ADDGA1001+999999999GF100991001001999999001001MD1710081+9999REMSYN054AAXX  06211 31594 42964 03502 11274 21285 40223 57008;
0215315940999992000020700004+49420+130080FM-12+013599999V0203601N003019999999N0100001N1-02881-03051102211ADDAA199000091AJ100309199999999GF108991001001999999001011IA1239KA1120N-02891MA1999999100291MD1710041+9999REMSYN082AAXX  07001 31594 32997 83603 11288 21305 30029 40221 57004 80001 333 21289 47030;EQDQ01  00002PRCP99
0099315940999992000020721004+49420+130080FM-12+013599999V0200301N060029999999N0110001N1-03031-03211101891ADDMD1810031+9999REMSYN054AAXX  07211 31594 42961 /0360 11303 21321 40189 58003;EQDQ01+006003WOSPD 
0099315940999992000020800004+49420+130080FM-12+013599999V0200301N060029999999N0110001N1-03031-03211101891ADDMD1810031+9999REMSYN054AAXX  08001 31594 42961 /0360 11303 21321 40189 58003;EQDQ01+006003WOSPD 
0122315940999992000020803004+49420+130080FM-12+013599999V0203401N001012200019N0200001N1-02531-02771101941ADDGA1001+999999999GF100991001001999999001001MD1110031+9999REMSYN054AAXX  08031 31594 42998 03401 11253 21277 40194 51003;
0112315940999992000020806004+49420+130080FM-12+013599999V0203401N002012200019N0200001N1-02391-02641101621ADDGF103991001001999999001011MD1710121+9999REMSYN060AAXX  08061 31594 42998 33402 11239 21264 40162 57012 80001;
0122315940999992000020821004+49420+130080FM-12+013599999V0209999C000012200019N0100001N1-03181-03341101701ADDGA1001+999999999GF100991001001999999001001MD1710021+9999REMSYN054AAXX  08211 31594 42960 00000 11318 21334 40170 57002;
0253315940999992000020900004+49420+130080FM-12+013599999V0209999C000012200019N0040001N1-03091-03251101721ADDAA199000091AJ100299199999999AY101061AY201061GA1001+999999999GF100991001001999999001001IA1239KA1120N-03291MA1999999099801MD1310031+9999MW1101REMSYN082AAXX  09001 31594 31996 00000 11309 21325 39980 40172 53003 71000 333 21329 47029;EQDQ01  00002PRCP99
0122315940999992000020903004+49420+130080FM-12+013599999V0202001N002012200019N0100001N1-02071-02321101561ADDGA1001+999999999GF100991001001999999001001MD1810071+9999REMSYN054AAXX  09031 31594 42997 02002 11207 21232 40156 58007;
0186315940999992000042612004+49420+130080FM-12+013599999V0209999C000019999999N0250001N1+00891+00381101181ADDAA199000091GF107991071051999999001001KA1999M+01341MA1999999099551MD1810071+9999REMSYN076AAXX  26121 31594 32975 70000 10089 20038 39955 40118 58007 87500 333 10134;EQDQ01  00002PRCP99
0131315940999992000042615004+49420+130080FM-12+013599999V02099999999992200019N0280001N1+00761+00151101201ADDGF101991999001999999031011MD1310011+9999REMSYN060AAXX  26151 31594 42978 15002 10076 20015 40120 53001 83031;EQDQ01+000032SCOTLC
0112315940999992000042618004+49420+130080FM-12+013599999V0201401N001019999999N0200001N1+00651+00091101291ADDGF107991071001999999051999MD1310021+9999REMSYN060AAXX  26181 31594 42970 71401 10065 20009 40129 53002 8705/;
0138315940999992000042621004+49420+130080FM-12+013599999V0201501N001010120019N0200001N1+00541+00051101261ADDGA1051+012009059GF108991051051012501031011MD1210031+9999REMSYN070AAXX  26211 31594 42698 81501 10054 20005 40126 52003 85531 333 85640;
0186315940999992000042700004+49420+130080FM-12+013599999V0202101N002019999999N0200001N1+00721+00091101321ADDAA199000091GF106991051001999999031011KA1999N+00471MA1999999099681MD1210071+9999REMSYN076AAXX  27001 31594 32998 62102 10072 20009 39968 40132 52007 85031 333 20047;EQDQ01  00002PRCP99
0122315940999992000042703004+49420+130080FM-12+013599999V0202001N003012200019N0200001N1+01191+00091101331ADDGA1001+999999999GF100991001001999999001001MD1110041+9999REMSYN054AAXX  27031 31594 42998 02003 10119 20009 40133 51004;
0112315940999992000042706004+49420+130080FM-12+013599999V0203501N004012200019N0500001N1+01701+00151100931ADDGF106991021021012501001011MD1810371+9999REMSYN060AAXX  27061 31594 42699 63504 10170 20015 40093 58037 82201;
0112315940999992000042709004+49420+130080FM-12+013599999V0202801N003012200019N0500001N1+01741+00091100731ADDGF102991011051012501001011MD1710201+9999REMSYN060AAXX  27091 31594 42699 22803 10174 20009 40073 57020 81501;
0186315940999992000042712004+49420+130080FM-12+013599999V0203601N002012200019N0140001N1+01121+00321100811ADDAA199000091GF101991011001999999031001KA1999M+01761MA1999999099201MD1310051+9999REMSYN076AAXX  27121 31594 32964 13602 10112 20032 39920 40081 53005 81030 333 10176;EQDQ01  00002PRCP99
0122315940999992000042715004+49420+130080FM-12+013599999V0200401N002012200019N0160001N1+00711+00231100861ADDGA1001+999999999GF100991001001999999001001MD1210021+9999REMSYN054AAXX  27151 31594 42966 00402 10071 20023 40086 52002;
0122315940999992000042718004+49420+130080FM-12+013599999V0200201N003012200019N0170001N1+00701+00111100881ADDGA1001+999999999GF100991001001999999001001MD1210021+9999REMSYN054AAXX  27181 31594 42967 00203 10070 20011 40088 52002;
0106315940999992000042721004+49420+130080FM-12+013599999V0201701N002019999999N0200001N1+00251+00041100961ADDGF105991999999999999999999MD1210051+9999REMSYN054AAXX  27211 31594 42998 51702 10025 20004 40096 52005;
0186315940999992000042800004+49420+130080FM-12+013599999V0203101N002019999999N0200001N1+01041+00271100921ADDAA199000091GF106991061001999999031001KA1999N+00101MA1999999099301MD1010011+9999REMSYN076AAXX  28001 31594 32998 63102 10104 20027 39930 40092 50001 86030 333 20010;EQDQ01  00002PRCP99
0112315940999992000042803004+49420+130080FM-12+013599999V0203601N004012200019N0200001N1+01831+00211100791ADDGF102991011021008001031001MD1710081+9999REMSYN060AAXX  28031 31594 42598 23604 10183 20021 40079 57008 81230;
0112315940999992000042806004+49420+130080FM-12+013599999V0203501N004012200019N0200001N1+02001+00061100621ADDGF102991021021012501001001MD1710161+9999REMSYN060AAXX  28061 31594 42698 23504 10200 20006 40062 57016 82200;
0112315940999992000042809004+49420+130080FM-12+013599999V0203601N004012200019N0200001N1+01911+00111100561ADDGF103991001001999999001011MD1510071+9999REMSYN060AAXX  28091 31594 42998 33604 10191 20011 40056 55007 80001;
0186315940999992000042812004+49420+130080FM-12+013599999V0200401N002019999999N0110001N1+01381+00191100651ADDAA199000091GF105991001001999999001011KA1999M+02061MA1999999099051MD1210061+9999REMSYN076AAXX  28121 31594 32961 50402 10138 20019 39905 40065 52006 80001 333 10206;EQDQ01  00002PRCP99
0112315940999992000042815004+49420+130080FM-12+013599999V0209999C000012200019N0130001N1+01021+00611100711ADDGF102991001001999999001011MD1110041+9999REMSYN060AAXX  28151 31594 42963 20000 10102 20061 40071 51004 80001;
0122315940999992000042818004+49420+130080FM-12+013599999V0201501N002012200019N0170001N1+00751+00481100851ADDGA1001+999999999GF100991001001999999001001MD1210131+9999REMSYN054AAXX  28181 31594 42967 01502 10075 20048 40085 52013;
0144315940999992000042821004+49420+130080FM-12+013599999V0201401N002012200019N0040001N1+00711+00191999999ADDAY101031AY201031GA1001+999999999GF100991001001999999001001MD1210051+9999MW1041REMSYN054AAXX  28211 31594 41996 01402 10071 20019 52005 70400;
0224315940999992000042900004+49420+130080FM-12+013599999V0201801N003012200019N0040001N1+01301+00231100891ADDAA199000091AY101061AY201061GA1001+999999999GF100991001001999999001001KA1999N+00451MA1999999099281MD1010011+9999MW1041REMSYN076AAXX  29001 31594 31996 01803 10130 20023 39928 40089 50001 70400 333 20045;EQDQ01  00002PRCP99
0122315940999992000042903004+49420+130080FM-12+013599999V0201701N003012200019N0100001N1+01961+00131100721ADDGA1001+999999999GF100991001001999999001001MD1710131+9999REMSYN054AAXX  29031 31594 42997 01703 10196 20013 40072 57013;
0160315940999992000042906004+49420+130080FM-12+013599999V0201801N005012200019N0040001N1+02181-00051100491ADDAY101061AY201061GA1001+999999999GF100991001001999999001001MD1710211+9999MW1041REMSYN070AAXX  29061 31594 41996 01805 10218 21005 40049 57021 70400 333 91111;
0147315940999992000042909004+49420+130080FM-12+013599999V0201701N999992200019N0100001N1+02191+00021100271ADDGF102991001001999999001011MD1710211+9999REMSYN076AAXX  29091 31594 42997 21786 10219 20002 40027 57021 80001 333 91010 91110;EQDQ01+008603WOSPD 
0192315940999992000042912004+49420+130080FM-12+013599999V0201601N005019999999N0120001N1+01581-00021100451ADDAA199000091GF108991031001999999051011KA1120M+02311MA1999999098861MD1310131+9999REMSYN082AAXX  29121 31594 32962 81605 10158 21002 39886 40045 53013 83051 333 10231 91110;EQDQ01  00002PRCP99
0112315940999992000042915004+49420+130080FM-12+013599999V0201501N004019999999N0130001N1+01581-00051100481ADDGF108991001001999999001011MD1110031+9999REMSYN060AAXX  29151 31594 42963 81504 10158 21005 40048 51003 80001;
0112315940999992000042918004+49420+130080FM-12+013599999V0201301N004012200019N0120001N1+01421+00021100481ADDGF108991021051012501001011MD1510011+9999REMSYN060AAXX  29181 31594 42662 81304 10142 20002 40048 55001 82501;
0166315940999992000042921004+49420+130080FM-12+013599999V0201401N003010102019N0100001N1+01351+00111100561ADDAY191031AY281031GA1051+010209099GF108991051091012501001071MD1210081+9999MW1171REMSYN076AAXX  29211 31594 41697 81403 10135 20011 40056 52008 71798 85907 333 85934;
0201315940999992000043000004+49420+130080FM-12+013599999V0201701N002019999999N0100001N1+01621+00341100721ADDAA112000391AY191061AY281061GF108991021001999999051071KA1999N+01071MA1999999099141MD1210181+9999MW1021REMSYN088AAXX  30001 31594 11997 81702 10162 20034 39914 40072 52018 69932 70298 82057 333 20107;
0112315940999992000043003004+49420+130080FM-12+013599999V0201201N002019999999N0100001N1+01991+00411100691ADDGF108991001001999999001071MD1810011+9999REMSYN060AAXX  30031 31594 42997 81202 10199 20041 40069 58001 80007;
0106315940999992000043006004+49420+130080FM-12+013599999V0203101N002019999999N0100001N1+02231+99999100461ADDGF108991021001999999031071MD1710221+9999REMSYN054AAXX  30061 31594 42997 83102 10223 40046 57022 82037;
0112315940999992000043009004+49420+130080FM-12+013599999V0202801N004019999999N0100001N1+02181+00511100451ADDGF108991031001999999031071MD1710011+9999REMSYN060AAXX  30091 31594 42997 82804 10218 20051 40045 57001 83037;
0186315940999992000043012004+49420+130080FM-12+013599999V0203201N001019999999N0140001N1+01331+00921100731ADDAA199000091GF108991001001999999001011KA1999M+02361MA1999999099131MD1310231+9999REMSYN076AAXX  30121 31594 32964 83201 10133 20092 39913 40073 53023 80001 333 10236;EQDQ01  00002PRCP99
0112315940999992000043015004+49420+130080FM-12+013599999V0203201N001019999999N0120001N1+01081+00841100851ADDGF108991001001999999001011MD1210111+9999REMSYN060AAXX  30151 31594 42962 83201 10108 20084 40085 52011 80001;
0112315940999992000043018004+49420+130080FM-12+013599999V0201501N001012200019N0120001N1+00831+00771100941ADDGF102991001001999999001011MD1210071+9999REMSYN060AAXX  30181 31594 42962 21501 10083 20077 40094 52007 80001;
0140315940999992000043021004+49420+130080FM-12+013599999V0209999C000019999999N0020001N1+00541+00451101121ADDAY111031AY211031GF108991021001999999031011MD1210161+9999MW1101REMSYN066AAXX  30211 31594 41995 80000 10054 20045 40112 52016 71011 82031;
0214315940999992000050100004+49420+130080FM-12+013599999V0201601N001019999999N0020001N1+01051+00801101221ADDAA199000091AY111061AY211061GF108991001001999999001071KA1999N+00511MA1999999099601MD1210131+9999MW1101REMSYN082AAXX  01001 31594 31995 81601 10105 20080 39960 40122 52013 71011 80007 333 20051;EQDQ01  00002PRCP99
0112315940999992000050103004+49420+130080FM-12+013599999V0201301N002019999999N0200001N1+01831+01181101281ADDGF108991001001999999001011MD1210101+9999REMSYN060AAXX  01031 31594 42998 81302 10183 20118 40128 52010 80001;
0112315940999992000050106004+49420+130080FM-12+013599999V0202901N003019999999N0200001N1+02241+00711100971ADDGF108991021001012501001071MD1810281+9999REMSYN060AAXX  01061 31594 42698 82903 10224 20071 40097 58028 82007;
0150315940999992000050109004+49420+130080FM-12+013599999V0200601N003012200019N0200001N1+02181+00321100921ADDAY191031AY221031GF106991031091008001001011MD1610061+9999MW1021REMSYN076AAXX  01091 31594 41598 60603 10218 20032 40092 56006 70292 83901 333 91110;
0193315940999992000050112004+49420+130080FM-12+013599999V0203501N001019999999N0160001N1+01751+00841101011ADDAA199000091AY191061AY221061GF106991021001999999031011KA1999M+02361MD1310071+9999MW1021REMSYN076AAXX  01121 31594 31966 63501 10175 20084 40101 53007 70292 82031 333 10236;EQDQ01  00002PRCP99
0112315940999992000050115004+49420+130080FM-12+013599999V0201501N001012200019N0140001N1+01261+00651101091ADDGF102991001001999999001011MD1210051+9999REMSYN060AAXX  01151 31594 42964 21501 10126 20065 40109 52005 80001;
0122315940999992000050118004+49420+130080FM-12+013599999V0200201N001012200019N0120001N1+00701+00461101181ADDGA1001+999999999GF100991001001999999001001MD1210061+9999REMSYN054AAXX  01181 31594 42962 00201 10070 20046 40118 52006;
0111315940999992000050121004+49420+130080FM-12+013599999V0201101N002012200019N0040001N1+00591+00431101201ADDGF103991011001999999031011MD1110011+9999REMSYN059AAXX  01211 31594 42996 31102 10059 20043 4012051001 81031;
0224315940999992000050200004+49420+130080FM-12+013599999V0201701N001012200019N0040001N1+01411+00671101201ADDAA199000091AY101061AY201061GA1001+999999999GF100991001001999999001001KA1999N+00481MA1999999099601MD1210051+9999MW1101REMSYN076AAXX  02001 31594 31996 01701 10141 20067 39960 40120 52005 71000 333 20048;EQDQ01  00002PRCP99
0122315940999992000050203004+49420+130080FM-12+013599999V0202401N001012200019N0100001N1+02121+00851101021ADDGA1001+999999999GF100991001001999999001001MD1710141+9999REMSYN054AAXX  02031 31594 42997 02401 10212 20085 40102 57014;
0112315940999992000050206004+49420+130080FM-12+013599999V0202401N002012200019N0100001N1+02541+00671100731ADDGF102991001001999999001031MD1710261+9999REMSYN060AAXX  02061 31594 42997 22402 10254 20067 40073 57026 80003;
0112315940999992000050209004+49420+130080FM-12+013599999V0202701N001012200019N0100001N1+02501+00511100581ADDGF101991011001999999031001MD1710161+9999REMSYN060AAXX  02091 31594 42997 12701 10250 20051 40058 57016 81030;
0214315940999992000050212004+49420+130080FM-12+013599999V0201001N002012200019N0060001N1+01881+00671100591ADDAA199000091AY101061AY201061GF102991021001999999031001KA1999M+02601MA1999999099021MD1610021+9999MW1041REMSYN082AAXX  02121 31594 31956 21002 10188 20067 39902 40059 56002 70400 82030 333 10260;EQDQ01  00002PRCP99
0150315940999992000050215004+49420+130080FM-12+013599999V0209999C000012200019N0060001N1+01311+00671100621ADDAY101031AY201031GA1001+999999999GF100991001001999999001001MD1410001+9999MW1041REMSYN060AAXX  02151 31594 41956 00000 10131 20067 40062 54000 70400;
0150315940999992000050218004+49420+130080FM-12+013599999V0201101N002012200019N0060001N1+00931+00711100641ADDAY101061AY201061GA1001+999999999GF100991001001999999001001MD1410001+9999MW1041REMSYN060AAXX  02181 31594 41956 01102 10093 20071 40064 54000 70400;
0112315940999992000050221004+49420+130080FM-12+013599999V0201301N003019999999N0100001N1+01181+00681100601ADDGF106991011001999999031011MD1810031+9999REMSYN060AAXX  02211 31594 42997 61303 10118 20068 40060 58003 81031;
0209315940999992000050300004+49420+130080FM-12+013599999V0201401N006019999999N0100001N1+01701+00381100511ADDAA199000091GF108991021001999999031071KA1120N+00891MA1999999098931MD1810061+9999OA140101001REMSYN088AAXX  03001 31594 32997 81406 10170 20038 39893 40051 58006 82037 333 20089 91010 91110;EQDQ01  00002PRCP99
0174315940999992000050303004+49420+130080FM-12+013599999V0202901N008010360019N0100001N1+02131+99999100441ADDGF108991021091012501031071MD1710051+9999OA140101201REMSYN076AAXX  03031 31594 42697 82908 10213 2018/ 40044 57005 82937 333 91012 91113;EQDQ01+001803ATOD  Q02 +01803ATOD  
0161315940999992000050306004+49420+130080FM-12+013599999V0203101N007010096019N0100001N1+01431+00561100581ADDGA1061+009609099GF108991061091008001051999MD1310101+9999OA140101201REMSYN082AAXX  03061 31594 42597 83107 10143 20056 40058 53010 8695/ 333 86932 91012 91113;
0144315940999992000050309004+49420+130080FM-12+013599999V0203601N004010087019N0200001N1+01091+00551100781ADDGA1071+008709099GF108991071091008001051999MD1210191+9999REMSYN076AAXX  03091 31594 42598 83604 10109 20055 40078 52019 8795/ 333 87929 91112;
0208315940999992000050312004+49420+130080FM-12+013599999V0200701N002010090019N0180001N1+00971+00301101021ADDAA199000091GA1081+009009099GF108991081091999999999999KA1120M+02291MA1999999099401MD1210231+9999REMSYN082AAXX  03121 31594 32968 80702 10097 20030 39940 40102 52023 889// 333 10229 88930;EQDQ01  00002PRCP99
0112315940999992000050315004+49420+130080FM-12+013599999V0203601N002010360019N0150001N1+00791+00481101151ADDGF108991031051012501071999MD1210111+9999REMSYN060AAXX  03151 31594 42665 83602 10079 20048 40115 52011 8357/;
0112315940999992000050318004+49420+130080FM-12+013599999V0200201N002019999999N0140001N1+00471+00301101251ADDGF108991021001999999031011MD1210091+9999REMSYN060AAXX  03181 31594 42964 80202 10047 20030 40125 52009 82031;
0112315940999992000050321004+49420+130080FM-12+013599999V0200301N002019999999N0200001N1+00501-00061101341ADDGF108991031001999999051011MD1210091+9999REMSYN060AAXX  03211 31594 42998 80302 10050 21006 40134 52009 83051;
0209315940999992000050400004+49420+130080FM-12+013599999V0200701N006019999999N0200001N1+01051-00781101451ADDAA199000091GF108991021001999999031011KA1120N+00351MA1999999099821MD1210131+9999OA140101101REMSYN088AAXX  04001 31594 32998 80706 10105 21078 39982 40145 52013 82031 333 20035 91011 91113;EQDQ01  00002PRCP99
0122315940999992000050403004+49420+130080FM-12+013599999V0200401N005019999999N0200001N1+01291-00671101511ADDGF108991001001999999001071MD1210071+9999REMSYN070AAXX  04031 31594 42998 80405 10129 21067 40151 52007 80007 333 91111;
0122315940999992000050406004+49420+130080FM-12+013599999V0200201N007019999999N0200001N1+01201-01071101541ADDGF108991081001999999071999MD1210021+9999REMSYN070AAXX  04061 31594 42998 80207 10120 21107 40154 52002 8807/ 333 91111;
0122315940999992000050409004+49420+130080FM-12+013599999V0200201N005019999999N0200001N1+01081-00781101611ADDGF108991021091999999071999MD1210071+9999REMSYN070AAXX  04091 31594 42998 80205 10108 21078 40161 52007 8297/ 333 91111;
0224315940999992000050412004+49420+130080FM-12+013599999V0203501N003010084019N0180001N1+00801-00861999999ADDAA199000091GA1071+008409099GF107991071091008001001001KA1120M+01411MA1999999100091MD1310111+9999REMSYN082AAXX  04121 31594 32568 73503 10080 21086 30009 40074 53011 87900 333 10141 87928;EQDQ01+100743APOSLPQ02  00002PRCP99
0112315940999992000050415004+49420+130080FM-12+013599999V0203501N002010360019N0200001N1+00601-00801101771ADDGF108991031051012501031011MD1010021+9999REMSYN060AAXX  04151 31594 42670 83502 10060 21080 40177 50002 83531;
0138315940999992000050418004+49420+130080FM-12+013599999V0200501N003010081019N0180001N1+00651-01071101781ADDGA1061+008109059GF108991061051008001051999MD1310011+9999REMSYN070AAXX  04181 31594 42568 80503 10065 21107 40178 53001 8655/ 333 86627;
0112315940999992000050421004+49420+130080FM-12+013599999V0200501N003019999999N0200001N1+00511-01151101811ADDGF108991031001999999031011MD1210021+9999REMSYN060AAXX  04211 31594 42998 80503 10051 21115 40181 52002 83031;
0186315940999992000050500004+49420+130080FM-12+013599999V0200401N004019999999N0200001N1+00991-01071101851ADDAA199000091GF108991021001999999031011KA1999N+00441MA1999999100211MD1210071+9999REMSYN076AAXX  05001 31594 32998 80404 10099 21107 30021 40185 52007 82031 333 20044;EQDQ01  00002PRCP99
0112315940999992000050503004+49420+130080FM-12+013599999V0200501N005012200019N0200001N1+01361-00821101861ADDGF102991001001999999001011MD1210031+9999REMSYN060AAXX  05031 31594 42998 20505 10136 21082 40186 52003 80001;
0112315940999992000050506004+49420+130080FM-12+013599999V0203201N005012200019N0200001N1+01741-00711101531ADDGF102991001001999999001011MD1810301+9999REMSYN060AAXX  05061 31594 42998 23205 10174 21071 40153 58030 80001;
0132315940999992000050509004+49420+130080FM-12+013599999V0203201N005012200019N0200001N1+01671-00331101441ADDGA1001+999999999GF100991001001999999001001MD1710101+9999REMSYN064AAXX  05091 31594 42998 03205 10167 21033 40144 57010 333 91110;
0186315940999992000050512004+49420+130080FM-12+013599999V0203201N002012200019N0240001N1+00911-00501101601ADDAA199000091GF103991011001999999031011KA1999M+01791MA1999999099961MD1310121+9999REMSYN076AAXX  05121 31594 32974 33202 10091 21050 39996 40160 53012 81031 333 10179;EQDQ01  00002PRCP99
0122315940999992000050515004+49420+130080FM-12+013599999V0201601N002012200019N0250001N1+00581+00181101601ADDGA1001+999999999GF100991001001999999001001MD1810021+9999REMSYN054AAXX  05151 31594 42975 01602 10058 20018 40160 58002;
0116315940999992000050518004+49420+130080FM-12+013599999V0201601N003012200019N0210001N1+00491+99999101581ADDGA1001+999999999GF100991001001999999001001MD1710021+9999REMSYN048AAXX  05181 31594 42971 01603 10049 40158 57002;
0147315940999992000050521004+49420+130080FM-12+013599999V0201601N003019999999N0100001N1+00291+00051999999ADDGF108991001001999999001011MD1011542+9999REMSYN060AAXX  05211 31594 42997 81603 10029 20005 49987 50154 80001;EQDQ01+099873APOSLPQ02+001542APC3  
0186315940999992000050600004+49420+130080FM-12+013599999V0201801N005019999999N0200001N1+00991-00051101371ADDAA199000091GF108991001001999999001011KA1999N+00251MA1999999099741MD1710131+9999REMSYN076AAXX  06001 31594 32998 81805 10099 21005 39974 40137 57013 80001 333 20025;EQDQ01  00002PRCP99
0122315940999992000050603004+49420+130080FM-12+013599999V0202001N006019999999N0200001N1+01691-00251101161ADDGF108991001001999999001011MD1710171+9999REMSYN070AAXX  06031 31594 42998 82006 10169 21025 40116 57017 80001 333 91110;
0122315940999992000050606004+49420+130080FM-12+013599999V0202301N006019999999N0200001N1+02261-00121100851ADDGF108991001001999999001081MD1710281+9999REMSYN070AAXX  06061 31594 42998 82306 10226 21012 40085 57028 80008 333 91110;
0122315940999992000050609004+49420+130080FM-12+013599999V0202401N004019999999N0200001N1+02161+00091100751ADDGF108991001001999999001071MD1610101+9999REMSYN070AAXX  06091 31594 42998 82404 10216 20009 40075 56010 80007 333 91111;
0186315940999992000050612004+49420+130080FM-12+013599999V0202401N005019999999N0200001N1+01531+00271100841ADDAA199000091GF108991001001999999001071KA1999M+02361MA1999999099251MD1310061+9999REMSYN076AAXX  06121 31594 32970 82405 10153 20027 39925 40084 53006 80007 333 10236;EQDQ01  00002PRCP99
0112315940999992000050615004+49420+130080FM-12+013599999V0202201N004019999999N0180001N1+01311+00431100871ADDGF108991081001999999071999MD1110011+9999REMSYN060AAXX  06151 31594 42968 82204 10131 20043 40087 51001 8807/;
0112315940999992000050618004+49420+130080FM-12+013599999V0201601N003019999999N0150001N1+01151+00171101101ADDGF108991001001999999001071MD1210221+9999REMSYN060AAXX  06181 31594 42965 81603 10115 20017 40110 52022 80007;
0112315940999992000050621004+49420+130080FM-12+013599999V0201701N004019999999N0200001N1+00941+00291101011ADDGF108991001001999999001011MD1810101+9999REMSYN060AAXX  06211 31594 42998 81704 10094 20029 40101 58010 80001;
0167315940999992000050700004+49420+130080FM-12+013599999V0201701N006019999999N0200001N1+01671+00381100801ADDAA199000091GF108991001001999999001071MA1999999099221MD1710161+9999REMSYN070AAXX  07001 31594 32998 81706 10167 20038 39922 40080 57016 80007 333;EQDQ01  00002PRCP99
0139315940999992000050703004+49420+130080FM-12+013599999V0201601N008019999999N0100001N1+02281+00301100671ADDGF108991001001999999001071MD1710101+9999OA140101301REMSYN076AAXX  07031 31594 42997 81608 10228 20030 40067 57010 80007 333 91013 91113;
0139315940999992000050706004+49420+130080FM-12+013599999V0202201N008019999999N0100001N1+02501+00551100451ADDGF108991001001999999001061MD1710211+9999OA140101401REMSYN076AAXX  07061 31594 42997 82208 10250 20055 40045 57021 80006 333 91014 91114;
0139315940999992000050709004+49420+130080FM-12+013599999V0201701N009019999999N0100001N1+02301+00591100281ADDGF108991001001999999001061MD1610171+9999OA140101501REMSYN076AAXX  07091 31594 42997 81709 10230 20059 40028 56017 80006 333 91015 91118;
0209315940999992000050712004+49420+130080FM-12+013599999V0201801N009019999999N0120001N1+01741+00891100371ADDAA199000091GF108991001001999999001011KA1120M+02501MA1999999098801MD1310061+9999OA140101501REMSYN088AAXX  07121 31594 32962 81809 10174 20089 39880 40037 53006 80001 333 10250 91015 91115;EQDQ01  00002PRCP99
0122315940999992000050715004+49420+130080FM-12+013599999V0201601N005019999999N0110001N1+01711+00881100281ADDGF105991001001999999001011MD1810091+9999REMSYN070AAXX  07151 31594 42961 51605 10171 20088 40028 58009 80001 333 91115;
0122315940999992000050718004+49420+130080FM-12+013599999V0201701N005019999999N0120001N1+01411+00711100381ADDGF108991001001999999001011MD1110071+9999REMSYN070AAXX  07181 31594 42962 81705 10141 20071 40038 51007 80001 333 91111;
0167315940999992000050721004+49420+130080FM-12+013599999V0203501N010019999999N0040001N1+00851+00301100831ADDAY121031AY221031GF108991081001999999071999MD1210321+9999MW1041OA140101501REMSYN082AAXX  07211 31594 41996 83510 10085 20030 40083 52032 70422 8807/ 333 91015 91115;
0246315940999992000050800004+49420+130080FM-12+013599999V0203601N008010033019N0040001N1+00541+00401101221ADDAA112000391AY161061AY221061GA1081+003309059GF108991081001004501021999KA1120N+00541MA1999999099571MD1210371+9999MW1611OA140101301REMSYN106AAXX  08001 31594 11496 83608 10054 20040 39957 40122 52037 69932 76162 8802/ 333 20054 88511 91013 91115;
0150315940999992000050803004+49420+130080FM-12+013599999V0200201N006012200019N0200001N1+00981+00291101351ADDAY161031AY221031GF108991031091008001001011MD1210161+9999MW1021REMSYN076AAXX  08031 31594 41598 80206 10098 20029 40135 52016 70262 83901 333 91113;
0167315940999992000050806004+49420+130080FM-12+013599999V0203501N009012200019N0200001N1+01491-00671101301ADDAY161061AY211061GF102991011021012501001031MD1810031+9999MW1021OA140101401REMSYN082AAXX  08061 31594 41698 23509 10149 21067 40130 58003 70261 81203 333 91014 91114;
0139315940999992000050809004+49420+130080FM-12+013599999V0203401N008012200019N0200001N1+01501-00941101371ADDGF102991011041999999001011MD1310061+9999OA140101301REMSYN076AAXX  08091 31594 42998 23408 10150 21094 40137 53006 81401 333 91013 91115;
0179315940999992000050812004+49420+130080FM-12+013599999V0200401N001012200019N0210001N1+00771-00121101531ADDAA112000591GF101991001001999999001011KA1120M+01811MA1999999099881MD1210121+9999REMSYN088AAXX  08121 31594 12971 10401 10077 21012 39988 40153 52012 69952 80001 333 10181 91112;
0122315940999992000050815004+49420+130080FM-12+013599999V0209999C000012200019N0180001N1+00381-00391101671ADDGA1001+999999999GF100991001001999999001001MD1210121+9999REMSYN054AAXX  08151 31594 42968 00000 10038 21039 40167 52012;
0122315940999992000050818004+49420+130080FM-12+013599999V0201801N001012200019N0200001N1-00111-00351101821ADDGA1001+999999999GF100991001001999999001001MD1210111+9999REMSYN054AAXX  08181 31594 42970 01801 11011 21035 40182 52011;
0122315940999992000050821004+49420+130080FM-12+013599999V0201401N002012200019N0200001N1+00361-00491101811ADDGA1001+999999999GF100991001001999999001001MD1210031+9999REMSYN054AAXX  08211 31594 42998 01402 10036 21049 40181 52003;
0196315940999992000050900004+49420+130080FM-12+013599999V0201501N003012200019N0200001N1+01041-00361101891ADDAA199000091GA1001+999999999GF100991001001999999001001KA1999N-00161MA1999999100251MD1210111+9999REMSYN070AAXX  09001 31594 32998 01503 10104 21036 30025 40189 52011 333 21016;EQDQ01  00002PRCP99
0122315940999992000050903004+49420+130080FM-12+013599999V0201701N005012200019N0200001N1+01651-00191101821ADDGA1001+999999999GF100991001001999999001001MD1810031+9999REMSYN054AAXX  09031 31594 42998 01705 10165 21019 40182 58003;
0112315940999992000050906004+49420+130080FM-12+013599999V0202301N003012200019N0200001N1+02011-00571101451ADDGF101991011011012501001001MD1710351+9999REMSYN060AAXX  09061 31594 42698 12303 10201 21057 40145 57035 81100;
0112315940999992000050909004+49420+130080FM-12+013599999V0202101N002012200019N0200001N1+02051-00381101341ADDGF101991011011012501001001MD1710111+9999REMSYN060AAXX  09091 31594 42698 12102 10205 21038 40134 57011 81100;
0186315940999992000050912004+49420+130080FM-12+013599999V0201101N002012200019N0160001N1+01561-00251101401ADDAA199000091GF102991001001999999001011KA1999M+02061MA1999999099801MD1310041+9999REMSYN076AAXX  09121 31594 32966 21102 10156 21025 39980 40140 53004 80001 333 10206;EQDQ01  00002PRCP99
0112315940999992000050915004+49420+130080FM-12+013599999V0201701N004012200019N0160001N1+01241-00411101491ADDGF102991001001999999001011MD1210071+9999REMSYN060AAXX  09151 31594 42966 21704 10124 21041 40149 52007 80001;
0112315940999992000050918004+49420+130080FM-12+013599999V0201601N003012200019N0180001N1+01131-00441101531ADDGF102991001001999999001011MD1210031+9999REMSYN060AAXX  09181 31594 42968 21603 10113 21044 40153 52003 80001;
0112315940999992000050921004+49420+130080FM-12+013599999V0201601N003019999999N0100001N1+99999+99999101621ADDGF108991001001999999001071MD1210091+9999REMSYN060AAXX  09211 31594 42997 81603 12014 21047 40162 52009 80007;
0202315940999992000051000004+49420+130080FM-12+013599999V0201801N002019999999N0100001N1+01531-00221101631ADDAA199000091GF108991001001999999001071KA1999N+01021MA1999999100031MD1210011+9999REMSYN076AAXX  10001 31594 32997 81802 10153 21022 30003 40163 52904 80007 333 20102;EQDQ01+009047APC3  Q02  00002PRCP99
0139315940999992000051003004+49420+130080FM-12+013599999V0202101N008019999999N0200001N1+01901-00601101501ADDGF108991001001999999001071MD1810121+9999OA140101201REMSYN076AAXX  10031 31594 42998 82108 10190 21060 40150 58012 80007 333 91012 91113;
0139315940999992000051006004+49420+130080FM-12+013599999V0201901N007019999999N0200001N1+01961-00711101231ADDGF108991001001999999001071MD1710361+9999OA140101201REMSYN076AAXX  10061 31594 42998 81907 10196 21071 40123 57036 80007 333 91012 91113;
0122315940999992000051009004+49420+130080FM-12+013599999V0201701N004019999999N0100001N1+01841-00601101601ADDGF108991001001999999001071MD1610071+9999REMSYN070AAXX  10091 31594 42997 81704 10184 21060 40160 56007 80007 333 91112;
0186315940999992000051012004+49420+130080FM-12+013599999V0201901N005010900019N0120001N1+01481+00431101191ADDAA199000091GF108991031051017501001071KA1999M+02021MA1999999099601MD1310021+9999REMSYN076AAXX  10121 31594 32762 81905 10148 20043 39960 40119 53002 83507 333 10202;EQDQ01  00002PRCP99
0144315940999992000051015004+49420+130080FM-12+013599999V0201801N005010054019N0100001N1+01211+00191101231ADDGA1051+005409099GF108991051091008001001071MD1110021+9999REMSYN076AAXX  10151 31594 42560 81805 10121 20019 40123 51002 85907 333 85918 91113;
0132315940999992000051018004+49420+130080FM-12+013599999V0201201N003010054019N0050001N1+00861+00501101161ADDGA1081+005409099GF108991999999004501999999MD1810091+9999REMSYN064AAXX  10181 31594 41450 81203 10086 20050 40116 58009 333 88918;
0166315940999992000051021004+49420+130080FM-12+013599999V0201001N003010081019N0040001N1+00881+00751101131ADDAY181031AY221031GA1081+008109099GF108991081091008001999999MD1710031+9999MW1801REMSYN076AAXX  10211 31594 41596 81003 10088 20075 40113 57003 78082 889// 333 88927;
0223315940999992000051100004+49420+130080FM-12+013599999V0201001N003010084019N0040001N1+00891+00781101121ADDAA112008991AY181061AY221061GA1081+008409099GF108991081091008001999999KA1120N+00811MA1999999099491MD1710011+9999MW1801REMSYN094AAXX  11001 31594 11596 81003 10089 20078 39949 40112 57001 60092 78082 889// 333 20081 88928;
0166315940999992000051103004+49420+130080FM-12+013599999V0201301N004010090019N0040001N1+00931+00761101051ADDAY181031AY281031GA1081+009009099GF108991081091008001999999MD1710071+9999MW1801REMSYN076AAXX  11031 31594 41596 81304 10093 20076 40105 57007 78088 889// 333 88930;
0166315940999992000051106004+49420+130080FM-12+013599999V0201201N003010090019N0040001N1+00971+00741100981ADDAY181061AY281061GA1081+009009099GF108991081091999999999999MD1710061+9999MW1801REMSYN076AAXX  11061 31594 41996 81203 10097 20074 40098 57006 78088 889// 333 88930;
0166315940999992000051109004+49420+130080FM-12+013599999V0201201N003010078019N0040001N1+00971+00851100851ADDAY181031AY281031GA1081+007809099GF108991081091008001999999MD1710131+9999MW1801REMSYN076AAXX  11091 31594 41596 81203 10097 20085 40085 57013 78088 889// 333 88926;
0223315940999992000051112004+49420+130080FM-12+013599999V0200801N003010072019N0035001N1+00881+00711100911ADDAA112013091AY181061AY221061GA1081+007209099GF108991081091008001999999KA1120M+01001MA1999999099281MD1210051+9999MW1811REMSYN094AAXX  11121 31594 11535 80803 10088 20071 39928 40091 52005 60132 78182 889// 333 10100 88924;
0132315940999992000051118004+49420+130080FM-12+013599999V0200901N003010084019N0070001N1+00961+00671100831ADDGA1081+008409099GF108991999999008001999999MD1710031+9999REMSYN064AAXX  11181 31594 41557 80903 10096 20067 40083 57003 333 88928;
0166315940999992000051121004+49420+130080FM-12+013599999V0200801N002010096019N0040001N1+00851+00641100841ADDAY181031AY221031GA1061+009609099GF108991061091008001071999MD1310011+9999MW1801REMSYN076AAXX  11211 31594 41596 80802 10085 20064 40084 53001 78082 8697/ 333 86932;
0223315940999992000051200004+49420+130080FM-12+013599999V0201101N002010090019N0020001N1+00881+00761100921ADDAA112004191AY181061AY221061GA1081+009009099GF108991081091008001999999KA1120N+00811MA1999999099291MD1010071+9999MW1811REMSYN094AAXX  12001 31594 11595 81102 10088 20076 39929 40092 50007 60042 78182 889// 333 20081 88930;
0166315940999992000051203004+49420+130080FM-12+013599999V0201301N002010099019N0200001N1+01091+00781100931ADDAY181031AY221031GA1081+009909099GF108991081091012501999999MD1310021+9999MW1021REMSYN076AAXX  12031 31594 41698 81302 10109 20078 40093 53002 70282 889// 333 88933;
0166315940999992000051206004+49420+130080FM-12+013599999V0201101N001010084019N0200001N1+01081+00771100961ADDAY181061AY221061GA1081+008409099GF108991081091008001999999MD1210031+9999MW1021REMSYN076AAXX  12061 31594 41598 81101 10108 20077 40096 52003 70282 889// 333 88928;
0138315940999992000051209004+49420+130080FM-12+013599999V0201101N001010099019N0200001N1+01161+00801100941ADDGA1061+009909099GF108991061091012501051999MD1810011+9999REMSYN070AAXX  12091 31594 42698 81101 10116 20080 40094 58001 8695/ 333 86933;
0195315940999992000051212004+49420+130080FM-12+013599999V0209999C000010078019N0200001N1+01031+00701101061ADDAA100000891GA1081+007809099GF108991081091008001999999KA1120M+01161MA1999999099441MD1310111+9999REMSYN088AAXX  12121 31594 11570 80000 10103 20070 39944 40106 53011 69980 889// 333 10116 88926;
0138315940999992000051215004+49420+130080FM-12+013599999V0209999C000010099019N0170001N1+00881+00621101021ADDGA1081+009909099GF108991081091012501999999MD1810031+9999REMSYN070AAXX  12151 31594 42667 80000 10088 20062 40102 58003 889// 333 88933;
0166315940999992000051218004+49420+130080FM-12+013599999V0209999C000010069019N0050001N1+00871+00811101021ADDAY181061AY221061GA1081+006909099GF108991081091008001999999MD1410001+9999MW1801REMSYN076AAXX  12181 31594 41550 80000 10087 20081 40102 54000 78082 889// 333 88923;
0166315940999992000051221004+49420+130080FM-12+013599999V0209999C000010081019N0040001N1+00831+00781100991ADDAY181031AY221031GA1081+008109099GF108991081091008001999999MD1710031+9999MW1801REMSYN076AAXX  12211 31594 41596 80000 10083 20078 40099 57003 78082 889// 333 88927;
0223315940999992000051300004+49420+130080FM-12+013599999V0201101N002010078019N0040001N1+00761+00611101071ADDAA112006191AY181061AY221061GA1081+007809099GF108991081091008001999999KA1120N+00751MA1999999099431MD1310071+9999MW1801REMSYN094AAXX  13001 31594 11596 81102 10076 20061 39943 40107 53007 60062 78082 889// 333 20075 88926;
0166315940999992000051303004+49420+130080FM-12+013599999V0200801N001010078019N0200001N1+00881+00501101201ADDAY181031AY221031GA1081+007809099GF108991081091008001999999MD1810041+9999MW1251REMSYN076AAXX  13031 31594 41598 80801 10088 20050 4012/ 58004 72582 889// 333 88926;
0140315940999992000051306004+49420+130080FM-12+013599999V0200701N001019999999N0500001N1+01161+00651100901ADDAY181061AY221061GF108991031091008001999999MD1710101+9999MW1021REMSYN066AAXX  13061 31594 41599 80701 10116 20065 40090 57010 70282 839//;
0138315940999992000051309004+49420+130080FM-12+013599999V0202501N001010081019N0200001N1+01221+00621100911ADDGA1061+008109099GF108991061091008001051999MD1310011+9999REMSYN070AAXX  13091 31594 42598 82501 10122 20062 40091 53001 8695/ 333 86927;
0173315940999992000051312004+49420+130080FM-12+013599999V0200401N001010360019N0260001N1+01011+00701100961ADDAA112001091GF108991031091008001051999KA1999M+01241MA1999999099341MD1210041+9999REMSYN082AAXX  13121 31594 12576 80401 10101 20070 39934 40096 52004 60012 8395/ 333 10124;
0112315940999992000051315004+49420+130080FM-12+013599999V0201001N001019999999N0220001N1+00721+00551101001ADDGF108991051001999999031011MD1310021+9999REMSYN060AAXX  13151 31594 42972 81001 10072 20055 40100 53002 85031;
0112315940999992000051318004+49420+130080FM-12+013599999V0209999C000012200019N0200001N1+00551+00501101051ADDGF103991021001999999031011MD1210041+9999REMSYN060AAXX  13181 31594 42970 30000 10055 20050 40105 52004 82031;
0112315940999992000051321004+49420+130080FM-12+013599999V0209999C000010360019N0200001N1+00471+00421101071ADDGF106991031051012501031001MD1210021+9999REMSYN060AAXX  13211 31594 42698 60000 10047 20042 40107 52002 83530;
0208315940999992000051400004+49420+130080FM-12+013599999V0201201N001010108019N0500001N1+01101+00681101081ADDAA199000091GA1071+010809059GF107991071051012501999999KA1120N+00361MA1999999099461MD1210041+9999REMSYN082AAXX  14001 31594 32699 71201 10110 20068 39946 40108 52004 875// 333 20036 87636;EQDQ01  00002PRCP99
0138315940999992000051403004+49420+130080FM-12+013599999V0201101N002010111019N0500001N1+01531+00621101071ADDGA1071+011109059GF107991071051012501999999MD1110021+9999REMSYN070AAXX  14031 31594 42699 71102 10153 20062 40107 51002 875// 333 87637;
0138315940999992000051406004+49420+130080FM-12+013599999V0202701N001010135019N0500001N1+01641+00591101011ADDGA1081+013509099GF108991081091012501999999MD1810061+9999REMSYN070AAXX  14061 31594 42699 82701 10164 20059 40101 58006 889// 333 88945;
0138315940999992000051409004+49420+130080FM-12+013599999V0203001N002010129019N0500001N1+01481+00711100991ADDGA1071+012909059GF107991071051012501999999MD1610021+9999REMSYN070AAXX  14091 31594 42699 73002 10148 20071 40099 56002 875// 333 87643;
0186315940999992000051412004+49420+130080FM-12+013599999V0209999C000010360019N0220001N1+01271+00821101171ADDAA199000091GF108991021041012501051999KA1999M+01681MA1999999099561MD1310161+9999REMSYN076AAXX  14121 31594 32672 80000 10127 20082 39956 40117 53016 8245/ 333 10168;EQDQ01  00002PRCP99
0112315940999992000051415004+49420+130080FM-12+013599999V0200601N001019999999N0200001N1+01041+00701101171ADDGF107991071001999999051999MD1810011+9999REMSYN060AAXX  14151 31594 42970 70601 10104 20070 40117 58001 8705/;
0112315940999992000051418004+49420+130080FM-12+013599999V0202401N001019999999N0190001N1+00881+00711101221ADDGF107991071001999999031001MD1310041+9999REMSYN060AAXX  14181 31594 42969 72401 10088 20071 40122 53004 87030;
0112315940999992000051421004+49420+130080FM-12+013599999V0201901N001019999999N0200001N1+00821+00701101351ADDGF107991071001999999031001MD1210121+9999REMSYN060AAXX  14211 31594 42998 71901 10082 20070 40135 52012 87030;
0186315940999992000051500004+49420+130080FM-12+013599999V0202601N001012200019N0200001N1+01351+00851101361ADDAA199000091GF102991011021008001031001KA1999N+00741MA1999999099751MD1210041+9999REMSYN076AAXX  15001 31594 32598 22601 10135 20085 39975 40136 52004 81230 333 20074;EQDQ01  00002PRCP99
0157315940999992000051503004+49420+130080FM-12+013599999V0201801N002012200019N0200001N1+01831+00731101281ADDGA1051+008409099GF199999051041008001001001MD1810051+9999REMSYN070AAXX  15031 31594 42598 21802 10183 20073 40128 58005 85400 333 85928;EQDQ01+000022SCOTCV
0112315940999992000051506004+49420+130080FM-12+013599999V0202901N001012200019N0200001N1+01951+00611101161ADDGF106991031021012501001011MD1710111+9999REMSYN060AAXX  15061 31594 42698 62901 10195 20061 40116 57011 83201;
0112315940999992000051509004+49420+130080FM-12+013599999V0203101N003010360019N0200001N1+01901+00701101041ADDGF107991011051012501051011MD1710131+9999REMSYN060AAXX  15091 31594 42698 73103 10190 20070 40104 57013 81551;
0186315940999992000051512004+49420+130080FM-12+013599999V0209999C000019999999N0160001N1+01501+00921101061ADDAA199000091GF108991001001999999071999KA1999M+02021MA1999999099471MD1310011+9999REMSYN076AAXX  15121 31594 32966 80000 10150 20092 39947 40106 53001 8007/ 333 10202;EQDQ01  00002PRCP99
0112315940999992000051515004+49420+130080FM-12+013599999V0201201N001010900019N0180001N1+01281+00861101021ADDGF108991031091008001001071MD1810061+9999REMSYN060AAXX  15151 31594 42568 81201 10128 20086 40102 58006 83907;
0166315940999992000051518004+49420+130080FM-12+013599999V0201301N002010081019N0060001N1+01181+00881100941ADDAY181061AY221061GA1081+008109099GF108991081091008001999999MD1710081+9999MW1801REMSYN076AAXX  15181 31594 41556 81302 10118 20088 40094 57008 78082 889// 333 88927;
0140315940999992000051521004+49420+130080FM-12+013599999V0201801N001012200019N0200001N1+01141+00811100841ADDAY181031AY221031GF108991031051012501001011MD1710101+9999MW1021REMSYN066AAXX  15211 31594 41698 81801 10114 20081 40084 57010 70282 83501;
0201315940999992000051600004+49420+130080FM-12+013599999V0203501N004012200019N0200001N1+01451+00971100831ADDAA112000891AY181061AY211061GF102991021021008001001001KA1999N+01091MA1999999099241MD1310011+9999MW1021REMSYN088AAXX  16001 31594 11598 23504 10145 20097 39924 40083 53001 69972 70281 82200 333 20109;
0157315940999992000051603004+49420+130080FM-12+013599999V0203401N004010084019N0200001N1+01671+00821100881ADDGA1061+008409029GF107991999021008001001001MD1210061+9999REMSYN070AAXX  16031 31594 42598 73404 10167 20082 40088 52006 86200 333 86828;EQDQ01+000062SCOTLC
0112315940999992000051606004+49420+130080FM-12+013599999V0203001N005010360019N0200001N1+01881+00671100801ADDGF106991031021012501031001MD1810071+9999REMSYN060AAXX  16061 31594 42698 63005 10188 20067 40080 58007 83230;
0122315940999992000051609004+49420+130080FM-12+013599999V0203201N004012200019N0200001N1+01901+00581100731ADDGF102991011011012501001011MD1710071+9999REMSYN070AAXX  16091 31594 42698 23204 10190 20058 40073 57007 81101 333 91110;
0186315940999992000051612004+49420+130080FM-12+013599999V0203201N002012200019N0220001N1+01401+00801100781ADDAA199000091GF102991011001999999041011KA1999M+01951MA1999999099181MD1310021+9999REMSYN076AAXX  16121 31594 32972 23202 10140 20080 39918 40078 53002 81041 333 10195;EQDQ01  00002PRCP99
0112315940999992000051615004+49420+130080FM-12+013599999V0209999C000012200019N0190001N1+00731+00551100801ADDGF103991001001999999001011MD1610021+9999REMSYN060AAXX  16151 31594 42969 30000 10073 20055 40080 56002 80001;
0131315940999992000051618004+49420+130080FM-12+013599999V0201101N001019999999N0120001N1+00551+00461999999ADDGF108991011001999999031011MD1810011+9999REMSYN060AAXX  16181 31594 42962 81101 10055 20046 40008 58001 81031;EQDQ01+100083APOSLP
0166315940999992000051621004+49420+130080FM-12+013599999V0201601N001010090019N0100001N1+00821+00621100761ADDAY181031AY221031GA1081+009009099GF108991081091008001999999MD1710021+9999MW1801REMSYN076AAXX  16211 31594 41597 81601 10082 20062 40076 57002 78082 889// 333 88930;
0201315940999992000051700004+49420+130080FM-12+013599999V0201601N003012200019N0200001N1+01261+00771100641ADDAA112000791AY181061AY221061GF103991011051012501031001KA1999N+00501MA1999999099041MD1710091+9999MW1021REMSYN088AAXX  17001 31594 11698 31603 10126 20077 39904 40064 57009 69902 70282 81530 333 20050;
0112315940999992000051703004+49420+130080FM-12+013599999V0202201N001010360019N0200001N1+01801+00581100621ADDGF108991021091012501031011MD1310011+9999REMSYN060AAXX  17031 31594 42698 82201 10180 20058 40062 53001 82931;
0140315940999992000051706004+49420+130080FM-12+013599999V0201601N001010360019N0200001N1+02031+01071100461ADDAY181061AY211061GF108991021091008001051011MD1810151+9999MW1251REMSYN066AAXX  17061 31594 41598 81601 10203 20107 40046 58015 72581 82951;
0112315940999992000051709004+49420+130080FM-12+013599999V0203301N001010360019N0200001N1+02021+00931100391ADDGF108991021091012501051011MD1710071+9999REMSYN060AAXX  17091 31594 42698 83301 10202 20093 40039 57007 82951;
0191315940999992000051712004+49420+130080FM-12+013599999V0202201N003010360019N0230001N1+01501+01061100531ADDAA112000391AY191061AY221061GF108991041091012501031011KA1120M+02111MA1999999098941MW1171REMSYN092AAXX  17121 31594 11673 82203 10150 20106 39894 40053 69932 71792 84931 333 10211 555 12015;
0150315940999992000051715004+49420+130080FM-12+013599999V0203401N003010360019N0220001N1+01381+01231100601ADDAY191031AY281031GF106991031091012501031001MD1310061+9999MW1021REMSYN076AAXX  17151 31594 41672 63403 10138 20123 40060 53006 70298 83930 333 91110;
0166315940999992000051718004+49420+130080FM-12+013599999V0200301N004010054019N0160001N1+01221+01031100591ADDAY191061AY281061GA1081+005409099GF108991081091004501999999MD1810011+9999MW1251REMSYN076AAXX  17181 31594 41466 80304 10122 20103 40059 58001 72598 889// 333 88918;
0166315940999992000051721004+49420+130080FM-12+013599999V0200201N001010081019N0200001N1+01071+00991100761ADDAY181031AY221031GA1081+008109099GF108991061091008001051011MD1310161+9999MW1251REMSYN076AAXX  17211 31594 41598 80201 10107 20099 40076 53016 72582 86951 333 88927;
0201315940999992000051800004+49420+130080FM-12+013599999V0203401N003012200019N0200001N1+01301+01111100821ADDAA100009991AY181061AY221061GF108991031091008001001011KA1999N+01041MA1999999099221MD1210051+9999MW1021REMSYN088AAXX  18001 31594 11598 83403 10130 20111 39922 40082 52005 60100 70282 83901 333 20104;
0112315940999992000051803004+49420+130080FM-12+013599999V0203301N004019999999N0200001N1+01701+00621100831ADDGF108991001001999999001071MD1210031+9999REMSYN060AAXX  18031 31594 42998 83304 10170 20062 40083 52003 80007;
0112315940999992000051806004+49420+130080FM-12+013599999V0203501N005010360019N0200001N1+01971+00211100791ADDGF108991021091008001081011MD1810021+9999REMSYN060AAXX  18061 31594 42598 83505 10197 20021 40079 58002 82981;
0122315940999992000051809004+49420+130080FM-12+013599999V0203601N005019999999N0200001N1+01771+00171100871ADDGF108991061001999999031011MD1310011+9999REMSYN070AAXX  18091 31594 42998 83605 10177 20017 40087 53001 86031 333 91110;
0186315940999992000051812004+49420+130080FM-12+013599999V0200301N003010360019N0250001N1+01481+00021101011ADDAA199000091GF108991031091012501051999KA1999M+02011MA1999999099411MD1210171+9999REMSYN076AAXX  18121 31594 32675 80303 10148 20002 39941 40101 52017 8395/ 333 10201;EQDQ01  00002PRCP99
0112315940999992000051815004+49420+130080FM-12+013599999V0200201N001010360019N0230001N1+01211+00091101041ADDGF108991031091012501051999MD1210021+9999REMSYN060AAXX  18151 31594 42673 80201 10121 20009 40104 52002 8395/;
0185315940999992000051818004+49420+130080FM-12+013599999V0200401N004010078019N0210001N1+01081-00141101001ADDAY121061AY221061GA1061+007809099GF108991061091008001051999MD1810041+9999MW1251REMSYN076AAXX  18181 31594 41571 80404 10108 21014 40100 58505 72522 8695/ 333 86926;EQDQ01+005057APC3  
0166315940999992000051821004+49420+130080FM-12+013599999V0200301N001010087019N0040001N1+00851+00551101111ADDAY181031AY221031GA1081+008709099GF108991081091008001999999MD1310101+9999MW1801REMSYN076AAXX  18211 31594 41596 80301 10085 20055 40111 53010 78082 889// 333 88929;
0223315940999992000051900004+49420+130080FM-12+013599999V0200101N003010090019N0100001N1+00671+00491101181ADDAA112004191AY181061AY221061GA1081+009009099GF108991081091008001999999KA1120N+00651MA1999999099541MD1210061+9999MW1801REMSYN094AAXX  19001 31594 11597 80103 10067 20049 39954 40118 52006 60042 78082 889// 333 20065 88930;
0150315940999992000051903004+49420+130080FM-12+013599999V0200201N004010360019N0200001N1+00721+00501101111ADDAY181031AY221031GF108991031091012501071999MD1810071+9999MW1021REMSYN076AAXX  19031 31594 41698 80204 10072 20050 40111 58007 70282 8397/ 333 91111;
0166315940999992000051906004+49420+130080FM-12+013599999V0203401N005010063019N0200001N1+00981+00591101051ADDAY181061AY221061GA1061+006309059GF108991061091008001071999MD1710041+9999MW1021REMSYN076AAXX  19061 31594 41598 83405 10098 20059 40105 57004 70282 8697/ 333 86621;
0166315940999992000051909004+49420+130080FM-12+013599999V0203601N006010078019N0040001N1+00761+00611101071ADDAY181031AY221031GA1081+007809099GF108991081091012501999999MD1510001+9999MW1801REMSYN076AAXX  19091 31594 41696 83606 10076 20061 40107 55000 78082 889// 333 88926;
0220315940999992000051912004+49420+130080FM-12+013599999V0200101N001012200019N0220001N1+00741+00551101021ADDAA100005191AY181061AY221061GF108991021051012501001011KA1999M+99999MA1999999099381MD1710051+9999MW1021REMSYN088AAXX  19121 31594 11672 80101 10074 20055 39938 40102 57005 60050 70282 82501 333 10498;EQDQ01 +04982ATMX  
0112315940999992000051915004+49420+130080FM-12+013599999V0203501N002019999999N0160001N1+00671+00561101011ADDGF107991071001999999041999MD1610011+9999REMSYN060AAXX  19151 31594 42966 73502 10067 20056 40101 56001 8704/;
0112315940999992000051918004+49420+130080FM-12+013599999V0200401N001019999999N0180001N1+00621+00531100961ADDGF108991001001999999001011MD1710061+9999REMSYN060AAXX  19181 31594 42968 80401 10062 20053 40096 57006 80001;
0166315940999992000051921004+49420+130080FM-12+013599999V0203601N001010090019N0100001N1+00651+00561100941ADDAY181031AY221031GA1081+009009099GF108991081091999999999999MD1610011+9999MW1251REMSYN076AAXX  19211 31594 41997 83601 10065 20056 40094 56001 72582 889// 333 88930;
0223315940999992000052000004+49420+130080FM-12+013599999V0201701N001010051019N0200001N1+00901+00681100941ADDAA112002091AY181061AY221061GA1081+005109099GF108991081091004501999999KA1120N+00571MA1999999099311MD1310011+9999MW1021REMSYN094AAXX  20001 31594 11498 81701 10090 20068 39931 40094 53001 60022 70282 889// 333 20057 88917;
0166315940999992000052003004+49420+130080FM-12+013599999V0200301N002010087019N0200001N1+01111+00801100871ADDAY121031AY221031GA1071+008709099GF108991071091008001051999MD1810061+9999MW1251REMSYN076AAXX  20031 31594 41598 80302 10111 20080 40087 58006 72522 8795/ 333 87929;
0166315940999992000052006004+49420+130080FM-12+013599999V0203601N002010096019N0200001N1+01361+01021100721ADDAY181061AY221061GA1061+009609099GF108991061091008001051999MD1710131+9999MW1021REMSYN076AAXX  20061 31594 41598 83602 10136 20102 40072 57013 70282 8695/ 333 86932;
0112315940999992000052009004+49420+130080FM-12+013599999V0200701N003010360019N0200001N1+01651+01001100571ADDGF106991021091012501031011MD1710131+9999REMSYN060AAXX  20091 31594 42698 60703 10165 20100 40057 57013 82931;
0173315940999992000052012004+49420+130080FM-12+013599999V0201101N003010900019N0240001N1+01271+00981100641ADDAA112000391GF105991021051012501031011KA1999M+01681MA1999999099041MD1310051+9999REMSYN082AAXX  20121 31594 12674 51103 10127 20098 39904 40064 53005 69932 82531 333 10168;
0112315940999992000052015004+49420+130080FM-12+013599999V0200901N004019999999N0220001N1+01181+00981100661ADDGF108991021001999999031011MD1110011+9999REMSYN060AAXX  20151 31594 42972 80904 10118 20098 40066 51001 82031;
0112315940999992000052018004+49420+130080FM-12+013599999V0201101N003019999999N0200001N1+01161+00941100631ADDGF108991031001999999031011MD1010031+9999REMSYN060AAXX  20181 31594 42970 81103 10116 20094 40063 50003 83031;
0112315940999992000052021004+49420+130080FM-12+013599999V0201201N002010360019N0200001N1+01131+00951100641ADDGF108991021051012501051011MD1310011+9999REMSYN060AAXX  20211 31594 42698 81202 10113 20095 40064 53001 82551;
0223315940999992000052100004+49420+130080FM-12+013599999V0201601N003010075019N0200001N1+01321+01071100691ADDAA112000791AY181061AY221061GA1061+007509099GF108991061091008001051999KA1120N+01081MA1999999099091MD1210061+9999MW1021REMSYN094AAXX  21001 31594 11598 81603 10132 20107 39909 40069 52006 69902 70282 8695/ 333 20108 86925;
0140315940999992000052103004+49420+130080FM-12+013599999V0201301N002010360019N0100001N1+01421+01141100641ADDAY181031AY221031GF108991021091012501051999MD1810041+9999MW1021REMSYN066AAXX  21031 31594 41697 81302 10142 20114 40064 58004 70282 8295/;
0166315940999992000052106004+49420+130080FM-12+013599999V0201701N002010066019N0200001N1+01851+01141100461ADDAY181061AY221061GA1061+006609099GF108991061091008001051011MD1710161+9999MW1021REMSYN076AAXX  21061 31594 41598 81702 10185 20114 40046 57016 70282 86951 333 86922;
0140315940999992000052109004+49420+130080FM-12+013599999V0201401N001010360019N0200001N1+01441+01021100501ADDAY191031AY281031GF108991031091012501051999MD1310021+9999MW1021REMSYN066AAXX  21091 31594 41698 81401 10144 20102 40050 53002 70298 8395/;
0166315940999992000052115004+49420+130080FM-12+013599999V0201301N001010078019N0070001N1+01211+01041100561ADDAY181031AY221031GA1081+007809099GF108991081091008001999999MD1010021+9999MW1801REMSYN076AAXX  21151 31594 41557 81301 10121 20104 40056 50002 78082 889// 333 88926;
0166315940999992000052118004+49420+130080FM-12+013599999V0201101N001010150019N0170001N1+01161+01001100611ADDAY181061AY221061GA1051+015009059GF108991051051012501051999MD1310041+9999MW1021REMSYN076AAXX  21181 31594 41667 81101 10116 20100 40061 53004 70282 8555/ 333 85650;
0166315940999992000052121004+49420+130080FM-12+013599999V0209999C000010093019N0100001N1+01141+01001100611ADDAY121031AY221031GA1061+009309099GF108991061091008001051999MD1410001+9999MW1251REMSYN076AAXX  21211 31594 41597 80000 10114 20100 40061 54000 72522 8695/ 333 86931;
0223315940999992000052200004+49420+130080FM-12+013599999V0209999C000010048019N0100001N1+01321+01091100641ADDAA112000891AY181061AY221061GA1081+004809099GF108991081091004501999999KA1120N+01101MA1999999099041MD1210041+9999MW1021REMSYN094AAXX  22001 31594 11497 80000 10132 20109 39904 40064 52004 69982 70282 889// 333 20110 88916;
0112315940999992000052203004+49420+130080FM-12+013599999V0202501N002012200019N0100001N1+01521+01171100561ADDGF108991031091012501001011MD1810061+9999REMSYN060AAXX  22031 31594 42697 82502 10152 20117 40056 58006 83901;
0112315940999992000052206004+49420+130080FM-12+013599999V0202501N003012200019N0200001N1+01961+01171100441ADDGF108991031031012501001011MD1710111+9999REMSYN060AAXX  22061 31594 42698 82503 10196 20117 40044 57011 83301;
0112315940999992000052209004+49420+130080FM-12+013599999V0203001N001012200019N0200001N1+01961+00941100401ADDGF108991021091008001001011MD1710031+9999REMSYN060AAXX  22091 31594 42598 83001 10196 20094 40040 57003 82901;
0186315940999992000052212004+49420+130080FM-12+013599999V0200901N002012200019N0240001N1+01541+01091100491ADDAA199000091GF108991031091008001001011KA1999M+01991MA1999999098911MD1310071+9999REMSYN076AAXX  22121 31594 32574 80902 10154 20109 39891 40049 53007 83901 333 10199;EQDQ01  00002PRCP99
0112315940999992000052215004+49420+130080FM-12+013599999V0201401N002010900019N0220001N1+01271+00851100451ADDGF105991021051012501031011MD1810061+9999REMSYN060AAXX  22151 31594 42672 51402 10127 20085 40045 58006 82531;
0112315940999992000052218004+49420+130080FM-12+013599999V0201701N002010360019N0190001N1+01311+01021100441ADDGF108991031091008001051999MD1710011+9999REMSYN060AAXX  22181 31594 42569 81702 10131 20102 40044 57001 8395/;
0166315940999992000052221004+49420+130080FM-12+013599999V0201201N001010081019N0040001N1+01181+01061100531ADDAY181031AY221031GA1081+008109099GF108991081091008001999999MD1310081+9999MW1801REMSYN076AAXX  22211 31594 41596 81201 10118 20106 40053 53008 78082 889// 333 88927;
0201315940999992000052300004+49420+130080FM-12+013599999V0201101N001010360019N0100001N1+01261+01141100661ADDAA112006191AY181061AY221061GF108991031091008001011999KA1999N+01141MA1999999099061MD1210141+9999MW1801REMSYN088AAXX  23001 31594 11597 81101 10126 20114 39906 40066 52014 60062 78082 8391/ 333 20114;
0140315940999992000052303004+49420+130080FM-12+013599999V0201001N001010360019N0200001N1+01541+01091100701ADDAY181031AY221031GF106991031091008001051001MD1210061+9999MW1021REMSYN066AAXX  23031 31594 41598 61001 10154 20109 40070 52006 70282 83950;
0140315940999992000052306004+49420+130080FM-12+013599999V0202201N003012200019N0200001N1+01751+01261100701ADDAY181061AY221061GF103991021091008001031001MD1010011+9999MW1021REMSYN066AAXX  23061 31594 41598 32203 10175 20126 40070 50001 70282 82930;
0112315940999992000052309004+49420+130080FM-12+013599999V0202901N001012200019N0200001N1+01991+01051100661ADDGF102991021081012501031001MD1510031+9999REMSYN060AAXX  23091 31594 42698 22901 10199 20105 40066 55003 82830;
0173315940999992000052312004+49420+130080FM-12+013599999V0209999C000012200019N0190001N1+01571+01281100791ADDAA100003091GF102991001001999999001011KA1999M+01951MA1999999099211MD1210111+9999REMSYN082AAXX  23121 31594 12969 20000 10157 20128 39921 40079 52011 60030 80001 333 10195;
0122315940999992000052315004+49420+130080FM-12+013599999V0201301N002012200019N0200001N1+01331+01031100891ADDGA1001+999999999GF100991001001999999001001MD1210081+9999REMSYN054AAXX  23151 31594 42970 01302 10133 20103 40089 52008;
0112315940999992000052318004+49420+130080FM-12+013599999V0201401N002019999999N0230001N1+01131+00931100921ADDGF108991001001999999001071MD1210021+9999REMSYN060AAXX  23181 31594 42973 81402 10113 20093 40092 52002 80007;
0106315940999992000052321004+49420+130080FM-12+013599999V0201201N002012200019N0200001N1+01321+99999100921ADDGF102991001001999999001011MD1710011+9999REMSYN054AAXX  23211 31594 42998 21202 10132 40092 57001 80001;
0186315940999992000052400004+49420+130080FM-12+013599999V0201701N004010360019N0200001N1+01501+01041100821ADDAA199000091GF108991021091012501071999KA1999N+01001MA1999999099231MD1710071+9999REMSYN076AAXX  24001 31594 32698 81704 10150 20104 39923 40082 57007 8297/ 333 20100;EQDQ01  00002PRCP99
0139315940999992000052403004+49420+130080FM-12+013599999V0201601N008010360019N0200001N1+01741+01031100601ADDGF108991021011012501031011MD1710201+9999OA140101201REMSYN076AAXX  24031 31594 42698 81608 10174 20103 40060 57020 82131 333 91012 91114;
0139315940999992000052406004+49420+130080FM-12+013599999V0201601N007019999999N0200001N1+01711+00931100281ADDGF107991071001999999051999MD1710321+9999OA140101301REMSYN076AAXX  24061 31594 42998 71607 10171 20093 40028 57032 8705/ 333 91013 91117;
0139315940999992000052409004+49420+130080FM-12+013599999V0201701N006010360019N0200001N1+01781+00991100111ADDGF108991031091012501031011MD1710161+9999OA140101201REMSYN076AAXX  24091 31594 42698 81706 10178 20099 40011 57016 83931 333 91012 91116;
0192315940999992000052412004+49420+130080FM-12+013599999V0201601N004019999999N0250001N1+01661+01101100101ADDAA199000091GF108991021001999999031011KA1120M+01881MA1999999098531MD1710021+9999REMSYN082AAXX  24121 31594 32975 81604 10166 20110 39853 40010 57002 82031 333 10188 91112;EQDQ01  00002PRCP99
0112315940999992000052415004+49420+130080FM-12+013599999V0201501N005019999999N0230001N1+01561+01131099991ADDGF108991001001999999001011MD1710111+9999REMSYN060AAXX  24151 31594 42973 81505 10156 20113 49999 57011 80001;
0112315940999992000052418004+49420+130080FM-12+013599999V0201701N006019999999N0220001N1+01451+01181099891ADDGF108991011001999999051011MD1510111+9999REMSYN060AAXX  24181 31594 42972 81706 10145 20118 49989 55011 81051;
0112315940999992000052421004+49420+130080FM-12+013599999V0201601N002010360019N0200001N1+01291+01121100031ADDGF107991031051017501051001MD1210131+9999REMSYN060AAXX  24211 31594 42798 71602 10129 20112 40003 52013 83550;
0186315940999992000052500004+49420+130080FM-12+013599999V0202701N002010900019N0200001N1+01681+01231100111ADDAA199000091GF108991011051017501001071KA1999N+01191MA1999999098541MD1210101+9999REMSYN076AAXX  25001 31594 32798 82702 10168 20123 39854 40011 52010 81507 333 20119;EQDQ01  00002PRCP99
0112315940999992000052503004+49420+130080FM-12+013599999V0201901N003010360019N0100001N1+02121+01361100001ADDGF108991021091012501051999MD1810081+9999REMSYN060AAXX  25031 31594 42697 81903 10212 20136 40000 58008 8295/;
0139315940999992000052506004+49420+130080FM-12+013599999V0202901N009012200019N0200001N1+02431+00411099821ADDGF108991011021017501001011MD1710171+9999OA140101501REMSYN076AAXX  25061 31594 42798 82909 10243 20041 49982 57017 81201 333 91015 91116;
0139315940999992000052509004+49420+130080FM-12+013599999V0203301N010019999999N0200001N1+02001-00441100081ADDGF105991001001999999001011MD1310231+9999OA140101601REMSYN076AAXX  25091 31594 42998 53310 10200 21044 40008 53023 80001 333 91016 91118;
0192315940999992000052512004+49420+130080FM-12+013599999V0203001N003012200019N0200001N1+01381+00001100381ADDAA199000091GF103991001001999999001011KA1120M+02451MA1999999098781MD1210261+9999REMSYN082AAXX  25121 31594 32970 33003 10138 20000 39878 40038 52026 80001 333 10245 91116;EQDQ01  00002PRCP99
0132315940999992000052515004+49420+130080FM-12+013599999V0203001N002012200019N0220001N1+00951+00211100771ADDGA1001+999999999GF100991001001999999001001MD1210371+9999REMSYN064AAXX  25151 31594 42972 03002 10095 20021 40077 52037 333 91110;
0122315940999992000052518004+49420+130080FM-12+013599999V0203201N003012200019N0200001N1+00721+00211100931ADDGA1001+999999999GF100991001001999999001001MD1210141+9999REMSYN054AAXX  25181 31594 42970 03203 10072 20021 40093 52014;
0112315940999992000052521004+49420+130080FM-12+013599999V0203501N001019999999N0200001N1+00681+00301101021ADDGF108991001001999999001071MD1210091+9999REMSYN060AAXX  25211 31594 42998 83501 10068 20030 40102 52009 80007;
0186315940999992000052600004+49420+130080FM-12+013599999V0203101N004019999999N0200001N1+01281+00301101101ADDAA199000091GF108991001001999999001071KA1999N+00501MA1999999099491MD1210111+9999REMSYN076AAXX  26001 31594 32998 83104 10128 20030 39949 40110 52011 80007 333 20050;EQDQ01  00002PRCP99
0125315940999992000052603004+49420+130080FM-12+013599999V0203201N004019999999N0200001N1+01971+00341101121ADDGF108991999999999999999999MD1010602+9999REMSYN054AAXX  26031 31594 42998 83204 10197 20034 40112 5006/;EQDQ01+000602APC3  
0122315940999992000052606004+49420+130080FM-12+013599999V0203101N006019999999N0200001N1+01991+00291100981ADDGF108991081001999999011999MD1710141+9999REMSYN070AAXX  26061 31594 42998 83106 10199 20029 40098 57014 8801/ 333 91111;
0112315940999992000052609004+49420+130080FM-12+013599999V0203001N003019999999N0200001N1+01921+00321100981ADDGF108991001001999999001071MD1410001+9999REMSYN060AAXX  26091 31594 42998 83003 10192 20032 40098 54000 80007;
0186315940999992000052612004+49420+130080FM-12+013599999V0209999C000019999999N0230001N1+01531+00551100991ADDAA199000091GF108991021001999999051011KA1999M+02031MA1999999099401MD1810011+9999REMSYN076AAXX  26121 31594 32973 80000 10153 20055 39940 40099 58001 82051 333 10203;EQDQ01  00002PRCP99
0112315940999992000052615004+49420+130080FM-12+013599999V0202001N001012200019N0210001N1+01151+00411101021ADDGF101991001001999999001011MD1410001+9999REMSYN060AAXX  26151 31594 42971 12001 10115 20041 40102 54000 80001;
0112315940999992000052618004+49420+130080FM-12+013599999V0201301N002012200019N0200001N1+01111+00411101011ADDGF102991001001999999001011MD1810011+9999REMSYN060AAXX  26181 31594 42970 21302 10111 20041 40101 58001 80001;
0112315940999992000052621004+49420+130080FM-12+013599999V0209999C000019999999N0200001N1+01221+00291100961ADDGF108991001001999999001011MD1710041+9999REMSYN060AAXX  26211 31594 42998 80000 10122 20029 40096 57004 80001;
0186315940999992000052700004+49420+130080FM-12+013599999V0201401N001019999999N0200001N1+01461+00411100841ADDAA199000091GF108991001001999999001071KA1999N+00591MA1999999099251MD1710101+9999REMSYN076AAXX  27001 31594 32998 81401 10146 20041 39925 40084 57010 80007 333 20059;EQDQ01  00002PRCP99
0112315940999992000052703004+49420+130080FM-12+013599999V0202001N003019999999N0200001N1+02031+00851100691ADDGF108991001001999999001071MD1710121+9999REMSYN060AAXX  27031 31594 42998 82003 10203 20085 40069 57012 80007;
0112315940999992000052706004+49420+130080FM-12+013599999V0201901N003019999999N0200001N1+02241+00711100411ADDGF108991001001999999001071MD1710271+9999REMSYN060AAXX  27061 31594 42998 81903 10224 20071 40041 57027 80007;
0112315940999992000052709004+49420+130080FM-12+013599999V0201801N004019999999N0200001N1+02191+00701100261ADDGF106991001001999999001011MD1710141+9999REMSYN060AAXX  27091 31594 42998 61804 10219 20070 40026 57014 80001;
0186315940999992000052712004+49420+130080FM-12+013599999V0201501N002019999999N0240001N1+01801+00741100261ADDAA199000091GF106991001001999999001011KA1999M+02291MA1999999098691MD1710031+9999REMSYN076AAXX  27121 31594 32974 61502 10180 20074 39869 40026 57003 80001 333 10229;EQDQ01  00002PRCP99
0122315940999992000052715004+49420+130080FM-12+013599999V0201501N002012200019N0230001N1+01391+00641100301ADDGA1001+999999999GF100991001001999999001001MD1310011+9999REMSYN054AAXX  27151 31594 42973 01502 10139 20064 40030 53001;
0122315940999992000052718004+49420+130080FM-12+013599999V0201201N002012200019N0270001N1+01131+00671100241ADDGA1001+999999999GF100991001001999999001001MD1810061+9999REMSYN054AAXX  27181 31594 42977 01202 10113 20067 40024 58006;
0122315940999992000052721004+49420+130080FM-12+013599999V0201601N002012200019N0200001N1+01051+00591100171ADDGA1001+999999999GF100991001001999999001001MD1710071+9999REMSYN054AAXX  27211 31594 42998 01602 10105 20059 40017 57007;
0196315940999992000052800004+49420+130080FM-12+013599999V0201701N002012200019N0200001N1+01651+00881099981ADDAA199000091GA1001+999999999GF100991001001999999001001KA1999N+01011MA1999999098411MD1710161+9999REMSYN070AAXX  28001 31594 32998 01702 10165 20088 39841 49998 57016 333 20101;EQDQ01  00002PRCP99
0122315940999992000052803004+49420+130080FM-12+013599999V0202001N004012200019N0200001N1+02291+00921099641ADDGA1001+999999999GF100991001001999999001001MD1710301+9999REMSYN054AAXX  28031 31594 42998 02004 10229 20092 49964 57030;
0112315940999992000052806004+49420+130080FM-12+013599999V0201801N003012200019N0200001N1+02631+00781099261ADDGF102991021091012501001001MD1710361+9999REMSYN060AAXX  28061 31594 42698 21803 10263 20078 49926 57036 82900;
0112315940999992000052809004+49420+130080FM-12+013599999V0201701N004010360019N0200001N1+02511+00611099061ADDGF106991041091008001031001MD1710211+9999REMSYN060AAXX  28091 31594 42598 61704 10251 20061 49906 57021 84930;
0214315940999992000052812004+49420+130080FM-12+013599999V0209999C000010075019N0210001N1+01771+00951099061ADDAA199000091AY191061AY211061GF108991061091008001071999KA1999M+02651MA1999999097511MD1810031+9999MW1171REMSYN082AAXX  28121 31594 31571 80000 10177 20095 39751 49906 58003 71791 8697/ 333 10265;EQDQ01  00002PRCP99
0191315940999992000052815004+49420+130080FM-12+013599999V0203501N003010084019N0090001N1+01421+00921999999ADDAY191031AY281031GA1081+008409099GF108991081091008001999999MD1310261+9999MW1801REMSYN082AAXX  28151 31594 41559 83503 10142 20092 49777 53026 78098 889// 333 88928 91114;EQDQ01+097773APOSLP
0150315940999992000052818004+49420+130080FM-12+013599999V0203201N003012200019N0160001N1+00941+00711099441ADDAY191061AY281061GA1001+999999999GF100991001001999999001001MD1210071+9999MW1011REMSYN060AAXX  28181 31594 41966 03203 10094 20071 49944 52007 70198;
0122315940999992000052821004+49420+130080FM-12+013599999V0203101N002012200019N0200001N1+00731+00531099521ADDGA1001+999999999GF100991001001999999001001MD1210061+9999REMSYN054AAXX  28211 31594 42998 03102 10073 20053 49952 52006;
0202315940999992000052900004+49420+130080FM-12+013599999V0203201N005012200019N0100001N1+01241+00041999999ADDAA100000591GA1001+999999999GF100991001001999999001001KA1999N+00651MA1999999098001MD1210101+9999REMSYN076AAXX  29001 31594 12997 03205 10124 20004 39800 49859 52010 69950 333 20065;EQDQ01+098593APOSLP
0161315940999992000052903004+49420+130080FM-12+013599999V0203001N007010096019N0200001N1+01591+00191099601ADDGA1071+009609099GF107991071091008001001001MD1210031+9999OA140101201REMSYN082AAXX  29031 31594 42598 73007 10159 20019 49960 52003 87900 333 87932 91012 91114;
0161315940999992000052906004+49420+130080FM-12+013599999V0203401N009010099019N0200001N1+01641-00021099661ADDGA1051+009909099GF105991051091008001001001MD1210061+9999OA140101801REMSYN082AAXX  29061 31594 42598 53409 10164 21002 49966 52006 85900 333 85933 91018 91118;
0139315940999992000052909004+49420+130080FM-12+013599999V0200101N007012200019N0200001N1+01391+00211099861ADDGF102991011091012501031001MD1210181+9999OA140101101REMSYN076AAXX  29091 31594 42698 20107 10139 20021 49986 52018 81930 333 91011 91121;
0192315940999992000052912004+49420+130080FM-12+013599999V0203301N002012200019N0220001N1+01021+00411099941ADDAA199000091GF102991021001999999031001KA1120M+01791MA1999999098331MD1210061+9999REMSYN082AAXX  29121 31594 32972 23302 10102 20041 39833 49994 52006 82030 333 10179 91112;EQDQ01  00002PRCP99
0122315940999992000052915004+49420+130080FM-12+013599999V0200301N002012200019N0250001N1+00691+00311100091ADDGA1001+999999999GF100991001001999999001001MD1210131+9999REMSYN054AAXX  29151 31594 42975 00302 10069 20031 40009 52013;
0112315940999992000052918004+49420+130080FM-12+013599999V0203401N002012200019N0200001N1+00321+00191100221ADDGF102991021001999999011001MD1210111+9999REMSYN060AAXX  29181 31594 42970 23402 10032 20019 40022 52011 82010;
0112315940999992000052921004+49420+130080FM-12+013599999V0203301N002012200019N0200001N1+00521+00351100351ADDGF101991001001999999001011MD1210141+9999REMSYN060AAXX  29211 31594 42998 13302 10052 20035 40035 52014 80001;
0196315940999992000053000004+49420+130080FM-12+013599999V0203501N005012200019N0500001N1+01011+00321100591ADDAA199000091GA1001+999999999GF100991001001999999001001KA1999N+00241MA1999999098971MD1210261+9999REMSYN070AAXX  30001 31594 32999 03505 10101 20032 39897 40059 52026 333 20024;EQDQ01  00002PRCP99
0112315940999992000053003004+49420+130080FM-12+013599999V0200101N005012200019N0500001N1+01551+00291100591ADDGF101991011011012501001001MD1210031+9999REMSYN060AAXX  30031 31594 42699 10105 10155 20029 40059 52003 81100;
0112315940999992000053006004+49420+130080FM-12+013599999V0203601N004012200019N0500001N1+01751+00401100551ADDGF102991021021008001001001MD1710031+9999REMSYN060AAXX  30061 31594 42599 23604 10175 20040 40055 57003 82200;
0112315940999992000053009004+49420+130080FM-12+013599999V0203001N003012200019N0500001N1+01811+00341100581ADDGF105991021021012501001011MD1210041+9999REMSYN060AAXX  30091 31594 42699 53003 10181 20034 40058 52004 82201;
0186315940999992000053012004+49420+130080FM-12+013599999V0209999C000010900019N0450001N1+01411+00841100741ADDAA199000091GF105991011051012501031011KA1999M+01891MA1999999099141MD1210131+9999REMSYN076AAXX  30121 31594 32683 50000 10141 20084 39914 40074 52013 81531 333 10189;EQDQ01  00002PRCP99
0112315940999992000053015004+49420+130080FM-12+013599999V0200901N003012200019N0350001N1+01271+00461100801ADDGF102991001001999999001011MD1210061+9999REMSYN060AAXX  30151 31594 42981 20903 10127 20046 40080 52006 80001;
0112315940999992000053018004+49420+130080FM-12+013599999V0201201N002012200019N0270001N1+01071+00581100841ADDGF101991001001999999001011MD1210031+9999REMSYN060AAXX  30181 31594 42977 11202 10107 20058 40084 52003 80001;
0112315940999992000053021004+49420+130080FM-12+013599999V0201201N002019999999N0200001N1+01051+00551100971ADDGF108991001001999999001011MD1210121+9999REMSYN060AAXX  30211 31594 42998 81202 10105 20055 40097 52012 80001;
0186315940999992000053100004+49420+130080FM-12+013599999V0201901N006012200019N0200001N1+01561+00581101041ADDAA199000091GF101991001001999999001011KA1999N+00941MA1999999099451MD1210101+9999REMSYN076AAXX  31001 31594 32998 11906 10156 20058 39945 40104 52010 80001 333 20094;EQDQ01  00002PRCP99
0112315940999992000053103004+49420+130080FM-12+013599999V0201801N004012200019N0200001N1+01921+00841100981ADDGF102991021021008001001001MD1810051+9999REMSYN060AAXX  31031 31594 42598 21804 10192 20084 40098 58005 82200;
0112315940999992000053106004+49420+130080FM-12+013599999V0201801N002012200019N0200001N1+02001+00731100831ADDGF103991031021012501001001MD1710141+9999REMSYN060AAXX  31061 31594 42698 31802 10200 20073 40083 57014 83200;
0112315940999992000053109004+49420+130080FM-12+013599999V0201901N003012200019N0200001N1+02161+00651100721ADDGF102991011021012501001011MD1210091+9999REMSYN060AAXX  31091 31594 42698 21903 10216 20065 40072 52009 81201;
0196315940999992000053112004+49420+130080FM-12+013599999V0201501N002012200019N0250001N1+01791+00811100721ADDAA199000091GA1001+999999999GF100991001001999999001001KA1999M+02201MA1999999099151MD1710021+9999REMSYN070AAXX  31121 31594 32975 01502 10179 20081 39915 40072 57002 333 10220;EQDQ01  00002PRCP99
0122315940999992000053115004+49420+130080FM-12+013599999V0201501N003012200019N0230001N1+01471+00741100901ADDGA1001+999999999GF100991001001999999001001MD1310161+9999REMSYN054AAXX  31151 31594 42973 01503 10147 20074 40090 53016;
0112315940999992000053118004+49420+130080FM-12+013599999V0201301N003012200019N0260001N1+01321+00681100971ADDGF106991021051012501001011MD1210051+9999REMSYN060AAXX  31181 31594 42676 61303 10132 20068 40097 52005 82501;
0112315940999992000053121004+49420+130080FM-12+013599999V0201501N003012200019N0200001N1+01271+00681101001ADDGF102991001001999999001011MD1210031+9999REMSYN060AAXX  31211 31594 42998 21503 10127 20068 40100 52003 80001;
0186315940999992000060100004+49420+130080FM-12+013599999V0201801N006012200019N0200001N1+01661+00801100931ADDAA199000091GF102991021011012501031001KA1999N+01221MA1999999099351MD1810041+9999REMSYN076AAXX  01001 31594 32698 21806 10166 20080 39935 40093 58004 82130 333 20122;EQDQ01  00002PRCP99
0112315940999992000060106004+49420+130080FM-12+013599999V0203201N005010360019N0200001N1+02121+00971100691ADDGF108991031021012501031011MD1710191+9999REMSYN060AAXX  01061 31594 42698 83205 10212 20097 40069 57019 83231;
0112315940999992000061715004+49420+130790FM-12+013599999V0201501N002019999999N0120001N1+01931+01151100491ADDGF108991001001999999001011MD1710121+9999REMSYN060AAXX  17151 31594 42962 81502 10193 20115 40049 57012 80001;
0112315940999992000061718004+49420+130790FM-12+013599999V0201801N002019999999N0110001N1+01671+01031100391ADDGF108991001001999999001011MD1710121+9999REMSYN060AAXX  17181 31594 42961 81802 10167 20103 40039 57012 80001;
0140315940999992000061721004+49420+130790FM-12+013599999V0209999C000019999999N0020001N1+01201+00971100311ADDAY121031AY221031GF108991001001999999001011MD1710101+9999MW1041REMSYN066AAXX  17211 31594 41995 80000 10120 20097 40031 57010 70422 80001;
0214315940999992000061800004+49420+130790FM-12+013599999V0203501N005019999999N0500001N1+01961+01401100341ADDAA199000091AY121061AY221061GF108991011001008001031021KA1999N+01091MA1999999096681MD1310061+9999MW1051REMSYN082AAXX  18001 31594 31599 83505 10196 20140 39668 40034 53006 70522 81032 333 20109;EQDQ01  00002PRCP99
0150315940999992000061806004+49420+130790FM-12+013599999V0203601N005012200019N0020001N1+02561+01021100421ADDAY121061AY221061GF108991031021012501001011MD1810031+9999MW1051REMSYN076AAXX  18061 31594 41695 83605 10256 20102 40042 58003 70522 83201 333 91110;
0140315940999992000061809004+49420+130790FM-12+013599999V0203501N004019999999N0500001N1+02541+01061100451ADDAY121031AY221031GF108991021001999999031011MD1310031+9999MW1051REMSYN066AAXX  18091 31594 41999 83504 10254 20106 40045 53003 70522 82031;
0186315940999992000061812004+49420+130790FM-12+013599999V0200901N003019999999N0040001N1+01761+00761100661ADDAA199000091GF108991021001999999051011KA1999M+02601MA1999999098091MD1210161+9999REMSYN076AAXX  18121 31594 32996 80903 10176 20076 39809 40066 52016 82051 333 10260;EQDQ01  00002PRCP99
0112315940999992000061815004+49420+130790FM-12+013599999V0201501N001019999999N0130001N1+01601+01151100811ADDGF108991001001999999001011MD1210141+9999REMSYN060AAXX  18151 31594 42963 81501 10160 20115 40081 52014 80001;
0106315940999992000061818004+49420+130790FM-12+013599999V0202701N002019999999N0150001N1+00442+99999100791ADDGF108991001001999999001011MD1210061+9999REMSYN054AAXX  18181 31594 42965 82702 10044 40079 52006 80001;
0112315940999992000061821004+49420+130790FM-12+013599999V0202201N002012200019N0100001N1+01211+01041100961ADDGF103991001001999999001011MD1210061+9999REMSYN060AAXX  18211 31594 42997 32202 10121 20104 40096 52006 80001;
0252315940999992000061900004+49420+130790FM-12+013599999V0201701N002010120019N0040001N1+01281+01171100961ADDAA199000091AY111061AY201061GA1071+012009059GF107991071051012501001001KA1120N+01051MA1999999999999MD1410001+9999MW1021REMSYN088AAXX  19001 31594 31696 71702 10128 20117 3935/ 40096 54000 70210 87500 333 20105 87640;EQDQ01  00002PRCP99Q02 093503APOSP 
0112315940999992000061903004+49420+130790FM-12+013599999V0201501N002019999999N0100001N1+02081+01471100701ADDGF108991021021999999001011MD1810011+9999REMSYN060AAXX  19031 31594 42997 81502 10208 20147 40070 58001 82201;
0112315940999992000061906004+49420+130790FM-12+013599999V0202501N002012200019N0500001N1+02341+01061100731ADDGF105991031021008001001011MD1710151+9999REMSYN060AAXX  19061 31594 42599 52502 10234 20106 40073 57015 83201;
0122315940999992000061909004+49420+130790FM-12+013599999V0203401N002012200019N0200001N1+02501+00711100641ADDGA1001+999999999GF100991001001999999001001MD1710091+9999REMSYN054AAXX  19091 31594 42998 03402 10250 20071 40064 57009;
0186315940999992000061912004+49420+130790FM-12+013599999V0202201N001012200019N0100001N1+01871+01031100551ADDAA199000091GF103991001001999999001011KA1999M+02501MA1999999098881MD1710121+9999REMSYN076AAXX  19121 31594 32997 32201 10187 20103 39888 40055 57012 80001 333 10250;EQDQ01  00002PRCP99
0112315940999992000061915004+49420+130790FM-12+013599999V0201501N002019999999N0120001N1+01601+00901100511ADDGF108991021031999999011031MD1710051+9999REMSYN060AAXX  19151 31594 42962 81502 10160 20090 40051 57005 82313;
0112315940999992000061918004+49420+130790FM-12+013599999V0200701N002019999999N0100001N1+01421+00821100401ADDGF106991021031999999011031MD1610131+9999REMSYN060AAXX  19181 31594 42960 60702 10142 20082 40040 56013 82313;
0166315940999992000061921004+49420+130790FM-12+013599999V0201301N001010084019N0100001N1+01441+01061100381ADDAY121031AY221031GA1061+008409099GF108991061091008001051999MD1610011+9999MW1251REMSYN076AAXX  19211 31594 41597 81301 10144 20106 40038 56001 72522 8695/ 333 86928;
0201315940999992000062000004+49420+130790FM-12+013599999V0203301N005019999999N0500001N1+01951+01151100331ADDAA112000791AY181061AY221061GF105991001001999999001011KA1999N+01391MA1999999098771MD1710021+9999MW1051REMSYN088AAXX  20001 31594 31999 53305 10195 20115 39877 40033 57002 69902 70582 80001 333 20139;
0150315940999992000062003004+49420+130790FM-12+013599999V0203201N002012200019N0020001N1+02431+01231100251ADDAY111031AY211031GA1001+999999999GF100991001001999999001001MD1710051+9999MW1051REMSYN060AAXX  20031 31594 41995 03202 10243 20123 40025 57005 70511;
0159315940999992000062006004+49420+130790FM-12+013599999V0203201N002012200019N0020001N1+02621+01441100161ADDAY111061AY211061GF102991999011999999001001MD1710071+9999MW1051REMSYN066AAXX  20061 31594 41995 23202 10262 20144 40016 57007 70511 81100;EQDQ01+000012SCOTLC
0150315940999992000062009004+49420+130790FM-12+013599999V0203601N003012200019N0020001N1+02681+01491100171ADDAY101031AY201031GA1001+999999999GF100991001001999999001001MD1310011+9999MW1051REMSYN060AAXX  20091 31594 41995 03603 10268 20149 40017 53001 70500;
0114315940999992000062018004+49420+130790FM-12+013599999V02099999999999999999N0050001N1+01421+01311100571ADDAY111061AY211061MD1210111+9999MW1101REMSYN066AAXX  20181 31594 41950 ////0 10142 20131 40057 52011 71011 80001;
0140315940999992000062021004+49420+130790FM-12+013599999V0201501N002012200019N0020001N1+01501+01211100511ADDAY101031AY201031GF102991001001999999001011MD1810051+9999MW1101REMSYN066AAXX  20211 31594 41995 21502 10150 20121 40051 58005 71000 80001;
0214315940999992000062100004+49420+130790FM-12+013599999V0201801N005019999999N0020001N1+01911+01451100541ADDAA199000091AY111061AY211061GF108991001001999999001011KA1999N+01011MA1999999098981MD1310051+9999MW1101REMSYN082AAXX  21001 31594 31995 81805 10191 20145 39898 40054 53005 71011 80001 333 20101;EQDQ01  00002PRCP99
0112315940999992000062103004+49420+130790FM-12+013599999V0201801N005019999999N0100001N1+02441+01631100231ADDGF108991001001999999001011MD1810281+9999REMSYN060AAXX  21031 31594 42997 81805 10244 20163 40023 58028 80001;
0140315940999992000062106004+49420+130790FM-12+013599999V0201801N002019999999N0020001N1+02781+01841100121ADDAY121061AY221061GF108991031001999999031011MD1710091+9999MW1051REMSYN066AAXX  21061 31594 41995 81802 10278 20184 40012 57009 70522 83031;
0140315940999992000062109004+49420+130790FM-12+013599999V0209999C000019999999N0020001N1+02821+01051100211ADDAY101031AY201031GF108991001001999999001071MD1410001+9999MW1051REMSYN066AAXX  21091 31594 41995 80000 10282 20105 40021 54000 70500 80007;
0230315940999992000062112004+49420+130790FM-12+013599999V0201801N001019999999N0010001N1+02401+01951100181ADDAA199000091AY121061AY221061GF108991001001999999001071KA1999M+02931MA1999999098661MD1210051+9999MW1051REMSYN082AAXX  21121 31594 31594 81801 10240 20195 39866 40018 52005 70522 80007 333 10293;EQDQ01+008002SCOLCBQ02  00002PRCP99
0159315940999992000062115004+49420+130790FM-12+013599999V0209999C000019999999N0010001N1+02171+01481100281ADDAY121031AY221031GF107991001001999999001011MD1210081+9999MW1051REMSYN066AAXX  21151 31594 41594 70000 10217 20148 40028 52008 70522 80001;EQDQ01+008002SCOLCB
0159315940999992000062118004+49420+130790FM-12+013599999V0209999C000019999999N0010001N1+01821+01281100341ADDAY121061AY221061GF108991001001999999001011MD1210071+9999MW1051REMSYN066AAXX  21181 31594 41594 80000 10182 20128 40034 52007 70522 80001;EQDQ01+008002SCOLCB
0159315940999992000062121004+49420+130790FM-12+013599999V0209999C000019999999N0010001N1+01971+01311100421ADDAY121031AY221031GF108991001001999999001011MD1210061+9999MW1051REMSYN066AAXX  21211 31594 41594 80000 10197 20131 40042 52006 70522 80001;EQDQ01+008002SCOLCB
0214315940999992000062200004+49420+130790FM-12+013599999V0209999C000019999999N0500001N1+02201+01131100501ADDAA199000091AY121061AY221061GF108991001001999999001011KA1999N+01011MA1999999098951MD1210061+9999MW1051REMSYN082AAXX  22001 31594 31999 80000 10220 20113 39895 40050 52006 70522 80001 333 20101;EQDQ01  00002PRCP99
0112315940999992000062203004+49420+130790FM-12+013599999V0202001N004019999999N0200001N1+02691+01701100391ADDGF108991001001999999001011MD1810081+9999REMSYN060AAXX  22031 31594 42998 82004 10269 20170 40039 58008 80001;
0112315940999992000062206004+49420+130790FM-12+013599999V0201901N004019999999N0100001N1+03201+01591100261ADDGF108991001001999999001011MD1710201+9999REMSYN060AAXX  22061 31594 42997 81904 10320 20159 40026 57020 80001;
0140315940999992000062209004+49420+130790FM-12+013599999V0201701N004012200019N0040001N1+03101+01581100061ADDAY111031AY211031GF103991011001999999031011MD1710101+9999MW1051REMSYN066AAXX  22091 31594 41996 31704 10310 20158 40006 57010 70511 81031;
0203315940999992000062212004+49420+130790FM-12+013599999V0201801N003012200019N0040001N1+02691+01591100061ADDAA199000091AY111061AY211061GA1001+999999999GF100991001001999999001001KA1999M+03201MD1610021+9999MW1051REMSYN070AAXX  22121 31594 31996 01803 10269 20159 40006 56002 70511 333 10320;EQDQ01  00002PRCP99
0122315940999992000062215004+49420+130790FM-12+013599999V0201701N004012200019N0120001N1+02391+01381100221ADDGA1001+999999999GF100991001001999999001001MD1310151+9999REMSYN054AAXX  22151 31594 42962 01704 10239 20138 40022 53015;
0122315940999992000062218004+49420+130790FM-12+013599999V0201701N002012200019N0110001N1+02031+01191100251ADDGA1001+999999999GF100991001001999999001001MD1110011+9999REMSYN054AAXX  22181 31594 42961 01702 10203 20119 40025 51001;
0112315940999992000062221004+49420+130790FM-12+013599999V0201501N002012200019N0100001N1+02181+01691100221ADDGF103991001001999999001011MD1810021+9999REMSYN060AAXX  22211 31594 42997 31502 10218 20169 40022 58002 80001;
0214315940999992000062300004+49420+130790FM-12+013599999V0201801N004019999999N0020001N1+02481+00811100221ADDAA199000091AY111061AY211061GF105991001001999999001011KA1999N+02001MA1999999098701MD1310021+9999MW1051REMSYN082AAXX  23001 31594 31995 51804 10248 20081 39870 40022 53002 70511 80001 333 20200;EQDQ01  00002PRCP99
0159315940999992000062303004+49420+130790FM-12+013599999V0202301N004019999999N0020001N1+02951+02012100171ADDAY121031AY211031GF106991001001999999001011MD1810031+9999MW1051REMSYN066AAXX  23031 31594 41995 62304 10295 20201 40017 58003 70521 80001;EQDQ01+002013ATOD  
0159315940999992000062306004+49420+130790FM-12+013599999V0201201N008012200019N0020001N1+03221+01901099951ADDAY121061AY221061GF103991001001999999001011MD1710201+9999MW1051REMSYN066AAXX  23061 31594 41595 31208 10322 20190 49995 57020 70522 80001;EQDQ01+008002SCOLCB
0167315940999992000062309004+49420+130790FM-12+013599999V0202001N005012200019N0040001N1+03091+01931099881ADDAY121031AY221031GF108991031091012501001011MD1710081+9999MW1051OA140101001REMSYN082AAXX  23091 31594 41696 82005 10309 20193 49988 57008 70522 83901 333 91010 91111;
0238315940999992000062312004+49420+130790FM-12+013599999V0201801N003010360019N0040001N1+02651+01841100101ADDAA199000091AY121061AY221061GF108991021051012501051011IA1099IA2999-01009KA1120M+03231MA1999999098591MD1310201+9999MW1051REMSYN088AAXX  23121 31594 31696 81803 10265 20184 39859 40010 53020 70522 82551 333 10323 31110;EQDQ01  00002PRCP99
0159315940999992000062315004+49420+130790FM-12+013599999V0201501N002019999999N0010001N1+02501+01881100141ADDAY121031AY221031GF108991001001999999001011MD1210031+9999MW1051REMSYN066AAXX  23151 31594 41594 81502 10250 20188 40014 52003 70522 80001;EQDQ01+008002SCOLCB
0140315940999992000062318004+49420+130790FM-12+013599999V0201701N002019999999N0048001N1+02471+01751100151ADDAY121061AY221061GF105991001001999999001011MD1210011+9999MW1051REMSYN066AAXX  23181 31594 41948 51702 10247 20175 40015 52001 70522 80001;
0140315940999992000062321004+49420+130790FM-12+013599999V0201701N003019999999N0040001N1+02391+01781100251ADDAY121031AY221031GF108991021001999999051011MD1310041+9999MW1051REMSYN066AAXX  23211 31594 41996 81703 10239 20178 40025 53004 70522 82051;
0214315940999992000062400004+49420+130790FM-12+013599999V0201801N003012200019N0040001N1+02651+01851100201ADDAA199000091AY111061AY211061GF103991001001999999001011KA1999N+02341MA1999999098691MD1210021+9999MW1051REMSYN082AAXX  24001 31594 31996 31803 10265 20185 39869 40020 52002 70511 80001 333 20234;EQDQ01  00002PRCP99
0177315940999992000062403004+49420+130790FM-12+013599999V0201801N005012200019N0040001N1+01991+01031100141ADDAY101031AY201031GA1001+999999999GF100991001001999999001001MD1810041+9999MW1051OA140101001REMSYN076AAXX  24031 31594 41996 01805 10199 20103 40014 58004 70500 333 91010 91110;
0186315940999992000062412004+49420+130790FM-12+013599999V0203201N003010360019N0100001N1+02171+01691100231ADDAA199000091GF108991021091012501051999KA1999M+03141MA1999999098701MD1710091+9999REMSYN076AAXX  24121 31594 32697 83203 10217 20169 39870 40023 57009 8295/ 333 10314;EQDQ01  00002PRCP99
0112315940999992000062415004+49420+130790FM-12+013599999V0201901N003010360019N0100001N1+02721+01741100051ADDGF108991021091008001051999MD1310211+9999REMSYN060AAXX  24151 31594 42597 81903 10272 20174 40005 53021 8295/;
0138315940999992000062418004+49420+130790FM-12+013599999V0203601N003010078019N0140001N1+01871+01651100171ADDGA1051+007809099GF108991051091008001051999MD1310011+9999REMSYN070AAXX  24181 31594 42564 83603 10187 20165 40017 53001 8595/ 333 85926;
0140315940999992000062421004+49420+130790FM-12+013599999V0200501N001019999999N0100001N1+01951+01701100181ADDAY181031AY221031GF108991081001999999061999MD1210011+9999MW1021REMSYN066AAXX  24211 31594 41997 80501 10195 20170 40018 52001 70282 8806/;
0201315940999992000062500004+49420+130790FM-12+013599999V0201401N003019999999N0290001N1+02131+01561100211ADDAA112000591AY181061AY221061GF108991081001999999071999KA1999N+01821MA1999999098671MD1210041+9999MW1021REMSYN088AAXX  25001 31594 11979 81403 10213 20156 39867 40021 52004 69952 70282 8807/ 333 20182;
0140315940999992000062506004+49420+130790FM-12+013599999V0202501N003010075019N0040001N1+01651+01571100281ADDAY181061AY221061GF108991081091008001999999MD1210021+9999MW1801REMSYN066AAXX  25061 31594 41596 82503 10165 20157 40028 52002 78082 889//;
0140315940999992000062509004+49420+130790FM-12+013599999V0200901N001012200019N0200001N1+02561+01391100221ADDAY181031AY221031GF107991021091008001001011MD1810061+9999MW1021REMSYN066AAXX  25091 31594 41598 70901 10256 20139 40022 58006 70282 82901;
0201315940999992000062512004+49420+130790FM-12+013599999V0201401N004012200019N0200001N1+01531+01331100291ADDAA100008991AY181061AY211061GF101991011091008001001001KA1999M+02371MA1999999098721MD1310071+9999MW1021REMSYN088AAXX  25121 31594 11598 11404 10153 20133 39872 40029 53007 60090 70281 81900 333 10237;
0166315940999992000062515004+49420+130790FM-12+013599999V0201001N005010078019N0100001N1+02161+01531100201ADDAY181031AY221031GA1081+007809099GF108991081091008001999999MD1810021+9999MW1821REMSYN076AAXX  25151 31594 41597 81005 10216 20153 40020 58002 78282 889// 333 88926;
0112315940999992000062518004+49420+130790FM-12+013599999V0201401N006019999999N0250001N1+01441+01351100301ADDGF107991021051999999001091MD1410001+9999REMSYN060AAXX  25181 31594 42975 71406 10144 20135 40030 54000 82509;
0138315940999992000062521004+49420+130790FM-12+013599999V0200901N002010069019N0200001N1+01481+01281100281ADDGA1061+006909099GF106991061091008001001001MD1810021+9999REMSYN070AAXX  25211 31594 42598 60902 10148 20128 40028 58002 86900 333 86923;
0201315940999992000062600004+49420+130790FM-12+013599999V0200901N001010075019N0020001N1+01591+01391100201ADDAA112001091AY191061AY281061GF108991081091008001999999KA1999N+01391MA1999999098631MD1710071+9999MW1951REMSYN088AAXX  26001 31594 11595 80901 10159 20139 39863 40020 57007 60012 79598 889// 333 20139;
0166315940999992000062603004+49420+130790FM-12+013599999V0209999C000010120019N0020001N1+01921+01421100131ADDAY191031AY281031GA1081+012009099GF108991081091008001999999MD1710041+9999MW1021REMSYN076AAXX  26031 31594 41595 80000 10192 20142 40013 57004 70298 889// 333 88940;
0166315940999992000062606004+49420+130790FM-12+013599999V0202701N004010057019N0500001N1+02301+01531100021ADDAY191061AY281061GA1081+005709099GF108991081091008001999999MD1410001+9999MW1021REMSYN076AAXX  26061 31594 41599 82704 10230 20153 40002 54000 70298 889// 333 88919;
0223315940999992000062612004+49420+130790FM-12+013599999V0202701N001010096019N0200001N1+02051+01581100181ADDAA100008991AY181061AY221061GA1051+009609099GF106991051091008001051001KA1120M+02151MA1999999098641MD1210031+9999MW1021REMSYN094AAXX  26121 31594 11598 62701 10205 20158 39864 40018 52003 60090 70282 85950 333 10215 85932;
0140315940999992000062615004+49420+130790FM-12+013599999V0209999C000012200019N0050001N1+01221+01191100261ADDAY111031AY211031GF101991011051008001001001MD1210051+9999MW1401REMSYN066AAXX  26151 31594 41550 10000 10122 20119 40026 52005 74011 81500;
0140315940999992000062618004+49420+130790FM-12+013599999V0209999C000012200019N0008001N1+01341+01301100251ADDAY141061AY201061GF102991001001999999001011MD1410001+9999MW1461REMSYN066AAXX  26181 31594 41908 20000 10134 20130 40025 54000 74640 80001;
0112315940999992000062703004+49420+130790FM-12+013599999V0202901N004010075019N0200001N1+01861+01411100331ADDGF107991071091008001001001MD1810031+9999REMSYN060AAXX  27031 31594 42598 72904 10186 20141 40033 58003 87900;
0138315940999992000062706004+49420+130790FM-12+013599999V0202201N005010066019N0200001N1+02061+01381100311ADDGA1071+006609099GF107991071091008001001001MD1710011+9999REMSYN070AAXX  27061 31594 42598 72205 10206 20138 40031 57001 87900 333 87922;
0165315940999992000062712004+49420+130790FM-12+013599999V0209999C000012200019N0200001N1+01771+01571100431ADDAA199000091GF101991011041012501001001KA1999M+02151MD1210071+9999REMSYN070AAXX  27121 31594 32698 10000 10177 20157 40043 52007 81400 333 10215;EQDQ01  00002PRCP99
0122315940999992000062715004+49420+130790FM-12+013599999V0209999C000012200019N0220001N1+01421+01301100411ADDGA1001+999999999GF100991001001999999001001MD1210061+9999REMSYN054AAXX  27151 31594 42972 00000 10142 20130 40041 52006;
0122315940999992000062718004+49420+130790FM-12+013599999V0209999C000012200019N0170001N1+01231+01151100581ADDGA1001+999999999GF100991001001999999001001MD1210061+9999REMSYN054AAXX  27181 31594 42967 00000 10123 20115 40058 52006;
0150315940999992000062721004+49420+130790FM-12+013599999V0203201N001012200019N0020001N1+01091+01051100661ADDAY101031AY201031GA1001+999999999GF100991001001999999001001MD1210071+9999MW1101REMSYN060AAXX  27211 31594 41995 03201 10109 20105 40066 52007 71000;
0186315940999992000062800004+49420+130790FM-12+013599999V0202701N003012200019N0200001N1+01821+01571100601ADDAA199000091GF101991011011008001001001KA1999N+00931MA1999999099031MD1810021+9999REMSYN076AAXX  28001 31594 32598 12703 10182 20157 39903 40060 58002 81100 333 20093;EQDQ01  00002PRCP99
0112315940999992000062803004+49420+130790FM-12+013599999V0203601N003019999999N0200001N1+02491+01631100591ADDGF105991021001008001001051MD1810061+9999REMSYN060AAXX  28031 31594 42598 53603 10249 20163 40059 58006 82005;
0112315940999992000062806004+49420+130790FM-12+013599999V0203401N005012200019N0200001N1+02641+01401100351ADDGF104991041091008001001001MD1710111+9999REMSYN060AAXX  28061 31594 42598 43405 10264 20140 40035 57011 84900;
0112315940999992000062809004+49420+130790FM-12+013599999V0203201N003012200019N0200001N1+02731+01531100311ADDGF102991021021012501001001MD1710041+9999REMSYN060AAXX  28091 31594 42698 23203 10273 20153 40031 57004 82200;
0196315940999992000062812004+49420+130790FM-12+013599999V0209999C000012200019N0200001N1+02321+01691100391ADDAA199000091GA1001+999999999GF100991001001999999001001KA1999M+02651MA1999999098851MD1310061+9999REMSYN070AAXX  28121 31594 32698 00000 10232 20169 39885 40039 53006 333 10265;EQDQ01  00002PRCP99
0122315940999992000062815004+49420+130790FM-12+013599999V0209999C000012200019N0180001N1+01601+01501100461ADDGA1001+999999999GF100991001001999999001001MD1210031+9999REMSYN054AAXX  28151 31594 42968 00000 10160 20150 40046 52003;
0122315940999992000062818004+49420+130790FM-12+013599999V0201101N002012200019N0210001N1+01811+01561100401ADDGA1001+999999999GF100991001001999999001001MD1810071+9999REMSYN054AAXX  28181 31594 42971 01102 10181 20156 40040 58007;
0140315940999992000062821004+49420+130790FM-12+013599999V0209999C000012200019N0040001N1+01501+01311100481ADDAY101031AY201031GF102991001001999999001011MD1310091+9999MW1201REMSYN066AAXX  28211 31594 41996 20000 10150 20131 40048 53009 72000 80001;
0167315940999992000062900004+49420+130790FM-12+013599999V0201401N001012200019N0200001N1+02151+01571100461ADDAA199000021GF102991001001999999001011KA1999N+01351MA1999999098911MD1210021+9999REMSYN076AAXX  29001 31594 32998 21401 10215 20157 39891 40046 52002 80001 333 20135;
0112315940999992000062903004+49420+130790FM-12+013599999V0209999C000012200019N0500001N1+01691+01561100261ADDGF103991031041012501001001MD1710071+9999REMSYN060AAXX  29031 31594 42699 30000 10169 20156 40026 57007 83400;
0112315940999992000062906004+49420+130790FM-12+013599999V0209999C000012200019N0500001N1+01821+01691100151ADDGF106991021041012501001041MD1710131+9999REMSYN060AAXX  29061 31594 42699 60000 10182 20169 40015 57013 82404;
0112315940999992000062909004+49420+130790FM-12+013599999V0202901N002010900019N0200001N1+02791+01901099981ADDGF108991011021012501001021MD1710171+9999REMSYN060AAXX  29091 31594 42698 82902 10279 20190 49998 57017 81202;
0186315940999992000062912004+49420+130790FM-12+013599999V0209999C000019999999N0200001N1+02421+02011100021ADDAA199000091GF107991071001999999051001KA1999M+02891MA1999999098501MD1310031+9999REMSYN076AAXX  29121 31594 32998 70000 10242 20201 39850 40002 53003 87050 333 10289;EQDQ01  00002PRCP99
0112315940999992000062915004+49420+130790FM-12+013599999V0201401N003019999999N0230001N1+02271+01701100051ADDGF108991001001999999001011MD1010021+9999REMSYN060AAXX  29151 31594 42973 81403 10227 20170 40005 50002 80001;
0112315940999992000062918004+49420+130790FM-12+013599999V0201401N004019999999N0200001N1+02101+01601100091ADDGF108991021001999999031011MD1310031+9999REMSYN060AAXX  29181 31594 42970 81404 10210 20160 40009 53003 82031;
0112315940999992000062921004+49420+130790FM-12+013599999V0203401N002019999999N0200001N1+01941+01571100181ADDGF108991051001999999051011MD1210081+9999REMSYN060AAXX  29211 31594 42998 83402 10194 20157 40018 52008 85051;
0186315940999992000063000004+49420+130790FM-12+013599999V0200901N005012200019N0100001N1+02051+01491100371ADDAA199000091GF108991011011012501001011KA1999N+01921MA1999999098811MD1210181+9999REMSYN076AAXX  30001 31594 32697 80905 10205 20149 39881 40037 52018 81101 333 20192;EQDQ01  00002PRCP99
0112315940999992000063003004+49420+130790FM-12+013599999V0201401N003012200019N0100001N1+02101+01451100361ADDGF108991031091012501001011MD1410001+9999REMSYN060AAXX  30031 31594 42697 81403 10210 20145 40036 54000 83901;
0131315940999992000063006004+49420+130790FM-12+013599999V0200901N005010120019N0100001N1+02371+01381100211ADDGF108991999021012501001001MD1710071+9999REMSYN060AAXX  30061 31594 42697 80905 10237 20138 40021 57007 87200;EQDQ01+000072SCOTLC
0112315940999992000063009004+49420+130790FM-12+013599999V0201401N003012200019N0200001N1+02371+01581100181ADDGF106991021021012501001011MD1710091+9999REMSYN060AAXX  30091 31594 42698 61403 10237 20158 40018 57009 82201;
0186315940999992000063012004+49420+130790FM-12+013599999V0202401N002010360019N0200001N1+02201+01601100341ADDAA199000091GF105991031091012501041011KA1999M+02451MA1999999098791MD1310141+9999REMSYN076AAXX  30121 31594 32698 52402 10220 20160 39879 40034 53014 83941 333 10245;EQDQ01  00002PRCP99
0112315940999992000063015004+49420+130790FM-12+013599999V0201401N003012200019N0500001N1+01861+01441100431ADDGF102991001001999999001011MD1210081+9999REMSYN060AAXX  30151 31594 42984 21403 10186 20144 40043 52008 80001;
0112315940999992000063018004+49420+130790FM-12+013599999V0201401N002019999999N0500001N1+01641+01331100521ADDGF106991001001999999001011MD1210101+9999REMSYN060AAXX  30181 31594 42984 61402 10164 20133 40052 52010 80001;
0112315940999992000063021004+49420+130790FM-12+013599999V0201401N001010360019N0200001N1+01771+01401100501ADDGF108991031051017501041011MD1310081+9999REMSYN060AAXX  30211 31594 42798 81401 10177 20140 40050 53008 83541;
0186315940999992000070100004+49420+130790FM-12+013599999V0201401N001010360019N0200001N1+01801+01421100571ADDAA199000091GF108991021051012501051011KA1999N+01741MA1999999099001MD1210071+9999REMSYN076AAXX  01001 31594 32698 81401 10180 20142 39900 40057 52007 82551 333 20174;EQDQ01  00002PRCP99
0112315940999992000070103004+49420+130790FM-12+013599999V0201401N003019999999N0200001N1+01841+01381100531ADDGF107991071001008001051999MD1210061+9999REMSYN060AAXX  01031 31594 42598 71403 10184 20138 40053 52006 8705/;
0112315940999992000070106004+49420+130790FM-12+013599999V0201401N001010075019N0500001N1+02021+01631100541ADDGF108991081051008001999999MD1810101+9999REMSYN060AAXX  01061 31594 42599 81401 10202 20163 40054 58010 885//;
0212315940999992000070200004+49420+130790FM-12+013599999V0209999C000012200019N0500001N1+02161+01671100821ADDAA199000091GA1001+999999999GF100991001001999999001001KA1999M+99999MA1999999097501MD1210041+9999REMSYN070AAXX  02001 31594 32999 00000 10216 20167 39750 40082 52004 333 10152;EQDQ01  00002PRCP99Q02 +01522ATMX  
0112315940999992000070203004+49420+130790FM-12+013599999V0201401N002012200019N0200001N1+02591+01721100831ADDGF102991021021012501001001MD1410001+9999REMSYN060AAXX  02031 31594 42698 21402 10259 20172 40083 54000 82200;
0112315940999992000070206004+49420+130790FM-12+013599999V0201801N004012200019N0500001N1+02801+01701100851ADDGF102991021021012501001001MD1810071+9999REMSYN060AAXX  02061 31594 42699 21804 10280 20170 40085 58007 82200;
0112315940999992000070209004+49420+130790FM-12+013599999V0201601N004012200019N0200001N1+02861+01601100701ADDGF101991011021012501001001MD1710041+9999REMSYN060AAXX  02091 31594 42698 11604 10286 20160 40070 57004 81200;
0165315940999992000070212004+49420+130790FM-12+013599999V0209999C000012200019N0200001N1+02331+01821100801ADDAA199000091GF102991001001999999001011KA1999M+03091MD1310071+9999REMSYN070AAXX  02121 31594 32998 20000 10233 20182 40080 53007 80001 333 10309;EQDQ01  00002PRCP99
0122315940999992000070215004+49420+130790FM-12+013599999V0201801N001012200019N0230001N1+02131+01921100851ADDGA1001+999999999GF100991001001999999001001MD1210041+9999REMSYN054AAXX  02151 31594 42973 01801 10213 20192 40085 52004;
0122315940999992000070218004+49420+130790FM-12+013599999V0209999C000012200019N0500001N1+02011+01881100891ADDGA1001+999999999GF100991001001999999001001MD1210041+9999REMSYN054AAXX  02181 31594 42999 00000 10201 20188 40089 52004;
0122315940999992000070221004+49420+130790FM-12+013599999V0201401N001012200019N0200001N1+01901+01701101031ADDGA1001+999999999GF100991001001999999001001MD1110041+9999REMSYN054AAXX  02211 31594 42998 01401 10190 20170 40103 51004;
0196315940999992000070300004+49420+130790FM-12+013599999V0201401N002012200019N0200001N1+02551+01951101021ADDAA199000091GA1001+999999999GF100991001001999999001001KA1999N+01601MA1999999099491MD1010031+9999REMSYN070AAXX  03001 31594 32998 01402 10255 20195 39949 40102 50003 333 20160;EQDQ01  00002PRCP99
0112315940999992000070303004+49420+130790FM-12+013599999V0201401N003012200019N0200001N1+03021+01991100951ADDGF101991011011012501001001MD1710011+9999REMSYN060AAXX  03031 31594 42698 11403 10302 20199 40095 57001 81100;
0112315940999992000070306004+49420+130790FM-12+013599999V0201401N003012200019N0200001N1+03221+01811100851ADDGF101991001001999999001011MD1810131+9999REMSYN060AAXX  03061 31594 42998 11403 10322 20181 40085 58013 80001;
0112315940999992000070309004+49420+130790FM-12+013599999V0201101N004012200019N0200001N1+03211+01861100751ADDGF101991001001999999001011MD1710101+9999REMSYN060AAXX  03091 31594 42998 11104 10321 20186 40075 57010 80001;
0186315940999992000070312004+49420+130790FM-12+013599999V0201101N003012200019N0200001N1+02791+01841100811ADDAA199000091GF102991001001999999001011KA1999M+03251MA1999999099291MD1310041+9999REMSYN076AAXX  03121 31594 32998 21103 10279 20184 39929 40081 53004 80001 333 10325;EQDQ01  00002PRCP99
0112315940999992000070315004+49420+130790FM-12+013599999V0202101N002019999999N0500001N1+02431+01701100871ADDGF106991001001999999001011MD1210041+9999REMSYN060AAXX  03151 31594 42999 62102 10243 20170 40087 52004 80001;
0112315940999992000070318004+49420+130790FM-12+013599999V0201601N004012200019N0500001N1+02341+01801100971ADDGF102991001001999999001011MD1310071+9999REMSYN060AAXX  03181 31594 42999 21604 10234 20180 40097 53007 80001;
0131315940999992000070321004+49420+130790FM-12+013599999V0201501N004012200019N0500001N1+02311+01731101001ADDGF102991999051008001001001MD1210031+9999REMSYN060AAXX  03211 31594 42599 21504 10231 20173 40100 52003 81500;EQDQ01+000012SCOTLC
0186315940999992000070400004+49420+130790FM-12+013599999V0201601N003012200019N0200001N1+02671+01811100831ADDAA199000091GF103991001001999999001011KA1999N+02191MA1999999099401MD1810061+9999REMSYN076AAXX  04001 31594 32998 31603 10267 20181 39940 40083 58006 80001 333 20219;EQDQ01  00002PRCP99
0112315940999992000070403004+49420+130790FM-12+013599999V0201801N006012200019N0200001N1+03161+02001100801ADDGF101991001001999999001011MD1710101+9999REMSYN060AAXX  04031 31594 42998 11806 10316 20200 40080 57010 80001;
0140315940999992000070415004+49420+130790FM-12+013599999V0200501N001012200019N0700001N1+02091+01851100641ADDAY121031AY221031GF103991021091012501051999MD1810061+9999MW1131REMSYN066AAXX  04151 31594 41688 30501 10209 20185 40064 58006 71322 8295/;
0140315940999992000070418004+49420+130790FM-12+013599999V0202801N002010900019N0200001N1+01351+01081100811ADDAY191061AY281061GF108991031091012501001021MD1410001+9999MW1811REMSYN066AAXX  04181 31594 41670 82802 10135 20108 40081 54000 78198 83902;
0201315940999992000070500004+49420+130790FM-12+013599999V0203201N003010042019N0100001N1+02191+01921100971ADDAA112000391AY191061AY281061GF108991081091004501999999KA1999N+01611MA1999999099421MD1210111+9999MW1021REMSYN088AAXX  05001 31594 11497 83203 10219 20192 39942 40097 52011 69932 70298 889// 333 20161;
0140315940999992000070503004+49420+130790FM-12+013599999V0202201N001010042019N0100001N1+02231+01921101051ADDAY181031AY221031GF108991081091004501999999MD1210081+9999MW1021REMSYN066AAXX  05031 31594 41497 82201 10223 20192 40105 52008 70282 889//;
0112315940999992000070509004+49420+130790FM-12+013599999V0202601N005012200019N0200001N1+02461+01791100931ADDGF105991021081008001001011MD1710041+9999REMSYN060AAXX  05091 31594 42598 52605 10246 20179 40093 57004 82801;
0192315940999992000070512004+49420+130790FM-12+013599999V0203401N003019999999N0200001N1+02181+01801101041ADDAA100000791GF105991999001012501041001KA1999M+02701MA1999999099491MD1310101+9999REMSYN082AAXX  05121 31594 12698 53403 10218 20180 39949 40104 53010 69900 81040 333 10270;EQDQ01+000012SCOTLC
0122315940999992000070515004+49420+130790FM-12+013599999V0209999C000012200019N0190001N1+01751+01671101071ADDGA1001+999999999GF100991001001999999001001MD1410001+9999REMSYN054AAXX  05151 31594 42969 00000 10175 20167 40107 54000;
0150315940999992000070518004+49420+130790FM-12+013599999V0209999C000012200019N0100001N1+01601+01531101081ADDAY111061AY211061GA1001+999999999GF100991001001999999001001MD1310011+9999MW1101REMSYN060AAXX  05181 31594 41960 00000 10160 20153 40108 53001 71011;
0140315940999992000070521004+49420+130790FM-12+013599999V0203401N001012200019N0020001N1+01571+01511101151ADDAY101031AY201031GF102991021001999999051001MD1210071+9999MW1101REMSYN066AAXX  05211 31594 41995 23401 10157 20151 40115 52007 71000 82050;
0186315940999992000070600004+49420+130790FM-12+013599999V0202901N002012200019N0200001N1+02341+01901100971ADDAA199000091GF102991001001999999001011KA1999N+01441MA1999999099641MD1210071+9999REMSYN076AAXX  06001 31594 32998 22902 10234 20190 39964 40097 52007 80001 333 20144;EQDQ01  00002PRCP99
0112315940999992000070603004+49420+130790FM-12+013599999V0202701N002010075019N0200001N1+02721+01991101131ADDGF106991061021008001001001MD1810031+9999REMSYN060AAXX  06031 31594 42598 62702 10272 20199 40113 58003 86200;
0112315940999992000070609004+49420+130790FM-12+013599999V0203201N002019999999N0200001N1+02861+01771100901ADDGF108991001001999999001011MD1710061+9999REMSYN060AAXX  06091 31594 42998 83202 10286 20177 40090 57006 80001;
0186315940999992000070612004+49420+130790FM-12+013599999V0209999C000019999999N0500001N1+02391+01951100881ADDAA199000091GF108991001001999999001011KA1999M+02971MA1999999099341MD1710041+9999REMSYN076AAXX  06121 31594 32999 80000 10239 20195 39934 40088 57004 80001 333 10297;EQDQ01  00002PRCP99
0112315940999992000070615004+49420+130790FM-12+013599999V0203201N001019999999N0500001N1+01791+01551100981ADDGF106991001001999999001011MD1310061+9999REMSYN060AAXX  06151 31594 42999 63201 10179 20155 40098 53006 80001;
0112315940999992000070618004+49420+130790FM-12+013599999V0209999C000019999999N0260001N1+01621+01531101011ADDGF106991001001999999001011MD1210031+9999REMSYN060AAXX  06181 31594 42976 60000 10162 20153 40101 52003 80001;
0112315940999992000070621004+49420+130790FM-12+013599999V0209999C000019999999N0200001N1+01751+01551100991ADDGF108991001001999999001011MD1710021+9999REMSYN060AAXX  06211 31594 42998 80000 10175 20155 40099 57002 80001;
0186315940999992000070700004+49420+130790FM-12+013599999V0200501N002019999999N0200001N1+02321+01841100961ADDAA199000091GF107991001001999999001011KA1999N+01481MA1999999099421MD1310011+9999REMSYN076AAXX  07001 31594 32998 70502 10232 20184 39942 40096 53001 80001 333 20148;EQDQ01  00002PRCP99
0112315940999992000070703004+49420+130790FM-12+013599999V0203401N004012200019N0200001N1+02761+01361100841ADDGF102991011011999999001011MD1810111+9999REMSYN060AAXX  07031 31594 42998 23404 10276 20136 40084 58011 81101;
0112315940999992000070706004+49420+130790FM-12+013599999V0203201N004012200019N0500001N1+02931+00631100651ADDGF106991011011012501001011MD1710171+9999REMSYN060AAXX  07061 31594 42699 63204 10293 20063 40065 57017 81101;
0112315940999992000070709004+49420+130790FM-12+013599999V0203401N003012200019N0500001N1+02831+01701100611ADDGF101991001001999999001011MD1610041+9999REMSYN060AAXX  07091 31594 42999 13403 10283 20170 40061 56004 80001;
0186315940999992000070712004+49420+130790FM-12+013599999V0203601N003012200019N0500001N1+02271+01771100671ADDAA199000091GF102991001001999999001011KA1999M+02941MA1999999099131MD1310031+9999REMSYN076AAXX  07121 31594 32999 23603 10227 20177 39913 40067 53003 80001 333 10294;EQDQ01  00002PRCP99
0122315940999992000070715004+49420+130790FM-12+013599999V0209999C000012200019N0300001N1+01741+01411100721ADDGA1001+999999999GF100991001001999999001001MD1110021+9999REMSYN054AAXX  07151 31594 42980 00000 10174 20141 40072 51002;
0122315940999992000070718004+49420+130790FM-12+013599999V0209999C000012200019N0260001N1+01651+01571100751ADDGA1001+999999999GF100991001001999999001001MD1210031+9999REMSYN054AAXX  07181 31594 42976 00000 10165 20157 40075 52003;
0112315940999992000070721004+49420+130790FM-12+013599999V0200901N001012200019N0200001N1+01501+01391100851ADDGF103991001001999999001011MD1210081+9999REMSYN060AAXX  07211 31594 42998 30901 10150 20139 40085 52008 80001;
0186315940999992000070800004+49420+130790FM-12+013599999V0201401N003012200019N0200001N1+02381+01511100821ADDAA199000091GF102991001001999999001011KA1999N+01441MA1999999099281MD1110021+9999REMSYN076AAXX  08001 31594 32998 21403 10238 20151 39928 40082 51002 80001 333 20144;EQDQ01  00002PRCP99
0112315940999992000070803004+49420+130790FM-12+013599999V0200901N002012200019N0200001N1+02751+01791100681ADDGF108991011011008001001011MD1810121+9999REMSYN060AAXX  08031 31594 42598 80902 10275 20179 40068 58012 81101;
0112315940999992000070806004+49420+130790FM-12+013599999V0201401N002012200019N0200001N1+03001+01641100591ADDGF108991021021012501001011MD1710081+9999REMSYN060AAXX  08061 31594 42698 81402 10300 20164 40059 57008 82201;
0112315940999992000070809004+49420+130790FM-12+013599999V0201401N001019999999N0200001N1+02881+01911100351ADDGF108991001001999999001011MD1710241+9999REMSYN060AAXX  08091 31594 42998 81401 10288 20191 40035 57024 80001;
0186315940999992000070812004+49420+130790FM-12+013599999V0201401N001019999999N0200001N1+02581+01811100411ADDAA199000091GF108991001001999999001011KA1999M+03031MA1999999098881MD1310041+9999REMSYN076AAXX  08121 31594 32998 81401 10258 20181 39888 40041 53004 80001 333 10303;EQDQ01  00002PRCP99
0122315940999992000070815004+49420+130790FM-12+013599999V0200401N002012200019N0500001N1+02291+01621100461ADDGA1001+999999999GF100991001001999999001001MD1210041+9999REMSYN054AAXX  08151 31594 42999 00402 10229 20162 40046 52004;
0122315940999992000070818004+49420+130790FM-12+013599999V0201101N003012200019N0500001N1+02201+01531100491ADDGA1001+999999999GF100991001001999999001001MD1410001+9999REMSYN054AAXX  08181 31594 42999 01103 10220 20153 40049 54000;
0122315940999992000070821004+49420+130790FM-12+013599999V0201101N003012200019N0200001N1+02161+01651100401ADDGA1001+999999999GF100991001001999999001001MD1310031+9999REMSYN054AAXX  08211 31594 42998 01103 10216 20165 40040 53003;
0196315940999992000070900004+49420+130790FM-12+013599999V0201501N001012200019N0200001N1+02511+01901100461ADDAA199000091GA1001+999999999GF100991001001999999001001KA1999N+01941MA1999999098931MD1810021+9999REMSYN070AAXX  09001 31594 32998 01501 10251 20190 39893 40046 58002 333 20194;EQDQ01  00002PRCP99
0112315940999992000070903004+49420+130790FM-12+013599999V0201801N001012200019N0200001N1+03171+01881100371ADDGF103991011021012501001011MD1710061+9999REMSYN060AAXX  09031 31594 42698 31801 10317 20188 40037 57006 81201;
0112315940999992000070906004+49420+130790FM-12+013599999V0201801N001012200019N0200001N1+03421+01871100261ADDGF105991021021008001001011MD1710091+9999REMSYN060AAXX  09061 31594 42598 51801 10342 20187 40026 57009 82201;
0112315940999992000070909004+49420+130790FM-12+013599999V0201601N002012200019N0200001N1+03401+01841100121ADDGF101991001001999999001011MD1710141+9999REMSYN060AAXX  09091 31594 42998 11602 10340 20184 40012 57014 80001;
0186315940999992000070912004+49420+130790FM-12+013599999V0209999C000012200019N0200001N1+03061+01871100161ADDAA199000091GF101991001001999999001011KA1999M+03451MA1999999098671MD1310031+9999REMSYN076AAXX  09121 31594 32998 10000 10306 20187 39867 40016 53003 80001 333 10345;EQDQ01  00002PRCP99
0122315940999992000070915004+49420+130790FM-12+013599999V0201401N003012200019N0160001N1+02561+01841100221ADDGA1001+999999999GF100991001001999999001001MD1210031+9999REMSYN054AAXX  09151 31594 42966 01403 10256 20184 40022 52003;
0122315940999992000070918004+49420+130790FM-12+013599999V0201101N003012200019N0180001N1+02531+01681100181ADDGA1001+999999999GF100991001001999999001001MD1810041+9999REMSYN054AAXX  09181 31594 42968 01103 10253 20168 40018 58004;
0112315940999992000070921004+49420+130790FM-12+013599999V0201401N003012200019N0200001N1+02461+01691100111ADDGF102991021001999999031001MD1710071+9999REMSYN060AAXX  09211 31594 42998 21403 10246 20169 40011 57007 82030;
0196315940999992000071000004+49420+130790FM-12+013599999V0201801N006012200019N0200001N1+02971+01981100071ADDAA199000091GA1001+999999999GF100991001001999999001001KA1999N+02421MA1999999098571MD1710021+9999REMSYN070AAXX  10001 31594 32998 01806 10297 20198 39857 40007 57002 333 20242;EQDQ01  00002PRCP99
0122315940999992000071006004+49420+130790FM-12+013599999V0201801N005012200019N0200001N1+03331+01811100081ADDGF102991001001999999001011MD1810011+9999REMSYN070AAXX  10061 31594 42998 21805 10333 20181 40008 58001 80001 333 91111;
0112315940999992000071009004+49420+130790FM-12+013599999V0202301N001012200019N0200001N1+03201+02121100101ADDGF103991031021012501001001MD1310041+9999REMSYN060AAXX  10091 31594 42698 32301 10320 20212 40010 53004 83200;
0186315940999992000071012004+49420+130790FM-12+013599999V0209999C000010900019N0200001N1+02861+02041100031ADDAA199000091GF107991031081012501001021KA1999M+03341MA1999999098531MD1310031+9999REMSYN076AAXX  10121 31594 32698 70000 10286 20204 39853 40003 53003 83802 333 10334;EQDQ01  00002PRCP99
0140315940999992000071015004+49420+130790FM-12+013599999V0203401N001010360019N0230001N1+02011+01901100141ADDAY191031AY211031GF105991021091008001051051MD1210071+9999MW1021REMSYN066AAXX  10151 31594 41573 53401 10201 20190 40014 52007 70291 82955;
0166315940999992000071018004+49420+130790FM-12+013599999V0209999C000010075019N0010001N1+01951+01811100101ADDAY191061AY281061GA1051+007509099GF106991051091008001001011MD1710051+9999MW1251REMSYN076AAXX  10181 31594 41594 60000 10195 20181 40010 57005 72598 85901 333 85925;
0112315940999992000071021004+49420+130790FM-12+013599999V0201601N001012200019N0200001N1+02101+01771100071ADDGF101991001001999999001011MD1710021+9999REMSYN060AAXX  10211 31594 42998 11601 10210 20177 40007 57002 80001;
0183315940999992000071100004+49420+130790FM-12+013599999V0201801N001012200019N0200001N1+02501+01871099991ADDAA112006191GA1001+999999999GF100991001001999999001001KA1999N+01821MA1999999098471MD1710061+9999REMSYN076AAXX  11001 31594 12998 01801 10250 20187 39847 49999 57006 60062 333 20182;
0112315940999992000071106004+49420+130790FM-12+013599999V0202901N005012200019N0200001N1+03381+01611100591ADDGF101991011011012501001001MD1710201+9999REMSYN060AAXX  11061 31594 42698 12905 10338 20161 40059 57020 81100;
0131315940999992000071109004+49420+130790FM-12+013599999V0209999C000010120019N0200001N1+03451+02001099432ADDGF108991081091012501999999MD1710161+9999REMSYN060AAXX  11091 31594 42698 80000 10345 20200 49943 57016 889//;EQDQ01+099433APOSLP
0223315940999992000071112004+49420+130790FM-12+013599999V0201801N002010108019N0100001N1+02671+02071099451ADDAA100000591AY191061AY281061GA1051+010809099GF105991051091012501001001KA1120M+03451MA1999999096971MD1310011+9999MW1171REMSYN094AAXX  11121 31594 11697 51802 10267 20207 39697 49945 53001 69950 71798 85900 333 10345 85936;
0166315940999992000071115004+49420+130790FM-12+013599999V0203601N004010060019N0160001N1+02271+01921099431ADDAY191031AY281031GA1081+006009099GF108991081091008001999999MD1810071+9999MW1131REMSYN076AAXX  11151 31594 41566 83604 10227 20192 49943 58007 71398 889// 333 88920;
0140315940999992000071118004+49420+130790FM-12+013599999V0209999C000012200019N0040001N1+02171+01851099381ADDAY191061AY281061GF104991041091008001001001MD1710041+9999MW1021REMSYN066AAXX  11181 31594 41596 40000 10217 20185 49938 57004 70298 84900;
0112315940999992000071121004+49420+130790FM-12+013599999V0201801N001012200019N0200001N1+03201+01971099801ADDGF101991011011012501001001MD1710151+9999REMSYN060AAXX  11211 31594 42698 11801 10320 20197 49980 57015 81100;
0173315940999992000071200004+49420+130790FM-12+013599999V0202701N002012200019N0100001N1+02261+01951099371ADDAA112007991GF108991021021008001001011KA1999N+01871MA1999999097841MD1810021+9999REMSYN082AAXX  12001 31594 12597 82702 10226 20195 39784 49937 58002 60082 82201 333 20187;
0112315940999992000071206004+49420+130790FM-12+013599999V0202701N004010360019N0200001N1+02901+01771099271ADDGF108991031091012501051011MD1710031+9999REMSYN060AAXX  12061 31594 42698 82704 10290 20177 49927 57003 83951;
0186315940999992000071212004+49420+130790FM-12+013599999V0201801N001010360019N0200001N1+02121+01941099361ADDAA199000091GF105991031091012501011001KA1999M+02931MA1999999097831MD1310131+9999REMSYN076AAXX  12121 31594 32698 51801 10212 20194 39783 49936 53013 83910 333 10293;EQDQ01  00002PRCP99
0112315940999992000071215004+49420+130790FM-12+013599999V0201401N001012200019N0150001N1+02001+01841099541ADDGF102991001001999999001011MD1210071+9999REMSYN060AAXX  12151 31594 42965 21401 10200 20184 49954 52007 80001;
0122315940999992000071218004+49420+130790FM-12+013599999V0209999C000012200019N0170001N1+01871+01811099541ADDGA1001+999999999GF100991001001999999001001MD1210081+9999REMSYN054AAXX  12181 31594 42967 00000 10187 20181 49954 52008;
0112315940999992000071221004+49420+130790FM-12+013599999V0201401N002012200019N0200001N1+01531+01171099931ADDGF102991001001999999001011MD1810041+9999REMSYN060AAXX  12211 31594 42998 21402 10153 20117 49993 58004 80001;
0186315940999992000071300004+49420+130790FM-12+013599999V0202301N001019999999N0200001N1+02041+01241099521ADDAA199000091GF106991021001999999031011KA1999N+01201MA1999999097981MD1310041+9999REMSYN076AAXX  13001 31594 32998 62301 10204 20124 39798 49952 53004 82031 333 20120;EQDQ01  00002PRCP99
0112315940999992000071303004+49420+130790FM-12+013599999V0202701N001019999999N0200001N1+02081+01241099541ADDGF108991061001999999051011MD1210021+9999REMSYN060AAXX  13031 31594 42998 82701 10208 20124 49954 52002 86051;
0098315940999992000071306004+49420+130790FM-12+013599999V0202301N001019999999N0500001N1+02531+01461099901ADDGF106991031021999999031999REMSYN060AAXX  13061 31594 42999 62301 10253 20146 4999/ 5980/ 8323/;
0112315940999992000071309004+49420+130790FM-12+013599999V0202701N003010360019N0200001N1+02401+01391099561ADDGF108991021091012501031011MD1310071+9999REMSYN060AAXX  13091 31594 42698 82703 1024/ 20139 49956 53007 82931;
0180315940999992000071312004+49420+130790FM-12+013599999V0209999C000010360019N0200001N1+02031+01581999999ADDAA199000091GF106991021051012501051011KA1999M+02531MA1999999098161MD1210121+9999REMSYN070AAXX  13121 31594 32698 60000 10203 20158 39816 52012 82551 333 10253;EQDQ01  00002PRCP99
0122315940999992000071315004+49420+130790FM-12+013599999V0203601N001012200019N0500001N1+01471+01241099791ADDGA1001+999999999GF100991001001999999001001MD1210051+9999REMSYN054AAXX  13151 31594 42999 03601 10147 20124 49979 52005;
0112315940999992000071318004+49420+130790FM-12+013599999V0203601N001012200019N0160001N1+01031+00931099851ADDGF102991021001999999031001MD1310041+9999REMSYN060AAXX  13181 31594 42966 23601 10103 20093 49985 53004 82030;
0140315940999992000071321004+49420+130790FM-12+013599999V02099999999999999999N0005001N1+01251+01211099951ADDAY141031AY211031GF106991061001999999051001MD1210101+9999MW1461REMSYN066AAXX  13211 31594 41993 68902 10125 20121 49995 52010 74641 86050;
0230315940999992000071400004+49420+130790FM-12+013599999V0201101N001010360019N0200001N1+01761+01491100021ADDAA199000091AY141061AY211061GF108991011091012501051999KA1999N+99999MA1999999098461MD1210161+9999MW1021REMSYN082AAXX  14001 31594 31698 81101 10176 20149 39846 40002 52016 70241 8195/ 333 20186;EQDQ01  00002PRCP99Q02 +01862ATMN  
0112315940999992000071403004+49420+130790FM-12+013599999V0203601N005010360019N0200001N1+02141+01131100071ADDGF108991021091012501051011MD1210071+9999REMSYN060AAXX  14031 31594 42698 83605 10214 20113 40007 52007 82951;
0112315940999992000071406004+49420+130790FM-12+013599999V0203201N005012200019N0200001N1+02351+01351100051ADDGF103991021021008001031001MD1810011+9999REMSYN060AAXX  14061 31594 42598 33205 10235 20135 40005 58001 82230;
0112315940999992000071409004+49420+130790FM-12+013599999V0203201N003012200019N0200001N1+02411+01451100071ADDGF102991021091008001001001MD1310021+9999REMSYN060AAXX  14091 31594 42598 23203 10241 20145 40007 53002 82900;
0186315940999992000071412004+49420+130790FM-12+013599999V0209999C000012200019N0200001N1+01911+01471100241ADDAA199000091GF101991011051008001001001KA1999M+02421MA1999999098691MD1210151+9999REMSYN076AAXX  14121 31594 32598 10000 10191 20147 39869 40024 52015 81500 333 10242;EQDQ01  00002PRCP99
0131315940999992000071415004+49420+130790FM-12+013599999V0203201N001019999999N0500001N1+01631+01361100271ADDGF106991001001999999001011MD1210051+9999REMSYN060AAXX  14151 31594 42699 63201 10163 20136 40027 52005 80001;EQDQ01+012502SCOLCB
0122315940999992000071418004+49420+130790FM-12+013599999V0203201N001012200019N0220001N1+01041+00951100501ADDGA1001+999999999GF100991001001999999001001MD1210131+9999REMSYN054AAXX  14181 31594 42972 03201 10104 20095 40050 52013;
0112315940999992000071421004+49420+130790FM-12+013599999V0209999C000012200019N0200001N1+01031+00931100571ADDGF101991001001999999001011MD1210071+9999REMSYN060AAXX  14211 31594 42998 10000 10103 20093 40057 52007 80001;
0186315940999992000071500004+49420+130790FM-12+013599999V0209999C000012200019N0200001N1+01991+01441100631ADDAA199000091GF102991001001999999001011KA1999N+00901MA1999999099071MD1210111+9999REMSYN076AAXX  15001 31594 32998 20000 10199 20144 39907 40063 52011 80001 333 20090;EQDQ01  00002PRCP99
0112315940999992000071503004+49420+130790FM-12+013599999V0203201N003012200019N0200001N1+02441+01451100651ADDGF106991021021012501001011MD1210041+9999REMSYN060AAXX  15031 31594 42698 63203 10244 20145 40065 52004 82201;
0131315940999992000071506004+49420+130790FM-12+013599999V0203401N003012200019N0200001N1+02501+01471100641ADDGF103991999021012501001001MD1410001+9999REMSYN060AAXX  15061 31594 42698 33403 10250 20147 40064 54000 82200;EQDQ01+000022SCOTLC
0112315940999992000071509004+49420+130790FM-12+013599999V0203601N002012200019N0500001N1+02591+01481100621ADDGF102991021001012501041001MD1810021+9999REMSYN060AAXX  15091 31594 42699 23602 10259 20148 40062 58002 82040;
0186315940999992000071512004+49420+130790FM-12+013599999V0209999C000019999999N0200001N1+02281+01511100711ADDAA199000091GF106991061001999999031001KA1999M+02711MA1999999099171MD1310081+9999REMSYN076AAXX  15121 31594 32998 60000 10228 20151 39917 40071 53008 86030 333 10271;EQDQ01  00002PRCP99
0112315940999992000071515004+49420+130790FM-12+013599999V0209999C000012200019N0270001N1+01711+01421100821ADDGF102991021001999999031001MD1210071+9999REMSYN060AAXX  15151 31594 42977 20000 10171 20142 40082 52007 82030;
0112315940999992000071518004+49420+130790FM-12+013599999V02099999999992200019N0210001N1+01451+01251100871ADDGF102991011051012501031001MD1810041+9999REMSYN060AAXX  15181 31594 42671 23701 10145 20125 40087 58004 81530;
0186315940999992000071600004+49420+130790FM-12+013599999V0202701N001010360019N0200001N1+02341+01511100871ADDAA199000091GF108991021051012501031011KA1999N+01281MA1999999099321MD1110031+9999REMSYN076AAXX  16001 31594 32698 82701 10234 20151 39932 40087 51003 82531 333 20128;EQDQ01  00002PRCP99
0112315940999992000071603004+49420+130790FM-12+013599999V0203401N003012200019N0200001N1+02661+01481100811ADDGF106991011011012501001011MD1810041+9999REMSYN060AAXX  16031 31594 42698 63403 10266 20148 40081 58004 81101;
0112315940999992000071606004+49420+130790FM-12+013599999V0202701N004019999999N0500001N1+02421+01441100671ADDGF106991001001999999001011MD1710111+9999REMSYN060AAXX  16061 31594 42999 62704 10242 20144 40067 57011 80001;
0112315940999992000071609004+49420+130790FM-12+013599999V0203201N002019999999N0500001N1+02681+01381100651ADDGF106991001001999999001011MD1610041+9999REMSYN060AAXX  16091 31594 42999 63202 10268 20138 40065 56004 80001;
0186315940999992000071612004+49420+130790FM-12+013599999V0209999C000012200019N0500001N1+02141+01421100641ADDAA199000091GF103991031051012501001001KA1999M+02811MA1999999099091MD1710041+9999REMSYN076AAXX  16121 31594 32699 30000 10214 20142 39909 40064 57004 83500 333 10281;EQDQ01  00002PRCP99
0112315940999992000071615004+49420+130790FM-12+013599999V0200901N001012200019N0500001N1+01591+01451100561ADDGF102991021071012501001001MD1210071+9999REMSYN060AAXX  16151 31594 42699 20901 10159 20145 40056 52007 82700;
0112315940999992000071618004+49420+130790FM-12+013599999V0209999C000012200019N0200001N1+01291+01151100701ADDGF108991011051012501001011MD1810061+9999REMSYN060AAXX  16181 31594 42698 80000 10129 20115 40070 58006 81501;
0140315940999992000071621004+49420+130790FM-12+013599999V0200901N001012200019N0200001N1+01831+01591100691ADDAY121031AY221031GF108991031091012501001011MD1310021+9999MW1251REMSYN066AAXX  16211 31594 41698 80901 10183 20159 40069 53002 72522 83901;
0112315940999992000071709004+49420+130790FM-12+013599999V0201601N005012200019N0200001N1+02261+01511100591ADDGF101991011001999999051001MD1710071+9999REMSYN060AAXX  17091 31594 42998 11605 10226 20151 40059 57007 81050;
0196315940999992000071712004+49420+130790FM-12+013599999V0201401N002012200019N0200001N1+01921+01501100711ADDAA199000091GA1001+999999999GF100991001001999999001001KA1999M+02301MA1999999099151MD1310101+9999REMSYN070AAXX  17121 31594 32998 01402 10192 20150 39915 40071 53010 333 10230;EQDQ01  00002PRCP99
0122315940999992000071715004+49420+130790FM-12+013599999V0201601N001012200019N0230001N1+01451+01311100771ADDGA1001+999999999GF100991001001999999001001MD1210031+9999REMSYN054AAXX  17151 31594 42973 01601 10145 20131 40077 52003;
0122315940999992000071718004+49420+130790FM-12+013599999V0202301N001012200019N0260001N1+01231+01071100711ADDGA1001+999999999GF100991001001999999001001MD1810071+9999REMSYN054AAXX  17181 31594 42976 02301 10123 20107 40071 58007;
0112315940999992000071721004+49420+130070FM-12+013599999V0200901N001012200019N0200001N1+01561+01381100791ADDGF106991021051012501001011MD1310101+9999REMSYN060AAXX  17211 31594 42698 60901 10156 20138 40079 53010 82501;
0186315940999992000071800004+49420+130070FM-12+013599999V0201801N004012200019N0500001N1+01921+01501100741ADDAA199000091GF108991021011008001001011KA1999N+01211MA1999999099181MD1810031+9999REMSYN076AAXX  18001 31594 32599 81804 10192 20150 39918 40074 58003 82101 333 20121;EQDQ01  00002PRCP99
0112315940999992000071803004+49420+130070FM-12+013599999V0201401N003012200019N0200001N1+02461+01641100631ADDGF104991041031012501001001MD1810081+9999REMSYN060AAXX  18031 31594 42698 41403 10246 20164 40063 58008 84300;
0112315940999992000071806004+49420+130070FM-12+013599999V0201601N002012200019N0500001N1+02641+01521100491ADDGF103991031021008001001001MD1810141+9999REMSYN060AAXX  18061 31594 42599 31602 10264 20152 40049 58014 83200;
0112315940999992000071809004+49420+130070FM-12+013599999V0201601N003012200019N0200001N1+02641+01411100411ADDGF102991011021012501031011MD1710081+9999REMSYN060AAXX  18091 31594 42698 21603 10264 20141 40041 57008 81231;
0186315940999992000071812004+49420+130070FM-12+013599999V0201401N001019999999N0200001N1+02281+01641100451ADDAA199000091GF106991011001012501031021KA1999M+02701MA1999999099611MD1310011+9999REMSYN076AAXX  18121 31594 32698 61401 10228 20164 39961 40045 53001 81032 333 10270;EQDQ01  00002PRCP99
0112315940999992000071815004+49420+130070FM-12+013599999V0201101N002012200019N0250001N1+01971+01511100611ADDGF103991011001999999031021MD1210041+9999REMSYN060AAXX  18151 31594 42975 31102 10197 20151 40061 52004 81032;
0112315940999992000071818004+49420+130070FM-12+013599999V0201601N002019999999N0270001N1+01801+01461100661ADDGF106991011001999999031011MD1210041+9999REMSYN060AAXX  18181 31594 42977 61602 10180 20146 40066 52004 81031;
0186315940999992000071900004+49420+130070FM-12+013599999V0201601N006019999999N0500001N1+02131+01511100791ADDAA199000091GF108991001001999999001011KA1999N+01721MA1999999099241MD1210091+9999REMSYN076AAXX  19001 31594 32999 81606 10213 20151 39924 40079 52009 80001 333 20172;EQDQ01  00002PRCP99
0112315940999992000071903004+49420+130070FM-12+013599999V0201601N007012200019N0200001N1+02581+01521100721ADDGF101991011021012501001001MD1810051+9999REMSYN060AAXX  19031 31594 42698 11607 10258 20152 40072 58005 81200;
0186315940999992000072006004+49420+130070FM-12+013599999V0201401N006019999999N0200001N1+02191+01591100251ADDAA199000091GF108991051001999999081011KA1999N+01881MA1999999098711MD1710131+9999REMSYN076AAXX  20061 31594 32998 81406 10219 20159 39871 40025 57013 85081 333 20188;EQDQ01  00002PRCP99
0139315940999992000072009004+49420+130070FM-12+013599999V0201801N009010360019N0200001N1+02321+01541099971ADDGF108991021091012501071999MD1710271+9999OA140101201REMSYN076AAXX  20091 31594 42698 81809 10232 20154 49997 57027 8297/ 333 91012 91117;
0258315940999992000072012004+49420+130070FM-12+013599999V0202401N001010102019N0500001N1+01991+01861099302ADDAA112039191AY181061AY221061GA1061+010209099GF108991061091008001051999KA1120M+02331MA1999999097762MD1410001+9999MW1021REMSYN094AAXX  20121 31594 11599 82401 10199 20186 39776 49930 54000 60392 70282 8695/ 333 10233 86934;EQDQ01+097763APOSP Q02+099303APOSLP
0166315940999992000072015004+49420+130070FM-12+013599999V0201401N003010048019N0200001N1+01861+01681099171ADDAY181031AY221031GA1061+004809099GF108991061091008001051999MD1810111+9999MW1131REMSYN076AAXX  20151 31594 41570 81403 10186 20168 49917 58011 71382 8695/ 333 86916;
0185315940999992000072018004+49420+130070FM-12+013599999V0201601N005010048019N0010001N1+02001+01841099972ADDAY181061AY221061GA1061+004809099GF108991081091004501999999MD1710121+9999MW1021REMSYN076AAXX  20181 31594 41494 81605 10200 20184 49997 57012 70282 889// 333 86916;EQDQ01+099973APOSLP
0223315940999992000072100004+49420+130070FM-12+013599999V0201801N003010072019N0500001N1+01901+01871099921ADDAA100000791AY181061AY221061GA1061+007209029GF106991061091008001001001KA1120N+01941MA1999999097401MD1710091+9999MW1021REMSYN094AAXX  21001 31594 11599 61803 10190 20187 39740 49992 57009 69900 70282 86900 333 20194 86824;
0112315940999992000072103004+49420+130070FM-12+013599999V0201801N002012200019N0500001N1+02011+01881099731ADDGF108991021011008001001011MD1710031+9999REMSYN060AAXX  21031 31594 42599 81802 10201 20188 49973 57003 82101;
0112315940999992000072106004+49420+130070FM-12+013599999V0202301N001012200019N0500001N1+01951+01711099841ADDGF102991021021008001001001MD1710091+9999REMSYN060AAXX  21061 31594 42599 22301 10195 20171 49984 57009 82200;
0157315940999992000072109004+49420+130070FM-12+013599999V0201401N007010132019N0200001N1+02301+01721098522ADDGA1061+013209099GF108991061091012501001011MD1610041+9999REMSYN070AAXX  21091 31594 42698 81407 10230 20172 49852 56004 86901 333 86944;EQDQ01+098523APOSLP
0236315940999992000072112004+49420+130070FM-12+013599999V0200901N003010078019N0200001N1+02101+01621098851ADDAA199000091AY191061AY221061GA1081+007809099GF108991081091008001999999KA1120M+02911MA1999999097131MD1210121+9999MW1291REMSYN088AAXX  21121 31594 31598 80903 10210 20162 39713 49885 52012 72992 889// 333 10291 88926;EQDQ01  00002PRCP99
0166315940999992000072115004+49420+130070FM-12+013599999V0200901N002010060019N0090001N1+01781+01691098681ADDAY181031AY221031GA1061+006009099GF108991061091008001001011MD1110011+9999MW1801REMSYN076AAXX  21151 31594 41559 80902 10178 20169 49868 51001 78082 86901 333 86920;
0140315940999992000072118004+49420+130070FM-12+013599999V0200901N001019999999N0200001N1+01671+01591098581ADDAY181061AY221061GF108991001001999999001011MD1710101+9999MW1021REMSYN066AAXX  21181 31594 41970 80901 10167 20159 49858 57010 70282 80001;
0112315940999992000072121004+49420+130070FM-12+013599999V0200901N001012200019N0200001N1+01661+01511098531ADDGF108991031091008001001011MD1710061+9999REMSYN060AAXX  21211 31594 42598 80901 10166 20151 49853 57006 83901;
0195315940999992000072200004+49420+130070FM-12+013599999V0200901N001010069019N0200001N1+01841+01681098421ADDAA112003091GA1051+006909059GF107991051061008001051999KA1120N+01591MA1999999096991MD1310011+9999REMSYN088AAXX  22001 31594 12598 70901 10184 20168 39699 49842 53001 60032 8565/ 333 20159 85623;
0112315940999992000072203004+49420+130070FM-12+013599999V0203601N002010360019N0500001N1+01921+01771098491ADDGF108991041091008001071999MD1810031+9999REMSYN060AAXX  22031 31594 42599 83602 10192 20177 49849 58003 8497/;
0166315940999992000072206004+49420+130070FM-12+013599999V0203201N004010090019N0200001N1+02401+01741098351ADDAY191061AY221061GA1051+009009099GF106991061091008001001011MD1710121+9999MW1171REMSYN076AAXX  22061 31594 41598 63204 10240 20174 49835 57012 71792 86901 333 85930;
0140315940999992000072209004+49420+130070FM-12+013599999V0202701N002010360019N0200001N1+02021+01841098421ADDAY191031AY221031GF107991031091008001071011MD1310061+9999MW1251REMSYN066AAXX  22091 31594 41598 72702 10202 20184 49842 53006 72592 83971;
0201315940999992000072212004+49420+130070FM-12+013599999V0202701N001012200019N0200001N1+01961+01851098451ADDAA100001091AY191061AY281061GF108991021091008001001011KA1999M+02501MA1999999096921MD1210021+9999MW1021REMSYN088AAXX  22121 31594 11598 82701 10196 20185 39692 49845 52002 69990 70298 82901 333 10250;
0112315940999992000072215004+49420+130070FM-12+013599999V0202701N001012200019N0210001N1+01821+01751098541ADDGF105991021051012501001011MD1210081+9999REMSYN060AAXX  22151 31594 42671 52701 10182 20175 49854 52008 82501;
0112315940999992000072218004+49420+130070FM-12+013599999V0209999C000019999999N0180001N1+01641+01571098551ADDGF107991071001999999051999MD1410001+9999REMSYN060AAXX  22181 31594 42968 70000 10164 20157 49855 54000 8705/;
0138315940999992000072221004+49420+130070FM-12+013599999V0202701N001010114019N0200001N1+01461+01351098691ADDGA1051+011409059GF108991051051012501051999MD1310131+9999REMSYN070AAXX  22211 31594 42698 82701 10146 20135 49869 53013 8555/ 333 85638;
0186315940999992000072300004+49420+130070FM-12+013599999V0203401N001019999999N0200001N1+01561+01211098771ADDAA199000091GF107991071001999999051001KA1999N+01411MA1999999097221MD1210091+9999REMSYN076AAXX  23001 31594 32998 73401 10156 20121 39722 49877 52009 87050 333 20141;EQDQ01  00002PRCP99
0112315940999992000072303004+49420+130070FM-12+013599999V0203201N002010360019N0200001N1+01841+01131098861ADDGF107991021021012501031011MD1210091+9999REMSYN060AAXX  23031 31594 42698 73202 10184 20113 49886 52009 82231;
0166315940999992000072306004+49420+130070FM-12+013599999V0203201N002010081019N0200001N1+01971+01301098901ADDAY181061AY221061GA1051+008109099GF108991051091008001031011MD1210051+9999MW1251REMSYN076AAXX  23061 31594 41598 83202 10197 20130 49890 52005 72582 85931 333 85927;
0166315940999992000072309004+49420+130070FM-12+013599999V0203201N001010084019N0100001N1+01891+01401099001ADDAY181031AY221031GA1061+008409099GF108991061091008001001011MD1210101+9999MW1801REMSYN076AAXX  23091 31594 41597 83201 10189 20140 49900 52010 78082 86901 333 86928;
0201315940999992000072312004+49420+130070FM-12+013599999V0203201N001010360019N0200001N1+01721+01511099151ADDAA112000791AY181061AY221061GF108991021051012501071999KA1999M+02091MA1999999097601MD1210141+9999MW1011REMSYN088AAXX  23121 31594 11698 83201 10172 20151 39760 49915 52014 69902 70182 8257/ 333 10209;
0140315940999992000072315004+49420+130070FM-12+013599999V0203201N001010360019N0170001N1+01541+01421099241ADDAY121031AY221031GF108991021091008001071999MD1210081+9999MW1251REMSYN066AAXX  23151 31594 41567 83201 10154 20142 49924 52008 72522 8297/;
0166315940999992000072318004+49420+130070FM-12+013599999V0202901N001010072019N0037001N1+01451+01381099301ADDAY181061AY221061GA1081+007209099GF108991081091008001999999MD1210051+9999MW1811REMSYN076AAXX  23181 31594 41537 82901 10145 20138 49930 52005 78182 889// 333 88924;
0140315940999992000072321004+49420+130070FM-12+013599999V0209999C000010360019N0200001N1+01441+01371099411ADDAY181031AY221031GF108991021051008001051011MD1210111+9999MW1021REMSYN066AAXX  23211 31594 41598 80000 10144 20137 49941 52011 70282 82551;
0223315940999992000072400004+49420+130070FM-12+013599999V0209999C000010087019N0200001N1+01661+01521099621ADDAA100002091AY181061AY221061GA1081+008709099GF108991081091008001999999KA1120N+01391MA1999999098061MD1210221+9999MW1021REMSYN094AAXX  24001 31594 11598 80000 10166 20152 39806 49962 52022 60020 70282 889// 333 20139 88929;
0166315940999992000072406004+49420+130070FM-12+013599999V0203201N003010063019N0040001N1+01921+01551099641ADDAY181061AY221061GA1061+006309099GF108991061091008001051999MD1310081+9999MW1801REMSYN076AAXX  24061 31594 41596 83203 10192 20155 49964 53008 78082 8695/ 333 86921;
0166315940999992000072409004+49420+130070FM-12+013599999V0202701N003010075019N0200001N1+01791+01601099561ADDAY121031AY221031GA1081+007509099GF108991081091008001999999MD1810051+9999MW1251REMSYN076AAXX  24091 31594 41598 82703 10179 20160 49956 58005 72522 889// 333 88925;
0201315940999992000072412004+49420+130070FM-12+013599999V0209999C000010360019N0200001N1+01621+01511099921ADDAA112001091AY181061AY221061GF108991021091012501031011KA1999M+02071MA1999999098351MD1210161+9999MW1021REMSYN088AAXX  24121 31594 11698 80000 10162 20151 39835 49992 52016 60012 70282 82931 333 10207;
0112315940999992000072415004+49420+130070FM-12+013599999V0202901N001019999999N0240001N1+01471+01381099971ADDGF108991001001999999001011MD1310041+9999REMSYN060AAXX  24151 31594 42974 82901 10147 20138 49997 53004 80001;
0138315940999992000072418004+49420+130070FM-12+013599999V0209999C000010036019N0110001N1+01361+01321100031ADDGA1071+003609059GF107991071051008001001001MD1210051+9999REMSYN070AAXX  24181 31594 42561 70000 10136 20132 40003 52005 87500 333 87612;
0138315940999992000072421004+49420+130070FM-12+013599999V0203201N001010036019N0100001N1+01391+01331100101ADDGA1071+003609059GF107991071051008001001001MD1210081+9999REMSYN070AAXX  24211 31594 42597 73201 10139 20133 40010 52008 87500 333 87612;
0208315940999992000072500004+49420+130070FM-12+013599999V0203201N001010048019N0100001N1+01631+01511100251ADDAA199000091GA1071+004809059GF107991071051004501999999KA1120N+01331MA1999999098681MD1210161+9999REMSYN082AAXX  25001 31594 32497 73201 10163 20151 39868 40025 52016 875// 333 20133 87616;EQDQ01  00002PRCP99
0138315940999992000072503004+49420+130070FM-12+013599999V0203201N001010069019N0200001N1+01981+01581100151ADDGA1051+006909099GF108991051091008001031011MD1810081+9999REMSYN070AAXX  25031 31594 42598 83201 10198 20158 40015 58008 85931 333 85923;
0140315940999992000072506004+49420+130070FM-12+013599999V0202701N001012200019N0200001N1+01891+01641100131ADDAY121061AY221061GF108991031091008001001011MD1710021+9999MW1251REMSYN066AAXX  25061 31594 41598 82701 10189 20164 40013 57002 72522 83901;
0112315940999992000072509004+49420+130070FM-12+013599999V0203201N003012200019N0500001N1+02221+01551100131ADDGF108991021091008001001011MD1310011+9999REMSYN060AAXX  25091 31594 42599 83203 10222 20155 40013 53001 82901;
0173315940999992000072512004+49420+130070FM-12+013599999V02099999999990360019N0200001N1+02041+01851100171ADDAA100000591GF108991011041012501051011KA1999M+02291MA1999999098631MD1310051+9999REMSYN082AAXX  25121 31594 12698 84401 10204 20185 39863 40017 53005 69940 81451 333 10229;
0112315940999992000072515004+49420+130070FM-12+013599999V0209999C000019999999N0190001N1+01571+01511100201ADDGF106991001001999999001041MD1410001+9999REMSYN060AAXX  25151 31594 42969 60000 10157 20151 40020 54000 80004;
0112315940999992000072518004+49420+130070FM-12+013599999V0203201N001019999999N0170001N1+01461+01391100231ADDGF106991061001999999031001MD1310021+9999REMSYN060AAXX  25181 31594 42967 63201 10146 20139 40023 53002 86030;
0159315940999992000072521004+49420+130070FM-12+013599999V0209999C000012200019N0005001N1+01151+01131100321ADDAY141031AY211031GF103991999001999999031001MD1210071+9999MW1461REMSYN066AAXX  25211 31594 41993 30000 10115 20113 40032 52007 74641 82030;EQDQ01+000022SCOTLC
0131315940999992000072603004+49420+130070FM-12+013599999V0202801N002012200019N0500001N1+02281+01551100261ADDGF104991999021012501001001MD1410001+9999REMSYN060AAXX  26031 31594 42699 42802 10228 20155 40026 54000 86200;EQDQ01+000062SCOTLC
0131315940999992000072606004+49420+130070FM-12+013599999V0202701N002012200019N0500001N1+02571+01551100121ADDGF104991999021012501001001MD1810131+9999REMSYN060AAXX  26061 31594 42699 42702 10257 20155 40012 58013 83200;EQDQ01+000032SCOTLC
0112315940999992000072609004+49420+130070FM-12+013599999V0203201N001010360019N0500001N1+02441+01551100111ADDGF106991031021012501031001MD1710021+9999REMSYN060AAXX  26091 31594 42699 63201 10244 20155 40011 57002 83230;
0186315940999992000072612004+49420+130070FM-12+013599999V0209999C000012200019N0500001N1+02041+01771100221ADDAA199000091GF102991011021012501001011KA1999M+02601MA1999999098671MD1210091+9999REMSYN076AAXX  26121 31594 32699 20000 10204 20177 39867 40022 52009 81201 333 10260;EQDQ01  00002PRCP99
0122315940999992000072615004+49420+130070FM-12+013599999V0201401N001012200019N0290001N1+01661+01451100301ADDGA1001+999999999GF100991001001999999001001MD1210061+9999REMSYN054AAXX  26151 31594 42979 01401 10166 20145 40030 52006;
0122315940999992000072618004+49420+130070FM-12+013599999V0201401N003012200019N0260001N1+01591+01391100391ADDGA1001+999999999GF100991001001999999001001MD1210041+9999REMSYN054AAXX  26181 31594 42976 01403 10159 20139 40039 52004;
0112315940999992000072621004+49420+130070FM-12+013599999V0201401N001012200019N0200001N1+01491+01421100421ADDGF102991001001999999001011MD1210031+9999REMSYN060AAXX  26211 31594 42998 21401 10149 20142 40042 52003 80001;
0186315940999992000072700004+49420+130070FM-12+013599999V0201801N003012200019N0200001N1+02031+01611100431ADDAA199000091GF102991021001999999031001KA1999N+01391MA1999999098871MD1210031+9999REMSYN076AAXX  27001 31594 32998 21803 10203 20161 39887 40043 52003 82030 333 20139;EQDQ01  00002PRCP99
0112315940999992000072703004+49420+130070FM-12+013599999V0202001N003010360019N0200001N1+02191+01761100381ADDGF107991031021012501051001MD1810051+9999REMSYN060AAXX  27031 31594 42698 72003 10219 20176 40038 58005 83250;
0112315940999992000072709004+49420+130070FM-12+013599999V0202101N004010360019N0200001N1+02241+01281100221ADDGF107991011021012501051021MD1610021+9999REMSYN060AAXX  27091 31594 42698 72104 10224 20128 40022 56002 81252;
0112315940999992000072712004+49420+130070FM-12+013599999V0202001N002010360019N0200001N1+02541+01751100241ADDGF107991021021012501051021MD1710131+9999REMSYN060AAXX  27121 31594 42698 72002 10254 20175 40024 57013 82252;
0112315940999992000072715004+49420+130070FM-12+013599999V0201601N001012200019N0260001N1+01991+01681100281ADDGF102991021001999999031001MD1110021+9999REMSYN060AAXX  27151 31594 42976 21601 10199 20168 40028 51002 82030;
0122315940999992000072718004+49420+130070FM-12+013599999V0209999C000012200019N0190001N1+01671+01511100331ADDGA1001+999999999GF100991001001999999001001MD1210031+9999REMSYN054AAXX  27181 31594 42969 00000 10167 20151 40033 52003;
0138315940999992000072721004+49420+130070FM-12+013599999V0200901N003010051019N0200001N1+01921+01671100141ADDGA1071+005109059GF107991071051004501999999MD1810171+9999REMSYN070AAXX  27211 31594 42498 70903 10192 20167 40014 58017 875// 333 87617;
0223315940999992000072800004+49420+130070FM-12+013599999V0200901N001010054019N0040001N1+01951+01841099991ADDAA112003091AY181061AY211061GA1081+005409099GF108991081091004501999999KA1120N+01631MA1999999098441MD1710151+9999MW1801REMSYN094AAXX  28001 31594 11496 80901 10195 20184 39844 49999 57015 60032 78081 889// 333 20163 88918;
0166315940999992000072803004+49420+130070FM-12+013599999V0200901N006010051019N0020001N1+01941+01801099851ADDAY181031AY221031GA1081+005109099GF108991081091004501999999MD1710141+9999MW1811REMSYN076AAXX  28031 31594 41495 80906 10194 20180 49985 57014 78182 889// 333 88917;
0140315940999992000072806004+49420+130070FM-12+013599999V0201601N005010075019N0040001N1+02041+01801099641ADDAY181061AY221061GF108991081091008001999999MD1710201+9999MW1801REMSYN066AAXX  28061 31594 41596 81605 10204 20180 49964 57020 78082 889//;
0166315940999992000072809004+49420+130070FM-12+013599999V0201401N003010075019N0100001N1+01961+01741099521ADDAY181031AY221031GA1081+007509099GF108991081091008001999999MD1710121+9999MW1801REMSYN076AAXX  28091 31594 41597 81403 10196 20174 49952 57012 78082 889// 333 88925;
0223315940999992000072812004+49420+130070FM-12+013599999V0201401N005010060019N0040001N1+01901+01811099661ADDAA112007991AY181061AY221061GA1071+006009099GF107991071091008001001001KA1120M+02041MA1999999098111MD1310131+9999MW1801REMSYN094AAXX  28121 31594 11596 71405 10190 20181 39811 49966 53013 60082 78082 87900 333 10204 87920;
0140315940999992000072815004+49420+130070FM-12+013599999V0201401N004012200019N0140001N1+01671+01621099721ADDAY181031AY211031GF101991001001999999001011MD1210051+9999MW1021REMSYN066AAXX  28151 31594 41964 11404 10167 20162 49972 52005 70281 80001;
0150315940999992000072818004+49420+130070FM-12+013599999V0201401N001012200019N0120001N1+01691+01621099821ADDAY181061AY211061GA1001+999999999GF100991001001999999001001MD1210101+9999MW1021REMSYN060AAXX  28181 31594 41962 01401 10169 20162 49982 52010 70281;
0140315940999992000072821004+49420+130070FM-12+013599999V0201401N001010360019N0100001N1+01671+01551099881ADDAY181031AY211031GF106991041091008001051001MD1210061+9999MW1251REMSYN066AAXX  28211 31594 41597 61401 10167 20155 49988 52006 72581 84950;
0223315940999992000072900004+49420+130070FM-12+013599999V0201601N003010087019N0200001N1+01881+01691099921ADDAA112000591AY181061AY211061GA1051+008709099GF108991051091008001051011KA1120N+01591MA1999999098371MD1210051+9999MW1021REMSYN094AAXX  29001 31594 11598 81603 10188 20169 39837 49992 52005 69952 70281 85951 333 20159 85929;
0112315940999992000072909004+49420+130070FM-12+013599999V0201601N004010360019N0200001N1+02491+01841099681ADDGF106991021091008001031011MD1710071+9999REMSYN060AAXX  29091 31594 42598 61604 10249 20184 49968 57007 82931;
0140315940999992000072912004+49420+130070FM-12+013599999V0201401N007012200019N0200001N1+02621+01511099741ADDAY181061AY211061GF102991011021012501001011MD1710101+9999MW1021REMSYN066AAXX  29121 31594 41698 21407 10262 20151 49974 57010 70281 81201;
0112315940999992000072915004+49420+130070FM-12+013599999V0200901N004012200019N0240001N1+02101+01841099801ADDGF102991001001999999001011MD1210031+9999REMSYN060AAXX  29151 31594 42974 20904 10210 20184 49980 52003 80001;
0138315940999992000072918004+49420+130070FM-12+013599999V0201401N004010099019N0260001N1+02011+01841099761ADDGA1051+009909099GF108991051091017501051999MD1810041+9999REMSYN070AAXX  29181 31594 42776 81404 10201 20184 49976 58004 8595/ 333 85933;
0112315940999992000072921004+49420+130070FM-12+013599999V0200901N004010360019N0200001N1+01961+01711099751ADDGF108991021051012501051011MD1610011+9999REMSYN060AAXX  29211 31594 42698 80904 10196 20171 49975 56001 82551;
0223315940999992000073000004+49420+130070FM-12+013599999V0200901N001010069019N0040001N1+01881+01771099701ADDAA112000591AY181061AY221061GA1081+006909099GF108991081091008001999999KA1120N+01841MA1999999098151MD1710061+9999MW1801REMSYN094AAXX  30001 31594 11596 80901 10188 20177 39815 49970 57006 69962 78082 889// 333 20184 88923;
0166315940999992000073003004+49420+130070FM-12+013599999V0200901N001010060019N0020001N1+01681+01641099631ADDAY181031AY221031GA1081+006009099GF108991081091008001999999MD1710081+9999MW1811REMSYN076AAXX  30031 31594 41595 80901 10168 20164 49963 57008 78182 889// 333 88920;
0166315940999992000073006004+49420+130070FM-12+013599999V0200901N003010060019N0020001N1+01731+01731099441ADDAY181061AY221061GA1081+006009099GF108991081091008001999999MD1710181+9999MW1811REMSYN076AAXX  30061 31594 41595 80903 10173 20173 49944 57018 78182 889// 333 88920;
0223315940999992000073012004+49420+130070FM-12+013599999V0200201N001010084019N0040001N1+01611+01551099441ADDAA112024991AY181061AY221061GA1081+008409099GF108991081091008001999999KA1120M+01961MA1999999097881MD1310041+9999MW1801REMSYN094AAXX  30121 31594 11596 80201 10161 20155 39788 49944 53004 60252 78082 889// 333 10196 88928;
0166315940999992000073015004+49420+130070FM-12+013599999V0202601N002010063019N0070001N1+01611+01561099651ADDAY181031AY221031GA1081+006309099GF108991081091008001999999MD1210211+9999MW1801REMSYN076AAXX  30151 31594 41557 82602 10161 20156 49965 52021 78082 889// 333 88921;
0166315940999992000073018004+49420+130070FM-12+013599999V0203401N001010027019N0110001N1+01581+01551099831ADDAY181061AY251061GA1081+002709069GF108991081061004501999999MD1210171+9999MW1021REMSYN076AAXX  30181 31594 41461 83401 10158 20155 49983 52017 70285 886// 333 88709;
0138315940999992000073021004+49420+130070FM-12+013599999V0209999C000010015019N0100001N1+01561+01511099971ADDGA1081+001509069GF108991081061008001999999MD1210141+9999REMSYN070AAXX  30211 31594 42597 80000 10156 20151 49997 52014 886// 333 88705;
0173315940999992000073100004+49420+130070FM-12+013599999V0202701N002012200019N0200001N1+01781+01561100071ADDAA112001091GF103991031061008001001001KA1999N+01511MA1999999098511MD1210111+9999REMSYN082AAXX  31001 31594 12598 32702 10178 20156 39851 40007 52011 60012 83600 333 20151;
0138315940999992000073103004+49420+130070FM-12+013599999V0202701N003010111019N0500001N1+02061+01631100191ADDGA1061+011109099GF106991061091012501001001MD1210141+9999REMSYN070AAXX  31031 31594 42699 62703 10206 20163 40019 52014 86900 333 86937;
0138315940999992000073106004+49420+130070FM-12+013599999V0203201N001010099019N0500001N1+02321+01761100231ADDGA1061+009909029GF106991061021012501001001MD1210051+9999REMSYN070AAXX  31061 31594 42699 63201 10232 20176 40023 52005 86200 333 86833;
0112315940999992000073109004+49420+130070FM-12+013599999V0202701N001012200019N0500001N1+02471+01811100231ADDGF102991021021012501001001MD1110011+9999REMSYN060AAXX  31091 31594 42699 22701 10247 20181 40023 51001 82200;
0186315940999992000073112004+49420+130070FM-12+013599999V0209999C000012200019N0500001N1+02091+01741100301ADDAA199000091GF101991011051012501001001KA1999M+02501MA1999999098751MD1210041+9999REMSYN076AAXX  31121 31594 31699 10000 10209 20174 39875 40030 52004 81500 333 10250;EQDQ01  00002PRCP99
0122315940999992000073115004+49420+130070FM-12+013599999V0200901N001012200019N0300001N1+01711+01511100441ADDGA1001+999999999GF100991001001999999001001MD1210121+9999REMSYN054AAXX  31151 31594 42980 00901 10171 20151 40044 52012;
0112315940999992000073118004+49420+130070FM-12+013599999V0200901N002019999999N0300001N1+01471+01291100581ADDGF106991001001999999001011MD1210121+9999REMSYN060AAXX  31181 31594 42980 60902 10147 20129 40058 52012 80001;
0112315940999992000073121004+49420+130070FM-12+013599999V0209999C000012200019N0200001N1+01591+01491100581ADDGF102991001001999999001011MD1210011+9999REMSYN060AAXX  31211 31594 42998 20000 10159 20149 40058 52001 80001;
0202315940999992000080100004+49420+130070FM-12+013599999V0203201N002019999999N0500001N1+01961+01681100651ADDAA199000091GF108991999001012501031001KA1999N+01321MA1999999099091MD1210091+9999REMSYN076AAXX  01001 31594 32699 83202 10196 20168 39909 40065 52009 82030 333 20132;EQDQ01+000022SCOTLCQ02  00002PRCP99
0112315940999992000080103004+49420+130070FM-12+013599999V0202701N003012200019N0200001N1+02501+01871100651ADDGF103991031021008001001001MD1210031+9999REMSYN060AAXX  01031 31594 42598 32703 10250 20187 40065 52003 83200;
0112315940999992000080106004+49420+130070FM-12+013599999V0202701N001012200019N0500001N1+02621+01841100611ADDGF102991021021008001001001MD1810031+9999REMSYN060AAXX  01061 31594 42599 22701 10262 20184 40061 58003 82200;
0112315940999992000080109004+49420+130070FM-12+013599999V0203201N001012200019N0200001N1+02631+01841100611ADDGF101991011021012501001001MD1410001+9999REMSYN060AAXX  01091 31594 42698 13201 10263 20184 40061 54000 81200;
0186315940999992000080112004+49420+130070FM-12+013599999V0203201N001012200019N0230001N1+02201+02061100761ADDAA199000091GF101991011041017501001001KA1999M+02711MA1999999099221MD1310131+9999REMSYN076AAXX  01121 31594 32773 13201 10220 20206 39922 40076 53013 81400 333 10271;EQDQ01  00002PRCP99
0122315940999992000080115004+49420+130070FM-12+013599999V0209999C000012200019N0260001N1+01751+01681100891ADDGA1001+999999999GF100991001001999999001001MD1210091+9999REMSYN054AAXX  01151 31594 42976 00000 10175 20168 40089 52009;
0122315940999992000080118004+49420+130070FM-12+013599999V0209999C000012200019N0220001N1+01531+01481100991ADDGA1001+999999999GF100991001001999999001001MD1210091+9999REMSYN054AAXX  01181 31594 42972 00000 10153 20148 40099 52009;
0150315940999992000080121004+49420+130070FM-12+013599999V0209999C000012200019N0005001N1+01581+01561101121ADDAY141031AY201031GA1001+999999999GF100991001001999999001001MD1210141+9999MW1461REMSYN060AAXX  01211 31594 41993 00000 10158 20156 40112 52014 74640;
0214315940999992000080200004+49420+130070FM-12+013599999V0203401N001012200019N0200001N1+02081+01891101151ADDAA199000091AY141061AY201061GF103991021011008001031001KA1999N+01451MA1999999099591MD1310051+9999MW1021REMSYN082AAXX  02001 31594 31598 33401 10208 20189 39959 40115 53005 70240 82130 333 20145;EQDQ01  00002PRCP99
0112315940999992000080203004+49420+130070FM-12+013599999V0203201N002010360019N0200001N1+02621+02151101041ADDGF105991021021012501031001MD1810081+9999REMSYN060AAXX  02031 31594 42698 53202 10262 20215 40104 58008 82230;
0112315940999992000080206004+49420+130070FM-12+013599999V0203201N001012200019N0200001N1+02861+02001100911ADDGF103991021021012501001011MD1710121+9999REMSYN060AAXX  02061 31594 42698 33201 10286 20200 40091 57012 82201;
0112315940999992000080209004+49420+130070FM-12+013599999V0203601N002010900019N0200001N1+02461+01901100971ADDGF105991011021012501001031MD1310041+9999REMSYN060AAXX  02091 31594 42698 53602 10246 20190 40097 53004 81203;
0214315940999992000080212004+49420+130070FM-12+013599999V0201801N002012200019N0270001N1+01941+01761101141ADDAA199000091AY191061AY211061GF103991021091012501001021KA1999M+02861MA1999999099581MD1210151+9999MW1291REMSYN082AAXX  02121 31594 31677 31802 10194 20176 39958 40114 52015 72991 82902 333 10286;EQDQ01  00002PRCP99
0122315940999992000080215004+49420+130070FM-12+013599999V0209999C000012200019N0190001N1+01761+01691101211ADDGA1001+999999999GF100991001001999999001001MD1110051+9999REMSYN054AAXX  02151 31594 42969 00000 10176 20169 40121 51005;
0122315940999992000080218004+49420+130070FM-12+013599999V0201701N001012200019N0140001N1+01721+01641101321ADDGA1001+999999999GF100991001001999999001001MD1210091+9999REMSYN054AAXX  02181 31594 42964 01701 10172 20164 40132 52009;
0140315940999992000080221004+49420+130070FM-12+013599999V0209999C000010360019N0010001N1+01621+01551101421ADDAY111031AY211031GF106991021071002501051001MD1210091+9999MW1101REMSYN066AAXX  02211 31594 41394 60000 10162 20155 40142 52009 71011 82750;
0208315940999992000080300004+49420+130070FM-12+013599999V0203401N001010030019N0200001N1+01951+01811101391ADDAA199000091GA1051+003009069GF105991051061004501001001KA1120N+01541MA1999999099821MD1810011+9999REMSYN082AAXX  03001 31594 32498 53401 10195 20181 39982 40139 58001 85600 333 20154 85710;EQDQ01  00002PRCP99
0112315940999992000080303004+49420+130070FM-12+013599999V0203401N001012200019N0200001N1+02561+01951101341ADDGF103991031021012501001001MD1710021+9999REMSYN060AAXX  03031 31594 42698 33401 10256 20195 40134 57002 83200;
0112315940999992000080306004+49420+130070FM-12+013599999V0203401N004012200019N0200001N1+02841+01971101221ADDGF103991021021012501001011MD1710101+9999REMSYN060AAXX  03061 31594 42698 33404 10284 20197 40122 57010 82201;
0112315940999992000080309004+49420+130070FM-12+013599999V0203401N002012200019N0500001N1+02801+01941101241ADDGF102991011031008001001011MD1310011+9999REMSYN060AAXX  03091 31594 42599 23402 10280 20194 40124 53001 81301;
0186315940999992000080312004+49420+130070FM-12+013599999V0203201N001012200019N0300001N1+02271+02141101311ADDAA199000091GF102991011041017501001011KA1999M+02881MA1999999099761MD1310051+9999REMSYN076AAXX  03121 31594 32780 23201 10227 20214 39976 40131 53005 81401 333 10288;EQDQ01  00002PRCP99
0122315940999992000080315004+49420+130070FM-12+013599999V0209999C000012200019N0260001N1+01881+01751101381ADDGA1001+999999999GF100991001001999999001001MD1210051+9999REMSYN054AAXX  03151 31594 42976 00000 10188 20175 40138 52005;
0122315940999992000080318004+49420+130070FM-12+013599999V0209999C000012200019N0240001N1+01911+01841101481ADDGA1001+999999999GF100991001001999999001001MD1210081+9999REMSYN054AAXX  03181 31594 42974 00000 10191 20184 40148 52008;
0122315940999992000080321004+49420+130070FM-12+013599999V02099999999992200019N0200001N1+01581+01551101551ADDGA1001+999999999GF100991001001999999001001MD1210071+9999REMSYN054AAXX  03211 31594 42998 09001 10158 20155 40155 52007;
0196315940999992000080400004+49420+130070FM-12+013599999V0200901N001012200019N0200001N1+02371+01931101541ADDAA199000091GA1001+999999999GF100991001001999999001001KA1999N+01501MA1999999099991MD1210031+9999REMSYN070AAXX  04001 31594 32998 00901 10237 20193 39999 40154 52003 333 20150;EQDQ01  00002PRCP99
0112315940999992000080403004+49420+130070FM-12+013599999V0201401N001012200019N0500001N1+02801+02161101521ADDGF102991021021012501001001MD1410001+9999REMSYN060AAXX  04031 31594 42699 21401 10280 20216 40152 54000 82200;
0112315940999992000080406004+49420+130070FM-12+013599999V0202701N002012200019N0500001N1+03011+02061101371ADDGF103991021021012501001011MD1710141+9999REMSYN060AAXX  04061 31594 42699 32702 10301 20206 40137 57014 82201;
0112315940999992000080409004+49420+130070FM-12+013599999V0202701N001012200019N0500001N1+03021+01991101301ADDGF102991021021012501001001MD1710071+9999REMSYN060AAXX  04091 31594 42699 22701 10302 20199 40130 57007 82200;
0202315940999992000080412004+49420+130070FM-12+013599999V0209999C000012200019N0450001N1+02391+02171101341ADDAA199000091GF103991999041012501001001KA1999M+03021MA1999999099751MD1310011+9999REMSYN076AAXX  04121 31594 32683 30000 10239 20217 39975 40134 53001 81400 333 10302;EQDQ01+000012SCOTLCQ02  00002PRCP99
0122315940999992000080421004+49420+130070FM-12+013599999V0209999C000012200019N0230001N1+01871+01761101401ADDGA1001+999999999GF100991001001999999001001MD1210031+9999REMSYN054AAXX  04211 31594 42973 00000 10187 20176 40140 52003;
0196315940999992000080500004+49420+130070FM-12+013599999V0201401N002012200019N0200001N1+02401+02001101421ADDAA199000091GA1001+999999999GF100991001001999999001001KA1999N+01641MA1999999099871MD1310061+9999REMSYN070AAXX  05001 31594 32998 01402 10240 20200 39987 40142 53006 333 20164;EQDQ01  00002PRCP99
0112315940999992000080503004+49420+130070FM-12+013599999V0201801N001012200019N0200001N1+02791+02121101281ADDGF101991011021012501001001MD1810121+9999REMSYN060AAXX  05031 31594 42698 11801 10279 20212 40128 58012 81200;
0112315940999992000080506004+49420+130070FM-12+013599999V0202001N001012200019N0200001N1+03041+01981101081ADDGF103991031021012501001001MD1710181+9999REMSYN060AAXX  05061 31594 42698 32001 10304 20198 40108 57018 83200;
0186315940999992000080512004+49420+130070FM-12+013599999V0209999C000012200019N0210001N1+02381+02221101081ADDAA199000091GF103991001001999999001011KA1999M+03101MA1999999099541MD1210041+9999REMSYN076AAXX  05121 31594 32971 30000 10238 20222 39954 40108 52004 80001 333 10310;EQDQ01  00002PRCP99
0122315940999992000080515004+49420+130070FM-12+013599999V0201401N001012200019N0210001N1+02161+01961101151ADDGA1001+999999999GF100991001001999999001001MD1210061+9999REMSYN054AAXX  05151 31594 42971 01401 10216 20196 40115 52006;
0122315940999992000080518004+49420+130070FM-12+013599999V0201401N003012200019N0190001N1+01951+01891101181ADDGA1001+999999999GF100991001001999999001001MD1210021+9999REMSYN054AAXX  05181 31594 42969 01403 10195 20189 40118 52002;
0150315940999992000080521004+49420+130070FM-12+013599999V0201401N001012200019N0020001N1+01991+01861101211ADDAY101031AY201031GA1001+999999999GF100991001001999999001001MD1210031+9999MW1101REMSYN060AAXX  05211 31594 41995 01401 10199 20186 40121 52003 71000;
0196315940999992000080600004+49420+130070FM-12+013599999V0201401N002012200019N0200001N1+02311+02001101191ADDAA199000091GA1001+999999999GF100991001001999999001001KA1999N+01831MA1999999099651MD1410001+9999REMSYN070AAXX  06001 31594 32998 01402 10231 20200 39965 40119 54000 333 20183;EQDQ01  00002PRCP99
0112315940999992000080609004+49420+130070FM-12+013599999V0202701N002012200019N0200001N1+03001+02241100911ADDGF106991011021012501001011MD1410001+9999REMSYN060AAXX  06091 31594 42698 62702 10300 20224 40091 54000 81201;
0186315940999992000080612004+49420+130070FM-12+013599999V0203201N001010075019N0220001N1+02521+01511101091ADDAA199000091GF106991061091008001001001KA1999M+03061MA1999999099551MD1310151+9999REMSYN076AAXX  06121 31594 32572 63201 10252 20151 39955 40109 53015 86900 333 10306;EQDQ01  00002PRCP99
0122315940999992000080615004+49420+130070FM-12+013599999V0202701N001012200019N0190001N1+02031+01821101041ADDGA1001+999999999GF100991001001999999001001MD1810071+9999REMSYN054AAXX  06151 31594 42969 02701 10203 20182 40104 58007;
0122315940999992000080618004+49420+130070FM-12+013599999V0209999C000012200019N0160001N1+01891+01771101071ADDGA1001+999999999GF100991001001999999001001MD1310021+9999REMSYN054AAXX  06181 31594 42966 00000 10189 20177 40107 53002;
0122315940999992000080621004+49420+130070FM-12+013599999V0200901N001012200019N0200001N1+01841+01711101141ADDGA1001+999999999GF100991001001999999001001MD1210061+9999REMSYN054AAXX  06211 31594 42998 00901 10184 20171 40114 52006;
0186315940999992000080700004+49420+130070FM-12+013599999V0201801N002019999999N0500001N1+02261+02001101101ADDAA199000091GF107991001001999999001011KA1999N+01731MA1999999099551MD1810011+9999REMSYN076AAXX  07001 31594 32999 71802 10226 20200 39955 40110 58001 80001 333 20173;EQDQ01  00002PRCP99
0112315940999992000080706004+49420+130070FM-12+013599999V0202901N001012200019N0100001N1+03061+02291100931ADDGF108991021021012501001011MD1710111+9999REMSYN060AAXX  07061 31594 42697 82901 10306 20229 40093 57011 82201;
0112315940999992000080709004+49420+130070FM-12+013599999V0203201N001012200019N0100001N1+03031+02371100951ADDGF101991001001999999001031MD1310011+9999REMSYN060AAXX  07091 31594 42997 13201 10303 20237 40095 53001 80003;
0186315940999992000080712004+49420+130070FM-12+013599999V0202201N001019999999N0120001N1+02451+02171101061ADDAA199000091GF108991001001999999001011KA1999M+03111MA1999999099561MD1210121+9999REMSYN076AAXX  07121 31594 32962 82201 10245 20217 39956 40106 52012 80001 333 10311;EQDQ01  00002PRCP99
0112315940999992000080715004+49420+130070FM-12+013599999V0200701N001012200019N0110001N1+02211+02011101181ADDGF102991001001999999001011MD1210081+9999REMSYN060AAXX  07151 31594 42961 20701 10221 20201 40118 52008 80001;
0186315940999992000080800004+49420+130070FM-12+013599999V0201401N002010360019N0100001N1+02331+02071101361ADDAA199000091GF106991031091012501031011KA1999N+01861MA1999999099831MD1210051+9999REMSYN076AAXX  08001 31594 32697 61402 10233 20207 39983 40136 52005 83931 333 20186;EQDQ01  00002PRCP99
0131315940999992000080806004+49420+130070FM-12+013599999V0201601N006019999999N0200001N1+03011+02561101571ADDGF108991001001999999001011MD1810091+9999REMSYN060AAXX  08061 31594 42698 81606 10301 20256 40157 58009 80001;EQDQ01+012502SCOLCB
0131315940999992000080809004+49420+130070FM-12+013599999V0201601N005019999999N0200001N1+02891+02271101011ADDGF108991999091012501001001MD1710061+9999REMSYN060AAXX  08091 31594 42698 81605 10289 20227 40101 57006 83900;EQDQ01+000032SCOTLC
0236315940999992000080812004+49420+130070FM-12+013599999V0201401N003010084019N0150001N1+02571+02201101061ADDAA199000091AY191061AY221061GA1051+008409099GF108991051091008001001011KA1120M+03121MA1999999099471MD1710051+9999MW1291REMSYN088AAXX  08121 31594 31565 81403 10257 20220 39947 40106 57005 72992 85901 333 10312 85928;EQDQ01  00002PRCP99
0140315940999992000080815004+49420+130070FM-12+013599999V0201401N004012200019N0500001N1+02431+02141101031ADDAY121031AY221031GF108991021091012501001011MD1210021+9999MW1131REMSYN066AAXX  08151 31594 41699 81404 10243 20214 40103 52002 71322 82901;
0150315940999992000080818004+49420+130070FM-12+013599999V0201601N004010075019N0120001N1+02221+01961100991ADDAY191061AY281061GF108991051091008001051999MD1710051+9999MW1291REMSYN076AAXX  08181 31594 41562 81604 10222 20196 40099 57005 72998 8595/ 333 95932;
0138315940999992000080821004+49420+130070FM-12+013599999V0201301N002010099019N0200001N1+02061+01951100981ADDGA1061+009909099GF108991061091012501051011MD1710021+9999REMSYN070AAXX  08211 31594 42698 81302 10206 20195 40098 57002 86951 333 86933;
0173315940999992000080900004+49420+130070FM-12+013599999V0202001N002019999999N0200001N1+02541+02241100871ADDAA100001091GF108991001001999999001011KA1999N+02051MA1999999099341MD1710081+9999REMSYN082AAXX  09001 31594 12998 82002 10254 20224 39934 40087 57008 60010 80001 333 20205;
0138315940999992000080903004+49420+130070FM-12+013599999V0202701N003010090019N0200001N1+02921+02301100731ADDGA1051+009009099GF108991051091008001051011MD1710121+9999REMSYN070AAXX  09031 31594 42598 82703 10292 20230 40073 57012 85951 333 85930;
0112315940999992000080906004+49420+130070FM-12+013599999V0202701N005010900019N0200001N1+02901+02361100591ADDGF108991021091012501001071MD1710141+9999REMSYN060AAXX  09061 31594 42698 82705 10290 20236 40059 57014 82907;
0166315940999992000080909004+49420+130070FM-12+013599999V0200901N005010051019N0200001N1+02381+02111100681ADDAY191031AY221031GA1081+005109099GF108991081091004501999999MD1310071+9999MW1171REMSYN076AAXX  09091 31594 41498 80905 10238 20211 40068 53007 71792 889// 333 88917;
0236315940999992000080912004+49420+130070FM-12+013599999V0201401N002010042019N0160001N1+02171+02041100761ADDAA199000091AY191061AY221061GA1081+004209099GF108991081091004501999999KA1120M+02951MA1999999099211MD1210061+9999MW1021REMSYN088AAXX  09121 31594 31466 81402 10217 20204 39921 40076 52006 70292 889// 333 10295 88914;EQDQ01  00002PRCP99
0140315940999992000080915004+49420+130070FM-12+013599999V0209999C000010360019N0140001N1+02051+01971100661ADDAY181031AY221031GF108991021091012501051999MD1810101+9999MW1021REMSYN066AAXX  09151 31594 41664 80000 10205 20197 40066 58010 70282 8295/;
0166315940999992000080918004+49420+130070FM-12+013599999V0209999C000010030019N0130001N1+02061+02021100611ADDAY181061AY221061GA1081+003009069GF108991081061004501999999MD1710051+9999MW1021REMSYN076AAXX  09181 31594 41463 80000 10206 20202 40061 57005 70282 886// 333 88710;
0140315940999992000080921004+49420+130070FM-12+013599999V0209999C000019999999N0005001N1+01801+01801100661ADDAY141031AY221031GF108991001001999999001011MD1310031+9999MW1461REMSYN066AAXX  09211 31594 41993 80000 10180 20180 40066 53003 74642 80001;
0201315940999992000081000004+49420+130070FM-12+013599999V0203201N001012200019N0200001N1+02161+02001100631ADDAA112000791AY141061AY211061GF103991031071004501001001KA1999N+01741MA1999999099081MD1810011+9999MW1021REMSYN088AAXX  10001 31594 11498 33201 10216 20200 39908 40063 58001 69902 70241 83700 333 20174;
0112315940999992000081003004+49420+130070FM-12+013599999V0203401N003012200019N0200001N1+02621+01961100471ADDGF103991031021008001001001MD1710131+9999REMSYN060AAXX  10031 31594 42598 33403 10262 20196 40047 57013 83200;
0112315940999992000081006004+49420+130070FM-12+013599999V0203201N005012200019N0500001N1+02861+01961100311ADDGF102991021021012501001001MD1710151+9999REMSYN060AAXX  10061 31594 42699 23205 10286 20196 40031 57015 82200;
0122315940999992000081009004+49420+130070FM-12+013599999V0203401N005012200019N0500001N1+02801+01891100291ADDGA1001+999999999GF100991001001999999001001MD1610021+9999REMSYN054AAXX  10091 31594 42999 03405 10280 20189 40029 56002;
0196315940999992000081012004+49420+130070FM-12+013599999V0203201N001012200019N0500001N1+02321+02001100421ADDAA199000091GA1001+999999999GF100991001001999999001001KA1999M+02921MA1999999098881MD1310101+9999REMSYN070AAXX  10121 31594 32584 03201 10232 20200 39888 40042 53010 333 10292;EQDQ01  00002PRCP99
0122315940999992000081015004+49420+130070FM-12+013599999V0203201N001012200019N0260001N1+02021+01841100481ADDGA1001+999999999GF100991001001999999001001MD1210051+9999REMSYN054AAXX  10151 31594 42976 03201 10202 20184 40048 52005;
0122315940999992000081018004+49420+130070FM-12+013599999V0209999C000012200019N0230001N1+01861+01801100511ADDGA1001+999999999GF100991001001999999001001MD1110021+9999REMSYN054AAXX  10181 31594 42973 00000 10186 20180 40051 51002;
0150315940999992000081021004+49420+130070FM-12+013599999V0203601N001012200019N0020001N1+01581+01501100781ADDAY101031AY201031GA1001+999999999GF100991001001999999001001MD1310251+9999MW1101REMSYN060AAXX  10211 31594 41995 03601 10158 20150 40078 53025 71000;
0196315940999992000081100004+49420+130070FM-12+013599999V0203601N001012200019N0200001N1+02271+01861100831ADDAA199000091GA1001+999999999GF100991001001999999001001KA1999N+01491MA1999999099281MD1210081+9999REMSYN070AAXX  11001 31594 32998 03601 10227 20186 39928 40083 52008 333 20149;EQDQ01  00002PRCP99
0122315940999992000081103004+49420+130070FM-12+013599999V0203201N004012200019N0200001N1+02721+01791100491ADDGA1001+999999999GF100991001001999999001001MD1810011+9999REMSYN054AAXX  11031 31594 42998 03204 10272 20179 40049 58001;
0112315940999992000081106004+49420+130070FM-12+013599999V0203201N004012200019N0500001N1+03001+01861100711ADDGF101991011011017501001001MD1710071+9999REMSYN060AAXX  11061 31594 42799 13204 10300 20186 40071 57007 81100;
0122315940999992000081109004+49420+130070FM-12+013599999V0203201N003012200019N0500001N1+02931+01831100721ADDGA1001+999999999GF100991001001999999001001MD1310011+9999REMSYN054AAXX  11091 31594 42999 03203 10293 20183 40072 53001;
0196315940999992000081112004+49420+130070FM-12+013599999V0203201N001012200019N0300001N1+02161+02041100901ADDAA199000091GA1001+999999999GF100991001001999999001001KA1999M+03001MA1999999099351MD1210141+9999REMSYN070AAXX  11121 31594 32980 03201 10216 20204 39935 40090 52014 333 10300;EQDQ01  00002PRCP99
0122315940999992000081115004+49420+130070FM-12+013599999V0203201N001012200019N0180001N1+01671+01601100971ADDGA1001+999999999GF100991001001999999001001MD1210041+9999REMSYN054AAXX  11151 31594 42968 03201 10167 20160 40097 52004;
0150315940999992000081118004+49420+130070FM-12+013599999V0209999C000012200019N0007001N1+01441+01421101011ADDAY141061AY201061GA1001+999999999GF100991001001999999001001MD1210031+9999MW1461REMSYN060AAXX  11181 31594 41907 00000 10144 20142 40101 52003 74640;
0150315940999992000081121004+49420+130070FM-12+013599999V0203201N001012200019N0010001N1+01261+01221101121ADDAY141031AY201031GA1001+999999999GF100991001001999999001001MD1210091+9999MW1281REMSYN060AAXX  11211 31594 41994 03201 10126 20122 40112 52009 72840;
0224315940999992000081200004+49420+130070FM-12+013599999V0203201N001012200019N0200001N1+02061+01841101111ADDAA199000091AY141061AY201061GA1001+999999999GF100991001001999999001001KA1999N+01191MA1999999099551MD1210041+9999MW1021REMSYN076AAXX  12001 31594 31998 03201 10206 20184 39955 40111 52004 70240 333 20119;EQDQ01  00002PRCP99
0122315940999992000081203004+49420+130070FM-12+013599999V0200401N002012200019N0200001N1+02841+02021100981ADDGA1001+999999999GF100991001001999999001001MD1810091+9999REMSYN054AAXX  12031 31594 42998 00402 10284 20202 40098 58009;
0112315940999992000081206004+49420+130070FM-12+013599999V0203401N003019999999N0500001N1+03131+02091100821ADDGF108991001001999999001011MD1710141+9999REMSYN060AAXX  12061 31594 42999 83403 10313 20209 40082 57014 80001;
0112315940999992000081209004+49420+130070FM-12+013599999V0203401N001012200019N0500001N1+03031+02321100751ADDGF102991001001999999001011MD1710071+9999REMSYN060AAXX  12091 31594 42999 23401 10303 20232 40075 57007 80001;
0186315940999992000081212004+49420+130070FM-12+013599999V0209999C000012200019N0350001N1+02171+01971100831ADDAA199000091GF101991001001999999001011KA1999M+03131MA1999999099281MD1310031+9999REMSYN076AAXX  12121 31594 32981 10000 10217 20197 39928 40083 53003 80001 333 10313;EQDQ01  00002PRCP99
0112315940999992000081215004+49420+130070FM-12+013599999V0203201N001012200019N0260001N1+01751+01671100851ADDGF101991001001999999001011MD1810021+9999REMSYN060AAXX  12151 31594 42976 13201 10175 20167 40085 58002 80001;
0112315940999992000081218004+49420+130070FM-12+013599999V0203201N001012200019N0750001N1+01611+01561100771ADDGF102991021001999999031001MD1710081+9999REMSYN060AAXX  12181 31594 42989 23201 10161 20156 40077 57008 82030;
0112315940999992000081221004+49420+130070FM-12+013599999V0209999C000019999999N0200001N1+01721+01591100761ADDGF108991021001999999031011MD1410001+9999REMSYN060AAXX  12211 31594 42998 80000 10172 20159 40076 54000 82031;
0186315940999992000081300004+49420+130070FM-12+013599999V0200901N001019999999N0200001N1+02501+02041100821ADDAA199000091GF108991001001999999001011KA1999N+01451MA1999999099291MD1310101+9999REMSYN076AAXX  13001 31594 32998 80901 10250 20204 39929 40082 53010 80001 333 20145;EQDQ01  00002PRCP99
0112315940999992000081303004+49420+130070FM-12+013599999V0201601N002019999999N0200001N1+02881+02201100611ADDGF108991001001999999001011MD1810191+9999REMSYN060AAXX  13031 31594 42998 81602 10288 20220 40061 58019 80001;
0112315940999992000081306004+49420+130070FM-12+013599999V0201401N004012200019N0200001N1+03121+01871100451ADDGF102991011011012501001011MD1710151+9999REMSYN060AAXX  13061 31594 42698 21404 10312 20187 40045 57015 81101;
0112315940999992000081309004+49420+130070FM-12+013599999V0201601N003012200019N0200001N1+02981+01771100331ADDGF103991001001999999001011MD1710131+9999REMSYN060AAXX  13091 31594 42998 31603 10298 20177 40033 57013 80001;
0165315940999992000081312004+49420+130070FM-12+013599999V0203401N003019999999N0230001N1+02611+01841100351ADDAA199000091GF108991001001999999001011KA1999M+03151MD1310021+9999REMSYN070AAXX  13121 31594 32973 83403 10261 20184 40035 53002 80001 333 10315;EQDQ01  00002PRCP99
0112315940999992000081315004+49420+130070FM-12+013599999V0201401N003019999999N0230001N1+02331+01841100351ADDGF108991001001999999001011MD1810031+9999REMSYN060AAXX  13151 31594 42973 81403 10233 20184 40035 58003 80001;
0112315940999992000081318004+49420+130070FM-12+013599999V0201401N003019999999N0200001N1+02231+01841100261ADDGF108991011001999999051041MD1710081+9999REMSYN060AAXX  13181 31594 42970 81403 10223 20184 40026 57008 81054;
0223315940999992000081400004+49420+130070FM-12+013599999V0201401N002010090019N0040001N1+02061+01981100201ADDAA112003091AY181061AY221061GA1081+009009099GF108991081091008001999999KA1120N+02001MA1999999098661MD1310021+9999MW1801REMSYN094AAXX  14001 31594 11596 81402 10206 20198 39866 40020 53002 60032 78082 889// 333 20200 88930;
0166315940999992000081403004+49420+130070FM-12+013599999V0201401N003010078019N0100001N1+02281+02121100071ADDAY181031AY221031GA1051+007809099GF108991051091008001071999MD1810121+9999MW1801REMSYN076AAXX  14031 31594 41597 81403 10228 20212 40007 58012 78082 8597/ 333 85926;
0166315940999992000081406004+49420+130070FM-12+013599999V0201401N005010084019N0040001N1+02041+01911100031ADDAY181061AY221061GA1081+008409099GF108991081091008001999999MD1710051+9999MW1801REMSYN076AAXX  14061 31594 41596 81405 10204 20191 40003 57005 78082 889// 333 88928;
0140315940999992000081409004+49420+130070FM-12+013599999V0200901N004010075019N0100001N1+02011+01901099951ADDAY181031AY221031GF108991081091008001999999MD1710091+9999MW1801REMSYN066AAXX  14091 31594 41597 80904 10201 20190 49995 57009 78082 889//;
0223315940999992000081412004+49420+130070FM-12+013599999V0201101N005010066019N0170001N1+01961+01741099931ADDAA112007191AY181061AY221061GA1081+006609099GF108991081091008001999999KA1120M+02281MA1999999098381MD1610021+9999MW1021REMSYN094AAXX  14121 31594 11567 81105 10196 20174 39838 49993 56002 60072 70282 889// 333 10228 88922;
0166315940999992000081415004+49420+130070FM-12+013599999V0201401N005010054019N0200001N1+01821+01651099881ADDAY181031AY221031GA1081+005409099GF108991081091008001999999MD1810061+9999MW1021REMSYN076AAXX  14151 31594 41570 81405 10182 20165 49988 58006 70282 889// 333 88918;
0166315940999992000081418004+49420+130070FM-12+013599999V0200901N003010027019N0050001N1+01711+01661099791ADDAY181061AY221061GA1081+002709069GF108991081091002501999999MD1710091+9999MW1801REMSYN076AAXX  14181 31594 41350 80903 10171 20166 49979 57009 78082 889// 333 88709;
0166315940999992000081421004+49420+130070FM-12+013599999V0201101N003010042019N0200001N1+01951+01871099751ADDAY181031AY221031GA1081+004209099GF108991081091004501999999MD1610021+9999MW1021REMSYN076AAXX  14211 31594 41498 81103 10195 20187 49975 56002 70282 889// 333 88914;
0207315940999992000081500004+49420+130070FM-12+013599999V0201401N002010075019N0200001N1+02081+01991099741ADDAA112008991AY181061AY221061GF108991071091008001051999KA1120N+01711MA1999999098201MD1510011+9999MW1021REMSYN094AAXX  15001 31594 11598 81402 10208 20199 39820 49974 55001 60092 70282 8795/ 333 20171 97925;
0112315940999992000081503004+49420+130070FM-12+013599999V0201601N003010360019N0500001N1+02621+02331099641ADDGF108991031091008001071999MD1810071+9999REMSYN060AAXX  15031 31594 42599 81603 10262 20233 49964 58007 8397/;
0139315940999992000081509004+49420+130070FM-12+013599999V0201401N004010360019N0200001N1+02581+02391099621ADDAY181031AY211031GF105991031091008001031011MD1510001+9999MW1251REMSYN065AAXX  15091 31594 41598 51404 10258 2023949962 55000 72581 83931;
0112315940999992000081515004+49420+130070FM-12+013599999V0201401N004012200019N0180001N1+02331+02221099881ADDGF102991021001999999031001MD1210091+9999REMSYN060AAXX  15151 31594 42968 21404 10233 20222 49988 52009 82030;
0112315940999992000081518004+49420+130070FM-12+013599999V0201401N003019999999N0160001N1+02261+02151099931ADDGF105991051001999999031001MD1210051+9999REMSYN060AAXX  15181 31594 42966 51403 10226 20215 49993 52005 85030;
0186315940999992000081600004+49420+130070FM-12+013599999V0201601N003010360019N0100001N1+02501+02251100081ADDAA199000091GF108991021091008001051999KA1999N+02151MA1999999096561MD1210061+9999REMSYN076AAXX  16001 31594 32597 81603 10250 20225 39656 40008 52006 8295/ 333 20215;EQDQ01  00002PRCP99
0112315940999992000081603004+49420+130070FM-12+013599999V0201801N001010360019N0200001N1+02741+02241100151ADDGF107991031091012501031011MD1210081+9999REMSYN060AAXX  16031 31594 42698 71801 10274 20224 40015 52008 83931;
0112315940999992000081606004+49420+130070FM-12+013599999V0203201N001012200019N0200001N1+02911+02051100101ADDGF106991021091008001001011MD1810041+9999REMSYN060AAXX  16061 31594 42598 63201 10291 20205 40010 58004 82901;
0112315940999992000081609004+49420+130070FM-12+013599999V0201801N002012200019N0200001N1+02841+02091100181ADDGF104991021091008001001011MD1310081+9999REMSYN060AAXX  16091 31594 42598 41802 10284 20209 40018 53008 82901;
0186315940999992000081612004+49420+130070FM-12+013599999V0201401N002012200019N0260001N1+02371+02051100331ADDAA199000091GF102991011001999999031011KA1999M+03011MA1999999098792MD1210111+9999REMSYN076AAXX  16121 31594 32976 21402 10237 20205 39879 40033 52011 81031 333 10301;EQDQ01  00002PRCP99
0112315940999992000081615004+49420+130070FM-12+013599999V0201401N001012200019N0240001N1+02161+01971100431ADDGF102991001001999999001011MD1210091+9999REMSYN060AAXX  16151 31594 42974 21401 10216 20197 40043 52009 80001;
0112315940999992000081618004+49420+130070FM-12+013599999V0201101N001019999999N0200001N1+02041+01911100511ADDGF106991061001999999031001MD1810021+9999REMSYN060AAXX  16181 31594 42970 61101 10204 20191 40051 58002 86030;
0112315940999992000081621004+49420+130070FM-12+013599999V0201401N001012200019N0100001N1+01971+01891100431ADDGF102991021001999999031001MD1310011+9999REMSYN060AAXX  16211 31594 42997 21401 10197 20189 40043 53001 82030;
0202315940999992000081706004+49420+130070FM-12+013599999V0202601N003019999999N0200001N1+02361+02121100491ADDAA199000091GF106991999051008001999999KA1999N+01881MA1999999098951MD1210081+9999REMSYN076AAXX  17061 31594 32598 62603 10236 20212 39895 40049 52008 885// 333 20188;EQDQ01+000082SCOTLCQ02  00002PRCP99
0112315940999992000081709004+49420+130070FM-12+013599999V0202301N003012200019N0500001N1+02251+01331100831ADDGF103991031051012501001001MD1210161+9999REMSYN060AAXX  17091 31594 42699 32303 10225 20133 40083 52016 83500;
0112315940999992000081715004+49420+130070FM-12+013599999V0209999C000019999999N0200001N1+01591+01591100981ADDGF106991001001999999001011MD1210091+9999REMSYN060AAXX  17151 31594 42998 60000 10159 20159 40098 52009 80001;
0131315940999992000081718004+49420+130070FM-12+013599999V0201401N002019999999N0260001N1+01451+01251101061ADDGF108991001001999999001011MD1210081+9999REMSYN060AAXX  17181 31594 42976 81402 10145 20125 40106 52070 80001;EQDQ01+000702APC3  
0131315940999992000081721004+49420+130070FM-12+013599999V0201501N001019999999N0200001N1+01291+01201101882ADDGF105991021001999999031011MD1210101+9999REMSYN060AAXX  17211 31594 42998 51501 10129 20120 40188 52010 82031;EQDQ01+101883APOSLP
0112315940999992000081803004+49420+130070FM-12+013599999V0203201N002012200019N0200001N1+02321+01791101261ADDGF103991031021012501001001MD1010011+9999REMSYN060AAXX  18031 31594 42698 33202 10232 20179 40126 50001 83200;
0112315940999992000081806004+49420+130070FM-12+013599999V0202701N003010360019N0500001N1+02501+01751101131ADDGF105991031021012501031001MD1710131+9999REMSYN060AAXX  18061 31594 42699 52703 10250 20175 40113 57013 83230;
0112315940999992000081809004+49420+130070FM-12+013599999V0203201N002010360019N0500001N1+02461+01721101101ADDGF106991011021012501051011MD1610031+9999REMSYN060AAXX  18091 31594 42699 63202 10246 20172 40110 56003 81251;
0208315940999992000081812004+49420+130070FM-12+013599999V0202901N002010114019N0400001N1+02021+01831101201ADDAA199000091GA1061+011409059GF106991061051012501001001KA1120M+02521MA1999999097641MD1310081+9999REMSYN082AAXX  18121 31594 32682 62902 10202 20183 39764 40120 53008 86500 333 10252 86638;EQDQ01  00002PRCP99
0112315940999992000081818004+49420+130070FM-12+013599999V0209999C000019999999N0200001N1+01551+01481101191ADDGF105991001001999999001011MD1810101+9999REMSYN060AAXX  18181 31594 42970 50000 10155 20148 40119 58010 80001;
0112315940999992000081821004+49420+130070FM-12+013599999V0201601N001012200019N0200001N1+01321+01301101161ADDGF102991021051012501001001MD1710041+9999REMSYN060AAXX  18211 31594 42698 21601 10132 20130 40116 57004 82500;
0186315940999992000081900004+49420+130070FM-12+013599999V0202701N001019999999N0200001N1+01921+01601101131ADDAA199000091GF108991031001999999031011KA1999N+01281MA1999999099561MD1410001+9999REMSYN076AAXX  19001 31594 32998 82701 10192 20160 39956 40113 54000 83031 333 20128;EQDQ01  00002PRCP99
0112315940999992000081903004+49420+130070FM-12+013599999V0203201N003010900019N0200001N1+02201+01601101111ADDGF108991031021012501001031MD1410001+9999REMSYN060AAXX  19031 31594 42698 83203 10220 20160 40111 54000 83203;
0112315940999992000081906004+49420+130070FM-12+013599999V0203401N003012200019N0500001N1+02171+01611101071ADDGF102991011011008001031001MD1810041+9999REMSYN060AAXX  19061 31594 42599 23403 10217 20161 40107 58004 81130;
0112315940999992000081909004+49420+130070FM-12+013599999V0203401N002019999999N0500001N1+02251+01511101051ADDGF105991031021999999031011MD1510021+9999REMSYN060AAXX  19091 31594 42999 53402 10225 20151 40105 55002 83231;
0186315940999992000081912004+49420+130070FM-12+013599999V0203401N001019999999N0550001N1+01581+01511101231ADDAA199000091GF105991021001999999031011KA1999M+02261MA1999999099651MD1210151+9999REMSYN076AAXX  19121 31594 32985 53401 10158 20151 39965 40123 52015 82031 333 10226;EQDQ01  00002PRCP99
0112315940999992000081915004+49420+130070FM-12+013599999V0203601N001019999999N0220001N1+01341+01181101231ADDGF106991001001999999001011MD1810021+9999REMSYN060AAXX  19151 31594 42972 63601 10134 20118 40123 58002 80001;
0112315940999992000081918004+49420+130070FM-12+013599999V0209999C000012200019N0170001N1+01071+01021101321ADDGF102991001001999999001011MD1310071+9999REMSYN060AAXX  19181 31594 42967 20000 10107 20102 40132 53007 80001;
0122315940999992000081921004+49420+130070FM-12+013599999V0203601N001012200019N0200001N1+00841+00801101421ADDGA1001+999999999GF100991001001999999001001MD1210091+9999REMSYN054AAXX  19211 31594 42998 03601 10084 20080 40142 52009;
0218315940999992000082000004+49420+130070FM-12+013599999V0203401N002019999999N0500001N1+02572+01331101371ADDAA199000091GF107991001001999999001011KA1999N+00791MA1999999099771MD1810021+9999REMSYN076AAXX  20001 31594 32599 73402 10257 20133 39977 40137 58002 80001 333 20079;EQDQ01+008002SCOLCBQ02+002573ATOT  Q03  00002PRCP99
0112315940999992000082003004+49420+130070FM-12+013599999V0203401N003012200019N0500001N1+02081+01521101331ADDGF108991021021012501001011MD1710011+9999REMSYN060AAXX  20031 31594 42699 83403 10208 20152 40133 57001 82201;
0112315940999992000082006004+49420+130070FM-12+013599999V0203401N001012200019N0500001N1+02291+01511101231ADDGF105991031091012501001011MD1710061+9999REMSYN060AAXX  20061 31594 42699 53401 10229 20151 40123 57006 83901;
0186315940999992000082012004+49420+130070FM-12+013599999V0203401N001012200019N0450001N1+01561+01461101221ADDAA199000091GF103991001001999999001011KA1999M+02351MA1999999099631MD1510011+9999REMSYN076AAXX  20121 31594 32983 33401 10156 20146 39963 40122 55001 80001 333 10235;EQDQ01  00002PRCP99
0112315940999992000082015004+49420+130070FM-12+013599999V0209999C000012200019N0270001N1+01141+01101101241ADDGF102991001001999999001011MD1410001+9999REMSYN060AAXX  20151 31594 42977 20000 10114 20110 40124 54000 80001;
0112315940999992000082018004+49420+130070FM-12+013599999V0203201N002012200019N0120001N1+00991+00931101281ADDGF102991001001999999001011MD1310031+9999REMSYN060AAXX  20181 31594 42962 23202 10099 20093 40128 53003 80001;
0112315940999992000082021004+49420+130070FM-12+013599999V0202201N001012200019N0200001N1+01131+01051101251ADDGF101991001001999999001011MD1810021+9999REMSYN060AAXX  20211 31594 42998 12201 10113 20105 40125 58002 80001;
0186315940999992000082100004+49420+130070FM-12+013599999V0200701N001012200019N0200001N1+01611+01381101291ADDAA199000091GF103991001001999999001011KA1999N+00901MA1999999099711MD1310071+9999REMSYN076AAXX  21001 31594 32998 30701 10161 20138 39971 40129 53007 80001 333 20090;EQDQ01  00002PRCP99
0112315940999992000082103004+49420+130070FM-12+013599999V0201401N003012200019N0500001N1+02321+00731101171ADDGF105991011011012501001011MD1810101+9999REMSYN060AAXX  21031 31594 42699 51403 10232 20073 40117 58010 81101;
0112315940999992000082106004+49420+130070FM-12+013599999V0202701N001012200019N0200001N1+02651+01821101001ADDGF108991031021012501001011MD1710141+9999REMSYN060AAXX  21061 31594 42698 82701 10265 20182 40100 57014 83201;
0112315940999992000082109004+49420+130070FM-12+013599999V0201401N001012200019N0200001N1+02591+01771100991ADDGF108991011021012501001011MD1710011+9999REMSYN060AAXX  21091 31594 42698 81401 10259 20177 40099 57001 81201;
0186315940999992000082112004+49420+130070FM-12+013599999V0203201N001019999999N0250001N1+02081+01971101021ADDAA199000091GF108991021001999999031011KA1999M+02651MA1999999099461MD1410001+9999REMSYN076AAXX  21121 31594 32975 83201 10208 20197 39946 40102 54000 82031 333 10265;EQDQ01  00002PRCP99
0112315940999992000082115004+49420+130070FM-12+013599999V0203401N001019999999N0210001N1+01761+01631101071ADDGF105991021001999999031011MD1310031+9999REMSYN060AAXX  21151 31594 42971 53401 10176 20163 40107 53003 82031;
0112315940999992000082118004+49420+130070FM-12+013599999V0209999C000019999999N0180001N1+01611+01541101031ADDGF108991021001999999031011MD1810041+9999REMSYN060AAXX  21181 31594 42968 80000 10161 20154 40103 58004 82031;
0112315940999992000082121004+49420+130070FM-12+013599999V0203401N001019999999N0200001N1+01411+01351100971ADDGF106991051001999999051011MD1710071+9999REMSYN060AAXX  21211 31594 42998 63401 10141 20135 40097 57007 85051;
0208315940999992000082200004+49420+130070FM-12+013599999V0203201N001010090019N0200001N1+01841+01711101001ADDAA199000091GA1071+009009099GF107991071091008001001001KA1120N+01361MA1999999099431MD1310051+9999REMSYN082AAXX  22001 31594 32598 73201 10184 20171 39943 40100 53005 87900 333 20136 87930;EQDQ01  00002PRCP99
0112315940999992000082203004+49420+130070FM-12+013599999V0200901N001010360019N0200001N1+02181+01741100921ADDGF108991021091012501051011MD1810061+9999REMSYN060AAXX  22031 31594 42698 80901 10218 20174 40092 58006 82951;
0112315940999992000082206004+49420+130070FM-12+013599999V0200901N002019999999N0500001N1+02281+01781100811ADDGF107991071001008001011001MD1710101+9999REMSYN060AAXX  22061 31594 42599 70902 10228 20178 40081 57010 87010;
0112315940999992000082209004+49420+130070FM-12+013599999V0200501N002012200019N0200001N1+02361+01821100791ADDGF102991011021012501031001MD1310021+9999REMSYN060AAXX  22091 31594 42698 20502 10236 20182 40079 53002 81230;
0186315940999992000082212004+49420+130070FM-12+013599999V0200901N001012200019N0220001N1+02121+01901100961ADDAA199000091GF102991021041017501001001KA1999M+02511MA1999999099411MD1210161+9999REMSYN076AAXX  22121 31594 32772 20901 10212 20190 39941 40096 52016 82400 333 10251;EQDQ01  00002PRCP99
0122315940999992000082215004+49420+130070FM-12+013599999V0209999C000012200019N0190001N1+01741+01641101131ADDGA1001+999999999GF100991001001999999001001MD1210141+9999REMSYN054AAXX  22151 31594 42969 00000 10174 20164 40113 52014;
0122315940999992000082218004+49420+130070FM-12+013599999V0209999C000012200019N0180001N1+01521+01451101051ADDGA1001+999999999GF100991001001999999001001MD1410001+9999REMSYN054AAXX  22181 31594 42968 00000 10152 20145 40105 54000;
0140315940999992000082221004+49420+130070FM-12+013599999V0209999C000019999999N0020001N1+01251+01201101161ADDAY111031AY211031GF108991001001999999001011MD1410001+9999MW1101REMSYN066AAXX  22211 31594 41995 80000 10125 20120 40116 54000 71011 80001;
0214315940999992000082300004+49420+130070FM-12+013599999V0209999C000019999999N0200001N1+01381+01121101441ADDAA199000091AY141061AY221061GF108991081001999999071999KA1999N+01021MA1999999097971MD1810011+9999MW1281REMSYN082AAXX  23001 31594 32998 80000 10138 20112 39797 40144 58001 72842 8807/ 333 20102;EQDQ01  00002PRCP99
0112315940999992000082303004+49420+130070FM-12+013599999V0202001N001010360019N0200001N1+02281+01821100991ADDGF108991031021008001031011MD1410001+9999REMSYN060AAXX  23031 31594 42598 82001 10228 20182 40099 54000 83231;
0140315940999992000082306004+49420+130070FM-12+013599999V0202501N001010075019N0500001N1+02341+01841100871ADDAY181061AY221061GF108991061091008001031011MD1810111+9999MW1801REMSYN066AAXX  23061 31594 41599 82501 10234 20184 40087 58011 78082 86931;
0112315940999992000082309004+49420+130070FM-12+013599999V0201101N001010360019N0200001N1+02291+01871100811ADDGF108991041021012501031011MD1710071+9999REMSYN060AAXX  23091 31594 42698 81101 10229 20187 40081 57007 84231;
0223315940999992000082312004+49420+130070FM-12+013599999V0201401N001010084019N0070001N1+02001+01791100891ADDAA112000791AY181061AY221061GA1061+008409099GF108991061091008001071999KA1120M+02441MA1999999099331MD1310071+9999MW1801REMSYN094AAXX  23121 31594 11557 81401 10200 20179 39933 40089 53007 69902 78082 8697/ 333 10244 86928;
0166315940999992000082315004+49420+130070FM-12+013599999V0201401N003010069019N0028001N1+01921+01861100811ADDAY181031AY221031GA1081+006909099GF108991081091008001999999MD1710081+9999MW1811REMSYN076AAXX  23151 31594 41528 81403 10192 20186 40081 57008 78182 889// 333 88923;
0140315940999992000082318004+49420+130070FM-12+013599999V0200901N002010075019N0090001N1+01881+01801100681ADDAY181061AY221061GF108991081091008001999999MD1710131+9999MW1801REMSYN066AAXX  23181 31594 41559 80902 10188 20180 40068 57013 78082 889//;
0166315940999992000082321004+49420+130070FM-12+013599999V0201401N001010057019N0020001N1+01791+01711100631ADDAY181031AY221031GA1081+005709099GF108991081091004501999999MD1710061+9999MW1811REMSYN076AAXX  23211 31594 41495 81401 10179 20171 40063 57006 78182 889// 333 88919;
0223315940999992000082400004+49420+130070FM-12+013599999V0201401N001010051019N0040001N1+01801+01751100601ADDAA112029091AY181061AY221061GA1081+005109099GF108991081091004501999999KA1120N+01731MA1999999099031MD1710031+9999MW1801REMSYN094AAXX  24001 31594 11496 81401 10180 20175 39903 40060 57003 60292 78082 889// 333 20173 88917;
0166315940999992000082403004+49420+130070FM-12+013599999V0201401N003010048019N0040001N1+01871+01761100521ADDAY181031AY221031GA1081+004809099GF108991081091004501999999MD1710071+9999MW1021REMSYN076AAXX  24031 31594 41496 81403 10187 20176 40052 57007 70282 889// 333 88916;
0166315940999992000082406004+49420+130070FM-12+013599999V0201601N003010069019N0040001N1+01821+01721100461ADDAY181061AY221061GA1081+006909099GF108991081091008001999999MD1710071+9999MW1021REMSYN076AAXX  24061 31594 41596 81603 10182 20172 40046 57007 70282 889// 333 88923;
0166315940999992000082409004+49420+130070FM-12+013599999V0201401N001010072019N0200001N1+01821+01721100451ADDAY181031AY221031GA1081+007209099GF108991081091008001999999MD1710011+9999MW1021REMSYN076AAXX  24091 31594 41598 81401 10182 20172 40045 57001 70282 889// 333 88924;
0223315940999992000082412004+49420+130070FM-12+013599999V0201101N002010048019N0160001N1+01741+01601100451ADDAA112001091AY181061AY221061GA1081+004809099GF108991081091004501999999KA1120M+02001MA1999999098881MD1410001+9999MW1021REMSYN094AAXX  24121 31594 11466 81102 10174 20160 39888 40045 54000 60012 70282 889// 333 10200 88916;
0112315940999992000082415004+49420+130070FM-12+013599999V0201401N003019999999N0200001N1+01701+01591100441ADDGF108991031001999999031011MD1810011+9999REMSYN060AAXX  24151 31594 42970 81403 10170 20159 40044 58001 83031;
0138315940999992000082418004+49420+130070FM-12+013599999V0201401N001010129019N0180001N1+01641+01561100441ADDGA1051+012909059GF108991051051012501051011MD1710011+9999REMSYN070AAXX  24181 31594 42668 81401 10164 20156 40044 57001 85551 333 85643;
0223315940999992000082500004+49420+130070FM-12+013599999V0201601N003010066019N0020001N1+02721+01591100501ADDAA112000591AY181061AY221061GA1081+006609099GF108991081091004501999999KA1120N+01601MA1999999098931MD1310071+9999MW1811REMSYN094AAXX  25001 31594 11495 81603 10272 20159 39893 40050 53007 69952 78182 889// 333 20160 88922;
0166315940999992000082503004+49420+130070FM-12+013599999V0201401N003010093019N0200001N1+02001+01741100451ADDAY181031AY221031GA1071+009309059GF108991081051008001999999MD1810051+9999MW1021REMSYN076AAXX  25031 31594 41598 81403 10200 20174 40045 58005 70282 885// 333 87631;
0160315940999992000082506004+49420+130070FM-12+013599999V0203201N004010030019N0020001N1+01211+99999999999ADDAY191061AY281061GA1081+003009099GF108991081091004501999999MD1710041+9999MW1951REMSYN070AAXX  25061 31594 41495 83204 10121 27/// 57004 79598 889// 333 88910;
0166315940999992000082509004+49420+130070FM-12+013599999V0201401N001010093019N0200001N1+01861+01801100411ADDAY191031AY281031GA1081+009309099GF108991081091008001999999MD1310011+9999MW1291REMSYN076AAXX  25091 31594 41598 81401 10186 20180 40041 53001 72998 889// 333 88931;
0201315940999992000082512004+49420+130070FM-12+013599999V0201401N009010360019N0210001N1+01711+01591100451ADDAA112095091AY191061AY281061GF108991031091008001051999KA1999M+03121MA1999999098881MD1210031+9999MW1021REMSYN088AAXX  25121 31594 11571 81409 10171 20159 39888 40045 52003 60952 70298 8395/ 333 10312;
0138315940999992000082515004+49420+130070FM-12+013599999V0201401N004010069019N0200001N1+01701+01571100561ADDGA1051+006909059GF105991051051008001001001MD1210111+9999REMSYN070AAXX  25151 31594 42570 51404 10170 20157 40056 52011 85500 333 85623;
0166315940999992000082518004+49420+130070FM-12+013599999V0201401N005010042019N0220001N1+01671+01511100591ADDAY121061AY221061GA1051+004209099GF105991051091004501001031MD1210031+9999MW1131REMSYN076AAXX  25181 31594 41472 51405 10167 20151 40059 52003 71322 85903 333 85914;
0166315940999992000082521004+49420+130070FM-12+013599999V0201401N003010057019N0040001N1+01621+01511100761ADDAY181031AY221031GA1081+005709099GF108991081091004501999999MD1210161+9999MW1801REMSYN076AAXX  25211 31594 41496 81403 10162 20151 40076 52016 78082 889// 333 88919;
0223315940999992000082600004+49420+130070FM-12+013599999V0200901N001010084019N0200001N1+01681+01541101021ADDAA112001091AY181061AY221061GA1081+008409099GF108991081091008001999999KA1120N+01591MA1999999099441MD1210261+9999MW1021REMSYN094AAXX  26001 31594 11598 80901 10168 20154 39944 40102 52026 69992 70282 889// 333 20159 88928;
0140315940999992000082603004+49420+130070FM-12+013599999V0201401N002010360019N0040001N1+01751+01631101141ADDAY181031AY221031GF108991031091008001071999MD1210141+9999MW1801REMSYN066AAXX  26031 31594 41596 81402 10175 20163 40114 52014 78082 8397/;
0140315940999992000082606004+49420+130070FM-12+013599999V0201401N003010360019N0200001N1+02141+01681101141ADDAY181061AY221061GF106991031091008001071001MD1110011+9999MW1021REMSYN066AAXX  26061 31594 41598 61403 10214 20168 40114 51001 70282 83970;
0166315940999992000082609004+49420+130070FM-12+013599999V0200901N001010078019N0200001N1+02001+01861101291ADDAY181031AY221031GA1051+007809099GF107991051091008001051001MD1310141+9999MW1251REMSYN076AAXX  26091 31594 41598 70901 10200 20186 40129 53014 72582 85950 333 85926;
0223315940999992000082612004+49420+130070FM-12+013599999V0201401N001010111019N0170001N1+01871+01591101511ADDAA100000591AY181061AY221061GA1071+011109059GF107991071051012501999999KA1120M+02201MA1999999099931MD1210201+9999MW1021REMSYN094AAXX  26121 31594 11667 71401 10187 20159 39993 40151 52020 69950 70282 875// 333 10220 87637;
0138315940999992000082615004+49420+130070FM-12+013599999V0200901N001010132019N0190001N1+01721+01601101691ADDGA1061+013209059GF108991061051012501001011MD1210171+9999REMSYN070AAXX  26151 31594 42669 80901 10172 20160 40169 52017 86501 333 86644;
0112315940999992000082618004+49420+130070FM-12+013599999V0201401N001012200019N0160001N1+01591+01511101771ADDGF103991001001999999001011MD1210081+9999REMSYN060AAXX  26181 31594 42966 31401 10159 20151 40177 52008 80001;
0112315940999992000082621004+49420+130070FM-12+013599999V0200901N001012200019N0200001N1+01621+01481101831ADDGF102991021001999999031001MD1210061+9999REMSYN060AAXX  26211 31594 42998 20901 10162 20148 40183 52006 82030;
0186315940999992000082700004+49420+130070FM-12+013599999V0201101N001019999999N0200001N1+01861+01561101911ADDAA199000091GF106991061001999999031001KA1999N+01561MA1999999100331MD1210091+9999REMSYN076AAXX  27001 31594 32998 61101 10186 20156 30033 40191 52009 86030 333 20156;EQDQ01  00002PRCP99
0112315940999992000082703004+49420+130070FM-12+013599999V0201401N002012200019N0200001N1+02231+01641101831ADDGF102991021021008001001001MD1810071+9999REMSYN060AAXX  27031 31594 42598 21402 10223 20164 40183 58007 82200;
0112315940999992000082706004+49420+130070FM-12+013599999V0201401N002012200019N0500001N1+02411+01721101701ADDGF103991031021012501001001MD1710111+9999REMSYN060AAXX  27061 31594 42699 31402 10241 20172 40170 57011 83200;
0112315940999992000082709004+49420+130070FM-12+013599999V0200501N001012200019N0500001N1+02341+01771101641ADDGF103991011021008001031001MD1710061+9999REMSYN060AAXX  27091 31594 42599 30501 10234 20177 40164 57006 81230;
0196315940999992000082712004+49420+130070FM-12+013599999V0200501N001012200019N0350001N1+01801+01731101741ADDAA199000091GA1001+999999999GF100991001001999999001001KA1999M+02451MA1999999100161MD1310071+9999REMSYN070AAXX  27121 31594 32981 00501 10180 20173 30016 40174 53007 333 10245;EQDQ01  00002PRCP99
0122315940999992000082715004+49420+130070FM-12+013599999V0209999C000012200019N0140001N1+01441+01401101761ADDGA1001+999999999GF100991001001999999001001MD1410001+9999REMSYN054AAXX  27151 31594 42964 00000 10144 20140 40176 54000;
0122315940999992000082718004+49420+130070FM-12+013599999V0209999C000012200019N0100001N1+01341+01301101771ADDGA1001+999999999GF100991001001999999001001MD1410001+9999REMSYN054AAXX  27181 31594 42960 00000 10134 20130 40177 54000;
0214315940999992000082800004+49420+130070FM-12+013599999V0209999C000012200019N0100001N1+01771+01551101811ADDAA199000091AY141061AY201061GF101991011061004501001001KA1999N+01091MA1999999100231MD1210051+9999MW1021REMSYN082AAXX  28001 31594 31497 10000 10177 20155 30023 40181 52005 70240 81600 333 20109;EQDQ01  00002PRCP99
0112315940999992000082803004+49420+130070FM-12+013599999V0202701N001012200019N0200001N1+02291+01841101761ADDGF102991021011008001001001MD1710031+9999REMSYN060AAXX  28031 31594 42598 22701 10229 20184 40176 57003 82100;
0112315940999992000082806004+49420+130070FM-12+013599999V0202701N003012200019N0500001N1+02571+01671101571ADDGF103991031021012501001001MD1710171+9999REMSYN060AAXX  28061 31594 42699 32703 10257 20167 40157 57017 83200;
0112315940999992000082809004+49420+130070FM-12+013599999V0202701N001012200019N0500001N1+02331+01791101581ADDGF101991011051012501001001MD1710011+9999REMSYN060AAXX  28091 31594 42699 12701 10233 20179 40158 57001 81500;
0186315940999992000082812004+49420+130070FM-12+013599999V0209999C000012200019N0450001N1+01771+01601101581ADDAA199000091GF101991011001999999031001KA1999M+02591MA1999999100001MD1610021+9999REMSYN076AAXX  28121 31594 32983 10000 10177 20160 30000 40158 56002 81030 333 10259;EQDQ01  00002PRCP99
0122315940999992000082815004+49420+130070FM-12+013599999V0209999C000012200019N0300001N1+01431+01371101581ADDGA1001+999999999GF100991001001999999001001MD1810021+9999REMSYN054AAXX  28151 31594 42980 00000 10143 20137 40158 58002;
0122315940999992000082818004+49420+130070FM-12+013599999V0209999C000012200019N0200001N1+01521+01451101641ADDGA1001+999999999GF100991001001999999001001MD1310061+9999REMSYN054AAXX  28181 31594 42970 00000 10152 20145 40164 53006;
0112315940999992000082821004+49420+130070FM-12+013599999V0209999C000019999999N0200001N1+01511+01401101601ADDGF108991031001999999031011MD1810041+9999REMSYN060AAXX  28211 31594 42998 80000 10151 20140 40160 58004 83031;
0186315940999992000082900004+49420+130070FM-12+013599999V0200501N001010900019N0200001N1+01831+01541101581ADDAA199000091GF108991011051012501001071KA1999N+01301MA1999999100001MD1410001+9999REMSYN076AAXX  29001 31594 32698 80501 10183 20154 30000 40158 54000 81507 333 20130;EQDQ01  00002PRCP99
0112315940999992000082903004+49420+130070FM-12+013599999V0201401N007010360019N0200001N1+02371+01811101451ADDGF108991021091012501051011MD1810101+9999REMSYN060AAXX  29031 31594 42698 81407 10237 20181 40145 58010 82951;
0112315940999992000082906004+49420+130070FM-12+013599999V0201401N005010900019N0200001N1+02441+01871101221ADDGF108991031091012501001091MD1710221+9999REMSYN060AAXX  29061 31594 42698 81405 10244 20187 40122 57022 83909;
0166315940999992000082909004+49420+130070FM-12+013599999V0201401N005010069019N0200001N1+02301+01921101031ADDAY181031AY221031GA1061+006909099GF108991061091012501051999MD1710191+9999MW1021REMSYN076AAXX  29091 31594 41698 81405 10230 20192 40103 57019 70282 8695/ 333 86923;
0223315940999992000082912004+49420+130070FM-12+013599999V0201401N004010069019N0140001N1+02091+01821101111ADDAA100000391AY181061AY231061GA1081+006909099GF108991081091008001999999KA1120M+02511MA1999999099551MD1310061+9999MW1021REMSYN094AAXX  29121 31594 11564 81404 10209 20182 39955 40111 53006 69930 70283 889// 333 10251 88923;
0166315940999992000082915004+49420+130070FM-12+013599999V0201401N002010060019N0050001N1+01911+01781101001ADDAY181031AY221031GA1081+006009099GF108991081091008001999999MD1810121+9999MW1811REMSYN076AAXX  29151 31594 41550 81402 10191 20178 40100 58012 78182 889// 333 88920;
0166315940999992000082918004+49420+130070FM-12+013599999V0201401N001010054019N0050001N1+01891+01811100881ADDAY181061AY221061GA1081+005409099GF108991081091004501999999MD1710161+9999MW1811REMSYN076AAXX  29181 31594 41450 81401 10189 20181 40088 57016 78182 889// 333 88918;
0156315940999992000082921004+49420+130070FM-12+013599999V0201601N001010003019N0005001N1+01841+01811100891ADDAY181031AY241031GA1091+999999999GF109991091999999999999999MD1310051+9999MW1471REMSYN066AAXX  29211 31594 41/93 91601 10184 20181 40089 53005 74784 889//;
0201315940999992000083000004+49420+130070FM-12+013599999V0201401N002012200019N0200001N1+01911+01661100851ADDAA100003091AY181061AY241061GF103991031071004501001001KA1999N+01741MA1999999099291MD1810031+9999MW1021REMSYN088AAXX  30001 31594 11498 31402 10191 20166 39929 40085 58003 60030 70284 83700 333 20174;
0112315940999992000083003004+49420+130070FM-12+013599999V0202001N003012200019N0200001N1+02431+01841100851ADDGF102991021021008001001001MD1310021+9999REMSYN060AAXX  30031 31594 42598 22003 10243 20184 40085 53002 82200;
0112315940999992000083006004+49420+130070FM-12+013599999V0202501N005012200019N0200001N1+02691+01791100801ADDGF103991031021012501001001MD1810041+9999REMSYN060AAXX  30061 31594 42698 32505 10269 20179 40080 58004 83200;
0112315940999992000083009004+49420+130070FM-12+013599999V0202701N001012200019N0200001N1+02671+01841100821ADDGF101991011011012501001001MD1310011+9999REMSYN060AAXX  30091 31594 42698 12701 10267 20184 40082 53001 81100;
0186315940999992000083012004+49420+130070FM-12+013599999V0209999C000012200019N0210001N1+02041+01911100871ADDAA199000091GF101991011051017501001001KA1999M+02711MA1999999099311MD1210031+9999REMSYN076AAXX  30121 31594 32771 10000 10204 20191 39931 40087 52003 81500 333 10271;EQDQ01  00002PRCP99
0112315940999992000083015004+49420+130070FM-12+013599999V0201401N003012200019N0210001N1+01961+01801100971ADDGF102991021091012501001001MD1210101+9999REMSYN060AAXX  30151 31594 42671 21403 10196 20180 40097 52010 82900;
0122315940999992000083018004+49420+130070FM-12+013599999V0201401N003012200019N0200001N1+01931+01691100991ADDGA1001+999999999GF100991001001999999001001MD1210011+9999REMSYN054AAXX  30181 31594 42970 01403 10193 20169 40099 52001;
0112315940999992000083021004+49420+130070FM-12+013599999V0201401N003019999999N0100001N1+01881+01681101041ADDGF108991001001999999001071MD1210051+9999REMSYN060AAXX  30211 31594 42997 81403 10188 20168 40104 52005 80007;
0214315940999992000083100004+49420+130070FM-12+013599999V0201401N003019999999N0040001N1+02101+01841101061ADDAA199000091AY111061AY211061GF108991051001999999051071KA1999N+01831MA1999999099501MD1210031+9999MW1101REMSYN082AAXX  31001 31594 31996 81403 10210 20184 39950 40106 52003 71011 85057 333 20183;EQDQ01  00002PRCP99
0140315940999992000083103004+49420+130070FM-12+013599999V0201801N004010360019N0040001N1+02481+02121101061ADDAY121031AY221031GF108991021051012501051071MD1210031+9999MW1101REMSYN066AAXX  31031 31594 41696 81804 10248 20212 40106 52003 71022 82557;
0140315940999992000083106004+49420+130070FM-12+013599999V0202701N002010360019N0500001N1+02351+01961101021ADDAY191061AY221061GF108991031091008001071999MD1810051+9999MW1021REMSYN066AAXX  31061 31594 41599 82702 10235 20196 40102 58005 70292 8397/;
0112315940999992000083109004+49420+130070FM-12+013599999V0201401N002010360019N0100001N1+02481+02181100831ADDGF108991021091008001071001MD1710181+9999REMSYN060AAXX  31091 31594 42597 81402 10248 20218 40083 57018 82970;
0214315940999992000083112004+49420+130070FM-12+013599999V0201401N001019999999N0050001N1+02231+02111100881ADDAA199000091AY121061AY221061GF108991051001999999051011KA1999M+02521MA1999999099331MD1310031+9999MW1101REMSYN082AAXX  31121 31594 31950 81401 10223 20211 39933 40088 53003 71022 85051 333 10252;EQDQ01  00002PRCP99
0140315940999992000083115004+49420+130070FM-12+013599999V0201601N002019999999N0060001N1+02041+01951100911ADDAY121031AY221031GF107991071001999999051001MD1110021+9999MW1101REMSYN066AAXX  31151 31594 41956 71602 10204 20195 40091 51002 71022 87050;
0140315940999992000083118004+49420+130070FM-12+013599999V0209999C000019999999N0050001N1+01911+01841100921ADDAY121061AY221061GF108991081001999999071999MD1410001+9999MW1101REMSYN066AAXX  31181 31594 41950 80000 10191 20184 40092 54000 71022 8807/;
0140315940999992000083121004+49420+130070FM-12+013599999V0201101N001019999999N0020001N1+01741+01711100831ADDAY121031AY221031GF106991061001999999051001MD1810101+9999MW1101REMSYN066AAXX  31211 31594 41995 61101 10174 20171 40083 58010 71022 86050;
0186315940999992000090100004+49420+130070FM-12+013599999V0200901N001012200019N0100001N1+02141+01851100741ADDAA199000091GF102991021001999999031001KA1999N+01591MA1999999099191MD1710061+9999REMSYN076AAXX  01001 31594 32997 20901 10214 20185 39919 40074 57006 82030 333 20159;EQDQ01  00002PRCP99
0112315940999992000090103004+49420+130070FM-12+013599999V0200501N001010360019N0200001N1+02561+01971100661ADDGF105991031021012501031001MD1710061+9999REMSYN060AAXX  01031 31594 42698 50501 10256 20197 40066 57006 83230;
0112315940999992000090106004+49420+130070FM-12+013599999V0200501N002012200019N0200001N1+02761+02051100531ADDGF104991041091012501001001MD1710121+9999REMSYN060AAXX  01061 31594 42698 40502 10276 20205 40053 57012 84900;
0112315940999992000090109004+49420+130070FM-12+013599999V0201801N001012200019N0200001N1+02571+02101100511ADDGF102991011021012501031001MD1610021+9999REMSYN060AAXX  01091 31594 42698 21801 10257 20210 40051 56002 81230;
0196315940999992000090112004+49420+130070FM-12+013599999V0209999C000012200019N0120001N1+01981+01921100661ADDAA199000091GA1001+999999999GF100991001001999999001001KA1999M+02761MA1999999099101MD1310111+9999REMSYN070AAXX  01121 31594 32962 00000 10198 20192 39910 40066 53011 333 10276;EQDQ01  00002PRCP99
0122315940999992000090115004+49420+130070FM-12+013599999V0202701N001012200019N0100001N1+01621+01591100771ADDGA1001+999999999GF100991001001999999001001MD1210091+9999REMSYN054AAXX  01151 31594 42960 02701 10162 20159 40077 52009;
0134315940999992000090118004+49420+130070FM-12+013599999V0201801N001019999999N0100001N1+01421+01341100811ADDAY101061AY201061GF107991999999999999999999MD1110031+9999MW1101REMSYN060AAXX  01181 31594 41960 71801 10142 20134 40081 51003 71000;
0150315940999992000090121004+49420+130070FM-12+013599999V0209999C000012200019N0010001N1+01461+01421100981ADDAY101031AY201031GA1001+999999999GF100991001001999999001001MD1310171+9999MW1101REMSYN060AAXX  01211 31594 41994 00000 10146 20142 40098 53017 71000;
0196315940999992000090200004+49420+130070FM-12+013599999V0201801N001012200019N0100001N1+01921+01671101121ADDAA199000091GA1001+999999999GF100991001001999999001001KA1999N+01181MA1999999099551MD1210161+9999REMSYN070AAXX  02001 31594 32997 01801 10192 20167 39955 40112 52016 333 20118;EQDQ01  00002PRCP99
0122315940999992000090203004+49420+130070FM-12+013599999V0203201N003012200019N0200001N1+02571+01831101061ADDGA1001+999999999GF100991001001999999001001MD1810021+9999REMSYN054AAXX  02031 31594 42998 03203 10257 20183 40106 58002;
0112315940999992000090206004+49420+130070FM-12+013599999V0203601N003012200019N0200001N1+02891+01721101031ADDGF101991001001999999001011MD1710021+9999REMSYN060AAXX  02061 31594 42998 13603 10289 20172 40103 57002 80001;
0112315940999992000090209004+49420+130070FM-12+013599999V0203601N002012200019N0200001N1+02771+02081101071ADDGF101991001001999999001011MD1310041+9999REMSYN060AAXX  02091 31594 42998 13602 10277 20208 40107 53004 80001;
0196315940999992000090212004+49420+130070FM-12+013599999V0209999C000012200019N0240001N1+01991+01831101231ADDAA199000091GA1001+999999999GF100991001001999999001001KA1999M+02891MA1999999099671MD1210121+9999REMSYN070AAXX  02121 31594 32974 00000 10199 20183 39967 40123 52012 333 10289;EQDQ01  00002PRCP99
0122315940999992000090215004+49420+130070FM-12+013599999V0209999C000012200019N0150001N1+01591+01521101361ADDGA1001+999999999GF100991001001999999001001MD1210101+9999REMSYN054AAXX  02151 31594 42965 00000 10159 20152 40136 52010;
0122315940999992000090218004+49420+130070FM-12+013599999V0209999C000012200019N0110001N1+01361+01281101411ADDGA1001+999999999GF100991001001999999001001MD1210031+9999REMSYN054AAXX  02181 31594 42961 00000 10136 20128 40141 52003;
0166315940999992000090221004+49420+130070FM-12+013599999V0200901N001010027019N0005001N1+01561+01521101471ADDAY111031AY201031GA1081+002709069GF108991081061002501999999MD1710071+9999MW1461REMSYN076AAXX  02211 31594 41393 80901 10156 20152 40147 57007 74610 886// 333 88709;
0214315940999992000090300004+49420+130070FM-12+013599999V0201401N001012200019N0010001N1+01681+01611101471ADDAA199000091AY141061AY211061GF103991999999008001999999KA1999N+01201MA1999999099881MD1110011+9999MW1281REMSYN082AAXX  03001 31594 31594 31401 10168 20161 39988 40147 51001 72841 93600 333 20120;EQDQ01  00002PRCP99
0122315940999992000090306004+49420+130070FM-12+013599999V0201401N002012200019N0200001N1+02601+02061101371ADDGA1001+999999999GF100991001001999999001001MD1810051+9999REMSYN054AAXX  03061 31594 42998 01402 10260 20206 40137 58005;
0112315940999992000090309004+49420+130070FM-12+013599999V0201401N002019999999N0200001N1+02761+02061101021ADDGF105991001001999999001011MD1710091+9999REMSYN060AAXX  03091 31594 42998 51402 10276 20206 40102 57009 80001;
0196315940999992000090312004+49420+130070FM-12+013599999V0201401N004012200019N0220001N1+02241+01921101011ADDAA199000091GA1001+999999999GF100991001001999999001001KA1999M+02971MA1999999099461MD1710041+9999REMSYN070AAXX  03121 31594 32972 01404 10224 20192 39946 40101 57004 333 10297;EQDQ01  00002PRCP99
0143315940999992000090315004+49420+130070FM-12+013599999V0202401N003012200019N0180001N1+01981+01931100991ADDGA1001+999999999GF100991001001999999001001MA1999999099431MD1710031+9999REMSYN060AAXX  03151 31594 42968 02403 10198 20193 39943 40099 57003;
0122315940999992000090318004+49420+130070FM-12+013599999V0201401N005012200019N0170001N1+01861+01691100901ADDGA1001+999999999GF100991001001999999001001MD1710101+9999REMSYN054AAXX  03181 31594 42967 01405 10186 20169 40090 57010;
0112315940999992000090321004+49420+130070FM-12+013599999V0201401N002019999999N0100001N1+01811+01661100741ADDGF108991021001999999051011MD1710161+9999REMSYN060AAXX  03211 31594 42997 81402 10181 20166 40074 57016 82051;
0186315940999992000090400004+49420+130070FM-12+013599999V0201801N005010360019N0200001N1+02241+01791100581ADDAA199000091GF108991011051008001051071KA1999N+01741MA1999999099041MD1710131+9999REMSYN076AAXX  04001 31594 32598 81805 10224 20179 39904 40058 57013 81557 333 20174;EQDQ01  00002PRCP99
0138315940999992000090403004+49420+130070FM-12+013599999V0202701N005010090019N0200001N1+02391+01781100581ADDGA1081+009009099GF108991081091008001999999MD1410001+9999REMSYN070AAXX  04031 31594 42598 82705 10239 20178 40058 54000 889// 333 88930;
0112315940999992000090406004+49420+130070FM-12+013599999V0202701N004010075019N0200001N1+02281+01661100581ADDGF108991081091008001999999MD1410001+9999REMSYN060AAXX  04061 31594 42598 82704 10228 20166 40058 54000 889//;
0140315940999992000090409004+49420+130070FM-12+013599999V0203201N003010360019N0200001N1+01721+01481100751ADDAY181031AY221031GF108991031091008001051071MD1310141+9999MW1251REMSYN066AAXX  04091 31594 41598 83203 10172 20148 40075 53014 72582 83957;
0201315940999992000090412004+49420+130070FM-12+013599999V0202701N002010360019N0220001N1+01591+01361100861ADDAA100000391AY181061AY221061GF108991021091012501051999KA1999M+02491MA1999999099281MD1210101+9999MW1021REMSYN088AAXX  04121 31594 11672 82702 10159 20136 39928 40086 52010 69930 70282 8295/ 333 10249;
0112315940999992000090415004+49420+130070FM-12+013599999V0202701N003019999999N0230001N1+01321+01191101061ADDGF107991071001999999051999MD1210181+9999REMSYN060AAXX  04151 31594 42973 72703 10132 20119 40106 52018 8705/;
0118315940999992000090418004+49420+130070FM-12+013599999V0203201N002019999999N0230001N1+01151+01071101141ADDGF107991999999999999999999MD1210091+9999MW1051REMSYN060AAXX  04181 31594 42973 73202 10115 20107 40114 52009 705//;
0112315940999992000090421004+49420+130070FM-12+013599999V0209999C000019999999N0200001N1+00921+00861101101ADDGF108991051001999999031011MD1810061+9999REMSYN060AAXX  04211 31594 42998 80000 10092 20086 40110 58006 85031;
0202315940999992000090500004+49420+130070FM-12+013599999V0203201N003019999999N0500001N1+01071+00801101161ADDAA199000091GF105991999001999999051011KA1999N+00871MA1999999099541MD1310071+9999REMSYN076AAXX  05001 31594 32999 53203 10107 20080 39954 40116 53007 86051 333 20087;EQDQ01+000062SCOTLCQ02  00002PRCP99
0112315940999992000090503004+49420+130070FM-12+013599999V0202901N004012200019N0200001N1+01661+00801101101ADDGF102991011021008001031001MD1810021+9999REMSYN060AAXX  05031 31594 42598 22904 10166 20080 40110 58002 81230;
0112315940999992000090506004+49420+130070FM-12+013599999V0203201N004010360019N0500001N1+01851+00471101021ADDGF107991021021012501031011MD1710081+9999REMSYN060AAXX  05061 31594 42699 73204 10185 20047 40102 57008 82231;
0112315940999992000090509004+49420+130070FM-12+013599999V0203201N001012200019N0500001N1+01791+00891100991ADDGF101991011041012501001001MD1510031+9999REMSYN060AAXX  05091 31594 42699 13201 10179 20089 40099 55003 81400;
0196315940999992000090512004+49420+130070FM-12+013599999V0203201N001012200019N0300001N1+00911+00821101151ADDAA199000091GA1001+999999999GF100991001001999999001001KA1999M+01941MA1999999099521MD1210111+9999REMSYN070AAXX  05121 31594 32980 03201 10091 20082 39952 40115 52011 333 10194;EQDQ01  00002PRCP99
0122315940999992000090515004+49420+130070FM-12+013599999V0201401N003012200019N0280001N1+01011+00761101141ADDGA1001+999999999GF100991001001999999001001MD1410001+9999REMSYN054AAXX  05151 31594 42978 01403 10101 20076 40114 54000;
0122315940999992000090518004+49420+130070FM-12+013599999V0201401N002012200019N0240001N1+00811+00651101191ADDGA1001+999999999GF100991001001999999001001MD1310031+9999REMSYN054AAXX  05181 31594 42974 01402 10081 20065 40119 53003;
0112315940999992000090521004+49420+130070FM-12+013599999V0209999C000012200019N0200001N1+00631+00541101221ADDGF101991011001999999031001MD1210021+9999REMSYN060AAXX  05211 31594 42998 10000 10063 20054 40122 52002 81030;
0196315940999992000090600004+49420+130070FM-12+013599999V0201401N001012200019N0500001N1+01091+00661101211ADDAA199000091GA1001+999999999GF100991001001999999001001KA1999N+00421MA1999999099591MD1210021+9999REMSYN070AAXX  06001 31594 32999 01401 10109 20066 39959 40121 52002 333 20042;EQDQ01  00002PRCP99
0112315940999992000090603004+49420+130070FM-12+013599999V0201601N001010360019N0500001N1+01851+01141101081ADDGF105991011021012501081001MD1710091+9999REMSYN060AAXX  06031 31594 42699 51601 10185 20114 40108 57009 81280;
0112315940999992000090606004+49420+130070FM-12+013599999V0202501N001012200019N0500001N1+01851+01411100961ADDGF103991031021012501001001MD1710121+9999REMSYN060AAXX  06061 31594 42699 32501 10185 20141 40096 57012 83200;
0112315940999992000090609004+49420+130070FM-12+013599999V0201801N002012200019N0500001N1+01981+00701100881ADDGF103991031021012501001001MD1710071+9999REMSYN060AAXX  06091 31594 42699 31802 10198 20070 40088 57007 83200;
0186315940999992000090612004+49420+130070FM-12+013599999V0209999C000012200019N0350001N1+01111+01051100981ADDAA199000091GF102991021001999999031001KA1999M+02101MA1999999099371MD1310061+9999REMSYN076AAXX  06121 31594 32981 20000 10111 20105 39937 40098 53006 82030 333 10210;EQDQ01  00002PRCP99
0122315940999992000090615004+49420+130070FM-12+013599999V0201101N001012200019N0220001N1+00781+00651101031ADDGA1001+999999999GF100991001001999999001001MD1210021+9999REMSYN054AAXX  06151 31594 42972 01101 10078 20065 40103 52002;
0122315940999992000090618004+49420+130070FM-12+013599999V0200901N001012200019N0180001N1+00641+00601101111ADDGA1001+999999999GF100991001001999999001001MD1210071+9999REMSYN054AAXX  06181 31594 42968 00901 10064 20060 40111 52007;
0112315940999992000090621004+49420+130070FM-12+013599999V0200901N001012200019N0200001N1+00651+00511101161ADDGF101991011001999999031001MD1210061+9999REMSYN060AAXX  06211 31594 42998 10901 10065 20051 40116 52006 81030;
0186315940999992000090700004+49420+130070FM-12+013599999V0201401N002012200019N0200001N1+01191+00781101221ADDAA199000091GF104991041001999999031001KA1999N+00421MA1999999099611MD1210091+9999REMSYN076AAXX  07001 31594 32998 41402 10119 20078 39961 40122 52009 84030 333 20042;EQDQ01  00002PRCP99
0112315940999992000090703004+49420+130070FM-12+013599999V0201401N002012200019N0200001N1+01841+00981101191ADDGF101991011021012501001001MD1810011+9999REMSYN060AAXX  07031 31594 42698 11402 10184 20098 40119 58001 81200;
0112315940999992000090706004+49420+130070FM-12+013599999V0201801N001012200019N0500001N1+02141+00851101181ADDGF101991011021012501001001MD1310021+9999REMSYN060AAXX  07061 31594 42699 11801 10214 20085 40118 53002 81200;
0112315940999992000090709004+49420+130070FM-12+013599999V0209999C000012200019N0500001N1+02131+01211101221ADDGF102991011051012501001011MD1210041+9999REMSYN060AAXX  07091 31594 42699 20000 10213 20121 40122 52004 81501;
0186315940999992000090712004+49420+130070FM-12+013599999V0201101N003012200019N0350001N1+01591+01301101491ADDAA199000091GF101991011051008001001001KA1999M+02291MA1999999099901MD1210241+9999REMSYN076AAXX  07121 31594 32581 11103 10159 20130 39990 40149 52024 81500 333 10229;EQDQ01  00002PRCP99
0122315940999992000090718004+49420+130070FM-12+013599999V0200901N006012200019N0300001N1+01171+00861101841ADDGA1001+999999999GF100991001001999999001001MD1210181+9999REMSYN054AAXX  07181 31594 42980 00906 10117 20086 40184 52018;
0166315940999992000090721004+49420+130070FM-12+013599999V0200901N004010090019N0100001N1+01041+00941102041ADDAY181031AY211031GA1071+009009099GF107991071091008001001001MD1210181+9999MW1801REMSYN076AAXX  07211 31594 41597 70904 10104 20094 40204 52018 78081 87900 333 87930;
0201315940999992000090800004+49420+130070FM-12+013599999V0201101N002010360019N0200001N1+01151+00991102201ADDAA100000791AY181061AY221061GF108991021091008001031011KA1999N+00931MA1999999100571MD1210171+9999MW1021REMSYN088AAXX  08001 31594 11598 81102 10115 20099 30057 40220 52017 69900 70282 82931 333 20093;
0112315940999992000090803004+49420+130070FM-12+013599999V0201401N005019999999N0500001N1+01701+01061102141ADDGF107991071001999999051001MD1810031+9999REMSYN060AAXX  08031 31594 42999 71405 10170 20106 40214 58003 87050;
0131315940999992000090806004+49420+130070FM-12+013599999V0203601N007012200019N0500001N1+02051+01151102041ADDGF103991999001999999031001MD1710081+9999REMSYN060AAXX  08061 31594 42999 33607 10205 20115 40204 57008 82030;EQDQ01+000022SCOTLC
0112315940999992000090809004+49420+130070FM-12+013599999V0201401N003019999999N0500001N1+01801+01221101991ADDGF108991021001999999031011MD1710061+9999REMSYN060AAXX  08091 31594 42999 81403 10180 20122 40199 57006 82031;
0186315940999992000090812004+49420+130070FM-12+013599999V0201401N007012200019N0350001N1+01461+01021102021ADDAA199000091GF106991011051017501001011KA1999M+02081MA1999999100101MD1310011+9999REMSYN076AAXX  08121 31594 32781 61407 10146 20102 30010 40202 53001 81501 333 10208;EQDQ01  00002PRCP99
0112315940999992000090815004+49420+130070FM-12+013599999V0201401N005012200019N0260001N1+01301+00941102081ADDGF106991021091012501001011MD1210051+9999REMSYN060AAXX  08151 31594 42676 61405 10130 20094 40208 52005 82901;
0140315940999992000090818004+49420+130070FM-12+013599999V0201401N007012200019N0240001N1+01241+00931102081ADDAY181061AY221061GF108991021091008001001011MD1410001+9999MW1021REMSYN066AAXX  08181 31594 41574 81407 10124 20093 40208 54000 70282 82901;
0138315940999992000090821004+49420+130070FM-12+013599999V0200901N005010096019N0200001N1+01411+00861102011ADDGA1061+009609099GF108991061091008001001011MD1810081+9999REMSYN070AAXX  08211 31594 42598 80905 10141 20086 40201 58008 86901 333 86932;
0173315940999992000090900004+49420+130070FM-12+013599999V0201401N003019999999N0200001N1+01481+00981101971ADDAA112001091GF105991051001999999051001KA1999N+01161MA1999999100361MD1710021+9999REMSYN082AAXX  09001 31594 32998 51403 10148 20098 30036 40197 57002 60012 85050 333 20116;
0112315940999992000090903004+49420+130070FM-12+013599999V0201401N005010360019N0500001N1+01841+01141101801ADDGF107991031091008001051001MD1710141+9999REMSYN060AAXX  09031 31594 42599 71405 10184 20114 40180 57014 83950;
0131315940999992000090906004+49420+130070FM-12+013599999V0201401N005019999999N0200001N1+02001+01431101481ADDGF106991999031008001001011MD1710311+9999REMSYN060AAXX  09061 31594 42598 61405 10200 20143 40148 57031 87301;EQDQ01+000072SCOTLC
0166315940999992000090909004+49420+130070FM-12+013599999V0200501N005010093019N0200001N1+01461+01281101621ADDAY191031AY281031GA1051+009309099GF107991051091008001071011MD1310111+9999MW1171REMSYN076AAXX  09091 31594 41598 70505 10146 20128 40162 53011 71798 85971 333 85931;
0201315940999992000090912004+49420+130070FM-12+013599999V0200901N001012200019N0200001N1+01421+01341101601ADDAA112003091AY191061AY281061GF105991021091008001001011KA1999M+02151MA1999999100001MD1810021+9999MW1021REMSYN088AAXX  09121 31594 11570 50901 10142 20134 30000 40160 58002 60032 70298 82901 333 10215;
0166315940999992000090915004+49420+130070FM-12+013599999V0200701N002010072019N0050001N1+01311+01251101441ADDAY191031AY281031GA1081+007209099GF108991081091008001999999MD1710171+9999MW1951REMSYN076AAXX  09151 31594 41550 80702 10131 20125 40144 57017 79598 889// 333 88924;
0166315940999992000090918004+49420+130070FM-12+013599999V0201401N003010066019N0048001N1+01291+01231101441ADDAY191061AY281061GA1081+006609099GF108991081091008001999999MD1610011+9999MW1801REMSYN076AAXX  09181 31594 41548 81403 10129 20123 40144 56001 78098 889// 333 88922;
0140315940999992000090921004+49420+130070FM-12+013599999V0200901N003012200019N0200001N1+01221+01121101291ADDAY181031AY221031GF108991021051008001001011MD1710141+9999MW1021REMSYN066AAXX  09211 31594 41598 80903 10122 20112 40129 57014 70282 82501;
0223315940999992000091000004+49420+130070FM-12+013599999V0200701N001010081019N0200001N1+01301+01171101271ADDAA112007991AY181061AY221061GA1061+008109099GF108991061091008001051999KA1120N+01151MA1999999099671MD1610011+9999MW1021REMSYN094AAXX  10001 31594 11598 80701 10130 20117 39967 40127 56001 60082 70282 8695/ 333 20115 86927;
0166315940999992000091003004+49420+130070FM-12+013599999V0202701N003010066019N0020001N1+01321+01241101241ADDAY181031AY221031GA1081+006609099GF108991081091008001999999MD1810061+9999MW1811REMSYN076AAXX  10031 31594 41595 82703 10132 20124 40124 58006 78182 889// 333 88922;
0140315940999992000091006004+49420+130070FM-12+013599999V0202601N001012200019N0200001N1+01531+01071101101ADDAY191061AY281061GF104991031091012501031011MD1710131+9999MW1021REMSYN066AAXX  10061 31594 41698 42601 10153 20107 40110 57013 70298 83931;
0112315940999992000091009004+49420+130070FM-12+013599999V0200901N001012200019N0200001N1+01421+01201101131ADDGF106991041091008001001011MD1310091+9999REMSYN060AAXX  10091 31594 42598 60901 10142 20120 40113 53009 84901;
0173315940999992000091012004+49420+130070FM-12+013599999V0209999C000010360019N0170001N1+01021+00881101381ADDAA112014091GF107991021091008001051011KA1999M+01571MA1999999099751MD1210211+9999REMSYN082AAXX  10121 31594 12567 70000 10102 20088 39975 40138 52021 60142 82951 333 10157;
0112315940999992000091015004+49420+130070FM-12+013599999V0202301N001019999999N0500001N1+00881+00801101341ADDGF106991031001999999051011MD1810041+9999REMSYN060AAXX  10151 31594 42999 62301 10088 20080 40134 58004 83051;
0150315940999992000091018004+49420+130070FM-12+013599999V0209999C000012200019N0020001N1+00601+00581101381ADDAY111061AY211061GA1001+999999999GF100991001001999999001001MD1210021+9999MW1101REMSYN060AAXX  10181 31594 41920 00000 10060 20058 40138 52002 71011;
0140315940999992000091021004+49420+130070FM-12+013599999V0203601N002010012019N0010001N1+00701+00651101501ADDAY111031AY211031GF108991081061001501999999MD1210121+9999MW1101REMSYN066AAXX  10211 31594 41294 83602 10070 20065 40150 52012 71011 886//;
0236315940999992000091100004+49420+130070FM-12+013599999V0203601N001010012019N0010001N1+00851+00811101661ADDAA199000091AY111061AY211061GA1081+001209069GF108991081061001501999999KA1120N+00451MA1999999099951MD1210141+9999MW1101REMSYN088AAXX  11001 31594 31294 83601 10085 20081 39995 40166 52014 71011 886// 333 20045 88704;EQDQ01  00002PRCP99
0138315940999992000091103004+49420+130070FM-12+013599999V0203201N001010060019N0200001N1+01141+00971101661ADDGA1071+006009059GF107991071051008001999999MD1210051+9999REMSYN070AAXX  11031 31594 42598 73201 10114 20097 40166 52005 875// 333 87620;
0112315940999992000091106004+49420+130070FM-12+013599999V0203201N001010075019N0500001N1+01491+01101101621ADDGF105991051091008001001001MD1810021+9999REMSYN060AAXX  11061 31594 42599 53201 10149 20110 40162 58002 85900;
0112315940999992000091109004+49420+130070FM-12+013599999V0202701N003012200019N0500001N1+01671+01071101591ADDGF101991011041012501001001MD1710021+9999REMSYN060AAXX  11091 31594 42699 12703 10167 20107 40159 57002 81400;
0186315940999992000091112004+49420+130070FM-12+013599999V0209999C000012200019N0200001N1+01101+01041101731ADDAA199000091GF101991011001999999041001KA1999M+01721MA1999999100101MD1310101+9999REMSYN076AAXX  11121 31594 32970 10000 10110 20104 30010 40173 53010 81040 333 10172;EQDQ01  00002PRCP99
0112315940999992000091115004+49420+130070FM-12+013599999V0201401N001012200019N0220001N1+00981+00941101791ADDGF101991011001999999041001MD1210061+9999REMSYN060AAXX  11151 31594 42972 11401 10098 20094 40179 52006 81040;
0150315940999992000091118004+49420+130070FM-12+013599999V0201401N001012200019N0016001N1+00831+00811101791ADDAY101061AY201061GA1001+999999999GF100991001001999999001001MD1810011+9999MW1101REMSYN060AAXX  11181 31594 41916 01401 10083 20081 40179 58001 71000;
0150315940999992000091121004+49420+130070FM-12+013599999V0201101N001012200019N0005001N1+00781+00761101831ADDAY141031AY201031GA1001+999999999GF100991001001999999001001MD1310031+9999MW1441REMSYN060AAXX  11211 31594 41993 01101 10078 20076 40183 53003 74440;
0224315940999992000091200004+49420+130070FM-12+013599999V0201401N001012200019N0005001N1+00901+00861101871ADDAA199000091AY141061AY201061GA1001+999999999GF100991001001999999001001KA1999N+00731MA1999999100231MD1210051+9999MW1441REMSYN076AAXX  12001 31594 31993 01401 10090 20086 30023 40187 52005 74440 333 20073;EQDQ01  00002PRCP99
0150315940999992000091203004+49420+130070FM-12+013599999V0201401N002012200019N0200001N1+01501+01301101841ADDAY141031AY201031GA1001+999999999GF100991001001999999001001MD1110011+9999MW1021REMSYN060AAXX  12031 31594 41998 01402 10150 20130 40184 51001 70240;
0140315940999992000091206004+49420+130070FM-12+013599999V0202001N002012200019N0500001N1+02181+01351101581ADDAY141061AY201061GF103991031011999999001001MD1810221+9999MW1021REMSYN066AAXX  12061 31594 41999 32002 10218 20135 40158 58022 70240 83100;
0122315940999992000091209004+49420+130070FM-12+013599999V0201801N001012200019N0500001N1+02121+01441101581ADDGA1001+999999999GF100991001001999999001001MD1610011+9999REMSYN054AAXX  12091 31594 42999 01801 10212 20144 40158 56001;
0202315940999992000091212004+49420+130070FM-12+013599999V0201401N003012200019N0500001N1+01631+01321101651ADDAA199000091GF102991999001999999041001KA1999M+02241MA1999999100061MD1310051+9999REMSYN076AAXX  12121 31594 32999 21403 10163 20132 30006 40165 53005 81040 333 10224;EQDQ01+000012SCOTLCQ02  00002PRCP99
0106315940999992000091215004+49420+130070FM-12+013599999V0200901N001012200019N0260001N1+01211+01141101751ADDGF102991999999999999999999MD1210081+9999REMSYN054AAXX  12151 31594 42976 20901 10121 20114 40175 52008;
0122315940999992000091218004+49420+130070FM-12+013599999V0201401N003012200019N0220001N1+01181+01001101781ADDGA1001+999999999GF100991001001999999001001MD1210021+9999REMSYN054AAXX  12181 31594 42972 01403 10118 20100 40178 52002;
0112315940999992000091221004+49420+130070FM-12+013599999V0201401N003012200019N0200001N1+01091+00901101801ADDGF102991021001999999031001MD1210011+9999REMSYN060AAXX  12211 31594 42998 21403 10109 20090 40180 52001 82030;
0186315940999992000091300004+49420+130070FM-12+013599999V0201401N003012200019N0200001N1+01571+01121101841ADDAA199000091GF102991021001999999031001KA1999N+01041MA1999999100241MD1210071+9999REMSYN076AAXX  13001 31594 32998 21403 10157 20112 30024 40184 52007 82030 333 20104;EQDQ01  00002PRCP99
0112315940999992000091303004+49420+130070FM-12+013599999V0201601N003012200019N0200001N1+02141+01501101691ADDGF102991021001999999031001MD1810121+9999REMSYN060AAXX  13031 31594 42998 21603 10214 20150 40169 58012 82030;
0112315940999992000091306004+49420+130070FM-12+013599999V0202701N003012200019N0200001N1+02581+01671101571ADDGF103991021021012501031001MD1710091+9999REMSYN060AAXX  13061 31594 42698 32703 10258 20167 40157 57009 82230;
0112315940999992000091309004+49420+130070FM-12+013599999V0202701N001010360019N0200001N1+02081+01691101581ADDGF106991031091008001051011MD1610021+9999REMSYN060AAXX  13091 31594 42598 62701 10208 20169 40158 56002 83951;
0186315940999992000091312004+49420+130070FM-12+013599999V0202301N001012200019N0220001N1+01651+01401101601ADDAA199000091GF102991021041012501001001KA1999M+02591MA1999999100011MD1410001+9999REMSYN076AAXX  13121 31594 32672 22301 10165 20140 30001 40160 54000 82400 333 10259;EQDQ01  00002PRCP99
0122315940999992000091315004+49420+130070FM-12+013599999V0201801N002012200019N0240001N1+01391+01211101651ADDGA1001+999999999GF100991001001999999001001MD1310031+9999REMSYN054AAXX  13151 31594 42974 01802 10139 20121 40165 53003;
0122315940999992000091318004+49420+130070FM-12+013599999V0201401N001012200019N0200001N1+01131+01021101791ADDGA1001+999999999GF100991001001999999001001MD1210131+9999REMSYN054AAXX  13181 31594 42970 01401 10113 20102 40179 52013;
0150315940999992000091321004+49420+130070FM-12+013599999V0209999C000010003019N0002001N1+00721+00721101821ADDAY141031AY201031GA1091+999999999GF109991091999999999999999MD1410001+9999MW1471REMSYN060AAXX  13211 31594 41/92 90000 10072 20072 40182 54000 74740;
0224315940999992000091400004+49420+130070FM-12+013599999V0209999C000012200019N0002001N1+01171+00821101891ADDAA199000091AY141061AY201061GA1001+999999999GF100991001001999999001001KA1999N+00651MA1999999100251MD1310081+9999MW1441REMSYN076AAXX  14001 31594 31992 00000 10117 20082 30025 40189 53008 74440 333 20065;EQDQ01  00002PRCP99
0150315940999992000091403004+49420+130070FM-12+013599999V0202701N001012200019N0500001N1+02021+01151101741ADDAY141031AY201031GA1001+999999999GF100991001001999999001001MD1810081+9999MW1021REMSYN060AAXX  14031 31594 41999 02701 10202 20115 40174 58008 70240;
0159315940999992000091406004+49420+130070FM-12+013599999V0200301N999992200019N0500001N1+02201+00591101621ADDAY141061AY201061GF101991011011012501001001MD1710121+9999MW1021REMSYN066AAXX  14061 31594 41699 15301 10220 20059 40162 57012 70240 81100;EQDQ01+010101WOSPD 
0122315940999992000091409004+49420+130070FM-12+013599999V0209999C000012200019N0500001N1+02061+01071101561ADDGA1001+999999999GF100991001001999999001001MD1710061+9999REMSYN054AAXX  14091 31594 42999 00000 10206 20107 40156 57006;
0196315940999992000091412004+49420+130070FM-12+013599999V0209999C000012200019N0300001N1+01041+00921101691ADDAA199000091GA1001+999999999GF100991001001999999001001KA1999M+02201MA1999999100061MD1310071+9999REMSYN070AAXX  14121 31594 32980 00000 10104 20092 30006 40169 53007 333 10220;EQDQ01  00002PRCP99
0122315940999992000091415004+49420+130070FM-12+013599999V0209999C000012200019N0270001N1+00701+00611101701ADDGA1001+999999999GF100991001001999999001001MD1810011+9999REMSYN054AAXX  14151 31594 42977 00000 10070 20061 40170 58001;
0122315940999992000091418004+49420+130070FM-12+013599999V0201401N001012200019N0200001N1+00611+00561101681ADDGA1001+999999999GF100991001001999999001001MD1710031+9999REMSYN054AAXX  14181 31594 42698 01401 10061 20056 40168 57003;
0122315940999992000091421004+49420+130070FM-12+013599999V0200901N001012200019N0200001N1+00561+00511101651ADDGA1001+999999999GF100991001001999999001001MD1710031+9999REMSYN054AAXX  14211 31594 42998 00901 10056 20051 40165 57003;
0186315940999992000091500004+49420+130070FM-12+013599999V0200901N001012200019N0200001N1+01421+00931101561ADDAA199000091GF103991021001999999031011KA1999N+00471MA1999999099951MD1710041+9999REMSYN076AAXX  15001 31594 32998 30901 10142 20093 39995 40156 57004 82031 333 20047;EQDQ01  00002PRCP99
0106315940999992000091503004+49420+130070FM-12+013599999V0201401N001012200019N0200001N1+02051+99999101421ADDGF101991001001999999001011MD1710101+9999REMSYN054AAXX  15031 31594 42998 11401 10205 40142 57010 80001;
0112315940999992000091506004+49420+130070FM-12+013599999V0201801N001012200019N0200001N1+02421+01681101191ADDGF102991011021012501001011MD1710201+9999REMSYN060AAXX  15061 31594 42698 21801 10242 20168 40119 57020 81201;
0112315940999992000091509004+49420+130070FM-12+013599999V0201401N002010360019N0200001N1+02211+01791101151ADDGF108991011051012501031041MD1710071+9999REMSYN060AAXX  15091 31594 42698 81402 10221 20179 40115 57007 81534;
0186315940999992000091512004+49420+130070FM-12+013599999V0201401N002019999999N0220001N1+01791+01481101061ADDAA199000091GF106991061001999999031001KA1999M+02441MA1999999099481MD1710101+9999REMSYN076AAXX  15121 31594 32972 61402 10179 20148 39948 40106 57010 86030 333 10244;EQDQ01  00002PRCP99
0112315940999992000091515004+49420+130070FM-12+013599999V0201401N003019999999N0500001N1+01671+01371100981ADDGF107991071001999999051001MD1710081+9999REMSYN060AAXX  15151 31594 42999 71403 10167 20137 40098 57008 87050;
0112315940999992000091521004+49420+130070FM-12+013599999V0201101N001019999999N0200001N1+01441+01271100831ADDGF108991051001999999031011MD1710081+9999REMSYN060AAXX  15211 31594 42998 81101 10144 20127 40083 57008 85031;
0186315940999992000091600004+49420+130070FM-12+013599999V0201401N001012200019N0200001N1+01481+01331100811ADDAA199000091GF108991031091012501001011KA1999N+01231MA1999999099221MD1610021+9999REMSYN076AAXX  16001 31594 32698 81401 10148 20133 39922 40081 56002 83901 333 20123;EQDQ01  00002PRCP99
0166315940999992000091603004+49420+130070FM-12+013599999V0202701N002010093019N0040001N1+01781+01541100711ADDAY181031AY221031GA1061+009309099GF108991061091008001001011MD1810081+9999MW1801REMSYN076AAXX  16031 31594 41596 82702 10178 20154 40071 58008 78082 86901 333 86931;
0140315940999992000091606004+49420+130070FM-12+013599999V0200201N003010360019N0200001N1+01971+01481100521ADDAY181061AY221061GF108991021051012501031011MD1710181+9999MW1021REMSYN066AAXX  16061 31594 41698 80203 10197 20148 40052 57018 70282 82531;
0112315940999992000091609004+49420+130070FM-12+013599999V0203201N005019999999N0200001N1+01571+01321100501ADDGF108991051001999999051011MD1610041+9999REMSYN060AAXX  16091 31594 42998 83205 10157 20132 40050 56004 85051;
0173315940999992000091612004+49420+130070FM-12+013599999V0203601N001019999999N0240001N1+01421+01341100581ADDAA100001091GF107991071001999999051999KA1999M+01981MA1999999098981MD1310061+9999REMSYN082AAXX  16121 31594 32974 73601 10142 20134 39898 40058 53006 60010 8705/ 333 10198;
0122315940999992000091615004+49420+130070FM-12+013599999V0203601N005010042019N0210001N1+01181+01031100591ADDGF108991051091004501051999MD1410001+9999REMSYN070AAXX  16151 31594 42471 83605 10118 20103 40059 54000 8595/ 333 95917;
0138315940999992000091618004+49420+130070FM-12+013599999V0203601N007010054019N0210001N1+01021+00941100541ADDGA1081+005409099GF108991081091004501999999MD1810051+9999REMSYN070AAXX  16181 31594 42471 83607 10102 20094 40054 58005 889// 333 88918;
0112315940999992000091621004+49420+130070FM-12+013599999V0203201N003010360019N0200001N1+00801+00761100511ADDGF108991011051012501031011MD1710051+9999REMSYN060AAXX  16211 31594 42698 83203 10080 20076 40051 57005 81531;
0186315940999992000091700004+49420+130070FM-12+013599999V0203401N006010360019N0200001N1+00971+00651100491ADDAA199000091GF108991021051012501051011KA1999N+00721MA1999999098871MD1710011+9999REMSYN076AAXX  17001 31594 32698 83406 10097 20065 39887 40049 57001 82551 333 20072;EQDQ01  00002PRCP99
0112315940999992000091709004+49420+130070FM-12+013599999V0203601N005019999999N0200001N1+01461+00951100291ADDGF108991021001999999041011MD1310151+9999REMSYN060AAXX  17091 31594 42998 83605 10146 20095 40029 53015 82041;
0186315940999992000091712004+49420+130070FM-12+013599999V0203201N004019999999N0230001N1+01271+00921100401ADDAA199000091GF108991001001999999001011KA1999M+01611MA1999999098711MD1410001+9999REMSYN076AAXX  17121 31594 32973 83204 10127 20092 39871 40040 54000 80001 333 10161;EQDQ01  00002PRCP99
0112315940999992000091715004+49420+130070FM-12+013599999V0203601N005019999999N0200001N1+01041+00771100311ADDGF108991051001999999031011MD1410001+9999REMSYN060AAXX  17151 31594 42970 83605 10104 20077 40031 54000 85031;
0112315940999992000091718004+49420+130070FM-12+013599999V0203401N004019999999N0180001N1+00881+00681100331ADDGF108991041001999999031011MD1310011+9999REMSYN060AAXX  17181 31594 42968 83404 10088 20068 40033 53001 84031;
0112315940999992000091721004+49420+130070FM-12+013599999V0203201N004019999999N0200001N1+00621+00541100541ADDGF106991061001999999031001MD1210181+9999REMSYN060AAXX  17211 31594 42998 63204 10062 20054 40054 52018 86030;
0186315940999992000091800004+49420+130070FM-12+013599999V0203401N003019999999N0200001N1+00721+00511100651ADDAA199000091GF106991031001999999031011KA1999N+00561MA1999999099011MD1210111+9999REMSYN076AAXX  18001 31594 32998 63403 10072 20051 39901 40065 52011 83031 333 20056;EQDQ01  00002PRCP99
0112315940999992000091803004+49420+130070FM-12+013599999V0203401N005019999999N0200001N1+01521+00821100641ADDGF107991001001999999001011MD1110041+9999REMSYN060AAXX  18031 31594 42998 73405 10152 20082 40064 51004 80001;
0112315940999992000091806004+49420+130070FM-12+013599999V0203601N005010360019N0500001N1+01761+01001100661ADDGF108991021011008001031011MD1310041+9999REMSYN060AAXX  18061 31594 42599 83605 10176 20100 40066 53004 82131;
0112315940999992000091809004+49420+130070FM-12+013599999V0209999C000010360019N0500001N1+01731+01301100751ADDGF107991011041012501031011MD1210081+9999REMSYN060AAXX  18091 31594 42699 70000 10173 20130 40075 52008 81431;
0186315940999992000091812004+49420+130070FM-12+013599999V0200901N001019999999N0350001N1+01161+01091101021ADDAA199000091GF107991051001999999051011KA1999M+01801MA1999999099411MD1210241+9999REMSYN076AAXX  18121 31594 32981 70901 10116 20109 39941 40102 52024 85051 333 10180;EQDQ01  00002PRCP99
0112315940999992000091815004+49420+130070FM-12+013599999V0209999C000019999999N0180001N1+00841+00821101151ADDGF108991001001999999001071MD1210111+9999REMSYN060AAXX  18151 31594 42968 80000 10084 20082 40115 52011 80007;
0112315940999992000091818004+49420+130070FM-12+013599999V0200901N001019999999N0160001N1+00941+00811101261ADDGF106991001001999999001011MD1210121+9999REMSYN060AAXX  18181 31594 42966 60901 10094 20081 40126 52012 80001;
0112315940999992000091821004+49420+130070FM-12+013599999V0200901N001012200019N0200001N1+00781+00651101431ADDGF102991011001999999031011MD1210141+9999REMSYN060AAXX  18211 31594 42998 20901 10078 20065 40143 52014 81031;
0112315940999992000091903004+49420+130070FM-12+013599999V0201401N004012200019N0200001N1+01791+00931101431ADDGF102991021021012501001001MD1410001+9999REMSYN060AAXX  19031 31594 42698 21404 10179 20093 40143 54000 82200;
0186315940999992000091906004+49420+130070FM-12+013599999V0200901N001012200019N0200001N1+01161+00921101461ADDAA199000091GF103991031001999999031001KA1999N+00421MA1999999099841MD1210061+9999REMSYN076AAXX  19061 31594 32998 30901 10116 20092 39984 40146 52006 83030 333 20042;EQDQ01  00002PRCP99
0112315940999992000091909004+49420+130070FM-12+013599999V0201401N005012200019N0500001N1+01811+01201101311ADDGF101991001001999999001011MD1410001+9999REMSYN060AAXX  19091 31594 42999 11405 10181 20120 40131 54000 80001;
0196315940999992000091912004+49420+130070FM-12+013599999V0201401N001012200019N0500001N1+01481+01301101431ADDAA199000091GA1001+999999999GF100991001001999999001001KA1999M+02021MA1999999099821MD1210091+9999REMSYN070AAXX  19121 31594 32999 01401 10148 20130 39982 40143 52009 333 10202;EQDQ01  00002PRCP99
0112315940999992000091915004+49420+130070FM-12+013599999V0201601N006010360019N0270001N1+01381+01121101521ADDGF108991031051017501051999MD1210091+9999REMSYN060AAXX  19151 31594 42777 81606 10138 20112 40152 52009 8355/;
0140315940999992000091918004+49420+130070FM-12+013599999V0201601N005010075019N0070001N1+01251+01191101491ADDAY181061AY211061GF108991081091008001999999MD1810041+9999MW1801REMSYN066AAXX  19181 31594 41557 81605 10125 20119 40149 58004 78081 889//;
0140315940999992000091921004+49420+130070FM-12+013599999V0201401N004010120019N0200001N1+01311+01181101381ADDAY181031AY221031GF108991061051012501051999MD1610101+9999MW1021REMSYN066AAXX  19211 31594 41698 81404 10131 20118 40138 56010 70282 8655/;
0223315940999992000092000004+49420+130070FM-12+013599999V0201601N003010078019N0100001N1+01281+01211101461ADDAA100007991AY191061AY281061GA1081+007809099GF108991081091008001999999KA1120N+01161MA1999999099841MD1210071+9999MW1291REMSYN094AAXX  20001 31594 11597 81603 10128 20121 39984 40146 52007 60080 72998 889// 333 20116 88926;
0112315940999992000092003004+49420+130070FM-12+013599999V0202701N007012200019N0200001N1+01701+00511101481ADDGF101991011011012501001001MD1210051+9999REMSYN060AAXX  20031 31594 42698 12707 10170 20051 40148 52005 81100;
0122315940999992000092006004+49420+130070FM-12+013599999V0202701N009012200019N0500001N1+01931-00271101551ADDGF101991011011008001001001MD1210081+9999REMSYN070AAXX  20061 31594 42599 12709 10193 21027 40155 52008 81100 333 91114;
0132315940999992000092009004+49420+130070FM-12+013599999V0202701N007012200019N0500001N1+01771+00021101751ADDGA1001+999999999GF100991001001999999001001MD1210191+9999REMSYN064AAXX  20091 31594 42999 02707 10177 20002 40175 52019 333 91115;
0196315940999992000092012004+49420+130070FM-12+013599999V0209999C000012200019N0450001N1+00921+00381102021ADDAA199000091GA1001+999999999GF100991001001999999001001KA1999M+01931MA1999999100471MD1210211+9999REMSYN070AAXX  20121 31594 32983 00000 10092 20038 30047 40202 52021 333 10193;EQDQ01  00002PRCP99
0122315940999992000092015004+49420+130070FM-12+013599999V0209999C000012200019N0500001N1+00681+00131102351ADDGA1001+999999999GF100991001001999999001001MD1210201+9999REMSYN054AAXX  20151 31594 42984 00000 10068 20013 40235 52020;
0122315940999992000092018004+49420+130070FM-12+013599999V0209999C000012200019N0500001N1+00181+00081102371ADDGA1001+999999999GF100991001001999999001001MD1210121+9999REMSYN054AAXX  20181 31594 42984 00000 10018 20008 40237 52012;
0112315940999992000092021004+49420+130070FM-12+013599999V0201601N001012200019N0200001N1+00411+00151102461ADDGF101991001001999999001011MD1210081+9999REMSYN060AAXX  20211 31594 42998 11601 10041 20015 40246 52008 80001;
0196315940999992000092100004+49420+130070FM-12+013599999V0201401N003012200019N0200001N1+00981+00291102441ADDAA199000091GA1001+999999999GF100991001001999999001001KA1999N-00031MA1999999100791MD1210021+9999REMSYN070AAXX  21001 31594 32998 01403 10098 20029 30079 40244 52002 333 21003;EQDQ01  00002PRCP99
0122315940999992000092103004+49420+130070FM-12+013599999V0202301N003012200019N0200001N1+01841+00341102261ADDGA1001+999999999GF100991001001999999001001MD1810121+9999REMSYN054AAXX  21031 31594 42998 02303 10184 20034 40226 58012;
0122315940999992000092106004+49420+130070FM-12+013599999V0203201N001012200019N0500001N1+02241+00461102051ADDGA1001+999999999GF100991001001999999001001MD1710191+9999REMSYN054AAXX  21061 31594 42999 03201 10224 20046 40205 57019;
0122315940999992000092109004+49420+130070FM-12+013599999V0200901N001012200019N0500001N1+02081+00671101981ADDGA1001+999999999GF100991001001999999001001MD1710081+9999REMSYN054AAXX  21091 31594 42999 00901 10208 20067 40198 57008;
0196315940999992000092112004+49420+130070FM-12+013599999V0200901N001012200019N0290001N1+01671+00711102001ADDAA199000091GA1001+999999999GF100991001001999999001001KA1999M+02261MA1999999100401MD1410001+9999REMSYN070AAXX  21121 31594 32979 00901 10167 20071 30040 40200 54000 333 10226;EQDQ01  00002PRCP99
0112315940999992000092115004+49420+130070FM-12+013599999V0209999C000012200019N0026001N1+00781+00621102071ADDGF102991001001999999001011MD1210021+9999REMSYN060AAXX  21151 31594 42926 20000 10078 20062 40207 52002 80001;
0122315940999992000092118004+49420+130070FM-12+013599999V0209999C000012200019N0300001N1+00541+00491102061ADDGA1001+999999999GF100991001001999999001001MD1810031+9999REMSYN054AAXX  21181 31594 42980 00000 10054 20049 40206 58003;
0106315940999992000092121004+49420+130070FM-12+013599999V0200501N001019999999N0200001N1+00811+00591101971ADDGF105991999999999999999999MD1710071+9999REMSYN054AAXX  21211 31594 42998 50501 10081 20059 40197 57007;
0112315940999992000092203004+49420+130070FM-12+013599999V0201101N003012200019N0200001N1+02011+00991101731ADDGF102991001001999999001011MD1810121+9999REMSYN060AAXX  22031 31594 42998 21103 10201 20099 40173 58012 80001;
0112315940999992000092206004+49420+130070FM-12+013599999V0201401N004019999999N0500001N1+02241+00681101521ADDGF108991001001999999001011MD1710191+9999REMSYN060AAXX  22061 31594 42999 81404 10224 20068 40152 57019 80001;
0112315940999992000092209004+49420+130070FM-12+013599999V0201501N001019999999N0500001N1+01941+00771101461ADDGF106991021001999999031011MD1610081+9999REMSYN060AAXX  22091 31594 42999 61501 10194 20077 40146 56008 82031;
0186315940999992000092212004+49420+130070FM-12+013599999V0201401N003012200019N0400001N1+01731+00651101521ADDAA199000091GF103991001001999999001011KA1999M+02291MA1999999099931MD1310051+9999REMSYN076AAXX  22121 31594 32982 31403 10173 20065 39993 40152 53005 80001 333 10229;EQDQ01  00002PRCP99
0122315940999992000092215004+49420+130070FM-12+013599999V0201401N004012200019N0350001N1+01541+00711101521ADDGA1001+999999999GF100991001001999999001001MD1810011+9999REMSYN054AAXX  22151 31594 42981 01404 10154 20071 40152 58001;
0112315940999992000092218004+49420+130070FM-12+013599999V0201401N004012200019N0280001N1+01501+00801101481ADDGF102991001001999999001011MD1710041+9999REMSYN060AAXX  22181 31594 42978 21404 10150 20080 40148 57004 80001;
0112315940999992000092221004+49420+130070FM-12+013599999V0200901N003012200019N0200001N1+01411+00841101441ADDGF103991001001999999001011MD1710051+9999REMSYN060AAXX  22211 31594 42998 30903 10141 20084 40144 57005 80001;
0186315940999992000092300004+49420+130070FM-12+013599999V0200901N002019999999N0200001N1+01511+00931101511ADDAA199000091GF108991001001999999001011KA1999N+01291MA1999999099811MD1310081+9999REMSYN076AAXX  23001 31594 32998 80902 10151 20093 39981 40151 53008 80001 333 20129;EQDQ01  00002PRCP99
0112315940999992000092303004+49420+130070FM-12+013599999V0201401N003019999999N0200001N1+02181+01171101421ADDGF108991001001999999001011MD1810061+9999REMSYN060AAXX  23031 31594 42998 81403 10218 20117 40142 58006 80001;
0112315940999992000092306004+49420+130070FM-12+013599999V0201101N003019999999N0200001N1+02351+01341101221ADDGF108991001001999999001011MD1710181+9999REMSYN060AAXX  23061 31594 42998 81103 10235 20134 40122 57018 80001;
0131315940999992000092309004+49420+130070FM-12+013599999V0201101N008010120019N0200001N1+02201+00981101191ADDGF108991999091012501051011MD1710041+9999REMSYN060AAXX  23091 31594 42698 81108 10220 20098 40119 57004 88951;EQDQ01+000082SCOTLC
0186315940999992000092312004+49420+130070FM-12+013599999V0201401N005010360019N0500001N1+01951+01151101221ADDAA199000091GF108991021091008001031011KA1999M+02421MA1999999099651MD1310021+9999REMSYN076AAXX  23121 31594 32599 81405 10195 20115 39965 40122 53002 82931 333 10242;EQDQ01  00002PRCP99
0112315940999992000092315004+49420+130070FM-12+013599999V0201401N005019999999N0200001N1+01911+01191101181ADDGF108991061001999999051011MD1810041+9999REMSYN060AAXX  23151 31594 42970 81405 10191 20119 40118 58004 86051;
0112315940999992000092318004+49420+130070FM-12+013599999V0201401N002019999999N0210001N1+01801+01221101161ADDGF107991071001999999051999MD1710031+9999REMSYN060AAXX  23181 31594 42971 71402 10180 20122 40116 57003 8705/;
0112315940999992000092321004+49420+130070FM-12+013599999V02099999999990360019N0200001N1+01701+01211101101ADDGF108991021091012501031011MD1710061+9999REMSYN060AAXX  23211 31594 42698 89002 10170 20121 40110 57006 82931;
0186315940999992000092400004+49420+130070FM-12+013599999V0201401N005010900019N0200001N1+01791+01211101151ADDAA199000091GF108991021091012501001021KA1999N+01621MA1999999099571MD1210051+9999REMSYN076AAXX  24001 31594 32698 81405 10179 20121 39957 40115 52005 82902 333 20162;EQDQ01  00002PRCP99
0138315940999992000092403004+49420+130070FM-12+013599999V0201801N008010090019N0100001N1+01891+01271101151ADDGA1081+009009099GF108991081091008001999999MD1410001+9999REMSYN070AAXX  24031 31594 42597 81808 10189 20127 40115 54000 889// 333 88930;
0112315940999992000092406004+49420+130070FM-12+013599999V0202701N003010075019N0100001N1+01511+00841101171ADDGF108991081091008001999999MD1310011+9999REMSYN060AAXX  24061 31594 42597 82703 10151 20084 40117 53001 889//;
0166315940999992000092409004+49420+130070FM-12+013599999V0202701N001010114019N0100001N1+01401+00801101241ADDAY181031AY221031GA1081+011409099GF108991081091012501999999MD1210061+9999MW1801REMSYN076AAXX  24091 31594 41697 82701 10140 20080 40124 52006 78082 889// 333 88938;
0201315940999992000092412004+49420+130070FM-12+013599999V0200901N002010360019N0210001N1+01161+00971101371ADDAA112003091AY181061AY221061GF108991031091012501051999KA1999M+02701MA1999999099751MD1210111+9999MW1021REMSYN088AAXX  24121 31594 11671 80902 10116 20097 39975 40137 52011 60032 70282 8395/ 333 10270;
0138315940999992000092415004+49420+130070FM-12+013599999V0200801N001010075019N0180001N1+01111+01031101441ADDGA1061+007509059GF106991061051008001001001MD1210081+9999REMSYN070AAXX  24151 31594 42568 60801 10111 20103 40144 52008 86500 333 86625;
0112315940999992000092418004+49420+130070FM-12+013599999V0200901N003019999999N0500001N1+01081+00981101451ADDGF106991061001012501071001MD1410001+9999REMSYN060AAXX  24181 31594 42699 60903 10108 20098 40145 54000 86070;
0140315940999992000092421004+49420+130070FM-12+013599999V0209999C000012200019N0040001N1+00831+00801101451ADDAY121031AY221031GF108991021051012501001011MD1810021+9999MW1101REMSYN066AAXX  24211 31594 41696 80000 10083 20080 40145 58002 71022 82501;
0186315940999992000092500004+49420+130070FM-12+013599999V0200901N001012200019N0200001N1+01081+00921101541ADDAA199000091GF106991011071008001001011KA1999N+00501MA1999999099911MD1310111+9999REMSYN076AAXX  25001 31594 32598 60901 10108 20092 39991 40154 53011 81701 333 20050;EQDQ01  00002PRCP99
0112315940999992000092503004+49420+130070FM-12+013599999V0201401N002012200019N0200001N1+01681+00771101401ADDGF102991001001999999001011MD1810101+9999REMSYN060AAXX  25031 31594 42998 21402 10168 20077 40140 58010 80001;
0122315940999992000092506004+49420+130070FM-12+013599999V0201401N002012200019N0200001N1+01991+00551101211ADDGA1001+999999999GF100991001001999999001001MD1710171+9999REMSYN054AAXX  25061 31594 42998 01402 10199 20055 40121 57017;
0112315940999992000092509004+49420+130070FM-12+013599999V0201101N001012200019N0200001N1+01861+00861101231ADDGF101991011051012501001001MD1610011+9999REMSYN060AAXX  25091 31594 42698 11101 10186 20086 40123 56001 81500;
0196315940999992000092512004+49420+130070FM-12+013599999V0209999C000012200019N0190001N1+00831+00701101431ADDAA199000091GA1001+999999999GF100991001001999999001001KA1999M+02021MA1999999099781MD1210131+9999REMSYN070AAXX  25121 31594 32969 00000 10083 20070 39978 40143 52013 333 10202;EQDQ01  00002PRCP99
0122315940999992000092515004+49420+130070FM-12+013599999V0200501N001012200019N0180001N1+00691+00651101521ADDGA1001+999999999GF100991001001999999001001MD1210091+9999REMSYN054AAXX  25151 31594 42968 00501 10069 20065 40152 52009;
0122315940999992000092518004+49420+130070FM-12+013599999V0209999C000012200019N0180001N1+00521+00501101661ADDGA1001+999999999GF100991001001999999001001MD1210131+9999REMSYN054AAXX  25181 31594 42968 00000 10052 20050 40166 52013;
0122315940999992000092521004+49420+130070FM-12+013599999V0209999C000012200019N0200001N1+00261+00211101911ADDGA1001+999999999GF100991001001999999001001MD1210231+9999REMSYN054AAXX  25211 31594 42998 00000 10026 20021 40191 52023;
0196315940999992000092600004+49420+130070FM-12+013599999V0203201N003012200019N0500001N1+00761+00481101981ADDAA199000091GA1001+999999999GF100991001001999999001001KA1999N+00151MA1999999100331MD1110101+9999REMSYN070AAXX  26001 31594 32999 03203 10076 20048 30033 40198 51010 333 20015;EQDQ01  00002PRCP99
0122315940999992000092603004+49420+130070FM-12+013599999V0203201N005012200019N0500001N1+01501+00451101981ADDGA1001+999999999GF100991001001999999001001MD1210041+9999REMSYN054AAXX  26031 31594 42999 03205 10150 20045 40198 52004;
0112315940999992000092606004+49420+130070FM-12+013599999V0203201N005012200019N0500001N1+01741+00341101881ADDGF103991001001999999001011MD1810091+9999REMSYN060AAXX  26061 31594 42999 33205 10174 20034 40188 58009 80001;
0122315940999992000092609004+49420+130070FM-12+013599999V0209999C000012200019N0500001N1+01501+00531101891ADDGA1001+999999999GF100991001001999999001001MD1410001+9999REMSYN054AAXX  26091 31594 42999 00000 10150 20053 40189 54000;
0196315940999992000092612004+49420+130070FM-12+013599999V0203201N001012200019N0300001N1+00641+00481102081ADDAA199000091GA1001+999999999GF100991001001999999001001KA1999M+01761MA1999999100421MD1210141+9999REMSYN070AAXX  26121 31594 32980 03201 10064 20048 30042 40208 52014 333 10176;EQDQ01  00002PRCP99
0106315940999992000092615004+49420+130070FM-12+013599999V0209999C000012200019N0250001N1+00291+00211102121ADDGF102991999999999999999999MD1110021+9999REMSYN054AAXX  26151 31594 42975 20000 10029 20021 40212 51002;
0122315940999992000092618004+49420+130070FM-12+013599999V0209999C000012200019N0170001N1+00211+00131102151ADDGA1001+999999999GF100991001001999999001001MD1210021+9999REMSYN054AAXX  26181 31594 42667 00000 10021 20013 40215 52002;
0122315940999992000092621004+49420+130070FM-12+013599999V0209999C000012200019N0200001N1-00041-00041102211ADDGA1001+999999999GF100991001001999999001001MD1210081+9999REMSYN054AAXX  26211 31594 42998 00000 11004 21004 40221 52008;
0212315940999992000092700004+49420+130070FM-12+013599999V0200901N003012200019N0200001N1+00741+00341102181ADDAA199000091GA1001+999999999GF100991001001999999001001KA1999M+99999MA1999999100521MD1810011+9999REMSYN070AAXX  27001 31594 32998 00903 10074 20034 30052 40218 58001 333 1001/;EQDQ01  00002PRCP99Q02 +00102ATMX  
0112315940999992000092703004+49420+130070FM-12+013599999V0201101N003012200019N0200001N1+01591+00581102001ADDGF101991001001999999001011MD1710121+9999REMSYN060AAXX  27031 31594 42998 11103 10159 20058 40200 57012 80001;
0122315940999992000092706004+49420+130070FM-12+013599999V0201401N003012200019N0500001N1+02171+00461101641ADDGA1001+999999999GF100991001001999999001001MD1710331+9999REMSYN054AAXX  27061 31594 42999 01403 10217 20046 40164 57033;
0112315940999992000092709004+49420+130070FM-12+013599999V0201401N001012200019N0200001N1+01951+00611101571ADDGF101991001001999999001011MD1710081+9999REMSYN060AAXX  27091 31594 42998 11401 10195 20061 40157 57008 80001;
0196315940999992000092712004+49420+130070FM-12+013599999V0201101N003012200019N0230001N1+01681+00341101571ADDAA199000091GA1001+999999999GF100991001001999999001001KA1999M+02191MA1999999099981MD1810011+9999REMSYN070AAXX  27121 31594 32973 01103 10168 20034 39998 40157 58001 333 10219;EQDQ01  00002PRCP99
0122315940999992000092715004+49420+130070FM-12+013599999V0201101N003012200019N0200001N1+01421+00411101581ADDGA1001+999999999GF100991001001999999001001MD1610011+9999REMSYN054AAXX  27151 31594 42970 01103 10142 20041 40158 56001;
0122315940999992000092718004+49420+130070FM-12+013599999V0201401N003012200019N0210001N1+01081+00531101581ADDGA1001+999999999GF100991001001999999001001MD1810031+9999REMSYN054AAXX  27181 31594 42971 01403 10108 20053 40158 58003;
0122315940999992000092721004+49420+130070FM-12+013599999V0201401N003012200019N0200001N1+01011+00501101591ADDGA1001+999999999GF100991001001999999001001MD1310011+9999REMSYN054AAXX  27211 31594 42998 01403 10101 20050 40159 53001;
0196315940999992000092800004+49420+130070FM-12+013599999V0201401N001012200019N0200001N1+01221+00701101631ADDAA199000091GA1001+999999999GF100991001001999999001001KA1999N+00921MA1999999100011MD1210051+9999REMSYN070AAXX  28001 31594 32998 01401 10122 20070 30001 40163 52005 333 20092;EQDQ01  00002PRCP99
0122315940999992000092803004+49420+130070FM-12+013599999V0203201N005012200019N0200001N1+01841+00761101621ADDGA1001+999999999GF100991001001999999001001MD1210031+9999REMSYN054AAXX  28031 31594 42998 03205 10184 20076 40162 52003;
0122315940999992000092806004+49420+130070FM-12+013599999V0202901N008012200019N0200001N1+01851+00361101581ADDGA1001+999999999GF100991001001999999001001MD1810051+9999REMSYN054AAXX  28061 31594 42998 02908 10185 20036 40158 58005;
0122315940999992000092809004+49420+130070FM-12+013599999V0203401N006012200019N0200001N1+01591+00501101681ADDGA1001+999999999GF100991001001999999001001MD1310091+9999REMSYN054AAXX  28091 31594 42998 03406 10159 20050 40168 53009;
0196315940999992000092812004+49420+130070FM-12+013599999V0209999C000012200019N0230001N1+00641+00221101911ADDAA199000091GA1001+999999999GF100991001001999999001001KA1999M+01911MA1999999100251MD1210171+9999REMSYN070AAXX  28121 31594 32973 00000 10064 20022 30025 40191 52017 333 10191;EQDQ01  00002PRCP99
0122315940999992000092815004+49420+130070FM-12+013599999V0209999C000012200019N0190001N1+00071+00011102031ADDGA1001+999999999GF100991001001999999001001MD1210071+9999REMSYN054AAXX  28151 31594 42969 00000 10007 20001 40203 52007;
0112315940999992000092818004+49420+130070FM-12+013599999V0203201N001019999999N0170001N1+00061-00051102051ADDGF106991001001999999001011MD1210021+9999REMSYN060AAXX  28181 31594 42967 63201 10006 21005 40205 52002 80001;
0112315940999992000092821004+49420+130070FM-12+013599999V0203601N001019999999N0200001N1-00031-00181102091ADDGF108991001001999999001011MD1210031+9999REMSYN060AAXX  28211 31594 42998 83601 11003 21018 40209 52003 80001;
0186315940999992000092900004+49420+130070FM-12+013599999V0203601N001012200019N0200001N1+00181+00021102201ADDAA199000091GF103991001001999999001011KA1999N-00261MA1999999100511MD1210131+9999REMSYN076AAXX  29001 31594 32998 33601 10018 20002 30051 40220 52013 80001 333 21026;EQDQ01  00002PRCP99
0131315940999992000092903004+49420+130070FM-12+013599999V0202701N003012200019N0200001N1+01352-00021102021ADDGF102991001001999999001011MD1810111+9999REMSYN060AAXX  29031 31594 42998 22703 10135 21002 40202 58011 80001;EQDQ01+001353ATOT  
0112315940999992000092906004+49420+130070FM-12+013599999V0202701N003012200019N0200001N1+01561-00091101871ADDGF102991001001999999001011MD1710141+9999REMSYN060AAXX  29061 31594 42998 22703 10156 21009 40187 57014 80001;
0112315940999992000092909004+49420+130070FM-12+013599999V0202701N002019999999N0200001N1+01191+00341101851ADDGF108991001001999999001011MD1610031+9999REMSYN060AAXX  29091 31594 42998 82702 10119 20034 40185 56003 80001;
0186315940999992000092912004+49420+130070FM-12+013599999V0209999C000019999999N0120001N1+00571+00361101891ADDAA199000091GF108991001001999999001011KA1999M+01581MA1999999100231MD1410001+9999REMSYN076AAXX  29121 31594 32962 80000 10057 20036 30023 40189 54000 80001 333 10158;EQDQ01  00002PRCP99
0112315940999992000092915004+49420+130070FM-12+013599999V0209999C000019999999N0120001N1+00341+00131101931ADDGF108991081001999999011999MD1210021+9999REMSYN060AAXX  29151 31594 42962 80000 10034 20013 40193 52002 8801/;
0122315940999992000092918004+49420+130070FM-12+013599999V0200901N002012200019N0160001N1+00851+00251101901ADDGA1001+999999999GF100991001001999999001001MD1410001+9999REMSYN054AAXX  29181 31594 42966 00902 10085 20025 40190 54000;
0112315940999992000092921004+49420+130070FM-12+013599999V0200901N003019999999N0140001N1+00821+00381101871ADDGF108991001001999999001011MD1710031+9999REMSYN060AAXX  29211 31594 42964 80903 10082 20038 40187 57003 80001;
0186315940999992000093000004+49420+130070FM-12+013599999V0200901N002019999999N0200001N1+00981+00501101901ADDAA199000091GF107991071001999999051999KA1999N+00191MA1999999100261MD1210041+9999REMSYN076AAXX  30001 31594 32998 70902 10098 20050 30026 40190 52004 8705/ 333 20019;EQDQ01  00002PRCP99
0112315940999992000093003004+49420+130070FM-12+013599999V0201401N004019999999N0200001N1+01441+00451101871ADDGF108991051001999999031011MD1810011+9999REMSYN060AAXX  30031 31594 42998 81404 10144 20045 40187 58001 85031;
0112315940999992000093006004+49420+130070FM-12+013599999V0200901N001010360019N0200001N1+01501+00481101741ADDGF108991021091012501031011MD1710111+9999REMSYN060AAXX  30061 31594 42698 80901 10150 20048 40174 57011 82931;
0112315940999992000093009004+49420+130070FM-12+013599999V0201401N001010360019N0200001N1+01281+00581101721ADDGF108991021091012501051999MD1610041+9999REMSYN060AAXX  30091 31594 42698 81401 10128 20058 40172 56004 8295/;
0223315940999992000093012004+49420+130070FM-12+013599999V0201601N001010090019N0070001N1+01051+00781101891ADDAA112000791AY181061AY221061GA1081+009009099GF108991081091008001999999KA1120M+01521MA1999999100251MD1210151+9999MW1801REMSYN094AAXX  30121 31594 11557 81601 10105 20078 30025 40189 52015 69902 78082 889// 333 10152 88930;
0166315940999992000093015004+49420+130070FM-12+013599999V0201401N002010075019N0042001N1+00981+00761101971ADDAY181031AY221031GA1081+007509099GF108991081091008001999999MD1210081+9999MW1811REMSYN076AAXX  30151 31594 41542 81402 10098 20076 40197 52008 78182 889// 333 88925;
0140315940999992000093018004+49420+130070FM-12+013599999V0200901N003010360019N0160001N1+00901+00711101951ADDAY181061AY221061GF108991021051008001071999MD1610031+9999MW1011REMSYN066AAXX  30181 31594 41566 80903 10090 20071 40195 56003 70182 8257/;
0112315940999992000093021004+49420+130070FM-12+013599999V0200901N002010360019N0190001N1+00881+00681101951ADDGF107991031091008001051001MD1410001+9999REMSYN060AAXX  30211 31594 42569 70902 10088 20068 40195 54000 83950;
0173315940999992000100100004+49420+130070FM-12+013599999V0200901N003010360019N0200001N1+00971+00651101961ADDAA100003091GF108991021091012501051011KA1999N+00811MA1999999100321MD1310021+9999REMSYN082AAXX  01001 31594 12698 80903 10097 20065 30032 40196 53002 60030 82951 333 20081;
0112315940999992000100103004+49420+130070FM-12+013599999V0200901N001010360019N0200001N1+01241+00741101921ADDGF108991021051008001031011MD1810021+9999REMSYN060AAXX  01031 31594 42598 80901 10124 20074 40192 58002 82531;
0112315940999992000100106004+49420+130070FM-12+013599999V0200501N001012200019N0500001N1+01521+00501101721ADDGF108991021091012501001011MD1710181+9999REMSYN060AAXX  01061 31594 42699 80501 10152 20050 40172 57018 82901;
0112315940999992000100109004+49420+130070FM-12+013599999V0200901N001012200019N0500001N1+01441+00481101681ADDGF106991011051012501001011MD1710051+9999REMSYN060AAXX  01091 31594 42699 60901 10144 20048 40168 57005 81501;
0196315940999992000100112004+49420+130070FM-12+013599999V0200901N003012200019N0500001N1+01191+00501101681ADDAA199000091GA1001+999999999GF100991001001999999001001KA1999M+01581MA1999999100061MD1810011+9999REMSYN070AAXX  01121 31594 32999 00903 10119 20050 30006 40168 58001 333 10158;EQDQ01  00002PRCP99
0122315940999992000100115004+49420+130070FM-12+013599999V0200901N004012200019N0250001N1+00981+00451101711ADDGA1001+999999999GF100991001001999999001001MD1310021+9999REMSYN054AAXX  01151 31594 42975 00904 10098 20045 40171 53002;
0122315940999992000100118004+49420+130070FM-12+013599999V0200901N004012200019N0220001N1+00901+00431101661ADDGA1001+999999999GF100991001001999999001001MD1810061+9999REMSYN054AAXX  01181 31594 42972 00904 10090 20043 40166 58006;
0112315940999992000100121004+49420+130070FM-12+013599999V0200901N003012200019N0200001N1+00771+00381101721ADDGF102991021001999999031001MD1310051+9999REMSYN060AAXX  01211 31594 42970 20903 10077 20038 40172 53005 82030;
0186315940999992000100200004+49420+130070FM-12+013599999V0200901N003019999999N0200001N1+00951+00411101771ADDAA199000091GF106991001001999999001011KA1999N+00661MA1999999100131MD1210061+9999REMSYN076AAXX  02001 31594 32998 60903 10095 20041 30013 40177 52006 80001 333 20066;EQDQ01  00002PRCP99
0112315940999992000100203004+49420+130070FM-12+013599999V0200901N003012200019N0500001N1+01441+00561101661ADDGF105991021021008001001011MD1810251+9999REMSYN060AAXX  02031 31594 42599 50903 10144 20056 40166 58025 82201;
0112315940999992000100206004+49420+130070FM-12+013599999V0200901N001012200019N0500001N1+01601+00191101731ADDGF108991021021012501001011MD1710221+9999REMSYN060AAXX  02061 31594 42699 80901 10160 20019 40173 57022 82201;
0112315940999992000100209004+49420+130070FM-12+013599999V0200501N001012200019N0200001N1+01431+00271101391ADDGF108991021091012501001011MD1710051+9999REMSYN060AAXX  02091 31594 42698 80501 10143 20027 40139 57005 82901;
0186315940999992000100212004+49420+130070FM-12+013599999V0200901N002012200019N0230001N1+01141+00271101461ADDAA199000091GF105991011041012501001011KA1999M+01631MA1999999099831MD1310051+9999REMSYN076AAXX  02121 31594 32673 50902 10114 20027 39983 40146 53005 81401 333 10163;EQDQ01  00002PRCP99
0112315940999992000100215004+49420+130070FM-12+013599999V0200201N003019999999N0170001N1+01001+00171101411ADDGF108991001001999999001071MD1810051+9999REMSYN060AAXX  02151 31594 42967 80203 10100 20017 40141 58005 80007;
0112315940999992000100218004+49420+130070FM-12+013599999V0200501N005012200019N0180001N1+00911+00041101361ADDGF103991001001999999001011MD1710051+9999REMSYN060AAXX  02181 31594 42968 30505 10091 20004 40136 57005 80001;
0138315940999992000100221004+49420+130070FM-12+013599999V0200501N003010090019N0190001N1+00881+00091101361ADDGA1051+009009099GF108991051091012501051999MD1410001+9999REMSYN070AAXX  02211 31594 42669 80503 10088 20009 40136 54000 8595/ 333 85930;
0223315940999992000100300004+49420+130070FM-12+013599999V0200501N002010090019N0040001N1+00601+00391101471ADDAA112002091AY181061AY211061GA1081+009009099GF108991081091008001999999KA1120N+00541MA1999999099811MD1310081+9999MW1811REMSYN094AAXX  03001 31594 11596 80502 10060 20039 39981 40147 53008 60022 78181 889// 333 20054 88930;
0166315940999992000100303004+49420+130070FM-12+013599999V0200501N002010081019N0100001N1+00701+00461101491ADDAY181031AY221031GA1081+008109099GF108991081091008001999999MD1110041+9999MW1801REMSYN076AAXX  03031 31594 41597 80502 10070 20046 40149 51004 78082 889// 333 88927;
0185315940999992000100306004+49420+130070FM-12+013599999V0200801N001010060019N0100001N1+00851+00681101461ADDAY181061AY261061GA1081+006009069GF108991999071008001021999MD1810021+9999MW1611REMSYN076AAXX  03061 31594 41597 80801 10085 20068 40146 58002 76186 8872/ 333 88720;EQDQ01+000082SCOTLC
0185315940999992000100309004+49420+130070FM-12+013599999V0200901N001010075019N0100001N1+00821+00641101531ADDAY161031AY221031GA1081+007509029GF108991999051008001021999MD1310061+9999MW1611REMSYN076AAXX  03091 31594 41597 80901 10082 20064 40153 53006 76162 8852/ 333 88525;EQDQ01+000082SCOTLC
0223315940999992000100312004+49420+130070FM-12+013599999V0209999C000010078019N0110001N1+00731+00621101521ADDAA100005191AY161061AY221061GA1071+007809059GF107991071051008001999999KA1120M+00851MA1999999099871MD1810011+9999MW1021REMSYN094AAXX  03121 31594 11561 70000 10073 20062 39987 40152 58001 60050 70262 875// 333 10085 87626;
0138315940999992000100315004+49420+130070FM-12+013599999V0209999C000010069019N0110001N1+00551+00481101621ADDGA1071+006909059GF107991071051008001999999MD1210091+9999REMSYN070AAXX  03151 31594 42561 70000 10055 20048 40162 52009 875// 333 87623;
0112315940999992000100318004+49420+130070FM-12+013599999V0209999C000019999999N0120001N1+00511+00041101621ADDGF108991081001999999011999MD1410001+9999REMSYN060AAXX  03181 31594 42962 80000 10051 20004 40162 54000 8801/;
0112315940999992000100321004+49420+130070FM-12+013599999V0200501N001019999999N0120001N1+00551+00481101641ADDGF108991081001999999011999MD1210021+9999REMSYN060AAXX  03211 31594 42962 80501 10055 20048 40164 52002 8801/;
0186315940999992000100400004+49420+130070FM-12+013599999V0200501N001019999999N0100001N1+00651+00511101731ADDAA199000091GF108991081001999999071999KA1999N+00401MA1999999100081MD1210101+9999REMSYN076AAXX  04001 31594 32997 80501 10065 20051 30008 40173 52010 8807/ 333 20040;EQDQ01  00002PRCP99
0112315940999992000100403004+49420+130070FM-12+013599999V0200501N001010360019N0200001N1+01021+00591101681ADDGF108991011011008001031011MD1810031+9999REMSYN060AAXX  04031 31594 42598 80501 10102 20059 40168 58003 81131;
0138315940999992000100406004+49420+130070FM-12+013599999V0203401N002010081019N0200001N1+01201+00561101591ADDGA1061+008109029GF108991061051008001021999MD1710081+9999REMSYN070AAXX  04061 31594 42598 83402 10120 20056 40159 57008 8652/ 333 86827;
0138315940999992000100409004+49420+130070FM-12+013599999V0202901N001010093019N0200001N1+01041+00591101621ADDGA1071+009309059GF107991071051008001001001MD1310021+9999REMSYN070AAXX  04091 31594 42598 72901 10104 20059 40162 53002 87500 333 87631;
0186315940999992000100412004+49420+130070FM-12+013599999V0209999C000019999999N0180001N1+00831+00561101771ADDAA199000091GF108991081001999999011999KA1999M+01211MA1999999100121MD1210131+9999REMSYN076AAXX  04121 31594 32968 80000 10083 20056 30012 40177 52013 8801/ 333 10121;EQDQ01  00002PRCP99
0112315940999992000100415004+49420+130070FM-12+013599999V0201401N002019999999N0190001N1+00721+00551101861ADDGF108991081001999999011999MD1210091+9999REMSYN060AAXX  04151 31594 42969 81402 10072 20055 40186 52009 8801/;
0122315940999992000100418004+49420+130070FM-12+013599999V0201601N001012200019N0150001N1+00541+00451101921ADDGA1001+999999999GF100991001001999999001001MD1210041+9999REMSYN054AAXX  04181 31594 42965 01601 10054 20045 40192 52004;
0112315940999992000100421004+49420+130070FM-12+013599999V0201401N001019999999N0110001N1+00521+00401102031ADDGF108991021001999999051011MD1210111+9999REMSYN060AAXX  04211 31594 42961 81401 10052 20040 40203 52011 82051;
0186315940999992000100500004+49420+130070FM-12+013599999V0201101N002019999999N0200001N1+00601+00491102051ADDAA199000091GF108991061001999999071011KA1999N+00461MA1999999100391MD1210031+9999REMSYN076AAXX  05001 31594 32998 81102 10060 20049 30039 40205 52003 86071 333 20046;EQDQ01  00002PRCP99
0112315940999992000100503004+49420+130070FM-12+013599999V0200901N001019999999N0200001N1+00971+00581102061ADDGF108991001001999999001071MD1210031+9999REMSYN060AAXX  05031 31594 42998 80901 10097 20058 40206 52003 80007;
0112315940999992000100506004+49420+130070FM-12+013599999V0203201N001012200019N0200001N1+01371+00361101951ADDGF108991011021008001001011MD1810091+9999REMSYN060AAXX  05061 31594 42598 83201 10137 20036 40195 58009 81201;
0112315940999992000100509004+49420+130070FM-12+013599999V0209999C000012200019N0100001N1+01221+00531101991ADDGF102991001001999999001011MD1310031+9999REMSYN060AAXX  05091 31594 42997 20000 10122 20053 40199 53003 80001;
0196315940999992000100512004+49420+130070FM-12+013599999V0203201N001012200019N0220001N1+00451+00251102151ADDAA199000091GA1001+999999999GF100991001001999999001001KA1999M+01501MA1999999100471MD1210111+9999REMSYN070AAXX  05121 31594 32972 03201 10045 20025 30047 40215 52011 333 10150;EQDQ01  00002PRCP99
0122315940999992000100515004+49420+130070FM-12+013599999V0209999C000012200019N0200001N1+00071+00041102231ADDGA1001+999999999GF100991001001999999001001MD1210061+9999REMSYN054AAXX  05151 31594 42970 00000 10007 20004 40223 52006;
0122315940999992000100518004+49420+130070FM-12+013599999V0200901N001012200019N0210001N1+00291-00011102301ADDGA1001+999999999GF100991001001999999001001MD1210091+9999REMSYN054AAXX  05181 31594 42971 00901 10029 21001 40230 52009;
0122315940999992000100521004+49420+130070FM-12+013599999V0209999C000012200019N0180001N1-00241-00301102461ADDGA1001+999999999GF100991001001999999001001MD1210121+9999REMSYN054AAXX  05211 31594 42968 00000 11024 21030 40246 52012;
0174315940999992000100600004+49420+130070FM-12+013599999V0200901N001012200019N0040001N1+00401+00141999999ADDAA199000091GA1001+999999999GF100991001001999999001001MA1999999100831REMSYN075AAXX  06001 31594 31996 00901 10040 20014 30083 0252 52009 71000 333 21032;EQDQ01  00002PRCP99
0150315940999992000100603004+49420+130070FM-12+013599999V0209999C000010003019N0005001N1+01071+00341102501ADDAY101031AY201031GA1091+999999999GF109991091999999999999999MD1210021+9999MW1051REMSYN060AAXX  06031 31594 41/93 90000 10107 20034 40250 52002 70500;
0150315940999992000100606004+49420+130070FM-12+013599999V0209999C000012200019N0040001N1+01671+00061102301ADDAY101061AY201061GA1001+999999999GF100991001001999999001001MD1710151+9999MW1041REMSYN060AAXX  06061 31594 41996 00000 10167 20006 40230 57015 70400;
0140315940999992000100609004+49420+130070FM-12+013599999V0209999C000019999999N0040001N1+01161+00291102301ADDAY111031AY211031GF108991001001999999001011MD1710041+9999MW1041REMSYN066AAXX  06091 31594 41996 80000 10116 20029 40230 57004 70411 80001;
0214315940999992000100612004+49420+130070FM-12+013599999V0201401N001019999999N0070001N1+00581+00341102321ADDAA199000091AY111061AY211061GF108991001001999999001011KA1999M+01691MA1999999100661MD1410001+9999MW1101REMSYN082AAXX  06121 31594 31957 81401 10058 20034 30066 40232 54000 71011 80001 333 10169;EQDQ01  00002PRCP99
0140315940999992000100615004+49420+130070FM-12+013599999V0209999C000012200019N0090001N1+00341+00081102311ADDAY111031AY211031GF102991001001999999001011MD1810021+9999MW1101REMSYN066AAXX  06151 31594 41959 20000 10034 20008 40231 58002 71011 80001;
0122315940999992000100618004+49420+130070FM-12+013599999V0200901N002012200019N0120001N1+00731+00171102281ADDGA1001+999999999GF100991001001999999001001MD1410001+9999REMSYN054AAXX  06181 31594 42962 00902 10073 20017 40228 54000;
0112315940999992000100621004+49420+130070FM-12+013599999V0200901N003019999999N0140001N1+00591+00141102221ADDGF105991001001999999001011MD1810071+9999REMSYN060AAXX  06211 31594 42964 50903 10059 20014 40222 58007 80001;
0186315940999992000100700004+49420+130070FM-12+013599999V0200901N003019999999N0100001N1+00841+00211102091ADDAA199000091GF108991001001999999001011KA1999N+00201MA1999999100441MD1710121+9999REMSYN076AAXX  07001 31594 32997 80903 10084 20021 30044 40209 57012 80001 333 20020;EQDQ01  00002PRCP99
0112315940999992000100703004+49420+130070FM-12+013599999V0201201N005010900019N0200001N1+01381+00211101811ADDGF108991011011008001001091MD1710241+9999REMSYN060AAXX  07031 31594 42598 81205 10138 20021 40181 57024 81109;
0122315940999992000100706004+49420+130070FM-12+013599999V0201401N006010360019N0200001N1+01291+00211101521ADDGF108991011021008001071999MD1710301+9999REMSYN070AAXX  07061 31594 42598 81406 10129 20021 40152 57030 8127/ 333 91111;
0172315940999992000100709004+49420+130070FM-12+013599999V0201201N007010081019N0040001N1+00941+00291101521ADDAY181031AY221031GA1081+008109099GF108991081091008001999999MD1610021+9999MW1811REMSYN082AAXX  07091 31594 41596 81207 10094 20029 40152 56002 78182 889// 333 88927 91111;
0229315940999992000100712004+49420+130070FM-12+013599999V0201401N003010099019N0050001N1+00791+00431101361ADDAA112003091AY181061AY221061GA1081+009909099GF108991081091012501999999KA1120M+01441MA1999999099721MD1710161+9999MW1811REMSYN100AAXX  07121 31594 11650 81403 10079 20043 39972 40136 57016 60032 78182 889// 333 10144 88933 91110;
0166315940999992000100715004+49420+130070FM-12+013599999V0200901N002010090019N0140001N1+00751+00481101111ADDAY181031AY221031GA1081+009009099GF108991081091008001999999MD1710251+9999MW1021REMSYN076AAXX  07151 31594 41564 80902 10075 20048 40111 57025 70282 889// 333 88930;
0166315940999992000100718004+49420+130070FM-12+013599999V0201201N002010060019N0050001N1+00711+00581100991ADDAY181061AY221061GA1081+006009099GF108991081091008001999999MD1710121+9999MW1811REMSYN076AAXX  07181 31594 41550 81202 10071 20058 40099 57012 78182 889// 333 88920;
0166315940999992000100721004+49420+130070FM-12+013599999V0201401N002010054019N0070001N1+00711+00641100901ADDAY181031AY221031GA1081+005409099GF108991081091004501999999MD1710091+9999MW1801REMSYN076AAXX  07211 31594 41457 81402 10071 20064 40090 57009 78082 889// 333 88918;
0223315940999992000100800004+49420+130070FM-12+013599999V0201001N002010087019N0020001N1+00721+00651100871ADDAA112007991AY181061AY221061GA1081+008709099GF108991081091008001999999KA1120N+00691MA1999999099231MD1510031+9999MW1801REMSYN094AAXX  08001 31594 11595 81002 10072 20065 39923 40087 55003 60082 78082 889// 333 20069 88929;
0166315940999992000100803004+49420+130070FM-12+013599999V0202201N003010057019N0100001N1+00811+00701100811ADDAY181031AY221031GA1081+005709099GF108991081091004501999999MD1810051+9999MW1251REMSYN076AAXX  08031 31594 41497 82203 10081 20070 40081 58005 72582 889// 333 88919;
0166315940999992000100806004+49420+130070FM-12+013599999V0202201N005010087019N0200001N1+00881+00341100821ADDAY181061AY221061GA1081+008709099GF108991081091008001999999MD1310021+9999MW1021REMSYN076AAXX  08061 31594 41598 82205 10088 20034 40082 53002 70282 889// 333 88929;
0166315940999992000100809004+49420+130070FM-12+013599999V0201401N002010093019N0200001N1+00751+00501100821ADDAY181031AY221031GA1061+009309099GF107991061091008001051001MD1510011+9999MW1251REMSYN076AAXX  08091 31594 41598 71402 10075 20050 40082 55001 72582 86950 333 86931;
0223315940999992000100812004+49420+130070FM-12+013599999V0201401N003010090019N0170001N1+00621+00511100851ADDAA112002091AY181061AY221061GA1061+009009099GF106991061091008001001001KA1120M+00971MA1999999099211MD1210021+9999MW1251REMSYN094AAXX  08121 31594 11567 61403 10062 20051 39921 40085 52002 60022 72582 86900 333 10097 86930;
0112315940999992000100815004+49420+130070FM-12+013599999V0201801N002010360019N0180001N1+00421+00141100871ADDGF108991021091008001051011MD1810011+9999REMSYN060AAXX  08151 31594 42568 81802 10042 20014 40087 58001 82951;
0112315940999992000100818004+49420+130070FM-12+013599999V0201701N002012200019N0150001N1+00161-00031100911ADDGF102991001001999999001011MD1310021+9999REMSYN060AAXX  08181 31594 42965 21702 10016 21003 40091 53002 80001;
0166315940999992000100821004+49420+130070FM-12+013599999V0202601N002010048019N0090001N1+00331-00111100941ADDAY181031AY211031GA1081+004809099GF108991081091004501999999MD1210041+9999MW1801REMSYN076AAXX  08211 31594 41459 82602 10033 21011 40094 52004 78081 889// 333 88916;
0223315940999992000100900004+49420+130070FM-12+013599999V0202501N003010051019N0040001N1+00281+00101101001ADDAA112001091AY181061AY211061GA1081+005109099GF108991081091004501999999KA1120N+00131MA1999999099341MD1210061+9999MW1801REMSYN094AAXX  09001 31594 11496 82503 10028 20010 39934 40100 52006 69992 78081 889// 333 20013 88917;
0166315940999992000100903004+49420+130070FM-12+013599999V0202501N002010045019N0020001N1+00361+00361101031ADDAY181031AY221031GA1081+004509099GF108991081091004501999999MD1210031+9999MW1811REMSYN076AAXX  09031 31594 41495 82502 10036 20036 40103 52003 78182 889// 333 88915;
0166315940999992000100906004+49420+130070FM-12+013599999V0202901N003010048019N0040001N1+00551+00481101331ADDAY181061AY221061GA1081+004809099GF108991081091004501999999MD1210111+9999MW1801REMSYN076AAXX  09061 31594 41496 82903 10055 20048 40133 52011 78082 889// 333 88916;
0166315940999992000100909004+49420+130070FM-12+013599999V0202901N003010039019N0100001N1+00611+00521101351ADDAY181031AY221031GA1081+003909099GF108991081091004501999999MD1210221+9999MW1251REMSYN076AAXX  09091 31594 41497 82903 10061 20052 40135 52022 72582 889// 333 88913;
0201315940999992000100912004+49420+130070FM-12+013599999V0203401N002012200019N0180001N1+00331+00281101451ADDAA112002091AY181061AY211061GF102991021001999999031001KA1999M+00621MA1999999099781MD1210081+9999MW1011REMSYN088AAXX  09121 31594 11968 23402 10033 20028 39978 40145 52008 60022 70181 82030 333 10062;
0140315940999992000100915004+49420+130070FM-12+013599999V0209999C000019999999N0080001N1+00241+00221101571ADDAY111031AY211031GF106991061001999999031001MD1210111+9999MW1101REMSYN066AAXX  09151 31594 41958 60000 10024 20022 40157 52011 71011 86030;
0112315940999992000100918004+49420+130070FM-12+013599999V0203601N001012200019N0150001N1+00121+00091101631ADDGF102991021001999999031001MD1210061+9999REMSYN060AAXX  09181 31594 42965 23601 10012 20009 40163 52006 82030;
0150315940999992000100921004+49420+130070FM-12+013599999V0203601N001012200019N0006001N1-00051-00051101691ADDAY101031AY241031GA1001+999999999GF100991001001999999001001MD1210041+9999MW1461REMSYN060AAXX  09211 31594 41906 03601 11005 21005 40169 52004 74604;
0214315940999992000101000004+49420+130070FM-12+013599999V0209999C000012200019N0040001N1+00241+00141101721ADDAA199000091AY141061AY201061GF102991001001999999001011KA1999N-00151MA1999999100041MD1210051+9999MW1281REMSYN082AAXX  10001 31594 31996 20000 10024 20014 30004 40172 52005 72840 80001 333 21015;EQDQ01  00002PRCP99
0112315940999992000101003004+49420+130070FM-12+013599999V0200901N001012200019N0100001N1+00861+00381101601ADDGF108991021011012501001011MD1710081+9999REMSYN060AAXX  10031 31594 42697 80901 10086 20038 40160 57008 82101;
0112315940999992000101006004+49420+130070FM-12+013599999V0209999C000019999999N0500001N1+01101+00091101431ADDGF108991081001999999011999MD1710161+9999REMSYN060AAXX  10061 31594 42999 80000 10110 20009 40143 57016 8801/;
0112315940999992000101009004+49420+130070FM-12+013599999V0200901N003019999999N0500001N1+01021+00171101201ADDGF108991081001999999011999MD1710221+9999REMSYN060AAXX  10091 31594 42999 80903 10102 20017 40120 57022 8801/;
0223315940999992000101012004+49420+130070FM-12+013599999V0200201N002010051019N0090001N1+01001+00231101041ADDAA112000791AY181061AY221061GA1081+005109099GF108991081091004501999999KA1120M+01171MA1999999099421MD1710161+9999MW1801REMSYN094AAXX  10121 31594 11459 80202 10100 20023 39942 40104 57016 69902 78082 889// 333 10117 88917;
0166315940999992000101015004+49420+130070FM-12+013599999V0200701N003010042019N0038001N1+00671+00561100731ADDAY181031AY221031GA1081+004209099GF108991081091004501999999MD1710331+9999MW1811REMSYN076AAXX  10151 31594 41438 80703 10067 20056 40073 57033 78182 889// 333 88914;
0166315940999992000101018004+49420+130070FM-12+013599999V0200901N002010078019N0500001N1+00661+00581100401ADDAY181061AY221061GA1081+007809099GF108991081091008001999999MD1710331+9999MW1801REMSYN076AAXX  10181 31594 41599 80902 10066 20058 40040 57033 78082 889// 333 88926;
0166315940999992000101021004+49420+130070FM-12+013599999V0203201N003010084019N0080001N1+00401+00331100321ADDAY181031AY221031GA1081+008409099GF108991081091008001999999MD1710081+9999MW1801REMSYN076AAXX  10211 31594 41558 83203 10040 20033 40032 57008 78082 889// 333 88928;
0223315940999992000101100004+49420+130070FM-12+013599999V0202501N004010090019N0500001N1+00261+00161100541ADDAA112008991AY181061AY221061GA1081+009009099GF108991081091008001999999KA1120N+00241MA1999999098681MD1410001+9999MW1801REMSYN094AAXX  11001 31594 11599 82504 10026 20016 39868 40054 54000 60092 78082 889// 333 20024 88930;
0166315940999992000101103004+49420+130070FM-12+013599999V0202701N005010045019N0040001N1+00401+00101100371ADDAY181031AY221031GA1081+004509099GF108991081091004501999999MD1710171+9999MW1801REMSYN076AAXX  11031 31594 41496 82705 10040 20010 40037 57017 78082 889// 333 88915;
0172315940999992000101106004+49420+130070FM-12+013599999V0203201N007010060019N0200001N1+00501+00431100511ADDAY181061AY221061GA1051+006009099GF108991051091008001071999MD1210151+9999MW1251REMSYN082AAXX  11061 31594 41598 83207 10050 20043 40051 52015 72582 8597/ 333 85920 91111;
0122315940999992000101109004+49420+130070FM-12+013599999V0203201N007010360019N0200001N1+00511-00421100781ADDGF108991021051008001051011MD1210271+9999REMSYN070AAXX  11091 31594 42598 83207 10051 21042 40078 52027 82551 333 91111;
0179315940999992000101112004+49420+130070FM-12+013599999V0202701N007012200019N0290001N1+00111-00341101041ADDAA100003091GF103991021041008001001011KA1120M+00601MA1999999099371MD1210241+9999REMSYN088AAXX  11121 31594 12579 32707 10011 21034 39937 40104 52024 60030 82401 333 10060 91111;
0122315940999992000101115004+49420+130070FM-12+013599999V0202801N003012200019N0300001N1-00121-00551101151ADDGF102991011051008001001011MD1210081+9999REMSYN070AAXX  11151 31594 42580 22803 11012 21055 40115 52008 81501 333 91110;
0112315940999992000101118004+49420+130070FM-12+013599999V0203101N003012200019N0280001N1-00241-00641101301ADDGF102991001001999999001011MD1210141+9999REMSYN060AAXX  11181 31594 42978 23103 11024 21064 40130 52014 80001;
0122315940999992000101121004+49420+130070FM-12+013599999V0202701N002012200019N0260001N1-00511-00761101381ADDGA1001+999999999GF100991001001999999001001MD1210061+9999REMSYN054AAXX  11211 31594 42976 02702 11051 21076 40138 52006;
0186315940999992000101200004+49420+130070FM-12+013599999V0203001N004012200019N0200001N1-00141-00661101311ADDAA199000091GF101991011001999999031001KA1999N-00541MA1999999099611MD1810041+9999REMSYN076AAXX  12001 31594 32998 13004 11014 21066 39961 40131 58004 81030 333 21054;EQDQ01  00002PRCP99
0122315940999992000101203004+49420+130070FM-12+013599999V0202901N007012200019N0200001N1+00341-00601101171ADDGF108991021021008001001011MD1710101+9999REMSYN070AAXX  12031 31594 42598 82907 10034 21060 40117 57010 82201 333 91111;
0161315940999992000101206004+49420+130070FM-12+013599999V0202801N007010096019N0200001N1+00511-00631101031ADDGA1051+009609089GF108991051021008001031011MD1710151+9999OA140101101REMSYN082AAXX  12061 31594 42598 82807 10051 21063 40103 57015 85231 333 85832 91011 91111;
0186315940999992000101212004+49420+130070FM-12+013599999V0202501N001019999999N0180001N1+00061-00401101151ADDAA199000091GF107991031001999999031011KA1999M+00591MA1999999099471MD1210071+9999REMSYN076AAXX  12121 31594 32968 72501 10006 21040 39947 40115 52007 83031 333 10059;EQDQ01  00002PRCP99
0138315940999992000101215004+49420+130070FM-12+013599999V0209999C000010129019N0170001N1+00051-00281101071ADDGA1071+012909059GF107991071051012501001001MD1810081+9999REMSYN070AAXX  12151 31594 42667 70000 10005 21028 40107 58008 87500 333 87643;
0112315940999992000101218004+49420+130070FM-12+013599999V0202601N001012200019N0150001N1-00161-00221101081ADDGF102991021001999999031001MD1610011+9999REMSYN060AAXX  12181 31594 42965 22601 11016 21022 40108 56001 82030;
0112315940999992000101221004+49420+130070FM-12+013599999V0202701N001010360019N0180001N1-00051-00231101041ADDGF107991021051012501051001MD1810031+9999REMSYN060AAXX  12211 31594 42668 72701 11005 21023 40104 58003 82550;
0186315940999992000101300004+49420+130070FM-12+013599999V0209999C000019999999N0500001N1+00041-00191101081ADDAA199000091GF105991051001999999031001KA1999N-00221MA1999999099401MD1310051+9999REMSYN076AAXX  13001 31594 32999 50000 10004 21019 39940 40108 53005 85030 333 21022;EQDQ01  00002PRCP99
0112315940999992000101303004+49420+130070FM-12+013599999V0202701N003012200019N0500001N1+00731-00271100981ADDGF101991001001999999001011MD1810061+9999REMSYN060AAXX  13031 31594 42999 12703 10073 21027 40098 58006 80001;
0112315940999992000101306004+49420+130070FM-12+013599999V0203101N003012200019N0500001N1+00931-00571100831ADDGF102991011031012501031001MD1710131+9999REMSYN060AAXX  13061 31594 42699 23103 10093 21057 40083 57013 81330;
0112315940999992000101309004+49420+130070FM-12+013599999V0202901N002019999999N0200001N1+00631-00361100861ADDGF106991021001999999041011MD1310011+9999REMSYN060AAXX  13091 31594 42998 62902 10063 21036 40086 53001 82041;
0208315940999992000101312004+49420+130070FM-12+013599999V0209999C000010300019N0230001N1+00161-00191101021ADDAA199000091GA1051+030009059GF108991051051017501051999KA1120M+00971MA1999999099351MD1210131+9999REMSYN082AAXX  13121 31594 32773 80000 10016 21019 39935 40102 52013 8555/ 333 10097 85660;EQDQ01  00002PRCP99
0112315940999992000101315004+49420+130070FM-12+013599999V0209999C000010360019N0200001N1+00291-00131101031ADDGF108991021051017501051999MD1010021+9999REMSYN060AAXX  13151 31594 42770 80000 10029 21013 40103 50002 8255/;
0112315940999992000101318004+49420+130070FM-12+013599999V0200901N002019999999N0250001N1+00281-00301101021ADDGF107991071001999999051999MD1810021+9999REMSYN060AAXX  13181 31594 42975 70902 10028 21030 40102 58002 8705/;
0112315940999992000101321004+49420+130070FM-12+013599999V0201401N002019999999N0200001N1+00231-00231100961ADDGF107991071001999999051001MD1810061+9999REMSYN060AAXX  13211 31594 42970 71402 10023 21023 40096 58006 87050;
0186315940999992000101400004+49420+130070FM-12+013599999V0201701N004019999999N0200001N1+00331-00181100961ADDAA199000091GF107991071001999999051999KA1999N+00141MA1999999099301MD1310011+9999REMSYN076AAXX  14001 31594 32998 71704 10033 21018 39930 40096 53001 8705/ 333 20014;EQDQ01  00002PRCP99
0112315940999992000101403004+49420+130070FM-12+013599999V0202301N008010360019N0200001N1+00891-00331100821ADDGF106991031021012501031001MD1810121+9999REMSYN060AAXX  14031 31594 42698 62308 10089 21033 40082 58012 83230;
0144315940999992000101406004+49420+130070FM-12+013599999V0202201N00401000251CN0500001N1+01001-00441100711ADDGA1081+000259099GF108991081091008001999999MD1710091+9999REMSYN076AAXX  14061 31594 42599 82204 10100 21044 40071 57009 889// 333 88990 91110;
0150315940999992000101409004+49420+130070FM-12+013599999V0202001N004012200019N0200001N1+00751-00221100741ADDAY181031AY221031GF108991021091012501001011MD1310011+9999MW1021REMSYN076AAXX  14091 31594 41698 82004 10075 21022 40074 53001 70282 82901 333 91111;
0207315940999992000101412004+49420+130070FM-12+013599999V0202301N003010360019N0220001N1+00471+00141100801ADDAA100000791AY181061AY221061GF107991021091012501031011KA1120M+01041MA1999999099151MD1210051+9999MW1021REMSYN094AAXX  14121 31594 11672 72303 10047 20014 39915 40080 52005 69900 70282 82931 333 10104 91113;
0189315940999992000101415004+49420+130070FM-12+013599999V0203201N006010051019N0210001N1-00231-00451101351ADDAY181031AY221031GA1081+005109099GF108991081091004501999999MD1210391+9999MW1021OA140101001REMSYN088AAXX  14151 31594 41471 83206 11023 21045 40135 52039 70282 889// 333 88917 91010 91111;
0167315940999992000101418004+49420+130070FM-12+013599999V0203501N007010360019N0180001N1-00641-01291101771ADDAY181061AY221061GF108991021051017501051011MD1210491+9999MW1021OA149901201REMSYN082AAXX  14181 31594 41768 83507 11064 21129 40177 52049 70282 82551 333 91112 91214;
0132315940999992000101421004+49420+130070FM-12+013599999V0203601N006012200019N0190001N1-00911-01761102101ADDGA1001+999999999GF100991001001999999001001MD1310301+9999REMSYN064AAXX  14211 31594 42969 03606 11091 21176 40210 53030 333 91113;
0183315940999992000101500004+49420+130070FM-12+013599999V0203301N008012200019N0200001N1-00951-01941102501ADDAA112000791GA1001+999999999GF100991001001999999001001KA1999N-01081MA1999999100731MD1210101+9999REMSYN076AAXX  15001 31594 12998 03308 11095 21194 30073 40250 52010 69902 333 21108;
0132315940999992000101503004+49420+130070FM-12+013599999V0203001N007012200019N0200001N1-00581-01821102601ADDGA1001+999999999GF100991001001999999001001MD1210121+9999REMSYN064AAXX  15031 31594 42998 03007 11058 21182 40260 52012 333 91111;
0122315940999992000101506004+49420+130070FM-12+013599999V0203001N007012200019N0200001N1-00271-01591102551ADDGF102991001001999999001011MD1810041+9999REMSYN070AAXX  15061 31594 42998 23007 11027 21159 40255 58004 80001 333 91111;
0112315940999992000101509004+49420+130070FM-12+013599999V0202701N001012200019N0200001N1-00771-01461102281ADDGF102991001001999999001011MD1210261+9999REMSYN060AAXX  15091 31594 42998 22701 11077 21146 40228 52026 80001;
0186315940999992000101512004+49420+130070FM-12+013599999V0201401N003019999999N0230001N1-00541-01471102241ADDAA199000091GF108991001001999999001011KA1999M-00211MA1999999100501MD1710051+9999REMSYN076AAXX  15121 31594 32973 81403 11054 21147 30050 40224 57005 80001 333 11021;EQDQ01  00002PRCP99
0112315940999992000101515004+49420+130070FM-12+013599999V0201201N004019999999N0230001N1-00481-01201102001ADDGF108991001001999999001011MD1710241+9999REMSYN060AAXX  15151 31594 42973 81204 11048 21120 40200 57024 80001;
0112315940999992000101518004+49420+130070FM-12+013599999V0201201N004019999999N0220001N1-00441-01001101631ADDGF108991001001999999001011MD1710361+9999REMSYN060AAXX  15181 31594 42972 81204 11044 21100 40163 57036 80001;
0112315940999992000101521004+49420+130070FM-12+013599999V0201101N004019999999N0200001N1-00371-00991101361ADDGF108991001001999999001011MD1710251+9999REMSYN060AAXX  15211 31594 42970 81104 11037 21099 40136 57025 80001;
0186315940999992000101600004+49420+130070FM-12+013599999V0201301N004019999999N0200001N1-00071-00971101121ADDAA199000091GF107991071001999999051999KA1999N-00651MA1999999099431MD1710221+9999REMSYN076AAXX  16001 31594 32998 71304 11007 21097 39943 40112 57022 8705/ 333 21065;EQDQ01  00002PRCP99
0131315940999992000101603004+49420+130070FM-12+013599999V0201701N006019999999N0500001N1+00411-00951100821ADDGF107991999001999999051999MD1710271+9999REMSYN060AAXX  16031 31594 42999 71706 10041 21095 40082 57027 8805/;EQDQ01+000082SCOTLC
0122315940999992000101606004+49420+130070FM-12+013599999V0201801N006019999999N0200001N1+00831-00741100461ADDGF108991021001999999031011MD1710331+9999REMSYN070AAXX  16061 31594 42998 81806 10083 21074 40046 57033 82031 333 91110;
0122315940999992000101609004+49420+130070FM-12+013599999V0201901N003019999999N0200001N1+00591-00771100381ADDGF108991061001999999031011MD1710091+9999REMSYN070AAXX  16091 31594 42998 81903 10059 21077 40038 57009 86031 333 91110;
0186315940999992000101612004+49420+130070FM-12+013599999V0201701N003019999999N0160001N1+00331-00891100291ADDAA199000091GF108991001001999999001011KA1999M+00901MA1999999098641MD1810101+9999REMSYN076AAXX  16121 31594 32966 81703 10033 21089 39864 40029 58010 80001 333 10090;EQDQ01  00002PRCP99
0112315940999992000101615004+49420+130070FM-12+013599999V0202101N003012200019N0130001N1+00341-00831100131ADDGF102991021001999999031001MD1710161+9999REMSYN060AAXX  16151 31594 42963 22103 10034 21083 40013 57016 82030;
0122315940999992000101618004+49420+130070FM-12+013599999V0203001N007010360019N0140001N1+00291-00261100441ADDGF108991021051012501051011MD1310291+9999REMSYN070AAXX  16181 31594 42664 83007 10029 21026 40044 53029 82551 333 91111;
0122315940999992000101621004+49420+130070FM-12+013599999V0203501N006010360019N0160001N1-00221-01201100751ADDGF108991021051012501051011MD1210281+9999REMSYN070AAXX  16211 31594 42666 83506 11022 21120 40075 52028 82551 333 91111;
0192315940999992000101700004+49420+130070FM-12+013599999V0203401N006012200019N0200001N1-00371-01051100931ADDAA199000091GF102991011051012501031001KA1120N-00431MA1999999099231MD1210171+9999REMSYN082AAXX  17001 31594 32698 23406 11037 21105 39923 40093 52017 81530 333 21043 91111;EQDQ01  00002PRCP99
0189315940999992000101703004+49420+130070FM-12+013599999V0203201N006010072019N0040001N1-00251-00891101081ADDAY181031AY211031GA1081+007209099GF108991081091008001999999MD1210141+9999MW1851OA140101101REMSYN088AAXX  17031 31594 41596 83206 11025 21089 40108 52014 78581 889// 333 88924 91011 91111;
0167315940999992000101706004+49420+130070FM-12+013599999V0203301N008012200019N0200001N1-00171-01311101311ADDAY181061AY211061GF105991011051012501001011MD1210231+9999MW1021OA140101301REMSYN082AAXX  17061 31594 41698 53308 11017 21131 40131 52023 70281 81501 333 91013 91115;
0149315940999992000101709004+49420+130070FM-12+013599999V0203201N007012200019N0200001N1-00551-01761101781ADDGA1001+999999999GF100991001001999999001001MD1210441+9999OA140101201REMSYN070AAXX  17091 31594 42998 03207 11055 21176 40178 52044 333 91012 91116;
0189315940999992000101712004+49420+130070FM-12+013599999V0203101N005012200019N0250001N1-00801-01811102181ADDAA112000791GA1001+999999999GF100991001001999999001001KA1120M+00841MA1999999100421MD1210381+9999REMSYN082AAXX  17121 31594 12975 03105 11080 21181 30042 40218 52038 69902 333 10084 91112;
0122315940999992000101715004+49420+130070FM-12+013599999V0203201N004012200019N0220001N1-01021-01751102291ADDGA1001+999999999GF100991001001999999001001MD1210101+9999REMSYN054AAXX  17151 31594 42972 03204 11102 21175 40229 52010;
0122315940999992000101718004+49420+130070FM-12+013599999V0203101N003012200019N0200001N1-01351-01621102451ADDGA1001+999999999GF100991001001999999001001MD1810131+9999REMSYN054AAXX  17181 31594 42970 03103 11135 21162 40245 58013;
0122315940999992000101721004+49420+130070FM-12+013599999V0203001N001012200019N0240001N1-01481-01681102591ADDGA1001+999999999GF100991001001999999001001MD1210121+9999REMSYN054AAXX  17211 31594 42974 03001 11148 21168 40259 52012;
0196315940999992000101800004+49420+130070FM-12+013599999V0203001N002012200019N0500001N1-01021-01381102641ADDAA199000091GA1001+999999999GF100991001001999999001001KA1999N-01491MA1999999100861MD1210091+9999REMSYN070AAXX  18001 31594 32999 03002 11102 21138 30086 40264 52009 333 21149;EQDQ01  00002PRCP99
0122315940999992000101803004+49420+130070FM-12+013599999V0202801N005012200019N0500001N1-00361-01711102501ADDGA1001+999999999GF100991001001999999001001MD1810101+9999REMSYN054AAXX  18031 31594 42999 02805 11036 21171 40250 58010;
0112315940999992000101806004+49420+130070FM-12+013599999V0202701N004019999999N0500001N1-00181-01661102291ADDGF108991001001999999001071MD1710191+9999REMSYN060AAXX  18061 31594 42999 82704 11018 21166 40229 57019 80007;
0112315940999992000101809004+49420+130070FM-12+013599999V0209999C000019999999N0200001N1-00331-01721102251ADDGF108991081001999999011999MD1710051+9999REMSYN060AAXX  18091 31594 42998 80000 11033 21172 40225 57005 8801/;
0186315940999992000101812004+49420+130070FM-12+013599999V0200801N001019999999N0240001N1-00391-01571102161ADDAA199000091GF108991081001999999011999KA1999M-00141MA1999999100431MD1710091+9999REMSYN076AAXX  18121 31594 32974 80801 11039 21157 30043 40216 57009 8801/ 333 11014;EQDQ01  00002PRCP99
0112315940999992000101815004+49420+130070FM-12+013599999V0200901N003019999999N0170001N1-00381-01631102051ADDGF108991081001999999021999MD1710111+9999REMSYN060AAXX  18151 31594 42967 80903 11038 21163 40205 57011 8802/;
0112315940999992000101818004+49420+130070FM-12+013599999V0200701N003019999999N0150001N1-00281-01561101901ADDGF108991081001999999011999MD1710141+9999REMSYN060AAXX  18181 31594 42965 80703 11028 21156 40190 57014 8801/;
0185315940999992000101821004+49420+130070FM-12+013599999V0200801N002010120019N0080001N1-00241-01461101961ADDAY121031AY221031GA1061+012009029GF107991999051012501999999MD1710241+9999MW1041REMSYN076AAXX  18211 31594 41658 70802 11024 21146 40196 57024 70422 885// 333 86540;EQDQ01+000082SCOTLC
0140315940999992000101903004+49420+130070FM-12+013599999V0201501N008010360019N0040001N1+00121-01361101401ADDAY121031AY221031GF108991031091008001071999MD1710111+9999MW1051REMSYN066AAXX  19031 31594 41596 81508 10012 21136 40140 57011 70522 8397/;
0172315940999992000101906004+49420+130070FM-12+013599999V0201101N003010036019N0020001N1-00231-00262101211ADDAY181061AY221061GA1081+003609099GF108991081091004501999999MD1710211+9999MW1861REMSYN082AAXX  19061 31594 41495 81103 11023 21026 40121 57021 78682 889// 333 88912 91113;
0166315940999992000101909004+49420+130070FM-12+013599999V0201401N003010069019N0040001N1-00191-00341101021ADDAY181031AY221031GA1081+006909099GF108991081091008001999999MD1710181+9999MW1871REMSYN076AAXX  19091 31594 41596 81403 11019 21034 40102 57018 78782 889// 333 88923;
0223315940999992000101912004+49420+130070FM-12+013599999V0201201N004010120019N0060001N1-00081-00501100691ADDAA112003091AY181061AY221061GA1081+012009099GF108991081091012501999999KA1120M+00061MA1999999099011MD1710311+9999MW1851REMSYN094AAXX  19121 31594 11656 81204 11008 21050 39901 40069 57031 60032 78582 889// 333 10006 88940;
0172315940999992000101915004+49420+130070FM-12+013599999V0201401N004010108019N0180001N1-00011-00741100631ADDAY181031AY221031GA1071+010809069GF108991081051012501999999MD1710061+9999MW1021REMSYN082AAXX  19151 31594 41668 81404 11001 21074 40063 57006 70282 885// 333 87636 91110;
0172315940999992000101918004+49420+130070FM-12+013599999V0201401N004010066019N0120001N1-00051-00321100791ADDAY181061AY221061GA1071+006609069GF107991071051008001999999MD1310161+9999MW1021REMSYN082AAXX  19181 31594 41562 71404 11005 21032 40079 53016 70282 875// 333 87622 91110;
0166315940999992000101921004+49420+130070FM-12+013599999V0203201N005010051019N0070001N1-00061-00241101071ADDAY181031AY221031GA1081+005109099GF108991081091004501999999MD1210271+9999MW1851REMSYN076AAXX  19211 31594 41457 83205 11006 21024 40107 52027 78582 889// 333 88917;
0230315940999992000102000004+49420+130070FM-12+013599999V0202801N005010075019N0100001N1-00151-00321101421ADDAA112000791AJ101109199999999AY181061AY221061GF108991081091008001999999IA1259KA1120N-00201MA1999999099721MD1210341+9999MW1261REMSYN094AAXX  20001 31594 11597 82805 11015 21032 39972 40142 52034 69902 72682 889// 333 21020 41110;
0138315940999992000102003004+49420+130070FM-12+013599999V0202701N003010090019N0200001N1-00041-00481101611ADDGA1061+009009099GF108991061091008001051999MD1210191+9999REMSYN070AAXX  20031 31594 42598 82703 11004 21048 40161 52019 8695/ 333 86930;
0112315940999992000102006004+49420+130070FM-12+013599999V0202701N004012200019N0200001N1+00101-00501101651ADDGF108991031021012501001011MD1210051+9999REMSYN060AAXX  20061 31594 42698 82704 10010 21050 40165 52005 83201;
0138315940999992000102009004+49420+130070FM-12+013599999V0203201N001010150019N0100001N1+00041-00631101691ADDGA1071+015009059GF107991071051017501999999MD1310021+9999REMSYN070AAXX  20091 31594 42797 73201 10004 21063 40169 53002 875// 333 87650;
0208315940999992000102012004+49420+130070FM-12+013599999V0201601N001010132019N0120001N1-00091-00251101721ADDAA199000021GA1081+013209059GF199999071051012501999999KA1120M+00201MA1999999100021MD1110021+9999REMSYN082AAXX  20121 31594 32662 71601 11009 21025 30002 40172 51002 875// 333 10020 88644;EQDQ01+000072SCOTCV
0112315940999992000102015004+49420+130070FM-12+013599999V0201401N002019999999N0110001N1-00211-00391101671ADDGF108991001001999999001011MD1810061+9999REMSYN060AAXX  20151 31594 42961 81402 11021 21039 40167 58006 80001;
0112315940999992000102018004+49420+130070FM-12+013599999V0201501N001019999999N0100001N1-00341-00481101701ADDGF108991001001999999001071MD1310021+9999REMSYN060AAXX  20181 31594 42960 81501 11034 21048 40170 53002 80007;
0140315940999992000102021004+49420+130070FM-12+013599999V0209999C000012200019N0050001N1-00651-00701101761ADDAY111031AY211031GF102991001001999999001011MD1310041+9999MW1101REMSYN066AAXX  20211 31594 41950 20000 11065 21070 40176 53004 71011 80001;
0215315940999992000102100004+49420+130070FM-12+013599999V0202101N001019999999N0100001N1-00311-00481101761ADDAA199000091AJ100039199999999GF107991001001999999001011IA1239KA1120N-00711MA1999999100041MD1210021+9999REMSYN082AAXX  21001 31594 32997 72101 11031 21048 30004 40176 52002 80001 333 21071 47003;EQDQ01  00002PRCP99
0122315940999992000102103004+49420+130070FM-12+013599999V0202701N001012200019N0200001N1+00261-00481101691ADDGA1001+999999999GF100991001001999999001001MD1810031+9999REMSYN054AAXX  21031 31594 42998 02701 10026 21048 40169 58003;
0112315940999992000102106004+49420+130070FM-12+013599999V0202701N004012200019N0200001N1+00501-00941101701ADDGF107991021021012501001011MD1310021+9999REMSYN060AAXX  21061 31594 42698 72704 10050 21094 40170 53002 82201;
0112315940999992000102109004+49420+130070FM-12+013599999V0202801N002012200019N0200001N1+00101-00981101911ADDGF101991011051017501001001MD1210191+9999REMSYN060AAXX  21091 31594 42798 12802 10010 21098 40191 52019 81500;
0196315940999992000102112004+49420+130070FM-12+013599999V0209999C000012200019N0220001N1-00311-00811102041ADDAA199000091GA1001+999999999GF100991001001999999001001KA1999M+00571MA1999999100311MD1210091+9999REMSYN070AAXX  21121 31594 32972 00000 11031 21081 30031 40204 52009 333 10057;EQDQ01  00002PRCP99
0122315940999992000102115004+49420+130070FM-12+013599999V0202201N001012200019N0200001N1-00631-00821102131ADDGA1001+999999999GF100991001001999999001001MD1010081+9999REMSYN054AAXX  21151 31594 42970 02201 11063 21082 40213 50008;
0112315940999992000102118004+49420+130070FM-12+013599999V0202001N001012200019N0210001N1-00301-00641102161ADDGF103991031001999999031001MD1310041+9999REMSYN060AAXX  21181 31594 42971 32001 11030 21064 40216 53004 83030;
0122315940999992000102121004+49420+130070FM-12+013599999V0201601N002012200019N0180001N1-00391-00611102231ADDGA1001+999999999GF100991001001999999001001MD1210071+9999REMSYN054AAXX  21211 31594 42968 01602 11039 21061 40223 52007;
0225315940999992000102200004+49420+130070FM-12+013599999V0201201N002012200019N0200001N1-00221-00501102301ADDAA199000091AJ100009199999999GA1001+999999999GF100991001001999999001001IA1259KA1120N-00671MA1999999100581MD1210081+9999REMSYN076AAXX  22001 31594 32998 01202 11022 21050 30058 40230 52008 333 21067 41998;EQDQ01  00002PRCP99
0112315940999992000102203004+49420+130070FM-12+013599999V0201801N004012200019N0200001N1+00421-00691102301ADDGF101991001001999999001011MD1210041+9999REMSYN060AAXX  22031 31594 42998 11804 10042 21069 40230 52004 80001;
0112315940999992000102206004+49420+130070FM-12+013599999V0202201N002012200019N0500001N1+00721-00861102171ADDGF102991001001999999001011MD1810111+9999REMSYN060AAXX  22061 31594 42999 22202 10072 21086 40217 58011 80001;
0140315940999992000102209004+49420+130070FM-12+013599999V0201101N001012200019N0040001N1+00351-01071102081ADDAY101031AY201031GF101991001001999999001011MD1710111+9999MW1051REMSYN066AAXX  22091 31594 41996 11101 10035 21107 40208 57011 70500 80001;
0196315940999992000102212004+49420+130070FM-12+013599999V0201001N002012200019N0130001N1+00211-01111102061ADDAA199000091GA1001+999999999GF100991001001999999001001KA1999M+00771MA1999999100371MD1710031+9999REMSYN070AAXX  22121 31594 32963 01002 10021 21111 30037 40206 57003 333 10077;EQDQ01  00002PRCP99
0112315940999992000102215004+49420+130070FM-12+013599999V0200901N002019999999N0130001N1+00291-00971101951ADDGF108991001001999999001011MD1710111+9999REMSYN060AAXX  22151 31594 42963 80902 10029 21097 40195 57011 80001;
0112315940999992000102218004+49420+130070FM-12+013599999V0200801N002019999999N0140001N1+00311-00931101901ADDGF108991081001999999021999MD1710041+9999REMSYN060AAXX  22181 31594 42964 80802 10031 21093 40190 57004 8802/;
0112315940999992000102221004+49420+130070FM-12+013599999V0200901N003019999999N0170001N1+00271-00901101721ADDGF107991071091999999001001MD1710181+9999REMSYN060AAXX  22211 31594 42967 70903 10027 21090 40172 57018 87900;
0186315940999992000102300004+49420+130070FM-12+013599999V0200901N002019999999N0200001N1+00291-00811101811ADDAA199000091GF108991081001999999071999KA1999N+00191MA1999999100131MD1310091+9999REMSYN076AAXX  23001 31594 32998 80902 10029 21081 30013 40181 53009 8807/ 333 20019;EQDQ01  00002PRCP99
0112315940999992000102303004+49420+130070FM-12+013599999V0201001N002019999999N0200001N1+00371-00091101711ADDGF108991081001999999071999MD1810091+9999REMSYN060AAXX  23031 31594 42998 81002 10037 21009 40171 58009 8807/;
0112315940999992000102306004+49420+130070FM-12+013599999V0201401N004019999999N0200001N1+00461-00211101581ADDGF108991081001999999071999MD1710131+9999REMSYN060AAXX  23061 31594 42998 81404 10046 21021 40158 57013 8807/;
0112315940999992000102309004+49420+130070FM-12+013599999V0201301N003010360019N0200001N1+00311-00071101611ADDGF108991021051017501071999MD1310031+9999REMSYN060AAXX  23091 31594 42798 81303 10031 21007 40161 53003 8257/;
0208315940999992000102312004+49420+130070FM-12+013599999V0201101N005010048019N0160001N1+00251+00151101761ADDAA199000091GA1081+004809099GF108991081091004501999999KA1120M+00541MA1999999100081MD1210141+9999REMSYN082AAXX  23121 31594 32466 81105 10025 20015 30008 40176 52014 889// 333 10054 88916;EQDQ01  00002PRCP99
0138315940999992000102315004+49420+130070FM-12+013599999V0201001N005010042019N0150001N1+00311+00101101731ADDGA1081+004209099GF108991081091008001999999MD1810021+9999REMSYN070AAXX  23151 31594 42565 81005 10031 20010 40173 58002 889// 333 88914;
0112315940999992000102318004+49420+130070FM-12+013599999V0201201N004010042019N0160001N1+00351+00171101691ADDGF108991081091004501999999MD1710041+9999REMSYN060AAXX  23181 31594 42466 81204 10035 20017 40169 57004 889//;
0112315940999992000102321004+49420+130070FM-12+013599999V0201401N005019999999N0160001N1+00351+00201101551ADDGF108991081001999999011999MD1710141+9999REMSYN060AAXX  23211 31594 42966 81405 10035 20020 40155 57014 8801/;
0223315940999992000102400004+49420+130070FM-12+013599999V0201201N004010054019N0020001N1+00371+00351101201ADDAA112001091AY181061AY221061GA1081+005409099GF108991081091004501999999KA1120N+00231MA1999999099501MD1710341+9999MW1811REMSYN094AAXX  24001 31594 11495 81204 10037 20035 39950 40120 57034 60012 78182 889// 333 20023 88918;
0166315940999992000102403004+49420+130070FM-12+013599999V0201401N006010048019N0100001N1+00411+00361100801ADDAY181031AY221031GA1081+004809099GF108991081091008001999999MD1710391+9999MW1251REMSYN076AAXX  24031 31594 41597 81406 10041 20036 40080 57039 72582 889// 333 88916;
0150315940999992000102406004+49420+130070FM-12+013599999V0201401N007010360019N0100001N1+00671+00391100351ADDAY181061AY221061GF108991031091008001051999MD1710431+9999MW1021REMSYN076AAXX  24061 31594 41597 81407 10067 20039 40035 57043 70282 8395/ 333 91111;
0172315940999992000102409004+49420+130070FM-12+013599999V0201801N002010099019N0100001N1+00641+00551100291ADDAY181031AY221031GA1071+009909099GF107991071091012501001001MD1510061+9999MW1251REMSYN082AAXX  24091 31594 41697 71802 10064 20055 40029 55006 72582 87900 333 87933 91111;
0229315940999992000102412004+49420+130070FM-12+013599999V0202301N005010138019N0120001N1+00491+00371100381ADDAA112005191AY181061AY211061GA1081+013809099GF108991081091012501999999KA1120M+00681MA1999999098741MD1210081+9999MW1021REMSYN100AAXX  24121 31594 11662 82305 10049 20037 39874 40038 52008 60052 70281 889// 333 10068 88946 91111;
0112315940999992000102415004+49420+130070FM-12+013599999V0203301N002012200019N0140001N1-00061-00521100551ADDGF101991011001999999041001MD1210131+9999REMSYN060AAXX  24151 31594 42964 13302 11006 21052 40055 52013 81040;
0112315940999992000102418004+49420+130070FM-12+013599999V0203401N001012200019N0130001N1-00281-00901100661ADDGF102991021051012501001001MD1210091+9999REMSYN060AAXX  24181 31594 42663 23401 11028 21090 40066 52009 82500;
0138315940999992000102421004+49420+130070FM-12+013599999V0202001N006010129019N0110001N1-00261-00961100621ADDGA1071+012909059GF107991071051012501001001MD1510041+9999REMSYN070AAXX  24211 31594 42661 72006 11026 21096 40062 55004 87500 333 87643;
0229315940999992000102500004+49420+130070FM-12+013599999V0202301N007010096019N0020001N1-00291-00961100631ADDAA112000791AY181061AY211061GA1081+009609099GF108991081091008001999999KA1120N-00361MA1999999098931MD1210011+9999MW1851REMSYN100AAXX  25001 31594 11595 82307 11029 21096 39893 40063 52001 69902 78581 889// 333 21036 88932 91111;
0140315940999992000102503004+49420+130070FM-12+013599999V0202601N008019999999N0040001N1-00181-00851100471ADDAY171031AY221031GF108991081001008001071999MD1210101+9999MW1021REMSYN066AAXX  25031 31594 41596 82608 11018 21085 40047 52010 70272 8807/;
0189315940999992000102506004+49420+130070FM-12+013599999V0202801N009010093019N0040001N1-00101-00841100801ADDAY181061AY221061GA1081+009309099GF108991081091008001999999MD1210091+9999MW1851OA140101401REMSYN088AAXX  25061 31594 41596 82809 11010 21084 40080 52009 78582 889// 333 88931 91014 91115;
0144315940999992000102509004+49420+130070FM-12+013599999V0202801N003010051019N0010001N1-00231-00291100991ADDGA1081+005109099GF108991081091004501999999MD1210171+9999REMSYN076AAXX  25091 31594 41494 82803 11023 21029 40099 52017 889// 333 88917 91114;
0201315940999992000102512004+49420+130070FM-12+013599999V0202801N004010042019N0048001N1-00321-00421101151ADDAA112000591AY181061AY221061GF108991081091004501999999KA1999M+00491MA1999999099441MD1210161+9999MW1861REMSYN088AAXX  25121 31594 11448 82804 11032 21042 39944 40115 52016 69952 78682 889// 333 10049;
0140315940999992000102515004+49420+130070FM-12+013599999V0202701N005010075019N0028001N1-00361-00471101301ADDAY181031AY221031GF108991081091008001999999MD1110151+9999MW1861REMSYN066AAXX  25151 31594 41528 82705 11036 21047 40130 51015 78682 889//;
0166315940999992000102518004+49420+130070FM-12+013599999V0202801N004010096019N0100001N1-00341-00701101391ADDAY181061AY221061GA1081+009609099GF108991081091008001999999MD1210091+9999MW1021REMSYN076AAXX  25181 31594 41560 82804 11034 21070 40139 52009 70282 889// 333 88932;
0112315940999992000102521004+49420+130070FM-12+013599999V0202901N003012200019N0200001N1-00551-01061101621ADDGF102991021001999999031001MD1210201+9999REMSYN060AAXX  25211 31594 42970 22903 11055 21106 40162 52020 82030;
0212315940999992000102600004+49420+130070FM-12+013599999V0202701N005012200019N0200001N1-00581-00991101881ADDAA100000591AJ100039199999999GA1001+999999999GF100991001001999999001001IA1229KA1120N-00691MA1999999100141MD1210261+9999REMSYN082AAXX  26001 31594 12998 02705 11058 21099 30014 40188 52026 69940 333 21069 46003;
0122315940999992000102603004+49420+130070FM-12+013599999V0202701N008012200019N0500001N1-00261-01151101961ADDGA1001+999999999GF100991001001999999001001MD1210111+9999REMSYN054AAXX  26031 31594 42999 02708 11026 21115 40196 52011;
0132315940999992000102606004+49420+130070FM-12+013599999V0202601N007012200019N0500001N1+00021-01111101941ADDGA1001+999999999GF100991001001999999001001MD1810011+9999REMSYN064AAXX  26061 31594 42999 02607 10002 21111 40194 58001 333 91111;
0112315940999992000102609004+49420+130070FM-12+013599999V0209999C000012200019N0500001N1-00241-01161102021ADDGF101991001001999999001011MD1310061+9999REMSYN060AAXX  26091 31594 42999 10000 11024 21116 40202 53006 80001;
0196315940999992000102612004+49420+130070FM-12+013599999V0203201N001012200019N0500001N1-00471-01141101861ADDAA199000091GA1001+999999999GF100991001001999999001001KA1999M+00051MA1999999100411MD1210111+9999REMSYN070AAXX  26121 31594 32984 03201 11047 21114 30041 40186 52011 333 10005;EQDQ01  00002PRCP99
0122315940999992000102615004+49420+130070FM-12+013599999V0209999C000012200019N0280001N1-00611-01011102231ADDGA1001+999999999GF100991001001999999001001MD1210081+9999REMSYN054AAXX  26151 31594 42978 00000 11061 21101 40223 52008;
0122315940999992000102618004+49420+130070FM-12+013599999V0203301N001012200019N0210001N1-00711-01001102281ADDGA1001+999999999GF100991001001999999001001MD1210041+9999REMSYN054AAXX  26181 31594 42971 03301 11071 21100 40228 52004;
0122315940999992000102621004+49420+130070FM-12+013599999V0209999C000012200019N0180001N1-00771-00991102291ADDGA1001+999999999GF100991001001999999001001MD1210011+9999REMSYN054AAXX  26211 31594 42968 00000 11077 21099 40229 52001;
0225315940999992000102700004+49420+130070FM-12+013599999V0203201N001012200019N0200001N1-00531-00901102391ADDAA199000091AJ100009199999999GA1001+999999999GF100991001001999999001001IA1259KA1120N-00831MA1999999100651MD1210111+9999REMSYN076AAXX  27001 31594 32998 03201 11053 21090 30065 40239 52011 333 21083 41997;EQDQ01  00002PRCP99
0122315940999992000102703004+49420+130070FM-12+013599999V0202701N003012200019N0200001N1+00121-00921102321ADDGA1001+999999999GF100991001001999999001001MD1810031+9999REMSYN054AAXX  27031 31594 42998 02703 10012 21092 40232 58003;
0122315940999992000102706004+49420+130070FM-12+013599999V0202801N006012200019N0500001N1+00301-00871102271ADDGA1001+999999999GF100991001001999999001001MD1710041+9999REMSYN054AAXX  27061 31594 42999 02806 10030 21087 40227 57004;
0122315940999992000102709004+49420+130070FM-12+013599999V0209999C000012200019N0500001N1-00121-01161102331ADDGA1001+999999999GF100991001001999999001001MD1310041+9999REMSYN054AAXX  27091 31594 42999 00000 11012 21116 40233 53004;
0196315940999992000102712004+49420+130070FM-12+013599999V0202601N001012200019N0450001N1-00441-01191102251ADDAA199000091GA1001+999999999GF100991001001999999001001KA1999M+00341MA1999999100521MD1810101+9999REMSYN070AAXX  27121 31594 32983 02601 11044 21119 30052 40225 58010 333 10034;EQDQ01  00002PRCP99
0122315940999992000102715004+49420+130070FM-12+013599999V0209999C000012200019N0260001N1-00631-01031102211ADDGA1001+999999999GF100991001001999999001001MD1610051+9999REMSYN054AAXX  27151 31594 42976 00000 11063 21103 40221 56005;
0122315940999992000102718004+49420+130070FM-12+013599999V0209999C000012200019N0230001N1-00751-01051102101ADDGA1001+999999999GF100991001001999999001001MD1710121+9999REMSYN054AAXX  27181 31594 42973 00000 11075 21105 40210 57012;
0122315940999992000102721004+49420+130070FM-12+013599999V0201401N002012200019N0200001N1-00591-01021101911ADDGA1001+999999999GF100991001001999999001001MD1710181+9999REMSYN054AAXX  27211 31594 42970 01402 11059 21102 40191 57018;
0196315940999992000102800004+49420+130070FM-12+013599999V0201501N001012200019N0200001N1-00451-01061101821ADDAA199000091GA1001+999999999GF100991001001999999001001KA1999N-00861MA1999999100091MD1710081+9999REMSYN070AAXX  28001 31594 32998 01501 11045 21106 30009 40182 57008 333 21086;EQDQ01  00002PRCP99
0122315940999992000102803004+49420+130070FM-12+013599999V0202901N004012200019N0200001N1+00061-00941101661ADDGA1001+999999999GF100991001001999999001001MD1710121+9999REMSYN054AAXX  28031 31594 42998 02904 10006 21094 40166 57012;
0122315940999992000102806004+49420+130070FM-12+013599999V0202701N005012200019N0200001N1+00311-00951101521ADDGA1001+999999999GF100991001001999999001001MD1710131+9999REMSYN054AAXX  28061 31594 42998 02705 10031 21095 40152 57013;
0122315940999992000102809004+49420+130070FM-12+013599999V0203001N001012200019N0200001N1-00161-01271101521ADDGA1001+999999999GF100991001001999999001001MD1610031+9999REMSYN054AAXX  28091 31594 42998 03001 11016 21127 40152 56003;
0196315940999992000102812004+49420+130070FM-12+013599999V0209999C000012200019N0200001N1-00641-01001101501ADDAA199000091GA1001+999999999GF100991001001999999001001KA1999M+00341MA1999999099761MD1710051+9999REMSYN070AAXX  28121 31594 32970 00000 11064 21100 39976 40150 57005 333 10034;EQDQ01  00002PRCP99
0122315940999992000102815004+49420+130070FM-12+013599999V0202301N001012200019N0190001N1-00621-01061101441ADDGA1001+999999999GF100991001001999999001001MD1710051+9999REMSYN054AAXX  28151 31594 42969 02301 11062 21106 40144 57005;
0122315940999992000102818004+49420+130070FM-12+013599999V0209999C000012200019N0170001N1-01141-01271101351ADDGA1001+999999999GF100991001001999999001001MD1710121+9999REMSYN054AAXX  28181 31594 42967 00000 11114 21127 40135 57012;
0112315940999992000102821004+49420+130070FM-12+013599999V0201401N002012200019N0200001N1-00761-01021101241ADDGF103991001001999999001011MD1710091+9999REMSYN060AAXX  28211 31594 42970 31402 11076 21102 40124 57009 80001;
0186315940999992000102900004+49420+130070FM-12+013599999V0201401N002012200019N0200001N1-00671-01041101201ADDAA199000091GF101991001001999999001011KA1999N-01171MA1999999099471MD1510051+9999REMSYN076AAXX  29001 31594 32998 11402 11067 21104 39947 40120 55005 80001 333 21117;EQDQ01  00002PRCP99
0122315940999992000102903004+49420+130070FM-12+013599999V0202401N002012200019N0200001N1+00011-01031101121ADDGA1001+999999999GF100991001001999999001001MD1810041+9999REMSYN054AAXX  29031 31594 42998 02402 10001 21103 40112 58004;
0122315940999992000102906004+49420+130070FM-12+013599999V0202901N004012200019N0500001N1+00281-00981101031ADDGF101991011011012501001001MD1510071+9999REMSYN070AAXX  29061 31594 42699 12904 10028 21098 40103 55007 81100 333 91110;
0112315940999992000102909004+49420+130070FM-12+013599999V0203201N001012200019N0500001N1-00201-01151101111ADDGF101991001001999999001011MD1210081+9999REMSYN060AAXX  29091 31594 42999 13201 11020 21115 40111 52008 80001;
0196315940999992000102912004+49420+130070FM-12+013599999V0203101N001012200019N0350001N1-00631-01131101191ADDAA199000091GA1001+999999999GF100991001001999999001001KA1999M+00291MA1999999099561MD1210121+9999REMSYN070AAXX  29121 31594 32981 03101 11063 21113 39956 40119 52012 333 10029;EQDQ01  00002PRCP99
0122315940999992000102915004+49420+130070FM-12+013599999V0203201N001012200019N0280001N1-00801-01091101281ADDGA1001+999999999GF100991001001999999001001MD1810021+9999REMSYN054AAXX  29151 31594 42978 03201 11080 21109 40128 58002;
0122315940999992000102918004+49420+130070FM-12+013599999V0201401N002012200019N0250001N1-00671-01091101271ADDGA1001+999999999GF100991001001999999001001MD1510001+9999REMSYN054AAXX  29181 31594 42975 01402 11067 21109 40127 55000;
0122315940999992000102921004+49420+130070FM-12+013599999V0201501N002012200019N0240001N1-00691-01111101211ADDGA1001+999999999GF100991001001999999001001MD1810071+9999REMSYN054AAXX  29211 31594 42974 01502 11069 21111 40121 58007;
0186315940999992000103000004+49420+130070FM-12+013599999V0201201N003019999999N0200001N1-00591-01021101301ADDAA199000091GF108991001001999999001011KA1999N-01071MA1999999099571MD1310101+9999REMSYN076AAXX  30001 31594 32998 81203 11059 21102 39957 40130 53010 80001 333 21107;EQDQ01  00002PRCP99
0112315940999992000103003004+49420+130070FM-12+013599999V0201801N001019999999N0500001N1+00111-00981101291ADDGF108991001001999999001071MD1210041+9999REMSYN060AAXX  30031 31594 42999 81801 10011 21098 40129 52004 80007;
0112315940999992000103006004+49420+130070FM-12+013599999V0202701N002019999999N0200001N1+00431-00921101271ADDGF108991001001999999001071MD1410001+9999REMSYN060AAXX  30061 31594 42998 82702 10043 21092 40127 54000 80007;
0112315940999992000103009004+49420+130070FM-12+013599999V0209999C000019999999N0200001N1+00161-00751101381ADDGF108991081001999999021999MD1310101+9999REMSYN060AAXX  30091 31594 42998 80000 10016 21075 40138 53010 8802/;
0196315940999992000103012004+49420+130070FM-12+013599999V0209999C000012200019N0220001N1-00071-00651101501ADDAA199000091GA1001+999999999GF100991001001999999001001KA1999M+00511MA1999999099801MD1210091+9999REMSYN070AAXX  30121 31594 32972 00000 11007 21065 39980 40150 52009 333 10051;EQDQ01  00002PRCP99
0122315940999992000103015004+49420+130070FM-12+013599999V0209999C000012200019N0270001N1-00531-00711101601ADDGA1001+999999999GF100991001001999999001001MD1210061+9999REMSYN054AAXX  30151 31594 42977 00000 11053 21071 40160 52006;
0122315940999992000103018004+49420+130070FM-12+013599999V0209999C000012200019N0180001N1-00801-00901101621ADDGA1001+999999999GF100991001001999999001001MD1310011+9999REMSYN054AAXX  30181 31594 42968 00000 11080 21090 40162 53001;
0122315940999992000103021004+49420+130070FM-12+013599999V0201401N001012200019N0200001N1-00521-00591101631ADDGA1001+999999999GF100991001001999999001001MD1110021+9999REMSYN054AAXX  30211 31594 42970 01401 11052 21059 40163 51002;
0196315940999992000103100004+49420+130070FM-12+013599999V0201401N002012200019N0200001N1-00411-00641101701ADDAA199000091GA1001+999999999GF100991001001999999001001KA1999N-00921MA1999999099971MD1310081+9999REMSYN070AAXX  31001 31594 32998 01402 11041 21064 39997 40170 53008 333 21092;EQDQ01  00002PRCP99
0122315940999992000103103004+49420+130070FM-12+013599999V0201301N002012200019N0200001N1+00311+99999101531ADDGA1001+999999999GF100991001001999999001001MD1810111+9999REMSYN054AAXX  31031 31594 42998 01302 10031 20145 40153 58011;
0112315940999992000103106004+49420+130070FM-12+013599999V0202001N002012200019N0200001N1+00691-00731101381ADDGF102991001001999999001011MD1710131+9999REMSYN060AAXX  31061 31594 42998 22002 10069 21073 40138 57013 80001;
0112315940999992000103109004+49420+130070FM-12+013599999V0209999C000019999999N0200001N1+00291-00491101361ADDGF108991051001999999051011MD1710041+9999REMSYN060AAXX  31091 31594 42998 80000 10029 21049 40136 57004 85051;
0186315940999992000103112004+49420+130070FM-12+013599999V0202601N001019999999N0500001N1+00011-00471101441ADDAA199000091GF108991001001999999001011KA1999M+00711MA1999999099751MD1310061+9999REMSYN076AAXX  31121 31594 32984 82601 10001 21047 39975 40144 53006 80001 333 10071;EQDQ01  00002PRCP99
0112315940999992000103115004+49420+130070FM-12+013599999V0202301N003019999999N0200001N1+00161-00621101391ADDGF108991001001999999001071MD1810031+9999REMSYN060AAXX  31151 31594 42970 82303 10016 21062 40139 58003 80007;
0112315940999992000103118004+49420+130070FM-12+013599999V0202701N001019999999N0180001N1+00231-00301101461ADDGF108991081001999999071999MD1310061+9999REMSYN060AAXX  31181 31594 42968 82701 10023 21030 40146 53006 8807/;
0112315940999992000103121004+49420+130070FM-12+013599999V0209999C000019999999N0160001N1-00181-00481101651ADDGF107991001001999999001011MD1210161+9999REMSYN060AAXX  31211 31594 42966 70000 11018 21048 40165 52016 80001;
0196315940999992000110100004+49420+130070FM-12+013599999V0202801N001012200019N0200001N1-00221-00561101901ADDAA199000091GA1001+999999999GF100991001001999999001001KA1999N-00631MA1999999100191MD1210251+9999REMSYN070AAXX  01001 31594 32598 02801 11022 21056 30019 40190 52025 333 21063;EQDQ01  00002PRCP99
0122315940999992000110103004+49420+130070FM-12+013599999V0203301N001012200019N0200001N1+00491-00541101911ADDGA1001+999999999GF100991001001999999001001MD1110051+9999REMSYN054AAXX  01031 31594 42998 03301 10049 21054 40191 51005;
0122315940999992000110106004+49420+130070FM-12+013599999V0202201N001012200019N0200001N1+00691-00461101871ADDGA1001+999999999GF100991001001999999001001MD1710031+9999REMSYN054AAXX  01061 31594 42998 02201 10069 21046 40187 57003;
0122315940999992000110109004+49420+130070FM-12+013599999V0201501N001012200019N0130001N1+00311-00561101901ADDGA1001+999999999GF100991001001999999001001MD1310021+9999REMSYN054AAXX  01091 31594 42963 01501 10031 21056 40190 53002;
0196315940999992000110112004+49420+130070FM-12+013599999V0201801N002012200019N0160001N1+00031-00811101931ADDAA199000091GA1001+999999999GF100991001001999999001001KA1999M+00751MA1999999100241MD1110011+9999REMSYN070AAXX  01121 31594 32966 01802 10003 21081 30024 40193 51001 333 10075;EQDQ01  00002PRCP99
0122315940999992000110115004+49420+130070FM-12+013599999V0201801N001012200019N0200001N1-00231-00771101951ADDGA1001+999999999GF100991001001999999001001MD1410001+9999REMSYN054AAXX  01151 31594 42970 01801 11023 21077 40195 54000;
0122315940999992000110118004+49420+130070FM-12+013599999V0202301N001012200019N0230001N1-00301-00801101941ADDGA1001+999999999GF100991001001999999001001MD1810021+9999REMSYN054AAXX  01181 31594 42973 02301 11030 21080 40194 58002;
0122315940999992000110121004+49420+130070FM-12+013599999V0201001N003012200019N0230001N1+00071-00301101691ADDGA1001+999999999GF100991001001999999001001MD1710221+9999REMSYN054AAXX  01211 31594 42973 01003 10007 21030 40169 57022;
0186315940999992000110200004+49420+130070FM-12+013599999V0201101N002012200019N0200001N1+00101-00661101611ADDAA199000091GF102991021001999999031001KA1999N-00301MA1999999099921MD1610081+9999REMSYN076AAXX  02001 31594 32998 21102 10010 21066 39992 40161 56008 82030 333 21030;EQDQ01  00002PRCP99
0122315940999992000110203004+49420+130070FM-12+013599999V0201401N005019999999N0100001N1+00711-00401101581ADDGF107991071001999999051001MD1810261+9999REMSYN070AAXX  02031 31594 42997 71405 10071 21040 40158 58026 87050 333 91110;
0141315940999992000110206004+49420+130070FM-12+013599999V0201401N005019999999N0200001N1+00811-00501100932ADDGF107991071001999999051001MD1710371+9999REMSYN070AAXX  02061 31594 42998 71405 10081 21050 40093 57037 87050 333 91011;EQDQ01+100933APOSLP
0144315940999992000110209004+49420+130070FM-12+013599999V0201401N005010096019N0180001N1+00631-00441101001ADDGA1051+009609099GF108991051091008001051999MD1310061+9999REMSYN076AAXX  02091 31594 42568 81405 10063 21044 40100 53006 8595/ 333 85932 91111;
0186315940999992000110212004+49420+130070FM-12+013599999V0201501N002010360019N0130001N1+00571-00581101111ADDAA199000091GF108991021091012501071999KA1999M+00841MA1999999099461MD1210111+9999REMSYN076AAXX  02121 31594 32663 81502 10057 21058 39946 40111 52011 8297/ 333 10084;EQDQ01  00002PRCP99
0112315940999992000110215004+49420+130070FM-12+013599999V0202401N001019999999N0110001N1+00301-00501101231ADDGF108991051001999999051011MD1210101+9999REMSYN060AAXX  02151 31594 42961 82401 10030 21050 40123 52010 85051;
0112315940999992000110218004+49420+130070FM-12+013599999V0202501N003019999999N0120001N1+00311-00231101481ADDGF108991081001999999071999MD1210251+9999REMSYN060AAXX  02181 31594 42962 82503 10031 21023 40148 52025 8807/;
0112315940999992000110221004+49420+130070FM-12+013599999V0209999C000012200019N0100001N1+00041-00231101731ADDGF103991001001999999001011MD1210231+9999REMSYN060AAXX  02211 31594 42960 30000 10004 21023 40173 52023 80001;
0224315940999992000110300004+49420+130070FM-12+013599999V0209999C000010081019N0100001N1+00101-00131101921ADDAA199000091GA1071+008109099GF108991999071008001051999KA1120N-00011MA1999999100241MD1210201+9999REMSYN082AAXX  03001 31594 32597 80000 10010 21013 30024 40192 52020 8875/ 333 21001 87927;EQDQ01+000082SCOTLCQ02  00002PRCP99
0112315940999992000110303004+49420+130070FM-12+013599999V0202701N003010360019N0100001N1+00381-00251102091ADDGF108991011091012501071999MD1210171+9999REMSYN060AAXX  03031 31594 42697 82703 10038 21025 40209 52017 8197/;
0112315940999992000110306004+49420+130070FM-12+013599999V0201301N002019999999N0500001N1+00511-00211102131ADDGF107991001001999999001011MD1210051+9999REMSYN060AAXX  03061 31594 42999 71302 10051 21021 40213 52005 80001;
0140315940999992000110309004+49420+130070FM-12+013599999V0209999C000012200019N0050001N1+00181-00231102301ADDAY101031AY201031GF101991001001999999001011MD1210151+9999MW1041REMSYN066AAXX  03091 31594 41950 10000 10018 21023 40230 52015 70400 80001;
0186315940999992000110312004+49420+130070FM-12+013599999V0201101N001019999999N0140001N1+00151-00231102231ADDAA199000091GF108991081001999999011999KA1999M+00571MA1999999100541MD1810071+9999REMSYN076AAXX  03121 31594 32964 81101 10015 21023 30054 40223 58007 8801/ 333 10057;EQDQ01  00002PRCP99
0112315940999992000110315004+49420+130070FM-12+013599999V0201001N002019999999N0160001N1+00231-00201102051ADDGF108991081001999999011999MD1710181+9999REMSYN060AAXX  03151 31594 42966 81002 10023 21020 40205 57018 8801/;
0112315940999992000110318004+49420+130070FM-12+013599999V0200901N002019999999N0200001N1+00211-00221101801ADDGF108991081001999999011999MD1710241+9999REMSYN060AAXX  03181 31594 42970 80902 10021 21022 40180 57024 8801/;
0112315940999992000110321004+49420+130070FM-12+013599999V0201001N004019999999N0180001N1+00361-00301101571ADDGF108991081001999999021999MD1710221+9999REMSYN060AAXX  03211 31594 42968 81004 10036 21030 40157 57022 8802/;
0192315940999992000110400004+49420+130070FM-12+013599999V0201401N004019999999N0200001N1+00411-00241101341ADDAA199000091GF108991081001999999021999KA1120N+00141MA1999999099681MD1710221+9999REMSYN082AAXX  04001 31594 32998 81404 10041 21024 39968 40134 57022 8802/ 333 20014 91110;EQDQ01  00002PRCP99
0141315940999992000110403004+49420+130070FM-12+013599999V0201301N005019999999N0200001N1+00461-00311100811ADDGF108991081001999999021999MD1810522+9999REMSYN070AAXX  04031 31594 42998 81305 10046 21031 40081 58052 8802/ 333 91111;EQDQ01+000522APC3  
0122315940999992000110406004+49420+130070FM-12+013599999V0201101N006019999999N0200001N1+00531-00181100331ADDGF108991051001999999051011MD1710471+9999REMSYN070AAXX  04061 31594 42998 81106 10053 21018 40033 57047 85051 333 91111;
0122315940999992000110409004+49420+130070FM-12+013599999V0201401N004019999999N0180001N1+00511-00081100011ADDGF108991051001999999051011MD1710321+9999REMSYN070AAXX  04091 31594 42968 81404 10051 21008 40001 57032 85051 333 91110;
0229315940999992000110412004+49420+130070FM-12+013599999V0201401N004010096019N0120001N1+00321+00271100171ADDAA112000391AY181061AY221061GA1061+009609099GF108991061091008001051999KA1120M+00531MA1999999098521MD1310151+9999MW1251REMSYN100AAXX  04121 31594 11562 81404 10032 20027 39852 40017 53015 69932 72582 8695/ 333 10053 86932 91111;
0112315940999992000110415004+49420+130070FM-12+013599999V0201701N003012200019N0150001N1+00141+00001100111ADDGF102991001001999999001011MD1810071+9999REMSYN060AAXX  04151 31594 42965 21703 10014 20000 40011 58007 80001;
0112315940999992000110418004+49420+130070FM-12+013599999V0201801N005012200019N0170001N1+00031-00241100121ADDGF103991031001999999031001MD1410001+9999REMSYN060AAXX  04181 31594 42967 31805 10003 21024 40012 54000 83030;
0112315940999992000110421004+49420+130070FM-12+013599999V0201801N005019999999N0160001N1-00021-00331100131ADDGF106991021001999999031011MD1310011+9999REMSYN060AAXX  04211 31594 42966 61805 11002 21033 40013 53001 82031;
0167315940999992000110500004+49420+130070FM-12+013599999V0201801N003010360019N0200001N1+00051-00531100221ADDAA199000021GF108991021051012501011999KA1999N-00081MA1999999098551MD1210091+9999REMSYN076AAXX  05001 31594 32698 81803 10005 21053 39855 40022 52009 8251/ 333 21008;
0112315940999992000110503004+49420+130070FM-12+013599999V0201801N005012200019N0200001N1+00271-00751100201ADDGF108991031091008001001011MD1510011+9999REMSYN060AAXX  05031 31594 42598 81805 10027 21075 40020 55001 83901;
0144315940999992000110506004+49420+130070FM-12+013599999V0202301N005010075019N0500001N1+00231-01021100351ADDGA1061+007509059GF108991061091008001071999MD1210151+9999REMSYN076AAXX  05061 31594 42599 82305 10023 21102 40035 52015 8697/ 333 86525 91110;
0112315940999992000110509004+49420+130070FM-12+013599999V0202501N004010360019N0350001N1+00041-00851100751ADDGF108991021091008001071999MD1210351+9999REMSYN060AAXX  05091 31594 42581 82504 10004 21085 40075 52035 8297/;
0196315940999992000110512004+49420+130070FM-12+013599999V0202001N001012200019N0300001N1-00231-00951100941ADDAA199000091GA1001+999999999GF100991001001999999001001KA1999M+00311MA1999999099231MD1210191+9999REMSYN070AAXX  05121 31594 32980 02001 11023 21095 39923 40094 52019 333 10031;EQDQ01  00002PRCP99
0112315940999992000110515004+49420+130070FM-12+013599999V0202301N001012200019N0260001N1-00411-00911101061ADDGF103991001001999999001011MD1210111+9999REMSYN060AAXX  05151 31594 42976 32301 11041 21091 40106 52011 80001;
0112315940999992000110518004+49420+130070FM-12+013599999V0201801N003012200019N0230001N1-00461-00981101181ADDGF102991001001999999001011MD1210121+9999REMSYN060AAXX  05181 31594 42973 21803 11046 21098 40118 52012 80001;
0122315940999992000110521004+49420+130070FM-12+013599999V0201401N001012200019N0200001N1-00551-01011101251ADDGA1001+999999999GF100991001001999999001001MD1210071+9999REMSYN054AAXX  05211 31594 42970 01401 11055 21101 40125 52007;
0196315940999992000110600004+49420+130070FM-12+013599999V0201401N002012200019N0100001N1-00501-00951101381ADDAA199000091GA1001+999999999GF100991001001999999001001KA1999N-00721MA1999999099651MD1210121+9999REMSYN070AAXX  06001 31594 32997 01402 11050 21095 39965 40138 52012 333 21072;EQDQ01  00002PRCP99
0112315940999992000110603004+49420+130070FM-12+013599999V0201801N002019999999N0100001N1+00071-00751101311ADDGF106991001001999999001011MD1810021+9999REMSYN060AAXX  06031 31594 42997 61802 10007 21075 40131 58002 80001;
0112315940999992000110606004+49420+130070FM-12+013599999V0201301N002019999999N0100001N1+00111-01191101231ADDGF108991001001999999001011MD1710081+9999REMSYN060AAXX  06061 31594 42997 81302 10011 21119 40123 57008 80001;
0112315940999992000110609004+49420+130070FM-12+013599999V0201601N001012200019N0350001N1-00161-01051101211ADDGF103991001001999999001011MD1710041+9999REMSYN060AAXX  06091 31594 42981 31601 11016 21105 40121 57004 80001;
0186315940999992000110612004+49420+130070FM-12+013599999V0202001N001012200019N0300001N1-00391-00911101261ADDAA199000091GF102991021051012501001001KA1999M+00181MA1999999099541MD1310031+9999REMSYN076AAXX  06121 31594 32680 22001 11039 21091 39954 40126 53003 82500 333 10018;EQDQ01  00002PRCP99
0112315940999992000110615004+49420+130070FM-12+013599999V0202701N001019999999N0260001N1-00501-00951101221ADDGF108991021001999999051011MD1810051+9999REMSYN060AAXX  06151 31594 42976 82701 11050 21095 40122 58005 82051;
0112315940999992000110618004+49420+130070FM-12+013599999V0209999C000019999999N0230001N1-00701-00951101201ADDGF108991001001999999001031MD1710011+9999REMSYN060AAXX  06181 31594 42973 80000 11070 21095 40120 57001 80003;
0131315940999992000110621004+49420+130070FM-12+013599999V0201401N001019999999N0200001N1-00581-00971101141ADDGF107991999001999999071999MD1710071+9999REMSYN060AAXX  06211 31594 42970 71401 11058 21097 40114 57007 8807/;EQDQ01+000082SCOTLC
0186315940999992000110700004+49420+130070FM-12+013599999V0202201N004019999999N0100001N1-00651-00971101021ADDAA199000091GF107991071001999999051999KA1999N-00721MA1999999099291MD1610101+9999REMSYN076AAXX  07001 31594 32997 72204 11065 21097 39929 40102 56010 8705/ 333 21072;EQDQ01  00002PRCP99
0112315940999992000110703004+49420+130070FM-12+013599999V0203201N004010360019N0200001N1-00471-01191101001ADDGF108991031041012501051011MD1810011+9999REMSYN060AAXX  07031 31594 42698 83204 11047 21119 40100 58001 83451;
0166315940999992000110706004+49420+130070FM-12+013599999V0202701N004010093019N0040001N1-00481-01011101071ADDAY181061AY221061GA1051+009309099GF108991051091008001051999MD1310061+9999MW1851REMSYN076AAXX  07061 31594 41596 82704 11048 21101 40107 53006 78582 8595/ 333 85931;
0140315940999992000110709004+49420+130070FM-12+013599999V0202801N002010360019N0050001N1-00571-00871101231ADDAY181031AY221031GF108991041091008001051999MD1210161+9999MW1851REMSYN066AAXX  07091 31594 41550 82802 11057 21087 40123 52016 78582 8495/;
0223315940999992000110712004+49420+130070FM-12+013599999V0202601N002010099019N0050001N1-00761-00811101281ADDAA112000791AY181061AY221061GA1061+009909099GF108991061091012501031999KA1120M-00441MA1999999099541MD1210041+9999MW1851REMSYN094AAXX  07121 31594 11650 82602 11076 21081 39954 40128 52004 69902 78582 8693/ 333 11044 86933;
0166315940999992000110715004+49420+130070FM-12+013599999V0202601N005010069019N0038001N1-00741-00831101391ADDAY181031AY231031GA1081+006909099GF108991081091008001999999MD1210111+9999MW1851REMSYN076AAXX  07151 31594 41538 82605 11074 21083 40139 52011 78583 889// 333 88923;
0172315940999992000110718004+49420+130070FM-12+013599999V0202701N008010090019N0500001N1-00881-00951101571ADDAY181061AY231061GA1081+009009099GF108991081091008001999999MD1210171+9999MW1861REMSYN082AAXX  07181 31594 41599 82708 11088 21095 40157 52017 78683 889// 333 88930 91111;
0172315940999992000110721004+49420+130070FM-12+013599999V0202901N007010108019N0500001N1-01081-01221101831ADDAY181031AY231031GA1081+010809099GF108991081091004501999999MD1210311+9999MW1861REMSYN082AAXX  07211 31594 41499 82907 11108 21122 40183 52031 78683 889// 333 88936 91111;
0258315940999992000110800004+49420+130070FM-12+013599999V0202801N004010057019N0020001N1-01141-01341102081ADDAA112002091AJ100069199999999AY181061AY231061GA1081+005709099GF108991081091008001999999IA1239KA1120N-01141MA1999999100301MD1210171+9999MW1851REMSYN106AAXX  08001 31594 11595 82804 11114 21134 30030 40208 52017 60022 78583 889// 333 21114 47006 88919 91111;
0140315940999992000110806004+49420+130070FM-12+013599999V0202701N004010360019N0100001N1-01051-01411102151ADDAY181061AY231061GF108991021091008001051999MD1410001+9999MW1021REMSYN066AAXX  08061 31594 41597 82704 11105 21141 40215 54000 70283 8295/;
0166315940999992000110809004+49420+130070FM-12+013599999V0202801N002010072019N0037001N1-01151-01351102331ADDAY181031AY221031GA1081+007209099GF108991081091008001999999MD1310171+9999MW1851REMSYN076AAXX  08091 31594 41537 82802 11115 21135 40233 53017 78582 889// 333 88924;
0223315940999992000110812004+49420+130070FM-12+013599999V0202901N003010078019N0036001N1-01211-01341102391ADDAA112000191AY181061AY221061GA1051+007809099GF108991051091008001051999KA1120M-00741MA1999999100501MD1210051+9999MW1851REMSYN094AAXX  08121 31594 11536 82903 11121 21134 30050 40239 52005 69922 78582 8595/ 333 11074 85926;
0150315940999992000110815004+49420+130070FM-12+013599999V0202701N001012200019N0230001N1-01511-01601102431ADDAY181031AY211031GA1001+999999999GF100991001001999999001001MD1310021+9999MW1021REMSYN060AAXX  08151 31594 41973 02701 11151 21160 40243 53002 70281;
0150315940999992000110818004+49420+130070FM-12+013599999V0203101N001012200019N0250001N1-01921-01981102451ADDAY181061AY211061GA1001+999999999GF100991001001999999001001MD1810011+9999MW1021REMSYN060AAXX  08181 31594 41975 03101 11192 21198 40245 58001 70281;
0122315940999992000110821004+49420+130070FM-12+013599999V0203201N001012200019N0220001N1-02171-02291102491ADDGA1001+999999999GF100991001001999999001001MD1310021+9999REMSYN054AAXX  08211 31594 42972 03201 11217 21229 40249 53002;
0212315940999992000110900004+49420+130070FM-12+013599999V0203201N001012200019N0200001N1-02001-02121102531ADDAA100000791AJ100049199999999GA1001+999999999GF100991001001999999001001IA1239KA1120N-02271MA1999999100691MD1210061+9999REMSYN082AAXX  09001 31594 12998 03201 11200 21212 30069 40253 52006 69900 333 21227 47004;
0122315940999992000110903004+49420+130070FM-12+013599999V0202801N004012200019N0500001N1-01361-01891102541ADDGA1001+999999999GF100991001001999999001001MD1210041+9999REMSYN054AAXX  09031 31594 42999 02804 11136 21189 40254 52004;
0122315940999992000110906004+49420+130070FM-12+013599999V0202701N005012200019N0500001N1-01111-01841102461ADDGA1001+999999999GF100991001001999999001001MD1810051+9999REMSYN054AAXX  09061 31594 42999 02705 11111 21184 40246 58005;
0122315940999992000110909004+49420+130070FM-12+013599999V0202801N002012200019N0350001N1-01461-01971102621ADDGA1001+999999999GF100991001001999999001001MD1310121+9999REMSYN054AAXX  09091 31594 42981 02802 11146 21197 40262 53012;
0196315940999992000110912004+49420+130070FM-12+013599999V0209999C000012200019N0300001N1-01661-02921102701ADDAA199000091GA1001+999999999GF100991001001999999001001KA1999M-01081MA1999999100871MD1210071+9999REMSYN070AAXX  09121 31594 32980 00000 11166 21292 30087 40270 52007 333 11108;EQDQ01  00002PRCP99
0122315940999992000110915004+49420+130070FM-12+013599999V0209999C000012200019N0250001N1-01851-02041102761ADDGA1001+999999999GF100991001001999999001001MD1210051+9999REMSYN054AAXX  09151 31594 42975 00000 11185 21204 40276 52005;
0122315940999992000110918004+49420+130070FM-12+013599999V0203101N001012200019N0190001N1-01891-02081102801ADDGA1001+999999999GF100991001001999999001001MD1210031+9999REMSYN054AAXX  09181 31594 42969 03101 11189 21208 40280 52003;
0122315940999992000110921004+49420+130070FM-12+013599999V0203201N001012200019N0170001N1-02231-02341102841ADDGA1001+999999999GF100991001001999999001001MD1210021+9999REMSYN054AAXX  09211 31594 42967 03201 11223 21234 40284 52002;
0177315940999992000111000004+49420+130070FM-12+013599999V0203201N001012200019N0100001N1-02001-02121102861ADDAA199000091GA1001+999999999GF100991001001999999001001MA1999999101011MD1210041+9999REMSYN064AAXX  10001 31594 32997 03201 11200 21212 30101 40286 52004 333;EQDQ01  00002PRCP99
0112315940999992000111003004+49420+130070FM-12+013599999V0201001N001012200019N0200001N1-01231-01661102701ADDGF103991001001999999001011MD1810111+9999REMSYN060AAXX  10031 31594 42998 31001 11123 21166 40270 58011 80001;
0122315940999992000111006004+49420+130070FM-12+013599999V0202801N001012200019N0500001N1-00951-01781102541ADDGA1001+999999999GF100991001001999999001001MD1710141+9999REMSYN054AAXX  10061 31594 42999 02801 11095 21178 40254 57014;
0122315940999992000111009004+49420+130070FM-12+013599999V0202701N001012200019N0240001N1-01321-01931102571ADDGA1001+999999999GF100991001001999999001001MD1410001+9999REMSYN054AAXX  10091 31594 42974 02701 11132 21193 40257 54000;
0196315940999992000111012004+49420+130070FM-12+013599999V0203201N001012200019N0220001N1-01571-02091102591ADDAA199000091GA1001+999999999GF100991001001999999001001KA1999M-00901MA1999999100761MD1410001+9999REMSYN070AAXX  10121 31594 32972 03201 11157 21209 30076 40259 54000 333 11090;EQDQ01  00002PRCP99
0122315940999992000111015004+49420+130070FM-12+013599999V0209999C000012200019N0260001N1-01921-02251102621ADDGA1001+999999999GF100991001001999999001001MD1310011+9999REMSYN054AAXX  10151 31594 42976 00000 11192 21225 40262 53001;
0122315940999992000111018004+49420+130070FM-12+013599999V0209999C000012200019N0240001N1-02071-02321102541ADDGA1001+999999999GF100991001001999999001001MD1810081+9999REMSYN054AAXX  10181 31594 42974 00000 11207 21232 40254 58008;
0122315940999992000111021004+49420+130070FM-12+013599999V0201401N002012200019N0190001N1-01801-01991102431ADDGA1001+999999999GF100991001001999999001001MD1710091+9999REMSYN054AAXX  10211 31594 42969 01402 11180 21199 40243 57009;
0225315940999992000111100004+49420+130070FM-12+013599999V0201001N002012200019N0200001N1-01561-01831102351ADDAA199000091AJ100039199999999GA1001+999999999GF100991001001999999001001IA1239KA1120N-02221MA1999999100541MD1710061+9999REMSYN076AAXX  11001 31594 32998 01002 11156 21183 30054 40235 57006 333 21222 47003;EQDQ01  00002PRCP99
0122315940999992000111103004+49420+130070FM-12+013599999V0201401N001012200019N0200001N1-00951-01531102191ADDGA1001+999999999GF100991001001999999001001MD1710121+9999REMSYN054AAXX  11031 31594 42998 01401 11095 21153 40219 57012;
0112315940999992000111106004+49420+130070FM-12+013599999V0201401N001012200019N0500001N1-00641-01461102021ADDGF101991001001999999001091MD1710141+9999REMSYN060AAXX  11061 31594 42999 11401 11064 21146 40202 57014 80009;
0112315940999992000111109004+49420+130070FM-12+013599999V0209999C000019999999N0300001N1-00871-01461102021ADDGF105991031001999999031011MD1810031+9999REMSYN060AAXX  11091 31594 42980 50000 11087 21146 40202 58003 83031;
0186315940999992000111112004+49420+130070FM-12+013599999V0201501N001010360019N0280001N1-00891-01331101991ADDAA199000091GF108991021051012501051011KA1999M-00541MA1999999100231MD1710021+9999REMSYN076AAXX  11121 31594 32678 81501 11089 21133 30023 40199 57002 82551 333 11054;EQDQ01  00002PRCP99
0140315940999992000111118004+49420+130070FM-12+013599999V0201401N002019999999N0150001N1-00971-01281101711ADDAY171061AY281061GF108991001001999999001011MD1710121+9999MW1711REMSYN066AAXX  11181 31594 42965 81402 11097 21128 40171 57012 77178 80001;
0140315940999992000111121004+49420+130070FM-12+013599999V0201501N001019999999N0024001N1-00931-01001101541ADDAY171031AY221031GF108991081001999999011999MD1710171+9999MW1731REMSYN066AAXX  11211 31594 41924 81501 11093 21100 40154 57017 77372 8801/;
0230315940999992000111200004+49420+130070FM-12+013599999V0209999C000019999999N0100001N1-01061-01121101531ADDAA100000591AJ100039199999999AY171061AY221061GF108991001001999999001011IA1239KA1120N-01071MA1999999099771MD1710011+9999MW1021REMSYN094AAXX  12001 31594 11997 80000 11106 21112 39977 40153 57001 69940 70272 80001 333 21107 47003;
0112315940999992000111203004+49420+130070FM-12+013599999V0202601N003019999999N0100001N1-00881-01261101471ADDGF108991001001999999001011MD1710051+9999REMSYN060AAXX  12031 31594 42997 82603 11088 21126 40147 57005 80001;
0112315940999992000111206004+49420+130070FM-12+013599999V0202701N003012200019N0200001N1-00811-01271101461ADDGF106991031051008001001011MD1410001+9999REMSYN060AAXX  12061 31594 42598 62703 11081 21127 40146 54000 83501;
0112315940999992000111209004+49420+130070FM-12+013599999V0209999C000012200019N0180001N1-01031-01391101601ADDGF102991021051008001001001MD1310121+9999REMSYN060AAXX  12091 31594 42568 20000 11103 21139 40160 53012 82500;
0196315940999992000111212004+49420+130070FM-12+013599999V0203401N001012200019N0500001N1-01271+99999101771ADDAA199000091GA1001+999999999GF100991001001999999001001KA1999M-00681MA1999999099981MD1210141+9999REMSYN070AAXX  12121 31594 32699 03401 11127 21/47 39998 40177 52014 333 11068;EQDQ01  00002PRCP99
0138315940999992000111215004+49420+130070FM-12+013599999V0209999C000010129019N0180001N1-01291-01451101861ADDGA1061+012909059GF108991061051012501051999MD1110091+9999REMSYN070AAXX  12151 31594 42668 80000 11129 21145 40186 51009 8655/ 333 86643;
0112315940999992000111218004+49420+130070FM-12+013599999V0201001N001012200019N0150001N1-01291-01491101861ADDGF101991001001999999001011MD1410001+9999REMSYN060AAXX  12181 31594 42965 11001 11129 21149 40186 54000 80001;
0112315940999992000111221004+49420+130070FM-12+013599999V0201001N002012200019N0170001N1-01331-01461101881ADDGF101991001001999999001011MD1110021+9999REMSYN060AAXX  12211 31594 42967 11002 11133 21146 40188 51002 80001;
0215315940999992000111300004+49420+130070FM-12+013599999V0201401N002019999999N0200001N1-01081-01211101891ADDAA199000091AJ100039199999999GF106991061001999999051001IA1239KA1120N-01831MA1999999100121MD1210031+9999REMSYN082AAXX  13001 31594 32998 61402 11108 21121 30012 40189 52003 86050 333 21183 47003;EQDQ01  00002PRCP99
0112315940999992000111303004+49420+130070FM-12+013599999V0201301N004012200019N0200001N1-00511-01051101831ADDGF102991021001999999031001MD1810031+9999REMSYN060AAXX  13031 31594 42998 21304 11051 21105 40183 58003 82030;
0112315940999992000111306004+49420+130070FM-12+013599999V0201401N002019999999N0100001N1-00251-01081101701ADDGF107991001001999999001091MD1710101+9999REMSYN060AAXX  13061 31594 42997 71402 11025 21108 40170 57010 80009;
0112315940999992000111309004+49420+130070FM-12+013599999V0201401N001012200019N0170001N1-00491-01071101821ADDGF103991001001999999001011MD1310091+9999REMSYN060AAXX  13091 31594 42967 31401 11049 21107 40182 53009 80001;
0196315940999992000111312004+49420+130070FM-12+013599999V0209999C000012200019N0120001N1-01041-01241101931ADDAA199000091GA1001+999999999GF100991001001999999001001KA1999M-00191MA1999999100171MD1210091+9999REMSYN070AAXX  13121 31594 32962 00000 11104 21124 30017 40193 52009 333 11019;EQDQ01  00002PRCP99
0112315940999992000111318004+49420+130070FM-12+013599999V0201401N001019999999N0140001N1-00731-01071101941ADDGF108991001001999999001071MD1810051+9999REMSYN060AAXX  13181 31594 42964 81401 11073 21107 40194 58005 80007;
0112315940999992000111321004+49420+130070FM-12+013599999V0201101N001019999999N0120001N1-00691-01111101851ADDGF108991081001999999021999MD1710081+9999REMSYN060AAXX  13211 31594 42962 81101 11069 21111 40185 57008 8802/;
0215315940999992000111400004+49420+130070FM-12+013599999V0201001N001019999999N0100001N1-00671-01131101751ADDAA199000091AJ100039199999999GF108991081001999999011999IA1239KA1120N-01271MA1999999100021MD1710091+9999REMSYN082AAXX  14001 31594 32997 81001 11067 21113 30002 40175 57009 8801/ 333 21127 47003;EQDQ01  00002PRCP99
0112315940999992000111403004+49420+130070FM-12+013599999V0200901N001019999999N0100001N1-00381-01001101501ADDGF108991081001999999021999MD1710251+9999REMSYN060AAXX  14031 31594 42997 80901 11038 21100 40150 57025 8802/;
0140315940999992000111406004+49420+130070FM-12+013599999V0200701N002019999999N0020001N1-00451-00511101341ADDAY171061AY221061GF108991081001999999021999MD1710151+9999MW1731REMSYN066AAXX  14061 31594 41995 80702 11045 21051 40134 57015 77372 8802/;
0140315940999992000111409004+49420+130070FM-12+013599999V0203301N004019999999N0020001N1-00491-00551101611ADDAY171031AY221031GF108991081001999999021999MD1310251+9999MW1731REMSYN066AAXX  14091 31594 41920 83304 11049 21055 40161 53025 77372 8802/;
0207315940999992000111412004+49420+130070FM-12+013599999V0203201N005019999999N0044001N1-00771-00921101911ADDAA112006191AY171061AY231061GF108991081001999999021999KA1120M-00351MA1999999100001MD1210291+9999MW1711REMSYN094AAXX  14121 31594 11944 83205 11077 21092 30000 40191 52029 60062 77173 8802/ 333 11035 91110;
0140315940999992000111415004+49420+130070FM-12+013599999V0203601N004019999999N0050001N1-01021-01151102241ADDAY171031AY231031GF108991001001999999001071MD1210311+9999MW1711REMSYN066AAXX  14151 31594 41950 83604 11102 21115 40224 52031 77173 80007;
0140315940999992000111418004+49420+130070FM-12+013599999V0203401N003019999999N0180001N1-01181-01311102441ADDAY171061AY231061GF108991001001999999001011MD1210181+9999MW1021REMSYN066AAXX  14181 31594 41968 83403 11118 21131 40244 52018 70273 80001;
0112315940999992000111421004+49420+130070FM-12+013599999V0202601N002019999999N0220001N1-01781-01961102601ADDGF108991001001999999001071MD1210111+9999REMSYN060AAXX  14211 31594 42972 82602 11178 21196 40260 52011 80007;
0202315940999992000111500004+49420+130070FM-12+013599999V0203201N003012200019N0200001N1-02001-02121103011ADDAA112000191AJ100109199999999GF101991001001999999001011IA1239KA1120N-02171MA1999999101161MD1210401+9999REMSYN088AAXX  15001 31594 12998 13203 11200 21212 30116 40301 52040 69922 80001 333 21217 47010;
0122315940999992000111503004+49420+130070FM-12+013599999V0203001N004012200019N0500001N1-01441-01851103141ADDGA1001+999999999GF100991001001999999001001MD1210161+9999REMSYN054AAXX  15031 31594 42999 03004 11144 21185 40314 52016;
0167315940999992000111506004+49420+130070FM-12+013599999V0203201N006012200019N0200001N1-01131-01971103211ADDAY131061AY201061GF101991011011012501001001MD1110091+9999MW1361OA140101001REMSYN082AAXX  15061 31594 41698 13206 11113 21197 40321 51009 73630 81100 333 91010 91111;
0140315940999992000111509004+49420+130070FM-12+013599999V0203101N001012200019N0270001N1-01581-02181103411ADDAY131031AY201031GF103991031001999999031001MD1310171+9999MW1021REMSYN066AAXX  15091 31594 41977 33101 11158 21218 40341 53017 70230 83030;
0214315940999992000111512004+49420+130070FM-12+013599999V0203301N001012200019N0260001N1-01981-02311103581ADDAA199000091AY131061AY201061GF102991001001999999001011KA1999M-01051MA1999999101731MD1210141+9999MW1021REMSYN082AAXX  15121 31594 31976 23301 11198 21231 30173 40358 52014 70230 80001 333 11105;EQDQ01  00002PRCP99
0122315940999992000111515004+49420+130070FM-12+013599999V0209999C000012200019N0240001N1-02181-02361103751ADDGA1001+999999999GF100991001001999999001001MD1210141+9999REMSYN054AAXX  15151 31594 42974 00000 11218 21236 40375 52014;
0122315940999992000111518004+49420+130070FM-12+013599999V0203201N001012200019N0230001N1-02261-02441103871ADDGA1001+999999999GF100991001001999999001001MD1210111+9999REMSYN054AAXX  15181 31594 42973 03201 11226 21244 40387 52011;
0122315940999992000111521004+49420+130070FM-12+013599999V0209999C000012200019N0210001N1-02401-02581103801ADDGA1001+999999999GF100991001001999999001001MD1210011+9999REMSYN054AAXX  15211 31594 42971 00000 11240 21258 40380 52001;
0225315940999992000111600004+49420+130070FM-12+013599999V0209999C000012200019N0100001N1-02601-02771103891ADDAA199000091AJ100099199999999GA1001+999999999GF100991001001999999001001IA1239KA1120N-02841MA1999999101971MD1410001+9999REMSYN076AAXX  16001 31594 32997 00000 11260 21277 30197 40389 54000 333 21284 47009;EQDQ01  00002PRCP99
0112315940999992000111603004+49420+130070FM-12+013599999V0203201N002012200019N0500001N1-01651-02151103791ADDGF103991001001999999001011MD1810021+9999REMSYN060AAXX  16031 31594 42999 33202 11165 21215 40379 58002 80001;
0112315940999992000111606004+49420+130070FM-12+013599999V0203201N002019999999N0200001N1-01441-02151103621ADDGF105991001001999999001011MD1710161+9999REMSYN060AAXX  16061 31594 42998 53202 11144 21215 40362 57016 80001;
0112315940999992000111609004+49420+130070FM-12+013599999V0203401N001012200019N0220001N1-01731-02231103561ADDGF103991011001999999041011MD1710071+9999REMSYN060AAXX  16091 31594 42972 33401 11173 21223 40356 57007 81041;
0196315940999992000111612004+49420+130070FM-12+013599999V0209999C000012200019N0240001N1-02291-02481103481ADDAA199000091GA1001+999999999GF100991001001999999001001KA1999M-01391MA1999999101591MD1810151+9999REMSYN070AAXX  16121 31594 32974 00000 11229 21248 30159 40348 58015 333 11139;EQDQ01  00002PRCP99
0122315940999992000111615004+49420+130070FM-12+013599999V0209999C000012200019N0200001N1-02551-02671103391ADDGA1001+999999999GF100991001001999999001001MD1810101+9999REMSYN054AAXX  16151 31594 42970 00000 11255 21267 40339 58010;
0112315940999992000111618004+49420+130070FM-12+013599999V0203201N001019999999N0180001N1-02231-02411103281ADDGF108991001001999999001071MD1610091+9999REMSYN060AAXX  16181 31594 42968 83201 11223 21241 40328 56009 80007;
0112315940999992000111621004+49420+130070FM-12+013599999V0203201N001019999999N0160001N1-02641-02761103231ADDGF108991001001999999001071MD1710081+9999REMSYN060AAXX  16211 31594 42966 83201 11264 21276 40323 57008 80007;
0225315940999992000111700004+49420+130070FM-12+013599999V0202901N001012200019N0100001N1-02591-02771103231ADDAA199000091AJ100089199999999GA1001+999999999GF100991001001999999001001IA1239KA1120N-02731MA1999999101321MD1410001+9999REMSYN076AAXX  17001 31594 32997 02901 11259 21277 30132 40323 54000 333 21273 47008;EQDQ01  00002PRCP99
0122315940999992000111703004+49420+130070FM-12+013599999V0202801N002012200019N0200001N1-01861-02351103111ADDGA1001+999999999GF100991001001999999001001MD1810071+9999REMSYN054AAXX  17031 31594 42998 02802 11186 21235 40311 58007;
0112315940999992000111706004+49420+130070FM-12+013599999V0202701N002012200019N0200001N1-01671-02261102901ADDGF102991001001999999001011MD1710191+9999REMSYN060AAXX  17061 31594 42998 22702 11167 21226 40290 57019 80001;
0122315940999992000111709004+49420+130070FM-12+013599999V0209999C000012200019N0190001N1-01831-02421102831ADDGA1001+999999999GF100991001001999999001001MD1710071+9999REMSYN054AAXX  17091 31594 42969 00000 11183 21242 40283 57007;
0175315940999992000111712004+49420+130070FM-12+013599999V0209999C000012200019N0210001N1-02221-02471103011ADDAA199000091GA1001+999999999GF100991001001999999001001KA1999M-01621MD1310051+9999REMSYN064AAXX  17121 31594 32971 00000 11222 21247 40301 53005 333 11162;EQDQ01  00002PRCP99
0122315940999992000111715004+49420+130070FM-12+013599999V0203101N001012200019N0190001N1-02481-02661102901ADDGA1001+999999999GF100991001001999999001001MD1810031+9999REMSYN054AAXX  17151 31594 42969 03101 11248 21266 40290 58003;
0122315940999992000111718004+49420+130070FM-12+013599999V0203201N001012200019N0170001N1-02611-02791102901ADDGA1001+999999999GF100991001001999999001001MD1610011+9999REMSYN054AAXX  17181 31594 42967 03201 11261 21279 40290 56001;
0122315940999992000111721004+49420+130070FM-12+013599999V0203201N001012200019N0150001N1-02761-02931102951ADDGA1001+999999999GF100991001001999999001001MD1310031+9999REMSYN054AAXX  17211 31594 42965 03201 11276 21293 40295 53003;
0241315940999992000111800004+49420+130070FM-12+013599999V0203301N001012200019N0200001N1-02641-02821103602ADDAA199000091AJ100079199999999GA1001+999999999GF100991001001999999001001IA1239KA1120N-02801MA1999999101161MD1210131+9999REMSYN076AAXX  18001 31594 32998 03301 11264 21282 30116 40360 52013 333 21280 47007;EQDQ01+103603APOSLPQ02  00002PRCP99
0122315940999992000111803004+49420+130070FM-12+013599999V0202201N001012200019N0200001N1-01961-02291103021ADDGA1001+999999999GF100991001001999999001001MD1010011+9999REMSYN054AAXX  18031 31594 42998 02201 11196 21229 40302 50001;
0122315940999992000111806004+49420+130070FM-12+013599999V0202801N004012200019N0200001N1-01641-02141102971ADDGA1001+999999999GF100991001001999999001001MD1610021+9999REMSYN054AAXX  18061 31594 42998 02804 11164 21214 40297 56002;
0122315940999992000111809004+49420+130070FM-12+013599999V0202701N001012200019N0230001N1-01961-02371103161ADDGA1001+999999999GF100991001001999999001001MD1310151+9999REMSYN054AAXX  18091 31594 42973 02701 11196 21237 40316 53015;
0196315940999992000111812004+49420+130070FM-12+013599999V0209999C000012200019N0230001N1-02341-02591103281ADDAA199000091GA1001+999999999GF100991001001999999001001KA1999M-01571MA1999999101391MD1210091+9999REMSYN070AAXX  18121 31594 32973 00000 11234 21259 30139 40328 52009 333 11157;EQDQ01  00002PRCP99
0122315940999992000111815004+49420+130070FM-12+013599999V0209999C000012200019N0200001N1-02531-02701103351ADDGA1001+999999999GF100991001001999999001001MD1210061+9999REMSYN054AAXX  18151 31594 42970 00000 11253 21270 40335 52006;
0122315940999992000111818004+49420+130070FM-12+013599999V0209999C000012200019N0500001N1-02641-02821103461ADDGA1001+999999999GF100991001001999999001001MD1210101+9999REMSYN054AAXX  18181 31594 42999 00000 11264 21282 40346 52010;
0122315940999992000111821004+49420+130070FM-12+013599999V0203601N001012200019N0160001N1-02421-02601103461ADDGA1001+999999999GF100991001001999999001001MD1110011+9999REMSYN054AAXX  18211 31594 42966 03601 11242 21260 40346 51001;
0225315940999992000111900004+49420+130070FM-12+013599999V0209999C000012200019N0100001N1-02711-02881103561ADDAA199000091AJ100079199999999GA1001+999999999GF100991001001999999001001IA1239KA1120N-03081MA1999999101661MD1310201+9999REMSYN076AAXX  19001 31594 32997 00000 11271 21288 30166 40356 53020 333 21308 47007;EQDQ01  00002PRCP99
0112315940999992000111903004+49420+130070FM-12+013599999V0203601N001012200019N0200001N1-01881-02421103451ADDGF101991001001999999001011MD1810071+9999REMSYN060AAXX  19031 31594 42998 13601 11188 21242 40345 58007 80001;
0112315940999992000111906004+49420+130070FM-12+013599999V0209999C000012200019N0200001N1-01511-02111103331ADDGF101991001001999999001011MD1810091+9999REMSYN060AAXX  19061 31594 42998 10000 11151 21211 40333 58009 80001;
0122315940999992000111909004+49420+130070FM-12+013599999V0209999C000012200019N0300001N1-01911-02401103311ADDGA1001+999999999GF100991001001999999001001MD1610051+9999REMSYN054AAXX  19091 31594 42980 00000 11191 21240 40331 56005;
0196315940999992000111912004+49420+130070FM-12+013599999V0203601N001012200019N0290001N1-02031-02451103291ADDAA199000091GA1001+999999999GF100991001001999999001001KA1999M-01411MA1999999101431MD1810021+9999REMSYN070AAXX  19121 31594 32979 03601 11203 21245 30143 40329 58002 333 11141;EQDQ01  00002PRCP99
0122315940999992000111915004+49420+130070FM-12+013599999V0209999C000012200019N0220001N1-02571-02811103291ADDGA1001+999999999GF100991001001999999001001MD1710051+9999REMSYN054AAXX  19151 31594 42972 00000 11257 21281 40329 57005;
0122315940999992000111918004+49420+130070FM-12+013599999V0200901N001012200019N0180001N1-02821-03001103261ADDGA1001+999999999GF100991001001999999001001MD1710051+9999REMSYN054AAXX  19181 31594 42968 00901 11282 21300 40326 57005;
0112315940999992000111921004+49420+130070FM-12+013599999V0209999C000019999999N0140001N1-02701-02881103131ADDGF106991001001999999001011MD1710111+9999REMSYN060AAXX  19211 31594 42964 60000 11270 21288 40313 57011 80001;
0215315940999992000112000004+49420+130070FM-12+013599999V0209999C000019999999N0100001N1-02681-02861103061ADDAA199000091AJ100079199999999GF108991001001999999001011IA1239KA1120N-02851MA1999999101151MD1710071+9999REMSYN082AAXX  20001 31594 32997 80000 11268 21286 30115 40306 57007 80001 333 21285 47007;EQDQ01  00002PRCP99
0112315940999992000112003004+49420+130070FM-12+013599999V0201501N001012200019N0200001N1-02021-02351102911ADDGF103991001001999999001011MD1710091+9999REMSYN060AAXX  20031 31594 42998 31501 11202 21235 40291 57009 80001;
0122315940999992000112006004+49420+130070FM-12+013599999V0203001N002012200019N0500001N1-01631-02231102681ADDGA1001+999999999GF100991001001999999001001MD1710201+9999REMSYN054AAXX  20061 31594 42999 03002 11163 21223 40268 57020;
0122315940999992000112009004+49420+130070FM-12+013599999V0203201N001012200019N0300001N1-02011-02421102611ADDGA1001+999999999GF100991001001999999001001MD1710101+9999REMSYN054AAXX  20091 31594 42980 03201 11201 21242 40261 57010;
0196315940999992000112012004+49420+130070FM-12+013599999V0203601N001012200019N0270001N1-02241-02491102551ADDAA199000091GA1001+999999999GF100991001001999999001001KA1999M-01561MA1999999100691MD1810071+9999REMSYN070AAXX  20121 31594 32977 03601 11224 21249 30069 40255 58007 333 11156;EQDQ01  00002PRCP99
0122315940999992000112015004+49420+130070FM-12+013599999V0203601N001012200019N0220001N1-02761-02931102411ADDGA1001+999999999GF100991001001999999001001MD1710191+9999REMSYN054AAXX  20151 31594 42972 03601 11276 21293 40241 57019;
0122315940999992000112018004+49420+130070FM-12+013599999V0200101N001012200019N0200001N1-02751-02931102411ADDGA1001+999999999GF100991001001999999001001MD1310011+9999REMSYN054AAXX  20181 31594 42970 00101 11275 21293 40241 53001;
0122315940999992000112021004+49420+130070FM-12+013599999V0200101N001012200019N0170001N1-02861-03031102421ADDGA1001+999999999GF100991001001999999001001MD1810011+9999REMSYN054AAXX  20211 31594 42967 00101 11286 21303 40242 58001;
0215315940999992000112100004+49420+130070FM-12+013599999V0203401N001012200019N0100001N1-02721-02901102521ADDAA199000091AJ100079199999999GF102991001001999999001011IA1239KA1120N-02881MA1999999100621MD1310121+9999REMSYN082AAXX  21001 31594 32997 23401 11272 21290 30062 40252 53012 80001 333 21288 47007;EQDQ01  00002PRCP99
0112315940999992000112103004+49420+130070FM-12+013599999V0203201N002019999999N0200001N1-02151-02471102471ADDGF108991001001999999001011MD1410001+9999REMSYN060AAXX  21031 31594 42998 83202 11215 21247 40247 54000 80001;
0112315940999992000112106004+49420+130070FM-12+013599999V0202801N002019999999N0200001N1-01781-02281102451ADDGF108991001001999999001011MD1410001+9999REMSYN060AAXX  21061 31594 42998 82802 11178 21228 40245 54000 80001;
0122315940999992000112109004+49420+130070FM-12+013599999V0209999C000012200019N0220001N1-02081-02481102621ADDGA1001+999999999GF100991001001999999001001MD1310141+9999REMSYN054AAXX  21091 31594 42972 00000 11208 21248 40262 53014;
0196315940999992000112112004+49420+130070FM-12+013599999V0209999C000012200019N0170001N1-02541-02811102731ADDAA199000091GA1001+999999999GF100991001001999999001001KA1999M-01701MA1999999100831MD1210071+9999REMSYN070AAXX  21121 31594 32967 00000 11254 21281 30083 40273 52007 333 11170;EQDQ01  00002PRCP99
0122315940999992000112115004+49420+130070FM-12+013599999V0209999C000012200019N0170001N1-02691-02861102781ADDGA1001+999999999GF100991001001999999001001MD1710041+9999REMSYN054AAXX  21151 31594 42967 00000 11269 21286 40278 57004;
0122315940999992000112118004+49420+130070FM-12+013599999V0201401N002012200019N0150001N1-02331-02511102811ADDGA1001+999999999GF100991001001999999001001MD1210061+9999REMSYN054AAXX  21181 31594 42965 01402 11233 21251 40281 52006;
0122315940999992000112121004+49420+130070FM-12+013599999V0201301N001012200019N9999999N1-02561-02841102931ADDGA1001+999999999GF100991001001999999001001MD1210081+9999REMSYN054AAXX  21211 31594 42954 01301 11256 21284 40293 52008;
0215315940999992000112200004+49420+130070FM-12+013599999V0201101N001012200019N0100001N1-02341-02521102991ADDAA199000091AJ100079199999999GF102991001001999999001011IA1239KA1120N-02971MA1999999101111MD1210101+9999REMSYN082AAXX  22001 31594 32997 21101 11234 21252 30111 40299 52010 80001 333 21297 47007;EQDQ01  00002PRCP99
0112315940999992000112203004+49420+130070FM-12+013599999V0201001N001019999999N0200001N1-01891-02221102811ADDGF108991001001999999001011MD1810151+9999REMSYN060AAXX  22031 31594 42998 81001 11189 21222 40281 58015 80001;
0112315940999992000112206004+49420+130070FM-12+013599999V0200901N001019999999N0200001N1-01531-02041102551ADDGF108991001001999999001071MD1710251+9999REMSYN060AAXX  22061 31594 42998 80901 11153 21204 40255 57025 80007;
0112315940999992000112209004+49420+130070FM-12+013599999V0201001N002019999999N0190001N1-01451-01961102351ADDGF108991081001999999011999MD1610161+9999REMSYN060AAXX  22091 31594 42969 81002 11145 21196 40235 56016 8801/;
0186315940999992000112212004+49420+130070FM-12+013599999V0201101N002019999999N0200001N1-01431-02041102321ADDAA199000091GF108991001001999999001071KA1999M-01401MA1999999100521MD1610031+9999REMSYN076AAXX  22121 31594 32970 81102 11143 21204 30052 40232 56003 80007 333 11140;EQDQ01  00002PRCP99
0140315940999992000112215004+49420+130070FM-12+013599999V0200901N002019999999N0050001N1-01471-01811102211ADDAY171031AY221031GF108991081001999999011999MD1810121+9999MW1711REMSYN066AAXX  22151 31594 41950 80902 11147 21181 40221 58012 77172 8801/;
0140315940999992000112218004+49420+130070FM-12+013599999V0201001N003019999999N0047001N1-01491-01761102151ADDAY171061AY221061GF108991081001999999021999MD1710051+9999MW1711REMSYN066AAXX  22181 31594 41947 81003 11149 21176 40215 57005 77172 8802/;
0122315940999992000112221004+49420+130070FM-12+013599999V0200901N001012200019N0150001N1-02141-02251102291ADDGA1001+999999999GF100991001001999999001001MD1310091+9999REMSYN054AAXX  22211 31594 42965 00901 11214 21225 40229 53009;
0230315940999992000112300004+49420+130070FM-12+013599999V0200901N001019999999N0040001N1-02021-02141102371ADDAA112000191AJ100079199999999AY171061AY211061GF108991081001999999021999IA1239KA1120N-02431MA1999999100531MD1210091+9999MW1711REMSYN094AAXX  23001 31594 11996 80901 11202 21214 30053 40237 52009 69922 77171 8802/ 333 21243 47007;
0140315940999992000112303004+49420+130070FM-12+013599999V0209999C000019999999N0040001N1-01641-01831102351ADDAY171031AY221031GF108991081001999999011999MD1010011+9999MW1711REMSYN066AAXX  23031 31594 41996 80000 11164 21183 40235 50001 77172 8801/;
0140315940999992000112306004+49420+130070FM-12+013599999V0209999C000019999999N0200001N1-01231-01661102251ADDAY171061AY221061GF108991001001999999001071MD1510081+9999MW1021REMSYN066AAXX  23061 31594 41998 80000 11123 21166 40225 55008 70272 80007;
0166315940999992000112309004+49420+130070FM-12+013599999V0200901N001010099019N0040001N1-01701-01831102351ADDAY181031AY221031GA1061+009909099GF108991061091012501051999MD1210071+9999MW1851REMSYN076AAXX  23091 31594 41640 80901 11170 21183 40235 52007 78582 8695/ 333 86933;
0223315940999992000112312004+49420+130070FM-12+013599999V0202701N001010066019N0043001N1-01701-01831102501ADDAA112000191AY181061AY221061GA1081+006609099GF108991081091008001999999KA1120M-01191MA1999999100681MD1210151+9999MW1851REMSYN094AAXX  23121 31594 11543 82701 11170 21183 30068 40250 52015 69922 78582 889// 333 11119 88922;
0150315940999992000112315004+49420+130070FM-12+013599999V0203301N003012200019N0150001N1-02231-02411102661ADDAY181031AY211031GA1001+999999999GF100991001001999999001001MD1210111+9999MW1011REMSYN060AAXX  23151 31594 41965 03303 11223 21241 40266 52011 70181;
0150315940999992000112318004+49420+130070FM-12+013599999V0203201N001012200019N0160001N1-02541-02651102781ADDAY181061AY211061GA1001+999999999GF100991001001999999001001MD1210101+9999MW1021REMSYN060AAXX  23181 31594 41966 03201 11254 21265 40278 52010 70281;
0122315940999992000112321004+49420+130070FM-12+013599999V0200501N001012200019N0110001N1-02631-02741102801ADDGA1001+999999999GF100991001001999999001001MD1110011+9999REMSYN054AAXX  23211 31594 42961 00501 11263 21274 40280 51001;
0202315940999992000112400004+49420+130070FM-12+013599999V0209999C000012200019N0100001N1-02901-03071102811ADDAA100000791AJ100079199999999GF102991021001999999031001IA1239KA1120N-03051MA1999999100891MD1810011+9999REMSYN088AAXX  24001 31594 11997 20000 11290 21307 30089 40281 58001 69900 82030 333 21305 47007;
0122315940999992000112403004+49420+130070FM-12+013599999V0200701N001012200019N0100001N1-01961-02291102721ADDGA1001+999999999GF100991001001999999001001MD1710021+9999REMSYN054AAXX  24031 31594 42997 00701 11196 21229 40272 57002;
0122315940999992000112406004+49420+130070FM-12+013599999V0202801N001012200019N0200001N1-01871-02281102691ADDGA1001+999999999GF100991001001999999001001MD1610031+9999REMSYN054AAXX  24061 31594 42998 02801 11187 21228 40269 56003;
0122315940999992000112409004+49420+130070FM-12+013599999V0209999C000012200019N0130001N1-02161-02411102801ADDGA1001+999999999GF100991001001999999001001MD1310091+9999REMSYN054AAXX  24091 31594 42963 00000 11216 21241 40280 53009;
0196315940999992000112412004+49420+130070FM-12+013599999V0203201N001012200019N0170001N1-02311-02421102921ADDAA199000091GA1001+999999999GF100991001001999999001001KA1999M-01671MA1999999101041MD1210111+9999REMSYN070AAXX  24121 31594 32967 03201 11231 21242 30104 40292 52011 333 11167;EQDQ01  00002PRCP99
0122315940999992000112415004+49420+130070FM-12+013599999V0209999C000012200019N0150001N1-02991-03171103061ADDGA1001+999999999GF100991001001999999001001MD1310091+9999REMSYN054AAXX  24151 31594 42965 00000 11299 21317 40306 53009;
0122315940999992000112418004+49420+130070FM-12+013599999V0209999C000012200019N0130001N1-03121-03301103221ADDGA1001+999999999GF100991001001999999001001MD1210141+9999REMSYN054AAXX  24181 31594 42963 00000 11312 21330 40322 52014;
0122315940999992000112421004+49420+130070FM-12+013599999V0209999C000012200019N0120001N1-02971-03151103191ADDGA1001+999999999GF100991001001999999001001MD1810021+9999REMSYN054AAXX  24211 31594 42962 00000 11297 21315 40319 58002;
0243315940999992000112500004+49420+130070FM-12+013599999V0209999C000019999999N0020001N1-03241-03421103261ADDAA199000091AJ100079199999999AY111061AY211061GF106991001001999999001011IA1239KA1120N-03281MA1999999101301MD1310051+9999MW1101REMSYN088AAXX  25001 31594 31995 60000 11324 21342 30130 40326 53005 71011 80001 333 21328 47007;EQDQ01  00002PRCP99
0112315940999992000112503004+49420+130070FM-12+013599999V0201601N001019999999N0100001N1-02201-02411103131ADDGF108991001001999999001011MD1810051+9999REMSYN060AAXX  25031 31594 42997 81601 11220 21241 40313 58005 80001;
0112315940999992000112506004+49420+130070FM-12+013599999V0201401N001019999999N0100001N1-02101-03431102951ADDGF108991001001999999001071MD1710161+9999REMSYN060AAXX  25061 31594 42997 81401 11210 21343 40295 57016 80007;
0112315940999992000112509004+49420+130070FM-12+013599999V0209999C000019999999N0130001N1-02201-02451102901ADDGF108991001001999999001061MD1610061+9999REMSYN060AAXX  25091 31594 42963 80000 11220 21245 40290 56006 80006;
0186315940999992000112512004+49420+130070FM-12+013599999V0200201N001019999999N9999999N1-02501-02671102921ADDAA199000091GF108991001001999999001071KA1999M-02021MA1999999101031MD1410001+9999REMSYN076AAXX  25121 31594 32955 80201 11250 21267 30103 40292 54000 80007 333 11202;EQDQ01  00002PRCP99
0122315940999992000112515004+49420+130070FM-12+013599999V0200201N001012200019N0160001N1-02841-03021102971ADDGA1001+999999999GF100991001001999999001001MD1310021+9999REMSYN054AAXX  25151 31594 42966 00201 11284 21302 40297 53002;
0122315940999992000112518004+49420+130070FM-12+013599999V0200201N001012200019N0170001N1-02711-02881102971ADDGA1001+999999999GF100991001001999999001001MD1210011+9999REMSYN054AAXX  25181 31594 42967 00201 11271 21288 40297 52001;
0122315940999992000112521004+49420+130070FM-12+013599999V0209999C000012200019N0140001N1-03011-03191102991ADDGA1001+999999999GF100991001001999999001001MD1410001+9999REMSYN054AAXX  25211 31594 42964 00000 11301 21319 40299 54000;
0215315940999992000112600004+49420+130070FM-12+013599999V0200401N001019999999N0100001N1-03061-03231103071ADDAA199000091AJ100079199999999GF108991001001999999001011IA1239KA1120N-03201MA1999999101131MD1310071+9999REMSYN082AAXX  26001 31594 32997 80401 11306 21323 30113 40307 53007 80001 333 21320 47007;EQDQ01  00002PRCP99
0112315940999992000112603004+49420+130070FM-12+013599999V0200801N001012200019N0500001N1-02231-02561102921ADDGF102991001001999999001011MD1810081+9999REMSYN060AAXX  26031 31594 42999 20801 11223 21256 40292 58008 80001;
0122315940999992000112606004+49420+130070FM-12+013599999V0200801N001012200019N0200001N1-01711-02211102731ADDGA1001+999999999GF100991001001999999001001MD1710151+9999REMSYN054AAXX  26061 31594 42998 00801 11171 21221 40273 57015;
0122315940999992000112609004+49420+130070FM-12+013599999V0200901N001012200019N0140001N1-02041-02441102731ADDGA1001+999999999GF100991001001999999001001MD1710021+9999REMSYN054AAXX  26091 31594 42964 00901 11204 21244 40273 57002;
0196315940999992000112612004+49420+130070FM-12+013599999V0201001N001012200019N0160001N1-01991-02321102701ADDAA199000091GA1001+999999999GF100991001001999999001001KA1999M-01671MA1999999100851MD1710031+9999REMSYN070AAXX  26121 31594 32966 01001 11199 21232 30085 40270 57003 333 11167;EQDQ01  00002PRCP99
0122315940999992000112615004+49420+130070FM-12+013599999V0201201N003012200019N0170001N1-01941-02431102631ADDGA1001+999999999GF100991001001999999001001MD1710071+9999REMSYN054AAXX  26151 31594 42967 01203 11194 21243 40263 57007;
0122315940999992000112618004+49420+130070FM-12+013599999V0201401N002012200019N0550001N1-02051-02451102571ADDGA1001+999999999GF100991001001999999001001MD1710051+9999REMSYN054AAXX  26181 31594 42985 01402 11205 21245 40257 57005;
0122315940999992000112621004+49420+130070FM-12+013599999V0201301N002012200019N0200001N1-02041-02291102911ADDGA1001+999999999GF100991001001999999001001MD1310151+9999REMSYN054AAXX  26211 31594 42998 01302 11204 21229 40291 53015;
0215315940999992000112700004+49420+130070FM-12+013599999V0201301N002019999999N0100001N1-02071-02261102391ADDAA199000091AJ100079199999999GF108991001001999999001011IA1239KA1120N-02121MA1999999100541MD1510051+9999REMSYN082AAXX  27001 31594 32997 81302 11207 21226 30054 40239 55005 80001 333 21212 47007;EQDQ01  00002PRCP99
0112315940999992000112703004+49420+130070FM-12+013599999V0201401N001019999999N0100001N1-01701-02041102311ADDGF108991001001999999001071MD1810051+9999REMSYN060AAXX  27031 31594 42997 81401 11170 21204 40231 58005 80007;
0112315940999992000112706004+49420+130070FM-12+013599999V0202901N003019999999N0100001N1-01501-01921102281ADDGF108991001001999999001031MD1510021+9999REMSYN060AAXX  27061 31594 42997 82903 11150 21192 40228 55002 80003;
0112315940999992000112709004+49420+130070FM-12+013599999V0203101N003012200019N0120001N1-01961-02151102421ADDGF102991001001999999001011MD1210111+9999REMSYN060AAXX  27091 31594 42962 23103 11196 21215 40242 52011 80001;
0196315940999992000112712004+49420+130070FM-12+013599999V0203201N001012200019N0150001N1-02281-02461102631ADDAA199000091GA1001+999999999GF100991001001999999001001KA1999M-01441MA1999999100721MD1210171+9999REMSYN070AAXX  27121 31594 32965 03201 11228 21246 30072 40263 52017 333 11144;EQDQ01  00002PRCP99
0122315940999992000112715004+49420+130070FM-12+013599999V0203301N001012200019N0160001N1-02581-02761102701ADDGA1001+999999999GF100991001001999999001001MD1010051+9999REMSYN054AAXX  27151 31594 42966 03301 11258 21276 40270 50005;
0122315940999992000112718004+49420+130070FM-12+013599999V0203201N001012200019N0140001N1-02741-02911102641ADDGA1001+999999999GF100991001001999999001001MD1710061+9999REMSYN054AAXX  27181 31594 42964 03201 11274 21291 40264 57006;
0122315940999992000112721004+49420+130070FM-12+013599999V0209999C000012200019N0120001N1-02981-03151102611ADDGA1001+999999999GF100991001001999999001001MD1710061+9999REMSYN054AAXX  27211 31594 42962 00000 11298 21315 40261 57006;
0215315940999992000112800004+49420+130070FM-12+013599999V0200901N001019999999N0100001N1-02381-02661102611ADDAA199000091AJ100079199999999GF107991001001999999001011IA1239KA1120N-03001MA1999999100771MD1310051+9999REMSYN082AAXX  28001 31594 32997 70901 11238 21266 30077 40261 53005 80001 333 21300 47007;EQDQ01  00002PRCP99
0122315940999992000112803004+49420+130070FM-12+013599999V0200901N001012200019N0100001N1-01991-02321102571ADDGA1001+999999999GF100991001001999999001001MD1410001+9999REMSYN054AAXX  28031 31594 42997 00901 11199 21232 40257 54000;
0112315940999992000112806004+49420+130070FM-12+013599999V0201201N001019999999N0100001N1-01651-02241102471ADDGF106991001001999999001011MD1810071+9999REMSYN060AAXX  28061 31594 42997 61201 11165 21224 40247 58007 80001;
0112315940999992000112809004+49420+130070FM-12+013599999V0209999C000012200019N0110001N1-02101-02591102471ADDGF101991001001999999001011MD1710041+9999REMSYN060AAXX  28091 31594 42961 10000 11210 21259 40247 57004 80001;
0196315940999992000112812004+49420+130070FM-12+013599999V0209999C000012200019N0130001N1-01981-02311102421ADDAA199000091GA1001+999999999GF100991001001999999001001KA1999M-01521MA1999999100581MD1810041+9999REMSYN070AAXX  28121 31594 32963 00000 11198 21231 30058 40242 58004 333 11152;EQDQ01  00002PRCP99
0122315940999992000112815004+49420+130070FM-12+013599999V0209999C000012200019N0160001N1-01971-02381102401ADDGA1001+999999999GF100991001001999999001001MD1510021+9999REMSYN054AAXX  28151 31594 42966 00000 11197 21238 40240 55002;
0112315940999992000112818004+49420+130070FM-12+013599999V0200601N001019999999N0130001N1-01861-02271102321ADDGF105991001001999999001011MD1710081+9999REMSYN060AAXX  28181 31594 42963 50601 11186 21227 40232 57008 80001;
0140315940999992000112821004+49420+130070FM-12+013599999V0200501N003019999999N0050001N1-01911-02171102271ADDAY171031AY221031GF108991081001999999021999MD1610051+9999MW1721REMSYN066AAXX  28211 31594 41950 80503 11191 21217 40227 56005 77272 8802/;
0230315940999992000112900004+49420+130070FM-12+013599999V0200901N001019999999N0040001N1-02021-02211102381ADDAA112000591AJ100079199999999AY171061AY221061GF108991021001999999031071IA1239KA1120N-02531MA1999999100541MD1310111+9999MW1711REMSYN094AAXX  29001 31594 11996 80901 11202 21221 30054 40238 53011 69962 77172 82037 333 21253 47007;
0140315940999992000112903004+49420+130070FM-12+013599999V0201001N001019999999N0040001N1-01521-01961102381ADDAY171031AY271031GF108991001001999999001071MD1110031+9999MW1711REMSYN066AAXX  29031 31594 41996 81001 11152 21196 40238 51003 77177 80007;
0150315940999992000112906004+49420+130070FM-12+013599999V0202901N004012200019N0100001N1-01561-01901102451ADDAY171061AY211061GA1001+999999999GF100991001001999999001001MD1210071+9999MW1021REMSYN060AAXX  29061 31594 41997 02904 11156 21190 40245 52007 70271;
0122315940999992000112909004+49420+130070FM-12+013599999V0203001N001012200019N0130001N1-02001-02191102631ADDGA1001+999999999GF100991001001999999001001MD1210241+9999REMSYN054AAXX  29091 31594 42963 03001 11200 21219 40263 52024;
0173315940999992000112912004+49420+130070FM-12+013599999V0209999C000019999999N0160001N1-02261-02511102891ADDAA112000591GF107991001001999999001011KA1999M-01521MA1999999101011MD1210241+9999REMSYN082AAXX  29121 31594 12966 70000 11226 21251 30101 40289 52024 69942 80001 333 11152;
0122315940999992000112915004+49420+130070FM-12+013599999V0209999C000012200019N0150001N1-02531-02701102991ADDGA1001+999999999GF100991001001999999001001MD1210091+9999REMSYN054AAXX  29151 31594 42965 00000 11253 21270 40299 52009;
0122315940999992000112918004+49420+130070FM-12+013599999V0200201N001012200019N0140001N1-02621-02791103071ADDGA1001+999999999GF100991001001999999001001MD1210071+9999REMSYN054AAXX  29181 31594 42964 00201 11262 21279 40307 52007;
0122315940999992000112921004+49420+130070FM-12+013599999V0201001N001012200019N0002001N1-02351-02531102981ADDGA1001+999999999GF100991001001999999001001MD1810071+9999REMSYN054AAXX  29211 31594 42992 01001 11235 21253 40298 58007;
0225315940999992000113000004+49420+130070FM-12+013599999V0200901N001012200019N0200001N1-02101-02431102911ADDAA199000091AJ100089199999999GA1001+999999999GF100991001001999999001001IA1239KA1120N-02751MA1999999101051MD1710051+9999REMSYN076AAXX  30001 31594 32998 00901 11210 21243 30105 40291 57005 333 21275 47008;EQDQ01  00002PRCP99
0112315940999992000113003004+49420+130070FM-12+013599999V0201001N003019999999N0200001N1-01631-02051102801ADDGF105991001001999999001011MD1710071+9999REMSYN060AAXX  30031 31594 42998 51003 11163 21205 40280 57007 80001;
0112315940999992000113006004+49420+130070FM-12+013599999V0201301N002019999999N0200001N1-01061-01691102621ADDGF108991001001999999001011MD1710141+9999REMSYN060AAXX  30061 31594 42998 81302 11106 21169 40262 57014 80001;
0112315940999992000113009004+49420+130070FM-12+013599999V0201401N003012200019N0200001N1-01221-01741102591ADDGF102991001001999999001011MD1710051+9999REMSYN060AAXX  30091 31594 42998 21403 11122 21174 40259 57005 80001;
0196315940999992000113012004+49420+130070FM-12+013599999V0201301N003012200019N0200001N1-01421-01851102611ADDAA199000091GA1001+999999999GF100991001001999999001001KA1999M-01041MA1999999100801MD1310011+9999REMSYN070AAXX  30121 31594 32970 01303 11142 21185 30080 40261 53001 333 11104;EQDQ01  00002PRCP99
0122315940999992000113015004+49420+130070FM-12+013599999V0201001N002012200019N0160001N1-01531-01871102651ADDGA1001+999999999GF100991001001999999001001MD1210031+9999REMSYN054AAXX  30151 31594 42966 01002 11153 21187 40265 52003;
0122315940999992000113018004+49420+130070FM-12+013599999V0209999C000012200019N0100001N1-01721-01991102711ADDGA1001+999999999GF100991001001999999001001MD1210041+9999REMSYN054AAXX  30181 31594 42960 00000 11172 21199 40271 52004;
0122315940999992000113021004+49420+130070FM-12+013599999V0201401N002012200019N0150001N1-01641-01901102681ADDGA1001+999999999GF100991001001999999001001MD1310031+9999REMSYN054AAXX  30211 31594 42965 01402 11164 21190 40268 53003;
0253315940999992000120100004+49420+130070FM-12+013599999V0209999C000012200019N0040001N1-01701-02041102711ADDAA199000091AJ100089199999999AY101061AY201061GA1001+999999999GF100991001001999999001001IA1239KA1120N-01941MA1999999100881MD1210021+9999MW1101REMSYN082AAXX  01001 31594 31996 00000 11170 21204 30088 40271 52002 71000 333 21194 47008;EQDQ01  00002PRCP99
0122315940999992000120103004+49420+130070FM-12+013599999V0201301N002012200019N0100001N1-01041-01671102511ADDGA1001+999999999GF100991001001999999001001MD1810141+9999REMSYN054AAXX  01031 31594 42997 01302 11104 21167 40251 58014;
0112315940999992000120106004+49420+130070FM-12+013599999V0201201N001012200019N0200001N1-00691-01481102301ADDGF101991001001999999001011MD1810191+9999REMSYN060AAXX  01061 31594 42998 11201 11069 21148 40230 58019 80001;
0112315940999992000120109004+49420+130070FM-12+013599999V0201201N003012200019N0180001N1-00781-01631102151ADDGF102991001001999999001011MD1710161+9999REMSYN060AAXX  01091 31594 42968 21203 11078 21163 40215 57016 80001;
0186315940999992000120112004+49420+130070FM-12+013599999V0201101N003019999999N0210001N1-00941-01631102041ADDAA199000091GF108991001001999999001011KA1999M-00691MA1999999100271MD1710121+9999REMSYN076AAXX  01121 31594 32971 81103 11094 21163 30027 40204 57012 80001 333 11069;EQDQ01  00002PRCP99
0112315940999992000120115004+49420+130070FM-12+013599999V0201301N003019999999N0200001N1-00961-01731101891ADDGF108991001001999999001011MD1710141+9999REMSYN060AAXX  01151 31594 42970 81303 11096 21173 40189 57014 80001;
0112315940999992000120118004+49420+130070FM-12+013599999V0201401N004019999999N0170001N1-01031-01661101731ADDGF108991001001999999001071MD1710161+9999REMSYN060AAXX  01181 31594 42967 81404 11103 21166 40173 57016 80007;
0112315940999992000120121004+49420+130070FM-12+013599999V0201501N003019999999N0160001N1-01031-01561101511ADDGF108991081001999999021999MD1710221+9999REMSYN060AAXX  01211 31594 42966 81503 11103 21156 40151 57022 8802/;
0230315940999992000120200004+49420+130070FM-12+013599999V0201401N001019999999N0040001N1-01031-01471101391ADDAA112000791AJ100089199999999AY171061AY221061GF108991081001999999021999IA1239KA1120N-01071MA1999999099641MD1710111+9999MW1711REMSYN094AAXX  02001 31594 11996 81401 11103 21147 39964 40139 57011 69902 77172 8802/ 333 21107 47008;
0182315940999992000120203004+49420+130070FM-12+013599999V0203001N002010042019N0020001N1-01041-01171101241ADDAY171031AY271031GF108991081001004501021999KA1999N+99999MD1710151+9999MW1731REMSYN076AAXX  02031 31594 41495 83002 11104 21117 40124 57015 77377 8802/ 333 22510;EQDQ01 +05102ATMN  
0140315940999992000120206004+49420+130070FM-12+013599999V0202801N005019999999N0100001N1-01591-01781101371ADDAY171061AY231061GF108991081001999999071999MD1310081+9999MW1221REMSYN066AAXX  02061 31594 41997 82805 11159 21178 40137 53008 72273 8807/;
0140315940999992000120209004+49420+130070FM-12+013599999V0202901N002019999999N0130001N1-01891-02081101641ADDAY131031AY221031GF108991001001999999001011MD1210241+9999MW1021REMSYN066AAXX  02091 31594 41963 82902 11189 21208 40164 52024 70232 80001;
0201315940999992000120212004+49420+130070FM-12+013599999V0203001N001019999999N0170001N1-02081-02201101701ADDAA112001091AY171061AY221061GF108991001001999999001051KA1999M-00891MA1999999099861MD1210051+9999MW1021REMSYN088AAXX  02121 31594 11967 83001 11208 21220 39986 40170 52005 60012 70272 80005 333 11089;
0122315940999992000120215004+49420+130070FM-12+013599999V0203001N001012200019N0190001N1-02131-02251101711ADDGA1001+999999999GF100991001001999999001001MD1010011+9999REMSYN054AAXX  02151 31594 42969 03001 11213 21225 40171 50001;
0122315940999992000120218004+49420+130070FM-12+013599999V0203101N002012200019N0200001N1-02351-02471101821ADDGA1001+999999999GF100991001001999999001001MD1310091+9999REMSYN054AAXX  02181 31594 42970 03102 11235 21247 40182 53009;
0122315940999992000120221004+49420+130070FM-12+013599999V0209999C000012200019N0190001N1-02651-02771101881ADDGA1001+999999999GF100991001001999999001001MD1010041+9999REMSYN054AAXX  02211 31594 42969 00000 11265 21277 40188 50004;
0225315940999992000120300004+49420+130070FM-12+013599999V0203201N001012200019N0100001N1-02671-02851101981ADDAA199000091AJ100089199999999GA1001+999999999GF100991001001999999001001IA1239KA1120N-02921MA1999999100091MD1310091+9999REMSYN076AAXX  03001 31594 32997 03201 11267 21285 30009 40198 53009 333 21292 47008;EQDQ01  00002PRCP99
0122315940999992000120303004+49420+130070FM-12+013599999V0203201N002012200019N0200001N1-02121-02441101881ADDGA1001+999999999GF100991001001999999001001MD1810051+9999REMSYN054AAXX  03031 31594 42998 03202 11212 21244 40188 58005;
0112315940999992000120306004+49420+130070FM-12+013599999V0202801N003012200019N0200001N1-01921-02601101771ADDGF103991001001999999001011MD1710101+9999REMSYN060AAXX  03061 31594 42998 32803 11192 21260 40177 57010 80001;
0112315940999992000120309004+49420+130070FM-12+013599999V0202901N004019999999N0230001N1-02171-02741101901ADDGF108991031001999999051011MD1310111+9999REMSYN060AAXX  03091 31594 42973 82904 11217 21274 40190 53011 83051;
0196315940999992000120312004+49420+130070FM-12+013599999V0203301N001012200019N0200001N1-02781-03331102131ADDAA199000091GA1001+999999999GF100991001001999999001001KA1999M-01841MA1999999100231MD1210181+9999REMSYN070AAXX  03121 31594 32970 03301 11278 21333 30023 40213 52018 333 11184;EQDQ01  00002PRCP99
0106315940999992000120315004+49420+130070FM-12+013599999V0203201N001019999999N0190001N1-03101-03601102181ADDGF106991999999999999999999MD1210031+9999REMSYN054AAXX  03151 31594 42969 63201 11310 21360 40218 52003;
0122315940999992000120318004+49420+130070FM-12+013599999V0209999C000012200019N0170001N1-03301-03601102231ADDGA1001+999999999GF100991001001999999001001MD1210021+9999REMSYN054AAXX  03181 31594 42967 00000 11330 21360 40223 52002;
0122315940999992000120321004+49420+130070FM-12+013599999V0209999C000012200019N0140001N1-03351-03651102261ADDGA1001+999999999GF100991001001999999001001MD1210021+9999REMSYN054AAXX  03211 31594 42964 00000 11335 21365 40226 52002;
0225315940999992000120400004+49420+130070FM-12+013599999V0203201N001012200019N0200001N1-03501-03801102291ADDAA199000091AJ100089199999999GA1001+999999999GF100991001001999999001001IA1239KA1120N-03611MA1999999100331MD1310031+9999REMSYN076AAXX  04001 31594 32998 03201 11350 21380 30033 40229 53003 333 21361 47008;EQDQ01  00002PRCP99
0112315940999992000120403004+49420+130070FM-12+013599999V0203301N001012200019N0200001N1-02701-03251102161ADDGF102991001001999999001011MD1810071+9999REMSYN060AAXX  04031 31594 42998 23301 11270 21325 40216 58007 80001;
0112315940999992000120406004+49420+130070FM-12+013599999V0202901N001012200019N0500001N1-02441-03191101971ADDGF101991001001999999001011MD1710161+9999REMSYN060AAXX  04061 31594 42999 12901 11244 21319 40197 57016 80001;
0122315940999992000120409004+49420+130070FM-12+013599999V0202701N001012200019N0300001N1-02861-03391101931ADDGA1001+999999999GF100991001001999999001001MD1710081+9999REMSYN054AAXX  04091 31594 42980 02701 11286 21339 40193 57008;
0196315940999992000120412004+49420+130070FM-12+013599999V0209999C000012200019N0220001N1-02981-03421101951ADDAA199000091GA1001+999999999GF100991001001999999001001KA1999M-02361MA1999999100031MD1310011+9999REMSYN070AAXX  04121 31594 32972 00000 11298 21342 30003 40195 53001 333 11236;EQDQ01  00002PRCP99
0122315940999992000120415004+49420+130070FM-12+013599999V0203201N001012200019N0170001N1-03221-03521101971ADDGA1001+999999999GF100991001001999999001001MD1110011+9999REMSYN054AAXX  04151 31594 42967 03201 11322 21352 40197 51001;
0122315940999992000120418004+49420+130070FM-12+013599999V0209999C000012200019N0130001N1-03361-03651101891ADDGA1001+999999999GF100991001001999999001001MD1810101+9999REMSYN054AAXX  04181 31594 42963 00000 11336 21365 40189 58010;
0122315940999992000120421004+49420+130070FM-12+013599999V0203401N001012200019N0110001N1-03481-03701101811ADDGA1001+999999999GF100991001001999999001001MD1710051+9999REMSYN054AAXX  04211 31594 42961 03401 11348 21370 40181 57005;
0225315940999992000120500004+49420+130070FM-12+013599999V0209999C000012200019N0100001N1-03581-03801101841ADDAA199000091AJ100089199999999GA1001+999999999GF100991001001999999001001IA1239KA1120N-03681MA1999999099881MD1310021+9999REMSYN076AAXX  05001 31594 32997 00000 11358 21380 39988 40184 53002 333 21368 47008;EQDQ01  00002PRCP99
0141315940999992000120503004+49420+130070FM-12+013599999V0203201N001012200019N0200001N1-01782-03171101851ADDGA1001+999999999GF100991001001999999001001MD1010071+9999REMSYN054AAXX  05031 31594 42998 03201 11178 21317 40185 50007;EQDQ01-001783ATOT  
0112315940999992000120506004+49420+130070FM-12+013599999V0202901N003019999999N0200001N1-02401-02801101851ADDGF108991001001999999001051MD1310031+9999REMSYN060AAXX  05061 31594 42998 82903 11240 21280 40185 53003 80005;
0112315940999992000120509004+49420+130070FM-12+013599999V0203001N002019999999N0230001N1-02621-02991102031ADDGF105991001001999999001011MD1210171+9999REMSYN060AAXX  05091 31594 42973 53002 11262 21299 40203 52017 80001;
0186315940999992000120512004+49420+130070FM-12+013599999V0203401N001012200019N0250001N1-02901-03131102211ADDAA199000091GF103991001001999999001011KA1999M-02351MA1999999100291MD1210141+9999REMSYN076AAXX  05121 31594 32975 33401 11290 21313 30029 40221 52014 80001 333 11235;EQDQ01  00002PRCP99
0122315940999992000120515004+49420+130070FM-12+013599999V0203501N001012200019N0240001N1-03061-03291102391ADDGA1001+999999999GF100991001001999999001001MD1210171+9999REMSYN054AAXX  05151 31594 42974 03501 11306 21329 40239 52017;
0122315940999992000120518004+49420+130070FM-12+013599999V0203401N001012200019N0200001N1-03021-03251102601ADDGA1001+999999999GF100991001001999999001001MD1210211+9999REMSYN054AAXX  05181 31594 42970 03401 11302 21325 40260 52021;
0107315940999992000120521004+49420+130070FM-12+013599999V0203401N001012200019N0150001N1-03191+99999999999ADDGA1001+999999999GF100991001001999999001001REMSYN053AAXX  05211 31594 42965 03401 11319 2143 40286 52025;
0225315940999992000120600004+49420+130070FM-12+013599999V0209999C000012200019N0200001N1-03241-03481103061ADDAA199000091AJ100089199999999GA1001+999999999GF100991001001999999001001IA1239KA1120N-03251MA1999999101111MD1210191+9999REMSYN076AAXX  06001 31594 32998 00000 11324 21348 30111 40306 52019 333 21325 47008;EQDQ01  00002PRCP99
0122315940999992000120603004+49420+130070FM-12+013599999V0203201N001012200019N0200001N1-02561-02691103161ADDGA1001+999999999GF100991001001999999001001MD1210151+9999REMSYN054AAXX  06031 31594 42998 03201 11256 21269 40316 52015;
0122315940999992000120606004+49420+130070FM-12+013599999V0209999C000012200019N0500001N1-02101-02671103151ADDGA1001+999999999GF100991001001999999001001MD1210021+9999REMSYN054AAXX  06061 31594 42999 00000 11210 21267 40315 52002;
0122315940999992000120609004+49420+130070FM-12+013599999V0209999C000012200019N0300001N1-02341-02741103121ADDGA1001+999999999GF100991001001999999001001MD1810041+9999REMSYN054AAXX  06091 31594 42980 00000 11234 21274 40312 58004;
0186315940999992000120612004+49420+130070FM-12+013599999V0209999C000019999999N0230001N1-02441-02761103111ADDAA199000091GF108991001001999999001071KA1999M-02031MA1999999101221MD1810021+9999REMSYN076AAXX  06121 31594 32973 80000 11244 21276 30122 40311 58002 80007 333 11203;EQDQ01  00002PRCP99
0112315940999992000120615004+49420+130070FM-12+013599999V0209999C000019999999N0200001N1-02451-02771103051ADDGF108991001001999999001071MD1510061+9999REMSYN060AAXX  06151 31594 42970 80000 11245 21277 40305 55006 80007;
0112315940999992000120618004+49420+130070FM-12+013599999V0201101N001019999999N0180001N1-02561-02881102871ADDGF108991001001999999001071MD1710191+9999REMSYN060AAXX  06181 31594 42968 81101 11256 21288 40287 57019 80007;
0112315940999992000120621004+49420+130070FM-12+013599999V0209999C000019999999N0140001N1-02601-02971102661ADDGF108991001001999999001071MD1710101+9999REMSYN060AAXX  06211 31594 42964 80000 11260 21297 40266 57010 80007;
0230315940999992000120700004+49420+130070FM-12+013599999V0209999C000019999999N0040001N1-02271-02591102651ADDAA112000791AJ100089199999999AY171061AY221061GF108991031001999999051071IA1239KA1120N-02581MA1999999100771MD1610011+9999MW1711REMSYN094AAXX  07001 31594 11996 80000 11227 21259 30077 40265 56001 69902 77172 83057 333 21258 47008;
0140315940999992000120703004+49420+130070FM-12+013599999V0201001N001019999999N0040001N1-02021-02351102491ADDAY171031AY221031GF108991001001999999001071MD1810121+9999MW1711REMSYN066AAXX  07031 31594 41996 81001 11202 21235 40249 58012 77172 80007;
0140315940999992000120706004+49420+130070FM-12+013599999V0200901N001019999999N0040001N1-01761-02171102411ADDAY171061AY221061GF108991001001999999001071MD1710071+9999MW1711REMSYN066AAXX  07061 31594 41996 80901 11176 21217 40241 57007 77172 80007;
0140315940999992000120709004+49420+130070FM-12+013599999V0200701N001012200019N0100001N1-02061-02181102461ADDAY171031AY211031GF102991001001999999001011MD1310031+9999MW1021REMSYN066AAXX  07091 31594 41960 20701 11206 21218 40246 53003 70271 80001;
0201315940999992000120712004+49420+130070FM-12+013599999V0209999C000019999999N0140001N1-02161-02281102541ADDAA112000591AY171061AY211061GF108991001001999999001071KA1999M-01641MA1999999100681MD1210071+9999MW1221REMSYN088AAXX  07121 31594 11964 80000 11216 21228 30068 40254 52007 69952 72271 80007 333 11164;
0140315940999992000120715004+49420+130070FM-12+013599999V0209999C000019999999N0060001N1-02311-02421102491ADDAY171031AY221031GF108991001001999999001071MD1810061+9999MW1711REMSYN066AAXX  07151 31594 41956 80000 11231 21242 40249 58006 77172 80007;
0140315940999992000120718004+49420+130070FM-12+013599999V0200901N001019999999N0120001N1-02401-02521102501ADDAY171061AY221061GF108991001001999999001071MD1410001+9999MW1221REMSYN066AAXX  07181 31594 41962 80901 11240 21252 40250 54000 72272 80007;
0122315940999992000120721004+49420+130070FM-12+013599999V0209999C000012200019N0120001N1-02841-03021102511ADDGA1001+999999999GF100991001001999999001001MD1810021+9999REMSYN054AAXX  07211 31594 42962 00000 11284 21302 40251 58002;
0240315940999992000120800004+49420+130070FM-12+013599999V0200601N001012200019N0040001N1-03111-03281102521ADDAA112000791AJ100089199999999AY111061AY211061GA1001+999999999GF100991001001999999001001IA1239KA1120N-03131MA1999999100591MD1610011+9999MW1101REMSYN088AAXX  08001 31594 11996 00601 11311 21328 30059 40252 56001 69902 71011 333 21313 47008;
0150315940999992000120803004+49420+130070FM-12+013599999V0209999C000012200019N0040001N1-02311-02491102431ADDAY101031AY201031GA1001+999999999GF100991001001999999001001MD1710011+9999MW1101REMSYN060AAXX  08031 31594 41996 00000 11231 21249 40243 57001 71000;
0122315940999992000120806004+49420+130070FM-12+013599999V0202701N002012200019N0100001N1-02061-02391102511ADDGA1001+999999999GF100991001001999999001001MD1510011+9999REMSYN054AAXX  08061 31594 42997 02702 11206 21239 40251 55001;
0122315940999992000120809004+49420+130070FM-12+013599999V0202701N001012200019N0130001N1-02291-02481102501ADDGA1001+999999999GF100991001001999999001001MD1210071+9999REMSYN054AAXX  08091 31594 42963 02701 11229 21248 40250 52007;
0196315940999992000120812004+49420+130070FM-12+013599999V0209999C000012200019N0170001N1-02451-02631102581ADDAA199000091GA1001+999999999GF100991001001999999001001KA1999M-01951MA1999999100701MD1210071+9999REMSYN070AAXX  08121 31594 32967 00000 11245 21263 30070 40258 52007 333 11195;EQDQ01  00002PRCP99
0122315940999992000120815004+49420+130070FM-12+013599999V0202901N001012200019N0190001N1-02671-02791102671ADDGA1001+999999999GF100991001001999999001001MD1210061+9999REMSYN054AAXX  08151 31594 42969 02901 11267 21279 40267 52006;
0122315940999992000120818004+49420+130070FM-12+013599999V0209999C000012200019N0150001N1-02951-03071102701ADDGA1001+999999999GF100991001001999999001001MD1110021+9999REMSYN054AAXX  08181 31594 42965 00000 11295 21307 40270 51002;
0122315940999992000120821004+49420+130070FM-12+013599999V0203201N001012200019N0120001N1-02911-03031102721ADDGA1001+999999999GF100991001001999999001001MD1210021+9999REMSYN054AAXX  08211 31594 42962 03201 11291 21303 40272 52002;
0253315940999992000120900004+49420+130070FM-12+013599999V0209999C000012200019N0040001N1-03381-03551102781ADDAA199000091AJ100099199999999AY101061AY201061GA1001+999999999GF100991001001999999001001IA1239KA1120N-03461MA1999999100811MD1310011+9999MW1101REMSYN082AAXX  09001 31594 31996 00000 11338 21355 30081 40278 53001 71000 333 21346 47009;EQDQ01  00002PRCP99
0112315940999992000120903004+49420+130070FM-12+013599999V0209999C000012200019N0100001N1-02391-02571102591ADDGF101991001001999999001011MD1810101+9999REMSYN060AAXX  09031 31594 42997 10000 11239 21257 40259 58010 80001;
0112315940999992000120906004+49420+130070FM-12+013599999V0209999C000012200019N0100001N1-02181-02581102301ADDGF101991001001999999001011MD1710271+9999REMSYN060AAXX  09061 31594 42997 10000 11218 21258 40230 57027 80001;
0112315940999992000120909004+49420+130070FM-12+013599999V0209999C000019999999N0170001N1-02551-02731102261ADDGF108991001001999999001061MD1710061+9999REMSYN060AAXX  09091 31594 42967 80000 11255 21273 40226 57006 80006;
0186315940999992000120912004+49420+130070FM-12+013599999V0203101N001012200019N0150001N1-03071-03291102291ADDAA199000091GF102991001001999999001011KA1999M-02051MA1999999100361MD1710021+9999REMSYN076AAXX  09121 31594 32965 23101 11307 21329 30036 40229 57002 80001 333 11205;EQDQ01  00002PRCP99
0112315940999992000120915004+49420+130070FM-12+013599999V0203201N001019999999N0160001N1-02881-03051102241ADDGF108991001001999999001071MD1710041+9999REMSYN060AAXX  09151 31594 42966 83201 11288 21305 40224 57004 80007;
0112315940999992000120918004+49420+130070FM-12+013599999V0203301N001012200019N0140001N1-02981-03151102251ADDGF102991001001999999001011MD1410001+9999REMSYN060AAXX  09181 31594 42964 23301 11298 21315 40225 54000 80001;
0122315940999992000120921004+49420+130070FM-12+013599999V0209999C000012200019N0110001N1-03181-03341102201ADDGA1001+999999999GF100991001001999999001001MD1710061+9999REMSYN054AAXX  09211 31594 42961 00000 11318 21334 40220 57006;
0225315940999992000121000004+49420+130070FM-12+013599999V0203201N001012200019N0100001N1-03211-03371102211ADDAA199000091AJ100089199999999GA1001+999999999GF100991001001999999001001IA1239KA1120N-03401MA1999999100271MD1310011+9999REMSYN076AAXX  10001 31594 32997 03201 11321 21337 30027 40221 53001 333 21340 47008;EQDQ01  00002PRCP99
0122315940999992000121003004+49420+130070FM-12+013599999V0203001N003012200019N0200001N1-02421-02661102061ADDGA1001+999999999GF100991001001999999001001MD1810081+9999REMSYN054AAXX  10031 31594 42998 03003 11242 21266 40206 58008;
0122315940999992000121006004+49420+130070FM-12+013599999V0202801N004012200019N0500001N1-02161-02731101971ADDGA1001+999999999GF100991001001999999001001MD1710071+9999REMSYN054AAXX  10061 31594 42999 02804 11216 21273 40197 57007;
0122315940999992000121009004+49420+130070FM-12+013599999V02099999999992200019N0500001N1-02491-02881101981ADDGA1001+999999999GF100991001001999999001001MD1610021+9999REMSYN054AAXX  10091 31594 42984 03902 11249 21288 40198 56002;
0196315940999992000121012004+49420+130070FM-12+013599999V0209999C000012200019N0200001N1-02641-03101102451ADDAA199000091GA1001+999999999GF100991001001999999001001KA1999M-02081MA1999999100131MD1210031+9999REMSYN070AAXX  10121 31594 32970 00000 11264 21310 30013 40245 52003 333 11208;EQDQ01  00002PRCP99
0141315940999992000121015004+49420+130070FM-12+013599999V0209999C000012200019N0200001N1-02851-03081999999ADDGA1001+999999999GF100991001001999999001001MD1710091+9999REMSYN054AAXX  10151 31594 42970 00000 11285 21308 49994 57009;EQDQ01+099943APOSLP
0112315940999992000121018004+49420+130070FM-12+013599999V0200901N001012200019N0150001N1-02801-03041101821ADDGF102991001001999999001011MD1710021+9999REMSYN060AAXX  10181 31594 42965 20901 11280 21304 40182 57002 80001;
0112315940999992000121021004+49420+130070FM-12+013599999V0203101N001012200019N0170001N1-02831-03061101791ADDGF101991001001999999001011MD1710031+9999REMSYN060AAXX  10211 31594 42967 13101 11283 21306 40179 57003 80001;
0225315940999992000121100004+49420+130070FM-12+013599999V0202801N001012200019N0100001N1-02791-03031101941ADDAA199000091AJ100099199999999GA1001+999999999GF100991001001999999001001IA1239KA1120N-03111MA1999999100041MD1310151+9999REMSYN076AAXX  11001 31594 32997 02801 11279 21303 30004 40194 53015 333 21311 47009;EQDQ01  00002PRCP99
0122315940999992000121103004+49420+130070FM-12+013599999V0202801N004012200019N0200001N1-02021-02501101771ADDGA1001+999999999GF100991001001999999001001MD1810101+9999REMSYN054AAXX  11031 31594 42998 02804 11202 21250 40177 58010;
0112315940999992000121106004+49420+130070FM-12+013599999V0202701N005012200019N0500001N1-01841-02521101701ADDGF103991001001999999001011MD1710061+9999REMSYN060AAXX  11061 31594 42999 32705 11184 21252 40170 57006 80001;
0112315940999992000121109004+49420+130070FM-12+013599999V0202901N002012200019N0270001N1-02101-02671101791ADDGF102991001001999999001011MD1310071+9999REMSYN060AAXX  11091 31594 42977 22902 11210 21267 40179 53007 80001;
0196315940999992000121112004+49420+130070FM-12+013599999V0209999C000012200019N0240001N1-02531-02911101861ADDAA199000091GA1001+999999999GF100991001001999999001001KA1999M-01791MA1999999099981MD1210031+9999REMSYN070AAXX  11121 31594 32974 00000 11253 21291 39998 40186 52003 333 11179;EQDQ01  00002PRCP99
0112315940999992000121115004+49420+130070FM-12+013599999V0209999C000012200019N0220001N1-02801-03041101781ADDGF101991001001999999001011MD1810101+9999REMSYN060AAXX  11151 31594 42972 10000 11280 21304 40178 58010 80001;
0112315940999992000121118004+49420+130070FM-12+013599999V0203201N001012200019N0190001N1-02771-03011101731ADDGF101991001001999999001011MD1710051+9999REMSYN060AAXX  11181 31594 42969 13201 11277 21301 40173 57005 80001;
0112315940999992000121121004+49420+130070FM-12+013599999V0203301N001012200019N0170001N1-02811-03041101601ADDGF101991001001999999001011MD1710121+9999REMSYN060AAXX  11211 31594 42967 13301 11281 21304 40160 57012 80001;
0225315940999992000121200004+49420+130070FM-12+013599999V0203301N001012200019N0200001N1-02981-03151101611ADDAA199000091AJ100099199999999GA1001+999999999GF100991001001999999001001IA1239KA1120N-03201MA1999999099701MD1610011+9999REMSYN076AAXX  12001 31594 32998 03301 11298 21315 39970 40161 56001 333 21320 47009;EQDQ01  00002PRCP99
0122315940999992000121203004+49420+130070FM-12+013599999V0203401N001012200019N0200001N1-02261-02741101511ADDGA1001+999999999GF100991001001999999001001MD1810041+9999REMSYN054AAXX  12031 31594 42998 03401 11226 21274 40151 58004;
0122315940999992000121206004+49420+130070FM-12+013599999V0203401N001012200019N0500001N1-01791-02381101471ADDGA1001+999999999GF100991001001999999001001MD1410001+9999REMSYN054AAXX  12061 31594 42999 03401 11179 21238 40147 54800;
0122315940999992000121209004+49420+130070FM-12+013599999V0209999C000012200019N0250001N1-02161-02641101561ADDGA1001+999999999GF100991001001999999001001MD1310061+9999REMSYN054AAXX  12091 31594 42975 00000 11216 21264 40156 53006;
0196315940999992000121212004+49420+130070FM-12+013599999V0209999C000012200019N0200001N1-02501-02841101651ADDAA199000091GA1001+999999999GF100991001001999999001001KA1999M-01691MA1999999099771MD1210051+9999REMSYN070AAXX  12121 31594 32970 00000 11250 21284 39977 40165 52005 333 11169;EQDQ01  00002PRCP99
0122315940999992000121215004+49420+130070FM-12+013599999V0209999C000012200019N0220001N1-02931-03001101711ADDGA1001+999999999GF100991001001999999001001MD1810041+9999REMSYN054AAXX  12151 31594 42972 00000 11293 21300 40171 58004;
0122315940999992000121218004+49420+130070FM-12+013599999V0203201N001012200019N0180001N1-02951-03191101711ADDGA1001+999999999GF100991001001999999001001MD1810021+9999REMSYN054AAXX  12181 31594 42968 03201 11295 21319 40171 58002;
0112315940999992000121221004+49420+130070FM-12+013599999V0200901N001012200019N0150001N1-02381-02701101651ADDGF102991001001999999001011MD1610011+9999REMSYN060AAXX  12211 31594 42965 20901 11238 21270 40165 56001 80001;
0253315940999992000121300004+49420+130070FM-12+013599999V0209999C000012200019N0040001N1-03131-03361101811ADDAA199000091AJ100099199999999AY101061AY201061GA1001+999999999GF100991001001999999001001IA1239KA1120N-03211MA1999999099891MD1310111+9999MW1101REMSYN082AAXX  13001 31594 31996 00000 11313 21336 39989 40181 53011 71000 333 21321 47009;EQDQ01  00002PRCP99
0122315940999992000121303004+49420+130070FM-12+013599999V0201001N002012200019N0040001N1-02101-02501101751ADDGA1001+999999999GF100991001001999999001001MD1410001+9999REMSYN054AAXX  13031 31594 42996 01002 11210 21250 40175 54000;
0112315940999992000121306004+49420+130070FM-12+013599999V0201301N001012200019N0100001N1-01741-02331101731ADDGF101991001001999999001011MD1510001+9999REMSYN060AAXX  13061 31594 42997 11301 11174 21233 40173 55000 80001;
0186315940999992000121309004+49420+130070FM-12+013599999V0209999C000019999999N0140001N1-01791-02201101781ADDAA199000091GF108991001001999999001071KA1999M-01651MA1999999099961MD1810011+9999REMSYN076AAXX  13091 31594 32964 80000 11179 21220 39996 40178 58001 80007 333 11165;EQDQ01  00002PRCP99
0143315940999992000121312004+49420+130070FM-12+013599999V0209999C000019999999N0140001N1-01791+99999999999ADDAA199000091GF108991999999999999999999REMSYN075AAXX  13121 31594 32964 80000 11179 2220 39996 40178 58001 80007 333 11165;EQDQ01  00002PRCP99
0140315940999992000121315004+49420+130070FM-12+013599999V0209999C000019999999N0060001N1-02081-02331101891ADDAY171031AY221031GF108991001001999999001071MD1310091+9999MW1711REMSYN066AAXX  13151 31594 41956 80000 11208 21233 40189 53009 77172 80007;
0140315940999992000121318004+49420+130070FM-12+013599999V0209999C000012200019N0120001N1-02551-02731101991ADDAY171061AY211061GF103991001001999999001011MD1210061+9999MW1021REMSYN066AAXX  13181 31594 41962 30000 11255 21273 40199 52006 70271 80001;
0122315940999992000121321004+49420+130070FM-12+013599999V0209999C000012200019N0110001N1-02761-02931102061ADDGA1001+999999999GF100991001001999999001001MD1210051+9999REMSYN054AAXX  13211 31594 42961 00000 11276 21293 40206 52005;
0202315940999992000121400004+49420+130070FM-12+013599999V0209999C000019999999N0100001N1-02231-02451102251ADDAA112000791AJ100099199999999GF106991021001999999031011IA1239KA1120N-02761MA1999999100171MD1210011+9999REMSYN088AAXX  14001 31594 32997 60000 11223 21245 30017 40225 52001 69902 82031 333 21276 47009;
0122315940999992000121403004+49420+130070FM-12+013599999V0200901N002012200019N0100001N1-01881-02071102041ADDGA1001+999999999GF100991001001999999001001MD1210041+9999REMSYN054AAXX  14031 31594 42997 00902 11188 21207 40204 52004;
0112315940999992000121406004+49420+130070FM-12+013599999V0201101N002012200019N0100001N1-01411-01921101931ADDGF102991001001999999001011MD1710071+9999REMSYN060AAXX  14061 31594 42997 21102 11141 21192 40193 57007 80001;
0112315940999992000121409004+49420+130070FM-12+013599999V0201001N001019999999N0120001N1-01731-02071101951ADDGF106991001001999999001011MD1710011+9999REMSYN060AAXX  14091 31594 42962 61001 11173 21207 40195 57001 80001;
0186315940999992000121412004+49420+130070FM-12+013599999V0201201N002019999999N0140001N1-01491-01831101761ADDAA199000091GF108991001001999999001071KA1999M-01321MA1999999099961MD1810171+9999REMSYN076AAXX  14121 31594 32964 81202 11149 21183 39996 40176 58017 80007 333 11132;EQDQ01  00002PRCP99
0112315940999992000121415004+49420+130070FM-12+013599999V0201201N002019999999N0150001N1-01421-01851101671ADDGF108991001001999999001071MD1710081+9999REMSYN060AAXX  14151 31594 42965 81202 11142 21185 40167 57008 80007;
0112315940999992000121418004+49420+130070FM-12+013599999V0201101N001019999999N0170001N1-01471-01811101601ADDGF108991081001999999011999MD1610081+9999REMSYN060AAXX  14181 31594 42967 81101 11147 21181 40160 56008 8801/;
0112315940999992000121421004+49420+130070FM-12+013599999V0201201N001019999999N0140001N1-01491-01831101541ADDGF108991081001999999011999MD1710181+9999REMSYN060AAXX  14211 31594 42964 81201 11149 21183 40154 57018 8801/;
0215315940999992000121500004+49420+130070FM-12+013599999V0200901N002019999999N0100001N1-01531-01871101271ADDAA199000091AJ100099199999999GF108991081001999999021999IA1239KA1120N-01531MA1999999099481MD1710141+9999REMSYN082AAXX  15001 31594 32997 80902 11153 21187 39948 40127 57014 8802/ 333 21153 47009;EQDQ01  00002PRCP99
0140315940999992000121503004+49420+130070FM-12+013599999V0201001N001019999999N0040001N1-01351-01621101091ADDAY171031AY221031GF108991081001999999011999MD1710171+9999MW1711REMSYN066AAXX  15031 31594 41996 81001 11135 21162 40109 57017 77172 8801/;
0140315940999992000121506004+49420+130070FM-12+013599999V0200901N002019999999N0040001N1-01191-01541101001ADDAY171061AY221061GF108991081001999999021999MD1710071+9999MW1711REMSYN066AAXX  15061 31594 41996 80902 11119 21154 40100 57007 77172 8802/;
0140315940999992000121509004+49420+130070FM-12+013599999V0200801N002010042019N0021001N1-01311-01511100951ADDAY171031AY221031GF108991081001004501021999MD1510061+9999MW1731REMSYN066AAXX  15091 31594 41421 80802 11131 21151 40095 55006 77372 8802/;
0223315940999992000121512004+49420+130070FM-12+013599999V0202801N002010069019N0180001N1-01401-01531101101ADDAA112003091AY171061AY221061GA1081+006909029GF108991081001008001021999KA1120M-01091MA1999999099321MD1210141+9999MW1731REMSYN094AAXX  15121 31594 11568 82802 11140 21153 39932 40110 52014 60032 77372 8802/ 333 11109 88523;
0140315940999992000121515004+49420+130070FM-12+013599999V0203101N005019999999N0048001N1-01801-01991101321ADDAY171031AY221031GF108991081001999999021999MD1210191+9999MW1711REMSYN066AAXX  15151 31594 41948 83105 11180 21199 40132 52019 77172 8802/;
0150315940999992000121518004+49420+130070FM-12+013599999V0203501N005019999999N0140001N1-02251-02501101701ADDAY171061AY231061GF108991001001999999001071MD1210341+9999MW1361REMSYN076AAXX  15181 31594 41964 83505 11225 21250 40170 52034 73673 80007 333 91110;
0140315940999992000121521004+49420+130070FM-12+013599999V0203201N003012200019N0140001N1-02651-02831102041ADDAY131031AY211031GF102991001001999999001011MD1210311+9999MW1021REMSYN066AAXX  15211 31594 41964 23203 11265 21283 40204 52031 70231 80001;
0230315940999992000121600004+49420+130070FM-12+013599999V0203301N002019999999N0200001N1-02931-03111102291ADDAA112001091AJ100109199999999AY131061AY211061GF108991001001999999001011IA1239KA1120N-02931MA1999999100371MD1210211+9999MW1021REMSYN094AAXX  16001 31594 11998 83302 11293 21311 30037 40229 52021 60012 70231 80001 333 21293 47010;
0112315940999992000121603004+49420+130070FM-12+013599999V0209999C000019999999N0200001N1-02351-02671102281ADDGF108991001001999999001071MD1210041+9999REMSYN060AAXX  16031 31594 42998 80000 11235 21267 40228 52004 80007;
0112315940999992000121606004+49420+130070FM-12+013599999V0203301N001019999999N0200001N1-02091-02491102161ADDGF108991001001999999001071MD1710101+9999REMSYN060AAXX  16061 31594 42998 83301 11209 21249 40216 57010 80007;
0112315940999992000121609004+49420+130070FM-12+013599999V0200501N001012200019N0170001N1-02271-02521102181ADDGF102991001001999999001011MD1410001+9999REMSYN060AAXX  16091 31594 42967 20501 11227 21252 40218 54000 80001;
0220315940999992000121612004+49420+130070FM-12+013599999V0200901N001019999999N0050001N1-02241-02401102251ADDAA112000791AY171061AY211061GF108991001001999999001071KA1999M-01361MA1999999999999MD1310081+9999MW1711REMSYN088AAXX  16121 31594 11950 80901 11224 2124/ 38039 40225 53008 69902 77171 80007 333 11136;EQDQ01 080393APOSP 
0140315940999992000121615004+49420+130070FM-12+013599999V0200601N001019999999N0060001N1-02441-02621102301ADDAY171031AY221031GF108991001001999999001071MD1210031+9999MW1711REMSYN066AAXX  16151 31594 41956 80601 11244 21262 40230 52003 77172 80007;
0150315940999992000121618004+49420+130070FM-12+013599999V0209999C000012200019N0150001N1-02691-02861102341ADDAY171061AY211061GA1001+999999999GF100991001001999999001001MD1210021+9999MW1021REMSYN060AAXX  16181 31594 41965 00000 11269 21286 40234 52002 70271;
0122315940999992000121621004+49420+130070FM-12+013599999V0200901N001012200019N0200001N1-02461-02631102411ADDGA1001+999999999GF100991001001999999001001MD1210091+9999REMSYN054AAXX  16211 31594 42970 00901 11246 21263 40241 52009;
0202315940999992000121700004+49420+130070FM-12+013599999V0209999C000012200019N0100001N1-02901-03071102491ADDAA112000791AJ100109199999999GF102991001001999999001011IA1239KA1120N-02971MA1999999100571MD1210041+9999REMSYN088AAXX  17001 31594 12997 20000 11290 21307 30057 40249 52004 69902 80001 333 21297 47010;
0122315940999992000121703004+49420+130070FM-12+013599999V0209999C000012200019N0100001N1-02091-02341102441ADDGA1001+999999999GF100991001001999999001001MD1210021+9999REMSYN054AAXX  17031 31594 42997 00000 11209 21234 40244 52002;
0122315940999992000121706004+49420+130070FM-12+013599999V0202601N001012200019N0100001N1-02011-02341102511ADDGA1001+999999999GF100991001001999999001001MD1310081+9999REMSYN054AAXX  17061 31594 42997 02601 11201 21234 40251 53008;
0122315940999992000121709004+49420+130070FM-12+013599999V0202601N001012200019N0160001N1-02401-02581102681ADDGA1001+999999999GF100991001001999999001001MD1210121+9999REMSYN054AAXX  17091 31594 42966 02601 11240 21258 40268 52012;
0196315940999992000121712004+49420+130070FM-12+013599999V0200301N001012200019N0110001N1-02801-02981102871ADDAA199000091GA1001+999999999GF100991001001999999001001KA1999M-01761MA1999999100951MD1210161+9999REMSYN070AAXX  17121 31594 32961 00301 11280 21298 30095 40287 52016 333 11176;EQDQ01  00002PRCP99
0122315940999992000121715004+49420+130070FM-12+013599999V0200401N001012200019N0500001N1-03141-03301102971ADDGA1001+999999999GF100991001001999999001001MD1210081+9999REMSYN054AAXX  17151 31594 42999 00401 11314 21330 40297 52008;
0122315940999992000121718004+49420+130070FM-12+013599999V0209999C000012200019N0120001N1-03171-03341103111ADDGA1001+999999999GF100991001001999999001001MD1210131+9999REMSYN054AAXX  17181 31594 42962 00000 11317 21334 40311 52013;
0122315940999992000121721004+49420+130070FM-12+013599999V0209999C000012200019N0110001N1-03431-03581103161ADDGA1001+999999999GF100991001001999999001001MD1210031+9999REMSYN054AAXX  17211 31594 42961 00000 11343 21358 40316 52003;
0243315940999992000121800004+49420+130070FM-12+013599999V0209999C000012200019N0040001N1-03441-03961103301ADDAA199000091AJ100109199999999AY101061AY201061GF102991001001999999001011IA1239KA1120N-03451MA1999999101321MD1210131+9999MW1101REMSYN088AAXX  18001 31594 31996 20000 11344 21396 30132 40330 52013 71000 80001 333 21345 47010;EQDQ01  00002PRCP99
0159315940999992000121803004+49420+130070FM-12+013599999V0200801N001012200019N0040001N1-02651-02832103161ADDAY101031AY201031GF102991001001999999001011MD1810071+9999MW1101REMSYN066AAXX  18031 31594 41996 20801 11265 21283 40316 58007 71000 80001;EQDQ01-002833ATOD  
0112315940999992000121806004+49420+130070FM-12+013599999V0209999C000019999999N0100001N1-02471-02711103051ADDGF108991001001999999001071MD1710091+9999REMSYN060AAXX  18061 31594 42997 80000 11247 21271 40305 57009 80007;
0112315940999992000121809004+49420+130070FM-12+013599999V0209999C000019999999N0120001N1-02621-02801103041ADDGF108991001001999999001071MD1710021+9999REMSYN060AAXX  18091 31594 42962 80000 11262 21280 40304 57002 80007;
0196315940999992000121812004+49420+130070FM-12+013599999V0200201N001012200019N0150001N1-02701-02881103031ADDAA199000091GA1001+999999999GF100991001001999999001001KA1999M-02321MA1999999101121MD1710021+9999REMSYN070AAXX  18121 31594 32965 00201 11270 21288 30112 40303 57002 333 11232;EQDQ01  00002PRCP99
0122315940999992000121815004+49420+130070FM-12+013599999V0209999C000012200019N0150001N1-02891-03071102981ADDGA1001+999999999GF100991001001999999001001MD1710061+9999REMSYN054AAXX  18151 31594 42965 00000 11289 21307 40298 57006;
0122315940999992000121818004+49420+130070FM-12+013599999V0209999C000012200019N0140001N1-02951-03131103021ADDGA1001+999999999GF100991001001999999001001MD1310031+9999REMSYN054AAXX  18181 31594 42964 00000 11295 21313 40302 53003;
0122315940999992000121821004+49420+130070FM-12+013599999V0203101N001012200019N0140001N1-03121-03301103041ADDGA1001+999999999GF100991001001999999001001MD1210011+9999REMSYN054AAXX  18211 31594 42964 03101 11312 21330 40304 52001;
0243315940999992000121900004+49420+130070FM-12+013599999V0203601N001012200019N0040001N1-03161-03321103071ADDAA199000091AJ100109199999999AY101061AY201061GF102991001001999999001011IA1239KA1120N-03191MA1999999101121MD1110021+9999MW1101REMSYN088AAXX  19001 31594 31996 23601 11316 21332 30112 40307 51002 71000 80001 333 21319 47010;EQDQ01  00002PRCP99
0140315940999992000121903004+49420+130070FM-12+013599999V0202201N001019999999N0040001N1-02581-02761103021ADDAY111031AY211031GF108991001001999999001011MD1410001+9999MW1101REMSYN066AAXX  19031 31594 41996 82201 11258 21276 40302 54000 71011 80001;
0112315940999992000121906004+49420+130070FM-12+013599999V0202001N001019999999N0100001N1-02281-02601102811ADDGF108991001001999999001011MD1810111+9999REMSYN060AAXX  19061 31594 42997 82001 11228 21260 40281 58011 80001;
0140315940999992000121909004+49420+130070FM-12+013599999V0209999C000019999999N0050001N1-02441-02691102881ADDAY171031AY221031GF108991001001999999001071MD1610021+9999MW1711REMSYN066AAXX  19091 31594 41950 80000 11244 21269 40288 56002 77172 80007;
0180315940999992000121912004+49420+130070FM-12+013599999V0209999C000019999999N0120001N1-02511-02691102861ADDAA112000791AY171061AY221061GF108991001001999999001071KA1999M-02131MD1810021+9999MW1021REMSYN082AAXX  19121 31594 11962 80000 11251 21269 40286 58002 69902 70272 80007 333 11213;
0140315940999992000121915004+49420+130070FM-12+013599999V0209999C000019999999N0048001N1-02621-02801102791ADDAY171031AY221031GF108991001001999999001071MD1710081+9999MW1711REMSYN066AAXX  19151 31594 41948 80000 11262 21280 40279 57008 77172 80007;
0140315940999992000121918004+49420+130070FM-12+013599999V0209999C000019999999N0050001N1-02551-02731102691ADDAY171061AY221061GF108991001001999999001071MD1710091+9999MW1711REMSYN066AAXX  19181 31594 41950 80000 11255 21273 40269 57009 77172 80007;
0140315940999992000121921004+49420+130070FM-12+013599999V0209999C000019999999N0050001N1-02471-02651102521ADDAY171031AY221031GF108991081001999999021999MD1710161+9999MW1711REMSYN066AAXX  19211 31594 41950 80000 11247 21265 40252 57016 77172 8802/;
0249315940999992000122000004+49420+130070FM-12+013599999V0202001N001019999999N0040001N1-02501-02671102321ADDAA112000891AJ199999999999999AY171061AY221061GF108991001001999999001071IA1239KA1120N-02671MA1999999100441MD1710201+9999MW1711REMSYN094AAXX  20001 31594 11996 82001 11250 21267 30044 40232 57020 69972 77172 80007 333 21267 47818;EQDQ01  08182SNDP  
0140315940999992000122003004+49420+130070FM-12+013599999V0202701N002019999999N0040001N1-02441-02621102171ADDAY171031AY221031GF108991001001999999001071MD1710151+9999MW1711REMSYN066AAXX  20031 31594 41996 82702 11244 21262 40217 57015 77172 80007;
0132315940999992000122006004+49420+130070FM-12+013599999V0202801N003019999999N0040001N1-02221-02401102021ADDAY171061GF108991001001999999001071MD1710121+9999MW1711REMSYN066AAXX  20061 31594 41996 82803 11222 21240 40202 57012 7717/ 80007;
0159315940999992000122009004+49420+130070FM-12+013599999V0202801N001012200019N0120001N1-02561-02741999999ADDAY171031AY211031GF103991001001999999001011MD1710031+9999MW1221REMSYN066AAXX  20091 31594 41962 32801 11256 21274 40285 57003 72271 80001;EQDQ01+102853APOSLP
0211315940999992000122012004+49420+130070FM-12+013599999V0203201N002012200019N0170001N1-02781-02961102161ADDAA112000591AY171061AY211061GA1001+999999999GF100991001001999999001001KA1999M-02091MA1999999100251MD1310051+9999MW1021REMSYN082AAXX  20121 31594 11967 03202 11278 21296 30025 40216 53005 69952 70271 333 11209;
0122315940999992000122015004+49420+130070FM-12+013599999V0203001N002012200019N0150001N1-02991-03171102231ADDGA1001+999999999GF100991001001999999001001MD1210051+9999REMSYN054AAXX  20151 31594 42965 03002 11299 21317 40223 52005;
0122315940999992000122018004+49420+130070FM-12+013599999V0209999C000012200019N0150001N1-03061-03231102251ADDGA1001+999999999GF100991001001999999001001MD1110021+9999REMSYN054AAXX  20181 31594 42965 00000 11306 21323 40225 51002;
0122315940999992000122021004+49420+130070FM-12+013599999V0209999C000012200019N0120001N1-03601-03781102331ADDGA1001+999999999GF100991001001999999001001MD1210041+9999REMSYN054AAXX  20211 31594 42962 00000 11360 21378 40233 52004;
0225315940999992000122100004+49420+130070FM-12+013599999V0203201N001012200019N0100001N1-03521-03671102321ADDAA199000091AJ100119199999999GA1001+999999999GF100991001001999999001001IA1239KA1120N-03671MA1999999100361MD1410001+9999REMSYN076AAXX  21001 31594 32997 03201 11352 21367 30036 40232 54000 333 21367 47011;EQDQ01  00002PRCP99
0122315940999992000122103004+49420+130070FM-12+013599999V0209999C000012200019N0100001N1-03001-03171102261ADDGA1001+999999999GF100991001001999999001001MD1810031+9999REMSYN054AAXX  21031 31594 42997 00000 11300 21317 40226 58003;
0122315940999992000122106004+49420+130070FM-12+013599999V0209999C000012200019N0200001N1-02601-02911102221ADDGA1001+999999999GF100991001001999999001001MD1410001+9999REMSYN054AAXX  21061 31594 42998 00000 11260 21291 40222 54000;
0122315940999992000122109004+49420+130070FM-12+013599999V0209999C000012200019N0200001N1-03041-03211102311ADDGA1001+999999999GF100991001001999999001001MD1310051+9999REMSYN054AAXX  21091 31594 42970 00000 11304 21321 40231 53005;
0196315940999992000122112004+49420+130070FM-12+013599999V0209999C000012200019N0160001N1-03391-03611102431ADDAA199000091GA1001+999999999GF100991001001999999001001KA1999M-02451MA1999999100471MD1210091+9999REMSYN070AAXX  21121 31594 32966 00000 11339 21361 30047 40243 52009 333 11245;EQDQ01  00002PRCP99
0122315940999992000122115004+49420+130070FM-12+013599999V0209999C000012200019N0130001N1-03481-03701102501ADDGA1001+999999999GF100991001001999999001001MD1310061+9999REMSYN054AAXX  21151 31594 42963 00000 11348 21370 40250 53006;
0122315940999992000122118004+49420+130070FM-12+013599999V0209999C000012200019N0120001N1-03691-03911102541ADDGA1001+999999999GF100991001001999999001001MD1210021+9999REMSYN054AAXX  21181 31594 42962 00000 11369 21391 40254 52002;
0122315940999992000122121004+49420+130070FM-12+013599999V0209999C000012200019N0100001N1-03781-03991102561ADDGA1001+999999999GF100991001001999999001001MD1310011+9999REMSYN054AAXX  21211 31594 42960 00000 11378 21399 40256 53001;
0243315940999992000122200004+49420+130070FM-12+013599999V0209999C000012200019N0040001N1-03711-03951102661ADDAA199000091AJ100119199999999AY101061AY201061GF101991001001999999001011IA1239KA1120N-03811MA1999999100681MD1210111+9999MW1101REMSYN088AAXX  22001 31594 31996 10000 11371 21395 30068 40266 52011 71000 80001 333 21381 47011;EQDQ01  00002PRCP99
0122315940999992000122203004+49420+130070FM-12+013599999V0200201N002012200019N0100001N1-03001-03231102611ADDGA1001+999999999GF100991001001999999001001MD1410001+9999REMSYN054AAXX  22031 31594 41997 00202 11300 21323 40261 54000;
0112315940999992000122206004+49420+130070FM-12+013599999V0209999C000012200019N0200001N1-02641-02951102521ADDGF101991001001999999001011MD1810051+9999REMSYN060AAXX  22061 31594 41998 10000 11264 21295 40252 58005 80001;
0122315940999992000122209004+49420+130070FM-12+013599999V0209999C000012200019N0220001N1-02941-03171102561ADDGA1001+999999999GF100991001001999999001001MD1310011+9999REMSYN054AAXX  22091 31594 42972 00000 11294 21317 40256 53001;
0196315940999992000122212004+49420+130070FM-12+013599999V0209999C000012200019N0130001N1-03201-03371102581ADDAA199000091GA1001+999999999GF100991001001999999001001KA1999M-02381MA1999999100641MD1410001+9999REMSYN070AAXX  22121 31594 32963 00000 11320 21337 30064 40258 54000 333 11238;EQDQ01  00002PRCP99
0122315940999992000122215004+49420+130070FM-12+013599999V0209999C000012200019N0140001N1-03621-03841102621ADDGA1001+999999999GF100991001001999999001001MD1310011+9999REMSYN054AAXX  22151 31594 42964 00000 11362 21384 40262 53001;
0122315940999992000122218004+49420+130070FM-12+013599999V0209999C000012200019N0130001N1-03611-03841102631ADDGA1001+999999999GF100991001001999999001001MD1310011+9999REMSYN054AAXX  22181 31594 42963 00000 11361 21384 40263 53001;
0122315940999992000122221004+49420+130070FM-12+013599999V0209999C000012200019N0120001N1-03671-03911102621ADDGA1001+999999999GF100991001001999999001001MD1810021+9999REMSYN054AAXX  22211 31594 42962 00000 11367 21391 40262 58002;
0253315940999992000122300004+49420+130070FM-12+013599999V0209999C000012200019N0040001N1-03791-04031102701ADDAA199000091AJ100119199999999AY101061AY201061GA1001+999999999GF100991001001999999001001IA1239KA1120N-03811MA1999999100711MD1310071+9999MW1101REMSYN082AAXX  23001 31594 31996 00000 11379 21403 30071 40270 53007 71000 333 21381 47011;EQDQ01  00002PRCP99
0150315940999992000122303004+49420+130070FM-12+013599999V0201001N001012200019N0040001N1-03081-03321102551ADDAY101031AY201031GA1001+999999999GF100991001001999999001001MD1810091+9999MW1101REMSYN060AAXX  23031 31594 41996 01001 11308 21332 40255 58009 71000;
0122315940999992000122306004+49420+130070FM-12+013599999V0200901N001012200019N0100001N1-02861-03161102471ADDGA1001+999999999GF100991001001999999001001MD1710071+9999REMSYN054AAXX  23061 31594 42997 00901 11286 21316 40247 57007;
0122315940999992000122309004+49420+130070FM-12+013599999V0200901N001012200019N0180001N1-03071-03291102551ADDGA1001+999999999GF100991001001999999001001MD1310071+9999REMSYN054AAXX  23091 31594 42968 00901 11307 21329 40255 53007;
0186315940999992000122312004+49420+130070FM-12+013599999V0209999C000012200019N0130001N1-03501-03741102591ADDAA199000091GF103991001001999999001011KA1999M-02701MA1999999100631MD1210011+9999REMSYN076AAXX  23121 31594 32963 30000 11350 21374 30063 40259 52001 80001 333 11270;EQDQ01  00002PRCP99
0122315940999992000122315004+49420+130070FM-12+013599999V0209999C000012200019N0120001N1-03551-03771102561ADDGA1001+999999999GF100991001001999999001001MD1810041+9999REMSYN054AAXX  23151 31594 42962 00000 11355 21377 40256 58004;
0112315940999992000122318004+49420+130070FM-12+013599999V0209999C000019999999N0120001N1-03581-03801102531ADDGF105991001001999999001061MD1710031+9999REMSYN060AAXX  23181 31594 42962 50000 11358 21380 40253 57003 80006;
0150315940999992000122321004+49420+130070FM-12+013599999V0209999C000012200019N0070001N1-03751-03991102501ADDAY111031AY211031GA1001+999999999GF100991001001999999001001MD1710051+9999MW1101REMSYN060AAXX  23211 31594 41957 00000 11375 21399 40250 57005 71011;
0253315940999992000122400004+49420+130070FM-12+013599999V0209999C000012200019N0020001N1-03861-04071102561ADDAA199000091AJ100119199999999AY111061AY211061GA1001+999999999GF100991001001999999001001IA1239KA1120N-03951MA1999999100561MD1310061+9999MW1101REMSYN082AAXX  24001 31594 31995 00000 11386 21407 30056 40256 53006 71011 333 21395 47011;EQDQ01  00002PRCP99
0140315940999992000122403004+49420+130070FM-12+013599999V0209999C000019999999N0020001N1-03221-03461102531ADDAY171031AY211031GF108991051001999999051071MD1010031+9999MW1711REMSYN066AAXX  24031 31594 41995 80000 11322 21346 40253 50003 77171 85057;
0140315940999992000122406004+49420+130070FM-12+013599999V0200901N001019999999N0100001N1-02901-03201102501ADDAY171061AY221061GF106991021001999999041011MD1710081+9999MW1021REMSYN066AAXX  24061 31594 41997 60901 11290 21320 40250 57008 70272 82041;
0140315940999992000122409004+49420+130070FM-12+013599999V0202901N001019999999N0060001N1-03061-03291102541ADDAY171031AY221031GF108991001001999999001071MD1310101+9999MW1711REMSYN066AAXX  24091 31594 41956 82901 11306 21329 40254 53010 77172 80007;
0180315940999992000122412004+49420+130070FM-12+013599999V0209999C000019999999N0050001N1-03041-03271102571ADDAA112000791AY171061AY221061GF108991001001999999001071KA1999M-02741MD1210031+9999MW1711REMSYN082AAXX  24121 31594 11950 80000 11304 21327 40257 52003 69902 77172 80007 333 11274;
0140315940999992000122415004+49420+130070FM-12+013599999V0200901N001019999999N0048001N1-03181-03341102591ADDAY171031AY221031GF108991001001999999001071MD1110011+9999MW1711REMSYN066AAXX  24151 31594 41948 80901 11318 21334 40259 51001 77172 80007;
0140315940999992000122418004+49420+130070FM-12+013599999V0209999C000019999999N0060001N1-03271-03441102601ADDAY171061AY221061GF108991001001999999001071MD1410001+9999MW1711REMSYN066AAXX  24181 31594 41956 80000 11327 21344 40260 54000 77172 80007;
0150315940999992000122421004+49420+130070FM-12+013599999V0209999C000012200019N0210001N1-03561-03771102581ADDAY171031AY211031GA1001+999999999GF100991001001999999001001MD1310061+9999MW1021REMSYN060AAXX  24211 31594 41971 00000 11356 21377 40258 53006 70271;
0230315940999992000122500004+49420+130070FM-12+013599999V0203501N001019999999N0100001N1-03671-03911102831ADDAA112000591AJ100119199999999AY171061AY211061GF108991041001999999031011IA1239KA1120N-03701MA1999999100841MD1210131+9999MW1021REMSYN094AAXX  25001 31594 11997 83501 11367 21391 30084 40283 52013 69942 70271 84031 333 21370 47011;
0112315940999992000122503004+49420+130070FM-12+013599999V0203201N003012200019N0200001N1-03181-03411102841ADDGF102991001001999999001011MD1310051+9999REMSYN060AAXX  25031 31594 42998 23203 11318 21341 40284 53005 80001;
0112315940999992000122506004+49420+130070FM-12+013599999V0202901N003012200019N0200001N1-02921-03221102861ADDGF102991001001999999001011MD1210051+9999REMSYN060AAXX  25061 31594 42998 22903 11292 21322 40286 52005 80001;
0112315940999992000122509004+49420+130070FM-12+013599999V0203001N004012200019N0230001N1-03011-03251102961ADDGF102991001001999999001011MD1210091+9999REMSYN060AAXX  25091 31594 42973 23004 11301 21325 40296 52009 80001;
0186315940999992000122512004+49420+130070FM-12+013599999V0203001N003019999999N0220001N1-03101-03341103001ADDAA199000091GF108991001001999999001011KA1999M-02771MA1999999101061MD1210031+9999REMSYN076AAXX  25121 31594 32972 83003 11310 21334 30106 40300 52003 80001 333 11277;EQDQ01  00002PRCP99
0112315940999992000122515004+49420+130070FM-12+013599999V0209999C000012200019N0500001N1-03181-03411102981ADDGF104991001001999999001011MD1810031+9999REMSYN060AAXX  25151 31594 42999 40000 11318 21341 40298 58003 80001;
0112315940999992000122518004+49420+130070FM-12+013599999V0202901N004019999999N0230001N1-03151-03381103091ADDGF108991001001999999001011MD1310111+9999REMSYN060AAXX  25181 31594 42973 82904 11315 21338 40309 53011 80001;
0122315940999992000122521004+49420+130070FM-12+013599999V0203001N003012200019N0200001N1-03181-03411103211ADDGA1001+999999999GF100991001001999999001001MD1210111+9999REMSYN054AAXX  25211 31594 42970 03003 11318 21341 40321 52011;
0215315940999992000122600004+49420+130070FM-12+013599999V0203201N002019999999N0200001N1-03181-03411103301ADDAA199000091AJ100119199999999GF108991021001999999031011IA1239KA1120N-03201MA1999999101341MD1210091+9999REMSYN082AAXX  26001 31594 32998 83202 11318 21341 30134 40330 52009 82031 333 21320 47011;EQDQ01  00002PRCP99
0112315940999992000122603004+49420+130070FM-12+013599999V0202801N003019999999N0200001N1-02761-03061103391ADDGF108991001001999999001011MD1210121+9999REMSYN060AAXX  26031 31594 42998 82803 11276 21306 40339 52012 80001;
0112315940999992000122606004+49420+130070FM-12+013599999V0202801N003019999999N0500001N1-02431-02841103381ADDGF108991001001999999001011MD1210021+9999REMSYN060AAXX  26061 31594 42999 82803 11243 21284 40338 52002 80001;
0112315940999992000122609004+49420+130070FM-12+013599999V0202701N002019999999N0400001N1-02531-02911103521ADDGF108991001001999999001011MD1210041+9999REMSYN060AAXX  26091 31594 42982 82702 11253 21291 40352 52004 80001;
0186315940999992000122612004+49420+130070FM-12+013599999V02099999999992200019N0230001N1-02811-03041103531ADDAA199000091GF102991001001999999001011KA1999M-02281MA1999999101601MD1210081+9999REMSYN076AAXX  26121 31594 32973 2000/ 11281 21304 30160 40353 52008 80001 333 11228;EQDQ01  00002PRCP99
0122315940999992000122615004+49420+130070FM-12+013599999V0203201N001012200019N0200001N1-02891-03131103621ADDGA1001+999999999GF100991001001999999001001MD1810011+9999REMSYN054AAXX  26151 31594 42970 03201 11289 21313 40362 58001;
0122315940999992000122618004+49420+130070FM-12+013599999V0203101N001012200019N0220001N1-02981-03211103561ADDGA1001+999999999GF100991001001999999001001MD1310031+9999REMSYN054AAXX  26181 31594 42972 03101 11298 21321 40356 53003;
0122315940999992000122621004+49420+130070FM-12+013599999V0203201N001012200019N0170001N1-03011-03251103541ADDGA1001+999999999GF100991001001999999001001MD1810021+9999REMSYN054AAXX  26211 31594 42967 03201 11301 21325 40354 58002;
0253315940999992000122700004+49420+130070FM-12+013599999V0209999C000012200019N0040001N1-03321-03561103581ADDAA199000091AJ100119199999999AY101061AY201061GA1001+999999999GF100991001001999999001001IA1239KA1120N-03321MA1999999101611MD1310011+9999MW1101REMSYN082AAXX  27001 31594 31996 00000 11332 21356 30161 40358 53001 71000 333 21332 47011;EQDQ01  00002PRCP99
0112315940999992000122703004+49420+130070FM-12+013599999V0203101N001019999999N0200001N1-02661-03041103461ADDGF106991001001999999001011MD1810071+9999REMSYN060AAXX  27031 31594 42998 63101 11266 21304 40346 58007 80001;
0122315940999992000122706004+49420+130070FM-12+013599999V0203001N001012200019N0500001N1-02391-02861103291ADDGA1001+999999999GF100991001001999999001001MD1710151+9999REMSYN054AAXX  27061 31594 42999 03001 11239 21286 40329 57015;
0122315940999992000122709004+49420+130070FM-12+013599999V0209999C000012200019N0260001N1-02861-03161103241ADDGA1001+999999999GF100991001001999999001001MD1710081+9999REMSYN054AAXX  27091 31594 42976 00000 11286 21316 40324 57008;
0224315940999992000122712004+49420+130070FM-12+013599999V0209999C000012200019N0070001N1-03231-03461103241ADDAA199000091AY101061AY201061GA1001+999999999GF100991001001999999001001KA1999M-02231MA1999999101281MD1710031+9999MW1101REMSYN076AAXX  27121 31594 31957 00000 11323 21346 30128 40324 57003 71000 333 11223;EQDQ01  00002PRCP99
0122315940999992000122715004+49420+130070FM-12+013599999V0209999C000012200019N0100001N1-03281-03511103231ADDGA1001+999999999GF100991001001999999001001MD1710021+9999REMSYN054AAXX  27151 31594 42960 00000 11328 21351 40323 57002;
0122315940999992000122718004+49420+130070FM-12+013599999V0209999C000012200019N0120001N1-03461-03671103211ADDGA1001+999999999GF100991001001999999001001MD1710021+9999REMSYN054AAXX  27181 31594 42962 00000 11346 21367 40321 57002;
0122315940999992000122721004+49420+130070FM-12+013599999V0209999C000012200019N0110001N1-03471-03701103211ADDGA1001+999999999GF100991001001999999001001MD1410001+9999REMSYN054AAXX  27211 31594 42961 00000 11347 21370 40321 54000;
0253315940999992000122800004+49420+130070FM-12+013599999V0209999C000012200019N0040001N1-03501-03741103311ADDAA199000091AJ100119199999999AY101061AY201061GA1001+999999999GF100991001001999999001001IA1239KA1120N-03601MA1999999101331MD1210091+9999MW1101REMSYN082AAXX  28001 31594 31996 00000 11350 21374 30133 40331 52009 71000 333 21360 47011;EQDQ01  00002PRCP99
0092315940999992000122803004+49420+130070FM-12+013599999V0209999C000019999999N0200001N1-02881-03121103271ADDGF107991001001999999001011REMSYN054AAXX  28031 31594 42998 70000 11288 21312 40327 80001;
0122315940999992000122806004+49420+130070FM-12+013599999V0203001N001012200019N0100001N1-02531-02841103201ADDGA1001+999999999GF100991001001999999001001MD1610041+9999REMSYN054AAXX  28061 31594 42997 03001 11253 21284 40320 56004;
0150315940999992000122809004+49420+130070FM-12+013599999V0209999C000012200019N0060001N1-02691-02931103271ADDAY101031AY201031GA1001+999999999GF100991001001999999001001MD1310051+9999MW1101REMSYN060AAXX  28091 31594 41956 00000 11269 21293 40327 53005 71000;
0224315940999992000122812004+49420+130070FM-12+013599999V0209999C000012200019N0060001N1-02951-03191103251ADDAA199000091AY101061AY201061GA1001+999999999GF100991001001999999001001KA1999M-02361MA1999999101321MD1810031+9999MW1101REMSYN076AAXX  28121 31594 31956 00000 11295 21319 30132 40325 58003 71000 333 11236;EQDQ01  00002PRCP99
0150315940999992000122815004+49420+130070FM-12+013599999V0209999C000012200019N0050001N1-03041-03271103261ADDAY101031AY201031GA1001+999999999GF100991001001999999001001MD1410001+9999MW1101REMSYN060AAXX  28151 31594 41950 00000 11304 21327 40326 54000 71000;
0122315940999992000122818004+49420+130070FM-12+013599999V0209999C000012200019N0130001N1-03221-03461103311ADDGA1001+999999999GF100991001001999999001001MD1310031+9999REMSYN054AAXX  28181 31594 42963 00000 11322 21346 40331 53003;
0122315940999992000122821004+49420+130070FM-12+013599999V0209999C000012200019N0150001N1-03541-03771103301ADDGA1001+999999999GF100991001001999999001001MD1810031+9999REMSYN054AAXX  28211 31594 42965 00000 11354 21377 40330 58003;
0243315940999992000122900004+49420+130070FM-12+013599999V0209999C000019999999N0040001N1-03381-03611103261ADDAA199000091AJ100119199999999AY111061AY211061GF108991001001999999001011IA1239KA1120N-03571MA1999999101281MD1510081+9999MW1101REMSYN088AAXX  29001 31594 31996 80000 11338 21361 30128 40326 55008 71011 80001 333 21357 47011;EQDQ01  00002PRCP99
0140315940999992000122903004+49420+130070FM-12+013599999V0209999C000019999999N0040001N1-02681-02931103171ADDAY121031AY221031GF108991001001999999001071MD1810031+9999MW1101REMSYN066AAXX  29031 31594 41996 80000 11268 21293 40317 58003 71022 80007;
0112315940999992000122906004+49420+130070FM-12+013599999V0203101N001019999999N0100001N1-02481-02801103001ADDGF108991001001999999001071MD1710141+9999REMSYN060AAXX  29061 31594 42997 83101 11248 21280 40300 57014 80007;
0112315940999992000122909004+49420+130070FM-12+013599999V0203001N001019999999N0120001N1-02831-03061103041ADDGF105991001001999999001011MD1310011+9999REMSYN060AAXX  29091 31594 42962 53001 11283 21306 40304 53001 80001;
0196315940999992000122912004+49420+130070FM-12+013599999V0203001N001012200019N0100001N1-03101-03281103091ADDAA199000091GA1001+999999999GF100991001001999999001001KA1999M-02351MA1999999101151MD1210031+9999REMSYN070AAXX  29121 31594 32960 03001 11310 21328 30115 40309 52003 333 11235;EQDQ01  00002PRCP99
0141315940999992000122915004+49420+130070FM-12+013599999V0203101N001012200019N0110001N1-03251-03481999999ADDGA1001+999999999GF100991001001999999001001MD1810031+9999REMSYN054AAXX  29151 31594 42961 03101 11325 21348 40408 58003;EQDQ01+104083APOSLP
0122315940999992000122918004+49420+130070FM-12+013599999V0209999C000012200019N0130001N1-03411-03641103101ADDGA1001+999999999GF100991001001999999001001MD1310011+9999REMSYN054AAXX  29181 31594 42963 00000 11341 21364 40310 53001;
0150315940999992000122921004+49420+130070FM-12+013599999V0209999C000012200019N0060001N1-03571-03801103061ADDAY101031AY201031GA1001+999999999GF100991001001999999001001MD1810051+9999MW1101REMSYN060AAXX  29211 31594 41956 00000 11357 21380 40306 58005 71000;
0237315940999992000123000004+49420+130070FM-12+013599999V0209999C000019999999N0040001N1-03441-03671999999ADDAA199000091AJ100119199999999AY111061AY211061GF108991001001999999001011IA1239KA1120N-03571MA1999999101051MD1710031+9999MW1101REMSYN082AAXX  30001 31594 31996 80000 11344 21367 30105 57003 71011 80001 333 21357 47011;EQDQ01  00002PRCP99
0140315940999992000123003004+49420+130070FM-12+013599999V0203201N001019999999N0040001N1-02991-03171103831ADDAY121031AY221031GF108991001001999999001071MD1710151+9999MW1101REMSYN066AAXX  30031 31594 41996 83201 11299 21317 40383 57015 71022 80007;
0112315940999992000123006004+49420+130070FM-12+013599999V0203301N002019999999N0200001N1-02711-02941102671ADDGF108991001001999999001071MD1710141+9999REMSYN060AAXX  30061 31594 42998 83302 11271 21294 40267 57014 80007;
0112315940999992000123009004+49420+130070FM-12+013599999V0203201N002019999999N0230001N1-02821-03061102591ADDGF108991001001999999001071MD1710081+9999REMSYN060AAXX  30091 31594 42973 83202 11282 21306 40259 57008 80007;
0186315940999992000123012004+49420+130070FM-12+013599999V0203201N002012200019N0200001N1-02851-03081102481ADDAA199000091GF102991001001999999001011KA1999M-02581MA1999999100571MD1510111+9999REMSYN076AAXX  30121 31594 32970 23202 11285 21308 30057 40248 55011 80001 333 11258;EQDQ01  00002PRCP99
0141315940999992000123015004+49420+130070FM-12+013599999V0203201N002012200019N0210001N1-02931-03111999999ADDGA1001+999999999GF100991001001999999001001MD1810061+9999REMSYN054AAXX  30151 31594 42971 03202 11293 21311 40350 58006;EQDQ01+103503APOSLP
0122315940999992000123018004+49420+130070FM-12+013599999V0203201N003012200019N0200001N1-03071-03291102501ADDGA1001+999999999GF100991001001999999001001MD1310061+9999REMSYN054AAXX  30181 31594 42970 03203 11307 21329 40250 53006;
0122315940999992000123021004+49420+130070FM-12+013599999V0203101N002012200019N0180001N1-03371-03551102531ADDGA1001+999999999GF100991001001999999001001MD1410001+9999REMSYN054AAXX  30211 31594 42968 03102 11337 21355 40253 54000;
0225315940999992000123100004+49420+130070FM-12+013599999V0209999C000012200019N0100001N1-03501-03741102631ADDAA199000091AJ100119199999999GA1001+999999999GF100991001001999999001001IA1239KA1120N-03511MA1999999100671MD1310101+9999REMSYN076AAXX  31001 31594 32997 00000 11350 21374 30067 40263 53010 333 21351 47011;EQDQ01  00002PRCP99
0122315940999992000123103004+49420+130070FM-12+013599999V0203101N003012200019N0200001N1-03021-03351102621ADDGA1001+999999999GF100991001001999999001001MD1010021+9999REMSYN054AAXX  31031 31594 42998 03103 11302 21335 40262 50002;
0122315940999992000123106004+49420+130070FM-12+013599999V0202901N003012200019N0200001N1-02651-02971102491ADDGA1001+999999999GF100991001001999999001001MD1710091+9999REMSYN054AAXX  31061 31594 42998 02903 11265 21297 40249 57009;
0122315940999992000123109004+49420+130070FM-12+013599999V0203201N001012200019N0200001N1-02941-03171102591ADDGA1001+999999999GF100991001001999999001001MD1310071+9999REMSYN054AAXX  31091 31594 42970 03201 11294 21317 40259 53007;
0196315940999992000123112004+49420+130070FM-12+013599999V0209999C000012200019N0170001N1-03041-03271102691ADDAA199000091GA1001+999999999GF100991001001999999001001KA1999M-02511MA1999999100761MD1210091+9999REMSYN070AAXX  31121 31594 32967 00000 11304 21327 30076 40269 52009 333 11251;EQDQ01  00002PRCP99
0122315940999992000123115004+49420+130070FM-12+013599999V0203101N001012200019N0160001N1-03551-03771102681ADDGA1001+999999999GF100991001001999999001001MD1810051+9999REMSYN054AAXX  31151 31594 42966 03101 11355 21377 40268 58005;
0122315940999992000123118004+49420+130070FM-12+013599999V0209999C000012200019N0140001N1-03471-03701102831ADDGA1001+999999999GF100991001001999999001001MD1810041+9999REMSYN054AAXX  31181 31594 42964 00000 11347 21370 40283 58004;
0122315940999992000123121004+49420+130070FM-12+013599999V0209999C000012200019N0120001N1-03731-03951102621ADDGA1001+999999999GF100991001001999999001001MD1710031+9999REMSYN054AAXX  31211 31594 42962 00000 11373 21395 40262 57003;
