0172408290999992000010103004+31330+061480FM-12+0489OIZB V0203201N005012200019N0100001N1+00541-00291102021ADDGA1001+999999999GF100991001001999999001001KA1999N+00501MA1999999096211MD1310071+9999REMSYN076AAXX  01031 40829 42960 03205 10054 21029 39621 40202 53007 90250 333 20050;
0183408290999992000012412004+31330+061480FM-12+0489OIZB V0203401N007012200019N0100001N1+01581-00321101901ADDAA199000091GA1001+999999999GF100991001001999999001001MA1999999096161MD1610041+9999REMSYN070AAXX  24121 40829 32960 03407 10158 21032 39616 40190 56004 91150 333;EQDQ01  00002PRCP99
0189408290999992000012418004+31330+061480FM-12+0489OIZB V0203201N005012200019N0100001N1+00741-00291102531ADDAA199000091GA1001+999999999GF100991001001999999001001MA1999999096681MD1210281+9999REMSYN076AAXX  24181 40829 32960 03205 10074 21029 39668 40253 52028 91750 333 55082;EQDQ01  00002PRCP99
0183408290999992000012500004+31330+061480FM-12+0489OIZB V0203201N009012200019N0100001N1+00461-00401102421ADDAA199000091GA1001+999999999GF100991001001999999001001MA1999999096611MD1610031+9999REMSYN070AAXX  25001 40829 32960 03209 10046 21040 39661 40242 56003 92350 333;EQDQ01  00002PRCP99
0223408290999992000012506004+31330+061480FM-12+0489OIZB V0203101N011012200019N0070001N1+01021-00211102681ADDAA124000091AY101061AY201061GA1001+999999999GF100991001001999999001001MA1999999096801MD1110071+9999MW1071REMSYN088AAXX  25061 40829 31957 03111 10102 21021 39680 40268 51007 70700 90850 333 30004 70000;EQDQ01  00002PRCP24
0183408290999992000020200004+31330+061480FM-12+0489OIZB V0203601N004012200019N0100001N1+00421-00171101341ADDAA199000091GA1001+999999999GF100991001001999999001001MA1999999095571MD1310031+9999REMSYN070AAXX  02001 40829 32960 03604 10042 21017 39557 40134 53003 92350 333;EQDQ01  00002PRCP99
0189408290999992000020418004+31330+061480FM-12+0489OIZB V0209999C000012200019N0100001N1+00641-00181102121ADDAA199000091GA1001+999999999GF100991001001999999001001MA1999999096361MD1310181+9999REMSYN076AAXX  04181 40829 32960 00000 10064 21018 39636 40212 53018 91750 333 55098;EQDQ01  00002PRCP99
0183408290999992000020500004+31330+061480FM-12+0489OIZB V0202401N004012200019N0100001N1+00161-00541101981ADDAA199000091GA1001+999999999GF100991001001999999001001MA1999999096141MD1610101+9999REMSYN070AAXX  05001 40829 32960 02404 10016 21054 39614 40198 56010 92350 333;EQDQ01  00002PRCP99
0195408290999992000020506004+31330+061480FM-12+0489OIZB V0203101N003012200019N0100001N1+00921-00441102181ADDAA124000091GA1001+999999999GF100991001001999999001001MA1999999096321MD1210111+9999REMSYN082AAXX  05061 40829 32960 03103 10092 21044 39632 40218 52011 90550 333 30104 70000;EQDQ01  00002PRCP24
0195408290999992000020806004+31330+061480FM-12+0489OIZB V0203201N003012200019N0100001N1+01221+00351100981ADDAA124000091GA1001+999999999GF100991001001999999001001MA1999999095271MD1110131+9999REMSYN082AAXX  08061 40829 32960 03203 10122 20035 39527 40098 51013 90550 333 30003 70000;EQDQ01  00002PRCP24
0212408290999992000021206004+31330+061480FM-12+0489OIZB V0203101N007012200019N0100001N1+01161-00641102321ADDAA124000091GA1011+012009039GF104991011041999999031001MA1999999096481MD1010261+9999REMSYN099AAXX  12061 40829 32960 43107 10116 21064 39648 4023250026 81430 90550 333 30001 70000 81340 83660;EQDQ01  00002PRCP24
0189408290999992000021218004+31330+061480FM-12+0489OIZB V0202601N003012200019N0100001N1+00741-00701102181ADDAA199000091GA1001+999999999GF100991001001999999001001MA1999999096381MD1210091+9999REMSYN076AAXX  12181 40829 32960 02603 10074 21070 39638 40218 52009 91750 333 55057;EQDQ01  00002PRCP99
0179408290999992000021300004+31330+061480FM-12+0489OIZB V0209999C000012200019N0100001N1+00141-00751102191ADDAA199000091GA1001+999999999GF100991001001999999001001MA1999999096341MD1610041+9999REMSYN066AAXX  13001 40829 32960 00000 10014 21075 39634 40219 56004 92350;EQDQ01  00002PRCP99
0183408290999992000021312004+31330+061480FM-12+0489OIZB V0209999C000012200019N9999999N1+99999+99999102151ADDAA199000091GA1041+060009019GF104991999999999999999999MA1999999096321MD1610181+9999REMSYN070AAXX  13121 40829 329/0 40000 110// 39632 40215 56018 91150 333 84070;EQDQ01  00002PRCP99
0223408290999992000021412004+31330+061480FM-12+0489OIZB V0201201N00401036001CN0100001N1+02041-00621101581ADDAA199000091GA1011+012009089GA2031+030009039GF106991011011012501031081MA1999999095711MD1710281+9999REMSYN094AAXX  14121 40829 32660 61204 10204 21062 39571 40158 57028 81138 91150 333 81840 83360 85270;EQDQ01  00002PRCP99
0189408290999992000021418004+31330+061480FM-12+0489OIZB V0203401N003012200019N0100001N1+00821-00641101421ADDAA199000091GA1001+999999999GF100991001001999999001001MA1999999095621MD1110021+9999REMSYN076AAXX  14181 40829 32960 03403 10082 21064 39562 40142 51002 91750 333 55015;EQDQ01  00002PRCP99
0179408290999992000021500004+31330+061480FM-12+0489OIZB V0203201N006012200019N0100001N1+01001-00551101571ADDAA199000091GA1001+999999999GF100991001001999999001001MA1999999095891MD1210221+9999REMSYN066AAXX  15001 40829 32960 03206 10100 21055 39589 40157 52022 92350;EQDQ01  00002PRCP99
0195408290999992000021512004+31330+061480FM-12+0489OIZB V0203401N007012200019N0100001N1+01801+00141101851ADDAA199000091GA1011+012009029GF101991011011012501001001MA1999999096141MD1810111+9999REMSYN082AAXX  15121 40829 32660 13407 10180 20014 39614 40185 58011 81100 91150 333 81840;EQDQ01  00002PRCP99
0189408290999992000021518004+31330+061480FM-12+0489OIZB V0203201N005012200019N0100001N1+01001-00081102191ADDAA199000091GA1001+999999999GF100991001001999999001001MA1999999096431MD1210201+9999REMSYN076AAXX  15181 40829 32960 03205 10100 21008 39643 40219 52020 91750 333 55084;EQDQ01  00002PRCP99
0179408290999992000021600004+31330+061480FM-12+0489OIZB V0203301N005012200019N0100001N1+00521-00141102261ADDAA199000091GA1001+999999999GF100991001001999999001001MA1999999096491MD1010011+9999REMSYN066AAXX  16001 40829 32960 03305 10052 21014 39649 40226 50001 92350;EQDQ01  00002PRCP99
0195408290999992000021900004+31330+061480FM-12+0489OIZB V0200901N002012200019N0100001N1-00521-00631999999ADDAA199000091GA1001+999999999GF100991001001999999001001MA1999999083901REMSYN064AAXX  19001 40829 32960 00902 11052 21063 38390 58802 92345 333;EQDQ01+000087APCTENQ02+008027APC3  Q03  00002PRCP99
0211408290999992000021912004+31330+061480FM-12+0489OIZB V0203401N015012200019N0015001N1+01601+00281101601ADDAA199000091AY131061AY231061GA1001+999999999GF100991001001999999001001MA1999999095891MD1810121+9999MW1071REMSYN076AAXX  19121 40829 31915 03415 10160 20028 39589 40160 58012 70733 91150 333;EQDQ01  00002PRCP99
0217408290999992000021918004+31330+061480FM-12+0489OIZB V0203001N009012200019N0060001N1+01041+00321101861ADDAA199000091AY101061AY201061GA1001+999999999GF100991001001999999001001MA1999999096191MD1210181+9999MW1071REMSYN082AAXX  19181 40829 31956 03009 10104 20032 39619 40186 52018 70700 91750 333 55094;EQDQ01  00002PRCP99
0211408290999992000022000004+31330+061480FM-12+0489OIZB V0203201N008012200019N0080001N1+00621-00241101901ADDAA199000091AY101061AY201061GA1001+999999999GF100991001001999999001001MA1999999096141MD1510101+9999MW1071REMSYN076AAXX  20001 40829 31958 03208 10062 21024 39614 40190 55010 70700 92350 333;EQDQ01  00002PRCP99
0189408290999992000022018004+31330+061480FM-12+0489OIZB V0201501N004012200019N0100001N1+00841-00261101571ADDAA199000091GA1001+999999999GF100991001001999999001001MA1999999095811MD1110031+9999REMSYN076AAXX  20181 40829 32960 01504 10084 21026 39581 40157 51003 91750 333 55103;EQDQ01  00002PRCP99
0183408290999992000022100004+31330+061480FM-12+0489OIZB V0209999C000012200019N0100001N1+00201-00411101541ADDAA199000091GA1001+999999999GF100991001001999999001001MA1999999095781MD1610031+9999REMSYN070AAXX  21001 40829 32960 00000 10020 21041 39578 40154 56003 92350 333;EQDQ01  00002PRCP99
0195408290999992000022106004+31330+061480FM-12+0489OIZB V0201401N002012200019N0100001N1+01401-00631101811ADDAA124000091GA1001+999999999GF100991001001999999001001MA1999999096041MD1210161+9999REMSYN082AAXX  21061 40829 32960 01402 10140 21063 39604 40181 52016 90550 333 30102 70000;EQDQ01  00002PRCP24
0229408290999992000022206004+31330+061480FM-12+0489OIZB V0203201N009012200019N0080001N1+01401+00261102181ADDAA124000091AY101061AY201061GA1001+999999999GF100991001001999999001001MA1999999096411MD1210231+9999MW1071REMSYN094AAXX  22061 40829 31958 03209 10140 20026 39641 40218 52023 70700 90550 333 30004 50180 70000;EQDQ01  00002PRCP24
0183408290999992000022212004+31330+061480FM-12+0489OIZB V0203201N004012200019N0100001N1+01881-00071101921ADDAA199000091GA1001+999999999GF100991001001999999001001MA1999999096081MD1710221+9999REMSYN070AAXX  22121 40829 32960 03204 10188 21007 39608 40192 57022 91150 333;EQDQ01  00002PRCP99
0189408290999992000022218004+31330+061480FM-12+0489OIZB V0209999C000012200019N0100001N1+00761-00311102011ADDAA199000091GA1001+999999999GF100991001001999999001001MA1999999096231MD1210141+9999REMSYN076AAXX  22181 40829 32960 00000 10076 21031 39623 40201 52014 91750 333 55105;EQDQ01  00002PRCP99
0179408290999992000022300004+31330+061480FM-12+0489OIZB V0209999C000012200019N0100001N1+00301-00401101951ADDAA199000091GA1001+999999999GF100991001001999999001001MA1999999096171MD1610021+9999REMSYN066AAXX  23001 40829 32960 00000 10030 21040 39617 40195 56002 92350;EQDQ01  00002PRCP99
0183408290999992000022312004+31330+061480FM-12+0489OIZB V0209999C000012200019N0100001N1+02221-00761101701ADDAA199000091GA1001+999999999GF100991001001999999001001MA1999999095991MD1710211+9999REMSYN070AAXX  23121 40829 32960 00000 10222 21076 39599 40170 57021 91150 333;EQDQ01  00002PRCP99
0209408290999992000022318004+31330+061480FM-12+0489OIZB V0203601N004012200019N0100001N1+01041-00261101901ADDAA199000091GA1011+030009079GF101991011001999999031001GJ106009MA1999999096161MD1310171+9999REMSYN088AAXX  23181 40829 32960 13604 10104 21026 39616 40190 53017 81030 91750 333 55100 81360;EQDQ01  00002PRCP99
0183408290999992000022400004+31330+061480FM-12+0489OIZB V0203301N004012200019N0100001N1+00601-00081101881ADDAA199000091GA1001+999999999GF100991001001999999001001MA1999999096151MD1510041+9999REMSYN070AAXX  24001 40829 32960 03304 10060 21008 39615 40188 55004 92350 333;EQDQ01  00002PRCP99
0183408290999992000022412004+31330+061480FM-12+0489OIZB V0209999C000012200019N0100001N1+02381-00361101861ADDAA199000091GA1001+999999999GF100991001001999999001001MA1999999096151MD1810171+9999REMSYN070AAXX  24121 40829 32960 00000 10238 21036 39615 40186 58017 91150 333;EQDQ01  00002PRCP99
0189408290999992000022418004+31330+061480FM-12+0489OIZB V0209999C000012200019N0100001N1+01281+00081101981ADDAA199000091GA1001+999999999GF100991001001999999001001MA1999999096271MD1210071+9999REMSYN076AAXX  24181 40829 32960 00000 10128 20008 39627 40198 52007 91750 333 55103;EQDQ01  00002PRCP99
0183408290999992000022500004+31330+061480FM-12+0489OIZB V0209999C000012200019N0100001N1+00661-00521101911ADDAA199000091GA1001+999999999GF100991001001999999001001MA1999999096221MD1610051+9999REMSYN070AAXX  25001 40829 32960 00000 10066 21052 39622 40191 56005 92350 333;EQDQ01  00002PRCP99
0201408290999992000022506004+31330+061480FM-12+0489OIZB V0209999C000012200019N0100001N1+01521-00581102211ADDAA124000091GA1001+999999999GF100991001001999999001001MA1999999096471MD1210171+9999REMSYN088AAXX  25061 40829 32960 00000 10152 21058 39647 40221 52017 90550 333 30001 50700 70000;EQDQ01  00002PRCP24
0183408290999992000022512004+31330+061480FM-12+0489OIZB V0209999C000012200019N0100001N1+02421-00231101611ADDAA199000091GA1001+999999999GF100991001001999999001001MA1999999095931MD1710301+9999REMSYN070AAXX  25121 40829 32960 00000 10242 21023 39593 40161 57030 91150 333;EQDQ01  00002PRCP99
0183408290999992000022600004+31330+061480FM-12+0489OIZB V0209999C000012200019N0100001N1+00921-00141101051ADDAA199000091GA1001+999999999GF100991001001999999001001MA1999999095431MD1710201+9999REMSYN070AAXX  26001 40829 32960 00000 10092 21014 39543 40105 57020 92350 333;EQDQ01  00002PRCP99
0201408290999992000022606004+31330+061480FM-12+0489OIZB V0203201N007012200019N0100001N1+01741-00401101281ADDAA124000091GA1001+999999999GF100991001001999999001001MA1999999095621MD1210151+9999REMSYN088AAXX  26061 40829 32960 03207 10174 21040 39562 40128 52015 90550 333 30005 50620 70000;EQDQ01  00002PRCP24
0207408290999992000022612004+31330+061480FM-12+0489OIZB V0200901N003012200019N0080001N1+02701+00211100741ADDAA199000091AY101061AY201061GA1001+999999999GF100991001001999999001001MA1999999095181MD1710241+9999MW1051REMSYN072AAXX  26121 40829 31958 00903 10270 20021 39518 40074 57024 70500 91150;EQDQ01  00002PRCP99
0189408290999992000022618004+31330+061480FM-12+0489OIZB V0209999C000012200019N0100001N1+01501+00151100941ADDAA199000091GA1001+999999999GF100991001001999999001001MA1999999095341MD1210111+9999REMSYN076AAXX  26181 40829 32960 00000 10150 20015 39534 40094 52011 91750 333 55100;EQDQ01  00002PRCP99
0229408290999992000022706004+31330+061480FM-12+0489OIZB V0203301N017012200019N0006001N1+01581+00401101481ADDAA124000091AY131061AY201061GA1001+999999999GF100991001001999999001001MA1999999095811MD1310241+9999MW1311REMSYN094AAXX  27061 40829 31906 03317 10158 20040 39581 40148 53024 73130 90550 333 30008 51140 70000;EQDQ01  00002PRCP24
0183408290999992000022712004+31330+061480FM-12+0489OIZB V0203601N006012200019N0100001N1+02381+00521101111ADDAA199000091GA1001+999999999GF100991001001999999001001MA1999999095541MD1710201+9999REMSYN070AAXX  27121 40829 32960 03606 10238 20052 39554 40111 57020 91150 333;EQDQ01  00002PRCP99
0189408290999992000022718004+31330+061480FM-12+0489OIZB V0203201N003012200019N0100001N1+01341+00201101361ADDAA199000091GA1001+999999999GF100991001001999999001001MA1999999095691MD1310151+9999REMSYN076AAXX  27181 40829 32960 03203 10134 20020 39569 40136 53015 91750 333 55092;EQDQ01  00002PRCP99
0183408290999992000022800004+31330+061480FM-12+0489OIZB V0209999C000012200019N0100001N1+00801+00121101321ADDAA199000091GA1001+999999999GF100991001001999999001001MA1999999095591MD1610101+9999REMSYN070AAXX  28001 40829 32960 00000 10080 20012 39559 40132 56010 92350 333;EQDQ01  00002PRCP99
0213408290999992000022806004+31330+061480FM-12+0489OIZB V0203201N006012200019N0100001N1+01841+00061101381ADDAA124000091GA1011+060009019GF101991001001999999001011MA1999999095721MD1310091+9999REMSYN100AAXX  28061 40829 32960 13206 10184 20006 39572 40138 53009 80001 90550 333 30006 50790 70000 81070;EQDQ01  00002PRCP24
0195408290999992000022812004+31330+061480FM-12+0489OIZB V0203401N005012200019N0100001N1+02701+00411101161ADDAA199000091GA1011+060009019GF101991001001999999001011MA1999999095511MD1710061+9999REMSYN082AAXX  28121 40829 32960 13405 10270 20041 39551 40116 57006 80001 91150 333 81070;EQDQ01  00002PRCP99
0189408290999992000022818004+31330+061480FM-12+0489OIZB V0203401N007012200019N0100001N1+01801+00301101601ADDAA199000091GA1001+999999999GF100991001001999999001001MA1999999095991MD1210211+9999REMSYN076AAXX  28181 40829 32960 03407 10180 20030 39599 40160 52021 91750 333 55091;EQDQ01  00002PRCP99
0211408290999992000022900004+31330+061480FM-12+0489OIZB V0203301N016012200019N0010001N1+01141+00261101681ADDAA199000091AY101061AY201061GA1001+999999999GF100991001001999999001001MA1999999096081MD1110041+9999MW1071REMSYN076AAXX  29001 40829 31910 03316 10114 20026 39608 40168 51004 70700 92350 333;EQDQ01  00002PRCP99
0211408290999992000022912004+31330+061480FM-12+0489OIZB V0203001N013012200019N0010001N1+01801+00321101911ADDAA199000091AY101061AY201061GA1001+999999999GF100991001001999999001001MA1999999096211MD1710141+9999MW1071REMSYN076AAXX  29121 40829 31910 03013 10180 20032 39621 40191 57014 70700 91150 333;EQDQ01  00002PRCP99
0189408290999992000030118004+31330+061480FM-12+0489OIZB V0203201N004012200019N0100001N1+01041-00681102301ADDAA199000091GA1001+999999999GF100991001001999999001001MA1999999096281MD1210191+9999REMSYN076AAXX  01181 40829 32960 03204 10104 21068 39628 40230 52019 91750 333 55027;EQDQ01  00002PRCP99
0183408290999992000030200004+31330+061480FM-12+0489OIZB V0203301N007012200019N0100001N1+00661-00231101871ADDAA199000091GA1001+999999999GF100991001001999999001001MA1999999096121MD1610071+9999REMSYN070AAXX  02001 40829 32960 03307 10066 21023 39612 40187 56007 92350 333;EQDQ01  00002PRCP99
0213408290999992000030206004+31330+061480FM-12+0489OIZB V0203301N005012200019N0100001N1+01181-00521999999ADDAA199000091AY101061AY201061GA1001+999999999GF100991001001999999001001MA1999999096231MW1001REMSYN060AAXX  02061 40829 32960 03305 10118 21052 39623 50880 70000;EQDQ01+000007APCTENQ02+008807APC3  Q03  00002PRCP99
0183408290999992000030212004+31330+061480FM-12+0489OIZB V0201401N003012200019N0100001N1+01901-00661101131ADDAA199000091GA1001+999999999GF100991001001999999001001MA1999999095431MD1710451+9999REMSYN070AAXX  02121 40829 32960 01403 10190 21066 39543 40113 57045 91150 333;EQDQ01  00002PRCP99
0189408290999992000030218004+31330+061480FM-12+0489OIZB V0209999C000012200019N0100001N1+01001-00081100931ADDAA199000091GA1001+999999999GF100991001001999999001001MA1999999095221MD1710081+9999REMSYN076AAXX  02181 40829 32960 00000 10100 21008 39522 40093 57008 91750 333 55098;EQDQ01  00002PRCP99
0183408290999992000030300004+31330+061480FM-12+0489OIZB V0203201N004012200019N0100001N1+00741-00381100651ADDAA199000091GA1001+999999999GF100991001001999999001001MA1999999094981MD1610061+9999REMSYN070AAXX  03001 40829 32960 03204 10074 21038 39498 40065 56006 92350 333;EQDQ01  00002PRCP99
0201408290999992000030306004+31330+061480FM-12+0489OIZB V0203301N007012200019N0100001N1+01501+00121101331ADDAA124000091GA1001+999999999GF100991001001999999001001MA1999999095611MD1210371+9999REMSYN088AAXX  03061 40829 32960 03307 10150 20012 39561 40133 52037 90550 333 30006 50790 70000;EQDQ01  00002PRCP24
0211408290999992000030312004+31330+061480FM-12+0489OIZB V0203101N008012200019N0080001N1+02001+00091101241ADDAA199000091AY101061AY201061GA1001+999999999GF100991001001999999001001MA1999999095561MD1110061+9999MW1071REMSYN076AAXX  03121 40829 31958 03108 10200 20009 39556 40124 51006 70700 91150 333;EQDQ01  00002PRCP99
0229408290999992000030406004+31330+061480FM-12+0489OIZB V0203201N010012200019N0040001N1+01101-00141102381ADDAA124000091AY101061AY201061GA1001+999999999GF100991001001999999001001MA1999999096541MD1110061+9999MW1071REMSYN094AAXX  04061 40829 31940 03210 10110 21014 39654 40238 51006 70700 90550 333 30003 50970 70000;EQDQ01  00002PRCP24
0183408290999992000030500004+31330+061480FM-12+0489OIZB V0209999C000012200019N0100001N1+00301-00401101701ADDAA199000091GA1001+999999999GF100991001001999999001001MA1999999095891MD1710181+9999REMSYN070AAXX  05001 40829 32960 00000 10030 21040 39589 40170 57018 92350 333;EQDQ01  00002PRCP99
0201408290999992000030506004+31330+061480FM-12+0489OIZB V0209999C000012200019N0100001N1+01261-00291101471ADDAA124000091GA1001+999999999GF100991001001999999001001MA1999999095971MD1810041+9999REMSYN088AAXX  05061 40829 32960 00000 10126 21029 39597 40147 58004 90550 333 30104 50440 70000;EQDQ01  00002PRCP24
0183408290999992000030512004+31330+061480FM-12+0489OIZB V0200801N004012200019N0100001N1+01961-00401101301ADDAA199000091GA1001+999999999GF100991001001999999001001MA1999999095301MD1710331+9999REMSYN070AAXX  05121 40829 32960 00804 10196 21040 39530 40130 57033 91150 333;EQDQ01  00002PRCP99
0229408290999992000030606004+31330+061480FM-12+0489OIZB V0203201N018012200019N0005001N1+01261+00001101681ADDAA124000091AY101061AY201061GA1001+999999999GF100991001001999999001001MA1999999095971MD1210211+9999MW1311REMSYN094AAXX  06061 40829 31905 03218 10126 20000 39597 40168 52021 73100 90550 333 30006 50880 70000;EQDQ01  00002PRCP24
0211408290999992000030612004+31330+061480FM-12+0489OIZB V0203201N013012200019N0020001N1+01721+00421101491ADDAA199000091AY131061AY231061GA1001+999999999GF100991001001999999001001MA1999999095801MD1610101+9999MW1071REMSYN076AAXX  06121 40829 31920 03213 10172 20042 39580 40149 56010 70733 91150 333;EQDQ01  00002PRCP99
0189408290999992000030618004+31330+061480FM-12+0489OIZB V0202901N002012200019N0100001N1+01081-00441101731ADDAA199000091GA1001+999999999GF100991001001999999001001MA1999999095981MD1310181+9999REMSYN076AAXX  06181 40829 32960 02902 10108 21044 39598 40173 53018 91750 333 55094;EQDQ01  00002PRCP99
0183408290999992000030700004+31330+061480FM-12+0489OIZB V0203201N003012200019N0100001N1+00561-00321101691ADDAA199000091GA1001+999999999GF100991001001999999001001MA1999999095941MD1810011+9999REMSYN070AAXX  07001 40829 32960 03203 10056 21032 39594 40169 58001 92350 333;EQDQ01  00002PRCP99
0189408290999992000030718004+31330+061480FM-12+0489OIZB V0209999C000012200019N0100001N1+00981-00391101931ADDAA199000091GA1001+999999999GF100991001001999999001001MA1999999096171MD1310131+9999REMSYN076AAXX  07181 40829 32960 00000 10098 21039 39617 40193 53013 91750 333 55095;EQDQ01  00002PRCP99
0183408290999992000030800004+31330+061480FM-12+0489OIZB V0209999C000012200019N0100001N1+00641-00221101941ADDAA199000091GA1001+999999999GF100991001001999999001001MA1999999096191MD1010021+9999REMSYN070AAXX  08001 40829 32960 00000 10064 21022 39619 40194 50002 92350 333;EQDQ01  00002PRCP99
0183408290999992000030812004+31330+061480FM-12+0489OIZB V0201301N005012200019N0100001N1+02521-00151101511ADDAA199000091GA1001+999999999GF100991001001999999001001MA1999999095831MD1710331+9999REMSYN070AAXX  08121 40829 32960 01305 10252 21015 39583 40151 57033 91150 333;EQDQ01  00002PRCP99
0159408290999992000030818004+31330+061480FM-12+0489OIZB V0200401N002012200019N0100001N1+01401-00201999999ADDAA199000091GA1001+999999999GF100991001001999999001001REMSYN075AAXX  08181 40829 32960 00402 10140 21020 9587 40157 52012 91750 333 55102;EQDQ01  00002PRCP99
0201408290999992000030900004+31330+061480FM-12+0489OIZB V0209999C000012200019N0100001N1+01281-00261101051ADDAA199000091GA1001+999999999GF100991001001999999001001MA1999999095481REMSYN070AAXX  09001 40829 32960 00000 10128 21026 39548 40105 57819 92350 333;EQDQ01+000077APCTENQ02+008197APC3  Q03  00002PRCP99
0229408290999992000031006004+31330+061480FM-12+0489OIZB V0203301N014012200019N0020001N1+01601+00021101521ADDAA124000091AY101061AY201061GA1001+999999999GF100991001001999999001001MA1999999095911MD1210231+9999MW1071REMSYN094AAXX  10061 40829 31920 03314 10160 20002 39591 40152 52023 70700 90550 333 30011 51760 70000;EQDQ01  00002PRCP24
0183408290999992000031012004+31330+061480FM-12+0489OIZB V0200301N005012200019N0100001N1+02141+00441101251ADDAA199000091GA1001+999999999GF100991001001999999001001MA1999999095641MD1710181+9999REMSYN070AAXX  10121 40829 32960 00305 10214 20044 39564 40125 57018 91150 333;EQDQ01  00002PRCP99
0189408290999992000031018004+31330+061480FM-12+0489OIZB V0203301N005012200019N0100001N1+01041+00251101521ADDAA199000091GA1001+999999999GF100991001001999999001001MA1999999095821MD1310121+9999REMSYN076AAXX  10181 40829 32960 03305 10104 20025 39582 40152 53012 91750 333 55090;EQDQ01  00002PRCP99
0183408290999992000031100004+31330+061480FM-12+0489OIZB V0203201N004012200019N0100001N1+00521-00601101451ADDAA199000091GA1001+999999999GF100991001001999999001001MA1999999095761MD1410001+9999REMSYN070AAXX  11001 40829 32960 03204 10052 21060 39576 40145 54000 92350 333;EQDQ01  00002PRCP99
0183408290999992000031112004+31330+061480FM-12+0489OIZB V0209999C000012200019N0100001N1+02261-00091101221ADDAA199000091GA1001+999999999GF100991001001999999001001MA1999999095521MD1810181+9999REMSYN070AAXX  11121 40829 32960 00000 10226 21009 39552 40122 58018 91150 333;EQDQ01  00002PRCP99
0189408290999992000031118004+31330+061480FM-12+0489OIZB V0209999C000012200019N0100001N1+01221-00241101351ADDAA199000091GA1001+999999999GF100991001001999999001001MA1999999095641MD1210111+9999REMSYN076AAXX  11181 40829 32960 00000 10122 21024 39564 40135 52011 91750 333 55098;EQDQ01  00002PRCP99
0183408290999992000031200004+31330+061480FM-12+0489OIZB V0209999C000012200019N0100001N1+00461-00301101131ADDAA199000091GA1001+999999999GF100991001001999999001001MA1999999095451MD1610091+9999REMSYN070AAXX  12001 40829 32960 00000 10046 21030 39545 40113 56009 92350 333;EQDQ01  00002PRCP99
0201408290999992000031206004+31330+061480FM-12+0489OIZB V0203301N005012200019N0100001N1+01641-00421101401ADDAA124000091GA1001+999999999GF100991001001999999001001MA1999999095721MD1310141+9999REMSYN088AAXX  12061 40829 32960 03305 10164 21042 39572 40140 53014 90550 333 30002 50530 70000;EQDQ01  00002PRCP24
0183408290999992000031212004+31330+061480FM-12+0489OIZB V0209999C000012200019N0100001N1+02501-00021100981ADDAA199000091GA1001+999999999GF100991001001999999001001MA1999999095341MD1710231+9999REMSYN070AAXX  12121 40829 32960 00000 10250 21002 39534 40098 57023 91150 333;EQDQ01  00002PRCP99
0189408290999992000031218004+31330+061480FM-12+0489OIZB V0209999C000012200019N0100001N1+01341+00011101081ADDAA199000091GA1001+999999999GF100991001001999999001001MA1999999095421MD1310031+9999REMSYN076AAXX  12181 40829 32960 00000 10134 20001 39542 40108 53003 91750 333 55102;EQDQ01  00002PRCP99
0207408290999992000031300004+31330+061480FM-12+0489OIZB V0203301N009012200019N0080001N1+01161+00221101011ADDAA199000091AY101061AY201061GA1001+999999999GF100991001001999999001001MA1999999095421MD1110031+9999MW1071REMSYN072AAXX  13001 40829 31958 03309 10116 20022 39542 40101 51003 70700 92350;EQDQ01  00002PRCP99
0189408290999992000031318004+31330+061480FM-12+0489OIZB V0201201N003012200019N0100001N1+01281+00211100901ADDAA199000091GA1001+999999999GF100991001001999999001001MA1999999095261MD1310041+9999REMSYN076AAXX  13181 40829 32960 01203 10128 20021 39526 40090 53004 91750 333 55100;EQDQ01  00002PRCP99
0183408290999992000031400004+31330+061480FM-12+0489OIZB V0203301N004012200019N0100001N1+00801-00051100771ADDAA199000091GA1001+999999999GF100991001001999999001001MA1999999095181MD1610141+9999REMSYN070AAXX  14001 40829 32960 03304 10080 21005 39518 40077 56014 92350 333;EQDQ01  00002PRCP99
0189408290999992000031418004+31330+061480FM-12+0489OIZB V0202701N002012200019N0100001N1+02081+00561100881ADDAA199000091GA1001+999999999GF100991001001999999001001MA1999999095311MD1210181+9999REMSYN076AAXX  14181 40829 32960 02702 10208 20056 39531 40088 52018 91750 333 55092;EQDQ01  00002PRCP99
0183408290999992000031500004+31330+061480FM-12+0489OIZB V0209999C000012200019N0100001N1+01181+00301100801ADDAA199000091GA1001+999999999GF100991001001999999001001MA1999999095331MD1610011+9999REMSYN070AAXX  15001 40829 32960 00000 10118 20030 39533 40080 56001 92350 333;EQDQ01  00002PRCP99
0201408290999992000031506004+31330+061480FM-12+0489OIZB V0203301N005012200019N0100001N1+01881+00591101071ADDAA124000091GA1001+999999999GF100991001001999999001001MA1999999095521MD1110111+9999REMSYN088AAXX  15061 40829 32960 03305 10188 20059 39552 40107 51011 90550 333 30007 50880 70000;EQDQ01  00002PRCP24
0217408290999992000031518004+31330+061480FM-12+0489OIZB V0203301N011012200019N0030001N1+01581+00811101161ADDAA199000091AY101061AY201061GA1001+999999999GF100991001001999999001001MA1999999095541MD1210241+9999MW1071REMSYN082AAXX  15181 40829 31930 03311 10158 20081 39554 40116 52024 70700 91750 333 55100;EQDQ01  00002PRCP99
0207408290999992000031600004+31330+061480FM-12+0489OIZB V0203301N018012200019N0005001N1+00581-00031101551ADDAA199000091AY131061AY201061GA1001+999999999GF100991001001999999001001MA1999999095911MD1210221+9999MW1311REMSYN072AAXX  16001 40829 31905 03318 10058 21003 39591 40155 52022 73130 92350;EQDQ01  00002PRCP99
0226408290999992000031618004+31330+061480FM-12+0489OIZB V0203201N005012200019N0100001N1+00941-00191101991ADDAA199000091GA1001+999999999GF100991001001999999001001KA1120N-00411MA1999999096171MD1310101+9999REMSYN100AAXX  16181 40829 32960 03205 10094 21019 39617 40199 53010 91750 333 21041 30135 40168 53007 91750;EQDQ01  00002PRCP99
0201408290999992000031706004+31330+061480FM-12+0489OIZB V0203101N007012200019N0100001N1+01421-00021102061ADDAA124000091GA1001+999999999GF100991001001999999001001MA1999999096291MD1310121+9999REMSYN088AAXX  17061 40829 32960 03107 10142 21002 39629 40206 53012 90550 333 30001 50790 70000;EQDQ01  00002PRCP24
0183408290999992000031712004+31330+061480FM-12+0489OIZB V0203201N004012200019N0100001N1+02181-00361101561ADDAA199000091GA1001+999999999GF100991001001999999001001MA1999999095851MD1710271+9999REMSYN070AAXX  17121 40829 32960 03204 10218 21036 39585 40156 57027 91150 333;EQDQ01  00002PRCP99
0215408290999992000031818004+31330+061480FM-12+0489OIZB V0203301N003012200019N0100001N1+01501-00341101471ADDAA199000091GA1011+012009069GF104991011041012501031001GJ104149MA1999999095801MD1310071+9999REMSYN094AAXX  18181 40829 32660 43303 10150 21034 39580 40147 53007 81430 91750 333 55069 81640 83360;EQDQ01  00002PRCP99
0195408290999992000031900004+31330+061480FM-12+0489OIZB V0203601N002012200019N0100001N1+00921-00431101361ADDAA199000091GA1021+030009079GF102991021001999999031001MA1999999095711MD1810041+9999REMSYN082AAXX  19001 40829 32960 23602 10092 21043 39571 40136 58004 82030 92350 333 82360;EQDQ01  00002PRCP99
0213408290999992000031906004+31330+061480FM-12+0489OIZB V0203201N003010300019N0100001N1+01941-00631101591ADDAA124000091GA1051+030009079GF105991051001999999051001MA1999999095961MD1210171+9999REMSYN100AAXX  19061 40829 32960 53203 10194 21063 39596 40159 52017 85050 90550 333 30005 50710 70000 85360;EQDQ01  00002PRCP24
0195408290999992000031912004+31330+061480FM-12+0489OIZB V0201801N003010270019N0100001N1+02601-00451101021ADDAA199000091GA1071+027009079GF107991071001999999071001MA1999999095431MD1810171+9999REMSYN082AAXX  19121 40829 32960 71803 10260 21045 39543 40102 58017 87070 91150 333 87359;EQDQ01  00002PRCP99
0201408290999992000032006004+31330+061480FM-12+0489OIZB V0203201N003012200019N0100001N1+02201+00261101271ADDAA124000091GA1001+999999999GF100991001001999999001001MA1999999095721MD1210141+9999REMSYN088AAXX  20061 40829 32960 03203 10220 20026 39572 40127 52014 90550 333 30010 50440 70000;EQDQ01  00002PRCP24
0209408290999992000032018004+31330+061480FM-12+0489OIZB V0203301N004012200019N0100001N1+01561+00131101021ADDAA199000091GA1011+030009079GF101991011001999999031001GJ105769MA1999999095521MD1310221+9999REMSYN088AAXX  20181 40829 32960 13304 10156 20013 39552 40102 53022 81030 91750 333 55096 81360;EQDQ01  00002PRCP99
0183408290999992000032100004+31330+061480FM-12+0489OIZB V0203301N004012200019N0100001N1+01201+00011101321ADDAA199000091GA1001+999999999GF100991001001999999001001MA1999999095771MD1410001+9999REMSYN070AAXX  21001 40829 32960 03304 10120 20001 39577 40132 54000 92350 333;EQDQ01  00002PRCP99
0229408290999992000032106004+31330+061480FM-12+0489OIZB V0203201N009012200019N0080001N1+02141+00371101591ADDAA124000091AY101061AY201061GA1001+999999999GF100991001001999999001001MA1999999095971MD1110091+9999MW1071REMSYN094AAXX  21061 40829 31958 03209 10214 20037 39597 40159 51009 70700 90550 333 30009 51850 70000;EQDQ01  00002PRCP24
0189408290999992000032118004+31330+061480FM-12+0489OIZB V0203101N005012200019N0100001N1+01701+00111101491ADDAA199000091GA1001+999999999GF100991001001999999001001MA1999999095891MD1210231+9999REMSYN076AAXX  21181 40829 32960 03105 10170 20011 39589 40149 52023 91750 333 55096;EQDQ01  00002PRCP99
0201408290999992000032812004+31330+061480FM-12+0489OIZB V0203301N00801036001CN0100001N1+01261+00831101901ADDAA199000091GA1011+012009089GF105991011011012501071001MA1999999096131MD1710191+9999REMSYN088AAXX  28121 40829 32660 53308 10126 20083 39613 40190 57019 81170 91150 333 81840 85360;EQDQ01  00002PRCP99
0202408290999992000032818004+31330+061480FM-12+0489OIZB V0203301N00401036001CN0100001N1+00941+00761102081ADDAA106000191GA1021+012009079GF108991021071012501021999GJ100129MA1999999096361MD1310141+9999REMSYN100AAXX  28181 40829 12660 83304 10094 20076 39636 40208 53014 69921 8272/ 91750 333 55002 82740 88459;
0195408290999992000032912004+31330+061480FM-12+0489OIZB V0209999C000012200019N0100001N1+02081+00811101041ADDAA199000091GA1011+012009059GF101991011041012501001001MA1999999096041MD1710181+9999REMSYN082AAXX  29121 40829 32660 10000 10208 20081 39604 40104 57018 81400 91150 333 81640;EQDQ01  00002PRCP99
0205408290999992000032918004+31330+061480FM-12+0489OIZB V0209999C000012200019N0100001N1+01421+00841101922ADDAA199000091GA1001+999999999GF100991001001999999001001MA1999999096221MD1210121+9999REMSYN076AAXX  29181 40829 32960 00000 10142 20084 39622 40192 52012 91750 333 55110;EQDQ01+101923APOSLPQ02  00002PRCP99
0183408290999992000033000004+31330+061480FM-12+0489OIZB V0209999C000012200019N0100001N1+00981+00771101731ADDAA199000091GA1001+999999999GF100991001001999999001001MA1999999096041MD1610101+9999REMSYN070AAXX  30001 40829 32960 00000 10098 20077 39604 40173 56010 92350 333;EQDQ01  00002PRCP99
0201408290999992000033006004+31330+061480FM-12+0489OIZB V0203401N003012200019N0100001N1+01981+00681101991ADDAA124000091GA1001+999999999GF100991001001999999001001MA1999999096321MD1310081+9999REMSYN088AAXX  30061 40829 32960 03403 10198 20068 39632 40199 53008 90550 333 30006 51140 70000;EQDQ01  00002PRCP24
0195408290999992000040212004+31330+061480FM-12+0489OIZB V0209999C000012200019N0100001N1+03061+00431101121ADDAA199000091GA1021+012009059GF102991021041012501001001MA1999999095591MD1710261+9999REMSYN082AAXX  02121 40829 32660 20000 10306 20043 39559 40112 57026 82400 91150 333 82640;EQDQ01  00002PRCP99
0207408290999992000040300004+31330+061480FM-12+0489OIZB V0203301N014012200019N0080001N1+01601+00821101411ADDAA199000091AY101061AY201061GA1001+999999999GF100991001001999999001001MA1999999095891MD1110101+9999MW1071REMSYN072AAXX  03001 40829 31958 03314 10160 20082 39589 40141 51010 70700 92350;EQDQ01  00002PRCP99
0229408290999992000040406004+31330+061480FM-12+0489OIZB V0203201N013012200019N0030001N1+02101+00831101731ADDAA124000091AY101061AY201061GA1001+999999999GF100991001001999999001001MA1999999096161MD1010091+9999MW1071REMSYN094AAXX  04061 40829 31930 03213 10210 20083 39616 40173 50009 70700 90550 333 30012 50120 70000;EQDQ01  00002PRCP24
0195408290999992000040412004+31330+061480FM-12+0489OIZB V0203201N004012200019N0100001N1+02741+01021101251ADDAA199000091GA1021+060009019GF102991001001999999001021MA1999999095721MD1710371+9999REMSYN082AAXX  04121 40829 32960 23204 10274 20102 39572 40125 57037 80002 91150 333 82070;EQDQ01  00002PRCP99
0189408290999992000040418004+31330+061480FM-12+0489OIZB V0203201N004012200019N0100001N1+01801+00361101321ADDAA199000091GA1001+999999999GF100991001001999999001001MA1999999095771MD1310101+9999REMSYN076AAXX  04181 40829 32960 03204 10180 20036 39577 40132 53010 91750 333 55108;EQDQ01  00002PRCP99
0183408290999992000040500004+31330+061480FM-12+0489OIZB V0203201N007012200019N0100001N1+01501+00411101231ADDAA199000091GA1001+999999999GF100991001001999999001001MA1999999095701MD1810051+9999REMSYN070AAXX  05001 40829 32960 03207 10150 20041 39570 40123 58005 92350 333;EQDQ01  00002PRCP99
0201408290999992000040506004+31330+061480FM-12+0489OIZB V0203301N007012200019N0100001N1+02381+00901101391ADDAA124000091GA1001+999999999GF100991001001999999001001MA1999999095831MD1110031+9999REMSYN088AAXX  05061 40829 32960 03307 10238 20090 39583 40139 51003 90550 333 30013 52290 70000;EQDQ01  00002PRCP24
0189408290999992000040512004+31330+061480FM-12+0489OIZB V0203601N003012200019N0100001N1+03061+99999100921ADDAA199000091GA1031+060009019GF103991001001999999001021MA1999999095421MD1710251+9999REMSYN076AAXX  05121 40829 32960 33603 10306 39542 40092 57025 80002 91150 333 83070;EQDQ01  00002PRCP99
0169408290999992000040518004+31330+061480FM-12+0489OIZB V0203201N005012200019N0100001N1+02001+00741100941ADDAA199000091GF102991001001999999001021MA1999999095481MD1310141+9999REMSYN072AAXX  05181 40829 32960 23205 10200 20074 39548 40094 53014 80002 91750;EQDQ01  00002PRCP99
0183408290999992000040600004+31330+061480FM-12+0489OIZB V0203301N007012200019N0100001N1+01541+00591100791ADDAA199000091GA1001+999999999GF100991001001999999001001MA1999999095321MD1610021+9999REMSYN070AAXX  06001 40829 32960 03307 10154 20059 39532 40079 56002 92350 333;EQDQ01  00002PRCP99
0213408290999992000040606004+31330+061480FM-12+0489OIZB V0203201N00701036001CN0100001N1+02741+00631100951ADDAA199000091GA1011+012009069GF105991011041012501031001MA1999999095461MD1110041+9999REMSYN100AAXX  06061 40829 32660 53207 10274 20063 39546 40095 51004 81430 90550 333 30014 51670 81640 84360;EQDQ01  00002PRCP99
0201408290999992000040612004+31330+061480FM-12+0489OIZB V0203201N00401036001CN0100001N1+02981+00371100611ADDAA199000091GA1011+012009069GF106991011041012501021001MA1999999095121MD1710181+9999REMSYN088AAXX  06121 40829 32660 63204 10298 20037 39512 40061 57018 81420 91150 333 81640 86460;EQDQ01  00002PRCP99
0189408290999992000040618004+31330+061480FM-12+0489OIZB V0209999C000012200019N0100001N1+02001+00411100731ADDAA199000091GA1001+999999999GF100991001001999999001001MA1999999095261MD1210121+9999REMSYN076AAXX  06181 40829 32960 00000 10200 20041 39526 40073 52012 91750 333 55030;EQDQ01  00002PRCP99
0201408290999992000040706004+31330+061480FM-12+0489OIZB V0203401N004012200019N0100001N1+02601+00061101111ADDAA124000091GA1001+999999999GF100991001001999999001001MA1999999095611MD1310141+9999REMSYN088AAXX  07061 40829 32960 03404 10260 20006 39561 40111 53014 90550 333 30011 50790 70000;EQDQ01  00002PRCP24
0179408290999992000040712004+31330+061480FM-12+0489OIZB V0209999C000012200019N0100001N1+03301+00381100681ADDAA199000091GA1001+999999999GF100991001001999999001001MA1999999095231MD1710191+9999REMSYN066AAXX  07121 40829 32960 00000 10330 20038 39523 40068 57019 91150;EQDQ01  00002PRCP99
0189408290999992000040718004+31330+061480FM-12+0489OIZB V0200901N003012200019N0100001N1+02181+00291100871ADDAA199000091GA1001+999999999GF100991001001999999001001MA1999999095411MD1310181+9999REMSYN076AAXX  07181 40829 32960 00903 10218 20029 39541 40087 53018 91750 333 55110;EQDQ01  00002PRCP99
0179408290999992000040800004+31330+061480FM-12+0489OIZB V0203301N003012200019N0100001N1+01581+00291101101ADDAA199000091GA1001+999999999GF100991001001999999001001MA1999999095601MD1110141+9999REMSYN066AAXX  08001 40829 32960 03303 10158 20029 39560 40110 51014 92350;EQDQ01  00002PRCP99
0201408290999992000040806004+31330+061480FM-12+0489OIZB V0200401N003012200019N0100001N1+02881+00561101411ADDAA124000091GA1001+999999999GF100991001001999999001001MA1999999095921MD1210171+9999REMSYN088AAXX  08061 40829 32960 00403 10288 20056 39592 40141 52017 90550 333 30012 51410 70000;EQDQ01  00002PRCP24
0189408290999992000040818004+31330+061480FM-12+0489OIZB V0209999C000012200019N0100001N1+02541+00801100941ADDAA199000091GA1001+999999999GF100991001001999999001001MA1999999095531MD1110041+9999REMSYN076AAXX  08181 40829 32960 00000 10254 20080 39553 40094 51004 91750 333 55106;EQDQ01  00002PRCP99
0183408290999992000040900004+31330+061480FM-12+0489OIZB V0209999C000012200019N0100001N1+01741+00401100961ADDAA199000091GA1001+999999999GF100991001001999999001001MA1999999095551MD1110021+9999REMSYN070AAXX  09001 40829 32960 00000 10174 20040 39555 40096 51002 92350 333;EQDQ01  00002PRCP99
0229408290999992000040906004+31330+061480FM-12+0489OIZB V0200601N003010600019N0100001N1+03141+00581101151ADDAA124000091GA1051+060009089GF105991999001999999001061MA1999999095741MD1110161+9999REMSYN100AAXX  09061 40829 32960 50603 10314 20058 39574 40115 51016 80006 90550 333 30013 50790 70000 85270;EQDQ01+000002SCOTLCQ02  00002PRCP24
0211408290999992000040912004+31330+061480FM-12+0489OIZB V0209999C000010600019N0100001N1+03661+00911100801ADDAA199000091GA1061+060009089GF106991999001999999001061MA1999999095381MD1710181+9999REMSYN082AAXX  09121 40829 32960 60000 10366 20091 39538 40080 57018 80006 91150 333 86270;EQDQ01+000002SCOTLCQ02  00002PRCP99
0189408290999992000040918004+31330+061480FM-12+0489OIZB V0200601N003012200019N0100001N1+02441+00671100861ADDAA199000091GA1001+999999999GF100991001001999999001001MA1999999095411MD1110051+9999REMSYN076AAXX  09181 40829 32960 00603 10244 20067 39541 40086 51005 91750 333 55050;EQDQ01  00002PRCP99
0179408290999992000041000004+31330+061480FM-12+0489OIZB V0209999C000012200019N0100001N1+01961+00451100711ADDAA199000091GA1001+999999999GF100991001001999999001001MA1999999095311MD1410001+9999REMSYN066AAXX  10001 40829 32960 00000 10196 20045 39531 40071 54000 92350;EQDQ01  00002PRCP99
0195408290999992000041112004+31330+061480FM-12+0489OIZB V0201601N002012200019N0100001N1+04021+01221100221ADDAA199000091GA1031+060009019GF103991001001999999001021MA1999999094871MD1710241+9999REMSYN082AAXX  11121 40829 32960 31602 10402 20122 39487 40022 57024 80002 91150 333 83070;EQDQ01  00002PRCP99
0188408290999992000041118004+31330+061480FM-12+0489OIZB V0203201N005012200019N0100001N1+02641+00681100221ADDAA199000091GA1001+999999999GF100991001001999999001001MA1999999094901MD1110031+9999REMSYN075AAXX  11181 40829 32960 03205 10264 20068 39490 40022 51003 9750 333 55091;EQDQ01  00002PRCP99
0241408290999992000041206004+31330+061480FM-12+0489OIZB V0203201N013012200019N0030001N1+03001+01101100551ADDAA124000091AY101061AY201061GA1011+060009019GF101991001001999999001011MA1999999095171MD1110121+9999MW1071REMSYN106AAXX  12061 40829 31930 13213 10300 20110 39517 40055 51012 70700 80001 90550 333 30019 51450 70000 81070;EQDQ01  00002PRCP24
0189408290999992000041218004+31330+061480FM-12+0489OIZB V0203001N005012200019N0100001N1+02721+01381100551ADDAA199000091GA1001+999999999GF100991001001999999001001MA1999999095191MD1210341+9999REMSYN076AAXX  12181 40829 32960 03005 10272 20138 39519 40055 52034 91750 333 55105;EQDQ01  00002PRCP99
0229408290999992000041306004+31330+061480FM-12+0489OIZB V0203201N005012200019N0060001N1+03021+00551101101ADDAA124000091AY111061AY201061GA1001+999999999GF100991001001999999001001MA1999999095721MD1310091+9999MW1071REMSYN094AAXX  13061 40829 31956 03205 10302 20055 39572 40110 53009 70710 90550 333 30016 52020 70000;EQDQ01  00002PRCP24
0211408290999992000041312004+31330+061480FM-12+0489OIZB V0209999C000010600019N0100001N1+03361+01221100651ADDAA199000091GA1051+060009089GF105991999001999999001061MA1999999095281MD1710291+9999REMSYN082AAXX  13121 40829 32960 50000 10336 20122 39528 40065 57029 80006 91150 333 85270;EQDQ01+000002SCOTLCQ02  00002PRCP99
0225408290999992000041318004+31330+061480FM-12+0489OIZB V0203401N002010600019N0100001N1+02361+00891100871ADDAA199000091GA1061+060009089GF106991999001999999001061GJ105349MA1999999095441MD1310181+9999REMSYN088AAXX  13181 40829 32960 63402 10236 20089 39544 40087 53018 80006 91750 333 55089 86270;EQDQ01+000002SCOTLCQ02  00002PRCP99
0189408290999992000041418004+31330+061480FM-12+0489OIZB V0202401N003012200019N0100001N1+02141+00821100861ADDAA199000091GA1001+999999999GF100991001001999999001001MA1999999095421MD1210131+9999REMSYN076AAXX  14181 40829 32960 02403 10214 20082 39542 40086 52013 91750 333 55093;EQDQ01  00002PRCP99
0179408290999992000041500004+31330+061480FM-12+0489OIZB V0202701N004012200019N0100001N1+01601+00361100881ADDAA199000091GA1001+999999999GF100991001001999999001001MA1999999095421MD1610051+9999REMSYN066AAXX  15001 40829 32960 02704 10160 20036 39542 40088 56005 92350;EQDQ01  00002PRCP99
0167408290999992000041506004+31330+061480FM-12+0489OIZB V0203201N007012200019N0100001N1+03181+99999999999ADDAA199000091GF103991999999999999999999REMSYN099AAXX  15061 40829 32960 33207 10318 2007 39560 40106 51006 80001 90550 333 30014 51940 70000 83070;EQDQ01  00002PRCP99
0195408290999992000041512004+31330+061480FM-12+0489OIZB V0203201N003012200019N0100001N1+03561+01361100661ADDAA199000091GA1011+060009019GF101991001001999999001011MA1999999095211MD1710221+9999REMSYN082AAXX  15121 40829 32960 13203 10356 20136 39521 40066 57022 80001 91150 333 81070;EQDQ01  00002PRCP99
0189408290999992000041518004+31330+061480FM-12+0489OIZB V0209999C000012200019N0100001N1+02681+01241100741ADDAA199000091GA1001+999999999GF100991001001999999001001MA1999999095361MD1210181+9999REMSYN076AAXX  15181 40829 32960 00000 10268 20124 39536 40074 52018 91750 333 55095;EQDQ01  00002PRCP99
0183408290999992000041600004+31330+061480FM-12+0489OIZB V0209999C000012200019N0100001N1+01941+00991100701ADDAA199000091GA1001+999999999GF100991001001999999001001MA1999999095321MD1410001+9999REMSYN070AAXX  16001 40829 32960 00000 10194 20099 39532 40070 54000 92350 333;EQDQ01  00002PRCP99
0201408290999992000041606004+31330+061480FM-12+0489OIZB V0203301N003012200019N0100001N1+03241+01121100891ADDAA124000091GA1001+999999999GF100991001001999999001001MA1999999095531MD1310111+9999REMSYN088AAXX  16061 40829 32960 03303 10324 20112 39553 40089 53011 90550 333 30015 51140 70000;EQDQ01  00002PRCP24
0183408290999992000041612004+31330+061480FM-12+0489OIZB V0209999C000012200019N0100001N1+03861+01241100441ADDAA199000091GA1001+999999999GF100991001001999999001001MA1999999095101MD1710221+9999REMSYN070AAXX  16121 40829 32960 00000 10386 20124 39510 40044 57022 91150 333;EQDQ01  00002PRCP99
0159408290999992000041618004+31330+061480FM-12+0489OIZB V0200901N003012200019N0100001N1+02701+01111100491ADDGA1001+999999999GF100991001001999999001001MA1999999095141MD1310071+9999REMSYN076AAXX  16181 40829 /2960 00903 10270 20111 39514 40049 53007 91750 333 55105;
0179408290999992000041700004+31330+061480FM-12+0489OIZB V0203401N004012200019N0100001N1+02261+00971100471ADDAA199000091GA1001+999999999GF100991001001999999001001MA1999999095121MD1110021+9999REMSYN066AAXX  17001 40829 32960 03404 10226 20097 39512 40047 51002 92350;EQDQ01  00002PRCP99
0195408290999992000041712004+31330+061480FM-12+0489OIZB V0203501N005012200019N0100001N1+03861+02181100281ADDAA199000091GA1031+060009019GF103991001001999999001021MA1999999094961MD1710271+9999REMSYN082AAXX  17121 40829 32960 33505 10386 20218 39496 40028 57027 80002 91150 333 83070;EQDQ01  00002PRCP99
0225408290999992000041718004+31330+061480FM-12+0489OIZB V0203301N007010300019N0100001N1+02941+01381100491ADDAA199000091GA1071+030009019GF107991071001999999011999GJ105769MA1999999095181MD1210131+9999REMSYN088AAXX  17181 40829 32960 73307 10294 20138 39518 40049 52013 87010 91750 333 55096 87460;EQDQ01+000002SCOHCGQ02  00002PRCP99
0211408290999992000041800004+31330+061480FM-12+0489OIZB V0203301N008010600019N0100001N1+02621+01361100391ADDAA199000091GA1061+060009089GF106991999001999999001061MA1999999095101MD1710051+9999REMSYN082AAXX  18001 40829 32960 63308 10262 20136 39510 40039 57005 80006 92350 333 86270;EQDQ01+000002SCOTLCQ02  00002PRCP99
0241408290999992000041806004+31330+061480FM-12+0489OIZB V0203301N010010300019N0030001N1+03081+00901100751ADDAA124000091AY121061AY221061GA1061+030009079GF106991061001999999051001MA1999999095381MD1110081+9999MW1071REMSYN106AAXX  18061 40829 31930 63310 10308 20090 39538 40075 51008 70722 86050 90550 333 30025 52550 70000 86360;EQDQ01  00002PRCP24
0211408290999992000041812004+31330+061480FM-12+0489OIZB V0203401N007010600019N0100001N1+03581+01551100331ADDAA199000091GA1061+060009089GF106991999001999999001061MA1999999095001MD1810181+9999REMSYN082AAXX  18121 40829 32960 63407 10358 20155 39500 40033 58018 80006 91150 333 86270;EQDQ01+000002SCOTLCQ02  00002PRCP99
0211408290999992000041912004+31330+061480FM-12+0489OIZB V0203501N003010300019N0100001N1+03721+01781100481ADDAA199000091GA1071+030009019GF107991071001999999011999MA1999999095151MD1710231+9999REMSYN082AAXX  19121 40829 32960 73503 10372 20178 39515 40048 57023 87010 91150 333 87460;EQDQ01+000002SCOHCGQ02  00002PRCP99
0215408290999992000041918004+31330+061480FM-12+0489OIZB V0203201N004012200019N0100001N1+02741+01151100551ADDAA199000091GA1011+030009039GF104991011001999999031011GJ102349MA1999999095191MD1310091+9999REMSYN094AAXX  19181 40829 32960 43204 10274 20115 39519 40055 53009 81031 91750 333 55039 81360 83070;EQDQ01  00002PRCP99
0183408290999992000042000004+31330+061480FM-12+0489OIZB V0203301N006012200019N0100001N1+02261+01041999999ADDAA199000091GA1001+999999999GF100991001001999999001001MA1999999095121MD1810071+9999REMSYN070AAXX  20001 40829 32960 03306 10226 20104 39512 40/47 58007 92350 333;EQDQ01  00002PRCP99
0207408290999992000042006004+31330+061480FM-12+0489OIZB V0203301N009010600019N0100001N1+03261+00671100701ADDAA124000091GA1061+060009089GF106991999999999999999999MA1999999095351MD1310071+9999REMSYN094AAXX  20061 40829 32960 63309 10326 20067 39535 40070 53007 90550 333 30018 51320 70000 86270;EQDQ01  00002PRCP24
0209408290999992000042018004+31330+061480FM-12+0489OIZB V0203101N003012200019N0100001N1+02701+00941100301ADDAA199000091GA1011+030009079GF101991011001999999031001GJ104449MA1999999094981MD1410001+9999REMSYN088AAXX  20181 40829 32960 13103 10270 20094 39498 40030 54000 81030 91750 333 55074 81360;EQDQ01  00002PRCP99
0189408290999992000042118004+31330+061480FM-12+0489OIZB V0209999C000012200019N0100001N1+02701+01101100171ADDAA199000091GA1001+999999999GF100991001001999999001001MA1999999094851MD1210171+9999REMSYN076AAXX  21181 40829 32960 00000 10270 20110 39485 40017 52017 91750 333 55102;EQDQ01  00002PRCP99
0177408290999992000042200004+31330+061480FM-12+0489OIZB V0203301N003012200019N0100001N1+02241+00921100271ADDAA199000091GA1001+999999999GF100991001001999999001001MA1999999094951MD1110081+9999REMSYN064AAXX  22001 40829 32960 03303 10224 20092 39495 40027 51008 333;EQDQ01  00002PRCP99
0189408290999992000042218004+31330+061480FM-12+0489OIZB V0209999C000012200019N0100001N1+02761+00991100211ADDAA199000091GA1001+999999999GF100991001001999999001001MA1999999094891MD1310181+9999REMSYN076AAXX  22181 40829 32960 00000 10276 20099 39489 40021 53018 91750 333 55114;EQDQ01  00002PRCP99
0183408290999992000042300004+31330+061480FM-12+0489OIZB V0203401N005012200019N0100001N1+02281+00781100241ADDAA199000091GA1001+999999999GF100991001001999999001001MA1999999094921MD1110031+9999REMSYN070AAXX  23001 40829 32960 03405 10228 20078 39492 40024 51003 92350 333;EQDQ01  00002PRCP99
0162408290999992000042312004+31330+061480FM-12+0489OIZB V0209999C000012200019N0100001N1+04161+01621099921ADDAA199000091GA1001+999999999GF100991001001999999001001MD1019999+9999REMSYN064AAXX  23121 40829 32960 00000 10416 20162 3/472 49992 50/10 333;EQDQ01  00002PRCP99
0189408290999992000042318004+31330+061480FM-12+0489OIZB V0202701N004012200019N0100001N1+02841+00861100081ADDAA199000091GA1001+999999999GF100991001001999999001001MA1999999094801MD1310131+9999REMSYN076AAXX  23181 40829 32960 02704 10284 20086 39480 40008 53013 91750 333 55106;EQDQ01  00002PRCP99
0229408290999992000042406004+31330+061480FM-12+0489OIZB V0203301N010012200019N0060001N1+03301+01461100701ADDAA124000091AY101061AY201061GA1001+999999999GF100991001001999999001001MA1999999095351MD1210221+9999MW1071REMSYN094AAXX  24061 40829 31956 03310 10330 20146 39535 40070 52022 70700 90550 333 30020 51600 70000;EQDQ01  00002PRCP24
0183408290999992000042500004+31330+061480FM-12+0489OIZB V0203201N005012200019N0100001N1+02201+00841100341ADDAA199000091GA1001+999999999GF100991001001999999001001MA1999999095991MD1410001+9999REMSYN070AAXX  25001 40829 32960 03205 10220 20084 39599 40034 54000 92350 333;EQDQ01  00002PRCP99
0195408290999992000042612004+31330+061480FM-12+0489OIZB V0209999C000012200019N0100001N1+03721+01121100201ADDAA199000091GA1021+060009019GF102991001001999999001011MA1999999094881MD1710221+9999REMSYN082AAXX  26121 40829 32960 20000 10372 20112 39488 40020 57022 80001 91150 333 82070;EQDQ01  00002PRCP99
0207408290999992000042712004+31330+061480FM-12+0489OIZB V0203301N008012200019N0080001N1+03421+00811100701ADDAA199000091AY101061AY201061GA1001+999999999GF100991001001999999001001MA1999999095331MD1710211+9999MW1071REMSYN072AAXX  27121 40829 31958 03308 10342 20081 39533 40070 57021 70700 91150;EQDQ01  00002PRCP99
0189408290999992000042918004+31330+061480FM-12+0489OIZB V0203501N002012200019N0100001N1+02601+00731100641ADDAA199000091GA1001+999999999GF100991001001999999001001MA1999999095271MD1110051+9999REMSYN076AAXX  29181 40829 32960 03502 10260 20073 39527 40064 51005 91750 333 55105;EQDQ01  00002PRCP99
0183408290999992000043000004+31330+061480FM-12+0489OIZB V0200801N003012200019N0100001N1+02001+00531100571ADDAA199000091GA1001+999999999GF100991001001999999001001MA1999999095191MD1610041+9999REMSYN070AAXX  30001 40829 32960 00803 10200 20053 39519 40057 56004 92350 333;EQDQ01  00002PRCP99
0213408290999992000043006004+31330+061480FM-12+0489OIZB V0203301N004012200019N0100001N1+03301+00701100831ADDAA124000091GA1011+030009079GF101991011001999999031001MA1999999095481MD1310111+9999REMSYN100AAXX  30061 40829 32960 13304 10330 20070 39548 40083 53011 81030 90550 333 30017 51140 70000 81360;EQDQ01  00002PRCP24
0189408290999992000043018004+31330+061480FM-12+0489OIZB V0201201N002012200019N0100001N1+02841+00801100381ADDAA199000091GA1001+999999999GF100991001001999999001001MA1999999095041MD1310101+9999REMSYN076AAXX  30181 40829 32960 01202 10284 20080 39504 40038 53010 91750 333 55115;EQDQ01  00002PRCP99
0183408290999992000050100004+31330+061480FM-12+0489OIZB V0209999C000012200019N0100001N1+02141+00661100411ADDAA199000091GA1001+999999999GF100991001001999999001001MA1999999095061MD1110021+9999REMSYN070AAXX  01001 40829 32960 00000 10214 20066 39506 40041 51002 92350 333;EQDQ01  00002PRCP99
0195408290999992000050112004+31330+061480FM-12+0489OIZB V0201201N007012200019N0100001N1+04221+01471100111ADDAA199000091GA1031+012009029GF103991031011012501001021MA1999999094811MD1710311+9999REMSYN082AAXX  01121 40829 32660 31207 10422 20147 39481 40011 57031 83102 91150 333 83840;EQDQ01  00002PRCP99
0189408290999992000050118004+31330+061480FM-12+0489OIZB V0209999C000012200019N0100001N1+02901+01121100111ADDAA199000091GA1001+999999999GF100991001001999999001001MA1999999094831MD1410001+9999REMSYN076AAXX  01181 40829 32960 00000 10290 20112 39483 40011 54000 91750 333 55103;EQDQ01  00002PRCP99
0183408290999992000050200004+31330+061480FM-12+0489OIZB V0203301N007012200019N0100001N1+02681+00901100151ADDAA199000091GA1001+999999999GF100991001001999999001001MA1999999094921MD1110051+9999REMSYN070AAXX  02001 40829 32960 03307 10268 20090 39492 40015 51005 92350 333;EQDQ01  00002PRCP99
0213408290999992000050206004+31330+061480FM-12+0489OIZB V0203401N004012200019N0100001N1+03541+01421100521ADDAA124000091GA1031+060009019GF103991001001999999001011MA1999999095221MD1210161+9999REMSYN100AAXX  02061 40829 32960 33404 10354 20142 39522 40052 52016 80001 90550 333 30021 51760 70000 83070;EQDQ01  00002PRCP24
0195408290999992000050212004+31330+061480FM-12+0489OIZB V02099999999990600019N0100001N1+04101+01431100081ADDAA199000091GA1051+060009019GF105991001001999999001021MA1999999094821MD1710251+9999REMSYN082AAXX  02121 40829 32960 500/0 10410 20143 39482 40008 57025 80002 91150 333 85070;EQDQ01  00002PRCP99
0225408290999992000050218004+31330+061480FM-12+0489OIZB V0209999C000010600019N0100001N1+03301+01411100171ADDAA199000091GA1051+060009089GF105991999001999999001081GJ103609MA1999999094941MD1310121+9999REMSYN088AAXX  02181 40829 32960 50000 10330 20141 39494 40017 53012 80008 91750 333 55060 85270;EQDQ01+000002SCOTLCQ02  00002PRCP99
0207408290999992000050300004+31330+061480FM-12+0489OIZB V0203301N010012200019N0080001N1+02641+01221100141ADDAA199000091AY101061AY201061GA1001+999999999GF100991001001999999001001MA1999999094921MD1510061+9999MW1071REMSYN072AAXX  03001 40829 31/58 03310 10264 20122 39492 40014 55006 70700 92350;EQDQ01  00002PRCP99
0247408290999992000050306004+31330+061480FM-12+0489OIZB V0203401N011019999999N0020001N1+03381+00621100561ADDAA124000091AY121061AY211061GA1011+030009039GF105991011001999999031061MA1999999095231MD1110041+9999MW1071REMSYN112AAXX  03061 40829 31920 53411 10338 20062 39523 40056 51004 70721 81036 90550 333 30020 52550 70000 81360 85270;EQDQ01  00002PRCP24
0201408290999992000050312004+31330+061480FM-12+0489OIZB V0203301N007019999999N0100001N1+03821+01141100261ADDAA199000091GA1021+030009039GF105991021001999999031081MA1999999094961MD1710141+9999REMSYN088AAXX  03121 40829 32960 53307 10382 20114 39496 40026 57014 82038 91450 333 82360 84270;EQDQ01  00002PRCP99
0189408290999992000050318004+31330+061480FM-12+0489OIZB V0203101N004012200019N0100001N1+02761+00901100521ADDAA199000091GA1001+999999999GF100991001001999999001001MA1999999095251MD1210241+9999REMSYN076AAXX  03181 40829 32960 03104 10276 20090 39525 40052 52024 91750 333 55020;EQDQ01  00002PRCP99
0183408290999992000050400004+31330+061480FM-12+0489OIZB V0203101N004012200019N0100001N1+02441+01111100521ADDAA199000091GA1001+999999999GF100991001001999999001001MA1999999095191MD1610031+9999REMSYN070AAXX  04001 40829 32960 03104 10244 20111 39519 40052 56003 92350 333;EQDQ01  00002PRCP99
0210408290999992000050406004+31330+061480FM-12+0489OIZB V0203501N010012200019N0070001N1+03601+01281100791ADDAA124999999AY101061AY201061GA1001+999999999GF100991001001999999001001MA1999999095481MD1110051+9999MW1071REMSYN094AAXX  04061 40829 31957 03510 10360 20128 39548 40079 51005 70700 90550 333 30022 51850 7000/;
0229408290999992000050606004+31330+061480FM-12+0489OIZB V0203201N012012200019N0040001N1+03081+00781101141ADDAA124000091AY101061AY201061GA1001+999999999GF100991001001999999001001MA1999999095741MD1110081+9999MW1071REMSYN094AAXX  06061 40829 31940 03212 10308 20078 39574 40114 51008 70700 90550 333 30021 52640 70000;EQDQ01  00002PRCP24
0179408290999992000050612004+31330+061480FM-12+0489OIZB V0203201N006012200019N0100001N1+03801+00961100571ADDAA199000091GA1001+999999999GF100991001001999999001001MA1999999095211MD1710301+9999REMSYN066AAXX  06121 40829 32960 03206 10380 20096 39521 40057 57030 91150;EQDQ01  00002PRCP99
0189408290999992000050618004+31330+061480FM-12+0489OIZB V0202701N003012200019N0100001N1+02701+01041100621ADDAA199000091GA1001+999999999GF100991001001999999001001MA1999999095281MD1110141+9999REMSYN076AAXX  06181 40829 32960 02703 10270 20104 39528 40062 51014 91750 333 55115;EQDQ01  00002PRCP99
0177408290999992000050700004+31330+061480FM-12+0489OIZB V0202201N004012200019N0100001N1+99999+99999100521ADDAA199000091GA1001+999999999GF100991001001999999001001MA1999999095201MD1410001+9999REMSYN064AAXX  07001 40829 32960 02204 20064 39520 40052 54000 92350 333;EQDQ01  00002PRCP99
0183408290999992000050712004+31330+061480FM-12+0489OIZB V0209999C000012200019N0100001N1+04221+01331100211ADDAA199000091GA1001+999999999GF100991001001999999001001MA1999999094891MD1810271+9999REMSYN070AAXX  07121 40829 32960 00000 10422 20133 39489 40021 58027 91150 333;EQDQ01  00002PRCP99
0173408290999992000050800004+31330+061480FM-12+0489OIZB V0209999C000012200019N0100001N1+02601+00701100071ADDAA199000091GA1001+999999999GF100991001001999999001001MA1999999094811MD1710101+9999REMSYN060AAXX  08001 40829 32960 00000 10260 20070 39481 40007 5701/;EQDQ01  00002PRCP99
0229408290999992000050806004+31330+061480FM-12+0489OIZB V0203201N014012200019N0100001N1+03541+01421100371ADDAA124000091AY101061AY201061GA1001+999999999GF100991001001999999001001MA1999999095131MD1110061+9999MW1071REMSYN094AAXX  08061 40829 32960 03214 10354 20142 39513 40037 51006 70700 90550 333 30022 51410 70000;EQDQ01  00002PRCP24
0179408290999992000050812004+31330+061480FM-12+0489OIZB V0203601N002012200019N0100001N1+04401+01181099921ADDAA199000091GA1001+999999999GF100991001001999999001001MA1999999094711MD1710231+9999REMSYN066AAXX  08121 40829 32960 03602 10440 20118 39471 49992 57023 91150;EQDQ01  00002PRCP99
0189408290999992000050818004+31330+061480FM-12+0489OIZB V0203101N003012200019N0100001N1+02741+00981100121ADDAA199000091GA1001+999999999GF100991001001999999001001MA1999999094801MD1110141+9999REMSYN076AAXX  08181 40829 32960 03103 10274 20098 39480 40012 51014 91750 333 55113;EQDQ01  00002PRCP99
0179408290999992000050900004+31330+061480FM-12+0489OIZB V0203501N003012200019N0100001N1+02401+00891100061ADDAA199000091GA1001+999999999GF100991001001999999001001MA1999999094801MD1110051+9999REMSYN066AAXX  09001 40829 32960 03503 10240 20089 39480 40006 51005 92350;EQDQ01  00002PRCP99
0201408290999992000050906004+31330+061480FM-12+0489OIZB V0209999C000012200019N0100001N1+03801+01191100311ADDAA124000091GA1001+999999999GF100991001001999999001001MA1999999095031MD1110091+9999REMSYN088AAXX  09061 40829 32960 00000 10380 20119 39503 40031 51009 90550 333 30021 51320 70000;EQDQ01  00002PRCP24
0179408290999992000050912004+31330+061480FM-12+0489OIZB V0200901N004012200019N0100001N1+04561+01561099841ADDAA199000091GA1001+999999999GF100991001001999999001001MA1999999094631MD1710221+9999REMSYN066AAXX  09121 40829 32960 00904 10456 20156 39463 49984 57022 91150;EQDQ01  00002PRCP99
0189408290999992000050918004+31330+061480FM-12+0489OIZB V0209999C000012200019N0100001N1+03301+01161099811ADDAA199000091GA1001+999999999GF100991001001999999001001MA1999999094621MD1310081+9999REMSYN076AAXX  09181 40829 32960 00000 10330 20116 39462 49981 53008 91750 333 55118;EQDQ01  00002PRCP99
0183408290999992000051000004+31330+061480FM-12+0489OIZB V0203301N005012200019N0100001N1+02781+00801099811ADDAA199000091GA1001+999999999GF100991001001999999001001MA1999999094631MD1610051+9999REMSYN070AAXX  10001 40829 32960 03305 10278 20080 39463 49981 56005 92350 333;EQDQ01  00002PRCP99
0229408290999992000051006004+31330+061480FM-12+0489OIZB V0203301N013012200019N0008001N1+03241+01361100351ADDAA124000091AY101061AY201061GA1001+999999999GF100991001001999999001001MA1999999095061MD1210181+9999MW1071REMSYN094AAXX  10061 40829 31908 03313 10324 20136 39506 40035 52018 70700 90550 333 30025 51320 70000;EQDQ01  00002PRCP24
0211408290999992000051012004+31330+061480FM-12+0489OIZB V0203401N007012200019N0050001N1+03901+02161099951ADDAA199000091AY101061AY201061GA1001+999999999GF100991001001999999001001MA1999999094691MD1710201+9999MW1071REMSYN076AAXX  10121 40829 31950 03407 10390 20216 39469 49995 57020 70700 91150 333;EQDQ01  00002PRCP99
0187408290999992000051018004+31330+061480FM-12+0489OIZB V0203201N012012200019N0040001N1+02901+02011100291ADDAY101061AY201061GA1001+999999999GF100991001001999999001001MA1999999095011MD1210221+9999MW1071REMSYN082AAXX  10181 40829 41940 03212 10290 20201 39501 40029 52022 70700 91750 333 55030;
0211408290999992000051100004+31330+061480FM-12+0489OIZB V0203301N012012200019N0040001N1+02401+01161100261ADDAA199000091AY101061AY201061GA1001+999999999GF100991001001999999001001MA1999999094981MD1110041+9999MW1071REMSYN076AAXX  11001 40829 31940 03312 10240 20116 39498 40026 51004 70700 92350 333;EQDQ01  00002PRCP99
0217408290999992000051118004+31330+061480FM-12+0489OIZB V0203301N015012200019N0006001N1+02941+01331100401ADDAA199000091AY101061AY201061GA1001+999999999GF100991001001999999001001MA1999999095051MD1210301+9999MW1071REMSYN082AAXX  11181 40829 31906 03315 10294 20133 39505 40040 52030 70700 91750 333 55075;EQDQ01  00002PRCP99
0207408290999992000051200004+31330+061480FM-12+0489OIZB V0203301N017012200019N0001001N1+02401+01201100291ADDAA199000091AY131061AY231061GA1001+999999999GF100991001001999999001001MA1999999094991MD1610091+9999MW1311REMSYN072AAXX  12001 40829 31901 03317 10240 20120 39499 40029 56009 73133 92350;EQDQ01  00002PRCP99
0182408290999992000051206004+31330+061480FM-12+0489OIZB V0203301N013012200019N0040001N1+03041+99999999999ADDAA124000091AY101061AY201061GA1001+999999999GF100991001001999999001001MW1071REMSYN076AAXX  12061 40829 31940 03313 10304 20510 70700 90550 333 30021 52300 70000;EQDQ01  00002PRCP24
0207408290999992000051212004+31330+061480FM-12+0489OIZB V0203301N010012200019N0080001N1+03801+01041100041ADDAA199000091AY101061AY201061GA1001+999999999GF100991001001999999001001MA1999999094751MD1610261+9999MW1071REMSYN072AAXX  12121 40829 31958 03310 10380 20104 39475 40004 56026 70700 91150;EQDQ01  00002PRCP99
0189408290999992000051218004+31330+061480FM-12+0489OIZB V0203201N009012200019N0100001N1+02901+01071100181ADDAA199000091GA1001+999999999GF100991001001999999001001MA1999999094841MD1310191+9999REMSYN076AAXX  12181 40829 32960 03209 10290 20107 39484 40018 53019 91750 333 55085;EQDQ01  00002PRCP99
0211408290999992000051300004+31330+061480FM-12+0489OIZB V0203301N014012200019N0060001N1+02521+01031100181ADDAA199000091AY101061AY201061GA1001+999999999GF100991001001999999001001MA1999999094861MD1410001+9999MW1071REMSYN076AAXX  13001 40829 31956 03314 10252 20103 39486 40018 54000 70700 92350 333;EQDQ01  00002PRCP99
0229408290999992000051306004+31330+061480FM-12+0489OIZB V0203201N015012200019N0008001N1+03101+00751100581ADDAA124000091AY131061AY201061GA1001+999999999GF100991001001999999001001MA1999999095241MD1310151+9999MW1301REMSYN094AAXX  13061 40829 31908 03215 10310 20075 39524 40058 53015 73030 90550 333 30022 52640 70000;EQDQ01  00002PRCP24
0223408290999992000051312004+31330+061480FM-12+0489OIZB V0203301N010012200019N0060001N1+03901+01411100191ADDAA199000091AY101061AY201061GA1021+060009019GF102991001001999999001021MA1999999094911MD1710181+9999MW1071REMSYN088AAXX  13121 40829 31956 23310 10390 20141 39491 40019 57018 70700 80002 91150 333 82070;EQDQ01  00002PRCP99
0189408290999992000051318004+31330+061480FM-12+0489OIZB V0203301N008012200019N0100001N1+02821+00961100261ADDAA199000091GA1001+999999999GF100991001001999999001001MA1999999094941MD1310061+9999REMSYN076AAXX  13181 40829 32960 03308 10282 20096 39494 40026 53006 91750 333 55113;EQDQ01  00002PRCP99
0211408290999992000051400004+31330+061480FM-12+0489OIZB V0203301N011012200019N0070001N1+02521+00441100311ADDAA199000091AY101061AY201061GA1001+999999999GF100991001001999999001001MA1999999095021MD1110031+9999MW1071REMSYN076AAXX  14001 40829 31957 03311 10252 20044 39502 40031 51003 70700 92350 333;EQDQ01  00002PRCP99
0229408290999992000051406004+31330+061480FM-12+0489OIZB V0203401N012012200019N0030001N1+03321+00721100821ADDAA124000091AY101061AY201061GA1001+999999999GF100991001001999999001001MA1999999095471MD1210261+9999MW1071REMSYN094AAXX  14061 40829 31930 03412 10332 20072 39547 40082 52026 70700 90550 333 30023 53420 70000;EQDQ01  00002PRCP24
0183408290999992000051412004+31330+061480FM-12+0489OIZB V0203401N009012200019N0100001N1+03901+01601100321ADDAA199000091GA1001+999999999GF100991001001999999001001MA1999999095011MD1710211+9999REMSYN070AAXX  14121 40829 32960 03409 10390 20160 39501 40032 57021 91150 333;EQDQ01  00002PRCP99
0189408290999992000051418004+31330+061480FM-12+0489OIZB V0203201N005012200019N0100001N1+02741+00981100501ADDAA199000091GA1001+999999999GF100991001001999999001001MA1999999095181MD1310191+9999REMSYN076AAXX  14181 40829 32960 03205 10274 20098 39518 40050 53019 91750 333 55118;EQDQ01  00002PRCP99
0195408290999992000051500004+31330+061480FM-12+0489OIZB V0203301N005012200019N0100001N1+02201-00641100451ADDAA199000091GA1021+060009019GF102991001001999999001021MA1999999095091MD1610051+9999REMSYN082AAXX  15001 40829 32960 23305 10220 21064 39509 40045 56005 80002 92350 333 82070;EQDQ01  00002PRCP99
0240408290999992000051506004+31330+061480FM-12+0489OIZB V0203301N012012200019N0060001N1+03501+00021100591ADDAA124000091AY111061AY201061GA1031+060009019GF103991001001999999001021MA1999999095251MD1110011+9999MW1071REMSYN105AAXX  15061 4082931956 33312 10350 20002 39525 40059 51001 70710 80002 90550 333 30019 52820 70000 83070;EQDQ01  00002PRCP24
0206408290999992000051512004+31330+061480FM-12+0489OIZB V0203601N008019999999N0080001N1+03921+00791100231ADDAA199000091AY121061AY211061GF106991001001999999001061MA1999999094901MD1710201+9999MW1071REMSYN087AAXX  15121 40829 31958 63608 10392 20079 39490 40023 57020 70721 80006 9150 333 86270;EQDQ01  00002PRCP99
0189408290999992000051518004+31330+061480FM-12+0489OIZB V0202801N002012200019N0100001N1+02701+00451100291ADDAA199000091GA1001+999999999GF100991001001999999001001MA1999999094971MD1210141+9999REMSYN076AAXX  15181 40829 32960 02802 10270 20045 39497 40029 52014 91750 333 55098;EQDQ01  00002PRCP99
0183408290999992000051600004+31330+061480FM-12+0489OIZB V0203201N002012200019N0100001N1+02221+00241100031ADDAA199000091GA1001+999999999GF100991001001999999001001MA1999999094721MD1610071+9999REMSYN070AAXX  16001 40829 32960 03202 10222 20024 39472 40003 56007 92350 333;EQDQ01  00002PRCP99
0213408290999992000051606004+31330+061480FM-12+0489OIZB V0203501N008012200019N0100001N1+03601+00301100151ADDAA124000091GA1031+060009019GF103991001001999999001021MA1999999094821MD1110051+9999REMSYN100AAXX  16061 40829 32960 33508 10360 20030 39482 40015 51005 80002 90550 333 30017 51760 70000 83070;EQDQ01  00002PRCP24
0225408290999992000051618004+31330+061480FM-12+0489OIZB V0200801N003010300019N0100001N1+02901+00521099811ADDAA199000091GA1061+030009019GF106991061001999999021999GJ104569MA1999999094531MD1310071+9999REMSYN088AAXX  16181 40829 32960 60803 10290 20052 39453 49981 53007 86020 91750 333 55076 86460;EQDQ01+000002SCOHCGQ02  00002PRCP99
0223408290999992000051700004+31330+061480FM-12+0489OIZB V0203301N011012200019N0080001N1+02621+00921099721ADDAA199000091AY111061AY201061GA1031+030009079GF103991031001999999031001MA1999999094471MD1810061+9999MW1071REMSYN088AAXX  17001 40829 31958 33311 10262 20092 39447 49972 58006 70710 83030 92350 333 83360;EQDQ01  00002PRCP99
0203408290999992000051712004+31330+061480FM-12+0489OIZB V0203201N012012200019N0060001N1+03761+01041099701ADDAA199000091AY101061GA1001+999999999GF100991001001999999001001MA1999999094391MD1710161+9999MW1071REMSYN076AAXX  17121 40829 31956 03212 10376 20104 39439 49970 57016 7070/ 91150 333;EQDQ01  00002PRCP99
0243408290999992000051718004+31330+061480FM-12+0489OIZB V0203401N00801036001CN0080001N1+02941+00801099811ADDAA199000091AY121061AY211061GA1021+012009089GF105991021011012501031001GJ103129MA1999999094511MD1110011+9999MW1071REMSYN100AAXX  17181 40829 31658 53408 10294 20080 39451 49981 51001 70721 82130 91750 333 55052 82840 83360;EQDQ01  00002PRCP99
0223408290999992000051800004+31330+061480FM-12+0489OIZB V0203201N012012200019N0070001N1+02541+00711099791ADDAA199000091AY111061AY211061GA1011+012009059GF103991011041012501031001MA1999999094531MD1110021+9999MW1071REMSYN088AAXX  18001 40829 31657 33212 10254 20071 39453 49979 51002 70711 81430 92350 333 81640;EQDQ01  00002PRCP99
0229408290999992000051806004+31330+061480FM-12+0489OIZB V0203301N015012200019N0004001N1+03161+00841100211ADDAA124000091AY111061AY211061GA1001+999999999GF100991001001999999001001MA1999999094881MD1210171+9999MW1071REMSYN094AAXX  18061 40829 31904 03315 10316 20084 39488 40021 52017 70711 90550 333 30023 52020 70000;EQDQ01  00002PRCP24
0189408290999992000051818004+31330+061480FM-12+0489OIZB V0203201N004012200019N0100001N1+02701+00861099951ADDAA199000091GA1001+999999999GF100991001001999999001001MA1999999094651MD1310141+9999REMSYN076AAXX  18181 40829 32960 03204 10270 20086 39465 49995 53014 91750 333 55054;EQDQ01  00002PRCP99
0183408290999992000051900004+31330+061480FM-12+0489OIZB V0203201N007012200019N0100001N1+02401+00621099921ADDAA199000091GA1001+999999999GF100991001001999999001001MA1999999094631MD1410001+9999REMSYN070AAXX  19001 40829 32960 03207 10240 20062 39463 49992 54000 92350 333;EQDQ01  00002PRCP99
0229408290999992000051906004+31330+061480FM-12+0489OIZB V0203501N009012200019N0080001N1+03601+00531100221ADDAA124000091AY101061AY201061GA1001+999999999GF100991001001999999001001MA1999999094901MD1110061+9999MW1071REMSYN094AAXX  19061 40829 31958 03509 10360 20053 39490 40022 51006 70700 90550 333 30021 52550 70000;EQDQ01  00002PRCP24
0195408290999992000051912004+31330+061480FM-12+0489OIZB V0200601N002012200019N0100001N1+04221+00921099771ADDAA199000091GA1011+060009019GF101991001001999999001011MA1999999094511MD1710201+9999REMSYN082AAXX  19121 40829 32960 10602 10422 20092 39451 49977 57020 80001 91150 333 81070;EQDQ01  00002PRCP99
0189408290999992000051918004+31330+061480FM-12+0489OIZB V0209999C000012200019N0100001N1+02901+01281099891ADDAA199000091GA1001+999999999GF100991001001999999001001MA1999999094621MD1210161+9999REMSYN076AAXX  19181 40829 32960 00000 10290 20128 39462 49989 52016 91750 333 55108;EQDQ01  00002PRCP99
0183408290999992000052000004+31330+061480FM-12+0489OIZB V0203201N005012200019N0100001N1+02601+00901099601ADDAA199000091GA1001+999999999GF100991001001999999001001MA1999999094631MD1610101+9999REMSYN070AAXX  20001 40829 32960 03205 10260 20090 39463 49960 56010 92350 333;EQDQ01  00002PRCP99
0189408290999992000052006004+31330+061480FM-12+0489OIZB V0203601N004012200019N0100001N1+03641+99999100061ADDAA199000091GA1001+999999999GF100991001001999999001001MA1999999094761MD1110071+9999REMSYN076AAXX  20061 40829 32960 03604 10364 2/074 39476 40006 51007 90550 333 90019;EQDQ01  00002PRCP99
0207408290999992000052100004+31330+061480FM-12+0489OIZB V0203301N014012200019N0070001N1+03001+00841099751ADDAA199000091AY101061AY201061GA1001+999999999GF100991001001999999001001MA1999999094561MD1110181+9999MW1071REMSYN072AAXX  21001 40829 31957 03314 10300 20084 39456 49975 51018 70700 92350;EQDQ01  00002PRCP99
0211408290999992000052112004+31330+061480FM-12+0489OIZB V0203301N014012200019N0020001N1+03901+01781099831ADDAA199000091AY101061AY201061GA1001+999999999GF100991001001999999001001MA1999999094621MD1610121+9999MW1071REMSYN076AAXX  21121 40829 31920 03314 10390 20178 39462 49983 56012 70700 91150 333;EQDQ01  00002PRCP99
0217408290999992000052118004+31330+061480FM-12+0489OIZB V0203201N014012200019N0040001N1+03141+00781099971ADDAA199000091AY101061AY201061GA1001+999999999GF100991001001999999001001MA1999999094701MD1310081+9999MW1071REMSYN082AAXX  21181 40829 31940 03214 10314 20078 39470 49997 53008 70700 91750 333 55064;EQDQ01  00002PRCP99
0217408290999992000052218004+31330+061480FM-12+0489OIZB V0203201N012012200019N0070001N1+03041+01091100351ADDAA199000091AY101061AY201061GA1001+999999999GF100991001001999999001001MA1999999095031MD1210251+9999MW1071REMSYN082AAXX  22181 40829 31957 03212 10304 20109 39503 40035 52025 70700 91750 333 55046;EQDQ01  00002PRCP99
0183408290999992000052300004+31330+061480FM-12+0489OIZB V0203201N005012200019N0100001N1+03901+00681100011ADDAA199000091GA1001+999999999GF100991001001999999001001MA1999999094741MD1710201+9999REMSYN070AAXX  24121 40829 32960 03205 10390 20068 39474 40001 57020 91150 333;EQDQ01  00002PRCP99
0189408290999992000052318004+31330+061480FM-12+0489OIZB V0203101N005012200019N0100001N1+02941+99999100381ADDAA199000091GA1001+999999999GF100991001001999999001001MA1999999095031MD1210151+9999REMSYN076AAXX  23181 40829 32960 03105 10294 20/49 39503 40038 52015 91750 333 55045;EQDQ01  00002PRCP99
0211408290999992000052400004+31330+061480FM-12+0489OIZB V0203301N012012200019N0070001N1+99999+99999100241ADDAA199000091AY101061AY201061GA1001+999999999GF100991001001999999001001MA1999999094991MD1110041+9999MW1071REMSYN076AAXX  24001 40829 31957 03312 1058/ 20048 39499 40024 51004 70700 92350 333;EQDQ01  00002PRCP99
0217408290999992000052406004+31330+061480FM-12+0489OIZB V0203301N014012200019N0030001N1+03261+00581100461ADDAA124000091AY101061AY201061GA1001+999999999GF100991001001999999001001MA1999999095151MD1110041+9999MW1071REMSYN082AAXX  24061 40829 31930 03314 10326 20058 39515 40046 51004 70700 333 52820 70000;EQDQ01  00002PRCP24
0183408290999992000052418004+31330+061480FM-12+0489OIZB V0203301N006012200019N0100001N1+03101+00141999999ADDAA199000091GA1001+999999999GF100991001001999999001001MA1999999094881MD1210171+9999REMSYN070AAXX  24181 40829 32960 03306 10310 20014 39488 52017 91750 333 55107;EQDQ01  00002PRCP99
0211408290999992000052500004+31330+061480FM-12+0489OIZB V0203301N002012200019N0100001N1+02681+00381100201ADDAA199000091GA1001+999999999GF100991001001999999001001MA1999999999999MD1110021+9999REMSYN066AAXX  25001 40829 32960 03302 10268 20038 39991 40020 51002 92350;EQDQ01+099913APOSP Q02  00002PRCP99Q03 099913APOSP 
0203408290999992000052506004+31330+061480FM-12+0489OIZB V0200301N031029999999N0015001N1+03401+00991100411ADDAA124000091MA1999999095132MD1110091+9999MW1071REMSYN094AAXX  25061 40829 31915 /0331 10340 20099 39513 40041 51009 707/0 90550 333 30023 52640 70000;EQDQ01+003103WOSPD Q02+095133APOSP Q03  00002PRCP24
0207408290999992000052512004+31330+061480FM-12+0489OIZB V0203301N010012200019N0070001N1+04021+01641100181ADDAA199000091AY101061AY201061GA1001+999999999GF100991001001999999001001MA1999999094831MD1610161+9999MW1071REMSYN072AAXX  25121 40829 31957 03310 10402 20164 39483 40018 56016 70700 91150;EQDQ01  00002PRCP99
0229408290999992000052606004+31330+061480FM-12+0489OIZB V0203301N012012200019N9999999N1+03661+00891100211ADDAA124000091AY101061AY201061GA1001+999999999GF100991001001999999001001MA1999999094941MD1110071+9999MW1071REMSYN094AAXX  26061 40829 3190/ 03312 10366 20089 39494 40021 51007 70700 90550 333 30025 51980 70000;EQDQ01  00002PRCP24
0183408290999992000052612004+31330+061480FM-12+0489OIZB V0203101N006012200019N0100001N1+04181+01571099831ADDAA199000091GA1001+999999999GF100991001001999999001001MA1999999094591MD1710191+9999REMSYN070AAXX  26121 40829 32960 03106 10418 20157 39459 49983 57019 91150 333;EQDQ01  00002PRCP99
0126408290999992000052618004+31330+061480FM-12+0489OIZB V0203001N004012200019N0100001N1+02901+01011999999ADDAA199000091GA1001+999999999GF100991001001999999001001REMSYN042AAXX  26181 40829 32960 03004 10290 20101;EQDQ01  00002PRCP99
0162408290999992000052700004+31330+061480FM-12+0489OIZB V0203201N005012200019N0100001N1+02501+00671099761ADDAA199000091GA1001+999999999GF100991001001999999001001MD1510051+9999REMSYN064AAXX  27001 40829 32960 03205 10250 20067 49976 55005 92350 333;EQDQ01  00002PRCP99
0179408290999992000052812004+31330+061480FM-12+0489OIZB V0202801N003012200019N0100001N1+04581+01061099391ADDAA199000091GA1001+999999999GF100991001001999999001001MA1999999094201MD1710251+9999REMSYN066AAXX  28121 40829 32960 02803 10458 20106 39420 49939 57025 91150;EQDQ01  00002PRCP99
0189408290999992000052818004+31330+061480FM-12+0489OIZB V0203301N004012200019N0100001N1+03181+00671099571ADDAA199000091GA1001+999999999GF100991001001999999001001MA1999999094361MD1210201+9999REMSYN076AAXX  28181 40829 32960 03304 10318 20067 39436 49957 52020 91750 333 55119;EQDQ01  00002PRCP99
0207408290999992000052900004+31330+061480FM-12+0489OIZB V0203201N019012200019N0015001N1+02981+00821099691ADDAA199000091AY101061AY201061GA1001+999999999GF100991001001999999001001MA1999999094511MD1110071+9999MW1071REMSYN072AAXX  29001 40829 31915 03219 10298 20082 39451 49969 51007 70700 92350;EQDQ01  00002PRCP99
0189408290999992000052918004+31330+061480FM-12+0489OIZB V0203301N007012200019N0100001N1+03221+00641099691ADDAA199000091GA1001+999999999GF100991001001999999001001MA1999999094481MD1310051+9999REMSYN076AAXX  29181 40829 32960 03307 10322 20064 39448 49969 53005 91750 333 55097;EQDQ01  00002PRCP99
0195408290999992000053000004+31330+061480FM-12+0489OIZB V0203301N011012200019N0100001N1+02901+00781100692ADDAA199000091GA1001+999999999GF100991001001999999001001MA1999999094501MD1410001+9999REMSYN066AAXX  30001 40829 32960 03311 10290 20078 39450 40069 54000 92350;EQDQ01+100693APOSLPQ02  00002PRCP99
0229408290999992000053006004+31330+061480FM-12+0489OIZB V0203301N013012200019N0020001N1+03601+00711099921ADDAA124000091AY101061AY201061GA1001+999999999GF100991001001999999001001MA1999999094741MD1210141+9999MW1071REMSYN094AAXX  30061 40829 31920 03313 10360 20071 39474 49992 52014 70700 90550 333 30026 52550 70000;EQDQ01  00002PRCP24
0179408290999992000053012004+31330+061480FM-12+0489OIZB V0203401N005012200019N0100001N1+04261+00461099571ADDAA199000091GA1001+999999999GF100991001001999999001001MA1999999094381MD1710271+9999REMSYN066AAXX  30121 40829 32960 03405 10426 20046 39438 49957 57027 91150;EQDQ01  00002PRCP99
0217408290999992000053018004+31330+061480FM-12+0489OIZB V0203201N010012200019N0080001N1+03341+01071099701ADDAA199000091AY101061AY201061GA1001+999999999GF100991001001999999001001MA1999999094501MD1210211+9999MW1071REMSYN082AAXX  30181 40829 31958 03210 10334 20107 39450 49970 52021 70700 91750 333 55098;EQDQ01  00002PRCP99
0155408290999992000053100004+31330+061480FM-12+0489OIZB V0203201N003012200019N9999999N1+02801+00841099891ADDGA1001+999999999GF100991001001999999001001MA1999999094601MD1110051+9999REMSYN072AAXX  31001 40829 1/58/ 03203 10280 20084 39460 49989 51005 70700 92350;
0229408290999992000053106004+31330+061480FM-12+0489OIZB V0203501N012012200019N0030001N1+03701+01101100111ADDAA124000091AY111061AY201061GA1001+999999999GF100991001001999999001001MA1999999094861MD1110071+9999MW1071REMSYN094AAXX  31061 40829 31/30 03512 10370 20110 39486 40011 51007 70710 90550 333 30026 53170 70000;EQDQ01  00002PRCP24
0183408290999992000053112004+31330+061480FM-12+0489OIZB V0209999C000012200019N0100001N1+04281+01651099701ADDAA199000091GA1001+999999999GF100991001001999999001001MA1999999094481MD1810191+9999REMSYN070AAXX  31121 40829 32960 00000 10428 20165 39448 49970 58019 91150 333;EQDQ01  00002PRCP99
0189408290999992000053118004+31330+061480FM-12+0489OIZB V0202901N004012200019N0100001N1+03001+01001099781ADDAA199000091GA1001+999999999GF100991001001999999001001MA1999999094591MD1210171+9999REMSYN076AAXX  31181 40829 32960 02904 10300 20100 39459 49978 52017 91750 333 55104;EQDQ01  00002PRCP99
0179408290999992000060100004+31330+061480FM-12+0489OIZB V0203401N008012200019N0100001N1+02821+00791099681ADDAA199000091GA1001+999999999GF100991001001999999001001MA1999999094451MD1110011+9999REMSYN066AAXX  01001 40829 32960 03408 10282 20079 39445 49968 51001 92350;EQDQ01  00002PRCP99
0163408290999992000060106004+31330+061480FM-12+0489OIZB V02099999999999999999N0040001N1+03761+01201099811ADDAA199000091AY101061AY201061MA1999999094591MD1110031+9999MW1071REMSYN070AAXX  01061 40829 31940 //8/1 10376 20120 39459 49981 51003 70700 333;EQDQ01  00002PRCP99
0217408290999992000060118004+31330+061480FM-12+0489OIZB V0203201N010012200019N0040001N1+03561+00981099461ADDAA199000091AY101061AY201061GA1001+999999999GF100991001001999999001001MA1999999094281MD1310171+9999MW1071REMSYN082AAXX  01181 40829 31940 03210 10356 20098 39428 49946 53017 70700 91750 333 55117;EQDQ01  00002PRCP99
0211408290999992000060200004+31330+061480FM-12+0489OIZB V0203301N010012200019N0015001N1+02881+01061099731ADDAA199000091AY101061AY201061GA1001+999999999GF100991001001999999001001MA1999999094521MD1110071+9999MW1071REMSYN076AAXX  02001 40829 31915 03310 10288 20106 39452 49973 51007 70700 92350 333;EQDQ01  00002PRCP99
0217408290999992000060218004+31330+061480FM-12+0489OIZB V0203401N013012200019N0020001N1+03201+01061100161ADDAA199000091AY101061AY201061GA1001+999999999GF100991001001999999001001MA1999999094901MD1210241+9999MW1071REMSYN082AAXX  02181 40829 31920 03413 10320 20106 39490 40016 52024 70700 91750 333 55062;EQDQ01  00002PRCP99
0207408290999992000060312004+31330+061480FM-12+0489OIZB V0203301N013012200019N0060001N1+03601+00951100431ADDAA199000091AY101061AY201061GA1001+999999999GF100991001001999999001001MA1999999095091MD1710231+9999MW1071REMSYN072AAXX  03121 40829 31956 03313 10360 20095 39509 40043 57023 70700 91150;EQDQ01  00002PRCP99
0217408290999992000060318004+31330+061480FM-12+0489OIZB V0203301N015012200019N0040001N1+02901+00641100441ADDAA199000091AY101061AY201061GA1001+999999999GF100991001001999999001001MA1999999095121MD1110051+9999MW1071REMSYN082AAXX  03181 40829 31940 03315 10290 20064 39512 40044 51005 70700 91750 333 55090;EQDQ01  00002PRCP99
0207408290999992000060400004+31330+061480FM-12+0489OIZB V0203201N013012200019N0050001N1+02501+00541100441ADDAA199000091AY101061AY201061GA1001+999999999GF100991001001999999001001MA1999999095141MD1410001+9999MW1071REMSYN072AAXX  04001 40829 31950 03213 10250 20054 39514 40044 54000 70700 92350;EQDQ01  00002PRCP99
0229408290999992000060406004+31330+061480FM-12+0489OIZB V0203301N017012200019N0015001N1+03161+01031100491ADDAA124000091AY101061AY201061GA1001+999999999GF100991001001999999001001MA1999999095141MD1810081+9999MW1071REMSYN094AAXX  04061 40829 31915 03317 10316 20103 39514 40049 58008 70700 90550 333 30022 53430 70000;EQDQ01  00002PRCP24
0217408290999992000060418004+31330+061480FM-12+0489OIZB V0203101N010012200019N0070001N1+02901+00701100231ADDAA199000091AY101061AY201061GA1001+999999999GF100991001001999999001001MA1999999094891MD1210161+9999MW1071REMSYN082AAXX  04181 40829 31957 03110 10290 20070 39489 40023 52016 70700 91750 333 55098;EQDQ01  00002PRCP99
0211408290999992000060500004+31330+061480FM-12+0489OIZB V0203101N010012200019N0080001N1+02501+00821100191ADDAA199000091AY101061AY201061GA1001+999999999GF100991001001999999001001MA1999999094851MD1610091+9999MW1071REMSYN076AAXX  05001 40829 31958 03110 10250 20082 39485 40019 56009 70700 92350 333;EQDQ01  00002PRCP99
0199408290999992000060512004+31330+061480FM-12+0489OIZB V0203201N006012200019N0100001N1+03841+01001099791ADDAA199000091GA1001+999999999GF100991001001999999001001MA1999999999999MD1710171+9999REMSYN070AAXX  05121 40829 32960 03206 10384 20100 38453 49979 57017 91150 333;EQDQ01  00002PRCP99Q02 084533APOSP 
0179408290999992000060600004+31330+061480FM-12+0489OIZB V0203301N004012200019N0100001N1+02001+00141099941ADDAA199000091GA1001+999999999GF100991001001999999001001MA1999999094611MD1810021+9999REMSYN066AAXX  06001 40829 32960 03304 10200 20014 39461 49994 58002 92350;EQDQ01  00002PRCP99
0229408290999992000060606004+31330+061480FM-12+0489OIZB V0203201N013012200019N0060001N1+03401+00551100101ADDAA124000091AY101061AY201061GA1001+999999999GF100991001001999999001001MA1999999094791MD1110071+9999MW1071REMSYN094AAXX  06061 40829 31956 03213 10340 20055 39479 40010 51007 70700 90550 333 30018 52640 70000;EQDQ01  00002PRCP24
0183408290999992000060612004+31330+061480FM-12+0489OIZB V0203201N007012200019N0100001N1+03941+01081099801ADDAA199000091GA1001+999999999GF100991001001999999001001MA1999999094501MD1610161+9999REMSYN070AAXX  06121 40829 32960 03207 10394 20108 39450 49980 56016 91150 333;EQDQ01  00002PRCP99
0207408290999992000060700004+31330+061480FM-12+0489OIZB V0203201N011012200019N0070001N1+02501+00301099771ADDAA199000091AY101061AY201061GA1001+999999999GF100991001001999999001001MA1999999094511MD1410001+9999MW1071REMSYN072AAXX  07001 40829 31957 03211 10250 20030 39451 49977 54000 70700 92350;EQDQ01  00002PRCP99
0179408290999992000060712004+31330+061480FM-12+0489OIZB V0203301N010012200019N0100001N1+04041+01321099741ADDAA199000091GA1001+999999999GF100991001001999999001001MA1999999094491MD1710171+9999REMSYN066AAXX  07121 40829 32960 03310 10404 20132 39449 49974 57017 91150;EQDQ01  00002PRCP99
0183408290999992000060818004+31330+061480FM-12+0489OIZB V0203001N005012200019N0100001N1+03001+00721099801ADDAA199000091GA1001+999999999GF100991001001999999001001MA1999999094541MD1310211+9999REMSYN070AAXX  08181 40829 32960 03005 10300 20072 39454 49980 53021 333 55115;EQDQ01  00002PRCP99
0245408290999992000060906004+31330+061480FM-12+0489OIZB V0200401N003012200019N0030001N1+03781+01001099891ADDAA124000091AY101061AY201061GA1001+999999999GF100991001001999999001001MA1999999094671MD1111012+9999MW1071REMSYN094AAXX  09061 40829 31930 00403 10378 20100 39467 49989 51101 70700 90550 333 30022 52990 70000;EQDQ01+001012APC3  Q02  00002PRCP24
0207408290999992000060912004+31330+061480FM-12+0489OIZB V0203301N014012200019N0070001N1+04181+00861099661ADDAA199000091AY101061AY201061GA1001+999999999GF100991001001999999001001MA1999999094411MD1710141+9999MW1071REMSYN072AAXX  09121 40829 31957 03314 10418 20086 39441 49966 57014 70700 91150;EQDQ01  00002PRCP99
0189408290999992000060918004+31330+061480FM-12+0489OIZB V0203101N004012200019N0100001N1+02941+00491099841ADDAA199000091GA1001+999999999GF100991001001999999001001MA1999999094591MD1310161+9999REMSYN076AAXX  09181 40829 32960 03104 10294 20049 39459 49984 53016 91750 333 55126;EQDQ01  00002PRCP99
0179408290999992000061000004+31330+061480FM-12+0489OIZB V0203101N005012200019N0100001N1+02541+00461099911ADDAA199000091GA1001+999999999GF100991001001999999001001MA1999999094651MD1410001+9999REMSYN066AAXX  10001 40829 32960 03105 10254 20046 39465 49991 54000 92350;EQDQ01  00002PRCP99
0211408290999992000061100004+31330+061480FM-12+0489OIZB V0203301N011012200019N0080001N1+02761+00981099941ADDAA199000091AY101061AY201061GA1001+999999999GF100991001001999999001001MA1999999094711MD1110021+9999MW1071REMSYN076AAXX  11001 40829 31958 03311 10276 20098 39471 49994 51002 70700 92350 333;EQDQ01  00002PRCP99
0214408290999992000061106004+31330+061480FM-12+0489OIZB V0203301N015012200019N0010001N1+03521+01001100221ADDAA199000091AY101061AY201061GA1001+999999999GF100991001001999999001001IA1019IA2999+02909MD1110071+9999MW1071REMSYN076AAXX  11061 40829 31910 03315 10352 20100 40022 51007 70700 90550 333 30029;EQDQ01  00002PRCP99
0183408290999992000061112004+31330+061480FM-12+0489OIZB V0203301N005012200019N0100001N1+04101+02331099851ADDAA199000091GA1001+999999999GF100991001001999999001001MA1999999094611MD1710251+9999REMSYN070AAXX  11121 40829 32960 03305 10410 20233 39461 49985 57025 91150 333;EQDQ01  00002PRCP99
0163408290999992000061118004+31330+061480FM-12+0489OIZB V0203201N005012200019N0100001N1+99999+99999999999ADDAA199000091GF102991999999999999999999GJ105709REMSYN087AAXX  11181 40829 32960 23205 0296 20124 39468 49982 53019 80002 91750 333 55095 82070;EQDQ01  00002PRCP99
0229408290999992000061206004+31330+061480FM-12+0489OIZB V0203301N014012200019N0010001N1+03341+01011100211ADDAA124000091AY101061AY201061GA1001+999999999GF100991001001999999001001MA1999999094891MD1110061+9999MW1071REMSYN094AAXX  12061 40829 31910 03314 10334 20101 39489 40021 51006 70700 90550 333 30024 52260 70000;EQDQ01  00002PRCP24
0183408290999992000061212004+31330+061480FM-12+0489OIZB V0203101N006012200019N0100001N1+04021+01441099701ADDAA199000091GA1001+999999999GF100991001001999999001001MA1999999094461MD1710251+9999REMSYN070AAXX  12121 40829 32960 03106 10402 20144 39446 49970 57025 91150 333;EQDQ01  00002PRCP99
0207408290999992000061312004+31330+061480FM-12+0489OIZB V0203401N020012200019N0010001N1+03141+01021099781ADDAA199000091AY131061AY201061GA1001+999999999GF100991001001999999001001MA1999999094481MD1710141+9999MW1071REMSYN072AAXX  13121 40829 31910 03420 10314 20102 39448 49978 57014 70730 91150;EQDQ01  00002PRCP99
0217408290999992000061318004+31330+061480FM-12+0489OIZB V0203201N021012200019N0007001N1+02001+00981100441ADDAA199000091AY131061AY201061GA1001+999999999GF100991001001999999001001MA1999999094971MD1210351+9999MW1321REMSYN082AAXX  13181 40829 31907 03221 10200 20098 39497 40044 52035 73230 91750 333 55000;EQDQ01  00002PRCP99
0239408290999992000061400004+31320+061480FM-12+0489OIZB V0203301N019010600019N0040001N1+99999+99999100981ADDAA199000091AY131061AY211061GA1051+060009089GF105991999001999999001061MA1999999095131MD1110121+9999MW1071REMSYN088AAXX  14001 40829 31940 53319 1/180 20086 39513 40098 51012 70731 80006 92350 333 85270;EQDQ01+000002SCOTLCQ02  00002PRCP99
0189408290999992000061418004+31320+061480FM-12+0489OIZB V0203301N004012200019N0100001N1+04201+00161100331ADDAA199000091GA1001+999999999GF100991001001999999001001MA1999999094901MD1110031+9999REMSYN076AAXX  14181 40829 32960 03304 10420 20016 39490 40033 51003 91750 333 55032;EQDQ01  00002PRCP99
0199408290999992000061500004+31320+061480FM-12+0489OIZB V0203301N004012200019N0100001N1+02022+00391100311ADDAA199000091GA1001+999999999GF100991001001999999001001MA1999999094921MD1110021+9999REMSYN070AAXX  15001 40829 32960 03304 10202 20039 39492 40031 51002 92350 333;EQDQ01+002023ATOT  Q02  00002PRCP99
0229408290999992000061506004+31320+061480FM-12+0489OIZB V0203201N014012200019N0015001N1+03001+00721100601ADDAA124000091AY101061AY201061GA1001+999999999GF100991001001999999001001MA1999999095211MD1110131+9999MW1071REMSYN094AAXX  15061 40829 31915 03214 10300 20072 39521 40060 51013 70700 90550 333 30098 52200 70000;EQDQ01  00002PRCP24
0201408290999992000061512004+31320+061480FM-12+0489OIZB V0203201N009012200019N0060001N1+03581+01061100231ADDAA199000091AY101061AY201061GA1001+999999999GF100991001001999999001001MA1999999094841MD1710161+9999MW1071REMSYN066AAXX  15121 40829 31956 03209 10358 20106 39484 40023 57016 70700;EQDQ01  00002PRCP99
0217408290999992000061518004+31320+061480FM-12+0489OIZB V0203201N012012200019N0060001N1+02901+00581100451ADDAA199000091AY101061AY201061GA1001+999999999GF100991001001999999001001MA1999999095121MD1210261+9999MW1071REMSYN082AAXX  15181 40829 31956 03212 10290 20058 39512 40045 52026 70700 91750 333 55040;EQDQ01  00002PRCP99
0126408290999992000061600004+31320+061480FM-12+0489OIZB V0203201N014012200019N9999999N1+02401+99999999999ADDAA199000091GA1001+999999999GF100991001001999999001001REMSYN042AAXX  16001 40829 319/0 03214 10240 20/56;EQDQ01  00002PRCP99
0186408290999992000061612004+31320+061480FM-12+0489OIZB V0203101N016012200019N0030001N1+03461+01511100371ADDAA199000091AY131061AY201061GA1001+999999999GF100991001001999999001001MD1710211+9999MW1071REMSYN066AAXX  16121 40829 31030 03116 10346 20151 40037 57021 70730 91150;EQDQ01  00002PRCP99
0217408290999992000061618004+31320+061480FM-12+0489OIZB V0203201N015012200019N0030001N1+02801+01321100451ADDAA199000091AY101061AY201061GA1001+999999999GF100991001001999999001001MA1999999095081MD1110081+9999MW1071REMSYN082AAXX  16181 40829 31930 03215 10280 20132 39508 40045 51008 70700 91750 333 55060;EQDQ01  00002PRCP99
0211408290999992000061700004+31320+061480FM-12+0489OIZB V0203301N013012200019N0080001N1+02241+01151100371ADDAA199000091AY101061AY201061GA1001+999999999GF100991001001999999001001MA1999999095011MD1610011+9999MW1071REMSYN076AAXX  17001 40829 31958 03313 10224 20115 39501 40037 56001 70700 92350 333;EQDQ01  00002PRCP99
0229408290999992000061706004+31320+061480FM-12+0489OIZB V0203401N016012200019N0020001N1+99999+99999100531ADDAA124000091AY101061AY201061GA1001+999999999GF100991001001999999001001MA1999999095191MD1610051+9999MW1071REMSYN094AAXX  17061 40829 31920 03416 1096/ 20125 39519 40053 56005 70700 90550 333 30021 53340 70000;EQDQ01  00002PRCP24
0202408290999992000061718004+31320+061480FM-12+0489OIZB V0203201N012012200019N0080001N1+02861+99999100261ADDAA199000091AY101061AY201061GA1001+999999999GF100991001001999999001001MD1110131+9999MW1071REMSYN082AAXX  17181 40829 31958 03212 10286 201/3 3/491 40026 51013 70700 91750 333 55116;EQDQ01  00002PRCP99
0173408290999992000061800004+31320+061480FM-12+0489OIZB V0203201N008012200019N0100001N1+02421+01131100211ADDAA199000091GA1001+999999999GF100991001001999999001001MA1999999094861MD1810021+9999REMSYN060AAXX  18001 40829 32960 03208 10242 20113 39486 40021 58002;EQDQ01  00002PRCP99
0208408290999992000061806004+31320+061480FM-12+0489OIZB V0203201N011012200019N0070001N1+03141+01541100251ADDAA124000091AY101061AY201061GA1001+999999999GF100991001001999999001001MD1510041+9999MW1071REMSYN088AAXX  18061 40829 31957 03211 10314 20154 40025 55004 70700 90550 333 30022 52640 70000;EQDQ01  00002PRCP24
0189408290999992000061818004+31320+061480FM-12+0489OIZB V0203401N007012200019N0100001N1+02981+01431099911ADDAA199000091GA1001+999999999GF100991001001999999001001MA1999999094631MD1410001+9999REMSYN076AAXX  18181 40829 32960 03407 10298 20143 39463 49991 54000 91750 333 55123;EQDQ01  00002PRCP99
0179408290999992000061900004+31320+061480FM-12+0489OIZB V0203301N007012200019N0100001N1+02501+01121099951ADDAA199000091GA1001+999999999GF100991001001999999001001MA1999999094651MD1410001+9999REMSYN066AAXX  19001 40829 32960 03307 10250 20112 39465 49995 54000 92350;EQDQ01  00002PRCP99
0229408290999992000061906004+31320+061480FM-12+0489OIZB V0203101N010012200019N0050001N1+03381+01331100171ADDAA124000091AY101061AY201061GA1001+999999999GF100991001001999999001001MA1999999094831MD1210101+9999MW1071REMSYN094AAXX  19061 40829 31950 03110 10338 20133 39483 40017 52010 70700 90550 333 30022 53170 70000;EQDQ01  00002PRCP24
0179408290999992000061912004+31320+061480FM-12+0489OIZB V0203101N008012200019N0100001N1+03801+02171099821ADDAA199000091GA1001+999999999GF100991001001999999001001MA1999999094531MD1710191+9999REMSYN066AAXX  19121 40829 32960 03108 10380 20217 39453 49982 57019 91150;EQDQ01  00002PRCP99
0183408290999992000062000004+31320+061480FM-12+0489OIZB V0203101N005012200019N0100001N1+02461+01341099941ADDAA199000091GA1001+999999999GF100991001001999999001001MA1999999094691MD1510031+9999REMSYN070AAXX  20001 40829 32960 03105 10246 20134 39469 49994 55003 92350 333;EQDQ01  00002PRCP99
0229408290999992000062006004+31320+061480FM-12+0489OIZB V0203201N013012200019N0040001N1+03661+00751100071ADDAA124000091AY101061AY201061GA1001+999999999GF100991001001999999001001MA1999999094781MD1810031+9999MW1071REMSYN094AAXX  20061 40829 31940 03213 10366 20075 39478 40007 58003 70700 90550 333 30021 51760 70000;EQDQ01  00002PRCP24
0183408290999992000062012004+31320+061480FM-12+0489OIZB V0203101N005012200019N0100001N1+04121+01221100211ADDAA199000091GA1001+999999999GF100991001001999999001001MA1999999094541MD1710111+9999REMSYN070AAXX  20121 40829 32960 03105 10412 20122 39454 40021 57011 91150 333;EQDQ01  00002PRCP99
0189408290999992000062018004+31320+061480FM-12+0489OIZB V0203201N008012200019N0100001N1+03201+01221099951ADDAA199000091GA1001+999999999GF100991001001999999001001MA1999999094701MD1210151+9999REMSYN076AAXX  20181 40829 32960 03208 10320 20122 39470 49995 52015 91750 333 55120;EQDQ01  00002PRCP99
0183408290999992000062100004+31320+061480FM-12+0489OIZB V0203201N007012200019N0100001N1+02501+01191099901ADDAA199000091GA1001+999999999GF100991001001999999001001MA1999999094651MD1110011+9999REMSYN070AAXX  21001 40829 32960 03207 10250 20119 39465 49990 51001 92350 333;EQDQ01  00002PRCP99
0189408290999992000062118004+31320+061480FM-12+0489OIZB V0203201N009012200019N0100001N1+03341+01331100071ADDAA199000091GA1001+999999999GF100991001001999999001001MA1999999094681MD1110141+9999REMSYN076AAXX  21181 40829 32960 03209 10334 20133 39468 40007 51014 91750 333 55114;EQDQ01  00002PRCP99
0189408290999992000062218004+31320+061480FM-12+0489OIZB V0203101N011012200019N0100001N1+03461+00831099551ADDAA199000091GA1001+999999999GF100991001001999999001001MA1999999094381MD1310071+9999REMSYN076AAXX  22181 40829 32960 03111 10346 20083 39438 49955 53007 91750 333 55115;EQDQ01  00002PRCP99
0205408290999992000062300004+31320+061480FM-12+0489OIZB V0203201N013012200019N0070001N1+03041+00821099611ADDAA199000091AY101061AY201061GA1001+999999999GF100991001001999999001001MA1999999094421MD1110041+9999MW1071REMSYN070AAXX  23001 40829 31957 03213 10304 20082 39442 49961 51004 70700 333;EQDQ01  00002PRCP99
0229408290999992000062306004+31320+061480FM-12+0489OIZB V0203301N015012200019N0030001N1+03661+01061099811ADDAA124000091AY101061AY201061GA1001+999999999GF100991001001999999001001MA1999999094591MD1110091+9999MW1071REMSYN094AAXX  23061 40829 31930 03315 10366 20106 39459 49981 51009 70700 90550 333 30028 52640 70000;EQDQ01  00002PRCP24
0189408290999992000062318004+31320+061480FM-12+0489OIZB V0203301N007012200019N0100001N1+03381+00531099551ADDAA199000091GA1001+999999999GF100991001001999999001001MA1999999094561MD1110091+9999REMSYN076AAXX  23181 40829 32960 03307 10338 20053 39456 49955 51009 91750 333 55110;EQDQ01  00002PRCP99
0179408290999992000062400004+31320+061480FM-12+0489OIZB V0203101N005012200019N0100001N1+03061+00881099431ADDAA199000091GA1001+999999999GF100991001001999999001001MA1999999094281MD1510081+9999REMSYN066AAXX  24001 40829 32960 03105 10306 20088 39428 49943 55008 92350;EQDQ01  00002PRCP99
0229408290999992000062406004+31320+061480FM-12+0489OIZB V0203401N013012200019N0040001N1+03961+01161099531ADDAA124000091AY101061AY201061GA1001+999999999GF100991001001999999001001MA1999999094341MD1810081+9999MW1071REMSYN094AAXX  24061 40829 31940 03413 10396 20116 39434 49953 58008 70700 90550 333 30026 51760 70000;EQDQ01  00002PRCP24
0189408290999992000062518004+31320+061480FM-12+0489OIZB V0209999C000012200019N0100001N1+03181+01041099281ADDAA199000091GA1001+999999999GF100991001001999999001001MA1999999094091MD1110081+9999REMSYN076AAXX  25181 40829 32960 00000 10318 20104 39409 49928 51008 91750 333 55112;EQDQ01  00002PRCP99
0114408290999992000062600004+31320+061480FM-12+0489OIZB V0203301N016012200019N0030001N1+99999+99999999999ADDAA199000091GA1001+999999999GF100991001001999999001001REMSYN030AAXX  26001 40829 31930 03316;EQDQ01  00002PRCP99
0229408290999992000062606004+31320+061480FM-12+0489OIZB V0203201N013012200019N0015001N1+03381+01421099711ADDAA124000091AY101061AY201061GA1001+999999999GF100991001001999999001001MA1999999094501MD1810121+9999MW1071REMSYN094AAXX  26061 40829 31915 03213 10338 20142 39450 49971 58012 70700 90550 333 30025 52640 70000;EQDQ01  00002PRCP24
0189408290999992000062618004+31320+061480FM-12+0489OIZB V0203201N004012200019N0100001N1+03321+01161099281ADDAA199000091GA1001+999999999GF100991001001999999001001MA1999999094071MD1410001+9999REMSYN076AAXX  26181 40829 32960 03204 10332 20116 39407 49928 54000 91750 333 55093;EQDQ01  00002PRCP99
0211408290999992000062700004+31320+061480FM-12+0489OIZB V0203301N011012200019N0060001N1+03021+01021099311ADDAA199000091AY101061AY201061GA1001+999999999GF100991001001999999001001MA1999999094141MD1310041+9999MW1071REMSYN076AAXX  27001 40829 31956 03311 10302 20102 39414 49931 53004 70700 92350 333;EQDQ01  00002PRCP99
0223408290999992000062706004+31320+061480FM-12+0489OIZB V0203101N012012200019N0010001N1+03501+01141099761ADDAA124000091AY101061AY201061GA1001+999999999GF100991001001999999001001MA1999999094521MD1210141+9999MW1071REMSYN088AAXX  27061 40829 31910 03112 10350 20114 39452 49976 52014 70700 333 30026 53170 70000;EQDQ01  00002PRCP24
0183408290999992000062712004+31320+061480FM-12+0489OIZB V0203101N008012200019N0100001N1+04201+01441099421ADDAA199000091GA1001+999999999GF100991001001999999001001MA1999999094231MD1710231+9999REMSYN070AAXX  27121 40829 32960 03108 10420 20144 39423 49942 57023 91150 333;EQDQ01  00002PRCP99
0217408290999992000062718004+31320+061480FM-12+0489OIZB V0203201N014012200019N0060001N1+03341+01121099461ADDAA199000091AY101061AY201061GA1001+999999999GF100991001001999999001001MA1999999094361MD1310181+9999MW1071REMSYN082AAXX  27181 40829 31956 03214 10334 20112 39436 49946 53018 70700 91750 333 55040;EQDQ01  00002PRCP99
0229408290999992000062806004+31320+061480FM-12+0489OIZB V0203301N017012200019N0008001N1+03501+01261099901ADDAA124000091AY131061AY201061GA1001+999999999GF100991001001999999001001MA1999999094661MD1310131+9999MW1311REMSYN094AAXX  28061 40829 31908 03317 10350 20126 39466 49990 53013 73130 90550 333 30026 52640 70000;EQDQ01  00002PRCP24
0207408290999992000062812004+31320+061480FM-12+0489OIZB V0203201N009012200019N0100001N1+04421+01771099531ADDAA199000091AY131061AY201061GA1001+999999999GF100991001001999999001001MA1999999094341MD1710191+9999MW1071REMSYN072AAXX  28121 40829 32960 03209 10442 20177 39434 49953 57019 70730 91150;EQDQ01  00002PRCP99
0179408290999992000062818004+31320+061480FM-12+0489OIZB V0203201N008012200019N0100001N1+03421+00961099601ADDAA199000091GA1001+999999999GF100991001001999999001001MA1999999094401MD1310091+9999REMSYN066AAXX  28181 40829 32960 03208 10342 20096 39440 49960 53009 91750;EQDQ01  00002PRCP99
0186408290999992000062900004+31320+061480FM-12+0489OIZB V0203301N012012200019N0060001N1+03141+00961099721ADDAA199000091AY101061AY201061GA1001+999999999GF100991001001999999001001MD1210081+9999MW1071REMSYN066AAXX  29001 40829 31956 03312 10314 20096 49972 52008 70700 92350;EQDQ01  00002PRCP99
0223408290999992000062906004+31320+061480FM-12+0489OIZB V0203301N015012200019N0010001N1+03841+01061100071ADDAA124000091AY101061AY201061GA1001+999999999GF100991001001999999001001MA1999999094801MD1110051+9999MW1071REMSYN088AAXX  29061 40829 31910 03315 10384 20106 3948/ 40007 51005 70700 90550 333 3002/ 70000;EQDQ01  00002PRCP24
0165408290999992000062918004+31320+061480FM-12+0489OIZB V0203101N010012200019N0070001N1+03481+00991099781ADDGA1001+999999999GF100991001001999999001001MA1999999094571MD1110071+9999REMSYN082AAXX  29181 40829 1//57 03110 10348 20099 39457 49978 51007 70700 91750 333 55106;
0211408290999992000063000004+31320+061480FM-12+0489OIZB V0203301N013012200019N0070001N1+03081+01011099641ADDAA199000091AY101061AY201061GA1001+999999999GF100991001001999999001001MA1999999094461MD1810051+9999MW1071REMSYN076AAXX  30001 40829 31957 03313 10308 20101 39446 49964 58005 70700 92350 333;EQDQ01  00002PRCP99
0229408290999992000063006004+31320+061480FM-12+0489OIZB V0203201N015012200019N0015001N1+03641+01201099731ADDAA124000091AY131061AY201061GA1001+999999999GF100991001001999999001001MA1999999094541MD1110031+9999MW1071REMSYN094AAXX  30061 40829 31915 03215 10364 20120 39454 49973 51003 70730 90550 333 30/27 52640 70000;EQDQ01  00002PRCP24
0211408290999992000063012004+31320+061480FM-12+0489OIZB V0203201N015012200019N0030001N1+04201+01731099431ADDAA199000091AY101061AY201061GA1001+999999999GF100991001001999999001001MA1999999094281MD1710141+9999MW1071REMSYN076AAXX  30121 40829 31930 03215 10420 20173 39428 49943 57014 70700 91150 333;EQDQ01  00002PRCP99
0207408290999992000070100004+31320+061480FM-12+0489OIZB V0203301N010012200019N0070001N1+03041+00941099491ADDAA199000091AY101061AY201061GA1001+999999999GF100991001001999999001001MA1999999094301MD1110011+9999MW1071REMSYN072AAXX  01001 40829 31957 03310 10304 20094 39430 49949 51001 70700 92350;EQDQ01  00002PRCP99
0223408290999992000070106004+31320+061480FM-12+0489OIZB V0203301N013012200019N0030001N1+03681+00741099751ADDAA199000091AY101061AY201061GA1001+999999999GF100991001001999999001001MA1999999094541MD1110041+9999MW1071REMSYN088AAXX  01061 40829 31930 03313 10368 20074 39454 49975 51004 70700 90550 333 30029 52640;EQDQ01  00002PRCP99
0183408290999992000070112004+31320+061480FM-12+0489OIZB V0203101N008012200019N0100001N1+04301+01091099451ADDAA199000091GA1001+999999999GF100991001001999999001001MA1999999094281MD1710191+9999REMSYN070AAXX  01121 40829 32960 03108 10430 20109 39428 49945 57019 91150 333;EQDQ01  00002PRCP99
0217408290999992000070118004+31320+061480FM-12+0489OIZB V0203301N014012200019N0060001N1+03441+00821099671ADDAA199000091AY101061AY201061GA1001+999999999GF100991001001999999001001MA1999999094491MD1219999+9999MW1071REMSYN082AAXX  01181 40829 31956 03314 10344 20082 39449 49967 520/0 70700 91750 333 55054;EQDQ01  00002PRCP99
0243408290999992000070200004+31320+061480FM-12+0489OIZB V0203201N013012200019N0070001N1+99999+99999099521ADDAA199000091AY101061AY201061GA1001+999999999GF100991001001999999001001MA1999999094381MD1510031+9999MW1071REMSYN076AAXX  02001 40829 31957 03213 11310 20081 39438 49952 55003 70700 92350 333;EQDQ01-003103ATOT  Q02  00002PRCP99Q03 -03103ATOT  
0211408290999992000070212004+31320+061480FM-12+0489OIZB V0203201N011012200019N0080001N1+04221+01211099471ADDAA199000091AY101061AY201061GA1001+999999999GF100991001001999999001001MA1999999094281MD1710151+9999MW1071REMSYN076AAXX  02121 40829 31958 03211 10422 20121 39428 49947 57015 70700 91150 333;EQDQ01  00002PRCP99
0187408290999992000070218004+31320+061480FM-12+0489OIZB V0203101N010012200019N0080001N1+03361+00891099671ADDAY101061AY201061GA1001+999999999GF100991001001999999001001MA1999999094451MD1210141+9999MW1071REMSYN082AAXX  02181 40829 41958 03110 10336 20089 39445 49967 52014 70700 91750 333 55095;
0223408290999992000070406004+31320+061480FM-12+0489OIZB V0203301N015012200019N0020001N1+03581+01391099841ADDAA124000091AY101061AY201061GA1001+999999999GF100991001001999999001001MA1999999094611MD1410001+9999MW1071REMSYN088AAXX  04061 40829 31920 03315 10358 20139 39461 49984 54000 70700 90550 333 0028/ 70000;EQDQ01  00002PRCP24
0183408290999992000070412004+31320+061480FM-12+0489OIZB V0203301N010012200019N0100001N1+04141+02191099591ADDAA199000091GA1001+999999999GF100991001001999999001001MA1999999094381MD1610081+9999REMSYN070AAXX  04121 40829 32960 03310 10414 20219 39438 49959 56008 91150 333;EQDQ01  00002PRCP99
0217408290999992000070418004+31320+061480FM-12+0489OIZB V0203201N012012200019N0070001N1+03301+01441099661ADDAA199000091AY101061AY201061GA1001+999999999GF100991001001999999001001MA1999999094521MD1310141+9999MW1071REMSYN082AAXX  04181 40829 31957 03212 10330 20144 39452 49966 53014 70700 91750 333 55120;EQDQ01  00002PRCP99
0211408290999992000070512004+31320+061480FM-12+0489OIZB V0203301N010012200019N0080001N1+04261+02131099571ADDAA199000091AY101061AY201061GA1001+999999999GF100991001001999999001001MA1999999094381MD1710201+9999MW1071REMSYN076AAXX  05121 40829 31958 03310 10426 20213 39438 49957 57020 70700 91150 333;EQDQ01  00002PRCP99
0217408290999992000070518004+31320+061480FM-12+0489OIZB V0203301N010012200019N0070001N1+03501+01861099701ADDAA199000091AY101061AY201061GA1001+999999999GF100991001001999999001001MA1999999094491MD1110061+9999MW1071REMSYN082AAXX  05181 40829 31957 03310 10350 20186 39449 49970 51006 70700 91750 333 55100;EQDQ01  00002PRCP99
0229408290999992000070606004+31320+061480FM-12+0489OIZB V0203201N018012200019N0025001N1+03101+02211099841ADDAA124000091AY131061AY201061GA1001+999999999GF100991001001999999001001MA1999999094671MD1610071+9999MW1071REMSYN094AAXX  06061 40829 31925 03218 10310 20221 39467 49984 56007 70730 90550 333 30028 53170 70000;EQDQ01  00002PRCP24
0211408290999992000070612004+31320+061480FM-12+0489OIZB V0203201N015012200019N0015001N1+04181+01321099621ADDAA199000091AY131061AY201061GA1001+999999999GF100991001001999999001001MA1999999094381MD1710151+9999MW1071REMSYN076AAXX  06121 40829 31915 03215 10418 20132 39438 49962 57015 70730 91150 333;EQDQ01  00002PRCP99
0217408290999992000070618004+31320+061480FM-12+0489OIZB V0203201N014012200019N0080001N1+03481+01181099671ADDAA199000091AY101061AY201061GA1001+999999999GF100991001001999999001001MA1999999094461MD1310041+9999MW1071REMSYN082AAXX  06181 40829 31958 03214 10348 20118 39446 49967 53004 70700 91750 333 55118;EQDQ01  00002PRCP99
0229408290999992000070706004+31320+061480FM-12+0489OIZB V0203201N015012200019N0040001N1+03601+00951099771ADDAA124000091AY101061AY201061GA1001+999999999GF100991001001999999001001MA1999999094541MD1610011+9999MW1071REMSYN094AAXX  07061 40829 31940 03215 10360 20095 39454 49977 56001 70700 90550 333 30028 53170 70000;EQDQ01  00002PRCP24
0207408290999992000070712004+31320+061480FM-12+0489OIZB V0203301N013012200019N0050001N1+04121+01841099531ADDAA199000091AY101061AY201061GA1001+999999999GF100991001001999999001001MA1999999094341MD1710121+9999MW1071REMSYN072AAXX  07121 40829 31950 03313 10412 20184 39434 49953 57012 70700 91150;EQDQ01  00002PRCP99
0217408290999992000070718004+31320+061480FM-12+0489OIZB V0203201N014012200019N0060001N1+03501+01681099521ADDAA199000091AY101061AY201061GA1001+999999999GF100991001001999999001001MA1999999094351MD1110071+9999MW1071REMSYN082AAXX  07181 40829 31956 03214 10350 20168 39435 49952 51007 70700 91750 333 55075;EQDQ01  00002PRCP99
0211408290999992000070800004+31320+061480FM-12+0489OIZB V0203301N014012200019N0060001N1+03001+01571099511ADDAA199000091AY101061AY201061GA1001+999999999GF100991001001999999001001MA1999999094361MD1410001+9999MW1071REMSYN076AAXX  08001 40829 31956 03314 10300 20157 39436 49951 54000 70700 92350 333;EQDQ01  00002PRCP99
0211408290999992000070812004+31320+061480FM-12+0489OIZB V0203101N011012200019N0060001N1+04261+01051099281ADDAA199000091AY101061AY201061GA1001+999999999GF100991001001999999001001MA1999999094101MD1710141+9999MW1071REMSYN076AAXX  08121 40829 31956 03111 10426 20105 39410 49928 57014 70700 91150 333;EQDQ01  00002PRCP99
0189408290999992000070818004+31320+061480FM-12+0489OIZB V0203101N007012200019N0100001N1+03441+00831099281ADDAA199000091GA1001+999999999GF100991001001999999001001MA1999999094091MD1110031+9999REMSYN076AAXX  08181 40829 32960 03107 10344 20083 39409 49928 51003 91750 333 55100;EQDQ01  00002PRCP99
0183408290999992000070900004+31320+061480FM-12+0489OIZB V0203101N010012200019N0100001N1+03301+00851099121ADDAA199000091GA1001+999999999GF100991001001999999001001MA1999999093981MD1610071+9999REMSYN070AAXX  09001 40829 32960 03110 10330 20085 39398 49912 56007 92350 333;EQDQ01  00002PRCP99
0229408290999992000070906004+31320+061480FM-12+0489OIZB V0203301N017012200019N0007001N1+03761+01421099371ADDAA124000091AY131061AY201061GA1001+999999999GF100991001001999999001001MA1999999094181MD1110051+9999MW1301REMSYN094AAXX  09061 40829 31907 03317 10376 20142 39418 49937 51005 73030 90550 333 30029 53170 70000;EQDQ01  00002PRCP24
0217408290999992000070918004+31320+061480FM-12+0489OIZB V0203201N012012200019N0060001N1+03621+00821099191ADDAA199000091AY101061AY201061GA1001+999999999GF100991001001999999001001MA1999999094011MD1110131+9999MW1071REMSYN082AAXX  09181 40829 31956 03212 10362 20082 39401 49919 51013 70700 91750 333 55111;EQDQ01  00002PRCP99
0223408290999992000071006004+31320+061480FM-12+0489OIZB V02099999999992200019N0006001N1+03641+01381099511ADDAA124000091AY131061AY201061GA1001+999999999GF100991001001999999001001MA1999999094001MD1410001+9999MW1311REMSYN088AAXX  10061 40829 31906 0331/ 10364 20138 39400 49951 54000 73130 333 30029 53260 70000;EQDQ01  00002PRCP24
0211408290999992000071012004+31320+061480FM-12+0489OIZB V0203101N013012200019N0070001N1+04341+01631098931ADDAA199000091AY101061AY201061GA1001+999999999GF100991001001999999001001MA1999999093801MD1710211+9999MW1071REMSYN076AAXX  10121 40829 31957 03113 10434 20163 39380 49893 57021 70700 91150 333;EQDQ01  00002PRCP99
0191408290999992000071106004+31320+061480FM-12+0489OIZB V02099999999999999999N0030001N1+03761+01501099301ADDAA124000091GF107991999999999999999999MA1999999094141MD1110101+9999REMSYN094AAXX  11061 40829 3//30 7/050 10376 20150 39414 49930 5101/ 70730 90550 333 30028 52990 70000;EQDQ01  00002PRCP24
0211408290999992000071112004+31320+061480FM-12+0489OIZB V0203101N013012200019N0060001N1+04301+01741099021ADDAA199000091AY101061AY201061GA1001+999999999GF100991001001999999001001MA1999999093881MD1710131+9999MW1071REMSYN076AAXX  11121 40829 31956 03113 10430 20174 39388 49902 57013 70700 91150 333;EQDQ01  00002PRCP99
0189408290999992000071118004+31320+061480FM-12+0489OIZB V0203301N010012200019N0100001N1+03561+00981099251ADDAA199000091GA1001+999999999GF100991001001999999001001MA1999999094081MD1210161+9999REMSYN076AAXX  11181 40829 32960 03310 10356 20098 39408 49925 52016 91750 333 55060;EQDQ01  00002PRCP99
0179408290999992000071200004+31320+061480FM-12+0489OIZB V0203201N010012200019N0100001N1+03041+01241099141ADDAA199000091GA1001+999999999GF100991001001999999001001MA1999999093991MD1610091+9999REMSYN066AAXX  12001 40829 32960 03210 10304 20124 39399 49914 56009 92350;EQDQ01  00002PRCP99
0229408290999992000071206004+31320+061480FM-12+0489OIZB V0203201N014012200019N0040001N1+03821+01281099341ADDAA124000091AY131061AY201061GA1001+999999999GF100991001001999999001001MA1999999094171MD1810041+9999MW1071REMSYN094AAXX  12061 40829 31940 03214 10382 20128 39417 49934 58004 70730 90550 333 30028 53520 70000;EQDQ01  00002PRCP24
0235408290999992000071212004+31320+061480FM-12+0489OIZB V0203201N011012200019N0070001N1+04441+01321999999ADDAA199000091AY101061AY201061GA1001+999999999GF100991001001999999001001ME1199999MW1071REMSYN072AAXX  12121 40829 31957 03211 10444 20132 38387 41901 51719 70700 91150;EQDQ01+083873APOSP Q02+000017APCTENQ03+007197APC3  Q04  00002PRCP99
0217408290999992000071218004+31320+061480FM-12+0489OIZB V0203201N013012200019N0060001N1+03581+01071099231ADDAA199000091AY101061AY201061GA1001+999999999GF100991001001999999001001MA1999999094071MD1110171+9999MW1071REMSYN082AAXX  12181 40829 31956 03213 10358 20107 39407 49923 51017 70700 91750 333 55101;EQDQ01  00002PRCP99
0211408290999992000071300004+31320+061480FM-12+0489OIZB V0203201N015012200019N0040001N1+03101+00711099291ADDAA199000091AY101061AY201061GA1001+999999999GF100991001001999999001001MA1999999094131MD1110041+9999MW1071REMSYN076AAXX  13001 40829 31940 03215 10310 20071 39413 49929 51004 70700 92350 333;EQDQ01  00002PRCP99
0207408290999992000071306004+31320+061480FM-12+0489OIZB V0203301N018012200019N0006001N1+03621+01581099521ADDAA124000091GA1001+999999999GF100991001001999999001001MA1999999094331MD1110041+9999REMSYN094AAXX  13061 40829 3/906 03318 10362 20158 39433 49952 51004 73130 90550 333 30029 53700 70000;EQDQ01  00002PRCP24
0211408290999992000071400004+31320+061480FM-12+0489OIZB V0203201N016012200019N0030001N1+03081+00901099431ADDAA199000091AY101061AY201061GA1001+999999999GF100991001001999999001001MA1999999094251MD1810121+9999MW1071REMSYN076AAXX  14001 40829 31930 03216 10308 20090 39425 49943 58012 70700 92350 333;EQDQ01  00002PRCP99
0229408290999992000071406004+31320+061480FM-12+0489OIZB V0203201N019012200019N0006001N1+03461+01221099391ADDAA124000091AY131061AY201061GA1001+999999999GF100991001001999999001001MA1999999094371MD1110021+9999MW1311REMSYN094AAXX  14061 40829 31906 03219 10346 20122 39437 49939 51002 73130 90550 333 30027 53820 70000;EQDQ01  00002PRCP24
0211408290999992000071412004+31320+061480FM-12+0489OIZB V0203201N016012200019N0060001N1+04041+01531099311ADDAA199000091AY101061AY201061GA1001+999999999GF100991001001999999001001MA1999999094121MD1710161+9999MW1071REMSYN076AAXX  14121 40829 31956 03216 10404 20153 39412 49931 57016 70700 91150 333;EQDQ01  00002PRCP99
0217408290999992000071418004+31320+061480FM-12+0489OIZB V0203301N013012200019N0070001N1+03421+01251099461ADDAA199000091AY101061AY201061GA1001+999999999GF100991001001999999001001MA1999999094241MD1210141+9999MW1071REMSYN082AAXX  14181 40829 31957 03313 10342 20125 39424 49946 52014 70700 91750 333 55090;EQDQ01  00002PRCP99
0207408290999992000071512004+31320+061480FM-12+0489OIZB V0203301N010012200019N0070001N1+04201+01721099351ADDAA199000091AY101061AY201061GA1001+999999999GF100991001001999999001001MA1999999094171MD1710091+9999MW1071REMSYN072AAXX  15121 40829 31957 03310 10420 20172 39417 49935 57009 70700 91150;EQDQ01  00002PRCP99
0225408290999992000071600004+31320+061480FM-12+0489OIZB V0203201N014012200019N0060001N1+03001+01151099431ADDAA199000091AY101061AY201061GA1001+999999999GF100991001001999999001001MA1999999094241MW1071REMSYN072AAXX  16001 40829 31956 03214 10300 20115 39424 49943 5100/ 70700 92390;EQDQ01+000012APCTENQ02+000002APC3  Q03  00002PRCP99
0229408290999992000071606004+31320+061480FM-12+0489OIZB V0203201N017012200019N0040001N1+03501+01161099751ADDAA124000091AY101061AY201061GA1001+999999999GF100991001001999999001001MA1999999094511MD1210151+9999MW1071REMSYN094AAXX  16061 40829 31940 03217 10350 20116 39451 49975 52015 70700 90550 333 43002 53520 70000;EQDQ01  00002PRCP24
0211408290999992000071618004+31320+061480FM-12+0489OIZB V0203301N012012200019N0070001N1+03301+99999099551ADDAA199000091AY101061AY201061GA1001+999999999GF100991001001999999001001MA1999999094351MD1310061+9999MW1071REMSYN076AAXX  16181 40829 31957 03312 10330 39435 49955 53006 70700 91750 333 55118;EQDQ01  00002PRCP99
0191408290999992000071700004+31320+061480FM-12+0489OIZB V0203301N014012200019N0060001N1+02901+01441099661ADDAA199000091AY101061AY201061GA1001+999999999GF100991001001999999001001MA1999999094451MW1071REMSYN070AAXX  17001 40829 31956 03314 10290 20144 39445 49966 70700 92350 333;EQDQ01  00002PRCP99
0208408290999992000071706004+31320+061480FM-12+0489OIZB V0203401N018012200019N0008001N1+03181+00931099831ADDAA124000091AY131061AY201061GA1001+999999999GF100991001001999999001001MD1810011+9999MW1311REMSYN088AAXX  17061 40829 31908 03418 10318 20093 49983 58001 73130 90550 333 30024 53870 70000;EQDQ01  00002PRCP24
0207408290999992000071800004+31320+061480FM-12+0489OIZB V0203101N010012200019N0080001N1+02781+01161099561ADDAA199000091AY101061AY201061GA1001+999999999GF100991001001999999001001MA1999999094341MD1110021+9999MW1071REMSYN072AAXX  18001 40829 31958 03110 10278 20116 39434 49956 51002 70700 92390;EQDQ01  00002PRCP99
0179408290999992000071812004+31320+061480FM-12+0489OIZB V0203401N006012200019N0100001N1+03221-00211099241ADDAA199000091GA1001+999999999GF100991001001999999001001MA1999999085372MD1710121+9999REMSYN066AAXX  18121 40829 32960 03406 10322 21021 38537 49924 57012 91150;EQDQ01  00002PRCP99
0229408290999992000072006004+31320+061480FM-12+0489OIZB V0203201N018012200019N0008001N1+03301+01361099921ADDAA124000091AY101061AY201061GA1001+999999999GF100991001001999999001001MA1999999094461MD1310151+9999MW1301REMSYN094AAXX  20061 40829 31908 03218 10330 20136 39446 49992 53015 73000 90550 333 30023 53080 70000;EQDQ01  00002PRCP24
0211408290999992000072012004+31320+061480FM-12+0489OIZB V0203301N015012200019N0020001N1+03761+01321099781ADDAA199000091AY101061AY201061GA1001+999999999GF100991001001999999001001MA1999999094501MD1810131+9999MW1071REMSYN076AAXX  20121 40829 32920 03315 10376 20132 39450 49978 58013 70700 91150 333;EQDQ01  00002PRCP99
0179408290999992000072100004+31320+061480FM-12+0489OIZB V0202801N007012200019N0100001N1+02601+01281099951ADDAA199000091GA1001+999999999GF100991001001999999001001MA1999999094671MD1410001+9999REMSYN066AAXX  21001 40829 32960 02807 10260 20128 39467 49995 54000 92350;EQDQ01  00002PRCP99
0229408290999992000072106004+31320+061480FM-12+0489OIZB V0203301N014012200019N0030001N1+03421+00731100061ADDAA124000091AY101061AY201061GA1001+999999999GF100991001001999999001001MA1999999094781MD1110031+9999MW1071REMSYN094AAXX  21061 40829 31930 03314 10342 20073 39478 40006 51003 70700 90550 333 30024 53520 70000;EQDQ01  00002PRCP24
0229408290999992000072406004+31320+061480FM-12+0489OIZB V0203201N018012200019N0008001N1+03381+01011099861ADDAA124000091AY101061AY201061GA1001+999999999GF100991001001999999001001MA1999999094661MD1010021+9999MW1301REMSYN094AAXX  24061 40829 31908 03218 10338 20101 39466 49986 50002 73000 90550 333 30024 53/80 70000;EQDQ01  00002PRCP24
0211408290999992000072412004+31320+061480FM-12+0489OIZB V0203201N014012200019N0050001N1+03981+01101099671ADDAA199000091AY101061AY201061GA1001+999999999GF100991001001999999001001MA1999999094441MD1610131+9999MW1071REMSYN076AAXX  24121 40829 31950 03214 10398 20110 39444 49967 56013 70700 91150 333;EQDQ01  00002PRCP99
0217408290999992000072418004+31320+061480FM-12+0489OIZB V0203301N014012200019N0060001N1+03341+01061099801ADDAA199000091AY101061AY201061GA1001+999999999GF100991001001999999001001MA1999999094561MD1310081+9999MW1071REMSYN082AAXX  24181 40829 31956 03314 10334 20106 39456 49980 53008 70700 91750 333 55113;EQDQ01  00002PRCP99
0211408290999992000072500004+31320+061480FM-12+0489OIZB V0203301N012012200019N0050001N1+99999+99999099931ADDAA199000091AY101061AY201061GA1001+999999999GF100991001001999999001001MA1999999094701MD1110061+9999MW1071REMSYN076AAXX  25001 40829 31950 03312 1/286 20108 39470 49993 51006 70700 92350 333;EQDQ01  00002PRCP99
0229408290999992000072506004+31320+061480FM-12+0489OIZB V0203201N014012200019N0015001N1+03241+00661100241ADDAA124000091AY101061AY201061GA1001+999999999GF100991001001999999001001MA1999999094951MD1110191+9999MW1071REMSYN094AAXX  25061 40829 31915 03214 10324 20066 39495 40024 51019 70700 90550 333 30025 53430 70000;EQDQ01  00002PRCP24
0211408290999992000072600004+31320+061480FM-12+0489OIZB V0203301N012012200019N0070001N1+02641+01211100151ADDAA199000091AY101061AY201061GA1001+999999999GF100991001001999999001001MA1999999094801MD1610051+9999MW1171REMSYN076AAXX  26001 40829 31957 03312 10264 20121 3948/ 40015 56005 71700 92350 333;EQDQ01  00002PRCP99
0210408290999992000072606004+31320+061480FM-12+0489OIZB V0203301N015012200019N0020001N1+03341+00881100321ADDAA124999999AY131061AY201061GA1001+999999999GF100991001001999999001001MA1999999095031MD1110011+9999MW1071REMSYN094AAXX  26061 40829 31/20 03315 10334 20088 39503 40032 51001 70730 90550 333 30024 53080 7000/;
0211408290999992000072612004+31320+061480FM-12+0489OIZB V0203201N012012200019N0070001N1+03841+00721100041ADDAA199000091AY101061AY201061GA1001+999999999GF100991001001999999001001MA1999999094771MD1710111+9999MW1071REMSYN076AAXX  26121 40829 31957 03212 10384 20072 39477 40004 57011 70700 91150 333;EQDQ01  00002PRCP99
0217408290999992000072618004+31320+061480FM-12+0489OIZB V0203201N012012200019N0070001N1+03161+00581100191ADDAA199000091AY101061AY201061GA1001+999999999GF100991001001999999001001MA1999999094891MD1110131+9999MW1071REMSYN082AAXX  26181 40829 31957 03212 10316 20058 39489 40019 51013 70700 91750 333 55109;EQDQ01  00002PRCP99
0211408290999992000072700004+31320+061480FM-12+0489OIZB V0203201N013012200019N0060001N1+02761+00741099891ADDAA199000091AY101061AY201061GA1001+999999999GF100991001001999999001001MA1999999094811MD1810031+9999MW1071REMSYN076AAXX  27001 40829 31956 03213 10276 20074 39481 49989 58003 70700 92350 333;EQDQ01  00002PRCP99
0229408290999992000072706004+31320+061480FM-12+0489OIZB V0203201N015012200019N0015001N1+03441+00961100251ADDAA124000091AY101061AY201061GA1001+999999999GF100991001001999999001001MA1999999094991MD1110081+9999MW1071REMSYN094AAXX  27061 40829 31915 03215 10344 20096 39499 40025 51008 70700 90550 333 30023 51170 70000;EQDQ01  00002PRCP24
0207408290999992000072712004+31320+061480FM-12+0489OIZB V0203201N012012200019N0060001N1+04081+01141099941ADDAA199000091AY101061AY211061GA1001+999999999GF100991001001999999001001MA1999999094641MD1810151+9999MW1071REMSYN072AAXX  27121 40829 31956 03212 10408 20114 39464 49994 58015 70701 91150;EQDQ01  00002PRCP99
0189408290999992000072718004+31320+061480FM-12+0489OIZB V0203201N010012200019N0100001N1+03241+00941099981ADDAA199000091GA1001+999999999GF100991001001999999001001MA1999999094731MD1310101+9999REMSYN076AAXX  27181 40829 32960 03210 10324 20094 39473 49998 53010 91750 333 55121;EQDQ01  00002PRCP99
0135408290999992000072800004+31320+061480FM-12+0489OIZB V0203201N018012200019N9999999N1+02901+01021099901ADDGA1001+999999999GF100991001001999999001001MA1999999094691REMSYN066AAXX  28001 40829 //57/ 03218 10290 20102 39469 49990 70700 92350;
0229408290999992000072806004+31320+061480FM-12+0489OIZB V0203301N014012200019N0040001N1+03621+01251100101ADDAA124000091AY101061AY201061GA1001+999999999GF100991001001999999001001MA1999999094841MD1110041+9999MW1071REMSYN094AAXX  28061 40829 31996 03314 10362 20125 39484 40010 51004 70700 90550 333 30027 53340 70000;EQDQ01  00002PRCP24
0183408290999992000072812004+31320+061480FM-12+0489OIZB V0203101N007012200019N0100001N1+04181+01631099771ADDAA199000091GA1001+999999999GF100991001001999999001001MA1999999094551MD1710181+9999REMSYN070AAXX  28121 40829 32960 03107 10418 20163 39455 49977 57018 91150 333;EQDQ01  00002PRCP99
0209408290999992000072818004+31320+061480FM-12+0489OIZB V0203201N007012200019N0100001N1+03401+01171100031ADDAA199000091GA1021+060009019GF102991001001999999001021GJ107209MA1999999094811MD1210221+9999REMSYN088AAXX  28181 40829 32960 23207 10340 20117 39481 40003 52022 80002 91750 333 55120 82070;EQDQ01  00002PRCP99
0162408290999992000072900004+31320+061480FM-12+0489OIZB V0203301N012012200019N0080001N1+02741+01071099941ADDAA199000091GA1001+999999999GF100991001001999999001001MD1110031+9999REMSYN064AAXX  29001 40829 31958 03312 10274 20107 49994 51003 92350 333;EQDQ01  00002PRCP99
0223408290999992000072906004+31320+061480FM-12+0489OIZB V0203401N013012200019N0060001N1+99999+99999100141ADDAA124000091AY101061AY201061GA1001+999999999GF100991001001999999001001MA1999999094931MD1110011+9999MW1071REMSYN088AAXX  29061 40829 31956 03413 20099 39493 40014 51001 70700 90550 333 43002 52820 70000;EQDQ01  00002PRCP24
0195408290999992000072912004+31320+061480FM-12+0489OIZB V0202801N007012200019N0100001N1+04221+00541099811ADDAA199000091GA1021+060009019GF102991001001999999001011MA1999999094601MD1710161+9999REMSYN082AAXX  29121 40829 32960 22807 10422 20054 39460 49981 57016 80001 91150 333 82070;EQDQ01  00002PRCP99
0209408290999992000072918004+31320+061480FM-12+0489OIZB V0203101N009012200019N0100001N1+03601+00431099981ADDAA199000091GA1031+060009019GF103991001001999999001021GJ105709MA1999999094771MD1110171+9999REMSYN088AAXX  29181 40829 32960 33109 10360 20043 39477 49998 51017 80002 91750 333 55095 83070;EQDQ01  00002PRCP99
0207408290999992000073000004+31320+061480FM-12+0489OIZB V0203201N014012200019N0070001N1+03201+00551099901ADDAA199000091AY101061AY201061GA1001+999999999GF100991001001999999001001MA1999999094701MD1810031+9999MW1071REMSYN072AAXX  30001 40829 31957 03214 10320 20055 39470 49990 58003 70700 92350;EQDQ01  00002PRCP99
0223408290999992000073006004+31320+061480FM-12+0489OIZB V0203201N016012200019N0020001N1+03801+00581100021ADDAA124000091AY101061AY201061GA1001+999999999GF100991001001999999001001MA1999999094841MD1110041+9999MW1071REMSYN088AAXX  30061 40829 31920 03216 10380 20058 39484 40002 51004 70700 90550 333 53170 70000;EQDQ01  00002PRCP24
0207408290999992000073012004+31320+061480FM-12+0489OIZB V0203201N013012200019N0060001N1+04381+00811099801ADDAA199000091AY101061AY201061GA1001+999999999GF100991001001999999001001MA1999999094651MD1410001+9999MW1071REMSYN072AAXX  30121 40829 31956 03213 10438 20081 39465 49980 54000 70700 91150;EQDQ01  00002PRCP99
0201408290999992000073018004+31320+061480FM-12+0489OIZB V0209999C000019999999N0050001N1+03641+00561099811ADDAA199000091AY101061AY201061GF107991999999999999999999MA1999999094631MD1010011+9999MW1071REMSYN082AAXX  30181 40829 31950 70000 10364 20056 39463 49981 50001 70700 91750 333 55108;EQDQ01  00002PRCP99
0211408290999992000073112004+31320+061480FM-12+0489OIZB V0203201N009012200019N0070001N1+04421+01461099401ADDAA199000091AY101061AY201061GA1001+999999999GF100991001001999999001001MA1999999094241MD1710231+9999MW1071REMSYN076AAXX  31121 40829 31957 03209 10442 20146 39424 49940 57023 70700 91150 333;EQDQ01  00002PRCP99
0195408290999992000080206004+31320+061480FM-12+0489OIZB V0203301N014012200019N0050001N1+03641+01241099621ADDAA124000091GA1001+999999999GF100991001001999999001001MA1999999094441MD1110071+9999REMSYN082AAXX  02061 40829 31950 03314 10364 20124 39444 49962 51007 90550 333 30028 70000;EQDQ01  00002PRCP24
0207408290999992000080212004+31320+061480FM-12+0489OIZB V0203201N010012200019N0070001N1+04301+01421099301ADDAA199000091AY101061AY201061GA1001+999999999GF100991001001999999001001MA1999999094131MD1810091+9999MW1071REMSYN072AAXX  02121 40829 31957 03210 10430 20142 39413 49930 58009 70700 91150;EQDQ01  00002PRCP99
0217408290999992000080218004+31320+061480FM-12+0489OIZB V0203201N013012200019N0070001N1+99999+99999099141ADDAA199000091AY101061AY201061GA1001+999999999GF100991001001999999001001MA1999999094401MD1119999+9999MW1071REMSYN082AAXX  02181 40829 31957 03213 10/70 20102 39440 49914 511// 70700 91750 333 55118;EQDQ01  00002PRCP99
0207408290999992000080300004+31320+061480FM-12+0489OIZB V0203201N016012200019N0030001N1+03021+01121099351ADDAA199000091AY101061AY201061GA1001+999999999GF100991001001999999001001MA1999999094401MD1810121+9999MW1071REMSYN072AAXX  03001 40829 31930 03216 10302 20112 3944/ 49935 58012 70700 92350;EQDQ01  00002PRCP99
0208408290999992000080306004+31320+061480FM-12+0489OIZB V0203101N014012200019N0010001N1+03601+00801099681ADDAA124000091AY131061AY201061GA1001+999999999GF100991001001999999001001MD1110171+9999MW1071REMSYN088AAXX  03061 40829 31910 03114 10360 20080 49968 51017 70730 90550 333 30029 53340 70000;EQDQ01  00002PRCP24
0217408290999992000080318004+31320+061480FM-12+0489OIZB V0203201N009012200019N0080001N1+03321+00861099461ADDAA199000091AY101061AY201061GA1001+999999999GF100991001001999999001001MA1999999094281MD1310131+9999MW1071REMSYN082AAXX  03181 40829 31958 03209 10332 20086 39428 49946 53013 70700 91750 333 55084;EQDQ01  00002PRCP99
0183408290999992000080400004+31320+061480FM-12+0489OIZB V0203201N005012200019N0100001N1+02941+00761099601ADDAA199000091GA1001+999999999GF100991001001999999001001MA1999999094311MD1510041+9999REMSYN070AAXX  04001 40829 32960 03205 10294 20076 39431 49960 55004 92350 333;EQDQ01  00002PRCP99
0179408290999992000080412004+31320+061480FM-12+0489OIZB V0203301N006012200019N0100001N1+04301+00741099341ADDAA199000091GA1001+999999999GF100991001001999999001001MA1999999094181MD1710121+9999REMSYN066AAXX  04121 40829 32960 03306 10430 20074 39418 49934 57012 91150;EQDQ01  00002PRCP99
0189408290999992000080418004+31320+061480FM-12+0489OIZB V0203101N008012200019N0100001N1+03501+01631099551ADDAA199000091GA1001+999999999GF100991001001999999001001MA1999999094361MD1310191+9999REMSYN076AAXX  04181 40829 32960 03108 10350 20163 39436 49955 53019 91750 333 55102;EQDQ01  00002PRCP99
0207408290999992000080512004+31320+061480FM-12+0489OIZB V0203401N010012200019N0090001N1+04201+01361099761ADDAA199000091AY101061AY201061GA1001+999999999GF100991001001999999001001MA1999999094571MD1710111+9999MW1071REMSYN072AAXX  05121 40829 31959 03410 10420 20136 39457 49976 57011 70700 91150;EQDQ01  00002PRCP99
0217408290999992000080518004+31320+061480FM-12+0489OIZB V0203301N012012200019N0080001N1+03501+00631099811ADDAA199000091AY101061AY201061GA1001+999999999GF100991001001999999001001MA1999999094601MD1310051+9999MW1071REMSYN082AAXX  05181 40829 31958 03312 10350 20063 39460 49981 53005 70700 91750 333 55093;EQDQ01  00002PRCP99
0205408290999992000080600004+31320+061480FM-12+0489OIZB V0203301N015012200019N0040001N1+03141+00761999999ADDAA199000091AY101061AY201061GA1001+999999999GF100991001001999999001001MA1999999094521MD1810071+9999MW1071REMSYN070AAXX  06001 40829 31940 03315 10314 20076 39452 58007 70700 92350 333;EQDQ01  00002PRCP99
0229408290999992000080606004+31320+061480FM-12+0489OIZB V0203201N015012200019N0015001N1+99999+99999099971ADDAA124000091AY101061AY201061GA1001+999999999GF100991001001999999001001MA1999999094781MD1110121+9999MW1071REMSYN094AAXX  06061 40829 31915 03215 1/366 20106 39478 49997 51012 70700 90550 333 30028 52900 70000;EQDQ01  00002PRCP24
0199408290999992000080612004+31320+061480FM-12+0489OIZB V0203201N013012200019N0050001N1+99999+99999099691ADDAA199000091AY101061AY201061GA1001+999999999GF100991001001999999001001MA1999999094531MD1610111+9999MW1071REMSYN064AAXX  06121 40829 31950 03213 39453 49969 56011 70700 91150 333;EQDQ01  00002PRCP99
0229408290999992000080706004+31320+061480FM-12+0489OIZB V0203201N013012200019N0040001N1+03681+01221100051ADDAA124000091AY101061AY201061GA1001+999999999GF100991001001999999001001MA1999999094821MD1110111+9999MW1071REMSYN094AAXX  07061 40829 31940 03213 10368 20122 39482 40005 51011 70700 90550 333 30028 53120 70000;EQDQ01  00002PRCP24
0211408290999992000080712004+31320+061480FM-12+0489OIZB V0203201N009012200019N0080001N1+04261+01321099621ADDAA199000091AY101061AY201061GA1001+999999999GF100991001001999999001001MA1999999094441MD1710221+9999MW1071REMSYN076AAXX  07121 40829 31958 03209 10426 20132 39444 49962 57022 70700 91150 333;EQDQ01  00002PRCP99
0217408290999992000080718004+31320+061480FM-12+0489OIZB V0203201N009012200019N0080001N1+03501+01141099761ADDAA199000091AY101061AY201061GA1001+999999999GF100991001001999999001001MA1999999094581MD1310151+9999MW1071REMSYN082AAXX  07181 40829 31958 03209 10350 20114 39458 49976 53015 70700 91750 333 55115;EQDQ01  00002PRCP99
0239408290999992000080800004+31320+061480FM-12+0489OIZB V0203201N010012200019N0080001N1+99999+99999099821ADDAA199000091AY101061AY201061GA1001+999999999GF100991001001999999001001MA1999999094681MD1110081+9999MW1071REMSYN072AAXX  08001 40829 31958 03210 11312 20114 39468 49982 51008 70700 92350;EQDQ01-003123ATOT  Q02  00002PRCP99Q03 -03123ATOT  
0217408290999992000080818004+31320+061480FM-12+0489OIZB V0203201N011012200019N0070001N1+03581+01321099871ADDAA199000091AY101061AY201061GA1001+999999999GF100991001001999999001001MA1999999094641MD1110101+9999MW1071REMSYN082AAXX  08181 40829 31957 03211 10358 20132 39464 49987 51010 70700 91750 333 55095;EQDQ01  00002PRCP99
0207408290999992000080900004+31320+061480FM-12+0489OIZB V0203301N017012200019N0040001N1+03061+01501099841ADDAA199000091AY101061AY201061GA1001+999999999GF100991001001999999001001MA1999999094631MD1810081+9999MW1071REMSYN072AAXX  09001 40829 31940 03317 10306 20150 39463 49984 58008 70700 92350;EQDQ01  00002PRCP99
0229408290999992000080906004+31320+061480FM-12+0489OIZB V0203301N017012200019N0006001N1+03481+00991100091ADDAA124000091AY131061AY201061GA1001+999999999GF100991001001999999001001MA1999999094861MD1210161+9999MW1321REMSYN094AAXX  09061 40829 31906 03317 10348 20099 39486 40009 52016 73230 90550 333 30028 53050 70000;EQDQ01  00002PRCP24
0211408290999992000080912004+31320+061480FM-12+0489OIZB V0203301N015012200019N0030001N1+04061+01621099671ADDAA199000091AY101061AY201061GA1001+999999999GF100991001001999999001001MA1999999094461MD1710151+9999MW1071REMSYN076AAXX  09121 40829 31930 03315 10406 20162 39446 49967 57015 70700 91150 333;EQDQ01  00002PRCP99
0211408290999992000081000004+31320+061480FM-12+0489OIZB V0203401N015012200019N0040001N1+02941+00641099601ADDAA199000091AY101061AY201061GA1001+999999999GF100991001001999999001001MA1999999094401MD1710101+9999MW1071REMSYN076AAXX  10001 40829 31940 03415 10294 20064 39440 49960 57010 70700 92350 333;EQDQ01  00002PRCP99
0207408290999992000081012004+31320+061480FM-12+0489OIZB V0203201N013012200019N0040001N1+03901+00561099521ADDAA199000091AY101061AY201061GA1001+999999999GF100991001001999999001001MA1999999094311MD1610151+9999MW1071REMSYN072AAXX  10121 40829 31940 03213 10390 20056 39431 49952 56015 70700 91150;EQDQ01  00002PRCP99
0217408290999992000081018004+31320+061480FM-12+0489OIZB V0203201N017012200019N0020001N1+03241+00061099741ADDAA199000091AY101061AY201061GA1001+999999999GF100991001001999999001001MA1999999094491MD1210161+9999MW1071REMSYN082AAXX  10181 40829 31920 03217 10324 20006 39449 49974 52016 70700 91750 333 55040;EQDQ01  00002PRCP99
0207408290999992000081100004+31320+061480FM-12+0489OIZB V0203301N017012200019N0030001N1+02781+00531099741ADDAA199000091AY101061AY201061GA1001+999999999GF100991001001999999001001MA1999999094491MD1410001+9999MW1071REMSYN072AAXX  11001 40829 31930 03317 10278 20053 39449 49974 54000 70700 92350;EQDQ01  00002PRCP99
0229408290999992000081106004+31320+061480FM-12+0489OIZB V0203201N017012200019N9999999N1+03281+00831100001ADDAA124000091AY101061AY201061GA1001+999999999GF100991001001999999001001MA1999999094721MD1110111+9999MW1071REMSYN094AAXX  11061 40829 3191/ 03217 10328 20083 39472 40000 51011 70700 90550 333 30024 53380 70000;EQDQ01  00002PRCP24
0207408290999992000081112004+31320+061480FM-12+0489OIZB V0203301N011012200019N0070001N1+03961+01521099651ADDAA199000091AY101061AY201061GA1001+999999999GF100991001001999999001001MA1999999094411MD1710151+9999MW1071REMSYN072AAXX  11121 40829 31957 03311 10396 20152 39441 49965 57015 70700 91150;EQDQ01  00002PRCP99
0217408290999992000081118004+31320+061480FM-12+0489OIZB V0203201N014012200019N0060001N1+03281+00881099791ADDAA199000091AY101061AY201061GA1001+999999999GF100991001001999999001001MA1999999094541MD1110101+9999MW1071REMSYN082AAXX  11181 40829 31956 03214 10328 20088 39454 49979 51010 70700 91750 333 55062;EQDQ01  00002PRCP99
0243408290999992000081200004+31320+061480FM-12+0489OIZB V0203201N012012200019N0060001N1+02841+00821099791ADDAA199000091AY101061AY201061GA1001+999999999GF100991001001999999001001MA1999999999999MD1110041+9999MW1071REMSYN076AAXX  12001 40829 31956 03212 10284 20082 39956 49979 51004 70700 92350 333;EQDQ01+099563APOSP Q02  00002PRCP99Q03 099563APOSP 
0229408290999992000081206004+31320+061480FM-12+0489OIZB V0203401N016012200019N0010001N1+03401+00861100081ADDAA124000091AY101061AY201061GA1001+999999999GF100991001001999999001001MA1999999094831MD1110041+9999MW1071REMSYN094AAXX  12061 40829 31910 03416 10340 20086 39483 40008 51004 70700 90550 333 30026 53260 70000;EQDQ01  00002PRCP24
0211408290999992000081300004+31320+061480FM-12+0489OIZB V0203201N012012200019N0070001N1+02821+00321100151ADDAA199000091AY101061AY201061GA1001+999999999GF100991001001999999001001MA1999999094891MD1110051+9999MW1071REMSYN076AAXX  13001 40829 31957 03212 10282 20032 39489 40015 51005 70700 92350 333;EQDQ01  00002PRCP99
0245408290999992000081306004+31320+061480FM-12+0489OIZB V02099999999992200019N0080001N1+03401+00461100431ADDAA124000091AY101061AY201061GA1001+999999999GF100991001001999999001001MA1999999999999MD1110141+9999MW1071REMSYN094AAXX  13061 40829 31958 0///2 10340 20046 38514 40043 51014 70700 90550 333 30026 53430 70000;EQDQ01  00002PRCP24Q02 085143APOSP 
0189408290999992000081318004+31320+061480FM-12+0489OIZB V0203201N007012200019N0100001N1+03141+00841100201ADDAA199000091GA1001+999999999GF100991001001999999001001MA1999999094941MD1310071+9999REMSYN076AAXX  13181 40829 32960 03207 10314 20084 39494 40020 53007 91750 333 55114;EQDQ01  00002PRCP99
0207408290999992000081412004+31320+061480FM-12+0489OIZB V0203301N009012200019N0060001N1+04021+00661099881ADDAA199000091AY101061AY201061GA1001+999999999GF100991001001999999001001MA1999999094661MD1710231+9999MW1071REMSYN072AAXX  14121 40829 31956 03309 10402 20066 39466 49988 57023 70700 91150;EQDQ01  00002PRCP99
0189408290999992000081418004+31320+061480FM-12+0489OIZB V0203201N009012200019N0100001N1+03401+00461099951ADDAA199000091GA1001+999999999GF100991001001999999001001MA1999999094711MD1110051+9999REMSYN076AAXX  14181 40829 32960 03209 10340 20046 39471 49995 51005 91750 333 55114;EQDQ01  00002PRCP99
0183408290999992000081500004+31320+061480FM-12+0489OIZB V0203301N010012200019N0100001N1+03001+00391099951ADDAA199000091GA1001+999999999GF100991001001999999001001MA1999999094711MD1610061+9999REMSYN070AAXX  15001 40829 32960 03310 10300 20039 39471 49995 56006 92350 333;EQDQ01  00002PRCP99
0189408290999992000081518004+31320+061480FM-12+0489OIZB V0203201N007012200019N0100001N1+03141+00181099861ADDAA199000091GA1001+999999999GF100991001001999999001001MA1999999094651MD1210201+9999REMSYN076AAXX  15181 40829 32960 03207 10314 20018 39465 49986 52020 91750 333 55116;EQDQ01  00002PRCP99
0183408290999992000081612004+31320+061480FM-12+0489OIZB V0203101N011012200019N0100001N1+04121+00541099641ADDAA199000091GA1001+999999999GF100991001001999999001001MA1999999094441MD1710221+9999REMSYN070AAXX  16121 40829 32960 03111 10412 20054 39444 49964 57022 91150 333;EQDQ01  00002PRCP99
0217408290999992000081618004+31320+061480FM-12+0489OIZB V0203201N011012200019N0080001N1+03461+00501099841ADDAA199000091AY101061AY201061GA1001+999999999GF100991001001999999001001MA1999999094611MD1310151+9999MW1071REMSYN082AAXX  16181 40829 31958 03211 10346 20050 39461 49984 53015 70700 91750 333 55108;EQDQ01  00002PRCP99
0207408290999992000081712004+31320+061480FM-12+0489OIZB V0203201N016012200019N0020001N1+03961+01871099891ADDAA199000091AY131061AY201061GA1001+999999999GF100991001001999999001001MA1999999094661MD1710151+9999MW1071REMSYN072AAXX  17121 40829 31920 03216 10396 20187 39466 49989 57015 70730 91150;EQDQ01  00002PRCP99
0217408290999992000081718004+31320+061480FM-12+0489OIZB V0203401N013012200019N0070001N1+03321+00941100061ADDAA199000091AY101061AY201061GA1001+999999999GF100991001001999999001001MA1999999094801MD1310141+9999MW1071REMSYN082AAXX  17181 40829 31957 03413 10332 20094 39480 40006 53014 70700 91750 333 55044;EQDQ01  00002PRCP99
0207408290999992000081800004+31320+061480FM-12+0489OIZB V0203201N015012200019N0040001N1+02781+01061099991ADDAA199000091AY101061AY201061GA1001+999999999GF100991001001999999001001MA1999999094761MD1110031+9999MW1071REMSYN072AAXX  18001 40829 31940 03215 10278 20106 39476 49999 51003 70700 92350;EQDQ01  00002PRCP99
0229408290999992000081806004+31320+061480FM-12+0489OIZB V0203201N025012200019N0005001N1+03041+00761100261ADDAA124000091AY131061AY231061GA1001+999999999GF100991001001999999001001MA1999999094971MD1810111+9999MW1321REMSYN094AAXX  18061 40829 31905 03225 10304 20076 39497 40026 58011 73233 90550 333 30024 52340 70000;EQDQ01  00002PRCP24
0217408290999992000081818004+31320+061480FM-12+0489OIZB V0203201N012012200019N0050001N1+03061+00661100171ADDAA199000091AY101061AY201061GA1001+999999999GF100991001001999999001001MA1999999094841MD1210141+9999MW1071REMSYN082AAXX  18181 40829 31950 03212 10306 20066 39484 40017 52014 70700 91750 333 55060;EQDQ01  00002PRCP99
0211408290999992000081900004+31320+061480FM-12+0489OIZB V0203201N017012200019N0030001N1+02701+00781100031ADDAA199000091AY101061AY201061GA1001+999999999GF100991001001999999001001MA1999999094761MD1610031+9999MW1071REMSYN076AAXX  19001 40829 31930 03217 10270 20078 39476 40003 56003 70700 92350 333;EQDQ01  00002PRCP99
0229408290999992000081906004+31320+061480FM-12+0489OIZB V0203401N015012200019N0030001N1+03241+00871100421ADDAA124000091AY131061AY201061GA1001+999999999GF100991001001999999001001MA1999999095101MD1110051+9999MW1071REMSYN094AAXX  19061 40829 31930 03415 10324 20087 39510 40042 51005 70730 90550 333 30025 53430 70000;EQDQ01  00002PRCP24
0211408290999992000081912004+31320+061480FM-12+0489OIZB V0203201N010012200019N0070001N1+03801+01081100041ADDAA199000091AY101061AY201061GA1001+999999999GF100991001001999999001001MA1999999094771MD1710171+9999MW1071REMSYN076AAXX  19121 40829 31957 03210 10380 20108 39477 40004 57017 70700 91150 333;EQDQ01  00002PRCP99
0217408290999992000081918004+31320+061480FM-12+0489OIZB V0203201N013012200019N0060001N1+03141+00791100191ADDAA199000091AY101061AY201061GA1001+999999999GF100991001001999999001001MA1999999094911MD1110091+9999MW1071REMSYN082AAXX  19181 40829 31956 03213 10314 20079 39491 40019 51009 70700 91750 333 55110;EQDQ01  00002PRCP99
0211408290999992000082000004+31320+061480FM-12+0489OIZB V0203201N012012200019N0060001N1+02701+00641100271ADDAA199000091AY101061AY201061GA1001+999999999GF100991001001999999001001MA1999999095001MD1110051+9999MW1071REMSYN076AAXX  20001 40829 31956 03212 10270 20064 39500 40027 51005 70700 92350 333;EQDQ01  00002PRCP99
0183408290999992000082012004+31320+061480FM-12+0489OIZB V0203301N009012200019N0100001N1+03841+00901100191ADDAA199000091GA1001+999999999GF100991001001999999001001MA1999999094931MD1710151+9999REMSYN070AAXX  20121 40829 32960 03309 10384 20090 39493 40019 57015 91150 333;EQDQ01  00002PRCP99
0217408290999992000082018004+31320+061480FM-12+0489OIZB V0203301N014012200019N0060001N1+03141+00081100321ADDAA199000091AY101061AY201061GA1001+999999999GF100991001001999999001001MA1999999095011MD1310041+9999MW1071REMSYN082AAXX  20181 40829 31956 03314 10314 20008 39501 40032 53004 70700 91750 333 55108;EQDQ01  00002PRCP99
0211408290999992000082200004+31320+061480FM-12+0489OIZB V0203201N013012200019N0070001N1+02841+00461099871ADDAA199000091AY101061AY201061GA1001+999999999GF100991001001999999001001MA1999999094651MD1710081+9999MW1071REMSYN076AAXX  22001 40829 31957 03213 10284 20046 39465 49987 57008 70700 92350 333;EQDQ01  00002PRCP99
0229408290999992000082206004+31320+061480FM-12+0489OIZB V0203201N016012200019N0015001N1+03441+00901100141ADDAA124000091AY131061AY201061GA1001+999999999GF100991001001999999001001MA1999999094881MD1310191+9999MW1071REMSYN094AAXX  22061 40829 31915 03216 10344 20090 39488 40014 53019 70730 90550 333 30025 53170 70000;EQDQ01  00002PRCP24
0211408290999992000082312004+31320+061480FM-12+0489OIZB V0203301N013012200019N0070001N1+03941+01311100081ADDAA199000091AY101061AY201061GA1001+999999999GF100991001001999999001001MA1999999094821MD1710151+9999MW1071REMSYN076AAXX  23121 40829 31957 03313 10394 20131 39482 40008 57015 70700 91150 333;EQDQ01  00002PRCP99
0217408290999992000082318004+31320+061480FM-12+0489OIZB V0203201N012012200019N0060001N1+03201+00951100211ADDAA199000091AY101061AY201061GA1001+999999999GF100991001001999999001001MA1999999094961MD1210131+9999MW1071REMSYN082AAXX  23181 40829 31956 03212 10320 20095 39496 40021 52013 70700 91750 333 55098;EQDQ01  00002PRCP99
0229408290999992000082406004+31320+061480FM-12+0489OIZB V0203201N015012200019N0010001N1+03281+01701100141ADDAA124000091AY101061AY201061GA1001+999999999GF100991001001999999001001MA1999999094861MD1410001+9999MW1071REMSYN094AAXX  24061 40829 31910 03215 10328 20170 39486 40014 54000 70700 90550 333 30026 53430 70000;EQDQ01  00002PRCP24
0189408290999992000082418004+31320+061480FM-12+0489OIZB V0203201N008012200019N0100001N1+03181+01201099921ADDAA199000091GA1001+999999999GF100991001001999999001001MA1999999094661MD1410001+9999REMSYN076AAXX  24181 40829 32960 03208 10318 20120 39466 49992 54000 91750 333 55096;EQDQ01  00002PRCP99
0179408290999992000082500004+31320+061480FM-12+0489OIZB V0203201N005012200019N0100001N1+02741+00261099921ADDAA199000091GA1001+999999999GF100991001001999999001001MA1999999094681MD1410001+9999REMSYN066AAXX  25001 40829 32960 03205 10274 20026 39468 49992 54000 92350;EQDQ01  00002PRCP99
0229408290999992000082506004+31320+061480FM-12+0489OIZB V0203201N012012200019N0015001N1+03381+00351100261ADDAA124000091AY101061AY201061GA1001+999999999GF100991001001999999001001MA1999999094981MD1210161+9999MW1071REMSYN094AAXX  25061 40829 31915 03212 10338 20035 39498 40026 52016 70700 90550 333 30023 53260 70000;EQDQ01  00002PRCP24
0211408290999992000082512004+31320+061480FM-12+0489OIZB V0203201N007012200019N0070001N1+03901+00661099921ADDAA199000091AY101061AY201061GA1001+999999999GF100991001001999999001001MA1999999094681MD1710151+9999MW1071REMSYN076AAXX  25121 40829 31957 03207 10390 20066 39468 49992 57015 70700 91150 333;EQDQ01  00002PRCP99
0189408290999992000082518004+31320+061480FM-12+0489OIZB V0203001N005012200019N0100001N1+02801+00551100161ADDAA199000091GA1001+999999999GF100991001001999999001001MA1999999094841MD1210091+9999REMSYN076AAXX  25181 40829 32960 03005 10280 20055 39484 40016 52009 91750 333 55110;EQDQ01  00002PRCP99
0183408290999992000082600004+31320+061480FM-12+0489OIZB V0202901N006012200019N0100001N1+02501-00441100661ADDAA199000091GA1001+999999999GF100991001001999999001001MA1999999094801MD1610051+9999REMSYN070AAXX  26001 40829 32960 02906 10250 21044 39480 40066 56005 92350 333;EQDQ01  00002PRCP99
0183408290999992000082612004+31320+061480FM-12+0489OIZB V0203401N004012200019N0100001N1+04181+01081099931ADDAA199000091GA1001+999999999GF100991001001999999001001MA1999999094701MD1710161+9999REMSYN070AAXX  26121 40829 32960 03404 10418 20108 39470 49993 57016 91150 333;EQDQ01  00002PRCP99
0189408290999992000082618004+31320+061480FM-12+0489OIZB V0203201N005012200019N0100001N1+03001+00721100091ADDAA199000091GA1001+999999999GF100991001001999999001001MA1999999094821MD1210141+9999REMSYN076AAXX  26181 40829 32960 03205 10300 20072 39482 40009 52014 91750 333 55108;EQDQ01  00002PRCP99
0229408290999992000082706004+31320+061480FM-12+0489OIZB V0203201N015012200019N0020001N1+03481+01661100311ADDAA124000091AY101061AY201061GA1001+999999999GF100991001001999999001001MA1999999095001MD1210101+9999MW1071REMSYN094AAXX  27061 40829 31920 03215 10348 20166 39500 40031 52010 70700 90550 333 30025 52640 70000;EQDQ01  00002PRCP24
0179408290999992000082712004+31320+061480FM-12+0489OIZB V0203201N010012200019N0100001N1+04161+02151099831ADDAA199000091GA1001+999999999GF100991001001999999001001MA1999999094591MD1710121+9999REMSYN066AAXX  27121 40829 32960 03210 10416 20215 39459 49983 57012 91150;EQDQ01  00002PRCP99
0189408290999992000082718004+31320+061480FM-12+0489OIZB V0202801N004012200019N0100001N1+03141+01261099831ADDAA199000091GA1001+999999999GF100991001001999999001001MA1999999094591MD1110021+9999REMSYN076AAXX  27181 40829 32960 02804 10314 20126 39459 49983 51002 91750 333 55097;EQDQ01  00002PRCP99
0183408290999992000082800004+31320+061480FM-12+0489OIZB V0203201N005012200019N0100001N1+02841+00601099771ADDAA199000091GA1001+999999999GF100991001001999999001001MA1999999094561MD1610031+9999REMSYN070AAXX  28001 40829 32960 03205 10284 20060 39456 49977 56003 92350 333;EQDQ01  00002PRCP99
0223408290999992000082806004+31320+061480FM-12+0489OIZB V0203201N012012200019N0100001N1+03701+01181099901ADDAA124000091AY101061AY201061GA1001+999999999GF100991001001999999001001MA1999999094681MD1310051+9999MW1071REMSYN088AAXX  28061 40829 31960 03212 10370 20118 39468 49990 53005 70700 90550 333 30025 70000;EQDQ01  00002PRCP24
0195408290999992000082812004+31320+061480FM-12+0489OIZB V0203201N008012200019N0100001N1+04201+01261099531ADDAA199000091GA1011+030009079GF101991011001012501031001MA1999999094341MD1710181+9999REMSYN082AAXX  28121 40829 32660 13208 10420 20126 39434 49953 57018 81030 91150 333 81360;EQDQ01  00002PRCP99
0183408290999992000082900004+31320+061480FM-12+0489OIZB V0209999C000012200019N0100001N1+02681+00901099641ADDAA199000091GA1001+999999999GF100991001001999999001001MA1999999094411MD1610031+9999REMSYN070AAXX  29001 40829 32960 00000 10268 20090 39441 49964 56003 92350 333;EQDQ01  00002PRCP99
0201408290999992000082906004+31320+061480FM-12+0489OIZB V0203301N008012200019N0100001N1+03751+00961099701ADDAA124000091GA1001+999999999GF100991001001999999001001MA1999999094491MD1410001+9999REMSYN088AAXX  29061 40829 32960 03308 10375 20096 39449 49970 54000 90550 333 30022 52020 70000;EQDQ01  00002PRCP24
0183408290999992000082912004+31320+061480FM-12+0489OIZB V0203301N008012200019N0100001N1+04141+00941099341ADDAA199000091GA1001+999999999GF100991001001999999001001MA1999999094151MD1710221+9999REMSYN070AAXX  29121 40829 32960 03308 10414 20094 39415 49934 57022 91150 333;EQDQ01  00002PRCP99
0189408290999992000082918004+31320+061480FM-12+0489OIZB V0203201N007012200019N0100001N1+03401+01231099481ADDAA199000091GA1001+999999999GF100991001001999999001001MA1999999094231MD1310131+9999REMSYN076AAXX  29181 40829 32960 03207 10340 20123 39423 49948 53013 91750 333 55108;EQDQ01  00002PRCP99
0183408290999992000083000004+31320+061480FM-12+0489OIZB V0203201N007012200019N0100001N1+02921+01181099521ADDAA199000091GA1001+999999999GF100991001001999999001001MA1999999094231MD1510081+9999REMSYN070AAXX  30001 40829 32960 03207 10292 20118 39423 49952 55008 92350 333;EQDQ01  00002PRCP99
0229408290999992000083006004+31320+061480FM-12+0489OIZB V0203101N012012200019N0050001N1+03701+01311099531ADDAA124000091AY101061AY201061GA1001+999999999GF100991001001999999001001MA1999999094331MD1310031+9999MW1071REMSYN094AAXX  30061 40829 31950 03112 10370 20131 39433 49953 53003 70700 90550 333 30028 52640 70000;EQDQ01  00002PRCP24
0189408290999992000083018004+31320+061480FM-12+0489OIZB V0203201N012012200019N0100001N1+03541+00911099261ADDAA199000091GA1001+999999999GF100991001001999999001001MA1999999094101MD1110011+9999REMSYN076AAXX  30181 40829 32960 03212 10354 20091 39410 49926 51001 91750 333 55104;EQDQ01  00002PRCP99
0183408290999992000083100004+31320+061480FM-12+0489OIZB V0203301N008012200019N0100001N1+03101+00941099261ADDAA199000091GA1001+999999999GF100991001001999999001001MA1999999094071MD1410001+9999REMSYN070AAXX  31001 40829 32960 03308 10310 20094 39407 49926 54000 92350 333;EQDQ01  00002PRCP99
0229408290999992000083106004+31320+061480FM-12+0489OIZB V0203201N012012200019N0050001N1+03741+00641099471ADDAA124000091AY101061AY201061GA1001+999999999GF100991001001999999001001MA1999999094311MD1310111+9999MW1071REMSYN094AAXX  31061 40829 31950 03212 10374 20064 39431 49947 53011 70700 90550 333 30027 52820 70000;EQDQ01  00002PRCP24
0207408290999992000083112004+31320+061480FM-12+0489OIZB V0203101N010012200019N0150001N1+04101+01111099191ADDAA199000091AY101061AY201061GA1001+999999999GF100991001001999999001001MA1999999094041MD1710161+9999MW1071REMSYN072AAXX  31121 40829 31965 03110 10410 20111 39404 49919 57016 70700 91150;EQDQ01  00002PRCP99
0189408290999992000083118004+31320+061480FM-12+0489OIZB V0203101N007012200019N0100001N1+03401+00861099271ADDAA199000091GA1001+999999999GF100991001001999999001001MA1999999094091MD1110081+9999REMSYN076AAXX  31181 40829 32960 03107 10340 20086 39409 49927 51008 91750 333 55110;EQDQ01  00002PRCP99
0199408290999992000090100004+31320+061480FM-12+0489OIZB V0203201N007012200019N0100001N1+03101+00801099201ADDAA199000091GA1001+999999999GF100991001001999999001001MA1999999094922MD1810061+9999REMSYN070AAXX  01001 40829 32960 03207 10310 20080 39492 49920 58006 92350 333;EQDQ01+094923APOSP Q02  00002PRCP99
0229408290999992000090106004+31320+061480FM-12+0489OIZB V0203401N011012200019N0050001N1+03761+01001099431ADDAA124000091AY101061AY201061GA1001+999999999GF100991001001999999001001MA1999999094261MD1310101+9999MW1071REMSYN094AAXX  01061 40829 31950 03411 10376 20100 39426 49943 53010 70700 90550 333 30029 52820 70000;EQDQ01  00002PRCP24
0183408290999992000090112004+31320+061480FM-12+0489OIZB V0203101N007012200019N0100001N1+04201+00671099131ADDAA199000091GA1001+999999999GF100991001001999999001001MA1999999093991MD1710151+9999REMSYN070AAXX  01121 40829 32960 03107 10420 20067 39399 49913 57015 91150 333;EQDQ01  00002PRCP99
0189408290999992000090118004+31320+061480FM-12+0489OIZB V0203201N003012200019N0100001N1+03041+00451099241ADDAA199000091GA1001+999999999GF100991001001999999001001MA1999999094121MD1310151+9999REMSYN076AAXX  01181 40829 32960 03203 10304 20045 39412 49924 53015 91750 333 55102;EQDQ01  00002PRCP99
0179408290999992000090200004+31320+061480FM-12+0489OIZB V0203201N007012200019N0100001N1+02701+00741099321ADDAA199000091GA1001+999999999GF100991001001999999001001MA1999999094881MD1310081+9999REMSYN066AAXX  02001 40829 32960 03207 10270 20074 39488 49932 53008 92350;EQDQ01  00002PRCP99
0229408290999992000090206004+31320+061480FM-12+0489OIZB V0203201N012012200019N0070001N1+03581+00691099731ADDAA124000091AY101061AY201061GA1001+999999999GF100991001001999999001001MA1999999094481MD1310051+9999MW1071REMSYN094AAXX  02061 40829 31957 03212 10358 20069 39448 49973 53005 70700 90550 333 30024 52390 70000;EQDQ01  00002PRCP24
0179408290999992000090212004+31320+061480FM-12+0489OIZB V0203401N012012200019N0100001N1+04061+00721099981ADDAA199000091GA1001+999999999GF100991001001999999001001MA1999999094261MD1710181+9999REMSYN066AAXX  02121 40829 32960 03412 10406 20072 39426 49998 57018 91150;EQDQ01  00002PRCP99
0189408290999992000090218004+31320+061480FM-12+0489OIZB V0203301N010012200019N0100001N1+03241+00541099691ADDAA199000091GA1001+999999999GF100991001001999999001001MA1999999094481MD1310171+9999REMSYN076AAXX  02181 40829 32960 03310 10324 20054 39448 49969 53017 91750 333 55097;EQDQ01  00002PRCP99
0207408290999992000090300004+31320+061480FM-12+0489OIZB V0203401N013012200019N0070001N1+02841+00461099731ADDAA199000091AY101061AY201061GA1001+999999999GF100991001001999999001001MA1999999094511MD1410001+9999MW1071REMSYN072AAXX  03001 40829 31957 03413 10284 20046 39451 49973 54000 70700 92350;EQDQ01  00002PRCP99
0229408290999992000090306004+31320+061480FM-12+0489OIZB V0203201N012012200019N0060001N1+03401+00171100091ADDAA124000091AY101061AY201061GA1001+999999999GF100991001001999999001001MA1999999094831MD1210151+9999MW1071REMSYN094AAXX  03061 40829 31956 03212 10340 20017 39483 40009 52015 70700 90250 333 30023 52640 70000;EQDQ01  00002PRCP24
0207408290999992000090312004+31320+061480FM-12+0489OIZB V0203201N009012200019N0060001N1+04081+00581099781ADDAA199000091AY101061AY201061GA1001+999999999GF100991001001999999001001MA1999999094571MD1610111+9999MW1071REMSYN072AAXX  03121 40829 31956 03209 10408 20058 39457 49978 56011 70700 91150;EQDQ01  00002PRCP99
0189408290999992000090318004+31320+061480FM-12+0489OIZB V0203101N010012200019N0100001N1+03081+00451100051ADDAA199000091GA1001+999999999GF100991001001999999001001MA1999999094761MD1210181+9999REMSYN076AAXX  03181 40829 32960 03110 10308 20045 39476 40005 52018 91750 333 55102;EQDQ01  00002PRCP99
0211408290999992000090400004+31320+061480FM-12+0489OIZB V0203401N012012200019N0080001N1+02841+00461099981ADDAA199000091AY101061AY201061GA1001+999999999GF100991001001999999001001MA1999999094691MD1310041+9999MW1071REMSYN076AAXX  04001 40829 31958 03412 10284 20046 39469 49998 53004 70700 92350 333;EQDQ01  00002PRCP99
0229408290999992000090406004+31320+061480FM-12+0489OIZB V0203301N011012200019N0012001N1+03341+00221100331ADDAA124000091AY101061AY201061GA1001+999999999GF100991001001999999001001MA1999999095301MD1310131+9999MW1071REMSYN094AAXX  04061 40829 31912 03311 10334 20022 39530 40033 53013 70700 90550 333 30025 53170 70000;EQDQ01  00002PRCP24
0217408290999992000090418004+31320+061480FM-12+0489OIZB V0203201N010012200019N0080001N1+03201+00021099971ADDAA199000091AY101061AY201061GA1001+999999999GF100991001001999999001001MA1999999094741MD1310061+9999MW1071REMSYN082AAXX  04181 40829 31958 03210 10320 20002 39474 49997 53006 70700 91750 333 55102;EQDQ01  00002PRCP99
0207408290999992000090500004+31320+061480FM-12+0489OIZB V0203201N010012200019N0080001N1+02541+00421099891ADDAA199000091AY101061AY201061GA1001+999999999GF100991001001999999001001MA1999999094681MD1610021+9999MW1071REMSYN072AAXX  05001 40829 31958 03210 10254 20042 39468 49989 56002 70700 92350;EQDQ01  00002PRCP99
0229408290999992000090506004+31320+061480FM-12+0489OIZB V0203301N013012200019N0030001N1+03501+00631100211ADDAA124000091AY101061AY201061GA1001+999999999GF100991001001999999001001MA1999999094941MD1210101+9999MW1071REMSYN094AAXX  05061 40829 31930 03313 10350 20063 39494 40021 52010 70700 90550 333 30027 53170 70000;EQDQ01  00002PRCP24
0207408290999992000090512004+31320+061480FM-12+0489OIZB V0203401N012012200019N0080001N1+04081+00801099851ADDAA199000091AY101061AY201061GA1001+999999999GF100991001001999999001001MA1999999094621MD1710131+9999MW1071REMSYN072AAXX  05121 40829 31958 03412 10408 20080 39462 49985 57013 70700 91150;EQDQ01  00002PRCP99
0189408290999992000090518004+31320+061480FM-12+0489OIZB V0203201N011012200019N0100001N1+03281+00821099941ADDAA199000091GA1001+999999999GF100991001001999999001001MA1999999094701MD1310091+9999REMSYN076AAXX  05181 40829 32960 03211 10328 20082 39470 49994 53009 91750 333 55094;EQDQ01  00002PRCP99
0207408290999992000090600004+31320+061480FM-12+0489OIZB V0203301N012012200019N0060001N1+02981+00581099981ADDAA199000091AY101061AY201061GA1001+999999999GF100991001001999999001001MA1999999094751MD1610051+9999MW1071REMSYN072AAXX  06001 40829 31956 03312 10298 20058 39475 49998 56005 70700 92350;EQDQ01  00002PRCP99
0189408290999992000090618004+31320+061480FM-12+0489OIZB V0203101N010012200019N0100001N1+03301+00841099981ADDAA199000091GA1001+999999999GF100991001001999999001001MA1999999094731MD1210191+9999REMSYN076AAXX  06181 40829 32960 03110 10330 20084 39473 49998 52019 91750 333 55100;EQDQ01  00002PRCP99
0183408290999992000090700004+31320+061480FM-12+0489OIZB V0202701N004012200019N0100001N1+02981+00581099921ADDAA199000091GA1001+999999999GF100991001001999999001001MA1999999094681MD1610051+9999REMSYN070AAXX  07001 40829 32960 02704 10298 20058 39468 49992 56005 92350 333;EQDQ01  00002PRCP99
0229408290999992000090706004+31320+061480FM-12+0489OIZB V0203301N015012200019N0040001N1+03501+00541100161ADDAA124000091AY101061AY201061GA1001+999999999GF100991001001999999001001MA1999999094911MD1110081+9999MW1071REMSYN094AAXX  07061 40829 31940 03315 10350 20054 39491 40016 51008 70700 90550 333 30024 52990 70000;EQDQ01  00002PRCP24
0179408290999992000090718004+31320+061480FM-12+0489OIZB V0203201N007012200019N0100001N1+03081+00211100121ADDAA199000091GA1001+999999999GF100991001001999999001001MA1999999094861MD1310151+9999REMSYN066AAXX  07181 40829 32960 03207 10308 20021 39486 40012 53015 91750;EQDQ01  00002PRCP99
0207408290999992000090800004+31320+061480FM-12+0489OIZB V0203201N009012200019N0080001N1+02741+00341100161ADDAA199000091AY101061AY201061GA1001+999999999GF100991001001999999001001MA1999999094901MD1110041+9999MW1071REMSYN072AAXX  08001 40829 31958 03209 10274 20034 39490 40016 51004 70700 92350;EQDQ01  00002PRCP99
0208408290999992000090806004+31320+061480FM-12+0489OIZB V0203301N017012200019N0030001N1+03421+00561100391ADDAA124000091AY101061AY201061GA1001+999999999GF100991001001999999001001MD1210111+9999MW1071REMSYN088AAXX  08061 40829 31930 03317 10342 20056 40039 52011 70700 90550 333 30025 53430 70000;EQDQ01  00002PRCP24
0207408290999992000090812004+31320+061480FM-12+0489OIZB V0203301N015012200019N0050001N1+03861+01081100161ADDAA199000091AY101061AY201061GA1001+999999999GF100991001001999999001001MA1999999094881MD1610061+9999MW1071REMSYN072AAXX  08121 40829 31950 03315 10386 20108 39488 40016 56006 70700 91150;EQDQ01  00002PRCP99
0189408290999992000090818004+31320+061480FM-12+0489OIZB V0203301N009012200019N0100001N1+03201+00881100251ADDAA199000091GA1001+999999999GF100991001001999999001001MA1999999094981MD1110021+9999REMSYN076AAXX  08181 40829 32960 03309 10320 20088 39498 40025 51002 91750 333 55108;EQDQ01  00002PRCP99
0207408290999992000090900004+31320+061480FM-12+0489OIZB V0203301N014012200019N0060001N1+02781+00661100171ADDAA199000091AY101061AY201061GA1001+999999999GF100991001001999999001001MA1999999094901MD1810111+9999MW1071REMSYN072AAXX  09001 40829 31956 03314 10278 20066 39490 40017 58011 70700 92350;EQDQ01  00002PRCP99
0229408290999992000090906004+31320+061480FM-12+0489OIZB V0203201N016012200019N0008001N1+03301+00971100461ADDAA124000091AY131061AY201061GA1001+999999999GF100991001001999999001001MA1999999095181MD1110101+9999MW1311REMSYN094AAXX  09061 40829 31908 03216 10330 20097 39518 40046 51010 73130 90550 333 30025 53080 70000;EQDQ01  00002PRCP24
0207408290999992000090912004+31320+061480FM-12+0489OIZB V0203201N014012200019N0030001N1+03701+01311100221ADDAA199000091AY101061AY201061GA1001+999999999GF100991001001999999001001MA1999999094941MD1610111+9999MW1071REMSYN072AAXX  09121 40829 31930 03214 10370 20131 39494 40022 56011 70700 91150;EQDQ01  00002PRCP99
0211408290999992000091000004+31320+061480FM-12+0489OIZB V0203301N015012200019N0060001N1+02781+00671100181ADDAA199000091AY101061AY201061GA1001+999999999GF100991001001999999001001MA1999999094901MD1810121+9999MW1071REMSYN076AAXX  10001 40829 31956 03315 10278 20067 39490 40018 58012 70700 92350 333;EQDQ01  00002PRCP99
0229408290999992000091006004+31320+061480FM-12+0489OIZB V0203401N018012200019N0015001N1+03161+00961100431ADDAA124000091AY131061AY201061GA1001+999999999GF100991001001999999001001MA1999999095151MD1310161+9999MW1071REMSYN094AAXX  10061 40829 31915 03418 10316 20096 39515 40043 53016 70730 90550 333 30025 53430 70000;EQDQ01  00002PRCP24
0179408290999992000091012004+31320+061480FM-12+0489OIZB V0203301N008012200019N0100001N1+03761+00201100021ADDAA199000091GA1001+999999999GF100991001001999999001001MA1999999094761MD1710211+9999REMSYN066AAXX  10121 40829 32960 03308 10376 20020 39476 40002 57021 91150;EQDQ01  00002PRCP99
0189408290999992000091018004+31320+061480FM-12+0489OIZB V0203201N008012200019N0100001N1+02841-00041100121ADDAA199000091GA1001+999999999GF100991001001999999001001MA1999999094861MD1210101+9999REMSYN076AAXX  10181 40829 32960 03208 10284 21004 39486 40012 52010 91750 333 55090;EQDQ01  00002PRCP99
0229408290999992000091106004+31320+061480FM-12+0489OIZB V0203301N010012200019N0060001N1+03221+00711100361ADDAA124000091AY101061AY201061GA1001+999999999GF100991001001999999001001MA1999999095011MD1210121+9999MW1071REMSYN094AAXX  11061 40829 31956 03310 10322 20071 39501 40036 52012 70700 90550 333 30021 52720 70000;EQDQ01  00002PRCP24
0217408290999992000091118004+31320+061480FM-12+0489OIZB V0203201N013012200019N0080001N1+03141+00701100201ADDAA199000091AY101061AY201061GA1001+999999999GF100991001001999999001001MA1999999094911MD1310111+9999MW1071REMSYN082AAXX  11181 40829 31958 03213 10314 20070 39491 40020 53011 70700 91750 333 55103;EQDQ01  00002PRCP99
0207408290999992000091200004+31320+061480FM-12+0489OIZB V0203301N012012200019N0080001N1+02541+00801100191ADDAA199000091AY101061AY201061GA1001+999999999GF100991001001999999001001MA1999999094901MD1110031+9999MW1071REMSYN072AAXX  12001 40829 31958 03312 10254 20080 39490 40019 51003 70700 92350;EQDQ01  00002PRCP99
0229408290999992000091206004+31320+061480FM-12+0489OIZB V0203201N018012200019N0015001N1+02861+01201100511ADDAA124000091AY131061AY201061GA1001+999999999GF100991001001999999001001MA1999999095191MD1210141+9999MW1071REMSYN094AAXX  12061 40829 31915 03218 10286 20120 39519 40051 52014 70730 90550 333 3002/ 53170 70000;EQDQ01  00002PRCP24
0211408290999992000091212004+31320+061480FM-12+0489OIZB V0203201N010012200019N0060001N1+03641+01221100181ADDAA199000091AY101061AY201061GA1001+999999999GF100991001001999999001001MA1999999094881MD1610131+9999MW1071REMSYN076AAXX  12121 40829 31956 03210 10364 20122 39488 40018 56013 70700 91150 333;EQDQ01  00002PRCP99
0189408290999992000091218004+31320+061480FM-12+0489OIZB V0203201N005012200019N0100001N1+02721+01241100421ADDAA199000091GA1001+999999999GF100991001001999999001001MA1999999095111MD1210161+9999REMSYN076AAXX  12181 40829 32960 03205 10272 20124 39511 40042 52016 91750 333 55084;EQDQ01  00002PRCP99
0183408290999992000091300004+31320+061480FM-12+0489OIZB V0203201N008012200019N0100001N1+02501+01321100321ADDAA199000091GA1001+999999999GF100991001001999999001001MA1999999095041MD1710111+9999REMSYN070AAXX  13001 40829 32960 03208 10250 20132 39504 40032 57011 92350 333;EQDQ01  00002PRCP99
0213408290999992000091306004+31320+061480FM-12+0489OIZB V0203301N008012200019N0100001N1+03221+01021100711ADDAA124000091GA1011+030009079GF101991011001999999031001MA1999999095351MD1310211+9999REMSYN100AAXX  13061 40829 32960 13308 10322 20102 39535 40071 53021 81030 90550 333 30023 51760 70000 81360;EQDQ01  00002PRCP24
0183408290999992000091312004+31320+061480FM-12+0489OIZB V0203201N003012200019N0100001N1+03841+00521100311ADDAA199000091GA1001+999999999GF100991001001999999001001MA1999999095011MD1710171+9999REMSYN070AAXX  13121 40829 32960 03203 10384 20052 39501 40031 57017 91150 333;EQDQ01  00002PRCP99
0189408290999992000091318004+31320+061480FM-12+0489OIZB V0209999C000012200019N0100001N1+02601+01141100581ADDAA199000091GA1001+999999999GF100991001001999999001001MA1999999095231MD1210241+9999REMSYN076AAXX  13181 40829 32960 00000 10260 20114 39523 40058 52024 91750 333 55092;EQDQ01  00002PRCP99
0229408290999992000091506004+31320+061480FM-12+0489OIZB V0203201N015012200019N0020001N1+03381+02101100541ADDAA124000091AY101061AY201061GA1001+999999999GF100991001001999999001001MA1999999095251MD1310121+9999MW1071REMSYN094AAXX  15061 40829 31920 03215 10338 20210 39525 40054 53012 70700 90550 333 30023 52640 70000;EQDQ01  00002PRCP24
0183408290999992000091600004+31320+061480FM-12+0489OIZB V0203101N008012200019N0100001N1+02761+00891100291ADDAA199000091GA1001+999999999GF100991001001999999001001MA1999999094991MD1410001+9999REMSYN070AAXX  16001 40829 32960 03108 10276 20089 39499 40029 54000 92350 333;EQDQ01  00002PRCP99
0183408290999992000091612004+31320+061480FM-12+0489OIZB V0203401N004012200019N0100001N1+03961+00481100141ADDAA199000091GA1001+999999999GF100991001001999999001001MA1999999094891MD1710181+9999REMSYN070AAXX  16121 40829 32960 03404 10396 20048 39489 40014 57018 91150 333;EQDQ01  00002PRCP99
0183408290999992000091700004+31320+061480FM-12+0489OIZB V0203201N004012200019N0100001N1+02341+00821100321ADDAA199000091GA1001+999999999GF100991001001999999001001MA1999999095091MD1410001+9999REMSYN070AAXX  17001 40829 32960 03204 10234 20082 39509 40032 54000 92350 333;EQDQ01  00002PRCP99
0229408290999992000091706004+31320+061480FM-12+0489OIZB V0203201N010012200019N0060001N1+03441+00831100631ADDAA124000091AY101061AY201061GA1001+999999999GF100991001001999999001001MA1999999095291MD1110031+9999MW1071REMSYN094AAXX  17061 40829 31956 03210 10344 20083 39529 40063 51003 70700 90550 333 30019 52290 70000;EQDQ01  00002PRCP24
0189408290999992000091718004+31320+061480FM-12+0489OIZB V0203201N005012200019N0100001N1+02941+00741100351ADDAA199000091GA1001+999999999GF100991001001999999001001MA1999999095051MD1310071+9999REMSYN076AAXX  17181 40829 32960 03205 10294 20074 39505 40035 53007 91750 333 55096;EQDQ01  00002PRCP99
0183408290999992000091800004+31320+061480FM-12+0489OIZB V0209999C000012200019N0100001N1+02461+00741100381ADDAA199000091GA1001+999999999GF100991001001999999001001MA1999999095101MD1410001+9999REMSYN070AAXX  18001 40829 32960 00000 10246 20074 39510 40038 54000 92350 333;EQDQ01  00002PRCP99
0183408290999992000091812004+31320+061480FM-12+0489OIZB V0203301N006012200019N0100001N1+04041+01661100011ADDAA199000091GA1001+999999999GF100991001001999999001001MA1999999094721MD1810151+9999REMSYN070AAXX  18121 40829 32960 03306 10404 20166 39472 40001 58015 91150 333;EQDQ01  00002PRCP99
0189408290999992000091818004+31320+061480FM-12+0489OIZB V0203101N004012200019N0100001N1+02821+00841100151ADDAA199000091GA1001+999999999GF100991001001999999001001MA1999999094841MD1210101+9999REMSYN076AAXX  18181 40829 32960 03104 10282 20084 39484 40015 52010 91750 333 55100;EQDQ01  00002PRCP99
0183408290999992000091900004+31320+061480FM-12+0489OIZB V0203201N008012200019N0100001N1+02701+00921100171ADDAA199000091GA1001+999999999GF100991001001999999001001MA1999999094861MD1410001+9999REMSYN070AAXX  19001 40829 32960 03208 10270 20092 39486 40017 54000 92350 333;EQDQ01  00002PRCP99
0211408290999992000091912004+31320+061480FM-12+0489OIZB V0203101N012012200019N0050001N1+03741+01401100091ADDAA199000091AY101061AY201061GA1001+999999999GF100991001001999999001001MA1999999094821MD1610151+9999MW1071REMSYN076AAXX  19121 40829 31950 03112 10374 20140 39482 40009 56015 70700 91150 333;EQDQ01  00002PRCP99
0217408290999992000091918004+31320+061480FM-12+0489OIZB V0203201N013012200019N0060001N1+02941+00661100371ADDAA199000091AY101061AY201061GA1001+999999999GF100991001001999999001001MA1999999095061MD1110121+9999MW1071REMSYN082AAXX  19181 40829 31956 03213 10294 20066 39506 40037 51012 70700 91750 333 55093;EQDQ01  00002PRCP99
0207408290999992000092000004+31320+061480FM-12+0489OIZB V0203101N017012200019N0040001N1+02421+01331100451ADDAA199000091AY101061AY201061GA1001+999999999GF100991001001999999001001MA1999999095101MD1110041+9999MW1071REMSYN072AAXX  20001 40829 31940 03117 10242 20133 39510 40045 51004 70700 92350;EQDQ01  00002PRCP99
0241408290999992000092006004+31320+061480FM-12+0489OIZB V0203301N021010015019N0003001N1+02701+01181100731ADDAA124000091AY131061AY201061GA1091+001509999GF109991091999999999999999MA1999999095341MD1210171+9999MW1301REMSYN106AAXX  20061 40829 31903 93321 10270 20118 39534 40073 52017 73030 89/// 90550 333 30022 52820 70000 89/05;EQDQ01  00002PRCP24
0211408290999992000092012004+31320+061480FM-12+0489OIZB V0203101N016012200019N0020001N1+03321+00921100571ADDAA199000091AY131061AY201061GA1001+999999999GF100991001001999999001001MA1999999095211MD1810091+9999MW1071REMSYN076AAXX  20121 40829 31920 03116 10332 20092 39521 40057 58009 70730 91150 333;EQDQ01  00002PRCP99
0217408290999992000092018004+31320+061480FM-12+0489OIZB V0203201N014012200019N0050001N1+02561+01501100851ADDAA199000091AY101061AY201061GA1001+999999999GF100991001001999999001001MA1999999095451MD1210141+9999MW1071REMSYN082AAXX  20181 40829 31950 03214 10256 20150 39545 40085 52014 70700 91750 333 55085;EQDQ01  00002PRCP99
0229408290999992000092106004+31320+061480FM-12+0489OIZB V0203201N014012200019N0060001N1+02761+00821101141ADDAA124000091AY101061AY201061GA1001+999999999GF100991001001999999001001MA1999999095691MD1210141+9999MW1071REMSYN094AAXX  21061 40829 31956 03214 10276 20082 39569 40114 52014 70700 90550 333 30020 52640 70000;EQDQ01  00002PRCP24
0189408290999992000092118004+31320+061480FM-12+0489OIZB V0203101N004012200019N0100001N1+02401+00541100961ADDAA199000091GA1001+999999999GF100991001001999999001001MA1999999095521MD1210131+9999REMSYN076AAXX  21181 40829 32960 03104 10240 20054 39552 40096 52013 91750 333 55088;EQDQ01  00002PRCP99
0201408290999992000092206004+31320+061480FM-12+0489OIZB V0203001N016012200019N0100001N1+03081+00581101261ADDAA124000091GA1001+999999999GF100991001001999999001001MA1999999095811MD1110141+9999REMSYN088AAXX  22061 40829 32960 03016 10308 20058 39581 40126 51014 90550 333 30018 51850 70000;EQDQ01  00002PRCP24
0183408290999992000092212004+31320+061480FM-12+0489OIZB V0203101N003012200019N0100001N1+03661+01131100841ADDAA199000091GA1001+999999999GF100991001001999999001001MA1999999095451MD1710171+9999REMSYN070AAXX  22121 40829 32960 03103 10366 20113 39545 40084 57017 91150 333;EQDQ01  00002PRCP99
0189408290999992000092218004+31320+061480FM-12+0489OIZB V0202401N003012200019N0100001N1+02601+00701100931ADDAA199000091GA1001+999999999GF100991001001999999001001MA1999999095521MD1310061+9999REMSYN076AAXX  22181 40829 32960 02403 10260 20070 39552 40093 53006 91750 333 55104;EQDQ01  00002PRCP99
0179408290999992000092300004+31320+061480FM-12+0489OIZB V0203101N005012200019N0100001N1+02261+00461100871ADDAA199000091GA1001+999999999GF100991001001999999001001MA1999999095491MD1410001+9999REMSYN066AAXX  23001 40829 32960 03105 10226 20046 39549 40087 54000 92350;EQDQ01  00002PRCP99
0201408290999992000092306004+31320+061480FM-12+0489OIZB V0203201N007012200019N0100001N1+03361+00841101101ADDAA124000091GA1001+999999999GF100991001001999999001001MA1999999095721MD1310131+9999REMSYN088AAXX  23061 40829 32960 03207 10336 20084 39572 40110 53013 90550 333 30018 51940 70000;EQDQ01  00002PRCP24
0195408290999992000092312004+31320+061480FM-12+0489OIZB V0209999C000012200019N0100001N1+03841+01071100601ADDAA199000091GA1021+060009019GF102991001001999999001021MA1999999095271MD1810151+9999REMSYN082AAXX  23121 40829 32960 20000 10384 20107 39527 40060 58015 80002 91150 333 82070;EQDQ01  00002PRCP99
0189408290999992000092318004+31320+061480FM-12+0489OIZB V0202401N003012200019N0100001N1+02681+00571100691ADDAA199000091GA1001+999999999GF100991001001999999001001MA1999999095321MD1310071+9999REMSYN076AAXX  23181 40829 32960 02403 10268 20057 39532 40069 53007 91750 333 55103;EQDQ01  00002PRCP99
0241408290999992000092406004+31320+061480FM-12+0489OIZB V0203201N012012200019N0020001N1+03281+00481101001ADDAA124000091AY111061AY211061GA1021+030009079GF104991021001999999031011MA1999999095621MD1210131+9999MW1071REMSYN106AAXX  24061 40829 31920 43212 10328 20048 39562 40100 52013 70711 82031 90550 333 30020 51230 70000 82360;EQDQ01  00002PRCP24
0195408290999992000092412004+31320+061480FM-12+0489OIZB V0203101N006012200019N0100001N1+03741+00801100611ADDAA199000091GA1021+030009079GF103991021001999999031011MA1999999095261MD1710161+9999REMSYN082AAXX  24121 40829 32960 33106 10374 20080 39526 40061 57016 82031 91150 333 82360;EQDQ01  00002PRCP99
0209408290999992000092418004+31320+061480FM-12+0489OIZB V0203201N003012200019N0100001N1+02701+00681100751ADDAA199000091GA1011+030009079GF101991011001999999031001GJ105109MA1999999095411MD1310081+9999REMSYN088AAXX  24181 40829 32960 13203 10270 20068 39541 40075 53008 81030 91750 333 55085 81360;EQDQ01  00002PRCP99
0183408290999992000092500004+31320+061480FM-12+0489OIZB V0203201N007012200019N0100001N1+02341+00541100721ADDAA199000091GA1001+999999999GF100991001001999999001001MA1999999095431MD1010021+9999REMSYN070AAXX  25001 40829 32960 03207 10234 20054 39543 40072 50002 92350 333;EQDQ01  00002PRCP99
0229408290999992000092506004+31320+061480FM-12+0489OIZB V0203201N015012200019N0030001N1+02901+01241101111ADDAA124000091AY101061AY201061GA1001+999999999GF100991001001999999001001MA1999999095691MD1210101+9999MW1071REMSYN094AAXX  25061 40829 31530 03215 10290 20124 39569 40111 52010 70700 90550 333 30022 52290 70000;EQDQ01  00002PRCP24
0211408290999992000092512004+31320+061480FM-12+0489OIZB V0203101N010012200019N0100001N1+03321+01521100831ADDAA199000091GA1031+060009089GF103991999001999999001061MA1999999095431MD1710141+9999REMSYN082AAXX  25121 40829 32960 33110 10332 20152 39543 40083 57014 80006 91150 333 83270;EQDQ01+000002SCOTLCQ02  00002PRCP99
0209408290999992000092518004+31320+061480FM-12+0489OIZB V0203201N009012200019N0100001N1+02941+01401100901ADDAA199000091GA1031+030009079GF103991031001999999031001GJ103669MA1999999095521MD1210081+9999REMSYN088AAXX  25181 40829 32960 33209 10294 20140 39552 40090 52008 83030 91750 333 55061 83360;EQDQ01  00002PRCP99
0207408290999992000092600004+31320+061480FM-12+0489OIZB V0203401N012012200019N0080001N1+02221+01221101021ADDAA199000091AY101061AY201061GA1001+999999999GF100991001001999999001001MA1999999095611MD1610051+9999MW1071REMSYN072AAXX  26001 40829 31958 03412 10222 20122 39561 40102 56005 70700 92350;EQDQ01  00002PRCP99
0229408290999992000092606004+31320+061480FM-12+0489OIZB V0203301N013012200019N0050001N1+02641+00941100941ADDAA124000091AY101061AY201061GA1001+999999999GF100991001001999999001001MA1999999095891MD1110131+9999MW1071REMSYN094AAXX  26061 40829 31950 03313 10264 20094 39589 40094 51013 70700 90550 333 30019 51940 70000;EQDQ01  00002PRCP24
0189408290999992000092618004+31320+061480FM-12+0489OIZB V0203301N006012200019N0100001N1+02401+00961101041ADDAA199000091GA1001+999999999GF100991001001999999001001MA1999999095581MD1210151+9999REMSYN076AAXX  26181 40829 32960 03306 10240 20096 39558 40104 52015 91750 333 55100;EQDQ01  00002PRCP99
0217408290999992000092706004+31320+061480FM-12+0489OIZB V0203201N006012200019N0100001N1+02701+01101101311ADDAA124000091GA1001+999999999GF100991001001999999001001MA1999999999999MD1210191+9999REMSYN088AAXX  27061 40829 32960 03206 10270 20110 38586 40131 52019 90550 333 30018 51760 70000;EQDQ01  00002PRCP24Q02 085863APOSP 
0211408290999992000092712004+31320+061480FM-12+0489OIZB V0203201N005012200019N0100001N1+03401+01161999999ADDAA199000091GA1001+999999999GF100991001001999999001001MA1999999095482MD1810181+9999REMSYN066AAXX  27121 40829 32960 03205 10340 20116 39548 49992 58018 91150;EQDQ01+095483APOSP Q02+099923APOSLPQ03  00002PRCP99
0189408290999992000092718004+31320+061480FM-12+0489OIZB V0202601N003012200019N0100001N1+02281+00481101101ADDAA199000091GA1001+999999999GF100991001001999999001001MA1999999095611MD1110171+9999REMSYN076AAXX  27181 40829 32960 02603 10228 20048 39561 40110 51017 91750 333 55101;EQDQ01  00002PRCP99
0179408290999992000092800004+31320+061480FM-12+0489OIZB V0201101N002012200019N0100001N1+01981+00261101031ADDAA199000091GA1001+999999999GF100991001001999999001001MA1999999095591MD1110011+9999REMSYN066AAXX  28001 40829 32960 01102 10198 20026 39559 40103 51001 92350;EQDQ01  00002PRCP99
0201408290999992000092806004+31320+061480FM-12+0489OIZB V0203301N004012200019N0100001N1+02961+00561101211ADDAA124000091GA1001+999999999GF100991001001999999001001MA1999999095761MD1110091+9999REMSYN088AAXX  28061 40829 32960 03304 10296 20056 39576 40121 51009 90550 333 30014 51140 70000;EQDQ01  00002PRCP24
0179408290999992000092912004+31320+061480FM-12+0489OIZB V0203201N007012200019N0100001N1+03641+00751100951ADDAA199000091GA1001+999999999GF100991001001999999001001MA1999999095541MD1710121+9999REMSYN066AAXX  29121 40829 32960 03207 10364 20075 39554 40095 57012 91150;EQDQ01  00002PRCP99
0229408290999992000093006004+31320+061480FM-12+0489OIZB V0203301N015012200019N0020001N1+02741+00831101151ADDAA124000091AY101061AY201061GA1001+999999999GF100991001001999999001001MA1999999095721MD1310111+9999MW1071REMSYN094AAXX  30061 40829 31920 03315 10274 20083 39572 40115 53011 70700 90550 333 30020 51960 70000;EQDQ01  00002PRCP24
0211408290999992000093012004+31320+061480FM-12+0489OIZB V0203401N010012200019N0070001N1+03461+00681100731ADDAA199000091AY101061AY201061GA1001+999999999GF100991001001999999001001MA1999999095331MD1810181+9999MW1071REMSYN076AAXX  30121 40829 31957 03410 10346 20068 39533 40073 58018 70700 91150 333;EQDQ01  00002PRCP99
0189408290999992000093018004+31320+061480FM-12+0489OIZB V0203201N008012200019N0100001N1+02661+00851100831ADDAA199000091GA1001+999999999GF100991001001999999001001MA1999999095411MD1210101+9999REMSYN076AAXX  30181 40829 32960 03208 10266 20085 39541 40083 52010 91750 333 55095;EQDQ01  00002PRCP99
0183408290999992000100100004+31320+061480FM-12+0489OIZB V0203201N005012200019N0100001N1+02201+00681100721ADDAA199000091GA1001+999999999GF100991001001999999001001MA1999999095321MD1610041+9999REMSYN070AAXX  01001 40829 32960 03205 10220 20068 39532 40072 56004 92350 333;EQDQ01  00002PRCP99
0229408290999992000100106004+31320+061480FM-12+0489OIZB V0203201N009012200019N0070001N1+02941+01101100961ADDAA124000091AY101061AY201061GA1001+999999999GF100991001001999999001001MA1999999095571MD1110091+9999MW1071REMSYN094AAXX  01061 40829 31957 03209 10294 20110 39557 40096 51009 70700 90550 333 30018 51760 70000;EQDQ01  00002PRCP24
0195408290999992000100112004+31320+061480FM-12+0489OIZB V0209999C000012200019N0100001N1+03541+01121100561ADDAA199000091GA1021+030009079GF102991021001999999031001MA1999999095201MD1710181+9999REMSYN082AAXX  01121 40829 32960 20000 10354 20112 39520 40056 57018 82030 91150 333 82360;EQDQ01  00002PRCP99
0209408290999992000100118004+31320+061480FM-12+0489OIZB V0203201N010012200019N0100001N1+02461+00851100741ADDAA199000091GA1011+030009079GF101991011001999999031001GJ105649MA1999999095321MD1310061+9999REMSYN088AAXX  01181 40829 32960 13210 10246 20085 39532 40074 53006 81030 91750 333 55094 81360;EQDQ01  00002PRCP99
0207408290999992000100200004+31320+061480FM-12+0489OIZB V0203201N009012200019N0080001N1+02181+00651100731ADDAA199000091AY101061AY201061GA1001+999999999GF100991001001999999001001MA1999999095331MD1110051+9999MW1071REMSYN072AAXX  02001 40829 31958 03209 10218 20065 39533 40073 51005 70700 92350;EQDQ01  00002PRCP99
0188408290999992000100206004+31320+061480FM-12+0489OIZB V0201801N004012200019N0200001N1+01861+99999999999ADDAA124000091GA1001+999999999GF100991001001999999001001REMSYN088AAXX  02061 40829 32970 01804 10186 21137 3//// 4//// 5//// 90550 333 30011 50951 70000;EQDQ01  00002PRCP24Q02 -01373ATOD  
0211408290999992000100212004+31320+061480FM-12+0489OIZB V0203301N010012200019N0100001N1+03121+01142100781ADDAA199000091GA1011+030009079GF101991011001999999031001MA1999999095281MD1710141+9999REMSYN082AAXX  02121 40829 32960 13310 10312 20114 39528 40078 57014 81030 91150 333 81360;EQDQ01+001143ATOD  Q02  00002PRCP99
0209408290999992000100218004+31320+061480FM-12+0489OIZB V0203201N007012200019N0100001N1+02381+01011100991ADDAA199000091GA1011+030009079GF101991011001999999031001GJ103369MA1999999095541MD1210211+9999REMSYN088AAXX  02181 40829 32960 13207 10238 20101 39554 40099 52021 81030 91750 333 55056 81360;EQDQ01  00002PRCP99
0213408290999992000100306004+31320+061480FM-12+0489OIZB V0203101N008012200019N0100001N1+02381+01051101371ADDAA124000091GA1011+012009029GF102991011011012501001021MA1999999095891MD1210201+9999REMSYN100AAXX  03061 40829 32660 23108 10238 20105 39589 40137 52020 81102 90550 333 30016 51160 70000 81840;EQDQ01  00002PRCP24
0189408290999992000100318004+31320+061480FM-12+0489OIZB V0203201N010012200019N0100001N1+02321+00961101061ADDAA199000091GA1001+999999999GF100991001001999999001001MA1999999095581MD1310061+9999REMSYN076AAXX  03181 40829 32960 03210 10232 20096 39558 40106 53006 91750 333 55088;EQDQ01  00002PRCP99
0227408290999992000100400004+31320+061480FM-12+0489OIZB V0203401N015012200019N0070001N1+01761+00701101101ADDAA199000091AY101061AY201061GA1001+999999999GF100991001001999999001001MA1999999999999MD1110061+9999MW1071REMSYN076AAXX  04001 40829 31957 03415 10176 20070 38560 40110 51006 70700 92350 333;EQDQ01  00002PRCP99Q02 085603APOSP 
0195408290999992000100412004+31320+061480FM-12+0489OIZB V0203201N007012200019N0100001N1+02821+00801101141ADDAA199000091GA1011+012009029GF101991011041012501031001MA1999999095601MD1710131+9999REMSYN082AAXX  04121 40829 32660 13207 10282 20080 39560 40114 57013 81430 91150 333 81840;EQDQ01  00002PRCP99
0207408290999992000100500004+31320+061480FM-12+0489OIZB V0203201N015012200019N0040001N1+01621+00831101471ADDAA199000091AY101061AY201061GA1001+999999999GF100991001001999999001001MA1999999095931MD1210091+9999MW1071REMSYN072AAXX  05001 40829 31940 03215 10162 20083 39593 40147 52009 70700 92350;EQDQ01  00002PRCP99
0219408290999992000100506004+31320+061480FM-12+0489OIZB V0203101N022012200019N0100001N1+02001+01071101811ADDAA124000091GA1011+012009089GF104991011011012501031001MA1999999096251MD1310121+9999REMSYN106AAXX  05061 40829 32660 43122 10200 20107 39625 40181 53012 81130 90550 333 30013 51320 70000 81840 83360;EQDQ01  00002PRCP24
0229408290999992000100512004+31320+061480FM-12+0489OIZB V0203201N012012200019N0060001N1+02481+01301101521ADDAA199000091AY111061AY211061GA1011+012009089GF104991011021012501031001MA1999999095981MD1610111+9999MW1071REMSYN094AAXX  05121 40829 31656 43212 10248 20130 39598 40152 56011 70711 81230 91150 333 81840 83360;EQDQ01  00002PRCP99
0237408290999992000100518004+31320+061480FM-12+0489OIZB V0203101N012012200019N0070001N1+01981+00621101721ADDAA199000091AY111061AY211061GA1031+030009079GF104991031001999999031011GJ102709MA1999999096181MD1110071+9999MW1071REMSYN094AAXX  05181 40829 31957 43112 10198 20062 39618 40172 51007 70711 83031 91750 333 55045 83360;EQDQ01  00002PRCP99
0207408290999992000100600004+31320+061480FM-12+0489OIZB V0203201N010012200019N0080001N1+01641+00631101721ADDAA199000091AY111061AY201061GA1001+999999999GF100991001001999999001001MA1999999096171MD1110011+9999MW1071REMSYN072AAXX  06001 40829 31958 03210 10164 20063 39617 40172 51001 70710 92350;EQDQ01  00002PRCP99
0195408290999992000100612004+31320+061480FM-12+0489OIZB V0203401N008012200019N0100001N1+02641+00541101611ADDAA199000091GA1021+030009079GF102991021001999999031001MA1999999096051MD1710191+9999REMSYN082AAXX  06121 40829 32960 23408 10264 20054 39605 40161 57019 82030 91150 333 82360;EQDQ01  00002PRCP99
0183408290999992000100700004+31320+061480FM-12+0489OIZB V0203201N005012200019N0100001N1+01601+00441101781ADDAA199000091GA1001+999999999GF100991001001999999001001MA1999999096241MD1110031+9999REMSYN070AAXX  07001 40829 32960 03205 10160 20044 39624 40178 51003 92350 333;EQDQ01  00002PRCP99
0201408290999992000100706004+31320+061480FM-12+0489OIZB V0203101N010012200019N0100001N1+02361+00641101991ADDAA124000091GA1001+999999999GF100991001001999999001001MA1999999096411MD1110041+9999REMSYN088AAXX  07061 40829 32960 03110 10236 20064 39641 40199 51004 90550 333 30012 51140 70000;EQDQ01  00002PRCP24
0199408290999992000100712004+31320+061480FM-12+0489OIZB V0203101N008012200019N0100001N1+02801+00611999999ADDAA199000091GA1001+999999999GF100991001001999999001001MA1999999096081MD1710181+9999REMSYN070AAXX  07121 40829 32960 03108 10280 20061 39608 40064 57018 91150 333;EQDQ01+100643APOSLPQ02  00002PRCP99
0189408290999992000100718004+31320+061480FM-12+0489OIZB V0203301N007012200019N0100001N1+02041+00411101681ADDAA199000091GA1001+999999999GF100991001001999999001001MA1999999096121MD1110011+9999REMSYN076AAXX  07181 40829 32960 03307 10204 20041 39612 40168 51001 91750 333 55095;EQDQ01  00002PRCP99
0179408290999992000100800004+31320+061480FM-12+0489OIZB V0203201N008012200019N0100001N1+01701+00361101701ADDAA199000091GA1001+999999999GF100991001001999999001001MA1999999096161MD1410001+9999REMSYN066AAXX  08001 40829 32960 03208 10170 20036 39616 40170 54000 92350;EQDQ01  00002PRCP99
0229408290999992000100806004+31320+061480FM-12+0489OIZB V0203301N013012200019N0070001N1+02281+00701101891ADDAA124000091AY101061AY201061GA1001+999999999GF100991001001999999001001MA1999999096301MD1310091+9999MW1071REMSYN094AAXX  08061 40829 31957 03313 10228 20070 39630 40189 53009 70700 90550 333 30014 51940 70000;EQDQ01  00002PRCP24
0207408290999992000100812004+31320+061480FM-12+0489OIZB V0203401N012012200019N0070001N1+02741+01021101461ADDAA199000091AY101061AY201061GA1001+999999999GF100991001001999999001001MA1999999095911MD1810181+9999MW1071REMSYN072AAXX  08121 40829 32957 03412 10274 20102 39591 40146 58018 70700 91150;EQDQ01  00002PRCP99
0189408290999992000100818004+31320+061480FM-12+0489OIZB V0203401N010012200019N0100001N1+02101+00791101621ADDAA199000091GA1001+999999999GF100991001001999999001001MA1999999096061MD1210141+9999REMSYN076AAXX  08181 40829 32960 03410 10210 20079 39606 40162 52014 91750 333 55105;EQDQ01  00002PRCP99
0183408290999992000100900004+31320+061480FM-12+0489OIZB V0203201N008012200019N0100001N1+01681+00711101421ADDAA199000091GA1001+999999999GF100991001001999999001001MA1999999095871MD1710101+9999REMSYN070AAXX  09001 40829 32960 03208 10168 20071 39587 40142 57010 92350 333;EQDQ01  00002PRCP99
0229408290999992000100906004+31320+061480FM-12+0489OIZB V0203201N012012200019N0080001N1+02301+00841101581ADDAA124000091AY101061AY201061GA1001+999999999GF100991001001999999001001MA1999999096011MD1310091+9999MW1071REMSYN094AAXX  09061 40829 31958 03212 10230 20084 39601 40158 53009 70700 90550 333 30012 51480 70000;EQDQ01  00002PRCP24
0179408290999992000100912004+31320+061480FM-12+0489OIZB V0203201N007012200019N0100001N1+02721+00861101181ADDAA199000091GA1001+999999999GF100991001001999999001001MA1999999095661MD1810101+9999REMSYN066AAXX  09121 40829 32960 03207 10272 20086 39566 40118 58010 91150;EQDQ01  00002PRCP99
0189408290999992000100918004+31320+061480FM-12+0489OIZB V0203101N004012200019N0100001N1+01761+00421101201ADDAA199000091GA1001+999999999GF100991001001999999001001MA1999999095841MD1310151+9999REMSYN076AAXX  09181 40829 32960 03104 10176 20042 39584 40120 53015 91750 333 55108;EQDQ01  00002PRCP99
0183408290999992000101000004+31320+061480FM-12+0489OIZB V0202901N004012200019N0100001N1+01541+00391101301ADDAA199000091GA1001+999999999GF100991001001999999001001MA1999999095761MD1810051+9999REMSYN070AAXX  10001 40829 32960 02904 10154 20039 39576 40130 58005 92350 333;EQDQ01  00002PRCP99
0201408290999992000101006004+31320+061480FM-12+0489OIZB V0203201N005012200019N0100001N1+02461+00531101521ADDAA124000091GA1001+999999999GF100991001001999999001001MA1999999095971MD1210101+9999REMSYN088AAXX  10061 40829 32960 03205 10246 20053 39597 40152 52010 90550 333 30010 51140 70000;EQDQ01  00002PRCP24
0183408290999992000101012004+31320+061480FM-12+0489OIZB V0203401N007012200019N0100001N1+02901+00161101161ADDAA199000091GA1001+999999999GF100991001001999999001001MA1999999095631MD1710091+9999REMSYN070AAXX  10121 40829 32960 03407 10290 20016 39563 40116 57009 91150 333;EQDQ01  00002PRCP99
0189408290999992000101018004+31320+061480FM-12+0489OIZB V0203201N003012200019N0100001N1+01921+00211101431ADDAA199000091GA1001+999999999GF100991001001999999001001MA1999999095901MD1210231+9999REMSYN076AAXX  10181 40829 32960 03203 10192 20021 39590 40143 52023 91750 333 55102;EQDQ01  00002PRCP99
0179408290999992000101100004+31320+061480FM-12+0489OIZB V0202701N004012200019N0100001N1+01501+00221101441ADDAA199000091GA1001+999999999GF100991001001999999001001MA1999999095861MD1410001+9999REMSYN066AAXX  11001 40829 32960 02704 10150 20022 39586 40144 54000 92350;EQDQ01  00002PRCP99
0183408290999992000101112004+31320+061480FM-12+0489OIZB V0203101N005012200019N0100001N1+03101+00371101241ADDAA199000091GA1001+999999999GF100991001001999999001001MA1999999095741MD1710101+9999REMSYN070AAXX  11121 40829 32960 03105 10310 20037 39574 40124 57010 91150 333;EQDQ01  00002PRCP99
0189408290999992000101118004+31320+061480FM-12+0489OIZB V0209999C000012200019N0100001N1+01861+00461101321ADDAA199000091GA1001+999999999GF100991001001999999001001MA1999999095801MD1610011+9999REMSYN076AAXX  11181 40829 32960 00000 10186 20046 39580 40132 56001 91750 333 55095;EQDQ01  00002PRCP99
0201408290999992000101206004+31320+061480FM-12+0489OIZB V0203101N002012200019N0100001N1+02701+00271101521ADDAA124000091GA1001+999999999GF100991001001999999001001MA1999999095961MD1210171+9999REMSYN088AAXX  12061 40829 32960 03102 10270 20027 39596 40152 52017 90550 333 30010 50970 70000;EQDQ01  00002PRCP24
0183408290999992000101212004+31320+061480FM-12+0489OIZB V0209999C000012200019N0100001N1+03301+00471101091ADDAA199000091GA1001+999999999GF100991001001999999001001MA1999999095601MD1810161+9999REMSYN070AAXX  12121 40829 32960 00000 10330 20047 39560 40109 58016 91150 333;EQDQ01  00002PRCP99
0189408290999992000101218004+31320+061480FM-12+0489OIZB V0209999C000012200019N0100001N1+02301+00251101201ADDAA199000091GA1001+999999999GF100991001001999999001001MA1999999095841MD1110061+9999REMSYN076AAXX  12181 40829 32960 00000 10230 20025 39584 40120 51006 91750 333 55100;EQDQ01  00002PRCP99
0183408290999992000101300004+31320+061480FM-12+0489OIZB V0202601N003012200019N0100001N1+01721+00221101111ADDAA199000091GA1001+999999999GF100991001001999999001001MA1999999095721MD1310101+9999REMSYN070AAXX  13001 40829 32960 02603 10172 20022 39572 40111 53010 92350 333;EQDQ01  00002PRCP99
0201408290999992000101306004+31320+061480FM-12+0489OIZB V0209999C000012200019N0100001N1+02801+00551101201ADDAA124000091GA1001+999999999GF100991001001999999001001MA1999999095741MD1210071+9999REMSYN088AAXX  13061 40829 32960 00000 10280 20055 39574 40120 52007 90550 333 30011 50880 70000;EQDQ01  00002PRCP24
0183408290999992000101312004+31320+061480FM-12+0489OIZB V0209999C000012200019N0100001N1+03321+00411100821ADDAA199000091GA1001+999999999GF100991001001999999001001MA1999999095361MD1710191+9999REMSYN070AAXX  13121 40829 32960 00000 10332 20041 39536 40082 57019 91150 333;EQDQ01  00002PRCP99
0189408290999992000101318004+31320+061480FM-12+0489OIZB V0209999C000012200019N0100001N1+02001+00111101081ADDAA199000091GA1001+999999999GF100991001001999999001001MA1999999095421MD1110061+9999REMSYN076AAXX  13181 40829 32960 00000 10200 20011 39542 40108 51006 91750 333 55104;EQDQ01  00002PRCP99
0179408290999992000101400004+31320+061480FM-12+0489OIZB V0209999C000012200019N0100001N1+01541-00071100941ADDAA199000091GA1001+999999999GF100991001001999999001001MA1999999095461MD1110031+9999REMSYN066AAXX  14001 40829 32960 00000 10154 21007 39546 40094 51003 92350;EQDQ01  00002PRCP99
0201408290999992000101406004+31320+061480FM-12+0489OIZB V0203301N005012200019N0100001N1+02601+00381101151ADDAA124000091GA1001+999999999GF100991001001999999001001MA1999999095641MD1110061+9999REMSYN088AAXX  14061 40829 32960 03305 10260 20038 39564 40115 51006 90550 333 30010 50880 70000;EQDQ01  00002PRCP24
0179408290999992000101412004+31320+061480FM-12+0489OIZB V0201201N003012200019N0100001N1+03461+00311100771ADDAA199000091GA1001+999999999GF100991001001999999001001MA1999999095321MD1710111+9999REMSYN066AAXX  14121 40829 32960 01203 10346 20031 39532 40077 57011 91150;EQDQ01  00002PRCP99
0189408290999992000101418004+31320+061480FM-12+0489OIZB V0203201N003012200019N0100001N1+02141+00271101011ADDAA199000091GA1001+999999999GF100991001001999999001001MA1999999095531MD1310211+9999REMSYN076AAXX  14181 40829 32960 03203 10214 20027 39553 40101 53021 91750 333 55100;EQDQ01  00002PRCP99
0211408290999992000101500004+31320+061480FM-12+0489OIZB V0203201N009012200019N0080001N1+01641+00241101061ADDAA199000091AY101061AY201061GA1001+999999999GF100991001001999999001001MA1999999095681MD1110051+9999MW1071REMSYN076AAXX  15001 40829 31958 03209 10164 20024 39568 40106 51005 70700 92350 333;EQDQ01  00002PRCP99
0195408290999992000101512004+31320+061480FM-12+0489OIZB V0203301N006012200019N0100001N1+03041+00571101241ADDAA199000091GA1021+060009019GF102991001001999999001011MA1999999095721MD1710221+9999REMSYN082AAXX  15121 40829 32960 23306 10304 20057 39572 40124 57022 80001 91150 333 82070;EQDQ01  00002PRCP99
0189408290999992000101518004+31320+061480FM-12+0489OIZB V0203301N011012200019N0100001N1+02041+00571101421ADDAA199000091GA1001+999999999GF100991001001999999001001MA1999999095881MD1310041+9999REMSYN076AAXX  15181 40829 32960 03311 10204 20057 39588 40142 53004 91750 333 55101;EQDQ01  00002PRCP99
0211408290999992000101600004+31320+061480FM-12+0489OIZB V0203301N014012200019N0030001N1+01541+00531101551ADDAA199000091AY101061AY201061GA1001+999999999GF100991001001999999001001MA1999999096021MD1110041+9999MW1071REMSYN076AAXX  16001 40829 31930 03314 10154 20053 39602 40155 51004 70700 92350 333;EQDQ01  00002PRCP99
0223408290999992000101612004+31320+061480FM-12+0489OIZB V0203201N009012200019N0080001N1+02641+00701101711ADDAA199000091AY111061AY201061GA1031+060009019GF103991001001999999001011MA1999999096121MD1810161+9999MW1071REMSYN088AAXX  16121 40829 31958 33209 10264 20070 39612 40171 58016 70710 80001 91150 333 83070;EQDQ01  00002PRCP99
0189408290999992000101618004+31320+061480FM-12+0489OIZB V0203001N007012200019N0100001N1+01781+00531101921ADDAA199000091GA1001+999999999GF100991001001999999001001MA1999999096311MD1210121+9999REMSYN076AAXX  16181 40829 32960 03007 10178 20053 39631 40192 52012 91750 333 55088;EQDQ01  00002PRCP99
0189408290999992000101718004+31320+061480FM-12+0489OIZB V0209999C000012200019N0100001N1+02161+00851101321ADDAA199000091GA1001+999999999GF100991001001999999001001MA1999999095781MD1810051+9999REMSYN076AAXX  17181 40829 32960 00000 10216 20085 39578 40132 58005 91750 333 55102;EQDQ01  00002PRCP99
0179408290999992000101800004+31320+061480FM-12+0489OIZB V0203101N002012200019N0100001N1+01361+00461101191ADDAA199000091GA1001+999999999GF100991001001999999001001MA1999999095651MD1810061+9999REMSYN066AAXX  18001 40829 32960 03102 10136 20046 39565 40119 58006 92350;EQDQ01  00002PRCP99
0201408290999992000101806004+31320+061480FM-12+0489OIZB V0203201N003012200019N0100001N1+02601+00641101321ADDAA124000091GA1001+999999999GF100991001001999999001001MA1999999095821MD1210131+9999REMSYN088AAXX  18061 40829 32960 03203 10260 20064 39582 40132 52013 90550 333 30011 51060 70000;EQDQ01  00002PRCP24
0183408290999992000101812004+31320+061480FM-12+0489OIZB V0209999C000012200019N0100001N1+03281+00961100921ADDAA199000091GA1001+999999999GF100991001001999999001001MA1999999095431MD1710171+9999REMSYN070AAXX  18121 40829 32960 00000 10328 20096 39543 40092 57017 91150 333;EQDQ01  00002PRCP99
0189408290999992000101818004+31320+061480FM-12+0489OIZB V0203201N003012200019N0100001N1+02081+00601101061ADDAA199000091GA1001+999999999GF100991001001999999001001MA1999999095581MD1310121+9999REMSYN076AAXX  18181 40829 32960 03203 10208 20060 39558 40106 53012 91750 333 55102;EQDQ01  00002PRCP99
0211408290999992000101900004+31320+061480FM-12+0489OIZB V0203201N010012200019N0080001N1+01801+00911101101ADDAA199000091AY101061AY201061GA1001+999999999GF100991001001999999001001MA1999999095661MD1310051+9999MW1071REMSYN076AAXX  19001 40829 31958 03210 10180 20091 39566 40110 53005 70700 92350 333;EQDQ01  00002PRCP99
0229408290999992000101906004+31320+061480FM-12+0489OIZB V0203201N010012200019N0080001N1+02461+00761101591ADDAA124000091AY101061AY201061GA1001+999999999GF100991001001999999001001MA1999999096041MD1210181+9999MW1071REMSYN094AAXX  19061 40829 31958 03210 10246 20076 39604 40159 52018 70700 90550 333 30017 51230 70000;EQDQ01  00002PRCP24
0189408290999992000101918004+31320+061480FM-12+0489OIZB V0203201N005012200019N0100001N1+02161+00561101331ADDAA199000091GA1001+999999999GF100991001001999999001001MA1999999095811MD1310091+9999REMSYN076AAXX  19181 40829 32960 03205 10216 20056 39581 40133 53009 91750 333 55098;EQDQ01  00002PRCP99
0179408290999992000102000004+31320+061480FM-12+0489OIZB V0203201N008012200019N0100001N1+01801+00461101321ADDAA199000091GA1001+999999999GF100991001001999999001001MA1999999095851MD1410001+9999REMSYN066AAXX  20001 40829 32960 03208 10180 20046 39585 40132 54000 92350;EQDQ01  00002PRCP99
0201408290999992000102006004+31320+061480FM-12+0489OIZB V0203401N007012200019N0100001N1+02661+00601101601ADDAA124000091GA1001+999999999GF100991001001999999001001MA1999999096081MD1310171+9999REMSYN088AAXX  20061 40829 32960 03407 10266 20060 39608 40160 53017 90550 333 30015 51230 70000;EQDQ01  00002PRCP24
0183408290999992000102012004+31320+061480FM-12+0489OIZB V0209999C000012200019N0100001N1+03361+00821101131ADDAA199000091GA1001+999999999GF100991001001999999001001MA1999999095661MD1810151+9999REMSYN070AAXX  20121 40829 32960 00000 10336 20082 39566 40113 58015 91150 333;EQDQ01  00002PRCP99
0189408290999992000102018004+31320+061480FM-12+0489OIZB V0203101N003012200019N0100001N1+02001+00281101401ADDAA199000091GA1001+999999999GF100991001001999999001001MA1999999095871MD1210101+9999REMSYN076AAXX  20181 40829 32960 03103 10200 20028 39587 40140 52010 91750 333 55100;EQDQ01  00002PRCP99
0183408290999992000102100004+31320+061480FM-12+0489OIZB V0203201N005012200019N0100001N1+01761+00311101311ADDAA199000091GA1001+999999999GF100991001001999999001001MA1999999095841MD1410001+9999REMSYN070AAXX  21001 40829 32960 03205 10176 20031 39584 40131 54000 92350 333;EQDQ01  00002PRCP99
0241408290999992000102106004+31320+061480FM-12+0489OIZB V0203201N014012200019N0030001N1+02501+00671101701ADDAA124000091AY101061AY201061GA1021+060009019GF102991001001999999001021MA1999999096161MD1310131+9999MW1071REMSYN106AAXX  21061 40829 31930 23214 10250 20067 39616 40170 53013 70700 80002 90550 333 30015 51140 70000 82070;EQDQ01  00002PRCP24
0229408290999992000102112004+31320+061480FM-12+0489OIZB V0203201N009012200019N0080001N1+03161+00971101211ADDAA199000091AY111061AY201061GA1011+012009089GF104991011011999999031011MA1999999095741MD1810151+9999MW1071REMSYN094AAXX  21121 40829 31958 43209 10316 20097 39574 40121 58015 70710 81131 91150 333 81840 83360;EQDQ01  00002PRCP99
0208408290999992000102118004+31320+061480FM-12+0489OIZB V0203201N007012200019N0100001N1+02281+00811101151ADDAA199000091GF102991021001999999031001KA1999N+99999MA1999999095841MD1110021+9999REMSYN082AAXX  21181 40829 32960 23207 10228 20081 39584 40115 51002 82030 91750 333 2360/;EQDQ01  00002PRCP99Q02 +06002ATMN  
0207408290999992000102200004+31320+061480FM-12+0489OIZB V0203301N012012200019N0070001N1+01901+00661101231ADDAA199000091AY101061AY201061GA1001+999999999GF100991001001999999001001MA1999999095751MD1810031+9999MW1071REMSYN072AAXX  22001 40829 31957 03312 10190 20066 39575 40123 58003 70700 92350;EQDQ01  00002PRCP99
0229408290999992000102206004+31320+061480FM-12+0489OIZB V0203401N012012200019N0060001N1+02381+00441101571ADDAA124000091AY101061AY201061GA1001+999999999GF100991001001999999001001MA1999999096041MD1210131+9999MW1071REMSYN094AAXX  22061 40829 31956 03412 10238 20044 39604 40157 52013 70700 90550 333 30016 52200 70000;EQDQ01  00002PRCP24
0211408290999992000102212004+31320+061480FM-12+0489OIZB V0203301N011012200019N0080001N1+02821+00841101161ADDAA199000091AY101061AY201061GA1001+999999999GF100991001001999999001001MA1999999095671MD1710121+9999MW1071REMSYN076AAXX  22121 40829 31958 03311 10282 20084 39567 40116 57012 70700 91150 333;EQDQ01  00002PRCP99
0217408290999992000102218004+31320+061480FM-12+0489OIZB V0203201N013012200019N0070001N1+02141+00771101341ADDAA199000091AY101061AY201061GA1001+999999999GF100991001001999999001001MA1999999095821MD1310111+9999MW1071REMSYN082AAXX  22181 40829 31957 03213 10214 20077 39582 40134 53011 70700 91750 333 55096;EQDQ01  00002PRCP99
0207408290999992000102300004+31320+061480FM-12+0489OIZB V0203201N012012200019N0070001N1+01641+00441101261ADDAA199000091AY101061AY201061GA1001+999999999GF100991001001999999001001MA1999999095721MD1810101+9999MW1071REMSYN072AAXX  23001 40829 31957 03212 10164 20044 39572 40126 58010 70700 92350;EQDQ01  00002PRCP99
0201408290999992000102306004+31320+061480FM-12+0489OIZB V0203301N010012200019N0100001N1+02281+00611101491ADDAA124000091GA1001+999999999GF100991001001999999001001MA1999999095941MD1110101+9999REMSYN088AAXX  23061 40829 32960 03310 10228 20061 39594 40149 51010 90550 333 30016 51500 70000;EQDQ01  00002PRCP24
0183408290999992000102312004+31320+061480FM-12+0489OIZB V0203301N006012200019N0100001N1+02901+00631101021ADDAA199000091GA1001+999999999GF100991001001999999001001MA1999999095511MD1710131+9999REMSYN070AAXX  23121 40829 32960 03306 10290 20063 39551 40102 57013 91150 333;EQDQ01  00002PRCP99
0189408290999992000102318004+31320+061480FM-12+0489OIZB V0202801N003012200019N0100001N1+01861+00481101141ADDAA199000091GA1001+999999999GF100991001001999999001001MA1999999095611MD1110021+9999REMSYN076AAXX  23181 40829 32960 02803 10186 20048 39561 40114 51002 91750 333 55088;EQDQ01  00002PRCP99
0183408290999992000102400004+31320+061480FM-12+0489OIZB V0209999C000012200019N0100001N1+01201+00141101181ADDAA199000091GA1001+999999999GF100991001001999999001001MA1999999095641MD1310071+9999REMSYN070AAXX  24001 40829 32960 00000 10120 20014 39564 40118 53007 92350 333;EQDQ01  00002PRCP99
0201408290999992000102406004+31320+061480FM-12+0489OIZB V0203401N005012200019N0100001N1+02301+00301101601ADDAA124000091GA1001+999999999GF100991001001999999001001MA1999999096011MD1210211+9999REMSYN088AAXX  24061 40829 32960 03405 10230 20030 39601 40160 52021 90550 333 30006 50970 70000;EQDQ01  00002PRCP24
0183408290999992000102412004+31320+061480FM-12+0489OIZB V0203101N002012200019N0100001N1+03021+00411101311ADDAA199000091GA1001+999999999GF100991001001999999001001MA1999999095741MD1810061+9999REMSYN070AAXX  24121 40829 32960 03102 10302 20041 39574 40131 58006 91150 333;EQDQ01  00002PRCP99
0189408290999992000102418004+31320+061480FM-12+0489OIZB V0203101N004012200019N0100001N1+01901+00361101611ADDAA199000091GA1001+999999999GF100991001001999999001001MA1999999096041MD1210181+9999REMSYN076AAXX  24181 40829 32960 03104 10190 20036 39604 40161 52018 91750 333 55102;EQDQ01  00002PRCP99
0183408290999992000102500004+31320+061480FM-12+0489OIZB V0203401N008012200019N0100001N1+01761+00611101631ADDAA199000091GA1001+999999999GF100991001001999999001001MA1999999096061MD1110021+9999REMSYN070AAXX  25001 40829 32960 03408 10176 20061 39606 40163 51002 92350 333;EQDQ01  00002PRCP99
0201408290999992000102506004+31320+061480FM-12+0489OIZB V0203201N007012200019N0100001N1+02341+00881101991ADDAA124000091GA1001+999999999GF100991001001999999001001MA1999999096411MD1210251+9999REMSYN088AAXX  25061 40829 32960 03207 10234 20088 39641 40199 52025 90550 333 30015 50880 70000;EQDQ01  00002PRCP24
0189408290999992000102518004+31320+061480FM-12+0489OIZB V0202901N004012200019N0100001N1+01921+00131101711ADDAA199000091GA1001+999999999GF100991001001999999001001MA1999999096141MD1110061+9999REMSYN076AAXX  25181 40829 32960 02904 10192 20013 39614 40171 51006 91750 333 55104;EQDQ01  00002PRCP99
0183408290999992000102600004+31320+061480FM-12+0489OIZB V0203301N003012200019N0100001N1+01541+00261101531ADDAA199000091GA1001+999999999GF100991001001999999001001MA1999999096081MD1810061+9999REMSYN070AAXX  26001 40829 32960 03303 10154 20026 39608 40153 58006 92350 333;EQDQ01  00002PRCP99
0201408290999992000102606004+31320+061480FM-12+0489OIZB V0203101N006012200019N0100001N1+02581+00421101901ADDAA124000091GA1001+999999999GF100991001001999999001001MA1999999096351MD1210101+9999REMSYN088AAXX  26061 40829 32960 03106 10258 20042 39635 40190 52010 90550 333 30013 50530 70000;EQDQ01  00002PRCP24
0179408290999992000102612004+31320+061480FM-12+0489OIZB V0209999C000012200019N0100001N1+03301+00381101521ADDAA199000091GA1001+999999999GF100991001001999999001001MA1999999096011MD1710291+9999REMSYN066AAXX  26121 40829 32960 00000 10330 20038 39601 40152 57029 91150;EQDQ01  00002PRCP99
0189408290999992000102618004+31320+061480FM-12+0489OIZB V0209999C000012200019N0100001N1+02341+00521101591ADDAA199000091GA1001+999999999GF100991001001999999001001MA1999999096061MD1110051+9999REMSYN076AAXX  26181 40829 32960 00000 10234 20052 39606 40159 51005 91750 333 55102;EQDQ01  00002PRCP99
0183408290999992000102700004+31320+061480FM-12+0489OIZB V0203201N004012200019N0100001N1+01501+00151101401ADDAA199000091GA1001+999999999GF100991001001999999001001MA1999999095921MD1810151+9999REMSYN070AAXX  27001 40829 32960 03204 10150 20015 39592 40140 58015 92350 333;EQDQ01  00002PRCP99
0153408290999992000102706004+31320+061480FM-12+0489OIZB V0203301N005012200019N0100001N1+02461+00141101701ADDAA199000091GA1001+999999999GF100991001001999999001001MA1999999096141REMSYN054AAXX  27061 40829 32960 03305 10246 20014 39614 40170;EQDQ01  00002PRCP99
0183408290999992000102712004+31320+061480FM-12+0489OIZB V0203001N004012200019N0100001N1+03161+00191101351ADDAA199000091GA1001+999999999GF100991001001999999001001MA1999999095821MD1710141+9999REMSYN070AAXX  27121 40829 32960 03004 10316 20019 39582 40135 57014 91150 333;EQDQ01  00002PRCP99
0189408290999992000102718004+31320+061480FM-12+0489OIZB V0209999C000012200019N0100001N1+02061+00061101401ADDAA199000091GA1001+999999999GF100991001001999999001001MA1999999095881MD1410001+9999REMSYN076AAXX  27181 40829 32960 00000 10206 20006 39588 40140 54000 91750 333 55093;EQDQ01  00002PRCP99
0179408290999992000102800004+31320+061480FM-12+0489OIZB V0203301N011012200019N0100001N1+01741-00121101451ADDAA199000091GA1001+999999999GF100991001001999999001001MA1999999095971MD1110031+9999REMSYN066AAXX  28001 40829 32960 03311 10174 21012 39597 40145 51003 92350;EQDQ01  00002PRCP99
0229408290999992000102806004+31320+061480FM-12+0489OIZB V0203101N009012200019N0070001N1+02341+00541101841ADDAA124000091AY101061AY201061GA1001+999999999GF100991001001999999001001MA1999999096281MD1210191+9999MW1071REMSYN094AAXX  28061 40829 31957 03109 10234 20054 39628 40184 52019 70700 90550 333 30008 50750 70000;EQDQ01  00002PRCP24
0183408290999992000102812004+31320+061480FM-12+0489OIZB V0203201N002012200019N0120001N1+03021+00251101401ADDAA199000091GA1001+999999999GF100991001001999999001001MA1999999095881MD1810141+9999REMSYN070AAXX  28121 40829 32962 03202 10302 20025 39588 40140 58014 91150 333;EQDQ01  00002PRCP99
0189408290999992000102818004+31320+061480FM-12+0489OIZB V0203201N003012200019N0100001N1+01641+00061101601ADDAA199000091GA1001+999999999GF100991001001999999001001MA1999999096011MD1110101+9999REMSYN076AAXX  28181 40829 32960 03203 10164 20006 39601 40160 51010 91750 333 55100;EQDQ01  00002PRCP99
0179408290999992000102900004+31320+061480FM-12+0489OIZB V0209999C000012200019N0100001N1+01041+00071101551ADDAA199000091GA1001+999999999GF100991001001999999001001MA1999999095971MD1110011+9999REMSYN066AAXX  29001 40829 32960 00000 10104 20007 39597 40155 51001 92350;EQDQ01  00002PRCP99
0201408290999992000102906004+31320+061480FM-12+0489OIZB V0203201N004012200019N0100001N1+02201+00591101821ADDAA124000091GA1001+999999999GF100991001001999999001001MA1999999096291MD1310111+9999REMSYN088AAXX  29061 40829 32960 03204 10220 20059 39629 40182 53011 90550 333 30008 50620 70000;EQDQ01  00002PRCP24
0189408290999992000102918004+31320+061480FM-12+0489OIZB V0209999C000012200019N0100001N1+01741+00341101551ADDAA199000091GA1001+999999999GF100991001001999999001001MA1999999095961MD1310071+9999REMSYN076AAXX  29181 40829 32960 00000 10174 20034 39596 40155 53007 91750 333 55099;EQDQ01  00002PRCP99
0183408290999992000103000004+31320+061480FM-12+0489OIZB V0203201N002012200019N0100001N1+01341+00081101561ADDAA199000091GA1001+999999999GF100991001001999999001001MA1999999096001MD1110031+9999REMSYN070AAXX  30001 40829 32960 03202 10134 20008 39600 40156 51003 92350 333;EQDQ01  00002PRCP99
0229408290999992000103006004+31320+061480FM-12+0489OIZB V0203401N013012200019N0015001N1+02401+00981101921ADDAA124000091AY101061AY201061GA1001+999999999GF100991001001999999001001MA1999999096341MD1210201+9999MW1071REMSYN094AAXX  30061 40829 31915 03413 10240 20098 39634 40192 52020 70700 90550 333 30010 50350 70000;EQDQ01  00002PRCP24
0183408290999992000103012004+31320+061480FM-12+0489OIZB V0203401N007012200019N0100001N1+02961+00681101261ADDAA199000091GA1001+999999999GF100991001001999999001001MA1999999095921MD1710211+9999REMSYN070AAXX  30121 40829 32960 03407 10296 20068 39592 40126 57021 91150 333;EQDQ01  00002PRCP99
0189408290999992000103018004+31320+061480FM-12+0489OIZB V0203201N007012200019N0100001N1+01941+00641101541ADDAA199000091GA1001+999999999GF100991001001999999001001MA1999999096031MD1310111+9999REMSYN076AAXX  30181 40829 32960 03207 10194 20064 39603 40154 53011 91750 333 55095;EQDQ01  00002PRCP99
0211408290999992000103100004+31320+061480FM-12+0489OIZB V0203301N012012200019N0080001N1+01701+00461101621ADDAA199000091AY101061AY201061GA1001+999999999GF100991001001999999001001MA1999999096101MD1110081+9999MW1071REMSYN076AAXX  31001 40829 31958 03312 10170 20046 39610 40162 51008 70700 92350 333;EQDQ01  00002PRCP99
0201408290999992000103106004+31320+061480FM-12+0489OIZB V0203101N007012200019N0100001N1+02161+00551101761ADDAA124000091GA1001+999999999GF100991001001999999001001MA1999999096171MD1210141+9999REMSYN088AAXX  31061 40829 32960 03107 10216 20055 39617 40176 52014 90550 333 30014 51410 70000;EQDQ01  00002PRCP24
0179408290999992000103112004+31320+061480FM-12+0489OIZB V0203201N006012200019N0100001N1+02761+00581101211ADDAA199000091GA1001+999999999GF100991001001999999001001MA1999999095671MD1610101+9999REMSYN066AAXX  31121 40829 32960 03206 10276 20058 39567 40121 56010 91150;EQDQ01  00002PRCP99
0189408290999992000103118004+31320+061480FM-12+0489OIZB V0203201N007012200019N0100001N1+01761+00361101291ADDAA199000091GA1001+999999999GF100991001001999999001001MA1999999095731MD1310061+9999REMSYN076AAXX  31181 40829 32960 03207 10176 20036 39573 40129 53006 91750 333 55084;EQDQ01  00002PRCP99
0183408290999992000110100004+31320+061480FM-12+0489OIZB V0203301N007012200019N0100001N1+01581+00101101301ADDAA199000091GA1001+999999999GF100991001001999999001001MA1999999095771MD1110011+9999REMSYN070AAXX  01001 40829 32960 03307 10158 20010 39577 40130 51001 92350 333;EQDQ01  00002PRCP99
0229408290999992000110106004+31320+061480FM-12+0489OIZB V0203301N011012200019N0060001N1+02161+00081101641ADDAA124000091AY101061AY201061GA1001+999999999GF100991001001999999001001MA1999999096031MD1110161+9999MW1071REMSYN094AAXX  01061 40829 31956 03311 10216 20008 39603 40164 51016 70700 90550 333 30013 50880 70000;EQDQ01  00002PRCP24
0211408290999992000110112004+31320+061480FM-12+0489OIZB V0203201N010012200019N0060001N1+02581+00241101331ADDAA199000091AY101061AY201061GA1001+999999999GF100991001001999999001001MA1999999095771MD1810101+9999MW1071REMSYN076AAXX  01121 40829 31956 03210 10258 20024 39577 40133 58010 70700 91150 333;EQDQ01  00002PRCP99
0179408290999992000110200004+31320+061480FM-12+0489OIZB V0203201N009012200019N0100001N1+01441+00101101571ADDAA199000091GA1001+999999999GF100991001001999999001001MA1999999095991MD1110021+9999REMSYN066AAXX  02001 40829 32960 03209 10144 20010 39599 40157 51002 92350;EQDQ01  00002PRCP99
0201408290999992000110206004+31320+061480FM-12+0489OIZB V0203201N006012200019N0100001N1+01921+00211101891ADDAA124000091GA1001+999999999GF100991001001999999001001MA1999999096291MD1310121+9999REMSYN088AAXX  02061 40829 32960 03206 10192 20021 39629 40189 53012 90550 333 30011 50700 70000;EQDQ01  00002PRCP24
0189408290999992000110218004+31320+061480FM-12+0489OIZB V0203201N003012200019N0100001N1+01481+00131101691ADDAA199000091GA1001+999999999GF100991001001999999001001MA1999999096041MD1310051+9999REMSYN076AAXX  02181 40829 32960 03203 10148 20013 39604 40169 53005 91750 333 55098;EQDQ01  00002PRCP99
0179408290999992000110300004+31320+061480FM-12+0489OIZB V0203401N004012200019N0100001N1+01341+00081101671ADDAA199000091GA1001+999999999GF100991001001999999001001MA1999999096081MD1110071+9999REMSYN066AAXX  03001 40829 32960 03404 10134 20008 39608 40167 51007 92350;EQDQ01  00002PRCP99
0213408290999992000110306004+31320+061480FM-12+0489OIZB V0203301N004012200019N0100001N1+02001+00191102001ADDAA124000091GA1011+012009059GF103991011041012501021001MA1999999096341MD1210111+9999REMSYN100AAXX  03061 40829 32660 33304 10200 20019 39634 40200 52011 81420 90550 333 30010 51140 70000 81640;EQDQ01  00002PRCP24
0179408290999992000110312004+31320+061480FM-12+0489OIZB V0209999C000012200019N0100001N1+02781+00401101531ADDAA199000091GA1001+999999999GF100991001001999999001001MA1999999095981MD1710171+9999REMSYN066AAXX  03121 40829 32960 00000 10278 20040 39598 40153 57017 91150;EQDQ01  00002PRCP99
0189408290999992000110318004+31320+061480FM-12+0489OIZB V0209999C000012200019N0100001N1+01761+00341101791ADDAA199000091GA1001+999999999GF100991001001999999001001MA1999999096111MD1310111+9999REMSYN076AAXX  03181 40829 32960 00000 10176 20034 39611 40179 53011 91750 333 55082;EQDQ01  00002PRCP99
0183408290999992000110400004+31320+061480FM-12+0489OIZB V0209999C000012200019N0100001N1+01301+00121101701ADDAA199000091GA1001+999999999GF100991001001999999001001MA1999999096171MD1410001+9999REMSYN070AAXX  04001 40829 32960 00000 10130 20012 39617 40170 54000 92350 333;EQDQ01  00002PRCP99
0207408290999992000110406004+31320+061480FM-12+0489OIZB V0203301N005012200019N0100001N1+02141+00111101991ADDAA124000091GF103991999001012501031001MA1999999096371MD1210101+9999REMSYN094AAXX  04061 40829 32660 33305 10214 20011 39637 40199 52010 81030 90550 333 30010 50810 70000;EQDQ01+000012SCOTLCQ02  00002PRCP24
0195408290999992000110412004+31320+061480FM-12+0489OIZB V0200301N005012200019N0100001N1+02721+00161101641ADDAA199000091GA1041+060009019GF104991001001999999001021MA1999999096051MD1610071+9999REMSYN082AAXX  04121 40829 32960 40305 10272 20016 39605 40164 56007 80002 91150 333 84070;EQDQ01  00002PRCP99
0209408290999992000110418004+31320+061480FM-12+0489OIZB V0209999C000012200019N0100001N1+01961+00371101721ADDAA199000091GA1031+030009079GF103991031001999999031001GJ104449MA1999999096151MD1610021+9999REMSYN088AAXX  04181 40829 32960 30000 10196 20037 39615 40172 56002 83030 91750 333 55074 83360;EQDQ01  00002PRCP99
0179408290999992000110500004+31320+061480FM-12+0489OIZB V0203201N007012200019N0100001N1+01781+00341101661ADDAA199000091GA1001+999999999GF100991001001999999001001MA1999999096121MD1110021+9999REMSYN066AAXX  05001 40829 32960 03207 10178 20034 39612 40166 51002 92350;EQDQ01  00002PRCP99
0229408290999992000110506004+31320+061480FM-12+0489OIZB V0203201N014012200019N0020001N1+02141+00451101881ADDAA124000091AY111061AY201061GA1001+999999999GF100991001001999999001001MA1999999096281MD1110091+9999MW1071REMSYN094AAXX  05061 40829 31920 03214 10214 20045 39628 40188 51009 70710 90550 333 30013 51060 70000;EQDQ01  00002PRCP24
0179408290999992000110512004+31320+061480FM-12+0489OIZB V0203301N006012200019N0100001N1+02641+00601101151ADDAA199000091GA1001+999999999GF100991001001999999001001MA1999999095821MD1710231+9999REMSYN066AAXX  05121 40829 32960 03306 10264 20060 39582 40115 57023 91150;EQDQ01  00002PRCP99
0189408290999992000110518004+31320+061480FM-12+0489OIZB V0203201N005012200019N0100001N1+01721+00421101511ADDAA199000091GA1001+999999999GF100991001001999999001001MA1999999095871MD1110021+9999REMSYN076AAXX  05181 40829 32960 03205 10172 20042 39587 40151 51002 91750 333 55090;EQDQ01  00002PRCP99
0183408290999992000110600004+31320+061480FM-12+0489OIZB V0203401N007012200019N0100001N1+01621+00391101131ADDAA199000091GA1001+999999999GF100991001001999999001001MA1999999095591MD1710161+9999REMSYN070AAXX  06001 40829 32960 03407 10162 20039 39559 40113 57016 92350 333;EQDQ01  00002PRCP99
0219408290999992000110606004+31320+061480FM-12+0489OIZB V0203201N008012200019N0100001N1+01941+00481101411ADDAA124000091GA1011+012009089GF104991011011012501031011MA1999999095811MD1310131+9999REMSYN106AAXX  06061 40829 32660 43208 10194 20048 39581 40141 53013 81131 90550 333 30013 50880 70000 81840 83360;EQDQ01  00002PRCP24
0163408290999992000110612004+31320+061480FM-12+0489OIZB V0201801N003012200019N0100001N1+02501+00821100731ADDAA199000091GF104991021011012501031011MA1999999095221MD1710231+9999REMSYN066AAXX  06121 40829 32660 41803 10250 20082 39522 40073 57023 82131;EQDQ01  00002PRCP99
0230408290999992000110618004+31320+061480FM-12+0489OIZB V0202701N00601036001CN0060001N1+01641+00961101021ADDAA106000191AY191061AY221061GA1021+009009079GF107991021071008001021001GJ104329MA1999999095411MD1310161+9999MW1601REMSYN106AAXX  06181 40829 11556 72706 10164 20096 39541 40102 53016 69911 76092 82720 91750 333 55072 82730 87559;
0216408290999992000110700004+31320+061480FM-12+0489OIZB V0203201N00501036001CN0080001N1+01281+01221101111ADDAA106002091AY161061AY261061GA1031+009009079GF108991031071008001021011MA1999999095481MD1110041+9999MW1621REMSYN100AAXX  07001 40829 11558 83205 10128 20122 39548 40111 51004 60021 76266 83721 92350 333 83730 88558;
0228408290999992000110706004+31320+061480FM-12+0489OIZB V0203401N010012200019N0100001N1+01501+00891101471ADDAA106000891AY161061AY221061GA1011+012009059GF101991011041012501001001MA1999999095821MD1210161+9999MW1011REMSYN112AAXX  07061 40829 11660 13410 10150 20089 39582 40147 52016 69971 70162 81400 90550 333 31010 51200 70032 81640;
0176408290999992000110712004+31320+061480FM-12+0489OIZB V0203101N006012200019N0100001N1+01861+00851101341ADDAA199000021GA1011+012009029GF101991011011012501001001MA1999999095701MD1610031+9999REMSYN082AAXX  07121 40829 32660 13106 10186 20085 39570 40134 56003 81100 91150 333 81840;
0189408290999992000110718004+31320+061480FM-12+0489OIZB V0203201N008012200019N0100001N1+01141+00441102051ADDAA199000091GA1001+999999999GF100991001001999999001001MA1999999096321MD1210401+9999REMSYN076AAXX  07181 40829 32960 03208 10114 20044 39632 40205 52040 91750 333 55084;EQDQ01  00002PRCP99
0179408290999992000110800004+31320+061480FM-12+0489OIZB V0203201N005012200019N0100001N1+00801+00521102061ADDAA199000091GA1001+999999999GF100991001001999999001001MA1999999096391MD1110051+9999REMSYN066AAXX  08001 40829 32960 03205 10080 20052 39639 40206 51005 92350;EQDQ01  00002PRCP99
0229408290999992000110806004+31320+061480FM-12+0489OIZB V0203201N005012200019N0070001N1+01441+00171102511ADDAA124000091AY101061AY201061GA1001+999999999GF100991001001999999001001MA1999999096741MD1110011+9999MW1071REMSYN094AAXX  08061 40829 31957 03205 10144 20017 39674 40251 51001 70700 90550 333 30006 50810 70000;EQDQ01  00002PRCP24
0183408290999992000110812004+31320+061480FM-12+0489OIZB V0203101N009012200019N0100001N1+01841+00061102271ADDAA199000091GA1001+999999999GF100991001001999999001001MA1999999096511MD1610031+9999REMSYN070AAXX  08121 40829 32960 03109 10184 20006 39651 40227 56003 91150 333;EQDQ01  00002PRCP99
0209408290999992000110818004+31320+061480FM-12+0489OIZB V0203201N006012200019N0100001N1+01141+00101102141ADDAA199000091GA1011+030009079GF101991011001999999031001GJ105109MA1999999096671MD1110031+9999REMSYN088AAXX  08181 40829 32960 13206 10114 20010 39667 40214 51003 81030 91750 333 55085 81360;EQDQ01  00002PRCP99
0149408290999992000110821004+31320+061480FM-12+0489OIZB V0203201N007012200019N0100001N1+01021+00131102411ADDGA1001+999999999GF100991001001999999001001MA1999999096661MD1510011+9999REMSYN066AAXX  08211 40829 42960 03207 10102 20013 39666 40241 55001 92050;
0179408290999992000110900004+31320+061480FM-12+0489OIZB V0202901N004012200019N0100001N1+00721-00011102381ADDAA199000091GA1001+999999999GF100991001001999999001001MA1999999096601MD1810061+9999REMSYN066AAXX  09001 40829 32960 02904 10072 21001 39660 40238 58006 92350;EQDQ01  00002PRCP99
0213408290999992000110906004+31320+061480FM-12+0489OIZB V0203201N006012200019N0100001N1+01461+00111102561ADDAA124000091GA1011+012009059GF103991011041012501031001MA1999999096801MD1110121+9999REMSYN100AAXX  09061 40829 32660 33206 10146 20011 39680 40256 51012 81430 90550 333 30007 50440 70000 81640;EQDQ01  00002PRCP24
0211408290999992000110912004+31320+061480FM-12+0489OIZB V0201201N004010600019N0100001N1+02021+00111102051ADDAA199000091GA1051+060009089GF105991999001999999001061MA1999999096301MD1810191+9999REMSYN082AAXX  09121 40829 32960 51204 10202 20011 39630 40205 58019 80006 91150 333 85270;EQDQ01+000002SCOTLCQ02  00002PRCP99
0241408290999992000110918004+31320+061480FM-12+0489OIZB V0202801N005010300019N0100001N1+01501+00121101142ADDAA199000091GA1051+030009019GF105991051001999999071999GJ105109MA1999999096421MD1110081+9999REMSYN088AAXX  09181 40829 32960 52805 10150 20012 39642 40114 51008 85070 91750 333 55085 85460;EQDQ01+000002SCOHCGQ02+101143APOSLPQ03  00002PRCP99
0201408290999992000111000004+31320+061480FM-12+0489OIZB V0203301N00601036001CN0100001N1+01321+00361101901ADDAA199000091GA1021+012009069GF107991021041012501021001MA1999999096241MD1610041+9999REMSYN088AAXX  10001 40829 32660 73306 10132 20036 39624 40190 56004 82420 92350 333 82640 87459;EQDQ01  00002PRCP99
0234408290999992000111006004+31320+061480FM-12+0489OIZB V0203201N00701036001CN0100001N1+01241+00931102021ADDAA106000191AY161061AY221061GA1021+012009069GF108991021041012501021999MA1999999096301MD1110061+9999MW1021REMSYN118AAXX  10061 40829 11660 83207 10124 20093 39630 40202 51006 69921 70262 8242/ 90550 333 31010 50510 70002 82640 88459;
0195408290999992000111012004+31320+061480FM-12+0489OIZB V0203401N007012200019N0100001N1+01621+00901101871ADDAA199000091GA1011+012009059GF101991011041012501001001MA1999999096181MD1610031+9999REMSYN082AAXX  10121 40829 32660 13407 10162 20090 39618 40187 56003 81400 91150 333 81640;EQDQ01  00002PRCP99
0189408290999992000111018004+31320+061480FM-12+0489OIZB V0203301N005012200019N0100001N1+01081+00831102371ADDAA199000091GA1001+999999999GF100991001001999999001001MA1999999096581MD1210241+9999REMSYN076AAXX  10181 40829 32960 03305 10108 20083 39658 40237 52024 91750 333 55033;EQDQ01  00002PRCP99
0201408290999992000111100004+31320+061480FM-12+0489OIZB V0203401N00501036001CN0100001N1+01101+00761102421ADDAA199000091GA1011+012009069GF107991011041012501021001MA1999999096661MD1110041+9999REMSYN088AAXX  11001 40829 32660 73405 10110 20076 39666 40242 51004 81420 92350 333 81640 86460;EQDQ01  00002PRCP99
0195408290999992000111106004+31320+061480FM-12+0489OIZB V0203201N004012200019N0100001N1+01401+00771102811ADDAA124000091GA1001+999999999GF100991001001999999001001MA1999999097001MD1210181+9999REMSYN082AAXX  11061 40829 32960 03204 10140 20077 39700 40281 52018 333 30008 50440 70000;EQDQ01  00002PRCP24
0183408290999992000111112004+31320+061480FM-12+0489OIZB V0203501N005012200019N0100001N1+01981+00721102351ADDAA199000091GA1001+999999999GF100991001001999999001001MA1999999096621MD1710131+9999REMSYN070AAXX  11121 40829 32960 03505 10198 20072 39662 40235 57013 91150 333;EQDQ01  00002PRCP99
0189408290999992000111118004+31320+061480FM-12+0489OIZB V0203201N009012200019N0100001N1+01321+00571102551ADDAA199000091GA1001+999999999GF100991001001999999001001MA1999999096801MD1310071+9999REMSYN076AAXX  11181 40829 32960 03209 10132 20057 39680 40255 53007 91750 333 55095;EQDQ01  00002PRCP99
0183408290999992000111200004+31320+061480FM-12+0489OIZB V0203301N006012200019N0100001N1+00981+00421102551ADDAA199000091GA1001+999999999GF100991001001999999001001MA1999999096821MD1110021+9999REMSYN070AAXX  12001 40829 32960 03306 10098 20042 39682 40255 51002 92350 333;EQDQ01  00002PRCP99
0201408290999992000111206004+31320+061480FM-12+0489OIZB V0203401N010012200019N0100001N1+01381+00181102861ADDAA124000091GA1001+999999999GF100991001001999999001001MA1999999097081MD1210201+9999REMSYN088AAXX  12061 40829 32960 03410 10138 20018 39708 40286 52020 90550 333 30006 50530 70000;EQDQ01  00002PRCP24
0189408290999992000111218004+31320+061480FM-12+0489OIZB V0203201N005012200019N0100001N1+00981-00101102591ADDAA199000091GA1001+999999999GF100991001001999999001001MA1999999096731MD1110091+9999REMSYN076AAXX  12181 40829 32960 03205 10098 21010 39673 40259 51009 91750 333 55096;EQDQ01  00002PRCP99
0183408290999992000111300004+31320+061480FM-12+0489OIZB V0203101N005012200019N0100001N1+00601-00181102341ADDAA199000091GA1001+999999999GF100991001001999999001001MA1999999096541MD1610081+9999REMSYN070AAXX  13001 40829 32960 03105 10060 21018 39654 40234 56008 92350 333;EQDQ01  00002PRCP99
0201408290999992000111306004+31320+061480FM-12+0489OIZB V0202801N004012200019N0100001N1+01361-00051102521ADDAA124000091GA1001+999999999GF100991001001999999001001MA1999999096731MD1110081+9999REMSYN088AAXX  13061 40829 32960 02804 10136 21005 39673 40252 51008 90550 333 30002 50440 70000;EQDQ01  00002PRCP24
0195408290999992000111312004+31320+061480FM-12+0489OIZB V0203201N003012200019N0100001N1+01901-00301102161ADDAA199000091GA1011+060009019GF101991001001999999001011MA1999999096341MD1810031+9999REMSYN082AAXX  13121 40829 32960 13203 10190 21030 39634 40216 58003 80001 91150 333 81070;EQDQ01  00002PRCP99
0189408290999992000111318004+31320+061480FM-12+0489OIZB V0209999C000012200019N0100001N1+00881-00321102041ADDAA199000091GA1001+999999999GF100991001001999999001001MA1999999096421MD1410001+9999REMSYN076AAXX  13181 40829 32960 00000 10088 21032 39642 40204 54000 91750 333 55098;EQDQ01  00002PRCP99
0213408290999992000111406004+31320+061480FM-12+0489OIZB V0203201N004012200019N0100001N1+01321-00081102421ADDAA124000091GA1011+060009019GF101991001001999999001011MA1999999096621MD1210151+9999REMSYN100AAXX  14061 40829 32960 13204 10132 21008 39662 40242 52015 80001 90550 333 30000 50530 70000 81070;EQDQ01  00002PRCP24
0195408290999992000111412004+31320+061480FM-12+0489OIZB V0202901N003012200019N0100001N1+01981-00681101991ADDAA199000091GA1031+060009019GF103991001001999999001021MA1999999096241MD1710151+9999REMSYN082AAXX  14121 40829 32960 32903 10198 21068 39624 40199 57015 80002 91150 333 83070;EQDQ01  00002PRCP99
0215408290999992000111418004+31320+061480FM-12+0489OIZB V0209999C000012200019N0100001N1+00921-00301102111ADDAA199000091GA1021+030009039GF104991021001999999031021GJ105529MA1999999096331MD1010091+9999REMSYN094AAXX  14181 40829 32960 40000 10092 21030 39633 40211 50009 82032 91750 333 55092 82360 83070;EQDQ01  00002PRCP99
0195408290999992000111500004+31320+061480FM-12+0489OIZB V0209999C000012200019N0100001N1+00441-00361102121ADDAA199000091GA1021+060009019GF102991001001999999001021MA1999999096221MD1010011+9999REMSYN082AAXX  15001 40829 32960 20000 10044 21036 39622 40212 50001 80002 92350 333 82070;EQDQ01  00002PRCP99
0195408290999992000111512004+31320+061480FM-12+0489OIZB V0203401N005012200019N0100001N1+02041-00141101901ADDAA199000091GA1041+060009019GF104991001001999999001021MA1999999096141MD1610031+9999REMSYN082AAXX  15121 40829 32960 43405 10204 21014 39614 40190 56003 80002 91150 333 84070;EQDQ01  00002PRCP99
0195408290999992000111912004+31320+061480FM-12+0489OIZB V0202901N004012200019N0100001N1+01721-00821102251ADDAA199000091GA1031+060009019GF103991001001999999001011MA1999999096401MD1710181+9999REMSYN082AAXX  19121 40829 32960 32904 10172 21082 39640 40225 57018 80001 91150 333 83070;EQDQ01  00002PRCP99
0209408290999992000111918004+31320+061480FM-12+0489OIZB V0202801N003010300019N0100001N1+01141-00321102211ADDAA199000091GA1051+030009079GF105991051001999999051001GJ105469MA1999999096461MD1810101+9999REMSYN088AAXX  19181 40829 32960 52803 10114 21032 39646 40221 58010 85050 91750 333 55091 85360;EQDQ01  00002PRCP99
0195408290999992000112000004+31320+061480FM-12+0489OIZB V0203201N004019999999N0100001N1+01241-00661102021ADDAA199000091GA1031+030009079GF106991061001999999051001MA1999999096231MD1610061+9999REMSYN082AAXX  20001 40829 32960 63204 10124 21066 39623 40202 56006 86050 92350 333 83360;EQDQ01  00002PRCP99
0173408290999992000112006004+31320+061480FM-12+0489OIZB V0203201N007010360019N0100001N1+01481-00931102341ADDAA199000091GF107991021041012501021001MA1999999096581MD1310171+9999REMSYN076AAXX  20061 40829 32660 73207 10148 21093 39658 40234 53017 82420 90550 333;EQDQ01  00002PRCP99
0189408290999992000112018004+31320+061480FM-12+0489OIZB V0202901N004012200019N0100001N1+00861-00671101991ADDAA199000091GA1001+999999999GF100991001001999999001001MA1999999096231MD1110051+9999REMSYN076AAXX  20181 40829 32960 02904 10086 21067 39623 40199 51005 91750 333 55031;EQDQ01  00002PRCP99
0179408290999992000112100004+31320+061480FM-12+0489OIZB V0203301N005012200019N0100001N1+00761-00901101771ADDAA199000091GA1001+999999999GF100991001001999999001001MA1999999096031MD1610051+9999REMSYN066AAXX  21001 40829 32960 03305 10076 21090 39603 40177 56005 92350;EQDQ01  00002PRCP99
0219408290999992000112106004+31320+061480FM-12+0489OIZB V0203201N00501036001CN0100001N1+01221-00401102011ADDAA124000091GA1021+012009089GF105991021011012501031001MA1999999096231MD1110071+9999REMSYN106AAXX  21061 40829 32660 53205 10122 21040 39623 40201 51007 82130 90550 333 30003 50530 70000 82840 83360;EQDQ01  00002PRCP24
0201408290999992000112112004+31320+061480FM-12+0489OIZB V0201201N00301036001CN0100001N1+01881-00461101581ADDAA199000091GA1011+012009089GF105991011011012501051001MA1999999095871MD1810151+9999REMSYN088AAXX  21121 40829 32660 51203 10188 21046 39587 40158 58015 81150 91150 333 81840 85360;EQDQ01  00002PRCP99
0189408290999992000112118004+31320+061480FM-12+0489OIZB V0203101N003012200019N0100001N1+00881-00581101751ADDAA199000091GA1001+999999999GF100991001001999999001001MA1999999095971MD1310061+9999REMSYN076AAXX  21181 40829 32960 03103 10088 21058 39597 40175 53006 91750 333 55079;EQDQ01  00002PRCP99
0183408290999992000112200004+31320+061480FM-12+0489OIZB V0203401N003012200019N0100001N1+00541-00521101611ADDAA199000091GA1001+999999999GF100991001001999999001001MA1999999095871MD1810071+9999REMSYN070AAXX  22001 40829 32960 03403 10054 21052 39587 40161 58007 92350 333;EQDQ01  00002PRCP99
0213408290999992000112206004+31320+061480FM-12+0489OIZB V0203301N003012200019N0100001N1+01401-00381101811ADDAA124000091GA1011+012009059GF102991011041012501031001MA1999999096051MD1210101+9999REMSYN100AAXX  22061 40829 32660 23303 10140 21038 39605 40181 52010 81430 90550 333 30002 50620 70000 81640;EQDQ01  00002PRCP24
0195408290999992000112212004+31320+061480FM-12+0489OIZB V0203401N005012200019N0100001N1+02041-00621101421ADDAA199000091GA1011+012009059GF101991011041012501001001MA1999999095721MD1810151+9999REMSYN082AAXX  22121 40829 32660 13405 10204 21062 39572 40142 58015 81400 91150 333 81640;EQDQ01  00002PRCP99
0189408290999992000112218004+31320+061480FM-12+0489OIZB V0203201N003012200019N0100001N1+01101+00351101661ADDAA199000091GA1001+999999999GF100991001001999999001001MA1999999095941MD1110071+9999REMSYN076AAXX  22181 40829 32960 03203 10110 20035 39594 40166 51007 91750 333 55085;EQDQ01  00002PRCP99
0183408290999992000112300004+31320+061480FM-12+0489OIZB V0209999C000012200019N0100001N1+00621-00121101641ADDAA199000091GA1001+999999999GF100991001001999999001001MA1999999095991MD1110021+9999REMSYN070AAXX  23001 40829 32960 00000 10062 21012 39599 40164 51002 92350 333;EQDQ01  00002PRCP99
0179408290999992000112312004+31320+061480FM-12+0489OIZB V0209999C000012200019N0100001N1+02101+00231101781ADDAA199000091GA1001+999999999GF100991001001999999001001MA1999999096071MD1610101+9999REMSYN066AAXX  23121 40829 32960 00000 10210 20023 39607 40178 56010 91150;EQDQ01  00002PRCP99
0189408290999992000112318004+31320+061480FM-12+0489OIZB V0209999C000012200019N0100001N1+01101+00221102051ADDAA199000091GA1001+999999999GF100991001001999999001001MA1999999096311MD1310061+9999REMSYN076AAXX  23181 40829 32960 00000 10110 20022 39631 40205 53006 91750 333 55091;EQDQ01  00002PRCP99
0183408290999992000112400004+31320+061480FM-12+0489OIZB V0209999C000012200019N0100001N1+00741+00041102211ADDAA199000091GA1001+999999999GF100991001001999999001001MA1999999096421MD1310051+9999REMSYN070AAXX  24001 40829 32960 00000 10074 20004 39642 40221 53005 92350 333;EQDQ01  00002PRCP99
0201408290999992000112406004+31320+061480FM-12+0489OIZB V0203101N004012200019N0100001N1+01581+00261102441ADDAA124000091GA1001+999999999GF100991001001999999001001MA1999999096671MD1310071+9999REMSYN088AAXX  24061 40829 32960 03104 10158 20026 39667 40244 53007 90550 333 30001 50530 70000;EQDQ01  00002PRCP24
0211408290999992000112412004+31320+061480FM-12+0489OIZB V0203201N002010600019N0100001N1+02081+00111102001ADDAA199000091GA1051+060009089GF105991999001999999001061MA1999999096281MD1710201+9999REMSYN082AAXX  24121 40829 32960 53202 10208 20011 39628 40200 57020 80006 91150 333 85270;EQDQ01+000002SCOTLCQ02  00002PRCP99
0189408290999992000112418004+31320+061480FM-12+0489OIZB V0202901N005012200019N0100001N1+01261-00141102211ADDAA199000091GA1001+999999999GF100991001001999999001001MA1999999096471MD1210131+9999REMSYN076AAXX  24181 40829 32960 02905 10126 21014 39647 40221 52013 91750 333 55080;EQDQ01  00002PRCP99
0183408290999992000112500004+31320+061480FM-12+0489OIZB V0203401N007012200019N0100001N1+01281+00211102041ADDAA199000091GA1001+999999999GF100991001001999999001001MA1999999096071MD1610031+9999REMSYN070AAXX  25001 40829 32960 03407 10128 20021 39607 40204 56003 92350 333;EQDQ01  00002PRCP99
0213408290999992000112506004+31320+061480FM-12+0489OIZB V0203301N007012200019N0100001N1+01701-00021102291ADDAA124000091GA1011+030009079GF101991011001999999031001MA1999999096571MD1310101+9999REMSYN100AAXX  25061 40829 32960 13307 10170 21002 39657 40229 53010 81030 90550 333 30006 50400 70000 81360;EQDQ01  00002PRCP24
0201408290999992000112512004+31320+061480FM-12+0489OIZB V0209999C000019999999N0100001N1+02141+00201101831ADDAA199000091GA1011+030009039GF107991011001999999031061MA1999999096181MD1810101+9999REMSYN088AAXX  25121 40829 32960 70000 10214 20020 39618 40183 58010 81036 91150 333 81360 86270;EQDQ01  00002PRCP99
0189408290999992000112518004+31320+061480FM-12+0489OIZB V0203101N003012200019N0100001N1+01021-00131101991ADDAA199000091GA1001+999999999GF100991001001999999001001MA1999999096261MD1310011+9999REMSYN076AAXX  25181 40829 32960 03103 10102 21013 39626 40199 53001 91750 333 55068;EQDQ01  00002PRCP99
0179408290999992000112600004+31320+061480FM-12+0489OIZB V0203101N004012200019N0100001N1+00761-00301101951ADDAA199000091GA1001+999999999GF100991001001999999001001MA1999999096231MD1810011+9999REMSYN066AAXX  26001 40829 32960 03104 10076 21030 39623 40195 58001 92350;EQDQ01  00002PRCP99
0201408290999992000112606004+31320+061480FM-12+0489OIZB V0203301N006012200019N0100001N1+01761-00161102251ADDAA124000091GA1001+999999999GF100991001001999999001001MA1999999096521MD1210181+9999REMSYN088AAXX  26061 40829 32960 03306 10176 21016 39652 40225 52018 90550 333 30004 50531 70000;EQDQ01  00002PRCP24
0183408290999992000112612004+31320+061480FM-12+0489OIZB V0203201N006012200019N0100001N1+02181-00361101891ADDAA199000091GA1001+999999999GF100991001001999999001001MA1999999096201MD1710101+9999REMSYN070AAXX  26121 40829 32960 03206 10218 21036 39620 40189 57010 91150 333;EQDQ01  00002PRCP99
0189408290999992000112618004+31320+061480FM-12+0489OIZB V0203201N004012200019N0100001N1+01241-00221102121ADDAA199000091GA1001+999999999GF100991001001999999001001MA1999999096371MD1210101+9999REMSYN076AAXX  26181 40829 32960 03204 10124 21022 39637 40212 52010 91750 333 55090;EQDQ01  00002PRCP99
0201408290999992000112706004+31320+061480FM-12+0489OIZB V0203201N010012200019N0100001N1+01601-00081102561ADDAA124000091GA1001+999999999GF100991001001999999001001MA1999999096801MD1210161+9999REMSYN088AAXX  27061 40829 32960 03210 10160 21008 39680 40256 52016 90550 333 30001 50350 70000;EQDQ01  00002PRCP24
0195408290999992000112712004+31320+061480FM-12+0489OIZB V0203401N006012200019N0100001N1+01961-00401102211ADDAA199000091GA1021+060009019GF102991001001999999001021MA1999999096451MD1710121+9999REMSYN082AAXX  27121 40829 32960 23406 10196 21040 39645 40221 57012 80002 91150 333 82070;EQDQ01  00002PRCP99
0189408290999992000112718004+31320+061480FM-12+0489OIZB V0209999C000012200019N0100001N1+01121-00341102241ADDAA199000091GA1001+999999999GF100991001001999999001001MA1999999096511MD1310041+9999REMSYN076AAXX  27181 40829 32960 00000 10112 21034 39651 40224 53004 91750 333 55093;EQDQ01  00002PRCP99
0183408290999992000112800004+31320+061480FM-12+0489OIZB V0209999C000012200019N0100001N1+00741-00341102221ADDAA199000091GA1001+999999999GF100991001001999999001001MA1999999096491MD1410001+9999REMSYN070AAXX  28001 40829 32960 00000 10074 21034 39649 40222 54000 92350 333;EQDQ01  00002PRCP99
0183408290999992000112812004+31320+061480FM-12+0489OIZB V0201201N003012200019N0100001N1+02021-00281102031ADDAA199000091GA1001+999999999GF100991001001999999001001MA1999999096291MD1810141+9999REMSYN070AAXX  28121 40829 32960 01203 10202 21028 39629 40203 58014 91150 333;EQDQ01  00002PRCP99
0189408290999992000112818004+31320+061480FM-12+0489OIZB V0209999C000012200019N0100001N1+00881-00121102161ADDAA199000091GA1001+999999999GF100991001001999999001001MA1999999096371MD1310081+9999REMSYN076AAXX  28181 40829 32960 00000 10088 21012 39637 40216 53008 91750 333 55095;EQDQ01  00002PRCP99
0179408290999992000112900004+31320+061480FM-12+0489OIZB V0203201N002012200019N0100001N1+00601-00561102251ADDAA199000091GA1001+999999999GF100991001001999999001001MA1999999096491MD1110021+9999REMSYN066AAXX  29001 40829 32960 03202 10060 21056 39649 40225 51002 92350;EQDQ01  00002PRCP99
0217408290999992000112918004+31320+061480FM-12+0489OIZB V0203101N010012200019N0080001N1+01121+00001102791ADDAA199000091AY101061AY201061GA1001+999999999GF100991001001999999001001MA1999999096981MD1110131+9999MW1071REMSYN082AAXX  29181 40829 31958 03110 10112 20000 39698 40279 51013 70700 91750 333 55095;EQDQ01  00002PRCP99
0211408290999992000113000004+31320+061480FM-12+0489OIZB V0203201N013012200019N0070001N1+00821-00021102761ADDAA199000091AY101061AY201061GA1001+999999999GF100991001001999999001001MA1999999096971MD1410001+9999MW1071REMSYN076AAXX  30001 40829 31957 03213 10082 21002 39697 40276 54000 70700 92350 333;EQDQ01  00002PRCP99
0201408290999992000113006004+31320+061480FM-12+0489OIZB V0203101N004012200019N0100001N1+01281+00021103041ADDAA124000091GA1001+999999999GF100991001001999999001001MA1999999097221MD1210171+9999REMSYN088AAXX  30061 40829 32960 03104 10128 20002 39722 40304 52017 90550 333 30005 50700 70000;EQDQ01  00002PRCP24
0183408290999992000113012004+31320+061480FM-12+0489OIZB V0203301N006012200019N0100001N1+01761-00321102631ADDAA199000091GA1001+999999999GF100991001001999999001001MA1999999096861MD1710151+9999REMSYN070AAXX  30121 40829 32960 03306 10176 21032 39686 40263 57015 91150 333;EQDQ01  00002PRCP99
0189408290999992000113018004+31320+061480FM-12+0489OIZB V0209999C000012200019N0100001N1+00841-00271102821ADDAA199000091GA1001+999999999GF100991001001999999001001MA1999999096991MD1310081+9999REMSYN076AAXX  30181 40829 32960 00000 10084 21027 39699 40282 53008 91750 333 55095;EQDQ01  00002PRCP99
0179408290999992000120100004+31320+061480FM-12+0489OIZB V0209999C000012200019N0100001N1+00341-00321102761ADDAA199000091GA1001+999999999GF100991001001999999001001MA1999999096811MD1410001+9999REMSYN066AAXX  01001 40829 32960 00000 10034 21032 39681 40276 54000 92350;EQDQ01  00002PRCP99
0201408290999992000120106004+31320+061480FM-12+0489OIZB V0209999C000012200019N0100001N1+01181-00211102891ADDAA124000091GA1001+999999999GF100991001001999999001001MA1999999096991MD1310091+9999REMSYN088AAXX  01061 40829 32960 00000 10118 21021 39699 40289 53009 90550 333 30104 50530 70000;EQDQ01  00002PRCP24
0179408290999992000120112004+31320+061480FM-12+0489OIZB V0200901N003012200019N0100001N1+01921-00421102181ADDAA199000091GA1001+999999999GF100991001001999999001001MA1999999096391MD1710201+9999REMSYN066AAXX  01121 40829 32960 00903 10192 21042 39639 40218 57020 91150;EQDQ01  00002PRCP99
0189408290999992000120118004+31320+061480FM-12+0489OIZB V0203301N003012200019N0100001N1+00841+00021102241ADDAA199000091GA1001+999999999GF100991001001999999001001MA1999999096431MD1410001+9999REMSYN076AAXX  01181 40829 32960 03303 10084 20002 39643 40224 54000 91150 333 55083;EQDQ01  00002PRCP99
0183408290999992000120200004+31320+061480FM-12+0489OIZB V0203301N004012200019N0100001N1+00261-00681102121ADDAA199000091GA1001+999999999GF100991001001999999001001MA1999999096341MD1410001+9999REMSYN070AAXX  02001 40829 32960 03304 10026 21068 39634 40212 54000 92530 333;EQDQ01  00002PRCP99
0219408290999992000120206004+31320+061480FM-12+0489OIZB V0200601N003012200019N0100001N1+01201-00601102361ADDAA124000091GA1011+030009039GF103991011001999999031021MA1999999096551MD1110131+9999REMSYN106AAXX  02061 40829 32960 30603 10120 21060 39655 40236 51013 81032 90550 333 31002 50400 70000 81360 83070;EQDQ01  00002PRCP24
0201408290999992000120212004+31320+061480FM-12+0489OIZB V0200301N006012200019N0100001N1+02001-00361101921ADDAA199000091GA1011+012009089GF104991011011012501031011MA1999999096151MD1810131+9999REMSYN088AAXX  02121 40829 32660 40306 10200 21036 39615 40192 58013 81131 91150 333 81840 83360;EQDQ01  00002PRCP99
0189408290999992000120218004+31320+061480FM-12+0489OIZB V0203001N004012200019N0100001N1+00881-00651102201ADDAA199000091GA1001+999999999GF100991001001999999001001MA1999999096391MD1210141+9999REMSYN076AAXX  02181 40829 32960 03004 10088 21065 39639 40220 52014 91750 333 55088;EQDQ01  00002PRCP99
0179408290999992000120300004+31320+061480FM-12+0489OIZB V0203401N004012200019N0100001N1+00741-00291102111ADDAA199000091GA1001+999999999GF100991001001999999001001MA1999999096381MD1610021+9999REMSYN066AAXX  03001 40829 32960 03404 10074 21029 39638 40211 56002 92350;EQDQ01  00002PRCP99
0213408290999992000120306004+31320+061480FM-12+0489OIZB V0203201N003012200019N0100001N1+01341+00081102541ADDAA124000091GA1011+060009019GF101991001001999999001011MA1999999096741MD1310181+9999REMSYN100AAXX  03061 40829 32960 13203 10134 20008 39674 40254 53018 80001 90550 333 30003 50270 70000 81070;EQDQ01  00002PRCP24
0179408290999992000120312004+31320+061480FM-12+0489OIZB V0209999C000012200019N0100001N1+02081+00011102051ADDAA199000091GA1001+999999999GF100991001001999999001001MA1999999096331MD1810161+9999REMSYN066AAXX  03121 40829 32960 00000 10208 20001 39633 40205 58016 91150;EQDQ01  00002PRCP99
0189408290999992000120318004+31320+061480FM-12+0489OIZB V0209999C000012200019N0100001N1+00861-00141102341ADDAA199000091GA1001+999999999GF100991001001999999001001MA1999999096531MD1210201+9999REMSYN076AAXX  03181 40829 32960 00000 10086 21014 39653 40234 52020 91750 333 55082;EQDQ01  00002PRCP99
0183408290999992000120400004+31320+061480FM-12+0489OIZB V0209999C000012200019N0100001N1+00661-00061102211ADDAA199000091GA1001+999999999GF100991001001999999001001MA1999999096451MD1810031+9999REMSYN070AAXX  04001 40829 32960 00000 10066 21006 39645 40221 58003 92350 333;EQDQ01  00002PRCP99
0213408290999992000120406004+31320+061480FM-12+0489OIZB V0203401N003012200019N0100001N1+01761+00421102561ADDAA124000091GA1011+012009059GF103991011041012501031001MA1999999096791MD1110151+9999REMSYN100AAXX  04061 40829 32660 33403 10176 20042 39679 40256 51015 81430 90550 333 30002 50750 70000 81640;EQDQ01  00002PRCP24
0183408290999992000120412004+31320+061480FM-12+0489OIZB V0203401N008012200019N0100001N1+02181+00291102231ADDAA199000091GA1001+999999999GF100991001001999999001001MA1999999096491MD1710161+9999REMSYN070AAXX  04121 40829 32960 03408 10218 20029 39649 40223 57016 91150 333;EQDQ01  00002PRCP99
0189408290999992000120418004+31320+061480FM-12+0489OIZB V0203201N009012200019N0100001N1+01341+00261102401ADDAA199000091GA1001+999999999GF100991001001999999001001MA1999999096701MD1110091+9999REMSYN076AAXX  04181 40829 32960 03209 10134 20026 39670 40240 51009 91750 333 55084;EQDQ01  00002PRCP99
0213408290999992000120506004+31320+061480FM-12+0489OIZB V0203201N005012200019N0100001N1+01221+00291102701ADDAA124000091GA1031+030009079GF103991031001999999031001MA1999999096111MD1210141+9999REMSYN100AAXX  05061 40829 32960 33205 10122 20029 39611 40270 52014 83030 90550 333 30006 50530 70000 83360;EQDQ01  00002PRCP24
0195408290999992000120512004+31320+061480FM-12+0489OIZB V0203301N004012200019N0100001N1+01801+00151102211ADDAA199000091GA1031+060009019GF103991001001999999001021MA1999999096471MD1710171+9999REMSYN082AAXX  05121 40829 32960 33304 10180 20015 39647 40221 57017 80002 91150 333 83070;EQDQ01  00002PRCP99
0201408290999992000120518004+31320+061480FM-12+0489OIZB V0203301N007010300019N0100001N1+00961+00071102371ADDAA199000091GA1051+030009079GF105991051001999999051001MA1999999096581MD1110031+9999REMSYN088AAXX  05181 40829 32960 53307 10096 20007 39658 40237 51003 85050 91750 333 55/// 85360;EQDQ01  00002PRCP99
0183408290999992000120600004+31320+061480FM-12+0489OIZB V0203301N004012200019N0100001N1+00701+00061102151ADDAA199000091GA1001+999999999GF100991001001999999001001MA1999999096401MD1710131+9999REMSYN070AAXX  06001 40829 32960 03304 10070 20006 39640 40215 57013 92350 333;EQDQ01  00002PRCP99
0213408290999992000120606004+31320+061480FM-12+0489OIZB V0203201N004012200019N0100001N1+01261+00141102251ADDAA124000091GA1011+012009059GF103991011041012501031001MA1999999096461MD1310041+9999REMSYN100AAXX  06061 40829 32660 33204 10126 20014 39646 40225 53004 81430 90550 333 30002 50700 70000 81640;EQDQ01  00002PRCP24
0215408290999992000120618004+31320+061480FM-12+0489OIZB V0203301N01001036001CN0100001N1+01261+00401101971ADDAA199000091GA1021+010509069GF107991021041012501021001GJ104209MA1999999096231MD1210281+9999REMSYN094AAXX  06181 40829 32660 73310 10126 20040 39623 40197 52028 82420 91750 333 55070 82635 87459;EQDQ01  00002PRCP99
0184408290999992000120700004+31320+061480FM-12+0489OIZB V0203301N004010360019N0100001N1+00701+00061102151ADDAA106000191AY161061AY221061GF106991031041012501021001MA1999999096401MD1710131+9999MW1011REMSYN084AAXX  07001 40829 11660 63304 10070 20006 39640 40215 57013 69921 70162 83420 92350;
0194408290999992000120706004+31320+061480FM-12+0489OIZB V0203201N007012200019N0100001N1+01301+00481102411ADDAA124000391GA1021+030009079GF102991021001999999031001MA1999999096701MD1310211+9999REMSYN100AAXX  07061 40829 32960 23207 10130 20048 39670 40241 53021 82030 90550 333 30005 50260 70002 82360;
0179408290999992000120712004+31320+061480FM-12+0489OIZB V0203201N005012200019N0100001N1+01681+00281102181ADDAA199000091GA1001+999999999GF100991001001999999001001MA1999999096411MD1610081+9999REMSYN066AAXX  07121 40829 32960 03205 10168 20028 39641 40218 56008 91150;EQDQ01  00002PRCP99
0189408290999992000120718004+31320+061480FM-12+0489OIZB V0209999C000012200019N0100001N1+00681+00221102371ADDAA199000091GA1001+999999999GF100991001001999999001001MA1999999096521MD1310031+9999REMSYN076AAXX  07181 40829 32960 00000 10068 20022 39652 40237 53003 91750 333 55092;EQDQ01  00002PRCP99
0179408290999992000120800004+31320+061480FM-12+0489OIZB V0203201N003012200019N0100001N1+00461+00111102171ADDAA199000091GA1001+999999999GF100991001001999999001001MA1999999096371MD1810091+9999REMSYN066AAXX  08001 40829 32960 03203 10046 20011 39637 40217 58009 92350;EQDQ01  00002PRCP99
0219408290999992000120806004+31320+061480FM-12+0489OIZB V0203201N00201036001CN0100001N1+00981+00311102531ADDAA124000091GA1021+012009069GF105991021041012501031001MA1999999096651MD1210161+9999REMSYN106AAXX  08061 40829 32660 53202 10098 20031 39665 40253 52016 82430 90550 333 30000 50530 70000 82640 83360;EQDQ01  00002PRCP24
0183408290999992000120812004+31320+061480FM-12+0489OIZB V0209999C000012200019N0100001N1+01681+00281102091ADDAA199000091GA1001+999999999GF100991001001999999001001MA1999999096311MD1710121+9999REMSYN070AAXX  08121 40829 32960 00000 10168 20028 39631 40209 57012 91150 333;EQDQ01  00002PRCP99
0189408290999992000120818004+31320+061480FM-12+0489OIZB V0209999C000012200019N0100001N1+00901+00181102331ADDAA199000091GA1001+999999999GF100991001001999999001001MA1999999096501MD1110091+9999REMSYN076AAXX  08181 40829 32960 00000 10090 20018 39650 40233 51009 91750 333 55074;EQDQ01  00002PRCP99
0179408290999992000120900004+31320+061480FM-12+0489OIZB V0209999C000012200019N0100001N1+00541+00121102301ADDAA199000091GA1001+999999999GF100991001001999999001001MA1999999096471MD1510031+9999REMSYN066AAXX  09001 40829 32960 00000 10054 20012 39647 40230 55003 92350;EQDQ01  00002PRCP99
0219408290999992000120906004+31320+061480FM-12+0489OIZB V0209999C000019999999N0100001N1+01141+00321102521ADDAA124000091GA1011+012009069GF105991011041999999031001MA1999999096691MD1210131+9999REMSYN106AAXX  09061 40829 32960 50000 10114 20032 39669 40252 52013 81430 90550 333 30000 50440 70000 81640 84360;EQDQ01  00002PRCP24
0189408290999992000120912004+31320+061480FM-12+0489OIZB V0209999C000012200019N0100001N1+01781+00331102071ADDAA199000091GA1031+060009019GF103991001001999999021999MA1999999096301MD1710191+9999REMSYN076AAXX  09121 40829 32960 30000 10178 20033 39630 40207 57019 8002/ 333 83070;EQDQ01  00002PRCP99
0215408290999992000120918004+31320+061480FM-12+0489OIZB V0203301N00801036001CN0100001N1+01241+00111102271ADDAA199000091GA1021+012009069GF107991021041012501021001GJ103069MA1999999096501MD1110021+9999REMSYN094AAXX  09181 40829 32660 73308 10124 20011 39650 40227 51002 82420 91750 333 55051 82640 87466;EQDQ01  00002PRCP99
0201408290999992000121000004+31320+061480FM-12+0489OIZB V0203401N01001036001CN0100001N1+00961+00291102251ADDAA199000091GA1021+012009069GF107991021041012501021001MA1999999096521MD1610031+9999REMSYN088AAXX  10001 40829 32660 73410 10096 20029 39652 40225 56003 82420 92350 333 82640 87460;EQDQ01  00002PRCP99
0219408290999992000121006004+31320+061480FM-12+0489OIZB V0203201N01401220001CN0070001N1+01061+00321102621ADDAA124000091GA1011+012009069GF106991011041012501001061MA1999999096801MD1210221+9999REMSYN106AAXX  10061 40829 31657 63214 10106 20032 39680 40262 52022 81406 90550 333 30008 50620 70000 81640 86270;EQDQ01  00002PRCP24
0239408290999992000121012004+31320+061480FM-12+0489OIZB V0203401N009010600019N0080001N1+01361+00371102341ADDAA199000091AY121061AY221061GA1061+060009089GF106991999001999999001061MA1999999096541MD1710051+9999MW1071REMSYN088AAXX  10121 40829 31958 63409 10136 20037 39654 40234 57005 70722 80006 91150 333 86270;EQDQ01+000002SCOTLCQ02  00002PRCP99
0225408290999992000121018004+31320+061480FM-12+0489OIZB V0203101N007012200019N0100001N1+00921+00171102521ADDAA199000091GA1031+030009019GF103991031001999999021999GJ101809MA1999999096691MD1110041+9999REMSYN088AAXX  10181 40829 32960 33107 10092 20017 39669 40252 51004 83020 91750 333 55030 83460;EQDQ01+000002SCOHCGQ02  00002PRCP99
0211408290999992000121100004+31320+061480FM-12+0489OIZB V0203301N008012200019N0100001N1+00781+00071102361ADDAA199000091GA1031+030009019GF103991031001999999021999MA1999999096561MD1610081+9999REMSYN082AAXX  11001 40829 32960 33308 10078 20007 39656 40236 56008 83020 92350 333 83460;EQDQ01+000002SCOHCGQ02  00002PRCP99
0195408290999992000121112004+31320+061480FM-12+0489OIZB V0200901N003012200019N0100001N1+01641+00351101791ADDAA199000091GA1021+030009079GF103991021001999999031021MA1999999096051MD1810241+9999REMSYN082AAXX  11121 40829 32960 30903 10164 20035 39605 40179 58024 82032 91150 333 82360;EQDQ01  00002PRCP99
0215408290999992000121118004+31320+061480FM-12+0489OIZB V0209999C00001036001CN0100001N1+01221+00301101701ADDAA199000091GA1011+012009069GF106991011041012501021001GJ103129MA1999999095951MD1810101+9999REMSYN094AAXX  11181 40829 32660 60000 10122 20030 39595 40170 58010 81420 91750 333 55052 81640 86460;EQDQ01  00002PRCP99
0201408290999992000121206004+31320+061480FM-12+0489OIZB V0209999C000012200019N0100001N1+01541+00391101631ADDAA124000091GA1001+999999999GF100991001001999999001001MA1999999095941MD1210121+9999REMSYN088AAXX  12061 40829 32960 00000 10154 20039 39594 40163 52012 90550 333 30006 50350 70000;EQDQ01  00002PRCP24
0195408290999992000121212004+31320+061480FM-12+0489OIZB V0200901N004012200019N0100001N1+02181+00301101241ADDAA199000091GA1011+030009079GF101991011001999999031001MA1999999095601MD1710091+9999REMSYN082AAXX  12121 40829 32960 10904 10218 20030 39560 40124 57009 81030 91150 333 81360;EQDQ01  00002PRCP99
0209408290999992000121218004+31320+061480FM-12+0489OIZB V0203201N004012200019N0100001N1+01341+00201101451ADDAA199000091GA1041+030009079GF104991041001999999051001GJ104329MA1999999095871MD1110151+9999REMSYN088AAXX  12181 40829 32960 43204 10134 20020 39587 40145 51015 84050 91750 333 55072 84360;EQDQ01  00002PRCP99
0179408290999992000121300004+31320+061480FM-12+0489OIZB V0203201N005012200019N0100001N1+00921+00501101561ADDAA199000091GA1001+999999999GF100991001001999999001001MA1999999095931MD1410001+9999REMSYN066AAXX  13001 40829 32960 03205 10092 20050 39593 40156 54000 92350;EQDQ01  00002PRCP99
0209408290999992000121318004+31320+061480FM-12+0489OIZB V0203201N003012200019N0100001N1+01241+00361101811ADDAA199000091GA1031+030009079GF103991031001999999031001GJ104449MA1999999096101MD1210051+9999REMSYN088AAXX  13181 40829 32960 33203 10124 20036 39610 40181 52005 83030 91750 333 55074 83360;EQDQ01  00002PRCP99
0195408290999992000121400004+31320+061480FM-12+0489OIZB V0203301N006012200019N0100001N1+00921+00171101691ADDAA199000091GA1011+060009019GF101991001001999999001011MA1999999096011MD1610041+9999REMSYN082AAXX  14001 40829 32960 13306 10092 20017 39601 40169 56004 80001 92350 333 81070;EQDQ01  00002PRCP99
0211408290999992000121412004+31320+061480FM-12+0489OIZB V0209999C000010600019N0100001N1+01981+00391101541ADDAA199000091GA1061+060009089GF106991999001999999001061MA1999999095741MD1810121+9999REMSYN082AAXX  14121 40829 32960 60000 10198 20039 39574 40154 58012 80006 91150 333 86270;EQDQ01+000002SCOTLCQ02  00002PRCP99
0225408290999992000121418004+31320+061480FM-12+0489OIZB V0209999C000010600019N0100001N1+01161+00391101471ADDAA199000091GA1061+060009089GF106991999001999999001061GJ103729MA1999999095751MD1610031+9999REMSYN088AAXX  14181 40829 32960 60000 10116 20039 39575 40147 56003 80006 91750 333 55062 86270;EQDQ01+000002SCOTLCQ02  00002PRCP99
0195408290999992000121500004+31320+061480FM-12+0489OIZB V0209999C000012200019N0100001N1+00801+00071101321ADDAA199000091GA1031+060009019GF103991001001999999001021MA1999999095651MD1610071+9999REMSYN082AAXX  15001 40829 32960 30000 10080 20007 39565 40132 56007 80002 92350 333 83070;EQDQ01  00002PRCP99
0195408290999992000121512004+31320+061480FM-12+0489OIZB V0209999C000010240019N0100001N1+01541+00321101351ADDAA199000091GA1081+024009019GF108991081001999999021999MA1999999095621MD1110051+9999REMSYN082AAXX  15121 40829 32960 80000 10154 20032 39562 40135 51005 8802/ 91150 333 88458;EQDQ01  00002PRCP99
0216408290999992000121600004+31320+061480FM-12+0489OIZB V0201401N00301036001CN0100001N1+01281+00981100961ADDAA106000891AY161061AY221061GA1011+010509079GF108991011071012501021999MA1999999095271MD1810141+9999MW1021REMSYN100AAXX  16001 40829 11660 81403 10128 20098 39527 40096 58014 69981 70262 8172/ 92350 333 81735 88459;
0194408290999992000121606004+31320+061480FM-12+0489OIZB V0202401N004012200019N0100001N1+01601+00961101301ADDAA124001891GA1011+012009059GF101991011041012501001001MA1999999095621MD1210271+9999REMSYN100AAXX  16061 40829 32660 12404 10160 20096 39562 40130 52027 81400 90550 333 31009 50210 70019 81640;
0201408290999992000121612004+31320+061480FM-12+0489OIZB V0202801N008012200019N0100001N1+01901-00041101221ADDAA199000091GA1011+012009089GF104991011011012501031001MA1999999095591MD1110071+9999REMSYN088AAXX  16121 40829 32660 42808 10190 21004 39559 40122 51007 81130 91150 333 81840 83360;EQDQ01  00002PRCP99
0189408290999992000121618004+31320+061480FM-12+0489OIZB V0202701N003012200019N0100001N1+00941+00001101951ADDAA199000091GA1001+999999999GF100991001001999999001001MA1999999096221MD1210221+9999REMSYN076AAXX  16181 40829 32960 02703 10094 20000 39622 40195 52022 91750 333 55074;EQDQ01  00002PRCP99
0179408290999992000121700004+31320+061480FM-12+0489OIZB V0202801N005012200019N0100001N1+00541+00221102161ADDAA199000091GA1001+999999999GF100991001001999999001001MA1999999096561MD1310121+9999REMSYN066AAXX  17001 40829 32960 02805 10054 20022 39656 40216 53012 92350;EQDQ01  00002PRCP99
0201408290999992000121706004+31320+061480FM-12+0489OIZB V0203301N008012200019N0100001N1+01081+00391103021ADDAA124000091GA1001+999999999GF100991001001999999001001MA1999999097161MD1210301+9999REMSYN088AAXX  17061 40829 32960 03308 10108 20039 39716 40302 52030 90550 333 30001 50530 70000;EQDQ01  00002PRCP24
0189408290999992000121718004+31320+061480FM-12+0489OIZB V0203301N003012200019N0100001N1+00741-00141102891ADDAA199000091GA1001+999999999GF100991001001999999001001MA1999999097021MD1110031+9999REMSYN076AAXX  17181 40829 32960 03303 10074 21014 39702 40289 51003 91750 333 55083;EQDQ01  00002PRCP99
0183408290999992000121800004+31320+061480FM-12+0489OIZB V0202501N003012200019N0100001N1+00181-00271102811ADDAA199000091GA1001+999999999GF100991001001999999001001MA1999999096921MD1710061+9999REMSYN070AAXX  18001 40829 32960 02503 10018 21027 39692 40281 57006 92350 333;EQDQ01  00002PRCP99
0201408290999992000121806004+31320+061480FM-12+0489OIZB V0203101N003012200019N0100001N1+00961+00121103131ADDAA124000091GA1001+999999999GF100991001001999999001001MA1999999097201MD1210201+9999REMSYN088AAXX  18061 40829 32960 03103 10096 20012 39720 40313 52020 90550 333 30105 50530 70000;EQDQ01  00002PRCP24
0183408290999992000121812004+31320+061480FM-12+0489OIZB V0203401N003012200019N0100001N1+01501+00151102701ADDAA199000091GA1001+999999999GF100991001001999999001001MA1999999096811MD1810081+9999REMSYN070AAXX  18121 40829 32960 03403 10150 20015 39681 40270 58008 91150 333;EQDQ01  00002PRCP99
0189408290999992000121818004+31320+061480FM-12+0489OIZB V0209999C000012200019N0010001N1+00561-00171102881ADDAA199000091GA1001+999999999GF100991001001999999001001MA1999999096881MD1110031+9999REMSYN076AAXX  18181 40829 32910 00000 10056 21017 39688 40288 51003 91750 333 55090;EQDQ01  00002PRCP99
0183408290999992000121900004+31320+061480FM-12+0489OIZB V0209999C000012200019N0100001N1+00101-00481102601ADDAA199000091GA1001+999999999GF100991001001999999001001MA1999999096721MD1710081+9999REMSYN070AAXX  19001 40829 32960 00000 10010 21048 39672 40260 57008 92350 333;EQDQ01  00002PRCP99
0201408290999992000121906004+31320+061480FM-12+0489OIZB V0209999C000012200019N0100001N1+00941+00051102851ADDAA124000091GA1001+999999999GF100991001001999999001001MA1999999096961MD1310141+9999REMSYN088AAXX  19061 40829 32960 00000 10094 20005 39696 40285 53014 90550 333 30102 50260 70000;EQDQ01  00002PRCP24
0183408290999992000121912004+31320+061480FM-12+0489OIZB V0201201N003012200019N0100001N1+01601-00201102271ADDAA199000091GA1001+999999999GF100991001001999999001001MA1999999096521MD1810031+9999REMSYN070AAXX  19121 40829 32960 01203 10160 21020 39652 40227 58003 91150 333;EQDQ01  00002PRCP99
0189408290999992000121918004+31320+061480FM-12+0489OIZB V0209999C000012200019N0100001N1+00381-00411102531ADDAA199000091GA1001+999999999GF100991001001999999001001MA1999999096621MD1310031+9999REMSYN076AAXX  19181 40829 32960 00000 10038 21041 39662 40253 53003 91750 333 55091;EQDQ01  00002PRCP99
0183408290999992000122000004+31320+061480FM-12+0489OIZB V0209999C000012200019N0100001N1-00061-00621102401ADDAA199000091GA1001+999999999GF100991001001999999001001MA1999999096531MD1810041+9999REMSYN070AAXX  20001 40829 32960 00000 11006 21062 39653 40240 58004 92350 333;EQDQ01  00002PRCP99
0213408290999992000122006004+31320+061480FM-12+0489OIZB V0209999C000012200019N0100001N1+00861-00461102891ADDAA124000091GA1031+060009019GF103991001001999999001021MA1999999096781MD1210181+9999REMSYN100AAXX  20061 40829 32960 30000 10086 21046 39678 40289 52018 80002 90550 333 30106 50180 70000 83070;EQDQ01  00002PRCP24
0228408290999992000122012004+31320+061480FM-12+0489OIZB V0201301N007012200019N0100001N1+01401-00801102052ADDAA199000091GA1031+060009089GF103991999001999999001081MD1610061+9999REMSYN082AAXX  20121 40829 32960 31307 10140 21080 38651 40205 56006 80008 91150 333 83270;EQDQ01+000002SCOTLCQ02+086513APOSP Q03+102053APOSLPQ04  00002PRCP99
0189408290999992000122018004+31320+061480FM-12+0489OIZB V0203201N003012200019N0100001N1+00501-00481102291ADDAA199000091GA1001+999999999GF100991001001999999001001MA1999999096401MD1410001+9999REMSYN076AAXX  20181 40829 32960 03203 10050 21048 39640 40229 54000 91750 333 55090;EQDQ01  00002PRCP99
0179408290999992000122100004+31320+061480FM-12+0489OIZB V0203201N004012200019N0100001N1+00041-00541102261ADDAA199000091GA1001+999999999GF100991001001999999001001MA1999999096341MD1510061+9999REMSYN066AAXX  21001 40829 32960 03204 10004 21054 39634 40226 55006 92350;EQDQ01  00002PRCP99
0213408290999992000122106004+31320+061480FM-12+0489OIZB V0209999C000010600019N0100001N1+00721-00171102541ADDAA124000091GA1051+060009019GF105991001001999999001021MA1999999096621MD1210171+9999REMSYN100AAXX  21061 40829 32960 50000 10072 21017 39662 40254 52017 80002 90550 333 30103 50350 70000 85070;EQDQ01  00002PRCP24
0211408290999992000122112004+31320+061480FM-12+0489OIZB V0209999C000010600019N0100001N1+01681+00041102121ADDAA199000091GA1061+060009089GF106991999001999999001061MA1999999096281MD1610071+9999REMSYN082AAXX  21121 40829 32960 60000 10168 20004 39628 40212 56007 80006 91150 333 86270;EQDQ01+000002SCOTLCQ02  00002PRCP99
0189408290999992000122118004+31320+061480FM-12+0489OIZB V0209999C000012200019N0100001N1+00801-00121102191ADDAA199000091GA1001+999999999GF100991001001999999001001MA1999999096341MD1310041+9999REMSYN076AAXX  21181 40829 32960 00000 10080 21012 39634 40219 53004 91755 333 55056;EQDQ01  00002PRCP99
0227408290999992000122200004+31320+061480FM-12+0489OIZB V0209999C000010600019N0100001N1+00501-00261102081ADDAA199000091GA1061+060009089GF199999999001999999001061MA1999999096301MD1810061+9999REMSYN082AAXX  22001 40829 32960 50000 10050 21026 39630 40208 58006 80006 92350 333 86270;EQDQ01+000052SCOTCVQ02+000002SCOTLCQ03  00002PRCP99
0213408290999992000122206004+31320+061480FM-12+0489OIZB V0202601N002012200019N0100001N1+01421+00021102321ADDAA124000091GA1011+012009059GF102991011041999999031001MA1999999096521MD1110141+9999REMSYN100AAXX  22061 40829 32960 22602 10142 20002 39652 40232 51014 81430 90550 333 30001 50130 70000 81640;EQDQ01  00002PRCP24
0189408290999992000122218004+31320+061480FM-12+0489OIZB V0209999C000012200019N0100001N1+00921+00041102071ADDAA199000091GA1001+999999999GF100991001001999999001001MA1999999096301MD1110091+9999REMSYN076AAXX  22181 40829 32960 00000 10092 20004 39630 40207 51009 91750 333 55075;EQDQ01  00002PRCP99
0179408290999992000122300004+31320+061480FM-12+0489OIZB V0203101N003012200019N0100001N1+00441-00431102041ADDAA199000091GA1001+999999999GF100991001001999999001001MA1999999096281MD1110081+9999REMSYN066AAXX  23001 40829 32960 03103 10044 21043 39628 40204 51008 92350;EQDQ01  00002PRCP99
0195408290999992000122312004+31320+061480FM-12+0489OIZB V0209999C000012200019N0100001N1+02201-00071101911ADDAA199000091GA1011+030009079GF101991011001999999031001MA1999999096181MD1810151+9999REMSYN082AAXX  23121 40829 32960 10000 10220 21007 39618 40191 58015 81030 91150 333 81360;EQDQ01  00002PRCP99
0189408290999992000122318004+31320+061480FM-12+0489OIZB V0202101N002012200019N0100001N1+01121-00211102121ADDAA199000091GA1001+999999999GF100991001001999999001001MA1999999096351MD1110061+9999REMSYN076AAXX  23181 40829 32960 02102 10112 21021 39635 40212 51006 91750 333 55096;EQDQ01  00002PRCP99
0179408290999992000122400004+31320+061480FM-12+0489OIZB V0201101N003012200019N0100001N1+00281-00661102051ADDAA199000091GA1001+999999999GF100991001001999999001001MA1999999096271MD1110011+9999REMSYN066AAXX  24001 40829 32960 01103 10028 21066 39627 40205 51001 92350;EQDQ01  00002PRCP99
0195408290999992000122412004+31320+061480FM-12+0489OIZB V0201101N002012200019N0100001N1+02121-00331101691ADDAA199000091GA1011+012009059GF102991011041012501001011MA1999999095951MD1810231+9999REMSYN082AAXX  24121 40829 32660 21102 10212 21033 39595 40169 58023 81401 91150 333 81640;EQDQ01  00002PRCP99
0189408290999992000122418004+31320+061480FM-12+0489OIZB V0203301N003012200019N0100001N1+00881-00251101821ADDAA199000091GA1001+999999999GF100991001001999999001001MA1999999096061MD1110031+9999REMSYN076AAXX  24181 40829 32960 03303 10088 21025 39606 40182 51003 91750 333 55088;EQDQ01  00002PRCP99
0183408290999992000122500004+31320+061480FM-12+0489OIZB V0203301N005012200019N0100001N1+00341-00161101781ADDAA199000091GA1001+999999999GF100991001001999999001001MA1999999096031MD1410001+9999REMSYN070AAXX  25001 40829 32960 03305 10034 21016 39603 40178 54000 92350 333;EQDQ01  00002PRCP99
0201408290999992000122506004+31320+061480FM-12+0489OIZB V0203301N002012200019N0100001N1+01241-00291102161ADDAA124000091GA1001+999999999GF100991001001999999001001MA1999999096371MD1210231+9999REMSYN088AAXX  25061 40829 32960 03302 10124 21029 39637 40216 52023 90550 333 30101 50260 70000;EQDQ01  00002PRCP24
0183408290999992000122512004+31320+061480FM-12+0489OIZB V0201401N002012200019N0100001N1+02181-00211101661ADDAA199000091GA1001+999999999GF100991001001999999001001MA1999999095941MD1710151+9999REMSYN070AAXX  25121 40829 32960 01402 10218 21021 39594 40166 57015 91150 333;EQDQ01  00002PRCP99
0189408290999992000122518004+31320+061480FM-12+0489OIZB V0203201N003012200019N0100001N1+00881-00321101741ADDAA199000091GA1001+999999999GF100991001001999999001001MA1999999095991MD1110021+9999REMSYN076AAXX  25181 40829 32960 03203 10088 21032 39599 40174 51002 91750 333 55086;EQDQ01  00002PRCP99
0183408290999992000122600004+31320+061480FM-12+0489OIZB V0209999C000012200019N0100001N1+00481-00501101581ADDAA199000091GA1001+999999999GF100991001001999999001001MA1999999095871MD1810071+9999REMSYN070AAXX  26001 40829 32960 00000 10048 21050 39587 40158 58007 92350 333;EQDQ01  00002PRCP99
0195408290999992000122612004+31320+061480FM-12+0489OIZB V0203201N004012200019N0100001N1+02101-00221101321ADDAA199000091GA1011+030009079GF101991011001999999031001MA1999999095621MD1710131+9999REMSYN082AAXX  26121 40829 32960 13204 10210 21022 39562 40132 57013 81030 91150 333 81360;EQDQ01  00002PRCP99
0215408290999992000122618004+31320+061480FM-12+0489OIZB V0202901N004012200019N0100001N1+01201-00331101381ADDAA199000091GA1011+012009069GF103991011041012501021001GJ105409MA1999999095641MD1610031+9999REMSYN094AAXX  26181 40829 32660 32904 10120 21033 39564 40138 56003 81420 91750 333 55090 81640 83460;EQDQ01  00002PRCP99
0234408290999992000122706004+31320+061480FM-12+0489OIZB V0209999C00001036001CN0080001N1+01001+00791101891ADDAA112001091AY161061AY221061GA1021+009009079GF108991021071008001021999MA1999999096131MD1210281+9999MW1601REMSYN118AAXX  27061 40829 11558 80000 10100 20079 39613 40189 52028 69992 76062 8272/ 90550 333 31007 50260 70002 82730 88558;
0210408290999992000122712004+31320+061480FM-12+0489OIZB V0203301N010012200019N0100001N1+01281+00211101941ADDAA106000191AY161061AY221061GA1011+030009079GF102991021001999999031001MA1999999096201MD1310141+9999MW1011REMSYN094AAXX  27121 40829 11960 23310 10128 20021 39620 40194 53014 69911 70162 82030 91150 333 81360;
0190408290999992000122718004+31320+061480FM-12+0489OIZB V0203201N007012200019N0100001N1+00881+00281102301ADDAA199000021GA1021+030009079GF102991021001999999031001GJ101989MA1999999096451MD1410001+9999REMSYN088AAXX  27181 40829 32960 23207 10088 20028 39645 40230 54000 82030 91750 333 55033 82360;
0183408290999992000122800004+31320+061480FM-12+0489OIZB V0202201N007012200019N0100001N1+00661+00261102331ADDAA199000091GA1001+999999999GF100991001001999999001001MA1999999096471MD1110021+9999REMSYN070AAXX  28001 40829 32960 02207 10066 20026 39647 40233 51002 92350 333;EQDQ01  00002PRCP99
0182408290999992000122806004+31320+061480FM-12+0489OIZB V0203201N010012200019N0100001N1+01141+00271102511ADDAA124000191GA1001+999999999GF100991001001999999001001MA1999999096691MD1210131+9999REMSYN088AAXX  28061 40829 32960 03210 10114 20027 39669 40251 52013 90550 333 30005 50760 70001;
0179408290999992000122812004+31320+061480FM-12+0489OIZB V0203601N006012200019N0100001N1+01441+00181102251ADDAA199000091GA1001+999999999GF100991001001999999001001MA1999999096461MD1710081+9999REMSYN066AAXX  28121 40829 32960 03606 10144 20018 39646 40225 57008 91150;EQDQ01  00002PRCP99
0189408290999992000122818004+31320+061480FM-12+0489OIZB V0200601N003012200019N0100001N1+00601+00211102511ADDAA199000091GA1001+999999999GF100991001001999999001001MA1999999096661MD1310121+9999REMSYN076AAXX  28181 40829 32960 00603 10060 20021 39666 40251 53012 91750 333 55090;EQDQ01  00002PRCP99
0179408290999992000122900004+31320+061480FM-12+0489OIZB V0209999C000012200019N0100001N1+00301-00081102491ADDAA199000091GA1001+999999999GF100991001001999999001001MA1999999096641MD1010021+9999REMSYN066AAXX  29001 40829 32960 00000 10030 21008 39664 40249 50002 92350;EQDQ01  00002PRCP99
0195408290999992000122912004+31320+061480FM-12+0489OIZB V0203201N005012200019N0100001N1+01581+00111102431ADDAA199000091GA1001+999999999GF100991001001999999001001MA1999999999999MD1710121+9999REMSYN066AAXX  29121 40829 32960 03205 10158 20011 39458 40243 57012 91150;EQDQ01  00002PRCP99Q02 094583APOSP 
0205408290999992000122918004+31320+061480FM-12+0489OIZB V0203201N004012200019N0100001N1+00681+00091102491ADDAA199000091GA1001+999999999GF100991001001999999001001MA1999999096622MD1610021+9999REMSYN076AAXX  29181 40829 32960 03204 10068 20009 39662 40249 56002 91750 333 55085;EQDQ01+096623APOSP Q02  00002PRCP99
0183408290999992000123000004+31320+061480FM-12+0489OIZB V0203201N005012200019N0100001N1+00641+00031102401ADDAA199000091GA1001+999999999GF100991001001999999001001MA1999999096601MD1410001+9999REMSYN070AAXX  30001 40829 32960 03205 10064 20003 39660 40240 54000 92350 333;EQDQ01  00002PRCP99
0201408290999992000123006004+31320+061480FM-12+0489OIZB V0203201N009012200019N0100001N1+01161+00041102551ADDAA124000091GA1001+999999999GF100991001001999999001001MA1999999096701MD1310071+9999REMSYN088AAXX  30061 40829 32960 03209 10116 20004 39670 40255 53007 90550 333 30002 50350 70000;EQDQ01  00002PRCP24
0183408290999992000123012004+31320+061480FM-12+0489OIZB V0203201N006012200019N0100001N1+01541-00201102121ADDAA199000091GA1001+999999999GF100991001001999999001001MA1999999096311MD1810151+9999REMSYN070AAXX  30121 40829 32960 03206 10154 21020 39631 40212 58015 91150 333;EQDQ01  00002PRCP99
0189408290999992000123018004+31320+061480FM-12+0489OIZB V0203201N005012200019N0100001N1+00581-00581102291ADDAA199000091GA1001+999999999GF100991001001999999001001MA1999999096441MD1110071+9999REMSYN076AAXX  30181 40829 32960 03205 10058 21058 39644 40229 51007 91750 333 55090;EQDQ01  00002PRCP99
0179408290999992000123100004+31320+061480FM-12+0489OIZB V0202701N003012200019N0100001N1+00461-00611102011ADDAA199000091GA1001+999999999GF100991001001999999001001MA1999999096211MD1710181+9999REMSYN066AAXX  31001 40829 32960 02703 10046 21061 39621 40201 57018 92350;EQDQ01  00002PRCP99
0201408290999992000123106004+31320+061480FM-12+0489OIZB V0203201N007012200019N0100001N1+01021-00151102421ADDAA124000091GA1001+999999999GF100991001001999999001001MA1999999096581MD1110131+9999REMSYN088AAXX  31061 40829 32960 03207 10102 21015 39658 40242 51013 90550 333 30103 50260 70000;EQDQ01  00002PRCP24
0179408290999992000123112004+31320+061480FM-12+0489OIZB V0203301N005012200019N0100001N1+01621-00551102031ADDAA199000091GA1001+999999999GF100991001001999999001001MA1999999096251MD1810071+9999REMSYN066AAXX  31121 40829 32960 03305 10162 21055 39625 40203 58007 91150;EQDQ01  00002PRCP99
0189408290999992000123118004+31320+061480FM-12+0489OIZB V0202301N003012200019N0100001N1+00621-00471102251ADDAA199000091GA1001+999999999GF100991001001999999001001MA1999999096391MD1310041+9999REMSYN076AAXX  31181 40829 32960 02303 10062 21047 39639 40225 53004 91750 333 55092;EQDQ01  00002PRCP99
