0217467380999992000010103004+24930+121300FM-12+0141RCUK V0200201N003612200019N0250001N1+02501+01861101551ADDAA106000091GA1011+006009089GA2031+021009039GF103991011011008001031001MA1999999101011MD1710111+9999REMSYN088AAXX  01034 46738 32575 30207 10250 20186 30101 40155 57011 81130 555 81820 83357 00000;EQDQ01  00002PRCP06
0218467380999992000010106004+24930+121300FM-12+0141RCUK V0201001N00311008401CN0200001N1+02541+02061101381ADDAA106000091GA1021+003609089GA2031+008409069GA3051+021009039GF105991031081004501031001MD1710171+9999REMSYN088AAXX  01064 46738 32470 51006 10254 20206 40138 57017 83830 555 82812 83628 85357 00000;EQDQ01  00002PRCP06
0217467380999992000010109004+24930+121300FM-12+0141RCUK V0200701N002112200019N0120001N1+02411+01921101381ADDAA106000091GA1021+003609089GA2031+008409069GF103991031081004501031001MA1999999100841MD1010001+9999REMSYN088AAXX  01094 46738 32462 30704 10241 20192 30084 40138 50000 83830 555 82812 83628 00000;EQDQ01  00002PRCP06
0218467380999992000010112004+24930+121300FM-12+0141RCUK V0203301N000512200019N0150001N1+02091+01751101491ADDAA106000091GA1021+004509089GF102991021081004501001001KA1120M+02801MA1999999100951MD1210111+9999REMSYN092AAXX  01124 46738 32465 23301 10209 20175 30095 40149 52011 82800 333 10280 555 82815 00000;EQDQ01  00002PRCP06
0140467380999992000010203004+24930+121300FM-12+0141RCUK V0200101N002610360019N0150001N1+99999+99999101661ADDGF105991031081004501031001MD1310071+9999REMSYN088AAXX  02034 46738 12465 50105 102/9 20131 40166 53007 83830 555 81813 83635 85362 00000;
0239467380999992000010206004+24930+121300FM-12+0141RCUK V0200601N00511024001CN0150001N1+02331+01181101521ADDAA106000091GA1011+003909089GA2031+009009069GA3071+024009039GF107991031081004501031001MA1999999100981MD1710141+9999REMSYN094AAXX  02064 46738 32465 70610 10233 20118 30098 40152 57014 83830 555 81813 83630 87358 00000;EQDQ01  00002PRCP06
0290467380999992000010212004+24930+121300FM-12+0141RCUK V0200101N00411018001CN0070001N1+02131+01501101721ADDAA106000091AY111061AY211061GA1011+003909089GA2031+009009069GA3071+018009069GF107991071051004501001001KA1120M+02491MA1999999101181MD1210171+9999MW1051REMSYN110AAXX  02124 46738 31457 70108 10213 20150 30118 40172 52017 70511 87500 333 10249 555 81813 83630 87656 00000;EQDQ01  00002PRCP06
0233467380999992000010215004+24930+121300FM-12+0141RCUK V0200101N00461021001CN0150001N1+99999+99999101791ADDAA106000091GA1011+004509089GA2031+009009069GA3051+021009039GF105991031051004501031001MA1999999101251MD1610071+9999REMSYN088AAXX  02154 46738 32465 50109 20157 30125 40179 56007 83530 555 81815 83630 85357 00000;EQDQ01  00002PRCP06
0217467380999992000010218004+24930+121300FM-12+0141RCUK V0203601N002612200019N0150001N1+01801+01641101761ADDAA106000091GA1011+004509089GA2031+009009069GF103991031051004501001001MA1999999101221MD1610031+9999REMSYN088AAXX  02184 46738 32465 33605 10180 20164 30122 40176 56003 83500 555 81815 83630 00000;EQDQ01  00002PRCP06
0195467380999992000010221004+24930+121300FM-12+0141RCUK V0200101N004112200019N0150001N1+01751+01541101661ADDAA106000091GA1011+004509089GF103991011011004501031001MA1999999101121MD1610101+9999REMSYN082AAXX  02214 46738 32465 30108 10175 20154 30112 40166 56010 81130 555 81815 00000;EQDQ01  00002PRCP06
0264467380999992000010300004+24930+121300FM-12+0141RCUK V0200201N004112200019N0060001N1+01851+01631101791ADDAA106000091AY111061AY211061GA1011+003609089GF101991011011004501001001KA1120N+01641MA1999999101251MD1210131+9999MW1051REMSYN116AAXX  03004 46738 31456 10208 10185 20163 30125 40179 52013 70511 81100 333 20164 555 81812 00000 24000 10249 20176;EQDQ01  00002PRCP06
0208467380999992000010303004+24930+121300FM-12+0141RCUK V0203601N004612200019N0040001N1+02271+01621101791ADDAA106000091AY101031AY201031GF101991011011004501001001MA1999999101251MD1010001+9999MW1051REMSYN089AAXX  03034 46738 31440 13609 10227 20162 30125 40179 50000 70500 81100 555 /81815 00000;EQDQ01  00002PRCP06
0267467380999992000010306004+24930+121300FM-12+0141RCUK V0200701N00461003001CN0040001N1+02251+01771101591ADDAA106000091AY111061AY211061GA1021+001809089GA2031+003009099GA3051+004809089GF105991051031002501001001MA1999999101051MD1710201+9999MW1051REMSYN100AAXX  03064 46738 31340 50709 10225 20177 30105 40159 57020 70511 85300 555 82806 83910 85816 00000;EQDQ01  00002PRCP06
0267467380999992000010309004+24930+121300FM-12+0141RCUK V0203501N00211005401CN0040001N1+02191+01731101591ADDAA106000091AY121031AY221031GA1031+001809089GA2051+005409089GA3071+008409069GF107991071041002501001001MA1999999101051MD1510001+9999MW1051REMSYN100AAXX  03094 46738 31340 73504 10219 20173 30105 40159 55000 70522 87400 555 83806 85818 87628 00000;EQDQ01  00002PRCP06
0290467380999992000010312004+24930+121300FM-12+0141RCUK V0203501N00151005401CN0040001N1+01941+01481101691ADDAA106000091AY121061AY221061GA1031+001809089GA2051+005409089GA3071+008409069GF107991071041002501001001KA1120M+02301MA1999999101151MD1210101+9999MW1051REMSYN110AAXX  03124 46738 31340 73503 10194 20148 30115 40169 52010 70522 87400 333 10230 555 83806 85818 87628 00000;EQDQ01  00002PRCP06
0267467380999992000010318004+24930+121300FM-12+0141RCUK V0203301N00151007501CN0070001N1+01861+01451101721ADDAA106000091AY121061AY221061GA1021+003009089GA2051+007509069GA3071+012009069GF107991071041004501001001MA1999999101181MD1410001+9999MW1051REMSYN100AAXX  03184 46738 31457 73303 10186 20145 30118 40172 54000 70522 87400 555 82810 85625 87640 00000;EQDQ01  00002PRCP06
0267467380999992000010321004+24930+121300FM-12+0141RCUK V0203501N00151007501CN0070001N1+01761+01351101721ADDAA106000091AY121031AY221031GA1021+003009089GA2051+007509069GA3071+012009069GF107991071999004501001001MA1999999101181MD1410001+9999MW1051REMSYN100AAXX  03214 46738 31457 73503 10176 20135 30118 40172 54000 70522 87/00 555 82810 85625 87640 00000;EQDQ01  00002PRCP06
0295467380999992000010400004+24930+121300FM-12+0141RCUK V0203001N02061008401CN0050001N1+01951+01391101691ADDAA106000091AY121061AY221061GA1021+003609089GA2051+008409069GA3061+021009039GF106991051081004501031001MA1999999101151MD1510031+9999MW1051REMSYN128AAXX  04004 46738 31450 63040 10195 20139 30115 40169 55003 70522 85830 333 20710 555 82812 85628 86357 00000 24000 10230 20164;EQDQ01  00002PRCP06
0267467380999992000010403004+24930+121300FM-12+0141RCUK V0200301N00361010501CN0060001N1+02331+01441101691ADDAA106000091AY121031AY221031GA1021+004509089GA2031+010509069GA3061+018009069GF106991061081004501001001MA1999999101151MD1010001+9999MW1051REMSYN100AAXX  04034 46738 31456 60307 10233 20144 30115 40169 50000 70522 86800 555 82815 83635 86656 00000;EQDQ01  00002PRCP06
0267467380999992000010406004+24930+121300FM-12+0141RCUK V0200701N00261024001CN0070001N1+02451+01631101521ADDAA106000091AY121061AY221061GA1031+004509089GA2031+010509069GA3061+024009039GF106991041081004501031001MA1999999100981MD1710171+9999MW1051REMSYN100AAXX  04064 46738 31457 60705 10245 20163 30098 40152 57017 70522 84830 555 83815 83635 86358 00000;EQDQ01  00002PRCP06
0267467380999992000010409004+24930+121300FM-12+0141RCUK V0202801N00261010501CN0080001N1+02231+01631101521ADDAA106000091AY121031AY221031GA1021+003609089GA2051+010509069GA3061+018009069GF107991071081004501001001MA1999999100981MD1410001+9999MW1051REMSYN100AAXX  04094 46738 31458 72805 10223 20163 30098 40152 54000 70522 87800 555 82812 85635 86656 00000;EQDQ01  00002PRCP06
0268467380999992000010412004+24930+121300FM-12+0141RCUK V0203201N00211010501CN0090001N1+02011+01481101591ADDAA106000091AY121061AY221061GA1021+003609089GA2051+010509069GF105991051081004501001001KA1120M+02561MA1999999101051MD1110071+9999MW1051REMSYN104AAXX  04124 46738 31459 53204 10201 20148 30105 40159 51007 70522 85800 333 10256 555 82812 85635 00000;EQDQ01  00002PRCP06
0195467380999992000010415004+24930+121300FM-12+0141RCUK V0200201N001512200019N0100001N1+01841+01371101591ADDAA106000091GA1011+003609089GF101991011011004501001001MA1999999101051MD1010001+9999REMSYN082AAXX  04154 46738 32460 10203 10184 20137 30105 40159 50000 81100 555 81812 00000;EQDQ01  00002PRCP06
0195467380999992000010421004+24930+121300FM-12+0141RCUK V0200101N001012200019N0100001N1+01541+01251101491ADDAA106000091GA1011+003609089GF101991011011004501001001MA1999999100951MD1610061+9999REMSYN082AAXX  04214 46738 32460 10102 10154 20125 30095 40149 56006 81100 555 81812 00000;EQDQ01  00002PRCP06
0195467380999992000010503004+24930+121300FM-12+0141RCUK V0201801N004112200019N0200001N1+02641+01781101491ADDAA106000091GA1011+006009069GF101991011011008001001001MA1999999100951MD1810031+9999REMSYN082AAXX  05034 46738 32570 11808 10264 20178 30095 40149 58003 81100 555 81620 00000;EQDQ01  00002PRCP06
0217467380999992000010506004+24930+121300FM-12+0141RCUK V0201701N005712200019N0200001N1+02671+01911101181ADDAA106000091GA1011+007509069GA2031+030009039GF103991011011008001031001MA1999999100641MD1710311+9999REMSYN088AAXX  05064 46738 32570 31711 10267 20191 30064 40118 57031 81130 555 81625 83360 00000;EQDQ01  00002PRCP06
0217467380999992000010509004+24930+121300FM-12+0141RCUK V0201901N001512200019N0200001N1+02441+01991101221ADDAA106000091GA1011+003609089GA2031+008409069GF103991031081004501001001MA1999999100681MD1310041+9999REMSYN088AAXX  05094 46738 32470 31903 10244 20199 30068 40122 53004 83800 555 81812 83628 00000;EQDQ01  00002PRCP06
0278467380999992000010512004+24930+121300FM-12+0141RCUK V0203301N00151018001CN0160001N1+02271+01881101321ADDAA106000091GA1011+003609089GA2031+009009069GA3061+018009069GF106991999061004501001001KA1120M+02751MA1999999100781MD1210101+9999REMSYN104AAXX  05124 46738 32466 63303 10227 20188 30078 40132 52010 87600 333 10275 555 81812 83630 86656 00000;EQDQ01+000072SCOTLCQ02  00002PRCP06
0255467380999992000010515004+24930+121300FM-12+0141RCUK V0203601N00261018001CN0160001N1+02121+01781101351ADDAA106000091GA1011+004509089GA2031+009009069GA3061+018009069GF106991999061004501001001MA1999999100811MD1110031+9999REMSYN094AAXX  05154 46738 32466 63605 10212 20178 30081 40135 51003 87600 555 81815 83630 86656 00000;EQDQ01+000072SCOTLCQ02  00002PRCP06
0217467380999992000010521004+24930+121300FM-12+0141RCUK V0203601N00211015001CN0130001N1+01981+01691101281ADDAA106000091GA1011+004509089GA2051+015009069GF105991051081004501001001MA1999999100741MD1610041+9999REMSYN088AAXX  05214 46738 32463 53604 10198 20169 30074 40128 56004 85800 555 81815 85650 00000;EQDQ01  00002PRCP06
0232467380999992000010603004+24930+121300FM-12+0141RCUK V0200301N00621021001CN0150001N1+02451+01871101381ADDAA100000791AY161031AY221031GA1021+004509089GA2061+021009039GF106991021011004501031001MA1999999100841MD1010031+9999MW1011REMSYN100AAXX  06034 46738 11465 60312 10245 20187 30084 40138 50003 6990/ 70162 82130 555 82815 86357 00990;
0254467380999992000010606004+24930+121300FM-12+0141RCUK V0200701N00311008401CN0045001N1+02371+02061101251ADDAA106000791AY161061AY221061GA1021+003609089GA2051+008409069GA3081+018009069GF108991081081004501999999MA1999999100711MD1610131+9999MW1601REMSYN106AAXX  06064 46738 11445 80706 10237 20206 30071 40125 56013 69901 76062 888// 555 82812 85628 88656 00990;
0254467380999992000010609004+24930+121300FM-12+0141RCUK V0200101N00211012001CN0050001N1+02271+01981101251ADDAA100000591AY161031AY221031GA1021+003009089GA2051+012009069GA3061+030009039GF106991051081004501031999MA1999999100711MD1510001+9999MW1051REMSYN106AAXX  06094 46738 11450 60104 10227 20198 30071 40125 55000 6995/ 70562 8583/ 555 82810 85640 86360 00995;
0263467380999992000010612004+24930+121300FM-12+0141RCUK V0203601N00151008401CN0060001N1+02061+01811101351ADDAA112000591AY161061AY221061GA1021+003009089GA2031+008409069GA3061+021009039GF106991051081004501031999KA1120M+02601MA1999999100811MW1051REMSYN116AAXX  06124 46738 11456 63603 10206 20181 30081 40135 5/010 69952 70562 8583/ 333 10260 555 82810 83628 86357 00995;
0267467380999992000010615004+24930+121300FM-12+0141RCUK V0209999C00001008401CN0060001N1+02021+01811101381ADDAA106000091AY161031AY221031GA1021+003009089GA2031+008409069GA3061+021009039GF106991051081004501031999MA1999999100841MD1310031+9999MW1051REMSYN100AAXX  06154 46738 31456 60000 10202 20181 30084 40138 53003 70562 8583/ 555 82810 83628 86357 00995;EQDQ01  00002PRCP06
0254467380999992000010706004+24930+121300FM-12+0141RCUK V0200501N00981004801CN0070001N1+02141+01961101521ADDAA106000791AY121061AY221061GA1031+003009089GA2051+004809089GA3071+015009069GF107991071041004501001001MA1999999100981MD1710241+9999MW1161REMSYN106AAXX  07064 46738 11457 70519 10214 20196 30098 40152 57024 69901 71622 87400 555 83810 85816 87650 00990;
0254467380999992000010709004+24930+121300FM-12+0141RCUK V0200301N00411008401CN0200001N1+02151+01831101551ADDAA100000791AY161031AY251031GA1021+005409089GA2051+008409069GA3061+015009069GF106991061051004501001001MA1999999101011MD1310031+9999MW1021REMSYN106AAXX  07094 46738 11470 60308 10215 20183 30101 40155 53003 6990/ 70265 86500 555 82818 85628 86650 00990;
0258467380999992000010712004+24930+121300FM-12+0141RCUK V0200101N00261021001CN0200001N1+02001+01661101601ADDAA112000791AY161061AY251061GA1011+005409089GA2031+010509069GA3051+021009039GF105991031051004501031001MA1999999101121MD1210111+9999MW1021REMSYN110AAXX  07124 46738 11470 50105 10200 20166 30112 4016/ 52011 69902 70265 83530 333 555 81818 83635 85357 00990;
0217467380999992000010715004+24930+121300FM-12+0141RCUK V0200101N002112200019N0200001N1+01931+01651101661ADDAA106000091GA1011+006009089GA2031+027009039GF103991011011008001031001MA1999999101121MD1010001+9999REMSYN088AAXX  07154 46738 32570 30104 10193 20165 30112 40166 50000 81130 555 81820 83359 00990;EQDQ01  00002PRCP06
0274467380999992000010800004+24930+121300FM-12+0141RCUK V0203401N001512200019N0300001N1+01851+01511101551ADDAA106000091GA1011+008409089GA2031+090009009GF103991011011008001001999KA1120N+01641MA1999999101011MD1310061+9999REMSYN116AAXX  08004 46738 32580 33403 10185 20151 30101 40155 53006 81100 333 20164 555 81828 83080 00000 24990 10241 20192;EQDQ01+000002SCOHCGQ02  00002PRCP06
0211467380999992000010803004+24930+121300FM-12+0141RCUK V0200401N004112200019N0300001N1+02481+99999101551ADDAA106000091GA1011+008409089GA2031+090009009GF103991011011008001001011MA1999999101011MD1410001+9999REMSYN082AAXX  08034 46738 32580 30408 10248 30101 40155 54000 81101 555 81828 83080 00000;EQDQ01  00002PRCP06
0195467380999992000010806004+24930+121300FM-12+0141RCUK V0200901N003112200019N0300001N1+02621+01771101321ADDAA106000091GA1011+008409089GF101991011011008001001001MA1999999100781MD1710231+9999REMSYN082AAXX  08064 46738 32580 10906 10262 20177 30078 40132 57023 81100 555 81828 00000;EQDQ01  00002PRCP06
0239467380999992000010809004+24930+121300FM-12+0141RCUK V0200601N00151018001CN0180001N1+02351+01861101351ADDAA106000091GA1011+003609089GA2031+007509069GA3051+018009069GF105991051081004501001001MA1999999100811MD1310031+9999REMSYN094AAXX  08094 46738 32468 50603 10235 20186 30081 40135 53003 85800 555 81812 83625 85656 00000;EQDQ01  00002PRCP06
0262467380999992000010812004+24930+121300FM-12+0141RCUK V0203201N00101018001CN0200001N1+02061+01721101451ADDAA106000091GA1011+003609089GA2031+007509069GA3061+018009069GF106991061051004501001001KA1120M+02641MA1999999100911MD1210101+9999REMSYN104AAXX  08124 46738 32470 63202 10206 20172 30091 40145 52010 86500 333 10264 555 81812 83625 86656 00000;EQDQ01  00002PRCP06
0217467380999992000010815004+24930+121300FM-12+0141RCUK V0203201N002112200019N0300001N1+01871+01621101421ADDAA106000091GA1011+005409089GA2031+021009039GF103991011011004501031001MA1999999100881MD1810031+9999REMSYN088AAXX  08154 46738 32480 33204 10187 20162 30088 40142 58003 81130 555 81818 83357 00000;EQDQ01  00002PRCP06
0195467380999992000010818004+24930+121300FM-12+0141RCUK V0203101N001012200019N0300001N1+01831+01601101221ADDAA106000091GA1011+005409089GF101991011011004501001001MA1999999100681MD1710201+9999REMSYN082AAXX  08184 46738 32480 13102 10183 20160 30068 40122 57020 81100 555 81818 00000;EQDQ01  00002PRCP06
0195467380999992000010821004+24930+121300FM-12+0141RCUK V0203201N002112200019N0300001N1+01741+01471101151ADDAA106000091GA1011+005409089GF101991011011004501001001MA1999999100611MD1810071+9999REMSYN082AAXX  08214 46738 32480 13204 10174 20147 30061 40115 58007 81100 555 81818 00000;EQDQ01  00002PRCP06
0280467380999992000010900004+24930+121300FM-12+0141RCUK V0200101N00211008401CN0400001N1+01881+01611101381ADDAA106000091GA1031+005409089GA2051+008409069GA3071+015009069GF107991071051004501001001KA1120N+01741MA1999999100841MD1210231+9999REMSYN122AAXX  09004 46738 32482 70104 10188 20161 30084 40138 52023 87500 333 20174 555 83818 85628 87650 00000 24000 10264 20164;EQDQ01  00002PRCP06
0239467380999992000010903004+24930+121300FM-12+0141RCUK V0200301N00461008401CN0300001N1+02401+01611101491ADDAA106000091GA1021+005409089GA2051+008409069GA3071+045009039GF107991051051004501031001MA1999999100951MD1210111+9999REMSYN094AAXX  09034 46738 32480 70309 10240 20161 30095 40149 52011 85530 555 82818 85628 87365 00000;EQDQ01  00002PRCP06
0239467380999992000010909004+24930+121300FM-12+0141RCUK V0203601N00411007501CN0200001N1+02431+02001101381ADDAA106000091GA1031+004509089GA2051+007509069GA3071+015009069GF107991071041004501001001MA1999999100841MD1210131+9999REMSYN094AAXX  09094 46738 32470 73608 10243 20200 30084 40138 52013 87400 555 83815 85625 87650 00000;EQDQ01  00002PRCP06
0262467380999992000010912004+24930+121300FM-12+0141RCUK V0209999C00001008401CN0150001N1+02371+01961101491ADDAA106000091GA1011+004509089GA2051+008409069GA3071+015009069GF107991071041004501001001KA1120M+02581MA1999999100951MD1210111+9999REMSYN104AAXX  09124 46738 32465 70000 10237 20196 30095 40149 52011 87400 333 10258 555 81815 85628 87650 00000;EQDQ01  00002PRCP06
0239467380999992000010915004+24930+121300FM-12+0141RCUK V0203301N00151008401CN0150001N1+02121+01961101551ADDAA106000091GA1011+004509089GA2051+008409069GA3071+015009069GF107991071041004501001001MA1999999101011MD1310061+9999REMSYN094AAXX  09154 46738 32465 73303 10212 20196 30101 40155 53006 87400 555 81815 85628 87650 00000;EQDQ01  00002PRCP06
0239467380999992000010918004+24930+121300FM-12+0141RCUK V0203201N00151008401CN0150001N1+02161+01981101551ADDAA106000091GA1011+004509089GA2051+008409069GA3071+015009069GF107991071041004501001001MA1999999101011MD1410001+9999REMSYN094AAXX  09184 46738 32465 73203 10216 20198 30101 40155 5400/ 87400 555 81815 85628 87650 00000;EQDQ01  00002PRCP06
0280467380999992000011000004+24930+121300FM-12+0141RCUK V0200201N00311006001CN0100001N1+02251+01811101591ADDAA106000091GA1021+004509089GA2051+006009069GA3071+015009069GF107991071081004501999999KA1120N+02041MA1999999101051MD1310041+9999REMSYN122AAXX  10004 46738 32460 70206 10225 20181 30105 40159 53004 878// 333 20204 555 82815 85620 87650 00000 24000 10258 20174;EQDQ01  00002PRCP06
0217467380999992000011003004+24930+121300FM-12+0141RCUK V0200501N00411021001CN0130001N1+02601+01871101621ADDAA106000091GA1021+004509089GA2051+021009039GF105991021011004501031001MA1999999101081MD1010031+9999REMSYN088AAXX  10034 46738 32463 50508 10260 20187 30108 40162 50003 82130 555 82815 85357 00000;EQDQ01  00002PRCP06
0195467380999992000011006004+24930+121300FM-12+0141RCUK V0200601N007712200019N0100001N1+02671+02001101451ADDAA106000091GA1021+004509089GF102991021021004501031001MA1999999100911MD1710171+9999REMSYN082AAXX  10064 46738 32460 20615 10267 20200 30091 40145 57017 82230 555 82815 00000;EQDQ01  00002PRCP06
0239467380999992000011015004+24930+121300FM-12+0141RCUK V0200201N00261007501CN0150001N1+02181+01771101691ADDAA106000091GA1021+003609089GA2051+007509069GA3071+018009069GF107991071081004501999999MA1999999101151MD1310031+9999REMSYN094AAXX  10154 46738 32465 70205 10218 20177 30115 40169 53003 878// 555 82812 85625 87656 00000;EQDQ01  00002PRCP06
0239467380999992000011018004+24930+121300FM-12+0141RCUK V0203601N00261007501CN0150001N1+02121+01741101621ADDAA106000091GA1021+003609089GA2051+007509069GA3071+018009069GF107991071081004501999999MA1999999101081MD1810071+9999REMSYN094AAXX  10184 46738 32465 73605 10212 20174 30108 40162 58007 878// 555 82812 85625 87656 00000;EQDQ01  00002PRCP06
0258467380999992000011021004+24930+121300FM-12+0141RCUK V0203601N00261008401CN0200001N1+02091+01711101591ADDAA106000091GA1021+003609089GA2051+008409069GF107991071081004501999999MA1999999101051MD1710031+9999REMSYN097AAXX  10214 46738 32470 73605 10209 20171 30105 40159 5600/ 878// 555 V 82812 85628 IUYTYM 00000;EQDQ01+000062APCTENQ02+000002APC3  Q03  00002PRCP06
0280467380999992000011100004+24930+121300FM-12+0141RCUK V0203501N00211024001CN0120001N1+02111+01791101691ADDAA106000091GA1011+003609089GA2031+009009069GA3071+024009039GF107991071081004501999999KA1120N+02001MA1999999101151MD1210101+9999REMSYN122AAXX  11004 46738 32462 73504 10211 20179 30115 40169 52010 878// 333 20200 555 81812 83630 87358 00000 24000 10275 20204;EQDQ01  00002PRCP06
0239467380999992000011103004+24930+121300FM-12+0141RCUK V0200701N00151030001CN0160001N1+02491+01871101661ADDAA106000091GA1011+003609089GA2031+009009069GA3051+030009039GF105991031081004501031001MA1999999101121MD1810031+9999REMSYN094AAXX  11034 46738 32466 50703 10249 20187 30112 40166 58003 83830 555 81812 83630 85360 00000;EQDQ01  00002PRCP06
0217467380999992000011106004+24930+121300FM-12+0141RCUK V0200901N003112200019N0110001N1+02671+02001101381ADDAA106000091GA1011+003009089GA2031+008409069GF103991031081004501001001MA1999999100841MD1710281+9999REMSYN088AAXX  11064 46738 32461 30906 10267 20200 30084 40138 57028 83800 555 81810 83628 00000;EQDQ01  00002PRCP06
0267467380999992000011109004+24930+121300FM-12+0141RCUK V0209999C00001007501CN0090001N1+02431+02001101381ADDAA106000091AY111031AY211031GA1021+003009089GA2031+007509069GA3071+018009069GF107991071081004501001001MA1999999100841MD1410001+9999MW1051REMSYN100AAXX  11094 46738 31459 70000 10243 20200 30084 40138 54000 70511 87800 555 82810 83625 87656 00000;EQDQ01  00002PRCP06
0290467380999992000011112004+24930+121300FM-12+0141RCUK V0203301N00151007501CN0090001N1+02321+01971101421ADDAA106000091AY111061AY211061GA1021+003009089GA2031+007509069GA3071+018009069GF107991071081004501001001KA1120M+02721MA1999999100881MD1310041+9999MW1051REMSYN110AAXX  11124 46738 31459 73303 10232 20197 30088 40142 53004 70511 87800 333 10272 555 82810 83625 87656 00000;EQDQ01  00002PRCP06
0239467380999992000011121004+24930+121300FM-12+0141RCUK V0209999C00001007501CN0120001N1+01931+01741101381ADDAA106000091GA1021+003009089GA2031+007509069GA3071+018009069GF107991071081004501001001MA1999999100841MD1410001+9999REMSYN094AAXX  11214 46738 32462 70000 10193 20174 30084 40138 54000 87800 555 82810 83625 87656 00000;EQDQ01  00002PRCP06
0280467380999992000011200004+24930+121300FM-12+0141RCUK V0203301N00261024001CN0160001N1+02151+01821101281ADDAA106000091GA1011+005409089GA2041+010509069GA3071+024009039GF107991041081004501031001KA1120N+01891MA1999999100741MD1810101+9999REMSYN122AAXX  12004 46738 32466 73305 10215 20182 30074 40128 58010 84830 333 20189 555 81818 84635 87358 00000 24000 10272 20200;EQDQ01  00002PRCP06
0239467380999992000011203004+24930+121300FM-12+0141RCUK V0200301N00411007801CN0160001N1+02401+01831101281ADDAA106000091GA1021+004509089GA2051+007809069GA3071+015009069GF107991071081004501001001MA1999999100741MD1410001+9999REMSYN094AAXX  12034 46738 32466 70308 10240 20183 30074 40128 54000 87800 555 82815 85626 87650 00000;EQDQ01  00002PRCP06
0239467380999992000011206004+24930+121300FM-12+0141RCUK V0200501N00101004801CN0130001N1+02481+02141101051ADDAA106000091GA1021+003009089GA2051+004809069GA3081+015009069GF108991081081004501999999MA1999999100511MD1710231+9999REMSYN094AAXX  12064 46738 32463 80502 10248 20214 30051 40105 57023 888// 555 82810 85616 88650 00000;EQDQ01  00002PRCP06
0234467380999992000011212004+24930+121300FM-12+0141RCUK V0203201N00151008401CN0120001N1+02191+99999101181ADDAA106000091GA1021+003009089GA2051+008409069GF105991051081004501001001KA1120M+02561MA1999999100641MD1110071+9999REMSYN092AAXX  12124 46738 32462 53203 10219 30064 40118 51007 85800 333 10256 555 82810 85628 00000;EQDQ01  00002PRCP06
0217467380999992000011215004+24930+121300FM-12+0141RCUK V0200201N001012200019N0150001N1+02161+01861101221ADDAA106000091GA1011+003609089GA2031+021009039GF103991011011004501031001MA1999999100681MD1110041+9999REMSYN088AAXX  12154 46738 32465 30202 10216 20186 30068 40122 51004 81130 555 81812 83357 00000;EQDQ01  00002PRCP06
0187467380999992000011218004+24930+121300FM-12+0141RCUK V0203401N002112200019N0150001N1+01931+01751101151ADDGA1011+003609089GA2031+021009039GF103991011011999999031001MA1999999100611MD1610071+9999REMSYN088AAXX  12184 46738 /2/65 33404 10193 20175 30061 40115 56007 81130 555 81812 83357 00000;
0195467380999992000011221004+24930+121300FM-12+0141RCUK V0203301N002612200019N0150001N1+01991+01801101151ADDAA106000091GA1011+003609089GF101991011011004501001001MA1999999100611MD1410001+9999REMSYN082AAXX  12214 46738 32465 13305 10199 20180 30061 40115 54000 81100 555 81812 00000;EQDQ01  00002PRCP06
0217467380999992000011303004+24930+121300FM-12+0141RCUK V0200601N005112200019N0130001N1+02541+02051101251ADDAA106000091GA1021+005409089GA2031+018009069GF103991031081004501001001MA1999999100711MD1010001+9999REMSYN088AAXX  13034 46738 32463 30610 10254 20205 30071 40125 50000 83800 555 82818 83656 00000;EQDQ01  00002PRCP06
0202467380999992000011306004+24930+121300FM-12+0141RCUK V0200701N007712200019N0130001N1+02601+02011101051ADDAA106000091GA1011+005409089GF101991011011004501001001MA1999999100511MD1710201+9999REMSYN089AAXX  13064 46738 32463 10715 10260 20201 30051 40105 57020 81100 555 30523. 81818 00000;EQDQ01  00002PRCP06
0245467380999992000011309004+24930+121300FM-12+0141RCUK V0200601N00721006001CN0100001N1+02311+01941101151ADDAA106000091GA1021+004509089GA2031+006009089GA3071+009009069GF107991071041004501001001MA1999999100611MD1310101+9999REMSYN100AAXX  13094 46738 32460 70614 10231 20194 30061 40115 53010 87400 555 30523 82815 83820 87630 00000;EQDQ01  00002PRCP06
0245467380999992000011315004+24930+121300FM-12+0141RCUK V0200201N00461021001CN0150001N1+02111+01751101351ADDAA106000091GA1011+006009089GA2031+010509069GA3061+021009039GF106991031051008001031001MA1999999100811MD1010001+9999REMSYN100AAXX  13154 46738 32565 60209 10211 20175 30081 40135 50000 83530 555 30523 81820 83635 86357 00990;EQDQ01  00002PRCP06
0245467380999992000011318004+24930+121300FM-12+0141RCUK V0200401N00311021001CN0150001N1+02111+01741101281ADDAA106000091GA1011+006009089GA2031+010509069GA3061+021009039GF106991031051008001031001MA1999999100741MD1810071+9999REMSYN100AAXX  13184 46738 32565 60406 10211 20174 30074 40128 58007 83530 555 30523 81820 83635 86357 00000;EQDQ01  00002PRCP06
0290467380999992000011400004+24930+121300FM-12+014199999V0200201N00411021001CN0300001N1+02021+01681101421ADDAA199000091GA1011+007509089GA2031+013509039GA3051+021009039GF105991011011008001031001KA1120N+01901MA1999999100881MD1210141+9999REMSYN132    AAXX  14004 46738 32580 50208 10202 20168 30088 40142 52014 81130 333 20190 555 30523 81825 83345 85357 00000 24990 10261 20193;EQDQ01  00002PRCP99
0249467380999992000011415004+24930+121300FM-12+014199999V0200201N00211015001CN0130001N1+02111+01771101351ADDAA199000091GA1011+003609089GA2031+007509069GA3061+015009069GF106991061081004501001001MA1999999100811MD1410001+9999REMSYN104    AAXX  14154 46738 32463 60204 10211 20177 30081 40135 54000 86800 555 30523 81812 83625 86650 00000;EQDQ01  00002PRCP99
0249467380999992000011418004+24930+121300FM-12+014199999V0200201N00261015001CN0130001N1+02001+01721101351ADDAA199000091GA1011+003609089GA2031+008409069GA3061+015009069GF106991061081004501001001MA1999999100811MD1410001+9999REMSYN104    AAXX  14184 46738 32463 60205 10200 20172 30081 40135 54000 86800 555 30523 81812 83628 86650 00000;EQDQ01  00002PRCP99
0249467380999992000011421004+24930+121300FM-12+014199999V0203501N00461015001CN0130001N1+02071+01681101351ADDAA199000091GA1011+003609089GA2031+008409069GA3061+015009069GF106991061081004501001001MA1999999100811MD1410001+9999REMSYN104    AAXX  14214 46738 32463 63509 10207 20168 30081 40135 54000 86800 555 30523 81812 83628 86650 00000;EQDQ01  00002PRCP99
0199467380999992000011503004+24930+121300FM-12+014199999V0201201N002112200019N0250001N1+02621+01861101821ADDAA199000091GA1011+005409089GF101991011011004501031001MA1999999100741MD1810041+9999REMSYN086    AAXX  15034 46738 32475 11204 10262 20186 30074 40182 58004 81130 555 81818 00000;EQDQ01  00002PRCP99
0234467380999992000011512004+24930+121300FM-12+014199999V0203001N00151009001CN0250001N1+02301+01951101181ADDAA199000091GA1011+003609089GF106991061081004501001001KA1120M+99999MA1999999100641MD1310101+9999REMSYN092    AAXX  15124 46738 32475 63003 10230 20195 30064 40118 53010 86800 333 10027 81812 00000;EQDQ01  00002PRCP99Q02 +00272ATMX  
0199467380999992000011515004+24930+121300FM-12+014199999V0203501N001512200019N0200001N1+02191+01861101251ADDAA199000091GA1011+004509089GF101991011081004501001001MA1999999100711MD1110071+9999REMSYN086    AAXX  15154 46738 32470 13503 10219 20186 30071 40125 51007 81800 555 81815 00000;EQDQ01  00002PRCP99
0221467380999992000011521004+24930+121300FM-12+014199999V0203301N001512200019N0200001N1+01821+01621101221ADDAA199000091GA1011+004509089GA2031+010509069GF103991031081004501001001MA1999999100681MD1610031+9999REMSYN092    AAXX  15214 46738 32470 33303 10182 20162 30068 40122 56003 83800 555 81815 83635 00000;EQDQ01  00002PRCP99
0263467380999992000011600004+24930+121300FM-12+014199999V0209999C000012200019N0200001N1+02011+01511101451ADDAA199000091GA1021+005409069GA2031+021009039GF103991021041004501031001KA1120N+01791MA1999999100911MD1210231+9999REMSYN121    AAXX  16004 46738 32470 30000 10201 20151 30091 40145 52023 82430 333 20179 555 82618 83357 00000. 2<000 10270 20197;EQDQ01  00002PRCP99
0221467380999992000011603004+24930+121300FM-12+014199999V0200701N00461015001CN0200001N1+02591+01931101491ADDAA199000091GA1031+004209089GA2031+015009069GF105991051081004501001001MA1999999100951MD1310041+9999REMSYN092    AAXX  16034 46738 32470 50709 10259 20193 30095 40149 53004 85800 555 83814 83650 00000;EQDQ01  00002PRCP99
0222467380999992000011609004+24930+121300FM-12+014199999V0200601N00571008401CN0140001N1+02301+01771101221ADDAA199000091GA1031+004809089GA2051+008409089GF105991051021004501001001MA1999999100681MD1610031+9999REMSYN093    AAXX  16094 46738 32464 50611 10230 20177 30068 40122 56003 85200 555 /83816 85828 00000;EQDQ01  00002PRCP99
0266467380999992000011612004+24930+121300FM-12+014199999V0202901N00051007501CN0140001N1+02181+01831101381ADDAA199000091GA1021+004509089GA2051+007509069GA3071+013509069GF107991071051004501001001KA1120M+02641MA1999999100841MD1210161+9999REMSYN108    AAXX  16124 46738 32464 72901 10218 20183 30084 40138 52016 87500 333 10264 555 82815 85625 87645 00000;EQDQ01  00002PRCP99
0243467380999992000011615004+24930+121300FM-12+014199999V0209999C00001021001CN0150001N1+02061+01801101451ADDAA199000091GA1011+006009089GA2031+010509069GA3051+021009039GF105991031051008001031001MA1999999100911MD1010071+9999REMSYN098    AAXX  16154 46738 32565 50000 10206 20180 30091 40145 50007 83530 555 81820 83635 85357 00000;EQDQ01  00002PRCP99
0221467380999992000011618004+24930+121300FM-12+014199999V0203401N003612200019N0150001N1+02021+01641101421ADDAA199000091GA1011+007509089GA2031+021009039GF103991011011008001031001MA1999999100881MD1810031+9999REMSYN092    AAXX  16184 46738 32565 33407 10202 20164 30088 40142 58003 81130 555 81825 83357 00000;EQDQ01  00002PRCP99
0189467380999992000011621004+24930+121300FM-12+014199999V0203401N004112200019N0150001N1+01971+01601101451ADDAA199000091GF103991011011008001031001MA1999999100911MD1310031+9999REMSYN092    AAXX  16214 46738 32565 33408 10197 20160 30091 40145 53003 81130 555 .81825 83TU 00000;EQDQ01  00002PRCP99
0223467380999992000011700004+24930+121300FM-12+014199999V0203301N001512200019N0200001N1+02021+01581101591ADDAA199000091GF101991011011008001031001KA1120N+01871MA1999999101051MD1210141+9999REMSYN113    AAXX  17004 46738 32570 13303 10202 20158 30105 40159 52014 81130 333 20187 555 IQWT 00000 24000 10264 20179;EQDQ01  00002PRCP99
0237467380999992000011703004+24930+121300FM-12+014199999V0200701N00261021001CN0200001N1+02331+99999101591ADDAA199000091GA1011+004809089GA2031+012009069GA3051+021009039GF105991011011004501031001MA1999999101051MD1410001+9999REMSYN092    AAXX  17034 46738 32470 50705 10233 30105 40159 54000 81130 555 81816 83640 85357 00000;EQDQ01  00002PRCP99
0244467380999992000011706004+24930+121300FM-12+014199999V0200601N00571021001CN0150001N1+02321+01771101451ADDAA199000091GA1011+004809089GA2031+009009069GA3051+021009039GF105991011011004501031001MA1999999100911MD1710141+9999REMSYN099    AAXX  17064 46738 32465 50611 10232 20177 30091 40145 57014 81130 555 /81816 83630 85357 00000;EQDQ01  00002PRCP99
0259467380999992000011718004+24930+121300FM-12+014199999V0200201N00411018001CN0150001N1+01761+01321101661ADDAA199000091GA1011+003609089GA2031+009009069GA3071+018009069GF107991071999004501001001MA1999999101121MD1410001+9999REMSYN098    AAXX  17184 46738 32465 70208 10176 20132 30112 40166 54000 87000 555 81812 83630 87656 00000;EQDQ01+000002SCOLCGQ02  00002PRCP99
0255467380999992000011800004+24930+121300FM-12+014199999V0200101N00211008401CN0300001N1+01801+01291999999ADDAA199000091GA1011+003609089GA2051+008409069GA3061+021009039GF106991051081004501031001MA1999999101251MD1210131+9999REMSYN110    AAXX  18004 46738 32480 60104 1018/ 20129 30125 52013 85830 555 81812 85628 86357 00000 24000 10242 20183;EQDQ01  00002PRCP99
0243467380999992000011803004+24930+121300FM-12+014199999V0200201N00411008401CN0300001N1+01881+01281101831ADDAA199000091GA1011+003609089GA2051+008409069GA3071+018009069GF107991071081004501999999MA1999999101291MD1110041+9999REMSYN098    AAXX  18034 46738 32480 70208 10188 20128 30129 40183 51004 878// 555 81812 85628 87656 00000;EQDQ01  00002PRCP99
0258467380999992000011806004+24930+121300FM-12+014199999V0200401N00151008401CN0300001N1+01951+01441101621ADDAA106000791AY161061AY221061GA1021+003009089GA2051+008409069GA3081+018009069GF108991081081004501999999MA1999999101081MD1710211+9999MW1021REMSYN110    AAXX  18064 46738 11480 80403 10195 20144 30108 40162 57021 69901 70262 888// 555 82810 85628 88656 00990;
0230467380999992000011809004+24930+121300FM-12+014199999V0200201N00411008401CN0300001N1+01771+01311101661ADDAA100000791GA1021+003009089GA2051+008409069GA3081+018009069GF108991081081004501999999MA1999999101121MD1310041+9999REMSYN104    AAXX  18094 46738 12480 80208 10177 20131 30112 40166 53004 6990/ 888// 555 82810 85628 88656 00990;
0253467380999992000011812004+24930+121300FM-12+014199999V0203501N00311008401CN0060001N1+01721+01231101761ADDAA112000791GA1021+003609089GA2051+008409069GA3081+018009069GF108991081081001501999999KA1120M+01951MA1999999101221MD1310101+9999REMSYN114    AAXX  18124 46738 31256 83506 10172 20123 30122 40176 53010 69902 888// 333 10195 555 82812 85628 88656 00990;
0243467380999992000011818004+24930+121300FM-12+014199999V0203601N00361008401CN0200001N1+01661+01121101831ADDAA199000091GA1021+003609089GA2051+008409069GA3081+018009069GF108991081081004501999999MA1999999101291MD1610031+9999REMSYN098    AAXX  18184 46738 32470 83607 10166 20112 30129 40183 56003 888// 555 82812 85628 88656 00000;EQDQ01  00002PRCP99
0243467380999992000011821004+24930+121300FM-12+014199999V0200101N00411008401CN0200001N1+01611+01091101791ADDAA199000091GA1021+003609089GA2051+008409069GA3081+018009069GF108991081081004501999999MA1999999101251MD1610041+9999REMSYN098    AAXX  18214 46738 32470 80108 10161 20109 30125 40179 56004 888// 555 82812 85628 88656 00000;EQDQ01  00002PRCP99
0284467380999992000011900004+24930+121300FM-12+014199999V0200201N00571008401CN0250001N1+01621+01121101961ADDAA199000091GA1021+003609089GA2051+008409069GA3071+018009069GF107991071081004501999999KA1120N+01521MA1999999101421MD1210171+9999REMSYN126    AAXX  19004 46738 32475 70211 10162 20112 30142 40196 52017 878// 333 20152 555 82812 85628 87656 00000 24990 10195 20166;EQDQ01  00002PRCP99
0243467380999992000011903004+24930+121300FM-12+014199999V0200201N00621008401CN0200001N1+01781+01131101991ADDAA199000091GA1021+004509089GA2051+008409069GA3071+018009069GF107991071081004501999999MA1999999101451MD1010031+9999REMSYN098    AAXX  19034 46738 32470 70212 10178 20113 30145 40199 50003 878// 555 82815 85628 87656 00000;EQDQ01  00002PRCP99
0243467380999992000011906004+24930+121300FM-12+014199999V0200201N00671008401CN0130001N1+01731+01061101861ADDAA199000091GA1031+004509089GA2051+008409069GA3081+015009069GF108991081051004501999999MA1999999101321MD1710131+9999REMSYN098    AAXX  19064 46738 32463 80213 10173 20106 30132 40186 57013 885// 555 83815 85628 88650 00000;EQDQ01  00002PRCP99
0243467380999992000011909004+24930+121300FM-12+014199999V0200101N00871007501CN0130001N1+01611+01021101991ADDAA199000091GA1031+004509089GA2051+007509069GA3081+013509069GF108991081051004501999999MA1999999101451MD1210131+9999REMSYN098    AAXX  19094 46738 32463 80117 10161 20102 30145 40199 52013 885// 555 83815 85625 88645 00000;EQDQ01  00002PRCP99
0268467380999992000011912004+24930+121300FM-12+014199999V0200201N009810075019N0120001N1+01541+01031102201ADDAA199000091GA1031+004509089GA2051+007509069GA3081+013509069GF108991081051004501999999KA1120M+01871MA1999999101661MD1210211+9999REMSYN110    AAXX  19124 46738 32462 80219 10154 20103 30166 40220 52021 885// 333 10187 5559/ 83815 85625 88645 00000;EQDQ01  00002PRCP99
0249467380999992000011915004+24930+121300FM-12+014199999V0203501N01181007501CN0120001N1+01491+00951102271ADDAA199000091GA1031+004509089GA2051+007509069GA3081+013509069GF108991081051004501999999MA1999999101731MD1310071+9999REMSYN104    AAXX  19154 46738 32462 83523 10149 20095 30173 40227 53007 885// 555 30126 83815 85625 88645 00000;EQDQ01  00002PRCP99
0244467380999992000011918004+24930+121300FM-12+0141RCUK V0200101N00871007501CN0120001N1+01451+00881102271ADDAA199000091GA1031+004509089GA2051+007509069GA3081+013509069GF108991081051004501999999MA1999999101731MD1010001+9999REMSYN099AAXX  19184 46738 31462 80117 10145 20088 30173 40227 50000 885// 555 PQWC 83815 85625 88645 00000;EQDQ01  00002PRCP99
0245467380999992000011921004+24930+121300FM-12+0141RCUK V0200101N00771008401CN0150001N1+01491+00801102301ADDAA199000091GA1021+004509089GA2051+008409069GA3081+013509069GF108991081051004501999999MA1999999101761MD1310031+9999REMSYN100AAXX  19214 46738 32465 80115 10149 20080 30176 40230 53003 885// 555 33523 82815 85628 88645 00000;EQDQ01  00002PRCP99
0286467380999992000012000004+24930+121300FM-12+0141RCUK V0200101N00621010501CN0150001N1+01541+00731102431ADDAA199000091GA1021+004509089GA2051+010509069GA3081+018009069GF108991081051004501999999KA1120N+01451MA1999999101891MD1210131+9999REMSYN128AAXX  20004 46738 32465 80112 10154 20073 30189 40243 52013 885// 333 20145 555 30124 82815 85635 88656 00000 24000 10187 20143;EQDQ01  00002PRCP99
0252467380999992000012012004+24930+121300FM-12+0141RCUK V0200301N00771018001CN0120001N1+01581+00981102641ADDAA199000091GA1031+010509069GA2071+018009069GF107991071051004501001001KA1120M+01831MA1999999102101MD1210241+9999REMSYN110AAXX  20124 46738 32462 70315 10158 20098 30210 40264 52024 87500 333 10183 555 30325 32815 83635 87656 00000;EQDQ01  00002PRCP99
0245467380999992000012015004+24930+121300FM-12+0141RCUK V0200201N00671021001CN0120001N1+01551+00981102711ADDAA199000091GA1011+007509089GA2031+010509069GA3051+021009039GF105991031051008001031001MA1999999102171MD1210071+9999REMSYN100AAXX  20154 46738 32562 50213 10155 20098 30217 40271 52007 83530 555 30226 81825 83635 85357 00000;EQDQ01  00002PRCP99
0245467380999992000012018004+24930+121300FM-12+0141RCUK V0203601N00981021001CN0120001N1+01601+00961102571ADDAA199000091GA1011+007509089GA2031+010509069GA3051+021009039GF105991031051008001031001MA1999999102031MD1810141+9999REMSYN100AAXX  20184 46738 32562 53619 10160 20096 30203 40257 58014 83530 555 33633 81825 83635 85357 00000;EQDQ01  00002PRCP99
0245467380999992000012021004+24930+121300FM-12+0141RCUK V0200201N00771018001CN0200001N1+01581+01021102641ADDAA199000091GA1011+007509089GA2031+010509069GA3081+018009069GF108991081051008001999999MA1999999102101MD1110071+9999REMSYN100AAXX  20214 46738 32570 80215 10158 20102 30210 40264 51007 885// 555 33633 81825 83635 88656 00000;EQDQ01  00002PRCP99
0286467380999992000012100004+24930+121300FM-12+0141RCUK V0200101N00671021001CN0400001N1+01671+00971102811ADDAA199000091GA1011+008409089GA2031+013509069GA3071+021009049GF107991031051008001021001KA1120N+01581MA1999999102271MD1210171+9999REMSYN128AAXX  21004 46738 32582 70113 10167 20097 30227 40281 52017 83520 333 20158 555 30126 81828 83645 87457 00000 24000 10183 20145;EQDQ01  00002PRCP99
0239467380999992000012106004+24930+121300FM-12+0141RCUK V0200301N00771012001CN0300001N1+02101+01421102601ADDAA199000091GA1031+008409089GA2031+012009069GA3071+018009069GF107991071051008001001001MA1999999102061MD1710241+9999REMSYN094AAXX  21064 46738 32580 70315 10210 20142 30206 40260 57024 87500 555 83828 83640 87656 00000;EQDQ01  00002PRCP99
0239467380999992000012109004+24930+121300FM-12+0141RCUK V0200201N00571012001CN0250001N1+01931+01501102601ADDAA199000091GA1031+008409089GA2031+012009069GA3071+018009069GF107991071051008001001001MA1999999102061MD1510001+9999REMSYN094AAXX  21094 46738 32575 70211 10193 20150 30206 40260 55000 87500 555 83828 83640 87656 00000;EQDQ01  00002PRCP99
0262467380999992000012112004+24930+121300FM-12+0141RCUK V0200201N00621009001CN0110001N1+01871+01421102671ADDAA199000091GA1021+006009089GA2031+009009069GA3071+015009069GF107991071051008001001001KA1120M+02131MA1999999102131MD1210071+9999REMSYN104AAXX  21124 46738 32561 70212 10187 20142 30213 40267 52007 87500 333 10213 555 82820 83630 87650 00000;EQDQ01  00002PRCP99
0219467380999992000012115004+24930+121300FM-12+0141RCUK V0203601N00461009001CN0110001N1+01791+01361102671ADDAA199000091GA1021+006009089GA2031+009009069GA3071+015009069GF107991071051008001001001MA1999999102101REMSYN088AAXX  21154 46738 32561 73609 10179 20136 3021/ 40267 87500 555 82820 83630 87650 00000;EQDQ01  00002PRCP99
0239467380999992000012121004+24930+121300FM-12+0141RCUK V0200301N00411009001CN0110001N1+01701+01321102501ADDAA199000091GA1021+006009089GA2031+009009069GA3071+015009069GF107991071051008001001001MA1999999101961MD1610071+9999REMSYN094AAXX  21214 46738 32561 70308 10170 20132 30196 40250 56007 87500 555 82820 83630 87650 00000;EQDQ01  00002PRCP99
0280467380999992000012200004+24930+121300FM-12+0141RCUK V0203401N00261008401CN0300001N1+01951+01411102501ADDAA199000091GA1021+004809089GA2051+008409069GA3071+015009069GF107991071051004501001001KA1120N+01681MA1999999101961MD1510001+9999REMSYN122AAXX  22004 46738 32480 73405 10195 20141 30196 40250 55000 87500 333 20168 555 82816 85628 87650 00000 24000 10213 20158;EQDQ01  00002PRCP99
0217467380999992000012203004+24930+121300FM-12+0141RCUK V0200201N00461024001CN0300001N1+02281+01511102431ADDAA199000091GA1011+007509089GA2061+024009039GF106991011011008001031001MA1999999101891MD1810071+9999REMSYN088AAXX  22034 46738 32580 60209 10228 20151 30189 40243 58007 81130 555 81825 86358 00000;EQDQ01  00002PRCP99
0239467380999992000012206004+24930+121300FM-12+0141RCUK V0200601N00671009001CN0150001N1+02381+01801102201ADDAA199000091GA1031+004509089GA2031+009009069GA3071+018009069GF107991071051004501001001MA1999999101661MD1710231+9999REMSYN094AAXX  22064 46738 32465 70613 10238 20180 30166 40220 57023 87500 555 83815 83630 87656 00000;EQDQ01  00002PRCP99
0277467380999992000012212004+24930+121300FM-12+0141RCUK V0203301N00261007501CN0150001N1+02031+01891102231ADDAA112000791AY151061AY221061GA1031+004509009GA2051+007509069GA3071+015009019GF107991071051004501001001KA1120M+02411MA1999999101691MD1110031+9999MW1201REMSYN116AAXX  22124 46738 11465 73305 10203 20189 30169 40223 51003 69902 72052 87500 333 10241 555 83015 85625 87150 00990;
0220467380999992000012215004+24930+121300FM-12+0141RCUK V0203401N00261008401CN0200001N1+02101+01721102271ADDAA199000021GA1021+004509089GA2051+008409069GA3071+015009069GF107991071051004501001001MA1999999101731MD1310041+9999REMSYN094AAXX  22154 46738 32470 73405 10210 20172 30173 40227 53004 87500 555 82815 85628 87650 00990;
0254467380999992000012218004+24930+121300FM-12+0141RCUK V0203301N00261008401CN0080001N1+01901+01831102201ADDAA106001091AY181061AY261061GA1031+004209089GA2051+008409069GA3071+015009069GF107991071051004501001001MA1999999101661MD1810071+9999MW1501REMSYN106AAXX  22184 46738 11458 73305 10190 20183 30166 40220 58007 60011 75086 87500 555 83814 85628 87650 00993;
0254467380999992000012221004+24930+121300FM-12+0141RCUK V0203501N00261007501CN0080001N1+01861+01801102131ADDAA100002091AY181031AY261031GA1031+003609089GA2051+007509069GA3071+015009069GF107991071051004501999999MA1999999101591MD1610071+9999MW1601REMSYN106AAXX  22214 46738 11458 73505 10186 20180 30159 40213 56007 6002/ 76086 875// 555 83812 85625 87650 00002;
0314467380999992000012300004+24930+121300FM-12+0141RCUK V0203101N00261007501CN0090001N1+01891+01831102201ADDAA112004191AY181061AY261061GA1031+004509089GA2051+007509089GA3071+013509069GF107991999071004501999999KA1120N+01831MA1999999101661MD1210071+9999MW1611REMSYN134AAXX  23004 46738 11459 73105 10189 20183 30166 40220 52007 60042 76186 887// 333 20183 555 83815 85825 87645 00004 24990 10241 20168;EQDQ01+000082SCOTLC
0254467380999992000012306004+24930+121300FM-12+0141RCUK V0200201N00211008401CN0250001N1+02191+01861101991ADDAA106002091AY161061AY221061GA1021+003609079GA2051+008409069GA3081+021009049GF108991051051004501021999MA1999999101451MD1710211+9999MW1211REMSYN106AAXX  23064 46738 11475 80204 10219 20186 30145 40199 57021 60021 72162 8552/ 555 82712 85628 88457 00006;
0226467380999992000012309004+24930+121300FM-12+0141RCUK V0200401N00211021001CN0250001N1+02271+01841101961ADDAA100002091GA1011+003609089GA2031+009009069GA3071+021009039GF107991031051004501031001MA1999999101421MD1510031+9999REMSYN100AAXX  23094 46738 11475 70404 10227 20184 30142 40196 55003 6002/ 83530 555 81812 83630 87357 00006;
0220467380999992000012315004+24930+121300FM-12+0141RCUK V0203601N00101018001CN0250001N1+02061+01781101991ADDAA199000021GA1011+004809089GA2031+010509069GA3061+018009069GF106991061081004501001001MA1999999101451MD1410001+9999REMSYN094AAXX  23154 46738 32475 63602 10206 20178 30145 40199 54500 86800 555 81816 83635 86656 00006;
0206467380999992000012318004+24930+121300FM-12+0141RCUK V0203301N00151018001CN0250001N1+01971+01751101961ADDAA199000021GA1011+004809089GA2031+010509069GA3061+018009069GF106991999081004501001001MA1999999101421REMSYN094AAXX  23184 46738 32475 63303 10197 20175 30142 40196 5/003 8/800 555 81816 83635 86656 00000;
0211467380999992000012321004+24930+121300FM-12+0141RCUK V0203601N00101021001CN0200001N1+01961+01671999999ADDAA199000091GA1011+004809089GA2061+021009039GF106991011011004501031001MA1999999101391MD1610031+9999REMSYN082AAXX  23214 46738 32470 63602 10196 20167 30139 56003 81130 555 81816 86357 00000;EQDQ01  00002PRCP99
0239467380999992000012403004+24930+121300FM-12+0141RCUK V0200901N00151021001CN0200001N1+02531+01861102031ADDAA199000091GA1011+003609089GA2031+007509069GA3061+021009039GF106991031081004501031001MA1999999101491MD1010001+9999REMSYN094AAXX  24034 46738 32470 60903 10253 20186 30149 40203 50000 83830 555 81812 83625 86357 00000;EQDQ01  00002PRCP99
0217467380999992000012406004+24930+121300FM-12+0141RCUK V0201001N00361024001CN0180001N1+02521+01901101861ADDAA199000091GA1021+003609089GA2061+024009039GF106991031081004501031001MA1999999101321MD1610171+9999REMSYN088AAXX  24064 46738 32468 61007 10252 20190 30132 40186 56017 83830 555 82812 86358 00000;EQDQ01  00002PRCP99
0240467380999992000012412004+24930+121300FM-12+0141RCUK V0203001N00151024001CN0150001N1+02101+01781101891ADDAA199000091GA1021+004509089GA2051+024009039GF105991021011004501031001KA1120M+02671MA1999999101351MD1310031+9999REMSYN098AAXX  24124 46738 32465 53003 10210 20178 30135 40189 53003 82130 333 10267 555 82815 85358 00000;EQDQ01  00002PRCP99
0217467380999992000012415004+24930+121300FM-12+0141RCUK V0203301N00151024001CN0120001N1+02121+01831101931ADDAA199000091GA1021+004509089GA2061+024009039GF106991021011004501031001MA1999999101391MD1310041+9999REMSYN088AAXX  24154 46738 32462 63303 10212 20183 30139 40193 53004 82130 555 82815 86358 00000;EQDQ01  00002PRCP99
0217467380999992000012418004+24930+121300FM-12+0141RCUK V0200301N00151024001CN0120001N1+02111+01831101931ADDAA199000091GA1021+004509089GA2061+024009039GF106991021011004501031001MA1999999101391MD1410001+9999REMSYN088AAXX  24184 46738 32462 60303 10211 20183 30139 40193 54000 82130 555 82815 86358 00000;EQDQ01  00002PRCP99
0254467380999992000012506004+24930+121300FM-12+0141RCUK V0200201N005110060019N0200001N1+01931+01301102201ADDAA106000891AY161061AY221061GA1031+002409089GA2051+006009069GA3081+015009069GF108991081081002501999999MA1999999101661MD1610101+9999MW1021REMSYN106AAXX  25064 46738 11370 80210 10193 20130 30166 40220 56010 69981 70262 888// 555 83808 85620 88650 00004;
0226467380999992000012509004+24930+121300FM-12+0141RCUK V0203601N00461006601CN0200001N1+01821+01241102231ADDAA100000891GA1021+002409089GA2031+006609069GA3081+012009069GF108991081081002501999999MA1999999101691MD1310031+9999REMSYN100AAXX  25094 46738 12370 83609 10182 20124 30169 40223 53003 6998/ 888// 555 82808 83622 88640 00004;
0249467380999992000012512004+24930+121300FM-12+0141RCUK V0200101N00871007801CN0200001N1+01681+01121102171ADDAA112000891GA1021+002409089GA2051+007809069GA3081+015009069GF108991081081002501999999KA1120M+02111MA1999999101831MD1110141+9999REMSYN110AAXX  25124 46738 12370 80117 10168 20112 30183 40217 51014 69982 888// 333 10211 555 82808 85626 88650 00004;
0247467380999992000012515004+24930+121300FM-12+0141RCUK V0200101N00511008401CN0200001N1+01641+01131999999ADDAA199000091GA1021+003009089GA2051+008409999GA3081+015009069GF108991081081004501999999MA1999999101891MD1110061+9999REMSYN102AAXX  25154 46738 32470 80110 10164 20113 30189 402/3 51006 888// 555 9 30224 82810 85/28 88650 00004;EQDQ01  00002PRCP99
0245467380999992000012518004+24930+121300FM-12+0141RCUK V0200101N00821008401CN0200001N1+01581+01031102171ADDAA199000091GA1021+003009089GA2051+008409069GA3081+015009069GF108991081081004501999999MA1999999101831MD1710061+9999REMSYN100AAXX  25184 46738 32470 80116 10158 20103 30183 40217 57006 888// 555 30127 82810 85628 88650 00000;EQDQ01  00002PRCP99
0286467380999992000012600004+24930+121300FM-12+0141RCUK V0200101N00571008401CN0200001N1+01551+00941102471ADDAA199000091GA1021+003009089GA2031+008409069GA3081+015009069GF108991081081004501999999KA1120N+01531MA1999999101931MD1210141+9999REMSYN128AAXX  26004 46738 32470 80111 10155 20094 30193 40247 52014 888// 333 20153 555 30123 82810 83628 88650 00000 24004 10211 20162;EQDQ01  00002PRCP99
0245467380999992000012603004+24930+121300FM-12+0141RCUK V0203601N005110090019N0200001N1+01771+00931102501ADDAA199000091GA1021+003609089GA2031+009009069GA3081+018009069GF108991081081004501999999MA1999999101961MD1310031+9999REMSYN100AAXX  26034 46738 32470 83610 10177 20093 30196 40250 53003 888// 555 30122 82812 83630 88656 00000;EQDQ01  00002PRCP99
0245467380999992000012609004+24930+121300FM-12+0141RCUK V0200301N003610090019N0200001N1+01601+00971102401ADDAA199000091GA1021+003609089GA2051+009009069GA3081+018009069GF108991081081004501999999MA1999999101861MD1310031+9999REMSYN100AAXX  26094 46738 32470 80307 10160 20097 30186 40240 53003 888// 555 30122 82812 85630 88656 00000;EQDQ01  00002PRCP99
0268467380999992000012612004+24930+121300FM-12+0141RCUK V0200201N00771008401CN0110001N1+01481+00861102541ADDAA199000091GA1031+003609089GA2051+008409069GA3081+018009069GF108991081061004501999999KA1120M+01821MA1999999102001MD1210141+9999REMSYN110AAXX  26124 46738 32461 80215 10148 20086 30200 40254 52014 886// 333 10182 555 30122 83812 85628 88656 00000;EQDQ01  00002PRCP99
0245467380999992000012615004+24930+121300FM-12+0141RCUK V0200101N00931008401CN0110001N1+01421+00831102571ADDAA199000091GA1031+004509089GA2051+008409069GA3081+018009069GF108991081061004501999999MA1999999102031MD1110031+9999REMSYN100AAXX  26154 46738 32461 80118 10142 20083 30203 40257 51003 886// 555 30128 83815 85628 88656 00000;EQDQ01  00002PRCP99
0239467380999992000012618004+24930+121300FM-12+0141RCUK V0200101N00771008401CN0110001N1+01381+00781102541ADDAA199000091GA1031+004509089GA2051+008409069GA3081+018009069GF108991081061004501999999MA1999999102001MD1610031+9999REMSYN094AAXX  26184 46738 32461 80115 10138 20078 30200 40254 56003 886// 555 83815 85628 88656 00000;EQDQ01  00002PRCP99
0245467380999992000012621004+24930+121300FM-12+0141RCUK V0200101N00621008401CN0110001N1+01331+00761102471ADDAA199000091GA1031+004509089GA2051+008409069GA3081+018009069GF108991081061004501999999MA1999999101931MD1610071+9999REMSYN100AAXX  26214 46738 32461 80112 10133 20076 30193 40247 56007 886// 555 30122 83815 85628 88656 00000;EQDQ01  00002PRCP99
0245467380999992000012703004+24930+121300FM-12+0141RCUK V0200101N00621008401CN0200001N1+01441+00751102601ADDAA199000091GA1031+003609089GA2051+008409069GA3081+018009069GF108991081081004501999999MA1999999102061MD1310031+9999REMSYN100AAXX  27034 46738 32470 80112 10144 20075 30206 40260 53003 888// 555 30122 83812 85628 88656 00000;EQDQ01  00002PRCP99
0245467380999992000012706004+24930+121300FM-12+0141RCUK V0200101N004610090019N0200001N1+01481+00731102471ADDAA199000091GA1021+003609089GA2031+009009069GA3081+018009069GF108991081081004501999999MA1999999101931MD1710131+9999REMSYN100AAXX  27064 46738 32470 80109 10148 20073 30193 40247 57013 888// 555 30122 82812 83630 88656 00000;EQDQ01  00002PRCP99
0230467380999992000012709004+24930+121300FM-12+0141RCUK V0200201N006210090019N0200001N1+01411+00751102471ADDAA199000091GA1021+003609089GA2031+009009069GF108991081081004501999999MA1999999101931MD1410001+9999REMSYN101AAXX  27094 46738 32470 80212 10141 20075 30193 40247 54000 888// 555 30122 82812 83630 88656. 00000;EQDQ01  00002PRCP99
0268467380999992000012712004+24930+121300FM-12+0141RCUK V0200101N004610090019N0200001N1+01411+00691102541ADDAA199000091GA1021+003609089GA2031+009009069GA3081+018009069GF108991081081004501999999KA1120M+01481MA1999999102001MD1310071+9999REMSYN110AAXX  27124 46738 32470 80109 10141 20069 30200 40254 53007 888// 333 10148 555 30122 82812 83630 88656 00000;EQDQ01  00002PRCP99
0245467380999992000012715004+24930+121300FM-12+0141RCUK V0200101N004610090019N0200001N1+01371+00851102571ADDAA199000091GA1021+003609089GA2031+009009069GA3081+018009069GF108991081081004501999999MA1999999102031MD1310031+9999REMSYN100AAXX  27154 46738 32470 80109 10137 20085 30203 40257 53003 888// 555 30122 82812 83630 88656 00000;EQDQ01  00002PRCP99
0245467380999992000012718004+24930+121300FM-12+0141RCUK V0200101N005710090019N0200001N1+01401+00811102571ADDAA199000091GA1021+003609089GA2031+009009069GA3081+018009069GF108991081081004501999999MA1999999102031MD1410001+9999REMSYN100AAXX  27184 46738 32470 80111 10140 20081 30203 40257 54000 888// 555 30122 82812 83630 88656 00000;EQDQ01  00002PRCP99
0302467380999992000012800004+24930+121300FM-12+0141RCUK V0200201N00871018001CN0200001N1+01461+01071102741ADDAA199000091GA1011+003609089GA2031+009009069GA3061+018009069GF106991999051004501001001KA1120N+01371MA1999999102201MD1210171+9999REMSYN128AAXX  28004 46738 32470 60217 10146 20107 30220 40274 52017 87500 333 20137 555 30122 81812 83630 86656 00000 24000 10148 20132;EQDQ01+000072SCOTLCQ02  00002PRCP99
0217467380999992000012803004+24930+121300FM-12+0141RCUK V0200401N007712200019N0200001N1+01921+01141102711ADDAA199000091GA1011+006009089GA2031+015009069GF104991031051008001001001MA1999999102171MD1810031+9999REMSYN088AAXX  28034 46738 32570 40415 10192 20114 30217 40271 58003 83500 555 81820 83650 00000;EQDQ01  00002PRCP99
0245467380999992000012806004+24930+121300FM-12+0141RCUK V0200401N00931018001CN0200001N1+01761+01161102471ADDAA199000091GA1011+006009089GA2031+013509069GA3071+018009069GF107991071051008001001001MA1999999101931MD1710241+9999REMSYN100AAXX  28064 46738 32570 70418 10176 20116 30193 40247 57024 87500 555 30524 81820 83645 87656 00000;EQDQ01  00002PRCP99
0245467380999992000012809004+24930+121300FM-12+0141RCUK V0200201N00461018001CN0400001N1+01751+01101102431ADDAA199000091GA1011+006009089GA2031+010509069GA3071+018009069GF107991071051008001001001MA1999999101891MD1810041+9999REMSYN100AAXX  28094 46738 32582 70209 10175 20110 30189 40243 58004 87500 555 30524 81820 83635 87656 00000;EQDQ01  00002PRCP99
0239467380999992000012815004+24930+121300FM-12+0141RCUK V0203401N00361018001CN0300001N1+01581+01111102641ADDAA199000091GA1011+004509089GA2031+008409069GA3071+018009069GF107991071051004501001001MA1999999102101MD1310071+9999REMSYN094AAXX  28154 46738 32480 73407 10158 20111 30210 40264 53007 87500 555 81815 83628 87656 00000;EQDQ01  00002PRCP99
0239467380999992000012821004+24930+121300FM-12+0141RCUK V0203501N00361021001CN0300001N1+01471+01151102501ADDAA199000091GA1011+004509089GA2031+008409069GA3051+021009039GF105991031051004501031001MA1999999101961MD1510041+9999REMSYN094AAXX  28214 46738 32480 53507 10147 20115 30196 40250 55004 83530 555 81815 83628 85357 00000;EQDQ01  00002PRCP99
0258467380999992000012900004+24930+121300FM-12+0141RCUK V0203501N003612200019N0300001N1+01611+00851102601ADDAA199000091GA1011+006009089GA2031+030009039GF103991011011008001031001KA1120N+01471MA1999999102061MD1310101+9999REMSYN116AAXX  29004 46738 32580 33507 10161 20085 30206 40260 53010 81130 333 20147 555 81820 83360 00000 24000 10197 20137;EQDQ01  00002PRCP99
0217467380999992000012903004+24930+121300FM-12+0141RCUK V0200601N002112200019N0300001N1+02181+00931102571ADDAA199000091GA1011+006009089GA2031+030009039GF103991011011008001031001MA1999999102031MD1810031+9999REMSYN088AAXX  29034 46738 32580 30604 10218 20093 30203 40257 58003 81130 555 81820 83360 00000;EQDQ01  00002PRCP99
0217467380999992000012906004+24930+121300FM-12+0141RCUK V0200701N00411024001CN0300001N1+02121+01141102431ADDAA199000091GA1011+006009089GA2051+024009039GF105991011011008001031001MA1999999101891MD1710141+9999REMSYN088AAXX  29064 46738 32580 50708 10212 20114 30189 40243 57014 81130 555 81820 85358 00000;EQDQ01  00002PRCP99
0225467380999992000012909004+24930+121300FM-12+0141RCUK V0200401N00211024001CN0300001N1+02041+01011102431ADDAA199000091GA1011+005409089GA2031+009009069GA3061+024009039GF106991031081004501031001MA1999999101891REMSYN094AAXX  29094 46738 32480 60404 10204 20101 30189 40243 5/000 83830 555 81818 83630 86358 00000;EQDQ01  00002PRCP99
0167467380999992000012912004+24930+121300FM-12+0141RCUK V0203401N001510360019N0300001N1+01851+01081102571ADDAA199000091GF106991031081004501031001MA1999999102031MD1210141+9999REMSYN070AAXX  29124 46738 32480 63403 10185 20108 30203 40257 52014 83830 333;EQDQ01  00002PRCP99
0218467380999992000012915004+24930+121300FM-12+0141RCUK V0209999C00001024001CN0300001N1+01511+01051102601ADDAA199000091GA1011+005409089GA2031+009009069GA3061+024009039GF106991031081004501031001MD1310031+9999REMSYN088AAXX  29154 46738 32480 60000 10151 20105 40260 53003 83830 555 81818 83630 86358 00000;EQDQ01  00002PRCP99
0239467380999992000012918004+24930+121300FM-12+0141RCUK V0203301N00261024001CN0300001N1+01541+01001102601ADDAA199000091GA1011+005409089GA2031+009009069GA3061+024009039GF106991031081004501031001MA1999999102061MD1410001+9999REMSYN094AAXX  29184 46738 32480 63305 10154 20100 30206 40260 54000 83830 555 81818 83630 86358 00000;EQDQ01  00002PRCP99
0236467380999992000013000004+24930+121300FM-12+0141RCUK V0200301N006712200019N0500001N1+01651+01321102571ADDAA199000091GA1011+008409089GF101991011011008001001001KA1120N+01541MA1999999102031MD1010071+9999REMSYN110AAXX  30004 46738 32584 10313 10165 20132 30203 40257 50007 81100 333 20154 555 81828 00000 24000 10235 20147;EQDQ01  00002PRCP99
0255467380999992000013006004+24930+121300FM-12+0141RCUK V0200301N00771013501CN0200001N1+02101+01821102431ADDAA199000091GA1021+006009089GA2031+013509069GA3051+018009069GF105991999051008001001001MA1999999101891MD1710211+9999REMSYN094AAXX  30064 46738 32570 50315 10210 20182 30189 40243 57021 86500 555 82820 83645 85656 00000;EQDQ01+000062SCOTLCQ02  00002PRCP99
0245467380999992000013009004+24930+121300FM-12+0141RCUK V0200201N00721009001CN0200001N1+01871+01671102541ADDAA199000091GA1031+006009089GA2031+009009069GA3071+018009069GF107991071051008001001001MA1999999102001MD1210111+9999REMSYN100AAXX  30094 46738 32570 70214 10187 20167 30200 40254 52011 87500 555 30223 83820 83630 87656 00000;EQDQ01  00002PRCP99
0268467380999992000013012004+24930+121300FM-12+0141RCUK V0200201N01181010501CN0200001N1+01731+99999102741ADDAA199000091GA1031+006009089GA2051+010509069GA3071+018009069GF107991071051008001001001KA1120M+02291MA1999999102201MD1210201+9999REMSYN110AAXX  30124 46738 32570 70223 10173 20512 30220 40274 52020 87500 333 10229 555 30233 83820 85635 87656 00000;EQDQ01  00002PRCP99
0245467380999992000013015004+24930+121300FM-12+0141RCUK V0203501N01181012001CN0200001N1+01701+01281102771ADDAA199000091GA1021+006009089GA2051+012009069GA3071+018009069GF107991071051008001001001MA1999999102231MD1110031+9999REMSYN100AAXX  30154 46738 32570 73523 10170 20128 30223 40277 51003 87500 555 30238 82820 85640 87656 00000;EQDQ01  00002PRCP99
0245467380999992000013018004+24930+121300FM-12+0141RCUK V0203501N00981012001CN0200001N1+01601+01201102671ADDAA199000091GA1021+006009089GA2051+012009069GA3071+018009069GF107991071051008001001001MA1999999102131MD1210101+9999REMSYN100AAXX  30184 46738 32570 73519 1016/ 20120 30213 40267 52010 87500 555 30238 82820 85640 87656 00000;EQDQ01  00002PRCP99
0245467380999992000013021004+24930+121300FM-12+0141RCUK V0203601N00981021001CN0200001N1+01601+01201102641ADDAA199000091GA1011+007509089GA2031+013509069GA3051+021009039GF105991031051008001031001MA1999999102101MD1810031+9999REMSYN100AAXX  30214 46738 32570 53619 10160 20120 30210 40264 58003 83530 555 33631 81825 83645 85357 00000;EQDQ01  00002PRCP99
0288467380999992000013100004+24930+121300FM-12+0141RCUK V0200101N00871007501CN0200001N1+01631+01181102711ADDAA199000091GA1021+004509089GA2031+007509089GA3061+018009069GF106991061081004501001001KA1120N+01571MA1999999102171MD1310071+9999REMSYN130AAXX  31004 46738 32470 60117 10163 20118 30217 40271 53007 86800 333 20157 555 33631 82815 83825 86656 00000 24000 10229 209154 ;EQDQ01  00002PRCP99
0245467380999992000013103004+24930+121300FM-12+0141RCUK V0200201N00821009001CN0200001N1+01981+01201102711ADDAA199000091GA1021+004509089GA2031+009009089GA3061+024009039GF106991031021004501031001MA1999999102171MD1410001+9999REMSYN100AAXX  31034 46738 32470 60216 10198 20120 30217 40271 54000 83230 555 33629 82815 83830 86358 00000;EQDQ01  00002PRCP99
0245467380999992000013106004+24930+121300FM-12+0141RCUK V0200201N00621009001CN0200001N1+01951+01261102541ADDAA199000091GA1021+004509089GA2031+009009089GA3061+024009039GF106991031021004501031001MA1999999102001MD1710171+9999REMSYN100AAXX  31064 46738 32470 60212 10195 20126 30200 40254 57017 83230 555 33629 82815 83830 86358 00000;EQDQ01  00002PRCP99
0245467380999992000013109004+24930+121300FM-12+0141RCUK V0200101N00621009001CN0200001N1+01801+01221102501ADDAA199000091GA1021+004509089GA2031+009009089GA3071+024009039GF107991031021004501031001MA1999999101961MD1810041+9999REMSYN100AAXX  31094 46738 32470 70112 10180 20122 30196 40250 58004 83230 555 33629 82815 83830 87358 00000;EQDQ01  00002PRCP99
0251467380999992000013115004+24930+121300FM-12+0141RCUK V0200401N00461008401CN0200001N1+01601+01321102601ADDAA199000091GA1021+003909089GA2031+008409089GA3071+024009039GF107991031021004501031001MA1999999102061MD1410001+9999REMSYN106AAXX  31154 46738 32470 70409 10160 20132 30206 40260 54000 83230 555 30228 30228 82813 83828 87358 00000;EQDQ01  00002PRCP99
0231467380999992000013121004+24930+121300FM-12+0141RCUK V0200201N00621008401CN0200001N1+01621+01331102601ADDAA199000091GA1021+003909089GA2031+008409089GA3071+024009039GF107991031021004501031001MA1999999102061REMSYN100AAXX  31214 46738 32470 70212 10162 20133 30206 40260 5/000 83230 555 30228 82813 83828 87358 00000;EQDQ01  00002PRCP99
0280467380999992000020100004+24930+121300FM-12+0141RCUK V0200301N00361010501CN0300001N1+01691+01171102501ADDAA199000091GA1021+004509089GA2031+010509069GA3081+021009049GF108991031081004501021999KA1120N+01601MA1999999101961MD1510101+9999REMSYN122AAXX  01004 46738 32480 80307 10169 20117 30196 40250 55010 8382/ 333 20160 555 82815 83635 88457 00000 24000 10201 20157;EQDQ01  00002PRCP99
0239467380999992000020103004+24930+121300FM-12+0141RCUK V0200201N00621012001CN0300001N1+01901+01181102471ADDAA199000091GA1021+005409089GA2031+012009069GA3071+024009039GF107991031081004501031001MA1999999101931MD1810031+9999REMSYN094AAXX  01034 46738 32480 70212 10190 20118 30193 40247 58003 83830 555 82818 83640 87358 00000;EQDQ01  00002PRCP99
0239467380999992000020106004+24930+121300FM-12+0141RCUK V0200601N00771018001CN0250001N1+02161+01611102271ADDAA199000091GA1021+005409089GA2051+018009069GA3071+030009039GF107991051081004501031001MA1999999101731MD1710201+9999REMSYN094AAXX  01064 46738 32475 70615 10216 20161 30173 40227 57020 85830 555 82818 85656 87360 00000;EQDQ01  00002PRCP99
0239467380999992000020109004+24930+121300FM-12+0141RCUK V0200201N00621021001CN0250001N1+02031+01331102271ADDAA199000091GA1021+005409089GA2041+013509069GA3071+021009039GF107991041081004501031001MA1999999101731MD1510001+9999REMSYN094AAXX  01094 46738 32475 70212 10203 20133 30173 40227 55000 84830 555 82818 84645 87357 00000;EQDQ01  00002PRCP99
0262467380999992000020112004+24930+121300FM-12+0141RCUK V0200101N00821009001CN0250001N1+01841+01281102331ADDAA199000091GA1021+005409089GA2031+009009069GA3071+021009039GF107991031081004501031001KA1120M+02321MA1999999101791MD1110061+9999REMSYN104AAXX  01124 46738 32475 70116 10184 20128 30179 40233 51006 83830 333 10232 555 82818 83630 87357 00000;EQDQ01  00002PRCP99
0215467380999992000020115004+24930+121300FM-12+0141RCUK V0200101N007210090019N0250001N1+01761+01281102371ADDGA1021+005409089GA2051+009009069GA3071+021009039GF107991071081004501999999MA1999999101831MD1110041+9999REMSYN100AAXX  01154 46738 12475 70114 10176 20128 30183 40237 51004 878// 555 30124 82818 85630 87357 00000;
0239467380999992000020118004+24930+121300FM-12+0141RCUK V0200201N004610090019N0250001N1+01731+01281102301ADDAA199000091GA1021+005409089GA2051+009009069GA3071+021009039GF107991071081004501999999MA1999999101761MD1710071+9999REMSYN094AAXX  01184 46738 32475 70209 10173 20128 30176 40230 57007 878// 555 82818 85630 87357 00000;EQDQ01  00002PRCP99
0280467380999992000020200004+24930+121300FM-12+0141RCUK V0200301N003110090019N0250001N1+01791+01431102371ADDAA199000091GA1021+005409089GA2051+009009069GA3071+021009039GF107991051081004501031001KA1120N+01691MA1999999101831MD1310101+9999REMSYN122AAXX  02004 46738 32475 70306 10179 20143 30183 40237 53010 85830 333 20169 555 82818 85630 87357 00000 24000 10232 20160;EQDQ01  00002PRCP99
0239467380999992000020203004+24930+121300FM-12+0141RCUK V0200601N001510090019N0250001N1+02161+01651102401ADDAA199000091GA1021+005409089GA2051+009009069GA3071+021009039GF107991051081004501031001MA1999999101861MD1310031+9999REMSYN094AAXX  02034 46738 32475 70603 10216 20165 30186 40240 53003 85830 555 82818 85630 87357 00000;EQDQ01  00002PRCP99
0233467380999992000020206004+24930+121300FM-12+0141RCUK V0200801N004610090019N0150001N1+02211+01891999999ADDAA199000091GA1021+003909089GA2051+009009069GA3071+021009039GF107991051081004501031001MA1999999101611MD1710201+9999REMSYN088AAXX  02064 46738 32465 70809 10221 20189 30161 57020 85830 555 82813 85630 87357 00000;EQDQ01  00002PRCP99
0226467380999992000020209004+24930+121300FM-12+0141RCUK V0200701N00261008401CN0200001N1+02131+01881102201ADDAA100000791GA1021+003609089GA2051+008409069GA3071+018009069GF107991071081004501001001MA1999999101661MD1410001+9999REMSYN100AAXX  02094 46738 11470 70705 10213 20188 30166 40220 54000 6990/ 87800 555 82812 85628 87656 00990;
0249467380999992000020212004+24930+121300FM-12+0141RCUK V0203401N00101008401CN0200001N1+02001+01661102231ADDAA112000791GA1021+003609089GA2051+008409069GA3061+018009069GF106991061081004501001001KA1120M+02341MA1999999101691MD1110031+9999REMSYN110AAXX  02124 46738 12470 63402 10200 20166 30169 40223 51003 69902 86800 333 10234 555 82812 85628 86656 00990;
0239467380999992000020215004+24930+121300FM-12+0141RCUK V0203301N00261007501CN0200001N1+02011+01661102201ADDAA199000091GA1021+003609089GA2051+007509069GA3071+018009069GF107991071081004501999999MA1999999101661MD1810031+9999REMSYN094AAXX  02154 46738 32470 73305 10201 20166 30166 40220 58003 878// 555 82812 85625 87656 00990;EQDQ01  00002PRCP99
0239467380999992000020218004+24930+121300FM-12+0141RCUK V0200201N00151007501CN0200001N1+01941+01661102131ADDAA199000091GA1021+003609089GA2051+007509069GA3071+018009069GF107991071081004501999999MA1999999101591MD1610071+9999REMSYN094AAXX  02184 46738 32470 70203 10194 20166 30159 40213 56007 878// 555 82812 85625 87656 00000;EQDQ01  00002PRCP99
0280467380999992000020300004+24930+121300FM-12+0141RCUK V0203201N00211008401CN0180001N1+01901+01501102101ADDAA199000091GA1021+003609089GA2051+008409069GA3071+999999069GF107991071081004501001001KA1120N+01701MA1999999101561MD1110071+9999REMSYN122AAXX  03004 46738 32468 73204 10190 20150 30156 40210 51007 87800 333 20170 555 82812 85628 87655 00000 24990 10234 20169;EQDQ01  00002PRCP99
0239467380999992000020303004+24930+121300FM-12+0141RCUK V0200201N00151021001CN0180001N1+02351+01521102101ADDAA199000091GA1021+003609089GA2041+010509069GA3061+021009039GF106991041081004501031001MA1999999101561MD1510001+9999REMSYN094AAXX  03034 46738 32468 60203 10235 20152 30156 40210 55000 84830 555 82812 84635 86357 00000;EQDQ01  00002PRCP99
0217467380999992000020306004+24930+121300FM-12+0141RCUK V0200801N00411021001CN0250001N1+02611+01751101861ADDAA199000091GA1011+004509089GA2051+021009039GF105991011011004501031001MA1999999101321MD1610241+9999REMSYN088AAXX  03064 46738 32475 50808 10261 20175 30132 40186 56024 81130 555 81815 85357 00000;EQDQ01  00002PRCP99
0239467380999992000020309004+24930+121300FM-12+0141RCUK V0200501N00361009601CN0150001N1+02341+01681101831ADDAA199000091GA1021+003609089GA2051+009609069GA3071+018009069GF107991071081004501001001MA1999999101291MD1510031+9999REMSYN094AAXX  03094 46738 32465 70507 10234 20168 30129 40183 55003 87800 555 82812 85632 87656 00000;EQDQ01  00002PRCP99
0224467380999992000020312004+24930+121300FM-12+0141RCUK V0200301N00151008401CN0120001N1+02221+01721101931ADDAA199000091GA1021+003609089GA2051+008409069GA3071+015009069GF107991071081004501001001MD1310101+9999REMSYN094AAXX  03124 46738 32462 70303 10222 20172 301/9 40193 53010 87800 555 82812 85628 87650 00000;EQDQ01  00002PRCP99
0217467380999992000020315004+24930+121300FM-12+0141RCUK V0200501N00311018001CN0120001N1+02061+01741101961ADDAA199000091GA1011+003609089GA2051+018009069GF105991051081004501001001MA1999999101421MD1110031+9999REMSYN088AAXX  03154 46738 32462 50506 10206 20174 30142 40196 51003 85800 555 81812 85656 00000;EQDQ01  00002PRCP99
0217467380999992000020318004+24930+121300FM-12+0141RCUK V0200101N00361018001CN0120001N1+01991+01641101931ADDAA199000091GA1011+003609089GA2051+018009069GF105991051081004501001001MA1999999101391MD1610031+9999REMSYN088AAXX  03184 46738 32462 50107 10199 20164 30139 40193 56003 85800 555 81812 85656 00000;EQDQ01  00002PRCP99
0224467380999992000020321004+24930+121300FM-12+0141RCUK V0200101N00721018001CN0120001N1+02021+01581101891ADDGA1011+003609089GA2031+010509069GA3061+018009069MA1999999101351MD1710041+9999REMSYN100AAXX  03214 46738 /2462 /0114 10202 20158 30135 40189 5800/ 86800 555 30125 81812 83635 86656 00000;EQDQ01+000082APCTENQ02+000002APC3  
0258467380999992000020400004+24930+121300FM-12+0141RCUK V0200301N006212200019N0250001N1+02071+01721101961ADDAA199000091GA1021+003609089GA2031+030009039GF103991021011004501031001KA1120N+01911MA1999999101421MD1310071+9999REMSYN116AAXX  04004 46738 32475 30312 10207 20172 30142 40196 53007 82130 333 20191 555 82812 83360 00000 24000 10262 20170;EQDQ01  00002PRCP99
0217467380999992000020403004+24930+121300FM-12+0141RCUK V0200201N00821024001CN0250001N1+02391+01651101961ADDAA199000091GA1021+003609089GA2071+024009039GF107991021081004501031001MA1999999101421MD1010001+9999REMSYN088AAXX  04034 46738 32475 70216 10239 20165 30142 40196 50000 82830 555 82812 87358 00000;EQDQ01  00002PRCP99
0245467380999992000020409004+24930+121300FM-12+0141RCUK V0200501N00411010501CN0180001N1+02271+01811101721ADDAA199000091GA1021+004509089GA2051+010509069GA3071+021009039GF107991051081004501031001MA1999999101181MD1510001+9999REMSYN100AAXX  04094 46738 32468 70508 10227 20181 30118 40172 55000 85830 555 30725 82815 85635 87357 00000;EQDQ01  00002PRCP99
0262467380999992000020412004+24930+121300FM-12+0141RCUK V0200101N00621008401CN0180001N1+02141+01681101761ADDAA199000091GA1021+004509089GA2051+008409069GA3061+018009069GF106991061081004501001001KA1120M+02561MA1999999101221MD1110041+9999REMSYN104AAXX  04124 46738 32468 60112 10214 20168 30122 40176 51004 86800 333 10256 555 82815 85628 86656 00000;EQDQ01  00002PRCP99
0239467380999992000020415004+24930+121300FM-12+0141RCUK V0200201N00511006601CN0180001N1+02071+01701101791ADDAA199000091GA1021+003609089GA2051+006609069GA3071+018009069GF107991071081004501999999MA1999999101251MD1010031+9999REMSYN094AAXX  04154 46738 32468 70210 10207 2017/ 30125 40179 50003 878// 555 82812 85622 87656 00000;EQDQ01  00002PRCP99
0295467380999992000020500004+24930+121300FM-12+0141RCUK V0203501N00211006601CN0100001N1+02001+01631101761ADDAA112000791AY161061AY221061GA1031+002409079GA2051+006609069GA3071+013509069GF107991071051002501999999KA1120N+01901MA1999999101221MD1110071+9999MW1161REMSYN134AAXX  05004 46738 11360 73504 10200 20163 30122 40176 51007 69902 71662 875// 333 20190 555 83708 85622 87645 00990 24000 10256 20191;
0254467380999992000020503004+24930+121300FM-12+0141RCUK V0200101N00211007501CN0300001N1+02261+01761101721ADDAA100000791AY161031AY221031GA1021+003609089GA2051+007509069GA3081+015009069GF108991081999004501999999MA1999999101181MD1810041+9999MW1501REMSYN106AAXX  05034 46738 11480 80104 10226 20176 30118 40172 58004 6990/ 75062 88/// 555 82812 85625 88650 00990;
0254467380999992000020506004+24930+121300FM-12+0141RCUK V0200701N00361008401CN0045001N1+02261+01921101521ADDAA106000591AY161061AY251061GA1031+002409079GA2051+008409069GA3081+021009049GF108991051051002501021999MA1999999100981MD1710201+9999MW1601REMSYN106AAXX  05064 46738 11345 80707 10226 20192 30098 40152 57020 69951 76065 8552/ 555 83708 85628 88457 00995;
0254467380999992000020509004+24930+121300FM-12+0141RCUK V0200301N00211008401CN0080001N1+02101+02011101491ADDAA100008991AY151031AY251031GA1031+001809089GA2031+008409069GA3081+015009069GF108991081051002501999999MA1999999100951MD1610031+9999MW1601REMSYN106AAXX  05094 46738 11358 80304 10210 20201 30095 40149 56003 6009/ 76055 885// 555 83806 83628 88650 00003;
0277467380999992000020512004+24930+121300FM-12+0141RCUK V0203201N00101005401CN0060001N1+02001+01941101591ADDAA112007991AY181061AY261061GA1031+001509089GA2051+005409069GA3081+013509069GF108991081071001501999999KA1120M+02381MA1999999101051MD1310101+9999MW1611REMSYN116AAXX  05124 46738 11256 83202 10200 20194 30105 40159 53010 60082 76186 887// 333 10238 555 83805 85618 88645 00008;
0254467380999992000020518004+24930+121300FM-12+0141RCUK V0200401N00101006001CN0080001N1+01901+01861101521ADDAA106009991AY161061AY261061GA1031+001809089GA2051+006009069GA3081+013509069GF108991081071002501999999MA1999999100981MD1810071+9999MW1611REMSYN106AAXX  05184 46738 11358 80402 10190 20186 30098 40152 58007 60101 76166 887// 555 83806 85620 88645 00004;
0280467380999992000020600004+24930+121300FM-12+0141RCUK V0200201N00261006001CN0060001N1+02011+01951101521ADDAA112010991AY161061AY261061GA1031+001809089GA2051+006009069GF108991081071002501999999KA1120N+01901MA1999999100981MD1310071+9999MW1611REMSYN135AAXX  06004 46738 11356 80205 10201 20195 30098 40152 53007 60112 76166 887// 333 20190 555 83806 85620 88650. 00005 24015 .102I 20190;
0273467380999992000020606004+24930+121300FM-12+0141RCUK V0200601N00461007501CN0120001N1+02221+01751101321ADDAA106000791AY161061AY261061GA1031+003009089GA2051+007509069GA3071+015009069GF107991999071004501999999MA1999999100781MD1710201+9999MW1611REMSYN106AAXX  06064 46738 11462 70609 10222 20175 30078 40132 57020 69901 76166 887// 555 83810 85625 87650 00005;EQDQ01+000082SCOTLC
0226467380999992000020609004+24930+121300FM-12+0141RCUK V0200501N00361007501CN0120001N1+02101+01621101321ADDAA100000791GA1031+003009089GA2051+007509069GA3071+015009069GF107991071081004501001001MA1999999100781MD1410001+9999REMSYN100AAXX  06094 46738 11462 70507 10210 20162 30078 40132 54000 6990/ 87800 555 83810 85625 87650 00005;
0220467380999992000020615004+24930+121300FM-12+0141RCUK V0200201N00411007501CN0120001N1+01901+01561101451ADDAA199000021GA1031+003009089GA2051+007509069GA3071+015009069GF107991071081004501001001MA1999999100911MD1410001+9999REMSYN094AAXX  06154 46738 32462 70208 10190 20156 30091 40145 54000 87800 555 83810 85625 87650 00005;
0209467380999992000020706004+24930+121300FM-12+0141RCUK V0200701N00571012001CN0180001N1+02121+99999999999ADDAA199000091GA1021+003609089GA2041+012009069GA3071+021009049GF107991999999004501999999REMSYN093AAXX  07064 46738 32468 70711 10212 2015 30071 40125 57017 83830 555 82812 84640 87457 00000;EQDQ01  00002PRCP99
0267467380999992000020709004+24930+121300FM-12+0141RCUK V0200201N00461012001CN0090001N1+02001+01461101281ADDAA199000091AY121031AY221031GA1021+003609089GA2051+012009069GA3081+021009049GF108991051081004501021999MA1999999100741MD1510031+9999MW1051REMSYN100AAXX  07094 46738 31459 80209 10200 20146 30074 40128 55003 70522 8582/ 555 82812 85640 88457 00000;EQDQ01  00002PRCP99
0262467380999992000020712004+24930+121300FM-12+0141RCUK V0200201N00511007501CN0120001N1+01921+01481101351ADDAA199000091GA1021+003609089GA2051+007509069GA3081+018009069GF108991081081004501999999KA1120M+02281MA1999999100811MD1110071+9999REMSYN104AAXX  07124 46738 32462 80210 10192 20148 30081 40135 51007 888// 333 10228 555 82812 85625 88656 00000;EQDQ01  00002PRCP99
0209467380999992000020718004+24930+121300FM-12+0141RCUK V0200101N00461006601CN0110001N1+01671+01361101421ADDGA1021+003009089GA2051+006609069GA3081+015009069GF108991081081999999999999MA1999999100881MD1410001+9999REMSYN094AAXX  07184 46738 /2/61 80109 10167 20136 30088 40142 54000 888// 555 82810 85622 88650 00000;
0239467380999992000020721004+24930+121300FM-12+0141RCUK V0200101N00671007501CN0120001N1+01601+01151101451ADDAA199000091GA1021+003009089GA2051+007509069GA3081+015009069GF108991081081004501999999MA1999999100911MD1110031+9999REMSYN094AAXX  07214 46738 32462 80113 10160 20115 30091 40145 51003 888// 555 82810 85625 88650 00000;EQDQ01  00002PRCP99
0267467380999992000020806004+24930+121300FM-12+0141RCUK V0200201N00511008401CN0090001N1+01631+01151101781ADDAA199000091AY121061AY221061GA1021+003609089GA2051+008409069GA3081+018009069GF108991081081004501999999MA1999999101181MD1710171+9999MW1051REMSYN100AAXX  08064 46738 31459 80210 10163 20115 30118 40178 57017 70522 888// 555 82812 85628 88656 00000;EQDQ01  00002PRCP99
0239467380999992000020918004+24930+121300FM-12+0141RCUK V0203601N00261009601CN0120001N1+01531+01131101861ADDAA199000091GA1021+003609089GA2051+009609069GA3081+018009069GF108991081081999999999999MA1999999101321MD1410001+9999REMSYN094AAXX  09184 46738 32/62 83605 10153 20113 30132 40186 54000 888// 555 82812 85632 88656 00000;EQDQ01  00002PRCP99
0280467380999992000021000004+24930+121300FM-12+0141RCUK V0209999C00001009601CN0200001N1+01591+01231101791ADDAA199000091GA1021+003609089GA2051+009609069GA3071+018009069GF107991071081004501001001KA1120N+01321MA1999999101251MD1610071+9999REMSYN122AAXX  10004 46738 32470 70000 10159 20123 30125 40179 56007 87800 333 20132 555 82812 85632 87656 00000 24000 10176 20120;EQDQ01  00002PRCP99
0239467380999992000021009004+24930+121300FM-12+0141RCUK V0200401N00151009601CN0200001N1+02121+01481101451ADDAA199000091GA1021+003609089GA2051+009609069GA3071+018009069GF107991071081004501001001MA1999999100911MD1610041+9999REMSYN094AAXX  10094 46738 32470 70403 10212 20148 30091 40145 56004 87800 555 82812 85632 87656 00000;EQDQ01  00002PRCP99
0256467380999992000021012004+24930+121300FM-12+0141RCUK V0203501N00151009601CN0120001N1+01901+01561999999ADDAA199000091GA1021+003609089GA2051+009609069GA3071+018009069GF107991071081004501001001KA1120M+02371MA1999999101011MD1110101+9999REMSYN098AAXX  10124 46738 32462 73503 1019/ 20156 30101 51010 87800 333 10237 555 82812 85632 87656 00000;EQDQ01  00002PRCP99
0217467380999992000021103004+24930+121300FM-12+0141RCUK V0201801N00151018001CN0180001N1+02411+01631101551ADDAA199000091GA1011+004509089GA2051+018009069GF105991051081004501001001MA1999999101011MD1810041+9999REMSYN088AAXX  11034 46738 32468 51803 10241 20163 30101 40155 58004 85800 555 81815 85656 00000;EQDQ01  00002PRCP99
0208467380999992000021106004+24930+121300FM-12+0141RCUK V0201001N002110090019N0150001N1+02341+01501101421ADDAA199000091GA1021+003609089GF106991061081004501001001MA1999999100881MD1710131+9999REMSYN095AAXX  11064 46738 32465 61004 10234 20150 30088 40142 57013 86800 555 82812 83628. 86656 00000;EQDQ01  00002PRCP99
0239467380999992000021109004+24930+121300FM-12+0141RCUK V0200601N00261007501CN0150001N1+02251+01791101381ADDAA199000091GA1021+003009089GA2031+007509069GA3061+018009069GF106991061081004501001001MA1999999100841MD1810041+9999REMSYN094AAXX  11094 46738 32465 60605 10225 20179 30084 40138 58004 86800 555 82810 83625 86656 00000;EQDQ01  00002PRCP99
0239467380999992000021115004+24930+121300FM-12+0141RCUK V0203401N00361008401CN0100001N1+02081+01721101451ADDAA199000091GA1021+003009089GA2051+008409069GA3071+018009069GF107991071061004501001001MA1999999100911MD1810041+9999REMSYN094AAXX  11154 46738 32460 73407 10208 20172 30091 40145 58004 87600 555 82810 85628 87656 00000;EQDQ01  00002PRCP99
0239467380999992000021118004+24930+121300FM-12+0141RCUK V0200501N00261008401CN0100001N1+02071+01701101421ADDAA199000091GA1021+003009089GA2051+008409069GA3071+018009069GF107991071061004501001001MA1999999100881MD1810031+9999REMSYN094AAXX  11184 46738 32460 70505 10207 20170 30088 40142 58003 87600 555 82810 85628 87656 00000;EQDQ01  00002PRCP99
0239467380999992000021121004+24930+121300FM-12+0141RCUK V0203601N00311008401CN0100001N1+01921+01711101381ADDAA199000091GA1021+003009089GA2051+008409069GA3071+018009069GF107991071061004501001001MA1999999100841MD1810041+9999REMSYN094AAXX  11214 46738 32460 73606 10192 20171 30084 40138 58004 87600 555 82810 85628 87656 00000;EQDQ01  00002PRCP99
0280467380999992000021200004+24930+121300FM-12+0141RCUK V0200201N00461008401CN0200001N1+02001+01771101491ADDAA199000091GA1021+003609089GA2041+008409069GA3061+013509069GF106991061081004501001001KA1120N+01881MA1999999100951MD1110111+9999REMSYN122AAXX  12004 46738 32470 60209 10200 20177 30095 40149 51011 86800 333 20188 555 82812 84628 86645 00000 2:000 10260 20150;EQDQ01  00002PRCP99
0239467380999992000021203004+24930+121300FM-12+0141RCUK V0200601N00361012001CN0250001N1+02321+01711101491ADDAA199000091GA1021+003609089GA2051+012009069GA3071+018009069GF107991071081004501001001MA1999999100951MD1510001+9999REMSYN094AAXX  12034 46738 32475 70607 10232 20171 30095 40149 55000 87800 555 82812 85640 87656 00000;EQDQ01  00002PRCP99
0239467380999992000021206004+24930+121300FM-12+0141RCUK V0200801N00411010501CN0250001N1+02331+01811101281ADDAA199000091GA1021+003609089GA2051+010509069GA3071+018009069GF107991071081004501001001MA1999999100741MD1810211+9999REMSYN094AAXX  12064 46738 32475 70808 10233 20181 30074 40128 58021 87800 555 82812 85635 87656 00000;EQDQ01  00002PRCP99
0239467380999992000021209004+24930+121300FM-12+0141RCUK V0200601N00361010501CN0200001N1+02261+01821101251ADDAA199000091GA1021+003609089GA2051+010509069GA3071+015009069GF107991071081004501001001MA1999999100711MD1610031+9999REMSYN094AAXX  12094 46738 32470 70607 10226 20182 30071 40125 56003 87800 555 82812 85635 87650 00000;EQDQ01  00002PRCP99
0262467380999992000021212004+24930+121300FM-12+0141RCUK V0209999C00001009601CN0120001N1+02141+01791101351ADDAA199000091GA1021+003609089GA2051+009609069GA3071+018009069GF107991071081004501001001KA1120M+02391MA1999999100811MD1310101+9999REMSYN104AAXX  12124 46738 32462 70000 10214 20179 30081 40135 53010 87800 333 10239 555 82812 85632 87656 00000;EQDQ01  00002PRCP99
0280467380999992000021300004+24930+121300FM-12+0141RCUK V0203601N00311024001CN0200001N1+02051+01691101421ADDAA199000091GA1011+004509089GA2031+009609069GA3061+024009039GF106991031081004501031001KA1120N+01941MA1999999100881MD1310071+9999REMSYN122AAXX  13004 46738 32470 63606 10205 20169 30088 40142 53007 83830 333 20194 555 81815 83632 86358 00000 24000 10239 20188;EQDQ01  00002PRCP99
0239467380999992000021309004+24930+121300FM-12+0141RCUK V0200701N00151018001CN0150001N1+02231+01901101111ADDAA199000091GA1011+003909089GA2031+007509069GA3071+018009069GF107991071081004501001001MA1999999100571MD1410001+9999REMSYN094AAXX  13094 46738 32465 70703 10223 20190 30057 40111 54000 87800 555 81813 83625 87656 00000;EQDQ01  00002PRCP99
0262467380999992000021312004+24930+121300FM-12+0141RCUK V0203301N00101006601CN0120001N1+02181+01911101151ADDAA199000091GA1021+003009089GA2051+006609069GA3071+018009069GF107991071081004501999999KA1120M+02561MA1999999100611MD1310041+9999REMSYN104AAXX  13124 46738 32462 73302 10218 20191 30061 40115 53004 878// 333 10256 555 82810 85622 87656 00000;EQDQ01  00002PRCP99
0167467380999992000021315004+24930+121300FM-12+0141RCUK V0203201N001510090019N0150001N1+02041+01851101151ADDAA199000091GF105991051081004501001001MA1999999100611MD1010001+9999REMSYN070AAXX  13154 46738 32465 53203 10204 20185 30061 40115 50000 85800 555;EQDQ01  00002PRCP99
0194467380999992000021321004+24930+121300FM-12+0141RCUK V0203301N020619999999N0150001N1+01781+01581101151ADDAA199000091GA1031+008409069MA1999999100611REMSYN089AAXX  13214 46738 32465 /3340 10178 20158 30061 40115 5300/ 83800 555 818815 83628 00000;EQDQ01+000032APCTENQ02+000002APC3  Q03  00002PRCP99
0190467380999992000021400004+24930+121300FM-12+0141RCUK V0203401N002112200019N0180001N1+02041+01561101221ADDAA199000091GF101991011041008001001031KA1120N+01781MA1999999100681MD1310071+9999REMSYN080AAXX  14004 46738 32568 13404 10204 20156 30068 40122 53007 81403 333 20178 555;EQDQ01  00002PRCP99
0195467380999992000021403004+24930+121300FM-12+0141RCUK V0201301N002112200019N0180001N1+02651+01751101181ADDAA199000091GA1011+004809089GF101991011011004501001001MA1999999100641MD1810041+9999REMSYN082AAXX  14034 46738 32468 11304 10265 20175 30064 40118 58004 81100 555 81816 00000;EQDQ01  00002PRCP99
0191467380999992000021406004+24930+121300FM-12+0141RCUK V0209999999999009001CN0300001N1+02701+01931101081ADDAA199000091GA1021+004809089GA2031+009009069MA1999999100501MD1610101+9999REMSYN088AAXX  14064 46738 32480 /1/06 10270 20193 3005/ 40108 56010 83800 555 82816 83630 00000;EQDQ01  00002PRCP99
0226467380999992000021418004+24930+121300FM-12+0141RCUK V0200201N00411007501CN0110001N1+01921+01451101551ADDAA106000791GA1021+003609089GA2051+007509069GA3081+015009069GF108991081081999999999999MA1999999101011MD1310061+9999REMSYN100AAXX  14184 46738 12/61 80208 10192 20145 30101 40155 53006 69901 888// 555 82812 85625 88650 00000;
0267467380999992000021500004+24930+121300FM-12+0141RCUK V0200201N00671007501CN0200001N1+01801+01331101891ADDAA112000791GA1021+003009089GA2051+007509069GA3081+015009069GF108991081999004501999999KA1120N+01781MA1999999101351MD1210301+9999REMSYN128AAXX  15004 46738 12470 80213 10180 20133 30135 40189 52030 69902 88/// 333 20178 555 82810 85625 88650 00000 24990 10276 20178;
0224467380999992000021503004+24930+121300FM-12+0141RCUK V0200201N00621009601CN0250001N1+01851+01301102031ADDAA199000091GA1021+003609089GA2051+009609069GF108991081081004501999999MA1999999101491MD1110141+9999REMSYN095AAXX  15034 46738 32475 80212 10185 20130 30149 40203 51014 888// 555 82812 85632 88656. 00000;EQDQ01  00002PRCP99
0208467380999992000021506004+24930+121300FM-12+0141RCUK V0200201N004110090019N0250001N1+01851+01281101891ADDAA199000091GA1021+003609089GF108991081081004501999999MA1999999101351MD1810141+9999REMSYN095AAXX  15064 46738 32475 80208 10185 20128 30135 40189 58014 888// 555 82812 .856T IIYTYM 00000;EQDQ01  00002PRCP99
0237467380999992000021512004+24930+121300FM-12+0141RCUK V0200101N006210090019N0120001N1+01621+01211101961ADDAA199000091GA1021+003609089GF108991081081004501999999KA1120M+01921MA1999999101421MD1310071+9999REMSYN111AAXX  15124 46738 32462 80112 10162 20121 30142 40196 53007 888// 333 10192 555 30122 82812 85628. 88656 00000;EQDQ01  00002PRCP99
0245467380999992000021515004+24930+121300FM-12+0141RCUK V0200101N00461006601CN0150001N1+01621+01041102031ADDAA199000091GA1021+003609089GA2051+006609069GA3081+018009069GF108991081081004501999999MA1999999101491MD1110071+9999REMSYN100AAXX  15154 46738 32465 80109 10162 20104 30149 40203 51007 888// 555 30122 82812 85622 88656 00000;EQDQ01  00002PRCP99
0239467380999992000021518004+24930+121300FM-12+0141RCUK V0203501N00411006601CN0150001N1+01711+01031101961ADDAA199000091GA1021+003609089GA2051+006609069GA3081+999999069GF108991081081004501999999MA1999999101421MD1810071+9999REMSYN094AAXX  15184 46738 32465 83508 10171 20103 30142 40196 58007 888// 555 82812 85622 88651 00000;EQDQ01  00002PRCP99
0280467380999992000021600004+24930+121300FM-12+0141RCUK V0200201N00671007501CN0180001N1+01611+01111102031ADDAA199000091GA1021+003009089GA2051+007509069GA3081+018009069GF108991081081004501999999KA1120N+01571MA1999999101491MD1210101+9999REMSYN122AAXX  16004 46738 32468 80213 10161 20111 30149 40203 52010 888// 333 20157 555 82810 85625 88656 00000 24000 10192 20157;EQDQ01  00002PRCP99
0208467380999992000021603004+24930+121300FM-12+0141RCUK V0200201N004110090019N0250001N1+01721+01181102031ADDAA199000091GA1021+003609089GF108991051081004501021999MA1999999101491MD1010001+9999REMSYN095AAXX  16034 46738 32475 80208 10172 20118 30149 40203 50000 8582/ 555 82812 8563 5 88457 00000;EQDQ01  00002PRCP99
0239467380999992000021606004+24930+121300FM-12+0141RCUK V0200301N00511013501CN0250001N1+02071+01211101761ADDAA199000091GA1021+003609089GA2051+013509069GA3051+021009039GF106991051081004501031001MA1999999101221MD1710271+9999REMSYN094AAXX  16064 46738 32475 60310 10207 20121 30122 40176 57027 85830 555 82812 85645 85357 00000;EQDQ01  00002PRCP99
0239467380999992000021609004+24930+121300FM-12+0141RCUK V0200201N00411010501CN0200001N1+01891+01171101761ADDAA199000091GA1021+003609089GA2051+010509069GA3071+021009039GF107991051081004501031999MA1999999101221MD1410001+9999REMSYN094AAXX  16094 46738 32470 70208 10189 20117 30122 40176 54000 8583/ 555 82812 85635 87357 00000;EQDQ01  00002PRCP99
0262467380999992000021612004+24930+121300FM-12+0141RCUK V0200101N00311008401CN0120001N1+01811+01241101861ADDAA199000091GA1021+003609089GA2051+008409069GA3081+015009069GF108991081081004501999999KA1120M+02111MA1999999101321MD1310101+9999REMSYN104AAXX  16124 46738 32462 80106 10181 20124 30132 40186 53010 888// 333 10211 555 82812 85628 88650 00000;EQDQ01  00002PRCP99
0239467380999992000021615004+24930+121300FM-12+0141RCUK V0200201N00151008401CN0110001N1+01731+01361101891ADDAA199000091GA1021+003609089GA2051+008409069GA3081+018009999GF108991081081004501999999MA1999999101351MD1110031+9999REMSYN094AAXX  16154 46738 32461 80203 10173 20136 30135 40189 51003 888// 555 82812 85628 88/56 00000;EQDQ01  00002PRCP99
0217467380999992000021618004+24930+121300FM-12+0141RCUK V0200101N00101008401CN0110001N1+01711+01331101831ADDAA199000091GA1021+003609089GA2051+008409069GF107991071081004501001001MA1999999101291MD1810061+9999REMSYN088AAXX  16184 46738 32461 70102 10171 20133 30129 40183 58006 87800 555 82812 85628 00000;EQDQ01  00002PRCP99
0280467380999992000021700004+24930+121300FM-12+0141RCUK V0200201N00361010501CN0250001N1+01831+01341101931ADDAA199000091GA1021+003609089GA2051+010509069GA3071+018009069GF107991071081004501001001KA1120N+01711MA1999999101391MD1110101+9999REMSYN122AAXX  17004 46738 32475 70207 10183 20134 30139 40193 51010 87800 333 20171 555 82812 85635 87656 00000 24000 10211 20157;EQDQ01  00002PRCP99
0239467380999992000021703004+24930+121300FM-12+0141RCUK V0200201N00511010501CN0300001N1+02131+01391101961ADDAA199000091GA1021+003609089GA2051+010509069GA3071+018009069GF107991071081004501999999MA1999999101421MD1010031+9999REMSYN094AAXX  17034 46738 32480 70210 10213 20139 30142 40196 50003 878// 555 82812 85635 87656 00000;EQDQ01  00002PRCP99
0239467380999992000021706004+24930+121300FM-12+0141RCUK V0200701N00621021001CN0300001N1+02331+01641101721ADDAA199000091GA1021+004509089GA2041+013509069GA3071+021009039GF107991041081004501031001MA1999999101181MD1710241+9999REMSYN094AAXX  17064 46738 32480 70712 10233 20164 30118 40172 57024 84830 555 82815 84645 87357 00000;EQDQ01  00002PRCP99
0213467380999992000021709004+24930+121300FM-12+0141RCUK V0200201N00621009601CN0300001N1+02121+01341101721ADDAA199000091GA1021+004509089GA2051+009609069GA3071+021009039GF107991999999004501999999MA1999999101181REMSYN082AAXX  17094 46738 32480 70212 10212 20134 30118 40172 555 82815 85632 87357 00000;EQDQ01  00002PRCP99
0280467380999992000021900004+24930+121300FM-12+0141RCUK V0203101N00101024001CN0180001N1+02281+01811101051ADDAA199000091GA1021+003609089GA2041+012009069GA3061+024009039GF106991041081004501031001KA1120N+01951MA1999999100541MD1410001+9999REMSYN122AAXX  19004 46738 32468 63102 10228 20181 30054 40105 54000 84830 333 20195 555 82812 84640 86358 00000 24998 10227 20180;EQDQ01  00002PRCP99
0217467380999992000021903004+24930+121300FM-12+0141RCUK V0202001N00461024001CN0200001N1+02791+02151100881ADDAA199000091GA1011+004509089GA2051+024009039GF105991011011004501031001MA1999999100341MD1810171+9999REMSYN088AAXX  19034 46738 32470 52009 10279 20215 30034 40088 58017 81130 555 81815 85358 00000;EQDQ01  00002PRCP99
0223467380999992000021906004+24930+121300FM-12+0141RCUK V0200801N002612200019N0200001N1+03131+02101100501ADDAA199000091GA1011+004509089GA2031+024009039GF103991011011004501031001MA1999999099961MD1710381+9999REMSYN094AAXX  19064 46738 32470 30805 10313 20210 39996 40050 57038 81130 555 31725 81815 83358 00000;EQDQ01  00002PRCP99
0234467380999992000021909004+24930+121300FM-12+0141RCUK V0202401N00311075001CN0200001N1+03211+01911999999ADDAA199000091GA1011+004509089GA2031+024009039GA3051+075009009GF105991011011004501031011MA1999999099931MD1610031+9999REMSYN089AAXX  19094 46738 32470 52406 10321 20191 39993 56003 81131 555 /81815 83358 85075 00000;EQDQ01  00002PRCP99
0240467380999992000021912004+24930+121300FM-12+0141RCUK V0201101N003112200019N0120001N1+02621+01951100571ADDAA199000091GA1011+003609089GA2031+024009039GF103991011011004501031001KA1120M+03351MA1999999100031MD1310101+9999REMSYN098AAXX  19124 46738 32462 31106 10262 20195 30003 40057 53010 81130 333 10335 555 81812 83358 00000;EQDQ01  00002PRCP99
0233467380999992000021921004+24930+121300FM-12+0141RCUK V0200301N00101018001CN0120001N1+02231+01881101381ADDAA199000091GA1021+003609089GA2061+018009069GF106991061081004501001001MA1999999100841MD1610712+9999REMSYN088AAXX  19214 46738 32462 60302 10223 20188 30084 40138 56071 86800 555 82812 86656 00000;EQDQ01+000712APC3  Q02  00002PRCP99
0255467380999992000022003004+24930+121300FM-12+0141RCUK V0200501N00461007501CN0130001N1+02321+01861101111ADDAA199000091GA1021+002409089GA2051+007509069GA3061+018009069GF106991999061002501001001MA1999999100571MD1210171+9999REMSYN094AAXX  20034 46738 32363 60509 10232 20186 30057 40111 52017 87600 555 82808 85625 86656 00000;EQDQ01+000072SCOTLCQ02  00002PRCP99
0239467380999992000022006004+24930+121300FM-12+0141RCUK V0200701N00311008401CN0150001N1+02261+01721101051ADDAA199000091GA1021+003009089GA2051+008409069GA3071+018009069GF107991071061004501001001MA1999999100511MD1810061+9999REMSYN094AAXX  20064 46738 32465 70706 10226 20172 30051 40105 58006 87600 555 82810 85628 87656 00000;EQDQ01  00002PRCP99
0254467380999992000022009004+24930+121300FM-12+0141RCUK V0209999C00001004801CN0060001N1+01991+01771101111ADDAA100001091AY161031AY221031GA1021+001509089GA2051+004809069GA3071+012009069GF107991071061001501001001MA1999999100571MD1310061+9999MW1601REMSYN106AAXX  20094 46738 11256 70000 10199 20177 30057 40111 53006 6001/ 76062 87600 555 82805 85616 87640 00001;
0254467380999992000022015004+24930+121300FM-12+0141RCUK V0203501N00261006001CN0120001N1+01861+01721101351ADDAA100001091AY161031AY221031GA1021+003609089GA2051+006009069GA3081+013509069GF108991081081004501999999MA1999999100811MD1210101+9999MW1601REMSYN106AAXX  20154 46738 11462 83505 10186 20172 30081 40135 52010 6001/ 76062 888// 555 82812 85620 88645 00004;
0255467380999992000022018004+24930+121300FM-12+0141RCUK V0203501N00361006001CN0120001N1+01711+01641101381ADDAA106001091AY161061AY221061GA1021+003609089GA2051+006009069GA3081+013509069GF108991081081004501999999MA1999999100841MD1110031+9999MW1601REMSYN107AAXX  20184 46738 11462 83507 10171 20164 30084 40138 51003 60011 76062 888// 555 /82812 85620 88645 00993;
0254467380999992000022103004+24930+121300FM-12+0141RCUK V0203601N00261006001CN0200001N1+01711+01561101721ADDAA100000391AY161031AY251031GA1031+002409079GA2051+006009069GA3081+013509069GF108991081051002501999999MA1999999101181MD1010061+9999MW1501REMSYN106AAXX  21034 46738 11370 83605 10171 20156 30118 40172 50006 6993/ 75065 885// 555 83708 85620 88645 00998;
0220467380999992000022115004+24930+121300FM-12+0141RCUK V0209999C00001008401CN0200001N1+01761+01581101551ADDAA199000021GA1021+003609089GA2051+008409069GA3071+015009069GF107991071081004501999999MA1999999101011MD1810041+9999REMSYN094AAXX  21154 46738 32470 70000 10176 20158 30101 40155 58004 878// 555 82812 85628 87650 00998;
0225467380999992000022118004+24930+121300FM-12+0141RCUK V0209999C00001008401CN0200001N1+01771+01101101561ADDAA199000091GA1021+003609089GA2051+008409069GA3071+015009069GF107991071081004501999999MA1999999101011REMSYN094AAXX  21184 46738 32470 70000 10177 20110 30101 40156 5/000 878// 555 82812 85628 87650 00000;EQDQ01  00002PRCP99
0280467380999992000022200004+24930+121300FM-12+0141RCUK V0200201N00051008401CN0200001N1+01881+01691101281ADDAA199000091GA1021+003609089GA2051+008409069GA3071+018009069GF107991071081004501999999KA1120N+01771MA1999999100741MD1610271+9999REMSYN122AAXX  22004 46738 32470 70201 10188 20169 30074 40128 56027 878// 333 20177 555 82812 85628 87656 00000 24998 10182 20168;EQDQ01  00002PRCP99
0239467380999992000022203004+24930+121300FM-12+0141RCUK V0200401N00461005401CN0200001N1+02161+01751101291ADDAA199000091GA1021+003009089GA2051+005409089GA3071+018009069GF107991071081004501999999MA1999999100741MD1410001+9999REMSYN094AAXX  22034 46738 32470 70409 10216 20175 30074 40129 54000 878// 555 82810 85818 87656 00000;EQDQ01  00002PRCP99
0254467380999992000022206004+24930+121300FM-12+0141RCUK V0200701N00311004801CN0090001N1+02111+01941101181ADDAA106000791AY121061AY221061GA1031+002109089GA2051+004809069GA3081+013509069GF108991081051002501999999MA1999999100641MD1610101+9999MW1501REMSYN106AAXX  22064 46738 11359 80706 10211 20194 30064 40118 56010 69901 75022 885// 555 83807 85616 88645 00990;
0277467380999992000022212004+24930+121300FM-12+0141RCUK V0200301N00211003601CN0080001N1+01951+01791101281ADDAA112000391AY151061AY251061GA1031+001809089GA2051+003609089GA3081+012009069GF108991081071002501999999KA1120M+02201MA1999999100741MD1310061+9999MW1501REMSYN116AAXX  22124 46738 11358 80304 10195 20179 30074 40128 53006 69932 75055 887// 333 10220 555 83806 85812 88640 00993;
0254467380999992000022215004+24930+121300FM-12+0141RCUK V0203501N00361004501CN0110001N1+01971+01781101321ADDAA100000791AY151031AY221031GA1021+001809089GA2051+004509069GA3081+015009069GF108991081081002501999999MA1999999100781MD1110041+9999MW1021REMSYN106AAXX  22154 46738 11361 83507 10197 20178 30078 40132 51004 6990/ 70252 888// 555 82806 85615 88650 00993;
0239467380999992000031418004+24930+121300FM-12+0141RCUK V0203501N00261006601CN0150001N1+02161+01831101321ADDAA199000091GA1021+003009089GA2051+006609069GA3071+018009069GF107991071081004501999999MA1999999100781MD1210101+9999REMSYN094AAXX  14184 46738 32465 73505 10216 20183 30078 40132 52010 878// 555 82810 85622 87656 00000;EQDQ01  00002PRCP99
0167467380999992000031421004+24930+121300FM-12+0141RCUK V0203301N001510090019N0150001N1+02041+01751101321ADDAA199000091GF107991071081004501999999MA1999999100781MD1410001+9999REMSYN070AAXX  14214 46738 32465 73303 10204 20175 30078 40132 54000 878// 555;EQDQ01  00002PRCP99
0195467380999992000031506004+24930+121300FM-12+0141RCUK V0201701N004612200019N0150001N1+02741+02081100941ADDAA199000091GA1011+004809089GF101991011011004501001001MA1999999100401MD1710381+9999REMSYN082AAXX  15064 46738 32465 11709 10274 20208 30040 40094 57038 81100 555 81816 00000;EQDQ01  00002PRCP99
0217467380999992000031509004+24930+121300FM-12+0141RCUK V0201701N002112200019N0100001N1+02661+02221100781ADDAA199000091GA1021+003609089GA2031+006609089GF103991031011004501001001MA1999999100241MD1710161+9999REMSYN088AAXX  15094 46738 32460 31704 10266 20222 30024 40078 57016 83100 555 82812 83822 00000;EQDQ01  00002PRCP99
0277467380999992000031612004+24930+121300FM-12+0141RCUK V0203601N00261005401CN0060001N1+01881+01681101451ADDAA112000791AY161061AY221061GA1031+003009089GA2051+005409069GA3071+015009069GF107991071081004501001001KA1120M+02871MA1999999100911MD1210341+9999MW1601REMSYN116AAXX  16124 46738 11456 73605 10188 20168 30091 40145 52034 69902 76062 87800 333 10287 555 83810 85618 87650 00990;
0233467380999992000031615004+24930+121300FM-12+0141RCUK V0200201N00571005401CN0060001N1+01861+01581101551ADDAA100000791AY161031AY261031GA1031+003009089GA2051+005409069GA3071+015009069GF107991071081004501001001MD1210101+9999MW1601REMSYN100AAXX  16154 46738 11456 70211 10186 20158 40155 52010 6990/ 76066 87800 555 83810 85618 87650 00991;
0241467380999992000031706004+24930+121300FM-12+0141RCUK V0200501N00151008401CN0200001N1+02141+01391101451ADDAA199000091GA1021+003609089GA2051+008409069GA3081+999999069GF108991081081004501999999MA1999999100911MD1710141+9999REMSYN096AAXX  17064 46738 32470 80503 10214 20139 30091 40145 57014 888// 555 82812 85628 88651 000990 ;EQDQ01  00002PRCP99
0239467380999992000031709004+24930+121300FM-12+0141RCUK V0200401N00211008401CN0200001N1+02071+01451101421ADDAA199000091GA1021+003609089GA2051+008409069GA3081+018009069GF108991081081004501999999MA1999999100881MD1810031+9999REMSYN094AAXX  17094 46738 32470 80404 10207 20145 30088 40142 58003 888// 555 82812 85628 88656 00990;EQDQ01  00002PRCP99
0262467380999992000031712004+24930+121300FM-12+0141RCUK V0200201N00461008401CN0110001N1+01941+01351101551ADDAA199000091GA1021+003609089GA2051+008409069GA3081+018009069GF108991081061004501999999KA1120M+02111MA1999999101011MD1210131+9999REMSYN104AAXX  17124 46738 32461 80209 10194 20135 30101 40155 52013 886// 333 10211 555 82812 85628 88656 00990;EQDQ01  00002PRCP99
0239467380999992000031715004+24930+121300FM-12+0141RCUK V0200201N00671008401CN0110001N1+01941+01361101551ADDAA199000091GA1021+003609089GA2051+008409069GA3071+018009069GF107991071061004501001001MA1999999101011MD1010001+9999REMSYN094AAXX  17154 46738 32461 70213 10194 20136 30101 40155 50000 87600 555 82812 85628 87656 00990;EQDQ01  00002PRCP99
0239467380999992000031718004+24930+121300FM-12+0141RCUK V0203501N00411008401CN0110001N1+01881+01431101451ADDAA199000091GA1021+003609089GA2051+008409069GA3071+018009069GF107991071061004501001001MA1999999100911MD1610101+9999REMSYN094AAXX  17184 46738 32461 73508 10188 20143 30091 40145 56010 87600 555 82812 85628 87656 00000;EQDQ01  00002PRCP99
0267467380999992000031721004+24930+121300FM-12+0141RCUK V0203501N00361008401CN0090001N1+01881+01461101381ADDAA199000091AY121031AY221031GA1021+003609089GA2051+008409069GA3071+018009069GF107991071061004501001001MA1999999100841MD1610071+9999MW1051REMSYN100AAXX  17214 46738 31459 73507 10188 20146 30084 40138 56007 70522 87600 555 82812 85628 87656 00000;EQDQ01  00002PRCP99
0280467380999992000031800004+24930+121300FM-12+0141RCUK V0200201N00211008401CN0150001N1+02001+01521101451ADDAA199000091GA1021+004509089GA2051+008409069GA3081+999999069GF108991081081004501999999KA1120N+01871MA1999999100911MD1310071+9999REMSYN122AAXX  18004 46738 32465 80204 10200 20152 30091 40145 53007 888// 333 20187 555 82815 85628 8865/ 00000 24990 10216 20179;EQDQ01  00002PRCP99
0254467380999992000031809004+24930+121300FM-12+0141RCUK V0203101N00151005401CN0060001N1+02121+01871101151ADDAA100000791AY161031AY221031GA1031+001809089GA2051+005409069GA3081+012009069GF108991081081002501999999MA1999999100611MD1810031+9999MW1601REMSYN106AAXX  18094 46738 11356 83103 10212 20187 30061 40115 58003 6990/ 76062 888// 555 83806 85618 88640 00990;
0226467380999992000031815004+24930+121300FM-12+0141RCUK V0209999C00001007501CN0110001N1+02051+01861101251ADDAA100000791GA1021+003009089GA2051+007509069GA3081+015009069GF108991081081004501999999MA1999999100711MD1310031+9999REMSYN100AAXX  18154 46738 11461 80000 10205 20186 30071 40125 53003 6990/ 888// 555 82810 85625 88650 00991;
0226467380999992000031818004+24930+121300FM-12+0141RCUK V0209999C00001007501CN0110001N1+02041+01801101251ADDAA106000791GA1021+003009089GA2051+007509069GA3081+015009069GF108991081081999999999999MA1999999100711MD1410001+9999REMSYN100AAXX  18184 46738 11/61 80000 10204 20180 30071 40125 54000 69901 888// 555 82810 85625 88650 00000;
0217467380999992000031903004+24930+121300FM-12+0141RCUK V0200901N004112200019N0160001N1+02591+01941101181ADDAA199000091GA1021+004509089GA2031+024009039GF103991011011004501031001MA1999999100641MD1810041+9999REMSYN088AAXX  19034 46738 32466 30908 10259 20194 30064 40118 58004 81130 555 82815 83358 00000;EQDQ01  00002PRCP99
0267467380999992000031906004+24930+121300FM-12+0141RCUK V0200801N00621010501CN0060001N1+02441+01941101081ADDAA199000091AY121061AY221061GA1031+003609089GA2051+010509069GA3071+024009039GF107991051081004501031001MA1999999100541MD1710101+9999MW1051REMSYN100AAXX  19064 46738 31456 70812 10244 20194 30054 40108 57010 70522 85830 555 83812 85635 87358 00000;EQDQ01  00002PRCP99
0254467380999992000031909004+24930+121300FM-12+0141RCUK V0200601N00821004801CN0040001N1+02111+01861101111ADDAA100000791AY161031AY221031GA1031+001509089GA2051+004809069GA3081+015009069GF108991081071001501999999MA1999999100571MD1110031+9999MW1601REMSYN106AAXX  19094 46738 11240 80616 10211 20186 30057 40111 51003 6990/ 76062 887// 555 83805 85616 88650 00990;
0248467380999992000031915004+24930+121300FM-12+0141RCUK V0200201N00571007501CN0070001N1+02021+01521101491ADDAA199000021AY121031AY221031GA1031+003009089GA2051+007509069GA3081+015009069GF108991081071004501999999MA1999999100951MD1210111+9999MW1051REMSYN100AAXX  19154 46738 31457 80211 10202 20152 30095 40149 52011 70522 887// 555 83810 85625 88650 00990;
0248467380999992000031918004+24930+121300FM-12+0141RCUK V0200101N00411007501CN0070001N1+01981+01511101491ADDAA199000021AY121061AY221061GA1031+003009089GA2051+007509069GA3081+015009069GF108991081071004501999999MA1999999100951MD1410001+9999MW1051REMSYN100AAXX  19184 46738 31457 80108 10198 20151 30095 40149 54000 70522 887// 555 83810 85625 88650 00000;
0248467380999992000031921004+24930+121300FM-12+0141RCUK V0200101N00211007501CN0070001N1+01961+01461999999ADDAA199000021AY121031AY221031GA1031+003009089GA2051+007509019GA3081+015009069GF108991081071004501999999MA1999999100951MD1410001+9999MW1051REMSYN100AAXX  19214 46738 31457 80104 10196 20146 30095 401/9 54000 70522 887// 555 83810 85125 88650 00000;
0280467380999992000032000004+24930+121300FM-12+0141RCUK V0203501N00361007501CN0130001N1+02011+01471101661ADDAA199000091GA1031+003009089GA2051+007509069GA3081+015009069GF108991081061004501999999KA1120N+01941MA1999999101121MD1210171+9999REMSYN122AAXX  20004 46738 32463 83507 10201 20147 30112 40166 52017 886// 333 20194 555 83810 85625 88650 00000 24990 10263 20188;EQDQ01  00002PRCP99
0267467380999992000032003004+24930+121300FM-12+0141RCUK V0200201N00361007501CN0060001N1+02261+01481101661ADDAA199000091AY121031AY221031GA1031+003009089GA2051+007509069GA3081+015009069GF108991081061004501999999MA1999999101121MD1010001+9999MW1051REMSYN100AAXX  20034 46738 31456 80207 10226 20148 30112 40166 50000 70522 886// 555 83810 85625 88650 00000;EQDQ01  00002PRCP99
0254467380999992000032006004+24930+121300FM-12+0141RCUK V0200701N00671006601CN0050001N1+02141+01761101491ADDAA106000791AY161061AY221061GA1031+002709089GA2051+006609069GA3081+015009069GF108991081061002501999999MA1999999100951MD1710171+9999MW1601REMSYN106AAXX  20064 46738 11350 80713 10214 20176 30095 40149 57017 69901 76062 886// 555 83809 85622 88650 00990;
0249467380999992000032012004+24930+121300FM-12+0141RCUK V0200101N00361006601CN0100001N1+02031+01441101591ADDAA112000791GA1021+003009089GA2051+006609069GA3081+015009069GF108991081081004501999999KA1120M+02351MA1999999101051MD1310101+9999REMSYN110AAXX  20124 46738 12460 80107 10203 20144 30105 40159 53010 69902 888// 333 10235 555 82810 85622 88650 00990;
0220467380999992000032015004+24930+121300FM-12+0141RCUK V0203401N00461007501CN0100001N1+01981+01461101621ADDAA199000021GA1021+003009089GA2051+007509069GA3081+015009069GF108991081081004501999999MA1999999101081MD1110031+9999REMSYN094AAXX  20154 46738 32460 83409 10198 20146 30108 40162 51003 888// 555 82810 85625 88650 00990;
0220467380999992000032018004+24930+121300FM-12+0141RCUK V0203101N00211018001CN0100001N1+01691+01411101551ADDAA199000021GA1011+003009089GA2031+010509069GA3061+018009069GF106991061081004501001001MA1999999101011MD1810071+9999REMSYN094AAXX  20184 46738 32460 63104 10169 20141 30101 40155 58007 86800 555 81810 83635 86656 00000;
0252467380999992000032100004+24930+121300FM-12+0141RCUK V0200301N002612200019N0100001N1+01951+01481999999ADDAA199000091GA1021+004509069GA2031+075009009GF103991021051004501001011KA1120N+01641MA1999999101081MD1210101+9999REMSYN110AAXX  21004 46738 32460 30305 10195 20148 30108 52010 82501 333 20164 555 82615 83075 00000 24990 10235 20194;EQDQ01  00002PRCP99
0239467380999992000032103004+24930+121300FM-12+0141RCUK V0201201N00101008401CN0110001N1+02391+01631101551ADDAA199000091GA1011+004809089GA2051+008409069GA3071+015009069GF107991071081004501001001MA1999999101011MD1810071+9999REMSYN094AAXX  21034 46738 32461 71202 10239 20163 30101 40155 58007 87800 555 81816 85628 87650 00000;EQDQ01  00002PRCP99
0262467380999992000032112004+24930+121300FM-12+0141RCUK V0203001N00101008401CN0110001N1+02281+01661101381ADDAA199000091GA1021+004509089GA2051+008409069GA3071+015009069GF107991071061999999001001KA1120M+02461MA1999999100841MD1210101+9999REMSYN104AAXX  21124 46738 32/61 73002 10228 20166 30084 40138 52010 87600 333 10246 555 82815 85628 87650 00000;EQDQ01  00002PRCP99
0195467380999992000032206004+24930+121300FM-12+0141RCUK V0201401N002612200019N0100001N1+02691+01881101321ADDAA199000091GA1011+004809089GF101991011011004501001001MA1999999100781MD1710201+9999REMSYN082AAXX  22064 46738 32460 11405 10269 20188 30078 40132 57020 81100 555 81816 00000;EQDQ01  00002PRCP99
0239467380999992000032209004+24930+121300FM-12+0141RCUK V0201401N00101024001CN0110001N1+02491+01741101321ADDAA199000091GA1011+004809089GA2031+013509069GA3051+024009039GF105991031081004501031001MA1999999100781MD1410001+9999REMSYN094AAXX  22094 46738 32461 51402 10249 20174 30078 40132 54000 83830 555 81816 83645 85358 00000;EQDQ01  00002PRCP99
0195467380999992000032221004+24930+121300FM-12+0141RCUK V0203401N001512200019N0120001N1+01921+01581101451ADDAA199000091GA1011+004509089GF102991011011004501031001MA1999999100911MD1410001+9999REMSYN082AAXX  22214 46738 32462 23403 10192 20158 30091 40145 54000 81130 555 81815 00000;EQDQ01  00002PRCP99
0258467380999992000032300004+24930+121300FM-12+0141RCUK V0203501N00051012001CN0120001N1+02161+01601101551ADDAA199000091GA1021+003609089GA2071+012009069GF107991071081004501001001KA1120N+01821MA1999999101011MD1310101+9999REMSYN116AAXX  23004 46738 32462 73501 10216 20160 30101 40155 53010 87800 333 20182 555 82812 87640 00000 24000 10273 20179;EQDQ01  00002PRCP99
0267467380999992000032309004+24930+121300FM-12+0141RCUK V0201701N00151010501CN0080001N1+02521+01881101351ADDAA199000091AY121031AY221031GA1021+003609089GA2051+010509069GA3071+018009069GF107991071081004501001001MA1999999100811MD1510031+9999MW1051REMSYN100AAXX  23094 46738 31458 71703 10252 20188 30081 40135 55003 70522 87800 555 82812 85635 87656 00000;EQDQ01  00002PRCP99
0262467380999992000032312004+24930+121300FM-12+0141RCUK V0203201N00151010501CN0120001N1+02401+01861101491ADDAA199000091GA1021+003609089GA2051+010509069GA3061+024009039GF108991051081004501031001KA1120M+02831MA1999999100951MD1210141+9999REMSYN104AAXX  23124 46738 32462 83203 10240 20186 30095 40149 52014 85830 333 10283 555 82812 85635 86358 00000;EQDQ01  00002PRCP99
0239467380999992000032315004+24930+121300FM-12+0141RCUK V0200701N00101010501CN0120001N1+02321+02011101591ADDAA199000091GA1021+003609089GA2051+010509069GA3061+021009039GF106991051081004501031001MA1999999101051MD1110101+9999REMSYN094AAXX  23154 46738 32462 60702 10232 20201 30105 40159 51010 85830 555 82812 85635 86357 00000;EQDQ01  00002PRCP99
0277467380999992000032318004+24930+121300FM-12+0141RCUK V0200201N00361006601CN0100001N1+02161+01851101591ADDAA199000091AY121061AY221061GA1021+003009089GA2051+006609089GA3071+015009069GF107991071081004501999999MA1999999101051MD1410001+9999REMSYN100AAXX  23184 46738 32460 70207 10216 20185 30105 40159 54000 77022 878// 555 82810 85822 87650 00000;EQDQ01+000702PRSWM1Q02  00002PRCP99
0239467380999992000032321004+24930+121300FM-12+0141RCUK V0200201N00621007501CN0150001N1+02071+01651101621ADDAA199000091GA1021+003009089GA2051+007509069GA3071+015009069GF107991071081004501999999MA1999999101081MD1310031+9999REMSYN094AAXX  23214 46738 32465 70212 10207 20165 30108 40162 53003 878// 555 82810 85625 87650 00000;EQDQ01  00002PRCP99
0267467380999992000032403004+24930+121300FM-12+0141RCUK V0200201N006210090019N0080001N1+02031+01461102031ADDAA199000091AY121031AY221031GA1021+003609089GA2051+009009069GA3081+021009049GF108991051081004501021999MA1999999101491MD1210141+9999MW1051REMSYN100AAXX  24034 46738 31458 80212 10203 20146 30149 40203 52014 70522 8582/ 555 82812 85630 88457 00000;EQDQ01  00002PRCP99
0249467380999992000032412004+24930+121300FM-12+0141RCUK V0200101N00771006601CN0100001N1+01891+01331101961ADDAA112000791GA1021+003009089GA2051+006609069GA3081+015009069GF108991081081004501999999KA1120M+02161MA1999999101421MD1310071+9999REMSYN110AAXX  24124 46738 12460 80115 10189 20133 30142 40196 53007 69902 888// 333 10216 555 82810 85622 88650 00990;
0212467380999992000032418004+24930+121300FM-12+0141RCUK V0200201N00361006601CN0100001N1+01851+01401999999ADDAA199000091GA1021+003009089GA2051+006609069GA3081+015009069GF108991081081004501999999MD1610031+9999REMSYN082AAXX  24184 46738 32460 80207 10185 20140 56003 888// 555 82810 85622 88650 00000;EQDQ01  00002PRCP99
0225467380999992000032421004+24930+121300FM-12+0141RCUK V0200301N00261006601CN0100001N1+01801+01461102061ADDAA199000091GA1021+003009089GA2051+006609999GF108991081081004501999999MA1999999101521MD1310031+9999REMSYN096AAXX  24214 46738 32460 80305 10180 20146 30152 40206 53003 888// 555 /82810 85/22 88650. 00000;EQDQ01  00002PRCP99
0267467380999992000032509004+24930+121300FM-12+0141RCUK V0200101N00311009601CN0070001N1+02081+01431101861ADDAA199000091AY121031AY221031GA1021+003009089GA2051+009609069GA3081+018009069GF108991081081004501999999MA1999999101321MD1610071+9999MW1051REMSYN100AAXX  25094 46738 31457 80106 10208 20143 30132 40186 56007 70522 888// 555 82810 85632 88656 00000;EQDQ01  00002PRCP99
0239467380999992000032515004+24930+121300FM-12+0141RCUK V0203401N00261005401CN0100001N1+01891+01461102101ADDAA199000091GA1021+002409089GA2051+005409069GA3081+015009069GF108991081081002501999999MA1999999101561MD1110111+9999REMSYN094AAXX  25154 46738 32360 83405 10189 20146 30156 40210 51011 888// 555 82808 85618 88650 00990;EQDQ01  00002PRCP99
0239467380999992000032521004+24930+121300FM-12+0141RCUK V0203501N00261005401CN0100001N1+01851+01491101961ADDAA199000091GA1021+002409089GA2051+005409069GA3081+015009069GF108991081081999999999999MA1999999101421MD1810071+9999REMSYN094AAXX  25214 46738 32/60 83505 10185 20149 30142 40196 58007 888// 555 82808 85618 88650 00000;EQDQ01  00002PRCP99
0239467380999992000032603004+24930+121300FM-12+0141RCUK V0200301N00261009601CN0180001N1+02141+01511101991ADDAA199000091GA1021+003009089GA2051+009609069GA3081+018009069GF108991081081004501999999MA1999999101451MD1410001+9999REMSYN094AAXX  26034 46738 32468 80305 10214 20151 30145 40199 54000 888// 555 82810 85632 88656 00000;EQDQ01  00002PRCP99
0239467380999992000032606004+24930+121300FM-12+0141RCUK V0200501N00101009601CN0150001N1+02191+01611101761ADDAA199000091GA1021+003009089GA2051+009609069GA3081+018009069GF108991081081004501999999MA1999999101221MD1710231+9999REMSYN094AAXX  26064 46738 32465 80502 10219 20161 30122 40176 57023 888// 555 82810 85632 88656 00000;EQDQ01  00002PRCP99
0249467380999992000032612004+24930+121300FM-12+0141RCUK V0209999C00001007501CN0100001N1+02041+01661101761ADDAA112000791GA1021+002409089GA2051+007509069GA3081+015009069GF108991081071002501999999KA1120M+02211MA1999999101221MD1310071+9999REMSYN110AAXX  26124 46738 11360 80000 10204 20166 30122 40176 53007 69902 887// 333 10221 555 82808 85625 88650 00990;
0239467380999992000032615004+24930+121300FM-12+0141RCUK V0203401N00211007501CN0100001N1+01971+01601101761ADDAA199000091GA1021+002409089GA2051+007509019GA3081+015009069GF108991081071002501999999MA1999999101221MD1410001+9999REMSYN094AAXX  26154 46738 32360 83404 10197 20160 30122 40176 54000 887// 555 82808 85125 88650 00990;EQDQ01  00002PRCP99
0224467380999992000032618004+24930+121300FM-12+0141RCUK V0203601N00211007501CN0100001N1+01901+01541101761ADDAA199000091GA1021+002409089GA2051+007509069GF108991081071002501999999MA1999999101221MD1410001+9999REMSYN095AAXX  26184 46738 32360 83604 10190 20154 30122 40176 54000 887// 555 82808 85625 88650. 00000;EQDQ01  00002PRCP99
0296467380999992000032700004+24930+121300FM-12+0141RCUK V0200201N00311024001CN0150001N1+02021+01601101621ADDAA199000091GA1011+003609089GA2031+007509069GA3051+024009039GF105991999071004501999999KA1120N+01771MA1999999101081MD1710141+9999REMSYN122AAXX  27004 46738 32465 50206 10202 20160 30108 40162 57014 887// 333 20177 555 81812 83625 85358 00000 24990 10221 20185;EQDQ01+000082SCOTLCQ02  00002PRCP99
0255467380999992000032703004+24930+121300FM-12+0141RCUK V0201401N00211018001CN0150001N1+02381+01751101591ADDAA199000091GA1011+003609089GA2031+007509069GA3061+018009069GF106991999071004501999999MA1999999101051MD1810031+9999REMSYN094AAXX  27034 46738 32465 61404 10238 20175 30105 40159 58003 887// 555 81812 83625 86656 00000;EQDQ01+000082SCOTLCQ02  00002PRCP99
0278467380999992000032712004+24930+121300FM-12+0141RCUK V0203201N00211007501CN0100001N1+02181+01661101251ADDAA199000091GA1011+003009089GA2051+007509069GA3061+015009069GF106991999071004501999999KA1120M+02591MA1999999100711MD1310101+9999REMSYN104AAXX  27124 46738 32460 63204 10218 20166 30071 40125 53010 887// 333 10259 555 81810 85625 86650 00000;EQDQ01+000082SCOTLCQ02  00002PRCP99
0255467380999992000032715004+24930+121300FM-12+0141RCUK V0209999C00001007501CN0100001N1+02001+01641101281ADDAA199000091GA1011+003009089GA2051+007509069GA3061+015009069GF106991999071004501999999MA1999999100741MD1310031+9999REMSYN094AAXX  27154 46738 32460 60000 10200 20164 30074 40128 53003 887// 555 81810 85625 86650 00000;EQDQ01+000082SCOTLCQ02  00002PRCP99
0255467380999992000032718004+24930+121300FM-12+0141RCUK V0203301N00151007501CN0100001N1+99999+99999101281ADDAA199000091GA1011+003009089GA2051+007509069GA3061+015009069GF106991999071004501999999MA1999999100741MD1410001+9999REMSYN094AAXX  27184 46738 32460 63303 10778 20151 30074 40128 54000 887// 555 81810 85625 86650 00000;EQDQ01+000082SCOTLCQ02  00002PRCP99
0255467380999992000032721004+24930+121300FM-12+0141RCUK V0203601N00261007501CN0100001N1+01931+01451101281ADDAA199000091GA1011+003009089GA2051+007509069GA3061+015009069GF106991999071004501999999MA1999999100741MD1410001+9999REMSYN094AAXX  27214 46738 32460 63605 10193 20145 30074 40128 54000 887// 555 81810 85625 86650 00000;EQDQ01+000082SCOTLCQ02  00002PRCP99
0195467380999992000032806004+24930+121300FM-12+0141RCUK V0200701N007212200019N0160001N1+02841+01951101181ADDAA199000091GA1011+004509089GF101991011011004501001001MA1999999100641MD1610101+9999REMSYN082AAXX  28064 46738 32466 10714 10284 20195 30064 40118 56010 81100 555 81815 00000;EQDQ01  00002PRCP99
0264467380999992000032900004+24930+121300FM-12+0141RCUK V0200301N007212200019N0060001N1+02291+01571101891ADDAA199000091AY111061AY211061GA1011+004509089GF101991011011004501001001KA1120N+01991MA1999999101351MD1210401+9999MW1051REMSYN116AAXX  29004 46738 31456 10314 10229 20157 30135 40189 52040 70511 81100 333 20199 555 81815 00000 24000 10306 20180;EQDQ01  00002PRCP99
0265467380999992000032903004+24930+121300FM-12+0141RCUK V0200701N008210090019N0050001N1+02411+01911101991ADDAA199000091AY121031GA1021+004209089GA2031+009009069GA3061+018009069GF106991061081004501001001MA1999999101451MD1010101+9999MW1051REMSYN106AAXX  29034 46738 31450 60716 10241 20191 30145 40199 50010 7052/ 86800 555 30726 82814 83630 86656 00000;EQDQ01  00002PRCP99
0260467380999992000032906004+24930+121300FM-12+0141RCUK V0200601N00821006601CN0050001N1+02211+01771101861ADDAA106000791AY121061AY221061GA1031+002409089GA2051+006609069GA3071+015009069GF107991071081002501001001MA1999999101321MD1710131+9999MW1051REMSYN112AAXX  29064 46738 11350 70616 10221 20177 30132 40186 57013 69901 70522 87800 555 30726 83808 85622 87650 00990;
0246467380999992000032909004+24930+121300FM-12+0141RCUK V0203601N00361006601CN0050001N1+02111+01611101861ADDAA100000791AY121031AY221031GA1051+006609069GA2081+015009069GF108991081061002501999999MA1999999101321MD1510001+9999MW1051REMSYN114AAXX  29094 46738 11350 83607 10211 20161 30132 40186 55000 6990/ 70522 886// 555 30726 830 808 85622 88650 00990;
0277467380999992000032912004+24930+121300FM-12+0141RCUK V0203401N00511010501CN0060001N1+01951+01571101961ADDAA112000791AY121061AY221061GA1031+003609089GA2051+010509069GA3071+018009069GF107991071061004501001001KA1120M+02481MA1999999101421MD1210101+9999MW1051REMSYN116AAXX  29124 46738 11456 73410 10195 20157 30142 40196 52010 69902 70522 87600 333 10248 555 83812 85635 87656 00990;
0267467380999992000032915004+24930+121300FM-12+0141RCUK V0203501N00461010501CN0070001N1+01941+01601101961ADDAA199000091AY121031AY221031GA1031+003609089GA2051+010509069GA3071+018009069GF107991071061004501001001MA1999999101421MD1410001+9999MW1051REMSYN100AAXX  29154 46738 31457 73509 10194 20160 30142 40196 54000 70522 87600 555 83812 85635 87656 00990;EQDQ01  00002PRCP99
0267467380999992000032918004+24930+121300FM-12+0141RCUK V0203401N00101010501CN0070001N1+01901+01511101761ADDAA199000091AY121061AY221061GA1031+003609089GA2051+010509069GA3071+018009069GF107991071061004501001001MA1999999101221MD1610201+9999MW1051REMSYN100AAXX  29184 46738 31457 73402 10190 20151 30122 40176 56020 70522 87600 555 83812 85635 87656 00000;EQDQ01  00002PRCP99
0270467380999992000032921004+24930+121300FM-12+0141RCUK V0203501N00101010501CN0070001N1+01841+01521101721ADDAA199000091AY121031AY221031GA1031+003609089GA2051+010509069GA3071+999999069GF107991071061004501001001MA1999999101181MD1610041+9999MW1051REMSYN103AAXX  29214 46738 31457 73502 10184 20152 30118 40172 56004 70522 87600 555 83812 85635 87651 00000 /9;EQDQ01  00002PRCP99
0309467380999992000033000004+24930+121300FM-12+0141RCUK V0200201N00211010501CN0070001N1+02041+01581101791ADDAA199000091AY121061AY221061GA1031+004509089GA2051+010509069GA3061+018009069GF106991061081004501001001KA1120N+01841MA1999999101251MD1310071+9999MW1051REMSYN129AAXX  30004 46738 31457 60204 10204 20158 30125 40179 53007 70522 86800 333 20184 555 83815 85635 86656 00000 24990 10248. 20194;EQDQ01  00002PRCP99
0267467380999992000033003004+24930+121300FM-12+0141RCUK V0200901N00311010501CN0090001N1+02441+01801101761ADDAA199000091AY121031AY211031GA1021+003609089GA2031+010509069GA3061+024009039GF106991031081004501031001MA1999999101221MD1810031+9999MW1051REMSYN100AAXX  30034 46738 31459 60906 10244 20180 30122 40176 58003 70521 83830 555 82812 83635 86358 00000;EQDQ01  00002PRCP99
0290467380999992000033012004+24930+121300FM-12+0141RCUK V0202901N00151009001CN0070001N1+02221+01771101421ADDAA199000091AY121061AY221061GA1031+003609089GA2051+009009069GA3071+015009069GF107991071061004501001001KA1120M+02511MA1999999100881MD1110041+9999MW1051REMSYN110AAXX  30124 46738 31457 72903 10222 20177 30088 40142 51004 70522 87600 333 10251 555 83812 85630 87650 00000;EQDQ01  00002PRCP99
0267467380999992000033015004+24930+121300FM-12+0141RCUK V0202901N00211009001CN0060001N1+02031+01721101421ADDAA199000091AY121031AY221031GA1021+004509089GA2031+009009069GA3071+024009039GF107991031081004501031001MA1999999100881MD1410001+9999MW1051REMSYN100AAXX  30154 46738 31456 72904 10203 20172 30088 40142 54000 70522 83830 555 82815 83630 87358 00000;EQDQ01  00002PRCP99
0267467380999992000033018004+24930+121300FM-12+0141RCUK V0209999C00001024001CN0060001N1+02021+01571101281ADDAA199000091AY121061AY221061GA1011+004509089GA2031+009009069GA3071+024009039GF107991031081004501031001MA1999999100741MD1610141+9999MW1051REMSYN100AAXX  30184 46738 31456 70000 10202 20157 30074 40128 56014 70522 83830 555 81815 83630 87358 00000;EQDQ01  00002PRCP99
0267467380999992000033021004+24930+121300FM-12+0141RCUK V0209999C00001024001CN0060001N1+02031+01521101181ADDAA199000091AY121031AY221031GA1011+004509089GA2031+009009069GA3071+024009039GF107991031081004501031001MA1999999100641MD1610101+9999MW1051REMSYN100AAXX  30214 46738 31456 70000 10203 20152 30064 40118 56010 70522 83830 555 81815 83630 87358 00000;EQDQ01  00002PRCP99
0254467380999992000033106004+24930+121300FM-12+0141RCUK V0201301N00211018001CN0090001N1+02671+02171101051ADDAA106000791AY121061AY221061GA1011+003609089GA2041+010509069GA3061+018009069GF106991061081004501001001MA1999999100511MD1710201+9999MW1051REMSYN106AAXX  31064 46738 11459 61304 10267 20217 30051 40105 57020 69901 70522 86800 555 81812 84635 86656 00990;
0254467380999992000033109004+24930+121300FM-12+0141RCUK V0200301N003610090019N0070001N1+02481+01931100941ADDAA100000791AY121031AY221031GA1021+003609089GA2051+009009069GA3071+018009069GF107991071081004501001001MA1999999100401MD1610111+9999MW1051REMSYN106AAXX  31094 46738 11457 70307 10248 20193 30040 40094 56011 6990/ 70522 87800 555 82812 85630 87656 00990;
0267467380999992000033121004+24930+121300FM-12+0141RCUK V0200101N00311007501CN0090001N1+02241+01911101081ADDAA199000091AY121031AY221031GA1021+003609089GA2051+007509069GA3081+015009069GF108991081081004501999999MA1999999100541MD1410001+9999MW1051REMSYN100AAXX  31214 46738 31459 80106 10224 20191 30054 40108 54000 70522 888// 555 82812 85625 88650 00000;EQDQ01  00002PRCP99
0254467380999992000040103004+24930+121300FM-12+0141RCUK V0201501N00211007501CN0070001N1+02641+02191101011ADDAA100000791AY161031AY221031GA1031+003609089GA2051+007509069GA3071+018009069GF107991071071004501001001MA1999999100471MD1810071+9999MW1601REMSYN106AAXX  01034 46738 11457 71504 10264 20219 30047 40101 58007 6990/ 76062 87700 555 83812 85625 87656 00990;
0289467380999992000040106004+24930+121300FM-12+0141RCUK V0201301N00311009001CN0090001N1+02681+02121100811ADDAA106000791AY161061AY221061GA1021+004509089GA2031+009009069GA3061+024009039GF106991999081004501999001MA1999999100271MD1710201+9999MW1051REMSYN106AAXX  01064 46738 11459 61306 10268 20212 30027 40081 57020 69901 70562 87800 555 82815 83630 86358 00990;EQDQ01+000072SCOTLCQ02+000002SCOMCG
0273467380999992000040109004+24930+121300FM-12+0141RCUK V0201701N00101006601CN0060001N1+02471+02181999999ADDAA100000791AY121031AY221031GA1031+002409089GA2051+006609069GA3081+015009069GF108991081061002501999999MA1999999100171MD1610101+9999MW1051REMSYN106AAXX  01094 46738 11356 81702 10247 20218 30017 40011 56010 6990/ 70522 886// 555 83808 85622 88650 00990;EQDQ01+100113APOSLP
0299467380999992000040112004+24930+121300FM-12+0141RCUK V0203201N00101006301CN0100001N1+02411+02171100781ADDAA112000791AY161061AY221061GA1031+002409079GA2011+004809099GA3041+006309069GA4071+012009069GF107991071091002501001001KA1120M+02831MA1999999100241MD1310071+9999MW1211REMSYN122AAXX  01124 46738 11360 73202 10241 20217 30024 40078 53007 69902 72162 87900 333 10283 555 83708 81916 84621 87640 00990;
0226467380999992000040118004+24930+121300FM-12+0141RCUK V0203101N00151007501CN0100001N1+02251+02051100721ADDAA106003091GA1021+003609089GA2051+007509069GA3071+015009069GF107991071081004501001001MA1999999100241MD1810031+9999REMSYN100AAXX  01184 46738 12460 73103 10225 20205 30024 40072 58003 60031 87800 555 82812 85625 87650 00000;
0204467380999992000040121004+24930+121300FM-12+0141RCUK V0203601N00511018001CN0100001N1+02221+01961100841ADDAA100003091GA1011+003609089GA2051+018009069GF105991051081004501001001MA1999999100301MD1310061+9999REMSYN094AAXX  01214 46738 12460 53610 10222 20196 30030 40084 53006 6003/ 85800 555 81812 85656 00000;
0211467380999992000040200004+24930+121300FM-12+0141RCUK V0203601N003112200019N0200001N1+02511+02071100981ADDAA112003091GA1011+003609089GF101991011011004501001001KA1120N+02201MA1999999100441MD1210141+9999REMSYN104AAXX  02004 46738 12470 13606 10251 20207 30044 40098 52014 60032 81100 333 20220 555 81812 00000 24003;
0189467380999992000040203004+24930+121300FM-12+0141RCUK V0201101N003112200019N0250001N1+02891+02231999999ADDAA199000091GA1011+004509089GF101991011011004501001001MA1999999100441MD1410001+9999REMSYN076AAXX  02034 46738 32475 11106 10289 20223 30044 54000 81100 555 81815 00000;EQDQ01  00002PRCP99
0289467380999992000040206004+24930+121300FM-12+0141RCUK V0200701N00771005401CN0070001N1+02821+02271100911ADDAA199000091AY111061AY211061GA1031+001809089GA2011+003609099GA3041+005409069GA4061+012009069GF106991061091002501001001MA1999999100371MD1810071+9999MW1051REMSYN106AAXX  02064 46738 31357 60715 10282 20227 30037 40091 58007 70511 86900 555 83806 81912 84618 86640 00000;EQDQ01  00002PRCP99
0267467380999992000040209004+24930+121300FM-12+0141RCUK V0200701N00671004801CN0050001N1+02651+02221100881ADDAA199000091AY121031AY221031GA1031+001809089GA2051+004809089GA3071+015009069GF107991071081002501001001MA1999999100341MD1610031+9999MW1051REMSYN100AAXX  02094 46738 31350 70713 10265 20222 30034 40088 56003 70522 87800 555 83806 85816 87650 00000;EQDQ01  00002PRCP99
0290467380999992000040212004+24930+121300FM-12+0141RCUK V0200601N00571004501CN0060001N1+02531+02211101051ADDAA199000091AY121061AY221061GA1031+002409089GA2051+004509069GA3071+015009069GF107991071061002501001001KA1120M+02961MA1999999100511MD1210171+9999MW1051REMSYN110AAXX  02124 46738 31356 70611 10253 20221 30051 40105 52017 70522 87600 333 10296 555 83808 85615 87650 00000;EQDQ01  00002PRCP99
0254467380999992000040218004+24930+121300FM-12+0141RCUK V0203501N00151005401CN0050001N1+02391+02261101151ADDAA106003091AY161061AY261061GA1031+002409089GA2051+005409069GA3081+015009069GF108991081071002501999999MA1999999100611MD1610101+9999MW1601REMSYN106AAXX  02184 46738 11350 83503 10239 20226 30061 40115 56010 60031 76066 887// 555 83808 85618 88650 00990;
0233467380999992000040300004+24930+121300FM-12+0141RCUK V0200401N00101030001CN0100001N1+02441+02101101181ADDAA112003091GA1021+003609089GA2051+030009039GF105991021011004501031001KA1120N+02261MA1999999100641MD1310071+9999REMSYN110AAXX  03004 46738 11460 50402 10244 2021/ 30064 40118 53007 60032 82130 333 20226 555 82812 85360 00990 24002;
0239467380999992000040309004+24930+121300FM-12+0141RCUK V0201601N00101006301CN0100001N1+02561+02191100911ADDAA199000091GA1031+002409089GA2051+006309069GA3081+018009069GF108991081081002501999999MA1999999100371MD1110071+9999REMSYN094AAXX  03094 46738 32360 81602 10256 20219 30037 40091 51007 888// 555 83808 85621 88656 00990;EQDQ01  00002PRCP99
0277467380999992000040312004+24930+121300FM-12+0141RCUK V0203201N00211003901CN0050001N1+02381+02151101011ADDAA112000591AY161061AY251061GA1031+001809089GA2051+003909089GA3081+015009069GF108991081021002501999999KA1120M+02731MA1999999100471MD1110101+9999MW1501REMSYN116AAXX  03124 46738 11350 83204 10238 20215 30047 40101 51010 69952 75065 882// 333 10273 555 83806 85813 88650 00996;
0254467380999992000040315004+24930+121300FM-12+0141RCUK V0203201N00051006001CN0150001N1+02371+02131101011ADDAA100000791AY161031AY251031GA1021+003009089GA2051+006009069GA3081+015009069GF108991081021004501999999MA1999999100471MD1410001+9999MW1501REMSYN106AAXX  03154 46738 11465 83201 10237 20213 30047 40101 54000 6990/ 75065 882// 555 82810 85620 88650 00996;
0226467380999992000040318004+24930+121300FM-12+0141RCUK V0202301N00151006001CN0150001N1+02341+02031100911ADDAA106000791GA1021+003009089GA2051+006009069GA3081+015009069GF108991081081004501999999MA1999999100371MD1710101+9999REMSYN100AAXX  03184 46738 12465 82303 10234 20203 30037 40091 57010 69901 888// 555 82810 85620 88650 00000;
0245467380999992000040321004+24930+121300FM-12+0141RCUK V0203301N00151006001CN0150001N1+02281+99999100811ADDAA100000791GA1021+003009089GA2051+006009069GA3081+015009069GF108991081081004501999999MA1999999100271MD1710101+9999REMSYN100AAXX  03214 46738 11465 83303 10228 20023 30027 40081 57010 6990/ 888// 555 82810 85620 88650 00000;EQDQ01+000233ATOD  
0305467380999992000040400004+24930+121300FM-12+0141RCUK V0202201N00411006001CN0070001N1+02331+02091100941ADDAA112002091AY161061AY221061GA1021+002409079GA2011+004209099GA3051+006009069GA4081+018009069GF108991081091002501999999KA1120N+02261MA1999999100401MD1110131+9999MW1601REMSYN128AAXX  04004 46738 11357 82208 10233 20209 30040 40094 51013 60022 76062 889// 333 20226 555 82708 81914 85620 88656 00002 24996;
0232467380999992000040403004+24930+121300FM-12+0141RCUK V0201901N00411024001CN0250001N1+02821+02121100841ADDAA100000791AY161031AY221031GA1011+003609089GA2051+024009039GF105991011011004501031001MA1999999100301MD1610101+9999MW1021REMSYN100AAXX  04034 46738 11475 51908 10282 20212 30030 40084 56010 6990/ 70262 81130 555 81812 85358 00002;
0182467380999992000040406004+24930+121300FM-12+0141RCUK V0200701N005112200019N0250001N1+02941+02291100611ADDAA106000791GA1011+004509089GF101991011011004501001001MA1999999100071MD1710231+9999REMSYN088AAXX  04064 46738 12475 10710 10294 20229 30007 40061 57023 69901 81100 555 81815 00002;
0204467380999992000040409004+24930+121300FM-12+0141RCUK V0200601N006712200019N0100001N1+02671+02191100571ADDAA100000791GA1011+003609089GA2031+010509069GF103991031081004501001001MA1999999100031MD1610041+9999REMSYN094AAXX  04094 46738 12460 30613 10267 20219 30003 40057 56004 6990/ 83800 555 81812 83635 00002;
0167467380999992000040415004+24930+121300FM-12+0141RCUK V0200701N001010060019N0100001N1+02481+02091100981ADDAA199000091GF108991081081002501999999MA1999999100441MD1110171+9999REMSYN070AAXX  04154 46738 32360 80702 10248 20209 30044 40098 51017 888// 555;EQDQ01  00002PRCP99
0239467380999992000040418004+24930+121300FM-12+0141RCUK V0209999C000010060019N0100001N1+02431+02061100981ADDAA199000091GA1021+002409089GA2051+006009069GA3081+015009069GF108991081081002501999999MA1999999100441MD1410001+9999REMSYN094AAXX  04184 46738 32360 80000 10243 20206 30044 40098 54000 888// 555 82808 85620 88650 00000;EQDQ01  00002PRCP99
0268467380999992000040500004+24930+121300FM-12+0141RCUK V0200301N00461004801CN0110001N1+02311+02081101151ADDAA199000091GA1021+002409089GA2051+004809069GA3071+015009069GF107991071061002501001001KA1120N+02331MA1999999100611MD1210171+9999REMSYN110AAXX  05004 46738 32361 70309 10231 20208 30061 40115 52017 87600 333 20233 555 82808 85616 87650 00000 24002;EQDQ01  00002PRCP99
0239467380999992000040503004+24930+121300FM-12+0141RCUK V0200301N00411004801CN0110001N1+02331+01961101221ADDAA199000091GA1031+001809089GA2051+004809069GA3081+013509069GF108991081061002501999999MA1999999100681MD1110071+9999REMSYN094AAXX  05034 46738 32361 80308 10233 20196 30068 40122 51007 886// 555 83806 85616 88645 00000;EQDQ01  00002PRCP99
0254467380999992000040509004+24930+121300FM-12+0141RCUK V0200201N00361005401CN0090001N1+02251+01961101111ADDAA100000191AY161031AY221031GA1031+001809089GA2051+005409069GA3081+015009069GF108991081061002501999999MA1999999100571MD1510041+9999MW1051REMSYN106AAXX  05094 46738 11359 80207 10225 20196 30057 40111 55004 6991/ 70562 886// 555 83806 85618 88650 00991;
0277467380999992000040512004+24930+121300FM-12+0141RCUK V0200301N00461005401CN0120001N1+02121+01751101381ADDAA112000191AY161061AY221061GA1031+002409089GA2051+005409069GA3081+015009069GF108991081081002501999999KA1120M+02431MA1999999100841MD1210271+9999MW1021REMSYN116AAXX  05124 46738 11362 80309 10212 20175 30084 40138 52027 69912 70262 888// 333 10243 555 83808 85618 88650 00991;
0238467380999992000040515004+24930+121300FM-12+0141RCUK V0200201N00771005401CN0200001N1+02121+01721101621ADDAA199000091GA1021+003609089GA2051+005409069GA3081+015009069GF108991081081004501999999MA1999999101081MD1010241+9999REMSYN093AAXX  05154 46738 32470 80215 10212 20172 30108 40162 50024 888// 555 82812 85618 88650 0091;EQDQ01  00002PRCP99
0239467380999992000040518004+24930+121300FM-12+0141RCUK V0200101N00981005401CN0200001N1+02051+01541101591ADDAA199000091GA1021+003609089GA2051+005409069GA3081+015009069GF108991081081004501999999MA1999999101051MD1810031+9999REMSYN094AAXX  05184 46738 32470 80119 10205 20154 30105 40159 58003 888// 555 82812 85618 88650 00000;EQDQ01  00002PRCP99
0239467380999992000040521004+24930+121300FM-12+0141RCUK V0200101N00261005401CN0400001N1+01991+01511101551ADDAA199000091GA1021+003609089GA2051+005409069GA3071+015009069GF107991071051004501001001MA1999999101011MD1810041+9999REMSYN094AAXX  05214 46738 32482 70105 10199 20151 30101 40155 58004 87500 555 82812 85618 87650 00000;EQDQ01  00002PRCP99
0268467380999992000040600004+24930+121300FM-12+0141RCUK V0200201N00461013501CN0350001N1+02061+01621101761ADDAA199000091GA1031+003609089GA2051+013509069GA3081+018009069GF108991081081004501999999KA1120N+01981MA1999999101221MD1210211+9999REMSYN110AAXX  06004 46738 32481 80209 10206 20162 30122 40176 52021 888// 333 20198 555 83812 85645 88656 00000 24991;EQDQ01  00002PRCP99
0239467380999992000040603004+24930+121300FM-12+0141RCUK V0200701N00361015001CN0300001N1+02431+01781101721ADDAA199000091GA1031+006009069GA2071+015009039GA3051+018009069GF107991051051008001031001MA1999999101181MD1810041+9999REMSYN094AAXX  06034 46738 32580 70707 10243 20178 30118 40172 58004 85530 555 83620 85656 87350 00000;EQDQ01  00002PRCP99
0262467380999992000040612004+24930+121300FM-12+0141RCUK V0200201N00311010501CN0110001N1+02301+01761101621ADDAA199000091GA1031+003609089GA2051+010509069GA3071+015009069GF107991071061004501001001KA1120M+02691MA1999999101081MD1210171+9999REMSYN104AAXX  06124 46738 32461 70206 10230 20176 30108 40162 52017 87600 333 10269 555 83812 85635 87650 00000;EQDQ01  00002PRCP99
0239467380999992000040615004+24930+121300FM-12+0141RCUK V0200201N00211010501CN0110001N1+02211+01811101791ADDAA199000091GA1031+003609089GA2051+010509069GA3071+021009039GF107991031081004501031001MA1999999101251MD1210171+9999REMSYN094AAXX  06154 46738 32461 70204 10221 20181 30125 40179 52017 83830 555 83812 85635 87357 00000;EQDQ01  00002PRCP99
0239467380999992000040618004+24930+121300FM-12+0141RCUK V0203501N00101010501CN0110001N1+02161+01721101691ADDAA199000091GA1031+003609089GA2051+010509069GA3071+021009039GF107991051081999999031001MA1999999101151MD1610101+9999REMSYN094AAXX  06184 46738 32/61 73502 10216 20172 30115 40169 56010 85830 555 83812 85635 87357 00000;EQDQ01  00002PRCP99
0239467380999992000040621004+24930+121300FM-12+0141RCUK V0209999C00001010501CN0110001N1+02001+01731101551ADDAA199000091GA1031+003609089GA2051+010509069GA3071+021009039GF107991051081004501031001MA1999999101011MD1610141+9999REMSYN094AAXX  06214 46738 32461 70000 10200 20173 30101 40155 56014 85830 555 83812 85635 87357 00000;EQDQ01  00002PRCP99
0239467380999992000040706004+24930+121300FM-12+0141RCUK V0200801N00311006601CN0200001N1+02621+01931101551ADDAA199000091GA1021+003009089GA2051+006609089GA3071+018009069GF107991071081004501999999MA1999999101011MD1610111+9999REMSYN094AAXX  07064 46738 32470 70806 10262 20193 30101 40155 56011 878// 555 82810 85822 87656 00000;EQDQ01  00002PRCP99
0239467380999992000040709004+24930+121300FM-12+0141RCUK V0203101N00211006601CN0100001N1+02451+01941101491ADDAA199000091GA1031+003009089GA2051+006609089GA3081+018009069GF108991081081004501999999MA1999999100951MD1610061+9999REMSYN094AAXX  07094 46738 32460 83104 10245 20194 30095 40149 56006 888// 555 83810 85822 88656 00000;EQDQ01  00002PRCP99
0239467380999992000040721004+24930+121300FM-12+0141RCUK V0203601N00051007501CN0150001N1+02241+01781101521ADDAA199000091GA1021+003609089GA2051+007509069GA3071+018009069GF107991071081004501999999MA1999999100981MD1410001+9999REMSYN094AAXX  07214 46738 32465 73601 10224 20178 30098 40152 54000 878// 555 82812 85625 87656 00000;EQDQ01  00002PRCP99
0246467380999992000040800004+24930+121300FM-12+0141RCUK V0203501N00211021001CN0120001N1+02421+02051101591ADDAA199000091GA1011+004509089GA2051+021009039GF105991011011004501031001KA1120N+02121MA1999999101051MD1110071+9999REMSYN104AAXX  08004 46738 32462 53504 10242 20205 30105 40159 51007 81130 333 20212 555 81815 85357 00000 24000;EQDQ01  00002PRCP99
0239467380999992000040803004+24930+121300FM-12+0141RCUK V0200801N00461009001CN0150001N1+02721+02211101591ADDAA199000091GA1021+004809089GA2051+009009069GA3071+021009039GF107991051041004501031001MA1999999101051MD1010001+9999REMSYN094AAXX  08034 46738 32465 70809 10272 20221 30105 40159 50000 85430 555 82816 85630 87357 00000;EQDQ01  00002PRCP99
0239467380999992000040806004+24930+121300FM-12+0141RCUK V0200601N00671009001CN0120001N1+02601+02011101421ADDAA199000091GA1031+004809089GA2051+009009069GA3071+018009069GF107991071041004501001001MA1999999100881MD1710171+9999REMSYN094AAXX  08064 46738 32462 70613 10260 20201 30088 40142 57017 87400 555 83816 85630 87656 00000;EQDQ01  00002PRCP99
0239467380999992000040809004+24930+121300FM-12+0141RCUK V0200301N00461008401CN0120001N1+02431+02011101321ADDAA199000091GA1031+004209089GA2051+008409069GA3081+015009069GF108991081051004501999999MA1999999100781MD1710101+9999REMSYN094AAXX  08094 46738 32462 80309 10243 20201 30078 40132 57010 885// 555 83814 85628 88650 00000;EQDQ01  00002PRCP99
0239467380999992000040812004+24930+121300FM-12+0141RCUK V0203601N00211010501CN0150001N1+02361+02041101451ADDAA199000091GA1021+004209089GA2031+010509069GA3071+015009069GF107991071051004501001001MA1999999100911MD1210131+9999REMSYN094AAXX  08124 46738 32465 73604 10236 20204 30091 40145 52013 87500 555 82814 83635 87650 00000;EQDQ01  00002PRCP99
0239467380999992000040815004+24930+121300FM-12+0141RCUK V0203001N00151021001CN0150001N1+02231+02051101491ADDAA199000091GA1011+004209089GA2031+010509069GA3051+021009039GF105991031051004501031001MA1999999100951MD1110041+9999REMSYN094AAXX  08154 46738 32465 53003 10223 20205 30095 40149 51004 83530 555 81814 83635 85357 00000;EQDQ01  00002PRCP99
0239467380999992000040818004+24930+121300FM-12+0141RCUK V0200401N00261021001CN0150001N1+02231+02011101351ADDAA199000091GA1011+004209089GA2031+010509069GA3051+021009039GF105991031051004501031001MA1999999100811MD1710141+9999REMSYN094AAXX  08184 46738 32465 50405 10223 20201 30081 40135 57014 83530 555 81814 83635 85357 00000;EQDQ01  00002PRCP99
0239467380999992000040821004+24930+121300FM-12+0141RCUK V0200101N00101018001CN0120001N1+02141+01981101351ADDAA199000091GA1011+004509089GA2031+010509069GA3051+018009069GF105991051051004501001001MA1999999100811MD1510001+9999REMSYN094AAXX  08214 46738 32462 50102 10214 20198 30081 40135 55000 85500 555 81815 83635 85656 00000;EQDQ01  00002PRCP99
0224467380999992000040900004+24930+121300FM-12+0141RCUK V0200301N001012200019N0200001N1+02481+01961101351ADDAA199000091GA1011+004509089GF101991011011004501001001KA1120N+02141MA1999999100811MD1410001+9999REMSYN098AAXX  09004 46738 32470 10302 10248 20196 30081 40135 54000 81100 333 20214 555 81815 00000 24000;EQDQ01  00002PRCP99
0239467380999992000040903004+24930+121300FM-12+0141RCUK V0201701N00361012001CN0200001N1+02831+02181101381ADDAA199000091GA1021+004509089GA2031+012009069GA3061+024009039GF106991031081004501031001MA1999999100841MD1110031+9999REMSYN094AAXX  09034 46738 32470 61707 10283 20218 30084 40138 51003 83830 555 82815 83640 86358 00000;EQDQ01  00002PRCP99
0262467380999992000040912004+24930+121300FM-12+0141RCUK V0203101N00101006001CN0110001N1+02631+02241101151ADDAA199000091GA1031+003009089GA2051+006009089GA3071+015009069GF107991071081004501001001KA1120M+02931MA1999999100611MD1310071+9999REMSYN104AAXX  09124 46738 32461 73102 10263 20224 30061 40115 53007 87800 333 10293 555 83810 85820 87650 00000;EQDQ01  00002PRCP99
0239467380999992000040915004+24930+121300FM-12+0141RCUK V0203301N00151006601CN0110001N1+02531+02211101221ADDAA199000091GA1021+003009089GA2051+006609069GA3071+018009069GF107991071081004501001001MA1999999100681MD1110071+9999REMSYN094AAXX  09154 46738 32461 73303 10253 20221 30068 40122 51007 87800 555 82810 85622 87656 00000;EQDQ01  00002PRCP99
0273467380999992000041006004+24930+121300FM-12+0141RCUK V0200701N00771007801CN0070001N1+02621+02161101221ADDAA199000091AY121061AY221061GA1021+003609089GA2051+007809069GA3071+018009069GF107991071081004501999999MA1999999100681MD1610061+9999MW1051REMSYN106AAXX  10064 46738 31457 70715 10262 20216 30068 40122 56006 70522 878// 555 30708 82812 85626 87656 00000;EQDQ01  00002PRCP99
0260467380999992000041009004+24930+121300FM-12+0141RCUK V0200301N00511007501CN0120001N1+02261+02081101351ADDAA100000791AY161031AY251031GA1021+003609089GA2051+007509069GA3081+015009069GF108991081081004501999999MA1999999100811MD1210131+9999MW1501REMSYN112AAXX  10094 46738 11462 80310 10226 20208 30081 40135 52013 6990/ 75065 888// 555 30628 82812 85625 88650 00990;
0296467380999992000041100004+24930+121300FM-12+0141RCUK V0203601N00461007501CN0070001N1+02041+01641101861ADDAA199000091AY121061AY221061GA1031+003609089GA2051+007509069GA3081+015009069GF108991081081004501999999KA1120N+01961MA1999999101321MD1310101+9999MW1051REMSYN116AAXX  11004 46738 31457 83609 10204 20164 30132 40186 53010 70522 888// 333 20196 555 83812 85625 88650 00000 24993;EQDQ01  00002PRCP99
0267467380999992000041103004+24930+121300FM-12+0141RCUK V0200101N00821008401CN0070001N1+02141+01661101791ADDAA199000091AY121031AY221031GA1031+003609089GA2051+008409069GA3081+015009069GF108991081081004501999999MA1999999101251MD1810071+9999MW1051REMSYN100AAXX  11034 46738 31457 80116 10214 20166 30125 40179 58007 70522 888// 555 83812 85628 88650 00000;EQDQ01  00002PRCP99
0239467380999992000041106004+24930+121300FM-12+0141RCUK V0200401N00571008401CN0100001N1+02371+01801101521ADDAA199000091GA1031+004509089GA2051+008409069GA3081+015009069GF108991081081004501999999MA1999999100981MD1710271+9999REMSYN094AAXX  11064 46738 32460 80411 10237 20180 30098 40152 57027 888// 555 83815 85628 88650 00000;EQDQ01  00002PRCP99
0262467380999992000041112004+24930+121300FM-12+0141RCUK V0203501N00211008401CN0120001N1+02081+01611101521ADDAA199000091GA1021+003609089GA2051+008409069GA3081+015009069GF108991081081004501999999KA1120M+02381MA1999999100981MD1110031+9999REMSYN104AAXX  11124 46738 32462 83504 10208 20161 30098 40152 51003 888// 333 10238 555 82812 85628 88650 00000;EQDQ01  00002PRCP99
0239467380999992000041115004+24930+121300FM-12+0141RCUK V0209999C00001006601CN0100001N1+02071+01581101521ADDAA199000091GA1021+003609089GA2051+006609069GA3081+015009069GF108991081081004501999999MA1999999100981MD1010001+9999REMSYN094AAXX  11154 46738 32460 80000 10207 20158 30098 40152 50000 888// 555 82812 85622 88650 00000;EQDQ01  00002PRCP99
0239467380999992000041118004+24930+121300FM-12+0141RCUK V0203401N00151006601CN0100001N1+02051+01611101381ADDAA199000091GA1021+003609089GA2051+006609069GA3081+015009069GF108991081081004501999999MA1999999100841MD1710141+9999REMSYN094AAXX  11184 46738 32460 83403 10205 20161 30084 40138 57014 888// 555 82812 85622 88650 00000;EQDQ01  00002PRCP99
0218467380999992000041121004+24930+121300FM-12+0141RCUK V0203601N00101006601CN0120001N1+02041+01641101281ADDAA199000091GA1021+003609089GA2051+006609069GA3071+015009069GF107991071081004501999999MD1710101+9999REMSYN088AAXX  11214 46738 32462 73602 10204 20164 40128 57010 878// 555 82812 85622 87650 00000;EQDQ01  00002PRCP99
0268467380999992000041200004+24930+121300FM-12+0141RCUK V0203601N00151007501CN0200001N1+02151+01721101351ADDAA199000091GA1021+003609089GA2051+007509069GA3081+015009069GF108991081081004501999999KA1120N+02041MA1999999100811MD1310071+9999REMSYN110AAXX  12004 46738 32470 83603 10215 20172 30081 40135 53007 888// 333 20204 555 82812 85625 88650 00000 24000;EQDQ01  00002PRCP99
0239467380999992000041203004+24930+121300FM-12+0141RCUK V0201101N00361007501CN0150001N1+02611+01851101181ADDAA199000091GA1021+004509089GA2051+007509069GA3061+021009039GF106991051051004501031001MA1999999100641MD1710171+9999REMSYN094AAXX  12034 46738 32465 61107 10261 20185 30064 40118 57017 85530 555 82815 85625 86357 00000;EQDQ01  00002PRCP99
0268467380999992000041212004+24930+121300FM-12+0141RCUK V0203301N002112200019N0070001N1+02351+01951100981ADDAA199000091AY121061AY221061GA1011+004509089GA2031+030009039GF103991011011004501031001KA1120M+02721MA1999999100441MD1210141+9999MW1051REMSYN104AAXX  12124 46738 31457 33304 10235 20195 30044 40098 52014 70522 81130 333 10272 555 81815 83360 00000;EQDQ01  00002PRCP99
0217467380999992000041215004+24930+121300FM-12+0141RCUK V0203301N001512200019N0100001N1+02271+01891101011ADDAA199000091GA1011+004509089GA2031+030009039GF103991011011004501031001MA1999999100471MD1110031+9999REMSYN088AAXX  12154 46738 32460 33303 10227 20189 30047 40101 51003 81130 555 81815 83360 00000;EQDQ01  00002PRCP99
0239467380999992000041221004+24930+121300FM-12+0141RCUK V0203301N00101007501CN0100001N1+02301+01931100911ADDAA199000091GA1021+004509089GA2031+007509069GA3071+018009069GF107991061051004501001001MA1999999100371MD1310031+9999REMSYN094AAXX  12214 46738 32460 73302 10230 20193 30037 40091 53003 86500 555 82815 83625 87656 00000;EQDQ01  00002PRCP99
0254467380999992000041306004+24930+121300FM-12+0141RCUK V0201001N00411008401CN0070001N1+02851+02171100841ADDAA106000791AY181061AY221061GA1031+003609089GA2051+008409069GA3071+024009039GF107991051081004501031001MA1999999100301MD1710211+9999MW1051REMSYN106AAXX  13064 46738 11457 71008 10285 20217 30030 40084 57021 69901 70582 85830 555 83812 85628 87358 00990;
0217467380999992000041321004+24930+121300FM-12+0141RCUK V0203301N002112200019N0100001N1+02221+01921100781ADDAA199000091GA1011+007509089GA2031+030009039GF103991011011008001031001MA1999999100241MD1610061+9999REMSYN088AAXX  13214 46738 32560 33304 10222 20192 30024 40078 56006 81130 555 81825 83360 00000;EQDQ01  00002PRCP99
0268467380999992000041400004+24930+121300FM-12+0141RCUK V0201801N00051066001CN0150001N1+02701+02071100811ADDAA199000091GA1011+007509089GA2031+018009069GA3051+066009009GF105991031051008001001011KA1120N+02201MA1999999100271MD1110031+9999REMSYN110AAXX  14004 46738 32565 51801 10270 20207 30027 40081 51003 83501 333 20220 555 81825 83656 85072 00000 24990;EQDQ01  00002PRCP99
0239467380999992000041403004+24930+121300FM-12+0141RCUK V0201801N00621021001CN0110001N1+03091+02281100711ADDAA199000091GA1031+007509089GA2051+021009039GA3051+066009009GF105991031021008001031011MA1999999100171MD1810101+9999REMSYN094AAXX  14034 46738 32561 51812 10309 20228 30017 40071 58010 83231 555 83825 85357 85072 00000;EQDQ01  00002PRCP99
0245467380999992000041406004+24930+121300FM-12+0141RCUK V0201901N00771021001CN0120001N1+02941+02231100341ADDAA199000091GA1021+007509089GA2051+021009039GA3051+075009009GF105991021011008001031011MA1999999099801MD1710371+9999REMSYN100AAXX  14064 46738 32562 51915 10294 20223 39980 40034 57037 82131 555 31925 82825 85357 85075 00000;EQDQ01  00002PRCP99
0213467380999992000041409004+24930+121300FM-12+0141RCUK V0201101N001010900019N0400001N1+03321+01611100201ADDAA199000091GA1021+008409089GF105991021011008001031011MA1999999099661MD1710141+9999REMSYN100AAXX  14094 46738 32582 51102 10332 20161 39966 40020 57014 82131 555 31930 82828 45359 85075 00000;EQDQ01  00002PRCP99
0239467380999992000041415004+24930+121300FM-12+0141RCUK V0200301N00151066001CN0110001N1+02821+01901100611ADDAA199000091GA1021+006009089GA2031+030009039GA3051+066009009GF105991021011008001031011MA1999999100071MD1110171+9999REMSYN094AAXX  14154 46738 32561 50303 10282 20190 30007 40061 51017 82131 555 82820 83360 85072 00000;EQDQ01  00002PRCP99
0239467380999992000041418004+24930+121300FM-12+0141RCUK V0203401N00101066001CN0110001N1+02461+02061100571ADDAA199000091GA1021+006009089GA2031+030009039GA3051+066009009GF105991021011008001031011MA1999999100031MD1610041+9999REMSYN094AAXX  14184 46738 32561 53402 10246 20206 30003 40057 56004 82131 555 82820 83360 85072 00000;EQDQ01  00002PRCP99
0239467380999992000041421004+24930+121300FM-12+0141RCUK V0203201N00151066001CN0110001N1+02361+02011100571ADDAA199000091GA1021+006009089GA2031+030009039GA3051+066009009GF105991021011008001031011MA1999999100031MD1410001+9999REMSYN094AAXX  14214 46738 32561 53203 10236 20201 30003 40057 54000 82131 555 82820 83360 85072 00000;EQDQ01  00002PRCP99
0268467380999992000041500004+24930+121300FM-12+0141RCUK V0200201N00261012001CN0100001N1+02611+02141100911ADDAA199000091GA1021+004509089GA2051+012009069GA3071+027009039GF107991051081004501031999KA1120N+02351MA1999999100371MD1210341+9999REMSYN110AAXX  15004 46738 32460 70205 10261 20214 30037 40091 52034 8583/ 333 20235 555 82815 85640 87359 00000 24000;EQDQ01  00002PRCP99
0260467380999992000041503004+24930+121300FM-12+0141RCUK V0200701N00821005401CN0070001N1+02431+02121101081ADDAA100000791AY181031AY261031GA1031+003009089GA2051+005409069GA3081+021009069GF108991051081004501031999MA1999999100541MD1210171+9999MW1161REMSYN112AAXX  15034 46738 11457 80716 10243 20212 30054 40108 52017 6990/ 71686 8583/ 555 30729 83810 85618 88657 00990;
0254467380999992000041515004+24930+121300FM-12+0141RCUK V0200201N00211005401CN0120001N1+01971+01771101381ADDAA100000791AY161031AY221031GA1021+003009089GA2051+005409069GA3081+015009069GF108991081051004501999999MA1999999100841MD1110061+9999MW1601REMSYN106AAXX  15154 46738 11462 80204 10197 20177 30084 40138 51006 6990/ 76062 885// 555 82810 85618 88650 00991;
0254467380999992000041518004+24930+121300FM-12+0141RCUK V0203601N00261005401CN0120001N1+01871+01661101321ADDAA106000791AY161061AY251061GA1021+003009089GA2051+005409069GA3081+015009069GF108991081081004501999999MA1999999100781MD1610061+9999MW1601REMSYN106AAXX  15184 46738 11462 83605 10187 20166 30078 40132 56006 69901 76065 888// 555 82810 85618 88650 00990;
0254467380999992000041606004+24930+121300FM-12+0141RCUK V0200101N00411010501CN0150001N1+02031+01531101521ADDAA106002091AY161061AY251061GA1031+003609079GA2051+010509069GA3081+021009049GF108991071041004501021999MA1999999100981MD1710071+9999MW1021REMSYN106AAXX  16064 46738 11465 80108 10203 20153 30098 40152 57007 60021 70265 8742/ 555 83712 85635 88457 00005;
0226467380999992000041609004+24930+121300FM-12+0141RCUK V0200101N00511012001CN0150001N1+01951+01401101521ADDAA100002091GA1031+004509069GA2051+012009069GA3071+021009049GF107991051051004501021001MA1999999100981MD1010001+9999REMSYN100AAXX  16094 46738 12465 70110 10195 20140 30098 40152 50000 6002/ 85520 555 83615 85640 87457 00005;
0239467380999992000041621004+24930+121300FM-12+0141RCUK V0203201N00151021001CN0250001N1+01781+01331101591ADDAA199000091GA1011+004509069GA2031+012009069GA3051+021009039GF105991031051004501031001MA1999999101051MD1810031+9999REMSYN094AAXX  16214 46738 32475 53203 10178 20133 30105 40159 58003 83530 555 81615 83640 85357 00000;EQDQ01  00002PRCP99
0284467380999992000041700004+24930+121300FM-12+0141RCUK V0200201N004112200019N0150001N1+01981+01491101761ADDAA199000091GA1031+004509089GA2031+010509069GA3061+018009069GF199999071081004501001001KA1120N+01761MA1999999101221MD1210171+9999REMSYN110AAXX  17004 46738 32465 10208 10198 20149 30122 40176 52017 87800 333 20176 555 83815 83635 86656 00000 24005;EQDQ01+000012SCOTCVQ02  00002PRCP99
0239467380999992000041703004+24930+121300FM-12+0141RCUK V0200501N00411007501CN0130001N1+02461+01641101721ADDAA199000091GA1021+003909089GA2031+007509089GA3051+018009069GF105991051081004501001001MA1999999101181MD1810041+9999REMSYN094AAXX  17034 46738 32463 50508 10246 20164 30118 40172 58004 85800 555 82813 83825 85656 00000;EQDQ01  00002PRCP99
0239467380999992000041706004+24930+121300FM-12+0141RCUK V0200501N00311008401CN0130001N1+02271+01551101621ADDAA199000091GA1021+004509089GA2051+008409069GA3071+018009069GF107991071081004501999999MA1999999101081MD1610101+9999REMSYN094AAXX  17064 46738 32463 70506 10227 20155 30108 40162 56010 878// 555 82815 85628 87656 00000;EQDQ01  00002PRCP99
0217467380999992000041709004+24930+121300FM-12+0141RCUK V0203401N002110090019N0150001N1+02271+01611101591ADDAA199000091GA1011+004509089GA2031+007809069GF105991051081004501001001MA1999999101051MD1610031+9999REMSYN088AAXX  17094 46738 32465 53404 10227 20161 30105 40159 56003 85800 555 81815 83626 00000;EQDQ01  00002PRCP99
0262467380999992000041712004+24930+121300FM-12+0141RCUK V0202901N00261006601CN0100001N1+02141+01641101721ADDAA199000091GA1021+003609089GA2051+006609069GA3071+015009069GF107991071081004501001001KA1120M+02511MA1999999101181MD1110131+9999REMSYN104AAXX  17124 46738 32460 72905 10214 20164 30118 40172 51013 87800 333 10251 555 82812 85622 87650 00000;EQDQ01  00002PRCP99
0217467380999992000041715004+24930+121300FM-12+0141RCUK V0203101N00311021001CN0100001N1+02021+01531101831ADDAA199000091GA1011+003609089GA2051+021009039GF105991011011004501031001MA1999999101291MD1110111+9999REMSYN088AAXX  17154 46738 32460 53106 10202 20153 30129 40183 51011 81130 555 81812 85357 00000;EQDQ01  00002PRCP99
0239467380999992000041718004+24930+121300FM-12+0141RCUK V0203101N00261009601CN0100001N1+01991+01611101691ADDAA199000091GA1021+003609089GA2051+009609069GA3071+018009069GF107991071081004501001001MA1999999101151MD1710141+9999REMSYN094AAXX  17184 46738 32460 73105 10199 20161 30115 40169 57014 87800 555 82812 85632 87656 00000;EQDQ01  00002PRCP99
0239467380999992000041721004+24930+121300FM-12+0141RCUK V0203401N00211009601CN0100001N1+01941+01531101691ADDAA199000091GA1021+003609089GA2051+009609069GA3081+018009069GF108991081081004501999999MA1999999101151MD1410001+9999REMSYN094AAXX  17214 46738 32460 83404 10194 20153 30115 40169 54000 888// 555 82812 85632 88656 00000;EQDQ01  00002PRCP99
0268467380999992000041800004+24930+121300FM-12+0141RCUK V0200101N00261010501CN0150001N1+02101+01401101721ADDAA199000091GA1021+003609089GA2051+010509069GA3081+018009069GF108991081081004501999999KA1120N+01941MA1999999101181MD1310031+9999REMSYN110AAXX  18004 46738 32465 80105 10210 20140 30118 40172 53003 888// 333 20194 555 82812 85635 88656 00000 24000;EQDQ01  00002PRCP99
0239467380999992000041803004+24930+121300FM-12+0141RCUK V0201201N00151012001CN0130001N1+02541+01701101691ADDAA199000091GA1021+004509089GA2051+012009069GA3071+021009039GF107991051081004501031999MA1999999101151MD1810031+9999REMSYN094AAXX  18034 46738 32463 71203 10254 20170 30115 40169 58003 8583/ 555 82815 85640 87357 00000;EQDQ01  00002PRCP99
0239467380999992000041806004+24930+121300FM-12+0141RCUK V0201201N00151012001CN0130001N1+02631+01791101421ADDAA199000091GA1021+005409089GA2031+012009069GA3071+021009039GF107991031081004501031001MA1999999100881MD1710271+9999REMSYN094AAXX  18064 46738 32463 71203 10263 20179 30088 40142 57027 83830 555 82818 83640 87357 00000;EQDQ01  00002PRCP99
0239467380999992000041809004+24930+121300FM-12+0141RCUK V0201201N00101008401CN0120001N1+02431+01811101351ADDAA199000091GA1021+003609089GA2051+008409069GA3081+018009069GF108991081081004501999999MA1999999100811MD1810071+9999REMSYN094AAXX  18094 46738 32462 81202 10243 20181 30081 40135 58007 888// 555 82812 85628 88656 00000;EQDQ01  00002PRCP99
0262467380999992000041812004+24930+121300FM-12+0141RCUK V0203401N00101008401CN0100001N1+02381+01711101381ADDAA199000091GA1021+003009089GA2051+008409069GA3081+018009069GF108991081081004501999999KA1120M+02691MA1999999100841MD1110031+9999REMSYN104AAXX  18124 46738 32460 83402 10238 20171 30084 40138 51003 888// 333 10269 555 82810 85628 88656 00000;EQDQ01  00002PRCP99
0239467380999992000041815004+24930+121300FM-12+0141RCUK V0203501N00101008401CN0100001N1+02311+01801101421ADDAA199000091GA1021+003009089GA2051+008409069GA3081+015009069GF108991081081004501999999MA1999999100881MD1110041+9999REMSYN094AAXX  18154 46738 32460 83502 10231 20180 30088 40142 51004 888// 555 82810 85628 88650 00000;EQDQ01  00002PRCP99
0239467380999992000041818004+24930+121300FM-12+0141RCUK V0203401N00101008401CN0010001N1+02241+01761101321ADDAA199000091GA1021+003009089GA2051+008409069GA3081+018009069GF108991081081004501999999MA1999999100781MD1710101+9999REMSYN094AAXX  18184 46738 32410 83402 10224 20176 30078 40132 57010 888// 555 82810 85628 88656 00000;EQDQ01  00002PRCP99
0239467380999992000041821004+24930+121300FM-12+0141RCUK V0203301N00101008401CN0100001N1+02191+01871101221ADDAA199000091GA1021+003009089GA2051+008409069GA3071+018009069GF107991071081004501001001MA1999999100681MD1710101+9999REMSYN094AAXX  18214 46738 32460 73302 10219 20187 30068 40122 57010 87800 555 82810 85628 87656 00000;EQDQ01  00002PRCP99
0268467380999992000041900004+24930+121300FM-12+0141RCUK V0203501N00211010501CN0120001N1+02381+01771101281ADDAA199000091GA1021+003609089GA2051+010509069GA3071+018009069GF107991071051004501001001KA1120N+02181MA1999999100741MD1310061+9999REMSYN110AAXX  19004 46738 32462 73504 10238 20177 30074 40128 53006 87500 333 20218 555 82812 85635 87656 00000 24000;EQDQ01  00002PRCP99
0239467380999992000041903004+24930+121300FM-12+0141RCUK V0201501N00151007501CN0120001N1+02731+02181101181ADDAA199000091GA1021+003609089GA2031+007509069GA3071+018009069GF107991071051004501001001MA1999999100641MD1710101+9999REMSYN094AAXX  19034 46738 32462 71503 10273 20218 30064 40118 57010 87500 555 82812 83625 87656 00000;EQDQ01  00002PRCP99
0254467380999992000041909004+24930+121300FM-12+0141RCUK V0203301N00051005401CN0060001N1+02601+02271100881ADDAA100000791AY151031AY221031GA1031+002409089GA2051+005409089GA3081+012009069GF108991081081002501999999MA1999999100341MD1410001+9999MW1161REMSYN106AAXX  19094 46738 11356 83301 10260 20227 30034 40088 54000 6990/ 71652 888// 555 83808 85818 88640 00990;
0277467380999992000041912004+24930+121300FM-12+0141RCUK V0203101N00101007501CN0080001N1+02441+02131101011ADDAA112000791AY151061AY221061GA1021+003009089GA2031+007509069GA3051+018009069GF105991051081004501001001KA1120M+02851MA1999999100471MD1210131+9999MW1051REMSYN116AAXX  19124 46738 11458 53102 10244 20213 30047 40101 52013 69902 70552 85800 333 10285 555 82810 83625 85656 00990;
0217467380999992000041915004+24930+121300FM-12+0141RCUK V0203501N001012200019N0150001N1+02401+02141101111ADDAA199000091GA1021+003609089GA2041+013509069GF104991041081004501001001MA1999999100571MD1010101+9999REMSYN088AAXX  19154 46738 32465 43502 10240 20214 30057 40111 50010 84800 555 82812 84645 00990;EQDQ01  00002PRCP99
0195467380999992000041918004+24930+121300FM-12+0141RCUK V0203301N002612200019N0150001N1+02421+02121101011ADDAA199000091GA1021+006009069GF102991021051008001001001MA1999999100471MD1710201+9999REMSYN082AAXX  19184 46738 32565 23305 10242 20212 30047 40101 57020 82500 555 82620 00000;EQDQ01  00002PRCP99
0195467380999992000041921004+24930+121300FM-12+0141RCUK V0203301N001012200019N0200001N1+02231+01961101011ADDAA199000091GA1021+007509069GF102991021051008001001001MA1999999100471MD1410001+9999REMSYN082AAXX  19214 46738 32570 23302 10223 20196 30047 40101 54000 82500 555 82625 00000;EQDQ01  00002PRCP99
0224467380999992000042000004+24930+121300FM-12+0141RCUK V0209999C000012200019N0200001N1+02631+02111101051ADDAA199000091GA1011+004809089GF101991011011004501001001KA1120N+02231MA1999999100511MD1110041+9999REMSYN098AAXX  20004 46738 32470 10000 10263 20211 30051 40105 51004 81100 333 20223 555 81816 00000 24990;EQDQ01  00002PRCP99
0195467380999992000042003004+24930+121300FM-12+0141RCUK V0201401N003612200019N0200001N1+02951+02241100981ADDAA199000091GA1011+004809089GF101991011011004501001001MA1999999100441MD1810071+9999REMSYN082AAXX  20034 46738 32470 11407 10295 20224 30044 40098 58007 81100 555 81816 00000;EQDQ01  00002PRCP99
0239467380999992000042006004+24930+121300FM-12+0141RCUK V0202001N00211024001CN0180001N1+02891+02261100841ADDAA199000091GA1021+003609089GA2041+012009069GA3071+024009039GF107991041081004501031001MA1999999100301MD1810141+9999REMSYN094AAXX  20064 46738 32468 72004 10289 20226 30030 40084 58014 84830 555 82812 84640 87358 00000;EQDQ01  00002PRCP99
0239467380999992000042009004+24930+121300FM-12+0141RCUK V0201901N00051010501CN0150001N1+02741+02251100741ADDAA199000091GA1021+003609089GA2051+010509069GA3071+018009069GF107991071081004501001001MA1999999100201MD1610101+9999REMSYN094AAXX  20094 46738 32465 71901 10274 20225 30020 40074 56010 87800 555 82812 85635 87656 00000;EQDQ01  00002PRCP99
0195467380999992000042015004+24930+121300FM-12+0141RCUK V0203501N003112200019N0110001N1+02511+02161100811ADDAA199000091GA1011+003609089GF101991011011004501001001MA1999999100271MD1110071+9999REMSYN082AAXX  20154 46738 32461 13506 10251 20216 30027 40081 51007 81100 555 81812 00000;EQDQ01  00002PRCP99
0195467380999992000042018004+24930+121300FM-12+0141RCUK V0203301N001012200019N0110001N1+02351+02041100781ADDAA199000091GA1011+004509089GF101991011011004501001001MA1999999100241MD1610031+9999REMSYN082AAXX  20184 46738 32461 13302 10235 20204 30024 40078 56003 81100 555 81815 00000;EQDQ01  00002PRCP99
0195467380999992000042103004+24930+121300FM-12+0141RCUK V0200901N004612200019N0160001N1+03021+02371100841ADDAA199000091GA1011+004509089GF101991011011004501001001MA1999999100301MD1010001+9999REMSYN082AAXX  21034 46738 32466 10909 10302 20237 30030 40084 50000 81100 555 81815 00000;EQDQ01  00002PRCP99
0243467380999992000042106004+24930+121300FM-12+0141RCUK V0200801N00461018001CN0060001N1+02831+02381100811ADDAA199000091AY121061AY211061GA1031+003609089GA2051+018009069GF105991051081004501001001MA1999999100271MD1610031+9999MW1051REMSYN092AAXX  21064 46738 31456 50809 10283 20238 30027 40081 56003 70521 85800 555 83812 85656 000;EQDQ01  00002PRCP99
0254467380999992000042109004+24930+121300FM-12+0141RCUK V0200801N005710060019N0040001N1+02731+02431100881ADDAA100000791AY161031AY221031GA1031+002409089GA2051+006009069GA3071+015009069GF107991071081002501001001MA1999999100341MD1110071+9999MW1101REMSYN106AAXX  21094 46738 11340 70811 10273 20243 30034 40088 51007 6990/ 71062 87800 555 83808 85620 87650 00990;
0277467380999992000042112004+24930+121300FM-12+0141RCUK V0200501N00721004801CN0040001N1+02511+02281101051ADDAA112000791AY161061AY221061GA1031+001809089GA2051+004809069GA3071+015009069GF107991071071002501001001KA1120M+03131MA1999999100511MD1110171+9999MW1601REMSYN116AAXX  21124 46738 11340 70514 10251 20228 30051 40105 51017 69902 76062 87700 333 10313 555 83806 85616 87650 00990;
0254467380999992000042115004+24930+121300FM-12+0141RCUK V0203501N002610060019N0060001N1+02331+02191101281ADDAA100000391AY161031AY221031GA1031+002409089GA2051+006009069GA3071+015009069GF107991071081002501001001MA1999999100741MD1210231+9999MW1101REMSYN106AAXX  21154 46738 11356 73505 10233 20219 30074 40128 52023 6993/ 71062 87800 555 83808 85620 87650 00993;
0254467380999992000042118004+24930+121300FM-12+0141RCUK V0200401N004110060019N0060001N1+02161+02021101221ADDAA106000391AY121061AY221061GA1031+002409089GA2051+006009069GA3071+015009069GF107991071081002501001001MA1999999100681MD1610061+9999MW1101REMSYN106AAXX  21184 46738 11356 70408 10216 20202 30068 40122 56006 69931 71022 87800 555 83808 85620 87650 00000;
0283467380999992000042200004+24930+121300FM-12+0141RCUK V0200101N00211006601CN0050001N1+02291+02091101221ADDAA112000791AY161061AY221061GA1031+002409089GA2051+006609069GA3081+015009069GF108991081071002501999999KA1120N+02111MA1999999100681MD1410001+9999MW1101REMSYN122AAXX  22004 46738 11350 80104 10229 20209 30068 40122 54000 69902 71062 887// 333 20211 555 83808 85622 88650 00990 24993;
0267467380999992000042206004+24930+121300FM-12+0141RCUK V0200601N002610090019N0060001N1+02501+02061100941ADDAA199000091AY121061AY221061GA1021+003609089GA2051+009009069GA3081+018009069GF108991081081004501999999MA1999999100401MD1810241+9999MW1051REMSYN100AAXX  22064 46738 31456 80605 10250 20206 30040 40094 58024 70522 888// 555 82812 85630 88656 00990;EQDQ01  00002PRCP99
0269467380999992000042209004+24930+121300FM-12+0141RCUK V0200301N00361008401CN0050001N1+02461+02071100811ADDAA199000091AY121031AY221031GA1021+003009089GA2051+008409069GA3081+015009069GF108991081081004501999999MA1999999100271MD1610131+9999MW1051REMSYN102AAXX  22094 46738 31450 80307 10246 20207 30027 40081 56013 70522 888// 555 82810 85628 88650 009909 ;EQDQ01  00002PRCP99
0235467380999992000042215004+24930+121300FM-12+0141RCUK V0203601N001010090019N0060001N1+02371+02201100911ADDAA199000091AY121031AY221031GA1021+003609089GF108991081081004501999999MA1999999100371MD1110071+9999MW1101REMSYN100AAXX  22154 46738 31456 83602 10237 20220 30037 40091 51007 71022 888// 555 82812 95732 99757 00990;EQDQ01  00002PRCP99
0267467380999992000042218004+24930+121300FM-12+0141RCUK V0200101N00311009601CN0060001N1+02361+02161100911ADDAA199000091AY121061AY221061GA1021+003609089GA2051+009609069GA3081+018009069GF108991081081004501999999MA1999999100371MD1410001+9999MW1101REMSYN100AAXX  22184 46738 31456 80106 10236 20216 30037 40091 54000 71022 888// 555 82812 85632 88656 00000;EQDQ01  00002PRCP99
0267467380999992000042221004+24930+121300FM-12+0141RCUK V0200301N00361009601CN0060001N1+02371+02171100941ADDAA199000091AY121031AY221031GA1021+003609089GA2051+009609069GA3081+018009069GF108991081081004501999999MA1999999100401MD1110031+9999MW1101REMSYN100AAXX  22214 46738 31456 80307 10237 20217 30040 40094 51003 71022 888// 555 82812 85632 88656 00000;EQDQ01  00002PRCP99
0254467380999992000042303004+24930+121300FM-12+0141RCUK V0200901N00151004801CN0040001N1+02451+02311101151ADDAA100000791AY151031AY221031GA1021+002409089GA2051+004809069GA3081+013509069GF108991081071002501999999MA1999999100611MD1110041+9999MW1501REMSYN106AAXX  23034 46738 11340 80903 10245 20231 30061 40115 51004 6990/ 75052 887// 555 82808 85616 88645 00990;
0254467380999992000042306004+24930+121300FM-12+0141RCUK V0209999C00001004501CN0100001N1+02451+02211101051ADDAA106000791AY151061AY221061GA1031+001809089GA2051+004509069GA3081+013509069GF108991081081002501999999MA1999999100511MD1610101+9999MW1021REMSYN106AAXX  23064 46738 11360 80000 10245 20221 30051 40105 56010 69901 70252 888// 555 83806 85615 88645 00990;
0254467380999992000042309004+24930+121300FM-12+0141RCUK V0200101N00261004201CN0030001N1+02311+02131100941ADDAA100000791AY161031AY221031GA1031+001509089GA2051+004209069GA3081+013509069GF108991081071001501999999MA1999999100401MD1610111+9999MW1601REMSYN106AAXX  23094 46738 11230 80105 10231 20213 30040 40094 56011 6990/ 76062 887// 555 83805 85614 88645 00990;
0277467380999992000042312004+24930+121300FM-12+0141RCUK V0203601N00361005401CN0100001N1+02331+02101101051ADDAA112000791AY161061AY221061GA1021+001809089GA2051+005409069GA3081+015009069GF108991081081002501999999KA1120M+02501MA1999999100511MD1310111+9999MW1021REMSYN116AAXX  23124 46738 11360 83607 10233 20210 30051 40105 53011 69902 70262 888// 333 10250 555 82806 85618 88650 00990;
0220467380999992000042318004+24930+121300FM-12+0141RCUK V0203501N00311006601CN0100001N1+02271+02041101051ADDAA199000021GA1021+003009089GA2051+006609069GA3081+015009069GF108991081051004501999999MA1999999100511MD1810061+9999REMSYN094AAXX  23184 46738 32460 83506 10227 20204 30051 40105 58006 885// 555 82810 85622 88650 00000;
0220467380999992000042321004+24930+121300FM-12+0141RCUK V0203301N00151006601CN0100001N1+02271+02021101011ADDAA199000021GA1021+003009089GA2051+006609069GA3081+015009069GF108991081081004501999999MA1999999100471MD1610041+9999REMSYN094AAXX  23214 46738 32460 83303 10227 20202 30047 40101 56004 888// 555 82810 85622 88650 00000;
0268467380999992000042400004+24930+121300FM-12+0141RCUK V0203401N00361008401CN0250001N1+02321+02011101081ADDAA199000091GA1021+003609089GA2051+008409069GA3081+018009069GF108991081081004501999999KA1120N+02261MA1999999100541MD1310071+9999REMSYN110AAXX  24004 46738 32475 83407 10232 20201 30054 40108 53007 888// 333 20226 555 82812 85628 88656 00000 24990;EQDQ01  00002PRCP99
0223467380999992000042403004+24930+121300FM-12+0141RCUK V0200601N00511004801CN0300001N1+02471+02071101051ADDAA100003091GA1041+000309079GA2081+004809069GF199999071051004501001001MA1999999100511MD1810031+9999REMSYN094AAXX  24034 46738 11480 70610 10247 20207 30051 40105 58003 6003/ 87500 555 84701 88616 00001;EQDQ01+000072SCOTCV
0226467380999992000042406004+24930+121300FM-12+0141RCUK V0200201N00151010501CN0500001N1+02601+02071100941ADDAA106003091GA1021+004509089GA2031+010509069GA3051+018009069GF105991051051004501001001MA1999999100401MD1710111+9999REMSYN100AAXX  24064 46738 11484 50203 10260 20207 30040 40094 57011 60031 85500 555 82815 83635 85656 00003;
0254467380999992000042409004+24930+121300FM-12+0141RCUK V0200601N00361004501CN0300001N1+02411+02151100881ADDAA100003091AY161031AY251031GA1021+002409089GA2031+004509089GA3071+015009069GF107991071041002501001001MA1999999100341MD1710061+9999MW1601REMSYN106AAXX  24094 46738 11380 70607 10241 20215 30034 40088 57006 6003/ 76065 87400 555 82808 83815 87650 00004;
0232467380999992000042418004+24930+121300FM-12+0141RCUK V0203201N003612200019N0300001N1+02241+02001100811ADDAA106000791AY151061AY221061GA1011+004509089GA2031+010509069GF103991031051004501001001MA1999999100271MD1710241+9999MW1011REMSYN100AAXX  24184 46738 11480 33207 10224 20200 30027 40081 57024 69901 70152 83500 555 81815 83635 00000;
0182467380999992000042421004+24930+121300FM-12+0141RCUK V0203101N000512200019N0400001N1+02151+01931100741ADDAA100000791GA1011+007509089GF103991011011008001001011MA1999999100201MD1610071+9999REMSYN088AAXX  24214 46738 12582 33101 10215 20193 30020 40074 56007 6990/ 81101 555 81825 00000;
0233467380999992000042500004+24930+121300FM-12+0141RCUK V0202001N001012200019N0250001N1+02621+02381100811ADDAA112000791GA1021+004809089GA2031+006009089GF104991031011004501031001KA1120N+02151MA1999999100271MD1110071+9999REMSYN110AAXX  25004 46738 31475 42002 10262 20238 30027 40081 51007 69902 83130 333 20215 555 82816 83820 00000 24004;
0239467380999992000042503004+24930+121300FM-12+0141RCUK V0201701N002610900019N0200001N1+02961+02421100671ADDAA199000091GA1021+004209089GA2031+027009039GA3051+090009009GF105991021011004501031011MA1999999100131MD1810141+9999REMSYN094AAXX  25034 46738 32470 51705 10296 20242 30013 40067 58014 82131 555 82814 83359 85080 00000;EQDQ01  00002PRCP99
0255467380999992000042506004+24930+121300FM-12+0141RCUK V0202101N00411010501CN0200001N1+03231+02351100371ADDAA199000091GA1021+004209089GA2031+010509069GA3061+024009039GF106991031081004501031001MA1999999099831MD1610301+9999REMSYN094AAXX  25064 46738 32470 62108 10323 20235 39983 40037 56300 83830 555 82814 83635 86358 00000;EQDQ01+003002APC3  Q02  00002PRCP99
0217467380999992000042509004+24930+121300FM-12+0141RCUK V0202401N00621075001CN0200001N1+03371+02291100231ADDAA199000091GA1031+024009039GA2061+075009009GF106991021011004501031011MA1999999099691MD1610141+9999REMSYN088AAXX  25094 46738 32470 62412 10337 20229 39969 40023 56014 82131 555 83358 86075 00000;EQDQ01  00002PRCP99
0240467380999992000042512004+24930+121300FM-12+0141RCUK V0200301N00101024001CN0110001N1+02831+02191100371ADDAA199000091GA1021+004209089GA2051+024009039GF105991021011004501031001KA1120M+03371MA1999999099831MD1310141+9999REMSYN098AAXX  25124 46738 32461 50302 10283 20219 39983 40037 53014 82130 333 10337 555 82814 85358 00000;EQDQ01  00002PRCP99
0217467380999992000042515004+24930+121300FM-12+0141RCUK V0200601N001012200019N0110001N1+02581+02191100471ADDAA199000091GA1011+004209089GA2031+024009039GF103991011011004501031001MA1999999099931MD1110101+9999REMSYN088AAXX  25154 46738 32461 30602 10258 20219 39993 40047 51010 81130 555 81814 83358 00000;EQDQ01  00002PRCP99
0217467380999992000042518004+24930+121300FM-12+0141RCUK V0203201N002112200019N0110001N1+02361+02121100371ADDAA199000091GA1011+004209089GA2031+024009039GF103991011011004501031001MA1999999099831MD1710101+9999REMSYN088AAXX  25184 46738 32461 33204 10236 20212 39983 40037 57010 81130 555 81814 83358 00000;EQDQ01  00002PRCP99
0217467380999992000042521004+24930+121300FM-12+0141RCUK V0202601N005112200019N0120001N1+02891+01821100341ADDAA199000091GA1011+004209089GA2031+090009009GF103991011011004501001041MA1999999099801MD1610031+9999REMSYN088AAXX  25214 46738 32462 32610 10289 20182 39980 40034 56003 81104 555 81814 83080 00000;EQDQ01  00002PRCP99
0246467380999992000042600004+24930+121300FM-12+0141RCUK V0202701N00511090001CN0250001N1+03301+01941100401ADDAA199000091GA1011+004809089GA2061+090009009GF106991011011004501031011KA1120N+02361MA1999999099861MD1110061+9999REMSYN104AAXX  26004 46738 32475 62710 10330 20194 39986 40040 51006 81131 333 20236 555 81816 86080 00000 24000;EQDQ01  00002PRCP99
0239467380999992000042603004+24930+121300FM-12+0141RCUK V0201001N00461075001CN0250001N1+03151+02541100471ADDAA199000091GA1011+004809089GA2031+036009039GA3071+075009009GF107991011011004501031011MA1999999099931MD1110071+9999REMSYN094AAXX  26034 46738 32475 71009 10315 20254 39993 40047 51007 81131 555 81816 83362 87075 00000;EQDQ01  00002PRCP99
0262467380999992000042612004+24930+121300FM-12+0141RCUK V0200501N00101030001CN0180001N1+02761+02371100741ADDAA199000091GA1011+003609089GA2031+010509069GA3071+030009049GF107991031081004501021999KA1120M+03561MA1999999100201MD1210201+9999REMSYN104AAXX  26124 46738 32468 70502 10276 20237 30020 40074 52020 8382/ 333 10356 555 81812 83635 87460 00000;EQDQ01  00002PRCP99
0239467380999992000042615004+24930+121300FM-12+0141RCUK V0202701N00151008401CN0180001N1+02651+02351100841ADDAA199000091GA1021+003609089GA2051+008409069GA3071+024009049GF107991051081004501021999MA1999999100301MD1110101+9999REMSYN094AAXX  26154 46738 32468 72703 10265 20235 30030 40084 51010 8582/ 555 82812 85628 87458 00000;EQDQ01  00002PRCP99
0254467380999992000042621004+24930+121300FM-12+0141RCUK V0200501N00311006001CN0070001N1+02461+02291100781ADDAA100002091AY161031AY251031GA1021+003009089GA2051+006009089GA3081+018009069GF108991081081004501999999MA1999999100241MD1410001+9999MW1501REMSYN106AAXX  26214 46738 11457 80506 10246 20229 30024 40078 54000 6002/ 75065 888// 555 82810 85820 88656 00002;
0254467380999992000042709004+24930+121300FM-12+0141RCUK V0200101N00261004501CN0050001N1+01971+01761101281ADDAA100007191AY181031AY261031GA1031+001809089GA2051+004509089GA3081+015009069GF108991081041002501999999MA1999999100741MD1210101+9999MW1611REMSYN106AAXX  27094 46738 11350 80105 10197 20176 30074 40128 52010 6007/ 76186 884// 555 83806 85815 88650 00008;
0226467380999992000042721004+24930+121300FM-12+0141RCUK V0203501N00311008401CN0150001N1+01961+01731101421ADDAA100000791GA1021+003609089GA2051+008409069GA3081+015009069GF108991081081004501999999MA1999999100881MD1610031+9999REMSYN100AAXX  27214 46738 12465 83506 10196 20173 30088 40142 56003 6990/ 888// 555 82812 85628 88650 00000;
0267467380999992000042803004+24930+121300FM-12+0141RCUK V0203601N00361008401CN0050001N1+02291+01711101451ADDAA199000091AY121031AY221031GA1031+002109079GA2051+008409069GA3081+015009069GF108991081051002501999999MA1999999100911MD1810071+9999MW1051REMSYN100AAXX  28034 46738 31350 83607 10229 20171 30091 40145 58007 70522 885// 555 83707 85628 88650 00000;EQDQ01  00002PRCP99
0254467380999992000042806004+24930+121300FM-12+0141RCUK V0200301N00311007801CN0050001N1+02311+01791101351ADDAA106000791AY161061AY221061GA1031+002409079GA2051+007809069GA3081+018009069GF108991081051002501999999MA1999999100811MD1810101+9999MW1211REMSYN106AAXX  28064 46738 11350 80306 10231 20179 30081 40135 58010 69901 72162 885// 555 83708 85626 88656 00990;
0273467380999992000042809004+24930+121300FM-12+0141RCUK V0200301N00151010501CN0060001N1+02361+01751101281ADDAA100000791AY121031AY221031GA1031+002409079GA2051+010509069GA3071+018009069GF107991999051002501999999MA1999999100741MD1810071+9999MW1051REMSYN106AAXX  28094 46738 11356 70303 10236 20175 30074 40128 58007 6990/ 70522 885// 555 83708 85635 87656 00990;EQDQ01+000082SCOTLC
0277467380999992000042812004+24930+121300FM-12+0141RCUK V0200201N00311010501CN0070001N1+02241+01811101451ADDAA112000791AY121061AY221061GA1031+002409079GA2051+010509069GA3071+018009069GF107991071051002501999999KA1120M+02371MA1999999100911MD1210171+9999MW1051REMSYN116AAXX  28124 46738 11357 70206 10224 20181 30091 40145 52017 69902 70522 875// 333 10237 555 83708 85635 87656 00990;
0248467380999992000042815004+24930+121300FM-12+0141RCUK V0200301N00211010501CN0080001N1+02151+01811101521ADDAA199000021AY121031AY221031GA1031+002409079GA2051+010509069GA3071+018009069GF107991071051002501999999MA1999999100981MD1310071+9999MW1051REMSYN100AAXX  28154 46738 31358 70304 10215 20181 30098 40152 53007 70522 875// 555 83708 85635 87656 00990;
0248467380999992000042818004+24930+121300FM-12+0141RCUK V0203401N00151010501CN0080001N1+02181+01841101381ADDAA199000021AY121061AY221061GA1031+002409079GA2051+010509069GA3071+018009069GF107991071051002501999999MA1999999100841MD1710141+9999MW1051REMSYN100AAXX  28184 46738 31358 73403 10218 20184 30084 40138 57014 70522 875// 555 83708 85635 87656 00000;
0267467380999992000042821004+24930+121300FM-12+0141RCUK V0203601N00101010501CN0080001N1+02181+01851101321ADDAA199000091AY121031AY221031GA1031+002409079GA2051+010509069GA3071+018009069GF107991071051002501999999MA1999999100781MD1610061+9999MW1051REMSYN100AAXX  28214 46738 31358 73602 10218 20185 30078 40132 56006 70522 875// 555 83708 85635 87656 00000;EQDQ01  00002PRCP99
0283467380999992000042900004+24930+121300FM-12+0141RCUK V0200301N00361007501CN0080001N1+02121+01881101451ADDAA112000791AY161061AY251061GA1031+003609079GA2051+007509069GA3081+015009069GF108991081051004501999999KA1120N+02141MA1999999100911MD1110131+9999MW1501REMSYN122AAXX  29004 46738 11458 80307 10212 20188 30091 40145 51013 69902 75065 885// 333 20214 555 83712 85625 88650 00990 24990;
0226467380999992000042903004+24930+121300FM-12+0141RCUK V0200301N00211004501CN0100001N1+02371+02041101421ADDAA100000791GA1031+003009079GA2051+004509069GA3081+013509069GF108991081051004501999999MA1999999100881MD1810031+9999REMSYN100AAXX  29034 46738 12460 80304 10237 20204 30088 40142 58003 6990/ 885// 555 83710 85615 88645 00990;
0277467380999992000042912004+24930+121300FM-12+0141RCUK V0200301N00101003601CN0080001N1+02391+02131101181ADDAA112000791AY161061AY221061GA1031+001209089GA2051+003609069GA3081+013509069GF108991081081001501999999KA1120M+02721MA1999999100641MD1110071+9999MW1151REMSYN116AAXX  29124 46738 11258 80302 10239 20213 30064 40118 51007 69902 71562 888// 333 10272 555 83804 85612 88645 00991;
0241467380999992000042921004+24930+121300FM-12+0141RCUK V0203401N00101005401CN0100001N1+02411+02141101051ADDAA199000091GA1021+002409089GA2051+005409069GA3071+015009069GF107991071081002501001001MA1999999100511MD1710101+9999REMSYN096AAXX  29214 46738 32360 73402 10241 20214 30051 40105 57010 87800 555 82808 85618 87650 000000 ;EQDQ01  00002PRCP99
0217467380999992000043006004+24930+121300FM-12+0141RCUK V0201501N00211018001CN0120001N1+03211+02371100611ADDAA199000091GA1021+004509089GA2051+018009069GF105991051081004501001001MA1999999100071MD1710301+9999REMSYN088AAXX  30064 46738 32462 51504 10321 20237 30007 40061 57030 85800 555 82815 85656 00000;EQDQ01  00002PRCP99
0239467380999992000043009004+24930+121300FM-12+0141RCUK V0200601N00511075001CN0110001N1+02841+02311100541ADDAA199000091GA1021+003609089GA2041+013509069GA3061+075009009GF106991041081004501001011MA1999999100001MD1110071+9999REMSYN094AAXX  30094 46738 32461 60610 10284 20231 30000 40054 51007 84801 555 82812 84645 86075 00000;EQDQ01  00002PRCP99
0267467380999992000043018004+24930+121300FM-12+0141RCUK V0200401N00411008401CN0070001N1+02481+02101100911ADDAA199000091AY121061AY221061GA1031+003609089GA2051+008409069GA3071+024009039GF107991051081004501031001MA1999999100371MD1510101+9999MW1051REMSYN100AAXX  30184 46738 31457 70408 10248 20210 30037 40091 55010 70522 85830 555 83812 85628 87358 00000;EQDQ01  00002PRCP99
0267467380999992000043021004+24930+121300FM-12+0141RCUK V0203601N00151008401CN0060001N1+02401+02091100971ADDAA199000091AY121031AY221031GA1031+003609089GA2051+008409069GA3071+024009039GF107991051081999999031001MA1999999100371MD1410001+9999MW1051REMSYN100AAXX  30214 46738 31/56 73603 10240 20209 30037 40097 54000 70522 85830 555 83812 85628 87358 00000;EQDQ01  00002PRCP99
0268467380999992000050100004+24930+121300FM-12+0141RCUK V0200401N00101005401CN0110001N1+02461+02111101111ADDAA199000091GA1021+001809089GA2051+005409069GA3081+015009069GF108991081081002501999999KA1120N+02381MA1999999100571MD1210201+9999REMSYN110AAXX  01004 46738 32361 80402 10246 20211 30057 40111 52020 888// 333 20238 555 82806 85618 88650 00000 24000;EQDQ01  00002PRCP99
0239467380999992000050103004+24930+121300FM-12+0141RCUK V0201301N001010060019N0180001N1+02571+02141101181ADDAA199000091GA1021+002409089GA2051+006009069GA3081+015009069GF108991081081002501999999MA1999999100641MD1110071+9999REMSYN094AAXX  01034 46738 32368 81302 10257 20214 30064 40118 51007 888// 555 82808 85620 88650 00000;EQDQ01  00002PRCP99
0254467380999992000050109004+24930+121300FM-12+0141RCUK V0200301N00101003601CN0020001N1+02321+02151100981ADDAA100001091AY191031AY261031GA1031+001509089GA2061+003609069GA3081+009009069GF108991081071001501999999MA1999999100441MD1610031+9999MW1601REMSYN106AAXX  01094 46738 11220 80302 10232 20215 30044 40098 56003 6001/ 76096 887// 555 83805 86612 88630 00001;
0277467380999992000050112004+24930+121300FM-12+0141RCUK V0200101N00151003601CN0032001N1+02301+02181101051ADDAA112001091AY191061AY261061GA1031+001509089GA2061+003609069GA3081+009009069GF108991081071001501999999KA1120M+02591MA1999999100511MD1210071+9999MW1601REMSYN116AAXX  01124 46738 11232 80103 10230 20218 30051 40105 52007 60012 76096 887// 333 10259 555 83805 86612 88630 00001;
0254467380999992000050118004+24930+121300FM-12+0141RCUK V0200301N00151003601CN0040001N1+02181+02031100911ADDAA106000391AY161061AY221061GA1041+000309079GA2011+003609099GA3081+004809069GF108991081061002501999999MA1999999100371MD1710171+9999MW1101REMSYN106AAXX  01184 46738 11340 80303 10218 20203 30037 40091 57017 69931 71062 886// 555 84701 81912 88616 00993;
0226467380999992000050321004+24930+121300FM-12+0141RCUK V0209999C00001007501CN0110001N1+02221+02001101281ADDAA100000791GA1021+003609089GA2051+007509069GA3081+018009069GF108991081081004501999999MA1999999100741MD1810071+9999REMSYN100AAXX  03214 46738 11461 80000 10222 20200 30074 40128 58007 6990/ 888// 555 82812 85625 88656 00000;
0274467380999992000050400004+24930+121300FM-12+0141RCUK V0200101N00411007501CN0160001N1+02271+02011101281ADDAA112000791GA1031+003009089GA2051+007509069GA3071+021009039GF107991071061004501999001KA1120N+02161MA1999999100741MD1510001+9999REMSYN116AAXX  04004 46738 11466 70108 10227 20201 30074 40128 55000 69902 87600 333 20216 555 83810 85625 87357 00000 24000;EQDQ01+000002SCOMCG
0254467380999992000050406004+24930+121300FM-12+0141RCUK V0200301N00571004801CN0040001N1+02291+02221101251ADDAA106000391AY181061AY221061GA1031+001809089GA2051+004809069GA3081+012009069GF108991081071002501999999MA1999999100711MD1610071+9999MW1801REMSYN106AAXX  04064 46738 11340 80311 10229 20222 30071 40125 56007 69931 78082 887// 555 83806 85616 88640 00993;
0254467380999992000050409004+24930+121300FM-12+0141RCUK V0203501N00311005401CN0060001N1+02241+02071101281ADDAA100000891AY181031AY221031GA1031+001809089GA2051+005409069GA3081+012009069GF108991081071002501999999MA1999999100741MD1110031+9999MW1601REMSYN106AAXX  04094 46738 11356 83506 10224 20207 30074 40128 51003 6998/ 76082 887// 555 83806 85618 88640 00998;
0254467380999992000050421004+24930+121300FM-12+0141RCUK V0203301N001510060019N0060001N1+02151+01981101381ADDAA100000391AY181031AY281031GA1031+002409089GA2051+006009069GA3081+012009069GF108991081081002501999999MA1999999100841MD1610071+9999MW1601REMSYN106AAXX  04214 46738 11356 83303 10215 20198 30084 40138 56007 6993/ 76088 888// 555 83808 85620 88640 00990;
0283467380999992000050500004+24930+121300FM-12+0141RCUK V0203601N00101008401CN0150001N1+02371+02181101421ADDAA112000591AY161061AY221061GA1021+003609089GA2051+008409069GA3071+018009069GF107991071081004501001001KA1120N+02131MA1999999100881MD1110041+9999MW1021REMSYN122AAXX  05004 46738 11465 73602 10237 20218 30088 40142 51004 69952 70262 87800 333 20213 555 82812 85628 87656 00993 24001;
0220467380999992000050503004+24930+121300FM-12+0141RCUK V0200701N00261009601CN0150001N1+02711+02121101451ADDAA199000021GA1021+003609089GA2051+009609069GA3071+021009039GF107991051081004501031001MA1999999100911MD1110031+9999REMSYN094AAXX  05034 46738 32465 70705 10271 20212 30091 40145 51003 85830 555 82812 85632 87357 00993;
0277467380999992000050512004+24930+121300FM-12+0141RCUK V0203201N00151003601CN0040001N1+02171+01991101491ADDAA112006191AY161061AY261061GA1031+001209089GA2051+003609069GA3081+010509069GF108991081071001501999999KA1120M+02731MA1999999100951MD1110111+9999MW1601REMSYN116AAXX  05124 46738 11240 83203 10217 20199 30095 40149 51011 60062 76066 887// 333 10273 555 83804 85612 88635 00007;
0254467380999992000050515004+24930+121300FM-12+0141RCUK V0203101N00261004801CN0050001N1+02111+02031101521ADDAA100000391AY161031AY261031GA1031+001809089GA2051+004809069GA3081+012009069GF108991081071002501999999MA1999999100981MD1110031+9999MW1601REMSYN106AAXX  05154 46738 11350 83105 10211 20203 30098 40152 51003 6993/ 76066 887// 555 83806 85616 88640 00007;
0254467380999992000050521004+24930+121300FM-12+0141RCUK V0209999C00001006601CN0050001N1+02111+01991101351ADDAA100000391AY161031AY221031GA1021+002409089GA2051+006609069GA3071+015009069GF107991071061002501001001MA1999999100811MD1610031+9999MW1101REMSYN106AAXX  05214 46738 11350 70000 10211 20199 30081 40135 56003 6993/ 71062 87600 555 82808 85622 87650 00990;
0267467380999992000050606004+24930+121300FM-12+0141RCUK V0202601N00151005401CN0060001N1+02481+02121101351ADDAA199000091AY121061AY211061GA1031+001809089GA2061+005409069GA3081+012009069GF108991081081002501999999MA1999999100811MD1810031+9999MW1051REMSYN100AAXX  06064 46738 31356 82603 10248 20212 30081 40135 58003 70521 888// 555 83806 86618 88640 00990;EQDQ01  00002PRCP99
0254467380999992000050609004+24930+121300FM-12+0141RCUK V0203301N00151002401CN0012001N1+02271+01981101281ADDAA100002091AY121031AY221031GA1031+000309079GA2051+002409079GA3081+006009069GF108991071081000251999999MA1999999100741MD1810071+9999MW1601REMSYN106AAXX  06094 46738 11012 83303 10227 20198 30074 40128 58007 6002/ 76022 878// 555 83701 85708 88620 00002;
0226467380999992000050621004+24930+121300FM-12+0141RCUK V0209999C00001006601CN0100001N1+02201+02031101381ADDAA100000791GA1021+003009089GA2051+006609069GA3081+018009069GF108991081081004501999999MA1999999100841MD1410001+9999REMSYN100AAXX  06214 46738 11460 80000 10220 20203 30084 40138 54000 6990/ 888// 555 82810 85622 88656 00000;
0267467380999992000050706004+24930+121300FM-12+0141RCUK V0200701N00511004501CN0050001N1+02601+02021101281ADDAA199000091AY121061AY221061GA1031+001509089GA2051+004509069GA3071+015009069GF107991071081001501001001MA1999999100741MD1810071+9999MW1051REMSYN100AAXX  07064 46738 31250 70710 10260 20202 30074 40128 58007 70522 87800 555 83805 85615 87650 00000;EQDQ01  00002PRCP99
0254467380999992000050709004+24930+121300FM-12+0141RCUK V0200601N004110060019N0070001N1+02501+01961101221ADDAA100000791AY161031AY221031GA1031+001509089GA2051+006009069GA3081+015009069GF108991081081001501999999MA1999999100681MD1610061+9999MW1051REMSYN106AAXX  07094 46738 11257 80608 10250 20196 30068 40122 56006 6990/ 70562 888// 555 83805 85620 88650 00990;
0277467380999992000050712004+24930+121300FM-12+0141RCUK V0209999C000010060019N0080001N1+02421+01911101251ADDAA112000791AY161061AY221061GA1031+002409089GA2051+006009069GA3081+015009069GF108991081081002501999999KA1120M+02781MA1999999100711MD1310031+9999MW1051REMSYN116AAXX  07124 46738 11358 80000 10242 20191 30071 40125 53003 69902 70562 888// 333 10278 555 83808 85620 88650 00990;
0239467380999992000050718004+24930+121300FM-12+0141RCUK V0200201N00311006601CN0100001N1+02241+01901101381ADDAA199000091GA1021+003009089GA2051+006609069GA3081+015009069GF108991081081004501999999MA1999999100841MD1410001+9999REMSYN094AAXX  07184 46738 32460 80206 10224 20190 30084 40138 54000 888// 555 82810 85622 88650 00000;EQDQ01  00002PRCP99
0224467380999992000050800004+24930+121300FM-12+0141RCUK V0200201N005112200019N0180001N1+02481+01821101281ADDAA199000091GA1011+004209089GF101991011011004501001001KA1120N+02081MA1999999100741MD1110101+9999REMSYN098AAXX  08004 46738 32468 10210 10248 20182 30074 40128 51010 81100 333 20208 555 81814 00000 24990;EQDQ01  00002PRCP99
0223467380999992000050803004+24930+121300FM-12+0141RCUK V0200101N006212200019N0150001N1+02801+02031101281ADDAA199000091GA1021+004209089GA2031+008409069GF103991031081004501001001MA1999999100741MD1010001+9999REMSYN094AAXX  08034 46738 32465 30112 10280 20203 30074 40128 50000 83800 555 30122 82814 83628 00000;EQDQ01  00002PRCP99
0239467380999992000050815004+24930+121300FM-12+0141RCUK V0203001N00151018001CN0110001N1+02351+01861101251ADDAA199000091GA1011+003609089GA2031+009609069GA3061+018009069GF106991061081004501001001MA1999999100711MD1110031+9999REMSYN094AAXX  08154 46738 32461 63003 10235 20186 30071 40125 51003 86800 555 81812 83632 86656 00000;EQDQ01  00002PRCP99
0217467380999992000050818004+24930+121300FM-12+0141RCUK V0203301N002112200019N0110001N1+02221+01771101151ADDAA199000091GA1011+003609089GA2031+018009069GF103991031081004501001001MA1999999100611MD1710101+9999REMSYN088AAXX  08184 46738 32461 33304 10222 20177 30061 40115 57010 83800 555 81812 83656 00000;EQDQ01  00002PRCP99
0267467380999992000050906004+24930+121300FM-12+0141RCUK V0200801N00461010501CN0090001N1+02511+01861100841ADDAA199000091AY121061AY221061GA1021+003609089GA2041+010509069GA3071+018009069GF107991071081004501001001MA1999999100301MD1710211+9999MW1051REMSYN100AAXX  09064 46738 31459 70809 10251 20186 30030 40084 57021 70522 87800 555 82812 84635 87656 00000;EQDQ01  00002PRCP99
0267467380999992000050909004+24930+121300FM-12+0141RCUK V0200501N00101018001CN0080001N1+02511+01791100741ADDAA199000091AY121031AY221031GA1011+003609089GA2041+010509069GA3071+018009069GF107991071081004501001001MA1999999100201MD1610101+9999MW1051REMSYN100AAXX  09094 46738 31458 70502 10251 20179 30020 40074 56010 70522 87800 555 81812 84635 87656 00000;EQDQ01  00002PRCP99
0245467380999992000050921004+24930+121300FM-12+0141RCUK V0203601N00101018001CN0090001N1+02211+01781100671ADDAA199000091AY111031AY211031GA1021+003909089GA2061+018009069GF106991061081004501001001MA1999999100131MD1610041+9999MW1051REMSYN094AAXX  09214 46738 31459 63602 10221 20178 30013 40067 56004 70511 86800 555 82813 86656 00000;EQDQ01  00002PRCP99
0246467380999992000051000004+24930+121300FM-12+0141RCUK V0200301N001512200019N0110001N1+02411+01861100711ADDAA199000091GA1011+004509089GA2031+024009039GF103991011011004501031001KA1120N+02201MA1999999100171MD1310041+9999REMSYN104AAXX  10004 46738 32461 30303 10241 20186 30017 40071 53004 81130 333 20220 555 81815 83358 00000 24000;EQDQ01  00002PRCP99
0217467380999992000051003004+24930+121300FM-12+0141RCUK V0201501N002612200019N0110001N1+02781+02051100711ADDAA199000091GA1011+004509089GA2031+024009039GF103991011011004501031001MA1999999100171MD1410001+9999REMSYN088AAXX  10034 46738 32461 31505 10278 20205 30017 40071 54000 81130 555 81815 83358 00000;EQDQ01  00002PRCP99
0217467380999992000051006004+24930+121300FM-12+0141RCUK V0201501N002112200019N0110001N1+02791+02041100641ADDAA199000091GA1021+004509089GA2031+024009039GF103991011011004501031001MA1999999100101MD1810071+9999REMSYN088AAXX  10064 46738 32461 31504 10279 20204 30010 40064 58007 81130 555 82815 83358 00000;EQDQ01  00002PRCP99
0200467380999992000051009004+24930+121300FM-12+0141RCUK V0201501N001510360019N0110001N1+02631+02011100641ADDAA199000091GA1021+004509089GF105991021011004501031001MA1999999100101MD1410001+9999REMSYN087AAXX  10094 46738 32461 51503 10263 20201 30010 40064 54000 82130 555 82815 8558 00000;EQDQ01  00002PRCP99
0262467380999992000051012004+24930+121300FM-12+0141RCUK V0200401N00051012001CN0100001N1+02561+02041100741ADDAA199000091GA1021+003609089GA2051+012009069GA3071+018009069GF107991071081004501001001KA1120M+02841MA1999999100201MD1310101+9999REMSYN104AAXX  10124 46738 32460 70401 10256 20204 30020 40074 53010 87800 333 10284 555 82812 85640 87656 00000;EQDQ01  00002PRCP99
0239467380999992000051018004+24930+121300FM-12+0141RCUK V0202901N00101009601CN0100001N1+02401+02001100781ADDAA199000091GA1021+003009089GA2051+009609069GA3081+018009069GF108991081081004501999999MA1999999100241MD1810061+9999REMSYN094AAXX  10184 46738 32460 82902 10240 20200 30024 40078 58006 888// 555 82810 85632 88656 00000;EQDQ01  00002PRCP99
0283467380999992000051100004+24930+121300FM-12+0141RCUK V0200101N00361009601CN0080001N1+02441+02051100811ADDAA112000791AY121061AY221061GA1011+003609089GA2051+009609069GA3081+018009069GF108991081081004501999999KA1120N+02231MA1999999100271MD1310031+9999MW1051REMSYN122AAXX  11004 46738 11458 80107 10244 20205 30027 40081 53003 69902 70522 888// 333 20223 555 81812 85632 88656 00990 24000;
0239467380999992000051103004+24930+121300FM-12+0141RCUK V0200201N00261024001CN0150001N1+02701+02011100841ADDAA199000091GA1011+003909089GA2031+010509069GA3071+024009039GF107991031021004501031001MA1999999100301MD1310031+9999REMSYN094AAXX  11034 46738 32465 70205 10270 20201 30030 40084 53003 83230 555 81813 83635 87358 00990;EQDQ01  00002PRCP99
0262467380999992000051112004+24930+121300FM-12+0141RCUK V0202701N00151010501CN0120001N1+02371+01511100841ADDAA199000091GA1021+003009089GA2031+010509069GA3071+024009039GF107991031021004501031001KA1120M+02751MA1999999100301MD1310061+9999REMSYN104AAXX  11124 46738 32462 72703 10237 20151 30030 40084 53006 83230 333 10275 555 82810 83635 87358 00990;EQDQ01  00002PRCP99
0239467380999992000051118004+24930+121300FM-12+0141RCUK V0201001N00211010501CN0120001N1+02171+01421100981ADDAA199000091GA1021+003009089GA2031+010509069GA3071+024009039GF107991031021004501031001MA1999999100441MD1410001+9999REMSYN094AAXX  11184 46738 32462 71004 10217 20142 30044 40098 54000 83230 555 82810 83635 87358 00000;EQDQ01  00002PRCP99
0239467380999992000051121004+24930+121300FM-12+0141RCUK V0203201N00151010501CN0120001N1+01851+01211100981ADDAA199000091GA1021+003009089GA2031+010509069GA3071+024009039GF107991031021004501031001MA1999999100441MD1410001+9999REMSYN094AAXX  11214 46738 32462 73203 10185 20121 30044 40098 54000 83230 555 82810 83635 87358 00000;EQDQ01  00002PRCP99
0246467380999992000051200004+24930+121300FM-12+0141RCUK V0203601N00261024001CN0120001N1+02511+01491100911ADDAA199000091GA1011+004509089GA2061+024009039GF106991011011004501031001KA1120N+01851MA1999999100371MD1110071+9999REMSYN104AAXX  12004 46738 32462 63605 10251 20149 30037 40091 51007 81130 333 20185 555 81815 86358 00000 24990;EQDQ01  00002PRCP99
0217467380999992000051203004+24930+121300FM-12+0141RCUK V0201101N00411024001CN0120001N1+02821+01931100881ADDAA199000091GA1011+004509089GA2061+024009039GF106991011011004501031001MA1999999100341MD1610031+9999REMSYN088AAXX  12034 46738 32462 61108 10282 20193 30034 40088 56003 81130 555 81815 86358 00000;EQDQ01  00002PRCP99
0262467380999992000051212004+24930+121300FM-12+0141RCUK V0203101N00211009601CN0100001N1+02431+02121100811ADDAA199000091GA1021+003609089GA2051+009609069GA3071+018009069GF107991071061004501001001KA1120M+02841MA1999999100271MD1110071+9999REMSYN104AAXX  12124 46738 32460 73104 10243 20212 30027 40081 51007 87600 333 10284 555 82812 85632 87656 00000;EQDQ01  00002PRCP99
0239467380999992000051221004+24930+121300FM-12+0141RCUK V0203601N00151010501CN0110001N1+02321+02031100841ADDAA199000091GA1021+004509089GA2051+010509069GA3071+021009039GF107991051081004501031001MA1999999100301MD1110061+9999REMSYN094AAXX  12214 46738 32461 73603 10232 20203 30030 40084 51006 85830 555 82815 85635 87357 00000;EQDQ01  00002PRCP99
0239467380999992000051306004+24930+121300FM-12+0141RCUK V0201401N00411030001CN0120001N1+03011+02201100811ADDAA199000091GA1011+004509089GA2031+012009069GA3051+030009039GF105991031081004501031001MA1999999100271MD1810101+9999REMSYN094AAXX  13064 46738 32462 51408 10301 20220 30027 40081 58010 83830 555 81815 83640 85360 00000;EQDQ01  00002PRCP99
0217467380999992000051309004+24930+121300FM-12+0141RCUK V0200801N003112200019N0120001N1+02851+02141100811ADDAA199000091GA1011+004509089GA2031+030009039GF103991011011004501031001MA1999999100271MD1410001+9999REMSYN088AAXX  13094 46738 32462 30806 10285 20214 30027 40081 54000 81130 555 81815 83360 00000;EQDQ01  00002PRCP99
0268467380999992000051400004+24930+121300FM-12+0141RCUK V0200601N00461075001CN0120001N1+02651+01861101111ADDAA199000091GA1011+004509089GA2031+024009039GA3071+075009009GF107991011011004501031011KA1120N+02191MA1999999100571MD1310061+9999REMSYN110AAXX  14004 46738 32462 70609 10265 20186 30057 40111 53006 81131 333 20219 555 81815 83358 87075 00000 24000;EQDQ01  00002PRCP99
0239467380999992000051403004+24930+121300FM-12+0141RCUK V0201001N00361075001CN0120001N1+03061+02181101081ADDAA199000091GA1011+004509089GA2031+027009039GA3061+075009009GF106991011011004501031011MA1999999100541MD1810031+9999REMSYN094AAXX  14034 46738 32462 61007 10306 20218 30054 40108 58003 81131 555 81815 83359 86075 00000;EQDQ01  00002PRCP99
0227467380999992000051412004+24930+121300FM-12+0141RCUK V0203001N00151024001CN0110001N1+02631+02141101051ADDAA199000091GA1011+004509089GA2061+024009039GF106991011011004501031001MA1999999100511MD1310071+9999REMSYN098AAXX  14124 46738 32461 63003 10263 20214 30051 40105 53007 81130 333 103// 555 81815 86358 00000;EQDQ01  00002PRCP99
0239467380999992000051415004+24930+121300FM-12+0141RCUK V0203301N00101012001CN0110001N1+02471+01951101111ADDAA199000091GA1021+003609089GA2041+012009069GA3071+018009069GF107991071081004501001001MA1999999100571MD1110061+9999REMSYN094AAXX  14154 46738 32461 73302 10247 20195 30057 40111 51006 87800 555 82812 84640 87656 00000;EQDQ01  00002PRCP99
0239467380999992000051418004+24930+121300FM-12+0141RCUK V0203501N00101012001CN0110001N1+02431+01941100981ADDAA199000091GA1021+003609089GA2041+012009069GA3071+018009069GF107991071081004501001001MA1999999100441MD1710131+9999REMSYN094AAXX  14184 46738 32461 73502 10243 20194 30044 40098 57013 87800 555 82812 84640 87656 00000;EQDQ01  00002PRCP99
0239467380999992000051421004+24930+121300FM-12+0141RCUK V0203401N00151010501CN0120001N1+02351+01751100981ADDAA199000091GA1021+003609089GA2051+010509069GA3071+018009069GF107991071081004501001001MA1999999100441MD1410001+9999REMSYN094AAXX  14214 46738 32462 73403 10235 20175 30044 40098 54000 87800 555 82812 85635 87656 00000;EQDQ01  00002PRCP99
0246467380999992000051500004+24930+121300FM-12+0141RCUK V0200201N00261024001CN0150001N1+02641+01851101011ADDAA199000091GA1011+004509089GA2061+024009039GF106991011011004501031001KA1120N+02351MA1999999100471MD1310031+9999REMSYN104AAXX  15004 46738 32465 60205 10264 20185 30047 40101 53003 81130 333 20235 555 81815 86358 00000 24000;EQDQ01  00002PRCP99
0226467380999992000051521004+24930+121300FM-12+0141RCUK V0203001N00101018001CN0120001N1+02441+02071100711ADDAA106000391GA1011+003609089GA2031+010509069GA3051+018009069GF105991051081004501001001MA1999999100171MD1810071+9999REMSYN100AAXX  15214 46738 12462 53002 10244 20207 30017 40071 58007 69931 85800 555 81812 83635 85656 00000;
0195467380999992000051606004+24930+121300FM-12+0141RCUK V0200701N006712200019N0200001N1+03181+02371100541ADDAA199000091GA1031+004809089GF103991031011004501001001MA1999999100001MD1710171+9999REMSYN082AAXX  16064 46738 32470 30713 10318 20237 30000 40054 57017 83100 555 83816 00000;EQDQ01  00002PRCP99
0207467380999992000051609004+24930+121300FM-12+0141RCUK V0203001N04162012001CN0200001N1+02831+02281100441ADDAA199000091GA1021+004809089GA2031+012009069MA1999999099901MD1610101+9999REMSYN088AAXX  16094 46738 32470 /3081 10283 20228 39990 40044 56010 83800 555 82816 83640 00000;EQDQ01+004163WOSPD Q02  00002PRCP99
0217467380999992000051621004+24930+121300FM-12+0141RCUK V0203401N001512200019N0130001N1+02511+02131100571ADDAA199000091GA1021+004809089GA2031+012009069GF103991031081004501001001MA1999999100031MD1410001+9999REMSYN088AAXX  16214 46738 32463 33403 10251 20213 30003 40057 54000 83800 555 82816 83640 00000;EQDQ01  00002PRCP99
0245467380999992000051706004+24930+121300FM-12+0141RCUK V0200701N007710090019N0110001N1+02951+02261100501ADDAA199000091GA1021+003609089GA2031+009009069GA3061+018009069GF106991061081004501001001MA1999999099961MD1810041+9999REMSYN100AAXX  17064 46738 32461 60715 10295 20226 39996 40050 58004 86800 555 30727 82812 83630 86656 00000;EQDQ01  00002PRCP99
0245467380999992000051709004+24930+121300FM-12+0141RCUK V0200501N00361008401CN0100001N1+02741+02211100501ADDAA199000091GA1021+003009089GA2031+008409069GA3071+018009069GF107991071081004501001001MA1999999099961MD1410001+9999REMSYN100AAXX  17094 46738 32460 70507 10274 20221 39996 40050 54000 87800 555 30727 82810 83628 87656 00000;EQDQ01  00002PRCP99
0268467380999992000051712004+24930+121300FM-12+0141RCUK V0200301N00211006001CN0110001N1+02641+02181100741ADDAA199000091GA1031+003009089GA2051+006009069GA3081+013509069GF108991081081004501999999KA1120M+03101MA1999999100201MD1210241+9999REMSYN110AAXX  17124 46738 32461 80304 10264 20218 30020 40074 52024 888// 333 10310 555 30727 83810 85620 88645 00000;EQDQ01  00002PRCP99
0239467380999992000051715004+24930+121300FM-12+0141RCUK V0200101N002610090019N0110001N1+02531+02101100881ADDAA199000091GA1021+004509089GA2041+009009069GA3071+015009069GF107991071081004501001001MA1999999100341MD1110141+9999REMSYN094AAXX  17154 46738 32461 70105 10253 20210 30034 40088 51014 87800 555 82815 84630 87650 00000;EQDQ01  00002PRCP99
0239467380999992000051718004+24930+121300FM-12+0141RCUK V0200201N00361010501CN0110001N1+02431+02061100781ADDAA199000091GA1021+004509089GA2041+010509069GA3071+018009069GF107991071081004501001001MA1999999100241MD1710101+9999REMSYN094AAXX  17184 46738 32461 70207 10243 20206 30024 40078 57010 87800 555 82815 84635 87656 00000;EQDQ01  00002PRCP99
0233467380999992000051800004+24930+121300FM-12+0141RCUK V0200101N00361021001CN0130001N1+02601+02061100781ADDAA199000091GA1021+003909089GA2061+021009039GF106991021011004501031001MA1999999100241MD1310071+9999REMSYN104AAXX  18004 46738 32463 60107 10260 20206 30024 40078 53007 82130 333 29023 555 82813 86357 00000 24000;EQDQ01  00002PRCP99
0229467380999992000051803004+24930+121300FM-12+0141RCUK V0200801N00411018001CN0090001N1+02831+02211100781ADDAA199000091GA1021+003909089GA2061+018009069GF106991021011004501031001MA1999999100401MD1410001+9999MW1051REMSYN094AAXX  18034 46738 31459 60808 10283 20221 3004/ 40078 54000 705// 82130 555 82813 86656 00000;EQDQ01  00002PRCP99
0290467380999992000051812004+24930+121300FM-12+0141RCUK V0200101N00261007501CN0080001N1+02591+02151100671ADDAA199000091AY121061AY221061GA1021+003009089GA2031+007509069GA3071+015009069GF107991071081004501001001KA1120M+02861MA1999999100131MD1110061+9999MW1051REMSYN110AAXX  18124 46738 31458 70105 10259 20215 30013 40067 51006 70522 87800 333 10286 555 82810 83625 87650 00000;EQDQ01  00002PRCP99
0267467380999992000051815004+24930+121300FM-12+0141RCUK V0200201N00261007501CN0070001N1+02521+02181100711ADDAA199000091AY121031AY221031GA1021+003609089GA2051+007509069GA3071+015009069GF107991071081004501001001MA1999999100171MD1110041+9999MW1051REMSYN100AAXX  18154 46738 31457 70205 10252 20218 30017 40071 51004 70522 87800 555 82812 85625 87650 00000;EQDQ01  00002PRCP99
0267467380999992000051818004+24930+121300FM-12+0141RCUK V0209999C00001007501CN0070001N1+02481+02171100541ADDAA199000091AY121061AY221061GA1021+003609089GA2051+007509069GA3071+015009069GF107991071081004501001001MA1999999100001MD1710171+9999MW1051REMSYN100AAXX  18184 46738 31457 70000 10248 20217 30000 40054 57017 70522 87800 555 82812 85625 87650 00000;EQDQ01  00002PRCP99
0267467380999992000051821004+24930+121300FM-12+0141RCUK V0209999C00001007501CN0060001N1+02361+01211100541ADDAA199000091AY121031AY221031GA1021+003609089GA2051+007509069GA3071+015009069GF107991071081004501001001MA1999999100001MD1410001+9999MW1051REMSYN100AAXX  18214 46738 31456 70000 10236 20121 30000 40054 54000 70522 87800 555 82812 85625 87650 00000;EQDQ01  00002PRCP99
0267467380999992000051906004+24930+121300FM-12+0141RCUK V0200601N00311004501CN0060001N1+02671+02291100571ADDAA199000091AY121061AY211061GA1031+002409089GA2051+004509089GA3071+018009069GF107991071081002501001001MA1999999100031MD1810041+9999MW1051REMSYN100AAXX  19064 46738 31356 70606 10267 20229 30003 40057 58004 70521 87800 555 83808 85815 87656 00000;EQDQ01  00002PRCP99
0254467380999992000051909004+24930+121300FM-12+0141RCUK V0200601N00361004801CN0070001N1+02461+02181100571ADDAA100000791AY121031AY221031GA1031+001809089GA2081+004809069GA3081+012009069GF108991081081002501999999MA1999999100031MD1410001+9999MW1051REMSYN106AAXX  19094 46738 11357 80607 10246 20218 30003 40057 54000 6990/ 70522 888// 555 83806 88616 88640 00990;
0267467380999992000051921004+24930+121300FM-12+0141RCUK V0200301N00211007501CN0080001N1+02241+01901100841ADDAA199000091AY121031AY221031GA1021+003609089GA2051+007509069GA3081+015009069GF108991081081004501999999MA1999999100301MD1310031+9999MW1101REMSYN100AAXX  19214 46738 31458 80304 10224 20190 30030 40084 53003 71022 888// 555 82812 85625 88650 00000;EQDQ01  00002PRCP99
0283467380999992000052000004+24930+121300FM-12+0141RCUK V0203501N00621005401CN0060001N1+02181+02031101081ADDAA112000791AY161061AY221061GA1031+002109089GA2051+005409069GA3081+012009069GF108991081071002501999999KA1120N+02211MA1999999100541MD1210241+9999MW1611REMSYN122AAXX  20004 46738 11356 83512 10218 20203 30054 40108 52024 69902 76162 887// 333 20221 555 83807 85618 88640 00990 24990;
0254467380999992000052006004+24930+121300FM-12+0141RCUK V0203501N00511006601CN0060001N1+02261+02071101051ADDAA106002091AY161061AY261061GA1031+003609089GA2051+006609069GA3081+015009069GF108991081071004501999999MA1999999100511MD1510101+9999MW1611REMSYN106AAXX  20064 46738 11456 83510 10226 20207 30051 40105 55010 60021 76166 887// 555 83812 85622 88650 00002;
0254467380999992000052009004+24930+121300FM-12+0141RCUK V0203501N00571004801CN0050001N1+02061+01991101081ADDAA100007991AY161031AY261031GA1031+001809089GA2051+004809069GA3081+012009069GF108991081071002501999999MA1999999100541MD1110031+9999MW1621REMSYN106AAXX  20094 46738 11350 83511 10206 20199 30054 40108 51003 6008/ 76266 887// 555 83806 85616 88640 00008;
0182467380999992000052012004+24930+121300FM-12+0141RCUK V0203601N003610060019N0050001N1+02031+01881101151ADDAA112103191AY161061AY261061GF108991081081002501999999MA1999999100611MD1310071+9999MW1611REMSYN082AAXX  20124 46738 11350 83607 10203 20188 30061 40115 53007 61032 76166 888// 333;
0254467380999992000052018004+24930+121300FM-12+0141RCUK V0209999C00001005401CN0070001N1+01901+01851101181ADDAA106002091AY161061AY261061GA1031+002409089GA2051+005409069GA3081+013509069GF108991081081002501999999MA1999999100641MD1410001+9999MW1601REMSYN106AAXX  20184 46738 11357 80000 10190 20185 30064 40118 54000 60021 76066 888// 555 83808 85618 88645 00990;
0255467380999992000052100004+24930+121300FM-12+0141RCUK V0200201N00261012001CN0200001N1+02231+01971101081ADDAA112003091GA1021+003609089GA2031+012009069GA3081+024009049GF108991031081004501011999KA1120N+01881MA1999999100541MD1710101+9999REMSYN116AAXX  21004 46738 11470 80205 10223 20197 30054 40108 57010 60032 8381/ 333 20188 555 82812 83640 88458 00001 24015;
0220467380999992000052103004+24930+121300FM-12+0141RCUK V0200201N00411012001CN0200001N1+02521+01901101081ADDAA199000021GA1021+004809089GA2051+012009069GA3081+024009049GF108991051081004501011999MA1999999100541MD1410001+9999REMSYN094AAXX  21034 46738 32470 80208 10252 20190 30054 40108 54000 8581/ 555 82816 85640 88458 00001;
0249467380999992000052112004+24930+121300FM-12+0141RCUK V0200201N00821007501CN0110001N1+02321+01761100911ADDAA112000391GA1031+003609089GA2051+007509069GA3081+018009069GF108991081061004501999999KA1120M+02581MA1999999100371MD1310071+9999REMSYN110AAXX  21124 46738 11461 80216 10232 20176 30037 40091 53007 69932 886// 333 10258 555 83812 85625 88656 00002;
0239467380999992000052115004+24930+121300FM-12+0141RCUK V0200201N00871007501CN0110001N1+02281+01821100981ADDAA199000091GA1031+003609089GA2051+007509069GA3081+018009069GF108991081061004501999999MA1999999100441MD1110071+9999REMSYN094AAXX  21154 46738 32461 80217 10228 20182 30044 40098 51007 886// 555 83812 85625 88656 00002;EQDQ01  00002PRCP99
0239467380999992000052118004+24930+121300FM-12+0141RCUK V0200201N00511007501CN0110001N1+02291+01811100881ADDAA199000091GA1031+003609089GA2051+007509069GA3081+018009069GF108991081061004501999999MA1999999100341MD1610101+9999REMSYN094AAXX  21184 46738 32461 80210 10229 20181 30034 40088 56010 886// 555 83812 85625 88656 00000;EQDQ01  00002PRCP99
0239467380999992000052121004+24930+121300FM-12+0141RCUK V0200201N00621007501CN0110001N1+02201+01821100881ADDAA199000091GA1031+004509089GA2051+007509069GA3071+024009039GF107991051081004501031001MA1999999100341MD1410001+9999REMSYN094AAXX  21214 46738 32461 70212 10220 20182 30034 40088 54000 85830 555 83815 85625 87358 00000;EQDQ01  00002PRCP99
0260467380999992000052209004+24930+121300FM-12+0141RCUK V0200601N00411003001CN0040001N1+02431+02201101111ADDAA100000391AY161031AY221031GA1031+000909089GA2061+003009069GA3081+012009069GF108991081081001501999999MA1999999100571MD1310031+9999MW1601REMSYN112AAXX  22094 46738 11240 80608 10243 20220 30057 40111 53003 6993/ 76062 888// 555 30220 83803 86610 88640 00993;
0296467380999992000052300004+24930+121300FM-12+0141RCUK V0200201N00311010501CN0110001N1+02431+02031101221ADDAA199000091AY121061AY221061GA1021+003609089GA2041+010509069GA3071+018009069GF107991071081004501001001KA1120N+02281MA1999999100681MD1310041+9999MW1101REMSYN116AAXX  23004 46738 32461 70206 10243 20203 30068 40122 53004 71022 87800 333 20228 555 82812 84635 87656 00000 24993;EQDQ01  00002PRCP99
0239467380999992000052306004+24930+121300FM-12+0141RCUK V0200801N00461007501CN0150001N1+02701+02191101111ADDAA199000091GA1021+003609089GA2041+007509069GA3071+018009069GF107991071081004501001001MA1999999100571MD1810111+9999REMSYN094AAXX  23064 46738 32465 70809 10270 20219 30057 40111 58011 87800 555 82812 84625 87656 00000;EQDQ01  00002PRCP99
0239467380999992000052309004+24930+121300FM-12+0141RCUK V0200601N00101009601CN0150001N1+02661+02131101051ADDAA199000091GA1021+003609089GA2051+009609069GA3071+018009069GF107991071081004501001001MA1999999100511MD1610061+9999REMSYN094AAXX  23094 46738 32465 70602 10266 20213 30051 40105 56006 87800 555 82812 85632 87656 00000;EQDQ01  00002PRCP99
0249467380999992000052312004+24930+121300FM-12+0141RCUK V0203001N002110060019N0110001N1+02461+02121101111ADDAA112000791GA1031+002409089GA2051+006009069GA3081+015009069GF108991081081002501999999KA1120M+02781MA1999999100571MD1310061+9999REMSYN110AAXX  23124 46738 11361 83004 10246 20212 30057 40111 53006 69902 888// 333 10278 555 83808 85620 88650 00990;
0255467380999992000052315004+24930+121300FM-12+0141RCUK V0203201N00101009001CN0110001N1+02461+02171101151ADDAA199000091GA1021+003609089GA2041+009009069GA3081+015009069GF199999081081004501999999MA1999999100611MD1110041+9999REMSYN094AAXX  23154 46738 32461 73202 10246 20217 30061 40115 51004 888// 555 82812 84630 88650 00990;EQDQ01+000072SCOTCVQ02  00002PRCP99
0239467380999992000052318004+24930+121300FM-12+0141RCUK V0203301N00101007501CN0110001N1+02411+02121101081ADDAA199000091GA1021+003609089GA2041+007509069GA3081+013509069GF108991081081004501999999MA1999999100541MD1810071+9999REMSYN094AAXX  23184 46738 32461 83302 10241 20212 30054 40108 58007 888// 555 82812 84625 88645 00000;EQDQ01  00002PRCP99
0262467380999992000062412004+24930+121300FM-12+0141RCUK V0200401N00101075001CN0011001N1+02881+02421100911ADDAA199000091GA1011+004209089GA2031+012009069GA3051+075009009GF105991031081004501001011KA1120M+03141MA1999999100371MD1210101+9999REMSYN104AAXX  24124 46738 32411 50402 10288 20242 30037 40091 52010 83801 333 10314 555 81814 83640 85075 00000;EQDQ01  00002PRCP99
0239467380999992000062415004+24930+121300FM-12+0141RCUK V0203201N00211075001CN0110001N1+02821+02441100981ADDAA199000091GA1011+004509089GA2031+012009069GA3051+075009009GF105991031081004501001011MA1999999100441MD1110071+9999REMSYN094AAXX  24154 46738 32461 53204 10282 20244 30044 40098 51007 83801 555 81815 83640 85075 00000;EQDQ01  00002PRCP99
0211467380999992000062418004+24930+121300FM-12+0141RCUK V0209999C00001075001CN0110001N1+02721+02321999999ADDAA199000091GA1011+004509089GA2051+075009009GF105991011011004501001011MA1999999100371MD1610071+9999REMSYN082AAXX  24184 46738 32461 50000 10272 20232 30037 56007 81101 555 81815 85075 00000;EQDQ01  00002PRCP99
0217467380999992000062421004+24930+121300FM-12+0141RCUK V0209999C000012200019N0110001N1+02581+02361100941ADDAA199000091GA1011+004509089GA2031+075009009GF103991011011004501001011MA1999999100401MD1110031+9999REMSYN088AAXX  24214 46738 32461 30000 10258 20236 30040 40094 51003 81101 555 81815 83075 00000;EQDQ01  00002PRCP99
0224467380999992000062500004+24930+121300FM-12+0141RCUK V0209999C000012200019N0110001N1+02991+02361101051ADDAA199000091GA1021+004509089GF102991021021004501001001KA1120N+02581MA1999999100511MD1110111+9999REMSYN098AAXX  25004 46738 32461 20000 10299 20236 30051 40105 51011 82200 333 20258 555 82815 00000 24000;EQDQ01  00002PRCP99
0195467380999992000062503004+24930+121300FM-12+0141RCUK V0201601N003112200019N0160001N1+03161+02571101051ADDAA199000091GA1021+004509089GF102991021021004501001001MA1999999100511MD1010001+9999REMSYN082AAXX  25034 46738 32466 21606 10316 20257 30051 40105 50000 82200 555 82815 00000;EQDQ01  00002PRCP99
0202467380999992000062518004+24930+121300FM-12+0141RCUK V0203301N001519999999N0160001N1+02611+02331101081ADDAA199000091GA1021+004509089GF105991021011999999001011MA1999999100541MD1410001+9999REMSYN089AAXX  25184 46738 32/66 53303 10261 20233 30054 40108 54000 82101 555 82815 85075. 00000;EQDQ01  00002PRCP99
0217467380999992000062521004+24930+121300FM-12+0141RCUK V0203101N00151075001CN0160001N1+02631+02321101081ADDAA199000091GA1021+004509089GA2051+075009009GF105991021011004501001011MA1999999100541MD1410001+9999REMSYN088AAXX  25214 46738 32466 53103 10263 20232 30054 40108 54000 82101 555 82815 85075 00000;EQDQ01  00002PRCP99
0247467380999992000062600004+24930+121300FM-12+0141RCUK V0202101N000512200019N0200001N1+02991+02491101151ADDAA199000091GA1011+004509089GA2031+090009009GF103991011011004501001011KA1120N+02601MA1999999100611MD1310071+9999REMSYN105AAXX  26004 46738 32470 32101 10299 20249 30061 40115 53007 81101 333 20260 555 81815 83080 00000. 2<000;EQDQ01  00002PRCP99
0217467380999992000062603004+24930+121300FM-12+0141RCUK V0201701N00461090001CN0200001N1+03261+02641101111ADDAA199000091GA1021+004809089GA2051+090009009GF105991021011004501001011MA1999999100571MD1810041+9999REMSYN088AAXX  26034 46738 32470 51709 10326 20264 30057 40111 58004 82101 555 82816 85080 00000;EQDQ01  00002PRCP99
0217467380999992000062609004+24930+121300FM-12+0141RCUK V0202001N00361090001CN0200001N1+03201+02531100941ADDAA199000091GA1011+003609089GA2051+090009009GF105991021011004501001011MA1999999100401MD1510041+9999REMSYN088AAXX  26094 46738 32470 52007 10320 20253 30040 40094 55004 82101 555 81812 85080 00000;EQDQ01  00002PRCP99
0220467380999992000062618004+24930+121300FM-12+0141RCUK V0202901N001512200019N0110001N1+02821+02361101081ADDAA199000091GA1011+004509089GA2031+075009009GF103991011011004501001011MA1999999100541MD1610101+9999REMSYN091AAXX  26184 46738 32461 32903 10282 20236 30054 40108 56010 81101 555 81815 83075 00000 /O;EQDQ01  00002PRCP99
0246467380999992000062700004+24930+121300FM-12+0141RCUK V0203201N00051075001CN0150001N1+02981+02461101111ADDAA199000091GA1011+004509089GA2071+075009009GF107991011011004501001011KA1120N+02711MA1999999100571MD1810061+9999REMSYN104AAXX  27004 46738 32465 73201 10298 20246 30057 40111 58006 81101 333 20271 555 81815 87075 00000 24000;EQDQ01  00002PRCP99
0202467380999992000062703004+24930+121300FM-12+0141RCUK V0201901N00261075001CN0200001N1+03141+02621101111ADDAA199000091GA1061+075009009GF106991011011004501001011MA1999999100571MD1410001+9999REMSYN089AAXX  27034 46738 32470 61905 10314 20262 30057 40111 54000 81101 555 81815. 86075 00000;EQDQ01  00002PRCP99
0217467380999992000062706004+24930+121300FM-12+0141RCUK V0201601N00311075001CN0200001N1+03201+02621101051ADDAA199000091GA1021+004509089GA2051+075009009GF105991021011004501001011MA1999999100511MD1610061+9999REMSYN088AAXX  27064 46738 32470 51606 10320 20262 30051 40105 56006 82101 555 82815 85075 00000;EQDQ01  00002PRCP99
0240467380999992000062712004+24930+121300FM-12+0141RCUK V0202501N00101075001CN0150001N1+02861+02451100981ADDAA199000091GA1011+003909089GA2051+075009009GF105991011011004501001011KA1120M+03251MA1999999100441MD1310041+9999REMSYN098AAXX  27124 46738 32465 52502 10286 20245 30044 40098 53004 81101 333 10325 555 81813 85075 00000;EQDQ01  00002PRCP99
0202467380999992000062715004+24930+121300FM-12+0141RCUK V0209999C00001075001CN0150001N1+02771+02421101011ADDAA199000091GA1051+075009009GF105991011011004501001011MA1999999100471MD1310031+9999REMSYN089AAXX  27154 46738 32465 50000 10277 20242 30047 40101 53003 81101 555 MIQIQE 85075 00000;EQDQ01  00002PRCP99
0173467380999992000062718004+24930+121300FM-12+0141RCUK V0203101N001512200019N9999999N1+02731+02401100941ADDAA199000091GF105991011011004501001011MA1999999100401MD1610071+9999REMSYN076AAXX  27184 46738 324/5 53103 10273 20240 30040 40094 56007 81101 555 81815;EQDQ01  00002PRCP99
0246467380999992000062800004+24930+121300FM-12+0141RCUK V0201901N00261075001CN0200001N1+02881+02311100981ADDAA199000091GA1011+004509089GA2061+075009009GF106991011011004501001011KA1120N+02681MA1999999100441MD1210041+9999REMSYN104AAXX  28004 46738 32470 61905 10288 20231 30044 40098 52004 81101 333 20268 555 81815 86075 00000 24000;EQDQ01  00002PRCP99
0217467380999992000062806004+24930+121300FM-12+0141RCUK V0201701N00411075001CN0200001N1+03221+02351100811ADDAA199000091GA1011+004509089GA2061+075009009GF106991011011004501001011MA1999999100271MD1610131+9999REMSYN088AAXX  28064 46738 32470 61708 10322 20235 30027 40081 56013 81101 555 81815 86075 00000;EQDQ01  00002PRCP99
0220467380999992000062815004+24930+121300FM-12+0141RCUK V0209999C00001075001CN0110001N1+02861+02381100881ADDAA199000091GA1011+004509089GA2051+075009009GF105991011011004501001011MA1999999100341MD1110101+9999REMSYN091AAXX  28154 46738 32461 50000 10286 20238 30034 40088 51010 81101 555 81815 85075 00000 /9;EQDQ01  00002PRCP99
0202467380999992000062818004+24930+121300FM-12+0141RCUK V0203401N001019999999N0110001N1+02831+02341100741ADDAA199000091GA1011+004509089GF105991011011999999001011MA1999999100201MD1110141+9999REMSYN089AAXX  28184 46738 32/61 53402 10283 20234 30020 40074 51014 81101 555 81815 /85075 00000;EQDQ01  00002PRCP99
0208467380999992000062900004+24930+121300FM-12+0141RCUK V0202101N000512200019N0160001N1+02881+02341100781ADDAA199000091GA1011+004509089GF106991011011004501001011MA1999999100241MD1210071+9999REMSYN095AAXX  29004 46738 32466 62101 10288 20234 30024 40078 52007 81101 555 81815 IYPUTM 00000 24000;EQDQ01  00002PRCP99
0203467380999992000062903004+24930+121300FM-12+0141RCUK V0201701N004112200019N0200001N1+03111+99999100781ADDAA199000091GA1021+003909089GA2011+075009009GF106991021011004501001011MA1999999100241REMSYN088AAXX  29034 46738 32470 61708 10311 2052/ 30024 40078 5/000 82101 555 82813 81075 00000;EQDQ01  00002PRCP99
0217467380999992000063006004+24930+121300FM-12+0141RCUK V02099999999992200019N0200001N1+03281+02641100811ADDAA199000091GA1011+002409089GA2031+003609069GF103991031011004501001001MA1999999100271MD1810031+9999REMSYN088AAXX  30064 46738 32470 31/01 10328 20264 30027 40081 58003 83100 555 81808 83612 00000;EQDQ01  00002PRCP99
0229467380999992000070103004+24930+121300FM-12+0141RCUK V0209999C000010360019N0070001N1+02851+02481100981ADDAA100000791AY191031AY221031GA1021+001509089GF106991041031001501031001MA1999999100441MD1310041+9999MW1601REMSYN113AAXX  01034 46738 11257 60000 10285 20248 30044 40098 53004 6990/ 76092 84330 555 82805 81910. 83625 86358 00990;
0176467380999992000070109004+24930+121300FM-12+0141RCUK V0201901N001512200019N0600001N1+02981+02521100741ADDAA199000021GA1011+007509089GF101991011011008001001001MA1999999100291MD1710201+9999REMSYN082AAXX  01094 46738 32586 11903 10298 20252 30029 40074 57020 81100 555 81825 00000;
0293467380999992000070112004+24930+121300FM-12+0141RCUK V0202501N00261001501CN0040001N1+02721+02371100881ADDAA112000891AY161061AY221061GA1031+000909089GA2031+001509099GA3051+004509069GA4081+012009069GF108991999999001501999999KA1120M+03191MA1999999100341MD1310071+9999MW1951REMSYN116AAXX  01124 46738 11240 82505 10272 20237 30034 40088 53007 69982 79562 333 10319 555 83803 83905 85615 88640 00998;
0217467380999992000070203004+24930+121300FM-12+0141RCUK V0201001N003612200019N0200001N1+03211+02581100881ADDAA199000091GA1021+003609089GA2031+075009009GF103991021011999999001011MA1999999100341MD1110041+9999REMSYN088AAXX  02034 46738 32/70 31007 10321 20258 30034 40088 51004 82101 555 82812 83075 00000;EQDQ01  00002PRCP99
0218467380999992000070212004+24930+121300FM-12+0141RCUK V0203201N001012200019N0100001N1+02801+02381100711ADDAA199000091GA1021+003009089GF102991021011004501001001KA1120M+03291MA1999999100171MD1210071+9999REMSYN092AAXX  02124 46738 32460 23202 10280 20238 30017 40071 52007 82100 333 10329 555 82810 00000;EQDQ01  00002PRCP99
0195467380999992000070215004+24930+121300FM-12+0141RCUK V02099999999992200019N0010001N1+02651+02321100701ADDAA199000091GA1011+003609089GF102991021021004501001001MA1999999100201MD1810031+9999REMSYN082AAXX  02154 46738 32410 2/502 10265 20232 30020 4007/ 58003 82200 555 81812 00000;EQDQ01  00002PRCP99
0195467380999992000070218004+24930+121300FM-12+0141RCUK V0203301N001512200019N0100001N1+02601+02301100641ADDAA199000091GA1011+003609089GF102991021021004501001001MA1999999100101MD1710101+9999REMSYN082AAXX  02184 46738 32460 23303 10260 20230 30010 40064 57010 82200 555 81812 00000;EQDQ01  00002PRCP99
0220467380999992000070306004+24930+121300FM-12+0141RCUK V0200701N005712200019N0200001N1+03201+02581100401ADDAA199000091GA1021+003009089GA2031+003909069GF103991031081004501001051MA1999999099861MD1710141+9999REMSYN091AAXX  03064 46738 32470 30711 10320 20258 39986 40040 57014 83805 555 82810 83613 00000 /9;EQDQ01  00002PRCP99
0246467380999992000070400004+24930+121300FM-12+0141RCUK V0200301N00411012001CN0150001N1+02961+02371100231ADDAA199000091GA1021+003009089GA2051+012009069GF105991051041004501001001KA1120N+02751MA1999999099691MD1310061+9999REMSYN104AAXX  04004 46738 32465 50308 10296 20237 39969 40023 53006 85400 333 20275 555 82810 85640 00000 24000;EQDQ01  00002PRCP99
0202467380999992000070403004+24930+121300FM-12+0141RCUK V0200701N00411015001CN0150001N1+03121+02461100201ADDAA199000091GA1051+015009069GF105991051041004501001001MA1999999099661MD1810031+9999REMSYN089AAXX  04034 46738 32465 50708 10312 20246 39966 40020 58003 85400 555 828109 85650 00000;EQDQ01  00002PRCP99
0239467380999992000070406004+24930+121300FM-12+0141RCUK V0200801N00311009001CN0150001N1+03181+02481100131ADDAA199000091GA1021+003009099GA2031+009009069GA3051+075009009GF105991031041004501001011MA1999999099591MD1810071+9999REMSYN094AAXX  04064 46738 32465 50806 10318 20248 39959 40013 58007 83401 555 82910 83630 85075 00000;EQDQ01  00002PRCP99
0293467380999992000070412004+24930+121300FM-12+0141RCUK V0203501N00261004501CN0080001N1+02871+99999100271ADDAA199000091AY121061AY221061GA1021+001509089GA2021+003609099GA3041+004509089GA4071+018009069GF107991071091001501001001MA1999999099731MD1310141+9999MW1151REMSYN110AAXX  04124 46738 31258 73505 10287 202/5 39973 40027 53014 71522 87900 333 555 82805 82912 84815 87656 00000;EQDQ01  00002PRCP99
0237467380999992000070415004+24930+121300FM-12+0141RCUK V0203401N00461004201CN0080001N1+02571+02361100301ADDAA100015091AY181031AY261031GA1031+001509089GA2051+004209069GF108991081071001501999999MA1999999099761MD1810031+9999MW1601REMSYN105AAXX  04154 46738 11258 83409 10257 20236 39976 40030 58003 6015/ 76086 887// 555 83805 85614 8645 00015;
0283467380999992000070500004+24930+121300FM-12+0141RCUK V0203601N002610090019N0080001N1+02541+02441100171ADDAA112016091AY161061AY221061GA1021+003609089GA2051+009009069GA3081+018009069GF108991071081004501001001KA1120N+02561MA1999999099631MD1810061+9999MW1601REMSYN122AAXX  05004 46738 11458 83605 10254 20244 39963 40017 58006 60162 76062 87800 333 20256 555 82812 85630 88656 00993 24016;
0254467380999992000070503004+24930+121300FM-12+0141RCUK V0200301N003110090019N0045001N1+02781+02621100201ADDAA100000791AY161031AY221031GA1021+003009089GA2051+009009069GA3081+015009069GF108991081081004501001001MA1999999099601MD1310031+9999MW1601REMSYN106AAXX  05034 46738 11445 80306 10278 20262 3996/ 40020 53003 6990/ 76062 88800 555 82810 85630 88650 00993;
0254467380999992000070506004+24930+121300FM-12+0141RCUK V0200301N00211004801CN0050001N1+02581+02521100201ADDAA106007991AY181061AY261061GA1021+002409079GA2051+004809069GA3081+012009069GF108991081071002501999999MA1999999099661MD1410001+9999MW1601REMSYN106AAXX  05064 46738 11350 80304 10258 20252 39966 40020 54000 60081 76086 887// 555 82708 85616 88640 00008;
0269467380999992000070512004+24930+121300FM-12+0141RCUK V0200201N00571003601CN0030001N1+02391+02361100171ADDAA112038191AY181061AY261061GA1031+000909079GA2061+003609069GA3081+009009069GF108991081071001501999999KA1120M+02811MA1999999099631MW1611REMSYN122AAXX  05124 46738 11230 80211 10239 20236 39963 40017 5/000 60382 76186 887// 333 10281 555 30122 83703 86612 88630 00038;
0260467380999992000070515004+24930+121300FM-12+0141RCUK V0200101N00511004801CN0050001N1+02401+02361100201ADDAA100004191AY181031AY261031GA1031+001509079GA2061+004809069GA3081+009009069GF108991081071001501999999MA1999999099661MD1310031+9999MW1611REMSYN112AAXX  05154 46738 11250 80110 10240 20236 39966 40020 53003 6004/ 76186 887// 555 31122 83705 86616 88630 00042;
0249467380999992000070518004+24930+121300FM-12+0141RCUK V0200301N00361004801CN0050001N1+02531+02431100201ADDAA106004191AY161061AY261061GA1031+001509079GA2061+004809069GA3081+009009069GF108991081071001501999999MA1999999099661MW1611REMSYN115AAXX  05184 46738 11250 80307 10253 20243 39966 40020 5/000 60041 76166 887// 555 30122 83705 86616 88630 00990 /O;
0246467380999992000070521004+24930+121300FM-12+0141RCUK V0200301N00311009001CN0050001N1+02631+02431100201ADDAA100004191AY161031AY261031GA1031+001509079GA2999+004809069GA3081+009009069GF108991081071001501999999MA1999999099661MW1611REMSYN112AAXX  05214 46738 11250 80306 10263 20243 39966 40020 5/000 6004/ 76166 887// 555 30122 83705 8/616 88630 00990;
0227467380999992000070606004+24930+121300FM-12+0141RCUK V0200601N007710021019N0080001N1+03031+02561100131ADDAA106000791AY111061AY261061GA1031+002409089GF107991071071002501999999MA1999999099591MD1810071+9999MW1151REMSYN111AAXX  06064 46738 11358 70615 10303 20256 39959 40013 58007 69901 71516 877// 555 30625 83808 856T 87658 00993;
0304467380999992000070700004+24930+121300FM-12+0141RCUK V0203301N00311004801CN0060001N1+02571+02371100171ADDAA112999999AY181061AY261061GA1021+001809089GA2051+004809069GA3081+012009069GF108991081071002501999999KA1120N+02401MA1999999099631MW1601REMSYN122AAXX  07004 46738 11356 83306 10257 20237 39963 40017 51000 603/2 76086 887// 333 20240 555 82806 85616 88640 00035 24994;EQDQ01+000012APCTENQ02+000002APC3  
0235467380999992000070706004+24930+121300FM-12+0141RCUK V0200501N00571004501CN0060001N1+02561+02391100131ADDAA106026991AY181061AY261061GA1031+000609089GA2051+004509089GA3081+013509069GF108991081071000751999999MD1610071+9999MW1601REMSYN102AAXX  07064 46738 11156 80511 10256 20239 40013 56007 60271 76086 887// 555 M 83802 85815 88645 00062;
0254467380999992000070715004+24930+121300FM-12+0141RCUK V0203601N00261006001CN0070001N1+02421+02321100131ADDAA100006191AY181031AY261031GA1031+001809089GA2051+006009069GA3081+015009069GF108991081071002501999999MA1999999099591MD1110031+9999MW1811REMSYN106AAXX  07154 46738 11357 83605 10242 20232 39959 40013 51003 6006/ 78186 887// 555 83806 85620 88650 00666;
0224467380999992000070721004+24930+121300FM-12+0141RCUK V0203601N00511006601CN0120001N1+02461+02261100001ADDAA100007191AY121031AY221031GA1051+006609069GA2081+015009069GF108991081071001501999999MD1810061+9999MW1021REMSYN107AAXX  07214 46738 11262 83610 10246 20226 399/6 40000 58006 6007/ 70222 887// 555 83805. 85622 88650 00990;
0254467380999992000070803004+24930+121300FM-12+0141RCUK V0209999999999009001CN0150001N1+02901+02481099961ADDAA199000021AY121031AY221031GA1021+003009089GA2051+009009069GA3071+018009069GF107991071041004501999999MA1999999099421MD1810041+9999MW1021REMSYN106AAXX  08034 46738 32465 7011/ 10290 20248 39942 49996 58004 70222 874// 555 30124 82810 85630 87656 00990;
0238467380999992000070812004+24930+121300FM-12+0141RCUK V0200101N005110012019N0050001N1+02351+02301099831ADDAA112032091AY161061GA1031+000909089GF108991081071001501999999KA1120M+02911MA1999999099291MD1510001+9999MW1611REMSYN117AAXX  08124 46738 11250 80110 10235 20230 39929 49983 55000 60322 7616/ 887// 333 10291 555 83803 86812. 88630 00049;
0260467380999992000070818004+24930+121300FM-12+0141RCUK V0203601N00571003001CN0035001N1+02361+02351099451ADDAA106032091AY181061AY261061GA1041+000909079GA2061+003009089GA3081+009009069GF108991081071001501999999MA1999999098911MD1710381+9999MW1621REMSYN112AAXX  08184 46738 11235 83611 10236 20235 39891 49945 57038 60321 76286 887// 555 30224 84703 86810 88630 00022;
0260467380999992000070821004+24930+121300FM-12+0141RCUK V0203601N00571003601CN0032001N1+02341+02331099151ADDAA100069191AY181031AY261031GA1041+000909079GA2061+003609089GA3081+009009069GF108991081071001501999999MA1999999098611MD1810301+9999MW1621REMSYN112AAXX  08214 46738 11232 83611 10234 20233 39861 49915 58030 6069/ 76286 887// 555 33627 84703 86812 88630 00058;
0260467380999992000070909004+24930+121300FM-12+0141RCUK V0201901N00361007501CN0150001N1+02871+02611099181ADDAA100000791AY161031AY221031GA1031+003009089GA2051+007509069GA3081+018009069GF108991081041004501999999MA1999999098641MD1310031+9999MW1021REMSYN112AAXX  09094 46738 11465 81907 10287 20261 39864 49918 53003 6990/ 70262 884// 555 32031 83810 85625 88656 00107;
0239467380999992000070921004+24930+121300FM-12+0141RCUK V0203501N00151009001CN0150001N1+02491+02291100061ADDAA199000091GA1021+003609089GA2031+009009069GA3061+021009039GF106991031081004501031001MA1999999099521MD1210231+9999REMSYN094AAXX  09214 46738 32465 63503 10249 20229 39952 40006 52023 83830 555 82812 83630 86357 00000;EQDQ01  00002PRCP99
0268467380999992000071000004+24930+121300FM-12+0141RCUK V0200501N002610360019N0150001N1+02781+02371999999ADDAA199000091GA1011+003609089GA2031+010509069GA3051+036009039GF105991031051004501031001KA1120N+02491MA1999999099861MD1210341+9999REMSYN110AAXX  10004 46738 32465 50505 10278 20237 39986 400/0 52034 83530 333 20249 555 81812 83635 85362 00000 24121;EQDQ01  00002PRCP99
0239467380999992000071003004+24930+121300FM-12+0141RCUK V0201801N00461030001CN0120001N1+03081+02571100611ADDAA199000091GA1011+003609089GA2031+009009069GA3061+030009039GF106991031051004501051001MA1999999100071MD1210211+9999REMSYN094AAXX  10034 46738 32462 61809 10308 20257 30007 40061 52021 83550 555 81812 83630 86360 00000;EQDQ01  00002PRCP99
0262467380999992000071009004+24930+121300FM-12+0141RCUK V0202101N00311060001CN0150001N1+02901+02501100611ADDAA199000091GA1021+003009089GA2011+003609099GA3031+007509069GA4061+060009009GF106991031051004501001011MA1999999100071MD1410001+9999REMSYN101AAXX  10094 46738 32465 62106 10290 20250 30007 40061 54004 83501 555 .82810 81912 83625 86070 00000;EQDQ01  00002PRCP99
0257467380999992000071012004+24930+121300FM-12+0141RCUK V0209999C00001024001CN0150001N1+02821+02631100811ADDAA199000091GA1011+003609089GA2071+024009039GF107991021081999999999011KA1120M+03131MA1999999100271MD1210201+9999REMSYN099AAXX  10124 46738 32/65 70000 10282 20263 30027 40081 52020 82801 333 10313 555 .81812 87358 00000;EQDQ01+000002SCOMCGQ02  00002PRCP99
0254467380999992000071018004+24930+121300FM-12+0141RCUK V0200101N00101007501CN0080001N1+02611+02461101011ADDAA106003091AY181061AY221061GA1031+003609079GA2051+007509069GA3081+018009069GF108991051999004501041999MA1999999100471MD1010071+9999MW1601REMSYN106AAXX  10184 46738 11458 80102 10261 20246 30047 40101 50007 60031 76082 85/4/ 555 83712 85625 88656 00990;
0232467380999992000071021004+24930+121300FM-12+0141RCUK V0203401N00151007501CN0080001N1+02571+02421101051ADDAA100000791AY121031AY221031GA1031+003609079GA2051+007509069GF105991051071004501001001MA1999999100511MD1410001+9999MW1021REMSYN100AAXX  10214 46738 11458 53403 10257 20242 30051 40105 54004 6990/ 70222 85700 555 83712 85625 00990;
0235467380999992000071100004+24930+121300FM-12+0141RCUK V0203201N00101008401CN0150001N1+02831+02461101151ADDAA112004191GA1031+003009089GA2051+008409069GF105991051081004501001001KA1120N+02551MA1999999100611MD1110101+9999REMSYN112AAXX  11004 46738 12465 53202 10283 20246 30061 40115 51010 60042 85800 333 20255 555 M 83810 85628 00004 24000;
0192467380999992000071103004+24930+121300FM-12+0141RCUK V0202001N002612200019N0200001N1+03211+02321999999ADDAA199000021GA1021+003609089GA2031+021009039GF103991021011004501031001MA1999999100641MD1110031+9999REMSYN082AAXX  11034 46738 32470 32005 10321 20232 30064 51003 82130 555 82812 83357 00004;
0176467380999992000071106004+24930+121300FM-12+0141RCUK V0201701N003112200019N0200001N1+03311+02561101111ADDAA199000021GA1021+004209089GF102991021011004501001001MA1999999100571MD1610071+9999REMSYN082AAXX  11064 46738 32470 21706 10331 20256 30057 40111 56007 82100 555 82814 00004;
0195467380999992000071109004+24930+121300FM-12+0141RCUK V0201701N002612200019N0200001N1+03111+02541101081ADDAA199000091GA1021+004209089GF102991021011004501001001MA1999999100541MD1610031+9999REMSYN082AAXX  11094 46738 32470 21705 10311 20254 30054 40108 56003 82100 555 82814 00004;EQDQ01  00002PRCP99
0195467380999992000071118004+24930+121300FM-12+0141RCUK V0203301N001512200019N0110001N1+02731+02361101151ADDAA199000091GA1011+003609089GF101991011011004501001001MA1999999100611MD1710101+9999REMSYN082AAXX  11184 46738 32461 13303 10273 20236 30061 40115 57010 81100 555 81812 00000;EQDQ01  00002PRCP99
0191467380999992000071121004+24930+121300FM-12+0141RCUK V0203301N020619999999N0150001N1+02641+02301101151ADDAA199000091GA1011+004209089GA2031+018009069MA1999999100611MD1410001+9999REMSYN088AAXX  11214 46738 32465 /3340 10264 20230 30061 40115 54000 83800 555 81814 83656 00000;EQDQ01  00002PRCP99
0233467380999992000071200004+24930+121300FM-12+0141RCUK V0200201N00311075001CN0200001N1+02831+02421101181ADDAA112000391GA1011+004209089GA2051+075009009GF105991011011004501001011KA1120N+02611MA1999999100641MD1110031+9999REMSYN110AAXX  12004 46738 11470 50206 10283 20242 30064 40118 51003 69932 81101 333 20261 555 81814 85075 00993 24004;
0211467380999992000071203004+24930+121300FM-12+0141RCUK V0200901N00411075001CN0200001N1+03091+02441999999ADDAA199000091GA1011+004209089GA2051+075009009GF105991011011004501001011MA1999999100611MD1810031+9999REMSYN082AAXX  12034 46738 32470 50908 10309 20244 30061 58003 81101 555 81814 85075 00993;EQDQ01  00002PRCP99
0240467380999992000071212004+24930+121300FM-12+0141RCUK V0203601N001512200019N0150001N1+02801+02361100981ADDAA199000091GA1011+003609089GA2031+075009009GF103991011011004501001011KA1120M+03181MA1999999100441MD1310041+9999REMSYN098AAXX  12124 46738 32465 33603 10280 20236 30044 40098 53004 81101 333 10318 555 81812 83075 00993;EQDQ01  00002PRCP99
0195467380999992000071215004+24930+121300FM-12+0141RCUK V0203401N001012200019N9999999N1+02731+02271100741ADDAA199000091GA1011+003609089GF101991011011004501001001MA1999999100201MD1010241+9999REMSYN082AAXX  12154 46738 324/2 13402 10273 20227 30020 40074 50024 81100 555 81812 00993;EQDQ01  00002PRCP99
0211467380999992000071221004+24930+121300FM-12+0141RCUK V0203201N002612200019N0120001N1+02571+02251999999ADDAA199000091GA1011+003609089GA2031+075009009GF103991011011004501001011MA1999999100341MD1010061+9999REMSYN082AAXX  12214 46738 32462 33205 10257 20225 30034 50006 81101 555 81812 83075 00000;EQDQ01  00002PRCP99
0222467380999992000071300004+24930+121300FM-12+0141RCUK V0203301N00051075001CN0200001N1+02851+02381100911ADDAA199000091GA1011+004509089GA2061+075009009GF106991011011004501001011MA1999999100371MD1610031+9999REMSYN093AAXX  13004 46738 32470 63301 10285 20238 30037 40091 56003 81101 555 81815 86075 PPPP 24993;EQDQ01  00002PRCP99
0217467380999992000071306004+24930+121300FM-12+0141RCUK V0201001N00261060001CN0200001N1+03141+02561100811ADDAA199000091GA1021+004509089GA2061+060009009GF106991021011004501001011MA1999999100271MD1810101+9999REMSYN088AAXX  13064 46738 32470 61005 10314 20256 30027 40081 58010 82101 555 82815 86070 00000;EQDQ01  00002PRCP99
0217467380999992000071309004+24930+121300FM-12+0141RCUK V0200901N003612200019N0200001N1+03071+02521100781ADDAA199000091GA1011+003609089GA2011+075009009GF106991011011004501001011MA1999999100241MD1610031+9999REMSYN088AAXX  13094 46738 32470 60907 10307 20252 30024 40078 56003 81101 555 81812 81075 00000;EQDQ01  00002PRCP99
0240467380999992000071312004+24930+121300FM-12+0141RCUK V0200301N00261075001CN0150001N1+02861+99999100881ADDAA199000091GA1011+003609089GA2071+075009009GF107991011011004501001011KA1120M+03171MA1999999100341MD1310101+9999REMSYN098AAXX  13124 46738 32465 70305 10286 202/3 30034 40088 53010 81101 333 10317 555 81812 87075 00000;EQDQ01  00002PRCP99
0217467380999992000071315004+24930+121300FM-12+0141RCUK V0203201N00101075001CN0150001N1+02841+02401100941ADDAA199000091GA1011+003609089GA2071+075009009GF107991011011004501001011MA1999999100401MD1110061+9999REMSYN088AAXX  13154 46738 32465 73202 10284 20240 30040 40094 51006 81101 555 81812 87075 00000;EQDQ01  00002PRCP99
0235467380999992000071318004+24930+121300FM-12+0141RCUK V0203301N00101075001CN0150001N1+02661+02291100711ADDAA199000091GA1011+003609089GA2071+075009009GF107991011011004501001011MA1999999100171MD1710231+9999REMSYN090AAXX  13184 46738 32465 73302 10266 20229 30017 40071 57070 81101 555 . 81812 87075 00000;EQDQ01+000702APC3  Q02  00002PRCP99
0239467380999992000071406004+24930+121300FM-12+0141RCUK V0200701N00571075001CN0120001N1+03181+02611100671ADDAA199000091GA1011+003609089GA2031+010509069GA3051+075009009GF105991031011004501001011MA1999999100131MD1710141+9999REMSYN094AAXX  14064 46738 32462 50711 10318 20261 30013 40067 57014 83101 555 81812 83635 85075 00000;EQDQ01  00002PRCP99
0239467380999992000071409004+24930+121300FM-12+0141RCUK V0200301N00411009601CN0120001N1+03121+02481100641ADDAA199000091GA1011+003609089GA2051+009609069GA3061+060009009GF106991051041999999001011MA1999999100101MD1810031+9999REMSYN094AAXX  14094 46738 32/62 60308 10312 20248 30010 40064 58003 85401 555 81812 85632 86070 00000;EQDQ01  00002PRCP99
0254467380999992000071418004+24930+121300FM-12+0141RCUK V0203601N00511006001CN0090001N1+02471+02361100711ADDAA106011991AY181061AY261061GA1021+003009089GA2051+006009069GA3081+015009069GF108991081071004501999999MA1999999100171MD1810031+9999MW1601REMSYN106AAXX  14184 46738 11459 83610 10247 20236 30017 40071 58003 60121 76086 887// 555 82810 85620 88650 00002;
0273467380999992000071421004+24930+121300FM-12+0141RCUK V0203601N00571006601CN0090001N1+02471+02361100671ADDAA100016091AY181031AY261031GA1021+003009089GA2051+006609069GA3071+015009069GF107991999071004501999999MA1999999100131MD1810041+9999MW1601REMSYN106AAXX  14214 46738 11459 73611 10247 20236 30013 40067 58004 6016/ 76086 887// 555 82810 85622 87650 00006;EQDQ01+000082SCOTLC
0305467380999992000071500004+24930+121300FM-12+0141RCUK V0200301N00261004801CN0050001N1+02471+02381100741ADDAA112026991AY181061AY261061GA1011+001509099GA2031+001509089GA3051+004809069GA4071+012009069GF107991071071001501999999KA1120N+02361MA1999999100201MD1310071+9999MW1951REMSYN128AAXX  15004 46738 11250 70305 10247 20238 30020 40074 53007 60272 79586 877// 333 20236 555 83805 81905 85616 87640 00017 24010;
0226467380999992000071503004+24930+121300FM-12+0141RCUK V0200301N00261009001CN0180001N1+03081+02631100711ADDAA100000791GA1021+003609089GA2031+009009069GA3051+024009069GF105991011021004501031001MA1999999100171MD1810031+9999REMSYN100AAXX  15034 46738 11468 50305 10308 20263 30017 40071 58003 6990/ 81230 555 82812 83630 85658 00017;
0232467380999992000071515004+24930+121300FM-12+0141RCUK V0203601N00311007501CN0150001N1+02661+02321100811ADDAA100000391GA1021+003609089GA2031+007509069GA3061+024009039GF106991999999004501999999MA1999999100271MD1210071+9999MW1161REMSYN100AAXX  15154 46738 11465 63606 10266 20232 30027 40081 52007 6993/ 716// 555 82812 83625 86358 00018;
0254467380999992000071606004+24930+121300FM-12+0141RCUK V0203301N00211004801CN0060001N1+02491+02421100671ADDAA106039991AY161061AY261061GA1031+001509079GA2061+004809069GA3081+012009069GF108991081071001501999999MA1999999100131MD1810041+9999MW1611REMSYN106AAXX  16064 46738 11256 83304 10249 20242 30013 40067 58004 60401 76166 887// 555 83705 86616 88640 00055;
0237467380999992000071621004+24930+121300FM-12+0141RCUK V0203401N00051004201CN0050001N1+02461+02401100811ADDAA100021191AY181031AY261031GA1051+004209069GA2081+013509069GF108991081071001501999999MA1999999100271MD1410001+9999MW1601REMSYN105AAXX  16214 46738 11250 83401 10246 20240 30027 40081 54000 6021/ 76086 887// 555 8IPT 85614 88645 00019;
0283467380999992000071700004+24930+121300FM-12+0141RCUK V0202201N00051003001CN0030001N1+99999+99999100941ADDAA112045091AY181061AY261061GA1041+000609089GA2061+003009089GA3081+010509069GF108991081071000751999999KA1120N+02401MA1999999100401MD1210131+9999MW1801REMSYN122AAXX  17004 46738 11130 82201 102/3 20237 30040 40094 52013 60452 78086 887// 333 20240 555 84802 86810 88635 00043 24058;
0233467380999992000071706004+24930+121300FM-12+0141RCUK V0203301N00051003601CN0030001N1+02501+02381100911ADDAA106020191AY161061AY261061GA1021+000609089GA2061+003609069GA3081+012009069GF108991999999000751999999MD1610101+9999MW1641REMSYN100AAXX  17064 46738 11130 83301 10250 20238 300/7 40091 56010 60201 76466 555 82802 86612 88640 00058;
0238467380999992000071709004+24930+121300FM-12+0141RCUK V0203301N00051005401CN9999999N1+02601+02421100841ADDAA100021191GA1031+000909089GA2051+005409069GA3081+018009049GF108991081071001501999999MA1999999100301MD1510071+9999MW1601REMSYN106AAXX  17094 46738 1125/ 83301 10260 20242 30030 40084 55007 6021/ 760/6 887// 555 83803 85618 88456 00059;
0277467380999992000071712004+24930+121300FM-12+0141RCUK V0202901N00151007501CN0110001N1+02471+02271100841ADDAA112023191AY161061AY221061GA1021+001509089GA2051+007509069GA3081+018009069GF108991081081001501999999KA1120M+02601MA1999999100301MD1410001+9999MW1021REMSYN116AAXX  17124 46738 11261 82903 10247 20227 30030 40084 54000 60232 70262 888// 333 10260 555 82805 85625 88656 00061;
0254467380999992000071715004+24930+121300FM-12+0141RCUK V0209999C00001005401CN0070001N1+02441+02321100881ADDAA100000791AY161031AY221031GA1021+001509089GA2051+005409069GA3081+015009069GF108991081081001501999999MA1999999100341MD1310041+9999MW1601REMSYN106AAXX  17154 46738 11257 80000 10244 20232 30034 40088 53004 6990/ 76062 888// 555 82805 85618 88650 00061;
0247467380999992000071721004+24930+121300FM-12+0141RCUK V0203201N99999005401CN0070001N1+02401+02301100881ADDAA100000791AY161031AY261031GA1021+001509089GA2051+005409069GA3081+015009069MA1999999100341MD1410001+9999MW1601REMSYN106AAXX  17214 46738 11257 /8203 10240 20230 30034 40088 54000 6990/ 76066 888// 555 82805 85618 88650 00990;EQDQ01+005293WOSPD 
0283467380999992000071800004+24930+121300FM-12+0141RCUK V0202401N00051007501CN0130001N1+02701+02411100841ADDAA112000791AY161061AY261061GA1021+002409089GA2031+007509069GA3081+018009049GF108991081081002501999999KA1120N+02401MA1999999100301MD1810041+9999MW1601REMSYN122AAXX  18004 46738 11363 82401 1027/ 20241 30030 40084 58004 69902 76066 888// 333 20240 555 82808 83625 88456 00000 24044;
0254467380999992000071803004+24930+121300FM-12+0141RCUK V0201901N00621018001CN0120001N1+03061+02491100841ADDAA199000021AY121031AY221031GA1021+003009089GA2051+018009069GA3071+030009049GF107991051021004501011001MA1999999100301MD1410001+9999MW1021REMSYN106AAXX  18034 46738 32462 71912 10306 20249 30030 40084 54000 70222 85210 555 31923 82810 85656 87460 00000;
0271467380999992000071812004+24930+121300FM-12+0141RCUK V0202501N00101012001CN0100001N1+02771+02401999999ADDAA199000021AY121061AY221061GA1021+003009089GA2051+012009069GA3081+036009039GF108991051021004501051999KA1120M+03121MA1999999100241MD1210111+9999MW1021REMSYN110AAXX  18124 46738 32460 82502 10277 20240 30024 52011 70222 8525/ 333 10312 555 31925 82810 85640 88362 00000;
0260467380999992000072012004+24930+121300FM-12+0141RCUK V0203001N00261009901CN0090001N1+02641+02361101051ADDAY191061AY261061GA1031+002409089GA2051+009909069GA3071+024009039GF107991051021002501031001KA1120M+03241MA1999999100511MD1310111+9999MW1601REMSYN110AAXX  20124 46738 11359 73005 10264 20236 30051 40105 53011 76096 85230 333 10324 555 83808 85633 87358 00993;
0254467380999992000072015004+24930+121300FM-12+0141RCUK V0203001N00211006601CN0090001N1+02591+02271101111ADDAA100000391AY161031AY261031GA1021+002409089GA2031+006609069GA3071+024009039GF107991051021002501031001MA1999999100571MD1110061+9999MW1601REMSYN106AAXX  20154 46738 11359 73004 10259 20227 30057 40111 51006 6993/ 76066 85230 555 82808 83622 87358 00995;
0248467380999992000072021004+24930+121300FM-12+0141RCUK V0203301N00101006601CN0090001N1+02561+02251999999ADDAA100000391AY161031AY261031GA1021+002409089GA2031+006609069GA3061+060009009GF106991051021999999001011MA1999999100541MD1310031+9999MW1601REMSYN100AAXX  20214 46738 11/59 63302 10256 20225 30054 53003 6993/ 76066 85201 555 82808 83622 86070 00990;
0261467380999992000072100004+24930+121300FM-12+0141RCUK V0203401N002112200019N0150001N1+02901+02531101111ADDAA112000791AY101061AY201061GA1031+060009009GA2021+999999089GF103991031011004501001011KA1120N+02551MA1999999100571MD1110031+9999MW1021REMSYN116AAXX  21004 46738 11465 33404 10290 20253 30057 40111 51003 69902 70200 83101 333 20255 555 8281< 83070 00990 24995;
0202467380999992000072103004+24930+121300FM-12+0141RCUK V0200901N003112200019N0150001N1+03121+02481101081ADDAA199000021AY101031AY201031GA1011+003009089GF101991999081004501001001MD1810031+9999MW1021REMSYN082AAXX  21034 46738 32465 10906 10312 20248 40108 58003 70200 82800 555 81810 00990;EQDQ01+000022SCOTLC
0239467380999992000072121004+24930+121300FM-12+0141RCUK V0203201N00151090001CN0150001N1+99999+99999101011ADDAA199000091GA1011+004509089GA2031+018009069GA3051+090009009GF105991031011004501001011MA1999999100471MD1410001+9999REMSYN094AAXX  21214 46738 32465 53203 102/4 20210 30047 40101 54000 83101 555 81815 83656 85080 00000;EQDQ01  00002PRCP99
0220467380999992000072203004+24930+121300FM-12+0141RCUK V0201201N00261075001CN0150001N1+03101+02551100781ADDAA199000091GA1011+004509089GA2051+075009009GF105991011011004501001011MA1999999100241MD1810101+9999REMSYN091AAXX  22034 46738 32465 51205 10310 20255 30024 40078 58010 81101 555 81815 85075 00000 /.;EQDQ01  00002PRCP99
0217467380999992000072206004+24930+121300FM-12+0141RCUK V0201601N002612200019N0150001N1+03191+02581100711ADDAA199000091GA1011+004209089GA2031+060009009GF103991011011004501001011MA1999999100171MD1610071+9999REMSYN088AAXX  22064 46738 32465 31605 10319 20258 30017 40071 56007 81101 555 81814 83070 00000;EQDQ01  00002PRCP99
0249467380999992000072209004+24930+121300FM-12+0141RCUK V0201601N001512200019N0150001N1+03001+02511100671ADDAA199000091GA1011+004209089GA2031+060009009GF103991011011004501001011MA1999999100131MD1710041+9999REMSYN088AAXX  22094 46738 32465 31603 10300 20251 30013 40067 5600/ 81101 555 81814 83070 00000;EQDQ01+000062APCTENQ02+000002APC3  Q03  00002PRCP99
0268467380999992000072212004+24930+121300FM-12+0141RCUK V0203101N001012200019N9999999N1+02701+02311100741ADDAA199000091AY101061AY201061GA1011+003609089GA2031+060009009GF103991011011004501001011KA1120M+03191MA1999999100201MD1210071+9999MW1021REMSYN104AAXX  22124 46738 324/2 33102 10270 20231 30020 40074 52007 70200 81101 333 10319 555 81812 83070 00000;EQDQ01  00002PRCP99
0197467380999992000072221004+24930+121300FM-12+0141RCUK V0203301N001512200019N0100001N1+02441+02131100571ADDAA199000091GA1011+003609089GF101991011011004501001001MA1999999100031MD1610071+9999REMSYN084AAXX  22214 46738 32460 13303 10244 20213 30003 40057 56007 81100 555 81812 00000 V;EQDQ01  00002PRCP99
0246467380999992000072300004+24930+121300FM-12+0141RCUK V0203401N001512200019N0150001N1+02771+02451100571ADDAA199000091GA1011+004209089GA2031+075009009GF103991011011004501001011KA1120N+02441MA1999999100031MD1410001+9999REMSYN104AAXX  23004 46738 32465 33403 10277 20245 30003 40057 54000 81101 333 20244 555 81814 83075 00000 24000;EQDQ01  00002PRCP99
0191467380999992000072303004+24930+121300FM-12+0141RCUK V0201401N001019999999N0150001N1+03181+02581100111ADDAA199000091GA1011+004509089GA2031+075009009MA1999999100071MD1010041+9999REMSYN088AAXX  23034 46738 32465 /1402 10318 20258 30007 40011 50004 81210 555 81815 83075 00000;EQDQ01  00002PRCP99
0239467380999992000072312004+24930+121300FM-12+0141RCUK V0209999C00001060001CN0150001N1+02901+02471100571ADDAA199000091GA1011+004509089GA2031+006609999GA3051+060009009GF105991031021004501001011MA1999999100031MD1210171+9999REMSYN094AAXX  23124 46738 32465 50000 10290 20247 30003 40057 52017 83201 555 81815 83/22 85070 00000;EQDQ01  00002PRCP99
0239467380999992000072315004+24930+121300FM-12+0141RCUK V0203201N00151060001CN0150001N1+02751+02351100571ADDAA199000091GA1011+004209089GA2031+006609069GA3051+060009009GF105991031021004501001011MA1999999100031MD1410001+9999REMSYN094AAXX  23154 46738 32465 53203 10275 20235 30003 40057 54000 83201 555 81814 83622 85070 00000;EQDQ01  00002PRCP99
0239467380999992000072318004+24930+121300FM-12+0141RCUK V0203201N00101060001CN0150001N1+02711+02321100441ADDAA199000091GA1011+004209089GA2031+006609069GA3051+060009009GF105991031021004501001011MA1999999099901MD1710131+9999REMSYN094AAXX  23184 46738 32465 53202 10271 20232 39990 40044 57013 83201 555 81814 83622 85070 00000;EQDQ01  00002PRCP99
0228467380999992000072321004+24930+121300FM-12+0141RCUK V0203201N00101060001CN0150001N1+02621+02261100441ADDGA1011+004209089GA2031+006609069GA3051+060009009GF105991031021004501001011MA1999999099901MD1410001+9999REMSYN094AAXX  23214 46738 /2465 53202 10262 20226 39990 40044 56000 83201 555 81814 83622 85070 00000;EQDQ01+000062APCTEN
0225467380999992000072400004+24930+121300FM-12+0141RCUK V0200201N002612200019N0150001N1+02911+02451100571ADDAA199000091GA1011+006009089GF101991011011008001001001KA1120N+02621MA1999999100031MD1210131+9999REMSYN099AAXX  24004 46738 32565 10205 10291 20245 30003 40057 52013 81100 333 20262 555 81820 PPPPPM 24000;EQDQ01  00002PRCP99
0217467380999992000072403004+24930+121300FM-12+0141RCUK V0200901N002612200019N0150001N1+03221+02641100541ADDAA199000091GA1011+004509089GA2031+010509999GF103991031011004501001001MA1999999100001MD1810031+9999REMSYN088AAXX  24034 46738 32465 30905 10322 20264 30000 40054 58003 83100 555 81815 83/35 00000;EQDQ01  00002PRCP99
0299467380999992000072412004+24930+121300FM-12+0141RCUK V0203101N00151006601CN0130001N1+02891+99999100471ADDAA112000791AY161061AY221061GA1021+002409089GA2011+003609099GA3031+006609069GA4061+018009069GF106991061051002501001001KA1120M+03271MA1999999099931MD1310071+9999MW1601REMSYN122AAXX  24124 46738 11363 63103 10289 202/3 39993 40047 53007 69902 76062 86500 333 10327 555 82808 81912 83622 86656 00990;
0254467380999992000072415004+24930+121300FM-12+0141RCUK V0203201N00151007501CN0130001N1+02801+02361100441ADDAA100000791AY161031AY221031GA1021+002409089GA2031+007509069GA3061+024009039GF106991031021002501031001MA1999999099901MD1810031+9999MW1601REMSYN106AAXX  24154 46738 11363 63203 10280 20236 39990 40044 58003 6990/ 76062 83230 555 82808 83625 86358 00990;
0204467380999992000072421004+24930+121300FM-12+0141RCUK V0203101N00261075001CN0130001N1+02581+02261100231ADDAA100000791GA1021+002409089GA2051+075009009GF105991021011002501001011MA1999999099691MD1810111+9999REMSYN094AAXX  24214 46738 11363 53105 10258 20226 39969 40023 58011 6990/ 82101 555 82808 85075 00000;
0239467380999992000072506004+24930+121300FM-12+0141RCUK V0201801N00311013501CN0100001N1+03171+02631100271ADDAA199000091GA1021+003609089GA2061+013509069GA3071+036009039GF107991061041004501041001MA1999999099731MD1810031+9999REMSYN094AAXX  25064 46738 32460 71806 10317 20263 39973 40027 58003 86440 555 82812 86645 87362 00000;EQDQ01  00002PRCP99
0239467380999992000072509004+24930+121300FM-12+0141RCUK V0201701N00051075001CN0100001N1+03101+02571100201ADDAA199000091GA1011+004209089GA2031+021009039GA3051+075009009GF105991011011004501031011MA1999999099661MD1710071+9999REMSYN094AAXX  25094 46738 32460 51701 10310 20257 39966 40020 57007 81131 555 81814 83357 85075 00000;EQDQ01  00002PRCP99
0239467380999992000072521004+24930+121300FM-12+0141RCUK V0209999C000010360019N0100001N1+02531+02341100231ADDAA199000091GA1011+004209089GA2031+015009069GA3051+036009039GF105991031011004501031001MA1999999099691MD1410001+9999REMSYN094AAXX  25214 46738 32460 50000 10253 20234 39969 40023 54000 83130 555 81814 83650 85362 00000;EQDQ01  00002PRCP99
0248467380999992000072600004+24930+121300FM-12+0141RCUK V0200101N00311075001CN0160001N1+02911+02401100131ADDAA199000091GA1011+004509089GA2061+075009009GF106991011011004501001011KA1120N+02491MA1999999099591MD1610101+9999REMSYN106AAXX  26004 46738 32466 60106 10291 2024/ 39959 40013 56010 81101 333 20249 555 . 81815 86075 00000 24000;EQDQ01  00002PRCP99
0233467380999992000072603004+24930+121300FM-12+0141RCUK V0201001N00211075001CN0160001N1+03311+02821100131ADDAA199000091GA1011+004509089GA2061+075009009GF106991011011004501001011MA1999999099591MD1410001+9999REMSYN088AAXX  26034 46738 32466 61004 10331 20282 39959 40013 58000 81101 555 81815 86075 00000;EQDQ01+000082APCTENQ02  00002PRCP99
0312467380999992000072612004+24930+121300FM-12+0141RCUK V0209999C00001060001CN0080001N1+02901+02301100031ADDAA199000091AY121061AY221061GA1011+003009099GA2011+003609089GA3011+013509069GA4071+060009009GF107991021091004501001011KA1120M+03441MA1999999099491MD1210141+9999MW1131REMSYN116AAXX  26124 46738 31458 70000 10290 20230 39949 40003 52014 71322 82901 333 10344 555 81910 81812 81645 87070 00000;EQDQ01  00002PRCP99
0217467380999992000072618004+24930+121300FM-12+0141RCUK V0203301N001512200019N0100001N1+02731+02221099931ADDAA199000091GA1011+003609089GA2031+060009009GF103991011011004501001031MA1999999099391MD1510101+9999REMSYN088AAXX  26184 46738 32460 33303 10273 20222 39939 49993 55010 81103 555 81812 83070 00000;EQDQ01  00002PRCP99
0217467380999992000072621004+24930+121300FM-12+0141RCUK V0203601N001012200019N0100001N1+02661+02321099961ADDAA199000091GA1011+003609089GA2031+060009009GF103991011011004501001011MA1999999099421MD1510031+9999REMSYN088AAXX  26214 46738 32460 33602 10266 20232 39942 49996 55003 81101 555 81812 83070 00000;EQDQ01  00002PRCP99
0255467380999992000072700004+24930+121300FM-12+0141RCUK V0202901N00151060001CN0160001N1+02961+02481100001ADDAA199000091GA1011+004509089GA2031+015009069GA3071+060009029GF107991031011004501001011MA1999999099461MD1310041+9999REMSYN110AAXX  27004 46738 32466 72903 10296 20248 39946 40000 53004 83101 333 2026/ 555 81815 83650 87270 00000 24000;EQDQ01  00002PRCP99
0208467380999992000072706004+24930+121300FM-12+0141RCUK V0201401N002112200019N0100001N1+03181+02641100001ADDAA199000091GA1011+004509089GF106991031011004501001011MA1999999099461MD1810031+9999REMSYN095AAXX  27064 46738 32460 61404 10318 20264 39946 40000 58003 83101 555 81815 83656. 82670 00000;EQDQ01  00002PRCP99
0267467380999992000072709004+24930+121300FM-12+0141RCUK V0201701N00151060001CN0090001N1+03071+02521099961ADDAA199000091AY111031AY211031GA1011+004509089GA2031+018009069GA3061+060009029GF106991031011004501001011MA1999999099421MD1810041+9999MW1051REMSYN100AAXX  27094 46738 31459 61703 10307 20252 39942 49996 58004 70511 83101 555 81815 83656 86270 00000;EQDQ01  00002PRCP99
0290467380999992000072712004+24930+121300FM-12+0141RCUK V0209999C00001090001CN0070001N1+02871+02381100101ADDAA199000091AY111061AY211061GA1011+004509089GA2031+036009039GA3051+090009009GF105991011011999999031011KA1120M+03231MA1999999099561MD1210141+9999MW1051REMSYN110AAXX  27124 46738 31/57 50000 10287 20238 39956 40010 52014 70511 81131 333 10323 555 81815 83362 85080 00000;EQDQ01  00002PRCP99
0195467380999992000072721004+24930+121300FM-12+0141RCUK V0209999C000010900019N0070001N1+02651+02241100101ADDAA199000091AY111031AY211031GF105991011011004501031011MA1999999099561MD1410001+9999MW1051REMSYN076AAXX  27214 46738 31457 50000 10265 20224 39956 40010 54000 70511 81131 555;EQDQ01  00002PRCP99
0268467380999992000072800004+24930+121300FM-12+0141RCUK V0203201N000512200019N0150001N1+02931+02411100061ADDAA199000091GA1011+003609089GA2011+004209099GA3031+024009039GF103991011091004501031001KA1120N+02611MA1999999099521MD1110041+9999REMSYN110AAXX  28004 46738 32465 33201 10293 20241 39952 40006 51004 81930 333 20261 555 81812 81914 83358 00000 24000;EQDQ01  00002PRCP99
0217467380999992000072803004+24930+121300FM-12+0141RCUK V0200801N00461075001CN0150001N1+03271+02611100131ADDAA199000091GA1011+003609089GA2051+075009009GF105991011011004501001011MA1999999099591MD1110071+9999REMSYN088AAXX  28034 46738 32465 50809 10327 20261 39959 40013 51007 81101 555 81812 85075 00000;EQDQ01  00002PRCP99
0239467380999992000072806004+24930+121300FM-12+0141RCUK V0201701N00101010501CN0110001N1+03211+02621100061ADDAA199000091GA1021+003609089GA2041+010509069GA3071+018009069GF107991071081004501001001MA1999999099521MD1610071+9999REMSYN094AAXX  28064 46738 32461 71702 10321 20262 39952 40006 56007 87800 555 82812 84635 87656 00000;EQDQ01  00002PRCP99
0239467380999992000072809004+24930+121300FM-12+0141RCUK V0201801N00151010501CN0120001N1+03031+02531100001ADDAA199000091GA1021+003609089GA2051+010509069GA3071+018009069GF107991071081004501001001MA1999999099461MD1810061+9999REMSYN094AAXX  28094 46738 32462 71803 10303 20253 39946 40000 58006 87800 555 82812 85635 87656 00000;EQDQ01  00002PRCP99
0262467380999992000072812004+24930+121300FM-12+0141RCUK V0209999C00001012001CN0120001N1+02891+02361100001ADDAA199000091GA1021+003609089GA2051+012009069GA3071+060009009GF107991051081004501001011KA1120M+03271MA1999999099461MD1410001+9999REMSYN104AAXX  28124 46738 32462 70000 10289 20236 39946 40000 54000 85801 333 10327 555 82812 85640 87070 00000;EQDQ01  00002PRCP99
0239467380999992000072818004+24930+121300FM-12+0141RCUK V0209999C00001012001CN0120001N1+02661+02131100061ADDAA199000091GA1021+003609089GA2051+012009069GA3071+060009009GF107991051081004501001011MA1999999099521MD1410001+9999REMSYN094AAXX  28184 46738 32462 70000 10266 20213 39952 40006 54000 85801 555 82812 85640 87070 00000;EQDQ01  00002PRCP99
0268467380999992000072900004+24930+121300FM-12+0141RCUK V0209999C00001075001CN0150001N1+02941+02451100001ADDAA199000091GA1011+003609089GA2031+018009069GA3051+075009009GF105991031011004501001011KA1120N+02541MA1999999099491MD1810031+9999REMSYN110AAXX  29004 46738 32465 50000 10294 20245 39949 40000 58003 83101 333 20254 555 81812 83656 85075 00000 2:000;EQDQ01  00002PRCP99
0239467380999992000072903004+24930+121300FM-12+0141RCUK V0201301N001510900019N0150001N1+99999+99999100001ADDAA199000091GA1011+004509089GA2031+024009039GA3051+090009009GF105991011011004501031011MA1999999099461MD1810031+9999REMSYN094AAXX  29034 46738 32465 51303 10/33 20253 39946 40000 58003 81131 555 81815 83358 85080 00000;EQDQ01  00002PRCP99
0256467380999992000072906004+24930+121300FM-12+0141RCUK V0200901N003612200019N0180001N1+03471+02771099961ADDAA199000091GA1011+004509089GA2031+024009039GA3061+090009009GF199999011011004501031011MA1999999099421MD1810041+9999REMSYN095AAXX  29064 46738 32468 10907 10347 20277 39942 49996 58004 81131 555 .81815 83358 86080 00000;EQDQ01+000012SCOTCVQ02  00002PRCP99
0221467380999992000072912004+24930+121300FM-12+0141RCUK V0209999C000012200019N0100001N1+02891+02381100061ADDAA199000091GA1011+004509089GA2031+030009039GF103991011011004501031001MA1999999099521MD1110101+9999REMSYN092AAXX  29124 46738 32460 30000 10289 20238 39952 40006 51010 81130 333 555 81815 83360 00000;EQDQ01  00002PRCP99
0239467380999992000072915004+24930+121300FM-12+0141RCUK V0203301N00051018001CN0100001N1+02781+02371100131ADDAA199000091GA1011+003609089GA2031+010509069GA3061+018009069GF106991061081004501001001MA1999999099591MD1110071+9999REMSYN094AAXX  29154 46738 32460 63301 10278 20237 39959 40013 51007 86800 555 81812 83635 86656 00000;EQDQ01  00002PRCP99
0217467380999992000072918004+24930+121300FM-12+0141RCUK V0202701N00101024001CN0100001N1+02671+02301100031ADDAA199000091GA1021+003609089GA2061+024009039GF106991021011004501031001MA1999999099491MD1710101+9999REMSYN088AAXX  29184 46738 32460 62702 10267 20230 39949 40003 57010 82130 555 82812 86358 00000;EQDQ01  00002PRCP99
0167467380999992000072921004+24930+121300FM-12+0141RCUK V0200301N001010090019N0120001N1+02751+99999100031ADDAA199000091GF107991071081004501001001MA1999999099491MD1410001+9999REMSYN070AAXX  29214 46738 32462 70302 10275 39949 40003 54000 87800 555 82812;EQDQ01  00002PRCP99
0195467380999992000073001004+24930+121300FM-12+0141RCUK V0202901N003110090019N0200001N1+03471+02561099961ADDAA106000791GA1011+004509089GF107991051081004501031001MA1999999099421MD1810171+9999REMSYN101AAXX  30014 46738 12470 72906 10347 20256 39942 49996 58017 69901 85830 555 81815 ITYGTM 87358 00990;
0259467380999992000073003004+24930+121300FM-12+0141RCUK V0202701N00101012001CN0180001N1+03081+02471100131ADDAA100000791AY181031AY221031GA1011+004509089GA2051+012009069GA3071+018009069GF107991071081004501001001MA1999999099591MD1810041+9999MW1021REMSYN111AAXX  30034 46738 11468 72702 10308 20247 39959 40013 58004 6990/ 70282 87800 555 81815 85640 87656 00990 /9 9;
0226467380999992000073006004+24930+121300FM-12+0141RCUK V0202901N00311013501CN0200001N1+03471+02561099961ADDAA106000791GA1011+004509089GA2051+013509069GA3071+024009039GF107991051081004501031001MA1999999099421MD1810171+9999REMSYN100AAXX  30064 46738 12470 72906 10347 20256 39942 49996 58017 69901 85830 555 81815 85645 87358 00990;
0226467380999992000073009004+24930+121300FM-12+0141RCUK V0200701N00511024001CN0180001N1+99999+99999100031ADDAA100000791GA1021+003609089GA2041+024009039GA3061+075009009GF106991021011004501031011MA1999999099491MD1310071+9999REMSYN100AAXX  30094 46738 12468 60710 10/25 20250 39949 40003 53007 6990/ 82131 555 82812 84358 86075 00990;
0128467380999992000073012004+24930+121300FM-12+0141RCUK V0200501N001019999999N0060001N1+02821+02401100271ADDAA112000791MA1999999099731MD1210241+9999REMSYN076AAXX  30124 46738 11/56 /0502 10282 20240 39973 40027 52024 69902 83430 555;
0239467380999992000073015004+24930+121300FM-12+0141RCUK V0202801N00051018001CN0060001N1+02801+02401100471ADDAA199000091GA1011+003609089GA2031+012009069GA3061+018009069GF106991999041004501031001MA1999999099931MD1210201+9999REMSYN094AAXX  30154 46738 31456 62801 10280 20240 39993 40047 52020 8/430 555 81812 83640 86656 00990;EQDQ01  00002PRCP99
0152467380999992000073018004+24930+121300FM-12+0141RCUK V0202801N001019999999N0060001N1+02701+02361999999ADDGA1011+003609089MA1999999099901MD1010031+9999REMSYN095AAXX  30184 46738 /1456 /2802 10270 20236 39990 400/4 50003 83400 555 81812 /83640 86656 00000;
0239467380999992000073021004+24930+121300FM-12+0141RCUK V0202701N00101018001CN0060001N1+02651+02331100441ADDAA199000091GA1011+003609089GA2031+012009069GA3061+018009069GF106991031999004501001001MA1999999099901MD1010001+9999REMSYN094AAXX  30214 46738 31456 62702 10265 20233 39990 40044 50000 83/00 555 81812 83640 86656 00000;EQDQ01  00002PRCP99
0252467380999992000073100004+24930+121300FM-12+0141RCUK V0201901N002610090019N0110001N1+02811+02471100441ADDAA199000091GA1021+003609089GA2051+999999069GF107991051081004501031001KA1120N+02651MA1999999099901MD1510001+9999REMSYN110AAXX  31004 46738 32461 71905 10281 20247 39990 40044 55000 85830 333 20265 555 82812 856TM IUETU 00000 24990;EQDQ01  00002PRCP99
0254467380999992000073103004+24930+121300FM-12+0141RCUK V0202701N00101010501CN9999999N1+02941+02541100441ADDAA100002091AY161031AY221031GA1021+004509089GA2051+010509069GA3071+018009069GF107991071081004501001001MA1999999099901MD1410001+9999MW1211REMSYN106AAXX  31034 46738 114/8 72702 10294 20254 39990 40044 54000 6002/ 72162 87800 555 82815 85635 87656 00002;
0277467380999992000073112004+24930+121300FM-12+0141RCUK V0209999C00001010501CN0090001N1+02751+02451100471ADDAA112002091AY181061AY261061GA1021+003609089GA2051+010509069GA3081+018009069GF108991071081004501001001KA1120M+03111MA1999999099931MD1210171+9999MW1601REMSYN116AAXX  31124 46738 11459 80000 10275 20245 39993 40047 52017 60022 76086 87800 333 10311 555 82812 85635 88656 00002;
0254467380999992000073115004+24930+121300FM-12+0141RCUK V0202901N001010090019N0100001N1+02681+02411100611ADDAA100000791AY181031AY261031GA1021+003009089GA2051+009009069GA3081+018009069GF108991071081004501001001MA1999999100071MD1310141+9999MW1001REMSYN106AAXX  31154 46738 11460 82902 10268 20241 30007 40061 53014 6990/ 70086 87800 555 82810 85630 88656 00002;
0226467380999992000073121004+24930+121300FM-12+0141RCUK V0209999C000010090019N0100001N1+02501+02261100501ADDAA100000791GA1021+003009089GA2051+009009069GA3081+018009069GF108991071081004501001001MA1999999099961MD1010071+9999REMSYN100AAXX  31214 46738 11460 80000 10250 20226 39996 40050 50007 6990/ 87800 555 82810 85630 88656 00000;
0255467380999992000080100004+24930+121300FM-12+0141RCUK V0200201N00151009001CN0100001N1+02821+02471100541ADDAA112000791GA1021+003609089GA2031+009009069GA3061+018009069GF106991061999004501001001KA1120N+02501MA1999999100001MD1610041+9999REMSYN116AAXX  01004 46738 32460 60203 10282 20247 30000 40054 56004 69902 86/00 333 20250 555 82812 83630 86656 00000 24002;
0239467380999992000080103004+24930+121300FM-12+0141RCUK V0201901N00311012001CN0080001N1+02971+02531100641ADDAA199000091GA1021+003009089GA2051+012009069GA3081+036009049GF108991051041004501011001MA1999999100101MD1310101+9999REMSYN094AAXX  01034 46738 31458 81906 10297 20253 30010 40064 53010 85410 555 82810 85640 88462 00000;EQDQ01  00002PRCP99
0224467380999992000080109004+24930+121300FM-12+0141RCUK V0200801N00051013501CN0100001N1+02971+02561100441ADDAA199000091GA1021+003009089GA2051+013509069GF106991051041004501011001MA1999999099901MD1610101+9999REMSYN095AAXX  01094 46738 32460 60801 10297 20256 39990 40044 56010 85410 555 82810 85645 IYRTIM 00000;EQDQ01  00002PRCP99
0236467380999992000080203004+24930+121300FM-12+0141RCUK V0200301N003610021019N0090001N1+03031+02611100571ADDAA199000091AY121031AY221031GA1021+001809089GF106991061041002501001001MA1999999100031MD1110031+9999MW1101REMSYN101AAXX  02034 46738 31359 60307 10303 20261 30003 40057 51003 71022 86400 555 82806 85635. 86650 00000;EQDQ01  00002PRCP99
0283467380999992000080206004+24930+121300FM-12+0141RCUK V0200701N00411010501CN0030001N1+02931+02671100501ADDAA199000091AY121061AY221061GA1021+001509089GA2051+010509069GA3061+030009039GF106991061041001501999001MA1999999099961MD1810071+9999MW1161REMSYN100AAXX  02064 46738 31230 60708 10293 20267 39996 40050 58007 71622 86400 555 82805 85635 86360 00000;EQDQ01+000002SCOMCGQ02  00002PRCP99
0254467380999992000080218004+24930+121300FM-12+0141RCUK V0203401N00101009001CN0100001N1+02551+02341100471ADDAA106000791AY121061AY221061GA1021+001809089GA2051+009009069GA3081+018009069GF108991081041002501001001MA1999999099931MD1710201+9999MW1021REMSYN106AAXX  02184 46738 11360 83402 10255 20234 39993 40047 57020 69901 70222 88400 555 82806 85630 88656 00000;
0261467380999992000080303004+24930+121300FM-12+0141RCUK V0201401N00151007501CN0130001N1+02931+02571100641ADDAA199000091GA1011+003009089GA2011+003609099GA3031+007509069GA4061+024009039GF106991031091004501031001MA1999999100101MD1310071+9999REMSYN100AAXX  03034 46738 32463 61403 10293 20257 30010 40064 53007 83930 555 81810 81912 83625 86358 00000;EQDQ01  00002PRCP99
0233467380999992000080306004+24930+121300FM-12+0141RCUK V0203301N00261004501CN0040001N1+02801+02601100641ADDAA106000791GA1021+001809099GA2051+004509069GA3071+018009069GF107991031091001501031001MA1999999100101MD1410001+9999REMSYN107AAXX  03064 46738 11240 73305 10280 20260 30010 40064 54000 69901 83930 555 83803. 82906 85615 87656 00990;
0254467380999992000080315004+24930+121300FM-12+0141RCUK V0209999C00001007501CN0100001N1+02451+02221100711ADDAA100000791AY161031AY221031GA1021+002409089GA2051+007509069GA3071+018009069GF107991071081002501001001MA1999999100171MD1310041+9999MW1211REMSYN106AAXX  03154 46738 11360 70000 10245 20222 30017 40071 53004 6990/ 72162 87800 555 82808 85625 87656 00996;
0226467380999992000080321004+24930+121300FM-12+0141RCUK V0209999C00001007501CN0100001N1+02421+02201100711ADDAA100000791GA1021+002409089GA2051+007509069GA3071+018009069GF107991071081002501001001MA1999999100171MD1410001+9999REMSYN100AAXX  03214 46738 11360 70000 10242 20220 30017 40071 54000 6990/ 87800 555 82808 85625 87656 00000;
0239467380999992000080409004+24930+121300FM-12+0141RCUK V0201801N00151018001CN0100001N1+02831+02391100641ADDAA199000091GA1021+003009089GA2051+018009069GA3071+036009039GF107991061081004501031001MA1999999100101MD1810031+9999REMSYN094AAXX  04094 46738 32460 71803 10283 20239 30010 40064 58003 86830 555 82810 85656 87362 00000;EQDQ01  00002PRCP99
0217467380999992000080415004+24930+121300FM-12+0141RCUK V0202901N000510360019N0100001N1+02611+02251100841ADDAA199000091GA1011+003009089GA2051+036009039GF105991021081004501041001MA1999999100301MD1110131+9999REMSYN088AAXX  04154 46738 32460 52901 10261 20225 30030 40084 51013 82840 555 81810 85362 00000;EQDQ01  00002PRCP99
0217467380999992000080418004+24930+121300FM-12+0141RCUK V0203201N000510360019N0100001N1+02601+02251100781ADDAA199000091GA1011+003009089GA2051+036009039GF105991021081004501041001MA1999999100241MD1010061+9999REMSYN088AAXX  04184 46738 32460 53201 10260 20225 30024 40078 50006 82840 555 81810 85362 00000;EQDQ01  00002PRCP99
0233467380999992000080421004+24930+121300FM-12+0141RCUK V0203401N000510360019N0100001N1+02481+02151100781ADDAA199000091GA1011+003009089GA2051+036009039GF105991021081004501041001MA1999999100241MD1410001+9999REMSYN088AAXX  04214 46738 32460 53401 10248 20215 30024 40078 58000 82840 555 81810 85362 00000;EQDQ01+000082APCTENQ02  00002PRCP99
0246467380999992000080500004+24930+121300FM-12+0141RCUK V0200401N00151024001CN0120001N1+02771+02341100811ADDAA199000091GA1011+004509089GA2061+024009039GF106991011011004501031001KA1120N+02481MA1999999100271MD1110031+9999REMSYN104AAXX  05004 46738 32462 60403 10277 20234 30027 40081 51003 81130 333 20248 555 81815 86358 00000 24000;EQDQ01  00002PRCP99
0233467380999992000080503004+24930+121300FM-12+0141RCUK V0201001N002610360019N0090001N1+03201+02521100811ADDAA199000091GA1021+003009089GA2051+036009039GF105991021021004501031001MA1999999100271MD1410001+9999REMSYN088AAXX  05034 46738 31459 51005 10320 20252 30027 40081 58000 82230 555 82810 85362 00000;EQDQ01+000082APCTENQ02  00002PRCP99
0239467380999992000080506004+24930+121300FM-12+0141RCUK V0201301N00311004201CN0070001N1+03001+02601100781ADDAA199000091GA1021+002409089GA2031+004209069GA3051+024009039GF105991031051002501031001MA1999999100241MD1810031+9999REMSYN094AAXX  05064 46738 31357 51306 10300 20260 30024 40078 58003 83530 555 82808 83614 85358 00000;EQDQ01  00002PRCP99
0226467380999992000080509004+24930+121300FM-12+0141RCUK V0203201N001012200019N0080001N1+02721+02431100741ADDAA100002091GA1021+002409999GA2011+003009099GA3031+007509069GF103991031051002501001001MA1999999100201MD1810041+9999REMSYN100AAXX  05094 46738 11358 33202 10272 20243 30020 40074 58004 6002/ 83500 555 82/08 81910 83625 00002;
0256467380999992000080512004+24930+121300FM-12+0141RCUK V0203301N001512200019N0120001N1+02581+02241100811ADDAA112002091AY141061AY241061GA1011+003609089GA2031+075009009GF103991011011004501001011KA1120M+03201MA1999999100271MD1210071+9999MW1021REMSYN111AAXX  05124 46738 11462 33303 10258 20224 30027 40081 52007 60022 70244 81101 333 10320 555 .81812 83075 00002;
0202467380999992000080515004+24930+121300FM-12+0141RCUK V0203301N001512200019N0120001N1+02481+02191100881ADDAA199000091GA1011+003609089GF103991011011004501001011MA1999999100341MD1110071+9999REMSYN089AAXX  05154 46738 32462 33303 10248 20219 30034 40088 51007 81101 555 81812 83075. 00002;EQDQ01  00002PRCP99
0217467380999992000080521004+24930+121300FM-12+0141RCUK V0203201N002112200019N0120001N1+02371+02151100841ADDAA199000091GA1011+003609089GA2031+075009009GF103991011011004501001011MA1999999100301MD1810041+9999REMSYN088AAXX  05214 46738 32462 33204 10237 20215 30030 40084 58004 81101 555 81812 83075 00000;EQDQ01  00002PRCP99
0239467380999992000080603004+24930+121300FM-12+0141RCUK V0201401N002112200019N0120001N1+03171+02581100881ADDAA199000091GA1011+003009099GA2021+003609089GA3011+030009039GF102991021021004501031001MA1999999100341MD1010001+9999REMSYN094AAXX  06034 46738 32462 21404 10317 20258 30034 40088 50000 82230 555 81910 82812 81360 00000;EQDQ01  00002PRCP99
0217467380999992000080606004+24930+121300FM-12+0141RCUK V0201501N00261012001CN0120001N1+03071+02441100781ADDAA199000091GA1011+003609089GA2051+012009069GF105991051081004501001001MA1999999100241MD1810101+9999REMSYN088AAXX  06064 46738 32462 51505 10307 20244 30024 40078 58010 85800 555 81812 85640 00000;EQDQ01  00002PRCP99
0246467380999992000080912004+24930+121300FM-12+0141RCUK V0209999C000012200019N0070001N1+02821+02401100571ADDAA199000091AY111061AY211061GA1021+003609089GF102991011011004501001001KA1120M+03241MA1999999100031MD1310101+9999MW1051REMSYN098AAXX  09124 46738 31457 20000 10282 20240 30003 40057 53010 70511 81100 333 10324 555 82812 00000;EQDQ01  00002PRCP99
0223467380999992000080915004+24930+121300FM-12+0141RCUK V0203201N001012200019N0070001N1+02681+02281100611ADDAA199000091AY111031AY211031GA1021+003609089GF102991021011004501001001MA1999999100071MD1310041+9999MW1051REMSYN088AAXX  09154 46738 31457 23202 10268 20228 30007 40061 53004 70511 82100 555 82812 00000;EQDQ01  00002PRCP99
0223467380999992000080918004+24930+121300FM-12+0141RCUK V0209999C000012200019N0070001N1+02651+02261100571ADDAA199000091AY111061AY211061GA1021+003609089GF102991021011004501001001MA1999999100031MD1810041+9999MW1051REMSYN088AAXX  09184 46738 31457 20000 10265 20226 30003 40057 58004 70511 82100 555 82812 00000;EQDQ01  00002PRCP99
0223467380999992000080921004+24930+121300FM-12+0141RCUK V0203101N000512200019N0070001N1+02531+02231100471ADDAA199000091AY111031AY211031GA1021+003609089GF102991021011004501001001MA1999999099931MD1810101+9999MW1051REMSYN088AAXX  09214 46738 31457 23101 10253 20223 39993 40047 58010 70511 82100 555 82812 00000;EQDQ01  00002PRCP99
0224467380999992000081000004+24930+121300FM-12+0141RCUK V0209999C000012200019N0130001N1+02861+02441100471ADDAA199000091GA1011+004509089GF101991011011004501001001KA1120N+02511MA1999999099931MD1410001+9999REMSYN098AAXX  10004 46738 32463 10000 10286 20244 39993 40047 54000 81100 333 20251 555 81815 00000 24000;EQDQ01  00002PRCP99
0233467380999992000081003004+24930+121300FM-12+0141RCUK V0201201N002612200019N0120001N1+03131+02611100401ADDAA199000091GA1021+006309089GA2041+060009009GF199999021011004501001011MA1999999099901MD1710041+9999REMSYN088AAXX  10034 46738 32462 11205 10313 20261 39990 40040 57004 82101 555 82821 84070 00000;EQDQ01+000012SCOTCVQ02  00002PRCP99
0195467380999992000081006004+24930+121300FM-12+0141RCUK V0200801N002612200019N0120001N1+03251+02701100201ADDAA199000091GA1011+004509089GF101991011011004501001001MA1999999099661MD1710241+9999REMSYN082AAXX  10064 46738 32462 10805 10325 20270 39966 40020 57024 81100 555 81815 00000;EQDQ01  00002PRCP99
0217467380999992000081009004+24930+121300FM-12+0141RCUK V0200801N002612200019N0120001N1+03151+02581100171ADDAA199000091GA1011+004509089GA2031+030009039GF103991011011004501031001MA1999999099631MD1810031+9999REMSYN088AAXX  10094 46738 32462 30805 10315 20258 39963 40017 58003 81130 555 81815 83360 00000;EQDQ01  00002PRCP99
0218467380999992000081012004+24930+121300FM-12+0141RCUK V0209999C000012200019N0090001N1+02821+02411100301ADDAA199000091GA1011+004509089GF101991011011004501001001KA1120M+03391MA1999999099761MD1210131+9999REMSYN092AAXX  10124 46738 31459 10000 10282 20241 39976 40030 52013 81100 333 10339 555 81815 00000;EQDQ01  00002PRCP99
0223467380999992000081018004+24930+121300FM-12+0141RCUK V02099999999992200019N0090001N1+02651+02261100231ADDAA199000091AY101061AY201061GA1011+003609089GF101991011011004501001001MA1999999099691MD1710141+9999MW1051REMSYN088AAXX  10184 46738 31459 1/302 10265 20226 39969 40023 57014 70500 81100 555 81812 00000;EQDQ01  00002PRCP99
0246467380999992000081100004+24930+121300FM-12+0141RCUK V0203601N002112200019N0100001N1+02871+02411100341ADDAA199000091GA1011+003009089GA2031+090009009GF103991011011004501001011KA1120N+02571MA1999999099801MD1210111+9999REMSYN104AAXX  11004 46738 32460 33604 10287 20241 39980 40034 52011 81101 333 20257 555 81810 83080 00000 24000;EQDQ01  00002PRCP99
0267467380999992000081106004+24930+121300FM-12+0141RCUK V0201201N00211075001CN0060001N1+03161+02541100271ADDAA199000091AY111061AY211061GA1021+002409099GA2011+013509069GA3051+075009009GF105991031091002501001011MA1999999099731MD1610071+9999MW1051REMSYN100AAXX  11064 46738 31356 51204 10316 20254 39973 40027 56007 70511 83901 555 82908 81645 85075 00000;EQDQ01  00002PRCP99
0245467380999992000081109004+24930+121300FM-12+0141RCUK V0200501N00211075001CN0040001N1+03171+02541100231ADDAA199000091AY121031AY221031GA1021+003009089GA2051+075009009GF105991021011004501001011MA1999999099691MD1810041+9999MW1051REMSYN094AAXX  11094 46738 31440 50504 10317 20254 39969 40023 58004 70522 82101 555 82810 85075 00000;EQDQ01  00002PRCP99
0290467380999992000081112004+24930+121300FM-12+0141RCUK V0200801N002110360019N0080001N1+02941+02361100371ADDAA199000091AY121061AY221061GA1011+003609089GA2051+036009039GA3071+060009009GF107991011011004501041011KA1120M+03261MA1999999099831MD1210101+9999MW1101REMSYN110AAXX  11124 46738 31458 70804 10294 20236 39983 40037 5201/ 71022 81141 333 10326 555 81812 85362 87070 00000;EQDQ01  00002PRCP99
0246467380999992000081200004+24930+121300FM-12+0141RCUK V0209999C000012200019N9999999N1+02891+02471100471ADDAA199000091GA1011+004809089GA2031+045009039GF103991011011004501031001KA1120N+02611MA1999999099931MD1310031+9999REMSYN104AAXX  12004 46738 3246/ 30000 10289 20247 39993 40047 53003 81130 333 20261 555 81816 83365 00000 24000;EQDQ01  00002PRCP99
0255467380999992000081203004+24930+121300FM-12+0141RCUK V0200701N00361045001CN0110001N1+03171+99999100501ADDAA199000091GA1011+004509089GA2051+045009039GA3031+999999069GF105991011011004501031001MA1999999099961MD1310031+9999REMSYN094AAXX  12034 46738 32461 50707 10317 202/0 39996 40050 5300/ 81130 555 81815 8365/ 85365 00000;EQDQ01+000002APC3  Q02  00002PRCP99
0277467380999992000081212004+24930+121300FM-12+0141RCUK V0209999C00001007501CN0090001N1+02651+02421100571ADDAA112004191AY191061AY221061GA1021+003009089GA2031+007509069GA3071+018009069GF107991071081004501001001KA1120M+03311MA1999999100031MD1310071+9999MW1601REMSYN116AAXX  12124 46738 11459 70000 10265 20242 30003 40057 53007 60042 76092 87800 333 10331 555 82810 83625 87656 00004;
0239467380999992000081215004+24930+121300FM-12+0141RCUK V0203101N00151007501CN0120001N1+02601+02301100671ADDAY161031AY261031GA1021+003909089GA2031+007509069GA3051+036009039GF105991031011004501031001MA1999999100131MD1210101+9999MW1011REMSYN102AAXX  12154 46738 11462 53103 10260 20230 30013 40067 52010 70166 83130 555 . 82813 83625 85362 00004;
0227467380999992000081221004+24930+121300FM-12+0141RCUK V0203201N00151007501CN0120001N1+99999+99999100671ADDAA100000791GA1021+003909089GA2031+007509069GA3051+036009039GF105991031011004501031001MA1999999100131MD1410001+9999REMSYN101AAXX  12214 46738 11462 53203 102/9 20230 30013 40067 54000 6990/ 83130 555 /82813 83625 85362 00000;
0240467380999992000081300004+24930+121300FM-12+0141RCUK V0203501N00101075001CN0130001N1+02781+02481100741ADDAA112000791GA1031+030009039GA2071+075009009GF107991011011004501041011KA1120N+02491MA1999999100201MD1310071+9999REMSYN117AAXX  13004 46738 11463 73502 10278 20248 30020 40074 53007 69902 81141 333 20249 555 81813. 83360 87075 00000 24004;
0239467380999992000081303004+24930+121300FM-12+0141RCUK V0201801N00151024001CN0130001N1+03101+02561100741ADDAA199000091GA1021+003609089GA2051+024009039GA3071+075009009GF107991021011004501041011MA1999999100201MD1410001+9999REMSYN094AAXX  13034 46738 32463 71803 10310 20256 30020 40074 54000 82141 555 82812 85358 87075 00000;EQDQ01  00002PRCP99
0197467380999992000081315004+24930+121300FM-12+0141RCUK V0203001N00211075001CN0120001N1+02631+02251100781ADDAA199000091GA1011+003009089GA2051+075009009GF105991011011004501001011MA1999999100241REMSYN082AAXX  13154 46738 32462 53004 10263 20225 30024 40078 81101 555 81810 85075 00000;EQDQ01  00002PRCP99
0239467380999992000081321004+24930+121300FM-12+0141RCUK V0203201N00211075001CN0120001N1+02481+02191100781ADDAA199000091GA1011+003009089GA2031+036009039GA3051+075009009GF105991011011004501031011MA1999999100241MD1110071+9999REMSYN094AAXX  13214 46738 32462 53204 10248 20219 30024 40078 51007 81131 555 81810 83362 85075 00000;EQDQ01  00002PRCP99
0295467380999992000081403004+24930+121300FM-12+0141RCUK V0209999C00001004801CN0040001N1+02701+02481100811ADDAA100017091AY191031AY261031GA1031+001809079GA2011+004209099GA3061+004809069GA4081+009609069GF199999081091002501999999MA1999999100461MD1810011+9999MW1951REMSYN112AAXX  14034 46738 11340 70000 1027/ 20248 30046 40081 58001 6017/ 79596 889// 555 83706 81914 86616 88632 00024;EQDQ01+000072SCOTCV
0198467380999992000081406004+24930+121300FM-12+0141RCUK V0200401N00311030001CN0110001N1+03241+02591100471ADDAA199000021GA1031+003609089GA2051+030009039GF105991031021004501031001MA1999999099931MD1710171+9999REMSYN088AAXX  14064 46738 32461 50406 10324 20259 39993 40047 57017 83230 555 83812 85360 00000;
0198467380999992000081409004+24930+121300FM-12+0141RCUK V0200601N005712200019N0110001N1+03141+02611100371ADDAA199000021GA1021+003609089GA2031+030009039GF103991021021004501031001MA1999999099831MD1710101+9999REMSYN088AAXX  14094 46738 32461 30611 10314 20261 39983 40037 57010 82230 555 82812 83360 00000;
0216467380999992000081412004+24930+121300FM-12+0141RCUK V0200501N00211075001CN0110001N1+02901+02501999999ADDAA199000021GA1021+003609089GA2031+030009039GA3051+075009009GF105991021011004501041011KA1120M+03241MD1210131+9999REMSYN092AAXX  14124 46738 32461 50504 10290 20250 52013 82141 333 10324 555 82812 83360 85075 00000;
0247467380999992000081500004+24930+121300FM-12+0141RCUK V0200301N001512200019N0110001N1+02921+02521100571ADDAA199000091GA1021+003609089GA2031+024009039GF103991021011004501041001KA1120N+02581MA1999999100031MD1110071+9999REMSYN105AAXX  15004 46738 32461 30303 10292 20252 30003 40057 51007 82140 333 20258 555 82812 83358 00000. 24000;EQDQ01  00002PRCP99
0217467380999992000081503004+24930+121300FM-12+0141RCUK V0200601N00151024001CN0110001N1+03231+02671100641ADDAA199000091GA1021+003009089GA2061+024009039GF106991021011004501041001MA1999999100101MD1310071+9999REMSYN088AAXX  15034 46738 32461 60603 10323 20267 30010 40064 53007 82140 555 82810 86358 00000;EQDQ01  00002PRCP99
0235467380999992000081506004+24930+121300FM-12+0141RCUK V0201901N00101018001CN0090001N1+03011+02671100501ADDAA106000791AY121061AY221061GA1021+001809089GA2051+018009069GF105991051051002501001001MA1999999099961MD1710141+9999MW1151REMSYN103AAXX  15064 46738 11359 51902 10301 20267 39996 40050 57014 69901 71522 85500 555 82806 85656 00990 /9;
0254467380999992000081509004+24930+121300FM-12+0141RCUK V0209999C00001012001CN0120001N1+02931+02571100301ADDAA100000791AY121031AY221031GA1021+002409089GA2051+012009069GA3061+021009039GF106991051051002501031001MA1999999099761MD1810201+9999MW1151REMSYN106AAXX  15094 46738 11362 60000 10293 20257 39976 40030 58020 6990/ 71522 85530 555 82808 85640 86357 00990;
0227467380999992000081512004+24930+121300FM-12+0141RCUK V0203001N002612200019N0110001N1+02741+02391100341ADDAA112000791GA1021+003009089GA2031+015009019GF103991031081004501001001KA1120M+03231MA1999999099801MD1110041+9999REMSYN104AAXX  15124 46738 11461 33005 10274 20239 39980 40034 51004 69902 83800 333 10323 555 82810 83150 00990;
0195467380999992000081515004+24930+121300FM-12+0141RCUK V0202901N001512200019N0110001N1+02661+02261100541ADDAA199000091GA1011+004509089GF101991011011004501001001MA1999999100001MD1210201+9999REMSYN082AAXX  15154 46738 32461 12903 10266 20226 30000 40054 52020 81100 555 81815 00990;EQDQ01  00002PRCP99
0195467380999992000081521004+24930+121300FM-12+0141RCUK V0209999C000012200019N0110001N1+02421+02091100501ADDAA199000091GA1011+004509089GF101991011011004501001001MA1999999099961MD1410001+9999REMSYN082AAXX  15214 46738 32461 10000 10242 20209 39996 40050 54000 81100 555 81815 00000;EQDQ01  00002PRCP99
0226467380999992000081600004+24930+121300FM-12+0141RCUK V0203601N001512200019N0110001N1+02811+02311100611ADDAA199000091GA1011+004509089GF101991011011004501001011KA1120N+02421MA1999999100071MD1210111+9999REMSYN100AAXX  16004 46738 32461 13603 10281 20231 30007 40061 52011 81101 333 20242 555 M 81815 00000 24990;EQDQ01  00002PRCP99
0217467380999992000081603004+24930+121300FM-12+0141RCUK V0201601N002612200019N0013001N1+03231+02531100641ADDAA199000091GA1031+004509089GA2031+075009009GF103991031011004501001011MA1999999100101MD1110031+9999REMSYN088AAXX  16034 46738 32413 31605 10323 20253 30010 40064 51003 83101 555 83815 83075 00000;EQDQ01  00002PRCP99
0217467380999992000081606004+24930+121300FM-12+0141RCUK V0200901N003112200019N0130001N1+03331+02561100501ADDAA199000091GA1011+004809089GA2031+075009009GF103991011011004501001011MA1999999099961MD1710101+9999REMSYN088AAXX  16064 46738 32463 30906 10333 20256 39996 40050 5701/ 81101 555 81816 83075 00000;EQDQ01  00002PRCP99
0218467380999992000081609004+24930+121300FM-12+0141RCUK V0200701N004112200019N0130001N1+03251+02481100401ADDAA199000091GA1011+003009099GF101991999021004501001001MA1999999099861MD1610101+9999REMSYN089AAXX  16094 46738 32463 10708 10325 20248 39986 40040 56010 82200 555 81910 /81812 00000;EQDQ01+000022SCOTLCQ02  00002PRCP99
0205467380999992000081612004+24930+121300FM-12+0141RCUK V0202701N001512200019N0130001N1+02901+02351100501ADDAA199000091GA1011+003009089GF101991011011004501001001MA1999999099961MD1310101+9999REMSYN092AAXX  16124 46738 32463 12703 10290 20235 39996 40050 53010 81100 333 19336 555 81810 00000;EQDQ01  00002PRCP99
0195467380999992000081618004+24930+121300FM-12+0141RCUK V0203301N001512200019N0110001N1+02601+02301100711ADDAA199000091GA1011+003609089GF101991011011004501001001MA1999999100171MD1010031+9999REMSYN082AAXX  16184 46738 32461 13303 10260 20230 30017 40071 50003 81100 555 81812 00000;EQDQ01  00002PRCP99
0217467380999992000081706004+24930+121300FM-12+0141RCUK V0201701N003112200019N0110001N1+03181+02621100781ADDAA199000091GA1011+004509089GA2031+015009069GF103991031081004501001011MA1999999100201MD1710101+9999REMSYN088AAXX  17064 46738 32461 31706 10318 20262 3002/ 40078 57010 83801 555 81815 83650 00000;EQDQ01  00002PRCP99
0231467380999992000081712004+24930+121300FM-12+0141RCUK V0209999C000010090019N0110001N1+02801+02401100911ADDAA199000091GA1021+004509089GF107991051081004501031001KA1120M+03271MA1999999100371MD1310171+9999REMSYN105AAXX  17124 46738 32461 70000 1028/ 20240 30037 40091 53017 85830 333 10327 555 82815 ITYCTM 87310 00000;EQDQ01  00002PRCP99
0239467380999992000081718004+24930+121300FM-12+0141RCUK V0203101N00151090001CN0110001N1+02641+02201100951ADDAA199000091GA1011+003609099GA2021+003609089GA3071+999999019GF107991071081004501001001MA1999999100411MD1710101+9999REMSYN094AAXX  17184 46738 32461 73103 10264 20220 30041 40095 57010 87800 555 82812 81912 87151 00000;EQDQ01  00002PRCP99
0223467380999992000081800004+24930+121300FM-12+0141RCUK V0209999C000012200019N0160001N1+02931+02381101011ADDAA199000091GA1011+004509089GA2031+075009009GF103991011011004501001011MA1999999100471MD1110101+9999REMSYN094AAXX  18004 46738 32466 30000 10293 20238 30047 40101 51010 81101 555 81815 83075 00000 24000;EQDQ01  00002PRCP99
0219467380999992000081803004+24930+121300FM-12+0141RCUK V0201801N002612200019N9999999N1+03231+02631101011ADDAA199000091GA1011+004509089GA2031+075009009GF103991011011004501001011MA1999999100471MD1410001+9999REMSYN090AAXX  18034 46738 324/6 31805 10323 20263 30047 40101 54000 81101 555 . 81815 83075 00000;EQDQ01  00002PRCP99
0217467380999992000081806004+24930+121300FM-12+0141RCUK V0201801N003612200019N9999999N1+03171+02571100881ADDAA199000091GA1011+004509089GA2031+075009009GF103991011011004501001011MA1999999100341MD1710131+9999REMSYN088AAXX  18064 46738 3246/ 31807 10317 20257 30034 40088 57013 81101 555 81815 83075 00000;EQDQ01  00002PRCP99
0211467380999992000081809004+24930+121300FM-12+0141RCUK V0201801N00151030001CN0160001N1+02991+02411999999ADDAA199000091GA1031+004509089GA2051+030009039GF105991031011004501031001MA1999999100271MD1610071+9999REMSYN082AAXX  18094 46738 32466 51803 10299 20241 30027 56007 83130 555 83815 85360 00000;EQDQ01  00002PRCP99
0257467380999992000081818004+24930+121300FM-12+0141RCUK V0209999C00001090001CN0160001N1+02701+02201100951ADDAA199000091GA1021+004509089GA2031+030009039GA3051+090009009GF105991031011004501031011MA1999999100411REMSYN094AAXX  18184 46738 32466 50000 10270 20220 30041 40095 53000 83131 555 82815 83360 85080 00000;EQDQ01+000032APCTENQ02+000002APC3  Q03  00002PRCP99
0239467380999992000081821004+24930+121300FM-12+0141RCUK V0209999C00001090001CN0160001N1+02571+02101100951ADDAA199000091GA1021+004509089GA2031+030009039GA3051+090009009GF105991031011004501031011MA1999999100411MD1410001+9999REMSYN094AAXX  18214 46738 32466 50000 10257 20210 30041 40095 54000 83131 555 82815 83360 85080 00000;EQDQ01  00002PRCP99
0224467380999992000081900004+24930+121300FM-12+0141RCUK V0209999C000012200019N0180001N1+02931+02451100851ADDAA199000091GA1011+003009089GF101991011011004501001001KA1120N+02521MA1999999100311MD1610101+9999REMSYN098AAXX  19004 46738 32468 10000 10293 20245 30031 40085 56010 81100 333 20252 555 81810 00000 24000;EQDQ01  00002PRCP99
0195467380999992000081903004+24930+121300FM-12+0141RCUK V0201801N002112200019N9999999N1+03211+02481100781ADDAA199000091GA1011+003009089GF101991011011004501001001MA1999999100241MD1810071+9999REMSYN082AAXX  19034 46738 324/8 11804 10321 20248 30024 40078 58007 81100 555 81810 00000;EQDQ01  00002PRCP99
0234467380999992000081906004+24930+121300FM-12+0141RCUK V0201801N003112200019N0150001N1+03261+02501999999ADDAA199000091GA1011+003009099GA2011+003909089GF101991999021999999001001MD1710141+9999REMSYN088AAXX  19064 46738 32/65 11806 10326 20250 39010 400/4 57014 82200 555 81910 81813 00000;EQDQ01+000022SCOTLCQ02+090103APOSP Q03  00002PRCP99
0218467380999992000081909004+24930+121300FM-12+0141RCUK V0201701N002119999999N0150001N1+03021+02411100641ADDAA199000091GA1031+003609089GF105991999041004501001001MA1999999100101MD1410001+9999REMSYN089AAXX  19094 46738 32465 51704 10302 20241 30010 40064 54000 87400 555 83812 ITYRTM 00000;EQDQ01+000072SCOTLCQ02  00002PRCP99
0217467380999992000081915004+24930+121300FM-12+0141RCUK V0209999C000012200019N0110001N1+02771+02321100781ADDAA199000091GA1011+004509089GA2031+009009069GF103991031081004501001001MA1999999100241MD1410001+9999REMSYN088AAXX  19154 46738 32461 30000 10277 20232 30024 40078 54000 83800 555 81815 83630 00000;EQDQ01  00002PRCP99
0217467380999992000081918004+24930+121300FM-12+0141RCUK V0209999C000012200019N0110001N1+02671+02261100711ADDAA199000091GA1011+004509089GA2031+009009069GF103991031081999999001001MA1999999100171MD1610071+9999REMSYN088AAXX  19184 46738 32/61 30000 10267 20226 30017 40071 56007 83800 555 81815 83630 00000;EQDQ01  00002PRCP99
0195467380999992000081921004+24930+121300FM-12+0141RCUK V0209999C000012200019N0110001N1+02581+02131100681ADDAA199000091GA1011+004509089GF101991011011004501001001MA1999999100141MD1610031+9999REMSYN082AAXX  19214 46738 32461 10000 10258 20213 30014 40068 56003 81100 555 81815 00000;EQDQ01  00002PRCP99
0218467380999992000082000004+24930+121300FM-12+0141RCUK V0209999C000012200019N0160001N1+02921+02401999999ADDAA199000091GA1011+004509089GF101991011011004501001001KA1120N+02521MA1999999100131MD1410001+9999REMSYN092AAXX  20004 46738 32466 10000 10292 20240 30013 54001 81100 333 20252 555 81815 00000 24000;EQDQ01  00002PRCP99
0235467380999992000082003004+24930+121300FM-12+0141RCUK V0201101N002612200019N0180001N1+03261+02641100671ADDAA199000091GA1011+003909089GA2031+012009069GF103991031021999999001001MA1999999100131REMSYN088AAXX  20034 46738 32/68 31105 10326 20264 30013 40067 56000 83200 555 81813 83640 00000;EQDQ01+000062APCTENQ02+000002APC3  Q03  00002PRCP99
0217467380999992000082006004+24930+121300FM-12+0141RCUK V0201401N003112200019N0200001N1+03221+02631100601ADDAA199000091GA1011+003909089GA2031+012009069GF103991031021004501001001MA1999999100101MD1810031+9999REMSYN088AAXX  20064 46738 32470 31406 10322 20263 30010 4006/ 58003 83200 555 81813 83640 00000;EQDQ01  00002PRCP99
0202467380999992000082009004+24930+121300FM-12+0141RCUK V0201401N002112200019N0200001N1+03061+02601100541ADDAA199000091GA1011+003909089GF103991031021004501001001MA1999999100001MD1710101+9999REMSYN089AAXX  20094 46738 32470 31404 10306 20260 30000 40054 57010 83200 555 81813 /83630 00000;EQDQ01  00002PRCP99
0240467380999992000082012004+24930+121300FM-12+0141RCUK V0203001N001012200019N0130001N1+02871+02491100641ADDAA199000091GA1021+003609089GA2031+018009069GF103991021081004501001001KA1120M+03181MA1999999100101MD1310171+9999REMSYN098AAXX  20124 46738 32463 33002 10287 20249 30010 40064 53017 82800 333 10318 555 82812 83656 00000;EQDQ01  00002PRCP99
0195467380999992000082015004+24930+121300FM-12+0141RCUK V0203401N000512200019N0130001N1+02811+02441100681ADDAA199000091GA1011+003609089GF101991011011004501001001MA1999999100141MD1110041+9999REMSYN082AAXX  20154 46738 32463 13401 10281 20244 30014 40068 51004 81100 555 81812 00000;EQDQ01  00002PRCP99
0246467380999992000082100004+24930+121300FM-12+0141RCUK V0200301N00571075001CN0130001N1+02881+02411100711ADDAA199000091GA1021+003609089GA2051+075009009GF105991021011004501001011KA1120N+02521MA1999999100171MD1110131+9999REMSYN104AAXX  21004 46738 32463 50311 10288 20241 30017 40071 51013 82101 333 20252 555 82812 85075 00000 24000;EQDQ01  00002PRCP99
0239467380999992000082103004+24930+121300FM-12+0141RCUK V0200701N00721075001CN0110001N1+03291+99999100671ADDAA199000091GA1021+003609089GA2051+075009009GA3031+999999089GF105991031021004501001011MA1999999100131MD1610041+9999REMSYN094AAXX  21034 46738 32461 50714 10329 202/3 30013 40067 56004 83201 555 82812 8381/ 85075 00000;EQDQ01  00002PRCP99
0198467380999992000082106004+24930+121300FM-12+0141RCUK V0200601N00821075001CN0160001N1+03331+02671100471ADDAA199000091GA1051+075009009GF105991021011004501001011MA1999999099931MD1710201+9999REMSYN085AAXX  21064 46738 32466 50616 10333 20267 39993 40047 57020 82101 555 85075 00000 /9;EQDQ01  00002PRCP99
0217467380999992000082109004+24930+121300FM-12+0141RCUK V0200701N00981075001CN0160001N1+03131+02581100401ADDAA199000091GA1031+003609089GA2051+075009009GF105991031011004501001011MA1999999099861MD1610071+9999REMSYN088AAXX  21094 46738 32466 50719 10313 20258 39986 40040 56007 83101 555 83812 85075 00000;EQDQ01  00002PRCP99
0238467380999992000082115004+24930+121300FM-12+0141RCUK V0200201N00461010501CN0130001N1+02921+02401100501ADDAA199000091GA1031+003609089GA2051+010509069GA3061+036009039GF106991051081004501031001MA1999999099961MD1810041+9999REMSYN093AAXX  21154 46738 32463 60209 10292 20240 39996 40050 58004 85830 555 83812 85635 86362 0000;EQDQ01  00002PRCP99
0260467380999992000082118004+24930+121300FM-12+0141RCUK V0200201N006210090019N0130001N1+02901+99999100401ADDAA106000791AY181061AY221061GA1031+003609089GA2051+009009999GA3071+024009039GF107991051081004501031001MA1999999099861MD1710101+9999MW1801REMSYN112AAXX  21184 46738 11463 70212 10290 202/0 39986 40040 57010 69901 78082 85830 555 30222 83812 85/30 87358 00990;
0260467380999992000082121004+24930+121300FM-12+0141RCUK V0200301N00361006601CN0070001N1+02541+02301100341ADDAA100000791AY181031AY221031GA1031+002409089GA2051+006609069GA3081+015009069GF108991081081002501999999MA1999999099801MD1210061+9999MW1801REMSYN112AAXX  21214 46738 11357 80307 10254 20230 39980 40034 52006 6990/ 78082 888// 555 30222 83808 85622 88650 00990;
0262467380999992000082203004+24930+121300FM-12+0141RCUK V0200101N00771003601CN0030001N1+02471+02381099971ADDAA100022191AY181031AY261031GA1031+001209089GA2051+003609089GA3081+010509059GF108991081071001501999999MA1999999099431MD1810271+9999MW1621REMSYN114AAXX  22034 46738 11230 80115 10247 20238 39943 49997 58027 6022/ 76286 887// 555 . 30230 83804 85812 88535 00030;
0283467380999992000082212004+24930+121300FM-12+0141RCUK V0203601N01951003001CN0020001N1+02491+02441097762ADDAA112119191GA1031+001209089GA2051+003009089GA3081+009009059GF108991081071001501999999KA1120M+02911MA1999999097222MD1711262+9999REMSYN125AAXX  22124 46738 11220 83638 10249 20244 39722 49776 57126 61192 7/566 887// 333 10291 555 33654 83804 85810 88530 0012/ /9;EQDQ01+001262APC3  
0265467380999992000082215004+24930+121300FM-12+0141RCUK V0201901N01801007501CN0012001N1+02661+02561999999ADDAA100024991AY161031AY261031GA1081+007509059GF108991081071001501999999MD1510772+9999MW1611REMSYN113AAXX  22154 46738 11212 81935 10266 20256 39645 49699 55077 6025/ 76166 887// 555 32555 838039 5808. 88525 00151;EQDQ01+096453APOSP Q02+096993APOSLPQ03+000772APC3  
0237467380999992000082221004+24930+121300FM-12+0141RCUK V0201601N00931002401CN0012001N1+02621+02521099361ADDAA100059991AY161031AY261031GA1051+002409089GA2081+007509059GF108991081071001501999999MA1999999098821MD1210411+9999MW1641REMSYN105AAXX  22214 46738 11212 81618 10262 20252 39882 49936 52041 6060/ 76466 887// 555 8IPE 85808 88525 00034;
0274467380999992000082306004+24930+121300FM-12+0141RCUK V0202001N00721003001CN0020001N1+02461+02451100171ADDAA106078091AY181061GA1031+000609089GA2011+002409099GA3051+003009089GA4081+009009069GF108991081071000751999999MA1999999099631MD1310101+9999MW1951REMSYN118AAXX  23064 46738 11120 82014 10246 20245 39963 40017 53010 60781 7958/ 887// 555 32029 83802 81908 85810 88630 00114;
0271467380999992000082312004+24930+121300FM-12+0141RCUK V0209999C00001003001CN0040001N1+02451+02401999999ADDAA112106991AY161061AY261061GA1031+000909089GA2051+003009069GA3081+006009069GF108991081071001501999999KA1120M+02681MA1999999099831MD1210141+9999MW1611REMSYN110AAXX  23124 46738 11240 80000 10245 20240 39983 52014 61072 76166 887// 333 10268 555 83803 85610 88620 00143;
0254467380999992000082318004+24930+121300FM-12+0141RCUK V0209999C00001003601CN0050001N1+02451+02431100541ADDAA106037191AY161061AY261061GA1031+000909089GA2051+003609069GA3081+009009069GF108991081071001501999999MA1999999100001MD1410001+9999MW1811REMSYN106AAXX  23184 46738 11250 80000 10245 20243 30000 40054 54000 60371 78166 887// 555 83803 85612 88630 00180;
0237467380999992000082406004+24930+121300FM-12+0141RCUK V0201401N00311004501CN0040001N1+02631+02551100781ADDAY161061AY261061GA1031+001809089GA2051+004509069GA3081+009009069GF108991081071002501999999MA1999999100241MD1710131+9999MW1611REMSYN100AAXX  24064 46738 11340 81406 10263 20255 30024 40078 57013 76166 887// 555 83806 85615 88630 00270;
0254467380999992000082409004+24930+121300FM-12+0141RCUK V0203101N00051015001CN0050001N1+02521+02441100811ADDAA115999999AY161031AY261031GA1011+001809089GA2031+004809069GA3081+015009069GF108991081071002501999999MA1999999100271MD1410001+9999MW1611REMSYN106AAXX  24094 46738 11350 83101 10252 20244 30027 40081 54003 60//9 76166 887// 555 81806 83616 88650 00291;
0285467380999992000082415004+24930+121300FM-12+0141RCUK V0203101N00151036001CN0100001N1+02421+02341100951ADDAA100002091AY161031AY261031GA1011+003009089GA2031+007509069GA3051+036009039GF105991051071004501041001MA1999999100411REMSYN106AAXX  24154 46738 12460 53103 10242 20234 30041 40095 5100/ 6002/ 78366 85740 555 81810 83625 85362 00299;EQDQ01+000012APCTENQ02+000002APC3  Q03+000832PRSWM1
0211467380999992000082418004+24930+121300FM-12+0141RCUK V0203101N00151036001CN0100001N1+02401+02341100851ADDAA106002091GA1031+007509069GA2051+036009039GF105991051071004501041001MA1999999100311MD1810101+9999REMSYN101AAXX  24184 46738 12460 53103 1024/ 20234 30031 40085 58010 60021 85740 555 818 10 83625 85362 00299;
0255467380999992000082500004+24930+121300FM-12+0141RCUK V0209999C00001054001CN0140001N1+02791+02401100881ADDAA112002091GA1011+003609089GA2031+018009069GA3061+054009039GF106991031081004501031001KA1120N+02371MA1999999100301MD1210031+9999REMSYN116AAXX  25004 46738 12464 60000 10279 2024/ 3003/ 40088 52003 60022 83830 333 20237 555 81812 83656 86368 00299 24152;
0239467380999992000082503004+24930+121300FM-12+0141RCUK V0201601N00261045001CN0130001N1+02941+02601100911ADDAA199000091GA1011+003609089GA2031+009009069GA3061+045009039GF106991031081004501031001MA1999999100371MD1610031+9999REMSYN094AAXX  25034 46738 32463 61605 10294 20260 30037 40091 56003 83830 555 81812 83630 86365 00299;EQDQ01  00002PRCP99
0239467380999992000082515004+24930+121300FM-12+0141RCUK V0209999C00001036001CN0150001N1+02611+02361100851ADDAA199000091GA1011+003609089GA2031+007509069GA3071+036009039GF107991031081004501999001MA1999999100311MD1310041+9999REMSYN094AAXX  25154 46738 32465 70000 10261 20236 30031 40085 53004 838/0 555 81812 83625 87362 00299;EQDQ01  00002PRCP99
0239467380999992000082518004+24930+121300FM-12+0141RCUK V02099999999990360019N0150001N1+02511+02331100841ADDAA199000091GA1011+003609089GA2031+007509069GA3071+036009039GF107991031081004501031001MA1999999100301MD1410001+9999REMSYN094AAXX  25184 46738 32465 7000/ 10251 20233 30030 40084 54001 83830 555 81812 83625 87362 00299;EQDQ01  00002PRCP99
0240467380999992000082600004+24930+121300FM-12+0141RCUK V0209999C00001045001CN0150001N1+02711+02321999999ADDAA199000091GA1011+004509089GA2061+045009039GF106991021011004501031001KA1120N+02371MA1999999100201MD1610101+9999REMSYN098AAXX  26004 46738 32465 60000 10271 20232 30020 56010 82130 333 20237 555 81815 86365 00299 24152;EQDQ01  00002PRCP99
0239467380999992000082603004+24930+121300FM-12+0141RCUK V0201701N00211045001CN0150001N1+03041+02541100741ADDAA199000091GA1011+004509089GA2031+007509069GA3061+045009039GF106991031021004501051001MA1999999100201MD1410001+9999REMSYN094AAXX  26034 46738 32465 61704 10304 20254 30020 40074 54000 83250 555 81815 83625 86365 00299;EQDQ01  00002PRCP99
0276467380999992000082609004+24930+121300FM-12+0141RCUK V0201901N00101004201CN0120001N1+02811+02551100541ADDAA100002091AY161031AY221031GA1011+001809089GA2011+003609099GA3031+004209069GA4071+018009069GF107991071051002501001001MA1999999100001MD1510041+9999MW1031REMSYN112AAXX  26094 46738 12362 71902 10281 20255 30000 40054 55004 6002/ 70362 87500 555 81806 81912 83614 87656 00301;
0235467380999992000082700004+24930+121300FM-12+0141RCUK V0200201N003619999999N0150001N1+02751+02361100611ADDAA199000091GA1011+003609089GF105991011011004501999011KA1120N+02371MA1999999100071MD1210031+9999REMSYN109AAXX  27004 46738 32465 50207 10275 20236 30007 40061 52003 811/1 333 20237 555 81812 IEXW 85075 00301 24152;EQDQ01  00002PRCP99
0299467380999992000082712004+24930+121300FM-12+0141RCUK V0209999C00001003001CN0060001N1+02601+02461100611ADDAA112002091AY181061AY221061GA1021+001509099GA2031+003009089GA3051+004809069GA4071+024009039GF107991051081001501031001KA1120M+03201MA1999999100071MD1210071+9999MW1161REMSYN122AAXX  27124 46738 11256 70000 10260 20246 30007 40061 52007 60022 71682 85830 333 10320 555 82905 83810 85616 87358 00303;
0248467380999992000082715004+24930+121300FM-12+0141RCUK V0209999C00001005401CN0010001N1+02521+02311999999ADDAA100000791AY121031AY221031GA1021+002409089GA2031+005409069GA3051+008409069GF105991051081002501001001MA1999999100001MD1810031+9999MW1021REMSYN100AAXX  27154 46738 12310 50000 10252 20231 3000/ 58003 6990/ 70222 85800 555 82808 83618 85628 00303;
0229467380999992000082721004+24930+121300FM-12+0141RCUK V0203401N00101007501CN0120001N1+02381+02201100341ADDAA100000791GA1021+002409089GA2031+007509069GA3051+024009049GF105991031071002501021001MA1999999099801MD1610031+9999REMSYN103AAXX  27214 46738 12362 53402 10238 20220 39980 40034 56003 6990/ 83720 555 82808 83625 85458 00303 /9;
0223467380999992000082800004+24930+121300FM-12+0141RCUK V0202901N00151075001CN0160001N1+02741+02321100341ADDAA112000791GA1051+075009009GF105991011011004501031011KA1120N+02371MA1999999099801MD1010001+9999REMSYN116AAXX  28004 46738 12466 52903 10274 20232 39980 40034 50000 69902 81131 333 20237 555 IQIQWM IEQW 85075 00303 24152;
0239467380999992000082803004+24930+121300FM-12+0141RCUK V0201301N00151075001CN0160001N1+03061+02531100301ADDAA199000091GA1011+004509089GA2031+045009039GA3051+075009009GF105991011011004501031011MA1999999099761MD1610041+9999REMSYN094AAXX  28034 46738 32466 51303 10306 20253 39976 40030 56004 81131 555 81815 83365 85075 00303;EQDQ01  00002PRCP99
0240467380999992000082812004+24930+121300FM-12+0141RCUK V0203101N00151012001CN0010001N1+02831+02401099901ADDAA199000091GA1051+012009069GA2071+018009069GF107991071081004501001001MA1999999099361MD1514002+9999REMSYN095AAXX  28124 46738 32410 73103 10283 20240 39936 49990 55400 87800 555 IWIQEM 85640 87656 00303;EQDQ01+004002APC3  Q02  00002PRCP99
0239467380999992000082821004+24930+121300FM-12+0141RCUK V0203201N00261012001CN0100001N1+02541+02301099591ADDAA199000091GA1021+003909089GA2051+012009069GA3071+999999069GF107991071081004501001001MA1999999099051MD1710141+9999REMSYN094AAXX  28214 46738 32460 73205 10254 20230 39905 49959 57014 87800 555 82813 85640 87651 00303;EQDQ01  00002PRCP99
0286467380999992000082900004+24930+121300FM-12+0141RCUK V0209999C00001075001CN0130001N1+02781+02341099591ADDAA199000091GA1021+003909089GA2031+030009039GA3071+075009009GF107991011011004501031011KA1120N+02371MA1999999099051REMSYN110AAXX  29004 46738 32463 70000 10278 20234 39905 49959 56000 81131 333 20237 555 82813 83360 87075 00303 24152;EQDQ01+000062APCTENQ02+000002APC3  Q03  00002PRCP99
0267467380999992000082906004+24930+121300FM-12+0141RCUK V0201901N00411010501CN0090001N1+99999+99999099191ADDAA199000091AY121061AY221061GA1021+003009089GA2031+010509069GA3071+030009039GF107991031021004501031001MA1999999098651MD1710371+9999MW1051REMSYN100AAXX  29064 46738 31459 71908 10/14 20258 39865 49919 57037 70522 83230 555 82810 83635 87360 00303;EQDQ01  00002PRCP99
0267467380999992000082909004+24930+121300FM-12+0141RCUK V0209999C00001018001CN0090001N1+03031+02541099151ADDAA199000091AY121031AY221031GA1021+002409089GA2051+018009069GA3081+036009049GF108991051021002501011001MA1999999098611MD1110041+9999MW1051REMSYN100AAXX  29094 46738 31359 80000 10303 20254 39861 49915 51004 70522 85210 555 82808 85656 88462 00303;EQDQ01  00002PRCP99
0312467380999992000082912004+24930+121300FM-12+0141RCUK V0202801N00151015001CN0110001N1+02831+02401099151ADDAA199000091AY121061AY221061GA1021+001809089GA2011+004509099GA3051+015009069GA4081+024009039GF108991051021002501031999KA1120M+03201MA1999999098611MD1410001+9999MW1171REMSYN116AAXX  29124 46738 31361 82803 10283 20240 39861 49915 54000 71722 8523/ 333 10320 555 82806 81915 85650 88358 00303;EQDQ01  00002PRCP99
0241467380999992000082915004+24930+121300FM-12+0141RCUK V0203601N00211012001CN9999999N1+02761+02401099221ADDAA100000791AY131031GA1021+001809089GA2051+012009069GA3081+024009039GF108991999999002501999999MA1999999098681MD1210071+9999MW1521REMSYN101AAXX  29154 46738 1231/ 83604 10276 20240 39868 49922 52007 6990/ 7523/ 555 /82806 85640 88358 00303;
0226467380999992000082918004+24930+121300FM-12+0141RCUK V0209999C00001012001CN0110001N1+02631+02401099221ADDAA106000791GA1021+001809089GA2051+012009069GA3081+024009039GF108991051021002501031999MA1999999098681MD1410001+9999REMSYN100AAXX  29184 46738 12361 80000 10263 20240 39868 49922 54000 69901 8523/ 555 82806 85640 88358 00303;
0255467380999992000083000004+24930+121300FM-12+0141RCUK V0200301N00101075001CN0150001N1+02891+02481099361ADDAA112000791GA1011+003609089GA2031+024009039GA3061+075009009GF106991011011004501031011KA1120N+02371MA1999999098821MD1310141+9999REMSYN116AAXX  30004 46738 12465 60302 10289 20248 39882 49936 53014 69902 81131 333 20237 555 81812 83358 86075 00303 24152;
0200467380999992000083006004+24930+121300FM-12+0141RCUK V0202101N007712200019N0140001N1+03311+02711099531ADDAA199000091GA1011+003009089GF107991011011004501001011REMSYN084AAXX  30064 46738 32464 72115 10331 20271 49953 5100/ 81101 555 81810 O 87075 00303;EQDQ01+000012APCTENQ02+000002APC3  Q03  00002PRCP99
0268467380999992000083012004+24930+121300FM-12+0141RCUK V0202101N00571060001CN0160001N1+02851+02341099801ADDAA199000091GA1011+002409089GA2031+018009069GA3061+060009009GF106991031021002501001011KA1120M+03431MA1999999099261MD1210241+9999REMSYN110AAXX  30124 46738 32366 62111 10285 20234 39926 49980 52024 83201 333 10343 555 31925 81808 83656 86070 00303;EQDQ01  00002PRCP99
0223467380999992000083015004+24930+121300FM-12+0141RCUK V0202001N00621060001CN0140001N1+02761+02421100001ADDAA199000091GA1011+002409089GA2061+060009009GF106991011011002501001011MA1999999099461MD1310201+9999REMSYN094AAXX  30154 46738 32364 62012 10276 20242 39946 40000 53020 81101 555 31925 81808 86070 00303;EQDQ01  00002PRCP99
0208467380999992000083018004+24930+121300FM-12+0141RCUK V0202301N00621060001CN0140001N1+02771+02321100031ADDAA199000091GA1061+060009009GF106991011011002501001011MA1999999099491MD1310031+9999REMSYN095AAXX  30184 46738 32364 62312 10277 20232 39949 40003 53003 81101 555 31925 818 08 86070 00303;EQDQ01  00002PRCP99
0223467380999992000083021004+24930+121300FM-12+0141RCUK V0202301N00411060001CN0140001N1+02701+02321100101ADDAA199000091GA1011+002409089GA2061+060009009GF106991011011002501001011MA1999999099561MD1210071+9999REMSYN094AAXX  30214 46738 32364 62308 10270 20232 39956 40010 52007 81101 555 31925 81808 86070 00303;EQDQ01  00002PRCP99
0245467380999992000083103004+24930+121300FM-12+0141RCUK V0201901N00721045001CN0150001N1+03151+02701100371ADDAA199000091GA1011+003609089GA2031+018009069GA3051+045009039GF105991031021004501031001MA1999999099831MD1310131+9999REMSYN100AAXX  31034 46738 32465 51914 10315 20270 39983 40037 53013 83230 555 31924 81812 83656 85365 00303;EQDQ01  00002PRCP99
0167467380999992000083106004+24930+121300FM-12+0141RCUK V0201901N006210360019N0110001N1+03121+02721100341ADDAA199000091GF105991031021004501031001MA1999999099801MD1710031+9999REMSYN070AAXX  31064 46738 32461 51912 10312 20272 39980 40034 57003 83230 555;EQDQ01  00002PRCP99
0245467380999992000083109004+24930+121300FM-12+0141RCUK V0202001N00571060001CN0120001N1+02911+02581100411ADDAA199000091GA1011+003609089GA2031+009009069GA3051+060009019GF105991031021004501001011MA1999999099871MD1210071+9999REMSYN100AAXX  31094 46738 32462 52011 10291 20258 39987 40041 52007 83201 555 31922 81812 83630 85170 00303;EQDQ01  00002PRCP99
0292467380999992000083112004+24930+121300FM-12+0141RCUK V0202401N00151007501CN0090001N1+02711+02311100611ADDAA112000791AY121061AY221061GA1011+003009099GA2021+003009089GA3051+007509069GA4061+024009039GF106991051031004501011001MA1999999100071MD1210201+9999MW1151REMSYN128AAXX  31124 46738 11459 62403 10271 20231 30007 40061 52020 69902 71522 85310 333 10/43 555 31922 82810 81910 85625 86358 00303;
0260467380999992000083115004+24930+121300FM-12+0141RCUK V0209999C00001007501CN0100001N1+02681+02321100711ADDAA100000591AY121031AY221031GA1021+002409089GA2051+007509069GA3061+024009039GF106991051999002501011001MA1999999100171MD1110101+9999MW1251REMSYN112AAXX  31154 46738 12360 60000 10268 20232 30017 40071 51010 6995/ 72522 85/10 555 31922 82808 85625 86358 00304;
0238467380999992000083118004+24930+121300FM-12+0141RCUK V0202901N00101007501CN0010001N1+02671+02301100611ADDAA106000591AY121061AY221061GA1021+002409089GA2051+007509069GA3061+024009039GF106991051031002501011001MD1710101+9999MW1251REMSYN105AAXX  31184 46738 12310 62902 10267 20230 40061 57010 69951 72522 85310 555 QOWW 82808 85625 86358 00304;
0255467380999992000090100004+24930+121300FM-12+0141RCUK V0201801N00261075001CN0180001N1+02921+02451100741ADDAA112000591GA1011+003609089GA2031+024009039GA3051+075009009GF105991011011004501031011KA1120N+02371MA1999999100201MD1310131+9999REMSYN116AAXX  01004 46738 12468 51805 10292 20245 30020 40074 53013 69952 81131 333 20237 555 81812 83358 85075 00304 24152;
0220467380999992000090103004+24930+121300FM-12+0141RCUK V0201901N00461012001CN0150001N1+03121+02551100841ADDAA199000021GA1031+002409089GA2011+003609099GA3051+012009069GF105991051091002501001001MA1999999100301MD1110101+9999REMSYN094AAXX  01034 46738 32365 51909 10312 20255 30030 40084 51010 85900 555 83808 81912 85640 00304;
0220467380999992000090106004+24930+121300FM-12+0141RCUK V0201701N00361075001CN0150001N1+03121+02661100741ADDAA199000021GA1031+001809089GA2011+003609099GA3051+075009009GF105991031091002501001011MA1999999100201MD1610101+9999REMSYN094AAXX  01064 46738 32365 51707 10312 20266 30020 40074 56010 83901 555 83806 81912 85075 00304;
0248467380999992000090115004+24930+121300FM-12+0141RCUK V0203101N00211005401CN0100001N1+02781+02481100841ADDAA100000791GA1021+002409089GA2011+003609099GA3041+005409069GA4061+013509069GF106991061091002501001001MA1999999100301MD1110061+9999REMSYN106AAXX  01154 46738 12360 63104 10278 20248 30030 40084 51006 6990/ 86900 555 82808 81912 84618 86645 00304;
0204467380999992000090118004+24930+121300FM-12+0141RCUK V0203401N001512200019N0100001N1+02701+02451100711ADDAA106000791GA1011+003009089GA2031+024009039GF103991011011004501031001MA1999999100171MD1710131+9999REMSYN094AAXX  01184 46738 12460 33403 10270 20245 30017 40071 57013 69901 81130 555 81810 83358 00000;
0204467380999992000090121004+24930+121300FM-12+0141RCUK V0203201N001512200019N0100001N1+02621+02421100711ADDAA100000791GA1011+003009089GA2031+018009069GF103991031081004501001001MA1999999100171MD1410001+9999REMSYN094AAXX  01214 46738 12460 33203 10262 20242 30017 40071 54000 6990/ 83800 555 81810 83656 00000;
0252467380999992000090200004+24930+121300FM-12+0141RCUK V0209999V00051090001CN9999999N1+02881+02501100741ADDAA112000791GA1011+004509089GA2051+090009009GF105991011011012501001999KA1120N+02621MA1999999100201MD1310031+9999REMSYN110AAXX  02004 46738 1265/ 59901 10288 20250 30020 40074 53003 69902 81100 333 20262 555 81815 85080 00000 24000;EQDQ01+000002SCOHCG
0220467380999992000090203004+24930+121300FM-12+0141RCUK V0201201N003119999999N0150001N1+03231+02561100741ADDAA199000091GA1031+003909089GF105991031011004501001001MA1999999100201REMSYN089AAXX  02034 46738 32465 51206 10323 20256 30020 40074 58000 83100 555 83813 885080 00000;EQDQ01+000082APCTENQ02+000002APC3  Q03  00002PRCP99
0257467380999992000090209004+24930+121300FM-12+0141RCUK V0200601N00211008401CN0120001N1+02981+02451100641ADDAA199000091GA1031+003609089GA2051+008409069GA3071+015009069GF107991071041004501001001MA1999999100101REMSYN094AAXX  02094 46738 32462 70604 10298 20245 30010 40064 53000 87400 555 83812 85628 87650 00000;EQDQ01+000032APCTENQ02+000002APC3  Q03  00002PRCP99
0237467380999992000090212004+24930+121300FM-12+0141RCUK V0203201N00211006601CN0120001N1+02721+02401100711ADDGA1031+003009089GA2051+006609069GA3071+015009069GF107991999999004501999999KA1120M+03281MA1999999100171MD1210071+9999REMSYN109AAXX  02124 46738 12462 73204 10272 20240 30017 40071 52007 6902 87400 333 10328 555 83810 85622 87650 00990;
0223467380999992000090215004+24930+121300FM-12+0141RCUK V0209999C000012200019N0120001N1+02731+02421100711ADDAA100000791GA1011+003009089GA2031+007509069GF103991031041004501001001MA1999999100171MD1410001+9999REMSYN094AAXX  02154 46738 12462 30000 10273 20242 30017 40071 58000 6990/ 83400 555 81810 83625 00991;EQDQ01+000082APCTEN
0206467380999992000090218004+24930+121300FM-12+0141RCUK V0209999C000012200019N0120001N1+02701+02401100641ADDAA106000791GA1011+003009089GA2031+007509069GF103991031041004501001001MA1999999100101MD1810071+9999REMSYN096AAXX  02184 46738 12462 30000 10270 20240 30010 40064 58007 69901 83400 555 81810 83625 000000 ;
0283467380999992000090300004+24930+121300FM-12+0141RCUK V0209999C00001009001CN0120001N1+02681+02531100811ADDAA112007191AY121061AY221061GA1031+002409089GA2051+009009069GA3071+018009069GF107991071041002501001001KA1120N+02511MA1999999100271MD1110131+9999MW1251REMSYN122AAXX  03004 46738 12362 70000 10268 20253 30027 40081 51013 60072 72522 87400 333 20251 555 83808 85630 87656 00007 24991;
0182467380999992000090303004+24930+121300FM-12+0141RCUK V0201001N004112200019N0160001N1+03101+02621100741ADDAA100000791GA1021+004509089GF102991011011004501001001MA1999999100201MD1510071+9999REMSYN088AAXX  03034 46738 12466 21008 10310 20262 30020 40074 55007 6990/ 81100 555 82815 00007;
0204467380999992000090306004+24930+121300FM-12+0141RCUK V0200901N003612200019N0160001N1+03061+02621100711ADDAA106000791GA1021+003609089GA2031+006009069GF103991031031004501001001MA1999999100171MD1810031+9999REMSYN094AAXX  03064 46738 12466 30907 10306 20262 30017 40071 58003 69901 83300 555 82812 83620 00000;
0226467380999992000090309004+24930+121300FM-12+0141RCUK V0201201N002112200019N0160001N1+02911+02501100681ADDAA100000791GA1021+003009089GA2011+004209099GA3031+006009069GF103991031031004501001001MA1999999100141MD1610031+9999REMSYN100AAXX  03094 46738 12466 31204 10291 20250 30014 40068 56003 6990/ 83300 555 82810 81914 83620 00007;
0227467380999992000090312004+24930+121300FM-12+0141RCUK V0200201N00101013501CN0110001N1+02881+02471100741ADDAA112000791GA1021+003009089GA2061+013509069GF106991061081004501001001KA1120M+03141MA1999999100201MD1110061+9999REMSYN104AAXX  03124 46738 12461 60202 10288 20247 30020 40074 51006 69902 86800 333 10314 555 82810 86645 00007;
0217467380999992000090318004+24930+121300FM-12+0141RCUK V0203101N00261018001CN0110001N1+02701+02411100781ADDAA199000091GA1011+003609089GA2051+018009069GF105991051081004501001001MA1999999100241MD1710101+9999REMSYN088AAXX  03184 46738 32461 53105 10270 20241 30024 40078 57010 85800 555 81812 85656 00000;EQDQ01  00002PRCP99
0217467380999992000090321004+24930+121300FM-12+0141RCUK V0203401N00101018001CN0120001N1+02681+02351100711ADDAA199000091GA1011+003609089GA2061+018009069GF106991061081004501001001MA1999999100171MD1810071+9999REMSYN088AAXX  03214 46738 32462 63402 10268 20235 30017 40071 58007 86800 555 81812 86656 00000;EQDQ01  00002PRCP99
0246467380999992000090400004+24930+121300FM-12+0141RCUK V0200201N00261075001CN0160001N1+02861+02561100711ADDAA199000091GA1011+003609089GA2061+075009009GF106991011011004501001011KA1120N+02621MA1999999100171MD1410001+9999REMSYN104AAXX  04004 46738 32466 60205 10286 20256 30017 40071 54000 81101 333 20262 555 81812 86075 00000 24000;EQDQ01  00002PRCP99
0246467380999992000090800004+24930+121300FM-12+0141RCUK V0200201N001512200019N0180001N1+02741+02271100851ADDAA199000091GA1011+004509089GA2031+024009039GF103991011011004501031001KA1120N+02441MA1999999100311MD1110071+9999REMSYN104AAXX  08004 46738 32468 30203 10274 20227 30031 40085 51007 81130 333 20244 555 81815 83358 00000 24990;EQDQ01  00002PRCP99
0195467380999992000090803004+24930+121300FM-12+0141RCUK V0200801N004612200019N0150001N1+03121+02391100811ADDAA199000091GA1011+004809089GF101991011011004501001001MA1999999100271MD1610041+9999REMSYN082AAXX  08034 46738 32465 10809 10312 20239 30027 40081 56004 81100 555 81816 00000;EQDQ01  00002PRCP99
0245467380999992000090806004+24930+121300FM-12+0141RCUK V0200601N00511021001CN0045001N1+03131+02481100711ADDAA199000091AY111061AY221061GA1011+004209089GA2051+021009039GF105991011011004501031001MA1999999100171MD1810101+9999MW1051REMSYN094AAXX  08064 46738 31445 50610 10313 20248 30017 40071 58010 70512 81130 555 81814 85357 00000;EQDQ01  00002PRCP99
0267467380999992000090809004+24930+121300FM-12+0141RCUK V0200701N00361018001CN0070001N1+02861+02371100671ADDAA199000091AY121031AY221031GA1011+003609089GA2041+010509069GA3071+018009069GF107991071081004501001001MA1999999100131MD1610041+9999MW1051REMSYN100AAXX  08094 46738 31457 70707 10286 20237 30013 40067 56004 70522 87800 555 81812 84635 87656 00000;EQDQ01  00002PRCP99
0277467380999992000090812004+24930+121300FM-12+0141RCUK V0203501N00151007501CN0100001N1+02751+02431100851ADDAA112000791AY161061AY221061GA1021+003009089GA2051+007509069GA3081+015009069GF108991081081004501999999KA1120M+03181MA1999999100311MD1210181+9999MW1021REMSYN116AAXX  08124 46738 12460 83503 10275 20243 30031 40085 52018 69902 70262 888// 333 10318 555 82810 85625 88650 00990;
0254467380999992000090818004+24930+121300FM-12+0141RCUK V0202701N00361006601CN0060001N1+02621+02411100711ADDAA106000791AY121061AY221061GA1021+003009089GA2051+006609069GA3071+024009059GF107991051081004501031001MA1999999100171MD1610141+9999MW1101REMSYN106AAXX  08184 46738 11456 72707 10262 20241 30017 40071 56014 69901 71022 85830 555 82810 85622 87558 00990;
0267467380999992000090909004+24930+121300FM-12+0141RCUK V0201201N00211004801CN0040001N1+02901+02501100301ADDAA199000091AY121031AY221031GA1031+002409099GA2051+004809069GA3071+018009069GF107991051081002501001001MA1999999099761MD1710111+9999MW1161REMSYN100AAXX  09094 46738 31340 71204 10290 20250 39976 40030 57011 71622 85800 555 83908 85616 87656 00990;EQDQ01  00002PRCP99
0290467380999992000090912004+24930+121300FM-12+0141RCUK V0203601N00261004501CN0050001N1+02821+02541100371ADDAA199000091AY121061AY221061GA1031+001809089GA2051+004509069GA3071+013509069GF107991071081008001001001KA1120M+03101MA1999999099831MD1110071+9999MW1051REMSYN110AAXX  09124 46738 31550 73605 10282 20254 39983 40037 51007 70522 87800 333 10310 555 83806 85615 87645 00990;EQDQ01  00002PRCP99
0218467380999992000090918004+24930+121300FM-12+0141RCUK V0203101N00311005401CN0100001N1+02611+02381100171ADDAA199000091GA1021+002409089GA2051+005409069GA3081+013509069GF108991081081002501999999MD1710201+9999REMSYN088AAXX  09184 46738 32360 83106 10261 20238 40017 57020 888// 555 82808 85618 88645 00000;EQDQ01  00002PRCP99
0302467380999992000091000004+24930+121300FM-12+0141RCUK V0203301N00211004801CN0060001N1+02841+02521100171ADDAA199000091AY121061AY221061GA1021+003009079GA2051+004809069GA3081+018009069GF108991081061004501999999KA1120N+02501MA1999999099631MD1110071+9999MW1101REMSYN122AAXX  10004 46738 31456 83304 10284 20252 39963 40017 51007 71022 886// 333 20250 555 30344 82710 85616 88656 00000 24000;EQDQ01  00002PRCP99
0239467380999992000091003004+24930+121300FM-12+0141RCUK V0200301N00461006601CN0050001N1+02811+02631100201ADDAA100000791AY161031AY221031GA1031+003009089GA2051+006609069GF108991081071004501999999MA1999999099661MD1310031+9999MW1601REMSYN107AAXX  10034 46738 11450 80309 10281 20263 39966 40020 53003 6990/ 76062 887// 555 83810 85622 868650 00990;
0267467380999992000091015004+24930+121300FM-12+0141RCUK V0200401N002112200019N0100001N1+02701+02421100301ADDAA199000021AY121031AY221031GA1021+003909089GA2031+024009039GF103991999031004501999001MA1999999099761MD1010101+9999MW1051REMSYN100AAXX  10154 46738 32460 30404 10270 20242 39976 40030 50010 70522 84300 555 30122 82813 83358 00991;EQDQ01+000042SCOTLCQ02+000002SCOMCG
0255467380999992000091018004+24930+121300FM-12+0141RCUK V0200601N001012200019N0100001N1+02611+02321100201ADDAA199000091GA1021+003909089GA2031+024009039GF103991999031004501999001MA1999999099661MD1010101+9999REMSYN094AAXX  10184 46738 32460 30602 10261 20232 39966 40020 50010 84300 555 30122 82813 83358 00000;EQDQ01+000042SCOTLCQ02+000002SCOMCGQ03  00002PRCP99
0239467380999992000091106004+24930+121300FM-12+0141RCUK V0200901N00571004801CN0100001N1+02941+02481100141ADDAA199000091GA1021+002409089GA2041+004809069GA3071+010509069GF107991071081002501001001MA1999999099601MD1810131+9999REMSYN094AAXX  11064 46738 32360 70911 10294 20248 39960 40014 58013 87800 555 82808 84616 87635 00000;EQDQ01  00002PRCP99
0254467380999992000091109004+24930+121300FM-12+0141RCUK V0202501N00261005401CN0070001N1+02771+02461100101ADDAA100000791AY161031AY221031GA1021+002409089GA2051+005409069GA3071+015009069GF107991071081002501001001MA1999999099561MD1310041+9999MW1601REMSYN106AAXX  11094 46738 11357 72505 10277 20246 39956 40010 53004 6990/ 76062 87800 555 82808 85618 87650 00990;
0254467380999992000091115004+24930+121300FM-12+0141RCUK V0209999C00001004801CN0070001N1+02721+02511100341ADDAA100000391AY161031AY221031GA1031+002409089GA2051+004809069GA3081+015009069GF108991081071002501999999MA1999999099801MD1110071+9999MW1601REMSYN106AAXX  11154 46738 11357 80000 10272 20251 39980 40034 51007 6993/ 76062 887// 555 83808 85616 88650 00001;
0254467380999992000091121004+24930+121300FM-12+0141RCUK V0209999C00001004801CN0070001N1+02661+02531100201ADDAA100000391AY161031AY261031GA1031+002409089GA2051+004809069GA3081+015009069GF108991081071002501999999MA1999999099661MD1610071+9999MW1601REMSYN106AAXX  11214 46738 11357 80000 10266 20253 39966 40020 56007 6993/ 76066 887// 555 83808 85616 88650 00990;
0248467380999992000091203004+24930+121300FM-12+0141RCUK V0201701N00511007501CN0090001N1+02901+02391100201ADDAA199000021AY121031AY221031GA1031+002409089GA2051+007509069GA3071+018009069GF107991071081002501001001MA1999999099661MD1110031+9999MW1051REMSYN100AAXX  12034 46738 31359 71710 10290 20239 39966 40020 51003 70522 87800 555 83808 85625 87656 00991;
0248467380999992000091206004+24930+121300FM-12+0141RCUK V0201401N00411004801CN0060001N1+02881+02501100061ADDAA199000021AY121061AY221061GA1031+002409089GA2051+004809069GA3071+013509069GF107991071081002501001001MA1999999099521MD1610141+9999MW1151REMSYN100AAXX  12064 46738 31356 71408 10288 20250 39952 40006 56014 71522 87800 555 83808 85616 87645 00991;
0254467380999992000091209004+24930+121300FM-12+0141RCUK V0209999C00001004201CN0035001N1+02641+02421100031ADDAA100004191AY161031AY221031GA1031+001809089GA2051+004209069GA3081+013509069GF108991081071002501999999MA1999999099491MD1610031+9999MW1601REMSYN106AAXX  12094 46738 11335 80000 10264 20242 39949 40003 56003 6004/ 76062 887// 555 83806 85614 88645 00004;
0277467380999992000091212004+24930+121300FM-12+0141RCUK V0203001N00211004501CN0100001N1+02551+02311100071ADDAA112005191AY161061AY201061GA1031+001809089GA2051+004509069GA3081+013509069GF108991081071002501999999KA1120M+02971MA1999999099531MD1210041+9999MW1021REMSYN116AAXX  12124 46738 12360 83004 10255 20231 39953 40007 52004 60052 70260 887// 333 10297 555 83806 85615 88645 00005;
0220467380999992000091215004+24930+121300FM-12+0141RCUK V0203101N00101004501CN0090001N1+02531+02281100071ADDAA199000021GA1031+001809089GA2051+004509069GA3081+012009069GF108991081071002501999999MA1999999099531MD1010001+9999REMSYN094AAXX  12154 46738 31359 83102 10253 20228 39953 40007 50000 887// 555 83806 85615 88640 00005;
0248467380999992000091218004+24930+121300FM-12+0141RCUK V0202201N00261004501CN0090001N1+02571+02301100001ADDAA199000021AY121061AY221061GA1031+001809089GA2051+004509069GA3081+012009069GF108991081071002501999999MA1999999099461MD1810071+9999MW1101REMSYN100AAXX  12184 46738 31359 82205 10257 20230 39946 40000 58007 71022 887// 555 83806 85615 88640 00000;
0181467380999992000091303004+24930+121300FM-12+0141RCUK V0201301N002112200019N0110001N1+02961+99999099901ADDAA199000091GA1021+003609089GF102991021011004501001001MA1999999099361REMSYN082AAXX  13034 46738 32461 21304 10296 202/2 39936 49990 5/003 82100 555 82812 00000;EQDQ01  00002PRCP99
0239467380999992000091309004+24930+121300FM-12+0141RCUK V0202001N001512200019N0070001N1+02861+02321999999ADDAA199000091AY121031AY211031GA1021+003609089GA2031+015009069GF103991031081004501001001MA1999999099221MD1510001+9999MW1051REMSYN088AAXX  13094 46738 31457 32003 10286 20232 39922 55000 70521 83800 555 82812 83650 00000;EQDQ01  00002PRCP99
0281467380999992000091312004+24930+121300FM-12+0141RCUK V0202301N00211003601CN0040001N1+02631+02471099931ADDAA112008991AY161061AY221061GA1031+001509089GA2051+003609089GA3081+012009069GF108991081071001501999999KA1120M+03081MA1999999099391MD1110171+9999MW1621REMSYN120AAXX  13124 46738 11240 82304 10263 20247 39939 49993 51017 60092 76262 887// 333 10308 555 .83805 85812 88640 00009 /9;
0248467380999992000091321004+24930+121300FM-12+0141RCUK V0209999C00001005401CN0060001N1+02521+02351999999ADDAA100000391AY161031AY261031GA1031+003009089GA2051+005409089GA3071+015009069GF107991071071004501001001MA1999999099221MD1610101+9999MW1601REMSYN100AAXX  13214 46738 11456 70000 10252 20235 39922 56010 6993/ 76066 87700 555 83810 85818 87650 00990;
0261467380999992000091400004+24930+121300FM-12+0141RCUK V0203101N00101054001CN0060001N1+02701+02441099731ADDAA112000391AY121061AY221061GA1011+004509089GA2061+054009009GF106991011011004501001011KA1120N+02481MA1999999099191MD1510031+9999MW1101REMSYN116AAXX  14004 46738 11456 63102 10270 20244 39919 49973 55003 69932 71022 81101 333 20248 555 81815 86068 00990 24009;
0205467380999992000091403004+24930+121300FM-12+0141RCUK V0201601N00261060001CN0050001N1+03051+02691099701ADDAA199000021AY121031AY221031GA1011+004209089GA2061+060009009GF106991011011004501001011MD1810031+9999MW1101REMSYN088AAXX  14034 46738 31450 61605 10305 20269 49970 58003 71022 81101 555 81814 86070 00990;
0226467380999992000091409004+24930+121300FM-12+0141RCUK V0201001N00101075001CN0060001N1+02981+02531099591ADDAA199000021AY121031AY221031GA1011+004209089GA2051+075009009GF105991011011004501001011MA1999999099051MD1310061+9999MW1051REMSYN094AAXX  14094 46738 31456 51002 10298 20253 39905 49959 53006 70522 81101 555 81814 85075 00990;
0275467380999992000091412004+24930+121300FM-12+0141RCUK V0200601N00151075001CN0060001N1+02791+02521099831ADDAA199000091AY121061AY221061GA1031+009009069GA2051+075009009GF105991031021004501001011KA1120M+03121MA1999999099291MD1210241+9999MW1101REMSYN111AAXX  14124 46738 31456 50603 10279 20252 39929 49983 52024 71022 83201 333 10312 555 MIQIQW 83630 85075 00990;EQDQ01  00002PRCP99
0267467380999992000091415004+24930+121300FM-12+0141RCUK V0202601N00101075001CN0060001N1+02741+02581099931ADDAA199000091AY121031AY221031GA1011+003009089GA2031+006009069GA3051+075009009GF105991031021004501001011MA1999999099391MD1110101+9999MW1101REMSYN100AAXX  14154 46738 31456 52602 10274 20258 39939 49993 51010 71022 83201 555 81810 83620 85075 00990;EQDQ01  00002PRCP99
0267467380999992000091418004+24930+121300FM-12+0141RCUK V0200601N00151075001CN0060001N1+02561+02501099931ADDAA199000091AY121061AY221061GA1011+002409089GA2031+006009069GA3051+075009009GF105991031021002501001011MA1999999099391MD1410001+9999MW1101REMSYN100AAXX  14184 46738 31356 50603 10256 20250 39939 49993 54000 71022 83201 555 81808 83620 85075 00000;EQDQ01  00002PRCP99
0296467380999992000091500004+24930+121300FM-12+0141RCUK V0200501N00311008401CN0060001N1+02581+02411100031ADDAA199000091AY121061AY221061GA1021+003009089GA2051+008409069GA3071+015009069GF107991071041004501001001KA1120N+02491MA1999999099491MD1310201+9999MW1101REMSYN116AAXX  15004 46738 31456 70506 10258 20241 39949 40003 53020 71022 87400 333 20249 555 82810 85628 87650 00000 24990;EQDQ01  00002PRCP99
0267467380999992000091503004+24930+121300FM-12+0141RCUK V0200501N00511018001CN0080001N1+02901+02641100141ADDAA199000091AY121031AY221031GA1011+003009089GA2031+012009069GA3051+018009069GF105991051041004501001001MA1999999099601MD1110111+9999MW1101REMSYN100AAXX  15034 46738 31458 50510 10290 20264 39960 40014 51011 71022 85400 555 81810 83640 85656 00000;EQDQ01  00002PRCP99
0267467380999992000091506004+24930+121300FM-12+0141RCUK V0200701N00411012001CN0080001N1+02941+02551100071ADDAA199000091AY121061AY221061GA1031+003609089GA2051+012009999GA3071+018009069GF107991071041004501001001MA1999999099531MD1710071+9999MW1101REMSYN100AAXX  15064 46738 31458 70708 10294 20255 39953 40007 57007 71022 87400 555 83812 85/40 87656 00000;EQDQ01  00002PRCP99
0242467380999992000091509004+24930+121300FM-12+0141RCUK V0203601N00411008401CN0100001N1+02751+02451100141ADDAA199000091GA1011+003009089GA2051+008409069GA3071+015009069GF107991071041004501001001MA1999999099601MD1310071+9999REMSYN097AAXX  15094 46738 32460 73608 10275 20245 39960 40014 53007 87400 555 81810 85628 87650 00000 /9;EQDQ01  00002PRCP99
0254467380999992000091515004+24930+121300FM-12+0141RCUK V0200401N00511003601CN0030001N1+02331+02191100611ADDAA100011991AY181031AY261031GA1011+001809089GA2051+003609069GA3071+009009069GF107991071041002501001001MA1999999100071MD1210171+9999MW1601REMSYN106AAXX  15154 46738 11330 70410 10233 20219 30007 40061 52017 6012/ 76086 87400 555 81806 85612 87630 00012;
0256467380999992000091518004+24930+121300FM-12+0141RCUK V0203601N00411003601CN0000001N1+02291+02051100611ADDAY181061AY281061GA1011+001809089GA2051+003609019GA3071+009009069GF107991071041002501001001MA1999999100071MD1410001+9999MW1601REMSYN100AAXX  15184 46738 11390 73608 10229 20205 30007 40061 52000 76088 87400 555 81806 85112 87630 00993;EQDQ01+000022APCTEN
0220467380999992000091603004+24930+121300FM-12+0141RCUK V0200401N002110090019N0110001N1+02811+02181100981ADDAA199000021GA1021+003609089GA2051+009009069GA3071+018009069GF107991071081004501001001MA1999999100441MD1110071+9999REMSYN094AAXX  16034 46738 32461 70404 10281 20218 30044 40098 51007 87800 555 82812 85630 87656 00993;
0267467380999992000091606004+24930+121300FM-12+0141RCUK V0200801N00411010501CN0090001N1+02801+02261100881ADDAA199000021AY121061AY221061GA1021+003609089GA2051+010509069GA3071+021009039GF107991071081004501999001MA1999999100341MD1610101+9999MW1051REMSYN100AAXX  16064 46738 31459 70808 10280 20226 30034 40088 56010 70522 87800 555 82812 85635 87357 00993;EQDQ01+000002SCOMCG
0252467380999992000091609004+24930+121300FM-12+0141RCUK V0203601N002110090019N0090001N1+02751+02261100881ADDAA199000091AY121031AY221031GA1051+009009069GA2071+018009069GF107991071081004501001001MA1999999100341MD1410001+9999MW1051REMSYN101AAXX  16094 46738 31459 73604 10275 20226 30034 40088 54000 70522 87800 555 82810. 85630 87656 00993;EQDQ01  00002PRCP99
0290467380999992000091612004+24930+121300FM-12+0141RCUK V0203401N00211009001CN0090001N1+02451+02241101081ADDAA199000091AY121061AY221061GA1021+002409089GA2051+009009069GA3071+018009069GF107991071081002501001001KA1120M+02961MA1999999100541MD1210201+9999MW1101REMSYN110AAXX  16124 46738 31359 73404 10245 20224 30054 40108 52020 71022 87800 333 10296 555 82808 85630 87656 00993;EQDQ01  00002PRCP99
0248467380999992000091615004+24930+121300FM-12+0141RCUK V0203401N00101009001CN0090001N1+02491+02221999999ADDAA100000791AY121031AY221031GA1011+002409089GA2051+009009069GA3061+024009039GF106991051081002501031001MA1999999100611MD1110071+9999MW1101REMSYN100AAXX  16154 46738 11359 63402 10249 20222 30061 51007 6990/ 71022 85830 555 81808 85630 86358 00993;
0257467380999992000091618004+24930+121300FM-12+0141RCUK V0203301N001510060019N0090001N1+02421+02151101121ADDAA106000791AY121061AY221061GA1011+002409089GF106991051081002501031001MA1999999100581MD1710031+9999MW1101REMSYN106AAXX  16184 46738 11359 63303 10242 20215 30058 40112 5800/ 69901 71022 85830 555 81808 ITY P 86358 00000;EQDQ01+000082APCTENQ02+000002APC3  
0230467380999992000091621004+24930+121300FM-12+0141RCUK V0203201N02061004801CN0090001N1+02371+02101101121ADDAA100000791AY121031AY221031GA1031+001209079GA2081+004809069GF199999051081002501031001MD1410001+9999MW1101REMSYN094AAXX  16214 46738 11359 73240 10237 20210 40112 54000 6990/ 71022 85830 555 83704 88616 00000;EQDQ01+000072SCOTCV
0283467380999992000091700004+24930+121300FM-12+0141RCUK V0203501N00211015001CN0090001N1+02501+02241101221ADDAA112000791AY121061AY221061GA1011+003009089GA2051+015009069GA3071+021009039GF107991051081004501031001KA1120N+02351MA1999999100681MD1310101+9999MW1101REMSYN122AAXX  17004 46738 11459 73504 10250 20224 30068 40122 53010 69902 71022 85830 333 20235 555 81810 85650 87357 00000 24993;
0267467380999992000091703004+24930+121300FM-12+0141RCUK V0209999C00001007501CN0050001N1+02581+02301101251ADDAA199000091AY121031AY221031GA1031+001809089GA2051+007509069GA3071+015009069GF107991071081002501001001MA1999999100711MD1110031+9999MW1101REMSYN100AAXX  17034 46738 31350 70000 10258 20230 30071 40125 51003 71022 87800 555 83806 85625 87650 00000;EQDQ01  00002PRCP99
0290467380999992000091712004+24930+121300FM-12+0141RCUK V0203401N00151007501CN0060001N1+02471+02181101251ADDAA199000091AY121061AY221061GA1011+003009089GA2051+007509069GA3071+015009069GF107991071061004501001001KA1120M+02711MA1999999100711MD1310101+9999MW1101REMSYN110AAXX  17124 46738 31456 73403 10247 20218 30071 40125 53010 71022 87600 333 10271 555 81810 85625 87650 00000;EQDQ01  00002PRCP99
0267467380999992000091718004+24930+121300FM-12+0141RCUK V0209999C00001007501CN0060001N1+02381+02061101221ADDAA199000091AY121061AY221061GA1021+003009089GA2051+007509069GA3071+015009069GF107991071061004501001001MA1999999100681MD1610031+9999MW1101REMSYN100AAXX  17184 46738 31456 70000 10238 20206 30068 40122 56003 71022 87600 555 82810 85625 87650 00000;EQDQ01  00002PRCP99
0283467380999992000091721004+24930+121300FM-12+0141RCUK V0209999C00001007501CN0060001N1+02231+01961101221ADDAA199000091AY121031AY221031GA1021+003009089GA2051+007509069GA3071+015009069GF107991071061004501001001MA1999999100681MD1410001+9999MW1101REMSYN100AAXX  17214 46738 31456 70000 10223 20196 30068 40122 56000 71022 87600 555 82810 85625 87650 00000;EQDQ01+000062APCTENQ02  00002PRCP99
0290467380999992000091800004+24930+121300FM-12+0141RCUK V0203501N003119999999N0100001N1+02421+02181101291ADDAA199000091AY121061AY221061GA1011+999999089GA2051+999999069GF105991999041004501001001KA1120N+02231MA1999999100751MD1210071+9999MW1021REMSYN110AAXX  18004 46738 32460 53506 10242 20218 30075 40129 52007 70222 87400 333 20223 555 8181/ 85651 00000 24000;EQDQ01+000072SCOTLCQ02  00002PRCP99
0267467380999992000091806004+24930+121300FM-12+0141RCUK V0200501N00511018001CN0050001N1+02711+02221101221ADDAA199000091AY121061AY221061GA1011+003009089GA2031+010509069GA3071+018009069GF107991071041999999001001MA1999999100681MD1710101+9999MW1151REMSYN100AAXX  18064 46738 31/50 70510 10271 20222 30068 40122 57010 71522 87400 555 81810 83635 87656 00000;EQDQ01  00002PRCP99
0270467380999992000091809004+24930+121300FM-12+0141RCUK V0203201N00211009601CN0090001N1+02601+02111101221ADDAA199000091AY121031AY221031GA1011+003009089GA2051+009609069GA3071+015009069GF107991071041999999001001MA1999999100681MD1410001+9999MW1101REMSYN103AAXX  18094 46738 31/59 73204 10260 20211 30068 40122 54000 71022 87400 555 V /81810 85632 87650 00000;EQDQ01  00002PRCP99
0222467380999992000091815004+24930+121300FM-12+0141RCUK V0203101N00311006001CN0070001N1+02461+02151101651ADDAY121031AY221031GA1011+003009089GA2051+006009069GA3071+015009069GF107991071041999999001001MA1999999100921MW1101REMSYN099AAXX  18154 46738 11/57 73106 10246 20215 30092 40165 71022 87400 555 81810 85620 87650 00990 /9 9;
0254467380999992000091818004+24930+121300FM-12+0141RCUK V0203401N00211007501CN0070001N1+99999+99999101421ADDAA106000791AY121061AY221061GA1011+003009089GA2051+007509069GA3071+015009069GF107991071999999999001001MA1999999100881MD1010041+9999MW1101REMSYN106AAXX  18184 46738 11/57 73404 102/0 20209 30088 40142 50004 69901 71022 87/00 555 81810 85625 87650 00000;
0264467380999992000091900004+24930+121300FM-12+0141RCUK V0200301N002112200019N0070001N1+02561+02131101491ADDAA112000791AY121061AY221061GA1011+004209089GA2031+021009039GF103991011011004501031001KA1120N+02311MA1999999100951MD1310101+9999MW1051REMSYN119AAXX  19004 46738 11457 30304 10256 20213 30095 40149 53010 69902 70522 81130 333 20231 555 81814 83357 00000 24990 /9;
0251467380999992000091909004+24930+121300FM-12+0141RCUK V0200601N00411010501CN0060001N1+02691+02391101351ADDAA199000091AY121031AY221031GA1011+003009089GA2051+010509069GF105991051051004501011001MA1999999100811MD1310031+9999MW1101REMSYN100AAXX  19094 46738 31456 50608 10269 20239 30081 40135 53003 71022 85510 555 81810 80622 85635 00000;EQDQ01  00002PRCP99
0290467380999992000091912004+24930+121300FM-12+0141RCUK V0203501N00211009001CN0070001N1+02741+02421101491ADDAA199000091AY121061AY221061GA1011+003609089GA2051+009009069GA3071+012009069GF107991071041004501001001KA1120M+03011MA1999999100951MD1210141+9999MW1101REMSYN110AAXX  19124 46738 31457 73504 10274 20242 30095 40149 52014 71022 87400 333 10301 555 81812 85630 87640 00000;EQDQ01  00002PRCP99
0267467380999992000091918004+24930+121300FM-12+0141RCUK V0203601N00101015001CN0070001N1+02421+01981101491ADDAA199000091AY121061AY221061GA1011+003609089GA2031+009009069GA3071+015009069GF107991071041004501001001MA1999999100951MD1810071+9999MW1101REMSYN100AAXX  19184 46738 31457 73602 10242 20198 30095 40149 58007 71022 87400 555 81812 83630 87650 00000;EQDQ01  00002PRCP99
0220467380999992000092815004+24930+121300FM-12+0141RCUK V0203001N001512200019N0120001N1+02511+02131101461ADDAA199000091GA1011+003609089GA2031+012009069GF103991031021004501001001MA1999999100921MD1110071+9999REMSYN091AAXX  28154 46738 32462 33003 10251 20213 30092 40146 51007 83200 555 81812 83640 00000 0V;EQDQ01  00002PRCP99
0217467380999992000092906004+24930+121300FM-12+0141RCUK V0201401N004612200019N0120001N1+03011+02401999999ADDAA199000091GA1011+003609089GA2031+060009009GF103991011011004501001011MA1999999100781MD1810101+9999REMSYN088AAXX  29064 46738 32462 31409 10301 20240 30078 401/2 58010 81101 555 81812 83070 00000;EQDQ01  00002PRCP99
0240467380999992000092912004+24930+121300FM-12+0141RCUK V0203001N001512200019N0100001N1+02581+02211101391ADDAA199000091GA1011+003609089GA2031+009009069GF103991031081999999001001KA1120M+03071MA1999999100851MD1110071+9999REMSYN098AAXX  29124 46738 32/60 33003 10258 20221 30085 40139 51007 83800 333 10307 555 81812 83630 00000;EQDQ01  00002PRCP99
0233467380999992000092915004+24930+121300FM-12+0141RCUK V0203101N002112200019N0100001N1+02611+02261101451ADDAA199000091GA1011+003609089GA2031+009009069GF103991031081004501001001MA1999999100911MD1110061+9999REMSYN088AAXX  29154 46738 32460 33104 10261 20226 30091 40145 5100/ 83800 555 81812 83630 00000;EQDQ01+000002APC3  Q02  00002PRCP99
0217467380999992000092918004+24930+121300FM-12+0141RCUK V0203001N001012200019N0100001N1+02591+02241101421ADDAA199000091GA1021+001809079GA2011+003609089GF103991031081004501001001MA1999999100881MD1110031+9999REMSYN088AAXX  29184 46738 32460 33002 10259 20224 30088 40142 51003 83800 555 81812 82706 00000;EQDQ01  00002PRCP99
0217467380999992000092921004+24930+121300FM-12+0141RCUK V0209999C000012200019N0100001N1+02421+02161101421ADDAA199000091GA1011+004509089GA2031+015009069GF103991031081004501001001MA1999999100881MD1410001+9999REMSYN088AAXX  29214 46738 32460 30000 10242 20216 30088 40142 54000 83800 555 81815 83650 00000;EQDQ01  00002PRCP99
0233467380999992000093000004+24930+121300FM-12+0141RCUK V0209999V00101018001CN0100001N1+02651+02351101521ADDAA199000091GA1011+003609089GA2051+018009069GF105991051041004501001001MA1999999100981MD1210101+9999REMSYN104AAXX  30004 46738 32460 59902 10265 20235 30098 40152 52010 85400 333 202/3 555 81812 85656 00000 24000;EQDQ01  00002PRCP99
0211467380999992000093006004+24930+121300FM-12+0141RCUK V0201501N003112200019N0100001N1+03041+02401999999ADDAA199000091GA1031+003609089GA2031+090009009GF103991031011004501001051MA1999999100881MD1810101+9999REMSYN082AAXX  30064 46738 32460 31506 10304 20240 30088 58010 83105 555 83812 83080 00000;EQDQ01  00002PRCP99
0240467380999992000093009004+24930+121300FM-12+0141RCUK V0201601N001010900019N0100001N1+02821+02281101391ADDAA199000091GA1011+003009089GA2031+012009069GA3051+090009009GF105991041041004501001051MA1999999100851MD1610031+9999REMSYN095AAXX  30094 46738 32460 51602 10282 20228 30085 40139 56003 84405 555 /81810 83640 85080 00000;EQDQ01  00002PRCP99
0239467380999992000093018004+24930+121300FM-12+0141RCUK V0203001N00261018001CN0100001N1+02531+02161101521ADDAA199000091GA1011+003609089GA2031+010509069GA3061+018009069GF106991061081004501001001MA1999999100981MD1810071+9999REMSYN094AAXX  30184 46738 32460 63005 10253 20216 30098 40152 58007 86800 555 81812 83635 86656 00000;EQDQ01  00002PRCP99
0225467380999992000100100004+24930+121300FM-12+0141RCUK V02099999999992200019N0150001N1+02671+02291101521ADDAA199000091GA1011+004509089GF101991011011004501001001KA1120N+02341MA1999999100981MD1010001+9999REMSYN099AAXX  01004 46738 32465 1340/ 10267 20229 30098 40152 50000 81100 333 20234 555 81815 PPPPPM 24000;EQDQ01  00002PRCP99
0202467380999992000100106004+24930+121300FM-12+0141RCUK V0201501N00211007501CN0120001N1+02981+99999101391ADDAA199000091GA1051+007509069GF105991051041004501001001MA1999999100851MD1710131+9999REMSYN089AAXX  01064 46738 32462 51504 10298 202/7 30085 40139 57013 85400 555 818109 85625 00000;EQDQ01  00002PRCP99
0255467380999992000100112004+24930+121300FM-12+0141RCUK V0209999C00001012001CN0060001N1+02831+02381101461ADDAA112000791AY161061AY221061GA1031+003009079GA2061+012009069GF106991061051004501001001KA1120M+03331MA1999999101111MD1210191+9999MW1101REMSYN110AAXX  01124 46738 11456 60000 10283 20238 30111 40146 52019 69902 71062 86500 333 10333 555 83710 86640 00990;
0233467380999992000100115004+24930+121300FM-12+0141RCUK V0203001N001512200019N0120001N1+02481+02031101491ADDAA199000091GA1011+003609089GA2031+075009009GF103991011011004501001011MA1999999100951MD1810031+9999REMSYN088AAXX  01154 46738 32462 33003 10248 20203 30095 40149 58000 81101 555 81812 83075 00000;EQDQ01+000002APC3  Q02  00002PRCP99
0217467380999992000100118004+24930+121300FM-12+0141RCUK V0203201N001512200019N0120001N1+02341+02001101351ADDAA199000091GA1011+003609089GA2031+075009009GF103991011011999999001011MA1999999100811MD1710141+9999REMSYN088AAXX  01184 46738 32/62 33203 10234 20200 30081 40135 57014 81101 555 81812 83075 00000;EQDQ01  00002PRCP99
0224467380999992000100200004+24930+121300FM-12+0141RCUK V0203001N002612200019N0180001N1+02741+02151101321ADDAA199000091GA1011+004509089GF101991011011004501001001KA1120N+02251MA1999999100781MD1510001+9999REMSYN098AAXX  02004 46738 32468 13005 10274 20215 30078 40132 55000 81100 333 20225 555 81815 00000 24000;EQDQ01  00002PRCP99
0189467380999992000100203004+24930+121300FM-12+0141RCUK V0201701N003112200019N0200001N1+99999+99999101291ADDAA199000091GA1021+004509089GF102991021011012501001001MA1999999100791MD1810031+9999REMSYN076AAXX  02034 46738 32670 21706 20242 30079 40129 58003 82100 555 82815 00000;EQDQ01  00002PRCP99
0205467380999992000100209004+24930+121300FM-12+0141RCUK V0201001N000510060019N0080001N1+02791+02381101081ADDAY161031AY221031GA1031+000309089GF107991071081002501001001MA1999999100541MD1410001+9999MW1601REMSYN100AAXX  02094 46738 11358 71001 10279 20238 30054 40108 54000 76062 87800 555 83801 05622 87650 00990;
0226467380999992000100215004+24930+121300FM-12+0141RCUK V0209999C00001007501CN0100001N1+02661+02381101291ADDAA199000021AY161031AY221031GA1031+002409089GA2051+007509069GF105991051081002501001001MA1999999100751MD1110071+9999MW1601REMSYN094AAXX  02154 46738 32360 50000 10266 20238 30075 40129 51007 76062 85800 555 83808 85625 00990;
0198467380999992000100218004+24930+121300FM-12+0141RCUK V0203001N00101007501CN0100001N1+02591+02331101151ADDAA199000021GA1031+002409089GA2051+007509069GF105991051081002501001001MA1999999100611MD1710141+9999REMSYN088AAXX  02184 46738 32360 53002 10259 20233 30061 40115 57014 85800 555 83808 85625 00000;
0198467380999992000100221004+24930+121300FM-12+0141RCUK V0203201N00101007501CN0100001N1+02481+02231101121ADDAA199000021GA1031+002409089GA2051+007509069GF105991051081002501001001MA1999999100581MD1610031+9999REMSYN088AAXX  02214 46738 32360 53202 10248 20223 30058 40112 56003 85800 555 83808 85625 00000;
0194467380999992000100300004+24930+121300FM-12+0141RCUK V0209999V001012200019N0120001N1+02741+02281101191ADDGA1011+004509089GF101991011011004501001001KA1120N+02421MA1999999100651MD1310071+9999REMSYN098AAXX  03004 46738 /2462 19902 10274 20228 30065 40119 53007 81100 333 20242 555 81815 00000 24990;
0254467380999992000100315004+24930+121300FM-12+0141RCUK V0209999C00001006601CN0100001N1+02541+02351101151ADDAA100000791AY161031AY221031GA1031+003009089GA2051+006609069GA3081+015009069GF108991071081004501001001MA1999999100611MD1210071+9999MW1911REMSYN106AAXX  03154 46738 11460 80000 10254 20235 30061 40115 52007 6990/ 79162 87800 555 83810 85622 88650 00991;
0248467380999992000100318004+24930+121300FM-12+0141RCUK V0209999C00001006601CN0100001N1+02541+02351999999ADDAA106000191AY161061AY261061GA1031+003009089GA2051+006609069GA3081+015009069GF108991071081999999001001MA1999999100611MD1410001+9999MW1611REMSYN100AAXX  03184 46738 11/60 80000 10254 20235 30061 54000 69911 76166 87800 555 83810 85622 88650 00990;
0276467380999992000100406004+24930+121300FM-12+0141RCUK V0200701N00151075001CN0120001N1+02971+02631101121ADDAA106001091AY121061AY221061GA1021+003009089GA2011+003609099GA3031+007509069GA4051+075009009GF105991031081004501001011MA1999999100581MD1710201+9999MW1161REMSYN112AAXX  04064 46738 12462 50703 10297 20263 30058 40112 57020 60011 71622 83801 555 82810 81912 83625 85075 00001;
0254467380999992000100409004+24930+121300FM-12+0141RCUK V0209999C00001060001CN0120001N1+02751+02471101081ADDAA100001091AY121031AY221031GA1011+003009089GA2031+012009069GA3051+060009009GF105991031081004501001011MA1999999100541MD1510041+9999MW1161REMSYN106AAXX  04094 46738 12462 50000 10275 20247 30054 40108 55004 6001/ 71622 83801 555 81810 83640 85070 00001;
0196467380999992000100503004+24930+121300FM-12+0141RCUK V0201101N00211090001CN0200001N1+02921+02461101321ADDAA199000091GA1021+004209089GA2061+090009009GF106991021011004501001011MD1810071+9999REMSYN082AAXX  05034 46738 32470 61104 10292 20246 40132 58007 82101 555 82814 86080 00000;EQDQ01  00002PRCP99
0239467380999992000100509004+24930+121300FM-12+0141RCUK V0209999C00001010501CN0200001N1+02791+02401101191ADDAA199000091GA1021+003609089GA2031+010509069GA3071+060009009GF107991031031004501001011MA1999999100651MD1410001+9999REMSYN094AAXX  05094 46738 32470 70000 10279 20240 30065 40119 54000 83301 555 82812 83635 87070 00000;EQDQ01  00002PRCP99
0239467380999992000100515004+24930+121300FM-12+0141RCUK V0203201N00151054001CN0150001N1+02591+02271101421ADDAA199000091GA1021+003009089GA2031+021009039GA3071+054009009GF107991021011004501031011MA1999999100881MD1110071+9999REMSYN094AAXX  05154 46738 32465 73203 10259 20227 30088 40142 51007 82131 555 82810 83357 87068 00000;EQDQ01  00002PRCP99
0211467380999992000100521004+24930+121300FM-12+0141RCUK V0203601N00151054001CN0150001N1+02381+02111999999ADDAA199000091GA1021+005409089GA2071+054009009GF107991021011004501001011MA1999999100711MD1610101+9999REMSYN082AAXX  05214 46738 32465 73603 10238 20211 30071 56010 82101 555 82818 87068 00000;EQDQ01  00002PRCP99
0246467380999992000100600004+24930+121300FM-12+0141RCUK V0209999C000012200019N0200001N1+02771+02271101391ADDAA199000091GA1021+004209089GA2031+075009009GF103991021011004501001011KA1120N+02341MA1999999100851MD1210141+9999REMSYN104AAXX  06004 46738 32470 30000 10277 20227 30085 40139 52014 82101 333 20234 555 82814 83075 00000 24000;EQDQ01  00002PRCP99
0217467380999992000100603004+24930+121300FM-12+0141RCUK V0201301N002612200019N0200001N1+03101+02461101391ADDAA199000091GA1011+004209089GA2031+012009019GF103991031011004501001001MA1999999100851MD1410001+9999REMSYN088AAXX  06034 46738 32470 31305 10310 20246 30085 40139 54000 83100 555 81814 83140 00000;EQDQ01  00002PRCP99
0254467380999992000100615004+24930+121300FM-12+0141RCUK V0209999C00001007501CN0100001N1+02611+02341101421ADDAA100000791AY181031AY221031GA1031+003009089GA2051+007509069GA3071+018009069GF107991071081004501001001MA1999999100881MD1210101+9999MW1211REMSYN106AAXX  06154 46738 12460 70000 10261 20234 30088 40142 52010 6990/ 72182 87800 555 83810 85625 87656 00990;
0226467380999992000100618004+24930+121300FM-12+0141RCUK V0209999C00001007501CN0100001N1+02551+02301101421ADDAA106000791GA1031+003009089GA2051+007509069GA3071+018009069GF107991071081999999001001MA1999999100881MD1410001+9999REMSYN100AAXX  06184 46738 12/60 70000 10255 20230 30088 40142 54000 69901 87800 555 83810 85625 87656 00000;
0239467380999992000100709004+24930+121300FM-12+0141RCUK V0201101N00101005401CN0150001N1+02871+02371101051ADDAA199000091GA1031+002409089GA2041+005409069GA3061+013509069GF106991061081002501001001MA1999999100511MD1510001+9999REMSYN094AAXX  07094 46738 32365 61102 10287 20237 30051 40105 55000 86800 555 83808 84618 86645 00000;EQDQ01  00002PRCP99
0211467380999992000100721004+24930+121300FM-12+0141RCUK V0202601N001512200019N0100001N1+02461+02211999999ADDAA199000091GA1011+003609089GA2031+018009069GF103991031081004501001001MA1999999100541MD1810071+9999REMSYN082AAXX  07214 46738 32460 32603 10246 20221 30054 58007 83800 555 81812 83656 00000;EQDQ01  00002PRCP99
0246467380999992000100800004+24930+121300FM-12+0141RCUK V0203401N003112200019N0100001N1+02721+02321101151ADDAA199000091GA1011+004509089GA2031+075009009GF103991011011004501001051KA1120N+02461MA1999999100611MD1510071+9999REMSYN104AAXX  08004 46738 32460 33406 10272 20232 30061 40115 55007 81105 333 20246 555 81815 83075 00000 24000;EQDQ01  00002PRCP99
0173467380999992000100806004+24930+121300FM-12+0141RCUK V0200701N004112200019N0200001N1+03141+02391100851ADDAA199000091GF101991011011004501001001MA1999999100311MD1710231+9999REMSYN076AAXX  08064 46738 32470 10708 10314 20239 30031 40085 57023 81100 555 00000;EQDQ01  00002PRCP99
0217467380999992000100809004+24930+121300FM-12+0141RCUK V0200501N00511007501CN0120001N1+02871+02251100881ADDAA199000091GA1031+003009089GA2051+007509069GF105991051041004501001001MA1999999100341MD1310031+9999REMSYN088AAXX  08094 46738 32462 50510 10287 20225 30034 40088 53003 85400 555 83810 85625 00000;EQDQ01  00002PRCP99
0240467380999992000100812004+24930+121300FM-12+0141RCUK V0203101N00211013501CN0100001N1+02771+02281101051ADDAA199000091GA1011+003009089GA2051+013509069GF105991051041004501001001KA1120M+03201MA1999999100511MD1210171+9999REMSYN098AAXX  08124 46738 32460 53104 10277 20228 30051 40105 52017 85400 333 10320 555 81810 85645 00000;EQDQ01  00002PRCP99
0217467380999992000100815004+24930+121300FM-12+0141RCUK V0203501N00311013501CN0120001N1+02651+02251101111ADDAA199000091GA1021+003609089GA2051+013509069GF105991051041004501001001MA1999999100571MD1110061+9999REMSYN088AAXX  08154 46738 32462 53506 10265 20225 30057 40111 51006 85400 555 82812 85645 00000;EQDQ01  00002PRCP99
0262467380999992000100900004+24930+121300FM-12+0141RCUK V0200401N006712200019N0180001N1+02721+02231101111ADDAA199000091GA1021+004509089GA2031+013509069GF103991031081004501001001KA1120N+02511MA1999999100571MD1011012+9999REMSYN104AAXX  09004 46738 32468 30413 10272 20223 30057 40111 50101 83800 333 20251 555 82815 83645 00000 24000;EQDQ01+001012APC3  Q02  00002PRCP99
0208467380999992000100912004+24930+121300FM-12+0141RCUK V0209999C000010060019N0100001N1+02581+02381101191ADDAA199000091GA1021+002409089GF107991071081002501001001MA1999999100651MD1210171+9999REMSYN095AAXX  09124 46738 32360 70000 10258 20238 30065 40119 52017 87800 555 82808 ITYWWM 87650 00000;EQDQ01  00002PRCP99
0255467380999992000100915004+24930+121300FM-12+0141RCUK V0203401N002610060019N0060001N1+02481+02381101221ADDAA100007991AY161031AY261031GA1999+002409089GA2051+004509069GA3071+012009069GF107991071081002501001001MA1999999100681MD1510031+9999MW1611REMSYN107AAXX  09154 46738 11356 73405 10248 20238 30068 40122 55003 6008/ 76166 87800 555 .8/808 85615 87640 00008;
0254467380999992000100918004+24930+121300FM-12+0141RCUK V0200301N00211004501CN0060001N1+02471+02301101221ADDAA106007991AY161061AY261061GA1031+002409089GA2051+004509069GA3071+012009019GF107991071081002501001001MA1999999100681MD1010001+9999MW1611REMSYN106AAXX  09184 46738 11356 70304 10247 20230 30068 40122 50000 60081 76166 87800 555 83808 85615 87140 00990;
0235467380999992000101100004+24930+121300FM-12+0141RCUK V0200201N005112200019N0200001N1+02771+02211101321ADDAA199000091GA1021+004509089GF105991031081004501001011KA1120N+02481MA1999999100781MD1310041+9999REMSYN109AAXX  11004 46738 32470 50210 10277 20221 30078 40132 53004 83801 333 20248 555 82815 8YTY 85080 00000 24990;EQDQ01  00002PRCP99
0239467380999992000101109004+24930+121300FM-12+0141RCUK V0200501N00511012001CN0120001N1+02891+02441101111ADDAA199000091GA1031+003009089GA2051+012009069GA3071+060009009GF107991051081004501001011MA1999999100571MD1410001+9999REMSYN094AAXX  11094 46738 32462 70510 10289 20244 30057 40111 54000 85801 555 83810 85640 87070 00000;EQDQ01  00002PRCP99
0254467380999992000101115004+24930+121300FM-12+0141RCUK V0200101N00311013501CN0100001N1+02751+02381101291ADDAA100000791AY181031AY221031GA1011+002409089GA2051+013509069GA3071+024009039GF107991051041002501041001MA1999999100751MD1010001+9999MW1251REMSYN106AAXX  11154 46738 12360 70106 10275 20238 30075 40129 50000 6990/ 72582 85440 555 81808 85645 87358 00990;
0283467380999992000101200004+24930+121300FM-12+0141RCUK V0200201N00411005401CN0070001N1+02541+02321101291ADDAA112002091AY161061AY221061GA1031+002409089GA2051+005409069GA3081+015009069GF108991081081002501999999KA1120N+02401MA1999999100751MD1210101+9999MW1601REMSYN122AAXX  12004 46738 11357 80208 10254 20232 30075 40129 52010 60022 76062 888// 333 20240 555 83808 85618 88650 00002 24990;
0225467380999992000101203004+24930+121300FM-12+0141RCUK V0203501N00361004501CN0050001N1+02501+02341101391ADDAA100004191AY161031GA1031+001809089GA2051+004509069GA3081+015009069GF108991081081002501999999MD1310101+9999MW1611REMSYN100AAXX  12034 46738 11350 83507 10250 20234 40139 53010 6004/ 7616/ 888// 555 83806 85615 88650 00006;
0217467380999992000102709004+24930+121300FM-12+0141RCUK V0200501N004112200019N0120001N1+02581+02111101491ADDAA199000091GA1011+003609089GA2031+010509069GF103991031081004501001001MA1999999100951MD1410001+9999REMSYN088AAXX  27094 46738 32462 30508 10258 20211 30095 40149 54000 83800 555 81812 83635 00000;EQDQ01  00002PRCP99
0262467380999992000102712004+24930+121300FM-12+0141RCUK V0200201N00101018001CN0110001N1+02401+02001101631ADDAA199000091GA1011+003609089GA2031+010509069GA3051+018009069GF105991051081004501001001KA1120M+02781MA1999999101091MD1310141+9999REMSYN104AAXX  27124 46738 32461 50202 10240 20200 30109 40163 53014 85800 333 10278 555 81812 83635 85656 00000;EQDQ01  00002PRCP99
0195467380999992000102718004+24930+121300FM-12+0141RCUK V0209999C000012200019N0110001N1+02291+01921101461ADDAA199000091GA1011+003609089GF101991011011004501001001MA1999999100921MD1710131+9999REMSYN082AAXX  27184 46738 32461 10000 10229 20192 30092 40146 57013 81100 555 81812 00000;EQDQ01  00002PRCP99
0195467380999992000102721004+24930+121300FM-12+0141RCUK V0203201N001512200019N0110001N1+02211+01851101461ADDAA199000091GA1011+003609089GF101991011011004501001001MA1999999100921MD1410001+9999REMSYN082AAXX  27214 46738 32461 13203 10221 20185 30092 40146 54000 81100 555 81812 00000;EQDQ01  00002PRCP99
0246467380999992000102800004+24930+121300FM-12+0141RCUK V0203401N003112200019N0200001N1+02531+02051101521ADDAA199000091GA1011+004509089GA2031+024009039GF103991011011004501031001KA1120N+02201MA1999999100981MD1110061+9999REMSYN104AAXX  28004 46738 32470 33406 10253 20205 30098 40152 51006 81130 333 20220 555 81815 83358 00000 24000;EQDQ01  00002PRCP99
0217467380999992000102803004+24930+121300FM-12+0141RCUK V0200801N004612200019N0200001N1+02911+02281101461ADDAA199000091GA1011+004509089GA2041+021009039GF104991011011004501031001MA1999999100921MD1810061+9999REMSYN088AAXX  28034 46738 32470 40809 10291 20228 30092 40146 58006 81130 555 81815 84357 00000;EQDQ01  00002PRCP99
0217467380999992000102806004+24930+121300FM-12+0141RCUK V0200701N004112200019N0180001N1+02961+02331101151ADDAA199000091GA1011+004509089GA2031+024009039GF103991011011004501031001MA1999999100611MD1710311+9999REMSYN088AAXX  28064 46738 32468 30708 10296 20233 30061 40115 57031 81130 555 81815 83358 00000;EQDQ01  00002PRCP99
0240467380999992000102812004+24930+121300FM-12+0141RCUK V0209999C00001010501CN0100001N1+02691+02251101291ADDAA199000091GA1021+003009089GA2061+010509069GF106991061081004501001001KA1120M+03011MA1999999100751MD1310171+9999REMSYN098AAXX  28124 46738 32460 60000 10269 20225 30075 40129 53017 86800 333 10301 555 82810 86635 00000;EQDQ01  00002PRCP99
0217467380999992000102818004+24930+121300FM-12+0141RCUK V0203101N00101018001CN0100001N1+02391+02101101191ADDAA199000091GA1021+003609089GA2051+018009069GF105991051081004501001001MA1999999100651MD1710091+9999REMSYN088AAXX  28184 46738 32460 53102 10239 20210 30065 40119 57009 85800 555 82812 85656 00000;EQDQ01  00002PRCP99
0217467380999992000102821004+24930+121300FM-12+0141RCUK V0203201N002112200019N0046001N1+02331+02051101121ADDAA199000091GA1011+003609089GA2031+018009069GF103991031081004501001001MA1999999100581MD1810071+9999REMSYN088AAXX  28214 46738 32446 33204 10233 20205 30058 40112 58007 83800 555 81812 83656 00000;EQDQ01  00002PRCP99
0217467380999992000102906004+24930+121300FM-12+0141RCUK V0200701N00361015001CN0110001N1+02681+02351100951ADDAA199000091GA1021+003009089GA2071+015009069GF107991051041004501001001MA1999999100411MD1510201+9999REMSYN088AAXX  29064 46738 32461 70707 10268 20235 30041 40095 55020 85400 555 82810 87650 00000;EQDQ01  00002PRCP99
0239467380999992000102909004+24930+121300FM-12+0141RCUK V0200501N00411009601CN0100001N1+02571+02311100951ADDAA199000091GA1021+003009089GA2051+009609069GA3081+018009069GF108991081041004501001001MA1999999100411MD1410001+9999REMSYN094AAXX  29094 46738 32460 80508 10257 20231 30041 40095 54000 88400 555 82810 85632 88656 00000;EQDQ01  00002PRCP99
0324467380999992000103000004+24930+121300FM-12+0141RCUK V0203601N056522200019N0110001N1+02201+02131101021ADDAA112004191AY181061AY261061GA1021+003009089GA2051+008409069GA3081+018009069GF199999081071004501999999KA1120N+02101MA1999999100481MD1410001+9999MW1601REMSYN128AAXX  30004 46738 11461 38610 10220 20213 30048 40102 54001 60042 76086 887// 333 20210 555 30124 82810 85628 88656 00004 24990;EQDQ01+005653WOSPD Q02+000032SCOTCV
0260467380999992000103003004+24930+121300FM-12+0141RCUK V0200101N00671010501CN0110001N1+02241+02191101081ADDAA100001091AY181031AY261031GA1021+002409089GA2051+010509069GA3081+015009069GF108991081071002501999999MA1999999100541MD1010061+9999MW1611REMSYN112AAXX  30034 46738 11361 80113 10224 20219 30054 40108 50006 6001/ 76186 887// 555 30124 82808 85635 88650 00005;
0260467380999992000103006004+24930+121300FM-12+0141RCUK V0203601N00721008401CN0120001N1+02291+02231100741ADDAA106002091AY181061AY261061GA1021+002409089GA2051+008409069GA3081+015009069GF108991081071002501999999MA1999999100201MD1710341+9999MW1611REMSYN112AAXX  30064 46738 11362 83614 10229 20223 30020 40074 57034 60021 76186 887// 555 33630 82808 85628 88650 00006;
0260467380999992000103009004+24930+121300FM-12+0141RCUK V0203601N00461007501CN0120001N1+02171+02151100741ADDAA100002091AY161031AY261031GA1021+002409089GA2051+007509069GA3081+012009069GF108991081071002501999999MA1999999100201MD1410001+9999MW1611REMSYN112AAXX  30094 46738 11362 83609 10217 20215 30020 40074 54000 6002/ 76166 887// 555 33630 82808 85625 88640 00006;
0283467380999992000103012004+24930+121300FM-12+0141RCUK V0203601N00621006601CN0100001N1+02251+02181100811ADDAA112003091AY161061AY261061GA1011+002409089GA2051+006609069GA3081+015009069GF108991081071002501999999KA1120M+02361MA1999999100271MD1310071+9999MW1601REMSYN122AAXX  30124 46738 11360 83612 10225 20218 30027 40081 53007 60032 76066 887// 333 10236 555 33630 81808 85622 88650 00007;
0254467380999992000103015004+24930+121300FM-12+0141RCUK V0203501N00621005401CN0060001N1+02121+02071100781ADDAA100006191AY161031AY261031GA1011+002409089GA2051+005409069GA3081+012009069GF108991081041002501999999MA1999999100241MD1010031+9999MW1601REMSYN106AAXX  30154 46738 11356 83512 10212 20207 30024 40078 50003 6006/ 76066 884// 555 81808 85618 88640 00013;
0254467380999992000103018004+24930+121300FM-12+0141RCUK V0203601N00511005401CN0060001N1+02161+02081100641ADDAA106022191AY161061AY261061GA1011+002409089GA2051+005409069GA3081+012009069GF108991081041002501999999MA1999999100101MD1810141+9999MW1601REMSYN106AAXX  30184 46738 11356 83610 10216 20208 30010 40064 58014 60221 76066 884// 555 81808 85618 88640 00017;
0268467380999992000103100004+24930+121300FM-12+0141RCUK V0203301N00571003601CN0030001N1+02251+02241100571ADDAA112101191AY161061AY261061GA1051+003609069GA2081+009009069GF108991081041001501999999KA1120N+02161MA1999999100031MD1310071+9999MW1811REMSYN123AAXX  31004 46738 11230 83311 10225 20224 30003 40057 53007 61012 78166 884// 333 20216 555 838058 85612 88630 00095 24013;
0260467380999992000103103004+24930+121300FM-12+0141RCUK V0203501N00621003601CN0030001N1+02261+02251100371ADDAA100055991AY181031AY261031GA1031+001509089GA2051+003609069GA3081+009009069GF108991081071001501999999MA1999999099831MD1710201+9999MW1811REMSYN112AAXX  31034 46738 11230 83512 10226 20225 39983 40037 57020 6056/ 78186 887// 555 33522 83805 85612 88630 00151;
0260467380999992000103106004+24930+121300FM-12+0141RCUK V0200501N00511003601CN0030001N1+02511+02501100131ADDAA106099191AY181061AY281061GA1031+001509089GA2051+003609069GA3081+009009069GF108991081071001501999999MA1999999099591MD1610241+9999MW1811REMSYN112AAXX  31064 46738 11230 80510 10251 20250 39959 40013 56024 60991 78188 887// 555 30125 83805 85612 88630 00194;
0282467380999992000103109004+24930+121300FM-12+0141RCUK V0200901N00461001801CN0020001N1+02481+02471100001ADDAA100180192AY181031AY281031GA1031+001509089GA2021+001809099GA3051+003009069GA4081+009009069GF108991081071001501999999MA1999999099461MD1610131+9999MW1951REMSYN118AAXX  31094 46738 11220 80909 10248 20247 39946 40000 56013 6180/ 79588 887// 555 30125 83805 82906 85610 88630 00275;
0302467380999992000103112004+24930+121300FM-12+0141RCUK V0201001N00511002401CN0020001N1+02541+02501099901ADDAA112119991AY181061AY261061GA1031+000609079GA2051+002409089GA3081+006009059GF108991081071001501999999KA1120M+99999MA1999999099361MD1710201+9999MW1811REMSYN122AAXX  31124 46738 11220 81010 10254 20250 39936 49990 57020 61202 78186 887// 333 10228 555 33531 83702 85808 88520 00133;EQDQ01 +02282ATMX  
0260467380999992000103115004+24930+121300FM-12+0141RCUK V0200501N00621004201CN0035001N1+02571+02401099491ADDAA100016091AY181031AY281031GA1031+001509089GA2051+004209069GA3081+009009069GF108991081071001501999999MA1999999098951MD1710411+9999MW1611REMSYN112AAXX  31154 46738 11235 80512 10257 20240 39895 49949 57041 6016/ 76188 887// 555 31038 83805 85614 88630 00340;
0295467380999992000103118004+24930+121300FM-12+0141RCUK V0200301N01801002401CN0020001N1+02411+02401097932ADDAA106029091AY181061AY281061GA1031+000909089GA2051+002409069GA3081+006009069GF108991081071001501999999MA1999999097392MD1711561+9999MW1811REMSYN112AAXX  31184 46738 11220 80335 10241 20240 39739 49793 57156 60291 78188 887// 555 30350 83803 85608 88620 00009;EQDQ01+097393APOSP Q02+097933APOSLP
0277467380999992000103121004+24930+121300FM-12+0141RCUK V0202401N00411004201CN0040001N1+02401+02351098511ADDAA100130091AY181031AY281031GA1031+001509089GA2051+004209069GA3081+009009069GF108991081071001501999999MA1999999097971MD1510001+9999MW1611REMSYN110AAXX  31214 46738 11240 82408 10240 20235 39797 49851 55058 6130/ 76188 887// 555 350 83805 85614 88630 00109;EQDQ01+000582APC3  
0301467380999992000110100004+24930+121300FM-12+0141RCUK V0202201N00511006601CN0080001N1+02781+02671099221ADDAA112131191AY181061AY281061GA1031+002409089GA2051+006609069GA3081+012009069GF108991081071002501999999KA1120N+02251MA1999999098681MD1210711+9999MW1601REMSYN140AAXX  01004 46738 11358 82210 10278 20267 39868 49922 52071 61312 76088 887// 333 20225 555 30350 83808 85622 88640 00110 24004 10252 20242;
0254467380999992000110103004+24930+121300FM-12+0141RCUK V0200501N00721012001CN0100001N1+02931+02331099661ADDAA199000021AY161031AY221031GA1011+004509089GA2051+012009069GA3071+018009069GF107991071041004501999999MA1999999099121MD1210441+9999MW1021REMSYN106AAXX  01034 46738 32460 70514 10293 20233 39912 49966 52044 70262 874// 555 30524 81815 85640 87656 00110;
0240467380999992000110106004+24930+121300FM-12+0141RCUK V0200501N01031012001CN0080001N1+02781+02351100061ADDAA199000021AY121061AY221061GA1031+003009089GA2031+012009069GA3071+075009009GF107991071041004501001011MA1999999099521MW1051REMSYN106AAXX  01064 46738 31458 70520 10278 20235 39952 40006 5/040 70522 87401 555 30632 83810 83640 87075 00110;
0243467380999992000110112004+24930+121300FM-12+0141RCUK V0209999V00101008401CN0100001N1+02551+02161100951ADDAA199000021GA1011+003009089GA2051+008409069GA3071+024009039GF107991071041004501041999KA1120M+03241MA1999999100411MD1210411+9999REMSYN104AAXX  01124 46738 32460 79902 10255 20216 30041 40095 52041 8744/ 333 10324 555 81810 85628 87358 00110;
0239467380999992000110115004+24930+121300FM-12+0141RCUK V0200701N00821006601CN0100001N1+02421+02101101151ADDAA199000091GA1011+003009089GA2051+006609069GA3071+024009039GF107991071041004501041999MA1999999100611MD1210201+9999REMSYN094AAXX  01154 46738 32460 70716 10242 20210 30061 40115 52020 8744/ 555 81810 85622 87358 00110;EQDQ01  00002PRCP99
0295467380999992000110200004+24930+121300FM-12+0141RCUK V0200101N00151007501CN0120001N1+02221+02001101551ADDAA112000791AY121061AY221061GA1031+002409089GA2051+007509069GA3071+012009069GF107991071041002501041999KA1120N+02151MA1999999101011MD1310231+9999MW1501REMSYN134AAXX  02004 46738 12362 70103 10222 20200 30101 40155 53023 69902 75022 8744/ 333 20215 555 83808 85625 87640 00990 24110 10324 20225;
0189467380999992000110203004+24930+121300FM-12+0141RCUK V0209999C000010042019N0110001N1+02461+02121101521ADDAA199000021GA1021+003609089GF106991051041004501031999MA1999999100981MD1810031+9999REMSYN095AAXX  02034 46738 32461 60000 10246 20212 30098 40152 58003 8543/ 555 82812 8562 5 86358 00990;
0226467380999992000110206004+24930+121300FM-12+0141RCUK V0200201N00311013501CN0110001N1+02301+02101101421ADDAA106000791GA1021+003009089GA2051+013509069GA3081+021009049GF108991051041004501031999MA1999999100881MD1610101+9999REMSYN100AAXX  02064 46738 12461 80206 10230 20210 30088 40142 56010 69901 8543/ 555 82810 85645 88457 00991;
0226467380999992000110209004+24930+121300FM-12+0141RCUK V0200101N00361013501CN0120001N1+02311+02091101521ADDAA100000791GA1011+003009089GA2051+013509069GA3081+018009069GF108991081041004501999999MA1999999100981MD1210101+9999REMSYN100AAXX  02094 46738 12462 80107 10231 20209 30098 40152 52010 6990/ 884// 555 81810 85645 88656 00991;
0249467380999992000110212004+24930+121300FM-12+0141RCUK V0200101N00511012001CN0120001N1+02231+01901101631ADDAA112000791GA1011+003609089GA2051+012009069GA3071+018009069GF107991071041004501999999KA1120M+02461MA1999999101091MD1310111+9999REMSYN110AAXX  02124 46738 12462 70110 10223 20190 30109 40163 53011 69902 874// 333 10246 555 81812 85640 87656 00991;
0226467380999992000110215004+24930+121300FM-12+0141RCUK V0203601N00411012001CN0120001N1+02211+01851101591ADDAA100000791GA1011+003609089GA2051+012009069GA3071+018009069GF107991071041004501999999MA1999999101051MD1010041+9999REMSYN100AAXX  02154 46738 12462 73608 10221 20185 30105 40159 50004 6990/ 874// 555 81812 85640 87656 00991;
0226467380999992000110218004+24930+121300FM-12+0141RCUK V0200101N00621012001CN0120001N1+02261+01881101591ADDAA106000791GA1011+003609089GA2051+012009069GA3071+018009069GF107991071041004501999999MA1999999101051MD1010001+9999REMSYN100AAXX  02184 46738 12462 70112 10226 20188 30105 40159 50000 69901 874// 555 81812 85640 87656 00000;
0226467380999992000110221004+24930+121300FM-12+0141RCUK V0203601N00511012001CN0120001N1+02261+01881101491ADDAA100000791GA1011+003609089GA2051+012009069GA3071+018009069GF107991071041004501999999MA1999999100951MD1010101+9999REMSYN100AAXX  02214 46738 12462 73610 10226 20188 30095 40149 50010 6990/ 874// 555 81812 85640 87656 00000;
0273467380999992000110300004+24930+121300FM-12+0141RCUK V0200101N00621012001CN0150001N1+02271+01841101661ADDAA112000791GA1011+003609089GA2051+012009069GA3071+021009039GF107991051041004501031999KA1120N+02241MA1999999101121MD1310171+9999REMSYN134AAXX  03004 46738 12465 70112 10227 20184 30112 40166 53017 69902 8543/ 333 20224 555 30123 81812 85640 87357 00000 24991 10246 20214;
0245467380999992000110303004+24930+121300FM-12+0141RCUK V0200201N00461018001CN0150001N1+02601+02051101631ADDAA199000091GA1021+003609089GA2031+018009069GA3061+090009009GF106991031041004501031011MA1999999101091MD1810031+9999REMSYN100AAXX  03034 46738 32465 60209 10260 20205 30109 40163 58003 83431 555 30123 82812 83656 86080 00000;EQDQ01  00002PRCP99
0255467380999992000110312004+24930+121300FM-12+0141RCUK V0200401N00311010501CN0120001N1+02191+02021101631ADDAA112000791AY121061AY221061GA1021+003009089GA2061+010509069GF107991051041004501999999KA1120M+02811MA1999999101091MD1210171+9999MW1601REMSYN110AAXX  03124 46738 11462 70406 10219 20202 30109 40163 52017 69902 76022 854// 333 10281 555 82810 86635 00990;
0232467380999992000110315004+24930+121300FM-12+0141RCUK V0200101N00311010501CN0120001N1+02121+02041101691ADDAA100000391AY121031AY221031GA1021+003009089GA2061+010509069GF107991051041004501999999MA1999999101151MD1110061+9999MW1611REMSYN100AAXX  03154 46738 11462 70106 10212 20204 30115 40169 51006 6993/ 76122 854// 555 82810 86635 00993;
0232467380999992000110318004+24930+121300FM-12+0141RCUK V0203601N00311010501CN0120001N1+01991+01931101521ADDAA106000591AY121061AY221061GA1021+003009089GA2061+010509069GF106991051041004501999999MA1999999100981MD1810171+9999MW1601REMSYN100AAXX  03184 46738 11462 63606 10199 20193 30098 40152 58017 69951 76022 854// 555 82810 86635 00993;
0232467380999992000110321004+24930+121300FM-12+0141RCUK V0203601N00151010501CN0120001N1+02151+01931101351ADDAA100000591AY121031AY221031GA1021+003009089GA2061+010509069GF106991051041004501999999MA1999999100811MD1710171+9999MW1601REMSYN100AAXX  03214 46738 12462 63603 10215 20193 30081 40135 57017 6995/ 76022 854// 555 82810 86635 00993;
0255467380999992000110400004+24930+121300FM-12+0141RCUK V0203601N00211013501CN0160001N1+02301+02021101521ADDAA112000591GA1021+003609089GA2051+013509069GA3071+024009039GF107991051081004501031001KA1120N+01881MA1999999100981MD1210171+9999REMSYN116AAXX  04004 46738 12466 73604 10230 20202 30098 40152 52017 69962 85830 333 20188 555 82812 85645 87358 00993 24993;
0220467380999992000110403004+24930+121300FM-12+0141RCUK V0200301N00411012001CN0160001N1+02631+02171101491ADDAA199000021GA1021+003609089GA2051+012009069GA3071+021009049GF107991051081004501011001MA1999999100951MD1810031+9999REMSYN094AAXX  04034 46738 32466 70308 10263 20217 30095 40149 58003 85810 555 82812 85640 87457 00993;
0277467380999992000110412004+24930+121300FM-12+0141RCUK V0203001N00151007501CN0080001N1+02461+02281101351ADDAA112000791AY161061AY221061GA1021+002409089GA2051+007509069GA3081+018009069GF108991081081002501999999KA1120M+03011MA1999999100811MD1210101+9999MW1601REMSYN116AAXX  04124 46738 11358 83003 10246 20228 30081 40135 52010 69902 76062 888// 333 10301 555 82808 85625 88656 00993;
0254467380999992000110415004+24930+121300FM-12+0141RCUK V0209999C00001007501CN0080001N1+02361+02241101321ADDAA100000591AY161031AY221031GA1021+002409089GA2051+007509069GA3081+018009069GF108991081081002501999999MA1999999100781MD1210031+9999MW1601REMSYN106AAXX  04154 46738 11358 80000 10236 20224 30078 40132 52003 6995/ 76062 888// 555 82808 85625 88656 00998;
0254467380999992000110418004+24930+121300FM-12+0141RCUK V0209999C00001007501CN0080001N1+02331+02241101321ADDAA106000591AY161061AY221061GA1021+002409089GA2051+007509069GA3081+018009069GF108991081081002501999999MA1999999100781MD1410001+9999MW1601REMSYN106AAXX  04184 46738 11358 80000 10233 20224 30078 40132 54000 69951 76062 888// 555 82808 85625 88656 00990;
0295467380999992000110500004+24930+121300FM-12+0141RCUK V0203401N00261018001CN0120001N1+02491+02101101191ADDAA112000591AY161061AY221061GA1011+003009089GA2031+012009069GA3071+018009069GF107991071041004501999999KA1120N+02201MA1999999100651MD1510131+9999MW1211REMSYN134AAXX  05004 46738 12462 73405 10249 20210 30065 40119 55013 69962 72162 874// 333 20220 555 81810 83640 87656 00991 24998 10301 20199;
0248467380999992000110503004+24930+121300FM-12+0141RCUK V0200901N00311024001CN0120001N1+02711+02181101121ADDAA199000021AY161031AY221031GA1011+003009089GA2031+009609069GA3071+024009039GF107991041041004501999999MA1999999100581MD1810071+9999MW1021REMSYN100AAXX  05034 46738 32462 70906 10271 20218 30058 40112 58007 70262 844// 555 81810 83632 87358 00991;
0248467380999992000110506004+24930+121300FM-12+0141RCUK V0200701N00411008401CN0120001N1+02741+02171100911ADDAA199000021AY161061AY221061GA1031+002409089GA2051+008409069GA3071+015009069GF107991051041002501999999MA1999999100371MD1710211+9999MW1251REMSYN100AAXX  05064 46738 32362 70708 10274 20217 30037 40091 57021 72562 854// 555 83808 85628 87650 00991;
0220467380999992000110509004+24930+121300FM-12+0141RCUK V0200501N00211021001CN0120001N1+02581+02151100951ADDAA199000021GA1011+001809089GA2031+012009069GA3071+021009039GF107991031041002501041999MA1999999100411MD1310041+9999REMSYN094AAXX  05094 46738 32362 70504 10258 20215 30041 40095 53004 8344/ 555 81806 83640 87357 00991;
0254467380999992000110515004+24930+121300FM-12+0141RCUK V0209999C00001012001CN0120001N1+02411+02151101081ADDAA100000791AY161031AY221031GA1011+003009089GA2051+012009069GA3071+018009069GF107991051041004501999999MA1999999100541MD1010001+9999MW1601REMSYN106AAXX  05154 46738 11462 70000 10241 20215 30054 40108 50000 6990/ 76062 854// 555 81810 85640 87656 00991;
0275467380999992000110521004+24930+121300FM-12+0141RCUK V0200301N00311012001CN0120001N1+02391+02091100981ADDAA100000191AY161031AY221031GA1011+003009089GA2051+012009069GA3071+018009069GF107991051041004501999999MA1999999100441MW1601REMSYN106AAXX  05214 46738 11462 70306 10239 20209 30044 40098 58000 6991/ 76062 854// 555 81810 85640 87656 00990;EQDQ01+000082APCTENQ02+000002APC3  
0255467380999992000110600004+24930+121300FM-12+0141RCUK V0200201N00621012001CN0130001N1+02521+02181101081ADDAA112000191GA1021+003009089GA2051+012009069GA3071+024009039GF107991051081004501031001KA1120N+01881MA1999999100541MD1310101+9999REMSYN116AAXX  06004 46738 12463 70212 10252 20218 30054 40108 53010 69912 85830 333 20188 555 82810 85640 87358 00990 24991;
0220467380999992000110603004+24930+121300FM-12+0141RCUK V0200701N00671010501CN0110001N1+02711+02291101121ADDAA199000021GA1031+003009089GA2051+010509069GA3071+024009039GF107991051081004501031001MA1999999100581MD1510041+9999REMSYN094AAXX  06034 46738 32461 70713 10271 20229 30058 40112 55004 85830 555 83810 85635 87358 00990;
0220467380999992000110606004+24930+121300FM-12+0141RCUK V0200701N005710090019N0110001N1+02721+02361100951ADDAA199000021GA1031+003009089GA2051+009009069GA3071+021009039GF107991051081004501031001MA1999999100411MD1710171+9999REMSYN094AAXX  06064 46738 32461 70711 10272 20236 30041 40095 57017 85830 555 83810 85630 87357 00990;
0254467380999992000110609004+24930+121300FM-12+0141RCUK V0200101N00261007501CN0070001N1+02511+02391100981ADDAA100000391AY181031AY221031GA1031+002109089GA2051+007509069GA3071+015009069GF107991071071002501001001MA1999999100441MD1810031+9999MW1801REMSYN106AAXX  06094 46738 11357 70105 10251 20239 30044 40098 58003 6993/ 78082 87700 555 83807 85625 87650 00993;
0255467380999992000110612004+24930+121300FM-12+0141RCUK V0209999C00001005401CN0110001N1+02421+02121101111ADDAA112000391AY181061AY221061GA1031+000609079GA2061+005409069GF107991051081004501031001KA1120M+02461MA1999999100571MD1110131+9999MW1801REMSYN110AAXX  06124 46738 12461 70000 10242 20212 30057 40111 51013 69932 78082 85830 333 10246 555 83702 86618 00995;
0248467380999992000110615004+24930+121300FM-12+0141RCUK V0200501N00511012001CN0110001N1+02481+02161101111ADDAA199000021AY181031AY221031GA1021+004509089GA2051+012009069GA3071+024009039GF107991051081004501031001MA1999999100571MD1010001+9999MW1801REMSYN100AAXX  06154 46738 32461 70510 10248 20216 30057 40111 50000 78082 85830 555 82815 85640 87358 00993;
0220467380999992000110618004+24930+121300FM-12+0141RCUK V0203101N00261012001CN0110001N1+02381+02091101111ADDAA199000021GA1021+004509089GA2051+012009069GA3071+024009039GF107991051081004501031001MA1999999100571MD1410001+9999REMSYN094AAXX  06184 46738 32461 73105 10238 20209 30057 40111 54000 85830 555 82815 85640 87358 00000;
0220467380999992000110621004+24930+121300FM-12+0141RCUK V0203201N00211012001CN0110001N1+02361+02081101151ADDAA199000021GA1021+004509089GA2051+012009069GA3071+024009039GF107991051081004501031001MA1999999100611MD1210041+9999REMSYN094AAXX  06214 46738 32461 73204 10236 20208 30061 40115 52004 85830 555 82815 85640 87358 00000;
0295467380999992000110700004+24930+121300FM-12+0141RCUK V0200201N00101004501CN0050001N1+02291+02231101391ADDAA112007991AY181061AY261061GA1031+001509079GA2051+004509069GA3081+012009069GF108991081081001501999999KA1120N+02291MA1999999100851MD1210241+9999MW1611REMSYN134AAXX  07004 46738 11250 80202 10229 20223 30085 40139 52024 60082 76186 888// 333 20229 555 83705 85615 88640 00008 24993 10283 20237;
0254467380999992000110703004+24930+121300FM-12+0141RCUK V0203101N00211024001CN0160001N1+02631+02281101391ADDAA100004191AY181031AY261031GA1031+003009089GA2031+007509069GA3061+024009039GF106991031021004501031001MA1999999100851MD1410001+9999MW1211REMSYN106AAXX  07034 46738 12466 63104 10263 20228 30085 40139 54000 6004/ 72186 83230 555 83810 83625 86358 00011;
0226467380999992000110706004+24930+121300FM-12+0141RCUK V0200901N00211012001CN0200001N1+02911+02341101171ADDAA106004191GA1021+003609089GA2031+012009069GA3051+054009039GF105991031021004501031001MA1999999100641MD1610211+9999REMSYN100AAXX  07064 46738 12470 50904 10291 20234 30064 40117 56021 60041 83230 555 82812 83640 85368 00011;
0204467380999992000110709004+24930+121300FM-12+0141RCUK V0200501N001012200019N0200001N1+02661+02271101181ADDAA100004191GA1021+003609089GA2031+010509069GF103991031021004501031001MA1999999100641MD1410001+9999REMSYN094AAXX  07094 46738 12470 30502 10266 20227 30064 40118 54000 6004/ 83230 555 82812 83635 00011;
0227467380999992000110712004+24930+121300FM-12+0141RCUK V0209999C00001024001CN0160001N1+02581+02231101321ADDAA112004191GA1021+003609089GA2051+024009039GF105991021011004501031001KA1120M+02941MA1999999100781MD1210141+9999REMSYN104AAXX  07124 46738 12466 50000 10258 20223 30078 40132 52014 60042 82130 333 10294 555 82812 85358 00004;
0198467380999992000110715004+24930+121300FM-12+0141RCUK V0200201N00211024001CN0110001N1+02481+02211101321ADDAA199000021GA1021+004509089GA2051+024009039GF105991021011004501031001MA1999999100781MD1010001+9999REMSYN088AAXX  07154 46738 32461 50204 10248 20221 30078 40132 50000 82130 555 82815 85358 00004;
0217467380999992000110718004+24930+121300FM-12+0141RCUK V0209999C00001024001CN0110001N1+02391+02121101251ADDAA199000091GA1021+004509089GA2051+024009039GF105991021011004501031001MA1999999100711MD1610071+9999REMSYN088AAXX  07184 46738 32461 50000 10239 20212 30071 40125 56007 82130 555 82815 85358 00000;EQDQ01  00002PRCP99
0273467380999992000110800004+24930+121300FM-12+0141RCUK V0209999V00051018001CN0130001N1+02631+02251101251ADDAA112000791AY151061AY221061GA1011+004509089GA2051+018009069GF105991051041004501001001KA1120N+02381MA1999999100711MD1110061+9999MW1201REMSYN128AAXX  08004 46738 12463 59901 10263 20225 30071 40125 51006 69902 72052 85400 333 20238 555 81815 85656 00990 24011 10294 20227;
0254467380999992000110803004+24930+121300FM-12+0141RCUK V0200401N00511006601CN0050001N1+02561+02361101321ADDAA100000391AY161031AY221031GA1031+002409089GA2051+006609069GA3071+015009069GF107991071041002501999999MA1999999100781MD1210071+9999MW1601REMSYN106AAXX  08034 46738 11350 70410 10256 20236 30078 40132 52007 6993/ 76062 874// 555 83808 85622 87650 00993;
0254467380999992000110806004+24930+121300FM-12+0141RCUK V0200201N00311075001CN0120001N1+02851+02491100981ADDAA106007191AY161061AY221061GA1011+003909089GA2031+015009069GA3071+075009009GF107991041041004501001011MA1999999100441MD1710341+9999MW1021REMSYN106AAXX  08064 46738 12462 70206 10285 20249 30044 40098 57034 60071 70262 84401 555 81813 83650 87075 00007;
0226467380999992000110809004+24930+121300FM-12+0141RCUK V0200301N00211013501CN0120001N1+02671+02421100981ADDAA100007191GA1011+002409089GA2051+013509069GA3071+060009009GF107991051041002501001011MA1999999100441MD1510001+9999REMSYN100AAXX  08094 46738 12362 70304 10267 20242 30044 40098 55000 6007/ 85401 555 81808 85645 87070 00007;
0249467380999992000110812004+24930+121300FM-12+0141RCUK V0209999C00001006601CN0120001N1+02551+02301101051ADDAA112007191GA1011+002409089GA2051+006609069GA3071+060009009GF107991051041002501001011KA1120M+02961MA1999999100511MD1210071+9999REMSYN110AAXX  08124 46738 12362 70000 10255 20230 30051 40105 52007 60072 85401 333 10296 555 81808 85622 87070 00007;
0239467380999992000110818004+24930+121300FM-12+0141RCUK V0209999C00001006601CN0120001N1+02301+02101101051ADDAA199000091GA1011+002409089GA2051+006609069GA3071+060009009GF107991051041002501001011MA1999999100511MD1410001+9999REMSYN094AAXX  08184 46738 32362 70000 10230 20210 30051 40105 54000 85401 555 81808 85622 87070 00000;EQDQ01  00002PRCP99
0252467380999992000110900004+24930+121300FM-12+0141RCUK V0209999V00051090001CN0120001N1+02591+02221101151ADDAA199000091GA1011+003909089GA2051+090009009GF105991999999004501999999KA1120N+02181MA1999999100611MD1510101+9999REMSYN110AAXX  09004 46738 32462 59901 10259 20222 30061 40115 55010 333 20218 555 81813 85080 00000 24007 10296 20235;EQDQ01  00002PRCP99
0217467380999992000110903004+24930+121300FM-12+0141RCUK V0209999V00101009601CN0100001N1+02911+02381101221ADDAA199000091GA1011+003009089GA2051+009609069GF105991051041004501999999MA1999999100681MD1010071+9999REMSYN088AAXX  09034 46738 32460 59902 10291 20238 30068 40122 50007 854// 555 81810 85632 00000;EQDQ01  00002PRCP99
0217467380999992000110906004+24930+121300FM-12+0141RCUK V0200901N004112200019N0100001N1+02901+02361101051ADDAA199000091GA1011+003009089GA2031+013509069GF103991031041004501999999MA1999999100511MD1710171+9999REMSYN088AAXX  09064 46738 32460 30908 10290 20236 30051 40105 57017 834// 555 81810 83645 00000;EQDQ01  00002PRCP99
0217467380999992000110909004+24930+121300FM-12+0141RCUK V0209999V00051007501CN0100001N1+02641+02261101151ADDAA199000091GA1031+003009089GA2071+007509069GF107991071041004501999999MA1999999100611MD1310101+9999REMSYN088AAXX  09094 46738 32460 79901 10264 20226 30061 40115 53010 874// 555 83810 87625 00000;EQDQ01  00002PRCP99
0240467380999992000110912004+24930+121300FM-12+0141RCUK V0200401N00311007501CN0100001N1+02531+02211101391ADDAA199000091GA1031+003009089GA2071+007509069GF107991071041004501999999KA1120M+02961MA1999999100851MD1210241+9999REMSYN098AAXX  09124 46738 32460 70406 10253 20221 30085 40139 52024 874// 333 10296 555 83810 87625 00000;EQDQ01  00002PRCP99
0235467380999992000110918004+24930+121300FM-12+0141RCUK V0203401N00151008401CN0100001N1+02341+02131101461ADDAA199000091GA1011+003009089GA2071+008409069GF107991071041004501999999MA1999999100921REMSYN088AAXX  09184 46738 32460 73403 10234 20213 30092 40146 51000 874// 555 81810 87628 00000;EQDQ01+000012APCTENQ02+000002APC3  Q03  00002PRCP99
0239467380999992000111215004+24930+121300FM-12+0141RCUK V0200401N00311007501CN0100001N1+02261+01901101791ADDAA199000091GA1011+003009089GA2051+007509069GA3071+024009049GF107991051081004501011999MA1999999101251MD1110031+9999REMSYN094AAXX  12154 46738 32460 70406 10226 20190 30125 40179 51003 8581/ 555 81810 85625 87458 00000;EQDQ01  00002PRCP99
0239467380999992000111218004+24930+121300FM-12+0141RCUK V0200301N00411007501CN0100001N1+02261+01901101691ADDAA199000091GA1011+003009089GA2051+007509069GA3071+024009049GF107991051081004501011999MA1999999101151MD1810101+9999REMSYN094AAXX  12184 46738 32460 70308 10226 20190 30115 40169 58010 8581/ 555 81810 85625 87458 00000;EQDQ01  00002PRCP99
0239467380999992000111221004+24930+121300FM-12+0141RCUK V0200201N00461008401CN0100001N1+02211+01881101591ADDAA199000091GA1011+003009089GA2051+008409069GA3071+024009049GF107991051081004501011999MA1999999101051MD1810101+9999REMSYN094AAXX  12214 46738 32460 70209 10221 20188 30105 40159 58010 8581/ 555 81810 85628 87458 00000;EQDQ01  00002PRCP99
0280467380999992000111300004+24930+121300FM-12+0141RCUK V0203601N00361010501CN0120001N1+02241+01931101661ADDAA199000091GA1011+003009089GA2031+005409069GA3071+010509069GF107991071081004501999999KA1120N+02181MA1999999101121MD1310071+9999REMSYN122AAXX  13004 46738 32462 73607 10224 20193 30112 40166 53007 878// 333 20218 555 81810 83618 87635 00000 24000 10258 20220;EQDQ01  00002PRCP99
0239467380999992000111303004+24930+121300FM-12+0141RCUK V0200301N00311012001CN0150001N1+02521+02071101631ADDAA199000091GA1021+003009089GA2061+012009069GA3071+021009049GF107991071081004501999999MA1999999101091MD1810031+9999REMSYN094AAXX  13034 46738 32465 70306 10252 20207 30109 40163 58003 878// 555 82810 86640 87457 00000;EQDQ01  00002PRCP99
0239467380999992000111309004+24930+121300FM-12+0141RCUK V0200601N00211006001CN0150001N1+02481+02091101391ADDAA199000091GA1021+003009089GA2031+006009069GA3051+012009069GF107991071051004501999999MA1999999100851MD1610071+9999REMSYN094AAXX  13094 46738 32465 70604 10248 20209 30085 40139 56007 875// 555 82810 83620 85640 00000;EQDQ01  00002PRCP99
0262467380999992000111312004+24930+121300FM-12+0141RCUK V0209999C00001012001CN0150001N1+02401+02011101491ADDAA199000091GA1021+003009089GA2051+012009069GA3071+024009039GF107991051051004501031999KA1120M+02621MA1999999100951MD1210101+9999REMSYN104AAXX  13124 46738 32465 70000 10240 20201 30095 40149 52010 8553/ 333 10262 555 82810 85640 87358 00000;EQDQ01  00002PRCP99
0239467380999992000111315004+24930+121300FM-12+0141RCUK V0203301N00051009001CN0150001N1+02361+01961101521ADDAA199000091GA1021+003609089GA2031+009009069GA3061+024009039GF106991031051004501031999MA1999999100981MD1310031+9999REMSYN094AAXX  13154 46738 32465 63301 10236 20196 30098 40152 53003 8353/ 555 82812 83630 86358 00000;EQDQ01  00002PRCP99
0239467380999992000111318004+24930+121300FM-12+0141RCUK V0203401N00261009001CN0150001N1+02411+01961101391ADDAA199000091GA1021+003609089GA2031+009009069GA3061+024009039GF106991031051004501031999MA1999999100851MD1810131+9999REMSYN094AAXX  13184 46738 32465 63405 10241 20196 30085 40139 58013 8353/ 555 82812 83630 86358 00000;EQDQ01  00002PRCP99
0217467380999992000111321004+24930+121300FM-12+0141RCUK V0203601N00311009001CN0150001N1+02241+01901101391ADDAA199000091GA1021+003609089GA2031+009009069GF106991031051004501001001MA1999999100851MD1410001+9999REMSYN088AAXX  13214 46738 32465 63606 10224 20190 30085 40139 54000 83500 555 82812 83630 00000;EQDQ01  00002PRCP99
0258467380999992000111400004+24930+121300FM-12+0141RCUK V0209999C000012200019N0180001N1+02411+02001101561ADDAA199000091GA1021+003609089GA2031+018009069GF103991031021004501001001KA1120N+02221MA1999999101021MD1210171+9999REMSYN116AAXX  14004 46738 32468 30000 10241 20200 30102 40156 52017 83200 333 20222 555 82812 83656 00000 24000 10262 20218;EQDQ01  00002PRCP99
0217467380999992000111403004+24930+121300FM-12+0141RCUK V0200801N003612200019N0200001N1+02861+02471101521ADDAA199000091GA1021+003609089GA2031+024009039GF103991021011004501031001MA1999999100981MD1510041+9999REMSYN088AAXX  14034 46738 32470 30807 10286 20247 30098 40152 55004 82130 555 82812 83358 00000;EQDQ01  00002PRCP99
0239467380999992000111406004+24930+121300FM-12+0141RCUK V0200701N00571045001CN0200001N1+02821+02371101351ADDAA199000091GA1011+003609089GA2031+010509069GA3051+045009039GF105991021011004501031001MA1999999100811MD1710171+9999REMSYN094AAXX  14064 46738 32470 50711 10282 20237 30081 40135 57017 82130 555 81812 83635 85365 00000;EQDQ01  00002PRCP99
0239467380999992000111409004+24930+121300FM-12+0141RCUK V0209999C00001018001CN0130001N1+02621+02201101391ADDAA199000091GA1011+003609089GA2031+010509069GA3051+018009069GF105991051081004501001001MA1999999100851MD1310041+9999REMSYN094AAXX  14094 46738 32463 50000 10262 20220 30085 40139 53004 85800 555 81812 83635 85656 00000;EQDQ01  00002PRCP99
0239467380999992000111415004+24930+121300FM-12+0141RCUK V0209999C00001009001CN0130001N1+02471+02051101491ADDAA199000091GA1021+003609089GA2031+009009069GA3051+030009039GF105991031081004501031001MA1999999100951MD1410001+9999REMSYN094AAXX  14154 46738 32463 50000 10247 20205 30095 40149 54000 83830 555 82812 83630 85360 00000;EQDQ01  00002PRCP99
0239467380999992000111418004+24930+121300FM-12+0141RCUK V0200501N00051009001CN0130001N1+02331+02011101461ADDAA199000091GA1021+003609089GA2031+009009069GA3051+030009039GF105991031081004501031001MA1999999100921MD1810031+9999REMSYN094AAXX  14184 46738 32463 50501 10233 20201 30092 40146 58003 83830 555 82812 83630 85360 00000;EQDQ01  00002PRCP99
0239467380999992000111421004+24930+121300FM-12+0141RCUK V0203501N00101009001CN0130001N1+02301+01971101421ADDAA199000091GA1021+003609089GA2031+009009069GA3051+030009039GF105991031081004501031001MA1999999100881MD1310041+9999REMSYN094AAXX  14214 46738 32463 53502 10230 20197 30088 40142 53004 83830 555 82812 83630 85360 00000;EQDQ01  00002PRCP99
0258467380999992000111500004+24930+121300FM-12+0141RCUK V0200101N001512200019N0180001N1+02591+02231101591ADDAA199000091GA1021+004209089GA2031+036009039GF103991021011004501031001KA1120N+02281MA1999999101051MD1310171+9999REMSYN116AAXX  15004 46738 32468 30103 10259 20223 30105 40159 53017 82130 333 20228 555 82814 83362 00000 24000 10294 20222;EQDQ01  00002PRCP99
0217467380999992000111503004+24930+121300FM-12+0141RCUK V0200701N002612200019N0180001N1+02961+02401101561ADDAA199000091GA1021+004209089GA2031+036009039GF103991021011004501031001MA1999999101021MD1510031+9999REMSYN088AAXX  15034 46738 32468 30705 10296 20240 30102 40156 55003 82130 555 82814 83362 00000;EQDQ01  00002PRCP99
0217467380999992000111506004+24930+121300FM-12+0141RCUK V0200701N003112200019N0180001N1+02961+02431101421ADDAA199000091GA1021+003609089GA2031+012009069GF103991021011004501031001MA1999999100881MD1710141+9999REMSYN088AAXX  15064 46738 32468 30706 10296 20243 30088 40142 57014 82130 555 82812 83640 00000;EQDQ01  00002PRCP99
0217467380999992000111509004+24930+121300FM-12+0141RCUK V0200601N001512200019N0100001N1+02701+02281101451ADDAA199000091GA1021+003609089GA2031+009009069GF103991031021004501031001MA1999999100911MD1210031+9999REMSYN088AAXX  15094 46738 32460 30603 10270 20228 30091 40145 52003 83230 555 82812 83630 00000;EQDQ01  00002PRCP99
0262467380999992000111512004+24930+121300FM-12+0141RCUK V0203401N00151009001CN0100001N1+02621+02181101561ADDAA199000091GA1021+003609089GA2031+009009069GA3051+018009069GF105991031021004501031001KA1120M+03051MA1999999101021MD1210111+9999REMSYN104AAXX  15124 46738 32460 53403 10262 20218 30102 40156 52011 83230 333 10305 555 82812 83630 85656 00000;EQDQ01  00002PRCP99
0239467380999992000111515004+24930+121300FM-12+0141RCUK V0209999C000010090019N0100001N1+02521+02031101591ADDAA199000091GA1021+003609089GA2031+009009069GA3051+018009069GF105991051081004501001001MA1999999101051MD1310031+9999REMSYN094AAXX  15154 46738 32460 50000 10252 20203 30105 40159 53003 85800 555 82812 83630 85656 00000;EQDQ01  00002PRCP99
0239467380999992000111518004+24930+121300FM-12+0141RCUK V0200201N002110090019N0100001N1+02501+02001101591ADDAA199000091GA1021+003609089GA2031+009009069GA3051+018009069GF105991051081004501001001MA1999999101051MD1410001+9999REMSYN094AAXX  15184 46738 32460 50204 10250 20200 30105 40159 54000 85800 555 82812 83630 85656 00000;EQDQ01  00002PRCP99
0195467380999992000111521004+24930+121300FM-12+0141RCUK V0203501N002112200019N0110001N1+02511+02161101461ADDAA199000091GA1021+004209079GF102991021061004501001001MA1999999101291MD1710101+9999REMSYN082AAXX  15214 46738 32461 23504 10251 20216 30129 40146 57010 82600 555 82714 00000;EQDQ01  00002PRCP99
0236467380999992000111600004+24930+121300FM-12+0141RCUK V0203501N001012200019N0150001N1+02641+02371101661ADDAA199000091GA1021+004209089GF102991021011004501001001KA1120N+02341MA1999999101121MD1310071+9999REMSYN110AAXX  16004 46738 32465 23502 10264 20237 30112 40166 53007 82100 333 20234 555 82814 00000 24000 10305 20228;EQDQ01  00002PRCP99
0243467380999992000111603004+24930+121300FM-12+0141RCUK V0202701N003112200019N0150001N1+02971+02501101561ADDAA199000091GA1021+004209089GF199999999999999999001001MA1999999101021MD1810101+9999REMSYN082AAXX  16034 46738 32465 02706 10297 20250 30102 40156 58010 82100 555 82814 00000;EQDQ01+000002SCOTCVQ02+000002SCOTLCQ03+000002SCOLCGQ04  00002PRCP99
0217467380999992000111606004+24930+121300FM-12+0141RCUK V0200601N00361024001CN0150001N1+02901+02501101421ADDAA199000091GA1021+003609089GA2051+024009039GF105991021011004501031001MA1999999100881MD1610141+9999REMSYN088AAXX  16064 46738 32465 50607 10290 20250 30088 40142 56014 82130 555 82812 85358 00000;EQDQ01  00002PRCP99
0239467380999992000111609004+24930+121300FM-12+0141RCUK V0200601N00151011101CN0120001N1+02681+02391101491ADDAA199000091GA1021+003609089GA2051+011109069GA3061+030009039GF106991051031004501031001MA1999999100951MD1310071+9999REMSYN094AAXX  16094 46738 32462 60603 10268 20239 30095 40149 53007 85330 555 82812 85637 86360 00000;EQDQ01  00002PRCP99
0240467380999992000111612004+24930+121300FM-12+0141RCUK V0209999C00001013501CN0120001N1+02561+02311101631ADDAA199000091GA1021+003009089GA2051+013509069GF105991051031004501001001KA1120M+02971MA1999999101091MD1110141+9999REMSYN098AAXX  16124 46738 32462 50000 10256 20231 30109 40163 51014 85300 333 10297 555 82810 85645 00000;EQDQ01  00002PRCP99
0217467380999992000111615004+24930+121300FM-12+0141RCUK V0200101N00101013501CN0120001N1+02561+02301101631ADDAA199000091GA1021+003009089GA2051+013509069GF105991051031004501001001MA1999999101091MD1410001+9999REMSYN088AAXX  16154 46738 32462 50102 10256 20230 30109 40163 54000 85300 555 82810 85645 00000;EQDQ01  00002PRCP99
0217467380999992000111618004+24930+121300FM-12+0141RCUK V0200201N00101013501CN0120001N1+02461+02241101561ADDAA199000091GA1021+003009089GA2051+013509069GF105991051031004501001001MA1999999101021MD1610071+9999REMSYN088AAXX  16184 46738 32462 50202 10246 20224 30102 40156 56007 85300 555 82810 85645 00000;EQDQ01  00002PRCP99
0217467380999992000111621004+24930+121300FM-12+0141RCUK V0200201N00211013501CN0120001N1+02451+02241101491ADDAA199000091GA1021+003009089GA2051+013509069GF105991051031004501001001MA1999999100951MD1610071+9999REMSYN088AAXX  16214 46738 32462 50204 10245 20224 30095 40149 56007 85300 555 82810 85645 00000;EQDQ01  00002PRCP99
0258467380999992000111700004+24930+121300FM-12+0141RCUK V0200201N00411009601CN0150001N1+02581+02201101661ADDAA199000091GA1011+003609089GA2051+009609069GF105991051031004501001001KA1120N+02401MA1999999101121MD1210171+9999REMSYN116AAXX  17004 46738 32465 50208 10258 20220 30112 40166 52017 85300 333 20240 555 81812 85632 00000 24000 10297 20234;EQDQ01  00002PRCP99
0273467380999992000111703004+24930+121300FM-12+0141RCUK V0200501N00721012001CN0120001N1+02751+02291101661ADDAA199000091GA1011+003909089GA2051+012009069GA3071+075009009GF107991051041004501001999MA1999999101121REMSYN094AAXX  17034 46738 32462 70514 10275 20229 30112 40166 58000 85400 555 81813 85640 87075 00000;EQDQ01+000002SCOHCGQ02+000082APCTENQ03+000002APC3  Q04  00002PRCP99
0239467380999992000111709004+24930+121300FM-12+0141RCUK V0200201N00511006301CN0120001N1+02481+02131101631ADDAA199000091GA1031+000609079GA2081+006309069GF199999071041004501999999MA1999999101091MD1510041+9999REMSYN094AAXX  17094 46738 32462 70210 10248 20213 30109 40163 55004 874// 555 30144 83702 88621 00000;EQDQ01+000072SCOTCVQ02  00002PRCP99
0262467380999992000111712004+24930+121300FM-12+0141RCUK V0200301N00261007501CN0120001N1+02321+02041101831ADDAA199000091GA1011+003909089GA2051+007509069GA3071+012009069GF107991071041004501999999KA1120M+02821MA1999999101291MD1210201+9999REMSYN104AAXX  17124 46738 32462 70305 10232 20204 30129 40183 52020 874// 333 10282 555 81813 85625 87640 00000;EQDQ01  00002PRCP99
0217467380999992000111715004+24930+121300FM-12+0141RCUK V0200201N00211009601CN0120001N1+02261+02001101831ADDAA199000091GA1011+003609089GA2061+009609069GF106991061041004501999999MA1999999101291MD1410001+9999REMSYN088AAXX  17154 46738 32462 60204 10226 20200 30129 40183 54000 864// 555 81812 86632 00000;EQDQ01  00002PRCP99
0217467380999992000111718004+24930+121300FM-12+0141RCUK V0200201N00211009601CN0120001N1+02261+02001101791ADDAA199000091GA1011+003609089GA2061+009609069GF106991061041004501999999MA1999999101251MD1610041+9999REMSYN088AAXX  17184 46738 32462 60204 10226 20200 30125 40179 56004 864// 555 81812 86632 00000;EQDQ01  00002PRCP99
0217467380999992000111721004+24930+121300FM-12+0141RCUK V0200201N00511012001CN0120001N1+02221+01971101791ADDAA199000091GA1011+003609089GA2061+012009069GF106991061041004501999999MA1999999101251MD1410001+9999REMSYN088AAXX  17214 46738 31462 60210 10222 20197 30125 40179 54000 864// 555 81812 86640 00000;EQDQ01  00002PRCP99
0280467380999992000111800004+24930+121300FM-12+0141RCUK V0200201N00571007501CN0200001N1+02291+01921101931ADDAA199000091GA1021+003009089GA2031+007509069GA3071+015009069GF107991071081004501001001KA1120N+02221MA1999999101391MD1210141+9999REMSYN122AAXX  18004 46738 32470 70211 10229 20192 30139 40193 52014 87800 333 20222 555 82810 83625 87650 00000 24000 10282 20226;EQDQ01  00002PRCP99
0239467380999992000111803004+24930+121300FM-12+0141RCUK V0200301N00411007501CN0200001N1+02441+01951101931ADDAA199000091GA1021+003009089GA2031+007509069GA3071+015009069GF107991071081004501001001MA1999999101391MD1410001+9999REMSYN094AAXX  18034 46738 32470 70308 10244 20195 30139 40193 54000 87800 555 82810 83625 87650 00000;EQDQ01  00002PRCP99
0239467380999992000111806004+24930+121300FM-12+0141RCUK V0200701N00211007501CN0150001N1+02631+02231101761ADDAA199000091GA1021+003009089GA2031+007509069GA3051+018009069GF105991051081004501001001MA1999999101221MD1710171+9999REMSYN094AAXX  18064 46738 32465 50704 10263 20223 30122 40176 57017 85800 555 82810 83625 85656 00000;EQDQ01  00002PRCP99
0239467380999992000111809004+24930+121300FM-12+0141RCUK V0200501N00361007501CN0120001N1+02401+02031101791ADDAA199000091GA1021+003009089GA2031+007509069GA3071+018009069GF107991071081004501001001MA1999999101251MD1210031+9999REMSYN094AAXX  18094 46738 32462 70507 10240 20203 30125 40179 52003 87800 555 82810 83625 87656 00000;EQDQ01  00002PRCP99
0262467380999992000111812004+24930+121300FM-12+0141RCUK V0200501N00151007501CN0130001N1+02321+01931101861ADDAA199000091GA1021+003009089GA2031+007509069GA3071+018009069GF107991071081004501001001KA1120M+02631MA1999999101321MD1310071+9999REMSYN104AAXX  18124 46738 32463 70503 10232 20193 30132 40186 53007 87800 333 10263 555 82810 83625 87656 00000;EQDQ01  00002PRCP99
0239467380999992000111815004+24930+121300FM-12+0141RCUK V0200301N00411007501CN0130001N1+02291+01881101861ADDAA199000091GA1021+003009089GA2031+007509069GA3071+018009069GF107991071081004501001001MA1999999101321MD1410001+9999REMSYN094AAXX  18154 46738 32463 70308 10229 20188 30132 40186 54000 87800 555 82810 83625 87656 00000;EQDQ01  00002PRCP99
0280467380999992000111900004+24930+121300FM-12+0141RCUK V0200301N00671045001CN0120001N1+02381+01981101761ADDAA199000091GA1011+003009089GA2031+010509069GA3051+045009039GF105991031081004501041001KA1120N+02181MA1999999101221MD1610101+9999REMSYN122AAXX  19004 46738 32462 50313 10238 20198 30122 40176 56010 83840 333 20218 555 81810 83635 85365 00000 24000 10263 20222;EQDQ01  00002PRCP99
0217467380999992000111903004+24930+121300FM-12+0141RCUK V0200601N00721013501CN0120001N1+02671+02241101691ADDAA199000091GA1031+003609089GA2051+013509069GF105991051081004501999999MA1999999101151MD1710071+9999REMSYN088AAXX  19034 46738 32462 50614 10267 20224 30115 40169 57007 858// 555 83812 85645 00000;EQDQ01  00002PRCP99
0245467380999992000111906004+24930+121300FM-12+0141RCUK V0200501N00621013501CN0080001N1+02631+02231101491ADDAA199000091AY121061AY221061GA1011+003609089GA2071+013509069GF107991071081004501999999MA1999999100951MD1710201+9999MW1051REMSYN094AAXX  19064 46738 31458 70512 10263 20223 30095 40149 57020 70522 878// 555 81812 87645 00000;EQDQ01  00002PRCP99
0267467380999992000111909004+24930+121300FM-12+0141RCUK V0200201N00411012001CN0080001N1+02561+02181101461ADDAA199000091AY121031AY221031GA1011+003009089GA2031+007509069GA3071+012009069GF107991071081004501999999MA1999999100921MD1610031+9999MW1051REMSYN100AAXX  19094 46738 31458 70208 10256 20218 30092 40146 56003 70522 878// 555 81810 83625 87640 00000;EQDQ01  00002PRCP99
0289467380999992000111912004+24930+121300FM-12+0141RCUK V0200301N00311007501CN0080001N1+02471+02131101491ADDAA199000091AY121061AY221061GA1011+003009089GA2051+007509069GA3071+015009069GF107991071081004501001001KA1120M+02761MA1999999100951MD1110031+9999MW1051REMSYN109AAXX  19124 46738 31458 70306 10247 20213 30095 40149 51003 70522 87800 333 10276 555 81810 85625 87650 0000;EQDQ01  00002PRCP99
0254467380999992000111915004+24930+121300FM-12+0141RCUK V0209999C00001007501CN0090001N1+02371+02161101491ADDAA100000791AY161031AY221031GA1021+003009089GA2051+007509069GA3071+018009069GF107991071081004501001001MA1999999100951MD1010001+9999MW1101REMSYN106AAXX  19154 46738 11459 70000 10237 20216 30095 40149 50000 6990/ 71062 87800 555 82810 85625 87656 00990;
0254467380999992000111918004+24930+121300FM-12+0141RCUK V0203001N00211007501CN0090001N1+02371+02171101421ADDAA106000791AY161061AY221061GA1021+003009089GA2051+007509069GA3071+018009069GF107991071081004501001001MA1999999100881MD1610071+9999MW1101REMSYN106AAXX  19184 46738 11459 73004 10237 20217 30088 40142 56007 69901 71062 87800 555 82810 85625 87656 00000;
0254467380999992000111921004+24930+121300FM-12+0141RCUK V0203101N00151006601CN0060001N1+02321+02161101221ADDAA100000391AY181031AY261031GA1031+002409089GA2051+006609069GA3081+015009069GF108991081071002501999999MA1999999100681MD1710201+9999MW1601REMSYN106AAXX  19214 46738 11356 83103 10232 20216 30068 40122 57020 6993/ 76086 887// 555 83808 85622 88650 00002;
0267467380999992000112000004+24930+121300FM-12+0141RCUK V0201801N00151024001CN0150001N1+02521+02241101291ADDAA112000391GA1011+003609089GA2031+012009069GA3061+024009039GF106991031011004501031001KA1120N+02281MA1999999100751MD1310071+9999REMSYN128AAXX  20004 46738 12465 61803 10252 20224 30075 40129 53007 69932 83130 333 20228 555 81812 83640 86358 00993 24990 10276 20218;
0248467380999992000112006004+24930+121300FM-12+0141RCUK V0200601N00671007501CN0080001N1+02601+02231101191ADDAA199000021AY121061AY221061GA1031+002409089GA2031+007509069GA3071+018009069GF107991051041002501999999MA1999999100651MD1710161+9999MW1051REMSYN100AAXX  20064 46738 31358 70613 10260 20223 30065 40119 57016 70522 854// 555 83808 83625 87656 00993;
0277467380999992000112012004+24930+121300FM-12+0141RCUK V0200201N00511006601CN0120001N1+02081+01931101691ADDAA112000591AY161061AY261061GA1011+003009079GA2051+006609069GA3071+012009069GF107991071041004501999999KA1120M+02851MA1999999101151MD1210301+9999MW1601REMSYN116AAXX  20124 46738 11462 70210 10208 20193 30115 40169 52030 69952 76066 874// 333 10285 555 81710 85622 87640 00998;
0254467380999992000112015004+24930+121300FM-12+0141RCUK V0203601N00261005401CN0100001N1+01951+01861101731ADDAA100000791AY161031AY261031GA1011+003009079GA2051+005409069GA3071+012009069GF107991071041004501999999MA1999999101191MD1110041+9999MW1601REMSYN106AAXX  20154 46738 11460 73605 10195 20186 30119 40173 51004 6990/ 76066 874// 555 81710 85618 87640 00998;
0254467380999992000112021004+24930+121300FM-12+0141RCUK V0203601N00411006001CN0100001N1+01751+01651101661ADDAA100000391AY161031AY261031GA1011+003009079GA2051+006009069GA3071+012009069GF107991071041004501999999MA1999999101121MD1810031+9999MW1601REMSYN106AAXX  20214 46738 11460 73608 10175 20165 30112 40166 58003 6993/ 76066 874// 555 81710 85620 87640 00993;
0267467380999992000112100004+24930+121300FM-12+0141RCUK V0203601N00621008401CN0130001N1+01941+01701101861ADDAA112000391GA1031+003009089GA2051+008409069GA3071+015009069GF107991071081004501001001KA1120N+01751MA1999999101321MD1310201+9999REMSYN128AAXX  21004 46738 12463 73612 10194 20170 30132 40186 53020 69932 87800 333 20175 555 83810 85628 87650 00993 24998 10285 20195;
0245467380999992000112106004+24930+121300FM-12+0141RCUK V0200101N00461007501CN0160001N1+02261+01911101721ADDAA199000021GA1021+003009089GA2031+007509069GA3071+030009039GF107991071081004501999001MA1999999101181MD1610141+9999REMSYN100AAXX  21064 46738 32466 70109 10226 20191 30118 40172 56014 87800 555 30124 82810 83625 87360 00993;EQDQ01+000002SCOMCG
0226467380999992000112109004+24930+121300FM-12+0141RCUK V0200201N00411007501CN0160001N1+02141+01731101731ADDAA199000021GA1021+003009089GA2031+007509069GA3071+024009039GF107991031021004501031001MA1999999101191MD1410001+9999REMSYN100AAXX  21094 46738 32466 70208 10214 20173 30119 40173 54001 83230 555 30122 82810 83625 87358 00993;
0282467380999992000112112004+24930+121300FM-12+0141RCUK V0200101N006210075019N0150001N1+02061+01601101931ADDAA199000091GA1021+003009089GA2031+007509069GA3081+018009069GF108991081999004501999999IA1019IA2999-02209KA1120M+02351MA1999999101391MD1210201+9999REMSYN106AAXX  21124 46738 32465 80112 10206 20160 30139 40193 52020 88/// 333 10235 30122 82810 83625 88656 00993;EQDQ01  00002PRCP99
0257467380999992000112121004+24930+121300FM-12+0141RCUK V0200201N00411007501CN0150001N1+01991+01541101891ADDAA199000091GA1021+003009089GA2031+007509069GA3081+018009069GF108991081081004501999999MA1999999101351REMSYN094AAXX  21214 46738 32465 80208 10199 20154 30135 40189 56000 888// 555 82810 83625 88656 00000;EQDQ01+000062APCTENQ02+000002APC3  Q03  00002PRCP99
0286467380999992000112200004+24930+121300FM-12+0141RCUK V0203601N00411012001CN0150001N1+02141+01551101861ADDAA199000091GA1011+003009089GA2051+012009069GA3081+018009069GF108991081081004501999999KA1120N+01921MA1999999101321MD1510031+9999REMSYN128AAXX  22004 46738 32465 83608 10214 20155 30132 40186 55003 888// 333 20192 555 30225 81810 85640 88656 00000 24993 10233 20175;EQDQ01  00002PRCP99
0217467380999992000112203004+24930+121300FM-12+0141RCUK V0200101N00511013501CN0120001N1+02421+01701101901ADDAA199000091GA1011+003609089GA2071+013509069GF107991071081004501999999MA1999999101361MD1110041+9999REMSYN088AAXX  22034 46738 32462 70110 10242 20170 30136 40190 51004 878// 555 81812 87645 00000;EQDQ01  00002PRCP99
0217467380999992000112206004+24930+121300FM-12+0141RCUK V0200601N00721018001CN0120001N1+02561+01821101691ADDAA199000091GA1011+003609089GA2071+018009069GF107991071081004501999999MA1999999101151MD1610211+9999REMSYN088AAXX  22064 46738 32462 70614 10256 20182 30115 40169 56021 878// 555 81812 87656 00000;EQDQ01  00002PRCP99
0239467380999992000112209004+24930+121300FM-12+0141RCUK V0200401N00411013501CN0100001N1+02411+01741101761ADDAA199000091GA1011+003009089GA2031+007509069GA3071+013509069GF107991071081004501999999MA1999999101221MD1310071+9999REMSYN094AAXX  22094 46738 32460 70408 10241 20174 30122 40176 53007 878// 555 81810 83625 87645 00000;EQDQ01  00002PRCP99
0233467380999992000112215004+24930+121300FM-12+0141RCUK V0200301N00361018001CN0120001N1+02201+01631101931ADDAA199000091GA1011+003009089GA2051+018009069GF105991999081004501999999MA1999999101391MD1110031+9999REMSYN088AAXX  22154 46738 32462 50307 10220 20163 30139 40193 51003 878// 555 81810 85656 00000;EQDQ01+000072SCOTLCQ02  00002PRCP99
0233467380999992000112218004+24930+121300FM-12+0141RCUK V0200301N00261018001CN0120001N1+02141+01321101861ADDAA199000091GA1011+003009089GA2051+018009069GF105991999081004501999999MA1999999101321MD1810071+9999REMSYN088AAXX  22184 46738 32462 50305 10214 20132 30132 40186 58007 878// 555 81810 85656 00000;EQDQ01+000072SCOTLCQ02  00002PRCP99
0249467380999992000112221004+24930+121300FM-12+0141RCUK V0203601N00411018001CN0120001N1+02161+01331101861ADDAA199000091GA1011+003009089GA2051+018009069GF105991999081004501999999MA1999999101321MD1410001+9999REMSYN088AAXX  22214 46738 32462 53608 10216 20133 30132 40186 58000 878// 555 81810 85656 00000;EQDQ01+000072SCOTLCQ02+000082APCTENQ03  00002PRCP99
0245467380999992000112300004+24930+121300FM-12+0141RCUK V0200201N00311014401CN0150001N1+02201+01851101931ADDAA199000091GA1011+003009089GA2071+014409069GF107991071081004501999999MA1999999101391MD1310071+9999REMSYN116AAXX  23004 46738 32465 70206 10220 20185 30139 40193 53007 878// 333 2/214 555 81810 87648 00000 24000 10270 20192;EQDQ01  00002PRCP99
0239467380999992000112303004+24930+121300FM-12+0141RCUK V0200301N00311018001CN0150001N1+02471+02031102001ADDAA199000091GA1011+003609089GA2031+009009069GA3051+018009069GF105991051081004501999999MA1999999101461MD1110071+9999REMSYN094AAXX  23034 46738 32465 50306 10247 20203 30146 40200 51007 858// 555 81812 83630 85656 00000;EQDQ01  00002PRCP99
0262467380999992000112312004+24930+121300FM-12+0141RCUK V0200201N00361015001CN0110001N1+02271+02011101891ADDAA199000091GA1021+003009089GA2051+015009069GA3071+024009039GF107991051081004501031001KA1120M+02621MA1999999101351MD1110101+9999REMSYN104AAXX  23124 46738 32461 70207 10227 20201 30135 40189 51010 85830 333 10262 555 82810 85650 87358 00000;EQDQ01  00002PRCP99
0239467380999992000112315004+24930+121300FM-12+0141RCUK V0200201N00671015001CN0110001N1+02231+01921101861ADDAA199000091GA1021+003609089GA2051+015009069GA3071+024009039GF107991051081004501031001MA1999999101321MD1810031+9999REMSYN094AAXX  23154 46738 32461 70213 10223 20192 30132 40186 58003 85830 555 82812 85650 87358 00000;EQDQ01  00002PRCP99
0223467380999992000112318004+24930+121300FM-12+0141RCUK V0203601N00511015001CN0110001N1+02181+01911101791ADDAA199000091GA1021+003609089GA2051+015009069GF107991051081004501031001MA1999999101251MD1610071+9999REMSYN094AAXX  23184 46738 32461 73610 10218 20191 30125 40179 56007 85830 555 82812 85650 07358 00000;EQDQ01  00002PRCP99
0239467380999992000112321004+24930+121300FM-12+0141RCUK V0203601N00411015001CN0110001N1+02161+01931101761ADDAA199000091GA1021+003609089GA2051+015009069GA3071+024009039GF107991051081004501031001MA1999999101221MD1610031+9999REMSYN094AAXX  23214 46738 32461 73608 10216 20193 30122 40176 56003 85830 555 82812 85650 87358 00000;EQDQ01  00002PRCP99
0280467380999992000112400004+24930+121300FM-12+0141RCUK V0200301N00151015001CN0150001N1+02181+01861101831ADDAA199000091GA1031+003609089GA2051+015009069GA3071+021009039GF107991051081004501031001KA1120N+02161MA1999999101291MD1310071+9999REMSYN122AAXX  24004 46738 32465 70303 10218 20186 30129 40183 53007 85830 333 20216 555 83812 85650 87357 00000 24000 10262 20214;EQDQ01  00002PRCP99
0239467380999992000112403004+24930+121300FM-12+0141RCUK V0200501N00211018001CN0150001N1+02461+02021101791ADDAA199000091GA1011+003009089GA2031+006609069GA3051+018009069GF107991051081004501031001MA1999999101251MD1810041+9999REMSYN094AAXX  24034 46738 32465 70504 10246 20202 30125 40179 58004 85830 555 81810 83622 85656 00000;EQDQ01  00002PRCP99
0239467380999992000112406004+24930+121300FM-12+0141RCUK V0200701N00511075001CN0090001N1+02661+02171101521ADDAA199000091GA1011+003009089GA2031+009609069GA3051+075009999GF105991031031004501031011MA1999999100981MD1710271+9999REMSYN094AAXX  24064 46738 31459 50710 10266 20217 30098 40152 57027 83331 555 81810 83632 85/75 00000;EQDQ01  00002PRCP99
0217467380999992000112409004+24930+121300FM-12+0141RCUK V0200501N001512200019N0150001N1+02361+02051101491ADDAA199000091GA1021+003609089GA2031+012009069GF103991031031004501031011MA1999999100951MD1610031+9999REMSYN088AAXX  24094 46738 32465 30503 10236 20205 30095 40149 56003 83331 555 82812 83640 00000;EQDQ01  00002PRCP99
0256467380999992000112412004+24930+121300FM-12+0141RCUK V0200101N002112200019N0120001N1+02281+01951101691ADDAA199000091GA1011+003609089GA2031+015009069GF103991999041004501001001KA1120M+02661MA1999999101151MD1210201+9999REMSYN098AAXX  24124 46738 32462 30104 10228 20195 30115 40169 52020 84400 333 10266 555 81812 83650 00000;EQDQ01+000042SCOTLCQ02  00002PRCP99
0246467380999992000112418004+24930+121300FM-12+0141RCUK V0200701N00871009601CN0080001N1+02201+01891101521ADDAA199000091AY111061AY211061GA1021+001209079GA2061+009609069GF106991061061001501001001MD1710181+9999MW1101REMSYN094AAXX  24184 46738 31258 60717 10220 20189 39844 40152 57018 71011 86600 555 82704 86632 00000;EQDQ01+098443APOSP Q02  00002PRCP99
0236467380999992000112500004+24930+121300FM-12+0141RCUK V0200101N003112200019N0160001N1+02331+01961101731ADDAA199000091GA1011+003609089GF101991011011004501001001KA1120N+02081MA1999999101191MD1210141+9999REMSYN110AAXX  25004 46738 32466 10106 10233 20196 30119 40173 52014 81100 333 20208 555 81812 00000 24000 10286 20200;EQDQ01  00002PRCP99
0195467380999992000112503004+24930+121300FM-12+0141RCUK V0200501N005112200019N0130001N1+02651+02091101731ADDAA199000091GA1011+003609089GF101991011011004501001001MA1999999101191MD1010001+9999REMSYN082AAXX  25034 46738 32463 10510 10265 20209 30119 40173 50000 81100 555 81812 00000;EQDQ01  00002PRCP99
0195467380999992000112506004+24930+121300FM-12+0141RCUK V0200701N005112200019N0110001N1+02801+02281101461ADDAA199000091GA1011+003609089GF101991011011004501001001MA1999999100921MD1710271+9999REMSYN082AAXX  25064 46738 32461 10710 10280 20228 30092 40146 57027 81100 555 81812 00000;EQDQ01  00002PRCP99
0195467380999992000112509004+24930+121300FM-12+0141RCUK V0200601N004112200019N0110001N1+02521+02121101491ADDAA199000091GA1011+003609089GF101991011011004501001001MA1999999100951MD1110031+9999REMSYN082AAXX  25094 46738 32461 10608 10252 20212 30095 40149 51003 81100 555 81812 00000;EQDQ01  00002PRCP99
0203467380999992000112512004+24930+121300FM-12+0141RCUK V0203201N001512200019N0120001N1+02231+01931101691ADDAA199000091GF101991011011004501001001KA1120M+02821MA1999999101151MD1210201+9999REMSYN093AAXX  25124 46738 32462 13203 10223 20193 30115 40169 52020 81100 333 10282 555 8 1812 00000;EQDQ01  00002PRCP99
0233467380999992000112515004+24930+121300FM-12+0141RCUK V0203201N002112200019N0150001N1+02121+01801101731ADDAA199000091GA1011+003609089GA2031+075009009GF103991011011004501001999MA1999999101191MD1010041+9999REMSYN088AAXX  25154 46738 32465 33204 10212 20180 30119 40173 50004 81100 555 81812 83075 00000;EQDQ01+000002SCOHCGQ02  00002PRCP99
0233467380999992000112521004+24930+121300FM-12+0141RCUK V0200301N001512200019N0150001N1+01871+01631101661ADDAA199000091GA1011+003609089GA2031+075009009GF103991011011004501001999MA1999999101121MD1410001+9999REMSYN088AAXX  25214 46738 32465 30303 10187 20163 30112 40166 54000 81100 555 81812 83075 00000;EQDQ01+000002SCOHCGQ02  00002PRCP99
0224467380999992000112600004+24930+121300FM-12+0141RCUK V0200101N002612200019N0160001N1+02281+01881101761ADDAA199000091GA1011+003609089GF101991011011004501001001KA1120N+01881MA1999999101221MD1210101+9999REMSYN098AAXX  26004 46738 32466 10105 10228 20188 30122 40176 52010 81100 333 20188 555 81812 00000 24000;EQDQ01  00002PRCP99
0195467380999992000112603004+24930+121300FM-12+0141RCUK V0200301N003612200019N0160001N1+02731+02121101761ADDAA199000091GA1011+003609089GF101991011011004501001001MA1999999101221MD1010001+9999REMSYN082AAXX  26034 46738 32466 10307 10273 20212 30122 40176 50000 81100 555 81812 00000;EQDQ01  00002PRCP99
0195467380999992000112606004+24930+121300FM-12+0141RCUK V0200601N005112200019N0160001N1+02891+02271101521ADDAA199000091GA1011+003609089GF101991011011004501001001MA1999999100981MD1710241+9999REMSYN082AAXX  26064 46738 32466 10610 10289 20227 30098 40152 57024 81100 555 81812 00000;EQDQ01  00002PRCP99
0195467380999992000112609004+24930+121300FM-12+0141RCUK V0200601N003612200019N0110001N1+02591+02181101551ADDAA199000091GA1011+003609089GF101991011011004501001001MA1999999101011MD1110031+9999REMSYN082AAXX  26094 46738 32461 10607 10259 20218 30101 40155 51003 81100 555 81812 00000;EQDQ01  00002PRCP99
0262467380999992000112612004+24930+121300FM-12+0141RCUK V0200401N00211018001CN0110001N1+02471+02121101691ADDAA199000091GA1011+003609089GA2031+009009069GA3051+018009069GF105991051081004501001001KA1120M+02931MA1999999101151MD1210141+9999REMSYN104AAXX  26124 46738 32461 50404 10247 20212 30115 40169 52014 85800 333 10293 555 81812 83630 85656 00000;EQDQ01  00002PRCP99
0235467380999992000112618004+24930+121300FM-12+0141RCUK V0200201N00361018001CN0110001N1+02341+02021101761ADDAA199000091GA1031+009009069GA2051+018009069GF105991051081004501001001MA1999999101221REMSYN088AAXX  26184 46738 32461 50207 10234 20202 30122 40176 52000 85800 555 83630 85656 00000;EQDQ01+000022APCTENQ02+000002APC3  Q03  00002PRCP99
0239467380999992000112621004+24930+121300FM-12+0141RCUK V0203501N00211018001CN0110001N1+02271+01861101761ADDAA199000091GA1011+003609089GA2031+009009069GA3051+018009069GF105991051081004501001001MA1999999101221MD1410001+9999REMSYN094AAXX  26214 46738 32461 53504 10227 20186 30122 40176 54000 85800 555 81812 83630 85656 00000;EQDQ01  00002PRCP99
0280467380999992000112700004+24930+121300FM-12+0141RCUK V0200201N00261018001CN0150001N1+02241+01831101831ADDAA199000091GA1011+003609089GA2031+009009069GA3051+018009069GF105991051081004501001001KA1120N+02141MA1999999101291MD1310071+9999REMSYN122AAXX  27004 46738 32465 50205 10224 20183 30129 40183 53007 85800 333 20214 555 81812 83630 85656 00000 24000 10293 20187;EQDQ01  00002PRCP99
0239467380999992000112703004+24930+121300FM-12+0141RCUK V0200601N00361042001CN0150001N1+02751+02221101861ADDAA199000091GA1011+003609089GA2031+010509069GA3051+042009039GF105991031011004501031001MA1999999101321MD1210031+9999REMSYN094AAXX  27034 46738 32465 50607 10275 20222 30132 40186 52003 83130 555 81812 83635 85364 00000;EQDQ01  00002PRCP99
0245467380999992000112706004+24930+121300FM-12+0141RCUK V0200701N00621021001CN0090001N1+02721+02271101591ADDAA199000091GA1011+003609089GA2031+008409069GA3051+021009039GF105991031011004501031001MA1999999101051MD1710271+9999REMSYN100AAXX  27064 46738 31459 50712 10272 20227 30105 40159 57027 83130 555 30722 81812 83628 85357 00000;EQDQ01  00002PRCP99
0260467380999992000112709004+24930+121300FM-12+0141RCUK V0200601N00311012001CN0100001N1+02371+02221101661ADDAA100000391AY121031AY221031GA1011+003009089GA2031+006009069GA3051+012009069GF107991051041004501001001MA1999999101121MD1310071+9999MW1601REMSYN112AAXX  27094 46738 11460 70606 10237 20222 30112 40166 53007 6993/ 76022 85400 555 30722 81810 83620 85640 00993;
0198467380999992000112721004+24930+121300FM-12+0141RCUK V0200201N00571012001CN0110001N1+02211+01921101761ADDAA199000021GA1021+003609089GA2051+012009069GF105991051081004501001001MA1999999101221MD1410001+9999REMSYN088AAXX  27214 46738 32461 50211 10221 20192 30122 40176 54000 85800 555 82812 85640 00000;
0259467380999992000112800004+24930+121300FM-12+0141RCUK V0200201N005710360019N0180001N1+02371+01941101861ADDAA199000091GA1011+003609089GA2031+009009069GF105991031011004501031001KA1120N+02191MA1999999101321MD1210101+9999REMSYN117AAXX  28004 46738 32468 50211 10237 20194 30132 40186 52010 83130 333 20219 555 81812 83630 00000. 24993 10278 20214;EQDQ01  00002PRCP99
0239467380999992000112803004+24930+121300FM-12+0141RCUK V0200601N00511008401CN0150001N1+02321+01951101931ADDAA199000091GA1021+003009089GA2031+008409069GA3071+018009069GF107991071041004501001001MA1999999101391MD1310071+9999REMSYN094AAXX  28034 46738 32465 70610 10232 20195 30139 40193 53007 87400 555 82810 83628 87656 00000;EQDQ01  00002PRCP99
0254467380999992000112806004+24930+121300FM-12+0141RCUK V0200601N00411006601CN0150001N1+02421+01961101761ADDAA106000791AY161061AY221061GA1031+003009089GA2051+006609069GA3071+015009069GF107991071081004501001001MA1999999101221MD1610171+9999MW1211REMSYN106AAXX  28064 46738 12465 70608 10242 20196 30122 40176 56017 69901 72162 87800 555 83810 85622 87650 00990;
0226467380999992000112809004+24930+121300FM-12+0141RCUK V0200201N00311006601CN0160001N1+02181+01871101831ADDAA100000591GA1031+003009089GA2051+006609069GA3071+015009069GF107991071081004501001001MA1999999101291MD1310071+9999REMSYN100AAXX  28094 46738 12466 70206 10218 20187 30129 40183 53007 6995/ 87800 555 83810 85622 87650 00995;
0226467380999992000112815004+24930+121300FM-12+0141RCUK V0203601N00361008401CN0130001N1+02121+01731101931ADDAA199000021GA1031+003009089GA2051+008409069GA3071+018009069GF107991071081004501001001MA1999999101391MD1110031+9999REMSYN100AAXX  28154 46738 32463 73607 10212 20173 30139 40193 51003 87800 555 30124 83810 85628 87656 00995;
0245467380999992000112821004+24930+121300FM-12+0141RCUK V0200401N00211008401CN0130001N1+01991+01671101861ADDAA199000091GA1031+003009089GA2051+008409069GA3071+018009069GF107991071081004501001001MA1999999101321MD1410001+9999REMSYN100AAXX  28214 46738 32463 70404 10199 20167 30132 40186 54000 87800 555 30124 83810 85628 87656 00000;EQDQ01  00002PRCP99
0239467380999992000112903004+24930+121300FM-12+0141RCUK V0200601N00311009001CN0160001N1+02561+02121101901ADDAA199000091GA1021+003609089GA2031+009009069GA3051+024009039GF105991031021004501031001MA1999999101361MD1510031+9999REMSYN094AAXX  29034 46738 32466 50606 10256 20212 30136 40190 55003 83230 555 82812 83630 85358 00000;EQDQ01  00002PRCP99
0239467380999992000112906004+24930+121300FM-12+0141RCUK V0200601N004610090019N0110001N1+02561+02241101691ADDAA199000091GA1021+003609089GA2031+009009069GA3061+018009069GF106991061081004501001001MA1999999101151MD1710211+9999REMSYN094AAXX  29064 46738 32461 60609 10256 20224 30115 40169 57021 86800 555 82812 83630 86656 00000;EQDQ01  00002PRCP99
0267467380999992000112909004+24930+121300FM-12+0141RCUK V0200501N00361006601CN0090001N1+02441+02131101691ADDAA199000091AY111031AY211031GA1021+003009089GA2031+006609069GA3061+015009069GF106991061081004501001001MA1999999101551MD1410001+9999MW1051REMSYN100AAXX  29094 46738 31459 60507 10244 20213 30155 40169 54000 70511 86800 555 82810 83622 86650 00000;EQDQ01  00002PRCP99
0268467380999992000112912004+24930+121300FM-12+0141RCUK V0209999C00001012001CN0040001N1+02381+01991101641ADDAA199000091AY121061AY221061GA1031+003009079GA2061+012009069GF106991061051004501001001KA1120M+02781MA1999999101291MD1210071+9999MW1101REMSYN104AAXX  29124 46738 31440 60000 10238 20199 30129 40164 52007 71022 86500 333 10278 555 83710 86640 00000;EQDQ01  00002PRCP99
0267467380999992000112915004+24930+121300FM-12+0141RCUK V0200201N00311006601CN0100001N1+02231+01901101761ADDAA199000091AY111031AY211031GA1021+003009089GA2031+006609069GA3071+015009069GF107991061081004501001001MA1999999101221MD1410001+9999MW1051REMSYN100AAXX  29154 46738 32460 70206 10223 20190 30122 40176 54000 70511 86800 555 82810 83622 87650 00000;EQDQ01  00002PRCP99
0239467380999992000112918004+24930+121300FM-12+0141RCUK V0203401N00211006601CN0100001N1+02181+01871101761ADDAA199000091GA1021+003009089GA2031+006609069GA3071+015009069GF107991061081004501001001MA1999999101221MD1410001+9999REMSYN094AAXX  29184 46738 32460 73404 10218 20187 30122 40176 54000 86800 555 82810 83622 87650 00000;EQDQ01  00002PRCP99
0286467380999992000113000004+24930+121300FM-12+0141RCUK V0203401N00211006601CN0110001N1+02121+01821101761ADDAA199000091GA1021+003009089GA2031+006609069GA3061+018009069GF106991061081004501001001KA1120N+02001MA1999999101221REMSYN110AAXX  30004 46738 32461 63404 10212 20182 30122 40176 51000 86800 333 20200 555 82810 83622 86656 00000 24000;EQDQ01+000012APCTENQ02+000002APC3  Q03  00002PRCP99
0267467380999992000113003004+24930+121300FM-12+0141RCUK V0200101N00261006601CN0080001N1+02481+02061101661ADDAA199000091AY121031AY221031GA1021+003009089GA2051+006609069GA3071+018009069GF107991071081004501001001MA1999999101211MD1710101+9999MW1051REMSYN100AAXX  30034 46738 31458 70105 10248 20206 30121 40166 57010 70522 87800 555 82810 85622 87656 00000;EQDQ01  00002PRCP99
0255467380999992000113006004+24930+121300FM-12+0141RCUK V0202001N99999007501CN0110001N1+02631+02231101421ADDAA199000091GA1021+003009089GA2031+007509069GA3051+075009009GF105991031081004501001011MA1999999100881MD1710241+9999REMSYN094AAXX  30064 46738 32461 57080 10263 20223 30088 40142 57024 83801 555 82810 83625 85075 00000;EQDQ01+009251WOSPD Q02  00002PRCP99
0239467380999992000113009004+24930+121300FM-12+0141RCUK V0200601N00151007501CN0110001N1+02461+02071101451ADDAA199000091GA1021+003009089GA2031+007509069GA3061+018009069GF106991061081004501001001MA1999999100911MD1110031+9999REMSYN094AAXX  30094 46738 32461 60603 10246 20207 30091 40145 51003 86800 555 82810 83625 86656 00000;EQDQ01  00002PRCP99
0262467380999992000113012004+24930+121300FM-12+0141RCUK V0202901N00211007501CN0110001N1+02351+01921101591ADDAA199000091GA1021+003009089GA2031+007509069GA3061+018009069GF106991061081004501001001KA1120M+02731MA1999999101051MD1210141+9999REMSYN104AAXX  30124 46738 32461 62904 10235 20192 30105 40159 52014 86800 333 10273 555 82810 83625 86656 00000;EQDQ01  00002PRCP99
0239467380999992000113018004+24930+121300FM-12+0141RCUK V0209999C00001007501CN0110001N1+02061+01831101491ADDAA199000091GA1021+003009089GA2031+007509069GA3061+018009069GF106991061081004501001001MA1999999100951MD1610101+9999REMSYN094AAXX  30184 46738 32461 60000 10206 20183 30095 40149 56010 86800 555 82810 83625 86656 00000;EQDQ01  00002PRCP99
0280467380999992000120100004+24930+121300FM-12+0141RCUK V0200101N00101075001CN0120001N1+02111+01671101661ADDAA199000091GA1011+004509089GA2031+024009039GA3071+075009009GF107991011011004501031011KA1120N+01941MA1999999101121MD1210201+9999REMSYN122AAXX  01004 46738 32462 70102 10211 20167 30112 40166 52020 81131 333 20194 555 81815 83358 87075 00000 24000 10273 20203;EQDQ01  00002PRCP99
0217467380999992000120103004+24930+121300FM-12+0141RCUK V0200401N00361066001CN0150001N1+02571+02021101661ADDAA199000091GA1011+004509089GA2071+066009009GF107991011011004501001011MA1999999101121MD1410001+9999REMSYN088AAXX  01034 46738 32465 70407 10257 20202 30112 40166 54000 81101 555 81815 87072 00000;EQDQ01  00002PRCP99
0245467380999992000120106004+24930+121300FM-12+0141RCUK V0200601N00621075001CN0080001N1+02581+02071101391ADDAA199000091AY121061AY221061GA1011+003909089GA2071+075009009GF107991011011004501001011MA1999999100851MD1710271+9999MW1051REMSYN094AAXX  01064 46738 31458 70612 10258 20207 30085 40139 57027 70522 81101 555 81813 87075 00000;EQDQ01  00002PRCP99
0251467380999992000120109004+24930+121300FM-12+0141RCUK V0200501N00261075001CN0090001N1+02371+01911101461ADDAA199000091AY121031AY221031GA1011+003609089GA2071+075009009GF107991011011004501001011MA1999999100921MD1310071+9999MW1051REMSYN100AAXX  01094 46738 31459 70505 10237 20191 30092 40146 53007 70522 81101 555 30623 81812 87075 00000;EQDQ01  00002PRCP99
0274467380999992000120112004+24930+121300FM-12+0141RCUK V0200101N00151066001CN9999999N1+02251+01801101661ADDAA199000091AY121061AY221061GA1011+003609089GA2071+066009009GF107991011011012501001011KA1120M+02721MA1999999101121MD1210201+9999MW1051REMSYN110AAXX  01124 46738 3261/ 70103 10225 20180 30112 40166 52020 70522 81101 333 10272 555 30623 81812 87072 00000;EQDQ01  00002PRCP99
0208467380999992000120115004+24930+121300FM-12+0141RCUK V0203401N002112200019N0100001N1+02121+01701101631ADDAA199000091GA1011+003609089GF107991011011004501001011MA1999999101091MD1810031+9999REMSYN095AAXX  01154 46738 32460 73404 10212 20170 30109 40163 58003 81101 555 81812 /83360 87072 00000;EQDQ01  00002PRCP99
0255467380999992000120118004+24930+121300FM-12+0141RCUK V0203501N00211066001CN0100001N1+02191+01721101561ADDAA199000091GA1011+003609089GA2031+030009039GA3071+066009009GF107991011011004501999011MA1999999101021MD1710071+9999REMSYN094AAXX  01184 46738 32460 73504 10219 20172 30102 40156 57007 81101 555 81812 83360 87072 00000;EQDQ01+000002SCOMCGQ02  00002PRCP99
0237467380999992000120200004+24930+121300FM-12+0141RCUK V0200201N00411013501CN0120001N1+02211+01761101761ADDAA199000091GA1011+003909089GA2071+013509069GF107991071041004501999999KA1120N+02001MD1210171+9999REMSYN110AAXX  02004 46738 32462 70208 10221 20176 40176 52017 874// 333 20200 555 81813 87645 00000 24000 10272 20194;EQDQ01  00002PRCP99
0239467380999992000120203004+24930+121300FM-12+0141RCUK V0200301N00411013501CN0120001N1+02521+01911101791ADDAA199000091GA1011+003909089GA2031+006609069GA3051+013509069GF105991051041004501999999MA1999999101251MD1110031+9999REMSYN094AAXX  02034 46738 32462 50308 10252 20191 30125 40179 51003 854// 555 81813 83622 85645 00000;EQDQ01  00002PRCP99
0245467380999992000120206004+24930+121300FM-12+0141RCUK V0200701N00721075001CN0120001N1+02581+01941101521ADDAA199000091GA1011+003009089GA2031+018009069GA3051+075009009GF105991051041004501001011MA1999999100981MD1710271+9999REMSYN100AAXX  02064 46738 32462 50714 10258 20194 30098 40152 57027 85401 555 30622 81810 83656 85075 00000;EQDQ01  00002PRCP99
0245467380999992000120209004+24930+121300FM-12+0141RCUK V0200601N00621012001CN0100001N1+02341+01831101521ADDAA199000091GA1011+002409089GA2051+012009069GA3071+018009069GF107991071041002501999999MA1999999100981MD1510001+9999REMSYN100AAXX  02094 46738 32360 70612 10234 20183 30098 40152 55000 874// 555 30622 81808 85640 87656 00000;EQDQ01  00002PRCP99
0290467380999992000120212004+24930+121300FM-12+0141RCUK V0203501N00101012001CN0090001N1+02341+01871101731ADDAA199000091AY121061AY221061GA1011+003009089GA2051+012009069GA3071+018009069GF107991071081004501001001KA1120M+02701MA1999999101191MD1210211+9999MW1051REMSYN110AAXX  02124 46738 31459 73502 10234 20187 30119 40173 52021 70522 87800 333 10270 555 81810 85640 87656 00000;EQDQ01  00002PRCP99
0267467380999992000120215004+24930+121300FM-12+0141RCUK V0200201N00361010501CN0090001N1+02281+01871101731ADDAA199000091AY121031AY221031GA1011+004509089GA2051+010509069GA3071+018009069GF107991071081004501001001MA1999999101191MD1510001+9999MW1051REMSYN100AAXX  02154 46738 31459 70207 10228 20187 30119 40173 55000 70522 87800 555 81815 85635 87656 00000;EQDQ01  00002PRCP99
0267467380999992000120218004+24930+121300FM-12+0141RCUK V0200301N00311010501CN0090001N1+02191+01831101591ADDAA199000091AY121061AY221061GA1011+004509089GA2051+010509069GA3071+018009069GF107991071081004501001001MA1999999101051MD1610141+9999MW1051REMSYN100AAXX  02184 46738 31459 70306 10219 20183 30105 40159 56014 70522 87800 555 81815 85635 87656 00000;EQDQ01  00002PRCP99
0280467380999992000120300004+24930+121300FM-12+0141RCUK V0200301N00361009601CN0110001N1+02301+01831101661ADDAA199000091GA1021+003609089GA2051+009609069GA3071+018009069GF107991071081004501001001KA1120N+02191MA1999999101121MD1110071+9999REMSYN122AAXX  03004 46738 32461 70307 10230 20183 30112 40166 51007 87800 333 20219 555 82812 85632 87656 00000 24000 10270 20200;EQDQ01  00002PRCP99
0239467380999992000120303004+24930+121300FM-12+0141RCUK V0200301N005710090019N0180001N1+02481+01941101661ADDAA199000091GA1021+003609089GA2051+009009069GA3071+018009069GF107991071081004501001001MA1999999101121MD1010001+9999REMSYN094AAXX  03034 46738 32468 70311 10248 20194 30112 40166 50000 87800 555 82812 85630 87656 00000;EQDQ01  00002PRCP99
0252467380999992000120306004+24930+121300FM-12+0141RCUK V0200601N00621008401CN0100001N1+02401+01951101461ADDAA106000791AY161061AY221061GA1021+003609089GA2051+008409069GA3081+018009069GF199999081081004501999999MD1610201+9999MW1211REMSYN100AAXX  03064 46738 12460 70612 1024/ 20195 40146 56020 69901 72162 888// 555 82812 85628 88656 00990;EQDQ01+000072SCOTCV
0233467380999992000120309004+24930+121300FM-12+0141RCUK V0200501N00461007501CN0120001N1+02331+01921101491ADDAA100000791GA1051+007509069GA2081+007509069GA3081+015009069GF108991081081004501999999MA1999999100951MD1310031+9999REMSYN107AAXX  03094 46738 12462 80509 10233 20192 30095 40149 53003 6990/ 888// 555 828 10 85625 88625 88650 00990;
0277467380999992000120312004+24930+121300FM-12+0141RCUK V0200201N00101005401CN0100001N1+02171+01911101621ADDAA112000791AY161061AY221061GA1021+001809089GA2051+005409069GA3081+015009069GF108991081071002501999999KA1120M+02521MA1999999101081MD1110131+9999MW1211REMSYN116AAXX  03124 46738 12360 80202 10217 20191 30108 40162 51013 69902 72162 887// 333 10252 555 82806 85618 88650 00990;
0220467380999992000120315004+24930+121300FM-12+0141RCUK V0200201N003110060019N0100001N1+02161+01861101661ADDAA199000021GA1021+002409089GA2051+006009069GA3081+015009069GF108991081081002501999999MA1999999101121MD1110041+9999REMSYN094AAXX  03154 46738 32360 80206 10216 20186 30112 40166 51004 888// 555 82808 85620 88650 00990;
0220467380999992000120318004+24930+121300FM-12+0141RCUK V0200101N00361006601CN0100001N1+02091+01811101631ADDAA199000021GA1021+002409089GA2051+006609069GA3081+015009069GF108991081081002501999999MA1999999101091MD1810031+9999REMSYN094AAXX  03184 46738 32360 80107 10209 20181 30109 40163 58003 888// 555 82808 85622 88650 00000;
0220467380999992000120321004+24930+121300FM-12+0141RCUK V0203501N00461006601CN0110001N1+02021+01721101521ADDAA199000021GA1021+002409089GA2051+006609069GA3071+015009069GF107991071081002501001001MA1999999100981MD1710111+9999REMSYN094AAXX  03214 46738 32361 73509 10202 20172 30098 40152 57011 87800 555 82808 85622 87650 00000;
0255467380999992000120400004+24930+121300FM-12+0141RCUK V0203601N00361008401CN0110001N1+02131+01771101691ADDAA199000021GA1021+003609089GA2051+008409069GA3071+018009069GF107991071081004501001001KA1120N+02001MA1999999101151MD1210171+9999REMSYN116AAXX  04004 46738 32461 73607 10213 20177 30115 40169 52017 87800 333 20200 555 82812 85628 87656 00000 24990 10264;
0239467380999992000120403004+24930+121300FM-12+0141RCUK V0200101N00511008401CN0110001N1+02291+01821101691ADDAA199000091GA1021+003609089GA2051+008409069GA3071+018009069GF107991071081004501001001MA1999999101151MD1010001+9999REMSYN094AAXX  04034 46738 32461 70110 10229 20182 30115 40169 50000 87800 555 82812 85628 87656 00000;EQDQ01  00002PRCP99
0267467380999992000120406004+24930+121300FM-12+0141RCUK V0200601N00721007501CN0090001N1+02451+01981101491ADDAA199000091AY121061AY221061GA1021+003609089GA2051+007509069GA3071+024009039GF107991051081004501031001MA1999999100951MD1610201+9999MW1051REMSYN100AAXX  04064 46738 31459 70614 10245 20198 30095 40149 56020 70522 85830 555 82812 85625 87358 00000;EQDQ01  00002PRCP99
0267467380999992000120409004+24930+121300FM-12+0141RCUK V0200201N00461006601CN0070001N1+02241+01861101521ADDAA199000091AY121031AY221031GA1021+003009089GA2051+006609069GA3071+015009069GF107991071081004501001001MA1999999100981MD1310031+9999MW1051REMSYN100AAXX  04094 46738 31457 70209 10224 20186 30098 40152 53003 70522 87800 555 82810 85622 87650 00000;EQDQ01  00002PRCP99
0262467380999992000120412004+24930+121300FM-12+0141RCUK V0200101N00311006601CN0100001N1+02101+01751101661ADDAA199000091GA1021+003009089GA2051+006609069GA3071+015009069GF107991071081004501001001KA1120M+02491MA1999999101121MD1110141+9999REMSYN104AAXX  04124 46738 32460 70106 10210 20175 30112 40166 51014 87800 333 10249 555 82810 85622 87650 00000;EQDQ01  00002PRCP99
0239467380999992000120415004+24930+121300FM-12+0141RCUK V0200101N00461007501CN0110001N1+02101+01711101661ADDAA199000091GA1021+003609089GA2051+007509069GA3071+015009069GF107991071081004501001001MA1999999101121MD1410001+9999REMSYN094AAXX  04154 46738 32461 70109 10210 20171 30112 40166 54000 87800 555 82812 85625 87650 00000;EQDQ01  00002PRCP99
0239467380999992000120418004+24930+121300FM-12+0141RCUK V0203601N00311018001CN0110001N1+01981+01621101591ADDAA199000091GA1011+003609089GA2031+008409069GA3051+018009069GF105991051081004501001001MA1999999101051MD1810071+9999REMSYN094AAXX  04184 46738 32461 53606 10198 20162 30105 40159 58007 85800 555 81812 83628 85656 00000;EQDQ01  00002PRCP99
0239467380999992000120503004+24930+121300FM-12+0141RCUK V0200701N00411021001CN0120001N1+02551+01901101731ADDAA199000091GA1011+004509089GA2031+007509069GA3071+021009039GF107991041041004501041001MA1999999101191MD1010001+9999REMSYN094AAXX  05034 46738 32462 70708 10255 20190 30119 40173 50000 84440 555 81815 83625 87357 00000;EQDQ01  00002PRCP99
0239467380999992000120506004+24930+121300FM-12+0141RCUK V0200701N007212200019N0060001N1+02531+01891101521ADDAA199000091GA1031+003009089GA2031+010509069GF103991999041004501001001MA1999999100981MD1710211+9999REMSYN094AAXX  05064 46738 31456 30714 10253 20189 30098 40152 57021 85400 555 30622 83810 83635 00000;EQDQ01+000052SCOTLCQ02  00002PRCP99
0251467380999992000120509004+24930+121300FM-12+0141RCUK V0209999999999012001CN0100001N1+02331+01781101561ADDAA199000091AY121031AY221031GA1011+003609089GA2071+012009069GF107991071041004501001001MA1999999101021MD1510041+9999MW1051REMSYN100AAXX  05094 46738 32460 70/10 10233 20178 30102 40156 55004 70522 87400 555 30622 81812 87640 00000;EQDQ01  00002PRCP99
0249467380999992000120512004+24930+121300FM-12+0141RCUK V0200301N004112200019N0060001N1+02201+01861101761ADDAA199000091AY121061AY221061GA1011+003609089GA2031+009009069GF103991031081004501001001MA1999999101221MD1210201+9999MW1051REMSYN098AAXX  05124 46738 31456 30308 10220 20186 30122 40176 52020 70522 83800 333 555 81812 83630 00000;EQDQ01  00002PRCP99
0245467380999992000120515004+24930+121300FM-12+0141RCUK V0200101N007712200019N0070001N1+02211+01881101731ADDAA199000091AY121031AY211031GA1011+004509089GA2031+012009069GF103991031081004501001001MA1999999101191MD1810031+9999MW1051REMSYN094AAXX  05154 46738 31457 30115 10221 20188 30119 40173 58003 70521 83800 555 81815 83640 00000;EQDQ01  00002PRCP99
0245467380999992000120518004+24930+121300FM-12+0141RCUK V0200101N005712200019N0070001N1+02161+01871101661ADDAA199000091AY121061AY211061GA1011+004509089GA2031+012009069GF103991031081004501001001MA1999999101121MD1610071+9999MW1051REMSYN094AAXX  05184 46738 31457 30111 10216 20187 30112 40166 56007 70521 83800 555 81815 83640 00000;EQDQ01  00002PRCP99
0228467380999992000120521004+24930+121300FM-12+0141RCUK V0200101N006712200019N0070001N1+02151+01881101661ADDAA199000091AY121031AY211031GA1021+004509089GF103991031081004501001001MA1999999101121MD1410001+9999MW1051REMSYN093AAXX  05214 46738 31457 30113 10215 20188 30112 40166 54000 70521 83800 555 82815 IYRP 00000;EQDQ01  00002PRCP99
0286467380999992000120600004+24930+121300FM-12+0141RCUK V0203601N00621007501CN0100001N1+02181+01801101831ADDAA112000791AY181061AY261061GA1031+001509089GA2051+007509069GA3071+015009069GF107991071081001501001001KA1120N+02071MD1310171+9999MW1151REMSYN140AAXX  06004 46738 12260 73612 10218 2018/ 40183 53017 69902 71586 87800 333 20207 555 83805 85625 87650 00990 24000 10264 20195 /O 36696 QW;
0251467380999992000120612004+24930+121300FM-12+0141RCUK V0203601N00261006601CN0110001N1+02191+01831101861ADDAA199000091GA1051+006609069GA2081+013509069GF108991081081004501999999KA1120M+02541MA1999999101321MD1310201+9999REMSYN109AAXX  06124 46738 32461 83605 10219 20183 30132 40186 53020 888// 333 10254 555 30623 8IQP 85622 88645 00990;EQDQ01  00002PRCP99
0239467380999992000120615004+24930+121300FM-12+0141RCUK V0203601N00361009601CN0120001N1+02151+01781101831ADDAA199000091GA1011+003009089GA2051+009609069GA3071+021009039GF107991051081004501031999MA1999999101291MD1810031+9999REMSYN094AAXX  06154 46738 32462 73607 10215 20178 30129 40183 58003 8583/ 555 81810 85632 87357 00990;EQDQ01  00002PRCP99
0239467380999992000120618004+24930+121300FM-12+0141RCUK V0200401N00151009601CN0120001N1+02001+01651101731ADDAA199000091GA1011+003009089GA2051+009609069GA3071+021009039GF107991051081004501031999MA1999999101191MD1610101+9999REMSYN094AAXX  06184 46738 32462 70403 10200 20165 30119 40173 56010 8583/ 555 81810 85632 87357 00000;EQDQ01  00002PRCP99
0239467380999992000120621004+24930+121300FM-12+0141RCUK V0200101N00361009601CN0120001N1+02081+01691101731ADDAA199000091GA1011+003009089GA2051+009609069GA3071+021009039GF107991051081004501031999MA1999999101191MD1410001+9999REMSYN094AAXX  06214 46738 32462 70107 10208 20169 30119 40173 54000 8583/ 555 81810 85632 87357 00000;EQDQ01  00002PRCP99
0239467380999992000120706004+24930+121300FM-12+0141RCUK V0200701N00461008401CN0120001N1+02471+01921101591ADDAA199000091GA1021+003609089GA2051+008409069GA3071+021009039GF107991051081004501031001MA1999999101051MD1610241+9999REMSYN094AAXX  07064 46738 32462 70709 10247 20192 30105 40159 56024 85830 555 82812 85628 87357 00000;EQDQ01  00002PRCP99
0254467380999992000120709004+24930+121300FM-12+0141RCUK V0209999V00101008401CN0100001N1+02341+01891101591ADDAA100000791AY161031AY221031GA1031+003009089GA2051+008409069GA3071+015009069GF107991071081004501001001MA1999999101051MD1510001+9999MW1601REMSYN106AAXX  07094 46738 11460 79902 10234 20189 30105 40159 55000 6990/ 76062 87800 555 83810 85628 87650 00990;
0245467380999992000120715004+24930+121300FM-12+0141RCUK V0200101N00411013501CN0100001N1+02181+01821101791ADDAA199000021AY161031AY221031GA1011+003009089GA2051+013509069GF105991051081004501001001MA1999999101251MD1010001+9999MW1221REMSYN094AAXX  07154 46738 32460 50108 10218 20182 30125 40179 50000 72262 85800 555 81810 85645 00990;EQDQ01+000002PRSWM1
0219467380999992000120721004+24930+121300FM-12+0141RCUK V0203601N00621013501CN0100001N1+02101+01781101631ADDAA199000021GA1011+003009089GA2051+013509069GF105991051081004501999999MA1999999101091REMSYN088AAXX  07214 46738 32460 53612 10210 20178 30109 40163 58000 858// 555 81810 85645 00000;EQDQ01+000082APCTENQ02+000002APC3  
0238467380999992000120800004+24930+121300FM-12+0141RCUK V0203601N00821006601CN0110001N1+02161+01881101721ADDAA199000021GA1021+003009089GA2051+006609069GA3071+015009069GF107991071081004501001001MA1999999101181MD1110091+9999REMSYN112AAXX  08004 46738 32461 73616 10216 20188 30118 40172 51009 87800 555 82810 85622 87650 00000 24990 10269 20200;
0247467380999992000120803004+24930+121300FM-12+0141RCUK V0203601N00621006601CN0090001N1+02371+01921101761ADDAA199000021AY121031AY221031GA1021+003009089GA2051+006609069GA3071+015009069GF107991071081004501001001MA1999999101221MD1010041+9999MW1051REMSYN099AAXX  08034 46738 31459 73612 10237 20192 30122 40176 50004 70522 87800 555 82810 85622 87650 0000;
0239467380999992000120806004+24930+121300FM-12+0141RCUK V0200301N00571008401CN0110001N1+02471+01981101521ADDAA199000091GA1021+003609089GA2051+008409069GA3071+018009069GF107991071081004501001001MA1999999100981MD1710201+9999REMSYN094AAXX  08064 46738 32461 70311 10247 20198 30098 40152 5702/ 87800 555 82812 85628 87656 00000;EQDQ01  00002PRCP99
0255467380999992000120809004+24930+121300FM-12+0141RCUK V0203601N00411007501CN0110001N1+02321+01921101521ADDAA199000091GA1021+004509089GA2031+007509069GA3051+018009069GF105991999081004501001001MA1999999100981MD1510001+9999REMSYN094AAXX  08094 46738 32461 53608 10232 20192 30098 40152 55000 87800 555 82815 83625 85656 00000;EQDQ01+000072SCOTLCQ02  00002PRCP99
0217467380999992000120815004+24930+121300FM-12+0141RCUK V0203201N00311024001CN0110001N1+02001+01721101511ADDAA199000091GA1011+003609089GA2051+024009039GF105991011011004501041999MA1999999101021MD1610031+9999REMSYN088AAXX  08154 46738 32461 53206 10200 20172 30102 40151 56003 8114/ 555 81812 85358 00000;EQDQ01  00002PRCP99
0217467380999992000120821004+24930+121300FM-12+0141RCUK V0203301N00261024001CN0110001N1+01801+01511101491ADDAA199000091GA1011+003609089GA2051+024009039GF105991011011004501041999MA1999999100951MD1710031+9999REMSYN088AAXX  08214 46738 32461 53305 10180 20151 30095 40149 57003 8114/ 555 81812 85358 00000;EQDQ01  00002PRCP99
0239467380999992000120909004+24930+121300FM-12+0141RCUK V0200401N00361010501CN0160001N1+02391+02021101391ADDAA199000091GA1021+003609089GA2031+010509069GA3061+024009039GF106991031081004501031001MA1999999100851MD1510001+9999REMSYN094AAXX  09094 46738 32466 60407 10239 20202 30085 40139 55000 83830 555 82812 83635 86358 00000;EQDQ01  00002PRCP99
0278467380999992000120912004+24930+121300FM-12+0141RCUK V0203401N00211009001CN0110001N1+02181+01781101491ADDAA199000091GA1021+003609089GA2031+009009069GA3061+018009069GF106991999081004501001001KA1120M+02681MA1999999100951MD1110101+9999REMSYN104AAXX  09124 46738 32461 63404 10218 20178 30095 40149 51010 87800 333 10268 555 82812 83630 86656 00000;EQDQ01+000072SCOTLCQ02  00002PRCP99
0255467380999992000120915004+24930+121300FM-12+0141RCUK V0203501N00261009001CN0110001N1+02211+01791101551ADDAA199000091GA1021+003609089GA2031+009009069GA3061+018009069GF106991999081004501001001MA1999999101011MD1110061+9999REMSYN094AAXX  09154 46738 32461 63505 10221 20179 30101 40155 51006 87800 555 82812 83630 86656 00000;EQDQ01+000072SCOTLCQ02  00002PRCP99
0255467380999992000120918004+24930+121300FM-12+0141RCUK V0203301N00311009001CN0110001N1+02201+01781101491ADDAA199000091GA1021+003609089GA2031+009009069GA3061+018009069GF106991999081004501001001MA1999999100951MD1610061+9999REMSYN094AAXX  09184 46738 32461 63306 10220 20178 30095 40149 56006 87800 555 82812 83630 86656 00000;EQDQ01+000072SCOTLCQ02  00002PRCP99
0271467380999992000120921004+24930+121300FM-12+0141RCUK V0203301N00101009001CN0110001N1+02061+01671101521ADDAA199000091GA1021+003609089GA2031+009009069GA3061+018009069GF106991999081004501001001MA1999999100981MD1110031+9999REMSYN094AAXX  09214 46738 32461 63302 10206 20167 30098 40152 5100/ 87800 555 82812 83630 86656 00000;EQDQ01+000072SCOTLCQ02+000002APC3  Q03  00002PRCP99
0280467380999992000121000004+24930+121300FM-12+0141RCUK V0203201N00211024001CN0130001N1+02191+01811101691ADDAA199000091GA1011+003909089GA2031+012009069GA3051+024009039GF105991051081004501061999KA1120N+01981MA1999999101151MD1210171+9999REMSYN122AAXX  10004 46738 32463 53204 10219 20181 30115 40169 52017 8586/ 333 20198 555 81813 83640 85358 00000 24000 10268 20180;EQDQ01  00002PRCP99
0186467380999992000121100004+24930+121300FM-12+0141RCUK V0203601N003110090019N0120001N1+02211+01911102031ADDAA199000091GF108991081081004501999999KA1999N+02161MA1999999101491MD1110171+9999REMSYN076AAXX  11004 46738 32462 83606 10221 20191 30149 40203 51017 888// 333 20216;EQDQ01  00002PRCP99
0226467380999992000121106004+24930+121300FM-12+0141RCUK V0200201N005110090019N0120001N1+02291+01961102001ADDAA106000791GA1031+003009089GA2051+009009069GA3081+018009069GF108991081081004501999999MA1999999101461MD1810131+9999REMSYN100AAXX  11064 46738 12462 80210 10229 20196 30146 40200 58013 69901 888// 555 83810 85630 88656 00990;
0226467380999992000121109004+24930+121300FM-12+0141RCUK V0200101N00461010501CN0120001N1+02191+01861102071ADDAA100000791GA1021+003609089GA2051+010509069GA3081+018009069GF108991081081004501999999MA1999999101531MD1310071+9999REMSYN100AAXX  11094 46738 12462 80109 10219 20186 30153 40207 53007 6990/ 888// 555 82812 85635 88656 00990;
0277467380999992000121112004+24930+121300FM-12+0141RCUK V0203601N00461007501CN0100001N1+02081+01871102101ADDAA112000191AY161061AY221061GA1031+003009089GA2051+007509069GA3081+015009069GF108991081081004501999999KA1120M+02331MA1999999101561MD1110031+9999MW1211REMSYN116AAXX  11124 46738 12460 83609 10208 20187 30156 40210 51003 69912 72162 888// 333 10233 555 83810 85625 88650 00991;
0254467380999992000121115004+24930+121300FM-12+0141RCUK V0200201N00671005401CN0070001N1+01921+01831102101ADDAA100000591AY161031AY221031GA1031+001809089GA2051+005409069GA3081+015009069GF108991081071002501999999MA1999999101561MD1410001+9999MW1601REMSYN106AAXX  11154 46738 11357 80213 10192 20183 30156 40210 54000 6995/ 76062 887// 555 83806 85618 88650 00996;
0254467380999992000121118004+24930+121300FM-12+0141RCUK V0203601N00511006601CN0090001N1+01901+01811102071ADDAA106000591AY161061AY261061GA1031+002409089GA2051+006609069GA3081+015009069GF108991081071002501999999MA1999999101531MD1810031+9999MW1601REMSYN106AAXX  11184 46738 11359 83610 10190 20181 30153 40207 58003 69951 76066 887// 555 83808 85622 88650 00990;
0295467380999992000121200004+24930+121300FM-12+0141RCUK V0200201N00571006301CN0110001N1+01831+01721102101ADDAA112000891AY161061AY221061GA1031+003609079GA2051+006309069GA3081+012009069GF108991081071004501999999KA1120N+01871MA1999999101561MD1110031+9999MW1601REMSYN134AAXX  12004 46738 11461 80211 10183 20172 30156 40210 51003 69982 76062 887// 333 20187 555 83712 85621 88640 00998 24000 10218 20197;
0224467380999992000121218004+24930+121300FM-12+0141RCUK V0203601N00151006601CN0110001N1+01881+01621101661ADDAA199000091GA1031+002409089GA2051+006609069GF108991081081002501999999MA1999999101121MD1710171+9999REMSYN095AAXX  12184 46738 32361 83603 10188 20162 30112 40166 57017 888// 555 83808 85622 IIYTPM 00000;EQDQ01  00002PRCP99
0224467380999992000121221004+24930+121300FM-12+0141RCUK V0203201N00051006601CN0110001N1+01851+01591101591ADDAA199000091GA1051+006609069GA2081+015009069GF108991081081002501999999MA1999999101051MD1810071+9999REMSYN095AAXX  12214 46738 32361 83201 10185 20159 30105 40159 58007 888// 555 IEIPIM 85622 88650 00000;EQDQ01  00002PRCP99
0233467380999992000121309004+24930+121300FM-12+0141RCUK V0200301N00311005401CN0100001N1+02171+01871999999ADDAY161031AY221031GA1011+003009089GA2051+005409019GA3081+012009069GF108991081081004501999999MA1999999100681MD1510031+9999MW1601REMSYN096AAXX  13094 46738 12460 80306 10217 20187 30068 55003 76062 888// 555 81810 85118 88640 PPOOCV ;
0295467380999992000121400004+24930+121300FM-12+0141RCUK V0209999V00101006601CN0120001N1+02011+01751101691ADDAA112010991AY161061AY261061GA1031+001809089GA2051+006609069GA3081+021009049GF108991051081002501011999KA1120M+02891MA1999999101151MD1210271+9999MW1601REMSYN134AAXX  14004 46738 11362 89902 10201 20175 30115 40169 52027 60112 76066 8581/ 333 10289 555 83806 85622 88457 00007 24005 10224 20185;
0226467380999992000121409004+24930+121300FM-12+0141RCUK V0200101N00411014401CN0120001N1+02201+01921101791ADDAA100001091GA1021+002409089GA2031+009009019GA3071+014409069GF107991071081000251999999MA1999999101251MD1210201+9999REMSYN100AAXX  14094 46738 12062 70108 10220 20192 30125 40179 52020 6001/ 878// 555 82808 83130 87648 00008;
0255467380999992000121412004+24930+121300FM-12+0141RCUK V0200201N00511007501CN0120001N1+02191+01831101861ADDAA112001091GA1021+002409089GA2031+007509069GA3071+013509069GF107991071081002501999999KA1120M+02321MA1999999101321MD1210071+9999REMSYN116AAXX  14124 46738 12362 70210 10219 20183 30132 40186 52007 60012 878// 333 10232 555 30222 82808 83625 87645 00008;
0245467380999992000121415004+24930+121300FM-12+0141RCUK V0200101N00411014401CN0120001N1+02051+01761101961ADDAA199000091GA1021+002409089GA2051+014409069GA3071+024009039GF107991051081002501031999MA1999999101421MD1310101+9999REMSYN100AAXX  14154 46738 32362 70108 10205 20176 30142 40196 53010 8583/ 555 30222 82808 85648 87358 00008;EQDQ01  00002PRCP99
0239467380999992000121418004+24930+121300FM-12+0141RCUK V0200101N00361014401CN0120001N1+02001+01731101901ADDAA199000091GA1021+002409089GA2051+014409069GA3071+024009039GF107991051081002501031999MA1999999101361MD1010061+9999REMSYN094AAXX  14184 46738 32362 70107 10200 20173 30136 40190 50006 8583/ 555 82808 85648 87358 00000;EQDQ01  00002PRCP99
0239467380999992000121421004+24930+121300FM-12+0141RCUK V0203601N00461014401CN0120001N1+01991+01701101901ADDAA199000091GA1021+002409089GA2051+014409069GA3061+024009039GF107991051081002501031999MA1999999101361MD1410001+9999REMSYN094AAXX  14214 46738 32362 73609 10199 20170 30136 40190 54000 8583/ 555 82808 85648 86358 00000;EQDQ01  00002PRCP99
0258467380999992000121500004+24930+121300FM-12+0141RCUK V0200401N00621013501CN0120001N1+02041+01571102031ADDAA199000091GA1011+003909089GA2061+013509069GF106991051081004501999999KA1120N+01951MA1999999101491MD1310131+9999REMSYN116AAXX  15004 46738 32462 60412 10204 20157 30149 40203 53013 858// 333 20195 555 81813 86645 00000 24008 10232 20189;EQDQ01  00002PRCP99
0239467380999992000121503004+24930+121300FM-12+0141RCUK V0200201N00311030001CN0120001N1+02391+01751101961ADDAA199000091GA1011+003009089GA2031+018009069GA3051+030009039GF105991041081004501041001MA1999999101421MD1610071+9999REMSYN094AAXX  15034 46738 32462 50206 10239 20175 30142 40196 56007 84840 555 81810 83656 85360 00000;EQDQ01  00002PRCP99
0262467380999992000121512004+24930+121300FM-12+0141RCUK V0209999C00001010501CN0120001N1+02261+01701101901ADDAA199000091GA1021+003609089GA2031+010509069GA3061+018009069GF106991061081004501999999KA1120M+02571MA1999999101361MD1110041+9999REMSYN104AAXX  15124 46738 32462 60000 10226 20170 30136 40190 51004 868// 333 10257 555 82812 83635 86656 00000;EQDQ01  00002PRCP99
0217467380999992000121515004+24930+121300FM-12+0141RCUK V0200101N00101024001CN0120001N1+02211+01691101901ADDAA199000091GA1021+003609089GA2051+024009039GF105991021011004501031999MA1999999101361MD1410001+9999REMSYN088AAXX  15154 46738 32462 50102 10221 20169 30136 40190 54000 8213/ 555 82812 85358 00000;EQDQ01  00002PRCP99
0217467380999992000121518004+24930+121300FM-12+0141RCUK V0203301N00101021001CN0120001N1+02171+01691101861ADDAA199000091GA1021+003609089GA2051+021009039GF105991021011004501031999MA1999999101321MD1610041+9999REMSYN088AAXX  15184 46738 32462 53302 10217 20169 30132 40186 56004 8213/ 555 82812 85357 00000;EQDQ01  00002PRCP99
0254467380999992000121609004+24930+121300FM-12+0141RCUK V0203601N00261003601CN0030001N1+02301+02081101831ADDAA100000191AY161031AY261031GA1031+000909089GA2051+003609069GA3081+012009069GF108991081081001501999999MA1999999101291MD1310011+9999MW1601REMSYN106AAXX  16094 46738 11230 83605 10230 20208 30129 40183 53001 6991/ 76066 888// 555 83803 85612 88640 00991;
0277467380999992000121612004+24930+121300FM-12+0141RCUK V0200401N00311003601CN0036001N1+02071+01951102071ADDAA112007191AY161061AY261061GA1031+001209089GA2051+003609089GA3081+012009069GF108991081071001501999999KA1120M+02471MA1999999101531MD1210241+9999MW1611REMSYN116AAXX  16124 46738 11236 80406 10207 20195 30153 40207 52024 60072 76166 887// 333 10247 555 83804 85812 88640 00007;
0254467380999992000121618004+24930+121300FM-12+0141RCUK V0200101N00101007501CN0110001N1+01991+01821101791ADDAA106007191AY161061AY221061GA1021+003009089GA2031+007509069GA3061+018009069GF106991061081004501001001MA1999999101251MD1810241+9999MW1021REMSYN106AAXX  16184 46738 12461 60102 10199 20182 30125 40179 58024 60071 70262 86800 555 82810 83625 86656 00990;
0226467380999992000121621004+24930+121300FM-12+0141RCUK V0203301N00211007501CN0110001N1+02041+01831101791ADDAA100007191GA1021+003009089GA2031+007509069GA3061+018009069GF106991061081004501001001MA1999999101251MD1410001+9999REMSYN100AAXX  16214 46738 12461 63304 10204 20183 30125 40179 54000 6007/ 86800 555 82810 83625 86656 00990;
0295467380999992000121700004+24930+121300FM-12+0141RCUK V0203401N00211005401CN0080001N1+02161+01851101931ADDAA112007191AY121061AY221061GA1031+002409089GA2051+005409069GA3071+012609069GF107991071081002501001001KA1120N+01991MA1999999101391MD1310141+9999MW1161REMSYN134AAXX  17004 46738 11358 73404 10216 20185 30139 40193 53014 60072 71622 87800 333 20199 555 83808 85618 87642 00990 24014 10247 20197;
0239467380999992000121703004+24930+121300FM-12+0141RCUK V0200301N00151054001CN0150001N1+02571+02161101831ADDAA199000091GA1021+003609089GA2051+054009049GA3071+075009009GF107991021011004501011011MA1999999101291MD1810101+9999REMSYN094AAXX  17034 46738 32465 70303 10257 20216 30129 40183 58010 82111 555 82812 85468 87075 00990;EQDQ01  00002PRCP99
0239467380999992000121706004+24930+121300FM-12+0141RCUK V0200601N00051060001CN0130001N1+02681+02301101561ADDAA199000091GA1021+003609089GA2031+030009039GA3061+060009009GF106991021011004501031011MA1999999101021MD1710271+9999REMSYN094AAXX  17064 46738 32463 60601 10268 20230 30102 40156 57027 82131 555 82812 83360 86070 00990;EQDQ01  00002PRCP99
0239467380999992000121709004+24930+121300FM-12+0141RCUK V0200401N001010090019N0120001N1+02471+02101101591ADDAA199000091GA1021+003009089GA2031+009009069GA3051+018009069GF105991051081004501031011MA1999999101051MD1110031+9999REMSYN094AAXX  17094 46738 32462 50402 10247 20210 30105 40159 51003 85831 555 82810 83630 85656 00990;EQDQ01  00002PRCP99
0254467380999992000121715004+24930+121300FM-12+0141RCUK V0203201N00211006601CN0060001N1+02201+01921101721ADDAA100008991AY191031AY221031GA1011+003009089GA2051+006609069GA3071+018009069GF107991041081004501999999MA1999999101181MD1010031+9999MW1211REMSYN106AAXX  17154 46738 11456 73204 10220 20192 30118 40172 50003 6009/ 72192 848// 555 81810 85622 87656 00009;
0256467380999992000121718004+24930+121300FM-12+0141RCUK V0203301N00261006601CN0060001N1+02131+01831101591ADDAY161061AY221061GA1011+003009089GA2051+006609069GA3071+018009069GF107991041081004501999999MA1999999101051MD1010131+9999MW1221REMSYN100AAXX  17184 46738 11456 73305 10213 20183 30105 40159 50013 72262 848// 555 81810 85622 87656 00000;EQDQ01+000002PRSWM1
0245467380999992000121800004+24930+121300FM-12+0141RCUK V0209999C000012200019N0150001N1+02211+01941101691ADDAA112008991GA1011+003609089GA2031+075009009GF103991011011004501001011KA1120N+02041MA1999999101151MD1310131+9999REMSYN122AAXX  18004 46738 12465 30000 10221 20194 30115 40169 53013 60092 81101 333 20204 555 81812 83075 00000 24009 10274 20199;
0220467380999992000121803004+24930+121300FM-12+0141RCUK V0209999V00151075001CN0150001N1+02631+02171101661ADDAA199000021GA1011+003609089GA2031+024009039GA3051+075009009GF105991011011004501031011MA1999999101121MD1810031+9999REMSYN094AAXX  18034 46738 32465 59903 10263 20217 30112 40166 58003 81131 555 81812 83358 85075 00000;
0198467380999992000121806004+24930+121300FM-12+0141RCUK V0200801N002612200019N0150001N1+02701+02311101321ADDAA199000021GA1011+003609089GA2031+066009019GF103991011011004501001011MA1999999100781MD1710341+9999REMSYN088AAXX  18064 46738 32465 30805 10270 20231 30078 40132 57034 81101 555 81812 83172 00000;
0217467380999992000121809004+24930+121300FM-12+0141RCUK V0200401N001512200019N0120001N1+02471+02081101391ADDAA199000091GA1021+003609089GA2031+015009069GF103991031021004501001011MA1999999100851MD1310071+9999REMSYN088AAXX  18094 46738 32462 30403 10247 20208 30085 40139 53007 83201 555 82812 83650 00000;EQDQ01  00002PRCP99
0262467380999992000121812004+24930+121300FM-12+0141RCUK V0209999C00001011101CN0120001N1+02441+02001101621ADDAA199000091GA1021+003609089GA2031+011109069GA3061+021009039GF106991031021004501031001KA1120M+02831MA1999999101081MD1210231+9999REMSYN104AAXX  18124 46738 32462 60000 10244 20200 30108 40162 52023 83230 333 10283 555 82812 83637 86357 00000;EQDQ01  00002PRCP99
0254467380999992000121815004+24930+121300FM-12+0141RCUK V0200201N00151007501CN0050001N1+02281+02251101661ADDAA100005191AY121031AY221031GA1021+003009089GA2051+007509069GA3081+012009069GF108991081081004501999999MA1999999101121MD1310041+9999MW1621REMSYN106AAXX  18154 46738 11450 80203 10228 20225 30112 40166 53004 6005/ 76222 888// 555 82810 85625 88640 00005;
0273467380999992000121818004+24930+121300FM-12+0141RCUK V0202901N00151008401CN0060001N1+02221+02161101591ADDAA106007991AY121061AY221061GA1021+003009089GA2051+008409069GA3081+013509069GF199999081081004501999999MA1999999101051MD1210071+9999MW1601REMSYN106AAXX  18184 46738 11456 52903 10222 20216 30105 40159 52007 60081 76022 888// 555 82810 85628 88645 00002;EQDQ01+000052SCOTCV
0204467380999992000121821004+24930+121300FM-12+0141RCUK V0203401N001012200019N0100001N1+02131+02001101631ADDAA100007991GA1021+003009089GA2031+013509069GF103991031041004501001001MA1999999101091MD1210041+9999REMSYN094AAXX  18214 46738 12460 33402 10213 20200 30109 40163 52004 6008/ 83400 555 82810 83645 00002;
0264467380999992000121900004+24930+121300FM-12+0141RCUK V0203401N00211013501CN0150001N1+02301+01911101731ADDAA112007991GA1021+003009089GA2061+013509069GF106991999081004501001001KA1120N+02071MA1999999101191MD1310101+9999REMSYN122AAXX  19004 46738 12465 63404 10230 20191 30119 40173 53010 60082 87800 333 20207 555 82810 86645 00002 24005 10283 20204;EQDQ01+000072SCOTLC
0220467380999992000121903004+24930+121300FM-12+0141RCUK V0200401N00261021001CN0200001N1+02631+02061101761ADDAA199000021GA1021+003609089GA2041+012009069GA3061+021009039GF106991041081004501031001MA1999999101221MD1110031+9999REMSYN094AAXX  19034 46738 32470 60405 10263 20206 30122 40176 51003 84830 555 82812 84640 86357 00002;
0220467380999992000121906004+24930+121300FM-12+0141RCUK V0200601N00361010501CN0150001N1+02641+02071101591ADDAA199000021GA1031+003009089GA2051+010509069GA3071+021009039GF107991051081004501031001MA1999999101051MD1610171+9999REMSYN094AAXX  19064 46738 32465 70607 10264 20207 30105 40159 56017 85830 555 83810 85635 87357 00002;
0232467380999992000121909004+24930+121300FM-12+0141RCUK V0203401N00101013501CN0080001N1+02561+02131101551ADDAA100000191AY161031AY221031GA1021+003009089GA2051+013509069GF105991051081004501001001MA1999999101011MD1610041+9999MW1151REMSYN100AAXX  19094 46738 11458 53402 10256 20213 30101 40155 56004 6991/ 71562 85800 555 82810 85645 00002;
0249467380999992000121912004+24930+121300FM-12+0141RCUK V0203401N00101018001CN0100001N1+02351+02171101691ADDAA112010991GA1011+003009089GA2031+006609069GA3051+018009069GF105991031041004501001001KA1120M+02721MA1999999101151MD1210141+9999REMSYN110AAXX  19124 46738 12460 53402 10235 20217 30115 40169 52014 60112 83400 333 10272 555 81810 83622 85656 00013;
0255467380999992000121915004+24930+121300FM-12+0141RCUK V0203201N00211018001CN0100001N1+02211+02091101691ADDAA199000091GA1011+003009089GA2031+006609069GA3051+018009069GF105991999081004501001001MA1999999101151MD1010001+9999REMSYN094AAXX  19154 46738 32460 53204 10221 20209 30115 40169 50000 86800 555 81810 83622 85656 00013;EQDQ01+000062SCOTLCQ02  00002PRCP99
0255467380999992000121921004+24930+121300FM-12+0141RCUK V0203301N00101018001CN0100001N1+02201+02081101521ADDAA199000091GA1011+003009089GA2031+006609069GA3051+018009069GF105991999081004501001001MA1999999100981MD1810111+9999REMSYN094AAXX  19214 46738 32460 53302 10220 20208 30098 40152 58011 86800 555 81810 83622 85656 00000;EQDQ01+000062SCOTLCQ02  00002PRCP99
0258467380999992000122000004+24930+121300FM-12+0141RCUK V0203201N001512200019N0120001N1+02331+02171101591ADDAA199000091GA1011+003609089GA2031+015009069GF103991031081004501001001KA1120N+02131MA1999999101051MD1310071+9999REMSYN116AAXX  20004 46738 32462 33203 10233 20217 30105 40159 53007 83800 333 20213 555 81812 83650 00000 24019 10255 20215;EQDQ01  00002PRCP99
0217467380999992000122003004+24930+121300FM-12+0141RCUK V0201701N003612200019N0130001N1+02691+02411101491ADDAA199000091GA1011+003609089GA2031+030009049GF103991011011004501031001MA1999999100951MD1810101+9999REMSYN088AAXX  20034 46738 32463 31707 10269 20241 30095 40149 58010 81130 555 81812 83460 00000;EQDQ01  00002PRCP99
0217467380999992000122006004+24930+121300FM-12+0141RCUK V0201901N004612200019N0130001N1+02711+02441101191ADDAA199000091GA1021+003609089GA2031+010509069GF103991031041004501001001MA1999999100651MD1710301+9999REMSYN088AAXX  20064 46738 32463 31909 10271 20244 30065 40119 57030 83400 555 82812 83635 00000;EQDQ01  00002PRCP99
0217467380999992000122009004+24930+121300FM-12+0141RCUK V0209999C00001009601CN0120001N1+02611+02361101221ADDAA199000091GA1031+002409089GA2061+009609069GF106991051081002501001001MA1999999100681MD1310031+9999REMSYN088AAXX  20094 46738 32362 60000 10261 20236 30068 40122 53003 85800 555 83808 86632 00000;EQDQ01  00002PRCP99
0262467380999992000122012004+24930+121300FM-12+0141RCUK V0200601N00571005401CN0100001N1+02441+02221101461ADDAA199000091GA1031+002409089GA2051+005409069GA3071+015009069GF107991071081002501001001KA1120M+02761MA1999999100921MD1310241+9999REMSYN104AAXX  20124 46738 32360 70611 10244 20222 30092 40146 53024 87800 333 10276 555 83808 85618 87650 00000;EQDQ01  00002PRCP99
0254467380999992000122015004+24930+121300FM-12+0141RCUK V0200401N00211004501CN0070001N1+02181+02071101561ADDAA100001091AY181031AY261031GA1031+001509089GA2051+004509069GA3081+013509069GF108991081071001501999999MA1999999101021MD1110101+9999MW1801REMSYN106AAXX  20154 46738 11257 80404 10218 20207 30102 40156 51010 6001/ 78086 887// 555 83805 85615 88645 00001;
0254467380999992000122018004+24930+121300FM-12+0141RCUK V0200201N00311005401CN0100001N1+02041+01911101551ADDAA106001091AY181061AY261061GA1021+001809089GA2051+005409069GA3081+015009069GF108991081081002501999999MA1999999101011MD1410001+9999MW1211REMSYN106AAXX  20184 46738 12360 80206 10204 20191 30101 40155 54000 60011 72186 888// 555 82806 85618 88650 00993;
0267467380999992000122100004+24930+121300FM-12+0141RCUK V0203601N00621006601CN0150001N1+02081+01871101791ADDAA112001091GA1011+003009089GA2051+006609069GA3071+015009069GF107991071081004501999999KA1120N+02041MA1999999101251MD1210231+9999REMSYN128AAXX  21004 46738 12465 73612 10208 20187 30125 40179 52023 60012 878// 333 20204 555 81810 85622 87650 00993 24001 10276 20213;
0220467380999992000122103004+24930+121300FM-12+0141RCUK V0200301N00621018001CN0120001N1+02281+01971101791ADDAA199000021GA1011+003009089GA2031+012009069GA3071+018009069GF107991071081004501999999MA1999999101251MD1010001+9999REMSYN094AAXX  21034 46738 32462 70312 10228 20197 30125 40179 50000 878// 555 81810 83640 87656 00993;
0239467380999992000122109004+24930+121300FM-12+0141RCUK V0200201N00621018001CN0100001N1+02111+01881101561ADDAA199000091GA1011+003009089GA2031+012009069GA3071+018009069GF107991071081004501999999MA1999999101021MD1310041+9999REMSYN094AAXX  21094 46738 32460 70212 10211 20188 30102 40156 53004 878// 555 81810 83640 87656 00993;EQDQ01  00002PRCP99
0262467380999992000122112004+24930+121300FM-12+0141RCUK V0200301N00261009601CN0120001N1+01961+01781101691ADDAA199000091GA1011+003009089GA2051+009609069GA3071+018009069GF107991071081004501999999KA1120M+02311MA1999999101151MD1210131+9999REMSYN104AAXX  21124 46738 32462 70305 10196 20178 30115 40169 52013 878// 333 10231 555 81810 85632 87656 00993;EQDQ01  00002PRCP99
0216467380999992000122118004+24930+121300FM-12+0141RCUK V0203401N00211012001CN0120001N1+01931+01711101521ADDAA199000091GA1011+003009089GA2051+012009069GF105991051081004501999999MA1999999100981MD1810111+9999REMSYN087AAXX  21184 46738 32462 53404 10193 20171 30098 40152 58011 858// 555 81810 85640 0000;EQDQ01  00002PRCP99
0218467380999992000122121004+24930+121300FM-12+0141RCUK V0203601N02061012001CN0120001N1+01841+01631101491ADDAA199000091GA1011+003009089GA2051+012009069GF105991051081004501999999MA1999999100951MD1710031+9999REMSYN089AAXX  21214 46738 32462 53640 10184 20163 30095 40149 57003 858// 555 B81810 85640 00000;EQDQ01  00002PRCP99
0258467380999992000122200004+24930+121300FM-12+0141RCUK V0203501N00261013501CN0120001N1+02021+01581101561ADDAA199000091GA1021+003009089GA2051+013509069GF105991051081004501001001KA1120N+01841MA1999999101021MD1110071+9999REMSYN116AAXX  22004 46738 32462 53505 10202 20158 30102 40156 51007 85800 333 20184 555 82810 85645 00000 24993 10231 20196;EQDQ01  00002PRCP99
0217467380999992000122209004+24930+121300FM-12+0141RCUK V0200401N00411012001CN0100001N1+02291+01781101321ADDAA199000091GA1031+003009089GA2071+012009069GF107991071081004501999999MA1999999100781MD1310031+9999REMSYN088AAXX  22094 46738 32460 70408 10229 20178 30078 40132 53003 878// 555 83810 87640 00000;EQDQ01  00002PRCP99
0239467380999992000122212004+24930+121300FM-12+0141RCUK V0203501N00211012001CN0100001N1+02211+01791101491ADDAA199000091GA1011+003009089GA2051+012009069GA3071+018009069GF107991071081004501999999MA1999999100951MD1210171+9999REMSYN094AAXX  22124 46738 32460 73504 10221 20179 30095 40149 52017 878// 555 81810 85640 87656 00000;EQDQ01  00002PRCP99
0245467380999992000122215004+24930+121300FM-12+0141RCUK V0200201N00411018001CN0120001N1+02111+01831101521ADDAA100000791GA1011+003009089GA2031+010509069GA3051+018009069GF105991999081004501999999MA1999999100981MD1010031+9999REMSYN100AAXX  22154 46738 12462 50208 10211 20183 30098 40152 50003 6990/ 878// 555 81810 83635 85656 00990;EQDQ01+000072SCOTLC
0263467380999992000122221004+24930+121300FM-12+0141RCUK V0203601N00361018001CN0120001N1+02081+01801101491ADDAA100000791GA1011+003009089GA2031+010509069GA3051+018009069GF105991999081004501999999MA1999999100951REMSYN100AAXX  22214 46738 12462 53607 10208 20180 30095 40149 57000 6990/ 878// 555 81810 83635 85656 00000;EQDQ01+000072SCOTLCQ02+000072APCTENQ03+000002APC3  
0239467380999992000122303004+24930+121300FM-12+0141RCUK V0200201N00411021001CN0200001N1+02321+01771101691ADDAA199000091GA1021+003609089GA2041+010509069GA3061+021009039GF106991041081004501031001MA1999999101151MD1110061+9999REMSYN094AAXX  23034 46738 32470 60208 10232 20177 30115 40169 51006 84830 555 82812 84635 86357 00000;EQDQ01  00002PRCP99
0239467380999992000122306004+24930+121300FM-12+0141RCUK V0200201N00461010501CN0120001N1+02311+01751101591ADDAA199000091GA1021+003009089GA2041+010509069GA3071+018009069GF107991071081004501001001MA1999999101051MD1610101+9999REMSYN094AAXX  23064 46738 32462 70209 10231 20175 30105 40159 56010 87800 555 82810 84635 87656 00000;EQDQ01  00002PRCP99
0203467380999992000122309004+24930+121300FM-12+0141RCUK V0200101N004110090019N0120001N1+02161+01731101691ADDAA199000091GA1021+003009089GA2051+009009069GF107991071081004501001001MD1310101+9999REMSYN089AAXX  23094 46738 32462 70108 10216 20173 40169 53010 87800 555 82810 85630 IUYTYM 00000;EQDQ01  00002PRCP99
0233467380999992000122321004+24930+121300FM-12+0141RCUK V0203501N005112200019N0110001N1+01771+01551101931ADDAA199000091GA1011+003609089GA2031+012009999GF103991999081004501999999MA1999999101391MD1010001+9999REMSYN088AAXX  23214 46738 32461 33510 10177 20155 30139 40193 50000 848// 555 81812 83/40 00000;EQDQ01+000042SCOTLCQ02  00002PRCP99
0236467380999992000122400004+24930+121300FM-12+0141RCUK V0200101N000512200019N0130001N1+01891+01421102031ADDAA199000091GA1011+003609089GF101991011011004501001001KA1120N+01661MA1999999101491MD1310101+9999REMSYN110AAXX  24004 46738 32463 10101 10189 20142 30149 40203 53010 81100 333 20166 555 81812 00000 24000 10238 20193;EQDQ01  00002PRCP99
0195467380999992000122403004+24930+121300FM-12+0141RCUK V0200101N003612200019N0120001N1+02301+01771101961ADDAA199000091GA1021+004209089GF102991021011004501001001MA1999999101421MD1810071+9999REMSYN082AAXX  24034 46738 32462 20107 10230 20177 30142 40196 58007 82100 555 82814 00000;EQDQ01  00002PRCP99
0217467380999992000122406004+24930+121300FM-12+0141RCUK V0200601N003612200019N0100001N1+02351+01891101761ADDAA199000091GA1021+003609089GA2031+018009069GF103991031041004501001001MA1999999101221MD1810201+9999REMSYN088AAXX  24064 46738 32460 30607 10235 20189 30122 40176 58020 83400 555 82812 83656 00000;EQDQ01  00002PRCP99
0267467380999992000122409004+24930+121300FM-12+0141RCUK V0200501N00261008401CN0080001N1+02171+01701101791ADDAA199000091AY121031AY221031GA1021+003609089GA2031+008409069GA3071+015009069GF107991051041004501001001MA1999999101251MD1310031+9999MW1051REMSYN100AAXX  24094 46738 32458 70505 10217 20170 30125 40179 53003 70522 85400 555 82812 83628 87650 00000;EQDQ01  00002PRCP99
0261467380999992000122412004+24930+121300FM-12+0141RCUK V0203501N00211007501CN0100001N1+02151+01681101901ADDAA199000091GA1021+003609089GA2041+007509069GF107991999081004501999999KA1120M+02421MA1999999101361MD1310111+9999REMSYN103AAXX  24124 46738 32460 73504 10215 20168 30136 40190 53011 888// 333 10242 555 82812 84625 8650 00000;EQDQ01+000082SCOTLCQ02  00002PRCP99
0217467380999992000122415004+24930+121300FM-12+0141RCUK V0203601N00311013501CN0100001N1+02061+01681101961ADDAA199000091GA1021+003609089GA2071+013509069GF107991071081999999001001MA1999999101421MD1110061+9999REMSYN088AAXX  24154 46738 32/60 73606 10206 20168 30142 40196 51006 87800 555 82812 87645 00000;EQDQ01  00002PRCP99
0217467380999992000122418004+24930+121300FM-12+0141RCUK V0200201N00571013501CN0100001N1+01981+01661101931ADDAA199000091GA1011+003609089GA2051+013509069GF105991051081004501001001MA1999999101391MD1810031+9999REMSYN088AAXX  24184 46738 32460 50211 10198 20166 30139 40193 58003 85800 555 81812 85645 00000;EQDQ01  00002PRCP99
0217467380999992000122421004+24930+121300FM-12+0141RCUK V0203301N002612200019N0110001N1+01851+01551101931ADDAA199000091GA1011+003609089GA2031+024009039GF103991011011004501031001MA1999999101391MD1410001+9999REMSYN088AAXX  24214 46738 32461 33305 10185 20155 30139 40193 54000 81130 555 81812 83358 00000;EQDQ01  00002PRCP99
0258467380999992000122500004+24930+121300FM-12+0141RCUK V0200101N004612200019N0150001N1+01861+01531102101ADDAA199000091GA1011+003609089GA2041+015009069GF104991011041004501001001KA1120N+01791MA1999999101561MD1210171+9999REMSYN116AAXX  25004 46738 32465 40109 10186 20153 30156 40210 52017 81400 333 20179 555 81812 84650 00000 24000 10242 20166;EQDQ01  00002PRCP99
0217467380999992000122506004+24930+121300FM-12+0141RCUK V0200301N006212200019N0120001N1+02401+01781102001ADDAA199000091GA1011+004509089GA2031+013509069GF103991031041004501001001MA1999999101461MD1710131+9999REMSYN088AAXX  25064 46738 32462 30312 10240 20178 30146 40200 57013 83400 555 81815 83645 00000;EQDQ01  00002PRCP99
0217467380999992000122509004+24930+121300FM-12+0141RCUK V0200401N00511018001CN0120001N1+02231+01701102101ADDAA199000091GA1011+004509089GA2051+018009069GF105991051041004501001001MA1999999101561MD1310101+9999REMSYN088AAXX  25094 46738 32462 50410 10223 20170 30156 40210 53010 85400 555 81815 85656 00000;EQDQ01  00002PRCP99
0217467380999992000122521004+24930+121300FM-12+0141RCUK V0203601N004112200019N0110001N1+01931+01581102161ADDAA199000091GA1011+003609089GA2031+015009069GF103991031081004501001001MA1999999101621MD1410001+9999REMSYN088AAXX  25214 46738 32461 33608 10193 20158 30162 40216 54000 83800 555 81812 83650 00000;EQDQ01  00002PRCP99
0258467380999992000122600004+24930+121300FM-12+0141RCUK V0203601N00461012001CN0120001N1+01941+01511102271ADDAA199000091GA1021+003609089GA2061+012009069GF106991051081004501001001KA1120N+01871MA1999999101731MD1310111+9999REMSYN116AAXX  26004 46738 32462 63609 10194 20151 30173 40227 53011 85800 333 20187 555 82812 86640 00000 24000 10253 20179;EQDQ01  00002PRCP99
0229467380999992000122606004+24930+121300FM-12+0141RCUK V0200601N006712200019N0060001N1+02311+01801102101ADDAA199000091AY121061AY221061GA1031+003609089GF103991031011004501001001MA1999999101561MD1610131+9999MW1051REMSYN094AAXX  26064 46738 31456 30613 10231 20180 30156 40210 56013 70522 83100 555 30625 83812 00000;EQDQ01  00002PRCP99
0251467380999992000122609004+24930+121300FM-12+0141RCUK V0200101N00261018001CN0090001N1+02151+01671102171ADDAA199000091AY121031AY221031GA1031+003609089GA2061+018009069GF106991051041004501001001MA1999999101631MD1310071+9999MW1051REMSYN100AAXX  26094 46738 31459 60105 10215 20167 30163 40217 53007 70522 85400 555 30625 83812 86656 00000;EQDQ01  00002PRCP99
0263467380999992000122612004+24930+121300FM-12+0141RCUK V0200101N00571018001CN0110001N1+02071+01631102301ADDAA199000091GA1031+008409069GA2051+018009069GF105991999081004501001001KA1120M+02441MA1999999101761MD1110131+9999REMSYN105AAXX  26124 46738 32461 50111 10207 20163 30176 40230 51013 86800 333 10244 555 I WIQW 83628 85656 00000;EQDQ01+000062SCOTLCQ02  00002PRCP99
0239467380999992000122618004+24930+121300FM-12+0141RCUK V0200201N00511007501CN0110001N1+01981+01611102171ADDAA199000091GA1021+004509089GA2031+007509069GA3061+018009069GF106991061081004501001001MA1999999101631MD1610101+9999REMSYN094AAXX  26184 46738 32461 60210 10198 20161 30163 40217 56010 86800 555 82815 83625 86656 00000;EQDQ01  00002PRCP99
0289467380999992000122700004+24930+121300FM-12+0141RCUK V0200201N00261007501CN0090001N1+99999+99999102201ADDAA112000591AY181061AY221061GA1031+003009089GA2051+007509069GA3071+018009069GF107991071081004501001001KA1120N+01841MA1999999101661MD1110041+9999MW1151REMSYN128AAXX  27004 46738 11459 70205 20163 30166 40220 51004 69952 71582 87800 333 20184 555 83810 85625 87656 00995 24000 10244 20187;
0239467380999992000122703004+24930+121300FM-12+0141RCUK V0200101N00511010501CN0200001N1+02271+01781102171ADDAA199000091GA1021+003609089GA2051+010509069GA3071+021009039GF107991051081004501031001MA1999999101131MD1810031+9999REMSYN094AAXX  27034 46738 32470 70110 10227 20178 30113 40217 58003 85830 555 82812 85635 87357 00995;EQDQ01  00002PRCP99
0254467380999992000122709004+24930+121300FM-12+0141RCUK V0200601N00511004501CN0050001N1+01981+01801101931ADDAA100000791AY161031AY221031GA1031+001809089GA2051+004509069GA3081+013509069GF108991081071002501999999MA1999999101391MD1310031+9999MW1601REMSYN106AAXX  27094 46738 11350 80610 10198 20180 30139 40193 53003 6990/ 76062 887// 555 83806 85615 88645 00995;
0277467380999992000122712004+24930+121300FM-12+0141RCUK V0203301N00101005401CN0100001N1+01881+01711102031ADDAA112000791AY161061AY221061GA1031+001809089GA2051+005409069GA3081+015009069GF108991081071002501999999KA1120M+02421MA1999999101491MD1310101+9999MW1161REMSYN116AAXX  27124 46738 12360 83302 10188 20171 30149 40203 53010 69902 71662 887// 333 10242 555 83806 85618 88650 00995;
0220467380999992000122721004+24930+121300FM-12+0141RCUK V0203501N00151006001CN0110001N1+01901+01721101831ADDAA199000021GA1021+001809089GA2051+006009069GA3081+015009069GF108991081071002501999999MA1999999101291MD1710071+9999REMSYN094AAXX  27214 46738 32361 83503 10190 20172 30129 40183 57007 887// 555 82806 85620 88650 00000;
0239467380999992000122803004+24930+121300FM-12+0141RCUK V0200101N00571012001CN0110001N1+02281+01881101891ADDAA199000091GA1021+003009089GA2051+012009069GA3071+024009039GF107991051081004501031001MA1999999101351MD1010031+9999REMSYN094AAXX  28034 46738 32461 70111 10228 20188 30135 40189 50003 85830 555 82810 85640 87358 00000;EQDQ01  00002PRCP99
0239467380999992000122806004+24930+121300FM-12+0141RCUK V0200501N00871010501CN0110001N1+02301+02031101621ADDAA199000091GA1021+002709089GA2051+010509069GA3071+024009039GF107991051081002501031001MA1999999101081MD1610271+9999REMSYN094AAXX  28064 46738 32361 70517 10230 20203 30108 40162 56027 85830 555 82809 85635 87358 00000;EQDQ01  00002PRCP99
0239467380999992000122818004+24930+121300FM-12+0141RCUK V0200301N00311010501CN0110001N1+02041+01791101661ADDAA199000091GA1021+003609089GA2051+010509069GA3071+018009069GF107991071081004501001001MA1999999101121MD1810071+9999REMSYN094AAXX  28184 46738 32461 70306 10204 20179 30112 40166 58007 87800 555 82812 85635 87656 00000;EQDQ01  00002PRCP99
0239467380999992000122821004+24930+121300FM-12+0141RCUK V0203601N00461010501CN0110001N1+02081+01751101631ADDAA199000091GA1021+003609089GA2051+010509069GA3071+018009069GF107991071081004501001001MA1999999101091MD1610031+9999REMSYN094AAXX  28214 46738 32461 73609 10208 20175 30109 40163 56003 87800 555 82812 85635 87656 00000;EQDQ01  00002PRCP99
0280467380999992000122900004+24930+121300FM-12+0141RCUK V0200101N00411012001CN0180001N1+02081+01621101691ADDAA199000091GA1031+003609089GA2051+012009069GA3071+021009039GF107991051081004501031001KA1120N+02031MA1999999101151MD1310061+9999REMSYN122AAXX  29004 46738 32468 70108 10208 20162 30115 40169 53006 85830 333 20203 555 83812 85640 87357 00000 24000 10248 20183;EQDQ01  00002PRCP99
0236467380999992000122903004+24930+121300FM-12+0141RCUK V0200301N00261009601CN0150001N1+02321+01841101691ADDAA199000091GA1021+003609089GA2031+009609069GA3061+018009069GF106991061081004501031001MA1999999101151MD1410001+9999REMSYN091AAXX  29034 46738 32465 60305 10232 20184 30115 40169 54000 86830 555 82812 83632 86656 00;EQDQ01  00002PRCP99
0239467380999992000122906004+24930+121300FM-12+0141RCUK V0200601N004110090019N0130001N1+02421+01971101351ADDAA199000091GA1021+003609089GA2031+009009069GA3061+015009069GF106991061081004501031001MA1999999100811MD1710341+9999REMSYN094AAXX  29064 46738 32463 60608 10242 20197 30081 40135 57034 86830 555 82812 83630 86650 00000;EQDQ01  00002PRCP99
0217467380999992000122909004+24930+121300FM-12+0141RCUK V0200401N00211015001CN0110001N1+02251+01781101391ADDAA199000091GA1031+003609089GA2071+015009069GF107991071081004501999999MA1999999100851MD1310041+9999REMSYN088AAXX  29094 46738 32461 70404 10225 20178 30085 40139 53004 878// 555 83812 87650 00000;EQDQ01  00002PRCP99
0239467380999992000122921004+24930+121300FM-12+0141RCUK V0200301N00101012001CN0110001N1+02111+01731101191ADDAA199000091GA1021+004509089GA2051+012009069GA3071+018009069GF107991071081004501001001MA1999999100651MD1710131+9999REMSYN094AAXX  29214 46738 32461 70302 10211 20173 30065 40119 57013 87800 555 82815 85640 87656 00000;EQDQ01  00002PRCP99
0280467380999992000123000004+24930+121300FM-12+0141RCUK V0209999V00101012001CN0150001N1+02191+01771101181ADDAA199000091GA1021+003609089GA2051+012009069GA3071+018009069GF107991071081004501001001KA1120N+02061MA1999999100641MD1410001+9999REMSYN122AAXX  30004 46738 32465 79902 10219 20177 30064 40118 54000 87800 333 20206 555 82812 85640 87656 00000 24000 10251 20203;EQDQ01  00002PRCP99
0254467380999992000123006004+24930+121300FM-12+0141RCUK V0200801N00621010501CN0120001N1+02511+02061100881ADDAA106000791AY161061AY251061GA1031+003609089GA2051+010509069GA3071+018009069GF107991071081004501001001MA1999999100341MD1710271+9999MW1021REMSYN106AAXX  30064 46738 12462 70812 10251 20206 30034 40088 57027 69901 70265 87800 555 83812 85635 87656 00990;
0254467380999992000123009004+24930+121300FM-12+0141RCUK V0203201N00151007501CN0080001N1+02221+01981100881ADDAA100000791AY161031AY221031GA1021+003009089GA2051+007509069GA3081+015009069GF108991081071004501999999MA1999999100341MD1510001+9999MW1601REMSYN106AAXX  30094 46738 11458 83203 10222 20198 30034 40088 55000 6990/ 76062 887// 555 82810 85625 88650 00990;
0277467380999992000123012004+24930+121300FM-12+0141RCUK V0200201N00311004801CN0040001N1+01971+01921101051ADDAA112002091AY161061AY221061GA1031+001509089GA2051+004809069GA3081+010509069GF108991081071001501999999KA1120M+02521MA1999999100511MD1210171+9999MW1621REMSYN116AAXX  30124 46738 11240 80206 10197 20192 30051 40105 52017 60022 76262 887// 333 10252 555 83805 85616 88635 00002;
0204467380999992000123021004+24930+121300FM-12+0141RCUK V0203501N00261030001CN0120001N1+01951+01781100951ADDAA100001091GA1021+003009089GA2051+030009039GF105991021011004501031001MA1999999100411MD1410001+9999REMSYN094AAXX  30214 46738 12462 53505 10195 20178 30041 40095 54000 6001/ 82130 555 82810 85360 00000;
0245467380999992000123100004+24930+121300FM-12+0141RCUK V0200201N00461013501CN0180001N1+02091+01661101151ADDAA112001091GA1031+003009089GA2051+013509069GF105991051081004501001001KA1120N+01901MA1999999100611MD1310201+9999REMSYN122AAXX  31004 46738 12468 50209 10209 20166 30061 40115 53020 60012 85800 333 20190 555 83810 85645 00000 24003 10252 20194;
0217467380999992000123103004+24930+121300FM-12+0141RCUK V0200401N00511010501CN0200001N1+02291+01771101191ADDAA199000091GA1021+003609089GA2051+010509069GF105991051081004501001001MA1999999100651MD1010041+9999REMSYN088AAXX  31034 46738 32470 50410 10229 20177 30065 40119 50004 85800 555 82812 85635 00000;EQDQ01  00002PRCP99
0267467380999992000123115004+24930+121300FM-12+0141RCUK V0200101N00411008401CN0050001N1+01841+01491101591ADDAA199000091AY121031AY221031GA1031+003609089GA2051+008409069GA3071+015009069GF107991071081004501001001MA1999999101051MD1110171+9999MW1051REMSYN100AAXX  31154 46738 31450 70108 10184 20149 30105 40159 51017 70522 87800 555 83812 85628 87650 00000;EQDQ01  00002PRCP99
