0238470950999992000010100004+38080+127820FM-12+013599999V0209999C000012200019N0090001N1-00381-00451102881ADDAA106000091AY101061AY201061GF103991001001999999001011IA1019IA2999-00309KA1120N-00551MA1999999100901MD1310021+9999MW1101REMSYN088AAXX  01004 47095 31959 30000 11038 21045 30090 40288 53002 71000 80001 333 21055 30103;EQDQ01  00002PRCP06
0163470950999992000010103004+38080+127820FM-12+013599999V0201801N000519999999N0120001N1+00261-00071102761ADDAA106000091GF107991041001999999031021MA1999999100831MD1710071+9999REMSYN066AAXX  01034 47095 32962 71801 10026 21007 30083 40276 57007 84032;EQDQ01  00002PRCP06
0163470950999992000010106004+38080+127820FM-12+013599999V0200201N003112200019N0150001N1+00781+00051102391ADDAA106000091GF102991001001999999001021MA1999999100511MD1710321+9999REMSYN066AAXX  01064 47095 32965 20206 10078 20005 30051 40239 57032 80002;EQDQ01  00002PRCP06
0163470950999992000010109004+38080+127820FM-12+013599999V0209999C000019999999N0150001N1+00211-00061102431ADDAA106000091GF105991051001999999031001MA1999999100501MD1210041+9999REMSYN066AAXX  01094 47095 32965 50000 10021 21006 30050 40243 52000 85030;EQDQ01  00002PRCP06
0216470950999992000010112004+38080+127820FM-12+013599999V0209999C000019999999N0150001N1+00001-00111102421ADDAA106000091GF106991061001999999031001IA1019IA2999+00009KA1120M+00791MA1999999100471MD1510031+9999REMSYN088AAXX  01124 47095 32965 60000 11000 21011 30047 40242 55003 86030 333 10079 30000 55034;EQDQ01  00002PRCP06
0163470950999992000010115004+38080+127820FM-12+013599999V0201601N001010120019N0150001N1+00081-00041102231ADDAA106000091GF108991051051012501011999MA1999999100291MD1710181+9999REMSYN066AAXX  01154 47095 32665 81602 10008 21004 30029 40223 57018 8551/;EQDQ01  00002PRCP06
0161470950999992000010118004+38080+127820FM-12+013599999V0200901N001010075019N0120001N1+00091-00011101961ADDAY161061AY261061GF108991051071008001021999MA1999999100031MD1710271+9999MW1601REMSYN072AAXX  01184 47095 41562 80902 10009 21001 30003 40196 57027 76066 8572/;
0161470950999992000010121004+38080+127820FM-12+013599999V0201101N000510075019N0120001N1+00101+00011101501ADDAY161031AY261031GF108991051071008001021999MA1999999099581MD1710451+9999MW1601REMSYN072AAXX  01214 47095 41562 81101 10010 20001 39958 40150 57045 76066 8572/;
0231470950999992000010200004+38080+127820FM-12+013599999V0202001N003110075019N0050001N1+00451+00391101301ADDAA112008991AY161061AY261061GF108991061071008001021999IA1119IA2999+00009KA1120N+00021MA1999999099411MD1710171+9999MW1611REMSYN100AAXX  02004 47095 11550 82006 10045 20039 39941 40130 57017 60092 76166 8672/ 333 20002 32000 70092;
0161470950999992000010203004+38080+127820FM-12+013599999V0202301N003610075019N0100001N1+00481+00171101371ADDAY161031AY221031GF105991051051008001001001MA1999999099481MD1310081+9999MW1211REMSYN072AAXX  02034 47095 41560 52307 10048 20017 39948 40137 53008 72162 85500;
0133470950999992000010206004+38080+127820FM-12+013599999V0202501N002612200019N0150001N1+00541-00141101351ADDGF103991031051008001001001MA1999999099471MD1010021+9999REMSYN066AAXX  02064 47095 42565 32505 10054 21014 39947 40135 50002 83500;
0143470950999992000010209004+38080+127820FM-12+013599999V0202501N001012200019N0120001N1+00241-00461101631ADDGA1001+999999999GF100991001001999999001001MA1999999099711MD1210251+9999REMSYN060AAXX  02094 47095 42962 02502 10024 21046 39971 40163 52025;
0196470950999992000010212004+38080+127820FM-12+013599999V0202501N002612200019N0120001N1+00011-00551101761ADDGA1001+999999999GF100991001001999999001001IA1099IA2999+00009KA1120M+00601MA1999999099831MD1210121+9999REMSYN082AAXX  02124 47095 12962 02505 10001 21055 39983 40176 52012 333 10060 31000 55012;
0143470950999992000010215004+38080+127820FM-12+013599999V0202501N003612200019N0120001N1-00201-00581101891ADDGA1001+999999999GF100991001001999999001001MA1999999099941MD1010111+9999REMSYN060AAXX  02154 47095 42962 02507 11020 21058 39994 40189 50011;
0173470950999992000010218004+38080+127820FM-12+013599999V0202301N005112200019N0120001N1-00311-00891102031ADDAA106000091GA1001+999999999GF100991001001999999001001MA1999999100071MD1210131+9999REMSYN060AAXX  02184 47095 32962 02310 11031 21089 30007 40203 52013;EQDQ01  00002PRCP06
0173470950999992000010221004+38080+127820FM-12+013599999V0201801N001012200019N0120001N1-00561-00921102141ADDAA106000091GA1001+999999999GF100991001001999999001001MA1999999100161MD1210091+9999REMSYN060AAXX  02214 47095 32962 01802 11056 21092 30016 40214 52009;EQDQ01  00002PRCP06
0222470950999992000010300004+38080+127820FM-12+013599999V0209999C000012200019N0150001N1-00631-00941102371ADDAA106000091GF101991001001999999001011IA1149IA2999-00309KA1120N-00791MA1999999100381MD1210221+9999REMSYN094AAXX  03004 47095 32965 10000 11063 21094 30038 40237 52022 80001 333 21079 34103 44/// 70085;EQDQ01  00002PRCP06
0163470950999992000010303004+38080+127820FM-12+013599999V0202301N001512200019N0150001N1-00281-00971102281ADDAA106000091GF102991001001999999001011MA1999999100321MD1310061+9999REMSYN066AAXX  03034 47095 32965 22303 11028 21097 30032 40228 53006 80001;EQDQ01  00002PRCP06
0179470950999992000010306004+38080+127820FM-12+013599999V0203401N001519999999N0150001N1-00111-00961102291ADDAA106000091GF105991001001999999001051MA1999999100341MD1010021+9999REMSYN066AAXX  03064 47095 32965 53403 11011 21096 30034 40229 50002 85005;EQDQ01+000052SCOTLCQ02  00002PRCP06
0163470950999992000010309004+38080+127820FM-12+013599999V0203601N001512200019N0150001N1-00331-00971102401ADDAA106000091GF102991001001999999001011MA1999999100441MD1210101+9999REMSYN066AAXX  03094 47095 32965 23603 11033 21097 30044 40240 52010 80001;EQDQ01  00002PRCP06
0222470950999992000010312004+38080+127820FM-12+013599999V0203601N001512200019N0150001N1-00581-00891102521ADDAA106000091GF102991001001999999001011IA1149IA2999-00209KA1120M-00011MA1999999100531MD1210091+9999REMSYN094AAXX  03124 47095 32965 23603 11058 21089 30053 40252 52009 80001 333 11001 34102 44/// 55074;EQDQ01  00002PRCP06
0173470950999992000010315004+38080+127820FM-12+013599999V0200201N001012200019N0150001N1-00701-00871102611ADDAA106000091GA1001+999999999GF100991001001999999001001MA1999999100611MD1010081+9999REMSYN060AAXX  03154 47095 32965 00202 11070 21087 30061 40261 50008;EQDQ01  00002PRCP06
0173470950999992000010318004+38080+127820FM-12+013599999V0209999C000012200019N0150001N1-00791-00911102651ADDAA106000091GA1001+999999999GF100991001001999999001001MA1999999100641MD1210031+9999REMSYN060AAXX  03184 47095 32965 00000 11079 21091 30064 40265 52003;EQDQ01  00002PRCP06
0173470950999992000010321004+38080+127820FM-12+013599999V0209999C000012200019N0150001N1-00821-00961102651ADDAA106000091GA1001+999999999GF100991001001999999001001MA1999999100641MD1810011+9999REMSYN060AAXX  03214 47095 32965 00000 11082 21096 30064 40265 58001;EQDQ01  00002PRCP06
0220470950999992000010400004+38080+127820FM-12+013599999V0209999C000012200019N0120001N1-00791-00941102781ADDAA106000091GA1001+999999999GF100991001001999999001001IA1149IA2999-00409KA1120N-00901MA1999999100771MD1210131+9999REMSYN076AAXX  04004 47095 32962 00000 11079 21094 30077 40278 52013 333 21090 34104;EQDQ01  00002PRCP06
0173470950999992000010403004+38080+127820FM-12+013599999V0209999C000012200019N0100001N1-00171-00621102661ADDAA106000091GA1001+999999999GF100991001001999999001001MA1999999100701MD1310071+9999REMSYN060AAXX  04034 47095 32960 00000 11017 21062 30070 40266 53007;EQDQ01  00002PRCP06
0163470950999992000010409004+38080+127820FM-12+013599999V0200201N000510360019N0100001N1-00061-00561102541ADDAA106000091GF108991021051012501011999MA1999999100591MD1010041+9999REMSYN066AAXX  04094 47095 32660 80201 11006 21056 30059 40254 50004 8251/;EQDQ01  00002PRCP06
0222470950999992000010412004+38080+127820FM-12+013599999V0201101N000512200019N0100001N1-00271-00551102591ADDAA106000091GF106991021051012501001011IA1149IA2999-00109KA1120M+00291MA1999999100621MD1210031+9999REMSYN094AAXX  04124 47095 32660 61101 11027 21055 30062 40259 52003 82501 333 10029 34101 44/// 55043;EQDQ01  00002PRCP06
0163470950999992000010415004+38080+127820FM-12+013599999V0201801N000519999999N0100001N1-00171-00681102551ADDAA106000091GF108991081001999999011999MA1999999100591MD1710031+9999REMSYN066AAXX  04154 47095 32960 81801 11017 21068 30059 40255 57003 8801/;EQDQ01  00002PRCP06
0163470950999992000010418004+38080+127820FM-12+013599999V0200901N000519999999N0100001N1+00001-00691102471ADDAA106000091GF108991081001999999011999MA1999999100531MD1810061+9999REMSYN066AAXX  04184 47095 32960 80901 11000 21069 30053 40247 58006 8801/;EQDQ01  00002PRCP06
0161470950999992000010421004+38080+127820FM-12+013599999V0203601N006710075019N0050001N1-00121-00241102341ADDAY171031AY271031GF108991061071008001021999MA1999999100391MD1510141+9999MW1711REMSYN072AAXX  04214 47095 41550 83613 11012 21024 30039 40234 55014 77177 8672/;
0254470950999992000010500004+38080+127820FM-12+013599999V0200201N004110042019N0010001N1-00111-00131102331ADDAA112001091AJ100049199999999AY171061AY271061GF108991061071004501021999IA1279IA2999+00009KA1120N-00191MA1999999100381MD1510001+9999MW1731REMSYN106AAXX  05004 47095 11410 80208 11011 21013 30038 40233 55000 60012 77377 8672/ 333 21019 3/100 43004 70043;
0161470950999992000010503004+38080+127820FM-12+013599999V0203601N005110042019N0010001N1+00041-00011102201ADDAY171031AY271031GF108991061071004501021999MA1999999100261MD1510121+9999MW1731REMSYN072AAXX  05034 47095 41410 83610 10004 21001 30026 40220 55012 77377 8672/;
0161470950999992000010506004+38080+127820FM-12+013599999V0200201N004610042019N0040001N1+00201+00031101851ADDAY171061AY271061GF108991051071004501021999MA1999999099931MD1710331+9999MW1711REMSYN072AAXX  05064 47095 41440 80209 10020 20003 39993 40185 57033 77177 8572/;
0161470950999992000010509004+38080+127820FM-12+013599999V0203601N004610042019N0060001N1+00171+00081101881ADDAY171031AY261031GF108991051071004501021999MA1999999099961MD1010031+9999MW1681REMSYN072AAXX  05094 47095 41456 83609 10017 20008 39996 40188 50003 76876 8572/;
0254470950999992000010512004+38080+127820FM-12+013599999V0200201N005710360019N0150001N1+00201+00061101761ADDAA112007191AJ100079199999999AY171061AY271061GF108991041071008001021999IA1279IA2999+00009KA1120M+00201MA1999999099851MD1710111+9999MW1681REMSYN106AAXX  05124 47095 11565 80211 10020 20006 39985 40176 57011 60072 76877 8472/ 333 10020 3/000 43007 55000;
0161470950999992000010515004+38080+127820FM-12+013599999V0201401N000510042019N0080001N1+00131+00111101521ADDAY171031AY271031GF108991051071004501021999MA1999999099611MD1710241+9999MW1611REMSYN072AAXX  05154 47095 41458 81401 10013 20011 39961 40152 57024 76177 8572/;
0161470950999992000010521004+38080+127820FM-12+013599999V0201801N001010360019N0080001N1+00121+00111101251ADDAY161031AY261031GF108991041071008001021999MA1999999099341MD1710151+9999MW1611REMSYN072AAXX  05214 47095 41558 81802 10012 20011 39934 40125 57015 76166 8472/;
0161470950999992000010603004+38080+127820FM-12+013599999V0202301N002110120019N0080001N1+00241+00161101501ADDAY151031AY221031GF108991051051012501021999MA1999999099591MD1310091+9999MW1101REMSYN072AAXX  06034 47095 41658 82304 10024 20016 39959 40150 53009 71052 8552/;
0133470950999992000010606004+38080+127820FM-12+013599999V0202001N003610075019N0120001N1+00231-00021101401ADDGF108991051051008001021999MA1999999099491MD1710101+9999REMSYN066AAXX  06064 47095 41562 82007 10023 21002 39949 40140 57010 8552/;
0133470950999992000010609004+38080+127820FM-12+013599999V0202901N004112200019N0120001N1-00151-00901101791ADDGF103991031051012501001001MA1999999099841MD1210361+9999REMSYN066AAXX  06094 47095 42662 32908 11015 21090 39984 40179 52036 83500;
0242470950999992000010612004+38080+127820FM-12+013599999V0202301N006712200019N0140001N1-00391-01181101931ADDAA112000791AJ100029199999999GA1001+999999999GF100991001001999999001001IA1279IA2999+00009KA1120M+00271MA1999999099961MD1210121+9999REMSYN100AAXX  06124 47095 12964 02313 11039 21118 39996 40193 52012 69902 333 10027 3/000 43002 55000 70141;
0163470950999992000010615004+38080+127820FM-12+013599999V0202901N003619999999N0120001N1-00611-01151102021ADDAA106000091GF108991001001999999001081MA1999999100041MD1210081+9999REMSYN066AAXX  06154 47095 32962 82907 11061 21115 30004 40202 52008 80008;EQDQ01  00002PRCP06
0173470950999992000010621004+38080+127820FM-12+013599999V0203401N003612200019N0150001N1-01341-02401102551ADDAA106000091GA1001+999999999GF100991001001999999001001MA1999999100501MD1210161+9999REMSYN060AAXX  06214 47095 32965 03407 11134 21240 30050 40255 52016;EQDQ01  00002PRCP06
0249470950999992000010700004+38080+127820FM-12+013599999V0202701N000512200019N0180001N1-01381-02261102721ADDAA106000091AJ100029199999999GA1001+999999999GF100991001001999999001001IA1279IA2999-00509KA1120N-01441MA1999999100671MD1210171+9999REMSYN088AAXX  07004 47095 32968 02701 11138 21226 30067 40272 52017 333 21144 3/105 43002 70003;EQDQ01  00002PRCP06
0173470950999992000010703004+38080+127820FM-12+013599999V0202301N003112200019N0200001N1-01041-01911102631ADDAA106000091GA1001+999999999GF100991001001999999001001MA1999999100611MD1310061+9999REMSYN060AAXX  07034 47095 32970 02306 11104 21191 30061 40263 53006;EQDQ01  00002PRCP06
0173470950999992000010706004+38080+127820FM-12+013599999V0202301N002612200019N0200001N1-00831-01781102411ADDAA106000091GA1001+999999999GF100991001001999999001001MA1999999100401MD1710201+9999REMSYN060AAXX  07064 47095 32970 02305 11083 21178 30040 40241 57020;EQDQ01  00002PRCP06
0179470950999992000010709004+38080+127820FM-12+013599999V0202001N000512200019N0200001N1-00931-01641102421ADDAA106000091GF101991011051012501001001MA1999999100411MD1210011+9999REMSYN066AAXX  07094 47095 32670 12001 11093 21164 30041 40242 52000 81500;EQDQ01+000002APC3  Q02  00002PRCP06
0265470950999992000010712004+38080+127820FM-12+013599999V0202501N002112200019N0200001N1-01081-01381102441ADDAA106000091AJ100029199999999GA1001+999999999GF100991001001999999001001IA1279IA2999-00509KA1120M-00631MA1999999100411MD1210021+9999REMSYN088AAXX  07124 47095 32970 02504 11108 21138 30041 40244 52000 333 11063 3/105 43002 55083;EQDQ01+000002APC3  Q02  00002PRCP06
0161470950999992000010715004+38080+127820FM-12+013599999V0202301N001010042019N0050001N1-00931-01181102411ADDAY171031AY271031GF108991061071004501021999MA1999999100401MD1710011+9999MW1711REMSYN072AAXX  07154 47095 41450 82302 11093 21118 30040 40241 57001 77177 8672/;
0161470950999992000010718004+38080+127820FM-12+013599999V0202501N003110075019N0060001N1-00901-01071102341ADDAY171061AY271061GF108991061071008001021999MA1999999100331MD1710071+9999MW1701REMSYN072AAXX  07184 47095 41556 82506 11090 21107 30033 40234 57007 77077 8672/;
0180470950999992000010721004+38080+127820FM-12+013599999V0202301N003110075019N0060001N1-00821-00981102341ADDAY171031AY271031GF108991061071008001021999MA1999999100331MD1410001+9999MW1701REMSYN072AAXX  07214 47095 41556 82306 11082 21098 30033 40234 58000 77077 8672/;EQDQ01+000082APCTEN
0254470950999992000010800004+38080+127820FM-12+013599999V0202501N001510075019N0100001N1-00761-00901102431ADDAA112000191AJ100029199999999AY171061AY271061GF105991051071008001001001IA1279IA2999-00309KA1120N-00941MA1999999100431MD1210101+9999MW1711REMSYN106AAXX  08004 47095 11560 52503 11076 21090 30043 40243 52010 69912 77177 85700 333 21094 3/103 43002 70001;
0133470950999992000010803004+38080+127820FM-12+013599999V0202501N002612200019N0180001N1-00401-01031102421ADDGF104991041051008001001001MA1999999100441MD1510011+9999REMSYN066AAXX  08034 47095 42568 42505 11040 21103 30044 40242 55001 84500;
0133470950999992000010806004+38080+127820FM-12+013599999V0202701N003612200019N0180001N1-00251-01071102321ADDGF102991021051008001001001MA1999999100361MD1810081+9999REMSYN066AAXX  08064 47095 42568 22707 11025 21107 30036 40232 58008 82500;
0143470950999992000010809004+38080+127820FM-12+013599999V0202501N002112200019N0180001N1-00421-01091102411ADDGA1001+999999999GF100991001001999999001001MA1999999100431MD1210071+9999REMSYN060AAXX  08094 47095 42968 02504 11042 21109 30043 40241 52007;
0242470950999992000010812004+38080+127820FM-12+013599999V0200201N000512200019N0180001N1-00781-01091102611ADDAA112000021AJ100029199999999GA1001+999999999GF100991001001999999001001IA1279IA2999-00409KA1120M-00191MA1999999100611MD1210171+9999REMSYN100AAXX  08124 47095 42968 00201 11078 21109 30061 40261 52017 60002 333 11019 3/104 43002 55044 70001;
0143470950999992000010815004+38080+127820FM-12+013599999V0200201N001012200019N0150001N1-01031-01161102691ADDGA1001+999999999GF100991001001999999001001MA1999999100671MD1710061+9999REMSYN060AAXX  08154 47095 42965 00202 11103 21116 30067 40269 57006;
0173470950999992000010818004+38080+127820FM-12+013599999V0209999C000012200019N0150001N1-01181-01281102631ADDAA106000091GA1001+999999999GF100991001001999999001001MA1999999100591MD1710071+9999REMSYN060AAXX  08184 47095 32965 00000 11118 21128 30059 40263 57007;EQDQ01  00002PRCP06
0173470950999992000010821004+38080+127820FM-12+013599999V0200201N000512200019N0150001N1-01241-01351102691ADDAA106000091GA1001+999999999GF100991001001999999001001MA1999999100641MD1010051+9999REMSYN060AAXX  08214 47095 32965 00201 11124 21135 30064 40269 50005;EQDQ01  00002PRCP06
0239470950999992000010900004+38080+127820FM-12+013599999V0200501N002119999999N0150001N1-01101-01291102591ADDAA106000091AJ100029199999999GF106991001001999999001021IA1279IA2999-00609KA1120N-01261MA1999999100561MD1710081+9999REMSYN094AAXX  09004 47095 32965 60504 11110 21129 30056 40259 57008 80002 333 21126 3/106 43002 79999;EQDQ01  00002PRCP06
0163470950999992000010903004+38080+127820FM-12+013599999V0203601N000519999999N0150001N1-00561-01021102491ADDAA106000091GF106991001001999999001061MA1999999100511MD1510051+9999REMSYN066AAXX  09034 47095 32965 63601 11056 21102 30051 40249 55005 80006;EQDQ01  00002PRCP06
0163470950999992000010909004+38080+127820FM-12+013599999V0203401N001010360019N0120001N1-00171-00691102101ADDAA106000091GF108991021051012501011999MA1999999100151MD1510061+9999REMSYN066AAXX  09094 47095 32662 83402 11017 21069 30015 40210 55006 8251/;EQDQ01  00002PRCP06
0239470950999992000010912004+38080+127820FM-12+013599999V0209999C000010360019N0100001N1-00191-00561102141ADDAA106000091AJ100029199999999GF108991021051012501011999IA1279IA2999-00109KA1120M-00081MA1999999100191MD1310041+9999REMSYN094AAXX  09124 47095 32660 80000 11019 21056 30019 40214 53004 8251/ 333 11008 3/101 43002 55022;EQDQ01  00002PRCP06
0163470950999992000010915004+38080+127820FM-12+013599999V0202001N000510360019N0100001N1-00191-00621102111ADDAA106000091GF108991031051012501011999MA1999999100161MD1010031+9999REMSYN066AAXX  09154 47095 32660 82001 11019 21062 30016 40211 50003 8351/;EQDQ01  00002PRCP06
0161470950999992000010918004+38080+127820FM-12+013599999V0202301N001510075019N0050001N1-00231-00411102101ADDAY171061AY271061GF108991061071008001021999MA1999999100141MD1810021+9999MW1711REMSYN072AAXX  09184 47095 41550 82303 11023 21041 30014 40210 58002 77177 8672/;
0161470950999992000010921004+38080+127820FM-12+013599999V0202001N001510075019N0080001N1-00181-00391102261ADDAY171031AY271031GF108991051071008001021999MA1999999100311MD1210171+9999MW1711REMSYN072AAXX  09214 47095 41558 82003 11018 21039 30031 40226 52017 77177 8572/;
0226470950999992000011000004+38080+127820FM-12+013599999V0202301N001012200019N0100001N1-00361-00581102501ADDAA112000591AJ100039199999999GF101991011051008001001001IA1279IA2999-00209KA1120N-00441MA1999999100531MD1210221+9999REMSYN100AAXX  10004 47095 12560 12302 11036 21058 30053 40250 52022 69952 81500 333 21044 3/102 43003 70004;
0143470950999992000011003004+38080+127820FM-12+013599999V0202901N001512200019N0120001N1-00061-00961102611ADDGA1001+999999999GF100991001001999999001001MA1999999100661MD1310131+9999REMSYN060AAXX  10034 47095 42962 02903 11006 21096 30066 40261 53013;
0143470950999992000011006004+38080+127820FM-12+013599999V0202901N001512200019N0200001N1+00041-01181102531ADDGA1001+999999999GF100991001001999999001001MA1999999100591MD1810071+9999REMSYN060AAXX  10064 47095 42970 02903 10004 21118 30059 40253 58007;
0173470950999992000011009004+38080+127820FM-12+013599999V0200201N002112200019N0200001N1-00341-00941102741ADDAA106000091GA1001+999999999GF100991001001999999001001MA1999999100771MD1210181+9999REMSYN060AAXX  10094 47095 32970 00204 11034 21094 30077 40274 52018;EQDQ01  00002PRCP06
0242470950999992000011012004+38080+127820FM-12+013599999V0200501N001512200019N0150001N1-00691-00981102961ADDAA112000391AJ100019199999999GA1001+999999999GF100991001001999999001001IA1309IA2999-00309KA1120M+00091MA1999999100951MD1210191+9999REMSYN100AAXX  10124 47095 32965 00503 11069 21098 30095 40296 52019 69932 333 10009 3/103 42001 55082 70005;
0173470950999992000011015004+38080+127820FM-12+013599999V0200201N000512200019N0150001N1-01001-01141103061ADDAA106000091GA1001+999999999GF100991001001999999001001MA1999999101021MD1210071+9999REMSYN060AAXX  10154 47095 32965 00201 11100 21114 30102 40306 52007;EQDQ01  00002PRCP06
0173470950999992000011018004+38080+127820FM-12+013599999V0202901N001512200019N0100001N1-01191-01311103021ADDAA106000091GA1001+999999999GF100991001001999999001001MA1999999100981MD1710051+9999REMSYN060AAXX  10184 47095 32960 02903 11119 21131 30098 40302 57005;EQDQ01  00002PRCP06
0173470950999992000011021004+38080+127820FM-12+013599999V0202001N000512200019N0100001N1-01321-01431103101ADDAA106000091GA1001+999999999GF100991001001999999001001MA1999999101041MD1210061+9999REMSYN060AAXX  10214 47095 32960 02001 11132 21143 30104 40310 52006;EQDQ01  00002PRCP06
0233470950999992000011100004+38080+127820FM-12+013599999V0209999C000012200019N0130001N1-01231-01371103161ADDAA106000091AJ100019199999999GF102991001001999999001011IA1309IA2999-00609KA1120N-01391MA1999999101111MD1010071+9999REMSYN088AAXX  11004 47095 32963 20000 11123 21137 30111 40316 50007 80001 333 21139 3/106 42001;EQDQ01  00002PRCP06
0163470950999992000011103004+38080+127820FM-12+013599999V0201801N001012200019N0150001N1-00191-00961102881ADDAA106000091GF102991001001999999001011MA1999999100911MD1710191+9999REMSYN066AAXX  11034 47095 32965 21802 11019 21096 30091 40288 57019 80001;EQDQ01  00002PRCP06
0163470950999992000011106004+38080+127820FM-12+013599999V0200201N005719999999N0150001N1+00181-00761102671ADDAA106000091GF106991001001999999001051MA1999999100731MD1810181+9999REMSYN066AAXX  11064 47095 32965 60211 10018 21076 30073 40267 58018 80005;EQDQ01  00002PRCP06
0163470950999992000011109004+38080+127820FM-12+013599999V0203601N004119999999N0120001N1+00071-00651102671ADDAA106000091GF108991021001999999011061MA1999999100731MD1510001+9999REMSYN066AAXX  11094 47095 32962 83608 10007 21065 30073 40267 55000 82016;EQDQ01  00002PRCP06
0239470950999992000011112004+38080+127820FM-12+013599999V0203601N004119999999N0120001N1+00021-00551102691ADDAA106000091AJ100019199999999GF108991081001999999021001IA1309IA2999-00109KA1120M+00201MA1999999100741MD1210011+9999REMSYN094AAXX  11124 47095 32962 83608 10002 21055 30074 40269 52001 88020 333 10020 3/101 42001 55063;EQDQ01  00002PRCP06
0179470950999992000011115004+38080+127820FM-12+013599999V0200201N005719999999N0120001N1+00011-00521102691ADDAA106000091GF108991081001999999021999MA1999999100741MD1410001+9999REMSYN066AAXX  11154 47095 32962 80211 10001 21052 30074 40269 53000 8802/;EQDQ01+000032APCTENQ02  00002PRCP06
0163470950999992000011118004+38080+127820FM-12+013599999V0203601N005719999999N0120001N1+00001-00451102541ADDAA106000091GF107991061001999999021051MA1999999100591MD1710151+9999REMSYN066AAXX  11184 47095 32962 73611 10000 21045 30059 40254 57015 86025;EQDQ01  00002PRCP06
0163470950999992000011121004+38080+127820FM-12+013599999V0203601N006210120019N0120001N1+00091-00291102331ADDAA106000091GF108991051051012501021999MA1999999100391MD1710201+9999REMSYN066AAXX  11214 47095 32662 83612 10009 21029 30039 40233 57020 8552/;EQDQ01  00002PRCP06
0233470950999992000011200004+38080+127820FM-12+013599999V0203601N005710120019N0150001N1+00161-00251102351ADDAA106000091AJ100009199999999GF108991051051012501021999IA1309IA2999+00009KA1120N-00041MA1999999100421MD1210031+9999REMSYN088AAXX  12004 47095 32665 83611 10016 21025 30042 40235 52003 8552/ 333 21004 3/100 42000;EQDQ01  00002PRCP06
0161470950999992000011203004+38080+127820FM-12+013599999V0200201N005110075019N0150001N1+00281-00241102161ADDAY171031AY271031GF108991051051008001021999MA1999999100241MD1710181+9999MW1701REMSYN072AAXX  12034 47095 41565 80210 10028 21024 30024 40216 57018 77077 8552/;
0161470950999992000011206004+38080+127820FM-12+013599999V0203601N005710042019N0050001N1+00171+00041101931ADDAY171061AY271061GF108991061071004501021999MA1999999100001MD1710241+9999MW1681REMSYN072AAXX  12064 47095 41450 83611 10017 20004 30000 40193 57024 76877 8672/;
0161470950999992000011209004+38080+127820FM-12+013599999V0203601N003610042019N0050001N1+00151+00061101841ADDAY171031AY261031GF108991061071004501021999MA1999999099911MD1710091+9999MW1611REMSYN072AAXX  12094 47095 41450 83607 10015 20006 39991 40184 57009 76176 8672/;
0260470950999992000011212004+38080+127820FM-12+013599999V0203401N000510042019N0030001N1+00041+00021101801ADDAA112002091AJ100009199999999AY171061AY261061GF108991061071004501021999IA1309IA2999+00009KA1120M+00291MA1999999099871MD1510041+9999MW1711REMSYN112AAXX  12124 47095 11430 83401 10004 20002 39987 40180 55004 60022 77176 8672/ 333 10029 3/000 42000 55000 70015;
0161470950999992000011215004+38080+127820FM-12+013599999V0209999C000010042019N0030001N1+00031+00031101641ADDAY171031AY271031GF108991061071004501021999MA1999999099711MD1710161+9999MW1711REMSYN072AAXX  12154 47095 41430 80000 10003 20003 39971 40164 57016 77177 8672/;
0161470950999992000011218004+38080+127820FM-12+013599999V0209999C000010042019N0040001N1+00031+00031101561ADDAY171061AY271061GF108991061071004501021999MA1999999099631MD1710081+9999MW1711REMSYN072AAXX  12184 47095 41440 80000 10003 20003 39963 40156 57008 77177 8672/;
0161470950999992000011221004+38080+127820FM-12+013599999V0209999C000010042019N0050001N1+00021+00021101471ADDAY171031AY271031GF108991051071004501021999MA1999999099551MD1810081+9999MW1711REMSYN072AAXX  12214 47095 41450 80000 10002 20002 39955 40147 58008 77177 8572/;
0254470950999992000011300004+38080+127820FM-12+013599999V0209999C000010042019N0030001N1+00051+00041101511ADDAA112003091AJ100059199999999AY171061AY271061GF108991051071004501021999IA1279IA2999+00009KA1120N+00011MA1999999099581MD1310041+9999MW1711REMSYN106AAXX  13004 47095 11430 80000 10005 20004 39958 40151 53004 60032 77177 8572/ 333 20001 3/000 43005 70067;
0161470950999992000011303004+38080+127820FM-12+013599999V0202001N001510042019N0030001N1+00071+00021101521ADDAY171031AY271031GF108991051071004501021999MA1999999099601MD1310011+9999MW1711REMSYN072AAXX  13034 47095 41430 82003 10007 20002 39960 40152 53001 77177 8572/;
0161470950999992000011306004+38080+127820FM-12+013599999V0209999C000010042019N0040001N1+00021-00111101491ADDAY171061AY271061GF108991051071004501021999MA1999999099561MD1810041+9999MW1711REMSYN072AAXX  13064 47095 41440 80000 10002 21011 39956 40149 58004 77177 8572/;
0161470950999992000011309004+38080+127820FM-12+013599999V0202901N001010075019N0050001N1-00061-00321101671ADDAY171031AY221031GF107991071051008001001001MA1999999099731MD1210171+9999MW1101REMSYN072AAXX  13094 47095 41550 72902 11006 21032 39973 40167 52017 71072 87500;
0260470950999992000011312004+38080+127820FM-12+013599999V0203401N001510075019N0050001N1-00281-00511101891ADDAA112001091AJ100059199999999AY171061AY221061GF106991061051008001001001IA1279IA2999+00009KA1120M+00111MA1999999099941MD1210211+9999MW1101REMSYN112AAXX  13124 47095 11550 63403 11028 21051 39994 40189 52021 69992 71072 86500 333 10011 3/000 43005 55000 70057;
0191470950999992000011315004+38080+127820FM-12+013599999V0209999C000010075019N0100001N1-00331-00481101981ADDAA106000091AY121031AY221031GF106991061051008001001001MA1999999100021MD1310091+9999MW1101REMSYN072AAXX  13154 47095 31560 60000 11033 21048 30002 40198 53009 71022 86500;EQDQ01  00002PRCP06
0191470950999992000011318004+38080+127820FM-12+013599999V0203401N000510075019N0030001N1-00371-00541102091ADDAA106000091AY121061AY221061GF106991061051008001001001MA1999999100131MD1010101+9999MW1101REMSYN072AAXX  13184 47095 31530 63401 11037 21054 30013 40209 50010 71022 86500;EQDQ01  00002PRCP06
0195470950999992000011321004+38080+127820FM-12+013599999V0202301N001010075019N0030001N1-00391-00511102141ADDAA199000091AY121031AY221031GF107991071051008001001001MA1999999100171MD1210041+9999MW1101REMSYN076    AAXX  13214 47095 31530 72302 11039 21051 30017 40214 52004 71022 87500;EQDQ01  00002PRCP99
0224470950999992000011400004+38080+127820FM-12+013599999V0209999C000010042019N0030001N1-00331-00481102271ADDAA124000591AJ100059199999999GF108991061061004501011999IA1279IA2999+00009KA1120N-00411MA1999999100301MD1310131+9999REMSYN098    AAXX  14004 47095 32430 80000 11033 21048 30030 40227 53013 8661/ 333 21041 3/100 43005 70004;
0195470950999992000011403004+38080+127820FM-12+013599999V0209999C000010075019N0050001N1-00191-00531102301ADDAA199000091AY121031AY221031GF108991081061008001999999MA1999999100351MD1310041+9999MW1101REMSYN076    AAXX  14034 47095 32550 80000 11019 21053 30035 40230 53004 71022 886//;EQDQ01  00002PRCP99
0165470950999992000011406004+38080+127820FM-12+013599999V0200501N000510042019N0030001N1-00171-00351102241ADDAY171061AY221061GF108991081071004501999999MA1999999100291MD1810061+9999MW1701REMSYN076    AAXX  14064 47095 41430 80501 11017 21035 30029 40224 58006 77072 887//;
0165470950999992000011409004+38080+127820FM-12+013599999V0201801N000510075019N0030001N1-00201-00441102391ADDAY121031AY221031GF108991081071008001999999MA1999999100431MD1210141+9999MW1101REMSYN076    AAXX  14094 47095 41530 81801 11020 21044 30043 40239 52014 71022 887//;
0264470950999992000011412004+38080+127820FM-12+013599999V0202301N000510075019N0040001N1-00271-00491102561ADDAA112000791AJ100059199999999AY121061AY221061GF108991061061008001021999IA1279IA2999+00009KA1120M-00101MA1999999100591MD1210161+9999MW1101REMSYN116    AAXX  14124 47095 11540 82301 11027 21049 30059 40256 52016 69902 71022 8662/ 333 11010 3/100 43005 55000 70000;
0165470950999992000011415004+38080+127820FM-12+013599999V0209999C000010075019N0040001N1-00351-00561102581ADDAY121031AY221031GF108991061051008001021999MA1999999100611MD1210011+9999MW1101REMSYN076    AAXX  14154 47095 41540 80000 11035 21056 30061 40258 52001 71022 8652/;
0176470950999992000011418004+38080+127820FM-12+013599999V0200501N001010075019N0030001N1-00441-00531102691ADDAA199000021AY121061AY221061GF108991061051008001021999MA1999999100711MD1010101+9999MW1101REMSYN076    AAXX  14184 47095 31530 80502 11044 21053 30071 40269 50010 71022 8652/;
0195470950999992000011421004+38080+127820FM-12+013599999V0200501N001012200019N0030001N1-00861-00901102711ADDAA199000091AY111031AY211031GF102991021051008001001001MA1999999100691MD1810011+9999MW1101REMSYN076    AAXX  14214 47095 31530 20502 11086 21090 30069 40271 58001 71011 82500;EQDQ01  00002PRCP99
0252470950999992000011500004+38080+127820FM-12+013599999V0203601N000519999999N0060001N1-01011-01091102861ADDAA124000791AJ100059199999999AY111061AY211061GF106991001001999999001021IA1279IA2999-00209KA1120N-01141MA1999999100831MD1210141+9999MW1101REMSYN104    AAXX  15004 47095 31956 63601 11101 21109 30083 40286 52014 71011 80002 333 21114 3/102 43005 79999;
0195470950999992000011503004+38080+127820FM-12+013599999V0202001N000512200019N0080001N1-00371-00771102821ADDAA199000091AY101031AY201031GF102991001001999999001011MA1999999100841MD1310011+9999MW1101REMSYN076    AAXX  15034 47095 31958 22001 11037 21077 30084 40282 53001 71000 80001;EQDQ01  00002PRCP99
0183470950999992000011506004+38080+127820FM-12+013599999V0209999C000012200019N0100001N1-00011-00561102501ADDAA199000091GA1001+999999999GF100991001001999999001001MA1999999100561MD1710281+9999REMSYN070    AAXX  15064 47095 32960 00000 11001 21056 30056 40250 57028 80002;EQDQ01  00002PRCP99
0167470950999992000011509004+38080+127820FM-12+013599999V0209999C000012200019N0100001N1-00341-00601102571ADDAA199000091GF103991001001999999001011MA1999999100601MD1210041+9999REMSYN070    AAXX  15094 47095 32960 30000 11034 21060 30060 40257 52004 80001;EQDQ01  00002PRCP99
0243470950999992000011512004+38080+127820FM-12+013599999V0200201N001012200019N0100001N1-00661-00711102691ADDAA199000091AJ100039199999999GF102991001001999999001011IA1279IA2999-00109KA1120M+00031MA1999999100691MD1310091+9999REMSYN098    AAXX  15124 47095 32960 20202 11066 21071 30069 40269 53009 80001 333 10003 3/101 43003 55063;EQDQ01  00002PRCP99
0167470950999992000011515004+38080+127820FM-12+013599999V0209999C000019999999N0060001N1-00861-00921102671ADDAA199000091GF105991001001999999001021MA1999999100661MD1710031+9999REMSYN070    AAXX  15154 47095 32956 50000 11086 21092 30066 40267 57003 80002;EQDQ01  00002PRCP99
0195470950999992000011518004+38080+127820FM-12+013599999V0209999C000010360019N0040001N1-00821-00891102631ADDAA199000091AY121061AY221061GF108991041051008001011999MA1999999100611MD1710041+9999MW1101REMSYN076    AAXX  15184 47095 32540 80000 11082 21089 30061 40263 57004 71022 8451/;EQDQ01  00002PRCP99
0195470950999992000011521004+38080+127820FM-12+013599999V0209999C000010360019N0060001N1-00821-00891102561ADDAA199000091AY121031AY221031GF108991041051012501011999MA1999999100551MD1710061+9999MW1101REMSYN076    AAXX  15214 47095 32656 80000 11082 21089 30055 40256 57006 71022 8451/;EQDQ01  00002PRCP99
0265470950999992000011600004+38080+127820FM-12+013599999V0202501N000512200019N0060001N1-00861-00941102621ADDAA199000091AJ100039199999999AY101061AY201061GF101991001001999999001021IA1279IA2999-00309KA1120N-00931MA1999999100601MD1210051+9999MW1101REMSYN098    AAXX  16004 47095 32956 12501 11086 21094 30060 40262 52005 71000 80002 333 21093 3/103 43003;EQDQ01  00002PRCP99
0205470950999992000011603004+38080+127820FM-12+013599999V0209999C000012200019N0050001N1-00161-00711102441ADDAA199000091AY101031AY201031GA1001+999999999GF100991001001999999001001MA1999999100481MD1510121+9999MW1101REMSYN070    AAXX  16034 47095 32950 00000 11016 21071 30048 40244 55012 71000;EQDQ01  00002PRCP99
0177470950999992000011606004+38080+127820FM-12+013599999V0202301N000512200019N0100001N1+00231-00661102211ADDAA199000091GA1001+999999999GF100991001001999999001001MA1999999100291MD1710191+9999REMSYN064    AAXX  16064 47095 32960 02301 10023 21066 30029 40221 57019;EQDQ01  00002PRCP99
0167470950999992000011609004+38080+127820FM-12+013599999V0203601N001019999999N0150001N1-00351-00611102291ADDAA199000091GF105991001001999999001011MA1999999100321MD1010031+9999REMSYN070    AAXX  16094 47095 32965 53602 11035 21061 30032 40229 50003 80001;EQDQ01  00002PRCP99
0243470950999992000011612004+38080+127820FM-12+013599999V0209999C000012200019N0150001N1-00701-00801102341ADDAA199000091AJ100029199999999GF102991001001999999001011IA1279IA2999+00009KA1120M+00291MA1999999100341MD1810021+9999REMSYN098    AAXX  16124 47095 32965 20000 11070 21080 30034 40234 58002 80001 333 10029 3/100 43002 55076;EQDQ01  00002PRCP99
0177470950999992000011615004+38080+127820FM-12+013599999V0209999C000012200019N0120001N1-00851-00901102381ADDAA199000091GA1001+999999999GF100991001001999999001001MA1999999100371MD1310031+9999REMSYN064    AAXX  16154 47095 32962 00000 11085 21090 30037 40238 53003;EQDQ01  00002PRCP99
0205470950999992000011618004+38080+127820FM-12+013599999V0209999C000012200019N0060001N1-00971-01041102331ADDAA199000091AY101061AY201061GA1001+999999999GF100991001001999999001001MA1999999100321MD1710051+9999MW1101REMSYN070    AAXX  16184 47095 31956 00000 11097 21104 30032 40233 57005 71000;EQDQ01  00002PRCP99
0205470950999992000011621004+38080+127820FM-12+013599999V0209999C000012200019N0050001N1-01061-01151102261ADDAA199000091AY101031AY201031GA1001+999999999GF100991001001999999001001MA1999999100241MD1710081+9999MW1101REMSYN070    AAXX  16214 47095 31950 00000 11106 21115 30024 40226 57008 71000;EQDQ01  00002PRCP99
0265470950999992000011700004+38080+127820FM-12+013599999V0203401N000512200019N0080001N1-00981-01061102331ADDAA199000091AJ100029199999999AY111061AY201061GF102991021051008001001001IA1279IA2999-00409KA1120N-01101MA1999999100311MD1210081+9999MW1101REMSYN098    AAXX  17004 47095 31558 23401 11098 21106 30031 40233 52008 71010 82500 333 21110 3/104 43002;EQDQ01  00002PRCP99
0167470950999992000011703004+38080+127820FM-12+013599999V0209999C000012200019N0100001N1-00191-00461102211ADDAA199000091GF104991041051017501001001MA1999999100261MD1510061+9999REMSYN070    AAXX  17034 47095 32760 40000 11019 21046 30026 40221 55006 84500;EQDQ01  00002PRCP99
0167470950999992000011706004+38080+127820FM-12+013599999V0202901N000512200019N0200001N1+00241-00371101961ADDAA199000091GF102991021051017501001001MA1999999100051MD1710211+9999REMSYN070    AAXX  17064 47095 32770 22901 10024 21037 30005 40196 57021 82500;EQDQ01  00002PRCP99
0167470950999992000011709004+38080+127820FM-12+013599999V0209999C000012200019N0120001N1-00031-00331102131ADDAA199000091GF104991021051017501031001MA1999999100191MD1210151+9999REMSYN070    AAXX  17094 47095 32762 40000 11003 21033 30019 40213 52015 82530;EQDQ01  00002PRCP99
0281470950999992000011712004+38080+127820FM-12+013599999V0209999C000012200019N0060001N1-00481-00521102251ADDAA199000091AJ100019199999999AY101061AY201061GA1001+999999999GF100991001001999999001001IA1309IA2999+00009KA1120M+00251MA1999999100271MD1210081+9999MW1101REMSYN098    AAXX  17124 47095 31956 00700 11048 21052 30027 40225 52008 71000 333 10025 3/000 42001 55044;EQDQ01  00002PRCP99
0211470950999992000011715004+38080+127820FM-12+013599999V0209999C000019999999N0030001N1-00691-00741102281ADDAA199000091AY121031AY221031GF106991999001999999031001MA1999999100281MD1210011+9999MW1101REMSYN076    AAXX  17154 47095 31930 60000 11069 21074 30028 40228 52001 71022 80030;EQDQ01+000002SCOTLCQ02  00002PRCP99
0205470950999992000011721004+38080+127820FM-12+013599999V0209999C000012200019N0030001N1-00861-00921102221ADDAA199000091AY101031AY201031GA1001+999999999GF100991001001999999001001MA1999999100221MD1710101+9999MW1101REMSYN070    AAXX  17214 47095 31930 00000 11086 21092 30022 40222 57010 71000;EQDQ01  00002PRCP99
0265470950999992000011800004+38080+127820FM-12+013599999V0203201N000510120019N0030001N1-00761-00811102371ADDAA199000091AJ100019199999999AY121061AY221061GF107991071051012501001001IA1309IA2999-00309KA1120N-00951MA1999999100371MD1210151+9999MW1101REMSYN098    AAXX  18004 47095 31630 73201 11076 21081 30037 40237 52015 71022 87500 333 21095 3/103 42001;EQDQ01  00002PRCP99
0195470950999992000011803004+38080+127820FM-12+013599999V0203201N001012200019N0050001N1-00231-00601102201ADDAA199000091AY101031AY201031GF101991011051012501001001MA1999999100251MD1710121+9999MW1101REMSYN076    AAXX  18034 47095 31650 13202 11023 21060 30025 40220 57012 71000 81500;EQDQ01  00002PRCP99
0167470950999992000011806004+38080+127820FM-12+013599999V0203201N001012200019N0120001N1-00051-00721101991ADDAA199000091GF101991011051012501001001MA1999999100051MD1710201+9999REMSYN070    AAXX  18064 47095 32662 13202 11005 21072 30005 40199 57020 81500;EQDQ01  00002PRCP99
0177470950999992000011809004+38080+127820FM-12+013599999V0202701N002112200019N0180001N1-00111-01331102091ADDAA199000091GA1001+999999999GF100991001001999999001001MA1999999100141MD1210101+9999REMSYN064    AAXX  18094 47095 32968 02704 11011 21133 30014 40209 52010;EQDQ01  00002PRCP99
0253470950999992000011812004+38080+127820FM-12+013599999V0200701N001012200019N0180001N1-00661-01011102211ADDAA199000091AJ100019199999999GA1001+999999999GF100991001001999999001001IA1309IA2999-00109KA1120M+00121MA1999999100221MD1210081+9999REMSYN092    AAXX  18124 47095 32968 00702 11066 21101 30022 40221 52008 333 10012 3/101 42001 55071;EQDQ01  00002PRCP99
0167470950999992000011815004+38080+127820FM-12+013599999V0203601N000512200019N0180001N1-00981-01091102201ADDAA199000091GF101991011001999999031001MA1999999100191MD1510031+9999REMSYN070    AAXX  18154 47095 32968 13601 11098 21109 30019 40220 55003 81030;EQDQ01  00002PRCP99
0167470950999992000011818004+38080+127820FM-12+013599999V0209999C000012200019N0120001N1-01051-01171102051ADDAA199000091GF104991041051012501001001MA1999999100031MD1810161+9999REMSYN070    AAXX  18184 47095 32662 40000 11105 21117 30003 40205 58016 84500;EQDQ01  00002PRCP99
0167470950999992000011821004+38080+127820FM-12+013599999V0202701N001010120019N0100001N1-00861-01061101911ADDAA199000091GF107991071051012501001001MA1999999099911MD1710121+9999REMSYN070    AAXX  18214 47095 32660 72702 11086 21106 39991 40191 57012 87500;EQDQ01  00002PRCP99
0268470950999992000011900004+38080+127820FM-12+013599999V0209999C000012200019N0080001N1-00911-01011102021ADDAA112000791AJ100019199999999AY101061AY201061GA1001+999999999GF100991001001999999001001IA1309IA2999-00409KA1120N-01131MA1999999100021MD1210101+9999MW1101REMSYN104    AAXX  19004 47095 11958 00000 11091 21101 30002 40202 52010 69902 71000 333 21113 3/104 42001 70000;
0137470950999992000011903004+38080+127820FM-12+013599999V0202901N002610360019N0120001N1-00511-01191102021ADDGF106991031051012501041001MA1999999100041MD1310031+9999REMSYN070    AAXX  19034 47095 42662 62905 11051 21119 30004 40202 53003 83540;
0195470950999992000011909004+38080+127820FM-12+013599999V0202901N002110075019N0100001N1-00751-01381102261ADDAA199000091AY171031AY221031GF106991061061008001001001MA1999999100271MD1210241+9999MW1021REMSYN076    AAXX  19094 47095 32560 62904 11075 21138 30027 40226 52024 70272 86600;EQDQ01  00002PRCP99
0264470950999992000011912004+38080+127820FM-12+013599999V0202301N003110075019N0050001N1-00851-01301102481ADDAA112000791AJ100019199999999AY171061AY271061GF107991071071008001001001IA1309IA2999-00409KA1120M-00451MA1999999100471MD1210201+9999MW1711REMSYN116    AAXX  19124 47095 11550 72306 11085 21130 30047 40248 52020 69902 77177 87700 333 11045 3/104 42001 55011 79999;
0165470950999992000011915004+38080+127820FM-12+013599999V0202301N002110075019N0050001N1-00891-01351102551ADDAY171031AY271031GF107991071071008001001001MA1999999100531MD1210061+9999MW1701REMSYN076    AAXX  19154 47095 41550 72304 11089 21135 30053 40255 52006 77077 87700;
0161470950999992000011918004+38080+127820FM-12+013599999V0202501N002612200019N0120001N1-01031-01611102681ADDAY171061AY201061GF102991021051012501001001MA1999999100651MD1210121+9999MW1011REMSYN072AAXX  19184 47095 41662 22505 11103 21161 30065 40268 52012 70170 82500;
0133470950999992000011921004+38080+127820FM-12+013599999V0202301N002610120019N0150001N1-01161-01691102911ADDGF106991061051012501001001MA1999999100871MD1210221+9999REMSYN066AAXX  19214 47095 42665 62305 11116 21169 30087 40291 52022 86500;
0226470950999992000012000004+38080+127820FM-12+013599999V0202301N002612200019N0100001N1-01241-01781103181ADDAA112000791AJ100019199999999GF102991021051012501001001IA1309IA2999-00709KA1120N-01301MA1999999101131MD1210261+9999REMSYN100AAXX  20004 47095 12660 22305 11124 21178 30113 40318 52026 69902 82500 333 21130 3/107 42001 79999;
0173470950999992000012006004+38080+127820FM-12+013599999V0202901N002112200019N0180001N1-00761-01901103191ADDAA199000091GA1001+999999999GF100991001001999999001001MA1999999101181MD1710061+9999REMSYN060AAXX  20064 47095 32968 02904 11076 21190 30118 40319 57006;EQDQ01  00002PRCP99
0173470950999992000012009004+38080+127820FM-12+013599999V0202301N002112200019N0150001N1-00901-01821103401ADDAA199000091GA1001+999999999GF100991001001999999001001MA1999999101361MD1210191+9999REMSYN060AAXX  20094 47095 32965 02304 11090 21182 30136 40340 52019;EQDQ01  00002PRCP99
0242470950999992000012012004+38080+127820FM-12+013599999V0202701N000512200019N0180001N1-01281-01721103641ADDAA112000791AJ100029199999999GA1001+999999999GF100991001001999999001001IA1309IA2999-00709KA1120M-00741MA1999999101581MD1210211+9999REMSYN100AAXX  20124 47095 32968 02701 11128 21172 30158 40364 52021 69902 333 11074 3/107 42002 55085 70000;
0173470950999992000012015004+38080+127820FM-12+013599999V0203201N000512200019N0180001N1-01501-01751103771ADDAA199000091GA1001+999999999GF100991001001999999001001MA1999999101681MD1210101+9999REMSYN060AAXX  20154 47095 32968 03201 11150 21175 30168 40377 52010;EQDQ01  00002PRCP99
0173470950999992000012018004+38080+127820FM-12+013599999V0209999C000012200019N0180001N1-01641-01831103901ADDAA199000091GA1001+999999999GF100991001001999999001001MA1999999101801MD1210121+9999REMSYN060AAXX  20184 47095 32968 00000 11164 21183 30180 40390 52012;EQDQ01  00002PRCP99
0173470950999992000012021004+38080+127820FM-12+013599999V0209999C000012200019N0150001N1-01781-01951104011ADDAA199000091GA1001+999999999GF100991001001999999001001MA1999999101891MD1210091+9999REMSYN060AAXX  20214 47095 32965 00000 11178 21195 30189 40401 52009;EQDQ01  00002PRCP99
0243470950999992000012100004+38080+127820FM-12+013599999V0202501N001012200019N0100001N1-01661-01861104151ADDAA199000091AJ100029199999999GA1001+999999999GF100991001001999999001001IA1309IA2999-00909KA1120N-01851MA1999999102041MD1210151+9999REMSYN082AAXX  21004 47095 32960 02502 11166 21186 30204 40415 52015 333 21185 3/109 42002;EQDQ01  00002PRCP99
0173470950999992000012103004+38080+127820FM-12+013599999V0202901N001012200019N0120001N1-00951-01791104051ADDAA199000091GA1001+999999999GF100991001001999999001001MA1999999102001MD1510041+9999REMSYN060AAXX  21034 47095 32962 02902 11095 21179 30200 40405 55004;EQDQ01  00002PRCP99
0163470950999992000012106004+38080+127820FM-12+013599999V0200201N000512200019N0120001N1-00501-01791103841ADDAA199000091GF101991001001999999001011MA1999999101831MD1810171+9999REMSYN066AAXX  21064 47095 32962 10201 11050 21179 30183 40384 58017 80001;EQDQ01  00002PRCP99
0163470950999992000012109004+38080+127820FM-12+013599999V0203201N000512200019N0120001N1-00801-01541103971ADDAA199000091GF102991001001999999001011MA1999999101941MD1210101+9999REMSYN066AAXX  21094 47095 32962 23201 11080 21154 30194 40397 52010 80001;EQDQ01  00002PRCP99
0163470950999992000012115004+38080+127820FM-12+013599999V0209999C000019999999N0140001N1-01231-01431103851ADDAA199000091GF108991001001999999001061MA1999999101871MD1710041+9999REMSYN066AAXX  21154 47095 32964 80000 11123 21143 30187 40385 57004 80006;EQDQ01  00002PRCP99
0163470950999992000012118004+38080+127820FM-12+013599999V0202501N000519999999N0120001N1-01231-01451103831ADDAA199000091GF107991001001999999001061MA1999999101761MD1710101+9999REMSYN066AAXX  21184 47095 32962 72501 11123 21145 30176 40383 57010 80006;EQDQ01  00002PRCP99
0163470950999992000012121004+38080+127820FM-12+013599999V0209999C000019999999N0120001N1-01091-01371103701ADDAA199000091GF108991001001999999001081MA1999999101651MD1810111+9999REMSYN066AAXX  21214 47095 32962 80000 11109 21137 30165 40370 58011 80008;EQDQ01  00002PRCP99
0249470950999992000012200004+38080+127820FM-12+013599999V0201801N000512200019N0100001N1-00931-01311103621ADDAA199000091AJ100029199999999GA1001+999999999GF100991001001999999001001IA1309IA2999-00509KA1120N-01321MA1999999101581MD1710061+9999REMSYN088AAXX  22004 47095 32960 01801 11093 21131 30158 40362 57006 8801/ 333 21132 3/105 42002;EQDQ01  00002PRCP99
0163470950999992000012203004+38080+127820FM-12+013599999V0209999C000012200019N0150001N1-00371-01231103301ADDAA199000091GF104991001001999999001021MA1999999101311MD1710281+9999REMSYN066AAXX  22034 47095 32965 40000 11037 21123 30131 40330 57028 80002;EQDQ01  00002PRCP99
0163470950999992000012206004+38080+127820FM-12+013599999V0203401N000510360019N0120001N1-00061-01261102861ADDAA199000091GF108991011051017501011999MA1999999100911MD1710401+9999REMSYN066AAXX  22064 47095 32762 83401 11006 21126 30091 40286 57040 8151/;EQDQ01  00002PRCP99
0163470950999992000012209004+38080+127820FM-12+013599999V0209999C000010360019N0100001N1-00111-00911102811ADDAA199000091GF108991021051012501011999MA1999999100851MD1710061+9999REMSYN066AAXX  22094 47095 32660 80000 11011 21091 30085 40281 57006 8251/;EQDQ01  00002PRCP99
0260470950999992000012212004+38080+127820FM-12+013599999V0209999C000010042019N0020001N1-00221-00261102781ADDAA112000191AJ100029199999999AY171061AY271061GF108991061071004501021999IA1279IA2999-00109KA1120M+00031MA1999999100811MD1710041+9999MW1711REMSYN112AAXX  22124 47095 11420 80000 11022 21026 30081 40278 57004 69912 77177 8672/ 333 10003 3/101 43002 55015 70001;
0161470950999992000012215004+38080+127820FM-12+013599999V0203201N000510042019N0030001N1-00231-00271102601ADDAY171031AY271031GF107991061071004501011001MA1999999100631MD1710181+9999MW1711REMSYN072AAXX  22154 47095 41430 73201 11023 21027 30063 40260 57018 77177 86710;
0161470950999992000012218004+38080+127820FM-12+013599999V0203401N001010042019N0010001N1-00231-00271102471ADDAY171061AY271061GF108991061071004501021999MA1999999100501MD1710131+9999MW1711REMSYN072AAXX  22184 47095 41410 83402 11023 21027 30050 40247 57013 77177 8672/;
0161470950999992000012221004+38080+127820FM-12+013599999V0201801N001010042019N0015001N1-00231-00291102341ADDAY171031AY271031GF108991061071004501021999MA1999999100381MD1710131+9999MW1711REMSYN072AAXX  22214 47095 41415 81802 11023 21029 30038 40234 57013 77177 8672/;
0254470950999992000012300004+38080+127820FM-12+013599999V0209999C000010075019N0100001N1-00151-00261102461ADDAA112001091AJ100049199999999AY171061AY211061GF105991051061008001001001IA1279IA2999-00109KA1120N-00311MA1999999100501MD1210121+9999MW1011REMSYN106AAXX  23004 47095 11560 50000 11015 21026 30050 40246 52012 60012 70171 85600 333 21031 3/101 43004 70011;
0154470950999992000012303004+38080+127820FM-12+013599999V0202301N001012200019N0200001N1+00301-00111102341ADDAA199000021GA1001+999999999GF100991001001999999001001MA1999999100421MD1510081+9999REMSYN060AAXX  23034 47095 32970 02302 10030 21011 30042 40234 55008;
0144470950999992000012306004+38080+127820FM-12+013599999V0203401N003612200019N0220001N1+00501-00421102311ADDAA199000021GF101991011051999999001001MA1999999100401MD1010021+9999REMSYN066AAXX  23064 47095 32972 13407 10050 21042 30040 40231 50002 81500;
0133470950999992000012309004+38080+127820FM-12+013599999V0202001N001012200019N0200001N1+00221-00511102401ADDGF101991011051012501001001MA1999999100471MD1010071+9999REMSYN066AAXX  23094 47095 42670 12002 10022 21051 30047 40240 50007 81500;
0232470950999992000012312004+38080+127820FM-12+013599999V0209999C000012200019N0180001N1-00251-00481102631ADDAA112000791AJ100009199999999GF102991001001999999001021IA1309IA2999+00009KA1120M+00571MA1999999100661MD1210191+9999REMSYN106AAXX  23124 47095 12968 20000 11025 21048 30066 40263 52019 69902 80002 333 10057 3/000 42000 55070 70010;
0133470950999992000012315004+38080+127820FM-12+013599999V0209999C000012200019N0150001N1-00411-00571102691ADDGF102991001001999999001021MA1999999100711MD1210051+9999REMSYN066AAXX  23154 47095 42965 20000 11041 21057 30071 40269 52005 80002;
0173470950999992000012318004+38080+127820FM-12+013599999V0202901N000512200019N0100001N1-00561-00621102801ADDAA199000091GA1001+999999999GF100991001001999999001001MA1999999100811MD1210101+9999REMSYN060AAXX  23184 47095 32960 02901 11056 21062 30081 40280 52010;EQDQ01  00002PRCP99
0163470950999992000012321004+38080+127820FM-12+013599999V0200201N000512200019N0100001N1-00821-00901102961ADDAA199000091GF104991041051017501001001MA1999999100951MD1210141+9999REMSYN066AAXX  23214 47095 32760 40201 11082 21090 30095 40296 52014 84500;EQDQ01  00002PRCP99
0261470950999992000012400004+38080+127820FM-12+013599999V0209999C000012200019N0060001N1-00681-00831103061ADDAA199000091AJ100009199999999AY111061AY211061GF102991021051012501001001IA1309IA2999-00409KA1120N-00891MA1999999101051MD1210111+9999MW1101REMSYN094AAXX  24004 47095 32656 20000 11068 21083 30105 40306 52011 71011 82500 333 21089 3/104 42000;EQDQ01  00002PRCP99
0191470950999992000012403004+38080+127820FM-12+013599999V0209999C000012200019N0060001N1-00221-00781103031ADDAA199000091AY111031AY211031GF104991041051012501001001MA1999999101061MD1310011+9999MW1101REMSYN072AAXX  24034 47095 31656 40000 11022 21078 30106 40303 53001 71011 84500;EQDQ01  00002PRCP99
0163470950999992000012406004+38080+127820FM-12+013599999V0202901N000512200019N0100001N1-00031-00771102841ADDAA199000091GF101991001001999999001011MA1999999100881MD1710181+9999REMSYN066AAXX  24064 47095 32960 12901 11003 21077 30088 40284 57018 80001;EQDQ01  00002PRCP99
0163470950999992000012409004+38080+127820FM-12+013599999V0209999C000019999999N0100001N1-00341-01151102981ADDAA199000091GF105991001001999999001051MA1999999101001MD1210121+9999REMSYN066AAXX  24094 47095 32960 50000 11034 21115 30100 40298 52012 80005;EQDQ01  00002PRCP99
0239470950999992000012412004+38080+127820FM-12+013599999V0200201N002112200019N0100001N1-00621-01261103061ADDAA199000091AJ100009199999999GF102991021051012501001001IA1259IA2999-00209KA1120M+00031MA1999999101061MD1210061+9999REMSYN094AAXX  24124 47095 32660 20204 11062 21126 30106 40306 52006 82500 333 10003 3/102 41000 55055;EQDQ01  00002PRCP99
0173470950999992000012415004+38080+127820FM-12+013599999V0200701N001012200019N0150001N1-00961-01271103151ADDAA199000091GA1001+999999999GF100991001001999999001001MA1999999101121MD1310061+9999REMSYN060AAXX  24154 47095 32965 00702 11096 21127 30112 40315 53006;EQDQ01  00002PRCP99
0173470950999992000012418004+38080+127820FM-12+013599999V0200501N001012200019N0140001N1-01181-01361103211ADDAA199000091GA1001+999999999GF100991001001999999001001MA1999999101161MD1210041+9999REMSYN060AAXX  24184 47095 32964 00502 11118 21136 30116 40321 52004;EQDQ01  00002PRCP99
0173470950999992000012421004+38080+127820FM-12+013599999V0201101N000512200019N0120001N1-01331-01491103251ADDAA199000091GA1001+999999999GF100991001001999999001001MA1999999101191MD1210031+9999REMSYN060AAXX  24214 47095 32962 01101 11133 21149 30119 40325 52003;EQDQ01  00002PRCP99
0243470950999992000012500004+38080+127820FM-12+013599999V0209999C000012200019N0100001N1-01331-01521103371ADDAA199000091AJ100009199999999GA1001+999999999GF100991001001999999001001IA1259IA2999-00809KA1120N-01521MA1999999101311MD1210121+9999REMSYN082AAXX  25004 47095 32960 00000 11133 21152 30131 40337 52012 333 21152 3/108 41000;EQDQ01  00002PRCP99
0173470950999992000012503004+38080+127820FM-12+013599999V0203601N002112200019N0100001N1-00761-01641103251ADDAA199000091GA1001+999999999GF100991001001999999001001MA1999999101241MD1510071+9999REMSYN060AAXX  25034 47095 32960 03604 11076 21164 30124 40325 55007;EQDQ01  00002PRCP99
0173470950999992000012506004+38080+127820FM-12+013599999V0200201N000512200019N0140001N1-00331-01621102971ADDAA199000091GA1001+999999999GF100991001001999999001001MA1999999100991MD1710241+9999REMSYN060AAXX  25064 47095 32964 00201 11033 21162 30099 40297 57024;EQDQ01  00002PRCP99
0173470950999992000012509004+38080+127820FM-12+013599999V0203201N001012200019N0180001N1-00741-01891103111ADDAA199000091GA1001+999999999GF100991001001999999001001MA1999999101101MD1010111+9999REMSYN060AAXX  25094 47095 32968 03202 11074 21189 30110 40311 50011;EQDQ01  00002PRCP99
0232470950999992000012512004+38080+127820FM-12+013599999V0203201N001012200019N0180001N1-01121-01681103241ADDAA199000091GA1001+999999999GF100991001001999999001001IA1259IA2999-00609KA1120M-00281MA1999999101201MD1210101+9999REMSYN088AAXX  25124 47095 32968 03202 11112 21168 30120 40324 52010 333 11028 3/106 41/// 55081;EQDQ01  00002PRCP99
0189470950999992000012515004+38080+127820FM-12+013599999V0209999C000012200019N0150001N1-01371-01751103261ADDAA199000091GA1001+999999999GF100991001001999999001001MA1999999101201MD1810021+9999REMSYN060AAXX  25154 47095 32965 00000 11137 21175 30120 40326 58000;EQDQ01+000002APC3  Q02  00002PRCP99
0173470950999992000012518004+38080+127820FM-12+013599999V0209999C000012200019N0150001N1-01471-01751103221ADDAA199000091GA1001+999999999GF100991001001999999001001MA1999999101151MD1710041+9999REMSYN060AAXX  25184 47095 32965 00000 11147 21175 30115 40322 57004;EQDQ01  00002PRCP99
0173470950999992000012521004+38080+127820FM-12+013599999V0209999C000012200019N0180001N1-01491-01741103151ADDAA199000091GA1001+999999999GF100991001001999999001001MA1999999101081MD1810071+9999REMSYN060AAXX  25214 47095 32968 00000 11149 21174 30108 40315 58007;EQDQ01  00002PRCP99
0226470950999992000012600004+38080+127820FM-12+013599999V0200701N000512200019N0180001N1-01391-01701103241ADDAA199000091GA1001+999999999GF100991001001999999001001IA1259IA2999-01009KA1120N-01641MA1999999101181MD1210101+9999REMSYN082AAXX  26004 47095 32968 00701 11139 21170 30118 40324 52010 333 21164 3/110 41///;EQDQ01  00002PRCP99
0173470950999992000012603004+38080+127820FM-12+013599999V0200201N001012200019N0200001N1-00841-01841103121ADDAA199000091GA1001+999999999GF100991001001999999001001MA1999999101101MD1310071+9999REMSYN060AAXX  26034 47095 32970 00202 11084 21184 30110 40312 53007;EQDQ01  00002PRCP99
0173470950999992000012606004+38080+127820FM-12+013599999V0202901N002112200019N0200001N1-00621-01761102921ADDAA199000091GA1001+999999999GF100991001001999999001001MA1999999100921MD1710181+9999REMSYN060AAXX  26064 47095 32970 02904 11062 21176 30092 40292 57018;EQDQ01  00002PRCP99
0173470950999992000012609004+38080+127820FM-12+013599999V0203601N002612200019N0150001N1-00861-01591103061ADDAA199000091GA1001+999999999GF100991001001999999001001MA1999999101041MD1210121+9999REMSYN060AAXX  26094 47095 32965 03605 11086 21159 30104 40306 52012;EQDQ01  00002PRCP99
0249470950999992000012612004+38080+127820FM-12+013599999V0200201N001512200019N0150001N1-01181-01561103221ADDAA199000091AJ100009199999999GA1001+999999999GF100991001001999999001001IA1259IA2999-00709KA1120M-00591MA1999999101171MD1210131+9999REMSYN088AAXX  26124 47095 32965 00203 11118 21156 30117 40322 52013 333 11059 3/107 41000 55091;EQDQ01  00002PRCP99
0173470950999992000012615004+38080+127820FM-12+013599999V0200501N001012200019N0150001N1-01341-01671103241ADDAA199000091GA1001+999999999GF100991001001999999001001MA1999999101181MD1310011+9999REMSYN060AAXX  26154 47095 32965 00502 11134 21167 30118 40324 53001;EQDQ01  00002PRCP99
0173470950999992000012618004+38080+127820FM-12+013599999V0209999C000012200019N0200001N1-01561-01731103371ADDAA199000091GA1001+999999999GF100991001001999999001001MA1999999101281MD1210111+9999REMSYN060AAXX  26184 47095 32970 00000 11156 21173 30128 40337 52011;EQDQ01  00002PRCP99
0173470950999992000012621004+38080+127820FM-12+013599999V0209999C000012200019N0200001N1-01641-01811103421ADDAA199000091GA1001+999999999GF100991001001999999001001MA1999999101331MD1210051+9999REMSYN060AAXX  26214 47095 32970 00000 11164 21181 30133 40342 52005;EQDQ01  00002PRCP99
0226470950999992000012700004+38080+127820FM-12+013599999V0209999C000012200019N0150001N1-01441-01701103511ADDAA199000091GA1001+999999999GF100991001001999999001001IA1259IA2999-01109KA1120N-01741MA1999999101431MD1210101+9999REMSYN082AAXX  27004 47095 32965 00000 11144 21170 30143 40351 52010 333 21174 3/111 41///;EQDQ01  00002PRCP99
0173470950999992000012703004+38080+127820FM-12+013599999V0202901N000512200019N0120001N1-00561-01461103341ADDAA199000091GA1001+999999999GF100991001001999999001001MA1999999101341MD1510091+9999REMSYN060AAXX  27034 47095 32962 02901 11056 21146 30134 40334 55009;EQDQ01  00002PRCP99
0173470950999992000012706004+38080+127820FM-12+013599999V0203601N001512200019N0150001N1-00211-01481103171ADDAA199000091GA1001+999999999GF100991001001999999001001MA1999999101191MD1710151+9999REMSYN060AAXX  27064 47095 32965 03603 11021 21148 30119 40317 57015;EQDQ01  00002PRCP99
0173470950999992000012709004+38080+127820FM-12+013599999V0209999C000012200019N0150001N1-00501-01721103271ADDAA199000091GA1001+999999999GF100991001001999999001001MA1999999101271MD1210071+9999REMSYN060AAXX  27094 47095 32965 00000 11050 21172 30127 40327 52007;EQDQ01  00002PRCP99
0173470950999992000012715004+38080+127820FM-12+013599999V0200201N000512200019N0150001N1-01321-01551103471ADDAA199000091GA1001+999999999GF100991001001999999001001MA1999999101401MD1210051+9999REMSYN060AAXX  27154 47095 32965 00201 11132 21155 30140 40347 52005;EQDQ01  00002PRCP99
0173470950999992000012718004+38080+127820FM-12+013599999V0209999C000012200019N0180001N1-01451-01631103511ADDAA199000091GA1001+999999999GF100991001001999999001001MA1999999101441MD1010031+9999REMSYN060AAXX  27184 47095 32968 00000 11145 21163 30144 40351 50003;EQDQ01  00002PRCP99
0131470950999992000012721004+38080+127820FM-12+013599999V0209999C000019999999N9999999N1-01591-01741103531ADDAA199000091MA1999999101441MD1010011+9999REMSYN060AAXX  27214 47095 3//// /0000 11159 21174 30144 40353 50001;EQDQ01  00002PRCP99
0226470950999992000012800004+38080+127820FM-12+013599999V0209999C000012200019N0120001N1-01411-01611103631ADDAA199000091GA1001+999999999GF100991001001999999001001IA1259IA2999-01109KA1120N-01661MA1999999101561MD1210111+9999REMSYN082AAXX  28004 47095 32962 00000 11141 21161 30156 40363 52011 333 21166 3/111 41///;EQDQ01  00002PRCP99
0173470950999992000012803004+38080+127820FM-12+013599999V0201401N000512200019N0140001N1-00401-01411103471ADDAA199000091GA1001+999999999GF100991001001999999001001MA1999999101481MD1310081+9999REMSYN060AAXX  28034 47095 32964 01401 11040 21141 30148 40347 53008;EQDQ01  00002PRCP99
0173470950999992000012806004+38080+127820FM-12+013599999V0202901N001512200019N0140001N1+00081-01431103241ADDAA199000091GA1001+999999999GF100991001001999999001001MA1999999101291MD1710191+9999REMSYN060AAXX  28064 47095 32964 02903 10008 21143 30129 40324 57019;EQDQ01  00002PRCP99
0173470950999992000012809004+38080+127820FM-12+013599999V0209999C000012200019N0150001N1-00251-01281103351ADDAA199000091GA1001+999999999GF100991001001999999001001MA1999999101371MD1210081+9999REMSYN060AAXX  28094 47095 32965 00000 11025 21128 30137 40335 52008;EQDQ01  00002PRCP99
0232470950999992000012812004+38080+127820FM-12+013599999V0200201N001012200019N0150001N1-00891-01171103511ADDAA199000091GA1001+999999999GF100991001001999999001001IA1259IA2999-00409KA1120M+00101MA1999999101471MD1210111+9999REMSYN088AAXX  28124 47095 32965 00202 11089 21117 30147 40351 52011 333 10010 3/104 41/// 55092;EQDQ01  00002PRCP99
0173470950999992000012815004+38080+127820FM-12+013599999V0200201N000512200019N0150001N1-01091-01301103481ADDAA199000091GA1001+999999999GF100991001001999999001001MA1999999101431MD1510041+9999REMSYN060AAXX  28154 47095 32965 00201 11109 21130 30143 40348 55004;EQDQ01  00002PRCP99
0173470950999992000012818004+38080+127820FM-12+013599999V0209999C000012200019N0120001N1-01281-01411103511ADDAA199000091GA1001+999999999GF100991001001999999001001MA1999999101441MD1010011+9999REMSYN060AAXX  28184 47095 32962 00000 11128 21141 30144 40351 50001;EQDQ01  00002PRCP99
0173470950999992000012821004+38080+127820FM-12+013599999V0209999C000012200019N0120001N1-01411-01551103501ADDAA199000091GA1001+999999999GF100991001001999999001001MA1999999101431MD1210011+9999REMSYN060AAXX  28214 47095 32962 02700 11141 21155 30143 40350 52001;EQDQ01  00002PRCP99
0216470950999992000012900004+38080+127820FM-12+013599999V0201601N000510120019N0100001N1-01071-01241103541ADDAA199000091GF105991051061012501001001IA1259IA2999-00709KA1120N-01441MA1999999101491MD1210061+9999REMSYN088AAXX  29004 47095 32660 51601 11107 21124 30149 40354 52006 85600 333 21144 3/107 41///;EQDQ01  00002PRCP99
0163470950999992000012903004+38080+127820FM-12+013599999V0209999C000019999999N0130001N1-00151-00821103331ADDAA199000091GF106991001001999999001051MA1999999101351MD1710141+9999REMSYN066AAXX  29034 47095 32963 60000 11015 21082 30135 40333 57014 80005;EQDQ01  00002PRCP99
0179470950999992000012906004+38080+127820FM-12+013599999V0202001N001519999999N0140001N1+00161-00671103071ADDAA199000091GF106991001001999999001051MA1999999101131MD1710231+9999REMSYN066AAXX  29064 47095 32664 62003 10016 21067 30113 40307 57023 80005;EQDQ01+012502SCOLCBQ02  00002PRCP99
0163470950999992000012909004+38080+127820FM-12+013599999V0202301N002110120019N0130001N1-00021-00641103121ADDAA199000091GF105991051051012501001001MA1999999101161MD1210031+9999REMSYN066AAXX  29094 47095 32663 52304 11002 21064 30116 40312 52003 85500;EQDQ01  00002PRCP99
0232470950999992000012912004+38080+127820FM-12+013599999V0202001N001519999999N0130001N1-00141-00561103151ADDAA112000791AJ100009199999999GF106991061051999999001001IA1259IA2999-00209KA1120M+00181MA1999999101181MD1210021+9999REMSYN106AAXX  29124 47095 32963 62003 11014 21056 30118 40315 52002 69902 86500 333 10018 3/102 41000 55026 79999;
0163470950999992000012915004+38080+127820FM-12+013599999V0202001N001510120019N0130001N1-00081-00431103031ADDAA199000091GF107991071051012501001001MA1999999101061MD1710111+9999REMSYN066AAXX  29154 47095 32663 72003 11008 21043 30106 40303 57011 87500;EQDQ01  00002PRCP99
0133470950999992000012918004+38080+127820FM-12+013599999V0202001N004110120019N0100001N1-00031-00341102871ADDGF107991071051012501001001MA1999999100911MD1710151+9999REMSYN066AAXX  29184 47095 42660 72008 11003 21034 30091 40287 57015 87500;
0161470950999992000012921004+38080+127820FM-12+013599999V0202001N004610360019N0060001N1-00241-00521102881ADDAY171031AY271031GF107991031061008001021001MA1999999100911MD1810011+9999MW1101REMSYN072AAXX  29214 47095 41556 72009 11024 21052 30091 40288 58001 71077 83620;
0237470950999992000013000004+38080+127820FM-12+013599999V0202501N004112200019N0120001N1-00551-01301103261ADDAA112000791AY171061AY201061GF102991021051012501001001IA1259IA2999-00509KA1120N-00621MA1999999101261MD1210351+9999MW1011REMSYN106AAXX  30004 47095 11662 22508 11055 21130 30126 40326 52035 69902 70170 82500 333 21062 3/105 41/// 79999;
0163470950999992000013003004+38080+127820FM-12+013599999V0202701N003612200019N0150001N1-00471-01471103381ADDAA199000091GF102991021051999999001001MA1999999101381MD1310121+9999REMSYN066AAXX  30034 47095 32965 22707 11047 21147 30138 40338 53012 82500;EQDQ01  00002PRCP99
0163470950999992000013006004+38080+127820FM-12+013599999V0203201N004112200019N0150001N1-00351-01311103281ADDAA199000091GF102991021051999999001001MA1999999101291MD1810091+9999REMSYN066AAXX  30064 47095 32965 23208 11035 21131 30129 40328 58009 82500;EQDQ01  00002PRCP99
0173470950999992000013009004+38080+127820FM-12+013599999V0202901N002612200019N0150001N1-00591-01411103481ADDAA199000091GA1001+999999999GF100991001001999999001001MA1999999101471MD1210181+9999REMSYN060AAXX  30094 47095 32965 02905 11059 21141 30147 40348 52018;EQDQ01  00002PRCP99
0219470950999992000013012004+38080+127820FM-12+013599999V0202701N003112200019N0150001N1-00771-01511103661ADDAA124000791GA1001+999999999GF100991001001999999001001IA1259IA2999-00509KA1120M-00031MA1999999101631MD1210161+9999REMSYN094AAXX  30124 47095 32965 02706 11077 21151 30163 40366 52016 333 11003 3/105 41/// 55084 79999;
0173470950999992000013015004+38080+127820FM-12+013599999V0202301N002612200019N0150001N1-00971-01561103761ADDAA199000091GA1001+999999999GF100991001001999999001001MA1999999101721MD1210081+9999REMSYN060AAXX  30154 47095 32965 02305 11097 21156 30172 40376 52008;EQDQ01  00002PRCP99
0173470950999992000013018004+38080+127820FM-12+013599999V0202001N001012200019N0150001N1-01151-01591103791ADDAA199000091GA1001+999999999GF100991001001999999001001MA1999999101731MD1210021+9999REMSYN060AAXX  30184 47095 32965 02002 11115 21159 30173 40379 52002;EQDQ01  00002PRCP99
0173470950999992000013021004+38080+127820FM-12+013599999V0202301N001512200019N0150001N1-01291-01791103771ADDAA199000091GA1001+999999999GF100991001001999999001001MA1999999101701MD1810031+9999REMSYN060AAXX  30214 47095 32965 02303 11129 21179 30170 40377 58003;EQDQ01  00002PRCP99
0243470950999992000013100004+38080+127820FM-12+013599999V0202001N001012200019N0180001N1-01171-01821103881ADDAA199000091AJ100009199999999GA1001+999999999GF100991001001999999001001IA1259IA2999-01009KA1120N-01381MA1999999101821MD1210121+9999REMSYN082AAXX  31004 47095 32968 02002 11117 21182 30182 40388 52012 333 21138 3/110 41000;EQDQ01  00002PRCP99
0173470950999992000013103004+38080+127820FM-12+013599999V0200901N000512200019N0180001N1-00791-01821103871ADDAA199000091GA1001+999999999GF100991001001999999001001MA1999999101811MD1610011+9999REMSYN060AAXX  31034 47095 32968 00901 11079 21182 30181 40387 56001;EQDQ01  00002PRCP99
0173470950999992000013106004+38080+127820FM-12+013599999V0203201N001512200019N0180001N1-00631-01831103621ADDAA199000091GA1001+999999999GF100991001001999999001001MA1999999101611MD1710211+9999REMSYN060AAXX  31064 47095 32968 03203 11063 21183 30161 40362 57021;EQDQ01  00002PRCP99
0173470950999992000013109004+38080+127820FM-12+013599999V0203401N001012200019N0150001N1-00861-01761103701ADDAA199000091GA1001+999999999GF100991001001999999001001MA1999999101671MD1210061+9999REMSYN060AAXX  31094 47095 32965 03402 11086 21176 30167 40370 52006;EQDQ01  00002PRCP99
0232470950999992000013112004+38080+127820FM-12+013599999V0209999C000012200019N0180001N1-01211-01601103821ADDAA199000091GA1001+999999999GF100991001001999999001001IA1259IA2999-00709KA1120M-00601MA1999999101751MD1210091+9999REMSYN088AAXX  31124 47095 32968 00000 11121 21160 30175 40382 52009 333 11060 3/107 41/// 55093;EQDQ01  00002PRCP99
0173470950999992000013115004+38080+127820FM-12+013599999V0209999C000012200019N0150001N1-01431-01671103801ADDAA199000091GA1001+999999999GF100991001001999999001001MA1999999101721MD1610031+9999REMSYN060AAXX  31154 47095 32965 00000 11143 21167 30172 40380 56003;EQDQ01  00002PRCP99
0173470950999992000013118004+38080+127820FM-12+013599999V0209999C000012200019N0150001N1-01651-01821103721ADDAA199000091GA1001+999999999GF100991001001999999001001MA1999999101631MD1710091+9999REMSYN060AAXX  31184 47095 32965 00000 11165 21182 30163 40372 57009;EQDQ01  00002PRCP99
0173470950999992000013121004+38080+127820FM-12+013599999V0209999C000012200019N0150001N1-01761-01941103681ADDAA199000091GA1001+999999999GF100991001001999999001001MA1999999101581MD1710051+9999REMSYN060AAXX  31214 47095 32965 00000 11176 21194 30158 40368 57005;EQDQ01  00002PRCP99
0226470950999992000020100004+38080+127820FM-12+013599999V0209999C000012200019N0180001N1-01541-01761103601ADDAA199000091GA1001+999999999GF100991001001999999001001IA1259IA2999-01109KA1120N-01811MA1999999101521MD1710061+9999REMSYN082AAXX  01004 47095 32968 00000 11154 21176 30152 40360 57006 333 21181 3/111 41///;EQDQ01  00002PRCP99
0163470950999992000020103004+38080+127820FM-12+013599999V0202901N001012200019N0180001N1-00701-01521103411ADDAA199000091GF104991001001999999001021MA1999999101401MD1510121+9999REMSYN066AAXX  01034 47095 32968 42902 11070 21152 30140 40341 55012 80002;EQDQ01  00002PRCP99
0163470950999992000020106004+38080+127820FM-12+013599999V0201801N001519999999N0180001N1-00321-01691103121ADDAA199000091GF105991001001999999001021MA1999999101141MD1710261+9999REMSYN066AAXX  01064 47095 32968 51803 11032 21169 30114 40312 57026 80002;EQDQ01  00002PRCP99
0163470950999992000020109004+38080+127820FM-12+013599999V0202301N001012200019N0170001N1-00541-01711103081ADDAA199000091GF103991011051999999031011MA1999999101081MD1710051+9999REMSYN066AAXX  01094 47095 32967 32302 11054 21171 30108 40308 57005 81531;EQDQ01  00002PRCP99
0249470950999992000020112004+38080+127820FM-12+013599999V0200501N000512200019N0150001N1-01101-01541103221ADDAA199000091AJ100009199999999GA1001+999999999GF100991001001999999001001IA1259IA2999-00709KA1120M-00311MA1999999101171MD1210091+9999REMSYN088AAXX  01124 47095 32965 00501 11110 21154 30117 40322 52009 333 11031 3/107 41000 55077;EQDQ01  00002PRCP99
0173470950999992000020115004+38080+127820FM-12+013599999V0200201N001012200019N0150001N1-01321-01571103211ADDAA199000091GA1001+999999999GF100991001001999999001001MA1999999101151MD1710021+9999REMSYN060AAXX  01154 47095 32965 00202 11132 21157 30115 40321 57002;EQDQ01  00002PRCP99
0173470950999992000020118004+38080+127820FM-12+013599999V0209999C000012200019N0180001N1-01491-01681103261ADDAA199000091GA1001+999999999GF100991001001999999001001MA1999999101181MD1010031+9999REMSYN060AAXX  01184 47095 32968 03600 11149 21168 30118 40326 50003;EQDQ01  00002PRCP99
0189470950999992000020121004+38080+127820FM-12+013599999V0209999C000012200019N0140001N1-01581-01721103271ADDAA199000091GA1001+999999999GF100991001001999999001001MA1999999101181MD1210011+9999REMSYN060AAXX  01214 47095 32964 00000 11158 21172 30118 40327 52000;EQDQ01+000002APC3  Q02  00002PRCP99
0226470950999992000020200004+38080+127820FM-12+013599999V0209999C000012200019N0150001N1-01441-01661103371ADDAA199000091GA1001+999999999GF100991001001999999001001IA1259IA2999-01109KA1120N-01701MA1999999101301MD1010111+9999REMSYN082AAXX  02004 47095 32965 00000 11144 21166 30130 40337 50011 333 21170 3/111 41///;EQDQ01  00002PRCP99
0189470950999992000020203004+38080+127820FM-12+013599999V0200501N000512200019N0180001N1-00312-01411103261ADDAA199000091GA1001+999999999GF100991001001999999001001MA1999999101271MD1710021+9999REMSYN060AAXX  02034 47095 32968 00501 11031 21141 30127 40326 57002;EQDQ01-000313ATOT  Q02  00002PRCP99
0163470950999992000020206004+38080+127820FM-12+013599999V0202001N000512200019N0180001N1-00021-01431103061ADDAA199000091GF103991001001999999001011MA1999999101101MD1710171+9999REMSYN066AAXX  02064 47095 32968 32001 11002 21143 30110 40306 57017 80001;EQDQ01  00002PRCP99
0173470950999992000020209004+38080+127820FM-12+013599999V0203601N001512200019N0120001N1-00351-01091103011ADDAA199000091GA1001+999999999GF100991001001999999001001MA1999999101031MD1710081+9999REMSYN060AAXX  02094 47095 32962 03603 11035 21109 30103 40301 57008;EQDQ01  00002PRCP99
0232470950999992000020212004+38080+127820FM-12+013599999V0203601N000512200019N0120001N1-00841-01121103081ADDAA199000091GA1001+999999999GF100991001001999999001001IA1259IA2999-00409KA1120M+00001MA1999999101061MD1010031+9999REMSYN088AAXX  02124 47095 32962 03601 11084 21112 30106 40308 50003 333 10000 3/104 41/// 55091;EQDQ01  00002PRCP99
0163470950999992000020215004+38080+127820FM-12+013599999V0200201N001012200019N0120001N1-01011-01151103101ADDAA199000091GF102991001001999999001011MA1999999101061MD1310011+9999REMSYN066AAXX  02154 47095 32962 20202 11101 21115 30106 40310 53001 80001;EQDQ01  00002PRCP99
0163470950999992000020218004+38080+127820FM-12+013599999V0200701N000519999999N0120001N1-00881-01061103061ADDAA199000091GF108991001001999999001051MA1999999101041MD1710031+9999REMSYN066AAXX  02184 47095 32962 80701 11088 21106 30104 40306 57003 80005;EQDQ01  00002PRCP99
0161470950999992000020221004+38080+127820FM-12+013599999V0209999C000010360019N0100001N1-00851-01021102941ADDAY171031AY271031GF108991041071008001021999MA1999999100921MD1710121+9999MW1701REMSYN072AAXX  02214 47095 41560 80000 11085 21102 30092 40294 57012 77077 8472/;
0254470950999992000020300004+38080+127820FM-12+013599999V0209999C000010042019N0050001N1-00711-00921102921ADDAA112000791AJ100009199999999AY171061AY271061GF108991061071004501021999IA1259IA2999-00509KA1120N-01081MA1999999100921MD1310011+9999MW1701REMSYN106AAXX  03004 47095 11450 80000 11071 21092 30092 40292 53001 69902 77077 8672/ 333 21108 3/105 41000 79999;
0161470950999992000020303004+38080+127820FM-12+013599999V0202001N001510360019N0050001N1-00171-00651102771ADDAY171031AY271031GF106991031051012501011001MA1999999100801MD1710111+9999MW1221REMSYN072AAXX  03034 47095 41650 62003 11017 21065 30080 40277 57011 72277 83510;
0161470950999992000020306004+38080+127820FM-12+013599999V0202501N002110042019N0030001N1-00061-00531102561ADDAY171061AY271061GF108991061071004501021999MA1999999100611MD1710191+9999MW1701REMSYN072AAXX  03064 47095 41430 82504 11006 21053 30061 40256 57019 77077 8672/;
0161470950999992000020309004+38080+127820FM-12+013599999V0203201N001510042019N0050001N1-00291-00551102691ADDAY171031AY271031GF106991061071004501001001MA1999999100721MD1210111+9999MW1701REMSYN072AAXX  03094 47095 41450 63203 11029 21055 30072 40269 52011 77077 86700;
0241470950999992000020312004+38080+127820FM-12+013599999V0200201N000512200019N0150001N1-00841-00941102911ADDAA112002091AY171061AY221061GA1001+999999999GF100991001001999999001001IA2999-00109KA1120M-00051MA1999999100891MD1210171+9999MW1001REMSYN100AAXX  03124 47095 11965 00201 11084 21094 30089 40291 52017 60022 70072 333 11005 3/101 55008 70015;
0154470950999992000020315004+38080+127820FM-12+013599999V0200501N001512200019N0120001N1-01221-01321103031ADDAA199000021GA1001+999999999GF100991001001999999001001MA1999999100981MD1210091+9999REMSYN060AAXX  03154 47095 32962 00503 11122 21132 30098 40303 52009;
0154470950999992000020318004+38080+127820FM-12+013599999V0209999C000012200019N0120001N1-01491-01631103131ADDAA199000021GA1001+999999999GF100991001001999999001001MA1999999101061MD1210081+9999REMSYN060AAXX  03184 47095 32962 02000 11149 21163 30106 40313 52008;
0154470950999992000020321004+38080+127820FM-12+013599999V0200201N001012200019N0120001N1-01671-01811103221ADDAA199000021GA1001+999999999GF100991001001999999001001MA1999999101131MD1210071+9999REMSYN060AAXX  03214 47095 32962 00202 11167 21181 30113 40322 52007;
0230470950999992000020400004+38080+127820FM-12+013599999V0209999C000012200019N0100001N1-01521-01651103391ADDAA124001591AJ100049199999999GA1001+999999999GF100991001001999999001001IA1239IA2999-00509KA1120N-01781MA1999999101311MD1210181+9999REMSYN088AAXX  04004 47095 32960 00000 11152 21165 30131 40339 52018 333 21178 3/105 47004 70015;
0173470950999992000020403004+38080+127820FM-12+013599999V0209999C000012200019N0100001N1-00431-01001103281ADDAA199000091GA1001+999999999GF100991001001999999001001MA1999999101291MD1510021+9999REMSYN060AAXX  04034 47095 32960 00000 11043 21100 30129 40328 55002;EQDQ01  00002PRCP99
0173470950999992000020406004+38080+127820FM-12+013599999V0202901N001012200019N0100001N1+00021-00881103001ADDAA199000091GA1001+999999999GF100991001001999999001001MA1999999101051MD1710241+9999REMSYN060AAXX  04064 47095 32960 02902 10002 21088 30105 40300 57024;EQDQ01  00002PRCP99
0173470950999992000020409004+38080+127820FM-12+013599999V0209999C000012200019N0120001N1-00221-00921103011ADDAA199000091GA1001+999999999GF100991001001999999001001MA1999999101041MD1810011+9999REMSYN060AAXX  04094 47095 32962 00000 11022 21092 30104 40301 58001;EQDQ01  00002PRCP99
0236470950999992000020412004+38080+127820FM-12+013599999V0209999C000012200019N0120001N1-00841-00971103091ADDAA112000891AJ100009199999999GA1001+999999999GF100991001001999999001001IA1219IA2999-00309KA1120M+00081MA1999999101071MD1210031+9999REMSYN094AAXX  04124 47095 32962 00000 11084 21097 30107 40309 52003 69972 333 10008 3/103 45000 55094;
0173470950999992000020415004+38080+127820FM-12+013599999V0209999C000012200019N0150001N1-01091-01191103131ADDAA199000091GA1001+999999999GF100991001001999999001001MA1999999101091MD1510021+9999REMSYN060AAXX  04154 47095 32965 00000 11109 21119 30109 40313 55002;EQDQ01  00002PRCP99
0201470950999992000020418004+38080+127820FM-12+013599999V0200901N000512200019N0060001N1-01251-01351103091ADDAA199000091AY101061AY201061GA1001+999999999GF100991001001999999001001MA1999999101031MD1710051+9999MW1101REMSYN066AAXX  04184 47095 31956 00901 11125 21135 30103 40309 57005 71000;EQDQ01  00002PRCP99
0201470950999992000020421004+38080+127820FM-12+013599999V0200201N000512200019N0060001N1-01411-01531103011ADDAA199000091AY101031AY201031GA1001+999999999GF100991001001999999001001MA1999999100951MD1810081+9999MW1101REMSYN066AAXX  04214 47095 31956 00201 11141 21153 30095 40301 58008 71000;EQDQ01  00002PRCP99
0226470950999992000020500004+38080+127820FM-12+013599999V0209999C000012200019N0120001N1-01101-01231102981ADDAA199000091GA1001+999999999GF100991001001999999001001IA1219IA2999-00709KA1120N-01481MA1999999100941MD1310011+9999REMSYN082AAXX  05004 47095 32962 00000 11110 21123 30094 40298 53001 333 21148 3/107 45///;EQDQ01  00002PRCP99
0163470950999992000020503004+38080+127820FM-12+013599999V0209999C000019999999N0150001N1-00221-00861102691ADDAA199000091GF108991001001999999001021MA1999999100731MD1710221+9999REMSYN066AAXX  05034 47095 32965 80000 11022 21086 30073 40269 57022 80002;EQDQ01  00002PRCP99
0163470950999992000020506004+38080+127820FM-12+013599999V0200201N000510360019N0150001N1+00151-00871102481ADDAA199000091GF108991041051012501021999MA1999999100551MD1710181+9999REMSYN066AAXX  05064 47095 32665 80201 10015 21087 30055 40248 57018 8452/;EQDQ01  00002PRCP99
0161470950999992000020509004+38080+127820FM-12+013599999V0202901N001010360019N0120001N1+00041-00401102301ADDAY171031AY221031GF108991031051012501021999MA1999999100371MD1510181+9999MW1021REMSYN072AAXX  05094 47095 41662 82902 10004 21040 30037 40230 55018 70272 8352/;
0231470950999992000020512004+38080+127820FM-12+013599999V0201801N000510042019N0060001N1-00041-00381102191ADDAA112000191AY171061AY221061GF108991051071004501021999IA2999-00109KA1120M+00171MA1999999100251MD1710121+9999MW1711REMSYN106AAXX  05124 47095 11456 81801 11004 21038 30025 40219 57012 69912 77172 8572/ 333 10017 3/101 55028 70001;
0161470950999992000020515004+38080+127820FM-12+013599999V0209999C000010042019N0020001N1-00141-00201102161ADDAY171031AY271031GF108991061071004501021999MA1999999100211MD1510041+9999MW1711REMSYN072AAXX  05154 47095 41420 80000 11014 21020 30021 40216 55004 77177 8672/;
0161470950999992000020518004+38080+127820FM-12+013599999V0209999C000010042019N0015001N1-00211-00241102131ADDAY171061AY271061GF108991061071004501021999MA1999999100171MD1710041+9999MW1711REMSYN072AAXX  05184 47095 41415 80000 11021 21024 30017 40213 57004 77177 8672/;
0161470950999992000020521004+38080+127820FM-12+013599999V0202001N001510042019N0030001N1-00211-00271102041ADDAY171031AY271031GF108991061071004501021999MA1999999100081MD1710091+9999MW1711REMSYN072AAXX  05214 47095 41430 82003 11021 21027 30008 40204 57009 77177 8672/;
0260470950999992000020600004+38080+127820FM-12+013599999V0202301N000510042019N0030001N1-00211-00261102091ADDAA112003091AJ100039199999999AY171061AY271061GF108991061071004501021999IA1239IA2999-00109KA1120N-00251MA1999999100141MD1210051+9999MW1711REMSYN112AAXX  06004 47095 11430 82301 11021 21026 30014 40209 52005 60032 77177 8672/ 333 21025 3/101 47003 70026 90026;
0152470950999992000020603004+38080+127820FM-12+013599999V0202501N002110120019N0100001N1+00021-00501102041ADDGF106991999051012501001001MA1999999100101MD1310031+9999REMSYN066AAXX  06034 47095 41660 62504 10002 21050 30010 40204 53003 85500;EQDQ01+000052SCOTLC
0133470950999992000020606004+38080+127820FM-12+013599999V0202501N002612200019N0120001N1+00121-00601101861ADDGF102991021051012501001001MA1999999099931MD1710171+9999REMSYN066AAXX  06064 47095 42662 22505 10012 21060 39993 40186 57017 82500;
0133470950999992000020609004+38080+127820FM-12+013599999V0202901N001512200019N0100001N1-00071-00671101921ADDGF102991021051012501001001MA1999999099981MD1010051+9999REMSYN066AAXX  06094 47095 42660 22903 11007 21067 39998 40192 50005 82500;
0270470950999992000020612004+38080+127820FM-12+013599999V0209999C000012200019N0070001N1-00451-00641102031ADDAA112000791AJ100009199999999AY101061AY201061GA1001+999999999GF100991001001999999001001IA1259IA2999-00109KA1120M+00221MA1999999100061MD1210081+9999MW1101REMSYN106AAXX  06124 47095 11957 00000 11045 21064 30006 40203 52008 69902 71000 333 10022 3/101 41000 55029 70026;
0161470950999992000020615004+38080+127820FM-12+013599999V0200501N002112200019N0070001N1-00731-00811102011ADDAY111031AY211031GF103991031051012501001001MA1999999100021MD1710041+9999MW1101REMSYN072AAXX  06154 47095 41657 30504 11073 21081 30002 40201 57004 71011 83500;
0191470950999992000020618004+38080+127820FM-12+013599999V0200501N001010120019N0050001N1-00631-00711102071ADDAA199000091AY121061AY221061GF105991051051012501001001MA1999999100081MD1210061+9999MW1101REMSYN072AAXX  06184 47095 31650 50502 11063 21071 30008 40207 52006 71022 85500;EQDQ01  00002PRCP99
0191470950999992000020621004+38080+127820FM-12+013599999V0209999C000010120019N0030001N1-00451-00561101911ADDAA199000091AY121031AY221031GF108991051051012501021999MA1999999099941MD1710141+9999MW1101REMSYN072AAXX  06214 47095 31630 80000 11045 21056 39994 40191 57014 71022 8552/;EQDQ01  00002PRCP99
0225470950999992000020700004+38080+127820FM-12+013599999V0209999C000010360019N0030001N1-00381-00521101901ADDAA112000791AY171061AY221061GF108991041071004501021999IA2999-00209KA1120N-00791MA1999999099931MD1810011+9999MW1701REMSYN100AAXX  07004 47095 41430 80000 11038 21052 39993 40190 58001 69902 77072 8472/ 333 21079 3/102 79999;
0133470950999992000020703004+38080+127820FM-12+013599999V0201801N001510360019N0080001N1-00081-00721101631ADDGF107991041061008001011001MA1999999099701MD1710231+9999REMSYN066AAXX  07034 47095 42558 71803 11008 21072 39970 40163 57023 84610;
0161470950999992000020706004+38080+127820FM-12+013599999V0202701N002619999999N0080001N1-00051-00561101351ADDAY121061AY221061GF108991051061999999021999MA1999999099421MD1710281+9999MW1101REMSYN072AAXX  07064 47095 42958 82705 11005 21056 39942 40135 57028 71022 8562/;
0161470950999992000020709004+38080+127820FM-12+013599999V0202301N004110360019N0060001N1-00141-00591101261ADDAY171031AY271031GF108991041071008001021999MA1999999099331MD1710091+9999MW1701REMSYN072AAXX  07094 47095 41556 82308 11014 21059 39933 40126 57009 77077 8472/;
0260470950999992000020712004+38080+127820FM-12+013599999V0202501N003612200019N0060001N1-00531-01061101401ADDAA112000791AJ100009199999999AY171061AY271061GF103991031051012501001001IA1219IA2999-00209KA1120M+00001MA1999999099431MD1210111+9999MW1221REMSYN112AAXX  07124 47095 11656 32507 11053 21106 39943 40140 52011 69902 72277 83500 333 10000 3/102 45000 55007 79999;
0133470950999992000020715004+38080+127820FM-12+013599999V0202301N004110150019N0100001N1-00631-01281101441ADDGF106991061051017501001001MA1999999099471MD1510031+9999REMSYN066AAXX  07154 47095 42760 62308 11063 21128 39947 40144 55003 86500;
0144470950999992000020718004+38080+127820FM-12+013599999V0202501N004112200019N0120001N1-00841-01551101381ADDAA199000021GF102991021051017501001001MA1999999099391MD1710081+9999REMSYN066AAXX  07184 47095 32762 22508 11084 21155 39939 40138 57008 82500;
0144470950999992000020721004+38080+127820FM-12+013599999V0202501N003112200019N0150001N1-01061-01651101481ADDAA199000021GF102991021051017501001001MA1999999099471MD1210091+9999REMSYN066AAXX  07214 47095 32765 22506 11106 21165 39947 40148 52009 82500;
0244470950999992000020800004+38080+127820FM-12+013599999V0202501N002119999999N0120001N1-01011-01611101651ADDAA112000791AY171061AY221061GF107991999071004501001001IA2999-00509KA1120N-01091MA1999999099651MD1210171+9999MW1701REMSYN100AAXX  08004 47095 11462 72504 11101 21161 39965 40165 52017 69902 77072 83700 333 21109 3/105 79999;EQDQ01+000032SCOTLC
0161470950999992000020803004+38080+127820FM-12+013599999V0203201N001510042019N0120001N1-00761-01591101691ADDAY171031AY221031GF105991051051004501001001MA1999999099701MD1310061+9999MW1021REMSYN072AAXX  08034 47095 41462 53203 11076 21159 39970 40169 53006 70272 85500;
0133470950999992000020806004+38080+127820FM-12+013599999V0203201N002112200019N0130001N1-00551-01541101681ADDGF101991011051012501001001MA1999999099711MD1810011+9999REMSYN066AAXX  08064 47095 42663 13204 11055 21154 39971 40168 58001 81500;
0143470950999992000020809004+38080+127820FM-12+013599999V0202501N002112200019N0100001N1-00721-01531101881ADDGA1001+999999999GF100991001001999999001001MA1999999099891MD1210181+9999REMSYN060AAXX  08094 47095 42960 02504 11072 21153 39989 40188 52018;
0225470950999992000020812004+38080+127820FM-12+013599999V0202001N001012200019N0150001N1-00941-01611102121ADDAA112000791GA1001+999999999GF100991001001999999001001IA1219IA2999-00609KA1120M-00531MA1999999100111MD1210221+9999REMSYN100AAXX  08124 47095 42965 02002 11094 21161 30011 40212 52022 69902 333 11053 3/106 45/// 55048 79999;
0173470950999992000020815004+38080+127820FM-12+013599999V0202001N001512200019N0150001N1-01031-01581102211ADDAA199000091GA1001+999999999GF100991001001999999001001MA1999999100191MD1210081+9999REMSYN060AAXX  08154 47095 32965 02003 11103 21158 30019 40221 52008;EQDQ01  00002PRCP99
0173470950999992000020818004+38080+127820FM-12+013599999V0200501N001012200019N0180001N1-01401-01741102331ADDAA199000091GA1001+999999999GF100991001001999999001001MA1999999100281MD1210091+9999REMSYN060AAXX  08184 47095 32968 00502 11140 21174 30028 40233 52009;EQDQ01  00002PRCP99
0173470950999992000020821004+38080+127820FM-12+013599999V0200501N000512200019N0180001N1-01611-01851102431ADDAA199000091GA1001+999999999GF100991001001999999001001MA1999999100361MD1210081+9999REMSYN060AAXX  08214 47095 32968 00501 11161 21185 30036 40243 52008;EQDQ01  00002PRCP99
0230470950999992000020900004+38080+127820FM-12+013599999V0202701N000512200019N0180001N1-01241-01621102491ADDAA124000791AJ100009199999999GA1001+999999999GF100991001001999999001001IA1219IA2999-00909KA1120N-01661MA1999999100451MD1210081+9999REMSYN088AAXX  09004 47095 32968 02701 11124 21162 30045 40249 52008 333 21166 3/109 45000 79999;
0173470950999992000020903004+38080+127820FM-12+013599999V0200501N000512200019N0200001N1-00521-01631102351ADDAA199000091GA1001+999999999GF100991001001999999001001MA1999999100371MD1710081+9999REMSYN060AAXX  09034 47095 32970 00501 11052 21163 30037 40235 57008;EQDQ01  00002PRCP99
0173470950999992000020909004+38080+127820FM-12+013599999V0202501N002112200019N0200001N1-00391-01511102221ADDAA199000091GA1001+999999999GF100991001001999999001001MA1999999100251MD1810021+9999REMSYN060AAXX  09094 47095 32970 02504 11039 21151 30025 40222 58002;EQDQ01  00002PRCP99
0220470950999992000020912004+38080+127820FM-12+013599999V0200201N001012200019N0200001N1-01051-01431102341ADDAA199000091GA1001+999999999GF100991001001999999001001IA2999-00509KA1120M-00121MA1999999100321MD1210071+9999REMSYN082AAXX  09124 47095 32970 00202 11105 21143 30032 40234 52007 333 11012 3/105 55097;EQDQ01  00002PRCP99
0173470950999992000020915004+38080+127820FM-12+013599999V0209999C000012200019N0200001N1-01291-01541102391ADDAA199000091GA1001+999999999GF100991001001999999001001MA1999999100351MD1210031+9999REMSYN060AAXX  09154 47095 32970 00000 11129 21154 30035 40239 52003;EQDQ01  00002PRCP99
0173470950999992000020918004+38080+127820FM-12+013599999V0200201N001012200019N0200001N1-01491-01651102451ADDAA199000091GA1001+999999999GF100991001001999999001001MA1999999100391MD1210051+9999REMSYN060AAXX  09184 47095 32970 00202 11149 21165 30039 40245 52005;EQDQ01  00002PRCP99
0173470950999992000020921004+38080+127820FM-12+013599999V0209999C000012200019N0200001N1-01641-01791102481ADDAA199000091GA1001+999999999GF100991001001999999001001MA1999999100401MD1210011+9999REMSYN060AAXX  09214 47095 32970 00000 11164 21179 30040 40248 52001;EQDQ01  00002PRCP99
0226470950999992000021000004+38080+127820FM-12+013599999V0209999C000012200019N0200001N1-01331-01561102501ADDAA199000091GA1001+999999999GF100991001001999999001001IA1219IA2999-00909KA1120N-01691MA1999999100451MD1010051+9999REMSYN082AAXX  10004 47095 32970 00000 11133 21156 30045 40250 50005 333 21169 3/109 45///;EQDQ01  00002PRCP99
0163470950999992000021003004+38080+127820FM-12+013599999V0203601N000512200019N0200001N1-00341-01481102291ADDAA199000091GF102991001001999999001011MA1999999100321MD1710131+9999REMSYN066AAXX  10034 47095 32970 23601 11034 21148 30032 40229 57013 80001;EQDQ01  00002PRCP99
0173470950999992000021006004+38080+127820FM-12+013599999V0202001N000512200019N0220001N1+00221-01131101911ADDAA199000091GA1001+999999999GF100991001001999999001001MA1999999100001MD1710331+9999REMSYN060AAXX  10064 47095 32972 02001 10022 21113 30000 40191 57033;EQDQ01  00002PRCP99
0173470950999992000021009004+38080+127820FM-12+013599999V0202301N002612200019N0220001N1-00061-00991101951ADDAA199000091GA1001+999999999GF100991001001999999001001MA1999999100011MD1010021+9999REMSYN060AAXX  10094 47095 32972 02305 11006 21099 30001 40195 50002;EQDQ01  00002PRCP99
0249470950999992000021012004+38080+127820FM-12+013599999V0201601N001012200019N0200001N1-00311-00711102031ADDAA199000091AJ100009199999999GA1001+999999999GF100991001001999999001001IA1219IA2999-00309KA1120M+00221MA1999999100071MD1310061+9999REMSYN088AAXX  10124 47095 32970 01602 11031 21071 30007 40203 53006 333 10022 3/103 45000 55094;EQDQ01  00002PRCP99
0163470950999992000021015004+38080+127820FM-12+013599999V0200201N001019999999N0120001N1-00771-00931102051ADDAA199000091GF106991061001999999011001MA1999999100061MD1510011+9999REMSYN066AAXX  10154 47095 32962 60202 11077 21093 30006 40205 55001 86010;EQDQ01  00002PRCP99
0163470950999992000021018004+38080+127820FM-12+013599999V0209999C000010120019N0100001N1-00611-00741102081ADDAA199000091GF107991071051012501001001MA1999999100091MD1210031+9999REMSYN066AAXX  10184 47095 32660 70000 11061 21074 30009 40208 52003 87500;EQDQ01  00002PRCP99
0163470950999992000021021004+38080+127820FM-12+013599999V0209999C000010360019N0100001N1-00541-00691102011ADDAA199000091GF108991031051008001021999MA1999999100031MD1710061+9999REMSYN066AAXX  10214 47095 32560 80000 11054 21069 30003 40201 57006 8352/;EQDQ01  00002PRCP99
0232470950999992000021100004+38080+127820FM-12+013599999V0209999C000010120019N0090001N1-00471-00621102091ADDAA199000091AY121061AY221061GF106991061051012501001001IA2999-00409KA1120N-00791MA1999999100111MD1010081+9999MW1101REMSYN088AAXX  11004 47095 31659 60000 11047 21062 30011 40209 50008 71022 86500 333 21079 3/104;EQDQ01  00002PRCP99
0191470950999992000021103004+38080+127820FM-12+013599999V0202501N002610120019N0090001N1+00141-00631102031ADDAA199000091AY121031AY221031GF105991051051012501001001MA1999999100101MD1510011+9999MW1101REMSYN072AAXX  11034 47095 31659 52505 10014 21063 30010 40203 55001 71022 85500;EQDQ01  00002PRCP99
0163470950999992000021106004+38080+127820FM-12+013599999V0202501N001512200019N0150001N1+00321-00661101861ADDAA199000091GF102991021051012501001001MA1999999099951MD1710151+9999REMSYN066AAXX  11064 47095 32665 22503 10032 21066 39995 40186 57015 82500;EQDQ01  00002PRCP99
0173470950999992000021109004+38080+127820FM-12+013599999V0202301N002112200019N0150001N1+00151-00741101891ADDAA199000091GA1001+999999999GF100991001001999999001001MA1999999099971MD1010021+9999REMSYN060AAXX  11094 47095 32965 02304 10015 21074 39997 40189 50002;EQDQ01  00002PRCP99
0232470950999992000021112004+38080+127820FM-12+013599999V0200501N000512200019N0150001N1-00431-00691102061ADDAA199000091GA1001+999999999GF100991001001999999001001IA1259IA2999+00009KA1120M+00421MA1999999100091MD1210121+9999REMSYN088AAXX  11124 47095 32965 00501 11043 21069 30009 40206 52012 333 10042 3/000 41/// 55063;EQDQ01  00002PRCP99
0173470950999992000021115004+38080+127820FM-12+013599999V0200201N000512200019N0150001N1-00671-00831102171ADDAA199000091GA1001+999999999GF100991001001999999001001MA1999999100181MD1210091+9999REMSYN060AAXX  11154 47095 32965 00201 11067 21083 30018 40217 52009;EQDQ01  00002PRCP99
0173470950999992000021118004+38080+127820FM-12+013599999V0200201N001012200019N0100001N1-00801-00901102111ADDAA199000091GA1001+999999999GF100991001001999999001001MA1999999100111MD1710071+9999REMSYN060AAXX  11184 47095 32960 00202 11080 21090 30011 40211 57007;EQDQ01  00002PRCP99
0173470950999992000021121004+38080+127820FM-12+013599999V0209999C000012200019N0100001N1-00971-01061102101ADDAA199000091GA1001+999999999GF100991001001999999001001MA1999999100091MD1810021+9999REMSYN060AAXX  11214 47095 32960 00000 11097 21106 30009 40210 58002;EQDQ01  00002PRCP99
0261470950999992000021200004+38080+127820FM-12+013599999V0209999C000010075019N0050001N1-00711-00821102171ADDAA199000091AJ100009199999999AY121061AY221061GF107991071061008001001001IA1259IA2999-00509KA1120N-00981MA1999999100171MD1210081+9999MW1101REMSYN094AAXX  12004 47095 32550 70200 11071 21082 30017 40217 52008 71022 87600 333 21098 3/105 41000;EQDQ01  00002PRCP99
0191470950999992000021203004+38080+127820FM-12+013599999V0209999C000010120019N0050001N1+00151-00311102071ADDAA199000091AY121031AY221031GF108991061051012501011999MA1999999100151MD1710021+9999MW1101REMSYN072AAXX  12034 47095 32650 80000 10015 21031 30015 40207 57002 71022 8651/;EQDQ01  00002PRCP99
0191470950999992000021206004+38080+127820FM-12+013599999V0202001N002110120019N0050001N1+00371-00211101841ADDAA199000091AY121061AY221061GF105991051051012501001001MA1999999099931MD1710211+9999MW1101REMSYN072AAXX  12064 47095 32650 52004 10037 21021 39993 40184 57021 71022 85500;EQDQ01  00002PRCP99
0201470950999992000021209004+38080+127820FM-12+013599999V0201801N001012200019N0050001N1+00231-00311101841ADDAA199000091AY101031AY211031GA1001+999999999GF100991001001999999001001MA1999999099931MD1210011+9999MW1101REMSYN066AAXX  12094 47095 31950 01802 10023 21031 39993 40184 52001 71001;EQDQ01  00002PRCP99
0248470950999992000021212004+38080+127820FM-12+013599999V0209999C000012200019N0030001N1-00271-00371102041ADDAA199000091AY101061AY211061GA1001+999999999GF100991001001999999001001IA2999+00009KA1120M+00411MA1999999100081MD1210161+9999MW1101REMSYN088AAXX  12124 47095 31930 00000 11027 21037 30008 40204 52016 71001 333 10041 3/000 55029;EQDQ01  00002PRCP99
0201470950999992000021215004+38080+127820FM-12+013599999V0203601N001012200019N0030001N1-00491-00541102091ADDAA199000091AY101031AY201031GA1001+999999999GF100991001001999999001001MA1999999100111MD1210031+9999MW1101REMSYN066AAXX  12154 47095 31930 03602 11049 21054 30011 40209 52003 71000;EQDQ01  00002PRCP99
0201470950999992000021218004+38080+127820FM-12+013599999V0209999C000012200019N0025001N1-00651-00711102131ADDAA199000091AY101061AY201061GA1001+999999999GF100991001001999999001001MA1999999100141MD1210031+9999MW1101REMSYN066AAXX  12184 47095 31925 00000 11065 21071 30014 40213 52003 71000;EQDQ01  00002PRCP99
0191470950999992000021221004+38080+127820FM-12+013599999V0209999C000012200019N0025001N1-00641-00701102171ADDAA199000091AY101031AY211031GF102991021051012501001001MA1999999100181MD1210041+9999MW1101REMSYN072AAXX  12214 47095 31625 20000 11064 21070 30018 40217 52004 71001 82500;EQDQ01  00002PRCP99
0242470950999992000021300004+38080+127820FM-12+013599999V0201801N000512200019N0030001N1-00591-00661102231ADDAA199000091AY111061AY201061GA1001+999999999GF100991001001999999001001IA2999-00409KA1120N-00751MA1999999100241MD1010061+9999MW1101REMSYN082AAXX  13004 47095 31930 01801 11059 21066 30024 40223 50006 71010 333 21075 3/104;EQDQ01  00002PRCP99
0201470950999992000021303004+38080+127820FM-12+013599999V0202901N000512200019N0030001N1+00231-00191102061ADDAA199000091AY101031AY201031GA1001+999999999GF100991001001999999001001MA1999999100141MD1710101+9999MW1101REMSYN066AAXX  13034 47095 31930 02901 10023 21019 30014 40206 57010 71000;EQDQ01  00002PRCP99
0191470950999992000021306004+38080+127820FM-12+013599999V0202901N000510075019N0030001N1+00431-00161101771ADDAA199000091AY121061AY221061GF108991081061008001999999MA1999999099871MD1710281+9999MW1101REMSYN072AAXX  13064 47095 31530 82901 10043 21016 39987 40177 57028 71022 886//;EQDQ01  00002PRCP99
0191470950999992000021309004+38080+127820FM-12+013599999V0202001N000510075019N0030001N1+00301-00151101671ADDAA199000091AY121031AY221031GF108991061061008001011999MA1999999099761MD1710111+9999MW1101REMSYN072AAXX  13094 47095 31530 82001 10030 21015 39976 40167 57011 71022 8661/;EQDQ01  00002PRCP99
0244470950999992000021312004+38080+127820FM-12+013599999V0209999C000010075019N0020001N1+00111-00091101711ADDAA199000091AY121061AY221061GF108991061061008001011999IA1099IA2999+00009KA1120M+00501MA1999999099781MD1210021+9999MW1101REMSYN094AAXX  13124 47095 31520 80000 10011 21009 39978 40171 52002 71022 8661/ 333 10050 31000 55031;EQDQ01  00002PRCP99
0161470950999992000021315004+38080+127820FM-12+013599999V0202301N001510075019N0020001N1+00061-00111101701ADDAY111031AY201031GF108991061071008001021999MA1999999099771MD1510011+9999MW1701REMSYN072AAXX  13154 47095 41520 82303 10006 21011 39977 40170 55001 77010 8672/;
0161470950999992000021318004+38080+127820FM-12+013599999V0202301N002110075019N0020001N1+00001-00091101571ADDAY171061AY271061GF108991061071008001021999MA1999999099651MD1710131+9999MW1701REMSYN072AAXX  13184 47095 41520 82304 11000 21009 39965 40157 57013 77077 8672/;
0161470950999992000021321004+38080+127820FM-12+013599999V0202701N001510075019N0020001N1-00041-00071101411ADDAY171031AY271031GF108991061071008001021999MA1999999099481MD1710171+9999MW1711REMSYN072AAXX  13214 47095 41520 82703 11004 21007 39948 40141 57017 77177 8672/;
0244470950999992000021400004+38080+127820FM-12+013599999V0202901N002119999999N0030001N1-00081-00331101471ADDAA112001091AY171061AY221061GF107991999071004501001001IA2999+00009KA1120N-00091MA1999999099541MD1210061+9999MW1701REMSYN100AAXX  14004 47095 11430 72904 11008 21033 39954 40147 52006 60012 77072 83700 333 21009 3/000 70014;EQDQ01+000032SCOTLC
0161470950999992000021403004+38080+127820FM-12+013599999V0202501N004112200019N0120001N1+00051-00531101441ADDAY171031AY221031GF102991021051012501001001MA1999999099521MD1510021+9999MW1011REMSYN072AAXX  14034 47095 41662 22508 10005 21053 39952 40144 55002 70172 82500;
0133470950999992000021406004+38080+127820FM-12+013599999V0202701N004612200019N0200001N1+00091-01011101211ADDGF101991011051012501001001MA1999999099301MD1710221+9999REMSYN066AAXX  14064 47095 42670 12709 10009 21101 39930 40121 57022 81500;
0144470950999992000021409004+38080+127820FM-12+013599999V0202701N003112200019N0200001N1-00191-01071101381ADDAA199000021GF102991021051008001001001MA1999999099441MD1210141+9999REMSYN066AAXX  14094 47095 32570 22706 11019 21107 39944 40138 52014 82500;
0215470950999992000021412004+38080+127820FM-12+013599999V0202701N004112200019N0200001N1-00431-01331101631ADDAA112000791GF102991021051008001001001IA1259IA2999+00009KA1120M+00111MA1999999099671MD1210231+9999REMSYN106AAXX  14124 47095 12570 22708 11043 21133 39967 40163 52023 69902 82500 333 10011 3/100 41/// 55073 70014;
0173470950999992000021415004+38080+127820FM-12+013599999V0202501N003112200019N0200001N1-00531-01411101721ADDAA199000091GA1001+999999999GF100991001001999999001001MA1999999099751MD1210091+9999REMSYN060AAXX  14154 47095 32970 02506 11053 21141 39975 40172 52009;EQDQ01  00002PRCP99
0173470950999992000021418004+38080+127820FM-12+013599999V0202701N005712200019N0200001N1-00751-01881101821ADDAA199000091GA1001+999999999GF100991001001999999001001MA1999999099831MD1210071+9999REMSYN060AAXX  14184 47095 32970 02711 11075 21188 39983 40182 52007;EQDQ01  00002PRCP99
0173470950999992000021421004+38080+127820FM-12+013599999V0202501N002612200019N0200001N1-00921-01801101841ADDAA199000091GA1001+999999999GF100991001001999999001001MA1999999099841MD1710011+9999REMSYN060AAXX  14214 47095 32970 02505 11092 21180 39984 40184 57001;EQDQ01  00002PRCP99
0207470950999992000021500004+38080+127820FM-12+013599999V0202501N002612200019N0200001N1-00801-01801101971ADDAA124000791GA1001+999999999GF100991001001999999001001IA1149IA2999-00609KA1120N-00981MA1999999099971MD1210141+9999REMSYN082AAXX  15004 47095 32970 02505 11080 21180 39997 40197 52014 333 21098 34106 79999;
0163470950999992000021503004+38080+127820FM-12+013599999V0202901N004612200019N0180001N1-00611-01791101861ADDAA199000091GF104991041051012501001001MA1999999099891MD1710091+9999REMSYN066AAXX  15034 47095 32668 42909 11061 21179 39989 40186 57009 84500;EQDQ01  00002PRCP99
0163470950999992000021506004+38080+127820FM-12+013599999V0202701N005712200019N0180001N1-00491-01711101641ADDAA199000091GF102991021051012501001001MA1999999099671MD1710211+9999REMSYN066AAXX  15064 47095 32668 22711 11049 21171 39967 40164 57021 82500;EQDQ01  00002PRCP99
0157470950999992000021509004+38080+127820FM-12+013599999V0202701N003612200019N0200001N1-00601-01681101751ADDAA199000091GF102991999999999999999999MA1999999099771MD1210101+9999REMSYN060AAXX  15094 47095 32970 22707 11060 21168 39977 40175 52010;EQDQ01  00002PRCP99
0222470950999992000021512004+38080+127820FM-12+013599999V0202701N003112200019N0200001N1-00761-01551101981ADDAA199000091GF102991021051012501001001IA1289IA2999-00609KA1120M-00421MA1999999099991MD1210221+9999REMSYN094AAXX  15124 47095 32670 22706 11076 21155 39999 40198 52022 82500 333 11042 3/106 44/// 55073;EQDQ01  00002PRCP99
0157470950999992000021515004+38080+127820FM-12+013599999V0202001N002612200019N0200001N1-00881-01581102041ADDAA199000091GF101991999999999999999999MA1999999100041MD1310051+9999REMSYN060AAXX  15154 47095 32970 12005 11088 21158 30004 40204 53005;EQDQ01  00002PRCP99
0173470950999992000021518004+38080+127820FM-12+013599999V0202501N003112200019N0200001N1-00901-01731102071ADDAA199000091GA1001+999999999GF100991001001999999001001MA1999999100061MD1310031+9999REMSYN060AAXX  15184 47095 32970 02506 11090 21173 30006 40207 53003;EQDQ01  00002PRCP99
0173470950999992000021521004+38080+127820FM-12+013599999V0201601N000512200019N0200001N1-01051-01701102131ADDAA199000091GA1001+999999999GF100991001001999999001001MA1999999100111MD1010051+9999REMSYN060AAXX  15214 47095 32970 01601 11105 21170 30011 40213 50005;EQDQ01  00002PRCP99
0220470950999992000021600004+38080+127820FM-12+013599999V0202001N001512200019N0200001N1-00781-01551102221ADDAA199000091GA1001+999999999GF100991001001999999001001IA1149IA2999-00809KA1120N-01251MA1999999100221MD1210111+9999REMSYN076AAXX  16004 47095 32970 02003 11078 21155 30022 40222 52011 333 21125 34108;EQDQ01  00002PRCP99
0173470950999992000021603004+38080+127820FM-12+013599999V0202701N003112200019N0200001N1-00391-01701102141ADDAA199000091GA1001+999999999GF100991001001999999001001MA1999999100171MD1710051+9999REMSYN060AAXX  16034 47095 32970 02706 11039 21170 30017 40214 57005;EQDQ01  00002PRCP99
0173470950999992000021606004+38080+127820FM-12+013599999V0202501N005112200019N0200001N1-00171-01781101961ADDAA199000091GA1001+999999999GF100991001001999999001001MA1999999100011MD1710161+9999REMSYN060AAXX  16064 47095 32970 02510 11017 21178 30001 40196 57016;EQDQ01  00002PRCP99
0173470950999992000021609004+38080+127820FM-12+013599999V0202501N004112200019N0200001N1-00341-01591102041ADDAA199000091GA1001+999999999GF100991001001999999001001MA1999999100081MD1210071+9999REMSYN060AAXX  16094 47095 32970 02508 11034 21159 30008 40204 52007;EQDQ01  00002PRCP99
0226470950999992000021612004+38080+127820FM-12+013599999V0202501N001512200019N0200001N1-00631-01461102221ADDAA199000091GA1001+999999999GF100991001001999999001001IA1149IA2999-00209KA1120M-00121MA1999999100231MD1210161+9999REMSYN082AAXX  16124 47095 32970 02503 11063 21146 30023 40222 52016 333 11012 34102 55097;EQDQ01  00002PRCP99
0173470950999992000021615004+38080+127820FM-12+013599999V0201101N001012200019N0200001N1-00901-01511102391ADDAA199000091GA1001+999999999GF100991001001999999001001MA1999999100381MD1210141+9999REMSYN060AAXX  16154 47095 32970 01102 11090 21151 30038 40239 52014;EQDQ01  00002PRCP99
0173470950999992000021618004+38080+127820FM-12+013599999V0209999C000012200019N0200001N1-01191-01421102541ADDAA199000091GA1001+999999999GF100991001001999999001001MA1999999100501MD1210121+9999REMSYN060AAXX  16184 47095 32970 00000 11119 21142 30050 40254 52012;EQDQ01  00002PRCP99
0173470950999992000021621004+38080+127820FM-12+013599999V0200201N000512200019N0200001N1-01381-01561102611ADDAA199000091GA1001+999999999GF100991001001999999001001MA1999999100551MD1210061+9999REMSYN060AAXX  16214 47095 32970 00201 11138 21156 30055 40261 52006;EQDQ01  00002PRCP99
0214470950999992000021700004+38080+127820FM-12+013599999V0209999C000012200019N0220001N1-00991-01351102711ADDAA199000091GA1001+999999999GF100991001001999999001001IA2999-00809KA1120N-01431MA1999999100691MD1210131+9999REMSYN076AAXX  17004 47095 32972 00000 11099 21135 30069 40271 52013 333 21143 3/108;EQDQ01  00002PRCP99
0173470950999992000021703004+38080+127820FM-12+013599999V0201601N001512200019N0250001N1-00341-01731102641ADDAA199000091GA1001+999999999GF100991001001999999001001MA1999999100661MD1310021+9999REMSYN060AAXX  17034 47095 32975 01603 11034 21173 30066 40264 53002;EQDQ01  00002PRCP99
0173470950999992000021706004+38080+127820FM-12+013599999V0202701N004112200019N0250001N1-00151-01801102421ADDAA199000091GA1001+999999999GF100991001001999999001001MA1999999100461MD1710201+9999REMSYN060AAXX  17064 47095 32975 02708 11015 21180 30046 40242 57020;EQDQ01  00002PRCP99
0173470950999992000021709004+38080+127820FM-12+013599999V0202501N003112200019N0230001N1-00241-01561102451ADDAA199000091GA1001+999999999GF100991001001999999001001MA1999999100491MD1310021+9999REMSYN060AAXX  17094 47095 32973 02506 11024 21156 30049 40245 53002;EQDQ01  00002PRCP99
0226470950999992000021712004+38080+127820FM-12+013599999V0201801N001012200019N0200001N1-00491-01671102611ADDAA199000091GA1001+999999999GF100991001001999999001001IA1149IA2999-00109KA1120M-00101MA1999999100631MD1210141+9999REMSYN082AAXX  17124 47095 32970 01802 11049 21167 30063 40261 52014 333 11010 34101 55091;EQDQ01  00002PRCP99
0173470950999992000021715004+38080+127820FM-12+013599999V0200501N001012200019N0200001N1-00901-01441102731ADDAA199000091GA1001+999999999GF100991001001999999001001MA1999999100711MD1310081+9999REMSYN060AAXX  17154 47095 32970 00502 11090 21144 30071 40273 53008;EQDQ01  00002PRCP99
0173470950999992000021718004+38080+127820FM-12+013599999V0209999C000012200019N0200001N1-01131-01461102811ADDAA199000091GA1001+999999999GF100991001001999999001001MA1999999100781MD1210071+9999REMSYN060AAXX  17184 47095 32970 00000 11113 21146 30078 40281 52007;EQDQ01  00002PRCP99
0173470950999992000021721004+38080+127820FM-12+013599999V0209999C000012200019N0200001N1-01321-01541102841ADDAA199000091GA1001+999999999GF100991001001999999001001MA1999999100791MD1310011+9999REMSYN060AAXX  17214 47095 32970 00000 11132 21154 30079 40284 53001;EQDQ01  00002PRCP99
0220470950999992000021800004+38080+127820FM-12+013599999V0209999C000012200019N0200001N1-01011-01371102951ADDAA199000091GA1001+999999999GF100991001001999999001001IA1149IA2999-00809KA1120N-01411MA1999999100921MD1210131+9999REMSYN076AAXX  18004 47095 32970 00000 11101 21137 30092 40295 52013 333 21141 34108;EQDQ01  00002PRCP99
0173470950999992000021803004+38080+127820FM-12+013599999V0202001N001512200019N0200001N1-00121-01521102681ADDAA199000091GA1001+999999999GF100991001001999999001001MA1999999100721MD1710201+9999REMSYN060AAXX  18034 47095 32970 02003 11012 21152 30072 40268 57020;EQDQ01  00002PRCP99
0163470950999992000021806004+38080+127820FM-12+013599999V0202001N001512200019N0200001N1+00171-01641102461ADDAA199000091GF101991001001999999001011MA1999999100521MD1710201+9999REMSYN066AAXX  18064 47095 32970 12003 10017 21164 30052 40246 57020 80001;EQDQ01  00002PRCP99
0179470950999992000021809004+38080+127820FM-12+013599999V0203601N001012200019N0200001N1-00111-01281102421ADDAA199000091GA1001+999999999GF100991001001999999001001MA1999999100471MD1710061+9999REMSYN066AAXX  18094 47095 32970 03602 11011 21128 30047 40242 57006 80001;EQDQ01  00002PRCP99
0216470950999992000021812004+38080+127820FM-12+013599999V0201101N000519999999N0180001N1-00381-01271102371ADDAA199000091GF106991001001999999001061IA1149IA2999-00109KA1120M+00221MA1999999100401MD1510071+9999REMSYN088AAXX  18124 47095 32968 61101 11038 21127 30040 40237 55007 80006 333 10022 34101 55092;EQDQ01  00002PRCP99
0163470950999992000021815004+38080+127820FM-12+013599999V0202301N001019999999N0180001N1-00511-01041102261ADDAA199000091GF108991001001999999001071MA1999999100281MD1710121+9999REMSYN066AAXX  18154 47095 32968 82302 11051 21104 30028 40226 57012 80007;EQDQ01  00002PRCP99
0163470950999992000021818004+38080+127820FM-12+013599999V0203601N001019999999N0180001N1-00571-01091102261ADDAA199000091GF108991001001999999001071MA1999999100281MD1510001+9999REMSYN066AAXX  18184 47095 32968 83602 11057 21109 30028 40226 55000 80007;EQDQ01  00002PRCP99
0163470950999992000021821004+38080+127820FM-12+013599999V0200201N000519999999N0180001N1-00741-00921102141ADDAA199000091GF108991001001999999001071MA1999999100151MD1710131+9999REMSYN066AAXX  18214 47095 32968 80201 11074 21092 30015 40214 57013 80007;EQDQ01  00002PRCP99
0220470950999992000021900004+38080+127820FM-12+013599999V0209999C000012200019N0200001N1-00481-00941102101ADDAA199000091GA1001+999999999GF100991001001999999001001IA1149IA2999-00409KA1120N-00781MA1999999100131MD1710021+9999REMSYN076AAXX  19004 47095 32970 00000 11048 21094 30013 40210 57002 333 21078 34104;EQDQ01  00002PRCP99
0163470950999992000021903004+38080+127820FM-12+013599999V0209999C000019999999N0200001N1+00221-01421101871ADDAA199000091GF105991001001999999001051MA1999999099951MD1710171+9999REMSYN066AAXX  19034 47095 32970 50000 10022 21142 39995 40187 57017 80005;EQDQ01  00002PRCP99
0163470950999992000021906004+38080+127820FM-12+013599999V0200201N001019999999N0200001N1+00541-01251101431ADDAA199000091GF105991001001999999001051MA1999999099551MD1710411+9999REMSYN066AAXX  19064 47095 32970 50202 10054 21125 39955 40143 57041 80005;EQDQ01  00002PRCP99
0163470950999992000021909004+38080+127820FM-12+013599999V0202701N004112200019N0150001N1+00321-00731101511ADDAA199000091GF103991001001999999011011MA1999999099601MD1810061+9999REMSYN066AAXX  19094 47095 32965 32708 10032 21073 39960 40151 58006 80011;EQDQ01  00002PRCP99
0216470950999992000021912004+38080+127820FM-12+013599999V0200201N001512200019N0120001N1-00091-00481101491ADDAA199000091GF102991001001999999001051IA1099IA2999+00009KA1120M+00591MA1999999099561MD1510051+9999REMSYN088AAXX  19124 47095 32962 20203 11009 21048 39956 40149 55005 80005 333 10059 31000 55080;EQDQ01  00002PRCP99
0173470950999992000021915004+38080+127820FM-12+013599999V0202001N000512200019N0120001N1-00381-00541101481ADDAA199000091GA1001+999999999GF100991001001999999001001MA1999999099521MD1510031+9999REMSYN060AAXX  19154 47095 32962 02001 11038 21054 39952 40148 55003;EQDQ01  00002PRCP99
0163470950999992000021918004+38080+127820FM-12+013599999V0200501N000512200019N0100001N1-00581-00661101571ADDAA199000091GF104991001001999999001061MA1999999099601MD1210071+9999REMSYN066AAXX  19184 47095 32960 40501 11058 21066 39960 40157 52007 80006;EQDQ01  00002PRCP99
0173470950999992000021921004+38080+127820FM-12+013599999V0200201N000512200019N0120001N1-00751-00851101591ADDAA199000091GA1001+999999999GF100991001001999999001001MA1999999099601MD1010011+9999REMSYN060AAXX  19214 47095 32962 00201 11075 21085 39960 40159 50001;EQDQ01  00002PRCP99
0220470950999992000022000004+38080+127820FM-12+013599999V0209999C000012200019N0150001N1-00591-00761101681ADDAA199000091GA1001+999999999GF100991001001999999001001IA1149IA2999-00409KA1120N-00881MA1999999099701MD1210101+9999REMSYN076AAXX  20004 47095 32965 00000 11059 21076 39970 40168 52010 333 21088 34104;EQDQ01  00002PRCP99
0173470950999992000022003004+38080+127820FM-12+013599999V0203401N001012200019N0140001N1+00101-00681101521ADDAA199000091GA1001+999999999GF100991001001999999001001MA1999999099601MD1510101+9999REMSYN060AAXX  20034 47095 32964 03402 10010 21068 39960 40152 55010;EQDQ01  00002PRCP99
0173470950999992000022006004+38080+127820FM-12+013599999V0200201N002612200019N0180001N1+00311-00941101261ADDAA199000091GA1001+999999999GF100991001001999999001001MA1999999099361MD1710231+9999REMSYN060AAXX  20064 47095 32968 00205 10031 21094 39936 40126 57023;EQDQ01  00002PRCP99
0173470950999992000022009004+38080+127820FM-12+013599999V0202901N003612200019N0200001N1+00111-01261101421ADDAA199000091GA1001+999999999GF100991001001999999001001MA1999999099501MD1210141+9999REMSYN060AAXX  20094 47095 32970 02907 10011 21126 39950 40142 52014;EQDQ01  00002PRCP99
0226470950999992000022012004+38080+127820FM-12+013599999V0201801N001012200019N0200001N1-00241-01221101671ADDAA199000091GA1001+999999999GF100991001001999999001001IA1149IA2999-00109KA1120M+00371MA1999999099721MD1210221+9999REMSYN082AAXX  20124 47095 32970 01802 11024 21122 39972 40167 52022 333 10037 34101 55091;EQDQ01  00002PRCP99
0173470950999992000022015004+38080+127820FM-12+013599999V0201401N001012200019N0200001N1-00531-01071101831ADDAA199000091GA1001+999999999GF100991001001999999001001MA1999999099861MD1210141+9999REMSYN060AAXX  20154 47095 32970 01402 11053 21107 39986 40183 52014;EQDQ01  00002PRCP99
0173470950999992000022018004+38080+127820FM-12+013599999V0200901N000512200019N0200001N1-00781-01101101991ADDAA199000091GA1001+999999999GF100991001001999999001001MA1999999099991MD1210131+9999REMSYN060AAXX  20184 47095 32970 00901 11078 21110 39999 40199 52013;EQDQ01  00002PRCP99
0173470950999992000022021004+38080+127820FM-12+013599999V0209999C000012200019N0200001N1-00951-01121102121ADDAA199000091GA1001+999999999GF100991001001999999001001MA1999999100111MD1210121+9999REMSYN060AAXX  20214 47095 32970 00000 11095 21112 30011 40212 52012;EQDQ01  00002PRCP99
0220470950999992000022100004+38080+127820FM-12+013599999V0209999C000012200019N0180001N1-00661-01011102291ADDAA199000091GA1001+999999999GF100991001001999999001001IA1149IA2999-00409KA1120N-01051MA1999999100301MD1210191+9999REMSYN076AAXX  21004 47095 32968 00000 11066 21101 30030 40229 52019 333 21105 34104;EQDQ01  00002PRCP99
0173470950999992000022103004+38080+127820FM-12+013599999V0203201N003612200019N0200001N1-00061-01421102281ADDAA199000091GA1001+999999999GF100991001001999999001001MA1999999100331MD1010031+9999REMSYN060AAXX  21034 47095 32970 03207 11006 21142 30033 40228 50003;EQDQ01  00002PRCP99
0173470950999992000022106004+38080+127820FM-12+013599999V0202501N003112200019N0200001N1+00171-01471102021ADDAA199000091GA1001+999999999GF100991001001999999001001MA1999999100101MD1710241+9999REMSYN060AAXX  21064 47095 32970 02506 10017 21147 30010 40202 57024;EQDQ01  00002PRCP99
0173470950999992000022109004+38080+127820FM-12+013599999V0202701N002612200019N0200001N1+00031-01561102021ADDAA199000091GA1001+999999999GF100991001001999999001001MA1999999100091MD1810011+9999REMSYN060AAXX  21094 47095 32970 02705 10003 21156 30009 40202 58001;EQDQ01  00002PRCP99
0226470950999992000022112004+38080+127820FM-12+013599999V0202701N001012200019N0200001N1-00251-01301102241ADDAA199000091GA1001+999999999GF100991001001999999001001IA1149IA2999-00109KA1120M+00191MA1999999100281MD1210191+9999REMSYN082AAXX  21124 47095 32970 02702 11025 21130 30028 40224 52019 333 10019 34101 55101;EQDQ01  00002PRCP99
0173470950999992000022115004+38080+127820FM-12+013599999V0209999C000012200019N0200001N1-00611-01041102451ADDAA199000091GA1001+999999999GF100991001001999999001001MA1999999100461MD1210181+9999REMSYN060AAXX  21154 47095 32970 00000 11061 21104 30046 40245 52018;EQDQ01  00002PRCP99
0173470950999992000022118004+38080+127820FM-12+013599999V0209999C000012200019N0180001N1-00861-01051102431ADDAA199000091GA1001+999999999GF100991001001999999001001MA1999999100421MD1510041+9999REMSYN060AAXX  21184 47095 32968 00000 11086 21105 30042 40243 55004;EQDQ01  00002PRCP99
0131470950999992000022121004+38080+127820FM-12+013599999V0209999C000019999999N9999999N1-01031-01201102491ADDAA199000091MA1999999100461MD1010041+9999REMSYN060AAXX  21214 47095 3//// /0000 11103 21120 30046 40249 50004;EQDQ01  00002PRCP99
0220470950999992000022200004+38080+127820FM-12+013599999V0209999C000012200019N0180001N1-00721-01061102571ADDAA199000091GA1001+999999999GF100991001001999999001001IA1149IA2999-00609KA1120N-01121MA1999999100571MD1210101+9999REMSYN076AAXX  22004 47095 32968 00000 11072 21106 30057 40257 52010 333 21112 34106;EQDQ01  00002PRCP99
0163470950999992000022203004+38080+127820FM-12+013599999V0200501N001012200019N0200001N1+00041-01411102461ADDAA199000091GF102991001001999999001011MA1999999100521MD1710051+9999REMSYN066AAXX  22034 47095 32970 20502 10004 21141 30052 40246 57005 80001;EQDQ01  00002PRCP99
0173470950999992000022206004+38080+127820FM-12+013599999V0202301N003112200019N0220001N1+00371-01491102241ADDAA199000091GA1001+999999999GF100991001001999999001001MA1999999100331MD1710191+9999REMSYN060AAXX  22064 47095 32972 02306 10037 21149 30033 40224 57019;EQDQ01  00002PRCP99
0189470950999992000022209004+38080+127820FM-12+013599999V0202301N004112200019N0200001N1+00201-01331102251ADDAA199000091GA1001+999999999GF100991001001999999001001MA1999999100331MD1810011+9999REMSYN060AAXX  22094 47095 32970 02308 10020 21133 30033 40225 58000;EQDQ01+000002APC3  Q02  00002PRCP99
0226470950999992000022212004+38080+127820FM-12+013599999V0202001N001012200019N0200001N1-00111-00961102371ADDAA199000091GA1001+999999999GF100991001001999999001001IA1149IA2999+00009KA1120M+00431MA1999999100421MD1210091+9999REMSYN082AAXX  22124 47095 32970 02002 11011 21096 30042 40237 52009 333 10043 34100 55099;EQDQ01  00002PRCP99
0173470950999992000022215004+38080+127820FM-12+013599999V0201801N000512200019N0200001N1-00361-00881102401ADDAA199000091GA1001+999999999GF100991001001999999001001MA1999999100431MD1810011+9999REMSYN060AAXX  22154 47095 32970 01801 11036 21088 30043 40240 58001;EQDQ01  00002PRCP99
0163470950999992000022218004+38080+127820FM-12+013599999V0202301N001510120019N0150001N1-00241-00901102461ADDAA199000091GF108991061051012501011999MA1999999100491MD1210061+9999REMSYN066AAXX  22184 47095 32665 82303 11024 21090 30049 40246 52006 8651/;EQDQ01  00002PRCP99
0163470950999992000022221004+38080+127820FM-12+013599999V0209999C000010120019N0150001N1-00291-00881102401ADDAA199000091GF106991061051012501001001MA1999999100431MD1710061+9999REMSYN066AAXX  22214 47095 32665 60000 11029 21088 30043 40240 57006 86500;EQDQ01  00002PRCP99
0210470950999992000022300004+38080+127820FM-12+013599999V0202301N002610360019N0140001N1-00151-00781102411ADDAA199000091GF108991021051012501021999IA1149IA2999-00109KA1120N-00381MA1999999100461MD1210031+9999REMSYN082AAXX  23004 47095 32664 82305 11015 21078 30046 40241 52003 8252/ 333 21038 34101;EQDQ01  00002PRCP99
0161470950999992000022303004+38080+127820FM-12+013599999V0202001N003110120019N0080001N1-00081-00521102341ADDAY171031AY221031GF108991051051012501021999MA1999999100391MD1710071+9999MW1711REMSYN072AAXX  23034 47095 41658 82006 11008 21052 30039 40234 57007 77172 8552/;
0133470950999992000022306004+38080+127820FM-12+013599999V0202301N004110120019N0120001N1+00191-00441102101ADDGF105991051051012501001001MA1999999100171MD1710221+9999REMSYN066AAXX  23064 47095 42662 52308 10019 21044 30017 40210 57022 85500;
0133470950999992000022309004+38080+127820FM-12+013599999V0202701N002612200019N0180001N1+00171-01001101991ADDGF102991021051008001001001MA1999999100071MD1810101+9999REMSYN066AAXX  23094 47095 42568 22705 10017 21100 30007 40199 58010 82500;
0219470950999992000022312004+38080+127820FM-12+013599999V0202901N004112200019N0180001N1-00171-01211102331ADDAA112000791GA1001+999999999GF100991001001999999001001IA1149IA2999-00109KA1120M+00291MA1999999100381MD1210311+9999REMSYN094AAXX  23124 47095 12968 02908 11017 21121 30038 40233 52031 69902 333 10029 34101 55031 79999;
0154470950999992000022315004+38080+127820FM-12+013599999V0202701N001512200019N0180001N1-00421-01441102531ADDAA199000021GA1001+999999999GF100991001001999999001001MA1999999100551MD1210181+9999REMSYN060AAXX  23154 47095 32968 02703 11042 21144 30055 40253 52018;
0173470950999992000022318004+38080+127820FM-12+013599999V0201401N000512200019N0200001N1-00751-01341102671ADDAA199000091GA1001+999999999GF100991001001999999001001MA1999999100661MD1210111+9999REMSYN060AAXX  23184 47095 32970 01401 11075 21134 30066 40267 52011;EQDQ01  00002PRCP99
0173470950999992000022321004+38080+127820FM-12+013599999V0200901N000512200019N0200001N1-00971-01321102791ADDAA199000091GA1001+999999999GF100991001001999999001001MA1999999100771MD1010111+9999REMSYN060AAXX  23214 47095 32970 00901 11097 21132 30077 40279 50011;EQDQ01  00002PRCP99
0207470950999992000022400004+38080+127820FM-12+013599999V0209999C000012200019N0200001N1-00541-01731102951ADDAA124000791GA1001+999999999GF100991001001999999001001IA1149IA2999-00509KA1120N-01111MA1999999100951MD1210181+9999REMSYN082AAXX  24004 47095 32970 00000 11054 21173 30095 40295 52018 333 21111 34105 79999;
0173470950999992000022403004+38080+127820FM-12+013599999V0203201N004112200019N0220001N1-00191-01881102901ADDAA199000091GA1001+999999999GF100991001001999999001001MA1999999100931MD1310021+9999REMSYN060AAXX  24034 47095 32972 03208 11019 21188 30093 40290 53002;EQDQ01  00002PRCP99
0173470950999992000022406004+38080+127820FM-12+013599999V0202701N004112200019N0220001N1-00011-01851102651ADDAA199000091GA1001+999999999GF100991001001999999001001MA1999999100701MD1710231+9999REMSYN060AAXX  24064 47095 32972 02708 11001 21185 30070 40265 57023;EQDQ01  00002PRCP99
0173470950999992000022409004+38080+127820FM-12+013599999V0202901N002612200019N0200001N1-00151-01841102561ADDAA199000091GA1001+999999999GF100991001001999999001001MA1999999100611MD1710091+9999REMSYN060AAXX  24094 47095 32970 02905 11015 21184 30061 40256 57009;EQDQ01  00002PRCP99
0226470950999992000022412004+38080+127820FM-12+013599999V0202901N002112200019N0200001N1-00421-01511102781ADDAA199000091GA1001+999999999GF100991001001999999001001IA1019IA2999-00309KA1120M+00041MA1999999100801MD1210191+9999REMSYN082AAXX  24124 47095 32970 02904 11042 21151 30080 40278 52019 333 10004 30103 55101;EQDQ01  00002PRCP99
0173470950999992000022415004+38080+127820FM-12+013599999V0201101N001512200019N0200001N1-00661-01421102841ADDAA199000091GA1001+999999999GF100991001001999999001001MA1999999100841MD1510041+9999REMSYN060AAXX  24154 47095 32970 01103 11066 21142 30084 40284 55004;EQDQ01  00002PRCP99
0173470950999992000022418004+38080+127820FM-12+013599999V0200701N002112200019N0180001N1-00961-01321102871ADDAA199000091GA1001+999999999GF100991001001999999001001MA1999999100851MD1710011+9999REMSYN060AAXX  24184 47095 32968 00704 11096 21132 30085 40287 57001;EQDQ01  00002PRCP99
0173470950999992000022421004+38080+127820FM-12+013599999V0203601N000512200019N0160001N1-01171-01381102831ADDAA199000091GA1001+999999999GF100991001001999999001001MA1999999100791MD1710061+9999REMSYN060AAXX  24214 47095 32966 03601 11117 21138 30079 40283 57006;EQDQ01  00002PRCP99
0220470950999992000022500004+38080+127820FM-12+013599999V0203401N000512200019N0200001N1-00811-01241102891ADDAA199000091GA1001+999999999GF100991001001999999001001IA1019IA2999-00709KA1120N-01231MA1999999100871MD1210091+9999REMSYN076AAXX  25004 47095 32970 03401 11081 21124 30087 40289 52009 333 21123 30107;EQDQ01  00002PRCP99
0173470950999992000022503004+38080+127820FM-12+013599999V0203601N001012200019N0200001N1-00121-01471102651ADDAA199000091GA1001+999999999GF100991001001999999001001MA1999999100691MD1710191+9999REMSYN060AAXX  25034 47095 32970 03602 11012 21147 30069 40265 57019;EQDQ01  00002PRCP99
0163470950999992000022506004+38080+127820FM-12+013599999V0201401N001019999999N0200001N1+00121-01651102271ADDAA199000091GF108991001001999999001061MA1999999100341MD1710351+9999REMSYN066AAXX  25064 47095 32970 81402 10012 21165 30034 40227 57035 80006;EQDQ01  00002PRCP99
0163470950999992000022509004+38080+127820FM-12+013599999V0202301N001012200019N0200001N1+00001-01531102191ADDAA199000091GF104991001001999999001061MA1999999100251MD1710091+9999REMSYN066AAXX  25094 47095 32970 42302 10000 21153 30025 40219 57009 80006;EQDQ01  00002PRCP99
0216470950999992000022512004+38080+127820FM-12+013599999V0202001N001519999999N0200001N1-00161-01301102241ADDAA199000091GF108991081001999999011999IA1019IA2999-00109KA1120M+00121MA1999999100291MD1210041+9999REMSYN088AAXX  25124 47095 32970 82003 11016 21130 30029 40224 52004 8801/ 333 10012 30101 55054;EQDQ01  00002PRCP99
0163470950999992000022515004+38080+127820FM-12+013599999V0209999C000019999999N0200001N1-00271-01071102171ADDAA199000091GF108991081001999999021999MA1999999100211MD1710081+9999REMSYN066AAXX  25154 47095 32970 80000 11027 21107 30021 40217 57008 8802/;EQDQ01  00002PRCP99
0163470950999992000022518004+38080+127820FM-12+013599999V0200201N000519999999N0150001N1-00401-00851102071ADDAA199000091GF108991081001999999021999MA1999999100101MD1710111+9999REMSYN066AAXX  25184 47095 32965 80201 11040 21085 30010 40207 57011 8802/;EQDQ01  00002PRCP99
0163470950999992000022521004+38080+127820FM-12+013599999V0209999C000019999999N0150001N1-00431-00781101901ADDAA199000091GF108991081001999999011999MA1999999099941MD1710171+9999REMSYN066AAXX  25214 47095 32965 80000 11043 21078 39994 40190 57017 8801/;EQDQ01  00002PRCP99
0220470950999992000022600004+38080+127820FM-12+013599999V0209999C000012200019N0200001N1-00331-00761101911ADDAA199000091GA1001+999999999GF100991001001999999001001IA1019IA2999-00209KA1120N-00601MA1999999099951MD1010021+9999REMSYN076AAXX  26004 47095 32970 00000 11033 21076 39995 40191 50002 333 21060 30102;EQDQ01  00002PRCP99
0161470950999992000022603004+38080+127820FM-12+013599999V0202301N004110120019N0150001N1+00161-00911101801ADDAY171031AY221031GF106991061051012501001001MA1999999099881MD1710071+9999MW1701REMSYN072AAXX  26034 47095 41665 62308 10016 21091 39988 40180 57007 77072 86500;
0161470950999992000022606004+38080+127820FM-12+013599999V0202301N005710120019N0130001N1+00231-00771101641ADDAY171061AY221061GF108991061051012501011999MA1999999099731MD1710161+9999MW1701REMSYN072AAXX  26064 47095 41663 82311 10023 21077 39973 40164 57016 77072 8651/;
0161470950999992000022609004+38080+127820FM-12+013599999V0202301N004610075019N0080001N1+00051-00521101691ADDAY171031AY271031GF106991061061008001001001MA1999999099761MD1210041+9999MW1701REMSYN072AAXX  26094 47095 41558 62309 10005 21052 39976 40169 52004 77077 86600;
0237470950999992000022612004+38080+127820FM-12+013599999V0202901N003610075019N0100001N1-00011-00551101871ADDAA112000791AY171061AY221061GF106991061051008001001001IA1019IA2999+00009KA1120M+00281MA1999999099931MD1210171+9999MW1221REMSYN106AAXX  26124 47095 12560 62907 11001 21055 39993 40187 52017 69902 72272 86500 333 10028 30000 55037 79999;
0154470950999992000022615004+38080+127820FM-12+013599999V0202501N003612200019N0150001N1-00191-00821102011ADDAA199000021GA1001+999999999GF100991001001999999001001MA1999999100051MD1210121+9999REMSYN060AAXX  26154 47095 32965 02507 11019 21082 30005 40201 52012;
0154470950999992000022618004+38080+127820FM-12+013599999V0201801N000512200019N0150001N1-00461-01071102201ADDAA199000021GA1001+999999999GF100991001001999999001001MA1999999100231MD1210181+9999REMSYN060AAXX  26184 47095 32965 01801 11046 21107 30023 40220 52018;
0154470950999992000022621004+38080+127820FM-12+013599999V0201801N000512200019N0150001N1-00751-01061102331ADDAA199000021GA1001+999999999GF100991001001999999001001MA1999999100331MD1010101+9999REMSYN060AAXX  26214 47095 32965 01801 11075 21106 30033 40233 50010;
0197470950999992000022700004+38080+127820FM-12+013599999V0209999C000012200019N0200001N1-00451-01051102431ADDAA124000791GF101991011051999999001001IA1019IA2999-00309KA1120N-00911MA1999999100451MD1210131+9999REMSYN088AAXX  27004 47095 32970 10000 11045 21105 30045 40243 52013 81500 333 21091 30103 79999;
0163470950999992000022703004+38080+127820FM-12+013599999V0202001N002610120019N0150001N1+00171-00961102261ADDAA199000091GF107991071051012501001001MA1999999100331MD1710131+9999REMSYN066AAXX  27034 47095 32665 72005 10017 21096 30033 40226 57013 87500;EQDQ01  00002PRCP99
0161470950999992000022706004+38080+127820FM-12+013599999V0202301N006710360019N0100001N1+00481-00741101851ADDAY171061AY271061GF108991031051008001021999MA1999999099951MD1710381+9999MW1701REMSYN072AAXX  27064 47095 41560 82313 10048 21074 39995 40185 57038 77077 8352/;
0161470950999992000022709004+38080+127820FM-12+013599999V0201601N001010042019N0015001N1+00081+00031101861ADDAY171031AY271031GF108991061071004501021999MA1999999099931MD1510011+9999MW1711REMSYN072AAXX  27094 47095 41415 81602 10008 20003 39993 40186 55001 77177 8672/;
0231470950999992000022712004+38080+127820FM-12+013599999V0200201N002110042019N0050001N1+00051+00011101981ADDAA112002091AY171061AY221061GF108991061071004501021999IA2999+00009KA1120M+00511MA1999999100051MD1010121+9999MW1711REMSYN106AAXX  27124 47095 11450 80204 10005 20001 30005 40198 50012 60022 77172 8672/ 333 10051 3/000 55037 70024;
0172470950999992000022715004+38080+127820FM-12+013599999V0202301N001512200019N0150001N1-00141-00721102171ADDAA199000021AY171031AY221031GF102991021051012501001001MA1999999100221MD1210171+9999MW1011REMSYN072AAXX  27154 47095 31665 22303 11014 21072 30022 40217 52017 70172 82500;
0154470950999992000022718004+38080+127820FM-12+013599999V0202701N002612200019N0180001N1-00381-01121102351ADDAA199000021GA1001+999999999GF100991001001999999001001MA1999999100381MD1210161+9999REMSYN060AAXX  27184 47095 32968 02705 11038 21112 30038 40235 52016;
0154470950999992000022721004+38080+127820FM-12+013599999V0202301N001512200019N0200001N1-00671-01381102571ADDAA199000021GA1001+999999999GF100991001001999999001001MA1999999100581MD1210201+9999REMSYN060AAXX  27214 47095 32970 02303 11067 21138 30058 40257 52020;
0236470950999992000022800004+38080+127820FM-12+013599999V0200701N001012200019N0250001N1-00581-01311102821ADDAA112000591AJ100009199999999GA1001+999999999GF100991001001999999001001IA1279IA2999-00309KA1120N-00971MA1999999100831MD1210251+9999REMSYN094AAXX  28004 47095 32975 00702 11058 21131 30083 40282 52025 69962 333 21097 3/103 43000 70024;
0173470950999992000022803004+38080+127820FM-12+013599999V0200201N002112200019N0250001N1-00311-01501102891ADDAA199000091GA1001+999999999GF100991001001999999001001MA1999999100911MD1210091+9999REMSYN060AAXX  28034 47095 32975 00204 11031 21150 30091 40289 52009;EQDQ01  00002PRCP99
0173470950999992000022806004+38080+127820FM-12+013599999V0203601N003612200019N0250001N1-00071-01291102761ADDAA199000091GA1001+999999999GF100991001001999999001001MA1999999100811MD1810111+9999REMSYN060AAXX  28064 47095 32975 03607 11007 21129 30081 40276 58011;EQDQ01  00002PRCP99
0173470950999992000022809004+38080+127820FM-12+013599999V0202901N002112200019N0220001N1-00231-01651102841ADDAA199000091GA1001+999999999GF100991001001999999001001MA1999999100871MD1210061+9999REMSYN060AAXX  28094 47095 32972 02904 11023 21165 30087 40284 52006;EQDQ01  00002PRCP99
0213470950999992000022812004+38080+127820FM-12+013599999V0201101N002112200019N0200001N1-00571-01351103021ADDAA124000791GA1001+999999999GF100991001001999999001001IA1149IA2999-00209KA1120M-00031MA1999999101021MD1210151+9999REMSYN088AAXX  28124 47095 32970 01104 11057 21135 30102 40302 52015 333 11003 34102 55102 79999;
0173470950999992000022815004+38080+127820FM-12+013599999V0209999C000012200019N0180001N1-00861-01231103141ADDAA199000091GA1001+999999999GF100991001001999999001001MA1999999101121MD1210101+9999REMSYN060AAXX  28154 47095 32968 00000 11086 21123 30112 40314 52010;EQDQ01  00002PRCP99
0131470950999992000022818004+38080+127820FM-12+013599999V0209999C000019999999N9999999N1-01061-01281103171ADDAA199000091MA1999999101131MD1310011+9999REMSYN060AAXX  28184 47095 3//// /0000 11106 21128 30113 40317 53001;EQDQ01  00002PRCP99
0173470950999992000022821004+38080+127820FM-12+013599999V0200201N001012200019N0180001N1-01211-01381103181ADDAA199000091GA1001+999999999GF100991001001999999001001MA1999999101131MD1010001+9999REMSYN060AAXX  28214 47095 32968 00202 11121 21138 30113 40318 50000;EQDQ01  00002PRCP99
0220470950999992000022900004+38080+127820FM-12+013599999V0209999C000012200019N0220001N1-00791-01231103281ADDAA199000091GA1001+999999999GF100991001001999999001001IA1149IA2999-00409KA1120N-01251MA1999999101261MD1210131+9999REMSYN076AAXX  29004 47095 32972 00000 11079 21123 30126 40328 52013 333 21125 34104;EQDQ01  00002PRCP99
0173470950999992000022903004+38080+127820FM-12+013599999V0202301N000512200019N0220001N1-00021-01611103131ADDAA199000091GA1001+999999999GF100991001001999999001001MA1999999101171MD1710091+9999REMSYN060AAXX  29034 47095 32972 02301 11002 21161 30117 40313 57009;EQDQ01  00002PRCP99
0173470950999992000022906004+38080+127820FM-12+013599999V0202701N004112200019N0200001N1+00281-01321102851ADDAA199000091GA1001+999999999GF100991001001999999001001MA1999999100921MD1710261+9999REMSYN060AAXX  29064 47095 32970 02708 10028 21132 30092 40285 57026;EQDQ01  00002PRCP99
0173470950999992000022909004+38080+127820FM-12+013599999V0202301N004612200019N0180001N1+00161-01231102811ADDAA199000091GA1001+999999999GF100991001001999999001001MA1999999100871MD1810051+9999REMSYN060AAXX  29094 47095 32968 02309 10016 21123 30087 40281 58005;EQDQ01  00002PRCP99
0226470950999992000022912004+38080+127820FM-12+013599999V0201801N002112200019N0180001N1-00151-00661103001ADDAA199000091GA1001+999999999GF100991001001999999001001IA1019IA2999+00009KA1120M+00381MA1999999101031MD1210161+9999REMSYN082AAXX  29124 47095 32968 01804 11015 21066 30103 40300 52016 333 10038 30100 55101;EQDQ01  00002PRCP99
0173470950999992000022915004+38080+127820FM-12+013599999V0201801N000512200019N0180001N1-00261-00581103051ADDAA199000091GA1001+999999999GF100991001001999999001001MA1999999101081MD1210051+9999REMSYN060AAXX  29154 47095 32968 01801 11026 21058 30108 40305 52005;EQDQ01  00002PRCP99
0163470950999992000022921004+38080+127820FM-12+013599999V0209999C000019999999N0150001N1-00281-00431103071ADDAA199000091GF105991051051999999001001MA1999999101091MD1810021+9999REMSYN066AAXX  29214 47095 32965 50000 11028 21043 30109 40307 58002 85500;EQDQ01  00002PRCP99
0204470950999992000030100004+38080+127820FM-12+013599999V0209999C000012200019N0100001N1-00071-00411103121ADDAA199000091GF102991999999999999999999IA1019IA2999+00009KA1120N-00471MA1999999101161MD1010071+9999REMSYN076AAXX  01004 47095 32960 20000 11007 21041 30116 40312 50007 333 21047 30000;EQDQ01  00002PRCP99
0173470950999992000030106004+38080+127820FM-12+013599999V0201801N002612200019N0100001N1+00631-00451102741ADDAA199000091GA1001+999999999GF100991001001999999001001MA1999999100841MD1710241+9999REMSYN060AAXX  01064 47095 32960 01805 10063 21045 30084 40274 57024;EQDQ01  00002PRCP99
0173470950999992000030109004+38080+127820FM-12+013599999V0202001N003112200019N0100001N1+00461-00281102661ADDAA199000091GA1001+999999999GF100991001001999999001001MA1999999100741MD1710101+9999REMSYN060AAXX  01094 47095 32960 02006 10046 21028 30074 40266 57010;EQDQ01  00002PRCP99
0254470950999992000030112004+38080+127820FM-12+013599999V0202001N001012200019N0080001N1+00131-00141102781ADDAA199000091AY101061AY201061GA1001+999999999GF100991001001999999001001IA1019IA2999+00009KA1120M+00691MA1999999100841MD1210101+9999MW1101REMSYN088AAXX  01124 47095 31958 02002 10013 21014 30084 40278 52010 71000 333 10069 30000 55085;EQDQ01  00002PRCP99
0163470950999992000030115004+38080+127820FM-12+013599999V0202001N002110120019N0060001N1+00191-00061102811ADDAA199000091GF107991071051012501001001MA1999999100881MD1310041+9999REMSYN066AAXX  01154 47095 31656 72004 10019 21006 30088 40281 53004 87500;EQDQ01  00002PRCP99
0191470950999992000030118004+38080+127820FM-12+013599999V0209999C000010120019N0050001N1+00141-00061102781ADDAA199000091AY121061AY221061GF107991071051012501001001MA1999999100841MD1510041+9999MW1101REMSYN072AAXX  01184 47095 31650 70000 10014 21006 30084 40278 55004 71022 87500;EQDQ01  00002PRCP99
0191470950999992000030121004+38080+127820FM-12+013599999V0209999C000010120019N0030001N1+00071-00051102841ADDAA199000091AY121031AY221031GF107991071051012501001001MA1999999100891MD1010051+9999MW1101REMSYN072AAXX  01214 47095 31630 70000 10007 21005 30089 40284 50005 71022 87500;EQDQ01  00002PRCP99
0238470950999992000030200004+38080+127820FM-12+013599999V0209999C000010075019N0040001N1+00221+00051102921ADDAA199000091AY121061AY221061GF107991071061008001001001IA1019IA2999+00009KA1120N+00051MA1999999100981MD1210081+9999MW1101REMSYN088AAXX  02004 47095 32540 70000 10022 20005 30098 40292 52008 71022 87600 333 20005 30000;EQDQ01  00002PRCP99
0191470950999992000030203004+38080+127820FM-12+013599999V0202501N002112200019N0080001N1+00681-00101102741ADDAA199000091AY111031AY201031GF102991021051008001001001MA1999999100841MD1710141+9999MW1101REMSYN072AAXX  02034 47095 32558 22504 10068 21010 30084 40274 57014 71010 82500;EQDQ01  00002PRCP99
0201470950999992000030206004+38080+127820FM-12+013599999V0203201N001012200019N0080001N1+00991+00021102531ADDAA199000091AY101061AY201061GA1001+999999999GF100991001001999999001001MA1999999100651MD1710191+9999MW1101REMSYN066AAXX  02064 47095 32958 03202 10099 20002 30065 40253 57019 71000;EQDQ01  00002PRCP99
0201470950999992000030209004+38080+127820FM-12+013599999V0202001N003112200019N0080001N1+00791-00051102511ADDAA199000091AY101031AY201031GA1001+999999999GF100991001001999999001001MA1999999100621MD1810041+9999MW1101REMSYN066AAXX  02094 47095 32958 02006 10079 21005 30062 40251 58004 71000;EQDQ01  00002PRCP99
0254470950999992000030212004+38080+127820FM-12+013599999V0209999C000012200019N0080001N1+00041-00121102661ADDAA199000091AY101061AY201061GA1001+999999999GF100991001001999999001001IA1019IA2999+00009KA1120M+01051MA1999999100721MD1210101+9999MW1101REMSYN088AAXX  02124 47095 31958 00000 10004 21012 30072 40266 52010 71000 333 10105 30000 55073;EQDQ01  00002PRCP99
0201470950999992000030215004+38080+127820FM-12+013599999V0200501N001012200019N0060001N1-00161-00211102701ADDAA199000091AY101031AY201031GA1001+999999999GF100991001001999999001001MA1999999100741MD1310021+9999MW1101REMSYN066AAXX  02154 47095 31956 00502 11016 21021 30074 40270 53002 71000;EQDQ01  00002PRCP99
0201470950999992000030218004+38080+127820FM-12+013599999V0209999C000012200019N0030001N1-00291-00311102641ADDAA199000091AY101061AY201061GA1001+999999999GF100991001001999999001001MA1999999100671MD1710071+9999MW1101REMSYN066AAXX  02184 47095 31930 00000 11029 21031 30067 40264 57007 71000;EQDQ01  00002PRCP99
0201470950999992000030221004+38080+127820FM-12+013599999V0209999C000012200019N0025001N1-00341-00371102641ADDAA199000091AY101031AY201031GA1001+999999999GF100991001001999999001001MA1999999100671MD1010011+9999MW1101REMSYN066AAXX  02214 47095 31925 00000 11034 21037 30067 40264 50001 71000;EQDQ01  00002PRCP99
0248470950999992000030300004+38080+127820FM-12+013599999V0209999C000012200019N0035001N1-00071-00131102551ADDAA199000091AY101061AY211061GA1001+999999999GF100991001001999999001001IA1019IA2999+00009KA1120N-00421MA1999999100601MD1810071+9999MW1101REMSYN082AAXX  03004 47095 31935 00000 11007 21013 30060 40255 58007 71001 333 21042 30000;EQDQ01  00002PRCP99
0179470950999992000030303004+38080+127820FM-12+013599999V0200501N000512200019N0100001N1+01072-00061102211ADDAA199000091GF102991001001999999001011MA1999999100341MD1710251+9999REMSYN066AAXX  03034 47095 32960 20501 10107 21006 30034 40221 57025 80001;EQDQ01+001073ATOT  Q02  00002PRCP99
0163470950999992000030306004+38080+127820FM-12+013599999V0202501N004619999999N0120001N1+01471-00711101861ADDAA199000091GF105991001001999999001051MA1999999100041MD1710311+9999REMSYN066AAXX  03064 47095 32962 52509 10147 21071 30004 40186 57031 80005;EQDQ01  00002PRCP99
0163470950999992000030309004+38080+127820FM-12+013599999V0202301N002119999999N0120001N1+01161-00781101761ADDAA199000091GF106991001001999999001061MA1999999099921MD1710121+9999REMSYN066AAXX  03094 47095 32962 62304 10116 21078 39992 40176 57012 80006;EQDQ01  00002PRCP99
0197470950999992000030312004+38080+127820FM-12+013599999V0200501N001519999999N0100001N1+00351-00381101841ADDAA112000791GF106991999999999999999999IA1019IA2999+00009KA1120M+01511MA1999999099941MD1310021+9999REMSYN088AAXX  03124 47095 32960 60503 10035 21038 39994 40184 53002 69902 333 10151 30100 55091;
0163470950999992000030315004+38080+127820FM-12+013599999V0200201N000510360019N0100001N1+00121-00301101841ADDAA199000091GF108991021051012501011999MA1999999099921MD1510021+9999REMSYN066AAXX  03154 47095 32660 80201 10012 21030 39992 40184 55002 8251/;EQDQ01  00002PRCP99
0173470950999992000030318004+38080+127820FM-12+013599999V0209999C000012200019N0120001N1-00011-00281101751ADDAA199000091GA1001+999999999GF100991001001999999001001MA1999999099821MD1710101+9999REMSYN060AAXX  03184 47095 32962 00000 11001 21028 39982 40175 57010;EQDQ01  00002PRCP99
0163470950999992000030321004+38080+127820FM-12+013599999V0209999C000012200019N0100001N1-00231-00371101771ADDAA199000091GF103991001001999999001011MA1999999099821MD1010001+9999REMSYN066AAXX  03214 47095 32960 30000 11023 21037 39982 40177 50000 80001;EQDQ01  00002PRCP99
0220470950999992000030400004+38080+127820FM-12+013599999V0200201N000512200019N0100001N1+00141-00341101781ADDAA199000091GA1001+999999999GF100991001001999999001001IA1019IA2999+00009KA1120N-00291MA1999999099861MD1010031+9999REMSYN076AAXX  04004 47095 32960 00201 10014 21034 39986 40178 50003 333 21029 30000;EQDQ01  00002PRCP99
0163470950999992000030403004+38080+127820FM-12+013599999V0202901N001012200019N0120001N1+01021-00451101521ADDAA199000091GF103991001001999999001011MA1999999099661MD1710191+9999REMSYN066AAXX  04034 47095 32962 32902 10102 21045 39966 40152 57019 80001;EQDQ01  00002PRCP99
0163470950999992000030406004+38080+127820FM-12+013599999V0202701N004112200019N0120001N1+01211-00261101371ADDAA199000091GF104991001001999999001021MA1999999099531MD1710131+9999REMSYN066AAXX  04064 47095 32962 42708 10121 21026 39953 40137 57013 80002;EQDQ01  00002PRCP99
0189470950999992000030409004+38080+127820FM-12+013599999V0202701N002612200019N0120001N1+00961-00351101381ADDAA199000091GA1001+999999999GF100991001001999999001001MA1999999099531MD1710011+9999REMSYN060AAXX  04094 47095 32962 02705 10096 21035 39953 40138 57000;EQDQ01+000002APC3  Q02  00002PRCP99
0226470950999992000030412004+38080+127820FM-12+013599999V0201101N001512200019N0140001N1+00201-00311101711ADDAA199000091GA1001+999999999GF100991001001999999001001IA1019IA2999+00009KA1120M+01271MA1999999099791MD1210261+9999REMSYN082AAXX  04124 47095 32964 01103 10020 21031 39979 40171 52026 333 10127 30000 55095;EQDQ01  00002PRCP99
0173470950999992000030415004+38080+127820FM-12+013599999V0200201N001512200019N0150001N1-00051-00251101861ADDAA199000091GA1001+999999999GF100991001001999999001001MA1999999099931MD1310131+9999REMSYN060AAXX  04154 47095 32965 00203 11005 21025 39993 40186 53013;EQDQ01  00002PRCP99
0201470950999992000030418004+38080+127820FM-12+013599999V0209999C000012200019N0080001N1-00261-00341101831ADDAA199000091AY101061AY201061GA1001+999999999GF100991001001999999001001MA1999999099881MD1710051+9999MW1101REMSYN066AAXX  04184 47095 31958 00200 11026 21034 39988 40183 57005 71000;EQDQ01  00002PRCP99
0201470950999992000030421004+38080+127820FM-12+013599999V0209999C000012200019N0060001N1-00401-00451101871ADDAA199000091AY101031AY201031GA1001+999999999GF100991001001999999001001MA1999999099901MD1010031+9999MW1101REMSYN066AAXX  04214 47095 31956 00000 11040 21045 39990 40187 50003 71000;EQDQ01  00002PRCP99
0238470950999992000030500004+38080+127820FM-12+013599999V0209999C000010075019N0060001N1-00131-00251101851ADDAA199000091AY121061AY201061GF108991061061008001999999IA1019IA2999+00009KA1120N-00421MA1999999099911MD1010001+9999MW1101REMSYN088AAXX  05004 47095 31556 80000 11013 21025 39991 40185 50000 71020 866// 333 21042 30000;EQDQ01  00002PRCP99
0163470950999992000030503004+38080+127820FM-12+013599999V0200201N000519999999N0120001N1+00601-00371101671ADDAA199000091GF105991001001999999001021MA1999999099781MD1710121+9999REMSYN066AAXX  05034 47095 32962 50201 10060 21037 39978 40167 57012 80002;EQDQ01  00002PRCP99
0163470950999992000030506004+38080+127820FM-12+013599999V0202901N001019999999N0120001N1+00941-00581101391ADDAA199000091GF107991001001999999001051MA1999999099541MD1710251+9999REMSYN066AAXX  05064 47095 32962 72902 10094 21058 39954 40139 57025 80005;EQDQ01  00002PRCP99
0163470950999992000030509004+38080+127820FM-12+013599999V0202901N001012200019N0140001N1+00731-00871101371ADDAA199000091GF103991001001999999001011MA1999999099501MD1710031+9999REMSYN066AAXX  05094 47095 32964 32902 10073 21087 39950 40137 57003 80001;EQDQ01  00002PRCP99
0226470950999992000030512004+38080+127820FM-12+013599999V0200701N000512200019N0140001N1-00111-00451101521ADDAA199000091GA1001+999999999GF100991001001999999001001IA1019IA2999+00009KA1120M+00971MA1999999099591MD1210091+9999REMSYN082AAXX  05124 47095 32964 00701 11011 21045 39959 40152 52009 333 10097 30000 55041;EQDQ01  00002PRCP99
0173470950999992000030515004+38080+127820FM-12+013599999V0201101N000512200019N0150001N1-00221-00451101641ADDAA199000091GA1001+999999999GF100991001001999999001001MA1999999099691MD1210101+9999REMSYN060AAXX  05154 47095 32965 01101 11022 21045 39969 40164 52010;EQDQ01  00002PRCP99
0173470950999992000030518004+38080+127820FM-12+013599999V0200501N000512200019N0150001N1-00371-00471101561ADDAA199000091GA1001+999999999GF100991001001999999001001MA1999999099601MD1710091+9999REMSYN060AAXX  05184 47095 32965 00501 11037 21047 39960 40156 57009;EQDQ01  00002PRCP99
0173470950999992000030521004+38080+127820FM-12+013599999V0203601N000512200019N0120001N1-00511-00581101541ADDAA199000091GA1001+999999999GF100991001001999999001001MA1999999099571MD1810031+9999REMSYN060AAXX  05214 47095 32962 03601 11051 21058 39957 40154 58003;EQDQ01  00002PRCP99
0220470950999992000030600004+38080+127820FM-12+013599999V0200701N001012200019N0180001N1-00041-00411101491ADDAA199000091GA1001+999999999GF100991001001999999001001IA1019IA2999+00009KA1120N-00541MA1999999099561MD1710011+9999REMSYN076AAXX  06004 47095 32968 00702 11004 21041 39956 40149 57001 333 21054 30000;EQDQ01  00002PRCP99
0161470950999992000030603004+38080+127820FM-12+013599999V0202301N005719999999N0050001N1+00441-00311101311ADDAY171031AY221031GF108991031071008001999999MA1999999099421MD1710141+9999MW1701REMSYN072AAXX  06034 47095 41550 82311 10044 21031 39942 40131 57014 77072 837//;
0161470950999992000030606004+38080+127820FM-12+013599999V0202701N004610042019N0030001N1+00231+00081101291ADDAY171061AY271061GF108991061071004501999999MA1999999099381MD1210031+9999MW1681REMSYN072AAXX  06064 47095 41430 82709 10023 20008 39938 40129 52003 76877 867//;
0190470950999992000030609004+38080+127820FM-12+013599999V0202701N004112200019N0220001N1+00251-01852101391ADDAY171031AY221031GA1001+999999999GF100991001001999999001001MA1999999099491MD1210101+9999MW1001REMSYN066AAXX  06094 47095 41972 02708 10025 21185 39949 40139 52010 70072;EQDQ01-001853ATOD  
0219470950999992000030612004+38080+127820FM-12+013599999V0202501N004112200019N0150001N1-00161-01381101761ADDAA112002091GA1001+999999999GF100991001001999999001001IA1149IA2999-00109KA1120M+00561MA1999999099821MD1210331+9999REMSYN094AAXX  06124 47095 12965 02508 11016 21138 39982 40176 52033 60022 333 10056 34101 55064 70024;
0154470950999992000030615004+38080+127820FM-12+013599999V0202501N003112200019N0150001N1-00301-01881102001ADDAA199000021GA1001+999999999GF100991001001999999001001MA1999999100041MD1210221+9999REMSYN060AAXX  06154 47095 32965 02506 11030 21188 30004 40200 52022;
0154470950999992000030618004+38080+127820FM-12+013599999V0202301N003112200019N0150001N1-00391-01921102131ADDAA199000021GA1001+999999999GF100991001001999999001001MA1999999100161MD1210121+9999REMSYN060AAXX  06184 47095 32965 02306 11039 21192 30016 40213 52012;
0173470950999992000030621004+38080+127820FM-12+013599999V0202301N003112200019N0150001N1-00451-01781102171ADDAA199000091GA1001+999999999GF100991001001999999001001MA1999999100191MD1010031+9999REMSYN060AAXX  06214 47095 32965 02306 11045 21178 30019 40217 50003;EQDQ01  00002PRCP99
0235470950999992000030700004+38080+127820FM-12+013599999V0202901N004112200019N0060001N1-00401-01991102281ADDAA124002391AY101061AY201061GA1001+999999999GF100991001001999999001001IA1149IA2999+00009KA1120N-00511MA1999999100311MD1210121+9999MW1051REMSYN088AAXX  07004 47095 31956 02908 11040 21199 30031 40228 52012 70500 333 21051 34100 70024;
0201470950999992000030703004+38080+127820FM-12+013599999V0202501N003612200019N0080001N1-00111-01791102071ADDAA199000091AY101031AY201031GA1001+999999999GF100991001001999999001001MA1999999100121MD1710191+9999MW1061REMSYN066AAXX  07034 47095 31958 02507 11011 21179 30012 40207 57019 70600;EQDQ01  00002PRCP99
0173470950999992000030706004+38080+127820FM-12+013599999V0202901N003612200019N0120001N1+00081-01901101851ADDAA199000091GA1001+999999999GF100991001001999999001001MA1999999099921MD1710201+9999REMSYN060AAXX  07064 47095 32962 02907 10008 21190 39992 40185 57020;EQDQ01  00002PRCP99
0173470950999992000030709004+38080+127820FM-12+013599999V0202501N005112200019N0200001N1-00151-01771101861ADDAA199000091GA1001+999999999GF100991001001999999001001MA1999999099911MD1810011+9999REMSYN060AAXX  07094 47095 32970 02510 11015 21177 39991 40186 58001;EQDQ01  00002PRCP99
0226470950999992000030712004+38080+127820FM-12+013599999V0202701N002612200019N0180001N1-00471-01661102121ADDAA199000091GA1001+999999999GF100991001001999999001001IA1149IA2999-00109KA1120M+00151MA1999999100151MD1210231+9999REMSYN082AAXX  07124 47095 32968 02705 11047 21166 30015 40212 52023 333 10015 34101 55098;EQDQ01  00002PRCP99
0173470950999992000030715004+38080+127820FM-12+013599999V0202501N002612200019N0180001N1-00651-01551102191ADDAA199000091GA1001+999999999GF100991001001999999001001MA1999999100201MD1210061+9999REMSYN060AAXX  07154 47095 32968 02505 11065 21155 30020 40219 52006;EQDQ01  00002PRCP99
0163470950999992000030718004+38080+127820FM-12+013599999V0202001N002112200019N0150001N1-00711-01441102191ADDAA199000091GF102991001001999999001011MA1999999100191MD1710011+9999REMSYN066AAXX  07184 47095 32965 22004 11071 21144 30019 40219 57001 80001;EQDQ01  00002PRCP99
0163470950999992000030721004+38080+127820FM-12+013599999V0202001N001512200019N0150001N1-00681-01471102151ADDAA199000091GF103991001001999999001011MA1999999100161MD1710031+9999REMSYN066AAXX  07214 47095 32965 32003 11068 21147 30016 40215 57003 80001;EQDQ01  00002PRCP99
0220470950999992000030800004+38080+127820FM-12+013599999V0202001N002112200019N0180001N1-00331-01511102091ADDAA199000091GA1001+999999999GF100991001001999999001001IA1019IA2999-00109KA1120N-00881MA1999999100131MD1710041+9999REMSYN076AAXX  08004 47095 32968 02004 11033 21151 30013 40209 57004 333 21088 30101;EQDQ01  00002PRCP99
0161470950999992000030803004+38080+127820FM-12+013599999V0202301N004610120019N0080001N1-00111-00861101991ADDAY171031AY221031GF108991081071012501999999MA1999999100041MD1710091+9999MW1701REMSYN072AAXX  08034 47095 41658 82309 11011 21086 30004 40199 57009 77072 887//;
0161470950999992000030806004+38080+127820FM-12+013599999V0202701N003112200019N0140001N1+00081-00821101841ADDAY171061AY221061GF104991041051008001001001MA1999999099911MD1710131+9999MW1221REMSYN072AAXX  08064 47095 41564 42706 10008 21082 39991 40184 57013 72272 84500;
0143470950999992000030809004+38080+127820FM-12+013599999V0202701N004112200019N0200001N1-00041-01421101861ADDGA1001+999999999GF100991001001999999001001MA1999999099931MD1810021+9999REMSYN060AAXX  08094 47095 42970 02708 11004 21142 39993 40186 58002;
0219470950999992000030812004+38080+127820FM-12+013599999V0202501N003112200019N0200001N1-00271-01481102111ADDAA112000791GA1001+999999999GF100991001001999999001001IA1149IA2999-00109KA1120M+00231MA1999999100151MD1210221+9999REMSYN094AAXX  08124 47095 12970 02506 11027 21148 30015 40211 52022 69902 333 10023 34101 55062 79999;
0143470950999992000030815004+38080+127820FM-12+013599999V0202001N001512200019N0200001N1-00361-01621102361ADDGA1001+999999999GF100991001001999999001001MA1999999100391MD1210241+9999REMSYN060AAXX  08154 47095 42970 02003 11036 21162 30039 40236 52024;
0154470950999992000030818004+38080+127820FM-12+013599999V0209999C000012200019N0200001N1-00731-01301102601ADDAA199000021GA1001+999999999GF100991001001999999001001MA1999999100601MD1210211+9999REMSYN060AAXX  08184 47095 32970 00000 11073 21130 30060 40260 52021;
0173470950999992000030821004+38080+127820FM-12+013599999V0202301N001012200019N0200001N1-00861-01301102611ADDAA199000091GA1001+999999999GF100991001001999999001001MA1999999100601MD1010001+9999REMSYN060AAXX  08214 47095 32970 02302 11086 21130 30060 40261 50000;EQDQ01  00002PRCP99
0207470950999992000030900004+38080+127820FM-12+013599999V0202001N003112200019N0250001N1-00171-01471102721ADDAA124000791GA1001+999999999GF100991001001999999001001IA1149IA2999-00109KA1120N-00891MA1999999100751MD1210151+9999REMSYN082AAXX  09004 47095 32975 02006 11017 21147 30075 40272 52015 333 21089 34101 79999;
0173470950999992000030903004+38080+127820FM-12+013599999V0202501N005712200019N0250001N1+00261-01651102631ADDAA199000091GA1001+999999999GF100991001001999999001001MA1999999100701MD1510061+9999REMSYN060AAXX  09034 47095 32975 02511 10026 21165 30070 40263 55006;EQDQ01  00002PRCP99
0173470950999992000030906004+38080+127820FM-12+013599999V0202701N005112200019N0250001N1+00431-01831102411ADDAA199000091GA1001+999999999GF100991001001999999001001MA1999999100491MD1710201+9999REMSYN060AAXX  09064 47095 32975 02710 10043 21183 30049 40241 57020;EQDQ01  00002PRCP99
0173470950999992000030909004+38080+127820FM-12+013599999V0202501N005112200019N0250001N1+00271-01571102471ADDAA199000091GA1001+999999999GF100991001001999999001001MA1999999100541MD1010051+9999REMSYN060AAXX  09094 47095 32975 02510 10027 21157 30054 40247 50005;EQDQ01  00002PRCP99
0226470950999992000030912004+38080+127820FM-12+013599999V0209999C000012200019N0200001N1-00051-01401102741ADDAA199000091GA1001+999999999GF100991001001999999001001IA1019IA2999+00009KA1120M+00491MA1999999100791MD1210251+9999REMSYN082AAXX  09124 47095 32970 00000 11005 21140 30079 40274 52025 333 10049 30100 55103;EQDQ01  00002PRCP99
0173470950999992000030915004+38080+127820FM-12+013599999V0201101N000512200019N0200001N1-00451-01021102901ADDAA199000091GA1001+999999999GF100991001001999999001001MA1999999100911MD1210121+9999REMSYN060AAXX  09154 47095 32970 01101 11045 21102 30091 40290 52012;EQDQ01  00002PRCP99
0173470950999992000030918004+38080+127820FM-12+013599999V0209999C000012200019N0200001N1-00701-01001102961ADDAA199000091GA1001+999999999GF100991001001999999001001MA1999999100951MD1310041+9999REMSYN060AAXX  09184 47095 32970 00000 11070 21100 30095 40296 53004;EQDQ01  00002PRCP99
0173470950999992000030921004+38080+127820FM-12+013599999V0209999C000012200019N0200001N1-00881-01081102911ADDAA199000091GA1001+999999999GF100991001001999999001001MA1999999100891MD1710051+9999REMSYN060AAXX  09214 47095 32970 00000 11088 21108 30089 40291 57005;EQDQ01  00002PRCP99
0220470950999992000031000004+38080+127820FM-12+013599999V0209999C000012200019N0200001N1-00321-00961102981ADDAA199000091GA1001+999999999GF100991001001999999001001IA1019IA2999+00009KA1120N-00961MA1999999101001MD1210111+9999REMSYN076AAXX  10004 47095 32970 00000 11032 21096 30100 40298 52011 333 21096 30100;EQDQ01  00002PRCP99
0163470950999992000031003004+38080+127820FM-12+013599999V0202001N003112200019N0200001N1+00541-01261102691ADDAA199000091GF101991001001999999001011MA1999999100781MD1710221+9999REMSYN066AAXX  10034 47095 32970 12006 10054 21126 30078 40269 57022 80001;EQDQ01  00002PRCP99
0173470950999992000031006004+38080+127820FM-12+013599999V0202301N006212200019N0180001N1+00831-00781102331ADDAA199000091GA1001+999999999GF100991001001999999001001MA1999999100451MD1710331+9999REMSYN060AAXX  10064 47095 32968 02312 10083 21078 30045 40233 57033;EQDQ01  00002PRCP99
0163470950999992000031009004+38080+127820FM-12+013599999V0202301N005112200019N0180001N1+00541-00241102241ADDAA199000091GF102991001001999999001041MA1999999100331MD1710111+9999REMSYN066AAXX  10094 47095 32968 22310 10054 21024 30033 40224 57011 80004;EQDQ01  00002PRCP99
0216470950999992000031012004+38080+127820FM-12+013599999V0202001N000519999999N0150001N1+00221-00151102351ADDAA199000091GF108991001001999999001011IA1019IA2999+00009KA1120M+00871MA1999999100421MD1310091+9999REMSYN088AAXX  10124 47095 32965 82001 10022 21015 30042 40235 53009 80001 333 10087 30000 55102;EQDQ01  00002PRCP99
0163470950999992000031015004+38080+127820FM-12+013599999V0202301N001010360019N0120001N1+00191-00051102351ADDAA199000091GF108991021051012501011999MA1999999100421MD1510001+9999REMSYN066AAXX  10154 47095 32662 82302 10019 21005 30042 40235 55000 8251/;EQDQ01  00002PRCP99
0191470950999992000031018004+38080+127820FM-12+013599999V0203201N000510360019N0080001N1+00031-00081102331ADDAA199000091AY121061AY221061GF108991041051012501011999MA1999999100391MD1710041+9999MW1101REMSYN072AAXX  10184 47095 31658 83201 10003 21008 30039 40233 57004 71022 8451/;EQDQ01  00002PRCP99
0191470950999992000031021004+38080+127820FM-12+013599999V0200201N000512200019N0030001N1-00071-00121102141ADDAA199000091AY121031AY221031GF106991021051012501001011MA1999999100191MD1710191+9999MW1101REMSYN072AAXX  10214 47095 31630 60201 11007 21012 30019 40214 57019 71022 82501;EQDQ01  00002PRCP99
0238470950999992000031100004+38080+127820FM-12+013599999V0200201N000510075019N0050001N1+00101-00021102091ADDAA199000091AY121061AY221061GF108991081061008001999999IA1019IA2999+00009KA1120N-00091MA1999999100151MD1710041+9999MW1101REMSYN088AAXX  11004 47095 31550 80201 10010 21002 30015 40209 57004 71022 886// 333 21009 30000;EQDQ01  00002PRCP99
0191470950999992000031103004+38080+127820FM-12+013599999V0209999C000010042019N0030001N1+00341+00021101891ADDAA199000091AY121031AY221031GF108991081061004501999999MA1999999099991MD1710171+9999MW1101REMSYN072AAXX  11034 47095 31430 80000 10034 20002 39999 40189 57017 71022 886//;EQDQ01  00002PRCP99
0191470950999992000031106004+38080+127820FM-12+013599999V0202001N002610042019N0030001N1+00501+00241101621ADDAA199000091AY121061AY221061GF108991081061004501999999MA1999999099731MD1710261+9999MW1101REMSYN072AAXX  11064 47095 31430 82005 10050 20024 39973 40162 57026 71022 886//;EQDQ01  00002PRCP99
0191470950999992000031109004+38080+127820FM-12+013599999V0202001N002610042019N0030001N1+00471+00221101491ADDAA199000091AY121031AY221031GF108991081061004501999999MA1999999099591MD1710131+9999MW1101REMSYN072AAXX  11094 47095 31430 82005 10047 20022 39959 40149 57013 71022 886//;EQDQ01  00002PRCP99
0244470950999992000031112004+38080+127820FM-12+013599999V0209999C000010360019N0020001N1+00241+00141101551ADDAA199000091AY121061AY221061GF106991041061004501011001IA1019IA2999+00009KA1120M+00571MA1999999099641MD1510051+9999MW1101REMSYN094AAXX  11124 47095 32420 60000 10024 20014 39964 40155 55005 71022 84610 333 10057 30000 55000;EQDQ01  00002PRCP99
0191470950999992000031115004+38080+127820FM-12+013599999V0209999C000010360019N0020001N1+00041-00021101591ADDAA199000091AY121031AY221031GF108991041051012501011999MA1999999099671MD1310021+9999MW1101REMSYN072AAXX  11154 47095 32620 80000 10004 21002 39967 40159 53002 71022 8451/;EQDQ01  00002PRCP99
0165470950999992000031118004+38080+127820FM-12+013599999V0209999C000019999999N0004001N1-00121-00131101591ADDAA199000091AY141061AY241061MA1999999099651MD1710021+9999MW1471REMSYN072AAXX  11184 47095 31/04 /0000 11012 21013 39965 40159 57002 74744 8////;EQDQ01  00002PRCP99
0207470950999992000031121004+38080+127820FM-12+013599999V0201101N001010012019N0020001N1-00011-00011101621ADDAA199000091AY141031AY241031GA1091+999999999GF109991091999999999999999MA1999999099691MD1010041+9999MW1451REMSYN072AAXX  11214 47095 31/20 91102 11001 21001 39969 40162 50004 74544 8////;EQDQ01  00002PRCP99
0248470950999992000031200004+38080+127820FM-12+013599999V0202001N000510001519N0001001N1+00081+00081101651ADDAA199000091AY141061AY241061GA1091+999999999GF109991091999999999999999IA1019IA2999+00009KA1120N-00141MA1999999099731MD1210041+9999MW1451REMSYN082AAXX  12004 47095 31/01 92001 10008 20008 39973 40165 52004 74544 333 21014 30000;EQDQ01  00002PRCP99
0201470950999992000031203004+38080+127820FM-12+013599999V0202001N003112200019N0060001N1+00721+00001101461ADDAA199000091AY101031AY201031GA1001+999999999GF100991001001999999001001MA1999999099581MD1710151+9999MW1101REMSYN066AAXX  12034 47095 31956 02006 10072 21000 39958 40146 57015 71000;EQDQ01  00002PRCP99
0201470950999992000031206004+38080+127820FM-12+013599999V0202501N004612200019N0080001N1+01021-00351101291ADDAA199000091AY101061AY201061GA1001+999999999GF100991001001999999001001MA1999999099441MD1710141+9999MW1101REMSYN066AAXX  12064 47095 31958 02509 10102 21035 39944 40129 57014 71000;EQDQ01  00002PRCP99
0173470950999992000031209004+38080+127820FM-12+013599999V0202001N005712200019N0120001N1+00601-00431101411ADDAA199000091GA1001+999999999GF100991001001999999001001MA1999999099531MD1010091+9999REMSYN060AAXX  12094 47095 32962 02011 10060 21043 39953 40141 50009;EQDQ01  00002PRCP99
0254470950999992000031212004+38080+127820FM-12+013599999V0202001N002612200019N0080001N1+00071-00081101701ADDAA199000091AY101061AY201061GA1001+999999999GF100991001001999999001001IA1019IA2999+00009KA1120M+01021MA1999999099781MD1210251+9999MW1101REMSYN088AAXX  12124 47095 31958 02005 10007 21008 39978 40170 52025 71000 333 10102 30000 55075;EQDQ01  00002PRCP99
0201470950999992000031215004+38080+127820FM-12+013599999V0202001N003612200019N0080001N1-00041-00161101881ADDAA199000091AY101031AY201031GA1001+999999999GF100991001001999999001001MA1999999099941MD1210161+9999MW1101REMSYN066AAXX  12154 47095 31958 02007 11004 21016 39994 40188 52016 71000;EQDQ01  00002PRCP99
0201470950999992000031218004+38080+127820FM-12+013599999V0202501N001512200019N0050001N1-00221-00321102041ADDAA199000091AY101061AY201061GA1001+999999999GF100991001001999999001001MA1999999100091MD1210151+9999MW1101REMSYN066AAXX  12184 47095 31950 02503 11022 21032 30009 40204 52015 71000;EQDQ01  00002PRCP99
0201470950999992000031221004+38080+127820FM-12+013599999V0200501N000512200019N0060001N1-00451-00511102151ADDAA199000091AY101031AY201031GA1001+999999999GF100991001001999999001001MA1999999100181MD1210091+9999MW1101REMSYN066AAXX  12214 47095 31956 00501 11045 21051 30018 40215 52009 71000;EQDQ01  00002PRCP99
0248470950999992000031300004+38080+127820FM-12+013599999V0203601N000510003019N0002001N1-00291-00321102321ADDAA199000091AY141061AY241061GA1091+999999999GF109991091999999999999999IA2999+00009KA1120N-00551MA1999999100361MD1210181+9999MW1471REMSYN088AAXX  13004 47095 31/02 93601 11029 21032 30036 40232 52018 74744 8//// 333 21055 3/000;EQDQ01  00002PRCP99
0201470950999992000031303004+38080+127820FM-12+013599999V0201801N002112200019N0050001N1+00581-00681102231ADDAA199000091AY101031AY201031GA1001+999999999GF100991001001999999001001MA1999999100331MD1510031+9999MW1101REMSYN066AAXX  13034 47095 31950 01804 10058 21068 30033 40223 55003 71000;EQDQ01  00002PRCP99
0173470950999992000031306004+38080+127820FM-12+013599999V0202701N003112200019N0180001N1+00941-01261102011ADDAA199000091GA1001+999999999GF100991001001999999001001MA1999999100141MD1710191+9999REMSYN060AAXX  13064 47095 32968 02706 10094 21126 30014 40201 57019;EQDQ01  00002PRCP99
0163470950999992000031309004+38080+127820FM-12+013599999V0202901N003112200019N0220001N1+00861-01331102031ADDAA199000091GF101991001001999999001011MA1999999100151MD1810011+9999REMSYN066AAXX  13094 47095 32972 12906 10086 21133 30015 40203 58001 80001;EQDQ01  00002PRCP99
0210470950999992000031312004+38080+127820FM-12+013599999V0202301N004612200019N0200001N1+00381-00951102271ADDAA199000091GF102991999999999999999999IA1019IA2999+00009KA1120M+01051MA1999999100361MD1210211+9999REMSYN082AAXX  13124 47095 32970 22309 10038 21095 30036 40227 52021 333 10105 30000 55080;EQDQ01  00002PRCP99
0163470950999992000031315004+38080+127820FM-12+013599999V0209999C000019999999N0180001N1-00011-00791102361ADDAA199000091GF106991001001999999001011MA1999999100421MD1210061+9999REMSYN066AAXX  13154 47095 32968 60000 11001 21079 30042 40236 52006 80001;EQDQ01  00002PRCP99
0163470950999992000031318004+38080+127820FM-12+013599999V0200501N001012200019N0180001N1-00291-00561102411ADDAA199000091GF102991001001999999001011MA1999999100451MD1210031+9999REMSYN066AAXX  13184 47095 32968 20502 11029 21056 30045 40241 52003 80001;EQDQ01  00002PRCP99
0163470950999992000031321004+38080+127820FM-12+013599999V0200501N001012200019N0200001N1-00461-00691102481ADDAA199000091GF103991001001999999001011MA1999999100501MD1010061+9999REMSYN066AAXX  13214 47095 32970 30502 11046 21069 30050 40248 50006 80001;EQDQ01  00002PRCP99
0220470950999992000031400004+38080+127820FM-12+013599999V0209999C000012200019N0200001N1+00141-00641102551ADDAA199000091GA1001+999999999GF100991001001999999001001IA1019IA2999+00109KA1120N-00551MA1999999100611MD1210101+9999REMSYN076AAXX  14004 47095 32970 00000 10014 21064 30061 40255 52010 333 21055 30001;EQDQ01  00002PRCP99
0173470950999992000031403004+38080+127820FM-12+013599999V0202001N002112200019N0220001N1+00781-01421102391ADDAA199000091GA1001+999999999GF100991001001999999001001MA1999999100511MD1710101+9999REMSYN060AAXX  14034 47095 32972 02004 10078 21142 30051 40239 57010;EQDQ01  00002PRCP99
0173470950999992000031406004+38080+127820FM-12+013599999V0202501N003112200019N0220001N1+01081-01641102161ADDAA199000091GA1001+999999999GF100991001001999999001001MA1999999100301MD1710211+9999REMSYN060AAXX  14064 47095 32972 02506 10108 21164 30030 40216 57021;EQDQ01  00002PRCP99
0163470950999992000031409004+38080+127820FM-12+013599999V0202901N002112200019N0220001N1+00881-01401102121ADDAA199000091GF101991001001999999001011MA1999999100251MD1810051+9999REMSYN066AAXX  14094 47095 32972 12904 10088 21140 30025 40212 58005 80001;EQDQ01  00002PRCP99
0226470950999992000031412004+38080+127820FM-12+013599999V0202001N001512200019N0200001N1+00451-00761102291ADDAA199000091GA1001+999999999GF100991001001999999001001IA1019IA2999+00009KA1120M+01121MA1999999100381MD1210131+9999REMSYN082AAXX  14124 47095 32970 02003 10045 21076 30038 40229 52013 333 10112 30000 55106;EQDQ01  00002PRCP99
0173470950999992000031415004+38080+127820FM-12+013599999V0200201N001512200019N0200001N1-00201-00591102351ADDAA199000091GA1001+999999999GF100991001001999999001001MA1999999100391MD1510021+9999REMSYN060AAXX  14154 47095 32970 00203 11020 21059 30039 40235 55002;EQDQ01  00002PRCP99
0173470950999992000031418004+38080+127820FM-12+013599999V0209999C000012200019N0150001N1-00321-00571102351ADDAA199000091GA1001+999999999GF100991001001999999001001MA1999999100381MD1010011+9999REMSYN060AAXX  14184 47095 32965 00000 11032 21057 30038 40235 50001;EQDQ01  00002PRCP99
0163470950999992000031421004+38080+127820FM-12+013599999V0202501N001012200019N0120001N1-00411-00551102211ADDAA199000091GF102991001001999999001011MA1999999100241MD1710141+9999REMSYN066AAXX  14214 47095 32962 22502 11041 21055 30024 40221 57014 80001;EQDQ01  00002PRCP99
0210470950999992000031500004+38080+127820FM-12+013599999V0209999C000019999999N0120001N1-00041-00461102131ADDAA199000091GF108991081001999999011999IA1019IA2999+00009KA1120N-00441MA1999999100191MD1710051+9999REMSYN082AAXX  15004 47095 32962 80000 11004 21046 30019 40213 57005 8801/ 333 21044 30000;EQDQ01  00002PRCP99
0163470950999992000031503004+38080+127820FM-12+013599999V0200201N000519999999N0120001N1+00851-00681101761ADDAA199000091GF108991051001999999011071MA1999999099881MD1710311+9999REMSYN066AAXX  15034 47095 32962 80201 10085 21068 39988 40176 57031 85017;EQDQ01  00002PRCP99
0163470950999992000031506004+38080+127820FM-12+013599999V0203401N004619999999N0120001N1+01191-00741101251ADDAA199000091GF108991061001999999011071MA1999999099411MD1710471+9999REMSYN066AAXX  15064 47095 32962 83409 10119 21074 39941 40125 57047 86017;EQDQ01  00002PRCP99
0163470950999992000031509004+38080+127820FM-12+013599999V0203601N001510360019N0120001N1+00861-00591101251ADDAA199000091GF108991021051012501021999MA1999999099391MD1710031+9999REMSYN066AAXX  15094 47095 32662 83603 10086 21059 39939 40125 57003 8252/;EQDQ01  00002PRCP99
0203470950999992000031512004+38080+127820FM-12+013599999V0203201N002610360019N0100001N1+00701-00381101131ADDAA112000791GF108991021051012501011999IA1019IA2999+00309KA1120M+01251MA1999999099261MD1710131+9999REMSYN094AAXX  15124 47095 32660 83205 10070 21038 39926 40113 57013 69902 8251/ 333 10125 30003 55001;
0163470950999992000031515004+38080+127820FM-12+013599999V0201401N001010360019N0100001N1+00561-00161100941ADDAA199000091GF108991021051012501011999MA1999999099061MD1710201+9999REMSYN066AAXX  15154 47095 32660 81402 10056 21016 39906 40094 57020 8251/;EQDQ01  00002PRCP99
0163470950999992000031518004+38080+127820FM-12+013599999V0209999C000010360019N0100001N1+00341-00101100751ADDAA199000091GF108991021051012501011999MA1999999098861MD1710201+9999REMSYN066AAXX  15184 47095 32660 80000 10034 21010 39886 40075 57020 8251/;EQDQ01  00002PRCP99
0161470950999992000031521004+38080+127820FM-12+013599999V0202001N002110075019N0100001N1+00251+00081100651ADDAY161031AY261031GF108991051071008001021999MA1999999098751MD1710111+9999MW1611REMSYN072AAXX  15214 47095 41560 82004 10025 20008 39875 40065 57011 76166 8572/;
0231470950999992000031600004+38080+127820FM-12+013599999V0202001N000510042019N0030001N1+00301+00161100711ADDAA112000191AY161061AY261061GF108991061071004501021999IA1099IA2999+00209KA1120N+00211MA1999999098821MD1210071+9999MW1601REMSYN100AAXX  16004 47095 11430 82001 10030 20016 39882 40071 52007 69922 76066 8672/ 333 20021 31002 70002;
0133470950999992000031603004+38080+127820FM-12+013599999V0202701N002610075019N0100001N1+00471-00011100801ADDGF107991051051008001021001MA1999999098921MD1210101+9999REMSYN066AAXX  16034 47095 42560 72705 10047 21001 39892 40080 52010 85520;
0144470950999992000031606004+38080+127820FM-12+013599999V0202901N002610075019N0120001N1+00671-00161100831ADDAA199000021GF106991061051008001001001MA1999999098961MD1210041+9999REMSYN066AAXX  16064 47095 32562 62905 10067 21016 39896 40083 52004 86500;
0133470950999992000031609004+38080+127820FM-12+013599999V0203401N001512200019N0150001N1+00721-00421100931ADDGF102991021051999999001001MA1999999099071MD1210111+9999REMSYN066AAXX  16094 47095 42965 23403 10072 21042 39907 40093 52011 82500;
0219470950999992000031612004+38080+127820FM-12+013599999V0209999C000012200019N0150001N1+00041-00311101251ADDAA112000791GA1001+999999999GF100991001001999999001001IA1149IA2999+00009KA1120M+00851MA1999999099331MD1210261+9999REMSYN094AAXX  16124 47095 12965 00900 10004 21031 39933 40125 52026 69902 333 10085 34000 55021 79999;
0173470950999992000031615004+38080+127820FM-12+013599999V0200201N000512200019N0150001N1-00241-00411101481ADDAA199000091GA1001+999999999GF100991001001999999001001MA1999999099531MD1210201+9999REMSYN060AAXX  16154 47095 32965 00201 11024 21041 39953 40148 52020;EQDQ01  00002PRCP99
0173470950999992000031618004+38080+127820FM-12+013599999V0209999C000012200019N0150001N1-00341-00451101641ADDAA199000091GA1001+999999999GF100991001001999999001001MA1999999099691MD1210161+9999REMSYN060AAXX  16184 47095 32965 00500 11034 21045 39969 40164 52016;EQDQ01  00002PRCP99
0173470950999992000031621004+38080+127820FM-12+013599999V0209999C000012200019N0150001N1-00451-00551101791ADDAA199000091GA1001+999999999GF100991001001999999001001MA1999999099821MD1210131+9999REMSYN060AAXX  16214 47095 32965 00000 11045 21055 39982 40179 52013;EQDQ01  00002PRCP99
0207470950999992000031700004+38080+127820FM-12+013599999V0209999C000012200019N0150001N1+00111-00331101911ADDAA124000791GA1001+999999999GF100991001001999999001001IA1099IA2999+00109KA1120N-00541MA1999999099981MD1210161+9999REMSYN082AAXX  17004 47095 32965 00000 10011 21033 39998 40191 52016 333 21054 31001 79999;
0173470950999992000031703004+38080+127820FM-12+013599999V0202301N003112200019N0150001N1+00841-00691101841ADDAA199000091GA1001+999999999GF100991001001999999001001MA1999999099971MD1210071+9999REMSYN060AAXX  17034 47095 32965 02306 10084 21069 39997 40184 52007;EQDQ01  00002PRCP99
0173470950999992000031706004+38080+127820FM-12+013599999V0202301N006712200019N0150001N1+01261-00641101571ADDAA199000091GA1001+999999999GF100991001001999999001001MA1999999099731MD1710201+9999REMSYN060AAXX  17064 47095 32965 02313 10126 21064 39973 40157 57020;EQDQ01  00002PRCP99
0163470950999992000031709004+38080+127820FM-12+013599999V0202301N004612200019N0150001N1+01031-00341101591ADDAA199000091GF102991001001999999001011MA1999999099741MD1010011+9999REMSYN066AAXX  17094 47095 32965 22309 10103 21034 39974 40159 50001 80001;EQDQ01  00002PRCP99
0226470950999992000031712004+38080+127820FM-12+013599999V0200201N000512200019N0120001N1+00491-00351101811ADDAA199000091GA1001+999999999GF100991001001999999001001IA1019IA2999+00109KA1120M+01291MA1999999099911MD1210171+9999REMSYN082AAXX  17124 47095 32962 00201 10049 21035 39991 40181 52017 333 10129 30001 55104;EQDQ01  00002PRCP99
0163470950999992000031715004+38080+127820FM-12+013599999V0202301N000510120019N0120001N1+00521-00111101871ADDAA199000091GF107991071051012501001001MA1999999099981MD1310071+9999REMSYN066AAXX  17154 47095 32662 72301 10052 21011 39998 40187 53007 87500;EQDQ01  00002PRCP99
0163470950999992000031721004+38080+127820FM-12+013599999V0202301N003610360019N0100001N1+00681-00231101831ADDAA199000091GF108991041051012501011999MA1999999099941MD1810051+9999REMSYN066AAXX  17214 47095 32660 82307 10068 21023 39994 40183 58005 8451/;EQDQ01  00002PRCP99
0197470950999992000031800004+38080+127820FM-12+013599999V0202001N004110120019N0150001N1+00881-00411101901ADDAA112000791GF106991061051012501001001IA1019IA2999+00609KA1120N+00321MA1999999100031MD1210081+9999REMSYN088AAXX  18004 47095 32665 62008 10088 21041 30003 40190 52008 69902 86500 333 20032 30006;
0163470950999992000031803004+38080+127820FM-12+013599999V0202301N007712200019N0150001N1+01301-00381101701ADDAA199000091GF102991021001999999031001MA1999999099861MD1710171+9999REMSYN066AAXX  18034 47095 32965 22315 10130 21038 39986 40170 57017 82030;EQDQ01  00002PRCP99
0163470950999992000031806004+38080+127820FM-12+013599999V0202501N008710120019N0150001N1+01391-00741101441ADDAA199000091GF106991061051012501001001MA1999999099611MD1710251+9999REMSYN066AAXX  18064 47095 32665 62517 10139 21074 39961 40144 57025 86500;EQDQ01  00002PRCP99
0163470950999992000031809004+38080+127820FM-12+013599999V0202301N005710120019N0130001N1+01151-00551101371ADDAA199000091GF105991051051012501001001MA1999999099531MD1010091+9999REMSYN066AAXX  18094 47095 32663 52311 10115 21055 39953 40137 50009 85500;EQDQ01  00002PRCP99
0216470950999992000031812004+38080+127820FM-12+013599999V0202301N005110120019N0120001N1+00961-00241101441ADDAA199000091GF106991061051012501001001IA1019IA2999+00509KA1120M+01441MA1999999099581MD1010061+9999REMSYN088AAXX  18124 47095 32662 62310 10096 21024 39958 40144 50006 86500 333 10144 30005 55069;EQDQ01  00002PRCP99
0163470950999992000031815004+38080+127820FM-12+013599999V0202301N006210120019N0100001N1+00931+00201101371ADDAA199000091GF106991061051012501001001MA1999999099511MD1710071+9999REMSYN066AAXX  18154 47095 32660 62312 10093 20020 39951 40137 57007 86500;EQDQ01  00002PRCP99
0161470950999992000031818004+38080+127820FM-12+013599999V0202301N006210360019N0100001N1+00731+00481101191ADDAY161061AY261061GF108991041051008001021999MA1999999099321MD1710191+9999MW1611REMSYN072AAXX  18184 47095 41560 82312 10073 20048 39932 40119 57019 76166 8452/;
0112470950999992000031821004+38080+127820FM-12+013599999V0202301N004119999999N9999999N1+00521+00281101171ADDAA199000021MA1999999099291MD1710031+9999REMSYN060AAXX  18214 47095 3//// /2308 10052 20028 39929 40117 57003;
0231470950999992000031900004+38080+127820FM-12+013599999V0201101N001010042019N0030001N1+00411+00121101331ADDAA112000591AY121061AY221061GF108991081061004501999999IA1099IA2999+00609KA1120N+00341MA1999999099441MD1210141+9999MW1101REMSYN100AAXX  19004 47095 11430 81102 10041 20012 39944 40133 52014 69962 71022 886// 333 20034 31006 70006;
0161470950999992000031903004+38080+127820FM-12+013599999V0203401N001510042019N0050001N1+00521-00011101491ADDAY121031AY221031GF108991061061004501021999MA1999999099601MD1210171+9999MW1101REMSYN072AAXX  19034 47095 41450 83403 10052 21001 39960 40149 52017 71022 8662/;
0161470950999992000031906004+38080+127820FM-12+013599999V0203601N001510075019N0070001N1+00591+00041101551ADDAY121061AY221061GF108991061061008001021999MA1999999099661MD1210061+9999MW1101REMSYN072AAXX  19064 47095 41557 83603 10059 20004 39966 40155 52006 71022 8662/;
0133470950999992000031909004+38080+127820FM-12+013599999V0203401N001512200019N0100001N1+00551+00091101701ADDGF102991021051012501001001MA1999999099811MD1210151+9999REMSYN066AAXX  19094 47095 42660 23403 10055 20009 39981 40170 52015 82500;
0194470950999992000031912004+38080+127820FM-12+013599999V0203401N000512200019N0120001N1+00011-00101101941ADDAA124000591GA1001+999999999GF100991001001999999001001IA1019IA2999+00009MA1999999100011MD1210201+9999REMSYN082AAXX  19124 47095 32962 03401 10001 21010 30001 40194 52020 333 30100 55005 70006;
0201470950999992000031915004+38080+127820FM-12+013599999V0201801N000512200019N0050001N1-00161-00191102081ADDAA199000091AY101031AY201031GA1001+999999999GF100991001001999999001001MA1999999100131MD1310121+9999MW1101REMSYN066AAXX  19154 47095 31950 01801 11016 21019 30013 40208 53012 71000;EQDQ01  00002PRCP99
0201470950999992000031918004+38080+127820FM-12+013599999V0209999C000012200019N0015001N1-00371-00401102161ADDAA199000091AY101061AY201061GA1001+999999999GF100991001001999999001001MA1999999100191MD1010071+9999MW1101REMSYN066AAXX  19184 47095 31915 03600 11037 21040 30019 40216 50007 71000;EQDQ01  00002PRCP99
0201470950999992000031921004+38080+127820FM-12+013599999V0202301N000512200019N0001001N1-00491-00511102301ADDAA199000091AY141031AY201031GA1001+999999999GF100991001001999999001001MA1999999100331MD1210131+9999MW1461REMSYN066AAXX  19214 47095 31901 02301 11049 21051 30033 40230 52013 74640;EQDQ01  00002PRCP99
0235470950999992000032000004+38080+127820FM-12+013599999V0209999C000012200019N0030001N1-00031-00041102351ADDAA112000791AY101061AY201061GA1001+999999999GF100991001001999999001001IA1019IA2999+00109KA1120N-00581MA1999999100401MD1210081+9999MW1101REMSYN088AAXX  20004 47095 32930 00000 11003 21004 30040 40235 52008 69902 71000 333 21058 30001;
0191470950999992000032003004+38080+127820FM-12+013599999V0202301N003612200019N0090001N1+00921-00061102151ADDAA199000091AY101031AY201031GF102991021051012501001001MA1999999100271MD1710131+9999MW1101REMSYN072AAXX  20034 47095 31659 22307 10092 21006 30027 40215 57013 71000 82500;EQDQ01  00002PRCP99
0191470950999992000032006004+38080+127820FM-12+013599999V0202501N004112200019N0090001N1+01211-00091101851ADDAA199000091AY111061AY211061GF103991031051012501001001MA1999999100001MD1710271+9999MW1101REMSYN072AAXX  20064 47095 31659 32508 10121 21009 30000 40185 57027 71011 83500;EQDQ01  00002PRCP99
0173470950999992000032009004+38080+127820FM-12+013599999V0202501N004612200019N0120001N1+00961-00311101881ADDAA199000091GA1001+999999999GF100991001001999999001001MA1999999100021MD1010011+9999REMSYN060AAXX  20094 47095 32962 02509 10096 21031 30002 40188 50001;EQDQ01  00002PRCP99
0203470950999992000032012004+38080+127820FM-12+013599999V0202001N002119999999N0120001N1+00591-00321102011ADDAA112000791GF107991071001999999011001IA1019IA2999+00309KA1120M+01261MA1999999100111MD1210101+9999REMSYN094AAXX  20124 47095 32962 72004 10059 21032 30011 40201 52010 69902 87010 333 10126 30003 55102;
0163470950999992000032015004+38080+127820FM-12+013599999V0201601N000519999999N0120001N1+00211-00251102001ADDAA199000091GF106991001001999999001061MA1999999100081MD1710041+9999REMSYN066AAXX  20154 47095 32962 61601 10021 21025 30008 40200 57004 80006;EQDQ01  00002PRCP99
0163470950999992000032018004+38080+127820FM-12+013599999V0200201N001019999999N0100001N1-00051-00231102041ADDAA199000091GF108991001001999999001061MA1999999100101MD1310021+9999REMSYN066AAXX  20184 47095 32960 80202 11005 21023 30010 40204 53002 80006;EQDQ01  00002PRCP99
0207470950999992000032021004+38080+127820FM-12+013599999V0201601N001010900019N0080001N1+00001-00221102041ADDAA199000091AY121031AY221031GF107991041051012501001021MA1999999100101MD1410001+9999MW1101REMSYN072AAXX  20214 47095 31658 71602 11000 21022 30010 40204 58000 71022 84502;EQDQ01+000082APCTENQ02  00002PRCP99
0210470950999992000032100004+38080+127820FM-12+013599999V0209999C000010360019N0120001N1+00351-00161102041ADDAA199000091GF107991021051012501011011IA1019IA2999+00309KA1120N-00081MA1999999100131MD1510031+9999REMSYN082AAXX  21004 47095 32662 70000 10035 21016 30013 40204 55003 82511 333 21008 30003;EQDQ01  00002PRCP99
0163470950999992000032103004+38080+127820FM-12+013599999V0201401N000519999999N0120001N1+00861-00791101931ADDAA199000091GF108991081001999999011999MA1999999100061MD1510071+9999REMSYN066AAXX  21034 47095 32962 81401 10086 21079 30006 40193 55007 8801/;EQDQ01  00002PRCP99
0163470950999992000032106004+38080+127820FM-12+013599999V0203401N000512200019N0150001N1+01191-00751101721ADDAA199000091GF102991001001999999001011MA1999999099871MD1710191+9999REMSYN066AAXX  21064 47095 32965 23401 10119 21075 39987 40172 57019 80001;EQDQ01  00002PRCP99
0173470950999992000032109004+38080+127820FM-12+013599999V0203601N001512200019N0180001N1+01011-00781101781ADDAA199000091GA1001+999999999GF100991001001999999001001MA1999999099921MD1010051+9999REMSYN060AAXX  21094 47095 32968 03603 10101 21078 39992 40178 50005;EQDQ01  00002PRCP99
0216470950999992000032112004+38080+127820FM-12+013599999V0209999C000012200019N0150001N1+00231-00531102021ADDAA199000091GF102991021051012501001001IA1019IA2999+00009KA1120M+01241MA1999999100101MD1210181+9999REMSYN088AAXX  21124 47095 32665 20000 10023 21053 30010 40202 52018 82500 333 10124 30000 55064;EQDQ01  00002PRCP99
0153470950999992000032115004+38080+127820FM-12+013599999V0200201N001012200019N0140001N1+00081-00491102091ADDAA199000091GA1001+999999999GF100991001001999999001001MA1999999100161REMSYN054AAXX  21154 47095 32964 00202 10008 21049 30016 40209;EQDQ01  00002PRCP99
0173470950999992000032118004+38080+127820FM-12+013599999V0201401N000512200019N0150001N1-00101-00551102481ADDAA199000091GA1001+999999999GF100991001001999999001001MA1999999100531MD1410001+9999REMSYN060AAXX  21184 47095 32965 01401 11010 21055 30053 40248 54000;EQDQ01  00002PRCP99
0173470950999992000032121004+38080+127820FM-12+013599999V0201601N000512200019N0150001N1-00161-00421102531ADDAA199000091GA1001+999999999GF100991001001999999001001MA1999999100571MD1210041+9999REMSYN060AAXX  21214 47095 32965 01601 11016 21042 30057 40253 52004;EQDQ01  00002PRCP99
0220470950999992000032200004+38080+127820FM-12+013599999V0202001N000512200019N0120001N1+00511-00131102581ADDAA199000091GA1001+999999999GF100991001001999999001001IA1019IA2999+00409KA1120N-00281MA1999999100671MD1310101+9999REMSYN076AAXX  22004 47095 32962 02001 10051 21013 30067 40258 53010 333 21028 30004;EQDQ01  00002PRCP99
0173470950999992000032203004+38080+127820FM-12+013599999V0203601N001512200019N0140001N1+01191-00201102441ADDAA199000091GA1001+999999999GF100991001001999999001001MA1999999100581MD1710091+9999REMSYN060AAXX  22034 47095 32964 03603 10119 21020 30058 40244 57009;EQDQ01  00002PRCP99
0173470950999992000032206004+38080+127820FM-12+013599999V0203601N001012200019N0180001N1+01611-00251102131ADDAA199000091GA1001+999999999GF100991001001999999001001MA1999999100301MD1710281+9999REMSYN060AAXX  22064 47095 32968 03602 10161 21025 30030 40213 57028;EQDQ01  00002PRCP99
0163470950999992000032209004+38080+127820FM-12+013599999V0202001N003619999999N0180001N1+01371-00311101921ADDAA199000091GF106991001001999999001021MA1999999100091MD1710211+9999REMSYN066AAXX  22094 47095 32968 62007 10137 21031 30009 40192 57021 80002;EQDQ01  00002PRCP99
0216470950999992000032212004+38080+127820FM-12+013599999V0200201N000519999999N0150001N1+00611-00101102011ADDAA199000091GF106991001001999999001011IA1019IA2999+00409KA1120M+01631MA1999999100121MD1310031+9999REMSYN088AAXX  22124 47095 32965 60201 10061 21010 30012 40201 53003 80001 333 10163 30004 55100;EQDQ01  00002PRCP99
0163470950999992000032215004+38080+127820FM-12+013599999V0202001N002619999999N0150001N1+00811+00021102011ADDAA199000091GF107991001001999999001011MA1999999100141MD1310021+9999REMSYN066AAXX  22154 47095 32965 72005 10081 20002 30014 40201 53002 80001;EQDQ01  00002PRCP99
0161470950999992000032218004+38080+127820FM-12+013599999V0202001N003110120019N0050001N1+00731+00131101821ADDAY161061AY221061GF108991051051012501021999MA1999999099941MD1710191+9999MW1601REMSYN072AAXX  22184 47095 41650 82006 10073 20013 39994 40182 57019 76062 8552/;
0161470950999992000032221004+38080+127820FM-12+013599999V0202001N003110120019N0080001N1+00631+00421101621ADDAY161031AY231031GF108991061051012501021999MA1999999099731MD1710211+9999MW1321REMSYN072AAXX  22214 47095 41658 82006 10063 20042 39973 40162 57021 73263 8652/;
0231470950999992000032300004+38080+127820FM-12+013599999V0202301N004610042019N0040001N1+00531+00361101471ADDAA112001091AY161061AY261061GF108991061071004501021999IA1099IA2999+00509KA1120N+00531MA1999999099581MD1710161+9999MW1611REMSYN100AAXX  23004 47095 11440 82309 10053 20036 39958 40147 57016 69992 76166 8672/ 333 20053 31005 70009;
0161470950999992000032303004+38080+127820FM-12+013599999V0202001N003110360019N0090001N1+00701+00421101261ADDAY161031AY221031GF108991041061008001011999MA1999999099381MD1710191+9999MW1061REMSYN072AAXX  23034 47095 41559 82006 10070 20042 39938 40126 57019 70662 8461/;
0161470950999992000032306004+38080+127820FM-12+013599999V0202301N005110360019N0040001N1+00861+00301100931ADDAY121061AY221061GF108991041061004501011999MA1999999099071MD1710311+9999MW1061REMSYN072AAXX  23064 47095 41440 82310 10086 20030 39907 40093 57031 70622 8461/;
0161470950999992000032309004+38080+127820FM-12+013599999V0202301N003610360019N0030001N1+00721+00291100891ADDAY121031AY221031GF108991041061004501011999MA1999999099031MD1810041+9999MW1061REMSYN072AAXX  23094 47095 41430 82307 10072 20029 39903 40089 58004 70622 8461/;
0233470950999992000032312004+38080+127820FM-12+013599999V0202701N002612200019N0030001N1+00581-00641101101ADDAA112001091AY101061AY201061GA1001+999999999GF100991001001999999001001IA1099IA2999+00209KA1120M+00861MA1999999099221MW1061REMSYN100AAXX  23124 47095 11930 02705 10058 21064 39922 40110 60012 70600 333 10086 31002 55000 70020 90020;
0190470950999992000032315004+38080+127820FM-12+013599999V0202301N002112200019N0030001N1+00371-00661101111ADDAY101031AY201031GA1001+999999999GF100991001001999999001001MA1999999099221MD1710011+9999MW1061REMSYN066AAXX  23154 47095 41930 02304 10037 21066 39922 40111 57000 70600;EQDQ01+000002APC3  
0201470950999992000032318004+38080+127820FM-12+013599999V0202501N001512200019N0060001N1+00281-00831101141ADDAA199000091AY101061AY201061GA1001+999999999GF100991001001999999001001MA1999999099241MD1310021+9999MW1061REMSYN066AAXX  23184 47095 31956 02503 10028 21083 39924 40114 53002 70600;EQDQ01  00002PRCP99
0201470950999992000032321004+38080+127820FM-12+013599999V0202901N002112200019N0060001N1+00221-01191101191ADDAA199000091AY101031AY201031GA1001+999999999GF100991001001999999001001MA1999999099291MD1010051+9999MW1061REMSYN066AAXX  23214 47095 31956 02904 10022 21119 39929 40119 50005 70600;EQDQ01  00002PRCP99
0235470950999992000032400004+38080+127820FM-12+013599999V0202501N003612200019N0050001N1+00311-01111101361ADDAA124001091AY101061AY201061GA1001+999999999GF100991001001999999001001IA1019IA2999+00209KA1120N+00151MA1999999099451MD1210161+9999MW1061REMSYN088AAXX  24004 47095 31950 02507 10031 21111 39945 40136 52016 70600 333 20015 30002 70011;
0191470950999992000032403004+38080+127820FM-12+013599999V0202901N005712200019N0100001N1+00541-01011101351ADDAA199000091AY111031AY211031GF103991031051012501001001MA1999999099461MD1510011+9999MW1061REMSYN072AAXX  24034 47095 31660 32911 10054 21101 39946 40135 55001 70611 83500;EQDQ01  00002PRCP99
0191470950999992000032406004+38080+127820FM-12+013599999V0202701N007712200019N0120001N1+00621-01151101301ADDAA199000091AY121061AY211061GF104991041051012501001001MA1999999099421MD1710041+9999MW1061REMSYN072AAXX  24064 47095 31662 42715 10062 21115 39942 40130 57004 70621 84500;EQDQ01  00002PRCP99
0163470950999992000032409004+38080+127820FM-12+013599999V0202701N004112200019N0150001N1+00431-01241101491ADDAA199000091GF102991021051012501001001MA1999999099591MD1210171+9999REMSYN066AAXX  24094 47095 32665 22708 10043 21124 39959 40149 52017 82500;EQDQ01  00002PRCP99
0226470950999992000032412004+38080+127820FM-12+013599999V0202501N003112200019N0150001N1+00181-01171101801ADDAA199000091GA1001+999999999GF100991001001999999001001IA1019IA2999-00109KA1120M+00711MA1999999099881MD1210291+9999REMSYN082AAXX  24124 47095 32965 02506 10018 21117 39988 40180 52029 333 10071 30101 55086;EQDQ01  00002PRCP99
0173470950999992000032415004+38080+127820FM-12+013599999V0202001N002112200019N0150001N1-00021-01011101951ADDAA199000091GA1001+999999999GF100991001001999999001001MA1999999100011MD1210131+9999REMSYN060AAXX  24154 47095 32965 02004 11002 21101 30001 40195 52013;EQDQ01  00002PRCP99
0173470950999992000032418004+38080+127820FM-12+013599999V0201801N001012200019N0150001N1-00131-01011102061ADDAA199000091GA1001+999999999GF100991001001999999001001MA1999999100111MD1210101+9999REMSYN060AAXX  24184 47095 32965 01802 11013 21101 30011 40206 52010;EQDQ01  00002PRCP99
0173470950999992000032421004+38080+127820FM-12+013599999V0202301N002112200019N0180001N1-00361-00951102051ADDAA199000091GA1001+999999999GF100991001001999999001001MA1999999100091MD1710021+9999REMSYN060AAXX  24214 47095 32968 02304 11036 21095 30009 40205 57002;EQDQ01  00002PRCP99
0220470950999992000032500004+38080+127820FM-12+013599999V0202001N002612200019N0200001N1+00271-01171102011ADDAA199000091GA1001+999999999GF100991001001999999001001IA1019IA2999+00309KA1120N-00391MA1999999100091MD1010001+9999REMSYN076AAXX  25004 47095 32970 02005 10027 21117 30009 40201 50000 333 21039 30003;EQDQ01  00002PRCP99
0163470950999992000032503004+38080+127820FM-12+013599999V0202301N006710360019N0200001N1+00731-00861101791ADDAA199000091GF107991021051012501021001MA1999999099911MD1510181+9999REMSYN066AAXX  25034 47095 32670 72313 10073 21086 39991 40179 55018 82520;EQDQ01  00002PRCP99
0174470950999992000032506004+38080+127820FM-12+013599999V0202701N004110360019N0180001N1+00831-00401101471ADDAY171061AY271061GF107991041051012501021001MA1999999099601MD1710311+9999REMSYN072AAXX  25064 47095 41668 72708 10083 21040 39960 40147 57031 77077 84520;EQDQ01+000702PRSWM1
0152470950999992000032509004+38080+127820FM-12+013599999V0202701N003119999999N0200001N1+00801-01131101461ADDGF108991999051012501001001MA1999999099591MD1810011+9999REMSYN066AAXX  25094 47095 42670 82706 10080 21113 39959 40146 58001 83500;EQDQ01+000032SCOTLC
0219470950999992000032512004+38080+127820FM-12+013599999V0202701N004612200019N0200001N1+00551-01301101741ADDAA112000791GA1001+999999999GF100991001001999999001001IA1019IA2999+00109KA1120M+00921MA1999999099851MD1210261+9999REMSYN094AAXX  25124 47095 12970 02709 10055 21130 39985 40174 52026 69902 333 10092 30001 55050 79999;
0173470950999992000032515004+38080+127820FM-12+013599999V0201401N001012200019N0180001N1+00221-01131101811ADDAA199000091GA1001+999999999GF100991001001999999001001MA1999999099891MD1310041+9999REMSYN060AAXX  25154 47095 32968 01402 10022 21113 39989 40181 53004;EQDQ01  00002PRCP99
0173470950999992000032518004+38080+127820FM-12+013599999V0209999C000012200019N0180001N1-00251-00801101881ADDAA199000091GA1001+999999999GF100991001001999999001001MA1999999099931MD1210041+9999REMSYN060AAXX  25184 47095 32968 00000 11025 21080 39993 40188 52004;EQDQ01  00002PRCP99
0148470950999992000032521004+38080+127820FM-12+013599999V0202001N000519999999N0150001N1-00141-00821999999ADDAA199000091GF106991999999999999999999MA1999999099951REMSYN065AAXX  25214 47095 32965 62001 11014 21082 39995 4019 52002 86020;EQDQ01  00002PRCP99
0210470950999992000032600004+38080+127820FM-12+013599999V0200201N001010360019N0180001N1+00321-00671101911ADDAA199000091GF106991021051012501021001IA1019IA2999+00309KA1120N-00431MA1999999100001MD1310051+9999REMSYN082AAXX  26004 47095 32668 60202 10032 21067 30000 40191 53005 82520 333 21043 30003;EQDQ01  00002PRCP99
0173470950999992000032603004+38080+127820FM-12+013599999V0202901N002112200019N0180001N1+01011-00901101671ADDAA199000091GA1001+999999999GF100991001001999999001001MA1999999099821MD1710181+9999REMSYN060AAXX  26034 47095 32968 02904 10101 21090 39982 40167 57018;EQDQ01  00002PRCP99
0173470950999992000032606004+38080+127820FM-12+013599999V0202301N004112200019N0180001N1+01241-00821101381ADDAA199000091GA1001+999999999GF100991001001999999001001MA1999999099541MD1710281+9999REMSYN060AAXX  26064 47095 32968 02308 10124 21082 39954 40138 57028;EQDQ01  00002PRCP99
0173470950999992000032609004+38080+127820FM-12+013599999V0202301N004612200019N0180001N1+01171-00731101261ADDAA199000091GA1001+999999999GF100991001001999999001001MA1999999099421MD1710121+9999REMSYN060AAXX  26094 47095 32968 02309 10117 21073 39942 40126 57012;EQDQ01  00002PRCP99
0226470950999992000032612004+38080+127820FM-12+013599999V0201801N000512200019N0180001N1+00561-00491101411ADDAA199000091GA1001+999999999GF100991001001999999001001IA1019IA2999+00209KA1120M+01331MA1999999099531MD1210111+9999REMSYN082AAXX  26124 47095 32968 01801 10056 21049 39953 40141 52011 333 10133 30002 55093;EQDQ01  00002PRCP99
0173470950999992000032615004+38080+127820FM-12+013599999V0200501N001512200019N0180001N1+00091-00391101431ADDAA199000091GA1001+999999999GF100991001001999999001001MA1999999099511MD1510011+9999REMSYN060AAXX  26154 47095 32968 00503 10009 21039 39951 40143 55001;EQDQ01  00002PRCP99
0173470950999992000032618004+38080+127820FM-12+013599999V0209999C000012200019N0140001N1-00151-00381101411ADDAA199000091GA1001+999999999GF100991001001999999001001MA1999999099471MD1710041+9999REMSYN060AAXX  26184 47095 32964 00000 11015 21038 39947 40141 57004;EQDQ01  00002PRCP99
0201470950999992000032621004+38080+127820FM-12+013599999V0202301N001012200019N0070001N1-00211-00351101351ADDAA199000091AY101031AY201031GA1001+999999999GF100991001001999999001001MA1999999099411MD1710061+9999MW1101REMSYN066AAXX  26214 47095 31957 02302 11021 21035 39941 40135 57006 71000;EQDQ01  00002PRCP99
0248470950999992000032700004+38080+127820FM-12+013599999V0209999C000012200019N0090001N1+00401-00111101261ADDAA199000091AY101061AY201061GA1001+999999999GF100991001001999999001001IA1019IA2999+00409KA1120N-00301MA1999999099371MD1510041+9999MW1101REMSYN082AAXX  27004 47095 31959 00000 10040 21011 39937 40126 55004 71000 333 21030 30004;EQDQ01  00002PRCP99
0207470950999992000032703004+38080+127820FM-12+013599999V0202001N005719999999N0080001N1+01542-00261100941ADDAA199000091AY111031AY221031GF107991001001999999001061MA1999999099141MD1710231+9999MW1061REMSYN072AAXX  27034 47095 31958 72011 10154 21026 39914 40094 57023 70612 80006;EQDQ01+001543ATOT  Q02  00002PRCP99
0191470950999992000032706004+38080+127820FM-12+013599999V0202001N006719999999N0070001N1+01731-00141100571ADDAA199000091AY121061AY221061GF108991081001999999011999MA1999999098791MD1710351+9999MW1061REMSYN072AAXX  27064 47095 31957 82013 10173 21014 39879 40057 57035 70622 8801/;EQDQ01  00002PRCP99
0191470950999992000032709004+38080+127820FM-12+013599999V0202001N004119999999N0070001N1+01681-00271100501ADDAA199000091AY121031AY221031GF108991081001999999011999MA1999999098711MD1810081+9999MW1061REMSYN072AAXX  27094 47095 31957 82008 10168 21027 39871 40050 58008 70622 8801/;EQDQ01  00002PRCP99
0244470950999992000032712004+38080+127820FM-12+013599999V0202001N005110360019N0070001N1+01611-00311100541ADDAA199000091AY121061AY221061GF108991031051008001011999IA1019IA2999+01009KA1120M+01821MA1999999098751MD1210041+9999MW1061REMSYN094AAXX  27124 47095 31557 82010 10161 21031 39875 40054 52004 70622 8351/ 333 10182 30010 55053;EQDQ01  00002PRCP99
0161470950999992000032715004+38080+127820FM-12+013599999V0201801N004110075019N0050001N1+01071+00401100501ADDAY161031AY221031GF108991061071008001021999MA1999999098671MD1810081+9999MW1601REMSYN072AAXX  27154 47095 41550 81808 10107 20040 39867 40050 58008 76062 8672/;
0161470950999992000032718004+38080+127820FM-12+013599999V0202001N001510360019N0080001N1+01021+00501100281ADDAY161061AY221061GF108991041061008001011999MA1999999098451MD1710221+9999MW1221REMSYN072AAXX  27184 47095 41558 82003 10102 20050 39845 40028 57022 72262 8461/;
0161470950999992000032721004+38080+127820FM-12+013599999V0202001N002110360019N0100001N1+01051+00451100051ADDAY121031AY221031GF108991041051008001011999MA1999999098221MD1710231+9999MW1061REMSYN072AAXX  27214 47095 41560 82004 10105 20045 39822 40005 57023 70622 8451/;
0231470950999992000032800004+38080+127820FM-12+013599999V0202301N002110360019N0100001N1+01021+00521100101ADDAA112004191AY121061AY221061GF108991041051012501021999IA1099IA2999+00809KA1120N+00891MA1999999098281MD1010061+9999MW1061REMSYN100AAXX  28004 47095 11660 82304 10102 20052 39828 40010 50006 60042 70622 8452/ 333 20089 31008 70038;
0161470950999992000032803004+38080+127820FM-12+013599999V0202001N003110360019N0080001N1+01241+00531099971ADDAY121031AY221031GF108991031051012501011999MA1999999098161MD1710121+9999MW1061REMSYN072AAXX  28034 47095 41658 82006 10124 20053 39816 49997 57012 70622 8351/;
0161470950999992000032806004+38080+127820FM-12+013599999V0202301N002110120019N0080001N1+01441+00531099781ADDAY121061AY221061GF107991051051012501011001MA1999999097981MD1710181+9999MW1061REMSYN072AAXX  28064 47095 41658 72304 10144 20053 39798 49978 57018 70622 85510;
0161470950999992000032809004+38080+127820FM-12+013599999V0203201N002110120019N0080001N1+01161+00571099901ADDAY121031AY221031GF108991051051012501021999MA1999999098081MD1210101+9999MW1601REMSYN072AAXX  28094 47095 41658 83204 10116 20057 39808 49990 52010 76022 8552/;
0237470950999992000032812004+38080+127820FM-12+013599999V0202001N001010360019N0080001N1+00831+00671100181ADDAA112000891AY191061AY261061GF108991031071004501021999IA1099IA2999+00809KA1120M+01441MA1999999098331MD1210251+9999MW1911REMSYN106AAXX  28124 47095 11458 82002 10083 20067 39833 40018 52025 69982 79196 8372/ 333 10144 31008 55002 70046;
0161470950999992000032815004+38080+127820FM-12+013599999V0202501N001510360019N0060001N1+00621+00491100351ADDAY161031AY221031GF108991041071004501021999MA1999999098491MD1210151+9999MW1601REMSYN072AAXX  28154 47095 41456 82503 10062 20049 39849 40035 52015 76062 8472/;
0161470950999992000032818004+38080+127820FM-12+013599999V0202301N002610042019N0060001N1+00431+00191100551ADDAY161061AY231061GF108991061071004501021999MA1999999098671MD1210181+9999MW1601REMSYN072AAXX  28184 47095 41456 82305 10043 20019 39867 40055 52018 76063 8672/;
0161470950999992000032821004+38080+127820FM-12+013599999V0202001N000510120019N0080001N1+00351+00091100731ADDAY161031AY231031GF108991061051012501021999MA1999999098841MD1210171+9999MW1061REMSYN072AAXX  28214 47095 41658 82001 10035 20009 39884 40073 52017 70663 8652/;
0231470950999992000032900004+38080+127820FM-12+013599999V0202001N001510360019N0080001N1+00351-00101101021ADDAA112000191AY121061AY221061GF108991031051008001011999IA1099IA2999+00509KA1120N+00331MA1999999099131MD1210291+9999MW1061REMSYN100AAXX  29004 47095 11558 82003 10035 21010 39913 40102 52029 69922 70622 8351/ 333 20033 31005 70010;
0172470950999992000032903004+38080+127820FM-12+013599999V0202001N002110360019N0090001N1+00501-00161101141ADDAA199000021AY121031AY221031GF108991021051008001011999MA1999999099251MD1210121+9999MW1061REMSYN072AAXX  29034 47095 31559 82004 10050 21016 39925 40114 52012 70622 8251/;
0172470950999992000032906004+38080+127820FM-12+013599999V0202701N002119999999N0120001N1+01061+00021100951ADDAA199000021AY121061AY221061GF107991071001999999011001MA1999999099111MD1710141+9999MW1061REMSYN072AAXX  29064 47095 31962 72704 10106 20002 39911 40095 57014 70622 87010;
0163470950999992000032909004+38080+127820FM-12+013599999V0202901N003612200019N0180001N1+01011-00151100981ADDAA199000091GF102991021051012501001001MA1999999099131MD1010021+9999REMSYN066AAXX  29094 47095 32668 22907 10101 21015 39913 40098 50002 82500;EQDQ01  00002PRCP99
0203470950999992000032912004+38080+127820FM-12+013599999V0202501N001510120019N0200001N1+00721-00071101211ADDAA124000391GF106991061051012501001001IA1099IA2999+00409KA1120M+01171MA1999999099341MD1210211+9999REMSYN094AAXX  29124 47095 32670 62503 10072 21007 39934 40121 52021 86500 333 10117 31004 55027 70002;
0163470950999992000032915004+38080+127820FM-12+013599999V0202001N001510120019N0200001N1+00601-00281101311ADDAA199000091GF107991071051012501001001MA1999999099431MD1210091+9999REMSYN066AAXX  29154 47095 32670 72003 10060 21028 39943 40131 52009 87500;EQDQ01  00002PRCP99
0163470950999992000032918004+38080+127820FM-12+013599999V0202001N003612200019N0200001N1+00501-00511101341ADDAA199000091GF102991021051012501001001MA1999999099461MD1810031+9999REMSYN066AAXX  29184 47095 32670 22007 10050 21051 39946 40134 58003 82500;EQDQ01  00002PRCP99
0173470950999992000032921004+38080+127820FM-12+013599999V0209999C000012200019N0180001N1-00061-00391101471ADDAA199000091GA1001+999999999GF100991001001999999001001MA1999999099541MD1810081+9999REMSYN060AAXX  29214 47095 32968 00000 11006 21039 39954 40147 58008;EQDQ01  00002PRCP99
0210470950999992000033000004+38080+127820FM-12+013599999V0202001N004119999999N0180001N1+00631-00361101561ADDAA199000091GF106991001001999999001011IA1099IA2999+00809KA1120N-00151MA1999999099681MD1210141+9999REMSYN082AAXX  30004 47095 32968 62008 10063 21036 39968 40156 52014 80001 333 21015 31008;EQDQ01  00002PRCP99
0163470950999992000033003004+38080+127820FM-12+013599999V0202301N002619999999N0180001N1+01281-00601101271ADDAA199000091GF106991001001999999001061MA1999999099441MD1710241+9999REMSYN066AAXX  30034 47095 32968 62305 10128 21060 39944 40127 57024 80006;EQDQ01  00002PRCP99
0163470950999992000033006004+38080+127820FM-12+013599999V0202501N004112200019N0180001N1+01501-00581101061ADDAA199000091GF102991011001999999031021MA1999999099251MD1710191+9999REMSYN066AAXX  30064 47095 32968 22508 10150 21058 39925 40106 57019 81032;EQDQ01  00002PRCP99
0163470950999992000033009004+38080+127820FM-12+013599999V0202301N006219999999N0180001N1+01161-00711101031ADDAA199000091GF108991001001999999001071MA1999999099201MD1810051+9999REMSYN066AAXX  30094 47095 32968 82312 10116 21071 39920 40103 58005 80007;EQDQ01  00002PRCP99
0203470950999992000033012004+38080+127820FM-12+013599999V0202001N004619999999N0150001N1+00811-00761101171ADDAA112000791GF108991001001999999001071IA1019IA2999+00609KA1120M+01581MA1999999099311MD1210111+9999REMSYN094AAXX  30124 47095 32965 82009 10081 21076 39931 40117 52011 69902 80007 333 10158 30006 55080;
0163470950999992000033015004+38080+127820FM-12+013599999V0202301N002619999999N0150001N1+00621-00411101151ADDAA199000091GF108991001001999999001071MA1999999099271MD1310041+9999REMSYN066AAXX  30154 47095 32965 82305 10062 21041 39927 40115 53004 80007;EQDQ01  00002PRCP99
0163470950999992000033018004+38080+127820FM-12+013599999V0201101N000512200019N0150001N1+00471-00241101091ADDAA199000091GF102991001001999999001011MA1999999099201MD1510071+9999REMSYN066AAXX  30184 47095 32965 21101 10047 21024 39920 40109 55007 80001;EQDQ01  00002PRCP99
0163470950999992000033021004+38080+127820FM-12+013599999V0200201N000512200019N0150001N1+00211-00201100981ADDAA199000091GF102991021001999999031001MA1999999099081MD1710121+9999REMSYN066AAXX  30214 47095 32965 20201 10021 21020 39908 40098 57012 82030;EQDQ01  00002PRCP99
0210470950999992000033100004+38080+127820FM-12+013599999V0209999C000010900019N0100001N1+00601-00191101051ADDAA199000091GF107991011051012501001051IA1019IA2999+00709KA1120N+00171MA1999999099181MD1210101+9999REMSYN082AAXX  31004 47095 32660 70000 10060 21019 39918 40105 52010 81505 333 20017 30007;EQDQ01  00002PRCP99
0163470950999992000033103004+38080+127820FM-12+013599999V0202701N004112200019N0140001N1+01291-00011100911ADDAA199000091GF101991011051012501001001MA1999999099081MD1710091+9999REMSYN066AAXX  31034 47095 32664 12708 10129 21001 39908 40091 57009 81500;EQDQ01  00002PRCP99
0163470950999992000033106004+38080+127820FM-12+013599999V0202901N003612200019N0160001N1+01541-00141100711ADDAA199000091GF104991041051012501001001MA1999999098911MD1710171+9999REMSYN066AAXX  31064 47095 32666 42907 10154 21014 39891 40071 57017 84500;EQDQ01  00002PRCP99
0163470950999992000033109004+38080+127820FM-12+013599999V0203201N005112200019N0200001N1+01281-01302100891ADDAA199000091GF102991001001999999001011MA1999999099071MD1210161+9999REMSYN066AAXX  31094 47095 32970 23210 10128 21130 39907 40089 52016 80001;EQDQ01  00002PRCP99
0226470950999992000033112004+38080+127820FM-12+013599999V0200701N001012200019N0200001N1+00621-01091101461ADDAA199000091GA1001+999999999GF100991001001999999001001IA1019IA2999+00309KA1120M+01631MA1999999099581MD1210501+9999REMSYN082AAXX  31124 47095 32970 00702 10062 21109 39958 40146 52050 333 10163 30003 55083;EQDQ01  00002PRCP99
0153470950999992000033115004+38080+127820FM-12+013599999V0200501N000512200019N0200001N1+00091-00861101801ADDAA199000091GA1001+999999999GF100991001001999999001001MA1999999099881REMSYN054AAXX  31154 47095 32970 00501 10009 21086 39988 40180;EQDQ01  00002PRCP99
0173470950999992000033118004+38080+127820FM-12+013599999V0200201N000512200019N0150001N1-00191-00701101901ADDAA199000091GA1001+999999999GF100991001001999999001001MA1999999099951MD1210071+9999REMSYN060AAXX  31184 47095 32965 00201 11019 21070 39995 40190 52007;EQDQ01  00002PRCP99
0173470950999992000033121004+38080+127820FM-12+013599999V0209999C000012200019N0180001N1-00331-00721102111ADDAA199000091GA1001+999999999GF100991001001999999001001MA1999999100151MD1210191+9999REMSYN060AAXX  31214 47095 32968 00000 11033 21072 30015 40211 52019;EQDQ01  00002PRCP99
0220470950999992000040100004+38080+127820FM-12+013599999V0200901N000512200019N0200001N1+00521-00791102131ADDAA199000091GA1001+999999999GF100991001001999999001001IA1019IA2999+00509KA1120N-00361MA1999999100231MD1210081+9999REMSYN076AAXX  01004 47095 32970 00901 10052 21079 30023 40213 52008 333 21036 30005;EQDQ01  00002PRCP99
0163470950999992000040103004+38080+127820FM-12+013599999V0202901N003612200019N0220001N1+01381-01301101951ADDAA199000091GF102991001001999999001011MA1999999100121MD1710111+9999REMSYN066AAXX  01034 47095 32972 22907 10138 21130 30012 40195 57011 80001;EQDQ01  00002PRCP99
0163470950999992000040106004+38080+127820FM-12+013599999V0202501N004112200019N0200001N1+01551-01291101761ADDAA199000091GF104991001001999999001021MA1999999099941MD1710181+9999REMSYN066AAXX  01064 47095 32970 42508 10155 21129 39994 40176 57018 80002;EQDQ01  00002PRCP99
0163470950999992000040109004+38080+127820FM-12+013599999V0202301N006219999999N0180001N1+01201-01111101911ADDAA199000091GF105991001001999999001051MA1999999100061MD1010131+9999REMSYN066AAXX  01094 47095 32968 52312 10120 21111 30006 40191 50013 80005;EQDQ01  00002PRCP99
0216470950999992000040112004+38080+127820FM-12+013599999V0201401N001012200019N0180001N1+00931-01091102121ADDAA199000091GF102991001001999999001041IA1019IA2999+00509KA1120M+01601MA1999999100251MD1210191+9999REMSYN088AAXX  01124 47095 32968 21402 10093 21109 30025 40212 52019 80004 333 10160 30005 55105;EQDQ01  00002PRCP99
0163470950999992000040115004+38080+127820FM-12+013599999V0200501N001019999999N0180001N1+00371-00581102221ADDAA199000091GF106991001001999999001051MA1999999100301MD1310051+9999REMSYN066AAXX  01154 47095 32968 60502 10037 21058 30030 40222 53005 80005;EQDQ01  00002PRCP99
0163470950999992000040118004+38080+127820FM-12+013599999V0200201N001012200019N0180001N1+00181-00401102261ADDAA199000091GF104991001001999999001021MA1999999100341MD1010031+9999REMSYN066AAXX  01184 47095 32968 40202 10018 21040 30034 40226 50003 80002;EQDQ01  00002PRCP99
0163470950999992000040121004+38080+127820FM-12+013599999V0200501N000519999999N0150001N1+00161-00391102371ADDAA199000091GF108991041001999999011021MA1999999100441MD1210101+9999REMSYN066AAXX  01214 47095 32965 80501 10016 21039 30044 40237 52010 84012;EQDQ01  00002PRCP99
0210470950999992000040200004+38080+127820FM-12+013599999V0201601N001519999999N0130001N1+00501-00381102521ADDAA199000091GF108991081001999999021999IA1019IA2999+00509KA1120N+00121MA1999999100611MD1210171+9999REMSYN082AAXX  02004 47095 32963 81603 10050 21038 30061 40252 52017 8802/ 333 20012 30005;EQDQ01  00002PRCP99
0161470950999992000040203004+38080+127820FM-12+013599999V0203601N001510120019N0130001N1+01111-00401102381ADDAY161031AY221031GF108991051051012501021999MA1999999100521MD1710081+9999MW1601REMSYN072AAXX  02034 47095 41663 83603 10111 21040 30052 40238 57008 76062 8552/;
0133470950999992000040206004+38080+127820FM-12+013599999V0201101N000512200019N0150001N1+01531-00081102041ADDGF106991021051012501001011MA1999999100211MD1710311+9999REMSYN066AAXX  02064 47095 42665 61101 10153 21008 30021 40204 57031 82501;
0133470950999992000040209004+38080+127820FM-12+013599999V0202901N002110360019N0150001N1+01421-00121101951ADDGF106991021051012501031011MA1999999100121MD1810091+9999REMSYN066AAXX  02094 47095 42665 62904 10142 21012 30012 40195 58009 82531;
0209470950999992000040212004+38080+127820FM-12+013599999V0200701N000512200019N0150001N1+00831+00131102171ADDAA112000791GF102991001001999999001011IA1019IA2999+00509KA1120M+01611MA1999999100291MD1210171+9999REMSYN100AAXX  02124 47095 12965 20701 10083 20013 30029 40217 52017 69902 80001 333 10161 30005 55024 79999;
0144470950999992000040215004+38080+127820FM-12+013599999V0209999C000012200019N0150001N1+00381+00021102221ADDAA199000021GF102991001001999999001011MA1999999100311MD1310021+9999REMSYN066AAXX  02154 47095 32965 20000 10038 20002 30031 40222 53002 80001;
0163470950999992000040218004+38080+127820FM-12+013599999V0209999C000019999999N0150001N1+00301+00061102191ADDAA199000091GF105991001001999999001051MA1999999100281MD1510031+9999REMSYN066AAXX  02184 47095 32965 50000 10030 20006 30028 40219 55003 80005;EQDQ01  00002PRCP99
0163470950999992000040221004+38080+127820FM-12+013599999V0200201N000512200019N0150001N1+00121-00041102191ADDAA199000091GF102991001001999999001011MA1999999100251MD1810021+9999REMSYN066AAXX  02214 47095 32965 20201 10012 21004 30025 40219 58002 80001;EQDQ01  00002PRCP99
0207470950999992000040300004+38080+127820FM-12+013599999V0209999C000012200019N0150001N1+00921+00171102221ADDAA124000791GA1001+999999999GF100991001001999999001001IA1019IA2999+01109KA1120N+00111MA1999999100351MD1210091+9999REMSYN082AAXX  03004 47095 32965 00000 10092 20017 30035 40222 52009 333 20011 30011 79999;
0163470950999992000040303004+38080+127820FM-12+013599999V0202501N000512200019N0180001N1+01751+00151102041ADDAA199000091GF102991021051012501001001MA1999999100231MD1710121+9999REMSYN066AAXX  03034 47095 32668 22501 10175 20015 30023 40204 57012 82500;EQDQ01  00002PRCP99
0173470950999992000040306004+38080+127820FM-12+013599999V0200201N001512200019N0180001N1+01851+00101101781ADDAA199000091GA1001+999999999GF100991001001999999001001MA1999999099981MD1710251+9999REMSYN060AAXX  03064 47095 32968 00203 10185 20010 39998 40178 57025;EQDQ01  00002PRCP99
0163470950999992000040309004+38080+127820FM-12+013599999V0203401N002619999999N0200001N1+01651+00021101681ADDAA199000091GF105991001001999999001021MA1999999099871MD1710111+9999REMSYN066AAXX  03094 47095 32970 53405 10165 20002 39987 40168 57011 80002;EQDQ01  00002PRCP99
0226470950999992000040312004+38080+127820FM-12+013599999V0200701N002612200019N0200001N1+00971+00021101821ADDAA199000091GA1001+999999999GF100991001001999999001001IA1019IA2999+00709KA1120M+01951MA1999999099951MD1010081+9999REMSYN082AAXX  03124 47095 32970 00705 10097 20002 39995 40182 50008 333 10195 30007 55108;EQDQ01  00002PRCP99
0173470950999992000040315004+38080+127820FM-12+013599999V0209999C000012200019N0180001N1+00521+00051101891ADDAA199000091GA1001+999999999GF100991001001999999001001MA1999999099991MD1210041+9999REMSYN060AAXX  03154 47095 32968 00000 10052 20005 39999 40189 52004;EQDQ01  00002PRCP99
0173470950999992000040318004+38080+127820FM-12+013599999V0209999C000012200019N0150001N1+00301+00041101891ADDAA199000091GA1001+999999999GF100991001001999999001001MA1999999099981MD1810021+9999REMSYN060AAXX  03184 47095 32965 00000 10030 20004 39998 40189 58002;EQDQ01  00002PRCP99
0163470950999992000040321004+38080+127820FM-12+013599999V0209999C000012200019N0130001N1+00161+00021101861ADDAA199000091GF104991001001999999001011MA1999999099931MD1710041+9999REMSYN066AAXX  03214 47095 32963 40000 10016 20002 39993 40186 57004 80001;EQDQ01  00002PRCP99
0210470950999992000040400004+38080+127820FM-12+013599999V0209999C000012200019N0130001N1+00901+00161101781ADDAA199000091GF103991001001999999001011IA1019IA2999+01109KA1120N+00121MA1999999099911MD1710021+9999REMSYN082AAXX  04004 47095 32963 30000 10090 20016 39991 40178 57002 80001 333 20012 30011;EQDQ01  00002PRCP99
0163470950999992000040403004+38080+127820FM-12+013599999V0202001N003119999999N0130001N1+01791+00101101521ADDAA199000091GF107991001001999999001061MA1999999099721MD1710191+9999REMSYN066AAXX  04034 47095 32963 72006 10179 20010 39972 40152 57019 80006;EQDQ01  00002PRCP99
0163470950999992000040406004+38080+127820FM-12+013599999V0202501N006219999999N0120001N1+01951+00141101261ADDAA199000091GF107991001001999999001051MA1999999099481MD1710241+9999REMSYN066AAXX  04064 47095 32962 72512 10195 20014 39948 40126 57024 80005;EQDQ01  00002PRCP99
0163470950999992000040409004+38080+127820FM-12+013599999V0202301N003619999999N0120001N1+01671-00071101211ADDAA199000091GF105991001001999999001051MA1999999099411MD1710071+9999REMSYN066AAXX  04094 47095 32962 52307 10167 21007 39941 40121 57007 80005;EQDQ01  00002PRCP99
0216470950999992000040412004+38080+127820FM-12+013599999V0202001N003112200019N0150001N1+01301-00141101381ADDAA199000091GF104991001001999999001051IA1019IA2999+00909KA1120M+02011MA1999999099551MD1210141+9999REMSYN088AAXX  04124 47095 32965 42006 10130 21014 39955 40138 52014 80005 333 10201 30009 55085;EQDQ01  00002PRCP99
0163470950999992000040415004+38080+127820FM-12+013599999V0202701N000512200019N0150001N1+00851-00051101281ADDAA199000091GF102991001001999999001011MA1999999099421MD1710131+9999REMSYN066AAXX  04154 47095 32965 22701 10085 21005 39942 40128 57013 80001;EQDQ01  00002PRCP99
0163470950999992000040418004+38080+127820FM-12+013599999V0202301N001012200019N0150001N1+00661+00031101141ADDAA199000091GF102991001001999999001021MA1999999099261MD1710161+9999REMSYN066AAXX  04184 47095 32965 22302 10066 20003 39926 40114 57016 80002;EQDQ01  00002PRCP99
0161470950999992000040421004+38080+127820FM-12+013599999V0202301N002610120019N0100001N1+00731+00491101151ADDAY161031AY261031GF108991051051012501011999MA1999999099281MD1010021+9999MW1211REMSYN072AAXX  04214 47095 41660 82305 10073 20049 39928 40115 50002 72166 8551/;
0231470950999992000040500004+38080+127820FM-12+013599999V0202901N003112200019N0130001N1+00921+00281101241ADDAA112000591AY161061AY221061GF102991021051012501001001IA1099IA2999+01209KA1120N+00621MA1999999099381MD1210101+9999MW1011REMSYN100AAXX  05004 47095 11663 22906 10092 20028 39938 40124 52010 69942 70162 82500 333 20062 31012 70004;
0133470950999992000040503004+38080+127820FM-12+013599999V0202701N005712200019N0150001N1+01061-00591101141ADDGF103991031051012501001001MA1999999099291MD1510091+9999REMSYN066AAXX  05034 47095 42665 32711 10106 21059 39929 40114 55009 83500;
0144470950999992000040506004+38080+127820FM-12+013599999V0203401N008212200019N0200001N1+01151-01331101041ADDAA199000021GF102991021051012501001001MA1999999099201MD1710091+9999REMSYN066AAXX  05064 47095 32670 23416 10115 21133 39920 40104 57009 82500;
0154470950999992000040509004+38080+127820FM-12+013599999V0202701N005712200019N0200001N1+00931-01191101221ADDAA199000021GA1001+999999999GF100991001001999999001001MA1999999099361MD1210161+9999REMSYN060AAXX  05094 47095 32970 02711 10093 21119 39936 40122 52016;
0213470950999992000040512004+38080+127820FM-12+013599999V0202901N002612200019N0200001N1+00651-00861101621ADDAA124000591GA1001+999999999GF100991001001999999001001IA1019IA2999+00409KA1120M+01281MA1999999099741MD1210371+9999REMSYN088AAXX  05124 47095 32970 02905 10065 21086 39974 40162 52037 333 10128 30004 55081 70004;
0173470950999992000040515004+38080+127820FM-12+013599999V0209999C000012200019N0200001N1+00141-00651101891ADDAA199000091GA1001+999999999GF100991001001999999001001MA1999999099961MD1210231+9999REMSYN060AAXX  05154 47095 32970 00000 10014 21065 39996 40189 52023;EQDQ01  00002PRCP99
0173470950999992000040518004+38080+127820FM-12+013599999V0200201N000512200019N0200001N1-00251-00531101981ADDAA199000091GA1001+999999999GF100991001001999999001001MA1999999100031MD1210071+9999REMSYN060AAXX  05184 47095 32970 00201 11025 21053 30003 40198 52007;EQDQ01  00002PRCP99
0173470950999992000040521004+38080+127820FM-12+013599999V0200201N000512200019N0200001N1-00351-00551102111ADDAA199000091GA1001+999999999GF100991001001999999001001MA1999999100141MD1210111+9999REMSYN060AAXX  05214 47095 32970 00201 11035 21055 30014 40211 52011;EQDQ01  00002PRCP99
0220470950999992000040600004+38080+127820FM-12+013599999V0201601N000512200019N0200001N1+00521-00531102121ADDAA199000091GA1001+999999999GF100991001001999999001001IA1019IA2999+00909KA1120N-00371MA1999999100211MD1310071+9999REMSYN076AAXX  06004 47095 32970 01601 10052 21053 30021 40212 53007 333 21037 30009;EQDQ01  00002PRCP99
0173470950999992000040603004+38080+127820FM-12+013599999V0202001N004612200019N0200001N1+01161-00931101921ADDAA199000091GA1001+999999999GF100991001001999999001001MA1999999100071MD1710141+9999REMSYN060AAXX  06034 47095 32970 02009 10116 21093 30007 40192 57014;EQDQ01  00002PRCP99
0173470950999992000040606004+38080+127820FM-12+013599999V0202501N006712200019N0200001N1+01381-00641101651ADDAA199000091GA1001+999999999GF100991001001999999001001MA1999999099821MD1710251+9999REMSYN060AAXX  06064 47095 32970 02513 10138 21064 39982 40165 57025;EQDQ01  00002PRCP99
0173470950999992000040609004+38080+127820FM-12+013599999V0202501N005712200019N0200001N1+01121-00801101491ADDAA199000091GA1001+999999999GF100991001001999999001001MA1999999099651MD1710171+9999REMSYN060AAXX  06094 47095 32970 02511 10112 21080 39965 40149 57017;EQDQ01  00002PRCP99
0226470950999992000040612004+38080+127820FM-12+013599999V0202001N003112200019N0200001N1+00671-00681101701ADDAA199000091GA1001+999999999GF100991001001999999001001IA1019IA2999+00509KA1120M+01431MA1999999099821MD1210171+9999REMSYN082AAXX  06124 47095 32970 02006 10067 21068 39982 40170 52017 333 10143 30005 55117;EQDQ01  00002PRCP99
0189470950999992000040615004+38080+127820FM-12+013599999V0202501N001012200019N0200001N1+00281-00751101731ADDAA199000091GA1001+999999999GF100991001001999999001001MA1999999099821MD1310031+9999REMSYN060AAXX  06154 47095 32970 02502 10028 21075 39982 40173 53000;EQDQ01+000002APC3  Q02  00002PRCP99
0163470950999992000040618004+38080+127820FM-12+013599999V0202001N003112200019N0180001N1+00471-01021101501ADDAA199000091GF102991021051012501001001MA1999999099611MD1710211+9999REMSYN066AAXX  06184 47095 32668 22006 10047 21102 39961 40150 57021 82500;EQDQ01  00002PRCP99
0163470950999992000040621004+38080+127820FM-12+013599999V0202001N005710120019N0120001N1+00581-00551101501ADDAA199000091GF108991081051012501999999MA1999999099621MD1810011+9999REMSYN066AAXX  06214 47095 32662 82011 10058 21055 39962 40150 58001 885//;EQDQ01  00002PRCP99
0238470950999992000040700004+38080+127820FM-12+013599999V0202001N004110075019N0070001N1+00771+00111101561ADDAA199000091AY121061AY221061GF106991061051008001001001IA1019IA2999+00909KA1120N+00151MA1999999099691MD1210071+9999MW1061REMSYN088AAXX  07004 47095 31557 62008 10077 20011 39969 40156 52007 70622 86500 333 20015 30009;EQDQ01  00002PRCP99
0191470950999992000040703004+38080+127820FM-12+013599999V0202301N009810075019N0050001N1+01161-00691101441ADDAA199000091AY121031AY221031GF105991051051008001001001MA1999999099601MD1510091+9999MW1061REMSYN072AAXX  07034 47095 31550 52319 10116 21069 39960 40144 55009 70622 85500;EQDQ01  00002PRCP99
0191470950999992000040706004+38080+127820FM-12+013599999V0202701N006212200019N0080001N1+01251-01431101411ADDAA199000091AY111061AY211061GF104991041051008001001001MA1999999099571MD1810031+9999MW1061REMSYN072AAXX  07064 47095 31558 42712 10125 21143 39957 40141 58003 70611 84500;EQDQ01  00002PRCP99
0201470950999992000040709004+38080+127820FM-12+013599999V0202901N003112200019N0100001N1+00881-01681101741ADDAA199000091AY101031AY201031GA1001+999999999GF100991001001999999001001MA1999999099871MD1210301+9999MW1061REMSYN066AAXX  07094 47095 31960 02906 10088 21168 39987 40174 52030 70600;EQDQ01  00002PRCP99
0254470950999992000040712004+38080+127820FM-12+013599999V0202501N002612200019N0120001N1+00571-01451102011ADDAA199000091AY101061AY201061GA1001+999999999GF100991001001999999001001IA1019IA2999+00309KA1120M+01361MA1999999100121MD1210251+9999MW1061REMSYN088AAXX  07124 47095 31962 02505 10057 21145 30012 40201 52025 70600 333 10136 30003 55070;EQDQ01  00002PRCP99
0201470950999992000040715004+38080+127820FM-12+013599999V0209999C000012200019N0120001N1+00191-01231102201ADDAA199000091AY101031AY201031GA1001+999999999GF100991001001999999001001MA1999999100271MD1210161+9999MW1061REMSYN066AAXX  07154 47095 31962 00000 10019 21123 30027 40220 52016 70600;EQDQ01  00002PRCP99
0201470950999992000040718004+38080+127820FM-12+013599999V0200501N001512200019N0120001N1-00201-00961102351ADDAA199000091AY101061AY201061GA1001+999999999GF100991001001999999001001MA1999999100401MD1210121+9999MW1061REMSYN066AAXX  07184 47095 31962 00503 11020 21096 30040 40235 52012 70600;EQDQ01  00002PRCP99
0201470950999992000040721004+38080+127820FM-12+013599999V0200501N000512200019N0140001N1-00371-00811102491ADDAA199000091AY101031AY201031GA1001+999999999GF100991001001999999001001MA1999999100521MD1210121+9999MW1061REMSYN066AAXX  07214 47095 31964 00501 11037 21081 30052 40249 52012 70600;EQDQ01  00002PRCP99
0248470950999992000040800004+38080+127820FM-12+013599999V0209999C000012200019N0120001N1+00501-00891102521ADDAA199000091AY101061AY201061GA1001+999999999GF100991001001999999001001IA1019IA2999+00909KA1120N-00381MA1999999100611MD1310091+9999MW1061REMSYN082AAXX  08004 47095 31962 00000 10050 21089 30061 40252 53009 70600 333 21038 30009;EQDQ01  00002PRCP99
0201470950999992000040803004+38080+127820FM-12+013599999V0201801N001012200019N0140001N1+01241-01061102341ADDAA199000091AY101031AY201031GA1001+999999999GF100991001001999999001001MA1999999100491MD1710121+9999MW1061REMSYN066AAXX  08034 47095 31964 01802 10124 21106 30049 40234 57012 70600;EQDQ01  00002PRCP99
0201470950999992000040806004+38080+127820FM-12+013599999V0202501N002112200019N0150001N1+01641-01251101991ADDAA199000091AY101061AY201061GA1001+999999999GF100991001001999999001001MA1999999100171MD1710321+9999MW1061REMSYN066AAXX  08064 47095 31965 02504 10164 21125 30017 40199 57032 70600;EQDQ01  00002PRCP99
0201470950999992000040809004+38080+127820FM-12+013599999V0202301N003112200019N0150001N1+01541-01121101971ADDAA199000091AY101031AY201031GA1001+999999999GF100991001001999999001001MA1999999100141MD1010031+9999MW1061REMSYN066AAXX  08094 47095 31965 02306 10154 21112 30014 40197 50003 70600;EQDQ01  00002PRCP99
0226470950999992000040812004+38080+127820FM-12+013599999V0202001N000512200019N0180001N1+00891-00461102161ADDAA199000091GA1001+999999999GF100991001001999999001001IA1019IA2999+00609KA1120M+01701MA1999999100291MD1210151+9999REMSYN082AAXX  08124 47095 32968 02001 10089 21046 30029 40216 52015 333 10170 30006 55112;EQDQ01  00002PRCP99
0173470950999992000040815004+38080+127820FM-12+013599999V0209999C000012200019N0180001N1+00301-00281102191ADDAA199000091GA1001+999999999GF100991001001999999001001MA1999999100271MD1710021+9999REMSYN060AAXX  08154 47095 32968 00000 10030 21028 30027 40219 57002;EQDQ01  00002PRCP99
0173470950999992000040818004+38080+127820FM-12+013599999V0200501N000512200019N0180001N1+00061-00281102181ADDAA199000091GA1001+999999999GF100991001001999999001001MA1999999100251MD1010021+9999REMSYN060AAXX  08184 47095 32968 00501 10006 21028 30025 40218 50002;EQDQ01  00002PRCP99
0163470950999992000040821004+38080+127820FM-12+013599999V0202701N000519999999N0120001N1+00021-00241102101ADDAA199000091GF107991001001999999001051MA1999999100161MD1010091+9999REMSYN066AAXX  08214 47095 32962 72701 10002 21024 30016 40210 50009 80005;EQDQ01  00002PRCP99
0210470950999992000040900004+38080+127820FM-12+013599999V0202301N001019999999N0100001N1+00601-00201101961ADDAA199000091GF108991001001999999001051IA1019IA2999+01109KA1120N-00081MA1999999100071MD1710101+9999REMSYN082AAXX  09004 47095 32960 82302 10060 21020 30007 40196 57010 80005 333 21008 30011;EQDQ01  00002PRCP99
0163470950999992000040903004+38080+127820FM-12+013599999V0202301N003110900019N0120001N1+01411-01251101671ADDAA199000091GF107991021051012501001071MA1999999099841MD1710231+9999REMSYN066AAXX  09034 47095 32662 72306 10141 21125 39984 40167 57023 82507;EQDQ01  00002PRCP99
0163470950999992000040906004+38080+127820FM-12+013599999V0202301N004610360019N0130001N1+01621-00951101371ADDAA199000091GF108991031051012501011999MA1999999099561MD1710281+9999REMSYN066AAXX  09064 47095 32663 82309 10162 21095 39956 40137 57028 8351/;EQDQ01  00002PRCP99
0131470950999992000040909004+38080+127820FM-12+013599999V0202501N003619999999N9999999N1+01611-00991101161ADDAA199000091MA1999999099361MD1810201+9999REMSYN060AAXX  09094 47095 3//// /2507 10161 21099 39936 40116 58020;EQDQ01  00002PRCP99
0216470950999992000040912004+38080+127820FM-12+013599999V0202001N002112200019N0130001N1+00981-00551101301ADDAA199000091GF103991001001999999001011IA1019IA2999+00709KA1120M+01771MA1999999099451MD1310091+9999REMSYN088AAXX  09124 47095 32963 32004 10098 21055 39945 40130 53009 80001 333 10177 30007 55051;EQDQ01  00002PRCP99
0161470950999992000040915004+38080+127820FM-12+013599999V0209999C000010360019N0120001N1+00771-00081101041ADDAY161031AY221031GF108991031051012501021999MA1999999099181MD1710271+9999MW1601REMSYN072AAXX  09154 47095 41662 80000 10077 21008 39918 40104 57027 76062 8352/;
0161470950999992000040918004+38080+127820FM-12+013599999V0202501N003610042019N0050001N1+00661+00591100771ADDAY161061AY261061GF108991051071004501021999MA1999999098911MD1710271+9999MW1611REMSYN072AAXX  09184 47095 41450 82507 10066 20059 39891 40077 57027 76166 8572/;
0161470950999992000040921004+38080+127820FM-12+013599999V0202501N002610042019N0120001N1+00591+00401100691ADDAY161031AY261031GF108991061071004501021999MA1999999098821MD1810091+9999MW1611REMSYN072AAXX  09214 47095 41462 82505 10059 20040 39882 40069 58009 76166 8672/;
0231470950999992000041000004+38080+127820FM-12+013599999V0202501N004110075019N0150001N1+00191-00171101081ADDAA112006191AY171061AY261061GF107991071051008001001001IA1099IA2999+00509KA1120N+00191MA1999999099171MD1210351+9999MW1701REMSYN100AAXX  10004 47095 11565 72508 10019 21017 39917 40108 52035 60062 77076 87500 333 20019 31005 70064;
0133470950999992000041003004+38080+127820FM-12+013599999V0202701N005712200019N0180001N1+00501-00771101191ADDGF102991021051008001001001MA1999999099311MD1310141+9999REMSYN066AAXX  10034 47095 42568 22711 10050 21077 39931 40119 53014 82500;
0143470950999992000041006004+38080+127820FM-12+013599999V0202501N007712200019N0180001N1+00681-01021101131ADDGA1001+999999999GF100991001001999999001001MA1999999099261MD1710051+9999REMSYN060AAXX  10064 47095 42968 02515 10068 21102 39926 40113 57005;
0143470950999992000041009004+38080+127820FM-12+013599999V0202701N004612200019N0180001N1+00481-01321101331ADDGA1001+999999999GF100991001001999999001001MA1999999099441MD1210181+9999REMSYN060AAXX  10094 47095 42968 02709 10048 21132 39944 40133 52018;
0219470950999992000041012004+38080+127820FM-12+013599999V0202301N001512200019N0180001N1+00161-01101101601ADDAA112000791GA1001+999999999GF100991001001999999001001IA1099IA2999+00109KA1120M+00821MA1999999099681MD1210251+9999REMSYN094AAXX  10124 47095 12968 02303 10016 21110 39968 40160 52025 69902 333 10082 31001 55076 70064;
0173470950999992000041015004+38080+127820FM-12+013599999V0202001N002612200019N0180001N1+00051-00921101651ADDAA199000091GA1001+999999999GF100991001001999999001001MA1999999099721MD1210041+9999REMSYN060AAXX  10154 47095 32968 02005 10005 21092 39972 40165 52004;EQDQ01  00002PRCP99
0173470950999992000041018004+38080+127820FM-12+013599999V0202001N001512200019N0180001N1+00071-00901101541ADDAA199000091GA1001+999999999GF100991001001999999001001MA1999999099621MD1510101+9999REMSYN060AAXX  10184 47095 32968 02003 10007 21090 39962 40154 55010;EQDQ01  00002PRCP99
0173470950999992000041021004+38080+127820FM-12+013599999V0202901N000512200019N0150001N1-00171-00731101481ADDAA199000091GA1001+999999999GF100991001001999999001001MA1999999099541MD1710081+9999REMSYN060AAXX  10214 47095 32965 02901 11017 21073 39954 40148 57008;EQDQ01  00002PRCP99
0207470950999992000041100004+38080+127820FM-12+013599999V0202001N004612200019N0150001N1+00471-00311101351ADDAA124000791GA1001+999999999GF100991001001999999001001IA1019IA2999+00709KA1120N-00251MA1999999099461MD1710081+9999REMSYN082AAXX  11004 47095 32965 02009 10047 21031 39946 40135 57008 333 21025 30007 79999;
0173470950999992000041103004+38080+127820FM-12+013599999V0202301N006212200019N0120001N1+01241+00101100931ADDAA199000091GA1001+999999999GF100991001001999999001001MA1999999099101MD1710351+9999REMSYN060AAXX  11034 47095 32962 02312 10124 20010 39910 40093 57035;EQDQ01  00002PRCP99
0173470950999992000041106004+38080+127820FM-12+013599999V0202301N008712200019N0120001N1+01581+00061100641ADDAA199000091GA1001+999999999GF100991001001999999001001MA1999999098841MD1710261+9999REMSYN060AAXX  11064 47095 32962 02317 10158 20006 39884 40064 57026;EQDQ01  00002PRCP99
0189470950999992000041109004+38080+127820FM-12+013599999V0202301N006212200019N0120001N1+01401+00041100651ADDAA199000091GA1001+999999999GF100991001001999999001001MA1999999098841MD1810011+9999REMSYN060AAXX  11094 47095 32962 02312 10140 20004 39884 40065 58000;EQDQ01+000002APC3  Q02  00002PRCP99
0226470950999992000041112004+38080+127820FM-12+013599999V0202001N002612200019N0150001N1+00931+00081100861ADDAA199000091GA1001+999999999GF100991001001999999001001IA1019IA2999+00709KA1120M+01691MA1999999099011MD1210171+9999REMSYN082AAXX  11124 47095 32965 02005 10093 20008 39901 40086 52017 333 10169 30007 55105;EQDQ01  00002PRCP99
0189470950999992000041115004+38080+127820FM-12+013599999V0201801N001012200019N0150001N1+00761-00141100871ADDAA199000091GA1001+999999999GF100991001001999999001001MA1999999099011MD1310011+9999REMSYN060AAXX  11154 47095 32965 01802 10076 21014 39901 40087 53000;EQDQ01+000002APC3  Q02  00002PRCP99
0173470950999992000041118004+38080+127820FM-12+013599999V0202501N001012200019N0150001N1+00501-00021100871ADDAA199000091GA1001+999999999GF100991001001999999001001MA1999999098991MD1810021+9999REMSYN060AAXX  11184 47095 32965 02502 10050 21002 39899 40087 58002;EQDQ01  00002PRCP99
0201470950999992000041121004+38080+127820FM-12+013599999V0202501N002612200019N0090001N1+00391+00131100871ADDAA199000091AY101031AY201031GA1001+999999999GF100991001001999999001001MA1999999098981MD1210011+9999MW1101REMSYN066AAXX  11214 47095 31959 02505 10039 20013 39898 40087 52001 71000;EQDQ01  00002PRCP99
0238470950999992000041200004+38080+127820FM-12+013599999V0202301N005112200019N0090001N1+00941+00171100901ADDAA199000091AY121061AY221061GF106991041051012501001011IA1019IA2999+01309KA1120N+00351MA1999999099051MD1210071+9999MW1101REMSYN088AAXX  12004 47095 32659 62310 10094 20017 39905 40090 52007 71022 84501 333 20035 30013;EQDQ01  00002PRCP99
0191470950999992000041203004+38080+127820FM-12+013599999V0202001N002619999999N0090001N1+01331+00241100711ADDAA199000091AY121031AY221031GF107991001001999999001061MA1999999098891MD1710151+9999MW1101REMSYN072AAXX  12034 47095 31959 72005 10133 20024 39889 40071 57015 71022 80006;EQDQ01  00002PRCP99
0191470950999992000041206004+38080+127820FM-12+013599999V0202501N004119999999N0090001N1+01631+00421100461ADDAA199000091AY121061AY221061GF107991001001999999001021MA1999999098671MD1710221+9999MW1051REMSYN072AAXX  12064 47095 31959 72508 10163 20042 39867 40046 57022 70522 80002;EQDQ01  00002PRCP99
0191470950999992000041209004+38080+127820FM-12+013599999V0202301N004619999999N0090001N1+01561+00261100461ADDAA199000091AY121031AY221031GF106991001001999999001051MA1999999098671MD1010011+9999MW1051REMSYN072AAXX  12094 47095 31959 62309 10156 20026 39867 40046 50001 70522 80005;EQDQ01  00002PRCP99
0216470950999992000041212004+38080+127820FM-12+013599999V0202001N001012200019N0120001N1+01061+00431100651ADDAA199000091GF103991001001999999001011IA1019IA2999+00809KA1120M+01711MA1999999098821MD1210151+9999REMSYN088AAXX  12124 47095 32962 32002 10106 20043 39882 40065 52015 80001 333 10171 30008 55048;EQDQ01  00002PRCP99
0191470950999992000041215004+38080+127820FM-12+013599999V0200501N001512200019N0080001N1+00631+00411100801ADDAA199000091AY121031AY211031GF105991031051012501001011MA1999999098931MD1210121+9999MW1101REMSYN072AAXX  12154 47095 32658 50503 10063 20041 39893 40080 52012 71021 83501;EQDQ01  00002PRCP99
0163470950999992000041218004+38080+127820FM-12+013599999V0209999C000019999999N0050001N1+00451+00321100841ADDAA199000091GF106991061051999999001001MA1999999098961MD1810031+9999REMSYN066AAXX  12184 47095 31950 61400 10045 20032 39896 40084 58003 86500;EQDQ01  00002PRCP99
0191470950999992000041221004+38080+127820FM-12+013599999V0209999C000010120019N0050001N1+00611+00471100861ADDAA199000091AY121031AY221031GF106991061051012501001001MA1999999098991MD1010031+9999MW1101REMSYN072AAXX  12214 47095 31650 60000 10061 20047 39899 40086 50003 71022 86500;EQDQ01  00002PRCP99
0238470950999992000041300004+38080+127820FM-12+013599999V0202501N001010075019N0090001N1+01021+00631100891ADDAA199000091AY121061AY221061GF107991071051008001001001IA1019IA2999+01409KA1120N+00351MA1999999099051MD1310061+9999MW1101REMSYN088AAXX  13004 47095 31559 72502 10102 20063 39905 40089 53006 71022 87500 333 20035 30014;EQDQ01  00002PRCP99
0191470950999992000041303004+38080+127820FM-12+013599999V0202001N003112200019N0070001N1+01691+00511100721ADDAA199000091AY101031AY201031GF102991021051008001001001MA1999999098931MD1710121+9999MW1101REMSYN072AAXX  13034 47095 31557 22006 10169 20051 39893 40072 57012 71000 82500;EQDQ01  00002PRCP99
0191470950999992000041306004+38080+127820FM-12+013599999V0202301N006712200019N0070001N1+01921+00131100521ADDAA199000091AY111061AY201061GF103991001001999999001011MA1999999098751MD1710191+9999MW1051REMSYN072AAXX  13064 47095 31957 32313 10192 20013 39875 40052 57019 70510 80001;EQDQ01  00002PRCP99
0191470950999992000041309004+38080+127820FM-12+013599999V0202301N005110360019N0050001N1+01571+00501100621ADDAA199000091AY121031AY221031GF108991021051008001011999MA1999999098821MD1010071+9999MW1051REMSYN072AAXX  13094 47095 31550 82310 10157 20050 39882 40062 50007 70522 8251/;EQDQ01  00002PRCP99
0244470950999992000041312004+38080+127820FM-12+013599999V0203401N002110360019N0060001N1+01311+00221100941ADDAA199000091AY121061AY221061GF107991021051012501011001IA1019IA2999+01109KA1120M+01971MA1999999099121MD1210301+9999MW1051REMSYN094AAXX  13124 47095 31656 73404 10131 20022 39912 40094 52030 70522 82510 333 10197 30011 55067;EQDQ01  00002PRCP99
0191470950999992000041315004+38080+127820FM-12+013599999V0209999C000010360019N0060001N1+00861-00561101111ADDAA199000091AY121031AY221031GF108991011051012501011999MA1999999099251MD1210131+9999MW1051REMSYN072AAXX  13154 47095 31656 83600 10086 21056 39925 40111 52013 70522 8151/;EQDQ01  00002PRCP99
0191470950999992000041318004+38080+127820FM-12+013599999V0200701N000510120019N0070001N1+00381-00301101191ADDAA199000091AY121061AY221061GF105991051051012501001001MA1999999099301MD1210051+9999MW1051REMSYN072AAXX  13184 47095 31657 50701 10038 21030 39930 40119 52005 70522 85500;EQDQ01  00002PRCP99
0163470950999992000041321004+38080+127820FM-12+013599999V0200201N001012200019N0100001N1+00061-00311101391ADDAA199000091GF102991021001999999031001MA1999999099471MD1210171+9999REMSYN066AAXX  13214 47095 32960 20202 10006 21031 39947 40139 52017 82030;EQDQ01  00002PRCP99
0210470950999992000041400004+38080+127820FM-12+013599999V0202301N000512200019N0150001N1+00851-00161101401ADDAA199000091GF102991001001999999001011IA1019IA2999+01309KA1120N+00031MA1999999099531MD1210061+9999REMSYN082AAXX  14004 47095 32965 22301 10085 21016 39953 40140 52006 80001 333 20003 30013;EQDQ01  00002PRCP99
0163470950999992000041403004+38080+127820FM-12+013599999V0202701N001019999999N0180001N1+01571-00811101201ADDAA199000091GF106991001001999999001061MA1999999099391MD1510141+9999REMSYN066AAXX  14034 47095 32968 62702 10157 21081 39939 40120 55014 80006;EQDQ01  00002PRCP99
0163470950999992000041406004+38080+127820FM-12+013599999V0202501N003619999999N0180001N1+01771-00741100991ADDAA199000091GF108991001001999999001071MA1999999099201MD1710191+9999REMSYN066AAXX  14064 47095 32968 82507 10177 21074 39920 40099 57019 80007;EQDQ01  00002PRCP99
0163470950999992000041409004+38080+127820FM-12+013599999V0202301N008719999999N0180001N1+01531-00351101021ADDAA199000091GF107991021001999999031999MA1999999099211MD1010011+9999REMSYN066AAXX  14094 47095 32968 72317 10153 21035 39921 40102 50001 8203/;EQDQ01  00002PRCP99
0163470950999992000041415004+38080+127820FM-12+013599999V0200501N001519999999N0150001N1+00801-00331101141ADDAA199000091GF108991001001999999001071MA1999999099281MD1710091+9999REMSYN066AAXX  14154 47095 32965 80503 10080 21033 39928 40114 57009 80007;EQDQ01  00002PRCP99
0163470950999992000041418004+38080+127820FM-12+013599999V0200201N001019999999N0120001N1+00511-00231101171ADDAA199000091GF107991001001999999001051MA1999999099291MD1310011+9999REMSYN066AAXX  14184 47095 32962 70202 10051 21023 39929 40117 53001 80005;EQDQ01  00002PRCP99
0163470950999992000041421004+38080+127820FM-12+013599999V0203401N005112200019N0150001N1+00691-00011101111ADDAA199000091GF103991001001999999001011MA1999999099241MD1810051+9999REMSYN066AAXX  14214 47095 32965 33410 10069 21001 39924 40111 58005 80001;EQDQ01  00002PRCP99
0242470950999992000041500004+38080+127820FM-12+013599999V0200201N005110900019N0140001N1+01091+00361101081ADDAA199000091GF107991011051012501001021IA1019IA2999+01209KA1120N+00401MA1999999099241MD1710031+9999REMSYN082AAXX  15004 47095 32664 70210 10109 20036 39924 40108 52000 81502 333 20040 30012;EQDQ01+000022APCTENQ02+000002APC3  Q03  00002PRCP99
0163470950999992000041503004+38080+127820FM-12+013599999V0200201N007210120019N0180001N1+01411+00351100981ADDAA199000091GF106991061051012501001011MA1999999099171MD1310071+9999REMSYN066AAXX  15034 47095 32668 60214 10141 20035 39917 40098 53007 86501;EQDQ01  00002PRCP99
0163470950999992000041506004+38080+127820FM-12+013599999V0200201N005710120019N0180001N1+01381+00011100881ADDAA199000091GF107991061051012501011001MA1999999099071MD1710101+9999REMSYN066AAXX  15064 47095 32668 70211 10138 20001 39907 40088 57010 86510;EQDQ01  00002PRCP99
0163470950999992000041509004+38080+127820FM-12+013599999V0200501N004110360019N0180001N1+01211+00021101001ADDAA199000091GF106991021051012501031011MA1999999099171MD1010101+9999REMSYN066AAXX  15094 47095 32668 60508 10121 20002 39917 40100 50010 82531;EQDQ01  00002PRCP99
0216470950999992000041512004+38080+127820FM-12+013599999V0203201N002112200019N0180001N1+00821+00061101251ADDAA199000091GF102991021051012501001001IA1019IA2999+00609KA1120M+01621MA1999999099391MD1210221+9999REMSYN088AAXX  15124 47095 32668 23204 10082 20006 39939 40125 52022 82500 333 10162 30006 55043;EQDQ01  00002PRCP99
0173470950999992000041515004+38080+127820FM-12+013599999V0202901N000512200019N0150001N1+00311-00021101391ADDAA199000091GA1001+999999999GF100991001001999999001001MA1999999099491MD1210101+9999REMSYN060AAXX  15154 47095 32965 02901 10031 21002 39949 40139 52010;EQDQ01  00002PRCP99
0173470950999992000041518004+38080+127820FM-12+013599999V0209999C000012200019N0150001N1+00111-00041101361ADDAA199000091GA1001+999999999GF100991001001999999001001MA1999999099441MD1510051+9999REMSYN060AAXX  15184 47095 32965 00000 10011 21004 39944 40136 55005;EQDQ01  00002PRCP99
0163470950999992000041521004+38080+127820FM-12+013599999V0209999C000012200019N0150001N1-00031-00101101411ADDAA199000091GF102991021001999999031001MA1999999099491MD1210051+9999REMSYN066AAXX  15214 47095 32965 20000 11003 21010 39949 40141 52005 82030;EQDQ01  00002PRCP99
0242470950999992000041600004+38080+127820FM-12+013599999V0209999C000012200019N0150001N1+00731+00151101361ADDAA199000091GF101991011051012501001001IA1019IA2999+01309KA1120N-00131MA1999999099491MD1710051+9999REMSYN082AAXX  16004 47095 32665 10000 10073 20015 39949 40136 53000 81500 333 21013 30013;EQDQ01+000032APCTENQ02+000002APC3  Q03  00002PRCP99
0163470950999992000041603004+38080+127820FM-12+013599999V0202901N001010360019N0180001N1+01471-00301101171ADDAA199000091GF105991021051008001031001MA1999999099351MD1710131+9999REMSYN066AAXX  16034 47095 32568 52902 10147 21030 39935 40117 57013 82530;EQDQ01  00002PRCP99
0163470950999992000041606004+38080+127820FM-12+013599999V0202901N002110120019N0180001N1+01491-00421101021ADDAA199000091GF107991071051012501001001MA1999999099211MD1710141+9999REMSYN066AAXX  16064 47095 32668 72904 10149 21042 39921 40102 57014 87500;EQDQ01  00002PRCP99
0173470950999992000041609004+38080+127820FM-12+013599999V0202301N006212200019N0180001N1+01461-00651100971ADDAA199000091GA1001+999999999GF100991001001999999001001MA1999999099151MD1810051+9999REMSYN060AAXX  16094 47095 32968 02312 10146 21065 39915 40097 58005;EQDQ01  00002PRCP99
0226470950999992000041612004+38080+127820FM-12+013599999V0201101N001012200019N0180001N1+01041-00731101191ADDAA199000091GA1001+999999999GF100991001001999999001001IA1019IA2999+00709KA1120M+01611MA1999999099351MD1210191+9999REMSYN082AAXX  16124 47095 32968 01102 10104 21073 39935 40119 52019 333 10161 30007 55072;EQDQ01  00002PRCP99
0173470950999992000041615004+38080+127820FM-12+013599999V0200501N000512200019N0180001N1+00441-00321101311ADDAA199000091GA1001+999999999GF100991001001999999001001MA1999999099421MD1210081+9999REMSYN060AAXX  16154 47095 32968 00501 10044 21032 39942 40131 52008;EQDQ01  00002PRCP99
0173470950999992000041618004+38080+127820FM-12+013599999V0200201N001012200019N0100001N1+00211-00291101341ADDAA199000091GA1001+999999999GF100991001001999999001001MA1999999099431MD1210011+9999REMSYN060AAXX  16184 47095 32960 00202 10021 21029 39943 40134 52001;EQDQ01  00002PRCP99
0201470950999992000041621004+38080+127820FM-12+013599999V0209999C000012200019N0090001N1-00091-00271101451ADDAA199000091AY101031AY201031GA1001+999999999GF100991001001999999001001MA1999999099511MD1210091+9999MW1101REMSYN066AAXX  16214 47095 31959 00000 11009 21027 39951 40145 52009 71000;EQDQ01  00002PRCP99
0210470950999992000041700004+38080+127820FM-12+013599999V0209999C000012200019N0100001N1+00781-00051101481ADDAA199000091GF104991001001999999001011IA1019IA2999+01209KA1120N-00091MA1999999099611MD1310091+9999REMSYN082AAXX  17004 47095 32960 40000 10078 21005 39961 40148 53009 80001 333 21009 30012;EQDQ01  00002PRCP99
0163470950999992000041703004+38080+127820FM-12+013599999V0202001N002612200019N0120001N1+01531-00201101361ADDAA199000091GF107991031051012501001011MA1999999099551MD1510061+9999REMSYN066AAXX  17034 47095 32662 72005 10153 21020 39955 40136 55006 83501;EQDQ01  00002PRCP99
0163470950999992000041706004+38080+127820FM-12+013599999V0202301N002619999999N0130001N1+01841-00411101221ADDAA199000091GF108991001001999999001071MA1999999099431MD1710121+9999REMSYN066AAXX  17064 47095 32963 82305 10184 21041 39943 40122 57012 80007;EQDQ01  00002PRCP99
0163470950999992000041709004+38080+127820FM-12+013599999V0202301N004119999999N0130001N1+01731+00451101251ADDAA199000091GF106991001001999999001011MA1999999099451MD1010021+9999REMSYN066AAXX  17094 47095 32963 62308 10173 20045 39945 40125 50002 80001;EQDQ01  00002PRCP99
0216470950999992000041712004+38080+127820FM-12+013599999V0202301N004612200019N0100001N1+01331+00711101491ADDAA199000091GF103991001001999999001011IA1019IA2999+01109KA1120M+01991MA1999999099651MD1210211+9999REMSYN088AAXX  17124 47095 32960 32309 10133 20071 39965 40149 52021 80001 333 10199 30011 55065;EQDQ01  00002PRCP99
0191470950999992000041715004+38080+127820FM-12+013599999V0202301N002112200019N0050001N1+01091+00671101681ADDAA199000091AY111031AY211031GF104991041051008001001001MA1999999099831MD1210171+9999MW1101REMSYN072AAXX  17154 47095 31550 42304 10109 20067 39983 40168 52017 71011 84500;EQDQ01  00002PRCP99
0191470950999992000041718004+38080+127820FM-12+013599999V0202001N001010075019N0050001N1+01111+00571101681ADDAA199000091AY121061AY211061GF105991051051008001001001MA1999999099831MD1410001+9999MW1101REMSYN072AAXX  17184 47095 31550 52002 10111 20057 39983 40168 54000 71021 85500;EQDQ01  00002PRCP99
0161470950999992000041721004+38080+127820FM-12+013599999V0202001N002110075019N0050001N1+01151+00491101671ADDAY161031AY221031GF108991081061008001999999MA1999999099831MD1510011+9999MW1211REMSYN072AAXX  17214 47095 41550 82004 10115 20049 39983 40167 55001 72162 886//;
0225470950999992000041800004+38080+127820FM-12+013599999V0202001N003610075019N0050001N1+01241+00641101661ADDAA112000791AY121061AY221061GF108991081051008001999999IA1019IA2999+01209KA1120N+00921MA1999999099821MD1510011+9999MW1101REMSYN094AAXX  18004 47095 11550 82007 10124 20064 39982 40166 55001 69902 71022 885// 333 20092 30012;
0161470950999992000041803004+38080+127820FM-12+013599999V0202501N006710360019N0080001N1+01621+00531101621ADDAY121031AY221031GF108991041051008001011999MA1999999099801MD1510011+9999MW1101REMSYN072AAXX  18034 47095 41558 82513 10162 20053 39980 40162 55001 71022 8451/;
0133470950999992000041806004+38080+127820FM-12+013599999V0202501N008719999999N0120001N1+01661-00011101481ADDGF107991071001999999011001MA1999999099671MD1710131+9999REMSYN066AAXX  18064 47095 42962 72517 10166 21001 39967 40148 57013 87010;
0133470950999992000041809004+38080+127820FM-12+013599999V0202301N004610360019N0140001N1+01511+00131101451ADDGF108991021051012501021999MA1999999099631MD1710041+9999REMSYN066AAXX  18094 47095 42664 82309 10151 20013 39963 40145 57004 8252/;
0231470950999992000041812004+38080+127820FM-12+013599999V0202301N001510360019N0130001N1+01321+00281101511ADDAA112000791AY161061AY221061GF108991031051012501021999IA1019IA2999+01109KA1120M+01761MA1999999099681MD1210051+9999MW1211REMSYN100AAXX  18124 47095 11663 82303 10132 20028 39968 40151 52005 69902 72162 8352/ 333 10176 30011 55015;
0144470950999992000041815004+38080+127820FM-12+013599999V0200701N001010360019N0120001N1+01081+00401101491ADDAA199000021GF108991031051012501021999MA1999999099641MD1510041+9999REMSYN066AAXX  18154 47095 32662 80702 10108 20040 39964 40149 55004 8352/;
0161470950999992000041818004+38080+127820FM-12+013599999V0203601N001010042019N0080001N1+00851+00721101331ADDAY161061AY221061GF108991061071004501021999MA1999999099471MD1710171+9999MW1611REMSYN072AAXX  18184 47095 41458 83602 10085 20072 39947 40133 57017 76162 8672/;
0161470950999992000041821004+38080+127820FM-12+013599999V0209999C000010360019N0100001N1+00831+00771101171ADDAY161031AY221031GF108991021071004501021999MA1999999099311MD1710161+9999MW1211REMSYN072AAXX  18214 47095 41460 80000 10083 20077 39931 40117 57016 72162 8272/;
0231470950999992000041900004+38080+127820FM-12+013599999V0200201N001010900019N0100001N1+01381+01001101501ADDAA112001091AY161061AY221061GF105991031051008001001021IA1019IA2999+05009KA1120N+00821MA1999999099221MD1410001+9999MW1021REMSYN100AAXX  19004 47095 11560 50202 10138 20100 39922 40150 54000 60012 70262 83502 333 20082 30050 70013;
0144470950999992000041903004+38080+127820FM-12+013599999V0200201N004619999999N0100001N1+01701+01101101101ADDAA199000021GF105991031001999999031021MA1999999099081MD1410001+9999REMSYN066AAXX  19034 47095 32960 50209 10170 20110 39908 40110 54000 83032;
0144470950999992000041906004+38080+127820FM-12+013599999V0200201N005110900019N0120001N1+01861+01401101011ADDAA199000021GF105991021051008001001021MA1999999099071MD1410001+9999REMSYN066AAXX  19064 47095 32562 50210 10186 20140 39907 40101 54000 82502;
0144470950999992000041909004+38080+127820FM-12+013599999V0203601N004112200019N0180001N1+01571+01101101051ADDAA199000021GF101991011051012501001001MA1999999099131MD1410001+9999REMSYN066AAXX  19094 47095 32668 13608 10157 20110 39913 40105 54000 81500;
0216470950999992000041912004+38080+127820FM-12+013599999V0200501N002112200019N0180001N1+01111+00451101291ADDAA199000091GF103991001001999999001021IA1019IA2999+01009KA1120M+01881MA1999999099451MD1210311+9999REMSYN088AAXX  19124 47095 32968 30504 10111 20045 39945 40129 52031 80002 333 10188 30010 55051;EQDQ01  00002PRCP99
0163470950999992000041915004+38080+127820FM-12+013599999V0200201N006219999999N0140001N1+00921+00451101311ADDAA199000091GF105991001001999999001051MA1999999099451MD1510001+9999REMSYN066AAXX  19154 47095 32964 50212 10092 20045 39945 40131 55000 80005;EQDQ01  00002PRCP99
0163470950999992000041918004+38080+127820FM-12+013599999V0200201N002612200019N0100001N1+00631+00421101501ADDAA199000091GF103991001001999999001051MA1999999099621MD1210161+9999REMSYN066AAXX  19184 47095 32960 30205 10063 20042 39962 40150 52016 80005;EQDQ01  00002PRCP99
0163470950999992000041921004+38080+127820FM-12+013599999V0203601N001512200019N0120001N1+00731+00441101421ADDAA199000091GF104991041051012501001001MA1999999099541MD1810071+9999REMSYN066AAXX  19214 47095 32662 43603 10073 20044 39954 40142 58007 84500;EQDQ01  00002PRCP99
0210470950999992000042000004+38080+127820FM-12+013599999V0203401N002619999999N0130001N1+01191+00571101451ADDAA199000091GF107991001001999999001071IA1019IA2999+01509KA1120N+00581MA1999999099611MD1510071+9999REMSYN082AAXX  20004 47095 32963 73405 10119 20057 39961 40145 55007 80007 333 20058 30015;EQDQ01  00002PRCP99
0163470950999992000042003004+38080+127820FM-12+013599999V0202701N001519999999N0150001N1+01721+00501101291ADDAA199000091GF106991001001999999001011MA1999999099491MD1510121+9999REMSYN066AAXX  20034 47095 32965 62703 10172 20050 39949 40129 55012 80001;EQDQ01  00002PRCP99
0163470950999992000042006004+38080+127820FM-12+013599999V0202301N004612200019N0180001N1+02281+00311100831ADDAA199000091GF103991001001999999001011MA1999999099081MD1710411+9999REMSYN066AAXX  20064 47095 32968 32309 10228 20031 39908 40083 57041 80001;EQDQ01  00002PRCP99
0163470950999992000042009004+38080+127820FM-12+013599999V0202501N004119999999N0180001N1+02041+00641100721ADDAA199000091GF107991001001999999001021MA1999999098951MD1710121+9999REMSYN066AAXX  20094 47095 32968 72508 10204 20064 39895 40072 57012 80002;EQDQ01  00002PRCP99
0216470950999992000042012004+38080+127820FM-12+013599999V0202001N003110360019N0150001N1+01411+00821101101ADDAA199000091GF108991021051012501021999IA1019IA2999+01409KA1120M+02331MA1999999099281MD1210331+9999REMSYN088AAXX  20124 47095 32665 82006 10141 20082 39928 40110 52033 8252/ 333 10233 30014 55081;EQDQ01  00002PRCP99
0163470950999992000042015004+38080+127820FM-12+013599999V0202501N002110360019N0150001N1+01261+00861101051ADDAA199000091GF108991021051012501021999MA1999999099221MD1510061+9999REMSYN066AAXX  20154 47095 32665 82504 10126 20086 39922 40105 55006 8252/;EQDQ01  00002PRCP99
0161470950999992000042018004+38080+127820FM-12+013599999V0202301N002110075019N0050001N1+01071+01031100941ADDAY161061AY261061GF108991061071008001021999MA1999999099101MD1710121+9999MW1601REMSYN072AAXX  20184 47095 41550 82304 10107 20103 39910 40094 57012 76066 8672/;
0161470950999992000042021004+38080+127820FM-12+013599999V0202001N002110075019N0050001N1+01101+01021100701ADDAY161031AY261031GF108991061071008001021999MA1999999098861MD1710241+9999MW1611REMSYN072AAXX  20214 47095 41550 82004 10110 20102 39886 40070 57024 76166 8672/;
0161470950999992000042103004+38080+127820FM-12+013599999V0202301N002610042019N0040001N1+01141+01051100661ADDAY161031AY261031GF108991061071004501021999MA1999999098831MD1310021+9999MW1611REMSYN072AAXX  21034 47095 41440 82305 10114 20105 39883 40066 53002 76166 8672/;
0133470950999992000042106004+38080+127820FM-12+013599999V0202001N003110120019N0070001N1+01241+01001100551ADDGF108991051061012501021999MA1999999098731MD1710111+9999REMSYN066AAXX  21064 47095 42657 82006 10124 20100 39873 40055 57011 8562/;
0161470950999992000042109004+38080+127820FM-12+013599999V0209999C000010075019N0090001N1+01031+00821100491ADDAY161031AY261031GF108991061071008001021999MA1999999098651MD1710071+9999MW1611REMSYN072AAXX  21094 47095 41559 80000 10103 20082 39865 40049 57007 76166 8672/;
0237470950999992000042112004+38080+127820FM-12+013599999V0202301N002619999999N0100001N1+01171+00991100561ADDAA112002091AY161061AY221061GF108991041071004501999999IA1099IA2999+01109KA1120M+01271MA1999999098741MD1010081+9999MW1021REMSYN106AAXX  21124 47095 11460 82305 10117 20099 39874 40056 50008 60022 70262 847// 333 10127 31011 55000 70117;
0144470950999992000042115004+38080+127820FM-12+013599999V0202001N002610360019N0120001N1+00941+00721100701ADDAA199000021GF106991031051012501031001MA1999999098851MD1210121+9999REMSYN066AAXX  21154 47095 32662 62005 10094 20072 39885 40070 52012 83530;
0144470950999992000042118004+38080+127820FM-12+013599999V0202001N001010120019N0120001N1+00811+00641100671ADDAA199000021GF106991061051012501001001MA1999999098821MD1310031+9999REMSYN066AAXX  21184 47095 32662 62002 10081 20064 39882 40067 53003 86500;
0191470950999992000042121004+38080+127820FM-12+013599999V0202301N001510120019N0080001N1+00701+00581100691ADDAA199000021AY121031AY221031GF107991071051012501001999MA1999999098831MD1310021+9999MW1101REMSYN072AAXX  21214 47095 31658 72303 10070 20058 39883 40069 53000 71022 8750/;EQDQ01+000002APC3  
0159470950999992000042200004+38080+127820FM-12+013599999V0202301N003119999999N9999999N1+00971+00641100541ADDAA124001891IA2999+01309KA1120N+00701MA1999999098701MD1510131+9999REMSYN082AAXX  22004 47095 3//// /2306 10097 20064 39870 40054 55013 333 20070 3/013 70018;
0161470950999992000042203004+38080+127820FM-12+013599999V0202501N001010021019N0050001N1+00761+00621100611ADDAY161031AY221031GF108991061071002501021999MA1999999098751MD1010051+9999MW1611REMSYN072AAXX  22034 47095 41350 82502 10076 20062 39875 40061 50005 76162 8672/;
0133470950999992000042206004+38080+127820FM-12+013599999V0202001N003610120019N0130001N1+01041+00691100211ADDGF106991061051012501001001MA1999999098381MD1710371+9999REMSYN066AAXX  22064 47095 42663 62007 10104 20069 39838 40021 57037 86500;
0161470950999992000042209004+38080+127820FM-12+013599999V0202301N003112200019N0130001N1+00961+00661100111ADDAY181031AY221031GF104991041091008001001001MA1999999098281MD1810101+9999MW1251REMSYN072AAXX  22094 47095 41563 42306 10096 20066 39828 40011 58010 72582 84900;
0143470950999992000042215004+38080+127820FM-12+013599999V0202001N004612200019N0180001N1+00701-00131100371ADDGA1001+999999999GF100991001001999999001001MA1999999098511MD1210081+9999REMSYN060AAXX  22154 47095 42968 02009 10070 21013 39851 40037 52008;
0154470950999992000042218004+38080+127820FM-12+013599999V0202001N003112200019N0180001N1+00551-00081100361ADDAA199000021GA1001+999999999GF100991001001999999001001MA1999999098491MD1710021+9999REMSYN060AAXX  22184 47095 32968 02006 10055 21008 39849 40036 57002;
0154470950999992000042221004+38080+127820FM-12+013599999V0202001N003612200019N0180001N1+00531+00131100441ADDAA199000021GA1001+999999999GF100991001001999999001001MA1999999098571MD1210081+9999REMSYN060AAXX  22214 47095 32968 02007 10053 20013 39857 40044 52008;
0197470950999992000042300004+38080+127820FM-12+013599999V0202001N002612200019N0180001N1+00941+00191100541ADDAA124004891GF102991021001999999031001IA1099IA2999+01209KA1120N+00481MA1999999098701MD1310131+9999REMSYN088AAXX  23004 47095 32968 22005 10094 20019 39870 40054 53013 82030 333 20048 31012 70049;
0163470950999992000042303004+38080+127820FM-12+013599999V0202501N004610120019N0100001N1+01121+00061100521ADDAA199000091GF107991071051012501001001MA1999999098691MD1310011+9999REMSYN066AAXX  23034 47095 31660 72509 10112 20006 39869 40052 53001 87500;EQDQ01  00002PRCP99
0191470950999992000042306004+38080+127820FM-12+013599999V0202501N003610120019N0120001N1+01261+00201100391ADDAA199000091AY121061AY221061GF106991061051012501001001MA1999999098581MD1710121+9999MW1061REMSYN072AAXX  23064 47095 31662 62507 10126 20020 39858 40039 57012 70622 86500;EQDQ01  00002PRCP99
0161470950999992000042309004+38080+127820FM-12+013599999V0202301N004610120019N0120001N1+01181+00141100451ADDAY181031AY221031GF107991071081008001001001MA1999999098621MD1010051+9999MW1801REMSYN072AAXX  23094 47095 41562 72309 10118 20014 39862 40045 50005 78082 87800;
0231470950999992000042312004+38080+127820FM-12+013599999V0202501N002612200019N0180001N1+01091+00041100651ADDAA112000791AY101061AY201061GF103991021051012501031001IA1099IA2999+00609KA1120M+01311MA1999999098821MD1210201+9999MW1061REMSYN100AAXX  23124 47095 11668 32505 10109 20004 39882 40065 52020 69902 70600 82530 333 10131 31006 55023;
0144470950999992000042315004+38080+127820FM-12+013599999V0202001N002612200019N0180001N1+00841-00011100881ADDAA199000021GF103991031001999999051001MA1999999099021MD1210201+9999REMSYN066AAXX  23154 47095 32968 32005 10084 21001 39902 40088 52020 83050;
0144470950999992000042318004+38080+127820FM-12+013599999V0202001N001512200019N0180001N1+00711+00001100921ADDAA199000021GF102991001001999999001021MA1999999099061MD1310031+9999REMSYN066AAXX  23184 47095 32968 22003 10071 21000 39906 40092 53003 80002;
0154470950999992000042321004+38080+127820FM-12+013599999V0200501N000512200019N0200001N1+00141+00001100991ADDAA199000021GA1001+999999999GF100991001001999999001001MA1999999099081MD1210021+9999REMSYN060AAXX  23214 47095 32970 00501 10014 21000 39908 40099 52002;
0207470950999992000042400004+38080+127820FM-12+013599999V0202001N003612200019N0200001N1+01011+00101101091ADDAA124000791GA1001+999999999GF100991001001999999001001IA1019IA2999+01409KA1120N+00121MA1999999099241MD1210161+9999REMSYN082AAXX  24004 47095 32970 02007 10101 20010 39924 40109 52016 333 20012 30014 79999;
0163470950999992000042403004+38080+127820FM-12+013599999V0202301N006712200019N0200001N1+01671-00061100931ADDAA199000091GF101991001001999999001011MA1999999099131MD1710111+9999REMSYN066AAXX  24034 47095 32970 12313 10167 21006 39913 40093 57011 80001;EQDQ01  00002PRCP99
0157470950999992000042406004+38080+127820FM-12+013599999V0202301N007219999999N0220001N1+01841-00091100771ADDAA199000091GF106991999999999999999999MA1999999098991MD1710151+9999REMSYN060AAXX  24064 47095 3//72 62314 10184 21009 39899 40077 57015;EQDQ01  00002PRCP99
0163470950999992000042409004+38080+127820FM-12+013599999V0202301N005719999999N0220001N1+01641-00071100841ADDAA199000091GF106991001001999999001021MA1999999099041MD1210061+9999REMSYN066AAXX  24094 47095 32972 62311 10164 21007 39904 40084 52006 80002;EQDQ01  00002PRCP99
0163470950999992000042415004+38080+127820FM-12+013599999V0202301N001519999999N0180001N1+00911-00051101211ADDAA199000091GF105991001001999999001011MA1999999099351MD1210121+9999REMSYN066AAXX  24154 47095 32968 52303 10091 21005 39935 40121 52012 80001;EQDQ01  00002PRCP99
0163470950999992000042418004+38080+127820FM-12+013599999V0200201N002112200019N0180001N1+00401+00081101211ADDAA199000091GF103991001001999999001011MA1999999099321MD1710031+9999REMSYN066AAXX  24184 47095 32968 30204 10040 20008 39932 40121 57003 80001;EQDQ01  00002PRCP99
0179470950999992000042421004+38080+127820FM-12+013599999V0209999C000019999999N0200001N1+00341+00071101211ADDAA199000091GF106991021001999999031011MA1999999099311MD1410001+9999REMSYN066AAXX  24214 47095 32970 60000 10034 20007 39931 40121 52000 82031;EQDQ01+000022APCTENQ02  00002PRCP99
0210470950999992000042500004+38080+127820FM-12+013599999V0202701N000519999999N0180001N1+01141+00081101101ADDAA199000091GF107991051001999999031021IA1019IA2999+01509KA1120N+00221MA1999999099261MD1710051+9999REMSYN082AAXX  25004 47095 32968 72701 10114 20008 39926 40110 57005 85032 333 20022 30015;EQDQ01  00002PRCP99
0163470950999992000042503004+38080+127820FM-12+013599999V0202001N003610360019N0200001N1+01681+00241100851ADDAA199000091GF108991021051012501011999MA1999999099061MD1710211+9999REMSYN066AAXX  25034 47095 32670 82007 10168 20024 39906 40085 57021 8251/;EQDQ01  00002PRCP99
0163470950999992000042506004+38080+127820FM-12+013599999V0202001N002610360019N0180001N1+01851-00111100601ADDAA199000091GF108991041051012501021999MA1999999098821MD1710241+9999REMSYN066AAXX  25064 47095 32668 82005 10185 21011 39882 40060 57024 8452/;EQDQ01  00002PRCP99
0163470950999992000042509004+38080+127820FM-12+013599999V0203601N003610120019N0180001N1+01491+00401100551ADDAA199000091GF108991051051012501021999MA1999999098741MD1710071+9999REMSYN066AAXX  25094 47095 32668 83607 10149 20040 39874 40055 57007 8552/;EQDQ01  00002PRCP99
0216470950999992000042512004+38080+127820FM-12+013599999V0203201N001010360019N0100001N1+01131+00601100711ADDAA199000091GF108991031051012501021999IA1019IA2999+01109KA1120M+01911MA1999999098881MD1210141+9999REMSYN088AAXX  25124 47095 32660 83202 10113 20060 39888 40071 52014 8352/ 333 10191 30011 55014;EQDQ01  00002PRCP99
0161470950999992000042515004+38080+127820FM-12+013599999V0203401N000510360019N0060001N1+00951+00801100501ADDAY161031AY261031GF108991031071008001021999MA1999999098661MD1710221+9999MW1211REMSYN072AAXX  25154 47095 41556 83401 10095 20080 39866 40050 57022 72166 8372/;
0161470950999992000042518004+38080+127820FM-12+013599999V0209999C000010075019N0060001N1+00921+00851100351ADDAY161061AY261061GF108991061071008001021999MA1999999098511MD1710141+9999MW1601REMSYN072AAXX  25184 47095 41556 80000 10092 20085 39851 40035 57014 76066 8672/;
0161470950999992000042521004+38080+127820FM-12+013599999V0209999C000010360019N0040001N1+00911+00861100161ADDAY161031AY261031GF108991021061008001021999MA1999999098321MD1710191+9999MW1211REMSYN072AAXX  25214 47095 41540 80000 10091 20086 39832 40016 57019 72166 8262/;
0231470950999992000042600004+38080+127820FM-12+013599999V0200501N001010120019N0050001N1+01021+00881100021ADDAA112000591AY161061AY221061GF108991051051012501021999IA1099IA2999+01109KA1120N+00891MA1999999098191MD1710131+9999MW1601REMSYN100AAXX  26004 47095 11650 80502 10102 20088 39819 40002 57013 69962 76062 8552/ 333 20089 31011 70006;
0161470950999992000042603004+38080+127820FM-12+013599999V0200501N001510360019N0060001N1+01131+00981099961ADDAY161031AY221031GF108991031071004501011999MA1999999098141MD1510051+9999MW1211REMSYN072AAXX  26034 47095 41456 80503 10113 20098 39814 49996 55005 72162 8371/;
0180470950999992000042606004+38080+127820FM-12+013599999V0202501N000519999999N0060001N1+01251+00961099931ADDAY161061AY221061GF107991999071004501001001MA1999999098121MD1310021+9999MW1211REMSYN072AAXX  26064 47095 41456 72501 10125 20096 39812 49993 53002 72162 83700;EQDQ01+000032SCOTLC
0161470950999992000042609004+38080+127820FM-12+013599999V0203401N001010120019N0120001N1+01241+00881100031ADDAY161031AY221031GF108991051051012501021999MA1999999098221MD1210101+9999MW1061REMSYN072AAXX  26094 47095 41662 83402 10124 20088 39822 40003 52010 70662 8552/;
0237470950999992000042612004+38080+127820FM-12+013599999V0200501N002610075019N0080001N1+00911+00641100261ADDAA112006191AY161061AY221061GF108991061071008001021999IA1099IA2999+00909KA1120M+01291MA1999999098421MD1210201+9999MW1611REMSYN106AAXX  26124 47095 11558 80505 10091 20064 39842 40026 52020 60062 76162 8672/ 333 10129 31009 55004 70067;
0161470950999992000042615004+38080+127820FM-12+013599999V0202001N000510075019N0120001N1+00841+00731100331ADDAY161031AY221031GF108991051051008001021999MA1999999098491MD1310071+9999MW1061REMSYN072AAXX  26154 47095 42562 82001 10084 20073 39849 40033 53007 70662 8552/;
0161470950999992000042618004+38080+127820FM-12+013599999V0200201N002110075019N0120001N1+00741+00581100311ADDAY161061AY221061GF108991061071008001021999MA1999999098461MD1710031+9999MW1601REMSYN072AAXX  26184 47095 41562 80204 10074 20058 39846 40031 57003 76062 8672/;
0161470950999992000042621004+38080+127820FM-12+013599999V0200201N003610075019N0120001N1+00691+00541100411ADDAY161031AY261031GF108991061071008001021999MA1999999098551MD1210101+9999MW1611REMSYN072AAXX  26214 47095 41562 80207 10069 20054 39855 40041 52010 76166 8672/;
0231470950999992000042700004+38080+127820FM-12+013599999V0200201N005710075019N0140001N1+00621+00411100601ADDAA112002091AY161061AY261061GF108991051071008001021999IA1019IA2999+00709KA1120N+00621MA1999999098731MD1210181+9999MW1611REMSYN100AAXX  27004 47095 11564 80211 10062 20041 39873 40060 52018 60022 76166 8572/ 333 20062 30007 70082;
0161470950999992000042703004+38080+127820FM-12+013599999V0200201N004110075019N0200001N1+00951+00541100651ADDAY161031AY221031GF108991051051008001021999MA1999999098811MD1210071+9999MW1021REMSYN072AAXX  27034 47095 41570 80208 10095 20054 39881 40065 52007 70262 8552/;
0161470950999992000042706004+38080+127820FM-12+013599999V0200501N001510042019N0130001N1+00991+00541100711ADDAY161061AY221061GF108991061071004501021999MA1999999098861MD1210061+9999MW1611REMSYN072AAXX  27064 47095 41463 80503 10099 20054 39886 40071 52006 76162 8672/;
0161470950999992000042709004+38080+127820FM-12+013599999V0202001N002110075019N0200001N1+01021+00621100801ADDAY161031AY221031GF107991051051008001011001MA1999999098961MD1210091+9999MW1211REMSYN072AAXX  27094 47095 41570 72004 10102 20062 39896 40080 52009 72162 85510;
0237470950999992000042712004+38080+127820FM-12+013599999V0201601N001010360019N0200001N1+00711+00611101051ADDAA112000591AY161061AY221061GF107991031051012501031001IA1099IA2999+00709KA1120M+01091MA1999999099181MD1210221+9999MW1021REMSYN106AAXX  27124 47095 11670 71602 10071 20061 39918 40105 52022 69952 70262 83530 333 10109 31007 55000 70029;
0154470950999992000042715004+38080+127820FM-12+013599999V0200201N000512200019N0180001N1+00431+00371101201ADDAA199000021GA1001+999999999GF100991001001999999001001MA1999999099311MD1210131+9999REMSYN060AAXX  27154 47095 32968 00201 10043 20037 39931 40120 52013;
0182470950999992000042718004+38080+127820FM-12+013599999V0202501N000510001519N0001001N1+00421+00401101251ADDAA199000021AY141061AY241061GA1091+999999999GF109991091999999999999999MA1999999099361MD1310051+9999MW1471REMSYN066AAXX  27184 47095 31/01 92501 10042 20040 39936 40125 53005 74744;
0182470950999992000042721004+38080+127820FM-12+013599999V0209999C000010001519N0001001N1+00431+00421101361ADDAA199000021AY141031AY241031GA1091+999999999GF109991091999999999999999MA1999999099461MD1210111+9999MW1451REMSYN066AAXX  27214 47095 31/01 90000 10043 20042 39946 40136 52011 74544;
0235470950999992000042800004+38080+127820FM-12+013599999V0209999C000012200019N0002001N1+00681+00681101471ADDAA124000591AY141061AY241061GA1001+999999999GF100991001001999999001001IA1099IA2999+01409KA1120N+00351MA1999999099601MD1210131+9999MW1421REMSYN088AAXX  28004 47095 31902 00000 10068 20068 39960 40147 52013 74244 333 20035 31014 70005;
0163470950999992000042803004+38080+127820FM-12+013599999V0201101N001012200019N0180001N1+01601+00541101321ADDAA199000091GF102991021051008001001001MA1999999099511MD1710091+9999REMSYN066AAXX  28034 47095 32568 21102 10160 20054 39951 40132 57009 82500;EQDQ01  00002PRCP99
0163470950999992000042806004+38080+127820FM-12+013599999V0202701N003112200019N0180001N1+01921+00301101151ADDAA199000091GF104991041051008001001001MA1999999099371MD1710141+9999REMSYN066AAXX  28064 47095 32568 42706 10192 20030 39937 40115 57014 84500;EQDQ01  00002PRCP99
0163470950999992000042809004+38080+127820FM-12+013599999V0202301N005112200019N0180001N1+01671+00651101251ADDAA199000091GF102991021051008001001001MA1999999099451MD1110081+9999REMSYN066AAXX  28094 47095 32568 22310 10167 20065 39945 40125 51008 82500;EQDQ01  00002PRCP99
0213470950999992000042812004+38080+127820FM-12+013599999V0202301N003612200019N0180001N1+01301+00411101511ADDAA124000391GA1001+999999999GF100991001001999999001001IA1019IA2999+01109KA1120M+01971MA1999999099671MD1110081+9999REMSYN088AAXX  28124 47095 32968 02307 10130 20041 39967 40151 51008 333 10197 30011 55079 70002;
0173470950999992000042815004+38080+127820FM-12+013599999V0209999C000012200019N0140001N1+00921+00411101691ADDAA199000091GA1001+999999999GF100991001001999999001001MA1999999099831MD1210151+9999REMSYN060AAXX  28154 47095 32964 00000 10092 20041 39983 40169 52015;EQDQ01  00002PRCP99
0173470950999992000042818004+38080+127820FM-12+013599999V0200201N001012200019N0140001N1+00491+00361101821ADDAA199000091GA1001+999999999GF100991001001999999001001MA1999999099921MD1210091+9999REMSYN060AAXX  28184 47095 32964 00202 10049 20036 39992 40182 52009;EQDQ01  00002PRCP99
0173470950999992000042821004+38080+127820FM-12+013599999V0209999C000012200019N0180001N1+00361+00281101881ADDAA199000091GA1001+999999999GF100991001001999999001001MA1999999099981MD1210061+9999REMSYN060AAXX  28214 47095 32968 00000 10036 20028 39998 40188 52006;EQDQ01  00002PRCP99
0220470950999992000042900004+38080+127820FM-12+013599999V0209999C000012200019N0200001N1+01261+00461101841ADDAA199000091GA1001+999999999GF100991001001999999001001IA1019IA2999+01809KA1120N+00321MA1999999100001MD1310021+9999REMSYN076AAXX  29004 47095 32970 00000 10126 20046 30000 40184 53002 333 20032 30018;EQDQ01  00002PRCP99
0173470950999992000042903004+38080+127820FM-12+013599999V0202301N005112200019N0200001N1+01941-00011101691ADDAA199000091GA1001+999999999GF100991001001999999001001MA1999999099901MD1510101+9999REMSYN060AAXX  29034 47095 32970 02310 10194 21001 39990 40169 55010;EQDQ01  00002PRCP99
0173470950999992000042906004+38080+127820FM-12+013599999V0202501N005112200019N0180001N1+02181+00251101441ADDAA199000091GA1001+999999999GF100991001001999999001001MA1999999099661MD1710241+9999REMSYN060AAXX  29064 47095 32968 02510 10218 20025 39966 40144 57024;EQDQ01  00002PRCP99
0163470950999992000042909004+38080+127820FM-12+013599999V0202501N003119999999N0180001N1+01881+00021101381ADDAA199000091GF108991001001999999001071MA1999999099591MD1810071+9999REMSYN066AAXX  29094 47095 32968 82506 10188 20002 39959 40138 58007 80007;EQDQ01  00002PRCP99
0210470950999992000042912004+38080+127820FM-12+013599999V0201801N001012200019N0180001N1+01391+00061101481ADDAA199000091GF104991001001999999001021IA2999+01209KA1120M+02201MA1999999099651MD1310061+9999REMSYN088AAXX  29124 47095 32968 41802 10139 20006 39965 40148 53006 80002 333 10220 3/012 55097;EQDQ01  00002PRCP99
0163470950999992000042915004+38080+127820FM-12+013599999V0200201N000519999999N0180001N1+00951+00321101501ADDAA199000091GF107991001001999999001021MA1999999099641MD1310011+9999REMSYN066AAXX  29154 47095 32968 70201 10095 20032 39964 40150 53001 80002;EQDQ01  00002PRCP99
0163470950999992000042918004+38080+127820FM-12+013599999V0202001N001019999999N0180001N1+01091+00241101331ADDAA199000091GF108991021051999999011999MA1999999099491MD1710161+9999REMSYN066AAXX  29184 47095 32968 82002 10109 20024 39949 40133 57016 8251/;EQDQ01  00002PRCP99
0163470950999992000042921004+38080+127820FM-12+013599999V0202001N000510360019N0180001N1+00951+00321101091ADDAA199000091GF108991021051012501021999MA1999999099231MD1710251+9999REMSYN066AAXX  29214 47095 32668 82001 10095 20032 39923 40109 57025 8252/;EQDQ01  00002PRCP99
0210470950999992000043000004+38080+127820FM-12+013599999V0202301N004619999999N0180001N1+01311+00311101151ADDAA199000091GF107991031051999999031001IA1019IA2999+01509KA1120N+00851MA1999999099331MD1310091+9999REMSYN082AAXX  30004 47095 32968 72309 10131 20031 39933 40115 53009 83530 333 20085 30015;EQDQ01  00002PRCP99
0163470950999992000043003004+38080+127820FM-12+013599999V0202301N004612200019N0150001N1+01621+00311101031ADDAA199000091GF102991021051012501001001MA1999999099231MD1510101+9999REMSYN066AAXX  30034 47095 32665 22309 10162 20031 39923 40103 55010 82500;EQDQ01  00002PRCP99
0163470950999992000043006004+38080+127820FM-12+013599999V0202501N005112200019N0150001N1+01901+00481100741ADDAA199000091GF103991031051012501001001MA1999999098971MD1710261+9999REMSYN066AAXX  30064 47095 32665 32510 10190 20048 39897 40074 57026 83500;EQDQ01  00002PRCP99
0163470950999992000043009004+38080+127820FM-12+013599999V0202301N004612200019N0150001N1+01491+00811100731ADDAA199000091GF102991021051012501001001MA1999999098931MD1810041+9999REMSYN066AAXX  30094 47095 32665 22309 10149 20081 39893 40073 58004 82500;EQDQ01  00002PRCP99
0226470950999992000043012004+38080+127820FM-12+013599999V0202001N002612200019N0150001N1+01231+00661100901ADDAA199000091GA1001+999999999GF100991001001999999001001IA1019IA2999+01109KA1120M+01941MA1999999099071MD1210151+9999REMSYN082AAXX  30124 47095 32965 02005 10123 20066 39907 40090 52015 333 10194 30011 55056;EQDQ01  00002PRCP99
0173470950999992000043015004+38080+127820FM-12+013599999V0202301N004112200019N0120001N1+00981+00771101011ADDAA199000091GA1001+999999999GF100991001001999999001001MA1999999099161MD1210091+9999REMSYN060AAXX  30154 47095 32962 02308 10098 20077 39916 40101 52009;EQDQ01  00002PRCP99
0191470950999992000043018004+38080+127820FM-12+013599999V0200501N001510120019N0080001N1+00861+00741100871ADDAA199000091AY121061AY211061GF107991071051012501001001MA1999999099021MD1710141+9999MW1101REMSYN072AAXX  30184 47095 31658 70503 10086 20074 39902 40087 57014 71021 87500;EQDQ01  00002PRCP99
0191470950999992000043021004+38080+127820FM-12+013599999V0201401N000510120019N0050001N1+00921+00761100951ADDAA199000091AY121031AY221031GF107991071051012501001001MA1999999099101MD1210081+9999MW1101REMSYN072AAXX  30214 47095 31650 71401 10092 20076 39910 40095 52008 71022 87500;EQDQ01  00002PRCP99
0159470950999992000050100004+38080+127820FM-12+013599999V0202501N002619999999N9999999N1+01191+00821100711ADDAA112000791IA2999+01609KA1120N+00831MA1999999098881MD1810221+9999REMSYN082AAXX  01004 47095 1//// /2505 10119 20082 39888 40071 58022 69902 333 20083 3/016;
0161470950999992000050103004+38080+127820FM-12+013599999V0202301N004610075019N0030001N1+01481+00701100561ADDAY121031AY221031GF108991061051008001021999MA1999999098751MD1710131+9999MW1101REMSYN072AAXX  01034 47095 42530 82309 10148 20070 39875 40056 57013 71022 8652/;
0161470950999992000050106004+38080+127820FM-12+013599999V0200201N002110075019N0030001N1+01521+00831100431ADDAY121061AY221061GF108991061051008001021999MA1999999098631MD1710121+9999MW1101REMSYN072AAXX  01064 47095 42530 80204 10152 20083 39863 40043 57012 71022 8652/;
0161470950999992000050109004+38080+127820FM-12+013599999V0203601N002610075019N0050001N1+01221+00801100541ADDAY161031AY221031GF108991071051008001021999MA1999999098721MD1210091+9999MW1211REMSYN072AAXX  01094 47095 41550 83605 10122 20080 39872 40054 52009 72162 8752/;
0237470950999992000050112004+38080+127820FM-12+013599999V0203601N003110360019N0160001N1+00951+00671100831ADDAA112000191AY161061AY261061GF106991041051008001011001IA1099IA2999+00909KA1120M+01561MA1999999098991MD1210271+9999MW1211REMSYN106AAXX  01124 47095 11566 63606 10095 20067 39899 40083 52027 69912 72166 84510 333 10156 31009 55011 70001;
0133470950999992000050115004+38080+127820FM-12+013599999V0203601N002612200019N0160001N1+00821+00501101031ADDGF101991011051012501001001MA1999999099171MD1210181+9999REMSYN066AAXX  01154 47095 42666 13605 10082 20050 39917 40103 52018 81500;
0154470950999992000050118004+38080+127820FM-12+013599999V0203601N002112200019N0160001N1+00581+00441101081ADDAA199000021GA1001+999999999GF100991001001999999001001MA1999999099201MD1310031+9999REMSYN060AAXX  01184 47095 32966 03604 10058 20044 39920 40108 53003;
0144470950999992000050121004+38080+127820FM-12+013599999V0201101N001512200019N0150001N1+00441+00331101171ADDAA199000021GF101991011051012501001001MA1999999099281MD1210081+9999REMSYN066AAXX  01214 47095 32665 11103 10044 20033 39928 40117 52008 81500;
0197470950999992000050200004+38080+127820FM-12+013599999V0203401N001012200019N0250001N1+01251+00551101321ADDAA124000191GF102991021051012501001001IA1019IA2999+01809KA1120N+00391MA1999999099491MD1210201+9999REMSYN088AAXX  02004 47095 32675 23402 10125 20055 39949 40132 52020 82500 333 20039 30018 70001;
0163470950999992000050203004+38080+127820FM-12+013599999V0202901N003112200019N0250001N1+01661+00391101231ADDAA199000091GF103991031051999999001001MA1999999099431MD1510061+9999REMSYN066AAXX  02034 47095 32975 32906 10166 20039 39943 40123 55006 83500;EQDQ01  00002PRCP99
0163470950999992000050206004+38080+127820FM-12+013599999V0203201N003112200019N0250001N1+01961+00191101111ADDAA199000091GF104991041051012501001001MA1999999099331MD1710101+9999REMSYN066AAXX  02064 47095 32675 43206 10196 20019 39933 40111 57010 84500;EQDQ01  00002PRCP99
0131470950999992000050209004+38080+127820FM-12+013599999V0203201N001519999999N9999999N1+01761+00401101121ADDAA199000091MA1999999099321MD1810011+9999REMSYN060AAXX  02094 47095 3//// /3203 10176 20040 39932 40112 58001;EQDQ01  00002PRCP99
0216470950999992000050212004+38080+127820FM-12+013599999V0201801N001512200019N0250001N1+01381+00691101311ADDAA199000091GF101991011051999999001001IA1019IA2999+01209KA1120M+02021MA1999999099491MD1210171+9999REMSYN088AAXX  02124 47095 32975 11803 10138 20069 39949 40131 52017 81500 333 10202 30012 55090;EQDQ01  00002PRCP99
0173470950999992000050215004+38080+127820FM-12+013599999V0201601N001012200019N0250001N1+01051+00661101421ADDAA199000091GA1001+999999999GF100991001001999999001001MA1999999099571MD1210081+9999REMSYN060AAXX  02154 47095 32975 01602 10105 20066 39957 40142 52008;EQDQ01  00002PRCP99
0173470950999992000050218004+38080+127820FM-12+013599999V0200201N001012200019N0250001N1+00621+00511101401ADDAA199000091GA1001+999999999GF100991001001999999001001MA1999999099521MD1810051+9999REMSYN060AAXX  02184 47095 32975 00202 10062 20051 39952 40140 58005;EQDQ01  00002PRCP99
0173470950999992000050221004+38080+127820FM-12+013599999V0209999C000012200019N0180001N1+00491+00441101461ADDAA199000091GA1001+999999999GF100991001001999999001001MA1999999099571MD1210051+9999REMSYN060AAXX  02214 47095 32968 00000 10049 20044 39957 40146 52005;EQDQ01  00002PRCP99
0220470950999992000050300004+38080+127820FM-12+013599999V0202301N002112200019N0160001N1+01361+00741101421ADDAA199000091GA1001+999999999GF100991001001999999001001IA1019IA2999+01909KA1120N+00461MA1999999099591MD1510031+9999REMSYN076AAXX  03004 47095 32966 02304 10136 20074 39959 40142 55003 333 20046 30019;EQDQ01  00002PRCP99
0173470950999992000050303004+38080+127820FM-12+013599999V0202001N001512200019N0180001N1+99999+99999101331ADDAA199000091GA1001+999999999GF100991001001999999001001MA1999999099541MD1710051+9999REMSYN060AAXX  03034 47095 32968 02003 17197 20058 39954 40133 57005;EQDQ01  00002PRCP99
0173470950999992000050306004+38080+127820FM-12+013599999V0202301N005112200019N0180001N1+02231+00371101171ADDAA199000091GA1001+999999999GF100991001001999999001001MA1999999099401MD1710141+9999REMSYN060AAXX  03064 47095 32968 02310 10223 20037 39940 40117 57014;EQDQ01  00002PRCP99
0163470950999992000050309004+38080+127820FM-12+013599999V0202001N004112200019N0180001N1+01971+00271101171ADDAA199000091GF102991001001999999001021MA1999999099391MD1710021+9999REMSYN066AAXX  03094 47095 32968 22008 10197 20027 39939 40117 57002 80002;EQDQ01  00002PRCP99
0216470950999992000050312004+38080+127820FM-12+013599999V0202001N002112200019N0180001N1+01581+00101101391ADDAA199000091GF102991001001999999001011IA1019IA2999+01409KA1120M+02271MA1999999099581MD1210201+9999REMSYN088AAXX  03124 47095 32968 22004 10158 20010 39958 40139 52020 80001 333 10227 30014 55111;EQDQ01  00002PRCP99
0163470950999992000050315004+38080+127820FM-12+013599999V0202301N003612200019N0180001N1+01331+00311101521ADDAA199000091GF104991001001999999001011MA1999999099691MD1210101+9999REMSYN066AAXX  03154 47095 32968 42307 10133 20031 39969 40152 52010 80001;EQDQ01  00002PRCP99
0163470950999992000050318004+38080+127820FM-12+013599999V0200201N001512200019N0150001N1+00831+00431101501ADDAA199000091GF102991001001999999001011MA1999999099631MD1710061+9999REMSYN066AAXX  03184 47095 32965 20203 10083 20043 39963 40150 57006 80001;EQDQ01  00002PRCP99
0163470950999992000050321004+38080+127820FM-12+013599999V0200501N000512200019N0160001N1+00661+00441101551ADDAA199000091GF104991001001999999001011MA1999999099671MD1210041+9999REMSYN066AAXX  03214 47095 32966 40501 10066 20044 39967 40155 52004 80001;EQDQ01  00002PRCP99
0210470950999992000050400004+38080+127820FM-12+013599999V0209999C000012200019N0180001N1+01461+00511101501ADDAA199000091GF103991001001999999001021IA1019IA2999+01909KA1120N+00611MA1999999099681MD1310011+9999REMSYN082AAXX  04004 47095 32968 30000 10146 20051 39968 40150 53001 80002 333 20061 30019;EQDQ01  00002PRCP99
0163470950999992000050403004+38080+127820FM-12+013599999V0202001N003612200019N0180001N1+02091+00111101351ADDAA199000091GF102991021001999999031001MA1999999099571MD1710111+9999REMSYN066AAXX  04034 47095 32968 22007 10209 20011 39957 40135 57011 82030;EQDQ01  00002PRCP99
0161470950999992000050406004+38080+127820FM-12+013599999V0202301N004610360019N0160001N1+02081+00251101251ADDAY161061AY221061GF108991041071008001021999MA1999999099471MD1710101+9999MW1601REMSYN072AAXX  04064 47095 41566 82309 10208 20025 39947 40125 57010 76062 8472/;
0133470950999992000050409004+38080+127820FM-12+013599999V0202301N004112200019N0180001N1+02101+00121101251ADDGF103991031001999999031001MA1999999099471MD1010001+9999REMSYN066AAXX  04094 47095 42968 32308 10210 20012 39947 40125 50000 83030;
0219470950999992000050412004+38080+127820FM-12+013599999V0203401N000512200019N0180001N1+01451+00521101451ADDAA112000791GA1001+999999999GF100991001001999999001001IA1019IA2999+01309KA1120M+02281MA1999999099621MD1010151+9999REMSYN094AAXX  04124 47095 12968 03401 10145 20052 39962 40145 50015 69902 333 10228 30013 55077 79999;
0143470950999992000050415004+38080+127820FM-12+013599999V0200501N000512200019N0180001N1+01011+00461101551ADDGA1001+999999999GF100991001001999999001001MA1999999099701MD1210071+9999REMSYN060AAXX  04154 47095 42968 00501 10101 20046 39970 40155 52007;
0144470950999992000050418004+38080+127820FM-12+013599999V0200501N001012200019N0180001N1+00941+00421101501ADDAA199000021GF102991001001999999001011MA1999999099641MD1710061+9999REMSYN066AAXX  04184 47095 32968 20502 10094 20042 39964 40150 57006 80001;
0163470950999992000050421004+38080+127820FM-12+013599999V0202001N001012200019N0150001N1+00801+00481101541ADDAA199000091GF102991001001999999001011MA1999999099671MD1010031+9999REMSYN066AAXX  04214 47095 32965 22002 10080 20048 39967 40154 50003 80001;EQDQ01  00002PRCP99
0210470950999992000050500004+38080+127820FM-12+013599999V0202301N000510360019N0150001N1+01441+00401101461ADDAA199000091GF108991041051012501021999IA1019IA2999+01709KA1120N+00731MA1999999099641MD1310031+9999REMSYN082AAXX  05004 47095 32665 82301 10144 20040 39964 40146 53003 8452/ 333 20073 30017;EQDQ01  00002PRCP99
0163470950999992000050503004+38080+127820FM-12+013599999V0202501N003610360019N0130001N1+02031+00351101421ADDAA199000091GF108991021051012501021999MA1999999099641MD1510001+9999REMSYN066AAXX  05034 47095 32663 82507 10203 20035 39964 40142 55000 8252/;EQDQ01  00002PRCP99
0161470950999992000050506004+38080+127820FM-12+013599999V0203401N001510360019N0070001N1+01341+01141101551ADDAY161061AY221061GF108991041071004501021999MA1999999099721MD1210081+9999MW1611REMSYN072AAXX  05064 47095 41457 83403 10134 20114 39972 40155 52008 76162 8472/;
0161470950999992000050509004+38080+127820FM-12+013599999V0209999C000010042019N0060001N1+01281+01211101231ADDAY161031AY261031GF108991061071004501021999MA1999999099401MD1710321+9999MW1611REMSYN072AAXX  05094 47095 41456 80000 10128 20121 39940 40123 57032 76166 8672/;
0237470950999992000050512004+38080+127820FM-12+013599999V0202501N000510075019N0030001N1+01261+01221101471ADDAA112005191AY161061AY261061GF108991061071008001021999IA1099IA2999+01309KA1120M+02091MA1999999099631MD1210231+9999MW1611REMSYN106AAXX  05124 47095 11530 82501 10126 20122 39963 40147 52023 60052 76166 8672/ 333 10209 31013 55003 70046;
0161470950999992000050515004+38080+127820FM-12+013599999V0209999C000010075019N0030001N1+01221+01201101411ADDAY161031AY261031GF108991061071008001021999MA1999999099571MD1510061+9999MW1601REMSYN072AAXX  05154 47095 41530 80000 10122 20120 39957 40141 55006 76066 8672/;
0161470950999992000050518004+38080+127820FM-12+013599999V0202001N001510075019N0030001N1+01221+01191101331ADDAY161061AY221061GF108991051051008001021999MA1999999099491MD1710081+9999MW1101REMSYN072AAXX  05184 47095 42530 82003 10122 20119 39949 40133 57008 71062 8552/;
0161470950999992000050521004+38080+127820FM-12+013599999V0201801N001010075019N0050001N1+01211+01141101331ADDAY161031AY221031GF107991071051008001001001MA1999999099501MD1510001+9999MW1211REMSYN072AAXX  05214 47095 41550 71802 10121 20114 39950 40133 55000 72162 87500;
0203470950999992000050600004+38080+127820FM-12+013599999V0203201N002110120019N0100001N1+01341+01051101381ADDAA112004191GF106991061051012501001001IA1099IA2999+01809KA1120N+01201MA1999999099551MD1810051+9999REMSYN094AAXX  06004 47095 12660 63204 10134 20105 39955 40138 58005 60042 86500 333 20120 31018 70085;
0133470950999992000050603004+38080+127820FM-12+013599999V0202701N003112200019N0150001N1+01631+00651101381ADDGF104991041051012501001001MA1999999099571MD1010021+9999REMSYN066AAXX  06034 47095 42665 42706 10163 20065 39957 40138 50002 84500;
0133470950999992000050606004+38080+127820FM-12+013599999V0202701N004112200019N0200001N1+01781+00501101311ADDGF104991041051012501001001MA1999999099511MD1810061+9999REMSYN066AAXX  06064 47095 42670 42708 10178 20050 39951 40131 58006 84500;
0133470950999992000050609004+38080+127820FM-12+013599999V0202701N002612200019N0200001N1+01821+00381101221ADDGF101991011051012501001001MA1999999099421MD1710081+9999REMSYN066AAXX  06094 47095 42670 12705 10182 20038 39942 40122 57008 81500;
0203470950999992000050612004+38080+127820FM-12+013599999V0201101N001012200019N0200001N1+01251+00641101471ADDAA124003891GF102991021051012501001001IA1019IA2999+01209KA1120M+01861MA1999999099631MD1210211+9999REMSYN094AAXX  06124 47095 32670 21102 10125 20064 39963 40147 52021 82500 333 10186 30012 55090 70039;
0173470950999992000050615004+38080+127820FM-12+013599999V0200201N001012200019N0150001N1+00851+00601101601ADDAA199000091GA1001+999999999GF100991001001999999001001MA1999999099731MD1210101+9999REMSYN060AAXX  06154 47095 32965 00202 10085 20060 39973 40160 52010;EQDQ01  00002PRCP99
0163470950999992000050618004+38080+127820FM-12+013599999V0209999C000012200019N0150001N1+00671+00501101581ADDAA199000091GF103991031001999999031001MA1999999099701MD1510031+9999REMSYN066AAXX  06184 47095 32965 30000 10067 20050 39970 40158 55003 83030;EQDQ01  00002PRCP99
0163470950999992000050621004+38080+127820FM-12+013599999V0202301N003619999999N0200001N1+00931+00421101601ADDAA199000091GF106991061001999999031001MA1999999099741MD1010041+9999REMSYN066AAXX  06214 47095 32970 62307 10093 20042 39974 40160 50004 86030;EQDQ01  00002PRCP99
0220470950999992000050700004+38080+127820FM-12+013599999V0202701N002112200019N0200001N1+01381+00551101551ADDAA199000091GA1001+999999999GF100991001001999999001001IA1019IA2999+01809KA1120N+00621MA1999999099721MD1310031+9999REMSYN076AAXX  07004 47095 32970 02704 10138 20055 39972 40155 53003 333 20062 30018;EQDQ01  00002PRCP99
0173470950999992000050703004+38080+127820FM-12+013599999V0202001N003112200019N0150001N1+01841+00561101421ADDAA199000091GA1001+999999999GF100991001001999999001001MA1999999099631MD1710091+9999REMSYN060AAXX  07034 47095 32965 02006 10184 20056 39963 40142 57009;EQDQ01  00002PRCP99
0173470950999992000050706004+38080+127820FM-12+013599999V0202301N003612200019N0180001N1+02131+00511101221ADDAA199000091GA1001+999999999GF100991001001999999001001MA1999999099451MD1710181+9999REMSYN060AAXX  07064 47095 32968 02307 10213 20051 39945 40122 57018;EQDQ01  00002PRCP99
0173470950999992000050709004+38080+127820FM-12+013599999V0202301N004112200019N0180001N1+01901+00741101251ADDAA199000091GA1001+999999999GF100991001001999999001001MA1999999099461MD1010011+9999REMSYN060AAXX  07094 47095 32968 02308 10190 20074 39946 40125 50001;EQDQ01  00002PRCP99
0226470950999992000050712004+38080+127820FM-12+013599999V0202301N003612200019N0180001N1+01441+00591101461ADDAA199000091GA1001+999999999GF100991001001999999001001IA1019IA2999+01309KA1120M+02191MA1999999099641MD1210181+9999REMSYN082AAXX  07124 47095 32968 02307 10144 20059 39964 40146 52018 333 10219 30013 55113;EQDQ01  00002PRCP99
0173470950999992000050715004+38080+127820FM-12+013599999V0200701N001012200019N0150001N1+00981+00671101561ADDAA199000091GA1001+999999999GF100991001001999999001001MA1999999099701MD1210071+9999REMSYN060AAXX  07154 47095 32965 00702 10098 20067 39970 40156 52007;EQDQ01  00002PRCP99
0181470950999992000050718004+38080+127820FM-12+013599999V0209999C000012200019N0070001N1+00751+00581101671ADDAA199000091AY101061AY201061GA1001+999999999GF100991001001999999001001MA1999999099791MW1101REMSYN060AAXX  07184 47095 31957 00000 10075 20058 39979 40167 71000;EQDQ01  00002PRCP99
0201470950999992000050721004+38080+127820FM-12+013599999V0200701N001012200019N0070001N1+00611+00511101751ADDAA199000091AY101031AY201031GA1001+999999999GF100991001001999999001001MA1999999099861MD1210071+9999MW1101REMSYN066AAXX  07214 47095 31957 00702 10061 20051 39986 40175 52007 71000;EQDQ01  00002PRCP99
0248470950999992000050800004+38080+127820FM-12+013599999V0203401N001012200019N0090001N1+01331+00721101781ADDAA199000091AY101061AY201061GA1001+999999999GF100991001001999999001001IA1019IA2999+01909KA1120N+00561MA1999999099941MD1310081+9999MW1101REMSYN082AAXX  08004 47095 31959 03402 10133 20072 39994 40178 53008 71000 333 20056 30019;EQDQ01  00002PRCP99
0173470950999992000050803004+38080+127820FM-12+013599999V0202001N003612200019N0150001N1+02131+00651101581ADDAA199000091GA1001+999999999GF100991001001999999001001MA1999999099801MD1710131+9999REMSYN060AAXX  08034 47095 32965 02007 10213 20065 39980 40158 57013;EQDQ01  00002PRCP99
0173470950999992000050806004+38080+127820FM-12+013599999V0202301N005112200019N0130001N1+02501+00551101371ADDAA199000091GA1001+999999999GF100991001001999999001001MA1999999099621MD1710181+9999REMSYN060AAXX  08064 47095 32963 02310 10250 20055 39962 40137 57018;EQDQ01  00002PRCP99
0163470950999992000050809004+38080+127820FM-12+013599999V0202301N005712200019N0150001N1+02241+00461101371ADDAA199000091GF103991001001999999001011MA1999999099601MD1010021+9999REMSYN066AAXX  08094 47095 32965 32311 10224 20046 39960 40137 50002 80001;EQDQ01  00002PRCP99
0216470950999992000050812004+38080+127820FM-12+013599999V0202001N002612200019N0180001N1+01681+00691101581ADDAA199000091GF102991001001999999001021IA1019IA2999+01509KA1120M+02501MA1999999099771MD1210171+9999REMSYN088AAXX  08124 47095 32968 22005 10168 20069 39977 40158 52017 80002 333 10250 30015 55113;EQDQ01  00002PRCP99
0163470950999992000050815004+38080+127820FM-12+013599999V0200201N001512200019N0180001N1+01211+00811101651ADDAA199000091GF104991001001999999001021MA1999999099811MD1310031+9999REMSYN066AAXX  08154 47095 32968 40203 10121 20081 39981 40165 53003 80002;EQDQ01  00002PRCP99
0163470950999992000050818004+38080+127820FM-12+013599999V0200201N000512200019N0120001N1+00961+00831101571ADDAA199000091GF104991001001999999001011MA1999999099711MD1710091+9999REMSYN066AAXX  08184 47095 32962 40201 10096 20083 39971 40157 57009 80001;EQDQ01  00002PRCP99
0163470950999992000050821004+38080+127820FM-12+013599999V0209999C000012200019N0080001N1+00861+00801101531ADDAA199000091GF103991001001999999001021MA1999999099671MD1710051+9999REMSYN066AAXX  08214 47095 32958 30500 10086 20080 39967 40153 57005 80002;EQDQ01  00002PRCP99
0254470950999992000050900004+38080+127820FM-12+013599999V0201601N000512200019N0090001N1+01671+01001101431ADDAA199000091AY121061AY221061GA1001+999999999GF100991001001999999001001IA1019IA2999+02209KA1120N+00851MA1999999099621MD1310041+9999MW1101REMSYN088AAXX  09004 47095 31959 01601 10167 20100 39962 40143 53004 71022 80001 333 20085 30022;EQDQ01  00002PRCP99
0163470950999992000050903004+38080+127820FM-12+013599999V0202301N000512200019N0100001N1+02401+00901101221ADDAA199000091GF102991001001999999001011MA1999999099461MD1710161+9999REMSYN066AAXX  09034 47095 32960 22301 10240 20090 39946 40122 57016 80001;EQDQ01  00002PRCP99
0163470950999992000050906004+38080+127820FM-12+013599999V0200201N005119999999N0100001N1+02491+00791100901ADDAA199000091GF108991081001999999011999MA1999999099161MD1710311+9999REMSYN066AAXX  09064 47095 32960 80210 10249 20079 39916 40090 57031 8801/;EQDQ01  00002PRCP99
0163470950999992000050909004+38080+127820FM-12+013599999V0200201N006719999999N0120001N1+01791+00861100971ADDAA199000091GF108991081001999999021999MA1999999099181MD1710021+9999REMSYN066AAXX  09094 47095 32962 80213 10179 20086 39918 40097 57002 8802/;EQDQ01  00002PRCP99
0216470950999992000050912004+38080+127820FM-12+013599999V0200201N005710360019N0120001N1+01471+00791101101ADDAA199000091GF108991021051012501021999IA1019IA2999+01509KA1120M+02591MA1999999099281MD1210101+9999REMSYN088AAXX  09124 47095 32662 80211 10147 20079 39928 40110 52010 8252/ 333 10259 30015 55049;EQDQ01  00002PRCP99
0163470950999992000050915004+38080+127820FM-12+013599999V0200501N001510360019N0120001N1+01371+00781101091ADDAA199000091GF108991031051012501021999MA1999999099271MD1310011+9999REMSYN066AAXX  09154 47095 32662 80503 10137 20078 39927 40109 53001 8352/;EQDQ01  00002PRCP99
0163470950999992000050918004+38080+127820FM-12+013599999V0200201N003110120019N0120001N1+01321+00681100841ADDAA199000091GF108991051051012501021999MA1999999099021MD1510251+9999REMSYN066AAXX  09184 47095 32662 80206 10132 20068 39902 40084 55025 8552/;EQDQ01  00002PRCP99
0161470950999992000050921004+38080+127820FM-12+013599999V0200501N001510120019N0120001N1+01241+00791100631ADDAY161031AY221031GF108991061051012501021999MA1999999098801MD1510211+9999MW1601REMSYN072AAXX  09214 47095 41662 80503 10124 20079 39880 40063 55021 76062 8652/;
0231470950999992000051000004+38080+127820FM-12+013599999V0201601N000510042019N0070001N1+01151+01071100641ADDAA112004191AY161061AY261061GF108991061071004501021999IA1099IA2999+01309KA1120N+01131MA1999999098821MD1510011+9999MW1611REMSYN100AAXX  10004 47095 11457 81601 10115 20107 39882 40064 55001 60042 76166 8672/ 333 20113 31013 70037;
0161470950999992000051003004+38080+127820FM-12+013599999V0203201N001010075019N0070001N1+01361+01281100471ADDAY161031AY261031GF108991061071008001021999MA1999999098661MD1710161+9999MW1611REMSYN072AAXX  10034 47095 41557 83202 10136 20128 39866 40047 57016 76166 8672/;
0161470950999992000051006004+38080+127820FM-12+013599999V0200201N000510075019N0060001N1+01341+01311100401ADDAY161061AY261061GF108991061071008001021999MA1999999098591MD1810071+9999MW1631REMSYN072AAXX  10064 47095 41556 80201 10134 20131 39859 40040 58007 76366 8672/;
0161470950999992000051009004+38080+127820FM-12+013599999V0202001N003110075019N0060001N1+01231+01111100511ADDAY161031AY261031GF108991051071008001021999MA1999999098691MD1210101+9999MW1601REMSYN072AAXX  10094 47095 41556 82006 10123 20111 39869 40051 52010 76066 8572/;
0237470950999992000051012004+38080+127820FM-12+013599999V0202301N001510120019N0060001N1+01141+00971100591ADDAA112018091AY161061AY261061GF108991051071012501021999IA1099IA2999+01209KA1120M+01411MA1999999098771MD1210081+9999MW1601REMSYN106AAXX  10124 47095 11656 82303 10114 20097 39877 40059 52008 60182 76066 8572/ 333 10141 31012 55000 70221;
0161470950999992000051015004+38080+127820FM-12+013599999V0202001N003110075019N0060001N1+01101+00991100571ADDAY161031AY261031GF108991051071008001021999MA1999999098741MD1210021+9999MW1601REMSYN072AAXX  10154 47095 41556 82006 10110 20099 39874 40057 52002 76066 8572/;
0161470950999992000051018004+38080+127820FM-12+013599999V0202001N003110075019N0060001N1+01001+00881100501ADDAY161061AY261061GF108991051071008001021999MA1999999098661MD1710081+9999MW1611REMSYN072AAXX  10184 47095 41556 82006 10100 20088 39866 40050 57008 76166 8572/;
0161470950999992000051021004+38080+127820FM-12+013599999V0202001N002110075019N0060001N1+00981+00881100481ADDAY161031AY261031GF108991051071008001021999MA1999999098651MD1510021+9999MW1611REMSYN072AAXX  10214 47095 41556 82004 10098 20088 39865 40048 55002 76166 8572/;
0231470950999992000051100004+38080+127820FM-12+013599999V0202001N002110042019N0030001N1+01041+00961100521ADDAA112008991AY161061AY221061GF108991051071004501021999IA1099IA2999+01209KA1120N+00971MA1999999098691MD1210041+9999MW1601REMSYN100AAXX  11004 47095 11430 82004 10104 20096 39869 40052 52004 60092 76062 8572/ 333 20097 31012 70275;
0161470950999992000051103004+38080+127820FM-12+013599999V0202001N002110042019N0050001N1+01101+00981100511ADDAY161031AY261031GF108991061071004501021999MA1999999098681MD1510001+9999MW1611REMSYN072AAXX  11034 47095 41450 82004 10110 20098 39868 40051 55000 76166 8672/;
0161470950999992000051106004+38080+127820FM-12+013599999V0202001N002610021019N0050001N1+01111+00991100451ADDAY161061AY261061GF108991061071002501021999MA1999999098631MD1710061+9999MW1611REMSYN072AAXX  11064 47095 41350 82005 10111 20099 39863 40045 57006 76166 8672/;
0161470950999992000051109004+38080+127820FM-12+013599999V0202001N001010075019N0050001N1+01161+01011100511ADDAY161031AY221031GF108991061051008001021999MA1999999098681MD1010061+9999MW1211REMSYN072AAXX  11094 47095 41550 82002 10116 20101 39868 40051 50006 72162 8652/;
0237470950999992000051112004+38080+127820FM-12+013599999V0202501N000510075019N0060001N1+01111+01001100661ADDAA112001091AY161061AY221061GF108991061051008001021999IA1099IA2999+01109KA1120M+01201MA1999999098831MD1210151+9999MW1211REMSYN106AAXX  11124 47095 11556 82501 10111 20100 39883 40066 52015 60012 72162 8652/ 333 10120 31011 55000 70105;
0161470950999992000051118004+38080+127820FM-12+013599999V0202001N001510042019N0030001N1+01091+00961100681ADDAY151061AY221061GF108991051071004501021999MA1999999098851MD1710051+9999MW1501REMSYN072AAXX  11184 47095 41430 82003 10109 20096 39885 40068 57005 75052 8572/;
0161470950999992000051121004+38080+127820FM-12+013599999V0202001N001010360019N0020001N1+01051+00961100751ADDAY121031AY221031GF108991021051012501021999MA1999999098911MD1210061+9999MW1101REMSYN072AAXX  11214 47095 42620 82002 10105 20096 39891 40075 52006 71022 8252/;
0231470950999992000051200004+38080+127820FM-12+013599999V0203601N002110360019N0050001N1+01231+01021100891ADDAA112000791AY121061AY221061GF108991021051012501021999IA1099IA2999+01609KA1120N+01051MA1999999099061MD1210151+9999MW1101REMSYN100AAXX  12004 47095 11650 83604 10123 20102 39906 40089 52015 69902 71022 8252/ 333 20105 31016 70014;
0161470950999992000051203004+38080+127820FM-12+013599999V0202301N002110360019N0080001N1+01561+00881100811ADDAY121031AY221031GF107991021051012501021001MA1999999099001MD1710061+9999MW1101REMSYN072AAXX  12034 47095 41658 72304 10156 20088 39900 40081 57006 71022 82520;
0161470950999992000051206004+38080+127820FM-12+013599999V0202901N001010360019N0090001N1+01801+00891100701ADDAY121061AY221061GF106991031051012501011001MA1999999098911MD1710091+9999MW1101REMSYN072AAXX  12064 47095 41659 62902 10180 20089 39891 40070 57009 71022 83510;
0191470950999992000051209004+38080+127820FM-12+013599999V0202301N002610360019N0090001N1+01671+00951100691ADDAA199000091AY121031AY221031GF106991021051008001011001MA1999999098901MD1010021+9999MW1101REMSYN072AAXX  12094 47095 31559 62305 10167 20095 39890 40069 50002 71022 82510;EQDQ01  00002PRCP99
0216470950999992000051212004+38080+127820FM-12+013599999V0201101N002119999999N0050001N1+01281+01001100881ADDAA199000091GF105991001001999999001011IA1019IA2999+01109KA1120M+01881MA1999999099061MD1210161+9999REMSYN088AAXX  12124 47095 31950 51104 10128 20100 39906 40088 52016 80001 333 10188 30011 55014;EQDQ01  00002PRCP99
0191470950999992000051215004+38080+127820FM-12+013599999V0209999C000012200019N0030001N1+00981+00891100921ADDAA199000091AY121031AY221031GF104991001001999999001011MA1999999099071MD1510011+9999MW1101REMSYN072AAXX  12154 47095 31930 40000 10098 20089 39907 40092 55001 71022 80001;EQDQ01  00002PRCP99
0223470950999992000051218004+38080+127820FM-12+013599999V0201601N001012200019N0003001N1+00771+00751100961ADDAA199000091AY141061AY221061GA1001+999999999GF100991001001999999001001MA1999999099101MD1210021+9999MW1461REMSYN072AAXX  12184 47095 31/03 01602 10077 20075 39910 40096 52002 74742 8////;EQDQ01+000472PRSWM1Q02  00002PRCP99
0201470950999992000051221004+38080+127820FM-12+013599999V0209999C000010001519N0001001N1+00681+00681101001ADDAA199000091AY141031AY241031GA1091+999999999GF109991091999999999999999MA1999999099141MD1210041+9999MW1431REMSYN066AAXX  12214 47095 31/01 90000 10068 20068 39914 40100 52004 74344;EQDQ01  00002PRCP99
0225470950999992000051300004+38080+127820FM-12+013599999V0209999C000012200019N0050001N1+01241+01231101041ADDAA112000191AY121061AY221061GF102991021051012501001001IA1019IA2999+02009KA1120N+00661MA1999999099211MD1310071+9999MW1281REMSYN094AAXX  13004 47095 32650 20000 10124 20123 39921 40104 53007 69912 72822 82500 333 20066 30020;
0163470950999992000051303004+38080+127820FM-12+013599999V0202701N001512200019N0120001N1+02081+00811100811ADDAA199000091GF101991011051008001001001MA1999999099041MD1710171+9999REMSYN066AAXX  13034 47095 32562 12703 10208 20081 39904 40081 57017 81500;EQDQ01  00002PRCP99
0163470950999992000051306004+38080+127820FM-12+013599999V0203201N002612200019N0120001N1+02401+00791100611ADDAA199000091GF101991011051012501001001MA1999999098861MD1710181+9999REMSYN066AAXX  13064 47095 32662 13205 10240 20079 39886 40061 57018 81500;EQDQ01  00002PRCP99
0163470950999992000051309004+38080+127820FM-12+013599999V0201801N001510360019N0180001N1+02091+00911100621ADDAA199000091GF105991021051008001031001MA1999999098861MD1010001+9999REMSYN066AAXX  13094 47095 32568 51803 10209 20091 39886 40062 50000 82530;EQDQ01  00002PRCP99
0237470950999992000051312004+38080+127820FM-12+013599999V0201801N001510075019N0120001N1+01691+01221100901ADDAA112000191AY161061AY261061GF107991071051008001001001IA1099IA2999+01609KA1120M+02501MA1999999099111MD1210251+9999MW1601REMSYN106AAXX  13124 47095 11562 71803 10169 20122 39911 40090 52025 69912 76066 87500 333 10250 31016 55071 70002;
0143470950999992000051315004+38080+127820FM-12+013599999V0200501N001012200019N0120001N1+01261+01101101051ADDGA1001+999999999GF100991001001999999001001MA1999999099221MD1210111+9999REMSYN060AAXX  13154 47095 42962 00502 10126 20110 39922 40105 52011;
0154470950999992000051318004+38080+127820FM-12+013599999V0200501N000512200019N0120001N1+01011+00931101121ADDAA199000021GA1001+999999999GF100991001001999999001001MA1999999099271MD1010051+9999REMSYN060AAXX  13184 47095 32962 00501 10101 20093 39927 40112 50005;
0144470950999992000051321004+38080+127820FM-12+013599999V0209999C000012200019N0120001N1+00911+00861101271ADDAA199000021GF102991001001999999001011MA1999999099411MD1210141+9999REMSYN066AAXX  13214 47095 32962 20000 10091 20086 39941 40127 52014 80001;
0203470950999992000051400004+38080+127820FM-12+013599999V0203401N000519999999N0110001N1+01531+01071101281ADDAA112000591GF105991001001999999001021IA1099IA2999+02109KA1120N+00901MA1999999099461MD1310051+9999REMSYN094AAXX  14004 47095 32961 53401 10153 20107 39946 40128 53005 69952 80002 333 20090 31021 70006;
0163470950999992000051403004+38080+127820FM-12+013599999V0203201N001012200019N0110001N1+02171+01151101171ADDAA199000091GF101991011011008001001001MA1999999099411MD1710061+9999REMSYN066AAXX  14034 47095 32561 13202 10217 20115 39941 40117 57006 81100;EQDQ01  00002PRCP99
0163470950999992000051406004+38080+127820FM-12+013599999V0202501N001012200019N0120001N1+02471+00801100921ADDAA199000091GF104991011011008001001021MA1999999099171MD1710241+9999REMSYN066AAXX  14064 47095 32562 42502 10247 20080 39917 40092 57024 81102;EQDQ01  00002PRCP99
0163470950999992000051409004+38080+127820FM-12+013599999V0202001N002619999999N0150001N1+02241+01101100861ADDAA199000091GF108991021001999999031021MA1999999099101MD1710071+9999REMSYN066AAXX  14094 47095 32965 82005 10224 20110 39910 40086 57007 82032;EQDQ01  00002PRCP99
0231470950999992000051412004+38080+127820FM-12+013599999V0202001N001510360019N0090001N1+01821+01361101131ADDAA124000591AY121061AY221061GF108991021051012501011999IA1019IA2999+01809KA1120M+02491MA1999999099341MD1210241+9999MW1101REMSYN100AAXX  14124 47095 32659 82003 10182 20136 39934 40113 52024 71022 8251/ 333 10249 30018 55081 70004;
0191470950999992000051415004+38080+127820FM-12+013599999V0202301N000519999999N0050001N1+01541+01281101161ADDAA199000091AY121031AY221031GF105991001001999999001021MA1999999099351MD1310011+9999MW1101REMSYN072AAXX  14154 47095 31950 52301 10154 20128 39935 40116 53001 71022 80002;EQDQ01  00002PRCP99
0191470950999992000051418004+38080+127820FM-12+013599999V0201101N000510360019N0050001N1+01321+01191101111ADDAA199000091AY121061AY221061GF108991021051012501021999MA1999999099281MD1710071+9999MW1101REMSYN072AAXX  14184 47095 31650 81101 10132 20119 39928 40111 57007 71022 8252/;EQDQ01  00002PRCP99
0191470950999992000051421004+38080+127820FM-12+013599999V0202301N003110360019N0090001N1+01411+01111101251ADDAA199000091AY121031AY221031GF108991021051012501021999MA1999999099431MD1210151+9999MW1101REMSYN072AAXX  14214 47095 31659 82306 10141 20111 39943 40125 52015 71022 8252/;EQDQ01  00002PRCP99
0231470950999992000051500004+38080+127820FM-12+013599999V0203601N002610120019N0070001N1+01551+01171101311ADDAA112000791AY161061AY221061GF108991051051012501021999IA1019IA2999+01709KA1120N+01261MA1999999099501MD1310061+9999MW1601REMSYN100AAXX  15004 47095 11657 83605 10155 20117 39950 40131 53006 69902 76062 8552/ 333 20126 30017 79999;
0161470950999992000051503004+38080+127820FM-12+013599999V0202901N001510360019N0100001N1+01801+01111101161ADDAY161031AY261031GF107991021051012501071001MA1999999099371MD1710121+9999MW1211REMSYN072AAXX  15034 47095 41660 72903 10180 20111 39937 40116 57012 72166 82570;
0161470950999992000051506004+38080+127820FM-12+013599999V0202301N002110360019N0060001N1+01881+01201100991ADDAY121061AY221061GF108991031051012501021999MA1999999099211MD1710161+9999MW1101REMSYN072AAXX  15064 47095 41656 82304 10188 20120 39921 40099 57016 71022 8352/;
0161470950999992000051509004+38080+127820FM-12+013599999V0202001N002610360019N0080001N1+01821+01271100981ADDAY121031AY221031GF106991031051012501031001MA1999999099191MD1810021+9999MW1101REMSYN072AAXX  15094 47095 41658 62005 10182 20127 39919 40098 58002 71022 83530;
0231470950999992000051512004+38080+127820FM-12+013599999V0201801N000510120019N0060001N1+01621+01171101191ADDAA112000791AY161061AY221061GF106991061081008001031001IA1019IA2999+01509KA1120M+01961MA1999999099391MD1210201+9999MW1101REMSYN100AAXX  15124 47095 11556 61801 10162 20117 39939 40119 52020 69902 71062 86830 333 10196 30015 55001;
0172470950999992000051515004+38080+127820FM-12+013599999V0209999C000010120019N0030001N1+01471+01281101181ADDAA199000021AY121031AY221031GF108991061051012501021999MA1999999099371MD1310021+9999MW1101REMSYN072AAXX  15154 47095 31630 83600 10147 20128 39937 40118 53002 71022 8652/;
0191470950999992000051518004+38080+127820FM-12+013599999V0202001N000510120019N0030001N1+01391+01231101121ADDAA199000091AY121061AY221061GF108991061051012501021999MA1999999099301MD1810071+9999MW1101REMSYN072AAXX  15184 47095 31630 82001 10139 20123 39930 40112 58007 71022 8652/;EQDQ01  00002PRCP99
0161470950999992000051521004+38080+127820FM-12+013599999V0209999C000010120019N0030001N1+01311+01231101131ADDAY161031AY221031GF108991061051012501021999MA1999999099311MD1010011+9999MW1101REMSYN072AAXX  15214 47095 41630 80000 10131 20123 39931 40113 50001 71062 8652/;
0231470950999992000051600004+38080+127820FM-12+013599999V0209999C000010120019N0030001N1+01491+01221101141ADDAA112000791AY121061AY221061GF108991061051012501021999IA1019IA2999+01809KA1120N+01301MA1999999099331MD1310021+9999MW1101REMSYN100AAXX  16004 47095 11630 80000 10149 20122 39933 40114 53002 69902 71022 8652/ 333 20130 30018 70000;
0161470950999992000051603004+38080+127820FM-12+013599999V0202001N000510120019N0050001N1+01821+01251101061ADDAY161031AY221031GF108991061051012501021999MA1999999099271MD1710051+9999MW1211REMSYN072AAXX  16034 47095 41650 82001 10182 20125 39927 40106 57005 72162 8652/;
0161470950999992000051606004+38080+127820FM-12+013599999V0200201N001510075019N0060001N1+01831+01131100951ADDAY121061AY221061GF108991051051008001021999MA1999999099171MD1710111+9999MW1101REMSYN072AAXX  16064 47095 41556 80203 10183 20113 39917 40095 57011 71022 8552/;
0133470950999992000051609004+38080+127820FM-12+013599999V0200201N003110075019N0140001N1+01681+01161100901ADDGF106991051051008001031001MA1999999099111MD1710061+9999REMSYN066AAXX  16094 47095 42564 60206 10168 20116 39911 40090 57006 85530;
0209470950999992000051612004+38080+127820FM-12+013599999V0201601N000510360019N0140001N1+01461+01211101001ADDAA112000791GF106991031051012501031001IA1019IA2999+01409KA1120M+01841MA1999999099181MD1210071+9999REMSYN100AAXX  16124 47095 11664 61601 10146 20121 39918 40100 52007 69902 83530 333 10184 30014 55004 79999;
0133470950999992000051615004+38080+127820FM-12+013599999V0200701N001010360019N0120001N1+01381+01191101021ADDGF107991021051012501031001MA1999999099201MD1210021+9999REMSYN066AAXX  16154 47095 42662 70702 10138 20119 39920 40102 52002 82530;
0163470950999992000051618004+38080+127820FM-12+013599999V0200701N001512200019N0120001N1+01161+01101100971ADDAA199000091GF102991021051012501001001MA1999999099141MD1710071+9999REMSYN066AAXX  16184 47095 32662 20703 10116 20110 39914 40097 57007 82500;EQDQ01  00002PRCP99
0173470950999992000051621004+38080+127820FM-12+013599999V0209999C000012200019N0120001N1+01011+00981101041ADDAA199000091GA1001+999999999GF100991001001999999001001MA1999999099191MD1210061+9999REMSYN060AAXX  16214 47095 32962 00000 10101 20098 39919 40104 52006;EQDQ01  00002PRCP99
0207470950999992000051700004+38080+127820FM-12+013599999V0209999C000012200019N0150001N1+01701+01181101091ADDAA124000791GA1001+999999999GF100991001001999999001001IA1019IA2999+02309KA1120N+00991MA1999999099291MD1210091+9999REMSYN082AAXX  17004 47095 32965 00000 10170 20118 39929 40109 52009 333 20099 30023 79999;
0163470950999992000051703004+38080+127820FM-12+013599999V0202701N001510075019N0170001N1+02061+01021100961ADDAA199000091GF105991051011008001001001MA1999999099191MD1710101+9999REMSYN066AAXX  17034 47095 32567 52703 10206 20102 39919 40096 57010 85100;EQDQ01  00002PRCP99
0163470950999992000051706004+38080+127820FM-12+013599999V0202901N002112200019N0170001N1+02371+00721100781ADDAA199000091GF102991021011008001001001MA1999999099031MD1710161+9999REMSYN066AAXX  17064 47095 32567 22904 10237 20072 39903 40078 57016 82100;EQDQ01  00002PRCP99
0173470950999992000051709004+38080+127820FM-12+013599999V0202301N004112200019N0170001N1+02341+01081100691ADDAA199000091GA1001+999999999GF100991001001999999001001MA1999999098941MD1710091+9999REMSYN060AAXX  17094 47095 32967 02308 10234 20108 39894 40069 57009;EQDQ01  00002PRCP99
0216470950999992000051712004+38080+127820FM-12+013599999V0201801N001512200019N0160001N1+01801+01261100991ADDAA199000091GF102991021011008001001001IA1019IA2999+01809KA1120M+02501MA1999999099201MD1210261+9999REMSYN088AAXX  17124 47095 32566 21803 10180 20126 39920 40099 52026 82100 333 10250 30018 55116;EQDQ01  00002PRCP99
0173470950999992000051715004+38080+127820FM-12+013599999V0201601N000512200019N0160001N1+01491+01301101131ADDAA199000091GA1001+999999999GF100991001001999999001001MA1999999099321MD1210121+9999REMSYN060AAXX  17154 47095 32966 01601 10149 20130 39932 40113 52012;EQDQ01  00002PRCP99
0207470950999992000051718004+38080+127820FM-12+013599999V0209999C000010075019N0090001N1+01311+01231101141ADDAA199000091AY121061AY221061GF105991051051008001001001MA1999999099321MD1810011+9999MW1101REMSYN072AAXX  17184 47095 31559 50000 10131 20123 39932 40114 58000 71022 85500;EQDQ01+000002APC3  Q02  00002PRCP99
0191470950999992000051721004+38080+127820FM-12+013599999V0202901N000512200019N0020001N1+01191+01151101191ADDAA199000091AY121031AY221031GF103991031051008001001001MA1999999099361MD1010041+9999MW1101REMSYN072AAXX  17214 47095 31520 32901 10119 20115 39936 40119 50004 71022 83500;EQDQ01  00002PRCP99
0238470950999992000051800004+38080+127820FM-12+013599999V0203201N000510360019N0020001N1+01491+01301101201ADDAA199000091AY141061AY221061GF107991021051012501011001IA1019IA2999+02109KA1120N+01171MA1999999099391MD1310031+9999MW1281REMSYN088AAXX  18004 47095 31620 73201 10149 20130 39939 40120 53003 72842 82510 333 20117 30021;EQDQ01  00002PRCP99
0191470950999992000051803004+38080+127820FM-12+013599999V0202501N002610360019N0050001N1+02181+01031100931ADDAA199000091AY121031AY221031GF106991011051012501031011MA1999999099171MD1710221+9999MW1101REMSYN072AAXX  18034 47095 31650 62505 10218 20103 39917 40093 57022 71022 81531;EQDQ01  00002PRCP99
0191470950999992000051806004+38080+127820FM-12+013599999V0202501N004610360019N0050001N1+02221+01221100791ADDAA199000091AY121061AY221061GF108991021051012501011999MA1999999099031MD1710131+9999MW1101REMSYN072AAXX  18064 47095 31650 82509 10222 20122 39903 40079 57013 71022 8251/;EQDQ01  00002PRCP99
0191470950999992000051809004+38080+127820FM-12+013599999V0202301N003119999999N0030001N1+01971+01301100781ADDAA199000091AY121031AY221031GF108991081001999999021999MA1999999099011MD1810031+9999MW1101REMSYN072AAXX  18094 47095 31930 82306 10197 20130 39901 40078 58003 71022 8802/;EQDQ01  00002PRCP99
0244470950999992000051812004+38080+127820FM-12+013599999V0201101N001010120019N0030001N1+01761+01331100861ADDAA199000091AY121061AY221061GF108991051051012501021999IA1019IA2999+01709KA1120M+02301MA1999999099071MD1310061+9999MW1101REMSYN094AAXX  18124 47095 31630 81102 10176 20133 39907 40086 53006 71022 8552/ 333 10230 30017 55031;EQDQ01  00002PRCP99
0161470950999992000051815004+38080+127820FM-12+013599999V0201801N001510120019N0030001N1+01631+01291100941ADDAY161031AY221031GF108991061051012501021999MA1999999099141MD1210071+9999MW1601REMSYN072AAXX  18154 47095 41630 81803 10163 20129 39914 40094 52007 76062 8652/;
0161470950999992000051818004+38080+127820FM-12+013599999V0201101N002610042019N0050001N1+01421+01171100751ADDAY161061AY261061GF108991061071004501021999MA1999999098931MD1710211+9999MW1611REMSYN072AAXX  18184 47095 41450 81105 10142 20117 39893 40075 57021 76166 8672/;
0161470950999992000051821004+38080+127820FM-12+013599999V0202901N000510120019N0070001N1+01311+01211100771ADDAY161031AY221031GF108991061051012501021999MA1999999098951MD1310011+9999MW1101REMSYN072AAXX  18214 47095 41657 82901 10131 20121 39895 40077 53001 71062 8652/;
0231470950999992000051900004+38080+127820FM-12+013599999V0203401N000512200019N0090001N1+01701+01161100711ADDAA112000891AY121061AY221061GF104991021051012501031001IA1099IA2999+02309KA1120N+01301MA1999999098921MD1310031+9999MW1101REMSYN100AAXX  19004 47095 11659 43401 10170 20116 39892 40071 53003 69982 71022 82530 333 20130 31023 70008;
0161470950999992000051903004+38080+127820FM-12+013599999V0202001N002610120019N0080001N1+01751+01181100661ADDAY161031AY221031GF108991051051012501021999MA1999999098871MD1710051+9999MW1211REMSYN072AAXX  19034 47095 41658 82005 10175 20118 39887 40066 57005 72162 8552/;
0161470950999992000051906004+38080+127820FM-12+013599999V0202001N003610360019N0060001N1+01831+01271100541ADDAY161061AY221061GF108991031051012501021999MA1999999098761MD1710111+9999MW1211REMSYN072AAXX  19064 47095 41656 82007 10183 20127 39876 40054 57011 72162 8352/;
0161470950999992000051909004+38080+127820FM-12+013599999V0202301N002110075019N0110001N1+01331+01131100631ADDAY191031AY261031GF108991071071008001021999MA1999999098821MD1710061+9999MW1951REMSYN072AAXX  19094 47095 41561 82304 10133 20113 39882 40063 57006 79596 8772/;
0237470950999992000051912004+38080+127820FM-12+013599999V0203601N004110360019N0070001N1+01301+01131100671ADDAA112021191AY191061AY261061GF108991021091008001021999IA1099IA2999+01309KA1120M+01991MA1999999098861MD1010041+9999MW1951REMSYN106AAXX  19124 47095 11557 83608 10130 20113 39886 40067 50004 60212 79596 8292/ 333 10199 31013 55031 70215;
0161470950999992000051915004+38080+127820FM-12+013599999V0209999C000010075019N0120001N1+01211+01121100611ADDAY161031AY261031GF108991061051008001021999MA1999999098781MD1510071+9999MW1211REMSYN072AAXX  19154 47095 41562 81800 10121 20112 39878 40061 55007 72166 8652/;
0144470950999992000051918004+38080+127820FM-12+013599999V0209999C000012200019N0100001N1+01031+00991100591ADDAA199000021GF103991031051008001001001MA1999999098751MD1810031+9999REMSYN066AAXX  19184 47095 32560 30000 10103 20099 39875 40059 58003 83500;
0172470950999992000051921004+38080+127820FM-12+013599999V0209999C000012200019N0006001N1+00971+00951100681ADDAA199000021AY141031AY241031GF101991011051012501001001MA1999999098841MD1210091+9999MW1421REMSYN072AAXX  19214 47095 31606 10000 10097 20095 39884 40068 52009 74244 81500;
0203470950999992000052000004+38080+127820FM-12+013599999V0209999C000010360019N0180001N1+01471+01141100761ADDAA112006191GF106991021051012501031011IA1099IA2999+02109KA1120N+00961MA1999999098951MD1210111+9999REMSYN094AAXX  20004 47095 12668 60000 10147 20114 39895 40076 52011 60062 82531 333 20096 31021 70262;
0144470950999992000052003004+38080+127820FM-12+013599999V0202701N001512200019N0180001N1+01881+00991100701ADDAA199000021GF104991031021008001031001MA1999999098921MD1710031+9999REMSYN066AAXX  20034 47095 32568 42703 10188 20099 39892 40070 57003 83230;
0180470950999992000052006004+38080+127820FM-12+013599999V0200201N004110120019N0150001N1+01851+01101100621ADDAY161061AY221061GF106991999081008001001001MA1999999098841MD1810081+9999MW1801REMSYN072AAXX  20064 47095 41565 60208 10185 20110 39884 40062 58008 78062 85800;EQDQ01+000052SCOTLC
0161470950999992000052009004+38080+127820FM-12+013599999V0201101N001010360019N0150001N1+01581+01321100681ADDAY161031AY221031GF106991031021008001031001MA1999999098881MD1710041+9999MW1251REMSYN072AAXX  20094 47095 41565 61102 10158 20132 39888 40068 57004 72562 83230;
0209470950999992000052012004+38080+127820FM-12+013599999V0202001N001012200019N0180001N1+01481+01311100881ADDAA112001091GF102991021051012501001001IA1099IA2999+01409KA1120M+02011MA1999999099071MD1210191+9999REMSYN100AAXX  20124 47095 11668 22002 10148 20131 39907 40088 52019 60012 82500 333 10201 31014 55047 70069;
0172470950999992000052015004+38080+127820FM-12+013599999V0202001N002110120019N0060001N1+01391+01221101051ADDAA199000021AY121031AY221031GF108991051051012501021999MA1999999099231MD1210171+9999MW1101REMSYN072AAXX  20154 47095 31656 82004 10139 20122 39923 40105 52017 71022 8552/;
0182470950999992000052018004+38080+127820FM-12+013599999V0202001N001510006019N0009001N1+01251+01191101091ADDAA199000021AY141061AY241061GA1091+999999999GF109991091999999999999999MA1999999099261MD1210031+9999MW1451REMSYN066AAXX  20184 47095 31/09 92003 10125 20119 39926 40109 52003 74544;
0182470950999992000052021004+38080+127820FM-12+013599999V0202001N001510006019N0009001N1+01231+01151101221ADDAA199000021AY141031AY221031GA1091+999999999GF109991091999999999999999MA1999999099381MD1210121+9999MW1471REMSYN066AAXX  20214 47095 31/09 92003 10123 20115 39938 40122 52012 74742;
0225470950999992000052100004+38080+127820FM-12+013599999V0202301N002110075019N0030001N1+01271+01131101371ADDAA124001591AY141061AY241061GF108991051051008001021999IA1099IA2999+01509KA1120N+01221MA1999999099541MD1210151+9999MW1281REMSYN094AAXX  21004 47095 11530 82304 10127 20113 39954 40137 52015 72844 8552/ 333 20122 31015 70014;
0191470950999992000052103004+38080+127820FM-12+013599999V0202501N004110075019N0080001N1+01641+01201101301ADDAA199000091AY121031AY221031GF106991061051008001001001MA1999999099501MD1710041+9999MW1101REMSYN072AAXX  21034 47095 31558 62508 10164 20120 39950 40130 57004 71022 86500;EQDQ01  00002PRCP99
0191470950999992000052106004+38080+127820FM-12+013599999V0202501N004112200019N0090001N1+01951+01271101101ADDAA199000091AY101061AY201061GF102991021051012501001001MA1999999099321MD1710181+9999MW1101REMSYN072AAXX  21064 47095 31659 22508 10195 20127 39932 40110 57018 71000 82500;EQDQ01  00002PRCP99
0163470950999992000052109004+38080+127820FM-12+013599999V0202301N002112200019N0100001N1+01971+01191101041ADDAA199000091GF103991011051012501041001MA1999999099261MD1710061+9999REMSYN066AAXX  21094 47095 32660 32304 10197 20119 39926 40104 57006 81540;EQDQ01  00002PRCP99
0244470950999992000052112004+38080+127820FM-12+013599999V0201401N000512200019N0050001N1+01591+01341101161ADDAA199000091AY111061AY221061GF106991021051012501001011IA1019IA2999+01509KA1120M+02031MA1999999099361MD1210101+9999MW1101REMSYN094AAXX  21124 47095 31650 61401 10159 20134 39936 40116 52010 71012 82501 333 10203 30015 55056;EQDQ01  00002PRCP99
0191470950999992000052115004+38080+127820FM-12+013599999V0209999C000012200019N0030001N1+01331+01241101191ADDAA199000091AY121031AY211031GF104991021051012501001011MA1999999099361MD1210011+9999MW1101REMSYN072AAXX  21154 47095 31630 42900 10133 20124 39936 40119 52001 71021 82501;EQDQ01  00002PRCP99
0139470950999992000052118004+38080+127820FM-12+013599999V0209999C000019999999N0030001N1+01261+01201999999ADDAA199000091GF108991999999999999999999REMSYN071AAXX  21184 47095 31930 80000 10126 20120 9937 40120 52000 71012 8802/;EQDQ01  00002PRCP99
0191470950999992000052121004+38080+127820FM-12+013599999V0209999C000019999999N0080001N1+01351+01201101251ADDAA199000091AY121031AY221031GF107991001001999999001021MA1999999099431MD1810061+9999MW1101REMSYN072AAXX  21214 47095 31958 70000 10135 20120 39943 40125 58006 71022 80002;EQDQ01  00002PRCP99
0238470950999992000052200004+38080+127820FM-12+013599999V0209999C000010360019N0070001N1+01641+01321101321ADDAA199000091AY121061AY221061GF108991031051008001021999IA1019IA2999+01909KA1120N+01211MA1999999099521MD1210091+9999MW1101REMSYN088AAXX  22004 47095 31557 80000 10164 20132 39952 40132 52009 71022 8352/ 333 20121 30019;EQDQ01  00002PRCP99
0191470950999992000052203004+38080+127820FM-12+013599999V0202501N002612200019N0080001N1+02181+01331101221ADDAA199000091AY121031AY221031GF102991001001999999001021MA1999999099451MD1710071+9999MW1101REMSYN072AAXX  22034 47095 31958 22505 10218 20133 39945 40122 57007 71022 80002;EQDQ01  00002PRCP99
0191470950999992000052206004+38080+127820FM-12+013599999V0202301N003119999999N0090001N1+02371+01351101061ADDAA199000091AY121061AY221061GF106991021001999999031021MA1999999099301MD1710151+9999MW1101REMSYN072AAXX  22064 47095 31959 62306 10237 20135 39930 40106 57015 71022 82032;EQDQ01  00002PRCP99
0191470950999992000052209004+38080+127820FM-12+013599999V0202001N001519999999N0080001N1+02191+01481101041ADDAA199000091AY121031AY221031GF108991081001999999011999MA1999999099271MD1710031+9999MW1101REMSYN072AAXX  22094 47095 31958 82003 10219 20148 39927 40104 57003 71022 8801/;EQDQ01  00002PRCP99
0244470950999992000052212004+38080+127820FM-12+013599999V0201601N000519999999N0020001N1+01881+01561101171ADDAA199000091AY121061AY221061GF108991081001999999011999IA1019IA2999+01709KA1120M+02481MA1999999099381MD1210111+9999MW1101REMSYN094AAXX  22124 47095 31920 81601 10188 20156 39938 40117 52011 71022 8801/ 333 10248 30017 55041;EQDQ01  00002PRCP99
0191470950999992000052215004+38080+127820FM-12+013599999V0202501N000519999999N0010001N1+01591+01511101261ADDAA199000091AY121031AY221031GF108991081001999999011999MA1999999099451MD1310071+9999MW1101REMSYN072AAXX  22154 47095 31910 82501 10159 20151 39945 40126 53007 71022 8801/;EQDQ01  00002PRCP99
0185470950999992000052218004+38080+127820FM-12+013599999V0209999C000019999999N0008001N1+01541+01501101291ADDAA199000091AY141061AY241061GF108991999999999999999999MA1999999099481MD1010021+9999MW1451REMSYN066AAXX  22184 47095 31/08 80000 10154 20150 39948 40129 50002 74544;EQDQ01  00002PRCP99
0180470950999992000052221004+38080+127820FM-12+013599999V0200901N001519999999N0008001N1+01511+01461101321ADDAY141031AY241031GF108991999999999999999999MA1999999099501MD1010021+9999MW1601REMSYN072AAXX  22214 47095 41/08 80903 10151 20146 39950 40132 50002 76044 89///;EQDQ01+000092SCOTLC
0231470950999992000052300004+38080+127820FM-12+013599999V0201801N001010042019N0012001N1+01621+01531101371ADDAA112000891AY161061AY221061GF108991051071004501021999IA1099IA2999+01809KA1120N+01491MA1999999099561MD1010061+9999MW1601REMSYN100AAXX  23004 47095 11412 81802 10162 20153 39956 40137 50006 69982 76062 8572/ 333 20149 31018 70008;
0161470950999992000052303004+38080+127820FM-12+013599999V0202501N002110021019N0018001N1+01651+01531101261ADDAY191031AY281031GF108991051091002501021999MA1999999099461MD1310101+9999MW1271REMSYN072AAXX  23034 47095 41318 82504 10165 20153 39946 40126 53010 72798 8592/;
0172470950999992000052306004+38080+127820FM-12+013599999V0202301N006210090019N0080001N1+02191+01591101001ADDAA199000021AY121061AY221061GF107991071081004501001001MA1999999099241MD1710221+9999MW1101REMSYN072AAXX  23064 47095 31458 72312 10219 20159 39924 40100 57022 71022 87800;
0161470950999992000052309004+38080+127820FM-12+013599999V0202501N003612200019N0070001N1+02231+01771100931ADDAY111031AY211031GF102991001001999999001011MA1999999099171MD1710071+9999MW1101REMSYN072AAXX  23094 47095 41957 22507 10223 20177 39917 40093 57007 71011 80001;
0237470950999992000052312004+38080+127820FM-12+013599999V0202501N003110360019N0060001N1+01921+01721101081ADDAA112004191AY121061AY221061GF108991031051012501021999IA1099IA2999+01809KA1120M+02401MA1999999099301MD1210131+9999MW1101REMSYN106AAXX  23124 47095 11656 82506 10192 20172 39930 40108 52013 60042 71022 8352/ 333 10240 31018 55026 70046;
0172470950999992000052315004+38080+127820FM-12+013599999V0202301N002610360019N0050001N1+01761+01641101221ADDAA199000021AY121031AY221031GF108991031051012501021999MA1999999099421MD1310121+9999MW1101REMSYN072AAXX  23154 47095 31650 82305 10176 20164 39942 40122 53012 71022 8352/;
0191470950999992000052318004+38080+127820FM-12+013599999V0202301N001510360019N0060001N1+01751+01601101231ADDAA199000091AY121061AY221061GF108991031051012501021999MA1999999099431MD1010011+9999MW1101REMSYN072AAXX  23184 47095 31656 82303 10175 20160 39943 40123 50001 71022 8352/;EQDQ01  00002PRCP99
0191470950999992000052321004+38080+127820FM-12+013599999V0202301N002119999999N0020001N1+01751+01591101361ADDAA199000091AY121031AY221031GF108991081001999999021999MA1999999099561MD1210121+9999MW1101REMSYN072AAXX  23214 47095 31920 82304 10175 20159 39956 40136 52012 71022 8802/;EQDQ01  00002PRCP99
0225470950999992000052400004+38080+127820FM-12+013599999V0202501N001510360019N0030001N1+01881+01611101401ADDAA124003891AY121061AY221061GF108991021051012501021999IA1019IA2999+02109KA1120N+01731MA1999999099611MD1310051+9999MW1101REMSYN094AAXX  24004 47095 31630 82503 10188 20161 39961 40140 53005 71022 8252/ 333 20173 30021 70038;
0191470950999992000052403004+38080+127820FM-12+013599999V0202501N004119999999N0050001N1+02161+01731101331ADDAA199000091AY121031AY221031GF107991071001999999011001MA1999999099561MD1510051+9999MW1101REMSYN072AAXX  24034 47095 31950 72508 10216 20173 39956 40133 55005 71022 87010;EQDQ01  00002PRCP99
0201470950999992000052406004+38080+127820FM-12+013599999V0202501N003612200019N0080001N1+02641+01721101111ADDAA199000091AY101061AY201061GA1001+999999999GF100991001001999999001001MA1999999099371MD1710191+9999MW1101REMSYN066AAXX  24064 47095 31958 02507 10264 20172 39937 40111 57019 71000;EQDQ01  00002PRCP99
0173470950999992000052409004+38080+127820FM-12+013599999V0202301N003612200019N0100001N1+02551+01761101051ADDAA199000091GA1001+999999999GF100991001001999999001001MA1999999099301MD1710071+9999REMSYN060AAXX  24094 47095 32960 02307 10255 20176 39930 40105 57007;EQDQ01  00002PRCP99
0254470950999992000052412004+38080+127820FM-12+013599999V0201601N000512200019N0080001N1+02091+01721101261ADDAA199000091AY121061AY201061GA1001+999999999GF100991001001999999001001IA1019IA2999+01809KA1120M+02711MA1999999099491MD1210181+9999MW1101REMSYN088AAXX  24124 47095 31958 01601 10209 20172 39949 40126 52018 71020 333 10271 30018 55058;EQDQ01  00002PRCP99
0201470950999992000052415004+38080+127820FM-12+013599999V0209999C000012200019N0060001N1+01731+01601101381ADDAA199000091AY101031AY201031GA1001+999999999GF100991001001999999001001MA1999999099581MD1210101+9999MW1101REMSYN066AAXX  24154 47095 31956 00000 10173 20160 39958 40138 52010 71000;EQDQ01  00002PRCP99
0201470950999992000052418004+38080+127820FM-12+013599999V0209999C000012200019N0012001N1+01541+01491101411ADDAA199000091AY101061AY201061GA1001+999999999GF100991001001999999001001MA1999999099601MD1310021+9999MW1101REMSYN066AAXX  24184 47095 31912 00000 10154 20149 39960 40141 53002 71000;EQDQ01  00002PRCP99
0201470950999992000052421004+38080+127820FM-12+013599999V0201801N001010001519N0000001N1+01531+01521101511ADDAA199000091AY141031AY241031GA1091+999999999GF109991091999999999999999MA1999999099691MD1210091+9999MW1471REMSYN066AAXX  24214 47095 31/00 91802 10153 20152 39969 40151 52009 74744;EQDQ01  00002PRCP99
0238470950999992000052500004+38080+127820FM-12+013599999V0203201N001010360019N0030001N1+01761+01761101541ADDAA199000091AY121061AY221061GF108991041051008001021999IA1019IA2999+02209KA1120N+01491MA1999999099741MD1210051+9999MW1101REMSYN088AAXX  25004 47095 31530 83202 10176 20176 39974 40154 52005 71022 8452/ 333 20149 30022;EQDQ01  00002PRCP99
0201470950999992000052503004+38080+127820FM-12+013599999V0203201N001012200019N0080001N1+02421+01611101341ADDAA199000091AY121031AY221031GA1001+999999999GF100991001001999999001001MA1999999099581MD1710151+9999MW1101REMSYN066AAXX  25034 47095 31958 03202 10242 20161 39958 40134 57015 71022;EQDQ01  00002PRCP99
0173470950999992000052506004+38080+127820FM-12+013599999V0202901N001012200019N0150001N1+02891+01501101081ADDAA199000091GA1001+999999999GF100991001001999999001001MA1999999099361MD1710221+9999REMSYN060AAXX  25064 47095 32965 02902 10289 20150 39936 40108 57022;EQDQ01  00002PRCP99
0173470950999992000052509004+38080+127820FM-12+013599999V0202301N002612200019N0180001N1+02841+01361100991ADDAA199000091GA1001+999999999GF100991001001999999001001MA1999999099261MD1710101+9999REMSYN060AAXX  25094 47095 32968 02305 10284 20136 39926 40099 57010;EQDQ01  00002PRCP99
0226470950999992000052512004+38080+127820FM-12+013599999V0201101N001012200019N0150001N1+02221+01561101111ADDAA199000091GA1001+999999999GF100991001001999999001001IA1019IA2999+02009KA1120M+02961MA1999999099351MD1210081+9999REMSYN082AAXX  25124 47095 32965 01102 10222 20156 39935 40111 52008 333 10296 30020 55093;EQDQ01  00002PRCP99
0173470950999992000052515004+38080+127820FM-12+013599999V0209999C000012200019N0120001N1+01841+01591101211ADDAA199000091GA1001+999999999GF100991001001999999001001MA1999999099421MD1310071+9999REMSYN060AAXX  25154 47095 32962 00000 10184 20159 39942 40121 53007;EQDQ01  00002PRCP99
0201470950999992000052518004+38080+127820FM-12+013599999V0200701N001012200019N0070001N1+01641+01541101161ADDAA199000091AY101061AY201061GA1001+999999999GF100991001001999999001001MA1999999099361MD1510061+9999MW1101REMSYN066AAXX  25184 47095 31957 00702 10164 20154 39936 40116 55006 71000;EQDQ01  00002PRCP99
0191470950999992000052521004+38080+127820FM-12+013599999V0200501N000519999999N0090001N1+01551+01501101111ADDAA199000091AY121031AY221031GF106991001001999999001011MA1999999099301MD1710051+9999MW1101REMSYN072AAXX  25214 47095 31959 60501 10155 20150 39930 40111 57005 71022 80001;EQDQ01  00002PRCP99
0210470950999992000052600004+38080+127820FM-12+013599999V0209999C000019999999N0120001N1+01941+01641101021ADDAA199000091GF108991001001999999001071IA1019IA2999+02409KA1120N+01501MA1999999099241MD1710071+9999REMSYN082AAXX  26004 47095 32962 80000 10194 20164 39924 40102 57007 80007 333 20150 30024;EQDQ01  00002PRCP99
0163470950999992000052603004+38080+127820FM-12+013599999V0202901N001019999999N0130001N1+02521+01681100821ADDAA199000091GF108991001001999999001071MA1999999099081MD1710161+9999REMSYN066AAXX  26034 47095 32963 82902 10252 20168 39908 40082 57016 80007;EQDQ01  00002PRCP99
0163470950999992000052606004+38080+127820FM-12+013599999V0202501N003610360019N0110001N1+02601+01821100701ADDAA199000091GF108991021051012501021999MA1999999098961MD1710121+9999REMSYN066AAXX  26064 47095 32661 82507 10260 20182 39896 40070 57012 8252/;EQDQ01  00002PRCP99
0191470950999992000052609004+38080+127820FM-12+013599999V0202001N001010360019N0070001N1+02401+01351100721ADDAA199000091AY121031AY221031GF108991031051012501021999MA1999999098981MD1010021+9999MW1101REMSYN072AAXX  26094 47095 31657 82002 10240 20135 39898 40072 50002 71022 8352/;EQDQ01  00002PRCP99
0237470950999992000052612004+38080+127820FM-12+013599999V0209999C000010075019N0080001N1+02051+01631100681ADDAA112000791AY161061AY221061GF108991051071008001021999IA1019IA2999+02009KA1120M+02661MA1999999098911MD1710071+9999MW1601REMSYN106AAXX  26124 47095 11558 80000 10205 20163 39891 40068 57007 69902 76062 8572/ 333 10266 30020 55000 70000;
0161470950999992000052615004+38080+127820FM-12+013599999V0200901N001510075019N0050001N1+01711+01551100591ADDAY161031AY261031GF108991061071008001021999MA1999999098811MD1510111+9999MW1611REMSYN072AAXX  26154 47095 41550 80903 10171 20155 39881 40059 55011 76166 8672/;
0161470950999992000052618004+38080+127820FM-12+013599999V0203601N002110075019N0030001N1+01711+01621100211ADDAY161061AY261061GF108991061071008001021999MA1999999098431MD1710371+9999MW1601REMSYN072AAXX  26184 47095 41530 83604 10171 20162 39843 40021 57037 76066 8672/;
0161470950999992000052621004+38080+127820FM-12+013599999V0200201N002110075019N0080001N1+01821+01571100071ADDAY161031AY221031GF108991051071008001021999MA1999999098301MD1710131+9999MW1601REMSYN072AAXX  26214 47095 41558 80204 10182 20157 39830 40007 57013 76062 8572/;
0231470950999992000052700004+38080+127820FM-12+013599999V0203601N003110075019N0080001N1+01791+01591099981ADDAA112003091AY161061AY261061GF108991051051008001021999IA1099IA2999+01809KA1120N+01651MA1999999098201MD1710101+9999MW1601REMSYN100AAXX  27004 47095 11558 83606 10179 20159 39820 49998 57010 60032 76066 8552/ 333 20165 31018 70032;
0161470950999992000052703004+38080+127820FM-12+013599999V0203401N002610075019N0080001N1+01661+01601099921ADDAY161031AY261031GF108991051051008001021999MA1999999098141MD1710061+9999MW1611REMSYN072AAXX  27034 47095 41558 83405 10166 20160 39814 49992 57006 76166 8552/;
0172470950999992000052706004+38080+127820FM-12+013599999V0200201N002610075019N0150001N1+01711+01511099751ADDAA199000021AY161061AY261061GF108991061051008001021999MA1999999097981MD1710171+9999MW1601REMSYN072AAXX  27064 47095 31565 80205 10171 20151 39798 49975 57017 76066 8652/;
0180470950999992000052709004+38080+127820FM-12+013599999V0203401N001510360019N0150001N1+01581+01501099761ADDAY161031AY221031GF108991031061004501021999MA1999999097971MD1810011+9999MW1211REMSYN072AAXX  27094 47095 41465 83403 10158 20150 39797 49976 58000 72162 8362/;EQDQ01+000002APC3  
0237470950999992000052712004+38080+127820FM-12+013599999V0201401N000510120019N0150001N1+01581+01481099851ADDAA112007191AY161061AY221061GF108991051051012501021999IA1099IA2999+01609KA1120M+01841MA1999999098071MD1210091+9999MW1021REMSYN106AAXX  27124 47095 11665 81401 10158 20148 39807 49985 52009 60072 70262 8552/ 333 10184 31016 55000 70106;
0161470950999992000052715004+38080+127820FM-12+013599999V0201801N000510120019N0130001N1+01561+01491099861ADDAY161031AY221031GF108991061051012501021999MA1999999098081MD1310011+9999MW1211REMSYN072AAXX  27154 47095 41663 81801 10156 20149 39808 49986 53001 72162 8652/;
0180470950999992000052718004+38080+127820FM-12+013599999V0202001N001510120019N0120001N1+01671+01561099861ADDAY161061AY221061GF108991061051012501021999MA1999999098081MD1410001+9999MW1601REMSYN072AAXX  27184 47095 41662 82003 10167 20156 39808 49986 57000 76062 8652/;EQDQ01+000072APCTEN
0161470950999992000052721004+38080+127820FM-12+013599999V0202301N002110360019N0120001N1+01691+01411100021ADDAY161031AY221031GF107991041051008001031001MA1999999098241MD1210161+9999MW1021REMSYN072AAXX  27214 47095 41562 72304 10169 20141 39824 40002 52016 70262 84530;
0212470950999992000052800004+38080+127820FM-12+013599999V0202301N003610120019N0150001N1+01801+01281100181ADDAA112000591AY161061AY221061GF106991061051012501001001IA1099IA2999+02209MA1999999098411MD1210171+9999MW1021REMSYN094AAXX  28004 47095 11665 62307 10180 20128 39841 40018 52017 69942 70262 86500 333 31022 70078;
0179470950999992000052803004+38080+127820FM-12+013599999V0202501N002610120019N0200001N1+02141+00911100161ADDAA199000021GF106991061051012501001001MA1999999098401MD1710021+9999REMSYN066AAXX  28034 47095 32670 62505 10214 20091 39840 40016 57000 86500;EQDQ01+000072APCTENQ02+000002APC3  
0144470950999992000052806004+38080+127820FM-12+013599999V0203401N002612200019N0200001N1+02251+01061100191ADDAA199000021GF103991031051012501001001MA1999999098451MD1210041+9999REMSYN066AAXX  28064 47095 32670 33405 10225 20106 39845 40019 52004 83500;
0163470950999992000052809004+38080+127820FM-12+013599999V0200201N003112200019N0200001N1+02461+00881100361ADDAA199000091GF102991021051012501001001MA1999999098631MD1210181+9999REMSYN066AAXX  28094 47095 32670 20206 10246 20088 39863 40036 52018 82500;EQDQ01  00002PRCP99
0213470950999992000052812004+38080+127820FM-12+013599999V0201401N001012200019N0200001N1+01791+01201100721ADDAA124000591GA1001+999999999GF100991001001999999001001IA1019IA2999+01509KA1120M+02471MA1999999098941MD1210311+9999REMSYN088AAXX  28124 47095 32970 01402 10179 20120 39894 40072 52031 333 10247 30015 55055 70004;
0143470950999992000052815004+38080+127820FM-12+013599999V0200501N000512200019N0200001N1+01371+01251999999ADDAA199000091GA1001+999999999GF100991001001999999001001REMSYN059AAXX  28154 47095 32970 00501 10137 20125 3995 40097 52022;EQDQ01  00002PRCP99
0173470950999992000052818004+38080+127820FM-12+013599999V0200701N001512200019N0200001N1+01201+01131101111ADDAA199000091GA1001+999999999GF100991001001999999001001MA1999999099281MD1210131+9999REMSYN060AAXX  28184 47095 32970 00703 10120 20113 39928 40111 52013;EQDQ01  00002PRCP99
0173470950999992000052821004+38080+127820FM-12+013599999V0209999C000012200019N0200001N1+01091+01021101251ADDAA199000091GA1001+999999999GF100991001001999999001001MA1999999099411MD1210131+9999REMSYN060AAXX  28214 47095 32970 00000 10109 20102 39941 40125 52013;EQDQ01  00002PRCP99
0210470950999992000052900004+38080+127820FM-12+013599999V0200201N000512200019N0150001N1+01801+01291101241ADDAA199000091GF101991001001999999001011IA1019IA2999+02609KA1120N+01071MA1999999099451MD1310041+9999REMSYN082AAXX  29004 47095 32965 10201 10180 20129 39945 40124 53004 80001 333 20107 30026;EQDQ01  00002PRCP99
0173470950999992000052903004+38080+127820FM-12+013599999V0202001N003112200019N0150001N1+02461+01121101081ADDAA199000091GA1001+999999999GF100991001001999999001001MA1999999099341MD1710111+9999REMSYN060AAXX  29034 47095 32965 02006 10246 20112 39934 40108 57011;EQDQ01  00002PRCP99
0163470950999992000052906004+38080+127820FM-12+013599999V0202301N006219999999N0150001N1+02671+00691101001ADDAA199000091GF105991001001999999001021MA1999999099261MD1710071+9999REMSYN066AAXX  29064 47095 32965 52312 10267 20069 39926 40100 57007 80002;EQDQ01  00002PRCP99
0163470950999992000052909004+38080+127820FM-12+013599999V0202001N003610075019N0150001N1+02401+00601100971ADDAA199000091GF107991051051008001031001MA1999999099221MD1510041+9999REMSYN066AAXX  29094 47095 32565 72007 10240 20060 39922 40097 55004 85530;EQDQ01  00002PRCP99
0213470950999992000052912004+38080+127820FM-12+013599999V0209999C000012200019N0200001N1+01921+00831101111ADDAA124000191GA1001+999999999GF100991001001999999001001IA1019IA2999+01609KA1120M+02681MA1999999099331MD1210111+9999REMSYN088AAXX  29124 47095 32970 00000 10192 20083 39933 40111 52011 333 10268 30016 55094 70001;
0173470950999992000052915004+38080+127820FM-12+013599999V0200501N001012200019N0200001N1+01361+01011101181ADDAA199000091GA1001+999999999GF100991001001999999001001MA1999999099351MD1310021+9999REMSYN060AAXX  29154 47095 32970 00502 10136 20101 39935 40118 53002;EQDQ01  00002PRCP99
0173470950999992000052918004+38080+127820FM-12+013599999V0209999C000012200019N0200001N1+01141+00971101061ADDAA199000091GA1001+999999999GF100991001001999999001001MA1999999099221MD1710141+9999REMSYN060AAXX  29184 47095 32970 00000 10114 20097 39922 40106 57014;EQDQ01  00002PRCP99
0163470950999992000052921004+38080+127820FM-12+013599999V0200201N001019999999N0120001N1+01051+00921101041ADDAA199000091GF106991001001999999001061MA1999999099201MD1710021+9999REMSYN066AAXX  29214 47095 32962 60202 10105 20092 39920 40104 57002 80006;EQDQ01  00002PRCP99
0238470950999992000053000004+38080+127820FM-12+013599999V0209999C000019999999N0090001N1+01621+01051100961ADDAA199000091AY121061AY221061GF107991021001999999011021IA1019IA2999+02109KA1120N+01031MA1999999099161MD1510041+9999MW1101REMSYN088AAXX  30004 47095 31959 70000 10162 20105 39916 40096 55004 71022 82012 333 20103 30021;EQDQ01  00002PRCP99
0191470950999992000053003004+38080+127820FM-12+013599999V0202501N003119999999N0090001N1+02061+01371100811ADDAA199000091AY121031AY221031GF108991081001999999021999MA1999999099041MD1710121+9999MW1101REMSYN072AAXX  30034 47095 31959 82506 10206 20137 39904 40081 57012 71022 8802/;EQDQ01  00002PRCP99
0191470950999992000053006004+38080+127820FM-12+013599999V0202301N003619999999N0080001N1+02031+01361100721ADDAA199000091AY121061AY221061GF108991081001999999021999MA1999999098951MD1710091+9999MW1101REMSYN072AAXX  30064 47095 31958 82307 10203 20136 39895 40072 57009 71022 8802/;EQDQ01  00002PRCP99
0161470950999992000053009004+38080+127820FM-12+013599999V0202301N002610360019N0080001N1+01931+01401100591ADDAY161031AY221031GF108991021051008001021999MA1999999098821MD1810141+9999MW1211REMSYN072AAXX  30094 47095 41558 82305 10193 20140 39882 40059 58014 72162 8252/;
0231470950999992000053012004+38080+127820FM-12+013599999V0202001N001510120019N0060001N1+01751+01331100641ADDAA112000791AY161061AY221061GF108991061051012501021999IA1019IA2999+01709KA1120M+02131MA1999999098851MD1210041+9999MW1601REMSYN100AAXX  30124 47095 11656 82003 10175 20133 39885 40064 52004 69902 76062 8652/ 333 10213 30017 55012;
0161470950999992000053015004+38080+127820FM-12+013599999V0201801N001010120019N0050001N1+01591+01251100641ADDAY161031AY221031GF108991051051012501021999MA1999999098841MD1310011+9999MW1601REMSYN072AAXX  30154 47095 41650 81802 10159 20125 39884 40064 53001 76062 8552/;
0112470950999992000053018004+38080+127820FM-12+013599999V0203601N001519999999N9999999N1+01481+01381100471ADDAA199000021MA1999999098671MD1710171+9999REMSYN060AAXX  30184 47095 3//// /3603 10148 20138 39867 40047 57017;
0172470950999992000053021004+38080+127820FM-12+013599999V0209999C000010360019N0070001N1+01471+01371100431ADDAA199000021AY121031AY221031GF108991031051012501021999MA1999999098631MD1810041+9999MW1101REMSYN072AAXX  30214 47095 31657 80000 10147 20137 39863 40043 58004 71022 8352/;
0203470950999992000053100004+38080+127820FM-12+013599999V0209999C000010360019N0100001N1+01731+01241100411ADDAA112000191GF107991031051008001031001IA1099IA2999+02109KA1120N+01441MA1999999098621MD1010011+9999REMSYN094AAXX  31004 47095 12560 70000 10173 20124 39862 40041 50001 69922 83530 333 20144 31021 70002;
0144470950999992000053103004+38080+127820FM-12+013599999V0203401N001510120019N0150001N1+02161+01261100371ADDAA199000021GF105991051051012501001001MA1999999098611MD1210011+9999REMSYN066AAXX  31034 47095 32665 53403 10216 20126 39861 40037 52001 85500;
0163470950999992000053106004+38080+127820FM-12+013599999V0202701N002110120019N0180001N1+02281+01191100261ADDAA199000091GF105991051051012501001001MA1999999098511MD1810101+9999REMSYN066AAXX  31064 47095 32668 52704 10228 20119 39851 40026 58010 85500;EQDQ01  00002PRCP99
0213470950999992000053112004+38080+127820FM-12+013599999V0201401N001012200019N0150001N1+01891+01371100491ADDAA124000391GA1001+999999999GF100991001001999999001001IA1019IA2999+01809KA1120M+02461MA1999999098711MD1210231+9999REMSYN088AAXX  31124 47095 32965 01402 10189 20137 39871 40049 52023 333 10246 30018 55084 70002;
0173470950999992000053115004+38080+127820FM-12+013599999V0209999C000012200019N0150001N1+01701+01431100691ADDAA199000091GA1001+999999999GF100991001001999999001001MA1999999098891MD1210231+9999REMSYN060AAXX  31154 47095 32965 02300 10170 20143 39889 40069 52023;EQDQ01  00002PRCP99
0173470950999992000053118004+38080+127820FM-12+013599999V0209999C000012200019N0120001N1+01451+01361100861ADDAA199000091GA1001+999999999GF100991001001999999001001MA1999999099051MD1210231+9999REMSYN060AAXX  31184 47095 32962 00000 10145 20136 39905 40086 52023;EQDQ01  00002PRCP99
0201470950999992000053121004+38080+127820FM-12+013599999V0200201N001012200019N0060001N1+01351+01301100991ADDAA199000091AY101031AY201031GA1001+999999999GF100991001001999999001001MA1999999099171MD1210121+9999MW1101REMSYN066AAXX  31214 47095 31956 00202 10135 20130 39917 40099 52012 71000;EQDQ01  00002PRCP99
0238470950999992000060100004+38080+127820FM-12+013599999V0202501N001519999999N0060001N1+01811+01491101071ADDAA199000091AY111061AY221061GF107991071001999999031001IA1019IA2999+02209KA1120N+01331MA1999999099281MD1310111+9999MW1101REMSYN088AAXX  01004 47095 31956 72503 10181 20149 39928 40107 53011 71012 87030 333 20133 30022;EQDQ01  00002PRCP99
0163470950999992000060103004+38080+127820FM-12+013599999V0202501N001510360019N0100001N1+02311+01461101091ADDAA199000091GF106991021051012501031001MA1999999099341MD1210071+9999REMSYN066AAXX  01034 47095 32660 62503 10231 20146 39934 40109 52007 82530;EQDQ01  00002PRCP99
0163470950999992000060106004+38080+127820FM-12+013599999V0202501N002112200019N0130001N1+02571+01371101021ADDAA199000091GF102991021051012501001001MA1999999099281MD1810061+9999REMSYN066AAXX  01064 47095 32663 22504 10257 20137 39928 40102 58006 82500;EQDQ01  00002PRCP99
0163470950999992000060109004+38080+127820FM-12+013599999V0202301N002110120019N0150001N1+02441+01461101051ADDAA199000091GF106991061051012501001001MA1999999099301MD1210021+9999REMSYN066AAXX  01094 47095 32665 62304 10244 20146 39930 40105 52002 86500;EQDQ01  00002PRCP99
0210470950999992000060112004+38080+127820FM-12+013599999V0200901N001010360019N0150001N1+02011+01591101221ADDAA199000091GF108991021051012501021999IA1019IA2999+02009KA1120M+02581MA1999999099441MD1210141+9999REMSYN082AAXX  01124 47095 32665 80902 10201 20159 39944 40122 52014 8252/ 333 10258 30020;EQDQ01  00002PRCP99
0191470950999992000060115004+38080+127820FM-12+013599999V0209999C000010360019N0060001N1+01751+01621101351ADDAA199000091AY121031AY221031GF106991021051012501031001MA1999999099551MD1210111+9999MW1101REMSYN072AAXX  01154 47095 31656 60000 10175 20162 39955 40135 52011 71022 82530;EQDQ01  00002PRCP99
0207470950999992000060118004+38080+127820FM-12+013599999V0200901N000512200019N0060001N1+01571+01521101361ADDAA199000091AY121061AY221061GF103991031001012501031001MA1999999099551MD1310011+9999MW1101REMSYN072AAXX  01184 47095 31656 30901 10157 20152 39955 40136 53000 71022 83030;EQDQ01+000002APC3  Q02  00002PRCP99
0191470950999992000060121004+38080+127820FM-12+013599999V0209999C000010360019N0050001N1+01511+01451101471ADDAA199000091AY121031AY221031GF105991021051012501031001MA1999999099651MD1010101+9999MW1101REMSYN072AAXX  01214 47095 31650 50000 10151 20145 39965 40147 50010 71022 82530;EQDQ01  00002PRCP99
0238470950999992000060200004+38080+127820FM-12+013599999V0209999C000012200019N0080001N1+01981+01471101471ADDAA199000091AY101061AY201061GF102991001001999999001011IA1019IA2999+02609KA1120N+01481MA1999999099691MD1110041+9999MW1101REMSYN088AAXX  02004 47095 31958 20000 10198 20147 39969 40147 51004 71000 80001 333 20148 30026;EQDQ01  00002PRCP99
0191470950999992000060203004+38080+127820FM-12+013599999V0203201N001512200019N0080001N1+02451+01501101301ADDAA199000091AY101031AY201031GF102991011051012501001011MA1999999099541MD1710151+9999MW1101REMSYN072AAXX  02034 47095 31658 23203 10245 20150 39954 40130 57015 71000 81501;EQDQ01  00002PRCP99
0163470950999992000060206004+38080+127820FM-12+013599999V0202901N001512200019N0100001N1+02691+01441101061ADDAA199000091GF106991011051012501001011MA1999999099321MD1710221+9999REMSYN066AAXX  02064 47095 32660 62903 10269 20144 39932 40106 57022 81501;EQDQ01  00002PRCP99
0163470950999992000060209004+38080+127820FM-12+013599999V0202301N002112200019N0120001N1+02701+01571100991ADDAA199000091GF102991021051012501001001MA1999999099261MD1710061+9999REMSYN066AAXX  02094 47095 32662 22304 10270 20157 39926 40099 57006 82500;EQDQ01  00002PRCP99
0238470950999992000060212004+38080+127820FM-12+013599999V0209999C000012200019N0080001N1+02221+01791101161ADDAA199000091AY111061AY211061GF103991001001999999001011IA1019IA2999+02109KA1120M+02801MA1999999099391MD1210131+9999MW1101REMSYN088AAXX  02124 47095 31958 30000 10222 20179 39939 40116 52013 71011 80001 333 10280 30021;EQDQ01  00002PRCP99
0163470950999992000060215004+38080+127820FM-12+013599999V0200201N001519999999N0050001N1+01901+01681101231ADDAA199000091GF105991001001999999001011MA1999999099441MD1310051+9999REMSYN066AAXX  02154 47095 31950 50203 10190 20168 39944 40123 53005 80001;EQDQ01  00002PRCP99
0191470950999992000060218004+38080+127820FM-12+013599999V0209999C000012200019N0030001N1+01681+01591101151ADDAA199000091AY121061AY211061GF103991001001999999001011MA1999999099351MD1710091+9999MW1101REMSYN072AAXX  02184 47095 31930 30500 10168 20159 39935 40115 57009 71021 80001;EQDQ01  00002PRCP99
0157470950999992000060221004+38080+127820FM-12+013599999V0209999C000012200019N0100001N1+01601+01511101121ADDAA199000091GF102991999999999999999999MA1999999099321MD1010031+9999REMSYN060AAXX  02214 47095 3//60 20700 10160 20151 39932 40112 50003;EQDQ01  00002PRCP99
0210470950999992000060300004+38080+127820FM-12+013599999V0203601N003612200019N0120001N1+02191+01621101031ADDAA199000091GF102991001001999999001011IA1019IA2999+02909KA1120N+01581MA1999999099271MD1710051+9999REMSYN082AAXX  03004 47095 32962 23607 10219 20162 39927 40103 57005 80001 333 20158 30029;EQDQ01  00002PRCP99
0163470950999992000060303004+38080+127820FM-12+013599999V0203201N003112200019N0140001N1+02711+01711100811ADDAA199000091GF102991021011008001001001MA1999999099081MD1710191+9999REMSYN066AAXX  03034 47095 32564 23206 10271 20171 39908 40081 57019 82100;EQDQ01  00002PRCP99
0163470950999992000060306004+38080+127820FM-12+013599999V0203601N005112200019N0150001N1+02981+01201100581ADDAA199000091GF102991021011008001001001MA1999999098871MD1710211+9999REMSYN066AAXX  03064 47095 32565 23610 10298 20120 39887 40058 57021 82100;EQDQ01  00002PRCP99
0163470950999992000060309004+38080+127820FM-12+013599999V0200501N003112200019N0200001N1+02861+01161100591ADDAA199000091GF106991031051008001001011MA1999999098881MD1010011+9999REMSYN066AAXX  03094 47095 32570 60506 10286 20116 39888 40059 50001 83501;EQDQ01  00002PRCP99
0216470950999992000060312004+38080+127820FM-12+013599999V0200701N003112200019N0200001N1+02281+01321100771ADDAA199000091GF106991021051012501001011IA1019IA2999+02109KA1120M+03061MA1999999099011MD1210131+9999REMSYN088AAXX  03124 47095 32670 60706 10228 20132 39901 40077 52013 82501 333 10306 30021 55060;EQDQ01  00002PRCP99
0163470950999992000060315004+38080+127820FM-12+013599999V0201401N001012200019N0200001N1+01861+01251100921ADDAA199000091GF102991001001999999001011MA1999999099131MD1210121+9999REMSYN066AAXX  03154 47095 32970 21402 10186 20125 39913 40092 52012 80001;EQDQ01  00002PRCP99
0157470950999992000060318004+38080+127820FM-12+013599999V0200501N001012200019N0180001N1+01621+01221100921ADDAA199000091GF102991999999999999999999MA1999999099121MD1310011+9999REMSYN060AAXX  03184 47095 32968 20502 10162 20122 39912 40092 53001;EQDQ01  00002PRCP99
0163470950999992000060321004+38080+127820FM-12+013599999V0209999C000019999999N0200001N1+01451+01231101021ADDAA199000091GF106991001001999999001011MA1999999099211MD1210091+9999REMSYN066AAXX  03214 47095 32970 60000 10145 20123 39921 40102 52009 80001;EQDQ01  00002PRCP99
0210470950999992000060400004+38080+127820FM-12+013599999V0200901N000519999999N0200001N1+02201+01311101001ADDAA199000091GF106991001001999999001021IA1019IA2999+02909KA1120N+01381MA1999999099241MD1010031+9999REMSYN082AAXX  04004 47095 32970 60901 10220 20131 39924 40100 50003 80002 333 20138 30029;EQDQ01  00002PRCP99
0163470950999992000060403004+38080+127820FM-12+013599999V0202901N001019999999N0200001N1+02841+00351100871ADDAA199000091GF106991001001999999001061MA1999999099141MD1710101+9999REMSYN066AAXX  04034 47095 32970 62902 10284 20035 39914 40087 57010 80006;EQDQ01  00002PRCP99
0163470950999992000060406004+38080+127820FM-12+013599999V0202701N002612200019N0200001N1+03001+00851100751ADDAA199000091GF104991001001999999001051MA1999999099031MD1710111+9999REMSYN066AAXX  04064 47095 32970 42705 10300 20085 39903 40075 57011 80005;EQDQ01  00002PRCP99
0163470950999992000060409004+38080+127820FM-12+013599999V0202701N001519999999N0200001N1+02941+00731100671ADDAA199000091GF106991001001999999001071MA1999999098961MD1810071+9999REMSYN066AAXX  04094 47095 32970 62703 10294 20073 39896 40067 58007 80007;EQDQ01  00002PRCP99
0216470950999992000060412004+38080+127820FM-12+013599999V0209999C000012200019N0200001N1+02151+01451100911ADDAA199000091GF102991011051012501001011IA1019IA2999+02109KA1120M+03081MA1999999099141MD1210181+9999REMSYN088AAXX  04124 47095 32670 20000 10215 20145 39914 40091 52018 81501 333 10308 30021 55023;EQDQ01  00002PRCP99
0163470950999992000060415004+38080+127820FM-12+013599999V0203401N001019999999N0180001N1+01871+01291100991ADDAA199000091GF105991001001999999001021MA1999999099211MD1810071+9999REMSYN066AAXX  04154 47095 32968 53402 10187 20129 39921 40099 58007 80002;EQDQ01  00002PRCP99
0153470950999992000060418004+38080+127820FM-12+013599999V0200201N001012200019N0180001N1+01591+01291100971ADDAA199000091GA1001+999999999GF100991001001999999001001MA1999999099171REMSYN054AAXX  04184 47095 32968 00202 10159 20129 39917 40097;EQDQ01  00002PRCP99
0163470950999992000060421004+38080+127820FM-12+013599999V0209999C000019999999N0200001N1+01491+01281101041ADDAA199000091GF106991001001999999001011MA1999999099231MD1210061+9999REMSYN066AAXX  04214 47095 32970 60000 10149 20128 39923 40104 52006 80001;EQDQ01  00002PRCP99
0220470950999992000060500004+38080+127820FM-12+013599999V0209999C000012200019N0200001N1+02201+01321101011ADDAA199000091GA1001+999999999GF100991001001999999001001IA1019IA2999+03009KA1120N+01471MA1999999099251MD1810021+9999REMSYN076AAXX  05004 47095 32970 02500 10220 20132 39925 40101 58002 333 20147 30030;EQDQ01  00002PRCP99
0163470950999992000060503004+38080+127820FM-12+013599999V0203401N001012200019N0200001N1+02821+01311100861ADDAA199000091GF101991001001999999001011MA1999999099131MD1710121+9999REMSYN066AAXX  05034 47095 32970 13402 10282 20131 39913 40086 57012 80001;EQDQ01  00002PRCP99
0163470950999992000060506004+38080+127820FM-12+013599999V0202701N002612200019N0200001N1+02991+01151100661ADDAA199000091GF101991001001999999001011MA1999999098951MD1710181+9999REMSYN066AAXX  05064 47095 32970 12705 10299 20115 39895 40066 57018 80001;EQDQ01  00002PRCP99
0173470950999992000060509004+38080+127820FM-12+013599999V0202301N004112200019N0200001N1+02861+01141100571ADDAA199000091GA1001+999999999GF100991001001999999001001MA1999999098851MD1710101+9999REMSYN060AAXX  05094 47095 32970 02308 10286 20114 39885 40057 57010;EQDQ01  00002PRCP99
0220470950999992000060512004+38080+127820FM-12+013599999V0201801N002112200019N0200001N1+02391+01151100731ADDAA199000091GA1001+999999999GF100991001001999999001001IA1019IA2999+02209KA1120M+03041MA1999999098991MD1210141+9999REMSYN076AAXX  05124 47095 32970 01804 10239 20115 39899 40073 52014 333 10304 30022;EQDQ01  00002PRCP99
0173470950999992000060515004+38080+127820FM-12+013599999V0201101N000512200019N0180001N1+01961+01441100831ADDAA199000091GA1001+999999999GF100991001001999999001001MA1999999099061MD1810071+9999REMSYN060AAXX  05154 47095 32968 01101 10196 20144 39906 40083 58007;EQDQ01  00002PRCP99
0173470950999992000060518004+38080+127820FM-12+013599999V0200701N000512200019N0180001N1+01551+01231100831ADDAA199000091GA1001+999999999GF100991001001999999001001MA1999999099031MD1610031+9999REMSYN060AAXX  05184 47095 32968 00701 10155 20123 39903 40083 56003;EQDQ01  00002PRCP99
0163470950999992000060521004+38080+127820FM-12+013599999V0200901N001012200019N0180001N1+01411+01201100871ADDAA199000091GF104991001001999999001011MA1999999099051MD1010021+9999REMSYN066AAXX  05214 47095 32968 40902 10141 20120 39905 40087 50002 80001;EQDQ01  00002PRCP99
0210470950999992000060600004+38080+127820FM-12+013599999V0202301N002612200019N0110001N1+02201+01311100791ADDAA199000091GF102991001001999999001021IA1019IA2999+02909KA1120N+01331MA1999999099031MD1510021+9999REMSYN082AAXX  06004 47095 32961 22305 10220 20131 39903 40079 55002 80002 333 20133 30029;EQDQ01  00002PRCP99
0163470950999992000060603004+38080+127820FM-12+013599999V0202301N004112200019N0120001N1+02571+01351100711ADDAA199000091GF103991001001999999001021MA1999999098981MD1710051+9999REMSYN066AAXX  06034 47095 32962 32308 10257 20135 39898 40071 57005 80002;EQDQ01  00002PRCP99
0163470950999992000060606004+38080+127820FM-12+013599999V0202301N006212200019N0180001N1+02781+00871100561ADDAA199000091GF102991021001999999031001MA1999999098831MD1710151+9999REMSYN066AAXX  06064 47095 32968 22312 10278 20087 39883 40056 57015 82030;EQDQ01  00002PRCP99
0163470950999992000060609004+38080+127820FM-12+013599999V0202301N006212200019N0180001N1+02541+01401100521ADDAA199000091GF101991011051012501001001MA1999999098781MD1710051+9999REMSYN066AAXX  06094 47095 32668 12312 10254 20140 39878 40052 57005 81500;EQDQ01  00002PRCP99
0210470950999992000060612004+38080+127820FM-12+013599999V0202001N001512200019N0180001N1+02161+01051100761ADDAA199000091GF104991001001999999001021IA1019IA2999+02109KA1120M+02811MA1999999099001MD1210221+9999REMSYN082AAXX  06124 47095 32968 42003 10216 20105 39900 40076 52022 80002 333 10281 30021;EQDQ01  00002PRCP99
0163470950999992000060615004+38080+127820FM-12+013599999V0202301N003112200019N0180001N1+01951+01131100761ADDAA199000091GF104991001001999999001021MA1999999098981MD1310021+9999REMSYN066AAXX  06154 47095 32968 42306 10195 20113 39898 40076 53002 80002;EQDQ01  00002PRCP99
0179470950999992000060618004+38080+127820FM-12+013599999V0202301N002619999999N0150001N1+01811+01261100701ADDAA199000091GF105991001001999999001021MA1999999098921MD1510061+9999REMSYN066AAXX  06184 47095 32565 52305 10181 20126 39892 40070 55006 80002;EQDQ01+008002SCOLCBQ02  00002PRCP99
0191470950999992000060621004+38080+127820FM-12+013599999V0200501N001010900019N0080001N1+01601+01371100791ADDAA199000091AY121031AY221031GF106991041051012501001021MA1999999098991MD1210071+9999MW1101REMSYN072AAXX  06214 47095 31658 60502 10160 20137 39899 40079 52007 71022 84502;EQDQ01  00002PRCP99
0238470950999992000060700004+38080+127820FM-12+013599999V0202501N002610900019N0070001N1+01991+01531100781ADDAA199000091AY121061AY221061GF107991021051012501001021IA1019IA2999+02709KA1120N+01561MA1999999099011MD1310021+9999MW1101REMSYN088AAXX  07004 47095 31657 72505 10199 20153 39901 40078 53002 71022 82502 333 20156 30027;EQDQ01  00002PRCP99
0191470950999992000060703004+38080+127820FM-12+013599999V0202501N003619999999N0070001N1+02381+01661100631ADDAA199000091AY121031AY221031GF108991001001999999001021MA1999999098881MD1710131+9999MW1101REMSYN072AAXX  07034 47095 31957 82507 10238 20166 39888 40063 57013 71022 80002;EQDQ01  00002PRCP99
0191470950999992000060706004+38080+127820FM-12+013599999V0202501N005119999999N0060001N1+02501+01561100551ADDAA199000091AY121061AY221061GF108991081001999999011999MA1999999098811MD1710071+9999MW1101REMSYN072AAXX  07064 47095 31956 82510 10250 20156 39881 40055 57007 71022 8801/;EQDQ01  00002PRCP99
0163470950999992000060709004+38080+127820FM-12+013599999V0202301N002119999999N0150001N1+02451+00801100441ADDAA199000091GF106991041001999999041011MA1999999098701MD1710111+9999REMSYN066AAXX  07094 47095 32965 62304 10245 20080 39870 40044 57011 84041;EQDQ01  00002PRCP99
0216470950999992000060712004+38080+127820FM-12+013599999V0202301N002619999999N0150001N1+02011+01081100531ADDAA199000091GF105991021001999999031011IA1019IA2999+01809KA1120M+02551MA1999999098761MD1310061+9999REMSYN088AAXX  07124 47095 32965 52305 10201 20108 39876 40053 53006 82031 333 10255 30018 55043;EQDQ01  00002PRCP99
0163470950999992000060715004+38080+127820FM-12+013599999V0202301N002110360019N0110001N1+01661+01171100421ADDAA199000091GF108991021051012501021999MA1999999098631MD1710131+9999REMSYN066AAXX  07154 47095 32661 82304 10166 20117 39863 40042 57013 8252/;EQDQ01  00002PRCP99
0163470950999992000060718004+38080+127820FM-12+013599999V0200201N000519999999N0120001N1+01441+01171100471ADDAA199000091GF106991021001999999031021MA1999999098661MD1110031+9999REMSYN066AAXX  07184 47095 32962 60201 10144 20117 39866 40047 51003 82032;EQDQ01  00002PRCP99
0163470950999992000060721004+38080+127820FM-12+013599999V0209999C000010360019N0180001N1+01421+01201100351ADDAA199000091GF108991031051012501021999MA1999999098541MD1810121+9999REMSYN066AAXX  07214 47095 32668 82500 10142 20120 39854 40035 58012 8352/;EQDQ01  00002PRCP99
0210470950999992000060800004+38080+127820FM-12+013599999V0209999C000010360019N0180001N1+01751+01201100271ADDAA199000091GF108991031051008001021999IA1019IA2999+02109KA1120N+01381MA1999999098491MD1710051+9999REMSYN082AAXX  08004 47095 32568 80000 10175 20120 39849 40027 57005 8352/ 333 20138 30021;EQDQ01  00002PRCP99
0161470950999992000060803004+38080+127820FM-12+013599999V0202301N001510120019N0180001N1+02001+01271100181ADDAY161031AY221031GF108991051051012501021999MA1999999098421MD1710071+9999MW1021REMSYN072AAXX  08034 47095 41668 82303 10200 20127 39842 40018 57007 70262 8552/;
0163470950999992000060806004+38080+127820FM-12+013599999V0200201N003110360019N0100001N1+02001+01381100051ADDAA199000091GF108991041051012501021999MA1999999098291MD1710131+9999REMSYN066AAXX  08064 47095 32660 80206 10200 20138 39829 40005 57013 8452/;EQDQ01  00002PRCP99
0161470950999992000060809004+38080+127820FM-12+013599999V0200201N003110042019N0060001N1+01631+01531100111ADDAY161031AY221031GF108991051071004501021999MA1999999098331MD1010041+9999MW1611REMSYN072AAXX  08094 47095 41456 80206 10163 20153 39833 40011 50004 76162 8572/;
0231470950999992000060812004+38080+127820FM-12+013599999V0200201N004110120019N0120001N1+01651+01461100261ADDAA112003091AY161061AY221061GF106991051051012501031001IA1099IA2999+01609KA1120M+02151MA1999999098481MD1210151+9999MW1021REMSYN100AAXX  08124 47095 11662 60208 10165 20146 39848 40026 52015 60032 70262 85530 333 10215 31016 70033;
0144470950999992000060815004+38080+127820FM-12+013599999V0200501N003612200019N0150001N1+01451+01031100361ADDAA199000021GF101991011051012501001001MA1999999098561MD1310081+9999REMSYN066AAXX  08154 47095 32665 10507 10145 20103 39856 40036 53008 81500;
0144470950999992000060818004+38080+127820FM-12+013599999V0200201N003612200019N0200001N1+01281+00921100441ADDAA199000021GF101991011051012501001001MA1999999098631MD1210071+9999REMSYN066AAXX  08184 47095 32670 10207 10128 20092 39863 40044 52007 81500;
0144470950999992000060821004+38080+127820FM-12+013599999V0203601N004110360019N0250001N1+01281+00911100581ADDAA199000021GF106991021051012501031001MA1999999098761MD1210131+9999REMSYN066AAXX  08214 47095 32675 63608 10128 20091 39876 40058 52013 82530;
0191470950999992000060900004+38080+127820FM-12+013599999V0200201N005119999999N0250001N1+01631+01041100701ADDAA124003391GF105991999999999999999999IA1099IA2999+02009KA1120N+01211MA1999999098911MD1210151+9999REMSYN082AAXX  09004 47095 32975 50210 10163 20104 39891 40070 52015 333 20121 31020 70033;
0195470950999992000060903004+38080+127820FM-12+013599999V0203601N002610360019N0250001N1+02091+01231100681ADDAA199000091GF105991021051012501031001MA1999999098911MD1710021+9999REMSYN066AAXX  09034 47095 32675 53605 10209 20123 39891 40068 53000 82530;EQDQ01+000032APCTENQ02+000002APC3  Q03  00002PRCP99
0163470950999992000060906004+38080+127820FM-12+013599999V0200201N004610360019N0250001N1+02261+01271100601ADDAA199000091GF106991041051012501031001MA1999999098841MD1710071+9999REMSYN066AAXX  09064 47095 32675 60209 10226 20127 39884 40060 57007 84530;EQDQ01  00002PRCP99
0163470950999992000060909004+38080+127820FM-12+013599999V0200201N004112200019N0250001N1+02161+01251100661ADDAA199000091GF102991011051012501031001MA1999999098901MD1210061+9999REMSYN066AAXX  09094 47095 32675 20208 10216 20125 39890 40066 52006 81530;EQDQ01  00002PRCP99
0197470950999992000060912004+38080+127820FM-12+013599999V0203601N002119999999N0250001N1+01871+01181100931ADDAA199000091GF107991071051999999001001IA1019IA2999+01909MA1999999099141MD1210361+9999REMSYN082AAXX  09124 47095 32975 73604 10187 20118 39914 40093 52036 87500 333 30019 55073;EQDQ01  00002PRCP99
0163470950999992000060915004+38080+127820FM-12+013599999V0200501N001512200019N0200001N1+01611+01111101051ADDAA199000091GF102991021051999999001001MA1999999099251MD1210091+9999REMSYN066AAXX  09154 47095 32970 20503 10161 20111 39925 40105 52009 82500;EQDQ01  00002PRCP99
0163470950999992000060918004+38080+127820FM-12+013599999V0200701N000512200019N0200001N1+01431+01171101111ADDAA199000091GF102991021051999999001001MA1999999099291MD1110041+9999REMSYN066AAXX  09184 47095 32970 20701 10143 20117 39929 40111 51004 82500;EQDQ01  00002PRCP99
0163470950999992000060921004+38080+127820FM-12+013599999V0200501N000512200019N0250001N1+01321+01151101191ADDAA199000091GF104991041051999999001001MA1999999099371MD1210081+9999REMSYN066AAXX  09214 47095 32975 40501 10132 20115 39937 40119 52008 84500;EQDQ01  00002PRCP99
0242470950999992000061000004+38080+127820FM-12+013599999V0202501N001012200019N0250001N1+01881+01121101161ADDAA199000091GF102991011051012501031001IA1019IA2999+02809KA1120N+01251MA1999999099371MD1710031+9999REMSYN082AAXX  10004 47095 32675 22502 10188 20112 39937 40116 57000 81530 333 20125 30028;EQDQ01+000072APCTENQ02+000002APC3  Q03  00002PRCP99
0163470950999992000061003004+38080+127820FM-12+013599999V0202701N002112200019N0250001N1+02271+01191100961ADDAA199000091GF102991021081012501001001MA1999999099201MD1710171+9999REMSYN066AAXX  10034 47095 32675 22704 10227 20119 39920 40096 57017 82800;EQDQ01  00002PRCP99
0161470950999992000061006004+38080+127820FM-12+013599999V0200901N001510120019N0200001N1+02141+01651100821ADDAY191061AY261061GF105991051081008001001001MA1999999099061MD1710141+9999MW1801REMSYN072AAXX  10064 47095 41570 50903 10214 20165 39906 40082 57014 78096 85800;
0180470950999992000061009004+38080+127820FM-12+013599999V0202701N003619999999N0150001N1+02221+01341100791ADDAY191031AY281031GF106991999091008001001001MA1999999099031MD1810031+9999MW1951REMSYN072AAXX  10094 47095 41565 62707 10222 20134 39903 40079 58003 79598 83900;EQDQ01+000032SCOTLC
0237470950999992000061012004+38080+127820FM-12+013599999V0201601N001010360019N0090001N1+01611+01371101141ADDAA112014091AY191061AY281061GF108991031091008001021999IA1099IA2999+01709KA1120M+02521MA1999999099331MD1210301+9999MW1951REMSYN106AAXX  10124 47095 11559 81602 10161 20137 39933 40114 52030 60142 79598 8392/ 333 10252 31017 55021 70139;
0144470950999992000061015004+38080+127820FM-12+013599999V0203401N000512200019N0200001N1+01451+01341101091ADDAA199000021GF102991021051012501001001MA1999999099271MD1710061+9999REMSYN066AAXX  10154 47095 32670 23401 10145 20134 39927 40109 57006 82500;
0182470950999992000061018004+38080+127820FM-12+013599999V0200901N000512200019N0015001N1+01261+01221101081ADDAA199000021AY141061AY221061GA1001+999999999GF100991001001999999001001MA1999999099251MD1810021+9999MW1281REMSYN066AAXX  10184 47095 31515 00901 10126 20122 39925 40108 58002 72842;
0172470950999992000061021004+38080+127820FM-12+013599999V0209999C000012200019N0009001N1+01171+01151101151ADDAA199000021AY141031AY221031GF102991001001999999001011MA1999999099311MD1210061+9999MW1441REMSYN072AAXX  10214 47095 31909 20000 10117 20115 39931 40115 52006 74442 80001;
0203470950999992000061100004+38080+127820FM-12+013599999V0200201N002612200019N0250001N1+01791+01371101151ADDAA112004191GF102991011051012501001011IA1099IA2999+02309KA1120N+01151MA1999999099361MD1810051+9999REMSYN094AAXX  11004 47095 12675 20205 10179 20137 39936 40115 58005 60042 81501 333 20115 31023 70178;
0163470950999992000061103004+38080+127820FM-12+013599999V0202901N001512200019N0250001N1+02211+01151101011ADDAA199000091GF101991011011008001001021MA1999999099251MD1710111+9999REMSYN066AAXX  11034 47095 32575 12903 10221 20115 39925 40101 57011 81102;EQDQ01  00002PRCP99
0163470950999992000061106004+38080+127820FM-12+013599999V0203201N003112200019N0300001N1+02561+00711100801ADDAA199000091GF102991021051008001001011MA1999999099071MD1710181+9999REMSYN066AAXX  11064 47095 32580 23206 10256 20071 39907 40080 57018 82501;EQDQ01  00002PRCP99
0163470950999992000061109004+38080+127820FM-12+013599999V0200201N003112200019N0300001N1+02581+00671100691ADDAA199000091GF103991011011008001011011MA1999999098961MD1710111+9999REMSYN066AAXX  11094 47095 32580 30206 10258 20067 39896 40069 57011 81111;EQDQ01  00002PRCP99
0197470950999992000061112004+38080+127820FM-12+013599999V0203401N003110120019N0250001N1+02081+00711100941ADDAA124004191GF106991061051012501001001IA1019IA2999+01809KA1120M+02651MA1999999099171MD1210211+9999REMSYN088AAXX  11124 47095 32675 63406 10208 20071 39917 40094 52021 86500 333 10265 30018 70041;
0173470950999992000061115004+38080+127820FM-12+013599999V0209999C000012200019N0250001N1+01521+00651101021ADDAA199000091GA1001+999999999GF100991001001999999001001MA1999999099211MD1510041+9999REMSYN060AAXX  11154 47095 32975 00900 10152 20065 39921 40102 55004;EQDQ01  00002PRCP99
0189470950999992000061118004+38080+127820FM-12+013599999V0203601N001012200019N0220001N1+01101+00851101051ADDAA199000091GA1001+999999999GF100991001001999999001001MA1999999099211MD1310031+9999REMSYN060AAXX  11184 47095 32972 03602 10110 20085 39921 40105 53000;EQDQ01+000002APC3  Q02  00002PRCP99
0163470950999992000061121004+38080+127820FM-12+013599999V0203601N001012200019N0250001N1+00971+00701101121ADDAA199000091GF101991001001999999001011MA1999999099271MD1810061+9999REMSYN066AAXX  11214 47095 32975 13602 10097 20070 39927 40112 58006 80001;EQDQ01  00002PRCP99
0220470950999992000061200004+38080+127820FM-12+013599999V0209999C000012200019N0250001N1+01861+00671101041ADDAA199000091GA1001+999999999GF100991001001999999001001IA1019IA2999+02409KA1120N+00941MA1999999099251MD1310021+9999REMSYN076AAXX  12004 47095 32975 02500 10186 20067 39925 40104 53002 333 20094 30024;EQDQ01  00002PRCP99
0163470950999992000061203004+38080+127820FM-12+013599999V0202701N002112200019N0250001N1+02471+00711100831ADDAA199000091GF101991001001999999001011MA1999999099081MD1710171+9999REMSYN066AAXX  12034 47095 32975 12704 10247 20071 39908 40083 57017 80001;EQDQ01  00002PRCP99
0163470950999992000061206004+38080+127820FM-12+013599999V0202701N001512200019N0250001N1+02681+00701100591ADDAA199000091GF103991031051012501001001MA1999999098871MD1710211+9999REMSYN066AAXX  12064 47095 32675 32703 10268 20070 39887 40059 57021 83500;EQDQ01  00002PRCP99
0163470950999992000061209004+38080+127820FM-12+013599999V0201801N002612200019N0250001N1+02531+00781100551ADDAA199000091GF102991021011008001001001MA1999999098821MD1810051+9999REMSYN066AAXX  12094 47095 32575 21805 10253 20078 39882 40055 58005 82100;EQDQ01  00002PRCP99
0216470950999992000061212004+38080+127820FM-12+013599999V0201601N001012200019N0200001N1+01871+01101100671ADDAA199000091GF101991011051012501001001IA1019IA2999+01909KA1120M+02761MA1999999098891MD1210071+9999REMSYN088AAXX  12124 47095 32670 11602 10187 20110 39889 40067 52007 81500 333 10276 30019 55052;EQDQ01  00002PRCP99
0163470950999992000061215004+38080+127820FM-12+013599999V0200201N001012200019N0200001N1+01521+01231100751ADDAA199000091GF102991021051012501001001MA1999999098951MD1210061+9999REMSYN066AAXX  12154 47095 32670 20202 10152 20123 39895 40075 52006 82500;EQDQ01  00002PRCP99
0163470950999992000061218004+38080+127820FM-12+013599999V0200201N001519999999N0150001N1+01351+01221100701ADDAA199000091GF106991021001999999031021MA1999999098881MD1810071+9999REMSYN066AAXX  12184 47095 32965 60203 10135 20122 39888 40070 58007 82032;EQDQ01  00002PRCP99
0173470950999992000061221004+38080+127820FM-12+013599999V0209999C000012200019N0180001N1+01261+01181100691ADDAA199000091GA1001+999999999GF100991001001999999001001MA1999999098871MD1810011+9999REMSYN060AAXX  12214 47095 32968 00000 10126 20118 39887 40069 58001;EQDQ01  00002PRCP99
0220470950999992000061300004+38080+127820FM-12+013599999V0203401N000512200019N0180001N1+01961+01371100591ADDAA199000091GA1001+999999999GF100991001001999999001001IA1019IA2999+02609KA1120N+01231MA1999999098821MD1710051+9999REMSYN076AAXX  13004 47095 32968 03401 10196 20137 39882 40059 57005 333 20123 30026;EQDQ01  00002PRCP99
0173470950999992000061303004+38080+127820FM-12+013599999V0202301N002112200019N0180001N1+02571+01201100391ADDAA199000091GA1001+999999999GF100991001001999999001001MA1999999098661MD1710161+9999REMSYN060AAXX  13034 47095 32968 02304 10257 20120 39866 40039 57016;EQDQ01  00002PRCP99
0173470950999992000061306004+38080+127820FM-12+013599999V0202001N003112200019N0180001N1+02831+01301100171ADDAA199000091GA1001+999999999GF100991001001999999001001MA1999999098461MD1710201+9999REMSYN060AAXX  13064 47095 32968 02006 10283 20130 39846 40017 57020;EQDQ01  00002PRCP99
0161470950999992000061309004+38080+127820FM-12+013599999V0202301N003110120019N0150001N1+02501+01361100221ADDAY181031AY221031GF108991051081008001021999MA1999999098491MD1010031+9999MW1801REMSYN072AAXX  13094 47095 41565 82306 10250 20136 39849 40022 50003 78082 8582/;
0203470950999992000061312004+38080+127820FM-12+013599999V0202001N002610120019N0150001N1+02251+01261100281ADDAA112000791GF108991051051012501021999IA1019IA2999+02209KA1120M+02881MA1999999098531MD1210041+9999REMSYN094AAXX  13124 47095 12665 82005 10225 20126 39853 40028 52004 69902 8552/ 333 10288 30022 55034;
0161470950999992000061315004+38080+127820FM-12+013599999V0202001N002610120019N0140001N1+02061+01291100371ADDAY181031AY221031GF108991051081008001021999MA1999999098611MD1310081+9999MW1801REMSYN072AAXX  13154 47095 41564 82005 10206 20129 39861 40037 53008 78082 8582/;
0161470950999992000061318004+38080+127820FM-12+013599999V0200501N001010360019N0110001N1+01821+01471100501ADDAY181061AY221061GF108991031081008001021999MA1999999098721MD1110111+9999MW1801REMSYN072AAXX  13184 47095 41561 80502 10182 20147 39872 40050 51011 78082 8382/;
0161470950999992000061321004+38800+127810FM-12+013599999V0202001N000510360019N0120001N1+01741+01481100431ADDAY181031AY221031GF106991041051012501031001MA1999999098641MD1710081+9999MW1251REMSYN072AAXX  13214 47095 41662 62001 10174 20148 39864 40043 57008 72582 84530;
0203470950999992000061400004+38800+127810FM-12+013599999V0200201N001512200019N0120001N1+02201+01331100301ADDAA112000191GF102991021001999999031001IA1019IA2999+02609KA1120N+01711MA1999999098551MD1710091+9999REMSYN094AAXX  14004 47095 11962 20203 10220 20133 39855 40030 57009 69922 82030 333 20171 30026 70002;
0143470950999992000061403004+38800+127810FM-12+013599999V0202301N003112200019N0150001N1+02461+01241100261ADDGA1001+999999999GF100991001001999999001001MA1999999098521MD1710031+9999REMSYN060AAXX  14034 47095 42965 02306 10246 20124 39852 40026 57003;
0133470950999992000061406004+38800+127810FM-12+013599999V0202501N002612200019N0100001N1+02721+01351100141ADDGF102991021051012501001001MA1999999098421MD1710101+9999REMSYN066AAXX  14064 47095 42660 22505 10272 20135 39842 40014 57010 82500;
0133470950999992000061409004+38800+127810FM-12+013599999V0202301N002112200019N0100001N1+02721+01431100221ADDGF103991031051012501001001MA1999999098501MD1110081+9999REMSYN066AAXX  14094 47095 42660 32304 10272 20143 39850 40022 51008 83500;
0203470950999992000061412004+38800+127810FM-12+013599999V0200901N001012200019N0100001N1+02261+01571100461ADDAA124000391GF102991021051012501001001IA1019IA2999+02209KA1120M+02791MA1999999098711MD1210211+9999REMSYN094AAXX  14124 47095 32660 20902 10226 20157 39871 40046 52021 82500 333 10279 30022 55031 70002;
0191470950999992000061415004+38800+127810FM-12+013599999V0201101N001512200019N0050001N1+01961+01591100611ADDAA199000091AY111031AY211031GF102991021051012501001001MA1999999098841MD1810131+9999MW1101REMSYN072AAXX  14154 47095 31650 21103 10196 20159 39884 40061 58013 71011 82500;EQDQ01  00002PRCP99
0191470950999992000061418004+38800+127810FM-12+013599999V0203601N000512200019N0050001N1+01711+01611100751ADDAA199000091AY111061AY211061GF103991031051012501001001MA1999999098961MD1210121+9999MW1101REMSYN072AAXX  14184 47095 31650 33601 10171 20161 39896 40075 52012 71011 83500;EQDQ01  00002PRCP99
0201470950999992000061421004+38800+127810FM-12+013599999V0209999C000012200019N0030001N1+01681+01611100861ADDAA199000091AY111031AY201031GA1001+999999999GF100991001001999999001001MA1999999099071MD1210111+9999MW1101REMSYN066AAXX  14214 47095 31930 00000 10168 20161 39907 40086 52011 71010;EQDQ01  00002PRCP99
0248470950999992000061500004+38800+127810FM-12+013599999V0209999C000012200019N0030001N1+02121+01741100921ADDAA199000091AY121061AY221061GA1001+999999999GF100991001001999999001001IA1019IA2999+02609KA1120N+01641MA1999999099161MD1310091+9999MW1101REMSYN082AAXX  15004 47095 31930 03600 10212 20174 39916 40092 53009 71022 333 20164 30026;EQDQ01  00002PRCP99
0201470950999992000061503004+38800+127810FM-12+013599999V0202501N003612200019N0030001N1+02711+01871100821ADDAA199000091AY121031AY221031GA1001+999999999GF100991001001999999001001MA1999999099091MD1710071+9999MW1101REMSYN066AAXX  15034 47095 31930 02507 10271 20187 39909 40082 57007 71022;EQDQ01  00002PRCP99
0201470950999992000061506004+38800+127810FM-12+013599999V0202001N003112200019N0040001N1+02911+01681100731ADDAA199000091AY121061AY221061GA1001+999999999GF100991001001999999001001MA1999999099021MD1710071+9999MW1101REMSYN066AAXX  15064 47095 31940 02006 10291 20168 39902 40073 57007 71022;EQDQ01  00002PRCP99
0201470950999992000061509004+38800+127810FM-12+013599999V0202301N003112200019N0050001N1+02831+01791100751ADDAA199000091AY121031AY221031GA1001+999999999GF100991001001999999001001MA1999999099031MD1010011+9999MW1101REMSYN066AAXX  15094 47095 31950 02306 10283 20179 39903 40075 50001 71022;EQDQ01  00002PRCP99
0244470950999992000061512004+38800+127810FM-12+013599999V0201601N001519999999N0050001N1+02471+01641101011ADDAA199000091AY121061AY221061GF106991001001999999001011IA1019IA2999+02309KA1120M+02981MA1999999099271MD1210241+9999MW1101REMSYN094AAXX  15124 47095 32950 61603 10247 20164 39927 40101 52024 71022 80001 333 10298 30023 55016;EQDQ01  00002PRCP99
0163470950999992000061515004+38800+127810FM-12+013599999V0209999C000019999999N0020001N1+02081+01881101211ADDAA199000091GF108991081001999999011999MA1999999099441MD1210171+9999REMSYN066AAXX  15154 47095 32920 80000 10208 20188 39944 40121 52017 8801/;EQDQ01  00002PRCP99
0191470950999992000061518004+38800+127810FM-12+013599999V0200701N001512200019N0008001N1+01901+01751101291ADDAA199000091AY141061AY211061GF103991001001999999001021MA1999999099501MD1210061+9999MW1441REMSYN072AAXX  15184 47095 31908 30703 10190 20175 39950 40129 52006 74441 80002;EQDQ01  00002PRCP99
0191470950999992000061521004+38800+127810FM-12+013599999V0200501N000519999999N0008001N1+01771+01671101391ADDAA199000091AY141031AY221031GF105991011001999999031021MA1999999099591MD1210091+9999MW1441REMSYN072AAXX  15214 47095 31908 50501 10177 20167 39959 40139 52009 74442 81032;EQDQ01  00002PRCP99
0238470950999992000061600004+38800+127810FM-12+013599999V0202001N000512200019N0006001N1+02131+01811101421ADDAA199000091AY141061AY221061GF102991001001999999001011IA1019IA2999+02409KA1120N+01751MA1999999099651MD1310061+9999MW1441REMSYN088AAXX  16004 47095 31906 22001 10213 20181 39965 40142 53006 74442 80001 333 20175 30024;EQDQ01  00002PRCP99
0207470950999992000061603004+38800+127810FM-12+013599999V0203601N001519999999N0004001N1+02511+01931101331ADDAA199000091AY141031AY241031GF108991999999999999999999MA1999999099581MD1310071+9999MW1471REMSYN072AAXX  16034 47095 31/04 83603 10251 20193 39958 40133 53007 74744 89///;EQDQ01+000092SCOTLCQ02  00002PRCP99
0191470950999992000061606004+38800+127810FM-12+013599999V0203401N001012200019N0015001N1+02671+01881101211ADDAA199000091AY141061AY221061GF102991021051012501001001MA1999999099471MD1710111+9999MW1101REMSYN072AAXX  16064 47095 31615 23402 10267 20188 39947 40121 57011 71042 82500;EQDQ01  00002PRCP99
0191470950999992000061609004+38800+127810FM-12+013599999V0202501N001512200019N0050001N1+02611+02061101101ADDAA199000091AY141031AY221031GF104991041051012501001001MA1999999099361MD1810111+9999MW1101REMSYN072AAXX  16094 47095 31650 42503 10261 20206 39936 40110 58011 71042 84500;EQDQ01  00002PRCP99
0254470950999992000061612004+38800+127810FM-12+013599999V0209999C000010006019N0008001N1+02351+02081101171ADDAA199000091AY141061AY221061GA1091+999999999GF109991091999999999999999IA1019IA2999+02309KA1120M+02701MA1999999099421MD1010061+9999MW1471REMSYN088AAXX  16124 47095 31/08 90000 10235 20208 39942 40117 50006 74742 333 10270 30023 55000;EQDQ01  00002PRCP99
0207470950999992000061615004+38800+127810FM-12+013599999V0200701N000512200019N0008001N1+02141+01961101191ADDAA199000091AY141031AY241031GF103991001001999999001011MA1999999099421MD1310021+9999MW1441REMSYN072AAXX  16154 47095 31908 30701 10214 20196 39942 40119 53000 74444 80001;EQDQ01+000002APC3  Q02  00002PRCP99
0207470950999992000061618004+38800+127810FM-12+013599999V0203601N001010006019N0007001N1+01981+01931101141ADDAA199000091AY141061AY241061GA1091+999999999GF109991091999999999999999MA1999999099361MD1710061+9999MW1471REMSYN072AAXX  16184 47095 31/07 93602 10198 20193 39936 40114 57006 74744 8////;EQDQ01  00002PRCP99
0191470950999992000061621004+38800+127810FM-12+013599999V0200501N001012200019N0015001N1+01981+01881101191ADDAA199000091AY141031AY221031GF104991041001999999031001MA1999999099411MD1110051+9999MW1101REMSYN072AAXX  16214 47095 31915 40502 10198 20188 39941 40119 51005 71042 84030;EQDQ01  00002PRCP99
0220470950999992000061700004+38800+127810FM-12+013599999V0200201N004112200019N0120001N1+02311+01761101121ADDAA199000091GA1001+999999999GF100991001001999999001001IA1019IA2999+02709KA1120N+01971MA1999999099361MD1710051+9999REMSYN076AAXX  17004 47095 32962 00208 10231 20176 39936 40112 57005 333 20197 30027;EQDQ01  00002PRCP99
0173470950999992000061703004+38800+127810FM-12+013599999V0200501N002612200019N0120001N1+02841+01671101051ADDAA199000091GA1001+999999999GF100991001001999999001001MA1999999099321MD1510041+9999REMSYN060AAXX  17034 47095 32962 00505 10284 20167 39932 40105 55004;EQDQ01  00002PRCP99
0173470950999992000061706004+38800+127810FM-12+013599999V0203601N003612200019N0120001N1+03081+01701100831ADDAA199000091GA1001+999999999GF100991001001999999001001MA1999999099121MD1710201+9999REMSYN060AAXX  17064 47095 32962 03607 10308 20170 39912 40083 57020;EQDQ01  00002PRCP99
0143470950999992000061709004+38800+127810FM-12+013599999V0200501N003612200019N0120001N1+03041+01531999999ADDAA199000091GA1001+999999999GF100991001001999999001001REMSYN059AAXX  17094 47095 32962 00507 10304 20153 9911 40082 58001;EQDQ01  00002PRCP99
0210470950999992000061712004+38800+127810FM-12+013599999V0203401N003112200019N0120001N1+02501+01561101081ADDAA199000091GF102991021001999999021001IA1019IA2999+02409KA1120M+03221MA1999999099331MD1210221+9999REMSYN082AAXX  17124 47095 32962 23406 10250 20156 39933 40108 52022 82020 333 10322 30024;EQDQ01  00002PRCP99
0179470950999992000061715004+38800+127810FM-12+013599999V0209999C000012200019N0100001N1+02071+01711101111ADDAA199000091GF104991001001999999001011MA1999999099331MD1210031+9999REMSYN066AAXX  17154 47095 32960 42700 10207 20171 39933 40111 52000 80001;EQDQ01+000002APC3  Q02  00002PRCP99
0163470950999992000061718004+38800+127810FM-12+013599999V0201101N001012200019N0100001N1+01901+01631101081ADDAA199000091GF103991001001999999001011MA1999999099301MD1610031+9999REMSYN066AAXX  17184 47095 32960 31102 10190 20163 39930 40108 56003 80001;EQDQ01  00002PRCP99
0163470950999992000061721004+38800+127810FM-12+013599999V0200201N001512200019N0150001N1+01751+01651101201ADDAA199000091GF102991001001999999001011MA1999999099411MD1210111+9999REMSYN066AAXX  17214 47095 32965 20203 10175 20165 39941 40120 52011 80001;EQDQ01  00002PRCP99
0252470950999992000061800004+38800+127810FM-12+013599999V0203401N000512200019N0180001N1+02391+01531101171ADDAA199000091GA1001+999999999GF100991001001999999001001IA1019IA2999+03009KA1120N+01731MA1999999099411MD1710031+9999REMSYN076AAXX  18004 47095 32968 03401 10239 20153 39941 40117 53000 333 20173 30030;EQDQ01+000032APCTENQ02+000002APC3  Q03  00002PRCP99
0173470950999992000061803004+38800+127810FM-12+013599999V0202501N001012200019N0180001N1+02961+01341100991ADDAA199000091GA1001+999999999GF100991001001999999001001MA1999999099271MD1710141+9999REMSYN060AAXX  18034 47095 32968 02502 10296 20134 39927 40099 57014;EQDQ01  00002PRCP99
0173470950999992000061806004+38800+127810FM-12+013599999V0202901N001012200019N0150001N1+03221+01471100781ADDAA199000091GA1001+999999999GF100991001001999999001001MA1999999099081MD1710191+9999REMSYN060AAXX  18064 47095 32965 02902 10322 20147 39908 40078 57019;EQDQ01  00002PRCP99
0173470950999992000061809004+38800+127810FM-12+013599999V0202301N003112200019N0120001N1+03061+01811100691ADDAA199000091GA1001+999999999GF100991001001999999001001MA1999999098981MD1710101+9999REMSYN060AAXX  18094 47095 32962 02306 10306 20181 39898 40069 57010;EQDQ01  00002PRCP99
0226470950999992000061812004+38800+127810FM-12+013599999V0202001N004112200019N0120001N1+02571+01801100871ADDAA199000091GA1001+999999999GF100991001001999999001001IA1019IA2999+02509KA1120M+03271MA1999999099131MD1210151+9999REMSYN082AAXX  18124 47095 32962 02008 10257 20180 39913 40087 52015 333 10327 30025 55066;EQDQ01  00002PRCP99
0173470950999992000061815004+38800+127810FM-12+013599999V0209999C000012200019N0100001N1+02141+01951100991ADDAA199000091GA1001+999999999GF100991001001999999001001MA1999999099221MD1210091+9999REMSYN060AAXX  18154 47095 32960 00000 10214 20195 39922 40099 52009;EQDQ01  00002PRCP99
0201470950999992000061818004+38800+127810FM-12+013599999V0209999C000012200019N0080001N1+01911+01831101021ADDAA199000091AY101061AY201061GA1001+999999999GF100991001001999999001001MA1999999099241MD1110021+9999MW1101REMSYN066AAXX  18184 47095 32958 03600 10191 20183 39924 40102 51002 71000;EQDQ01  00002PRCP99
0201470950999992000061821004+38800+127810FM-12+013599999V0200501N000512200019N0030001N1+01801+01751101081ADDAA199000091AY101031AY201031GA1001+999999999GF100991001001999999001001MA1999999099291MD1010051+9999MW1101REMSYN066AAXX  18214 47095 31930 00501 10180 20175 39929 40108 50005 71000;EQDQ01  00002PRCP99
0220470950999992000061900004+38800+127810FM-12+013599999V0203201N000512200019N0080001N1+02321+01861101071ADDAA199000091GA1001+999999999GF100991001001999999001001IA1019IA2999+03009KA1120N+01751MA1999999099321MD1310031+9999REMSYN076AAXX  19004 47095 32958 03201 10232 20186 39932 40107 53003 333 20175 30030;EQDQ01  00002PRCP99
0201470950999992000061903004+38800+127810FM-12+013599999V0202701N002612200019N0080001N1+02921+01741100911ADDAA199000091AY101031AY201031GA1001+999999999GF100991001001999999001001MA1999999099191MD1710131+9999MW1101REMSYN066AAXX  19034 47095 31958 02705 10292 20174 39919 40091 57013 71000;EQDQ01  00002PRCP99
0201470950999992000061906004+38800+127810FM-12+013599999V0203601N001512200019N0100001N1+03221+01671100721ADDAA199000091AY101061AY201061GA1001+999999999GF100991001001999999001001MA1999999099021MD1710171+9999MW1101REMSYN066AAXX  19064 47095 31960 03603 10322 20167 39902 40072 57017 71000;EQDQ01  00002PRCP99
0173470950999992000061909004+38800+127810FM-12+013599999V0202301N003612200019N0120001N1+03011+01891100691ADDAA199000091GA1001+999999999GF100991001001999999001001MA1999999098981MD1810041+9999REMSYN060AAXX  19094 47095 32962 02307 10301 20189 39898 40069 58004;EQDQ01  00002PRCP99
0216470950999992000061912004+38800+127810FM-12+013599999V0202001N002612200019N0130001N1+02571+01811100871ADDAA199000091GF102991001001999999001011IA1019IA2999+02509KA1120M+03271MA1999999099131MD1210151+9999REMSYN088AAXX  19124 47095 32963 22005 10257 20181 39913 40087 52015 80001 333 10327 30025 55058;EQDQ01  00002PRCP99
0173470950999992000061915004+38800+127810FM-12+013599999V0202001N000512200019N0120001N1+02251+01871100961ADDAA199000091GA1001+999999999GF100991001001999999001001MA1999999099201MD1810071+9999REMSYN060AAXX  19154 47095 32962 02001 10225 20187 39920 40096 58007;EQDQ01  00002PRCP99
0191470950999992000061918004+38800+127810FM-12+013599999V0200501N001012200019N0060001N1+01941+01751100961ADDAA199000091AY101061AY201061GF102991001001999999001011MA1999999099181MD1710021+9999MW1101REMSYN072AAXX  19184 47095 31956 20502 10194 20175 39918 40096 57002 71000 80001;EQDQ01  00002PRCP99
0191470950999992000061921004+38800+127810FM-12+013599999V0209999C000012200019N0050001N1+01821+01751101011ADDAA199000091AY121031AY221031GF103991001001999999001011MA1999999099221MD1010041+9999MW1101REMSYN072AAXX  19214 47095 31950 30000 10182 20175 39922 40101 50004 71022 80001;EQDQ01  00002PRCP99
0238470950999992000062000004+38800+127810FM-12+013599999V0202301N000512200019N0040001N1+02421+01831100941ADDAA199000091AY101061AY201061GF102991001001999999001011IA1019IA2999+03109KA1120N+01801MA1999999099191MD1310031+9999MW1101REMSYN088AAXX  20004 47095 32940 22301 10242 20183 39919 40094 53003 71000 80001 333 20180 30031;EQDQ01  00002PRCP99
0191470950999992000062003004+38800+127810FM-12+013599999V0202301N002619999999N0080001N1+02861+01771100791ADDAA199000091AY121031AY221031GF106991001001999999001061MA1999999099071MD1710121+9999MW1101REMSYN072AAXX  20034 47095 31958 62305 10286 20177 39907 40079 57012 71022 80006;EQDQ01  00002PRCP99
0191470950999992000062006004+38800+127810FM-12+013599999V0202301N003619999999N0080001N1+03041+01651100641ADDAA199000091AY121061AY221061GF106991001001999999001061MA1999999098931MD1710141+9999MW1051REMSYN072AAXX  20064 47095 31958 62307 10304 20165 39893 40064 57014 70522 80006;EQDQ01  00002PRCP99
0163470950999992000062009004+38800+127810FM-12+013599999V0202001N002119999999N0100001N1+02831+01541100611ADDAA199000091GF108991081001999999021999MA1999999098891MD1810041+9999REMSYN066AAXX  20094 47095 32960 82004 10283 20154 39889 40061 58004 8802/;EQDQ01  00002PRCP99
0226470950999992000062012004+38800+127810FM-12+013599999V0201601N001019999999N0100001N1+02571+01621100631ADDAA199000091GF108991081001999999021999IA1019IA2999+02509KA1120M+03161MA1999999098891MD1810021+9999REMSYN082AAXX  20124 47095 32960 81602 10257 20162 39889 40063 58000 8802/ 333 10316 30025;EQDQ01+000002APC3  Q02  00002PRCP99
0163470950999992000062015004+38800+127810FM-12+013599999V0203401N000519999999N0100001N1+02221+01961100611ADDAA199000091GF106991061001999999011001MA1999999098861MD1310031+9999REMSYN066AAXX  20154 47095 31960 63401 10222 20196 39886 40061 53003 86010;EQDQ01  00002PRCP99
0191470950999992000062018004+38800+127810FM-12+013599999V0201601N000519999999N0080001N1+02151+01841100661ADDAA199000091AY101061AY201061GF105991051001999999051001MA1999999098901MD1310041+9999MW1101REMSYN072AAXX  20184 47095 31958 51601 10215 20184 39890 40066 53004 71000 85050;EQDQ01  00002PRCP99
0191470950999992000062021004+38800+127810FM-12+013599999V0202701N000510120019N0080001N1+02041+01871100711ADDAA199000091AY121031AY221031GF107991071051012501071001MA1999999098941MD1010041+9999MW1101REMSYN072AAXX  20214 47095 31658 72701 10204 20187 39894 40071 50004 71022 87570;EQDQ01  00002PRCP99
0238470950999992000062100004+38800+127810FM-12+013599999V0209999C000010360019N0090001N1+02351+01881100811ADDAA199000091AY121061AY221061GF106991011051012501031001IA1019IA2999+02809KA1120N+01981MA1999999099061MD1210121+9999MW1101REMSYN088AAXX  21004 47095 31659 60000 10235 20188 39906 40081 52012 71022 81530 333 20198 30028;EQDQ01  00002PRCP99
0191470950999992000062103004+38800+127810FM-12+013599999V0202701N001010360019N0090001N1+02501+02001100751ADDAA199000091AY121031AY221031GF108991031051012501021999MA1999999099011MD1710051+9999MW1101REMSYN072AAXX  21034 47095 31659 82702 10250 20200 39901 40075 57005 71022 8352/;EQDQ01  00002PRCP99
0163470950999992000062106004+38800+127810FM-12+013599999V0203401N001010900019N0130001N1+02971+01851100581ADDAA199000091GF105991011011008001001021MA1999999098871MD1710141+9999REMSYN066AAXX  21064 47095 32563 53402 10297 20185 39887 40058 57014 81102;EQDQ01  00002PRCP99
0163470950999992000062109004+38800+127810FM-12+013599999V0203201N002612200019N0150001N1+02891+01751100551ADDAA199000091GF104991021051012501001021MA1999999098831MD1810041+9999REMSYN066AAXX  21094 47095 32665 43205 10289 20175 39883 40055 58004 82502;EQDQ01  00002PRCP99
0237470950999992000062112004+38800+127810FM-12+013599999V0200201N003110120019N0150001N1+02221+01851100791ADDAA112000191AY181061AY221061GF108991061081008001999999IA1099IA2999+02209KA1120M+03011MA1999999099041MD1310211+9999MW1251REMSYN106AAXX  21124 47095 11565 80206 10222 20185 39904 40079 53021 69922 72582 868// 333 10301 31022 55061 70002;
0144470950999992000062115004+38800+127810FM-12+013599999V0200501N000512200019N0120001N1+01951+01811100831ADDAA199000021GF103991001001999999001011MA1999999099051MD1010011+9999REMSYN066AAXX  21154 47095 32962 30501 10195 20181 39905 40083 50001 80001;
0144470950999992000062118004+38800+127810FM-12+013599999V0209999C000010360019N0120001N1+01871+01791100771ADDAA199000021GF108991021051012501011999MA1999999098991MD1710061+9999REMSYN066AAXX  21184 47095 32662 80000 10187 20179 39899 40077 57006 8251/;
0144470950999992000062121004+38800+127810FM-12+013599999V0202001N001010360019N0120001N1+01911+01801100771ADDAA199000021GF108991041051012501021999MA1999999099001MD1010011+9999REMSYN066AAXX  21214 47095 32662 82002 10191 20180 39900 40077 50001 8452/;
0250470950999992000062200004+38800+127810FM-12+013599999V0203601N001010120019N0100001N1+02071+01901100811ADDAA112000191AY121061AY221061GF108991999051012501011999IA1019IA2999+02309KA1120N+01861MA1999999099041MD1310041+9999MW1501REMSYN100AAXX  22004 47095 11660 83602 10207 20190 39904 40081 53004 69922 75022 8851/ 333 20186 30023 70004;EQDQ01+000082SCOTLC
0172470950999992000062203004+38800+127810FM-12+013599999V0203601N002610120019N0100001N1+02401+01901100631ADDAA199000021AY161031AY261031GF108991061051012501021999MA1999999098881MD1710161+9999MW1101REMSYN072AAXX  22034 47095 31660 83605 10240 20190 39888 40063 57016 71066 8652/;
0172470950999992000062206004+38800+127810FM-12+013599999V0200201N004610120019N0120001N1+02661+01781100441ADDAA199000021AY161061AY261061GF108991051051012501021999MA1999999098711MD1710171+9999MW1101REMSYN072AAXX  22064 47095 31662 80209 10266 20178 39871 40044 57017 71066 8552/;
0161470950999992000062209004+38800+127810FM-12+013599999V0201401N001010120019N0120001N1+02351+01991100371ADDAY161031AY261031GF108991061051012501021999MA1999999098621MD1710101+9999MW1211REMSYN072AAXX  22094 47095 41662 81402 10235 20199 39862 40037 57010 72166 8652/;
0209470950999992000062212004+38800+127810FM-12+013599999V0200501N002110360019N0120001N1+02251+01701100461ADDAA112001091GF108991041051012501021999IA1099IA2999+02109KA1120M+02801MA1999999098711MD1210091+9999REMSYN100AAXX  22124 47095 12662 80504 10225 20170 39871 40046 52009 60012 8452/ 333 10280 31021 55001 70010;
0144470950999992000062215004+38800+127810FM-12+013599999V0200201N003610360019N0150001N1+02151+01691100431ADDAA199000021GF108991041051012501021999MA1999999098671MD1810041+9999REMSYN066AAXX  22154 47095 32665 80207 10215 20169 39867 40043 58004 8452/;
0144470950999992000062218004+38800+127810FM-12+013599999V0203601N002610075019N0150001N1+02081+01781100401ADDAA199000021GF108991051051008001021999MA1999999098641MD1710031+9999REMSYN066AAXX  22184 47095 32565 83605 10208 20178 39864 40040 57003 8552/;
0144470950999992000062221004+38800+127810FM-12+013599999V0203601N002110075019N0180001N1+02031+01801100491ADDAA199000021GF108991061051008001021999MA1999999098731MD1210091+9999REMSYN066AAXX  22214 47095 32568 83604 10203 20180 39873 40049 52009 8652/;
0197470950999992000062300004+38800+127810FM-12+013599999V0200201N005110075019N0200001N1+02281+01791100521ADDAA124001091GF108991061051008001021999IA1019IA2999+02609KA1120N+02011MA1999999098771MD1210051+9999REMSYN088AAXX  23004 47095 32570 80210 10228 20179 39877 40052 52005 8652/ 333 20201 30026 70010;
0163470950999992000062303004+38800+127810FM-12+013599999V0200701N004110075019N0200001N1+02431+01601100521ADDAA199000091GF108991061051008001021999MA1999999098781MD1010011+9999REMSYN066AAXX  23034 47095 32570 80708 10243 20160 39878 40052 50001 8652/;EQDQ01  00002PRCP99
0163470950999992000062306004+38800+127810FM-12+013599999V0201101N002110075019N0200001N1+02471+01581100431ADDAA199000091GF108991061051008001021999MA1999999098691MD1710091+9999REMSYN066AAXX  23064 47095 32570 81104 10247 20158 39869 40043 57009 8652/;EQDQ01  00002PRCP99
0163470950999992000062309004+38800+127810FM-12+013599999V0200501N001010075019N0220001N1+02411+01751100331ADDAA199000091GF108991061051008001021999MA1999999098601MD1810091+9999REMSYN066AAXX  23094 47095 32572 80502 10241 20175 39860 40033 58009 8652/;EQDQ01  00002PRCP99
0210470950999992000062312004+38800+127810FM-12+013599999V0200501N001010075019N0220001N1+02251+01771100461ADDAA199000091GF108991061051008001021999IA1019IA2999+02209KA1120M+02561MA1999999098711MD1210111+9999REMSYN082AAXX  23124 47095 32572 80502 10225 20177 39871 40046 52011 8652/ 333 10256 30022;EQDQ01  00002PRCP99
0163470950999992000062315004+38800+127810FM-12+013599999V0200201N001010075019N0200001N1+02101+01761100551ADDAA199000091GF108991061051008001021999MA1999999098791MD1810081+9999REMSYN066AAXX  23154 47095 32570 80202 10210 20176 39879 40055 58008 8652/;EQDQ01  00002PRCP99
0163470950999992000062318004+38800+127810FM-12+013599999V0209999C000010075019N0180001N1+02071+01751100511ADDAA199000091GF108991061051008001021999MA1999999098751MD1510041+9999REMSYN066AAXX  23184 47095 32568 80000 10207 20175 39875 40051 55004 8652/;EQDQ01  00002PRCP99
0163470950999992000062321004+38800+127810FM-12+013599999V0200201N000510075019N0200001N1+01991+01811100571ADDAA199000091GF108991061051008001021001MA1999999098801MD1010051+9999REMSYN066AAXX  23214 47095 32570 80201 10199 20181 39880 40057 50005 86520;EQDQ01  00002PRCP99
0210470950999992000062400004+38800+127810FM-12+013599999V0203601N004110120019N0250001N1+02361+01801100541ADDAA199000091GF105991051051012501001001IA1019IA2999+03209KA1120N+01991MA1999999098791MD1810011+9999REMSYN082AAXX  24004 47095 32675 53608 10236 20180 39879 40054 58001 85500 333 20199 30032;EQDQ01  00002PRCP99
0163470950999992000062403004+38800+127810FM-12+013599999V0200201N001010075019N0250001N1+02711+01731100461ADDAA199000091GF107991071051008001001001MA1999999098731MD1710061+9999REMSYN066AAXX  24034 47095 32575 70202 10271 20173 39873 40046 57006 87500;EQDQ01  00002PRCP99
0163470950999992000062406004+38800+127810FM-12+013599999V0202501N002610120019N0250001N1+02751+01751100331ADDAA199000091GF107991071051012501001001MA1999999098611MD1710121+9999REMSYN066AAXX  24064 47095 32675 72505 10275 20175 39861 40033 57012 87500;EQDQ01  00002PRCP99
0163470950999992000062409004+38800+127810FM-12+013599999V0200201N002610075019N0250001N1+02621+01901100321ADDAA199000091GF108991081051008001999999MA1999999098591MD1810021+9999REMSYN066AAXX  24094 47095 32575 80205 10262 20190 39859 40032 58002 885//;EQDQ01  00002PRCP99
0209470950999992000062412004+38800+127810FM-12+013599999V0209999C000010120019N0120001N1+02181+02031100571ADDAA112002091GF105991051051012501001001IA1099IA2999+02209KA1120M+02951MA1999999098821MD1210231+9999REMSYN100AAXX  24124 47095 12662 50000 10218 20203 39882 40057 52023 60022 85500 333 10295 31022 55077 70018;
0133470950999992000062415004+38800+127810FM-12+013599999V0200201N001010120019N0150001N1+02081+01911100621ADDGF106991061051012501001001MA1999999098861MD1510041+9999REMSYN066AAXX  24154 47095 42665 60202 10208 20191 39886 40062 55004 86500;
0163470950999992000062418004+38800+127810FM-12+013599999V0203401N001010120019N0150001N1+01991+01891100651ADDAA199000091GF108991051051012501011001MA1999999098881MD1210021+9999REMSYN066AAXX  24184 47095 32665 83402 10199 20189 39888 40065 52002 85510;EQDQ01  00002PRCP99
0163470950999992000062421004+38800+127810FM-12+013599999V0201401N000510120019N0150001N1+01951+01801100741ADDAA199000091GF107991051051012501011001MA1999999098961MD1210081+9999REMSYN066AAXX  24214 47095 32665 71401 10195 20180 39896 40074 52008 85510;EQDQ01  00002PRCP99
0203470950999992000062500004+38800+127810FM-12+013599999V0203201N000510360019N0180001N1+02311+01911100761ADDAA112000791GF105991021051012501031001IA1019IA2999+02709KA1120N+01941MA1999999099011MD1310051+9999REMSYN094AAXX  25004 47095 32668 53201 10231 20191 39901 40076 53005 69902 82530 333 20194 30027 70019;
0163470950999992000062503004+38800+127810FM-12+013599999V0203201N001510360019N0180001N1+02731+01941100631ADDAA199000091GF106991041051012501031001MA1999999098911MD1710101+9999REMSYN066AAXX  25034 47095 32668 63203 10273 20194 39891 40063 57010 84530;EQDQ01  00002PRCP99
0163470950999992000062506004+38800+127810FM-12+013599999V0202701N001510360019N0200001N1+02911+01971100541ADDAA199000091GF105991021051012501031001MA1999999098821MD1710091+9999REMSYN066AAXX  25064 47095 32670 52703 10291 20197 39882 40054 57009 82530;EQDQ01  00002PRCP99
0163470950999992000062509004+38800+127810FM-12+013599999V0202701N001510120019N0120001N1+02621+02131100591ADDAA199000091GF107991071051012501001999MA1999999098861MD1210041+9999REMSYN066AAXX  25094 47095 32662 72703 10262 20213 39886 40059 52004 8750/;EQDQ01  00002PRCP99
0225470950999992000062512004+38800+127810FM-12+013599999V0201801N000510360019N0060001N1+02401+02071100681ADDAA124000191AY101061AY201061GF108991041051012501021999IA2999+02409KA1120M+02921MA1999999098941MD1210081+9999MW1101REMSYN100AAXX  25124 47095 31656 81801 10240 20207 39894 40068 52008 71000 8452/ 333 10292 3/024 55087 70001;
0191470950999992000062515004+38800+127810FM-12+013599999V0202301N001010360019N0070001N1+02251+02081100761ADDAA199000091AY121031AY221031GF106991031051012501031001MA1999999099011MD1310071+9999MW1101REMSYN072AAXX  25154 47095 31657 62302 10225 20208 39901 40076 53007 71022 83530;EQDQ01  00002PRCP99
0191470950999992000062518004+38800+127810FM-12+013599999V0201801N000510360019N0070001N1+02191+02091100701ADDAA199000091AY121061AY221061GF106991041051012501031001MA1999999098941MD1810071+9999MW1101REMSYN072AAXX  25184 47095 31657 61801 10219 20209 39894 40070 58007 71022 84530;EQDQ01  00002PRCP99
0191470950999992000062521004+38800+127810FM-12+013599999V0202901N000510360019N0030001N1+02111+02031100721ADDAA199000091AY121031AY221031GF108991031051012501021999MA1999999098951MD1310011+9999MW1101REMSYN072AAXX  25214 47095 31630 82901 10211 20203 39895 40072 53001 71022 8352/;EQDQ01  00002PRCP99
0238470950999992000062600004+38800+127810FM-12+013599999V0202701N001010360019N0070001N1+02401+02071100741ADDAA199000091AY121061AY221061GF108991021051012501021999IA1019IA2999+02809KA1120N+02071MA1999999099001MD1210051+9999MW1101REMSYN088AAXX  26004 47095 31657 82702 10240 20207 39900 40074 52005 71022 8252/ 333 20207 30028;EQDQ01  00002PRCP99
0161470950999992000062603004+38800+127810FM-12+013599999V0202701N001010075019N0060001N1+02441+02161100641ADDAY161031AY211031GF108991051071008001021999MA1999999098901MD1710101+9999MW1601REMSYN072AAXX  26034 47095 41556 82702 10244 20216 39890 40064 57010 76061 8572/;
0161470950999992000062606004+38800+127810FM-12+013599999V0203601N001010075019N0030001N1+02421+02251100451ADDAY161061AY261061GF108991061071008001021999MA1999999098711MD1710191+9999MW1601REMSYN072AAXX  26064 47095 41530 83602 10242 20225 39871 40045 57019 76066 8672/;
0161470950999992000062609004+38800+127810FM-12+013599999V0200201N002110075019N0050001N1+02241+02091100311ADDAY161031AY261031GF108991061071008001021999MA1999999098561MD1710151+9999MW1611REMSYN072AAXX  26094 47095 41550 80204 10224 20209 39856 40031 57015 76166 8672/;
0231470950999992000062612004+38800+127810FM-12+013599999V0203601N002610075019N0030001N1+02041+01971100361ADDAA112040991AY161061AY261061GF108991061071008001021999IA1099IA2999+02009KA1120M+02551MA1999999098601MD1310041+9999MW1631REMSYN100AAXX  26124 47095 11530 83605 10204 20197 39860 40036 53004 60412 76366 8672/ 333 10255 31020 70414;
0161470950999992000062615004+38800+127810FM-12+013599999V0203601N003610075019N0030001N1+01971+01891100291ADDAY161031AY261031GF108991061071008001021999MA1999999098531MD1510071+9999MW1631REMSYN072AAXX  26154 47095 41530 83607 10197 20189 39853 40029 55007 76366 8672/;
0161470950999992000062618004+38800+127810FM-12+013599999V0203601N002610075019N0030001N1+01961+01871100241ADDAY161061AY261061GF108991051071008001021999MA1999999098481MD1610051+9999MW1611REMSYN072AAXX  26184 47095 41530 83605 10196 20187 39848 40024 56005 76166 8572/;
0161470950999992000062621004+38800+127810FM-12+013599999V0203601N001510075019N0120001N1+02021+01871100141ADDAY161031AY261031GF108991051071008001021999MA1999999098381MD1710101+9999MW1611REMSYN072AAXX  26214 47095 41562 83603 10202 20187 39838 40014 57010 76166 8572/;
0203470950999992000062700004+38800+127810FM-12+013599999V0203601N004110075019N0200001N1+02301+01951100111ADDAA112031091GF108991061051008001021999IA1099IA2999+02309KA1120N+01931MA1999999098371MD1310011+9999REMSYN094AAXX  27004 47095 12570 83608 10230 20195 39837 40011 53001 60312 8652/ 333 20193 31023 70725;
0144470950999992000062703004+38800+127810FM-12+013599999V0200201N004610360019N0250001N1+02531+01891100051ADDAA199000021GF107991041051008001031001MA1999999098321MD1710051+9999REMSYN066AAXX  27034 47095 32575 70209 10253 20189 39832 40005 57005 84530;
0144470950999992000062706004+38800+127810FM-12+013599999V0200501N004110075019N0250001N1+02611+01791100091ADDAA199000021GF107991061051008001031001MA1999999098371MD1210051+9999REMSYN066AAXX  27064 47095 32575 70508 10261 20179 39837 40009 52005 86530;
0144470950999992000062709004+38800+127810FM-12+013599999V0200701N003112200019N0250001N1+02571+01731100191ADDAA199000021GF102991021051012501001001MA1999999098461MD1210091+9999REMSYN066AAXX  27094 47095 32675 20706 10257 20173 39846 40019 52009 82500;
0213470950999992000062712004+38800+127810FM-12+013599999V0200501N002112200019N0250001N1+02061+01781100431ADDAA124032391GA1001+999999999GF100991001001999999001001IA1099IA2999+01909KA1120M+02691MA1999999098661MD1210201+9999REMSYN088AAXX  27124 47095 32975 00504 10206 20178 39866 40043 52020 333 10269 31019 55009 70323;
0173470950999992000062715004+38800+127810FM-12+013599999V0203401N000512200019N0200001N1+01861+01711100581ADDAA199000091GA1001+999999999GF100991001001999999001001MA1999999098801MD1210141+9999REMSYN060AAXX  27154 47095 32970 03401 10186 20171 39880 40058 52014;EQDQ01  00002PRCP99
0173470950999992000062718004+38800+127810FM-12+013599999V0200501N000512200019N0200001N1+01701+01611100531ADDAA199000091GA1001+999999999GF100991001001999999001001MA1999999098751MD1710051+9999REMSYN060AAXX  27184 47095 32970 00501 10170 20161 39875 40053 57005;EQDQ01  00002PRCP99
0173470950999992000062721004+38800+127810FM-12+013599999V0200201N000512200019N0200001N1+01601+01551100601ADDAA199000091GA1001+999999999GF100991001001999999001001MA1999999098801MD1210051+9999REMSYN060AAXX  27214 47095 32970 00201 10160 20155 39880 40060 52005;EQDQ01  00002PRCP99
0220470950999992000062800004+38800+127810FM-12+013599999V0203401N000512200019N0220001N1+02321+01761100551ADDAA199000091GA1001+999999999GF100991001001999999001001IA1019IA2999+02709KA1120N+01601MA1999999098801MD1510001+9999REMSYN076AAXX  28004 47095 32972 03401 10232 20176 39880 40055 55000 333 20160 30027;EQDQ01  00002PRCP99
0173470950999992000062803004+38800+127810FM-12+013599999V0203601N001512200019N0250001N1+02871+01781100431ADDAA199000091GA1001+999999999GF100991001001999999001001MA1999999098711MD1710091+9999REMSYN060AAXX  28034 47095 32975 03603 10287 20178 39871 40043 57009;EQDQ01  00002PRCP99
0163470950999992000062806004+38800+127810FM-12+013599999V0202901N001512200019N0250001N1+03131+01751100301ADDAA199000091GF101991011051012501001001MA1999999098611MD1710101+9999REMSYN066AAXX  28064 47095 32675 12903 10313 20175 39861 40030 57010 81500;EQDQ01  00002PRCP99
0153470950999992000062809004+38800+127810FM-12+013599999V0203601N003612200019N0250001N1+02991+01961100241ADDAA199000091GA1001+999999999GF100991001001999999001001MA1999999098541REMSYN054AAXX  28094 47095 32975 03607 10299 20196 39854 40024;EQDQ01  00002PRCP99
0216470950999992000062812004+38800+127810FM-12+013599999V0201401N000512200019N0250001N1+02401+02171100401ADDAA199000091GF102991021001999999031001IA1019IA2999+02409KA1120M+03141MA1999999098661MD1110121+9999REMSYN088AAXX  28124 47095 32975 21401 10240 20217 39866 40040 51012 82030 333 10314 30024 55119;EQDQ01  00002PRCP99
0163470950999992000062815004+38800+127810FM-12+013599999V0209999C000012200019N0200001N1+02201+01991100481ADDAA199000091GF102991021001999999031001MA1999999098731MD1810071+9999REMSYN066AAXX  28154 47095 32970 20000 10220 20199 39873 40048 58007 82030;EQDQ01  00002PRCP99
0163470950999992000062818004+38800+127810FM-12+013599999V0202301N000519999999N0180001N1+02061+01931100421ADDAA199000091GF105991051001999999031001MA1999999098661MD1810071+9999REMSYN066AAXX  28184 47095 32968 52301 10206 20193 39866 40042 58007 85030;EQDQ01  00002PRCP99
0191470950999992000062821004+38800+127810FM-12+013599999V0202001N000510360019N0050001N1+01981+01921100511ADDAA199000091AY121031AY221031GF106991021051008001031021MA1999999098751MD1110091+9999MW1101REMSYN072AAXX  28214 47095 31550 62001 10198 20192 39875 40051 51009 71022 82532;EQDQ01  00002PRCP99
0238470950999992000062900004+38800+127810FM-12+013599999V0201601N000519999999N0030001N1+02321+01991100381ADDAA199000091AY121061AY221061GF106991021001999999031011IA1019IA2999+02809KA1120N+01921MA1999999098641MD1710111+9999MW1101REMSYN088AAXX  29004 47095 31930 61601 10232 20199 39864 40038 57011 71022 82031 333 20192 30028;EQDQ01  00002PRCP99
0161470950999992000062903004+38800+127810FM-12+013599999V0202301N002119999999N0030001N1+02421+02101100351ADDAY161031AY211031GF108991081001999999021999MA1999999098611MD1810031+9999MW1601REMSYN072AAXX  29034 47095 41930 82304 10242 20210 39861 40035 58003 76061 8802/;
0161470950999992000062906004+38800+127810FM-12+013599999V0209999C000010360019N0015001N1+02401+02151100051ADDAY161061AY261061GF108991041071008001021999MA1999999098311MD1710301+9999MW1601REMSYN072AAXX  29064 47095 41515 83200 10240 20215 39831 40005 57030 76066 8472/;
0161470950999992000062909004+38800+127810FM-12+013599999V0200701N001010075019N0120001N1+02131+01971100031ADDAY161031AY261031GF108991051051008001021999MA1999999098281MD1710031+9999MW1601REMSYN072AAXX  29094 47095 41562 80702 10213 20197 39828 40003 57003 76066 8552/;
0231470950999992000062912004+38800+127810FM-12+013599999V0203401N001010075019N0100001N1+01901+01821100101ADDAA112006191AY161061AY261061GF108991051071008001021999IA1099IA2999+02009KA1120M+02521MA1999999098341MD1310061+9999MW1611REMSYN100AAXX  29124 47095 11560 83402 10190 20182 39834 40010 53006 60062 76166 8572/ 333 10252 31020 70055;
0161470950999992000062915004+38800+127810FM-12+013599999V0203601N001010075019N0070001N1+01901+01861100101ADDAY161031AY261031GF108991051071008001021999MA1999999098341MD1510001+9999MW1611REMSYN072AAXX  29154 47095 41557 83602 10190 20186 39834 40010 55000 76166 8572/;
0161470950999992000062918004+38800+127810FM-12+013599999V0209999C000010075019N0050001N1+01911+01881100051ADDAY161061AY261061GF108991051071008001021999MA1999999098291MD1710051+9999MW1611REMSYN072AAXX  29184 47095 41550 80000 10191 20188 39829 40005 57005 76166 8572/;
0161470950999992000062921004+38800+127810FM-12+013599999V0202301N001510075019N0030001N1+02061+02031100161ADDAY161031AY261031GF108991061071008001021999MA1999999098401MD1010111+9999MW1611REMSYN072AAXX  29214 47095 41530 82303 10206 20203 39840 40016 50011 76166 8672/;
0212470950999992000063000004+38800+127810FM-12+013599999V0202001N002610042019N0050001N1+02151+02001100351ADDAA112014091AY161061AY261061GF108991061071004501021999IA1099IA2999+02209MA1999999098591MD1210191+9999MW1601REMSYN094AAXX  30004 47095 11450 82005 10215 20200 39859 40035 52019 60142 76066 8672/ 333 31022 70198;
0161470950999992000063003004+38800+127810FM-12+013599999V0202301N002610075019N0060001N1+02141+01991100511ADDAY161031AY261031GF108991061071008001021999MA1999999098751MD1210161+9999MW1601REMSYN072AAXX  30034 47095 41556 82305 10214 20199 39875 40051 52016 76066 8672/;
0172470950999992000063006004+38800+127810FM-12+013599999V0202301N002610075019N0060001N1+02261+01981100541ADDAA199000021AY161061AY221061GF108991061051008001021999MA1999999098791MD1110041+9999MW1101REMSYN072AAXX  30064 47095 31556 82305 10226 20198 39879 40054 51004 71062 8652/;
0144470950999992000063009004+38800+127810FM-12+013599999V0202501N002610360019N0140001N1+02321+02021100551ADDAA199000021GF107991041051008001031001MA1999999098801MD1310011+9999REMSYN066AAXX  30094 47095 32564 72505 10232 20202 39880 40055 53001 84530;
0237470950999992000063012004+38800+127810FM-12+013599999V0209999C000010075019N0060001N1+02121+02031100751ADDAA112000791AY121061AY221061GF107991051051008001031001IA1099IA2999+02109KA1120M+02361MA1999999098991MD1210191+9999MW1101REMSYN106AAXX  30124 47095 11556 70000 10212 20203 39899 40075 52019 69902 71022 85530 333 10236 31021 55000 70144;
0161470950999992000063015004+38800+127810FM-12+013599999V0201601N000510075019N0060001N1+02091+01991100911ADDAY121031AY221031GF106991061051008001001001MA1999999099141MD1210161+9999MW1101REMSYN072AAXX  30154 47095 41556 61601 10209 20199 39914 40091 52016 71022 86500;
0207470950999992000063018004+38800+127810FM-12+013599999V0200501N000519999999N0008001N1+01911+01881100931ADDAA199000091AY141061AY221061GF108991999999999999999999MA1999999099151MD1210101+9999MW1451REMSYN072AAXX  30184 47095 31/08 80501 10191 20188 39915 40093 52010 74542 89///;EQDQ01+000092SCOTLCQ02  00002PRCP99
0207470950999992000063021004+38800+127810FM-12+013599999V0209999C000019999999N0004001N1+01921+01901101011ADDAA199000091AY141031AY241031GF108991999999999999999999MA1999999099231MD1010081+9999MW1451REMSYN072AAXX  30214 47095 31/04 80000 10192 20190 39923 40101 50008 74544 89///;EQDQ01+000092SCOTLCQ02  00002PRCP99
0238470950999992000070100004+38800+127810FM-12+013599999V0202901N000519999999N0004001N1+02171+01961101101ADDAA124000191AY141061AY241061GF108991999999999999999999IA2999+02509KA1120N+01861MA1999999099331MD1210101+9999MW1451REMSYN094AAXX  01004 47095 31/04 82901 10217 20196 39933 40110 52010 74544 89/// 333 20186 3/025 70001;EQDQ01+000092SCOTLC
0191470950999992000070103004+38800+127810FM-12+013599999V0202501N000510360019N0080001N1+02711+01941101051ADDAA199000091AY121031AY221031GF105991031051012501031001MA1999999099321MD1510011+9999MW1101REMSYN072AAXX  01034 47095 31658 52501 10271 20194 39932 40105 55001 71022 83530;EQDQ01  00002PRCP99
0191470950999992000070106004+38800+127810FM-12+013599999V0202901N001512200019N0100001N1+02871+02001100961ADDAA199000091AY101061AY201061GF104991031051012501031001MA1999999099241MD1710081+9999MW1051REMSYN072AAXX  01064 47095 31660 42903 10287 20200 39924 40096 57008 70500 83530;EQDQ01  00002PRCP99
0191470950999992000070109004+38800+127810FM-12+013599999V0202501N002112200019N0100001N1+02711+02141100921ADDAA199000091AY121031AY221031GF102991021051012501031001MA1999999099181MD1810061+9999MW1101REMSYN072AAXX  01094 47095 31660 22504 10271 20214 39918 40092 58006 71022 82530;EQDQ01  00002PRCP99
0244470950999992000070112004+38800+127810FM-12+013599999V0209999C000010360019N0050001N1+02391+02261101131ADDAA199000091AY121061AY221061GF108991021051012501021999IA1019IA2999+02409KA1120M+02951MA1999999099381MD1210201+9999MW1101REMSYN094AAXX  01124 47095 31650 80000 10239 20226 39938 40113 52020 71022 8252/ 333 10295 30024 55041;EQDQ01  00002PRCP99
0191470950999992000070115004+38800+127810FM-12+013599999V0209999C000010360019N0015001N1+02191+02121101251ADDAA199000091AY121031AY221031GF106991021051012501031001MA1999999099481MD1210101+9999MW1101REMSYN072AAXX  01154 47095 31615 60000 10219 20212 39948 40125 52010 71022 82530;EQDQ01  00002PRCP99
0191470950999992000070118004+38800+127810FM-12+013599999V0209999C000012200019N0015001N1+02151+02091101261ADDAA199000091AY121061AY221061GF103991021051012501031001MA1999999099491MD1310011+9999MW1101REMSYN072AAXX  01184 47095 31615 32900 10215 20209 39949 40126 53001 71022 82530;EQDQ01  00002PRCP99
0191470950999992000070121004+38800+127810FM-12+013599999V0209999C000010360019N0012001N1+02131+02081101361ADDAA199000091AY121031AY221031GF106991041051012501031001MA1999999099581MD1210091+9999MW1101REMSYN072AAXX  01214 47095 31612 60000 10213 20208 39958 40136 52009 71022 84530;EQDQ01  00002PRCP99
0238470950999992000070200004+38800+127810FM-12+013599999V0200201N000512200019N0030001N1+02581+02171101371ADDAA199000091AY101061AY201061GF102991021051012501001001IA1019IA2999+03009KA1120N+02111MA1999999099631MD1310051+9999MW1101REMSYN088AAXX  02004 47095 31630 20201 10258 20217 39963 40137 53005 71000 82500 333 20211 30030;EQDQ01  00002PRCP99
0163470950999992000070203004+38800+127810FM-12+013599999V0202301N002112200019N0150001N1+02911+01911101291ADDAA199000091GF102991021051012501001001MA1999999099561MD1710071+9999REMSYN066AAXX  02034 47095 31665 22304 10291 20191 39956 40129 57007 82500;EQDQ01  00002PRCP99
0163470950999992000070206004+38800+127810FM-12+013599999V0202501N003112200019N0150001N1+03081+02001101131ADDAA199000091GF102991021051012501001001MA1999999099411MD1710151+9999REMSYN066AAXX  02064 47095 32665 22506 10308 20200 39941 40113 57015 82500;EQDQ01  00002PRCP99
0163470950999992000070209004+38800+127810FM-12+013599999V0202901N001512200019N0100001N1+02981+02151101071ADDAA199000091GF102991021051012501001001MA1999999099351MD1810061+9999REMSYN066AAXX  02094 47095 32660 22903 10298 20215 39935 40107 58006 82500;EQDQ01  00002PRCP99
0210470950999992000070212004+38800+127810FM-12+013599999V0202001N001512200019N0100001N1+02561+02241101281ADDAA199000091GF102991021051012501001001IA1019IA2999+02609KA1120M+03131MA1999999099531MD1210181+9999REMSYN082AAXX  02124 47095 32660 22003 10256 20224 39953 40128 52018 82500 333 10313 30026;EQDQ01  00002PRCP99
0171470950999992000070215004+38800+127810FM-12+013599999V0202001N001512200019N0100001N1+02331+02181101391ADDAA199000091AY121031AY221031GF102991021051012501001001MA1999999099631MW1101REMSYN066AAXX  02154 47095 31660 22003 10233 20218 39963 40139 71022 82500;EQDQ01  00002PRCP99
0191470950999992000070218004+38800+127810FM-12+013599999V0201601N000512200019N0080001N1+02311+02171101371ADDAA199000091AY121061AY221061GF102991021051012501001001MA1999999099611MD1810021+9999MW1101REMSYN072AAXX  02184 47095 31658 21601 10231 20217 39961 40137 58002 71022 82500;EQDQ01  00002PRCP99
0207470950999992000070221004+38800+127810FM-12+013599999V0209999C000010120019N0100001N1+02201+02121101381ADDAA199000091AY121031AY221031GF106991061051012501001001MA1999999099611MD1310011+9999MW1101REMSYN072AAXX  02214 47095 31660 60000 10220 20212 39961 40138 53000 71022 86500;EQDQ01+000002APC3  Q02  00002PRCP99
0210470950999992000070300004+38800+127810FM-12+013599999V0203401N000510900019N0130001N1+02611+02151101361ADDAA199000091GF106991041051012501001021IA1019IA2999+02909KA1120N+02191MA1999999099611MD1510001+9999REMSYN082AAXX  03004 47095 32663 63401 10261 20215 39961 40136 55000 84502 333 20219 30029;EQDQ01  00002PRCP99
0133470950999992000070303004+38800+127810FM-12+013599999V0200201N000519999999N0150001N1+02831+02121999999ADDAA199000091GF105991999999008001999999REMSYN065AAXX  03034 47095 32565 50201 10283 20212 3955 40128 57006 82106;EQDQ01  00002PRCP99
0163470950999992000070306004+38800+127810FM-12+013599999V0202701N001012200019N0180001N1+03081+02171101121ADDAA199000091GF102991011011008001001021MA1999999099411MD1710141+9999REMSYN066AAXX  03064 47095 32568 22702 10308 20217 39941 40112 57014 81102;EQDQ01  00002PRCP99
0163470950999992000070309004+38800+127810FM-12+013599999V0203601N002612200019N0250001N1+03041+02211101081ADDAA199000091GF101991011011008001001001MA1999999099371MD1810041+9999REMSYN066AAXX  03094 47095 32575 13605 10304 20221 39937 40108 58004 81100;EQDQ01  00002PRCP99
0226470950999992000070312004+38800+127810FM-12+013599999V0209999C000012200019N0200001N1+02561+02311101221ADDAA199000091GA1001+999999999GF100991001001999999001001IA1019IA2999+02609KA1120M+03161MA1999999099481MD1210111+9999REMSYN082AAXX  03124 47095 32970 00000 10256 20231 39948 40122 52011 333 10316 30026 55055;EQDQ01  00002PRCP99
0173470950999992000070315004+38800+127810FM-12+013599999V0200501N001012200019N0120001N1+02291+02201101281ADDAA199000091GA1001+999999999GF100991001001999999001001MA1999999099521MD1310041+9999REMSYN060AAXX  03154 47095 32962 00502 10229 20220 39952 40128 53004;EQDQ01  00002PRCP99
0163470950999992000070318004+38800+127810FM-12+013599999V0200501N001010120019N0120001N1+02281+02211101261ADDAA199000091GF106991061051012501001001MA1999999099501MD1710021+9999REMSYN066AAXX  03184 47095 32662 60502 10228 20221 39950 40126 57002 86500;EQDQ01  00002PRCP99
0191470950999992000070321004+38800+127810FM-12+013599999V0209999C000012200019N0080001N1+02331+02221101291ADDAA199000091AY101031AY201031GF102991021051012501001001MA1999999099531MD1210031+9999MW1101REMSYN072AAXX  03214 47095 31658 21400 10233 20222 39953 40129 52003 71000 82500;EQDQ01  00002PRCP99
0242470950999992000070400004+38800+127810FM-12+013599999V0200201N000512200019N0120001N1+02751+02261101261ADDAA199000091GF102991001001999999001021IA1019IA2999+03209KA1120N+02221MA1999999099531MD1710031+9999REMSYN082AAXX  04004 47095 32962 20201 10275 20226 39953 40126 53000 80002 333 20222 30032;EQDQ01+000032APCTENQ02+000002APC3  Q03  00002PRCP99
0163470950999992000070403004+38800+127810FM-12+013599999V0202701N001512200019N0150001N1+03111+02051101201ADDAA199000091GF105991021051012501001061MA1999999099481MD1710051+9999REMSYN066AAXX  04034 47095 32665 52703 10311 20205 39948 40120 57005 82506;EQDQ01  00002PRCP99
0163470950999992000070406004+38800+127810FM-12+013599999V0203401N002612200019N0150001N1+03201+02301101081ADDAA199000091GF105991031011008001001061MA1999999099371MD1710111+9999REMSYN066AAXX  04064 47095 32565 53405 10320 20230 39937 40108 57011 83106;EQDQ01  00002PRCP99
0163470950999992000070409004+38800+127810FM-12+013599999V0203601N001512200019N0150001N1+03171+02371101081ADDAA199000091GF102991011011008001001011MA1999999099381MD1310011+9999REMSYN066AAXX  04094 47095 32565 23603 10317 20237 39938 40108 53001 81101;EQDQ01  00002PRCP99
0216470950999992000070412004+38800+127810FM-12+013599999V0201801N000512200019N0200001N1+02671+02371101301ADDAA199000091GF102991001001999999001011IA1019IA2999+02709KA1120M+03291MA1999999099561MD1210181+9999REMSYN088AAXX  04124 47095 32970 21801 10267 20237 39956 40130 52018 80001 333 10329 30027 55131;EQDQ01  00002PRCP99
0173470950999992000070415004+38800+127810FM-12+013599999V0200501N001012200019N0160001N1+02301+02161101331ADDAA199000091GA1001+999999999GF100991001001999999001001MA1999999099571MD1310011+9999REMSYN060AAXX  04154 47095 32966 00502 10230 20216 39957 40133 53001;EQDQ01  00002PRCP99
0173470950999992000070418004+38800+127810FM-12+013599999V0203601N000512200019N0060001N1+02161+02101101331ADDAA199000091GA1001+999999999GF100991001001999999001001MA1999999099561MD1510011+9999REMSYN060AAXX  04184 47095 32956 03601 10216 20210 39956 40133 55001;EQDQ01  00002PRCP99
0238470950999992000070500004+38800+127810FM-12+013599999V0209999C000012200019N0090001N1+02601+02131101411ADDAA199000091AY101061AY201061GF103991001001999999001031IA1019IA2999+03109KA1120N+02101MA1999999099661MD1310011+9999MW1101REMSYN088AAXX  05004 47095 31959 30000 10260 20213 39966 40141 53001 71000 80003 333 20210 30031;EQDQ01  00002PRCP99
0191470950999992000070503004+38800+127810FM-12+013599999V0203401N000519999999N0090001N1+03001+02301101251ADDAA199000091AY121031AY221031GF105991001001999999001021MA1999999099531MD1710131+9999MW1101REMSYN072AAXX  05034 47095 31959 53401 10300 20230 39953 40125 57013 71022 80002;EQDQ01  00002PRCP99
0163470950999992000070506004+38800+127810FM-12+013599999V0203601N001512200019N0120001N1+03151+02291101061ADDAA199000091GF104991021051012501001021MA1999999099351MD1710181+9999REMSYN066AAXX  05064 47095 32662 43603 10315 20229 39935 40106 57018 82502;EQDQ01  00002PRCP99
0163470950999992000070509004+38800+127810FM-12+013599999V0202001N001010900019N0150001N1+03181+02091100931ADDAA199000091GF106991011051012501001021MA1999999099221MD1710131+9999REMSYN066AAXX  05094 47095 32665 62002 10318 20209 39922 40093 57013 81502;EQDQ01  00002PRCP99
0210470950999992000070512004+38800+127810FM-12+013599999V0209999C000019999999N0150001N1+02701+02411100991ADDAA199000091GF105991001001999999001021IA1019IA2999+02709KA1120M+03271MA1999999099261MD1510041+9999REMSYN082AAXX  05124 47095 32965 50000 10270 20241 39926 40099 55004 80002 333 10327 30027;EQDQ01  00002PRCP99
0191470950999992000070515004+38800+127810FM-12+013599999V0200501N001512200019N0080001N1+02361+02281101001ADDAA199000091AY121031AY221031GF102991001001999999001011MA1999999099251MD1310011+9999MW1101REMSYN072AAXX  05154 47095 31958 20503 10236 20228 39925 40100 53001 71022 80001;EQDQ01  00002PRCP99
0191470950999992000070518004+38800+127810FM-12+013599999V0200701N001012200019N0030001N1+02391+02311100971ADDAA199000091AY121061AY221061GF102991001001999999001011MA1999999099221MD1610031+9999MW1101REMSYN072AAXX  05184 47095 31930 20702 10239 20231 39922 40097 56003 71022 80001;EQDQ01  00002PRCP99
0191470950999992000070521004+38800+127810FM-12+013599999V0202901N001010120019N0008001N1+02341+02271100991ADDAA199000091AY121031AY221031GF106991061051012501001001MA1999999099231MD1010011+9999MW1441REMSYN072AAXX  05214 47095 31608 62902 10234 20227 39923 40099 50001 74422 86500;EQDQ01  00002PRCP99
0238470950999992000070600004+38800+127810FM-12+013599999V0203401N001012200019N0090001N1+02621+02241100891ADDAA199000091AY141061AY221061GF102991021051012501001001IA1019IA2999+03309KA1120N+02311MA1999999099151MD1710081+9999MW1281REMSYN088AAXX  06004 47095 31659 23402 10262 20224 39915 40089 57008 72842 82500 333 20231 30033;EQDQ01  00002PRCP99
0163470950999992000070603004+38800+127810FM-12+013599999V0203201N000512200019N0130001N1+03101+02101100701ADDAA199000091GF104991011011008001001021MA1999999098991MD1710161+9999REMSYN066AAXX  06034 47095 32563 43201 10310 20210 39899 40070 57016 81102;EQDQ01  00002PRCP99
0163470950999992000070606004+38800+127810FM-12+013599999V0202901N002112200019N0180001N1+03281+02311100501ADDAA199000091GF104991041011008001001001MA1999999098801MD1710191+9999REMSYN066AAXX  06064 47095 32568 42904 10328 20231 39880 40050 57019 84100;EQDQ01  00002PRCP99
0133470950999992000070609004+38800+127810FM-12+013599999V0201101N002112200019N0018001N1+02781+02371100441ADDGF104991041011008001001001MA1999999098721MD1810081+9999REMSYN066AAXX  06094 47095 41518 41104 10278 20237 39872 40044 58008 84100;
0237470950999992000070612004+38800+127810FM-12+013599999V0209999C000012200019N0150001N1+02541+02441100541ADDAA112004191AY101061AY201061GF103991031091008001001001IA1099IA2999+02709KA1120M+03361MA1999999098811MD1010091+9999MW1131REMSYN106AAXX  06124 47095 11565 30000 10254 20244 39881 40054 50009 60042 71300 83900 333 10336 31027 55081 70037;
0161470950999992000070615004+38800+127810FM-12+013599999V0203401N002612200019N0150001N1+02391+02121100561ADDAY191031AY281031GF102991021051008001001001MA1999999098821MD1310011+9999MW1291REMSYN072AAXX  06154 47095 41565 23405 10239 20212 39882 40056 53001 72998 82500;
0173470950999992000070618004+38800+127810FM-12+013599999V0200201N003612200019N0200001N1+02361+02071100571ADDAA199000091GA1001+999999999GF100991001001999999001001MA1999999098821MD1510001+9999REMSYN060AAXX  06184 47095 32970 00207 10236 20207 39882 40057 55000;EQDQ01  00002PRCP99
0131470950999992000070621004+38800+127810FM-12+013599999V0200201N004119999999N9999999N1+02311+02001100611ADDAA199000091MA1999999098861MD1210041+9999REMSYN060AAXX  06214 47095 3//// /0208 10231 20200 39886 40061 52004;EQDQ01  00002PRCP99
0203470950999992000070700004+38800+127810FM-12+013599999V0200201N003610075019N0200001N1+02461+02051100611ADDAA112000791GF106991061051008001001001IA1019IA2999+02509KA1120N+02291MA1999999098871MD1310011+9999REMSYN094AAXX  07004 47095 32570 60207 10246 20205 39887 40061 53001 69902 86500 333 20229 30025 70037;
0163470950999992000070703004+38800+127810FM-12+013599999V0200501N004110075019N0220001N1+02771+02081100521ADDAA199000091GF106991061051008001001001MA1999999098801MD1710071+9999REMSYN066AAXX  07034 47095 32572 60508 10277 20208 39880 40052 57007 86500;EQDQ01  00002PRCP99
0163470950999992000070706004+38800+127810FM-12+013599999V0200201N005710360019N0250001N1+02811+02081100351ADDAA199000091GF105991031051008001031001MA1999999098641MD1710161+9999REMSYN066AAXX  07064 47095 32575 50211 10281 20208 39864 40035 57016 83530;EQDQ01  00002PRCP99
0163470950999992000070709004+38800+127810FM-12+013599999V0200901N006212200019N0250001N1+02681+01701100351ADDAA199000091GF102991021011008001001001MA1999999098631MD1010011+9999REMSYN066AAXX  07094 47095 32575 20912 10268 20170 39863 40035 50001 82100;EQDQ01  00002PRCP99
0216470950999992000070712004+38800+127810FM-12+013599999V0200201N004119999999N0250001N1+02371+01791100491ADDAA199000091GF106991061001999999031001IA1019IA2999+02309KA1120M+02921MA1999999098751MD1210121+9999REMSYN088AAXX  07124 47095 32975 60208 10237 20179 39875 40049 52012 86030 333 10292 30023 55054;EQDQ01  00002PRCP99
0173470950999992000070715004+38800+127810FM-12+013599999V0203601N002612200019N0220001N1+02061+01771100561ADDAA199000091GA1001+999999999GF100991001001999999001001MA1999999098791MD1310041+9999REMSYN060AAXX  07154 47095 32972 03605 10206 20177 39879 40056 53004;EQDQ01  00002PRCP99
0163470950999992000070718004+38800+127810FM-12+013599999V0203601N003112200019N0250001N1+02001+01641100551ADDAA199000091GF101991011001999999031001MA1999999098781MD1610011+9999REMSYN066AAXX  07184 47095 32975 13606 10200 20164 39878 40055 56001 81030;EQDQ01  00002PRCP99
0163470950999992000070721004+38800+127810FM-12+013599999V0200501N000512200019N0280001N1+01801+01621100651ADDAA199000091GF102991011051012501031001MA1999999098861MD1210081+9999REMSYN066AAXX  07214 47095 32678 20501 10180 20162 39886 40065 52008 81530;EQDQ01  00002PRCP99
0220470950999992000070800004+38800+127810FM-12+013599999V0202701N000512200019N0280001N1+02401+01581100601ADDAA199000091GA1001+999999999GF100991001001999999001001IA1019IA2999+03009KA1120N+01791MA1999999098861MD1510001+9999REMSYN076AAXX  08004 47095 32978 02701 10240 20158 39886 40060 55000 333 20179 30030;EQDQ01  00002PRCP99
0163470950999992000070803004+38800+127810FM-12+013599999V0200201N004612200019N0280001N1+02821+01671100421ADDAA199000091GF101991011051012501001001MA1999999098701MD1710161+9999REMSYN066AAXX  08034 47095 32678 10209 10282 20167 39870 40042 57016 81500;EQDQ01  00002PRCP99
0163470950999992000070806004+38800+127810FM-12+013599999V0200501N003112200019N0280001N1+02891+01841100341ADDAA199000091GF106991041051012501001011MA1999999098631MD1710071+9999REMSYN066AAXX  08064 47095 32678 60506 10289 20184 39863 40034 57007 84501;EQDQ01  00002PRCP99
0163470950999992000070809004+38800+127810FM-12+013599999V0200501N003619999999N0300001N1+02971+01401100341ADDAA199000091GF106991001001999999001021MA1999999098641MD1310011+9999REMSYN066AAXX  08094 47095 32980 60507 10297 20140 39864 40034 53001 80002;EQDQ01  00002PRCP99
0210470950999992000070812004+38800+127810FM-12+013599999V0200701N001519999999N0280001N1+02281+01801100571ADDAA199000091GF105991001001999999001021IA1019IA2999+02409KA1120M+03091MA1999999098821MD1210181+9999REMSYN082AAXX  08124 47095 32978 50703 10228 20180 39882 40057 52018 80002 333 10309 30024;EQDQ01  00002PRCP99
0163470950999992000070815004+38800+127810FM-12+013599999V0203601N000512200019N0250001N1+01991+01831100741ADDAA199000091GF102991001001999999001011MA1999999098971MD1210151+9999REMSYN066AAXX  08154 47095 32975 23601 10199 20183 39897 40074 52015 80001;EQDQ01  00002PRCP99
0163470950999992000070818004+38800+127810FM-12+013599999V0200201N001012200019N0180001N1+01871+01701100821ADDAA199000091GF102991001001999999001011MA1999999099041MD1210071+9999REMSYN066AAXX  08184 47095 32968 20202 10187 20170 39904 40082 52007 80001;EQDQ01  00002PRCP99
0163470950999992000070821004+38800+127810FM-12+013599999V0203601N001012200019N0250001N1+01771+01711100901ADDAA199000091GF101991001001999999001011MA1999999099121MD1210081+9999REMSYN066AAXX  08214 47095 32975 13602 10177 20171 39912 40090 52008 80001;EQDQ01  00002PRCP99
0210470950999992000070900004+38800+127810FM-12+013599999V0200201N000512200019N0220001N1+02431+01851100931ADDAA199000091GF102991001001999999001011IA1019IA2999+03109KA1120N+01771MA1999999099181MD1810061+9999REMSYN082AAXX  09004 47095 32972 20201 10243 20185 39918 40093 58006 80001 333 20177 30031;EQDQ01  00002PRCP99
0163470950999992000070903004+38800+127810FM-12+013599999V0202301N000512200019N0200001N1+02851+01871100851ADDAA199000091GF104991011011008001001011MA1999999099131MD1610051+9999REMSYN066AAXX  09034 47095 32570 42301 10285 20187 39913 40085 56005 81101;EQDQ01  00002PRCP99
0163470950999992000070906004+38800+127810FM-12+013599999V0203401N001012200019N0200001N1+03161+01781100761ADDAA199000091GF103991011011008001001011MA1999999099061MD1810071+9999REMSYN066AAXX  09064 47095 32570 33402 10316 20178 39906 40076 58007 81101;EQDQ01  00002PRCP99
0163470950999992000070909004+38800+127810FM-12+013599999V0202301N003612200019N0180001N1+02871+02131100851ADDAA199000091GF101991011011008001001001MA1999999099131MD1110071+9999REMSYN066AAXX  09094 47095 32568 12307 10287 20213 39913 40085 51007 81100;EQDQ01  00002PRCP99
0226470950999992000070912004+38800+127810FM-12+013599999V0202001N002112200019N0120001N1+02511+02171101091ADDAA199000091GA1001+999999999GF100991001001999999001001IA1019IA2999+02609KA1120M+03171MA1999999099351MD1210221+9999REMSYN082AAXX  09124 47095 32962 02004 10251 20217 39935 40109 52022 333 10317 30026 55032;EQDQ01  00002PRCP99
0201470950999992000070915004+38800+127810FM-12+013599999V0200701N000512200019N0080001N1+02281+02121101171ADDAA199000091AY101031AY201031GA1001+999999999GF100991001001999999001001MA1999999099411MD1210061+9999MW1101REMSYN066AAXX  09154 47095 31958 00701 10228 20212 39941 40117 52006 71000;EQDQ01  00002PRCP99
0201470950999992000070918004+38800+127810FM-12+013599999V0209999C000012200019N0015001N1+02101+02041101141ADDAA199000091AY101061AY201061GA1001+999999999GF100991001001999999001001MA1999999099371MD1610041+9999MW1101REMSYN066AAXX  09184 47095 31915 00000 10210 20204 39937 40114 56004 71000;EQDQ01  00002PRCP99
0207470950999992000070921004+38800+127810FM-12+013599999V0202901N000519999999N0003001N1+02011+01981101251ADDAA199000091AY141031AY241031GF108991999999999999999999MA1999999099471MD1110101+9999MW1471REMSYN072AAXX  09214 47095 31/03 82901 10201 20198 39947 40125 51010 74744 89///;EQDQ01+000092SCOTLCQ02  00002PRCP99
0238470950999992000071000004+38800+127810FM-12+013599999V0200201N000519999999N0050001N1+02521+02151101211ADDAA199000091AY121061AY221061GF105991001001999999001011IA1019IA2999+03209KA1120N+02001MA1999999099461MD1310011+9999MW1101REMSYN088AAXX  10004 47095 32950 50201 10252 20215 39946 40121 53001 71022 80001 333 20200 30032;EQDQ01  00002PRCP99
0163470950999992000071003004+38800+127810FM-12+013599999V0209999C000010900019N0120001N1+03091+02021101021ADDAA199000091GF105991021051012501001021MA1999999099311MD1710151+9999REMSYN066AAXX  10034 47095 32662 53400 10309 20202 39931 40102 57015 82502;EQDQ01  00002PRCP99
0163470950999992000071006004+38800+127810FM-12+013599999V0202301N002610900019N0200001N1+03141+01531100911ADDAA199000091GF107991021051012501001021MA1999999099201MD1710111+9999REMSYN066AAXX  10064 47095 32670 72305 10314 20153 39920 40091 57011 82502;EQDQ01  00002PRCP99
0163470950999992000071009004+38800+127810FM-12+013599999V0201801N002610900019N0200001N1+03091+01461100851ADDAA199000091GF108991031051012501001071MA1999999099141MD1810061+9999REMSYN066AAXX  10094 47095 32670 81805 10309 20146 39914 40085 58006 83507;EQDQ01  00002PRCP99
0216470950999992000071012004+38800+127810FM-12+013599999V0209999C000010360019N0200001N1+02691+01901100911ADDAA199000091GF107991041051012501021001IA1019IA2999+02709KA1120M+03331MA1999999099171MD1310031+9999REMSYN088AAXX  10124 47095 32670 70000 10269 20190 39917 40091 53003 84520 333 10333 30027 55073;EQDQ01  00002PRCP99
0161470950999992000071015004+38800+127810FM-12+013599999V0203201N001010360019N0110001N1+02451+02141100831ADDAY161031AY221031GF108991041071008001021999MA1999999099091MD1510081+9999MW1601REMSYN072AAXX  10154 47095 41561 83202 10245 20214 39909 40083 55008 76062 8472/;
0161470950999992000071018004+38800+127810FM-12+013599999V0200901N001010075019N0110001N1+02651+02081100561ADDAY161061AY221061GF108991051071008001021999MA1999999098831MD1710261+9999MW1601REMSYN072AAXX  10184 47095 41561 80902 10265 20208 39883 40056 57026 76062 8572/;
0161470950999992000071021004+38800+127810FM-12+013599999V0202901N001010042019N0090001N1+02281+02231100481ADDAY161031AY261031GF108991061071004501021999MA1999999098731MD1510101+9999MW1611REMSYN072AAXX  10214 47095 41459 82902 10228 20223 39873 40048 55010 76166 8672/;
0209470950999992000071100004+38800+127810FM-12+013599999V0209999C000019999999N0200001N1+02521+02311100371ADDAA112008991GF108991061051999999021999IA1019IA2999+02709KA1120N+02261MA1999999098641MD1710091+9999REMSYN100AAXX  11004 47095 1//70 81400 10252 20231 39864 40037 57009 60092 72166 8652/ 333 20226 30027 70093;
0161470950999992000071103004+38800+127810FM-12+013599999V0202001N003610075019N0150001N1+02571+02261100271ADDAY161031AY261031GF108991061051008001021999MA1999999098541MD1710101+9999MW1601REMSYN072AAXX  11034 47095 41565 82007 10257 20226 39854 40027 57010 76066 8652/;
0161470950999992000071106004+38800+127810FM-12+013599999V0202001N006210075019N0120001N1+02371+02091100201ADDAY161061AY261061GF108991061051008001021999MA1999999098461MD1610081+9999MW1601REMSYN072AAXX  11064 47095 41562 82012 10237 20209 39846 40020 56008 76066 8652/;
0161470950999992000071109004+38800+127810FM-12+013599999V0202001N004610075019N0080001N1+02191+02021100111ADDAY161031AY261031GF108991061071008001021999MA1999999098361MD1710101+9999MW1601REMSYN072AAXX  11094 47095 41558 82009 10219 20202 39836 40011 57010 76066 8672/;
0231470950999992000071112004+38800+127810FM-12+013599999V0202001N004110075019N0030001N1+02111+02021100221ADDAA112007191AY161061AY261061GF108991061071008001021999IA1099IA2999+02109KA1120M+02661MA1999999098461MD1210101+9999MW1611REMSYN100AAXX  11124 47095 11530 82008 10211 20202 39846 40022 52010 60072 76166 8672/ 333 10266 31021 70167;
0161470950999992000071115004+38800+127810FM-12+013599999V0202001N004110075019N0060001N1+02091+01891100201ADDAY161031AY261031GF108991051071008001021999MA1999999098451MD1310011+9999MW1601REMSYN072AAXX  11154 47095 41556 82008 10209 20189 39845 40020 53001 76066 8572/;
0161470950999992000071118004+38800+127810FM-12+013599999V0202301N003110075019N0050001N1+02071+01981099891ADDAY161061AY261061GF108991061071008001021999MA1999999098141MD1710311+9999MW1631REMSYN072AAXX  11184 47095 41550 82306 10207 20198 39814 49989 57031 76366 8672/;
0161470950999992000071121004+38800+127810FM-12+013599999V0202301N007710075019N0030001N1+02251+01991099891ADDAY161031AY261031GF108991061071008001021999MA1999999098151MD1010011+9999MW1611REMSYN072AAXX  11214 47095 41530 82315 10225 20199 39815 49989 50001 76166 8672/;
0231470950999992000071200004+38800+127810FM-12+013599999V0201801N001010042019N0070001N1+02261+01961100121ADDAA112016091AY161061AY261061GF108991061071004501021999IA1099IA2999+02209KA1120N+02021MA1999999098381MD1210231+9999MW1601REMSYN100AAXX  12004 47095 11457 81802 10226 20196 39838 40012 52023 60162 76066 8672/ 333 20202 31022 70234;
0144470950999992000071203004+38800+127810FM-12+013599999V0202501N002612200019N0180001N1+02811+01981100101ADDAA199000021GF102991021001999999031011MA1999999098391MD1310011+9999REMSYN066AAXX  12034 47095 32968 22505 10281 20198 39839 40010 53001 82031;
0144470950999992000071206004+38800+127810FM-12+013599999V0202501N004610360019N0200001N1+03011+01901100031ADDAA199000021GF105991041051012501031001MA1999999098331MD1810061+9999REMSYN066AAXX  12064 47095 32670 52509 10301 20190 39833 40003 58006 84530;
0172470950999992000071209004+38800+127810FM-12+013599999V0202001N004110360019N0050001N1+02781+02261100021ADDAA199000021AY121031AY221031GF108991021051012501021999MA1999999098311MD1810021+9999MW1101REMSYN072AAXX  12094 47095 31650 82008 10278 20226 39831 40002 58002 71022 8252/;
0237470950999992000071212004+38800+127810FM-12+013599999V0202001N002119999999N0030001N1+02591+02241100201ADDAA112000791AY121061AY221061GF108991081001999999011999IA1099IA2999+02409KA1120M+03071MA1999999098471MD1210161+9999MW1101REMSYN106AAXX  12124 47095 31930 82004 10259 20224 39847 40020 52016 69902 71022 8801/ 333 10307 31024 55068 70154;
0191470950999992000071215004+38800+127810FM-12+013599999V0202301N003612200019N0015001N1+02431+02171100321ADDAA199000091AY101031AY201031GF102991021051012501001001MA1999999098581MD1210111+9999MW1101REMSYN072AAXX  12154 47095 31615 22307 10243 20217 39858 40032 52011 71000 82500;EQDQ01  00002PRCP99
0207470950999992000071218004+38800+127810FM-12+013599999V0202001N004110006019N0006001N1+02381+02171100291ADDAA199000091AY141061AY241061GA1091+999999999GF109991091999999999999999MA1999999098551MD1810031+9999MW1451REMSYN072AAXX  12184 47095 31506 92008 10238 20217 39855 40029 58003 74544 89///;EQDQ01  00002PRCP99
0207470950999992000071221004+38800+127810FM-12+013599999V0202301N002119999999N0008001N1+02321+02171100361ADDAA199000091AY141031AY241031GF108991999999008001999999MA1999999098621MD1210071+9999MW1431REMSYN072AAXX  12214 47095 31508 82304 10232 20217 39862 40036 52007 74344 89///;EQDQ01+000092SCOTLCQ02  00002PRCP99
0238470950999992000071300004+38800+127810FM-12+013599999V0202301N002112200019N0010001N1+02471+02211100441ADDAA199000091AY141061AY201061GF102991021051012501001001IA1019IA2999+02709KA1120N+02301MA1999999098701MD1210081+9999MW1281REMSYN088AAXX  13004 47095 31610 22304 10247 20221 39870 40044 52008 72840 82500 333 20230 30027;EQDQ01  00002PRCP99
0191470950999992000071303004+38800+127810FM-12+013599999V0202501N004112200019N0015001N1+02731+02201100371ADDAA199000091AY101031AY201031GF102991021051012501001001MA1999999098651MD1810051+9999MW1101REMSYN072AAXX  13034 47095 31615 22508 10273 20220 39865 40037 58005 71000 82500;EQDQ01  00002PRCP99
0191470950999992000071306004+38800+127810FM-12+013599999V0202301N003112200019N0030001N1+02961+02171100321ADDAA199000091AY101061AY201061GF102991021051012501001001MA1999999098611MD1810041+9999MW1101REMSYN072AAXX  13064 47095 31630 22306 10296 20217 39861 40032 58004 71000 82500;EQDQ01  00002PRCP99
0191470950999992000071309004+38800+127810FM-12+013599999V0202301N003112200019N0030001N1+02761+02211100351ADDAA199000091AY121031AY221031GF102991011051012501001021MA1999999098631MD1210021+9999MW1101REMSYN072AAXX  13094 47095 31630 22306 10276 20221 39863 40035 52002 71022 81502;EQDQ01  00002PRCP99
0244470950999992000071312004+38800+127810FM-12+013599999V0202001N003112200019N0015001N1+02481+02191100481ADDAA199000091AY121061AY221061GF102991021051012501001001IA1019IA2999+02409KA1120M+03001MA1999999098741MD1210111+9999MW1101REMSYN094AAXX  13124 47095 31615 22006 10248 20219 39874 40048 52011 71022 82500 333 10300 30024 55063;EQDQ01  00002PRCP99
0191470950999992000071315004+38800+127810FM-12+013599999V0202301N002612200019N0015001N1+02311+02081100611ADDAA199000091AY121031AY221031GF104991041051012501001001MA1999999098861MD1210121+9999MW1101REMSYN072AAXX  13154 47095 31615 42305 10231 20208 39886 40061 52012 71022 84500;EQDQ01  00002PRCP99
0191470950999992000071318004+38800+127810FM-12+013599999V0202301N002112200019N0015001N1+02231+02071100601ADDAA199000091AY121061AY221061GF104991021051012501031001MA1999999098841MD1310021+9999MW1101REMSYN072AAXX  13184 47095 31615 42304 10223 20207 39884 40060 53002 71022 82530;EQDQ01  00002PRCP99
0191470950999992000071321004+38800+127810FM-12+013599999V0209999C000012200019N0015001N1+02261+02061100621ADDAA199000091AY121031AY221031GF103991031051012501001001MA1999999098861MD1210021+9999MW1101REMSYN072AAXX  13214 47095 31615 30000 10226 20206 39886 40062 52002 71022 83500;EQDQ01  00002PRCP99
0238470950999992000071400004+38800+127810FM-12+013599999V0202301N001012200019N0030001N1+02471+02111100631ADDAA199000091AY121061AY221061GF105991011051012501001011IA1019IA2999+02809KA1120N+02211MA1999999098891MD1210031+9999MW1101REMSYN088AAXX  14004 47095 31630 52302 10247 20211 39889 40063 52003 71022 81501 333 20221 30028;EQDQ01  00002PRCP99
0191470950999992000071403004+38800+127810FM-12+013599999V0202301N002612200019N0070001N1+02851+02071100481ADDAA199000091AY121031AY221031GF105991021051012501001011MA1999999098761MD1710131+9999MW1101REMSYN072AAXX  14034 47095 31657 52305 10285 20207 39876 40048 57013 71022 82501;EQDQ01  00002PRCP99
0191470950999992000071406004+38800+127810FM-12+013599999V0202301N003112200019N0080001N1+03031+02221100401ADDAA199000091AY101061AY201061GF103991031011008001001001MA1999999098701MD1710061+9999MW1101REMSYN072AAXX  14064 47095 31558 32306 10303 20222 39870 40040 57006 71000 83100;EQDQ01  00002PRCP99
0163470950999992000071409004+38800+127810FM-12+013599999V0202301N002112200019N0100001N1+02861+02201100351ADDAA199000091GF101991011051012501001001MA1999999098641MD1510061+9999REMSYN066AAXX  14094 47095 32660 12304 10286 20220 39864 40035 55006 81500;EQDQ01  00002PRCP99
0210470950999992000071412004+38800+127810FM-12+013599999V0201801N000512200019N0120001N1+02451+02161100441ADDAA199000091GF101991011051012501001001IA1019IA2999+02509KA1120M+03031MA1999999098701MD1010061+9999REMSYN082AAXX  14124 47095 32662 11801 10245 20216 39870 40044 50006 81500 333 10303 30025;EQDQ01  00002PRCP99
0157470950999992000071415004+38800+127810FM-12+013599999V0203201N000512200019N0100001N1+02161+02101100561ADDAA199000091GF101991999999999999999999MA1999999098801MD1210101+9999REMSYN060AAXX  14154 47095 3//60 13201 10216 20210 39880 40056 52010;EQDQ01  00002PRCP99
0191470950999992000071418004+38800+127810FM-12+013599999V0200201N001012200019N0100001N1+02071+02021100591ADDAA199000091AY121061AY221061GF102991021051012501001001MA1999999098831MD1010031+9999MW1101REMSYN072AAXX  14184 47095 31660 20202 10207 20202 39883 40059 50003 71022 82500;EQDQ01  00002PRCP99
0163470950999992000071421004+38800+127810FM-12+013599999V0209999C000010120019N0150001N1+02121+02071100581ADDAA199000091GF106991061051012501001001MA1999999098821MD1710011+9999REMSYN066AAXX  14214 47095 32665 60000 10212 20207 39882 40058 57001 86500;EQDQ01  00002PRCP99
0210470950999992000071500004+38800+127810FM-12+013599999V0201601N000510120019N0130001N1+02631+02171100601ADDAA199000091GF105991051051012501001001IA1019IA2999+02909KA1120N+02041MA1999999098871MD1010051+9999REMSYN082AAXX  15004 47095 32663 51601 10263 20217 39887 40060 50005 85500 333 20204 30029;EQDQ01  00002PRCP99
0179470950999992000071503004+38800+127810FM-12+013599999V0202501N001019999999N0200001N1+02941+02111100641ADDAA199000091GF106991999011012501001001MA1999999098921MD1810051+9999REMSYN066AAXX  15034 47095 32670 62502 10294 20211 39892 40064 58005 84100;EQDQ01+000042SCOTLCQ02  00002PRCP99
0163470950999992000071506004+38800+127810FM-12+013599999V0202501N003610075019N0200001N1+03031+02191100571ADDAA199000091GF105991051011008001001001MA1999999098871MD1810051+9999REMSYN066AAXX  15064 47095 32570 52507 10303 20219 39887 40057 58005 85100;EQDQ01  00002PRCP99
0163470950999992000071509004+38800+127810FM-12+013599999V0202301N004110120019N0013001N1+02881+02241100611ADDAA199000091GF107991071051012501001001MA1999999098901MD1310031+9999REMSYN066AAXX  15094 47095 32613 72308 10288 20224 39890 40061 53003 87500;EQDQ01  00002PRCP99
0244470950999992000071512004+38800+127810FM-12+013599999V0202001N002110360019N0080001N1+02551+02291100881ADDAA199000091AY121061AY221061GF106991041051012501011001IA1019IA2999+02609KA1120M+03141MA1999999099141MD1210241+9999MW1101REMSYN094AAXX  15124 47095 31658 62004 10255 20229 39914 40088 52024 71022 84510 333 10314 30026 55071;EQDQ01  00002PRCP99
0191470950999992000071518004+38800+127810FM-12+013599999V0202001N001010360019N0080001N1+02391+02211101031ADDAA199000091AY121061AY221061GF107991041051012501011001MA1999999099271MD1310011+9999MW1101REMSYN072AAXX  15184 47095 31658 72002 10239 20221 39927 40103 53001 71022 84510;EQDQ01  00002PRCP99
0238470950999992000071600004+38800+127810FM-12+013599999V0202001N001010120019N0080001N1+02501+02121101121ADDAA199000091AY121061AY221061GF108991061051012501011999IA1019IA2999+02809KA1120N+02341MA1999999099381MD1310081+9999MW1101REMSYN088AAXX  16004 47095 31658 82002 10250 20212 39938 40112 53008 71022 8651/ 333 20234 30028;EQDQ01  00002PRCP99
0191470950999992000071603004+38800+127810FM-12+013599999V0202301N001510360019N0080001N1+02751+02141101171ADDAA199000091AY121031AY221031GF108991041051012501011999MA1999999099431MD1210051+9999MW1101REMSYN072AAXX  16034 47095 31658 82303 10275 20214 39943 40117 52005 71022 8451/;EQDQ01  00002PRCP99
0163470950999992000071606004+38800+127810FM-12+013599999V0202301N003110360019N0120001N1+02681+02231101161ADDAA199000091GF108991041051012501021999MA1999999099421MD1510011+9999REMSYN066AAXX  16064 47095 32662 82306 10268 20223 39942 40116 55001 8452/;EQDQ01  00002PRCP99
0191470950999992000071609004+38800+127810FM-12+013599999V0202301N002110360019N0090001N1+02621+02241101061ADDAA199000091AY121031AY221031GF108991031051012501011999MA1999999099321MD1610101+9999MW1101REMSYN072AAXX  16094 47095 31659 82304 10262 20224 39932 40106 56010 71022 8351/;EQDQ01  00002PRCP99
0231470950999992000071612004+38800+127810FM-12+013599999V0201801N001510075019N0080001N1+02481+02201101051ADDAA112000791AY181061AY221061GF108991051051008001021999IA1019IA2999+02509KA1120M+02821MA1999999099301MD1710021+9999MW1251REMSYN100AAXX  16124 47095 11558 81803 10248 20220 39930 40105 57002 69902 72582 8552/ 333 10282 30025 70000;
0172470950999992000071615004+38800+127810FM-12+013599999V0202001N001010360019N0080001N1+02431+02221101141ADDAA199000021AY121031AY221031GF108991031051012501021999MA1999999099391MD1310091+9999MW1101REMSYN072AAXX  16154 47095 32658 82002 10243 20222 39939 40114 53009 71022 8352/;
0172470950999992000071618004+38800+127810FM-12+013599999V0202301N000510360019N0080001N1+02381+02241101101ADDAA199000021AY121061AY221061GF108991031051012501021999MA1999999099351MD1510041+9999MW1101REMSYN072AAXX  16184 47095 32658 82301 10238 20224 39935 40110 55004 71022 8352/;
0172470950999992000071621004+38800+127810FM-12+013599999V0200201N000510360019N0090001N1+02351+02281101121ADDAA199000021AY121031AY221031GF108991041051008001021999MA1999999099371MD1210021+9999MW1101REMSYN072AAXX  16214 47095 31559 80201 10235 20228 39937 40112 52002 71022 8452/;
0203470950999992000071700004+38800+127810FM-12+013599999V0202301N003610360019N0110001N1+02651+02301101101ADDAA112000791GF107991041051008001031001IA1019IA2999+03109KA1120N+02331MA1999999099361MD1310011+9999REMSYN094AAXX  17004 47095 12561 72307 10265 20230 39936 40110 53001 69902 84530 333 20233 30031 70000;
0163470950999992000071703004+38800+127810FM-12+013599999V0202301N003610075019N0150001N1+02761+02301101041ADDAA199000091GF107991051051008001031001MA1999999099311MD1810051+9999REMSYN066AAXX  17034 47095 32565 72307 10276 20230 39931 40104 58005 85530;EQDQ01  00002PRCP99
0163470950999992000071706004+38800+127810FM-12+013599999V0202301N004110075019N0150001N1+02691+02271100951ADDAA199000091GF108991051051008001021999MA1999999099211MD1710101+9999REMSYN066AAXX  17064 47095 32565 82308 10269 20227 39921 40095 57010 8552/;EQDQ01  00002PRCP99
0163470950999992000071709004+38800+127810FM-12+013599999V0202501N002610075019N0200001N1+02651+02281100801ADDAA199000091GF107991051051008001031001MA1999999099061MD1710151+9999REMSYN066AAXX  17094 47095 32570 72505 10265 20228 39906 40080 57015 85530;EQDQ01  00002PRCP99
0210470950999992000071712004+38800+127810FM-12+013599999V0201801N000510075019N0180001N1+02501+02201100891ADDAA199000091GF107991051051008001031001IA1019IA2999+02509KA1120M+02791MA1999999099141MD1210081+9999REMSYN082AAXX  17124 47095 32568 71801 10250 20220 39914 40089 52008 85530 333 10279 30025;EQDQ01  00002PRCP99
0163470950999992000071715004+38800+127810FM-12+013599999V0202301N000510075019N0180001N1+02401+02201100911ADDAA199000091GF107991051051008001031001MA1999999099171MD1310031+9999REMSYN066AAXX  17154 47095 32568 72301 10240 20220 39917 40091 53003 85530;EQDQ01  00002PRCP99
0161470950999992000071718004+38800+127810FM-12+013599999V0203201N001010075019N0150001N1+02271+02211100881ADDAY121061AY221061GF107991061051008001031001MA1999999099131MD1510041+9999MW1801REMSYN072AAXX  17184 47095 41565 73202 10227 20221 39913 40088 55004 78022 86530;
0180470950999992000071721004+38070+127810FM-12+013599999V0202301N000510075019N0100001N1+02321+02251100891ADDAY121031AY221031GF107991061051008001021001MA1999999099131MD1110011+9999MW1601REMSYN072AAXX  17214 47095 41560 72301 10232 20225 39913 40089 51000 76022 86520;EQDQ01+000002APC3  
0203470950999992000071800004+38070+127810FM-12+013599999V0202001N002610075019N0100001N1+02561+02281100861ADDAA112000591GF108991051051008001021999IA1099IA2999+02709KA1120N+02271MA1999999099121MD1310011+9999REMSYN094AAXX  18004 47095 12560 82005 10256 20228 39912 40086 53001 69952 8552/ 333 20227 31027 70005;
0196470950999992000071803004+38070+127810FM-12+013599999V0202301N002110360019N0100001N1+02561+02371100851ADDAY181031AY221031GF108991041071008001021999MA1999999099121MD1710011+9999MW1801REMSYN072AAXX  18034 47095 41560 82304 10256 20237 39912 40085 52000 78082 8472/;EQDQ01+000022APCTENQ02+000002APC3  
0144470950999992000071806004+38070+127810FM-12+013599999V0202301N003110360019N0140001N1+02911+02251100681ADDAA199000021GF106991041011008001031001MA1999999098971MD1710151+9999REMSYN066AAXX  18064 47095 32564 62306 10291 20225 39897 40068 57015 84130;
0144470950999992000071809004+38070+127810FM-12+013599999V0202501N001510360019N0180001N1+02831+02361100581ADDAA199000021GF106991031021008001031001MA1999999098861MD1710111+9999REMSYN066AAXX  18094 47095 32568 62503 10283 20236 39886 40058 57011 83230;
0209470950999992000071812004+38070+127810FM-12+013599999V0202001N001012200019N0180001N1+02621+02341100711ADDAA112000191GF104991021051012501001011IA1019IA2999+02609KA1120M+03021MA1999999098981MD1210121+9999REMSYN100AAXX  18124 47095 11668 42002 10262 20234 39898 40071 52012 69912 82501 333 10302 30026 55017 70007;
0144470950999992000071815004+38070+127810FM-12+013599999V0209999C000012200019N0180001N1+02341+02241100711ADDAA199000021GF102991021051012501001011MA1999999098961MD1610021+9999REMSYN066AAXX  18154 47095 32668 22700 10234 20224 39896 40071 56002 82501;
0124470950999992000071818004+38070+127810FM-12+013599999V0202301N001019999999N0120001N1+02371+02311100711ADDGF108991999999008001999999MA1999999098971REMSYN071AAXX  18184 47095 41562 82302 10237 20231 39897 40071 5501 79521 8592/;
0133470950999992000071821004+38070+127810FM-12+013599999V0202301N001010075019N0150001N1+02351+02291100741ADDGF108991061051008001021999MA1999999098991MD1810021+9999REMSYN066AAXX  18214 47095 42565 82302 10235 20229 39899 40074 58002 8652/;
0247470950999992000071900004+38070+127810FM-12+013599999V0203201N000510360019N0150001N1+02671+02481100721ADDAA112010991AY121061AY221061GF106991031051008001031001IA1099IA2999+03009MA1999999098991MD1710021+9999MW1211REMSYN094AAXX  19004 47095 11565 63201 10267 20248 39899 40072 58000 60112 72122 83530 333 31030 70111;EQDQ01+000082APCTENQ02+000002APC3  
0144470950999992000071903004+38070+127810FM-12+013599999V0202301N002610360019N0180001N1+02851+02381100741ADDAA199000021GF106991031051008001031001MA1999999099021MD1310031+9999REMSYN066AAXX  19034 47095 32568 62305 10285 20238 39902 40074 53003 83530;
0172470950999992000071906004+38070+127810FM-12+013599999V0202301N001510075019N0150001N1+02761+02431100721ADDAA199000021AY121061AY221061GF108991051051008001021999MA1999999098991MD1710031+9999MW1211REMSYN072AAXX  19064 47095 31565 82303 10276 20243 39899 40072 57003 72122 8552/;
0144470950999992000071909004+38070+127810FM-12+013599999V0202301N002110360019N0150001N1+02651+02341100671ADDAA199000021GF108991041051008001011999MA1999999098941MD1510051+9999REMSYN066AAXX  19094 47095 32565 82304 10265 20234 39894 40067 55005 8451/;
0237470950999992000071912004+38070+127810FM-12+013599999V0202001N001010075019N0120001N1+02501+02391100851ADDAA112000791AY161061AY221061GF108991061071008001021999IA1099IA2999+02509KA1120M+02971MA1999999099111MD1210171+9999MW1601REMSYN106AAXX  19124 47095 11562 82002 10250 20239 39911 40085 52017 69902 76062 8672/ 333 10297 31025 55046 70110;
0161470950999992000071915004+38070+127810FM-12+013599999V0201601N000510075019N0120001N1+02451+02351100911ADDAY191031AY261031GF108991051071008001021999MA1999999099171MD1310061+9999MW1601REMSYN072AAXX  19154 47095 41562 81601 10245 20235 39917 40091 53006 76096 8572/;
0161470950999992000071918004+38070+127810FM-12+013599999V0202001N001510075019N0100001N1+02411+02351100831ADDAY161061AY261061GF108991061071008001021999MA1999999099081MD1610091+9999MW1601REMSYN072AAXX  19184 47095 41560 82003 10241 20235 39908 40083 56009 76066 8672/;
0161470950999992000071921004+38070+127810FM-12+013599999V0202001N001010075019N0030001N1+02421+02361100921ADDAY161031AY261031GF108991061071008001021999MA1999999099171MD1210091+9999MW1611REMSYN072AAXX  19214 47095 41530 82002 10242 20236 39917 40092 52009 76166 8672/;
0231470950999992000072000004+38070+127810FM-12+013599999V0202301N001510075019N0090001N1+02621+02411100911ADDAA112007991AY121061AY221061GF108991051051008001021999IA1099IA2999+02809KA1120N+02391MA1999999099181MD1010011+9999MW1101REMSYN100AAXX  20004 47095 11559 82303 10262 20241 39918 40091 50001 60082 71022 8552/ 333 20239 31028 70077;
0152470950999992000072003004+38070+127810FM-12+013599999V0202001N003110075019N0120001N1+02781+02321100911ADDGF108991051051008001021999MA1999999099181MD1410001+9999REMSYN066AAXX  20034 47095 42562 82006 10278 20232 39918 40091 53000 8552/;EQDQ01+000032APCTEN
0133470950999992000072006004+38070+127810FM-12+013599999V0202301N002610360019N0100001N1+02911+02441100731ADDGF107991041051008001031001MA1999999099021MD1710161+9999REMSYN066AAXX  20064 47095 42560 72305 10291 20244 39902 40073 57016 84530;
0161470950999992000072009004+38070+127810FM-12+013599999V0202001N002610075019N0100001N1+02791+02461100721ADDAY121031AY211031GF106991061051008001001001MA1999999099001MD1810021+9999MW1251REMSYN072AAXX  20094 47095 41560 62005 10279 20246 39900 40072 58002 72521 86500;
0197470950999992000072012004+38070+127810FM-12+013599999V0202301N003110075019N0100001N1+02601+02361100801ADDAA124007691GF107991061051008001021001IA1019IA2999+02509KA1120M+03001MA1999999099061MD1210061+9999REMSYN088AAXX  20124 47095 32560 72306 10260 20236 39906 40080 52006 86520 333 10300 30025 70077;
0172470950999992000072015004+38070+127810FM-12+013599999V0202001N003110075019N0080001N1+02571+02321100771ADDAA199000021AY121031AY221031GF108991051051008001021999MA1999999099041MD1510021+9999MW1101REMSYN072AAXX  20154 47095 31558 82006 10257 20232 39904 40077 55002 71022 8552/;
0172470950999992000072018004+38070+127810FM-12+013599999V0202001N003610075019N0080001N1+02541+02291100721ADDAA199000021AY121061AY221061GF108991051051008001021999MA1999999098981MD1710061+9999MW1101REMSYN072AAXX  20184 47095 31558 82007 10254 20229 39898 40072 57006 71022 8552/;
0172470950999992000072021004+38070+127810FM-12+013599999V0202001N004110075019N0080001N1+02531+02281100691ADDAA199000021AY121031AY221031GF108991051051008001021999MA1999999098951MD1810031+9999MW1101REMSYN072AAXX  20214 47095 31558 82008 10253 20228 39895 40069 58003 71022 8552/;
0225470950999992000072100004+38070+127810FM-12+013599999V0202001N003610075019N0060001N1+02561+02281100571ADDAA124000191AY121061AY221061GF108991061051008001021999IA1099IA2999+02409KA1120N+02511MA1999999098841MD1710111+9999MW1101REMSYN094AAXX  21004 47095 31556 82007 10256 20228 39884 40057 57011 71022 8652/ 333 20251 31024 70001;
0161470950999992000072103004+38070+127810FM-12+013599999V0202001N002610075019N0030001N1+02551+02431100481ADDAY161031AY261031GF108991061071008001021999MA1999999098751MD1710091+9999MW1611REMSYN072AAXX  21034 47095 41530 82005 10255 20243 39875 40048 57009 76166 8672/;
0161470950999992000072106004+38070+127810FM-12+013599999V0202001N003110075019N0050001N1+02671+02451100291ADDAY161061AY261061GF108991051071008001021999MA1999999098571MD1710181+9999MW1601REMSYN072AAXX  21064 47095 41550 82006 10267 20245 39857 40029 57018 76066 8572/;
0172470950999992000072109004+38070+127810FM-12+013599999V0202301N004110360019N0070001N1+02731+02401100141ADDAA199000021AY121031AY221031GF108991041051008001021999MA1999999098431MD1710141+9999MW1101REMSYN072AAXX  21094 47095 31557 82308 10273 20240 39843 40014 57014 71022 8452/;
0237470950999992000072112004+38070+127810FM-12+013599999V0202001N004610360019N0070001N1+02601+02281100141ADDAA112007991AY121061AY221061GF108991031051008001021999IA1099IA2999+02409KA1120M+02731MA1999999098421MD1310011+9999MW1101REMSYN106AAXX  21124 47095 11557 82009 10260 20228 39842 40014 53001 60082 71022 8352/ 333 10273 31024 55001 70077;
0161470950999992000072115004+38070+127810FM-12+013599999V0202301N004110360019N0070001N1+02561+02301100111ADDAY121031AY221031GF108991041051008001021999MA1999999098381MD1510041+9999MW1101REMSYN072AAXX  21154 47095 41557 82308 10256 20230 39838 40011 55004 71022 8452/;
0161470950999992000072118004+38070+127810FM-12+013599999V0202001N004610075019N0070001N1+02571+02321099841ADDAY121061AY211061GF108991051051008001021999MA1999999098121MD1710261+9999MW1601REMSYN072AAXX  21184 47095 41557 82009 10257 20232 39812 49984 57026 76021 8552/;
0161470950999992000072121004+38070+127810FM-12+013599999V0202001N003110075019N0050001N1+02451+02391099831ADDAY161031AY261031GF108991061071008001021999MA1999999098101MD1710021+9999MW1621REMSYN072AAXX  21214 47095 41550 82006 10245 20239 39810 49983 57002 76266 8672/;
0231470950999992000072200004+38070+127810FM-12+013599999V0202901N000510075019N0150001N1+02071+01901099941ADDAA112026991AY161061AY261061GF108991061051008001021999IA1099IA2999+02309KA1120N+02051MA1999999098191MD1310091+9999MW1611REMSYN100AAXX  22004 47095 11565 82901 10207 20190 39819 49994 53009 60272 76166 8652/ 333 20205 31023 70347;
0161470950999992000072203004+38070+127810FM-12+013599999V0203601N000510075019N0100001N1+02131+02041099881ADDAY161031AY261031GF108991061051008001021999MA1999999098131MD1710061+9999MW1601REMSYN072AAXX  22034 47095 41560 83601 10213 20204 39813 49988 57006 76066 8652/;
0161470950999992000072206004+38070+127810FM-12+013599999V0201101N001010075019N0080001N1+02151+02061099721ADDAY161061AY261061GF108991061071008001021999MA1999999097981MD1710151+9999MW1611REMSYN072AAXX  22064 47095 41558 81102 10215 20206 39798 49972 57015 76166 8672/;
0161470950999992000072209004+38070+127810FM-12+013599999V0202301N001010075019N0080001N1+02421+02311099591ADDAY161031AY261031GF108991051051008001021999MA1999999097871MD1710111+9999MW1601REMSYN072AAXX  22094 47095 41558 82302 10242 20231 39787 49959 57011 76066 8552/;
0231470950999992000072212004+38070+127810FM-12+013599999V0209999C000010075019N0050001N1+02291+02201099691ADDAA112007991AY161061AY221061GF108991051051008001021999IA1099IA2999+02309KA1120M+02611MA1999999097961MD1210091+9999MW1101REMSYN100AAXX  22124 47095 11550 82700 10229 20220 39796 49969 52009 60082 71062 8552/ 333 10261 31023 70350;
0172470950999992000072215004+38070+127810FM-12+013599999V0201601N000510075019N0050001N1+02281+02241099751ADDAA199000021AY121031AY221031GF106991061051008001001001MA1999999098011MD1210051+9999MW1101REMSYN072AAXX  22154 47095 31550 61601 10228 20224 39801 49975 52005 71022 86500;
0172470950999992000072218004+38070+127810FM-12+013599999V0209999C000010075019N0020001N1+02131+02111099681ADDAA199000021AY121061AY221061GF106991061051008001001001MA1999999097941MD1810071+9999MW1101REMSYN072AAXX  22184 47095 31520 60000 10213 20211 39794 49968 58007 71022 86500;
0172470950999992000072221004+38070+127810FM-12+013599999V0209999C000010075019N0009001N1+02151+02131099711ADDAA199000021AY141031AY241031GF106991051051008001031001MA1999999097971MD1010031+9999MW1441REMSYN072AAXX  22214 47095 31509 60000 10215 20213 39797 49971 50003 74444 85530;
0225470950999992000072300004+38070+127810FM-12+013599999V0202501N002110360019N0060001N1+02401+02211099731ADDAA124008491AY121061AY221061GF105991021051008001031001IA1099IA2999+02609KA1120N+02061MA1999999098001MD1210031+9999MW1101REMSYN094AAXX  23004 47095 31556 52504 10240 20221 39800 49973 52003 71022 82530 333 20206 31026 70083;
0163470950999992000072303004+38070+127810FM-12+013599999V0202301N003610360019N0100001N1+02621+02031099691ADDAA199000091GF107991021051008001011001MA1999999097971MD1510031+9999REMSYN066AAXX  23034 47095 32560 72307 10262 20203 39797 49969 55003 82510;EQDQ01  00002PRCP99
0163470950999992000072306004+38070+127810FM-12+013599999V0202301N003110360019N0100001N1+02731+02061099581ADDAA199000091GF106991021051008001031001MA1999999097871MD1710101+9999REMSYN066AAXX  23064 47095 32560 62306 10273 20206 39787 49958 57010 82530;EQDQ01  00002PRCP99
0163470950999992000072309004+38070+127810FM-12+013599999V0202001N002610360019N0100001N1+02651+02131099561ADDAA199000091GF107991021051008001031001MA1999999097851MD1810021+9999REMSYN066AAXX  23094 47095 32560 72005 10265 20213 39785 49956 58002 82530;EQDQ01  00002PRCP99
0210470950999992000072312004+38070+127810FM-12+013599999V0201601N001010360019N0100001N1+02371+02141099711ADDAA199000091GF106991021051008001031001IA1019IA2999+02309KA1120M+02831MA1999999097981MD1210131+9999REMSYN082AAXX  23124 47095 32560 61602 10237 20214 39798 49971 52013 82530 333 10283 30023;EQDQ01  00002PRCP99
0191470950999992000072315004+38070+127810FM-12+013599999V0202001N000510360019N0080001N1+02221+02131099781ADDAA199000091AY121031AY221031GF106991021051008001031001MA1999999098041MD1310061+9999MW1101REMSYN072AAXX  23154 47095 31558 62001 10222 20213 39804 49978 53006 71022 82530;EQDQ01  00002PRCP99
0191470950999992000072318004+38070+127810FM-12+013599999V0200201N001010360019N0080001N1+02121+02071099801ADDAA199000091AY121061AY221061GF106991021051008001031001MA1999999098051MD1010011+9999MW1101REMSYN072AAXX  23184 47095 31558 60202 10212 20207 39805 49980 50001 71022 82530;EQDQ01  00002PRCP99
0191470950999992000072321004+38070+127810FM-12+013599999V0203401N000512200019N0080001N1+02001+01951099891ADDAA199000091AY121031AY221031GF104991021051012501031001MA1999999098141MD1110091+9999MW1101REMSYN072AAXX  23214 47095 31658 43401 10200 20195 39814 49989 51009 71022 82530;EQDQ01  00002PRCP99
0238470950999992000072400004+38070+127810FM-12+013599999V0202301N002612200019N0080001N1+02451+02071099971ADDAA199000091AY121061AY221061GF103991021051012501001021IA1099IA2999+02809KA1120N+01991MA1999999098241MD1210101+9999MW1101REMSYN088AAXX  24004 47095 31658 32305 10245 20207 39824 49997 52010 71022 82502 333 20199 31028;EQDQ01  00002PRCP99
0162470950999992000072403004+38070+127810FM-12+013599999V0201801N002112200019N0120001N1+02811+02031099961ADDAA199000091GF102991021011008001001001MA1999999098251MD1310011+9999REMSYN065AAXX  24034 47095 3256221804 10281 20203 39825 49996 53001 82100;EQDQ01  00002PRCP99
0163470950999992000072406004+38070+127810FM-12+013599999V0202301N003112200019N0170001N1+02891+02051099901ADDAA199000091GF102991021011008001001001MA1999999098191MD1710061+9999REMSYN066AAXX  24064 47095 32567 22306 10289 20205 39819 49990 57006 82100;EQDQ01  00002PRCP99
0163470950999992000072409004+38070+127810FM-12+013599999V0202301N002612200019N0180001N1+02741+02001099941ADDAA199000091GF102991021011008001001001MA1999999098231MD1010041+9999REMSYN066AAXX  24094 47095 32568 22305 10274 20200 39823 49994 50004 82100;EQDQ01  00002PRCP99
0226470950999992000072412004+38070+127810FM-12+013599999V0201801N001012200019N0150001N1+02441+02101100121ADDAA199000091GA1001+999999999GF100991001001999999001001IA1019IA2999+02309KA1120M+02941MA1999999098391MD1210161+9999REMSYN082AAXX  24124 47095 32965 01802 10244 20210 39839 40012 52016 333 10294 30023 55073;EQDQ01  00002PRCP99
0173470950999992000072415004+38070+127810FM-12+013599999V0209999C000012200019N0150001N1+02121+02041100191ADDAA199000091GA1001+999999999GF100991001001999999001001MA1999999098441MD1210051+9999REMSYN060AAXX  24154 47095 32965 00000 10212 20204 39844 40019 52005;EQDQ01  00002PRCP99
0217470950999992000072418004+38070+127810FM-12+013599999V0209999C000012200019N0080001N1+01991+01951100201ADDAA199000091AY101061AY201061GA1001+999999999GF100991001001999999001001MA1999999098441MD1810011+9999MW1101REMSYN066AAXX  24184 47095 31958 03200 10199 20195 39844 40020 58000 71000;EQDQ01+000002APC3  Q02  00002PRCP99
0191470950999992000072421004+38070+127810FM-12+013599999V0209999C000012200019N0006001N1+01851+01831100261ADDAA199000091AY111031AY211031GF102991001001999999001011MA1999999098491MD1210051+9999MW1441REMSYN072AAXX  24214 47095 31906 22500 10185 20183 39849 40026 52005 74411 80001;EQDQ01  00002PRCP99
0238470950999992000072500004+38070+127810FM-12+013599999V0203201N000510360019N0050001N1+02281+02071100311ADDAA199000091AY121061AY221061GF106991021051012501021001IA1019IA2999+03309KA1120N+01851MA1999999098571MD1810081+9999MW1101REMSYN088AAXX  25004 47095 31650 63201 10228 20207 39857 40031 58008 71022 82520 333 20185 30033;EQDQ01  00002PRCP99
0163470950999992000072503004+38070+127810FM-12+013599999V0202501N001510360019N0100001N1+02691+01921100261ADDAA199000091GF105991021051012501031001MA1999999098541MD1510031+9999REMSYN066AAXX  25034 47095 32660 52503 10269 20192 39854 40026 55003 82530;EQDQ01  00002PRCP99
0163470950999992000072506004+38070+127810FM-12+013599999V0209999C000010360019N0120001N1+02891+01601100111ADDAA199000091GF106991021011008001031001MA1999999098411MD1710131+9999REMSYN066AAXX  25064 47095 32562 63200 10289 20160 39841 40011 57013 82130;EQDQ01  00002PRCP99
0179470950999992000072509004+38070+127810FM-12+013599999V0202501N001010360019N0150001N1+02701+02071100131ADDAA199000091GF105991021051008001031001MA1999999098411MD1310021+9999REMSYN066AAXX  25094 47095 32565 52502 10270 20207 39841 40013 53000 82530;EQDQ01+000002APC3  Q02  00002PRCP99
0216470950999992000072512004+38070+127810FM-12+013599999V0201601N000512200019N0150001N1+02321+02091100271ADDAA199000091GF102991011051008001001021IA1019IA2999+02209KA1120M+02941MA1999999098521MD1010111+9999REMSYN088AAXX  25124 47095 32565 21601 10232 20209 39852 40027 50011 81502 333 10294 30022 55085;EQDQ01  00002PRCP99
0173470950999992000072515004+38070+127810FM-12+013599999V0200501N000512200019N0150001N1+02021+01921100351ADDAA199000091GA1001+999999999GF100991001001999999001001MA1999999098591MD1310071+9999REMSYN060AAXX  25154 47095 32965 00501 10202 20192 39859 40035 53007;EQDQ01  00002PRCP99
0191470950999992000072518004+38070+127810FM-12+013599999V0209999C000012200019N0050001N1+01891+01851100341ADDAA199000091AY121061AY221061GF102991011051008001001021MA1999999098571MD1810021+9999MW1101REMSYN072AAXX  25184 47095 32550 20000 10189 20185 39857 40034 58002 71022 81502;EQDQ01  00002PRCP99
0163470950999992000072521004+38070+127810FM-12+013599999V0201601N000512200019N0150001N1+01881+01851100421ADDAA199000091GF102991021001999999031001MA1999999098651MD1110081+9999REMSYN066AAXX  25214 47095 32965 21601 10188 20185 39865 40042 51008 82030;EQDQ01  00002PRCP99
0207470950999992000072600004+38070+127810FM-12+013599999V0200201N000512200019N0180001N1+02381+01961100441ADDAA112000191GA1001+999999999GF100991001001999999001001IA1019IA2999+03509KA1120N+01831MA1999999098701MD1210051+9999REMSYN082AAXX  26004 47095 32968 00201 10238 20196 39870 40044 52005 69912 333 20183 30035;
0163470950999992000072603004+38070+127810FM-12+013599999V0202301N001012200019N0200001N1+02831+01961100331ADDAA199000091GF102991021011008001001001MA1999999098621MD1710081+9999REMSYN066AAXX  26034 47095 32570 22302 10283 20196 39862 40033 57008 82100;EQDQ01  00002PRCP99
0163470950999992000072606004+38070+127810FM-12+013599999V0202701N002112200019N0200001N1+03011+01871100211ADDAA199000091GF102991021011008001001001MA1999999098511MD1710111+9999REMSYN066AAXX  26064 47095 32570 22704 10301 20187 39851 40021 57011 82100;EQDQ01  00002PRCP99
0163470950999992000072609004+38070+127810FM-12+013599999V0203601N001010360019N0200001N1+02891+02061100141ADDAA199000091GF105991021011008001031001MA1999999098431MD1710081+9999REMSYN066AAXX  26094 47095 32570 53602 10289 20206 39843 40014 57008 82130;EQDQ01  00002PRCP99
0210470950999992000072612004+38070+127810FM-12+013599999V0200901N001010360019N0150001N1+02501+01971100281ADDAA199000091GF105991021051008001031001IA1019IA2999+02409KA1120M+03071MA1999999098551MD1210121+9999REMSYN082AAXX  26124 47095 32565 50902 10250 20197 39855 40028 52012 82530 333 10307 30024;EQDQ01  00002PRCP99
0163470950999992000072615004+38070+127810FM-12+013599999V0200201N000512200019N0120001N1+02101+02001100381ADDAA199000091GF102991021051008001001001MA1999999098621MD1210071+9999REMSYN066AAXX  26154 47095 32562 20201 10210 20200 39862 40038 52007 82500;EQDQ01  00002PRCP99
0163470950999992000072618004+38070+127810FM-12+013599999V0202901N001012200019N0100001N1+02131+02001100441ADDAA199000091GF104991041051008001001001MA1999999098681MD1110061+9999REMSYN066AAXX  26184 47095 32560 42902 10213 20200 39868 40044 51006 84500;EQDQ01  00002PRCP99
0163470950999992000072621004+38070+127810FM-12+013599999V0201101N001010120019N0150001N1+02151+02041100441ADDAA199000091GF108991061051012501021999MA1999999098691MD1810011+9999REMSYN066AAXX  26214 47095 32665 81102 10215 20204 39869 40044 58001 8652/;EQDQ01  00002PRCP99
0238470950999992000072700004+38070+127810FM-12+013599999V0202701N000510360019N0150001N1+02411+02031100431ADDAA112000191GF108991021051012501021999IA1019IA2999+03009KA1120N+02071MA1999999098691MD1710011+9999REMSYN094AAXX  27004 47095 12665 82701 10241 20203 39869 40043 51000 69912 8252/ 333 20207 30030 70001;EQDQ01+000012APCTENQ02+000002APC3  
0163470950999992000072703004+38070+127810FM-12+013599999V0203401N001510360019N0140001N1+02661+02121100471ADDAA199000091GF108991021051012501011999MA1999999098751MD1210061+9999REMSYN066AAXX  27034 47095 32664 83403 10266 20212 39875 40047 52006 8251/;EQDQ01  00002PRCP99
0163470950999992000072706004+38070+127810FM-12+013599999V0202701N001510900019N0130001N1+02981+02161100301ADDAA199000091GF105991011011008001001021MA1999999098591MD1710161+9999REMSYN066AAXX  27064 47095 32563 52703 10298 20216 39859 40030 57016 81102;EQDQ01  00002PRCP99
0163470950999992000072709004+38070+127810FM-12+013599999V0203401N001019999999N0170001N1+02841+02281100291ADDAA199000091GF107991071001999999031001MA1999999098581MD1810011+9999REMSYN066AAXX  27094 47095 32967 73402 10284 20228 39858 40029 58001 87030;EQDQ01  00002PRCP99
0203470950999992000072712004+38070+127810FM-12+013599999V0202301N000510360019N0120001N1+02511+02311100411ADDAA124000191GF107991011051012501031001IA1019IA2999+02609KA1120M+03071MA1999999098671MD1210091+9999REMSYN094AAXX  27124 47095 12662 72301 10251 20231 39867 40041 52009 81530 333 10307 30026 55051 70001;
0133470950999992000072715004+38070+127810FM-12+013599999V0209999C000010360019N0100001N1+02371+02261100451ADDGF108991021051008001011999MA1999999098711MD1310041+9999REMSYN066AAXX  27154 47095 42560 80700 10237 20226 39871 40045 53004 8251/;
0191470950999992000072718004+38070+127810FM-12+013599999V0200701N000510360019N0060001N1+02321+02241100401ADDAA199000091AY121061AY221061GF108991011051012501011999MA1999999098651MD1810061+9999MW1101REMSYN072AAXX  27184 47095 31656 80701 10232 20224 39865 40040 58006 71022 8151/;EQDQ01  00002PRCP99
0163470950999992000072721004+38070+127810FM-12+013599999V0202301N000510360019N0100001N1+02251+02151100461ADDAA199000091GF108991011051012501011999MA1999999098711MD1210061+9999REMSYN066AAXX  27214 47095 32660 82301 10225 20215 39871 40046 52006 8151/;EQDQ01  00002PRCP99
0197470950999992000072800004+38070+127810FM-12+013599999V0209999C000019999999N0150001N1+02451+02151100561ADDAA112000791GF108991081001999999021999IA1019IA2999+02709KA1120N+02231MA1999999098821MD1210111+9999REMSYN088AAXX  28004 47095 32965 80000 10245 20215 39882 40056 52011 69902 8802/ 333 20223 30027;
0163470950999992000072803004+38070+127810FM-12+013599999V0202001N000510360019N0150001N1+02851+02171100491ADDAA199000091GF106991021051012501031001MA1999999098781MD1310041+9999REMSYN066AAXX  28034 47095 32665 62001 10285 20217 39878 40049 53004 82530;EQDQ01  00002PRCP99
0172470950999992000072806004+38070+127810FM-12+013599999V0202501N001510360019N0160001N1+03021+02081100321ADDAA199000021AY121061AY221061GF107991031051012501031001MA1999999098621MD1710161+9999MW1251REMSYN072AAXX  28064 47095 31666 72503 10302 20208 39862 40032 57016 72522 83530;
0144470950999992000072809004+38070+127810FM-12+013599999V0203201N001010360019N0120001N1+02801+02331100241ADDAA199000021GF107991031051012501031001MA1999999098531MD1710091+9999REMSYN066AAXX  28094 47095 32662 73202 10280 20233 39853 40024 57009 83530;
0231470950999992000072812004+38070+127810FM-12+013599999V0200901N001010360019N0090001N1+02501+02281100341ADDAA112000191AY181061AY221061GF108991031011008001021999IA1099IA2999+02409KA1120M+03021MA1999999098611MD1210081+9999MW1801REMSYN100AAXX  28124 47095 11559 80902 10250 20228 39861 40034 52008 69912 78082 8312/ 333 10302 31024 70001;
0161470950999992000072815004+38070+127810FM-12+013599999V0200901N001010075019N0050001N1+02391+02261100361ADDAY181031AY261031GF108991051071008001021999MA1999999098621MD1310011+9999MW1601REMSYN072AAXX  28154 47095 41550 80902 10239 20226 39862 40036 53001 76086 8572/;
0161470950999992000072818004+38070+127810FM-12+013599999V0200701N000510075019N0050001N1+02321+02261100221ADDAY161061AY261061GF108991051071008001021999MA1999999098481MD1710141+9999MW1601REMSYN072AAXX  28184 47095 41550 80701 10232 20226 39848 40022 57014 76066 8572/;
0161470950999992000072821004+38070+127810FM-12+013599999V0209999C000010075019N0050001N1+02261+02221100141ADDAY161031AY221031GF108991051071008001021999MA1999999098401MD1810081+9999MW1601REMSYN072AAXX  28214 47095 41550 80000 10226 20222 39840 40014 58008 76062 8572/;
0231470950999992000072900004+38070+127810FM-12+013599999V0202301N000510360019N0070001N1+02501+02291100071ADDAA112002091AY161061AY261061GF107991031051008001031001IA1099IA2999+03209KA1120N+02241MA1999999098341MD1710061+9999MW1101REMSYN100AAXX  29004 47095 11557 72301 10250 20229 39834 40007 57006 60022 71066 83530 333 20224 31032 70016;
0172470950999992000072903004+38070+127810FM-12+013599999V0209999C000010360019N0080001N1+02781+02401099981ADDAA199000021AY121031AY221031GF108991041051008001011999MA1999999098271MD1710071+9999MW1101REMSYN072AAXX  29034 47095 31558 82900 10278 20240 39827 49998 57007 71022 8451/;
0161470950999992000072906004+38070+127810FM-12+013599999V0202501N001010360019N0060001N1+02471+02371099891ADDAY161061AY261061GF108991031091008001021999MA1999999098161MD1810111+9999MW1951REMSYN072AAXX  29064 47095 41556 82502 10247 20237 39816 49989 58011 79566 8392/;
0133470950999992000072909004+38070+127810FM-12+013599999V0202001N000510360019N0120001N1+02591+02361099801ADDGF107991031051008001031001MA1999999098081MD1710081+9999REMSYN066AAXX  29094 47095 42562 72001 10259 20236 39808 49980 57008 83530;
0209470950999992000072912004+38070+127810FM-12+013599999V0209999C000010075019N0100001N1+02421+02341099871ADDAA112008991GF108991061051008001011999IA1099IA2999+02509KA1120M+02821MA1999999098141MD1210061+9999REMSYN100AAXX  29124 47095 12560 80000 10242 20234 39814 49987 52006 60092 8651/ 333 10282 31025 55000 70104;
0161470950999992000072915004+38070+127810FM-12+013599999V0209999C000010075019N0060001N1+02391+02311099791ADDAY121031AY221031GF108991061071008001021999MA1999999098061MD1710081+9999MW1601REMSYN072AAXX  29154 47095 41556 80000 10239 20231 39806 49979 57008 76022 8672/;
0161470950999992000072918004+38070+127810FM-12+013599999V0209999C000010075019N0050001N1+02331+02281099671ADDAY121061AY221061GF108991051051008001021999MA1999999097931MD1710131+9999MW1601REMSYN072AAXX  29184 47095 41550 80000 10233 20228 39793 49967 57013 76022 8552/;
0172470950999992000072921004+38070+127810FM-12+013599999V0203601N001010075019N0080001N1+02301+02261099631ADDAA199000021AY121031AY221031GF108991051051008001021999MA1999999097891MD1710041+9999MW1101REMSYN072AAXX  29214 47095 31558 83602 10230 20226 39789 49963 57004 71022 8552/;
0225470950999992000073000004+38070+127810FM-12+013599999V0203601N002610075019N0070001N1+01921+01871099981ADDAA112004191AY161061AY261061GF108991061071008001021999IA2999+02109KA1120N+01911MA1999999098221MD1210331+9999MW1611REMSYN100AAXX  30004 47095 11557 83605 10192 20187 39822 49998 52033 60042 76166 8672/ 333 20191 3/021 70128;
0144470950999992000073003004+38070+127810FM-12+013599999V0203601N002610075019N0150001N1+02041+01841100001ADDAA199000021GF108991051051008001021999MA1999999098251MD1210031+9999REMSYN066AAXX  30034 47095 32565 83605 10204 20184 39825 40000 52003 8552/;
0161470950999992000073006004+38070+127810FM-12+013599999V0202501N001510360019N0200001N1+02251+01931099731ADDAY161061AY221061GF107991041051008001021001MA1999999097991MD1710261+9999MW1211REMSYN072AAXX  30064 47095 41570 72503 10225 20193 39799 49973 57026 72162 84520;
0144470950999992000073009004+38070+127810FM-12+013599999V0200201N003110360019N0220001N1+02251+01911099791ADDAA199000021GF108991031051012501021999MA1999999098051MD1210061+9999REMSYN066AAXX  30094 47095 32672 80206 10225 20191 39805 49979 52006 8352/;
0209470950999992000073012004+38070+127810FM-12+013599999V0203401N003110120019N0200001N1+02121+01841099881ADDAA112001091GF107991071051012501001001IA1099IA2999+02109KA1120M+02511MA1999999098131MD1210081+9999REMSYN100AAXX  30124 47095 12670 73406 10212 20184 39813 49988 52008 60012 87500 333 10251 31021 55002 70050;
0133470950999992000073015004+38070+127810FM-12+013599999V0203601N004610120019N0180001N1+02101+01731099841ADDGF107991071051012501001001MA1999999098091MD1510041+9999REMSYN066AAXX  30154 47095 42668 73609 10210 20173 39809 49984 55004 87500;
0161470950999992000073018004+38070+127810FM-12+013599999V0200201N003110075019N0180001N1+01991+01791099821ADDAY161061AY261061GF108991061051008001021999MA1999999098071MD1810021+9999MW1601REMSYN072AAXX  30184 47095 41568 80206 10199 20179 39807 49982 58002 76066 8652/;
0161470950999992000073021004+38070+127810FM-12+013599999V0203601N002110075019N0180001N1+01911+01791099861ADDAY161031AY261031GF108991051051008001021999MA1999999098101MD1010031+9999MW1211REMSYN072AAXX  30214 47095 41568 83604 10191 20179 39810 49986 50003 72166 8552/;
0231470950999992000073100004+38070+127810FM-12+013599999V0203401N003110360019N0150001N1+02001+01831099901ADDAA112002091AY121061AY221061GF107991041051008001021001IA1099IA2999+02209KA1120N+01891MA1999999098141MD1010041+9999MW1601REMSYN100AAXX  31004 47095 11565 73406 10200 20183 39814 49990 50004 60022 76022 84520 333 20189 31022 70026;
0144470950999992000073103004+38070+127810FM-12+013599999V0200201N003112200019N0250001N1+02461+01881099951ADDAA199000021GF104991021051012501001011MA1999999098221MD1310081+9999REMSYN066AAXX  31034 47095 32675 40206 10246 20188 39822 49995 53008 82501;
0144470950999992000073106004+38070+127810FM-12+013599999V0202901N001010075019N0280001N1+02601+01581099961ADDAA199000021GF105991051011008001001001MA1999999098241MD1110021+9999REMSYN066AAXX  31064 47095 32578 52902 10260 20158 39824 49996 51002 85100;
0154470950999992000073109004+38070+127810FM-12+013599999V0203601N001012200019N0280001N1+02651+01751100021ADDAA199000021GA1001+999999999GF100991001001999999001001MA1999999098301MD1210061+9999REMSYN060AAXX  31094 47095 32978 03602 10265 20175 39830 40002 52006;
0203470950999992000073112004+38070+127810FM-12+013599999V0201401N001012200019N0280001N1+02151+01961100261ADDAA112000791GF101991011051012501001001IA1019IA2999+02109KA1120M+02771MA1999999098511MD1210211+9999REMSYN094AAXX  31124 47095 12678 11402 10215 20196 39851 40026 52021 69902 81500 333 10277 30021 70015;
0143470950999992000073115004+38070+127810FM-12+013599999V0203601N000519999999N0160001N1+02041+01941100471ADDAA199000091GF107991071001999999031001MA1999999098711REMSYN060AAXX  31154 47095 32966 73601 10204 20194 39871 40047 87030;EQDQ01  00002PRCP99
0153470950999992000073118004+38070+127810FM-12+013599999V0200201N000512200019N0200001N1+01911+01861100521ADDAA199000091GA1001+999999999GF100991001001999999001001MA1999999098751REMSYN054AAXX  31184 47095 32970 00201 10191 20186 39875 40052;EQDQ01  00002PRCP99
0163470950999992000073121004+38070+127810FM-12+013599999V0200201N001012200019N0110001N1+01831+01801100671ADDAA199000091GF104991041001999999031001MA1999999098891MD1210141+9999REMSYN066AAXX  31214 47095 32961 40202 10183 20180 39889 40067 52014 84030;EQDQ01  00002PRCP99
0225470950999992000080100004+38070+127810FM-12+013599999V0200201N000512200019N0080001N1+02291+02021100811ADDAA124000791AY121061AY221061GF104991041051012501001001IA1019IA2999+02809KA1120N+01811MA1999999099061MD1210171+9999MW1101REMSYN094AAXX  01004 47095 31658 40201 10229 20202 39906 40081 52017 71022 84500 333 20181 30028 79999;
0207470950999992000080103004+38070+127810FM-12+013599999V0202701N001012200019N0080001N1+02731+02041100761ADDAA199000091AY101031AY201031GF103991999051012501001001MA1999999099031MD1510031+9999MW1101REMSYN072AAXX  01034 47095 31658 32702 10273 20204 39903 40076 55003 71000 82500;EQDQ01+000022SCOTLCQ02  00002PRCP99
0157470950999992000080106004+38070+127810FM-12+013599999V0203201N002112200019N0150001N1+02911+01951100651ADDAA199000091GF102991999999999999999999MA1999999098941MD1710091+9999REMSYN060AAXX  01064 47095 3//65 23204 10291 20195 39894 40065 57009;EQDQ01  00002PRCP99
0163470950999992000080109004+38070+127810FM-12+013599999V0202501N001512200019N0150001N1+02871+02041100641ADDAA199000091GF101991011051012501001001MA1999999098931MD1810011+9999REMSYN066AAXX  01094 47095 32665 12503 10287 20204 39893 40064 58001 81500;EQDQ01  00002PRCP99
0220470950999992000080112004+38070+127810FM-12+013599999V0200701N001012200019N0120001N1+02301+02091100881ADDAA199000091GA1001+999999999GF100991001001999999001001IA1019IA2999+02309KA1120M+03011MA1999999099121MD1210191+9999REMSYN076AAXX  01124 47095 32962 00702 10230 20209 39912 40088 52019 333 10301 30023;EQDQ01  00002PRCP99
0191470950999992000080115004+38070+127810FM-12+013599999V0203401N000512200019N0080001N1+02071+02001100991ADDAA199000091AY101031AY201031GF101991011051012501001001MA1999999099221MD1210101+9999MW1101REMSYN072AAXX  01154 47095 31658 13401 10207 20200 39922 40099 52010 71000 81500;EQDQ01  00002PRCP99
0201470950999992000080118004+38070+127810FM-12+013599999V0200201N001012200019N0080001N1+02001+01961101031ADDAA199000091AY101061AY201061GA1001+999999999GF100991001001999999001001MA1999999099251MD1210031+9999MW1101REMSYN066AAXX  01184 47095 31958 00202 10200 20196 39925 40103 52003 71000;EQDQ01  00002PRCP99
0201470950999992000080121004+38070+127810FM-12+013599999V0209999C000012200019N0090001N1+01941+01901101091ADDAA199000091AY101031AY201031GA1001+999999999GF100991001001999999001001MA1999999099311MD1210061+9999MW1101REMSYN066AAXX  01214 47095 31959 00000 10194 20190 39931 40109 52006 71000;EQDQ01  00002PRCP99
0220470950999992000080200004+38070+127810FM-12+013599999V0200501N001012200019N0200001N1+02551+02111101081ADDAA199000091GA1001+999999999GF100991001001999999001001IA1019IA2999+03209KA1120N+01911MA1999999099341MD1310031+9999REMSYN076AAXX  02004 47095 32970 00502 10255 20211 39934 40108 53003 333 20191 30032;EQDQ01  00002PRCP99
0163470950999992000080203004+38070+127810FM-12+013599999V0202901N002112200019N0200001N1+02991+02111100951ADDAA199000091GF102991021011008001001001MA1999999099231MD1710111+9999REMSYN066AAXX  02034 47095 32570 22904 10299 20211 39923 40095 57011 82100;EQDQ01  00002PRCP99
0163470950999992000080206004+38070+127810FM-12+013599999V0200501N001512200019N0200001N1+03141+01851100771ADDAA199000091GF103991031011008001001001MA1999999099061MD1710171+9999REMSYN066AAXX  02064 47095 32570 30503 10314 20185 39906 40077 57017 83100;EQDQ01  00002PRCP99
0163470950999992000080209004+38070+127810FM-12+013599999V0200701N002612200019N0220001N1+02901+01811100731ADDAA199000091GF102991011011008001001011MA1999999099021MD1710041+9999REMSYN066AAXX  02094 47095 32572 20705 10290 20181 39902 40073 57004 81101;EQDQ01  00002PRCP99
0216470950999992000080212004+38070+127810FM-12+013599999V0200201N002612200019N0200001N1+02391+01881100991ADDAA199000091GF101991011011008001001001IA1019IA2999+02309KA1120M+03261MA1999999099241MD1210221+9999REMSYN088AAXX  02124 47095 32570 10205 10239 20188 39924 40099 52022 81100 333 10326 30023 55061;EQDQ01  00002PRCP99
0173470950999992000080215004+38070+127810FM-12+013599999V0200201N002612200019N0200001N1+02201+01721101101ADDAA199000091GA1001+999999999GF100991001001999999001001MA1999999099331MD1210091+9999REMSYN060AAXX  02154 47095 32970 00205 10220 20172 39933 40110 52009;EQDQ01  00002PRCP99
0173470950999992000080218004+38070+127810FM-12+013599999V0203601N005112200019N0200001N1+02061+01801101131ADDAA199000091GA1001+999999999GF100991001001999999001001MA1999999099361MD1010031+9999REMSYN060AAXX  02184 47095 32970 03610 10206 20180 39936 40113 50003;EQDQ01  00002PRCP99
0173470950999992000080221004+38070+127810FM-12+013599999V0200201N003112200019N0180001N1+02021+01791101201ADDAA199000091GA1001+999999999GF100991001001999999001001MA1999999099421MD1010061+9999REMSYN060AAXX  02214 47095 32968 00206 10202 20179 39942 40120 50006;EQDQ01  00002PRCP99
0220470950999992000080300004+38070+127810FM-12+013599999V0200201N005112200019N0200001N1+02511+01941101171ADDAA199000091GA1001+999999999GF100991001001999999001001IA1019IA2999+03209KA1120N+01971MA1999999099431MD1010011+9999REMSYN076AAXX  03004 47095 32970 00210 10251 20194 39943 40117 50001 333 20197 30032;EQDQ01  00002PRCP99
0163470950999992000080303004+38070+127810FM-12+013599999V0200201N004119999999N0250001N1+02881+01981101081ADDAA199000091GF105991001001999999001011MA1999999099361MD1510071+9999REMSYN066AAXX  03034 47095 32975 50208 10288 20198 39936 40108 55007 80001;EQDQ01  00002PRCP99
0163470950999992000080306004+38070+127810FM-12+013599999V0201401N002112200019N0280001N1+03181+01771101011ADDAA199000091GF105991031011008001001011MA1999999099301MD1710061+9999REMSYN066AAXX  03064 47095 32578 51404 10318 20177 39930 40101 57006 83101;EQDQ01  00002PRCP99
0163470950999992000080309004+38070+127810FM-12+013599999V0200201N004112200019N0250001N1+02851+01911101001ADDAA199000091GF105991021051008001001011MA1999999099271MD1610031+9999REMSYN066AAXX  03094 47095 32575 50208 10285 20191 39927 40100 56003 82501;EQDQ01  00002PRCP99
0210470950999992000080312004+38070+127810FM-12+013599999V0200201N003110360019N0150001N1+02501+01921101181ADDAA199000091GF108991021051012501021999IA1019IA2999+02609KA1120M+03221MA1999999099431MD1210161+9999REMSYN082AAXX  03124 47095 32665 80206 10250 20192 39943 40118 52016 8252/ 333 10322 30026;EQDQ01  00002PRCP99
0163470950999992000080315004+38070+127810FM-12+013599999V0200201N004610360019N0090001N1+02311+01831101261ADDAA199000091GF108991021051012501021999MA1999999099501MD1210071+9999REMSYN066AAXX  03154 47095 31659 80209 10231 20183 39950 40126 52007 8252/;EQDQ01  00002PRCP99
0161470950999992000080318004+38070+127810FM-12+013599999V0200501N001510360019N0080001N1+02171+01911101281ADDAY161061AY221061GF108991041051008001021999MA1999999099511MD1110011+9999MW1211REMSYN072AAXX  03184 47095 41558 80503 10217 20191 39951 40128 51001 72162 8452/;
0161470950999992000080321004+38070+127810FM-12+013599999V0203601N002110075019N0200001N1+02011+01841101371ADDAY161031AY261031GF108991051071008001021999MA1999999099591MD1010081+9999MW1601REMSYN072AAXX  03214 47095 41570 83604 10201 20184 39959 40137 50008 76066 8572/;
0231470950999992000080400004+38070+127810FM-12+013599999V0200501N001010075019N0220001N1+02211+01971101401ADDAA112003091AY161061AY261061GF108991051051008001021999IA1099IA2999+02409KA1120N+02001MA1999999099631MD1810041+9999MW1601REMSYN100AAXX  04004 47095 11572 80502 10221 20197 39963 40140 58004 60032 76066 8552/ 333 20200 31024 70030;
0161470950999992000080403004+38070+127810FM-12+013599999V0203601N002610075019N0150001N1+02211+02071101351ADDAY161031AY261031GF108991051051008001021999MA1999999099581MD1510051+9999MW1611REMSYN072AAXX  04034 47095 41565 83605 10221 20207 39958 40135 55005 76166 8552/;
0161470950999992000080406004+38070+127810FM-12+013599999V0200201N002610075019N0200001N1+02451+02131101231ADDAY161061AY261061GF107991061051008001021999MA1999999099481MD1710101+9999MW1211REMSYN072AAXX  04064 47095 41570 70205 10245 20213 39948 40123 57010 72166 8652/;
0144470950999992000080409004+38070+127810FM-12+013599999V0200901N003110075019N0250001N1+02511+02051101221ADDAA199000021GF107991071051008001001001MA1999999099471MD1010011+9999REMSYN066AAXX  04094 47095 32575 70906 10251 20205 39947 40122 50001 87500;
0231470950999992000080412004+38070+127810FM-12+013599999V0203601N003610075019N0150001N1+02261+02031101351ADDAA112003091AY121061AY221061GF108991061071008001021999IA1099IA2999+02209KA1120M+02671MA1999999099591MD1210121+9999MW1601REMSYN100AAXX  04124 47095 11565 83607 10226 20203 39959 40135 52012 60032 76022 8672/ 333 10267 31022 70057;
0161470950999992000080415004+38070+127810FM-12+013599999V0200201N001010075019N0150001N1+02141+02061101401ADDAY121031AY221031GF108991061071008001021999MA1999999099631MD1210041+9999MW1611REMSYN072AAXX  04154 47095 41565 80202 10214 20206 39963 40140 52004 76122 8672/;
0161470950999992000080418004+38070+127810FM-12+013599999V0203601N001010075019N0120001N1+02091+02061101391ADDAY121061AY221061GF108991061071008001021999MA1999999099611MD1810021+9999MW1611REMSYN072AAXX  04184 47095 41562 83602 10209 20206 39961 40139 58002 76122 8672/;
0161470950999992000080421004+38070+127810FM-12+013599999V0209999C000010075019N0100001N1+02101+02071101451ADDAY161031AY261031GF108991061071008001021999MA1999999099681MD1210071+9999MW1611REMSYN072AAXX  04214 47095 41560 80000 10210 20207 39968 40145 52007 76166 8672/;
0231470950999992000080500004+38070+127810FM-12+013599999V0209999C000010075019N0060001N1+02201+02151101541ADDAA112007991AY161061AY261061GF108991061071008001021999IA1099IA2999+02409KA1120N+02091MA1999999099761MD1210081+9999MW1611REMSYN100AAXX  05004 47095 11556 80000 10220 20215 39976 40154 52008 60082 76166 8672/ 333 20209 31024 70106;
0161470950999992000080503004+38070+127810FM-12+013599999V0202301N001010075019N0080001N1+02401+02271101491ADDAY161031AY261031GF108991061071008001021999MA1999999099731MD1810031+9999MW1611REMSYN072AAXX  05034 47095 41558 82302 10240 20227 39973 40149 58003 76166 8672/;
0161470950999992000080506004+38070+127810FM-12+013599999V0202501N000510075019N0090001N1+02461+02341101421ADDAY161061AY261061GF108991051071008001021999MA1999999099661MD1710071+9999MW1601REMSYN072AAXX  05064 47095 41559 82501 10246 20234 39966 40142 57007 76066 8572/;
0161470950999992000080509004+38070+127810FM-12+013599999V0202001N000510075019N0090001N1+02471+02351101431ADDAY191031AY261031GF108991051071008001021999MA1999999099681MD1310021+9999MW1911REMSYN072AAXX  05094 47095 41559 82001 10247 20235 39968 40143 53002 79196 8572/;
0209470950999992000080512004+38070+127810FM-12+013599999V0209999C000010075019N0120001N1+02411+02271101431ADDAA112009991GF108991051051008001021999IA1099IA2999+02309KA1120M+02541MA1999999099671MD1010011+9999REMSYN100AAXX  05124 47095 12562 80000 10241 20227 39967 40143 50001 60102 8552/ 333 10254 31023 55000 70182;
0180470950999992000080515004+38070+127810FM-12+013599999V0209999C000019999999N0006001N1+02331+02241101481ADDAY121031AY211031GF108991999999999999999999MA1999999099721MD1210051+9999MW1451REMSYN072AAXX  05154 47095 41/06 80000 10233 20224 39972 40148 52005 74521 89///;EQDQ01+000092SCOTLC
0161470950999992000080518004+38070+127810FM-12+013599999V0200901N000510075019N0015001N1+02331+02251101461ADDAY161061AY261061GF108991061071008001021999MA1999999099701MD1510021+9999MW1611REMSYN072AAXX  05184 47095 41515 80901 10233 20225 39970 40146 55002 76166 8672/;
0161470950999992000080521004+38070+127810FM-12+013599999V0209999C000010075019N0150001N1+02201+02051101461ADDAY161031AY261031GF108991051071008001021999MA1999999099691MD1010011+9999MW1611REMSYN072AAXX  05214 47095 41565 80000 10220 20205 39969 40146 50001 76166 8572/;
0231470950999992000080600004+38070+127810FM-12+013599999V0200201N000510075019N0150001N1+02341+02131101481ADDAA112004191AY161061AY261061GF108991061071008001021999IA1099IA2999+02409KA1120N+02151MA1999999099721MD1310031+9999MW1601REMSYN100AAXX  06004 47095 11565 80201 10234 20213 39972 40148 53003 60042 76066 8672/ 333 20215 31024 70144;
0161470950999992000080603004+38070+127810FM-12+013599999V0203401N001010075019N0120001N1+02301+02161101461ADDAY161031AY261031GF108991051071008001021999MA1999999099701MD1310021+9999MW1631REMSYN072AAXX  06034 47095 41562 83402 10230 20216 39970 40146 53002 76366 8572/;
0161470950999992000080606004+38070+127810FM-12+013599999V0203401N000510360019N0120001N1+02481+02231101371ADDAY161061AY261061GF108991031071008001021999MA1999999099621MD1710081+9999MW1601REMSYN072AAXX  06064 47095 41562 83401 10248 20223 39962 40137 57008 76066 8372/;
0144470950999992000080609004+38070+127810FM-12+013599999V0209999C000010360019N0150001N1+02561+02301101261ADDAA199000021GF108991031051012501011999MA1999999099511MD1710111+9999REMSYN066AAXX  06094 47095 32665 80000 10256 20230 39951 40126 57011 8351/;
0237470950999992000080612004+38070+127810FM-12+013599999V0209999C000010075019N0080001N1+02391+02261101331ADDAA112017091AY101061AY201061GF108991061051008001021999IA1099IA2999+02209KA1120M+02571MA1999999099571MD1110061+9999MW1101REMSYN106AAXX  06124 47095 12558 80000 10239 20226 39957 40133 51006 60172 71000 8652/ 333 10257 31022 55000 70207;
0161470950999992000080615004+38070+127810FM-12+013599999V0200701N001010075019N0070001N1+02281+02171101351ADDAY161031AY261031GF108991061071008001021999MA1999999099591MD1310021+9999MW1601REMSYN072AAXX  06154 47095 41557 80702 10228 20217 39959 40135 53002 76066 8672/;
0161470950999992000080618004+38070+127810FM-12+013599999V0209999C000012200019N0090001N1+02261+02131101271ADDAY161061AY221061GF103991031051012501001001MA1999999099501MD1710091+9999MW1211REMSYN072AAXX  06184 47095 41659 30000 10226 20213 39950 40127 57009 72162 83500;
0161470950999992000080621004+38070+127810FM-12+013599999V0209999C000010075019N0110001N1+02241+02141101281ADDAY161031AY221031GF108991061071008001021999MA1999999099521MD1110021+9999MW1611REMSYN072AAXX  06214 47095 41561 80000 10224 20214 39952 40128 51002 76162 8672/;
0203470950999992000080700004+38070+127810FM-12+013599999V0209999C000010360019N0120001N1+02421+02191101311ADDAA112000591GF107991041051012501021001IA1099IA2999+02609KA1120N+02141MA1999999099561MD1210041+9999REMSYN094AAXX  07004 47095 11662 70000 10242 20219 39956 40131 52004 69962 84520 333 20214 31026 70173;
0133470950999992000080703004+38070+127810FM-12+013599999V0202501N001510075019N0180001N1+02761+02151101241ADDGF106991051051008001031001MA1999999099511MD1510051+9999REMSYN066AAXX  07034 47095 42568 62503 10276 20215 39951 40124 55005 85530;
0144470950999992000080706004+38070+127810FM-12+013599999V0202001N003610360019N0180001N1+02721+02271101151ADDAA199000021GF107991031051008001031001MA1999999099411MD1810101+9999REMSYN066AAXX  07064 47095 32568 72007 10272 20227 39941 40115 58010 83530;
0133470950999992000080709004+38070+127810FM-12+013599999V0202501N001010360019N0120001N1+02431+02291101161ADDGF106991031051008001031001MA1999999099411MD1510001+9999REMSYN066AAXX  07094 47095 42562 62502 10243 20229 39941 40116 55000 83530;
0203470950999992000080712004+38070+127810FM-12+013599999V0209999C000010360019N0100001N1+02261+02171101291ADDAA112000891GF106991031051008001031001IA1099IA2999+02309KA1120M+02941MA1999999099531MD1210121+9999REMSYN094AAXX  07124 47095 32560 60500 10226 20217 39953 40129 52012 69972 83530 333 10294 31023 70018;
0191470950999992000080715004+38070+127810FM-12+013599999V0209999C000010075019N0060001N1+02181+02131101361ADDAA199000091AY121031AY221031GF106991061051008001001001MA1999999099591MD1210061+9999MW1101REMSYN072AAXX  07154 47095 31556 60000 10218 20213 39959 40136 52006 71022 86500;EQDQ01  00002PRCP99
0191470950999992000080718004+38070+127810FM-12+013599999V0203601N000510075019N0050001N1+02161+02121101351ADDAA199000091AY121061AY221061GF106991061051008001001001MA1999999099581MD1810011+9999MW1101REMSYN072AAXX  07184 47095 31550 63601 10216 20212 39958 40135 58001 71022 86500;EQDQ01  00002PRCP99
0163470950999992000080721004+38070+127810FM-12+013599999V0203601N000512200019N0100001N1+02151+02121101321ADDAA199000091GF104991041051008001001001MA1999999099551MD1710031+9999REMSYN066AAXX  07214 47095 32560 43601 10215 20212 39955 40132 57003 84500;EQDQ01  00002PRCP99
0197470950999992000080800004+38070+127810FM-12+013599999V0202301N000512200019N0150001N1+02671+02261101351ADDAA124000891GF103991031051008001001001IA1099IA2999+03109KA1120N+02131MA1999999099611MD1810061+9999REMSYN088AAXX  08004 47095 32565 32301 10267 20226 39961 40135 58006 83500 333 20213 31031 70008;
0163470950999992000080803004+38070+127810FM-12+013599999V0202701N001510360019N0200001N1+02971+02211101221ADDAA199000091GF105991031011008001031001MA1999999099501MD1610111+9999REMSYN066AAXX  08034 47095 32570 52703 10297 20221 39950 40122 56011 83130;EQDQ01  00002PRCP99
0161470950999992000080806004+38070+127810FM-12+013599999V0201101N003110360019N0200001N1+02881+02331101131ADDAY181061AY221061GF106991041011008001031001MA1999999099401MD1710101+9999MW1251REMSYN072AAXX  08064 47095 41570 61106 10288 20233 39940 40113 57010 72582 84130;
0161470950999992000080809004+38070+127810FM-12+013599999V0200201N000510360019N0170001N1+02461+02251101201ADDAY191031AY281031GF107991041011008001021001MA1999999099451MD1310051+9999MW1291REMSYN072AAXX  08094 47095 41567 70201 10246 20225 39945 40120 53005 72998 84120;
0209470950999992000080812004+38070+127810FM-12+013599999V0200901N000512200019N0120001N1+02301+02221101331ADDAA112000591GF101991011051008001001001IA1099IA2999+02309KA1120M+03061MA1999999099571MD1010121+9999REMSYN100AAXX  08124 47095 12562 10901 10230 20222 39957 40133 50012 69962 81500 333 10306 31023 55081 70006;
0133470950999992000080815004+38070+127810FM-12+013599999V0201601N001012200019N0100001N1+02181+02111101321ADDGF102991011051008001031001MA1999999099551MD1210021+9999REMSYN066AAXX  08154 47095 42560 21602 10218 20211 39955 40132 52002 81530;
0144470950999992000080818004+38070+127810FM-12+013599999V0203201N001012200019N0150001N1+02041+02001101311ADDAA199000021GF101991011051012501001001MA1999999099541MD1510011+9999REMSYN066AAXX  08184 47095 32665 13202 10204 20200 39954 40131 55001 81500;
0163470950999992000080821004+38070+127810FM-12+013599999V0203201N000512200019N0120001N1+01971+01931101371ADDAA199000091GF102991011051012501001011MA1999999099591MD1010051+9999REMSYN066AAXX  08214 47095 32662 23201 10197 20193 39959 40137 50005 81501;EQDQ01  00002PRCP99
0203470950999992000080900004+38070+127810FM-12+013599999V0209999C000010900019N0150001N1+02641+02171101391ADDAA112000191GF106991021051012501001021IA1019IA2999+03009KA1120N+01971MA1999999099651MD1210061+9999REMSYN094AAXX  09004 47095 32665 60000 10264 20217 39965 40139 52006 69912 82502 333 20197 30030 70007;
0163470950999992000080903004+38070+127810FM-12+013599999V0200701N001012200019N0250001N1+03011+02211101181ADDAA199000091GF105991021011008001001011MA1999999099461MD1510191+9999REMSYN066AAXX  09034 47095 32575 50702 10301 20221 39946 40118 55019 82101;EQDQ01  00002PRCP99
0163470950999992000080906004+38070+127810FM-12+013599999V0202901N001510075019N0250001N1+03071+02041101021ADDAA199000091GF106991061021008001001001MA1999999099311MD1710151+9999REMSYN066AAXX  09064 47095 32575 62903 10307 20204 39931 40102 57015 86200;EQDQ01  00002PRCP99
0163470950999992000080909004+38070+127810FM-12+013599999V0203601N001512200019N0220001N1+02691+02301100971ADDAA199000091GF105991021051008001001011MA1999999099231MD1710081+9999REMSYN066AAXX  09094 47095 32572 53603 10269 20230 39923 40097 57008 82501;EQDQ01  00002PRCP99
0216470950999992000080912004+38070+127810FM-12+013599999V0200201N001010900019N0120001N1+02331+02211101111ADDAA199000091GF106991031051012501001021IA1019IA2999+02409KA1120M+03161MA1999999099361MD1210131+9999REMSYN088AAXX  09124 47095 32662 60202 10233 20221 39936 40111 52013 83502 333 10316 30024 55070;EQDQ01  00002PRCP99
0163470950999992000080915004+38070+127810FM-12+013599999V0200201N000512200019N0150001N1+02241+02171101141ADDAA199000091GF103991021051012501001021MA1999999099381MD1310021+9999REMSYN066AAXX  09154 47095 32665 30201 10224 20217 39938 40114 53002 82502;EQDQ01  00002PRCP99
0163470950999992000080918004+38070+127810FM-12+013599999V0209999C000012200019N0100001N1+02171+02121101131ADDAA199000091GF102991011051012501001021MA1999999099361MD1810021+9999REMSYN066AAXX  09184 47095 32660 20000 10217 20212 39936 40113 58002 81502;EQDQ01  00002PRCP99
0238470950999992000081000004+38070+127810FM-12+013599999V0202901N000510120019N0080001N1+02641+02281101071ADDAA199000091AY121061AY221061GF106991061051012501001001IA1019IA2999+03109KA1120N+02121MA1999999099331MD1710021+9999MW1101REMSYN088AAXX  10004 47095 31658 62901 10264 20228 39933 40107 57002 71022 86500 333 20212 30031;EQDQ01  00002PRCP99
0163470950999992000081003004+38070+127810FM-12+013599999V0202001N002110075019N0100001N1+02901+02171100981ADDAA199000091GF106991061011008001001001MA1999999099261MD1710071+9999REMSYN066AAXX  10034 47095 32560 62004 10290 20217 39926 40098 57007 86100;EQDQ01  00002PRCP99
0163470950999992000081006004+38070+127810FM-12+013599999V0201801N004610075019N0100001N1+02831+02201100881ADDAA199000091GF105991051011008001001001MA1999999099151MD1710111+9999REMSYN066AAXX  10064 47095 32560 51809 10283 20220 39915 40088 57011 85100;EQDQ01  00002PRCP99
0163470950999992000081009004+38070+127810FM-12+013599999V0202301N003610900019N0180001N1+02881+02211100831ADDAA199000091GF105991011011008001031011MA1999999099111MD1710041+9999REMSYN066AAXX  10094 47095 32568 52307 10288 20221 39911 40083 57004 81131;EQDQ01  00002PRCP99
0210470950999992000081012004+38070+127810FM-12+013599999V0202001N001012200019N0180001N1+02521+02161100931ADDAA199000091GF103991021051012501001011IA1019IA2999+02409KA1120M+03071MA1999999099181MD1210071+9999REMSYN082AAXX  10124 47095 32668 32002 10252 20216 39918 40093 52007 82501 333 10307 30024;EQDQ01  00002PRCP99
0163470950999992000081015004+38070+127810FM-12+013599999V0209999C000012200019N0150001N1+02201+02101100961ADDAA199000091GF103991021051012501001011MA1999999099201MD1210021+9999REMSYN066AAXX  10154 47095 32665 33600 10220 20210 39920 40096 52002 82501;EQDQ01  00002PRCP99
0163470950999992000081018004+38070+127810FM-12+013599999V0203601N001012200019N0120001N1+02091+02031100941ADDAA199000091GF103991021051012501001011MA1999999099171MD1710031+9999REMSYN066AAXX  10184 47095 32662 33602 10209 20203 39917 40094 57003 82501;EQDQ01  00002PRCP99
0195470950999992000081021004+38070+127810FM-12+013599999V0209999C000010075019N0150001N1+02131+02081100931ADDAA199000091GF106991061051008001001001MA1999999099171MD1710011+9999REMSYN066AAXX  10214 47095 32565 60000 10213 20208 39917 40093 58000 86500;EQDQ01+000082APCTENQ02+000002APC3  Q03  00002PRCP99
0210470950999992000081100004+38070+127810FM-12+013599999V0209999C000010075019N0100001N1+02521+02291100971ADDAA199000091GF108991071051008001021999IA1019IA2999+02709KA1120N+02091MA1999999099231MD1210061+9999REMSYN082AAXX  11004 47095 32560 80000 10252 20229 39923 40097 52006 8752/ 333 20209 30027;EQDQ01  00002PRCP99
0163470950999992000081103004+38070+127810FM-12+013599999V0202301N003110075019N0180001N1+02901+02211100901ADDAA199000091GF106991051051008001031001MA1999999099181MD1610051+9999REMSYN066AAXX  11034 47095 32568 62306 10290 20221 39918 40090 56005 85530;EQDQ01  00002PRCP99
0161470950999992000081106004+38070+127810FM-12+013599999V0201101N001510075019N0170001N1+02451+02211100851ADDAY181061AY221061GF106991061071008001001001MA1999999099111MD1810071+9999MW1811REMSYN072AAXX  11064 47095 41567 61103 10245 20221 39911 40085 58007 78182 86700;
0144470950999992000081109004+38070+127810FM-12+013599999V0202301N002610360019N0200001N1+02881+02311100721ADDAA199000021GF105991011011008001031001MA1999999099001MD1710111+9999REMSYN066AAXX  11094 47095 32570 52305 10288 20231 39900 40072 57011 81130;
0209470950999992000081112004+38070+127810FM-12+013599999V0201601N000512200019N0180001N1+02551+02331100891ADDAA112005191GF104991041051012501001001IA1099IA2999+02509KA1120M+03121MA1999999099151MD1210151+9999REMSYN100AAXX  11124 47095 12668 41601 10255 20233 39915 40089 52015 60052 84500 333 10312 31025 55033 70049;
0144470950999992000081115004+38070+127810FM-12+013599999V0200701N002112200019N0180001N1+02291+02191100931ADDAA199000021GF101991011051012501001001MA1999999099171MD1310021+9999REMSYN066AAXX  11154 47095 32668 10704 10229 20219 39917 40093 53002 81500;
0173470950999992000081118004+38070+127810FM-12+013599999V0200901N000512200019N0150001N1+02171+02101100931ADDAA199000021GA1001+999999999GF100991001001999999001001MA1999999099171MD1410001+9999REMSYN060AAXX  11184 47095 32965 00901 10217 20210 39917 40093 53000;EQDQ01+000032APCTEN
0191470950999992000081121004+38070+127810FM-12+013599999V0209999C000012200019N0090001N1+02201+02131100921ADDAA199000091AY101031AY201031GF103991021051012501031001MA1999999099161MD1810011+9999MW1101REMSYN072AAXX  11214 47095 31659 30000 10220 20213 39916 40092 58001 71000 82530;EQDQ01  00002PRCP99
0163470950999992000081206004+38070+127810FM-12+013599999V0203201N002612200019N0280001N1+03151+02321100571ADDAA199000091GF103991031011008001001011MA1999999098871MD1710181+9999REMSYN066AAXX  12064 47095 32578 33205 10315 20232 39887 40057 57018 83101;EQDQ01  00002PRCP99
0163470950999992000081209004+38070+127810FM-12+013599999V0200201N003612200019N0250001N1+02961+02291100541ADDAA199000091GF103991021011008001001011MA1999999098831MD1810041+9999REMSYN066AAXX  12094 47095 32575 30207 10296 20229 39883 40054 58004 82101;EQDQ01  00002PRCP99
0163470950999992000081215004+38070+127810FM-12+013599999V0200201N004112200019N0250001N1+02331+02071100821ADDAA199000091GF101991011051012501001001MA1999999099071MD1210071+9999REMSYN066AAXX  12154 47095 32675 10208 10233 20207 39907 40082 52007 81500;EQDQ01  00002PRCP99
0163470950999992000081218004+38070+127810FM-12+013599999V0200201N002612200019N0250001N1+02221+01971100781ADDAA199000091GF101991011051012501001001MA1999999099021MD1810051+9999REMSYN066AAXX  12184 47095 32675 10205 10222 20197 39902 40078 58005 81500;EQDQ01  00002PRCP99
0163470950999992000081221004+38070+127810FM-12+013599999V0201601N000512200019N0280001N1+02071+01951100851ADDAA199000091GF102991001001999999001021MA1999999099081MD1210061+9999REMSYN066AAXX  12214 47095 32978 21601 10207 20195 39908 40085 52006 80002;EQDQ01  00002PRCP99
0220470950999992000081300004+38070+127810FM-12+013599999V0209999C000012200019N0280001N1+02711+01931100871ADDAA199000091GA1001+999999999GF100991001001999999001001IA1019IA2999+03109KA1120N+02051MA1999999099141MD1810061+9999REMSYN076AAXX  13004 47095 32978 03400 10271 20193 39914 40087 58006 333 20205 30031;EQDQ01  00002PRCP99
0163470950999992000081303004+38070+127810FM-12+013599999V0202501N001012200019N0250001N1+03001+01831100721ADDAA199000091GF102991021011008001001001MA1999999099011MD1710131+9999REMSYN066AAXX  13034 47095 32575 22502 10300 20183 39901 40072 57013 82100;EQDQ01  00002PRCP99
0163470950999992000081306004+38070+127810FM-12+013599999V0202701N001512200019N0250001N1+03181+01861100571ADDAA199000091GF102991021011008001001001MA1999999098871MD1710141+9999REMSYN066AAXX  13064 47095 32575 22703 10318 20186 39887 40057 57014 82100;EQDQ01  00002PRCP99
0163470950999992000081309004+38070+127810FM-12+013599999V0203201N002112200019N0250001N1+03051+02101100501ADDAA199000091GF102991021011008001001001MA1999999098791MD1710081+9999REMSYN066AAXX  13094 47095 32575 23204 10305 20210 39879 40050 57008 82100;EQDQ01  00002PRCP99
0210470950999992000081312004+38070+127810FM-12+013599999V0209999C000012200019N0180001N1+02571+02301100641ADDAA199000091GF104991011051012501001011IA1019IA2999+02609KA1120M+03231MA1999999098911MD1210121+9999REMSYN082AAXX  13124 47095 32668 40000 10257 20230 39891 40064 52012 81501 333 10323 30026;EQDQ01  00002PRCP99
0163470950999992000081315004+38070+127810FM-12+013599999V0209999C000010900019N0150001N1+02341+02171100721ADDAA199000091GF105991021051012501001021MA1999999098971MD1210061+9999REMSYN066AAXX  13154 47095 32665 50000 10234 20217 39897 40072 52006 82502;EQDQ01  00002PRCP99
0163470950999992000081318004+38070+127810FM-12+013599999V0203201N001510075019N0120001N1+02241+02171100691ADDAA199000091GF106991061051008001001001MA1999999098941MD1710031+9999REMSYN066AAXX  13184 47095 32562 63203 10224 20217 39894 40069 57003 86500;EQDQ01  00002PRCP99
0163470950999992000081321004+38070+127810FM-12+013599999V0209999C000010075019N0120001N1+02211+02151100681ADDAA199000091GF106991061051008001001001MA1999999098931MD1810011+9999REMSYN066AAXX  13214 47095 32562 60000 10221 20215 39893 40068 58001 86500;EQDQ01  00002PRCP99
0238470950999992000081400004+38070+127810FM-12+013599999V0202301N001010075019N0060001N1+02581+02341100661ADDAA199000091AY121061AY221061GF108991051051008001021999IA1019IA2999+02909KA1120N+02211MA1999999098931MD1510001+9999MW1101REMSYN088AAXX  14004 47095 32556 82302 10258 20234 39893 40066 55000 71022 8552/ 333 20221 30029;EQDQ01  00002PRCP99
0191470950999992000081403004+38070+127810FM-12+013599999V0202301N003612200019N0090001N1+02931+02151100581ADDAA199000091AY121031AY221031GF104991041011008001001001MA1999999098861MD1710071+9999MW1101REMSYN072AAXX  14034 47095 31559 42307 10293 20215 39886 40058 57007 71022 84100;EQDQ01  00002PRCP99
0163470950999992000081406004+38070+127810FM-12+013599999V0202301N003612200019N0160001N1+03011+02181100461ADDAA199000091GF102991021011008001001001MA1999999098761MD1710101+9999REMSYN066AAXX  14064 47095 32566 22307 10301 20218 39876 40046 57010 82100;EQDQ01  00002PRCP99
0163470950999992000081409004+38070+127810FM-12+013599999V0202501N003112200019N0200001N1+02921+02101100411ADDAA199000091GF102991021011008001001011MA1999999098701MD1710061+9999REMSYN066AAXX  14094 47095 32570 22506 10292 20210 39870 40041 57006 82101;EQDQ01  00002PRCP99
0216470950999992000081412004+38070+127810FM-12+013599999V0202301N003112200019N0200001N1+02521+02221100621ADDAA199000091GF101991011051012501001001IA1019IA2999+02509KA1120M+03081MA1999999098881MD1210181+9999REMSYN088AAXX  14124 47095 32670 12306 10252 20222 39888 40062 52018 81500 333 10308 30025 55067;EQDQ01  00002PRCP99
0173470950999992000081415004+38070+127810FM-12+013599999V0209999C000012200019N0200001N1+02361+02211100731ADDAA199000091GA1001+999999999GF100991001001999999001001MA1999999098981MD1210101+9999REMSYN060AAXX  14154 47095 32970 00000 10236 20221 39898 40073 52010;EQDQ01  00002PRCP99
0163470950999992000081418004+38070+127810FM-12+013599999V0209999C000012200019N0150001N1+02181+02121100671ADDAA199000091GF102991021051012501001001MA1999999098911MD1710071+9999REMSYN066AAXX  14184 47095 32665 20000 10218 20212 39891 40067 57007 82500;EQDQ01  00002PRCP99
0163470950999992000081421004+38070+127810FM-12+013599999V0200201N000512200019N0120001N1+02101+02041100611ADDAA199000091GF102991021051012501001001MA1999999098851MD1810061+9999REMSYN066AAXX  14214 47095 32662 20201 10210 20204 39885 40061 58006 82500;EQDQ01  00002PRCP99
0208470950999992000081500004+38070+127810FM-12+013599999V0200201N000510075019N0100001N1+02511+02281100641ADDAY121061AY221061GF107991071051008001001001IA1019IA2999+02909KA1120N+02091MA1999999098911MD1210061+9999MW1201REMSYN088AAXX  15004 47095 41560 70201 10251 20228 39891 40064 52006 72022 87500 333 20209 30029;
0161470950999992000081503004+38070+127810FM-12+013599999V0200201N002110075019N0100001N1+02661+02371100571ADDAY121031AY221031GF107991071051008001001001MA1999999098841MD1710071+9999MW1251REMSYN072AAXX  15034 47095 41560 70204 10266 20237 39884 40057 57007 72522 87500;
0161470950999992000081506004+38070+127810FM-12+013599999V0203401N002110075019N0100001N1+02621+02401100471ADDAY121061AY221061GF107991071091008001001001MA1999999098741MD1710101+9999MW1811REMSYN072AAXX  15064 47095 41560 73404 10262 20240 39874 40047 57010 78122 87900;
0144470950999992000081509004+38070+127810FM-12+013599999V0203601N002110360019N0120001N1+02621+02351100401ADDAA199000021GF105991021051008001031001MA1999999098671MD1710071+9999REMSYN066AAXX  15094 47095 32562 53604 10262 20235 39867 40040 57007 82530;
0237470950999992000081512004+38070+127810FM-12+013599999V0209999C000012200019N0080001N1+02391+02301100511ADDAA112010991AY101061AY201061GF103991021051008001001021IA1099IA2999+02409KA1120M+02911MA1999999098771MD1210101+9999MW1101REMSYN106AAXX  15124 47095 11558 30000 10239 20230 39877 40051 52010 60112 71000 82502 333 10291 31024 55017 70110;
0144470950999992000081515004+38070+127810FM-12+013599999V0200201N001012200019N0070001N1+02231+02181100561ADDAA199000021GF102991001001999999001021MA1999999098811MD1210041+9999REMSYN066AAXX  15154 47095 31957 20202 10223 20218 39881 40056 52004 80002;
0203470950999992000081521004+38070+127810FM-12+013599999V0209999C000019999999N0009001N1+02151+02121100521ADDAA199000091AY141031AY221031GF108991999999999999999999MA1999999098771MW1471REMSYN066AAXX  15214 47095 31/09 80500 10215 20212 39877 40052 58000 74742;EQDQ01+000082APCTENQ02+000002APC3  Q03  00002PRCP99
0225470950999992000081600004+38070+127810FM-12+013599999V0203601N003110360019N0080001N1+02471+02251100561ADDAA124010991AY121061AY221061GF107991031051008001031001IA1099IA2999+02809KA1120N+02111MA1999999098821MD1810051+9999MW1101REMSYN094AAXX  16004 47095 31558 73606 10247 20225 39882 40056 58005 71022 83530 333 20211 31028 70110;
0163470950999992000081603004+38070+127810FM-12+013599999V0203601N002610360019N0150001N1+02901+02411100471ADDAA199000091GF106991011011008001031001MA1999999098751MD1710071+9999REMSYN066AAXX  16034 47095 32565 63605 10290 20241 39875 40047 57007 81130;EQDQ01  00002PRCP99
0163470950999992000081606004+38070+127810FM-12+013599999V0203401N002610360019N0150001N1+03011+02321100311ADDAA199000091GF107991021051008001031001MA1999999098611MD1710141+9999REMSYN066AAXX  16064 47095 32565 73405 10301 20232 39861 40031 57014 82530;EQDQ01  00002PRCP99
0163470950999992000081609004+38070+127810FM-12+013599999V0200201N000510360019N0150001N1+02941+02441100301ADDAA199000091GF106991021051008001031001MA1999999098591MD1810021+9999REMSYN066AAXX  16094 47095 32565 60201 10294 20244 39859 40030 58002 82530;EQDQ01  00002PRCP99
0225470950999992000081612004+38070+127810FM-12+013599999V0200701N001510360019N0120001N1+02571+02301100421ADDAA124000191AY121061AY221061GF105991021051008001031001IA1019IA2999+02509KA1120M+03241MA1999999098691MD1010101+9999MW1131REMSYN094AAXX  16124 47095 31562 50703 10257 20230 39869 40042 50010 71322 82530 333 10324 30025 70001;
0163470950999992000081615004+38070+127810FM-12+013599999V0200201N001010360019N0120001N1+02441+02321100551ADDAA199000091GF106991031051008001031001MA1999999098811MD1810121+9999REMSYN066AAXX  16154 47095 32562 60202 10244 20232 39881 40055 58012 83530;EQDQ01  00002PRCP99
0163470950999992000081618004+38070+127810FM-12+013599999V0209999C000010360019N0120001N1+02271+02171100551ADDAA199000091GF105991021051012501031001MA1999999098801MD1210011+9999REMSYN066AAXX  16184 47095 32662 50000 10227 20217 39880 40055 52001 82530;EQDQ01  00002PRCP99
0163470950999992000081621004+38070+127810FM-12+013599999V0203601N001012200019N0150001N1+02261+02161100621ADDAA199000091GF103991021051012501001011MA1999999098871MD1210071+9999REMSYN066AAXX  16214 47095 32665 33602 10226 20216 39887 40062 52007 82501;EQDQ01  00002PRCP99
0210470950999992000081700004+38070+127810FM-12+013599999V0200201N002612200019N0150001N1+02871+02221100621ADDAA199000091GF102991021001999999031001IA1019IA2999+03009KA1120N+02231MA1999999098901MD1310031+9999REMSYN082AAXX  17004 47095 32965 20205 10287 20222 39890 40062 53003 82030 333 20223 30030;EQDQ01  00002PRCP99
0163470950999992000081703004+38070+127810FM-12+013599999V0200201N004610075019N0200001N1+03121+02301100581ADDAA199000091GF106991061011008001001001MA1999999098881MD1710021+9999REMSYN066AAXX  17034 47095 32570 60209 10312 20230 39888 40058 57002 86100;EQDQ01  00002PRCP99
0179470950999992000081706004+38070+127810FM-12+013599999V0200501N002619999999N0200001N1+03011+02281100571ADDAA199000091GF107991999011008001001001MA1999999098861MD1310021+9999REMSYN066AAXX  17064 47095 32570 70505 10301 20228 39886 40057 53002 83100;EQDQ01+000032SCOTLCQ02  00002PRCP99
0209470950999992000081712004+38070+127810FM-12+013599999V0200201N003110075019N0200001N1+02541+02121100751ADDAA112000791GF105991051051008001001001IA1019IA2999+02509KA1120M+03161MA1999999099021MD1210121+9999REMSYN100AAXX  17124 47095 12570 50206 10254 20212 39902 40075 52012 69902 85500 333 10316 30025 55011 79999;
0163470950999992000081715004+38070+127810FM-12+013599999V0200201N004112200019N0200001N1+02361+02051100831ADDAA199000091GF102991021051012501001001MA1999999099081MD1210061+9999REMSYN066AAXX  17154 47095 32670 20208 10236 20205 39908 40083 52006 82500;EQDQ01  00002PRCP99
0163470950999992000081718004+38070+127810FM-12+013599999V0200201N001512200019N0200001N1+02301+02081100831ADDAA199000091GF103991031051012501001001MA1999999099071MD1510011+9999REMSYN066AAXX  17184 47095 32670 30203 10230 20208 39907 40083 55001 83500;EQDQ01  00002PRCP99
0163470950999992000081721004+38070+127810FM-12+013599999V0203601N003610120019N0200001N1+02291+02101100891ADDAA199000091GF106991061051012501031001MA1999999099141MD1210071+9999REMSYN066AAXX  17214 47095 32670 63607 10229 20210 39914 40089 52007 86530;EQDQ01  00002PRCP99
0210470950999992000081800004+38070+127810FM-12+013599999V0200201N004112200019N0250001N1+02711+02151100881ADDAA199000091GF105991021051012501001011IA1019IA2999+03009KA1120N+02251MA1999999099151MD1110011+9999REMSYN082AAXX  18004 47095 32675 50208 10271 20215 39915 40088 51001 82501 333 20225 30030;EQDQ01  00002PRCP99
0163470950999992000081803004+38070+127810FM-12+013599999V0200501N003110900019N0280001N1+03041+02081100771ADDAA199000091GF105991021011008001031011MA1999999099061MD1610091+9999REMSYN066AAXX  18034 47095 32578 50506 10304 20208 39906 40077 56009 82131;EQDQ01  00002PRCP99
0163470950999992000081809004+38070+127810FM-12+013599999V0200501N003112200019N0250001N1+02891+02101100641ADDAA199000091GF105991021051012501001011MA1999999098921MD1710061+9999REMSYN066AAXX  18094 47095 32675 50506 10289 20210 39892 40064 57006 82501;EQDQ01  00002PRCP99
0210470950999992000081812004+38070+127810FM-12+013599999V0200201N001010360019N0200001N1+02411+02071100791ADDAA199000091GF106991021051012501031001IA1019IA2999+02409KA1120M+03121MA1999999099041MD1210121+9999REMSYN082AAXX  18124 47095 32670 60202 10241 20207 39904 40079 52012 82530 333 10312 30024;EQDQ01  00002PRCP99
0163470950999992000081815004+38070+127810FM-12+013599999V0203601N001510360019N0180001N1+02381+02021100741ADDAA199000091GF108991031051012501011999MA1999999098991MD1610051+9999REMSYN066AAXX  18154 47095 32668 83603 10238 20202 39899 40074 56005 8351/;EQDQ01  00002PRCP99
0161470950999992000081818004+38070+127810FM-12+013599999V0203401N000510075019N0140001N1+02221+02101100631ADDAY161061AY221061GF108991051051008001021999MA1999999098871MD1710121+9999MW1211REMSYN072AAXX  18184 47095 41564 83401 10222 20210 39887 40063 57012 72162 8552/;
0207470950999992000081821004+38070+127810FM-12+013599999V0202901N000510075019N0080001N1+02211+02121100621ADDAA199000021AY101031AY201031GF108991051051008001021999MA1999999098871MD1710011+9999MW1101REMSYN072AAXX  18214 47095 31558 82901 10221 20212 39887 40062 58000 71000 8552/;EQDQ01+000082APCTENQ02+000002APC3  
0203470950999992000081900004+38070+127810FM-12+013599999V0200201N001010075019N0120001N1+02211+02131100631ADDAA112005191GF108991051071008001021999IA1099IA2999+02309KA1120N+02181MA1999999098871MD1410001+9999REMSYN094AAXX  19004 47095 11562 80202 10221 20213 39887 40063 54000 60052 8572/ 333 20218 31023 70052;
0161470950999992000081903004+38070+127810FM-12+013599999V0200201N002610075019N0100001N1+02291+02171100611ADDAY161031AY261031GF108991061071008001021999MA1999999098861MD1310011+9999MW1611REMSYN072AAXX  19034 47095 41560 80205 10229 20217 39886 40061 53001 76166 8672/;
0161470950999992000081906004+38070+127810FM-12+013599999V0203601N001510075019N0150001N1+02391+02201100501ADDAY161061AY261061GF108991061051008001011999MA1999999098751MD1710111+9999MW1211REMSYN072AAXX  19064 47095 41565 83603 10239 20220 39875 40050 57011 72166 8651/;
0144470950999992000081909004+38070+127810FM-12+013599999V0200201N003610075019N0180001N1+02411+02121100481ADDAA199000021GF108991061051008001011999MA1999999098741MD1810011+9999REMSYN066AAXX  19094 47095 32568 80207 10241 20212 39874 40048 58001 8651/;
0203470950999992000081912004+38070+127810FM-12+013599999V0203601N003110075019N0180001N1+02251+02061100551ADDAA112004191GF106991061051008001001001IA1099IA2999+02209KA1120M+02531MA1999999098791MD1010051+9999REMSYN094AAXX  19124 47095 32568 63606 10225 20206 39879 40055 50005 60042 86500 333 10253 31022 70090;
0144470950999992000081915004+38070+127810FM-12+013599999V0203601N003610075019N0160001N1+02211+02011100491ADDAA199000021GF107991061051008001011001MA1999999098741MD1510051+9999REMSYN066AAXX  19154 47095 32566 73607 10221 20201 39874 40049 55005 86510;
0161470950999992000081918004+38070+127810FM-12+013599999V0200501N001010075019N0120001N1+02091+02011100421ADDAY161061AY261061GF108991061071008001021999MA1999999098661MD1710081+9999MW1631REMSYN072AAXX  19184 47095 41562 80502 10209 20201 39866 40042 57008 76366 8672/;
0161470950999992000081921004+38070+127810FM-12+013599999V0200201N003110075019N0100001N1+01981+01901100391ADDAY161031AY261031GF108991061071008001021999MA1999999098631MD1810031+9999MW1631REMSYN072AAXX  19214 47095 41560 80206 10198 20190 39863 40039 58003 76366 8672/;
0231470950999992000082000004+38070+127810FM-12+013599999V0203401N002110075019N0080001N1+02031+01981100301ADDAA112033091AY161061AY261061GF108991061071008001021999IA1099IA2999+02109KA1120N+01951MA1999999098531MD1710101+9999MW1631REMSYN100AAXX  20004 47095 11558 83404 10203 20198 39853 40030 57010 60332 76366 8672/ 333 20195 31021 70372;
0161470950999992000082003004+38070+127810FM-12+013599999V0203601N002110075019N0060001N1+02051+01981100141ADDAY161031AY261031GF108991061071008001021999MA1999999098381MD1610151+9999MW1631REMSYN072AAXX  20034 47095 41556 83604 10205 20198 39838 40014 56015 76366 8672/;
0161470950999992000082006004+38070+127810FM-12+013599999V0203601N002610075019N0110001N1+02151+02061099901ADDAY161061AY261061GF108991061071008001021999MA1999999098161MD1710221+9999MW1611REMSYN072AAXX  20064 47095 41561 83605 10215 20206 39816 49990 57022 76166 8672/;
0161470950999992000082009004+38070+127810FM-12+013599999V0203401N001510075019N0150001N1+02171+02031099751ADDAY161031AY261031GF108991061071008001021999MA1999999098001MD1710161+9999MW1601REMSYN072AAXX  20094 47095 41565 83403 10217 20203 39800 49975 57016 76066 8672/;
0209470950999992000082012004+38070+127810FM-12+013599999V0202501N000510075019N0220001N1+02111+01991099671ADDAA112022191GF108991051051008001021999IA1099IA2999+02109KA1120M+02231MA1999999097931MD1810071+9999REMSYN100AAXX  20124 47095 12572 82501 10211 20199 39793 49967 58007 60222 8552/ 333 10223 31021 55000 70549;
0133470950999992000082015004+38070+127810FM-12+013599999V0209999C000010075019N0200001N1+02091+02021099651ADDGF108991051051008001021999MA1999999097911MD1810021+9999REMSYN066AAXX  20154 47095 42570 80000 10209 20202 39791 49965 58002 8552/;
0161470950999992000082018004+38070+127810FM-12+013599999V0202001N002110075019N0180001N1+02101+01931099811ADDAY161061AY261061GF108991051051008001021999MA1999999098061MD1210151+9999MW1211REMSYN072AAXX  20184 47095 41568 82004 10210 20193 39806 49981 52015 72166 8552/;
0161470950999992000082021004+38070+127810FM-12+013599999V0202001N001010075019N0150001N1+02011+01891099961ADDAY161031AY261031GF108991061051008001021999MA1999999098211MD1210151+9999MW1601REMSYN072AAXX  20214 47095 41565 82002 10201 20189 39821 49996 52015 76066 8652/;
0231470950999992000082100004+38070+127810FM-12+013599999V0201801N001010075019N0100001N1+02051+01861100051ADDAA112003091AY161061AY261061GF108991061061008001021999IA1099IA2999+02209KA1120N+01971MA1999999098291MD1810081+9999MW1211REMSYN100AAXX  21004 47095 11560 81802 10205 20186 39829 40005 58008 60032 72166 8662/ 333 20197 31022 70264;
0161470950999992000082103004+38070+127810FM-12+013599999V0202001N005110075019N0150001N1+02241+01941100111ADDAY161031AY261031GF108991061071008001021999MA1999999098371MD1210081+9999MW1601REMSYN072AAXX  21034 47095 41565 82010 10224 20194 39837 40011 52008 76066 8672/;
0161470950999992000082106004+38070+127810FM-12+013599999V0202001N005110075019N0100001N1+02331+02011100161ADDAY161061AY261061GF108991061071008001021999MA1999999098421MD1810051+9999MW1611REMSYN072AAXX  21064 47095 41560 82010 10233 20201 39842 40016 58005 76166 8672/;
0161470950999992000082109004+38070+127810FM-12+013599999V0202001N004610360019N0080001N1+02301+01941100311ADDAY161031AY261031GF108991041071008001021999MA1999999098561MD1210141+9999MW1611REMSYN072AAXX  21094 47095 41558 82009 10230 20194 39856 40031 52014 76166 8472/;
0237470950999992000082112004+38070+127810FM-12+013599999V0202001N001010075019N0070001N1+02061+01971100511ADDAA112019191AY161061AY221061GF108991051051008001021999IA1099IA2999+02009KA1120M+02461MA1999999098751MD1210191+9999MW1211REMSYN106AAXX  21124 47095 11557 82002 10206 20197 39875 40051 52019 60192 72162 8552/ 333 10246 31020 55008 70225;
0161470950999992000082115004+38070+127810FM-12+013599999V0202001N002110075019N0080001N1+02081+01971100661ADDAY161031AY261031GF108991051071008001021999MA1999999098891MD1210141+9999MW1601REMSYN072AAXX  21154 47095 41558 82004 10208 20197 39889 40066 52014 76066 8572/;
0161470950999992000082118004+38070+127810FM-12+013599999V0202001N001010075019N0050001N1+02031+01951100771ADDAY161061AY261061GF108991051071008001021999MA1999999099001MD1210111+9999MW1601REMSYN072AAXX  21184 47095 41550 82002 10203 20195 39900 40077 52011 76066 8572/;
0161470950999992000082121004+38070+127810FM-12+013599999V0201801N001010075019N0080001N1+02051+01951100911ADDAY161031AY261031GF108991051071008001021999MA1999999099141MD1210141+9999MW1601REMSYN072AAXX  21214 47095 41558 81802 10205 20195 39914 40091 52014 76066 8572/;
0203470950999992000082200004+38070+127810FM-12+013599999V0202001N001510075019N0120001N1+02261+01961101091ADDAA112005191GF106991061051008001001001IA1099IA2999+02409KA1120N+02011MA1999999099331MD1210191+9999REMSYN094AAXX  22004 47095 12562 62003 10226 20196 39933 40109 52019 60052 86500 333 20201 31024 70239;
0144470950999992000082203004+38070+127810FM-12+013599999V0202301N002610075019N0150001N1+02591+01901101081ADDAA199000021GF106991061051008001001001MA1999999099341MD1510011+9999REMSYN066AAXX  22034 47095 32565 62305 10259 20190 39934 40108 55001 86500;
0144470950999992000082206004+38070+127810FM-12+013599999V0202301N005112200019N0200001N1+02721+01941101111ADDAA199000021GF103991031051008001001001MA1999999099381MD1210041+9999REMSYN066AAXX  22064 47095 32570 32310 10272 20194 39938 40111 52004 83500;
0144470950999992000082209004+38070+127810FM-12+013599999V0202001N003112200019N0200001N1+02551+02031101181ADDAA199000021GF102991021011008001001011MA1999999099441MD1010061+9999REMSYN066AAXX  22094 47095 32570 22006 10255 20203 39944 40118 50006 82101;
0197470950999992000082212004+38070+127810FM-12+013599999V0201801N000512200019N0150001N1+02281+01981101401ADDAA124006191GF102991021051008001001001IA1019IA2999+02109KA1120M+02791MA1999999099631MD1210191+9999REMSYN088AAXX  22124 47095 32565 21801 10228 20198 39963 40140 52019 82500 333 10279 30021 70060;
0163470950999992000082215004+38070+127810FM-12+013599999V0209999C000012200019N0150001N1+02001+01921101451ADDAA199000091GF102991021051008001001001MA1999999099671MD1310041+9999REMSYN066AAXX  22154 47095 32565 20000 10200 20192 39967 40145 53004 82500;EQDQ01  00002PRCP99
0179470950999992000082218004+38070+127810FM-12+013599999V0209999C000012200019N0120001N1+01901+01861101461ADDAA199000091GF105991021051012501001011MA1999999099671MD1210011+9999REMSYN066AAXX  22184 47095 32662 50000 10190 20186 39967 40146 52000 82501;EQDQ01+000002APC3  Q02  00002PRCP99
0163470950999992000082221004+38070+127810FM-12+013599999V0209999C000010360019N0100001N1+01831+01801101541ADDAA199000091GF106991041051008001031001MA1999999099741MD1210071+9999REMSYN066AAXX  22214 47095 32560 60000 10183 20180 39974 40154 52007 84530;EQDQ01  00002PRCP99
0238470950999992000082300004+38070+127810FM-12+013599999V0200501N000510900019N0090001N1+02271+02061101621ADDAA199000091AY121061AY221061GF106991021051008001001021IA1099IA2999+02609KA1120N+01801MA1999999099851MD1110111+9999MW1101REMSYN088AAXX  23004 47095 31559 60501 10227 20206 39985 40162 51011 71022 82502 333 20180 31026;EQDQ01  00002PRCP99
0163470950999992000082303004+38070+127810FM-12+013599999V0202501N002112200019N0180001N1+02701+01591101481ADDAA199000091GF103991021011008001031021MA1999999099741MD1710111+9999REMSYN066AAXX  23034 47095 32568 32504 10270 20159 39974 40148 57011 82132;EQDQ01  00002PRCP99
0163470950999992000082306004+38070+127810FM-12+013599999V0202501N004110900019N0180001N1+02791+01841101381ADDAA199000091GF105991021011008001001021MA1999999099651MD1710091+9999REMSYN066AAXX  23064 47095 32568 52508 10279 20184 39965 40138 57009 82102;EQDQ01  00002PRCP99
0191470950999992000082309004+38070+127810FM-12+013599999V0202301N001010900019N0090001N1+02601+02031101351ADDAA199000091AY101031AY201031GF106991011011008001001021MA1999999099601MD1810051+9999MW1101REMSYN072AAXX  23094 47095 31559 62302 10260 20203 39960 40135 58005 71000 81102;EQDQ01  00002PRCP99
0244470950999992000082312004+38070+127810FM-12+013599999V0203201N001010360019N0080001N1+02271+02011101441ADDAA199000091AY121061AY221061GF108991011051008001011999IA1019IA2999+02309KA1120M+02901MA1999999099681MD1110081+9999MW1101REMSYN094AAXX  23124 47095 31558 83202 10227 20201 39968 40144 51008 71022 8151/ 333 10290 30023 55044;EQDQ01  00002PRCP99
0161470950999992000082315004+38070+127810FM-12+013599999V0209999C000010360019N0080001N1+02151+02061101471ADDAY121031AY211031GF106991041071008001021999MA1999999099701MD1210021+9999MW1601REMSYN072AAXX  23154 47095 41558 60000 10215 20206 39970 40147 52002 76021 8472/;
0161470950999992000082318004+38070+127810FM-12+013599999V0202001N000510075019N0050001N1+02161+02071101441ADDAY121061AY221061GF108991051051008001021999MA1999999099671MD1110031+9999MW1101REMSYN072AAXX  23184 47095 41550 82001 10216 20207 39967 40144 51003 71022 8552/;
0161470950999992000082321004+38070+127810FM-12+013599999V0202701N001010360019N0007001N1+02091+02031101361ADDAY121031AY221031GF108991041051008001021999MA1999999099581MD1710091+9999MW1441REMSYN072AAXX  23214 47095 41507 82702 10209 20203 39958 40136 57009 74422 8452/;
0225470950999992000082400004+38070+127810FM-12+013599999V0202001N002110075019N0050001N1+02171+02071101491ADDAA112000891AY161061AY221061GF108991051071008001021999IA2999+02209KA1120N+02091MA1999999099721MD1210141+9999MW1611REMSYN100AAXX  24004 47095 11550 82004 10217 20207 39972 40149 52014 69972 76162 8572/ 333 20209 3/022 70007;
0172470950999992000082403004+38070+127810FM-12+013599999V0200501N000510075019N0100001N1+02241+02121101371ADDAA199000021AY161031AY221031GF108991061061008001021999MA1999999099601MD1510121+9999MW1211REMSYN072AAXX  24034 47095 31560 80501 10224 20212 39960 40137 55012 72162 8662/;
0144470950999992000082406004+38070+127810FM-12+013599999V0203601N001510360019N0150001N1+02521+02131101181ADDAA199000021GF108991021051008001021999MA1999999099431MD1710171+9999REMSYN066AAXX  24064 47095 32565 83603 10252 20213 39943 40118 57017 8252/;
0144470950999992000082409004+38070+127810FM-12+013599999V0202001N000510360019N0160001N1+02441+02151101101ADDAA199000021GF108991031051008001021999MA1999999099351MD1810081+9999REMSYN066AAXX  24094 47095 32566 82001 10244 20215 39935 40110 58008 8352/;
0209470950999992000082412004+38070+127810FM-12+013599999V0201401N001010360019N0120001N1+02221+02091101231ADDAA112000791GF108991041051008001021999IA1099IA2999+02209KA1120M+02591MA1999999099461MD1210111+9999REMSYN100AAXX  24124 47095 12562 81402 10222 20209 39946 40123 52011 69902 8452/ 333 10259 31022 55000 70008;
0161470950999992000082415004+38070+127810FM-12+013599999V0209999C000010075019N0080001N1+02141+02061101171ADDAY161031AY261031GF108991061071008001021999MA1999999099411MD1210051+9999MW1611REMSYN072AAXX  24154 47095 41558 80000 10214 20206 39941 40117 52005 76166 8672/;
0161470950999992000082418004+38070+127810FM-12+013599999V0201101N001010075019N0050001N1+02091+02051101091ADDAY161061AY261061GF108991061071008001021999MA1999999099321MD1510091+9999MW1611REMSYN072AAXX  24184 47095 41550 81102 10209 20205 39932 40109 55009 76166 8672/;
0161470950999992000082421004+38070+127810FM-12+013599999V0209999C000010075019N0030001N1+02051+02011100931ADDAY161031AY261031GF108991061071008001021999MA1999999099161MD1710161+9999MW1611REMSYN072AAXX  24214 47095 41530 80000 10205 20201 39916 40093 57016 76166 8672/;
0231470950999992000082500004+38070+127810FM-12+013599999V0203601N001510075019N0030001N1+02061+02021100861ADDAA112025991AY161061AY261061GF108991061071008001021999IA1099IA2999+02109KA1120N+02041MA1999999099091MD1710071+9999MW1631REMSYN100AAXX  25004 47095 11530 83603 10206 20202 39909 40086 57007 60262 76366 8672/ 333 20204 31021 70261;
0161470950999992000082503004+38070+127810FM-12+013599999V0203601N001510075019N0030001N1+02071+02031100651ADDAY161031AY261031GF108991061071008001021999MA1999999098881MD1710211+9999MW1631REMSYN072AAXX  25034 47095 41530 83603 10207 20203 39888 40065 57021 76366 8672/;
0133470950999992000082506004+38070+127810FM-12+013599999V0202901N001010360019N0250001N1+02531+02021100551ADDGF106991041051008001011011MA1999999098811MD1610071+9999REMSYN066AAXX  25064 47095 42575 62902 10253 20202 39881 40055 56007 84511;
0144470950999992000082509004+38070+127810FM-12+013599999V0202501N001510360019N0250001N1+02621+02161100561ADDAA199000021GF106991021051008001031011MA1999999098831MD1010021+9999REMSYN066AAXX  25094 47095 32575 62503 10262 20216 39883 40056 50002 82531;
0203470950999992000082512004+38070+127810FM-12+013599999V0209999C000012200019N0150001N1+02191+02101100791ADDAA112040991GF106991021051008001001011IA1099IA2999+02209KA1120M+02771MA1999999099031MD1210201+9999REMSYN094AAXX  25124 47095 32565 60000 10219 20210 39903 40079 52020 60412 82501 333 10277 31022 70670;
0163470950999992000082518004+38070+127810FM-12+013599999V0209999C000010075019N0100001N1+02141+02101100841ADDAA199000091GF106991061051008001001001MA1999999099081MD1510021+9999REMSYN066AAXX  25184 47095 32560 60000 10214 20210 39908 40084 55002 86500;EQDQ01  00002PRCP99
0191470950999992000082521004+38070+127810FM-12+013599999V0202901N000510075019N0050001N1+02131+02091100891ADDAA199000091AY121031AY221031GF108991061051008001021999MA1999999099131MD1110051+9999MW1101REMSYN072AAXX  25214 47095 31550 82901 10213 20209 39913 40089 51005 71022 8652/;EQDQ01  00002PRCP99
0231470950999992000082600004+38070+127810FM-12+013599999V0202901N000510075019N0080001N1+02221+02141100961ADDAA112001091AY161061AY261061GF108991061071008001021999IA1099IA2999+02309KA1120N+02131MA1999999099201MD1210071+9999MW1601REMSYN100AAXX  26004 47095 11558 82901 10222 20214 39920 40096 52007 60012 76066 8672/ 333 20213 31023 70416;
0144470950999992000082603004+38070+127810FM-12+013599999V0203201N001010075019N0180001N1+02391+02161100791ADDAA199000021GF108991061051008001021999MA1999999099041MD1710161+9999REMSYN066AAXX  26034 47095 32568 83202 10239 20216 39904 40079 57016 8652/;
0161470950999992000082606004+38070+127810FM-12+013599999V0201101N001010075019N0180001N1+02351+02191100801ADDAY121061AY211061GF108991061051008001021999MA1999999099051MD1510011+9999MW1601REMSYN072AAXX  26064 47095 41568 81102 10235 20219 39905 40080 55001 76021 8652/;
0161470950999992000082609004+38070+127810FM-12+013599999V0203601N003610075019N0150001N1+02191+02081100641ADDAY161031AY261031GF108991061071008001021999MA1999999098881MD1710171+9999MW1611REMSYN072AAXX  26094 47095 41565 83607 10219 20208 39888 40064 57017 76166 8672/;
0237470950999992000082612004+38070+127810FM-12+013599999V0203201N000510075019N0080001N1+02111+02041100761ADDAA112015091AY161061AY261061GF108991061071008001021999IA1099IA2999+02109KA1120M+02471MA1999999098991MD1210111+9999MW1621REMSYN106AAXX  26124 47095 11558 83201 10211 20204 39899 40076 52011 60152 76266 8672/ 333 10247 31021 55000 70165;
0161470950999992000082615004+38070+127810FM-12+013599999V0203601N002610075019N0060001N1+02071+02041100681ADDAY161031AY261031GF108991061071008001021999MA1999999098911MD1810081+9999MW1631REMSYN072AAXX  26154 47095 41556 83605 10207 20204 39891 40068 58008 76366 8672/;
0161470950999992000082618004+38070+127810FM-12+013599999V0209999C000010075019N0050001N1+02101+02071100681ADDAY161061AY261061GF108991061071008001021999MA1999999098921MD1310011+9999MW1611REMSYN072AAXX  26184 47095 41550 83400 10210 20207 39892 40068 53001 76166 8672/;
0161470950999992000082621004+38070+127810FM-12+013599999V0200201N001010075019N0050001N1+02131+02101100721ADDAY161031AY261031GF108991061071008001021999MA1999999098961MD1810041+9999MW1611REMSYN072AAXX  26214 47095 41550 80202 10213 20210 39896 40072 58004 76166 8672/;
0212470950999992000082700004+38070+127810FM-12+013599999V0203401N000510075019N0050001N1+02151+02121100821ADDAA112061091AY161061AY261061GF108991061071008001021999IA1099IA2999+02209MA1999999099061MD1210101+9999MW1611REMSYN094AAXX  27004 47095 11550 83401 10215 20212 39906 40082 52010 60612 76166 8672/ 333 31022 70754;
0161470950999992000082703004+38070+127810FM-12+013599999V0203401N001010075019N0100001N1+02331+02271100891ADDAY161031AY261031GF108991061051008001021999MA1999999099141MD1210081+9999MW1211REMSYN072AAXX  27034 47095 41560 83402 10233 20227 39914 40089 52008 72166 8652/;
0161470950999992000082706004+38070+127810FM-12+013599999V0202001N000510075019N0140001N1+02571+02331100831ADDAY161061AY261061GF108991061051008001021999MA1999999099091MD1610051+9999MW1211REMSYN072AAXX  27064 47095 41564 82001 10257 20233 39909 40083 56005 72166 8652/;
0161470950999992000082709004+38070+127810FM-12+013599999V0202001N001510075019N0150001N1+02561+02291100871ADDAY191031AY261031GF108991061051008001021999MA1999999099131MD1510041+9999MW1291REMSYN072AAXX  27094 47095 41565 82003 10256 20229 39913 40087 55004 72996 8652/;
0225470950999992000082712004+38070+127810FM-12+013599999V0200201N002110075019N0070001N1+02371+02301100971ADDAA112006191AY191061AY261061GF108991061071008001021999IA2999+02309KA1120M+02661MA1999999099221MD1010091+9999MW1921REMSYN100AAXX  27124 47095 11557 80204 10237 20230 39922 40097 50009 60062 79296 8672/ 333 10266 3/023 70661;
0161470950999992000082715004+38070+127810FM-12+013599999V0203601N001010075019N0050001N1+02231+02191101161ADDAY191031AY261031GF108991061071008001021999MA1999999099391MD1210171+9999MW1921REMSYN072AAXX  27154 47095 41550 83602 10223 20219 39939 40116 52017 79296 8672/;
0196470950999992000082718004+38070+127810FM-12+013599999V0209999C000010075019N0150001N1+02191+02161101151ADDAY191061AY261061GF108991061071008001021999MA1999999099391MD1710011+9999MW1911REMSYN072AAXX  27184 47095 41565 80000 10219 20216 39939 40115 53000 79196 8672/;EQDQ01+000032APCTENQ02+000002APC3  
0161470950999992000082721004+38070+127810FM-12+013599999V0203401N001510075019N0180001N1+02161+02141101241ADDAY191031AY261031GF108991061071008001021999MA1999999099471MD1210081+9999MW1951REMSYN072AAXX  27214 47095 41568 83403 10216 20214 39947 40124 52008 79596 8672/;
0231470950999992000082800004+38070+127810FM-12+013599999V0200501N001510075019N0100001N1+02161+02141101311ADDAA112136991AY191061AY261061GF108991061071008001021999IA1119IA2999+02209KA1120N+02151MA1999999099541MD1210071+9999MW1951REMSYN100AAXX  28004 47095 11560 80503 10216 20214 39954 40131 52007 61372 79596 8672/ 333 20215 32022 71426;
0109470950999992000082803004+38070+127810FM-12+013599999V0200201N001019999999N9999999N1+99999+99999999999ADDGF108991999999012501999999REMSYN071AAXX  28034 47095 1565/ 80202 1246 20237 39954 40130 53000 76066 8552/;
0161470950999992000082806004+38070+127810FM-12+013599999V0201801N001010075019N0120001N1+02531+02241101311ADDAY161061AY261061GF107991051051008001021999MA1999999099561MD1310021+9999MW1611REMSYN072AAXX  28064 47095 41562 71802 10253 20224 39956 40131 53002 76166 8552/;
0144470950999992000082809004+38070+127810FM-12+013599999V0203401N001510360019N0150001N1+02531+02321101321ADDAA199000021GF106991031051008001031001MA1999999099571MD1810011+9999REMSYN066AAXX  28094 47095 32565 63403 10253 20232 39957 40132 58001 83530;
0231470950999992000082812004+38070+127810FM-12+013599999V0200201N000510075019N0090001N1+02181+02131101401ADDAA112004191AY121061AY221061GF105991051051008001001001IA1099IA2999+02209KA1120M+02761MA1999999099631MD1110061+9999MW1101REMSYN100AAXX  28124 47095 31559 50201 10218 20213 39963 40140 51006 60042 71022 85500 333 10276 31022 71387;
0166470950999992000082815004+38070+127810FM-12+013599999V0209999C000019999999N0006001N1+02081+02041101421ADDAA199000021AY141031AY221031GF108991999999008001999999MA1999999099641MD1210011+9999MW1451REMSYN066AAXX  28154 47095 31506 80000 10208 20204 39964 40142 52001 74542;
0172470950999992000082818004+38070+127810FM-12+013599999V0201401N000510075019N0020001N1+02091+02061101401ADDAA199000021AY121061AY221061GF105991051051008001001001MA1999999099621MD1310021+9999MW1101REMSYN072AAXX  28184 47095 31520 51401 10209 20206 39962 40140 53002 71022 85500;
0181470950999992000082821004+38070+127810FM-12+013599999V0209999C000010075019N0150001N1+02061+02031101401ADDAA199000091GF106991061051008001001001MA1999999099621REMSYN066AAXX  28214 47095 32565 60000 10206 20203 39962 40140 52000 86500;EQDQ01+000022APCTENQ02+000002APC3  Q03  00002PRCP99
0197470950999992000082900004+38070+127810FM-12+013599999V0200201N001510900019N0180001N1+02581+02221101341ADDAA124004191GF106991021051012501001021IA1099IA2999+02909KA1120N+02051MA1999999099591MD1510031+9999REMSYN088AAXX  29004 47095 32668 60203 10258 20222 39959 40134 55003 82502 333 20205 31029 70040;
0179470950999992000082903004+38070+127810FM-12+013599999V0203201N001019999999N0180001N1+02931+02241101261ADDAA199000091GF105991999011008001001001MA1999999099541MD1710051+9999REMSYN066AAXX  29034 47095 32568 53202 10293 20224 39954 40126 57005 83100;EQDQ01+000032SCOTLCQ02  00002PRCP99
0163470950999992000082906004+38070+127810FM-12+013599999V0201101N000510075019N0170001N1+03171+02281101061ADDAA199000091GF105991051011008001001001MA1999999099351MD1710191+9999REMSYN066AAXX  29064 47095 32567 51101 10317 20228 39935 40106 57019 85100;EQDQ01  00002PRCP99
0163470950999992000082909004+38070+127810FM-12+013599999V0200701N001012200019N0180001N1+02951+02301101021ADDAA199000091GF103991011051008001031001MA1999999099301MD1810051+9999REMSYN066AAXX  29094 47095 32568 30702 10295 20230 39930 40102 58005 81530;EQDQ01  00002PRCP99
0244470950999992000082912004+38070+127810FM-12+013599999V0201101N001012200019N0080001N1+02431+02281101171ADDAA199000091AY101061AY201061GF102991021051008001001001IA1099IA2999+02409KA1120M+03211MA1999999099421MD1210121+9999MW1101REMSYN094AAXX  29124 47095 31558 21102 10243 20228 39942 40117 52012 71000 82500 333 10321 31024 55001;EQDQ01  00002PRCP99
0161470950999992000082915004+38070+127810FM-12+013599999V0200201N000512200019N0080001N1+02281+02201101271ADDAY101031AY201031GF101991011051012501001001MA1999999099501MD1210081+9999MW1101REMSYN072AAXX  29154 47095 41658 10201 10228 20220 39950 40127 52008 71000 81500;
0191470950999992000082918004+38070+127810FM-12+013599999V0200201N000512200019N0050001N1+02141+02091101241ADDAA199000091AY101061AY201061GF102991021051012501001001MA1999999099471MD1510031+9999MW1101REMSYN072AAXX  29184 47095 31650 20201 10214 20209 39947 40124 55003 71000 82500;EQDQ01  00002PRCP99
0143470950999992000082921004+38070+127810FM-12+013599999V0209999C000019999999N0120001N1+02131+02091101221ADDAA199000091GF105991041001999999031011MA1999999099451REMSYN060AAXX  29214 47095 32962 50000 10213 20209 39945 40122 84031;EQDQ01  00002PRCP99
0216470950999992000083000004+38070+127810FM-12+013599999V0200501N001519999999N0150001N1+02601+02221101231ADDAA112000191GF106991001001999999001021IA1019IA2999+02909KA1120N+02111MA1999999099491MD1210031+9999REMSYN088AAXX  30004 47095 32565 60503 10260 20222 39949 40123 52003 69912 80002 333 20211 30029;EQDQ01+008002SCOLCB
0163470950999992000083003004+38070+127810FM-12+013599999V0203601N003112200019N0180001N1+02991+02261101111ADDAA199000091GF102991021051008001001011MA1999999099401MD1510091+9999REMSYN066AAXX  30034 47095 32568 23606 10299 20226 39940 40111 55009 82501;EQDQ01  00002PRCP99
0163470950999992000083006004+38070+127810FM-12+013599999V0200201N002112200019N0250001N1+03311+02051100841ADDAA199000091GF102991021011008001001001MA1999999099151MD1710251+9999REMSYN066AAXX  30064 47095 32575 20204 10331 20205 39915 40084 57025 82100;EQDQ01  00002PRCP99
0163470950999992000083009004+38070+127810FM-12+013599999V0200501N003112200019N0250001N1+02891+02231100811ADDAA199000091GF105991011051008001001011MA1999999099101MD1710051+9999REMSYN066AAXX  30094 47095 32575 50506 10289 20223 39910 40081 57005 81501;EQDQ01  00002PRCP99
0216470950999992000083012004+38070+127810FM-12+013599999V0200201N003112200019N0140001N1+02441+02091100991ADDAA199000091GF102991011051012501001021IA1019IA2999+02309KA1120M+03331MA1999999099251MD1210151+9999REMSYN088AAXX  30124 47095 32664 20206 10244 20209 39925 40099 52015 81502 333 10333 30023 55089;EQDQ01  00002PRCP99
0163470950999992000083015004+38070+127810FM-12+013599999V0200201N003612200019N0140001N1+02301+01981101021ADDAA199000091GF104991011051012501001021MA1999999099271MD1310021+9999REMSYN066AAXX  30154 47095 32664 40207 10230 20198 39927 40102 53002 81502;EQDQ01  00002PRCP99
0163470950999992000083018004+38070+127810FM-12+013599999V0203401N004612200019N0160001N1+02251+01991100881ADDAA199000091GF101991011051012501001001MA1999999099121MD1710151+9999REMSYN066AAXX  30184 47095 32666 13409 10225 20199 39912 40088 57015 81500;EQDQ01  00002PRCP99
0163470950999992000083021004+38070+127810FM-12+013599999V0200201N003112200019N0180001N1+02281+02001100741ADDAA199000091GF103991011051012501031001MA1999999098981MD1710141+9999REMSYN066AAXX  30214 47095 32668 30206 10228 20200 39898 40074 57014 81530;EQDQ01  00002PRCP99
0210470950999992000083100004+38070+127810FM-12+013599999V0203601N004610360019N0180001N1+02521+02111100561ADDAA199000091GF108991031051012501011999IA1019IA2999+02509KA1120N+02181MA1999999098821MD1710161+9999REMSYN082AAXX  31004 47095 32668 83609 10252 20211 39882 40056 57016 8351/ 333 20218 30025;EQDQ01  00002PRCP99
0163470950999992000083103004+38070+127810FM-12+013599999V0200501N002610120019N0180001N1+02721+02041100331ADDAA199000091GF108991061051012501011999MA1999999098611MD1710211+9999REMSYN066AAXX  31034 47095 32668 80505 10272 20204 39861 40033 57021 8651/;EQDQ01  00002PRCP99
0161470950999992000083106004+38070+127810FM-12+013599999V0200501N003110360019N0120001N1+02511+02231099961ADDAY161061AY261061GF108991041051008001021999MA1999999098231MD1710381+9999MW1611REMSYN072AAXX  31064 47095 41562 80506 10251 20223 39823 49996 57038 76166 8452/;
0161470950999992000083109004+38070+127810FM-12+013599999V0200701N004110075019N0120001N1+02581+02151099531ADDAY161031AY261031GF108991061071008001021999MA1999999097811MD1710421+9999MW1611REMSYN072AAXX  31094 47095 41562 80708 10258 20215 39781 49953 57042 76166 8672/;
0231470950999992000083112004+38070+127810FM-12+013599999V0203201N000510075019N0080001N1+02431+02251099101ADDAA112014091AY161061AY261061GF108991061071008001021999IA1099IA2999+02309KA1120M+02781MA1999999097391MD1710421+9999MW1631REMSYN100AAXX  31124 47095 11558 83201 10243 20225 39739 49910 57042 60142 76366 8672/ 333 10278 31023 70140;
0141470950999992000083115004+38070+127810FM-12+013599999V0201801N005110075019N0060001N1+02511+02251098711ADDAY161031AY261031GF108991061071008001021999MA1999999097011MW1631REMSYN066AAXX  31154 47095 41556 81810 10251 20225 39701 49871 76366 8672/;
0141470950999992000083118004+38070+127810FM-12+013599999V0202001N010810075019N0070001N1+02371+02221099011ADDAY161061AY261061GF108991061071008001021999MA1999999097291MW1611REMSYN066AAXX  31184 47095 41557 82021 10237 20222 39729 49901 76166 8672/;
0161470950999992000083121004+38070+127810FM-12+013599999V0202001N006210075019N0090001N1+02301+02161099481ADDAY161031AY261031GF108991061071008001021999MA1999999097751MD1210461+9999MW1631REMSYN072AAXX  31214 47095 41559 82012 10230 20216 39775 49948 52046 76366 8672/;
0231470950999992000090100004+38070+127810FM-12+013599999V0202301N007210075019N0090001N1+02311+02141099861ADDAA112045091AY161061AY261061GF108991061071008001021999IA1099IA2999+02209KA1120N+02271MA1999999098121MD1210371+9999MW1611REMSYN100AAXX  01004 47095 11559 82314 10231 20214 39812 49986 52037 60452 76166 8672/ 333 20227 31022 70589;
0161470950999992000090103004+38070+127810FM-12+013599999V0202301N005110075019N0080001N1+02381+02181100081ADDAY161031AY261031GF108991061071008001021999MA1999999098351MD1210231+9999MW1601REMSYN072AAXX  01034 47095 41558 82310 10238 20218 39835 40008 52023 76066 8672/;
0161470950999992000090106004+38070+127810FM-12+013599999V0202001N005110075019N0080001N1+02501+02211100171ADDAY161061AY221061GF108991051051008001021999MA1999999098441MD1210091+9999MW1211REMSYN072AAXX  01064 47095 41558 82010 10250 20221 39844 40017 52009 72162 8552/;
0161470950999992000090109004+38070+127810FM-12+013599999V0202001N003610075019N0050001N1+02431+02191100321ADDAY161031AY221031GF108991061071008001021999MA1999999098581MD1210141+9999MW1601REMSYN072AAXX  01094 47095 41550 82007 10243 20219 39858 40032 52014 76062 8672/;
0231470950999992000090112004+38070+127810FM-12+013599999V0202001N002610075019N0030001N1+02381+02201100501ADDAA112003091AY121061AY221061GF108991051061008001021999IA1099IA2999+02209KA1120M+02541MA1999999098761MD1210181+9999MW1101REMSYN100AAXX  01124 47095 11530 82005 10238 20220 39876 40050 52018 60032 71022 8562/ 333 10254 31022 70480;
0161470950999992000090115004+38070+127810FM-12+013599999V0202001N003110075019N0030001N1+02331+02181100611ADDAY121031AY221031GF107991051051008001011001MA1999999098861MD1210101+9999MW1101REMSYN072AAXX  01154 47095 41530 72006 10233 20218 39886 40061 52010 71022 85510;
0172470950999992000090118004+38070+127810FM-12+013599999V0202001N002610075019N0030001N1+02331+02171100701ADDAA199000021AY121061AY221061GF107991051051008001011001MA1999999098951MD1210091+9999MW1101REMSYN072AAXX  01184 47095 31530 72005 10233 20217 39895 40070 52009 71022 85510;
0172470950999992000090121004+38070+127810FM-12+013599999V0202001N001510075019N0015001N1+02301+02181100811ADDAA199000021AY121031AY221031GF108991051071008001021999MA1999999099061MD1210111+9999MW1101REMSYN072AAXX  01214 47095 31515 82003 10230 20218 39906 40081 52011 71022 8572/;
0231470950999992000090200004+38070+127810FM-12+013599999V0202001N002110075019N0030001N1+02401+02191100951ADDAA112000191AY121061AY221061GF107991061061008001021001IA1099IA2999+02409KA1120N+02281MA1999999099201MD1210141+9999MW1101REMSYN100AAXX  02004 47095 31530 72004 10240 20219 39920 40095 52014 69912 71022 86620 333 20228 31024 70036;
0191470950999992000090203004+38070+127810FM-12+013599999V0202001N002110075019N0090001N1+02621+02171100931ADDAA199000091AY121031AY221031GF107991061051008001011001MA1999999099191MD1510011+9999MW1101REMSYN072AAXX  02034 47095 31559 72004 10262 20217 39919 40093 55001 71022 86510;EQDQ01  00002PRCP99
0163470950999992000090206004+38070+127810FM-12+013599999V0200701N000510075019N0130001N1+02951+02111100861ADDAA199000091GF106991061011008001001001MA1999999099141MD1610051+9999REMSYN066AAXX  02064 47095 32563 60701 10295 20211 39914 40086 56005 86100;EQDQ01  00002PRCP99
0163470950999992000090209004+38070+127810FM-12+013599999V0202301N001512200019N0170001N1+02771+02251100901ADDAA199000091GF102991011011008001031001MA1999999099171MD1210031+9999REMSYN066AAXX  02094 47095 32567 22303 10277 20225 39917 40090 52003 81130;EQDQ01  00002PRCP99
0231470950999992000090212004+38070+127810FM-12+013599999V0201801N002610360019N0080001N1+02471+02291101141ADDAA124000191AY101061AY201061GF108991041051008001021999IA1099IA2999+02409KA1120M+03041MA1999999099391MD1210221+9999MW1101REMSYN100AAXX  02124 47095 31558 81805 10247 20229 39939 40114 52022 71000 8452/ 333 10304 31024 55035 70001;
0191470950999992000090215004+38070+127810FM-12+013599999V0209999C000012200019N0030001N1+02311+02211101211ADDAA199000091AY121031AY221031GF102991021051008001001001MA1999999099451MD1810061+9999MW1101REMSYN072AAXX  02154 47095 31530 20000 10231 20221 39945 40121 58006 71022 82500;EQDQ01  00002PRCP99
0191470950999992000090218004+38070+127810FM-12+013599999V0201801N001010360019N0030001N1+02231+02181101261ADDAA199000091AY121061AY221061GF108991041051008001021999MA1999999099491MD1210041+9999MW1101REMSYN072AAXX  02184 47095 31530 81802 10223 20218 39949 40126 52004 71022 8452/;EQDQ01  00002PRCP99
0207470950999992000090221004+38070+127810FM-12+013599999V0209999C000010006019N0009001N1+02191+02151101241ADDAA199000091AY141031AY241031GA1091+999999999GF109991091999999999999999MA1999999099471MD1810021+9999MW1451REMSYN072AAXX  02214 47095 31/09 90000 10219 20215 39947 40124 58002 74544 8////;EQDQ01  00002PRCP99
0210470950999992000090300004+38070+127810FM-12+013599999V0200501N001012200019N0120001N1+02541+02091101261ADDAA199000091GF102991021051012501001001IA1099IA2999+02709KA1120N+02161MA1999999099521MD1210051+9999REMSYN082AAXX  03004 47095 32662 20502 10254 20209 39952 40126 52005 82500 333 20216 31027;EQDQ01  00002PRCP99
0163470950999992000090303004+38070+127810FM-12+013599999V0203401N001012200019N0180001N1+02921+02071101121ADDAA199000091GF104991041011008001001001MA1999999099401MD1710121+9999REMSYN066AAXX  03034 47095 32568 43402 10292 20207 39940 40112 57012 84100;EQDQ01  00002PRCP99
0163470950999992000090306004+38070+127810FM-12+013599999V0202701N001510075019N0220001N1+03101+02131100951ADDAA199000091GF105991051011008001001001MA1999999099241MD1710161+9999REMSYN066AAXX  03064 47095 32572 52703 10310 20213 39924 40095 57016 85100;EQDQ01  00002PRCP99
0163470950999992000090309004+38070+127810FM-12+013599999V0200701N004112200019N0200001N1+02741+01921101001ADDAA199000091GF104991041021008001001001MA1999999099271MD1810031+9999REMSYN066AAXX  03094 47095 32570 40708 10274 20192 39927 40100 58003 84200;EQDQ01  00002PRCP99
0216470950999992000090312004+38070+127810FM-12+013599999V0200501N002112200019N0150001N1+02201+01981101181ADDAA199000091GF101991011051012501001001IA1019IA2999+02209KA1120M+03121MA1999999099411MD1210141+9999REMSYN088AAXX  03124 47095 32665 10504 10220 20198 39941 40118 52014 81500 333 10312 30022 55004;EQDQ01  00002PRCP99
0173470950999992000090315004+38070+127810FM-12+013599999V0200901N001012200019N0150001N1+01881+01811101281ADDAA199000091GA1001+999999999GF100991001001999999001001MA1999999099491MD1210081+9999REMSYN060AAXX  03154 47095 32965 00902 10188 20181 39949 40128 52008;EQDQ01  00002PRCP99
0173470950999992000090318004+38070+127810FM-12+013599999V0209999C000012200019N0150001N1+01711+01611101261ADDAA199000091GA1001+999999999GF100991001001999999001001MA1999999099461MD1510031+9999REMSYN060AAXX  03184 47095 32965 00000 10171 20161 39946 40126 55003;EQDQ01  00002PRCP99
0143470950999992000090321004+38070+127810FM-12+013599999V0200501N001012200019N0180001N1+01671+01611999999ADDAA199000091GA1001+999999999GF100991001001999999001001REMSYN059AAXX  03214 47095 32968 00502 10167 20161 3945 40126 58001;EQDQ01  00002PRCP99
0220470950999992000090400004+38070+127810FM-12+013599999V0200201N002612200019N0200001N1+02351+01741101261ADDAA199000091GA1001+999999999GF100991001001999999001001IA1019IA2999+02709KA1120N+01591MA1999999099501MD1310051+9999REMSYN076AAXX  04004 47095 32970 00205 10235 20174 39950 40126 53005 333 20159 30027;EQDQ01  00002PRCP99
0163470950999992000090403004+38070+127810FM-12+013599999V0200201N005712200019N0280001N1+02661+01611101091ADDAA199000091GF102991021011008001001001MA1999999099351MD1710151+9999REMSYN066AAXX  04034 47095 32578 20211 10266 20161 39935 40109 57015 82100;EQDQ01  00002PRCP99
0163470950999992000090406004+38070+127810FM-12+013599999V0200501N002610075019N0280001N1+02751+01631100901ADDAA199000091GF106991061011008001001001MA1999999099171MD1710181+9999REMSYN066AAXX  04064 47095 32578 60505 10275 20163 39917 40090 57018 86100;EQDQ01  00002PRCP99
0163470950999992000090409004+38070+127810FM-12+013599999V0201101N001512200019N0280001N1+02691+01521100891ADDAA199000091GF101991011051012501001001MA1999999099161MD1810011+9999REMSYN066AAXX  04094 47095 32678 11103 10269 20152 39916 40089 58001 81500;EQDQ01  00002PRCP99
0226470950999992000090412004+38070+127810FM-12+013599999V0200701N000512200019N0250001N1+01991+01591101041ADDAA199000091GA1001+999999999GF100991001001999999001001IA1019IA2999+01909KA1120M+02971MA1999999099261MD1210101+9999REMSYN082AAXX  04124 47095 32975 00701 10199 20159 39926 40104 52010 333 10297 30019 55092;EQDQ01  00002PRCP99
0173470950999992000090415004+38070+127810FM-12+013599999V0200901N000512200019N0250001N1+01841+01541101051ADDAA199000091GA1001+999999999GF100991001001999999001001MA1999999099261MD1510001+9999REMSYN060AAXX  04154 47095 32575 00901 10184 20154 39926 40105 55000;EQDQ01  00002PRCP99
0163470950999992000090418004+38070+127810FM-12+013599999V0202901N000512200019N0220001N1+01501+01411101051ADDAA199000091GF101991011051012501001001MA1999999099241MD1510021+9999REMSYN066AAXX  04184 47095 32672 12901 10150 20141 39924 40105 55002 81500;EQDQ01  00002PRCP99
0163470950999992000090421004+38070+127810FM-12+013599999V0209999C000012200019N0200001N1+01391+01331100971ADDAA199000091GF102991001001999999001011MA1999999099161MD1710081+9999REMSYN066AAXX  04214 47095 32970 20000 10139 20133 39916 40097 57008 80001;EQDQ01  00002PRCP99
0210470950999992000090500004+38070+127810FM-12+013599999V0203601N001012200019N0250001N1+01991+01581100921ADDAA199000091GF101991001001999999001011IA1019IA2999+02409KA1120N+01321MA1999999099151MD1510011+9999REMSYN082AAXX  05004 47095 32975 13602 10199 20158 39915 40092 55001 80001 333 20132 30024;EQDQ01  00002PRCP99
0163470950999992000090503004+38070+127810FM-12+013599999V0202301N000512200019N0250001N1+02621+01301100741ADDAA199000091GF103991001001999999001011MA1999999099011MD1710141+9999REMSYN066AAXX  05034 47095 32975 32301 10262 20130 39901 40074 57014 80001;EQDQ01  00002PRCP99
0163470950999992000090506004+38070+127810FM-12+013599999V0202701N001512200019N0250001N1+02741+01711100561ADDAA199000091GF102991011051012501001021MA1999999098841MD1710171+9999REMSYN066AAXX  05064 47095 32675 22703 10274 20171 39884 40056 57017 81502;EQDQ01  00002PRCP99
0163470950999992000090509004+38070+127810FM-12+013599999V0202301N002112200019N0250001N1+02571+01881100501ADDAA199000091GF101991001001999999001011MA1999999098771MD1810071+9999REMSYN066AAXX  05094 47095 32975 12304 10257 20188 39877 40050 58007 80001;EQDQ01  00002PRCP99
0216470950999992000090512004+38070+127810FM-12+013599999V0200201N000512200019N0180001N1+02051+01821100631ADDAA199000091GF101991001001999999001011IA1019IA2999+02109KA1120M+02861MA1999999098861MD1110091+9999REMSYN088AAXX  05124 47095 32968 10201 10205 20182 39886 40063 51009 80001 333 10286 30021 55037;EQDQ01  00002PRCP99
0163470950999992000090515004+38070+127810FM-12+013599999V0209999C000012200019N0180001N1+01831+01761100621ADDAA199000091GF102991011001999999031011MA1999999098841MD1610021+9999REMSYN066AAXX  05154 47095 32968 20000 10183 20176 39884 40062 56002 81031;EQDQ01  00002PRCP99
0179470950999992000090518004+38070+127810FM-12+013599999V0209999C000019999999N0150001N1+01841+01791100621ADDAA199000091GF105991051001999999031001MA1999999098841MD1410001+9999REMSYN066AAXX  05184 47095 32965 50000 10184 20179 39884 40062 53000 85030;EQDQ01+000032APCTENQ02  00002PRCP99
0191470950999992000090521004+38070+127810FM-12+013599999V0209999C000010360019N0080001N1+01871+01821100661ADDAA199000091AY121031AY221031GF108991021051008001021999MA1999999098881MD1510041+9999MW1101REMSYN072AAXX  05214 47095 31558 80000 10187 20182 39888 40066 55004 71022 8252/;EQDQ01  00002PRCP99
0212470950999992000090600004+38070+127810FM-12+013599999V0209999C000010360019N0080001N1+01991+01911100691ADDAA112000191AY161061AY221061GF108991041051008001021999IA1099IA2999+02109MA1999999098911MD1210031+9999MW1611REMSYN094AAXX  06004 47095 11558 80000 10199 20191 39891 40069 52003 69912 76162 8452/ 333 31021 70001;
0161470950999992000090603004+38070+127810FM-12+013599999V0202501N002110360019N0080001N1+02161+01881100641ADDAY161031AY221031GF108991041051012501021999MA1999999098881MD1610031+9999MW1601REMSYN072AAXX  06034 47095 41658 82504 10216 20188 39888 40064 56003 76062 8452/;
0172470950999992000090606004+38070+127810FM-12+013599999V0202001N001510120019N0090001N1+02371+01881100531ADDAA199000021AY121061AY221061GF106991061081008001001001MA1999999098791MD1710091+9999MW1101REMSYN072AAXX  06064 47095 31559 62003 10237 20188 39879 40053 57009 71022 86800;
0161470950999992000090609004+38070+127810FM-12+013599999V0200201N001010360019N0080001N1+02201+02031100621ADDAY181031AY221031GF107991041051008001021999MA1999999098861MD1110071+9999MW1251REMSYN072AAXX  06094 47095 41558 70202 10220 20203 39886 40062 51007 72582 8452/;
0209470950999992000090612004+38070+127810FM-12+013599999V0200201N004110075019N0120001N1+01901+01701100931ADDAA112002091GF108991051051008001021999IA1099IA2999+01909KA1120M+02441MA1999999099151MD1210291+9999REMSYN100AAXX  06124 47095 12562 80208 10190 20170 39915 40093 52029 60022 8552/ 333 10244 31019 55002 70018;
0144470950999992000090615004+38070+127810FM-12+013599999V0200201N004110360019N0120001N1+01781+01531101041ADDAA199000021GF108991041051008001021999MA1999999099251MD1310101+9999REMSYN066AAXX  06154 47095 32562 80208 10178 20153 39925 40104 53010 8452/;
0144470950999992000090618004+38070+127810FM-12+013599999V0200201N004110120019N0280001N1+01711+01451101131ADDAA199000021GF105991051051012501001001MA1999999099341MD1210091+9999REMSYN066AAXX  06184 47095 32678 50208 10171 20145 39934 40113 52009 85500;
0144470950999992000090621004+38070+127810FM-12+013599999V0200201N004110075019N0280001N1+01691+01321101251ADDAA199000021GF108991051051008001021999MA1999999099451MD1210111+9999REMSYN066AAXX  06214 47095 32578 80208 10169 20132 39945 40125 52011 8552/;
0197470950999992000090700004+38070+127810FM-12+013599999V0203601N004610360019N0300001N1+01881+01341101361ADDAA124001891GF108991021051012501011999IA1099IA2999+02009KA1120N+01661MA1999999099571MD1210121+9999REMSYN088AAXX  07004 47095 32680 83609 10188 20134 39957 40136 52012 8251/ 333 20166 31020 70017;
0163470950999992000090703004+38070+127810FM-12+013599999V0200501N002610360019N0250001N1+02201+01291101351ADDAA199000091GF108991021051012501021999MA1999999099581MD1510011+9999REMSYN066AAXX  07034 47095 32675 80505 10220 20129 39958 40135 55001 8252/;EQDQ01  00002PRCP99
0163470950999992000090706004+38070+127810FM-12+013599999V0200501N003110360019N0250001N1+02121+01271101311ADDAA199000091GF108991021051012501021999MA1999999099541MD1510041+9999REMSYN066AAXX  07064 47095 32675 80506 10212 20127 39954 40131 55004 8252/;EQDQ01  00002PRCP99
0163470950999992000090709004+38070+127810FM-12+013599999V0200701N002610360019N0250001N1+01991+01361101431ADDAA199000091GF108991041051012501021999MA1999999099641MD1210101+9999REMSYN066AAXX  07094 47095 32675 80705 10199 20136 39964 40143 52010 8452/;EQDQ01  00002PRCP99
0216470950999992000090712004+38070+127810FM-12+013599999V0203601N002110075019N0200001N1+01771+01461101611ADDAA199000091GF108991051051008001021999IA1019IA2999+01809KA1120M+02211MA1999999099811MD1210171+9999REMSYN088AAXX  07124 47095 32570 83604 10177 20146 39981 40161 52017 8552/ 333 10221 30018 55000;EQDQ01  00002PRCP99
0161470950999992000090715004+38070+127810FM-12+013599999V0200901N002110360019N0200001N1+01731+01471101621ADDAY161031AY261031GF108991041051012501021999MA1999999099821MD1010011+9999MW1211REMSYN072AAXX  07154 47095 41670 80904 10173 20147 39982 40162 50001 72166 8452/;
0144470950999992000090718004+38070+127810FM-12+013599999V0209999C000010120019N0200001N1+01741+01511101641ADDAA199000021GF108991051051012501021999MA1999999099831MD1310011+9999REMSYN066AAXX  07184 47095 32670 80000 10174 20151 39983 40164 53001 8552/;
0161470950999992000090721004+38070+127810FM-12+013599999V0209999C000010075019N0150001N1+01671+01561101711ADDAY161031AY261031GF108991061051008001021999MA1999999099901MD1210071+9999MW1601REMSYN072AAXX  07214 47095 41565 80500 10167 20156 39990 40171 52007 76066 8652/;
0231470950999992000090800004+38070+127810FM-12+013599999V0200201N003610075019N0120001N1+01681+01601101881ADDAA112005191AY161061AY221061GF108991061051008001021999IA1099IA2999+01809KA1120N+01641MA1999999100071MD1210171+9999MW1211REMSYN100AAXX  08004 47095 11562 80207 10168 20160 30007 40188 52017 60052 72162 8652/ 333 20164 31018 70052;
0144470950999992000090803004+38070+127810FM-12+013599999V0200201N004610360019N0180001N1+01891+01661101831ADDAA199000021GF108991041051008001021999MA1999999100031MD1510041+9999REMSYN066AAXX  08034 47095 32568 80209 10189 20166 30003 40183 55004 8452/;
0144470950999992000090806004+38070+127810FM-12+013599999V0200201N005110360019N0200001N1+02081+01661101751ADDAA199000021GF108991031051008001011999MA1999999099971MD1710061+9999REMSYN066AAXX  08064 47095 32570 80210 10208 20166 39997 40175 57006 8351/;
0144470950999992000090809004+38070+127810FM-12+013599999V0200201N004110360019N0220001N1+01941+01601101731ADDAA199000021GF107991021051008001011001MA1999999099941MD1810031+9999REMSYN066AAXX  08094 47095 32572 70208 10194 20160 39994 40173 58003 82510;
0237470950999992000090812004+38070+127810FM-12+013599999V0200201N005110360019N0200001N1+01781+01481101851ADDAA112000791AY161061AY221061GF108991031051008001021999IA1099IA2999+01709KA1120M+02121MA1999999100051MD1210111+9999MW1211REMSYN106AAXX  08124 47095 11570 80210 10178 20148 30005 40185 52011 69902 72162 8352/ 333 10212 31017 55000 70053;
0144470950999992000090815004+38070+127810FM-12+013599999V0200201N003610360019N0250001N1+01701+01411101811ADDAA199000021GF108991031051012501021999MA1999999100001MD1710051+9999REMSYN066AAXX  08154 47095 32675 80207 10170 20141 30000 40181 57005 8352/;
0144470950999992000090818004+38070+127810FM-12+013599999V0203601N004110360019N0250001N1+01671+01411101741ADDAA199000021GF108991031051012501021999MA1999999099931MD1710071+9999REMSYN066AAXX  08184 47095 32675 83608 10167 20141 39993 40174 57007 8352/;
0161470950999992000090821004+38070+127810FM-12+013599999V0203601N004610075019N0280001N1+01671+01471101671ADDAY161031AY221031GF108991051051008001021999MA1999999099861MD1710071+9999MW1211REMSYN072AAXX  08214 47095 41578 83609 10167 20147 39986 40167 57007 72162 8552/;
0203470950999992000090900004+38070+127810FM-12+013599999V0200201N004610120019N0280001N1+01871+01501101671ADDAA112000191GF107991061051012501011001IA1099IA2999+01909KA1120N+01631MA1999999099871MD1310011+9999REMSYN094AAXX  09004 47095 12678 70209 10187 20150 39987 40167 53001 69912 86510 333 20163 31019 70002;
0144470950999992000090903004+38070+127810FM-12+013599999V0200201N006710120019N0280001N1+02031+01441101621ADDAA199000021GF108991051051012501021999MA1999999099831MD1510041+9999REMSYN066AAXX  09034 47095 32678 80213 10203 20144 39983 40162 55004 8552/;
0144470950999992000090906004+38070+127810FM-12+013599999V0200201N006210360019N0250001N1+02121+01461101461ADDAA199000021GF107991041051008001011001MA1999999099681MD1710151+9999REMSYN066AAXX  09064 47095 32575 70212 10212 20146 39968 40146 57015 84510;
0144470950999992000090909004+38070+127810FM-12+013599999V0200201N005110120019N0250001N1+01931+01411101491ADDAA199000021GF106991061051012501001001MA1999999099701MD1210021+9999REMSYN066AAXX  09094 47095 32675 60210 10193 20141 39970 40149 52002 86500;
0197470950999992000090912004+38070+127810FM-12+013599999V0203601N004610120019N0220001N1+01771+01341101671ADDAA124000191GF106991061051012501001001IA1019IA2999+01709KA1120M+02161MA1999999099871MD1210171+9999REMSYN088AAXX  09124 47095 32672 63609 10177 20134 39987 40167 52017 86500 333 10216 30017 70001;
0163470950999992000090915004+38070+127810FM-12+013599999V0200201N003110120019N0200001N1+01591+01301101641ADDAA199000091GF106991061051012501001001MA1999999099821MD1810051+9999REMSYN066AAXX  09154 47095 32670 60206 10159 20130 39982 40164 58005 86500;EQDQ01  00002PRCP99
0163470950999992000090918004+38070+127810FM-12+013599999V0203601N003610120019N0180001N1+01531+01221101531ADDAA199000091GF106991061051012501001001MA1999999099721MD1710101+9999REMSYN066AAXX  09184 47095 32668 63607 10153 20122 39972 40153 57010 86500;EQDQ01  00002PRCP99
0163470950999992000090921004+38070+127810FM-12+013599999V0202001N001012200019N0220001N1+01401+01141101491ADDAA199000091GF105991031051012501001011MA1999999099671MD1810051+9999REMSYN066AAXX  09214 47095 32672 52002 10140 20114 39967 40149 58005 83501;EQDQ01  00002PRCP99
0210470950999992000091000004+38070+127810FM-12+013599999V0201401N000510900019N0280001N1+01901+01151101571ADDAA199000091GF106991021051012501001021IA1019IA2999+02309KA1120N+01391MA1999999099781MD1210111+9999REMSYN082AAXX  10004 47095 32678 61401 10190 20115 39978 40157 52011 82502 333 20139 30023;EQDQ01  00002PRCP99
0163470950999992000091003004+38070+127810FM-12+013599999V0203401N002612200019N0280001N1+02401+01331101391ADDAA199000091GF104991001001999999001051MA1999999099631MD1710151+9999REMSYN066AAXX  10034 47095 32978 43405 10240 20133 39963 40139 57015 80005;EQDQ01  00002PRCP99
0163470950999992000091006004+38070+127810FM-12+013599999V0203601N002612200019N0280001N1+02641+01131101151ADDAA199000091GF103991001001999999001011MA1999999099411MD1710221+9999REMSYN066AAXX  10064 47095 32978 33605 10264 20113 39941 40115 57022 80001;EQDQ01  00002PRCP99
0163470950999992000091009004+38070+127810FM-12+013599999V0200501N001519999999N0280001N1+02481+01341101111ADDAA199000091GF106991021001999999031021MA1999999099371MD1810041+9999REMSYN066AAXX  10094 47095 32978 60503 10248 20134 39937 40111 58004 82032;EQDQ01  00002PRCP99
0210470950999992000091012004+38070+127810FM-12+013599999V0200701N001019999999N0250001N1+01791+01531101321ADDAA199000091GF106991021001999999031021IA1019IA2999+01909KA1120M+02701MA1999999099531MD1210161+9999REMSYN082AAXX  10124 47095 32975 60702 10179 20153 39953 40132 52016 82032 333 10270 30019;EQDQ01  00002PRCP99
0163470950999992000091015004+38070+127810FM-12+013599999V0200201N001019999999N0200001N1+01521+01411101401ADDAA199000091GF106991021001999999031011MA1999999099591MD1010061+9999REMSYN066AAXX  10154 47095 32970 60202 10152 20141 39959 40140 50006 82031;EQDQ01  00002PRCP99
0163470950999992000091018004+38070+127810FM-12+013599999V0203601N005712200019N0150001N1+01621+01201101301ADDAA199000091GF102991001001999999001011MA1999999099501MD1710091+9999REMSYN066AAXX  10184 47095 32965 23611 10162 20120 39950 40130 57009 80001;EQDQ01  00002PRCP99
0163470950999992000091021004+38070+127810FM-12+013599999V0203601N005110120019N0200001N1+01601+00981101331ADDAA199000091GF108991051051012501021999MA1999999099521MD1210021+9999REMSYN066AAXX  10214 47095 32670 83610 10160 20098 39952 40133 52002 8552/;EQDQ01  00002PRCP99
0191470950999992000091100004+38070+127810FM-12+013599999V0203401N003610360019N0250001N1+01801+01061101411ADDAA199000091GF108991041051012501021999IA1019IA2999+01909MA1999999099611MD1810091+9999REMSYN076AAXX  11004 47095 32675 83407 10180 20106 39961 40141 58009 8452/ 333 30019;EQDQ01  00002PRCP99
0163470950999992000091103004+38070+127810FM-12+013599999V0200201N003110360019N0250001N1+02241+01141101381ADDAA199000091GF107991021051012501021001MA1999999099611MD1510001+9999REMSYN066AAXX  11034 47095 32675 70206 10224 20114 39961 40138 55000 82520;EQDQ01  00002PRCP99
0163470950999992000091106004+38070+127810FM-12+013599999V0200201N004612200019N0300001N1+02531+01051101241ADDAA199000091GF101991011051012501001001MA1999999099501MD1710111+9999REMSYN066AAXX  11064 47095 32680 10209 10253 20105 39950 40124 57011 81500;EQDQ01  00002PRCP99
0163470950999992000091109004+38070+127810FM-12+013599999V0200701N005112200019N0300001N1+02311+00841101291ADDAA199000091GF101991011001999999031001MA1999999099531MD1110031+9999REMSYN066AAXX  11094 47095 32980 10710 10231 20084 39953 40129 51003 81030;EQDQ01  00002PRCP99
0226470950999992000091112004+38070+127810FM-12+013599999V0203601N002612200019N0280001N1+01511+01201101521ADDAA199000091GA1001+999999999GF100991001001999999001001IA1019IA2999+01609KA1120M+02621MA1999999099701MD1210171+9999REMSYN082AAXX  11124 47095 32978 03605 10151 20120 39970 40152 52017 333 10262 30016 55067;EQDQ01  00002PRCP99
0163470950999992000091115004+38070+127810FM-12+013599999V0200901N001512200019N0280001N1+01331+01071101561ADDAA199000091GF102991021001999999031001MA1999999099731MD1210031+9999REMSYN066AAXX  11154 47095 32978 20903 10133 20107 39973 40156 52003 82030;EQDQ01  00002PRCP99
0163470950999992000091118004+38070+127810FM-12+013599999V0203601N003612200019N0280001N1+01151+00961101621ADDAA199000091GF102991021001999999031001MA1999999099781MD1210051+9999REMSYN066AAXX  11184 47095 32978 23607 10115 20096 39978 40162 52005 82030;EQDQ01  00002PRCP99
0163470950999992000091121004+38070+127810FM-12+013599999V0200501N001019999999N0250001N1+01211+00971101711ADDAA199000091GF106991031001999999031021MA1999999099861MD1210081+9999REMSYN066AAXX  11214 47095 32975 60502 10121 20097 39986 40171 52008 83032;EQDQ01  00002PRCP99
0242470950999992000091200004+38070+127810FM-12+013599999V0203401N003610360019N0280001N1+01721+01191101661ADDAA199000091GF106991021051012501031011IA1019IA2999+01909KA1120N+01111MA1999999099861MD1710051+9999REMSYN082AAXX  12004 47095 32678 63407 10172 20119 39986 40166 53000 82531 333 20111 30019;EQDQ01+000032APCTENQ02+000002APC3  Q03  00002PRCP99
0163470950999992000091203004+38070+127810FM-12+013599999V0200501N004610900019N0280001N1+02281+01001101631ADDAA199000091GF106991021051012501001021MA1999999099871MD1010011+9999REMSYN066AAXX  12034 47095 32678 60509 10228 20100 39987 40163 50001 82502;EQDQ01  00002PRCP99
0163470950999992000091206004+38070+127810FM-12+013599999V0200501N004610360019N0250001N1+02261+01141101511ADDAA199000091GF107991031051012501011001MA1999999099741MD1710131+9999REMSYN066AAXX  12064 47095 32675 70509 10226 20114 39974 40151 57013 83510;EQDQ01  00002PRCP99
0163470950999992000091209004+38070+127810FM-12+013599999V0200501N003110120019N0220001N1+01951+00961101551ADDAA199000091GF108991061051012501021999MA1999999099761MD1310021+9999REMSYN066AAXX  12094 47095 32672 80506 10195 20096 39976 40155 53002 8652/;EQDQ01  00002PRCP99
0210470950999992000091212004+38070+127810FM-12+013599999V0203601N004110120019N0180001N1+01751+01041101671ADDAA199000091GF108991051051012501021999IA1019IA2999+01809KA1120M+02421MA1999999099861MD1210101+9999REMSYN082AAXX  12124 47095 32668 83608 10175 20104 39986 40167 52010 8552/ 333 10242 30018;EQDQ01  00002PRCP99
0163470950999992000091215004+38070+127810FM-12+013599999V0200201N005110120019N0180001N1+01731+01001101621ADDAA199000091GF108991051051012501021999MA1999999099821MD1510041+9999REMSYN066AAXX  12154 47095 32668 80210 10173 20100 39982 40162 55004 8552/;EQDQ01  00002PRCP99
0161470950999992000091218004+38070+127810FM-12+013599999V0200201N005710075019N0180001N1+01681+00911101601ADDAY121061AY221061GF108991051051008001021999MA1999999099791MD1810031+9999MW1601REMSYN072AAXX  12184 47095 41568 80211 10168 20091 39979 40160 58003 76022 8552/;
0161470950999992000091221004+38070+127810FM-12+013599999V0203201N003110075019N0200001N1+01571+01101101641ADDAY161031AY221031GF108991051071008001021999MA1999999099821MD1210031+9999MW1601REMSYN072AAXX  12214 47095 41570 83206 10157 20110 39982 40164 52003 76062 8572/;
0231470950999992000091300004+38070+127810FM-12+013599999V0203601N003610360019N0220001N1+01611+01261101651ADDAA112000191AY161061AY261061GF108991021051008001021999IA1099IA2999+01609KA1120N+01551MA1999999099831MD1010011+9999MW1601REMSYN100AAXX  13004 47095 11572 83607 10161 20126 39983 40165 50001 69912 76066 8252/ 333 20155 31016 70001;
0120470950999992000091303004+38070+127810FM-12+013599999V0203601N003619999999N9999999N1+01591+01441101651ADDMA1999999099831MD1410001+9999REMSYN060AAXX  13034 47095 4//// /3607 10159 20144 39983 40165 58000;EQDQ01+000082APCTEN
0161470950999992000091306004+38070+127810FM-12+013599999V0203601N003110075019N0180001N1+01561+01431101601ADDAY161061AY261061GF108991051071008001021999MA1999999099791MD1510041+9999MW1611REMSYN072AAXX  13064 47095 41568 83606 10156 20143 39979 40160 55004 76166 8572/;
0161470950999992000091309004+38070+127810FM-12+013599999V0200201N002610360019N0180001N1+01521+01361101441ADDAY161031AY261031GF108991041051008001021999MA1999999099621MD1710171+9999MW1601REMSYN072AAXX  13094 47095 41568 80205 10152 20136 39962 40144 57017 76066 8452/;
0209470950999992000091312004+38070+127810FM-12+013599999V0200201N003610360019N0180001N1+01601+01251101591ADDAA112007191GF108991041051008001021999IA1099IA2999+01509KA1120M+01741MA1999999099771MD1210151+9999REMSYN100AAXX  13124 47095 11568 80207 10160 20125 39977 40159 52015 60072 8452/ 333 10174 31015 55000 70073;
0133470950999992000091315004+38070+127810FM-12+013599999V0200201N005110360019N0180001N1+01581+01151101501ADDGF108991041051008001021999MA1999999099691MD1610081+9999REMSYN066AAXX  13154 47095 42568 80210 10158 20115 39969 40150 56008 8452/;
0144470950999992000091318004+38070+127810FM-12+013599999V0200201N005110360019N0180001N1+01591+01161101421ADDAA199000021GF108991041051008001021999MA1999999099611MD1710081+9999REMSYN066AAXX  13184 47095 32568 80210 10159 20116 39961 40142 57008 8452/;
0161470950999992000091321004+38070+127810FM-12+013599999V0200201N004610075019N0180001N1+01571+01261101371ADDAY121031AY211031GF108991061051008001021999MA1999999099561MD1810051+9999MW1601REMSYN072AAXX  13214 47095 41568 80209 10157 20126 39956 40137 58005 76021 8652/;
0231470950999992000091400004+38070+127810FM-12+013599999V0203601N003610360019N0220001N1+01701+01341101301ADDAA112000191AY161061AY221061GF108991041051008001021999IA1099IA2999+01609KA1120N+01521MA1999999099501MD1710061+9999MW1211REMSYN100AAXX  14004 47095 11572 83607 10170 20134 39950 40130 57006 69922 72162 8452/ 333 20152 31016 70074;
0161470950999992000091403004+38070+127810FM-12+013599999V0200201N005110075019N0180001N1+01811+01361101221ADDAY161031AY221031GF108991051071008001021999MA1999999099431MD1510071+9999MW1601REMSYN072AAXX  14034 47095 41568 80210 10181 20136 39943 40122 55007 76062 8572/;
0161470950999992000091406004+38070+127810FM-12+013599999V0200201N003610075019N0120001N1+01651+01461101141ADDAY161061AY261061GF108991061071008001021999MA1999999099341MD1710091+9999MW1611REMSYN072AAXX  14064 47095 41562 80207 10165 20146 39934 40114 57009 76166 8672/;
0144470950999992000091409004+38070+127810FM-12+013599999V0200201N003610360019N0180001N1+01701+01421101131ADDAA199000021GF108991041051008001021999MA1999999099331MD1510011+9999REMSYN066AAXX  14094 47095 32568 80207 10170 20142 39933 40113 55001 8452/;
0203470950999992000091412004+38070+127810FM-12+013599999V0200201N003610360019N0180001N1+01721+01351101171ADDAA112003091GF108991031051012501021999IA1099IA2999+01609KA1120M+01861MA1999999099371MD1010041+9999REMSYN094AAXX  14124 47095 12668 80207 10172 20135 39937 40117 50004 60032 8352/ 333 10186 31016 70035;
0161470950999992000091415004+38070+127810FM-12+013599999V0200201N004110075019N0200001N1+01721+01411101021ADDAY161031AY221031GF108991051071008001021999MA1999999099221MD1810151+9999MW1601REMSYN072AAXX  14154 47095 41570 80208 10172 20141 39922 40102 58015 76062 8572/;
0161470950999992000091418004+38070+127810FM-12+013599999V0200201N003610075019N0200001N1+01791+01421100841ADDAY161061AY221061GF108991051071008001021999MA1999999099061MD1710161+9999MW1601REMSYN072AAXX  14184 47095 41570 80207 10179 20142 39906 40084 57016 76062 8572/;
0161470950999992000091421004+38070+127810FM-12+013599999V0203601N004110075019N0180001N1+01681+01431100751ADDAY161031AY261031GF108991051071008001021999MA1999999098951MD1710111+9999MW1601REMSYN072AAXX  14214 47095 41568 83608 10168 20143 39895 40075 57011 76066 8572/;
0231470950999992000091500004+38070+127810FM-12+013599999V0200201N004110075019N0120001N1+01661+01521100751ADDAA112004191AY161061AY261061GF108991061071008001021999IA1099IA2999+01709KA1120N+01631MA1999999098961MD1710011+9999MW1611REMSYN100AAXX  15004 47095 11562 80208 10166 20152 39896 40075 57001 60042 76166 8672/ 333 20163 31017 70069;
0161470950999992000091503004+38070+127810FM-12+013599999V0203601N003610075019N0050001N1+01721+01631100631ADDAY161031AY261031GF108991061071008001021999MA1999999098841MD1710121+9999MW1631REMSYN072AAXX  15034 47095 41550 83607 10172 20163 39884 40063 57012 76366 8672/;
0161470950999992000091506004+38070+127810FM-12+013599999V0203601N004610075019N0050001N1+01671+01601100451ADDAY161061AY261061GF108991061071008001021999MA1999999098661MD1710181+9999MW1631REMSYN072AAXX  15064 47095 41550 83609 10167 20160 39866 40045 57018 76366 8672/;
0161470950999992000091509004+38070+127810FM-12+013599999V0203601N002110075019N0050001N1+01521+01461100521ADDAY161031AY261031GF108991061071008001021999MA1999999098721MD1310061+9999MW1631REMSYN072AAXX  15094 47095 41550 83604 10152 20146 39872 40052 53006 76366 8672/;
0231470950999992000091512004+38070+127810FM-12+013599999V0200201N004110075019N0080001N1+01631+01391100291ADDAA112056991AY161061AY261061GF108991051071008001021999IA1099IA2999+01509KA1120M+01801MA1999999098501MD1810221+9999MW1601REMSYN100AAXX  15124 47095 11558 80208 10163 20139 39850 40029 58022 60572 76066 8572/ 333 10180 31015 70605;
0161470950999992000091515004+38070+127810FM-12+013599999V0203601N002610075019N0100001N1+01581+01471100071ADDAY161031AY261031GF108991061071008001021999MA1999999098281MD1710221+9999MW1611REMSYN072AAXX  15154 47095 41560 83605 10158 20147 39828 40007 57022 76166 8672/;
0161470950999992000091518004+38070+127810FM-12+013599999V0200201N004610075019N0080001N1+01601+01421099631ADDAY161061AY261061GF108991061071008001021999MA1999999097851MD1710431+9999MW1611REMSYN072AAXX  15184 47095 41558 80209 10160 20142 39785 49963 57043 76166 8672/;
0161470950999992000091521004+38070+127810FM-12+013599999V0203401N003610075019N0110001N1+01541+01391099381ADDAY161031AY261031GF108991061071008001021999MA1999999097601MD1710251+9999MW1601REMSYN072AAXX  15214 47095 41561 83407 10154 20139 39760 49938 57025 76066 8672/;
0231470950999992000091600004+38070+127810FM-12+013599999V0203401N004610075019N0070001N1+01521+01431099111ADDAA112023991AY161061AY261061GF108991071071008001021999IA1099IA2999+01509KA1120N+01521MA1999999097341MD1710261+9999MW1631REMSYN100AAXX  16004 47095 11557 83409 10152 20143 39734 49911 57026 60242 76366 8772/ 333 20152 31015 70810;
0161470950999992000091603004+38070+127810FM-12+013599999V0203601N001510075019N0090001N1+01611+01541099011ADDAY161031AY261031GF108991061071008001021999MA1999999097241MD1810101+9999MW1631REMSYN072AAXX  16034 47095 41559 83603 10161 20154 39724 49901 58010 76366 8672/;
0161470950999992000091606004+38070+127810FM-12+013599999V0202001N002110075019N0070001N1+01731+01651099101ADDAY161061AY261061GF108991061071008001021999MA1999999097341MD1010101+9999MW1611REMSYN072AAXX  16064 47095 41557 82004 10173 20165 39734 49910 50010 76166 8672/;
0161470950999992000091609004+38070+127810FM-12+013599999V0202001N002110075019N0070001N1+01591+01511099321ADDAY161031AY261031GF108991061071008001021999MA1999999097541MD1210201+9999MW1611REMSYN072AAXX  16094 47095 41557 82004 10159 20151 39754 49932 52020 76166 8672/;
0237470950999992000091612004+38070+127810FM-12+013599999V0202001N001510075019N0070001N1+01471+01411099581ADDAA112029091AY161061AY261061GF108991061071008001021999IA1099IA2999+01509KA1120M+01791MA1999999097801MD1210261+9999MW1601REMSYN106AAXX  16124 47095 11557 82003 10147 20141 39780 49958 52026 60292 76066 8672/ 333 10179 31015 55000 70531;
0161470950999992000091615004+38070+127810FM-12+013599999V0202301N001510075019N0070001N1+01331+01251099841ADDAY161031AY261031GF108991061071008001021999MA1999999098041MD1210241+9999MW1601REMSYN072AAXX  16154 47095 41557 82303 10133 20125 39804 49984 52024 76066 8672/;
0161470950999992000091618004+38070+127810FM-12+013599999V0202301N002110075019N0100001N1+01331+01191100031ADDAY161061AY261061GF108991051071008001021999MA1999999098231MD1210191+9999MW1601REMSYN072AAXX  16184 47095 41560 82304 10133 20119 39823 40003 52019 76066 8572/;
0172470950999992000091621004+38070+127810FM-12+013599999V0202001N002110075019N0150001N1+01501+01151100191ADDAA199000021AY161031AY261031GF108991051071008001021999MA1999999098401MD1210171+9999MW1001REMSYN072AAXX  16214 47095 32565 82004 10150 20115 39840 40019 52017 70066 8572/;
0203470950999992000091700004+38070+127810FM-12+013599999V0202501N002112200019N0180001N1+01851+01221100351ADDAA112006191GF106991031051008001001011IA1019IA2999+01909KA1120N+01301MA1999999098581MD1210181+9999REMSYN094AAXX  17004 47095 32568 62504 10185 20122 39858 40035 52018 60062 83501 333 20130 30019 70348;
0144470950999992000091703004+38070+127810FM-12+013599999V0202701N004110075019N0180001N1+02081+01131100421ADDAA199000021GF105991051051008001001001MA1999999098661MD1310081+9999REMSYN066AAXX  17034 47095 32568 52708 10208 20113 39866 40042 53008 85500;
0144470950999992000091706004+38070+127810FM-12+013599999V0202901N001512200019N0220001N1+02281+01151100351ADDAA199000021GF104991041051008001001001MA1999999098601MD1710061+9999REMSYN066AAXX  17064 47095 32572 42903 10228 20115 39860 40035 57006 84500;
0163470950999992000091709004+38070+127810FM-12+013599999V0202501N002112200019N0250001N1+01991+01131100501ADDAA199000091GF102991021051008001001001MA1999999098731MD1210131+9999REMSYN066AAXX  17094 47095 32575 22504 10199 20113 39873 40050 52013 82500;EQDQ01  00002PRCP99
0203470950999992000091712004+38070+127810FM-12+013599999V0209999C000012200019N0160001N1+01331+01191100781ADDAA124006191GF102991021051012501001001IA1019IA2999+01409KA1120M+02291MA1999999098971MD1210241+9999REMSYN094AAXX  17124 47095 32666 21800 10133 20119 39897 40078 52024 82500 333 10229 30014 55081 70061;
0173470950999992000091715004+38070+127810FM-12+013599999V0209999C000012200019N0200001N1+01121+01061100921ADDAA199000091GA1001+999999999GF100991001001999999001001MA1999999099081MD1210111+9999REMSYN060AAXX  17154 47095 32970 00000 10112 20106 39908 40092 52011;EQDQ01  00002PRCP99
0173470950999992000091718004+38070+127810FM-12+013599999V0203601N000512200019N0140001N1+00901+00861101041ADDAA199000091GA1001+999999999GF100991001001999999001001MA1999999099191MD1210111+9999REMSYN060AAXX  17184 47095 32964 03601 10090 20086 39919 40104 52011;EQDQ01  00002PRCP99
0201470950999992000091721004+38070+127810FM-12+013599999V0209999C000012200019N0002001N1+00751+00721101161ADDAA199000091AY141031AY241031GA1001+999999999GF100991001001999999001001MA1999999099301MD1110111+9999MW1461REMSYN066AAXX  17214 47095 31/02 00000 10075 20072 39930 40116 51011 74644;EQDQ01  00002PRCP99
0235470950999992000091800004+38070+127810FM-12+013599999V0209999C000012200019N0200001N1+01241+01221101311ADDAA112000791AY141061AY221061GA1001+999999999GF100991001001999999001001IA1019IA2999+01909KA1120N+00711MA1999999099471MD1210171+9999MW1281REMSYN088AAXX  18004 47095 31970 00000 10124 20122 39947 40131 52017 69902 72842 333 20071 30019;
0173470950999992000091803004+38070+127810FM-12+013599999V0202501N004612200019N0280001N1+02031+00501101231ADDAA199000091GA1001+999999999GF100991001001999999001001MA1999999099461MD1510011+9999REMSYN060AAXX  18034 47095 32978 02509 10203 20050 39946 40123 55001;EQDQ01  00002PRCP99
0173470950999992000091806004+38070+127810FM-12+013599999V0202501N004112200019N0280001N1+02261+00491101191ADDAA199000091GA1001+999999999GF100991001001999999001001MA1999999099431MD1810031+9999REMSYN060AAXX  18064 47095 32978 02508 10226 20049 39943 40119 58003;EQDQ01  00002PRCP99
0173470950999992000091809004+38070+127810FM-12+013599999V0202301N002612200019N0280001N1+01911+00811101291ADDAA199000091GA1001+999999999GF100991001001999999001001MA1999999099501MD1210071+9999REMSYN060AAXX  18094 47095 32978 02305 10191 20081 39950 40129 52007;EQDQ01  00002PRCP99
0220470950999992000091812004+38070+127810FM-12+013599999V0200501N001512200019N0180001N1+01161+00881101551ADDAA199000091GA1001+999999999GF100991001001999999001001IA1019IA2999+01209KA1120M+02281MA1999999099701MD1210201+9999REMSYN076AAXX  18124 47095 32568 00503 10116 20088 39970 40155 52020 333 10228 30012;EQDQ01  00002PRCP99
0173470950999992000091815004+38070+127810FM-12+013599999V0200501N000512200019N0180001N1+00841+00771101741ADDAA199000091GA1001+999999999GF100991001001999999001001MA1999999099871MD1210171+9999REMSYN060AAXX  18154 47095 32968 00501 10084 20077 39987 40174 52017;EQDQ01  00002PRCP99
0173470950999992000091818004+38070+127810FM-12+013599999V0209999C000012200019N0180001N1+00681+00641101941ADDAA199000091GA1001+999999999GF100991001001999999001001MA1999999100051MD1210181+9999REMSYN060AAXX  18184 47095 32968 00000 10068 20064 30005 40194 52018;EQDQ01  00002PRCP99
0173470950999992000091821004+38070+127810FM-12+013599999V0209999C000012200019N0150001N1+00581+00551102041ADDAA199000091GA1001+999999999GF100991001001999999001001MA1999999100141MD1010091+9999REMSYN060AAXX  18214 47095 32965 00000 10058 20055 30014 40204 50009;EQDQ01  00002PRCP99
0220470950999992000091900004+38070+127810FM-12+013599999V0209999C000012200019N0250001N1+01321+00881102141ADDAA199000091GA1001+999999999GF100991001001999999001001IA1019IA2999+01809KA1120N+00521MA1999999100301MD1210161+9999REMSYN076AAXX  19004 47095 32975 00000 10132 20088 30030 40214 52016 333 20052 30018;EQDQ01  00002PRCP99
0173470950999992000091903004+38070+127810FM-12+013599999V0202501N002612200019N0280001N1+02141+00821102101ADDAA199000091GA1001+999999999GF100991001001999999001001MA1999999100321MD1310021+9999REMSYN060AAXX  19034 47095 32978 02505 10214 20082 30032 40210 53002;EQDQ01  00002PRCP99
0173470950999992000091906004+38070+127810FM-12+013599999V0201401N001012200019N0280001N1+02471+00661101991ADDAA199000091GA1001+999999999GF100991001001999999001001MA1999999100231MD1710091+9999REMSYN060AAXX  19064 47095 32978 01402 10247 20066 30023 40199 57009;EQDQ01  00002PRCP99
0173470950999992000091909004+38070+127810FM-12+013599999V0200901N000512200019N0280001N1+02131+01341102001ADDAA199000091GA1001+999999999GF100991001001999999001001MA1999999100211MD1010021+9999REMSYN060AAXX  19094 47095 32978 00901 10213 20134 30021 40200 50002;EQDQ01  00002PRCP99
0219470950999992000091912004+38070+127810FM-12+013599999V0200701N000512200019N0180001N1+01501+01241102241ADDAA112000191GA1001+999999999GF100991001001999999001001IA1019IA2999+01509KA1120M+02561MA1999999100401MD1210191+9999REMSYN094AAXX  19124 47095 32968 00701 10150 20124 30040 40224 52019 69912 333 10256 30015 55006 70001;
0173470950999992000091915004+38070+127810FM-12+013599999V0200901N001012200019N0180001N1+01251+01181102311ADDAA199000091GA1001+999999999GF100991001001999999001001MA1999999100461MD1210061+9999REMSYN060AAXX  19154 47095 32968 00902 10125 20118 30046 40231 52006;EQDQ01  00002PRCP99
0173470950999992000091918004+38070+127810FM-12+013599999V0203601N000512200019N0120001N1+01111+01061102391ADDAA199000091GA1001+999999999GF100991001001999999001001MA1999999100531MD1210071+9999REMSYN060AAXX  19184 47095 32962 03601 10111 20106 30053 40239 52007;EQDQ01  00002PRCP99
0173470950999992000091921004+38070+127810FM-12+013599999V0209999C000012200019N0120001N1+01081+01041102431ADDAA199000091GA1001+999999999GF100991001001999999001001MA1999999100571MD1110041+9999REMSYN060AAXX  19214 47095 32962 01800 10108 20104 30057 40243 51004;EQDQ01  00002PRCP99
0197470950999992000092000004+38070+127810FM-12+013599999V0209999C000012200019N0150001N1+01621+01301102441ADDAA124000191GF103991001001999999001011IA1019IA2999+01809KA1120N+01041MA1999999100621MD1210051+9999REMSYN088AAXX  20004 47095 32965 31400 10162 20130 30062 40244 52005 80001 333 20104 30018 70001;
0163470950999992000092003004+38070+127810FM-12+013599999V0209999C000019999999N0120001N1+02221+01531102271ADDAA199000091GF106991001001999999001011MA1999999100491MD1710131+9999REMSYN066AAXX  20034 47095 32962 60000 10222 20153 30049 40227 57013 80001;EQDQ01  00002PRCP99
0163470950999992000092006004+38070+127810FM-12+013599999V0203201N001019999999N0120001N1+02641+01381102061ADDAA199000091GF106991001001999999001011MA1999999100311MD1710181+9999REMSYN066AAXX  20064 47095 32962 63202 10264 20138 30031 40206 57018 80001;EQDQ01  00002PRCP99
0133470950999992000092009004+38070+127810FM-12+013599999V0201101N001019999999N0130001N1+02301+99999999999ADDAA199000091GF106991999999999999999999REMSYN065AAXX  20094 47095 32963 61102 10230 0170 30033 40211 50002 80001;EQDQ01  00002PRCP99
0244470950999992000092012004+38070+127810FM-12+013599999V0209999C000019999999N0090001N1+01751+01611102211ADDAA199000091AY101061AY201061GF105991031001999999031011IA1019IA2999+01709KA1120M+02641MA1999999100401MD1110071+9999MW1101REMSYN094AAXX  20124 47095 31959 50000 10175 20161 30040 40221 51007 71000 83031 333 10264 30017 55064;EQDQ01  00002PRCP99
0191470950999992000092015004+38070+127810FM-12+013599999V0200701N000512200019N0050001N1+01591+01551102191ADDAA199000091AY121031AY221031GF104991021001999999031021MA1999999100371MD1510031+9999MW1101REMSYN072AAXX  20154 47095 31950 40701 10159 20155 30037 40219 55003 71022 82032;EQDQ01  00002PRCP99
0207470950999992000092018004+38070+127810FM-12+013599999V0209999C000010006019N0008001N1+01411+01371102241ADDAA199000091AY141061AY221061GA1091+999999999GF109991091999999999999999MA1999999100401MD1210031+9999MW1471REMSYN072AAXX  20184 47095 31/08 90000 10141 20137 30040 40224 52003 74742 8////;EQDQ01  00002PRCP99
0191470950999992000092021004+38070+127810FM-12+013599999V0200701N000510360019N0020001N1+01441+01421102121ADDAA199000091AY141031AY221031GF108991021051012501021999MA1999999100291MD1610111+9999MW1101REMSYN072AAXX  20214 47095 32620 80701 10144 20142 30029 40212 56011 71042 8252/;EQDQ01  00002PRCP99
0197470950999992000092100004+38070+127810FM-12+013599999V0202501N000519999999N0120001N1+01741+01671102221ADDAA112000191GF107991999999999999999999IA1019IA2999+01909KA1120N+01381MA1999999100411MD1210121+9999REMSYN088AAXX  21004 47095 3//62 72501 10174 20167 30041 40222 52012 69912 333 20138 30019 70001;
0163470950999992000092103004+38070+127810FM-12+013599999V0200201N003610360019N0180001N1+02411+01221102141ADDAA199000091GF106991021051012501031001MA1999999100371MD1510041+9999REMSYN066AAXX  21034 47095 32668 60207 10241 20122 30037 40214 55004 82530;EQDQ01  00002PRCP99
0163470950999992000092106004+38070+127810FM-12+013599999V0200901N003110360019N0200001N1+02541+00611101981ADDAA199000091GF106991021051012501031001MA1999999100221MD1710151+9999REMSYN066AAXX  21064 47095 32670 60906 10254 20061 30022 40198 57015 82530;EQDQ01  00002PRCP99
0163470950999992000092109004+38070+127810FM-12+013599999V0200901N001510360019N0200001N1+02151+01241101991ADDAA199000091GF106991011051012501031011MA1999999100211MD1010011+9999REMSYN066AAXX  21094 47095 32670 60903 10215 20124 30021 40199 50001 81531;EQDQ01  00002PRCP99
0210470950999992000092112004+38070+127810FM-12+013599999V0209999C000010120019N0150001N1+01661+01411102141ADDAA199000091GF106991061051012501001001IA1019IA2999+01709KA1120M+02581MA1999999100321MD1210111+9999REMSYN082AAXX  21124 47095 32665 60000 10166 20141 30032 40214 52011 86500 333 10258 30017;EQDQ01  00002PRCP99
0163470950999992000092115004+38070+127810FM-12+013599999V0201801N001010120019N0120001N1+01611+01431102171ADDAA199000091GF106991061051012501001001MA1999999100341MD1310021+9999REMSYN066AAXX  21154 47095 32662 61802 10161 20143 30034 40217 53002 86500;EQDQ01  00002PRCP99
0163470950999992000092118004+38070+127810FM-12+013599999V0201101N001510120019N0120001N1+01571+01441102061ADDAA199000091GF106991061051012501001001MA1999999100231MD1710111+9999REMSYN066AAXX  21184 47095 32662 61103 10157 20144 30023 40206 57011 86500;EQDQ01  00002PRCP99
0163470950999992000092121004+38070+127810FM-12+013599999V0200201N000510075019N0140001N1+01571+01451101931ADDAA199000091GF108991051051008001021999MA1999999100111MD1710121+9999REMSYN066AAXX  21214 47095 32564 80201 10157 20145 30011 40193 57012 8552/;EQDQ01  00002PRCP99
0210470950999992000092200004+38070+127810FM-12+013599999V0201401N000510360019N0180001N1+01791+01481101991ADDAA199000091GF108991041051008001021999IA1019IA2999+01909KA1120N+01521MA1999999100181MD1210071+9999REMSYN082AAXX  22004 47095 32568 81401 10179 20148 30018 40199 52007 8452/ 333 20152 30019;EQDQ01  00002PRCP99
0163470950999992000092203004+38070+127810FM-12+013599999V0202001N001010360019N0160001N1+02241+01531101811ADDAA199000091GF106991021011008001031001MA1999999100031MD1510151+9999REMSYN066AAXX  22034 47095 32566 62002 10224 20153 30003 40181 55015 82130;EQDQ01  00002PRCP99
0163470950999992000092206004+38070+127810FM-12+013599999V0200501N002610075019N0170001N1+02571+01491101461ADDAA199000091GF105991051011008001001001MA1999999099711MD1710321+9999REMSYN066AAXX  22064 47095 32567 50505 10257 20149 39971 40146 57032 85100;EQDQ01  00002PRCP99
0179470950999992000092209004+38070+127810FM-12+013599999V0201801N000510360019N0180001N1+02271+01631101471ADDAA199000091GF106991041051012501031001MA1999999099711MD1810011+9999REMSYN066AAXX  22094 47095 32668 61801 10227 20163 39971 40147 58000 84530;EQDQ01+000002APC3  Q02  00002PRCP99
0203470950999992000092212004+38070+127810FM-12+013599999V0200501N001510120019N0180001N1+01901+01681101601ADDAA112000791GF106991061051012501001001IA1019IA2999+02009KA1120M+02601MA1999999099811MD1210101+9999REMSYN094AAXX  22124 47095 32668 60503 10190 20168 39981 40160 52010 69902 86500 333 10260 30020 55046;
0161470950999992000092215004+38070+127810FM-12+013599999V0200501N001010120019N0150001N1+01751+01591101571ADDAY181031AY221031GF107991071051012501001001MA1999999099771MD1310041+9999MW1251REMSYN072AAXX  22154 47095 41665 70502 10175 20159 39977 40157 53004 72582 87500;
0144470950999992000092218004+38070+127810FM-12+013599999V0200501N001010075019N0120001N1+01721+01471101491ADDAA199000021GF107991051051008001021001MA1999999099691MD1710081+9999REMSYN066AAXX  22184 47095 32562 70502 10172 20147 39969 40149 57008 85520;
0144470950999992000092221004+38070+127810FM-12+013599999V0200201N001012200019N0150001N1+01571+01411101521ADDAA199000021GF103991031051012501001001MA1999999099711MD1210021+9999REMSYN066AAXX  22214 47095 32665 30202 10157 20141 39971 40152 52002 83500;
0197470950999992000092300004+38070+127810FM-12+013599999V0200201N000512200019N0200001N1+01961+01351101571ADDAA112000791GF101991011051012501001001IA1019IA2999+02309KA1120N+01491MA1999999099781MD1310071+9999REMSYN088AAXX  23004 47095 32670 10201 10196 20135 39978 40157 53007 69902 81500 333 20149 30023;
0144470950999992000092303004+38070+127810FM-12+013599999V0202701N001512200019N0220001N1+02371+01311101431ADDAA199000021GF102991021051012501001001MA1999999099671MD1610111+9999REMSYN066AAXX  23034 47095 32672 22703 10237 20131 39967 40143 56011 82500;
0163470950999992000092306004+38070+127810FM-12+013599999V0202701N001512200019N0240001N1+02481+01211101201ADDAA199000091GF102991021011008001001001MA1999999099451MD1710221+9999REMSYN066AAXX  23064 47095 32574 22703 10248 20121 39945 40120 57022 82100;EQDQ01  00002PRCP99
0163470950999992000092309004+38070+127810FM-12+013599999V0209999C000012200019N0250001N1+02251+01551101201ADDAA199000091GF101991011051012501001001MA1999999099431MD1810021+9999REMSYN066AAXX  23094 47095 32675 10000 10225 20155 39943 40120 58002 81500;EQDQ01  00002PRCP99
0216470950999992000092312004+38070+127810FM-12+013599999V0200201N000519999999N0110001N1+01671+01441101421ADDAA199000091GF105991021001999999031021IA1019IA2999+01809KA1120M+02591MA1999999099611MD1210181+9999REMSYN088AAXX  23124 47095 32961 50201 10167 20144 39961 40142 52018 82032 333 10259 30018 55098;EQDQ01  00002PRCP99
0163470950999992000092315004+38070+127810FM-12+013599999V0203601N000512200019N0080001N1+01481+01401101471ADDAA199000091GF102991001001999999001021MA1999999099651MD1210041+9999REMSYN066AAXX  23154 47095 31958 23601 10148 20140 39965 40147 52004 80002;EQDQ01  00002PRCP99
0191470950999992000092318004+38070+127810FM-12+013599999V0209999C000010360019N0060001N1+01511+01451101461ADDAA199000091AY121061AY221061GF108991041051012501021999MA1999999099641MD1710011+9999MW1101REMSYN072AAXX  23184 47095 32656 82700 10151 20145 39964 40146 57001 71022 8452/;EQDQ01  00002PRCP99
0191470950999992000092321004+38070+127810FM-12+013599999V0200501N000510360019N0080001N1+01461+01401101401ADDAA199000091AY121031AY221031GF108991031051012501021999MA1999999099581MD1810061+9999MW1101REMSYN072AAXX  23214 47095 31658 80501 10146 20140 39958 40140 58006 71022 8352/;EQDQ01  00002PRCP99
0210470950999992000092400004+38070+127810FM-12+013599999V0209999C000010360019N0100001N1+01791+01471101481ADDAA199000091GF107991011051012501031001IA1019IA2999+02109KA1120N+01431MA1999999099681MD1210101+9999REMSYN082AAXX  24004 47095 32660 70000 10179 20147 39968 40148 52010 81530 333 20143 30021;EQDQ01  00002PRCP99
0163470950999992000092403004+38070+127810FM-12+013599999V0202301N002610360019N0100001N1+02111+01561101351ADDAA199000091GF107991031051012501031001MA1999999099581MD1610101+9999REMSYN066AAXX  24034 47095 32660 72305 10211 20156 39958 40135 56010 83530;EQDQ01  00002PRCP99
0163470950999992000092406004+38070+127810FM-12+013599999V0202301N002610120019N0100001N1+02341+01461101121ADDAA199000091GF106991061051012501001001MA1999999099371MD1710211+9999REMSYN066AAXX  24064 47095 32660 62305 10234 20146 39937 40112 57021 86500;EQDQ01  00002PRCP99
0163470950999992000092409004+38070+127810FM-12+013599999V0201801N001012200019N0100001N1+02121+01571101161ADDAA199000091GF106991011051012501001011MA1999999099391MD1710021+9999REMSYN066AAXX  24094 47095 32660 61802 10212 20157 39939 40116 57002 81501;EQDQ01  00002PRCP99
0238470950999992000092412004+38070+127810FM-12+013599999V0209999C000012200019N0090001N1+01631+01501101331ADDAA199000091AY121061AY221061GF106991021051012501001011IA1019IA2999+01709KA1120M+02421MA1999999099521MD1210131+9999MW1101REMSYN088AAXX  24124 47095 32659 60000 10163 20150 39952 40133 52013 71022 82501 333 10242 30017;EQDQ01  00002PRCP99
0191470950999992000092415004+38070+127810FM-12+013599999V0209999C000010120019N0080001N1+01621+01551101341ADDAA199000091AY121031AY221031GF105991051051012501001001MA1999999099531MD1310011+9999MW1101REMSYN072AAXX  24154 47095 32658 50000 10162 20155 39953 40134 53001 71022 85500;EQDQ01  00002PRCP99
0191470950999992000092418004+38070+127810FM-12+013599999V0209999C000010120019N0050001N1+01531+01491101311ADDAA199000091AY121061AY221061GF105991051051012501001001MA1999999099501MD1710031+9999MW1101REMSYN072AAXX  24184 47095 32650 53200 10153 20149 39950 40131 57003 71022 85500;EQDQ01  00002PRCP99
0191470950999992000092421004+38070+127810FM-12+013599999V0209999C000010360019N0070001N1+01611+01561101311ADDAA199000091AY121031AY221031GF108991041051012501011999MA1999999099511MD1210011+9999MW1101REMSYN072AAXX  24214 47095 32657 80000 10161 20156 39951 40131 52001 71022 8451/;EQDQ01  00002PRCP99
0238470950999992000092500004+38070+127810FM-12+013599999V0200501N000510360019N0020001N1+01761+01691101411ADDAA199000091AY121061AY221061GF108991021051012501021999IA1019IA2999+01909KA1120N+01531MA1999999099611MD1810101+9999MW1101REMSYN088AAXX  25004 47095 31620 80501 10176 20169 39961 40141 58010 71022 8252/ 333 20153 30019;EQDQ01  00002PRCP99
0163470950999992000092503004+38070+127810FM-12+013599999V0202701N001012200019N0170001N1+02331+01251101331ADDAA199000091GF103991031011008001001001MA1999999099571MD1510041+9999REMSYN066AAXX  25034 47095 32567 32702 10233 20125 39957 40133 55004 83100;EQDQ01  00002PRCP99
0163470950999992000092506004+38070+127810FM-12+013599999V0202701N003112200019N0220001N1+02341+01031101251ADDAA199000091GF102991021051012501001001MA1999999099491MD1710081+9999REMSYN066AAXX  25064 47095 32672 22706 10234 20103 39949 40125 57008 82500;EQDQ01  00002PRCP99
0173470950999992000092509004+38070+127810FM-12+013599999V0202001N001012200019N0280001N1+02151+00901101291ADDAA199000091GA1001+999999999GF100991001001999999001001MA1999999099521MD1110031+9999REMSYN060AAXX  25094 47095 32978 02002 10215 20090 39952 40129 51003;EQDQ01  00002PRCP99
0173470950999992000092515004+38070+127810FM-12+013599999V0200201N001512200019N0200001N1+01121+01021101751ADDAA199000091GA1001+999999999GF100991001001999999001001MA1999999099901MD1210121+9999REMSYN060AAXX  25154 47095 32970 00203 10112 20102 39990 40175 52012;EQDQ01  00002PRCP99
0173470950999992000092518004+38070+127810FM-12+013599999V0209999C000012200019N0180001N1+01031+00981101821ADDAA199000091GA1001+999999999GF100991001001999999001001MA1999999099961MD1210061+9999REMSYN060AAXX  25184 47095 32968 00000 10103 20098 39996 40182 52006;EQDQ01  00002PRCP99
0173470950999992000092521004+38070+127810FM-12+013599999V0200901N000512200019N0180001N1+00951+00901101931ADDAA199000091GA1001+999999999GF100991001001999999001001MA1999999100071MD1210111+9999REMSYN060AAXX  25214 47095 32968 00901 10095 20090 30007 40193 52011;EQDQ01  00002PRCP99
0207470950999992000092600004+38070+127810FM-12+013599999V0202301N000512200019N0200001N1+01701+01201102011ADDAA112000191GA1001+999999999GF100991001001999999001001IA1019IA2999+02109KA1120N+00891MA1999999100191MD1210121+9999REMSYN082AAXX  26004 47095 32970 02301 10170 20120 30019 40201 52012 69912 333 20089 30021;
0163470950999992000092603004+38070+127810FM-12+013599999V0202301N001512200019N0220001N1+02311+01041101901ADDAA199000091GF101991011051008001001001MA1999999100131MD1510061+9999REMSYN066AAXX  26034 47095 32572 12303 10231 20104 30013 40190 55006 81500;EQDQ01  00002PRCP99
0163470950999992000092606004+38070+127810FM-12+013599999V0203401N002112200019N0250001N1+02481+00671101751ADDAA199000091GF101991011051008001001001MA1999999099991MD1710141+9999REMSYN066AAXX  26064 47095 32575 13404 10248 20067 39999 40175 57014 81500;EQDQ01  00002PRCP99
0163470950999992000092609004+38070+127810FM-12+013599999V0201101N000512200019N0250001N1+02081+01081101791ADDAA199000091GF104991001001999999001011MA1999999100001MD1010011+9999REMSYN066AAXX  26094 47095 32975 41101 10208 20108 30000 40179 50001 80001;EQDQ01  00002PRCP99
0203470950999992000092612004+38070+127810FM-12+013599999V0209999C000012200019N0160001N1+01371+01171101991ADDAA124000191GF104991021051012501001021IA1019IA2999+01509KA1120M+02551MA1999999100151MD1210151+9999REMSYN094AAXX  26124 47095 32666 42000 10137 20117 30015 40199 52015 82502 333 10255 30015 55101 70001;
0163470950999992000092615004+38070+127810FM-12+013599999V0209999C000012200019N0120001N1+01221+01071102061ADDAA199000091GF103991021051012501001021MA1999999100211MD1210061+9999REMSYN066AAXX  26154 47095 32662 30000 10122 20107 30021 40206 52006 82502;EQDQ01  00002PRCP99
0163470950999992000092618004+38070+127810FM-12+013599999V0209999C000012200019N0120001N1+01041+00981102101ADDAA199000091GF102991011051012501001021MA1999999100231MD1010021+9999REMSYN066AAXX  26184 47095 32662 20000 10104 20098 30023 40210 50002 81502;EQDQ01  00002PRCP99
0163470950999992000092621004+38070+127810FM-12+013599999V0201601N000512200019N0200001N1+00971+00931102161ADDAA199000091GF101991011001999999031001MA1999999100291MD1210061+9999REMSYN066AAXX  26214 47095 32970 11601 10097 20093 30029 40216 52006 81030;EQDQ01  00002PRCP99
0210470950999992000092700004+38070+127810FM-12+013599999V0209999C000012200019N0280001N1+01621+01021102211ADDAA199000091GF101991011001999999031001IA1019IA2999+02009KA1120N+00851MA1999999100391MD1210101+9999REMSYN082AAXX  27004 47095 32978 10900 10162 20102 30039 40221 52010 81030 333 20085 30020;EQDQ01  00002PRCP99
0163470950999992000092703004+38070+127810FM-12+013599999V0209999C000012200019N0280001N1+02401+00921102031ADDAA199000091GF104991001001999999001011MA1999999100271MD1710121+9999REMSYN066AAXX  27034 47095 32978 40000 10240 20092 30027 40203 57012 80001;EQDQ01  00002PRCP99
0163470950999992000092706004+38070+127810FM-12+013599999V0202901N001512200019N0280001N1+02571+00741101821ADDAA199000091GF104991001001999999001011MA1999999100061MD1710211+9999REMSYN066AAXX  27064 47095 32978 42903 10257 20074 30006 40182 57021 80001;EQDQ01  00002PRCP99
0163470950999992000092709004+38070+127810FM-12+013599999V0201401N001019999999N0280001N1+02191+01101101861ADDAA199000091GF105991001001999999001021MA1999999100081MD1510021+9999REMSYN066AAXX  27094 47095 32978 51402 10219 20110 30008 40186 55002 80002;EQDQ01  00002PRCP99
0210470950999992000092712004+38070+127810FM-12+013599999V0200701N001512200019N0180001N1+01511+01171102011ADDAA199000091GF105991021051012501001011IA1019IA2999+01609KA1120M+02641MA1999999100181MD1210101+9999REMSYN082AAXX  27124 47095 32668 50703 10151 20117 30018 40201 52010 82501 333 10264 30016;EQDQ01  00002PRCP99
0163470950999992000092715004+38070+127810FM-12+013599999V0209999C000010360019N0180001N1+01321+01181102001ADDAA199000091GF106991021051012501031001MA1999999100161MD1310021+9999REMSYN066AAXX  27154 47095 32668 60000 10132 20118 30016 40200 53002 82530;EQDQ01  00002PRCP99
0163470950999992000092718004+38070+127810FM-12+013599999V0209999C000010120019N0150001N1+01291+01181101971ADDAA199000091GF106991061051012501001001MA1999999100131MD1510031+9999REMSYN066AAXX  27184 47095 32665 60000 10129 20118 30013 40197 55003 86500;EQDQ01  00002PRCP99
0163470950999992000092721004+38070+127810FM-12+013599999V0200501N001010075019N0150001N1+01281+01091102051ADDAA199000091GF108991061051008001021999MA1999999100201MD1210071+9999REMSYN066AAXX  27214 47095 32565 80502 10128 20109 30020 40205 52007 8652/;EQDQ01  00002PRCP99
0210470950999992000092800004+38070+127810FM-12+013599999V0202701N000510360019N0200001N1+01551+01071102051ADDAA199000091GF107991021051012501021001IA1019IA2999+01809KA1120N+01241MA1999999100221MD1210021+9999REMSYN082AAXX  28004 47095 32670 72701 10155 20107 30022 40205 52002 82520 333 20124 30018;EQDQ01  00002PRCP99
0163470950999992000092803004+38070+127810FM-12+013599999V0202901N000510360019N0200001N1+01981+01071102041ADDAA199000091GF108991021051012501011999MA1999999100241MD1510021+9999REMSYN066AAXX  28034 47095 32670 82901 10198 20107 30024 40204 55002 8251/;EQDQ01  00002PRCP99
0163470950999992000092806004+38070+127810FM-12+013599999V0201101N000510360019N0250001N1+01931+01271101901ADDAA199000091GF108991021051012501021999MA1999999100101MD1510141+9999REMSYN066AAXX  28064 47095 32675 81101 10193 20127 30010 40190 55014 8252/;EQDQ01  00002PRCP99
0163470950999992000092809004+38070+127810FM-12+013599999V0202301N001010360019N0200001N1+01741+01161101971ADDAA199000091GF108991031051012501021999MA1999999100161MD1210061+9999REMSYN066AAXX  28094 47095 32670 82302 10174 20116 30016 40197 52006 8352/;EQDQ01  00002PRCP99
0216470950999992000092812004+38070+127810FM-12+013599999V0200201N002110360019N0150001N1+01531+01251101931ADDAA199000091GF108991021051012501021999IA1019IA2999+01609KA1120M+02011MA1999999100101MD1810061+9999REMSYN088AAXX  28124 47095 32665 80204 10153 20125 30010 40193 58006 8252/ 333 10201 30016 55000;EQDQ01  00002PRCP99
0163470950999992000092815004+38070+127810FM-12+013599999V0200901N000510360019N0150001N1+01451+01211101881ADDAA199000091GF108991031051012501011999MA1999999100051MD1610051+9999REMSYN066AAXX  28154 47095 32665 80901 10145 20121 30005 40188 56005 8351/;EQDQ01  00002PRCP99
0163470950999992000092818004+38070+127810FM-12+013599999V0209999C000010360019N0150001N1+01261+01111101841ADDAA199000091GF106991021051012501011001MA1999999100001MD1110051+9999REMSYN066AAXX  28184 47095 32665 60000 10126 20111 30000 40184 51005 82510;EQDQ01  00002PRCP99
0163470950999992000092821004+38070+127810FM-12+013599999V0209999C000012200019N0180001N1+01251+01161101811ADDAA199000091GF102991021001999999031001MA1999999099971MD1810031+9999REMSYN066AAXX  28214 47095 32968 20000 10125 20116 39997 40181 58003 82030;EQDQ01  00002PRCP99
0220470950999992000092900004+38070+127810FM-12+013599999V0203601N000512200019N0220001N1+01811+00971101801ADDAA199000091GA1001+999999999GF100991001001999999001001IA1019IA2999+02209KA1120N+01051MA1999999100001MD1810031+9999REMSYN076AAXX  29004 47095 32972 03601 10181 20097 30000 40180 58003 333 20105 30022;EQDQ01  00002PRCP99
0163470950999992000092903004+38070+127810FM-12+013599999V0200201N002112200019N0280001N1+02491+00691101571ADDAA199000091GF102991001001999999001011MA1999999099811MD1710191+9999REMSYN066AAXX  29034 47095 32978 20204 10249 20069 39981 40157 57019 80001;EQDQ01  00002PRCP99
0163470950999992000092906004+38070+127810FM-12+013599999V0203401N001512200019N0280001N1+02691+00571101371ADDAA199000091GF103991001001999999001011MA1999999099631MD1710181+9999REMSYN066AAXX  29064 47095 32978 33403 10269 20057 39963 40137 57018 80001;EQDQ01  00002PRCP99
0163470950999992000092909004+38070+127810FM-12+013599999V0201101N001010900019N0250001N1+02151+01171101431ADDAA199000091GF106991021051012501001021MA1999999099661MD1010031+9999REMSYN066AAXX  29094 47095 32675 61102 10215 20117 39966 40143 50003 82502;EQDQ01  00002PRCP99
0216470950999992000092912004+38070+127810FM-12+013599999V0203601N000512200019N0180001N1+01401+01161101601ADDAA199000091GF102991021001999999031001IA1019IA2999+01509KA1120M+02751MA1999999099771MD1010111+9999REMSYN088AAXX  29124 47095 32968 23601 10140 20116 39977 40160 50011 82030 333 10275 30015 55093;EQDQ01  00002PRCP99
0163470950999992000092915004+38070+127810FM-12+013599999V0209999C000012200019N0130001N1+01201+01081101661ADDAA199000091GF104991011001999999031021MA1999999099821MD1810051+9999REMSYN066AAXX  29154 47095 32963 40000 10120 20108 39982 40166 58005 81032;EQDQ01  00002PRCP99
0163470950999992000092918004+38070+127810FM-12+013599999V0209999C000012200019N0110001N1+01091+01031101661ADDAA199000091GF102991011001999999031021MA1999999099811MD1710011+9999REMSYN066AAXX  29184 47095 32961 20000 10109 20103 39981 40166 57001 81032;EQDQ01  00002PRCP99
0163470950999992000092921004+38070+127810FM-12+013599999V0209999C000019999999N0180001N1+01081+01031101641ADDAA199000091GF107991071001999999021001MA1999999099791MD1710021+9999REMSYN066AAXX  29214 47095 32968 70000 10108 20103 39979 40164 57002 87020;EQDQ01  00002PRCP99
0210470950999992000093000004+38070+127810FM-12+013599999V0203601N000519999999N0180001N1+01531+01141101731ADDAA199000091GF107991071001999999031001IA1019IA2999+01909KA1120N+01031MA1999999099911MD1210121+9999REMSYN082AAXX  30004 47095 32968 73601 10153 20114 39991 40173 52012 87030 333 20103 30019;EQDQ01  00002PRCP99
0163470950999992000093003004+38070+127810FM-12+013599999V0201801N001019999999N0180001N1+02191+01271101611ADDAA199000091GF106991021001999999031011MA1999999099831MD1510081+9999REMSYN066AAXX  30034 47095 32968 61802 10219 20127 39983 40161 55008 82031;EQDQ01  00002PRCP99
0163470950999992000093006004+38070+127810FM-12+013599999V0202301N002119999999N0200001N1+02411+01121101431ADDAA199000091GF105991001001999999001011MA1999999099671MD1710161+9999REMSYN066AAXX  30064 47095 32970 52304 10241 20112 39967 40143 57016 80001;EQDQ01  00002PRCP99
0163470950999992000093009004+38070+127810FM-12+013599999V0201101N001012200019N0220001N1+02101+01281101481ADDAA199000091GF103991001001999999001011MA1999999099701MD1210031+9999REMSYN066AAXX  30094 47095 32972 31102 10210 20128 39970 40148 52003 80001;EQDQ01  00002PRCP99
0210470950999992000093012004+38070+127810FM-12+013599999V0200201N001012200019N0180001N1+01501+01311101681ADDAA199000091GF105991021051012501001011IA1019IA2999+01609KA1120M+02481MA1999999099851MD1210151+9999REMSYN082AAXX  30124 47095 32668 50202 10150 20131 39985 40168 52015 82501 333 10248 30016;EQDQ01  00002PRCP99
0143470950999992000093015004+38070+127810FM-12+013599999V0200501N001012200019N0150001N1+01261+01181101771ADDAA199000091GF103991001001999999001011MA1999999099931REMSYN060AAXX  30154 47095 32965 30502 10126 20118 39993 40177 80001;EQDQ01  00002PRCP99
0143470950999992000093018004+38070+127810FM-12+013599999V0209999C000012200019N0120001N1+01181+01141101791ADDAA199000091GF102991001001999999001011MA1999999099941REMSYN060AAXX  30184 47095 32962 21800 10118 20114 39994 40179 80001;EQDQ01  00002PRCP99
0163470950999992000093021004+38070+127810FM-12+013599999V0203401N000512200019N0140001N1+01001+00961101791ADDAA199000091GF102991001001999999001011MA1999999099931MD1810011+9999REMSYN066AAXX  30214 47095 32964 23401 10100 20096 39993 40179 58001 80001;EQDQ01  00002PRCP99
0242470950999992000100100004+38070+127810FM-12+013599999V0209999C000019999999N0180001N1+01571+01311101751ADDAA199000091GF107991051001999999031021IA1019IA2999+02009KA1120N+01001MA1999999099931MD1710041+9999REMSYN082AAXX  01004 47095 32968 70000 10157 20131 39993 40175 52000 85032 333 20100 30020;EQDQ01+000022APCTENQ02+000002APC3  Q03  00002PRCP99
0148470950999992000100103004+38070+127810FM-12+013599999V0202901N000519999999N0200001N1+02371+01361999999ADDAA199000091GF107991999999012501999999MA1999999099791REMSYN065AAXX  01034 47095 32670 72901 10237 20136 39979 4055 57014 81530;EQDQ01  00002PRCP99
0163470950999992000100106004+38070+127810FM-12+013599999V0202501N002110360019N0200001N1+02341+01251101371ADDAA199000091GF107991021051012501011999MA1999999099611MD1710181+9999REMSYN066AAXX  01064 47095 32670 72504 10234 20125 39961 40137 57018 8251/;EQDQ01  00002PRCP99
0163470950999992000100109004+38070+127810FM-12+013599999V0201801N001010360019N0200001N1+02061+01571101391ADDAA199000091GF108991021051012501021999MA1999999099621MD1810011+9999REMSYN066AAXX  01094 47095 32670 81802 10206 20157 39962 40139 58001 8252/;EQDQ01  00002PRCP99
0216470950999992000100112004+38070+127810FM-12+013599999V0209999C000010360019N0120001N1+01701+01521101461ADDAA199000091GF108991021051012501011999IA1019IA2999+01809KA1120M+02461MA1999999099651MD1210031+9999REMSYN088AAXX  01124 47095 32662 80000 10170 20152 39965 40146 52003 8251/ 333 10246 30018 55011;EQDQ01  00002PRCP99
0191470950999992000100115004+38070+127810FM-12+013599999V0200501N001010360019N0080001N1+01441+01371101441ADDAA199000091AY121031AY221031GF105991021051012501031001MA1999999099621MD1310031+9999MW1101REMSYN072AAXX  01154 47095 31658 50502 10144 20137 39962 40144 53003 71022 82530;EQDQ01  00002PRCP99
0191470950999992000100118004+38070+127810FM-12+013599999V0203601N001010360019N0060001N1+01321+01271101371ADDAA199000091AY121061AY221061GF107991021051012501031001MA1999999099541MD1710081+9999MW1101REMSYN072AAXX  01184 47095 31656 73602 10132 20127 39954 40137 57008 71022 82530;EQDQ01  00002PRCP99
0191470950999992000100121004+38070+127810FM-12+013599999V0209999C000010360019N0030001N1+01341+01311101321ADDAA199000091AY121031AY221031GF108991021051012501021999MA1999999099501MD1710041+9999MW1101REMSYN072AAXX  01214 47095 31630 80000 10134 20131 39950 40132 57004 71022 8252/;EQDQ01  00002PRCP99
0204470950999992000100200004+38070+127810FM-12+013599999V0200201N000519999999N0090001N1+01521+01471101361ADDAA199000091GF108991999999012501999999IA1019IA2999+01709KA1120N+01311MA1999999099541MD1510041+9999REMSYN076AAXX  02004 47095 32659 80201 10152 20147 39954 40136 55004 333 20131 30017;EQDQ01  00002PRCP99
0163470950999992000100203004+38070+127810FM-12+013599999V0202901N000510900019N0110001N1+01981+01541101191ADDAA199000091GF106991021051012501001021MA1999999099411MD1710131+9999REMSYN066AAXX  02034 47095 32661 62901 10198 20154 39941 40119 57013 82502;EQDQ01  00002PRCP99
0163470950999992000100206004+38070+127810FM-12+013599999V0202301N003610360019N0150001N1+02221+01161100961ADDAA199000091GF106991021051008001031001MA1999999099201MD1710211+9999REMSYN066AAXX  02064 47095 32565 62307 10222 20116 39920 40096 57021 82530;EQDQ01  00002PRCP99
0163470950999992000100209004+38070+127810FM-12+013599999V0202301N002610075019N0150001N1+01951+01341101001ADDAA199000091GF105991051051008001001001MA1999999099221MD1210021+9999REMSYN066AAXX  02094 47095 32565 52305 10195 20134 39922 40100 52002 85500;EQDQ01  00002PRCP99
0244470950999992000100212004+38070+127810FM-12+013599999V0209999C000010120019N0080001N1+01551+01351101161ADDAA199000091AY101061AY201061GF105991051051012501001001IA1019IA2999+01609KA1120M+02311MA1999999099351MD1210131+9999MW1101REMSYN094AAXX  02124 47095 32658 50000 10155 20135 39935 40116 52013 71000 85500 333 10231 30016 55039;EQDQ01  00002PRCP99
0217470950999992000100215004+38070+127810FM-12+013599999V0200201N001012200019N0060001N1+01291+01231101181ADDAA199000091AY121031AY221031GA1001+999999999GF100991001001999999001001MA1999999099351MD1310021+9999MW1101REMSYN066AAXX  02154 47095 31956 00202 10129 20123 39935 40118 53000 71022;EQDQ01+000002APC3  Q02  00002PRCP99
0191470950999992000100218004+38070+127810FM-12+013599999V0209999C000012200019N0002001N1+01121+01091101221ADDAA199000091AY141061AY221061GF101991011051012501001001MA1999999099381MD1310031+9999MW1461REMSYN072AAXX  02184 47095 31602 10000 10112 20109 39938 40122 53003 74642 81500;EQDQ01  00002PRCP99
0191470950999992000100221004+38070+127810FM-12+013599999V0200201N000519999999N0003001N1+01071+01051101301ADDAA199000091AY141031AY241031GF108991999999999999999999MA1999999099451MD1110071+9999MW1431REMSYN072AAXX  02214 47095 31/03 80201 10107 20105 39945 40130 51007 74344 8////;EQDQ01  00002PRCP99
0254470950999992000100300004+38070+127810FM-12+013599999V0209999C000019999999N0003001N1+01201+01191101411ADDAA199000091AY141061AY241061GF108991999999999999999999IA1019IA2999+01709KA1120N+01041MA1999999099571MD1210121+9999MW1451REMSYN088AAXX  03004 47095 31/03 80000 10120 20119 39957 40141 52012 74544 89/// 333 20104 30017;EQDQ01+000092SCOTLCQ02  00002PRCP99
0163470950999992000100303004+38070+127810FM-12+013599999V0200201N001012200019N0150001N1+01961+00881101291ADDAA199000091GF101991011051012501001001MA1999999099501MD1510071+9999REMSYN066AAXX  03034 47095 32665 10202 10196 20088 39950 40129 55007 81500;EQDQ01  00002PRCP99
0173470950999992000100306004+38070+127810FM-12+013599999V0202301N002612200019N0220001N1+02121+00641101211ADDAA199000091GA1001+999999999GF100991001001999999001001MA1999999099441MD1810061+9999REMSYN060AAXX  03064 47095 32972 02305 10212 20064 39944 40121 58006;EQDQ01  00002PRCP99
0173470950999992000100309004+38070+127810FM-12+013599999V0202701N001512200019N0220001N1+01801+00531101291ADDAA199000091GA1001+999999999GF100991001001999999001001MA1999999099501MD1010061+9999REMSYN060AAXX  03094 47095 32972 02703 10180 20053 39950 40129 50006;EQDQ01  00002PRCP99
0210470950999992000100312004+38070+127810FM-12+013599999V0209999C000012200019N0180001N1+01061+00871101521ADDAA199000091GF102991021051012501001001IA1019IA2999+01209KA1120M+02131MA1999999099671MD1210171+9999REMSYN082AAXX  03124 47095 32668 20000 10106 20087 39967 40152 52017 82500 333 10213 30012;EQDQ01  00002PRCP99
0173470950999992000100315004+38070+127810FM-12+013599999V0200201N001012200019N0150001N1+00751+00661101631ADDAA199000091GA1001+999999999GF100991001001999999001001MA1999999099751MD1210081+9999REMSYN060AAXX  03154 47095 32965 00202 10075 20066 39975 40163 52008;EQDQ01  00002PRCP99
0173470950999992000100318004+38070+127810FM-12+013599999V0209999C000012200019N0150001N1+00651+00591101671ADDAA199000091GA1001+999999999GF100991001001999999001001MA1999999099791MD1010041+9999REMSYN060AAXX  03184 47095 32965 00500 10065 20059 39979 40167 50004;EQDQ01  00002PRCP99
0163470950999992000100321004+38070+127810FM-12+013599999V0201601N000512200019N0150001N1+00601+00561101831ADDAA199000091GF102991001001999999001011MA1999999099941MD1110151+9999REMSYN066AAXX  03214 47095 32965 21601 10060 20056 39994 40183 51015 80001;EQDQ01  00002PRCP99
0210470950999992000100400004+38070+127810FM-12+013599999V0202501N000519999999N0180001N1+01051+00881101911ADDAA199000091GF107991041001999999031021IA1019IA2999+01609KA1120N+00551MA1999999100051MD1810111+9999REMSYN082AAXX  04004 47095 32968 72501 10105 20088 30005 40191 58011 84032 333 20055 30016;EQDQ01  00002PRCP99
0163470950999992000100403004+38070+127810FM-12+013599999V0200501N001019999999N0200001N1+01991+00641101761ADDAA199000091GF107991041001999999031021MA1999999099971MD1710081+9999REMSYN066AAXX  04034 47095 32970 70502 10199 20064 39997 40176 57008 84032;EQDQ01  00002PRCP99
0163470950999992000100406004+38070+127810FM-12+013599999V0202001N001010360019N0220001N1+01731+00921101751ADDAA199000091GF108991041051012501021999MA1999999099951MD1010021+9999REMSYN066AAXX  04064 47095 32672 82002 10173 20092 39995 40175 50002 8452/;EQDQ01  00002PRCP99
0163470950999992000100409004+38070+127810FM-12+013599999V0201801N001010360019N0220001N1+01661+00951101811ADDAA199000091GF108991041051012501021999MA1999999099991MD1210041+9999REMSYN066AAXX  04094 47095 32672 81802 10166 20095 39999 40181 52004 8452/;EQDQ01  00002PRCP99
0216470950999992000100412004+38070+127810FM-12+013599999V0209999C000010360019N0120001N1+01351+01071101931ADDAA199000091GF107991021051012501031001IA1019IA2999+01509KA1120M+02061MA1999999100101MD1210111+9999REMSYN088AAXX  04124 47095 32662 70000 10135 20107 30010 40193 52011 82530 333 10206 30015 55046;EQDQ01  00002PRCP99
0161470950999992000100415004+38070+127810FM-12+013599999V0209999C000010360019N0150001N1+01361+01171101971ADDAY121031AY211031GF108991031051012501021999MA1999999100131MD1810031+9999MW1601REMSYN072AAXX  04154 47095 41665 80000 10136 20117 30013 40197 58003 76021 8352/;
0144470950999992000100418004+38070+127810FM-12+013599999V0202901N000510360019N0150001N1+01171+01081101991ADDAA199000021GF108991031051012501011999MA1999999100141MD1810011+9999REMSYN066AAXX  04184 47095 32665 82901 10117 20108 30014 40199 58001 8351/;
0144470950999992000100421004+38070+127810FM-12+013599999V0203601N001510360019N0150001N1+01131+01031102051ADDAA199000021GF106991011051012501031001MA1999999100191MD1810051+9999REMSYN066AAXX  04214 47095 32665 63603 10113 20103 30019 40205 58005 81530;
0197470950999992000100500004+38070+127810FM-12+013599999V0201801N000510360019N0120001N1+01471+01201102131ADDAA112000791GF106991041051012501011001IA1019IA2999+01909KA1120N+01111MA1999999100301MD1210111+9999REMSYN088AAXX  05004 47095 32662 61801 10147 20120 30030 40213 52011 69902 84510 333 20111 30019;
0144470950999992000100503004+38070+127810FM-12+013599999V0202001N002110120019N0150001N1+02041+01291102041ADDAA199000021GF105991051051012501001001MA1999999100241MD1510061+9999REMSYN066AAXX  05034 47095 32665 52004 10204 20129 30024 40204 55006 85500;
0163470950999992000100506004+38070+127810FM-12+013599999V0202301N003610075019N0140001N1+02261+01151101861ADDAA199000091GF105991051051008001001001MA1999999100091MD1810151+9999REMSYN066AAXX  05064 47095 32564 52307 10226 20115 30009 40186 58015 85500;EQDQ01  00002PRCP99
0163470950999992000100509004+38070+127810FM-12+013599999V0201801N000510075019N0100001N1+01971+01421101911ADDAA199000091GF106991061051008001001001MA1999999100121MD1010031+9999REMSYN066AAXX  05094 47095 32560 61801 10197 20142 30012 40191 50003 86500;EQDQ01  00002PRCP99
0244470950999992000100512004+38070+127810FM-12+013599999V0209999C000010120019N0080001N1+01501+01391102081ADDAA199000091AY121061AY221061GF105991051051012501001001IA1019IA2999+01509KA1120M+02301MA1999999100251MD1210131+9999MW1101REMSYN094AAXX  05124 47095 32658 51800 10150 20139 30025 40208 52013 71022 85500 333 10230 30015 55067;EQDQ01  00002PRCP99
0163470950999992000100515004+38070+127810FM-12+013599999V0200201N001512200019N0050001N1+01271+01221102161ADDAA199000091GF102991021051012501001001MA1999999100311MD1810061+9999REMSYN066AAXX  05154 47095 32650 20203 10127 20122 30031 40216 58006 82500;EQDQ01  00002PRCP99
0191470950999992000100518004+38070+127810FM-12+013599999V0203601N001012200019N0008001N1+01111+01071102151ADDAA199000091AY141061AY221061GF102991021051012501001001MA1999999100291MD1810021+9999MW1461REMSYN072AAXX  05184 47095 31608 23602 10111 20107 30029 40215 58002 74642 82500;EQDQ01  00002PRCP99
0191470950999992000100521004+38070+127810FM-12+013599999V0209999C000010360019N0020001N1+01191+01171102231ADDAA199000091AY141031AY221031GF108991031051012501021999MA1999999100381MD1010091+9999MW1281REMSYN072AAXX  05214 47095 31620 80000 10119 20117 30038 40223 50009 72842 8352/;EQDQ01  00002PRCP99
0225470950999992000100600004+38070+127810FM-12+013599999V0202501N001012200019N0030001N1+01571+01511102261ADDAA112000791AY121061AY221061GF104991041001012501031001IA1019IA2999+02009KA1120N+01101MA1999999100441MD1710061+9999MW1101REMSYN094AAXX  06004 47095 31630 42502 10157 20151 30044 40226 57006 69902 71022 84030 333 20110 30020;
0163470950999992000100603004+38070+127810FM-12+013599999V0202501N001512200019N0100001N1+02151+01181102151ADDAA199000091GF101991011051012501001001MA1999999100361MD1510081+9999REMSYN066AAXX  06034 47095 32660 12503 10215 20118 30036 40215 55008 81500;EQDQ01  00002PRCP99
0163470950999992000100606004+38070+127810FM-12+013599999V0202301N002112200019N0120001N1+02351+00701101971ADDAA199000091GF101991001001999999001011MA1999999100201MD1710161+9999REMSYN066AAXX  06064 47095 32962 12304 10235 20070 30020 40197 57016 80001;EQDQ01  00002PRCP99
0163470950999992000100609004+38070+127810FM-12+013599999V0200701N001010120019N0120001N1+02011+01271102101ADDAA199000091GF107991071051012501001001MA1999999100311MD1210111+9999REMSYN066AAXX  06094 47095 32662 70702 10201 20127 30031 40210 52011 87500;EQDQ01  00002PRCP99
0238470950999992000100612004+38070+127810FM-12+013599999V0209999C000012200019N0090001N1+01521+01291102301ADDAA199000091AY121061AY221061GF103991031051012501001001IA1019IA2999+01609KA1120M+02361MA1999999100471MD1210161+9999MW1101REMSYN088AAXX  06124 47095 32659 30000 10152 20129 30047 40230 52016 71022 83500 333 10236 30016;EQDQ01  00002PRCP99
0201470950999992000100615004+38070+127810FM-12+013599999V0200201N001012200019N0060001N1+01271+01201102281ADDAA199000091AY121031AY221031GA1001+999999999GF100991001001999999001001MA1999999100431MD1810041+9999MW1101REMSYN066AAXX  06154 47095 31956 00202 10127 20120 30043 40228 58004 71022;EQDQ01  00002PRCP99
0201470950999992000100618004+38070+127810FM-12+013599999V0209999C000012200019N0050001N1+01151+01111102281ADDAA199000091AY101061AY201061GA1001+999999999GF100991001001999999001001MA1999999100421MD1710011+9999MW1101REMSYN066AAXX  06184 47095 31950 00000 10115 20111 30042 40228 57001 71000;EQDQ01  00002PRCP99
0201470950999992000100621004+38070+127810FM-12+013599999V0201401N001012200019N0015001N1+01031+01001102301ADDAA199000091AY101031AY201031GA1001+999999999GF100991001001999999001001MA1999999100441MD1810021+9999MW1101REMSYN066AAXX  06214 47095 31915 01402 10103 20100 30044 40230 58002 71000;EQDQ01  00002PRCP99
0248470950999992000100700004+38070+127810FM-12+013599999V0209999C000012200019N0060001N1+01401+01351102311ADDAA199000091AY101061AY201061GA1001+999999999GF100991001001999999001001IA1019IA2999+01909KA1120N+00901MA1999999100471MD1010031+9999MW1101REMSYN082AAXX  07004 47095 31956 00000 10140 20135 30047 40231 50003 71000 333 20090 30019;EQDQ01  00002PRCP99
0173470950999992000100703004+38070+127810FM-12+013599999V0202301N002612200019N0120001N1+02371+01101102031ADDAA199000091GA1001+999999999GF100991001001999999001001MA1999999100261MD1710211+9999REMSYN060AAXX  07034 47095 32962 02305 10237 20110 30026 40203 57021;EQDQ01  00002PRCP99
0173470950999992000100706004+38070+127810FM-12+013599999V0202501N002112200019N0120001N1+02601+01101101721ADDAA199000091GA1001+999999999GF100991001001999999001001MA1999999099971MD1710291+9999REMSYN060AAXX  07064 47095 32962 02504 10260 20110 39997 40172 57029;EQDQ01  00002PRCP99
0163470950999992000100709004+38070+127810FM-12+013599999V0201601N000512200019N0100001N1+02141+01451101761ADDAA199000091GF102991001001999999001011MA1999999099981MD1810011+9999REMSYN066AAXX  07094 47095 32960 21601 10214 20145 39998 40176 58001 80001;EQDQ01  00002PRCP99
0254470950999992000100712004+38070+127810FM-12+013599999V0209999C000012200019N0070001N1+01511+01331101881ADDAA199000091AY101061AY201061GA1001+999999999GF100991001001999999001001IA1019IA2999+01509KA1120M+02601MA1999999100061MD1210081+9999MW1101REMSYN088AAXX  07124 47095 31957 03400 10151 20133 30006 40188 52008 71000 333 10260 30015 55066;EQDQ01  00002PRCP99
0191470950999992000100715004+38070+127810FM-12+013599999V0200501N000512200019N0030001N1+01251+01191101781ADDAA199000091AY101031AY201031GF102991001001999999001011MA1999999099931MD1710131+9999MW1101REMSYN072AAXX  07154 47095 31930 20501 10125 20119 39993 40178 57013 71000 80001;EQDQ01  00002PRCP99
0201470950999992000100718004+38070+127810FM-12+013599999V0209999C000012200019N0004001N1+01031+00991101661ADDAA199000091AY111061AY211061GA1001+999999999GF100991001001999999001001MA1999999099801MD1710131+9999MW1461REMSYN066AAXX  07184 47095 31904 01800 10103 20099 39980 40166 57013 74611;EQDQ01  00002PRCP99
0217470950999992000100721004+38070+127810FM-12+013599999V0209999C000012200019N0003001N1+00991+00971101631ADDAA199000091AY141031AY241031GA1001+999999999GF100991001001999999001001MA1999999099771MD1010031+9999MW1441REMSYN066AAXX  07214 47095 31903 00000 10099 20097 39977 40163 50003 74544;EQDQ01+000452PRSWM1Q02  00002PRCP99
0238470950999992000100800004+38070+127810FM-12+013599999V0209999C000012200019N0025001N1+01291+01271101611ADDAA199000091AY101061AY201061GF102991021051012501001001IA1019IA2999+01909KA1120N+00961MA1999999099781MD1310011+9999MW1101REMSYN088AAXX  08004 47095 31625 20000 10129 20127 39978 40161 53001 71000 82500 333 20096 30019;EQDQ01  00002PRCP99
0179470950999992000100803004+38070+127810FM-12+013599999V0202301N001512200019N0100001N1+02412+01261101231ADDAA199000091GF101991011051012501001001MA1999999099481MD1710301+9999REMSYN066AAXX  08034 47095 32660 12303 10241 20126 39948 40123 57030 81500;EQDQ01+002413ATOT  Q02  00002PRCP99
0163470950999992000100806004+38070+127810FM-12+013599999V0202001N001010900019N0120001N1+02591+01101100981ADDAA199000091GF105991021051012501001021MA1999999099241MD1710241+9999REMSYN066AAXX  08064 47095 32662 52002 10259 20110 39924 40098 57024 82502;EQDQ01  00002PRCP99
0163470950999992000100809004+38070+127810FM-12+013599999V0201401N001010360019N0120001N1+02231+01371100991ADDAA199000091GF107991021051012501011001MA1999999099231MD1610011+9999REMSYN066AAXX  08094 47095 32662 71402 10223 20137 39923 40099 56001 82510;EQDQ01  00002PRCP99
0244470950999992000100812004+38070+127810FM-12+013599999V0203601N001010360019N0090001N1+01671+01451101151ADDAA199000091AY101061AY201061GF107991021051012501031001IA1019IA2999+01709KA1120M+02611MA1999999099351MD1210121+9999MW1101REMSYN094AAXX  08124 47095 31659 73602 10167 20145 39935 40115 52012 71000 82530 333 10261 30017 55075;EQDQ01  00002PRCP99
0207470950999992000100815004+38070+127810FM-12+013599999V0209999C000010360019N0080001N1+01641+01501101161ADDAA199000091AY121031AY221031GF108991021051012501021999MA1999999099351MD1310011+9999MW1101REMSYN072AAXX  08154 47095 32658 83600 10164 20150 39935 40116 53000 71022 8252/;EQDQ01+000002APC3  Q02  00002PRCP99
0191470950999992000100818004+38070+127810FM-12+013599999V0203601N000512200019N0030001N1+01331+01271101161ADDAA199000091AY121061AY221061GF103991021001012501031021MA1999999099331MD1110021+9999MW1101REMSYN072AAXX  08184 47095 31630 33601 10133 20127 39933 40116 51002 71022 82032;EQDQ01  00002PRCP99
0116470950999992000100821004+38070+127810FM-12+013599999V0209999C000019999999N9999999N1+01251+01221999999ADDAA199000091MA1999999099491REMSYN059AAXX  08214 47095 3//// /0000 10125 20122 39949 0132 52016;EQDQ01  00002PRCP99
0210470950999992000100900004+38070+127810FM-12+013599999V0202301N000512200019N0070001N1+01511+01461101471ADDAA199000091GF102991001001999999001011IA1019IA2999+01909KA1120N+01161MA1999999099651MD1210161+9999REMSYN082AAXX  09004 47095 32957 22301 10151 20146 39965 40147 52016 80001 333 20116 30019;EQDQ01  00002PRCP99
0163470950999992000100903004+38070+127810FM-12+013599999V0202701N001012200019N0100001N1+02351+01321101321ADDAA199000091GF102991021051012501001001MA1999999099561MD1510091+9999REMSYN066AAXX  09034 47095 32660 22702 10235 20132 39956 40132 55009 82500;EQDQ01  00002PRCP99
0163470950999992000100906004+38070+127810FM-12+013599999V0202901N001512200019N0120001N1+02491+01281101161ADDAA199000091GF102991021051012501001001MA1999999099411MD1710151+9999REMSYN066AAXX  09064 47095 32662 22903 10249 20128 39941 40116 57015 82500;EQDQ01  00002PRCP99
0163470950999992000100909004+38070+127810FM-12+013599999V0201601N000512200019N0120001N1+02221+01471101241ADDAA199000091GF103991031051012501001001MA1999999099481MD1010071+9999REMSYN066AAXX  09094 47095 32662 31601 10222 20147 39948 40124 50007 83500;EQDQ01  00002PRCP99
0210470950999992000100912004+38070+127810FM-12+013599999V0201601N000510120019N0120001N1+01811+01441101421ADDAA199000091GF106991061051012501001001IA1019IA2999+01809KA1120M+02511MA1999999099631MD1210151+9999REMSYN082AAXX  09124 47095 32662 61601 10181 20144 39963 40142 52015 86500 333 10251 30018;EQDQ01  00002PRCP99
0163470950999992000100915004+38070+127810FM-12+013599999V0203601N000510120019N0100001N1+01591+01441101511ADDAA199000091GF106991061051012501001001MA1999999099691MD1310061+9999REMSYN066AAXX  09154 47095 32660 63601 10159 20144 39969 40151 53006 86500;EQDQ01  00002PRCP99
0163470950999992000100918004+38070+127810FM-12+013599999V0209999C000010120019N0110001N1+01541+01431101481ADDAA199000091GF105991051051012501001001MA1999999099661MD1710031+9999REMSYN066AAXX  09184 47095 32661 50000 10154 20143 39966 40148 57003 85500;EQDQ01  00002PRCP99
0161470950999992000100921004+38070+127810FM-12+013599999V0202501N001010360019N0070001N1+01541+01451101511ADDAY161031AY201031GF108991031071008001021999MA1999999099691MD1110031+9999MW1611REMSYN072AAXX  09214 47095 41557 82502 10154 20145 39969 40151 51003 76160 8372/;
0231470950999992000101000004+38070+127810FM-12+013599999V0209999C000010075019N0060001N1+01631+01481101641ADDAA112000191AY161061AY221061GF108991051071008001021999IA1099IA2999+01709KA1120N+01471MA1999999099831MD1210141+9999MW1601REMSYN100AAXX  10004 47095 11556 80000 10163 20148 39983 40164 52014 69912 76062 8572/ 333 20147 31017 70001;
0161470950999992000101003004+38070+127810FM-12+013599999V0202001N001010075019N0050001N1+01781+01651101581ADDAY161031AY221031GF108991061071008001021999MA1999999099781MD1510051+9999MW1601REMSYN072AAXX  10034 47095 41550 82002 10178 20165 39978 40158 55005 76062 8672/;
0161470950999992000101006004+38070+127810FM-12+013599999V0202001N002110075019N0100001N1+01871+01401101491ADDAY161061AY221061GF108991051071008001021999MA1999999099701MD1810081+9999MW1601REMSYN072AAXX  10064 47095 41560 82004 10187 20140 39970 40149 58008 76062 8572/;
0161470950999992000101009004+38070+127810FM-12+013599999V0209999C000010075019N0150001N1+01671+01441101581ADDAY161031AY221031GF108991051051008001021999MA1999999099771MD1210071+9999MW1211REMSYN072AAXX  10094 47095 41565 80000 10167 20144 39977 40158 52007 72162 8552/;
0237470950999992000101012004+38070+127810FM-12+013599999V0202001N001510075019N0150001N1+01511+01211101721ADDAA112000891AY161061AY261061GF108991051051008001021999IA1099IA2999+01509KA1120M+01921MA1999999099901MD1210131+9999MW1601REMSYN106AAXX  10124 47095 11565 82003 10151 20121 39990 40172 52013 69982 76066 8552/ 333 10192 31015 55000 70009;
0161470950999992000101015004+38070+127810FM-12+013599999V0209999C000010075019N0090001N1+01341+01281101711ADDAY161031AY261031GF108991051051008001021999MA1999999099881MD1310021+9999MW1601REMSYN072AAXX  10154 47095 41559 82300 10134 20128 39988 40171 53002 76066 8552/;
0161470950999992000101018004+38070+127810FM-12+013599999V0209999C000010075019N0070001N1+01401+01351101661ADDAY161061AY261061GF108991051071008001021999MA1999999099831MD1710051+9999MW1611REMSYN072AAXX  10184 47095 41557 81800 10140 20135 39983 40166 57005 76166 8572/;
0161470950999992000101021004+38070+127810FM-12+013599999V0202501N001010075019N0070001N1+01391+01351101611ADDAY161031AY261031GF108991051071008001021999MA1999999099781MD1710051+9999MW1601REMSYN072AAXX  10214 47095 41557 82502 10139 20135 39978 40161 57005 76066 8572/;
0212470950999992000101100004+38070+127810FM-12+013599999V0202301N000510075019N0050001N1+01441+01391101671ADDAA112005191AY161061AY221061GF108991051051008001021999IA1099IA2999+01609MA1999999099841MD1210061+9999MW1211REMSYN094AAXX  11004 47095 11550 82301 10144 20139 39984 40167 52006 60052 72162 8552/ 333 31016 70060;
0161470950999992000101103004+38070+127810FM-12+013599999V0200501N000510075019N0080001N1+01451+01391101651ADDAY161031AY261031GF108991051071008001021999MA1999999099821MD1710021+9999MW1611REMSYN072AAXX  11034 47095 41558 80501 10145 20139 39982 40165 57002 76166 8572/;
0161470950999992000101106004+38070+127810FM-12+013599999V0200701N000510075019N0120001N1+01471+01281101641ADDAY161061AY261061GF108991051071008001021999MA1999999099811MD1310011+9999MW1601REMSYN072AAXX  11064 47095 41562 80701 10147 20128 39981 40164 53001 76066 8572/;
0144470950999992000101109004+38070+127810FM-12+013599999V0202301N000510075019N0140001N1+01411+01321101681ADDAA199000021GF107991051051008001011001MA1999999099851MD1210041+9999REMSYN066AAXX  11094 47095 32564 72301 10141 20132 39985 40168 52004 85510;
0209470950999992000101112004+38070+127810FM-12+013599999V0202001N000510360019N0110001N1+01321+01231101831ADDAA112001091GF108991041051008001021999IA1099IA2999+01409KA1120M+01481MA1999999099991MD1210141+9999REMSYN100AAXX  11124 47095 12561 82001 10132 20123 39999 40183 52014 60012 8452/ 333 10148 31014 55000 70062;
0144470950999992000101115004+38070+127810FM-12+013599999V0202501N001510360019N0200001N1+01151+00691101881ADDAA199000021GF108991041051012501021999MA1999999100031MD1010041+9999REMSYN066AAXX  11154 47095 32670 82503 10115 20069 30003 40188 50004 8452/;
0144470950999992000101118004+38070+127810FM-12+013599999V0200201N000510360019N0180001N1+00941+00741101991ADDAA199000021GF108991041051012501021999MA1999999100121MD1210091+9999REMSYN066AAXX  11184 47095 32668 80201 10094 20074 30012 40199 52009 8452/;
0163470950999992000101121004+38070+127810FM-12+013599999V0201601N000510360019N0200001N1+00781+00341102121ADDAA199000091GF106991021051012501031001MA1999999100241MD1210121+9999REMSYN066AAXX  11214 47095 32670 61601 10078 20034 30024 40212 52012 82530;EQDQ01  00002PRCP99
0191470950999992000101200004+38070+127810FM-12+013599999V0201601N000512200019N0300001N1+00921+00181102261ADDAA124001091GF103991011001999999031011IA2999+01309KA1120N+00731MA1999999100381MD1210141+9999REMSYN088AAXX  12004 47095 32980 31601 10092 20018 30038 40226 52014 81031 333 20073 3/013 70011;
0173470950999992000101203004+38070+127810FM-12+013599999V0203401N002112200019N0300001N1+01211-00011102111ADDAA199000091GA1001+999999999GF100991001001999999001001MA1999999100261MD1710121+9999REMSYN060AAXX  12034 47095 32980 03404 10121 21001 30026 40211 57012;EQDQ01  00002PRCP99
0163470950999992000101206004+38070+127810FM-12+013599999V0202901N002612200019N0300001N1+01361-00321101921ADDAA199000091GF101991001001999999001021MA1999999100091MD1710171+9999REMSYN066AAXX  12064 47095 32980 12905 10136 21032 30009 40192 57017 80002;EQDQ01  00002PRCP99
0163470950999992000101209004+38070+127810FM-12+013599999V0202001N001019999999N0250001N1+01031+00011102051ADDAA199000091GF107991051001999999011021MA1999999100181MD1210091+9999REMSYN066AAXX  12094 47095 32975 72002 10103 20001 30018 40205 52009 85012;EQDQ01  00002PRCP99
0197470950999992000101212004+38070+127810FM-12+013599999V0201101N000519999999N0220001N1+00701+00071102211ADDAA124000191GF106991051001999999011021IA1019IA2999+00809KA1120M+01461MA1999999100321MD1210141+9999REMSYN088AAXX  12124 47095 32972 61101 10070 20007 30032 40221 52014 85012 333 10146 30008 70001;
0163470950999992000101215004+38070+127810FM-12+013599999V0201801N000519999999N0220001N1+00531+00181102251ADDAA199000091GF106991021001999999031021MA1999999100341MD1310021+9999REMSYN066AAXX  12154 47095 32972 61801 10053 20018 30034 40225 53002 82032;EQDQ01  00002PRCP99
0163470950999992000101218004+38070+127810FM-12+013599999V0200501N000519999999N0220001N1+00221+00101102221ADDAA199000091GF105991001001999999001011MA1999999100301MD1810041+9999REMSYN066AAXX  12184 47095 32972 50501 10022 20010 30030 40222 58004 80001;EQDQ01  00002PRCP99
0173470950999992000101221004+38070+127810FM-12+013599999V0209999C000012200019N0220001N1-00011-00061102271ADDAA199000091GA1001+999999999GF100991001001999999001001MA1999999100331MD1110031+9999REMSYN060AAXX  12214 47095 32972 00000 11001 21006 30033 40227 51003;EQDQ01  00002PRCP99
0220470950999992000101300004+38070+127810FM-12+013599999V0209999C000012200019N0250001N1+00461+00181102321ADDAA199000091GA1001+999999999GF100991001001999999001001IA1019IA2999+01209KA1120N-00071MA1999999100411MD1010081+9999REMSYN076AAXX  13004 47095 32975 00000 10046 20018 30041 40232 50008 333 21007 30012;EQDQ01  00002PRCP99
0163470950999992000101303004+38070+127810FM-12+013599999V0202001N002112200019N0280001N1+01151-00461102161ADDAA199000091GF104991021001999999031011MA1999999100301MD1610111+9999REMSYN066AAXX  13034 47095 32978 42004 10115 21046 30030 40216 56011 82031;EQDQ01  00002PRCP99
0163470950999992000101306004+38070+127810FM-12+013599999V0203201N006712200019N0280001N1+01321-00761101951ADDAA199000091GF104991021001999999031011MA1999999100111MD1710191+9999REMSYN066AAXX  13064 47095 32978 43213 10132 21076 30011 40195 57019 82031;EQDQ01  00002PRCP99
0163470950999992000101309004+38070+127810FM-12+013599999V0202501N003110360019N0280001N1+01021-00601102051ADDAA199000091GF106991021051012501031011MA1999999100191MD1010081+9999REMSYN066AAXX  13094 47095 32678 62506 10102 21060 30019 40205 50008 82531;EQDQ01  00002PRCP99
0216470950999992000101312004+38070+127810FM-12+013599999V0209999C000019999999N0250001N1+00581-00011102261ADDAA199000091GF106991031001999999031011IA1019IA2999+00709KA1120M+01361MA1999999100361MD1210171+9999REMSYN088AAXX  13124 47095 32975 61400 10058 21001 30036 40226 52017 83031 333 10136 30007 55041;EQDQ01  00002PRCP99
0163470950999992000101315004+38070+127810FM-12+013599999V0209999C000019999999N0200001N1+00321+00111102371ADDAA199000091GF106991001001999999001061MA1999999100451MD1210091+9999REMSYN066AAXX  13154 47095 32970 60000 10032 20011 30045 40237 52009 80006;EQDQ01  00002PRCP99
0163470950999992000101318004+38070+127810FM-12+013599999V0200201N000519999999N0200001N1+00181+00071102471ADDAA199000091GF105991011001999999031061MA1999999100541MD1310091+9999REMSYN066AAXX  13184 47095 32970 50201 10018 20007 30054 40247 53009 81036;EQDQ01  00002PRCP99
0163470950999992000101321004+38070+127810FM-12+013599999V0209999C000019999999N0200001N1+00071+00011102451ADDAA199000091GF105991001001999999001011MA1999999100511MD1710031+9999REMSYN066AAXX  13214 47095 32970 50000 10007 20001 30051 40245 57003 80001;EQDQ01  00002PRCP99
0210470950999992000101400004+38070+127810FM-12+013599999V0209999C000019999999N0220001N1+00481+00201102511ADDAA199000091GF105991001001999999001011IA1019IA2999+01009KA1120N+00061MA1999999100601MD1210091+9999REMSYN082AAXX  14004 47095 32972 50000 10048 20020 30060 40251 52009 80001 333 20006 30010;EQDQ01  00002PRCP99
0163470950999992000101403004+38070+127810FM-12+013599999V0202001N002619999999N0250001N1+01301+00001102321ADDAA199000091GF106991021001999999031021MA1999999100471MD1710131+9999REMSYN066AAXX  14034 47095 32975 62005 10130 20000 30047 40232 57013 82032;EQDQ01  00002PRCP99
0163470950999992000101406004+38070+127810FM-12+013599999V0202301N003612200019N0250001N1+01511+00041102121ADDAA199000091GF102991011051012501001011MA1999999100291MD1710181+9999REMSYN066AAXX  14064 47095 32675 22307 10151 20004 30029 40212 57018 81501;EQDQ01  00002PRCP99
0163470950999992000101409004+38070+127810FM-12+013599999V0202001N002612200019N0250001N1+01141+00401102201ADDAA199000091GF102991021051012501031001MA1999999100341MD1210051+9999REMSYN066AAXX  14094 47095 32675 22005 10114 20040 30034 40220 52005 82530;EQDQ01  00002PRCP99
0216470950999992000101412004+38070+127810FM-12+013599999V0202301N002112200019N0150001N1+00781+00551102341ADDAA199000091GF102991021001999999031001IA1019IA2999+00909KA1120M+01521MA1999999100451MD1210111+9999REMSYN088AAXX  14124 47095 32965 22304 10078 20055 30045 40234 52011 82030 333 10152 30009 55084;EQDQ01  00002PRCP99
0163470950999992000101415004+38070+127810FM-12+013599999V0200201N000510120019N0120001N1+00531+00451102451ADDAA199000091GF105991051051012501001001MA1999999100541MD1210091+9999REMSYN066AAXX  14154 47095 32662 50201 10053 20045 30054 40245 52009 85500;EQDQ01  00002PRCP99
0163470950999992000101418004+38070+127810FM-12+013599999V0209999C000012200019N0100001N1+00451+00391102481ADDAA199000091GF101991001001999999001021MA1999999100561MD1010021+9999REMSYN066AAXX  14184 47095 32960 10000 10045 20039 30056 40248 50002 80002;EQDQ01  00002PRCP99
0201470950999992000101421004+38070+127810FM-12+013599999V0209999C000012200019N0003001N1+00251+00201102611ADDAA199000091AY141031AY221031GA1001+999999999GF100991001001999999001001MA1999999100681MD1210121+9999MW1461REMSYN066AAXX  14214 47095 31903 00000 10025 20020 30068 40261 52012 74642;EQDQ01  00002PRCP99
0220470950999992000101500004+38070+127810FM-12+013599999V0209999C000012200019N0120001N1+00661+00631102731ADDAA199000091GA1001+999999999GF100991001001999999001001IA1019IA2999+01309KA1120N+00171MA1999999100831MD1210151+9999REMSYN076AAXX  15004 47095 32962 00000 10066 20063 30083 40273 52015 333 20017 30013;EQDQ01  00002PRCP99
0173470950999992000101503004+38070+127810FM-12+013599999V0202501N001512200019N0180001N1+01751+00251102561ADDAA199000091GA1001+999999999GF100991001001999999001001MA1999999100741MD1710091+9999REMSYN060AAXX  15034 47095 32968 02503 10175 20025 30074 40256 57009;EQDQ01  00002PRCP99
0163470950999992000101506004+38070+127810FM-12+013599999V0202501N003612200019N0200001N1+01801+00281102501ADDAA199000091GF103991031051012501001001MA1999999100691MD1810051+9999REMSYN066AAXX  15064 47095 32670 32507 10180 20028 30069 40250 58005 83500;EQDQ01  00002PRCP99
0163470950999992000101509004+38070+127810FM-12+013599999V0202001N002112200019N0180001N1+01511+00581102531ADDAA199000091GF101991011051012501001001MA1999999100691MD1510001+9999REMSYN066AAXX  15094 47095 31668 12004 10151 20058 30069 40253 55000 81500;EQDQ01  00002PRCP99
0210470950999992000101512004+38070+127810FM-12+013599999V0209999C000012200019N0180001N1+00641+00391102741ADDAA199000091GF101991011051012501001001IA1019IA2999+00709KA1120M+01841MA1999999100841MD1210151+9999REMSYN082AAXX  15124 47095 32668 10000 10064 20039 30084 40274 52015 81500 333 10184 30007;EQDQ01  00002PRCP99
0173470950999992000101515004+38070+127810FM-12+013599999V0203401N000512200019N0180001N1+00291+00071102911ADDAA199000091GA1001+999999999GF100991001001999999001001MA1999999100981MD1210141+9999REMSYN060AAXX  15154 47095 32968 03401 10029 20007 30098 40291 52014;EQDQ01  00002PRCP99
0189470950999992000101518004+38070+127810FM-12+013599999V0209999C000012200019N0180001N1+00051-00051102931ADDAA199000091GA1001+999999999GF100991001001999999001001MA1999999100981MD1110021+9999REMSYN060AAXX  15184 47095 32968 00000 10005 21005 30098 40293 51000;EQDQ01+000002APC3  Q02  00002PRCP99
0173470950999992000101521004+38070+127810FM-12+013599999V0209999C000012200019N0180001N1-00081-00151102981ADDAA199000091GA1001+999999999GF100991001001999999001001MA1999999101011MD1110031+9999REMSYN060AAXX  15214 47095 32968 00000 11008 21015 30101 40298 51003;EQDQ01  00002PRCP99
0172470950999992000101600004+38070+127810FM-12+013599999V0209999C000019999999N9999999N1+00541+00081102981ADDAA199000091IA2999+01109KA1120N-00131MA1999999101061MD1210051+9999REMSYN076AAXX  16004 47095 3//// /0000 10054 20008 30106 40298 52005 333 21013 3/011;EQDQ01  00002PRCP99
0163470950999992000101603004+38070+127810FM-12+013599999V0202501N001512200019N0300001N1+01411-00111102711ADDAA199000091GF101991011001999999031001MA1999999100871MD1710191+9999REMSYN066AAXX  16034 47095 32980 12503 10141 21011 30087 40271 57019 81030;EQDQ01  00002PRCP99
0163470950999992000101606004+38070+127810FM-12+013599999V0202301N002112200019N0280001N1+01621-00401102421ADDAA199000091GF101991011001999999031001MA1999999100591MD1710281+9999REMSYN066AAXX  16064 47095 32978 12304 10162 21040 30059 40242 57028 81030;EQDQ01  00002PRCP99
0163470950999992000101609004+38070+127810FM-12+013599999V0209999C000012200019N0250001N1+01171+00001102311ADDAA199000091GF103991001001999999001011MA1999999100451MD1710141+9999REMSYN066AAXX  16094 47095 32975 30000 10117 20000 30045 40231 57014 80001;EQDQ01  00002PRCP99
0216470950999992000101612004+38070+127810FM-12+013599999V0202501N000512200019N0150001N1+00501+00211102411ADDAA199000091GF102991001001999999001011IA1019IA2999+00609KA1120M+01651MA1999999100511MD1310061+9999REMSYN088AAXX  16124 47095 32965 22501 10050 20021 30051 40241 53006 80001 333 10165 30006 55061;EQDQ01  00002PRCP99
0163470950999992000101615004+38070+127810FM-12+013599999V0203601N001012200019N0150001N1+00241+00101102371ADDAA199000091GF104991001001999999001011MA1999999100451MD1710061+9999REMSYN066AAXX  16154 47095 32965 43602 10024 20010 30045 40237 57006 80001;EQDQ01  00002PRCP99
0173470950999992000101618004+38070+127810FM-12+013599999V0209999C000012200019N0150001N1+00131+00051102261ADDAA199000091GA1001+999999999GF100991001001999999001001MA1999999100331MD1710121+9999REMSYN060AAXX  16184 47095 32965 00000 10013 20005 30033 40226 57012;EQDQ01  00002PRCP99
0163470950999992000101621004+38070+127810FM-12+013599999V0209999C000019999999N0150001N1+00271+00191102181ADDAA199000091GF107991071001999999011001MA1999999100261MD1810071+9999REMSYN066AAXX  16214 47095 32965 70000 10027 20019 30026 40218 58007 87010;EQDQ01  00002PRCP99
0210470950999992000101700004+38070+127810FM-12+013599999V0209999C000019999999N0120001N1+00581+00341102111ADDAA199000091GF107991071001999999011001IA1019IA2999+01009KA1120N+00091MA1999999100221MD1710041+9999REMSYN082AAXX  17004 47095 32962 70000 10058 20034 30022 40211 57004 87010 333 20009 30010;EQDQ01  00002PRCP99
0163470950999992000101703004+38070+127810FM-12+013599999V0202301N004610120019N0150001N1+01391+00591101851ADDAA199000091GF108991051051012501021999MA1999999100011MD1710211+9999REMSYN066AAXX  17034 47095 32665 82309 10139 20059 30001 40185 57021 8552/;EQDQ01  00002PRCP99
0163470950999992000101706004+38070+127810FM-12+013599999V0202301N005110360019N0120001N1+01501+00781101571ADDAA199000091GF106991041051008001011001MA1999999099751MD1710261+9999REMSYN066AAXX  17064 47095 32562 62310 10150 20078 39975 40157 57026 84510;EQDQ01  00002PRCP99
0161470950999992000101709004+38070+127810FM-12+013599999V0202001N002610075019N0100001N1+01321+01091101691ADDAY121031AY221031GF108991051051008001021999MA1999999099851MD1210101+9999MW1211REMSYN072AAXX  17094 47095 41560 82005 10132 20109 39985 40169 52010 72122 8552/;
0237470950999992000101712004+38070+127810FM-12+013599999V0202301N002610900019N0070001N1+01161+00971101791ADDAA112000591AY161061AY221061GF105991031051012501001021IA1099IA2999+01009KA1120M+01521MA1999999099941MD1210091+9999MW1101REMSYN106AAXX  17124 47095 11657 52305 10116 20097 39994 40179 52009 69962 71062 83502 333 10152 31010 55028 70006;
0172470950999992000101715004+38070+127810FM-12+013599999V0209999C000012200019N0050001N1+00891+00841101951ADDAA199000021AY121031AY221031GF103991021051012501001021MA1999999100081MD1210141+9999MW1101REMSYN072AAXX  17154 47095 31650 30000 10089 20084 30008 40195 52014 71022 82502;
0172470950999992000101718004+38070+127810FM-12+013599999V0209999C000012200019N0001001N1+00581+00541102201ADDAA199000021AY141061AY241061GF102991001001999999001021MA1999999100301MD1210221+9999MW1461REMSYN072AAXX  17184 47095 31901 20000 10058 20054 30030 40220 52022 74644 80002;
0160470950999992000101721004+38070+127810FM-12+013599999V0209999C000010001519N0000001N1+00691+00661102321ADDAA199000021GA1091+999999999GF109991091999999999999999MA1999999100431MD1010131+9999REMSYN066AAXX  17214 47095 31/00 90000 10069 20066 30043 40232 50013 8////;
0165470950999992000101800004+38070+127810FM-12+013599999V0201601N001019999999N9999999N1+00821+00801102501ADDAA112000191IA2999+01309KA1120N+00541MA1999999100611MD1210181+9999REMSYN088AAXX  18004 47095 1//// /1602 10082 20080 30061 40250 52018 69912 333 20054 3/013 70007;
0163470950999992000101803004+38070+127810FM-12+013599999V0200501N003112200019N0220001N1+01791+00541102341ADDAA199000091GF102991021051012501001001MA1999999100531MD1510081+9999REMSYN066AAXX  18034 47095 32672 20506 10179 20054 30053 40234 55008 82500;EQDQ01  00002PRCP99
0163470950999992000101806004+38070+127810FM-12+013599999V0202301N002112200019N0250001N1+01921+00401102121ADDAA199000091GF102991021051012501001001MA1999999100321MD1710211+9999REMSYN066AAXX  18064 47095 32675 22304 10192 20040 30032 40212 57021 82500;EQDQ01  00002PRCP99
0163470950999992000101809004+38070+127810FM-12+013599999V0209999C000012200019N0180001N1+01411+00801102241ADDAA199000091GF102991021051012501001001MA1999999100401MD1010081+9999REMSYN066AAXX  18094 47095 32668 20700 10141 20080 30040 40224 50008 82500;EQDQ01  00002PRCP99
0210470950999992000101812004+38070+127810FM-12+013599999V0200501N000512200019N0150001N1+00861+00681102361ADDAA199000091GF102991021051012501001001IA1019IA2999+00909KA1120M+01981MA1999999100481MD1810081+9999REMSYN082AAXX  18124 47095 32665 20501 10086 20068 30048 40236 58008 82500 333 10198 30009;EQDQ01  00002PRCP99
0163470950999992000101815004+38070+127810FM-12+013599999V0209999C000012200019N0120001N1+00641+00581102411ADDAA199000091GF102991021051012501001001MA1999999100511MD1810031+9999REMSYN066AAXX  18154 47095 32662 20000 10064 20058 30051 40241 58003 82500;EQDQ01  00002PRCP99
0163470950999992000101818004+38070+127810FM-12+013599999V0209999C000012200019N0100001N1+00491+00441102431ADDAA199000091GF102991021051012501001001MA1999999100521MD1310011+9999REMSYN066AAXX  18184 47095 32660 20000 10049 20044 30052 40243 53001 82500;EQDQ01  00002PRCP99
0191470950999992000101821004+38070+127810FM-12+013599999V0209999C000010120019N0080001N1+00411+00381102441ADDAA199000091AY121031AY221031GF106991061051012501001001MA1999999100531MD1310011+9999MW1101REMSYN072AAXX  18214 47095 31658 60000 10041 20038 30053 40244 53001 71022 86500;EQDQ01  00002PRCP99
0232470950999992000101900004+38070+127810FM-12+013599999V0209999C000012200019N0150001N1+00791+00751102421ADDAA112000791GF101991011001999999031001IA1019IA2999+01209KA1120N+00381MA1999999100531MD1710021+9999REMSYN088AAXX  19004 47095 32965 10000 10079 20075 30053 40242 53000 69902 81030 333 20038 30012;EQDQ01+000032APCTENQ02+000002APC3  
0163470950999992000101903004+38070+127810FM-12+013599999V0202301N003612200019N0130001N1+01711+00741102071ADDAA199000091GF102991021051012501001001MA1999999100261MD1710271+9999REMSYN066AAXX  19034 47095 32663 22307 10171 20074 30026 40207 57027 82500;EQDQ01  00002PRCP99
0163470950999992000101906004+38070+127810FM-12+013599999V0202501N003612200019N0140001N1+01821+00541101821ADDAA199000091GF103991031051012501001001MA1999999100021MD1710241+9999REMSYN066AAXX  19064 47095 32664 32507 10182 20054 30002 40182 57024 83500;EQDQ01  00002PRCP99
0163470950999992000101909004+38070+127810FM-12+013599999V0201101N001010900019N0150001N1+01441+00791101811ADDAA199000091GF106991021051012501001021MA1999999099981MD1810041+9999REMSYN066AAXX  19094 47095 32665 61102 10144 20079 39998 40181 58004 82502;EQDQ01  00002PRCP99
0216470950999992000101912004+38070+127810FM-12+013599999V0200201N000510360019N0100001N1+00881+00731101921ADDAA199000091GF108991021051012501011999IA1019IA2999+01009KA1120M+01851MA1999999100051MD1210071+9999REMSYN088AAXX  19124 47095 32660 80201 10088 20073 30005 40192 52007 8251/ 333 10185 30010 55067;EQDQ01  00002PRCP99
0191470950999992000101915004+38070+127810FM-12+013599999V0209999C000010360019N0070001N1+00781+00711101941ADDAA199000091AY121031AY221031GF108991021051012501011999MA1999999100071MD1210021+9999MW1101REMSYN072AAXX  19154 47095 32657 80500 10078 20071 30007 40194 52002 71022 8251/;EQDQ01  00002PRCP99
0191470950999992000101918004+38070+127810FM-12+013599999V0209999C000010360019N0050001N1+00771+00711101901ADDAA199000091AY121061AY221061GF108991021051012501011999MA1999999100021MD1710051+9999MW1101REMSYN072AAXX  19184 47095 31650 80000 10077 20071 30002 40190 57005 71022 8251/;EQDQ01  00002PRCP99
0191470950999992000101921004+38070+127810FM-12+013599999V0209999C000010360019N0050001N1+00811+00751101851ADDAA199000091AY121031AY221031GF108991021051012501011999MA1999999099981MD1810041+9999MW1101REMSYN072AAXX  19214 47095 32650 80000 10081 20075 39998 40185 58004 71022 8251/;EQDQ01  00002PRCP99
0238470950999992000102000004+38070+127810FM-12+013599999V0209999C000010120019N0090001N1+01101+00971101961ADDAA199000091AY121061AY221061GF107991071051012501001001IA1019IA2999+01309KA1120N+00741MA1999999100101MD1210121+9999MW1101REMSYN088AAXX  20004 47095 32659 70000 10110 20097 30010 40196 52012 71022 87500 333 20074 30013;EQDQ01  00002PRCP99
0163470950999992000102003004+38070+127810FM-12+013599999V0202001N002610075019N0100001N1+01571+01031101901ADDAA199000091GF108991061051008001021999MA1999999100071MD1710031+9999REMSYN066AAXX  20034 47095 32560 82005 10157 20103 30007 40190 57003 8652/;EQDQ01  00002PRCP99
0163470950999992000102006004+38070+127810FM-12+013599999V0202701N002110075019N0150001N1+01871+00901101731ADDAA199000091GF105991051051008001001001MA1999999099931MD1810141+9999REMSYN066AAXX  20064 47095 32565 52704 10187 20090 39993 40173 58014 85500;EQDQ01  00002PRCP99
0163470950999992000102009004+38070+127810FM-12+013599999V0202001N001512200019N0150001N1+01641+01041101831ADDAA199000091GF104991041051008001001001MA1999999100021MD1210091+9999REMSYN066AAXX  20094 47095 32565 42003 10164 20104 30002 40183 52009 84500;EQDQ01  00002PRCP99
0244470950999992000102012004+38070+127810FM-12+013599999V0200201N001512200019N0030001N1+01071+00971102051ADDAA199000091AY101061AY201061GF102991021051012501001001IA1019IA2999+00909KA1120M+01981MA1999999100191MD1210171+9999MW1101REMSYN094AAXX  20124 47095 32630 20203 10107 20097 30019 40205 52017 71000 82500 333 10198 30009 55044;EQDQ01  00002PRCP99
0201470950999992000102015004+38070+127810FM-12+013599999V0209999C000012200019N0015001N1+00761+00711102211ADDAA199000091AY121031AY221031GA1001+999999999GF100991001001999999001001MA1999999100331MD1210141+9999MW1101REMSYN066AAXX  20154 47095 32915 00700 10076 20071 30033 40221 52014 71022;EQDQ01  00002PRCP99
0201470950999992000102018004+38070+127810FM-12+013599999V0209999C000012200019N0002001N1+00361+00331102341ADDAA199000091AY141061AY241061GA1001+999999999GF100991001001999999001001MA1999999100431MD1110101+9999MW1461REMSYN066AAXX  20184 47095 31902 00000 10036 20033 30043 40234 51010 74644;EQDQ01  00002PRCP99
0201470950999992000102021004+38070+127810FM-12+013599999V0202001N000512200019N0008001N1+00181+00151102511ADDAA199000091AY141031AY241031GA1001+999999999GF100991001001999999001001MA1999999100581MD1210151+9999MW1421REMSYN066AAXX  20214 47095 31908 02001 10018 20015 30058 40251 52015 74244;EQDQ01  00002PRCP99
0210470950999992000102100004+38070+127810FM-12+013599999V0209999C000012200019N0150001N1+00671+00651102601ADDAA199000091GF101991001001999999001011IA1019IA2999+01309KA1120N+00131MA1999999100711MD1010131+9999REMSYN082AAXX  21004 47095 32965 10000 10067 20065 30071 40260 50013 80001 333 20013 30013;EQDQ01  00002PRCP99
0163470950999992000102103004+38070+127810FM-12+013599999V0200901N001012200019N0200001N1+01661+00211102441ADDAA199000091GF101991001001999999001011MA1999999100621MD1610091+9999REMSYN066AAXX  21034 47095 32970 10902 10166 20021 30062 40244 56009 80001;EQDQ01  00002PRCP99
0163470950999992000102106004+38070+127810FM-12+013599999V0203601N002610360019N0180001N1+01791+00081102211ADDAA199000091GF107991021051012501011001MA1999999100401MD1710221+9999REMSYN066AAXX  21064 47095 32668 73605 10179 20008 30040 40221 57022 82510;EQDQ01  00002PRCP99
0163470950999992000102109004+38070+127810FM-12+013599999V0209999C000012200019N0180001N1+01421+00551102251ADDAA199000091GF106991021051012501001011MA1999999100421MD1010021+9999REMSYN066AAXX  21094 47095 32668 61600 10142 20055 30042 40225 50002 82501;EQDQ01  00002PRCP99
0210470950999992000102112004+38070+127810FM-12+013599999V0201801N000519999999N0150001N1+00891+00601102471ADDAA199000091GF105991001001999999001011IA1019IA2999+00909KA1120M+01931MA1999999100591MD1210171+9999REMSYN082AAXX  21124 47095 32965 51801 10089 20060 30059 40247 52017 80001 333 10193 30009;EQDQ01  00002PRCP99
0163470950999992000102115004+38070+127810FM-12+013599999V0209999C000012200019N0120001N1+00641+00551102481ADDAA199000091GF103991001001999999001011MA1999999100581MD1610011+9999REMSYN066AAXX  21154 47095 32962 30000 10064 20055 30058 40248 56001 80001;EQDQ01  00002PRCP99
0163470950999992000102118004+38070+127810FM-12+013599999V0209999C000012200019N0120001N1+00531+00471102541ADDAA199000091GF102991001001999999001011MA1999999100631MD1210051+9999REMSYN066AAXX  21184 47095 32962 20000 10053 20047 30063 40254 52005 80001;EQDQ01  00002PRCP99
0163470950999992000102121004+38070+127810FM-12+013599999V0203401N001012200019N0120001N1+00451+00401102561ADDAA199000091GF102991001001999999001011MA1999999100651MD1810021+9999REMSYN066AAXX  21214 47095 32962 23402 10045 20040 30065 40256 58002 80001;EQDQ01  00002PRCP99
0210470950999992000102200004+38070+127810FM-12+013599999V0203401N003110360019N0180001N1+01051+00431102581ADDAA199000091GF108991021051012501021999IA1019IA2999+00909KA1120N+00451MA1999999100711MD1010061+9999REMSYN082AAXX  22004 47095 32668 83406 10105 20043 30071 40258 50006 8252/ 333 20045 30009;EQDQ01  00002PRCP99
0163470950999992000102203004+38070+127810FM-12+013599999V0200201N005110360019N0180001N1+01361+00611102441ADDAA199000091GF108991021051012501021999MA1999999100591MD1710121+9999REMSYN066AAXX  22034 47095 32668 80210 10136 20061 30059 40244 57012 8252/;EQDQ01  00002PRCP99
0163470950999992000102206004+38070+127810FM-12+013599999V0200201N003110360019N0250001N1+01541+00651102141ADDAA199000091GF108991021051012501021999MA1999999100311MD1710281+9999REMSYN066AAXX  22064 47095 32675 80206 10154 20065 30031 40214 57028 8252/;EQDQ01  00002PRCP99
0163470950999992000102209004+38070+127810FM-12+013599999V0200201N002110360019N0220001N1+01411+00661102121ADDAA199000091GF108991031051012501021999MA1999999100281MD1810031+9999REMSYN066AAXX  22094 47095 32672 80204 10141 20066 30028 40212 58003 8352/;EQDQ01  00002PRCP99
0203470950999992000102212004+38070+127810FM-12+013599999V0200201N004610360019N0180001N1+01291+00731102161ADDAA112000791GF108991021051012501011999IA1019IA2999+01209KA1120M+01561MA1999999100311MD1210031+9999REMSYN094AAXX  22124 47095 32668 80209 10129 20073 30031 40216 52003 69902 8251/ 333 10156 30012 55000;
0161470950999992000102215004+38070+127810FM-12+013599999V0200201N004610360019N0180001N1+01241+00831102101ADDAY121031AY211031GF108991031051012501021999MA1999999100251MD1710061+9999MW1601REMSYN072AAXX  22154 47095 41668 80209 10124 20083 30025 40210 57006 76021 8352/;
0161470950999992000102218004+38070+127810FM-12+013599999V0200701N001010120019N0180001N1+01111+00921102021ADDAY161061AY221061GF108991051051012501021999MA1999999100171MD1310081+9999MW1601REMSYN072AAXX  22184 47095 41668 80702 10111 20092 30017 40202 53008 76062 8552/;
0144470950999992000102221004+38070+127810FM-12+013599999V0202301N001010360019N0180001N1+00991+00911101961ADDAA199000021GF106991021051012501031001MA1999999100091MD1710081+9999REMSYN066AAXX  22214 47095 32668 62302 10099 20091 30009 40196 57008 82530;
0231470950999992000102300004+38070+127810FM-12+013599999V0200901N000510120019N0150001N1+01241+00961102031ADDAA112000191AY121061AY221061GF107991051051012501031001IA1019IA2999+01409KA1120N+00981MA1999999100181MD1210091+9999MW1211REMSYN100AAXX  23004 47095 11665 70901 10124 20096 30018 40203 52009 69922 72122 85530 333 20098 30014 70002;
0144470950999992000102303004+38070+127810FM-12+013599999V0202301N001012200019N0220001N1+01891+00771101841ADDAA199000021GF102991021051008001031001MA1999999100041MD1710141+9999REMSYN066AAXX  23034 47095 32572 22302 10189 20077 30004 40184 57014 82530;
0154470950999992000102306004+38070+127810FM-12+013599999V0202901N002112200019N0250001N1+02171+00691101561ADDAA199000021GA1001+999999999GF100991001001999999001001MA1999999099791MD1710251+9999REMSYN060AAXX  23064 47095 32975 02904 10217 20069 39979 40156 57025;
0144470950999992000102309004+38070+127810FM-12+013599999V0201401N000512200019N0220001N1+01661+00981101731ADDAA199000021GF101991011051012501001001MA1999999099921MD1210131+9999REMSYN066AAXX  23094 47095 32672 11401 10166 20098 39992 40173 52013 81500;
0213470950999992000102312004+38070+127810FM-12+013599999V0200201N001012200019N0120001N1+01161+00901101921ADDAA124000391GA1001+999999999GF100991001001999999001001IA1019IA2999+01109KA1120M+02221MA1999999100071MD1210151+9999REMSYN088AAXX  23124 47095 32962 00202 10116 20090 30007 40192 52015 333 10222 30011 55071 70002;
0153470950999992000102315004+38070+127810FM-12+013599999V0201601N001012200019N0130001N1+01011+00841101941ADDAA199000091GA1001+999999999GF100991001001999999001001MA1999999100081REMSYN054AAXX  23154 47095 32963 01602 10101 20084 30008 40194;EQDQ01  00002PRCP99
0163470950999992000102318004+38070+127810FM-12+013599999V0200701N001012200019N0130001N1+00841+00721102041ADDAA199000091GF101991011051012501001001MA1999999100171MD1010091+9999REMSYN066AAXX  23184 47095 32663 10702 10084 20072 30017 40204 50009 81500;EQDQ01  00002PRCP99
0163470950999992000102321004+38070+127810FM-12+013599999V0201801N000512200019N0180001N1+00771+00681101981ADDAA199000091GF102991021001999999031001MA1999999100101MD1810071+9999REMSYN066AAXX  23214 47095 32968 21801 10077 20068 30010 40198 58007 82030;EQDQ01  00002PRCP99
0210470950999992000102400004+38070+127810FM-12+013599999V0200501N000512200019N0250001N1+01381+00801102021ADDAA199000091GF102991021001999999031001IA1019IA2999+01709KA1120N+00691MA1999999100181MD1210081+9999REMSYN082AAXX  24004 47095 32975 20501 10138 20080 30018 40202 52008 82030 333 20069 30017;EQDQ01  00002PRCP99
0163470950999992000102403004+38070+127810FM-12+013599999V0201801N001010360019N0180001N1+01731+00921101831ADDAA199000091GF108991031051012501021999MA1999999100021MD1710161+9999REMSYN066AAXX  24034 47095 32668 81802 10173 20092 30002 40183 57016 8352/;EQDQ01  00002PRCP99
0161470950999992000102406004+38070+127810FM-12+013599999V0202501N000510120019N0180001N1+01581+01281101631ADDAY161061AY221061GF108991061051012501021999MA1999999099811MD1710211+9999MW1611REMSYN072AAXX  24064 47095 41668 82501 10158 20128 39981 40163 57021 76162 8652/;
0161470950999992000102409004+38070+127810FM-12+013599999V0202001N001010360019N0080001N1+01381+01301101601ADDAY161031AY261031GF108991031071004501021999MA1999999099771MD1810041+9999MW1611REMSYN072AAXX  24094 47095 41458 82002 10138 20130 39977 40160 58004 76166 8372/;
0231470950999992000102412004+38070+127810FM-12+013599999V0202901N000510075019N0030001N1+01351+01311101561ADDAA112005191AY161061AY261061GF108991051071008001021999IA1099IA2999+01409KA1120M+01761MA1999999099731MD1510041+9999MW1601REMSYN100AAXX  24124 47095 11530 82901 10135 20131 39973 40156 55004 60052 76066 8572/ 333 10176 31014 70046;
0124470950999992000102415004+38070+127810FM-12+013599999V0209999C000019999999N0015001N1+01381+01341999999ADDGF108991999999008001999999MA1999999099671REMSYN071AAXX  24154 47095 41515 80000 10138 20134 39967 4150 56006 76166 8572/;
0161470950999992000102418004+38070+127810FM-12+013599999V0209999C000010075019N0012001N1+01381+01351101461ADDAY161061AY261061GF108991051071008001021999MA1999999099641MD1810031+9999MW1611REMSYN072AAXX  24184 47095 41512 82500 10138 20135 39964 40146 58003 76166 8572/;
0161470950999992000102421004+38070+127810FM-12+013599999V0201101N000510075019N0050001N1+01401+01381101521ADDAY161031AY261031GF108991051071008001021999MA1999999099701MD1010061+9999MW1601REMSYN072AAXX  24214 47095 41550 81101 10140 20138 39970 40152 50006 76066 8572/;
0184470950999992000102500004+38070+127810FM-12+013599999V0202001N001010120019N0180001N1+01451+01351101731ADDAA112004191GF106991061051012501001001IA1099IA2999+01609MA1999999099911MD1210211+9999REMSYN088AAXX  25004 47095 12668 62002 10145 20135 39991 40173 52021 60042 86500 333 31016 70089;
0144470950999992000102503004+38070+127810FM-12+013599999V0202501N004112200019N0250001N1+01741+01101101701ADDAA199000021GF104991041051012501001001MA1999999099891MD1710021+9999REMSYN066AAXX  25034 47095 32675 42508 10174 20110 39989 40170 57002 84500;
0144470950999992000102506004+38070+127810FM-12+013599999V0202301N003619999999N0280001N1+01751+00741101641ADDAA199000021GF105991051001999999031001MA1999999099831MD1810061+9999REMSYN066AAXX  25064 47095 32978 52307 10175 20074 39983 40164 58006 85030;
0144470950999992000102509004+38070+127810FM-12+013599999V0202701N003112200019N0250001N1+01411+00071101771ADDAA199000021GF102991021001999999031001MA1999999099941MD1110111+9999REMSYN066AAXX  25094 47095 32975 22706 10141 20007 39994 40177 51011 82030;
0203470950999992000102512004+38070+127810FM-12+013599999V0201401N001019999999N0180001N1+00981+00491101991ADDAA124004391GF105991051001999999031001IA1019IA2999+01109KA1120M+01821MA1999999100121MD1210181+9999REMSYN094AAXX  25124 47095 32968 51402 10098 20049 30012 40199 52018 85030 333 10182 30011 55061 70043;
0163470950999992000102515004+38070+127810FM-12+013599999V0209999C000012200019N0180001N1+00661+00321102191ADDAA199000091GF101991011001999999031001MA1999999100301MD1210181+9999REMSYN066AAXX  25154 47095 32968 10000 10066 20032 30030 40219 52018 81030;EQDQ01  00002PRCP99
0173470950999992000102518004+38070+127810FM-12+013599999V0209999C000012200019N0180001N1+00281+00121102291ADDAA199000091GA1001+999999999GF100991001001999999001001MA1999999100361MD1810061+9999REMSYN060AAXX  25184 47095 32968 00000 10028 20012 30036 40229 58006;EQDQ01  00002PRCP99
0173470950999992000102521004+38070+127810FM-12+013599999V0202901N000512200019N0180001N1+00021-00061102431ADDAA199000091GA1001+999999999GF100991001001999999001001MA1999999100491MD1210131+9999REMSYN060AAXX  25214 47095 32968 02901 10002 21006 30049 40243 52013;EQDQ01  00002PRCP99
0220470950999992000102600004+38070+127810FM-12+013599999V0200501N000512200019N0280001N1+00641-00171102651ADDAA199000091GA1001+999999999GF100991001001999999001001IA1019IA2999+01109KA1120N-00081MA1999999100741MD1210251+9999REMSYN076AAXX  26004 47095 32978 00501 10064 21017 30074 40265 52025 333 21008 30011;EQDQ01  00002PRCP99
0173470950999992000102603004+38070+127810FM-12+013599999V0202701N001012200019N0280001N1+01151-00541102511ADDAA199000091GA1001+999999999GF100991001001999999001001MA1999999100651MD1610091+9999REMSYN060AAXX  26034 47095 32978 02702 10115 21054 30065 40251 56009;EQDQ01  00002PRCP99
0173470950999992000102606004+38070+127810FM-12+013599999V0200201N000512200019N0280001N1+01571-00811102351ADDAA199000091GA1001+999999999GF100991001001999999001001MA1999999100521MD1810131+9999REMSYN060AAXX  26064 47095 32978 00201 10157 21081 30052 40235 58013;EQDQ01  00002PRCP99
0173470950999992000102609004+38070+127810FM-12+013599999V0201401N000512200019N0220001N1+01041-00311102521ADDAA199000091GA1001+999999999GF100991001001999999001001MA1999999100651MD1210131+9999REMSYN060AAXX  26094 47095 32972 01401 10104 21031 30065 40252 52013;EQDQ01  00002PRCP99
0216470950999992000102612004+38070+127810FM-12+013599999V0200501N001012200019N0220001N1+00351-00051102671ADDAA199000091GF101991011001999999031001IA1019IA2999+00509KA1120M+01631MA1999999100751MD1210101+9999REMSYN088AAXX  26124 47095 32972 10502 10035 21005 30075 40267 52010 81030 333 10163 30005 55099;EQDQ01  00002PRCP99
0163470950999992000102615004+38070+127810FM-12+013599999V0209999C000012200019N0160001N1+00181-00061102741ADDAA199000091GF101991011051012501001001MA1999999100811MD1510061+9999REMSYN066AAXX  26154 47095 32666 10500 10018 21006 30081 40274 55006 81500;EQDQ01  00002PRCP99
0163470950999992000102618004+38070+127810FM-12+013599999V0209999C000012200019N0150001N1+00001-00091102821ADDAA199000091GF101991011051012501001001MA1999999100861MD1310051+9999REMSYN066AAXX  26184 47095 32665 10000 10000 21009 30086 40282 53005 81500;EQDQ01  00002PRCP99
0173470950999992000102621004+38070+127810FM-12+013599999V0209999C000012200019N0200001N1-00111-00161102941ADDAA199000091GA1001+999999999GF100991001001999999001001MA1999999100981MD1210121+9999REMSYN060AAXX  26214 47095 32970 00000 11011 21016 30098 40294 52012;EQDQ01  00002PRCP99
0220470950999992000102700004+38070+127810FM-12+013599999V0209999C000012200019N0300001N1+00461+00051103041ADDAA199000091GA1001+999999999GF100991001001999999001001IA1019IA2999+00909KA1120N-00141MA1999999101111MD1310131+9999REMSYN076AAXX  27004 47095 32980 00000 10046 20005 30111 40304 53013 333 21014 30009;EQDQ01  00002PRCP99
0189470950999992000102703004+38070+127810FM-12+013599999V0202001N000512200019N0300001N1+01622-00051102731ADDAA199000091GA1001+999999999GF100991001001999999001001MA1999999100901MD1710211+9999REMSYN060AAXX  27034 47095 32980 02001 10162 21005 30090 40273 57021;EQDQ01+001623ATOT  Q02  00002PRCP99
0173470950999992000102706004+38070+127810FM-12+013599999V0202701N000512200019N0280001N1+01921-00081102471ADDAA199000091GA1001+999999999GF100991001001999999001001MA1999999100661MD1710241+9999REMSYN060AAXX  27064 47095 32978 02701 10192 21008 30066 40247 57024;EQDQ01  00002PRCP99
0163470950999992000102709004+38070+127810FM-12+013599999V0201101N000519999999N0200001N1+01311+00401102541ADDAA199000091GF105991001001999999001011MA1999999100691MD1810031+9999REMSYN066AAXX  27094 47095 32970 51101 10131 20040 30069 40254 58003 80001;EQDQ01  00002PRCP99
0210470950999992000102712004+38070+127810FM-12+013599999V0209999C000012200019N0180001N1+00731+00421102711ADDAA199000091GF103991001001999999001011IA1019IA2999+00709KA1120M+01931MA1999999100821MD1210131+9999REMSYN082AAXX  27124 47095 32968 30000 10073 20042 30082 40271 52013 80001 333 10193 30007;EQDQ01  00002PRCP99
0163470950999992000102715004+38070+127810FM-12+013599999V0200201N001012200019N0180001N1+00521+00361102681ADDAA199000091GF103991001001999999001011MA1999999100771MD1710051+9999REMSYN066AAXX  27154 47095 32968 30202 10052 20036 30077 40268 57005 80001;EQDQ01  00002PRCP99
0163470950999992000102718004+38070+127810FM-12+013599999V0209999C000019999999N0150001N1+00531+00381102571ADDAA199000091GF106991001001999999001021MA1999999100661MD1510111+9999REMSYN066AAXX  27184 47095 32965 60000 10053 20038 30066 40257 55011 80002;EQDQ01  00002PRCP99
0163470950999992000102721004+38070+127810FM-12+013599999V0209999C000012200019N0150001N1+00391+00291102501ADDAA199000091GF104991001001999999001011MA1999999100581MD1810081+9999REMSYN066AAXX  27214 47095 32965 43400 10039 20029 30058 40250 58008 80001;EQDQ01  00002PRCP99
0210470950999992000102800004+38070+127810FM-12+013599999V0201801N000510360019N0150001N1+00661+00441102461ADDAA199000091GF107991021051012501031021IA1019IA2999+00909KA1120N+00361MA1999999100561MD1310021+9999REMSYN082AAXX  28004 47095 32665 71801 10066 20044 30056 40246 53002 82532 333 20036 30009;EQDQ01  00002PRCP99
0163470950999992000102803004+38070+127810FM-12+013599999V0200701N000510360019N0130001N1+01231+00371102241ADDAA199000091GF108991021051012501021999MA1999999100391MD1710171+9999REMSYN066AAXX  28034 47095 32663 80701 10123 20037 30039 40224 57017 8252/;EQDQ01  00002PRCP99
0163470950999992000102806004+38070+127810FM-12+013599999V0202301N000510360019N0120001N1+01461+00371101981ADDAA199000091GF108991021051012501011999MA1999999100151MD1710241+9999REMSYN066AAXX  28064 47095 32662 82301 10146 20037 30015 40198 57024 8251/;EQDQ01  00002PRCP99
0163470950999992000102809004+38070+127810FM-12+013599999V0203601N001010360019N0100001N1+01111+00601101921ADDAA199000091GF108991021051012501021999MA1999999100061MD1710091+9999REMSYN066AAXX  28094 47095 32660 83602 10111 20060 30006 40192 57009 8252/;EQDQ01  00002PRCP99
0216470950999992000102812004+38070+127810FM-12+013599999V0209999C000010360019N0100001N1+00851+00601101951ADDAA199000091GF108991021051012501021999IA1019IA2999+00909KA1120M+01471MA1999999100071MD1710011+9999REMSYN088AAXX  28124 47095 32660 82700 10085 20060 30007 40195 57001 8252/ 333 10147 30009 55000;EQDQ01  00002PRCP99
0163470950999992000102815004+38070+127810FM-12+013599999V0209999C000010360019N0100001N1+00621+00501101841ADDAA199000091GF108991021051012501021999MA1999999099951MD1510121+9999REMSYN066AAXX  28154 47095 32660 80000 10062 20050 39995 40184 55012 8252/;EQDQ01  00002PRCP99
0163470950999992000102818004+38070+127810FM-12+013599999V0209999C000010360019N0100001N1+00551+00461101761ADDAA199000091GF108991021051012501021999MA1999999099871MD1710081+9999REMSYN066AAXX  28184 47095 32660 80000 10055 20046 39987 40176 57008 8252/;EQDQ01  00002PRCP99
0163470950999992000102821004+38070+127810FM-12+013599999V0200201N001010360019N0100001N1+00431+00361101641ADDAA199000091GF108991021051012501011999MA1999999099741MD1710131+9999REMSYN066AAXX  28214 47095 32660 80202 10043 20036 39974 40164 57013 8251/;EQDQ01  00002PRCP99
0210470950999992000102900004+38070+127810FM-12+013599999V0209999C000010120019N0100001N1+00611+00541101661ADDAA199000091GF108991051051012501011999IA1019IA2999+00909KA1120N+00401MA1999999099771MD1210031+9999REMSYN082AAXX  29004 47095 32660 80000 10061 20054 39977 40166 52003 8551/ 333 20040 30009;EQDQ01  00002PRCP99
0163470950999992000102903004+38070+127810FM-12+013599999V0202701N001010360019N0120001N1+01051+00211101491ADDAA199000091GF108991041051012501011999MA1999999099641MD1710131+9999REMSYN066AAXX  29034 47095 32662 82702 10105 20021 39964 40149 57013 8451/;EQDQ01  00002PRCP99
0163470950999992000102906004+38070+127810FM-12+013599999V0202001N002110360019N0140001N1+01201+00171101331ADDAA199000091GF108991041051012501021999MA1999999099491MD1710151+9999REMSYN066AAXX  29064 47095 32664 82004 10120 20017 39949 40133 57015 8452/;EQDQ01  00002PRCP99
0163470950999992000102909004+38070+127810FM-12+013599999V0201601N001012200019N0150001N1+00941+00131101391ADDAA199000091GF105991021051012501001011MA1999999099531MD1210041+9999REMSYN066AAXX  29094 47095 32665 51602 10094 20013 39953 40139 52004 82501;EQDQ01  00002PRCP99
0216470950999992000102912004+38070+127810FM-12+013599999V0202701N000512200019N0120001N1+00361+00191101611ADDAA199000091GF102991001001999999001021IA1019IA2999+00409KA1120M+01261MA1999999099711MD1210181+9999REMSYN088AAXX  29124 47095 32962 22701 10036 20019 39971 40161 52018 80002 333 10126 30004 55004;EQDQ01  00002PRCP99
0201470950999992000102915004+38070+127810FM-12+013599999V0209999C000012200019N0090001N1+00081+00011101801ADDAA199000091AY101031AY201031GA1001+999999999GF100991001001999999001001MA1999999099871MD1210161+9999MW1101REMSYN066AAXX  29154 47095 31959 00000 10008 20001 39987 40180 52016 71000;EQDQ01  00002PRCP99
0201470950999992000102918004+38070+127810FM-12+013599999V0200201N001012200019N0050001N1-00121-00171101911ADDAA199000091AY121061AY221061GA1001+999999999GF100991001001999999001001MA1999999099971MD1810101+9999MW1101REMSYN066AAXX  29184 47095 31950 00202 11012 21017 39997 40191 58010 71022;EQDQ01  00002PRCP99
0201470950999992000102921004+38070+127810FM-12+013599999V0209999C000012200019N0015001N1-00261-00291102011ADDAA199000091AY121031AY221031GA1001+999999999GF100991001001999999001001MA1999999100051MD1110081+9999MW1101REMSYN066AAXX  29214 47095 31915 00000 11026 21029 30005 40201 51008 71022;EQDQ01  00002PRCP99
0220470950999992000103000004+38070+127810FM-12+013599999V0209999C000012200019N0150001N1+00111+00081102231ADDAA199000091GA1001+999999999GF100991001001999999001001IA1019IA2999+00509KA1120N-00361MA1999999100301MD1210251+9999REMSYN076AAXX  30004 47095 32965 00000 10011 20008 30030 40223 52025 333 21036 30005;EQDQ01  00002PRCP99
0173470950999992000103003004+38070+127810FM-12+013599999V0202501N002112200019N0150001N1+01201-00121102111ADDAA199000091GA1001+999999999GF100991001001999999001001MA1999999100261MD1510041+9999REMSYN060AAXX  30034 47095 32965 02504 10120 21012 30026 40211 55004;EQDQ01  00002PRCP99
0173470950999992000103006004+38070+127810FM-12+013599999V0202301N003612200019N0150001N1+01421-00361101971ADDAA199000091GA1001+999999999GF100991001001999999001001MA1999999100141MD1810121+9999REMSYN060AAXX  30064 47095 32965 02307 10142 21036 30014 40197 58012;EQDQ01  00002PRCP99
0173470950999992000103009004+38070+127810FM-12+013599999V0201801N001012200019N0150001N1+00961-00491102131ADDAA199000091GA1001+999999999GF100991001001999999001001MA1999999100261MD1210121+9999REMSYN060AAXX  30094 47095 32965 01802 10096 21049 30026 40213 52012;EQDQ01  00002PRCP99
0220470950999992000103012004+38070+127810FM-12+013599999V0202501N000512200019N0120001N1+00221-00211102351ADDAA199000091GA1001+999999999GF100991001001999999001001IA1019IA2999+00309KA1120M+01451MA1999999100431MD1210171+9999REMSYN076AAXX  30124 47095 32962 02501 10022 21021 30043 40235 52017 333 10145 30003;EQDQ01  00002PRCP99
0173470950999992000103015004+38070+127810FM-12+013599999V0200701N000512200019N0120001N1-00071-00321102491ADDAA199000091GA1001+999999999GF100991001001999999001001MA1999999100541MD1210111+9999REMSYN060AAXX  30154 47095 32962 00701 11007 21032 30054 40249 52011;EQDQ01  00002PRCP99
0173470950999992000103018004+38070+127810FM-12+013599999V0203201N000512200019N0120001N1-00211-00351102551ADDAA199000091GA1001+999999999GF100991001001999999001001MA1999999100591MD1810051+9999REMSYN060AAXX  30184 47095 32962 03201 11021 21035 30059 40255 58005;EQDQ01  00002PRCP99
0173470950999992000103021004+38070+127810FM-12+013599999V0209999C000012200019N0120001N1-00281-00391102611ADDAA199000091GA1001+999999999GF100991001001999999001001MA1999999100641MD1210051+9999REMSYN060AAXX  30214 47095 32962 00200 11028 21039 30064 40261 52005;EQDQ01  00002PRCP99
0210470950999992000103100004+38070+127810FM-12+013599999V0209999C000012200019N0280001N1+00261-00171102611ADDAA199000091GF101991001001999999001011IA1019IA2999+00609KA1120N-00291MA1999999100681MD1010041+9999REMSYN082AAXX  31004 47095 32978 10000 10026 21017 30068 40261 50004 80001 333 21029 30006;EQDQ01  00002PRCP99
0179470950999992000103103004+38070+127810FM-12+013599999V0202701N000519999999N0250001N1+01372-00041102331ADDAA199000091GF107991041001999999031021MA1999999100491MD1710191+9999REMSYN066AAXX  31034 47095 32975 72701 10137 21004 30049 40233 57019 84032;EQDQ01+001373ATOT  Q02  00002PRCP99
0163470950999992000103106004+38070+127810FM-12+013599999V0202701N001019999999N0280001N1+01531-00111102121ADDAA199000091GF107991041001999999031021MA1999999100291MD1710201+9999REMSYN066AAXX  31064 47095 32978 72702 10153 21011 30029 40212 57020 84032;EQDQ01  00002PRCP99
0163470950999992000103109004+38070+127810FM-12+013599999V0201101N000510360019N0280001N1+01081+00291102171ADDAA199000091GF107991021051012501031001MA1999999100311MD1210021+9999REMSYN066AAXX  31094 47095 32678 71101 10108 20029 30031 40217 52002 82530;EQDQ01  00002PRCP99
0210470950999992000103112004+38070+127810FM-12+013599999V0200201N001519999999N0200001N1+00701+00231102231ADDAA199000091GF107991999999012501999999IA1019IA2999+00709KA1120M+01621MA1999999100341MD1210031+9999REMSYN082AAXX  31124 47095 32670 70203 10070 20023 30034 40223 52003 333 10162 30007 55071;EQDQ01  00002PRCP99
0163470950999992000103115004+38070+127810FM-12+013599999V0209999C000010360019N0180001N1+00581+00331102251ADDAA199000091GF107991021051012501031001MA1999999100361MD1410001+9999REMSYN066AAXX  31154 47095 32668 70000 10058 20033 30036 40225 54002 82530;EQDQ01  00002PRCP99
0163470950999992000103118004+38070+127810FM-12+013599999V0209999C000010360019N0150001N1+00531+00361102171ADDAA199000091GF108991021051012501011999MA1999999100271MD1410001+9999REMSYN066AAXX  31184 47095 32665 80000 10053 20036 30027 40217 54001 8251/;EQDQ01  00002PRCP99
0163470950999992000103121004+38070+127810FM-12+013599999V0209999C000010360019N0150001N1+00551+00341102161ADDAA199000091GF108991021051012501021999MA1999999100261MD1810011+9999REMSYN066AAXX  31214 47095 32665 82700 10055 20034 30026 40216 58001 8252/;EQDQ01  00002PRCP99
0210470950999992000110100004+38070+127810FM-12+013599999V0202701N000510360019N0150001N1+00711+00411102191ADDAA199000091GF108991021051012501021999IA1019IA2999+00909KA1120N+00521MA1999999100301MD1010041+9999REMSYN082AAXX  01004 47095 32665 82701 10071 20041 30030 40219 50004 8252/ 333 20052 30009;EQDQ01  00002PRCP99
0163470950999992000110103004+38070+127810FM-12+013599999V0200501N000510360019N0150001N1+01411+00361102011ADDAA199000091GF107991021051012501011001MA1999999100171MD1710131+9999REMSYN066AAXX  01034 47095 32665 70501 10141 20036 30017 40201 57013 82510;EQDQ01  00002PRCP99
0163470950999992000110106004+38070+127810FM-12+013599999V0203201N001510360019N0140001N1+01471+00361101841ADDAA199000091GF108991021051012501021999MA1999999100021MD1710151+9999REMSYN066AAXX  01064 47095 32664 83203 10147 20036 30002 40184 57015 8252/;EQDQ01  00002PRCP99
0179470950999992000110109004+38070+127810FM-12+013599999V0209999C000010360019N0140001N1+01161+00601101871ADDAA199000091GF106991021051012501011001MA1999999100021MD1310031+9999REMSYN066AAXX  01094 47095 32664 60500 10116 20060 30002 40187 53000 82510;EQDQ01+000002APC3  Q02  00002PRCP99
0216470950999992000110112004+38070+127810FM-12+013599999V0201401N001010360019N0120001N1+00941+00551101971ADDAA199000091GF108991021051012501021999IA1019IA2999+00909KA1120M+01541MA1999999100101MD1210081+9999REMSYN088AAXX  01124 47095 32662 81402 10094 20055 30010 40197 52008 8252/ 333 10154 30009 55006;EQDQ01  00002PRCP99
0163470950999992000110115004+38070+127810FM-12+013599999V0209999C000010360019N0120001N1+00811+00571101951ADDAA199000091GF106991021051012501031001MA1999999100071MD1710031+9999REMSYN066AAXX  01154 47095 32662 61100 10081 20057 30007 40195 57003 82530;EQDQ01  00002PRCP99
0163470950999992000110118004+38070+127810FM-12+013599999V0200901N000510360019N0130001N1+00771+00571101901ADDAA199000091GF106991021051012501031001MA1999999100021MD1710051+9999REMSYN066AAXX  01184 47095 32663 60901 10077 20057 30002 40190 57005 82530;EQDQ01  00002PRCP99
0179470950999992000110121004+38070+127810FM-12+013599999V0200501N001512200019N0180001N1+00841+00551101901ADDAA199000091GF102991021051012501001001MA1999999100021MD1410001+9999REMSYN066AAXX  01214 47095 32668 20503 10084 20055 30002 40190 58000 82500;EQDQ01+000082APCTENQ02  00002PRCP99
0220470950999992000110200004+38070+127810FM-12+013599999V0200501N001012200019N0220001N1+01131+00661102031ADDAA199000091GA1001+999999999GF100991001001999999001001IA1019IA2999+01309KA1120N+00621MA1999999100181MD1210161+9999REMSYN076AAXX  02004 47095 32972 00502 10113 20066 30018 40203 52016 333 20062 30013;EQDQ01  00002PRCP99
0173470950999992000110203004+38070+127810FM-12+013599999V0203401N003112200019N0220001N1+01761+00481101901ADDAA199000091GA1001+999999999GF100991001001999999001001MA1999999100091MD1610091+9999REMSYN060AAXX  02034 47095 32972 03406 10176 20048 30009 40190 56009;EQDQ01  00002PRCP99
0173470950999992000110206004+38070+127810FM-12+013599999V0203401N002112200019N0250001N1+01881+00151101781ADDAA199000091GA1001+999999999GF100991001001999999001001MA1999999099981MD1810111+9999REMSYN060AAXX  02064 47095 32975 03404 10188 20015 39998 40178 58011;EQDQ01  00002PRCP99
0173470950999992000110209004+38070+127810FM-12+013599999V0201801N000512200019N0200001N1+01371+00461101941ADDAA199000091GA1001+999999999GF100991001001999999001001MA1999999100111MD1210131+9999REMSYN060AAXX  02094 47095 32970 01801 10137 20046 30011 40194 52013;EQDQ01  00002PRCP99
0220470950999992000110212004+38070+127810FM-12+013599999V0200701N001012200019N0180001N1+00731+00401102151ADDAA199000091GA1001+999999999GF100991001001999999001001IA1019IA2999+00709KA1120M+01921MA1999999100271MD1210161+9999REMSYN076AAXX  02124 47095 32968 00702 10073 20040 30027 40215 52016 333 10192 30007;EQDQ01  00002PRCP99
0173470950999992000110215004+38070+127810FM-12+013599999V0200201N001012200019N0180001N1+00421+00291102321ADDAA199000091GA1001+999999999GF100991001001999999001001MA1999999100411MD1210141+9999REMSYN060AAXX  02154 47095 32968 00202 10042 20029 30041 40232 52014;EQDQ01  00002PRCP99
0173470950999992000110218004+38070+127810FM-12+013599999V0209999C000012200019N0120001N1+00201+00131102391ADDAA199000091GA1001+999999999GF100991001001999999001001MA1999999100461MD1810051+9999REMSYN060AAXX  02184 47095 32962 00000 10020 20013 30046 40239 58005;EQDQ01  00002PRCP99
0173470950999992000110221004+38070+127810FM-12+013599999V0209999C000012200019N0120001N1+00061+00021102481ADDAA199000091GA1001+999999999GF100991001001999999001001MA1999999100541MD1210081+9999REMSYN060AAXX  02214 47095 32962 00000 10006 20002 30054 40248 52008;EQDQ01  00002PRCP99
0220470950999992000110300004+38070+127810FM-12+013599999V0209999C000012200019N0200001N1+00531+00491102591ADDAA199000091GA1001+999999999GF100991001001999999001001IA1019IA2999+01009KA1120N+00031MA1999999100681MD1210141+9999REMSYN076AAXX  03004 47095 32970 00000 10053 20049 30068 40259 52014 333 20003 30010;EQDQ01  00002PRCP99
0189470950999992000110303004+38070+127810FM-12+013599999V0202301N000512200019N0200001N1+01662+00411102401ADDAA199000091GA1001+999999999GF100991001001999999001001MA1999999100571MD1610111+9999REMSYN060AAXX  03034 47095 32970 02301 10166 20041 30057 40240 56011;EQDQ01+001663ATOT  Q02  00002PRCP99
0173470950999992000110306004+38070+127810FM-12+013599999V0203601N000512200019N0200001N1+02061+00271102231ADDAA199000091GA1001+999999999GF100991001001999999001001MA1999999100441MD1710131+9999REMSYN060AAXX  03064 47095 32970 03601 10206 20027 30044 40223 57013;EQDQ01  00002PRCP99
0173470950999992000110309004+38070+127810FM-12+013599999V0209999C000012200019N0250001N1+01341+00501102321ADDAA199000091GA1001+999999999GF100991001001999999001001MA1999999100471MD1010031+9999REMSYN060AAXX  03094 47095 32975 00000 10134 20050 30047 40232 50003;EQDQ01  00002PRCP99
0226470950999992000110312004+38070+127810FM-12+013599999V0200701N001012200019N0150001N1+00751+00381102441ADDAA199000091GA1001+999999999GF100991001001999999001001IA1019IA2999+00709KA1120M+02101MA1999999100551MD1310081+9999REMSYN082AAXX  03124 47095 32965 00702 10075 20038 30055 40244 53008 333 10210 30007 55021;EQDQ01  00002PRCP99
0173470950999992000110315004+38070+127810FM-12+013599999V0203401N000512200019N0150001N1+00421+00281102461ADDAA199000091GA1001+999999999GF100991001001999999001001MA1999999100541MD1510011+9999REMSYN060AAXX  03154 47095 32965 03401 10042 20028 30054 40246 55001;EQDQ01  00002PRCP99
0201470950999992000110318004+38070+127810FM-12+013599999V0209999C000012200019N0080001N1+00241+00151102411ADDAA199000091AY101061AY201061GA1001+999999999GF100991001001999999001001MA1999999100481MD1710061+9999MW1101REMSYN066AAXX  03184 47095 31958 00000 10024 20015 30048 40241 57006 71000;EQDQ01  00002PRCP99
0201470950999992000110321004+38070+127810FM-12+013599999V0201801N000512200019N0060001N1+00201+00141102371ADDAA199000091AY101031AY201031GA1001+999999999GF100991001001999999001001MA1999999100441MD1710041+9999MW1101REMSYN066AAXX  03214 47095 31956 01801 10020 20014 30044 40237 57004 71000;EQDQ01  00002PRCP99
0238470950999992000110400004+38070+127810FM-12+013599999V0201401N001010360019N0100001N1+00471+00401102371ADDAA199000091AY121061AY221061GF106991021051012501031011IA1019IA2999+00709KA1120N+00121MA1999999100461MD1110021+9999MW1101REMSYN088AAXX  04004 47095 31660 61402 10047 20040 30046 40237 51002 71022 82531 333 20012 30007;EQDQ01  00002PRCP99
0179470950999992000110403004+38070+127810FM-12+013599999V0202301N005110900019N0100001N1+01582+00631101881ADDAA199000091GF106991021051012501001021MA1999999100061MD1710401+9999REMSYN066AAXX  04034 47095 32660 62310 10158 20063 30006 40188 57040 82502;EQDQ01+001583ATOT  Q02  00002PRCP99
0163470950999992000110406004+38070+127810FM-12+013599999V0202501N006210900019N0110001N1+01641+00621101701ADDAA199000091GF106991041051012501001021MA1999999099891MD1710171+9999REMSYN066AAXX  04064 47095 32661 62512 10164 20062 39989 40170 57017 84502;EQDQ01  00002PRCP99
0163470950999992000110409004+38070+127810FM-12+013599999V0202001N001512200019N0100001N1+01291+00641101721ADDAA199000091GF104991021051012501001021MA1999999099881MD1510011+9999REMSYN066AAXX  04094 47095 32660 42003 10129 20064 39988 40172 55001 82502;EQDQ01  00002PRCP99
0216470950999992000110412004+38070+127810FM-12+013599999V0202001N003110360019N0100001N1+01351+00791101721ADDAA199000091GF108991021051012501021999IA1019IA2999+01209KA1120M+01661MA1999999099891MD1310011+9999REMSYN088AAXX  04124 47095 32660 82006 10135 20079 39989 40172 53001 8252/ 333 10166 30012 55042;EQDQ01  00002PRCP99
0163470950999992000110415004+38070+127810FM-12+013599999V0202301N005112200019N0080001N1+01291+00891101761ADDAA199000091GF103991001001999999001021MA1999999099921MD1210031+9999REMSYN066AAXX  04154 47095 31958 32310 10129 20089 39992 40176 52003 80002;EQDQ01  00002PRCP99
0163470950999992000110418004+38070+127810FM-12+013599999V0202901N003112200019N0110001N1+01071+00481101891ADDAA199000091GF103991011001999999031021MA1999999100031MD1110111+9999REMSYN066AAXX  04184 47095 32961 32906 10107 20048 30003 40189 51011 81032;EQDQ01  00002PRCP99
0173470950999992000110421004+38070+127810FM-12+013599999V0200701N001012200019N0160001N1+00421+00071101961ADDAA199000091GA1001+999999999GF100991001001999999001001MA1999999100051MD1210021+9999REMSYN060AAXX  04214 47095 32966 00702 10042 20007 30005 40196 52002;EQDQ01  00002PRCP99
0220470950999992000110500004+38070+127810FM-12+013599999V0209999C000012200019N0220001N1+00711+00131102081ADDAA199000091GA1001+999999999GF100991001001999999001001IA1019IA2999+01209KA1120N+00161MA1999999100201MD1210151+9999REMSYN076AAXX  05004 47095 32972 00000 10071 20013 30020 40208 52015 333 20016 30012;EQDQ01  00002PRCP99
0189470950999992000110503004+38070+127810FM-12+013599999V0200901N000512200019N0200001N1+01491-01362101921ADDAA199000091GA1001+999999999GF100991001001999999001001MA1999999100091MD1710111+9999REMSYN060AAXX  05034 47095 32970 00901 10149 21136 30009 40192 57011;EQDQ01-001363ATOD  Q02  00002PRCP99
0173470950999992000110506004+38070+127810FM-12+013599999V0202701N002612200019N0200001N1+01621-01091101811ADDAA199000091GA1001+999999999GF100991001001999999001001MA1999999100001MD1810091+9999REMSYN060AAXX  05064 47095 32970 02705 10162 21109 30000 40181 58009;EQDQ01  00002PRCP99
0173470950999992000110509004+38070+127810FM-12+013599999V0209999C000012200019N0200001N1+00881-00191101901ADDAA199000091GA1001+999999999GF100991001001999999001001MA1999999100031MD1110031+9999REMSYN060AAXX  05094 47095 32970 00000 10088 21019 30003 40190 51003;EQDQ01  00002PRCP99
0220470950999992000110512004+38070+127810FM-12+013599999V0200201N000512200019N0180001N1+00401-00271102051ADDAA199000091GA1001+999999999GF100991001001999999001001IA1019IA2999+00309KA1120M+01711MA1999999100141MD1210111+9999REMSYN076AAXX  05124 47095 32968 00201 10040 21027 30014 40205 52011 333 10171 30003;EQDQ01  00002PRCP99
0173470950999992000110515004+38070+127810FM-12+013599999V0201601N000512200019N0150001N1+00191-00221102081ADDAA199000091GA1001+999999999GF100991001001999999001001MA1999999100161MD1310021+9999REMSYN060AAXX  05154 47095 32965 01601 10019 21022 30016 40208 53002;EQDQ01  00002PRCP99
0173470950999992000110518004+38070+127810FM-12+013599999V0200701N001012200019N0150001N1+00031-00211102021ADDAA199000091GA1001+999999999GF100991001001999999001001MA1999999100081MD1810081+9999REMSYN060AAXX  05184 47095 32965 00702 10003 21021 30008 40202 58008;EQDQ01  00002PRCP99
0173470950999992000110521004+38070+127810FM-12+013599999V0209999C000012200019N0150001N1-00071-00251102021ADDAA199000091GA1001+999999999GF100991001001999999001001MA1999999100071MD1710011+9999REMSYN060AAXX  05214 47095 32965 00000 11007 21025 30007 40202 57001;EQDQ01  00002PRCP99
0210470950999992000110600004+38070+127810FM-12+013599999V0209999C000019999999N0220001N1+00441-00151102061ADDAA199000091GF106991001001999999001021IA1019IA2999+01109KA1120N-00101MA1999999100151MD1210081+9999REMSYN082AAXX  06004 47095 32972 60000 10044 21015 30015 40206 52008 80002 333 21010 30011;EQDQ01  00002PRCP99
0179470950999992000110603004+38070+127810FM-12+013599999V0209999C000012200019N0200001N1+01582-00361101781ADDAA199000091GF104991011001999999031021MA1999999099961MD1710191+9999REMSYN066AAXX  06034 47095 32970 42700 10158 21036 39996 40178 57019 81032;EQDQ01+001583ATOT  Q02  00002PRCP99
0163470950999992000110606004+38070+127810FM-12+013599999V0202301N002612200019N0180001N1+01951-00391101601ADDAA199000091GF102991001001999999001021MA1999999099811MD1810151+9999REMSYN066AAXX  06064 47095 32968 22305 10195 21039 39981 40160 58015 80002;EQDQ01  00002PRCP99
0163470950999992000110609004+38070+127810FM-12+013599999V0201801N001512200019N0120001N1+01351+00031101721ADDAA199000091GF102991001001999999001011MA1999999099881MD1110071+9999REMSYN066AAXX  06094 47095 32962 21803 10135 20003 39988 40172 51007 80001;EQDQ01  00002PRCP99
0226470950999992000110612004+38070+127810FM-12+013599999V0200201N001512200019N0120001N1+00671+00151101871ADDAA199000091GA1001+999999999GF100991001001999999001001IA1019IA2999+00509KA1120M+01961MA1999999099981MD1210101+9999REMSYN082AAXX  06124 47095 32962 00203 10067 20015 39998 40187 52010 333 10196 30005 55028;EQDQ01  00002PRCP99
0163470950999992000110615004+38070+127810FM-12+013599999V0209999C000012200019N0100001N1+00381+00191101971ADDAA199000091GF102991001001999999001011MA1999999100061MD1210081+9999REMSYN066AAXX  06154 47095 32960 20700 10038 20019 30006 40197 52008 80001;EQDQ01  00002PRCP99
0173470950999992000110618004+38070+127810FM-12+013599999V0202001N000512200019N0100001N1+00311+00171101961ADDAA199000091GA1001+999999999GF100991001001999999001001MA1999999100051MD1310011+9999REMSYN060AAXX  06184 47095 32960 02001 10031 20017 30005 40196 53001;EQDQ01  00002PRCP99
0161470950999992000110621004+38070+127810FM-12+013599999V0201601N001010360019N0080001N1+00821+00611102061ADDAY121031AY211031GF108991021051012501021999MA1999999100181MD1510131+9999MW1211REMSYN072AAXX  06214 47095 41658 81602 10082 20061 30018 40206 55013 72121 8252/;
0197470950999992000110700004+38070+127810FM-12+013599999V0202701N001010360019N0120001N1+01001+00751102131ADDAA112000791GF107991021051012501011001IA1019IA2999+01309KA1120N+00241MA1999999100261MD1210081+9999REMSYN088AAXX  07004 47095 32662 72702 10100 20075 30026 40213 52008 69902 82510 333 20024 30013;
0144470950999992000110703004+38070+127810FM-12+013599999V0202701N003119999999N0200001N1+01391-00191102091ADDAA199000021GF105991001001999999001011MA1999999100251MD1310011+9999REMSYN066AAXX  07034 47095 32970 52706 10139 21019 30025 40209 53001 80001;
0144470950999992000110706004+38070+127810FM-12+013599999V0202701N005119999999N0220001N1+01231-01442102211ADDAA199000021GF105991001001999999001011MA1999999100351MD1010101+9999REMSYN066AAXX  07064 47095 32972 52710 10123 21144 30035 40221 50010 80001;
0144470950999992000110709004+38070+127810FM-12+013599999V0202301N005112200019N0220001N1+00811-01321102351ADDAA199000021GF106991011051012501001011MA1999999100461MD1210111+9999REMSYN066AAXX  07094 47095 32672 62310 10081 21132 30046 40235 52011 81501;
0226470950999992000110712004+38070+127810FM-12+013599999V0202901N001512200019N0200001N1+00201-01141102681ADDAA199000091GA1001+999999999GF100991001001999999001001IA1019IA2999+00209KA1120M+01451MA1999999100751MD1210291+9999REMSYN082AAXX  07124 47095 32970 02903 10020 21114 30075 40268 52029 333 10145 30002 55054;EQDQ01  00002PRCP99
0163470950999992000110715004+38070+127810FM-12+013599999V0202001N000512200019N0200001N1-00011-00931102791ADDAA199000091GF102991001001999999001011MA1999999100831MD1210081+9999REMSYN066AAXX  07154 47095 32970 22001 11001 21093 30083 40279 52008 80001;EQDQ01  00002PRCP99
0163470950999992000110718004+38070+127810FM-12+013599999V0209999C000012200019N0120001N1-00171-00681102921ADDAA199000091GF103991001001999999001021MA1999999100951MD1210121+9999REMSYN066AAXX  07184 47095 32962 30000 11017 21068 30095 40292 52012 80002;EQDQ01  00002PRCP99
0163470950999992000110721004+38070+127810FM-12+013599999V0200501N000519999999N0120001N1-00091-01011102951ADDAA199000091GF106991031001999999031021MA1999999100991MD1110041+9999REMSYN066AAXX  07214 47095 32962 60501 11009 21101 30099 40295 51004 83032;EQDQ01  00002PRCP99
0163470950999992000110806004+38070+127810FM-12+013599999V0200901N000519999999N0220001N1+00641-01551102561ADDAA199000091GF105991001001999999001021MA1999999100661MD1710151+9999REMSYN066AAXX  08064 47095 32972 50901 10064 21155 30066 40256 57015 80002;EQDQ01  00002PRCP99
0173470950999992000110809004+38070+127810FM-12+013599999V0201401N000512200019N0220001N1+00271-01041102631ADDAA199000091GA1001+999999999GF100991001001999999001001MA1999999100701MD1810041+9999REMSYN060AAXX  08094 47095 32972 01401 10027 21104 30070 40263 58004;EQDQ01  00002PRCP99
0220470950999992000110812004+38070+127810FM-12+013599999V0209999C000012200019N0180001N1-00271-00781102741ADDAA199000091GA1001+999999999GF100991001001999999001001IA1019IA2999-00309KA1120M+00701MA1999999100771MD1210071+9999REMSYN076AAXX  08124 47095 32968 00000 11027 21078 30077 40274 52007 333 10070 30103;EQDQ01  00002PRCP99
0173470950999992000110815004+38070+127810FM-12+013599999V0209999C000012200019N0180001N1-00441-00781102751ADDAA199000091GA1001+999999999GF100991001001999999001001MA1999999100761MD1310011+9999REMSYN060AAXX  08154 47095 32968 00000 11044 21078 30076 40275 53001;EQDQ01  00002PRCP99
0173470950999992000110818004+38070+127810FM-12+013599999V0209999C000012200019N0150001N1-00551-00781102631ADDAA199000091GA1001+999999999GF100991001001999999001001MA1999999100641MD1710121+9999REMSYN060AAXX  08184 47095 32965 00000 11055 21078 30064 40263 57012;EQDQ01  00002PRCP99
0173470950999992000110821004+38070+127810FM-12+013599999V0209999C000012200019N0150001N1-00551-00741102621ADDAA199000091GA1001+999999999GF100991001001999999001001MA1999999100631MD1710011+9999REMSYN060AAXX  08214 47095 32965 00000 11055 21074 30063 40262 57001;EQDQ01  00002PRCP99
0220470950999992000110900004+38070+127810FM-12+013599999V0209999C000012200019N0200001N1-00151-00701102731ADDAA199000091GA1001+999999999GF100991001001999999001001IA1019IA2999+00409KA1120N-00611MA1999999100771MD1210141+9999REMSYN076AAXX  09004 47095 32970 00000 11015 21070 30077 40273 52014 333 21061 30004;EQDQ01  00002PRCP99
0163470950999992000110903004+38070+127810FM-12+013599999V0202701N000510360019N0180001N1+00361-00821102671ADDAA199000091GF108991021051012501021999MA1999999100751MD1510021+9999REMSYN066AAXX  09034 47095 32668 82701 10036 21082 30075 40267 55002 8252/;EQDQ01  00002PRCP99
0163470950999992000110906004+38070+127810FM-12+013599999V0209999C000010360019N0220001N1+00651-01071102491ADDAA199000091GF108991011051012501021999MA1999999100591MD1710161+9999REMSYN066AAXX  09064 47095 32672 83200 10065 21107 30059 40249 57016 8152/;EQDQ01  00002PRCP99
0163470950999992000110909004+38070+127810FM-12+013599999V0200201N001012200019N0250001N1+00351-00901102541ADDAA199000091GF102991021001999999031001MA1999999100621MD1010031+9999REMSYN066AAXX  09094 47095 32975 20202 10035 21090 30062 40254 50003 82030;EQDQ01  00002PRCP99
0216470950999992000110912004+38070+127810FM-12+013599999V0201801N000519999999N0200001N1+00231-00731102671ADDAA199000091GF107991071001999999031001IA1019IA2999+00409KA1120M+00781MA1999999100741MD1210121+9999REMSYN088AAXX  09124 47095 32970 71801 10023 21073 30074 40267 52012 87030 333 10078 30004 55017;EQDQ01  00002PRCP99
0163470950999992000110915004+38070+127810FM-12+013599999V0209999C000010360019N0200001N1+00251-00481102621ADDAA199000091GF107991021051012501031001MA1999999100691MD1710051+9999REMSYN066AAXX  09154 47095 32670 70000 10025 21048 30069 40262 57005 82530;EQDQ01  00002PRCP99
0163470950999992000110918004+38070+127810FM-12+013599999V0201601N000510360019N0180001N1+00281-00611102661ADDAA199000091GF108991021051012501021999MA1999999100731MD1210041+9999REMSYN066AAXX  09184 47095 32668 81601 10028 21061 30073 40266 52004 8252/;EQDQ01  00002PRCP99
0163470950999992000110921004+38070+127810FM-12+013599999V0202701N001010360019N0180001N1+00261-00381102551ADDAA199000091GF108991021051012501021999MA1999999100621MD1710111+9999REMSYN066AAXX  09214 47095 32668 82702 10026 21038 30062 40255 57011 8252/;EQDQ01  00002PRCP99
0231470950999992000111000004+38070+127810FM-12+013599999V0202701N000510360019N0120001N1+00321-00371102611ADDAA112000791AY161061AY221061GF108991031051012501021999IA1019IA2999+00509KA1120N+00231MA1999999100691MD1010071+9999MW1681REMSYN100AAXX  10004 47095 41662 82701 10032 21037 30069 40261 50007 69902 76862 8352/ 333 20023 30005 70000;
0161470950999992000111003004+38070+127810FM-12+013599999V0203401N001010360019N0100001N1+00351-00041102541ADDAY161031AY221031GF108991031071008001021999MA1999999100621MD1310071+9999MW1601REMSYN072AAXX  10034 47095 41560 83402 10035 21004 30062 40254 53007 76062 8372/;
0161470950999992000111006004+38070+127810FM-12+013599999V0200501N000510075019N0060001N1+00161+00061102451ADDAY161061AY221061GF108991061071008001021999MA1999999100521MD1710101+9999MW1681REMSYN072AAXX  10064 47095 41556 80501 10016 20006 30052 40245 57010 76862 8672/;
0161470950999992000111009004+38070+127810FM-12+013599999V0201801N001010075019N0050001N1+00161+00081102541ADDAY161031AY221031GF108991051071008001021999MA1999999100611MD1010091+9999MW1681REMSYN072AAXX  10094 47095 41550 81802 10016 20008 30061 40254 50009 76862 8572/;
0237470950999992000111012004+38070+127810FM-12+013599999V0209999C000010075019N0080001N1+00051-00161102701ADDAA112002091AY161061AY221061GF105991051051008001001001IA1099IA2999+00109KA1120M+00451MA1999999100761MD1210151+9999MW1101REMSYN106AAXX  10124 47095 12558 50000 10005 21016 30076 40270 52015 60022 71062 85500 333 10045 31001 55000 70023;
0172470950999992000111015004+38070+127810FM-12+013599999V0209999C000012200019N0050001N1-00161-00231102801ADDAA199000021AY121031AY221031GF102991011001012501031011MA1999999100831MD1210071+9999MW1101REMSYN072AAXX  10154 47095 31650 22000 11016 21023 30083 40280 52007 71022 81031;
0172470950999992000111018004+38070+127810FM-12+013599999V0200501N001012200019N0080001N1-00401-00461102911ADDAA199000021AY121061AY221061GF102991021001999999031011MA1999999100921MD1210091+9999MW1101REMSYN072AAXX  10184 47095 31958 20502 11040 21046 30092 40291 52009 71022 82031;
0182470950999992000111021004+38070+127810FM-12+013599999V0203401N000512200019N0080001N1-00551-00591102991ADDAA199000021AY121031AY221031GA1001+999999999GF100991001001999999001001MA1999999100991MD1010071+9999MW1101REMSYN066AAXX  10214 47095 31958 03401 11055 21059 30099 40299 50007 71022;
0231470950999992000111100004+38070+127810FM-12+013599999V0202301N000510900019N0030001N1-00331-00381103051ADDAA124002391AY111061AY211061GF106991011051012501001021IA1289IA2999+00109KA1120N-00601MA1999999101071MD1010081+9999MW1281REMSYN100AAXX  11004 47095 31630 62301 11033 21038 30107 40305 50008 72811 81502 333 21060 3/001 44/// 70023;
0163470950999992000111103004+38070+127810FM-12+013599999V0202501N001012200019N0090001N1+00191-00361102841ADDAA199000091GF104991011051012501031001MA1999999100901MD1710171+9999REMSYN066AAXX  11034 47095 31659 42502 10019 21036 30090 40284 57017 81530;EQDQ01  00002PRCP99
0163470950999992000111106004+38070+127810FM-12+013599999V0202701N000512200019N0140001N1+00621-00511102521ADDAA199000091GF102991001001999999001011MA1999999100621MD1710281+9999REMSYN066AAXX  11064 47095 32964 22701 10062 21051 30062 40252 57028 80001;EQDQ01  00002PRCP99
0163470950999992000111109004+38070+127810FM-12+013599999V0209999C000019999999N0140001N1+00211-00351102531ADDAA199000091GF106991061001999999031001MA1999999100601MD1810021+9999REMSYN066AAXX  11094 47095 32964 60000 10021 21035 30060 40253 58002 86030;EQDQ01  00002PRCP99
0210470950999992000111112004+38070+127810FM-12+013599999V0200901N000512200019N0140001N1-00231-00401102651ADDAA199000091GF102991001001999999001011IA1019IA2999+00009KA1120M+00621MA1999999100681MD1210081+9999REMSYN082AAXX  11124 47095 32964 20901 11023 21040 30068 40265 52008 80001 333 10062 30100;EQDQ01  00002PRCP99
0163470950999992000111115004+38070+127810FM-12+013599999V0209999C000012200019N0150001N1-00391-00491102681ADDAA199000091GF102991001001999999001011MA1999999100701MD1510021+9999REMSYN066AAXX  11154 47095 32965 20000 11039 21049 30070 40268 55002 80001;EQDQ01  00002PRCP99
0163470950999992000111118004+38070+127810FM-12+013599999V0209999C000012200019N0150001N1-00551-00631102611ADDAA199000091GF102991001001999999001011MA1999999100621MD1510081+9999REMSYN066AAXX  11184 47095 32965 20000 11055 21063 30062 40261 55008 80001;EQDQ01  00002PRCP99
0163470950999992000111121004+38070+127810FM-12+013599999V0209999C000010075019N0140001N1-00401-00521102511ADDAA199000091GF106991061051008001001001MA1999999100531MD1710091+9999REMSYN066AAXX  11214 47095 32564 60000 11040 21052 30053 40251 57009 86500;EQDQ01  00002PRCP99
0172470950999992000111200004+38070+127810FM-12+013599999V0209999C000019999999N9999999N1-00181-00501102551ADDAA199000091IA2999+00109KA1120N-00601MA1999999100591MD1210061+9999REMSYN076AAXX  12004 47095 3//// /0000 11018 21050 30059 40255 52006 333 21060 3/001;EQDQ01  00002PRCP99
0163470950999992000111203004+38070+127810FM-12+013599999V0209999C000010360019N0140001N1+00181-00461102521ADDAA199000091GF108991041051008001021999MA1999999100591MD1510001+9999REMSYN066AAXX  12034 47095 32564 82500 10018 21046 30059 40252 55000 8452/;EQDQ01  00002PRCP99
0163470950999992000111206004+38070+127810FM-12+013599999V0202001N001512200019N0180001N1+00521-00201102311ADDAA199000091GF103991031051012501001001MA1999999100411MD1710181+9999REMSYN066AAXX  12064 47095 32668 32003 10052 21020 30041 40231 57018 83500;EQDQ01  00002PRCP99
0163470950999992000111209004+38070+127810FM-12+013599999V0202001N001012200019N0160001N1+00321-00171102431ADDAA199000091GF102991021051012501001001MA1999999100511MD1210101+9999REMSYN066AAXX  12094 47095 32666 22002 10032 21017 30051 40243 52010 82500;EQDQ01  00002PRCP99
0203470950999992000111212004+38070+127810FM-12+013599999V0202501N002112200019N0120001N1+00031-00171102681ADDAA112000791GF102991011051012501031001IA1019IA2999+00109KA1120M+00591MA1999999100741MD1210231+9999REMSYN094AAXX  12124 47095 11662 22504 10003 21017 30074 40268 52023 69902 81530 333 10059 30001 55006;
0173470950999992000111215004+38070+127810FM-12+013599999V0209999C000012200019N0100001N1-00211-00281102851ADDAA199000091GA1001+999999999GF100991001001999999001001MA1999999100891MD1210151+9999REMSYN060AAXX  12154 47095 32960 00000 11021 21028 30089 40285 52015;EQDQ01  00002PRCP99
0173470950999992000111218004+38070+127810FM-12+013599999V0200501N000512200019N0100001N1-00381-00441102911ADDAA199000091GA1001+999999999GF100991001001999999001001MA1999999100931MD1210041+9999REMSYN060AAXX  12184 47095 32960 00501 11038 21044 30093 40291 52004;EQDQ01  00002PRCP99
0173470950999992000111221004+38070+127810FM-12+013599999V0202001N000512200019N0100001N1-00461-00511102931ADDAA199000091GA1001+999999999GF100991001001999999001001MA1999999100941MD1110011+9999REMSYN060AAXX  12214 47095 32960 02001 11046 21051 30094 40293 51001;EQDQ01  00002PRCP99
0220470950999992000111300004+38070+127810FM-12+013599999V0209999C000012200019N0180001N1-00131-00211102971ADDAA199000091GA1001+999999999GF100991001001999999001001IA1019IA2999+00109KA1120N-00521MA1999999101011MD1010071+9999REMSYN076AAXX  13004 47095 32968 00000 11013 21021 30101 40297 50007 333 21052 30001;EQDQ01  00002PRCP99
0163470950999992000111303004+38070+127810FM-12+013599999V0202001N001012200019N0150001N1+00911-00141102851ADDAA199000091GF101991011051012501001001MA1999999100971MD1510041+9999REMSYN066AAXX  13034 47095 32665 12002 10091 21014 30097 40285 55004 81500;EQDQ01  00002PRCP99
0163470950999992000111306004+38070+127810FM-12+013599999V0203201N001512200019N0180001N1+00961-00241102731ADDAA199000091GF104991041051012501001001MA1999999100851MD1810121+9999REMSYN066AAXX  13064 47095 32668 43203 10096 21024 30085 40273 58012 84500;EQDQ01  00002PRCP99
0173470950999992000111309004+38070+127810FM-12+013599999V0201801N000512200019N0150001N1+00581-00131102801ADDAA199000091GA1001+999999999GF100991001001999999001001MA1999999100891MD1810041+9999REMSYN060AAXX  13094 47095 32965 01801 10058 21013 30089 40280 58004;EQDQ01  00002PRCP99
0216470950999992000111312004+38070+127810FM-12+013599999V0200201N001012200019N0150001N1-00031-00201102941ADDAA199000091GF103991001001999999001011IA1019IA2999+00009KA1120M+01031MA1999999100981MD1210091+9999REMSYN088AAXX  13124 47095 32965 30202 11003 21020 30098 40294 52009 80001 333 10103 30000 55067;EQDQ01  00002PRCP99
0191470950999992000111318004+38070+127810FM-12+013599999V0209999C000010360019N0030001N1-00201-00251103071ADDAA199000091AY121061AY221061GF107991021051012501031021MA1999999101101MD1110081+9999MW1101REMSYN072AAXX  13184 47095 31630 70000 11020 21025 30110 40307 51008 71022 82532;EQDQ01  00002PRCP99
0191470950999992000111321004+38070+127810FM-12+013599999V0209999C000019999999N0050001N1-00191-00241103031ADDAA199000091AY121031AY221031GF107991021001999999031021MA1999999101051MD1810051+9999MW1101REMSYN072AAXX  13214 47095 31950 72000 11019 21024 30105 40303 58005 71022 82032;EQDQ01  00002PRCP99
0210470950999992000111400004+38070+127810FM-12+013599999V0209999C000012200019N0100001N1+00071+00011103091ADDAA199000091GF103991001001999999001011IA1019IA2999+00209KA1120N-00221MA1999999101131MD1210081+9999REMSYN082AAXX  14004 47095 32960 30000 10007 20001 30113 40309 52008 80001 333 21022 30002;EQDQ01  00002PRCP99
0163470950999992000111403004+38070+127810FM-12+013599999V0209999C000012200019N0100001N1+01131+00151102811ADDAA199000091GF102991021051999999001001MA1999999100941MD1710191+9999REMSYN066AAXX  14034 47095 32960 20000 10113 20015 30094 40281 57019 82500;EQDQ01  00002PRCP99
0163470950999992000111406004+38070+127810FM-12+013599999V0202501N001512200019N0120001N1+01271+00161102611ADDAA199000091GF102991021051012501001001MA1999999100761MD1710181+9999REMSYN066AAXX  14064 47095 32662 22503 10127 20016 30076 40261 57018 82500;EQDQ01  00002PRCP99
0163470950999992000111409004+38070+127810FM-12+013599999V0201101N001012200019N0100001N1+00761+00221102691ADDAA199000091GF103991011051012501001011MA1999999100801MD1110041+9999REMSYN066AAXX  14094 47095 32660 31102 10076 20022 30080 40269 51004 81501;EQDQ01  00002PRCP99
0216470950999992000111412004+38070+127810FM-12+013599999V0200201N001012200019N0100001N1+00331+00111102801ADDAA199000091GF102991001001999999001011IA1019IA2999+00309KA1120M+01301MA1999999100871MD1310071+9999REMSYN088AAXX  14124 47095 32960 20202 10033 20011 30087 40280 53007 80001 333 10130 30003 55060;EQDQ01  00002PRCP99
0163470950999992000111415004+38070+127810FM-12+013599999V0203401N001510360019N0100001N1+00301+00161102851ADDAA199000091GF106991021051012501031001MA1999999100921MD1810051+9999REMSYN066AAXX  14154 47095 32660 63403 10030 20016 30092 40285 58005 82530;EQDQ01  00002PRCP99
0163470950999992000111418004+38070+127810FM-12+013599999V0209999C000012200019N0060001N1+00301+00201102781ADDAA199000091GF106991031051012501001011MA1999999100851MD1710071+9999REMSYN066AAXX  14184 47095 31656 60000 10030 20020 30085 40278 57007 83501;EQDQ01  00002PRCP99
0191470950999992000111421004+38070+127810FM-12+013599999V0209999C000010360019N0030001N1+00371+00281102811ADDAA199000091AY121031AY221031GF108991041051012501021999MA1999999100891MD1510041+9999MW1101REMSYN072AAXX  14214 47095 31630 80000 10037 20028 30089 40281 55004 71022 8452/;EQDQ01  00002PRCP99
0210470950999992000111500004+38070+127810FM-12+013599999V0203601N000519999999N0030001N1+00401+00321102961ADDAA199000091GF108991081001999999011999IA1019IA2999+00609KA1120N+00291MA1999999101041MD1210151+9999REMSYN082AAXX  15004 47095 32930 83601 10040 20032 30104 40296 52015 8801/ 333 20029 30006;EQDQ01  00002PRCP99
0163470950999992000111503004+38070+127810FM-12+013599999V0202901N001019999999N0110001N1+01071+00211102861ADDAA199000091GF106991001001999999001021MA1999999100991MD1510051+9999REMSYN066AAXX  15034 47095 32961 62902 10107 20021 30099 40286 55005 80002;EQDQ01  00002PRCP99
0163470950999992000111506004+38070+127810FM-12+013599999V0203401N002119999999N0160001N1+01231-00591102681ADDAA199000091GF108991061001999999011021MA1999999100821MD1710171+9999REMSYN066AAXX  15064 47095 32966 83404 10123 21059 30082 40268 57017 86012;EQDQ01  00002PRCP99
0163470950999992000111509004+38070+127810FM-12+013599999V0200901N001019999999N0150001N1+00871-00231102781ADDAA199000091GF108991081001999999021999MA1999999100901MD1010081+9999REMSYN066AAXX  15094 47095 32965 80902 10087 21023 30090 40278 50008 8802/;EQDQ01  00002PRCP99
0216470950999992000111512004+38070+127810FM-12+013599999V0201401N001012200019N0120001N1+00541-00241102881ADDAA199000091GF102991021001999999031001IA1019IA2999+00309KA1120M+01301MA1999999100971MD1810071+9999REMSYN088AAXX  15124 47095 32962 21402 10054 21024 30097 40288 58007 82030 333 10130 30003 55034;EQDQ01  00002PRCP99
0163470950999992000111515004+38070+127810FM-12+013599999V0200201N000510900019N0120001N1+00541-00021102931ADDAA199000091GF106991011051012501001051MA1999999101011MD1210041+9999REMSYN066AAXX  15154 47095 32662 60201 10054 21002 30101 40293 52004 81505;EQDQ01  00002PRCP99
0163470950999992000111518004+38070+127810FM-12+013599999V0200201N003610360019N0200001N1+00541-00171103031ADDAA199000091GF107991011051012501031001MA1999999101121MD1210111+9999REMSYN066AAXX  15184 47095 32670 70207 10054 21017 30112 40303 52011 81530;EQDQ01  00002PRCP99
0163470950999992000111521004+38070+127810FM-12+013599999V0200201N005710360019N0200001N1+00471-00171102951ADDAA199000091GF107991021051012501031051MA1999999101031MD1710091+9999REMSYN066AAXX  15214 47095 32670 70211 10047 21017 30103 40295 57009 82535;EQDQ01  00002PRCP99
0210470950999992000111600004+38070+127810FM-12+013599999V0203601N005710360019N0220001N1+00551-00141103001ADDAA199000091GF108991021051012501021999IA1019IA2999+00609KA1120N+00451MA1999999101081MD1110051+9999REMSYN082AAXX  16004 47095 32672 83611 10055 21014 30108 40300 51005 8252/ 333 20045 30006;EQDQ01  00002PRCP99
0161470950999992000111603004+38070+127810FM-12+013599999V0203601N005710360019N0100001N1+00391+00191102901ADDAY161031AY261031GF108991041071008001021999MA1999999100971MD1710111+9999MW1611REMSYN072AAXX  16034 47095 41560 83611 10039 20019 30097 40290 57011 76166 8472/;
0161470950999992000111606004+38070+127810FM-12+013599999V0200201N005710075019N0080001N1+00261+00151102741ADDAY161061AY261061GF108991051071008001021999MA1999999100811MD1710161+9999MW1611REMSYN072AAXX  16064 47095 41558 80211 10026 20015 30081 40274 57016 76166 8572/;
0161470950999992000111609004+38070+127810FM-12+013599999V0203601N004110075019N0060001N1+00291+00161102681ADDAY161031AY261031GF108991051071008001021999MA1999999100751MD1710061+9999MW1611REMSYN072AAXX  16094 47095 41556 83608 10029 20016 30075 40268 57006 76166 8572/;
0237470950999992000111612004+38070+127810FM-12+013599999V0203601N004110075019N0080001N1+00331+00191102571ADDAA112005191AY161061AY261061GF108991051071008001021999IA1099IA2999+00409KA1120M+00791MA1999999100641MD1610111+9999MW1601REMSYN106AAXX  16124 47095 11558 83608 10033 20019 30064 40257 56011 60052 76066 8572/ 333 10079 31004 55000 70053;
0161470950999992000111615004+38070+127810FM-12+013599999V0209999C000010075019N0150001N1+00331+00231102501ADDAY161031AY261031GF108991051071008001021999MA1999999100581MD1810061+9999MW1601REMSYN072AAXX  16154 47095 41565 82000 10033 20023 30058 40250 58006 76066 8572/;
0161470950999992000111618004+38070+127810FM-12+013599999V0209999C000010075019N0110001N1+00341+00261102361ADDAY161061AY261061GF108991051071008001021999MA1999999100441MD1810141+9999MW1601REMSYN072AAXX  16184 47095 41561 80000 10034 20026 30044 40236 58014 76066 8572/;
0161470950999992000111621004+38070+127810FM-12+013599999V0202701N001010075019N0080001N1+00321+00261102291ADDAY161031AY261031GF108991051071008001021999MA1999999100371MD1710071+9999MW1601REMSYN072AAXX  16214 47095 41558 82702 10032 20026 30037 40229 57007 76066 8572/;
0231470950999992000111700004+38070+127810FM-12+013599999V0202301N001010075019N0050001N1+00391+00351102411ADDAA112000191AY161061AY261061GF107991061071008001011001IA1099IA2999+00609KA1120N+00311MA1999999100491MD1210121+9999MW1601REMSYN100AAXX  17004 47095 11550 72302 10039 20035 30049 40241 52012 69912 76066 86710 333 20031 31006 70055;
0144470950999992000111703004+38070+127810FM-12+013599999V0202701N002110075019N0150001N1+00431-00031102411ADDAA199000021GF107991061051008001011001MA1999999100501MD1310011+9999REMSYN066AAXX  17034 47095 32565 72704 10043 21003 30050 40241 53001 86510;
0144470950999992000111706004+38070+127810FM-12+013599999V0202501N001512200019N0150001N1+00591-00141102271ADDAA199000021GF104991041051008001001001MA1999999100371MD1710131+9999REMSYN066AAXX  17064 47095 32565 42503 10059 21014 30037 40227 57013 84500;
0144470950999992000111709004+38070+127810FM-12+013599999V0202001N003112200019N0150001N1+00401-00141102381ADDAA199000021GF101991011051012501001001MA1999999100471MD1210101+9999REMSYN066AAXX  17094 47095 32665 12006 10040 21014 30047 40238 52010 81500;
0203470950999992000111712004+38070+127810FM-12+013599999V0202301N001512200019N0150001N1+00121-00291102621ADDAA112000791GF102991021051012501001001IA1019IA2999+00109KA1120M+00641MA1999999100681MD1210211+9999REMSYN094AAXX  17124 47095 32665 22303 10012 21029 30068 40262 52021 69902 82500 333 10064 30001 70002;
0163470950999992000111715004+38070+127810FM-12+013599999V0202701N001512200019N0120001N1+00091-00581102801ADDAA199000091GF102991021051012501001001MA1999999100861MD1210181+9999REMSYN066AAXX  17154 47095 32662 22703 10009 21058 30086 40280 52018 82500;EQDQ01  00002PRCP99
0163470950999992000111718004+38070+127810FM-12+013599999V0200701N001012200019N0140001N1-00261-00611102961ADDAA199000091GF102991021051012501001001MA1999999100991MD1210131+9999REMSYN066AAXX  17184 47095 32664 20702 11026 21061 30099 40296 52013 82500;EQDQ01  00002PRCP99
0173470950999992000111721004+38070+127810FM-12+013599999V0200201N001012200019N0140001N1-00451-00631103121ADDAA199000091GA1001+999999999GF100991001001999999001001MA1999999101131MD1210141+9999REMSYN060AAXX  17214 47095 32964 00202 11045 21063 30113 40312 52014;EQDQ01  00002PRCP99
0220470950999992000111800004+38070+127810FM-12+013599999V0209999C000012200019N0180001N1-00221-00491103321ADDAA199000091GA1001+999999999GF100991001001999999001001IA1019IA2999+00009KA1120N-00551MA1999999101341MD1210211+9999REMSYN076AAXX  18004 47095 32968 00000 11022 21049 30134 40332 52021 333 21055 30000;EQDQ01  00002PRCP99
0173470950999992000111803004+38070+127810FM-12+013599999V0202701N000512200019N0160001N1+00421-01131103211ADDAA199000091GA1001+999999999GF100991001001999999001001MA1999999101281MD1710061+9999REMSYN060AAXX  18034 47095 32966 02701 10042 21113 30128 40321 57006;EQDQ01  00002PRCP99
0173470950999992000111806004+38070+127810FM-12+013599999V0203201N001512200019N0200001N1+00591-01091103091ADDAA199000091GA1001+999999999GF100991001001999999001001MA1999999101171MD1810111+9999REMSYN060AAXX  18064 47095 32970 03203 10059 21109 30117 40309 58011;EQDQ01  00002PRCP99
0173470950999992000111809004+38070+127810FM-12+013599999V0209999C000012200019N0180001N1+00161-00661103291ADDAA199000091GA1001+999999999GF100991001001999999001001MA1999999101341MD1210171+9999REMSYN060AAXX  18094 47095 32968 00000 10016 21066 30134 40329 52017;EQDQ01  00002PRCP99
0226470950999992000111812004+38070+127810FM-12+013599999V0209999C000012200019N0180001N1-00211-00611103431ADDAA199000091GA1001+999999999GF100991001001999999001001IA1019IA2999-00209KA1120M+00671MA1999999101451MD1210111+9999REMSYN082AAXX  18124 47095 32968 00000 11021 21061 30145 40343 52011 333 10067 30102 55057;EQDQ01  00002PRCP99
0173470950999992000111815004+38070+127810FM-12+013599999V0203401N000512200019N0180001N1-00411-00641103381ADDAA199000091GA1001+999999999GF100991001001999999001001MA1999999101381MD1710071+9999REMSYN060AAXX  18154 47095 32968 03401 11041 21064 30138 40338 57007;EQDQ01  00002PRCP99
0195470950999992000111818004+38070+127810FM-12+013599999V0201801N000512200019N0180001N1-00301-00541103371ADDAA199000091GF102991001001999999001011MA1999999101381MD1710011+9999REMSYN066AAXX  18184 47095 32968 21801 11030 21054 30138 40337 52000 80001;EQDQ01+000022APCTENQ02+000002APC3  Q03  00002PRCP99
0163470950999992000111821004+38070+127810FM-12+013599999V0209999C000012200019N0180001N1-00341-00511103291ADDAA199000091GF102991001001999999001011MA1999999101301MD1710081+9999REMSYN066AAXX  18214 47095 32968 20000 11034 21051 30130 40329 57008 80001;EQDQ01  00002PRCP99
0191470950999992000111900004+38070+127810FM-12+013599999V0209999C000012200019N0180001N1-00131-00391103201ADDAA199000091GF102991001001999999001011IA1019IA2999+00009MA1999999101231MD1710071+9999REMSYN076AAXX  19004 47095 32968 20000 11013 21039 30123 40320 57007 80001 333 30000;EQDQ01  00002PRCP99
0163470950999992000111903004+38070+127810FM-12+013599999V0202901N000512200019N0200001N1+00771-00451102981ADDAA199000091GF102991001001999999001011MA1999999101081MD1710151+9999REMSYN066AAXX  19034 47095 32970 22901 10077 21045 30108 40298 57015 80001;EQDQ01  00002PRCP99
0163470950999992000111906004+38070+127810FM-12+013599999V0203201N001510360019N0200001N1+01041-00641102531ADDAA199000091GF106991021051012501031001MA1999999100661MD1710421+9999REMSYN066AAXX  19064 47095 32670 63203 10104 21064 30066 40253 57042 82530;EQDQ01  00002PRCP99
0163470950999992000111909004+38070+127810FM-12+013599999V0200201N001010120019N0150001N1+00691-00141102501ADDAA199000091GF108991051051012501021999MA1999999100611MD1810051+9999REMSYN066AAXX  19094 47095 32665 80202 10069 21014 30061 40250 58005 8552/;EQDQ01  00002PRCP99
0216470950999992000111912004+38070+127810FM-12+013599999V0202901N001510120019N0120001N1+00531-00091102391ADDAA199000091GF108991051051012501021999IA1019IA2999+00509KA1120M+01091MA1999999100481MD1710131+9999REMSYN088AAXX  19124 47095 32662 82903 10053 21009 30048 40239 57013 8552/ 333 10109 30005 55056;EQDQ01  00002PRCP99
0180470950999992000111915004+38070+127810FM-12+013599999V0202701N000510075019N0060001N1+00321+00161102401ADDAY161031AY261031GF108991061071008001021999MA1999999100481MD1310011+9999MW1611REMSYN072AAXX  19154 47095 41556 82701 10032 20016 30048 40240 53000 76166 8672/;EQDQ01+000002APC3  
0161470950999992000111918004+38070+127810FM-12+013599999V0200201N001010075019N0050001N1+00281+00201101911ADDAY161061AY261061GF108991061071008001021999MA1999999100001MD1710481+9999MW1611REMSYN072AAXX  19184 47095 41550 80202 10028 20020 30000 40191 57048 76166 8672/;
0161470950999992000111921004+38070+127810FM-12+013599999V0203401N002110075019N0050001N1+00271+00211101691ADDAY161031AY261031GF108991061071008001021999MA1999999099781MD1710221+9999MW1611REMSYN072AAXX  19214 47095 41550 83404 10027 20021 39978 40169 57022 76166 8672/;
0231470950999992000112000004+38070+127810FM-12+013599999V0203601N002610075019N0060001N1+00211+00161101651ADDAA112008991AY161061AY261061GF108991061071008001021999IA1099IA2999+00409KA1120N+00211MA1999999099741MD1310041+9999MW1611REMSYN100AAXX  20004 47095 11556 83605 10021 20016 39974 40165 53004 60092 76166 8672/ 333 20021 31004 70087;
0161470950999992000112003004+38070+127810FM-12+013599999V0203401N001510075019N0100001N1+00391+00301101441ADDAY161031AY261031GF108991051071008001021999MA1999999099541MD1710201+9999MW1601REMSYN072AAXX  20034 47095 41560 83403 10039 20030 39954 40144 57020 76066 8572/;
0161470950999992000112006004+38070+127810FM-12+013599999V0202301N001010075019N0120001N1+00411+00241101421ADDAY161061AY261061GF108991061051008001021999MA1999999099521MD1710021+9999MW1211REMSYN072AAXX  20064 47095 41562 82302 10041 20024 39952 40142 57002 72166 8652/;
0133470950999992000112009004+38070+127810FM-12+013599999V0202701N003110075019N0150001N1+00361-00011101661ADDGF108991051051008001021999MA1999999099761MD1210241+9999REMSYN066AAXX  20094 47095 42565 82706 10036 21001 39976 40166 52024 8552/;
0203470950999992000112012004+38070+127810FM-12+013599999V0202701N004110075019N0150001N1+00161-00391101911ADDAA112000891GF106991061051008001001001IA1019IA2999+00109KA1120M+00471MA1999999099991MD1210231+9999REMSYN094AAXX  20124 47095 32565 62708 10016 21039 39999 40191 52023 69982 86500 333 10047 30001 70096;
0144470950999992000112015004+38070+127810FM-12+013599999V0202901N004110075019N0150001N1+00061-00501102131ADDAA199000021GF105991051051008001001001MA1999999100191MD1210201+9999REMSYN066AAXX  20154 47095 32565 52908 10006 21050 30019 40213 52020 85500;
0144470950999992000112018004+38070+127810FM-12+013599999V0202701N003112200019N0150001N1-00111-00761102321ADDAA199000021GF102991021051012501001001MA1999999100371MD1210181+9999REMSYN066AAXX  20184 47095 32665 22706 11011 21076 30037 40232 52018 82500;
0163470950999992000112021004+38070+127810FM-12+013599999V0202501N004112200019N0150001N1-00261-00851102511ADDAA199000091GF102991021051012501001001MA1999999100541MD1210171+9999REMSYN066AAXX  20214 47095 32665 22508 11026 21085 30054 40251 52017 82500;EQDQ01  00002PRCP99
0213470950999992000112100004+38070+127810FM-12+013599999V0202701N002112200019N0170001N1-00271-00891102841ADDAA124001091GA1001+999999999GF100991001001999999001001IA1149IA2999+00109KA1120N-00391MA1999999100871MD1210331+9999REMSYN088AAXX  21004 47095 32967 02704 11027 21089 30087 40284 52033 333 21039 34001 44/// 70009;
0173470950999992000112103004+38070+127810FM-12+013599999V0209999C000012200019N0250001N1+00091-01081102861ADDAA199000091GA1001+999999999GF100991001001999999001001MA1999999100921MD1310051+9999REMSYN060AAXX  21034 47095 32975 01400 10009 21108 30092 40286 53005;EQDQ01  00002PRCP99
0173470950999992000112106004+38070+127810FM-12+013599999V0203401N004112200019N0300001N1+00191-01441102801ADDAA199000091GA1001+999999999GF100991001001999999001001MA1999999100861MD1810061+9999REMSYN060AAXX  21064 47095 32980 03408 10019 21144 30086 40280 58006;EQDQ01  00002PRCP99
0173470950999992000112109004+38070+127810FM-12+013599999V0201601N000512200019N0300001N1-00141-01141102961ADDAA199000091GA1001+999999999GF100991001001999999001001MA1999999101001MD1210141+9999REMSYN060AAXX  21094 47095 32980 01601 11014 21114 30100 40296 52014;EQDQ01  00002PRCP99
0232470950999992000112112004+38070+127810FM-12+013599999V0209999C000012200019N0250001N1-00491-00961103161ADDAA199000091GA1001+999999999GF100991001001999999001001IA1289IA2999-00309KA1120M+00241MA1999999101161MD1210161+9999REMSYN088AAXX  21124 47095 32975 01100 11049 21096 30116 40316 52016 333 10024 3/103 44/// 55077;EQDQ01  00002PRCP99
0173470950999992000112115004+38070+127810FM-12+013599999V0200501N000512200019N0250001N1-00701-00991103251ADDAA199000091GA1001+999999999GF100991001001999999001001MA1999999101231MD1210071+9999REMSYN060AAXX  21154 47095 32975 00501 11070 21099 30123 40325 52007;EQDQ01  00002PRCP99
0173470950999992000112118004+38070+127810FM-12+013599999V0200201N000512200019N0250001N1-00831-00961103301ADDAA199000091GA1001+999999999GF100991001001999999001001MA1999999101281MD1210051+9999REMSYN060AAXX  21184 47095 32975 00201 11083 21096 30128 40330 52005;EQDQ01  00002PRCP99
0173470950999992000112121004+38070+127810FM-12+013599999V0200501N000512200019N0250001N1-00891-01031103361ADDAA199000091GA1001+999999999GF100991001001999999001001MA1999999101331MD1210051+9999REMSYN060AAXX  21214 47095 32975 00501 11089 21103 30133 40336 52005;EQDQ01  00002PRCP99
0226470950999992000112200004+38070+127810FM-12+013599999V0209999C000012200019N0250001N1-00521-00891103401ADDAA199000091GA1001+999999999GF100991001001999999001001IA1289IA2999-00209KA1120N-00971MA1999999101401MD1010071+9999REMSYN082AAXX  22004 47095 32975 03600 11052 21089 30140 40340 50007 333 21097 3/102 44///;EQDQ01  00002PRCP99
0173470950999992000112203004+38070+127810FM-12+013599999V0202301N000512200019N0250001N1+00301-01221103101ADDAA199000091GA1001+999999999GF100991001001999999001001MA1999999101171MD1710231+9999REMSYN060AAXX  22034 47095 32975 02301 10030 21122 30117 40310 57023;EQDQ01  00002PRCP99
0173470950999992000112206004+38070+127810FM-12+013599999V0209999C000012200019N0260001N1+00821-01441102821ADDAA199000091GA1001+999999999GF100991001001999999001001MA1999999100931MD1710241+9999REMSYN060AAXX  22064 47095 32976 00000 10082 21144 30093 40282 57024;EQDQ01  00002PRCP99
0173470950999992000112209004+38070+127810FM-12+013599999V0209999C000012200019N0200001N1+00071-00581102901ADDAA199000091GA1001+999999999GF100991001001999999001001MA1999999100951MD1810021+9999REMSYN060AAXX  22094 47095 32970 00000 10007 21058 30095 40290 58002;EQDQ01  00002PRCP99
0216470950999992000112212004+38070+127810FM-12+013599999V0203401N000512200019N0150001N1-00291-00571102951ADDAA199000091GF102991001001999999001021IA1019IA2999-00109KA1120M+00861MA1999999100971MD1210021+9999REMSYN088AAXX  22124 47095 32965 23401 11029 21057 30097 40295 52002 80002 333 10086 30101 55087;EQDQ01  00002PRCP99
0163470950999992000112215004+38070+127810FM-12+013599999V0209999C000012200019N0130001N1-00451-00611102941ADDAA199000091GF102991001001999999001021MA1999999100961MD1510011+9999REMSYN066AAXX  22154 47095 32963 20000 11045 21061 30096 40294 55001 80002;EQDQ01  00002PRCP99
0173470950999992000112218004+38070+127810FM-12+013599999V0201601N000512200019N0110001N1-00481-00601102851ADDAA199000091GA1001+999999999GF100991001001999999001001MA1999999100861MD1710101+9999REMSYN060AAXX  22184 47095 32961 01601 11048 21060 30086 40285 57010;EQDQ01  00002PRCP99
0223470950999992000112221004+38070+127810FM-12+013599999V0203601N001019999999N0080001N1-00431-00561102841ADDAA199000091AY121031AY221031GF106991051001999999031021MA1999999100861MD1710011+9999MW1101REMSYN072AAXX  22214 47095 31958 63602 11043 21056 30086 40284 53000 71022 85032;EQDQ01+000032APCTENQ02+000002APC3  Q03  00002PRCP99
0210470950999992000112300004+38070+127810FM-12+013599999V0209999C000010360019N0150001N1-00141-00421102871ADDAA199000091GF106991021051012501031001IA1019IA2999+00009KA1120N-00541MA1999999100901MD1110041+9999REMSYN082AAXX  23004 47095 32665 60000 11014 21042 30090 40287 51004 82530 333 21054 30000;EQDQ01  00002PRCP99
0163470950999992000112303004+38070+127810FM-12+013599999V0209999C000010120019N0150001N1+00521-00431102731ADDAA199000091GF106991061051012501001001MA1999999100821MD1610081+9999REMSYN066AAXX  23034 47095 32665 60000 10052 21043 30082 40273 56008 86500;EQDQ01  00002PRCP99
0163470950999992000112306004+38070+127810FM-12+013599999V0202001N003610120019N0250001N1+00771-00061102621ADDAA199000091GF107991071051012501001001MA1999999100731MD1810091+9999REMSYN066AAXX  23064 47095 32675 72007 10077 21006 30073 40262 58009 87500;EQDQ01  00002PRCP99
0133470950999992000112309004+38070+127810FM-12+013599999V0202501N001510120019N0100001N1+00521-00101102611ADDGF107991071051012501001001MA1999999100701MD1710031+9999REMSYN066AAXX  23094 47095 42660 72503 10052 21010 30070 40261 57003 87500;
0210470950999992000112312004+38070+127810FM-12+013599999V0209999C000010120019N0100001N1+00281-00031102651ADDAA199000091GF107991071051012501001001IA1019IA2999+00209KA1120M+00821MA1999999100721MD1310021+9999REMSYN082AAXX  23124 47095 32660 70000 10028 21003 30072 40265 53002 87500 333 10082 30002;EQDQ01  00002PRCP99
0163470950999992000112315004+38070+127810FM-12+013599999V0202001N001010120019N0100001N1+00411+00131102621ADDAA199000091GF107991071051012501001001MA1999999100701MD1510021+9999REMSYN066AAXX  23154 47095 32660 72002 10041 20013 30070 40262 55002 87500;EQDQ01  00002PRCP99
0163470950999992000112318004+38070+127810FM-12+013599999V0209999C000010120019N0100001N1+00381+00191102641ADDAA199000091GF107991071051012501001001MA1999999100721MD1010021+9999REMSYN066AAXX  23184 47095 32660 70500 10038 20019 30072 40264 50002 87500;EQDQ01  00002PRCP99
0163470950999992000112321004+38070+127810FM-12+013599999V0201401N000512200019N0110001N1+00211+00101102581ADDAA199000091GF103991031051012501001001MA1999999100641MD1710081+9999REMSYN066AAXX  23214 47095 32661 31401 10021 20010 30064 40258 57008 83500;EQDQ01  00002PRCP99
0216470950999992000112400004+38070+127810FM-12+013599999V0203601N000510120019N0100001N1+00251+00191102721ADDAA124000091GF108991051051012501021999IA1019IA2999+00409KA1120N+00011MA1999999100791MD1210151+9999REMSYN088AAXX  24004 47095 32660 83601 10025 20019 30079 40272 52015 8552/ 333 20001 30004 70000;EQDQ01  00002PRCP24
0163470950999992000112403004+38070+127810FM-12+013599999V0209999C000019999999N0130001N1+01051+00341102451ADDAA199000091GF106991001001999999001021MA1999999100581MD1710211+9999REMSYN066AAXX  24034 47095 32963 60000 10105 20034 30058 40245 57021 80002;EQDQ01  00002PRCP99
0163470950999992000112406004+38070+127810FM-12+013599999V0202901N001519999999N0140001N1+01221+00181102281ADDAA199000091GF106991011001999999031021MA1999999100431MD1810151+9999REMSYN066AAXX  24064 47095 32964 62903 10122 20018 30043 40228 58015 81032;EQDQ01  00002PRCP99
0163470950999992000112409004+38070+127810FM-12+013599999V0202001N001510360019N0130001N1+00961+00261102381ADDAA199000091GF108991021051012501021999MA1999999100511MD1210081+9999REMSYN066AAXX  24094 47095 32663 82003 10096 20026 30051 40238 52008 8252/;EQDQ01  00002PRCP99
0216470950999992000112412004+38070+127810FM-12+013599999V0203601N001019999999N0100001N1+00451+00191102491ADDAA199000091GF105991051001012501031001IA1019IA2999+00309KA1120M+01271MA1999999100571MD1210061+9999REMSYN088AAXX  24124 47095 32660 53602 10045 20019 30057 40249 52006 85030 333 10127 30003 55063;EQDQ01  00002PRCP99
0191470950999992000112415004+38070+127810FM-12+013599999V0200201N001012200019N0070001N1+00131+00031102521ADDAA199000091AY101031AY201031GF102991021051012501001001MA1999999100591MD1310021+9999MW1101REMSYN072AAXX  24154 47095 31657 20202 10013 20003 30059 40252 53002 71000 82500;EQDQ01  00002PRCP99
0191470950999992000112418004+38070+127810FM-12+013599999V0209999C000012200019N0030001N1-00011-00061102521ADDAA199000091AY101061AY201061GF102991021051012501001001MA1999999100571MD1510021+9999MW1101REMSYN072AAXX  24184 47095 31630 20000 11001 21006 30057 40252 55002 71000 82500;EQDQ01  00002PRCP99
0201470950999992000112421004+38070+127810FM-12+013599999V0209999C000012200019N0020001N1-00171-00211102491ADDAA199000091AY101031AY201031GA1001+999999999GF100991001001999999001001MA1999999100531MD1810041+9999MW1101REMSYN066AAXX  24214 47095 31920 00000 11017 21021 30053 40249 58004 71000;EQDQ01  00002PRCP99
0248470950999992000112500004+38070+127810FM-12+013599999V0209999C000012200019N0020001N1+00021+00001102501ADDAA199000091AY141061AY221061GA1001+999999999GF100991001001999999001001IA1019IA2999+00009KA1120N-00181MA1999999100561MD1210031+9999MW1101REMSYN082AAXX  25004 47095 32920 00000 10002 20000 30056 40250 52003 71042 333 21018 30000;EQDQ01  00002PRCP99
0189470950999992000112503004+38070+127810FM-12+013599999V0209999C000012200019N0100001N1+01132+00321102181ADDAA199000091GA1001+999999999GF100991001001999999001001MA1999999100321MD1710241+9999REMSYN060AAXX  25034 47095 32960 00000 10113 20032 30032 40218 57024;EQDQ01+001133ATOT  Q02  00002PRCP99
0173470950999992000112506004+38070+127810FM-12+013599999V0202301N004112200019N0170001N1+01391+00101101981ADDAA199000091GA1001+999999999GF100991001001999999001001MA1999999100141MD1810181+9999REMSYN060AAXX  25064 47095 32967 02308 10139 20010 30014 40198 58018;EQDQ01  00002PRCP99
0163470950999992000112509004+38070+127810FM-12+013599999V0209999C000012200019N0110001N1+00801+00241102061ADDAA199000091GF102991001001999999001021MA1999999100181MD1010041+9999REMSYN066AAXX  25094 47095 32961 20000 10080 20024 30018 40206 50004 80002;EQDQ01  00002PRCP99
0231470950999992000112512004+38070+127810FM-12+013599999V0200201N000512200019N0080001N1+00331+00141102121ADDAA112000791AY121061AY221061GF103991001001999999001021IA1019IA2999+00309KA1120M+01481MA1999999100201MD1710021+9999MW1101REMSYN100AAXX  25124 47095 31958 30201 10033 20014 30020 40212 57002 69902 71022 80002 333 10148 30003 55078;
0191470950999992000112515004+38070+127810FM-12+013599999V0202301N002112200019N0090001N1+00591+00171102111ADDAA199000091AY121031AY221031GF102991001001999999001021MA1999999100211MD1310011+9999MW1101REMSYN072AAXX  25154 47095 32959 22304 10059 20017 30021 40211 53001 71022 80002;EQDQ01  00002PRCP99
0191470950999992000112518004+38070+127810FM-12+013599999V0201401N000519999999N0090001N1+00351+00131102161ADDAA199000091AY121061AY221061GF106991031001999999031021MA1999999100251MD1010041+9999MW1101REMSYN072AAXX  25184 47095 31959 61401 10035 20013 30025 40216 50004 71022 83032;EQDQ01  00002PRCP99
0191470950999992000112521004+38070+127810FM-12+013599999V0203601N001010360019N0080001N1+00571+00331102031ADDAA199000091AY121031AY221031GF108991021051012501021999MA1999999100131MD1810121+9999MW1101REMSYN072AAXX  25214 47095 31658 83602 10057 20033 30013 40203 58012 71022 8252/;EQDQ01  00002PRCP99
0231470950999992000112600004+38070+127810FM-12+013599999V0209999C000010360019N0050001N1+00661+00541102051ADDAA112000791AY161061AY221061GF108991041071008001021999IA1099IA2999+00609KA1120N+00221MA1999999100161MD1110031+9999MW1601REMSYN100AAXX  26004 47095 11550 80000 10066 20054 30016 40205 51003 69902 76062 8472/ 333 20022 31006 70000;
0172470950999992000112603004+38070+127810FM-12+013599999V0202001N001510360019N0050001N1+00941+00601102071ADDAA199000021AY121031AY221031GF107991031061008001031001MA1999999100201MD1510041+9999MW1101REMSYN072AAXX  26034 47095 31550 72003 10094 20060 30020 40207 55004 71022 83630;
0144470950999992000112606004+38070+127810FM-12+013599999V0202901N002110900019N0150001N1+01101-00572101961ADDAA199000021GF105991011051012501001021MA1999999100111MD1810091+9999REMSYN066AAXX  26064 47095 32665 52904 10110 21057 30011 40196 58009 81502;
0144470950999992000112609004+38070+127810FM-12+013599999V0201101N000519999999N0150001N1+00671-00101102061ADDAA199000021GF108991081001999999011001MA1999999100171MD1210061+9999REMSYN066AAXX  26094 47095 32965 81101 10067 21010 30017 40206 52006 88010;
0191470950999992000112612004+38070+127810FM-12+013599999V0200501N001019999999N0150001N1+00371-00171102221ADDAA199000021GF105991001001999999001011IA1019IA2999+00309KA1120M+01141MA1999999100311MD1210141+9999REMSYN082AAXX  26124 47095 32965 50502 10037 21017 30031 40222 52014 80001 333 10114 30003;
0163470950999992000112615004+38070+127810FM-12+013599999V0203401N000512200019N0120001N1-00121-00371102381ADDAA199000091GF103991001001999999001011MA1999999100421MD1210111+9999REMSYN066AAXX  26154 47095 32962 33401 11012 21037 30042 40238 52011 80001;EQDQ01  00002PRCP99
0173470950999992000112618004+38070+127810FM-12+013599999V0203601N000512200019N0120001N1-00361-00481102451ADDAA199000091GA1001+999999999GF100991001001999999001001MA1999999100481MD1210061+9999REMSYN060AAXX  26184 47095 32962 03601 11036 21048 30048 40245 52006;EQDQ01  00002PRCP99
0173470950999992000112621004+38070+127810FM-12+013599999V0209999C000012200019N0120001N1-00491-00571102521ADDAA199000091GA1001+999999999GF100991001001999999001001MA1999999100541MD1110061+9999REMSYN060AAXX  26214 47095 32962 00000 11049 21057 30054 40252 51006;EQDQ01  00002PRCP99
0220470950999992000112700004+38070+127810FM-12+013599999V0209999C000012200019N0180001N1-00301-00361102661ADDAA199000091GA1001+999999999GF100991001001999999001001IA1019IA2999-00109KA1120N-00571MA1999999100691MD1210151+9999REMSYN076AAXX  27004 47095 32968 00000 11030 21036 30069 40266 52015 333 21057 30101;EQDQ01  00002PRCP99
0173470950999992000112703004+38070+127810FM-12+013599999V0200201N000512200019N0240001N1+00411-00601102551ADDAA199000091GA1001+999999999GF100991001001999999001001MA1999999100641MD1510051+9999REMSYN060AAXX  27034 47095 32974 00201 10041 21060 30064 40255 55005;EQDQ01  00002PRCP99
0173470950999992000112706004+38070+127810FM-12+013599999V0202901N002612200019N0300001N1+00671-01391102361ADDAA199000091GA1001+999999999GF100991001001999999001001MA1999999100461MD1710181+9999REMSYN060AAXX  27064 47095 32980 02905 10067 21139 30046 40236 57018;EQDQ01  00002PRCP99
0173470950999992000112709004+38070+127810FM-12+013599999V0200901N000512200019N0300001N1+00171-01181102471ADDAA199000091GA1001+999999999GF100991001001999999001001MA1999999100541MD1210081+9999REMSYN060AAXX  27094 47095 32980 00901 10017 21118 30054 40247 52008;EQDQ01  00002PRCP99
0226470950999992000112712004+38070+127810FM-12+013599999V0200501N001012200019N0250001N1-00301-00881102631ADDAA199000091GA1001+999999999GF100991001001999999001001IA1019IA2999-00309KA1120M+00711MA1999999100661MD1210121+9999REMSYN082AAXX  27124 47095 32975 00502 11030 21088 30066 40263 52012 333 10071 30103 55081;EQDQ01  00002PRCP99
0173470950999992000112715004+38070+127810FM-12+013599999V0200201N000512200019N0250001N1-00521-00841102691ADDAA199000091GA1001+999999999GF100991001001999999001001MA1999999100701MD1310041+9999REMSYN060AAXX  27154 47095 32975 00201 11052 21084 30070 40269 53004;EQDQ01  00002PRCP99
0173470950999992000112718004+38070+127810FM-12+013599999V0209999C000012200019N0250001N1-00671-00871102791ADDAA199000091GA1001+999999999GF100991001001999999001001MA1999999100791MD1210091+9999REMSYN060AAXX  27184 47095 32975 00000 11067 21087 30079 40279 52009;EQDQ01  00002PRCP99
0173470950999992000112721004+38070+127810FM-12+013599999V0209999C000012200019N0250001N1-00811-00961102821ADDAA199000091GA1001+999999999GF100991001001999999001001MA1999999100811MD1010021+9999REMSYN060AAXX  27214 47095 32975 02500 11081 21096 30081 40282 50002;EQDQ01  00002PRCP99
0226470950999992000112800004+38070+127810FM-12+013599999V0209999C000012200019N0250001N1-00521-00821102941ADDAA199000091GA1001+999999999GF100991001001999999001001IA1289IA2999-00209KA1120N-00871MA1999999100951MD1210141+9999REMSYN082AAXX  28004 47095 32975 00000 11052 21082 30095 40294 52014 333 21087 3/102 44///;EQDQ01  00002PRCP99
0173470950999992000112803004+38070+127810FM-12+013599999V0202901N001012200019N0270001N1+00451-01251102841ADDAA199000091GA1001+999999999GF100991001001999999001001MA1999999100921MD1310031+9999REMSYN060AAXX  28034 47095 32977 02902 10045 21125 30092 40284 53003;EQDQ01  00002PRCP99
0173470950999992000112806004+38070+127810FM-12+013599999V0203401N001012200019N0280001N1+00601-01451102581ADDAA199000091GA1001+999999999GF100991001001999999001001MA1999999100671MD1710251+9999REMSYN060AAXX  28064 47095 32978 03402 10060 21145 30067 40258 57025;EQDQ01  00002PRCP99
0173470950999992000112809004+38070+127810FM-12+013599999V0209999C000012200019N0250001N1+00091-01201102781ADDAA199000091GA1001+999999999GF100991001001999999001001MA1999999100841MD1210171+9999REMSYN060AAXX  28094 47095 32975 01800 10009 21120 30084 40278 52017;EQDQ01  00002PRCP99
0226470950999992000112812004+38070+127810FM-12+013599999V0203401N000512200019N0200001N1-00471-00901102811ADDAA199000091GA1001+999999999GF100991001001999999001001IA1019IA2999-00409KA1120M+00641MA1999999100831MD1510011+9999REMSYN082AAXX  28124 47095 32970 03401 11047 21090 30083 40281 55001 333 10064 30104 55088;EQDQ01  00002PRCP99
0173470950999992000112815004+38070+127810FM-12+013599999V0209999C000012200019N0180001N1-00691-00901102821ADDAA199000091GA1001+999999999GF100991001001999999001001MA1999999100821MD1810011+9999REMSYN060AAXX  28154 47095 32968 00000 11069 21090 30082 40282 58001;EQDQ01  00002PRCP99
0173470950999992000112818004+38070+127810FM-12+013599999V0200901N000512200019N0170001N1-00781-00951102901ADDAA199000091GA1001+999999999GF100991001001999999001001MA1999999100881MD1210061+9999REMSYN060AAXX  28184 47095 32967 00901 11078 21095 30088 40290 52006;EQDQ01  00002PRCP99
0173470950999992000112821004+38070+127810FM-12+013599999V0209999C000012200019N0180001N1-00881-01011102821ADDAA199000091GA1001+999999999GF100991001001999999001001MA1999999100801MD1710081+9999REMSYN060AAXX  28214 47095 32968 00000 11088 21101 30080 40282 57008;EQDQ01  00002PRCP99
0220470950999992000112900004+38070+127810FM-12+013599999V0209999C000012200019N0250001N1-00681-00791102861ADDAA199000091GA1001+999999999GF100991001001999999001001IA1019IA2999-00409KA1120N-00901MA1999999100861MD1010061+9999REMSYN076AAXX  29004 47095 32975 00000 11068 21079 30086 40286 50006 333 21090 30104;EQDQ01  00002PRCP99
0163470950999992000112903004+38070+127810FM-12+013599999V0202001N002110360019N0220001N1+00361-01031102651ADDAA199000091GF106991021051012501031001MA1999999100731MD1710131+9999REMSYN066AAXX  29034 47095 32672 62004 10036 21103 30073 40265 57013 82530;EQDQ01  00002PRCP99
0163470950999992000112906004+38070+127810FM-12+013599999V0202001N004112200019N0200001N1+00581-00721102451ADDAA199000091GF102991021051012501001001MA1999999100551MD1710181+9999REMSYN066AAXX  29064 47095 32670 22008 10058 21072 30055 40245 57018 82500;EQDQ01  00002PRCP99
0163470950999992000112909004+38070+127810FM-12+013599999V0202001N002110120019N0150001N1+00361-00401102451ADDAA199000091GF106991061051012501001001MA1999999100531MD1210021+9999REMSYN066AAXX  29094 47095 32665 62004 10036 21040 30053 40245 52002 86500;EQDQ01  00002PRCP99
0210470950999992000112912004+38070+127810FM-12+013599999V0202001N001010120019N0120001N1+00291-00251102531ADDAA199000091GF106991061051012501001001IA1019IA2999+00209KA1120M+00601MA1999999100601MD1210071+9999REMSYN082AAXX  29124 47095 32662 62002 10029 21025 30060 40253 52007 86500 333 10060 30002;EQDQ01  00002PRCP99
0161470950999992000112915004+38070+127810FM-12+013599999V0201601N000510360019N0100001N1+00311-00101102591ADDAY161031AY221031GF108991041071008001021999MA1999999100661MD1210061+9999MW1601REMSYN072AAXX  29154 47095 41560 81601 10031 21010 30066 40259 52006 76062 8472/;
0163470950999992000112918004+38070+127810FM-12+013599999V0200201N000512200019N0120001N1-00041-00181102611ADDAA199000021GF102991001001999999001011MA1999999100661MD1210021+9999REMSYN066AAXX  29184 47095 32962 20201 11004 21018 30066 40261 52000 80001;EQDQ01+000002APC3  
0144470950999992000112921004+38070+127810FM-12+013599999V0209999C000012200019N0120001N1-00211-00271102651ADDAA199000021GF103991021051012501001011MA1999999100681MD1210021+9999REMSYN066AAXX  29214 47095 32662 30000 11021 21027 30068 40265 52002 82501;
0237470950999992000113000004+38070+127810FM-12+013599999V0209999C000019999999N0050001N1-00121-00171102771ADDAA112000791AY121061AY211061GF106991021001999999031011IA1149IA2999+00009KA1120N-00271MA1999999100811MD1210131+9999MW1101REMSYN106AAXX  30004 47095 11950 60000 11012 21017 30081 40277 52013 69902 71021 82031 333 21027 34000 44/// 79999;
0144470950999992000113003004+38070+127810FM-12+013599999V0201601N000519999999N0120001N1+00731-00041102571ADDAA199000021GF105991001001999999001011MA1999999100671MD1510141+9999REMSYN066AAXX  30034 47095 32962 51601 10073 21004 30067 40257 55014 80001;
0163470950999992000113006004+38070+127810FM-12+013599999V0202901N001019999999N0130001N1+00891-00311102341ADDAA199000091GF106991001001999999001011MA1999999100461MD1710211+9999REMSYN066AAXX  30064 47095 32963 62902 10089 21031 30046 40234 57021 80001;EQDQ01  00002PRCP99
0163470950999992000113009004+38070+127810FM-12+013599999V0200501N001519999999N0120001N1+00451-00151102461ADDAA199000091GF106991001001999999001011MA1999999100541MD1210081+9999REMSYN066AAXX  30094 47095 32962 60503 10045 21015 30054 40246 52008 80001;EQDQ01  00002PRCP99
0216470950999992000113012004+38070+127810FM-12+013599999V0209999C000019999999N0120001N1+00031-00211102621ADDAA199000091GF105991001001999999001011IA1019IA2999+00009KA1120M+00931MA1999999100671MD1210131+9999REMSYN088AAXX  30124 47095 32962 50000 10003 21021 30067 40262 52013 80001 333 10093 30000 55088;EQDQ01  00002PRCP99
0173470950999992000113015004+38070+127810FM-12+013599999V0209999C000012200019N0120001N1-00241-00331102671ADDAA199000091GA1001+999999999GF100991001001999999001001MA1999999100701MD1410001+9999REMSYN060AAXX  30154 47095 32962 00000 11024 21033 30070 40267 54001;EQDQ01  00002PRCP99
0163470950999992000113018004+38070+127810FM-12+013599999V0209999C000012200019N0100001N1-00351-00421102711ADDAA199000091GF102991001001999999001011MA1999999100731MD1410001+9999REMSYN066AAXX  30184 47095 32960 20000 11035 21042 30073 40271 54001 80001;EQDQ01  00002PRCP99
0173470950999992000113021004+38070+127810FM-12+013599999V0200201N000512200019N0100001N1-00431-00481102681ADDAA199000091GA1001+999999999GF100991001001999999001001MA1999999100701MD1810031+9999REMSYN060AAXX  30214 47095 32960 00201 11043 21048 30070 40268 58003;EQDQ01  00002PRCP99
0220470950999992000120100004+38070+127810FM-12+013599999V0200901N000512200019N0120001N1-00261-00311102791ADDAA199000091GA1001+999999999GF100991001001999999001001IA1019IA2999-00109KA1120N-00481MA1999999100821MD1210121+9999REMSYN076AAXX  01004 47095 32962 00901 11026 21031 30082 40279 52012 333 21048 30101;EQDQ01  00002PRCP99
0173470950999992000120103004+38070+127810FM-12+013599999V0209999C000012200019N0150001N1+00711-00031102671ADDAA199000091GA1001+999999999GF100991001001999999001001MA1999999100771MD1510051+9999REMSYN060AAXX  01034 47095 32965 00000 10071 21003 30077 40267 55005;EQDQ01  00002PRCP99
0173470950999992000120106004+38070+127810FM-12+013599999V0201801N000512200019N0150001N1+01101-00411102521ADDAA199000091GA1001+999999999GF100991001001999999001001MA1999999100661MD1710111+9999REMSYN060AAXX  01064 47095 32965 01801 10110 21041 30066 40252 57011;EQDQ01  00002PRCP99
0173470950999992000120109004+38070+127810FM-12+013599999V0200701N001512200019N0150001N1+00321-00401102601ADDAA199000091GA1001+999999999GF100991001001999999001001MA1999999100681MD1810021+9999REMSYN060AAXX  01094 47095 32965 00703 10032 21040 30068 40260 58002;EQDQ01  00002PRCP99
0226470950999992000120112004+38070+127810FM-12+013599999V0200501N001512200019N0140001N1-00161-00381102701ADDAA199000091GA1001+999999999GF100991001001999999001001IA1019IA2999-00109KA1120M+01131MA1999999100731MD1310051+9999REMSYN082AAXX  01124 47095 32964 00503 11016 21038 30073 40270 53005 333 10113 30101 55084;EQDQ01  00002PRCP99
0173470950999992000120115004+38070+127810FM-12+013599999V0209999C000012200019N0120001N1-00371-00521102781ADDAA199000091GA1001+999999999GF100991001001999999001001MA1999999100801MD1310071+9999REMSYN060AAXX  01154 47095 32962 00000 11037 21052 30080 40278 53007;EQDQ01  00002PRCP99
0173470950999992000120118004+38070+127810FM-12+013599999V0209999C000012200019N0100001N1-00481-00571102801ADDAA199000091GA1001+999999999GF100991001001999999001001MA1999999100811MD1010011+9999REMSYN060AAXX  01184 47095 32960 02500 11048 21057 30081 40280 50001;EQDQ01  00002PRCP99
0173470950999992000120121004+38070+127810FM-12+013599999V0201101N000512200019N0140001N1-00491-00571102811ADDAA199000091GA1001+999999999GF100991001001999999001001MA1999999100821MD1010011+9999REMSYN060AAXX  01214 47095 32964 01101 11049 21057 30082 40281 50001;EQDQ01  00002PRCP99
0210470950999992000120200004+38070+127810FM-12+013599999V0209999C000019999999N0150001N1-00291-00381102841ADDAA199000091GF106991001001999999001051IA1019IA2999-00109KA1120N-00531MA1999999100861MD1110041+9999REMSYN082AAXX  02004 47095 32965 60000 11029 21038 30086 40284 51004 80005 333 21053 30101;EQDQ01  00002PRCP99
0163470950999992000120203004+38070+127810FM-12+013599999V0201601N000519999999N0150001N1+00591-00341102511ADDAA199000091GF106991001001999999001011MA1999999100611MD1710251+9999REMSYN066AAXX  02034 47095 32965 61601 10059 21034 30061 40251 57025 80001;EQDQ01  00002PRCP99
0163470950999992000120206004+38070+127810FM-12+013599999V0202001N002110360019N0110001N1+01001-00061102221ADDAA199000091GF106991031051012501031001MA1999999100351MD1710261+9999REMSYN066AAXX  02064 47095 32661 62004 10100 21006 30035 40222 57026 83530;EQDQ01  00002PRCP99
0163470950999992000120209004+38070+127810FM-12+013599999V0202001N001012200019N0100001N1+00671-00081102221ADDAA199000091GF106991031051012501001011MA1999999100331MD1610021+9999REMSYN066AAXX  02094 47095 32660 62002 10067 21008 30033 40222 56002 83501;EQDQ01  00002PRCP99
0210470950999992000120212004+38070+127810FM-12+013599999V0202501N004110120019N0100001N1+00601-00021102191ADDAA199000091GF107991071051012501001001IA1019IA2999+00509KA1120M+01141MA1999999100291MD1810041+9999REMSYN082AAXX  02124 47095 32660 72508 10060 21002 30029 40219 58004 87500 333 10114 30005;EQDQ01  00002PRCP99
0163470950999992000120215004+38070+127810FM-12+013599999V0202301N004110120019N0100001N1+00551+00001102181ADDAA199000091GF108991051051012501021999MA1999999100281MD1310011+9999REMSYN066AAXX  02154 47095 32660 82308 10055 20000 30028 40218 53001 8552/;EQDQ01  00002PRCP99
0191470950999992000120218004+38070+127810FM-12+013599999V0209999C000012200019N0080001N1+00301+00041102181ADDAA199000091AY121061AY221061GF103991031051012501001001MA1999999100261MD1810021+9999MW1101REMSYN072AAXX  02184 47095 32658 30000 10030 20004 30026 40218 58002 71022 83500;EQDQ01  00002PRCP99
0201470950999992000120221004+38070+127810FM-12+013599999V0201601N000512200019N0090001N1+00001-00241102191ADDAA199000091AY121031AY221031GA1001+999999999GF100991001001999999001001MA1999999100251MD1810011+9999MW1101REMSYN066AAXX  02214 47095 32959 01601 10000 21024 30025 40219 58001 71022;EQDQ01  00002PRCP99
0210470950999992000120300004+38070+127810FM-12+013599999V0209999C000012200019N0120001N1-00111-00211102291ADDAA199000091GF102991001001999999001021IA1019IA2999+00009KA1120N-00301MA1999999100341MD1210091+9999REMSYN082AAXX  03004 47095 32962 20000 11011 21021 30034 40229 52009 80002 333 21030 30100;EQDQ01  00002PRCP99
0163470950999992000120303004+38070+127810FM-12+013599999V0202001N002112200019N0170001N1+00361-00701102161ADDAA199000091GF101991001001999999001021MA1999999100251MD1510091+9999REMSYN066AAXX  03034 47095 32967 12004 10036 21070 30025 40216 55009 80002;EQDQ01  00002PRCP99
0163470950999992000120306004+38070+127810FM-12+013599999V0203201N002112200019N0300001N1+00501-01501102051ADDAA199000091GF101991001001999999001021MA1999999100151MD1810101+9999REMSYN066AAXX  03064 47095 32980 13204 10050 21150 30015 40205 58010 80002;EQDQ01  00002PRCP99
0173470950999992000120309004+38070+127810FM-12+013599999V0200701N001012200019N0300001N1-00121-01041102201ADDAA199000091GA1001+999999999GF100991001001999999001001MA1999999100251MD1210101+9999REMSYN060AAXX  03094 47095 32980 00702 11012 21104 30025 40220 52010;EQDQ01  00002PRCP99
0207470950999992000120312004+38070+127810FM-12+013599999V0209999C000012200019N0250001N1-00471-00981102361ADDAA199000091GA1001+999999999GF100991001001999999001001IA1019IA2999-00409MA1999999100381MD1210131+9999REMSYN076AAXX  03124 47095 32975 00000 11047 21098 30038 40236 52013 333 30104 55028;EQDQ01  00002PRCP99
0189470950999992000120315004+38070+127810FM-12+013599999V0200501N000512200019N0250001N1-00711-01061102381ADDAA199000091GA1001+999999999GF100991001001999999001001MA1999999100381MD1110021+9999REMSYN060AAXX  03154 47095 32975 00501 11071 21106 30038 40238 51000;EQDQ01+000002APC3  Q02  00002PRCP99
0173470950999992000120318004+38070+127810FM-12+013599999V0200201N001012200019N0250001N1-00891-01041102411ADDAA199000091GA1001+999999999GF100991001001999999001001MA1999999100401MD1810021+9999REMSYN060AAXX  03184 47095 32975 00202 11089 21104 30040 40241 58002;EQDQ01  00002PRCP99
0173470950999992000120321004+38070+127810FM-12+013599999V0209999C000012200019N0250001N1-01011-01131102381ADDAA199000091GA1001+999999999GF100991001001999999001001MA1999999100361MD1510041+9999REMSYN060AAXX  03214 47095 32975 00000 11101 21113 30036 40238 55004;EQDQ01  00002PRCP99
0226470950999992000120400004+38070+127810FM-12+013599999V0201801N000512200019N0250001N1-00761-00911102341ADDAA199000091GA1001+999999999GF100991001001999999001001IA1289IA2999-00509KA1120N-01051MA1999999100341MD1810021+9999REMSYN082AAXX  04004 47095 32975 01801 11076 21091 30034 40234 58002 333 21105 3/105 44///;EQDQ01  00002PRCP99
0173470950999992000120403004+38070+127810FM-12+013599999V0202301N001512200019N0250001N1+00291-01031102071ADDAA199000091GA1001+999999999GF100991001001999999001001MA1999999100151MD1610191+9999REMSYN060AAXX  04034 47095 32975 02303 10029 21103 30015 40207 56019;EQDQ01  00002PRCP99
0173470950999992000120406004+38070+127810FM-12+013599999V0202301N004112200019N0220001N1+00441-01291101871ADDAA199000091GA1001+999999999GF100991001001999999001001MA1999999099971MD1710181+9999REMSYN060AAXX  04064 47095 32972 02308 10044 21129 39997 40187 57018;EQDQ01  00002PRCP99
0163470950999992000120409004+38070+127810FM-12+013599999V0201801N001012200019N0200001N1+00161-01131101851ADDAA199000091GF103991031051012501001001MA1999999099931MD1610041+9999REMSYN066AAXX  04094 47095 32670 31802 10016 21113 39993 40185 56004 83500;EQDQ01  00002PRCP99
0216470950999992000120412004+38070+127810FM-12+013599999V0202301N003610360019N0150001N1+00191-00841101661ADDAA199000091GF108991031051012501021999IA1019IA2999+00009KA1120M+00481MA1999999099741MD1710191+9999REMSYN088AAXX  04124 47095 32665 82307 10019 21084 39974 40166 57019 8352/ 333 10048 30000 55083;EQDQ01  00002PRCP99
0161470950999992000120415004+38070+127810FM-12+013599999V0202001N006210075019N0050001N1+00051-00111101501ADDAY171031AY271031GF108991061071008001021999MA1999999099571MD1710171+9999MW1711REMSYN072AAXX  04154 47095 41550 82012 10005 21011 39957 40150 57017 77177 8672/;
0144470950999992000120418004+38070+127810FM-12+013599999V0202501N001510360019N0130001N1+00211-00031101421ADDAA199000021GF106991041051012501031001MA1999999099511MD1810061+9999REMSYN066AAXX  04184 47095 32663 62503 10021 21003 39951 40142 58006 84530;
0144470950999992000120421004+38070+127810FM-12+013599999V0202501N001512200019N0110001N1+00251-00501101651ADDAA199000021GF102991021001999999031021MA1999999099741MD1210231+9999REMSYN066AAXX  04214 47095 32961 22503 10025 21050 39974 40165 52023 82032;
0195470950999992000120500004+38070+127810FM-12+013599999V0202301N002612200019N0150001N1+00001-00761101991ADDAA112000791GA1001+999999999GF100991001001999999001001KA1120N-00031MA1999999100061MD1210321+9999REMSYN088AAXX  05004 47095 12965 02305 10000 21076 30006 40199 52032 69902 333 21003 41000 70001;
0154470950999992000120503004+38070+127810FM-12+013599999V0202301N004612200019N0150001N1+00141-00871102121ADDAA199000021GA1001+999999999GF100991001001999999001001MA1999999100201MD1310141+9999REMSYN060AAXX  05034 47095 32965 02309 10014 21087 30020 40212 53014;
0173470950999992000120506004+38070+127810FM-12+013599999V0202501N003112200019N0150001N1+00301-00961102151ADDAA199000091GA1001+999999999GF100991001001999999001001MA1999999100231MD1510031+9999REMSYN060AAXX  05064 47095 32965 02506 10030 21096 30023 40215 55003;EQDQ01  00002PRCP99
0173470950999992000120509004+38070+127810FM-12+013599999V0202001N001012200019N0150001N1-00091-00921102341ADDAA199000091GA1001+999999999GF100991001001999999001001MA1999999100391MD1210161+9999REMSYN060AAXX  05094 47095 32965 02002 11009 21092 30039 40234 52016;EQDQ01  00002PRCP99
0213470950999992000120512004+38070+127810FM-12+013599999V0200701N000512200019N0150001N1-00511-00941102501ADDAA124000191GA1001+999999999GF100991001001999999001001IA1289IA2999-00409KA1120M+00411MA1999999100521MD1210131+9999REMSYN088AAXX  05124 47095 32965 00701 11051 21094 30052 40250 52013 333 10041 3/104 44/// 70001;
0173470950999992000120515004+38070+127810FM-12+013599999V0201101N001012200019N0150001N1-00691-01021102651ADDAA199000091GA1001+999999999GF100991001001999999001001MA1999999100651MD1810131+9999REMSYN060AAXX  05154 47095 32965 01102 11069 21102 30065 40265 58013;EQDQ01  00002PRCP99
0173470950999992000120518004+38070+127810FM-12+013599999V0200501N001012200019N0150001N1-00951-01131102801ADDAA199000091GA1001+999999999GF100991001001999999001001MA1999999100781MD1210131+9999REMSYN060AAXX  05184 47095 32965 00502 11095 21113 30078 40280 52013;EQDQ01  00002PRCP99
0173470950999992000120521004+38070+127810FM-12+013599999V0200201N001012200019N0150001N1-01051-01181102831ADDAA199000091GA1001+999999999GF100991001001999999001001MA1999999100801MD1010021+9999REMSYN060AAXX  05214 47095 32965 00202 11105 21118 30080 40283 50002;EQDQ01  00002PRCP99
0226470950999992000120600004+38070+127810FM-12+013599999V0209999C000012200019N0250001N1-00811-00971102961ADDAA199000091GA1001+999999999GF100991001001999999001001IA1149IA2999-00609KA1120N-01071MA1999999100951MD1210151+9999REMSYN082AAXX  06004 47095 32975 00000 11081 21097 30095 40296 52015 333 21107 34106 44///;EQDQ01  00002PRCP99
0163470950999992000120603004+38070+127810FM-12+013599999V0202501N000512200019N0280001N1+00071-01211102861ADDAA199000091GF101991001001999999001011MA1999999100921MD1310031+9999REMSYN066AAXX  06034 47095 32978 12501 10007 21121 30092 40286 53003 80001;EQDQ01  00002PRCP99
0173470950999992000120606004+38070+127810FM-12+013599999V0202901N001512200019N0250001N1+00321-01081102691ADDAA199000091GA1001+999999999GF100991001001999999001001MA1999999100761MD1710161+9999REMSYN060AAXX  06064 47095 32975 02903 10032 21108 30076 40269 57016;EQDQ01  00002PRCP99
0163470950999992000120609004+38070+127810FM-12+013599999V0209999C000012200019N0220001N1-00121-00851102851ADDAA199000091GF103991001001999999001021MA1999999100891MD1210131+9999REMSYN066AAXX  06094 47095 32972 30000 11012 21085 30089 40285 52013 80002;EQDQ01  00002PRCP99
0216470950999992000120612004+38070+127810FM-12+013599999V0200501N001512200019N0150001N1-00451-00821103001ADDAA199000091GF102991001001999999001011IA1019IA2999-00409KA1120M+00391MA1999999101011MD1210121+9999REMSYN088AAXX  06124 47095 32965 20503 11045 21082 30101 40300 52012 80001 333 10039 30104 55011;EQDQ01  00002PRCP99
0163470950999992000120615004+38070+127810FM-12+013599999V0200701N000512200019N0150001N1-00621-00841103011ADDAA199000091GF102991011001999999031011MA1999999101011MD1510001+9999REMSYN066AAXX  06154 47095 32965 20701 11062 21084 30101 40301 55000 81031;EQDQ01  00002PRCP99
0163470950999992000120618004+38070+127810FM-12+013599999V0202501N001519999999N0150001N1-00401-00711103011ADDAA199000091GF106991021001999999031021MA1999999101031MD1210021+9999REMSYN066AAXX  06184 47095 32965 62503 11040 21071 30103 40301 52002 82032;EQDQ01  00002PRCP99
0163470950999992000120621004+38070+127810FM-12+013599999V0209999C000010360019N0150001N1-00281-00621102971ADDAA199000091GF108991021051012501011999MA1999999101001MD1510031+9999REMSYN066AAXX  06214 47095 32665 80000 11028 21062 30100 40297 55003 8251/;EQDQ01  00002PRCP99
0210470950999992000120700004+38070+127810FM-12+013599999V0209999C000010120019N0140001N1-00171-00571103011ADDAA199000091GF108991051051012501021999IA1019IA2999+00009KA1120N-00621MA1999999101041MD1210041+9999REMSYN082AAXX  07004 47095 32664 82500 11017 21057 30104 40301 52004 8552/ 333 21062 30100;EQDQ01  00002PRCP99
0163470950999992000120703004+38070+127810FM-12+013599999V0209999C000010120019N0140001N1+00241-00681102831ADDAA199000091GF108991051051012501021999MA1999999100901MD1610141+9999REMSYN066AAXX  07034 47095 32664 80000 10024 21068 30090 40283 56014 8552/;EQDQ01  00002PRCP99
0163470950999992000120706004+38070+127810FM-12+013599999V0209999C000010120019N0140001N1+00421-00711102711ADDAA199000091GF107991071051012501001001MA1999999100791MD1810111+9999REMSYN066AAXX  07064 47095 32664 70000 10042 21071 30079 40271 58011 87500;EQDQ01  00002PRCP99
0163470950999992000120709004+38070+127810FM-12+013599999V0200201N001010120019N0120001N1+00271-00451102751ADDAA199000091GF108991051051012501021999MA1999999100821MD1210031+9999REMSYN066AAXX  07094 47095 32662 80202 10027 21045 30082 40275 52003 8552/;EQDQ01  00002PRCP99
0244470950999992000120712004+38070+127810FM-12+013599999V0209999C000010360019N0080001N1+00011-00421102741ADDAA199000091AY101061AY201061GF108991041051012501021999IA1019IA2999+00009KA1120M+00461MA1999999100791MD1710031+9999MW1101REMSYN094AAXX  07124 47095 31658 80000 10001 21042 30079 40274 57003 71000 8452/ 333 10046 30000 55001;EQDQ01  00002PRCP99
0191470950999992000120715004+38070+127810FM-12+013599999V0201401N000510360019N0090001N1+00091-00371102701ADDAA199000091AY121031AY221031GF108991031051012501021999MA1999999100761MD1710031+9999MW1101REMSYN072AAXX  07154 47095 31659 81401 10009 21037 30076 40270 57003 71022 8352/;EQDQ01  00002PRCP99
0191470950999992000120718004+38070+127810FM-12+013599999V0209999C000010360019N0090001N1+00101-00281102661ADDAA199000091AY121061AY221061GF108991041051012501021999MA1999999100721MD1810041+9999MW1101REMSYN072AAXX  07184 47095 31659 80000 10010 21028 30072 40266 58004 71022 8452/;EQDQ01  00002PRCP99
0191470950999992000120721004+38070+127810FM-12+013599999V0202901N000510360019N0090001N1+00011-00231102591ADDAA199000091AY121031AY221031GF108991041051012501021999MA1999999100641MD1810081+9999MW1101REMSYN072AAXX  07214 47095 31659 82901 10001 21023 30064 40259 58008 71022 8452/;EQDQ01  00002PRCP99
0266470950999992000120800004+38070+127810FM-12+013599999V0203401N001010075019N0050001N1+00131-00021102581ADDAA112000191AY161061AY261061GF108991051071008001021999IA1099IA2999+00209KA1120N-00011MA1999999100641MD1710011+9999MW1601REMSYN100AAXX  08004 47095 11550 83402 10013 21002 30064 40258 58000 69912 76066 8572/ 333 21001 31002 70001;EQDQ01+000082APCTENQ02+000002APC3  
0161470950999992000120803004+38070+127810FM-12+013599999V0209999C000010075019N0050001N1+00361+00111102451ADDAY121031AY221031GF108991051061008001021999MA1999999100531MD1510111+9999MW1101REMSYN072AAXX  08034 47095 41550 80000 10036 20011 30053 40245 55011 71022 8562/;
0161470950999992000120806004+38070+127810FM-12+013599999V0203201N000510075019N0060001N1+00781+00181102231ADDAY121061AY221061GF108991051051008001011999MA1999999100351MD1710181+9999MW1101REMSYN072AAXX  08064 47095 41556 83201 10078 20018 30035 40223 57018 71022 8551/;
0172470950999992000120809004+38070+127810FM-12+013599999V0202001N001510075019N0060001N1+00701+00241102301ADDAA199000021AY121031AY221031GF108991051051008001021999MA1999999100411MD1210061+9999MW1101REMSYN072AAXX  08094 47095 32556 82003 10070 20024 30041 40230 52006 71022 8552/;
0225470950999992000120812004+38070+127810FM-12+013599999V0202501N001010075019N0080001N1+00571+00231102321ADDAA124000191AY121061AY221061GF107991071051008001001001IA1019IA2999+00409KA1120M+00791MA1999999100411MD1010001+9999MW1101REMSYN094AAXX  08124 47095 32558 72502 10057 20023 30041 40232 50000 71022 87500 333 10079 30004 70001;
0191470950999992000120815004+38070+127810FM-12+013599999V0202501N001010075019N0080001N1+00501+00221102281ADDAA199000091AY121031AY221031GF106991061051008001001001MA1999999100371MD1510041+9999MW1101REMSYN072AAXX  08154 47095 32558 62502 10050 20022 30037 40228 55004 71022 86500;EQDQ01  00002PRCP99
0191470950999992000120818004+38070+127810FM-12+013599999V0201601N000510075019N0080001N1+00431+00261102301ADDAA199000091AY121061AY221061GF106991061051008001001001MA1999999100391MD1310021+9999MW1101REMSYN072AAXX  08184 47095 32558 61601 10043 20026 30039 40230 53002 71022 86500;EQDQ01  00002PRCP99
0191470950999992000120821004+38070+127810FM-12+013599999V0209999C000012200019N0060001N1+00151+00081102291ADDAA199000091AY121031AY221031GF102991021051012501001001MA1999999100361MD1710031+9999MW1101REMSYN072AAXX  08214 47095 32656 20000 10015 20008 30036 40229 57003 71022 82500;EQDQ01  00002PRCP99
0225470950999992000120900004+38070+127810FM-12+013599999V0200501N001019999999N0015001N1+00031+00001102371ADDAA124000021AY141061AY221061GF106991001001999999001021IA1019IA2999+00009KA1120N-00051MA1999999100431MD1110071+9999MW1281REMSYN094AAXX  09004 47095 31915 60502 10003 20000 30043 40237 51007 72842 80002 333 21005 30000 70000;
0191470950999992000120903004+38070+127810FM-12+013599999V0202701N000512200019N0070001N1+00891+00371102121ADDAA199000091AY121031AY221031GF104991001001999999001021MA1999999100251MD1710181+9999MW1101REMSYN072AAXX  09034 47095 31957 42701 10089 20037 30025 40212 57018 71022 80002;EQDQ01  00002PRCP99
0173470950999992000120906004+38070+127810FM-12+013599999V0202301N003112200019N0120001N1+01131+00041101861ADDAA199000091GA1001+999999999GF100991001001999999001001MA1999999100011MD1710241+9999REMSYN060AAXX  09064 47095 32962 02306 10113 20004 30001 40186 57024;EQDQ01  00002PRCP99
0163470950999992000120909004+38070+127810FM-12+013599999V0203601N000512200019N0100001N1+00691+00031101841ADDAA199000091GF104991041001999999031001MA1999999099951MD1810061+9999REMSYN066AAXX  09094 47095 32960 43601 10069 20003 39995 40184 58006 84030;EQDQ01  00002PRCP99
0260470950999992000120912004+38070+127810FM-12+013599999V0209999C000019999999N0070001N1+00401+00001101851ADDAA199000091AY121061AY221061GF106991061001999999011001IA1019IA2999+00309KA1120M+01161MA1999999099951MD1810011+9999MW1101REMSYN094AAXX  09124 47095 31957 60000 10040 20000 39995 40185 58000 71022 86010 333 10116 30003 55085;EQDQ01+000002APC3  Q02  00002PRCP99
0161470950999992000120915004+38070+127810FM-12+013599999V0203201N001510075019N0050001N1+00691+00101101801ADDAY161031AY261031GF108991051071008001021999MA1999999099921MD1710031+9999MW1601REMSYN072AAXX  09154 47095 41550 83203 10069 20010 39992 40180 57003 76066 8572/;
0161470950999992000120918004+38070+127810FM-12+013599999V0202501N001010075019N0050001N1+00571+00411101711ADDAY161061AY221061GF108991051071008001021999MA1999999099821MD1810101+9999MW1601REMSYN072AAXX  09184 47095 41550 82502 10057 20041 39982 40171 58010 76062 8572/;
0161470950999992000120921004+38070+127810FM-12+013599999V0209999C000010075019N0030001N1+00501+00441101711ADDAY161031AY261031GF108991061071008001021999MA1999999099811MD1010011+9999MW1601REMSYN072AAXX  09214 47095 41530 80000 10050 20044 39981 40171 50001 76066 8672/;
0231470950999992000121000004+38070+127810FM-12+013599999V0202301N002110075019N0030001N1+00481+00431101871ADDAA112001091AY161061AY261061GF108991061071008001021999IA1099IA2999+00509KA1120N+00481MA1999999099971MD1010161+9999MW1601REMSYN100AAXX  10004 47095 11530 82304 10048 20043 39997 40187 50016 60012 76066 8672/ 333 20048 31005 70013;
0161470950999992000121003004+38070+127810FM-12+013599999V0203401N001012200019N0180001N1+00501-00191101911ADDAY161031AY221031GF102991011051008001001011MA1999999100011MD1310041+9999MW1011REMSYN072AAXX  10034 47095 41568 23402 10050 21019 30001 40191 53004 70162 81501;
0154470950999992000121006004+38070+127810FM-12+013599999V0202701N004112200019N0200001N1+00391-01141101981ADDAA199000021GA1001+999999999GF100991001001999999001001MA1999999100071MD1010061+9999REMSYN060AAXX  10064 47095 32970 02708 10039 21114 30007 40198 50006;
0154470950999992000121009004+38070+127810FM-12+013599999V0202501N004612200019N0250001N1-00071-01321102291ADDAA199000021GA1001+999999999GF100991001001999999001001MA1999999100351MD1210281+9999REMSYN060AAXX  10094 47095 32975 02509 11007 21132 30035 40229 52028;
0200470950999992000121012004+38070+127810FM-12+013599999V0202501N003112200019N0300001N1-00431-01351102631ADDAA112000791GA1001+999999999GF100991001001999999001001IA1019IA2999-00409MA1999999100651MD1210301+9999REMSYN088AAXX  10124 47095 12980 02506 11043 21135 30065 40263 52030 69902 333 30104 55052 70013;
0143470950999992000121015004+38070+127810FM-12+013599999V0202301N003112200019N0300001N1-00631-01591102891ADDGA1001+999999999GF100991001001999999001001MA1999999100891MD1210241+9999REMSYN060AAXX  10154 47095 42980 02306 11063 21159 30089 40289 52024;
0173470950999992000121018004+38070+127810FM-12+013599999V0202501N003112200019N0300001N1-00811-01831103071ADDAA199000091GA1001+999999999GF100991001001999999001001MA1999999101051MD1210161+9999REMSYN060AAXX  10184 47095 32980 02506 11081 21183 30105 40307 52016;EQDQ01  00002PRCP99
0173470950999992000121021004+38070+127810FM-12+013599999V0202301N002112200019N0300001N1-00981-01841103151ADDAA199000091GA1001+999999999GF100991001001999999001001MA1999999101121MD1210071+9999REMSYN060AAXX  10214 47095 32980 02304 11098 21184 30112 40315 52007;EQDQ01  00002PRCP99
0207470950999992000121100004+38070+127810FM-12+013599999V0202301N001012200019N0300001N1-00751-02441103341ADDAA124000021GA1001+999999999GF100991001001999999001001IA1019IA2999-00809KA1120N-00981MA1999999101331MD1210211+9999REMSYN082AAXX  11004 47095 32980 02302 11075 21244 30133 40334 52021 333 21098 30108 70000;
0173470950999992000121103004+38070+127810FM-12+013599999V0202901N002112200019N0300001N1-00611-02481103261ADDAA199000091GA1001+999999999GF100991001001999999001001MA1999999101251MD1310081+9999REMSYN060AAXX  11034 47095 32980 02904 11061 21248 30125 40326 53008;EQDQ01  00002PRCP99
0173470950999992000121106004+38070+127810FM-12+013599999V0202901N003612200019N0300001N1-00551-02451103181ADDAA199000091GA1001+999999999GF100991001001999999001001MA1999999101181MD1810071+9999REMSYN060AAXX  11064 47095 32980 02907 11055 21245 30118 40318 58007;EQDQ01  00002PRCP99
0173470950999992000121109004+38070+127810FM-12+013599999V0202901N003112200019N0300001N1-00811-02341103341ADDAA199000091GA1001+999999999GF100991001001999999001001MA1999999101321MD1210141+9999REMSYN060AAXX  11094 47095 32980 02906 11081 21234 30132 40334 52014;EQDQ01  00002PRCP99
0226470950999992000121112004+38070+127810FM-12+013599999V0209999C000012200019N0250001N1-01121-01971103491ADDAA199000091GA1001+999999999GF100991001001999999001001IA1289IA2999-01109KA1120M-00491MA1999999101441MD1110121+9999REMSYN082AAXX  11124 47095 32975 00000 11112 21197 30144 40349 51012 333 11049 3/111 44///;EQDQ01  00002PRCP99
0173470950999992000121115004+38070+127810FM-12+013599999V0202301N000512200019N0250001N1-01241-01891103401ADDAA199000091GA1001+999999999GF100991001001999999001001MA1999999101341MD1610101+9999REMSYN060AAXX  11154 47095 32975 02301 11124 21189 30134 40340 56010;EQDQ01  00002PRCP99
0173470950999992000121118004+38070+127810FM-12+013599999V0200201N000512200019N0220001N1-01461-01791103351ADDAA199000091GA1001+999999999GF100991001001999999001001MA1999999101281MD1710061+9999REMSYN060AAXX  11184 47095 32972 00201 11146 21179 30128 40335 57006;EQDQ01  00002PRCP99
0173470950999992000121121004+38070+127810FM-12+013599999V0209999C000012200019N0220001N1-01541-01821103251ADDAA199000091GA1001+999999999GF100991001001999999001001MA1999999101171MD1710111+9999REMSYN060AAXX  11214 47095 32972 00000 11154 21182 30117 40325 57011;EQDQ01  00002PRCP99
0210470950999992000121200004+38070+127810FM-12+013599999V0202001N001512200019N0250001N1-01011-02121103251ADDAA199000091GF101991001001999999001011IA1019IA2999-01109KA1120N-01571MA1999999101211MD1310041+9999REMSYN082AAXX  12004 47095 32975 12003 11101 21212 30121 40325 53004 80001 333 21157 30111;EQDQ01  00002PRCP99
0163470950999992000121203004+38070+127810FM-12+013599999V0201801N002112200019N0280001N1-00461-02121102961ADDAA199000091GF101991001001999999001011MA1999999100971MD1710241+9999REMSYN066AAXX  12034 47095 32978 11804 11046 21212 30097 40296 57024 80001;EQDQ01  00002PRCP99
0163470950999992000121206004+38070+127810FM-12+013599999V0202301N003119999999N0280001N1-00241-01671102691ADDAA199000091GF106991021051999999031001MA1999999100721MD1710251+9999REMSYN066AAXX  12064 47095 32978 62306 11024 21167 30072 40269 57025 82530;EQDQ01  00002PRCP99
0163470950999992000121209004+38070+127810FM-12+013599999V0202301N005110360019N0250001N1-00311-01191102601ADDAA199000091GF108991021051012501021999MA1999999100631MD1810091+9999REMSYN066AAXX  12094 47095 32675 82310 11031 21119 30063 40260 58009 8252/;EQDQ01  00002PRCP99
0216470950999992000121212004+38070+127810FM-12+013599999V0202301N002110360019N0200001N1-00311-00991102591ADDAA199000091GF108991021051012501011999IA1019IA2999-00209KA1120M-00191MA1999999100621MD1310011+9999REMSYN088AAXX  12124 47095 32670 82304 11031 21099 30062 40259 53001 8251/ 333 11019 30102 55074;EQDQ01  00002PRCP99
0179470950999992000121215004+38070+127810FM-12+013599999V0202501N000510120019N0180001N1-00331-00871102591ADDAA199000091GF107991051051012501031001MA1999999100621MD1410001+9999REMSYN066AAXX  12154 47095 32668 72501 11033 21087 30062 40259 51000 85530;EQDQ01+000012APCTENQ02  00002PRCP99
0161470950999992000121218004+38070+127810FM-12+013599999V0200201N001012200019N0220001N1-00621-00881102521ADDAY171061AY271061GF102991021051012501001001MA1999999100531MD1710091+9999MW1221REMSYN072AAXX  12184 47095 41672 20202 11062 21088 30053 40252 57009 72277 82500;
0154470950999992000121221004+38070+127810FM-12+013599999V0200201N000512200019N0220001N1-00921-01031102481ADDAA199000021GA1001+999999999GF100991001001999999001001MA1999999100471MD1810061+9999REMSYN060AAXX  12214 47095 32972 00201 11092 21103 30047 40248 58006;
0201470950999992000121300004+38070+127810FM-12+013599999V0202301N000512200019N0220001N1-00861-00971102551ADDAA199000021GA1001+999999999GF100991001001999999001001IA1019IA2999-00709KA1120N-01041MA1999999100541MD1210071+9999REMSYN076AAXX  13004 47095 32972 02301 11086 21097 30054 40255 52007 333 21104 30107;
0144470950999992000121303004+38070+127810FM-12+013599999V0202501N002612200019N0180001N1+00001-00711102401ADDAA199000021GF104991021051012501001011MA1999999100461MD1310081+9999REMSYN066AAXX  13034 47095 32668 42505 10000 21071 30046 40240 53008 82501;
0161470950999992000121306004+38070+127810FM-12+013599999V0200501N000510075019N0110001N1+00011-00411102301ADDAY121061AY221061GF107991051051008001011001MA1999999100361MD1710101+9999MW1701REMSYN072AAXX  13064 47095 41561 70501 10001 21041 30036 40230 57010 77022 85510;
0172470950999992000121309004+38070+127810FM-12+013599999V0203401N002110360019N0090001N1-00171-00341102401ADDAA199000021AY121031AY221031GF108991041051008001021999MA1999999100441MD1210081+9999MW1101REMSYN072AAXX  13094 47095 31559 83404 11017 21034 30044 40240 52008 71022 8452/;
0231470950999992000121312004+38070+127810FM-12+013599999V0209999C000010075019N0060001N1-00161-00301102471ADDAA112000791AY171061AY271061GF108991061071008001021999IA1019IA2999-00109KA1120M+00081MA1999999100511MD1210071+9999MW1711REMSYN100AAXX  13124 47095 11556 80000 11016 21030 30051 40247 52007 69902 77177 8672/ 333 10008 30101 70000;
0172470950999992000121315004+38070+127810FM-12+013599999V0209999C000012200019N0070001N1-00291-00381102491ADDAA199000021AY121031AY221031GF102991021001999999031001MA1999999100521MD1010011+9999MW1101REMSYN072AAXX  13154 47095 31957 20000 11029 21038 30052 40249 50001 71022 82030;
0172470950999992000121318004+38070+127810FM-12+013599999V0209999C000010360019N0060001N1-00361-00421102561ADDAA199000021AY121061AY221061GF108991041051012501021999MA1999999100591MD1210071+9999MW1101REMSYN072AAXX  13184 47095 31656 80000 11036 21042 30059 40256 52007 71022 8452/;
0182470950999992000121321004+38070+127810FM-12+013599999V0209999C000012200019N0030001N1-00561-00621102541ADDAA199000021AY121031AY221031GA1001+999999999GF100991001001999999001001MA1999999100551MD1810041+9999MW1101REMSYN066AAXX  13214 47095 31930 00000 11056 21062 30055 40254 58004 71022;
0229470950999992000121400004+38070+127810FM-12+013599999V0209999C000010001519N0000001N1-00611-00661102591ADDAA112000191AY141061AY241061GA1091+999999999GF109991091999999999999999KA1120N-00711MA1999999100601MD1210051+9999MW1451REMSYN100AAXX  14004 47095 31/00 90000 11061 21066 30060 40259 52005 69922 74544 8//// 333 21071 42103 70002;
0191470950999992000121406004+38070+127810FM-12+013599999V0202001N003612200019N0090001N1+00571-00161102201ADDAA199000091AY101061AY201061GF103991031051012501001001MA1999999100301MD1810131+9999MW1101REMSYN072AAXX  14064 47095 31659 32007 10057 21016 30030 40220 58013 71000 83500;EQDQ01  00002PRCP99
0191470950999992000121409004+38070+127810FM-12+013599999V0202001N002110120019N0080001N1+00361-00101102331ADDAA199000091AY121031AY221031GF106991061051012501001001MA1999999100421MD1210121+9999MW1101REMSYN072AAXX  14094 47095 31658 62004 10036 21010 30042 40233 52012 71022 86500;EQDQ01  00002PRCP99
0238470950999992000121412004+38070+127810FM-12+013599999V0203601N001010120019N0050001N1-00111-00281102351ADDAA199000091AY121061AY221061GF106991061051012501001001IA1019IA2999-00209KA1120M+00601MA1999999100401MD1310021+9999MW1101REMSYN088AAXX  14124 47095 32650 63602 11011 21028 30040 40235 53002 71022 86500 333 10060 30102;EQDQ01  00002PRCP99
0161470950999992000121415004+38070+127810FM-12+013599999V0202501N001010075019N0050001N1+00191+00121102251ADDAY121031AY221031GF108991051071008001021999MA1999999100321MD1710081+9999MW1611REMSYN072AAXX  14154 47095 41550 82502 10019 20012 30032 40225 57008 76122 8572/;
0161470950999992000121418004+38070+127810FM-12+013599999V0202301N002110075019N0100001N1+00401+00281102211ADDAY161061AY221061GF108991051051008001021999MA1999999100301MD1710021+9999MW1211REMSYN072AAXX  14184 47095 41560 82304 10040 20028 30030 40221 57002 72162 8552/;
0161470950999992000121421004+38070+127810FM-12+013599999V0201801N002610075019N0100001N1+00351+00251102141ADDAY161031AY221031GF108991051071008001021999MA1999999100221MD1810081+9999MW1611REMSYN072AAXX  14214 47095 41560 81805 10035 20025 30022 40214 58008 76162 8572/;
0231470950999992000121500004+38070+127810FM-12+013599999V0202001N001510075019N0070001N1+00501+00321102241ADDAA112006191AY161061AY221061GF107991051051008001021001IA1099IA2999+00309KA1120N+00161MA1999999100331MD1110111+9999MW1211REMSYN100AAXX  15004 47095 11557 72003 10050 20032 30033 40224 51011 60062 72162 85520 333 20016 31003 70056;
0172470950999992000121503004+38070+127810FM-12+013599999V0202301N004110120019N0090001N1+00691+00281102061ADDAA199000021AY121031AY221031GF105991051051012501001001MA1999999100171MD1710161+9999MW1101REMSYN072AAXX  15034 47095 31659 52308 10069 20028 30017 40206 57016 71022 85500;
0144470950999992000121506004+38070+127810FM-12+013599999V0202501N005112200019N0110001N1+00881-00101101971ADDAA199000021GF102991021051012501001001MA1999999100101MD1810071+9999REMSYN066AAXX  15064 47095 32661 22510 10088 21010 30010 40197 58007 82500;
0161470950999992000121509004+38070+127810FM-12+013599999V0202301N003610075019N0060001N1+00601+00441101981ADDAY161031AY261031GF108991061071008001021999MA1999999100081MD1510021+9999MW1611REMSYN072AAXX  15094 47095 41556 82307 10060 20044 30008 40198 55002 76166 8672/;
0237470950999992000121512004+38070+127810FM-12+013599999V0202301N005110075019N0060001N1+00711+00371102011ADDAA112003091AY161061AY261061GF107991071051008001001001IA1099IA2999+00509KA1120M+00881MA1999999100131MD1010051+9999MW1211REMSYN106AAXX  15124 47095 11556 72310 10071 20037 30013 40201 50005 60032 72166 87500 333 10088 31005 55028 70087;
0154470950999992000121518004+38070+127810FM-12+013599999V0202501N002612200019N0100001N1+00011-00881102651ADDAA199000021GA1001+999999999GF100991001001999999001001MA1999999100701MD1210351+9999REMSYN060AAXX  15184 47095 32960 02505 10001 21088 30070 40265 52035;
0154470950999992000121521004+38070+127810FM-12+013599999V0202501N002112200019N0180001N1-00361-01311102841ADDAA199000021GA1001+999999999GF100991001001999999001001MA1999999100861MD1210161+9999REMSYN060AAXX  15214 47095 32968 02504 11036 21131 30086 40284 52016;
0213470950999992000121600004+38070+127810FM-12+013599999V0202001N001512200019N0220001N1-00381-01541103151ADDAA124003091GA1001+999999999GF100991001001999999001001IA1289IA2999-00409KA1120N-00531MA1999999101161MD1210301+9999REMSYN088AAXX  16004 47095 32972 02003 11038 21154 30116 40315 52030 333 21053 3/104 44/// 70031;
0173470950999992000121603004+38070+127810FM-12+013599999V0203601N001512200019N0250001N1-00041-01711103001ADDAA199000091GA1001+999999999GF100991001001999999001001MA1999999101041MD1610121+9999REMSYN060AAXX  16034 47095 32975 03603 11004 21171 30104 40300 56012;EQDQ01  00002PRCP99
0163470950999992000121606004+38070+127810FM-12+013599999V0202501N003612200019N0300001N1+00101-01491102871ADDAA199000091GF101991011001999999031001MA1999999100921MD1710121+9999REMSYN066AAXX  16064 47095 32980 12507 10010 21149 30092 40287 57012 81030;EQDQ01  00002PRCP99
0173470950999992000121609004+38070+127810FM-12+013599999V0200701N001012200019N0300001N1-00251-01051102941ADDAA199000091GA1001+999999999GF100991001001999999001001MA1999999100961MD1010041+9999REMSYN060AAXX  16094 47095 32980 00702 11025 21105 30096 40294 50004;EQDQ01  00002PRCP99
0213470950999992000121612004+38070+127810FM-12+013599999V0209999C000012200019N0200001N1-00621-01051103001ADDAA199000091GA1001+999999999GF100991001001999999001001IA1149IA2999-00409MA1999999101001MD1810041+9999REMSYN082AAXX  16124 47095 32970 00000 11062 21105 30100 40300 58004 333 34104 44/// 55085;EQDQ01  00002PRCP99
0179470950999992000121615004+38070+127810FM-12+013599999V0203601N000512200019N0200001N1-00771-01021103011ADDAA199000091GF101991011051008001001001MA1999999101001MD1110011+9999REMSYN066AAXX  16154 47095 32570 13601 11077 21102 30100 40301 51000 81500;EQDQ01+000002APC3  Q02  00002PRCP99
0173470950999992000121618004+38070+127810FM-12+013599999V0200201N000512200019N0200001N1-00911-01131103041ADDAA199000091GA1001+999999999GF100991001001999999001001MA1999999101011MD1310011+9999REMSYN060AAXX  16184 47095 32970 00201 11091 21113 30101 40304 53001;EQDQ01  00002PRCP99
0173470950999992000121621004+38070+127810FM-12+013599999V0209999C000012200019N0200001N1-00991-01131103041ADDAA199000091GA1001+999999999GF100991001001999999001001MA1999999101011MD1010001+9999REMSYN060AAXX  16214 47095 32970 00000 11099 21113 30101 40304 50000;EQDQ01  00002PRCP99
0216470950999992000121700004+38070+127810FM-12+013599999V0203201N001012200019N0240001N1-00891-01051103101ADDAA199000091GF103991001001999999001021IA1149IA2999-00609KA1120N-01021MA1999999101071MD1010061+9999REMSYN088AAXX  17004 47095 32974 33202 11089 21105 30107 40310 50006 80002 333 21102 34106 44///;EQDQ01  00002PRCP99
0163470950999992000121703004+38070+127810FM-12+013599999V0200501N000519999999N0220001N1-00281-01081102931ADDAA199000091GF107991001001999999001071MA1999999100951MD1510121+9999REMSYN066AAXX  17034 47095 32972 70501 11028 21108 30095 40293 55012 80007;EQDQ01  00002PRCP99
0163470950999992000121706004+38070+127810FM-12+013599999V0209999C000019999999N0200001N1+00161-01351102721ADDAA199000091GF108991001001999999001071MA1999999100781MD1810171+9999REMSYN066AAXX  17064 47095 32970 80000 10016 21135 30078 40272 58017 80007;EQDQ01  00002PRCP99
0163470950999992000121709004+38070+127810FM-12+013599999V0200201N001012200019N0250001N1-00181-00701102771ADDAA199000091GF103991001001999999001011MA1999999100811MD1810031+9999REMSYN066AAXX  17094 47095 32975 30202 11018 21070 30081 40277 58003 80001;EQDQ01  00002PRCP99
0226470950999992000121712004+38070+127810FM-12+013599999V0200201N001512200019N0200001N1-00451-00691102791ADDAA199000091GA1001+999999999GF100991001001999999001001IA1019IA2999-00309KA1120M+00191MA1999999100811MD1510001+9999REMSYN082AAXX  17124 47095 32970 00203 11045 21069 30081 40279 55000 333 10019 30103 55017;EQDQ01  00002PRCP99
0173470950999992000121715004+38070+127810FM-12+013599999V0209999C000012200019N0200001N1-00611-00781102671ADDAA199000091GA1001+999999999GF100991001001999999001001MA1999999100671MD1710141+9999REMSYN060AAXX  17154 47095 32970 00000 11061 21078 30067 40267 57014;EQDQ01  00002PRCP99
0163470950999992000121718004+38070+127810FM-12+013599999V0201601N001012200019N0200001N1-00701-00811102671ADDAA199000091GF103991031001999999031001MA1999999100661MD1510011+9999REMSYN066AAXX  17184 47095 32970 31602 11070 21081 30066 40267 55001 83030;EQDQ01  00002PRCP99
0173470950999992000121721004+38070+127810FM-12+013599999V0209999C000012200019N0200001N1-00811-00921102541ADDAA199000091GA1001+999999999GF100991001001999999001001MA1999999100531MD1810131+9999REMSYN060AAXX  17214 47095 32970 00000 11081 21092 30053 40254 58013;EQDQ01  00002PRCP99
0172470950999992000121800004+38070+127810FM-12+013599999V0202001N000519999999N9999999N1-00561-00711102511ADDAA199000091IA2999-00209KA1120N-00811MA1999999100521MD1510011+9999REMSYN076AAXX  18004 47095 3//// /2001 11056 21071 30052 40251 55001 333 21081 3/102;EQDQ01  00002PRCP99
0163470950999992000121803004+38070+127810FM-12+013599999V0209999C000010360019N0200001N1+00171-00701102141ADDAA199000091GF108991021051012501021999MA1999999100221MD1610301+9999REMSYN066AAXX  18034 47095 32670 80000 10017 21070 30022 40214 56030 8252/;EQDQ01  00002PRCP99
0163470950999992000121806004+38070+127810FM-12+013599999V0203401N001019999999N0200001N1+00331-00431101831ADDAA199000091GF108991021051999999021999MA1999999099921MD1710301+9999REMSYN066AAXX  18064 47095 32970 83402 10033 21043 39992 40183 57030 8252/;EQDQ01  00002PRCP99
0163470950999992000121809004+38070+127810FM-12+013599999V0203601N001010360019N0180001N1+00191-00321101811ADDAA199000091GF108991031051008001021999MA1999999099891MD1310031+9999REMSYN066AAXX  18094 47095 32568 83602 10019 21032 39989 40181 53003 8352/;EQDQ01  00002PRCP99
0209470950999992000121812004+38070+127810FM-12+013599999V0203601N001010075019N0120001N1+00111-00161101721ADDAA112000791GF107991051051008001021001IA1019IA2999+00009KA1120M+00371MA1999999099801MD1710091+9999REMSYN100AAXX  18124 47095 11562 73602 10011 21016 39980 40172 57009 69902 85520 333 10037 30000 55011 70000;
0161470950999992000121815004+38070+127810FM-12+013599999V0201401N000510075019N0070001N1+00181+00051101831ADDAY161031AY221031GF108991061071008001021999MA1999999099911MD1210111+9999MW1611REMSYN072AAXX  18154 47095 41557 81401 10018 20005 39991 40183 52011 76162 8672/;
0161470950999992000121818004+38070+127810FM-12+013599999V0202301N002110360019N0080001N1+00271-00031101951ADDAY121061AY221061GF108991041051008001021999MA1999999100041MD1110131+9999MW1101REMSYN072AAXX  18184 47095 42558 82304 10027 21003 30004 40195 51013 71022 8452/;
0144470950999992000121821004+38070+127810FM-12+013599999V0202301N004612200019N0100001N1+00061-00191102231ADDAA199000021GF101991011051012501001001MA1999999100291MD1210251+9999REMSYN066AAXX  18214 47095 32660 12309 10006 21019 30029 40223 52025 81500;
0209470950999992000121900004+38070+127810FM-12+013599999V0203401N001510120019N0120001N1-00121-00441102681ADDAA112002091GF105991051051012501001001IA1289IA2999+00009KA1120N-00181MA1999999100721MD1210431+9999REMSYN100AAXX  19004 47095 32662 53403 11012 21044 30072 40268 52043 60022 85500 333 21018 3/000 44/// 70019;
0144470950999992000121903004+38070+127810FM-12+013599999V0202301N002610360019N0110001N1-00031-00451102811ADDAA199000021GF105991031051012501031001MA1999999100851MD1310131+9999REMSYN066AAXX  19034 47095 32661 52305 11003 21045 30085 40281 53013 83530;
0163470950999992000121906004+38070+127810FM-12+013599999V0203401N003619999999N0120001N1+00031-00501102591ADDAA199000091GF105991001001999999001021MA1999999100651MD1710201+9999REMSYN066AAXX  19064 47095 32962 53407 10003 21050 30065 40259 57020 80002;EQDQ01  00002PRCP99
0191470950999992000121909004+38070+127810FM-12+013599999V0203201N001510360019N0080001N1-00061-00421102661ADDAA199000091AY121031AY221031GF108991031051012501021999MA1999999100711MD1510061+9999MW1101REMSYN072AAXX  19094 47095 32658 83203 11006 21042 30071 40266 55006 71022 8352/;EQDQ01  00002PRCP99
0237470950999992000121912004+38070+127810FM-12+013599999V0200701N000519999999N0060001N1-00131-00311102801ADDAA124001891AY121061AY221061GF106991021001999999031021IA1289IA2999+00009KA1120M+00301MA1999999100841MD1810131+9999MW1101REMSYN106AAXX  19124 47095 32956 60701 11013 21031 30084 40280 58013 71022 82032 333 10030 3/100 44/// 55038 70019;
0191470950999992000121915004+38070+127810FM-12+013599999V0202901N001010360019N0050001N1-00171-00301102841ADDAA199000091AY121031AY221031GF108991021051012501021999MA1999999100881MD1510041+9999MW1101REMSYN072AAXX  19154 47095 31650 82902 11017 21030 30088 40284 55004 71022 8252/;EQDQ01  00002PRCP99
0191470950999992000121918004+38070+127810FM-12+013599999V0201101N000519999999N0030001N1-00291-00371102561ADDAA199000091AY121061AY221061GF106991021001999999031021MA1999999100591MD1810291+9999MW1101REMSYN072AAXX  19184 47095 31930 61101 11029 21037 30059 40256 58029 71022 82032;EQDQ01  00002PRCP99
0191470950999992000121921004+38070+127810FM-12+013599999V0209999C000019999999N0030001N1-00371-00431102441ADDAA199000091AY121031AY221031GF108991031001999999031021MA1999999100461MD1810131+9999MW1101REMSYN072AAXX  19214 47095 32930 80000 11037 21043 30046 40244 58013 71022 83032;EQDQ01  00002PRCP99
0238470950999992000122000004+38070+127810FM-12+013599999V0209999C000019999999N0015001N1-00281-00341102351ADDAA199000091AY121061AY221061GF108991081001999999021999IA1099IA2999-00109KA1120N-00381MA1999999100391MD1810071+9999MW1101REMSYN088AAXX  20004 47095 31915 80000 11028 21034 30039 40235 58007 71022 8802/ 333 21038 31101;EQDQ01  00002PRCP99
0161470950999992000122003004+38070+127810FM-12+013599999V0201601N001010075019N0015001N1-00071-00281102221ADDAY121031AY211031GF108991051071008001021999MA1999999100281MD1510111+9999MW1701REMSYN072AAXX  20034 47095 41515 81602 11007 21028 30028 40222 55011 77021 8572/;
0172470950999992000122006004+38070+127810FM-12+013599999V0202301N003610075019N0080001N1+00051-00281102021ADDAA199000021AY121061AY221061GF107991051051008001011001MA1999999100081MD1710201+9999MW1101REMSYN072AAXX  20064 47095 31558 72307 10005 21028 30008 40202 57020 71022 85510;
0161470950999992000122009004+38070+127810FM-12+013599999V0202001N002610075019N0030001N1-00011-00191102051ADDAY171031AY221031GF108991051051008001021999MA1999999100111MD1010031+9999MW1701REMSYN072AAXX  20094 47095 41530 82005 11001 21019 30011 40205 50003 77072 8552/;
0203470950999992000122012004+38070+127810FM-12+013599999V0202301N003112200019N0100001N1+00001-00241102101ADDAA124000391GF103991031051012501001001IA1289IA2999+00009KA1120M+00071MA1999999100161MD1210051+9999REMSYN094AAXX  20124 47095 32660 32306 10000 21024 30016 40210 52005 83500 333 10007 3/000 44/// 70002;
0144470950999992000122015004+38070+127810FM-12+013599999V0202001N001012200019N0100001N1-00201-00551102181ADDAA199000021GF102991021051012501001001MA1999999100231MD1210071+9999REMSYN066AAXX  20154 47095 32660 22002 11020 21055 30023 40218 52007 82500;
0154470950999992000122018004+38070+127810FM-12+013599999V0201801N000512200019N0110001N1-00471-00571102401ADDAA199000021GA1001+999999999GF100991001001999999001001MA1999999100421MD1210191+9999REMSYN060AAXX  20184 47095 32961 01801 11047 21057 30042 40240 52019;
0173470950999992000122021004+38070+127810FM-12+013599999V0209999C000012200019N0120001N1-00701-00801102421ADDAA199000021GA1001+999999999GF100991001001999999001001MA1999999100421MD1810021+9999REMSYN060AAXX  20214 47095 32962 00000 11070 21080 30042 40242 58000;EQDQ01+000002APC3  
0213470950999992000122100004+38070+127810FM-12+013599999V0209999C000012200019N0160001N1-00661-00741102451ADDAA124000391GA1001+999999999GF100991001001999999001001IA1289IA2999-00409KA1120N-00821MA1999999100461MD1210041+9999REMSYN088AAXX  21004 47095 32966 00000 11066 21074 30046 40245 52004 333 21082 3/104 44/// 70002;
0173470950999992000122103004+38070+127810FM-12+013599999V0202001N003612200019N0180001N1+00011-00871102351ADDAA199000091GA1001+999999999GF100991001001999999001001MA1999999100411MD1510051+9999REMSYN060AAXX  21034 47095 32968 02007 10001 21087 30041 40235 55005;EQDQ01  00002PRCP99
0173470950999992000122106004+38070+127810FM-12+013599999V0202001N001512200019N0220001N1+00271-01071102141ADDAA199000091GA1001+999999999GF100991001001999999001001MA1999999100221MD1710191+9999REMSYN060AAXX  21064 47095 32972 02003 10027 21107 30022 40214 57019;EQDQ01  00002PRCP99
0163470950999992000122109004+38070+127810FM-12+013599999V0209999C000010360019N0180001N1-00031-00681102211ADDAA199000091GF105991021051012501031001MA1999999100261MD1310041+9999REMSYN066AAXX  21094 47095 32668 50000 11003 21068 30026 40221 53004 82530;EQDQ01  00002PRCP99
0216470950999992000122112004+38070+127810FM-12+013599999V0209999C000010120019N0180001N1+00001-00571102181ADDAA199000091GF107991071051012501001001IA1019IA2999+00009KA1120M+00301MA1999999100241MD1310021+9999REMSYN088AAXX  21124 47095 32668 70000 10000 21057 30024 40218 53002 87500 333 10030 30000 55061;EQDQ01  00002PRCP99
0163470950999992000122115004+38070+127810FM-12+013599999V0202301N003110120019N0180001N1+00121-00631102071ADDAA199000091GF107991071051012501001001MA1999999100141MD1710101+9999REMSYN066AAXX  21154 47095 32668 72306 10012 21063 30014 40207 57010 87500;EQDQ01  00002PRCP99
0163470950999992000122118004+38070+127810FM-12+013599999V0202001N003110120019N0180001N1+00181-00621101961ADDAA199000091GF106991061051012501001001MA1999999100041MD1710101+9999REMSYN066AAXX  21184 47095 32668 62006 10018 21062 30004 40196 57010 86500;EQDQ01  00002PRCP99
0131470950999992000122121004+38070+127810FM-12+013599999V0202301N003119999999N9999999N1+00181-00561101881ADDAA199000091MA1999999099961MD1810081+9999REMSYN060AAXX  21214 47095 3//// /2306 10018 21056 39996 40188 58008;EQDQ01  00002PRCP99
0210470950999992000122200004+38070+127810FM-12+013599999V0202001N003110120019N0200001N1+00251-00471101811ADDAA199000091GF106991061051012501001001IA1019IA2999+00009KA1120N+00021MA1999999099901MD1810061+9999REMSYN082AAXX  22004 47095 32670 62006 10025 21047 39990 40181 58006 86500 333 20002 30000;EQDQ01  00002PRCP99
0161470950999992000122206004+38070+127810FM-12+013599999V0202001N001510075019N0070001N1+00331+00121101581ADDAY161061AY221061GF108991051071008001021999MA1999999099671MD1710131+9999MW1611REMSYN072AAXX  22064 47095 41557 82003 10033 20012 39967 40158 57013 76162 8572/;
0161470950999992000122209004+38070+127810FM-12+013599999V0203401N000510075019N0030001N1+00181+00101101581ADDAY161031AY261031GF108991051071008001021999MA1999999099661MD1310011+9999MW1601REMSYN072AAXX  22094 47095 41530 83401 10018 20010 39966 40158 53001 76066 8572/;
0237470950999992000122212004+38070+127810FM-12+013599999V0202001N001510075019N0050001N1+00381+00341101531ADDAA112003091AY161061AY221061GF108991051051008001021999IA1099IA2999+00109KA1120M+00491MA1999999099631MD1510031+9999MW1101REMSYN106AAXX  22124 47095 11550 82003 10038 20034 39963 40153 55003 60032 71062 8552/ 333 10049 31001 55002 70030;
0161470950999992000122215004+38070+127810FM-12+013599999V0201801N002110075019N0050001N1+00441+00261101401ADDAY161031AY221031GF108991051071008001021999MA1999999099511MD1710121+9999MW1601REMSYN072AAXX  22154 47095 41550 81804 10044 20026 39951 40140 57012 76062 8572/;
0161470950999992000122218004+38070+127810FM-12+013599999V0202701N001510075019N0060001N1+00231+00121101261ADDAY161061AY261061GF108991051071008001021999MA1999999099351MD1710161+9999MW1611REMSYN072AAXX  22184 47095 41556 82703 10023 20012 39935 40126 57016 76166 8572/;
0161470950999992000122221004+38070+127810FM-12+013599999V0203601N000510075019N0030001N1+00091+00041101071ADDAY161031AY261031GF108991051071008001021999MA1999999099161MD1710191+9999MW1601REMSYN072AAXX  22214 47095 41530 83601 10009 20004 39916 40107 57019 76066 8572/;
0231470950999992000122300004+38070+127810FM-12+013599999V0202501N001010075019N0030001N1+00121+00081101081ADDAA112007191AY161061AY261061GF108991051071008001021999IA1099IA2999+00209KA1120N+00081MA1999999099171MD1110011+9999MW1601REMSYN100AAXX  23004 47095 11530 82502 10012 20008 39917 40108 51001 60072 76066 8572/ 333 20008 31002 70096;
0172470950999992000122303004+38070+127810FM-12+013599999V0202701N004110075019N0050001N1+00201-00321101291ADDAA199000021AY121031AY221031GF106991061051008001001001MA1999999099381MD1210211+9999MW1101REMSYN072AAXX  23034 47095 31550 62708 10020 21032 39938 40129 52021 71022 86500;
0144470950999992000122306004+38070+127810FM-12+013599999V0202901N004110075019N0100001N1+00251-00571101371ADDAA199000021GF106991061051008001001001MA1999999099461MD1010081+9999REMSYN066AAXX  23064 47095 32560 62908 10025 21057 39946 40137 50008 86500;
0154470950999992000122309004+38070+127810FM-12+013599999V0202301N001512200019N0150001N1+00021-00781101661ADDAA199000021GA1001+999999999GF100991001001999999001001MA1999999099731MD1210271+9999REMSYN060AAXX  23094 47095 32965 02303 10002 21078 39973 40166 52027;
0174470950999992000122312004+38070+127810FM-12+013599999V0202501N001512200019N0150001N1-00091-01281102001ADDAA124006691GA1001+999999999GF100991001001999999001001IA1289IA2999-00209MA1999999100061REMSYN076AAXX  23124 47095 32965 02503 11009 21128 30006 40200 333 3/102 44/// 70066;
0173470950999992000122315004+38070+127810FM-12+013599999V0203601N000512200019N0150001N1-00441-00831102081ADDAA199000091GA1001+999999999GF100991001001999999001001MA1999999100101MD1310041+9999REMSYN060AAXX  23154 47095 32965 03601 11044 21083 30010 40208 53004;EQDQ01  00002PRCP99
0163470950999992000122318004+38070+127810FM-12+013599999V0202501N001010120019N0150001N1-00391-00651102101ADDAA199000091GF106991061051012501001001MA1999999100131MD1510031+9999REMSYN066AAXX  23184 47095 32665 62502 11039 21065 30013 40210 55003 86500;EQDQ01  00002PRCP99
0163470950999992000122321004+38070+127810FM-12+013599999V0202501N002612200019N0150001N1-00371-00801102111ADDAA199000091GF102991021051012501001001MA1999999100141MD1010011+9999REMSYN066AAXX  23214 47095 32665 22505 11037 21080 30014 40211 50001 82500;EQDQ01  00002PRCP99
0216470950999992000122400004+38070+127810FM-12+013599999V0202301N001510360019N0180001N1-00341-00741102201ADDAA199000091GF107991011051012501031021IA1289IA2999-00209KA1120N-00631MA1999999100231MD1210091+9999REMSYN088AAXX  24004 47095 32668 72303 11034 21074 30023 40220 52009 81532 333 21063 3/102 44///;EQDQ01  00002PRCP99
0163470950999992000122403004+38070+127810FM-12+013599999V0202301N004112200019N0250001N1-00031-01231102151ADDAA199000091GF103991001001999999001011MA1999999100211MD1310021+9999REMSYN066AAXX  24034 47095 32975 32308 11003 21123 30021 40215 53002 80001;EQDQ01  00002PRCP99
0163470950999992000122406004+38070+127810FM-12+013599999V0202501N003619999999N0240001N1+00051-01441102021ADDAA199000091GF106991001001999999001021MA1999999100091MD1710121+9999REMSYN066AAXX  24064 47095 32974 62507 10005 21144 30009 40202 57012 80002;EQDQ01  00002PRCP99
0163470950999992000122409004+38070+127810FM-12+013599999V0202001N001019999999N0200001N1-00081-01131101941ADDAA199000091GF107991001001999999001021MA1999999099991MD1710101+9999REMSYN066AAXX  24094 47095 32970 72002 11008 21113 39999 40194 57010 80002;EQDQ01  00002PRCP99
0219470950999992000122412004+38070+127810FM-12+013599999V0200201N001010075019N0080001N1-00291-00551101931ADDAA112000791AY171061AY221061GF108991051051008001021999KA1120M+00061MA1999999099981MD1310011+9999MW1701REMSYN106AAXX  24124 47095 11558 80202 11029 21055 39998 40193 53001 69902 77072 8552/ 333 10006 46001 55051 70000;
0161470950999992000122415004+38070+127810FM-12+013599999V0200201N001010075019N0030001N1-00361-00451101821ADDAY171031AY271031GF108991061071008001021999MA1999999099861MD1710121+9999MW1711REMSYN072AAXX  24154 47095 41530 80202 11036 21045 39986 40182 57012 77177 8672/;
0161470950999992000122418004+38070+127810FM-12+013599999V0202901N000510360019N0080001N1-00411-00491101791ADDAY171061AY271061GF108991041051008001021999MA1999999099831MD1810031+9999MW1411REMSYN072AAXX  24184 47095 41558 82901 11041 21049 39983 40179 58003 74177 8452/;
0144470950999992000122421004+38070+127810FM-12+013599999V0202501N002612200019N0150001N1-00871-01201102111ADDAA199000021GF101991011051012501001001MA1999999100101MD1210271+9999REMSYN066AAXX  24214 47095 32665 12505 11087 21120 30010 40211 52027 81500;
0165470950999992000122500004+38070+127810FM-12+013599999V0202501N004619999999N9999999N1-00851-01841102461ADDAA112002091IA2999-00109KA1120N-00971MA1999999100451MD1210351+9999REMSYN088AAXX  25004 47095 1//// /2509 11085 21184 30045 40246 52035 60022 333 21097 3/101 70019;
0154470950999992000122503004+38070+127810FM-12+013599999V0202501N004112200019N0280001N1-00661-01741102611ADDAA199000021GA1001+999999999GF100991001001999999001001MA1999999100611MD1310161+9999REMSYN060AAXX  25034 47095 32978 02508 11066 21174 30061 40261 53016;
0163470950999992000122506004+38070+127810FM-12+013599999V0202501N005112200019N0280001N1-00631-01941102671ADDAA199000091GF101991011051012501001001MA1999999100681MD1010071+9999REMSYN066AAXX  25064 47095 32678 12510 11063 21194 30068 40267 50007 81500;EQDQ01  00002PRCP99
0173470950999992000122509004+38070+127810FM-12+013599999V0202301N004612200019N0300001N1-00911-01731102891ADDAA199000091GA1001+999999999GF100991001001999999001001MA1999999100871MD1210191+9999REMSYN060AAXX  25094 47095 32980 02309 11091 21173 30087 40289 52019;EQDQ01  00002PRCP99
0223470950999992000122512004+38070+127810FM-12+013599999V0202001N001512200019N0200001N1-01131-01691103081ADDAA112000891AJ101029199999999GA1001+999999999GF100991001001999999001001IA1279IA2999-00209MA1999999101031MD1210161+9999REMSYN094AAXX  25124 47095 32970 02003 11113 21169 30103 40308 52016 69982 333 3/102 43102 55085 70030;
0173470950999992000122515004+38070+127810FM-12+013599999V0201601N000512200019N0200001N1-01351-01741103201ADDAA199000091GA1001+999999999GF100991001001999999001001MA1999999101131MD1210101+9999REMSYN060AAXX  25154 47095 32970 01601 11135 21174 30113 40320 52010;EQDQ01  00002PRCP99
0173470950999992000122518004+38070+127810FM-12+013599999V0200201N001012200019N0180001N1-01671-01861103341ADDAA199000091GA1001+999999999GF100991001001999999001001MA1999999101251MD1110121+9999REMSYN060AAXX  25184 47095 32968 00202 11167 21186 30125 40334 51012;EQDQ01  00002PRCP99
0173470950999992000122521004+38070+127810FM-12+013599999V0200201N001012200019N0200001N1-01761-02021103411ADDAA199000091GA1001+999999999GF100991001001999999001001MA1999999101311MD1010061+9999REMSYN060AAXX  25214 47095 32970 00202 11176 21202 30131 40341 50006;EQDQ01  00002PRCP99
0225470950999992000122600004+38070+127810FM-12+013599999V0209999C000012200019N0220001N1-01611-01821103591ADDAA199000091AJ100029199999999GA1001+999999999GF100991001001999999001001IA1279KA1120N-01821MA1999999101501MD1210191+9999REMSYN076AAXX  26004 47095 32972 00000 11161 21182 30150 40359 52019 333 21182 43002;EQDQ01  00002PRCP99
0173470950999992000122603004+38070+127810FM-12+013599999V0200501N000512200019N0280001N1-00771-02131103481ADDAA199000091GA1001+999999999GF100991001001999999001001MA1999999101461MD1310041+9999REMSYN060AAXX  26034 47095 32978 00501 11077 21213 30146 40348 53004;EQDQ01  00002PRCP99
0173470950999992000122606004+38070+127810FM-12+013599999V0202001N001012200019N0280001N1-00691-01891103331ADDAA199000091GA1001+999999999GF100991001001999999001001MA1999999101311MD1710151+9999REMSYN060AAXX  26064 47095 32978 02002 11069 21189 30131 40333 57015;EQDQ01  00002PRCP99
0173470950999992000122609004+38070+127810FM-12+013599999V0201601N001012200019N0250001N1-00961-01681103401ADDAA199000091GA1001+999999999GF100991001001999999001001MA1999999101361MD1210051+9999REMSYN060AAXX  26094 47095 32975 01602 11096 21168 30136 40340 52005;EQDQ01  00002PRCP99
0216470950999992000122612004+38070+127810FM-12+013599999V0209999C000012200019N0220001N1-01371-01661103531ADDAA199000091GF101991011051012501001001IA1279IA2999-00409KA1120M-00571MA1999999101461MD1210101+9999REMSYN088AAXX  26124 47095 32672 10000 11137 21166 30146 40353 52010 81500 333 11057 3/104 43///;EQDQ01  00002PRCP99
0173470950999992000122615004+38070+127810FM-12+013599999V0201801N000512200019N0220001N1-01451-01631103471ADDAA199000091GA1001+999999999GF100991001001999999001001MA1999999101401MD1610061+9999REMSYN060AAXX  26154 47095 32972 01801 11145 21163 30140 40347 56006;EQDQ01  00002PRCP99
0163470950999992000122618004+38070+127810FM-12+013599999V0209999C000012200019N0200001N1-01441-01601103491ADDAA199000091GF102991021051012501001001MA1999999101421MD1710021+9999REMSYN066AAXX  26184 47095 32670 20000 11144 21160 30142 40349 57002 82500;EQDQ01  00002PRCP99
0163470950999992000122621004+38070+127810FM-12+013599999V0209999C000010120019N0180001N1-01291-01481103421ADDAA199000091GF105991051051012501001001MA1999999101361MD1710061+9999REMSYN066AAXX  26214 47095 32668 52700 11129 21148 30136 40342 57006 85500;EQDQ01  00002PRCP99
0216470950999992000122700004+38070+127810FM-12+013599999V0203401N000512200019N0180001N1-01121-01441103441ADDAA199000091GF103991001001999999001021IA1279IA2999-00409KA1120N-01571MA1999999101391MD1210031+9999REMSYN088AAXX  27004 47095 32968 33401 11112 21144 30139 40344 52003 80002 333 21157 3/104 43///;EQDQ01  00002PRCP99
0172470950999992000122703004+38070+127810FM-12+013599999V0209999C000012200019N0220001N1-00361-01601103231ADDAA199000091GA1001+999999999GF100991001001999999001001MA1999999101251MD1610141+9999REMSYN059AAXX  27034 47095 32972 00000 11036 21160 30125 4032356014;EQDQ01  00002PRCP99
0131470950999992000122706004+38070+127810FM-12+013599999V0200701N000519999999N9999999N1-00101-01521102881ADDAA199000091MA1999999100921MD1710331+9999REMSYN060AAXX  27064 47095 3//// /0701 11010 21152 30092 40288 57033;EQDQ01  00002PRCP99
0161470950999992000122709004+38070+127810FM-12+013599999V0203401N004110360019N0050001N1-00421-00871102941ADDAY121031AY211031GF108991041051008001021999MA1999999100961MD1010041+9999MW1701REMSYN072AAXX  27094 47095 41550 83408 11042 21087 30096 40294 50004 77021 8452/;
0219470950999992000122712004+38070+127810FM-12+013599999V0202901N000510075019N0050001N1-00501-00641102921ADDAA112000391AY171061AY271061GF108991051071008001021999KA1120M-00091MA1999999100931MD1710031+9999MW1711REMSYN106AAXX  27124 47095 11550 82901 11050 21064 30093 40292 57003 69932 77177 8572/ 333 11009 47003 55075 70003;
0161470950999992000122715004+38070+127810FM-12+013599999V0202501N001010075019N0050001N1-00511-00601102901ADDAY171031AY271031GF108991051051008001021999MA1999999100911MD1510021+9999MW1701REMSYN072AAXX  27154 47095 41550 82502 11051 21060 30091 40290 55002 77077 8552/;
0161470950999992000122718004+38070+127810FM-12+013599999V0202301N000510360019N0030001N1-00491-00601102871ADDAY171061AY271061GF108991041051008001021999MA1999999100881MD1810031+9999MW1221REMSYN072AAXX  27184 47095 41530 82301 11049 21060 30088 40287 58003 72277 8452/;
0172470950999992000122721004+38070+127810FM-12+013599999V0209999C000010075019N0030001N1-00501-00601102921ADDAA199000021AY121031AY221031GF108991051051008001021999MA1999999100921MD1210041+9999MW1101REMSYN072AAXX  27214 47095 31530 80200 11050 21060 30092 40292 52004 71022 8552/;
0209470950999992000122800004+38070+127810FM-12+013599999V0203401N002110075019N0120001N1-00581-00881103081ADDAA112000891GF106991061051008001001001IA1239IA2999-00309KA1120N-00591MA1999999101081MD1210161+9999REMSYN100AAXX  28004 47095 32562 63404 11058 21088 30108 40308 52016 69982 86500 333 21059 3/103 47/// 70011;
0179470950999992000122803004+38070+127810FM-12+013599999V0200701N000512200019N0170001N1-00011-00981103031ADDAA199000021GF101991011051012501001001MA1999999101081MD1710051+9999REMSYN066AAXX  28034 47095 32667 10701 11001 21098 30108 40303 53000 81500;EQDQ01+000032APCTENQ02+000002APC3  
0154470950999992000122806004+38070+127810FM-12+013599999V0203401N001012200019N0180001N1+00051-01011102901ADDAA199000021GA1001+999999999GF100991001001999999001001MA1999999100961MD1710121+9999REMSYN060AAXX  28064 47095 32968 03402 10005 21101 30096 40290 57012;
0173470950999992000122809004+38070+127810FM-12+013599999V0209999C000012200019N0250001N1-00501-00861103011ADDAA199000091GA1001+999999999GF100991001001999999001001MA1999999101011MD1110051+9999REMSYN060AAXX  28094 47095 32975 00000 11050 21086 30101 40301 51005;EQDQ01  00002PRCP99
0219470950999992000122812004+38070+127810FM-12+013599999V0203601N000512200019N0150001N1-00981-01111103131ADDAA124000891GA1001+999999999GF100991001001999999001001IA1289IA2999-00409KA1120M+00141MA1999999101101MD1210091+9999REMSYN094AAXX  28124 47095 32965 03601 11098 21111 30110 40313 52009 333 10014 3/104 44/// 55078 70008;
0173470950999992000122815004+38070+127810FM-12+013599999V0209999C000012200019N0110001N1-01201-01311103191ADDAA199000091GA1001+999999999GF100991001001999999001001MA1999999101141MD1110041+9999REMSYN060AAXX  28154 47095 32961 00000 11120 21131 30114 40319 51004;EQDQ01  00002PRCP99
0163470950999992000122818004+38070+127810FM-12+013599999V0209999C000012200019N0110001N1-01341-01451103161ADDAA199000091GF102991021001999999031001MA1999999101101MD1610041+9999REMSYN066AAXX  28184 47095 32961 20000 11134 21145 30110 40316 56004 82030;EQDQ01  00002PRCP99
0173470950999992000122821004+38070+127810FM-12+013599999V0200201N000512200019N0110001N1-01571-01721103141ADDAA199000091GA1001+999999999GF100991001001999999001001MA1999999101061MD1810041+9999REMSYN060AAXX  28214 47095 32961 00201 11157 21172 30106 40314 58004;EQDQ01  00002PRCP99
0225470950999992000122900004+38070+127810FM-12+013599999V0203401N001012200019N0100001N1-01441-01591103161ADDAA199000091AJ100039199999999GA1001+999999999GF100991001001999999001001IA1279KA1120N-01601MA1999999101091MD1310031+9999REMSYN076AAXX  29004 47095 32960 03402 11144 21159 30109 40316 53003 333 21160 43003;EQDQ01  00002PRCP99
0173470950999992000122903004+38070+127810FM-12+013599999V0202001N000512200019N0100001N1-00421-00911102991ADDAA199000091GA1001+999999999GF100991001001999999001001MA1999999101001MD1510091+9999REMSYN060AAXX  29034 47095 32960 02001 11042 21091 30100 40299 55009;EQDQ01  00002PRCP99
0173470950999992000122906004+38070+127810FM-12+013599999V0209999C000012200019N0100001N1+00171-00881102781ADDAA199000091GA1001+999999999GF100991001001999999001001MA1999999100841MD1710161+9999REMSYN060AAXX  29064 47095 32960 00000 10017 21088 30084 40278 57016;EQDQ01  00002PRCP99
0173470950999992000122909004+38070+127810FM-12+013599999V0209999C000012200019N0100001N1-00411-00871102801ADDAA199000091GA1001+999999999GF100991001001999999001001MA1999999100821MD1810021+9999REMSYN060AAXX  29094 47095 32960 00000 11041 21087 30082 40280 58002;EQDQ01  00002PRCP99
0216470950999992000122912004+38070+127810FM-12+013599999V0200501N001512200019N0100001N1-00741-00931102761ADDAA199000091GF103991031051012501001001IA1309IA2999-00409KA1120M+00181MA1999999100751MD1310071+9999REMSYN088AAXX  29124 47095 32660 30503 11074 21093 30075 40276 53007 83500 333 10018 3/104 42///;EQDQ01  00002PRCP99
0163470950999992000122915004+38070+127810FM-12+013599999V0209999C000012200019N0100001N1-00971-01101102731ADDAA199000091GF102991021051012501001001MA1999999100701MD1710051+9999REMSYN066AAXX  29154 47095 32660 22000 11097 21110 30070 40273 57005 82500;EQDQ01  00002PRCP99
0163470950999992000122918004+38070+127810FM-12+013599999V0209999C000010120019N0100001N1-00791-00931102631ADDAA199000091GF106991061051012501001001MA1999999100621MD1610081+9999REMSYN066AAXX  29184 47095 32660 60000 11079 21093 30062 40263 56008 86500;EQDQ01  00002PRCP99
0163470950999992000122921004+38070+127810FM-12+013599999V0209999C000010120019N0110001N1-00801-00961102471ADDAA199000091GF106991061051012501001001MA1999999100461MD1710161+9999REMSYN066AAXX  29214 47095 32661 60000 11080 21096 30046 40247 57016 86500;EQDQ01  00002PRCP99
0216470950999992000123000004+38070+127810FM-12+013599999V0209999C000019999999N0200001N1-00831-00951102361ADDAA199000091GF106991061001999999031001IA1309IA2999-00409KA1120N-01031MA1999999100351MD1710111+9999REMSYN088AAXX  30004 47095 32970 60000 11083 21095 30035 40236 57011 86030 333 21103 3/104 42///;EQDQ01  00002PRCP99
0163470950999992000123003004+38070+127810FM-12+013599999V0202701N000510360019N0200001N1-00151-00681102171ADDAA199000091GF108991021051012501021999MA1999999100221MD1710131+9999REMSYN066AAXX  30034 47095 32670 82701 11015 21068 30022 40217 57013 8252/;EQDQ01  00002PRCP99
0163470950999992000123006004+38070+127810FM-12+013599999V0200201N000510360019N0130001N1+00151-00671101811ADDAA199000091GF108991041051012501031001MA1999999099881MD1710341+9999REMSYN066AAXX  30064 47095 32663 80201 10015 21067 39988 40181 57034 84530;EQDQ01  00002PRCP99
0163470950999992000123009004+38070+127810FM-12+013599999V0200201N001510360019N0100001N1+00061-00501101811ADDAA199000091GF108991041051008001021999MA1999999099881MD1010001+9999REMSYN066AAXX  30094 47095 32560 80203 10006 21050 39988 40181 50000 8452/;EQDQ01  00002PRCP99
0219470950999992000123012004+38070+127810FM-12+013599999V0202301N001010075019N0080001N1+00021-00151101751ADDAA112000191AY171061AY201061GF108991051051008001021999KA1120M+00151MA1999999099821MD1510061+9999MW1221REMSYN106AAXX  30124 47095 11558 82302 10002 21015 39982 40175 55006 69922 72270 8552/ 333 10015 44002 55011 70002;
0172470950999992000123015004+38070+127810FM-12+013599999V0203601N001510360019N0060001N1+00101-00191101811ADDAA199000021AY121031AY221031GF108991041051008001021999MA1999999099881MD1110061+9999MW1101REMSYN072AAXX  30154 47095 31556 83603 10010 21019 39988 40181 51006 71022 8452/;
0154470950999992000123018004+38070+127810FM-12+013599999V0202701N004112200019N0180001N1-00281-01321101891ADDAA199000021GA1001+999999999GF100991001001999999001001MA1999999099931MD1210051+9999REMSYN060AAXX  30184 47095 32968 02708 11028 21132 39993 40189 52005;
0154470950999992000123021004+38070+127810FM-12+013599999V0209999C000012200019N0180001N1-00901-01451102041ADDAA199000021GA1001+999999999GF100991001001999999001001MA1999999100041MD1010111+9999REMSYN060AAXX  30214 47095 32968 00000 11090 21145 30004 40204 50011;
0219470950999992000123100004+38070+127810FM-12+013599999V0201801N000512200019N0150001N1-01001-01461102211ADDAA112000791GA1001+999999999GF100991001001999999001001IA1309IA2999-00709KA1120N-01111MA1999999100191MD1210151+9999REMSYN094AAXX  31004 47095 32965 01801 11100 21146 30019 40221 52015 69902 333 21111 3/107 42/// 70002;
0173470950999992000123103004+38070+127810FM-12+013599999V0202701N001012200019N0150001N1-00561-01541102191ADDAA199000091GA1001+999999999GF100991001001999999001001MA1999999100211MD1310021+9999REMSYN060AAXX  31034 47095 32965 02702 11056 21154 30021 40219 53002;EQDQ01  00002PRCP99
0173470950999992000123106004+38070+127810FM-12+013599999V0202701N002112200019N0120001N1-00511-01601102121ADDAA199000091GA1001+999999999GF100991001001999999001001MA1999999100141MD1810071+9999REMSYN060AAXX  31064 47095 32962 02704 11051 21160 30014 40212 58007;EQDQ01  00002PRCP99
0173470950999992000123109004+38070+127810FM-12+013599999V0203201N001012200019N0150001N1-00811-01521102241ADDAA199000091GA1001+999999999GF100991001001999999001001MA1999999100241MD1210101+9999REMSYN060AAXX  31094 47095 32965 03202 11081 21152 30024 40224 52010;EQDQ01  00002PRCP99
0207470950999992000123112004+38070+127810FM-12+013599999V0201101N000512200019N0120001N1-01231-01531102301ADDAA199000091GA1001+999999999GF100991001001999999001001IA1309IA2999-00809MA1999999100261MD1310021+9999REMSYN076AAXX  31124 47095 32962 01101 11123 21153 30026 40230 53002 333 3/108 42///;EQDQ01  00002PRCP99
0153470950999992000123115004+38070+127810FM-12+013599999V0200501N000512200019N0120001N1-01501-01691102371ADDAA199000091GA1001+999999999GF100991001001999999001001MA1999999100311REMSYN054AAXX  31154 47095 32962 00501 11150 21169 30031 40237;EQDQ01  00002PRCP99
0153470950999992000123118004+38070+127810FM-12+013599999V0209999C000012200019N0120001N1-01591-01731102361ADDAA199000091GA1001+999999999GF100991001001999999001001MA1999999100301REMSYN054AAXX  31184 47095 32962 00000 11159 21173 30030 40236;EQDQ01  00002PRCP99
0173470950999992000123121004+38070+127810FM-12+013599999V0209999C000012200019N0120001N1-01661-01831102291ADDAA199000091GA1001+999999999GF100991001001999999001001MA1999999100221MD1510081+9999REMSYN060AAXX  31214 47095 32962 00000 11166 21183 30022 40229 55008;EQDQ01  00002PRCP99
