0170542590999992000010100004+42100+124950FM-12+023599999V0209999C000010120019N0070001N1-01231-01541103081ADDAA106000091GF108991081051012501999999MD1710051-0201MW1041REMSYN082AAXX  01001 54259 31657 80000 11123 21154 40308 57005 70400 885// 333 05209 92511;EQDQ01  00002PRCP06
0112542590999992000010103004+42100+124950FM-12+023599999V0209999C000010120019N0120001N1-00711-01231102861ADDGF108991081051012501999999MD1710191+9999REMSYN060AAXX  01031 54259 42662 80000 11071 21123 40286 57019 885//;
0165542590999992000010106004+42100+124950FM-12+023599999V0209999C000010120019N0120001N1-00151-01001102481ADDAA106000091GF108991081051012501999999KA1999N-01511MD1710351+9999REMSYN070AAXX  01061 54259 32662 80000 11015 21100 40248 57035 885// 333 21151;EQDQ01  00002PRCP06
0112542590999992000010109004+42100+124950FM-12+023599999V0200701N001010120019N0120001N1-00161+99999102341ADDGF108991081051012501999999MD1710131+9999REMSYN060AAXX  01091 54259 42662 80701 11016 21//7 40234 57013 885//;
0142542590999992000010112004+42100+124950FM-12+023599999V0209999C000010120019N0120001N1-00281-00811102121ADDAA106000091GF108991081051012501999999MD1710211+9999REMSYN060AAXX  01121 54259 32662 80000 11028 21081 40212 57021 885//;EQDQ01  00002PRCP06
0172542590999992000010118004+42100+124950FM-12+023599999V0209999C000010042019N0060001N1-00141-00231101441ADDAA106003091AY171061GF108991081001004501021999KA1999M+00121MD1710351+9999MW1711REMSYN082AAXX  01181 54259 11456 80000 11014 21023 40144 57035 60031 77170 8802/ 333 10012;
0161542590999992000010121004+42100+124950FM-12+023599999V0202901N004019999999N0070001N1-00181-00301101221ADDAA124005691AY171031AY271031GF108991081001999999021999MD1710221+9999MW1711REMSYN076AAXX  01211 54259 41957 82904 11018 21030 40122 57022 77177 8802/ 333 70055;
0179542590999992000010200004+42100+124950FM-12+023599999V0202901N003019999999N0060001N1-00811-01101101591ADDAA106004191AY171061AY271061GF108991081001999999021999MD1210321-1401MW1711REMSYN094AAXX  02001 54259 11956 82903 11081 21110 40159 52032 60041 77177 8802/ 333 06404 70068 92518;
0140542590999992000010203004+42100+124950FM-12+023599999V0202501N006010120019N0110001N1-01171-01511101971ADDAY171031AY271031GF106991061051012501001001MD1210361+9999MW1701REMSYN066AAXX  02031 54259 41661 62506 11117 21151 40197 52036 77077 86500;
0172542590999992000010206004+42100+124950FM-12+023599999V0202501N004010120019N0200001N1-01111-01701101991ADDAA106000791AY171061GF106991061051012501001001KA1999N-01181MD1210021+9999MW1001REMSYN082AAXX  02061 54259 11670 62504 11111 21170 40199 52002 69901 70070 86500 333 21118;
0124542590999992000010209004+42100+124950FM-12+023599999V0202501N003010120019N0150001N1-01431-01951102391ADDGF107991071051012501999999MD1210371+9999MW1701REMSYN066AAXX  02091 54259 41665 72503 11143 21195 40239 52037 77000 875//;
0149542590999992000010212004+42100+124950FM-12+023599999V0202201N002010120019N0150001N1-01631-01961102561ADDAA106000791AY171061GF107991071051012501999999MD1210111+9999MW1701REMSYN072AAXX  02121 54259 11665 72202 11163 21196 40256 52011 69901 77070 875//;
0172542590999992000010218004+42100+124950FM-12+023599999V0209999C000012200019N0120001N1-02281-02451102841ADDAA106000791AY171061GF102991001001999999001021KA1999M-00101MD1210061+9999MW1001REMSYN082AAXX  02181 54259 11962 20000 11228 21245 40284 52006 69901 70070 80002 333 11010;
0150542590999992000010221004+42100+124950FM-12+023599999V0202501N001012200019N0120001N1-02491-02671102921ADDAY111031AY231031GA1001+999999999GF100991001001999999001001MD1210041+9999MW1001REMSYN060AAXX  02211 54259 42962 02501 11249 21267 40292 52004 70013;
0176542590999992000010300004+42100+124950FM-12+023599999V0209999C000012200019N0050001N1-02611-02801103101ADDAA106000091GF101991001001999999001021MD1210161+1301MW1041REMSYN088AAXX  03001 54259 31950 10000 11261 21280 40310 52016 70400 80002 333 01368 79999 92518;EQDQ01  00002PRCP06
0124542590999992000010303004+42100+124950FM-12+023599999V0201601N001019999999N0080001N1-02151-02451103061ADDGF107991001001999999001021MD1710031+9999MW1041REMSYN066AAXX  03031 54259 41958 71601 11215 21245 40306 57003 70400 80002;
0165542590999992000010306004+42100+124950FM-12+023599999V0201801N001019999999N0120001N1-01601-02111102861ADDAA106000091GF107991001001999999001021KA1999N-02621MD1710181+9999REMSYN070AAXX  03061 54259 32962 71801 11160 21211 40286 57018 80002 333 21262;EQDQ01  00002PRCP06
0112542590999992000010309004+42100+124950FM-12+023599999V0209999C000012200019N0120001N1-01561-01961102961ADDGF101991001001999999001021MD1210081+9999REMSYN060AAXX  03091 54259 42962 10000 11156 21196 40296 52008 80002;
0152542590999992000010312004+42100+124950FM-12+023599999V0201101N001012200019N0120001N1-01791-02081103001ADDAA106000091GA1001+999999999GF100991001001999999001001MD1210021+9999REMSYN054AAXX  03121 54259 32962 01101 11179 21208 40300 52002;EQDQ01  00002PRCP06
0175542590999992000010318004+42100+124950FM-12+023599999V0209999C000012200019N0150001N1-02231-02461103041ADDAA106000091GA1001+999999999GF100991001001999999001001KA1999M-01411MD1210031+9999REMSYN064AAXX  03181 54259 32965 00000 11223 21246 40304 52003 333 11141;EQDQ01  00002PRCP06
0122542590999992000010321004+42100+124950FM-12+023599999V0209999C000012200019N0150001N1-02311-02541103031ADDGA1001+999999999GF100991001001999999001001MD1710021+9999REMSYN054AAXX  03211 54259 42965 00000 11231 21254 40303 57002;
0170542590999992000010400004+42100+124950FM-12+023599999V0201101N001010120019N0080001N1-02111-02371103061ADDAA106000091GF107991061051012501001021MD1210031+0001MW1041REMSYN082AAXX  04001 54259 31658 71101 11211 21237 40306 52003 70400 86502 333 00005 92518;EQDQ01  00002PRCP06
0132542590999992000010403004+42100+124950FM-12+023599999V0209999C000010120019N0070001N1-01561-01921103021ADDAY171031GF108991081051012501999999MD1710021+9999MW1701REMSYN066AAXX  04031 54259 41657 80000 11156 21192 40302 57002 77070 885//;
0172542590999992000010406004+42100+124950FM-12+023599999V0209999C000010120019N0120001N1-01011-01451102891ADDAA106000791AY171061GF108991081051012501999999KA1999N-02311MD1710101+9999MW1701REMSYN082AAXX  04061 54259 11662 80000 11101 21145 40289 57010 69901 77070 885// 333 21231;
0140542590999992000010409004+42100+124950FM-12+023599999V0209999C000010120019N0070001N1-00931-01141102911ADDAY171031AY271031GF108991081051012501999999MD1210021+9999MW1701REMSYN066AAXX  04091 54259 41657 80000 11093 21114 40291 52002 77077 885//;
0149542590999992000010412004+42100+124950FM-12+023599999V0200901N002010120019N0120001N1-01041-01321102961ADDAA106000791AY171061GF108991081051012501999999MD1210051+9999MW1001REMSYN072AAXX  04121 54259 11662 80902 11104 21132 40296 52005 69901 70070 885//;
0152542590999992000010418004+42100+124950FM-12+023599999V0200901N001010120019N0120001N1-01041-01241102841ADDAA106000191AY171061GF108991081051012501999999KA1999M-00911MW1701REMSYN076AAXX  04181 54259 11662 80901 11104 21124 40284 69911 77070 885// 333 11091;
0161542590999992000010421004+42100+124950FM-12+023599999V0200701N001010120019N0120001N1-01011-01211102841ADDAA124000591AY171031AY271031GF108991081051012501999999MD1410001+9999MW1701REMSYN076AAXX  04211 54259 41662 80701 11101 21121 40284 54000 77077 885// 333 70004;
0179542590999992000010500004+42100+124950FM-12+023599999V0200701N002010120019N0070001N1-00951-01171102831ADDAA106000591AY171061AY271061GF107991071051012501999999MD1710011-0101MW1701REMSYN094AAXX  05001 54259 11657 70702 11095 21117 40283 57001 69941 77077 875// 333 05112 70005 92521;
0142542590999992000010503004+42100+124950FM-12+023599999V0200701N001012200019N0100001N1-00771-01201102631ADDAY171031GA1001+999999999GF100991001001999999001001MD1710181+9999MW1001REMSYN060AAXX  05031 54259 41960 00701 11077 21120 40263 57018 70070;
0172542590999992000010506004+42100+124950FM-12+023599999V0200701N002010120019N0120001N1-00421-00921102351ADDAA106000791AY171061GF107991071051012501999999KA1999N-01091MD1710251+9999MW1001REMSYN082AAXX  05061 54259 11662 70702 11042 21092 40235 57025 69901 70070 875// 333 21109;
0132542590999992000010509004+42100+124950FM-12+023599999V0200701N003010120019N0080001N1-00561-00921102351ADDAY171031GF108991081051012501999999MD1710011+9999MW1701REMSYN066AAXX  05091 54259 41658 80703 11056 21092 40235 57001 77070 885//;
0149542590999992000010512004+42100+124950FM-12+023599999V0200701N002010120019N0080001N1-00721-00941102281ADDAA106000191AY171061GF108991081051012501999999MD1710071+9999MW1701REMSYN072AAXX  05121 54259 11658 80702 11072 21094 40228 57007 69911 77070 885//;
0157542590999992000010518004+42100+124950FM-12+023599999V0202501N005010120019N0060001N1-01241-01441102031ADDAA106002091AY171061AY271061GF108991081001012501021999MD1210011+9999MW1711REMSYN072AAXX  05181 54259 11656 82505 11124 21144 40203 52001 60021 77177 8802/;
0161542590999992000010521004+42100+124950FM-12+023599999V0202501N003010120019N0050001N1-01481-01671102031ADDAA124004191AY171031AY271031GF108991081001012501021999MD1710021+9999MW1711REMSYN076AAXX  05211 54259 41650 82503 11148 21167 40203 57002 77177 8802/ 333 70040;
0126542590999992000010603004+42100+124950FM-12+023599999V0202201N005019999999N0100001N1-01671-02041102241ADDAY171031GF107991999999012501999999MD1210031+9999MW1701REMSYN060AAXX  06031 54259 41660 72205 11167 21204 40224 52003 77070;
0172542590999992000010606004+42100+124950FM-12+023599999V0203201N002010120019N0150001N1-01571-02051102101ADDAA106999999AY171061GF106991061051012501001001KA1999N-01681MD1710161+9999MW1221REMSYN082AAXX  06061 54259 11665 63202 11157 21205 40210 57016 66/01 72270 86500 333 21168;
0112542590999992000010609004+42100+124950FM-12+023599999V0202901N002012200019N0200001N1-01851-02531102281ADDGF102991001001999999001021MD1210141+9999REMSYN060AAXX  06091 54259 42970 22902 11185 21253 40228 52014 80002;
0133542590999992000010612004+42100+124950FM-12+023599999V0202501N005012200019N0150001N1-02111-02441102351ADDAA106000021GA1001+999999999GF100991001001999999001001MD1210041+9999REMSYN054AAXX  06121 54259 32965 02505 11211 21244 40235 52004;
0152542590999992000010618004+42100+124950FM-12+023599999V0202501N003012200019N0150001N1-02141-02571102321ADDAA106000091GA1001+999999999GF100991001001999999001001MD1210031+9999REMSYN054AAXX  06181 54259 32965 02503 11214 21257 40232 52003;EQDQ01  00002PRCP06
0143542590999992000010621004+42100+124950FM-12+023599999V0202501N006012200019N0150001N1-02151-02691102351ADDAA124000891GA1001+999999999GF100991001001999999001001MD1210011+9999REMSYN064AAXX  06211 54259 42965 02506 11215 21269 40235 52001 333 70008;
0164542590999992000010700004+42100+124950FM-12+023599999V0202501N004019999999N0120001N1-02131-02721102411ADDAA106000091GF106991001001999999001021MD1210041+0101REMSYN082AAXX  07001 54259 32962 62504 11213 21272 40241 52004 80002 333 00155 79999 92522;EQDQ01  00002PRCP06
0112542590999992000010703004+42100+124950FM-12+023599999V0202201N009019999999N0300001N1-01801-02641102341ADDGF107991001001999999001021MD1710051+9999REMSYN060AAXX  07031 54259 42980 72209 11180 21264 40234 57005 80002;
0188542590999992000010706004+42100+124950FM-12+023599999V0202201N011010120019N0300001N1-01621-02541102191ADDAA106000091GF107991061051012501001021KA1240N-02241MD1710131+9999OA130601801REMSYN082AAXX  07061 54259 32680 72211 11162 21254 40219 57013 86502 333 21224 91118 91525;EQDQ01  00002PRCP06
0122542590999992000010709004+42100+124950FM-12+023599999V0202501N003012200019N0300001N1-01721-02671102211ADDGA1001+999999999GF100991001001999999001001MD1210011+9999REMSYN054AAXX  07091 54259 42980 02503 11172 21267 40221 52001;
0173542590999992000010712004+42100+124950FM-12+023599999V0209999C000012200019N0200001N1+99999+99999102201ADDAA106000091GA1001+999999999GF100991001001999999001001MD1710011+9999OA130601901REMSYN064AAXX  07121 54259 32970 00000 21266 40220 57001 333 91119 91522;EQDQ01  00002PRCP06
0175542590999992000010718004+42100+124950FM-12+023599999V0209999C000012200019N0150001N1-02351-02671102251ADDAA106000091GA1001+999999999GF100991001001999999001001KA1999M-01561MD1210041+9999REMSYN064AAXX  07181 54259 32965 00000 11235 21267 40225 52004 333 11156;EQDQ01  00002PRCP06
0122542590999992000010721004+42100+124950FM-12+023599999V0209999C000012200019N0150001N1-02561-02771102301ADDGA1001+999999999GF100991001001999999001001MD1210031+9999REMSYN054AAXX  07211 54259 42965 00000 11256 21277 40230 52003;
0180542590999992000010800004+42100+124950FM-12+023599999V0209999C000012200019N0070001N1-02531-02721102471ADDAA106000091GA1001+999999999GF100991001001999999001001MD1210161+0101MW1041REMSYN076AAXX  08001 54259 31957 00000 11253 21272 40247 52016 70400 333 00154 92520;EQDQ01  00002PRCP06
0122542590999992000010803004+42100+124950FM-12+023599999V0209999C000012200019N0150001N1-01521-02181102451ADDGA1001+999999999GF100991001001999999001001MD1210021+9999REMSYN054AAXX  08031 54259 42965 00000 11152 21218 40245 52002;
0175542590999992000010806004+42100+124950FM-12+023599999V0202201N005012200019N0300001N1-01061-02351102391ADDAA106000091GA1001+999999999GF100991001001999999001001KA1999N-02631MD1710041+9999REMSYN064AAXX  08061 54259 32980 02205 11106 21235 40239 57004 333 21263;EQDQ01  00002PRCP06
0122542590999992000010809004+42100+124950FM-12+023599999V0209999C000012200019N0250001N1-01421-02421102511ADDGA1001+999999999GF100991001001999999001001MD1210081+9999REMSYN054AAXX  08091 54259 42975 00000 11142 21242 40251 52008;
0152542590999992000010812004+42100+124950FM-12+023599999V0209999C000012200019N0150001N1-01931-02331102681ADDAA106000091GA1001+999999999GF100991001001999999001001MD1210141+9999REMSYN054AAXX  08121 54259 32965 00000 11193 21233 40268 52014;EQDQ01  00002PRCP06
0165542590999992000010818004+42100+124950FM-12+023599999V0209999C000012200019N0150001N1-02501-02701999999ADDAA106000091GF101991001001999999001021KA1999M-01051MD1710011+9999REMSYN070AAXX  08181 54259 32965 10000 11250 21270 40/72 57001 80002 333 11105;EQDQ01  00002PRCP06
0122542590999992000010821004+42100+124950FM-12+023599999V0209999C000012200019N0150001N1-02621-02821102721ADDGA1001+999999999GF100991001001999999001001MD1710031+9999REMSYN054AAXX  08211 54259 42965 00000 11262 21282 40272 57003;
0170542590999992000010900004+42100+124950FM-12+023599999V0209999C000010120019N0070001N1-02431-02631102681ADDAA106000091GF107991071051012501999999MD1710061+9999MW1041REMSYN082AAXX  09001 54259 31657 70000 11243 21263 40268 57006 70400 875// 333 00/01 92520;EQDQ01  00002PRCP06
0124542590999992000010903004+42100+124950FM-12+023599999V0209999C000012200019N0080001N1-01591-02071102461ADDGF104991001001999999001021MD1710181+9999MW1041REMSYN066AAXX  09031 54259 41958 40000 11159 21207 40246 57018 70400 80002;
0165542590999992000010906004+42100+124950FM-12+023599999V0209999C000010120019N0120001N1-00831-01531102221ADDAA106000091GF107991061051012501001021KA1999N-02621MD1710201+9999REMSYN070AAXX  09061 54259 32662 70000 11083 21153 40222 57020 86502 333 21262;EQDQ01  00002PRCP06
0132542590999992000010909004+42100+124950FM-12+023599999V0209999C000010120019N0080001N1-00701-00831102231ADDAY171031GF108991081051012501999999MD1210011+9999MW1701REMSYN066AAXX  09091 54259 41658 80000 11070 21083 40223 52001 77070 885//;
0149542590999992000010912004+42100+124950FM-12+023599999V0209999C000010120019N0050001N1-00901-01061102261ADDAA106001091AY171061GF108991081051012501999999MD1210031+9999MW1701REMSYN072AAXX  09121 54259 11650 80000 11090 21106 40226 52003 60011 77070 885//;
0182542590999992000010918004+42100+124950FM-12+023599999V0209999C000012200019N0150001N1-01541-01731102531ADDAA106000191AY171061GA1001+999999999GF100991001001999999001001KA1999M-00651MD1210161+9999MW1001REMSYN076AAXX  09181 54259 11965 00000 11154 21173 40253 52016 69921 70070 333 11065;
0143542590999992000010921004+42100+124950FM-12+023599999V0209999C000012200019N0120001N1-02031-02191102861ADDAA124001591GA1001+999999999GF100991001001999999001001MD1210301+9999REMSYN064AAXX  09211 54259 42962 00000 11203 21219 40286 52030 333 70014;
0186542590999992000011000004+42100+124950FM-12+023599999V0209999C000012200019N0060001N1-02251-02431103231ADDAA106000091GA1001+999999999GF100991001001999999001001MD1210331+0601MW1041REMSYN082AAXX  10001 54259 31956 00000 11225 21243 40323 52033 70400 333 00602 70014 92522;EQDQ01  00002PRCP06
0122542590999992000011003004+42100+124950FM-12+023599999V0209999C000012200019N0120001N1-01511-02031103311ADDGA1001+999999999GF100991001001999999001001MD1210121+9999REMSYN054AAXX  10031 54259 42962 00000 11151 21203 40331 52012;
0165542590999992000011006004+42100+124950FM-12+023599999V0202501N001012200019N0300001N1-01071-02031103281ADDAA106000091GF101991001001999999001011KA1999N-02251MD1710041+9999REMSYN070AAXX  10061 54259 32980 12501 11107 21203 40328 57004 80001 333 21225;EQDQ01  00002PRCP06
0122542590999992000011009004+42100+124950FM-12+023599999V0209999C000012200019N0200001N1-01421-02101103551ADDGA1001+999999999GF100991001001999999001001MD1210211+9999REMSYN054AAXX  10091 54259 42970 00000 11142 21210 40355 52021;
0152542590999992000011012004+42100+124950FM-12+023599999V0209999C000012200019N0150001N1-01861-02211103851ADDAA106000091GA1001+999999999GF100991001001999999001001MD1210251+9999REMSYN054AAXX  10121 54259 32965 00000 11186 21221 40385 52025;EQDQ01  00002PRCP06
0175542590999992000011018004+42100+124950FM-12+023599999V0209999C000012200019N0200001N1-02451-02691103831ADDAA106000091GA1001+999999999GF100991001001999999001001KA1999M-01051MD1710041+9999REMSYN064AAXX  10181 54259 32970 00000 11245 21269 40383 57004 333 11105;EQDQ01  00002PRCP06
0122542590999992000011021004+42100+124950FM-12+023599999V0209999C000012200019N0200001N1-02641-02871103871ADDGA1001+999999999GF100991001001999999001001MD1210011+9999REMSYN054AAXX  10211 54259 42970 00000 11264 21287 40387 52001;
0180542590999992000011100004+42100+124950FM-12+023599999V0209999C000012200019N0080001N1-02691-02921103901ADDAA106000091GA1001+999999999GF100991001001999999001001MD1710011+0601MW1041REMSYN076AAXX  11001 54259 31958 00000 11269 21292 40390 57001 70400 333 00654 92520;EQDQ01  00002PRCP06
0112542590999992000011103004+42100+124950FM-12+023599999V0209999C000019999999N0100001N1-01711-02221103681ADDGF106991001001999999001021MD1710171+9999REMSYN060AAXX  11031 54259 42960 60000 11171 21222 40368 57017 80002;
0165542590999992000011106004+42100+124950FM-12+023599999V0200701N001019999999N0300001N1-01031-01971103381ADDAA106000091GF107991001001999999001021KA1999N-02701MD1710261+9999REMSYN070AAXX  11061 54259 32980 70701 11103 21197 40338 57026 80002 333 21270;EQDQ01  00002PRCP06
0112542590999992000011109004+42100+124950FM-12+023599999V0200701N002012200019N0150001N1-01261-02101103351ADDGF102991001001999999001021MD1710061+9999REMSYN060AAXX  11091 54259 42965 20702 11126 21210 40335 57006 80002;
0142542590999992000011112004+42100+124950FM-12+023599999V0209999C000012200019N0150001N1-01371-02081103351ADDAA106000091GF102991001001999999001021MD1710011+9999REMSYN060AAXX  11121 54259 32965 20000 11137 21208 40335 57001 80002;EQDQ01  00002PRCP06
0165542590999992000011118004+42100+124950FM-12+023599999V0209999C000010120019N0150001N1-01281-01951103021ADDAA106000091GF108991081051012501999999KA1999M-01011MD1710091+9999REMSYN070AAXX  11181 54259 32665 80000 11128 21195 40302 57009 885// 333 11101;EQDQ01  00002PRCP06
0112542590999992000011121004+42100+124950FM-12+023599999V0209999C000010120019N0150001N1-01271-01851102851ADDGF108991081051012501999999MD1710181+9999REMSYN060AAXX  11211 54259 42665 80000 11127 21185 40285 57018 885//;
0170542590999992000011200004+42100+124950FM-12+023599999V0209999C000010120019N0030001N1-01221-01771102811ADDAA106000091GF108991081051012501999999MD1710041-0901MW1041REMSYN082AAXX  12001 54259 31630 80000 11122 21177 40281 57004 70400 885// 333 05915 92520;EQDQ01  00002PRCP06
0132542590999992000011203004+42100+124950FM-12+023599999V0209999C000010120019N0080001N1-00951-01331102611ADDAY171031GF107991061051012501001021MD1710181+9999MW1701REMSYN066AAXX  12031 54259 41658 70000 11095 21133 40261 57018 77070 86502;
0172542590999992000011206004+42100+124950FM-12+023599999V0209999C000010120019N0080001N1-00771-01101102431ADDAA106000591AY171061GF108991061051012501021999KA1999N-01381MD1710161+9999MW1711REMSYN082AAXX  12061 54259 11658 80000 11077 21110 40243 57016 69951 77170 8652/ 333 21138;
0140542590999992000011209004+42100+124950FM-12+023599999V0209999C000010120019N0060001N1-00751-00931102441ADDAY171031AY271031GF108991081051012501999999MD1210011+9999MW1701REMSYN066AAXX  12091 54259 41656 80000 11075 21093 40244 52001 77077 885//;
0157542590999992000011212004+42100+124950FM-12+023599999V0209999C000010120019N0080001N1-00891-01101102431ADDAA106001091AY171061AY271061GF108991081051012501999999MD1710011+9999MW1701REMSYN072AAXX  12121 54259 11658 80000 11089 21110 40243 57001 69991 77077 885//;
0180542590999992000011218004+42100+124950FM-12+023599999V0200701N001019999999N0060001N1-01101-01301102311ADDAA106000591AY171061AY271061GF108991081001999999021999KA1999M-00691MD1710041+9999MW1711REMSYN082AAXX  12181 54259 11956 80701 11110 21130 40231 57004 69951 77177 8802/ 333 11069;
0161542590999992000011221004+42100+124950FM-12+023599999V0209999C000010360019N0060001N1-01281-01571102331ADDAA124002391AY171031AY271031GF108991031051012501021999MD1210011+9999MW1701REMSYN076AAXX  12211 54259 41656 80000 11128 21157 40233 52001 77077 8352/ 333 70023;
0179542590999992000011300004+42100+124950FM-12+023599999V0209999C000010900019N0080001N1-01381-01711102411ADDAA106000591AY171061AY271061GF107991021051012501001021MD1210071-0401MW1701REMSYN094AAXX  13001 54259 11658 70000 11138 21171 40241 52007 69951 77077 82502 333 05452 70024 92522;
0132542590999992000011303004+42100+124950FM-12+023599999V0209999C000012200019N0150001N1-01081-01671102451ADDAY171031GF102991021051012501001001MD1210051+9999MW1001REMSYN066AAXX  13031 54259 41665 20000 11108 21167 40245 52005 70070 82500;
0172542590999992000011306004+42100+124950FM-12+023599999V0203601N001012200019N0200001N1-01041-01731102431ADDAA106000191AY171061GF101991011051012501001001KA1999N-01391MD1710021+9999MW1001REMSYN082AAXX  13061 54259 11670 13601 11104 21173 40243 57002 69911 70070 81500 333 21139;
0112542590999992000011309004+42100+124950FM-12+023599999V0203601N001012200019N0150001N1-01311-02001102651ADDGF101991001001999999001021MD1210181+9999REMSYN060AAXX  13091 54259 42965 13601 11131 21200 40265 52018 80002;
0142542590999992000011312004+42100+124950FM-12+023599999V0209999C000012200019N0200001N1-01791-02171102781ADDAA106000091GF101991001001999999001011MD1210091+9999REMSYN060AAXX  13121 54259 32970 10000 11179 21217 40278 52009 80001;EQDQ01  00002PRCP06
0175542590999992000011318004+42100+124950FM-12+023599999V0209999C000012200019N0150001N1-02561-02791102911ADDAA106000091GA1001+999999999GF100991001001999999001001KA1999M-01001MD1210031+9999REMSYN064AAXX  13181 54259 32965 00000 11256 21279 40291 52003 333 11100;EQDQ01  00002PRCP06
0137542590999992000011321004+42100+124950FM-12+023599999V0209999C000012200019N0150001N1-02731-02961102911ADDAA124000391GF101991001001999999001021MD1710021+9999REMSYN074    AAXX  13211 54259 42965 10000 11273 21296 40291 57002 80002 333 70002;
0161542590999992000011400004+42100+124950FM-12+023599999V0209999C000019999999N0050001N1-02771-03001102991ADDAA124000191GF107991001001999999001021MD1210041+0401MW1041REMSYN092    AAXX  14001 54259 31950 70000 11277 21300 40299 52004 70400 80002 333 00464 70001 92523;
0128542590999992000011403004+42100+124950FM-12+023599999V0209999C000019999999N0080001N1-02101-02501102931ADDGF107991001001999999001021MD1710041+9999MW1041REMSYN070    AAXX  14031 54259 41958 70000 11210 21250 40293 57004 70400 80002;
0169542590999992000011406004+42100+124950FM-12+023599999V0209999C000019999999N0150001N1-01311-01961102791ADDAA199000091GF107991001001999999001021KA1999N-02811MD1710111+9999REMSYN074    AAXX  14061 54259 32965 70000 11131 21196 40279 57011 80002 333 21281;EQDQ01  00002PRCP99
0156542590999992000011412004+42100+124950FM-12+023599999V0209999C000012200019N0120001N1-01951-02201103231ADDAA199000091GA1001+999999999GF100991001001999999001001MD1210191+9999REMSYN058    AAXX  14121 54259 32962 00000 11195 21220 40323 52019;EQDQ01  00002PRCP99
0179542590999992000011418004+42100+124950FM-12+023599999V0209999C000012200019N0150001N1-02521-02721103311ADDAA199000091GA1001+999999999GF100991001001999999001001KA1999M-01161MD1210131+9999REMSYN068    AAXX  14181 54259 32965 00000 11252 21272 40331 52013 333 11116;EQDQ01  00002PRCP99
0126542590999992000011421004+42100+124950FM-12+023599999V0209999C000012200019N0150001N1-02711-02921103341ADDGA1001+999999999GF100991001001999999001001MD1410001+9999REMSYN058    AAXX  14211 54259 42965 00000 11271 21292 40334 54000;
0184542590999992000011500004+42100+124950FM-12+023599999V0209999C000012200019N0080001N1-02731-02941103441ADDAA199000091GA1001+999999999GF100991001001999999001001MD1210071+0401MW1041REMSYN080    AAXX  15001 54259 31958 00000 11273 21294 40344 52007 70400 333 00400 92522;EQDQ01  00002PRCP99
0128542590999992000011503004+42100+124950FM-12+023599999V0209999C000012200019N0080001N1-01981-02371103331ADDGF102991001001999999001021MD1710081+9999MW1041REMSYN070    AAXX  15031 54259 41958 20000 11198 21237 40333 57008 70400 80002;
0169542590999992000011506004+42100+124950FM-12+023599999V0209999C000019999999N0100001N1-01211-01791103071ADDAA199000091GF107991001001999999001021KA1999N-02751MD1710221+9999REMSYN074    AAXX  15061 54259 32960 70000 11121 21179 40307 57022 80002 333 21275;EQDQ01  00002PRCP99
0128542590999992000011509004+42100+124950FM-12+023599999V0209999C000019999999N0060001N1-01191-01641103081ADDGF107991001001999999001021MD1410001+9999MW1041REMSYN070    AAXX  15091 54259 41956 70000 11119 21164 40308 54000 70400 80002;
0158542590999992000011512004+42100+124950FM-12+023599999V0209999C000012200019N0080001N1-01411-01741103281ADDAA199000091GF104991001001999999001021MD1210181+9999MW1041REMSYN070    AAXX  15121 54259 31958 40000 11141 21174 40328 52018 70400 80002;EQDQ01  00002PRCP99
0179542590999992000011518004+42100+124950FM-12+023599999V0209999C000012200019N0150001N1-02101-02281103401ADDAA199000091GA1001+999999999GF100991001001999999001001KA1999M-01091MD1210101+9999REMSYN068    AAXX  15181 54259 32965 00000 11210 21228 40340 52010 333 11109;EQDQ01  00002PRCP99
0126542590999992000011521004+42100+124950FM-12+023599999V0209999C000012200019N0120001N1-02421-02601103511ADDGA1001+999999999GF100991001001999999001001MD1210081+9999REMSYN058    AAXX  15211 54259 42962 00000 11242 21260 40351 52008;
0184542590999992000011600004+42100+124950FM-12+023599999V0209999C000012200019N0060001N1-02601-02811103651ADDAA199000091GA1001+999999999GF100991001001999999001001MD1210121+0301MW1041REMSYN080    AAXX  16001 54259 31956 00000 11260 21281 40365 52012 70400 333 00301 92522;EQDQ01  00002PRCP99
0138542590999992000011603004+42100+124950FM-12+023599999V0209999C000012200019N0070001N1-01741-02141103531ADDGA1001+999999999GF100991001001999999001001MD1710091+9999MW1041REMSYN064    AAXX  16031 54259 41957 00000 11174 21214 40353 57009 70400;
0179542590999992000011606004+42100+124950FM-12+023599999V0209999C000012200019N0150001N1-00921-01601103301ADDAA199000091GA1001+999999999GF100991001001999999001001KA1999N-02611MD1710191+9999REMSYN068    AAXX  16061 54259 32965 00000 11092 21160 40330 57019 333 21261;EQDQ01  00002PRCP99
0126542590999992000011609004+42100+124950FM-12+023599999V0209999C000012200019N0120001N1-01171-01871103311ADDGA1001+999999999GF100991001001999999001001MD1710031+9999REMSYN058    AAXX  16091 54259 42962 00000 11117 21187 40331 57003;
0156542590999992000011612004+42100+124950FM-12+023599999V0209999C000012200019N0120001N1-01791-02071103441ADDAA199000091GA1001+999999999GF100991001001999999001001MD1210081+9999REMSYN058    AAXX  16121 54259 32962 00000 11179 21207 40344 52008;EQDQ01  00002PRCP99
0179542590999992000011618004+42100+124950FM-12+023599999V0209999C000012200019N0150001N1-02421-02611103261ADDAA199000091GA1001+999999999GF100991001001999999001001KA1999M-00841MD1710051+9999REMSYN068    AAXX  16181 54259 32965 00000 11242 21261 40326 57005 333 11084;EQDQ01  00002PRCP99
0126542590999992000011621004+42100+124950FM-12+023599999V0209999C000012200019N0150001N1-02641-02831103261ADDGA1001+999999999GF100991001001999999001001MD1710031+9999REMSYN058    AAXX  16211 54259 42965 00000 11264 21283 40326 57003;
0184542590999992000011700004+42100+124950FM-12+023599999V0209999C000012200019N0060001N1-02781-02971103321ADDAA199000091GA1001+999999999GF100991001001999999001001MD1210011-0401MW1041REMSYN080    AAXX  17001 54259 31956 00000 11278 21297 40332 52001 70400 333 05452 92522;EQDQ01  00002PRCP99
0126542590999992000011703004+42100+124950FM-12+023599999V0209999C000012200019N0120001N1-01871-02281103171ADDGA1001+999999999GF100991001001999999001001MD1710111+9999REMSYN058    AAXX  17031 54259 42962 00000 11187 21228 40317 57011;
0179542590999992000011706004+42100+124950FM-12+023599999V0209999C000012200019N0200001N1-00831-01671102871ADDAA199000091GA1001+999999999GF100991001001999999001001KA1999N-02781MD1710241+9999REMSYN068    AAXX  17061 54259 32970 00000 11083 21167 40287 57024 333 21278;EQDQ01  00002PRCP99
0126542590999992000011709004+42100+124950FM-12+023599999V0209999C000012200019N0150001N1-01231-01891102921ADDGA1001+999999999GF100991001001999999001001MD1210011+9999REMSYN058    AAXX  17091 54259 42965 00000 11123 21189 40292 52001;
0156542590999992000011712004+42100+124950FM-12+023599999V0209999C000012200019N0150001N1-01781-02171103001ADDAA199000091GA1001+999999999GF100991001001999999001001MD1210031+9999REMSYN058    AAXX  17121 54259 32965 00000 11178 21217 40300 52003;EQDQ01  00002PRCP99
0179542590999992000011718004+42100+124950FM-12+023599999V0209999C000012200019N0150001N1-02381-02581102871ADDAA199000091GA1001+999999999GF100991001001999999001001KA1999M-00731MD1710041+9999REMSYN068    AAXX  17181 54259 32965 00000 11238 21258 40287 57004 333 11073;EQDQ01  00002PRCP99
0126542590999992000011721004+42100+124950FM-12+023599999V0209999C000012200019N0120001N1-02621-02791102831ADDGA1001+999999999GF100991001001999999001001MD1710081+9999REMSYN058    AAXX  17211 54259 42962 00000 11262 21279 40283 57008;
0184542590999992000011800004+42100+124950FM-12+023599999V0209999C000012200019N0060001N1-02721-02921102921ADDAA199000091GA1001+999999999GF100991001001999999001001MD1210051-0401MW1041REMSYN080    AAXX  18001 54259 31956 00000 11272 21292 40292 52005 70400 333 05401 92522;EQDQ01  00002PRCP99
0126542590999992000011803004+42100+124950FM-12+023599999V0209999C000012200019N0120001N1-01851-02321102791ADDGA1001+999999999GF100991001001999999001001MD1710101+9999REMSYN058    AAXX  18031 54259 42962 00000 11185 21232 40279 57010;
0179542590999992000011806004+42100+124950FM-12+023599999V0202201N003012200019N0200001N1-00901-01791102491ADDAA199000091GA1001+999999999GF100991001001999999001001KA1999N-02731MD1710241+9999REMSYN068    AAXX  18061 54259 32970 02203 11090 21179 40249 57024 333 21273;EQDQ01  00002PRCP99
0126542590999992000011809004+42100+124950FM-12+023599999V0209999C000012200019N0150001N1-01201-01881102591ADDGA1001+999999999GF100991001001999999001001MD1210061+9999REMSYN058    AAXX  18091 54259 42965 00000 11120 21188 40259 52006;
0156542590999992000011812004+42100+124950FM-12+023599999V0209999C000012200019N0150001N1-01721-02071102781ADDAA199000091GA1001+999999999GF100991001001999999001001MD1210151+9999REMSYN058    AAXX  18121 54259 32965 00000 11172 21207 40278 52015;EQDQ01  00002PRCP99
0169542590999992000011818004+42100+124950FM-12+023599999V0209999C000012200019N0120001N1-02291-02471102761ADDAA199000091GF104991001001999999001021KA1999M-00781MD1410001+9999REMSYN074    AAXX  18181 54259 32962 40000 11229 21247 40276 54000 80002 333 11078;EQDQ01  00002PRCP99
0116542590999992000011821004+42100+124950FM-12+023599999V02099999999992200019N0120001N1-02491-02671102761ADDGF102991001001999999001021MD1710031+9999REMSYN064    AAXX  18211 54259 42962 200// 11249 21267 40276 57003 80002;
0175542590999992000011900004+42100+124950FM-12+023599999V0209999C000010900019N0060001N1-02511-02691102841ADDAA106000791AY171061GF107991021051012501001021MD1210051-0101MW1701REMSYN098    AAXX  19001 54259 11656 70000 11251 21269 40284 52005 69901 77070 82502 333 05102 79999 92522;
0136542590999992000011903004+42100+124950FM-12+023599999V0209999C000010120019N0070001N1-02051-02361102831ADDAY171031GF107991071051012501999999MD1710011+9999MW1701REMSYN070    AAXX  19031 54259 41657 70000 11205 21236 40283 57001 77070 875//;
0176542590999992000011906004+42100+124950FM-12+023599999V0202501N003010120019N0080001N1-01461-01781102691ADDAA106000791AY171061GF107991051051012501001021KA1999N-02551MD1710111+9999MW1701REMSYN086    AAXX  19061 54259 11658 72503 11146 21178 40269 57011 69901 77070 85502 333 21255;
0144542590999992000011909004+42100+124950FM-12+023599999V0202501N002010120019N0060001N1-01501-01801102861ADDAY171031AY271031GF108991081051012501999999MD1210151+9999MW1701REMSYN070    AAXX  19091 54259 41656 82502 11150 21180 40286 52015 77077 885//;
0161542590999992000011912004+42100+124950FM-12+023599999V0209999C000010120019N0090001N1-01201-02041103131ADDAA106000191AY171061AY271061GF107991061051012501001021MD1210251+9999MW1701REMSYN076    AAXX  19121 54259 11659 70000 1112/ 21204 40313 52025 69921 77077 86502;
0180542590999992000011918004+42100+124950FM-12+023599999V0209999C000010120019N0080001N1-02211-02381103361ADDAA106000391AY171061AY271061GF107991051051012501001021KA1999M-01451MD1210191+9999MW1701REMSYN082AAXX  19181 54259 11658 70000 11221 21238 40336 52019 69931 77077 85502 333 11145;
0139542590999992000011921004+42100+124950FM-12+023599999V0209999C000010120019N0080001N1-02321-02501103511ADDAA124000591GF108991081051012501999999MD1210131+9999REMSYN076AAXX  19211 54259 41658 80000 11232 21250 40351 52013 7/077 885// 333 70005;
0179542590999992000012000004+42100+124950FM-12+023599999V0209999C000010120019N0080001N1-02351-02531103771ADDAA106000191AY171061AY271061GF107991071051012501999999MD1210241+0901MW1701REMSYN094AAXX  20001 54259 11658 70000 11235 21253 40377 52024 69911 77077 875// 333 00902 70006 92523;
0122542590999992000012003004+42100+124950FM-12+023599999V0209999C000012200019N0150001N1-01811-02231103881ADDGA1001+999999999GF100991001001999999001001MD1210131+9999REMSYN054AAXX  20031 54259 42965 00000 11181 21223 40388 52013;
0146542590999992000012006004+42100+124950FM-12+023599999V0202201N003012200019N0200001N1-01401-01891103801ADDAA199000021GF101991011051012501001001KA1999N-02371MD1710071+9999REMSYN070AAXX  20061 54259 32670 12203 11140 21189 40380 57007 81500 333 21237;
0122542590999992000012009004+42100+124950FM-12+023599999V0209999C000012200019N0150001N1-01681-02021104021ADDGA1001+999999999GF100991001001999999001001MD1210181+9999REMSYN054AAXX  20091 54259 42965 00000 11168 21202 40402 52018;
0133542590999992000012012004+42100+124950FM-12+023599999V0209999C000012200019N0120001N1-02061-02241104291ADDAA199000021GA1001+999999999GF100991001001999999001001MD1210241+9999REMSYN054AAXX  20121 54259 32962 00000 11206 21224 40429 52024;
0175542590999992000012018004+42100+124950FM-12+023599999V0209999C000012200019N0150001N1-02651-02821104451ADDAA199000091GA1001+999999999GF100991001001999999001001KA1999M-01371MD1210131+9999REMSYN064AAXX  20181 54259 32965 00000 11265 21282 40445 52013 333 11137;EQDQ01  00002PRCP99
0143542590999992000012021004+42100+124950FM-12+023599999V0209999C000012200019N0150001N1-02851-03031104571ADDAA124000191GA1001+999999999GF100991001001999999001001MD1210081+9999REMSYN064AAXX  20211 54259 42965 00000 11285 21303 40457 52008 333 70001;
0180542590999992000012100004+42100+124950FM-12+023599999V0209999C000012200019N0080001N1-02921-03101104611ADDAA199000091GA1001+999999999GF100991001001999999001001MD1210011+0801MW1041REMSYN076AAXX  21001 54259 31958 00000 11292 21310 40461 52001 70400 333 00856 92522;EQDQ01  00002PRCP99
0134542590999992000012103004+42100+124950FM-12+023599999V0209999C000012200019N0080001N1-02011-02401104421ADDGA1001+999999999GF100991001001999999001001MD1710141+9999MW1041REMSYN060AAXX  21031 54259 41958 00000 11201 21240 40442 57014 70400;
0175542590999992000012106004+42100+124950FM-12+023599999V0209999C000012200019N0150001N1-01011-01911104101ADDAA199000091GA1001+999999999GF100991001001999999001001KA1999N-02941MD1710271+9999REMSYN064AAXX  21061 54259 32965 00000 11101 21191 40410 57027 333 21294;EQDQ01  00002PRCP99
0122542590999992000012109004+42100+124950FM-12+023599999V0209999C000012200019N0180001N1+99999+99999104021ADDGA1001+999999999GF100991001001999999001001MD1710101+9999REMSYN054AAXX  21091 54259 42968 00000 16129 21193 40402 57010;
0142542590999992000012112004+42100+124950FM-12+023599999V0209999C000012200019N0120001N1-01681-01931103951ADDAA199000091GF102991001001999999001021MD1710101+9999REMSYN060AAXX  21121 54259 32962 20000 11168 21193 40395 57010 80002;EQDQ01  00002PRCP99
0165542590999992000012118004+42100+124950FM-12+023599999V0209999C000019999999N0120001N1-01841-02051103561ADDAA199000091GF107991001001999999001021KA1999M-00891MD1710121+9999REMSYN070AAXX  21181 54259 32962 70000 11184 21205 40356 57012 80002 333 11089;EQDQ01  00002PRCP99
0112542590999992000012121004+42100+124950FM-12+023599999V0209999C000019999999N0120001N1-01621-01821103361ADDGF107991001001999999001021MD1710201+9999REMSYN060AAXX  21211 54259 42962 70000 11162 21182 40336 57020 80002;
0171542590999992000012200004+42100+124950FM-12+023599999V0209999C000010120019N0060001N1-01391-01561103291ADDAA106000591AY171061GF108991081051012501999999MD1710081-1201MW1701REMSYN094AAXX  22001 54259 11656 80000 11139 21156 40329 57008 69951 77070 885// 333 06215 70005 92522;
0132542590999992000012203004+42100+124950FM-12+023599999V0209999C000010360019N0050001N1-00811-01051103061ADDAY171031GF108991021051012501021999MD1710191+9999MW1711REMSYN066AAXX  22031 54259 41650 80000 11081 21105 40306 57019 77170 8252/;
0172542590999992000012206004+42100+124950FM-12+023599999V0202501N002010120019N0060001N1-00471-00641102731ADDAA106000591AY171061GF108991051051012501021999KA1999N-01871MD1710301+9999MW1701REMSYN082AAXX  22061 54259 11656 82502 11047 21064 40273 57030 69961 77070 8552/ 333 21187;
0140542590999992000012209004+42100+124950FM-12+023599999V0202501N002010120019N0080001N1-00471-00681102651ADDAY171031AY271031GF108991081051012501999999MD1710071+9999MW1701REMSYN066AAXX  22091 54259 41658 82502 11047 21068 40265 57007 77077 885//;
0157542590999992000012212004+42100+124950FM-12+023599999V0209999C000010120019N0080001N1-00541-00651102691ADDAA106000591AY171061AY271061GF108991081051012501999999MD1210051+9999MW1701REMSYN072AAXX  22121 54259 11658 80000 11054 21065 40269 52005 69961 77077 885//;
0180542590999992000012218004+42100+124950FM-12+023599999V0202501N002010120019N0080001N1-00481-00621102621ADDAA106000591AY171061AY271061GF108991081051012501999999KA1999M-00391MD1410001+9999MW1701REMSYN082AAXX  22181 54259 11658 82502 11048 21062 40262 54000 69941 77077 885// 333 11039;
0161542590999992000012221004+42100+124950FM-12+023599999V0202901N001010120019N0080001N1-00941-01321102881ADDAA124002391AY171031AY271031GF108991081051012501999999MD1210221+9999MW1701REMSYN076AAXX  22211 54259 41658 82901 11094 21132 40288 52022 77077 885// 333 70023;
0179542590999992000012300004+42100+124950FM-12+023599999V0203201N001010120019N0070001N1-01191-01531103141ADDAA106000391AY171061AY271061GF108991081051012501999999MD1210241-0101MW1701REMSYN094AAXX  23001 54259 11657 83201 11119 21153 40314 52024 69931 77077 885// 333 05102 70019 92526;
0140542590999992000012303004+42100+124950FM-12+023599999V0202201N001010900019N0080001N1-01181-01531103241ADDAY171031AY271031GF107991031051012501001021MD1210101+9999MW1221REMSYN066AAXX  23031 54259 41658 72201 11118 21153 40324 52010 72277 83502;
0172542590999992000012306004+42100+124950FM-12+023599999V0203201N003019999999N0100001N1-01051-01611103201ADDAA106000791AY171061GF107991001001999999001021KA1999N-01241MD1710031+9999MW1001REMSYN082AAXX  23061 54259 11960 73203 11105 21161 40320 57003 69901 70070 80002 333 21124;
0112542590999992000012309004+42100+124950FM-12+023599999V0203601N002010900019N0100001N1-01331-01821103521ADDGF107991021051012501001021MD1210261+9999REMSYN060AAXX  23091 54259 42660 73602 11133 21182 40352 52026 82502;
0133542590999992000012312004+42100+124950FM-12+023599999V0209999C000012200019N0100001N1-01741-02181103851ADDAA199000021GA1001+999999999GF100991001001999999001001MD1210291+9999REMSYN054AAXX  23121 54259 32960 00000 11174 21218 40385 52029;
0175542590999992000012318004+42100+124950FM-12+023599999V0209999C000012200019N0150001N1-02501-02761104161ADDAA199000091GA1001+999999999GF100991001001999999001001KA1999M-00481MD1210141+9999REMSYN064AAXX  23181 54259 32965 00000 11250 21276 40416 52014 333 11048;EQDQ01  00002PRCP99
0143542590999992000012321004+42100+124950FM-12+023599999V0209999C000012200019N0150001N1-02821-03061104281ADDAA124000191GA1001+999999999GF100991001001999999001001MD1210081+9999REMSYN064AAXX  23211 54259 42965 00000 11282 21306 40428 52008 333 70001;
0167542590999992000012400004+42100+124950FM-12+023599999V0209999C000012200019N0060001N1-03031-03281104411ADDAA124000791GA1001+999999999GF100991001001999999001001MD1210081+1001MW1041REMSYN082AAXX  24001 54259 31956 00000 11303 21328 40441 52008 70400 333 01068 79999 92526;
0134542590999992000012403004+42100+124950FM-12+023599999V0209999C000012200019N0080001N1-02191-02681104391ADDGA1001+999999999GF100991001001999999001001MD1210011+9999MW1041REMSYN060AAXX  24031 54259 41958 00000 11219 21268 40439 52001 70400;
0175542590999992000012406004+42100+124950FM-12+023599999V0203401N003012200019N0250001N1-01421-02331104221ADDAA199000091GA1001+999999999GF100991001001999999001001KA1999N-03031MD1710141+9999REMSYN064AAXX  24061 54259 32975 03403 11142 21233 40422 57014 333 21303;EQDQ01  00002PRCP99
0122542590999992000012409004+42100+124950FM-12+023599999V0209999C000012200019N0220001N1-01781-02801104291ADDGA1001+999999999GF100991001001999999001001MD1210031+9999REMSYN054AAXX  24091 54259 42972 00000 11178 21280 40429 52003;
0152542590999992000012412004+42100+124950FM-12+023599999V0209999C000012200019N0120001N1-02361-02781104411ADDAA199000091GA1001+999999999GF100991001001999999001001MD1210061+9999REMSYN054AAXX  24121 54259 32962 00000 11236 21278 40441 52006;EQDQ01  00002PRCP99
0175542590999992000012418004+42100+124950FM-12+023599999V0209999C000012200019N0150001N1-02991-03221104311ADDAA199000091GA1001+999999999GF100991001001999999001001KA1999M-01391MD1710021+9999REMSYN064AAXX  24181 54259 32965 00000 11299 21322 40431 57002 333 11139;EQDQ01  00002PRCP99
0122542590999992000012421004+42100+124950FM-12+023599999V0209999C000012200019N0150001N1-03111-03371104261ADDGA1001+999999999GF100991001001999999001001MD1710081+9999REMSYN054AAXX  24211 54259 42965 00000 11311 21337 40426 57008;
0180542590999992000012500004+42100+124950FM-12+023599999V0209999C000012200019N0060001N1-03191-03461104271ADDAA199000091GA1001+999999999GF100991001001999999001001MD1710031-0201MW1041REMSYN076AAXX  25001 54259 31956 00000 11319 21346 40427 57003 70400 333 05252 92526;EQDQ01  00002PRCP99
0134542590999992000012503004+42100+124950FM-12+023599999V0209999C000012200019N0080001N1-02171-02671104071ADDGA1001+999999999GF100991001001999999001001MD1710161+9999MW1041REMSYN060AAXX  25031 54259 41958 00000 11217 21267 40407 57016 70400;
0175542590999992000012506004+42100+124950FM-12+023599999V0202201N004012200019N0250001N1-01471-02231103801ADDAA199000091GA1001+999999999GF100991001001999999001001KA1999N-03201MD1710231+9999REMSYN064AAXX  25061 54259 32975 02204 11147 21223 40380 57023 333 21320;EQDQ01  00002PRCP99
0112542590999992000012509004+42100+124950FM-12+023599999V0202501N003012200019N0180001N1-01621-02351103861ADDGF102991001001999999001021MD1210041+9999REMSYN060AAXX  25091 54259 42968 22503 11162 21235 40386 52004 80002;
0152542590999992000012512004+42100+124950FM-12+023599999V0209999C000012200019N0150001N1-01901-02351103961ADDAA199000091GA1001+999999999GF100991001001999999001001MD1210071+9999REMSYN054AAXX  25121 54259 32965 00000 1119/ 21235 40396 52007;EQDQ01  00002PRCP99
0165542590999992000012518004+42100+124950FM-12+023599999V0209999C000019999999N0150001N1-02521-02711103991ADDAA199000091GF107991001001999999001021KA1999M-01401MD1210031+9999REMSYN070AAXX  25181 54259 32965 70000 11252 21271 40399 52003 80002 333 11140;EQDQ01  00002PRCP99
0153542590999992000012521004+42100+124950FM-12+023599999V0209999C000010900019N0120001N1-02581-02791104001ADDAA124999999AY171031GF107991031051012501001021MD1710011+9999MW1701REMSYN076AAXX  25211 54259 41662 70000 11258 21279 40400 57001 77070 83502 333 76/99;
0171542590999992000012600004+42100+124950FM-12+023599999V0209999C000012200019N0050001N1-02601-02801104051ADDAA106000791AY171061GF104991001001999999001021MD1210031-0201MW1041REMSYN094AAXX  26001 54259 11950 40000 11260 21280 40405 52003 69901 70470 80002 333 05206 79999 92526;
0122542590999992000012603004+42100+124950FM-12+023599999V0209999C000012200019N0100001N1-01811-02301104001ADDGA1001+999999999GF100991001001999999001001MD1710031+9999REMSYN054AAXX  26031 54259 42960 00000 11181 21230 40400 57003;
0146542590999992000012606004+42100+124950FM-12+023599999V0202001N001019999999N0150001N1-01091-01771103781ADDAA199000021GF107991001001999999001021KA1999N-02611MD1710171+9999REMSYN070AAXX  26061 54259 32965 72001 11109 21177 40378 57017 80002 333 21261;
0122542590999992000012609004+42100+124950FM-12+023599999V0209999C000012200019N0200001N1+99999+99999103951ADDGA1001+999999999GF100991001001999999001001MD1210151+9999REMSYN054AAXX  26091 54259 42970 00000 111/1 21195 40395 52015;
0152542590999992000012612004+42100+124950FM-12+023599999V0209999C000012200019N0150001N1-01831-02111104061ADDAA199000091GA1001+999999999GF100991001001999999001001MD1210071+9999REMSYN054AAXX  26121 54259 32965 00000 11183 21211 40406 52007;EQDQ01  00002PRCP99
0175542590999992000012618004+42100+124950FM-12+023599999V0209999C000012200019N0150001N1-02481-02661104121ADDAA199000091GA1001+999999999GF100991001001999999001001KA1999M-00971MD1210031+9999REMSYN064AAXX  26181 54259 32965 00000 11248 21266 40412 52003 333 11097;EQDQ01  00002PRCP99
0143542590999992000012621004+42100+124950FM-12+023599999V0209999C000012200019N0150001N1-02721-02891104131ADDAA124999999GA1001+999999999GF100991001001999999001001MD1710011+9999REMSYN064AAXX  26211 54259 42965 00000 11272 21289 40413 57001 333 799//;
0180542590999992000012700004+42100+124950FM-12+023599999V0209999C000012200019N0050001N1-02761-02931104261ADDAA199000091GA1001+999999999GF100991001001999999001001MD1210081+0201MW1041REMSYN076AAXX  27001 54259 31950 00000 11276 21293 40426 52008 70400 333 00252 92526;EQDQ01  00002PRCP99
0134542590999992000012703004+42100+124950FM-12+023599999V0209999C000012200019N0080001N1-01771-02231104151ADDGA1001+999999999GF100991001001999999001001MD1710061+9999MW1041REMSYN060AAXX  27031 54259 41958 00000 11177 21223 40415 57006 70400;
0175542590999992000012706004+42100+124950FM-12+023599999V0209999C000012200019N0220001N1-00751-01471103791ADDAA199000091GA1001+999999999GF100991001001999999001001KA1999N-02771MD1710361+9999REMSYN064AAXX  27061 54259 32972 00000 11075 21147 40379 57036 333 21277;EQDQ01  00002PRCP99
0122542590999992000012709004+42100+124950FM-12+023599999V0209999C000012200019N0180001N1-01051-01801103761ADDGA1001+999999999GF100991001001999999001001MD1710061+9999REMSYN054AAXX  27091 54259 42968 00000 11105 21180 40376 57006;
0152542590999992000012712004+42100+124950FM-12+023599999V0209999C000012200019N0120001N1-01671-01881103791ADDAA199000091GA1001+999999999GF100991001001999999001001MD1710021+9999REMSYN054AAXX  27121 54259 32962 00000 11167 21188 40379 57002;EQDQ01  00002PRCP99
0175542590999992000012718004+42100+124950FM-12+023599999V0209999C000012200019N0120001N1-02281-02441103701ADDAA199000091GA1001+999999999GF100991001001999999001001KA1999M-00611MD1410001+9999REMSYN064AAXX  27181 54259 32962 00000 11228 21244 40370 54000 333 11061;EQDQ01  00002PRCP99
0122542590999992000012721004+42100+124950FM-12+023599999V0209999C000012200019N0120001N1-02421-02571103661ADDGA1001+999999999GF100991001001999999001001MD1710061+9999REMSYN054AAXX  27211 54259 42962 00000 11242 21257 40366 57006;
0180542590999992000012800004+42100+124950FM-12+023599999V0209999C000012200019N0060001N1-02521-02681103701ADDAA199000091GA1001+999999999GF100991001001999999001001MD1710011-0501MW1041REMSYN076AAXX  28001 54259 31956 00000 11252 21268 40370 57001 70400 333 05502 92526;EQDQ01  00002PRCP99
0134542590999992000012803004+42100+124950FM-12+023599999V0209999C000012200019N0080001N1-01441-01941103501ADDGA1001+999999999GF100991001001999999001001MD1710141+9999MW1041REMSYN060AAXX  28031 54259 41958 00000 11144 21194 40350 57014 70400;
0175542590999992000012806004+42100+124950FM-12+023599999V0202201N001012200019N0250001N1-00302-01271103151ADDAA199000091GA1001+999999999GF100991001001999999001001KA1999N-02531MD1710291+9999REMSYN064AAXX  28061 54259 32975 02201 11030 21127 40315 57029 333 21253;EQDQ01  00002PRCP99
0134542590999992000012809004+42100+124950FM-12+023599999V0209999C000012200019N0080001N1-00611-01651103171ADDGA1001+999999999GF100991001001999999001001MD1710011+9999MW1041REMSYN060AAXX  28091 54259 41958 00000 11061 21165 40317 57001 70400;
0164542590999992000012812004+42100+124950FM-12+023599999V0209999C000012200019N0080001N1-01251-01531103301ADDAA199000091GA1001+999999999GF100991001001999999001001MD1210081+9999MW1041REMSYN060AAXX  28121 54259 31958 00000 11125 21153 40330 52008 70400;EQDQ01  00002PRCP99
0165542590999992000012818004+42100+124950FM-12+023599999V0209999C000012200019N0120001N1-01931-02081103271ADDAA199000091GF104991001001999999001021KA1999M-00221MD1210041+9999REMSYN070AAXX  28181 54259 32962 40000 11193 21208 40327 52004 80002 333 11022;EQDQ01  00002PRCP99
0124542590999992000012821004+42100+124950FM-12+023599999V0209999C000010120019N0080001N1-01751-01881103211ADDGF108991081051012501999999MD1710061+9999MW1041REMSYN066AAXX  28211 54259 41658 80000 11175 21188 40321 57006 70400 885//;
0163542590999992000012900004+42100+124950FM-12+023599999V0209999C000010120019N0050001N1-01571-01761103261ADDAA106000791GF108991081051012501999999MD1210021-0301MW1701REMSYN094AAXX  29001 54259 11650 80000 11157 21176 40326 52002 69901 77000 885// 333 05310 79999 92524;
0140542590999992000012903004+42100+124950FM-12+023599999V0209999C000010900019N0070001N1-00781-01331103191ADDAY171031AY271031GF107991041051012501001021MD1710051+9999MW1701REMSYN066AAXX  29031 54259 41657 70000 11078 21133 40319 57005 77077 84502;
0172542590999992000012906004+42100+124950FM-12+023599999V0202201N006010120019N0200001N1-00511-01001103141ADDAA106000791AY171061GF107991071051012501999999KA1999N-01951MD1710041+9999MW1001REMSYN082AAXX  29061 54259 11670 72206 11051 21100 40314 57004 69901 70070 875// 333 21195;
0112542590999992000012909004+42100+124950FM-12+023599999V0202201N005010900019N0140001N1-00801-01361103231ADDGF107991021051012501001021MD1210081+9999REMSYN060AAXX  29091 54259 42664 72205 11080 21136 40323 52008 82502;
0133542590999992000012912004+42100+124950FM-12+023599999V0203201N003012200019N0150001N1-01281-01791103481ADDAA199000021GA1001+999999999GF100991001001999999001001MD1210221+9999REMSYN054AAXX  29121 54259 32965 03203 11128 21179 40348 52022;
0172542590999992000012918004+42100+124950FM-12+023599999V0209999C000010900019N0080001N1-01771-01961103581ADDAA106000791AY171061GF107991021051012501001021KA1999M-00411MD1210031+9999MW1701REMSYN082AAXX  29181 54259 11658 70000 11177 21196 40358 52003 69901 77070 82502 333 11041;
0153542590999992000012921004+42100+124950FM-12+023599999V0209999C000010120019N0080001N1-02051-02211103771ADDAA124000791AY171031GF107991071051012501999999MD1210151+9999MW1101REMSYN076AAXX  29211 54259 41658 70000 11205 21221 40377 52015 71070 875// 333 79999;
0171542590999992000013000004+42100+124950FM-12+023599999V0209999C000010900019N0060001N1-01981-02141104011ADDAA106000791AY171061GF107991031051012501001021MD1210211+0701MW1701REMSYN094AAXX  30001 54259 11656 70000 11198 21214 40401 52021 69901 77070 83502 333 00754 79999 92524;
0140542590999992000013003004+42100+124950FM-12+023599999V0202701N002010120019N0120001N1-01431-01691104071ADDAY171031AY271031GF107991071051012501999999MD1210071+9999MW1701REMSYN066AAXX  30031 54259 41662 72702 11143 21169 40407 52007 77077 875//;
0180542590999992000013006004+42100+124950FM-12+023599999V0202501N004010120019N0200001N1-01121-01751104041ADDAA106000791AY171061AY271061GF107991061051012501001021KA1999N-02051MD1710021+9999MW1701REMSYN082AAXX  30061 54259 11670 72504 11112 21175 40404 57002 69901 77077 86502 333 21205;
0132542590999992000013009004+42100+124950FM-12+023599999V0202501N001012200019N0150001N1-01431-01881104281ADDAY171031GF104991041051012501001001MD1210201+9999MW1701REMSYN066AAXX  30091 54259 41665 42501 11143 21188 40428 52020 77070 84500;
0149542590999992000013012004+42100+124950FM-12+023599999V0209999C000010120019N0150001N1-01781-02071104451ADDAA106000791AY171061GF108991081051012501999999MD1210151+9999MW1001REMSYN072AAXX  30121 54259 11665 80000 11178 21207 40445 52015 69901 70070 885//;
0119542590999992000013018004+42100+124950FM-12+023599999V0209999C000019999999N0120001N1+99999+99999999999ADDGF107991999999999999999999REMSYN081AAXX  30181 54259 11962 70000 1126 21242 40450 52003 69901 77070 80002 333 11109;
0161542590999992000013021004+42100+124950FM-12+023599999V0209999C000019999999N0120001N1-02531-02711104531ADDAA124000791AY171031AY271031GF107991001001999999001021MD1710011+9999MW1701REMSYN076AAXX  30211 54259 41962 70000 11253 21271 40453 57001 77077 80002 333 79999;
0165542590999992000013100004+42100+124950FM-12+023599999V0209999C000012200019N0060001N1-02701-02871104701ADDAA106000791AY171061GF104991001001999999001021MD1999999+0601MW1041REMSYN088AAXX  31001 54259 11956 40000 11270 21287 40470 69901 70470 80002 333 00657 79999 92525;
0134542590999992000013103004+42100+124950FM-12+023599999V0209999C000012200019N0070001N1-01911-02301104641ADDGA1001+999999999GF100991001001999999001001MD1710021+9999MW1041REMSYN060AAXX  31031 54259 41957 00000 11191 21230 40464 57002 70400;
0156542590999992000013106004+42100+124950FM-12+023599999V0202201N003012200019N0200001N1-01121-01781104391ADDAA199000021GA1001+999999999GF100991001001999999001001KA1999N-02711MD1710211+9999REMSYN064AAXX  31061 54259 32970 02203 11112 21178 40439 57021 333 21271;
0122542590999992000013109004+42100+124950FM-12+023599999V0209999C000012200019N0150001N1-01471-02011104371ADDGA1001+999999999GF100991001001999999001001MD1710061+9999REMSYN054AAXX  31091 54259 42965 00000 11147 21201 40437 57006;
0164542590999992000013112004+42100+124950FM-12+023599999V0209999C000012200019N0080001N1-01901-02151104411ADDAA199000091GA1001+999999999GF100991001001999999001001MD1410001+9999MW1041REMSYN060AAXX  31121 54259 31958 00000 11190 21215 40441 54000 70400;EQDQ01  00002PRCP99
0175542590999992000013118004+42100+124950FM-12+023599999V0209999C000012200019N0150001N1-02591-02771104281ADDAA199000091GA1001+999999999GF100991001001999999001001KA1999M-01091MD1710071+9999REMSYN064AAXX  31181 54259 32965 00000 11259 21277 40428 57007 333 11109;EQDQ01  00002PRCP99
0143542590999992000013121004+42100+124950FM-12+023599999V0209999C000012200019N0150001N1-02811-02991104121ADDAA124000791GA1001+999999999GF100991001001999999001001MD1710191+9999REMSYN064AAXX  31211 54259 42965 00000 11281 21299 40412 57019 333 79999;
0180542590999992000020100004+42100+124950FM-12+023599999V0209999C000012200019N0070001N1-02871-03071104121ADDAA199000091GA1001+999999999GF100991001001999999001001MD1710031-0601MW1041REMSYN076AAXX  01001 54259 31957 00000 11287 21307 40412 57003 70400 333 05652 92525;EQDQ01  00002PRCP99
0134542590999992000020103004+42100+124950FM-12+023599999V0209999C000012200019N0080001N1-01841-02301103891ADDGA1001+999999999GF100991001001999999001001MD1710181+9999MW1041REMSYN060AAXX  01031 54259 41958 00000 11184 21230 40389 57018 70400;
0175542590999992000020106004+42100+124950FM-12+023599999V0202201N002012200019N0300001N1-00831-01601103491ADDAA199000091GA1001+999999999GF100991001001999999001001KA1999N-02891MD1710341+9999REMSYN064AAXX  01061 54259 32980 02202 11083 21160 40349 57034 333 21289;EQDQ01  00002PRCP99
0112542590999992000020109004+42100+124950FM-12+023599999V0209999C000019999999N0200001N1-01111-01831103411ADDGF107991001001999999001021MD1710111+9999REMSYN060AAXX  01091 54259 42970 70000 11111 21183 40341 57011 80002;
0152542590999992000020112004+42100+124950FM-12+023599999V0209999C000012200019N0120001N1-01661-01971103471ADDAA199000091GA1001+999999999GF100991001001999999001001MD1210021+9999REMSYN054AAXX  01121 54259 32962 00000 11166 21197 40347 52002;EQDQ01  00002PRCP99
0175542590999992000020118004+42100+124950FM-12+023599999V0209999C000012200019N0150001N1-02241-02381103401ADDAA199000091GA1001+999999999GF100991001001999999001001KA1999M-00751MD1210021+9999REMSYN064AAXX  01181 54259 32965 00000 11224 21238 40340 52002 333 11075;EQDQ01  00002PRCP99
0122542590999992000020121004+42100+124950FM-12+023599999V0209999C000012200019N0150001N1-02461-02601103391ADDGA1001+999999999GF100991001001999999001001MD1710041+9999REMSYN054AAXX  01211 54259 42965 00000 11246 21260 40339 57004;
0170542590999992000020200004+42100+124950FM-12+023599999V0209999C000019999999N0060001N1-02541-02691103461ADDAA199000091GF105991001001999999001021MD1210031-0601MW1041REMSYN082AAXX  02001 54259 31956 50000 11254 21269 40346 52003 70400 80002 333 05603 92525;EQDQ01  00002PRCP99
0153542590999992000020203004+42100+124950FM-12+023599999V0209999C000012200019N0080001N1-01432-02001103361ADDGA1001+999999999GF100991001001999999001001MD1710051+9999MW1041REMSYN060AAXX  02031 54259 41958 00000 11143 21200 40336 57005 70400;EQDQ01-001433ATOT  
0175542590999992000020206004+42100+124950FM-12+023599999V0202201N004012200019N0250001N1-00531-01641103121ADDAA199000091GA1001+999999999GF100991001001999999001001KA1999N-02581MD1710191+9999REMSYN064AAXX  02061 54259 32975 02204 11053 21164 40312 57019 333 21258;EQDQ01  00002PRCP99
0122542590999992000020209004+42100+124950FM-12+023599999V0209999C000012200019N0200001N1-00821-01891103061ADDGA1001+999999999GF100991001001999999001001MD1710091+9999REMSYN054AAXX  02091 54259 42970 00000 11082 21189 40306 57009;
0152542590999992000020212004+42100+124950FM-12+023599999V0209999C000012200019N0120001N1-01441-01851103121ADDAA199000091GA1001+999999999GF100991001001999999001001MD1210011+9999REMSYN054AAXX  02121 54259 32962 00000 11144 21185 40312 52001;EQDQ01  00002PRCP99
0175542590999992000020218004+42100+124950FM-12+023599999V0209999C000012200019N0150001N1-02221-02381103071ADDAA199000091GA1001+999999999GF100991001001999999001001KA1999M-00481MD1710011+9999REMSYN064AAXX  02181 54259 32965 00000 11222 21238 40307 57001 333 11048;EQDQ01  00002PRCP99
0122542590999992000020221004+42100+124950FM-12+023599999V0209999C000012200019N0150001N1-02361-02521103071ADDGA1001+999999999GF100991001001999999001001MD1710031+9999REMSYN054AAXX  02211 54259 42965 00000 11236 21252 40307 57003;
0180542590999992000020300004+42100+124950FM-12+023599999V0209999C000012200019N0060001N1-02291-02451103141ADDAA199000091GA1001+999999999GF100991001001999999001001MD1210041-0301MW1041REMSYN076AAXX  03001 54259 31956 00000 11229 21245 40314 52004 70400 333 05303 92525;EQDQ01  00002PRCP99
0134542590999992000020303004+42100+124950FM-12+023599999V0209999C000012200019N0080001N1-01361-01871103061ADDGA1001+999999999GF100991001001999999001001MD1710051+9999MW1041REMSYN060AAXX  03031 54259 41958 00000 11136 21187 40306 57005 70400;
0099542590999992000020305004+42100+124950FM-12+023599999V0200201N999999999999N0150001N1-00671-01351103011ADDMD1210101+9999REMSYN054AAXX  03051 54259 42965 /0250 11067 21135 40301 52010;EQDQ01+005003WOSPD 
0165542590999992000020306004+42100+124950FM-12+023599999V0202201N004012200019N0200001N1-00511-01101102891ADDAA199000091GF101991001001999999001011KA1999N-02391MD1710131+9999REMSYN070AAXX  03061 54259 32970 12204 11051 21110 40289 57013 80001 333 21239;EQDQ01  00002PRCP99
0122542590999992000020309004+42100+124950FM-12+023599999V0202501N003012200019N0150001N1-00671-01351103011ADDGA1001+999999999GF100991001001999999001001MD1210101+9999REMSYN054AAXX  03091 54259 42965 02503 11067 21135 40301 52010;
0152542590999992000020312004+42100+124950FM-12+023599999V0209999C000012200019N0120001N1+99999+99999103241ADDAA199000091GA1001+999999999GF100991001001999999001001MD1210191+9999REMSYN054AAXX  03121 54259 32962 00000 16/21 21146 40324 52019;EQDQ01  00002PRCP99
0175542590999992000020318004+42100+124950FM-12+023599999V0209999C000012200019N0150001N1-01921-02091103341ADDAA199000091GA1001+999999999GF100991001001999999001001KA1999M-00411MD1210051+9999REMSYN064AAXX  03181 54259 32965 00000 11192 21209 40334 52005 333 11041;EQDQ01  00002PRCP99
0122542590999992000020321004+42100+124950FM-12+023599999V0209999C000012200019N0120001N1-02221-02381103411ADDGA1001+999999999GF100991001001999999001001MD1210041+9999REMSYN054AAXX  03211 54259 42962 00000 11222 21238 40341 52004;
0180542590999992000020400004+42100+124950FM-12+023599999V0209999C000012200019N0050001N1-02281-02401103551ADDAA199000091GA1001+999999999GF100991001001999999001001MD1210101+0401MW1041REMSYN076AAXX  04001 54259 31950 00000 11228 2124/ 40355 52010 70400 333 00400 92524;EQDQ01  00002PRCP99
0141542590999992000020403004+42100+124950FM-12+023599999V0209999C000012200019N0120001N1-01152-01741103411ADDGA1001+999999999GF100991001001999999001001MD1710101+9999REMSYN054AAXX  04031 54259 42962 00000 11115 21174 40341 57010;EQDQ01-001153ATOT  
0175542590999992000020406004+42100+124950FM-12+023599999V0202501N004012200019N0280001N1-00241-01411103161ADDAA199000091GA1001+999999999GF100991001001999999001001KA1999N-02331MD1710201+9999REMSYN064AAXX  04061 54259 32978 02504 11024 21141 40316 57020 333 21233;EQDQ01  00002PRCP99
0122542590999992000020409004+42100+124950FM-12+023599999V0209999C000012200019N0220001N1-00461-01431103181ADDGA1001+999999999GF100991001001999999001001MD1710011+9999REMSYN054AAXX  04091 54259 42972 00000 11046 21143 40318 57001;
0152542590999992000020412004+42100+124950FM-12+023599999V0209999C000012200019N0150001N1-01021-01481103281ADDAA199000091GA1001+999999999GF100991001001999999001001MD1210051+9999REMSYN054AAXX  04121 54259 32965 00000 11102 21148 40328 52005;EQDQ01  00002PRCP99
0175542590999992000020418004+42100+124950FM-12+023599999V0209999C000012200019N0150001N1-01751-01901103161ADDAA199000091GA1001+999999999GF100991001001999999001001KA1999M-00121MD1710081+9999REMSYN064AAXX  04181 54259 32965 00000 11175 21190 40316 57008 333 11012;EQDQ01  00002PRCP99
0116542590999992000020421004+42100+124950FM-12+023599999V0209999C000012200019N0120001N1+99999+99999103101ADDGA1001+999999999GF100991001001999999001001MD1710081+9999REMSYN048AAXX  04211 54259 42962 00000 21212 40310 57008;
0170542590999992000020500004+42100+124950FM-12+023599999V0209999C000012200019N0060001N1-02001-02141103101ADDAA199000091GF101991001001999999001021MD1710041-0401MW1041REMSYN082AAXX  05001 54259 31956 10000 11200 21214 40310 57004 70400 80002 333 05403 92523;EQDQ01  00002PRCP99
0143542590999992000020503004+42100+124950FM-12+023599999V0209999C000019999999N0080001N1-00772-02161102861ADDGF107991001001999999001021MD1710191+9999MW1041REMSYN066AAXX  05031 54259 41958 70000 11077 21216 40286 57019 70400 80002;EQDQ01-000773ATOT  
0165542590999992000020506004+42100+124950FM-12+023599999V0209999C000019999999N0150001N1-00171-01012102501ADDAA199000091GF107991001001999999001021KA1999N-02051MD1710321+9999REMSYN070AAXX  05061 54259 32965 70000 11017 21101 40250 57032 80002 333 21205;EQDQ01  00002PRCP99
0111542590999992000020509004+42100+124950FM-12+023599999V0209999C000019999999N0200001N1-00231-01031102501ADDGF107991001001999999001021MD1710021+9999REMSYN059AAXX  05091 54259 4297070000 11023 21103 40250 57002 80002;
0142542590999992000020512004+42100+124950FM-12+023599999V0209999C000010120019N0150001N1-00421-01021102511ADDAA199000091GF108991081051012501999999MD1410001+9999REMSYN060AAXX  05121 54259 32665 80000 11042 21102 40251 54000 885//;EQDQ01  00002PRCP99
0172542590999992000020518004+42100+124950FM-12+023599999V0209999C000010120019N0080001N1-00621-00781102301ADDAA106000391AY171061GF108991081051012501999999KA1999M-00061MD1710041+9999MW1701REMSYN082AAXX  05181 54259 11658 80000 11062 21078 40230 57004 69931 77070 885// 333 11006;
0161542590999992000020521004+42100+124950FM-12+023599999V0209999C000010360019N0080001N1-00661-00781102221ADDAA124001091AY171031AY271031GF108991041051012501021999MD1710091+9999MW1711REMSYN076AAXX  05211 54259 41658 80000 11066 21078 40222 57009 77177 8452/ 333 70010;
0173542590999992000020600004+42100+124950FM-12+023599999V0209999C000019999999N0050001N1+99999+99999102231ADDAA106001091AY171061AY271061GF108991081001999999021999MD1410001-0701MW1711REMSYN088AAXX  06001 54259 11950 80000 21081 40223 54000 60011 77177 8802/ 333 05713 70015 92525;
0140542590999992000020603004+42100+124950FM-12+023599999V0209999C000010120019N0080001N1-00421-00661102191ADDAY171031AY271031GF108991081001012501021999MD1710031+9999MW1711REMSYN066AAXX  06031 54259 41658 80000 11042 21066 40219 57003 77177 8802/;
0180542590999992000020606004+42100+124950FM-12+023599999V0202501N004019999999N0080001N1-00471-00601102101ADDAA106000391AY171061AY271061GF108991081001999999021999KA1999N-00701MD1710101+9999MW1711REMSYN082AAXX  06061 54259 11958 82504 11047 21060 40210 57010 69931 77177 8802/ 333 21070;
0140542590999992000020609004+42100+124950FM-12+023599999V0202501N003010120019N0100001N1-00711-00841102241ADDAY171031AY271031GF108991081051012501999999MD1210121+9999MW1701REMSYN066AAXX  06091 54259 41660 82503 11071 21084 40224 52012 77077 885//;
0157542590999992000020612004+42100+124950FM-12+023599999V0202201N003010120019N0080001N1-00781-01011102281ADDAA106000191AY171061AY271061GF108991081051012501999999MD1210041+9999MW1701REMSYN072AAXX  06121 54259 /1658 82203 11078 21101 40228 52004 69911 77077 885//;
0180542590999992000020618004+42100+124950FM-12+023599999V0209999C000010120019N0080001N1-00951-01121102271ADDAA106000791AY171061AY271061GF108991081051012501999999KA1999M-00321MD1210011+9999MW1701REMSYN082AAXX  06181 54259 11658 80000 11095 21112 40227 52001 69901 77077 885// 333 11032;
0153542590999992000020621004+42100+124950FM-12+023599999V0209999C000010120019N0100001N1-01201-01351102191ADDAA124001091AY171031GF108991081051012501999999MD1710101+9999MW1001REMSYN076AAXX  06211 54259 41660 80000 11120 21135 40219 57010 70070 885// 333 70009;
0171542590999992000020700004+42100+124950FM-12+023599999V0209999C000010120019N0080001N1-01361-01461102201ADDAA106000791AY171061GF107991071051012501999999MD1710011-0101MW1041REMSYN094AAXX  07001 54259 11658 70000 11136 21146 40220 57001 69901 70470 875// 333 05157 70004 92527;
0124542590999992000020703004+42100+124950FM-12+023599999V0202201N003012200019N0080001N1-00941-01371102001ADDGF102991001001999999001021MD1710171+9999MW1041REMSYN066AAXX  07031 54259 41958 22203 11094 21137 40200 57017 70400 80002;
0146542590999992000020706004+42100+124950FM-12+023599999V0202201N004010120019N0120001N1-00771-01251101781ADDAA199000021GF107991071051012501999999KA1999N-01381MD1710211+9999REMSYN070AAXX  07061 54259 32662 72204 11077 21125 40178 57021 875// 333 21138;
0112542590999992000020709004+42100+124950FM-12+023599999V0202901N004010120019N0300001N1-00971-01671101851ADDGF106991061051012501001001MD1210041+9999REMSYN060AAXX  07091 54259 42680 62904 11097 21167 40185 52004 86500;
0141542590999992000020712004+42100+124950FM-12+023599999V0209999C000010120019N0080001N1-01261-01541101981ADDAA106000791GF108991081051012501999999MD1210101+9999MW1701REMSYN072AAXX  07121 54259 11658 80000 11126 21154 40198 52010 69901 77000 885//;
0180542590999992000020718004+42100+124950FM-12+023599999V0209999C000010120019N0150001N1-01521-01711102141ADDAA106000791AY171061AY271061GF107991071051012501999999KA1999M-00731MD1210171+9999MW1701REMSYN082AAXX  07181 54259 11665 70000 11152 21171 40214 52017 69901 77077 875// 333 11073;
0161542590999992000020721004+42100+124950FM-12+023599999V0209999C000010120019N0150001N1-01741-01901102271ADDAA124000791AY171031AY271031GF107991071051012501999999MD1210101+9999MW1701REMSYN076AAXX  07211 54259 41665 70000 11174 21190 40227 52010 77077 875// 333 79999;
0179542590999992000020800004+42100+124950FM-12+023599999V0209999C000010120019N0150001N1-01741-01891102601ADDAA106000791AY171061AY271061GF106991061051012501001001MD1210301+0301MW1701REMSYN094AAXX  08001 54259 11665 60000 11174 21189 40260 52030 69901 77077 86500 333 00354 79999 92527;
0132542590999992000020803004+42100+124950FM-12+023599999V0202201N003012200019N0150001N1-01301-01681102621ADDAY171031GF104991041051012501001001MD1210041+9999MW1701REMSYN066AAXX  08031 54259 41665 42203 11130 21168 40262 52004 77070 84500;
0172542590999992000020806004+42100+124950FM-12+023599999V0202201N002012200019N0300001N1-00981-01691102511ADDAA106000791AY171061GF101991011051012501001001KA1999N-01791MD1710101+9999MW1001REMSYN082AAXX  08061 54259 11680 12202 11098 21169 40251 57010 69901 70070 81500 333 21179;
0122542590999992000020809004+42100+124950FM-12+023599999V0209999C000012200019N0300001N1-01201-02161102601ADDGA1001+999999999GF100991001001999999001001MD1210061+9999REMSYN054AAXX  08091 54259 42980 00000 11120 21216 40260 52006;
0133542590999992000020812004+42100+124950FM-12+023599999V0209999C000012200019N0150001N1-01681-02191102771ADDAA199000021GA1001+999999999GF100991001001999999001001MD1210141+9999REMSYN054AAXX  08121 54259 32965 00000 11168 21219 40277 52014;
0175542590999992000020818004+42100+124950FM-12+023599999V0209999C000012200019N0200001N1-02371-02551102791ADDAA199000091GA1001+999999999GF100991001001999999001001KA1999M-00901MD1210031+9999REMSYN064AAXX  08181 54259 32970 00000 11237 21255 40279 52003 333 11090;EQDQ01  00002PRCP99
0143542590999992000020821004+42100+124950FM-12+023599999V0209999C000012200019N0150001N1-02561-02741102781ADDAA124000791GA1001+999999999GF100991001001999999001001MD1710031+9999REMSYN064AAXX  08211 54259 42965 00000 11256 21274 40278 57003 333 79999;
0167542590999992000020900004+42100+124950FM-12+023599999V0209999C000012200019N0070001N1-02571-02771102811ADDAA124000791GA1001+999999999GF100991001001999999001001MD1410001+0101MW1041REMSYN082AAXX  09001 54259 31957 00000 11257 21277 40281 54000 70400 333 00158 79999 92525;
0122542590999992000020903004+42100+124950FM-12+023599999V0209999C000012200019N0150001N1-01551-02151102661ADDGA1001+999999999GF100991001001999999001001MD1710111+9999REMSYN054AAXX  09031 54259 42965 00000 11155 21215 40266 57011;
0175542590999992000020906004+42100+124950FM-12+023599999V0202201N004012200019N0300001N1-00691-01801102451ADDAA199000091GA1001+999999999GF100991001001999999001001KA1999N-02601MD1710171+9999REMSYN064AAXX  09061 54259 32980 02204 11069 21180 40245 57017 333 21260;EQDQ01  00002PRCP99
0122542590999992000020909004+42100+124950FM-12+023599999V0209999C000012200019N0250001N1-01011-02031102471ADDGA1001+999999999GF100991001001999999001001MD1710011+9999REMSYN054AAXX  09091 54259 42975 00000 11101 21203 40247 57001;
0152542590999992000020912004+42100+124950FM-12+023599999V0209999C000012200019N0150001N1-01511-02011102571ADDAA199000091GA1001+999999999GF100991001001999999001001MD1210061+9999REMSYN054AAXX  09121 54259 32965 00000 11151 21201 40257 52006;EQDQ01  00002PRCP99
0175542590999992000020918004+42100+124950FM-12+023599999V0209999C000012200019N0200001N1-02201-02371102461ADDAA199000091GA1001+999999999GF100991001001999999001001KA1999M-00631MD1710031+9999REMSYN064AAXX  09181 54259 32970 00000 11220 21237 40246 57003 333 11063;EQDQ01  00002PRCP99
0122542590999992000020921004+42100+124950FM-12+023599999V0209999C000012200019N0150001N1-02321-02481102441ADDGA1001+999999999GF100991001001999999001001MD1710051+9999REMSYN054AAXX  09211 54259 42965 00000 11232 21248 40244 57005;
0158542590999992000021000004+42100+124950FM-12+023599999V0209999C000019999999N0120001N1-02221-02401102461ADDAA199000091GF106991001001999999001021MD1410001-0301REMSYN076AAXX  10001 54259 32962 60000 11222 21240 40246 54000 80002 333 05304 92525;EQDQ01  00002PRCP99
0141542590999992000021003004+42100+124950FM-12+023599999V0209999C000012200019N0120001N1-00912-01581102251ADDGA1001+999999999GF100991001001999999001001MD1710151+9999REMSYN054AAXX  10031 54259 42962 00000 11091 21158 40225 57015;EQDQ01-000913ATOT  
0165542590999992000021006004+42100+124950FM-12+023599999V0202501N003012200019N0300001N1-00161-01501101921ADDAA199000091GF101991001001999999001011KA1999N-02321MD1710291+9999REMSYN070AAXX  10061 54259 32980 12503 11016 21150 40192 57029 80001 333 21232;EQDQ01  00002PRCP99
0122542590999992000021009004+42100+124950FM-12+023599999V0209999C000012200019N0200001N1-00401-01381101931ADDGA1001+999999999GF100991001001999999001001MD1710011+9999REMSYN054AAXX  10091 54259 42970 00000 11040 21138 40193 57001;
0152542590999992000021012004+42100+124950FM-12+023599999V0209999C000012200019N0150001N1-01011-01331102041ADDAA199000091GA1001+999999999GF100991001001999999001001MD1210071+9999REMSYN054AAXX  10121 54259 32965 00000 11101 21133 40204 52007;EQDQ01  00002PRCP99
0165542590999992000021018004+42100+124950FM-12+023599999V0209999C000010120019N0150001N1-01211-01411102031ADDAA199000091GF107991071051012501999999KA1999M-00091MD1210031+9999REMSYN070AAXX  10181 54259 32665 70000 11121 21141 40203 52003 875// 333 11009;EQDQ01  00002PRCP99
0112542590999992000021021004+42100+124950FM-12+023599999V0209999C000010120019N0120001N1-01451-01731102051ADDGF107991071051012501999999MD1710011+9999REMSYN060AAXX  10211 54259 42662 70000 11145 21173 40205 57001 875//;
0170542590999992000021100004+42100+124950FM-12+023599999V0209999C000010120019N0050001N1-01311-01471102171ADDAA199000091GF107991071051012501999999MD1210091-0201MW1041REMSYN082AAXX  11001 54259 31650 70000 11131 21147 40217 52009 70400 875// 333 05209 92524;EQDQ01  00002PRCP99
0112542590999992000021103004+42100+124950FM-12+023599999V0202501N005012200019N0150001N1-00421-00741102101ADDGF102991001001999999001021MD1710031+9999REMSYN060AAXX  11031 54259 42965 22505 11042 21074 40210 57003 80002;
0175542590999992000021106004+42100+124950FM-12+023599999V0202501N005012200019N0300001N1-00131-00961101971ADDAA199000091GA1001+999999999GF100991001001999999001001KA1999N-01471MD1710111+9999REMSYN064AAXX  11061 54259 32980 02505 11013 21096 40197 57011 333 21147;EQDQ01  00002PRCP99
0122542590999992000021109004+42100+124950FM-12+023599999V0202201N001012200019N0200001N1-00371-01201101891ADDGA1001+999999999GF100991001001999999001001MD1710101+9999REMSYN054AAXX  11091 54259 42970 02201 11037 21120 40189 57010;
0152542590999992000021112004+42100+124950FM-12+023599999V0209999C000012200019N0180001N1-00741-01161101911ADDAA199000091GA1001+999999999GF100991001001999999001001MD1210011+9999REMSYN054AAXX  11121 54259 32968 00000 11074 21116 40191 52001;EQDQ01  00002PRCP99
0175542590999992000021118004+42100+124950FM-12+023599999V0209999C000012200019N0150001N1-01251-01371101931ADDAA199000091GA1001+999999999GF100991001001999999001001KA1999M-00091MD1210071+9999REMSYN064AAXX  11181 54259 32965 00000 11125 21137 40193 52007 333 11009;EQDQ01  00002PRCP99
0122542590999992000021121004+42100+124950FM-12+023599999V0209999C000012200019N0150001N1-01461-01551102111ADDGA1001+999999999GF100991001001999999001001MD1210151+9999REMSYN054AAXX  11211 54259 42965 00000 11146 21155 40211 52015;
0180542590999992000021200004+42100+124950FM-12+023599999V0209999C000012200019N0080001N1-01471-01591102351ADDAA199000091GA1001+999999999GF100991001001999999001001MD1210211+0201MW1041REMSYN076AAXX  12001 54259 31958 00000 11147 21159 40235 52021 70400 333 00252 92523;EQDQ01  00002PRCP99
0122542590999992000021203004+42100+124950FM-12+023599999V0200701N003012200019N0150001N1-00421-01181102351ADDGA1001+999999999GF100991001001999999001001MD1210041+9999REMSYN054AAXX  12031 54259 42965 00703 11042 21118 40235 52004;
0175542590999992000021206004+42100+124950FM-12+023599999V0200701N003012200019N0300001N1-00231-01251102171ADDAA199000091GA1001+999999999GF100991001001999999001001KA1999N-01571MD1710171+9999REMSYN064AAXX  12061 54259 32980 00703 11023 21125 40217 57017 333 21157;EQDQ01  00002PRCP99
0112542590999992000021209004+42100+124950FM-12+023599999V0200401N002012200019N0250001N1-00431-01371102291ADDGF102991001001999999001021MD1210091+9999REMSYN060AAXX  12091 54259 42975 20402 11043 21137 40229 52009 80002;
0152542590999992000021212004+42100+124950FM-12+023599999V0209999C000012200019N0150001N1-00891-01551102451ADDAA199000091GA1001+999999999GF100991001001999999001001MD1210131+9999REMSYN054AAXX  12121 54259 32965 00000 11089 21155 40245 52013;EQDQ01  00002PRCP99
0175542590999992000021218004+42100+124950FM-12+023599999V0209999C000012200019N0150001N1-01581-01801102561ADDAA199000091GA1001+999999999GF100991001001999999001001KA1999M-00191MD1210091+9999REMSYN064AAXX  12181 54259 32965 00000 11158 21180 40256 52009 333 11019;EQDQ01  00002PRCP99
0112542590999992000021221004+42100+124950FM-12+023599999V0209999C000019999999N0150001N1-01531-01761102501ADDGF107991001001999999001021MD1710071+9999REMSYN060AAXX  12211 54259 42965 70000 11153 21176 40250 57007 80002;
0170542590999992000021300004+42100+124950FM-12+023599999V0209999C000010120019N0080001N1-01391-01631102491ADDAA199000091GF108991081051012501999999MD1710021+0101MW1041REMSYN082AAXX  13001 54259 31658 80000 11139 21163 40249 57002 70400 885// 333 00101 92522;EQDQ01  00002PRCP99
0124542590999992000021303004+42100+124950FM-12+023599999V0209999C000019999999N0080001N1-00771-01371102431ADDGF107991001001999999001021MD1710051+9999MW1041REMSYN066AAXX  13031 54259 41958 70000 11077 21137 40243 57005 70400 80002;
0165542590999992000021306004+42100+124950FM-12+023599999V0209999C000019999999N0220001N1-00301-01321102221ADDAA199000091GF107991001001999999001021KA1999N-01581MD1710191+9999REMSYN070AAXX  13061 54259 32972 70000 11030 21132 40222 57019 80002 333 21158;EQDQ01  00002PRCP99
0112542590999992000021309004+42100+124950FM-12+023599999V0203401N003012200019N0280001N1-00461-01561102181ADDGF101991001001999999001021MD1710051+9999REMSYN060AAXX  13091 54259 42978 13403 11046 21156 40218 57005 80002;
0152542590999992000021312004+42100+124950FM-12+023599999V0209999C000012200019N0180001N1-00961-01661102241ADDAA199000091GA1001+999999999GF100991001001999999001001MD1210041+9999REMSYN054AAXX  13121 54259 32968 00000 11096 21166 40224 52004;EQDQ01  00002PRCP99
0175542590999992000021318004+42100+124950FM-12+023599999V0209999C000012200019N0150001N1-01741-01931102341ADDAA199000091GA1001+999999999GF100991001001999999001001KA1999M-00231MD1410001+9999REMSYN064AAXX  13181 54259 32965 00000 11174 21193 40234 54000 333 11023;EQDQ01  00002PRCP99
0122542590999992000021321004+42100+124950FM-12+023599999V0209999C000012200019N0150001N1-02081-02231102281ADDGA1001+999999999GF100991001001999999001001MD1710081+9999REMSYN054AAXX  13211 54259 42965 00000 11208 21223 40228 57008;
0180542590999992000021400004+42100+124950FM-12+023599999V0209999C000012200019N0060001N1-02131-02251102331ADDAA199000091GA1001+999999999GF100991001001999999001001MD1210011-0201MW1041REMSYN076AAXX  14001 54259 31956 00000 11213 21225 40233 52001 70400 333 05257 92521;EQDQ01  00002PRCP99
0141542590999992000021403004+42100+124950FM-12+023599999V0202201N003012200019N0200001N1-01032-01541102141ADDGA1001+999999999GF100991001001999999001001MD1710141+9999REMSYN054AAXX  14031 54259 42970 02203 11103 21154 40214 57014;EQDQ01-001033ATOT  
0165542590999992000021406004+42100+124950FM-12+023599999V0202501N005012200019N0300001N1-00721-01771101921ADDAA199000091GF101991011051012501001001KA1999N-02191MD1710221+9999REMSYN070AAXX  14061 54259 32680 12505 11072 21177 40192 57022 81500 333 21219;EQDQ01  00002PRCP99
0131542590999992000021409004+42100+124950FM-12+023599999V0202501N003012200019N0250001N1+99999+99999102061ADDGF102991021051012501001001MD1210101+9999REMSYN060AAXX  14091 54259 42675 22503 11610 21196 40206 52010 82500;EQDQ01-006103ATOT  
0152542590999992000021412004+42100+124950FM-12+023599999V0209999C000012200019N0150001N1-01471-01881102151ADDAA199000091GA1001+999999999GF100991001001999999001001MD1210061+9999REMSYN054AAXX  14121 54259 32965 00000 11147 21188 40215 52006;EQDQ01  00002PRCP99
0172542590999992000021418004+42100+124950FM-12+023599999V0209999C000012200019N0150001N1-01881-02041102081ADDAA106000791AY171061GF102991021051012501001001KA1999M-00671MD1410001+9999MW1001REMSYN082AAXX  14181 54259 11665 20000 11188 21204 40208 54000 69901 70070 82500 333 11067;
0143542590999992000021421004+42100+124950FM-12+023599999V0209999C000012200019N0150001N1-02101-02221102051ADDAA124000791GA1001+999999999GF100991001001999999001001MD1710071+9999REMSYN064AAXX  14211 54259 42965 00000 11210 21222 40205 57007 333 79999;
0155542590999992000021500004+42100+124950FM-12+023599999V0209999C000012200019N0150001N1-02001-02141102101ADDAA124000791GA1001+999999999GF100991001001999999001001MD1210041-0201REMSYN076AAXX  15001 54259 32965 00000 11200 21214 40210 52004 333 05201 79999 92521;
0112542590999992000021503004+42100+124950FM-12+023599999V0202001N006019999999N0300001N1-01141-01831102081ADDGF106991001001999999001021MD1210021+9999REMSYN060AAXX  15031 54259 42980 62006 11114 21183 40208 52002 80002;
0165542590999992000021506004+42100+124950FM-12+023599999V0202501N007012200019N0300001N1-00971-02001101951ADDAA199000091GF103991031051012501001001KA1999N-02151MD1710131+9999REMSYN070AAXX  15061 54259 32680 32507 11097 21200 40195 57013 83500 333 21215;EQDQ01  00002PRCP99
0112542590999992000021509004+42100+124950FM-12+023599999V0202201N005012200019N0300001N1-01011-01731101981ADDGF102991021051012501001001MD1210011+9999REMSYN060AAXX  15091 54259 42680 22205 11101 21173 40198 52001 82500;
0142542590999992000021512004+42100+124950FM-12+023599999V0209999C000012200019N0150001N1-01271-01471102061ADDAA199000091GF103991001001999999001021MD1210071+9999REMSYN060AAXX  15121 54259 32965 30000 11127 21147 40206 52007 80002;EQDQ01  00002PRCP99
0175542590999992000021518004+42100+124950FM-12+023599999V0209999C000012200019N0200001N1-01811-01941102131ADDAA199000091GA1001+999999999GF100991001001999999001001KA1999M-00911MD1210091+9999REMSYN064AAXX  15181 54259 32970 00000 11181 21194 40213 52009 333 11091;EQDQ01  00002PRCP99
0122542590999992000021521004+42100+124950FM-12+023599999V0209999C000012200019N0200001N1-02071-02201102231ADDGA1001+999999999GF100991001001999999001001MD1210081+9999REMSYN054AAXX  15211 54259 42970 00000 11207 21220 40223 52008;
0168542590999992000021600004+42100+124950FM-12+023599999V0209999C000012200019N0120001N1-02071-02201102531ADDAA199000091GA1001+999999999GF100991001001999999001001MD1210271+0401REMSYN070AAXX  16001 54259 32962 00000 11207 21220 40253 52027 333 00451 92521;EQDQ01  00002PRCP99
0112542590999992000021603004+42100+124950FM-12+023599999V0202501N002019999999N0180001N1-01121-01741102511ADDGF107991001001999999001021MD1210021+9999REMSYN060AAXX  16031 54259 42968 72502 11112 21174 40251 52002 80002;
0165542590999992000021606004+42100+124950FM-12+023599999V0202201N005010120019N0300001N1-00751-01531102411ADDAA199000091GF106991061051012501001021KA1999N-02121MD1710091+9999REMSYN070AAXX  16061 54259 32680 62205 11075 21153 40241 57009 86502 333 21212;EQDQ01  00002PRCP99
0112542590999992000021609004+42100+124950FM-12+023599999V0209999C000012200019N0280001N1-00891-01691102451ADDGF101991011051012501001001MD1210021+9999REMSYN060AAXX  16091 54259 42678 10000 11089 21169 40245 52002 81500;
0152542590999992000021612004+42100+124950FM-12+023599999V0209999C000012200019N0120001N1-01391-01881102571ADDAA199000091GA1001+999999999GF100991001001999999001001MD1210081+9999REMSYN054AAXX  16121 54259 32962 00000 11139 21188 40257 52008;EQDQ01  00002PRCP99
0175542590999992000021618004+42100+124950FM-12+023599999V0209999C000012200019N0150001N1-02081-02241102671ADDAA199000091GA1001+999999999GF100991001001999999001001KA1999M-00711MD1210061+9999REMSYN064AAXX  16181 54259 32965 00000 11208 21224 40267 52006 333 11071;EQDQ01  00002PRCP99
0122542590999992000021621004+42100+124950FM-12+023599999V0209999C000012200019N0150001N1-02261-02421102721ADDGA1001+999999999GF100991001001999999001001MD1210031+9999REMSYN054AAXX  16211 54259 42965 00000 11226 21242 40272 52003;
0180542590999992000021700004+42100+124950FM-12+023599999V0209999C000012200019N0050001N1-02261-02421102931ADDAA199000091GA1001+999999999GF100991001001999999001001MD1210171+0401MW1041REMSYN076AAXX  17001 54259 31950 00000 11226 21242 40293 52017 70400 333 00452 92521;EQDQ01  00002PRCP99
0141542590999992000021703004+42100+124950FM-12+023599999V0202201N005012200019N0150001N1-01022-01531102871ADDGA1001+999999999GF100991001001999999001001MD1710011+9999REMSYN054AAXX  17031 54259 42965 02205 11102 21153 40287 57001;EQDQ01-001023ATOT  
0175542590999992000021706004+42100+124950FM-12+023599999V0202201N003012200019N0300001N1-00621-01591102731ADDAA199000091GA1001+999999999GF100991001001999999001001KA1999N-02341MD1710131+9999REMSYN064AAXX  17061 54259 32980 02203 11062 21159 40273 57013 333 21234;EQDQ01  00002PRCP99
0122542590999992000021709004+42100+124950FM-12+023599999V0202701N002012200019N0300001N1-00791-01831102781ADDGA1001+999999999GF100991001001999999001001MD1210031+9999REMSYN054AAXX  17091 54259 42980 02702 11079 21183 40278 52003;
0152542590999992000021712004+42100+124950FM-12+023599999V0209999C000012200019N0250001N1-01271-01941103001ADDAA199000091GA1001+999999999GF100991001001999999001001MD1210191+9999REMSYN054AAXX  17121 54259 32975 00000 11127 21194 40300 52019;EQDQ01  00002PRCP99
0175542590999992000021718004+42100+124950FM-12+023599999V0209999C000012200019N0150001N1-02081-02251103041ADDAA199000091GA1001+999999999GF100991001001999999001001KA1999M-00601MD1210051+9999REMSYN064AAXX  17181 54259 32965 00000 11208 21225 40304 52005 333 11060;EQDQ01  00002PRCP99
0122542590999992000021721004+42100+124950FM-12+023599999V0209999C000012200019N0150001N1-02221-02401103071ADDGA1001+999999999GF100991001001999999001001MD1210011+9999REMSYN054AAXX  17211 54259 42965 00000 11222 21240 40307 52001;
0180542590999992000021800004+42100+124950FM-12+023599999V0209999C000012200019N0070001N1-02221-02381103131ADDAA199000091GA1001+999999999GF100991001001999999001001MD1210031+0201MW1041REMSYN076AAXX  18001 54259 31957 00000 11222 21238 40313 52003 70400 333 00200 92521;EQDQ01  00002PRCP99
0141542590999992000021803004+42100+124950FM-12+023599999V0209999C000012200019N0140001N1-01012-01601103001ADDGA1001+999999999GF100991001001999999001001MD1710081+9999REMSYN054AAXX  18031 54259 42964 00000 11101 21160 40300 57008;EQDQ01-001013ATOT  
0175542590999992000021806004+42100+124950FM-12+023599999V0202201N002012200019N0300001N1-00361-01311102671ADDAA199000091GA1001+999999999GF100991001001999999001001KA1999N-02331MD1710301+9999REMSYN064AAXX  18061 54259 32980 02202 11036 21131 40267 57030 333 21233;EQDQ01  00002PRCP99
0152542590999992000021812004+42100+124950FM-12+023599999V0209999C000012200019N0180001N1-00981-01431102571ADDAA199000091GA1001+999999999GF100991001001999999001001MD1710041+9999REMSYN054AAXX  18121 54259 32968 00000 11098 21143 40257 57004;EQDQ01  00002PRCP99
0095542590999992000021818004+42100+124950FM-12+023599999V02099999999999999999N0008001N1+99999+99999999999ADDAA199000091KA1999M-00251REMSYN040AAXX  18181 54259 32808 ///// 333 11025;EQDQ01  00002PRCP99
0163542590999992000021900004+42100+124950FM-12+023599999V0209999C000010120019N0080001N1-01141-01371102031ADDAA106000791GF108991081051012501999999MD1710041-1001MW1701REMSYN094AAXX  19001 54259 11658 80000 11114 21137 40203 57004 69901 77000 885// 333 06011 79999 92521;
0172542590999992000021906004+42100+124950FM-12+023599999V0203201N004010120019N0250001N1-00201-01031101911ADDAA106000791AY171061GF105991051051012501001001KA1999N-01441MD1710061+9999MW1001REMSYN082AAXX  19061 54259 11675 53204 11020 21103 40191 57006 69901 70070 85500 333 21144;
0112542590999992000021909004+42100+124950FM-12+023599999V0203201N002012200019N0300001N1-00461-01241102011ADDGF102991021051012501001001MD1210091+9999REMSYN060AAXX  19091 54259 42680 23202 11046 21124 40201 52009 82500;
0133542590999992000021912004+42100+124950FM-12+023599999V0209999C000012200019N0180001N1-00891-01251102211ADDAA199000021GA1001+999999999GF100991001001999999001001MD1210181+9999REMSYN054AAXX  19121 54259 32968 00000 11089 21125 40221 52018;
0175542590999992000021918004+42100+124950FM-12+023599999V0209999C000012200019N0120001N1-01601-01731102211ADDAA199000091GA1001+999999999GF100991001001999999001001KA1999M-00151MD1210021+9999REMSYN064AAXX  19181 54259 32962 00000 11160 21173 40221 52002 333 11015;EQDQ01  00002PRCP99
0143542590999992000021921004+42100+124950FM-12+023599999V0209999C000012200019N0120001N1-01851-01971102211ADDAA124000791GA1001+999999999GF100991001001999999001001MD1710031+9999REMSYN064AAXX  19211 54259 42962 00000 11185 21197 40221 57003 333 79999;
0157542590999992000022000004+42100+124950FM-12+023599999V0209999C000010120019N0060001N1-01831-01981102291ADDAA124000791GF108991081051012501999999MD1210061+0201MW1041REMSYN088AAXX  20001 54259 31656 80000 11183 21198 40229 52006 70400 885// 333 00257 79999 92520;
0142542590999992000022003004+42100+124950FM-12+023599999V0202201N003012200019N0110001N1-00811-01151102191ADDAY171031GA1001+999999999GF100991001001999999001001MD1710061+9999MW1001REMSYN060AAXX  20031 54259 41961 02203 11081 21115 40219 57006 70070;
0172542590999992000022006004+42100+124950FM-12+023599999V0202201N004012200019N0250001N1-00461-01301102011ADDAA106000791AY171061GF101991011051012501001001KA1999N-01941MD1710181+9999MW1001REMSYN082AAXX  20061 54259 11675 12204 11046 21130 40201 57018 69901 70070 81500 333 21194;
0122542590999992000022009004+42100+124950FM-12+023599999V0202701N004012200019N0300001N1-00691-01641102121ADDGA1001+999999999GF100991001001999999001001MD1210081+9999REMSYN054AAXX  20091 54259 42980 02704 11069 21164 40212 52008;
0152542590999992000022012004+42100+124950FM-12+023599999V0209999C000012200019N0150001N1-01161-01681102341ADDAA199000091GA1001+999999999GF100991001001999999001001MD1210191+9999REMSYN054AAXX  20121 54259 32965 00000 11116 21168 40234 52019;EQDQ01  00002PRCP99
0175542590999992000022018004+42100+124950FM-12+023599999V0209999C000012200019N0200001N1-01851-02011102421ADDAA199000091GA1001+999999999GF100991001001999999001001KA1999M-00381MD1210091+9999REMSYN064AAXX  20181 54259 32970 00000 11185 21201 40242 52009 333 11038;EQDQ01  00002PRCP99
0143542590999992000022021004+42100+124950FM-12+023599999V0209999C000012200019N0200001N1-02051-02171102451ADDAA124000791GA1001+999999999GF100991001001999999001001MD1410001+9999REMSYN064AAXX  20211 54259 42970 00000 11205 21217 40245 54000 333 79999;
0167542590999992000022100004+42100+124950FM-12+023599999V0209999C000012200019N0080001N1-02001-02121102581ADDAA124000791GA1001+999999999GF100991001001999999001001MD1210101+0301MW1041REMSYN082AAXX  21001 54259 31958 00000 11200 21212 40258 52010 70400 333 00352 79999 92517;
0141542590999992000022103004+42100+124950FM-12+023599999V0202501N002012200019N0150001N1-00732-01261102521ADDGA1001+999999999GF100991001001999999001001MD1410001+9999REMSYN054AAXX  21031 54259 42965 02502 11073 21126 40252 54000;EQDQ01-000733ATOT  
0152542590999992000022106004+42100+124950FM-12+023599999V0202201N004012200019N0280001N1-00391-01431102471ADDAA199000091GA1001+999999999GF100991001001999999001001MD1710051+9999REMSYN054AAXX  21061 54259 32978 02204 11039 21143 40247 57005;EQDQ01  00002PRCP99
0122542590999992000022109004+42100+124950FM-12+023599999V0202701N003012200019N0280001N1-00561-01691102511ADDGA1001+999999999GF100991001001999999001001MD1210021+9999REMSYN054AAXX  21091 54259 42978 02703 11056 21169 40251 52002;
0152542590999992000022112004+42100+124950FM-12+023599999V0209999C000012200019N0150001N1-01061-01621102671ADDAA199000091GA1001+999999999GF100991001001999999001001MD1210121+9999REMSYN054AAXX  21121 54259 32965 00000 11106 21162 40267 52012;EQDQ01  00002PRCP99
0175542590999992000022118004+42100+124950FM-12+023599999V0209999C000012200019N0200001N1-01801-01981102801ADDAA199000091GA1001+999999999GF100991001001999999001001KA1999M-00341MD1210081+9999REMSYN064AAXX  21181 54259 32970 00000 11180 21198 40280 52008 333 11034;EQDQ01  00002PRCP99
0122542590999992000022121004+42100+124950FM-12+023599999V0209999C000012200019N0180001N1-01991-02131102791ADDGA1001+999999999GF100991001001999999001001MD1710031+9999REMSYN054AAXX  21211 54259 42968 00000 11199 21213 40279 57003;
0180542590999992000022200004+42100+124950FM-12+023599999V0209999C000012200019N0070001N1-01921-02081102821ADDAA199000091GA1001+999999999GF100991001001999999001001MD1410001+0201MW1041REMSYN076AAXX  22001 54259 31957 00000 11192 21208 40282 54000 70400 333 00201 92514;EQDQ01  00002PRCP99
0141542590999992000022203004+42100+124950FM-12+023599999V0202001N003012200019N0300001N1-00612-01141102711ADDGA1001+999999999GF100991001001999999001001MD1710051+9999REMSYN054AAXX  22031 54259 42980 02003 11061 21114 40271 57005;EQDQ01-000613ATOT  
0165542590999992000022206004+42100+124950FM-12+023599999V0202201N005019999999N0300001N1-00281-01171102561ADDAA199000091GF107991001001999999001021KA1999N-02051MD1710151+9999REMSYN070AAXX  22061 54259 32980 72205 11028 21117 40256 57015 80002 333 21205;EQDQ01  00002PRCP99
0112542590999992000022209004+42100+124950FM-12+023599999V0202701N003019999999N0280001N1-00311-01481102501ADDGF106991001001999999001021MD1710071+9999REMSYN060AAXX  22091 54259 42978 62703 11031 21148 40250 57007 80002;
0152542590999992000022212004+42100+124950FM-12+023599999V0209999C000012200019N0150001N1-00691-01051102511ADDAA199000091GA1001+999999999GF100991001001999999001001MD1410001+9999REMSYN054AAXX  22121 54259 32965 00000 11069 21105 40251 54000;EQDQ01  00002PRCP99
0175542590999992000022218004+42100+124950FM-12+023599999V0209999C000012200019N0120001N1-01411-01531102481ADDAA199000091GA1001+999999999GF100991001001999999001001KA1999M-00181MD1710011+9999REMSYN064AAXX  22181 54259 32962 00000 11141 21153 40248 57001 333 11018;EQDQ01  00002PRCP99
0153542590999992000022221004+42100+124950FM-12+023599999V0209999C000010120019N0080001N1-01251-01361102501ADDAA124000591AY171031GF108991081051012501999999MD1210031+9999MW1701REMSYN076AAXX  22211 54259 41658 80000 11125 21136 40250 52003 77070 885// 333 70005;
0181542590999992000022300004+42100+124950FM-12+023599999V0209999C000012200019N0200001N1-01221-01381102671ADDAA106000591AY171061GA1001+999999999GF100991001001999999001001MD1210141-0101MW1001REMSYN088AAXX  23001 54259 11970 00000 11122 21138 40267 52014 69951 70070 333 05107 70005 92512;
0122542590999992000022303004+42100+124950FM-12+023599999V0202201N002012200019N0300001N1-00601-01481102701ADDGA1001+999999999GF100991001001999999001001MD1210041+9999REMSYN054AAXX  23031 54259 42980 02202 11060 21148 40270 52004;
0146542590999992000022306004+42100+124950FM-12+023599999V0202201N005012200019N0300001N1-00561-01781102661ADDAA199000021GF101991011011008001001001KA1999N-01441MD1710051+9999REMSYN070AAXX  23061 54259 32580 12205 11056 21178 40266 57005 81100 333 21144;
0112542590999992000022309004+42100+124950FM-12+023599999V0203201N003012200019N0300001N1-00741-01901102701ADDGF101991011011008001001001MD1210041+9999REMSYN060AAXX  23091 54259 42580 13203 11074 21190 40270 52004 81100;
0152542590999992000022312004+42100+124950FM-12+023599999V0209999C000012200019N0150001N1-01111-01651102821ADDAA199000091GA1001+999999999GF100991001001999999001001MD1210091+9999REMSYN054AAXX  23121 54259 32965 00000 11111 21165 40282 52009;EQDQ01  00002PRCP99
0175542590999992000022318004+42100+124950FM-12+023599999V0209999C000012200019N0150001N1-01851-01991103041ADDAA199000091GA1001+999999999GF100991001001999999001001KA1999M-00511MD1210121+9999REMSYN064AAXX  23181 54259 32965 00000 11185 21199 40304 52012 333 11051;EQDQ01  00002PRCP99
0143542590999992000022321004+42100+124950FM-12+023599999V0209999C000012200019N0150001N1-02051-02181103081ADDAA124000791GA1001+999999999GF100991001001999999001001MD1210021+9999REMSYN064AAXX  23211 54259 42965 00000 11205 21218 40308 52002 333 79999;
0180542590999992000022400004+42100+124950FM-12+023599999V0209999C000012200019N0070001N1-01981-02101103251ADDAA199000091GA1001+999999999GF100991001001999999001001MD1210141+0501MW1041REMSYN076AAXX  24001 54259 31957 00000 11198 21210 40325 52014 70400 333 00558 92509;EQDQ01  00002PRCP99
0141542590999992000022403004+42100+124950FM-12+023599999V0202201N004012200019N0250001N1-00852-01561103211ADDGA1001+999999999GF100991001001999999001001MD1210011+9999REMSYN054AAXX  24031 54259 42975 02204 11085 21156 40321 52001;EQDQ01-000853ATOT  
0165542590999992000022406004+42100+124950FM-12+023599999V0202201N005012200019N0300001N1-00511-01461103081ADDAA199000091GF101991011011008001001001KA1999N-02051MD1710131+9999REMSYN070AAXX  24061 54259 32580 12205 11051 21146 40308 57013 81100 333 21205;EQDQ01  00002PRCP99
0122542590999992000022409004+42100+124950FM-12+023599999V0202901N002012200019N0300001N1-00701-01821103051ADDGA1001+999999999GF100991001001999999001001MD1710051+9999REMSYN054AAXX  24091 54259 42980 02902 11070 21182 40305 57005;
0152542590999992000022412004+42100+124950FM-12+023599999V0209999C000012200019N0200001N1-01201-01871103101ADDAA199000091GA1001+999999999GF100991001001999999001001MD1210021+9999REMSYN054AAXX  24121 54259 32970 00000 11120 21187 40310 52002;EQDQ01  00002PRCP99
0175542590999992000022418004+42100+124950FM-12+023599999V0209999C000012200019N0150001N1-01861-02071103071ADDAA199000091GA1001+999999999GF100991001001999999001001KA1999M-00511MD1210011+9999REMSYN064AAXX  24181 54259 32965 00000 11186 21207 40307 52001 333 11051;EQDQ01  00002PRCP99
0122542590999992000022421004+42100+124950FM-12+023599999V0209999C000012200019N0150001N1-02021-02191102791ADDGA1001+999999999GF100991001001999999001001MD1710291+9999REMSYN054AAXX  24211 54259 42965 00000 11202 21219 40279 57029;
0170542590999992000022500004+42100+124950FM-12+023599999V0209999C000019999999N0080001N1-01891-02081102791ADDAA199000091GF107991001001999999001021MD1710021-0401MW1041REMSYN082AAXX  25001 54259 31958 70000 11189 21208 40279 57002 70400 80002 333 05401 92508;EQDQ01  00002PRCP99
0131542590999992000022503004+42100+124950FM-12+023599999V0209999C000019999999N0120001N1-00732-01261102491ADDGF107991001001999999001021MD1710241+9999REMSYN060AAXX  25031 54259 42962 70000 11073 21126 40249 57024 80002;EQDQ01-000733ATOT  
0165542590999992000022506004+42100+124950FM-12+023599999V0202001N002019999999N0300001N1-00021-01081102121ADDAA199000091GF107991001001999999001021KA1999N-02051MD1710341+9999REMSYN070AAXX  25061 54259 32980 72002 11002 21108 40212 57034 80002 333 21205;EQDQ01  00002PRCP99
0112542590999992000022509004+42100+124950FM-12+023599999V0209999C000010120019N0280001N1-00141-01091102001ADDGF108991081051012501999999MD1710131+9999REMSYN060AAXX  25091 54259 42678 80000 11014 21109 40200 57013 885//;
0142542590999992000022512004+42100+124950FM-12+023599999V0202201N003010120019N0180001N1-00261-01081101991ADDAA199000091GF108991081051012501999999MD1710011+9999REMSYN060AAXX  25121 54259 32668 82203 11026 21108 40199 57001 885//;EQDQ01  00002PRCP99
0164542590999992000022518004+42100+124950FM-12+023599999V0202201N002010120019N0120001N1-00511-00771101791ADDAA106000791GF108991081051012501999999KA1999M-00011MD1710061+9999MW1701REMSYN082AAXX  25181 54259 11662 82202 11051 21077 40179 57006 69901 77000 885// 333 11001;
0161542590999992000022521004+42100+124950FM-12+023599999V0209999C000010120019N0120001N1-00491-00671101651ADDAA124000791AY171031AY271031GF108991081051012501999999MD1710141+9999MW1701REMSYN076AAXX  25211 54259 41662 80000 11049 21067 40165 57014 77077 885// 333 79999;
0179542590999992000022600004+42100+124950FM-12+023599999V0202701N002010120019N0200001N1-00421-00791101671ADDAA106000591AY171061AY271061GF108991081051012501999999MD1210021-1001MW1701REMSYN094AAXX  26001 54259 11670 82702 11042 21079 40167 52002 69941 77077 885// 333 06015 70004 92507;
0132542590999992000022603004+42100+124950FM-12+023599999V0202201N005012200019N0300001N1-00261-01241101721ADDAY171031GF102991021051012501001001MD1210051+9999MW1001REMSYN066AAXX  26031 54259 41680 22205 11026 21124 40172 52005 70070 82500;
0172542590999992000022606004+42100+124950FM-12+023599999V0202501N007010900019N0300001N1-00201-00831101721ADDAA106000791AY171061GF106991011051012501001021KA1999N-00571MD1410001+9999MW1001REMSYN082AAXX  26061 54259 11680 62507 11020 21083 40172 54000 69901 70070 81502 333 21057;
0112542590999992000022609004+42100+124950FM-12+023599999V0202501N006012200019N0300001N1-00301-01201101901ADDGF102991021051012501001001MD1210171+9999REMSYN060AAXX  26091 54259 42680 22506 11030 21120 40190 52017 82500;
0133542590999992000022612004+42100+124950FM-12+023599999V0209999C000012200019N0180001N1-00631-01111102031ADDAA199000021GA1001+999999999GF100991001001999999001001MD1210111+9999REMSYN054AAXX  26121 54259 32968 00000 11063 21111 40203 52011;
0165542590999992000022618004+42100+124950FM-12+023599999V0209999C000012200019N0200001N1-01261-01461102121ADDAA199000091GF102991021051012501001001KA1999M-00151MD1210021+9999REMSYN070AAXX  26181 54259 32670 20000 11126 21146 40212 52002 82500 333 11015;EQDQ01  00002PRCP99
0153542590999992000022621004+42100+124950FM-12+023599999V0209999C000010120019N0150001N1-01341-01501102181ADDAA124000591AY171031GF108991081051012501999999MD1210051+9999MW1701REMSYN076AAXX  26211 54259 41665 80000 11134 21150 40218 52005 77070 885// 333 70004;
0171542590999992000022700004+42100+124950FM-12+023599999V0209999C000012200019N0050001N1-01341-01541102311ADDAA106000791AY171061GF101991011051012501001001MD1210111+0601MW1041REMSYN094AAXX  27001 54259 11650 10000 11134 21154 40231 52011 69901 70470 81500 333 00659 79999 92505;
0122542590999992000022703004+42100+124950FM-12+023599999V0202201N003012200019N0300001N1-00321-01121102271ADDGA1001+999999999GF100991001001999999001001MD1410001+9999REMSYN054AAXX  27031 54259 42980 02203 11032 21112 40227 54000;
0146542590999992000022706004+42100+124950FM-12+023599999V0202901N003010120019N0300001N1-00321-01641102221ADDAA199000021GF108991081051012501999999KA1999N-01481MD1710071+9999REMSYN070AAXX  27061 54259 32680 82903 11032 21164 40222 57007 885// 333 21148;
0132542590999992000022709004+42100+124950FM-12+023599999V0203201N001010120019N0250001N1-00711-01171102561ADDAY171031GF106991061051012501001001MD1210311+9999MW1701REMSYN066AAXX  27091 54259 41675 63201 11071 21117 40256 52031 77070 86500;
0159542590999992000022712004+42100+124950FM-12+023599999V0209999C000012200019N0150001N1-01061-01481102881ADDAA106000391AY171061GA1001+999999999GF100991001001999999001001MD1210291+9999MW1001REMSYN066AAXX  27121 54259 11965 00000 11106 21148 40288 52029 69931 70070;
0156542590999992000022718004+42100+124950FM-12+023599999V0209999C000012200019N0150001N1-01621-01771103191ADDAA199000021GA1001+999999999GF100991001001999999001001KA1999M-00181MD1210121+9999REMSYN064AAXX  27181 54259 32965 00000 11162 21177 40319 52012 333 11018;
0143542590999992000022721004+42100+124950FM-12+023599999V0209999C000012200019N0150001N1-01861-02031103381ADDAA124000391GA1001+999999999GF100991001001999999001001MD1210151+9999REMSYN064AAXX  27211 54259 42965 00000 11186 21203 40338 52015 333 70003;
0155542590999992000022800004+42100+124950FM-12+023599999V0209999C000012200019N0150001N1-01821-02061103611ADDAA124000391GA1001+999999999GF100991001001999999001001MD1210211+1201REMSYN076AAXX  28001 54259 32965 00000 11182 21206 40361 52021 333 01255 70003 92504;
0122542590999992000022803004+42100+124950FM-12+023599999V0209999C000012200019N0300001N1-00801-01621103581ADDGA1001+999999999GF100991001001999999001001MD1210011+9999REMSYN054AAXX  28031 54259 42980 00000 11080 21162 40358 52001;
0165542590999992000022806004+42100+124950FM-12+023599999V0203401N003012200019N0300001N1-00611-01811103451ADDAA199000091GF102991021051012501001001KA1999N-01961MD1710131+9999REMSYN070AAXX  28061 54259 32680 23403 11061 21181 40345 57013 82500 333 21196;EQDQ01  00002PRCP99
0112542590999992000022809004+42100+124950FM-12+023599999V0202201N004012200019N0280001N1-00651-01651103371ADDGF101991011051012501001001MD1710091+9999REMSYN060AAXX  28091 54259 42678 12204 11065 21165 40337 57009 81500;
0152542590999992000022812004+42100+124950FM-12+023599999V0209999C000012200019N0180001N1-01081-01531103391ADDAA199000091GA1001+999999999GF100991001001999999001001MD1710011+9999REMSYN054AAXX  28121 54259 32968 00000 11108 21153 40339 57001;EQDQ01  00002PRCP99
0175542590999992000022818004+42100+124950FM-12+023599999V0209999C000012200019N0180001N1-01551-01691103171ADDAA199000091GA1001+999999999GF100991001001999999001001KA1999M-00541MD1710101+9999REMSYN064AAXX  28181 54259 32968 00000 11155 21169 40317 57010 333 11054;EQDQ01  00002PRCP99
0122542590999992000022821004+42100+124950FM-12+023599999V0209999C000012200019N0150001N1-01691-01831103031ADDGA1001+999999999GF100991001001999999001001MD1710141+9999REMSYN054AAXX  28211 54259 42965 00000 11169 21183 40303 57014;
0180542590999992000022900004+42100+124950FM-12+023599999V0209999C000012200019N0070001N1-01571-01721103041ADDAA199000091GA1001+999999999GF100991001001999999001001MD1710011-0501MW1041REMSYN076AAXX  29001 54259 31957 00000 11157 21172 40304 57001 70400 333 05503 92503;EQDQ01  00002PRCP99
0141542590999992000022903004+42100+124950FM-12+023599999V0202201N004012200019N0220001N1-00282-01011102871ADDGA1001+999999999GF100991001001999999001001MD1710111+9999REMSYN054AAXX  29031 54259 42972 02204 11028 21101 40287 57011;EQDQ01-000283ATOT  
0175542590999992000022906004+42100+124950FM-12+023599999V0202701N005012200019N0250001N1+00121-00991102651ADDAA199000091GA1001+999999999GF100991001001999999001001KA1999N-01741MD1710201+9999REMSYN064AAXX  29061 54259 32975 02705 10012 21099 40265 57020 333 21174;EQDQ01  00002PRCP99
0122542590999992000022909004+42100+124950FM-12+023599999V0201801N001012200019N0210001N1+00111-00821102651ADDGA1001+999999999GF100991001001999999001001MD1710011+9999REMSYN054AAXX  29091 54259 42971 01801 10011 21082 40265 57001;
0152542590999992000022912004+42100+124950FM-12+023599999V0209999C000012200019N0150001N1-00341-00681102731ADDAA199000091GA1001+999999999GF100991001001999999001001MD1210061+9999REMSYN054AAXX  29121 54259 32965 00000 11034 21068 40273 52006;EQDQ01  00002PRCP99
0187542590999992000022918004+42100+124950FM-12+023599999V0209999C000012200019N0080001N1-00911-01021102741ADDAA199000091GA1001+999999999GF100991001001999999001001KA1999M+00221MD1210031+9999MW1101REMSYN070AAXX  29181 54259 31958 00000 11091 21102 40274 52003 71000 333 10022;EQDQ01  00002PRCP99
0134542590999992000022921004+42100+124950FM-12+023599999V0209999C000012200019N0070001N1-01091-01211102731ADDGA1001+999999999GF100991001001999999001001MD1710021+9999MW1101REMSYN060AAXX  29211 54259 41957 00000 11109 21121 40273 57002 71000;
0180542590999992000030100004+42100+124950FM-12+023599999V0209999C000012200019N0050001N1-01041-01181102751ADDAA199000091GA1001+999999999GF100991001001999999001001MD1410001-0201MW1101REMSYN076AAXX  01001 54259 31950 00000 11104 21118 40275 54000 71000 333 05205 92501;EQDQ01  00002PRCP99
0141542590999992000030103004+42100+124950FM-12+023599999V0209999C000012200019N0200001N1+00192-00421102621ADDGA1001+999999999GF100991001001999999001001MD1710081+9999REMSYN054AAXX  01031 54259 42970 00000 10019 21042 40262 57008;EQDQ01+000193ATOT  
0165542590999992000030106004+42100+124950FM-12+023599999V0202201N003019999999N0300001N1+00641-00761102401ADDAA199000091GF107991001001999999001021KA1999N-01201MD1710201+9999REMSYN070AAXX  01061 54259 32980 72203 10064 21076 40240 57020 80002 333 21120;EQDQ01  00002PRCP99
0112542590999992000030109004+42100+124950FM-12+023599999V0209999C000019999999N0250001N1+00401-00351102321ADDGF106991001001999999001021MD1710101+9999REMSYN060AAXX  01091 54259 42975 60000 10040 21035 40232 57010 80002;
0152542590999992000030112004+42100+124950FM-12+023599999V0209999C000012200019N0200001N1+00231-00371102421ADDAA199000091GA1001+999999999GF100991001001999999001001MD1210091+9999REMSYN054AAXX  01121 54259 32970 00000 10023 21037 40242 52009;EQDQ01  00002PRCP99
0175542590999992000030118004+42100+124950FM-12+023599999V0209999C000012200019N0120001N1-00381-00451102401ADDAA199000091GA1001+999999999GF100991001001999999001001KA1999M+00671MD1210011+9999REMSYN064AAXX  01181 54259 32962 00000 11038 21045 40240 52001 333 10067;EQDQ01  00002PRCP99
0134542590999992000030121004+42100+124950FM-12+023599999V0209999C000012200019N0080001N1-00551-00621102371ADDGA1001+999999999GF100991001001999999001001MD1710051+9999MW1101REMSYN060AAXX  01211 54259 41958 00000 11055 21062 40237 57005 71000;
0164542590999992000030200004+42100+124950FM-12+023599999V0209999C000019999999N0060001N1-00511-00581102371ADDAA199000091GF107991001001999999001021MD1710011+0031MW1101REMSYN076AAXX  02001 54259 31956 70000 11051 21058 40237 57001 71000 80002 333 05305;EQDQ01  00002PRCP99
0124542590999992000030203004+42100+124950FM-12+023599999V0209999C000019999999N0070001N1+00401-00091102211ADDGF105991001001999999001021MD1710121+9999MW1041REMSYN066AAXX  02031 54259 41957 50000 10040 21009 40221 57012 70400 80002;
0165542590999992000030206004+42100+124950FM-12+023599999V0202001N002012200019N0120001N1+00901-00091102001ADDAA199000091GF101991001001999999001021KA1999N-00601MD1710201+9999REMSYN070AAXX  02061 54259 32962 12002 10090 21009 40200 57020 80002 333 21060;EQDQ01  00002PRCP99
0112542590999992000030209004+42100+124950FM-12+023599999V0202001N002012200019N0150001N1+00721-00151101901ADDGF101991001001999999001021MD1710111+9999REMSYN060AAXX  02091 54259 42965 12002 10072 21015 40190 57011 80002;
0142542590999992000030212004+42100+124950FM-12+023599999V0209999C000012200019N0150001N1+00421-00221101951ADDAA199000091GF101991011051012501001001MD1210031+9999REMSYN060AAXX  02121 54259 32665 10000 10042 21022 40195 52003 81500;EQDQ01  00002PRCP99
0175542590999992000030218004+42100+124950FM-12+023599999V0202201N005012200019N0150001N1+00461-00701101791ADDAA199000091GA1001+999999999GF100991001001999999001001KA1999M+00951MD1710041+9999REMSYN064AAXX  02181 54259 32965 02205 10046 21070 40179 57004 333 10095;EQDQ01  00002PRCP99
0112542590999992000030221004+42100+124950FM-12+023599999V0202201N003010120019N0150001N1+00441-00561101731ADDGF108991081051012501999999MD1710071+9999REMSYN060AAXX  02211 54259 42665 82203 10044 21056 40173 57007 885//;
0170542590999992000030300004+42100+124950FM-12+023599999V0202201N001019999999N0300001N1+00441-00411101781ADDAA199000091GF107991001001999999001021IA2999-00109MD1210041-0501REMSYN076AAXX  03001 54259 32980 72201 10044 21041 40178 52004 80002 333 05510 31010;EQDQ01  00002PRCP99
0112542590999992000030303004+42100+124950FM-12+023599999V0202201N004012200019N0300001N1+00711-00301101751ADDGF102991001001999999001021MD1710011+9999REMSYN060AAXX  03031 54259 42980 22204 10071 21030 40175 57001 80002;
0175542590999992000030306004+42100+124950FM-12+023599999V0202201N006012200019N0300001N1+00841-00251101571ADDAA199000091GA1001+999999999GF100991001001999999001001KA1999N+00201MD1710171+9999REMSYN064AAXX  03061 54259 32980 02206 10084 21025 40157 57017 333 20020;EQDQ01  00002PRCP99
0112542590999992000030309004+42100+124950FM-12+023599999V0202201N002012200019N0250001N1+00621-00151101561ADDGF102991001001999999001021MD1710031+9999REMSYN060AAXX  03091 54259 42975 22202 10062 21015 40156 57003 80002;
0152542590999992000030312004+42100+124950FM-12+023599999V0209999C000012200019N0150001N1+00291-00221101621ADDAA199000091GA1001+999999999GF100991001001999999001001MD1210051+9999REMSYN054AAXX  03121 54259 32965 00000 10029 21022 40162 52005;EQDQ01  00002PRCP99
0165542590999992000030318004+42100+124950FM-12+023599999V0209999C000010120019N0150001N1-00081-00261101811ADDAA199000091GF105991051051012501001001KA1999M+00861MD1210041+9999REMSYN070AAXX  03181 54259 32665 50000 11008 21026 40181 52004 85500 333 10086;EQDQ01  00002PRCP99
0122542590999992000030321004+42100+124950FM-12+023599999V0209999C000012200019N0150001N1-00281-00381101851ADDGA1001+999999999GF100991001001999999001001MD1210021+9999REMSYN054AAXX  03211 54259 42965 00000 11028 21038 40185 52002;
0192542590999992000030400004+42100+124950FM-12+023599999V0202001N001012200019N0080001N1-00201-00321102051ADDAA199000091GA1001+999999999GF100991001001999999001001IA2999-00409MD1210181+0201MW1041REMSYN076AAXX  04001 54259 31958 02001 11020 21032 40205 52018 70400 333 00256 31044;EQDQ01  00002PRCP99
0122542590999992000030403004+42100+124950FM-12+023599999V0202201N005012200019N0300001N1+00411-00651102041ADDGA1001+999999999GF100991001001999999001001MD1210011+9999REMSYN054AAXX  04031 54259 42980 02205 10041 21065 40204 52001;
0165542590999992000030406004+42100+124950FM-12+023599999V0202701N005012200019N0300001N1+00361-00981102011ADDAA199000091GF101991011011008001001001KA1999N-00361MD1710041+9999REMSYN070AAXX  04061 54259 32580 12705 10036 21098 40201 57004 81100 333 21036;EQDQ01  00002PRCP99
0122542590999992000030409004+42100+124950FM-12+023599999V0202701N002012200019N0300001N1+00091-01721102111ADDGA1001+999999999GF100991001001999999001001MD1210071+9999REMSYN054AAXX  04091 54259 42980 02702 10009 21172 40211 52007;
0152542590999992000030412004+42100+124950FM-12+023599999V0209999C000012200019N0150001N1-00281-01171102151ADDAA199000091GA1001+999999999GF100991001001999999001001MD1210031+9999REMSYN054AAXX  04121 54259 32965 00000 11028 21117 40215 52003;EQDQ01  00002PRCP99
0175542590999992000030418004+42100+124950FM-12+023599999V0209999C000012200019N0200001N1-00611-01041102181ADDAA199000091GA1001+999999999GF100991001001999999001001KA1999M+00531MD1710091+9999REMSYN064AAXX  04181 54259 32970 00000 11061 21104 40218 57009 333 10053;EQDQ01  00002PRCP99
0122542590999992000030421004+42100+124950FM-12+023599999V0209999C000012200019N0200001N1-00771-01101102041ADDGA1001+999999999GF100991001001999999001001MD1710161+9999REMSYN054AAXX  04211 54259 42970 00000 11077 21110 40204 57016;
0174542590999992000030500004+42100+124950FM-12+023599999V0209999C000012200019N0080001N1-00621-00911101951ADDAA199000091GA1001+999999999GF100991001001999999001001MD1710101+0021MW1041REMSYN070AAXX  05001 54259 31958 00000 11062 21091 40195 57010 70400 333 05254;EQDQ01  00002PRCP99
0112542590999992000030503004+42100+124950FM-12+023599999V0201801N002012200019N0300001N1+00421-00861101601ADDGF102991001001999999001021MD1710301+9999REMSYN060AAXX  05031 54259 42980 21802 10042 21086 40160 57030 80002;
0165542590999992000030506004+42100+124950FM-12+023599999V0202501N005019999999N0300001N1+00651-01511101241ADDAA199000091GF106991001001999999001021KA1999N-00851MD1710341+9999REMSYN070AAXX  05061 54259 32980 62505 10065 21151 40124 57034 80002 333 21085;EQDQ01  00002PRCP99
0122542590999992000030509004+42100+124950FM-12+023599999V0202501N004012200019N0300001N1+00551-01141101101ADDGA1001+999999999GF100991001001999999001001MD1710151+9999REMSYN054AAXX  05091 54259 42980 02504 10055 21114 40110 57015;
0152542590999992000030512004+42100+124950FM-12+023599999V0209999C000012200019N0150001N1+00051-00761101181ADDAA199000091GA1001+999999999GF100991001001999999001001MD1210061+9999REMSYN054AAXX  05121 54259 32965 00000 10005 21076 40118 52006;EQDQ01  00002PRCP99
0147542590999992000030518004+42100+124950FM-12+023599999V0202901N004010120019N0120001N1-00241-00671101331ADDGF108991081051012501999999KA1999M+00711MD1210261+9999MW1701REMSYN076AAXX  05181 54259 11662 82904 11024 21067 40133 52026 77000 885// 333 10071;
0163542590999992000030521004+42100+124950FM-12+023599999V0202501N004012200019N0150001N1-00421-01411101461ADDAA124000791AY171031GA1001+999999999GF100991001001999999001001MD1210111+9999MW1001REMSYN070AAXX  05211 54259 41965 02504 11042 21141 40146 52011 70070 333 79999;
0175542590999992000030600004+42100+124950FM-12+023599999V0202501N004012200019N0300001N1-00621-01901101731ADDAA106000791AY171061GA1001+999999999GF100991001001999999001001MD1210221-0201MW1001REMSYN082AAXX  06001 54259 11980 02504 11062 21190 40173 52022 69901 70070 333 05200 79999;
0122542590999992000030603004+42100+124950FM-12+023599999V0202501N008012200019N0300001N1-00441-01921101681ADDGA1001+999999999GF100991001001999999001001MD1710031+9999REMSYN054AAXX  06031 54259 42980 02508 11044 21192 40168 57003;
0146542590999992000030606004+42100+124950FM-12+023599999V0202501N007010120019N0250001N1-00401-01821101721ADDAA199000021GF106991061051012501001001KA1999N-00681MD1210021+9999REMSYN070AAXX  06061 54259 32675 62507 11040 21182 40172 52002 86500 333 21068;
0112542590999992000030609004+42100+124950FM-12+023599999V0202501N005010120019N0100001N1-00431-02101101771ADDGF107991071051012501999999MD1210041+9999REMSYN060AAXX  06091 54259 42660 72505 11043 21210 40177 52004 875//;
0142542590999992000030612004+42100+124950FM-12+023599999V0202501N007010120019N0200001N1-00581-02321101971ADDAA199000091GF108991081051012501999999MD1210171+9999REMSYN060AAXX  06121 54259 32670 82507 11058 21232 40197 52017 885//;EQDQ01  00002PRCP99
0175542590999992000030618004+42100+124950FM-12+023599999V0202501N005012200019N0150001N1-00981-02341102281ADDAA199000091GA1001+999999999GF100991001001999999001001KA1999M-00241MD1210111+9999REMSYN064AAXX  06181 54259 32965 02505 11098 21234 40228 52011 333 11024;EQDQ01  00002PRCP99
0122542590999992000030621004+42100+124950FM-12+023599999V0202501N002012200019N0150001N1-01151-02231102331ADDGA1001+999999999GF100991001001999999001001MD1210041+9999REMSYN054AAXX  06211 54259 42965 02502 11115 21223 40233 52004;
0162542590999992000030700004+42100+124950FM-12+023599999V0202701N004012200019N0300001N1-01091-02071102471ADDAA199000091GA1001+999999999GF100991001001999999001001MD1210131+0071REMSYN064AAXX  07001 54259 32980 02704 11109 21207 40247 52013 333 00755;EQDQ01  00002PRCP99
0122542590999992000030703004+42100+124950FM-12+023599999V0202201N006012200019N0300001N1-00701-01821102411ADDGA1001+999999999GF100991001001999999001001MD1710051+9999REMSYN054AAXX  07031 54259 42980 02206 11070 21182 40241 57005;
0165542590999992000030706004+42100+124950FM-12+023599999V0202501N005012200019N0300001N1-00491-01781102211ADDAA199000091GF102991011011008001001021KA1999N-01241MD1710191+9999REMSYN070AAXX  07061 54259 32580 22505 11049 21178 40221 57019 81102 333 21124;EQDQ01  00002PRCP99
0112542590999992000030709004+42100+124950FM-12+023599999V0202501N005012200019N0300001N1-00591-01841102161ADDGF101991011051012501001021MD1710061+9999REMSYN060AAXX  07091 54259 42680 12505 11059 21184 40216 57006 81502;
0152542590999992000030712004+42100+124950FM-12+023599999V0209999C000012200019N0150001N1-00871-01811102131ADDAA199000091GA1001+999999999GF100991001001999999001001MD1710051+9999REMSYN054AAXX  07121 54259 32965 00000 11087 21181 40213 57005;EQDQ01  00002PRCP99
0175542590999992000030718004+42100+124950FM-12+023599999V0209999C000012200019N0150001N1-00951-01641102031ADDAA199000091GA1001+999999999GF100991001001999999001001KA1999M-00461MD1710031+9999REMSYN064AAXX  07181 54259 32965 00000 11095 21164 40203 57003 333 11046;EQDQ01  00002PRCP99
0112542590999992000030721004+42100+124950FM-12+023599999V0209999C000010120019N0150001N1-01041-01381101941ADDGF106991061051012501001001MD1710101+9999REMSYN060AAXX  07211 54259 42665 60000 11104 21138 40194 57010 86500;
0165542590999992000030800004+42100+124950FM-12+023599999V0202201N004012200019N0300001N1-00791-01281102001ADDAA106000791AY171061GF101991011051012501001001MD1210061-0501MW1001REMSYN088AAXX  08001 54259 11680 12204 11079 21128 40200 52006 69901 70070 81500 333 05503 79999;
0112542590999992000030803004+42100+124950FM-12+023599999V0202701N004012200019N0300001N1-00591-01931102171ADDGF102991021051012501001001MD1210181+9999REMSYN060AAXX  08031 54259 42680 22704 11059 21193 40217 52018 82500;
0165542590999992000030806004+42100+124950FM-12+023599999V0202501N006012200019N0300001N1-00531-01631102211ADDAA199000091GF104991041051012501001001KA1999N-01081MD1210031+9999REMSYN070AAXX  08061 54259 32680 42506 11053 21163 40221 52003 84500 333 21108;EQDQ01  00002PRCP99
0112542590999992000030809004+42100+124950FM-12+023599999V0202501N005012200019N0300001N1-00521-01771102221ADDGF104991041051012501001001MD1410001+9999REMSYN060AAXX  08091 54259 42680 42505 11052 21177 40222 54000 84500;
0152542590999992000030812004+42100+124950FM-12+023599999V0209999C000012200019N0250001N1-00691-01711102211ADDAA199000091GA1001+999999999GF100991001001999999001001MD1410001+9999REMSYN054AAXX  08121 54259 32975 00000 11069 21171 40221 54000;EQDQ01  00002PRCP99
0175542590999992000030818004+42100+124950FM-12+023599999V0209999C000012200019N0150001N1-00871-01821102401ADDAA199000091GA1001+999999999GF100991001001999999001001KA1999M-00401MD1210181+9999REMSYN064AAXX  08181 54259 32965 00000 11087 21182 40240 52018 333 11040;EQDQ01  00002PRCP99
0143542590999992000030821004+42100+124950FM-12+023599999V0202501N002012200019N0150001N1-01081-02001102561ADDAA124000791GA1001+999999999GF100991001001999999001001MD1210141+9999REMSYN064AAXX  08211 54259 42965 02502 11108 21200 40256 52014 333 79999;
0162542590999992000030900004+42100+124950FM-12+023599999V0202501N002012200019N0300001N1-00881-01761102821ADDAA199000091GA1001+999999999GF100991001001999999001001MD1210261+0081REMSYN064AAXX  09001 54259 32980 02502 11088 21176 40282 52026 333 00851;EQDQ01  00002PRCP99
0122542590999992000030903004+42100+124950FM-12+023599999V0202701N003012200019N0300001N1-00431-01921102841ADDGA1001+999999999GF100991001001999999001001MD1210041+9999REMSYN054AAXX  09031 54259 42980 02703 11043 21192 40284 52004;
0175542590999992000030906004+42100+124950FM-12+023599999V0202701N004012200019N0300001N1-00191-01661102681ADDAA199000091GA1001+999999999GF100991001001999999001001KA1999N-01131MD1710151+9999REMSYN064AAXX  09061 54259 32980 02704 11019 21166 40268 57015 333 21113;EQDQ01  00002PRCP99
0152542590999992000030912004+42100+124950FM-12+023599999V0209999C000012200019N0200001N1-00531-01491102641ADDAA199000091GA1001+999999999GF100991001001999999001001MD1210011+9999REMSYN054AAXX  09121 54259 32970 00000 11053 21149 40264 52001;EQDQ01  00002PRCP99
0175542590999992000030918004+42100+124950FM-12+023599999V0209999C000012200019N0200001N1-00971-01351102531ADDAA199000091GA1001+999999999GF100991001001999999001001KA1999M-00011MD1710071+9999REMSYN064AAXX  09181 54259 32970 00000 11097 21135 40253 57007 333 11001;EQDQ01  00002PRCP99
0122542590999992000030921004+42100+124950FM-12+023599999V0209999C000012200019N0200001N1-01071-01271102501ADDGA1001+999999999GF100991001001999999001001MD1710031+9999REMSYN054AAXX  09211 54259 42970 00000 11107 21127 40250 57003;
0152542590999992000031000004+42100+124950FM-12+023599999V0202501N004012200019N0120001N1-00471-00681102551ADDAA199000091GF102991021051012501001001MD1210061+0021REMSYN070AAXX  10001 54259 32662 22504 11047 21068 40255 52006 82500 333 05204;EQDQ01  00002PRCP99
0122542590999992000031003004+42100+124950FM-12+023599999V0202201N005012200019N0300001N1+00021-01191102591ADDGA1001+999999999GF100991001001999999001001MD1210051+9999REMSYN054AAXX  10031 54259 42980 02205 10002 21119 40259 52005;
0175542590999992000031006004+42100+124950FM-12+023599999V0202001N006012200019N0300001N1+00381-01251102361ADDAA199000091GA1001+999999999GF100991001001999999001001KA1999N-01071MD1710221+9999REMSYN064AAXX  10061 54259 32980 02006 10038 21125 40236 57022 333 21107;EQDQ01  00002PRCP99
0122542590999992000031009004+42100+124950FM-12+023599999V0202501N004012200019N0300001N1+00401-01071102071ADDGA1001+999999999GF100991001001999999001001MD1710281+9999REMSYN054AAXX  10091 54259 42980 02504 10040 21107 40207 57028;
0152542590999992000031012004+42100+124950FM-12+023599999V0202501N001012200019N0180001N1-00121-00981102051ADDAA199000091GA1001+999999999GF100991001001999999001001MD1710021+9999REMSYN054AAXX  10121 54259 32968 02501 11012 21098 40205 57002;EQDQ01  00002PRCP99
0175542590999992000031018004+42100+124950FM-12+023599999V0209999C000012200019N0150001N1-00421-00831102011ADDAA199000091GA1001+999999999GF100991001001999999001001KA1999M+00451MD1210031+9999REMSYN064AAXX  10181 54259 32965 00000 11042 21083 40201 52003 333 10045;EQDQ01  00002PRCP99
0122542590999992000031021004+42100+124950FM-12+023599999V0209999C000012200019N0150001N1-00481-00781101961ADDGA1001+999999999GF100991001001999999001001MD1710051+9999REMSYN054AAXX  10211 54259 42965 00000 11048 21078 40196 57005;
0162542590999992000031100004+42100+124950FM-12+023599999V0209999C000012200019N0120001N1-00361-00671102011ADDAA199000091GA1001+999999999GF100991001001999999001001MD1210031+0051REMSYN064AAXX  11001 54259 32962 00000 11036 21067 40201 52003 333 05501;EQDQ01  00002PRCP99
0122542590999992000031103004+42100+124950FM-12+023599999V0202501N002012200019N0300001N1+00591-00851101921ADDGA1001+999999999GF100991001001999999001001MD1710051+9999REMSYN054AAXX  11031 54259 42980 02502 10059 21085 40192 57005;
0175542590999992000031106004+42100+124950FM-12+023599999V0203401N005012200019N0300001N1+00621-01901101771ADDAA199000091GA1001+999999999GF100991001001999999001001KA1999N-00561MD1710151+9999REMSYN064AAXX  11061 54259 32980 03405 10062 21190 40177 57015 333 21056;EQDQ01  00002PRCP99
0122542590999992000031109004+42100+124950FM-12+023599999V0202901N001012200019N0300001N1+00551-01421101711ADDGA1001+999999999GF100991001001999999001001MD1710061+9999REMSYN054AAXX  11091 54259 42980 02901 10055 21142 40171 57006;
0152542590999992000031112004+42100+124950FM-12+023599999V0209999C000012200019N0200001N1-00111-01061101731ADDAA199000091GA1001+999999999GF100991001001999999001001MD1710011+9999REMSYN054AAXX  11121 54259 32970 00000 11011 21106 40173 57001;EQDQ01  00002PRCP99
0175542590999992000031118004+42100+124950FM-12+023599999V0209999C000012200019N0200001N1-00571-00981101591ADDAA199000091GA1001+999999999GF100991001001999999001001KA1999M+00721MD1710111+9999REMSYN064AAXX  11181 54259 32970 00000 11057 21098 40159 57011 333 10072;EQDQ01  00002PRCP99
0122542590999992000031121004+42100+124950FM-12+023599999V0209999C000012200019N0200001N1-00741-01011101441ADDGA1001+999999999GF100991001001999999001001MD1710161+9999REMSYN054AAXX  11211 54259 42970 00000 11074 21101 40144 57016;
0162542590999992000031200004+42100+124950FM-12+023599999V0209999C000012200019N0150001N1-00441-00731101461ADDAA199000091GA1001+999999999GF100991001001999999001001MD1410001+0051REMSYN064AAXX  12001 54259 32965 00000 11044 21073 40146 54000 333 05551;EQDQ01  00002PRCP99
0122542590999992000031203004+42100+124950FM-12+023599999V0203201N005012200019N0300001N1+00251-00921101551ADDGA1001+999999999GF100991001001999999001001MD1210111+9999REMSYN054AAXX  12031 54259 42980 03205 10025 21092 40155 52011;
0165542590999992000031206004+42100+124950FM-12+023599999V0202701N005012200019N0300001N1+00321-01291101571ADDAA199000091GF101991011051012501001001KA1999N-00771MD1210021+9999REMSYN070AAXX  12061 54259 32680 12705 10032 21129 40157 52002 81500 333 21077;EQDQ01  00002PRCP99
0122542590999992000031209004+42100+124950FM-12+023599999V0203201N003012200019N0300001N1+00171-01581101731ADDGA1001+999999999GF100991001001999999001001MD1210131+9999REMSYN054AAXX  12091 54259 42980 03203 10017 21158 40173 52013;
0152542590999992000031212004+42100+124950FM-12+023599999V0209999C000012200019N0200001N1-00251-01111101941ADDAA199000091GA1001+999999999GF100991001001999999001001MD1210201+9999REMSYN054AAXX  12121 54259 32970 00000 11025 21111 40194 52020;EQDQ01  00002PRCP99
0175542590999992000031218004+42100+124950FM-12+023599999V0209999C000012200019N0200001N1-00731-00951102161ADDAA199000091GA1001+999999999GF100991001001999999001001KA1999M+00371MD1210121+9999REMSYN064AAXX  12181 54259 32970 00000 11073 21095 40216 52012 333 10037;EQDQ01  00002PRCP99
0122542590999992000031221004+42100+124950FM-12+023599999V0209999C000012200019N0200001N1-00901-01111102181ADDGA1001+999999999GF100991001001999999001001MD1410001+9999REMSYN054AAXX  12211 54259 42970 00000 11090 21111 40218 54000;
0162542590999992000031300004+42100+124950FM-12+023599999V0209999C000012200019N0250001N1-00681-00941102241ADDAA199000091GA1001+999999999GF100991001001999999001001MD1210051+0071REMSYN064AAXX  13001 54259 32975 00000 11068 21094 40224 52005 333 00752;EQDQ01  00002PRCP99
0122542590999992000031303004+42100+124950FM-12+023599999V0202201N004012200019N0300001N1+00371-01131102191ADDGA1001+999999999GF100991001001999999001001MD1710011+9999REMSYN054AAXX  13031 54259 42980 02204 10037 21113 40219 57001;
0175542590999992000031306004+42100+124950FM-12+023599999V0203201N004012200019N0300001N1+00421-01481102231ADDAA199000091GA1001+999999999GF100991001001999999001001KA1999N-00951MD1210031+9999REMSYN064AAXX  13061 54259 32980 03204 10042 21148 40223 52003 333 21095;EQDQ01  00002PRCP99
0122542590999992000031309004+42100+124950FM-12+023599999V0203201N002012200019N0300001N1+00291-01351102321ADDGA1001+999999999GF100991001001999999001001MD1210071+9999REMSYN054AAXX  13091 54259 42980 03202 10029 21135 40232 52007;
0152542590999992000031312004+42100+124950FM-12+023599999V0202501N002012200019N0200001N1-00071-01681102481ADDAA199000091GA1001+999999999GF100991001001999999001001MD1210151+9999REMSYN054AAXX  13121 54259 32970 02502 11007 21168 40248 52015;EQDQ01  00002PRCP99
0175542590999992000031318004+42100+124950FM-12+023599999V0209999C000012200019N0180001N1-00731-01051102701ADDAA199000091GA1001+999999999GF100991001001999999001001KA1999M+00491MD1210081+9999REMSYN064AAXX  13181 54259 32968 00000 11073 21105 40270 52008 333 10049;EQDQ01  00002PRCP99
0122542590999992000031321004+42100+124950FM-12+023599999V0209999C000012200019N0180001N1-00911-01071102741ADDGA1001+999999999GF100991001001999999001001MD1210021+9999REMSYN054AAXX  13211 54259 42968 00000 11091 21107 40274 52002;
0174542590999992000031400004+42100+124950FM-12+023599999V0209999C000012200019N0080001N1-00651-00861102811ADDAA199000091GA1001+999999999GF100991001001999999001001MD1210061+0061MW1041REMSYN070AAXX  14001 54259 31958 00000 11065 21086 40281 52006 70400 333 00600;EQDQ01  00002PRCP99
0122542590999992000031403004+42100+124950FM-12+023599999V0202001N003012200019N0300001N1+00261-01041102661ADDGA1001+999999999GF100991001001999999001001MD1710111+9999REMSYN054AAXX  14031 54259 42980 02003 10026 21104 40266 57011;
0175542590999992000031406004+42100+124950FM-12+023599999V0202201N004012200019N0300001N1+00581-01361102381ADDAA199000091GA1001+999999999GF100991001001999999001001KA1999N-00971MD1710271+9999REMSYN064AAXX  14061 54259 32980 02204 10058 21136 40238 57027 333 21097;EQDQ01  00002PRCP99
0112542590999992000031409004+42100+124950FM-12+023599999V0202501N001019999999N0200001N1+00501-01151102221ADDGF107991001001999999001021MD1710171+9999REMSYN060AAXX  14091 54259 42970 72501 10050 21115 40222 57017 80002;
0142542590999992000031412004+42100+124950FM-12+023599999V0209999C000019999999N0150001N1+00201-00811102181ADDAA199000091GF107991001001999999001021MD1710041+9999REMSYN060AAXX  14121 54259 32965 70000 10020 21081 40218 57004 80002;EQDQ01  00002PRCP99
0172542590999992000031418004+42100+124950FM-12+023599999V0209999C000019999999N0110001N1-00041-00101102071ADDAA106001091AY171061GF108991081001999999021999KA1999M+00671MD1710101+9999MW1701REMSYN082AAXX  14181 54259 11961 80000 11004 21010 40207 57010 60011 77070 8802/ 333 10067;
0161542590999992000031421004+42100+124950FM-12+023599999V0209999C000019999999N0080001N1-00021-00081101821ADDAA124002391AY171031AY271031GF108991081001999999021999MD1710241+9999MW1711REMSYN076AAXX  14211 54259 41958 80000 11002 21008 40182 57024 77177 8802/ 333 70023;
0197542590999992000031500004+42100+124950FM-12+023599999V0209999C000019999999N0060001N1+00011-00141101641ADDAA106002091AY171061AY271061GF108991081001999999021999IA2999-00119MD1710191-1101MW1701REMSYN100AAXX  15001 54259 11956 80000 10001 21014 40164 57019 60021 77077 8802/ 333 06107 31011 70034 92503;
0140542590999992000031503004+42100+124950FM-12+023599999V0209999C000010120019N0050001N1+00071-00011101501ADDAY171031AY271031GF108991081001012501021999MD1710141+9999MW1711REMSYN066AAXX  15031 54259 41650 80000 10007 21001 40150 57014 77177 8802/;
0180542590999992000031506004+42100+124950FM-12+023599999V0209999C000019999999N0040001N1+00131+00051101301ADDAA106005191AY171061AY271061GF108991081001999999021999KA1999N-00051MD1710201+9999MW1711REMSYN082AAXX  15061 54259 11940 80000 10013 20005 40130 57020 60051 77177 8802/ 333 21005;
0140542590999992000031509004+42100+124950FM-12+023599999V0209999C000019999999N0040001N1+00071+00041101271ADDAY171031AY271031GF108991081001999999021999MD1710031+9999MW1711REMSYN066AAXX  15091 54259 41940 80000 10007 20004 40127 57003 77177 8802/;
0157542590999992000031512004+42100+124950FM-12+023599999V0209999C000019999999N0060001N1+00011-00071101291ADDAA106002091AY171061AY271061GF108991081001999999021999MD1210021+9999MW1701REMSYN072AAXX  15121 54259 11956 80000 10001 21007 40129 52002 60021 77077 8802/;
0172542590999992000031518004+42100+124950FM-12+023599999V0209999C000010120019N0120001N1-00151-00271101231ADDAA106000791AY171061GF107991071051012501999999KA1999M+00191MD1710051+9999MW1001REMSYN082AAXX  15181 54259 11662 70000 11015 21027 40123 57005 69901 70070 875// 333 10019;
0155542590999992000031521004+42100+124950FM-12+023599999V0209999C000010003019N0005001N1-00381-00431101261ADDAA124007491GA1091+999999999GF109991091999999999999999MD1210011+9999MW1471REMSYN070AAXX  15211 54259 41/05 90000 11038 21043 40126 52001 74700 333 70073;
0175542590999992000031600004+42100+124950FM-12+023599999V0209999C000010003019N0005001N1-00391-00441101381ADDAA124006191AY141061GA1091+999999999GF109991091999999999999999MD1210111-0301MW1431REMSYN082AAXX  16001 54259 31/05 90000 11039 21044 40138 52011 74340 333 05354 70062 92506;
0132542590999992000031603004+42100+124950FM-12+023599999V0202701N001010120019N0040001N1-00151-00301101361ADDAY141031GF108991081051012501999999MD1410001+9999MW1101REMSYN066AAXX  16031 54259 41640 82701 11015 21030 40136 54000 71040 885//;
0185542590999992000031606004+42100+124950FM-12+023599999V0202201N003012200019N0200001N1+00291-00031101241ADDAA199000091AY141061GF102991021051012501001001KA1999N-00451MD1710101+9999MW1001REMSYN076AAXX  16061 54259 31670 22203 10029 21003 40124 57010 70040 82500 333 21045;EQDQ01  00002PRCP99
0112542590999992000031609004+42100+124950FM-12+023599999V0202201N002012200019N0200001N1+00261-00191101291ADDGF101991011051012501001001MD1210031+9999REMSYN060AAXX  16091 54259 42670 12202 10026 21019 40129 52003 81500;
0152542590999992000031612004+42100+124950FM-12+023599999V0209999C000012200019N0150001N1-00111-00261101391ADDAA199000091GA1001+999999999GF100991001001999999001001MD1210081+9999REMSYN054AAXX  16121 54259 32965 00000 11011 21026 40139 52008;EQDQ01  00002PRCP99
0177542590999992000031618004+42100+124950FM-12+023599999V0209999C000010120019N0060001N1-00401-00521101411ADDAA199000091GF108991081051012501999999KA1999M+00311MD1710011+9999MW1101REMSYN076AAXX  16181 54259 31656 80000 11040 21052 40141 57001 71000 885// 333 10031;EQDQ01  00002PRCP99
0124542590999992000031621004+42100+124950FM-12+023599999V0209999C000010120019N0060001N1-00511-00651101401ADDGF108991081051012501999999MD1710021+9999MW1101REMSYN066AAXX  16211 54259 41656 80000 11051 21065 40140 57002 71000 885//;
0180542590999992000031700004+42100+124950FM-12+023599999V0209999C000012200019N0080001N1-00461-00631101391ADDAA199000091GA1001+999999999GF100991001001999999001001MD1710031+0001MW1101REMSYN076AAXX  17001 54259 31958 00000 11046 21063 40139 57003 71000 333 00051 92502;EQDQ01  00002PRCP99
0141542590999992000031703004+42100+124950FM-12+023599999V0202501N002012200019N0200001N1+00682-00201101121ADDGA1001+999999999GF100991001001999999001001MD1710211+9999REMSYN054AAXX  17031 54259 42970 02502 10068 21020 40112 57021;EQDQ01+000683ATOT  
0159542590999992000031706004+42100+124950FM-12+023599999V0202501N006012200019N0300001N1+01111-00631100901ADDAA199000091GF101991999999008001999999KA1999N-00611MD1710191+9999REMSYN064AAXX  17061 54259 32580 12506 10111 21063 40090 57019 333 21061;EQDQ01  00002PRCP99
0122542590999992000031709004+42100+124950FM-12+023599999V0202201N004012200019N0250001N1+01001-00531100951ADDGA1001+999999999GF100991001001999999001001MD1210031+9999REMSYN054AAXX  17091 54259 42975 02204 10100 21053 40095 52003;
0152542590999992000031712004+42100+124950FM-12+023599999V0209999C000012200019N0150001N1+00291-00421101091ADDAA199000091GA1001+999999999GF100991001001999999001001MD1210101+9999REMSYN054AAXX  17121 54259 32965 00000 10029 21042 40109 52010;EQDQ01  00002PRCP99
0175542590999992000031718004+42100+124950FM-12+023599999V0209999C000012200019N0120001N1-00101-00281101151ADDAA199000091GA1001+999999999GF100991001001999999001001KA1999M+01131MD1210101+9999REMSYN064AAXX  17181 54259 32962 00000 11010 21028 40115 52010 333 10113;EQDQ01  00002PRCP99
0112542590999992000031721004+42100+124950FM-12+023599999V0209999C000010120019N0120001N1-00111-00291101191ADDGF108991081051012501999999MD1210041+9999REMSYN060AAXX  17211 54259 42662 80000 11011 21029 40119 52004 885//;
0182542590999992000031800004+42100+124950FM-12+023599999V0209999C000010120019N0080001N1+00081-00241101371ADDAA199000091GF108991081051012501999999IA2999-00209MD1210141+0001MW1041REMSYN082AAXX  18001 54259 31658 80000 10008 21024 40137 52014 70400 885// 333 00005 31027;EQDQ01  00002PRCP99
0112542590999992000031803004+42100+124950FM-12+023599999V0200701N004010120019N0300001N1+00401-00711101341ADDGF107991071051012501999999MD1710021+9999REMSYN060AAXX  18031 54259 42680 70704 10040 21071 40134 57002 875//;
0164542590999992000031806004+42100+124950FM-12+023599999V0200701N002010120019N0070001N1+00071-00131101321ADDAA106000191GF108991061051012501021999KA1999N-00151MD1710051+9999MW1701REMSYN082AAXX  18061 54259 11657 80702 10007 21013 40132 57005 69911 77000 8652/ 333 21015;
0132542590999992000031809004+42100+124950FM-12+023599999V0200401N001010120019N0020001N1-00061-00151101361ADDAY171031GF108991081001012501021999MD1210041+9999MW1711REMSYN066AAXX  18091 54259 41620 80401 11006 21015 40136 52004 77170 8802/;
0157542590999992000031812004+42100+124950FM-12+023599999V0209999C000010120019N0060001N1-00141-00221101631ADDAA106009991AY171061AY271061GF108991081001012501021999MD1210261+9999MW1711REMSYN072AAXX  18121 54259 11656 80000 11014 21022 40163 52026 60101 77177 8802/;
0172542590999992000031818004+42100+124950FM-12+023599999V0209999C000010120019N0150001N1-00301-00441101911ADDAA106001091AY171061GF107991071051012501999999KA1999M+00461MD1210091+9999MW1001REMSYN082AAXX  18181 54259 11665 70000 11030 21044 40191 52009 60011 70070 875// 333 10046;
0133542590999992000031821004+42100+124950FM-12+023599999V0209999C000010120019N0150001N1-00481-00621102101ADDAA124011291GF107991071051012501999999MD1210161+9999REMSYN070AAXX  18211 54259 42665 70000 11048 21062 40210 52016 875// 333 70112;
0155542590999992000031900004+42100+124950FM-12+023599999V0209999C000012200019N0150001N1-00561-00751102301ADDAA124011291GA1001+999999999GF100991001001999999001001MD1210191+0901REMSYN076AAXX  19001 54259 32965 00000 11056 21075 40230 52019 333 00956 70112 92513;
0122542590999992000031903004+42100+124950FM-12+023599999V0209999C000012200019N0300001N1+00131-00661102371ADDGA1001+999999999GF100991001001999999001001MD1210101+9999REMSYN054AAXX  19031 54259 42980 00000 10013 21066 40237 52010;
0175542590999992000031906004+42100+124950FM-12+023599999V0201801N001012200019N0300001N1+00381-01001102151ADDAA199000091GA1001+999999999GF100991001001999999001001KA1999N-00791MD1719999+9999REMSYN064AAXX  19061 54259 32980 01801 10038 21100 40215 570// 333 21079;EQDQ01  00002PRCP99
0122542590999992000031909004+42100+124950FM-12+023599999V0203201N002012200019N0300001N1+00351-00801102141ADDGA1001+999999999GF100991001001999999001001MD1710021+9999REMSYN054AAXX  19091 54259 42980 03202 10035 21080 40214 57002;
0152542590999992000031912004+42100+124950FM-12+023599999V0209999C000012200019N0150001N1-00231-00771102291ADDAA199000091GA1001+999999999GF100991001001999999001001MD1210111+9999REMSYN054AAXX  19121 54259 32965 00000 11023 21077 40229 52011;EQDQ01  00002PRCP99
0175542590999992000031918004+42100+124950FM-12+023599999V0209999C000012200019N0180001N1-00731-00911102271ADDAA199000091GA1001+999999999GF100991001001999999001001KA1999M+00481MD1710031+9999REMSYN064AAXX  19181 54259 32968 00000 11073 21091 40227 57003 333 10048;EQDQ01  00002PRCP99
0122542590999992000031921004+42100+124950FM-12+023599999V0209999C000012200019N0180001N1-00811-01001102281ADDGA1001+999999999GF100991001001999999001001MD1410001+9999REMSYN054AAXX  19211 54259 42968 00000 11081 21100 40228 54000;
0180542590999992000032000004+42100+124950FM-12+023599999V0209999C000012200019N0080001N1-00451-00831102261ADDAA199000091GA1001+999999999GF100991001001999999001001MD1710031+0001MW1041REMSYN076AAXX  20001 54259 31958 00000 11045 21083 40226 57003 70400 333 00001 92505;EQDQ01  00002PRCP99
0122542590999992000032003004+42100+124950FM-12+023599999V0209999C000012200019N0250001N1+00621-00611102081ADDGA1001+999999999GF100991001001999999001001MD1710131+9999REMSYN054AAXX  20031 54259 42975 00000 10062 21061 40208 57013;
0165542590999992000032006004+42100+124950FM-12+023599999V0202501N003019999999N0300001N1+00901-00591101801ADDAA199000091GF107991001001999999001021KA1999N-00851MD1710271+9999REMSYN070AAXX  20061 54259 32980 72503 10090 21059 40180 57027 80002 333 21085;EQDQ01  00002PRCP99
0112542590999992000032009004+42100+124950FM-12+023599999V0202201N003019999999N0300001N1+00761-00381101811ADDGF107991001001999999001021MD1410001+9999REMSYN060AAXX  20091 54259 42980 72203 10076 21038 40181 54000 80002;
0142542590999992000032012004+42100+124950FM-12+023599999V0209999C000019999999N0150001N1+00251-00271101931ADDAA199000091GF107991001001999999001021MD1210111+9999REMSYN060AAXX  20121 54259 32965 70000 10025 21027 40193 52011 80002;EQDQ01  00002PRCP99
0165542590999992000032018004+42100+124950FM-12+023599999V0209999C000019999999N0150001N1-00041-00251102031ADDAA199000091GF108991001001999999001071KA1999M+00941MD1210061+9999REMSYN070AAXX  20181 54259 32965 80000 11004 21025 40203 52006 80007 333 10094;EQDQ01  00002PRCP99
0112542590999992000032021004+42100+124950FM-12+023599999V0209999C000019999999N0150001N1-00141-00331102161ADDGF108991001001999999001071MD1210111+9999REMSYN060AAXX  20211 54259 42965 80000 11014 21033 40216 52011 80007;
0182542590999992000032100004+42100+124950FM-12+023599999V0209999C000010120019N0050001N1-00031-00271102341ADDAA199000091GF107991061051012501001021IA2999-00109MD1210161+0101MW1041REMSYN082AAXX  21001 54259 31650 70000 11003 21027 40234 52016 70400 86502 333 00104 31018;EQDQ01  00002PRCP99
0112542590999992000032103004+42100+124950FM-12+023599999V0201101N004012200019N0300001N1+00621-00371102371ADDGF102991001001999999001021MD1210051+9999REMSYN060AAXX  21031 54259 42980 21104 10062 21037 40237 52005 80002;
0175542590999992000032106004+42100+124950FM-12+023599999V0200701N004012200019N0300001N1+00691-00721102341ADDAA199000091GA1001+999999999GF100991001001999999001001KA1999N-00151MD1710031+9999REMSYN064AAXX  21061 54259 32980 00704 10069 21072 40234 57003 333 21015;EQDQ01  00002PRCP99
0112542590999992000032109004+42100+124950FM-12+023599999V0200401N002012200019N0300001N1+00611-00821102381ADDGF102991001001999999999021MD1210031+9999REMSYN060AAXX  21091 54259 42980 20402 10061 21082 40238 52003 800/2;
0152542590999992000032112004+42100+124950FM-12+023599999V0209999C000012200019N0150001N1+00181-00631102591ADDAA199000091GA1001+999999999GF100991001001999999001001MD1210191+9999REMSYN054AAXX  21121 54259 32965 00000 10018 21063 40259 52019;EQDQ01  00002PRCP99
0175542590999992000032118004+42100+124950FM-12+023599999V0209999C000012200019N0150001N1-00371-00601102681ADDAA199000091GA1001+999999999GF100991001001999999001001KA1999M+00761MD1210011+9999REMSYN064AAXX  21181 54259 32965 00000 11037 21060 40268 52001 333 10076;EQDQ01  00002PRCP99
0122542590999992000032121004+42100+124950FM-12+023599999V0209999C000012200019N0150001N1-00491-00791102481ADDGA1001+999999999GF100991001001999999001001MD1710201+9999REMSYN054AAXX  21211 54259 42965 00000 11049 21079 40248 57020;
0162542590999992000032200004+42100+124950FM-12+023599999V0209999C000012200019N0150001N1-00241-00551102441ADDAA199000091GA1001+999999999GF100991001001999999001001MD1710051+0011REMSYN064AAXX  22001 54259 32965 00000 11024 21055 40244 57005 333 00152;EQDQ01  00002PRCP99
0112542590999992000032203004+42100+124950FM-12+023599999V0202201N004019999999N0300001N1+00821-01211102041ADDGF107991001001999999001021MD1710351+9999REMSYN060AAXX  22031 54259 42980 72204 10082 21121 40204 57035 80002;
0165542590999992000032206004+42100+124950FM-12+023599999V0202201N008019999999N0300001N1+01211-00821101601ADDAA199000091GF107991001001999999001021KA1999N-00541MD1719999+9999REMSYN070AAXX  22061 54259 32980 72208 10121 21082 40160 570/2 80002 333 21054;EQDQ01  00002PRCP99
0112542590999992000032209004+42100+124950FM-12+023599999V0202001N006010900019N0300001N1+01001-00771101451ADDGF107991021051012501001021MD1710161+9999REMSYN060AAXX  22091 54259 42680 72006 10100 21077 40145 57016 82502;
0142542590999992000032212004+42100+124950FM-12+023599999V0202501N006010120019N0300001N1+00651-00251101471ADDAA199000091GF107991051051012501001021MD1210011+9999REMSYN060AAXX  22121 54259 32680 72506 10065 21025 40147 52001 85502;EQDQ01  00002PRCP99
0172542590999992000032218004+42100+124950FM-12+023599999V0209999C000010120019N0150001N1+00111+00031101231ADDAA106000591AY161061GF107991071051012501999999KA1999M+01251MD1710191+9999MW1001REMSYN082AAXX  22181 54259 11665 70000 10011 20003 40123 57019 69941 70060 875// 333 10125;
0133542590999992000032221004+42100+124950FM-12+023599999V0202701N001010120019N0120001N1+00101+00021101101ADDAA124000591GF107991071051012501999999MD1710141+9999REMSYN070AAXX  22211 54259 42662 72701 10010 20002 40110 57014 875// 333 70004;
0157542590999992000032300004+42100+124950FM-12+023599999V0202201N005012200019N0150001N1+00321-00381101051ADDAA124000591GF101991011051012501001001IA2999-00119MD1710061-1301REMSYN082AAXX  23001 54259 32665 12205 10032 21038 40105 57006 81500 333 06306 31011 70004;
0112542590999992000032303004+42100+124950FM-12+023599999V0202201N010012200019N0300001N1+00561-00751100971ADDGF101991011051012501001001MD1710071+9999REMSYN060AAXX  23031 54259 42680 12210 10056 21075 40097 57007 81500;
0165542590999992000032306004+42100+124950FM-12+023599999V0202501N007010120019N0300001N1+00561-00751100871ADDAA199000091GF106991061051012501001001KA1999N+00051MD1710121+9999REMSYN070AAXX  23061 54259 32680 62507 10056 21075 40087 57012 86500 333 20005;EQDQ01  00002PRCP99
0112542590999992000032309004+42100+124950FM-12+023599999V0202501N006012200019N0200001N1+00461-01351100881ADDGF104991041051012501001001MD1210011+9999REMSYN060AAXX  23091 54259 42670 42506 10046 21135 40088 52001 84500;
0142542590999992000032312004+42100+124950FM-12+023599999V0202701N006010120019N0150001N1+00231-01291101161ADDAA199000091GF108991081051012501999999MD1210271+9999REMSYN060AAXX  23121 54259 32665 82706 10023 21129 40116 52027 885//;EQDQ01  00002PRCP99
0172542590999992000032318004+42100+124950FM-12+023599999V0202201N001010120019N0120001N1-00171-00361101361ADDAA106000791AY171061GF108991081051012501999999KA1999M+00631MD1210131+9999MW1701REMSYN082AAXX  23181 54259 11662 82201 11017 21036 40136 52013 69901 77070 885// 333 10063;
0153542590999992000032321004+42100+124950FM-12+023599999V0202501N001010120019N0200001N1-00271-00591101431ADDAA124000591AY171031GF107991071051012501999999MD1210051+9999MW1001REMSYN076AAXX  23211 54259 41670 72501 11027 21059 40143 52005 70070 875// 333 70006;
0189542590999992000032400004+42100+124950FM-12+023599999V0202501N001012200019N0300001N1-00221-00731101611ADDAA106000591AY171061GF102991021051012501001001IA2999-00209MD1210171+0501MW1001REMSYN100AAXX  24001 54259 11680 22501 11022 21073 40161 52017 69961 70070 82500 333 00555 31020 70006 92502;
0132542590999992000032403004+42100+124950FM-12+023599999V0202701N004010120019N0200001N1+00011-00831101791ADDAY171031GF107991071051012501999999MD1210171+9999MW1701REMSYN066AAXX  24031 54259 41670 72704 10001 21083 40179 52017 77070 875//;
0172542590999992000032406004+42100+124950FM-12+023599999V0202701N004010120019N0300001N1+00181-00891101761ADDAA106000791AY171061GF107991071051012501999999KA1999N-00271MD1710031+9999MW1701REMSYN082AAXX  24061 54259 11680 72704 10018 21089 40176 57003 69901 77070 875// 333 21027;
0132542590999992000032409004+42100+124950FM-12+023599999V0202501N005010120019N0220001N1+00021-00731101811ADDAY171031GF107991071051012501999999MD1210041+9999MW1701REMSYN066AAXX  24091 54259 41672 72505 10002 21073 40181 52004 77070 875//;
0159542590999992000032412004+42100+124950FM-12+023599999V0209999C000012200019N0200001N1-00271-00631101891ADDAA106000791AY171061GA1001+999999999GF100991001001999999001001MD1210061+9999MW1001REMSYN066AAXX  24121 54259 11970 00000 11027 21063 40189 52006 69901 70070;
0156542590999992000032418004+42100+124950FM-12+023599999V0202501N004012200019N0200001N1-00401-00851101801ADDAA199000021GA1001+999999999GF100991001001999999001001KA1999M+00221MD1710071+9999REMSYN064AAXX  24181 54259 32970 02504 11040 21085 40180 57007 333 10022;
0143542590999992000032421004+42100+124950FM-12+023599999V0202201N003012200019N0200001N1-00461-00791101821ADDAA124000791GA1001+999999999GF100991001001999999001001MD1210011+9999REMSYN064AAXX  24211 54259 42970 02203 11046 21079 40182 52001 333 79999;
0167542590999992000032500004+42100+124950FM-12+023599999V0202201N005012200019N0300001N1-00141-01201101841ADDAA124000791GA1001+999999999GF100991001001999999001001IA2999-00509MD1210021+0201REMSYN076AAXX  25001 54259 32980 02205 11014 21120 40184 52002 333 00201 31050 79999;
0112542590999992000032503004+42100+124950FM-12+023599999V0202501N005012200019N0300001N1+00171-01511101841ADDGF101991011011008001001001MD1210011+9999REMSYN060AAXX  25031 54259 42580 12505 10017 21151 40184 52001 81100;
0165542590999992000032506004+42100+124950FM-12+023599999V0202701N007012200019N0300001N1+00351-01291101791ADDAA199000091GF101991011011008001001001KA1999N-00491MD1710041+9999REMSYN070AAXX  25061 54259 32580 12707 10035 21129 40179 57004 81100 333 21049;EQDQ01  00002PRCP99
0112542590999992000032509004+42100+124950FM-12+023599999V0202701N002012200019N0300001N1+00271-01821101791ADDGF101991011011008001001001MD1710011+9999REMSYN060AAXX  25091 54259 42580 12702 10027 21182 40179 57001 81100;
0142542590999992000032512004+42100+124950FM-12+023599999V0209999C000012200019N0200001N1+00051-01821101811ADDAA199000091GF101991011051012501001001MD1210031+9999REMSYN060AAXX  25121 54259 32670 10000 10005 21182 40181 52003 81500;EQDQ01  00002PRCP99
0175542590999992000032518004+42100+124950FM-12+023599999V0209999C000012200019N0200001N1-00431-01081101821ADDAA199000091GA1001+999999999GF100991001001999999001001KA1999M+00371MD1210011+9999REMSYN064AAXX  25181 54259 32970 00000 11043 21108 40182 52001 333 10037;EQDQ01  00002PRCP99
0122542590999992000032521004+42100+124950FM-12+023599999V0209999C000012200019N0200001N1-00621-01101101871ADDGA1001+999999999GF100991001001999999001001MD1210031+9999REMSYN054AAXX  25211 54259 42970 00000 11062 21110 40187 52003;
0162542590999992000032600004+42100+124950FM-12+023599999V0209999C000012200019N0150001N1-00271-00891101861ADDAA199000091GA1001+999999999GF100991001001999999001001MD1410001+0001REMSYN064AAXX  26001 54259 32965 00000 11027 21089 40186 54000 333 00051;EQDQ01  00002PRCP99
0122542590999992000032603004+42100+124950FM-12+023599999V0202501N001012200019N0300001N1+00461-01371101721ADDGA1001+999999999GF100991001001999999001001MD1710111+9999REMSYN054AAXX  26031 54259 42980 02501 10046 21137 40172 57011;
0165542590999992000032606004+42100+124950FM-12+023599999V0209999C000010900019N0300001N1+00711-01031101421ADDAA199000091GF107991011051012501001021KA1999N-00691MD1710291+9999REMSYN070AAXX  26061 54259 32680 70000 10071 21103 40142 57029 81502 333 21069;EQDQ01  00002PRCP99
0112542590999992000032609004+42100+124950FM-12+023599999V0209999C000012200019N0300001N1+00821-00841101091ADDGF102991001001999999001021MD1710331+9999REMSYN060AAXX  26091 54259 42980 20000 10082 21084 40109 57033 80002;
0152542590999992000032612004+42100+124950FM-12+023599999V0200901N001012200019N0200001N1+00321-00501101001ADDAA199000091GA1001+999999999GF100991001001999999001001MD1710091+9999REMSYN054AAXX  26121 54259 32970 00901 10032 21050 40100 57009;EQDQ01  00002PRCP99
0165542590999992000032618004+42100+124950FM-12+023599999V0209999C000019999999N0150001N1-00101-00451100651ADDAA199000091GF107991001001999999001021KA1999M+00911MD1710271+9999REMSYN070AAXX  26181 54259 32965 70000 11010 21045 40065 57027 80002 333 10091;EQDQ01  00002PRCP99
0112542590999992000032621004+42100+124950FM-12+023599999V0209999C000019999999N0150001N1-00091-00371100401ADDGF107991001001999999001021MD1710241+9999REMSYN060AAXX  26211 54259 42965 70000 11009 21037 40040 57024 80002;
0182542590999992000032700004+42100+124950FM-12+023599999V0209999C000019999999N0080001N1+00221-00201100311ADDAA199000091GF107991001001999999001021IA2999-00209MD1710101-1501MW1041REMSYN082AAXX  27001 54259 31958 70000 10022 21020 40031 57010 70400 80002 333 06505 31025;EQDQ01  00002PRCP99
0131542590999992000032703004+42100+124950FM-12+023599999V0202501N002019999999N0300001N1+01382-00661100101ADDGF107991001001999999001021MD1710161+9999REMSYN060AAXX  27031 54259 42980 72502 10138 21066 40010 57016 80002;EQDQ01+001383ATOT  
0165542590999992000032706004+42100+124950FM-12+023599999V0202201N002010120019N0300001N1+01631-00421099951ADDAA199000091GF107991051051012501001021KA1999N-00101MD1710141+9999REMSYN070AAXX  27061 54259 32680 72202 10163 21042 49995 57014 85502 333 21010;EQDQ01  00002PRCP99
0112542590999992000032709004+42100+124950FM-12+023599999V0202501N003010120019N0280001N1+01321-00331099991ADDGF108991081051012501999999MD1210031+9999REMSYN060AAXX  27091 54259 42678 82503 10132 21033 49999 52003 885//;
0142542590999992000032712004+42100+124950FM-12+023599999V0209999C000010120019N0200001N1+00871+00041100161ADDAA199000091GF108991081051012501999999MD1210161+9999REMSYN060AAXX  27121 54259 32670 80000 10087 20004 40016 52016 885//;EQDQ01  00002PRCP99
0172542590999992000032718004+42100+124950FM-12+023599999V0209999C000019999999N0050001N1+00431+00361100141ADDAA106003091AY161061GF108991081001999999021999KA1999M+01651MD1710081+9999MW1611REMSYN082AAXX  27181 54259 11950 80000 10043 20036 40014 57008 60031 76160 8802/ 333 10165;
0161542590999992000032721004+42100+124950FM-12+023599999V0203401N002019999999N0120001N1+00401+00231100161ADDAA124010491AY161031AY261031GF108991081001999999021999MD1210011+9999MW1611REMSYN076AAXX  27211 54259 41962 83402 10040 20023 40016 52001 76166 8802/ 333 70105;
0191542590999992000032800004+42100+124950FM-12+023599999V0209999C000019999999N0050001N1+00081+00031100481ADDAA106013091AY171061AY261061GF108991081001999999021999IA2999+00029MD1210271+0201MW1711REMSYN094AAXX  28001 54259 11950 80000 10008 20003 40048 52027 60131 77176 8802/ 333 00251 30002 70167;
0140542590999992000032803004+42100+124950FM-12+023599999V0202201N003010120019N0120001N1-00021-00111100711ADDAY171031AY271031GF108991081051012501999999MD1210201+9999MW1701REMSYN066AAXX  28031 54259 41662 82203 11002 21011 40071 52020 77077 885//;
0180542590999992000032806004+42100+124950FM-12+023599999V0202001N001010120019N0080001N1-00031-00121100971ADDAA106002091AY171061AY271061GF108991081051012501999999KA1999N-00041MD1210251+9999MW1701REMSYN082AAXX  28061 54259 11658 82001 11003 21012 40097 52025 60021 77077 885// 333 21004;
0140542590999992000032809004+42100+124950FM-12+023599999V0209999C000010120019N0050001N1+00131+00021101151ADDAY171031AY271031GF108991081051012501999999MD1210181+9999MW1681REMSYN066AAXX  28091 54259 41650 80000 10013 20002 40115 52018 76877 885//;
0149542590999992000032812004+42100+124950FM-12+023599999V0209999C000010120019N0120001N1+00081-00031101371ADDAA106000191AY171061GF108991081051012501999999MD1210191+9999MW1001REMSYN072AAXX  28121 54259 11662 80000 10008 21003 40137 52019 69921 70070 885//;
0156542590999992000032818004+42100+124950FM-12+023599999V0209999C000012200019N0200001N1-00161-00531101651ADDAA199000021GA1001+999999999GF100991001001999999001001KA1999M+00441MD1210151+9999REMSYN064AAXX  28181 54259 32970 00000 11016 21053 40165 52015 333 10044;
0157542590999992000032900004+42100+124950FM-12+023599999V0200201N001012200019N0250001N1+00061-00571101881ADDAA124002391GF101991011051012501001001IA2999-00349MD1210131+1301REMSYN082AAXX  29001 54259 32675 10201 10006 21057 40188 52013 81500 333 01300 31034 70023;
0112542590999992000032903004+42100+124950FM-12+023599999V0200701N001012200019N0300001N1+00431-00621101861ADDGF101991011011008001001001MD1710011+9999REMSYN060AAXX  29031 54259 42580 10701 10043 21062 40186 57001 81100;
0165542590999992000032906004+42100+124950FM-12+023599999V0202501N002012200019N0300001N1+00691-00571101591ADDAA199000091GF101991011011008001001021KA1999N-00221MD1710251+9999REMSYN070AAXX  29061 54259 32580 12502 10069 21057 40159 57025 81102 333 21022;EQDQ01  00002PRCP99
0112542590999992000032909004+42100+124950FM-12+023599999V0203201N003019999999N0300001N1+00691-00851101401ADDGF106991001001999999001021MD1710181+9999REMSYN060AAXX  29091 54259 42980 63203 10069 21085 40140 57018 80002;
0152542590999992000032912004+42100+124950FM-12+023599999V0209999C000012200019N0180001N1+00251-00731101461ADDAA199000091GA1001+999999999GF100991001001999999001001MD1210041+9999REMSYN054AAXX  29121 54259 32968 00000 10025 21073 40146 52004;EQDQ01  00002PRCP99
0175542590999992000032918004+42100+124950FM-12+023599999V0209999C000012200019N0150001N1-00271-00411101371ADDAA199000091GA1001+999999999GF100991001001999999001001KA1999M+00771MD1710071+9999REMSYN064AAXX  29181 54259 32965 00000 11027 21041 40137 57007 333 10077;EQDQ01  00002PRCP99
0112542590999992000032921004+42100+124950FM-12+023599999V0209999C000019999999N0120001N1-00351-00471101331ADDGF107991001001999999001021MD1710051+9999REMSYN060AAXX  29211 54259 42962 70000 11035 21047 40133 57005 80002;
0182542590999992000033000004+42100+124950FM-12+023599999V0209999C000019999999N0080001N1-00051-00281101451ADDAA199000091GF107991001001999999001021IA2999-00409MD1210111-0401MW1041REMSYN082AAXX  30001 54259 31958 70000 11005 21028 40145 52011 70400 80002 333 05451 31040;EQDQ01  00002PRCP99
0112542590999992000033003004+42100+124950FM-12+023599999V0202201N004019999999N0280001N1+00821-00641101241ADDGF107991001001999999001021MD1710181+9999REMSYN060AAXX  30031 54259 42978 72204 10082 21064 40124 57018 80002;
0165542590999992000033006004+42100+124950FM-12+023599999V0202001N002019999999N0300001N1+01181-00581100951ADDAA199000091GF107991001001999999001021KA1999N-00361MD1710271+9999REMSYN070AAXX  30061 54259 32980 72002 10118 21058 40095 57027 80002 333 21036;EQDQ01  00002PRCP99
0112542590999992000033009004+42100+124950FM-12+023599999V0202201N002012200019N0300001N1+01081-00791100861ADDGF102991001001999999001021MD1710091+9999REMSYN060AAXX  30091 54259 42980 22202 10108 21079 40086 57009 80002;
0152542590999992000033012004+42100+124950FM-12+023599999V0209999C000012200019N0120001N1+00401-00311100931ADDAA199000091GA1001+999999999GF100991001001999999001001MD1210051+9999REMSYN054AAXX  30121 54259 32962 00000 10040 21031 40093 52005;EQDQ01  00002PRCP99
0172542590999992000033018004+42100+124950FM-12+023599999V0202501N002010120019N0150001N1+00381+00101100931ADDAA106001091AY161061GF108991081051012501999999KA1999M+01201MD1210071+9999MW1211REMSYN082AAXX  30181 54259 11665 82502 10038 20010 40093 52007 60011 72160 885// 333 10120;
0143542590999992000033021004+42100+124950FM-12+023599999V0209999C000012200019N0300001N1+00061-00941101221ADDAA124001391GA1001+999999999GF100991001001999999001001MD1210261+9999REMSYN064AAXX  30211 54259 42980 00000 10006 21094 40122 52026 333 70012;
0167542590999992000033100004+42100+124950FM-12+023599999V0202201N003012200019N0300001N1+00301-01481101371ADDAA124001391GA1001+999999999GF100991001001999999001001IA2999-00219MD1210121-0101REMSYN076AAXX  31001 54259 32980 02203 10030 21148 40137 52012 333 05104 31021 70012;
0122542590999992000033103004+42100+124950FM-12+023599999V0202901N004012200019N0300001N1+00681-01361101401ADDGA1001+999999999GF100991001001999999001001MD1210041+9999REMSYN054AAXX  31031 54259 42980 02904 10068 21136 40140 52004;
0146542590999992000033106004+42100+124950FM-12+023599999V0203201N005012200019N0300001N1+00881-01621101301ADDAA199000021GF102991021011008001001001KA1999N-00071MD1710081+9999REMSYN070AAXX  31061 54259 32580 23205 10088 21162 40130 57008 82100 333 21007;
0142542590999992000033112004+42100+124950FM-12+023599999V0202701N004012200019N0250001N1+00611-01131101311ADDAA199000091GF102991021051012501001001MD1210071+9999REMSYN060AAXX  31121 54259 32675 22704 10061 21113 40131 52007 82500;EQDQ01  00002PRCP99
0175542590999992000033118004+42100+124950FM-12+023599999V0209999C000012200019N0150001N1+00041-00931101831ADDAA199000091GA1001+999999999GF100991001001999999001001KA1999M+00961MD1210181+9999REMSYN064AAXX  31181 54259 32/65 00000 10004 21093 40183 52018 333 10096;EQDQ01  00002PRCP99
0112542590999992000033121004+42100+124950FM-12+023599999V0209999C000019999999N0200001N1-00131-00681101961ADDGF107991001001999999001021MD1210121+9999REMSYN060AAXX  31211 54259 42970 70000 11013 21068 40196 52012 80002;
0170542590999992000040100004+42100+124950FM-12+023599999V0209999C000019999999N0200001N1+00231-00631102131ADDAA199000091GF107991001001999999001021IA2999-00109MD1210171+0801REMSYN076AAXX  01001 54259 32970 70000 10023 21063 40213 52017 80002 333 00851 31015;EQDQ01  00002PRCP99
0112542590999992000040103004+42100+124950FM-12+023599999V0200201N002012200019N0300001N1+00661-01591102101ADDGF102991001001999999001021MD1710021+9999REMSYN060AAXX  01031 54259 42980 20202 10066 21159 40210 57002 80002;
0165542590999992000040106004+42100+124950FM-12+023599999V0203601N002012200019N0300001N1+00911-01721101991ADDAA199000091GF102991001001999999001021KA1999N-00181MD1710111+9999REMSYN070AAXX  01061 54259 32980 23602 10091 21172 40199 57011 80002 333 21018;EQDQ01  00002PRCP99
0112542590999992000040109004+42100+124950FM-12+023599999V0203601N001010900019N0250001N1+00831-01391101971ADDGF107991021051012501001021MD1710041+9999REMSYN060AAXX  01091 54259 42675 73601 10083 21139 40197 57004 82502;
0142542590999992000040112004+42100+124950FM-12+023599999V0209999C000010900019N0200001N1+00551-01101102271ADDAA199000091GF107991021051012501001021MD1210301+9999REMSYN060AAXX  01121 54259 32670 70000 10055 21110 40227 52030 82502;EQDQ01  00002PRCP99
0175542590999992000040118004+42100+124950FM-12+023599999V0209999C000012200019N0180001N1-00121-00751102361ADDAA199000091GA1001+999999999GF100991001001999999001001KA1999M+00981MD1410001+9999REMSYN064AAXX  01181 54259 32968 00000 11012 21075 40236 54000 333 10098;EQDQ01  00002PRCP99
0122542590999992000040121004+42100+124950FM-12+023599999V0209999C000012200019N0200001N1-00301-00731102401ADDGA1001+999999999GF100991001001999999001001MD1210021+9999REMSYN054AAXX  01211 54259 42970 00000 11030 21073 40240 52002;
0170542590999992000040200004+42100+124950FM-12+023599999V0209999C000012200019N0180001N1+00021-00691102431ADDAA199000091GF102991001001999999001021IA2999-00209MD1210031+0301REMSYN076AAXX  02001 54259 32968 20000 10002 21069 40243 52003 80002 333 00352 31025;EQDQ01  00002PRCP99
0112542590999992000040203004+42100+124950FM-12+023599999V0202501N002012200019N0300001N1+00941-01161102281ADDGF101991001001999999001021MD1710111+9999REMSYN060AAXX  02031 54259 42980 12502 10094 21116 40228 57011 80002;
0165542590999992000040206004+42100+124950FM-12+023599999V0202001N002012200019N0300001N1+01181-01541102051ADDAA199000091GF101991011011008001001021KA1999N-00361MD1710231+9999REMSYN070AAXX  02061 54259 32580 12002 10118 21154 40205 57023 81102 333 21036;EQDQ01  00002PRCP99
0122542590999992000040209004+42100+124950FM-12+023599999V0201801N002012200019N0300001N1+01161-01521101931ADDGA1001+999999999GF100991001001999999001001MD1710131+9999REMSYN054AAXX  02091 54259 42980 01802 10116 21152 40193 57013;
0152542590999992000040212004+42100+124950FM-12+023599999V0209999C000012200019N0150001N1+00451-00681102131ADDAA199000091GA1001+999999999GF100991001001999999001001MD1210181+9999REMSYN054AAXX  02121 54259 32965 00000 10045 21068 40213 52018;EQDQ01  00002PRCP99
0175542590999992000040218004+42100+124950FM-12+023599999V0209999C000012200019N0150001N1-00101-00451102161ADDAA199000091GA1001+999999999GF100991001001999999001001KA1999M+01281MD1710061+9999REMSYN064AAXX  02181 54259 32965 00000 11010 21045 40216 57006 333 10128;EQDQ01  00002PRCP99
0112542590999992000040221004+42100+124950FM-12+023599999V0209999C000010120019N0120001N1-00081-00331102051ADDGF107991071051012501999999MD1710111+9999REMSYN060AAXX  02211 54259 42662 70000 11008 21033 40205 57011 875//;
0182542590999992000040300004+42100+124950FM-12+023599999V0209999C000010120019N0050001N1+00201-00141102101ADDAA199000091GF108991081051012501999999IA2999-00209MD1210031-0301MW1041REMSYN082AAXX  03001 54259 31650 80000 10020 21014 40210 52003 70400 885// 333 05302 31022;EQDQ01  00002PRCP99
0182542590999992000040303004+42100+124950FM-12+023599999V0209999C000010120019N0050001N1+00201-00141102101ADDAA199000091GF108991081051012501999999IA2999-00209MD1210031-0301MW1041REMSYN082AAXX  03031 54259 31650 80000 10020 21014 40210 52003 70400 885// 333 05302 31022;EQDQ01  00002PRCP99
0165542590999992000040306004+42100+124950FM-12+023599999V0202201N008019999999N0250001N1+01612-00161101561ADDAA199000091GF105991001001999999001021KA1999N-00111MD1710301+9999REMSYN070AAXX  03061 54259 32975 52208 10161 21016 40156 57030 80002 333 21011;EQDQ01  00002PRCP99
0122542590999992000040309004+42100+124950FM-12+023599999V0202001N005012200019N0280001N1+01221+00091101361ADDGA1001+999999999GF100991001001999999001001MD1710221+9999REMSYN054AAXX  03091 54259 42978 02005 10122 20009 40136 57022;
0142542590999992000040312004+42100+124950FM-12+023599999V0202201N005019999999N0200001N1+01051+00101101311ADDAA199000091GF105991001001999999001021MD1710041+9999REMSYN060AAXX  03121 54259 32970 52205 10105 20010 40131 57004 80002;EQDQ01  00002PRCP99
0165542590999992000040318004+42100+124950FM-12+023599999V0202001N008012200019N0200001N1+00921-00511101201ADDAA199000091GF102991021051012501001001KA1999M+01631MD1710041+9999REMSYN070AAXX  03181 54259 32670 22008 10092 21051 40120 57004 82500 333 10163;EQDQ01  00002PRCP99
0112542590999992000040321004+42100+124950FM-12+023599999V0202001N007012200019N0250001N1+00901-00411101111ADDGF102991021051012501001001MD1710111+9999REMSYN060AAXX  03211 54259 42675 22007 10090 21041 40111 57011 82500;
0170542590999992000040400004+42100+124950FM-12+023599999V0202201N005010120019N0300001N1+01001-00251101101ADDAA199000091GF108991081051012501999999IA2999+00309MD1710011-0901REMSYN076AAXX  04001 54259 32680 82205 10100 21025 40110 57001 885// 333 05908 30035;EQDQ01  00002PRCP99
0132542590999992000040403004+42100+124950FM-12+023599999V0202501N003010120019N0200001N1+00721+00451101181ADDAY161031GF108991081051012501999999MD1210061+9999MW1601REMSYN066AAXX  04031 54259 41670 82503 10072 20045 40118 52006 76060 885//;
0172542590999992000040406004+42100+124950FM-12+023599999V0201801N001010120019N0150001N1+00601+00341101211ADDAA106002091AY161061GF108991081051012501999999KA1999N+00601MD1210021+9999MW1601REMSYN082AAXX  04061 54259 11665 81801 10060 20034 40121 52002 60021 76060 885// 333 20060;
0112542590999992000040409004+42100+124950FM-12+023599999V0202201N002010120019N0150001N1+00701+00351101171ADDGF107991071051012501999999MD1710041+9999REMSYN060AAXX  04091 54259 42665 72202 10070 20035 40117 57004 875//;
0133542590999992000040412004+42100+124950FM-12+023599999V0209999C000012200019N0120001N1+00441+00271101331ADDAA199000021GA1001+999999999GF100991001001999999001001MD1210151+9999REMSYN054AAXX  04121 54259 32962 00000 10044 20027 40133 52015;
0156542590999992000040418004+42100+124950FM-12+023599999V0202701N002012200019N0150001N1+00171-00631101461ADDAA199000021GA1001+999999999GF100991001001999999001001KA1999M+01061MD1210011+9999REMSYN064AAXX  04181 54259 32965 02702 10017 21063 40146 52001 333 10106;
0143542590999992000040421004+42100+124950FM-12+023599999V0202501N003012200019N0300001N1-00021-00651101461ADDAA124002091GA1001+999999999GF100991001001999999001001MD1410001+9999REMSYN064AAXX  04211 54259 42980 02503 11002 21065 40146 54000 333 70021;
0112542590999992000040503004+42100+124950FM-12+023599999V0202701N004010120019N0300001N1+00401-00901101511ADDGF105991051051012501001001MD1410001+9999REMSYN060AAXX  05031 54259 42680 52704 10040 21090 40151 54000 85500;
0165542590999992000040506004+42100+124950FM-12+023599999V0202501N005010120019N0300001N1+00521-00931101441ADDAA199000091GF107991071051012501999999KA1999N-00061MD1710061+9999REMSYN070AAXX  05061 54259 32680 72505 10052 21093 40144 57006 875// 333 21006;EQDQ01  00002PRCP99
0132542590999992000040509004+42100+124950FM-12+023599999V0202501N003010120019N0300001N1+00561-01071101451ADDAY171031GF106991061051012501001001MD1410001+9999MW1001REMSYN066AAXX  05091 54259 41680 62503 10056 21107 40145 54000 70070 86500;
0159542590999992000040512004+42100+124950FM-12+023599999V0209999C000012200019N0150001N1+00111-00861101571ADDAA106000791AY171061GA1001+999999999GF100991001001999999001001MD1210111+9999MW1001REMSYN066AAXX  05121 54259 11965 00000 10011 21086 40157 52011 69901 70070;
0175542590999992000040518004+42100+124950FM-12+023599999V0209999C000012200019N0150001N1-00371-00601101561ADDAA199000091GA1001+999999999GF100991001001999999001001KA1999M+00651MD1710081+9999REMSYN064AAXX  05181 54259 32965 00000 11037 21060 40156 57008 333 10065;EQDQ01  00002PRCP99
0133542590999992000040521004+42100+124950FM-12+023599999V0209999C000019999999N0150001N1-00421-00551101341ADDAA124000791GF107991001001999999001021MD1710221+9999REMSYN070AAXX  05211 54259 42965 70000 11042 21055 40134 57022 80002 333 79999;
0157542590999992000040600004+42100+124950FM-12+023599999V0202201N003010120019N0300001N1+00511-00791101011ADDAA124000791GF107991061051012501001021IA2999-00459MD1710291-0501REMSYN082AAXX  06001 54259 32680 72203 10051 21079 40101 57029 86502 333 05503 31045 79999;
0112542590999992000040603004+42100+124950FM-12+023599999V0202201N013010120019N0300001N1+01121-01161100791ADDGF107991061051012501001021MD1710201+9999REMSYN060AAXX  06031 54259 42680 72213 10112 21116 40079 57020 86502;
0188542590999992000040606004+42100+124950FM-12+023599999V0202001N012019999999N0300001N1+01381-01271100431ADDAA199000091GF106991001001999999001021KA1240N-00461MD1710351+9999OA130601901REMSYN082AAXX  06061 54259 32980 62012 10138 21127 40043 57035 80002 333 21046 91119 91518;EQDQ01  00002PRCP99
0112542590999992000040609004+42100+124950FM-12+023599999V0202001N008010120019N0300001N1+01081-01411100331ADDGF107991071051012501999999MD1710111+9999REMSYN060AAXX  06091 54259 42680 72008 10108 21141 40033 57011 875//;
0176542590999992000040612004+42100+124950FM-12+023599999V0202201N003010120019N0180001N1+00451+00092100631ADDAA106000391AY161061GF108991081051012501999999MD1210311+9999MW1601OA130601901REMSYN088AAXX  06121 54259 11668 82203 10045 20009 40063 52031 69931 76060 885// 333 91119 91518;
0172542590999992000040618004+42100+124950FM-12+023599999V0202501N009010120019N0200001N1+00261-00711100771ADDAA106000791AY161061GF108991081051012501999999KA1999M+01441MD1210141+9999MW1001REMSYN082AAXX  06181 54259 11670 82509 10026 21071 40077 52014 69901 70060 885// 333 10144;
0133542590999992000040621004+42100+124950FM-12+023599999V0202201N008010120019N0200001N1+00161-00871100831ADDAA124000391GF108991081051012501999999MD1210031+9999REMSYN070AAXX  06211 54259 42670 82208 10016 21087 40083 52003 885// 333 70003;
0183542590999992000040700004+42100+124950FM-12+023599999V0202501N009010900019N0250001N1+00141-01061101071ADDAA106000791AY171061GF107991031051012501001021IA2999+00029MD1210201+0101MW1221REMSYN094AAXX  07001 54259 11675 72509 10014 21106 40107 52020 69901 72270 83502 333 00154 30002 70003;
0112542590999992000040703004+42100+124950FM-12+023599999V0202501N007010900019N0200001N1+00171-01111101431ADDGF108991021051012501001071MD1210351+9999REMSYN060AAXX  07031 54259 42670 82507 10017 21111 40143 52035 82507;
0195542590999992000040706004+42100+124950FM-12+023599999V0202501N009010120019N0150001N1+00061-00511101691ADDAA106000791AY171061GF107991071051012501999999KA1240N+00041MD1210241+9999MW1001OA130601701REMSYN094AAXX  07061 54259 11665 72509 10006 21051 40169 52024 69901 70070 875// 333 20004 91117 91525;
0132542590999992000040709004+42100+124950FM-12+023599999V0202501N004010120019N0180001N1+00111-00181101841ADDAY171031GF108991081051012501999999MD1210151+9999MW1221REMSYN066AAXX  07091 54259 41668 82504 10011 21018 40184 52015 72270 885//;
0149542590999992000040712004+42100+124950FM-12+023599999V0209999C000012200019N0200001N1+00031-00421102121ADDAA106000791AY171061GF102991021051012501001001MD1210261+9999MW1001REMSYN072AAXX  07121 54259 11670 20000 10003 21042 40212 52026 69901 70070 82500;
0156542590999992000040718004+42100+124950FM-12+023599999V0209999C000012200019N0150001N1-00381-00551102361ADDAA199000021GA1001+999999999GF100991001001999999001001KA1999M+00281MD1210071+9999REMSYN064AAXX  07181 54259 32965 00000 11038 21055 40236 52007 333 10028;
0143542590999992000040721004+42100+124950FM-12+023599999V0200401N002012200019N0150001N1-00421-00511102401ADDAA124000791GA1001+999999999GF100991001001999999001001MD1210051+9999REMSYN064AAXX  07211 54259 42965 00402 11042 21051 40240 52005 333 79999;
0167542590999992000040800004+42100+124950FM-12+023599999V0209999C000012200019N0120001N1+00061-00341102371ADDAA124000791GA1001+999999999GF100991001001999999001001IA2999-00399MD1710051+1201REMSYN076AAXX  08001 54259 32962 00000 10006 21034 40237 57005 333 01251 31039 79999;
0141542590999992000040803004+42100+124950FM-12+023599999V0202001N006012200019N0300001N1+01162-01141102041ADDGA1001+999999999GF100991001001999999001001MD1710281+9999REMSYN054AAXX  08031 54259 42980 02006 10116 21114 40204 57028;EQDQ01+001163ATOT  
0175542590999992000040806004+42100+124950FM-12+023599999V0202001N008012200019N0300001N1+01511-01041101641ADDAA199000091GA1001+999999999GF100991001001999999001001KA1999N-00511MD1710371+9999REMSYN064AAXX  08061 54259 32980 02008 10151 21104 40164 57037 333 21051;EQDQ01  00002PRCP99
0112542590999992000040809004+42100+124950FM-12+023599999V0202201N006012200019N0280001N1+01411-01001101461ADDGF101991001001999999001021MD1710191+9999REMSYN060AAXX  08091 54259 42978 12206 10141 21100 40146 57019 80002;
0152542590999992000040812004+42100+124950FM-12+023599999V0202001N007012200019N0150001N1+01051-01171101431ADDAA199000091GA1001+999999999GF100991001001999999001001MD1710021+9999REMSYN054AAXX  08121 54259 32965 02007 10105 21117 40143 57002;EQDQ01  00002PRCP99
0175542590999992000040818004+42100+124950FM-12+023599999V0202501N005012200019N0150001N1+00791-01661101361ADDAA199000091GA1001+999999999GF100991001001999999001001KA1999M+01571MD1710031+9999REMSYN064AAXX  08181 54259 32965 02505 10079 21166 40136 57003 333 10157;EQDQ01  00002PRCP99
0112542590999992000040821004+42100+124950FM-12+023599999V0202201N004012200019N0200001N1+00811-01591101281ADDGF104991041051012501001001MD1710081+9999REMSYN060AAXX  08211 54259 42670 42204 10081 21159 40128 57008 84500;
0175542590999992000040900004+42100+124950FM-12+023599999V0202201N005010120019N0300001N1+00771-01121101281ADDAA106000791GF108991081051012501999999IA2999+00069MD1710021-1001MW1231REMSYN094AAXX  09001 54259 11680 82205 10077 21112 40128 57002 69901 72300 885// 333 06007 30006 79999;
0112542590999992000040903004+42100+124950FM-12+023599999V0202701N004010120019N0300001N1+00691-00371101301ADDGF108991081051012501999999MD1410001+9999REMSYN060AAXX  09031 54259 42680 82704 10069 21037 40130 54000 885//;
0172542590999992000040906004+42100+124950FM-12+023599999V0202001N003010120019N0060001N1+00201+00151101351ADDAA106002091AY161061GF108991081051012501999999KA1999N+00201MD1210031+9999MW1601REMSYN082AAXX  09061 54259 11656 82003 10020 20015 40135 52003 60021 76060 885// 333 20020;
0140542590999992000040909004+42100+124950FM-12+023599999V0209999C000010360019N0020001N1-00081-00091101431ADDAY171031AY261031GF108991021051012501021999MD1210061+9999MW1711REMSYN066AAXX  09091 54259 41620 80000 11008 21009 40143 52006 77176 8252/;
0157542590999992000040912004+42100+124950FM-12+023599999V0202701N003010900019N0030001N1-00321-00431101631ADDAA106007191AY171061AY261061GF108991021051012501001021MD1210181+9999MW1711REMSYN072AAXX  09121 54259 11630 82703 11032 21043 40163 52018 60071 77176 82502;
0172542590999992000040918004+42100+124950FM-12+023599999V0202701N001019999999N0120001N1-00521-00661101531ADDAA106005191AY171061GF107991001001999999001021KA1999M+00921MD1710141+9999MW1001REMSYN082AAXX  09181 54259 11962 72701 11052 21066 40153 57014 60051 70070 80002 333 10092;
0133542590999992000040921004+42100+124950FM-12+023599999V0202201N003010120019N0120001N1-00581-00771101481ADDAA124013791GF108991081051012501999999MD1710061+9999REMSYN070AAXX  09211 54259 42662 82203 11058 21077 40148 57006 885// 333 70138;
0157542590999992000041000004+42100+124950FM-12+023599999V0202501N003010120019N0080001N1-00551-00741101521ADDAA124013791GF107991071051012501999999MD1210021+0101MW1041REMSYN088AAXX  10001 54259 31658 72503 11055 21074 40152 52002 70400 875// 333 00163 70138 92508;
0122542590999992000041003004+42100+124950FM-12+023599999V0202201N004012200019N0120001N1-00141-00661101461ADDGA1001+999999999GF100991001001999999001001MD1710041+9999REMSYN054AAXX  10031 54259 42962 02204 11014 21066 40146 57004;
0165542590999992000041006004+42100+124950FM-12+023599999V0202201N005012200019N0200001N1+00101-00811101391ADDAA199000091GF102991021011008001001001KA1999N-00591MD1710061+9999REMSYN070AAXX  10061 54259 32570 22205 10010 21081 40139 57006 82100 333 21059;EQDQ01  00002PRCP99
0122542590999992000041009004+42100+124950FM-12+023599999V0202201N005012200019N0200001N1+00181-00811101291ADDGA1001+999999999GF100991001001999999001001MD1710091+9999REMSYN054AAXX  10091 54259 42970 02205 10018 21081 40129 57009;
0152542590999992000041012004+42100+124950FM-12+023599999V0202501N002012200019N0150001N1+00021-00591101281ADDAA199000091GA1001+999999999GF100991001001999999001001MD1710021+9999REMSYN054AAXX  10121 54259 32965 02502 10002 21059 40128 57002;EQDQ01  00002PRCP99
0175542590999992000041018004+42100+124950FM-12+023599999V0202201N003012200019N0200001N1-00021-00821100991ADDAA199000091GA1001+999999999GF100991001001999999001001KA1999M+00211MD1710161+9999REMSYN064AAXX  10181 54259 32970 02203 11002 21082 40099 57016 333 10021;EQDQ01  00002PRCP99
0122542590999992000041021004+42100+124950FM-12+023599999V0202501N003012200019N0150001N1-00021-00781100951ADDGA1001+999999999GF100991001001999999001001MD1710031+9999REMSYN054AAXX  10211 54259 42965 02503 11002 21078 40095 57003;
0186542590999992000041100004+42100+124950FM-12+023599999V0202201N002012200019N0150001N1+00281-00481100971ADDAA199000091GA1001+999999999GF100991001001999999001001IA2999-00269MD1210021-0501REMSYN076AAXX  11001 54259 32965 02202 10028 21048 40097 52002 333 05508 31026 92500;EQDQ01  00002PRCP99
0122542590999992000041103004+42100+124950FM-12+023599999V0202001N003012200019N0300001N1+00841-00351100901ADDGA1001+999999999GF100991001001999999001001MD1710041+9999REMSYN054AAXX  11031 54259 42980 02003 10084 21035 40090 57004;
0175542590999992000041106004+42100+124950FM-12+023599999V0202201N004012200019N0300001N1+01221-00631100641ADDAA199000091GA1001+999999999GF100991001001999999001001KA1999N-00111MD1710231+9999REMSYN064AAXX  11061 54259 32980 02204 10122 21063 40064 57023 333 21011;EQDQ01  00002PRCP99
0122542590999992000041109004+42100+124950FM-12+023599999V0202201N002012200019N0300001N1+01341-00651100491ADDGA1001+999999999GF100991001001999999001001MD1710141+9999REMSYN054AAXX  11091 54259 42980 02202 10134 21065 40049 57014;
0152542590999992000041112004+42100+124950FM-12+023599999V0200401N001012200019N0200001N1+00571-00151100541ADDAA199000091GA1001+999999999GF100991001001999999001001MD1210021+9999REMSYN054AAXX  11121 54259 32970 00401 10057 21015 40054 52002;EQDQ01  00002PRCP99
0175542590999992000041118004+42100+124950FM-12+023599999V0209999C000012200019N0200001N1+00051-00241100491ADDAA199000091GA1001+999999999GF100991001001999999001001KA1999M+01341MD1710021+9999REMSYN064AAXX  11181 54259 32970 00000 10005 21024 40049 57002 333 10134;EQDQ01  00002PRCP99
0122542590999992000041121004+42100+124950FM-12+023599999V0209999C000012200019N0200001N1-00061-00271100541ADDGA1001+999999999GF100991001001999999001001MD1210041+9999REMSYN054AAXX  11211 54259 42970 00000 11006 21027 40054 52004;
0180542590999992000041200004+42100+124950FM-12+023599999V0200901N002012200019N0250001N1+00601-00311100561ADDAA199000091GA1001+999999999GF100991001001999999001001IA2999-00209MD1210021-0401REMSYN070AAXX  12001 54259 32975 00902 10060 21031 40056 52002 333 05403 31028;EQDQ01  00002PRCP99
0122542590999992000041203004+42100+124950FM-12+023599999V0200901N005012200019N0300001N1+01231-00921100561ADDGA1001+999999999GF100991001001999999001001MD1210011+9999REMSYN054AAXX  12031 54259 42980 00905 10123 21092 40056 52001;
0175542590999992000041206004+42100+124950FM-12+023599999V0202701N003012200019N0300001N1+01521-00641100461ADDAA199000091GA1001+999999999GF100991001001999999001001KA1999N-00071MD1710091+9999REMSYN064AAXX  12061 54259 32980 02703 10152 21064 40046 57009 333 21007;EQDQ01  00002PRCP99
0116542590999992000041209004+42100+124950FM-12+023599999V0200701N003012200019N0300001N1+01481-00531999999ADDGA1001+999999999GF100991001001999999001001MD1210031+9999REMSYN048AAXX  12091 54259 42980 00703 10148 21053 52003;
0152542590999992000041212004+42100+124950FM-12+023599999V0209999C000012200019N0200001N1+00831-00451100691ADDAA199000091GA1001+999999999GF100991001001999999001001MD1210191+9999REMSYN054AAXX  12121 54259 32970 00000 10083 21045 40069 52019;EQDQ01  00002PRCP99
0175542590999992000041218004+42100+124950FM-12+023599999V0209999C000012200019N0200001N1+00041-00291100741ADDAA199000091GA1001+999999999GF100991001001999999001001KA1999M+01571MD1410001+9999REMSYN064AAXX  12181 54259 32970 00000 10004 21029 40074 54000 333 10157;EQDQ01  00002PRCP99
0122542590999992000041221004+42100+124950FM-12+023599999V0209999C000012200019N0250001N1-00121-00341100891ADDGA1001+999999999GF100991001001999999001001MD1210141+9999REMSYN054AAXX  12211 54259 42975 00000 11012 21034 40089 52014;
0122542590999992000041303004+42100+124950FM-12+023599999V0202501N004012200019N0300001N1+01081-01021101071ADDGA1001+999999999GF100991001001999999001001MD1210041+9999REMSYN054AAXX  13031 54259 42980 02504 10108 21102 40107 52004;
0165542590999992000041306004+42100+124950FM-12+023599999V0202201N004010075019N0300001N1+01211-00391101071ADDAA199000091GF105991051011008001001001KA1999N-00131MD1410001+9999REMSYN070AAXX  13061 54259 32580 52204 10121 21039 40107 54000 85100 333 21013;EQDQ01  00002PRCP99
0112542590999992000041309004+42100+124950FM-12+023599999V0202901N004010120019N0300001N1+00941-00231101221ADDGF107991071051012501999999MD1210121+9999REMSYN060AAXX  13091 54259 42680 72904 10094 21023 40122 52012 875//;
0142542590999992000041312004+42100+124950FM-12+023599999V0209999C000012200019N0200001N1+00621-00151101431ADDAA199000091GF102991011051012501001021MD1210231+9999REMSYN060AAXX  13121 54259 32670 20000 10062 21015 40143 52023 81502;EQDQ01  00002PRCP99
0175542590999992000041318004+42100+124950FM-12+023599999V0202201N001012200019N0200001N1-00041-00251101431ADDAA199000091GA1001+999999999GF100991001001999999001001KA1999M+01281MD1710021+9999REMSYN064AAXX  13181 54259 32970 02201 11004 21025 40143 57002 333 10128;EQDQ01  00002PRCP99
0112542590999992000041321004+42100+124950FM-12+023599999V0209999C000019999999N0150001N1-00181-00271101451ADDGF107991001001999999001021MD1410001+9999REMSYN060AAXX  13211 54259 42965 70000 11018 21027 40145 54000 80002;
0170542590999992000041400004+42100+124950FM-12+023599999V0202201N003019999999N0180001N1+00381-00201101581ADDAA199000091GF107991071001999999031999IA2999-00309MD1210141+0501REMSYN076AAXX  14001 54259 32968 72203 10038 21020 40158 52014 8703/ 333 00552 31032;EQDQ01  00002PRCP99
0112542590999992000041403004+42100+124950FM-12+023599999V0203201N006012200019N0300001N1+01021-00891101591ADDGF104991011011008001001021MD1210021+9999REMSYN060AAXX  14031 54259 42580 43206 10102 21089 40159 52002 81102;
0165542590999992000041406004+42100+124950FM-12+023599999V0202501N004012200019N0300001N1+01141-01001101541ADDAA199000091GF102991011011008001001021KA1999N-00181MD1710051+9999REMSYN070AAXX  14061 54259 32580 22504 10114 21100 40154 57005 81102 333 21018;EQDQ01  00002PRCP99
0112542590999992000041409004+42100+124950FM-12+023599999V0202701N002019999999N0300001N1+01031-00921101591ADDGF107991001001999999001021MD1210031+9999REMSYN060AAXX  14091 54259 42980 72702 10103 21092 40159 52003 80002;
0175542590999992000041418004+42100+124950FM-12+023599999V0209999C000012200019N0200001N1-00171-00611101771ADDAA199000091GA1001+999999999GF100991001001999999001001KA1999M+01201MD1710011+9999REMSYN064AAXX  14181 54259 32970 00000 11017 21061 40177 57001 333 10120;EQDQ01  00002PRCP99
0122542590999992000041421004+42100+124950FM-12+023599999V0209999C000012200019N0150001N1-00321-00621101721ADDGA1001+999999999GF100991001001999999001001MD1710061+9999REMSYN054AAXX  14211 54259 42965 00000 11032 21062 40172 57006;
0180542590999992000041500004+42100+124950FM-12+023599999V0209999C000012200019N0250001N1+00371-00251101671ADDAA199000091GA1001+999999999GF100991001001999999001001IA2999-00409MD1710041+0101REMSYN070AAXX  15001 54259 32975 00000 10037 21025 40167 57004 333 00100 31045;EQDQ01  00002PRCP99
0112542590999992000041503004+42100+124950FM-12+023599999V0202201N005012200019N0300001N1+01281-00871101451ADDGF104991041051012501001001MD1710191+9999REMSYN060AAXX  15031 54259 42680 42205 10128 21087 40145 57019 84500;
0165542590999992000041506004+42100+124950FM-12+023599999V0202901N004010120019N0300001N1+01381-01221101211ADDAA199000091GF105991051051012501001001KA1999N-00341MD1710241+9999REMSYN070AAXX  15061 54259 32680 52904 10138 21122 40121 57024 85500 333 21034;EQDQ01  00002PRCP99
0112542590999992000041509004+42100+124950FM-12+023599999V02099999999992200019N0300001N1+01291-01021101201ADDGF102991021051012501001001MD1710021+9999REMSYN060AAXX  15091 54259 42680 2//04 10129 21102 40120 57002 82500;
0152542590999992000041512004+42100+124950FM-12+023599999V0209999C000012200019N0200001N1+00681-00721101261ADDAA199000091GA1001+999999999GF100991001001999999001001MD1210061+9999REMSYN054AAXX  15121 54259 32970 00000 10068 21072 40126 52006;EQDQ01  00002PRCP99
0175542590999992000041518004+42100+124950FM-12+023599999V0209999C000012200019N0200001N1-00081-00611101331ADDAA199000091GA1001+999999999GF100991001001999999001001KA1999M+01481MD1210051+9999REMSYN064AAXX  15181 54259 32970 00000 11008 21061 40133 52005 333 10148;EQDQ01  00002PRCP99
0122542590999992000041521004+42100+124950FM-12+023599999V0209999C000012200019N0220001N1-00291-00601101341ADDGA1001+999999999GF100991001001999999001001MD1410001+9999REMSYN054AAXX  15211 54259 42972 00000 11029 21060 40134 54000;
0180542590999992000041600004+42100+124950FM-12+023599999V0209999C000012200019N0250001N1+00301-00451101381ADDAA199000091GA1001+999999999GF100991001001999999001001IA2999-00409MD1210041-0301REMSYN070AAXX  16001 54259 32975 00000 10030 21045 40138 52004 333 05351 31041;EQDQ01  00002PRCP99
0112542590999992000041603004+42100+124950FM-12+023599999V0200401N002012200019N0300001N1+01151-00961101311ADDGF102991021051012501001001MD1710061+9999REMSYN060AAXX  16031 54259 42680 20402 10115 21096 40131 57006 82500;
0165542590999992000041606004+42100+124950FM-12+023599999V0200701N003012200019N0300001N1+01301-01051101231ADDAA199000091GF102991021051012501001001KA1999N-00291MD1710081+9999REMSYN070AAXX  16061 54259 32680 20703 10130 21105 40123 57008 82500 333 21029;EQDQ01  00002PRCP99
0112542590999992000041609004+42100+124950FM-12+023599999V0200901N003012200019N0300001N1+01291-01081101191ADDGF101991011051012501001001MD1710051+9999REMSYN060AAXX  16091 54259 42680 10903 10129 21108 40119 57005 81500;
0152542590999992000041612004+42100+124950FM-12+023599999V0209999C000012200019N0200001N1+00721-00361101301ADDAA199000091GA1001+999999999GF100991001001999999001001MD1210111+9999REMSYN054AAXX  16121 54259 32970 00000 10072 21036 40130 52011;EQDQ01  00002PRCP99
0175542590999992000041618004+42100+124950FM-12+023599999V0209999C000012200019N0200001N1-00081-00571101361ADDAA199000091GA1001+999999999GF100991001001999999001001KA1999M+01391MD1210031+9999REMSYN064AAXX  16181 54259 32970 00000 11008 21057 40136 52003 333 10139;EQDQ01  00002PRCP99
0122542590999992000041621004+42100+124950FM-12+023599999V0209999C000012200019N0180001N1-00241-00581101391ADDGA1001+999999999GF100991001001999999001001MD1210021+9999REMSYN054AAXX  16211 54259 42968 00000 11024 21058 40139 52002;
0180542590999992000041700004+42100+124950FM-12+023599999V0209999C000012200019N0150001N1+00451-00461101411ADDAA199000091GA1001+999999999GF100991001001999999001001IA2999-00409MD1210021+0001REMSYN070AAXX  17001 54259 32965 00000 10045 21046 40141 52002 333 00002 31044;EQDQ01  00002PRCP99
0141542590999992000041703004+42100+124950FM-12+023599999V0201801N002012200019N0300001N1+01662-00901101301ADDGA1001+999999999GF100991001001999999001001MD1710071+9999REMSYN054AAXX  17031 54259 42980 01802 10166 21090 40130 57007;EQDQ01+001663ATOT  
0165542590999992000041706004+42100+124950FM-12+023599999V0202201N004012200019N0300001N1+01891-00951101111ADDAA199000091GF101991011011008001001999KA1999N-00241MD1710191+9999REMSYN070AAXX  17061 54259 32580 12204 10189 21095 40111 57019 8110/ 333 21024;EQDQ01  00002PRCP99
0112542590999992000041709004+42100+124950FM-12+023599999V0202201N003012200019N0300001N1+01851-00711101031ADDGF101991011011008001001001MD1710081+9999REMSYN060AAXX  17091 54259 42580 12203 10185 21071 40103 57008 81100;
0152542590999992000041712004+42100+124950FM-12+023599999V0209999C000012200019N0200001N1+01131-00111101201ADDAA199000091GA1001+999999999GF100991001001999999001001MD1210161+9999REMSYN054AAXX  17121 54259 32970 00000 10113 21011 40120 52016;EQDQ01  00002PRCP99
0175542590999992000041718004+42100+124950FM-12+023599999V0209999C000012200019N0200001N1+00401-00181101361ADDAA199000091GA1001+999999999GF100991001001999999001001KA1999M+01961MD1210121+9999REMSYN064AAXX  17181 54259 32970 00000 10040 21018 40136 52012 333 10196;EQDQ01  00002PRCP99
0112542590999992000041721004+42100+124950FM-12+023599999V0209999C000012200019N0150001N1+00121-00161101431ADDGF101991011001999999031001MD1210051+9999REMSYN060AAXX  17211 54259 42965 10000 10012 21016 40143 52005 81030;
0182542590999992000041800004+42100+124950FM-12+023599999V0209999C000012200019N0080001N1+00621-00121101471ADDAA199000091GF101991001001999999001011IA2999-00109MD1210031+0101MW1041REMSYN082AAXX  18001 54259 31958 10000 10062 21012 40147 52003 70400 80001 333 00102 31014;EQDQ01  00002PRCP99
0141542590999992000041803004+42100+124950FM-12+023599999V0201801N005012200019N0250001N1+01892-00371101351ADDGA1001+999999999GF100991001001999999001001MD1710081+9999REMSYN054AAXX  18031 54259 42975 01805 10189 21037 40135 57008;EQDQ01+001893ATOT  
0165542590999992000041806004+42100+124950FM-12+023599999V0203601N003019999999N0300001N1+02081-00631101161ADDAA199000091GF107991001001999999001021KA1999N+00121MD1710181+9999REMSYN070AAXX  18061 54259 32980 73603 10208 21063 40116 57018 80002 333 20012;EQDQ01  00002PRCP99
0112542590999992000041809004+42100+124950FM-12+023599999V0203401N004010900019N0300001N1+01971-00661101131ADDGF107991011051012501001021MD1710051+9999REMSYN060AAXX  18091 54259 42680 73404 10197 21066 40113 57005 81502;
0152542590999992000041812004+42100+124950FM-12+023599999V0200401N002012200019N0200001N1+01461-00371101311ADDAA199000091GA1001+999999999GF100991001001999999001001MD1210171+9999REMSYN054AAXX  18121 54259 32970 00402 10146 21037 40131 52017;EQDQ01  00002PRCP99
0165542590999992000041818004+42100+124950FM-12+023599999V0209999C000019999999N0200001N1+00551-00181101331ADDAA199000091GF107991001001999999001021KA1999M+02221MD1210011+9999REMSYN070AAXX  18181 54259 32970 70000 10055 21018 40133 52001 80002 333 10222;EQDQ01  00002PRCP99
0112542590999992000041821004+42100+124950FM-12+023599999V0209999C000019999999N0200001N1+00281-00131101331ADDGF107991001001999999001021MD1710021+9999REMSYN060AAXX  18211 54259 42970 70000 10028 21013 40133 57002 80002;
0170542590999992000041900004+42100+124950FM-12+023599999V0209999C000012200019N0200001N1+00761-00061101331ADDAA199000091GF102991001001999999001021IA2999+00009MD1410001-0101REMSYN076AAXX  19001 54259 32970 20000 10076 21006 40133 54000 80002 333 05101 31005;EQDQ01  00002PRCP99
0112542590999992000041903004+42100+124950FM-12+023599999V0202201N002012200019N0250001N1+01851-00151101211ADDGF102991001001999999001021MD1710081+9999REMSYN060AAXX  19031 54259 42975 22202 10185 21015 40121 57008 80002;
0165542590999992000041906004+42100+124950FM-12+023599999V0203201N001012200019N0300001N1+02241-00451100941ADDAA199000091GF101991011011008001001001KA1999N+00281MD1710271+9999REMSYN070AAXX  19061 54259 32580 13201 10224 21045 40094 57027 81100 333 20028;EQDQ01  00002PRCP99
0112542590999992000041909004+42100+124950FM-12+023599999V0209999C000012200019N0300001N1+02181-00051100871ADDGF102991021011008001001001MD1710091+9999REMSYN060AAXX  19091 54259 42580 20000 10218 21005 40087 57009 82100;
0165542590999992000041918004+42100+124950FM-12+023599999V0209999C000010120019N0200001N1+00871+00261100971ADDAA199000091GF108991081051012501999999KA1999M+02331MD1710061+9999REMSYN070AAXX  19181 54259 32670 80000 10087 20026 40097 57006 885// 333 10233;EQDQ01  00002PRCP99
0112542590999992000041921004+42100+124950FM-12+023599999V0209999C000010120019N0120001N1+00741+00291100921ADDGF108991081051012501999999MD1710061+9999REMSYN060AAXX  19211 54259 42662 80000 10074 20029 40092 57006 885//;
0170542590999992000042000004+42100+124950FM-12+023599999V0201801N005010120019N0300001N1+01441+00211100761ADDAA199000091GF108991081051012501999999IA2999+00509MD1710151-0501REMSYN076AAXX  20001 54259 32680 81805 10144 20021 40076 57015 885// 333 05507 30050;EQDQ01  00002PRCP99
0112542590999992000042003004+42100+124950FM-12+023599999V0202201N003010120019N0300001N1+01611+00071100491ADDGF108991081051012501999999MD1710281+9999REMSYN060AAXX  20031 54259 42680 82203 10161 20007 40049 57028 885//;
0195542590999992000042006004+42100+124950FM-12+023599999V0209999C000010120019N0200001N1+01061+00801100551ADDAA106000591AY161061GF108991081051012501999999KA1240N+00711MD1210031+9999MW1601OA130601901REMSYN094AAXX  20061 54259 11670 80000 10106 20080 40055 52003 69961 76060 885// 333 20071 91119 91525;
0126542590999992000042009004+42100+124950FM-12+023599999V0202201N006019999999N0300001N1+01181+00541100451ADDAY161031GF108991999999012501999999MD1710101+9999MW1001REMSYN060AAXX  20091 54259 41680 82206 10118 20054 40045 57010 70060;
0149542590999992000042012004+42100+124950FM-12+023599999V0202001N004010120019N0200001N1+01141+00571100431ADDAA106000591AY161061GF108991081051012501999999MD1210011+9999MW1001REMSYN072AAXX  20121 54259 11670 82004 10114 20057 40043 52001 69941 70060 885//;
0153542590999992000042021004+42100+124950FM-12+023599999V0201801N004010120019N0200001N1+01041+00731100021ADDAA124002391AY161031GF108991081051012501999999MD1710151+9999MW1601REMSYN076AAXX  20211 54259 41670 81804 10104 20073 40002 57015 76060 885// 333 70023;
0132542590999992000042103004+42100+124950FM-12+023599999V0202501N005010120019N0200001N1+01121+00621099981ADDAY161031GF108991081051012501999999MD1210041+9999MW1001REMSYN066AAXX  21031 54259 41670 82505 10112 20062 49998 52004 70060 885//;
0195542590999992000042106004+42100+124950FM-12+023599999V0202501N006010120019N0300001N1+01231+00211099951ADDAA106000191AY161061GF107991071051012501999999KA1240N+00861MD1710031+9999MW1001OA130601701REMSYN094AAXX  21061 54259 11680 72506 10123 20021 49995 57003 69921 70060 875// 333 20086 91117 91520;
0112542590999992000042109004+42100+124950FM-12+023599999V0202201N003010120019N0300001N1+01161+00341100041ADDGF107991071051012501999999MD1210081+9999REMSYN060AAXX  21091 54259 42680 72203 10116 20034 40004 52008 875//;
0142542590999992000042112004+42100+124950FM-12+023599999V0209999C000010120019N0200001N1+00951+00491100191ADDAA199000091GF107991071051012501999999MD1210151+9999REMSYN060AAXX  21121 54259 32670 70000 10095 20049 40019 52015 875//;EQDQ01  00002PRCP99
0175542590999992000042118004+42100+124950FM-12+023599999V0209999C000012200019N0200001N1+00331+00071100271ADDAA199000091GA1001+999999999GF100991001001999999001001KA1999M+01341MD1710011+9999REMSYN064AAXX  21181 54259 32970 00000 10033 20007 40027 57001 333 10134;EQDQ01  00002PRCP99
0133542590999992000042121004+42100+124950FM-12+023599999V0209999C000019999999N0120001N1+00141+00011100151ADDAA124001591GF106991061001999999031001MD1710131+9999REMSYN070AAXX  21211 54259 42962 60000 10014 20001 40015 57013 86030 333 70014;
0183542590999992000042200004+42100+124950FM-12+023599999V0202201N001010120019N0150001N1+00561+00171100081ADDAA106000791AY161061GF106991061051012501001001IA2999-00039MD1710061+0101MW1211REMSYN094AAXX  22001 54259 11665 62201 10056 20017 40008 57006 69901 72160 86500 333 00157 31003 70002;
0112542590999992000042203004+42100+124950FM-12+023599999V0202001N004010120019N0300001N1+00991-00041099931ADDGF107991071051012501999999MD1710141+9999REMSYN060AAXX  22031 54259 42680 72004 10099 21004 49993 57014 875//;
0146542590999992000042206004+42100+124950FM-12+023599999V0202501N006010120019N0300001N1+01171-00531099821ADDAA199000021GF106991061051012501001001KA1999N+00141MD1710111+9999REMSYN070AAXX  22061 54259 32680 62506 10117 21053 49982 57011 86500 333 20014;
0112542590999992000042209004+42100+124950FM-12+023599999V0202201N005012200019N0300001N1+01181-00651099781ADDGF103991031051012501001001MD1710051+9999REMSYN060AAXX  22091 54259 42680 32205 10118 21065 49978 57005 83500;
0172542590999992000042218004+42100+124950FM-12+023599999V0202201N004010120019N0120001N1+00371+00271100061ADDAA106000191AY161061GF108991081051012501999999KA1999M+01311MD1710031+9999MW1601REMSYN082AAXX  22181 54259 11662 82204 10037 20027 40006 57003 69911 76060 885// 333 10131;
0191542590999992000042300004+42100+124950FM-12+023599999V0202201N003010120019N0100001N1+00491+00401100261ADDAA106001091AY161061AY261061GF108991081051012501999999IA2999+00369MD1210141+0201MW1601REMSYN094AAXX  23001 54259 11660 82203 10049 20040 40026 52014 69991 76066 885// 333 00251 30036 70010;
0132542590999992000042303004+42100+124950FM-12+023599999V0202201N002010120019N0300001N1+00901+00331100371ADDAY161031GF108991081051012501999999MD1210101+9999MW1001REMSYN066AAXX  23031 54259 41680 82202 10090 20033 40037 52010 70060 885//;
0172542590999992000042306004+42100+124950FM-12+023599999V0202201N005010120019N0200001N1+00691+00511100421ADDAA106000191AY161061GF108991081051012501999999KA1999N+00371MD1210041+9999MW1601REMSYN082AAXX  23061 54259 11670 82205 10069 20051 40042 52004 69921 76060 885// 333 20037;
0140542590999992000042309004+42100+124950FM-12+023599999V0202201N004010120019N0080001N1+00601+00551100521ADDAY161031AY261031GF108991081051012501999999MD1210091+9999MW1601REMSYN066AAXX  23091 54259 41658 82204 1006/ 20055 40052 52009 76066 885//;
0157542590999992000042312004+42100+124950FM-12+023599999V0209999C000010120019N0120001N1+00611+00521100581ADDAA106002091AY161061AY261061GF108991081051012501999999MD1210061+9999MW1211REMSYN072AAXX  23121 54259 11662 80000 10061 20052 40058 52006 60021 72166 885//;
0168542590999992000042318004+42100+124950FM-12+023599999V0209999C000010006019N0007001N1+00321+00301100661ADDAA199000021GA1091+999999999GF109991091999999999999999KA1999M+00961MD1210021+9999MW1471REMSYN070AAXX  23181 54259 31/07 90000 10032 20030 40066 52002 74700 333 10096;
0171542590999992000042321004+42100+124950FM-12+023599999V0209999C000010003019N0002001N1+00121+00121100781ADDAA124002391AY141031AY241031GA1091+999999999GF109991091999999999999999MD1210101+9999MW1471REMSYN070AAXX  23211 54259 41/02 90000 10012 20012 40078 52010 74744 333 70022;
0185542590999992000042400004+42100+124950FM-12+023599999V0209999C000012200019N0018001N1+00371+00321100931ADDAA124001891AY141061AY241061GF101991011061008001001001IA2999+00129MD1210161+0601MW1281REMSYN088AAXX  24001 54259 31518 10000 10037 20032 40093 52016 72844 81600 333 00651 30012 70017;
0112542590999992000042403004+42100+124950FM-12+023599999V0202201N005012200019N0300001N1+01401-00401100821ADDGF101991011011008001001001MD1710061+9999REMSYN060AAXX  24031 54259 42580 12205 10140 21040 40082 57006 81100;
0165542590999992000042406004+42100+124950FM-12+023599999V0202701N005012200019N0300001N1+01701-00721100731ADDAA199000091GF101991011011008001001001KA1999N+00061MD1710081+9999REMSYN070AAXX  24061 54259 32580 12705 10170 21072 40073 57008 81100 333 20006;EQDQ01  00002PRCP99
0112542590999992000042409004+42100+124950FM-12+023599999V0202201N004019999999N0300001N1+01631-00531100681ADDGF107991001001999999001021MD1710071+9999REMSYN060AAXX  24091 54259 42980 72204 10163 21053 40068 57007 80002;
0165542590999992000042418004+42100+124950FM-12+023599999V0209999C000019999999N0150001N1+00321-00031100621ADDAA199000091GF107991001001999999001021KA1999M+01771MD1710081+9999REMSYN070AAXX  24181 54259 32965 70000 10032 21003 40062 57008 80002 333 10177;EQDQ01  00002PRCP99
0112542590999992000042421004+42100+124950FM-12+023599999V0209999C000012200019N0150001N1+00181-00131100581ADDGF104991001001999999001021MD1710051+9999REMSYN060AAXX  24211 54259 42965 40000 10018 21013 40058 57005 80002;
0182542590999992000042500004+42100+124950FM-12+023599999V0209999C000010120019N0070001N1+00701+00051100481ADDAA199000091GF107991051051012501001021IA2999+00009MD1710101-0401MW1041REMSYN082AAXX  25001 54259 31657 70000 10070 20005 40048 57010 70400 85502 333 05403 30001;EQDQ01  00002PRCP99
0132542590999992000042503004+42100+124950FM-12+023599999V0209999C000010120019N0060001N1+00751+00581100531ADDAY161031GF108991081051012501999999MD1210031+9999MW1601REMSYN066AAXX  25031 54259 41656 80000 10075 20058 40053 52003 76060 885//;
0172542590999992000042506004+42100+124950FM-12+023599999V0209999C000010900019N0120001N1+01121+00881100391ADDAA106003091AY161061GF107991041051012501001021KA1999N+00181MD1710131+9999MW1001REMSYN082AAXX  25061 54259 11662 70000 10112 20088 40039 57013 60031 70060 84502 333 20018;
0112542590999992000042509004+42100+124950FM-12+023599999V0209999C000010120019N0250001N1+01491+00831100261ADDGF107991061051012501001021MD1710121+9999REMSYN060AAXX  25091 54259 42675 70000 10149 20083 40026 57012 86502;
0123542590999992000042512004+42100+124950FM-12+023599999V0209999C000010120019N0120001N1+01131+00831100281ADDAA199000021GF107991071051012501999999MD1210031+9999REMSYN060AAXX  25121 54259 32662 70000 10113 20083 40028 52003 875//;
0165542590999992000042518004+42100+124950FM-12+023599999V0200401N002010120019N0120001N1+00901+00691100241ADDAA199000091GF108991081051012501999999KA1999M+01511MD1710031+9999REMSYN070AAXX  25181 54259 32662 80402 10090 20069 40024 57003 885// 333 10151;EQDQ01  00002PRCP99
0133542590999992000042521004+42100+124950FM-12+023599999V0200901N002010120019N0120001N1+00841+00671100141ADDAA124003091GF108991081051012501999999MD1710081+9999REMSYN070AAXX  25211 54259 42662 80902 10084 20067 40014 57008 885// 333 70031;
0165542590999992000042600004+42100+124950FM-12+023599999V0200401N002010120019N0100001N1+00781+00651100271ADDAA106000591AY161061GF108991081051012501999999MD1210101-0201MW1601REMSYN088AAXX  26001 54259 11660 80402 10078 20065 40027 52010 69951 76060 885// 333 05201 70036;
0140542590999992000042603004+42100+124950FM-12+023599999V0200401N002010120019N0220001N1+00841+00581100451ADDAY161031AY261031GF108991081051012501999999MD1210171+9999MW1601REMSYN066AAXX  26031 54259 41672 80402 10084 20058 40045 52017 76066 885//;
0180542590999992000042606004+42100+124950FM-12+023599999V0200401N002010120019N0300001N1+00971+00441100461ADDAA106000591AY161061AY261061GF108991081051012501999999KA1999N+00781MD1210021+9999MW1211REMSYN082AAXX  26061 54259 11680 80402 10097 20044 40046 52002 69961 72166 885// 333 20078;
0112542590999992000042609004+42100+124950FM-12+023599999V0200701N003010120019N0300001N1+01041+00401100501ADDGF108991081051012501999999MD1210041+9999REMSYN060AAXX  26091 54259 42680 80703 10104 20040 40050 52004 885//;
0133542590999992000042612004+42100+124950FM-12+023599999V0209999C000012200019N0150001N1+00701+00451100721ADDAA199000021GA1001+999999999GF100991001001999999001001MD1210191+9999REMSYN054AAXX  26121 54259 32965 00000 10070 20045 40072 52019;
0156542590999992000042618004+42100+124950FM-12+023599999V0209999C000012200019N0200001N1+00261+00181100781ADDAA199000021GA1001+999999999GF100991001001999999001001KA1999M+01091MD1210011+9999REMSYN064AAXX  26181 54259 32970 00000 10026 20018 40078 52001 333 10109;
0163542590999992000042621004+42100+124950FM-12+023599999V0209999C000010006019N0007001N1+00161+00111100831ADDAA124001091AY141031GA1091+999999999GF109991091999999999999999MD1210041+9999MW1471REMSYN070AAXX  26211 54259 41/07 90000 10016 20011 40083 52004 74740 333 70011;
0187542590999992000042700004+42100+124950FM-12+023599999V0209999C000012200019N0120001N1+00561+00401100911ADDAA124000591AY141061GA1001+999999999GF100991001001999999001001IA2999-00049MD1210081+0601MW1001REMSYN082AAXX  27001 54259 31962 00000 10056 20040 40091 52008 70040 333 00652 31004 70006;
0112542590999992000042703004+42100+124950FM-12+023599999V0200701N003010120019N0300001N1+01221+00101100891ADDGF107991071051012501999999MD1410001+9999REMSYN060AAXX  27031 54259 42680 70703 10122 20010 40089 54000 875//;
0165542590999992000042706004+42100+124950FM-12+023599999V0202901N004010120019N0300001N1+01251+00081100881ADDAA199000091GF107991071051012501999999KA1999N+00151MD1710011+9999REMSYN070AAXX  27061 54259 32680 72904 10125 20008 40088 57001 875// 333 20015;EQDQ01  00002PRCP99
0112542590999992000042709004+42100+124950FM-12+023599999V0201101N002010120019N0250001N1+01241+00221100911ADDGF107991071051012501999999MD1210021+9999REMSYN060AAXX  27091 54259 42675 71102 10124 20022 40091 52002 875//;
0136542590999992000042712004+42100+124950FM-12+023599999V0209999C000012200019N0180001N1+00961+99999101041ADDAA199000091GF104991041051012501001001MD1210131+9999REMSYN054AAXX  27121 54259 32668 40000 10096 40104 52013 84500;EQDQ01  00002PRCP99
0165542590999992000042718004+42100+124950FM-12+023599999V0209999C000012200019N0150001N1+00481+00291101201ADDAA199000091GF101991011051012501001001KA1999M+01301MD1210091+9999REMSYN070AAXX  27181 54259 32665 10000 10048 20029 40120 52009 81500 333 10130;EQDQ01  00002PRCP99
0112542590999992000042721004+42100+124950FM-12+023599999V0209999C000010120019N0180001N1+00321+00191101271ADDGF106991061051012501001001MD1210061+9999REMSYN060AAXX  27211 54259 42668 60000 10032 20019 40127 52006 86500;
0180542590999992000042800004+42100+124950FM-12+023599999V0209999C000012200019N0120001N1+00911+00361101281ADDAA199000091GA1001+999999999GF100991001001999999001001IA2999+00109MD1210021+0401REMSYN070AAXX  28001 54259 32962 00000 10091 20036 40128 52002 333 00404 30013;EQDQ01  00002PRCP99
0112542590999992000042803004+42100+124950FM-12+023599999V0202201N004012200019N0300001N1+01811+00241101161ADDGF101991011011008001001001MD1710081+9999REMSYN060AAXX  28031 54259 42580 12204 10181 20024 40116 57008 81100;
0165542590999992000042806004+42100+124950FM-12+023599999V0202501N005012200019N0300001N1+02101-00371101001ADDAA199000091GF101991011011008001001001KA1999N+00311MD1710151+9999REMSYN070AAXX  28061 54259 32580 12505 10210 21037 40100 57015 81100 333 20031;EQDQ01  00002PRCP99
0112542590999992000042809004+42100+124950FM-12+023599999V0202501N003012200019N0300001N1+02071+00021100951ADDGF101991011011008001001001MD1710061+9999REMSYN060AAXX  28091 54259 42580 12503 10207 20002 40095 57006 81100;
0152542590999992000042812004+42100+124950FM-12+023599999V0209999C000012200019N0250001N1+01431+00341101031ADDAA199000091GA1001+999999999GF100991001001999999001001MD1210071+9999REMSYN054AAXX  28121 54259 32975 00000 10143 20034 40103 52007;EQDQ01  00002PRCP99
0175542590999992000042818004+42100+124950FM-12+023599999V0209999C000012200019N0150001N1+00651+00291101111ADDAA199000091GA1001+999999999GF100991001001999999001001KA1999M+02151MD1410001+9999REMSYN064AAXX  28181 54259 32965 00000 10065 20029 40111 54000 333 10215;EQDQ01  00002PRCP99
0122542590999992000042821004+42100+124950FM-12+023599999V0209999C000012200019N0150001N1+00471+00281101061ADDGA1001+999999999GF100991001001999999001001MD1710061+9999REMSYN054AAXX  28211 54259 42965 00000 10047 20028 40106 57006;
0192542590999992000042900004+42100+124950FM-12+023599999V0209999C000012200019N0080001N1+01311+00531101051ADDAA199000091GA1001+999999999GF100991001001999999001001IA2999+00209MD1410001-0201MW1041REMSYN076AAXX  29001 54259 31958 00000 10131 20053 40105 54000 70400 333 05204 30024;EQDQ01  00002PRCP99
0112542590999992000042903004+42100+124950FM-12+023599999V0202201N007019999999N0300001N1+02271+00271100851ADDGF107991001001999999001021MD1710171+9999REMSYN060AAXX  29031 54259 42980 72207 10227 20027 40085 57017 80002;
0165542590999992000042906004+42100+124950FM-12+023599999V0202001N006010120019N0300001N1+02231+00421100751ADDAA199000091GF107991061051012501001021KA1999N+00461MD1710111+9999REMSYN070AAXX  29061 54259 32680 72006 10223 20042 40075 57011 86502 333 20046;EQDQ01  00002PRCP99
0112542590999992000042909004+42100+124950FM-12+023599999V0202201N007019999999N0280001N1+02011+00391100731ADDGF108991081051999999999999MD1710041+9999REMSYN060AAXX  29091 54259 4//78 82207 10201 20039 40073 57004 885//;
0142542590999992000042912004+42100+124950FM-12+023599999V0201801N006010120019N0200001N1+01761+00191100701ADDAA199000091GF108991081051012501999999MD1410001+9999REMSYN060AAXX  29121 54259 32670 81806 10176 20019 40070 54000 885//;EQDQ01  00002PRCP99
0172542590999992000042918004+42100+124950FM-12+023599999V0202201N001010120019N0080001N1+00881+00781100711ADDAA106005191AY161061GF108991081051012501999999KA1999M+02371MD1710021+9999MW1601REMSYN082AAXX  29181 54259 11658 82201 10088 20078 40071 57002 60051 76060 885// 333 10237;
0153542590999992000042921004+42100+124950FM-12+023599999V0202501N002010120019N0120001N1+00831+00751100731ADDAA124005191AY161031GF108991081051012501999999MD1210011+9999MW1001REMSYN076AAXX  29211 54259 41662 82502 10083 20075 40073 52001 70060 885// 333 70051;
0165542590999992000043000004+42100+124950FM-12+023599999V0202201N003010120019N0120001N1+01051+00741100731ADDAA106000191AY161061GF107991071051012501999999MD1710011-0301MW1001REMSYN088AAXX  30001 54259 11662 72203 10105 20074 40073 57001 69921 70060 875// 333 05353 70051;
0112542590999992000043003004+42100+124950FM-12+023599999V0202201N004010120019N0300001N1+01481+00471100531ADDGF105991051051012501001001MD1710181+9999REMSYN060AAXX  30031 54259 42680 52204 10148 20047 40053 57018 85500;
0164542590999992000043006004+42100+124950FM-12+023599999V0201801N003010120019N0300001N1+01321+00251100511ADDAA106000791GF108991081051012501999999KA1999N+00831MD1710061+9999MW1211REMSYN082AAXX  30061 54259 11680 81803 10132 20025 40051 57006 69901 72100 885// 333 20083;
0132542590999992000043009004+42100+124950FM-12+023599999V0200401N001010120019N0200001N1+01221+00521100551ADDAY181031GF107991071051012501999999MD1210031+9999MW1001REMSYN066AAXX  30091 54259 41670 70401 10122 20052 40055 52003 70080 875//;
0176542590999992000043012004+42100+124950FM-12+023599999V0203201N003010120019N0200001N1+00961+00551100621ADDAA106002091AY181061GF106991061051012501001001MD1210071+9999MW1001OA130601901REMSYN088AAXX  30121 54259 11670 63203 10096 20055 40062 52007 60021 70080 86500 333 91119 91525;
0146542590999992000043018004+42100+124950FM-12+023599999V0209999C000019999999N0120001N1+00691+00491100751ADDAA199000021GF107991001001999999001021KA1999M+01621MD1210041+9999REMSYN070AAXX  30181 54259 32962 70000 10069 20049 40075 52004 80002 333 10162;
0145542590999992000043021004+42100+124950FM-12+023599999V0209999C000010120019N0120001N1+00631+00451100811ADDAA124001591GF108991081051012501999999MD1210061+9999MW1601REMSYN076AAXX  30211 54259 41662 80000 10063 20045 40081 52006 76000 885// 333 70015;
0183542590999992000050100004+42100+124950FM-12+023599999V0209999C000010120019N0180001N1+00961+00501100971ADDAA106000791AY161061GF107991071051012501999999IA2999+00459MD1210151+0201MW1001REMSYN094AAXX  01001 54259 11668 70000 10096 20050 40097 52015 69901 70060 875// 333 00251 30045 70015;
0112542590999992000050103004+42100+124950FM-12+023599999V0200701N004012200019N0300001N1+01461+00471100961ADDGF104991041011008001001001MD1210021+9999REMSYN060AAXX  01031 54259 42580 40704 10146 20047 40096 52002 84100;
0172542590999992000050106004+42100+124950FM-12+023599999V0200401N002012200019N0300001N1+01621+00391100951ADDAA106000191AY181061GF104991041011008001001001KA1999N+00621MD1710021+9999MW1251REMSYN082AAXX  01061 54259 11580 40402 10162 20039 40095 57002 69911 72580 84100 333 20062;
0132542590999992000050109004+42100+124950FM-12+023599999V0200401N006010120019N0300001N1+01461+00331101091ADDAY181031GF107991071091012501999999MD1210131+9999MW1801REMSYN066AAXX  01091 54259 41680 70406 10146 20033 40109 52013 78080 879//;
0149542590999992000050112004+42100+124950FM-12+023599999V0209999C000010120019N0180001N1+01071+00831101221ADDAA106001091AY181061GF108991081051012501999999MD1210121+9999MW1251REMSYN072AAXX  01121 54259 11668 80000 10107 20083 40122 52012 60011 72580 885//;
0168542590999992000050118004+42100+124950FM-12+023599999V0200701N001010006019N0007001N1+00581+00531101371ADDAA199000021GA1091+999999999GF109991091999999999999999KA1999M+01731MD1210161+9999MW1471REMSYN070AAXX  01181 54259 31/07 90701 10058 20053 40137 52016 74700 333 10173;
0171542590999992000050121004+42100+124950FM-12+023599999V0209999C000010006019N0006001N1+00401+00381101441ADDAA124001391AY141031AY241031GA1091+999999999GF109991091999999999999999MD1210051+9999MW1471REMSYN070AAXX  01211 54259 41/06 90000 10040 20038 40144 52005 74744 333 70013;
0185542590999992000050200004+42100+124950FM-12+023599999V0209999C000010075019N0018001N1+00581+00511101591ADDAA124001391AY141061AY241061GF106991061061008001001001IA2999+00379MD1210131+0601MW1281REMSYN088AAXX  02001 54259 31518 60000 10058 20051 40159 52013 72844 86600 333 00654 30037 70013;
0131542590999992000050203004+42100+124950FM-12+023599999V0200901N004012200019N0300001N1+01712+00411101411ADDGF101991011011008001001001MD1710131+9999REMSYN060AAXX  02031 54259 42580 10904 10171 20041 40141 57013 81100;EQDQ01+001713ATOT  
0165542590999992000050206004+42100+124950FM-12+023599999V0201401N003012200019N0300001N1+01971+00281101251ADDAA199000091GF101991011011008001001001KA1999N+00391MD1710151+9999REMSYN070AAXX  02061 54259 32580 11403 10197 20028 40125 57015 81100 333 20039;EQDQ01  00002PRCP99
0112542590999992000050209004+42100+124950FM-12+023599999V0209999C000012200019N0300001N1+02041+00281101141ADDGF101991011011008001001001MD1710121+9999REMSYN060AAXX  02091 54259 42580 10000 10204 20028 40114 57012 81100;
0152542590999992000050212004+42100+124950FM-12+023599999V0209999C000012200019N0200001N1+01441+00441101191ADDAA199000091GA1001+999999999GF100991001001999999001001MD1210031+9999REMSYN054AAXX  02121 54259 32970 00000 10144 20044 40119 52003;EQDQ01  00002PRCP99
0175542590999992000050218004+42100+124950FM-12+023599999V0209999C000012200019N0200001N1+00631+00401101201ADDAA199000091GA1001+999999999GF100991001001999999001001KA1999M+02111MD1210011+9999REMSYN064AAXX  02181 54259 32970 00000 10063 20040 40120 52001 333 10211;EQDQ01  00002PRCP99
0122542590999992000050221004+42100+124950FM-12+023599999V0209999C000012200019N0300001N1+00481+00311101131ADDGA1001+999999999GF100991001001999999001001MD1710071+9999REMSYN054AAXX  02211 54259 42980 00000 10048 20031 40113 57007;
0180542590999992000050300004+42100+124950FM-12+023599999V0209999C000012200019N0250001N1+01221+00461101121ADDAA199000091GA1001+999999999GF100991001001999999001001IA2999+00309MD1410001-0401REMSYN070AAXX  03001 54259 32975 00000 10122 20046 40112 54000 333 05406 30030;EQDQ01  00002PRCP99
0112542590999992000050303004+42100+124950FM-12+023599999V0202001N007019999999N0300001N1+02161+00421101001ADDGF107991001001999999001021MD1710101+9999REMSYN060AAXX  03031 54259 42980 72007 10216 20042 40100 57010 80002;
0165542590999992000050306004+42100+124950FM-12+023599999V0202201N005010900019N0300001N1+02331+00351100891ADDAA199000091GF107991031051012501001021KA1999N+00481MD1710111+9999REMSYN070AAXX  03061 54259 32680 72205 10233 20035 40089 57011 83502 333 20048;EQDQ01  00002PRCP99
0112542590999992000050309004+42100+124950FM-12+023599999V0202501N004010900019N0300001N1+02221+00491100911ADDGF107991011051012501001021MD1410001+9999REMSYN060AAXX  03091 54259 42680 72504 10222 20049 40091 54000 81502;
0152542590999992000050312004+42100+124950FM-12+023599999V0202701N001012200019N0180001N1+01711+00751101091ADDAA199000091GA1001+999999999GF100991001001999999001001MD1210191+9999REMSYN054AAXX  03121 54259 32968 02701 10171 20075 40109 52019;EQDQ01  00002PRCP99
0175542590999992000050318004+42100+124950FM-12+023599999V0209999C000012200019N0150001N1+00881+00691101191ADDAA199000091GA1001+999999999GF100991001001999999001001KA1999M+02391MD1410001+9999REMSYN064AAXX  03181 54259 32965 00000 10088 20069 40119 54000 333 10239;EQDQ01  00002PRCP99
0122542590999992000050321004+42100+124950FM-12+023599999V0209999C000012200019N0150001N1+00701+00541101181ADDGA1001+999999999GF100991001001999999001001MD1710021+9999REMSYN054AAXX  03211 54259 42965 00000 10070 20054 40118 57002;
0170542590999992000050400004+42100+124950FM-12+023599999V0209999C000019999999N0120001N1+01321+00641101181ADDAA199000091GF107991001001999999001021IA2999+00309MD1410001+0101REMSYN076AAXX  04001 54259 32962 70000 10132 20064 40118 54000 80002 333 00101 30038;EQDQ01  00002PRCP99
0112542590999992000050403004+42100+124950FM-12+023599999V0202501N005012200019N0300001N1+02321+00221101001ADDGF101991001001999999001021MD1710151+9999REMSYN060AAXX  04031 54259 42980 12505 10232 20022 40100 57015 80002;
0175542590999992000050406004+42100+124950FM-12+023599999V0202201N004012200019N0300001N1+02681-00441100741ADDAA199000091GA1001+999999999GF100991001001999999001001KA1999N+00701MD1710251+9999REMSYN064AAXX  04061 54259 32980 02204 10268 21044 40074 57025 333 20070;EQDQ01  00002PRCP99
0112542590999992000050409004+42100+124950FM-12+023599999V0202001N005019999999N0300001N1+02591+00311100631ADDGF107991001001999999001021MD1710121+9999REMSYN060AAXX  04091 54259 42980 72005 10259 20031 40063 57012 80002;
0142542590999992000050412004+42100+124950FM-12+023599999V0202501N002010120019N0200001N1+02191+00351100851ADDAA199000091GF108991081051012501999999MD1210221+9999REMSYN060AAXX  04121 54259 32670 82502 10219 20035 40085 52022 885//;EQDQ01  00002PRCP99
0165542590999992000050418004+42100+124950FM-12+023599999V0203201N002010120019N0200001N1+01541+00651101171ADDAA199000091GF108991081051012501999999KA1999M+02781MD1210091+9999REMSYN070AAXX  04181 54259 32670 83202 10154 20065 40117 52009 885// 333 10278;EQDQ01  00002PRCP99
0112542590999992000050421004+42100+124950FM-12+023599999V0202701N003010120019N0200001N1+01031+00531101541ADDGF108991081051012501999999MD1210331+9999REMSYN060AAXX  04211 54259 42670 82703 10103 20053 40154 52033 885//;
0165542590999992000050500004+42100+124950FM-12+023599999V0203601N002010120019N0150001N1+00731+00511101881ADDAA106000591AY161061GF108991081051012501999999MD1210301+0701MW1601REMSYN088AAXX  05001 54259 11665 83602 10073 20051 40188 52030 69961 76060 885// 333 00756 70006;
0132542590999992000050503004+42100+124950FM-12+023599999V0203201N003010120019N0200001N1+00751+00481102091ADDAY161031GF108991081051012501999999MD1210181+9999MW1001REMSYN066AAXX  05031 54259 41670 83203 10075 20048 40209 52018 70060 885//;
0172542590999992000050506004+42100+124950FM-12+023599999V0209999C000010120019N0300001N1+00951+00441102021ADDAA106000191AY161061GF108991081051012501999999KA1999N+00731MD1710071+9999MW1001REMSYN082AAXX  05061 54259 11680 80000 10095 20044 40202 57007 69921 70060 885// 333 20073;
0112542590999992000050509004+42100+124950FM-12+023599999V0200401N003010120019N0300001N1+01251+00101101941ADDGF105991051051012501001001MD1710091+9999REMSYN060AAXX  05091 54259 42680 50403 10125 20010 40194 57009 85500;
0123542590999992000050512004+42100+124950FM-12+023599999V0203401N002012200019N0300001N1+00831+00061102031ADDAA199000021GF101991011051012501001001MD1210061+9999REMSYN060AAXX  05121 54259 32680 13402 10083 20006 40203 52006 81500;
0175542590999992000050518004+42100+124950FM-12+023599999V0209999C000012200019N0200001N1+00151+00011102021ADDAA199000091GA1001+999999999GF100991001001999999001001KA1999M+01551MD1710101+9999REMSYN064AAXX  05181 54259 32970 00000 10015 20001 40202 57010 333 10155;EQDQ01  00002PRCP99
0133542590999992000050521004+42100+124950FM-12+023599999V0200901N002010120019N0200001N1+00111-00031102041ADDAA124000891GF107991071051012501999999MD1210041+9999REMSYN070AAXX  05211 54259 42670 70902 10011 21003 40204 52004 875// 333 70008;
0167542590999992000050600004+42100+124950FM-12+023599999V0209999C000012200019N0300001N1+00791+00101101931ADDAA124000391GA1001+999999999GF100991001001999999001001IA2999-00139MD1710101+0001REMSYN076AAXX  06001 54259 32980 00000 10079 20010 40193 57010 333 00001 31013 70002;
0122542590999992000050603004+42100+124950FM-12+023599999V0201801N002012200019N0300001N1+01641-00071101691ADDGA1001+999999999GF100991001001999999001001MD1710211+9999REMSYN054AAXX  06031 54259 42980 01802 10164 21007 40169 57021;
0175542590999992000050606004+42100+124950FM-12+023599999V0202701N005012200019N0300001N1+02091-00261101431ADDAA199000091GA1001+999999999GF100991001001999999001001KA1999N+00081MD1710241+9999REMSYN064AAXX  06061 54259 32980 02705 10209 21026 40143 57024 333 20008;EQDQ01  00002PRCP99
0112542590999992000050609004+42100+124950FM-12+023599999V0202901N003012200019N0300001N1+02161-00371101301ADDGF101991001001999999001021MD1710131+9999REMSYN060AAXX  06091 54259 42980 12903 10216 21037 40130 57013 80002;
0152542590999992000050612004+42100+124950FM-12+023599999V0200201N001012200019N0300001N1+01471-00231101361ADDAA199000091GA1001+999999999GF100991001001999999001001MD1210061+9999REMSYN054AAXX  06121 54259 32980 00201 10147 21023 40136 52006;EQDQ01  00002PRCP99
0175542590999992000050618004+42100+124950FM-12+023599999V0209999C000012200019N0200001N1+00511+00021101351ADDAA199000091GA1001+999999999GF100991001001999999001001KA1999M+02221MD1710031+9999REMSYN064AAXX  06181 54259 32970 00000 10051 20002 40135 57003 333 10222;EQDQ01  00002PRCP99
0122542590999992000050621004+42100+124950FM-12+023599999V0209999C000012200019N0250001N1+00351-00021101391ADDGA1001+999999999GF100991001001999999001001MD1210031+9999REMSYN054AAXX  06211 54259 42975 00000 10035 21002 40139 52003;
0170542590999992000050700004+42100+124950FM-12+023599999V0200901N001012200019N0220001N1+01151+00021101321ADDAA199000091GF101991001001999999001021IA2999+00109MD1710061-0501REMSYN076AAXX  07001 54259 32972 10901 10115 20002 40132 57006 80002 333 05504 30014;EQDQ01  00002PRCP99
0131542590999992000050703004+42100+124950FM-12+023599999V0202201N002012200019N0300001N1+02462-00091101131ADDGF102991001001999999001021MD1710151+9999REMSYN060AAXX  07031 54259 42980 22202 10246 21009 40113 57015 80002;EQDQ01+002463ATOT  
0165542590999992000050706004+42100+124950FM-12+023599999V0202201N005012200019N0300001N1+02781-00261100881ADDAA199000091GF101991001001999999001021KA1999N+00341MD1710251+9999REMSYN070AAXX  07061 54259 32980 12205 10278 21026 40088 57025 80002 333 20034;EQDQ01  00002PRCP99
0112542590999992000050709004+42100+124950FM-12+023599999V0202501N003012200019N0280001N1+02661-00071100781ADDGF102991001001999999001021MD1710111+9999REMSYN060AAXX  07091 54259 42978 22503 10266 21007 40078 57011 80002;
0152542590999992000050712004+42100+124950FM-12+023599999V0209999C000012200019N0200001N1+01861+00581100831ADDAA199000091GA1001+999999999GF100991001001999999001001MD1210051+9999REMSYN054AAXX  07121 54259 32970 00000 10186 20058 40083 52005;EQDQ01  00002PRCP99
0175542590999992000050718004+42100+124950FM-12+023599999V0209999C000012200019N0180001N1+00941+00551100871ADDAA199000091GA1001+999999999GF100991001001999999001001KA1999M+02821MD1210021+9999REMSYN064AAXX  07181 54259 32968 00000 10094 20055 40087 52002 333 10282;EQDQ01  00002PRCP99
0122542590999992000050721004+42100+124950FM-12+023599999V0209999C000012200019N0150001N1+00921+00781101141ADDGA1001+999999999GF100991001001999999001001MD1210261+9999REMSYN054AAXX  07211 54259 42965 00000 10092 20078 40114 52026;
0152542590999992000050800004+42100+124950FM-12+023599999V0201801N001012200019N0110001N1+01471+00661101361ADDAA199000091GF102991001001999999001021MD1210201+0011REMSYN070AAXX  08001 54259 32961 21801 10147 20066 40136 52020 80002 333 00103;EQDQ01  00002PRCP99
0112542590999992000050803004+42100+124950FM-12+023599999V0200701N003012200019N0300001N1+02131+00061101471ADDGF101991001001999999001021MD1210111+9999REMSYN060AAXX  08031 54259 42980 10703 10213 20006 40147 52011 80002;
0165542590999992000050806004+42100+124950FM-12+023599999V0203601N003019999999N0300001N1+02261-00011101441ADDAA199000091GF106991001001999999001021KA1999N+00901MD1710041+9999REMSYN070AAXX  08061 54259 32980 63603 10226 21001 40144 57004 80002 333 20090;EQDQ01  00002PRCP99
0112542590999992000050809004+42100+124950FM-12+023599999V0200401N004012200019N0300001N1+02201-00141101421ADDGF102991001001999999001021MD1710021+9999REMSYN060AAXX  08091 54259 42980 20404 10220 21014 40142 57002 80002;
0152542590999992000050812004+42100+124950FM-12+023599999V0209999C000012200019N0200001N1+01641+00111101561ADDAA199000091GA1001+999999999GF100991001001999999001001MD1210141+9999REMSYN054AAXX  08121 54259 32970 00000 10164 20011 40156 52014;EQDQ01  00002PRCP99
0165542590999992000050818004+42100+124950FM-12+023599999V0201101N001019999999N0200001N1+00851+00211101631ADDAA199000091GF107991001001999999001021KA1999M+02391MD1710021+9999REMSYN070AAXX  08181 54259 32970 71101 10085 20021 40163 57002 80002 333 10239;EQDQ01  00002PRCP99
0112542590999992000050821004+42100+124950FM-12+023599999V0209999C000010120019N0200001N1+00901+00161101571ADDGF108991051051012501001071MD1710061+9999REMSYN060AAXX  08211 54259 42670 80000 10090 20016 40157 57006 85507;
0152542590999992000050900004+42100+124950FM-12+023599999V0200901N003019999999N0250001N1+01291-00251101521ADDAA199000091GF108991001001999999001071MD1710051+0011REMSYN070AAXX  09001 54259 32975 80903 10129 21025 40152 57005 80007 333 00152;EQDQ01  00002PRCP99
0112542590999992000050903004+42100+124950FM-12+023599999V0200701N002010120019N0280001N1+01711+00031101381ADDGF107991061051012501001021MD1710141+9999REMSYN060AAXX  09031 54259 42678 70702 10171 20003 40138 57014 86502;
0165542590999992000050906004+42100+124950FM-12+023599999V0202201N002010120019N0300001N1+01901+00191101271ADDAA199000091GF108991081051012501999999KA1999N+00841MD1710111+9999REMSYN070AAXX  09061 54259 32680 82202 10190 20019 40127 57011 885// 333 20084;EQDQ01  00002PRCP99
0112542590999992000050909004+42100+124950FM-12+023599999V0203401N001010120019N0300001N1+01741+00671101201ADDGF108991081051012501999999MD1710081+9999REMSYN060AAXX  09091 54259 42680 83401 10174 20067 40120 57008 885//;
0149542590999992000050912004+42100+124950FM-12+023599999V0209999C000010120019N0150001N1+01341+01041101251ADDAA106000791AY161061GF108991081051012501999999MD1210051+9999MW1601REMSYN072AAXX  09121 54259 11665 80000 10134 20104 40125 52005 69901 76060 885//;
0180542590999992000050918004+42100+124950FM-12+023599999V0209999C000010120019N0150001N1+01161+01031101051ADDAA106005191AY161061AY261061GF108991081051012501999999KA1999M+01931MD1710181+9999MW1601REMSYN082AAXX  09181 54259 11665 80000 10116 20103 40105 57018 60051 76066 885// 333 10193;
0161542590999992000050921004+42100+124950FM-12+023599999V0209999C000010120019N0080001N1+01141+00971100791ADDAA124005191AY161031AY261031GF108991081051012501999999MD1710261+9999MW1601REMSYN076AAXX  09211 54259 41658 80000 10114 20097 40079 57026 76066 885// 333 70050;
0173542590999992000051000004+42100+124950FM-12+023599999V0209999C000010120019N0060001N1+01181+01011100581ADDAA106002091AY161061AY261061GF108991081051012501999999MD1710231-0901MW1601REMSYN088AAXX  10001 54259 11656 80000 10118 20101 40058 57023 60021 76066 885// 333 05951 70068;
0140542590999992000051003004+42100+124950FM-12+023599999V0200701N003010120019N0110001N1+01241+01051100411ADDAY161031AY261031GF108991081051012501999999MD1710171+9999MW1601REMSYN066AAXX  10031 54259 41661 80703 10124 20105 40041 57017 76066 885//;
0172542590999992000051006004+42100+124950FM-12+023599999V0200701N002010120019N0200001N1+01321+01061100231ADDAA106002091AY161061GF108991081051012501999999KA1999N+01121MD1710171+9999MW1001REMSYN082AAXX  10061 54259 11670 80702 10132 20106 40023 57017 60021 70060 885// 333 20112;
0132542590999992000051009004+42100+124950FM-12+023599999V0209999C000010120019N0150001N1+01321+01101100201ADDAY161031GF108991081051012501999999MD1710031+9999MW1001REMSYN066AAXX  10091 54259 41665 80000 10132 20110 40020 57003 70060 885//;
0149542590999992000051012004+42100+124950FM-12+023599999V0209999C000010120019N0110001N1+01231+01141100241ADDAA106000391AY161061GF108991081051012501999999MD1210041+9999MW1211REMSYN072AAXX  10121 54259 11661 80000 10123 20114 40024 52004 69931 72160 885//;
0149542590999992000051018004+42100+124950FM-12+023599999V0202501N002010120019N0120001N1+01081+01021100241ADDAA106000191AY161061GF108991081051012501999999MD1710011+9999MW1601REMSYN072AAXX  10181 54259 11662 82502 10108 20102 40024 57001 69911 76060 885//;
0153542590999992000051021004+42100+124950FM-12+023599999V0209999C000010120019N0180001N1+01021+00921100231ADDAA124004691AY161031GF108991081051012501999999MD1710011+9999MW1001REMSYN076AAXX  10211 54259 41668 80000 10102 20092 40023 57001 70060 885// 333 70045;
0165542590999992000051100004+42100+124950FM-12+023599999V0202501N002010120019N0300001N1+01271+00881100271ADDAA106000891AY161061GF107991071051012501999999MD1210041-0301MW1001REMSYN088AAXX  11001 54259 11680 72502 10127 20088 40027 52004 69981 70060 875// 333 05301 70031;
0112542590999992000051103004+42100+124950FM-12+023599999V0202201N003010120019N0300001N1+01291+00921100301ADDGF108991081051012501999999MD1210031+9999REMSYN060AAXX  11031 54259 42680 82203 10129 20092 40030 52003 885//;
0172542590999992000051106004+42100+124950FM-12+023599999V0203201N002010120019N0200001N1+01151+00891100401ADDAA106000591AY161061GF108991081051012501999999KA1999N+01001MD1210091+9999MW1211REMSYN082AAXX  11061 54259 11670 83202 10115 20089 40040 52009 69951 72160 885// 333 20100;
0112542590999992000051109004+42100+124950FM-12+023599999V0209999C000010120019N0250001N1+01291+00861100451ADDGF106991061051012501001001MD1210051+9999REMSYN060AAXX  11091 54259 42675 60000 10129 20086 40045 52005 86500;
0133542590999992000051112004+42100+124950FM-12+023599999V0209999C000012200019N0200001N1+01041+00901100641ADDAA199000021GA1001+999999999GF100991001001999999001001MD1210181+9999REMSYN054AAXX  11121 54259 32970 00000 10104 20090 40064 52018;
0168542590999992000051118004+42100+124950FM-12+023599999V0209999C000010003019N0005001N1+00671+00651100701ADDAA199000021GA1091+999999999GF109991091999999999999999KA1999M+01391MD1210031+9999MW1471REMSYN070AAXX  11181 54259 31/05 90000 10067 20065 40070 52003 74700 333 10139;
0171542590999992000051121004+42100+124950FM-12+023599999V0201401N001010003019N0002001N1+00591+00571100731ADDAA124000591AY141031AY241031GA1091+999999999GF109991091999999999999999MD1210031+9999MW1471REMSYN070AAXX  11211 54259 41/02 91401 10059 20057 40073 52003 74744 333 70005;
0167542590999992000051200004+42100+124950FM-12+023599999V0209999C000012200019N0015001N1+00751+00691100841ADDAA124000591AY141061AY241061GF104991041061008001001001MD1210101+0501MW1281REMSYN082AAXX  12001 54259 31515 40000 10075 20069 40084 52010 72844 84600 333 00555 70005;
0141542590999992000051203004+42100+124950FM-12+023599999V0202701N003012200019N0300001N1+01942+00801100651ADDGA1001+999999999GF100991001001999999001001MD1710141+9999REMSYN054AAXX  12031 54259 42980 02703 10194 20080 40065 57014;EQDQ01+001943ATOT  
0165542590999992000051206004+42100+124950FM-12+023599999V0202201N005012200019N0300001N1+02221+00671100511ADDAA199000091GF101991011011008001001001KA1999N+00561MD1710131+9999REMSYN070AAXX  12061 54259 32580 12205 10222 20067 40051 57013 81100 333 20056;EQDQ01  00002PRCP99
0112542590999992000051209004+42100+124950FM-12+023599999V0202501N005012200019N0250001N1+02141+00681100471ADDGF101991011011008001001021MD1710041+9999REMSYN060AAXX  12091 54259 42575 12505 10214 20068 40047 57004 81102;
0142542590999992000051212004+42100+124950FM-12+023599999V0202501N001010900019N0250001N1+01691+01001100621ADDAA199000091GF107991021051012501001021MD1210131+9999REMSYN060AAXX  12121 54259 32675 72501 10169 20100 40062 52013 82502;EQDQ01  00002PRCP99
0175542590999992000051218004+42100+124950FM-12+023599999V0209999C000012200019N0150001N1+01071+00831100711ADDAA199000091GA1001+999999999GF100991001001999999001001KA1999M+02261MD1710011+9999REMSYN064AAXX  12181 54259 32965 00000 10107 20083 40071 57001 333 10226;EQDQ01  00002PRCP99
0118542590999992000051221004+42100+124950FM-12+023599999V0200901N001012200019N0080001N1+00831+00701999999ADDGF101991001001999999001021MD1210041+9999MW1101REMSYN060AAXX  12211 54259 41958 10901 10083 20070 52004 71000 80002;
0164542590999992000051300004+42100+124950FM-12+023599999V0201601N001012200019N0060001N1+01311+00861100821ADDAA199000091GF101991001001999999001021MD1210051+0001MW1101REMSYN076AAXX  13001 54259 31956 11601 10131 20086 40082 52005 71000 80002 333 00006;EQDQ01  00002PRCP99
0112542590999992000051303004+42100+124950FM-12+023599999V0202201N002012200019N0250001N1+02061+00841100741ADDGF102991001001999999001021MD1710061+9999REMSYN060AAXX  13031 54259 42975 22202 10206 20084 40074 57006 80002;
0165542590999992000051306004+42100+124950FM-12+023599999V0202501N005012200019N0280001N1+02411+00581100601ADDAA199000091GF101991011011008001001001KA1999N+00831MD1710131+9999REMSYN070AAXX  13061 54259 32578 12505 10241 20058 40060 57013 81100 333 20083;EQDQ01  00002PRCP99
0092542590999992000051309004+42100+124950FM-12+023599999V0202501N006019999999N0250001N1+02371+00421100561ADDGF106991001001999999001021REMSYN054AAXX  13091 54259 42975 62506 10237 20042 40056 80002;
0152542590999992000051312004+42100+124950FM-12+023599999V0209999C000012200019N0150001N1+01701+00901100761ADDAA199000091GA1001+999999999GF100991001001999999001001MD1210181+9999REMSYN054AAXX  13121 54259 32965 00000 10170 20090 40076 52018;EQDQ01  00002PRCP99
0165542590999992000051318004+42100+124950FM-12+023599999V0209999C000019999999N0150001N1+01161+00861100911ADDAA199000091GF107991001001999999001021KA1999M+02481MD1210011+9999REMSYN070AAXX  13181 54259 32965 70000 10116 20086 40091 52001 80002 333 10248;EQDQ01  00002PRCP99
0112542590999992000051321004+42100+124950FM-12+023599999V0209999C000010120019N0120001N1+00901+00751100941ADDGF106991061051012501001001MD1210021+9999REMSYN060AAXX  13211 54259 42662 60000 10090 20075 40094 52002 86500;
0152542590999992000051400004+42100+124950FM-12+023599999V0201801N001019999999N0150001N1+01401+00941101001ADDAA199000091GF107991001001999999001021MD1210051+0021REMSYN070AAXX  14001 54259 32965 71801 10140 20094 40100 52005 80002 333 00201;EQDQ01  00002PRCP99
0112542590999992000051403004+42100+124950FM-12+023599999V0202501N004010120019N0250001N1+02061+00691100961ADDGF107991071051012501999999MD1710021+9999REMSYN060AAXX  14031 54259 42675 72504 10206 20069 40096 57002 875//;
0165542590999992000051406004+42100+124950FM-12+023599999V0202201N007010900019N0300001N1+02371+00321100901ADDAA199000091GF105991011051012501001021KA1999N+00891MD1710061+9999REMSYN070AAXX  14061 54259 32680 52207 10237 20032 40090 57006 81502 333 20089;EQDQ01  00002PRCP99
0112542590999992000051409004+42100+124950FM-12+023599999V0202201N002010900019N0300001N1+02211+00651100851ADDGF107991021051012501001021MD1710071+9999REMSYN060AAXX  14091 54259 42680 72202 10221 20065 40085 57007 82502;
0142542590999992000051412004+42100+124950FM-12+023599999V0209999C000010120019N0150001N1+01791+00931101041ADDAA199000091GF107991071051012501999999MD1210191+9999REMSYN060AAXX  14121 54259 32665 70000 10179 20093 40104 52019 875//;EQDQ01  00002PRCP99
0165542590999992000051418004+42100+124950FM-12+023599999V0202201N001010120019N0200001N1+01151+00911101191ADDAA199000091GF107991071051012501999999KA1999M+02431MD1210021+9999REMSYN070AAXX  14181 54259 32670 72201 10115 20091 40119 52002 875// 333 10243;EQDQ01  00002PRCP99
0112542590999992000051421004+42100+124950FM-12+023599999V0209999C000019999999N0120001N1+01001+00821101201ADDGF106991001001999999001021MD1410001+9999REMSYN060AAXX  14211 54259 42962 60000 10100 20082 40120 54000 80002;
0152542590999992000051500004+42100+124950FM-12+023599999V0209999C000010900019N0100001N1+01361+00911101261ADDAA199000091GF107991021051012501001021MD1210061+0031REMSYN070AAXX  15001 54259 32660 70000 10136 20091 40126 52006 82502 333 00300;EQDQ01  00002PRCP99
0112542590999992000051503004+42100+124950FM-12+023599999V0202501N004010900019N0300001N1+01971+00761101251ADDGF107991031051012501001021MD1410001+9999REMSYN060AAXX  15031 54259 42680 72504 10197 20076 40125 54000 83502;
0180542590999992000051506004+42100+124950FM-12+023599999V0203601N005010120019N0180001N1+01511+00851101241ADDAA106002091AY191061AY281061GF108991081091012501999999KA1999N+01001MD1710051+9999MW1951REMSYN082AAXX  15061 54259 11668 83605 10151 20085 40124 57005 60021 79598 889// 333 20100;
0140542590999992000051509004+42100+124950FM-12+023599999V0202001N002010120019N0250001N1+01191+01101101291ADDAY191031AY281031GF108991081091012501999999MD1210031+9999MW1801REMSYN066AAXX  15091 54259 41675 82002 10119 20110 40129 52003 78098 889//;
0157542590999992000051512004+42100+124950FM-12+023599999V0203601N001010900019N0150001N1+01151+01021101341ADDAA106007991AY191061AY281061GF107991021051012501001021MD1210061+9999MW1001REMSYN072AAXX  15121 54259 11665 73601 10115 20102 40134 52006 60081 70098 82502;
0168542590999992000051518004+42100+124950FM-12+023599999V0200901N001010006019N0007001N1+00921+00901101371ADDAA199000021GA1091+999999999GF109991091999999999999999KA1999M+02011MD1710081+9999MW1471REMSYN070AAXX  15181 54259 31/07 90901 10092 20090 40137 57008 74700 333 10201;
0165542590999992000051521004+42100+124950FM-12+023599999V0209999C000010003019N0005001N1+00841+99999101421ADDAA124010291AY141031AY241031GA1091+999999999GF109991091999999999999999MD1210031+9999MW1471REMSYN064AAXX  15211 54259 41/05 90000 10084 40142 52003 74744 333 70101;
0177542590999992000051600004+42100+124950FM-12+023599999V0209999C000010006019N0008001N1+00951+00871101451ADDAA124010291AY141061AY241061GA1091+999999999GF109991091999999999999999MD1210031+0101MW1451REMSYN076AAXX  16001 54259 31/08 90000 10095 20087 40145 52003 74544 333 00154 70101;
0132542590999992000051603004+42100+124950FM-12+023599999V0200901N003012200019N0300001N1+01991+00911101261ADDAY141031GF101991011011008001001001MD1710141+9999MW1001REMSYN066AAXX  16031 54259 41580 10903 10199 20091 40126 57014 70040 81100;
0185542590999992000051606004+42100+124950FM-12+023599999V0200901N004012200019N0300001N1+02291+00661101071ADDAA199000091AY141061GF101991011011008001001001KA1999N+00811MD1710181+9999MW1001REMSYN076AAXX  16061 54259 31580 10904 10229 20066 40107 57018 70040 81100 333 20081;EQDQ01  00002PRCP99
0112542590999992000051609004+42100+124950FM-12+023599999V0200401N002012200019N0300001N1+02281+00591100971ADDGF101991011011008001001001MD1710101+9999REMSYN060AAXX  16091 54259 42580 10402 10228 20059 40097 57010 81100;
0152542590999992000051612004+42100+124950FM-12+023599999V0203201N001012200019N0200001N1+01671+01001101071ADDAA199000091GA1001+999999999GF100991001001999999001001MD1210081+9999REMSYN054AAXX  16121 54259 32970 03201 10167 20100 40107 52008;EQDQ01  00002PRCP99
0175542590999992000051618004+42100+124950FM-12+023599999V0209999C000012200019N0200001N1+00961+00821101061ADDAA199000091GA1001+999999999GF100991001001999999001001KA1999M+02361MD1710041+9999REMSYN064AAXX  16181 54259 32970 00000 10096 20082 40106 57004 333 10236;EQDQ01  00002PRCP99
0122542590999992000051621004+42100+124950FM-12+023599999V0209999C000012200019N0150001N1+00801+00721101111ADDGA1001+999999999GF100991001001999999001001MD1210041+9999REMSYN054AAXX  16211 54259 42965 00000 10080 20072 40111 52004;
0162542590999992000051700004+42100+124950FM-12+023599999V0202201N001012200019N0220001N1+01341+99999101141ADDAA199000091GA1001+999999999GF100991001001999999001001MD1210021+0031REMSYN064AAXX  17001 54259 32972 02201 10134 200// 40114 52002 333 05304;EQDQ01  00002PRCP99
0112542590999992000051703004+42100+124950FM-12+023599999V0202201N002012200019N0300001N1+02321+01081100951ADDGF101991011011008001001001MD1710161+9999REMSYN060AAXX  17031 54259 42580 12202 10232 20108 40095 57016 81100;
0165542590999992000051706004+42100+124950FM-12+023599999V0202701N005012200019N0300001N1+02621+00891100651ADDAA199000091GF102991021011008001001001KA1999N+00801MD1710291+9999REMSYN070AAXX  17061 54259 32580 22705 10262 20089 40065 57029 82100 333 20080;EQDQ01  00002PRCP99
0112542590999992000051709004+42100+124950FM-12+023599999V0202701N004012200019N0300001N1+02621+00891100701ADDGF101991011011008001001001MD1710081+9999REMSYN060AAXX  17091 54259 42580 12704 10262 20089 4007/ 57008 81100;
0142542590999992000051712004+42100+124950FM-12+023599999V0203601N001012200019N0200001N1+01941+01661100691ADDAA199000091GF101991011051012501001001MD1210111+9999REMSYN060AAXX  17121 54259 32670 13601 10194 20166 40069 52011 81500;EQDQ01  00002PRCP99
0165542590999992000051718004+42100+124950FM-12+023599999V0209999C000019999999N0200001N1+01241+01011100781ADDAA199000091GF107991001001999999001021KA1999M+02701MD1710061+9999REMSYN070AAXX  17181 54259 32970 70000 10124 20101 40078 57006 80002 333 10270;EQDQ01  00002PRCP99
0112542590999992000051721004+42100+124950FM-12+023599999V0200701N001010120019N0150001N1+01141+00941100801ADDGF108991081051012501999999MD1210021+9999REMSYN060AAXX  17211 54259 42665 80701 10114 20094 40080 52002 885//;
0152542590999992000051800004+42100+124950FM-12+023599999V0203601N002019999999N0120001N1+01501+01111100781ADDAA199000091GF107991001001999999001021MD1710041+0031REMSYN070AAXX  18001 54259 32962 73602 10150 20111 40078 57004 80002 333 05302;EQDQ01  00002PRCP99
0112542590999992000051803004+42100+124950FM-12+023599999V0202201N003010120019N0300001N1+02011+00721100731ADDGF107991061051012501001021MD1710041+9999REMSYN060AAXX  18031 54259 42680 72203 10201 20072 40073 57004 86502;
0180542590999992000051806004+42100+124950FM-12+023599999V0202701N001010120019N0300001N1+01771+00951100641ADDAA106000791AY191061AY281061GF107991071091012501999999KA1999N+01111MD1710111+9999MW1291REMSYN082AAXX  18061 54259 11680 72701 10177 20095 40064 57011 69901 72998 879// 333 20111;
0112542590999992000051809004+42100+124950FM-12+023599999V0201801N004010900019N0300001N1+02091+00731100471ADDGF107991011051012501001021MD1710161+9999REMSYN060AAXX  18091 54259 42680 71804 10209 20073 40047 57016 81502;
0142542590999992000051812004+42100+124950FM-12+023599999V0201801N001012200019N0150001N1+01621+00941100631ADDAA199000091GF102991001001999999001021MD1210151+9999REMSYN060AAXX  18121 54259 32965 21801 10162 20094 40063 52015 80002;EQDQ01  00002PRCP99
0164542590999992000051818004+42100+124950FM-12+023599999V0209999C000010120019N0150001N1+01261+01031100661ADDAA106000791GF108991081051012501999999KA1999M+02181MD1710021+9999MW1601REMSYN082AAXX  18181 54259 11665 80000 10126 20103 40066 57002 69901 76000 885// 333 10218;
0161542590999992000051821004+42100+124950FM-12+023599999V0202201N001010120019N0080001N1+01171+01081100571ADDAA124000591AY161031AY261031GF108991081051012501999999MD1710081+9999MW1601REMSYN076AAXX  18211 54259 41658 82201 10117 20108 40057 57008 76066 885// 333 70004;
0173542590999992000051900004+42100+124950FM-12+023599999V0201801N001010120019N0050001N1+01231+01121100661ADDAA106005191AY161061AY261061GF108991081051012501999999MD1210071-0101MW1601REMSYN088AAXX  19001 54259 11650 81801 10123 20112 40066 52007 60051 76066 885// 333 05153 70049;
0140542590999992000051903004+42100+124950FM-12+023599999V0202501N001010360019N0090001N1+01301+01071100631ADDAY161031AY261031GF108991041051012501021999MD1710041+9999MW1611REMSYN066AAXX  19031 54259 41659 82501 10130 20107 40063 57004 76166 8452/;
0180542590999992000051906004+42100+124950FM-12+023599999V0202501N003010120019N0220001N1+01411+01051100601ADDAA106003091AY161061AY261061GF108991081051012501999999KA1999N+01151MD1710031+9999MW1601REMSYN082AAXX  19061 54259 11672 82503 10141 20105 40060 57003 60031 76066 885// 333 20115;
0132542590999992000051909004+42100+124950FM-12+023599999V0202201N003010120019N0250001N1+01441+00991100611ADDAY161031GF107991071051012501999999MD1210011+9999MW1001REMSYN066AAXX  19091 54259 41675 72203 10144 20099 40061 52001 70060 875//;
0149542590999992000051912004+42100+124950FM-12+023599999V0203201N001010120019N0200001N1+01261+01031100721ADDAA106000791AY161061GF107991071051012501999999MD1210101+9999MW1001REMSYN072AAXX  19121 54259 11670 73201 10126 20103 40072 52010 69901 70060 875//;
0146542590999992000051918004+42100+124950FM-12+023599999V0202201N002010120019N0120001N1+01151+01041100741ADDAA199000021GF108991081051012501999999KA1999M+01621MD1710021+9999REMSYN070AAXX  19181 54259 32662 82202 10115 20104 40074 57002 885// 333 10162;
0153542590999992000051921004+42100+124950FM-12+023599999V0202501N002010120019N0080001N1+01161+01101100781ADDAA124007991AY161031GF108991081051012501999999MD1210041+9999MW1601REMSYN076AAXX  19211 54259 41658 82502 10116 20110 40078 52004 76060 885// 333 70078;
0165542590999992000052000004+42100+124950FM-12+023599999V0202201N001010120019N0060001N1+01191+01081100891ADDAA106000891AY161061GF108991081051012501999999MD1210101+0201MW1601REMSYN088AAXX  20001 54259 11656 82201 10119 20108 40089 52010 69981 76060 885// 333 00200 70036;
0140542590999992000052003004+42100+124950FM-12+023599999V0202501N004010120019N0120001N1+01221+01071100941ADDAY161031AY261031GF108991081051012501999999MD1210051+9999MW1601REMSYN066AAXX  20031 54259 41662 82504 10122 20107 40094 52005 76066 885//;
0172542590999992000052006004+42100+124950FM-12+023599999V0202501N003010120019N0120001N1+01361+01101100921ADDAA106002091AY161061GF108991081051012501999999KA1999N+01151MD1710021+9999MW1001REMSYN082AAXX  20061 54259 11662 82503 10136 20110 40092 57002 60021 70060 885// 333 20115;
0112542590999992000052009004+42100+124950FM-12+023599999V0202201N001010120019N0120001N1+01441+01071100831ADDGF107991071051012501999999MD1710081+9999REMSYN060AAXX  20091 54259 42662 72201 10144 20107 40083 57008 875//;
0123542590999992000052012004+42100+124950FM-12+023599999V0203201N001010120019N0120001N1+01201+01051100871ADDAA199000021GF108991081051012501999999MD1210031+9999REMSYN060AAXX  20121 54259 32662 83201 10120 20105 40087 52003 885//;
0171542590999992000052018004+42100+124950FM-12+023599999V0201601N001010120019N0050001N1+00921+00881999999ADDAA199000091GF108991081051012501999999KA1999M+01471MD1710021+9999MW1101REMSYN070AAXX  20181 54259 31650 81601 10092 20088 57002 71000 885// 333 10147;EQDQ01  00002PRCP99
0145542590999992000052021004+42100+124950FM-12+023599999V0209999C000010120019N0050001N1+00861+00821100791ADDAA124001891GF108991081051012501999999MD1710061+9999MW1601REMSYN076AAXX  20211 54259 41650 80000 10086 20082 40079 57006 76000 885// 333 70018;
0165542590999992000052100004+42100+124950FM-12+023599999V0201101N001010120019N0050001N1+00921+00881100751ADDAA106002091AY161061GF108991081051012501999999MD1710051-0201MW1601REMSYN088AAXX  21001 54259 11650 81101 10092 20088 40075 57005 60021 76060 885// 333 05253 70031;
0132542590999992000052103004+42100+124950FM-12+023599999V0209999C000010120019N0150001N1+01141+01041100801ADDAY161031GF108991081051012501999999MD1210051+9999MW1601REMSYN066AAXX  21031 54259 41665 80000 10114 20104 40080 52005 76060 885//;
0172542590999992000052106004+42100+124950FM-12+023599999V0202501N001010120019N0150001N1+01311+01181100871ADDAA106000791AY161061GF108991081051012501999999KA1999N+00861MD1210071+9999MW1601REMSYN082AAXX  21061 54259 11665 82501 10131 20118 40087 52007 69901 76060 885// 333 20086;
0132542590999992000052109004+42100+124950FM-12+023599999V0202501N002010120019N0150001N1+01581+01261100891ADDAY161031GF108991081051012501999999MD1210031+9999MW1001REMSYN066AAXX  21091 54259 41665 82502 10158 20126 40089 52003 70060 885//;
0149542590999992000052112004+42100+124950FM-12+023599999V0209999C000010120019N0120001N1+01331+01201101061ADDAA106000791AY161061GF108991081051012501999999MD1210161+9999MW1001REMSYN072AAXX  21121 54259 11662 80000 10133 20120 40106 52016 69901 70060 885//;
0176542590999992000052118004+42100+124950FM-12+023599999V0209999C000010006019N0007001N1+00951+00931101171ADDAA199000021AY141061GA1091+999999999GF109991091999999999999999KA1999M+01641MD1210021+9999MW1451REMSYN070AAXX  21181 54259 31/07 90000 10095 20093 40117 52002 74540 333 10164;
0171542590999992000052121004+42100+124950FM-12+023599999V0202501N001010006019N0007001N1+00881+00861101221ADDAA124002591AY141031AY241031GA1091+999999999GF109991091999999999999999MD1210051+9999MW1451REMSYN070AAXX  21211 54259 41/07 92501 10088 20086 40122 52005 74544 333 70026;
0177542590999992000052200004+42100+124950FM-12+023599999V0202501N001010006019N0009001N1+01091+01071101311ADDAA124001091AY141061AY241061GA1091+999999999GF109991091999999999999999MD1210091+0601MW1431REMSYN076AAXX  22001 54259 31/09 92501 10109 20107 40131 52009 74344 333 00602 70010;
0142542590999992000052203004+42100+124950FM-12+023599999V0202201N005012200019N0250001N1+02101+01251101191ADDAY141031GA1001+999999999GF100991001001999999001001MD1710081+9999MW1001REMSYN060AAXX  22031 54259 41975 02205 10210 20125 40119 57008 70040;
0112542590999992000052209004+42100+124950FM-12+023599999V0202701N002012200019N0300001N1+02591+00891100861ADDGF101991011011008001001011MD1710151+9999REMSYN060AAXX  22091 54259 42580 12702 10259 20089 40086 57015 81101;
0142542590999992000052212004+42100+124950FM-12+023599999V0209999C000012200019N0200001N1+01851+01151100881ADDAA199000091GF101991001001999999001021MD1410001+9999REMSYN060AAXX  22121 54259 32970 10000 10185 20115 40088 54000 80002;EQDQ01  00002PRCP99
0165542590999992000052218004+42100+124950FM-12+023599999V0209999C000012200019N0200001N1+01201+01051100721ADDAA199000091GF102991001001999999001021KA1999M+02651MD1710121+9999REMSYN070AAXX  22181 54259 32970 20000 10120 20105 40072 57012 80002 333 10265;EQDQ01  00002PRCP99
0124542590999992000052221004+42100+124950FM-12+023599999V0202501N001010120019N0200001N1+01251+01041100841ADDGF106991061091012501001001MD1210121+9999MW1171REMSYN066AAXX  22211 54259 41670 62501 10125 20104 40084 52012 71700 86900;
0173542590999992000052300004+42100+124950FM-12+023599999V0202701N003012200019N0300001N1+01881+00791100881ADDAA106000591AY191061AY281061GF101991001001999999001011MD1210031-0401MW1001REMSYN088AAXX  23001 54259 11980 12703 10188 20079 40088 52003 69951 70098 80001 333 05408 70005;
0112542590999992000052303004+42100+124950FM-12+023599999V0202201N005012200019N0300001N1+02491+00681100851ADDGF101991001001999999001021MD1710021+9999REMSYN060AAXX  23031 54259 42980 12205 10249 20068 40085 57002 80002;
0175542590999992000052306004+42100+124950FM-12+023599999V0202501N004012200019N0300001N1+02741+00981100781ADDAA199000091GA1001+999999999GF100991001001999999001001KA1999N+01131MD1710061+9999REMSYN064AAXX  23061 54259 32980 02504 10274 20098 40078 57006 333 20113;EQDQ01  00002PRCP99
0122542590999992000052309004+42100+124950FM-12+023599999V0203401N003012200019N0300001N1+02701+01061100711ADDGA1001+999999999GF100991001001999999001001MD1710071+9999REMSYN054AAXX  23091 54259 42980 03403 10270 20106 40071 57007;
0142542590999992000052312004+42100+124950FM-12+023599999V0200201N001012200019N0200001N1+02021+01311100831ADDAA199000091GF103991001001999999001021MD1210111+9999REMSYN060AAXX  23121 54259 32970 30201 10202 20131 40083 52011 80002;EQDQ01  00002PRCP99
0175542590999992000052318004+42100+124950FM-12+023599999V0200701N001012200019N0200001N1+01291+01121100931ADDAA199000091GA1001+999999999GF100991001001999999001001KA1999M+02781MD1210021+9999REMSYN064AAXX  23181 54259 32970 00701 10129 20112 40093 52002 333 10278;EQDQ01  00002PRCP99
0143542590999992000052321004+42100+124950FM-12+023599999V0209999C000012200019N0200001N1+01121+00981101011ADDAA124000591GA1001+999999999GF100991001001999999001001MD1210061+9999REMSYN064AAXX  23211 54259 42970 00000 10112 20098 40101 52006 333 70005;
0152542590999992000052400004+42100+124950FM-12+023599999V0209999C000012200019N0200001N1+01861+01261100931ADDAA199000091GF101991001001999999001021MD1710071+0011REMSYN070AAXX  24001 54259 32970 10000 10186 20126 40093 57007 80002 333 00100;EQDQ01  00002PRCP99
0112542590999992000052403004+42100+124950FM-12+023599999V0202201N004012200019N0250001N1+02901+01481100741ADDGF104991001001999999001021MD1710161+9999REMSYN060AAXX  24031 54259 42975 42204 10290 20148 40074 57016 80002;
0165542590999992000052406004+42100+124950FM-12+023599999V0202001N005019999999N0250001N1+03161+01591100451ADDAA199000091GF106991001001999999001021KA1999N+01111MD1710281+9999REMSYN070AAXX  24061 54259 32975 62005 10316 20159 40045 57028 80002 333 20111;EQDQ01  00002PRCP99
0112542590999992000052409004+42100+124950FM-12+023599999V0202201N004019999999N0250001N1+02941+01571100461ADDGF105991001001999999001021MD1710011+9999REMSYN060AAXX  24091 54259 42975 52204 10294 20157 40046 57001 80002;
0142542590999992000052412004+42100+124950FM-12+023599999V0202501N002012200019N0180001N1+02441+01581100591ADDAA199000091GF102991001001999999001021MD1210141+9999REMSYN060AAXX  24121 54259 32968 22502 10244 20158 40059 52014 80002;EQDQ01  00002PRCP99
0165542590999992000052418004+42100+124950FM-12+023599999V0209999C000019999999N0150001N1+02081+01481100651ADDAA199000091GF107991001001999999001021KA1999M+03191MD1710031+9999REMSYN070AAXX  24181 54259 32965 70000 10208 20148 40065 57003 80002 333 10319;EQDQ01  00002PRCP99
0112542590999992000052421004+42100+124950FM-12+023599999V0209999C000019999999N0150001N1+01781+01471100731ADDGF107991001001999999001021MD1210051+9999REMSYN060AAXX  24211 54259 42965 70000 10178 20147 40073 52005 80002;
0152542590999992000052500004+42100+124950FM-12+023599999V0209999C000019999999N0150001N1+02341+01671100831ADDAA199000091GF107991001001999999001021MD1210101+0011REMSYN070AAXX  25001 54259 32965 70000 10234 20167 40083 52010 80002 333 05105;EQDQ01  00002PRCP99
0112542590999992000052503004+42100+124950FM-12+023599999V0202501N004019999999N0300001N1+02881+01491100761ADDGF107991001001999999001021MD1710051+9999REMSYN060AAXX  25031 54259 42980 72504 10288 20149 40076 57005 80002;
0165542590999992000052506004+42100+124950FM-12+023599999V0202701N005019999999N0300001N1+03101+01481100681ADDAA199000091GF107991001001999999001021KA1999N+01761MD1710081+9999REMSYN070AAXX  25061 54259 32980 72705 10310 20148 40068 57008 80002 333 20176;EQDQ01  00002PRCP99
0112542590999992000052509004+42100+124950FM-12+023599999V0202501N003019999999N0300001N1+03031+01531100681ADDGF107991001001999999001011MD1710011+9999REMSYN060AAXX  25091 54259 42980 72503 10303 20153 40068 57001 80001;
0142542590999992000052512004+42100+124950FM-12+023599999V0202501N001019999999N0200001N1+02481+01541100891ADDAA199000091GF107991001001999999001021MD1210201+9999REMSYN060AAXX  25121 54259 32970 72501 10248 20154 40089 52020 80002;EQDQ01  00002PRCP99
0175542590999992000052518004+42100+124950FM-12+023599999V0209999C000012200019N0150001N1+01671+01501101101ADDAA199000091GA1001+999999999GF100991001001999999001001KA1999M+03171MD1710051+9999REMSYN064AAXX  25181 54259 32965 00000 10167 20150 40110 57005 333 10317;EQDQ01  00002PRCP99
0112542590999992000052521004+42100+124950FM-12+023599999V0200201N001012200019N0150001N1+01501+01361101121ADDGF101991001001999999001021MD1210011+9999REMSYN060AAXX  25211 54259 42965 10201 10150 20136 40112 52001 80002;
0162542590999992000052600004+42100+124950FM-12+023599999V0209999C000012200019N0250001N1+02011+01451101121ADDAA199000091GA1001+999999999GF100991001001999999001001MD1410001+0031REMSYN064AAXX  26001 54259 32975 00000 10201 20145 40112 54000 333 00353;EQDQ01  00002PRCP99
0112542590999992000052603004+42100+124950FM-12+023599999V0202701N003012200019N0300001N1+02561+01481100941ADDGF101991011011008001001001MD1710181+9999REMSYN060AAXX  26031 54259 42580 12703 10256 20148 40094 57018 81100;
0165542590999992000052606004+42100+124950FM-12+023599999V0202201N004012200019N0300001N1+02861+01551100661ADDAA199000091GF101991011011008001001001KA1999N+01491MD1710261+9999REMSYN070AAXX  26061 54259 32580 12204 10286 20155 40066 57026 81100 333 20149;EQDQ01  00002PRCP99
0112542590999992000052609004+42100+124950FM-12+023599999V0203601N003012200019N0280001N1+02741+01631100531ADDGF102991021011008001001001MD1710141+9999REMSYN060AAXX  26091 54259 42578 23603 10274 20163 40053 57014 82100;
0142542590999992000052612004+42100+124950FM-12+023599999V0200201N001010120019N0250001N1+02381+01351100651ADDAA199000091GF107991071051012501999999MD1210121+9999REMSYN060AAXX  26121 54259 32675 70201 10238 20135 40065 52012 875//;EQDQ01  00002PRCP99
0172542590999992000052618004+42100+124950FM-12+023599999V0200701N002010120019N0120001N1+01741+01541100521ADDAA106000191AY161061GF108991081051012501999999KA1999M+02951MD1710261+9999MW1211REMSYN082AAXX  26181 54259 11662 80702 10174 20154 40052 57026 69911 72160 885// 333 10295;
0153542590999992000052621004+42100+124950FM-12+023599999V0200201N002010120019N0150001N1+01601+01301100531ADDAA124000591AY161031GF108991081051012501999999MD1410001+9999MW1211REMSYN076AAXX  26211 54259 41665 80202 10160 20130 40053 54000 72160 885// 333 70006;
0165542590999992000052700004+42100+124950FM-12+023599999V0200701N002010120019N0200001N1+01621+01211100561ADDAA106000591AY161061GF108991081051012501999999MD1210011-0601MW1601REMSYN088AAXX  27001 54259 11670 80702 10162 20121 40056 52001 69961 76060 885// 333 05654 70007;
0112542590999992000052703004+42100+124950FM-12+023599999V0200901N002010120019N0300001N1+01721+01181100481ADDGF108991081051012501999999MD1710091+9999REMSYN060AAXX  27031 54259 42680 80902 10172 20118 40048 57009 885//;
0172542590999992000052706004+42100+124950FM-12+023599999V0201401N003010120019N0300001N1+01981+01061100241ADDAA106000791AY161061GF107991071051012501999999KA1999N+01581MD1710231+9999MW1211REMSYN082AAXX  27061 54259 11680 71403 10198 20106 40024 57023 69901 72160 875// 333 20158;
0112542590999992000052709004+42100+124950FM-12+023599999V0202501N001010900019N0300001N1+02051+01131100131ADDGF107991021051012501001021MD1710111+9999REMSYN060AAXX  27091 54259 42680 72501 10205 20113 40013 57011 82502;
0123542590999992000052712004+42100+124950FM-12+023599999V0203401N002010120019N0250001N1+01861+00661100161ADDAA199000021GF108991081051012501999999MD1210021+9999REMSYN060AAXX  27121 54259 32675 83402 10186 20066 40016 52002 885//;
0146542590999992000052718004+42100+124950FM-12+023599999V0202501N001012200019N0180001N1+01181+00781100301ADDAA199000021GF101991011051012501001001KA1999M+02091MD1210111+9999REMSYN070AAXX  27181 54259 32668 12501 10118 20078 40030 52011 81500 333 10209;
0133542590999992000052721004+42100+124950FM-12+023599999V0209999C000019999999N0200001N1+00941+00751100451ADDAA124000191GF106991001001999999001021MD1210141+9999REMSYN070AAXX  27211 54259 42970 60000 10094 20075 40045 52014 80002 333 70001;
0139542590999992000052800004+42100+124950FM-12+023599999V0201801N002019999999N0300001N1+01681+00861100551ADDAA124000791GF107991001001999999001021MD1210121+0001REMSYN076AAXX  28001 54259 32980 71802 10168 20086 40055 52012 80002 333 00001 79999;
0112542590999992000052803004+42100+124950FM-12+023599999V0200401N002012200019N0300001N1+02461+00431100521ADDGF102991001001999999001021MD1410001+9999REMSYN060AAXX  28031 54259 42980 20402 10246 20043 40052 54000 80002;
0165542590999992000052806004+42100+124950FM-12+023599999V0203601N003012200019N0300001N1+02681+00101100481ADDAA199000091GF101991011011008001001001KA1999N+00941MD1710051+9999REMSYN070AAXX  28061 54259 32580 13603 10268 20010 40048 57005 81100 333 20094;EQDQ01  00002PRCP99
0122542590999992000052809004+42100+124950FM-12+023599999V0202701N002012200019N0300001N1+02781+00131100461ADDGA1001+999999999GF100991001001999999001001MD1710031+9999REMSYN054AAXX  28091 54259 42980 02702 10278 20013 40046 57003;
0141542590999992000052812004+42100+124950FM-12+023599999V0202201N001012200019N0200001N1+02041+00861100561ADDAA199000091GF101991001001999999001021MD1210101+9999REMSYN059AAXX  28121 54259 32970 12201 1020420086 40056 52010 80002;EQDQ01  00002PRCP99
0175542590999992000052818004+42100+124950FM-12+023599999V0202501N001012200019N0150001N1+01451+00871100611ADDAA199000091GA1001+999999999GF100991001001999999001001KA1999M+02821MD1210011+9999REMSYN064AAXX  28181 54259 32965 02501 10145 20087 40061 52001 333 10282;EQDQ01  00002PRCP99
0122542590999992000052821004+42100+124950FM-12+023599999V0202201N001012200019N0200001N1+01211+00831100581ADDGA1001+999999999GF100991001001999999001001MD1710041+9999REMSYN054AAXX  28211 54259 42970 02201 10121 20083 40058 57004;
0152542590999992000052900004+42100+124950FM-12+023599999V0202201N004012200019N0300001N1+02351+00651100531ADDAA199000091GF101991001001999999001021MD1710031+0001REMSYN070AAXX  29001 54259 32980 12204 10235 20065 40053 57003 80002 333 00007;EQDQ01  00002PRCP99
0112542590999992000052903004+42100+124950FM-12+023599999V0202501N007012200019N0300001N1+02991+00301100351ADDGF101991001001999999001021MD1710171+9999REMSYN060AAXX  29031 54259 42980 12507 10299 20030 40035 57017 80002;
0165542590999992000052906004+42100+124950FM-12+023599999V0202501N010012200019N0300001N1+03131+00041100331ADDAA199000091GF101991001001999999001011KA1999N+01201MD1710011+9999REMSYN070AAXX  29061 54259 32980 12510 10313 20004 40033 57001 80001 333 20120;EQDQ01  00002PRCP99
0112542590999992000052909004+42100+124950FM-12+023599999V0202701N005012200019N0300001N1+03061+00351100261ADDGF102991001001999999001021MD1710091+9999REMSYN060AAXX  29091 54259 42980 22705 10306 20035 40026 57009 80002;
0152542590999992000052912004+42100+124950FM-12+023599999V0201801N004012200019N0200001N1+02411+00461100391ADDAA199000091GA1001+999999999GF100991001001999999001001MD1210151+9999REMSYN054AAXX  29121 54259 32970 01804 10241 20046 40039 52015;EQDQ01  00002PRCP99
0175542590999992000052918004+42100+124950FM-12+023599999V0202201N002012200019N0250001N1+01851+00751100481ADDAA199000091GA1001+999999999GF100991001001999999001001KA1999M+03171MD1210011+9999REMSYN064AAXX  29181 54259 32975 02202 10185 20075 40048 52001 333 10317;EQDQ01  00002PRCP99
0112542590999992000052921004+42100+124950FM-12+023599999V0202201N002019999999N0250001N1+01491+00871100441ADDGF107991001001999999001021MD1710061+9999REMSYN060AAXX  29211 54259 42975 72202 10149 20087 40044 57006 80002;
0152542590999992000053000004+42100+124950FM-12+023599999V0202701N002019999999N0300001N1+02261+00731100381ADDAA199000091GF107991001001999999001021MD1710051+0011REMSYN070AAXX  30001 54259 32980 72702 10226 20073 40038 57005 80002 333 05151;EQDQ01  00002PRCP99
0112542590999992000053003004+42100+124950FM-12+023599999V0202001N003010120019N0300001N1+02341+00751100401ADDGF108991061051012501001071MD1210011+9999REMSYN060AAXX  30031 54259 42680 82003 10234 20075 40040 52001 86507;
0165542590999992000053006004+42100+124950FM-12+023599999V0202501N004019999999N0300001N1+02591+00981100191ADDAA199000091GF107991001001999999001021KA1999N+01461MD1710211+9999REMSYN070AAXX  30061 54259 32980 72504 10259 20098 40019 57021 80002 333 20146;EQDQ01  00002PRCP99
0112542590999992000053009004+42100+124950FM-12+023599999V0202001N003012200019N0300001N1+02501+01061100221ADDGF102991001001999999001021MD1210011+9999REMSYN060AAXX  30091 54259 42980 22003 10250 20106 40022 52001 80002;
0142542590999992000053012004+42100+124950FM-12+023599999V0202501N002010900019N0200001N1+02071+01211100381ADDAA199000091GF107991021051012501001021MD1210171+9999REMSYN060AAXX  30121 54259 32670 72502 10207 20121 40038 52017 82502;EQDQ01  00002PRCP99
0175542590999992000053018004+42100+124950FM-12+023599999V0209999C000012200019N0150001N1+01481+01211100461ADDAA199000091GA1001+999999999GF100991001001999999001001KA1999M+02721MD1710101+9999REMSYN064AAXX  30181 54259 32965 00000 10148 20121 40046 57010 333 10272;EQDQ01  00002PRCP99
0112542590999992000053021004+42100+124950FM-12+023599999V0209999C000012200019N0120001N1+01281+01131100511ADDGF102991021051012501001001MD1210041+9999REMSYN060AAXX  30211 54259 42662 20000 10128 20113 40051 52004 82500;
0152542590999992000053100004+42100+124950FM-12+023599999V0201401N001019999999N0150001N1+01701+01221100601ADDAA199000091GF107991001001999999001021MD1210081+0021REMSYN070AAXX  31001 54259 32965 71401 10170 20122 40060 52008 80002 333 00256;EQDQ01  00002PRCP99
0112542590999992000053103004+42100+124950FM-12+023599999V0200701N001010900019N0300001N1+02191+01111100581ADDGF107991021051012501001021MD1710011+9999REMSYN060AAXX  31031 54259 42680 70701 10219 20111 40058 57001 82502;
0165542590999992000053106004+42100+124950FM-12+023599999V0200901N002010900019N0300001N1+02431+00781100391ADDAA199000091GF106991021011008001001021KA1999N+01271MD1710191+9999REMSYN070AAXX  31061 54259 32580 60902 10243 20078 40039 57019 82102 333 20127;EQDQ01  00002PRCP99
0112542590999992000053109004+42100+124950FM-12+023599999V0202701N002010900019N0300001N1+02421+00991100341ADDGF107991021011008001001021MD1710051+9999REMSYN060AAXX  31091 54259 42580 72702 10242 20099 40034 57005 82102;
0142542590999992000053112004+42100+124950FM-12+023599999V0203601N002010120019N0200001N1+01991+01131100561ADDAA199000091GF108991081051012501999999MD1210211+9999REMSYN060AAXX  31121 54259 32670 83602 10199 20113 40056 52021 885//;EQDQ01  00002PRCP99
0165542590999992000053118004+42100+124950FM-12+023599999V0209999C000019999999N0150001N1+01571+01211100781ADDAA199000091GF107991001001999999001021KA1999M+02581MD1210121+9999REMSYN070AAXX  31181 54259 32965 70000 10157 20121 40078 52012 80002 333 10258;EQDQ01  00002PRCP99
0112542590999992000053121004+42100+124950FM-12+023599999V0200701N002010900019N0150001N1+01381+01141100891ADDGF105991011051012501001021MD1210101+9999REMSYN060AAXX  31211 54259 42665 50702 10138 20114 40089 52010 81502;
0152542590999992000060100004+42100+124950FM-12+023599999V0209999C000010120019N0180001N1+01791+01361101051ADDAA199000091GF107991071051012501999999MD1210151+0041REMSYN070AAXX  01001 54259 32668 70000 10179 20136 40105 52015 875// 333 00401;EQDQ01  00002PRCP99
0112542590999992000060103004+42100+124950FM-12+023599999V0201401N001010120019N0200001N1+02271+01151101031ADDGF106991061051012501001001MD1710011+9999REMSYN060AAXX  01031 54259 42670 61401 10227 20115 40103 57001 86500;
0140542590999992000060109004+42100+124950FM-12+023599999V0201101N002010120019N0200001N1+02141+01601101121ADDAY191031AY281031GF106991061051012501001001MD1210071+9999MW1001REMSYN066AAXX  01091 54259 41670 61102 10214 20160 40112 52007 70098 86500;
0157542590999992000060112004+42100+124950FM-12+023599999V0202901N001010120019N0200001N1+01851+01401101271ADDAA106001091AY191061AY281061GF106991061051012501001001MD1210151+9999MW1001REMSYN072AAXX  01121 54259 11670 62901 10185 20140 40127 52015 60011 70098 86500;
0175542590999992000060118004+42100+124950FM-12+023599999V0209999C000012200019N0120001N1+01441+01321101481ADDAA199000091GA1001+999999999GF100991001001999999001001KA1999M+02471MD1210051+9999REMSYN064AAXX  01181 54259 32962 00000 10144 20132 40148 52005 333 10247;EQDQ01  00002PRCP99
0145542590999992000060121004+42100+124950FM-12+023599999V0209999C000010120019N0040001N1+01381+01271101621ADDAA124001391GF106991061051012501001001MD1210121+9999MW1101REMSYN076AAXX  01211 54259 41640 60000 10138 20127 40162 52012 71000 86500 333 70012;
0151542590999992000060200004+42100+124950FM-12+023599999V0201401N001012200019N0050001N1+01771+01431101651ADDAA124001391GF101991011051012501001001MD1210041+0601MW1101REMSYN082AAXX  02001 54259 31650 11401 10177 20143 40165 52004 71000 81500 333 00600 70012;
0124542590999992000060209004+42100+124950FM-12+023599999V0200201N002010120019N0300001N1+02501+00721101281ADDGF108991081091012501999999MD1710011+9999MW1951REMSYN066AAXX  02091 54259 41680 80202 10250 20072 40128 57001 79500 889//;
0157542590999992000060212004+42100+124950FM-12+023599999V0203601N001010120019N0250001N1+01621+01301101501ADDAA106003091AY191061AY281061GF106991061091012501001001MD1210191+9999MW1251REMSYN072AAXX  02121 54259 11675 63601 10162 20130 40150 52019 60031 72598 86900;
0146542590999992000060218004+42100+124950FM-12+023599999V0200901N001010120019N0120001N1+01151+01051101451ADDAA199000021GF106991061051012501001001KA1999M+02851MD1710061+9999REMSYN070AAXX  02181 54259 32662 60901 10115 20105 40145 57006 86500 333 10285;
0163542590999992000060221004+42100+124950FM-12+023599999V0209999C000010006019N0006001N1+01011+00991101501ADDAA124003091AY141031GA1091+999999999GF109991091999999999999999MD1210041+9999MW1471REMSYN070AAXX  02211 54259 41/06 90000 10101 20099 40150 52004 74740 333 70030;
0169542590999992000060300004+42100+124950FM-12+023599999V0209999C000012200019N0250001N1+01481+01131101521ADDAA124003091AY141061GA1001+999999999GF100991001001999999001001MD1410001-0201MW1281REMSYN076AAXX  03001 54259 31975 00000 10148 20113 40152 54000 72840 333 05253 70030;
0141542590999992000060303004+42100+124950FM-12+023599999V0200701N001012200019N0300001N1+02632+00571101291ADDGA1001+999999999GF100991001001999999001001MD1710191+9999REMSYN054AAXX  03031 54259 42980 00701 10263 20057 40129 57019;EQDQ01+002633ATOT  
0165542590999992000060306004+42100+124950FM-12+023599999V0201101N004012200019N0300001N1+02861+00681101131ADDAA199000091GF101991001001999999001021KA1999N+00981MD1710151+9999REMSYN070AAXX  03061 54259 32980 11104 10286 20068 40113 57015 80002 333 20098;EQDQ01  00002PRCP99
0112542590999992000060309004+42100+124950FM-12+023599999V0200201N001019999999N0300001N1+02851+00641101061ADDGF107991001001999999001021MD1710081+9999REMSYN060AAXX  03091 54259 42980 70201 10285 20064 40106 57008 80002;
0142542590999992000060312004+42100+124950FM-12+023599999V0203601N001012200019N0250001N1+02151+01051101111ADDAA199000091GF101991001001999999001021MD1210041+9999REMSYN060AAXX  03121 54259 32975 13601 10215 20105 40111 52004 80002;EQDQ01  00002PRCP99
0175542590999992000060318004+42100+124950FM-12+023599999V0209999C000012200019N0200001N1+01201+00971101071ADDAA199000091GA1001+999999999GF100991001001999999001001KA1999M+02941MD1210011+9999REMSYN064AAXX  03181 54259 32970 00000 10120 20097 40107 52001 333 10294;EQDQ01  00002PRCP99
0122542590999992000060321004+42100+124950FM-12+023599999V0200901N001012200019N0200001N1+01031+00791101171ADDGA1001+999999999GF100991001001999999001001MD1210091+9999REMSYN054AAXX  03211 54259 42970 00901 10103 20079 40117 52009;
0162542590999992000060400004+42100+124950FM-12+023599999V0209999C000012200019N0300001N1+01941+00911101061ADDAA199000091GA1001+999999999GF100991001001999999001001MD1710101+0041REMSYN064AAXX  04001 54259 32980 00000 10194 20091 40106 57010 333 05405;EQDQ01  00002PRCP99
0122542590999992000060403004+42100+124950FM-12+023599999V0202201N004012200019N0300001N1+02901+00761100831ADDGA1001+999999999GF100991001001999999001001MD1710201+9999REMSYN054AAXX  04031 54259 42980 02204 10290 20076 40083 57020;
0175542590999992000060406004+42100+124950FM-12+023599999V0202501N002012200019N0300001N1+03191-00031100691ADDAA199000091GA1001+999999999GF100991001001999999001001KA1999N+01011MD1710141+9999REMSYN064AAXX  04061 54259 32980 02502 10319 21003 40069 57014 333 20101;EQDQ01  00002PRCP99
0122542590999992000060409004+42100+124950FM-12+023599999V0202201N003012200019N0300001N1+03141+00761100611ADDGA1001+999999999GF100991001001999999001001MD1710091+9999REMSYN054AAXX  04091 54259 42980 02203 10314 20076 40061 57009;
0152542590999992000060412004+42100+124950FM-12+023599999V0209999C000012200019N0200001N1+02371+01321100661ADDAA199000091GA1001+999999999GF100991001001999999001001MD1210061+9999REMSYN054AAXX  04121 54259 32970 00000 10237 20132 40066 52006;EQDQ01  00002PRCP99
0175542590999992000060418004+42100+124950FM-12+023599999V0209999C000012200019N0200001N1+01631+01291100771ADDAA199000091GA1001+999999999GF100991001001999999001001KA1999M+03241MD1210011+9999REMSYN064AAXX  04181 54259 32970 00000 10163 20129 40077 52001 333 10324;EQDQ01  00002PRCP99
0122542590999992000060421004+42100+124950FM-12+023599999V0201801N001012200019N0150001N1+01481+01271100751ADDGA1001+999999999GF100991001001999999001001MD1710031+9999REMSYN054AAXX  04211 54259 42965 01801 10148 20127 40075 57003;
0162542590999992000060500004+42100+124950FM-12+023599999V0202201N004012200019N0300001N1+02421+01151100711ADDAA199000091GA1001+999999999GF100991001001999999001001MD1710031+0031REMSYN064AAXX  05001 54259 32980 02204 10242 20115 40071 57003 333 05305;EQDQ01  00002PRCP99
0122542590999992000060503004+42100+124950FM-12+023599999V0202201N007012200019N0300001N1+02981+00791100531ADDGA1001+999999999GF100991001001999999001001MD1710181+9999REMSYN054AAXX  05031 54259 42980 02207 10298 20079 40053 57018;
0165542590999992000060506004+42100+124950FM-12+023599999V0202501N007012200019N0300001N1+03251+00761100341ADDAA199000091GF101991011011008001001001KA1999N+01471MD1710181+9999REMSYN070AAXX  05061 54259 32580 12507 10325 20076 40034 57018 81100 333 20147;EQDQ01  00002PRCP99
0112542590999992000060509004+42100+124950FM-12+023599999V0202201N005012200019N0300001N1+03151+01221100261ADDGF102991021011008001001001MD1710091+9999REMSYN060AAXX  05091 54259 42580 22205 10315 20122 40026 57009 82100;
0142542590999992000060512004+42100+124950FM-12+023599999V0202201N004010120019N0180001N1+02711+01221100351ADDAA199000091GF107991071051012501999999MD1210111+9999REMSYN060AAXX  05121 54259 32668 72204 10271 20122 40035 52011 875//;EQDQ01  00002PRCP99
0175542590999992000060518004+42100+124950FM-12+023599999V0209999C000012200019N0200001N1+01901+01461100401ADDAA199000091GA1001+999999999GF100991001001999999001001KA1999M+03351MD1710041+9999REMSYN064AAXX  05181 54259 32970 00000 10190 20146 40040 57004 333 10335;EQDQ01  00002PRCP99
0122542590999992000060521004+42100+124950FM-12+023599999V0209999C000012200019N0150001N1+01721+01411100391ADDGA1001+999999999GF100991001001999999001001MD1710021+9999REMSYN054AAXX  05211 54259 42965 00000 10172 20141 40039 57002;
0152542590999992000060600004+42100+124950FM-12+023599999V0209999C000012200019N0250001N1+02381+01311100371ADDAA199000091GF101991001001999999001011MD1710011+0031REMSYN070AAXX  06001 54259 32975 10000 10238 20131 40037 57001 80001 333 05300;EQDQ01  00002PRCP99
0112542590999992000060603004+42100+124950FM-12+023599999V0202001N003012200019N0250001N1+02921+01341100271ADDGF101991001001999999001011MD1710091+9999REMSYN060AAXX  06031 54259 42975 12003 10292 20134 40027 57009 80001;
0165542590999992000060606004+42100+124950FM-12+023599999V0201801N002019999999N0250001N1+03111+01441100171ADDAA199000091GF107991001001999999001021KA1999N+01671MD1710111+9999REMSYN070AAXX  06061 54259 32975 71802 10311 20144 40017 57011 80002 333 20167;EQDQ01  00002PRCP99
0112542590999992000060609004+42100+124950FM-12+023599999V0200901N003019999999N0250001N1+02881+01451100161ADDGF107991001001999999001021MD1710031+9999REMSYN060AAXX  06091 54259 42975 70903 10288 20145 40016 57003 80002;
0142542590999992000060612004+42100+124950FM-12+023599999V0200701N001019999999N0150001N1+02511+01541100271ADDAA199000091GF107991001001999999001021MD1210121+9999REMSYN060AAXX  06121 54259 32965 70701 10251 20154 40027 52012 80002;EQDQ01  00002PRCP99
0165542590999992000060618004+42100+124950FM-12+023599999V0200201N002010120019N0200001N1+02061+01301100191ADDAA199000091GF108991081051012501999999KA1999M+03161MD1710081+9999REMSYN070AAXX  06181 54259 32670 80202 10206 20130 40019 57008 885// 333 10316;EQDQ01  00002PRCP99
0112542590999992000060621004+42100+124950FM-12+023599999V0201101N001010120019N0300001N1+01881+01371100021ADDGF107991071051012501999999MD1710191+9999REMSYN060AAXX  06211 54259 42680 71101 10188 20137 40002 57019 875//;
0152542590999992000060700004+42100+124950FM-12+023599999V0202501N001019999999N0250001N1+02141+01571099881ADDAA199000091GF107991001001999999001021MD1710141+0051REMSYN070AAXX  07001 54259 32975 72501 10214 20157 49988 57014 80002 333 05552;EQDQ01  00002PRCP99
0112542590999992000060703004+42100+124950FM-12+023599999V0202201N004010120019N0250001N1+02511+01671099891ADDGF107991071051012501999999MD1210021+9999REMSYN060AAXX  07031 54259 42675 72204 10251 20167 49989 52002 875//;
0165542590999992000060706004+42100+124950FM-12+023599999V0202201N005010120019N0250001N1+02381+01721099901ADDAA199000091GF108991081051012501999999KA1999N+01861MD1710011+9999REMSYN070AAXX  07061 54259 32675 82205 10238 20172 49990 57001 885// 333 20186;EQDQ01  00002PRCP99
0132542590999992000060709004+42100+124950FM-12+023599999V0202201N005010120019N0150001N1+01781+01621100141ADDAY161031GF108991081051012501999999MD1210201+9999MW1601REMSYN066AAXX  07091 54259 41665 82205 10178 20162 40014 52020 76060 885//;
0149542590999992000060712004+42100+124950FM-12+023599999V0202701N002010120019N0150001N1+01661+01351100241ADDAA106007991AY161061GF108991081051012501999999MD1210101+9999MW1001REMSYN072AAXX  07121 54259 11665 82702 10166 20135 40024 52010 60081 70060 885//;
0146542590999992000060718004+42100+124950FM-12+023599999V0203401N003010120019N0120001N1+01351+01091100311ADDAA199000021GF108991081051012501999999KA1999M+02551MD1710021+9999REMSYN070AAXX  07181 54259 32662 83403 10135 20109 40031 57002 885// 333 10255;
0133542590999992000060721004+42100+124950FM-12+023599999V0202701N002010120019N0200001N1+01321+01081100411ADDAA124008191GF107991071051012501999999MD1210071+9999REMSYN070AAXX  07211 54259 42670 72702 10132 20108 40041 52007 875// 333 70082;
0139542590999992000060800004+42100+124950FM-12+023599999V0203601N002010120019N0300001N1+01621+00871100411ADDAA124008191GF105991051051012501001001MD1410001+0501REMSYN076AAXX  08001 54259 32680 53602 10162 20087 40041 54000 85500 333 00555 70082;
0112542590999992000060803004+42100+124950FM-12+023599999V0203401N001010120019N0300001N1+01891+00901100401ADDGF106991061081008001001001MD1410001+9999REMSYN060AAXX  08031 54259 42580 63401 10189 20090 40040 54000 86800;
0165542590999992000060806004+42100+124950FM-12+023599999V0200401N003010120019N0300001N1+01981+00921100371ADDAA199000091GF107991071051012501999999KA1999N+01311MD1710031+9999REMSYN070AAXX  08061 54259 32680 70403 10198 20092 40037 57003 875// 333 20131;EQDQ01  00002PRCP99
0112542590999992000060809004+42100+124950FM-12+023599999V0200701N002010120019N0300001N1+01871+00851100431ADDGF107991071051012501999999MD1210051+9999REMSYN060AAXX  08091 54259 42680 70702 10187 20085 40043 52005 875//;
0142542590999992000060812004+42100+124950FM-12+023599999V0200401N001010120019N0300001N1+01591+01011100661ADDAA199000091GF106991061091012501001001MD1210221+9999REMSYN060AAXX  08121 54259 32680 60401 10159 20101 40066 52022 86900;EQDQ01  00002PRCP99
0175542590999992000060818004+42100+124950FM-12+023599999V0200401N003012200019N0200001N1+01221+00891100751ADDAA199000091GA1001+999999999GF100991001001999999001001KA1999M+02001MD1210021+9999REMSYN064AAXX  08181 54259 32970 00403 10122 20089 40075 52002 333 10200;EQDQ01  00002PRCP99
0122542590999992000060821004+42100+124950FM-12+023599999V0200901N002012200019N0250001N1+01071+00761100921ADDGA1001+999999999GF100991001001999999001001MD1210151+9999REMSYN054AAXX  08211 54259 42975 00902 10107 20076 40092 52015;
0162542590999992000060900004+42100+124950FM-12+023599999V0200901N003012200019N0300001N1+01631+00741101041ADDAA199000091GA1001+999999999GF100991001001999999001001MD1210131+0061REMSYN064AAXX  09001 54259 32980 00903 10163 20074 40104 52013 333 00600;EQDQ01  00002PRCP99
0112542590999992000060903004+42100+124950FM-12+023599999V0200901N003012200019N0300001N1+02141+00481100951ADDGF101991001001999999001021MD1710071+9999REMSYN060AAXX  09031 54259 42980 10903 10214 20048 40095 57007 80002;
0165542590999992000060906004+42100+124950FM-12+023599999V0201601N001012200019N0300001N1+02321+00571100811ADDAA199000091GF102991021011008001001001KA1999N+01041MD1710131+9999REMSYN070AAXX  09061 54259 32580 21601 10232 20057 40081 57013 82100 333 20104;EQDQ01  00002PRCP99
0112542590999992000060909004+42100+124950FM-12+023599999V0200701N002012200019N0300001N1+02461+00611100741ADDGF102991021011008001001001MD1710071+9999REMSYN060AAXX  09091 54259 42580 20702 10246 20061 40074 57007 82100;
0152542590999992000060912004+42100+124950FM-12+023599999V0200201N001012200019N0300001N1+01861+00881100911ADDAA199000091GA1001+999999999GF100991001001999999001001MD1210161+9999REMSYN054AAXX  09121 54259 32980 00201 10186 20088 40091 52016;EQDQ01  00002PRCP99
0175542590999992000060918004+42100+124950FM-12+023599999V0209999C000012200019N0200001N1+01151+00911101081ADDAA199000091GA1001+999999999GF100991001001999999001001KA1999M+02531MD1210031+9999REMSYN064AAXX  09181 54259 32970 00000 10115 20091 40108 52003 333 10253;EQDQ01  00002PRCP99
0112542590999992000060921004+42100+124950FM-12+023599999V0209999C000012200019N0200001N1+01011+00831101151ADDGF102991001001999999001021MD1210061+9999REMSYN060AAXX  09211 54259 42970 20000 10101 20083 40115 52006 80002;
0152542590999992000061000004+42100+124950FM-12+023599999V0209999C000012200019N0300001N1+01681+00971101171ADDAA199000091GF101991011051012501001021MD1210031+0021REMSYN070AAXX  10001 54259 32680 10000 10168 20097 40117 52003 81502 333 00201;EQDQ01  00002PRCP99
0112542590999992000061003004+42100+124950FM-12+023599999V0203201N002010075019N0300001N1+02461+00541101021ADDGF106991061011008001001001MD1710141+9999REMSYN060AAXX  10031 54259 42580 63202 10246 20054 40102 57014 86100;
0164542590999992000061006004+42100+124950FM-12+023599999V0201601N004010120019N0300001N1+02331+00381100971ADDAA106001091GF107991071091012501999999KA1999N+00971MD1710061+9999MW1951REMSYN082AAXX  10061 54259 11680 71604 10233 20038 40097 57006 69991 79500 879// 333 20097;
0140542590999992000061009004+42100+124950FM-12+023599999V0202201N002010900019N0300001N1+02311+00721100911ADDAY191031AY281031GF106991011051012501001021MD1710071+9999MW1001REMSYN066AAXX  10091 54259 41680 62202 10231 20072 40091 57007 70098 81502;
0157542590999992000061012004+42100+124950FM-12+023599999V0209999C000012200019N0200001N1+01781+01111101021ADDAA106001091AY191061AY281061GF102991021051012501001001MD1210121+9999MW1001REMSYN072AAXX  10121 54259 11670 20000 10178 20111 40102 52012 60011 70098 82500;
0156542590999992000061018004+42100+124950FM-12+023599999V0203201N001012200019N0150001N1+01191+01001101171ADDAA199000021GA1001+999999999GF100991001001999999001001KA1999M+02691MD1210021+9999REMSYN064AAXX  10181 54259 32965 03201 10119 20100 40117 52002 333 10269;
0143542590999992000061021004+42100+124950FM-12+023599999V0200901N001012200019N0150001N1+01051+00891101261ADDAA124001891GA1001+999999999GF100991001001999999001001MD1210081+9999REMSYN064AAXX  10211 54259 42965 00901 10105 20089 40126 52008 333 70019;
0149542590999992000061100004+42100+124950FM-12+023599999V0201401N001012200019N0200001N1+01741+01081101351ADDAA124001891GA1001+999999999GF100991001001999999001001MD1210091+0201REMSYN070AAXX  11001 54259 32970 01401 10174 20108 40135 52009 333 00201 70019;
0112542590999992000061103004+42100+124950FM-12+023599999V0201101N003012200019N0300001N1+02571+00911101181ADDGF101991011011008001001001MD1710151+9999REMSYN060AAXX  11031 54259 42580 11103 10257 20091 40118 57015 81100;
0164542590999992000061106004+42100+124950FM-12+023599999V0201801N002010120019N0300001N1+02601+00641101041ADDAA106000791GF106991061091012501001001KA1999N+01041MD1710141+9999MW1291REMSYN082AAXX  11061 54259 11680 61802 10260 20064 40104 57014 69901 72900 86900 333 20104;
0140542590999992000061109004+42100+124950FM-12+023599999V0200401N004010120019N0300001N1+02401+00831101041ADDAY191031AY281031GF107991071091012501001001MD1710011+9999MW1001REMSYN066AAXX  11091 54259 41680 70404 1024/ 20083 40104 57001 70098 87900;
0157542590999992000061112004+42100+124950FM-12+023599999V0200901N001010120019N0200001N1+01991+01151101151ADDAA106000791AY191061AY281061GF105991051051012501001001MD1210121+9999MW1001REMSYN072AAXX  11121 54259 11670 50901 10199 20115 40115 52012 69901 70098 85500;
0175542590999992000061118004+42100+124950FM-12+023599999V0209999C000012200019N0200001N1+01291+01081101231ADDAA199000091GA1001+999999999GF100991001001999999001001KA1999M+02781MD1410001+9999REMSYN064AAXX  11181 54259 32970 00000 10129 20108 40123 54000 333 10278;EQDQ01  00002PRCP99
0133542590999992000061121004+42100+124950FM-12+023599999V0209999C000012200019N0150001N1+01121+00921101301ADDAA124000791GF101991001001999999001011MD1210061+9999REMSYN070AAXX  11211 54259 42965 10000 10112 20092 40130 52006 80001 333 79999;
0139542590999992000061200004+42100+124950FM-12+023599999V0209999C000012200019N0250001N1+01831+01061101251ADDAA124000791GF101991001001999999001011MD1710041-0101REMSYN076AAXX  12001 54259 32975 10000 10183 20106 40125 57004 80001 333 05101 79999;
0122542590999992000061203004+42100+124950FM-12+023599999V0201801N002012200019N0300001N1+02741+00621101131ADDGA1001+999999999GF100991001001999999001001MD1710101+9999REMSYN054AAXX  12031 54259 42980 01802 10274 20062 40113 57010;
0165542590999992000061206004+42100+124950FM-12+023599999V0201401N003012200019N0300001N1+02941+00401100831ADDAA199000091GF101991011011008001001001KA1999N+01101MD1710291+9999REMSYN070AAXX  12061 54259 32580 11403 10294 20040 40083 57029 81100 333 20110;EQDQ01  00002PRCP99
0122542590999992000061209004+42100+124950FM-12+023599999V0202901N002012200019N0300001N1+03041+00371100661ADDGA1001+999999999GF100991001001999999001001MD1710171+9999REMSYN054AAXX  12091 54259 42980 02902 10304 20037 40066 57017;
0152542590999992000061212004+42100+124950FM-12+023599999V0202701N001012200019N0200001N1+02301+01121100671ADDAA199000091GA1001+999999999GF100991001001999999001001MD1210011+9999REMSYN054AAXX  12121 54259 32970 02701 10230 20112 40067 52001;EQDQ01  00002PRCP99
0175542590999992000061218004+42100+124950FM-12+023599999V0209999C000012200019N0200001N1+01461+01051100601ADDAA199000091GA1001+999999999GF100991001001999999001001KA1999M+03111MD1710051+9999REMSYN064AAXX  12181 54259 32970 00000 10146 20105 40060 57005 333 10311;EQDQ01  00002PRCP99
0122542590999992000061221004+42100+124950FM-12+023599999V0209999C000012200019N0300001N1+01321+01041100541ADDGA1001+999999999GF100991001001999999001001MD1710061+9999REMSYN054AAXX  12211 54259 42980 00000 10132 20104 40054 57006;
0152542590999992000061300004+42100+124950FM-12+023599999V0200701N001010120019N0300001N1+01781+01191100571ADDAA199000091GF107991071051012501999999MD1210021+0071REMSYN070AAXX  13001 54259 32680 70701 10178 20119 40057 52002 875// 333 05751;EQDQ01  00002PRCP99
0132542590999992000061303004+42100+124950FM-12+023599999V0202701N003010120019N0300001N1+02241+01221100221ADDAY181031GF107991071051012501999999MD1710351+9999MW1001REMSYN066AAXX  13031 54259 41680 72703 10224 20122 40022 57035 70080 875//;
0172542590999992000061306004+42100+124950FM-12+023599999V0202901N002010120019N0300001N1+02241+01481100131ADDAA106000191AY181061GF107991071051012501999999KA1999N+01321MD1710101+9999MW1251REMSYN082AAXX  13061 54259 11680 72902 10224 20148 40013 57010 69911 72580 875// 333 20132;
0112542590999992000061309004+42100+124950FM-12+023599999V0209999C000012200019N0300001N1+02761+01401100031ADDGF101991001001999999001021MD1710081+9999REMSYN060AAXX  13091 54259 42980 10000 10276 20140 40003 57008 80002;
0123542590999992000061312004+42100+124950FM-12+023599999V0200701N001012200019N0200001N1+02271+01551100231ADDAA199000021GF101991001001999999001021MD1210201+9999REMSYN060AAXX  13121 54259 32970 10701 10227 20155 40023 52020 80002;
0146542590999992000061318004+42100+124950FM-12+023599999V0209999C000012200019N0150001N1+01541+01351100351ADDAA199000021GF102991001001999999001021KA1999M+02821MD1710021+9999REMSYN070AAXX  13181 54259 32965 20000 10154 20135 40035 57002 80002 333 10282;
0133542590999992000061321004+42090+124940FM-12+023599999V0209999C000019999999N0200001N1+01361+01201100421ADDAA124000191GF105991001001999999001021MD1210081+9999REMSYN070AAXX  13211 54259 42970 50000 10136 20120 40042 52008 80002 333 70001;
0139542590999992000061400004+42090+124940FM-12+023599999V0209999C000019999999N0200001N1+02001+01431100431ADDAA124000191GF107991001001999999001021MD1210021-0101REMSYN076AAXX  14001 54259 32970 70000 10200 20143 40043 52002 80002 333 05102 70001;
0112542590999992000061403004+42090+124940FM-12+023599999V0201101N003019999999N0300001N1+02751+00841100351ADDGF107991001001999999001021MD1710061+9999REMSYN060AAXX  14031 54259 42980 71103 10275 20084 40035 57006 80002;
0165542590999992000061406004+42090+124940FM-12+023599999V0202001N002012200019N0300001N1+02961+00951100221ADDAA199000091GF102991001001999999001021KA1999N+01341MD1710131+9999REMSYN070AAXX  14061 54259 32980 22002 10296 20095 40022 57013 80002 333 20134;EQDQ01  00002PRCP99
0112542590999992000061409004+42090+124940FM-12+023599999V0202501N002019999999N0300001N1+02961+00731100161ADDGF106991001001999999001021MD1710071+9999REMSYN060AAXX  14091 54259 42980 62502 10296 20073 40016 57007 80002;
0142542590999992000061412004+42090+124940FM-12+023599999V0203201N001012200019N0200001N1+02351+01191100291ADDAA199000091GF102991001001999999001021MD1210131+9999REMSYN060AAXX  14121 54259 32970 23201 10235 20119 40029 52013 80002;EQDQ01  00002PRCP99
0165542590999992000061418004+42090+124940FM-12+023599999V0200701N001012200019N0200001N1+01621+01251100291ADDAA199000091GF102991001001999999001021KA1999M+03061MD1710051+9999REMSYN070AAXX  14181 54259 32970 20701 10162 20125 40029 57005 80002 333 10306;EQDQ01  00002PRCP99
0112542590999992000061421004+42090+124940FM-12+023599999V0200901N002010120019N0200001N1+01641+01271100291ADDGF106991061051012501001001MD1410001+9999REMSYN060AAXX  14211 54259 42670 60902 10164 20127 40029 54000 86500;
0152542590999992000061500004+42090+124940FM-12+023599999V0209999C000012200019N0150001N1+02281+01491100361ADDAA199000091GF104991041001999999031001MD1210071+0011REMSYN070AAXX  15001 54259 32965 40000 10228 20149 40036 52007 84030 333 05103;EQDQ01  00002PRCP99
0112542590999992000061503004+42090+124940FM-12+023599999V0202701N003012200019N0300001N1+03101+01121100341ADDGF101991011011008001001011MD1710011+9999REMSYN060AAXX  15031 54259 42580 12703 10310 20112 40034 57001 81101;
0165542590999992000061506004+42090+124940FM-12+023599999V0202501N005012200019N0250001N1+03441+01201100271ADDAA199000091GF102991001001999999001021KA1999N+01571MD1710061+9999REMSYN070AAXX  15061 54259 32975 22505 10344 20120 40027 57006 80002 333 20157;EQDQ01  00002PRCP99
0112542590999992000061509004+42090+124940FM-12+023599999V0202701N005019999999N0220001N1+03181+01221100371ADDGF107991001001999999001021MD1210091+9999REMSYN060AAXX  15091 54259 42972 72705 10318 20122 40037 52009 80002;
0142542590999992000061512004+42090+124940FM-12+023599999V0202501N003012200019N0250001N1+02751+01111100651ADDAA199000091GF104991001001999999001021MD1210281+9999REMSYN060AAXX  15121 54259 32975 42503 10275 20111 40065 52028 80002;EQDQ01  00002PRCP99
0165542590999992000061518004+42090+124940FM-12+023599999V0209999C000019999999N0180001N1+01901+01211101001ADDAA199000091GF107991001001999999001021KA1999M+03471MD1210111+9999REMSYN070AAXX  15181 54259 32968 70000 10190 20121 40100 52011 80002 333 10347;EQDQ01  00002PRCP99
0112542590999992000061521004+42090+124940FM-12+023599999V0209999C000010900019N0150001N1+01731+01231101161ADDGF107991011051012501001021MD1210141+9999REMSYN060AAXX  15211 54259 42665 70000 10173 20123 40116 52014 81502;
0152542590999992000061600004+42090+124940FM-12+023599999V0209999C000019999999N0120001N1+02281+01431101241ADDAA199000091GF107991001001999999001021MD1210081+0091REMSYN070AAXX  16001 54259 32962 70000 10228 20143 40124 52008 80002 333 00900;EQDQ01  00002PRCP99
0112542590999992000061603004+42090+124940FM-12+023599999V0202901N002019999999N0200001N1+02971+01341101251ADDGF107991001001999999001021MD1210021+9999REMSYN060AAXX  16031 54259 42970 72902 10297 20134 40125 52002 80002;
0165542590999992000061606004+42090+124940FM-12+023599999V0202501N003019999999N0200001N1+03321+01511101101ADDAA199000091GF107991001001999999001021KA1999N+01731MD1710151+9999REMSYN070AAXX  16061 54259 32970 72503 10332 20151 40110 57015 80002 333 20173;EQDQ01  00002PRCP99
0112542590999992000061609004+42090+124940FM-12+023599999V0202901N003019999999N0200001N1+03141+01491101131ADDGF105991001001999999001021MD1210021+9999REMSYN060AAXX  16091 54259 42970 52903 10314 20149 40113 52002 80002;
0142542590999992000061612004+42090+124940FM-12+023599999V0209999C000019999999N0150001N1+02691+01481101271ADDAA199000091GF107991001001999999001021MD1210141+9999REMSYN060AAXX  16121 54259 32965 70000 10269 20148 40127 52014 80002;EQDQ01  00002PRCP99
0165542590999992000061618004+42090+124940FM-12+023599999V0209999C000019999999N0120001N1+01981+01691101441ADDAA199000091GF107991001001999999001021KA1999M+03371MD1710011+9999REMSYN070AAXX  16181 54259 32962 70000 10198 20169 40144 57001 80002 333 10337;EQDQ01  00002PRCP99
0112542590999992000061621004+42090+124940FM-12+023599999V0200901N001012200019N0120001N1+01821+01601101491ADDGF102991001001999999001021MD1210031+9999REMSYN060AAXX  16211 54259 42962 20901 10182 20160 40149 52003 80002;
0162542590999992000061700004+42090+124940FM-12+023599999V0201101N001012200019N0120001N1+02441+01741101521ADDAA199000091GA1001+999999999GF100991001001999999001001MD1210041+0031REMSYN064AAXX  17001 54259 32962 01101 10244 20174 40152 52004 333 00302;EQDQ01  00002PRCP99
0112542590999992000061703004+42090+124940FM-12+023599999V0200901N004012200019N0300001N1+03141+01001101361ADDGF101991011011008001001001MD1710151+9999REMSYN060AAXX  17031 54259 42580 10904 10314 20100 40136 57015 81100;
0165542590999992000061706004+42090+124940FM-12+023599999V0201401N002012200019N0300001N1+03321+01011101141ADDAA199000091GF101991011011008001001001KA1999N+01801MD1710211+9999REMSYN070AAXX  17061 54259 32580 11402 10332 20101 40114 57021 81100 333 20180;EQDQ01  00002PRCP99
0112542590999992000061709004+42090+124940FM-12+023599999V0200401N002012200019N0300001N1+03281+01001101031ADDGF101991011011008001001001MD1710121+9999REMSYN060AAXX  17091 54259 42580 10402 10328 20100 40103 57012 81100;
0152542590999992000061712004+42090+124940FM-12+023599999V0200201N001012200019N0220001N1+02621+00891101151ADDAA199000091GA1001+999999999GF100991001001999999001001MD1210121+9999REMSYN054AAXX  17121 54259 32972 00201 10262 20089 40115 52012;EQDQ01  00002PRCP99
0122542590999992000061721004+42090+124940FM-12+023599999V0200901N001012200019N0200001N1+01241+00751101341ADDGA1001+999999999GF100991001001999999001001MD1210021+9999REMSYN054AAXX  17211 54259 42970 00901 10124 20075 40134 52002;
0152542590999992000061800004+42090+124940FM-12+023599999V0209999C000012200019N0300001N1+02131+00891101311ADDAA199000091GF101991001001999999001021MD1710021+0021REMSYN070AAXX  18001 54259 32980 10000 10213 20089 40131 57002 80002 333 05253;EQDQ01  00002PRCP99
0112542590999992000061803004+42090+124940FM-12+023599999V0201601N002012200019N0300001N1+03151+00941101061ADDGF101991001001999999001011MD1710231+9999REMSYN060AAXX  18031 54259 42980 11602 10315 20094 40106 57023 80001;
0137542590999992000061806004+42090+124940FM-12+023599999V0201801N002019999999N0300001N1+03451+99999999999ADDAA199000091GF107991999999999999999999REMSYN069AAXX  18061 54259 32980 71802 10345 0068 40086 57020 80002 333 20114;EQDQ01  00002PRCP99
0112542590999992000061809004+42090+124940FM-12+023599999V0203401N003019999999N0300001N1+03411+00701100751ADDGF107991001001999999001021MD1710121+9999REMSYN060AAXX  18091 54259 42980 73403 10341 20070 40075 57012 80002;
0152542590999992000061812004+42090+124940FM-12+023599999V0203401N001012200019N0220001N1+02531+00901100781ADDAA199000091GA1001+999999999GF100991001001999999001001MD1210031+9999REMSYN054AAXX  18121 54259 32972 03401 10253 20090 40078 52003;EQDQ01  00002PRCP99
0165542590999992000061818004+42090+124940FM-12+023599999V0201401N001010120019N0250001N1+01781+00941100851ADDAA199000091GF106991061051012501001001KA1999M+03481MD1210041+9999REMSYN070AAXX  18181 54259 32675 61401 10178 20094 40085 52004 86500 333 10348;EQDQ01  00002PRCP99
0112542590999992000061821004+42090+124940FM-12+023599999V0200901N001010120019N0250001N1+01781+01001100821ADDGF105991051051012501001001MD1710031+9999REMSYN060AAXX  18211 54259 42675 50901 10178 20100 40082 57003 85500;
0152542590999992000061900004+42090+124940FM-12+023599999V0209999C000010120019N0250001N1+02161+01131100801ADDAA199000091GF105991051051012501001001MD1710041+0051REMSYN070AAXX  19001 54259 32675 50000 10216 20113 40080 57004 85500 333 05500;EQDQ01  00002PRCP99
0112542590999992000061903004+42090+124940FM-12+023599999V0202201N004010120019N0250001N1+03011+01151100711ADDGF107991071051012501999999MD1710081+9999REMSYN060AAXX  19031 54259 42675 72204 10301 20115 40071 57008 875//;
0165542590999992000061906004+42090+124940FM-12+023599999V0202001N002012200019N0250001N1+03421+01191100551ADDAA199000091GF103991031051012501001001KA1999N+01711MD1710141+9999REMSYN070AAXX  19061 54259 32675 32002 10342 20119 40055 57014 83500 333 20171;EQDQ01  00002PRCP99
0112542590999992000061909004+42090+124940FM-12+023599999V0200201N001010120019N0250001N1+03351+01341100501ADDGF107991071051012501999999MD1710051+9999REMSYN060AAXX  19091 54259 42675 70201 10335 20134 40050 57005 875//;
0142542590999992000061912004+42090+124940FM-12+023599999V0200901N001010120019N0200001N1+02801+01631100581ADDAA199000091GF107991071051012501999999MD1210071+9999REMSYN060AAXX  19121 54259 32670 70901 10280 20163 40058 52007 875//;EQDQ01  00002PRCP99
0165542590999992000061918004+42090+124940FM-12+023599999V0200701N001012200019N0150001N1+02161+01571100671ADDAA199000091GF102991021051012501001001KA1999M+03491MD1710051+9999REMSYN070AAXX  19181 54259 32665 20701 10216 20157 40067 57005 82500 333 10349;EQDQ01  00002PRCP99
0112542590999992000061921004+42090+124940FM-12+023599999V0201101N001012200019N0200001N1+01941+01581100661ADDGF101991001001999999001021MD1710021+9999REMSYN060AAXX  19211 54259 42970 11101 10194 20158 40066 57002 80002;
0152542590999992000062000004+42090+124940FM-12+023599999V0200701N001010120019N0150001N1+02321+01641100781ADDAA199000091GF107991071051012501999999MD1210111+0001REMSYN070AAXX  20001 54259 32665 70701 10232 20164 40078 52011 875// 333 00002;EQDQ01  00002PRCP99
0112542590999992000062003004+42090+124940FM-12+023599999V0200701N003012200019N0180001N1+03041+01501100611ADDGF104991041051012501031001MD1710161+9999REMSYN060AAXX  20031 54259 42668 40703 10304 20150 40061 57016 84530;
0165542590999992000062006004+42090+124940FM-12+023599999V0200701N005012200019N0200001N1+02951+01681100481ADDAA199000091GF104991041051012501001001KA1999N+01941MD1710131+9999REMSYN070AAXX  20061 54259 32670 40705 10295 20168 40048 57013 84500 333 20194;EQDQ01  00002PRCP99
0112542590999992000062009004+42090+124940FM-12+023599999V0202701N005010120019N0180001N1+02821+01651100441ADDGF108991081091012501999999MD1710061+9999REMSYN060AAXX  20091 54259 42668 82705 10282 20165 40044 57006 889//;
0162542590999992000062012004+42090+124940FM-12+023599999V0209999C000010120019N0150001N1+02481+01861100581ADDAA199000091AY191061GF108991081051012501999999MD1210141+9999MW1001REMSYN066AAXX  20121 54259 31665 80000 10248 20186 40058 52014 70090 885//;EQDQ01  00002PRCP99
0165542590999992000062018004+42090+124940FM-12+023599999V0201101N001010120019N0150001N1+02141+01891100661ADDAA199000091GF108991081051012501999999KA1999M+03301MD1710031+9999REMSYN070AAXX  20181 54259 32665 81101 10214 20189 40066 57003 885// 333 10330;EQDQ01  00002PRCP99
0124542590999992000062021004+42090+124940FM-12+023599999V0200701N001010120019N0080001N1+02031+01861100711ADDGF108991081051012501999999MD1210041+9999MW1101REMSYN066AAXX  20211 54259 41658 80701 10203 20186 40071 52004 71000 885//;
0164542590999992000062100004+42090+124940FM-12+023599999V0201101N002019999999N0080001N1+02361+01881100851ADDAA199000091GF107991001001999999001021MD1210131+0011MW1101REMSYN076AAXX  21001 54259 31958 71102 10236 20188 40085 52013 71000 80002 333 00100;EQDQ01  00002PRCP99
0112542590999992000062103004+42090+124940FM-12+023599999V0202201N001010900019N0150001N1+02771+01811100651ADDGF107991041051012501001021MD1710181+9999REMSYN060AAXX  21031 54259 42665 72201 10277 20181 40065 57018 84502;
0165542590999992000062106004+42090+124940FM-12+023599999V0201101N001010900019N0200001N1+03171+01411100491ADDAA199000091GF107991021051012501001021KA1999N+02031MD1710151+9999REMSYN070AAXX  21061 54259 32670 71101 10317 20141 40049 57015 82502 333 20203;EQDQ01  00002PRCP99
0112542590999992000062109004+42090+124940FM-12+023599999V0200701N002019999999N0200001N1+02971+01731100451ADDGF107991001001999999001021MD1710051+9999REMSYN060AAXX  21091 54259 42970 70702 10297 20173 40045 57005 80002;
0142542590999992000062112004+42090+124940FM-12+023599999V0203601N001019999999N0200001N1+02601+01811100501ADDAA199000091GF107991001001999999001021MD1210051+9999REMSYN060AAXX  21121 54259 32970 73601 10260 20181 40050 52005 80002;EQDQ01  00002PRCP99
0175542590999992000062118004+42090+124940FM-12+023599999V0200901N001012200019N0150001N1+02061+01791100681ADDAA199000091GA1001+999999999GF100991001001999999001001KA1999M+03281MD1210051+9999REMSYN064AAXX  21181 54259 32965 00901 10206 20179 40068 52005 333 10328;EQDQ01  00002PRCP99
0112542590999992000062121004+42090+124940FM-12+023599999V0200901N001012200019N0120001N1+01881+01681100651ADDGF102991021001999999031001MD1710051+9999REMSYN060AAXX  21211 54259 42962 20901 10188 20168 40065 57005 82030;
0152542590999992000062200004+42090+124940FM-12+023599999V0202201N001012200019N0120001N1+02521+01711100621ADDAA199000091GF101991001001999999001021MD1710021+0021REMSYN070AAXX  22001 54259 32962 12201 10252 20171 40062 57002 80002 333 05202;EQDQ01  00002PRCP99
0122542590999992000062203004+42090+124940FM-12+023599999V0202701N004012200019N0300001N1+03171+01181100491ADDGA1001+999999999GF100991001001999999001001MD1710111+9999REMSYN054AAXX  22031 54259 42980 02704 10317 20118 40049 57011;
0165542590999992000062206004+42090+124940FM-12+023599999V0202001N003012200019N0300001N1+03381+01391100251ADDAA199000091GF102991021011008001001001KA1999N+01881MD1710231+9999REMSYN070AAXX  22061 54259 32580 22003 10338 20139 40025 57023 82100 333 20188;EQDQ01  00002PRCP99
0132542590999992000062209004+42090+124940FM-12+023599999V0203401N003010120019N0250001N1+02391+01711100491ADDAY191031GF108991081091012501999999MD1210181+9999MW1951REMSYN066AAXX  22091 54259 41675 83403 10239 20171 40049 52018 79590 889//;
0157542590999992000062212004+42090+124940FM-12+023599999V0202901N001010120019N0250001N1+02061+01871100591ADDAA106002091AY191061AY281061GF108991081091012501999999MD1210111+9999MW1801REMSYN072AAXX  22121 54259 11675 82901 10206 20187 40059 52011 60021 78098 889//;
0172542590999992000062218004+42090+124940FM-12+023599999V0203401N001010120019N0150001N1+01911+01771100501ADDAA106000191AY181061GF107991071051012501999999KA1999M+03451MD1210041+9999MW1001REMSYN082AAXX  22181 54259 11665 73401 10191 20177 40050 52004 69911 70080 875// 333 10345;
0145542590999992000062221004+42090+124940FM-12+023599999V0209999C000012200019N0080001N1+01851+01701100611ADDAA124002591GF102991021051012501001001MD1210061+9999MW1101REMSYN076AAXX  22211 54259 41658 20000 10185 20170 40061 52006 71000 82500 333 70025;
0149542590999992000062300004+42090+124940FM-12+023599999V0201401N001012200019N0120001N1+02321+01871100601ADDAA124002591GA1001+999999999GF100991001001999999001001MD1410001-0101REMSYN070AAXX  23001 54259 32962 01401 10232 20187 40060 54000 333 05152 70025;
0112542590999992000062303004+42090+124940FM-12+023599999V0202501N003012200019N0300001N1+02931+01601100431ADDGF101991011011008001001001MD1710141+9999REMSYN060AAXX  23031 54259 42580 12503 10293 20160 40043 57014 81100;
0165542590999992000062306004+42090+124940FM-12+023599999V0202201N003012200019N0300001N1+03221+01531100251ADDAA199000091GF103991031021008001001001KA1999N+01851MD1710171+9999REMSYN070AAXX  23061 54259 32580 32203 10322 20153 40025 57017 83200 333 20185;EQDQ01  00002PRCP99
0112542590999992000062309004+42090+124940FM-12+023599999V0202201N002012200019N0300001N1+03141+01641100131ADDGF101991011011008001001001MD1710121+9999REMSYN060AAXX  23091 54259 42580 12202 10314 20164 40013 57012 81100;
0142542590999992000062312004+42090+124940FM-12+023599999V0209999C000012200019N0300001N1+02621+01711100241ADDAA199000091GF101991001001999999001021MD1210101+9999REMSYN060AAXX  23121 54259 32980 10000 10262 20171 40024 52010 80002;EQDQ01  00002PRCP99
0175542590999992000062318004+42090+124940FM-12+023599999V0209999C000012200019N0180001N1+02001+01711100401ADDAA199000091GA1001+999999999GF100991001001999999001001KA1999M+03271MD1210031+9999REMSYN064AAXX  23181 54259 32968 00000 10200 20171 40040 52003 333 10327;EQDQ01  00002PRCP99
0112542590999992000062321004+42090+124940FM-12+023599999V0200701N001012200019N0150001N1+01921+01681100481ADDGF101991011051012501001001MD1210071+9999REMSYN060AAXX  23211 54259 42665 10701 10192 20168 40048 52007 81500;
0152542590999992000062400004+42090+124940FM-12+023599999V0202001N004019999999N0300001N1+02531+01671100471ADDAA199000091GF107991001001999999001021MD1410001+0011REMSYN070AAXX  24001 54259 32980 72004 10253 20167 40047 54000 80002 333 05102;EQDQ01  00002PRCP99
0112542590999992000062403004+42090+124940FM-12+023599999V0202201N005010120019N0300001N1+02861+01591100351ADDGF107991051081008001001021MD1710121+9999REMSYN060AAXX  24031 54259 42580 72205 10286 20159 40035 57012 85802;
0165542590999992000062406004+42090+124940FM-12+023599999V0202701N001010900019N0300001N1+02941+01611100281ADDAA199000091GF107991041051012501001021KA1999N+01871MD1710081+9999REMSYN070AAXX  24061 54259 32680 72701 10294 20161 40028 57008 84502 333 20187;EQDQ01  00002PRCP99
0124542590999992000062409004+42090+124940FM-12+023599999V0203201N001010120019N0300001N1+02501+01971100231ADDGF108991081051012501999999MD1710071+9999MW1211REMSYN066AAXX  24091 54259 41680 83201 10250 20197 40023 57007 72100 885//;
0149542590999992000062412004+42090+124940FM-12+023599999V0202701N003010120019N0120001N1+02121+01871100481ADDAA106002091AY161061GF108991081051012501999999MD1210261+9999MW1601REMSYN072AAXX  24121 54259 11662 82703 10212 20187 40048 52026 60021 76060 885//;
0172542590999992000062418004+42090+124940FM-12+023599999V0202501N002010120019N0080001N1+01931+01821100551ADDAA106014091AY161061GF108991081051012501999999KA1999M+03031MD1210011+9999MW1211REMSYN082AAXX  24181 54259 11658 82502 10193 20182 40055 52001 60141 72160 885// 333 10303;
0145542590999992000062421004+42090+124940FM-12+023599999V0202501N002010120019N0070001N1+01871+01741100661ADDAA124015291GF108991081051012501999999MD1210091+9999MW1101REMSYN076AAXX  24211 54259 41657 82502 10187 20174 40066 52009 71000 885// 333 70153;
0139542590999992000062500004+42090+124940FM-12+023599999V0202001N002010120019N0120001N1+02021+01651100811ADDAA124015291GF107991061051012501001021MD1210131+0301REMSYN076AAXX  25001 54259 32662 72002 10202 20165 40081 52013 86502 333 00355 70153;
0112542590999992000062503004+42090+124940FM-12+023599999V0202201N003019999999N0150001N1+02461+01431100791ADDGF107991001001999999001021MD1410001+9999REMSYN060AAXX  25031 54259 42965 72203 10246 20143 40079 54000 80002;
0146542590999992000062506004+42090+124940FM-12+023599999V0202001N004010900019N0300001N1+02761+00981100601ADDAA199000021GF106991011011008001001021KA1999N+01871MD1710181+9999REMSYN070AAXX  25061 54259 32580 62004 10276 20098 40060 57018 81102 333 20187;
0112542590999992000062509004+42090+124940FM-12+023599999V0202201N004012200019N0300001N1+02701+00911100561ADDGF101991011011008001001021MD1710041+9999REMSYN060AAXX  25091 54259 42580 12204 10270 20091 40056 57004 81102;
0142542590999992000062512004+42090+124940FM-12+023599999V0209999C000012200019N0200001N1+02161+01071100661ADDAA199000091GF101991001001999999001021MD1210081+9999REMSYN060AAXX  25121 54259 32970 10000 10216 20107 40066 52008 80002;EQDQ01  00002PRCP99
0165542590999992000062518004+42090+124940FM-12+023599999V0201101N001012200019N0200001N1+01381+01121100661ADDAA199000091GF102991001001999999001021KA1999M+02791MD1710031+9999REMSYN070AAXX  25181 54259 32970 21101 10138 20112 40066 57003 80002 333 10279;EQDQ01  00002PRCP99
0112542590999992000062521004+42090+124940FM-12+023599999V0201101N001019999999N0200001N1+01301+01051100721ADDGF106991001001999999001021MD1210051+9999REMSYN060AAXX  25211 54259 42970 61101 10130 20105 40072 52005 80002;
0152542590999992000062600004+42090+124940FM-12+023599999V0209999C000012200019N0250001N1+02201+01331100701ADDAA199000091GF101991001001999999001021MD1410001+0011REMSYN070AAXX  26001 54259 32975 10000 10220 20133 40070 54000 80002 333 05102;EQDQ01  00002PRCP99
0112542590999992000062603004+42090+124940FM-12+023599999V0202501N004012200019N0300001N1+02901+01201100541ADDGF102991001001999999001021MD1710151+9999REMSYN060AAXX  26031 54259 42980 22504 10290 20120 40054 57015 80002;
0165542590999992000062606004+42090+124940FM-12+023599999V0202701N002012200019N0300001N1+03071+01101100351ADDAA199000091GF102991001001999999001021KA1999N+01231MD1710191+9999REMSYN070AAXX  26061 54259 32980 22702 10307 20110 40035 57019 80002 333 20123;EQDQ01  00002PRCP99
0112542590999992000062609004+42090+124940FM-12+023599999V0202701N001012200019N0300001N1+03161+01311100281ADDGF102991001001999999001021MD1710071+9999REMSYN060AAXX  26091 54259 42980 22701 10316 20131 40028 57007 80002;
0142542590999992000062612004+42090+124940FM-12+023599999V0203401N001012200019N0220001N1+02521+01491100361ADDAA199000091GF101991001001999999001021MD1210091+9999REMSYN060AAXX  26121 54259 32972 13401 10252 20149 40036 52009 80002;EQDQ01  00002PRCP99
0175542590999992000062618004+42090+124940FM-12+023599999V0209999C000012200019N0200001N1+01801+01551100471ADDAA199000091GA1001+999999999GF100991001001999999001001KA1999M+03241MD1210011+9999REMSYN064AAXX  26181 54259 32970 00000 10180 20155 40047 52001 333 10324;EQDQ01  00002PRCP99
0122542590999992000062621004+42090+124940FM-12+023599999V0209999C000012200019N0200001N1+01691+01471100521ADDGA1001+999999999GF100991001001999999001001MD1210041+9999REMSYN054AAXX  26211 54259 42970 00000 10169 20147 40052 52004;
0162542590999992000062700004+42090+124940FM-12+023599999V0209999C000012200019N0200001N1+02321+01641100521ADDAA199000091GA1001+999999999GF100991001001999999001001MD1410001+0021REMSYN064AAXX  27001 54259 32970 00000 10232 20164 40052 54000 333 05201;EQDQ01  00002PRCP99
0112542590999992000062703004+42090+124940FM-12+023599999V0201101N003012200019N0300001N1+03061+01451100401ADDGF102991021011008001001011MD1710101+9999REMSYN060AAXX  27031 54259 42580 21103 10306 20145 40040 57010 82101;
0165542590999992000062706004+42090+124940FM-12+023599999V0200901N003012200019N0300001N1+03331+01091100221ADDAA199000091GF104991021011008001001021KA1999N+01671MD1710181+9999REMSYN070AAXX  27061 54259 32580 40903 10333 20109 40022 57018 82102 333 20167;EQDQ01  00002PRCP99
0112542590999992000062709004+42090+124940FM-12+023599999V0200401N002012200019N0300001N1+03261+01341100191ADDGF102991011011008001001021MD1710031+9999REMSYN060AAXX  27091 54259 42580 20402 10326 20134 40019 57003 81102;
0152542590999992000062712004+42090+124940FM-12+023599999V0209999C000012200019N0200001N1+02741+01631100361ADDAA199000091GA1001+999999999GF100991001001999999001001MD1210171+9999REMSYN054AAXX  27121 54259 32970 00000 10274 20163 40036 52017;EQDQ01  00002PRCP99
0175542590999992000062718004+42090+124940FM-12+023599999V0200901N002012200019N0150001N1+01961+01601100471ADDAA199000091GA1001+999999999GF100991001001999999001001KA1999M+03401MD1710031+9999REMSYN064AAXX  27181 54259 32965 00902 10196 20160 40047 57003 333 10340;EQDQ01  00002PRCP99
0122542590999992000062721004+42090+124940FM-12+023599999V0209999C000012200019N0200001N1+01751+01581100591ADDGA1001+999999999GF100991001001999999001001MD1210111+9999REMSYN054AAXX  27211 54259 42970 00000 10175 20158 40059 52011;
0162542590999992000062800004+42090+124940FM-12+023599999V0202201N001012200019N0220001N1+02351+01731100581ADDAA199000091GA1001+999999999GF100991001001999999001001MD1710011+0011REMSYN064AAXX  28001 54259 32972 02201 10235 20173 40058 57001 333 00100;EQDQ01  00002PRCP99
0112542590999992000062803004+42090+124940FM-12+023599999V0202701N001019999999N0300001N1+03231+01521100441ADDGF107991001001999999001021MD1710121+9999REMSYN060AAXX  28031 54259 42980 72701 10323 20152 40044 57012 80002;
0165542590999992000062806004+42090+124940FM-12+023599999V0202201N003010900019N0300001N1+03491+01281100291ADDAA199000091GF106991011011008001001021KA1999N+01731MD1710141+9999REMSYN070AAXX  28061 54259 32580 62203 10349 20128 40029 57014 81102 333 20173;EQDQ01  00002PRCP99
0112542590999992000062809004+42090+124940FM-12+023599999V0202201N002019999999N0300001N1+03351+01271100181ADDGF107991001001999999001021MD1710131+9999REMSYN060AAXX  28091 54259 42980 72202 10335 20127 40018 57013 80002;
0142542590999992000062812004+42090+124940FM-12+023599999V0209999C000010120019N0200001N1+02761+01931100291ADDAA199000091GF107991071051012501999999MD1210111+9999REMSYN060AAXX  28121 54259 32670 70000 10276 20193 40029 52011 875//;EQDQ01  00002PRCP99
0165542590999992000062818004+42090+124940FM-12+023599999V0209999C000010120019N0200001N1+02251+01741100191ADDAA199000091GF108991081051012501999999KA1999M+03581MD1710081+9999REMSYN070AAXX  28181 54259 32670 80000 10225 20174 40019 57008 885// 333 10358;EQDQ01  00002PRCP99
0112542590999992000062821004+42090+124940FM-12+023599999V0201401N001010120019N0180001N1+02151+01721100211ADDGF107991071051012501999999MD1210011+9999REMSYN060AAXX  28211 54259 42668 71401 10215 20172 40021 52001 875//;
0173542590999992000062900004+42090+124940FM-12+023599999V0200901N002010120019N0080001N1+02041+01881100361ADDAA106003091AY191061AY281061GF108991081091012501999999MD1210121-0201MW1911REMSYN088AAXX  29001 54259 11658 80902 10204 20188 40036 52012 60031 79198 889// 333 05253 70026;
0140542590999992000062903004+42090+124940FM-12+023599999V0200701N001010120019N0150001N1+02141+01891100351ADDAY181031AY261031GF108991081051012501999999MD1710021+9999MW1601REMSYN066AAXX  29031 54259 41665 80701 10214 20189 40035 57002 76086 885//;
0180542590999992000062906004+42090+124940FM-12+023599999V0200401N003010120019N0250001N1+02291+01991100141ADDAA106001091AY181061AY261061GF107991071051012501999999KA1999N+02031MD1710211+9999MW1211REMSYN082AAXX  29061 54259 11675 70403 10229 20199 40014 57021 60011 72186 875// 333 20203;
0132542590999992000062909004+42090+124940FM-12+023599999V0200701N003010120019N0200001N1+02301+01951100011ADDAY161031GF108991081051012501999999MD1710131+9999MW1211REMSYN066AAXX  29091 54259 41670 80703 10230 20195 40001 57013 72160 885//;
0149542590999992000062912004+42090+124940FM-12+023599999V0200701N002010120019N0150001N1+02221+01941100011ADDAA106000791AY161061GF108991081051012501999999MD1710011+9999MW1601REMSYN072AAXX  29121 54259 11665 80702 10222 20194 40001 57001 69901 76060 885//;
0172542590999992000062918004+42090+124940FM-12+023599999V0209999C000010120019N0150001N1+01971+01881100031ADDAA106002091AY161061GF108991081051012501999999KA1999M+02401MD1710031+9999MW1001REMSYN082AAXX  29181 54259 11665 80000 10197 20188 40003 57003 60021 70060 885// 333 10240;
0145542590999992000062921004+42090+124940FM-12+023599999V0203201N001012200019N0080001N1+01881+01781100041ADDAA124005691GF102991021051012501001001MD1210011+9999MW1101REMSYN076AAXX  29211 54259 41658 23201 10188 20178 40004 52001 71000 82500 333 70055;
0139542590999992000063000004+42090+124940FM-12+023599999V0202001N002010120019N0100001N1+02041+01841100161ADDAA124002891GF108991081051012501999999MD1210121-0201REMSYN076AAXX  30001 54259 32660 82002 10204 20184 40016 52012 885// 333 05200 70029;
0112542590999992000063003004+42090+124940FM-12+023599999V0202201N003010120019N0250001N1+02301+01851100201ADDGF107991071051012501999999MD1210041+9999REMSYN060AAXX  30031 54259 42675 72203 10230 20185 40020 52004 875//;
0165542590999992000063006004+42090+124940FM-12+023599999V0202201N002012200019N0300001N1+02591+01891100101ADDAA199000091GF102991021011008001001001KA1999N+01881MD1710091+9999REMSYN070AAXX  30061 54259 32580 22202 10259 20189 40010 57009 82100 333 20188;EQDQ01  00002PRCP99
0112542590999992000063009004+42090+124940FM-12+023599999V0202201N001012200019N0300001N1+02781+01771100051ADDGF103991031081008001001001MD1710041+9999REMSYN060AAXX  30091 54259 42580 32201 10278 20177 40005 57004 83800;
0157542590999992000063012004+42090+124940FM-12+023599999V0202901N001010120019N0200001N1+01751+01531100401ADDAA106008991AY191061AY281061GF106991061051012501001001MD1210301+9999MW1001REMSYN072AAXX  30121 54259 11670 62901 10175 20153 40040 52030 60091 70098 86500;
0175542590999992000063018004+42090+124940FM-12+023599999V0209999C000012200019N0120001N1+01621+01551100491ADDAA199000091GA1001+999999999GF100991001001999999001001KA1999M+02821MD1210021+9999REMSYN064AAXX  30181 54259 32962 00000 10162 20155 40049 52002 333 10282;EQDQ01  00002PRCP99
0133542590999992000063021004+42090+124940FM-12+023599999V0209999C000012200019N0110001N1+01621+01521100531ADDAA124008991GF102991021051012501001001MD1210041+9999REMSYN070AAXX  30211 54259 42661 20000 10162 20152 40053 52004 82500 333 70088;
0165542590999992000070100004+42090+124940FM-12+023599999V0202701N002010120019N0080001N1+01921+01841100671ADDAA106000591AY161061GF108991081051012501999999MD1210111+0501MW1601REMSYN088AAXX  01001 54259 11658 82702 10192 20184 40067 52011 69961 76060 885// 333 00551 70094;
0132542590999992000070103004+42090+124940FM-12+023599999V0209999C000010120019N0200001N1+02551+01921100681ADDAY161031GF107991071051012501999999MD1210031+9999MW1001REMSYN066AAXX  01031 54259 41670 70000 10255 20192 40068 52003 70060 875//;
0172542590999992000070106004+42090+124940FM-12+023599999V0202201N003010120019N0250001N1+02711+01881100601ADDAA106000191AY161061GF106991061051012501001001KA1999N+01581MD1710071+9999MW1001REMSYN082AAXX  01061 54259 11675 62203 10271 20188 40060 57007 69911 70060 86500 333 20158;
0112542590999992000070109004+42090+124940FM-12+023599999V0201801N003012200019N0250001N1+02871+01921100541ADDGF102991021051012501001001MD1710051+9999REMSYN060AAXX  01091 54259 42675 21803 10287 20192 40054 57005 82500;
0157542590999992000070112004+42090+124940FM-12+023599999V0202901N001010120019N0150001N1+02121+01921100811ADDAA106001091AY191061AY281061GF107991071091012501999999MD1210241+9999MW1171REMSYN072AAXX  01121 54259 11665 72901 10212 20192 40081 52024 60011 71798 879//;
0185542590999992000070118004+42090+124940FM-12+023599999V0200901N001010120019N0120001N1+01811+01761100931ADDAA199000091AY191061GF107991071051012501999999KA1999M+02921MD1210061+9999MW1001REMSYN076AAXX  01181 54259 31662 70901 10181 20176 40093 52006 70090 875// 333 10292;EQDQ01  00002PRCP99
0163542590999992000070121004+42090+124940FM-12+023599999V0209999C000010006019N0006001N1+01761+01741101041ADDAA124002091AY141031GA1091+999999999GF109991091999999999999999MD1210111+9999MW1471REMSYN070AAXX  01211 54259 41/06 90000 10176 20174 40104 52011 74740 333 70021;
0159542590999992000070200004+42090+124940FM-12+023599999V0209999C000010120019N0050001N1+02141+01911101091ADDAA124001591AY141061GF107991071051012501999999MD1210031+0401MW1101REMSYN082AAXX  02001 54259 31650 70000 10214 20191 40109 52003 71040 875// 333 00402 70015;
0112542590999992000070203004+42090+124940FM-12+023599999V0202201N004010120019N0120001N1+02761+02081101071ADDGF107991071051012501999999MD1410001+9999REMSYN060AAXX  02031 54259 42662 72204 10276 20208 40107 54000 875//;
0165542590999992000070206004+42090+124940FM-12+023599999V0202501N002012200019N0150001N1+03061+02201100921ADDAA199000091GF102991021051012501001001KA1999N+01731MD1710141+9999REMSYN070AAXX  02061 54259 32665 22502 10306 20220 40092 57014 82500 333 20173;EQDQ01  00002PRCP99
0112542590999992000070209004+42090+124940FM-12+023599999V0202201N002012200019N0300001N1+03121+02091100841ADDGF101991001001999999001021MD1710071+9999REMSYN060AAXX  02091 54259 42980 12202 10312 20209 40084 57007 80002;
0142542590999992000070212004+42090+124940FM-12+023599999V0202201N003012200019N0250001N1+02651+02001101031ADDAA199000091GF101991001001999999001011MD1210181+9999REMSYN060AAXX  02121 54259 32975 12203 10265 20200 40103 52018 80001;EQDQ01  00002PRCP99
0175542590999992000070218004+42090+124940FM-12+023599999V0202201N001012200019N0180001N1+02071+01961101111ADDAA199000091GA1001+999999999GF100991001001999999001001KA1999M+03151MD1710051+9999REMSYN064AAXX  02181 54259 32968 02201 10207 20196 40111 57005 333 10315;EQDQ01  00002PRCP99
0134542590999992000070221004+42090+124940FM-12+023599999V0209999C000012200019N0060001N1+01981+01841101181ADDGA1001+999999999GF100991001001999999001001MD1210071+9999MW1101REMSYN060AAXX  02211 54259 41956 00000 10198 20184 40118 52007 71000;
0162542590999992000070300004+42090+124940FM-12+023599999V0209999C000012200019N0250001N1+02481+01891101191ADDAA199000091GA1001+999999999GF100991001001999999001001MD1210011+0011REMSYN064AAXX  03001 54259 32975 00000 10248 20189 40119 52001 333 00103;EQDQ01  00002PRCP99
0112542590999992000070303004+42090+124940FM-12+023599999V0202201N003012200019N0300001N1+02991+01831101151ADDGF101991001001999999001021MD1710031+9999REMSYN060AAXX  03031 54259 42980 12203 10299 20183 40115 57003 80002;
0165542590999992000070306004+42090+124940FM-12+023599999V0202701N004019999999N0300001N1+03261+01761101021ADDAA199000091GF105991001001999999001021KA1999N+01981MD1710131+9999REMSYN070AAXX  03061 54259 32980 52704 10326 20176 40102 57013 80002 333 20198;EQDQ01  00002PRCP99
0112542590999992000070309004+42090+124940FM-12+023599999V0202501N004012200019N0300001N1+03341+01711100901ADDGF102991001001999999001021MD1710121+9999REMSYN060AAXX  03091 54259 42980 22504 10334 20171 40090 57012 80002;
0142542590999992000070312004+42090+124940FM-12+023599999V0209999C000012200019N0250001N1+02711+01931101091ADDAA199000091GF101991001001999999001021MD1210181+9999REMSYN060AAXX  03121 54259 32975 10000 10271 20193 40109 52018 80002;EQDQ01  00002PRCP99
0175542590999992000070318004+42090+124940FM-12+023599999V0209999C000012200019N0150001N1+02101+01911101231ADDAA199000091GA1001+999999999GF100991001001999999001001KA1999M+03411MD1210061+9999REMSYN064AAXX  03181 54259 32965 00000 10210 20191 40123 52006 333 10341;EQDQ01  00002PRCP99
0112542590999992000070321004+42090+124940FM-12+023599999V0209999C000019999999N0150001N1+02021+01861101291ADDGF105991001001999999001021MD1210061+9999REMSYN060AAXX  03211 54259 42965 50000 10202 20186 40129 52006 80002;
0152542590999992000070400004+42090+124940FM-12+023599999V0209999C000012200019N0220001N1+02561+01981101321ADDAA199000091GF102991001001999999001021MD1210021+0011REMSYN070AAXX  04001 54259 32972 20000 10256 20198 40132 52002 80002 333 00101;EQDQ01  00002PRCP99
0112542590999992000070403004+42090+124940FM-12+023599999V0202001N003012200019N0300001N1+03061+02091101291ADDGF102991021011008001001001MD1710021+9999REMSYN060AAXX  04031 54259 42580 22003 10306 20209 40129 57002 82100;
0165542590999992000070406004+42090+124940FM-12+023599999V0202501N002010900019N0300001N1+03281+01921101201ADDAA199000091GF106991011011008001001021KA1999N+02001MD1710091+9999REMSYN070AAXX  04061 54259 32580 62502 10328 20192 40120 57009 81102 333 20200;EQDQ01  00002PRCP99
0112542590999992000070409004+42090+124940FM-12+023599999V0202501N003012200019N0300001N1+03371+01861101071ADDGF102991001001999999001021MD1710131+9999REMSYN060AAXX  04091 54259 42980 22503 10337 20186 40107 57013 80002;
0142542590999992000070412004+42090+124940FM-12+023599999V0202201N002012200019N0200001N1+02801+02221101281ADDAA199000091GF101991011051012501001021MD1210211+9999REMSYN060AAXX  04121 54259 32670 12202 10280 20222 40128 52021 81502;EQDQ01  00002PRCP99
0175542590999992000070418004+42090+124940FM-12+023599999V0209999C000012200019N0150001N1+02341+02151101411ADDAA199000091GA1001+999999999GF100991001001999999001001KA1999M+03421MD1210041+9999REMSYN064AAXX  04181 54259 32965 00000 10234 20215 40141 52004 333 10342;EQDQ01  00002PRCP99
0152542590999992000070500004+42090+124940FM-12+023599999V0201801N002012200019N0300001N1+02701+02231101441ADDAA199000091GF102991001001999999001021MD1410001+0011REMSYN070AAXX  05001 54259 32980 21802 10270 20223 40144 54000 80002 333 00101;EQDQ01  00002PRCP99
0112542590999992000070503004+42090+124940FM-12+023599999V0202501N003010900019N0300001N1+03201+02101101341ADDGF107991011011008001001021MD1710091+9999REMSYN060AAXX  05031 54259 42580 72503 10320 20210 40134 57009 81102;
0165542590999992000070506004+42090+124940FM-12+023599999V0202201N004012200019N0300001N1+03431+01981101141ADDAA199000091GF104991021011008001001021KA1999N+02271MD1710191+9999REMSYN070AAXX  05061 54259 32580 42204 10343 20198 40114 57019 82102 333 20227;EQDQ01  00002PRCP99
0112542590999992000070509004+42090+124940FM-12+023599999V0202501N004010075019N0300001N1+03381+01921101011ADDGF105991051011008001001001MD1710131+9999REMSYN060AAXX  05091 54259 42580 52504 10338 20192 40101 57013 85100;
0142542590999992000070512004+42090+124940FM-12+023599999V0202501N001019999999N0200001N1+02781+02231101111ADDAA199000091GF107991001001999999001021MD1210091+9999REMSYN060AAXX  05121 54259 32970 72501 10278 20223 40111 52009 80002;EQDQ01  00002PRCP99
0175542590999992000070518004+42090+124940FM-12+023599999V0209999C000012200019N0150001N1+02251+02071101141ADDAA199000091GA1001+999999999GF100991001001999999001001KA1999M+03461MD1210041+9999REMSYN064AAXX  05181 54259 32965 00000 10225 20207 40114 52004 333 10346;EQDQ01  00002PRCP99
0112542590999992000070521004+42090+124940FM-12+023599999V0209999C000019999999N0120001N1+02151+02001101191ADDGF107991071001999999031999MD1210051+9999REMSYN060AAXX  05211 54259 42962 70000 10215 20200 40119 52005 8703/;
0152542590999992000070600004+42090+124940FM-12+023599999V0202201N003012200019N0180001N1+02581+02171101141ADDAA199000091GF102991011001999999031021MD1710061+0031REMSYN070AAXX  06001 54259 32968 22203 10258 20217 40114 57006 81032 333 05351;EQDQ01  00002PRCP99
0112542590999992000070603004+42090+124940FM-12+023599999V0200901N002012200019N0300001N1+03041+01851100961ADDGF102991021051012501001001MD1710171+9999REMSYN060AAXX  06031 54259 42680 20902 10304 20185 40096 57017 82500;
0165542590999992000070606004+42090+124940FM-12+023599999V0200401N003012200019N0300001N1+03441+01061100771ADDAA199000091GF101991011011008001001021KA1999N+02141MD1710181+9999REMSYN070AAXX  06061 54259 32580 10403 10344 20106 40077 57018 81102 333 20214;EQDQ01  00002PRCP99
0112542590999992000070609004+42090+124940FM-12+023599999V0200701N004012200019N0300001N1+03361+01111100661ADDGF101991001001999999001021MD1710111+9999REMSYN060AAXX  06091 54259 42980 10704 10336 20111 40066 57011 80002;
0152542590999992000070612004+42090+124940FM-12+023599999V0200401N001012200019N0300001N1+02841+01521100751ADDAA199000091GA1001+999999999GF100991001001999999001001MD1210081+9999REMSYN054AAXX  06121 54259 32980 00401 10284 20152 40075 52008;EQDQ01  00002PRCP99
0175542590999992000070618004+42090+124940FM-12+023599999V0200901N001012200019N0150001N1+01911+01601100831ADDAA199000091GA1001+999999999GF100991001001999999001001KA1999M+03551MD1210021+9999REMSYN064AAXX  06181 54259 32965 00901 10191 20160 40083 52002 333 10355;EQDQ01  00002PRCP99
0122542590999992000070621004+42090+124940FM-12+023599999V0201101N002012200019N0250001N1+01721+01521100881ADDGA1001+999999999GF100991001001999999001001MD1210031+9999REMSYN054AAXX  06211 54259 42975 01102 10172 20152 40088 52003;
0152542590999992000070700004+42090+124940FM-12+023599999V0200401N003012200019N0300001N1+02601+01701100831ADDAA199000091GF101991001001999999001021MD1710031+0031REMSYN070AAXX  07001 54259 32980 10403 10260 20170 40083 57003 80002 333 05300;EQDQ01  00002PRCP99
0112542590999992000070703004+42090+124940FM-12+023599999V0200701N005012200019N0300001N1+03151+01631100711ADDGF101991011011008001001021MD1710121+9999REMSYN060AAXX  07031 54259 42580 10705 10315 20163 40071 57012 81102;
0165542590999992000070706004+42090+124940FM-12+023599999V0200901N004012200019N0300001N1+03361+01531100511ADDAA199000091GF101991011011999999001021KA1999N+01711MD1710201+9999REMSYN070AAXX  07061 54259 32980 10904 10336 20153 40051 57020 81102 333 20171;EQDQ01  00002PRCP99
0112542590999992000070709004+42090+124940FM-12+023599999V0200701N003012200019N0300001N1+03321+01301100381ADDGF101991001001999999001021MD1710131+9999REMSYN060AAXX  07091 54259 42980 10703 10332 20130 40038 57013 80002;
0142542590999992000070712004+42090+124940FM-12+023599999V0201101N002012200019N0250001N1+02871+01661100431ADDAA199000091GF101991001001999999001021MD1210061+9999REMSYN060AAXX  07121 54259 32975 11102 10287 20166 40043 52006 80002;EQDQ01  00002PRCP99
0175542590999992000070718004+42090+124940FM-12+023599999V0201101N001012200019N0180001N1+01961+01681100561ADDAA199000091GA1001+999999999GF100991001001999999001001KA1999M+03431MD1210041+9999REMSYN064AAXX  07181 54259 32968 01101 10196 20168 40056 52004 333 10343;EQDQ01  00002PRCP99
0112542590999992000070721004+42090+124940FM-12+023599999V0200901N001012200019N0220001N1+01831+01621100611ADDGF101991001001999999001021MD1210041+9999REMSYN060AAXX  07211 54259 42972 10901 10183 20162 40061 52004 80002;
0152542590999992000070800004+42090+124940FM-12+023599999V0202001N001012200019N0250001N1+02521+01821100691ADDAA199000091GF101991001001999999001011MD1410001+0021REMSYN070AAXX  08001 54259 32975 12001 10252 20182 40069 54000 80001 333 05251;EQDQ01  00002PRCP99
0112542590999992000070803004+42090+124940FM-12+023599999V0200701N003012200019N0300001N1+03371+01391100431ADDGF101991011011008001001001MD1710151+9999REMSYN060AAXX  08031 54259 42580 10703 10337 20139 40043 57015 81100;
0165542590999992000070806004+42090+124940FM-12+023599999V0200901N002012200019N0300001N1+03491+01591100281ADDAA199000091GF101991011011008001001001KA1999N+01821MD1710151+9999REMSYN070AAXX  08061 54259 32580 10902 10349 20159 40028 57015 81100 333 20182;EQDQ01  00002PRCP99
0122542590999992000070809004+42090+124940FM-12+023599999V0200401N002012200019N0300001N1+03501+01521100181ADDGA1001+999999999GF100991001001999999001001MD1710111+9999REMSYN054AAXX  08091 54259 42980 00402 10350 20152 40018 57011;
0142542590999992000070812004+42090+124940FM-12+023599999V0209999C000012200019N0300001N1+02991+01681100301ADDAA199000091GF101991001001999999001011MD1210131+9999REMSYN060AAXX  08121 54259 32980 10000 10299 20168 40030 52013 80001;EQDQ01  00002PRCP99
0175542590999992000070818004+42090+124940FM-12+023599999V0202701N001012200019N0150001N1+02191+01781100571ADDAA199000091GA1001+999999999GF100991001001999999001001KA1999M+03611MD1210111+9999REMSYN064AAXX  08181 54259 32965 02701 10219 20178 40057 52011 333 10361;EQDQ01  00002PRCP99
0112542590999992000070821004+42090+124940FM-12+023599999V0201401N001012200019N0200001N1+02071+01771100701ADDGF102991021051012501001001MD1210121+9999REMSYN060AAXX  08211 54259 42670 21401 10207 20177 40070 52012 82500;
0162542590999992000070900004+42090+124940FM-12+023599999V0201601N001012200019N0200001N1+02701+01961100751ADDAA199000091GA1001+999999999GF100991001001999999001001MD1210051+0021REMSYN064AAXX  09001 54259 32970 01601 10270 20196 40075 52005 333 00202;EQDQ01  00002PRCP99
0112542590999992000070903004+42090+124940FM-12+023599999V0202201N004012200019N0300001N1+03421+01781100641ADDGF101991011011008001001001MD1710101+9999REMSYN060AAXX  09031 54259 42580 12204 10342 20178 40064 57010 81100;
0165542590999992000070906004+42090+124940FM-12+023599999V0202201N002012200019N0300001N1+03581+01801100511ADDAA199000091GF101991011011008001001001KA1999N+02061MD1710131+9999REMSYN070AAXX  09061 54259 32580 12202 10358 20180 40051 57013 81100 333 20206;EQDQ01  00002PRCP99
0112542590999992000070909004+42090+124940FM-12+023599999V0202501N004012200019N0300001N1+03581+01841100491ADDGF101991011011008001001001MD1710021+9999REMSYN060AAXX  09091 54259 42580 12504 10358 20184 40049 57002 81100;
0142542590999992000070912004+42090+124940FM-12+023599999V0202701N003012200019N0200001N1+03071+02001100731ADDAA199000091GF101991001001999999001021MD1210241+9999REMSYN060AAXX  09121 54259 32970 12703 10307 20200 40073 52024 80002;EQDQ01  00002PRCP99
0175542590999992000070918004+42090+124940FM-12+023599999V0209999C000012200019N0200001N1+02331+02011100971ADDAA199000091GA1001+999999999GF100991001001999999001001KA1999M+03721MD1210061+9999REMSYN064AAXX  09181 54259 32970 00000 10233 20201 40097 52006 333 10372;EQDQ01  00002PRCP99
0122542590999992000070921004+42090+124940FM-12+023599999V0209999C000012200019N0300001N1+02101+01911101121ADDGA1001+999999999GF100991001001999999001001MD1210131+9999REMSYN054AAXX  09211 54259 42980 00000 10210 20191 40112 52013;
0162542590999992000071000004+42090+124940FM-12+023599999V0202501N001012200019N0300001N1+02741+01811101111ADDAA199000091GA1001+999999999GF100991001001999999001001MD1410001+0041REMSYN064AAXX  10001 54259 32980 02501 10274 20181 40111 54000 333 00400;EQDQ01  00002PRCP99
0112542590999992000071003004+42090+124940FM-12+023599999V0202501N003012200019N0300001N1+03311+01791100981ADDGF102991001001999999001021MD1710121+9999REMSYN060AAXX  10031 54259 42980 22503 10331 20179 40098 57012 80002;
0165542590999992000071006004+42090+124940FM-12+023599999V0202501N004012200019N0300001N1+03591+01951100671ADDAA199000091GF102991011011008001001021KA1999N+02101MD1710301+9999REMSYN070AAXX  10061 54259 32580 22504 10359 20195 40067 57030 81102 333 20210;EQDQ01  00002PRCP99
0112542590999992000071009004+42090+124940FM-12+023599999V0202201N003010900019N0300001N1+03501+02071100621ADDGF107991011011008001001021MD1710071+9999REMSYN060AAXX  10091 54259 42580 72203 10350 20207 40062 57007 81102;
0142542590999992000071012004+42090+124940FM-12+023599999V0202701N001010900019N0200001N1+03001+01951100671ADDAA199000091GF107991041051012501001021MD1210061+9999REMSYN060AAXX  10121 54259 32670 72701 10300 20195 40067 52006 84502;EQDQ01  00002PRCP99
0165542590999992000071018004+42090+124940FM-12+023599999V0209999C000010120019N0150001N1+02401+01871100591ADDAA199000091GF108991081051012501999999KA1999M+03721MD1710131+9999REMSYN070AAXX  10181 54259 32665 80000 10240 20187 40059 57013 885// 333 10372;EQDQ01  00002PRCP99
0112542590999992000071021004+42090+124940FM-12+023599999V0209999C000010120019N0200001N1+02241+01871100491ADDGF108991081051012501999999MD1710111+9999REMSYN060AAXX  10211 54259 42670 80000 10224 20187 40049 57011 885//;
0152542590999992000071100004+42090+124940FM-12+023599999V0209999C000010120019N0200001N1+02381+01921100321ADDAA199000091GF108991081051012501999999MD1710181+0081REMSYN070AAXX  11001 54259 32670 80000 10238 20192 40032 57018 885// 333 05854;EQDQ01  00002PRCP99
0132542590999992000071103004+42090+124940FM-12+023599999V0203601N002010120019N0150001N1+02501+02081100211ADDAY161031GF108991081051012501999999MD1710121+9999MW1601REMSYN066AAXX  11031 54259 41665 83602 10250 20208 40021 57012 76060 885//;
0172542590999992000071106004+42090+124940FM-12+023599999V0200401N003010120019N0120001N1+02221+02071099961ADDAA106006191AY161061GF108991081001012501021999KA1999N+02221MD1710261+9999MW1611REMSYN082AAXX  11061 54259 11662 80403 10222 20207 49996 57026 60061 76160 8802/ 333 20222;
0140542590999992000071109004+42090+124940FM-12+023599999V0200701N004010120019N0070001N1+01971+01831099911ADDAY161031AY261031GF108991081001012501021999MD1710071+9999MW1611REMSYN066AAXX  11091 54259 41657 80704 10197 20183 49991 57007 76166 8802/;
0157542590999992000071112004+42090+124940FM-12+023599999V0200401N003010120019N0050001N1+02011+01841099871ADDAA106033091AY161061AY261061GF108991081001012501021999MD1710031+9999MW1611REMSYN072AAXX  11121 54259 11650 80403 10201 20184 49987 57003 60331 76166 8802/;
0172542590999992000071118004+42090+124940FM-12+023599999V0203201N003010120019N0070001N1+02021+01781099961ADDAA106017091AY161061GF108991081051012501999999KA1999M+02681MD1210101+9999MW1101REMSYN082AAXX  11181 54259 11657 83203 10202 20178 49996 52010 60171 71060 885// 333 10268;
0153542590999992000071121004+42090+124940FM-12+023599999V0202201N001010120019N0080001N1+01941+01861100151ADDAA124056491AY161031GF107991071051012501999999MD1210171+9999MW1211REMSYN076AAXX  11211 54259 41658 72201 10194 20186 40015 52017 72160 875// 333 70564;
0165542590999992000071200004+42090+124940FM-12+023599999V0202501N002010900019N0090001N1+02101+01911100231ADDAA106000191AY161061GF107991011051012501001021MD1210091-0101MW1101REMSYN088AAXX  12001 54259 11659 72502 10210 20191 40023 52009 69911 71060 81502 333 05153 70564;
0112542590999992000071203004+42090+124940FM-12+023599999V0202201N002019999999N0200001N1+02701+02061100181ADDGF107991001001999999001021MD1710031+9999REMSYN060AAXX  12031 54259 42970 72202 10270 20206 40018 57003 80002;
0146542590999992000071206004+42090+124940FM-12+023599999V0202501N004010900019N0300001N1+03001+01921100041ADDAA199000021GF107991021011008001001021KA1999N+01931MD1710121+9999REMSYN070AAXX  12061 54259 32580 72504 10300 20192 40004 57012 82102 333 20193;
0152542590999992000071212004+42090+124940FM-12+023599999V0209999C000012200019N0200001N1+02441+01921100091ADDAA199000091GA1001+999999999GF100991001001999999001001MD1210071+9999REMSYN054AAXX  12121 54259 32970 00000 10244 20192 40009 52007;EQDQ01  00002PRCP99
0187542590999992000071218004+42090+124940FM-12+023599999V0202201N001012200019N0080001N1+01801+01741100251ADDAA199000091GA1001+999999999GF100991001001999999001001KA1999M+03061MD1210041+9999MW1101REMSYN070AAXX  12181 54259 31958 02201 10180 20174 40025 52004 71000 333 10306;EQDQ01  00002PRCP99
0124542590999992000071221004+42090+124940FM-12+023599999V0209999C000019999999N0060001N1+01681+01601100261ADDGF106991001001999999001021MD1410001+9999MW1101REMSYN066AAXX  12211 54259 41956 60000 10168 20160 40026 54000 71000 80002;
0152542590999992000071300004+42090+124940FM-12+023599999V0200201N002012200019N0150001N1+02461+01911100061ADDAA199000091GF102991021051012501001021MD1710181+0011REMSYN070AAXX  13001 54259 32665 20202 10246 20191 40006 57018 82502 333 05104;EQDQ01  00002PRCP99
0112542590999992000071303004+42090+124940FM-12+023599999V0202501N003012200019N0300001N1+03171+01661099961ADDGF102991001001999999001021MD1710091+9999REMSYN060AAXX  13031 54259 42980 22503 10317 20166 49996 57009 80002;
0165542590999992000071306004+42090+124940FM-12+023599999V0202201N004010900019N0300001N1+03381+02271099851ADDAA199000091GF105991011051012501001021KA1999N+01661MD1710101+9999REMSYN070AAXX  13061 54259 32680 52204 10338 20227 49985 57010 81502 333 20166;EQDQ01  00002PRCP99
0112542590999992000071309004+42090+124940FM-12+023599999V0202201N003010120019N0300001N1+03121+02241099861ADDGF107991071051012501999999MD1710011+9999REMSYN060AAXX  13091 54259 42680 72203 10312 20224 49986 57001 875//;
0152542590999992000071312004+42090+124940FM-12+023599999V0202701N001012200019N0200001N1+02781+02171099991ADDAA199000091GA1001+999999999GF100991001001999999001001MD1210141+9999REMSYN054AAXX  13121 54259 32970 02701 10278 20217 49999 52014;EQDQ01  00002PRCP99
0165542590999992000071318004+42090+124940FM-12+023599999V0209999C000019999999N0180001N1+02321+02051100071ADDAA199000091GF107991001001999999001021KA1999M+03411MD1210021+9999REMSYN070AAXX  13181 54259 32968 70000 10232 20205 40007 52002 80002 333 10341;EQDQ01  00002PRCP99
0112542590999992000071321004+42090+124940FM-12+023599999V0209999C000012200019N0120001N1+02241+02011100141ADDGF102991001001999999001021MD1210061+9999REMSYN060AAXX  13211 54259 42962 20000 10224 20201 40014 52006 80002;
0157542590999992000071400004+42090+124940FM-12+023599999V0202501N001010120019N0080001N1+02561+02021100271ADDAA106000791GF108991081051012501999999MD1210121+0201MW1601REMSYN088AAXX  14001 54259 11658 82501 10256 20202 40027 52012 69901 76000 885// 333 00201 79999;
0142542590999992000071403004+42090+124940FM-12+023599999V0202201N005012200019N0200001N1+02981+02111100141ADDAY191031GA1001+999999999GF100991001001999999001001MD1710111+9999MW1001REMSYN060AAXX  14031 54259 41970 02205 10298 20211 40014 57011 70090;
0166542590999992000071406004+42090+124940FM-12+023599999V0202001N004012200019N0300001N1+03061+02211100111ADDAA199000021AY191061GF101991011011008001001001KA1999N+02201MD1710041+9999MW1001REMSYN076AAXX  14061 54259 31580 12004 10306 20221 40011 57004 70090 81100 333 20220;
0122542590999992000071409004+42090+124940FM-12+023599999V0202501N004012200019N0300001N1+02991+02211100051ADDGA1001+999999999GF100991001001999999001001MD1710071+9999REMSYN054AAXX  14091 54259 42980 02504 10299 20221 40005 57007;
0133542590999992000071412004+42090+124940FM-12+023599999V0202501N002012200019N0200001N1+02641+02011100231ADDAA199000021GA1001+999999999GF100991001001999999001001MD1210181+9999REMSYN054AAXX  14121 54259 32970 02502 10264 20201 40023 52018;
0175542590999992000071418004+42090+124940FM-12+023599999V0200901N001012200019N0150001N1+02271+01921100331ADDAA199000091GA1001+999999999GF100991001001999999001001KA1999M+03161MD1210051+9999REMSYN064AAXX  14181 54259 32965 00901 10227 20192 40033 52005 333 10316;EQDQ01  00002PRCP99
0143542590999992000071421004+42090+124940FM-12+023599999V0201101N001012200019N0250001N1+02121+01901100491ADDAA124000791GA1001+999999999GF100991001001999999001001MD1210151+9999REMSYN064AAXX  14211 54259 42975 01101 10212 20190 40049 52015 333 79999;
0162542590999992000071500004+42090+124940FM-12+023599999V0209999C000012200019N0300001N1+02671+01921100471ADDAA199000091GA1001+999999999GF100991001001999999001001MD1710021+0021REMSYN064AAXX  15001 54259 32980 00000 10267 20192 40047 57002 333 00201;EQDQ01  00002PRCP99
0112542590999992000071503004+42090+124940FM-12+023599999V0202201N003012200019N0300001N1+02921+02241100541ADDGF104991011011008001031001MD1210071+9999REMSYN060AAXX  15031 54259 42580 42203 10292 20224 40054 52007 81130;
0165542590999992000071506004+42090+124940FM-12+023599999V0202201N002010360019N0300001N1+03131+02321100491ADDAA199000091GF105991011011008001031001KA1999N+02101MD1710041+9999REMSYN070AAXX  15061 54259 32580 52202 10313 20232 40049 57004 81130 333 20210;EQDQ01  00002PRCP99
0112542590999992000071509004+42090+124940FM-12+023599999V0202201N002012200019N0300001N1+03171+02431100511ADDGF101991011051012501001001MD1210011+9999REMSYN060AAXX  15091 54259 42680 12202 10317 20243 40051 52001 81500;
0142542590999992000071512004+42090+124940FM-12+023599999V0202201N002012200019N0300001N1+02791+02301100701ADDAA199000091GF104991041051012501001001MD1210201+9999REMSYN060AAXX  15121 54259 32680 42202 10279 20230 40070 52020 84500;EQDQ01  00002PRCP99
0165542590999992000071518004+42090+124940FM-12+023599999V0203401N001019999999N0120001N1+02371+02181100771ADDAA199000091GF107991001001999999001021KA1999M+03261MD1710071+9999REMSYN070AAXX  15181 54259 32962 73401 10237 20218 40077 57007 80002 333 10326;EQDQ01  00002PRCP99
0152542590999992000071600004+42090+124940FM-12+023599999V0202501N001019999999N0200001N1+02751+02191100931ADDAA199000091GF107991001001999999001021MD1210121+0051REMSYN070AAXX  16001 54259 32970 72501 10275 20219 40093 52012 80002 333 00501;EQDQ01  00002PRCP99
0112542590999992000071603004+42090+124940FM-12+023599999V0202501N004010900019N0250001N1+02881+02081101021ADDGF107991021051012501001021MD1210081+9999REMSYN060AAXX  16031 54259 42675 72504 10288 20208 40102 52008 82502;
0165542590999992000071606004+42090+124940FM-12+023599999V0202201N002010120019N0250001N1+02871+02121101011ADDAA199000091GF107991071051012501999999KA1999N+02231MD1710011+9999REMSYN070AAXX  16061 54259 32675 72202 10287 20212 40101 57001 875// 333 20223;EQDQ01  00002PRCP99
0124542590999992000071609004+42090+124940FM-12+023599999V0202201N004010120019N0300001N1+02641+01801100931ADDGF108991081051012501999999MD1710101+9999MW1601REMSYN066AAXX  16091 54259 41680 82204 10264 20180 40093 57010 76000 885//;
0149542590999992000071612004+42090+124940FM-12+023599999V0209999C000010120019N0120001N1+02121+02011100891ADDAA106007991AY161061GF108991081051012501999999MD1710041+9999MW1601REMSYN072AAXX  16121 54259 11662 80000 10212 20201 40089 57004 60081 76060 885//;
0172542590999992000071618004+42090+124940FM-12+023599999V0209999C000010120019N0120001N1+02071+01931100761ADDAA106007191AY161061GF108991081051012501999999KA1999M+02941MD1710101+9999MW1601REMSYN082AAXX  16181 54259 11662 80000 10207 20193 40076 57010 60071 76060 885// 333 10294;
0161542590999992000071621004+42090+124940FM-12+023599999V0209999C000010360019N0120001N1+02061+01981100721ADDAA124025991AY161031AY261031GF108991021051012501021999MD1710051+9999MW1611REMSYN076AAXX  16211 54259 41662 80000 10206 20198 40072 57005 76166 8252/ 333 70259;
0173542590999992000071700004+42090+124940FM-12+023599999V0202501N001010360019N0150001N1+02121+02011100791ADDAA106025991AY161061AY261061GF108991031051012501021999MD1210051-0201MW1601REMSYN088AAXX  17001 54259 11665 82501 10212 20201 40079 52005 60261 76066 8352/ 333 05256 70399;
0140542590999992000071703004+42090+124940FM-12+023599999V0209999C000010120019N0150001N1+02291+02141100751ADDAY161031AY261031GF108991081051012501999999MD1710031+9999MW1601REMSYN066AAXX  17031 54259 41665 80000 10229 20214 40075 57003 76066 885//;
0172542590999992000071706004+42090+124940FM-12+023599999V0209999C000010120019N0300001N1+02581+02231100571ADDAA106000591AY161061GF107991071051012501999999KA1999N+02061MD1710171+9999MW1001REMSYN082AAXX  17061 54259 11680 70000 10258 20223 40057 57017 69951 70060 875// 333 20206;
0112542590999992000071709004+42090+124940FM-12+023599999V0209999C000010120019N0300001N1+02551+02211100531ADDGF108991081051012501999999MD1710041+9999REMSYN060AAXX  17091 54259 42680 80000 10255 20221 40053 57004 885//;
0123542590999992000071712004+42090+124940FM-12+023599999V0209999C000010120019N0250001N1+02401+02161100641ADDAA199000021GF107991071051012501999999MD1210111+9999REMSYN060AAXX  17121 54259 32675 70000 10240 20216 40064 52011 875//;
0165542590999992000071718004+42090+124940FM-12+023599999V0209999C000010120019N0120001N1+02141+02051100641ADDAA199000091GF105991051051012501001001KA1999M+02661MD1710031+9999REMSYN070AAXX  17181 54259 32662 50000 10214 20205 40064 57003 85500 333 10266;EQDQ01  00002PRCP99
0145542590999992000071721004+42090+124940FM-12+023599999V0209999C000019999999N0080001N1+02051+02001100621ADDAA124014591GF106991001001999999001021MD1710021+9999MW1101REMSYN076AAXX  17211 54259 41958 60000 10205 20200 40062 57002 71000 80002 333 70145;
0139542590999992000071800004+42090+124940FM-12+023599999V0209999C000012200019N0220001N1+02521+02131100661ADDAA124000591GF101991011011008001001001MD1210051-0101REMSYN076AAXX  18001 54259 32572 10000 10252 20213 40066 52005 81100 333 05104 70005;
0112542590999992000071803004+42090+124940FM-12+023599999V0202201N001010120019N0300001N1+02781+02231100661ADDGF108991081051012501999999MD1210011+9999REMSYN060AAXX  18031 54259 42680 82201 10278 20223 40066 52001 885//;
0165542590999992000071806004+42090+124940FM-12+023599999V0202201N004010120019N0300001N1+02971+02281100531ADDAA199000091GF105991051081008001001001KA1999N+02051MD1710131+9999REMSYN070AAXX  18061 54259 32580 52204 10297 20228 40053 57013 85800 333 20205;EQDQ01  00002PRCP99
0112542590999992000071809004+42090+124940FM-12+023599999V0202501N003010120019N0300001N1+02791+02301100491ADDGF107991071051012501999999MD1710051+9999REMSYN060AAXX  18091 54259 42680 72503 10279 20230 40049 57005 875//;
0152542590999992000071812004+42090+124940FM-12+023599999V0209999C000012200019N0200001N1+02541+02371100441ADDAA199000091GA1001+999999999GF100991001001999999001001MD1710041+9999REMSYN054AAXX  18121 54259 32970 00000 10254 20237 40044 57004;EQDQ01  00002PRCP99
0177542590999992000071818004+42090+124940FM-12+023599999V0202501N001010120019N0080001N1+02301+02231100651ADDAA199000091GF107991071051012501999999KA1999M+03041MD1210061+9999MW1101REMSYN076AAXX  18181 54259 31658 72501 10230 20223 40065 52006 71000 875// 333 10304;EQDQ01  00002PRCP99
0124542590999992000071821004+42090+124940FM-12+023599999V0209999C000010120019N0080001N1+02251+02181100581ADDGF107991071051012501999999MD1710081+9999MW1101REMSYN066AAXX  18211 54259 41658 70000 10225 20218 40058 57008 71000 875//;
0152542590999992000071900004+42090+124940FM-12+023599999V0202701N002012200019N0250001N1+02651+02231100661ADDAA199000091GF101991011011008001001001MD1210081+0001REMSYN070AAXX  19001 54259 32575 12702 10265 20223 40066 52008 81100 333 00001;EQDQ01  00002PRCP99
0112542590999992000071903004+42090+124940FM-12+023599999V0202701N001010120019N0300001N1+02991+02141100651ADDGF107991071051012501999999MD1410001+9999REMSYN060AAXX  19031 54259 42680 72701 10299 20214 40065 54000 875//;
0165542590999992000071906004+42090+124940FM-12+023599999V0202501N004010900019N0300001N1+03261+02191100401ADDAA199000091GF107991021011008001001021KA1999N+02251MD1710231+9999REMSYN070AAXX  19061 54259 32580 72504 10326 20219 40040 57023 82102 333 20225;EQDQ01  00002PRCP99
0112542590999992000071909004+42090+124940FM-12+023599999V0202201N003012200019N0300001N1+03221+02241100311ADDGF102991011011008001001021MD1710091+9999REMSYN060AAXX  19091 54259 42580 22203 10322 20224 40031 57009 81102;
0142542590999992000071912004+42090+124940FM-12+023599999V0209999C000012200019N0200001N1+02791+02301100391ADDAA199000091GF104991041051012501001001MD1210071+9999REMSYN060AAXX  19121 54259 32670 40000 10279 20230 40039 52007 84500;EQDQ01  00002PRCP99
0165542590999992000071918004+42090+124940FM-12+023599999V0200701N001010120019N0150001N1+02441+02251100411ADDAA199000091GF107991071051012501999999KA1999M+03351MD1210021+9999REMSYN070AAXX  19181 54259 32665 70701 10244 20225 40041 52002 875// 333 10335;EQDQ01  00002PRCP99
0112542590999992000071921004+42090+124940FM-12+023599999V0209999C000012200019N0180001N1+02391+02241100381ADDGF102991021051012501001001MD1710031+9999REMSYN060AAXX  19211 54259 42668 20000 10239 20224 40038 57003 82500;
0152542590999992000072000004+42090+124940FM-12+023599999V0202201N003010120019N0300001N1+02691+02191100401ADDAA199000091GF107991071051012501999999MD1210011+0021REMSYN070AAXX  20001 54259 32680 72203 10269 20219 40040 52001 875// 333 05200;EQDQ01  00002PRCP99
0112542590999992000072003004+42090+124940FM-12+023599999V0202001N004010120019N0300001N1+02861+02171100281ADDGF107991071051012501001001MD1710121+9999REMSYN060AAXX  20031 54259 42680 72004 10286 20217 40028 57012 87500;
0165542590999992000072006004+42090+124940FM-12+023599999V0202201N004010120019N0300001N1+02881+02211100261ADDAA199000091GF107991071051012501999999KA1999N+02391MD1710021+9999REMSYN070AAXX  20061 54259 32680 72204 10288 20221 40026 57002 875// 333 20239;EQDQ01  00002PRCP99
0112542590999992000072009004+42090+124940FM-12+023599999V0202201N003012200019N0300001N1+02881+02231100111ADDGF104991011051012501001021MD1710151+9999REMSYN060AAXX  20091 54259 42680 42203 10288 20223 40011 57015 81502;
0142542590999992000072012004+42090+124940FM-12+023599999V0202501N002010120019N0250001N1+02691+02211100131ADDAA199000091GF108991081051012501999999MD1210031+9999REMSYN060AAXX  20121 54259 32675 82502 10269 20221 40013 52003 885//;EQDQ01  00002PRCP99
0165542590999992000072018004+42090+124940FM-12+023599999V0202501N002010120019N0180001N1+02541+02171100061ADDAA199000091GF107991071051012501999999KA1999M+02981MD1710071+9999REMSYN070AAXX  20181 54259 32668 72502 10254 20217 40006 57007 875// 333 10298;EQDQ01  00002PRCP99
0112542590999992000072021004+42090+124940FM-12+023599999V0202001N002010120019N0120001N1+02621+02131099921ADDGF108991081051012501999999MD1710131+9999REMSYN060AAXX  20211 54259 42662 82002 10262 20213 49992 57013 885//;
0152542590999992000072100004+42090+124940FM-12+023599999V0202201N006010120019N0150001N1+02741+02151099731ADDAA199000091GF108991081051012501999999MD1710191+0071REMSYN070AAXX  21001 54259 32665 82206 10274 20215 49973 57019 885// 333 05701;EQDQ01  00002PRCP99
0132542590999992000072103004+42090+124940FM-12+023599999V0202901N002010120019N0180001N1+02541+02311099701ADDAY161031GF108991081051012501999999MD1710041+9999MW1601REMSYN066AAXX  21031 54259 41668 82902 10254 20231 49970 57004 76060 885//;
0172542590999992000072106004+42090+124940FM-12+023599999V0202501N002010120019N0050001N1+02571+02401099591ADDAA106002091AY161061GF108991081051012501999999KA1999N+02481MD1710111+9999MW1601REMSYN082AAXX  21061 54259 11650 82502 10257 20240 49959 57011 60021 76060 885// 333 20248;
0140542590999992000072109004+42090+124940FM-12+023599999V0202201N003010120019N0200001N1+02051+01971099701ADDAY161031AY261031GF108991081051012501999999MD1210091+9999MW1601REMSYN066AAXX  21091 54259 41670 82203 10205 20197 49970 52009 76066 885//;
0149542590999992000072112004+42090+124940FM-12+023599999V0209999C000010120019N0200001N1+01961+01871099751ADDAA106021191AY161061GF105991051051012501001001MD1210051+9999MW1001REMSYN072AAXX  21121 54259 11670 50000 10196 20187 49975 52005 60211 70060 85500;
0146542590999992000072118004+42090+124940FM-12+023599999V0202501N003010120019N0150001N1+01811+01761099651ADDAA199000021GF107991071051012501999999KA1999M+02771MD1710111+9999REMSYN070AAXX  21181 54259 32665 72503 10181 20176 49965 57011 875// 333 10277;
0133542590999992000072121004+42090+124940FM-12+023599999V0202701N003010120019N0150001N1+01911+01861099631ADDAA124022691GF107991071051012501999999MD1710041+9999REMSYN070AAXX  21211 54259 42665 72703 10191 20186 49963 57004 875// 333 70227;
0139542590999992000072200004+42090+124940FM-12+023599999V0202201N005012200019N0200001N1+02221+01941099581ADDAA124022691GF102991021051012501001001MD1710041-0201REMSYN076AAXX  22001 54259 32670 22205 10222 20194 49958 57004 82500 333 05255 70227;
0112542590999992000072203004+42090+124940FM-12+023599999V0202501N005012200019N0300001N1+02651+01801099461ADDGF102991021081008001001001MD1710111+9999REMSYN060AAXX  22031 54259 42580 22505 10265 20180 49946 57011 82800;
0165542590999992000072206004+42090+124940FM-12+023599999V0202701N006012200019N0300001N1+02831+01481099351ADDAA199000091GF104991041011008001001001KA1999N+01811MD1710091+9999REMSYN070AAXX  22061 54259 32580 42706 10283 20148 49935 57009 84100 333 20181;EQDQ01  00002PRCP99
0112542590999992000072209004+42090+124940FM-12+023599999V0202501N004012200019N0300001N1+02741+01501099351ADDGF104991041051012501001001MD1410001+9999REMSYN060AAXX  22091 54259 42680 42504 10274 20150 49935 54000 84500;
0142542590999992000072212004+42090+124940FM-12+023599999V0209999C000012200019N0300001N1+02291+01751099381ADDAA199000091GF101991011051012501001001MD1210021+9999REMSYN060AAXX  22121 54259 32680 10000 10229 20175 49938 52002 81500;EQDQ01  00002PRCP99
0165542590999992000072218004+42090+124940FM-12+023599999V0202501N001012200019N0150001N1+01891+01761099351ADDAA199000091GF101991011051012501001001KA1999M+02921MD1710061+9999REMSYN070AAXX  22181 54259 32665 12501 10189 20176 49935 57006 81500 333 10292;EQDQ01  00002PRCP99
0112542590999992000072221004+42090+124940FM-12+023599999V0209999C000012200019N0150001N1+01801+01721099371ADDGF101991011051012501001001MD1210011+9999REMSYN060AAXX  22211 54259 42665 10000 10180 20172 49937 52001 81500;
0152542590999992000072300004+42090+124940FM-12+023599999V0202501N003010120019N0250001N1+02341+01671099391ADDAA199000091GF107991071051012501999999MD1210021+0021REMSYN070AAXX  23001 54259 32675 72503 10234 20167 49939 52002 875// 333 05201;EQDQ01  00002PRCP99
0112542590999992000072303004+42090+124940FM-12+023599999V0202501N005010900019N0300001N1+02681+01581099391ADDGF105991011011008001001021MD1210011+9999REMSYN060AAXX  23031 54259 42580 52505 10268 20158 49939 52001 81102;
0165542590999992000072306004+42090+124940FM-12+023599999V0202501N004012200019N0300001N1+02821+01501099351ADDAA199000091GF101991011011008001001001KA1999N+01801MD1710041+9999REMSYN070AAXX  23061 54259 32580 12504 10282 20150 49935 57004 81100 333 20180;EQDQ01  00002PRCP99
0112542590999992000072309004+42090+124940FM-12+023599999V0202501N002012200019N0300001N1+02641+01811099411ADDGF101991011011008001001001MD1210041+9999REMSYN060AAXX  23091 54259 42580 12502 10264 20181 49941 52004 81100;
0142542590999992000072312004+42090+124940FM-12+023599999V0202701N001012200019N0220001N1+02221+01851099561ADDAA199000091GF104991041051012501001001MD1210161+9999REMSYN060AAXX  23121 54259 32672 42701 10222 20185 49956 52016 84500;EQDQ01  00002PRCP99
0190542590999992000072318004+42090+124940FM-12+023599999V0209999C000012200019N0200001N1+01741+01571099711ADDAA106000791AY191061AY281061GA1001+999999999GF100991001001999999001001KA1999M+02931MD1210051+9999MW1001REMSYN076AAXX  23181 54259 11970 00000 10174 20157 49971 52005 69901 70098 333 10293;
0143542590999992000072321004+42090+124940FM-12+023599999V0209999C000012200019N0300001N1+01561+01441099941ADDAA124000791GA1001+999999999GF100991001001999999001001MD1210211+9999REMSYN064AAXX  23211 54259 42980 00000 10156 20144 49994 52021 333 79999;
0149542590999992000072400004+42090+124940FM-12+023599999V0209999C000012200019N0300001N1+02101+01521100091ADDAA124000791GA1001+999999999GF100991001001999999001001MD1210151+0701REMSYN070AAXX  24001 54259 32980 00000 10210 20152 40009 52015 333 00752 79999;
0112542590999992000072403004+42090+124940FM-12+023599999V0201401N001012200019N0300001N1+02601+01681100081ADDGF103991031011008001001021MD1410001+9999REMSYN060AAXX  24031 54259 42580 31401 10260 20168 40008 54000 83102;
0165542590999992000072406004+42090+124940FM-12+023599999V0200401N002010075019N0300001N1+02631+01551100091ADDAA199000091GF105991051011008001001001KA1999N+01561MD1410001+9999REMSYN070AAXX  24061 54259 32580 50402 10263 20155 40009 54000 85100 333 20156;EQDQ01  00002PRCP99
0112542590999992000072409004+42090+124940FM-12+023599999V0202701N003012200019N0300001N1+02761+01581100111ADDGF102991021011008001001001MD1210021+9999REMSYN060AAXX  24091 54259 42580 22703 10276 20158 40011 52002 82100;
0152542590999992000072412004+42090+124940FM-12+023599999V0203401N001012200019N0250001N1+02201+01651100311ADDAA199000091GA1001+999999999GF100991001001999999001001MD1210191+9999REMSYN054AAXX  24121 54259 32975 03401 10220 20165 40031 52019;EQDQ01  00002PRCP99
0175542590999992000072418004+42090+124940FM-12+023599999V0209999C000012200019N0180001N1+01601+01501100421ADDAA199000091GA1001+999999999GF100991001001999999001001KA1999M+02881MD1410001+9999REMSYN064AAXX  24181 54259 32968 00000 10160 20150 40042 54000 333 10288;EQDQ01  00002PRCP99
0112542590999992000072421004+42090+124940FM-12+023599999V0209999C000010120019N0150001N1+01481+01371100501ADDGF106991061051012501001001MD1210081+9999REMSYN060AAXX  24211 54259 42665 60000 10148 20137 40050 52008 86500;
0152542590999992000072500004+42090+124940FM-12+023599999V0209999C000019999999N0250001N1+02031+01621100491ADDAA199000091GF106991001001999999001021MD1710011+0041REMSYN070AAXX  25001 54259 32975 60000 10203 20162 40049 57001 80002 333 00451;EQDQ01  00002PRCP99
0112542590999992000072503004+42090+124940FM-12+023599999V0202501N003012200019N0300001N1+02761+01601100411ADDGF102991001001999999001021MD1710071+9999REMSYN060AAXX  25031 54259 42980 22503 10276 20160 40041 57007 80002;
0165542590999992000072506004+42090+124940FM-12+023599999V0201801N002012200019N0300001N1+02911+01621100281ADDAA199000091GF101991011011008001031001KA1999N+01471MD1710131+9999REMSYN070AAXX  25061 54259 32580 11802 10291 20162 40028 57013 81130 333 20147;EQDQ01  00002PRCP99
0112542590999992000072509004+42090+124940FM-12+023599999V0202001N001010900019N0300001N1+02921+01551100231ADDGF106991011011008001001021MD1710051+9999REMSYN060AAXX  25091 54259 42580 62001 10292 20155 40023 57005 81102;
0142542590999992000072512004+42090+124940FM-12+023599999V0200701N001019999999N0200001N1+02411+01871100281ADDAA199000091GF107991001001999999001021MD1210051+9999REMSYN060AAXX  25121 54259 32970 70701 10241 20187 40028 52005 80002;EQDQ01  00002PRCP99
0165542590999992000072518004+42090+124940FM-12+023599999V0200901N002012200019N0200001N1+01891+01731100311ADDAA199000091GF101991011001999999031001KA1999M+03021MD1210031+9999REMSYN070AAXX  25181 54259 32970 10902 10189 20173 40031 52003 81030 333 10302;EQDQ01  00002PRCP99
0112542590999992000072521004+42090+124940FM-12+023599999V0201101N001019999999N0200001N1+01801+01671100341ADDGF107991071001999999031001MD1210021+9999REMSYN060AAXX  25211 54259 42970 71101 10180 20167 40034 52002 87030;
0157542590999992000072600004+42090+124940FM-12+023599999V0200201N001010120019N0250001N1+01961+01751100351ADDAA106000891GF107991061091012501031999MD1410001-0101MW1291REMSYN088AAXX  26001 54259 11675 70201 10196 20175 40035 54000 69981 72900 8693/ 333 05151 70008;
0112542590999992000072603004+42090+124940FM-12+023599999V0201801N001010120019N0300001N1+02451+01811100291ADDGF107991071051012501999999MD1710061+9999REMSYN060AAXX  26031 54259 42680 71801 10245 20181 40029 57006 875//;
0172542590999992000072606004+42090+124940FM-12+023599999V0202201N003010120019N0300001N1+02421+01801100171ADDAA106000791AY161061GF107991071051012501999999KA1999N+01801MD1710121+9999MW1001REMSYN082AAXX  26061 54259 11680 72203 10242 20180 40017 57012 69901 70060 875// 333 20180;
0112542590999992000072609004+42090+124940FM-12+023599999V0202001N002010120019N0300001N1+02461+01721100191ADDGF108991081051012501999999MD1210021+9999REMSYN060AAXX  26091 54259 42680 82002 10246 20172 40019 52002 885//;
0142542590999992000072612004+42090+124940FM-12+023599999V0209999C000010120019N0200001N1+02171+01841100251ADDAA199000091GF108991081051012501999999MD1210051+9999REMSYN060AAXX  26121 54259 32670 80000 10217 20184 40025 52005 885//;EQDQ01  00002PRCP99
0165542590999992000072618004+42090+124940FM-12+023599999V0209999C000010120019N0150001N1+02061+01841100191ADDAA199000091GF108991081051012501999999KA1999M+02521MD1710041+9999REMSYN070AAXX  26181 54259 32665 80000 10206 20184 40019 57004 885// 333 10252;EQDQ01  00002PRCP99
0133542590999992000072621004+42090+124940FM-12+023599999V0202501N002010120019N0150001N1+02001+01791100191ADDAA124000891GF108991081051012501999999MD1710011+9999REMSYN070AAXX  26211 54259 42665 82502 10200 20179 40019 57001 885// 333 70008;
0157542590999992000072700004+42090+124940FM-12+023599999V0202901N002010120019N0200001N1+02011+01801100301ADDAA106002091GF108991081051012501999999MD1210101-0101MW1601REMSYN088AAXX  27001 54259 11670 82902 10201 20180 40030 52010 60021 76000 885// 333 05101 70024;
0140542590999992000072703004+42090+124940FM-12+023599999V0202501N002010360019N0250001N1+02001+01861100391ADDAY161031AY261031GF108991021051012501021999MD1210081+9999MW1601REMSYN066AAXX  27031 54259 41675 82502 10200 20186 40039 52008 76066 8252/;
0180542590999992000072706004+42090+124940FM-12+023599999V0203201N001010120019N0250001N1+01991+01721100311ADDAA106014091AY161061AY261061GF108991051051012501021999KA1999N+01961MD1710081+9999MW1601REMSYN082AAXX  27061 54259 11675 83201 10199 20172 40031 57008 60141 76066 8552/ 333 20196;
0140542590999992000072709004+42090+124940FM-12+023599999V0200901N001010120019N0180001N1+01971+01831100361ADDAY161031AY261031GF108991061051012501021999MD1210051+9999MW1601REMSYN066AAXX  27091 54259 41668 80901 10197 20183 40036 52005 76066 8652/;
0157542590999992000072712004+42090+124940FM-12+023599999V0201601N003010120019N0200001N1+01981+01711100251ADDAA106007191AY161061AY261061GF108991081051012501999999MD1710111+9999MW1211REMSYN072AAXX  27121 54259 11670 81603 10198 20171 40025 57011 60071 72166 885//;
0146542590999992000072718004+42090+124940FM-12+023599999V0202201N001010120019N0120001N1+02031+01761100081ADDAA199000021GF107991071051012501999999KA1999M+02201MD1710091+9999REMSYN070AAXX  27181 54259 32662 72201 10203 20176 40008 57009 875// 333 10220;
0133542590999992000072721004+42090+124940FM-12+023599999V0202201N002010120019N0180001N1+02161+01761100121ADDAA124022691GF107991071051012501999999MD1210041+9999REMSYN070AAXX  27211 54259 42668 72202 10216 20176 40012 52004 875// 333 70227;
0157542590999992000072800004+42090+124940FM-12+023599999V0202501N003010120019N0250001N1+02291+01901100241ADDAA106000791GF108991081051012501999999MD1210121-0101MW1211REMSYN088AAXX  28001 54259 11675 82503 10229 20190 40024 52012 69901 72100 885// 333 05103 70203;
0132542590999992000072803004+42090+124940FM-12+023599999V0202201N003010120019N0250001N1+02111+01921100361ADDAY161031GF108991081051012501999999MD1210121+9999MW1611REMSYN066AAXX  28031 54259 41675 82203 10211 20192 40036 52012 76160 885//;
0172542590999992000072806004+42090+124940FM-12+023599999V0202201N002010120019N0300001N1+02271+02001100291ADDAA106004191AY161061GF108991081051012501999999KA1999N+01901MD1710071+9999MW1001REMSYN082AAXX  28061 54259 11680 82202 10227 20200 40029 57007 60041 70060 885// 333 20190;
0112542590999992000072809004+42090+124940FM-12+023599999V0202701N001010900019N0300001N1+02431+01961100231ADDGF106991021051012501001021MD1710041+9999REMSYN060AAXX  28091 54259 42680 62701 10243 20196 40023 57004 82502;
0123542590999992000072812004+42090+124940FM-12+023599999V0202501N001010120019N0250001N1+02251+01941100281ADDAA199000021GF108991081051012501999999MD1210051+9999REMSYN060AAXX  28121 54259 32675 82501 10225 20194 40028 52005 885//;
0165542590999992000072818004+42090+124940FM-12+023599999V0209999C000010120019N0120001N1+01961+01871100041ADDAA199000091GF108991081051012501999999KA1999M+02471MD1710161+9999REMSYN070AAXX  28181 54259 32662 80000 10196 20187 40004 57016 885// 333 10247;EQDQ01  00002PRCP99
0145542590999992000072821004+42090+124940FM-12+023599999V0209999C000010120019N0080001N1+01951+01871100001ADDAA124003691GF108991081051012501999999MD1710031+9999MW1101REMSYN076AAXX  28211 54259 41658 80000 10195 20187 40000 57003 71000 885// 333 70036;
0151542590999992000072900004+42090+124940FM-12+023599999V0209999C000010120019N0080001N1+02171+01991099961ADDAA124003691GF108991081051012501999999MD1710041-0301MW1101REMSYN082AAXX  29001 54259 31658 80000 10217 20199 49996 57004 71000 885// 333 05351 70036;
0132542590999992000072903004+42090+124940FM-12+023599999V0201401N002010120019N0250001N1+02311+01911099921ADDAY161031GF108991081051012501999999MD1710041+9999MW1001REMSYN066AAXX  29031 54259 41675 81402 10231 20191 49992 57004 70060 885//;
0172542590999992000072906004+42090+124940FM-12+023599999V0209999C000010120019N0250001N1+02021+01751099931ADDAA106004191AY161061GF108991081051012501999999KA1999N+01941MD1710011+9999MW1601REMSYN082AAXX  29061 54259 11675 80000 10202 20175 49993 57001 60041 76060 885// 333 20194;
0140542590999992000072909004+42090+124940FM-12+023599999V0202201N002010120019N0300001N1+02001+01631099871ADDAY161031AY261031GF108991081051012501999999MD1710061+9999MW1601REMSYN066AAXX  29091 54259 41680 82202 10200 20163 49987 57006 76066 885//;
0149542590999992000072912004+42090+124940FM-12+023599999V0202901N001010120019N0200001N1+01821+01621099871ADDAA106002091AY161061GF108991081051012501999999MD1410001+9999MW1601REMSYN072AAXX  29121 54259 11670 82901 10182 20162 49987 54000 60021 76060 885//;
0172542590999992000072918004+42090+124940FM-12+023599999V0209999C000010120019N0120001N1+01701+01631099691ADDAA106002091AY161061GF108991081051012501999999KA1999M+02391MD1710161+9999MW1001REMSYN082AAXX  29181 54259 11662 80000 10170 20163 49969 57016 60021 70060 885// 333 10239;
0145542590999992000072921004+42090+124940FM-12+023599999V0209999C000010120019N0080001N1+01621+01591099681ADDAA124006991GF105991051051012501001001MD1710011+9999MW1101REMSYN076AAXX  29211 54259 41658 50000 10162 20159 49968 57001 71000 85500 333 70069;
0139542590999992000073000004+42090+124940FM-12+023599999V0209999C000012200019N0150001N1+02061+01671099691ADDAA124006991GF101991011051012501001001MD1210021-0301REMSYN076AAXX  30001 54259 32665 10000 10206 20167 49969 52002 81500 333 05351 70069;
0112542590999992000073003004+42090+124940FM-12+023599999V0202701N004012200019N0300001N1+02421+01621099711ADDGF102991021011008001001001MD1210031+9999REMSYN060AAXX  30031 54259 42580 22704 10242 20162 49971 52003 82100;
0165542590999992000073006004+42090+124940FM-12+023599999V0202701N004012200019N0300001N1+02661+01671099691ADDAA199000091GF102991021011008001001001KA1999N+01611MD1710011+9999REMSYN070AAXX  30061 54259 32580 22704 10266 20167 49969 57001 82100 333 20161;EQDQ01  00002PRCP99
0112542590999992000073009004+42090+124940FM-12+023599999V0202501N003012200019N0300001N1+02641+01511099771ADDGF101991011011008001001001MD1210081+9999REMSYN060AAXX  30091 54259 42580 12503 10264 20151 49977 52008 81100;
0152542590999992000073012004+42090+124940FM-12+023599999V0209999C000012200019N0200001N1+02071+01831100011ADDAA199000091GA1001+999999999GF100991001001999999001001MD1210221+9999REMSYN054AAXX  30121 54259 32970 00000 10207 20183 40001 52022;EQDQ01  00002PRCP99
0175542590999992000073018004+42090+124940FM-12+023599999V0209999C000012200019N0150001N1+01621+01521100111ADDAA199000091GA1001+999999999GF100991001001999999001001KA1999M+02721MD1710021+9999REMSYN064AAXX  30181 54259 32965 00000 10162 20152 40011 57002 333 10272;EQDQ01  00002PRCP99
0142542590999992000073021004+42090+124940FM-12+023599999V0201101N001010006019N0008001N1+01521+01501100121ADDAY141031GA1091+999999999GF109991091999999999999999MD1410001+9999MW1471REMSYN060AAXX  30211 54259 41/08 91101 10152 20150 40012 54000 74740;
0172542590999992000073100004+42090+124940FM-12+023599999V0209999C000012200019N0018001N1+01871+01621100171ADDAA199000091AY141061GF102991021061008001001001MD1210041+0051MW1281REMSYN076AAXX  31001 54259 31518 20000 10187 20162 40017 52004 72840 82600 333 00552;EQDQ01  00002PRCP99
0112542590999992000073103004+42090+124940FM-12+023599999V0202501N002012200019N0300001N1+02691+01681100121ADDGF104991041011008001001001MD1710021+9999REMSYN060AAXX  31031 54259 42580 42502 10269 20168 40012 57002 84100;
0165542590999992000073106004+42090+124940FM-12+023599999V0203201N001010120019N0300001N1+02741+01921100071ADDAA199000091GF107991071081008001999999KA1999N+01521MD1710061+9999REMSYN070AAXX  31061 54259 32580 73201 10274 20192 40007 57006 878// 333 20152;EQDQ01  00002PRCP99
0112542590999992000073109004+42090+124940FM-12+023599999V0202701N003010120019N0300001N1+02681+01851100051ADDGF105991051081008001001001MD1710021+9999REMSYN060AAXX  31091 54259 42580 52703 10268 20185 40005 57002 85800;
0152542590999992000073112004+42090+124940FM-12+023599999V0209999C000012200019N0300001N1+02211+01881100261ADDAA199000091GA1001+999999999GF100991001001999999001001MD1210201+9999REMSYN054AAXX  31121 54259 32980 00000 10221 20188 40026 52020;EQDQ01  00002PRCP99
0142542590999992000073121004+42090+124940FM-12+023599999V0209999C000010006019N0007001N1+01591+01571100651ADDAY141031GA1091+999999999GF109991091999999999999999MD1210171+9999MW1471REMSYN060AAXX  31211 54259 41/07 90000 10159 20157 40065 52017 74740;
0182542590999992000080100004+42090+124940FM-12+023599999V0209999C000012200019N0220001N1+02051+01781100771ADDAA199000091AY141061GA1001+999999999GF100991001001999999001001MD1210121+0061MW1001REMSYN070AAXX  01001 54259 31972 00000 10205 20178 40077 52012 70040 333 00602;EQDQ01  00002PRCP99
0112542590999992000080103004+42090+124940FM-12+023599999V0201801N003012200019N0300001N1+02831+01831100741ADDGF102991021011008001001001MD1710011+9999REMSYN060AAXX  01031 54259 42580 21803 10283 20183 40074 57001 82100;
0165542590999992000080106004+42090+124940FM-12+023599999V0202701N003010075019N0280001N1+02881+01671100751ADDAA199000091GF107991071091008001999999KA1999N+01581MD1410001+9999REMSYN070AAXX  01061 54259 32578 72703 10288 20167 40075 54000 879// 333 20158;EQDQ01  00002PRCP99
0132542590999992000080109004+42090+124940FM-12+023599999V0202701N001012200019N0280001N1+02891+01801100731ADDAY181031GF101991011011008001001001MD1710021+9999MW1001REMSYN066AAXX  01091 54259 41578 12701 10289 20180 40073 57002 70080 81100;
0149542590999992000080112004+42090+124940FM-12+023599999V0203601N001012200019N0200001N1+02321+01781100951ADDAA106000791AY181061GF102991021091012501001001MD1210211+9999MW1171REMSYN072AAXX  01121 54259 11670 23601 10232 20178 40095 52021 69901 71780 82900;
0180542590999992000080118004+42090+124940FM-12+023599999V0200901N001012200019N0120001N1+01911+01781101091ADDAA106002091AY191061AY281061GF102991021091012501001001KA1999M+02971MD1210041+9999MW1291REMSYN082AAXX  01181 54259 11662 20901 10191 20178 40109 52004 60021 72998 82900 333 10297;
0153542590999992000080121004+42090+124940FM-12+023599999V0209999C000012200019N0080001N1+01811+01751101191ADDAA124002091AY181031GF102991021051012501001001MD1210091+9999MW1101REMSYN076AAXX  01211 54259 41658 20000 10181 20175 40119 52009 71080 82500 333 70020;
0175542590999992000080200004+42090+124940FM-12+023599999V0209999C000012200019N0120001N1+02261+01891101261ADDAA106000191AY181061GA1001+999999999GF100991001001999999001001MD1210061+0501MW1001REMSYN082AAXX  02001 54259 11962 00000 10226 20189 40126 52006 69921 70080 333 00502 70020;
0112542590999992000080203004+42090+124940FM-12+023599999V0202201N002012200019N0300001N1+02881+01851101151ADDGF101991011011008001001001MD1710091+9999REMSYN060AAXX  02031 54259 42580 12202 10288 20185 40115 57009 81100;
0164542590999992000080206004+42090+124940FM-12+023599999V0200701N002010120019N0300001N1+02661+01811101091ADDAA106000791GF107991071091012501999999KA1999N+01811MD1710071+9999MW1801REMSYN082AAXX  02061 54259 11680 70702 10266 20181 40109 57007 69901 78000 879// 333 20181;
0140542590999992000080209004+42090+124940FM-12+023599999V0200201N001010900019N0300001N1+02701+01991101021ADDAY191031AY281031GF107991011051012501001021MD1710081+9999MW1001REMSYN066AAXX  02091 54259 41680 70201 10270 20199 40102 57008 70098 81502;
0157542590999992000080212004+42090+124940FM-12+023599999V0209999C000010900019N0200001N1+02371+02071101101ADDAA106000791AY191061AY281061GF107991011051012501001021MD1210091+9999MW1001REMSYN072AAXX  02121 54259 11670 70000 10237 20207 40110 52009 69901 70098 81502;
0146542590999992000080218004+42090+124940FM-12+023599999V0209999C000012200019N0120001N1+02031+01901101271ADDAA199000021GF102991001001999999001021KA1999M+03071MD1210051+9999REMSYN070AAXX  02181 54259 32962 20000 10203 20190 40127 52005 80002 333 10307;
0145542590999992000080221004+42090+124940FM-12+023599999V0209999C000010120019N0050001N1+01921+01871101341ADDAA124000791GF106991061051012501001001MD1210061+9999MW1101REMSYN076AAXX  02211 54259 41650 60000 10192 20187 40134 52006 71000 86500 333 79999;
0139542590999992000080300004+42090+124940FM-12+023599999V0202201N001019999999N0110001N1+02261+01981101351ADDAA124000791GF107991001001999999001021MD1210011+0101REMSYN076AAXX  03001 54259 32961 72201 10226 20198 40135 52001 80002 333 00100 79999;
0112542590999992000080303004+42090+124940FM-12+023599999V0202501N002019999999N0200001N1+02871+02201101221ADDGF107991001001999999001021MD1710111+9999REMSYN060AAXX  03031 54259 42970 72502 10287 20220 40122 57011 80002;
0131542590999992000080309004+42090+124940FM-12+023599999V0202901N007010120019N0250001N1+02431+01741100281ADDGF108991081091012501999999MD1710842+9999REMSYN060AAXX  03091 54259 42675 82907 10243 20174 40028 57084 889//;EQDQ01+000842APC3  
0157542590999992000080312004+42090+124940FM-12+023599999V0202701N001010120019N0220001N1+02001+01831101372ADDAA106018091AY191061AY281061GF108991081051012501999999MD1210061+9999MW1001REMSYN072AAXX  03121 54259 11672 82701 10200 20183 40137 52006 60181 70098 885//;
0165542590999992000080318004+42090+124940FM-12+023599999V0209999C000012200019N0150001N1+01871+01761101371ADDAA199000091GF101991011051012501001001KA1999M+03071MD1210051+9999REMSYN070AAXX  03181 54259 32665 10000 10187 20176 40137 52005 81500 333 10307;EQDQ01  00002PRCP99
0133542590999992000080321004+42090+124940FM-12+023599999V0201101N001012200019N0120001N1+01791+01721101471ADDAA124018391GF102991001001999999001021MD1210071+9999REMSYN070AAXX  03211 54259 42962 21101 10179 20172 40147 52007 80002 333 70183;
0139542590999992000080400004+42090+124940FM-12+023599999V0200901N001012200019N0150001N1+02231+01901101511ADDAA124018391GF101991011011008001001001MD1210041+0101REMSYN076AAXX  04001 54259 32565 10901 10223 20190 40151 52004 81100 333 00100 70183;
0112542590999992000080403004+42090+124940FM-12+023599999V0201601N001012200019N0300001N1+02851+01941101311ADDGF101991011011008001001001MD1710171+9999REMSYN060AAXX  04031 54259 42580 11601 10285 20194 40131 57017 81100;
0165542590999992000080406004+42090+124940FM-12+023599999V0200901N002012200019N0300001N1+03101+01761101191ADDAA199000091GF101991011011008001001001KA1999N+01781MD1710111+9999REMSYN070AAXX  04061 54259 32580 10902 10310 20176 40119 57011 81100 333 20178;EQDQ01  00002PRCP99
0112542590999992000080409004+42090+124940FM-12+023599999V0202901N001012200019N0300001N1+03041+02031101121ADDGF101991011011008001001001MD1710071+9999REMSYN060AAXX  04091 54259 42580 12901 10304 20203 40112 57007 81100;
0142542590999992000080412004+42090+124940FM-12+023599999V0209999C000012200019N0150001N1+02521+02071101251ADDAA199000091GF104991041051012501001001MD1210121+9999REMSYN060AAXX  04121 54259 32665 40000 10252 20207 40125 52012 84500;EQDQ01  00002PRCP99
0175542590999992000080418004+42090+124940FM-12+023599999V0209999C000012200019N0150001N1+02021+01881101351ADDAA199000091GA1001+999999999GF100991001001999999001001KA1999M+03191MD1210031+9999REMSYN064AAXX  04181 54259 32965 00000 10202 20188 40135 52003 333 10319;EQDQ01  00002PRCP99
0112542590999992000080421004+42090+124940FM-12+023599999V0209999C000012200019N0110001N1+02001+01871101441ADDGF101991011051012501001001MD1210091+9999REMSYN060AAXX  04211 54259 42661 10000 10200 20187 40144 52009 81500;
0162542590999992000080500004+42090+124940FM-12+023599999V0209999C000012200019N0180001N1+02401+02051101471ADDAA199000091GA1001+999999999GF100991001001999999001001MD1210021+0001REMSYN064AAXX  05001 54259 32968 00000 10240 20205 40147 52002 333 00002;EQDQ01  00002PRCP99
0112542590999992000080503004+42090+124940FM-12+023599999V0202001N003012200019N0250001N1+02881+02081101381ADDGF101991011011008001001001MD1710081+9999REMSYN060AAXX  05031 54259 42575 12003 10288 20208 40138 57008 81100;
0165542590999992000080506004+42090+124940FM-12+023599999V0202201N002012200019N0300001N1+03131+02051101171ADDAA199000091GF102991021011008001001001KA1999N+01971MD1710201+9999REMSYN070AAXX  05061 54259 32580 22202 10313 20205 40117 57020 82100 333 20197;EQDQ01  00002PRCP99
0112542590999992000080509004+42090+124940FM-12+023599999V0202201N002012200019N0300001N1+03111+02101101091ADDGF102991021011008001001001MD1710081+9999REMSYN060AAXX  05091 54259 42580 22202 10311 20210 40109 57008 82100;
0142542590999992000080512004+42090+124940FM-12+023599999V0200201N002012200019N0200001N1+02641+02151101241ADDAA199000091GF104991041091012501001001MD1210141+9999REMSYN060AAXX  05121 54259 32670 40202 10264 20215 40124 52014 84900;EQDQ01  00002PRCP99
0165542590999992000080518004+42090+124940FM-12+023599999V0209999C000010120019N0120001N1+02231+02051101321ADDAA199000091GF107991071051012501999999KA1999M+03211MD1410001+9999REMSYN070AAXX  05181 54259 32662 70000 10223 20205 40132 54000 875// 333 10321;EQDQ01  00002PRCP99
0145542590999992000080521004+42090+124940FM-12+023599999V0200401N001010120019N0200001N1+02141+01871101351ADDAA124000791GF108991081051012501999999MD1210031+9999MW1601REMSYN076AAXX  05211 54259 41670 80401 10214 20187 40135 52003 76000 885// 333 79999;
0173542590999992000080600004+42090+124940FM-12+023599999V0209999C000010120019N0300001N1+02361+02011101361ADDAA106000791AY191061AY261061GF107991051051012501001021MD1410001-0101MW1001REMSYN088AAXX  06001 54259 11680 70000 10236 20201 40136 54000 69901 70096 85502 333 05100 79999;
0112542590999992000080603004+42090+124940FM-12+023599999V0201801N002010900019N0300001N1+02811+02101101271ADDGF106991021011008001001021MD1710081+9999REMSYN060AAXX  06031 54259 42580 61802 10281 20210 40127 57008 82102;
0146542590999992000080606004+42090+124940FM-12+023599999V0201801N002012200019N0300001N1+02971+02151101081ADDAA199000021GF103991031011008001001021KA1999N+02101MD1710191+9999REMSYN070AAXX  06061 54259 32580 31802 10297 20215 40108 57019 83102 333 20210;
0112542590999992000080609004+42090+124940FM-12+023599999V0202501N002012200019N0300001N1+03101+02031100961ADDGF102991021011008001001001MD1710111+9999REMSYN060AAXX  06091 54259 42580 22502 10310 20203 40096 57011 82100;
0149542590999992000080612004+42090+124940FM-12+023599999V0202501N001010120019N0200001N1+02531+02161101241ADDAA106000791AY191061GF106991061091012501001001MD1210261+9999MW1951REMSYN072AAXX  06121 54259 11670 62501 10253 20216 40124 52026 69901 79590 86900;
0172542590999992000080618004+42090+124940FM-12+023599999V0201601N001012200019N0200001N1+02191+02081101231ADDAA106000791AY181061GF104991041051012501001001KA1999M+03171MD1710011+9999MW1001REMSYN082AAXX  06181 54259 11670 41601 10219 20208 40123 57001 69901 70080 84500 333 10317;
0133542590999992000080621004+42090+124940FM-12+023599999V0209999C000012200019N0250001N1+02101+02011101271ADDAA124000791GF102991021051012501001001MD1210041+9999REMSYN070AAXX  06211 54259 42675 20000 10210 20201 40127 52004 82500 333 79999;
0139542590999992000080700004+42090+124940FM-12+023599999V0200901N001010120019N0300001N1+02291+02001101361ADDAA124000791GF108991081051012501999999MD1210071+0001REMSYN076AAXX  07001 54259 32680 80901 10229 20200 40136 52007 885// 333 00051 79999;
0112542590999992000080703004+42090+124940FM-12+023599999V0201401N002012200019N0300001N1+02861+02061101251ADDGF102991021011008001001001MD1710091+9999REMSYN060AAXX  07031 54259 42580 21402 10286 20206 40125 57009 82100;
0165542590999992000080706004+42090+124940FM-12+023599999V0201101N002010900019N0300001N1+03011+02051101051ADDAA199000091GF106991021011008001001021KA1999N+02091MD1710201+9999REMSYN070AAXX  07061 54259 32580 61102 10301 20205 40105 57020 82102 333 20209;EQDQ01  00002PRCP99
0112542590999992000080709004+42090+124940FM-12+023599999V0200901N001010900019N0300001N1+02981+02131101021ADDGF106991021011008001001021MD1710031+9999REMSYN060AAXX  07091 54259 42580 60901 10298 20213 40102 57003 82102;
0142542590999992000080712004+42090+124940FM-12+023599999V0200701N001012200019N0300001N1+02591+02241101111ADDAA199000091GF102991001001999999001021MD1210081+9999REMSYN060AAXX  07121 54259 32980 20701 10259 20224 40111 52008 80002;EQDQ01  00002PRCP99
0175542590999992000080718004+42090+124940FM-12+023599999V0209999C000012200019N0150001N1+02201+02091101211ADDAA199000091GA1001+999999999GF100991001001999999001001KA1999M+03101MD1710051+9999REMSYN064AAXX  07181 54259 32965 00000 10220 20209 40121 57005 333 10310;EQDQ01  00002PRCP99
0134542590999992000080721004+42090+124940FM-12+023599999V0209999C000010006019N0008001N1+02131+02071101241ADDGA1091+999999999GF109991091999999999999999MD1210031+9999MW1471REMSYN060AAXX  07211 54259 41/08 90000 10213 20207 40124 52003 74700;
0172542590999992000080800004+42090+124940FM-12+023599999V0201101N001012200019N0180001N1+02461+02151101321ADDAA199000091AY141061GF102991001001999999001021MD1210071+0001MW1001REMSYN076AAXX  08001 54259 31968 21101 10246 20215 40132 52007 70040 80002 333 00002;EQDQ01  00002PRCP99
0112542590999992000080803004+42090+124940FM-12+023599999V0202501N002012200019N0300001N1+02991+01831101261ADDGF102991021011008001001021MD1710041+9999REMSYN060AAXX  08031 54259 42580 22502 10299 20183 40126 57004 82102;
0165542590999992000080806004+42090+124940FM-12+023599999V0202701N002010900019N0300001N1+03121+01991101111ADDAA199000091GF107991021011008001001021KA1999N+02121MD1710151+9999REMSYN070AAXX  08061 54259 32580 72702 10312 20199 40111 57015 82102 333 20212;EQDQ01  00002PRCP99
0112542590999992000080809004+42090+124940FM-12+023599999V0202201N002010900019N0280001N1+03021+02041101081ADDGF107991021011008001001021MD1710041+9999REMSYN060AAXX  08091 54259 42578 72202 10302 20204 40108 57004 82102;
0142542590999992000080812004+42090+124940FM-12+023599999V0203201N001010900019N0200001N1+02581+02271101161ADDAA199000091GF107991011051012501001021MD1210071+9999REMSYN060AAXX  08121 54259 32670 73201 10258 20227 40116 52007 81502;EQDQ01  00002PRCP99
0165542590999992000080818004+42090+124940FM-12+023599999V0201101N001010120019N0150001N1+02271+02151101201ADDAA199000091GF108991081051012501999999KA1999M+03141MD1410001+9999REMSYN070AAXX  08181 54259 32665 81101 10227 20215 40120 54000 885// 333 10314;EQDQ01  00002PRCP99
0112542590999992000080821004+42090+124940FM-12+023599999V0200901N002010120019N0150001N1+02221+02101101161ADDGF108991081051012501999999MD1710051+9999REMSYN060AAXX  08211 54259 42665 80902 10222 20210 40116 57005 885//;
0112542590999992000080903004+42090+124940FM-12+023599999V0202001N002010900019N0300001N1+02681+02071101081ADDGF107991031051012501001021MD1710131+9999REMSYN060AAXX  09031 54259 42680 72002 10268 20207 40108 57013 83502;
0172542590999992000080906004+42090+124940FM-12+023599999V0209999C000010120019N0300001N1+02771+02231100931ADDAA106000791AY161061GF108991081051012501999999KA1999N+02221MD1710151+9999MW1001REMSYN082AAXX  09061 54259 11680 80000 10277 20223 40093 57015 69901 70060 885// 333 20222;
0132542590999992000080909004+42090+124940FM-12+023599999V0209999C000010120019N0300001N1+02691+02241100831ADDAY161031GF108991061051012501021999MD1710101+9999MW1601REMSYN066AAXX  09091 54259 41680 80000 10269 20224 40083 57010 76060 8652/;
0149542590999992000080912004+42090+124940FM-12+023599999V0209999C000010120019N0220001N1+02421+02361100841ADDAA106000791AY161061GF108991081051012501999999MD1410001+9999MW1001REMSYN072AAXX  09121 54259 11672 80000 10242 20236 40084 54000 69901 70060 885//;
0146542590999992000080918004+42090+124940FM-12+023599999V0201101N001010120019N0150001N1+02291+02161100741ADDAA199000021GF108991081051012501999999KA1999M+02801MD1710101+9999REMSYN070AAXX  09181 54259 32665 81101 10229 20216 40074 57010 885// 333 10280;
0153542590999992000080921004+42090+124940FM-12+023599999V0209999C000010120019N0120001N1+02231+02131100711ADDAA124001091AY161031GF108991081051012501999999MD1710041+9999MW1601REMSYN076AAXX  09211 54259 41662 80000 10223 20213 40071 57004 76060 885// 333 70009;
0165542590999992000081000004+42090+124940FM-12+023599999V0202701N001010120019N0120001N1+02301+02151100721ADDAA106003091AY161061GF108991071051012501021999MD1410001-0501MW1611REMSYN088AAXX  10001 54259 11662 82701 10230 20215 40072 54000 60031 76160 8752/ 333 05551 70030;
0132542590999992000081003004+42090+124940FM-12+023599999V0202201N002010120019N0200001N1+02501+02271100591ADDAY161031GF108991081051012501999999MD1710121+9999MW1601REMSYN066AAXX  10031 54259 41670 82202 10250 20227 40059 57012 76060 885//;
0132542590999992000081009004+42090+124940FM-12+023599999V0202501N002010120019N0150001N1+02491+02321100571ADDAY161031GF107991071051012501999999MD1710031+9999MW1001REMSYN066AAXX  10091 54259 41665 72502 10249 20232 40057 57003 70060 875//;
0149542590999992000081012004+42090+124940FM-12+023599999V0202201N002010120019N0150001N1+02401+02281100651ADDAA106000591AY161061GF108991081051012501999999MD1210071+9999MW1001REMSYN072AAXX  10121 54259 11665 82202 10240 20228 40065 52007 69951 70060 885//;
0172542590999992000081018004+42090+124940FM-12+023599999V0209999C000010120019N0080001N1+02261+02221100661ADDAA106019191AY161061GF108991081001012501021999KA1999M+02611MD1710021+9999MW1611REMSYN082AAXX  10181 54259 11658 80000 10226 20222 40066 57002 60191 76160 8802/ 333 10261;
0165542590999992000081100004+42090+124940FM-12+023599999V0202201N002010120019N0020001N1+02401+02311100741ADDAA106000591AY161061GF108991081051012501999999MD1210071+0001MW1601REMSYN088AAXX  11001 54259 11620 82202 10240 20231 40074 52007 69951 76060 885// 333 00001 70219;
0112542590999992000081103004+42090+124940FM-12+023599999V0202201N002010120019N0180001N1+02821+02301100721ADDGF107991061051012501001021MD1710011+9999REMSYN060AAXX  11031 54259 42668 72202 10282 20230 40072 57001 86502;
0132542590999992000081109004+42090+124940FM-12+023599999V0202201N001010120019N0200001N1+02671+02341100701ADDAY161031GF106991061051012501001001MD1710031+9999MW1001REMSYN066AAXX  11091 54259 41670 62201 10267 20234 40070 57003 70060 86500;
0149542590999992000081112004+42090+124940FM-12+023599999V0209999C000010120019N0120001N1+02501+02361100381ADDAA106000591AY161061GF106991061051012501001001MD1710311+9999MW1211REMSYN072AAXX  11121 54259 11662 60000 10250 20236 40038 57031 69961 72160 86500;
0180542590999992000081118004+42090+124940FM-12+023599999V0209999C000010120019N0080001N1+02341+02241100831ADDAA106000791AY191061AY281061GF108991081091012501999999KA1999M+02951MD1210011+9999MW1951REMSYN082AAXX  11181 54259 11658 80000 10234 20224 40083 52001 69901 79598 889// 333 10295;
0145542590999992000081121004+42090+124940FM-12+023599999V0209999C000010120019N0060001N1+02291+02221100881ADDAA124000591GF108991081051012501999999MD1210041+9999MW1101REMSYN076AAXX  11211 54259 41656 80000 10229 20222 40088 52004 71000 885// 333 70006;
0112542590999992000081203004+42090+124940FM-12+023599999V0202201N002012200019N0300001N1+02871+02181100861ADDGF102991021011008001001001MD1710061+9999REMSYN060AAXX  12031 54259 42580 22202 10287 20218 40086 57006 82100;
0146542590999992000081206004+42090+124940FM-12+023599999V0202201N003012200019N0300001N1+03121+02061100671ADDAA199000021GF102991021011008001001001KA1999N+02281MD1710171+9999REMSYN070AAXX  12061 54259 32580 22203 10312 20206 40067 57017 82100 333 20228;
0112542590999992000081209004+42090+124940FM-12+023599999V0202201N002012200019N0300001N1+03001+02221100641ADDGF102991021011008001001001MD1710041+9999REMSYN060AAXX  12091 54259 42580 22202 10300 20222 40064 57004 82100;
0142542590999992000081212004+42090+124940FM-12+023599999V0203401N001012200019N0200001N1+02601+02341100791ADDAA199000091GF101991001001999999001021MD1210141+9999REMSYN060AAXX  12121 54259 32970 13401 10260 20234 40079 52014 80002;EQDQ01  00002PRCP99
0124542590999992000081221004+42090+124940FM-12+023599999V0209999C000010120019N0060001N1+02261+02201100791ADDGF108991081051012501999999MD1210031+9999MW1101REMSYN066AAXX  12211 54259 41656 80000 10226 20220 40079 52003 71000 885//;
0164542590999992000081300004+42090+124940FM-12+023599999V0209999C000010120019N0080001N1+02511+02261100831ADDAA199000091GF107991061051012501001021MD1210041+0011MW1101REMSYN076AAXX  13001 54259 31658 70000 10251 20226 40083 52004 71000 86502 333 05100;EQDQ01  00002PRCP99
0112542590999992000081303004+42090+124940FM-12+023599999V0202701N004010120019N0150001N1+02861+02251100671ADDGF105991051091012501001001MD1710151+9999REMSYN060AAXX  13031 54259 42665 52704 10286 20225 40067 57015 85900;
0165542590999992000081306004+42090+124940FM-12+023599999V0202701N004010120019N0250001N1+03121+02291100521ADDAA199000091GF107991071051012501999999KA1999N+02261MD1710141+9999REMSYN070AAXX  13061 54259 32675 72704 10312 20229 40052 57014 875// 333 20226;EQDQ01  00002PRCP99
0124542590999992000081309004+42090+124940FM-12+023599999V0202201N003010120019N0200001N1+02781+02351100471ADDGF108991081051012501999999MD1710071+9999MW1211REMSYN066AAXX  13091 54259 41670 82203 10278 20235 40047 57007 72100 885//;
0149542590999992000081312004+42090+124940FM-12+023599999V0202501N002010120019N0150001N1+02541+02281100611ADDAA106000791AY161061GF107991071051012501999999MD1210141+9999MW1601REMSYN072AAXX  13121 54259 11665 72502 10254 20228 40061 52014 69901 76060 875//;
0172542590999992000081318004+42090+124940FM-12+023599999V0209999C000010120019N0120001N1+02341+02251100491ADDAA106000191AY161061GF108991081051012501999999KA1999M+03151MD1710081+9999MW1601REMSYN082AAXX  13181 54259 11662 80000 10234 20225 40049 57008 69921 76060 885// 333 10315;
0153542590999992000081321004+42090+124940FM-12+023599999V0209999C000010120019N0030001N1+02291+02251100431ADDAA124000391AY161031GF108991081051012501999999MD1710071+9999MW1101REMSYN076AAXX  13211 54259 41630 80000 10229 20225 40043 57007 71060 885// 333 70003;
0165542590999992000081400004+42090+124940FM-12+023599999V0209999C000010120019N0060001N1+02401+02311100421ADDAA106000191AY161061GF107991071051012501999999MD1710021-0401MW1101REMSYN088AAXX  14001 54259 11656 70000 10240 20231 40042 57002 69911 71060 875// 333 05451 70003;
0112542590999992000081403004+42090+124940FM-12+023599999V0202201N004010120019N0300001N1+02831+02091100331ADDGF107991071051012501999999MD1710071+9999REMSYN060AAXX  14031 54259 42680 72204 10283 20209 40033 57007 875//;
0146542590999992000081406004+42090+124940FM-12+023599999V0202201N005010120019N0300001N1+02971+02091100201ADDAA199000021GF106991061051012501001001KA1999N+02281MD1710131+9999REMSYN070AAXX  14061 54259 32680 62205 10297 20209 40020 57013 86500 333 20228;
0112542590999992000081409004+42090+124940FM-12+023599999V0202501N002012200019N0300001N1+02861+02211100111ADDGF102991021051012501001001MD1710091+9999REMSYN060AAXX  14091 54259 42680 22502 10286 20221 40011 57009 82500;
0142542590999992000081412004+42090+124940FM-12+023599999V0201801N003010120019N0250001N1+02631+02221100291ADDAA199000091GF107991071051012501999999MD1210171+9999REMSYN060AAXX  14121 54259 32675 71803 10263 20222 40029 52017 875//;EQDQ01  00002PRCP99
0165542590999992000081418004+42090+124940FM-12+023599999V0209999C000012200019N0150001N1+02441+02131100291ADDAA199000091GF102991021051012501001001KA1999M+03081MD1710061+9999REMSYN070AAXX  14181 54259 32665 20000 10244 20213 40029 57006 82500 333 10308;EQDQ01  00002PRCP99
0112542590999992000081421004+42090+124940FM-12+023599999V0209999C000019999999N0120001N1+02221+02081100281ADDGF107991001001999999001021MD1710021+9999REMSYN060AAXX  14211 54259 42962 70000 10222 20208 40028 57002 80002;
0152542590999992000081500004+42090+124940FM-12+023599999V0201801N002019999999N0250001N1+02711+02121100271ADDAA199000091GF106991001001999999001021MD1410001+0011REMSYN070AAXX  15001 54259 32975 61802 10271 20212 40027 54000 80002 333 05103;EQDQ01  00002PRCP99
0112542590999992000081503004+42090+124940FM-12+023599999V0202001N003010120019N0300001N1+02961+02191100221ADDGF107991071051012501999999MD1710041+9999REMSYN060AAXX  15031 54259 42680 72003 10296 20219 40022 57004 875//;
0165542590999992000081506004+42090+124940FM-12+023599999V0202501N005010120019N0300001N1+02841+02311100191ADDAA199000091GF107991071091012501999999KA1999N+02201MD1710041+9999REMSYN070AAXX  15061 54259 32680 72505 10284 20231 40019 57004 879// 333 20220;EQDQ01  00002PRCP99
0140542590999992000081509004+42090+124940FM-12+023599999V0202001N002010120019N0200001N1+02291+02171100251ADDAY191031AY281031GF108991081091012501999999MD1210031+9999MW1911REMSYN066AAXX  15091 54259 41670 82002 10229 20217 40025 52003 79198 889//;
0157542590999992000081512004+42090+124940FM-12+023599999V0203401N001010120019N0080001N1+02231+02131100271ADDAA106005191AY191061AY281061GF108991081051012501999999MD1210031+9999MW1601REMSYN072AAXX  15121 54259 11658 83401 10223 20213 40027 52003 60051 76098 885//;
0172542590999992000081518004+42090+124940FM-12+023599999V0202701N001010120019N0120001N1+02101+02051100451ADDAA106000191AY161061GF108991081051012501999999KA1999M+03071MD1210081+9999MW1001REMSYN082AAXX  15181 54259 11662 82701 10210 20205 40045 52008 69911 70060 885// 333 10307;
0145542590999992000081521004+42090+124940FM-12+023599999V0202501N001010120019N0050001N1+01971+01921100471ADDAA124004891GF108991081051012501999999MD1710011+9999MW1101REMSYN076AAXX  15211 54259 41650 82501 10197 20192 40047 57001 71000 885// 333 70049;
0151542590999992000081600004+42090+124940FM-12+023599999V0202201N001010120019N0060001N1+02111+02001100591ADDAA124004891GF107991071051012501999999MD1210121+0301MW1101REMSYN082AAXX  16001 54259 31656 72201 10211 20200 40059 52012 71000 875// 333 00356 70049;
0112542590999992000081603004+42090+124940FM-12+023599999V0202701N002010900019N0300001N1+02721+02131100541ADDGF105991011011008001001021MD1710031+9999REMSYN060AAXX  16031 54259 42580 52702 10272 20213 40054 57003 81102;
0165542590999992000081606004+42090+124940FM-12+023599999V0202201N001010900019N0300001N1+03021+02181100421ADDAA199000091GF107991011011008001001021KA1999N+01971MD1710101+9999REMSYN070AAXX  16061 54259 32580 72201 10302 20218 40042 57010 81102 333 20197;EQDQ01  00002PRCP99
0112542590999992000081609004+42090+124940FM-12+023599999V0201801N002010900019N0300001N1+02981+02181100451ADDGF106991011011008001001021MD1210021+9999REMSYN060AAXX  16091 54259 42580 61802 10298 20218 40045 52002 81102;
0152542590999992000081612004+42090+124940FM-12+023599999V0209999C000012200019N0200001N1+02501+02281100671ADDAA199000091GA1001+999999999GF100991001001999999001001MD1210201+9999REMSYN054AAXX  16121 54259 32970 00000 10250 20228 40067 52020;EQDQ01  00002PRCP99
0177542590999992000081618004+42090+124940FM-12+023599999V0209999C000010120019N0050001N1+02131+02051100901ADDAA199000091GF107991071051012501999999KA1999M+03141MD1210081+9999MW1101REMSYN076AAXX  16181 54259 31650 70000 10213 20205 40090 52008 71000 875// 333 10314;EQDQ01  00002PRCP99
0134542590999992000081621004+42090+124940FM-12+023599999V0209999C000010006019N0008001N1+02041+01991100981ADDGA1091+999999999GF109991091999999999999999MD1210071+9999MW1471REMSYN060AAXX  16211 54259 41/08 90000 10204 20199 40098 52007 74700;
0182542590999992000081700004+42090+124940FM-12+023599999V0209999C000010006019N0008001N1+02161+02041101111ADDAA199000091AY141061GA1091+999999999GF109991091999999999999999MD1210111+0051MW1431REMSYN070AAXX  17001 54259 31/08 90000 10216 20204 40111 52011 74340 333 00501;EQDQ01  00002PRCP99
0132542590999992000081703004+42090+124940FM-12+023599999V0201101N003019999999N0150001N1+02851+02191101041ADDAY141031GF107991001001999999001021MD1710051+9999MW1001REMSYN066AAXX  17031 54259 41965 71103 10285 20219 40104 57005 70040 80002;
0185542590999992000081706004+42090+124940FM-12+023599999V0200201N001012200019N0250001N1+03101+01891100961ADDAA199000091AY141061GF102991021011008001001001KA1999N+02041MD1710071+9999MW1001REMSYN076AAXX  17061 54259 31575 20201 10310 20189 40096 57007 70040 82100 333 20204;EQDQ01  00002PRCP99
0112542590999992000081709004+42090+124940FM-12+023599999V0209999C000012200019N0300001N1+02741+02051100971ADDGF102991021011008001001001MD1710011+9999REMSYN060AAXX  17091 54259 42580 20000 10274 20205 40097 57001 82100;
0152542590999992000081712004+42090+124940FM-12+023599999V0209999C000012200019N0200001N1+02381+02111101111ADDAA199000091GA1001+999999999GF100991001001999999001001MD1210121+9999REMSYN054AAXX  17121 54259 32970 00000 10238 20211 40111 52012;EQDQ01  00002PRCP99
0165542590999992000081718004+42090+124940FM-12+023599999V0209999C000012200019N0120001N1+01921+01841101211ADDAA199000091GF102991021051012501001001KA1999M+03131MD1210031+9999REMSYN070AAXX  17181 54259 32662 20000 10192 20184 40121 52003 82500 333 10313;EQDQ01  00002PRCP99
0112542590999992000081721004+42090+124940FM-12+023599999V0209999C000012200019N0120001N1+01761+01661101291ADDGF102991001001999999001021MD1210061+9999REMSYN060AAXX  17211 54259 42962 20000 10176 20166 40129 52006 80002;
0152542590999992000081800004+42090+124940FM-12+023599999V0209999C000019999999N0150001N1+02151+01841101311ADDAA199000091GF107991011001999999031021MD1210021+0021REMSYN070AAXX  18001 54259 32965 70000 10215 20184 40131 52002 81032 333 00200;EQDQ01  00002PRCP99
0112542590999992000081803004+42090+124940FM-12+023599999V0200901N002010120019N0300001N1+02641+01761101221ADDGF107991061051012501001021MD1710081+9999REMSYN060AAXX  18031 54259 42680 70902 10264 20176 40122 57008 86502;
0165542590999992000081806004+42090+124940FM-12+023599999V0200701N002010120019N0300001N1+02731+01751101101ADDAA199000091GF107991061051012501001021KA1999N+01711MD1710121+9999REMSYN070AAXX  18061 54259 32680 70702 10273 20175 40110 57012 86502 333 20171;EQDQ01  00002PRCP99
0112542590999992000081809004+42090+124940FM-12+023599999V0200701N002010120019N0300001N1+02661+01751101091ADDGF107991071051012501999999MD1710021+9999REMSYN060AAXX  18091 54259 42680 70702 10266 20175 40109 57002 875//;
0142542590999992000081812004+42090+124940FM-12+023599999V0200901N001010120019N0200001N1+02321+01711101031ADDAA199000091GF106991061051012501001001MD1710061+9999REMSYN060AAXX  18121 54259 32670 60901 10232 20171 40103 57006 86500;EQDQ01  00002PRCP99
0165542590999992000081818004+42090+124940FM-12+023599999V0209999C000019999999N0200001N1+01811+01591100931ADDAA199000091GF106991001001999999001021KA1999M+02831MD1710051+9999REMSYN070AAXX  18181 54259 32970 60000 10181 20159 40093 57005 80002 333 10283;EQDQ01  00002PRCP99
0112542590999992000081821004+42090+124940FM-12+023599999V0200901N001012200019N0200001N1+01711+01541100891ADDGF101991011051012501001001MD1710051+9999REMSYN060AAXX  18211 54259 42670 10901 10171 20154 40089 57005 81500;
0152542590999992000081900004+42090+124940FM-12+023599999V0201401N001012200019N0300001N1+02151+01701100791ADDAA199000091GF101991001001999999001021MD1710091+0051REMSYN070AAXX  19001 54259 32980 11401 10215 20170 40079 57009 80002 333 05500;EQDQ01  00002PRCP99
0112542590999992000081903004+42090+124940FM-12+023599999V0202001N002012200019N0300001N1+02821+01981100681ADDGF101991011011008001001001MD1710091+9999REMSYN060AAXX  19031 54259 42580 12002 10282 20198 40068 57009 81100;
0165542590999992000081906004+42090+124940FM-12+023599999V0200401N002012200019N0300001N1+02901+01831100541ADDAA199000091GF102991021011008001001001KA1999N+01681MD1710141+9999REMSYN070AAXX  19061 54259 32580 20402 10290 20183 40054 57014 82100 333 20168;EQDQ01  00002PRCP99
0112542590999992000081909004+42090+124940FM-12+023599999V0203201N002010120019N0300001N1+02261+01921100651ADDGF107991071091012501999999MD1210071+9999REMSYN060AAXX  19091 54259 42680 73202 10226 20192 40065 52007 879//;
0157542590999992000081912004+42090+124940FM-12+023599999V0203401N002012200019N0180001N1+01981+01811100731ADDAA106010991AY191061AY281061GF103991031051012501001001MD1210091+9999MW1251REMSYN072AAXX  19121 54259 11668 33402 10198 20181 40073 52009 60111 72598 83500;
0146542590999992000081918004+42090+124940FM-12+023599999V0200401N001010120019N0150001N1+01941+01811100671ADDAA199000021GF106991061051012501001001KA1999M+03021MD1710081+9999REMSYN070AAXX  19181 54259 32665 60401 10194 20181 40067 57008 86500 333 10302;
0133542590999992000081921004+42090+124940FM-12+023599999V0200401N001010120019N0120001N1+01961+01831100701ADDAA124010991GF108991081051012501999999MD1410001+9999REMSYN070AAXX  19211 54259 42662 80401 10196 20183 40070 54000 885// 333 70108;
0139542590999992000082000004+42090+124940FM-12+023599999V0200401N002010120019N0300001N1+02111+01841100751ADDAA124010991GF108991081051012501999999MD1210041-0101REMSYN076AAXX  20001 54259 32680 80402 10211 20184 40075 52004 885// 333 05100 70108;
0112542590999992000082003004+42090+124940FM-12+023599999V0200901N003010120019N0300001N1+02321+01851100731ADDGF108991081051012501999999MD1710011+9999REMSYN060AAXX  20031 54259 42680 80903 10232 20185 40073 57001 885//;
0165542590999992000082006004+42090+124940FM-12+023599999V0200701N003010120019N0300001N1+02451+01781100571ADDAA199000091GF107991071051012501999999KA1999N+01921MD1710151+9999REMSYN070AAXX  20061 54259 32680 70703 10245 20178 40057 57015 875// 333 20192;EQDQ01  00002PRCP99
0112542590999992000082009004+42090+124940FM-12+023599999V0200701N001010120019N0300001N1+02421+01791100531ADDGF108991081051012501999999MD1710041+9999REMSYN060AAXX  20091 54259 42680 80701 10242 20179 40053 57004 885//;
0149542590999992000082012004+42090+124940FM-12+023599999V0200701N003010120019N0180001N1+02201+01821100651ADDAA106000791AY161061GF108991081051012501999999MD1210121+9999MW1001REMSYN072AAXX  20121 54259 11668 80703 10220 20182 40065 52012 69901 70060 885//;
0172542590999992000082018004+42090+124940FM-12+023599999V0200401N003010120019N0120001N1+01941+01761100391ADDAA106001091AY161061GF108991081051012501999999KA1999M+02521MD1710091+9999MW1601REMSYN082AAXX  20181 54259 11662 80403 10194 20176 40039 57009 69991 76060 885// 333 10252;
0161542590999992000082021004+42090+124940FM-12+023599999V0209999C000010120019N0150001N1+01901+01771100381ADDAA124006191AY161031AY261031GF108991081051012501999999MD1710021+9999MW1601REMSYN076AAXX  20211 54259 41665 80000 10190 20177 40038 57002 76066 885// 333 70060;
0125542590999992000082100004+42090+124940FM-12+023599999V0200701N005019999999N0200001N1+01921+99999999999ADDGF108991999999012501999999REMSYN087AAXX  21001 54259 11670 80705 10192 2069 40028 57010 60131 76066 8252/ 333 05552 70142;
0140542590999992000082103004+42090+124940FM-12+023599999V0200401N003010120019N0220001N1+02161+01781100371ADDAY161031AY261031GF108991081051012501999999MD1210091+9999MW1601REMSYN066AAXX  21031 54259 41672 80403 10216 20178 40037 52009 76066 885//;
0180542590999992000082106004+42090+124940FM-12+023599999V0203201N001010120019N0200001N1+02201+01911100381ADDAA106002091AY161061AY261061GF108991081051012501999999KA1999N+01861MD1210011+9999MW1601REMSYN082AAXX  21061 54259 11670 83201 10220 20191 40038 52001 60021 76066 885// 333 20186;
0140542590999992000082109004+42090+124940FM-12+023599999V0200701N003010120019N0200001N1+02131+01851100461ADDAY161031AY261031GF108991081051012501999999MD1210071+9999MW1601REMSYN066AAXX  21091 54259 41670 80703 10213 20185 40046 52007 76066 885//;
0157542590999992000082112004+42090+124940FM-12+023599999V0203201N001010120019N0120001N1+01971+01911100621ADDAA106004191AY161061AY261061GF108991081051012501999999MD1210151+9999MW1601REMSYN072AAXX  21121 54259 11662 83201 10197 20191 40062 52015 60041 76066 885//;
0172542590999992000082118004+42090+124940FM-12+023599999V0203201N001010120019N0150001N1+01891+01811100741ADDAA106000191AY161061GF107991071051012501999999KA1999M+02231MD1210031+9999MW1001REMSYN082AAXX  21181 54259 11665 73201 10189 20181 40074 52003 69911 70060 875// 333 10223;
0145542590999992000082121004+42090+124940FM-12+023599999V0202201N002010120019N0020001N1+01811+01781100891ADDAA124014591GF107991071051012501999999MD1210141+9999MW1101REMSYN076AAXX  21211 54259 41620 72202 10181 20178 40089 52014 71000 875// 333 70145;
0139542590999992000082200004+42090+124940FM-12+023599999V0202201N003012200019N0200001N1+02021+01801101021ADDAA124006491GF101991011051012501001001MD1210131+0701REMSYN076AAXX  22001 54259 32670 12203 10202 20180 40102 52013 81500 333 00701 70063;
0112542590999992000082203004+42090+124940FM-12+023599999V0202501N004010120019N0300001N1+02361+01851101051ADDGF106991061051012501001001MD1210041+9999REMSYN060AAXX  22031 54259 42680 62504 10236 20185 40105 52004 86500;
0165542590999992000082206004+42090+124940FM-12+023599999V0202201N003012200019N0300001N1+02621+01831101031ADDAA199000091GF102991021011008001001021KA1999N+01781MD1710011+9999REMSYN070AAXX  22061 54259 32580 22203 10262 20183 40103 57001 82102 333 20178;EQDQ01  00002PRCP99
0112542590999992000082209004+42090+124940FM-12+023599999V0202501N003012200019N0280001N1+02601+01681101051ADDGF101991011011008001001001MD1210021+9999REMSYN060AAXX  22091 54259 42578 12503 10260 20168 40105 52002 81100;
0142542590999992000082212004+42090+124940FM-12+023599999V0209999C000012200019N0150001N1+02071+01851101191ADDAA199000091GF104991041051012501001001MD1210121+9999REMSYN060AAXX  22121 54259 32665 40000 10207 20185 40119 52012 84500;EQDQ01  00002PRCP99
0177542590999992000082218004+42090+124940FM-12+023599999V0201101N001010120019N0080001N1+01861+01761101201ADDAA199000091GF108991081051012501999999KA1999M+02711MD1210021+9999MW1101REMSYN076AAXX  22181 54259 31658 81101 10186 20176 40120 52002 71000 885// 333 10271;EQDQ01  00002PRCP99
0124542590999992000082221004+42090+124940FM-12+023599999V0200901N001010120019N0080001N1+01831+01751101201ADDGF108991081051012501999999MD1410001+9999MW1101REMSYN066AAXX  22211 54259 41658 80901 10183 20175 40120 54000 71000 885//;
0157542590999992000082300004+42090+124940FM-12+023599999V0200901N001010120019N0040001N1+01921+01821101171ADDAA106000791GF108991081051012501999999MD1710051+0201MW1601REMSYN088AAXX  23001 54259 11640 80901 10192 20182 40117 57005 69901 76000 885// 333 00251 79999;
0140542590999992000082303004+42090+124940FM-12+023599999V0209999C000010120019N0060001N1+02061+01921101171ADDAY161031AY261031GF108991081051012501999999MD1410001+9999MW1601REMSYN066AAXX  23031 54259 41656 80000 10206 20192 40117 54000 76066 885//;
0180542590999992000082306004+42090+124940FM-12+023599999V0209999C000010120019N0060001N1+02121+02031101131ADDAA106004191AY161061AY261061GF108991061051012501021999KA1999N+01831MD1710041+9999MW1611REMSYN082AAXX  23061 54259 11656 80000 10212 20203 40113 57004 60041 76166 8652/ 333 20183;
0132542590999992000082309004+42090+124940FM-12+023599999V0209999C000010120019N0250001N1+02161+01881101011ADDAY161031GF107991071051012501999999MD1710121+9999MW1001REMSYN066AAXX  23091 54259 41675 70000 10216 20188 40101 57012 70060 875//;
0149542590999992000082312004+42090+124940FM-12+023599999V0202901N001010120019N0120001N1+02011+01841101011ADDAA106000591AY161061GF108991081051012501999999MD1410001+9999MW1001REMSYN072AAXX  23121 54259 11662 82901 10201 20184 40101 54000 69961 70060 885//;
0146542590999992000082318004+42090+124940FM-12+023599999V0202501N002012200019N0120001N1+01981+01811101101ADDAA199000021GF104991041051012501001001KA1999M+02201MD1210061+9999REMSYN070AAXX  23181 54259 32662 42502 10198 20181 40110 52006 84500 333 10220;
0133542590999992000082321004+42090+124940FM-12+023599999V0209999C000010120019N0110001N1+01861+01801101151ADDAA124004891GF108991081051012501999999MD1210051+9999REMSYN070AAXX  23211 54259 42661 80000 10186 20180 40115 52005 885// 333 70047;
0139542590999992000082400004+42090+124940FM-12+023599999V0202501N001010120019N0120001N1+02211+01851101111ADDAA124004891GF107991071051012501999999MD1710031-0101REMSYN076AAXX  24001 54259 32662 72501 10221 20185 40111 57003 875// 333 05103 70047;
0112542590999992000082403004+42090+124940FM-12+023599999V0202201N004010120019N0200001N1+02651+01881101141ADDGF105991051051012501001001MD1210051+9999REMSYN060AAXX  24031 54259 42670 52204 10265 20188 40114 52005 85500;
0165542590999992000082406004+42090+124940FM-12+023599999V0202201N003010120019N0250001N1+02671+01651101001ADDAA199000091GF106991061081008001001001KA1999N+01841MD1710141+9999REMSYN070AAXX  24061 54259 32575 62203 10267 20165 40100 57014 86800 333 20184;EQDQ01  00002PRCP99
0112542590999992000082409004+42090+124940FM-12+023599999V0202501N003012200019N0250001N1+02701+01991100881ADDGF102991011011008001001021MD1710121+9999REMSYN060AAXX  24091 54259 42575 22503 10270 20199 40088 57012 81102;
0152542590999992000082412004+42090+124940FM-12+023599999V0201401N002012200019N0150001N1+02231+01971101011ADDAA199000091GA1001+999999999GF100991001001999999001001MD1210121+9999REMSYN054AAXX  24121 54259 32965 01402 10223 20197 40101 52012;EQDQ01  00002PRCP99
0172542590999992000082418004+42090+124940FM-12+023599999V0209999C000010120019N0150001N1+01881+01801101061ADDAA106000191AY161061GF107991071051012501999999KA1999M+02861MD1210041+9999MW1211REMSYN082AAXX  24181 54259 11665 70000 10188 20180 40106 52004 69911 72160 875// 333 10286;
0161542590999992000082421004+42090+124940FM-12+023599999V0209999C000010120019N0030001N1+01781+01731101031ADDAA124000591AY191031AY281031GF107991071051012501999999MD1710041+9999MW1101REMSYN076AAXX  24211 54259 41630 70000 10178 20173 40103 57004 71098 875// 333 70006;
0173542590999992000082500004+42090+124940FM-12+023599999V0209999C000012200019N0015001N1+02011+01871100991ADDAA106000591AY191061AY281061GF103991031061008001001001MD1710051-0101MW1281REMSYN088AAXX  25001 54259 11515 30000 10201 20187 40099 57005 69951 72898 83600 333 05152 70006;
0122542590999992000082503004+42090+124940FM-12+023599999V0202201N003012200019N0200001N1+02701+02011100881ADDGA1001+999999999GF100991001001999999001001MD1710081+9999REMSYN054AAXX  25031 54259 42970 02203 10270 20201 40088 57008;
0146542590999992000082506004+42090+124940FM-12+023599999V0202501N002012200019N0300001N1+02931+01811100661ADDAA199000021GF101991011011008001001001KA1999N+01761MD1710211+9999REMSYN070AAXX  25061 54259 32580 12502 10293 20181 40066 57021 81100 333 20176;
0122542590999992000082509004+42090+124940FM-12+023599999V0202501N002012200019N0300001N1+02871+01771100551ADDGA1001+999999999GF100991001001999999001001MD1710121+9999REMSYN054AAXX  25091 54259 42980 02502 10287 20177 40055 57012;
0152542590999992000082512004+42090+124940FM-12+023599999V0209999C000012200019N0150001N1+02251+01861100761ADDAA199000091GA1001+999999999GF100991001001999999001001MD1210191+9999REMSYN054AAXX  25121 54259 32965 00000 10225 20186 40076 52019;EQDQ01  00002PRCP99
0175542590999992000082518004+42090+124940FM-12+023599999V0209999C000012200019N0150001N1+01671+01571100841ADDAA199000091GA1001+999999999GF100991001001999999001001KA1999M+02981MD1710081+9999REMSYN064AAXX  25181 54259 32965 00000 10167 20157 40084 57008 333 10298;EQDQ01  00002PRCP99
0112542590999992000082521004+42090+124940FM-12+023599999V0209999C000010120019N0150001N1+01661+01561100841ADDGF107991061051012501001021MD1410001+9999REMSYN060AAXX  25211 54259 42665 70000 10166 20156 40084 54000 86502;
0165542590999992000082600004+42090+124940FM-12+023599999V0209999C000010120019N0080001N1+01891+01761100951ADDAA106001091AY181061GF106991061051012501001001MD1210091+0001MW1101REMSYN088AAXX  26001 54259 11658 60000 10189 20176 40095 52009 60011 71080 86500 333 00051 70010;
0112542590999992000082603004+42090+124940FM-12+023599999V0202201N003012200019N0120001N1+02681+02151100891ADDGF101991011011008001001001MD1710041+9999REMSYN060AAXX  26031 54259 42562 12203 10268 20215 40089 57004 81100;
0165542590999992000082606004+42090+124940FM-12+023599999V0203601N003012200019N0250001N1+02761+01981100831ADDAA199000091GF102991021011008001001001KA1999N+01631MD1710061+9999REMSYN070AAXX  26061 54259 32575 23603 10276 20198 40083 57006 82100 333 20163;EQDQ01  00002PRCP99
0112542590999992000082609004+42090+124940FM-12+023599999V0203401N002012200019N0250001N1+02691+01951100851ADDGF102991021011008001001001MD1210011+9999REMSYN060AAXX  26091 54259 42575 23402 10269 20195 40085 52001 82100;
0142542590999992000082612004+42090+124940FM-12+023599999V0203601N001012200019N0150001N1+02271+01931101031ADDAA199000091GF101991011051012501001001MD1210171+9999REMSYN060AAXX  26121 54259 32665 13601 10227 20193 40103 52017 81500;EQDQ01  00002PRCP99
0175542590999992000082618004+42090+124940FM-12+023599999V0201101N001012200019N0150001N1+01841+01711101131ADDAA199000091GA1001+999999999GF100991001001999999001001KA1999M+02941MD1210021+9999REMSYN064AAXX  26181 54259 32965 01101 10184 20171 40113 52002 333 10294;EQDQ01  00002PRCP99
0143542590999992000082621004+42090+124940FM-12+023599999V0201101N001012200019N0150001N1+01671+01591101191ADDAA124001091GA1001+999999999GF100991001001999999001001MD1210041+9999REMSYN064AAXX  26211 54259 42965 01101 10167 20159 40119 52004 333 70010;
0152542590999992000082700004+42090+124940FM-12+023599999V0200401N003019999999N0180001N1+02021+01701101231ADDAA199000091GF106991001001999999001021MD1210041+0031REMSYN070AAXX  27001 54259 32968 60403 10202 20170 40123 52004 80002 333 00301;EQDQ01  00002PRCP99
0112542590999992000082703004+42090+124940FM-12+023599999V0200901N002010900019N0180001N1+02341+01911101241ADDGF107991041051012501001021MD1210011+9999REMSYN060AAXX  27031 54259 42668 70902 10234 20191 40124 52001 84502;
0165542590999992000082706004+42090+124940FM-12+023599999V0200901N002010900019N0250001N1+02721+02001101071ADDAA199000091GF107991011011008001001021KA1999N+01671MD1710151+9999REMSYN070AAXX  27061 54259 32575 70902 10272 20200 40107 57015 81102 333 20167;EQDQ01  00002PRCP99
0112542590999992000082709004+42090+124940FM-12+023599999V0209999C000010120019N0250001N1+02741+01951101081ADDGF106991061051012501001001MD1410001+9999REMSYN060AAXX  27091 54259 42675 60000 10274 20195 40108 54000 86500;
0152542590999992000082712004+42090+124940FM-12+023599999V0200201N001012200019N0180001N1+02281+02011101301ADDAA199000091GA1001+999999999GF100991001001999999001001MD1210211+9999REMSYN054AAXX  27121 54259 32968 00201 10228 20201 40130 52021;EQDQ01  00002PRCP99
0165542590999992000082718004+42090+124940FM-12+023599999V0209999C000019999999N0120001N1+01851+01771101351ADDAA199000091GF107991001001999999001021KA1999M+02831MD1210021+9999REMSYN070AAXX  27181 54259 32962 70000 10185 20177 40135 52002 80002 333 10283;EQDQ01  00002PRCP99
0112542590999992000082721004+42090+124940FM-12+023599999V0209999C000010120019N0120001N1+01881+01801101411ADDGF108991081051012501999999MD1210061+9999REMSYN060AAXX  27211 54259 42662 80000 10188 20180 40141 52006 885//;
0152542590999992000082800004+42090+124940FM-12+023599999V0200901N003010120019N0120001N1+02081+01921101441ADDAA199000091GF108991081051012501999999MD1210021+0021REMSYN070AAXX  28001 54259 32662 80903 10208 20192 40144 52002 885// 333 00201;EQDQ01  00002PRCP99
0112542590999992000082803004+42090+124940FM-12+023599999V0200401N002010075019N0200001N1+02481+02031101411ADDGF107991061011008001001021MD1710031+9999REMSYN060AAXX  28031 54259 42570 70402 10248 20203 40141 57003 86102;
0165542590999992000082806004+42090+124940FM-12+023599999V0209999C000010900019N0300001N1+02831+02121101251ADDAA199000091GF107991021011008001001021KA1999N+01781MD1710141+9999REMSYN070AAXX  28061 54259 32580 70000 10283 20212 40125 57014 82102 333 20178;EQDQ01  00002PRCP99
0112542590999992000082809004+42090+124940FM-12+023599999V0203401N001010120019N0300001N1+02591+02081101191ADDGF108991081051012501999999MD1710071+9999REMSYN060AAXX  28091 54259 42680 83401 10259 20208 40119 57007 885//;
0149542590999992000082812004+42090+124940FM-12+023599999V0200901N001010120019N0200001N1+02301+02181101281ADDAA106003091AY161061GF108991081051012501999999MD1210081+9999MW1601REMSYN072AAXX  28121 54259 11670 80901 10230 20218 40128 52008 60031 76060 885//;
0145542590999992000082821004+42090+124940FM-12+023599999V0200901N001010120019N0080001N1+01941+01881101271ADDAA124005691GF108991081051012501999999MD1710031+9999MW1101REMSYN076AAXX  28211 54259 41658 80901 10194 20188 40127 57003 71000 885// 333 70056;
0151542590999992000082900004+42090+124940FM-12+023599999V0203601N001010120019N0080001N1+02181+01951101291ADDAA124005691GF107991071051012501999999MD1210021-0101MW1101REMSYN082AAXX  29001 54259 31658 73601 10218 20195 40129 52002 71000 875// 333 05101 70056;
0112542590999992000082903004+42090+124940FM-12+023599999V0202201N002010900019N0300001N1+02681+02081101211ADDGF107991031011008001001021MD1710071+9999REMSYN060AAXX  29031 54259 42580 72202 10268 20208 40121 57007 83102;
0165542590999992000082906004+42090+124940FM-12+023599999V0202201N002010120019N0300001N1+02601+02001101151ADDAA199000091GF108991081051012501999999KA1999N+01941MD1710071+9999REMSYN070AAXX  29061 54259 32680 82202 10260 20200 40115 57007 885// 333 20194;EQDQ01  00002PRCP99
0112542590999992000082909004+42090+124940FM-12+023599999V0202001N002010120019N0300001N1+02381+02001101121ADDGF108991081051012501999999MD1710041+9999REMSYN060AAXX  29091 54259 42680 82002 10238 20200 40112 57004 885//;
0149542590999992000082912004+42090+124940FM-12+023599999V0202901N001010120019N0220001N1+02161+01941101191ADDAA106000791AY161061GF108991081051012501999999MD1210071+9999MW1601REMSYN072AAXX  29121 54259 11672 82901 10216 20194 40119 52007 69901 76060 885//;
0172542590999992000082918004+42090+124940FM-12+023599999V0201101N001012200019N0120001N1+01921+01821101271ADDAA106000191AY161061GF101991011051012501001001KA1999M+02741MD1210011+9999MW1001REMSYN082AAXX  29181 54259 11662 11101 10192 20182 40127 52001 69911 70060 81500 333 10274;
0133542590999992000082921004+42090+124940FM-12+023599999V0200901N001012200019N0150001N1+01791+01721101331ADDAA124000191GF101991011051012501001001MD1210041+9999REMSYN070AAXX  29211 54259 42665 10901 10179 20172 40133 52004 81500 333 70001;
0138542590999992000083000004+42090+124940FM-12+023599999V0201801N001012200019N0120001N1+02091+01871101351ADDAA199000021GF101991001001999999001021MD1210021+9999REMSYN075AAXX  30001 54259 32962 11801 10209 20187 40135 52002 80002 333 0051 70001;
0112542590999992000083003004+42090+124940FM-12+023599999V0209999C000010075019N0300001N1+02761+02031101211ADDGF105991051011008001001001MD1710111+9999REMSYN060AAXX  30031 54259 42580 50000 10276 20203 40121 57011 85100;
0165542590999992000083006004+42090+124940FM-12+023599999V0202501N003012200019N0300001N1+02911+01891101051ADDAA199000091GF104991041011008001001001KA1999N+01791MD1710151+9999REMSYN070AAXX  30061 54259 32580 42503 10291 20189 40105 57015 84100 333 20179;EQDQ01  00002PRCP99
0112542590999992000083009004+42090+124940FM-12+023599999V0202201N001010900019N0300001N1+02821+02011100991ADDGF107991011011008001001021MD1710071+9999REMSYN060AAXX  30091 54259 42580 72201 10282 20201 40099 57007 81102;
0152542590999992000083012004+42090+124940FM-12+023599999V0209999C000012200019N0150001N1+02391+02091101101ADDAA199000091GA1001+999999999GF100991001001999999001001MD1210101+9999REMSYN054AAXX  30121 54259 32965 00000 10239 20209 40110 52010;EQDQ01  00002PRCP99
0165542590999992000083018004+42090+124940FM-12+023599999V0201101N001010120019N0150001N1+02101+01981100971ADDAA199000091GF108991081051012501999999KA1999M+03041MD1710091+9999REMSYN070AAXX  30181 54259 32665 81101 10210 20198 40097 57009 885// 333 10304;EQDQ01  00002PRCP99
0112542590999992000083021004+42090+124940FM-12+023599999V0200901N001010120019N0150001N1+02011+01961100911ADDGF108991081051012501999999MD1710071+9999REMSYN060AAXX  30211 54259 42665 80901 10201 20196 40091 57007 885//;
0152542590999992000083100004+42090+124940FM-12+023599999V0202501N001010120019N0250001N1+02211+02011100921ADDAA199000091GF108991051051012501001071MD1410001+0041REMSYN070AAXX  31001 54259 32675 82501 10221 20201 40092 54000 85507 333 05401;EQDQ01  00002PRCP99
0112542590999992000083103004+42090+124940FM-12+023599999V0200901N002010120019N0300001N1+02641+02061100761ADDGF108991081051012501999999MD1710141+9999REMSYN060AAXX  31031 54259 42680 80902 10264 20206 40076 57014 885//;
0165542590999992000083106004+42090+124940FM-12+023599999V0200401N001010360019N0300001N1+02871+02051100531ADDAA199000091GF107991011011008001031999KA1999N+02011MD1710221+9999REMSYN070AAXX  31061 54259 32580 70401 10287 20205 40053 57022 8113/ 333 20201;EQDQ01  00002PRCP99
0112542590999992000083109004+42090+124940FM-12+023599999V0200401N002010120019N0300001N1+02691+02141100361ADDGF108991081051012501999999MD1710181+9999REMSYN060AAXX  31091 54259 42680 80402 10269 20214 40036 57018 885//;
0141542590999992000083112004+42090+124940FM-12+023599999V0200701N001010120019N0150001N1+02451+02171100231ADDAA106000791GF108991081051012501999999MD1710131+9999MW1601REMSYN072AAXX  31121 54259 11665 80701 10245 20217 40023 57013 69901 76000 885//;
0180542590999992000083118004+42090+124940FM-12+023599999V0200701N002010120019N0120001N1+02291+02051099751ADDAA106000591AY161061AY261061GF108991081051012501999999KA1999M+02941MD1710241+9999MW1601REMSYN082AAXX  31181 54259 11662 80702 10229 20205 49975 57024 69961 76066 885// 333 10294;
0161542590999992000083121004+42090+124940FM-12+023599999V0200401N002010120019N0150001N1+02271+02011099681ADDAA124000891AY161031AY261031GF108991081051012501999999MD1710081+9999MW1601REMSYN076AAXX  31211 54259 41665 80402 10227 20201 49968 57008 76066 885// 333 70007;
0173542590999992000090100004+42090+124940FM-12+023599999V0203401N002010120019N0150001N1+02281+02041099861ADDAA106001091AY161061AY261061GF108991081051012501999999MD1210171-1001MW1601REMSYN088AAXX  01001 54259 11665 83402 10228 20204 49986 52017 69991 76066 885// 333 06001 70015;
0132542590999992000090103004+42090+124940FM-12+023599999V0203201N003010120019N0300001N1+02561+02051100041ADDAY161031GF107991071051012501999999MD1210181+9999MW1001REMSYN066AAXX  01031 54259 41680 73203 10256 20205 40004 52018 70060 875//;
0172542590999992000090106004+42090+124940FM-12+023599999V0202901N002010120019N0300001N1+02761+02111100101ADDAA106000791AY161061GF105991051051012501001001KA1999N+02261MD1210061+9999MW1001REMSYN082AAXX  01061 54259 11680 52902 10276 20211 40010 52006 69901 70060 85500 333 20226;
0124542590999992000090109004+42090+124940FM-12+023599999V0200901N001010120019N0250001N1+02331+02211100271ADDGF107991071091012501999999MD1210151+9999MW1251REMSYN066AAXX  01091 54259 41675 70901 10233 20221 40027 52015 72500 879//;
0149542590999992000090112004+42090+124940FM-12+023599999V0209999C000010120019N0120001N1+02261+02051100501ADDAA106005191AY181061GF108991081091012501999999MD1210221+9999MW1801REMSYN072AAXX  01121 54259 11662 80000 10226 20205 40050 52022 60051 78080 889//;
0158542590999992000090118004+42090+124940FM-12+023599999V0202701N001010120019N0030001N1+02101+02041100761ADDAA199000021GF108991081051012501999999KA1999M+02851MD1210141+9999MW1101REMSYN076AAXX  01181 54259 31630 82701 10210 20204 40076 52014 71000 885// 333 10285;
0163542590999992000090121004+42090+124940FM-12+023599999V0209999C000010006019N0008001N1+02061+02011100891ADDAA124005691AY141031GA1091+999999999GF109991091999999999999999MD1210101+9999MW1471REMSYN070AAXX  01211 54259 41/08 90000 10206 20201 40089 52010 74740 333 70055;
0169542590999992000090200004+42090+124940FM-12+023599999V0209999C000010006019N0009001N1+02101+02041101061ADDAA124004891AY141061GA1091+999999999GF109991091999999999999999MD1210171+1201MW1431REMSYN076AAXX  02001 54259 31/09 90000 10210 20204 40106 52017 74340 333 01252 70047;
0132542590999992000090203004+42090+124940FM-12+023599999V0200201N002012200019N0280001N1+02721+02081101051ADDAY141031GF102991021011008001001001MD1210011+9999MW1001REMSYN066AAXX  02031 54259 41578 20202 10272 20208 40105 52001 70040 82100;
0185542590999992000090206004+42090+124940FM-12+023599999V0200901N003010075019N0300001N1+02951+01971100961ADDAA199000091AY141061GF105991051011008001001001KA1999N+02051MD1710081+9999MW1001REMSYN076AAXX  02061 54259 31580 50903 10295 20197 40096 57008 70040 85100 333 20205;EQDQ01  00002PRCP99
0112542590999992000090209004+42090+124940FM-12+023599999V0200901N003012200019N0300001N1+02841+01971100991ADDGF101991011011008001001001MD1210021+9999REMSYN060AAXX  02091 54259 42580 10903 10284 20197 40099 52002 81100;
0152542590999992000090212004+42090+124940FM-12+023599999V0200901N001012200019N0150001N1+02351+02051101191ADDAA199000091GA1001+999999999GF100991001001999999001001MD1210181+9999REMSYN054AAXX  02121 54259 32965 00901 10235 20205 40119 52018;EQDQ01  00002PRCP99
0165542590999992000090218004+42090+124940FM-12+023599999V0209999C000010120019N0120001N1+01931+01881101251ADDAA199000091GF107991071051012501999999KA1999M+03001MD1710011+9999REMSYN070AAXX  02181 54259 32662 70000 10193 20188 40125 57001 875// 333 10300;EQDQ01  00002PRCP99
0142542590999992000090221004+42090+124940FM-12+023599999V0200901N001010006019N0007001N1+01831+01801101311ADDAY141031GA1091+999999999GF109991091999999999999999MD1210041+9999MW1471REMSYN060AAXX  02211 54259 41/07 90901 10183 20180 40131 52004 74740;
0172542590999992000090300004+42090+124940FM-12+023599999V0209999C000010075019N0018001N1+02021+01911101361ADDAA199000091AY141061GF106991061061008001001001MD1210041+0031MW1281REMSYN076AAXX  03001 54259 31518 60000 10202 20191 40136 52004 72840 86600 333 00351;EQDQ01  00002PRCP99
0112542590999992000090303004+42090+124940FM-12+023599999V0201601N001012200019N0300001N1+02891+02011101251ADDGF102991021011008001001001MD1710081+9999REMSYN060AAXX  03031 54259 42580 21601 10289 20201 40125 57008 82100;
0165542590999992000090306004+42090+124940FM-12+023599999V0200901N002012200019N0300001N1+03091+01731101081ADDAA199000091GF101991011011008001001001KA1999N+01821MD1710161+9999REMSYN070AAXX  03061 54259 32580 10902 10309 20173 40108 57016 81100 333 20182;EQDQ01  00002PRCP99
0112542590999992000090309004+42090+124940FM-12+023599999V0201101N001012200019N0300001N1+03011+01891101051ADDGF102991021011008001001001MD1710041+9999REMSYN060AAXX  03091 54259 42580 21101 10301 20189 40105 57004 82100;
0152542590999992000090312004+42090+124940FM-12+023599999V0200701N001012200019N0180001N1+02401+02071101241ADDAA199000091GA1001+999999999GF100991001001999999001001MD1210161+9999REMSYN054AAXX  03121 54259 32968 00701 10240 20207 40124 52016;EQDQ01  00002PRCP99
0165542590999992000090318004+42090+124940FM-12+023599999V0209999C000010120019N0120001N1+01991+01901101221ADDAA199000091GF106991061051012501001001KA1999M+03131MD1410001+9999REMSYN070AAXX  03181 54259 32662 60000 10199 20190 40122 54000 86500 333 10313;EQDQ01  00002PRCP99
0134542590999992000090321004+42090+124940FM-12+023599999V0209999C000010003019N0004001N1+01881+01851101211ADDGA1091+999999999GF109991091999999999999999MD1710011+9999MW1471REMSYN060AAXX  03211 54259 41/04 90000 10188 20185 40121 57001 74700;
0172542590999992000090400004+42090+124940FM-12+023599999V0201401N001012200019N0050001N1+02151+01921101231ADDAA199000091AY141061GF104991001001999999001021MD1410001+0011MW1281REMSYN076AAXX  04001 54259 31950 41401 10215 20192 40123 54000 72840 80002 333 05101;EQDQ01  00002PRCP99
0112542590999992000090403004+42090+124940FM-12+023599999V0202001N003012200019N0300001N1+02911+01941101131ADDGF102991021011008001001001MD1710081+9999REMSYN060AAXX  04031 54259 42580 22003 10291 20194 40113 57008 82100;
0165542590999992000090406004+42090+124940FM-12+023599999V0202701N003010900019N0300001N1+03031+01881100971ADDAA199000091GF107991011011008001001021KA1999N+01881MD1710151+9999REMSYN070AAXX  04061 54259 32580 72703 10303 20188 40097 57015 81102 333 20188;EQDQ01  00002PRCP99
0112542590999992000090409004+42090+124940FM-12+023599999V0202201N001012200019N0250001N1+02811+01901100891ADDGF103991031051012501001001MD1710091+9999REMSYN060AAXX  04091 54259 42675 32201 10281 20190 40089 57009 83500;
0142542590999992000090412004+42090+124940FM-12+023599999V0202701N002010120019N0250001N1+02101+01661101201ADDAA199000091GF108991081051012501999999MD1210281+9999REMSYN060AAXX  04121 54259 32675 82702 10210 20166 40120 52028 885//;EQDQ01  00002PRCP99
0165542590999992000090418004+42090+124940FM-12+023599999V0200901N001010120019N0120001N1+01701+01311101331ADDAA199000091GF108991081051012501999999KA1999M+03071MD1210011+9999REMSYN070AAXX  04181 54259 32662 80901 10170 20131 40133 52001 885// 333 10307;EQDQ01  00002PRCP99
0153542590999992000090421004+42090+124940FM-12+023599999V0200701N004010120019N0300001N1+01521+01291101471ADDAA124000591AY161031GF108991081051012501999999MD1210111+9999MW1211REMSYN076AAXX  04211 54259 41680 80704 10152 20129 40147 52011 72160 885// 333 70004;
0165542590999992000090500004+42090+124940FM-12+023599999V0200901N002010120019N0300001N1+01411+01171101571ADDAA106000591AY161061GF108991081051012501999999MD1210061+0301MW1601REMSYN088AAXX  05001 54259 11680 80902 10141 20117 40157 52006 69961 76060 885// 333 00357 70006;
0132542590999992000090503004+42090+124940FM-12+023599999V0200901N001010120019N0300001N1+01501+01111101601ADDAY161031GF108991081051012501999999MD1210021+9999MW1601REMSYN066AAXX  05031 54259 41680 80901 10150 20111 40160 52002 76060 885//;
0172542590999992000090506004+42090+124940FM-12+023599999V0200701N003010120019N0300001N1+01591+01191101491ADDAA106000191AY161061GF108991081051012501999999KA1999N+01401MD1710101+9999MW1601REMSYN082AAXX  05061 54259 11680 80703 10159 20119 40149 57010 69911 76060 885// 333 20140;
0112542590999992000090509004+42090+124940FM-12+023599999V0200701N002010900019N0280001N1+01661+01051101451ADDGF107991021051012501001021MD1710051+9999REMSYN060AAXX  05091 54259 42678 70702 10166 20105 40145 57005 82502;
0123542590999992000090512004+42090+124940FM-12+023599999V0203401N001012200019N0200001N1+01401+01141101501ADDAA199000021GF101991001001999999001021MD1210031+9999REMSYN060AAXX  05121 54259 32970 13401 10140 20114 40150 52003 80002;
0158542590999992000090518004+42090+124940FM-12+023599999V0203401N001010120019N0060001N1+01111+01051101441ADDAA199000021GF106991061051012501001001KA1999M+01721MD1710031+9999MW1101REMSYN076AAXX  05181 54259 31656 63401 10111 20105 40144 57003 71000 86500 333 10172;
0163542590999992000090521004+42090+124940FM-12+023599999V0202001N002010006019N0007001N1+01101+01061101441ADDAA124000391AY141031GA1091+999999999GF109991091999999999999999MD1410001+9999MW1471REMSYN070AAXX  05211 54259 41/07 92002 10110 20106 40144 54000 74740 333 70003;
0159542590999992000090600004+42090+124940FM-12+023599999V0202201N002010075019N0060001N1+01241+01071101491ADDAA124000191AY141061GF106991061061008001001001MD1210041-0101MW1281REMSYN082AAXX  06001 54259 31556 62202 10124 20107 40149 52004 72840 86600 333 05152 70001;
0112542590999992000090603004+42090+124940FM-12+023599999V0202701N002012200019N0300001N1+01911+00941101351ADDGF102991021011008001001001MD1710111+9999REMSYN060AAXX  06031 54259 42580 22702 10191 20094 40135 57011 82100;
0165542590999992000090606004+42090+124940FM-12+023599999V0202701N003012200019N0300001N1+02181+00361101221ADDAA199000091GF102991021011008001001001KA1999N+01101MD1710121+9999REMSYN070AAXX  06061 54259 32580 22703 10218 20036 40122 57012 82100 333 20110;EQDQ01  00002PRCP99
0112542590999992000090609004+42090+124940FM-12+023599999V0200701N002012200019N0300001N1+02111+00461101241ADDGF101991011011008001001001MD1210021+9999REMSYN060AAXX  06091 54259 42580 10702 10211 20046 40124 52002 81100;
0152542590999992000090612004+42090+124940FM-12+023599999V0209999C000012200019N0200001N1+01371+00821101491ADDAA199000091GA1001+999999999GF100991001001999999001001MD1210211+9999REMSYN054AAXX  06121 54259 32970 00000 10137 20082 40149 52021;EQDQ01  00002PRCP99
0175542590999992000090618004+42090+124940FM-12+023599999V0209999C000012200019N0150001N1+00791+00661101641ADDAA199000091GA1001+999999999GF100991001001999999001001KA1999M+02301MD1210061+9999REMSYN064AAXX  06181 54259 32965 00000 10079 20066 40164 52006 333 10230;EQDQ01  00002PRCP99
0122542590999992000090621004+42090+124940FM-12+023599999V0209999C000012200019N0150001N1+00661+00551101681ADDGA1001+999999999GF100991001001999999001001MD1210031+9999REMSYN054AAXX  06211 54259 42965 00000 10066 20055 40168 52003;
0152542590999992000090700004+42090+124940FM-12+023599999V0209999C000010120019N0120001N1+01261+01051101511ADDAA199000091GF107991071051012501999999MD1410001+0051REMSYN070AAXX  23001 54259 32662 70000 10126 20105 40151 54000 875// 333 05551;EQDQ01  00002PRCP99
0122542590999992000090703004+42090+124940FM-12+023599999V0202001N003012200019N0300001N1+02211+00441101611ADDGA1001+999999999GF100991001001999999001001MD1710091+9999REMSYN054AAXX  07031 54259 42980 02003 10221 20044 40161 57009;
0165542590999992000090706004+42090+124940FM-12+023599999V0202201N002012200019N0300001N1+02491+00471101481ADDAA199000091GF102991021011008001001001KA1999N+00651MD1710121+9999REMSYN070AAXX  07061 54259 32580 22202 10249 20047 40148 57012 82100 333 20065;EQDQ01  00002PRCP99
0112542590999992000090709004+42090+124940FM-12+023599999V0203401N002012200019N0300001N1+02281+00931101501ADDGF101991011011008001001001MD1410001+9999REMSYN060AAXX  07091 54259 42580 13402 10228 20093 40150 54000 81100;
0152542590999992000090712004+42090+124940FM-12+023599999V0209999C000012200019N0200001N1+01571+01031101701ADDAA199000091GA1001+999999999GF100991001001999999001001MD1210181+9999REMSYN054AAXX  07121 54259 32970 00000 10157 20103 40170 52018;EQDQ01  00002PRCP99
0175542590999992000090718004+42090+124940FM-12+023599999V0209999C000012200019N0200001N1+00981+00861101841ADDAA199000091GA1001+999999999GF100991001001999999001001KA1999M+02571MD1210081+9999REMSYN064AAXX  07181 54259 32970 00000 10098 20086 40184 52008 333 10257;EQDQ01  00002PRCP99
0122542590999992000090721004+42090+124940FM-12+023599999V0209999C000012200019N0200001N1+00831+00721101901ADDGA1001+999999999GF100991001001999999001001MD1210051+9999REMSYN054AAXX  07211 54259 42970 00000 10083 20072 40190 52005;
0162542590999992000090800004+42090+124940FM-12+023599999V0209999C000012200019N0250001N1+01391+00901101981ADDAA199000091GA1001+999999999GF100991001001999999001001MD1210071+0031REMSYN064AAXX  08001 54259 32975 00000 10139 20090 40198 52007 333 00302;EQDQ01  00002PRCP99
0141542590999992000090803004+42090+124940FM-12+023599999V0202701N002012200019N0300001N1+02512+00861101861ADDGA1001+999999999GF100991001001999999001001MD1710091+9999REMSYN054AAXX  08031 54259 42980 02702 10251 20086 40186 57009;EQDQ01+002513ATOT  
0175542590999992000090806004+42090+124940FM-12+023599999V0202501N002012200019N0300001N1+02691+00421101691ADDAA199000091GA1001+999999999GF100991001001999999001001KA1999N+00821MD1710161+9999REMSYN064AAXX  08061 54259 32980 02502 10269 20042 40169 57016 333 20082;EQDQ01  00002PRCP99
0122542590999992000090809004+42090+124940FM-12+023599999V0201101N002012200019N0300001N1+02521+00831101671ADDGA1001+999999999GF100991001001999999001001MD1710041+9999REMSYN054AAXX  08091 54259 42980 01102 10252 20083 40167 57004;
0142542590999992000090812004+42090+124940FM-12+023599999V0201101N001012200019N0200001N1+01681+01151101941ADDAA199000091GF101991011051012501001001MD1210251+9999REMSYN060AAXX  08121 54259 32670 11101 10168 20115 40194 52025 81500;EQDQ01  00002PRCP99
0175542590999992000090818004+42090+124940FM-12+023599999V0209999C000012200019N0200001N1+01141+00961101911ADDAA199000091GA1001+999999999GF100991001001999999001001KA1999M+02761MD1710021+9999REMSYN064AAXX  08181 54259 32970 00000 10114 20096 40191 57002 333 10276;EQDQ01  00002PRCP99
0162542590999992000090900004+42090+124940FM-12+023599999V0209999C000012200019N0250001N1+01451+00991101941ADDAA199000091GA1001+999999999GF100991001001999999001001MD1410001+0001REMSYN064AAXX  09001 54259 32975 00000 10145 20099 40194 54000 333 00001;EQDQ01  00002PRCP99
0122542590999992000090903004+42090+124940FM-12+023599999V0202001N002012200019N0300001N1+02481+01041101801ADDGA1001+999999999GF100991001001999999001001MD1710111+9999REMSYN054AAXX  09031 54259 42980 02002 10248 20104 40180 57011;
0165542590999992000090906004+42090+124940FM-12+023599999V0201801N003012200019N0300001N1+02721+00541101491ADDAA199000091GF102991021011008001001001KA1999N+00961MD1710301+9999REMSYN070AAXX  09061 54259 32580 21803 10272 20054 40149 57030 82100 333 20096;EQDQ01  00002PRCP99
0132542590999992000090909004+42090+124940FM-12+023599999V0202201N001010900019N0300001N1+02251+01271101531ADDAY191031GF107991031011008001001021MD1210011+9999MW1291REMSYN066AAXX  09091 54259 41580 72201 10225 20127 40153 52001 72990 83102;
0162542590999992000090912004+42090+124940FM-12+023599999V0209999C000010120019N0200001N1+01731+01311101751ADDAA199000091AY191061GF106991061051012501001001MD1210211+9999MW1001REMSYN066AAXX  09121 54259 31670 60000 10173 20131 40175 52021 70090 86500;EQDQ01  00002PRCP99
0175542590999992000090918004+42090+124940FM-12+023599999V0209999C000012200019N0200001N1+01161+01031101751ADDAA199000091GA1001+999999999GF100991001001999999001001KA1999M+02771MD1710021+9999REMSYN064AAXX  09181 54259 32970 00000 10116 20103 40175 57002 333 10277;EQDQ01  00002PRCP99
0124542590999992000090921004+42090+124940FM-12+023599999V0209999C000010120019N0060001N1+01081+01001101791ADDGF105991051051012501001001MD1210011+9999MW1101REMSYN066AAXX  09211 54259 41656 50000 10108 20100 40179 52001 71000 85500;
0164542590999992000091000004+42090+124940FM-12+023599999V0209999C000012200019N0080001N1+01221+01051101831ADDAA199000091GF104991041051012501001001MD1210021+0011MW1101REMSYN076AAXX  10001 54259 31658 40000 10122 20105 40183 52002 71000 84500 333 05152;EQDQ01  00002PRCP99
0131542590999992000091003004+42090+124940FM-12+023599999V0202201N004012200019N0300001N1+02322+00761101671ADDGF101991011011008001001001MD1710121+9999REMSYN060AAXX  10031 54259 42580 12204 10232 20076 40167 57012 81100;EQDQ01+002323ATOT  
0165542590999992000091006004+42090+124940FM-12+023599999V0202001N003012200019N0300001N1+02491+00841101471ADDAA199000091GF101991011011008001001001KA1999N+01051MD1710201+9999REMSYN070AAXX  10061 54259 32580 12003 10249 20084 40147 57020 81100 333 20105;EQDQ01  00002PRCP99
0122542590999992000091009004+42090+124940FM-12+023599999V0202501N002012200019N0300001N1+02421+00811101381ADDGA1001+999999999GF100991001001999999001001MD1710091+9999REMSYN054AAXX  10091 54259 42980 02502 10242 20081 40138 57009;
0152542590999992000091012004+42090+124940FM-12+023599999V0209999C000012200019N0200001N1+01671+01121101601ADDAA199000091GA1001+999999999GF100991001001999999001001MD1210181+9999REMSYN054AAXX  10121 54259 32970 00000 10167 20112 40160 52018;EQDQ01  00002PRCP99
0175542590999992000091018004+42090+124940FM-12+023599999V0201101N001012200019N0150001N1+01131+00951101681ADDAA199000091GA1001+999999999GF100991001001999999001001KA1999M+02621MD1210081+9999REMSYN064AAXX  10181 54259 32965 01101 10113 20095 40168 52008 333 10262;EQDQ01  00002PRCP99
0112542590999992000091021004+42090+124940FM-12+023599999V0201101N001012200019N0150001N1+00951+00811101731ADDGF101991011051012501001001MD1210031+9999REMSYN060AAXX  10211 54259 42665 11101 10095 20081 40173 52003 81500;
0152542590999992000091100004+42090+124940FM-12+023599999V0209999C000010900019N0150001N1+01261+00931101781ADDAA199000091GF107991021051012501001021MD1210031+0011REMSYN070AAXX  11001 54259 32665 70000 10126 20093 40178 52003 82502 333 05100;EQDQ01  00002PRCP99
0131542590999992000091103004+42090+124940FM-12+023599999V0200901N002019999999N0300001N1+02422+01081101671ADDGF107991001001999999001021MD1710071+9999REMSYN060AAXX  11031 54259 42980 70902 10242 20108 40167 57007 80002;EQDQ01+002423ATOT  
0165542590999992000091106004+42090+124940FM-12+023599999V0200701N003010900019N0300001N1+02561+01061101551ADDAA199000091GF107991011011008001001021KA1999N+00931MD1710121+9999REMSYN070AAXX  11061 54259 32580 70703 10256 20106 40155 57012 81102 333 20093;EQDQ01  00002PRCP99
0112542590999992000091109004+42090+124940FM-12+023599999V0200701N003010900019N0300001N1+02331+00971101591ADDGF107991011011008001001021MD1210021+9999REMSYN060AAXX  11091 54259 42580 70703 10233 20097 40159 52002 81102;
0152542590999992000091112004+42090+124940FM-12+023599999V0200901N001012200019N0200001N1+01681+01171101751ADDAA199000091GA1001+999999999GF100991001001999999001001MD1210141+9999REMSYN054AAXX  11121 54259 32970 00901 10168 20117 40175 52014;EQDQ01  00002PRCP99
0175542590999992000091118004+42090+124940FM-12+023599999V0200901N001012200019N0200001N1+01121+00961101791ADDAA199000091GA1001+999999999GF100991001001999999001001KA1999M+02601MD1210031+9999REMSYN064AAXX  11181 54259 32970 00901 10112 20096 40179 52003 333 10260;EQDQ01  00002PRCP99
0122542590999992000091121004+42090+124940FM-12+023599999V0200901N001012200019N0180001N1+01021+00881101881ADDGA1001+999999999GF100991001001999999001001MD1210071+9999REMSYN054AAXX  11211 54259 42968 00901 10102 20088 40188 52007;
0162542590999992000091200004+42090+124940FM-12+023599999V0200401N002012200019N0250001N1+01591+00961101951ADDAA199000091GA1001+999999999GF100991001001999999001001MD1210061+0021REMSYN064AAXX  12001 54259 32975 00402 10159 20096 40195 52006 333 00203;EQDQ01  00002PRCP99
0122542590999992000091203004+42090+124940FM-12+023599999V0200901N002012200019N0300001N1+02371+01191101881ADDGA1001+999999999GF100991001001999999001001MD1710051+9999REMSYN054AAXX  12031 54259 42980 00902 10237 20119 40188 57005;
0165542590999992000091206004+42090+124940FM-12+023599999V0200901N002012200019N0300001N1+02631+00951101741ADDAA199000091GF101991011011008001001001KA1999N+01021MD1710131+9999REMSYN070AAXX  12061 54259 32580 10902 10263 20095 40174 57013 81100 333 20102;EQDQ01  00002PRCP99
0122542590999992000091209004+42090+124940FM-12+023599999V0200701N003012200019N0300001N1+02441+00961101741ADDGA1001+999999999GF100991001001999999001001MD1710011+9999REMSYN054AAXX  12091 54259 42980 00703 10244 20096 40174 57001;
0152542590999992000091212004+42090+124940FM-12+023599999V0200901N001012200019N0200001N1+01731+01231101891ADDAA199000091GA1001+999999999GF100991001001999999001001MD1210141+9999REMSYN054AAXX  12121 54259 32970 00901 10173 20123 40189 52014;EQDQ01  00002PRCP99
0175542590999992000091218004+42090+124940FM-12+023599999V0201101N002012200019N0200001N1+01091+00951101981ADDAA199000091GA1001+999999999GF100991001001999999001001KA1999M+02691MD1210031+9999REMSYN064AAXX  12181 54259 32970 01102 10109 20095 40198 52003 333 10269;EQDQ01  00002PRCP99
0122542590999992000091221004+42090+124940FM-12+023599999V0200901N001012200019N0200001N1+00931+00811101991ADDGA1001+999999999GF100991001001999999001001MD1410001+9999REMSYN054AAXX  12211 54259 42970 00901 10093 20081 40199 54000;
0162542590999992000091300004+42090+124940FM-12+023599999V0209999C000012200019N0200001N1+01421+01001102041ADDAA199000091GA1001+999999999GF100991001001999999001001MD1210031+0011REMSYN064AAXX  13001 54259 32970 00000 10142 20100 40204 52003 333 00152;EQDQ01  00002PRCP99
0122542590999992000091303004+42090+124940FM-12+023599999V0200901N004012200019N0300001N1+02341+01031101881ADDGA1001+999999999GF100991001001999999001001MD1710131+9999REMSYN054AAXX  13031 54259 42980 00904 10234 20103 40188 57013;
0165542590999992000091306004+42090+124940FM-12+023599999V0200901N004012200019N0300001N1+02621+00661101671ADDAA199000091GF101991011011008001001001KA1999N+00921MD1710201+9999REMSYN070AAXX  13061 54259 32580 10904 10262 20066 40167 57020 81100 333 20092;EQDQ01  00002PRCP99
0112542590999992000091309004+42090+124940FM-12+023599999V0200701N002012200019N0300001N1+02381+00971101681ADDGF101991011011008001001001MD1710011+9999REMSYN060AAXX  13091 54259 42580 10702 10238 20097 40168 57001 81100;
0152542590999992000091312004+42090+124940FM-12+023599999V0200901N001012200019N0200001N1+01661+01191101841ADDAA199000091GA1001+999999999GF100991001001999999001001MD1210151+9999REMSYN054AAXX  13121 54259 32970 00901 10166 20119 40184 52015;EQDQ01  00002PRCP99
0175542590999992000091318004+42090+124940FM-12+023599999V0209999C000012200019N0200001N1+01081+00901101801ADDAA199000091GA1001+999999999GF100991001001999999001001KA1999M+02661MD1410001+9999REMSYN064AAXX  13181 54259 32970 00000 10108 20090 40180 54000 333 10266;EQDQ01  00002PRCP99
0122542590999992000091321004+42090+124940FM-12+023599999V0200901N001012200019N0150001N1+00881+00731101801ADDGA1001+999999999GF100991001001999999001001MD1710021+9999REMSYN054AAXX  13211 54259 42965 00901 10088 20073 40180 57002;
0162542590999992000091400004+42090+124940FM-12+023599999V0209999C000012200019N0300001N1+01271+00921101841ADDAA199000091GA1001+999999999GF100991001001999999001001MD1210021+0021REMSYN064AAXX  14001 54259 32980 00000 10127 20092 40184 52002 333 05252;EQDQ01  00002PRCP99
0112542590999992000091403004+42090+124940FM-12+023599999V0200901N003012200019N0300001N1+02361+00971101681ADDGF101991011011008001001001MD1710121+9999REMSYN060AAXX  14031 54259 42580 10903 10236 20097 40168 57012 81100;
0175542590999992000091406004+42090+124940FM-12+023599999V0200901N003012200019N0300001N1+02471+00581101461ADDAA199000091GA1001+999999999GF100991001001999999001001KA1999N+00851MD1710221+9999REMSYN064AAXX  14061 54259 32980 00903 10247 20058 40146 57022 333 20085;EQDQ01  00002PRCP99
0122542590999992000091409004+42090+124940FM-12+023599999V0200901N002012200019N0300001N1+02321+00451101431ADDGA1001+999999999GF100991001001999999001001MD1710051+9999REMSYN054AAXX  14091 54259 42980 00902 10232 20045 40143 57005;
0152542590999992000091412004+42090+124940FM-12+023599999V0200701N001012200019N0200001N1+01481+00861101521ADDAA199000091GA1001+999999999GF100991001001999999001001MD1210071+9999REMSYN054AAXX  14121 54259 32970 00701 10148 20086 40152 52007;EQDQ01  00002PRCP99
0165542590999992000091418004+42090+124940FM-12+023599999V0201101N001019999999N0200001N1+00951+00741101391ADDAA199000091GF107991001001999999001021KA1999M+02511MD1710091+9999REMSYN070AAXX  14181 54259 32970 71101 10095 20074 40139 57009 80002 333 10251;EQDQ01  00002PRCP99
0112542590999992000091421004+42090+124940FM-12+023599999V0201101N001010900019N0200001N1+00911+00721101291ADDGF107991031051012501001021MD1710101+9999REMSYN060AAXX  14211 54259 42670 71101 10091 20072 40129 57010 83502;
0152542590999992000091500004+42090+124940FM-12+023599999V0201401N001019999999N0200001N1+01181+00881101291ADDAA199000091GF107991001001999999001021MD1710031+0061REMSYN070AAXX  15001 54259 32970 71401 10118 20088 40129 57003 80002 333 05651;EQDQ01  00002PRCP99
0112542590999992000091503004+42090+124940FM-12+023599999V0200901N003010900019N0300001N1+01791+00901101181ADDGF107991021051012501001021MD1710101+9999REMSYN060AAXX  15031 54259 42680 70903 10179 20090 40118 57010 82502;
0165542590999992000091506004+42090+124940FM-12+023599999V0200901N003010900019N0300001N1+01911+00971101071ADDAA199000091GF107991041051012501001021KA1999N+00881MD1710101+9999REMSYN070AAXX  15061 54259 32680 70903 10191 20097 40107 57010 84502 333 20088;EQDQ01  00002PRCP99
0112542590999992000091509004+42090+124940FM-12+023599999V0200901N002010120019N0300001N1+01831+01041100991ADDGF107991071051012501999999MD1710091+9999REMSYN060AAXX  15091 54259 42680 70902 10183 20104 40099 57009 875//;
0142542590999992000091512004+42090+124940FM-12+023599999V0200701N001010120019N0200001N1+01531+01191100971ADDAA199000091GF107991071051012501999999MD1710021+9999REMSYN060AAXX  15121 54259 32670 70701 10153 20119 40097 57002 875//;EQDQ01  00002PRCP99
0165542590999992000091518004+42090+124940FM-12+023599999V0201101N001010120019N0150001N1+01261+01111100671ADDAA199000091GF107991071051012501999999KA1999M+01971MD1710161+9999REMSYN070AAXX  15181 54259 32665 71101 10126 20111 40067 57016 875// 333 10197;EQDQ01  00002PRCP99
0112542590999992000091521004+42090+124940FM-12+023599999V0209999C000010120019N0200001N1+01241+01091100561ADDGF108991081051012501999999MD1710111+9999REMSYN060AAXX  15211 54259 42670 80000 10124 20109 40056 57011 885//;
0152542590999992000091600004+42090+124940FM-12+023599999V0200901N001010120019N0300001N1+01441+01131100531ADDAA199000091GF108991081051012501999999MD1710031+0071REMSYN070AAXX  16001 54259 32680 80901 10144 20113 40053 57003 885// 333 05703;EQDQ01  00002PRCP99
0112542590999992000091603004+42090+124940FM-12+023599999V0200701N002010120019N0300001N1+01661+01091100501ADDGF108991081051012501999999MD1710031+9999REMSYN060AAXX  16031 54259 42680 80702 10166 20109 40050 57003 885//;
0165542590999992000091606004+42090+124940FM-12+023599999V0200701N002010120019N0300001N1+01731+01071100261ADDAA199000091GF108991081051012501999999KA1999N+01221MD1710231+9999REMSYN070AAXX  16061 54259 32680 80702 10173 20107 40026 57023 885// 333 20122;EQDQ01  00002PRCP99
0112542590999992000091609004+42090+124940FM-12+023599999V0209999C000010120019N0250001N1+01741+01211100321ADDGF108991081051012501999999MD1210051+9999REMSYN060AAXX  16091 54259 42675 80000 10174 20121 40032 52005 885//;
0142542590999992000091612004+42090+124940FM-12+023599999V0209999C000010120019N0200001N1+01571+01171100441ADDAA199000091GF108991081051012501999999MD1210121+9999REMSYN060AAXX  16121 54259 32670 80000 10157 20117 40044 52012 885//;EQDQ01  00002PRCP99
0165542590999992000091618004+42090+124940FM-12+023599999V0209999C000019999999N0200001N1+01321+01081100461ADDAA199000091GF107991001001999999001021KA1999M+01781MD1210021+9999REMSYN070AAXX  16181 54259 32970 70000 10132 20108 40046 52002 80002 333 10178;EQDQ01  00002PRCP99
0112542590999992000091621004+42090+124940FM-12+023599999V0202701N001010120019N0250001N1+01291+00941100561ADDGF107991071051012501999999MD1210101+9999REMSYN060AAXX  16211 54259 42675 72701 10129 20094 40056 52010 875//;
0152542590999992000091700004+42090+124940FM-12+023599999V0202001N001010120019N0300001N1+01511+00561100751ADDAA199000091GF107991071051012501999999MD1210191+0021REMSYN070AAXX  17001 54259 32680 72001 10151 20056 40075 52019 875// 333 00201;EQDQ01  00002PRCP99
0112542590999992000091703004+42090+124940FM-12+023599999V0202201N002010900019N0300001N1+01831+00141100831ADDGF107991011011008001001021MD1210081+9999REMSYN060AAXX  17031 54259 42580 72202 10183 20014 40083 52008 81102;
0165542590999992000091706004+42090+124940FM-12+023599999V0203401N003010900019N0300001N1+01991+00261100781ADDAA199000091GF107991011011008001001021KA1999N+01281MD1710041+9999REMSYN070AAXX  17061 54259 32580 73403 10199 20026 40078 57004 81102 333 20128;EQDQ01  00002PRCP99
0112542590999992000091709004+42090+124940FM-12+023599999V0202701N001019999999N0300001N1+01971+00121100841ADDGF107991001001999999001021MD1210051+9999REMSYN060AAXX  17091 54259 42980 72701 10197 20012 40084 52005 80002;
0142542590999992000091712004+42090+124940FM-12+023599999V0203601N001019999999N0250001N1+01551+00031101061ADDAA199000091GF107991001001999999001021MD1210211+9999REMSYN060AAXX  17121 54259 32975 73601 10155 20003 40106 52021 80002;EQDQ01  00002PRCP99
0175542590999992000091718004+42090+124940FM-12+023599999V0209999C000012200019N0200001N1+00521+00331101301ADDAA199000091GA1001+999999999GF100991001001999999001001KA1999M+02131MD1210091+9999REMSYN064AAXX  17181 54259 32970 00000 10052 20033 40130 52009 333 10213;EQDQ01  00002PRCP99
0122542590999992000091721004+42090+124940FM-12+023599999V0209999C000012200019N0200001N1+00331+00201101421ADDGA1001+999999999GF100991001001999999001001MD1210111+9999REMSYN054AAXX  17211 54259 42970 00000 10033 20020 40142 52011;
0180542590999992000091800004+42090+124940FM-12+023599999V0209999C000012200019N0300001N1+00871+00341101541ADDAA199000091GA1001+999999999GF100991001001999999001001IA2999+00109MD1210121+0701REMSYN070AAXX  18001 54259 32980 00000 10087 20034 40154 52012 333 00756 30019;EQDQ01  00002PRCP99
0141542590999992000091803004+42090+124940FM-12+023599999V0203201N002012200019N0300001N1+02012-00111101461ADDGA1001+999999999GF100991001001999999001001MD1710051+9999REMSYN054AAXX  18031 54259 42980 03202 10201 21011 40146 57005;EQDQ01+002013ATOT  
0175542590999992000091806004+42090+124940FM-12+023599999V0201401N002012200019N0300001N1+02201-00061101351ADDAA199000091GA1001+999999999GF100991001001999999001001KA1999N+00321MD1710121+9999REMSYN064AAXX  18061 54259 32980 01402 10220 21006 40135 57012 333 20032;EQDQ01  00002PRCP99
0122542590999992000091809004+42090+124940FM-12+023599999V0203201N002012200019N0300001N1+02201-00021101321ADDGA1001+999999999GF100991001001999999001001MD1710041+9999REMSYN054AAXX  18091 54259 42980 03202 10220 21002 40132 57004;
0152542590999992000091812004+42090+124940FM-12+023599999V0209999C000012200019N0200001N1+01281+00561101521ADDAA199000091GA1001+999999999GF100991001001999999001001MD1210181+9999REMSYN054AAXX  18121 54259 32970 00000 10128 20056 40152 52018;EQDQ01  00002PRCP99
0175542590999992000091818004+42090+124940FM-12+023599999V0201101N001012200019N0200001N1+00611+00401101641ADDAA199000091GA1001+999999999GF100991001001999999001001KA1999M+02321MD1210081+9999REMSYN064AAXX  18181 54259 32970 01101 10061 20040 40164 52008 333 10232;EQDQ01  00002PRCP99
0122542590999992000091821004+42090+124940FM-12+023599999V0209999C000012200019N0200001N1+00511+00371101661ADDGA1001+999999999GF100991001001999999001001MD1210011+9999REMSYN054AAXX  18211 54259 42970 00000 10051 20037 40166 52001;
0180542590999992000091900004+42090+124940FM-12+023599999V0209999C000012200019N0220001N1+01061+00541101731ADDAA199000091GA1001+999999999GF100991001001999999001001IA2999+00409MD1210051+0201REMSYN070AAXX  19001 54259 32972 00000 10106 20054 40173 52005 333 00202 30045;EQDQ01  00002PRCP99
0131542590999992000091903004+42090+124940FM-12+023599999V0202201N003019999999N0300001N1+02282+00931101641ADDGF107991001001999999001021MD1710051+9999REMSYN060AAXX  19031 54259 42980 72203 10228 20093 40164 57005 80002;EQDQ01+002283ATOT  
0165542590999992000091906004+42090+124940FM-12+023599999V0202001N004012200019N0300001N1+02681+01191101541ADDAA199000091GF102991001001999999001021KA1999N+00511MD1710091+9999REMSYN070AAXX  19061 54259 32980 22004 10268 20119 40154 57009 80002 333 20051;EQDQ01  00002PRCP99
0112542590999992000091909004+42090+124940FM-12+023599999V0202001N004012200019N0250001N1+02451+01191101571ADDGF102991001001999999001021MD1210021+9999REMSYN060AAXX  19091 54259 42975 22004 10245 20119 40157 52002 80002;
0152542590999992000091912004+42090+124940FM-12+023599999V0202701N001012200019N0180001N1+01981+01221101751ADDAA199000091GA1001+999999999GF100991001001999999001001MD1210181+9999REMSYN054AAXX  19121 54259 32968 02701 10198 20122 40175 52018;EQDQ01  00002PRCP99
0175542590999992000091918004+42090+124940FM-12+023599999V0209999C000012200019N0180001N1+01451+01211102041ADDAA199000091GA1001+999999999GF100991001001999999001001KA1999M+02721MD1210131+9999REMSYN064AAXX  19181 54259 32968 00000 10145 20121 40204 52013 333 10272;EQDQ01  00002PRCP99
0112542590999992000091921004+42090+124940FM-12+023599999V0209999C000012200019N0150001N1+01381+01201102121ADDGF104991001001999999001021MD1210061+9999REMSYN060AAXX  19211 54259 42965 40000 10138 20120 40212 52006 80002;
0152542590999992000092000004+42090+124940FM-12+023599999V0209999C000012200019N0110001N1+01711+01321102311ADDAA199000091GF104991001001999999001021MD1210181+0061REMSYN070AAXX  20001 54259 32961 40000 10171 20132 40231 52018 80002 333 00607;EQDQ01  00002PRCP99
0112542590999992000092003004+42090+124940FM-12+023599999V0202001N001010120019N0200001N1+02371+01511102291ADDGF107991071051012501999999MD1710011+9999REMSYN060AAXX  20031 54259 42670 72001 10237 20151 40229 57001 875//;
0184542590999992000092012004+42090+124940FM-12+023599999V0200701N003010120019N0150001N1+01641+01541102451ADDAA106007191AY191061AY281061GF108991081051012501999999MD1210181+9999MW1001OA130601801REMSYN088AAXX  20121 54259 11665 80703 10164 20154 40245 52018 60071 70098 885// 333 91118 91522;
0165542590999992000092018004+42090+124940FM-12+023599999V0209999C000010120019N0150001N1+01401+01361102401ADDAA199000091GF107991071051012501999999KA1999M+02591MD1710021+9999REMSYN070AAXX  20181 54259 32665 70000 10140 20136 40240 57002 875// 333 10259;EQDQ01  00002PRCP99
0133542590999992000092021004+42090+124940FM-12+023599999V0200901N001010120019N0120001N1+01331+01281102381ADDAA124007191GF107991071051012501999999MD1710031+9999REMSYN070AAXX  20211 54259 42662 70901 10133 20128 40238 57003 875// 333 70072;
0151542590999992000092100004+42090+124940FM-12+023599999V0200701N001010120019N0080001N1+01431+01341102281ADDAA124007191GF108991081051012501999999MD1710131-0101MW1101REMSYN082AAXX  21001 54259 31658 80701 10143 20134 40228 57013 71000 885// 333 05153 70072;
0112542590999992000092103004+42090+124940FM-12+023599999V0209999C000010900019N0250001N1+02071+01571102271ADDGF107991041051012501001021MD1210021+9999REMSYN060AAXX  21031 54259 42675 70000 10207 20157 40227 52002 84502;
0165542590999992000092106004+42090+124940FM-12+023599999V0202501N001010900019N0300001N1+02491+01661102031ADDAA199000091GF107991011051012501001021KA1999N+01341MD1710221+9999REMSYN070AAXX  21061 54259 32680 72501 10249 20166 40203 57022 81502 333 20134;EQDQ01  00002PRCP99
0112542590999992000092109004+42090+124940FM-12+023599999V0209999C000019999999N0200001N1+02371+01791101941ADDGF107991001001999999001021MD1710101+9999REMSYN060AAXX  21091 54259 42970 70000 10237 20179 40194 57010 80002;
0142542590999992000092112004+42090+124940FM-12+023599999V0202001N002010120019N0120001N1+01911+01661102121ADDAA199000091GF107991071051012501999999MD1210161+9999REMSYN060AAXX  21121 54259 32662 72002 10191 20166 40212 52016 875//;EQDQ01  00002PRCP99
0165542590999992000092118004+42090+124940FM-12+023599999V0209999C000010120019N0120001N1+01561+01511101991ADDAA199000091GF107991071051012501999999KA1999M+02571MD1710021+9999REMSYN070AAXX  21181 54259 32662 70000 10156 20151 40199 57002 875// 333 10257;EQDQ01  00002PRCP99
0124542590999992000092121004+42090+124940FM-12+023599999V0209999C000010120019N0080001N1+01401+01351102011ADDGF107991071051012501999999MD1410001+9999MW1101REMSYN066AAXX  21211 54259 41658 70000 10140 20135 40201 54000 71000 875//;
0182542590999992000092200004+42090+124940FM-12+023599999V0209999C000010006019N0008001N1+01371+01321102041ADDAA199000091AY141061GA1091+999999999GF109991091999999999999999MD1210011+0021MW1451REMSYN070AAXX  22001 54259 31/08 90000 10137 20132 40204 52001 74540 333 05251;EQDQ01  00002PRCP99
0142542590999992000092203004+42090+124940FM-12+023599999V0201801N001012200019N0200001N1+02381+01181101801ADDAY141031GA1001+999999999GF100991001001999999001001MD1710201+9999MW1001REMSYN060AAXX  22031 54259 41970 01801 10238 20118 40180 57020 70040;
0195542590999992000092206004+42090+124940FM-12+023599999V0202501N003012200019N0300001N1+02691+00761101501ADDAA199000091AY141061GA1001+999999999GF100991001001999999001001KA1999N+01311MD1710281+9999MW1001REMSYN070AAXX  22061 54259 31980 02503 10269 20076 40150 57028 70040 333 20131;EQDQ01  00002PRCP99
0112542590999992000092209004+42090+124940FM-12+023599999V0202901N001012200019N0300001N1+02481+00951101451ADDGF101991001001999999001021MD1710071+9999REMSYN060AAXX  22091 54259 42980 12901 10248 20095 40145 57007 80002;
0152542590999992000092212004+42090+124940FM-12+023599999V0200901N001012200019N0180001N1+01661+01131101591ADDAA199000091GA1001+999999999GF100991001001999999001001MD1210101+9999REMSYN054AAXX  22121 54259 32968 00901 10166 20113 40159 52010;EQDQ01  00002PRCP99
0175542590999992000092218004+42090+124940FM-12+023599999V0209999C000012200019N0200001N1+01181+01051101471ADDAA199000091GA1001+999999999GF100991001001999999001001KA1999M+02771MD1710081+9999REMSYN064AAXX  22181 54259 32970 00000 10118 20105 40147 57008 333 10277;EQDQ01  00002PRCP99
0122542590999992000092221004+42090+124940FM-12+023599999V0209999C000012200019N0150001N1+01041+00941101481ADDGA1001+999999999GF100991001001999999001001MD1410001+9999REMSYN054AAXX  22211 54259 42965 00000 10104 20094 40148 54000;
0112542590999992000092303004+42090+124940FM-12+023599999V0202701N001010120019N0200001N1+02031+01281101371ADDGF108991081051012501999999MD1710121+9999REMSYN060AAXX  23031 54259 42670 82701 10203 20128 40137 57012 885//;
0165542590999992000092306004+42090+124940FM-12+023599999V0202201N002010900019N0250001N1+02451+01251101081ADDAA199000091GF107991021051012501001021KA1999N+01021MD1710271+9999REMSYN070AAXX  23061 54259 32675 72202 10245 20125 40108 57027 82502 333 20102;EQDQ01  00002PRCP99
0132542590999992000092309004+42090+124940FM-12+023599999V0202701N004010120019N0120001N1+01831+01471101291ADDAY161031GF108991081091012501999999MD1210171+9999MW1801REMSYN066AAXX  23091 54259 41662 82704 10183 20147 40129 52017 78060 889//;
0157542590999992000092312004+42090+124940FM-12+023599999V0209999C000010120019N0080001N1+01641+01591101411ADDAA106017091AY181061AY261061GF108991081051012501999999MD1210121+9999MW1601REMSYN072AAXX  23121 54259 11658 80000 10164 20159 40141 52012 60171 76086 885//;
0145542590999992000092321004+42090+124940FM-12+023599999V0209999C000010120019N0080001N1+01121+01021101671ADDAA124019191GF108991081051012501999999MD1210081+9999MW1101REMSYN076AAXX  23211 54259 41658 80000 10112 20102 40167 52008 71000 885// 333 70190;
0142542590999992000092403004+42090+124940FM-12+023599999V0200901N002012200019N0300001N1+01831+00471101651ADDAY141031GA1001+999999999GF100991001001999999001001MD1710111+9999MW1001REMSYN060AAXX  24031 54259 41980 00902 10183 20047 40165 57011 70040;
0195542590999992000092406004+42090+124940FM-12+023599999V0201601N003012200019N0300001N1+02081+00341101431ADDAA199000091AY141061GA1001+999999999GF100991001001999999001001KA1999N+01061MD1710221+9999MW1001REMSYN070AAXX  24061 54259 31980 01603 10208 20034 40143 57022 70040 333 20106;EQDQ01  00002PRCP99
0112542590999992000092409004+42090+124940FM-12+023599999V0203401N002012200019N0300001N1+01751+00701101491ADDGF104991001001999999001021MD1210041+9999REMSYN060AAXX  24091 54259 42980 43402 10175 20070 40149 52004 80002;
0152542590999992000092412004+42090+124940FM-12+023599999V0200901N001012200019N0200001N1+01151+00671101691ADDAA199000091GA1001+999999999GF100991001001999999001001MD1210161+9999REMSYN054AAXX  24121 54259 32970 00901 10115 20067 40169 52016;EQDQ01  00002PRCP99
0175542590999992000092418004+42090+124940FM-12+023599999V0209999C000012200019N0150001N1+00591+00481101701ADDAA199000091GA1001+999999999GF100991001001999999001001KA1999M+02111MD1410001+9999REMSYN064AAXX  24181 54259 32965 00000 10059 20048 40170 54000 333 10211;EQDQ01  00002PRCP99
0112542590999992000092421004+42090+124940FM-12+023599999V0209999C000012200019N0150001N1+00431+00331101801ADDGF101991011051012501001001MD1210071+9999REMSYN060AAXX  24211 54259 42665 10000 10043 20033 40180 52007 81500;
0180542590999992000092500004+42090+124940FM-12+023599999V0209999C000012200019N0300001N1+00891+00521101891ADDAA199000091GA1001+999999999GF100991001001999999001001IA2999+00409MD1210081+0101REMSYN070AAXX  25001 54259 32980 00000 10089 20052 40189 52008 333 00152 30041;EQDQ01  00002PRCP99
0122542590999992000092503004+42090+124940FM-12+023599999V0202201N004012200019N0300001N1+01961+00351101741ADDGA1001+999999999GF100991001001999999001001MD1710111+9999REMSYN054AAXX  25031 54259 42980 02204 10196 20035 40174 57011;
0165542590999992000092506004+42090+124940FM-12+023599999V0202201N003012200019N0300001N1+02291+00451101581ADDAA199000091GF101991011011008001001001KA1999N+00421MD1710151+9999REMSYN070AAXX  25061 54259 32580 12203 10229 20045 40158 57015 81100 333 20042;EQDQ01  00002PRCP99
0122542590999992000092509004+42090+124940FM-12+023599999V0203401N002012200019N0300001N1+02091+00361101681ADDGA1001+999999999GF100991001001999999001001MD1210081+9999REMSYN054AAXX  25091 54259 42980 03402 10209 20036 40168 52008;
0152542590999992000092512004+42090+124940FM-12+023599999V0209999C000012200019N0200001N1+01331+00631101961ADDAA199000091GA1001+999999999GF100991001001999999001001MD1210261+9999REMSYN054AAXX  25121 54259 32970 00000 10133 20063 40196 52026;EQDQ01  00002PRCP99
0175542590999992000092518004+42090+124940FM-12+023599999V0200901N001012200019N0150001N1+00631+00471102201ADDAA199000091GA1001+999999999GF100991001001999999001001KA1999M+02341MD1210141+9999REMSYN064AAXX  25181 54259 32965 00901 10063 20047 40220 52014 333 10234;EQDQ01  00002PRCP99
0122542590999992000092521004+42090+124940FM-12+023599999V0209999C000012200019N0150001N1+00441+00321102341ADDGA1001+999999999GF100991001001999999001001MD1210121+9999REMSYN054AAXX  25211 54259 42965 00000 10044 20032 40234 52012;
0180542590999992000092600004+42090+124940FM-12+023599999V0201101N001012200019N0180001N1+00951+00491102431ADDAA199000091GA1001+999999999GF100991001001999999001001IA2999+00309MD1210071+0501REMSYN070AAXX  26001 54259 32968 01101 10095 20049 40243 52007 333 00501 30034;EQDQ01  00002PRCP99
0141542590999992000092603004+42090+124940FM-12+023599999V0209999C000012200019N0300001N1+02112+00411102331ADDGA1001+999999999GF100991001001999999001001MD1710061+9999REMSYN054AAXX  26031 54259 42980 00000 10211 20041 40233 57006;EQDQ01+002113ATOT  
0165542590999992000092606004+42090+124940FM-12+023599999V0201101N003012200019N0300001N1+02421+00041102151ADDAA199000091GF101991001001999999001021KA1999N+00421MD1710171+9999REMSYN070AAXX  26061 54259 32980 11103 10242 20004 40215 57017 80002 333 20042;EQDQ01  00002PRCP99
0112542590999992000092609004+42090+124940FM-12+023599999V0203601N001012200019N0300001N1+02121+00491102151ADDGF102991001001999999001021MD1710031+9999REMSYN060AAXX  26091 54259 42980 23601 10212 20049 40215 57003 80002;
0152542590999992000092612004+42090+124940FM-12+023599999V0209999C000012200019N0200001N1+01291+00761102301ADDAA199000091GA1001+999999999GF100991001001999999001001MD1210131+9999REMSYN054AAXX  26121 54259 32970 00000 10129 20076 40230 52013;EQDQ01  00002PRCP99
0175542590999992000092618004+42090+124940FM-12+023599999V0209999C000012200019N0180001N1+00801+00601102291ADDAA199000091GA1001+999999999GF100991001001999999001001KA1999M+02451MD1210021+9999REMSYN064AAXX  26181 54259 32968 00000 10080 20060 40229 52002 333 10245;EQDQ01  00002PRCP99
0112542590999992000092621004+42090+124940FM-12+023599999V0209999C000012200019N0200001N1+00621+00511102311ADDGF102991001001999999001021MD1410001+9999REMSYN060AAXX  26211 54259 42970 20000 10062 20051 40231 54000 80002;
0170542590999992000092700004+42090+124940FM-12+023599999V0200901N001012200019N0250001N1+01051+00601102361ADDAA199000091GF102991001001999999001021IA2999+00409MD1210031-0101REMSYN076AAXX  27001 54259 32975 20901 10105 20060 40236 52003 80002 333 05101 30048;EQDQ01  00002PRCP99
0131542590999992000092703004+42090+124940FM-12+023599999V0200901N002012200019N0300001N1+02402+00851102071ADDGF102991001001999999001021MD1710241+9999REMSYN060AAXX  27031 54259 42980 20902 10240 20085 40207 57024 80002;EQDQ01+002403ATOT  
0165542590999992000092706004+42090+124940FM-12+023599999V0200901N003019999999N0300001N1+02651+00051101891ADDAA199000091GF106991001001999999001021KA1999N+00601MD1710171+9999REMSYN070AAXX  27061 54259 32980 60903 10265 20005 40189 57017 80002 333 20060;EQDQ01  00002PRCP99
0112542590999992000092709004+42090+124940FM-12+023599999V0202001N001019999999N0300001N1+02191+00841101931ADDGF107991001001999999001021MD1210011+9999REMSYN060AAXX  27091 54259 42980 72001 10219 20084 40193 52001 80002;
0142542590999992000092712004+42090+124940FM-12+023599999V0209999C000019999999N0200001N1+01621+00911102031ADDAA199000091GF107991001001999999001021MD1210091+9999REMSYN060AAXX  27121 54259 32970 70000 10162 20091 40203 52009 80002;EQDQ01  00002PRCP99
0165542590999992000092718004+42090+124940FM-12+023599999V0209999C000010120019N0150001N1+01231+00941102081ADDAA199000091GF108991081051012501999999KA1999M+02731MD1210051+9999REMSYN070AAXX  27181 54259 32665 80000 10123 20094 40208 52005 885// 333 10273;EQDQ01  00002PRCP99
0112542590999992000092721004+42090+124940FM-12+023599999V0209999C000010120019N0150001N1+01221+00931102121ADDGF108991081051012501999999MD1210011+9999REMSYN060AAXX  27211 54259 42665 80000 10122 20093 40212 52001 885//;
0152542590999992000092800004+42090+124940FM-12+023599999V0200201N001010120019N0200001N1+01391+00951102151ADDAA199000091GF108991081051012501999999MD1210011+0021REMSYN070AAXX  28001 54259 32670 80201 10139 20095 40215 52001 885// 333 05203;EQDQ01  00002PRCP99
0132542590999992000092803004+42090+124940FM-12+023599999V0202201N002010120019N0250001N1+01831+01261102081ADDAY161031GF108991081051012501999999MD1710061+9999MW1001REMSYN066AAXX  28031 54259 41675 82202 10183 20126 40208 57006 70060 885//;
0172542590999992000092806004+42090+124940FM-12+023599999V0209999C000010120019N0300001N1+01711+01281102161ADDAA106000191AY161061GF108991081051012501999999KA1999N+01161MD1210071+9999MW1211REMSYN082AAXX  28061 54259 11680 80000 10171 20128 40216 52007 69911 72160 885// 333 20116;
0132542590999992000092809004+42090+124940FM-12+023599999V0209999C000010120019N0300001N1+01671+01321102111ADDAY161031GF108991081051012501999999MD1710051+9999MW1601REMSYN066AAXX  28091 54259 41680 80000 10167 20132 40211 57005 76060 885//;
0149542590999992000092812004+42090+124940FM-12+023599999V0209999C000010120019N0150001N1+01501+01211102101ADDAA106000191AY161061GF108991081051012501999999MD1710011+9999MW1001REMSYN072AAXX  28121 54259 11665 80000 10150 20121 40210 57001 69911 70060 885//;
0146542590999992000092818004+42090+124940FM-12+023599999V0209999C000010120019N0150001N1+01331+01201102051ADDAA199000021GF108991081051012501999999KA1999M+01881MD1710051+9999REMSYN070AAXX  28181 54259 32665 80000 10133 20120 40205 57005 885// 333 10188;
0133542590999992000092821004+42090+124940FM-12+023599999V0209999C000012200019N0150001N1+01131+01031102051ADDAA124000391GF101991011051012501001001MD1710011+9999REMSYN070AAXX  28211 54259 42665 10000 10113 20103 40205 57001 81500 333 70002;
0139542590999992000092900004+42090+124940FM-12+023599999V0209999C000019999999N0300001N1+01371+01051102041ADDAA124000391GF107991001001999999001021MD1710011-0101REMSYN076AAXX  29001 54259 32980 70000 10137 20105 40204 57001 80002 333 05100 70002;
0112542590999992000092903004+42090+124940FM-12+023599999V0202701N002010900019N0300001N1+02221+00911101781ADDGF107991011011008001001021MD1710221+9999REMSYN060AAXX  29031 54259 42580 72702 10222 20091 40178 57022 81102;
0165542590999992000092906004+42090+124940FM-12+023599999V0202501N004010075019N0300001N1+02391+00621101571ADDAA199000091GF105991051011008001001001KA1999N+01061MD1710201+9999REMSYN070AAXX  29061 54259 32580 52504 10239 20062 40157 57020 85100 333 20106;EQDQ01  00002PRCP99
0112542590999992000092909004+42090+124940FM-12+023599999V0202501N003010120019N0300001N1+02061+00911101621ADDGF107991071051012501999999MD1210031+9999REMSYN060AAXX  29091 54259 42680 72503 10206 20091 40162 52003 875//;
0142542590999992000092912004+42090+124940FM-12+023599999V0209999C000019999999N0180001N1+01641+01071101701ADDAA199000091GF105991001001999999001021MD1210071+9999REMSYN060AAXX  29121 54259 32968 50000 10164 20107 40170 52007 80002;EQDQ01  00002PRCP99
0172542590999992000092918004+42090+124940FM-12+023599999V0209999C000010120019N0150001N1+01341+01191101691ADDAA106001091AY161061GF108991081051012501999999KA1999M+02451MD1710011+9999MW1601REMSYN082AAXX  29181 54259 11665 80000 10134 20119 40169 57001 60011 76060 885// 333 10245;
0153542590999992000092921004+42090+124940FM-12+023599999V0209999C000010120019N0120001N1+01361+01251101711ADDAA124001591AY161031GF108991081051012501999999MD1210011+9999MW1001REMSYN076AAXX  29211 54259 41662 80000 10136 20125 40171 52001 70060 885// 333 70016;
0165542590999992000093000004+42090+124940FM-12+023599999V0201801N001010120019N0120001N1+01501+01301101891ADDAA106000591AY161061GF107991071051012501999999MD1210161-0101MW1001REMSYN088AAXX  30001 54259 11662 71801 10150 20130 40189 52016 69951 70060 875// 333 05101 70016;
0112542590999992000093003004+42090+124940FM-12+023599999V0201801N002012200019N0200001N1+02031+01241101891ADDGF102991021011008001001001MD1210011+9999REMSYN060AAXX  30031 54259 42570 21802 10203 20124 40189 52001 82100;
0146542590999992000093006004+42090+124940FM-12+023599999V0203201N004012200019N0300001N1+02161+00831101751ADDAA199000021GF104991041011008001001001KA1999N+01331MD1710131+9999REMSYN070AAXX  30061 54259 32580 43204 10216 20083 40175 57013 84100 333 20133;
0112542590999992000093009004+42090+124940FM-12+023599999V0203401N003012200019N0300001N1+02021+00971101741ADDGF102991021011008001001001MD1710021+9999REMSYN060AAXX  30091 54259 42580 23403 10202 20097 40174 57002 82100;
0152542590999992000093012004+42090+124940FM-12+023599999V0209999C000012200019N0200001N1+01481+01151102001ADDAA199000091GA1001+999999999GF100991001001999999001001MD1210241+9999REMSYN054AAXX  30121 54259 32970 00000 10148 20115 40200 52024;EQDQ01  00002PRCP99
0175542590999992000093018004+42090+124940FM-12+023599999V0209999C000012200019N0150001N1+00981+00881101911ADDAA199000091GA1001+999999999GF100991001001999999001001KA1999M+02251MD1710081+9999REMSYN064AAXX  30181 54259 32965 00000 10098 20088 40191 57008 333 10225;EQDQ01  00002PRCP99
0124542590999992000093021004+42090+124940FM-12+023599999V0209999C000010120019N0070001N1+00901+00841101831ADDGF108991081051012501999999MD1710091+9999MW1101REMSYN066AAXX  30211 54259 41657 80000 10090 20084 40183 57009 71000 885//;
0182542590999992000100100004+42090+124940FM-12+023599999V0201401N001010006019N0008001N1+01021+00921101771ADDAA199000091AY141061GA1091+999999999GF109991091999999999999999MD1710081+0021MW1431REMSYN070AAXX  01001 54259 31/08 91401 10102 20092 40177 57008 74340 333 05255;EQDQ01  00002PRCP99
0132542590999992000100103004+42090+124940FM-12+023599999V0209999C000010900019N0150001N1+01771+01201101631ADDAY141031GF107991011051012501001021MD1710121+9999MW1001REMSYN066AAXX  01031 54259 41665 70000 10177 20120 40163 57012 70040 81502;
0185542590999992000100106004+42090+124940FM-12+023599999V0202501N002010900019N0300001N1+02181+00811101361ADDAA199000091AY141061GF107991011051012501001021KA1999N+00891MD1710251+9999MW1001REMSYN076AAXX  01061 54259 31680 72502 10218 20081 40136 57025 70040 81502 333 20089;EQDQ01  00002PRCP99
0112542590999992000100109004+42090+124940FM-12+023599999V0202901N001012200019N0280001N1+01921+01021101301ADDGF102991021051012501001021MD1710071+9999REMSYN060AAXX  01091 54259 42678 22901 10192 20102 40130 57007 82502;
0152542590999992000100112004+42090+124940FM-12+023599999V0209999C000012200019N0200001N1+01391+01011101401ADDAA199000091GA1001+999999999GF100991001001999999001001MD1210081+9999REMSYN054AAXX  01121 54259 32970 00000 10139 20101 40140 52008;EQDQ01  00002PRCP99
0180542590999992000100118004+42090+124940FM-12+023599999V0203201N001012200019N0120001N1+01191+01101101381ADDAA106002091AY191061AY281061GF101991011051012501001001KA1999M+02231MD1210031+9999MW1001REMSYN082AAXX  01181 54259 11662 13201 10119 20110 40138 52003 60021 70098 81500 333 10223;
0133542590999992000100121004+42090+124940FM-12+023599999V0200201N001012200019N0150001N1+00891+00391101471ADDAA124001891GF102991021051012501001001MD1210061+9999REMSYN070AAXX  01211 54259 42665 20201 10089 20039 40147 52006 82500 333 70019;
0139542590999992000100200004+42090+124940FM-12+023599999V0202501N002012200019N0280001N1+00991+00611101601ADDAA124001891GF101991011051012501001001MD1210111-0201REMSYN076AAXX  02001 54259 32678 12502 10099 20061 40160 52011 81500 333 05200 70019;
0122542590999992000100203004+42090+124940FM-12+023599999V0202501N003012200019N0300001N1+01531-00191101551ADDGA1001+999999999GF100991001001999999001001MD1710031+9999REMSYN054AAXX  02031 54259 42980 02503 10153 21019 40155 57003;
0165542590999992000100206004+42090+124940FM-12+023599999V0203201N003012200019N0300001N1+01681+00011101421ADDAA199000091GF101991011011008001001001KA1999N+00771MD1710121+9999REMSYN070AAXX  02061 54259 32580 13203 10168 20001 40142 57012 81100 333 20077;EQDQ01  00002PRCP99
0122542590999992000100209004+42090+124940FM-12+023599999V0203201N002012200019N0300001N1+01451+00061101511ADDGA1001+999999999GF100991001001999999001001MD1210061+9999REMSYN054AAXX  02091 54259 42980 03202 10145 20006 40151 52006;
0152542590999992000100212004+42090+124940FM-12+023599999V0209999C000012200019N0200001N1+00831+00181101741ADDAA199000091GA1001+999999999GF100991001001999999001001MD1210201+9999REMSYN054AAXX  02121 54259 32970 00000 10083 20018 40174 52020;EQDQ01  00002PRCP99
0175542590999992000100218004+42090+124940FM-12+023599999V0209999C000012200019N0150001N1+00281+00181101751ADDAA199000091GA1001+999999999GF100991001001999999001001KA1999M+01741MD1210011+9999REMSYN064AAXX  02181 54259 32965 00000 10028 20018 40175 52001 333 10174;EQDQ01  00002PRCP99
0112542590999992000100221004+42090+124940FM-12+023599999V0209999C000012200019N0180001N1+00281+00231101751ADDGF102991021051012501001001MD1710011+9999REMSYN060AAXX  02211 54259 42668 20000 10028 20023 40175 57001 82500;
0170542590999992000100300004+42090+124940FM-12+023599999V0209999C000010120019N0200001N1+00491+00221101891ADDAA199000091GF106991061051012501001001IA2999+00209MD1210121+0201REMSYN076AAXX  03001 54259 32670 60000 10049 20022 40189 52012 86500 333 00255 30020;EQDQ01  00002PRCP99
0112542590999992000100303004+42090+124940FM-12+023599999V0201101N003012200019N0300001N1+01481+00541101761ADDGF101991011011008001001001MD1710101+9999REMSYN060AAXX  03031 54259 42580 11103 10148 20054 40176 57010 81100;
0165542590999992000100306004+42090+124940FM-12+023599999V0201401N002012200019N0300001N1+01721+00271101621ADDAA199000091GF102991021011008001001001KA1999N+00241MD1710131+9999REMSYN070AAXX  03061 54259 32580 21402 10172 20027 40162 57013 82100 333 20024;EQDQ01  00002PRCP99
0112542590999992000100309004+42090+124940FM-12+023599999V0203401N001012200019N0300001N1+01481+00271101611ADDGF101991011011008001001001MD1710021+9999REMSYN060AAXX  03091 54259 42580 13401 10148 20027 40161 57002 81100;
0152542590999992000100312004+42090+124940FM-12+023599999V0200401N001012200019N0200001N1+00901+00381101761ADDAA199000091GA1001+999999999GF100991001001999999001001MD1210131+9999REMSYN054AAXX  03121 54259 32970 00401 10090 20038 40176 52013;EQDQ01  00002PRCP99
0175542590999992000100318004+42090+124940FM-12+023599999V0200901N001012200019N0200001N1+00401+00171101781ADDAA199000091GA1001+999999999GF100991001001999999001001KA1999M+01781MD1410001+9999REMSYN064AAXX  03181 54259 32970 00901 10040 20017 40178 54000 333 10178;EQDQ01  00002PRCP99
0112542590999992000100321004+42090+124940FM-12+023599999V0209999C000010120019N0150001N1+00421+00301101791ADDGF107991071051012501999999MD1410001+9999REMSYN060AAXX  03211 54259 42665 70000 10042 20030 40179 54000 875//;
0170542590999992000100400004+42090+124940FM-12+023599999V0209999C000010120019N0200001N1+00641+00381101841ADDAA199000091GF107991071051012501999999IA2999+00309MD1210031+0001REMSYN076AAXX  04001 54259 32670 70000 10064 20038 40184 52003 875// 333 00002 30039;EQDQ01  00002PRCP99
0124542590999992000100403004+42090+124940FM-12+023599999V0202701N003010120019N0250001N1+01121+00731101851ADDGF108991081051012501999999MD1210021+9999MW1601REMSYN066AAXX  04031 54259 41675 82703 10112 20073 40185 52002 76000 885//;
0172542590999992000100406004+42090+124940FM-12+023599999V0201601N002010120019N0300001N1+01291+00881101771ADDAA106003091AY161061GF108991081051012501999999KA1999N+00351MD1710081+9999MW1601REMSYN082AAXX  04061 54259 11680 81602 10129 20088 40177 57008 60031 76060 885// 333 20035;
0132542590999992000100409004+42090+124940FM-12+023599999V0209999C000010120019N0250001N1+01281+01011101811ADDAY161031GF108991081051012501999999MD1210041+9999MW1001REMSYN066AAXX  04091 54259 41675 80000 10128 20101 40181 52004 70060 885//;
0149542590999992000100412004+42090+124940FM-12+023599999V0209999C000010120019N0120001N1+01081+00961101941ADDAA106000791AY161061GF108991081051012501999999MD1210131+9999MW1001REMSYN072AAXX  04121 54259 11662 80000 10108 20096 40194 52013 69901 70060 885//;
0158542590999992000100418004+42090+124940FM-12+023599999V0209999C000010120019N0080001N1+00961+00881102051ADDAA199000021GF108991081051012501999999KA1999M+01361MD1210031+9999MW1101REMSYN076AAXX  04181 54259 31658 80000 10096 20088 40205 52003 71000 885// 333 10136;
0145542590999992000100421004+42090+124940FM-12+023599999V0202201N002010120019N0060001N1+00931+00871102151ADDAA124002591GF108991081051012501999999MD1210101+9999MW1101REMSYN076AAXX  04211 54259 41656 82202 10093 20087 40215 52010 71000 885// 333 70026;
0169542590999992000100500004+42090+124940FM-12+023599999V0202701N001010006019N0008001N1+00931+00851102351ADDAA124002591AY141061GA1091+999999999GF109991091999999999999999MD1210181+0501MW1451REMSYN076AAXX  05001 54259 31/08 92701 10093 20085 40235 52018 74540 333 00503 70026;
0132542590999992000100503004+42090+124940FM-12+023599999V0202501N002010120019N0120001N1+01181+00801102351ADDAY141031GF107991071051012501999999MD1210011+9999MW1001REMSYN066AAXX  05031 54259 41662 72502 10118 20080 40235 52001 70040 875//;
0185542590999992000100506004+42090+124940FM-12+023599999V0202501N002012200019N0300001N1+01561+00601102201ADDAA199000091AY141061GF102991021051012501001001KA1999N+00901MD1710131+9999MW1001REMSYN076AAXX  05061 54259 31680 22502 10156 20060 40220 57013 70040 82500 333 20090;EQDQ01  00002PRCP99
0112542590999992000100509004+42090+124940FM-12+023599999V0203201N001012200019N0250001N1+01411+00551102171ADDGF102991001001999999001021MD1710041+9999REMSYN060AAXX  05091 54259 42975 23201 10141 20055 40217 57004 80002;
0142542590999992000100512004+42090+124940FM-12+023599999V0200401N001012200019N0150001N1+00911+00561102281ADDAA199000091GF101991001001999999001021MD1210081+9999REMSYN060AAXX  05121 54259 32965 10401 10091 20056 40228 52008 80002;EQDQ01  00002PRCP99
0165542590999992000100518004+42090+124940FM-12+023599999V0209999C000010120019N0150001N1+00611+00421102201ADDAA199000091GF108991081051012501999999KA1999M+01761MD1710041+9999REMSYN070AAXX  05181 54259 32665 80000 10061 20042 40220 57004 885// 333 10176;EQDQ01  00002PRCP99
0153542590999992000100521004+42090+124940FM-12+023599999V0209999C000010120019N0110001N1+00691+00581102251ADDAA124001591AY161031GF108991081051012501999999MD1210051+9999MW1601REMSYN076AAXX  05211 54259 41661 80000 10069 20058 40225 52005 76060 885// 333 70015;
0165542590999992000100600004+42090+124940FM-12+023599999V0201101N001010120019N0150001N1+00881+00731102291ADDAA106002091AY161061GF107991071051012501999999MD1210021-0101MW1001REMSYN088AAXX  06001 54259 11665 71101 10088 20073 40229 52002 60021 70060 875// 333 05151 70020;
0132542590999992000100603004+42090+124940FM-12+023599999V0209999C000010120019N0200001N1+01391+00861102191ADDAY161031GF108991081051012501999999MD1710091+9999MW1001REMSYN066AAXX  06031 54259 41670 80000 10139 20086 40219 57009 70060 885//;
0172542590999992000100606004+42090+124940FM-12+023599999V0209999C000010120019N0300001N1+01471+01061102081ADDAA106000791AY161061GF108991081051012501999999KA1999N+00571MD1710101+9999MW1001REMSYN082AAXX  06061 54259 11680 80000 10147 20106 40208 57010 69901 70060 885// 333 20057;
0112542590999992000100609004+42090+124940FM-12+023599999V0209999C000010120019N0300001N1+01451+00911102051ADDGF108991081051012501999999MD1710031+9999REMSYN060AAXX  06091 54259 42680 80000 10145 20091 40205 57003 885//;
0157542590999992000100612004+42090+124940FM-12+023599999V0209999C000010120019N0120001N1+01271+01181102021ADDAA106004191AY191061AY281061GF108991081091012501999999MD1710021+9999MW1951REMSYN072AAXX  06121 54259 11662 80000 10127 20118 40202 57002 60041 79598 889//;
0172542590999992000100618004+42090+124940FM-12+023599999V0209999C000010120019N0120001N1+01261+01171101781ADDAA106004191AY181061GF108991081051012501999999KA1999M+01491MD1710161+9999MW1001REMSYN082AAXX  06181 54259 11662 80000 10126 20117 40178 57016 60041 70080 885// 333 10149;
0133542590999992000100621004+42090+124940FM-12+023599999V0202701N003010120019N0120001N1+01641+01151101651ADDAA124008491GF108991081051012501999999MD1710111+9999REMSYN070AAXX  06211 54259 42662 82703 10164 20115 40165 57011 885// 333 70084;
0139542590999992000100700004+42090+124940FM-12+023599999V0202501N002010120019N0300001N1+01701+01221101601ADDAA124007991GF108991081051012501999999MD1710051-0601REMSYN076AAXX  07001 54259 32680 82502 10170 20122 40160 57005 885// 333 05608 70079;
0112542590999992000100703004+42090+124940FM-12+023599999V0202001N004010120019N0300001N1+01951+01291101461ADDGF108991081051012501999999MD1710131+9999REMSYN060AAXX  07031 54259 42680 82004 10195 20129 40146 57013 885//;
0165542590999992000100706004+42090+124940FM-12+023599999V0202201N004010120019N0300001N1+02021+01391101341ADDAA199000091GF107991071051012501999999KA1999N+01221MD1710111+9999REMSYN070AAXX  07061 54259 32680 72204 10202 20139 40134 57011 875// 333 20122;EQDQ01  00002PRCP99
0124542590999992000100709004+42090+124940FM-12+023599999V0202701N002010120019N0220001N1+01961+01431101271ADDGF108991081051012501999999MD1710051+9999MW1601REMSYN066AAXX  07091 54259 41672 82702 10196 20143 40127 57005 76000 885//;
0149542590999992000100712004+42090+124940FM-12+023599999V0203401N009010120019N0200001N1+01801+01441101301ADDAA106001091AY161061GF108991081051012501999999MD1210021+9999MW1001REMSYN072AAXX  07121 54259 11670 83409 10180 20144 40130 52002 69991 70060 885//;
0161542590999992000100721004+42090+124940FM-12+023599999V0209999C000010120019N0080001N1+01221+01131101641ADDAA124024491AY161031AY261031GF108991051051012501021999MD1210141+9999MW1611REMSYN076AAXX  07211 54259 41658 80000 10122 20113 40164 52014 76166 8552/ 333 70243;
0173542590999992000100800004+42090+124940FM-12+023599999V0201801N002010120019N0220001N1+01251+01181101601ADDAA106006191AY161061AY261061GF108991071051012501021999MD1710051+0001MW1601REMSYN088AAXX  08001 54259 11672 81802 10125 20118 40160 57005 60061 76066 8752/ 333 00055 70258;
0140542590999992000100803004+42090+124940FM-12+023599999V0209999C000010120019N0300001N1+01281+01091101561ADDAY161031AY261031GF108991081051012501999999MD1710051+9999MW1211REMSYN066AAXX  08031 54259 41680 80000 10128 20109 40156 57005 72166 885//;
0172542590999992000100806004+42090+124940FM-12+023599999V0202001N001012200019N0300001N1+01531+01041101431ADDAA106000591AY161061GF103991031051012501001001KA1999N+01181MD1710121+9999MW1001REMSYN082AAXX  08061 54259 11680 32001 10153 20104 40143 57012 69941 70060 83500 333 20118;
0112542590999992000100809004+42090+124940FM-12+023599999V0203401N002012200019N0300001N1+01361+00621101571ADDGF101991011051012501001001MD1210121+9999REMSYN060AAXX  08091 54259 42680 13402 10136 20062 40157 52012 81500;
0133542590999992000100812004+42090+124940FM-12+023599999V0209999C000012200019N0150001N1+00831+00641101811ADDAA199000021GA1001+999999999GF100991001001999999001001MD1210211+9999REMSYN054AAXX  08121 54259 32965 00000 10083 20064 40181 52021;
0195542590999992000100818004+42090+124940FM-12+023599999V0200901N001010006019N0006001N1+00391+00341101921ADDAA199000091AY141061GA1091+999999999GF109991091999999999999999KA1999M+01651MD1210041+9999MW1471REMSYN070AAXX  08181 54259 31/06 90901 10039 20034 40192 52004 74740 333 10165;EQDQ01  00002PRCP99
0171542590999992000100821004+42090+124940FM-12+023599999V0200701N002010006019N0006001N1+00231+00201102081ADDAA124001891AY141031AY241031GA1091+999999999GF109991091999999999999999MD1210141+9999MW1451REMSYN070AAXX  08211 54259 41/06 90702 10023 20020 40208 52014 74544 333 70019;
0195542590999992000100900004+42090+124940FM-12+023599999V0209999C000010006019N0008001N1+00191+00161102151ADDAA124000591AY141061AY241061GA1091+999999999GF109991091999999999999999IA2999+00369MD1210041+0401MW1451REMSYN082AAXX  09001 54259 31/08 90000 10019 20016 40215 52004 74544 333 00461 30036 70004;
0132542590999992000100903004+42090+124940FM-12+023599999V0201101N003012200019N0300001N1+01281-00051102001ADDAY141031GF102991001001999999001021MD1710111+9999MW1001REMSYN066AAXX  09031 54259 41980 21103 10128 21005 40200 57011 70040 80002;
0185542590999992000100906004+42090+124940FM-12+023599999V0203601N002019999999N0300001N1+01531-00321101731ADDAA199000091AY141061GF107991001001999999001021KA1999N+00161MD1710261+9999MW1001REMSYN076AAXX  09061 54259 31980 73602 10153 21032 40173 57026 70040 80002 333 20016;EQDQ01  00002PRCP99
0112542590999992000100909004+42090+124940FM-12+023599999V0203601N001019999999N0300001N1+01191+00201101741ADDGF107991001001999999001021MD1710011+9999REMSYN060AAXX  09091 54259 42980 73601 10119 20020 40174 57001 80002;
0152542590999992000100912004+42090+124940FM-12+023599999V0200701N002012200019N0200001N1+00721+00321101791ADDAA199000091GA1001+999999999GF100991001001999999001001MD1210021+9999REMSYN054AAXX  09121 54259 32970 00702 10072 20032 40179 52002;EQDQ01  00002PRCP99
0175542590999992000100918004+42090+124940FM-12+023599999V0200901N001012200019N0150001N1+00521+00301101661ADDAA199000091GA1001+999999999GF100991001001999999001001KA1999M+01551MD1710061+9999REMSYN064AAXX  09181 54259 32965 00901 10052 20030 40166 57006 333 10155;EQDQ01  00002PRCP99
0112542590999992000100921004+42090+124940FM-12+023599999V0209999C000012200019N0150001N1+00461+00321101631ADDGF101991001001999999001021MD1710051+9999REMSYN060AAXX  09211 54259 42965 10000 10046 20032 40163 57005 80002;
0170542590999992000101000004+42090+124940FM-12+023599999V0209999C000019999999N0150001N1+00761+00391101631ADDAA199000091GF107991001001999999001021IA2999+00309MD1710011-0501REMSYN076AAXX  10001 54259 32965 70000 10076 20039 40163 57001 80002 333 05506 30039;EQDQ01  00002PRCP99
0112542590999992000101003004+42090+124940FM-12+023599999V0202201N002019999999N0250001N1+01561+00651101511ADDGF107991001001999999001021MD1710081+9999REMSYN060AAXX  10031 54259 42975 72202 10156 20065 40151 57008 80002;
0165542590999992000101006004+42090+124940FM-12+023599999V0202501N005010900019N0300001N1+01831+00611101381ADDAA199000091GF107991011011008001001021KA1999N+00401MD1710121+9999REMSYN070AAXX  10061 54259 32580 72505 10183 20061 40138 57012 81102 333 20040;EQDQ01  00002PRCP99
0112542590999992000101009004+42090+124940FM-12+023599999V0202201N002019999999N0250001N1+01461+00721101491ADDGF107991001001999999001021MD1210091+9999REMSYN060AAXX  10091 54259 42975 72202 10146 20072 40149 52009 80002;
0142542590999992000101012004+42090+124940FM-12+023599999V0209999C000010900019N0150001N1+01061+00571101731ADDAA199000091GF107991021051012501001021MD1210231+9999REMSYN060AAXX  10121 54259 32665 70000 10106 20057 40173 52023 82502;EQDQ01  00002PRCP99
0165542590999992000101018004+42090+124940FM-12+023599999V0203201N002010120019N0200001N1+00901-00161102151ADDAA199000091GF107991071051012501999999KA1999M+01871MD1210381+9999REMSYN070AAXX  10181 54259 32670 73202 10090 21016 40215 52038 875// 333 10187;EQDQ01  00002PRCP99
0112542590999992000101021004+42090+124940FM-12+023599999V0203201N001010120019N0200001N1+00551-00481102431ADDGF107991071051012501999999MD1210241+9999REMSYN060AAXX  10211 54259 42670 73201 10055 21048 40243 52024 875//;
0170542590999992000101100004+42090+124940FM-12+023599999V0202501N002019999999N0300001N1+00531-00431102611ADDAA199000091GF107991021001999999031021IA2999+00309MD1210151+1001REMSYN076AAXX  11001 54259 32980 72502 10053 21043 40261 52015 82032 333 01052 30037;EQDQ01  00002PRCP99
0112542590999992000101103004+42090+124940FM-12+023599999V0203201N003019999999N0300001N1+00721-00971102581ADDGF107991001001999999001021MD1710031+9999REMSYN060AAXX  11031 54259 42980 73203 10072 21097 40258 57003 80002;
0165542590999992000101106004+42090+124940FM-12+023599999V0202701N004010900019N0300001N1+00691-01221102531ADDAA199000091GF107991031051012501001021KA1999N+00461MD1710051+9999REMSYN070AAXX  11061 54259 32680 72704 10069 21122 40253 57005 83502 333 20046;EQDQ01  00002PRCP99
0112542590999992000101109004+42090+124940FM-12+023599999V0202501N001010900019N0300001N1+00611-01041102551ADDGF107991021051012501001021MD1410001+9999REMSYN060AAXX  11091 54259 42680 72501 10061 21104 40255 54000 82502;
0142542590999992000101112004+42090+124940FM-12+023599999V0202701N001019999999N0200001N1+00311-00521102681ADDAA199000091GF107991001001999999001021MD1210111+9999REMSYN060AAXX  11121 54259 32970 72701 10031 21052 40268 52011 80002;EQDQ01  00002PRCP99
0175542590999992000101118004+42090+124940FM-12+023599999V0209999C000012200019N0200001N1-00171-00461102821ADDAA199000091GA1001+999999999GF100991001001999999001001KA1999M+00881MD1210041+9999REMSYN064AAXX  11181 54259 32970 00000 11017 21046 40282 52004 333 10088;EQDQ01  00002PRCP99
0122542590999992000101121004+42090+124940FM-12+023599999V0209999C000012200019N0200001N1-00321-00521102851ADDGA1001+999999999GF100991001001999999001001MD1210021+9999REMSYN054AAXX  11211 54259 42970 00000 11032 21052 40285 52002;
0180542590999992000101200004+42090+124940FM-12+023599999V0202201N002012200019N0300001N1+00031-00441102881ADDAA199000091GA1001+999999999GF100991001001999999001001IA2999-00309MD1210031+0201REMSYN070AAXX  12001 54259 32980 02202 10003 21044 40288 52003 333 00255 31031;EQDQ01  00002PRCP99
0112542590999992000101203004+42090+124940FM-12+023599999V0202501N004012200019N0300001N1+00621-01081102751ADDGF101991011011008001001001MD1710111+9999REMSYN060AAXX  12031 54259 42580 12504 10062 21108 40275 57011 81100;
0175542590999992000101206004+42090+124940FM-12+023599999V0202701N003012200019N0300001N1+00811-01181102501ADDAA199000091GA1001+999999999GF100991001001999999001001KA1999N-00361MD1710241+9999REMSYN064AAXX  12061 54259 32980 02703 10081 21118 40250 57024 333 21036;EQDQ01  00002PRCP99
0122542590999992000101209004+42090+124940FM-12+023599999V0202701N002012200019N0300001N1+00641-00921102521ADDGA1001+999999999GF100991001001999999001001MD1410001+9999REMSYN054AAXX  12091 54259 42980 02702 10064 21092 40252 54000;
0152542590999992000101212004+42090+124940FM-12+023599999V0209999C000012200019N0200001N1+00111-00491102571ADDAA199000091GA1001+999999999GF100991001001999999001001MD1210041+9999REMSYN054AAXX  12121 54259 32970 00000 10011 21049 40257 52004;EQDQ01  00002PRCP99
0175542590999992000101218004+42090+124940FM-12+023599999V0209999C000012200019N0200001N1-00321-00541102491ADDAA199000091GA1001+999999999GF100991001001999999001001KA1999M+00891MD1710061+9999REMSYN064AAXX  12181 54259 32970 00000 11032 21054 40249 57006 333 10089;EQDQ01  00002PRCP99
0122542590999992000101221004+42090+124940FM-12+023599999V0209999C000012200019N0200001N1-00441-00691102411ADDGA1001+999999999GF100991001001999999001001MD1710091+9999REMSYN054AAXX  12211 54259 42970 00000 11044 21069 40241 57009;
0180542590999992000101300004+42090+124940FM-12+023599999V0209999C000012200019N0200001N1-00181-00511102431ADDAA199000091GA1001+999999999GF100991001001999999001001IA2999-00409MD1410001-0501REMSYN070AAXX  13001 54259 32970 00000 11018 21051 40243 54000 333 05552 31044;EQDQ01  00002PRCP99
0122542590999992000101303004+42090+124940FM-12+023599999V0202501N008012200019N0300001N1+00711-01231102281ADDGA1001+999999999GF100991001001999999001001MD1710111+9999REMSYN054AAXX  13031 54259 42980 02508 10071 21123 40228 57011;
0175542590999992000101306004+42090+124940FM-12+023599999V0202201N005012200019N0300001N1+00861-00991102121ADDAA199000091GA1001+999999999GF100991001001999999001001KA1999N-00481MD1710161+9999REMSYN064AAXX  13061 54259 32980 02205 10086 21099 40212 57016 333 21048;EQDQ01  00002PRCP99
0122542590999992000101309004+42090+124940FM-12+023599999V0202501N002012200019N0250001N1+00681-00681102121ADDGA1001+999999999GF100991001001999999001001MD1710011+9999REMSYN054AAXX  13091 54259 42975 02502 10068 21068 40212 57001;
0152542590999992000101312004+42090+124940FM-12+023599999V0209999C000012200019N0200001N1+00211-00391102231ADDAA199000091GA1001+999999999GF100991001001999999001001MD1210091+9999REMSYN054AAXX  13121 54259 32970 00000 10021 21039 40223 52009;EQDQ01  00002PRCP99
0175542590999992000101318004+42090+124940FM-12+023599999V0209999C000012200019N0150001N1-00261-00491102261ADDAA199000091GA1001+999999999GF100991001001999999001001KA1999M+00911MD1210031+9999REMSYN064AAXX  13181 54259 32965 00000 11026 21049 40226 52003 333 10091;EQDQ01  00002PRCP99
0162542590999992000101400004+42090+124940FM-12+023599999V0209999C000012200019N0120001N1+00071-00301102211ADDAA199000091GA1001+999999999GF100991001001999999001001MD1710031+0021REMSYN064AAXX  14001 54259 32962 00000 10007 21030 40221 57003 333 05203;EQDQ01  00002PRCP99
0112542590999992000101403004+42090+124940FM-12+023599999V0202501N007012200019N0300001N1+01201-00511102061ADDGF101991001001999999001011MD1710111+9999REMSYN060AAXX  14031 54259 42980 12507 10120 21051 40206 57011 80001;
0165542590999992000101406004+42090+124940FM-12+023599999V0202701N005012200019N0300001N1+01381-00801101861ADDAA199000091GF102991001001999999001021KA1999N-00381MD1710191+9999REMSYN070AAXX  14061 54259 32980 22705 10138 21080 40186 57019 80002 333 21038;EQDQ01  00002PRCP99
0122542590999992000101409004+42090+124940FM-12+023599999V0202501N004012200019N0250001N1+01131-00651101941ADDGA1001+999999999GF100991001001999999001001MD1210061+9999REMSYN054AAXX  14091 54259 42975 02504 10113 21065 40194 52006;
0152542590999992000101412004+42090+124940FM-12+023599999V0202901N001012200019N0200001N1+00551-00321102221ADDAA199000091GA1001+999999999GF100991001001999999001001MD1210261+9999REMSYN054AAXX  14121 54259 32970 02901 10055 21032 40222 52026;EQDQ01  00002PRCP99
0175542590999992000101418004+42090+124940FM-12+023599999V0209999C000012200019N0150001N1+00001-00301102621ADDAA199000091GA1001+999999999GF100991001001999999001001KA1999M+01461MD1210321+9999REMSYN064AAXX  14181 54259 32965 00000 10000 21030 40262 52032 333 10146;EQDQ01  00002PRCP99
0122542590999992000101421004+42090+124940FM-12+023599999V0209999C000012200019N0150001N1-00171-00461102891ADDGA1001+999999999GF100991001001999999001001MD1210241+9999REMSYN054AAXX  14211 54259 42965 00000 11017 21046 40289 52024;
0180542590999992000101500004+42090+124940FM-12+023599999V0209999C000012200019N0130001N1+00211-00591103151ADDAA199000091GA1001+999999999GF100991001001999999001001IA2999-00409MD1210241+0901REMSYN070AAXX  15001 54259 32963 00000 10021 21059 40315 52024 333 00901 31046;EQDQ01  00002PRCP99
0122542590999992000101503004+42090+124940FM-12+023599999V0200901N003012200019N0300001N1+00711-01001103241ADDGA1001+999999999GF100991001001999999001001MD1210101+9999REMSYN054AAXX  15031 54259 42980 00903 10071 21100 40324 52010;
0175542590999992000101506004+42090+124940FM-12+023599999V0203201N002012200019N0300001N1+00961-01131103131ADDAA199000091GA1001+999999999GF100991001001999999001001KA1999N-00221MD1710111+9999REMSYN064AAXX  15061 54259 32980 03202 10096 21113 40313 57011 333 21022;EQDQ01  00002PRCP99
0122542590999992000101509004+42090+124940FM-12+023599999V0203401N002012200019N0300001N1+00651-01141103161ADDGA1001+999999999GF100991001001999999001001MD1210011+9999REMSYN054AAXX  15091 54259 42980 03402 10065 21114 40316 52001;
0152542590999992000101512004+42090+124940FM-12+023599999V0209999C000012200019N0200001N1+00101-00751103261ADDAA199000091GA1001+999999999GF100991001001999999001001MD1210091+9999REMSYN054AAXX  15121 54259 32970 00000 10010 21075 40326 52009;EQDQ01  00002PRCP99
0175542590999992000101518004+42090+124940FM-12+023599999V0203401N001012200019N0180001N1-00441-00731103211ADDAA199000091GA1001+999999999GF100991001001999999001001KA1999M+00991MD1710041+9999REMSYN064AAXX  15181 54259 32968 03401 11044 21073 40321 57004 333 10099;EQDQ01  00002PRCP99
0122542590999992000101521004+42090+124940FM-12+023599999V0201101N001012200019N0200001N1-00621-00871103071ADDGA1001+999999999GF100991001001999999001001MD1710161+9999REMSYN054AAXX  15211 54259 42970 01101 11062 21087 40307 57016;
0162542590999992000101600004+42090+124940FM-12+023599999V0201801N001012200019N0150001N1-00291-00701102941ADDAA199000091GA1001+999999999GF100991001001999999001001MD1710141+0031REMSYN064AAXX  16001 54259 32965 01801 11029 21070 40294 57014 333 05355;EQDQ01  00002PRCP99
0141542590999992000101603004+42090+124940FM-12+023599999V0202501N004012200019N0300001N1+01062-00921102511ADDGA1001+999999999GF100991001001999999001001MD1710371+9999REMSYN054AAXX  16031 54259 42980 02504 10106 21092 40251 57037;EQDQ01+001063ATOT  
0175542590999992000101606004+42090+124940FM-12+023599999V0202201N007012200019N0300001N1+01541-01091102061ADDAA199000091GA1001+999999999GF100991001001999999001001KA1999N-00661MD1710421+9999REMSYN064AAXX  16061 54259 32980 02207 10154 21109 40206 57042 333 21066;EQDQ01  00002PRCP99
0122542590999992000101609004+42090+124940FM-12+023599999V0202201N005012200019N0300001N1+01321-00731101911ADDGA1001+999999999GF100991001001999999001001MD1710161+9999REMSYN054AAXX  16091 54259 42980 02205 10132 21073 40191 57016;
0152542590999992000101612004+42090+124940FM-12+023599999V0202501N003012200019N0150001N1+00981-00671101891ADDAA199000091GA1001+999999999GF100991001001999999001001MD1710021+9999REMSYN054AAXX  16121 54259 32965 02503 10098 21067 40189 57002;EQDQ01  00002PRCP99
0175542590999992000101618004+42090+124940FM-12+023599999V0202701N003012200019N0180001N1+00791+00011101511ADDAA199000091GA1001+999999999GF100991001001999999001001KA1999M+01581MD1710181+9999REMSYN064AAXX  16181 54259 32968 02703 10079 20001 40151 57018 333 10158;EQDQ01  00002PRCP99
0112542590999992000101621004+42090+124940FM-12+023599999V0202701N003012200019N0180001N1+00881+00251101361ADDGF102991001001999999001021MD1710151+9999REMSYN060AAXX  16211 54259 42968 22703 10088 20025 40136 57015 80002;
0170542590999992000101700004+42090+124940FM-12+023599999V0202501N001010120019N0120001N1+00731+00361101481ADDAA199000091GF108991081051012501999999IA2999+00209MD1210091-1301REMSYN076AAXX  17001 54259 32662 82501 10073 20036 40148 52009 885// 333 06310 30020;EQDQ01  00002PRCP99
0112542590999992000101703004+42090+124940FM-12+023599999V0203401N005010900019N0220001N1+01361+00081101741ADDGF107991021051012501001021MD1210281+9999REMSYN060AAXX  17031 54259 42672 73405 10136 20008 40174 52028 82502;
0175542590999992000101706004+42090+124940FM-12+023599999V0203401N005012200019N0300001N1+01081-01111102061ADDAA199000091GA1001+999999999GF100991001001999999001001KA1999N+00551MD1210291+9999REMSYN064AAXX  17061 54259 32980 03405 10108 21111 40206 52029 333 20055;EQDQ01  00002PRCP99
0122542590999992000101709004+42090+124940FM-12+023599999V0202901N003012200019N0300001N1+00681-01461102481ADDGA1001+999999999GF100991001001999999001001MD1210391+9999REMSYN054AAXX  17091 54259 42980 02903 10068 21146 40248 52039;
0152542590999992000101712004+42090+124940FM-12+023599999V0200201N003012200019N0200001N1+00181-01661102841ADDAA199000091GA1001+999999999GF100991001001999999001001MD1210321+9999REMSYN054AAXX  17121 54259 32970 00203 10018 21166 40284 52032;EQDQ01  00002PRCP99
0175542590999992000101718004+42090+124940FM-12+023599999V0200901N003012200019N0250001N1-00401-01391103121ADDAA199000091GA1001+999999999GF100991001001999999001001KA1999M+01381MD1210061+9999REMSYN064AAXX  17181 54259 32975 00903 11040 21139 40312 52006 333 10138;EQDQ01  00002PRCP99
0122542590999992000101721004+42090+124940FM-12+023599999V0209999C000012200019N0250001N1-00651-01261103121ADDGA1001+999999999GF100991001001999999001001MD1710031+9999REMSYN054AAXX  17211 54259 42975 00000 11065 21126 40312 57003;
0152542590999992000101800004+42090+124940FM-12+023599999V0200701N002012200019N0300001N1-00321-01131103141ADDAA199000091GF101991001001999999001011MD1210011+0151REMSYN070AAXX  18001 54259 32980 10702 11032 21113 40314 52001 80001 333 01561;EQDQ01  00002PRCP99
0112542590999992000101803004+42090+124940FM-12+023599999V0209999C000012200019N0300001N1+00611-01101102841ADDGF102991001001999999001021MD1710261+9999REMSYN060AAXX  18031 54259 42980 20000 10061 21110 40284 57026 80002;
0165542590999992000101806004+42090+124940FM-12+023599999V0209999C000012200019N0300001N1+01111-01461102411ADDAA199000091GF101991001001999999001021KA1999N-00701MD1710411+9999REMSYN070AAXX  18061 54259 32980 10000 10111 21146 40241 57041 80002 333 21070;EQDQ01  00002PRCP99
0112542590999992000101809004+42090+124940FM-12+023599999V0209999C000019999999N0300001N1+00931-01001102241ADDGF107991001001999999001021MD1710191+9999REMSYN060AAXX  18091 54259 42980 70000 10093 21100 40224 57019 80002;
0142542590999992000101812004+42090+124940FM-12+023599999V0200901N001010120019N0120001N1+00431-00761102091ADDAA199000091GF107991071051012501999999MD1710151+9999REMSYN060AAXX  18121 54259 32662 70901 10043 21076 40209 57015 875//;EQDQ01  00002PRCP99
0165542590999992000101818004+42090+124940FM-12+023599999V0209999C000019999999N0120001N1+00171-00341101961ADDAA199000091GF107991001001999999001021KA1999M+01311MD1710051+9999REMSYN070AAXX  18181 54259 32962 70000 10017 21034 40196 57005 80002 333 10131;EQDQ01  00002PRCP99
0112542590999992000101821004+42090+124940FM-12+023599999V0209999C000010120019N0120001N1+00161-00281101831ADDGF107991071051012501999999MD1710131+9999REMSYN060AAXX  18211 54259 42662 70000 10016 21028 40183 57013 875//;
0170542590999992000101900004+42090+124940FM-12+023599999V0202501N003010120019N0300001N1+01051-00821101731ADDAA199000091GF107991071051012501999999IA2999-00109MD1710081-1301REMSYN076AAXX  19001 54259 32680 72503 10105 21082 40173 57008 875// 333 06314 31015;EQDQ01  00002PRCP99
0112542590999992000101903004+42090+124940FM-12+023599999V0202201N005010120019N0300001N1+01281-00151101661ADDGF108991081051012501999999MD1710061+9999REMSYN060AAXX  19031 54259 42680 82205 10128 21015 40166 57006 885//;
0165542590999992000101906004+42090+124940FM-12+023599999V0202201N004010120019N0300001N1+01401+00441101461ADDAA199000091GF108991081051012501999999KA1999N+00091MD1710201+9999REMSYN070AAXX  19061 54259 32680 82204 10140 20044 40146 57020 885// 333 20009;EQDQ01  00002PRCP99
0112542590999992000101909004+42090+124940FM-12+023599999V0202201N002010120019N0200001N1+01001+00861101551ADDGF108991081051012501999999MD1210071+9999REMSYN060AAXX  19091 54259 42670 82202 10100 20086 40155 52007 885//;
0149542590999992000101912004+42090+124940FM-12+023599999V0209999C000010120019N0120001N1+01031+00851101511ADDAA106001091AY161061GF108991081051012501999999MD1210011+9999MW1601REMSYN072AAXX  19121 54259 11662 80000 10103 20085 40151 52001 60011 76060 885//;
0180542590999992000101918004+42090+124940FM-12+023599999V0209999C000010120019N0150001N1+00621+00151101971ADDAA106004191AY181061AY261061GF108991081051012501999999KA1999M+01421MD1210241+9999MW1001REMSYN082AAXX  19181 54259 11665 80000 10062 20015 40197 52024 60041 70086 885// 333 10142;
0143542590999992000101921004+42090+124940FM-12+023599999V0209999C000012200019N0200001N1+00301-00141102091ADDAA124005391GA1001+999999999GF100991001001999999001001MD1210081+9999REMSYN064AAXX  19211 54259 42970 00000 10030 21014 40209 52008 333 70053;
0167542590999992000102000004+42090+124940FM-12+023599999V0209999C000012200019N0300001N1+00341-00131102311ADDAA124005391GA1001+999999999GF100991001001999999001001IA2999-00069MD1210221+0601REMSYN076AAXX  20001 54259 32980 00000 10034 21013 40231 52022 333 00657 31006 70053;
0122542590999992000102003004+42090+124940FM-12+023599999V0201801N001012200019N0300001N1+00851-00431102211ADDGA1001+999999999GF100991001001999999001001MD1710081+9999REMSYN054AAXX  20031 54259 42980 01801 10085 21043 40221 57008;
0175542590999992000102006004+42090+124940FM-12+023599999V0202201N003012200019N0300001N1+01221-00511102011ADDAA199000091GA1001+999999999GF100991001001999999001001KA1999N+00131MD1710191+9999REMSYN064AAXX  20061 54259 32980 02203 10122 21051 40201 57019 333 20013;EQDQ01  00002PRCP99
0112542590999992000102009004+42090+124940FM-12+023599999V0202701N002012200019N0250001N1+00881-00501102011ADDGF101991011051012501001001MD1710031+9999REMSYN060AAXX  20091 54259 42675 12702 10088 21050 40201 57003 81500;
0152542590999992000102012004+42090+124940FM-12+023599999V0209999C000012200019N0150001N1+00291-00221102151ADDAA199000091GA1001+999999999GF100991001001999999001001MD1210111+9999REMSYN054AAXX  20121 54259 32965 00000 10029 21022 40215 52011;EQDQ01  00002PRCP99
0175542590999992000102018004+42090+124940FM-12+023599999V0209999C000012200019N0150001N1-00191-00381102201ADDAA199000091GA1001+999999999GF100991001001999999001001KA1999M+01241MD1710041+9999REMSYN064AAXX  20181 54259 32965 00000 11019 21038 40220 57004 333 10124;EQDQ01  00002PRCP99
0122542590999992000102021004+42090+124940FM-12+023599999V0209999C000012200019N0150001N1-00201-00361102361ADDGA1001+999999999GF100991001001999999001001MD1210141+9999REMSYN054AAXX  20211 54259 42965 00000 11020 21036 40236 52014;
0180542590999992000102100004+42090+124940FM-12+023599999V0209999C000012200019N0150001N1+00181-00191102591ADDAA199000091GA1001+999999999GF100991001001999999001001IA2999-00309MD1210211+0201REMSYN070AAXX  21001 54259 32965 00000 10018 21019 40259 52021 333 00252 31039;EQDQ01  00002PRCP99
0122542590999992000102103004+42090+124940FM-12+023599999V0202701N005012200019N0300001N1+01061-00871102621ADDGA1001+999999999GF100991001001999999001001MD1210061+9999REMSYN054AAXX  21031 54259 42980 02705 10106 21087 40262 52006;
0175542590999992000102106004+42090+124940FM-12+023599999V0202501N004012200019N0300001N1+01191-01361102581ADDAA199000091GA1001+999999999GF100991001001999999001001KA1999N-00201MD1710041+9999REMSYN064AAXX  21061 54259 32980 02504 10119 21136 40258 57004 333 21020;EQDQ01  00002PRCP99
0122542590999992000102109004+42090+124940FM-12+023599999V0203201N001012200019N0300001N1+00791-00981102621ADDGA1001+999999999GF100991001001999999001001MD1210021+9999REMSYN054AAXX  21091 54259 42980 03201 10079 21098 40262 52002;
0152542590999992000102112004+42090+124940FM-12+023599999V0200401N001012200019N0300001N1+00231-00561102791ADDAA199000091GA1001+999999999GF100991001001999999001001MD1210161+9999REMSYN054AAXX  21121 54259 32980 00401 10023 21056 40279 52016;EQDQ01  00002PRCP99
0175542590999992000102118004+42090+124940FM-12+023599999V0209999C000012200019N0200001N1-00381-00631102861ADDAA199000091GA1001+999999999GF100991001001999999001001KA1999M+01251MD1210011+9999REMSYN064AAXX  21181 54259 32970 00000 11038 21063 40286 52001 333 10125;EQDQ01  00002PRCP99
0122542590999992000102121004+42090+124940FM-12+023599999V0209999C000012200019N0200001N1-00501-00891102861ADDGA1001+999999999GF100991001001999999001001MD1710021+9999REMSYN054AAXX  21211 54259 42970 00000 11050 21089 40286 57002;
0162542590999992000102200004+42090+124940FM-12+023599999V0209999C000012200019N0200001N1-00181-00721102761ADDAA199000091GA1001+999999999GF100991001001999999001001MD1710111+0021REMSYN064AAXX  22001 54259 32970 00000 11018 21072 40276 57011 333 00254;EQDQ01  00002PRCP99
0112542590999992000102203004+42090+124940FM-12+023599999V0209999C000019999999N0300001N1+00781-00431102601ADDGF107991001001999999001021MD1710131+9999REMSYN060AAXX  22031 54259 42980 70000 10078 21043 40260 57013 80002;
0165542590999992000102206004+42090+124940FM-12+023599999V0202201N001019999999N0300001N1+01621-00441102171ADDAA199000091GF107991001001999999001021KA1999N-00531MD1710381+9999REMSYN070AAXX  22061 54259 32980 72201 10162 21044 40217 57038 80002 333 21053;EQDQ01  00002PRCP99
0112542590999992000102209004+42090+124940FM-12+023599999V0203601N001010120019N0180001N1+01201-00041102151ADDGF107991061051012501001021MD1710051+9999REMSYN060AAXX  22091 54259 42668 73601 10120 21004 40215 57005 86502;
0142542590999992000102212004+42090+124940FM-12+023599999V0209999C000010120019N0120001N1+00851+00151102141ADDAA199000091GF108991081051012501999999MD1710011+9999REMSYN060AAXX  22121 54259 32662 80000 10085 20015 40214 57001 885//;EQDQ01  00002PRCP99
0164542590999992000102218004+42090+124940FM-12+023599999V0203401N001010120019N0120001N1+00671+00211102031ADDAA106000791GF108991081051012501999999KA1999M+01641MD1210011+9999MW1601REMSYN082AAXX  22181 54259 11662 83401 10067 20021 40203 52001 69901 76000 885// 333 10164;
0161542590999992000102221004+42090+124940FM-12+023599999V0209999C000010120019N0120001N1+00581+00441102061ADDAA124001091AY161031AY261031GF108991081051012501999999MD1210011+9999MW1601REMSYN076AAXX  22211 54259 41662 80000 10058 20044 40206 52001 76066 885// 333 70011;
0165542590999992000102300004+42090+124940FM-12+023599999V0209999C000010120019N0070001N1+00661+00531102041ADDAA106001091AY161061GF108991081051012501999999MD1710041-0601MW1101REMSYN088AAXX  23001 54259 11657 80000 10066 20053 40204 57004 60011 71060 885// 333 05608 70013;
0112542590999992000102303004+42090+124940FM-12+023599999V0209999C000010120019N0250001N1+01011+00671102151ADDGF108991081051012501999999MD1210121+9999REMSYN060AAXX  23031 54259 42675 80000 10101 20067 40215 52012 885//;
0146542590999992000102306004+42090+124940FM-12+023599999V0202201N001010120019N0300001N1+01381+00851101921ADDAA199000021GF107991071051012501999999KA1999N+00581MD1710211+9999REMSYN070AAXX  23061 54259 32680 72201 10138 20085 40192 57021 875// 333 20058;
0112542590999992000102309004+42090+124940FM-12+023599999V0209999C000012200019N0200001N1+01181+00821101911ADDGF102991001001999999001021MD1710021+9999REMSYN060AAXX  23091 54259 42970 20000 10118 20082 40191 57002 80002;
0142542590999992000102312004+42090+124940FM-12+023599999V0209999C000010120019N0150001N1+00881+00671101961ADDAA199000091GF108991081051012501999999MD1210041+9999REMSYN060AAXX  23121 54259 32665 80000 10088 20067 40196 52004 885//;EQDQ01  00002PRCP99
0177542590999992000102318004+42090+124940FM-12+023599999V0209999C000012200019N0080001N1+00491+00421101901ADDAA199000091GF104991041051012501001001KA1999M+01501MD1410001+9999MW1101REMSYN076AAXX  23181 54259 31658 40000 10049 20042 40190 54000 71000 84500 333 10150;EQDQ01  00002PRCP99
0145542590999992000102321004+42090+124940FM-12+023599999V0209999C000012200019N0080001N1+00521+00401101761ADDAA124000391GF104991001001999999001021MD1710151+9999MW1101REMSYN076AAXX  23211 54259 41958 40000 10052 20040 40176 57015 71000 80002 333 70002;
0175542590999992000102400004+42090+124940FM-12+023599999V0209999C000010120019N0110001N1+00661+00531101761ADDAA106000791GF108991081051012501999999IA2999+00259MD1710011-0301MW1601REMSYN094AAXX  24001 54259 11661 80000 10066 20053 40176 57001 69901 76000 885// 333 05300 30025 79999;
0132542590999992000102403004+42090+124940FM-12+023599999V0209999C000010120019N0080001N1+00941+00881101811ADDAY161031GF108991081051012501999999MD1210051+9999MW1601REMSYN066AAXX  24031 54259 41658 80000 10094 20088 40181 52005 76060 885//;
0172542590999992000102406004+42090+124940FM-12+023599999V0202201N001010120019N0080001N1+01051+00991101821ADDAA106005191AY161061GF108991081051012501999999KA1999N+00481MD1210011+9999MW1601REMSYN082AAXX  24061 54259 11658 82201 10105 20099 40182 52001 60051 76060 885// 333 20048;
0132542590999992000102409004+42090+124940FM-12+023599999V0202501N002010120019N0080001N1+01051+00951101961ADDAY161031GF108991081051012501999999MD1210141+9999MW1101REMSYN066AAXX  24091 54259 41658 82502 10105 20095 40196 52014 71060 885//;
0168542590999992000102412004+42090+124940FM-12+023599999V0202201N003019999999N0150001N1+00841-00672102211ADDAA106000191AY161061GF107991001001999999001021MD1210241+9999MW1001REMSYN072AAXX  24121 54259 11965 72203 10084 21067 40221 52024 69911 70060 80002;EQDQ01-000673ATOD  
0156542590999992000102418004+42090+124940FM-12+023599999V0209999C000012200019N0250001N1-00021-00541102551ADDAA199000021GA1001+999999999GF100991001001999999001001KA1999M+01111MD1210061+9999REMSYN064AAXX  24181 54259 32975 00000 11002 21054 40255 52006 333 10111;
0143542590999992000102421004+42090+124940FM-12+023599999V0209999C000012200019N0250001N1-00251-00561102641ADDAA124004891GA1001+999999999GF100991001001999999001001MD1210081+9999REMSYN064AAXX  24211 54259 42975 00000 11025 21056 40264 52008 333 70047;
0139542590999992000102500004+42090+124940FM-12+023599999V0209999C000012200019N0150001N1-00191-00601102841ADDAA124004891GF102991001001999999001021MD1210191+1001REMSYN076AAXX  25001 54259 32965 20000 11019 21060 40284 52019 80002 333 01059 70047;
0112542590999992000102503004+42090+124940FM-12+023599999V0203601N001012200019N0300001N1+00511-01561102671ADDGF101991001001999999001021MD1710151+9999REMSYN060AAXX  25031 54259 42980 13601 10051 21156 40267 57015 80002;
0165542590999992000102506004+42090+124940FM-12+023599999V0202701N004019999999N0300001N1+00731-01391102481ADDAA199000091GF107991001001999999001021KA1999N-00361MD1710201+9999REMSYN070AAXX  25061 54259 32980 72704 10073 21139 40248 57020 80002 333 21036;EQDQ01  00002PRCP99
0112542590999992000102509004+42090+124940FM-12+023599999V0202901N003012200019N0300001N1+00431-01621102501ADDGF101991001001999999001021MD1710011+9999REMSYN060AAXX  25091 54259 42980 12903 10043 21162 40250 57001 80002;
0152542590999992000102512004+42090+124940FM-12+023599999V0209999C000012200019N0200001N1-00111-00621102711ADDAA199000091GA1001+999999999GF100991001001999999001001MD1210181+9999REMSYN054AAXX  25121 54259 32970 00000 11011 21062 40271 52018;EQDQ01  00002PRCP99
0175542590999992000102518004+42090+124940FM-12+023599999V0209999C000012200019N0150001N1-00501-00681103001ADDAA199000091GA1001+999999999GF100991001001999999001001KA1999M+00791MD1210141+9999REMSYN064AAXX  25181 54259 32965 00000 11050 21068 40300 52014 333 10079;EQDQ01  00002PRCP99
0122542590999992000102521004+42090+124940FM-12+023599999V0209999C000012200019N0150001N1-00651-00861103131ADDGA1001+999999999GF100991001001999999001001MD1210101+9999REMSYN054AAXX  25211 54259 42965 00000 11065 21086 40313 52010;
0162542590999992000102600004+42090+124940FM-12+023599999V0209999C000012200019N0200001N1-00491-00711103411ADDAA199000091GA1001+999999999GF100991001001999999001001MD1210251+0051REMSYN064AAXX  26001 54259 32970 00000 11049 21071 40341 52025 333 00553;EQDQ01  00002PRCP99
0122542590999992000102603004+42090+124940FM-12+023599999V0203201N002012200019N0300001N1+00291-01291103301ADDGA1001+999999999GF100991001001999999001001MD1710071+9999REMSYN054AAXX  26031 54259 42980 03202 10029 21129 40330 57007;
0175542590999992000102606004+42090+124940FM-12+023599999V0201601N001012200019N0300001N1+00571-01141103241ADDAA199000091GA1001+999999999GF100991001001999999001001KA1999N-00701MD1710061+9999REMSYN064AAXX  26061 54259 32980 01601 10057 21114 40324 57006 333 21070;EQDQ01  00002PRCP99
0122542590999992000102609004+42090+124940FM-12+023599999V0203401N003012200019N0300001N1+00301-01001103211ADDGA1001+999999999GF100991001001999999001001MD1710051+9999REMSYN054AAXX  26091 54259 42980 03403 10030 21100 40321 57005;
0152542590999992000102612004+42090+124940FM-12+023599999V0200701N001012200019N0180001N1-00121-00761103291ADDAA199000091GA1001+999999999GF100991001001999999001001MD1210071+9999REMSYN054AAXX  26121 54259 32968 00701 11012 21076 40329 52007;EQDQ01  00002PRCP99
0175542590999992000102618004+42090+124940FM-12+023599999V0209999C000012200019N0200001N1-00511-00861103281ADDAA199000091GA1001+999999999GF100991001001999999001001KA1999M+00621MD1710051+9999REMSYN064AAXX  26181 54259 32970 00000 11051 21086 40328 57005 333 10062;EQDQ01  00002PRCP99
0122542590999992000102621004+42090+124940FM-12+023599999V0209999C000012200019N0200001N1-00541-00901103261ADDGA1001+999999999GF100991001001999999001001MD1710031+9999REMSYN054AAXX  26211 54259 42970 00000 11054 21090 40326 57003;
0162542590999992000102700004+42090+124940FM-12+023599999V0209999C000012200019N0250001N1-00361-00671103311ADDAA199000091GA1001+999999999GF100991001001999999001001MD1210031+0011REMSYN064AAXX  27001 54259 32975 00000 11036 21067 40331 52003 333 05101;EQDQ01  00002PRCP99
0122542590999992000102703004+42090+124940FM-12+023599999V0209999C000012200019N0300001N1+00671-00761103131ADDGA1001+999999999GF100991001001999999001001MD1710131+9999REMSYN054AAXX  27031 54259 42980 00000 10067 21076 40313 57013;
0175542590999992000102706004+42090+124940FM-12+023599999V0200201N005012200019N0300001N1+01171-01811102861ADDAA199000091GA1001+999999999GF100991001001999999001001KA1999N-00591MD1710241+9999REMSYN064AAXX  27061 54259 32980 00205 10117 21181 40286 57024 333 21059;EQDQ01  00002PRCP99
0112542590999992000102709004+42090+124940FM-12+023599999V0209999C000012200019N0200001N1+00701-00661102861ADDGF102991001001999999001021MD1710031+9999REMSYN060AAXX  27091 54259 42970 20000 10070 21066 40286 57003 80002;
0152542590999992000102712004+42090+124940FM-12+023599999V0209999C000012200019N0120001N1+00131-00621103041ADDAA199000091GA1001+999999999GF100991001001999999001001MD1210151+9999REMSYN054AAXX  27121 54259 32962 00000 10013 21062 40304 52015;EQDQ01  00002PRCP99
0191542590999992000102718004+42090+124940FM-12+023599999V0209999C000012200019N0150001N1-00241-00621999999ADDAA199000091GA1001+999999999GF100991001001999999001001KA1999M+01191MD1710041+9999REMSYN064AAXX  27181 54259 32965 00000 11024 21062 40029 57004 333 10119;EQDQ01+100293APOSLPQ02  00002PRCP99
0122542590999992000102721004+42090+124940FM-12+023599999V0209999C000012200019N0150001N1-00321-00601102921ADDGA1001+999999999GF100991001001999999001001MD1710071+9999REMSYN054AAXX  27211 54259 42965 00000 11032 21060 40292 57007;
0170542590999992000102800004+42090+124940FM-12+023599999V0209999C000010120019N0120001N1-00181-00551102941ADDAA199000091GF108991081051012501999999IA2999-00409MD1410001-0301REMSYN076AAXX  28001 54259 32662 80000 11018 21055 40294 54000 885// 333 05302 31044;EQDQ01  00002PRCP99
0112542590999992000102803004+42090+124940FM-12+023599999V0202201N001019999999N0120001N1+00381-00501102761ADDGF107991001001999999001021MD1710161+9999REMSYN060AAXX  28031 54259 42962 72201 10038 21050 40276 57016 80002;
0112542590999992000102809004+42090+124940FM-12+023599999V0203201N002019999999N0200001N1+00781-00431102421ADDGF107991001001999999001021MD1210011+9999REMSYN060AAXX  28091 54259 42970 73202 10078 21043 40242 52001 80002;
0142542590999992000102812004+42090+124940FM-12+023599999V0209999C000012200019N0150001N1+00181-00361102511ADDAA199000091GF102991001001999999001021MD1210061+9999REMSYN060AAXX  28121 54259 32965 20000 10018 21036 40251 52006 80002;EQDQ01  00002PRCP99
0175542590999992000102818004+42090+124940FM-12+023599999V0209999C000012200019N0150001N1-00391-00511102401ADDAA199000091GA1001+999999999GF100991001001999999001001KA1999M+01171MD1710091+9999REMSYN064AAXX  28181 54259 32965 00000 11039 21051 40240 57009 333 10117;EQDQ01  00002PRCP99
0122542590999992000102821004+42090+124940FM-12+023599999V0209999C000012200019N0150001N1-00471-00611102331ADDGA1001+999999999GF100991001001999999001001MD1710101+9999REMSYN054AAXX  28211 54259 42965 00000 11047 21061 40233 57010;
0182542590999992000102900004+42090+124940FM-12+023599999V0209999C000010900019N0080001N1-00371-00531102341ADDAA199000091GF107991011051012501001021IA2999-00409MD1710011-0601MW1041REMSYN082AAXX  29001 54259 31658 70000 11037 21053 40234 57001 70400 81502 333 05652 31048;EQDQ01  00002PRCP99
0112542590999992000102903004+42090+124940FM-12+023599999V0202201N003012200019N0300001N1+00391-01211102171ADDGF101991001001999999001021MD1710151+9999REMSYN060AAXX  29031 54259 42980 12203 10039 21121 40217 57015 80002;
0175542590999992000102906004+42090+124940FM-12+023599999V0202201N004012200019N0300001N1+00771-01141101941ADDAA199000091GA1001+999999999GF100991001001999999001001KA1999N-00481MD1710211+9999REMSYN064AAXX  29061 54259 32980 02204 10077 21114 40194 57021 333 21048;EQDQ01  00002PRCP99
0122542590999992000102909004+42090+124940FM-12+023599999V0203401N002012200019N0280001N1+00321-01111101961ADDGA1001+999999999GF100991001001999999001001MD1710011+9999REMSYN054AAXX  29091 54259 42978 03402 10032 21111 40196 57001;
0152542590999992000102912004+42090+124940FM-12+023599999V0209999C000012200019N0200001N1-00101-00951102061ADDAA199000091GA1001+999999999GF100991001001999999001001MD1210081+9999REMSYN054AAXX  29121 54259 32970 00000 11010 21095 40206 52008;EQDQ01  00002PRCP99
0175542590999992000102918004+42090+124940FM-12+023599999V0209999C000012200019N0180001N1-00561-00881102051ADDAA199000091GA1001+999999999GF100991001001999999001001KA1999M+00801MD1710011+9999REMSYN064AAXX  29181 54259 32968 00000 11056 21088 40205 57001 333 10080;EQDQ01  00002PRCP99
0122542590999992000102921004+42090+124940FM-12+023599999V0209999C000012200019N0180001N1-00681-00981102071ADDGA1001+999999999GF100991001001999999001001MD1710011+9999REMSYN054AAXX  29211 54259 42968 00000 11068 21098 40207 57001;
0162542590999992000103000004+42090+124940FM-12+023599999V0209999C000012200019N0120001N1-00361-00931102081ADDAA199000091GA1001+999999999GF100991001001999999001001MD1410001+0031REMSYN064AAXX  30001 54259 32962 00000 11036 21093 40208 54000 333 05300;EQDQ01  00002PRCP99
0141542590999992000103003004+42090+124940FM-12+023599999V0202001N003012200019N0200001N1+01012-00861101881ADDGA1001+999999999GF100991001001999999001001MD1710141+9999REMSYN054AAXX  30031 54259 42970 02003 10101 21086 40188 57014;EQDQ01+001013ATOT  
0165542590999992000103006004+42090+124940FM-12+023599999V0202201N005012200019N0300001N1+01241-00921101681ADDAA199000091GF102991021001999999031021KA1999N-00681MD1710191+9999REMSYN070AAXX  30061 54259 32980 22205 10124 21092 40168 57019 82032 333 21068;EQDQ01  00002PRCP99
0112542590999992000103009004+42090+124940FM-12+023599999V0202501N002012200019N0250001N1+00961-00321101751ADDGF102991011051012501001021MD1210051+9999REMSYN060AAXX  30091 54259 42675 22502 10096 21032 40175 52005 81502;
0152542590999992000103012004+42090+124940FM-12+023599999V0209999C000012200019N0150001N1+00631-00241102011ADDAA199000091GA1001+999999999GF100991001001999999001001MD1210251+9999REMSYN054AAXX  30121 54259 32965 00000 10063 21024 40201 52025;EQDQ01  00002PRCP99
0165542590999992000103018004+42090+124940FM-12+023599999V0209999C000010120019N0180001N1+00601+00101102051ADDAA199000091GF108991081051012501999999KA1999M+01321MD1210051+9999REMSYN070AAXX  30181 54259 32668 80000 10060 20010 40205 52005 885// 333 10132;EQDQ01  00002PRCP99
0153542590999992000103021004+42090+124940FM-12+023599999V0203401N001010120019N0120001N1+00521+00231102131ADDAA124000791AY161031GF108991081051012501999999MD1210061+9999MW1001REMSYN076AAXX  30211 54259 41662 83401 10052 20023 40213 52006 70060 885// 333 79999;
0183542590999992000103100004+42090+124940FM-12+023599999V0209999C000010120019N0120001N1+00401+00171102371ADDAA106000391AY161061GF108991081051012501999999IA2999+00109MD1210211+0401MW1601REMSYN094AAXX  31001 54259 11662 80000 10040 20017 40237 52021 69931 76060 885// 333 00408 30010 70003;
0132542590999992000103103004+42090+124940FM-12+023599999V0202001N003010120019N0300001N1+00761-00591102341ADDAY161031GF107991061051012501001021MD1710021+9999MW1001REMSYN066AAXX  31031 54259 41680 72003 10076 21059 40234 57002 70060 86502;
0172542590999992000103106004+42090+124940FM-12+023599999V0202501N003019999999N0300001N1+00831-00731102251ADDAA106000191AY161061GF107991021001999999031021KA1999N+00391MD1710081+9999MW1001REMSYN082AAXX  31061 54259 11980 72503 10083 21073 40225 57008 69921 70060 82032 333 20039;
0122542590999992000103109004+42090+124940FM-12+023599999V0202701N002012200019N0300001N1+00561-00581102311ADDGA1001+999999999GF100991001001999999001001MD1210041+9999REMSYN054AAXX  31091 54259 42980 02702 10056 21058 40231 52004;
0133542590999992000103112004+42090+124940FM-12+023599999V0209999C000012200019N0150001N1+00061-00441102521ADDAA199000021GA1001+999999999GF100991001001999999001001MD1210181+9999REMSYN054AAXX  31121 54259 32965 00000 10006 21044 40252 52018;
0175542590999992000103118004+42090+124940FM-12+023599999V0209999C000012200019N0200001N1-00381-00611102611ADDAA199000091GA1001+999999999GF100991001001999999001001KA1999M+00891MD1210021+9999REMSYN064AAXX  31181 54259 32970 00000 11038 21061 40261 52002 333 10089;EQDQ01  00002PRCP99
0143542590999992000103121004+42090+124940FM-12+023599999V0209999C000012200019N0200001N1-00521-00701102601ADDAA124000591GA1001+999999999GF100991001001999999001001MD1710031+9999REMSYN064AAXX  31211 54259 42970 00000 11052 21070 40260 57003 333 70005;
0161542590999992000110100004+42090+124940FM-12+023599999V0200901N001012200019N0080001N1-00311-00491102641ADDAA124000391GA1001+999999999GF100991001001999999001001MD1210021+0201MW1041REMSYN076AAXX  01001 54259 31958 00901 11031 21049 40264 52002 70400 333 00257 70002;
0122542590999992000110103004+42090+124940FM-12+023599999V0201601N001012200019N0150001N1+00831-00391102491ADDGA1001+999999999GF100991001001999999001001MD1710091+9999REMSYN054AAXX  01031 54259 42965 01601 10083 21039 40249 57009;
0175542590999992000110106004+42090+124940FM-12+023599999V0209999C000012200019N0300001N1+01151-00871102211ADDAA199000091GA1001+999999999GF100991001001999999001001KA1999N-00571MD1710271+9999REMSYN064AAXX  01061 54259 32980 00000 10115 21087 40221 57027 333 21057;EQDQ01  00002PRCP99
0122542590999992000110109004+42090+124940FM-12+023599999V0209999C000012200019N0300001N1+00661-00461102231ADDGA1001+999999999GF100991001001999999001001MD1710011+9999REMSYN054AAXX  01091 54259 42980 00000 10066 21046 40223 57001;
0152542590999992000110112004+42090+124940FM-12+023599999V0209999C000012200019N0180001N1+00131-00501102241ADDAA199000091GA1001+999999999GF100991001001999999001001MD1710011+9999REMSYN054AAXX  01121 54259 32968 00000 10013 21050 40224 57001;EQDQ01  00002PRCP99
0175542590999992000110118004+42090+124940FM-12+023599999V0209999C000012200019N0200001N1-00351-00631102091ADDAA199000091GA1001+999999999GF100991001001999999001001KA1999M+01231MD1710081+9999REMSYN064AAXX  01181 54259 32970 00000 11035 21063 40209 57008 333 10123;EQDQ01  00002PRCP99
0122542590999992000110121004+42090+124940FM-12+023599999V0209999C000012200019N0200001N1-00481-00621102091ADDGA1001+999999999GF100991001001999999001001MD1710041+9999REMSYN054AAXX  01211 54259 42970 00000 11048 21062 40209 57004;
0162542590999992000110200004+42090+124940FM-12+023599999V0209999C000012200019N0120001N1-00211-00521102151ADDAA199000091GA1001+999999999GF100991001001999999001001MD1210051+0051REMSYN064AAXX  02001 54259 32962 00000 11021 21052 40215 52005 333 05501;EQDQ01  00002PRCP99
0141542590999992000110203004+42090+124940FM-12+023599999V0209999C000012200019N0200001N1+00972-00271102101ADDGA1001+999999999GF100991001001999999001001MD1410001+9999REMSYN054AAXX  02031 54259 42970 00000 10097 21027 40210 54000;EQDQ01+000973ATOT  
0175542590999992000110206004+42090+124940FM-12+023599999V0202201N005012200019N0300001N1+01471-00801102021ADDAA199000091GA1001+999999999GF100991001001999999001001KA1999N-00501MD1710071+9999REMSYN064AAXX  02061 54259 32980 02205 10147 21080 40202 57007 333 21050;EQDQ01  00002PRCP99
0122542590999992000110209004+42090+124940FM-12+023599999V0209999C000012200019N0200001N1+00991-00271102081ADDGA1001+999999999GF100991001001999999001001MD1210031+9999REMSYN054AAXX  02091 54259 42970 00000 10099 21027 40208 52003;
0152542590999992000110212004+42090+124940FM-12+023599999V0209999C000012200019N0150001N1+00401-00251102341ADDAA199000091GA1001+999999999GF100991001001999999001001MD1210241+9999REMSYN054AAXX  02121 54259 32965 00000 10040 21025 40234 52024;EQDQ01  00002PRCP99
0175542590999992000110218004+42090+124940FM-12+023599999V0209999C000012200019N0150001N1-00121-00341102441ADDAA199000091GA1001+999999999GF100991001001999999001001KA1999M+01501MD1210061+9999REMSYN064AAXX  02181 54259 32965 00000 11012 21034 40244 52006 333 10150;EQDQ01  00002PRCP99
0122542590999992000110221004+42090+124940FM-12+023599999V0209999C000012200019N0150001N1-00241-00401102541ADDGA1001+999999999GF100991001001999999001001MD1210071+9999REMSYN054AAXX  02211 54259 42965 00000 11024 21040 40254 52007;
0174542590999992000110300004+42090+124940FM-12+023599999V0209999C000012200019N0080001N1-00041-00191102591ADDAA199000091GA1001+999999999GF100991001001999999001001MD1210031+0051MW1041REMSYN070AAXX  03001 54259 31958 00000 11004 21019 40259 52003 70400 333 00502;EQDQ01  00002PRCP99
0141542590999992000110303004+42090+124940FM-12+023599999V0209999C000012200019N0120001N1+01092-00011102481ADDGA1001+999999999GF100991001001999999001001MD1710071+9999REMSYN054AAXX  03031 54259 42962 00000 10109 21001 40248 57007;EQDQ01+001093ATOT  
0175542590999992000110306004+42090+124940FM-12+023599999V0202201N004012200019N0300001N1+01941-00711102201ADDAA199000091GA1001+999999999GF100991001001999999001001KA1999N-00301MD1710241+9999REMSYN064AAXX  03061 54259 32980 02204 10194 21071 40220 57024 333 21030;EQDQ01  00002PRCP99
0112542590999992000110309004+42090+124940FM-12+023599999V0209999C000012200019N0200001N1+01221-00261102121ADDGF101991001001999999001021MD1710121+9999REMSYN060AAXX  03091 54259 42970 10000 10122 21026 40212 57012 80002;
0154542590999992000110312004+42090+124940FM-12+023599999V0209999C000019999999N0080001N1+00671-00151102151ADDAA199000091GF107991001001999999001021MD1210021+9999MW1041REMSYN066AAXX  03121 54259 31958 70000 10067 21015 40215 52002 70400 80002;EQDQ01  00002PRCP99
0165542590999992000110318004+42090+124940FM-12+023599999V0202701N001019999999N0150001N1+00711-00061101831ADDAA199000091GF107991001001999999001021KA1999M+01951MD1710141+9999REMSYN070AAXX  03181 54259 32965 72701 10071 21006 40183 57014 80002 333 10195;EQDQ01  00002PRCP99
0112542590999992000110321004+42090+124940FM-12+023599999V0202001N004010120019N0150001N1+01071-00181101601ADDGF107991071051012501999999MD1710251+9999REMSYN060AAXX  03211 54259 42665 72004 10107 21018 40160 57025 875//;
0170542590999992000110400004+42090+124940FM-12+023599999V0202201N005010120019N0250001N1+01111+00271101361ADDAA199000091GF108991081051012501999999IA2999+00109MD1710251-1101REMSYN076AAXX  04001 54259 32675 82205 10111 20027 40136 57025 885// 333 06112 30010;EQDQ01  00002PRCP99
0132542590999992000110403004+42090+124940FM-12+023599999V0202201N006010120019N0150001N1+00421+00321101601ADDAY161031GF108991081051012501999999MD1210181+9999MW1601REMSYN066AAXX  04031 54259 41665 82206 10042 20032 40160 52018 76060 885//;
0172542590999992000110406004+42090+124940FM-12+023599999V0202701N002010120019N0300001N1+00371+00191101471ADDAA106007191AY161061GF107991071051012501999999KA1999N+00271MD1710111+9999MW1001REMSYN082AAXX  04061 54259 11680 72702 10037 20019 40147 57011 60071 70060 875// 333 20027;
0122542590999992000110409004+42090+124940FM-12+023599999V0202901N001012200019N0150001N1+00351+00201101491ADDGA1001+999999999GF100991001001999999001001MD1210031+9999REMSYN054AAXX  04091 54259 42965 02901 10035 20020 40149 52003;
0195542590999992000110418004+42090+124940FM-12+023599999V0209999C000010006019N0006001N1-00101-00131101731ADDAA199000091AY141061GA1091+999999999GF109991091999999999999999KA1999M+01161MD1710011+9999MW1451REMSYN070AAXX  04181 54259 31/06 90000 11010 21013 40173 57001 74540 333 10116;EQDQ01  00002PRCP99
0171542590999992000110421004+42090+124940FM-12+023599999V0209999C000010006019N0006001N1-00341-00421101711ADDAA124006991AY141031AY241031GA1091+999999999GF109991091999999999999999MD1710031+9999MW1451REMSYN070AAXX  04211 54259 41/06 90000 11034 21042 40171 57003 74544 333 70069;
0195542590999992000110500004+42090+124940FM-12+023599999V0209999C000010006019N0008001N1-00221-00281101801ADDAA124006991AY141061AY241061GA1091+999999999GF109991091999999999999999IA2999-00099MD1210081+0301MW1431REMSYN082AAXX  05001 54259 31/08 90000 11022 21028 40180 52008 74344 333 00363 31009 70069;
0161542590999992000110503004+42090+124940FM-12+023599999V0202501N005012200019N0200001N1+00912-00211101771ADDAY141031GA1001+999999999GF100991001001999999001001MD1210021+9999MW1001REMSYN060AAXX  05031 54259 41970 02505 10091 21021 40177 52002 70040;EQDQ01+000913ATOT  
0185542590999992000110506004+42090+124940FM-12+023599999V0202501N006012200019N0220001N1+01191-00481101651ADDAA199000091AY141061GF101991011051012501001021KA1999N-00371MD1710111+9999MW1001REMSYN076AAXX  05061 54259 31672 12506 10119 21048 40165 57011 70040 81502 333 21037;EQDQ01  00002PRCP99
0112542590999992000110509004+42090+124940FM-12+023599999V0200201N001012200019N0150001N1+00791+00271101631ADDGF101991011051012501001001MD1710051+9999REMSYN060AAXX  05091 54259 42665 10201 10079 20027 40163 57005 81500;
0142542590999992000110512004+42090+124940FM-12+023599999V0209999C000012200019N0200001N1+00441+00161101651ADDAA199000091GF102991001001999999001021MD1210011+9999REMSYN060AAXX  05121 54259 32970 20000 10044 20016 40165 52001 80002;EQDQ01  00002PRCP99
0165542590999992000110518004+42090+124940FM-12+023599999V0202501N003010120019N0120001N1+00951+00021101431ADDAA199000091GF108991081051012501999999KA1999M+01201MD1710071+9999REMSYN070AAXX  05181 54259 32662 82503 10095 20002 40143 57007 885// 333 10120;EQDQ01  00002PRCP99
0112542590999992000110521004+42090+124940FM-12+023599999V0202501N003010120019N0120001N1+00971+00411101401ADDGF108991081051012501999999MD1710051+9999REMSYN060AAXX  05211 54259 42662 82503 10097 20041 40140 57005 885//;
0183542590999992000110600004+42090+124940FM-12+023599999V0209999C000010120019N0120001N1+00991+00631101391ADDAA106000191AY161061GF108991081051012501999999IA2999+00049MD1710021-0301MW1601REMSYN094AAXX  06001 54259 11662 80000 10099 20063 40139 57002 69921 76060 885// 333 05312 30004 70002;
0140542590999992000110603004+42090+124940FM-12+023599999V0209999C000010120019N0120001N1+00871+00831101461ADDAY161031AY261031GF108991081051012501999999MD1210051+9999MW1601REMSYN066AAXX  06031 54259 41662 80000 10087 20083 40146 52005 76066 885//;
0172542590999992000110606004+42090+124940FM-12+023599999V0202501N002010120019N0150001N1+01121+00541101481ADDAA106006191AY161061GF107991071051012501999999KA1999N+00321MD1210071+9999MW1001REMSYN082AAXX  06061 54259 11665 72502 10112 20054 40148 52007 60061 70060 875// 333 20032;
0112542590999992000110609004+42090+124940FM-12+023599999V0202701N004010900019N0300001N1+00681-00471101861ADDGF107991011051012501001021MD1210351+9999REMSYN060AAXX  06091 54259 42680 72704 10068 21047 40186 52035 81502;
0123542590999992000110612004+42090+124940FM-12+023599999V0202501N001010120019N0150001N1+00421-00601102101ADDAA199000021GF107991071051012501999999MD1210221+9999REMSYN060AAXX  06121 54259 32665 72501 10042 21060 40210 52022 875//;
0175542590999992000110618004+42090+124940FM-12+023599999V0202701N002012200019N0180001N1+00071-01541102501ADDAA199000091GA1001+999999999GF100991001001999999001001KA1999M+01121MD1210221+9999REMSYN064AAXX  06181 54259 32968 02702 10007 21154 40250 52022 333 10112;EQDQ01  00002PRCP99
0143542590999992000110621004+42090+124940FM-12+023599999V0202701N003012200019N0180001N1-00181-01721102561ADDAA124006691GA1001+999999999GF100991001001999999001001MD1210031+9999REMSYN064AAXX  06211 54259 42968 02703 11018 21172 40256 52003 333 70065;
0167542590999992000110700004+42090+124940FM-12+023599999V0202501N003012200019N0150001N1-00271-01621102791ADDAA124006491GA1001+999999999GF100991001001999999001001IA2999-00479MD1210201+1301REMSYN076AAXX  07001 54259 32965 02503 11027 21162 40279 52020 333 01363 31047 70063;
0112542590999992000110703004+42090+124940FM-12+023599999V0202501N007012200019N0300001N1-00141-01471102921ADDGF102991021051012501001001MD1210131+9999REMSYN060AAXX  07031 54259 42680 22507 11014 21147 40292 52013 82500;
0165542590999992000110706004+42090+124940FM-12+023599999V0202501N004012200019N0300001N1-00051-01641102911ADDAA199000091GF101991011011008001001001KA1999N-00291MD1710021+9999REMSYN070AAXX  07061 54259 32580 12504 11005 21164 40291 57002 81100 333 21029;EQDQ01  00002PRCP99
0122542590999992000110709004+42090+124940FM-12+023599999V0202501N003012200019N0300001N1-00271-01701103001ADDGA1001+999999999GF100991001001999999001001MD1210061+9999REMSYN054AAXX  07091 54259 42980 02503 11027 21170 40300 52006;
0152542590999992000110712004+42090+124940FM-12+023599999V0202501N002012200019N0200001N1-00451-01881103211ADDAA199000091GA1001+999999999GF100991001001999999001001MD1210191+9999REMSYN054AAXX  07121 54259 32970 02502 11045 21188 40321 52019;EQDQ01  00002PRCP99
0175542590999992000110718004+42090+124940FM-12+023599999V0203201N002012200019N0250001N1-00771-02181103391ADDAA199000091GA1001+999999999GF100991001001999999001001KA1999M+00091MD1210051+9999REMSYN064AAXX  07181 54259 32975 03202 11077 21218 40339 52005 333 10009;EQDQ01  00002PRCP99
0122542590999992000110721004+42090+124940FM-12+023599999V0209999C000012200019N0200001N1-00971-02111103501ADDGA1001+999999999GF100991001001999999001001MD1210081+9999REMSYN054AAXX  07211 54259 42970 00000 11097 21211 40350 52008;
0162542590999992000110800004+42090+124940FM-12+023599999V0209999C000012200019N0250001N1-00921-01921103571ADDAA199000091GA1001+999999999GF100991001001999999001001MD1210071+0071REMSYN064AAXX  08001 54259 32975 00000 11092 21192 40357 52007 333 00757;EQDQ01  00002PRCP99
0165542590999992000110806004+42090+124940FM-12+023599999V0202501N002019999999N0300001N1-00351-01901103131ADDAA199000091GF107991001001999999001021KA1999N-01091MD1710231+9999REMSYN070AAXX  08061 54259 32980 72502 11035 21190 40313 57023 80002 333 21109;EQDQ01  00002PRCP99
0112542590999992000110809004+42090+124940FM-12+023599999V0202701N001012200019N0250001N1-00471-01671103091ADDGF104991001001999999001021MD1710051+9999REMSYN060AAXX  08091 54259 42975 42701 11047 21167 40309 57005 80002;
0142542590999992000110812004+42090+124940FM-12+023599999V0202501N002019999999N0200001N1-00521-01621103101ADDAA199000091GF107991001001999999001021MD1210011+9999REMSYN060AAXX  08121 54259 32970 72502 11052 21162 40310 52001 80002;EQDQ01  00002PRCP99
0165542590999992000110818004+42090+124940FM-12+023599999V0209999C000010120019N0200001N1-00681-01191102991ADDAA199000091GF108991081051012501999999KA1999M-00291MD1710081+9999REMSYN070AAXX  08181 54259 32670 80000 11068 21119 40299 57008 885// 333 11029;EQDQ01  00002PRCP99
0112542590999992000110821004+42090+124940FM-12+023599999V0209999C000010120019N0200001N1-00651-01441102971ADDGF107991071051012501999999MD1710021+9999REMSYN060AAXX  08211 54259 42670 70000 11065 21144 40297 57002 875//;
0157542590999992000110900004+42090+124940FM-12+023599999V0209999C000010120019N0300001N1-00561-01351103061ADDAA106000791GF107991071051012501999999MD1210091-0501MW1701REMSYN088AAXX  09001 54259 11680 70000 11056 21135 40306 52009 69901 77000 875// 333 05504 79999;
0132542590999992000110903004+42090+124940FM-12+023599999V0201801N001010900019N0300001N1-00341-01161103081ADDAY171031GF107991021051012501001021MD1210021+9999MW1001REMSYN066AAXX  09031 54259 41680 71801 11034 21116 40308 52002 70070 82502;
0112542590999992000110909004+42090+124940FM-12+023599999V0203401N003012200019N0250001N1-00381-01491103091ADDGF102991001001999999001021MD1210051+9999REMSYN060AAXX  09091 54259 42975 23403 11038 21149 40309 52005 80002;
0123542590999992000110912004+42090+124940FM-12+023599999V0209999C000019999999N0200001N1-00511-01681103221ADDAA199000021GF108991001001999999001071MD1210121+9999REMSYN060AAXX  09121 54259 32970 80000 11051 21168 40322 52012 80007;
0165542590999992000110918004+42090+124940FM-12+023599999V0209999C000019999999N0200001N1-00691-01511103321ADDAA199000091GF108991001001999999001071KA1999M-00221MD1210021+9999REMSYN070AAXX  09181 54259 32970 80000 11069 21151 40332 52002 80007 333 11022;EQDQ01  00002PRCP99
0133542590999992000110921004+42090+124940FM-12+023599999V0209999C000010120019N0200001N1-00721-01421103291ADDAA124000791GF108991081051012501999999MD1710041+9999REMSYN070AAXX  09211 54259 42670 80000 11072 21142 40329 57004 885// 333 79999;
0139542590999992000111000004+42090+124940FM-12+023599999V0202201N002010120019N0200001N1-00691-01441103321ADDAA124000791GF108991081051012501999999MD1210021+0201REMSYN076AAXX  10001 54259 32670 82202 11069 21144 40332 52002 885// 333 00251 79999;
0122542590999992000111003004+42090+124940FM-12+023599999V0202001N004012200019N0300001N1-00301-01461103221ADDGA1001+999999999GF100991001001999999001001MD1710081+9999REMSYN054AAXX  10031 54259 42980 02004 11030 21146 40322 57008;
0175542590999992000111006004+42090+124940FM-12+023599999V0202701N003012200019N0300001N1-00211-01411103131ADDAA199000091GA1001+999999999GF100991001001999999001001KA1999N-00741MD1710091+9999REMSYN064AAXX  10061 54259 32980 02703 11021 21141 40313 57009 333 21074;EQDQ01  00002PRCP99
0122542590999992000111009004+42090+124940FM-12+023599999V0202901N001012200019N0250001N1-00501-01661103251ADDGA1001+999999999GF100991001001999999001001MD1210101+9999REMSYN054AAXX  10091 54259 42975 02901 11050 21166 40325 52010;
0152542590999992000111012004+42090+124940FM-12+023599999V0209999C000012200019N0300001N1-00811-01881103351ADDAA199000091GA1001+999999999GF100991001001999999001001MD1210081+9999REMSYN054AAXX  10121 54259 32980 00000 11081 21188 40335 52008;EQDQ01  00002PRCP99
0175542590999992000111018004+42090+124940FM-12+023599999V0209999C000012200019N0200001N1-01201-01491103421ADDAA199000091GA1001+999999999GF100991001001999999001001KA1999M-00191MD1210011+9999REMSYN064AAXX  10181 54259 32970 00000 11120 21149 40342 52001 333 11019;EQDQ01  00002PRCP99
0122542590999992000111021004+42090+124940FM-12+023599999V0209999C000012200019N0200001N1-01291-01491103271ADDGA1001+999999999GF100991001001999999001001MD1710171+9999REMSYN054AAXX  10211 54259 42970 00000 11129 21149 40327 57017;
0152542590999992000111100004+42090+124940FM-12+023599999V0209999C000019999999N0100001N1-01181-01401103281ADDAA199000091GF107991001001999999001021MD1410001+0011REMSYN070AAXX  11001 54259 32960 70000 11118 21140 40328 54000 80002 333 05155;EQDQ01  00002PRCP99
0112542590999992000111103004+42090+124940FM-12+023599999V0202201N003012200019N0300001N1-00131-01861103001ADDGF102991001001999999001021MD1710231+9999REMSYN060AAXX  11031 54259 42980 22203 11013 21186 40300 57023 80002;
0165542590999992000111106004+42090+124940FM-12+023599999V0202701N004012200019N0300001N1+00141-01601102641ADDAA199000091GF102991001001999999001021KA1999N-01331MD1710341+9999REMSYN070AAXX  11061 54259 32980 22704 10014 21160 40264 57034 80002 333 21133;EQDQ01  00002PRCP99
0122542590999992000111109004+42090+124940FM-12+023599999V0202001N001012200019N0250001N1-00191-01501102521ADDGA1001+999999999GF100991001001999999001001MD1710141+9999REMSYN054AAXX  11091 54259 42975 02001 11019 21150 40252 57014;
0152542590999992000111112004+42090+124940FM-12+023599999V0209999C000012200019N0110001N1-00551-01461102551ADDAA199000091GA1001+999999999GF100991001001999999001001MD1210021+9999REMSYN054AAXX  11121 54259 32961 00000 11055 21146 40255 52002;EQDQ01  00002PRCP99
0175542590999992000111118004+42090+124940FM-12+023599999V0209999C000012200019N0200001N1-00911-01391102391ADDAA199000091GA1001+999999999GF100991001001999999001001KA1999M+00181MD1710091+9999REMSYN064AAXX  11181 54259 32970 00000 11091 21139 40239 57009 333 10018;EQDQ01  00002PRCP99
0122542590999992000111121004+42090+124940FM-12+023599999V0209999C000012200019N0200001N1-01021-01241102361ADDGA1001+999999999GF100991001001999999001001MD1710051+9999REMSYN054AAXX  11211 54259 42970 00000 11102 21124 40236 57005;
0174542590999992000111200004+42090+124940FM-12+023599999V0209999C000012200019N0070001N1-00881-01241102491ADDAA199000091GA1001+999999999GF100991001001999999001001MD1210111+0071MW1041REMSYN070AAXX  12001 54259 31957 00000 11088 21124 40249 52011 70400 333 05703;EQDQ01  00002PRCP99
0122542590999992000111203004+42090+124940FM-12+023599999V0202501N004012200019N0300001N1-00021-01151102421ADDGA1001+999999999GF100991001001999999001001MD1710031+9999REMSYN054AAXX  12031 54259 42980 02504 11002 21115 40242 57003;
0175542590999992000111206004+42090+124940FM-12+023599999V0202501N005012200019N0300001N1+00121-01221102371ADDAA199000091GA1001+999999999GF100991001001999999001001KA1999N-01041MD1710051+9999REMSYN064AAXX  12061 54259 32980 02505 10012 21122 40237 57005 333 21104;EQDQ01  00002PRCP99
0112542590999992000111209004+42090+124940FM-12+023599999V0202201N001012200019N0300001N1-00181-00951102391ADDGF101991001001999999001021MD1410001+9999REMSYN060AAXX  12091 54259 42980 12201 11018 21095 40239 54000 80002;
0152542590999992000111212004+42090+124940FM-12+023599999V0209999C000012200019N0150001N1-00491-01071102501ADDAA199000091GA1001+999999999GF100991001001999999001001MD1210101+9999REMSYN054AAXX  12121 54259 32965 00000 11049 21107 40250 52010;EQDQ01  00002PRCP99
0175542590999992000111218004+42090+124940FM-12+023599999V0209999C000012200019N0180001N1-00881-01181102541ADDAA199000091GA1001+999999999GF100991001001999999001001KA1999M+00141MD1410001+9999REMSYN064AAXX  12181 54259 32968 00000 11088 21118 40254 54000 333 10014;EQDQ01  00002PRCP99
0122542590999992000111221004+42090+124940FM-12+023599999V0209999C000012200019N0180001N1-00971-01191102501ADDGA1001+999999999GF100991001001999999001001MD1710061+9999REMSYN054AAXX  12211 54259 42968 00000 11097 21119 40250 57006;
0174542590999992000111300004+42090+124940FM-12+023599999V0209999C000012200019N0060001N1-00841-01141102561ADDAA199000091GA1001+999999999GF100991001001999999001001MD1210051+0011MW1041REMSYN070AAXX  13001 54259 31956 00000 11084 21114 40256 52005 70400 333 00100;EQDQ01  00002PRCP99
0141542590999992000111303004+42090+124940FM-12+023599999V0202001N006012200019N0250001N1+00582-00681102441ADDGA1001+999999999GF100991001001999999001001MD1710051+9999REMSYN054AAXX  13031 54259 42975 02006 10058 21068 40244 57005;EQDQ01+000583ATOT  
0175542590999992000111306004+42090+124940FM-12+023599999V0202201N005012200019N0300001N1+00851-00791102261ADDAA199000091GA1001+999999999GF100991001001999999001001KA1999N-01001MD1710171+9999REMSYN064AAXX  13061 54259 32980 02205 10085 21079 40226 57017 333 21100;EQDQ01  00002PRCP99
0112542590999992000111309004+42090+124940FM-12+023599999V0202001N004010120019N0300001N1+00601-00601102331ADDGF107991071051012501999999MD1210051+9999REMSYN060AAXX  13091 54259 42680 72004 10060 21060 40233 52005 875//;
0142542590999992000111312004+42090+124940FM-12+023599999V0202201N004010120019N0200001N1+00501-00471102401ADDAA199000091GF105991051051012501001001MD1210071+9999REMSYN060AAXX  13121 54259 32670 52204 10050 21047 40240 52007 85500;EQDQ01  00002PRCP99
0165542590999992000111318004+42090+124940FM-12+023599999V0202501N002010120019N0250001N1+00451-00251102411ADDAA199000091GF107991071051012501999999KA1999M+00881MD1410001+9999REMSYN070AAXX  13181 54259 32675 72502 10045 21025 40241 54000 875// 333 10088;EQDQ01  00002PRCP99
0112542590999992000111321004+42090+124940FM-12+023599999V0202001N006010120019N0250001N1+00491-00271102431ADDGF107991071051012501999999MD1210011+9999REMSYN060AAXX  13211 54259 42675 72006 10049 21027 40243 52001 875//;
0170542590999992000111400004+42090+124940FM-12+023599999V0202501N002010120019N0200001N1+00511-00211102601ADDAA199000091GF107991071051012501999999IA2999+00009MD1210161+0201REMSYN076AAXX  14001 54259 32670 72502 10051 21021 40260 52016 875// 333 00214 31002;EQDQ01  00002PRCP99
0112542590999992000111403004+42090+124940FM-12+023599999V0202201N003010120019N0200001N1+00801-00011102641ADDGF107991061051012501001021MD1210051+9999REMSYN060AAXX  14031 54259 42670 72203 10080 21001 40264 52005 86502;
0165542590999992000111406004+42090+124940FM-12+023599999V0202701N003012200019N0250001N1+00921-01031102571ADDAA199000091GF101991011051012501001001KA1999N+00401MD1710061+9999REMSYN070AAXX  14061 54259 32675 12703 10092 21103 40257 57006 81500 333 20040;EQDQ01  00002PRCP99
0112542590999992000111409004+42090+124940FM-12+023599999V0202501N001012200019N0250001N1+00381-00761102731ADDGF102991001001999999001021MD1210131+9999REMSYN060AAXX  14091 54259 42975 22501 10038 21076 40273 52013 80002;
0152542590999992000111412004+42090+124940FM-12+023599999V0209999C000012200019N0150001N1-00121-00671102931ADDAA199000091GA1001+999999999GF100991001001999999001001MD1210171+9999REMSYN054AAXX  14121 54259 32965 00000 11012 21067 40293 52017;EQDQ01  00002PRCP99
0175542590999992000111418004+42090+124940FM-12+023599999V0202901N003012200019N0200001N1-00221-01131103531ADDAA199000091GA1001+999999999GF100991001001999999001001KA1999M+00961MD1210271+9999REMSYN064AAXX  14181 54259 32970 02903 11022 21113 40353 52027 333 10096;EQDQ01  00002PRCP99
0162542590999992000111500004+42090+124940FM-12+023599999V0209999C000012200019N0300001N1-00591-01551104131ADDAA199000091GA1001+999999999GF100991001001999999001001MD1210241+0141REMSYN064AAXX  15001 54259 32980 00000 11059 21155 40413 52024 333 01461;EQDQ01  00002PRCP99
0122542590999992000111503004+42090+124940FM-12+023599999V0203201N003012200019N0300001N1-00361-01601104181ADDGA1001+999999999GF100991001001999999001001MD1210041+9999REMSYN054AAXX  15031 54259 42980 03203 11036 21160 40418 52004;
0175542590999992000111506004+42090+124940FM-12+023599999V0200901N003012200019N0300001N1-00221-01951104031ADDAA199000091GA1001+999999999GF100991001001999999001001KA1999N-00851MD1710131+9999REMSYN064AAXX  15061 54259 32980 00903 11022 21195 40403 57013 333 21085;EQDQ01  00002PRCP99
0122542590999992000111509004+42090+124940FM-12+023599999V0200701N003012200019N0300001N1-00421-01731104061ADDGA1001+999999999GF100991001001999999001001MD1410001+9999REMSYN054AAXX  15091 54259 42980 00703 11042 21173 40406 54000;
0152542590999992000111512004+42090+124940FM-12+023599999V0200901N002012200019N0250001N1-00731-01581104211ADDAA199000091GA1001+999999999GF100991001001999999001001MD1210131+9999REMSYN054AAXX  15121 54259 32975 00902 11073 21158 40421 52013;EQDQ01  00002PRCP99
0175542590999992000111518004+42090+124940FM-12+023599999V0201101N002012200019N0200001N1-00891-01561103871ADDAA199000091GA1001+999999999GF100991001001999999001001KA1999M-00151MD1710171+9999REMSYN064AAXX  15181 54259 32970 01102 11089 21156 40387 57017 333 11015;EQDQ01  00002PRCP99
0112542590999992000111521004+42090+124940FM-12+023599999V0200901N001019999999N0200001N1-00791-01541103651ADDGF105991001001999999001021MD1710221+9999REMSYN060AAXX  15211 54259 42970 50901 11079 21154 40365 57022 80002;
0152542590999992000111600004+42090+124940FM-12+023599999V0200701N002010120019N0250001N1-00651-01581103451ADDAA199000091GF108991081051012501999999MD1710201+0071REMSYN070AAXX  16001 54259 32675 80702 11065 21158 40345 57020 885// 333 05751;EQDQ01  00002PRCP99
0124542590999992000111603004+42090+124940FM-12+023599999V0200901N002010120019N0180001N1-00481-01341103261ADDGF108991081051012501999999MD1710191+9999MW1701REMSYN066AAXX  16031 54259 41668 80902 11048 21134 40326 57019 77000 885//;
0172542590999992000111606004+42090+124940FM-12+023599999V0200401N002010120019N0080001N1-00511-01001103021ADDAA106000791AY171061GF108991081051012501999999KA1999N-00981MD1710231+9999MW1701REMSYN082AAXX  16061 54259 11658 80402 11051 21100 40302 57023 69901 77070 885// 333 21098;
0140542590999992000111609004+42090+124940FM-12+023599999V0209999C000010120019N0080001N1-00501-00681102941ADDAY171031AY271031GF108991081051012501999999MD1710071+9999MW1701REMSYN066AAXX  16091 54259 41658 80000 11050 21068 40294 57007 77077 885//;
0157542590999992000111612004+42090+124940FM-12+023599999V0209999C000010120019N0080001N1-00491-00791102841ADDAA106000891AY171061AY271061GF108991081051012501999999MD1710091+9999MW1701REMSYN072AAXX  16121 54259 11658 80000 11049 21079 40284 57009 69981 77077 885//;
0180542590999992000111618004+42090+124940FM-12+023599999V0209999C000010120019N0120001N1-00561-00791102811ADDAA106000191AY171061AY271061GF105991051051012501001001KA1999M-00431MD1710021+9999MW1701REMSYN082AAXX  16181 54259 11662 50000 11056 21079 40281 57002 69921 77077 85500 333 11043;
0161542590999992000111621004+42090+124940FM-12+023599999V0209999C000010120019N0120001N1-00711-00881102781ADDAA124001091AY171031AY271031GF106991061051012501001001MD1710031+9999MW1701REMSYN076AAXX  16211 54259 41662 60000 11071 21088 40278 57003 77077 86500 333 70010;
0179542590999992000111700004+42090+124940FM-12+023599999V0209999C000010120019N0120001N1-00751-00981102851ADDAA106000791AY171061AY271061GF106991061051012501001001MD1210061-0601MW1701REMSYN094AAXX  17001 54259 11662 60000 11075 21098 40285 52006 69901 77077 86500 333 05651 70010 92501;
0132542590999992000111703004+42090+124940FM-12+023599999V0202201N002010120019N0150001N1-00321-00781102811ADDAY171031GF106991061051012501001001MD1710011+9999MW1701REMSYN066AAXX  17031 54259 41665 62202 11032 21078 40281 57001 77070 86500;
0172542590999992000111706004+42090+124940FM-12+023599999V0203401N002010120019N0200001N1-00361-00981102771ADDAA106000791AY171061GF107991071051012501999999KA1999N-00791MD1710051+9999MW1701REMSYN082AAXX  17061 54259 11670 73402 11036 21098 40277 57005 69901 77070 875// 333 21079;
0132542590999992000111709004+42090+124940FM-12+023599999V0203401N002010120019N0200001N1-00521-01171102941ADDAY171031GF107991071051012501999999MD1210151+9999MW1001REMSYN066AAXX  17091 54259 41670 73402 11052 21117 40294 52015 70070 875//;
0159542590999992000111712004+42090+124940FM-12+023599999V0202701N002012200019N0200001N1-00751-01351103241ADDAA106000791AY171061GA1001+999999999GF100991001001999999001001MD1210281+9999MW1001REMSYN066AAXX  17121 54259 11970 02702 11075 21135 40324 52028 69901 70070;
0156542590999992000111718004+42090+124940FM-12+023599999V0209999C000012200019N0150001N1-01351-01501103451ADDAA199000021GA1001+999999999GF100991001001999999001001KA1999M-00241MD1210141+9999REMSYN064AAXX  17181 54259 32965 00000 11135 21150 40345 52014 333 11024;
0143542590999992000111721004+42090+124940FM-12+023599999V0209999C000012200019N0150001N1-01511-01661103551ADDAA124000791GA1001+999999999GF100991001001999999001001MD1210081+9999REMSYN064AAXX  17211 54259 42965 00000 11151 21166 40355 52008 333 79999;
0149542590999992000111800004+42090+124940FM-12+023599999V0200901N001012200019N0120001N1-01431-01621103721ADDAA124000791GA1001+999999999GF100991001001999999001001MD1210151+0801REMSYN070AAXX  18001 54259 32962 00901 11143 21162 40372 52015 333 00857 79999;
0122542590999992000111803004+42090+124940FM-12+023599999V0201801N001012200019N0300001N1-00481-01171103661ADDGA1001+999999999GF100991001001999999001001MD1710021+9999REMSYN054AAXX  18031 54259 42980 01801 11048 21117 40366 57002;
0165542590999992000111806004+42090+124940FM-12+023599999V0202201N003019999999N0300001N1-00231-01151103571ADDAA199000091GF107991001001999999001021KA1999N-01581MD1710091+9999REMSYN070AAXX  18061 54259 32980 72203 11023 21115 40357 57009 80002 333 21158;EQDQ01  00002PRCP99
0112542590999992000111809004+42090+124940FM-12+023599999V0209999C000019999999N0200001N1-00471-01101103561ADDGF107991001001999999001021MD1710031+9999REMSYN060AAXX  18091 54259 42970 70000 11047 21110 40356 57003 80002;
0152542590999992000111812004+42090+124940FM-12+023599999V0200901N001012200019N0200001N1-00781-01221103721ADDAA199000091GA1001+999999999GF100991001001999999001001MD1210141+9999REMSYN054AAXX  18121 54259 32970 00901 11078 21122 40372 52014;EQDQ01  00002PRCP99
0175542590999992000111818004+42090+124940FM-12+023599999V0209999C000012200019N0200001N1-01131-01341103651ADDAA199000091GA1001+999999999GF100991001001999999001001KA1999M-00121MD1710011+9999REMSYN064AAXX  18181 54259 32970 00000 11113 21134 40365 57001 333 11012;EQDQ01  00002PRCP99
0112542590999992000111821004+42090+124940FM-12+023599999V0209999C000019999999N0200001N1-01141-01351103451ADDGF107991001001999999001021MD1710201+9999REMSYN060AAXX  18211 54259 42970 70000 11114 21135 40345 57020 80002;
0158542590999992000111900004+42090+124940FM-12+023599999V0209999C000010120019N0120001N1-00911-01281103391ADDAA199000091GF108991081051012501999999MD1710071-0301REMSYN076AAXX  19001 54259 32662 80000 11091 21128 40339 57007 885// 333 05305 92501;EQDQ01  00002PRCP99
0124542590999992000111903004+42090+124940FM-12+023599999V0209999C000010120019N0080001N1-00551-00961103151ADDGF108991081051012501999999MD1710221+9999MW1701REMSYN066AAXX  19031 54259 41658 80000 11055 21096 40315 57022 77000 885//;
0172542590999992000111906004+42090+124940FM-12+023599999V0209999C000010360019N0050001N1-00291-00541102821ADDAA106001091AY171061GF108991021051012501021999KA1999N-01201MD1710321+9999MW1711REMSYN082AAXX  19061 54259 11650 80000 11029 21054 40282 57032 60011 77170 8252/ 333 21120;
0140542590999992000111909004+42090+124940FM-12+023599999V0209999C000019999999N0030001N1-00241-00371102731ADDAY171031AY271031GF108991081001999999021999MD1710081+9999MW1711REMSYN066AAXX  19091 54259 41930 80000 11024 21037 40273 57008 77177 8802/;
0157542590999992000111912004+42090+124940FM-12+023599999V0209999C000010360019N0060001N1-00221-00451102571ADDAA106003091AY171061AY271061GF108991021051012501021999MD1710141+9999MW1711REMSYN072AAXX  19121 54259 11656 80000 11022 21045 40257 57014 60031 77177 8252/;
0180542590999992000111918004+42090+124940FM-12+023599999V0202501N004010360019N0050001N1-00181-00271102381ADDAA106002091AY171061AY271061GF108991031051012501021999KA1999M-00131MD1710071+9999MW1711REMSYN082AAXX  19181 54259 11650 82504 11018 21027 40238 57007 60021 77177 8352/ 333 11013;
0161542590999992000111921004+42090+124940FM-12+023599999V0202901N002010120019N0080001N1-00421-00741102361ADDAA124006691AY171031AY271031GF108991081051012501999999MD1710031+9999MW1701REMSYN076AAXX  19211 54259 41658 82902 11042 21074 40236 57003 77077 885// 333 70066;
0171542590999992000112000004+42090+124940FM-12+023599999V0209999C000010120019N0080001N1-00581-00821102421ADDAA106000191AY171061GF108991081051012501999999MD1210051-0901MW1701REMSYN094AAXX  20001 54259 11658 80000 11058 21082 40242 52005 69911 77070 885// 333 05903 70066 92508;
0140542590999992000112003004+42090+124940FM-12+023599999V0209999C000010120019N0150001N1-00601-01071102391ADDAY171031AY271031GF108991081051012501999999MD1710031+9999MW1701REMSYN066AAXX  20031 54259 41665 80000 11060 21107 40239 57003 77077 885//;
0180542590999992000112006004+42090+124940FM-12+023599999V0203201N002010120019N0250001N1-00501-01371102291ADDAA106000791AY171061AY271061GF107991071051012501001001KA1999N-00641MD1710091+9999MW1701REMSYN082AAXX  20061 54259 11675 73202 11050 21137 40229 57009 69901 77077 87500 333 21064;
0132542590999992000112009004+42090+124940FM-12+023599999V0203401N003012200019N0250001N1-00761-02041102531ADDAY171031GF101991011051012501001001MD1210211+9999MW1001REMSYN066AAXX  20091 54259 41675 13403 11076 21204 40253 52021 70070 81500;
0159542590999992000112012004+42090+124940FM-12+023599999V0203601N001012200019N0150001N1-01251-01901102711ADDAA106000791AY171061GA1001+999999999GF100991001001999999001001MD1210131+9999MW1001REMSYN066AAXX  20121 54259 11965 03601 11125 21190 40271 52013 69901 70070;
0156542590999992000112018004+42090+124940FM-12+023599999V0200901N001012200019N0200001N1-01821-02051103041ADDAA199000021GA1001+999999999GF100991001001999999001001KA1999M-00161MD1210111+9999REMSYN064AAXX  20181 54259 32970 00901 11182 21205 40304 52011 333 11016;
0143542590999992000112021004+42090+124940FM-12+023599999V0209999C000012200019N0200001N1-01991-02191103101ADDAA124000791GA1001+999999999GF100991001001999999001001MD1210031+9999REMSYN064AAXX  20211 54259 42970 00000 11199 21219 40310 52003 333 79999;
0167542590999992000112100004+42090+124940FM-12+023599999V0209999C000012200019N0070001N1-02111-02271103351ADDAA124000791GA1001+999999999GF100991001001999999001001MD1210201+0801MW1041REMSYN082AAXX  21001 54259 31957 00000 11211 21227 40335 52020 70400 333 00865 79999 92507;
0122542590999992000112103004+42090+124940FM-12+023599999V0209999C000012200019N0150001N1-01221-01751103331ADDGA1001+999999999GF100991001001999999001001MD1210021+9999REMSYN054AAXX  21031 54259 42965 00000 11122 21175 40333 52002;
0165542590999992000112106004+42090+124940FM-12+023599999V0202201N004012200019N0300001N1-00651-01441103211ADDAA199000091GF102991001001999999001021KA1999N-02131MD1710101+9999REMSYN070AAXX  21061 54259 32980 22204 11065 21144 40321 57010 80002 333 21213;EQDQ01  00002PRCP99
0122542590999992000112109004+42090+124940FM-12+023599999V0209999C000012200019N0200001N1-01031-01531103271ADDGA1001+999999999GF100991001001999999001001MD1210031+9999REMSYN054AAXX  21091 54259 42970 00000 11103 21153 40327 52003;
0152542590999992000112112004+42090+124940FM-12+023599999V0200901N001012200019N0150001N1-01371-01641103361ADDAA199000091GA1001+999999999GF100991001001999999001001MD1210061+9999REMSYN054AAXX  21121 54259 32965 00901 11137 21164 40336 52006;EQDQ01  00002PRCP99
0165542590999992000112118004+42090+124940FM-12+023599999V0209999C000012200019N0200001N1-01771-01951103261ADDAA199000091GF102991001001999999001021KA1999M-00601MD1710011+9999REMSYN070AAXX  21181 54259 32970 20000 11177 21195 40326 57001 80002 333 11060;EQDQ01  00002PRCP99
0112542590999992000112121004+42090+124940FM-12+023599999V0209999C000010120019N0180001N1-01511-01721103051ADDGF106991061051012501001001MD1710211+9999REMSYN060AAXX  21211 54259 42668 60000 11151 21172 40305 57021 86500;
0171542590999992000112200004+42090+124940FM-12+023599999V0209999C000010360019N0060001N1-01221-01411102841ADDAA106000391AY171061GF108991031051012501021999MD1710201-0401MW1701REMSYN094AAXX  22001 54259 11656 80000 11122 21141 40284 57020 69931 77070 8352/ 333 05409 70003 92507;
0140542590999992000112203004+42090+124940FM-12+023599999V0209999C000019999999N0040001N1-00691-00861102581ADDAY171031AY271031GF108991081001999999021999MD1710241+9999MW1711REMSYN066AAXX  22031 54259 41940 80000 11069 21086 40258 57024 77177 8802/;
0180542590999992000112206004+42090+124940FM-12+023599999V0202701N002010120019N0300001N1-00101-00271102261ADDAA106002091AY171061AY271061GF108991081051012501999999KA1999N-01771MD1710281+9999MW1701REMSYN082AAXX  22061 54259 11680 82702 11010 21027 40226 57028 60021 77077 885// 333 21177;
0140542590999992000112209004+42090+124940FM-12+023599999V0202701N001019999999N0060001N1-00041-00191102281ADDAY171031AY271031GF108991081001999999021999MD1210031+9999MW1711REMSYN066AAXX  22091 54259 41956 82701 11004 21019 40228 52003 77177 8802/;
0157542590999992000112212004+42090+124940FM-12+023599999V0209999C000010120019N0050001N1-00081-00141102371ADDAA106003091AY171061AY271061GF108991081051012501999999MD1210101+9999MW1701REMSYN072AAXX  22121 54259 11650 80000 11008 21014 40237 52010 60031 77077 885//;
0172542590999992000112218004+42090+124940FM-12+023599999V0209999C000010120019N0150001N1-00331-00751102671ADDAA106002091AY171061GF108991081051012501999999KA1999M+00011MD1210151+9999MW1001REMSYN082AAXX  22181 54259 11665 80000 11033 21075 40267 52015 60021 70070 885// 333 10001;
0143542590999992000112221004+42090+124940FM-12+023599999V0203201N001012200019N0200001N1-00711-01171102711ADDAA124007691GA1001+999999999GF100991001001999999001001MD1210031+9999REMSYN064AAXX  22211 54259 42970 03201 11071 21117 40271 52003 333 70077;
0155542590999992000112300004+42090+124940FM-12+023599999V0209999C000012200019N0120001N1-01171-01271102961ADDAA124007491GA1001+999999999GF100991001001999999001001MD1210211+0201REMSYN076AAXX  23001 54259 32962 00000 11117 21127 40296 52021 333 00201 70074 92516;
0112542590999992000112303004+42090+124940FM-12+023599999V0209999C000019999999N0150001N1-00641-01191102901ADDGF106991001001999999001021MD1710031+9999REMSYN060AAXX  23031 54259 42965 60000 11064 21119 40290 57003 80002;
0165542590999992000112306004+42090+124940FM-12+023599999V0209999C000019999999N0300001N1-00281-01231102751ADDAA199000091GF107991001001999999001021KA1999N-01221MD1710141+9999REMSYN070AAXX  23061 54259 32980 70000 11028 21123 40275 57014 80002 333 21122;EQDQ01  00002PRCP99
0124542590999992000112309004+42090+124940FM-12+023599999V0209999C000010120019N0060001N1-00351-00871102761ADDGF108991081051012501999999MD1710011+9999MW1041REMSYN066AAXX  23091 54259 41656 80000 11035 21087 40276 57001 70400 885//;
0142542590999992000112312004+42090+124940FM-12+023599999V0201101N001010120019N0120001N1-00461-00931102801ADDAA199000091GF107991071051012501999999MD1410001+9999REMSYN060AAXX  23121 54259 32662 71101 11046 21093 40280 54000 875//;EQDQ01  00002PRCP99
0175542590999992000112318004+42090+124940FM-12+023599999V0201101N002012200019N0150001N1-01171-01341102911ADDAA199000091GA1001+999999999GF100991001001999999001001KA1999M-00251MD1210041+9999REMSYN064AAXX  23181 54259 32965 01102 11117 21134 40291 52004 333 11025;EQDQ01  00002PRCP99
0180542590999992000112400004+42090+124940FM-12+023599999V0209999C000012200019N0060001N1-01471-01641103001ADDAA199000091GA1001+999999999GF100991001001999999001001MD1210071+0001MW1041REMSYN076AAXX  24001 54259 31956 00000 11147 21164 40300 52007 70400 333 00053 92513;EQDQ01  00002PRCP99
0134542590999992000112403004+42090+124940FM-12+023599999V0209999C000012200019N0080001N1-00671-01281102891ADDGA1001+999999999GF100991001001999999001001MD1710081+9999MW1041REMSYN060AAXX  24031 54259 41958 00000 11067 21128 40289 57008 70400;
0175542590999992000112406004+42090+124940FM-12+023599999V0209999C000012200019N0200001N1-00081-00841102701ADDAA199000091GA1001+999999999GF100991001001999999001001KA1999N-01601MD1710171+9999REMSYN064AAXX  24061 54259 32970 00000 11008 21084 40270 57017 333 21160;EQDQ01  00002PRCP99
0122542590999992000112409004+42090+124940FM-12+023599999V0200701N001012200019N0120001N1-00381-00911102731ADDGA1001+999999999GF100991001001999999001001MD1410001+9999REMSYN054AAXX  24091 54259 42962 00701 11038 21091 40273 54000;
0164542590999992000112412004+42090+124940FM-12+023599999V0200901N001012200019N0080001N1-00761-01301102841ADDAA199000091GA1001+999999999GF100991001001999999001001MD1210081+9999MW1041REMSYN060AAXX  24121 54259 31958 00901 11076 21130 40284 52008 70400;EQDQ01  00002PRCP99
0165542590999992000112418004+42090+124940FM-12+023599999V0209999C000010120019N0150001N1-00691-01201102531ADDAA199000091GF108991081051012501999999KA1999M+00091MD1710151+9999REMSYN070AAXX  24181 54259 32665 80000 11069 21120 40253 57015 885// 333 10009;EQDQ01  00002PRCP99
0145542590999992000112421004+42090+124940FM-12+023599999V0200901N001010120019N0150001N1-00601-01021102281ADDAA124000791GF108991081051012501999999MD1710251+9999MW1701REMSYN076AAXX  24211 54259 41665 80901 11060 21102 40228 57025 77000 885// 333 79999;
0171542590999992000112500004+42090+124940FM-12+023599999V0209999C000010120019N0060001N1-00471-00851102121ADDAA106000791AY171061GF108991081051012501999999MD1710171-0801MW1041REMSYN094AAXX  25001 54259 11656 80000 11047 21085 40212 57017 69901 70470 885// 333 05810 79999 92512;
0124542590999992000112503004+42090+124940FM-12+023599999V0209999C000010120019N0050001N1-00281-00531101971ADDGF108991081051012501999999MD1710141+9999MW1701REMSYN066AAXX  25031 54259 41650 80000 11028 21053 40197 57014 77000 885//;
0180542590999992000112506004+42090+124940FM-12+023599999V0202201N003010120019N0050001N1+00141-00111101941ADDAA106004191AY171061AY261061GF108991081051012501999999KA1999N-00981MD1410001+9999MW1681REMSYN082AAXX  25061 54259 11650 82203 10014 21011 40194 54000 60041 76876 885// 333 21098;
0140542590999992000112509004+42090+124940FM-12+023599999V0203201N004010120019N0060001N1-00351-00541102361ADDAY171031AY271031GF108991081051012501999999MD1210381+9999MW1701REMSYN066AAXX  25091 54259 41656 83204 11035 21054 40236 52038 77077 885//;
0149542590999992000112512004+42090+124940FM-12+023599999V0202901N001010120019N0090001N1-00681-01191102731ADDAA106004191AY171061GF108991081051012501999999MD1210351+9999MW1041REMSYN072AAXX  25121 54259 11659 82901 11068 21119 40273 52035 60041 70470 885//;
0146542590999992000112518004+42090+124940FM-12+023599999V0203601N001010120019N0150001N1-01011-01231102981ADDAA199000021GF108991081051012501999999KA1999M+00181MD1410001+9999REMSYN070AAXX  25181 54259 32665 83601 11101 21123 40298 54000 885// 333 10018;
0133542590999992000112521004+42090+124940FM-12+023599999V0200401N001010120019N0150001N1-01011-01221102991ADDAA124008491GF108991081051012501999999MD1710021+9999REMSYN070AAXX  25211 54259 42665 80401 11101 21122 40299 57002 885// 333 70083;
0171542590999992000112600004+42090+124940FM-12+023599999V0209999C000010120019N0120001N1-01011-01221103021ADDAA106000191AY171061GF108991081051012501999999MD1210011+0801MW1701REMSYN094AAXX  26001 54259 11662 80000 11101 21122 40302 52001 69921 77070 885// 333 00855 70085 92515;
0140542590999992000112603004+42090+124940FM-12+023599999V0209999C000012200019N0150001N1-00591-01011103001ADDAY171031AY271031GF104991041051012501001001MD1410001+9999MW1221REMSYN066AAXX  26031 54259 41665 40000 11059 21101 40300 54000 72277 84500;
0172542590999992000112606004+42090+124940FM-12+023599999V0202001N001012200019N0250001N1-00511-01101102911ADDAA106000191AY171061GF101991011051012501001001KA1999N-01021MD1710091+9999MW1001REMSYN082AAXX  26061 54259 11675 12001 11051 21110 40291 57009 69921 70070 81500 333 21102;
0122542590999992000112609004+42090+124940FM-12+023599999V0202201N001012200019N0200001N1-00901-01161102931ADDGA1001+999999999GF100991001001999999001001MD1710011+9999REMSYN054AAXX  26091 54259 42970 02201 11090 21116 40293 57001;
0133542590999992000112612004+42090+124940FM-12+023599999V0209999C000012200019N0150001N1-01291-01421102981ADDAA199000021GA1001+999999999GF100991001001999999001001MD1210031+9999REMSYN054AAXX  26121 54259 32965 00000 11129 21142 40298 52003;
0175542590999992000112618004+42090+124940FM-12+023599999V0209999C000012200019N0150001N1-01801-01931103031ADDAA199000091GA1001+999999999GF100991001001999999001001KA1999M-00461MD1410001+9999REMSYN064AAXX  26181 54259 32965 00000 11180 21193 40303 54000 333 11046;EQDQ01  00002PRCP99
0143542590999992000112621004+42090+124940FM-12+023599999V0209999C000012200019N0150001N1-01941-02091103031ADDAA124000591GA1001+999999999GF100991001001999999001001MD1710031+9999REMSYN064AAXX  26211 54259 42965 00000 11194 21209 40303 57003 333 70004;
0167542590999992000112700004+42090+124940FM-12+023599999V0209999C000012200019N0060001N1-01951-02101103081ADDAA124000391GA1001+999999999GF100991001001999999001001MD1210021+0001MW1041REMSYN082AAXX  27001 54259 31956 00000 11195 21210 40308 52002 70400 333 00059 70002 92514;
0122542590999992000112703004+42090+124940FM-12+023599999V0209999C000012200019N0120001N1-01061-01591103081ADDGA1001+999999999GF100991001001999999001001MD1210031+9999REMSYN054AAXX  27031 54259 42962 00000 11106 21159 40308 52003;
0175542590999992000112706004+42090+124940FM-12+023599999V0202201N002012200019N0220001N1-00381-01061102891ADDAA199000091GA1001+999999999GF100991001001999999001001KA1999N-02041MD1710151+9999REMSYN064AAXX  27061 54259 32972 02202 11038 21106 40289 57015 333 21204;EQDQ01  00002PRCP99
0122542590999992000112709004+42090+124940FM-12+023599999V0209999C000012200019N0150001N1-00841-01191102961ADDGA1001+999999999GF100991001001999999001001MD1210031+9999REMSYN054AAXX  27091 54259 42965 00000 11084 21119 40296 52003;
0152542590999992000112712004+42090+124940FM-12+023599999V0209999C000012200019N0150001N1-01261-01441103091ADDAA199000091GA1001+999999999GF100991001001999999001001MD1210101+9999REMSYN054AAXX  27121 54259 32965 00000 11126 21144 40309 52010;EQDQ01  00002PRCP99
0175542590999992000112718004+42090+124940FM-12+023599999V0209999C000012200019N0150001N1-01921-02091103291ADDAA199000091GA1001+999999999GF100991001001999999001001KA1999M-00341MD1210091+9999REMSYN064AAXX  27181 54259 32965 00000 11192 21209 40329 52009 333 11034;EQDQ01  00002PRCP99
0122542590999992000112721004+42090+124940FM-12+023599999V0209999C000012200019N0150001N1-02111-02271103351ADDGA1001+999999999GF100991001001999999001001MD1210021+9999REMSYN054AAXX  27211 54259 42965 00000 11211 21227 40335 52002;
0180542590999992000112800004+42090+124940FM-12+023599999V0209999C000012200019N0060001N1-02161-02321103471ADDAA199000091GA1001+999999999GF100991001001999999001001MD1210091+0401MW1041REMSYN076AAXX  28001 54259 31956 00000 11216 21232 40347 52009 70400 333 00452 92514;EQDQ01  00002PRCP99
0134542590999992000112803004+42090+124940FM-12+023599999V0209999C000012200019N0070001N1-01111-01681103391ADDGA1001+999999999GF100991001001999999001001MD1710041+9999MW1041REMSYN060AAXX  28031 54259 41957 00000 11111 21168 40339 57004 70400;
0175542590999992000112806004+42090+124940FM-12+023599999V0209999C000012200019N0250001N1-00371-01531102981ADDAA199000091GA1001+999999999GF100991001001999999001001KA1999N-02221MD1710371+9999REMSYN064AAXX  28061 54259 32975 00000 11037 21153 40298 57037 333 21222;EQDQ01  00002PRCP99
0134542590999992000112809004+42090+124940FM-12+023599999V0209999C000012200019N0070001N1-00931-01301102881ADDGA1001+999999999GF100991001001999999001001MD1710141+9999MW1041REMSYN060AAXX  28091 54259 41957 00000 11093 21130 40288 57014 70400;
0164542590999992000112812004+42090+124940FM-12+023599999V0202201N001012200019N0080001N1-01311-01451102851ADDAA199000091GA1001+999999999GF100991001001999999001001MD1710061+9999MW1041REMSYN060AAXX  28121 54259 31958 02201 11131 21145 40285 57006 70400;EQDQ01  00002PRCP99
0165542590999992000112818004+42090+124940FM-12+023599999V0209999C000010120019N0150001N1-01101-01281102421ADDAA199000091GF107991071051012501999999KA1999M-00331MD1710121+9999REMSYN070AAXX  28181 54259 32665 70000 11110 21128 40242 57012 875// 333 11033;EQDQ01  00002PRCP99
0112542590999992000112821004+42090+124940FM-12+023599999V0209999C000010120019N0150001N1-00951-01221102291ADDGF108991081051012501999999MD1710151+9999REMSYN060AAXX  28211 54259 42665 80000 11095 21122 40229 57015 885//;
0170542590999992000112900004+42090+124940FM-12+023599999V0209999C000010120019N0060001N1-00651-00951102371ADDAA199000091GF106991061051012501001001MD1210081-1001MW1041REMSYN082AAXX  29001 54259 31656 60000 11065 21095 40237 52008 70400 86500 333 06015 92514;EQDQ01  00002PRCP99
0112542590999992000112903004+42090+124940FM-12+023599999V0202501N005012200019N0200001N1-00081-00931102611ADDGF101991011051012501001001MD1210271+9999REMSYN060AAXX  29031 54259 42670 12505 11008 21093 40261 52027 81500;
0175542590999992000112906004+42090+124940FM-12+023599999V0202501N002012200019N0300001N1-00261-01521102841ADDAA199000091GA1001+999999999GF100991001001999999001001KA1999N-01441MD1210221+9999REMSYN064AAXX  29061 54259 32980 02502 11026 21152 40284 52022 333 21144;EQDQ01  00002PRCP99
0122542590999992000112909004+42090+124940FM-12+023599999V0203401N003012200019N0300001N1-00681-01871103031ADDGA1001+999999999GF100991001001999999001001MD1210171+9999REMSYN054AAXX  29091 54259 42980 03403 11068 21187 40303 52017;
0152542590999992000112912004+42090+124940FM-12+023599999V0209999C000012200019N0150001N1-01081-01491103241ADDAA199000091GA1001+999999999GF100991001001999999001001MD1210191+9999REMSYN054AAXX  29121 54259 32965 00000 11108 21149 40324 52019;EQDQ01  00002PRCP99
0175542590999992000112918004+42090+124940FM-12+023599999V0209999C000012200019N0200001N1-01831-02011103391ADDAA199000091GA1001+999999999GF100991001001999999001001KA1999M-00021MD1710011+9999REMSYN064AAXX  29181 54259 32970 00000 11183 21201 40339 57001 333 11002;EQDQ01  00002PRCP99
0122542590999992000112921004+42090+124940FM-12+023599999V0209999C000012200019N0200001N1-02031-02221103411ADDGA1001+999999999GF100991001001999999001001MD1710021+9999REMSYN054AAXX  29211 54259 42970 00000 11203 21222 40341 57002;
0170542590999992000113000004+42090+124940FM-12+023599999V0209999C000019999999N0080001N1-02081-02271103421ADDAA199000091GF105991001001999999001021MD1710021+0901MW1041REMSYN082AAXX  30001 54259 31958 50000 11208 21227 40342 57002 70400 80002 333 00964 92513;EQDQ01  00002PRCP99
0124542590999992000113003004+42090+124940FM-12+023599999V0209999C000012200019N0090001N1-01241-01681103231ADDGF103991001001999999001021MD1710161+9999MW1041REMSYN066AAXX  30031 54259 41959 30000 11124 21168 40323 57016 70400 80002;
0175542590999992000113006004+42090+124940FM-12+023599999V0202001N001012200019N0150001N1-00551-01271102911ADDAA199000091GA1001+999999999GF100991001001999999001001KA1999N-02151MD1710281+9999REMSYN064AAXX  30061 54259 32965 02001 11055 21127 40291 57028 333 21215;EQDQ01  00002PRCP99
0124542590999992000113009004+42090+124940FM-12+023599999V0209999C000012200019N0080001N1-00861-01321102881ADDGF102991001001999999001021MD1710061+9999MW1041REMSYN066AAXX  30091 54259 41958 20000 11086 21132 40288 57006 70400 80002;
0164542590999992000113012004+42090+124940FM-12+023599999V0209999C000012200019N0080001N1-01141-01361102851ADDAA199000091GA1001+999999999GF100991001001999999001001MD1710051+9999MW1041REMSYN060AAXX  30121 54259 31958 00000 11114 21136 40285 57005 70400;EQDQ01  00002PRCP99
0175542590999992000113018004+42090+124940FM-12+023599999V0209999C000012200019N0150001N1-01561-01781102761ADDAA199000091GA1001+999999999GF100991001001999999001001KA1999M-00391MD1210011+9999REMSYN064AAXX  30181 54259 32965 00000 11156 21178 40276 52001 333 11039;EQDQ01  00002PRCP99
0112542590999992000113021004+42090+124940FM-12+023599999V0209999C000010120019N0150001N1-01521-01741102781ADDGF107991071051012501999999MD1410001+9999REMSYN060AAXX  30211 54259 42665 70000 11152 21174 40278 54000 875//;
0170542590999992000120100004+42090+124940FM-12+023599999V0209999C000010120019N0060001N1-01181-01441102851ADDAA199000091GF107991071051012501999999MD1210071-0501MW1041REMSYN082AAXX  01001 54259 31656 70000 11118 21144 40285 52007 70400 875// 333 05509 92513;EQDQ01  00002PRCP99
0124542590999992000120103004+42090+124940FM-12+023599999V0209999C000012200019N0070001N1-00401-00991102811ADDGF103991031051012501001001MD1710011+9999MW1041REMSYN066AAXX  01031 54259 41657 30000 11040 21099 40281 57001 70400 83500;
0175542590999992000120106004+42090+124940FM-12+023599999V0202501N004012200019N0250001N1+00381-00311102651ADDAA199000091GA1001+999999999GF100991001001999999001001KA1999N-01631MD1710121+9999REMSYN064AAXX  01061 54259 32975 02504 10038 21031 40265 57012 333 21163;EQDQ01  00002PRCP99
0134542590999992000120109004+42090+124940FM-12+023599999V0209999C000012200019N0060001N1-00121-00441102581ADDGA1001+999999999GF100991001001999999001001MD1710091+9999MW1041REMSYN060AAXX  01091 54259 41956 00000 11012 21044 40258 57009 70400;
0152542590999992000120112004+42090+124940FM-12+023599999V0209999C000012200019N0110001N1-00611-00771102611ADDAA199000091GA1001+999999999GF100991001001999999001001MD1210021+9999REMSYN054AAXX  01121 54259 32961 00000 11061 21077 40261 52002;EQDQ01  00002PRCP99
0165542590999992000120118004+42090+124940FM-12+023599999V0209999C000010120019N0150001N1-00831-01071102401ADDAA199000091GF107991071051012501999999KA1999M+00391MD1710101+9999REMSYN070AAXX  01181 54259 32665 70000 11083 21107 40240 57010 875// 333 10039;EQDQ01  00002PRCP99
0112542590999992000120121004+42090+124940FM-12+023599999V0209999C000010120019N0150001N1-00541-00771102351ADDGF108991081051012501999999MD1710061+9999REMSYN060AAXX  01211 54259 42665 80000 11054 21077 40235 57006 885//;
0170542590999992000120200004+42090+124940FM-12+023599999V0209999C000010120019N0070001N1-00021-00271102421ADDAA199000091GF107991071051012501999999MD1210071-0301MW1041REMSYN082AAXX  02001 54259 31657 70000 11002 21027 40242 52007 70400 875// 333 05312 92511;EQDQ01  00002PRCP99
0112542590999992000120203004+42090+124940FM-12+023599999V0202701N003012200019N0200001N1+00331-00791102541ADDGF102991011051012501001021MD1210121+9999REMSYN060AAXX  02031 54259 42670 22703 10033 21079 40254 52012 81502;
0165542590999992000120206004+42090+124940FM-12+023599999V0202901N003012200019N0300001N1+00131-01331102601ADDAA199000091GF102991001001999999001021KA1999N-00921MD1210051+9999REMSYN070AAXX  02061 54259 32980 22903 10013 21133 40260 52005 80002 333 21092;EQDQ01  00002PRCP99
0112542590999992000120209004+42090+124940FM-12+023599999V0203201N004012200019N0300001N1-00311-01111102981ADDGF101991011051012501001001MD1210361+9999REMSYN060AAXX  02091 54259 42680 13204 11031 21111 40298 52036 81500;
0152542590999992000120212004+42090+124940FM-12+023599999V0203201N004012200019N0250001N1-00771-01801103261ADDAA199000091GA1001+999999999GF100991001001999999001001MD1210281+9999REMSYN054AAXX  02121 54259 32975 03204 11077 21180 40326 52028;EQDQ01  00002PRCP99
0175542590999992000120218004+42090+124940FM-12+023599999V0200701N001012200019N0180001N1-01571-02101103261ADDAA199000091GA1001+999999999GF100991001001999999001001KA1999M+00361MD1710031+9999REMSYN064AAXX  02181 54259 32968 00701 11157 21210 40326 57003 333 10036;EQDQ01  00002PRCP99
0122542590999992000120221004+42090+124940FM-12+023599999V0209999C000012200019N0180001N1-01861-02271103121ADDGA1001+999999999GF100991001001999999001001MD1710181+9999REMSYN054AAXX  02211 54259 42968 00000 11186 21227 40312 57018;
0168542590999992000120300004+42090+124940FM-12+023599999V0209999C000012200019N0120001N1-01961-02241103111ADDAA199000091GA1001+999999999GF100991001001999999001001MD1710041+0601REMSYN070AAXX  03001 54259 32962 00000 11196 21224 40311 57004 333 00669 92510;EQDQ01  00002PRCP99
0122542590999992000120303004+42090+124940FM-12+023599999V0209999C000012200019N0120001N1-01101-01761102861ADDGA1001+999999999GF100991001001999999001001MD1710221+9999REMSYN054AAXX  03031 54259 42962 00000 11110 21176 40286 57022;
0175542590999992000120306004+42090+124940FM-12+023599999V0202001N001012200019N0300001N1-00431-01821102571ADDAA199000091GA1001+999999999GF100991001001999999001001KA1999N-02061MD1710261+9999REMSYN064AAXX  03061 54259 32980 02001 11043 21182 40257 57026 333 21206;EQDQ01  00002PRCP99
0122542590999992000120309004+42090+124940FM-12+023599999V0209999C000012200019N0150001N1-00781-01651102541ADDGA1001+999999999GF100991001001999999001001MD1710071+9999REMSYN054AAXX  03091 54259 42965 00000 11078 21165 40254 57007;
0152542590999992000120312004+42090+124940FM-12+023599999V0209999C000012200019N0120001N1-01181-01581102551ADDAA199000091GA1001+999999999GF100991001001999999001001MD1710021+9999REMSYN054AAXX  03121 54259 32962 00000 11118 21158 40255 57002;EQDQ01  00002PRCP99
0165542590999992000120318004+42090+124940FM-12+023599999V0209999C000010120019N0150001N1-01481-01781102111ADDAA199000091GF105991051051012501001001KA1999M-00371MD1710241+9999REMSYN070AAXX  03181 54259 32665 50000 11148 21178 40211 57024 85500 333 11037;EQDQ01  00002PRCP99
0112542590999992000120321004+42090+124940FM-12+023599999V0209999C000010120019N0150001N1-01251-01571101821ADDGF108991081051012501999999MD1710291+9999REMSYN060AAXX  03211 54259 42665 80000 11125 21157 40182 57029 885//;
0170542590999992000120400004+42090+124940FM-12+023599999V0202201N002010120019N0080001N1-00881-01181101561ADDAA199000091GF107991071051012501999999MD1710251-1501MW1041REMSYN082AAXX  04001 54259 31658 72202 11088 21118 40156 57025 70400 875// 333 06511 92509;EQDQ01  00002PRCP99
0165542590999992000120406004+42090+124940FM-12+023599999V0202201N004010120019N0300001N1+00301-00561101071ADDAA199000091GF108991081051012501999999KA1999N-01531MD1710281+9999REMSYN070AAXX  04061 54259 32680 82204 10030 21056 40107 57028 885// 333 21153;EQDQ01  00002PRCP99
0132542590999992000120409004+42090+124940FM-12+023599999V0202201N001010120019N0020001N1+00001-00111101141ADDAY171031GF108991081001012501021999MD1210061+9999MW1711REMSYN066AAXX  04091 54259 41620 82201 10000 21011 40114 52006 77170 8802/;
0149542590999992000120412004+42090+124940FM-12+023599999V0203201N002019999999N0100001N1-00721-01031101691ADDAA106006191AY171061GF107991001001999999001021MD1210521+9999MW1001REMSYN072AAXX  04121 54259 11960 73202 11072 21103 40169 52052 60061 70070 80002;
0182542590999992000120418004+42090+124940FM-12+023599999V0209999C000012200019N0150001N1-01731-02081102551ADDAA106000791AY171061GA1001+999999999GF100991001001999999001001KA1999M+00351MD1210321+9999MW1001REMSYN076AAXX  04181 54259 11965 00000 11173 21208 40255 52032 69901 70070 333 10035;
0143542590999992000120421004+42090+124940FM-12+023599999V0209999C000012200019N0150001N1-01971-02251102691ADDAA124005691GA1001+999999999GF100991001001999999001001MD1210111+9999REMSYN064AAXX  04211 54259 42965 00000 11197 21225 40269 52011 333 70055;
0149542590999992000120500004+42090+124940FM-12+023599999V0209999C000012200019N0120001N1-02151-02411102961ADDAA124005691GA1001+999999999GF100991001001999999001001MD1210211+1301REMSYN070AAXX  05001 54259 32962 00000 11215 21241 40296 52021 333 01363 70055;
0122542590999992000120503004+42090+124940FM-12+023599999V0209999C000012200019N0120001N1-01501-01941102931ADDGA1001+999999999GF100991001001999999001001MD1710031+9999REMSYN054AAXX  05031 54259 42962 00000 11150 21194 40293 57003;
0165542590999992000120506004+42090+124940FM-12+023599999V0202201N001012200019N0300001N1-01121-01661102841ADDAA199000091GF102991001001999999001021KA1999N-02171MD1710091+9999REMSYN070AAXX  05061 54259 32980 22201 11112 21166 40284 57009 80002 333 21217;EQDQ01  00002PRCP99
0122542590999992000120509004+42090+124940FM-12+023599999V0209999C000012200019N0150001N1-01461-01851102851ADDGA1001+999999999GF100991001001999999001001MD1710021+9999REMSYN054AAXX  05091 54259 42965 00000 11146 21185 40285 57002;
0152542590999992000120512004+42090+124940FM-12+023599999V0209999C000012200019N0120001N1-01821-02081102931ADDAA199000091GA1001+999999999GF100991001001999999001001MD1210041+9999REMSYN054AAXX  05121 54259 32962 00000 11182 21208 40293 52004;EQDQ01  00002PRCP99
0175542590999992000120518004+42090+124940FM-12+023599999V0209999C000012200019N0150001N1-02151-02411102911ADDAA199000091GA1001+999999999GF100991001001999999001001KA1999M-01061MD1210021+9999REMSYN064AAXX  05181 54259 32965 00000 11215 21241 40291 52002 333 11106;EQDQ01  00002PRCP99
0124542590999992000120521004+42090+124940FM-12+023599999V0209999C000010120019N0080001N1-01981-02261102901ADDGF107991071051012501999999MD1710021+9999MW1041REMSYN066AAXX  05211 54259 41658 70000 11198 21226 40290 57002 70400 875//;
0170542590999992000120600004+42090+124940FM-12+023599999V0209999C000010120019N0070001N1-01581-01871102931ADDAA199000091GF108991081051012501999999MD1210041-0101MW1041REMSYN082AAXX  06001 54259 31657 80000 11158 21187 40293 52004 70400 885// 333 05106 92513;EQDQ01  00002PRCP99
0132542590999992000120603004+42090+124940FM-12+023599999V0209999C000010120019N0050001N1-00931-01301102891ADDAY171031GF108991051051012501021999MD1710021+9999MW1701REMSYN066AAXX  06031 54259 41650 80000 11093 21130 40289 57002 77070 8552/;
0172542590999992000120606004+42090+124940FM-12+023599999V0209999C000010120019N0060001N1-00531-00891102731ADDAA106000191AY171061GF108991081051012501999999KA1999N-02171MD1710141+9999MW1701REMSYN082AAXX  06061 54259 11656 80000 11053 21089 40273 57014 69921 77070 885// 333 21217;
0140542590999992000120609004+42090+124940FM-12+023599999V0209999C000010120019N0030001N1-00491-00711102731ADDAY171031AY271031GF108991081051012501999999MD1210021+9999MW1701REMSYN066AAXX  06091 54259 41630 80000 11049 21071 40273 52002 77077 885//;
0157542590999992000120612004+42090+124940FM-12+023599999V0209999C000010120019N0030001N1-00441-00571102741ADDAA106000191AY171061AY271061GF108991081051012501999999MD1210031+9999MW1701REMSYN072AAXX  06121 54259 11630 80000 11044 21057 40274 52003 69921 77077 885//;
0172542590999992000120618004+42090+124940FM-12+023599999V0202701N001010120019N0050001N1-00311-00571102951ADDAA106000791AY171061GF108991081051012501999999KA1999M-00301MD1210221+9999MW1701REMSYN082AAXX  06181 54259 11650 82701 11031 21057 40295 52022 69901 77070 885// 333 11030;
0171542590999992000120700004+42090+124940FM-12+023599999V0209999C000012200019N0080001N1-01031-01271103241ADDAA106000791AY171061GF101991011051012501001001MD1210181+0401MW1101REMSYN094AAXX  07001 54259 11658 10000 11103 21127 40324 52018 69901 71070 81500 333 00406 70004 92514;
0122542590999992000120703004+42090+124940FM-12+023599999V0209999C000012200019N0150001N1-00551-00961103171ADDGA1001+999999999GF100991001001999999001001MD1710041+9999REMSYN054AAXX  07031 54259 42965 00000 11055 21096 40317 57004;
0156542590999992000120706004+42090+124940FM-12+023599999V0209999C000012200019N0250001N1-00131-01081102921ADDAA199000021GA1001+999999999GF100991001001999999001001KA1999N-01051MD1710211+9999REMSYN064AAXX  07061 54259 32975 00000 11013 21108 40292 57021 333 21105;
0122542590999992000120709004+42090+124940FM-12+023599999V0209999C000012200019N0120001N1-00631-01021102881ADDGA1001+999999999GF100991001001999999001001MD1710091+9999REMSYN054AAXX  07091 54259 42962 00000 11063 21102 40288 57009;
0152542590999992000120712004+42090+124940FM-12+023599999V0209999C000012200019N0100001N1-01071-01361102821ADDAA199000091GA1001+999999999GF100991001001999999001001MD1710101+9999REMSYN054AAXX  07121 54259 32960 00000 11107 21136 40282 57010;EQDQ01  00002PRCP99
0175542590999992000120718004+42090+124940FM-12+023599999V0209999C000012200019N0150001N1-01591-01821102551ADDAA199000091GA1001+999999999GF100991001001999999001001KA1999M-00071MD1710131+9999REMSYN064AAXX  07181 54259 32965 00000 11159 21182 40255 57013 333 11007;EQDQ01  00002PRCP99
0122542590999992000120721004+42090+124940FM-12+023599999V0209999C000012200019N0150001N1-01641-01861102401ADDGA1001+999999999GF100991001001999999001001MD1710181+9999REMSYN054AAXX  07211 54259 42965 00000 11164 21186 40240 57018;
0170542590999992000120800004+42090+124940FM-12+023599999V0209999C000010120019N0080001N1-01261-01501102331ADDAA199000091GF108991081051012501999999MD1710071-0901MW1041REMSYN082AAXX  08001 54259 31658 80000 11126 21150 40233 57007 70400 885// 333 05952 92513;EQDQ01  00002PRCP99
0124542590999992000120803004+42090+124940FM-12+023599999V0209999C000010120019N0060001N1-00811-01151102291ADDGF108991081051012501999999MD1710041+9999MW1701REMSYN066AAXX  08031 54259 41656 80000 11081 21115 40229 57004 77000 885//;
0172542590999992000120806004+42090+124940FM-12+023599999V0209999C000010120019N0050001N1-00361-00711102171ADDAA106000791AY171061GF108991081051012501999999KA1999N-01641MD1710101+9999MW1701REMSYN082AAXX  08061 54259 11650 80000 11036 21071 40217 57010 69901 77070 885// 333 21164;
0140542590999992000120809004+42090+124940FM-12+023599999V0209999C000010120019N0030001N1-00281-00491102211ADDAY171031AY271031GF108991081051012501999999MD1210041+9999MW1701REMSYN066AAXX  08091 54259 41630 80000 11028 21049 40221 52004 77077 885//;
0157542590999992000120812004+42090+124940FM-12+023599999V0209999C000010120019N0020001N1-00171-00361102211ADDAA106000791AY171061AY271061GF108991081051012501999999MD1210031+9999MW1701REMSYN072AAXX  08121 54259 11620 80000 11017 21036 40221 52003 69901 77077 885//;
0180542590999992000120818004+42090+124940FM-12+023599999V0209999C000010120019N0060001N1-00041-00171102181ADDAA106000791AY171061AY271061GF108991081051012501999999KA1999M-00011MD1710021+9999MW1701REMSYN082AAXX  08181 54259 11656 80000 11004 21017 40218 57002 69901 77077 885// 333 11001;
0189542590999992000120900004+42090+124940FM-12+023599999V0209999C000010120019N0060001N1-00241-00441101871ADDAA106000791AY171061GF108991081051012501999999IA2999-00349MD1710121-0301MW1041REMSYN100AAXX  09001 54259 11656 80000 11024 21044 40187 57012 69901 70470 885// 333 05310 31034 79999 92513;
0132542590999992000120903004+42090+124940FM-12+023599999V0209999C000010120019N0040001N1-00121-00301101801ADDAY171031GF108991081051012501999999MD1710061+9999MW1701REMSYN066AAXX  09031 54259 41640 80000 11012 21030 40180 57006 77070 885//;
0172542590999992000120906004+42090+124940FM-12+023599999V0202701N005010120019N0030001N1-00381-00461101931ADDAA106004191AY171061GF108991061051012501021999KA1999N-00381MD1210121+9999MW1711REMSYN082AAXX  09061 54259 11630 82705 11038 21046 40193 52012 60041 77170 8652/ 333 21038;
0132542590999992000120909004+42090+124940FM-12+023599999V0202501N002012200019N0150001N1-00761-01191102581ADDAY171031GF102991021051012501001001MD1210591+9999MW1001REMSYN066AAXX  09091 54259 41665 22502 11076 21119 40258 52059 70070 82500;
0149542590999992000120912004+42090+124940FM-12+023599999V0202201N001012200019N0120001N1-01111-01431102881ADDAA106000191AY171061GF102991021051012501001001MD1210281+9999MW1001REMSYN072AAXX  09121 54259 11662 22201 11111 21143 40288 52028 69921 70070 82500;
0146542590999992000120918004+42090+124940FM-12+023599999V0209999C000019999999N0120001N1-01531-01691103051ADDAA199000021GF107991001001999999001021KA1999M+00011MD1210071+9999REMSYN070AAXX  09181 54259 32962 70000 11153 21169 40305 52007 80002 333 10001;
0143542590999992000120921004+42090+124940FM-12+023599999V0209999C000012200019N0120001N1-01841-02021103101ADDAA124004691GA1001+999999999GF100991001001999999001001MD1210011+9999REMSYN064AAXX  09211 54259 42962 00000 11184 21202 40310 52001 333 70045;
0167542590999992000121000004+42090+124940FM-12+023599999V0209999C000012200019N0020001N1-02011-02191103161ADDAA124004691GA1001+999999999GF100991001001999999001001MD1210031+1101MW1101REMSYN082AAXX  10001 54259 31920 00000 11201 21219 40316 52003 71000 333 01168 70045 92517;
0122542590999992000121003004+42090+124940FM-12+023599999V0202701N004012200019N0300001N1-01291-02121103181ADDGA1001+999999999GF100991001001999999001001MD1210041+9999REMSYN054AAXX  10031 54259 42980 02704 11129 21212 40318 52004;
0175542590999992000121006004+42090+124940FM-12+023599999V0202501N004012200019N0300001N1-01171-02181103091ADDAA199000091GA1001+999999999GF100991001001999999001001KA1999N-02051MD1710091+9999REMSYN064AAXX  10061 54259 32980 02504 11117 21218 40309 57009 333 21205;EQDQ01  00002PRCP99
0122542590999992000121009004+42090+124940FM-12+023599999V0209999C000012200019N0150001N1-01471-02291103221ADDGA1001+999999999GF100991001001999999001001MD1210091+9999REMSYN054AAXX  10091 54259 42965 00000 11147 21229 40322 52009;
0152542590999992000121012004+42090+124940FM-12+023599999V0209999C000012200019N0150001N1-01901-02261103421ADDAA199000091GA1001+999999999GF100991001001999999001001MD1210161+9999REMSYN054AAXX  10121 54259 32965 00000 11190 21226 40342 52016;EQDQ01  00002PRCP99
0175542590999992000121018004+42090+124940FM-12+023599999V0209999C000012200019N0150001N1-02461-02731103601ADDAA199000091GA1001+999999999GF100991001001999999001001KA1999M-01101MD1210191+9999REMSYN064AAXX  10181 54259 32965 00000 11246 21273 40360 52019 333 11110;EQDQ01  00002PRCP99
0122542590999992000121021004+42090+124940FM-12+023599999V0209999C000012200019N0150001N1-02511-02751103631ADDGA1001+999999999GF100991001001999999001001MD1210011+9999REMSYN054AAXX  10211 54259 42965 00000 11251 21275 40363 52001;
0180542590999992000121100004+42090+124940FM-12+023599999V0209999C000012200019N0080001N1-02531-02761103881ADDAA199000091GA1001+999999999GF100991001001999999001001MD1210211+0601MW1041REMSYN076AAXX  11001 54259 31958 00000 11253 21276 40388 52021 70400 333 00655 92517;EQDQ01  00002PRCP99
0122542590999992000121103004+42090+124940FM-12+023599999V0202501N004012200019N0200001N1-01521-02161103851ADDGA1001+999999999GF100991001001999999001001MD1210011+9999REMSYN054AAXX  11031 54259 42970 02504 11152 21216 40385 52001;
0175542590999992000121106004+42090+124940FM-12+023599999V0202201N005012200019N0300001N1-01281-02251103671ADDAA199000091GA1001+999999999GF100991001001999999001001KA1999N-02641MD1710171+9999REMSYN064AAXX  11061 54259 32980 02205 11128 21225 40367 57017 333 21264;EQDQ01  00002PRCP99
0122542590999992000121109004+42090+124940FM-12+023599999V0202701N001012200019N0250001N1-01561-02421103731ADDGA1001+999999999GF100991001001999999001001MD1210041+9999REMSYN054AAXX  11091 54259 42975 02701 11156 21242 40373 52004;
0152542590999992000121112004+42090+124940FM-12+023599999V0209999C000012200019N0120001N1-01961-02391103761ADDAA199000091GA1001+999999999GF100991001001999999001001MD1410001+9999REMSYN054AAXX  11121 54259 32962 00000 11196 21239 40376 54000;EQDQ01  00002PRCP99
0175542590999992000121118004+42090+124940FM-12+023599999V0202701N001012200019N0200001N1-02401-02631103461ADDAA199000091GA1001+999999999GF100991001001999999001001KA1999M-01261MD1710141+9999REMSYN064AAXX  11181 54259 32970 02701 11240 21263 40346 57014 333 11126;EQDQ01  00002PRCP99
0122542590999992000121121004+42090+124940FM-12+023599999V0209999C000012200019N0200001N1-02521-02731103331ADDGA1001+999999999GF100991001001999999001001MD1710151+9999REMSYN054AAXX  11211 54259 42970 00000 11252 21273 40333 57015;
0180542590999992000121200004+42090+124940FM-12+023599999V0209999C000012200019N0060001N1-02551-02781103231ADDAA199000091GA1001+999999999GF100991001001999999001001MD1710121-0601MW1041REMSYN076AAXX  12001 54259 31956 00000 11255 21278 40323 57012 70400 333 05600 92517;EQDQ01  00002PRCP99
0134542590999992000121203004+42090+124940FM-12+023599999V0209999C000012200019N0080001N1-01541-02161102961ADDGA1001+999999999GF100991001001999999001001MD1710221+9999MW1041REMSYN060AAXX  12031 54259 41958 00000 11154 21216 40296 57022 70400;
0175542590999992000121206004+42090+124940FM-12+023599999V0202201N005012200019N0280001N1-00671-02361102651ADDAA199000091GA1001+999999999GF100991001001999999001001KA1999N-02611MD1710261+9999REMSYN064AAXX  12061 54259 32978 02205 11067 21236 40265 57026 333 21261;EQDQ01  00002PRCP99
0122542590999992000121209004+42090+124940FM-12+023599999V0209999C000012200019N0150001N1-00981-02031102651ADDGA1001+999999999GF100991001001999999001001MD1710021+9999REMSYN054AAXX  12091 54259 42965 00000 11098 21203 40265 57002;
0152542590999992000121212004+42090+124940FM-12+023599999V0209999C000012200019N0120001N1-01521-01861102701ADDAA199000091GA1001+999999999GF100991001001999999001001MD1210011+9999REMSYN054AAXX  12121 54259 32962 00000 11152 21186 40270 52001;EQDQ01  00002PRCP99
0175542590999992000121218004+42090+124940FM-12+023599999V0209999C000012200019N0150001N1-02011-02231102531ADDAA199000091GA1001+999999999GF100991001001999999001001KA1999M-00651MD1710041+9999REMSYN064AAXX  12181 54259 32965 00000 11201 21223 40253 57004 333 11065;EQDQ01  00002PRCP99
0122542590999992000121221004+42090+124940FM-12+023599999V0209999C000012200019N0150001N1-02141-02361102431ADDGA1001+999999999GF100991001001999999001001MD1710121+9999REMSYN054AAXX  12211 54259 42965 00000 11214 21236 40243 57012;
0180542590999992000121300004+42090+124940FM-12+023599999V0209999C000012200019N0060001N1-02221-02441102451ADDAA199000091GA1001+999999999GF100991001001999999001001MD1710021-0701MW1041REMSYN076AAXX  13001 54259 31956 00000 11222 21244 40245 57002 70400 333 05703 92517;EQDQ01  00002PRCP99
0122542590999992000121303004+42090+124940FM-12+023599999V0209999C000012200019N0120001N1-01191-01761102301ADDGA1001+999999999GF100991001001999999001001MD1710101+9999REMSYN054AAXX  13031 54259 42962 00000 11119 21176 40230 57010;
0175542590999992000121306004+42090+124940FM-12+023599999V0209999C000012200019N0300001N1-00171-01321102121ADDAA199000091GA1001+999999999GF100991001001999999001001KA1999N-02241MD1710131+9999REMSYN064AAXX  13061 54259 32980 00000 11017 21132 40212 57013 333 21224;EQDQ01  00002PRCP99
0164542590999992000121312004+42090+124940FM-12+023599999V0209999C000012200019N0080001N1-01231-01501102451ADDAA199000091GA1001+999999999GF100991001001999999001001MD1210151+9999MW1041REMSYN060AAXX  13121 54259 31958 00000 11123 21150 40245 52015 70400;EQDQ01  00002PRCP99
0175542590999992000121318004+42090+124940FM-12+023599999V0209999C000012200019N0150001N1-01801-01981102751ADDAA199000091GA1001+999999999GF100991001001999999001001KA1999M-00131MD1210171+9999REMSYN064AAXX  13181 54259 32965 00000 11180 21198 40275 52017 333 11013;EQDQ01  00002PRCP99
0122542590999992000121321004+42090+124940FM-12+023599999V0209999C000012200019N0150001N1-02001-02181102801ADDGA1001+999999999GF100991001001999999001001MD1410001+9999REMSYN054AAXX  13211 54259 42965 00000 11200 21218 40280 54000;
0180542590999992000121400004+42090+124940FM-12+023599999V0209999C000012200019N0060001N1-02151-02331102791ADDAA199000091GA1001+999999999GF100991001001999999001001MD1710051+0401MW1041REMSYN076AAXX  14001 54259 31956 00000 11215 21233 40279 57005 70400 333 00401 92517;EQDQ01  00002PRCP99
0134542590999992000121403004+42090+124940FM-12+023599999V0209999C000012200019N0080001N1-01151-01621102591ADDGA1001+999999999GF100991001001999999001001MD1710161+9999MW1041REMSYN060AAXX  14031 54259 41958 00000 11115 21162 40259 57016 70400;
0175542590999992000121406004+42090+124940FM-12+023599999V0209999C000012200019N0120001N1-00361-01311102291ADDAA199000091GA1001+999999999GF100991001001999999001001KA1999N-02151MD1710251+9999REMSYN064AAXX  14061 54259 32962 00000 11036 21131 40229 57025 333 21215;EQDQ01  00002PRCP99
0134542590999992000121409004+42090+124940FM-12+023599999V0209999C000012200019N0060001N1-00891-01361102251ADDGA1001+999999999GF100991001001999999001001MD1710081+9999MW1041REMSYN060AAXX  14091 54259 41956 00000 11089 21136 40225 57008 70400;
0164542590999992000121412004+42090+124940FM-12+023599999V0209999C000012200019N0060001N1-01321-01591102221ADDAA199000091GA1001+999999999GF100991001001999999001001MD1710071+9999MW1041REMSYN060AAXX  14121 54259 31956 00000 11132 21159 40222 57007 70400;EQDQ01  00002PRCP99
0175542590999992000121418004+42090+124940FM-12+023599999V0209999C000012200019N0120001N1-01641-01861101941ADDAA199000091GA1001+999999999GF100991001001999999001001KA1999M-00251MD1710041+9999REMSYN064AAXX  14181 54259 32962 00000 11164 21186 40194 57004 333 11025;EQDQ01  00002PRCP99
0145542590999992000121421004+42090+124940FM-12+023599999V0209999C000010120019N0080001N1-01171-01401101791ADDAA124000791GF108991081051012501999999MD1710151+9999MW1701REMSYN076AAXX  14211 54259 41658 80000 11117 21140 40179 57015 77000 885// 333 79999;
0171542590999992000121500004+42090+124940FM-12+023599999V0209999C000010120019N0060001N1-00831-01071101901ADDAA106002091AY171061GF108991081051012501999999MD1210101-0801MW1701REMSYN094AAXX  15001 54259 11656 80000 11083 21107 40190 52010 60021 77070 885// 333 05813 70018 92520;
0132542590999992000121503004+42090+124940FM-12+023599999V0202701N005012200019N0280001N1-00281-01281102061ADDAY171031GF101991011051012501001001MD1210181+9999MW1001REMSYN066AAXX  15031 54259 41678 12705 11028 21128 40206 52018 70070 81500;
0172542590999992000121506004+42090+124940FM-12+023599999V0202501N004012200019N0300001N1-00381-01481102231ADDAA106000791AY171061GF101991011011008001001001KA1999N-01641MD1210151+9999MW1001REMSYN082AAXX  15061 54259 11580 12504 11038 21148 40223 52015 69901 70070 81100 333 21164;
0112542590999992000121509004+42090+124940FM-12+023599999V0202901N002012200019N0300001N1-00611-01721102541ADDGF102991021051012501001001MD1210311+9999REMSYN060AAXX  15091 54259 42680 22902 11061 21172 40254 52031 82500;
0133542590999992000121512004+42090+124940FM-12+023599999V0202701N002012200019N0150001N1-00941-02041102761ADDAA199000021GA1001+999999999GF100991001001999999001001MD1210221+9999REMSYN054AAXX  15121 54259 32965 02702 11094 21204 40276 52022;
0175542590999992000121518004+42090+124940FM-12+023599999V0209999C000012200019N0200001N1-01621-02261103151ADDAA199000091GA1001+999999999GF100991001001999999001001KA1999M-00111MD1210141+9999REMSYN064AAXX  15181 54259 32970 00000 11162 21226 40315 52014 333 11011;EQDQ01  00002PRCP99
0143542590999992000121521004+42090+124940FM-12+023599999V0209999C000012200019N0180001N1-02021-02351103261ADDAA124001891GA1001+999999999GF100991001001999999001001MD1210071+9999REMSYN064AAXX  15211 54259 42968 00000 11202 21235 40326 52007 333 70018;
0167542590999992000121600004+42090+124940FM-12+023599999V0209999C000012200019N0080001N1-02211-02441103451ADDAA124000791GA1001+999999999GF100991001001999999001001MD1210151+1401MW1041REMSYN082AAXX  16001 54259 31958 00000 11221 21244 40345 52015 70400 333 01464 79999 92518;
0122542590999992000121603004+42090+124940FM-12+023599999V0209999C000012200019N0120001N1-01321-01951103391ADDGA1001+999999999GF100991001001999999001001MD1710011+9999REMSYN054AAXX  16031 54259 42962 00000 11132 21195 40339 57001;
0175542590999992000121606004+42090+124940FM-12+023599999V0202001N002012200019N0300001N1-00711-01851103191ADDAA199000091GA1001+999999999GF100991001001999999001001KA1999N-02221MD1710191+9999REMSYN064AAXX  16061 54259 32980 02002 11071 21185 40319 57019 333 21222;EQDQ01  00002PRCP99
0122542590999992000121609004+42090+124940FM-12+023599999V0209999C000012200019N0150001N1-01101-01821103131ADDGA1001+999999999GF100991001001999999001001MD1710101+9999REMSYN054AAXX  16091 54259 42965 00000 11110 21182 40313 57010;
0142542590999992000121612004+42090+124940FM-12+023599999V0209999C000010120019N0150001N1-01531-01931103091ADDAA199000091GF106991061051012501001001MD1710081+9999REMSYN060AAXX  16121 54259 32665 60000 11153 21193 40309 57008 86500;EQDQ01  00002PRCP99
0175542590999992000121618004+42090+124940FM-12+023599999V0209999C000012200019N0150001N1-01781-02081102931ADDAA199000091GA1001+999999999GF100991001001999999001001KA1999M-00671MD1710051+9999REMSYN064AAXX  16181 54259 32965 00000 11178 21208 40293 57005 333 11067;EQDQ01  00002PRCP99
0112542590999992000121621004+42090+124940FM-12+023599999V0209999C000010120019N0120001N1-01751-02051102901ADDGF106991061051012501001001MD1710051+9999REMSYN060AAXX  16211 54259 42662 60000 11175 21205 40290 57005 86500;
0170542590999992000121700004+42090+124940FM-12+023599999V0209999C000010120019N0070001N1-01741-02031102951ADDAA199000091GF106991061051012501001001MD1210021-0501MW1041REMSYN082AAXX  17001 54259 31657 60000 11174 21203 40295 52002 70400 86500 333 05505 92518;EQDQ01  00002PRCP99
0124542590999992000121703004+42090+124940FM-12+023599999V0209999C000010120019N0060001N1-00921-01351102841ADDGF105991051051012501001001MD1710061+9999MW1041REMSYN066AAXX  17031 54259 41656 50000 11092 21135 40284 57006 70400 85500;
0177542590999992000121706004+42090+124940FM-12+023599999V0209999C000012200019N0080001N1-00111-01041102641ADDAA199000091GF103991001001999999001021KA1999N-01841MD1710161+9999MW1041REMSYN076AAXX  17061 54259 31958 30000 11011 21104 40264 57016 70400 80002 333 21184;EQDQ01  00002PRCP99
0124542590999992000121709004+42090+124940FM-12+023599999V0209999C000012200019N0060001N1-00501-00891102691ADDGF101991001001999999001021MD1210031+9999MW1041REMSYN066AAXX  17091 54259 41956 10000 11050 21089 40269 52003 70400 80002;
0164542590999992000121712004+42090+124940FM-12+023599999V0209999C000012200019N0050001N1-00911-01171102671ADDAA199000091GA1001+999999999GF100991001001999999001001MD1710041+9999MW1041REMSYN060AAXX  17121 54259 31950 00000 11091 21117 40267 57004 70400;EQDQ01  00002PRCP99
0177542590999992000121718004+42090+124940FM-12+023599999V0209999C000010120019N0080001N1-00671-01021102471ADDAA199000091GF107991071051012501999999KA1999M+00071MD1710021+9999MW1041REMSYN076AAXX  17181 54259 31658 70000 11067 21102 40247 57002 70400 875// 333 10007;EQDQ01  00002PRCP99
0145542590999992000121721004+42090+124940FM-12+023599999V0200401N001010120019N0080001N1-00501-00801102241ADDAA124000791GF108991081051012501999999MD1710231+9999MW1701REMSYN076AAXX  17211 54259 41658 80401 11050 21080 40224 57023 77000 885// 333 79999;
0171542590999992000121800004+42090+124940FM-12+023599999V0209999C000010120019N0030001N1-00331-00511102101ADDAA106001091AY171061GF108991081001012501021999MD1710151-0701MW1711REMSYN094AAXX  18001 54259 11630 80000 11033 21051 40210 57015 69991 77170 8802/ 333 05714 70009 92520;
0140542590999992000121803004+42090+124940FM-12+023599999V0209999C000010120019N0030001N1-00061-00151101841ADDAY171031AY271031GF108991081001012501021999MD1710231+9999MW1711REMSYN066AAXX  18031 54259 41630 80000 11006 21015 40184 57023 77177 8802/;
0180542590999992000121806004+42090+124940FM-12+023599999V0202701N001010120019N0030001N1+00101-00041101541ADDAA106002091AY171061AY271061GF108991081001012501021999KA1999N-00921MD1710281+9999MW1711REMSYN082AAXX  18061 54259 11630 82701 10010 21004 40154 57028 60021 77177 8802/ 333 21092;
0140542590999992000121809004+42090+124940FM-12+023599999V0202701N004010120019N0050001N1+00011-00131101621ADDAY171031AY271031GF108991081051012501999999MD1210081+9999MW1701REMSYN066AAXX  18091 54259 41650 82704 10001 21013 40162 52008 77077 885//;
0157542590999992000121812004+42090+124940FM-12+023599999V0202501N003010120019N0060001N1-00951-01331102231ADDAA106005191AY171061AY271061GF108991081051012501999999MD1210551+9999MW1701REMSYN072AAXX  18121 54259 11656 82503 11095 21133 40223 52055 60051 77077 885//;
0180542590999992000121818004+42090+124940FM-12+023599999V0202501N002010120019N0080001N1-01271-01561103051ADDAA106000191AY171061AY271061GF108991081051012501999999KA1999M+00141MD1210401+9999MW1701REMSYN082AAXX  18181 54259 11658 82502 11127 21156 40305 52040 69911 77077 885// 333 10014;
0161542590999992000121821004+42090+124940FM-12+023599999V0202201N002010120019N0060001N1-01281-01551103261ADDAA124007491AY171031AY271031GF108991081051012501999999MD1210201+9999MW1701REMSYN076AAXX  18211 54259 41656 82202 11128 21155 40326 52020 77077 885// 333 70073;
0171542590999992000121900004+42090+124940FM-12+023599999V0209999C000010120019N0080001N1-01611-01841103571ADDAA106000791AY171061GF107991071051012501999999MD1210231+1401MW1101REMSYN094AAXX  19001 54259 11658 70000 11161 21184 40357 52023 69901 71070 875// 333 01463 70064 92524;
0122542590999992000121903004+42090+124940FM-12+023599999V0201801N001012200019N0250001N1-01121-01541103591ADDGA1001+999999999GF100991001001999999001001MD1210031+9999REMSYN054AAXX  19031 54259 42975 01801 11112 21154 40359 52003;
0146542590999992000121906004+42090+124940FM-12+023599999V0209999C000019999999N0300001N1-00841-01481103321ADDAA199000021GF107991001001999999001021KA1999N-01641MD1710251+9999REMSYN070AAXX  19061 54259 32980 70000 11084 21148 40332 57025 80002 333 21164;
0112542590999992000121909004+42090+124940FM-12+023599999V0209999C000019999999N0150001N1-01081-01401103251ADDGF107991001001999999001021MD1710081+9999REMSYN060AAXX  19091 54259 42965 70000 11108 21140 40325 57008 80002;
0152542590999992000121912004+42090+124940FM-12+023599999V0209999C000012200019N0150001N1-01191-01431103101ADDAA199000091GA1001+999999999GF100991001001999999001001MD1710171+9999REMSYN054AAXX  19121 54259 32965 00000 11119 21143 40310 57017;EQDQ01  00002PRCP99
0165542590999992000121918004+42090+124940FM-12+023599999V0209999C000010120019N0150001N1-01261-01481102511ADDAA199000091GF108991081051012501999999KA1999M-00681MD1710231+9999REMSYN070AAXX  19181 54259 32665 80000 11126 21148 40251 57023 885// 333 11068;EQDQ01  00002PRCP99
0145542590999992000121921004+42090+124940FM-12+023599999V0209999C000010120019N0120001N1-01151-01361102311ADDAA124000791GF108991081051012501999999MD1710211+9999MW1701REMSYN076AAXX  19211 54259 41662 80000 11115 21136 40231 57021 77000 885// 333 79999;
0171542590999992000122000004+42090+124940FM-12+023599999V0209999C000010120019N0080001N1-00981-01201102241ADDAA106000591AY171061GF108991081051012501999999MD1710061-1301MW1701REMSYN094AAXX  20001 54259 11658 80000 11098 21120 40224 57006 69961 77070 885// 333 06306 70006 92525;
0140542590999992000122003004+42090+124940FM-12+023599999V0202201N003012200019N0090001N1-00501-00761102131ADDAY171031AY271031GF104991041051012501001001MD1710091+9999MW1701REMSYN066AAXX  20031 54259 41659 42203 11050 21076 40213 57009 77077 84500;
0172542590999992000122006004+42090+124940FM-12+023599999V0202901N003010120019N0300001N1-00481-01061102171ADDAA106000391AY171061GF107991071051012501999999KA1999N-01361MD1210051+9999MW1221REMSYN082AAXX  20061 54259 11680 72903 11048 21106 40217 52005 69931 72270 875// 333 21136;
0132542590999992000122009004+42090+124940FM-12+023599999V0202901N001010120019N0200001N1-00781-01271102441ADDAY171031GF106991061051012501001001MD1210251+9999MW1701REMSYN066AAXX  20091 54259 41670 62901 11078 21127 40244 52025 77070 86500;
0149542590999992000122012004+42090+124940FM-12+023599999V0209999C000012200019N0150001N1-01281-01521102561ADDAA106000791AY171061GF101991011051012501001001MD1210091+9999MW1001REMSYN072AAXX  20121 54259 11665 10000 11128 21152 40256 52009 69901 70070 81500;
0156542590999992000122018004+42090+124940FM-12+023599999V0209999C000012200019N0150001N1-01971-02171102571ADDAA199000021GA1001+999999999GF100991001001999999001001KA1999M-00351MD1710021+9999REMSYN064AAXX  20181 54259 32965 00000 11197 21217 40257 57002 333 11035;
0143542590999992000122021004+42090+124940FM-12+023599999V0209999C000012200019N0150001N1-02151-02361102551ADDAA124001091GA1001+999999999GF100991001001999999001001MD1710041+9999REMSYN064AAXX  20211 54259 42965 00000 11215 21236 40255 57004 333 70009;
0167542590999992000122100004+42090+124940FM-12+023599999V0209999C000012200019N0060001N1-02221-02431102551ADDAA124000391GA1001+999999999GF100991001001999999001001MD1710041+0201MW1041REMSYN082AAXX  21001 54259 31956 00000 11222 21243 40255 57004 70400 333 00262 70003 92525;
0124542590999992000122103004+42090+124940FM-12+023599999V0209999C000012200019N0080001N1-01621-01961102421ADDGF102991001001999999001021MD1710121+9999MW1041REMSYN066AAXX  21031 54259 41958 20000 11162 21196 40242 57012 70400 80002;
0177542590999992000122106004+42090+124940FM-12+023599999V0209999C000010120019N0080001N1-00891-01421102151ADDAA199000091GF107991061051012501001021KA1999N-02221MD1710231+9999MW1041REMSYN076AAXX  21061 54259 31658 70000 11089 21142 40215 57023 70400 86502 333 21222;EQDQ01  00002PRCP99
0124542590999992000122109004+42090+124940FM-12+023599999V0200401N001010120019N0080001N1-00661-01161102051ADDGF107991071051012501999999MD1710091+9999MW1041REMSYN066AAXX  21091 54259 41658 70401 11066 21116 40205 57009 70400 875//;
0141542590999992000122112004+42090+124940FM-12+023599999V0200401N001010120019N0060001N1-00621-00951101891ADDAA106000791GF108991081051012501999999MD1710161+9999MW1701REMSYN072AAXX  21121 54259 11656 80401 11062 21095 40189 57016 69901 77000 885//;
0172542590999992000122118004+42090+124940FM-12+023599999V0209999C000010120019N0120001N1-00591-00831101681ADDAA106000591AY171061GF108991081051012501999999KA1999M-00551MD1710041+9999MW1001REMSYN082AAXX  21181 54259 11662 80000 11059 21083 40168 57004 69961 70070 885// 333 11055;
0153542590999992000122121004+42090+124940FM-12+023599999V0200401N001010120019N0070001N1-00581-00821101561ADDAA124000891AY171031GF108991081051012501999999MD1710111+9999MW1701REMSYN076AAXX  21211 54259 41657 80401 11058 21082 40156 57011 77070 885// 333 70008;
0171542590999992000122200004+42090+124940FM-12+023599999V0209999C000010360019N0030001N1-00591-00791101621ADDAA106001091AY171061GF108991021051012501021999MD1210061-0801MW1711REMSYN094AAXX  22001 54259 11630 80000 11059 21079 40162 52006 60011 77170 8252/ 333 05816 70017 92527;
0140542590999992000122203004+42090+124940FM-12+023599999V0209999C000010360019N0040001N1-00491-00671101811ADDAY171031AY271031GF108991041051012501021999MD1210191+9999MW1711REMSYN066AAXX  22031 54259 41640 80000 11049 21067 40181 52019 77177 8452/;
0180542590999992000122206004+42090+124940FM-12+023599999V0209999C000010120019N0080001N1-00391-00661101771ADDAA106002091AY171061AY271061GF107991071051012501999999KA1999N-00901MD1710031+9999MW1701REMSYN082AAXX  22061 54259 11658 70000 11039 21066 40177 57003 60021 77077 875// 333 21090;
0140542590999992000122209004+42090+124940FM-12+023599999V0209999C000010120019N0120001N1-00671-01021102001ADDAY171031AY271031GF107991071051012501999999MD1210211+9999MW1221REMSYN066AAXX  22091 54259 41662 70000 11067 21102 40200 52021 72277 875//;
0149542590999992000122212004+42090+124940FM-12+023599999V0209999C000010120019N0120001N1-00891-01311102221ADDAA106000791AY171061GF108991081051012501999999MD1210201+9999MW1001REMSYN072AAXX  22121 54259 11662 80000 11089 21131 40222 52020 69901 70070 885//;
0146542590999992000122218004+42090+124940FM-12+023599999V0209999C000010120019N0120001N1-01621-01881102231ADDAA199000021GF107991071051012501999999KA1999M-00331MD1710011+9999REMSYN070AAXX  22181 54259 32662 70000 11162 21188 40223 57001 875// 333 11033;
0133542590999992000122221004+42090+124940FM-12+023599999V0200901N001010120019N0120001N1-01781-02041102191ADDAA124002391GF106991061051012501001001MD1710071+9999REMSYN070AAXX  22211 54259 42662 60901 11178 21204 40219 57007 86500 333 70024;
0157542590999992000122300004+42090+124940FM-12+023599999V0200901N002012200019N0080001N1-01921-02181102201ADDAA124001591GF102991001001999999001021MD1710011+0501MW1041REMSYN088AAXX  23001 54259 31958 20902 11192 21218 40220 57001 70400 80002 333 00563 70015 92528;
0124542590999992000122303004+42090+124940FM-12+023599999V0209999C000019999999N0060001N1-01501-01901102161ADDGF107991001001999999001021MD1710031+9999MW1041REMSYN066AAXX  23031 54259 41956 70000 11150 21190 40216 57003 70400 80002;
0165542590999992000122306004+42090+124940FM-12+023599999V0209999C000012200019N0150001N1-00821-01801102021ADDAA199000091GF104991001001999999001021KA1999N-01941MD1710121+9999REMSYN070AAXX  23061 54259 32965 40000 11082 21180 40202 57012 80002 333 21194;EQDQ01  00002PRCP99
0124542590999992000122309004+42090+124940FM-12+023599999V0209999C000019999999N0080001N1-01321-01751102241ADDGF105991001001999999001021MD1210171+9999MW1041REMSYN066AAXX  23091 54259 41958 50000 11132 21175 40224 52017 70400 80002;
0154542590999992000122312004+42090+124940FM-12+023599999V0209999C000012200019N0060001N1-01661-01911102461ADDAA199000091GF104991001001999999001021MD1210191+9999MW1041REMSYN066AAXX  23121 54259 31956 40000 11166 21191 40246 52019 70400 80002;EQDQ01  00002PRCP99
0177542590999992000122318004+42090+124940FM-12+023599999V0209999C000019999999N0080001N1-02231-02451102691ADDAA199000091GF106991001001999999001021KA1999M-00781MD1210181+9999MW1041REMSYN076AAXX  23181 54259 31958 60000 11223 21245 40269 52018 70400 80002 333 11078;EQDQ01  00002PRCP99
0124542590999992000122321004+42090+124940FM-12+023599999V0209999C000019999999N0060001N1-02421-02661102651ADDGF106991001001999999001021MD1710081+9999MW1041REMSYN066AAXX  23211 54259 41956 60000 11242 21266 40265 57008 70400 80002;
0180542590999992000122400004+42090+124940FM-12+023599999V0209999C000012200019N0030001N1-02661-02901102731ADDAA199000091GA1001+999999999GF100991001001999999001001MD1210041+0401MW1041REMSYN076AAXX  24001 54259 31930 00000 11266 21290 40273 52004 70400 333 00457 92528;EQDQ01  00002PRCP99
0134542590999992000122403004+42090+124940FM-12+023599999V0209999C000012200019N0050001N1-02091-02411102701ADDGA1001+999999999GF100991001001999999001001MD1710011+9999MW1041REMSYN060AAXX  24031 54259 41950 00000 11209 21241 40270 57001 70400;
0165542590999992000122406004+42090+124940FM-12+023599999V0202201N002012200019N0150001N1-01261-01771102551ADDAA199000091GF101991001001999999001021KA1999N-02701MD1710111+9999REMSYN070AAXX  24061 54259 32965 12202 11126 21177 40255 57011 80002 333 21270;EQDQ01  00002PRCP99
0112542590999992000122409004+42090+124940FM-12+023599999V0209999C000012200019N0120001N1-01561-01931102621ADDGF104991041051012501001001MD1210041+9999REMSYN060AAXX  24091 54259 42662 40000 11156 21193 40262 52004 84500;
0154542590999992000122412004+42090+124940FM-12+023599999V0209999C000012200019N0080001N1-01981-02231102701ADDAA199000091GF104991001001999999001021MD1210041+9999MW1041REMSYN066AAXX  24121 54259 31958 40000 11198 21223 40270 52004 70400 80002;EQDQ01  00002PRCP99
0175542590999992000122418004+42090+124940FM-12+023599999V0209999C000012200019N0120001N1-02701-02941102861ADDAA199000091GA1001+999999999GF100991001001999999001001KA1999M-01241MD1210061+9999REMSYN064AAXX  24181 54259 32962 00000 11270 21294 40286 52006 333 11124;EQDQ01  00002PRCP99
0122542590999992000122421004+42090+124940FM-12+023599999V0209999C000012200019N0120001N1-02891-03141103001ADDGA1001+999999999GF100991001001999999001001MD1210111+9999REMSYN054AAXX  24211 54259 42962 00000 11289 21314 40300 52011;
0180542590999992000122500004+42090+124940FM-12+023599999V0209999C000012200019N0040001N1-02991-03251103331ADDAA199000091GA1001+999999999GF100991001001999999001001MD1210281+0501MW1041REMSYN076AAXX  25001 54259 31940 00000 11299 21325 40333 52028 70400 333 00553 92528;EQDQ01  00002PRCP99
0122542590999992000122503004+42090+124940FM-12+023599999V0203601N001012200019N0100001N1-02401-02741103421ADDGA1001+999999999GF100991001001999999001001MD1210101+9999REMSYN054AAXX  25031 54259 42960 03601 11240 21274 40342 52010;
0175542590999992000122506004+42090+124940FM-12+023599999V0202201N002012200019N0120001N1-01751-02191103401ADDAA199000091GA1001+999999999GF100991001001999999001001KA1999N-02991MD1210011+9999REMSYN064AAXX  25061 54259 32962 02202 11175 21219 40340 52001 333 21299;EQDQ01  00002PRCP99
0134542590999992000122509004+42090+124940FM-12+023599999V0202201N001012200019N0080001N1-01991-02331103621ADDGA1001+999999999GF100991001001999999001001MD1210181+9999MW1041REMSYN060AAXX  25091 54259 41958 02201 11199 21233 40362 52018 70400;
0164542590999992000122512004+42090+124940FM-12+023599999V0209999C000012200019N0080001N1-02261-02521103751ADDAA199000091GA1001+999999999GF100991001001999999001001MD1210101+9999MW1041REMSYN060AAXX  25121 54259 31958 00000 11226 21252 40375 52010 70400;EQDQ01  00002PRCP99
0175542590999992000122518004+42090+124940FM-12+023599999V0209999C000012200019N0120001N1-02911-03171104021ADDAA199000091GA1001+999999999GF100991001001999999001001KA1999M-01711MD1210201+9999REMSYN064AAXX  25181 54259 32962 00000 11291 21317 40402 52020 333 11171;EQDQ01  00002PRCP99
0122542590999992000122521004+42090+124940FM-12+023599999V0209999C000012200019N0120001N1-03101-03371104171ADDGA1001+999999999GF100991001001999999001001MD1210121+9999REMSYN054AAXX  25211 54259 42962 00000 11310 21337 40417 52012;
0180542590999992000122600004+42090+124940FM-12+023599999V0209999C000012200019N0080001N1-03171-03441104331ADDAA199000091GA1001+999999999GF100991001001999999001001MD1210131+0901MW1041REMSYN076AAXX  26001 54259 31958 00000 11317 21344 40433 52013 70400 333 00952 92528;EQDQ01  00002PRCP99
0134542590999992000122603004+42090+124940FM-12+023599999V0209999C000012200019N0060001N1-02291-02611104301ADDGA1001+999999999GF100991001001999999001001MD1410001+9999MW1041REMSYN060AAXX  26031 54259 41956 00000 11229 21261 40430 54000 70400;
0175542590999992000122606004+42090+124940FM-12+023599999V0200901N003012200019N0180001N1-01641-02311104031ADDAA199000091GA1001+999999999GF100991001001999999001001KA1999N-03171MD1710231+9999REMSYN064AAXX  26061 54259 32968 00903 11164 21231 40403 57023 333 21317;EQDQ01  00002PRCP99
0112542590999992000122609004+42090+124940FM-12+023599999V0200401N002012200019N0120001N1-01861-02521104011ADDGF101991001001999999001021MD1710051+9999REMSYN060AAXX  26091 54259 42962 10402 11186 21252 40401 57005 80002;
0164542590999992000122612004+42090+124940FM-12+023599999V0200401N001012200019N0080001N1-02001-02561103991ADDAA199000091GA1001+999999999GF100991001001999999001001MD1710031+9999MW1041REMSYN060AAXX  26121 54259 31958 00401 11200 21256 40399 57003 70400;EQDQ01  00002PRCP99
0165542590999992000122618004+42090+124940FM-12+023599999V0200901N002019999999N0120001N1-02061-02551103761ADDAA199000091GF107991001001999999001021KA1999M-01561MD1710121+9999REMSYN070AAXX  26181 54259 32962 70902 11206 21255 40376 57012 80002 333 11156;EQDQ01  00002PRCP99
0112542590999992000122621004+42090+124940FM-12+023599999V0201101N002019999999N0120001N1-02141-02541103701ADDGF107991001001999999001021MD1710081+9999REMSYN060AAXX  26211 54259 42962 71102 11214 21254 40370 57008 80002;
0171542590999992000122700004+42090+124940FM-12+023599999V0201101N001010120019N0060001N1-02061-02381103711ADDAA106000191AY171061GF108991081051012501999999MD1210011-0501MW1701REMSYN094AAXX  27001 54259 11656 81101 11206 21238 40371 52001 69921 77070 885// 333 05511 70002 92528;
0132542590999992000122703004+42090+124940FM-12+023599999V0201101N001010900019N0100001N1-01771-02181103691ADDAY171031GF107991011051012501001021MD1710011+9999MW1701REMSYN066AAXX  27031 54259 41660 71101 11177 21218 40369 57001 77070 81502;
0172542590999992000122706004+42090+124940FM-12+023599999V0209999C000012200019N0120001N1-01261-01811103471ADDAA106000791AY171061GF101991001001999999001021KA1999N-02161MD1710181+9999MW1001REMSYN082AAXX  27061 54259 11962 10000 11126 21181 40347 57018 69901 70070 80002 333 21216;
0134542590999992000122709004+42090+124940FM-12+023599999V0209999C000012200019N0080001N1-01611-01951103601ADDGA1001+999999999GF100991001001999999001001MD1210101+9999MW1041REMSYN060AAXX  27091 54259 41958 00000 11161 21195 40360 52010 70400;
0145542590999992000122712004+42090+124940FM-12+023599999V0200901N001012200019N0080001N1-02011-02291103651ADDAA199000021GA1001+999999999GF100991001001999999001001MD1210031+9999MW1041REMSYN060AAXX  27121 54259 31958 00901 11201 21229 40365 52003 70400;
0175542590999992000122718004+42090+124940FM-12+023599999V0209999C000012200019N0120001N1-02581-02821103791ADDAA199000091GA1001+999999999GF100991001001999999001001KA1999M-01221MD1210051+9999REMSYN064AAXX  27181 54259 32962 00000 11258 21282 40379 52005 333 11122;EQDQ01  00002PRCP99
0143542590999992000122721004+42090+124940FM-12+023599999V0209999C000012200019N0120001N1-02771-03021103841ADDAA124000391GA1001+999999999GF100991001001999999001001MD1210021+9999REMSYN064AAXX  27211 54259 42962 00000 11277 21302 40384 52002 333 70002;
0167542590999992000122800004+42090+124940FM-12+023599999V0209999C000012200019N0050001N1-02881-03131103931ADDAA124000791GA1001+999999999GF100991001001999999001001MD1210051+0201MW1041REMSYN082AAXX  28001 54259 31950 00000 11288 21313 40393 52005 70400 333 00258 79999 92528;
0122542590999992000122803004+42090+124940FM-12+023599999V0201401N001012200019N0120001N1-02141-02551103831ADDGA1001+999999999GF100991001001999999001001MD1710071+9999REMSYN054AAXX  28031 54259 42962 01401 11214 21255 40383 57007;
0175542590999992000122806004+42090+124940FM-12+023599999V0202001N001012200019N0200001N1-01291-01981103601ADDAA199000091GA1001+999999999GF100991001001999999001001KA1999N-02881MD1710181+9999REMSYN064AAXX  28061 54259 32970 02001 11129 21198 40360 57018 333 21288;EQDQ01  00002PRCP99
0122542590999992000122809004+42090+124940FM-12+023599999V0209999C000012200019N0120001N1-01621-02041103561ADDGA1001+999999999GF100991001001999999001001MD1710081+9999REMSYN054AAXX  28091 54259 42962 00000 11162 21204 40356 57008;
0152542590999992000122812004+42090+124940FM-12+023599999V0209999C000012200019N0120001N1-01961-02211103521ADDAA199000091GA1001+999999999GF100991001001999999001001MD1710061+9999REMSYN054AAXX  28121 54259 32962 00000 11196 21221 40352 57006;EQDQ01  00002PRCP99
0175542590999992000122818004+42090+124940FM-12+023599999V0209999C000012200019N0120001N1-02301-02551103221ADDAA199000091GA1001+999999999GF100991001001999999001001KA1999M-01061MD1710101+9999REMSYN064AAXX  28181 54259 32962 00000 11230 21255 40322 57010 333 11106;EQDQ01  00002PRCP99
0112542590999992000122821004+42090+124940FM-12+023599999V0209999C000010120019N0120001N1-02021-02291102971ADDGF108991081051012501999999MD1710241+9999REMSYN060AAXX  28211 54259 42662 80000 11202 21229 40297 57024 885//;
0171542590999992000122900004+42090+124940FM-12+023599999V0209999C000010120019N0060001N1-01721-01961102931ADDAA106000891AY171061GF108991081051012501999999MD1710041-0901MW1711REMSYN094AAXX  29001 54259 11656 80000 11172 21196 40293 57004 69971 77170 885// 333 05912 70007 92528;
0140542590999992000122903004+42090+124940FM-12+023599999V0209999C000010120019N0080001N1-01161-01461102841ADDAY171031AY271031GF107991071051012501999999MD1710071+9999MW1701REMSYN066AAXX  29031 54259 41658 70000 11116 21146 40284 57007 77077 875//;
0180542590999992000122906004+42090+124940FM-12+023599999V0209999C000010120019N0080001N1-00671-01021102661ADDAA106000891AY171061AY271061GF108991081051012501999999KA1999N-02331MD1710151+9999MW1221REMSYN082AAXX  29061 54259 11658 80000 11067 21102 40266 57015 69981 72277 885// 333 21233;
0132542590999992000122909004+42090+124940FM-12+023599999V0209999C000010120019N0050001N1-00661-00911102601ADDAY171031GF108991081051012501999999MD1710041+9999MW1701REMSYN066AAXX  29091 54259 41650 80000 11066 21091 40260 57004 77070 885//;
0149542590999992000122912004+42090+124940FM-12+023599999V0209999C000010120019N0030001N1-00591-00791102451ADDAA106000191AY171061GF108991081051012501999999MD1710131+9999MW1041REMSYN072AAXX  29121 54259 11630 80000 11059 21079 40245 57013 69911 70470 885//;
0146542590999992000122918004+42090+124940FM-12+023599999V0202001N005010120019N0150001N1-00201-00661101991ADDAA199000021GF108991081051012501999999KA1999M-00201MD1710241+9999REMSYN070AAXX  29181 54259 32665 82005 11020 21066 40199 57024 885// 333 11020;
0153542590999992000122921004+42090+124940FM-12+023599999V0202501N003010120019N0080001N1-00231-00541101681ADDAA124002091AY171031GF108991081051012501999999MD1710301+9999MW1701REMSYN076AAXX  29211 54259 41658 82503 11023 21054 40168 57030 77070 885// 333 70020;
0171542590999992000123000004+42090+124940FM-12+023599999V0202701N002010120019N0030001N1-00181-00371101501ADDAA106001091AY171061GF108991081001012501021999MD1710171-1201MW1711REMSYN094AAXX  30001 54259 11630 82702 11018 21037 40150 57017 60011 77170 8802/ 333 06215 70020 92531;
0140542590999992000123003004+42090+124940FM-12+023599999V0202501N005010120019N0020001N1-00121-00171101461ADDAY171031AY271031GF108991081001012501021999MD1710021+9999MW1711REMSYN066AAXX  30031 54259 41620 82505 11012 21017 40146 57002 77177 8802/;
0180542590999992000123006004+42090+124940FM-12+023599999V0203201N004010120019N0080001N1-00831-01401101781ADDAA106003091AY171061AY271061GF106991061051012501001001KA1999N-00841MD1210281+9999MW1221REMSYN082AAXX  30061 54259 11658 63204 11083 21140 40178 52028 60031 72277 86500 333 21084;
0112542590999992000123009004+42090+124940FM-12+023599999V0202701N004012200019N0100001N1-01341-01851102301ADDGF104991041051012501001001MD1210471+9999REMSYN060AAXX  30091 54259 42660 42704 11134 21185 40230 52047 84500;
0135542590999992000123012004+42090+124940FM-12+023599999V0203201N002010120019N0080001N1-01581-02031102551ADDAA199000021GF107991071051012501999999MD1210231+9999MW1041REMSYN066AAXX  30121 54259 31658 73202 11158 21203 40255 52023 70400 875//;
0172542590999992000123018004+42090+124940FM-12+023599999V0202501N001010120019N0080001N1-01861-02121102781ADDAA106000791AY171061GF108991081051012501999999KA1999M-00121MD1210091+9999MW1701REMSYN082AAXX  30181 54259 11658 82501 11186 21212 40278 52009 69901 77070 885// 333 11012;
0161542590999992000123021004+42090+124940FM-12+023599999V0202501N003010120019N0060001N1-01861-02121102851ADDAA124003891AY171031AY271031GF108991081051012501999999MD1210041+9999MW1701REMSYN076AAXX  30211 54259 41656 82503 11186 21212 40285 52004 77077 885// 333 70039;
0171542590999992000123100004+42090+124940FM-12+023599999V0209999C000012200019N0040001N1-02211-02461102951ADDAA106000791AY171061GF101991011051012501001001MD1210061+1201MW1041REMSYN094AAXX  31001 54259 11640 10000 11221 21246 40295 52006 69901 70470 81500 333 01270 70032 92535;
0122542590999992000123103004+42090+124940FM-12+023599999V0209999C000012200019N0110001N1-01671-02051102971ADDGA1001+999999999GF100991001001999999001001MD1210041+9999REMSYN054AAXX  31031 54259 42961 00000 11167 21205 40297 52004;
0156542590999992000123106004+42090+124940FM-12+023599999V0202501N002012200019N0200001N1-01301-01931102871ADDAA199000021GA1001+999999999GF100991001001999999001001KA1999N-02231MD1710081+9999REMSYN064AAXX  31061 54259 32970 02502 11130 21193 40287 57008 333 21223;
0122542590999992000123109004+42090+124940FM-12+023599999V0209999C000012200019N0150001N1-01771-02151102881ADDGA1001+999999999GF100991001001999999001001MD1710021+9999REMSYN054AAXX  31091 54259 42965 00000 11177 21215 40288 57002;
0152542590999992000123112004+42090+124940FM-12+023599999V0209999C000012200019N0120001N1-02051-02331102931ADDAA199000091GA1001+999999999GF100991001001999999001001MD1210011+9999REMSYN054AAXX  31121 54259 32962 00000 11205 21233 40293 52001;EQDQ01  00002PRCP99
0175542590999992000123118004+42090+124940FM-12+023599999V0209999C000012200019N0120001N1-02511-02791102581ADDAA199000091GA1001+999999999GF100991001001999999001001KA1999M-01171MD1710181+9999REMSYN064AAXX  31181 54259 32962 00000 11251 21279 40258 57018 333 11117;EQDQ01  00002PRCP99
0133542590999992000123121004+42090+124940FM-12+023599999V0209999C000010120019N0120001N1-02401-02691102311ADDAA124000791GF105991051051012501001001MD1710281+9999REMSYN070AAXX  31211 54259 42662 50000 11240 21269 40231 57028 85500 333 79999;
