0164590460999992000010100004+24350+109400FM-12+009799999V0209999C000012200019N0040001N1+01321+01131101901ADDAA106000091GF103991031001999999031001MD1210161+0011MW1101REMSYN076AAXX  01001 59046 31940 30000 10132 20113 40190 52016 71000 83030 333 00102;EQDQ01  00002PRCP06
0124590460999992000010103004+24350+109400FM-12+009799999V0202701N002012200019N0040001N1+02011+01231102021ADDGF101991011001999999031001MD1210121+9999MW1041REMSYN066AAXX  01031 59046 41940 12702 10201 20123 40202 52012 70400 81030;
0175590460999992000010106004+24350+109400FM-12+009799999V0202201N002012200019N0150001N1+02501+00911101621ADDAA106000091GA1001+999999999GF100991001001999999001001KA1999N+01321MD1710381+9999REMSYN064AAXX  01061 59046 32965 02202 10250 20091 40162 57038 333 20132;EQDQ01  00002PRCP06
0122590460999992000010109004+24350+109400FM-12+009799999V0202201N001012200019N0300001N1+02461+00951101491ADDGA1001+999999999GF100991001001999999001001MD1710131+9999REMSYN054AAXX  01091 59046 42980 02201 10246 20095 40149 57013;
0152590460999992000010112004+24350+109400FM-12+009799999V0209999C000012200019N9999999N1+01841+01191101711ADDAA106000091GA1001+999999999GF100991001001999999001001MD1210201+9999REMSYN054AAXX  01121 59046 3/75/ 00000 10184 20119 40171 52020;EQDQ01  00002PRCP06
0175590460999992000010118004+24350+109400FM-12+009799999V0209999C000012200019N9999999N1+01411+01151101921ADDAA106000091GA1001+999999999GF100991001001999999001001KA1999M+02571MD1210011+9999REMSYN064AAXX  01181 59046 3299/ 00000 10141 20115 40192 52001 333 10257;EQDQ01  00002PRCP06
0124590460999992000010121004+24350+109400FM-12+009799999V0202901N001019999999N0080001N1+01281+01131101911ADDGF107991071001999999031999MD1710011+9999MW1101REMSYN066AAXX  01211 59046 41958 72901 10128 20113 40191 57001 71000 8703/;
0164590460999992000010200004+24350+109400FM-12+009799999V0202701N001012200019N0030001N1+01301+01151102121ADDAA106000091GF103991031001999999031001MD1210201+0021MW1101REMSYN076AAXX  02001 59046 31930 32701 10130 20115 40212 52020 71000 83030 333 00200;EQDQ01  00002PRCP06
0134590460999992000010203004+24350+109400FM-12+009799999V0203601N002012200019N0040001N1+01851+01141102231ADDGA1001+999999999GF100991001001999999001001MD1210111+9999MW1041REMSYN060AAXX  02031 59046 41940 03602 10185 20114 40223 52011 70400;
0187590460999992000010206004+24350+109400FM-12+009799999V0203401N002012200019N0030001N1+02281+01101101791ADDAA106000091GA1001+999999999GF100991001001999999001001KA1999N+01281MD1710431+9999MW1051REMSYN070AAXX  02061 59046 31930 03402 10228 20110 40179 57043 70500 333 20128;EQDQ01  00002PRCP06
0134590460999992000010209004+24350+109400FM-12+009799999V0202701N001012200019N0030001N1+02341+01201101591ADDGA1001+999999999GF100991001001999999001001MD1710201+9999MW1051REMSYN060AAXX  02091 59046 41930 02701 10234 20120 40159 57020 70500;
0164590460999992000010212004+24350+109400FM-12+009799999V0209999C000012200019N0030001N1+01821+01291101681ADDAA106000091GA1001+999999999GF100991001001999999001001MD1210081+9999MW1101REMSYN060AAXX  02121 59046 31930 00000 10182 20129 40168 52008 71000;EQDQ01  00002PRCP06
0187590460999992000010218004+24350+109400FM-12+009799999V0202901N001012200019N0030001N1+01371+01241101661ADDAA106000091GA1001+999999999GF100991001001999999001001KA1999M+02401MD1710061+9999MW1101REMSYN070AAXX  02181 59046 31930 02901 10137 20124 40166 57006 71000 333 10240;EQDQ01  00002PRCP06
0134590460999992000010221004+24350+109400FM-12+009799999V0202701N002012200019N0030001N1+01281+01171101611ADDGA1001+999999999GF100991001001999999001001MD1710051+9999MW1101REMSYN060AAXX  02211 59046 41930 02702 10128 20117 40161 57005 71000;
0190590460999992000010300004+24350+109400FM-12+009799999V0209999C000012200019N0030001N1+01231+01121101711ADDAA106000091GF102991999001999999001001MD1210091+9999REMSYN076AAXX  03001 59046 31930 20000 10123 20112 40171 52009 81000 82030 333 05451;EQDQ01+000012SCOTLCQ02+000002SCOTLCQ03  00002PRCP06
0134590460999992000010303004+24350+109400FM-12+009799999V0200901N002012200019N0030001N1+01821+01131101851ADDGA1001+999999999GF100991001001999999001001MD1210141+9999MW1041REMSYN060AAXX  03031 59046 41930 00902 10182 20113 40185 52014 70400;
0175590460999992000010306004+24350+109400FM-12+009799999V0201801N004012200019N0120001N1+02511+00721101391ADDAA106000091GA1001+999999999GF100991001001999999001001KA1999N+01221MD1710441+9999REMSYN064AAXX  03061 59046 32962 01804 10251 20072 40139 57044 333 20122;EQDQ01  00002PRCP06
0122590460999992000010309004+24350+109400FM-12+009799999V0201401N002012200019N0130001N1+02521+00921101181ADDGA1001+999999999GF100991001001999999001001MD1710211+9999REMSYN054AAXX  03091 59046 42963 01402 10252 20092 40118 57021;
0152590460999992000010312004+24350+109400FM-12+009799999V0202201N004012200019N0120001N1+02281+00991101311ADDAA106000091GA1001+999999999GF100991001001999999001001MD1210121+9999REMSYN054AAXX  03121 59046 32962 02204 10228 20099 40131 52012;EQDQ01  00002PRCP06
0175590460999992000010318004+24350+109400FM-12+009799999V0202201N001012200019N0110001N1+01801+01211101391ADDAA106000091GA1001+999999999GF100991001001999999001001KA1999M+02581MD1710041+9999REMSYN064AAXX  03181 59046 32961 02201 10180 20121 40139 57004 333 10258;EQDQ01  00002PRCP06
0124590460999992000010321004+24350+109400FM-12+009799999V0202201N001010150019N0080001N1+01741+01281101291ADDGF107991071051017501999999MD1710101+9999MW1101REMSYN066AAXX  03211 59046 41758 72201 10174 20128 40129 57010 71000 875//;
0157590460999992000010400004+24350+109400FM-12+009799999V0202201N002010042019N0050001N1+01801+01441101401ADDAA106000791GF108991081051004501999999MD1210101-0301MW1601REMSYN088AAXX  04001 59046 11450 82202 10180 20144 40140 52010 69901 76000 885// 333 05306 79999;
0132590460999992000010403004+24350+109400FM-12+009799999V0202201N004010120019N0040001N1+01061+99999101491ADDAY161031GF108991081081008001999999MD1210091+9999MW1101REMSYN066AAXX  04031 59046 41540 82204 10106 20160 40149 52009 71060 888//;
0172590460999992000010406004+24350+109400FM-12+009799999V0202201N004010120019N0100001N1+02222+01691101141ADDAA106000791AY161061GF108991081081008001999999KA1999N+01701MD1710351+9999MW1001REMSYN082AAXX  04061 59046 11560 82204 10222 20169 40114 57035 69901 70060 888// 333 20170;
0112590460999992000010409004+24350+109400FM-12+009799999V0201401N003010120019N0100001N1+02181+01681101041ADDGF108991081081008001999999MD1710101+9999REMSYN060AAXX  04091 59046 42560 81403 10218 20168 40104 57010 888//;
0142590460999992000010412004+24350+109400FM-12+009799999V0201601N001010150019N0100001N1+02071+01701101171ADDAA106000091GF107991071051017501999999MD1210131+9999REMSYN060AAXX  04121 59046 32760 71601 10207 20170 40117 52013 875//;EQDQ01  00002PRCP06
0165590460999992000010418004+24350+109400FM-12+009799999V0202201N004010150019N0100001N1+02081+01661101261ADDAA106000091GF107991071051017501999999KA1999M+02241MD1710071+9999REMSYN070AAXX  04181 59046 32760 72204 10208 20166 40126 57007 875// 333 10224;EQDQ01  00002PRCP06
0133590460999992000010421004+24350+109400FM-12+009799999V0201801N003010150019N0100001N1+02001+01711101181ADDAA124000791GF107991071051017501999999MD1710081+9999REMSYN070AAXX  04211 59046 42760 71803 10200 20171 40118 57008 875// 333 79999;
0170590460999992000010500004+24350+109400FM-12+009799999V0201801N002010120019N0060001N1+02001+01711101331ADDAA106000091GF108991081081008001999999MD1210141-0101MW1101REMSYN082AAXX  05001 59046 31556 81802 10200 20171 40133 52014 71000 888// 333 05102 79999;EQDQ01  00002PRCP06
0124590460999992000010503004+24350+109400FM-12+009799999V0202201N004010120019N0060001N1+02191+01721101461ADDGF107991071081008001999999MD1210131+9999MW1101REMSYN066AAXX  05031 59046 41556 72204 10219 20172 40146 52013 71000 878//;
0165590460999992000010506004+24350+109400FM-12+009799999V0202201N004010120019N0150001N1+02471+01671101051ADDAA106000091GF107991071081008001999999KA1999N+01941MD1710391+9999REMSYN070AAXX  05061 59046 32565 72204 10247 20167 40105 57039 878// 333 20194;EQDQ01  00002PRCP06
0112590460999992000010509004+24350+109400FM-12+009799999V0202001N004012200019N0250001N1+02481+01611100861ADDGF102991021081008001001001MD1710191+9999REMSYN060AAXX  05091 59046 42575 22004 10248 20161 40086 57019 82800;
0152590460999992000010512004+24350+109400FM-12+009799999V0201801N002012200019N0250001N1+02271+01621101041ADDAA106000091GA1001+999999999GF100991001001999999001001MD1210171+9999REMSYN054AAXX  05121 59046 32975 01802 10227 20162 40104 52017;EQDQ01  00002PRCP06
0177590460999992000010518004+24350+109400FM-12+009799999V0201801N001010150019N0080001N1+02021+01691101221ADDAA106000091GF107991071051017501999999KA1999M+02581MD1210031+9999MW1101REMSYN076AAXX  05181 59046 31758 71801 10202 20169 40122 52003 71000 875// 333 10258;EQDQ01  00002PRCP06
0124590460999992000010521004+24350+109400FM-12+009799999V0201401N001010150019N0080001N1+01951+01671101211ADDGF107991071051017501999999MD1710011+9999MW1101REMSYN066AAXX  05211 59046 41758 71401 10195 20167 40121 57001 71000 875//;
0124590460999992000010603004+24350+109400FM-12+009799999V0201601N002010120019N0080001N1+02151+01781101571ADDGF107991071081008001999999MD1210211+9999MW1101REMSYN066AAXX  06031 59046 41558 71602 10215 20178 40157 52021 71000 878//;
0177590460999992000010606004+24350+109400FM-12+009799999V0200701N005012200019N0080001N1+02221+01431101321ADDAA106000091GF104991021081008001001021KA1999N+01831MD1710241+9999MW1041REMSYN076AAXX  06061 59046 31558 40705 10222 20143 40132 57024 70400 82802 333 20183;EQDQ01  00002PRCP06
0112590460999992000010609004+24350+109400FM-12+009799999V0200401N005010120019N0180001N1+01841+01021101431ADDGF108991081051012501999999MD1210101+9999REMSYN060AAXX  06091 59046 42668 80405 10184 20102 40143 52010 885//;
0142590460999992000010612004+24350+109400FM-12+009799999V0203401N004010150019N0180001N1+01351+00811101851ADDAA106000091GF107991071051017501999999MD1210401+9999REMSYN060AAXX  06121 59046 32768 73404 10135 20081 40185 52040 875//;EQDQ01  00002PRCP06
0133590460999992000010621004+24350+109400FM-12+009799999V0203401N002010120019N0200001N1+01051+00471101971ADDAA124001591GF108991081051012501999999MD1710111+9999REMSYN070AAXX  06211 59046 42670 83402 10105 20047 40197 57011 885// 333 70015;
0152590460999992000010700004+24350+109400FM-12+009799999V0200401N002010150019N0100001N1+01061+00441102041ADDAA106000091GF108991081051017501999999MD1210061+0061REMSYN070AAXX  07001 59046 32760 80402 10106 20044 40204 52006 885// 333 00658;EQDQ01  00002PRCP06
0124590460999992000010703004+24350+109400FM-12+009799999V0203201N002010150019N0080001N1+01181+00511102131ADDGF108991081051017501999999MD1210091+9999MW1041REMSYN066AAXX  07031 59046 41758 83202 10118 20051 40213 52009 70400 885//;
0177590460999992000010706004+24350+109400FM-12+009799999V0203601N002010150019N0050001N1+01381+00581101761ADDAA106000091GF107991071051017501999999KA1999N+01051MD1710361+9999MW1041REMSYN076AAXX  07061 59046 31750 73602 10138 20058 40176 57036 70400 875// 333 20105;EQDQ01  00002PRCP06
0124590460999992000010709004+24350+109400FM-12+009799999V0203201N002010120019N0040001N1+01381+00611101611ADDGF108991081051012501999999MD1710151+9999MW1041REMSYN066AAXX  07091 59046 41640 83202 10138 20061 40161 57015 70400 885//;
0154590460999992000010712004+24350+109400FM-12+009799999V0200201N001010120019N0040001N1+01371+00691101711ADDAA106000091GF107991071051012501999999MD1210101+9999MW1041REMSYN066AAXX  07121 59046 31640 70201 10137 20069 40171 52010 70400 875//;EQDQ01  00002PRCP06
0165590460999992000010718004+24350+109400FM-12+009799999V0209999C000010120019N0120001N1+01321+00821101641ADDAA106000091GF108991081051012501999999KA1999M+01451MD1710061+9999REMSYN070AAXX  07181 59046 32662 80000 10132 20082 40164 57006 885// 333 10145;EQDQ01  00002PRCP06
0153590460999992000010721004+24350+109400FM-12+009799999V0201101N003010120019N0060001N1+99999+99999101401ADDAA124000391AY161031GF108991081051012501999999MD1710241+9999MW1601REMSYN076AAXX  07211 59046 41656 81103 101/4 20086 40140 57024 76060 885// 333 70002;
0165590460999992000010800004+24350+109400FM-12+009799999V0209999C000019999999N0030001N1+01231+00901101561ADDAA106000191AY161061GF108991051999012501999999MD1210161-0501MW1101REMSYN088AAXX  08001 59046 11630 80000 10123 20090 40156 52016 69921 71060 85/// 333 05502 700//;
0124590460999992000010803004+24350+109400FM-12+009799999V0200401N001010120019N0030001N1+01301+00991101581ADDGF108991081051012501999999MD1210021+9999MW1211REMSYN066AAXX  08031 59046 41630 80401 10130 20099 40158 52002 72100 885//;
0172590460999992000010806004+24350+109400FM-12+009799999V0203201N001010120019N0020001N1+01181+01121101291ADDAA106004191AY161061GF108991081051012501999999KA1999N+01181MD1710291+9999MW1601REMSYN082AAXX  08061 59046 11620 83201 10118 20112 40129 57029 60041 76060 885// 333 20118;
0140590460999992000010809004+24350+109400FM-12+009799999V0200401N002010120019N0030001N1+01231+01191101241ADDAY161031AY261031GF108991081051012501999999MD1710051+9999MW1601REMSYN066AAXX  08091 59046 41630 80402 10123 20119 40124 57005 76066 885//;
0157590460999992000010812004+24350+109400FM-12+009799999V0203401N001010120019N0040001N1+01281+01241101401ADDAA106002091AY161061AY261061GF108991081051012501999999MD1210161+9999MW1601REMSYN072AAXX  08121 59046 11640 83401 10128 20124 40140 52016 60021 76066 885//;
0172590460999992000010818004+24350+109400FM-12+009799999V0200201N001010120019N0040001N1+01171+01111101551ADDAA106000191AY161061GF108991081051012501999999KA1999M+01341MD1210011+9999MW1101REMSYN082AAXX  08181 59046 11640 80201 10117 20111 40155 52001 69911 71060 885// 333 10134;
0125590460999992000010821004+24350+109400FM-12+009799999V0200201N002010120019N0040001N1+01151+01091101471ADDAA124005191GF108991081051012501999999MW1101REMSYN070AAXX  08211 59046 41640 80202 10115 20109 40147 71000 885// 333 70052;
0165590460999992000010900004+24350+109400FM-12+009799999V0200201N002010120019N0030001N1+01151+01071101591ADDAA106000791AY161061GF108991081051012501999999MD1210121+0001MW1601REMSYN088AAXX  09001 59046 11630 80202 10115 20107 40159 52012 69901 76060 885// 333 00051 70052;
0132590460999992000010903004+24350+109400FM-12+009799999V0200401N002010120019N0060001N1+01281+01121101801ADDAY161031GF108991081051012501999999MD1210211+9999MW1101REMSYN066AAXX  09031 59046 41656 80402 10128 20112 40180 52021 71060 885//;
0124590460999992000010909004+24350+109400FM-12+009799999V0203401N001010120019N0040001N1+01521+01271101291ADDGF108991081051012501999999MD1710111+9999MW1101REMSYN066AAXX  09091 59046 41640 83401 10152 20127 40129 57011 71000 885//;
0148590460999992000010912004+24350+109400FM-12+009799999V0203601N002019999999N9999999N1+01301+01151101461ADDAA106000091GF107991071051999999999999MD1210161+9999REMSYN066AAXX  09121 59046 3//// 73602 10130 20115 40146 52016 71000 875//;EQDQ01  00002PRCP06
0177590460999992000010918004+24350+109400FM-12+009799999V0200401N002010120019N0060001N1+01301+01071101571ADDAA106000091GF108991081051012501999999KA1999M+01531MD1710011+9999MW1101REMSYN076AAXX  09181 59046 31656 80402 10130 20107 40157 57001 71000 885// 333 10153;EQDQ01  00002PRCP06
0145590460999992000010921004+24350+109400FM-12+009799999V0203401N002010120019N0060001N1+01261+01071101411ADDAA124000791GF108991081051012501999999MD1710151+9999MW1601REMSYN076AAXX  09211 59046 41656 83402 10126 20107 40141 57015 76000 885// 333 79999;
0165590460999992000011000004+24350+109400FM-12+009799999V0200201N001010120019N0030001N1+01201+01091101541ADDAA106000191AY161061GF108991081051012501999999MD1210121-0101MW1601REMSYN088AAXX  10001 59046 11630 80201 10120 20109 40154 52012 69921 76060 885// 333 05101 70002;
0132590460999992000011003004+24350+109400FM-12+009799999V0200401N002010120019N0030001N1+01291+01141101651ADDAY161031GF108991081051012501999999MD1210111+9999MW1101REMSYN066AAXX  10031 59046 41630 80402 10129 20114 40165 52011 71060 885//;
0172590460999992000011006004+24350+109400FM-12+009799999V0202701N002010120019N0060001N1+01571+01261101301ADDAA106000191AY161061GF108991081051012501999999KA1999N+01201MD1710341+9999MW1101REMSYN082AAXX  10061 59046 11656 82702 10157 20126 40130 57034 69911 71060 885// 333 20120;
0124590460999992000011009004+24350+109400FM-12+009799999V0209999C000010120019N0060001N1+01591+01321101151ADDGF108991081051012501999999MD1710151+9999MW1101REMSYN066AAXX  10091 59046 41656 80000 10159 20132 40115 57015 71000 885//;
0149590460999992000011012004+24350+109400FM-12+009799999V0202901N001010120019N0060001N1+01521+01341101241ADDAA106000191AY161061GF108991081051012501999999MD1210091+9999MW1211REMSYN072AAXX  10121 59046 11656 82901 10152 20134 40124 52009 69911 72160 885//;
0158590460999992000011018004+24350+109400FM-12+009799999V0203401N001010120019N0060001N1+01521+01411101291ADDAA106000021GF107991071051012501999999KA1999M+01631MD1710021+9999MW1101REMSYN076AAXX  10181 59046 31656 73401 10152 20141 40129 57002 71000 875// 333 10163;
0164590460999992000011021004+24350+109400FM-12+009799999V0209999C000019999999N0060001N1+01521+01411101171ADDAA124000591GF107991999051012501999999MD1710111+9999MW1101REMSYN076AAXX  10211 59046 41656 70000 10152 20141 40117 57011 71000 885// 333 70004;EQDQ01+000082SCOTLC
0170590460999992000011100004+24350+109400FM-12+009799999V0209999C000010120019N0050001N1+01631+01491101341ADDAA106000091GF108991081081008001999999MD1210171-0201MW1101REMSYN082AAXX  11001 59046 31550 80000 10163 20149 40134 52017 71000 888// 333 05204 70002;EQDQ01  00002PRCP06
0124590460999992000011103004+24350+109400FM-12+009799999V0201801N003010120019N0070001N1+02141+01841101451ADDGF108991081081008001999999MD1210111+9999MW1101REMSYN066AAXX  11031 59046 41557 81803 10214 20184 40145 52011 71000 888//;
0165590460999992000011106004+24350+109400FM-12+009799999V0201801N003010120019N0150001N1+02401+01851100991ADDAA106000091GF107991071081008001999999KA1999N+01481MD1710451+9999REMSYN070AAXX  11061 59046 32565 71803 10240 20185 40099 57045 878// 333 20148;EQDQ01  00002PRCP06
0112590460999992000011109004+24350+109400FM-12+009799999V0201601N002010075019N0200001N1+02481+01861100871ADDGF107991071021008001001001MD1710111+9999REMSYN060AAXX  11091 59046 42570 71602 10248 20186 40087 57011 87200;
0142590460999992000011112004+24350+109400FM-12+009799999V0201601N002010150019N0180001N1+02281+01861101041ADDAA106000091GF107991071051017501999999MD1210161+9999REMSYN060AAXX  11121 59046 32768 71602 10228 20186 40104 52016 875//;EQDQ01  00002PRCP06
0158590460999992000011118004+24350+109400FM-12+009799999V0203201N004010042019N0110001N1+01261+01071101511ADDAA106004191GF108991081051004501999999KA1999M+02561MD1210281+9999REMSYN082AAXX  11181 59046 11461 83204 10126 20107 40151 52028 60041 7/060 885// 333 10256;
0153590460999992000011121004+24350+109400FM-12+009799999V0203601N003010042019N0110001N1+01071+00851101601ADDAA124004891AY161031GF108991081051004501999999MD1210091+9999MW1601REMSYN076AAXX  11211 59046 41461 83603 10107 20085 40160 52009 76060 885// 333 70047;
0165590460999992000011200004+24350+109400FM-12+009799999V0200401N002010042019N0150001N1+00971+00691101811ADDAA106001091AY161061GF108991081051004501999999MD1210201+0501MW1601REMSYN088AAXX  12001 59046 11465 80402 10097 20069 40181 52020 69991 76060 885// 333 00557 70049;
0132590460999992000011203004+24350+109400FM-12+009799999V0203401N004010120019N0300001N1+01001+00641101991ADDAY161031GF108991081051012501999999MD1210181+9999MW1001REMSYN066AAXX  12031 59046 41680 83404 10100 20064 40199 52018 70060 885//;
0172590460999992000011206004+24350+109400FM-12+009799999V0203401N003010120019N0300001N1+01031+00621101821ADDAA106000191AY161061GF108991081081008001999999KA1999N+00971MD1710191+9999MW1001REMSYN082AAXX  12061 59046 11580 83403 10103 20062 40182 57019 69911 70060 888// 333 20097;
0112590460999992000011209004+24350+109400FM-12+009799999V0203401N002010120019N0300001N1+01011+00601101701ADDGF108991081051012501999999MD1710121+9999REMSYN060AAXX  12091 59046 42680 83402 10101 20060 40170 57012 885//;
0142590460999992000011212004+24350+109400FM-12+009799999V0203201N002010120019N0300001N1+00961+00571101771ADDAA106000091GF108991081051012501999999MD1210071+9999REMSYN060AAXX  12121 59046 32680 83202 10096 20057 40177 52007 885//;EQDQ01  00002PRCP06
0172590460999992000011218004+24350+109400FM-12+009799999V0203201N003010120019N0200001N1+00871+00541101841ADDAA106000791AY161061GF108991081051012501999999KA1999M+01271MD1710051+9999MW1211REMSYN082AAXX  12181 59046 11670 83203 10087 20054 40184 57005 69901 72160 885// 333 10127;
0133590460999992000011221004+24350+109400FM-12+009799999V0200201N002010120019N0150001N1+00821+00511101741ADDAA124000391GF108991081051012501999999MD1710101+9999REMSYN070AAXX  12211 59046 42665 80202 10082 20051 40174 57010 885// 333 70003;
0165590460999992000011300004+24350+109400FM-12+009799999V0203401N002010120019N0200001N1+00821+00481101821ADDAA106000791AY161061GF108991081051012501999999MD1210081+0001MW1001REMSYN088AAXX  13001 59046 11670 83402 10082 20048 40182 52008 69901 70060 885// 333 00052 70001;
0112590460999992000011303004+24350+109400FM-12+009799999V0203401N002010120019N0200001N1+00911+00491101921ADDGF108991081051012501999999MD1210101+9999REMSYN060AAXX  13031 59046 42670 83402 10091 20049 40192 52010 885//;
0172590460999992000011306004+24350+109400FM-12+009799999V0200401N002010090019N0200001N1+00921+00571101611ADDAA106000391AY161061GF108991081081004501999999KA1999N+00821MD1710311+9999MW1211REMSYN082AAXX  13061 59046 11470 80402 10092 20057 40161 57031 69931 72160 888// 333 20082;
0132590460999992000011309004+24350+109400FM-12+009799999V0203601N002010120019N0200001N1+00961+00571101541ADDAY161031GF108991081081008001999999MD1710071+9999MW1001REMSYN066AAXX  13091 59046 41570 83602 10096 20057 40154 57007 70060 888//;
0149590460999992000011312004+24350+109400FM-12+009799999V0203601N002010120019N0200001N1+00921+00551101621ADDAA106000791AY161061GF108991081051012501999999MD1210081+9999MW1001REMSYN072AAXX  13121 59046 11670 83602 10092 20055 40162 52008 69901 70060 885//;
0172590460999992000011318004+24350+109400FM-12+009799999V0203401N002010120019N0200001N1+00841+00621101651ADDAA106000791AY161061GF108991081051012501999999KA1999M+00981MD1710071+9999MW1211REMSYN082AAXX  13181 59046 11670 83402 10084 20062 40165 57007 69901 72160 885// 333 10098;
0137590460999992000011321004+24350+109400FM-12+009799999V0200201N002010120019N0150001N1+00821+00621101541ADDAA124000391GF108991081051012501999999MD1710111+9999REMSYN074    AAXX  13211 59046 42665 80202 10082 20062 40154 57011 885// 333 70003;
0169590460999992000011400004+24350+109400FM-12+009799999V0203401N001010042019N0020001N1+00781+00721101671ADDAA106000191AY161061GF108991081051004501999999MD1210131-0201MW1601REMSYN092    AAXX  14001 59046 11420 83401 10078 20072 40167 52013 69911 76060 885// 333 05200 70004;
0136590460999992000011403004+24350+109400FM-12+009799999V0200401N002010120019N0070001N1+00861+00691101751ADDAY161031GF108991081081008001999999MD1210081+9999MW1101REMSYN070    AAXX  14031 59046 41557 80402 10086 20069 40175 52008 71060 888//;
0176590460999992000011406004+24350+109400FM-12+009799999V0200201N002010042019N0050001N1+00881+00821101391ADDAA106000791AY161061GF108991081051004501999999KA1999N+00781MD1710351+9999MW1601REMSYN086    AAXX  14061 59046 11450 80202 10088 20082 40139 57035 69901 76060 885// 333 20078;
0144590460999992000011409004+24350+109400FM-12+009799999V0203201N001010042019N0050001N1+00871+00831101261ADDAY161031AY261031GF108991081051004501999999MD1710131+9999MW1601REMSYN070    AAXX  14091 59046 41450 83201 10087 20083 40126 57013 76066 885//;
0161590460999992000011412004+24350+109400FM-12+009799999V0203401N002010042019N0050001N1+00871+00811101361ADDAA106000191AY161061AY261061GF108991081051004501999999MD1210091+9999MW1601REMSYN076    AAXX  14121 59046 11450 83402 10087 20081 40136 52009 69921 76066 885//;
0176590460999992000011418004+24350+109400FM-12+009799999V0203201N002010120019N0050001N1+00881+00801101461ADDAA106000191AY161061GF108991081051012501999999KA1999M+00921MD1710011+9999MW1101REMSYN086    AAXX  14181 59046 11650 83202 10088 20080 40146 57001 69911 71060 885// 333 10092;
0157590460999992000011421004+24350+109400FM-12+009799999V0200201N002010075019N0050001N1+00861+00801101381ADDAA124000591AY161031GF108991081051008001999999MD1710081+9999MW1601REMSYN080    AAXX  14211 59046 41550 80202 10086 20080 40138 57008 76060 885// 333 70004;
0169590460999992000011500004+24350+109400FM-12+009799999V0200401N002010042019N0080001N1+00841+00781101591ADDAA106000791AY161061GF108991081051004501999999MD1210201-0101MW1601REMSYN092    AAXX  15001 59046 11458 80402 10084 20078 40159 52020 69901 76060 885// 333 05101 70003;
0136590460999992000011503004+24350+109400FM-12+009799999V0203201N001010042019N0060001N1+00851+00791101751ADDAY161031GF108991081051004501999999MD1210161+9999MW1601REMSYN070    AAXX  15031 59046 41456 83201 10085 20079 40175 52016 76060 885//;
0176590460999992000011506004+24350+109400FM-12+009799999V0203401N003010042019N0040001N1+00871+00811101491ADDAA106000191AY161061GF108991081051004501999999KA1999N+00841MD1710261+9999MW1601REMSYN086    AAXX  15061 59046 11440 83403 10087 20081 40149 57026 69911 76060 885// 333 20084;
0144590460999992000011509004+24350+109400FM-12+009799999V0203201N002010042019N0030001N1+00831+00771101471ADDAY161031AY261031GF108991081071004501999999MD1710021+9999MW1601REMSYN070    AAXX  15091 59046 41430 83202 10083 20077 40147 57002 76066 887//;
0161590460999992000011512004+24350+109400FM-12+009799999V0200401N002010042019N0050001N1+00781+00651101651ADDAA106000591AY161061AY261061GF108991081051004501999999MD1210181+9999MW1601REMSYN076    AAXX  15121 59046 11450 80402 10078 20065 40165 52018 69941 76066 885//;
0176590460999992000011518004+24350+109400FM-12+009799999V0203201N005010042019N0050001N1+00681+00591101981ADDAA106000191AY161061GF108991081051004501999999KA1999M+00901MD1210131+9999MW1601REMSYN086    AAXX  15181 59046 11450 83205 10068 20059 40198 52013 69921 76060 885// 333 10090;
0137590460999992000011521004+24350+109400FM-12+009799999V0203401N003019999999N0050001N1+00621+00461102021ADDAA124001091GF108991999999004501999999MD1210041+9999REMSYN074    AAXX  15211 59046 4/450 83403 10062 20046 40202 52004 76066 333 70009;
0177590460999992000011600004+24350+109400FM-12+009799999V0203201N003010042019N0180001N1+00601+00411102201ADDAA106000591AY161061AY261061GF108991081051004501999999MD1210181+0601MW1601REMSYN092    AAXX  16001 59046 11468 83203 10060 20041 40220 52018 69941 76066 885// 333 00652 70011;
0136590460999992000011603004+24350+109400FM-12+009799999V0203401N003010042019N0200001N1+00661+00381102401ADDAY161031GF108991081051004501999999MD1210201+9999MW1001REMSYN070    AAXX  16031 59046 41470 83403 10066 20038 40240 52020 70060 885//;
0176590460999992000011606004+24350+109400FM-12+009799999V0203201N003010042019N0250001N1+00681+00351102101ADDAA106000791AY161061GF108991081051004501999999KA1999N+00601MD1710301+9999MW1211REMSYN086    AAXX  16061 59046 11475 83203 10068 20035 40210 57030 69901 72160 885// 333 20060;
0136590460999992000011609004+24350+109400FM-12+009799999V0203201N002010042019N0200001N1+00661+00381102031ADDAY161031GF108991081051004501999999MD1710071+9999MW1601REMSYN070    AAXX  16091 59046 41470 83202 10066 20038 40203 57007 76060 885//;
0153590460999992000011612004+24350+109400FM-12+009799999V0203201N002010120019N0150001N1+00611+00301102161ADDAA106000791AY161061GF108991081051012501999999MD1210131+9999MW1001REMSYN076    AAXX  16121 59046 11665 83202 10061 20030 40216 52013 69901 70060 885//;
0176590460999992000011618004+24350+109400FM-12+009799999V0202901N003010042019N0110001N1+00511+00181102471ADDAA106000791AY161061GF108991081051004501999999KA1999M+00711MD1210091+9999MW1601REMSYN086    AAXX  16181 59046 11461 82903 10051 20018 40247 52009 69901 76060 885// 333 10071;
0165590460999992000011621004+24350+109400FM-12+009799999V0203601N003010042019N0150001N1+00461+00211102421ADDAA124000591AY161031AY261031GF108991081051004501999999MD1710051+9999MW1601REMSYN080    AAXX  16211 59046 41465 83603 10046 20021 40242 57005 76066 885// 333 70004;
0195590460999992000011700004+24350+109400FM-12+009799999V0203201N002010042019N0250001N1+00501+00141102581ADDAA106000191AY161061AY261061GF108991081051004501999999IA2999+00459MD1210161+0401MW1601REMSYN098    AAXX  17001 59046 11475 83202 10050 20014 40258 52016 69921 76066 885// 333 00451 30045 70002;
0136590460999992000011703004+24350+109400FM-12+009799999V0202901N002010042019N0250001N1+00551+00121102781ADDAY161031GF108991081051004501999999MD1210201+9999MW1211REMSYN070    AAXX  17031 59046 41475 82902 10055 20012 40278 52020 72160 885//;
0176590460999992000011706004+24350+109400FM-12+009799999V0203201N003010120019N0250001N1+00601+00091102541ADDAA106000791AY161061GF108991081081008001999999KA1999N+00461MD1710241+9999MW1001REMSYN086    AAXX  17061 59046 11575 83203 10060 20009 40254 57024 69901 70060 888// 333 20046;
0116590460999992000011709004+24350+109400FM-12+009799999V0203601N002010120019N0200001N1+00621+00111102421ADDGF108991081051012501999999MD1710121+9999REMSYN064    AAXX  17091 59046 42670 83602 10062 20011 40242 57012 885//;
0127590460999992000011712004+24350+109400FM-12+009799999V0200201N002010120019N0200001N1+00561+00071102541ADDAA199000021GF108991081051012501999999MD1210121+9999REMSYN064    AAXX  17121 59046 32670 80202 10056 20007 40254 52012 885//;
0176590460999992000011718004+24350+109400FM-12+009799999V0203401N003010042019N0150001N1+00481+00201102761ADDAA106000791AY161061GF108991081051004501999999KA1999M+00631MD1210031+9999MW1601REMSYN086    AAXX  17181 59046 11465 83403 10048 20020 40276 52003 69901 76060 885// 333 10063;
0157590460999992000011721004+24350+109400FM-12+009799999V0203401N002010120019N0120001N1+00521+00171102691ADDAA124000791AY161031GF108991081051012501999999MD1710071+9999MW1001REMSYN080    AAXX  17211 59046 41662 83402 10052 20017 40269 57007 70060 885// 333 79999;
0187590460999992000011800004+24350+109400FM-12+009799999V0203401N002010120019N0110001N1+00581+00121102851ADDAA106000791AY161061GF108991081051012501999999IA2999+00449MD1210161+0301MW1001REMSYN098    AAXX  18001 59046 11661 83402 10058 20012 40285 52016 69901 70060 885// 333 00301 30044 79999;
0116590460999992000011803004+24350+109400FM-12+009799999V0203601N003010120019N0150001N1+00821+00101103001ADDGF107991071051012501999999MD1210151+9999REMSYN064    AAXX  18031 59046 42665 73603 10082 20010 40300 52015 875//;
0150590460999992000011806004+24350+109400FM-12+009799999V0200401N005010120019N0300001N1+01081+00091102631ADDAA199000021GF107991071081008001999999KA1999N+00471MD1710361+9999REMSYN074    AAXX  18061 59046 32580 70405 10108 20009 40263 57036 878// 333 20047;
0116590460999992000011809004+24350+109400FM-12+009799999V0203401N003012200019N0300001N1+01241+00131102501ADDGF101991011001999999031001MD1710131+9999REMSYN064    AAXX  18091 59046 42980 13403 10124 20013 40250 57013 81030;
0156590460999992000011812004+24350+109400FM-12+009799999V0200401N002012200019N0250001N1+01001+00251102691ADDAA199000091GA1001+999999999GF100991001001999999001001MD1210191+9999REMSYN058    AAXX  18121 59046 32975 00402 10100 20025 40269 52019;EQDQ01  00002PRCP99
0169590460999992000011818004+24350+109400FM-12+009799999V0200701N002019999999N0150001N1+00581+00341102771ADDAA199000091GF106991061001999999031001KA1999M+01291MD1710091+9999REMSYN074    AAXX  18181 59046 32965 60702 10058 20034 40277 57009 86030 333 10129;EQDQ01  00002PRCP99
0116590460999992000011821004+24350+109400FM-12+009799999V0200401N001019999999N0150001N1+00701+00271102701ADDGF106991061001999999031001MD1710071+9999REMSYN064    AAXX  18211 59046 42965 60401 10070 20027 40270 57007 86030;
0174590460999992000011900004+24350+109400FM-12+009799999V0203601N002010120019N0080001N1+00721+00261102861ADDAA199000091GF107991071051012501999999IA2999+00109MD1210161+0001REMSYN080    AAXX  19001 59046 36658 73602 10072 20026 40286 52016 875// 333 00001 30011;EQDQ01  00002PRCP99
0136590460999992000011903004+24350+109400FM-12+009799999V0200401N003010150019N0200001N1+00921+00111103001ADDAY161031GF107991071051017501999999MD1210141+9999MW1211REMSYN070    AAXX  19031 59046 41770 70403 10092 20011 40300 52014 72160 875//;
0176590460999992000011906004+24350+109400FM-12+009799999V0200401N004019999999N0300001N1+01221-00291102641ADDAA106000791AY161061GF107991071001999999031999KA1999N+00551MD1710361+9999MW1001REMSYN086    AAXX  19061 59046 11980 70404 10122 21029 40264 57036 69901 70060 8703/ 333 20055;
0126590460999992000011909004+24350+109400FM-12+009799999V0200901N002012200019N0300001N1+01361-00271102391ADDGA1001+999999999GF100991001001999999001001MD1710241+9999REMSYN058    AAXX  19091 59046 42980 00902 10136 21027 40239 57024;
0137590460999992000011912004+24350+109400FM-12+009799999V0200701N003012200019N0200001N1+01061-00141102511ADDAA199000021GA1001+999999999GF100991001001999999001001MD1210111+9999REMSYN058    AAXX  19121 59046 32970 00703 10106 21014 40251 52011;
0152590460999992000011918004+24350+109400FM-12+009799999V0200701N003012200019N0200001N1+01061-00141102511ADDAA199000091GA1001+999999999GF100991001001999999001001MD1210111+9999REMSYN054AAXX  19181 59046 32970 00703 10106 21014 40251 52011;EQDQ01  00002PRCP99
0133590460999992000011921004+24350+109400FM-12+009799999V0203401N001019999999N0200001N1+00681-00221102661ADDAA124000791GF105991051001999999031001MD1710101+9999REMSYN070AAXX  19211 59046 42970 53401 10068 21022 40266 57010 85030 333 79999;
0157590460999992000012000004+24350+109400FM-12+009799999V0203201N002019999999N0150001N1+00681-00191102821ADDAA124000791GF107991071001999999031999IA2999+00179MD1210151+0001REMSYN082AAXX  20001 59046 32965 73202 10068 21019 40282 52015 8703/ 333 00000 30017 79999;
0112590460999992000012003004+24350+109400FM-12+009799999V0200901N002019999999N0150001N1+00981-00061102761ADDGF105991051001999999031001MD1710061+9999REMSYN060AAXX  20031 59046 42965 50902 10098 21006 40276 57006 85030;
0175590460999992000012006004+24350+109400FM-12+009799999V0202701N002012200019N0150001N1+01451+00071102441ADDAA199000091GA1001+999999999GF100991001001999999001001KA1999N+00631MD1710311+9999REMSYN064AAXX  20061 59046 32965 02702 10145 20007 40244 57031 333 20063;EQDQ01  00002PRCP99
0112590460999992000012009004+24350+109400FM-12+009799999V0202701N001010150019N0200001N1+01501+00051102311ADDGF107991071051017501999999MD1710131+9999REMSYN060AAXX  20091 59046 42770 72701 10150 20005 40231 57013 875//;
0142590460999992000012012004+24350+109400FM-12+009799999V0200401N002010120019N0150001N1+01361+00161102441ADDAA199000091GF108991081051012501999999MD1210131+9999REMSYN060AAXX  20121 59046 32665 80402 10136 20016 40244 52013 885//;EQDQ01  00002PRCP99
0165590460999992000012018004+24350+109400FM-12+009799999V0209999C000010120019N0150001N1+01191+00211102561ADDAA199000091GF108991081051012501999999KA1999M+01601MD1210011+9999REMSYN070AAXX  20181 59046 32665 80000 10119 20021 40256 52001 885// 333 10160;EQDQ01  00002PRCP99
0112590460999992000012021004+24350+109400FM-12+009799999V0200401N002010120019N0150001N1+01071+00101102491ADDGF108991081051012501999999MD1710071+9999REMSYN060AAXX  20211 59046 42665 80402 10107 20010 40249 57007 885//;
0152590460999992000012100004+24350+109400FM-12+009799999V0200701N002010120019N0150001N1+01041+00121102611ADDAA199000091GF108991081051012501999999MD1210121+0021REMSYN070AAXX  21001 59046 32665 80702 10104 20012 40261 52012 885// 333 05204;EQDQ01  00002PRCP99
0112590460999992000012103004+24350+109400FM-12+009799999V0200401N003010150019N0120001N1+01211+00151102721ADDGF108991081051017501999999MD1210111+9999REMSYN060AAXX  21031 59046 42762 80403 10121 20015 40272 52011 885//;
0165590460999992000012106004+24350+109400FM-12+009799999V0202701N001010150019N0150001N1+01521+00341102341ADDAA199000091GF107991071051017501999999KA1999N+01041MD1710381+9999REMSYN070AAXX  21061 59046 32765 72701 10152 20034 40234 57038 875// 333 20104;EQDQ01  00002PRCP99
0112590460999992000012109004+24350+109400FM-12+009799999V0200401N002010120019N0110001N1+01541+00371102211ADDGF108991081051012501999999MD1710131+9999REMSYN060AAXX  21091 59046 42661 80402 10154 20037 40221 57013 885//;
0142590460999992000012112004+24350+109400FM-12+009799999V0200701N002010120019N0150001N1+01391+00461102271ADDAA199000091GF108991081051012501999999MD1210061+9999REMSYN060AAXX  21121 59046 32665 80702 10139 20046 40227 52006 885//;EQDQ01  00002PRCP99
0165590460999992000012118004+24350+109400FM-12+009799999V0200401N002010120019N0120001N1+01241+00501102331ADDAA199000091GF108991081051012501999999KA1999M+01591MD1710021+9999REMSYN070AAXX  21181 59046 32662 80402 10124 20050 40233 57002 885// 333 10159;EQDQ01  00002PRCP99
0112590460999992000012121004+24350+109400FM-12+009799999V0209999C000010120019N0120001N1+01211+00671102211ADDGF108991081051012501999999MD1710121+9999REMSYN060AAXX  21211 59046 42662 80000 10121 20067 40221 57012 885//;
0165590460999992000012200004+24350+109400FM-12+009799999V0209999C000010120019N0030001N1+01201+00651102311ADDAA106000791AY161061GF108991081051012501999999MD1210091-0301MW1041REMSYN088AAXX  22001 59046 11630 80000 10120 20065 40231 52009 69901 70460 885// 333 05302 79999;
0124590460999992000012203004+24350+109400FM-12+009799999V0202701N001010120019N0030001N1+01421+00781102391ADDGF108991081051012501999999MD1210081+9999MW1041REMSYN066AAXX  22031 59046 41630 82701 10142 20078 40239 52008 70400 885//;
0177590460999992000012206004+24350+109400FM-12+009799999V0203401N002010150019N0030001N1+01821+00971101991ADDAA199000091GF107991071051017501999999KA1999N+01201MD1710381+9999MW1041REMSYN076AAXX  22061 59046 31730 73402 10182 20097 40199 57038 70400 875// 333 20120;EQDQ01  00002PRCP99
0124590460999992000012209004+24350+109400FM-12+009799999V0203401N001010150019N0030001N1+01761+01011101851ADDGF107991071051017501999999MD1710141+9999MW1041REMSYN066AAXX  22091 59046 41730 73401 10176 20101 40185 57014 70400 875//;
0154590460999992000012212004+24350+109400FM-12+009799999V0200401N002010150019N0030001N1+01541+01011101931ADDAA199000091GF107991071051017501999999MD1210071+9999MW1101REMSYN066AAXX  22121 59046 31730 70402 10154 20101 40193 52007 71000 875//;EQDQ01  00002PRCP99
0177590460999992000012218004+24350+109400FM-12+009799999V0203201N002010150019N0080001N1+01261+00951101981ADDAA199000091GF108991081051017501999999KA1999M+01831MD1210011+9999MW1101REMSYN076AAXX  22181 59046 31758 83202 10126 20095 40198 52001 71000 885// 333 10183;EQDQ01  00002PRCP99
0145590460999992000012221004+24350+109400FM-12+009799999V0203401N001010150019N0080001N1+01181+00901101871ADDAA124000791GF108991081051017501999999MD1710121+9999MW1101REMSYN076AAXX  22211 59046 41758 83401 10118 20090 40187 57012 71000 885// 333 79999;
0164590460999992000012300004+24350+109400FM-12+009799999V0200401N001010120019N0040001N1+01201+00881101981ADDAA199000091GF108991081051012501999999MD1210111+0031MW1101REMSYN076AAXX  23001 59046 31640 80401 10120 20088 40198 52011 71000 885// 333 05300;EQDQ01  00002PRCP99
0132590460999992000012303004+24350+109400FM-12+009799999V0203401N001010150019N0030001N1+01341+00991102091ADDAY161031GF108991081051017501999999MD1210101+9999MW1101REMSYN066AAXX  23031 59046 41730 83401 10134 20099 40209 52010 71060 885//;
0172590460999992000012306004+24350+109400FM-12+009799999V0203401N001010150019N0040001N1+01621+01101101751ADDAA106000791AY161061GF108991081051017501999999KA1999N+01181MD1710331+9999MW1101REMSYN082AAXX  23061 59046 11740 83401 10162 20110 40175 57033 69901 71060 885// 333 20118;
0134590460999992000012309004+24350+109400FM-12+009799999V0203201N002012200019N0050001N1+01771+01191101581ADDGA1001+999999999GF100991001001999999001001MD1710161+9999MW1041REMSYN060AAXX  23091 59046 41950 03202 10177 20119 40158 57016 70400;
0142590460999992000012312004+24350+109400FM-12+009799999V0203601N002010150019N0100001N1+01541+01151101801ADDAA199000091GF107991071051017501999999MD1210211+9999REMSYN060AAXX  23121 59046 32760 73602 10154 20115 40180 52021 875//;EQDQ01  00002PRCP99
0165590460999992000012318004+24350+109400FM-12+009799999V0203601N002010150019N0100001N1+01201+00881101951ADDAA199000091GF107991071051017501999999KA1999M+01771MD1410001+9999REMSYN070AAXX  23181 59046 32760 73602 10120 20088 40195 54000 875// 333 10177;EQDQ01  00002PRCP99
0133590460999992000012321004+24350+109400FM-12+009799999V0203401N002010150019N0100001N1+01161+00811101981ADDAA124000791GF108991081051017501999999MD1210031+9999REMSYN070AAXX  23211 59046 42760 83402 10116 20081 40198 52003 885// 333 79999;
0139590460999992000012400004+24350+109400FM-12+009799999V0203401N003010150019N0120001N1+01001+00711102241ADDAA124000791GF108991081051017501999999MD1210251+0301REMSYN076AAXX  24001 59046 32762 83403 1010/ 20071 40224 52025 885// 333 00351 79999;
0112590460999992000012403004+24350+109400FM-12+009799999V0203201N002010150019N0150001N1+01061+00581102511ADDGF108991081051017501999999MD1210271+9999REMSYN060AAXX  24031 59046 42765 83202 10106 20058 40251 52027 885//;
0165590460999992000012406004+24350+109400FM-12+009799999V0203401N004010120019N0300001N1+00951+00381102501ADDAA199000091GF108991081051012501999999KA1999N+00951MD1710021+9999REMSYN070AAXX  24061 59046 32680 83404 10095 20038 40250 57002 885// 333 20095;EQDQ01  00002PRCP99
0132590460999992000012409004+24350+109400FM-12+009799999V0203401N003010120019N0080001N1+00711+00461102631ADDAY161031GF108991081051012501999999MD1210121+9999MW1601REMSYN066AAXX  24091 59046 41658 83403 10071 20046 40263 52012 76060 885//;
0149590460999992000012412004+24350+109400FM-12+009799999V0202201N002010042019N0150001N1+00711+99999102871ADDAA106000591AY161061GF108991081051004501999999MD1210241+9999MW1601REMSYN072AAXX  24121 59046 11465 82202 10071 20828 40287 52024 69951 76060 885//;
0149590460999992000012418004+24350+109400FM-12+009799999V0203201N004010150019N0180001N1+00621+00111103101ADDAA106000791AY161061GF108991081051017501999999MD1210041+9999MW1001REMSYN072AAXX  24181 59046 11768 83204 10062 20011 40310 52004 69901 70060 885//;
0133590460999992000012421004+24350+109400FM-12+009799999V0203201N003010150019N0150001N1+00581+00061103061ADDAA124000591GF108991081051017501999999MD1710041+9999REMSYN070AAXX  24211 59046 42765 83203 10058 20006 40306 57004 885// 333 70005;
0157590460999992000012500004+24350+109400FM-12+009799999V0203401N004010150019N0150001N1+00541-00051103261ADDAA124000591GF108991081051017501999999IA2999+00479MD1210191+1001REMSYN082AAXX  25001 59046 32765 83404 10054 21005 40326 52019 885// 333 01055 30047 70005;
0112590460999992000012503004+24350+109400FM-12+009799999V0200401N004010150019N0120001N1+00621-00071103461ADDGF108991081051017501999999MD1210201+9999REMSYN060AAXX  25031 59046 42762 80404 10062 21007 40346 52020 885//;
0165590460999992000012506004+24350+109400FM-12+009799999V0203401N002010150019N0150001N1+00771+00001103141ADDAA199000091GF108991081051017501999999KA1999N+00541MD1710311+9999REMSYN070AAXX  25061 59046 32765 83402 10077 20000 40314 57031 885// 333 20054;EQDQ01  00002PRCP99
0112590460999992000012509004+24350+109400FM-12+009799999V0203201N003010150019N0130001N1+00791-00071103061ADDGF108991081051017501999999MD1710081+9999REMSYN060AAXX  25091 59046 42763 83203 10079 21007 40306 57008 885//;
0142590460999992000012512004+24350+109400FM-12+009799999V0203401N003010150019N0130001N1+00641-00081103291ADDAA199000091GF108991081051017501999999MD1210221+9999REMSYN060AAXX  25121 59046 32763 83403 10064 21008 40329 52022 885//;EQDQ01  00002PRCP99
0165590460999992000012518004+24350+109400FM-12+009799999V0203401N005010150019N0120001N1+00501-00101103431ADDAA199000091GF108991081051017501999999KA1999M+00851MD1210031+9999REMSYN070AAXX  25181 59046 32762 83405 10050 21010 40343 52003 885// 333 10085;EQDQ01  00002PRCP99
0153590460999992000012521004+24350+109400FM-12+009799999V0203201N005010150019N0150001N1+00421-00201103421ADDAA124000791AY161031GF108991081051017501999999MD1710011+9999MW1001REMSYN076AAXX  25211 59046 41765 83205 10042 21020 40342 57001 70060 885// 333 79999;
0183590460999992000012600004+24350+109400FM-12+009799999V0203601N003010150019N0150001N1+00411-00151103631ADDAA106000791AY161061GF108991081051017501999999IA2999+00429MD1210201+0401MW1001REMSYN094AAXX  26001 59046 11765 83603 10041 21015 40363 52020 69901 70060 885// 333 00451 30042 79999;
0112590460999992000012603004+24350+109400FM-12+009799999V0203201N004010150019N0200001N1+00441-00211103761ADDGF108991081051017501999999MD1210131+9999REMSYN060AAXX  26031 59046 42770 83204 10044 21021 40376 52013 885//;
0165590460999992000012606004+24350+109400FM-12+009799999V0203401N004010120019N0250001N1+00561-00221103431ADDAA199000091GF108991081081008001999999KA1999N+00381MD1710321+9999REMSYN070AAXX  26061 59046 32575 83404 10056 21022 40343 57032 888// 333 20038;EQDQ01  00002PRCP99
0112590460999992000012609004+24350+109400FM-12+009799999V0203201N004010120019N0180001N1+00581-00161103431ADDGF108991081051012501999999MD1410001+9999REMSYN060AAXX  26091 59046 42668 83204 10058 21016 40343 54000 885//;
0136590460999992000012612004+24350+109400FM-12+009799999V0203201N003010150019N0250001N1+00481+99999103511ADDAA199000091GF108991081051017501999999MD1210071+9999REMSYN054AAXX  26121 59046 32775 83203 10048 40351 52007 885//;EQDQ01  00002PRCP99
0172590460999992000012618004+24350+109400FM-12+009799999V0203401N002010150019N0200001N1+00421-00311103561ADDAA106000791AY161061GF108991081051017501999999KA1999M+00701MD1710101+9999MW1001REMSYN082AAXX  26181 59046 11770 83402 10042 21031 40356 57010 69901 70060 885// 333 10070;
0133590460999992000012621004+24350+109400FM-12+009799999V0203401N002019999999N0150001N1+00391-00311103491ADDAA124000791GF107991071031999999999999MD1710071+9999REMSYN070AAXX  26211 59046 42965 73402 10039 21031 40349 57007 873// 333 79999;
0169590460999992000012700004+24350+109400FM-12+009799999V0203201N001012200019N0060001N1+00381-00291103621ADDAA124000791GF104991041001999999031001IA2999+00219MD1210131+0001MW1041REMSYN088AAXX  27001 59046 31956 43201 10038 21029 40362 52013 70400 84030 333 00000 30021 79999;
0124590460999992000012703004+24350+109400FM-12+009799999V0200701N004012200019N0060001N1+00681-00341103651ADDGF101991011001999999031001MD1210041+9999MW1041REMSYN066AAXX  27031 59046 41956 10704 10068 21034 40365 52004 70400 81030;
0165590460999992000012706004+24350+109400FM-12+009799999V0200701N005012200019N0120001N1+00941-00391103211ADDAA199000091GF103991031001999999031001KA1999N+00381MD1710431+9999REMSYN070AAXX  27061 59046 32962 30705 10094 21039 40321 57043 83030 333 20038;EQDQ01  00002PRCP99
0112590460999992000012709004+24350+109400FM-12+009799999V0200401N004012200019N0150001N1+00971-00371102971ADDGF103991031001999999031001MD1710241+9999REMSYN060AAXX  27091 59046 42965 30404 10097 21037 40297 57024 83030;
0142590460999992000012712004+24350+109400FM-12+009799999V0200701N003019999999N0150001N1+00801-00341103021ADDAA199000091GF106991061001999999031001MD1210041+9999REMSYN060AAXX  27121 59046 32965 60703 10080 21034 40302 52004 86030;EQDQ01  00002PRCP99
0142590460999992000012718004+24350+109400FM-12+009799999V0200401N002010150019N0150001N1+00641-00651103091ADDAA199000091GF108991081051017501999999MD1710051+9999REMSYN060AAXX  27181 59046 32765 80402 10064 21065 40309 57005 885//;EQDQ01  00002PRCP99
0112590460999992000012721004+24350+109400FM-12+009799999V0200401N003010150019N0120001N1+00601-00461102991ADDGF108991081051017501999999MD1710101+9999REMSYN060AAXX  27211 59046 42762 80403 10060 21046 40299 57010 885//;
0170590460999992000012800004+24350+109400FM-12+009799999V0200201N002010120019N0100001N1+00601-00461103141ADDAA199000091GF108991081051012501999999IA2999+00309MD1210151-0501REMSYN076AAXX  28001 59046 32660 80202 10060 21046 40314 52015 885// 333 05502 30036;EQDQ01  00002PRCP99
0112590460999992000012803004+24350+109400FM-12+009799999V0200401N003010150019N0100001N1+00731-00461103241ADDGF108991081051017501999999MD1210101+9999REMSYN060AAXX  28031 59046 42760 80403 10073 21046 40324 52010 885//;
0165590460999992000012806004+24350+109400FM-12+009799999V0203201N003019999999N0130001N1+00901-00371102871ADDAA199000091GF107991071001999999031999KA1999N+00601MD1710371+9999REMSYN070AAXX  28061 59046 32963 73203 10090 21037 40287 57037 8703/ 333 20060;EQDQ01  00002PRCP99
0112590460999992000012809004+24350+109400FM-12+009799999V0203401N001010150019N0120001N1+00841-00161102711ADDGF108991081051017501999999MD1710161+9999REMSYN060AAXX  28091 59046 42762 83401 10084 21016 40271 57016 885//;
0142590460999992000012812004+24350+109400FM-12+009799999V0203401N002010150019N0120001N1+00801-00151102811ADDAA199000091GF108991081051017501999999MD1210101+9999REMSYN060AAXX  28121 59046 32762 83402 10080 21015 40281 52010 885//;EQDQ01  00002PRCP99
0165590460999992000012818004+24350+109400FM-12+009799999V0203401N002010150019N0120001N1+00731-00021102981ADDAA199000091GF108991081051017501999999KA1999M+00921MD1710011+9999REMSYN070AAXX  28181 59046 32762 83402 10073 21002 40298 57001 885// 333 10092;EQDQ01  00002PRCP99
0086590460999992000012821004+24350+109400FM-12+009799999V0200401N002019999999N0120001N1+00681-00021103011ADDGF108991999999017501999999REMSYN048AAXX  28211 59046 42762 80402 10068 21002 40301;
0152590460999992000012900004+24350+109400FM-12+009799999V0203401N003010150019N0100001N1+00641+00021103291ADDAA199000091GF108991081051017501999999MD1210281+0021REMSYN070AAXX  29001 59046 32760 83403 10064 20002 40329 52028 885// 333 00200;EQDQ01  00002PRCP99
0132590460999992000012903004+24350+109400FM-12+009799999V0203401N002010120019N0080001N1+00591+00101103521ADDAY161031GF108991081051012501999999MD1210221+9999MW1601REMSYN066AAXX  29031 59046 41658 83402 10059 20010 40352 52022 76060 885//;
0166590460999992000012906004+24350+109400FM-12+009799999V0203201N003019999999N0100001N1+00721+00001103271ADDAA106000791AY161061GF108991999999012501999999KA1999N+00591MD1710241+9999MW1001REMSYN076AAXX  29061 59046 11660 83203 10072 20000 40327 57024 69901 70060 333 20059;
0112590460999992000012909004+24350+109400FM-12+009799999V0203401N002010120019N0100001N1+00801-00091103191ADDGF108991081051012501999999MD1710081+9999REMSYN060AAXX  29091 59046 42660 83402 10080 21009 40319 57008 885//;
0123590460999992000012912004+24350+109400FM-12+009799999V0200401N002010120019N0100001N1+00791-00041103391ADDAA199000021GF108991081051012501999999MD1210201+9999REMSYN060AAXX  29121 59046 32660 80402 10079 21004 40339 52020 885//;
0165590460999992000012918004+24350+109400FM-12+009799999V0203401N002010120019N0110001N1+00661-00091103541ADDAA199000091GF108991081051012501999999KA1999M+00811MD1710051+9999REMSYN070AAXX  29181 59046 32661 83402 10066 21009 40354 57005 885// 333 10081;EQDQ01  00002PRCP99
0133590460999992000012921004+24350+109400FM-12+009799999V0200401N001010120019N0110001N1+99999+99999103501ADDAA124000791GF108991081051012501999999MD1710041+9999REMSYN070AAXX  29211 59046 42661 80401 1/063 20000 40350 57004 885// 333 79999;
0157590460999992000013000004+24350+109400FM-12+009799999V0203401N002010150019N0110001N1+00621-00141103611ADDAA124000791GF107991071051017501999999IA2999+00329MD1210111+0301REMSYN082AAXX  30001 59046 32761 73402 10062 21014 40361 52011 875// 333 00300 30032 79999;
0112590460999992000013003004+24350+109400FM-12+009799999V0200401N005010150019N0120001N1+00791-00321103701ADDGF108991081051017501999999MD1210091+9999REMSYN060AAXX  30031 59046 42762 80405 10079 21032 40370 52009 885//;
0165590460999992000013006004+24350+109400FM-12+009799999V0203201N003010210019N0250001N1+01091-00251103321ADDAA199000091GF107991071051022501999999KA1999N+00621MD1710371+9999REMSYN070AAXX  30061 59046 32875 73203 10109 21025 40332 57037 875// 333 20062;EQDQ01  00002PRCP99
0112590460999992000013009004+24350+109400FM-12+009799999V0203401N003019999999N0250001N1+01171-00151103161ADDGF107991071001999999031999MD1710151+9999REMSYN060AAXX  30091 59046 42975 73403 10117 21015 40316 57015 8703/;
0128590460999992000013012004+24350+109400FM-12+009799999V0203401N005019999999N0200001N1+00901-00341103391ADDAA199000091GF108991999999017501999999REMSYN060AAXX  30121 59046 32770 83405 10090 21034 40339 92022 885//;EQDQ01  00002PRCP99
0165590460999992000013018004+24350+109400FM-12+009799999V0203401N004010150019N0200001N1+00801-00341103441ADDAA199000091GF108991081051017501999999KA1999M+01251MD1710041+9999REMSYN070AAXX  30181 59046 32770 83404 10080 21034 40344 57004 885// 333 10125;EQDQ01  00002PRCP99
0112590460999992000013021004+24350+109400FM-12+009799999V0203201N004010150019N0200001N1+00671-00321103421ADDGF108991081051017501999999MD1710021+9999REMSYN060AAXX  30211 59046 42770 83204 10067 21032 40342 57002 885//;
0140590460999992000013103004+24350+109400FM-12+009799999V0203401N003010120019N0060001N1+00201+00041103811ADDAY171031AY261031GF108991081051012501999999MD1210151+9999MW1701REMSYN066AAXX  31031 59046 41656 83403 10020 20004 40381 52015 77076 885//;
0180590460999992000013106004+24350+109400FM-12+009799999V0203201N003010120019N0060001N1+00211-00011103561ADDAA106000891AY171061AY261061GF108991081051012501999999KA1999N+00201MD1710251+9999MW1701REMSYN082AAXX  31061 59046 11656 83203 10021 21001 40356 57025 69981 77076 885// 333 20020;
0140590460999992000013109004+24350+109400FM-12+009799999V0203201N002010042019N0040001N1+00211+00021103501ADDAY171031AY261031GF108991081051004501999999MD1710061+9999MW1601REMSYN066AAXX  31091 59046 41440 83202 10021 20002 40350 57006 76076 885//;
0157590460999992000013112004+24350+109400FM-12+009799999V0203401N003010042019N9999999N1+00241+00021103571ADDAA106003091AY171061AY261061GF108991081051004501999999MD1210071+9999MW1211REMSYN072AAXX  31121 59046 114/0 83403 10024 20002 40357 52007 60031 72176 885//;
0146590460999992000013118004+24350+109400FM-12+009799999V0202901N002010150019N0150001N1+00281-00111103551ADDAA199000021GF108991081051017501999999KA1999M+00801MD1710081+9999REMSYN070AAXX  31181 59046 32765 82902 10028 21011 40355 57008 885// 333 10080;
0133590460999992000013121004+24350+109400FM-12+009799999V0203201N002010120019N0150001N1+00241-00131103391ADDAA124004391GF108991081051012501999999MD1710161+9999REMSYN070AAXX  31211 59046 42665 83202 10024 21013 40339 57016 885// 333 70042;
0157590460999992000020100004+24350+109400FM-12+009799999V0203401N004010120019N0120001N1+00241-00161103511ADDAA124004391GF108991081051012501999999IA2999+00229MD1210121-0201REMSYN082AAXX  01001 59046 32662 83404 10024 21016 40351 52012 885// 333 05252 30022 70042;
0112590460999992000020103004+24350+109400FM-12+009799999V0203401N002010120019N0150001N1+00411-00081103521ADDGF108991081081008001999999MD1210021+9999REMSYN060AAXX  01031 59046 42565 83402 10041 21008 40352 52002 888//;
0165590460999992000020106004+24350+109400FM-12+009799999V0203401N002010150019N0120001N1+00751+00071103121ADDAA199000091GF106991061051017501001001KA1999N+00161MD1710391+9999REMSYN070AAXX  01061 59046 32762 63402 10075 20007 40312 57039 86500 333 20016;EQDQ01  00002PRCP99
0112590460999992000020109004+24350+109400FM-12+009799999V0203201N003012200019N0120001N1+00791+00061102911ADDGF102991021051022501001001MD1710211+9999REMSYN060AAXX  01091 59046 42862 23203 10079 20006 40291 57021 82500;
0152590460999992000020112004+24350+109400FM-12+009799999V0200201N002012200019N0120001N1+00501+00031102921ADDAA199000091GA1001+999999999GF100991001001999999001001MD1210011+9999REMSYN054AAXX  01121 59046 32962 00202 10050 20003 40292 52001;EQDQ01  00002PRCP99
0162590460999992000020118004+24350+109400FM-12+009799999V0203601N002012200019N0150001N1+00191-00061102931ADDAA199000091GA1001+999999999GF100991001001999999001001MD1710041+9999REMSYN064AAXX  01181 59046 32965 03602 10019 21006 40293 57004 333 10/15;EQDQ01  00002PRCP99
0134590460999992000020121004+24350+109400FM-12+009799999V0203601N001012200019N0080001N1+00101-00071102841ADDGA1001+999999999GF100991001001999999001001MD1710071+9999MW1101REMSYN060AAXX  01211 59046 41958 03601 10010 21007 40284 57007 71000;
0182590460999992000020200004+24350+109400FM-12+009799999V0200201N001012200019N0060001N1+00111-00031102991ADDAA199000091GF102991021001999999031001IA2999-00209MD1210141-0501MW1101REMSYN082AAXX  02001 59046 31956 20201 10011 21003 40299 52014 71000 82030 333 05551 31029;EQDQ01  00002PRCP99
0134590460999992000020203004+24350+109400FM-12+009799999V0200701N003012200019N0080001N1+00661+00041103051ADDGA1001+999999999GF100991001001999999001001MD1210071+9999MW1041REMSYN060AAXX  02031 59046 41958 00703 10066 20004 40305 52007 70400;
0175590460999992000020206004+24350+109400FM-12+009799999V0200401N003012200019N0170001N1+01031+00231102611ADDAA199000091GA1001+999999999GF100991001001999999001001KA1999N+00051MD1710431+9999REMSYN064AAXX  02061 59046 32967 00403 10103 20023 40261 57043 333 20005;EQDQ01  00002PRCP99
0122590460999992000020209004+24350+109400FM-12+009799999V0200201N003012200019N0250001N1+01321+00311102261ADDGA1001+999999999GF100991001001999999001001MD1710341+9999REMSYN054AAXX  02091 59046 42975 00203 10132 20031 40226 57034;
0152590460999992000020212004+24350+109400FM-12+009799999V0203601N002012200019N0200001N1+00991+00371102351ADDAA199000091GA1001+999999999GF100991001001999999001001MD1210081+9999REMSYN054AAXX  02121 59046 32970 03602 10099 20037 40235 52008;EQDQ01  00002PRCP99
0175590460999992000020218004+24350+109400FM-12+009799999V0203401N002012200019N0120001N1+00521+00191102641ADDAA199000091GA1001+999999999GF100991001001999999001001KA1999M+01351MD1210091+9999REMSYN064AAXX  02181 59046 32962 03402 10052 20019 40264 52009 333 10135;EQDQ01  00002PRCP99
0134590460999992000020221004+24350+109400FM-12+009799999V0200401N002012200019N0070001N1+00381+00181102581ADDGA1001+999999999GF100991001001999999001001MD1710061+9999MW1101REMSYN060AAXX  02211 59046 41957 00402 10038 20018 40258 57006 71000;
0192590460999992000020300004+24350+109400FM-12+009799999V0200201N001012200019N0030001N1+00341+00191102681ADDAA199000091GA1001+999999999GF100991001001999999001001IA2999+00009MD1210091-0301MW1101REMSYN076AAXX  03001 59046 31930 00201 10034 20019 40268 52009 71000 333 05302 31003;EQDQ01  00002PRCP99
0134590460999992000020303004+24350+109400FM-12+009799999V0209999C000012200019N0030001N1+00841+00321102711ADDGA1001+999999999GF100991001001999999001001MD1210041+9999MW1101REMSYN060AAXX  03031 59046 41930 00000 10084 20032 40271 52004 71000;
0175590460999992000020306004+24350+109400FM-12+009799999V0203201N002012200019N0120001N1+01371+00491102241ADDAA199000091GA1001+999999999GF100991001001999999001001KA1999N+00331MD1710461+9999REMSYN064AAXX  03061 59046 32962 03202 10137 20049 40224 57046 333 20033;EQDQ01  00002PRCP99
0122590460999992000020309004+24350+109400FM-12+009799999V0203201N002012200019N0130001N1+01521+00561101951ADDGA1001+999999999GF100991001001999999001001MD1710291+9999REMSYN054AAXX  03091 59046 42963 03202 10152 20056 40195 57029;
0152590460999992000020312004+24350+109400FM-12+009799999V0203401N002012200019N0120001N1+01011+00401102091ADDAA199000091GA1001+999999999GF100991001001999999001001MD1210131+9999REMSYN054AAXX  03121 59046 32962 03402 10101 20040 40209 52013;EQDQ01  00002PRCP99
0133590460999992000020318004+24350+109400FM-12+009799999V0203401N002010150019N0120001N1+00751+00301102231ADDAA124015791GF107991071051017501999999MD1710011+9999REMSYN070AAXX  03181 59046 32762 73402 10075 2003/ 40223 57001 875// 333 70157;
0112590460999992000020321004+24350+109400FM-12+009799999V0203401N002010150019N0120001N1+00771+00321102161ADDGF107991071051017501999999MD1710041+9999REMSYN060AAXX  03211 59046 42762 73402 10077 20032 40216 57004 875//;
0170590460999992000020400004+24350+109400FM-12+009799999V0203401N004010150019N0150001N1+00741+00291102321ADDAA199000091GF108991081051017501999999IA2999+00409MD1210141-0401REMSYN076AAXX  04001 59046 32765 83404 10074 20029 40232 52014 885// 333 05404 30047;EQDQ01  00002PRCP99
0112590460999992000020403004+24350+109400FM-12+009799999V0203401N004010120019N0120001N1+00761+00231102511ADDGF108991081051012501999999MD1210191+9999REMSYN060AAXX  04031 59046 42662 83404 10076 20023 40251 52019 885//;
0172590460999992000020406004+24350+109400FM-12+009799999V0203401N005010120019N0100001N1+00661+00381102261ADDAA106000791AY161061GF108991081081008001999999KA1999N+00651MD1710251+9999MW1001REMSYN082AAXX  04061 59046 11560 83405 10066 20038 40226 57025 69901 70060 888// 333 20065;
0124590460999992000020409004+24350+109400FM-12+009799999V0203201N002010042019N0080001N1+00621+00411102171ADDGF108991081051004501999999MD1710091+9999MW1601REMSYN066AAXX  04091 59046 41458 83202 10062 20041 40217 57009 76000 885//;
0149590460999992000020412004+24350+109400FM-12+009799999V0203201N004010042019N0080001N1+00521+00431102391ADDAA106000791AY161061GF108991081051004501999999MD1210211+9999MW1101REMSYN072AAXX  04121 59046 11458 83204 10052 20043 40239 52021 69901 71060 885//;
0172590460999992000020418004+24350+109400FM-12+009799999V0203401N004010120019N0120001N1+00561+00281102561ADDAA106000391AY161061GF108991081051012501999999KA1999M+00781MD1210051+9999MW1001REMSYN082AAXX  04181 59046 11662 83404 10056 20028 40256 52005 69931 70060 885// 333 10078;
0133590460999992000020421004+24350+109400FM-12+009799999V0203401N003010120019N0150001N1+00561+00181102511ADDAA124000391GF108991081051012501999999MD1710051+9999REMSYN070AAXX  04211 59046 42665 83403 10056 20018 40251 57005 885// 333 70003;
0139590460999992000020500004+24350+109400FM-12+009799999V0203401N002010120019N0250001N1+00541+00191102681ADDAA124000391GF108991081081008001999999MD1210171+0401REMSYN076AAXX  05001 59046 32575 83402 10054 20019 40268 52017 888// 333 00452 70003;
0112590460999992000020503004+24350+109400FM-12+009799999V0203401N003010120019N0250001N1+00661+00161102851ADDGF108991081051012501999999MD1210171+9999REMSYN060AAXX  05031 59046 42675 83403 10066 20016 40285 52017 885//;
0165590460999992000020506004+24350+109400FM-12+009799999V0200401N003010210019N0300001N1+00891+00131102531ADDAA199000091GF107991071051022501999999KA1999N+00501MD1710311+9999REMSYN070AAXX  05061 59046 32880 70403 10089 20013 40253 57031 875// 333 20050;EQDQ01  00002PRCP99
0112590460999992000020509004+24350+109400FM-12+009799999V0200401N003010150019N0300001N1+00961+00201102351ADDGF107991071051017501999999MD1710181+9999REMSYN060AAXX  05091 59046 42780 70403 10096 20020 40235 57018 875//;
0142590460999992000020512004+24350+109400FM-12+009799999V0200401N002019999999N0250001N1+00901+00371102401ADDAA199000091GF107991011051017501999999MD1210051+9999REMSYN060AAXX  05121 59046 32775 70402 10090 20037 40240 52005 815//;EQDQ01  00002PRCP99
0151590460999992000020518004+24350+109400FM-12+009799999V0203401N002010150019N0250001N1+00761+00231102461ADDAA199000091GF108991081051017501999999MD1710051+9999REMSYN069AAXX  05181 59046 32775 83402 10076 20023 40246 57005 885// 333 1096;EQDQ01  00002PRCP99
0112590460999992000020521004+24350+109400FM-12+009799999V0203401N002010150019N0250001N1+00791+00121102351ADDGF108991081051017501999999MD1710111+9999REMSYN060AAXX  05211 59046 42775 83402 10079 20012 40235 57011 885//;
0152590460999992000020600004+24350+109400FM-12+009799999V0203401N002010150019N0250001N1+00781+00171102401ADDAA199000091GF108991081051017501999999MD1210051+0031REMSYN070AAXX  06001 59046 32775 83402 10078 20017 40240 52005 885// 333 05302;EQDQ01  00002PRCP99
0112590460999992000020603004+24350+109400FM-12+009799999V0203601N003010210019N0200001N1+01011+00141102441ADDGF107991071051022501999999MD1210041+9999REMSYN060AAXX  06031 59046 42870 73603 10101 20014 40244 52004 875//;
0175590460999992000020606004+24350+109400FM-12+009799999V0201101N002012200019N0200001N1+01421+00311102001ADDAA199000091GA1001+999999999GF100991001001999999001001KA1999N+00761MD1710421+9999REMSYN064AAXX  06061 59046 32970 01102 10142 20031 40200 57042 333 20076;EQDQ01  00002PRCP99
0112590460999992000020609004+24350+109400FM-12+009799999V0202001N001019999999N0200001N1+01591+00271101781ADDGF106991061001999999031001MD1710221+9999REMSYN060AAXX  06091 59046 42970 62001 10159 20027 40178 57022 86030;
0142590460999992000020612004+24350+109400FM-12+009799999V0203401N001010120019N0250001N1+01421+00421101861ADDAA199000091GF108991081051012501999999MD1210081+9999REMSYN060AAXX  06121 59046 32675 83401 10142 20042 40186 52008 885//;EQDQ01  00002PRCP99
0165590460999992000020618004+24350+109400FM-12+009799999V0200201N001010150019N0200001N1+01221+00481102081ADDAA199000091GF108991081051017501999999KA1999M+01601MD1210031+9999REMSYN070AAXX  06181 59046 32770 80201 10122 20048 40208 52003 885// 333 10160;EQDQ01  00002PRCP99
0112590460999992000020621004+24350+109400FM-12+009799999V0200401N002010150019N0180001N1+01171+00471102091ADDGF108991081051017501999999MD1210011+9999REMSYN060AAXX  06211 59046 42768 80402 10117 20047 40209 52001 885//;
0152590460999992000020700004+24350+109400FM-12+009799999V0200401N002010150019N0120001N1+01121+00401102231ADDAA199000091GF108991081051017501999999MD1210131+0021REMSYN070AAXX  07001 59046 32762 80402 10112 20040 40223 52013 885// 333 05203;EQDQ01  00002PRCP99
0112590460999992000020703004+24350+109400FM-12+009799999V0203401N003010150019N0180001N1+01361+00251102441ADDGF107991071051017501999999MD1210211+9999REMSYN060AAXX  07031 59046 42768 73403 10136 20025 40244 52021 875//;
0165590460999992000020706004+24350+109400FM-12+009799999V0203401N002019999999N0200001N1+01571+00071102171ADDAA199000091GF107991071001999999031999KA1999N+01121MD1710261+9999REMSYN070AAXX  07061 59046 32970 73402 10157 20007 40217 57026 8703/ 333 20112;EQDQ01  00002PRCP99
0112590460999992000020709004+24350+109400FM-12+009799999V0200401N006012200019N0280001N1+01651-00111102061ADDGF101991011011012501001001MD1710111+9999REMSYN060AAXX  07091 59046 42678 10406 10165 21011 40206 57011 81100;
0152590460999992000020712004+24350+109400FM-12+009799999V0200701N003012200019N0200001N1+01341-00231102151ADDAA199000091GA1001+999999999GF100991001001999999001001MD1210081+9999REMSYN054AAXX  07121 59046 32970 00703 10134 21023 40215 52008;EQDQ01  00002PRCP99
0175590460999992000020718004+24350+109400FM-12+009799999V0203401N002012200019N0150001N1+01011+00051102281ADDAA199000091GA1001+999999999GF100991001001999999001001KA1999M+01721MD1710041+9999REMSYN064AAXX  07181 59046 32965 03402 10101 20005 40228 57004 333 10172;EQDQ01  00002PRCP99
0112590460999992000020721004+24350+109400FM-12+009799999V0200401N002010150019N0150001N1+00951+00151102081ADDGF108991081051017501999999MD1710191+9999REMSYN060AAXX  07211 59046 42765 80402 10095 20015 40208 57019 885//;
0152590460999992000020800004+24350+109400FM-12+009799999V0200701N002010150019N0100001N1+00971-00211102241ADDAA199000091GF108991081051017501999999MD1210151+0001REMSYN070AAXX  08001 59046 32760 80702 10097 21021 40224 52015 885// 333 00052;EQDQ01  00002PRCP99
0132590460999992000020803004+24350+109400FM-12+009799999V0200401N003010120019N0110001N1+01041-00291102451ADDAY161031GF108991081051012501999999MD1210201+9999MW1001REMSYN066AAXX  08031 59046 41661 80403 10104 21029 40245 52020 70060 885//;
0172590460999992000020806004+24350+109400FM-12+009799999V0200401N004010120019N0050001N1+00921-00011102261ADDAA106000791AY161061GF108991081051012501999999KA1999N+00901MD1710191+9999MW1601REMSYN082AAXX  08061 59046 11650 80404 10092 21001 40226 57019 69901 76060 885// 333 20090;
0132590460999992000020809004+24350+109400FM-12+009799999V0203201N002010120019N0060001N1+00891+00311102091ADDAY161031GF108991081051012501999999MD1710171+9999MW1041REMSYN066AAXX  08091 59046 41656 83202 10089 20031 40209 57017 70460 885//;
0149590460999992000020812004+24350+109400FM-12+009799999V0203201N002010120019N0080001N1+00871+00361102191ADDAA106000791AY161061GF108991081051012501999999MD1210101+9999MW1101REMSYN072AAXX  08121 59046 11658 83202 10087 20036 40219 52010 69901 71060 885//;
0141590460999992000020818004+24350+109400FM-12+009799999V0203401N001019999999N9999999N1+00851+00341102211ADDGF108991081051999999999999KA1999M+01051MD1710031+9999REMSYN076AAXX  08181 59046 ///5/ 83401 10085 20034 40221 57003 71000 885// 333 10105;
0145590460999992000020821004+24350+109400FM-12+009799999V0209999C000010120019N0070001N1+00821+00301102171ADDAA124000791GF108991081051012501999999MD1710041+9999MW1101REMSYN076AAXX  08211 59046 41657 80000 10082 20030 40217 57004 71000 885// 333 79999;
0151590460999992000020900004+24350+109400FM-12+009799999V0203401N002010120019N0080001N1+00831+00291102221ADDAA124000791GF108991081051012501999999MD1210041+0001MW1041REMSYN082AAXX  09001 59046 31658 83402 10083 20029 40222 52004 70400 885// 333 00051 79999;
0112590460999992000020903004+24350+109400FM-12+009799999V0200401N002010120019N0110001N1+00961+00281102221ADDGF108991081051012501999999MD1210011+9999REMSYN060AAXX  09031 59046 42661 80402 10096 20028 40222 52001 885//;
0177590460999992000020906004+24350+109400FM-12+009799999V0200201N002010120019N0080001N1+01061+00331101921ADDAA199000091GF108991081051012501999999KA1999N+00821MD1710301+9999MW1041REMSYN076AAXX  09061 59046 31658 80202 10106 20033 40192 57030 70400 885// 333 20082;EQDQ01  00002PRCP99
0124590460999992000020909004+24350+109400FM-12+009799999V0200401N002010120019N0080001N1+01121+00461101721ADDGF108991081051012501999999MD1710191+9999MW1041REMSYN066AAXX  09091 59046 41658 80402 10112 20046 40172 57019 70400 885//;
0154590460999992000020912004+24350+109400FM-12+009799999V0203601N001010120019N0080001N1+01061+00511101821ADDAA199000091GF108991081051012501999999MD1210091+9999MW1041REMSYN066AAXX  09121 59046 31658 83601 10106 20051 40182 52009 70400 885//;EQDQ01  00002PRCP99
0141590460999992000020918004+24350+109400FM-12+009799999V0203401N002010120019N0060001N1+00971+00511101931ADDAA106000791GF108991081051012501999999MD1210041+9999MW1601REMSYN072AAXX  09181 59046 11656 83402 10097 20051 40193 52004 69901 76000 885//;
0153590460999992000020921004+24350+109400FM-12+009799999V0203201N001010120019N0040001N1+00831+00721101821ADDAA124000591AY161031GF108991081051012501999999MD1710121+9999MW1601REMSYN076AAXX  09211 59046 41640 83201 10083 20072 40182 57012 76060 885// 333 70006;
0184590460999992000021000004+24350+109400FM-12+009799999V0209999C000010120019N0030001N1+99999+99999101901ADDAA106001091AY161061GF108991081051012501999999MD1210081-0301MW1601REMSYN088AAXX  10001 59046 11630 80000 11084 20082 40190 52008 60011 76060 885// 333 05300 70011;EQDQ01-000843ATOT  
0140590460999992000021003004+24350+109400FM-12+009799999V0202901N001010120019N0030001N1+00881+00861101981ADDAY161031AY261031GF108991081051012501999999MD1210081+9999MW1601REMSYN066AAXX  10031 59046 41630 82901 10088 20086 40198 52008 76066 885//;
0180590460999992000021006004+24350+109400FM-12+009799999V0203201N001010042019N0030001N1+00911+00851101701ADDAA106003091AY161061AY261061GF108991081051004501999999KA1999N+00831MD1710281+9999MW1601REMSYN082AAXX  10061 59046 11430 83201 10091 20085 40170 57028 60031 76066 885// 333 20083;
0140590460999992000021009004+24350+109400FM-12+009799999V0203601N001010042019N0030001N1+00941+00901101591ADDAY161031AY261031GF108991081051004501999999MD1710111+9999MW1601REMSYN066AAXX  10091 59046 41430 83601 10094 20090 40159 57011 76066 885//;
0157590460999992000021012004+24350+109400FM-12+009799999V0209999C000010042019N0030001N1+00941+00921101721ADDAA106003091AY161061AY261061GF108991081051004501999999MD1210131+9999MW1601REMSYN072AAXX  10121 59046 11430 80000 10094 20092 40172 52013 60031 76066 885//;
0199590460999992000021018004+24350+109400FM-12+009799999V0200201N001010042019N0040001N1+00921+00881101821ADDAA106000591AY161061AY261061GF108991999091004501999091KA1999M+00981MD1710011+9999MW1601REMSYN082AAXX  10181 59046 11440 80201 10092 20088 40182 57001 69961 76066 889/9 333 10098;EQDQ01+000082SCOTLC
0153590460999992000021021004+24350+109400FM-12+009799999V0209999C000010042019N0040001N1+00921+00861101711ADDAA124006491AY161031GF108991081051004501999999MD1710111+9999MW1601REMSYN076AAXX  10211 59046 41440 80000 10092 20086 40171 57011 76060 885// 333 70064;
0165590460999992000021100004+24350+109400FM-12+009799999V0209999C000010042019N0040001N1+00891+00851101861ADDAA106000591AY161061GF108991081051004501999999MD1210151+0001MW1601REMSYN088AAXX  11001 59046 11440 80000 10089 20085 40186 52015 69961 76060 885// 333 00001 70064;
0140590460999992000021103004+24350+109400FM-12+009799999V0209999C000010042019N0080001N1+00961+00881101951ADDAY161031AY261031GF108991081051004501999999MD1210091+9999MW1601REMSYN066AAXX  11031 59046 41458 80000 10096 20088 40195 52009 76066 885//;
0180590460999992000021106004+24350+109400FM-12+009799999V0200401N002010042019N0080001N1+01141+00961101671ADDAA106000191AY161061AY261061GF108991081051004501999999KA1999N+00891MD1710271+9999MW1211REMSYN082AAXX  11061 59046 11458 80402 10114 20096 40167 57027 69911 72166 885// 333 20089;
0124590460999992000021109004+24350+109400FM-12+009799999V0200201N002010120019N0080001N1+01221+01031101561ADDGF108991081081008001999999MD1710111+9999MW1101REMSYN066AAXX  11091 59046 41558 80202 10122 20103 40156 57011 71000 888//;
0143590460999992000021112004+24350+109400FM-12+009799999V0209999C000010120019N0080001N1+01211+01061999999ADDAA106000791AY161061GF108991081051012501999999MD1210071+9999MW1101REMSYN066AAXX  11121 59046 11658 80000 10121 20106 52007 69901 71060 885//;
0172590460999992000021118004+24350+109400FM-12+009799999V0200401N001010120019N0100001N1+01161+01041101691ADDAA106000791AY161061GF108991081051012501999999KA1999M+01231MD1710051+9999MW1001REMSYN082AAXX  11181 59046 11660 80401 10116 20104 40169 57005 69901 70060 885// 333 10123;
0147590460999992000021121004+24350+109400FM-12+009799999V0203401N001010120019N0080001N1+99999+99999999999ADDAA124001591AY161031GF108991081051012501999999MD1710101+9999MW1601REMSYN070AAXX  11211 59046 41658 83401 1/114 20102 57010 76060 885// 333 70015;
0165590460999992000021200004+24350+109400FM-12+009799999V0203401N001010042019N0030001N1+01121+01041101651ADDAA106000191AY161061GF108991081051004501999999MD1210061-0201MW1211REMSYN088AAXX  12001 59046 11430 83401 10112 20104 40165 52006 69911 72160 885// 333 05202 70011;
0124590460999992000021203004+24350+109400FM-12+009799999V0209999C000010042019N0040001N1+01181+01051101671ADDGF108991081051004501999999MD1210031+9999MW1211REMSYN066AAXX  12031 59046 41440 80000 10118 20105 40167 52003 72100 885//;
0172590460999992000021206004+24350+109400FM-12+009799999V0200201N001010120019N0030001N1+01301+01071101401ADDAA106000791AY161061GF108991081051012501999999KA1999N+01121MD1710271+9999MW1101REMSYN082AAXX  12061 59046 11630 80201 10130 20107 40140 57027 69901 71060 885// 333 20112;
0132590460999992000021209004+24350+109400FM-12+009799999V0203401N001010120019N0040001N1+01351+01111101231ADDAY161031GF108991081051012501999999MD1710171+9999MW1101REMSYN066AAXX  12091 59046 41640 83401 10135 20111 40123 57017 71060 885//;
0149590460999992000021212004+24350+109400FM-12+009799999V0209999C000010120019N0030001N1+01271+01141101251ADDAA106000191AY161061GF108991081051012501999999MD1210021+9999MW1101REMSYN072AAXX  12121 59046 11630 80000 10127 20114 40125 52002 69911 71060 885//;
0177590460999992000021218004+24350+109400FM-12+009799999V02099999999990120019N0040001N1+01221+01141101241ADDAA199000091GF108991081051012501999999KA1999M+01351MD1710071+9999MW1101REMSYN076AAXX  12181 59046 31640 8/000 10122 20114 40124 57007 71000 885// 333 10135;EQDQ01  00002PRCP99
0145590460999992000021221004+24350+109400FM-12+009799999V0209999C000010120019N0040001N1+01221+01141101141ADDAA124000391GF108991081051012501999999MD1710091+9999MW1601REMSYN076AAXX  12211 59046 41640 80000 10122 20114 40114 57009 76000 885// 333 70002;
0165590460999992000021300004+24350+109400FM-12+009799999V0209999C000010120019N0030001N1+01241+01181101271ADDAA106000791AY161061GF108991081051012501999999MD1210121-0401MW1601REMSYN088AAXX  13001 59046 11630 80000 10124 20118 40127 52012 69901 76060 885// 333 05401 70001;
0140590460999992000021303004+24350+109400FM-12+009799999V0209999C000010120019N0020001N1+01401+01311101391ADDAY161031AY261031GF108991081051012501999999MD1210121+9999MW1601REMSYN066AAXX  13031 59046 41620 80000 10140 20131 40139 52012 76066 885//;
0172590460999992000021306004+24350+109400FM-12+009799999V0209999C000010120019N0030001N1+01951+01551101121ADDAA106000191AY161061GF107991071051012501999999KA1999N+01221MD1710251+9999MW1101REMSYN082AAXX  13061 59046 11630 70000 10195 20155 40112 57025 69921 71060 875// 333 20122;
0124590460999992000021309004+24350+109400FM-12+009799999V0203401N001010120019N0030001N1+02121+01661101021ADDGF108991081051012501999999MD1710101+9999MW1101REMSYN066AAXX  13091 59046 41630 83401 10212 20166 40102 57010 71000 885//;
0135590460999992000021312004+24350+109400FM-12+009799999V0203601N002010120019N0040001N1+01671+01411101271ADDAA199000021GF108991081051012501999999MD1210241+9999MW1101REMSYN066AAXX  13121 59046 31640 83602 10167 20141 40127 52024 71000 885//;
0172590460999992000021318004+24350+109400FM-12+009799999V0203201N002010042019N0040001N1+01441+01041101551ADDAA106000791AY161061GF108991081051004501999999KA1999M+02131MD1210051+9999MW1601REMSYN082AAXX  13181 59046 11440 83202 10144 20104 40155 52005 69901 76060 885// 333 10213;
0161590460999992000021321004+24350+109400FM-12+009799999V0203601N001010042019N0040001N1+01351+01181101561ADDAA124000891AY161031AY261031GF108991081051004501999999MD1210011+9999MW1601REMSYN076AAXX  13211 59046 41440 83601 10135 20118 40156 52001 76066 885// 333 70007;
0125590460999992000021400004+24350+109400FM-12+009799999V0203401N005019999999N0100001N1+01301+01031101861ADDGF108991999999004501999999REMSYN087AAXX  14001 59046 11460 83405 10130 20103 40186 2029 69961 76060 887// 333 00601 70008;
0132590460999992000021403004+24350+109400FM-12+009799999V0203401N003010042019N0200001N1+01331+00941102121ADDAY161031GF108991081051004501999999MD1210251+9999MW1001REMSYN066AAXX  14031 59046 41470 83403 10133 20094 40212 52025 70060 885//;
0172590460999992000021406004+24350+109400FM-12+009799999V0203201N003010042019N0170001N1+01301+00951101971ADDAA106000791AY161061GF108991081071004501999999KA1999N+01271MD1710151+9999MW1601REMSYN082AAXX  14061 59046 11467 83203 10130 20095 40197 57015 69901 76060 887// 333 20127;
0132590460999992000021409004+24350+109400FM-12+009799999V0200201N003010042019N0200001N1+01321+00881101961ADDAY161031GF108991081051004501999999MD1710011+9999MW1001REMSYN066AAXX  14091 59046 41470 80203 10132 20088 40196 57001 70060 885//;
0149590460999992000021412004+24350+109400FM-12+009799999V0203401N001010120019N0180001N1+01241+00881102081ADDAA106000791AY161061GF108991081051012501999999MD1210111+9999MW1211REMSYN072AAXX  14121 59046 11668 83401 10124 20088 40208 52011 69901 72160 885//;
0146590460999992000021418004+24350+109400FM-12+009799999V0200401N004010120019N0150001N1+01171+00331102181ADDAA199000021GF108991081051012501999999KA1999M+01441MD1710061+9999REMSYN070AAXX  14181 59046 32665 80404 10117 20033 40218 57006 885// 333 10144;
0133590460999992000021421004+24350+109400FM-12+009799999V0203601N002010120019N0150001N1+01151+00571102181ADDAA124000191GF108991081051012501999999MD1410001+9999REMSYN070AAXX  14211 59046 42665 83602 10115 20057 40218 54000 885// 333 70001;
0139590460999992000021500004+24350+109400FM-12+009799999V0203601N002010120019N0100001N1+01141+00381102301ADDAA124000791GF108991081051012501999999MD1210121+0401REMSYN076AAXX  15001 59046 32660 83602 10114 20038 40230 52012 885// 333 00452 79999;
0112590460999992000021503004+24350+109400FM-12+009799999V0203401N003010150019N0180001N1+01181+00231102491ADDGF108991081051017501999999MD1210191+9999REMSYN060AAXX  15031 59046 42768 83403 10118 20023 40249 52019 885//;
0165590460999992000021506004+24350+109400FM-12+009799999V0203401N002010150019N0180001N1+01241+00171102231ADDAA199000091GF108991081051017501999999KA1999N+01141MD1710261+9999REMSYN070AAXX  15061 59046 32768 83402 10124 20017 40223 57026 885// 333 20114;EQDQ01  00002PRCP99
0112590460999992000021509004+24350+109400FM-12+009799999V0200401N003010150019N0160001N1+01221+00371102091ADDGF108991081051017501999999MD1710141+9999REMSYN060AAXX  15091 59046 42766 80403 10122 20037 40209 57014 885//;
0142590460999992000021512004+24350+109400FM-12+009799999V0200201N002010150019N0120001N1+01061+00511102231ADDAA199000091GF108991081051017501999999MD1210141+9999REMSYN060AAXX  15121 59046 32762 80202 10106 20051 40223 52014 885//;EQDQ01  00002PRCP99
0172590460999992000021518004+24350+109400FM-12+009799999V0200401N004010120019N0100001N1+00941+00621102131ADDAA106000791AY161061GF108991081051012501999999KA1999M+01261MD1710151+9999MW1601REMSYN082AAXX  15181 59046 11660 80404 10094 20062 40213 57015 69901 76060 885// 333 10126;
0161590460999992000021521004+24350+109400FM-12+009799999V0203601N002010042019N0040001N1+00801+00691102061ADDAA124000191AY161031AY261031GF108991081051004501999999MD1710081+9999MW1601REMSYN076AAXX  15211 59046 41440 83602 10080 20069 40206 57008 76066 885// 333 70001;
0173590460999992000021600004+24350+109400FM-12+009799999V0203401N002010042019N0020001N1+00761+00671102211ADDAA106000891AY161061AY261061GF108991081051004501999999MD1210151-0101MW1601REMSYN088AAXX  16001 59046 11420 83402 10076 20067 40221 52015 69981 76066 885// 333 05154 70008;
0140590460999992000021603004+24350+109400FM-12+009799999V0203601N002010042019N0030001N1+00811+00701102281ADDAY161031AY261031GF108991081051004501999999MD1210071+9999MW1601REMSYN066AAXX  16031 59046 41430 83602 10081 20070 40228 52007 76066 885//;
0180590460999992000021606004+24350+109400FM-12+009799999V0203401N002010042019N0040001N1+00801+00711102151ADDAA106002091AY161061AY261061GF108991081071004501999999KA1999N+00761MD1710131+9999MW1601REMSYN082AAXX  16061 59046 11440 83402 10080 20071 40215 57013 60021 76066 887// 333 20076;
0140590460999992000021609004+24350+109400FM-12+009799999V0209999C000010042019N0050001N1+00821+00731102061ADDAY161031AY261031GF108991081051004501999999MD1710091+9999MW1601REMSYN066AAXX  16091 59046 41450 80000 10082 20073 40206 57009 76066 885//;
0149590460999992000021612004+24350+109400FM-12+009799999V0200401N002010120019N0080001N1+00861+00731102101ADDAA106000891AY161061GF108991081051012501999999MD1210031+9999MW1101REMSYN072AAXX  16121 59046 11658 80402 10086 20073 40210 52003 69981 71060 885//;
0172590460999992000021618004+24350+109400FM-12+009799999V0200201N001010042019N0080001N1+00901+00711102141ADDAA106000191AY161061GF108991081051004501999999KA1999M+00951MD1710021+9999MW1601REMSYN082AAXX  16181 59046 11458 80201 10090 20071 40214 57002 69911 76060 885// 333 10095;
0153590460999992000021621004+24350+109400FM-12+009799999V0200401N001010042019N0080001N1+00881+00751102011ADDAA124003891AY161031GF108991081051004501999999MD1710131+9999MW1601REMSYN076AAXX  16211 59046 41458 80401 10088 20075 40201 57013 76060 885// 333 70039;
0165590460999992000021700004+24350+109400FM-12+009799999V0200401N001010120019N0060001N1+00901+00771102071ADDAA106000791AY161061GF108991081051012501999999MD1210061-0101MW1101REMSYN088AAXX  17001 59046 11656 80401 10090 20077 40207 52006 69901 71060 885// 333 05101 70032;
0124590460999992000021703004+24350+109400FM-12+009799999V0200201N001010120019N0060001N1+00941+00771102161ADDGF108991081081008001999999MD1210091+9999MW1101REMSYN066AAXX  17031 59046 41556 80201 10094 20077 40216 52009 71000 888//;
0172590460999992000021706004+24350+109400FM-12+009799999V0209999C000010120019N0060001N1+00981+00821101801ADDAA106000791AY161061GF108991081051012501999999KA1999N+00801MD1710361+9999MW1101REMSYN082AAXX  17061 59046 11656 80000 10098 20082 40180 57036 69901 71060 885// 333 20080;
0132590460999992000021709004+24350+109400FM-12+009799999V0200401N002010042019N0040001N1+00961+00901101591ADDAY161031GF108991081051004501999999MD1710201+9999MW1601REMSYN066AAXX  17091 59046 41440 80402 10096 20090 40159 57020 76060 885//;
0149590460999992000021712004+24350+109400FM-12+009799999V0200901N001010042019N0020001N1+00941+00901101571ADDAA106001091AY161061GF108991081071004501999999MD1710021+9999MW1601REMSYN072AAXX  17121 59046 11420 80901 10094 20090 40157 57002 60011 76060 887//;
0180590460999992000021718004+24350+109400FM-12+009799999V0209999C000010042019N0020001N1+00991+00951101511ADDAA106000391AY161061AY261061GF108991081051004501999999KA1999M+01021MD1710051+9999MW1601REMSYN082AAXX  17181 59046 11420 80000 10099 20095 40151 57005 69931 76066 885// 333 10102;
0161590460999992000021721004+24350+109400FM-12+009799999V0209999C000010042019N0030001N1+01011+00971101441ADDAA124001591AY161031AY261031GF108991081051004501999999MD1710121+9999MW1601REMSYN076AAXX  17211 59046 41430 80000 10101 20097 40144 57012 76066 885// 333 70015;
0165590460999992000021800004+24350+109400FM-12+009799999V0202901N001010120019N0030001N1+01021+00941101541ADDAA106000191AY161061GF108991081051012501999999MD1210101-0501MW1101REMSYN088AAXX  18001 59046 11630 82901 10102 20094 40154 52010 69921 71060 885// 333 05501 70015;
0132590460999992000021803004+24350+109400FM-12+009799999V0209999C000010042019N0020001N1+01041+01021101621ADDAY161031GF108991081051004501999999MD1210081+9999MW1601REMSYN066AAXX  18031 59046 41420 80000 10104 20102 40162 52008 76060 885//;
0172590460999992000021806004+24350+109400FM-12+009799999V0209999C000010042019N0010001N1+01141+01101101311ADDAA106002091AY161061GF108991081051004501999999KA1999N+00941MD1710311+9999MW1601REMSYN082AAXX  18061 59046 11410 80000 10114 20110 40131 57031 60021 76060 885// 333 20094;
0140590460999992000021809004+24350+109400FM-12+009799999V0209999C000010042019N0010001N1+01261+01221101081ADDAY161031AY261031GF108991081051004501999999MD1710221+9999MW1601REMSYN066AAXX  18091 59046 41410 80000 10126 20122 40108 57022 76066 885//;
0157590460999992000021812004+24350+109400FM-12+009799999V0202701N001010042019N0010001N1+01251+01251101031ADDAA106001091AY161061AY261061GF108991081051004501999999MD1710051+9999MW1601REMSYN072AAXX  18121 59046 11410 82701 10125 20125 40103 57005 60011 76066 885//;
0172590460999992000021818004+24350+109400FM-12+009799999V0202901N001010042019N0020001N1+99999+99999101001ADDAA106000191AY161061GF108991081051004501999999KA1999M+01371MD1710041+9999MW1601REMSYN082AAXX  18181 59046 11420 82901 1/135 20133 40100 57004 69921 76060 885// 333 10137;
0161590460999992000021821004+24350+109400FM-12+009799999V0201401N003010042019N0015001N1+01461+01431100801ADDAA124003091AY161031AY261031GF108991081051004501999999MD1710201+9999MW1601REMSYN076AAXX  18211 59046 41415 81403 10146 20143 40080 57020 76066 885// 333 70031;
0173590460999992000021900004+24350+109400FM-12+009799999V0202901N002010075019N0010001N1+01461+01421101011ADDAA106000591AY161061AY241061GF108991081051008001999999MD1210211-0501MW1101REMSYN088AAXX  19001 59046 11510 82902 10146 20142 40101 52021 69941 71064 885// 333 05504 70034;
0172590460999992000021906004+24350+109400FM-12+009799999V0202901N001010075019N0020001N1+01731+01651100951ADDAA106000191AY161061GF108991081051008001999999KA1999N+01161MD1710221+9999MW1101REMSYN082AAXX  19061 59046 11520 82901 10173 20165 40095 57022 69911 71060 885// 333 20116;
0132590460999992000021909004+24350+109400FM-12+009799999V0203401N004010042019N0030001N1+01321+01281100851ADDAY161031GF108991081051004501999999MD1710111+9999MW1601REMSYN066AAXX  19091 59046 41430 83404 10132 20128 40085 57011 76060 885//;
0149590460999992000021912004+24350+109400FM-12+009799999V0203401N004010042019N0020001N1+01141+01101101061ADDAA106001091AY161061GF108991081051004501999999MD1210211+9999MW1601REMSYN072AAXX  19121 59046 11420 83404 10114 20110 40106 52021 60011 76060 885//;
0172590460999992000021918004+24350+109400FM-12+009799999V0203401N004010120019N0120001N1+01001+00791101321ADDAA106000191AY161061GF108991081051012501999999KA1999M+01771MD1210081+9999MW1001REMSYN082AAXX  19181 59046 11662 83404 10100 20079 40132 52008 69921 70060 885// 333 10177;
0124590460999992000021921004+24350+109400FM-12+009799999V0203401N003010120019N0110001N1+00881+00751101351ADDGF108991081051012501999999MD1219999+9999MW1601REMSYN066AAXX  19211 59046 41661 83403 10088 20075 40135 520/2 76000 885//;
0165590460999992000022000004+24350+109400FM-12+009799999V0203401N003010042019N0140001N1+00851+00661101631ADDAA106000791AY161061GF108991081051004501999999MD1210271+0601MW1601REMSYN088AAXX  20001 59046 11464 83403 10085 20066 40163 52027 69901 76060 885// 333 00656 70014;
0132590460999992000022003004+24350+109400FM-12+009799999V0203201N003010120019N0200001N1+00911+00511101921ADDAY161031GF108991081081008001999999MD1210281+9999MW1001REMSYN066AAXX  20031 59046 41570 83203 10091 20051 40192 52028 70060 888//;
0149590460999992000022006004+24350+109400FM-12+009799999V0200401N003010120019N0300001N1+01011+00451101701ADDAA106000791AY161061GF108991081081008001999999MD1710211+9999MW1001REMSYN072AAXX  20061 59046 11580 80403 10101 20045 40170 57021 69901 70060 888//;
0112590460999992000022009004+24350+109400FM-12+009799999V0200401N003010120019N0300001N1+01081+00511101531ADDGF108991081081008001999999MD1710171+9999REMSYN060AAXX  20091 59046 42580 80403 10108 20051 40153 57017 888//;
0123590460999992000022012004+24350+109400FM-12+009799999V0200401N003010120019N0300001N1+00961+00521101571ADDAA199000021GF108991081051012501999999MD1210031+9999REMSYN060AAXX  20121 59046 32680 80403 10096 20052 40157 52003 885//;
0172590460999992000022018004+24350+109400FM-12+009799999V0203401N002010120019N0250001N1+00841+00531101831ADDAA106000791AY161061GF108991081051012501999999KA1999M+01081MD1210011+9999MW1001REMSYN082AAXX  20181 59046 11675 83402 10084 20053 40183 52001 69901 70060 885// 333 10108;
0133590460999992000022021004+24350+109400FM-12+009799999V02099999999990120019N0250001N1+99999+99999101741ADDAA124000791GF108991081051012501999999MD1710081+9999REMSYN070AAXX  20211 59046 42675 80/12 1/085 20056 40174 57008 885// 333 79999;
0157590460999992000022100004+24350+109400FM-12+009799999V0203401N002019999999N0100001N1+00821+00531101821ADDAA199000091GF108991999999008001999999MD1999999+0201REMSYN075AAXX  21001 59046 32560 83402 10082 20053 40182 5007 888// 333 00200 79999;EQDQ01  00002PRCP99
0112590460999992000022103004+24350+109400FM-12+009799999V0203201N002010120019N0150001N1+00941+00541101971ADDGF108991081081008001999999MD1210151+9999REMSYN060AAXX  21031 59046 42565 83202 10094 20054 40197 52015 888//;
0165590460999992000022106004+24350+109400FM-12+009799999V0203401N001010120019N0200001N1+00961+00611101681ADDAA199000091GF108991081081008001999999KA1999N+00821MD1710291+9999REMSYN070AAXX  21061 59046 32570 83401 10096 20061 40168 57029 888// 333 20082;EQDQ01  00002PRCP99
0124590460999992000022109004+24350+109400FM-12+009799999V0203201N002010042019N0050001N1+00921+00711101511ADDGF108991081051004501999999MD1710171+9999MW1601REMSYN066AAXX  21091 59046 41450 83202 10092 20071 40151 57017 76000 885//;
0149590460999992000022112004+24350+109400FM-12+009799999V0200701N002010042019N0040001N1+00851+00791101501ADDAA106000191AY161061GF108991081051004501999999MD1710011+9999MW1601REMSYN072AAXX  21121 59046 11440 80702 10085 20079 40150 57001 69921 76060 885//;
0180590460999992000022118004+24350+109400FM-12+009799999V0203201N003010042019N0040001N1+00791+00731101751ADDAA106001091AY161061AY261061GF108991081051004501999999KA1999M+01031MD1210051+9999MW1601REMSYN082AAXX  21181 59046 11440 83203 10079 20073 40175 52005 60011 76066 885// 333 10103;
0161590460999992000022121004+24350+109400FM-12+009799999V0200401N002010042019N0020001N1+00781+00721101741ADDAA124002091AY161031AY261031GF108991081051004501999999MD1710011+9999MW1601REMSYN076AAXX  21211 59046 41420 80402 10078 20072 40174 57001 76066 885// 333 70021;
0173590460999992000022200004+24350+109400FM-12+009799999V0203201N001010042019N0030001N1+00761+00721101741ADDAA106001091AY161061AY261061GF108991081051004501999999MD1410001-0101MW1601REMSYN088AAXX  22001 59046 11430 83201 10076 20072 40174 54000 60011 76066 885// 333 05151 70026;
0140590460999992000022203004+24350+109400FM-12+009799999V0203401N001010042019N0080001N1+00881+00731101871ADDAY161031AY261031GF108991081051004501999999MD1210131+9999MW1601REMSYN066AAXX  22031 59046 41458 83401 10088 20073 40187 52013 76066 885//;
0172590460999992000022206004+24350+109400FM-12+009799999V0202901N001010090019N0110001N1+00921+00751101621ADDAA106000191AY161061GF108991081081004501999999KA1999N+00761MD1710251+9999MW1601REMSYN082AAXX  22061 59046 11461 82901 10092 20075 40162 57025 69921 76060 888// 333 20076;
0132590460999992000022209004+24350+109400FM-12+009799999V0200401N001010090019N0200001N1+00961+00791101411ADDAY161031GF108991081081004501999999MD1710201+9999MW1601REMSYN066AAXX  22091 59046 41470 80401 10096 20079 40141 57020 76060 888//;
0149590460999992000022212004+24350+109400FM-12+009799999V0200401N002010042019N0120001N1+00941+00771101431ADDAA106000791AY161061GF108991081051004501999999MD1210011+9999MW1601REMSYN072AAXX  22121 59046 11462 80402 10094 20077 40143 52001 69901 76060 885//;
0172590460999992000022218004+24350+109400FM-12+009799999V0203401N003010042019N0060001N1+00851+00811101721ADDAA106000891AY161061GF108991081051004501999999KA1999M+00971MD1210071+9999MW1601REMSYN082AAXX  22181 59046 11456 83403 10085 20081 40172 52007 69981 76060 885// 333 10097;
0161590460999992000022221004+24350+109400FM-12+009799999V0203401N003019999999N0050001N1+00771+00711101761ADDAA124002591AY161031AY261031GF108991051999004501999999MD1210041+9999MW1601REMSYN076AAXX  22211 59046 41450 83403 10077 20071 40176 52004 76066 85/// 333 70025;
0173590460999992000022300004+24350+109400FM-12+009799999V0203401N002010042019N0200001N1+00781+00651101981ADDAA106001091AY161061AY261061GF108991081051004501999999MD1210221+0201MW1211REMSYN088AAXX  23001 59046 11470 83402 10078 20065 40198 52022 60011 72166 885// 333 00200 70020;
0112590460999992000022303004+24350+109400FM-12+009799999V0200201N003010120019N0250001N1+01001+00561102171ADDGF108991081081008001999999MD1210191+9999REMSYN060AAXX  23031 59046 42575 80203 10100 20056 40217 52019 888//;
0146590460999992000022306004+24350+109400FM-12+009799999V0200401N005010120019N0250001N1+01301+00611101861ADDAA199000021GF106991061081008001001001KA1999N+00771MD1710301+9999REMSYN070AAXX  23061 59046 32575 60405 10130 20061 40186 57030 86800 333 20077;
0112590460999992000022309004+24350+109400FM-12+009799999V0200401N003010120019N0250001N1+01341+00581101701ADDGF107991071081008001999999MD1710161+9999REMSYN060AAXX  23091 59046 42575 70403 10134 20058 40170 57016 878//;
0123590460999992000022312004+24350+109400FM-12+009799999V0203401N002012200019N0200001N1+01041+00561101861ADDAA199000021GF102991021001999999031001MD1210151+9999REMSYN060AAXX  23121 59046 32970 23402 10104 20056 40186 52015 82030;
0181590460999992000022318004+24350+109400FM-12+009799999V0203601N999990150019N0120001N1+00981+00541102171ADDAA199000091GF108991081051017501999999KA1999M+01441MD1210041+9999REMSYN070AAXX  23181 59046 32762 83682 10098 20054 40217 52004 885// 333 10144;EQDQ01+008203WOSPD Q02  00002PRCP99
0133590460999992000022321004+24350+109400FM-12+009799999V0203201N002010150019N0120001N1+00931+00581102111ADDAA124000791GF108991081051017501999999MD1710061+9999REMSYN070AAXX  23211 59046 42762 83202 10093 20058 40211 57006 885// 333 79999;
0152590460999992000022400004+24350+109400FM-12+009799999V0200201N001010120019N0120001N1+00931+00601102301ADDAA199000091GF108991081081008001999999MD1210181+0031REMSYN070AAXX  24001 59046 32562 80201 10093 20060 40230 52018 888// 333 00302;EQDQ01  00002PRCP99
0112590460999992000022403004+24350+109400FM-12+009799999V0200701N002010120019N0120001N1+01121+00561102381ADDGF108991081081008001999999MD1210081+9999REMSYN060AAXX  24031 59046 42562 80702 10112 20056 40238 52008 888//;
0165590460999992000022406004+24350+109400FM-12+009799999V0203201N003010120019N0120001N1+01201+00431102161ADDAA199000091GF108991081081008001999999KA1999N+00931MD1710211+9999REMSYN070AAXX  24061 59046 32562 83203 10120 20043 40216 57021 888// 333 20093;EQDQ01  00002PRCP99
0112590460999992000022409004+24350+109400FM-12+009799999V0200701N003010120019N0100001N1+01241+00431101991ADDGF108991081051012501999999MD1710171+9999REMSYN060AAXX  24091 59046 42660 80703 10124 20043 40199 57017 885//;
0142590460999992000022412004+24350+109400FM-12+009799999V0200701N002010120019N0110001N1+01121+00461102001ADDAA199000091GF108991081051012501999999MD1410001+9999REMSYN060AAXX  24121 59046 32661 80702 10112 20046 40200 54000 885//;EQDQ01  00002PRCP99
0165590460999992000022418004+24350+109400FM-12+009799999V0200401N003010120019N0110001N1+99999+99999102391ADDAA199000091GF108991081051012501999999KA1999M+01291MD1210071+9999REMSYN070AAXX  24181 59046 32661 80403 10/94 20052 40239 52007 885// 333 10129;EQDQ01  00002PRCP99
0112590460999992000022421004+24350+109400FM-12+009799999V0200201N002010120019N0110001N1+00921+00501102371ADDGF108991081051012501999999MD1710021+9999REMSYN060AAXX  24211 59046 42661 80202 10092 20050 40237 57002 885//;
0152590460999992000022500004+24350+109400FM-12+009799999V0203601N002010075019N0100001N1+00901+00431102671ADDAA199000091GF108991081051008001999999MD1210301+0041REMSYN070AAXX  25001 59046 32560 83602 10090 20043 40267 52030 885// 333 00400;EQDQ01  00002PRCP99
0112590460999992000022503004+24350+109400FM-12+009799999V0203601N003010120019N0150001N1+01001+00411102781ADDGF108991081081008001999999MD1210121+9999REMSYN060AAXX  25031 59046 42565 83603 10100 20041 40278 52012 888//;
0165590460999992000022506004+24350+109400FM-12+009799999V0200401N003010120019N0280001N1+01241+00401102591ADDAA199000091GF107991071081008001999999KA1999N+00901MD1710191+9999REMSYN070AAXX  25061 59046 32578 70403 10124 20040 40259 57019 878// 333 20090;EQDQ01  00002PRCP99
0112590460999992000022509004+24350+109400FM-12+009799999V0200701N004019999999N0300001N1+01221+00371102451ADDGF107991071001999999031999MD1710141+9999REMSYN060AAXX  25091 59046 42980 70704 10122 20037 40245 57014 8703/;
0142590460999992000022512004+24350+109400FM-12+009799999V0200401N004010150019N0250001N1+01081+00461102551ADDAA199000091GF107991071051017501999999MD1210101+9999REMSYN060AAXX  25121 59046 32775 70404 10108 20046 40255 52010 875//;EQDQ01  00002PRCP99
0165590460999992000022518004+24350+109400FM-12+009799999V0200401N003010150019N0150001N1+00971+00291102671ADDAA199000091GF108991081051017501999999KA1999M+01331MD1710011+9999REMSYN070AAXX  25181 59046 32765 80403 10097 20029 40267 57001 885// 333 10133;EQDQ01  00002PRCP99
0142590460999992000022521004+24350+109400FM-12+009799999V0203201N002010120019N0110001N1+00931+00351102681ADDAY161031GF108991081051012501999999MD1210011+9999MW1601REMSYN076AAXX  25211 59046 41661 83202 10093 20035 40268 52001 76060 885// 333 97999;
0165590460999992000022600004+24350+109400FM-12+009799999V0203601N002010042019N0050001N1+00861+00351102871ADDAA106000391AY161061GF108991081051004501999999MD1210181+0201MW1601REMSYN088AAXX  26001 59046 11450 83602 10086 20035 40287 52018 69931 76060 885// 333 00200 70003;
0132590460999992000022603004+24350+109400FM-12+009799999V0203401N003010120019N0110001N1+01051+00281102941ADDAY161031GF108991081051012501999999MD1210071+9999MW1001REMSYN066AAXX  26031 59046 41661 83403 10105 20028 40294 52007 70060 885//;
0172590460999992000022606004+24350+109400FM-12+009799999V0203201N001010120019N0100001N1+01061+00211102611ADDAA106000191AY161061GF108991081051012501999999KA1999N+00861MD1710321+9999MW1601REMSYN082AAXX  26061 59046 11660 83201 10106 20021 40261 57032 69921 76060 885// 333 20086;
0140590460999992000022609004+24350+109400FM-12+009799999V0202701N002010120019N0080001N1+01031+00291102421ADDAY161031AY261031GF108991081051012501999999MD1710191+9999MW1601REMSYN066AAXX  26091 59046 41658 82702 10103 20029 40242 57019 76066 885//;
0149590460999992000022612004+24350+109400FM-12+009799999V0201801N002010042019N0040001N1+01031+00371102411ADDAA106000391AY161061GF108991081051004501999999MD1710011+9999MW1041REMSYN072AAXX  26121 59046 11440 81802 10103 20037 40241 57001 69931 70460 885//;
0172590460999992000022618004+24350+109400FM-12+009799999V0200201N001010120019N0080001N1+00821+00601102611ADDAA106001091AY161061GF108991081051012501999999KA1999M+01111MD1210031+9999MW1101REMSYN082AAXX  26181 59046 11658 80201 10082 20060 40261 52003 60011 71060 885// 333 10111;
0145590460999992000022621004+24350+109400FM-12+009799999V0200201N001010120019N0060001N1+00811+00611102381ADDAA124001891GF108991081051012501999999MD1710221+9999MW1601REMSYN076AAXX  26211 59046 41656 80201 10081 20061 40238 57022 76000 885// 333 70019;
0165590460999992000022700004+24350+109400FM-12+009799999V0200401N001010042019N0030001N1+00781+00671102561ADDAA106002091AY161061GF108991081051004501999999MD1210171-0301MW1601REMSYN088AAXX  27001 59046 11430 80401 10078 20067 40256 52017 60021 76060 885// 333 05351 70035;
0140590460999992000022703004+24350+109400FM-12+009799999V0200701N001010042019N0040001N1+00781+00601102731ADDAY161031AY261031GF108991081051004501999999MD1210171+9999MW1601REMSYN066AAXX  27031 59046 41440 80701 10078 20060 40273 52017 76066 885//;
0180590460999992000022706004+24350+109400FM-12+009799999V0200401N003010042019N0060001N1+00771+00641102501ADDAA106007191AY161061AY261061GF108991081071004501999999KA1999N+00761MD1710231+9999MW1601REMSYN082AAXX  27061 59046 11456 80403 10077 20064 40250 57023 60071 76066 887// 333 20076;
0140590460999992000022709004+24350+109400FM-12+009799999V0203401N001010042019N0050001N1+00741+00631102281ADDAY161031AY261031GF108991081071004501999999MD1710221+9999MW1601REMSYN066AAXX  27091 59046 41450 83401 10074 20063 40228 57022 76066 887//;
0157590460999992000022712004+24350+109400FM-12+009799999V0200201N001019999999N0050001N1+00741+00651102331ADDAA106003091AY161061AY261061GF108991081999004501999999MD1210051+9999MW1601REMSYN072AAXX  27121 59046 11450 80201 10074 20065 40233 52005 60031 76066 88///;
0180590460999992000022718004+24350+109400FM-12+009799999V0200401N002010042019N0030001N1+00721+00651102361ADDAA106007991AY161061AY261061GF108991081071004501999999KA1999M+00871MD1710071+9999MW1601REMSYN082AAXX  27181 59046 11430 80402 10072 20065 40236 57007 60081 76066 887// 333 10087;
0161590460999992000022721004+24350+109400FM-12+009799999V0203401N002010042019N0030001N1+00711+00641102341ADDAA124025491AY161031AY261031GF108991081071004501999999MD1710021+9999MW1601REMSYN076AAXX  27211 59046 41430 83402 10071 20064 40234 57002 76066 887// 333 70253;
0173590460999992000022800004+24350+109400FM-12+009799999V0203401N002010120019N0020001N1+00731+00661102561ADDAA106006191AY161061AY261061GF108991081081008001999999MD1210221+0001MW1211REMSYN088AAXX  28001 59046 11520 83402 10073 20066 40256 52022 60061 72166 888// 333 00051 70243;
0124590460999992000022803004+24350+109400FM-12+009799999V0200201N002010120019N0040001N1+00851+00651102671ADDGF108991081081008001999999MD1210111+9999MW1101REMSYN066AAXX  28031 59046 41540 80202 10085 20065 40267 52011 71000 888//;
0146590460999992000022806004+24350+109400FM-12+009799999V0200701N002010120019N0300001N1+01161+00611102401ADDAA199000021GF108991081081008001999999KA1999N+00711MD1710261+9999REMSYN070AAXX  28061 59046 32580 80702 10116 20061 40240 57026 888// 333 20071;
0112590460999992000022809004+24350+109400FM-12+009799999V0200401N003010120019N0300001N1+01201+00611102321ADDGF108991081081008001999999MD1710081+9999REMSYN060AAXX  28091 59046 42580 80403 10120 20061 40232 57008 888//;
0123590460999992000022812004+24350+109400FM-12+009799999V0200401N002010120019N0250001N1+01081+00631102541ADDAA199000021GF108991081051012501999999MD1210211+9999REMSYN060AAXX  28121 59046 32675 80402 10108 20063 40254 52021 885//;
0165590460999992000022818004+24350+109400FM-12+009799999V0203401N002010210019N0200001N1+00911+00561102801ADDAA199000091GF107991071051022501001001KA1999M+01221MD1410001+9999REMSYN070AAXX  28181 59046 32870 73402 10091 20056 40280 54000 87500 333 10122;EQDQ01  00002PRCP99
0133590460999992000022821004+24350+109400FM-12+009799999V0200401N001010120019N0018001N1+00861+00501102711ADDAA124001091GF107991071081008001999999MD1710091+9999REMSYN070AAXX  28211 59046 42518 70401 10086 20050 40271 57009 878// 333 70009;
0152590460999992000022900004+24350+109400FM-12+009799999V0200401N002019999999N0170001N1+00851+00461102711ADDAA199000091GF107991071001999999031999MD1710011+0021REMSYN070AAXX  29001 59046 32967 70402 10085 20046 40271 57001 8703/ 333 00201;EQDQ01  00002PRCP99
0112590460999992000022903004+24350+109400FM-12+009799999V0203201N002010120019N0200001N1+01021+00491102831ADDGF108991081081008001999999MD1210121+9999REMSYN060AAXX  29031 59046 42570 83202 10102 20049 40283 52012 888//;
0172590460999992000022906004+24350+109400FM-12+009799999V0203401N002010120019N0250001N1+01041+00511102621ADDAA106000191AY161061GF108991081081008001999999KA1999N+00821MD1710201+9999MW1601REMSYN082AAXX  29061 59046 11575 83402 10104 20051 40262 57020 69911 76060 888// 333 20082;
0140590460999992000022909004+24350+109400FM-12+009799999V0200401N002010120019N0250001N1+01091+00521102401ADDAY161031AY261031GF108991081081008001999999MD1710221+9999MW1601REMSYN066AAXX  29091 59046 41575 80402 10109 20052 40240 57022 76066 888//;
0149590460999992000022912004+24350+109400FM-12+009799999V0209999C000010042019N0150001N1+00931+00701102581ADDAA106000591AY161061GF108991081051004501999999MD1210171+9999MW1601REMSYN072AAXX  29121 59046 11465 80000 10093 20070 40258 52017 69961 76060 885//;
0180590460999992000022918004+24350+109400FM-12+009799999V0200701N002010042019N0100001N1+00841+00761102601ADDAA106002091AY161061AY261061GF108991081051004501999999KA1999M+01111MD1710081+9999MW1601REMSYN082AAXX  29181 59046 11460 80702 10084 20076 40260 57008 60021 76066 885// 333 10111;
0161590460999992000022921004+24350+109400FM-12+009799999V0209999C000010042019N0050001N1+00841+00761102441ADDAA124002891AY161031AY261031GF108991081051004501999999MD1710151+9999MW1601REMSYN076AAXX  29211 59046 41450 80000 10084 20076 40244 57015 76066 885// 333 70029;
0173590460999992000030100004+24350+109400FM-12+009799999V0209999C000010042019N0040001N1+00841+00731102581ADDAA106000891AY161061AY261061GF108991081051004501999999MD1210131-0101MW1211REMSYN088AAXX  01001 59046 11440 80000 10084 20073 40258 52013 69971 72166 885// 333 05100 70034;
0132590460999992000030103004+24350+109400FM-12+009799999V0203401N002010042019N0040001N1+00961+00771102681ADDAY161031GF108991081051004501999999MD1210101+9999MW1601REMSYN066AAXX  01031 59046 41440 83402 10096 20077 40268 52010 76060 885//;
0172590460999992000030106004+24350+109400FM-12+009799999V0209999C000010042019N0050001N1+01011+00761102431ADDAA106001091AY161061GF108991081051004501999999KA1999N+00831MD1710241+9999MW1601REMSYN082AAXX  01061 59046 11450 80000 10101 20076 40243 57024 69991 76060 885// 333 20083;
0132590460999992000030109004+24350+109400FM-12+009799999V0202901N001010120019N0060001N1+01061+00731102261ADDAY161031GF108991081051012501999999MD1710171+9999MW1101REMSYN066AAXX  01091 59046 41656 82901 10106 20073 40226 57017 71060 885//;
0149590460999992000030112004+24350+109400FM-12+009799999V0202701N001010042019N0060001N1+01021+00771102271ADDAA106000191AY161061GF108991081051004501999999MD1210011+9999MW1601REMSYN072AAXX  01121 59046 11456 82701 10102 20077 40227 52001 69921 76060 885//;
0172590460999992000030118004+24350+109400FM-12+009799999V0209999C000010120019N0040001N1+00991+00831102251ADDAA106000791AY161061GF108991081051012501999999KA1999M+01091MD1710131+9999MW1101REMSYN082AAXX  01181 59046 11640 80000 10099 20083 40225 57013 69901 71060 885// 333 10109;
0145590460999992000030121004+24350+109400FM-12+009799999V0209999C000010120019N0040001N1+00991+00671102091ADDAA124001591GF108991081051012501999999MD1710161+9999MW1101REMSYN076AAXX  01211 59046 41640 80000 10099 20067 40209 57016 71000 885// 333 70016;
0165590460999992000030200004+24350+109400FM-12+009799999V0201401N001010120019N0040001N1+01021+00881102201ADDAA106000791AY161061GF107991071051012501999999MD1210111-0401MW1101REMSYN088AAXX  02001 59046 11640 71401 10102 20088 40220 52011 69901 71060 875// 333 05402 70011;
0124590460999992000030203004+24350+109400FM-12+009799999V0203201N001010120019N0040001N1+01121+00881102321ADDGF108991081051012501999999MD1210121+9999MW1601REMSYN066AAXX  02031 59046 41640 83201 10112 20088 40232 52012 76000 885//;
0172590460999992000030206004+24350+109400FM-12+009799999V0201601N001010120019N0060001N1+01201+00881102041ADDAA106000791AY161061GF108991081051012501999999KA1999N+00991MD1710271+9999MW1101REMSYN082AAXX  02061 59046 11656 81601 10120 20088 40204 57027 69901 71060 885// 333 20099;
0124590460999992000030209004+24350+109400FM-12+009799999V0200701N002010120019N0060001N1+01231+00931101871ADDGF108991081051012501999999MD1710171+9999MW1601REMSYN066AAXX  02091 59046 41656 80702 10123 20093 40187 57017 76000 885//;
0149590460999992000030212004+24350+109400FM-12+009799999V0200201N001010120019N0060001N1+01161+01001101931ADDAA106000791AY161061GF108991081051012501999999MD1210061+9999MW1101REMSYN072AAXX  02121 59046 11656 80201 10116 20100 40193 52006 69901 71060 885//;
0172590460999992000030218004+24350+109400FM-12+009799999V0209999C000010042019N0040001N1+01101+01061102011ADDAA106000391AY161061GF108991081051004501999999KA1999M+01301MD1410001+9999MW1601REMSYN082AAXX  02181 59046 11440 80000 10110 20106 40201 54000 69931 76060 885// 333 10130;
0161590460999992000030221004+24350+109400FM-12+009799999V0203201N001010042019N0030001N1+01091+01071101891ADDAA124000591AY161031AY261031GF108991081051004501999999MD1710121+9999MW1601REMSYN076AAXX  02211 59046 41430 83201 10109 20107 40189 57012 76066 885// 333 70006;
0172590460999992000030300004+24350+109400FM-12+009799999V0209999C000010042019N0015001N1+01091+01071101991ADDAA106000591AY161061AY261061GF108991081051004501999999MD1210101-0201MW1601REMSYN087AAXX  03001 59046 11415 80000 10109 2010740199 52010 69951 76066 885// 333 05201 70008;
0140590460999992000030303004+24350+109400FM-12+009799999V0203201N002010042019N0020001N1+01171+01131102071ADDAY161031AY261031GF108991081051004501999999MD1210081+9999MW1601REMSYN066AAXX  03031 59046 41420 83202 10117 20113 40207 52008 76066 885//;
0180590460999992000030306004+24350+109400FM-12+009799999V0202701N002010120019N0020001N1+01271+01211101781ADDAA106000191AY161061AY261061GF108991081051012501999999KA1999N+01091MD1710291+9999MW1601REMSYN082AAXX  03061 59046 11620 82702 10127 20121 40178 57029 69911 76066 885// 333 20109;
0140590460999992000030309004+24350+109400FM-12+009799999V0209999C000010120019N0015001N1+01301+01241101541ADDAY161031AY261031GF108991081051012501999999MD1710231+9999MW1601REMSYN066AAXX  03091 59046 41615 80000 10130 20124 40154 57023 76066 885//;
0157590460999992000030312004+24350+109400FM-12+009799999V0209999C000010120019N0020001N1+01291+01271101571ADDAA106000591AY161061AY261061GF108991081051012501999999MD1210031+9999MW1601REMSYN072AAXX  03121 59046 11620 80000 10129 20127 40157 52003 69941 76066 885//;
0180590460999992000030318004+24350+109400FM-12+009799999V0209999C000010120019N0020001N1+01301+01281101591ADDAA106001091AY161061AY261061GF108991081051012501999999KA1999M+01311MD1710111+9999MW1601REMSYN082AAXX  03181 59046 11620 80000 10130 20128 40159 57011 60011 76066 885// 333 10131;
0161590460999992000030321004+24350+109400FM-12+009799999V0203401N002010042019N0020001N1+01281+01241101491ADDAA124003391AY161031AY261031GF108991081051004501999999MD1710101+9999MW1601REMSYN076AAXX  03211 59046 41420 83402 10128 20124 40149 57010 76066 885// 333 70032;
0173590460999992000030400004+24350+109400FM-12+009799999V0203601N001010120019N0020001N1+01301+01261101631ADDAA106005191AY161061AY261061GF108991081051012501999999MD1210141-0401MW1601REMSYN088AAXX  04001 59046 11620 83601 10130 20126 40163 52014 60051 76066 885// 333 05402 70067;
0140590460999992000030403004+24350+109400FM-12+009799999V0209999C000010120019N0020001N1+01341+01301101781ADDAY161031AY261031GF108991081051012501999999MD1210151+9999MW1601REMSYN066AAXX  04031 59046 41620 80000 10134 20130 40178 52015 76066 885//;
0180590460999992000030406004+24350+109400FM-12+009799999V0203601N001010042019N0080001N1+01481+01301101501ADDAA106000591AY161061AY261061GF108991081051004501999999KA1999N+01281MD1710271+9999MW1601REMSYN082AAXX  04061 59046 11458 83601 10148 20130 40150 57027 69961 76066 885// 333 20128;
0132590460999992000030409004+24350+109400FM-12+009799999V0209999C000010120019N0060001N1+01591+01361101321ADDAY161031GF108991081051012501999999MD1710181+9999MW1101REMSYN066AAXX  04091 59046 41656 80000 10159 20136 40132 57018 71060 885//;
0149590460999992000030412004+24350+109400FM-12+009799999V0203201N001010120019N0070001N1+01501+01381101411ADDAA106000791AY161061GF108991081051012501999999MD1210091+9999MW1101REMSYN072AAXX  04121 59046 11657 83201 10150 20138 40141 52009 69901 71060 885//;
0164590460999992000030418004+24350+109400FM-12+009799999V0203201N001010120019N0120001N1+01471+01351101541ADDAA106000791GF108991081051012501999999KA1999M+01591MD1410001+9999MW1601REMSYN082AAXX  04181 59046 11662 83201 10147 20135 40154 54000 69901 76000 885// 333 10159;
0153590460999992000030421004+24350+109400FM-12+009799999V0203201N002010120019N0120001N1+01441+01061101441ADDAA124004391AY161031GF108991081051012501999999MD1710101+9999MW1211REMSYN076AAXX  04211 59046 41662 83202 10144 20106 40144 57010 72160 885// 333 70043;
0165590460999992000030500004+24350+109400FM-12+009799999V0203401N002010120019N0120001N1+01381+01081101651ADDAA106000191AY161061GF108991081051012501999999MD1210211+0001MW1601REMSYN088AAXX  05001 59046 11662 83402 10138 20108 40165 52021 69911 76060 885// 333 00001 70007;
0132590460999992000030503004+24350+109400FM-12+009799999V0200201N001010120019N0150001N1+01521+01091101741ADDAY161031GF108991081081008001999999MD1210091+9999MW1001REMSYN066AAXX  05031 59046 41565 80201 10152 20109 40174 52009 70060 888//;
0172590460999992000030506004+24350+109400FM-12+009799999V0202901N002010120019N0150001N1+01791+01181101431ADDAA106000791AY161061GF107991071081008001999999KA1999N+01371MD1710301+9999MW1001REMSYN082AAXX  05061 59046 11565 72902 10179 20118 40143 57030 69901 70060 878// 333 20137;
0112590460999992000030509004+24350+109400FM-12+009799999V0200701N001010120019N0150001N1+01841+01251101211ADDGF108991081081008001999999MD1710221+9999REMSYN060AAXX  05091 59046 42565 80701 10184 20125 40121 57022 888//;
0123590460999992000030512004+24350+109400FM-12+009799999V0203401N001010150019N0200001N1+01741+01281101321ADDAA199000021GF108991081051017501999999MD1210101+9999REMSYN060AAXX  05121 59046 32770 83401 10174 20128 40132 52010 885//;
0165590460999992000030518004+24350+109400FM-12+009799999V0203201N001010120019N0150001N1+01541+01211101491ADDAA199000091GF108991081051012501999999KA1999M+01851MD1710041+9999REMSYN070AAXX  05181 59046 32665 83201 10154 20121 40149 57004 885// 333 10185;EQDQ01  00002PRCP99
0133590460999992000030521004+24350+109400FM-12+009799999V0203601N001010120019N0120001N1+01501+01131101391ADDAA124000191GF108991081051012501999999MD1710101+9999REMSYN070AAXX  05211 59046 42662 83601 10150 20113 40139 57010 885// 333 70001;
0151590460999992000030600004+24350+109400FM-12+009799999V0200401N001010120019N0070001N1+01461+01081101541ADDAA124000791GF108991081081008001999999MD1210141-0101MW1101REMSYN082AAXX  06001 59046 31557 80401 10146 20108 40154 52014 71000 888// 333 05101 79999;
0112590460999992000030603004+24350+109400FM-12+009799999V0200201N002010120019N0100001N1+01661+01131101691ADDGF108991081081008001999999MD1210151+9999REMSYN060AAXX  06031 59046 42560 80202 10166 20113 40169 52015 888//;
0165590460999992000030606004+24350+109400FM-12+009799999V0202901N002010120019N0120001N1+01771+01171101451ADDAA199000091GF107991071081008001999999KA1999N+01461MD1710231+9999REMSYN070AAXX  06061 59046 32562 72902 10177 20117 40145 57023 878// 333 20146;EQDQ01  00002PRCP99
0112590460999992000030609004+24350+109400FM-12+009799999V0200201N002010120019N0150001N1+01761+01121101271ADDGF108991081081008001999999MD1710181+9999REMSYN060AAXX  06091 59046 42565 80202 10176 20112 40127 57018 888//;
0142590460999992000030612004+24350+109400FM-12+009799999V0200201N001010120019N0120001N1+01601+01141101451ADDAA199000091GF108991081051012501999999MD1210171+9999REMSYN060AAXX  06121 59046 32662 80201 10160 20114 40145 52017 885//;EQDQ01  00002PRCP99
0165590460999992000030618004+24350+109400FM-12+009799999V0209999C000010120019N0100001N1+01481+01151101691ADDAA199000091GF108991081051012501999999KA1999M+01821MD1210051+9999REMSYN070AAXX  06181 59046 32660 80000 10148 20115 40169 52005 885// 333 10182;EQDQ01  00002PRCP99
0124590460999992000030621004+24350+109400FM-12+009799999V0203201N001010120019N0080001N1+01441+01141101541ADDGF108991081051012501999999MD1710151+9999MW1101REMSYN066AAXX  06211 59046 41658 83201 10144 20114 40154 57015 71000 885//;
0152590460999992000030700004+24350+109400FM-12+009799999V0203401N001010120019N0110001N1+01431+01111101641ADDAA199000091GF108991081051012501999999MD1210101+0011REMSYN070AAXX  07001 59046 32661 83401 10143 20111 40164 52010 885// 333 00100;EQDQ01  00002PRCP99
0112590460999992000030703004+24350+109400FM-12+009799999V0203401N002010120019N0110001N1+01501+01171101791ADDGF108991081051012501999999MD1210151+9999REMSYN060AAXX  07031 59046 42661 83402 10150 20117 40179 52015 885//;
0177590460999992000030706004+24350+109400FM-12+009799999V0203401N001010120019N0080001N1+01461+01221101621ADDAA199000091GF108991081051012501999999KA1999N+01431MD1710171+9999MW1101REMSYN076AAXX  07061 59046 31658 83401 10146 20122 40162 57017 71000 885// 333 20143;EQDQ01  00002PRCP99
0132590460999992000030709004+24350+109400FM-12+009799999V0203401N002010120019N0070001N1+01421+01281101551ADDAY161031GF108991081051012501999999MD1710071+9999MW1601REMSYN066AAXX  07091 59046 41657 83402 10142 20128 40155 57007 76060 885//;
0149590460999992000030712004+24350+109400FM-12+009799999V0209999C000010120019N0080001N1+01431+01211101671ADDAA106000791AY161061GF108991081051012501999999MD1210121+9999MW1101REMSYN072AAXX  07121 59046 11658 80000 10143 20121 40167 52012 69901 71060 885//;
0158590460999992000030718004+24350+109400FM-12+009799999V0203401N001010120019N0080001N1+01421+01041101761ADDAA199000021GF108991081051012501999999KA1999M+01521MD1710071+9999MW1101REMSYN076AAXX  07181 59046 31658 83401 10142 20104 40176 57007 71000 885// 333 10152;
0153590460999992000030721004+24350+109400FM-12+009799999V0203401N002010042019N0060001N1+01231+01141101741ADDAA124001091AY161031GF108991081051004501999999MD1710021+9999MW1601REMSYN076AAXX  07211 59046 41456 83402 10123 20114 40174 57002 76060 885// 333 70011;
0165590460999992000030800004+24350+109400FM-12+009799999V0203401N002010042019N0060001N1+01181+01101101911ADDAA106002091AY161061GF108991081071004501999999MD1210171+0301MW1601REMSYN088AAXX  08001 59046 11456 83402 10118 20110 40191 52017 60021 76060 887// 333 00353 70017;
0180590460999992000030806004+24350+109400FM-12+009799999V0203601N002010042019N0030001N1+01181+01121101801ADDAA106003091AY161061AY261061GF108991081071004501999999KA1999N+01181MD1710231+9999MW1601REMSYN082AAXX  08061 59046 11430 83602 10118 20112 40180 57023 60031 76066 887// 333 20118;
0140590460999992000030809004+24350+109400FM-12+009799999V0203401N002010042019N0030001N1+01151+01091101611ADDAY161031AY261031GF108991081071004501999999MD1710191+9999MW1601REMSYN066AAXX  08091 59046 41430 83402 10115 20109 40161 57019 76066 887//;
0157590460999992000030812004+24350+109400FM-12+009799999V0200201N001010042019N0030001N1+01081+01041101781ADDAA106001091AY161061AY261061GF108991081071004501999999MD1210161+9999MW1601REMSYN072AAXX  08121 59046 11430 80201 10108 20104 40178 52016 60011 76066 887//;
0180590460999992000030818004+24350+109400FM-12+009799999V0203201N003010042019N0030001N1+01031+00991101921ADDAA106001091AY161061AY261061GF108991081071004501999999KA1999M+01421MD1710021+9999MW1601REMSYN082AAXX  08181 59046 11430 83203 10103 20099 40192 57002 60011 76066 887// 333 10142;
0161590460999992000030821004+24350+109400FM-12+009799999V0203601N002010042019N0030001N1+01011+00991101831ADDAA124007691AY161031AY261031GF108991081071004501999999MD1710091+9999MW1601REMSYN076AAXX  08211 59046 41430 83602 10101 20099 40183 57009 76066 887// 333 70075;
0173590460999992000030900004+24350+109400FM-12+009799999V0203401N003010042019N0040001N1+01001+00941102021ADDAA106002091AY161061AY261061GF108991081071004501999999MD1210191+0101MW1601REMSYN088AAXX  09001 59046 11440 83403 10100 20094 40202 52019 60021 76066 887// 333 00152 70075;
0140590460999992000030903004+24350+109400FM-12+009799999V0203201N001010042019N0040001N1+01021+00981102201ADDAY161031AY261031GF108991081071004501999999MD1210171+9999MW1601REMSYN066AAXX  09031 59046 41440 83201 10102 20098 40220 52017 76066 887//;
0180590460999992000030906004+24350+109400FM-12+009799999V0203401N002010042019N0040001N1+01021+00981102021ADDAA106001091AY161061AY261061GF108991081071004501999999KA1999N+01001MD1710181+9999MW1601REMSYN082AAXX  09061 59046 11440 83402 10102 20098 40202 57018 60011 76066 887// 333 20100;
0157590460999992000030912004+24350+109400FM-12+009799999V0200401N001010042019N0030001N1+00971+00931101931ADDAA106001091AY161061AY261061GF108991081071004501999999MD1210021+9999MW1601REMSYN072AAXX  09121 59046 11430 80401 10097 20093 40193 52002 60011 76066 887//;
0180590460999992000030918004+24350+109400FM-12+009799999V0203401N002010042019N0040001N1+00931+00871101831ADDAA106002091AY161061AY261061GF108991081071004501999999KA1999M+01051MD1710111+9999MW1601REMSYN082AAXX  09181 59046 11440 83402 10093 20087 40183 57011 60021 76066 887// 333 10105;
0161590460999992000030921004+24350+109400FM-12+009799999V0203201N002010042019N0040001N1+00911+00891101671ADDAA124005691AY161031AY261031GF108991081071004501999999MD1710151+9999MW1601REMSYN076AAXX  09211 59046 41440 83202 10091 20089 40167 57015 76066 887// 333 70056;
0173590460999992000031000004+24350+109400FM-12+009799999V0202901N002010042019N0040001N1+00941+00901101811ADDAA106006191AY161061AY261061GF108991081071004501999999MD1210131-0201MW1601REMSYN088AAXX  10001 59046 11440 82902 10094 20090 40181 52013 60061 76066 887// 333 05251 70100;
0140590460999992000031003004+24350+109400FM-12+009799999V0203401N003010042019N0030001N1+00961+00881102041ADDAY161031AY261031GF108991081071004501999999MD1210231+9999MW1601REMSYN066AAXX  10031 59046 41430 83403 10096 20088 40204 52023 76066 887//;
0180590460999992000031006004+24350+109400FM-12+009799999V0203401N002010042019N0040001N1+01001+00941101841ADDAA106001091AY161061AY261061GF108991081071004501999999KA1999N+00911MD1710201+9999MW1601REMSYN082AAXX  10061 59046 11440 83402 10100 20094 40184 57020 69991 76066 887// 333 20091;
0140590460999992000031009004+24350+109400FM-12+009799999V0203401N002010042019N0060001N1+01021+00921101611ADDAY161031AY261031GF108991081071004501999999MD1710221+9999MW1601REMSYN066AAXX  10091 59046 41456 83402 10102 20092 40161 57022 76066 887//;
0157590460999992000031012004+24350+109400FM-12+009799999V0203201N004010042019N0030001N1+00951+00891101651ADDAA106000591AY161061AY261061GF108991081071004501999999MD1210041+9999MW1601REMSYN072AAXX  10121 59046 11430 83204 10095 20089 40165 52004 69961 76066 887//;
0172590460999992000031018004+24350+109400FM-12+009799999V0202901N002010042019N0040001N1+00901+00861101581ADDAA106001091AY161061GF108991081071004501999999KA1999M+01041MD1710161+9999MW1601REMSYN082AAXX  10181 59046 11440 82902 10090 20086 40158 57016 60011 76060 887// 333 10104;
0161590460999992000031021004+24350+109400FM-12+009799999V0200201N002010042019N0040001N1+00881+00841101581ADDAA124011991AY161031AY261031GF108991081071004501999999MD1410001+9999MW1601REMSYN076AAXX  10211 59046 41440 80202 10088 20084 40158 54000 76066 887// 333 70119;
0173590460999992000031100004+24350+109400FM-12+009799999V0203401N002010042019N0040001N1+00901+00841101801ADDAA106017091AY161061AY261061GF108991081071004501999999MD1210211+0001MW1601REMSYN088AAXX  11001 59046 11440 83402 10090 20084 40180 52021 60171 76066 887// 333 00000 70191;
0132590460999992000031103004+24350+109400FM-12+009799999V0203601N002010120019N0200001N1+01071+00801101891ADDAY161031GF108991081081008001999999MD1210091+9999MW1001REMSYN066AAXX  11031 59046 41570 83602 10107 20080 40189 52009 70060 888//;
0172590460999992000031106004+24350+109400FM-12+009799999V0203201N002010120019N0300001N1+01301+00801101591ADDAA106000191AY161061GF108991081081008001999999KA1999N+00871MD1710291+9999MW1001REMSYN082AAXX  11061 59046 11580 83202 10130 20080 40159 57029 69921 70060 888// 333 20087;
0112590460999992000031109004+24350+109400FM-12+009799999V0200401N002010360019N0300001N1+01411+00881101431ADDGF108991011011008001071999MD1710151+9999REMSYN060AAXX  11091 59046 42580 80402 10141 20088 40143 57015 8117/;
0149590460999992000031112004+24350+109400FM-12+009799999V0203201N001010120019N0300001N1+01261+00771101581ADDAA106000191AY161061GF108991081081008001999999MD1210141+9999MW1601REMSYN072AAXX  11121 59046 11580 83201 10126 20077 40158 52014 69911 76060 888//;
0172590460999992000031118004+24350+109400FM-12+009799999V0203201N002010120019N0250001N1+01141+00731101561ADDAA106000791AY161061GF108991081051012501999999KA1999M+01421MD1710041+9999MW1001REMSYN082AAXX  11181 59046 11675 83202 10114 20073 40156 57004 69901 70060 885// 333 10142;
0161590460999992000031121004+24350+109400FM-12+009799999V0203201N002010042019N0060001N1+01001+00881101541ADDAA124022691AY191031AY281031GF108991081091004501999999MD1710021+9999MW1801REMSYN076AAXX  11211 59046 41456 83202 10100 20088 40154 57002 78098 889// 333 70225;
0173590460999992000031200004+24350+109400FM-12+009799999V0209999C000010150019N0060001N1+01031+00831101601ADDAA106014091AY191061AY281061GF107991071051017501999999MD1210051-0201MW1101REMSYN088AAXX  12001 59046 11756 70000 10103 20083 40160 52005 60141 71098 875// 333 05201 70142;
0124590460999992000031203004+24350+109400FM-12+009799999V0203601N002010120019N0060001N1+01211+00871101621ADDGF108991081081008001999999MD1210031+9999MW1101REMSYN066AAXX  12031 59046 41556 83602 10121 20087 40162 52003 71000 888//;
0146590460999992000031206004+24350+109400FM-12+009799999V0203601N001010120019N0250001N1+01301+00891101401ADDAA199000021GF108991081081008001999999KA1999N+00981MD1710221+9999REMSYN070AAXX  12061 59046 32575 83601 10130 20089 40140 57022 888// 333 20098;
0112590460999992000031209004+24350+109400FM-12+009799999V0200401N001010120019N0200001N1+01381+00911101241ADDGF108991081081008001999999MD1710161+9999REMSYN060AAXX  12091 59046 42570 80401 10138 20091 40124 57016 888//;
0142590460999992000031212004+24350+109400FM-12+009799999V0209999C000010150019N0200001N1+01321+01011101311ADDAA199000091GF107991071051017501999999MD1210071+9999REMSYN060AAXX  12121 59046 32770 70000 10132 20101 40131 52007 875//;EQDQ01  00002PRCP99
0165590460999992000031218004+24350+109400FM-12+009799999V0203601N001010120019N0150001N1+01231+01001101471ADDAA199000091GF108991081051012501999999KA1999M+01381MD1710011+9999REMSYN070AAXX  12181 59046 32665 83601 10123 20100 40147 57001 885// 333 10138;EQDQ01  00002PRCP99
0145590460999992000031221004+24350+109400FM-12+009799999V0203201N001010120019N0080001N1+01231+01081101491ADDAA124003891GF108991081051012501999999MD1210021+9999MW1101REMSYN076AAXX  12211 59046 41658 83201 10123 20108 40149 52002 71000 885// 333 70039;
0152590460999992000031300004+24350+109400FM-12+009799999V0209999C000010150019N0100001N1+01281+01091101651ADDAA199000091GF107991071051017501999999MD1210161+0011REMSYN070AAXX  13001 59046 32760 70000 10128 20109 40165 52016 875// 333 00103;EQDQ01  00002PRCP99
0112590460999992000031303004+24350+109400FM-12+009799999V0203201N001010150019N0150001N1+01541+00971101701ADDGF108991081051017501999999MD1210051+9999REMSYN060AAXX  13031 59046 42765 83201 10154 20097 40170 52005 885//;
0165590460999992000031306004+24350+109400FM-12+009799999V0202701N002010150019N0130001N1+01761+01031101391ADDAA199000091GF107991071051017501999999KA1999N+01201MD1710301+9999REMSYN070AAXX  13061 59046 32763 72702 10176 20103 40139 57030 875// 333 20120;EQDQ01  00002PRCP99
0124590460999992000031309004+24350+109400FM-12+009799999V0202201N002010120019N0080001N1+01841+01151101181ADDGF108991081081008001999999MD1710201+9999MW1041REMSYN066AAXX  13091 59046 41558 82202 10184 20115 40118 57020 70400 888//;
0154590460999992000031312004+24350+109400FM-12+009799999V0209999C000010150019N0080001N1+01721+01291101301ADDAA199000091GF108991081051017501999999MD1210111+9999MW1101REMSYN066AAXX  13121 59046 31758 80000 10172 20129 40130 52011 71000 885//;EQDQ01  00002PRCP99
0177590460999992000031318004+24350+109400FM-12+009799999V0200401N002010150019N0060001N1+01581+01331101471ADDAA199000091GF108991081051017501999999KA1999M+01871MD1710051+9999MW1101REMSYN076AAXX  13181 59046 31756 80402 10158 20133 40147 57005 71000 885// 333 10187;EQDQ01  00002PRCP99
0153590460999992000031321004+24350+109400FM-12+009799999V0203201N001010120019N0050001N1+01561+01351101421ADDAA124000791AY161031GF108991081051012501999999MD1710051+9999MW1211REMSYN076AAXX  13211 59046 41650 83201 10156 20135 40142 57005 72160 885// 333 79999;
0165590460999992000031400004+24350+109400FM-12+009799999V0209999C000010120019N0030001N1+01541+01401101581ADDAA106000791AY161061GF108991081051012501999999MD1210151-0101MW1601REMSYN088AAXX  14001 59046 11630 80000 10154 20140 40158 52015 69901 76060 885// 333 05103 79999;
0132590460999992000031403004+24350+109400FM-12+009799999V0209999C000010120019N0030001N1+01681+01331101591ADDAY161031GF108991081051012501999999MD1210021+9999MW1601REMSYN066AAXX  14031 59046 41630 80000 10168 20133 40159 52002 76060 885//;
0172590460999992000031406004+24350+109400FM-12+009799999V0200401N002010120019N0060001N1+01761+01341101301ADDAA106000791AY161061GF108991081051012501999999KA1999N+01521MD1710291+9999MW1101REMSYN082AAXX  14061 59046 11656 80402 10176 20134 40130 57029 69901 71060 885// 333 20152;
0132590460999992000031409004+24350+109400FM-12+009799999V0209999C000010120019N0060001N1+01731+01441101091ADDAY161031GF108991081051012501999999MD1710211+9999MW1601REMSYN066AAXX  14091 59046 41656 80000 10173 20144 40109 57021 76060 885//;
0149590460999992000031412004+24350+109400FM-12+009799999V0200701N002010120019N0060001N1+01611+01331101211ADDAA106000791AY161061GF108991081051012501999999MD1210121+9999MW1601REMSYN072AAXX  14121 59046 11656 80702 10161 20133 40121 52012 69901 76060 885//;
0180590460999992000031418004+24350+109400FM-12+009799999V0202901N001010120019N0050001N1+01501+01411101231ADDAA106000791AY161061AY261061GF108991081051012501999999KA1999M+01781MD1710091+9999MW1601REMSYN082AAXX  14181 59046 11650 82901 10150 20141 40123 57009 69901 76066 885// 333 10178;
0161590460999992000031421004+24350+109400FM-12+009799999V0209999C000010120019N0050001N1+01471+01421101091ADDAA124000391AY161031AY261031GF108991081051012501999999MD1710141+9999MW1601REMSYN076AAXX  14211 59046 41650 80000 10147 20142 40109 57014 76066 885// 333 70002;
0173590460999992000031500004+24350+109400FM-12+009799999V0209999C000010120019N0030001N1+01481+01451101181ADDAA106000591AY161061AY261061GF108991081051012501999999MD1210091-0401MW1601REMSYN088AAXX  15001 59046 11630 80000 10148 20145 40118 52009 69941 76066 885// 333 05451 70004;
0132590460999992000031503004+24350+109400FM-12+009799999V0209999C000010120019N0030001N1+01531+01481101271ADDAY161031GF108991081051012501999999MD1210081+9999MW1601REMSYN066AAXX  15031 59046 41630 80000 10153 20148 40127 52008 76060 885//;
0172590460999992000031506004+24350+109400FM-12+009799999V0209999C000010120019N0030001N1+01661+01581101021ADDAA106000791AY161061GF108991081051012501999999KA1999N+01441MD1710241+9999MW1101REMSYN082AAXX  15061 59046 11630 80000 10166 20158 40102 57024 69901 71060 885// 333 20144;
0124590460999992000031509004+24350+109400FM-12+009799999V0203401N002010120019N0080001N1+01721+01521101051ADDGF108991081051012501999999MD1210031+9999MW1101REMSYN066AAXX  15091 59046 41658 83402 10172 20152 40105 52003 71000 885//;
0123590460999992000031512004+24350+109400FM-12+009799999V0203401N001010120019N0120001N1+01641+01131101261ADDAA199000021GF108991081051012501999999MD1210211+9999REMSYN060AAXX  15121 59046 32662 83401 10164 20113 40126 52021 885//;
0172590460999992000031518004+24350+109400FM-12+009799999V0203601N001010120019N0150001N1+01531+00981101371ADDAA106000791AY161061GF108991081051012501999999KA1999M+01861MD1710051+9999MW1601REMSYN082AAXX  15181 59046 11665 83601 10153 20098 40137 57005 69901 76060 885// 333 10186;
0153590460999992000031521004+24350+109400FM-12+009799999V0209999C000010120019N0120001N1+01481+00961101391ADDAA124000391AY161031GF108991081051012501999999MD1210021+9999MW1001REMSYN076AAXX  15211 59046 41662 80000 10148 20096 40139 52002 70060 885// 333 70002;
0165590460999992000031600004+24350+109400FM-12+009799999V0200401N002010120019N0140001N1+01441+01041101561ADDAA106000791AY161061GF108991081051012501999999MD1210161+0401MW1001REMSYN088AAXX  16001 59046 11664 80402 10144 20104 40156 52016 69901 70060 885// 333 00400 79999;
0112590460999992000031603004+24350+109400FM-12+009799999V0203201N002010150019N0200001N1+01451+00971101761ADDGF108991081051017501999999MD1210201+9999REMSYN060AAXX  16031 59046 42770 83202 10145 20097 40176 52020 885//;
0172590460999992000031606004+24350+109400FM-12+009799999V0203401N002010150019N0180001N1+01501+01011101601ADDAA106000791AY161061GF108991081051017501999999KA1999N+01411MD1710161+9999MW1211REMSYN082AAXX  16061 59046 11768 83402 10150 20101 40160 57016 69901 72160 885// 333 20141;
0112590460999992000031609004+24350+109400FM-12+009799999V0203601N002010150019N0250001N1+01481+00901101431ADDGF108991081051017501999999MD1710171+9999REMSYN060AAXX  16091 59046 42775 83602 10148 20090 40143 57017 885//;
0123590460999992000031612004+24350+109400FM-12+009799999V0209999C000010150019N0180001N1+01401+00891101511ADDAA199000021GF108991081051017501999999MD1210081+9999REMSYN060AAXX  16121 59046 32768 80000 10140 20089 40151 52008 885//;
0146590460999992000031618004+24350+109400FM-12+009799999V0200401N001010150019N0180001N1+01331+00881101531ADDAA199000021GF108991081051017501999999KA1999M+01531MD1710091+9999REMSYN070AAXX  16181 59046 32768 80401 10133 20088 40153 57009 885// 333 10153;
0153590460999992000031621004+24350+109400FM-12+009799999V0200401N001010150019N0150001N1+01301+00951101451ADDAA124000791AY161031GF108991081051017501999999MD1710081+9999MW1001REMSYN076AAXX  16211 59046 41765 80401 10130 20095 40145 57008 70060 885// 333 79999;
0165590460999992000031700004+24350+109400FM-12+009799999V0200401N001010120019N0040001N1+01241+00971101511ADDAA106000791AY161061GF108991081051012501999999MD1210051-0101MW1601REMSYN088AAXX  17001 59046 11640 80401 10124 20097 40151 52005 69901 76060 885// 333 05152 79999;
0132590460999992000031703004+24350+109400FM-12+009799999V0209999C000010120019N0030001N1+01251+01121101551ADDAY161031GF108991081051012501999999MD1210041+9999MW1601REMSYN066AAXX  17031 59046 41630 80000 10125 20112 40155 52004 76060 885//;
0172590460999992000031706004+24350+109400FM-12+009799999V0209999C000010042019N0020001N1+01251+01181101331ADDAA106000191AY161061GF108991081051004501999999KA1999N+01231MD1710221+9999MW1601REMSYN082AAXX  17061 59046 11420 80000 10125 20118 40133 57022 69911 76060 885// 333 20123;
0140590460999992000031709004+24350+109400FM-12+009799999V0209999C000010042019N0020001N1+01261+01201101131ADDAY161031AY261031GF108991081051004501999999MD1710191+9999MW1601REMSYN066AAXX  17091 59046 41420 80000 10126 20120 40113 57019 76066 885//;
0157590460999992000031712004+24350+109400FM-12+009799999V0209999C000010042019N0020001N1+01241+01201101171ADDAA106000891AY161061AY261061GF108991081051004501999999MD1210031+9999MW1601REMSYN072AAXX  17121 59046 11420 80000 10124 20120 40117 52003 69971 76066 885//;
0180590460999992000031718004+24350+109400FM-12+009799999V0209999C000010042019N0020001N1+01261+01221101271ADDAA106002091AY161061AY261061GF108991081051004501999999KA1999M+01371MD1710031+9999MW1601REMSYN082AAXX  17181 59046 11420 80000 10126 20122 40127 57003 60021 76066 885// 333 10137;
0161590460999992000031721004+24350+109400FM-12+009799999V0209999C000010042019N0020001N1+01281+01251101281ADDAA124002891AY161031AY261031GF108991081071004501999999MD1210011+9999MW1601REMSYN076AAXX  17211 59046 41420 80000 10128 20125 40128 52001 76066 887// 333 70029;
0173590460999992000031800004+24350+109400FM-12+009799999V0203601N001010042019N0020001N1+01281+01261101461ADDAA106001091AY161061AY261061GF108991081071004501999999MD1210191-0101MW1601REMSYN088AAXX  18001 59046 11420 83601 10128 20126 40146 52019 60011 76066 887// 333 05100 70034;
0140590460999992000031803004+24350+109400FM-12+009799999V0203601N001010042019N0060001N1+01381+01271101611ADDAY161031AY261031GF108991081071004501999999MD1210151+9999MW1601REMSYN066AAXX  18031 59046 41456 83601 10138 20127 40161 52015 76066 887//;
0132590460999992000031809004+24350+109400FM-12+009799999V0209999C000010090019N0150001N1+01501+01281101241ADDAY161031GF108991081081004501999999MD1710151+9999MW1601REMSYN066AAXX  18091 59046 41465 80000 10150 20128 40124 57015 76060 888//;
0149590460999992000031812004+24350+109400FM-12+009799999V0209999C000010120019N0080001N1+01461+01341101321ADDAA106000191AY161061GF108991081051012501999999MD1210081+9999MW1601REMSYN072AAXX  18121 59046 11658 80000 10146 20134 40132 52008 69911 76060 885//;
0172590460999992000031818004+24350+109400FM-12+009799999V0209999C000010120019N0080001N1+01421+01291101471ADDAA106000791AY161061GF108991081051012501999999KA1999M+01501MD1710031+9999MW1101REMSYN082AAXX  18181 59046 11658 80000 10142 20129 40147 57003 69901 71060 885// 333 10150;
0153590460999992000031821004+24350+109400FM-12+009799999V0209999C000010120019N0080001N1+01411+01301101451ADDAA124001391AY161031GF108991081051012501999999MD1710021+9999MW1211REMSYN076AAXX  18211 59046 41658 80000 10141 20130 40145 57002 72160 885// 333 70013;
0165590460999992000031900004+24350+109400FM-12+009799999V0209999C000010120019N0060001N1+01441+01311101551ADDAA106000791AY161061GF108991081051012501999999MD1210101+0101MW1101REMSYN088AAXX  19001 59046 11656 80000 10144 20131 40155 52010 69901 71060 885// 333 00102 70008;
0124590460999992000031903004+24350+109400FM-12+009799999V0209999C000010120019N0060001N1+01631+01351101691ADDGF108991081051012501999999MD1210141+9999MW1101REMSYN066AAXX  19031 59046 41656 80000 10163 20135 40169 52014 71000 885//;
0172590460999992000031906004+24350+109400FM-12+009799999V0202901N001010120019N0200001N1+01741+01391101431ADDAA106000791AY161061GF108991081081008001999999KA1999N+01411MD1710261+9999MW1001REMSYN082AAXX  19061 59046 11570 82901 10174 20139 40143 57026 69901 70060 888// 333 20141;
0112590460999992000031909004+24350+109400FM-12+009799999V0200701N001010120019N0200001N1+01781+01321101201ADDGF108991081051012501999999MD1710221+9999REMSYN060AAXX  19091 59046 42670 80701 10178 20132 40120 57022 885//;
0142590460999992000031912004+24350+109400FM-12+009799999V0200701N001010120019N0200001N1+01681+01381101261ADDAA199000091GF108991081051012501999999MD1210061+9999REMSYN060AAXX  19121 59046 32670 80701 10168 20138 40126 52006 885//;EQDQ01  00002PRCP99
0172590460999992000031918004+24350+109400FM-12+009799999V0200701N001010120019N0060001N1+01551+01481101331ADDAA106000191AY161061GF108991081051012501999999KA1999M+01811MD1710101+9999MW1601REMSYN082AAXX  19181 59046 11656 80701 10155 20148 40133 57010 69911 76060 885// 333 10181;
0161590460999992000031921004+24350+109400FM-12+009799999V0202901N001010075019N0040001N1+01531+01481101251ADDAA124000191AY161031AY261031GF108991081051008001999999MD1710081+9999MW1601REMSYN076AAXX  19211 59046 41540 82901 10153 20148 40125 57008 76066 885// 333 70001;
0173590460999992000032000004+24350+109400FM-12+009799999V0209999C000010120019N0015001N1+01531+01501101341ADDAA106000191AY161061AY261061GF108991081051012501999999MD1210091-0201MW1601REMSYN088AAXX  20001 59046 11615 80000 10153 20150 40134 52009 69911 76066 885// 333 05201 70002;
0140590460999992000032003004+24350+109400FM-12+009799999V0209999C000010120019N0020001N1+01601+01531101431ADDAY161031AY261031GF108991081051012501999999MD1210091+9999MW1601REMSYN066AAXX  20031 59046 41620 80000 10160 20153 40143 52009 76066 885//;
0180590460999992000032006004+24350+109400FM-12+009799999V0209999C000010120019N0020001N1+01741+01621101161ADDAA106000791AY161061AY261061GF108991081051012501999999KA1999N+01511MD1710271+9999MW1211REMSYN082AAXX  20061 59046 11620 80000 10174 20162 40116 57027 69901 72166 885// 333 20151;
0124590460999992000032009004+24350+109400FM-12+009799999V0209999C000010120019N0020001N1+01881+01721100921ADDGF108991081051012501999999MD1710231+9999MW1101REMSYN066AAXX  20091 59046 41620 80000 10188 20172 40092 57023 71000 885//;
0141590460999992000032012004+24350+109400FM-12+009799999V0209999C000010120019N0030001N1+01921+01791101031ADDAA106000791GF108991081051012501999999MD1210101+9999MW1601REMSYN072AAXX  20121 59046 11630 80000 10192 20179 40103 52010 69901 76000 885//;
0172590460999992000032018004+24350+109400FM-12+009799999V0201601N002010120019N0030001N1+02011+01871101211ADDAA106000791AY161061GF108991081051012501999999KA1999M+02021MD1210041+9999MW1101REMSYN082AAXX  20181 59046 11630 81602 10201 20187 40121 52004 69901 71060 885// 333 10202;
0145590460999992000032021004+24350+109400FM-12+009799999V0201801N002010120019N0050001N1+02081+01881101171ADDAA124000191GF108991081051012501999999MD1710041+9999MW1101REMSYN076AAXX  20211 59046 41650 81802 10208 20188 40117 57004 71000 885// 333 70001;
0165590460999992000032100004+24350+109400FM-12+009799999V0201601N001010120019N0080001N1+02061+01891101291ADDAA106000791AY161061GF108991081051012501999999MD1210121+0001MW1101REMSYN088AAXX  21001 59046 11658 81601 10206 20189 40129 52012 69901 71060 885// 333 00005 79999;
0112590460999992000032103004+24350+109400FM-12+009799999V0209999C000010120019N0150001N1+02311+01971101381ADDGF107991071081008001999999MD1210091+9999REMSYN060AAXX  21031 59046 42565 70000 10231 20197 40138 52009 878//;
0165590460999992000032106004+24350+109400FM-12+009799999V0201401N003010120019N0110001N1+02571+02021101121ADDAA199000091GF107991071081008001999999KA1999N+01731MD1710241+9999REMSYN070AAXX  21061 59046 32561 71403 10257 20202 40112 57024 878// 333 20173;EQDQ01  00002PRCP99
0112590460999992000032109004+24350+109400FM-12+009799999V0202001N002012200019N0150001N1+02741+02021100881ADDGF102991021011008001001001MD1710241+9999REMSYN060AAXX  21091 59046 42565 22002 10274 20202 40088 57024 82100;
0142590460999992000032112004+24350+109400FM-12+009799999V0201801N003010120019N0150001N1+02511+02061101011ADDAA199000091GF107991071081008001999999MD1210131+9999REMSYN060AAXX  21121 59046 32565 71803 10251 20206 40101 52013 878//;EQDQ01  00002PRCP99
0164590460999992000032118004+24350+109400FM-12+009799999V0202001N002010120019N0080001N1+02311+01991101221ADDAA106000791GF108991081051012501999999KA1999M+02781MD1710011+9999MW1601REMSYN082AAXX  21181 59046 11658 82002 10231 20199 40122 57001 69901 76000 885// 333 10278;
0153590460999992000032121004+24350+109400FM-12+009799999V0201601N001010120019N0080001N1+02211+01981101181ADDAA124000191AY161031GF108991081051012501999999MD1710041+9999MW1101REMSYN076AAXX  21211 59046 41658 81601 10221 20198 40118 57004 71060 885// 333 70001;
0165590460999992000032200004+24350+109400FM-12+009799999V0201801N002010120019N0100001N1+02211+01961101321ADDAA106000191AY161061GF107991071051012501999999MD1210141+0101MW1001REMSYN088AAXX  22001 59046 11660 71802 10221 20196 40132 52014 69911 70060 875// 333 00102 70001;
0112590460999992000032203004+24350+109400FM-12+009799999V0202201N003010120019N0150001N1+02541+01991101401ADDGF107991071081008001999999MD1210081+9999REMSYN060AAXX  22031 59046 42565 72203 10254 20199 40140 52008 878//;
0146590460999992000032206004+24350+109400FM-12+009799999V0202201N003010120019N0150001N1+02861+01951101121ADDAA199000021GF107991071081008001999999KA1999N+02141MD1710271+9999REMSYN070AAXX  22061 59046 32565 72203 10286 20195 40112 57027 878// 333 20214;
0112590460999992000032209004+24350+109400FM-12+009799999V0202001N004012200019N0200001N1+02901+01941100891ADDGF101991011011008001001001MD1710231+9999REMSYN060AAXX  22091 59046 42570 12004 10290 20194 40089 57023 81100;
0142590460999992000032212004+24350+109400FM-12+009799999V0209999C000010150019N0120001N1+02601+02041101051ADDAA199000091GF107991071051017501999999MD1210151+9999REMSYN060AAXX  22121 59046 32762 70000 10260 20204 40105 52015 875//;EQDQ01  00002PRCP99
0177590460999992000032218004+24350+109400FM-12+009799999V0200701N003010120019N0080001N1+02131+01731101451ADDAA199000091GF108991081051012501999999KA1999M+02961MD1210111+9999MW1101REMSYN076AAXX  22181 59046 31658 80703 10213 20173 40145 52011 71000 885// 333 10296;EQDQ01  00002PRCP99
0124590460999992000032221004+24350+109400FM-12+009799999V0200401N002010120019N0080001N1+01961+01591101491ADDGF108991081051012501999999MD1210041+9999MW1101REMSYN066AAXX  22211 59046 41658 80402 10196 20159 40149 52004 71000 885//;
0157590460999992000032300004+24350+109400FM-12+009799999V0203201N003010120019N0200001N1+01661+01301101891ADDAA106000791GF108991081051012501999999MD1210381+0601MW1601REMSYN088AAXX  23001 59046 11670 83203 10166 20130 40189 52038 69901 76000 885// 333 00656 79999;
0132590460999992000032303004+24350+109400FM-12+009799999V0203601N004010120019N0250001N1+01481+01041102281ADDAY161031GF108991081051012501999999MD1210381+9999MW1601REMSYN066AAXX  23031 59046 41675 83604 10148 20104 40228 52038 76060 885//;
0172590460999992000032306004+24350+109400FM-12+009799999V0203201N003010120019N0300001N1+01601+01031102171ADDAA106000791AY161061GF108991081081008001999999KA1999N+01471MD1710111+9999MW1001REMSYN082AAXX  23061 59046 11580 83203 10160 20103 40217 57011 69901 70060 888// 333 20147;
0112590460999992000032309004+24350+109400FM-12+009799999V0203201N004010120019N0300001N1+01521+00921102171ADDGF108991081081008001999999MD1710011+9999REMSYN060AAXX  23091 59046 42580 83204 10152 20092 40217 57001 888//;
0123590460999992000032312004+24350+109400FM-12+009799999V0203601N003010120019N0300001N1+01441+00931102291ADDAA199000021GF108991081081008001999999MD1210111+9999REMSYN060AAXX  23121 59046 32580 83603 10144 20093 40229 52011 888//;
0165590460999992000032318004+24350+109400FM-12+009799999V0200201N003010120019N0250001N1+01401+00751102411ADDAA199000091GF108991081051012501999999KA1999M+02121MD1710081+9999REMSYN070AAXX  23181 59046 32675 80203 10140 20075 40241 57008 885// 333 10212;EQDQ01  00002PRCP99
0133590460999992000032321004+24350+109400FM-12+009799999V0200201N002010120019N0250001N1+01371+00641102261ADDAA124000791GF108991081051012501999999MD1710151+9999REMSYN070AAXX  23211 59046 42675 80202 10137 20064 40226 57015 885// 333 79999;
0157590460999992000032400004+24350+109400FM-12+009799999V0203201N002010120019N0100001N1+01381+00681102461ADDAA106000791GF108991081051012501999999MD1210191+0501MW1601REMSYN088AAXX  24001 59046 11660 83202 10138 20068 40246 52019 69901 76000 885// 333 00553 79999;
0132590460999992000032403004+24350+109400FM-12+009799999V0200401N002010120019N0110001N1+01541+00611102501ADDAY161031GF108991081051012501999999MD1210061+9999MW1001REMSYN066AAXX  24031 59046 41661 80402 10154 20061 40250 52006 70060 885//;
0172590460999992000032406004+24350+109400FM-12+009799999V0200401N003010150019N0150001N1+01731+00641102151ADDAA106000791AY161061GF107991071051017501999999KA1999N+01361MD1710341+9999MW1001REMSYN082AAXX  24061 59046 11765 70403 10173 20064 40215 57034 69901 70060 875// 333 20136;
0112590460999992000032409004+24350+109400FM-12+009799999V0200401N001010150019N0150001N1+01731+00661101901ADDGF108991081051017501999999MD1710251+9999REMSYN060AAXX  24091 59046 42765 80401 10173 20066 40190 57025 885//;
0123590460999992000032412004+24350+109400FM-12+009799999V0209999C000010150019N0150001N1+01641+00891101971ADDAA199000021GF108991081051017501999999MD1210071+9999REMSYN060AAXX  24121 59046 32765 80000 10164 20089 40197 52007 885//;
0172590460999992000032418004+24350+109400FM-12+009799999V0203601N001010120019N0120001N1+01531+01041102181ADDAA106000791AY161061GF108991081051012501999999KA1999M+01771MD1210071+9999MW1001REMSYN082AAXX  24181 59046 11662 83601 10153 20104 40218 52007 69901 70060 885// 333 10177;
0153590460999992000032421004+24350+109400FM-12+009799999V0203601N001010042019N0050001N1+00302+99999102211ADDAA124001091AY161031GF108991081051004501999999MD1210021+9999MW1601REMSYN076AAXX  24211 59046 41450 83601 10030 20121 40221 52002 76060 885// 333 70009;
0165590460999992000032500004+24350+109400FM-12+009799999V0203201N002010042019N0020001N1+01301+01241102431ADDAA106002091AY161061GF108991081051004501999999MD1210221+0001MW1601REMSYN088AAXX  25001 59046 11420 83202 10130 20124 40243 52022 60021 76060 885// 333 00051 70020;
0140590460999992000032503004+24350+109400FM-12+009799999V0203401N002010042019N0020001N1+01351+01261102571ADDAY161031AY261031GF108991081051004501999999MD1210141+9999MW1601REMSYN066AAXX  25031 59046 41420 83402 10135 20126 40257 52014 76066 885//;
0180590460999992000032506004+24350+109400FM-12+009799999V0200401N002010120019N0080001N1+01411+01211102391ADDAA106000591AY161061AY261061GF108991081081008001999999KA1999N+01261MD1710181+9999MW1211REMSYN082AAXX  25061 59046 11558 80402 10141 20121 40239 57018 69961 72166 888// 333 20126;
0124590460999992000032509004+24350+109400FM-12+009799999V0203401N002010120019N0080001N1+01561+01171102231ADDGF108991081081008001999999MD1710161+9999MW1101REMSYN066AAXX  25091 59046 41558 83402 10156 20117 40223 57016 71000 888//;
0123590460999992000032512004+24350+109400FM-12+009799999V0200401N002010120019N0110001N1+01531+01201102331ADDAA199000021GF108991081051012501999999MD1210101+9999REMSYN060AAXX  25121 59046 32661 80402 10153 20120 40233 52010 885//;
0146590460999992000032518004+24350+109400FM-12+009799999V0209999C000010120019N0110001N1+01481+01181102441ADDAA199000021GF108991081051012501999999KA1999M+01591MD1710041+9999REMSYN070AAXX  25181 59046 32661 80000 10148 20118 40244 57004 885// 333 10159;
0133590460999992000032521004+24350+109400FM-12+009799999V0200201N001010120019N0100001N1+01451+01171102401ADDAA124001891GF108991081051012501999999MD1710041+9999REMSYN070AAXX  25211 59046 42660 80201 10145 20117 40240 57004 885// 333 70017;
0151590460999992000032600004+24350+109400FM-12+009799999V0209999C000010120019N0050001N1+01461+01161102551ADDAA124000591GF108991081051012501999999MD1210151+0101MW1101REMSYN082AAXX  26001 59046 31650 80000 10146 20116 40255 52015 71000 885// 333 00102 70006;
0124590460999992000032603004+24350+109400FM-12+009799999V0202901N001019999999N0060001N1+01891+01171102521ADDGF106991061001999999031001MD1710021+9999MW1041REMSYN066AAXX  26031 59046 41956 62901 10189 20117 40252 57002 70400 86030;
0169590460999992000032606004+24350+109400FM-12+009799999V0201401N002012200019N0200001N1+02241+00721999999ADDAA199000091GA1001+999999999GF100991001001999999001001KA1999N+01401MD1710371+9999REMSYN058AAXX  26061 59046 32970 01402 10224 20072 57037 333 20140;EQDQ01  00002PRCP99
0122590460999992000032609004+24350+109400FM-12+009799999V0202701N003012200019N0200001N1+02381+00781101901ADDGA1001+999999999GF100991001001999999001001MD1710241+9999REMSYN054AAXX  26091 59046 42970 02703 10238 20078 40190 57024;
0168590460999992000032612004+24350+109400FM-12+009799999V0209999C000012200019N0180001N1+01981+01111999999ADDAA199000091GA1001+999999999GF100991001001999999001001MD1210021+9999REMSYN054AAXX  26121 59046 32968 00000 10198 20111 4089/ 52002;EQDQ01+108903APOSLPQ02  00002PRCP99
0187590460999992000032618004+24350+109400FM-12+009799999V0209999C000012200019N0080001N1+01451+01211101911ADDAA199000091GA1001+999999999GF100991001001999999001001KA1999M+02431MD1710111+9999MW1101REMSYN070AAXX  26181 59046 31958 00000 10145 20121 40191 57011 71000 333 10243;EQDQ01  00002PRCP99
0124590460999992000032621004+24350+109400FM-12+009799999V0209999C000012200019N0060001N1+01321+01151101801ADDGF102991021001999999031001MD1710111+9999MW1101REMSYN066AAXX  26211 59046 41956 20000 10132 20115 40180 57011 71000 82030;
0164590460999992000032700004+24350+109400FM-12+009799999V0202901N001019999999N0030001N1+01301+01071101951ADDAA199000091GF107991071001999999031999MD1210141+0061MW1101REMSYN076AAXX  27001 59046 31930 72901 10130 20107 40195 52014 71000 8703/ 333 05652;EQDQ01  00002PRCP99
0124590460999992000032703004+24350+109400FM-12+009799999V0201601N001019999999N0030001N1+02091+01011101961ADDGF106991061001999999031001MD1210021+9999MW1041REMSYN066AAXX  27031 59046 41930 61601 10209 20101 40196 52002 70400 86030;
0151590460999992000032706004+24350+109400FM-12+009799999V0202201N003019999999N0080001N1+02561+00881101551ADDAA199000091KA1999N+01211MD1710401+9999MW1041REMSYN076AAXX  27061 59046 31958 /2203 10256 20088 40155 57040 70400 86030 333 20121;EQDQ01  00002PRCP99
0112590460999992000032709004+24350+109400FM-12+009799999V0201601N001012200019N0150001N1+02701+00841101291ADDGF103991031001999999031001MD1710261+9999REMSYN060AAXX  27091 59046 42965 31601 10270 20084 40129 57026 83030;
0142590460999992000032712004+24350+109400FM-12+009799999V0209999C000012200019N0110001N1+02231+01231101521ADDAA199000091GF102991021001999999031001MD1210221+9999REMSYN060AAXX  27121 59046 32961 20000 10223 20123 40152 52022 82030;EQDQ01  00002PRCP99
0187590460999992000032718004+24350+109400FM-12+009799999V0209999C000012200019N0080001N1+01731+01421101691ADDAA199000091GA1001+999999999GF100991001001999999001001KA1999M+02731MD1210011+9999MW1101REMSYN070AAXX  27181 59046 31958 00000 10173 20142 40169 52001 71000 333 10273;EQDQ01  00002PRCP99
0124590460999992000032721004+24350+109400FM-12+009799999V0201801N001019999999N0060001N1+01581+01351101621ADDGF107991071001999999031999MD1710071+9999MW1101REMSYN066AAXX  27211 59046 41956 71801 10158 20135 40162 57007 71000 8703/;
0164590460999992000032800004+24350+109400FM-12+009799999V0209999C000019999999N0060001N1+01641+01181101781ADDAA199000091GF106991061001999999031011MD1210151+9999MW1101REMSYN076AAXX  28001 59046 31956 60000 10164 20118 40178 52015 71000 86031 333 0/203;EQDQ01  00002PRCP99
0124590460999992000032803004+24350+109400FM-12+009799999V0202701N002012200019N0060001N1+02421+01271101741ADDGF102991021001999999031001MD1710031+9999MW1041REMSYN066AAXX  28031 59046 41956 22702 10242 20127 40174 57003 70400 82030;
0177590460999992000032806004+24350+109400FM-12+009799999V0202201N001019999999N0080001N1+02971+01211101431ADDAA199000091GF106991061001999999031001KA1999N+01521MD1710301+9999MW1041REMSYN076AAXX  28061 59046 31958 62201 10297 20121 40143 57030 70400 86030 333 20152;EQDQ01  00002PRCP99
0112590460999992000032809004+24350+109400FM-12+009799999V0202701N001010150019N0100001N1+02961+01241101261ADDGF107991071051017501999999MD1710171+9999REMSYN060AAXX  28091 59046 42760 72701 10296 20124 40126 57017 875//;
0122590460999992000032812004+24350+109400FM-12+009799999V0209999C000010150019N0100001N1+02501+01431101421ADDAA199000091GF107991071051017501999999REMSYN054AAXX  28121 59046 32760 70000 10250 20143 40142 875//;EQDQ01  00002PRCP99
0177590460999992000032818004+24350+109400FM-12+009799999V0203401N001019999999N0060001N1+02131+01581101601ADDAA199000091GF107991071001999999031999KA1999M+03061MD1410001+9999MW1101REMSYN076AAXX  28181 59046 31956 73401 10213 20158 40160 54000 71000 8703/ 333 10306;EQDQ01  00002PRCP99
0164590460999992000032900004+24350+109400FM-12+009799999V0209999C000010150019N0050001N1+01871+01591101811ADDAA199000091GF107991071051017501999999MD1210211+0001MW1101REMSYN076AAXX  29001 59046 31750 70000 10187 20159 40181 52021 71000 875// 333 00002;EQDQ01  00002PRCP99
0124590460999992000032903004+24350+109400FM-12+009799999V0200401N002019999999N0060001N1+02501+01151101931ADDGF106991061001999999031001MD1210131+9999MW1041REMSYN066AAXX  29031 59046 41956 60402 10250 20115 40193 52013 70400 86030;
0177590460999992000032906004+24350+109400FM-12+009799999V0203601N001010120019N0080001N1+02861+01281101551ADDAA199000091GF107991071081008001999999KA1999N+01751MD1710371+9999MW1041REMSYN076AAXX  29061 59046 31558 73601 10286 20128 40155 57037 70400 878// 333 20175;EQDQ01  00002PRCP99
0124590460999992000032909004+24350+109400FM-12+009799999V0209999C000019999999N0080001N1+03041+01451101311ADDGF107991071001999999031999MD1710241+9999MW1041REMSYN066AAXX  29091 59046 41958 70000 10304 20145 40131 57024 70400 8703/;
0154590460999992000032912004+24350+109400FM-12+009799999V0209999C000010150019N0080001N1+02581+01651101371ADDAA199000091GF108991081051017501999999MD1210051+9999MW1041REMSYN066AAXX  29121 59046 31758 80000 10258 20165 40137 52005 70400 885//;EQDQ01  00002PRCP99
0177590460999992000032918004+24350+109400FM-12+009799999V0202201N003010150019N0080001N1+02361+01461101371ADDAA199000091GF107991071051017501999999KA1999M+03111MD1710081+9999MW1041REMSYN076AAXX  29181 59046 31758 72203 10236 20146 40137 57008 70400 875// 333 10311;EQDQ01  00002PRCP99
0124590460999992000032921004+24350+109400FM-12+009799999V0201801N001010150019N0080001N1+02261+01141101361ADDGF107991071051017501999999MD1410001+9999MW1041REMSYN066AAXX  29211 59046 41758 71801 10226 20114 40136 54000 70400 875//;
0152590460999992000033000004+24350+109400FM-12+009799999V0202001N002019999999N0150001N1+02301+00791101511ADDAA199000091GF107991071001999999031999MD1210141+0031REMSYN070AAXX  30001 59046 32965 72002 10230 20079 40151 52014 8703/ 333 05304;EQDQ01  00002PRCP99
0112590460999992000033003004+24350+109400FM-12+009799999V0202201N003010150019N0100001N1+02401+01171101541ADDGF107991071051017501999999MD1210021+9999REMSYN060AAXX  30031 59046 42760 72203 10240 20117 40154 52002 875//;
0165590460999992000033006004+24350+109400FM-12+009799999V0203401N001019999999N0150001N1+02521+01541101201ADDAA199000091GF107991071001999999031999KA1999N+02171MD1710331+9999REMSYN070AAXX  30061 59046 32965 73401 10252 20154 40120 57033 8703/ 333 20217;EQDQ01  00002PRCP99
0112590460999992000033009004+24350+109400FM-12+009799999V0200401N002019999999N0110001N1+02561+01591100951ADDGF107991071001999999031999MD1710251+9999REMSYN060AAXX  30091 59046 42961 70402 10256 20159 40095 57025 8703/;
0142590460999992000033012004+24350+109400FM-12+009799999V02099999999990150019N0100001N1+02291+01691100921ADDAA199000091GF108991081051017501999999MD1710031+9999REMSYN060AAXX  30121 59046 32760 8//80 10229 20169 40092 57003 885//;EQDQ01  00002PRCP99
0172590460999992000033018004+24350+109400FM-12+009799999V0209999C000010150019N0080001N1+02081+01761100891ADDAA106000791AY161061GF108991081051017501999999KA1999M+02651MD1710101+9999MW1101REMSYN082AAXX  30181 59046 11758 80000 10208 20176 40089 57010 69901 71060 885// 333 10265;
0145590460999992000033021004+24350+109400FM-12+009799999V0203401N001010120019N0080001N1+02001+01781100841ADDAA124000191GF108991081051012501999999MD1710051+9999MW1601REMSYN076AAXX  30211 59046 41658 83401 10200 20178 40084 57005 76000 885// 333 70001;
0165590460999992000033100004+24350+109400FM-12+009799999V0209999C000010042019N0020001N1+01871+01821100951ADDAA106005191AY161061GF108991081051004501999999MD1210101-0601MW1601REMSYN088AAXX  31001 59046 11420 80000 10187 20182 40095 52010 60051 76060 885// 333 05654 70050;
0140590460999992000033103004+24350+109400FM-12+009799999V0209999C000010042019N0020001N1+01921+01841100921ADDAY161031AY261031GF108991081051004501999999MD1710031+9999MW1601REMSYN066AAXX  31031 59046 41420 80000 10192 20184 40092 57003 76066 885//;
0180590460999992000033106004+24350+109400FM-12+009799999V0203401N002010042019N0020001N1+01921+01861100731ADDAA106017091AY161061AY261061GF108991081051004501999999KA1999N+01801MD1710191+9999MW1601REMSYN082AAXX  31061 59046 11420 83402 10192 20186 40073 57019 60171 76066 885// 333 20180;
0140590460999992000033109004+24350+109400FM-12+009799999V0209999C000010042019N0020001N1+02021+01931100501ADDAY161031AY261031GF108991081051004501999999MD1710231+9999MW1601REMSYN066AAXX  31091 59046 41420 80000 10202 20193 40050 57023 76066 885//;
0141590460999992000033112004+24350+109400FM-12+009799999V0209999C000010042019N0020001N1+02031+01951100571ADDAA106000391GF108991081051004501999999MD1210071+9999MW1101REMSYN072AAXX  31121 59046 11420 80000 10203 20195 40057 52007 69931 710/0 885//;
0172590460999992000033118004+24350+109400FM-12+009799999V0209999C000010120019N0060001N1+01971+01881100691ADDAA106001091AY181061GF108991081051012501999999KA1999M+02111MD1710051+9999MW1101REMSYN082AAXX  31181 59046 11656 80000 10197 20188 40069 57005 60011 71080 885// 333 10211;
0180590460999992000033121004+24350+109400FM-12+009799999V0203601N001010120019N0050001N1+01961+01881100651ADDAA124023991GF108991081051012501999999MD1710041+9999MW1101REMSYN076AAXX  31211 59046 41650 83601 10196 20188 40065 5700/ 71000 885// 333 70238;EQDQ01+000072APCTENQ02+000002APC3  
0151590460999992000040100004+24350+109400FM-12+009799999V0209999C000010120019N0050001N1+01961+01831100791ADDAA124018891GF108991081051012501999999MD1210141-0201MW1101REMSYN082AAXX  01001 59046 31650 80000 10196 20183 40079 52014 71000 885// 333 05201 70189;
0124590460999992000040103004+24350+109400FM-12+009799999V0202701N002010120019N0050001N1+02121+01921100851ADDGF108991081051012501999999MD1210061+9999MW1101REMSYN066AAXX  01031 59046 41650 82702 10212 20192 40085 52006 71000 885//;
0177590460999992000040106004+24350+109400FM-12+009799999V0203401N002010150019N0030001N1+02451+02011100571ADDAA199000091GF107991071051017501999999KA1999N+01901MD1710271+9999MW1101REMSYN076AAXX  01061 59046 31730 73402 10245 20201 40057 57027 71000 875// 333 20190;EQDQ01  00002PRCP99
0134590460999992000040109004+24350+109400FM-12+009799999V0202701N002012200019N0040001N1+02621+01971100321ADDGA1001+999999999GF100991001001999999001001MD1710251+9999MW1041REMSYN060AAXX  01091 59046 41940 02702 10262 20197 40032 57025 70400;
0148590460999992000040112004+24350+109400FM-12+009799999V0209999C000019999999N0060001N1+99999+99999100551ADDAA199000091GF107991071001999999031001MD1210231+9999MW1101REMSYN060AAXX  01121 59046 31956 70000 20200 40055 52023 71000 87030;EQDQ01  00002PRCP99
0172590460999992000040118004+24350+109400FM-12+009799999V0209999C000010150019N0060001N1+02171+01971999999ADDAA106000191AY161061GF108991081051017501999999KA1999M+02651MD1710041+9999MW1101REMSYN082AAXX  01181 59046 11756 80000 10217 20197 4/072 57004 69911 71060 885// 333 10265;
0145590460999992000040121004+24350+109400FM-12+009799999V0200701N002010150019N0060001N1+02181+01831100541ADDAA124000191GF108991081051017501999999MD1710171+9999MW1101REMSYN076AAXX  01211 59046 41756 80702 10218 20183 40054 57017 71000 885// 333 70001;
0165590460999992000040200004+24350+109400FM-12+009799999V0201101N001010120019N0040001N1+02091+01841100691ADDAA106000891AY181061GF108991081081008001999999MD1210141-0101MW1101REMSYN088AAXX  02001 59046 11540 81101 10209 20184 40069 52014 69971 71080 888// 333 05101 70008;
0140590460999992000040203004+24350+109400FM-12+009799999V0203401N003010042019N0020001N1+01961+01901100861ADDAY191031AY281031GF108991081091004501999999MD1210161+9999MW1951REMSYN066AAXX  02031 59046 41420 83403 10196 20190 40086 52016 79598 889//;
0180590460999992000040206004+24350+109400FM-12+009799999V0203401N002010042019N0200001N1+01961+01861100801ADDAA106067191AY191061AY281061GF108991081091004501999999KA1999N+01861MD1710061+9999MW1801REMSYN082AAXX  02061 59046 11470 83402 10196 20186 40080 57006 60671 78098 889// 333 20186;
0140590460999992000040209004+24350+109400FM-12+009799999V0203401N002010075019N0200001N1+01961+01871100711ADDAY181031AY281031GF108991081091008001999999MD1710091+9999MW1251REMSYN066AAXX  02091 59046 41570 83402 10196 20187 40071 57009 72588 889//;
0129590460999992000040212004+24350+109400FM-12+009799999V0203401N001010120019N0250001N1+02001+01871100901ADDAA106002091GF107991071051012501999999MD1210191+9999REMSYN066AAXX  02121 59046 11675 73401 10200 20187 40090 52019 60021 875//;
0172590460999992000040218004+24350+109400FM-12+009799999V0203201N001010120019N0250001N1+01741+01471101141ADDAA106000791AY161061GF108991081051012501999999KA1999M+02181MD1710061+9999MW1211REMSYN082AAXX  02181 59046 11675 83201 10174 20147 40114 57006 69901 72160 885// 333 10218;
0161590460999992000040221004+24350+109400FM-12+009799999V0203201N001010075019N0150001N1+01591+01491101191ADDAA124074491AY191031AY281031GF108991081091008001999999MD1210041+9999MW1911REMSYN076AAXX  02211 59046 41565 83201 10159 20149 40119 52004 79198 889// 333 70744;
0173590460999992000040300004+24350+109400FM-12+009799999V0200201N002010120019N0110001N1+01631+01371101451ADDAA106007191AY191061AY281061GF108991081081008001999999MD1210261+0701MW1001REMSYN088AAXX  03001 59046 11561 80202 10163 20137 40145 52026 60071 70098 888// 333 00755 70768;
0124590460999992000040303004+24350+109400FM-12+009799999V0203401N002010120019N0200001N1+01701+01351101581ADDGF108991081091012501999999MD1210131+9999MW1911REMSYN066AAXX  03031 59046 41670 83402 10170 20135 40158 52013 79100 889//;
0180590460999992000040306004+24350+109400FM-12+009799999V0203401N004010120019N0250001N1+02021+01291101331ADDAA100000591AY191061AY281061GF107991071081008001001021KA1999N+01561MD1710241+9999MW1001REMSYN082AAXX  03061 59046 11575 73404 10202 20129 40133 57024 6995/ 70098 87802 333 20156;
0112590460999992000040309004+24350+109400FM-12+009799999V0203601N004010120019N0250001N1+01971+01271101231ADDGF107991071081008001999999MD1710111+9999REMSYN060AAXX  03091 59046 42575 73604 10197 20127 40123 57011 878//;
0123590460999992000040312004+24350+109400FM-12+009799999V0200401N002010120019N0250001N1+01801+01151101361ADDAA199000021GF107991071051012501999999MD1210131+9999REMSYN060AAXX  03121 59046 32675 70402 10180 20115 40136 52013 875//;
0152590460999992000040318004+24350+109400FM-12+009799999V0203401N002019999999N0150001N1+01601+01181101521ADDAA106000391GF108991999999008001999999KA1999M+02081MD1210031+9999REMSYN076AAXX  03181 59046 1/565 83402 10160 20118 40152 52003 69931 79581 333 10208;
0153590460999992000040321004+24350+109400FM-12+009799999V0200401N001010120019N0120001N1+01551+01181101361ADDAA124004191AY181031GF108991081081008001999999MD1710161+9999MW1001REMSYN076AAXX  03211 59046 41562 80401 10155 20118 40136 57016 70080 888// 333 70040;
0165590460999992000040400004+24350+109400FM-12+009799999V0203401N002010120019N0120001N1+01591+01231101471ADDAA106000191AY181061GF108991081051012501999999MD1210111+0001MW1001REMSYN088AAXX  04001 59046 11662 83402 10159 20123 40147 52011 69911 70080 885// 333 00000 70009;
0112590460999992000040403004+24350+109400FM-12+009799999V0203601N003019999999N0200001N1+01951+01141101561ADDGF106991061001999999031001MD1210091+9999REMSYN060AAXX  04031 59046 42970 63603 10195 20114 40156 52009 86030;
0165590460999992000040406004+24350+109400FM-12+009799999V0202701N002010150019N0250001N1+02161+01251101241ADDAA199000091GF107991071051017501999999KA1999N+01521MD1710311+9999REMSYN070AAXX  04061 59046 32775 72702 10216 20125 40124 57031 875// 333 20152;EQDQ01  00002PRCP99
0112590460999992000040409004+24350+109400FM-12+009799999V0202901N002010150019N0200001N1+02131+01321100991ADDGF107991071051017501999999MD1710251+9999REMSYN060AAXX  04091 59046 42770 72902 10213 20132 40099 57025 875//;
0142590460999992000040412004+24350+109400FM-12+009799999V0209999C000010150019N0150001N1+02001+01421101101ADDAA199000091GF107991071051017501999999MD1210111+9999REMSYN060AAXX  04121 59046 32765 70000 10200 20142 40110 52011 875//;EQDQ01  00002PRCP99
0177590460999992000040418004+24350+109400FM-12+009799999V0203401N001010120019N0080001N1+01931+01421101301ADDAA199000091GF108991081051012501999999KA1999M+02221MD1210011+9999MW1101REMSYN076AAXX  04181 59046 31658 83401 10193 20142 40130 52001 71000 885// 333 10222;EQDQ01  00002PRCP99
0145590460999992000040421004+24350+109400FM-12+009799999V0203201N005010120019N0080001N1+01881+01281101571ADDAA124000591GF108991081091012501999999MD1210271+9999MW1951REMSYN076AAXX  04211 59046 41658 83205 10188 20128 40157 52027 79500 889// 333 70005;
0173590460999992000040500004+24350+109400FM-12+009799999V0203401N002010120019N0200001N1+01701+01371101661ADDAA106001091AY191061AY281061GF108991081051012501999999MD1210081+0201MW1001REMSYN088AAXX  05001 59046 11670 83402 10170 20137 40166 52008 60011 70098 885// 333 00201 70013;
0112590460999992000040503004+24350+109400FM-12+009799999V0203201N003010120019N0250001N1+01991+01431101741ADDGF107991071081008001999999MD1210091+9999REMSYN060AAXX  05031 59046 42575 73203 10199 20143 40174 52009 878//;
0146590460999992000040506004+24350+109400FM-12+009799999V0200401N003010120019N0300001N1+02301+01441101531ADDAA199000021GF107991071081008001999999KA1999N+01651MD1710211+9999REMSYN070AAXX  05061 59046 32580 70403 10230 20144 40153 57021 878// 333 20165;
0112590460999992000040509004+24350+109400FM-12+009799999V0200401N003010120019N0300001N1+02291+01311101351ADDGF105991051081008001001001MD1710171+9999REMSYN060AAXX  05091 59046 42580 50403 10229 20131 40135 57017 85800;
0142590460999992000040512004+24350+109400FM-12+009799999V0200701N002010150019N0120001N1+02121+01321101501ADDAA199000091GF108991081051017501999999MD1210141+9999REMSYN060AAXX  05121 59046 32762 80702 10212 20132 40150 52014 885//;EQDQ01  00002PRCP99
0165590460999992000040518004+24350+109400FM-12+009799999V0200201N001010150019N0180001N1+01871+01251101641ADDAA199000091GF108991081051017501999999KA1999M+02341MD1710061+9999REMSYN070AAXX  05181 59046 32768 80201 10187 20125 40164 57006 885// 333 10234;EQDQ01  00002PRCP99
0133590460999992000040521004+24350+109400FM-12+009799999V0209999C000010150019N0180001N1+01821+01231101551ADDAA124000891GF108991081051017501999999MD1710091+9999REMSYN070AAXX  05211 59046 42768 80000 10182 20123 40155 57009 885// 333 70008;
0152590460999992000040600004+24350+109400FM-12+009799999V0209999C000010120019N0150001N1+01821+01231101621ADDAA199000091GF107991071081008001999999MD1210071+0001REMSYN070AAXX  06001 59046 32565 70000 10182 20123 40162 52007 878// 333 00001;EQDQ01  00002PRCP99
0140590460999992000040603004+24350+109400FM-12+009799999V0209999C000010042019N0080001N1+01841+01371101721ADDAY191031AY281031GF108991081091004501999999MD1210091+9999MW1951REMSYN066AAXX  06031 59046 41458 80000 10184 20137 40172 52009 79598 889//;
0180590460999992000040606004+24350+109400FM-12+009799999V0200401N001010120019N0080001N1+01941+01461101561ADDAA106000591AY191061AY281061GF108991081051012501999999KA1999N+01751MD1710151+9999MW1101REMSYN082AAXX  06061 59046 11658 80401 10194 20146 40156 57015 69951 71098 885// 333 20175;
0124590460999992000040609004+24350+109400FM-12+009799999V0200901N002010120019N0040001N1+01901+01461101421ADDGF108991081051012501999999MD1710141+9999MW1601REMSYN066AAXX  06091 59046 41640 80902 10190 20146 40142 57014 76000 885//;
0149590460999992000040612004+24350+109400FM-12+009799999V0200401N001010120019N0040001N1+01851+01491101541ADDAA106000791AY161061GF108991081051012501999999MD1210111+9999MW1601REMSYN072AAXX  06121 59046 11640 80401 10185 20149 40154 52011 69901 76060 885//;
0180590460999992000040618004+24350+109400FM-12+009799999V0203601N002010120019N0040001N1+01701+01601101741ADDAA106001091AY161061AY261061GF108991081051012501999999KA1999M+01951MD1710011+9999MW1601REMSYN082AAXX  06181 59046 11640 83602 10170 20160 40174 57001 69991 76066 885// 333 10195;
0161590460999992000040621004+24350+109400FM-12+009799999V0203401N003010042019N0050001N1+01661+01561101671ADDAA124002891AY181031AY261031GF108991081091004501999999MD1710071+9999MW1801REMSYN076AAXX  06211 59046 41450 83403 10166 20156 40167 57007 78086 889// 333 70028;
0173590460999992000040700004+24350+109400FM-12+009799999V0203401N003010042019N0040001N1+01621+01521101831ADDAA106007191AY191061AY261061GF108991081091004501999999MD1210161+0201MW1801REMSYN088AAXX  07001 59046 11440 83403 10162 20152 40183 52016 60071 78096 889// 333 00252 70087;
0132590460999992000040703004+24350+109400FM-12+009799999V0203601N001010120019N0040001N1+01871+01571101881ADDAY181031GF108991081081008001999999MD1210051+9999MW1101REMSYN066AAXX  07031 59046 41540 83601 10187 20157 40188 52005 71080 888//;
0172590460999992000040706004+24350+109400FM-12+009799999V0203401N002010120019N0180001N1+01921+01571101691ADDAA106000191AY181061GF108991081081008001999999KA1999N+01591MD1710191+9999MW1001REMSYN082AAXX  07061 59046 11568 83402 10192 20157 40169 57019 69911 70080 888// 333 20159;
0112590460999992000040709004+24350+109400FM-12+009799999V0209999C000010120019N0200001N1+01911+01581101521ADDGF108991081081008001999999MD1710171+9999REMSYN060AAXX  07091 59046 42570 80000 10191 20158 40152 57017 888//;
0149590460999992000040712004+24350+109400FM-12+009799999V0203401N001010120019N0110001N1+01821+01601101591ADDAA106000191AY181061GF108991081091012501999999MD1210071+9999MW1801REMSYN072AAXX  07121 59046 11661 83401 10182 20160 40159 52007 69921 78080 889//;
0180590460999992000040718004+24350+109400FM-12+009799999V0202701N001010042019N0050001N1+01691+01641101611ADDAA106001091AY181061AY261061GF108991081051004501999999KA1999M+01931MD1710161+9999MW1601REMSYN082AAXX  07181 59046 11450 82701 10169 20164 40161 57016 60011 76086 885// 333 10193;
0161590460999992000040721004+24350+109400FM-12+009799999V0209999C000010042019N0040001N1+01691+01641101581ADDAA124008991AY161031AY261031GF108991081051004501999999MD1710031+9999MW1601REMSYN076AAXX  07211 59046 41440 80000 10169 20164 40158 57003 76066 885// 333 70088;
0173590460999992000040800004+24350+109400FM-12+009799999V0203401N001010042019N0030001N1+01701+01631101621ADDAA106002091AY161061AY261061GF108991081051004501999999MD1210041-0201MW1601REMSYN088AAXX  08001 59046 11430 83401 10170 20163 40162 52004 60021 76066 885// 333 05201 70032;
0140590460999992000040803004+24350+109400FM-12+009799999V0203601N001010042019N0040001N1+01821+01671101591ADDAY161031AY261031GF108991081051004501999999MD1710031+9999MW1601REMSYN066AAXX  08031 59046 41440 83601 10182 20167 40159 57003 76066 885//;
0180590460999992000040806004+24350+109400FM-12+009799999V0203601N001010042019N0030001N1+01781+01701101311ADDAA106004191AY181061AY261061GF108991081091004501999999KA1999N+01671MD1710281+9999MW1801REMSYN082AAXX  08061 59046 11430 83601 10178 20170 40131 57028 60041 78086 889// 333 20167;
0140590460999992000040809004+24350+109400FM-12+009799999V0209999C000010042019N0030001N1+01781+01711101141ADDAY181031AY281031GF108991081091004501999999MD1710171+9999MW1801REMSYN066AAXX  08091 59046 41430 80000 10178 20171 40114 57017 78088 889//;
0157590460999992000040812004+24350+109400FM-12+009799999V0200701N001010042019N0080001N1+01741+01711101231ADDAA106002091AY181061AY261061GF108991081071004501999999MD1210091+9999MW1601REMSYN072AAXX  08121 59046 11458 80701 10174 20171 40123 52009 60021 76086 887//;
0180590460999992000040818004+24350+109400FM-12+009799999V0202701N002010042019N0050001N1+01761+01731101421ADDAA106004191AY161061AY261061GF108991081071004501999999KA1999M+01821MD1210011+9999MW1601REMSYN082AAXX  08181 59046 11450 82702 10176 20173 40142 52001 60041 76066 887// 333 10182;
0161590460999992000040821004+24350+109400FM-12+009799999V0209999C000010042019N0050001N1+01771+01721101211ADDAA124011491AY161031AY261031GF108991081071004501999999MD1710211+9999MW1601REMSYN076AAXX  08211 59046 41450 80000 10177 20172 40121 57021 76066 887// 333 70115;
0173590460999992000040900004+24350+109400FM-12+009799999V0209999C000010042019N0030001N1+01761+01731101351ADDAA106015091AY191061AY261061GF108991081091004501999999MD1210141-0301MW1801REMSYN088AAXX  09001 59046 11430 80000 10176 20173 40135 52014 60151 78096 889// 333 05301 70242;
0140590460999992000040903004+24350+109400FM-12+009799999V0209999C000010042019N0030001N1+01821+01791101371ADDAY181031AY261031GF108991081071004501999999MD1210021+9999MW1601REMSYN066AAXX  09031 59046 41430 80000 10182 20179 40137 52002 76086 887//;
0180590460999992000040906004+24350+109400FM-12+009799999V0203601N001010042019N0030001N1+01881+01831101191ADDAA106001091AY181061AY261061GF108991081051004501999999KA1999N+01721MD1710171+9999MW1601REMSYN082AAXX  09061 59046 11430 83601 10188 20183 40119 57017 69991 76086 885// 333 20172;
0140590460999992000040909004+24350+109400FM-12+009799999V0209999C000010042019N0030001N1+01881+01851101081ADDAY161031AY261031GF108991081071004501999999MD1710111+9999MW1601REMSYN066AAXX  09091 59046 41430 80000 10188 20185 40108 57011 76066 887//;
0157590460999992000040912004+24350+109400FM-12+009799999V0203201N001010042019N0030001N1+01861+01831101261ADDAA106003091AY161061AY261061GF108991081071004501999999MD1210181+9999MW1601REMSYN072AAXX  09121 59046 11430 83201 10186 20183 40126 52018 60031 76066 887//;
0180590460999992000040918004+24350+109400FM-12+009799999V0203201N001010042019N0040001N1+01851+01751101501ADDAA106002091AY161061AY261061GF108991081071004501999999KA1999M+01881MD1710011+9999MW1601REMSYN082AAXX  09181 59046 11440 83201 10185 20175 40150 57001 60021 76066 887// 333 10188;
0153590460999992000040921004+24350+109400FM-12+009799999V0209999C000010120019N0040001N1+01821+01721101471ADDAA124019191AY161031GF108991081051012501999999MD1710031+9999MW1101REMSYN076AAXX  09211 59046 41640 80000 10182 20172 40147 57003 71060 885// 333 70190;
0165590460999992000041000004+24350+109400FM-12+009799999V0200401N002010042019N0120001N1+01811+01661101721ADDAA106000191AY161061GF108991081051004501999999MD1210251+0401MW1601REMSYN088AAXX  10001 59046 11462 80402 10181 20166 40172 52025 69921 76060 885// 333 00401 70060;
0140590460999992000041003004+24350+109400FM-12+009799999V0203401N002010042019N0130001N1+01971+01691101871ADDAY161031AY261031GF107991071051004501999999MD1210151+9999MW1601REMSYN066AAXX  10031 59046 41463 73402 10197 20169 40187 52015 76066 875//;
0172590460999992000041006004+24350+109400FM-12+009799999V0203401N002010120019N0120001N1+02021+01711101661ADDAA106000791AY161061GF108991081081008001999999KA1999N+01781MD1710201+9999MW1001REMSYN082AAXX  10061 59046 11562 83402 10202 20171 40166 57020 69901 70060 888// 333 20178;
0124590460999992000041009004+24350+109400FM-12+009799999V0203201N001010120019N0080001N1+02081+01721101551ADDGF108991081051012501999999MD1710111+9999MW1101REMSYN066AAXX  10091 59046 41658 83201 10208 20172 40155 57011 71000 885//;
0135590460999992000041012004+24350+109400FM-12+009799999V0200701N003010120019N0060001N1+01941+01411101581ADDAA199000021GF108991081051012501999999MD1210031+9999MW1101REMSYN066AAXX  10121 59046 31656 80703 10194 20141 40158 52003 71000 885//;
0172590460999992000041018004+24350+109400FM-12+009799999V0200901N002010042019N0040001N1+01741+01281101781ADDAA106000791AY161061GF108991081051004501999999KA1999M+02101MD1410001+9999MW1601REMSYN082AAXX  10181 59046 11440 80902 10174 20128 40178 54000 69901 76060 885// 333 10210;
0153590460999992000041021004+24350+109400FM-12+009799999V0200701N002010042019N0040001N1+01561+01161101661ADDAA124000591AY161031GF108991081051004501999999MD1710121+9999MW1601REMSYN076AAXX  10211 59046 41440 80702 10156 20116 40166 57012 76060 885// 333 70006;
0165590460999992000041100004+24350+109400FM-12+009799999V0200401N001010120019N0060001N1+01601+01321101781ADDAA106000591AY161061GF108991081051012501999999MD1210121+0101MW1601REMSYN088AAXX  11001 59046 11656 80401 10160 20132 40178 52012 69961 76060 885// 333 00152 70006;
0132590460999992000041103004+24350+109400FM-12+009799999V0200201N002010042019N0080001N1+01681+01361101811ADDAY161031GF108991081051004501999999MD1210031+9999MW1211REMSYN066AAXX  11031 59046 41458 80202 10168 20136 40181 52003 72160 885//;
0172590460999992000041106004+24350+109400FM-12+009799999V0203401N003010120019N0040001N1+01661+01361101621ADDAA106000191AY161061GF108991081081008001999999KA1999N+01541MD1710191+9999MW1101REMSYN082AAXX  11061 59046 11540 83403 10166 20136 40162 57019 69911 71060 888// 333 20154;
0132590460999992000041109004+24350+109400FM-12+009799999V0200201N001010042019N0020001N1+01561+01351101501ADDAY161031GF108991081051004501999999MD1710131+9999MW1601REMSYN066AAXX  11091 59046 41420 80201 10156 20135 40150 57013 76060 885//;
0149590460999992000041112004+24350+109400FM-12+009799999V0200201N001010042019N0020001N1+01501+01391101561ADDAA106000591AY161061GF108991081051004501999999MD1210061+9999MW1601REMSYN072AAXX  11121 59046 11420 80201 10150 20139 40156 52006 69941 76060 885//;
0172590460999992000041118004+24350+109400FM-12+009799999V0203401N001010042019N0060001N1+01461+01351101521ADDAA106000591AY161061GF108991081051004501999999KA1999M+01731MD1710091+9999MW1601REMSYN082AAXX  11181 59046 11456 83401 10146 20135 40152 57009 69961 76060 885// 333 10173;
0161590460999992000041121004+24350+109400FM-12+009799999V0200401N001010042019N0060001N1+01421+01311101381ADDAA124001091AY161031AY261031GF108991081051004501999999MD1710141+9999MW1601REMSYN076AAXX  11211 59046 41456 80401 10142 20131 40138 57014 76066 885// 333 70011;
0165590460999992000041200004+24350+109400FM-12+009799999V0203201N001010120019N0060001N1+01441+01311101561ADDAA106000191AY161061GF108991081051012501999999MD1210181-0201MW1601REMSYN088AAXX  12001 59046 11656 83201 10144 20131 40156 52018 69911 76060 885// 333 05252 70012;
0132590460999992000041203004+24350+109400FM-12+009799999V0209999C000010120019N0030001N1+01511+01311101471ADDAY161031GF108991081051012501999999MD1710091+9999MW1211REMSYN066AAXX  12031 59046 41630 80000 10151 20131 40147 57009 72160 885//;
0172590460999992000041206004+24350+109400FM-12+009799999V0201101N001010120019N0030001N1+01741+01431101171ADDAA106000791AY161061GF108991081051012501999999KA1999N+01391MD1710291+9999MW1101REMSYN082AAXX  12061 59046 11630 81101 10174 20143 40117 57029 69901 71060 885// 333 20139;
0132590460999992000041209004+24350+109400FM-12+009799999V0200401N002010120019N0040001N1+01801+01571101001ADDAY161031GF108991081051012501999999MD1710171+9999MW1211REMSYN066AAXX  12091 59046 41640 80402 10180 20157 40100 57017 72160 885//;
0149590460999992000041212004+24350+109400FM-12+009799999V0200901N001010120019N0080001N1+01761+01541101031ADDAA106000791AY161061GF108991081051012501999999MD1210031+9999MW1101REMSYN072AAXX  12121 59046 11658 80901 10176 20154 40103 52003 69901 71060 885//;
0172590460999992000041218004+24350+109400FM-12+009799999V0200901N002010120019N0060001N1+01671+01591100961ADDAA106000591AY161061GF108991081051012501999999KA1999M+01801MD1710141+9999MW1601REMSYN082AAXX  12181 59046 11656 80902 10167 20159 40096 57014 69951 76060 885// 333 10180;
0161590460999992000041221004+24350+109400FM-12+009799999V0209999C000010042019N0030001N1+01651+01621100851ADDAA124001091AY161031AY261031GF108991081051004501999999MD1710101+9999MW1601REMSYN076AAXX  12211 59046 41430 80000 10165 20162 40085 57010 76066 885// 333 70009;
0173590460999992000041300004+24350+109400FM-12+009799999V0209999C000010075019N0020001N1+01681+01651100921ADDAA106000591AY161061AY261061GF108991081051008001999999MD1210071-0601MW1601REMSYN088AAXX  13001 59046 11520 80000 10168 20165 40092 52007 69961 76066 885// 333 05602 70011;
0140590460999992000041303004+24350+109400FM-12+009799999V0209999C000010075019N0015001N1+01801+01701100921ADDAY161031AY261031GF108991081051008001999999MD1410001+9999MW1601REMSYN066AAXX  13031 59046 41515 80000 10180 20170 40092 54000 76066 885//;
0172590460999992000041306004+24350+109400FM-12+009799999V0202001N001010120019N0020001N1+02021+01861100611ADDAA106000191AY161061GF108991081051012501999999KA1999N+01631MD1710311+9999MW1211REMSYN082AAXX  13061 59046 11620 82001 10202 20186 40061 57031 69911 72160 885// 333 20163;
0132590460999992000041309004+24350+109400FM-12+009799999V0209999C000010120019N0030001N1+02151+01961100401ADDAY161031GF108991081051012501999999MD1710201+9999MW1101REMSYN066AAXX  13091 59046 41630 80000 10215 20196 40040 57020 71060 885//;
0149590460999992000041312004+24350+109400FM-12+009799999V0209999C000010120019N0030001N1+02081+01991100491ADDAA106000791AY161061GF108991081051012501999999MD1210091+9999MW1101REMSYN072AAXX  13121 59046 11630 80000 10208 20199 40049 52009 69901 71060 885//;
0172590460999992000041318004+24350+109400FM-12+009799999V0203601N002010150019N0020001N1+02081+02021100531ADDAA106000191AY161061GF107991071051017501999999KA1999M+02151MD1710051+9999MW1101REMSYN082AAXX  13181 59046 11720 73602 10208 20202 40053 57005 69911 71060 875// 333 10215;
0145590460999992000041321004+24350+109400FM-12+009799999V0209999C000010120019N0020001N1+02041+02011100521ADDAA124000591GF107991071051012501999999MD1710011+9999MW1101REMSYN076AAXX  13211 59046 41620 70000 10204 20201 40052 57001 71000 875// 333 70005;
0165590460999992000041400004+24350+109400FM-12+009799999V0203401N001012200019N0030001N1+02001+01891100801ADDAA106007991AY181061GF104991041091008001001001MD1210281-0101MW1251REMSYN088AAXX  14001 59046 11530 43401 10200 20189 40080 52028 60081 72580 84900 333 05103 70086;
0122590460999992000041403004+24350+109400FM-12+009799999V0203401N002012200019N0250001N1+02501+01781100821ADDGA1001+999999999GF100991001001999999001001MD1210031+9999REMSYN054AAXX  14031 59046 42975 03402 10250 20178 40082 52003;
0146590460999992000041406004+24350+109400FM-12+009799999V0203601N003012200019N0300001N1+02791+01781100631ADDAA199000021GF103991031011008001001001KA1999N+01971MD1710181+9999REMSYN070AAXX  14061 59046 32580 33603 10279 20178 40063 57018 83100 333 20197;
0112590460999992000041409004+24350+109400FM-12+009799999V0200401N003012200019N0300001N1+02871+01671100531ADDGF102991011011008001031001MD1710101+9999REMSYN060AAXX  14091 59046 42580 20403 10287 20167 40053 57010 81130;
0165590460999992000041418004+24350+109400FM-12+009799999V0200401N002010150019N0250001N1+01941+01231101471ADDAA199000091GF107991071051017501999999KA1999M+02911MD1210111+9999REMSYN070AAXX  14181 59046 32775 70402 10194 20123 40147 52011 875// 333 10291;EQDQ01  00002PRCP99
0133590460999992000041421004+24350+109400FM-12+009799999V0200201N002010150019N0200001N1+01791+01181101561ADDAA124008491GF107991071051017501999999MD1210091+9999REMSYN070AAXX  14211 59046 42770 70202 10179 20118 40156 52009 875// 333 70084;
0152590460999992000041500004+24350+109400FM-12+009799999V0200401N003019999999N0200001N1+01791+00751101901ADDAA199000091GF107991071001999999031999MD1210331+0111REMSYN070AAXX  15001 59046 32970 70403 10179 20075 40190 52033 8703/ 333 01152;EQDQ01  00002PRCP99
0112590460999992000041503004+24350+109400FM-12+009799999V0200201N003012200019N0200001N1+02021+00841102081ADDGF104991041001999999031001MD1210181+9999REMSYN060AAXX  15031 59046 42970 40203 10202 20084 40208 52018 84030;
0165590460999992000041506004+24350+109400FM-12+009799999V0203201N001012200019N0300001N1+02321+00921101761ADDAA199000091GF104991041001999999031001KA1999N+01751MD1710321+9999REMSYN070AAXX  15061 59046 32980 43201 10232 20092 40176 57032 84030 333 20175;EQDQ01  00002PRCP99
0112590460999992000041509004+24350+109400FM-12+009799999V0200901N002012200019N0300001N1+02471+01021101521ADDGF103991011011008001031001MD1710241+9999REMSYN060AAXX  15091 59046 42580 30902 10247 20102 40152 57024 81130;
0142590460999992000041512004+24350+109400FM-12+009799999V0200401N004019999999N0200001N1+02151+00801101681ADDAA199000091GF106991061001999999031001MD1210161+9999REMSYN060AAXX  15121 59046 32970 60404 10215 20080 40168 52016 86030;EQDQ01  00002PRCP99
0165590460999992000041518004+24350+109400FM-12+009799999V0209999C000019999999N0200001N1+01701+00941101791ADDAA199000091GF105991051001999999031001KA1999M+02491MD1710091+9999REMSYN070AAXX  15181 59046 32970 50000 10170 20094 40179 57009 85030 333 10249;EQDQ01  00002PRCP99
0112590460999992000041521004+24350+109400FM-12+009799999V0200401N002019999999N0200001N1+01601+00771101711ADDGF105991051001999999031001MD1710081+9999REMSYN060AAXX  15211 59046 42970 50402 10160 20077 40171 57008 85030;
0152590460999992000041600004+24350+109400FM-12+009799999V0200401N002012200019N0200001N1+01711+00741101871ADDAA199000091GF104991041001999999031001MD1210151+0001REMSYN070AAXX  16001 59046 32970 40402 10171 20074 40187 52015 84030 333 00051;EQDQ01  00002PRCP99
0112590460999992000041603004+24350+109400FM-12+009799999V0200901N002012200019N0300001N1+02211+00651101901ADDGF102991021001999999031001MD1210041+9999REMSYN060AAXX  16031 59046 42980 20902 10221 20065 40190 52004 82030;
0165590460999992000041606004+24350+109400FM-12+009799999V0202201N002012200019N0300001N1+02641+00471101541ADDAA199000091GF103991011001999999031021KA1999N+01501MD1710351+9999REMSYN070AAXX  16061 59046 32980 32202 10264 20047 40154 57035 81032 333 20150;EQDQ01  00002PRCP99
0112590460999992000041609004+24350+109400FM-12+009799999V0202501N002019999999N0300001N1+02711+00661101311ADDGF106991061001999999031001MD1710231+9999REMSYN060AAXX  16091 59046 42980 62502 10271 20066 40131 57023 86030;
0142590460999992000041612004+24350+109400FM-12+009799999V0209999C000019999999N0250001N1+02341+01001101351ADDAA199000091GF106991061001999999031001MD1210031+9999REMSYN060AAXX  16121 59046 32975 60000 10234 20100 40135 52003 86030;EQDQ01  00002PRCP99
0177590460999992000041618004+24350+109400FM-12+009799999V0209999C000019999999N0080001N1+01801+01351101371ADDAA199000091GF106991061001999999031001KA1999M+02771MD1710091+9999MW1101REMSYN076AAXX  16181 59046 31958 60000 10180 20135 40137 57009 71000 86030 333 10277;EQDQ01  00002PRCP99
0124590460999992000041621004+24350+109400FM-12+009799999V0209999C000019999999N0080001N1+01681+01331101321ADDGF107991071001999999031001MD1710051+9999MW1101REMSYN066AAXX  16211 59046 41958 70000 10168 20133 40132 57005 71000 87030;
0164590460999992000041700004+24350+109400FM-12+009799999V0209999C000019999999N0060001N1+01761+01401101461ADDAA199000091GF107991071001999999031999MD1210131+0041MW1101REMSYN076AAXX  17001 59046 31956 70000 10176 20140 40146 52013 71000 8703/ 333 05401;EQDQ01  00002PRCP99
0112590460999992000041703004+24350+109400FM-12+009799999V0202001N005019999999N0200001N1+02521+01311101501ADDGF106991061001999999031001MD1210051+9999REMSYN060AAXX  17031 59046 42970 62005 10252 20131 40150 52005 86030;
0165590460999992000041706004+24350+109400FM-12+009799999V0202201N003019999999N0250001N1+02651+01321101211ADDAA199000091GF106991061001999999031001KA1999N+01621MD1710291+9999REMSYN070AAXX  17061 59046 32975 62203 10265 20132 40121 57029 86030 333 20162;EQDQ01  00002PRCP99
0112590460999992000041709004+24350+109400FM-12+009799999V0202201N005019999999N0250001N1+02851+01221101001ADDGF107991071001999999031001MD1710201+9999REMSYN060AAXX  17091 59046 42975 72205 10285 20122 40100 57020 87030;
0152590460999992000041712004+24350+109400FM-12+009799999V0201801N003012200019N0250001N1+02581+01331101071ADDAA199000091GA1001+999999999GF100991001001999999001001MD1210061+9999REMSYN054AAXX  17121 59046 32975 01803 10258 20133 40107 52006;EQDQ01  00002PRCP99
0165590460999992000041718004+24350+109400FM-12+009799999V0201801N002019999999N0200001N1+02261+01511101191ADDAA199000091GF106991061001999999031001KA1999M+02911MD1710031+9999REMSYN070AAXX  17181 59046 32970 61802 10226 20151 40119 57003 86030 333 10291;EQDQ01  00002PRCP99
0145590460999992000041721004+24350+109400FM-12+009799999V0201801N002010120019N0150001N1+02251+01581101221ADDAA124000791GF108991081051012501999999MD1210031+9999MW1601REMSYN076AAXX  17211 59046 41665 81802 10225 20158 40122 52003 76000 885// 333 79999;
0165590460999992000041800004+24350+109400FM-12+009799999V0202201N002010120019N0100001N1+02121+01801101341ADDAA106000791AY161061GF108991081051012501999999MD1210121-0101MW1601REMSYN088AAXX  18001 59046 11660 82202 10212 20180 40134 52012 69901 76060 885// 333 05104 79999;
0140590460999992000041803004+24350+109400FM-12+009799999V0202201N002010075019N0040001N1+02101+01931101421ADDAY161031AY261031GF108991081051008001999999MD1210071+9999MW1601REMSYN066AAXX  18031 59046 41540 82202 10210 20193 40142 52007 76066 885//;
0172590460999992000041806004+24350+109400FM-12+009799999V0202001N002010120019N0060001N1+02401+02001101141ADDAA106000791AY161061GF108991081051012501999999KA1999N+02041MD1710271+9999MW1101REMSYN082AAXX  18061 59046 11656 82002 10240 20200 40114 57027 69901 71060 885// 333 20204;
0124590460999992000041809004+24350+109400FM-12+009799999V0209999C000010120019N0060001N1+02481+02121100951ADDGF108991081051012501999999MD1710191+9999MW1101REMSYN066AAXX  18091 59046 41656 80000 10248 20212 40095 57019 71000 885//;
0149590460999992000041812004+24350+109400FM-12+009799999V0209999C000010075019N0040001N1+02331+02101101021ADDAA106000191AY181061GF108991081091008001999999MD1210061+9999MW1251REMSYN072AAXX  18121 59046 11540 80000 10233 20210 40102 52006 69911 72580 889//;
0172590460999992000041818004+24350+109400FM-12+009799999V0209999C000010150019N0060001N1+02261+02091101111ADDAA106000791AY181061GF107991071051017501999999KA1999M+02491MD1710041+9999MW1101REMSYN082AAXX  18181 59046 11756 70000 10226 20209 40111 57004 69901 71080 875// 333 10249;
0145590460999992000041821004+24350+109400FM-12+009799999V0209999C000010210019N0060001N1+02271+02101100981ADDAA124000191GF107991071051022501999999MD1710131+9999MW1101REMSYN076AAXX  18211 59046 41856 70000 10227 20210 40098 57013 71000 875// 333 70001;
0151590460999992000041900004+24350+109400FM-12+009799999V0201401N002010150019N0040001N1+02361+02121101101ADDAA124000191GF107991071051017501999999MD1210121-0201MW1101REMSYN082AAXX  19001 59046 31740 71402 10236 20212 40110 52012 71000 875// 333 05202 70001;
0112590460999992000041903004+24350+109400FM-12+009799999V0202001N003010120019N0180001N1+02661+02191101091ADDGF107991071081008001999999MD1710011+9999REMSYN060AAXX  19031 59046 42568 72003 10266 20219 40109 57001 878//;
0165590460999992000041906004+24350+109400FM-12+009799999V0202201N002010120019N0200001N1+02941+02161100791ADDAA199000091GF107991071081008001999999KA1999N+02221MD1710291+9999REMSYN070AAXX  19061 59046 32570 72202 10294 20216 40079 57029 878// 333 20222;EQDQ01  00002PRCP99
0112590460999992000041909004+24350+109400FM-12+009799999V0202001N003012200019N0300001N1+03061+02131100471ADDGF103991031021008001001001MD1710311+9999REMSYN060AAXX  19091 59046 42580 32003 10306 20213 40047 57031 83200;
0142590460999992000041912004+24350+109400FM-12+009799999V0201401N001010120019N0300001N1+02871+02181100511ADDAA199000091GF106991061081008001001001MD1210031+9999REMSYN060AAXX  19121 59046 32580 61401 10287 20218 40051 52003 86800;EQDQ01  00002PRCP99
0165590460999992000041918004+24350+109400FM-12+009799999V0202201N001012200019N0300001N1+02621+02161100701ADDAA199000091GF102991021011008001001001KA1999M+03101MD1710051+9999REMSYN070AAXX  19181 59046 32580 22201 10262 20216 40070 57005 82100 333 10310;EQDQ01  00002PRCP99
0153590460999992000041921004+24350+109400FM-12+009799999V0202001N004010150019N0250001N1+02561+02141100671ADDAA124000791AY161031GF107991071051017501999999MD1710031+9999MW1211REMSYN076AAXX  19211 59046 41775 72004 10256 20214 40067 57003 72160 875// 333 79999;
0165590460999992000042000004+24350+109400FM-12+009799999V0201801N003010120019N0250001N1+02561+02171100821ADDAA106000791AY161061GF107991071081008001999999MD1210141-0301MW1001REMSYN088AAXX  20001 59046 11575 71803 10256 20217 40082 52014 69901 70060 878// 333 05302 79999;
0112590460999992000042003004+24350+109400FM-12+009799999V0202001N003010120019N0250001N1+02801+02181100881ADDGF107991071081008001999999MD1210071+9999REMSYN060AAXX  20031 59046 42575 72003 10280 20218 40088 52007 878//;
0146590460999992000042006004+24350+109400FM-12+009799999V0201801N003010120019N0300001N1+03021+02241100671ADDAA199000021GF107991071081008001999999KA1999N+02491MD1710211+9999REMSYN070AAXX  20061 59046 32580 71803 10302 20224 40067 57021 878// 333 20249;
0112590460999992000042009004+24350+109400FM-12+009799999V0202201N003012200019N0300001N1+03211+02261100401ADDGF104991041021008001001001MD1710261+9999REMSYN060AAXX  20091 59046 42580 42203 10321 20226 40040 57026 84200;
0149590460999992000042012004+24350+109400FM-12+009799999V0203201N004010075019N0300001N1+02321+01821100881ADDAA106000791AY181061GF107991071091008001999999MD1210451+9999MW1251REMSYN072AAXX  20121 59046 11580 73204 10232 20182 40088 52045 69901 72580 879//;
0133590460999992000042021004+24350+109400FM-12+009799999V0202901N001019999999N0300001N1+01981+01471101181ADDAA124000791GF107991071001999999031999MD1210011+9999REMSYN070AAXX  20211 59046 42980 72901 10198 20147 40118 52001 8703/ 333 79999;
0112590460999992000042103004+24350+109400FM-12+009799999V0203401N003010150019N0200001N1+02131+01401101451ADDGF108991081051017501999999MD1210101+9999REMSYN060AAXX  21031 59046 42770 83403 10213 20140 40145 52010 885//;
0165590460999992000042106004+24350+109400FM-12+009799999V0203401N003019999999N0250001N1+02301+01441101251ADDAA199000091GF108991081001999999071999KA1999N+01931MD1710201+9999REMSYN070AAXX  21061 59046 32975 83403 10230 20144 40125 57020 8807/ 333 20193;EQDQ01  00002PRCP99
0112590460999992000042109004+24350+109400FM-12+009799999V0203201N002010150019N0250001N1+02311+01461101041ADDGF108991081051017501999999MD1710211+9999REMSYN060AAXX  21091 59046 42775 83202 10231 20146 40104 57021 885//;
0142590460999992000042112004+24350+109400FM-12+009799999V0200401N001010150019N0250001N1+02181+01481101101ADDAA199000091GF108991081051017501999999MD1210061+9999REMSYN060AAXX  21121 59046 32775 80401 10218 20148 40110 52006 885//;EQDQ01  00002PRCP99
0164590460999992000042118004+24350+109400FM-12+009799999V0202901N001010120019N0150001N1+02061+01631101181ADDAA106000791GF108991081051012501999999KA1999M+02351MD1710071+9999MW1601REMSYN082AAXX  21181 59046 11665 82901 10206 20163 40118 57007 69901 76000 885// 333 10235;
0153590460999992000042121004+24350+109400FM-12+009799999V0203401N001010120019N0150001N1+01961+01671101021ADDAA124000591AY161031GF108991081051012501999999MD1710161+9999MW1001REMSYN076AAXX  21211 59046 41665 83401 10196 20167 40102 57016 70060 885// 333 70005;
0165590460999992000042200004+24350+109400FM-12+009799999V0209999C000010120019N0110001N1+01981+01691101131ADDAA106000591AY161061GF108991081051012501999999MD1210111-0201MW1001REMSYN088AAXX  22001 59046 11661 80000 10198 20169 40113 52011 69951 70060 885// 333 05200 70005;
0140590460999992000042203004+24350+109400FM-12+009799999V0200201N002010042019N0060001N1+01771+01671101411ADDAY181031AY261031GF108991081091004501999999MD1210271+9999MW1951REMSYN066AAXX  22031 59046 41456 80202 10177 20167 40141 52027 79586 889//;
0180590460999992000042206004+24350+109400FM-12+009799999V0200401N002010042019N0200001N1+01761+01561101261ADDAA106009991AY191061AY261061GF108991081091004501999999KA1999N+01731MD1710151+9999MW1801REMSYN082AAXX  22061 59046 11470 80402 10176 20156 40126 57015 60101 78096 889// 333 20173;
0132590460999992000042209004+24350+109400FM-12+009799999V0200201N001010360019N0250001N1+01981+01561101001ADDAY181031GF107991021011008001031081MD1710261+9999MW1001REMSYN066AAXX  22091 59046 41575 70201 10198 20156 40100 57026 70080 82138;
0146590460999992000042218004+24350+109400FM-12+009799999V0209999C000010120019N0100001N1+01901+01651101081ADDAA199000021GF108991081051012501999999KA1999M+02061MD1710121+9999REMSYN070AAXX  22181 59046 32660 80000 10190 20165 40108 57012 885// 333 10206;
0145590460999992000042221004+24350+109400FM-12+009799999V0200401N001010120019N0080001N1+01901+01641101011ADDAA124010491GF108991081051012501999999MD1710071+9999MW1101REMSYN076AAXX  22211 59046 41658 80401 10190 20164 40101 57007 71000 885// 333 70104;
0151590460999992000042300004+24350+109400FM-12+009799999V0209999C000010120019N0080001N1+01921+01661101101ADDAA124010491GF108991081051012501999999MD1210091+0001MW1101REMSYN082AAXX  23001 59046 31658 80000 10192 20166 40110 52009 71000 885// 333 00051 70104;
0112590460999992000042303004+24350+109400FM-12+009799999V0203401N002010120019N0180001N1+02071+01661101121ADDGF108991081081008001999999MD1210021+9999REMSYN060AAXX  23031 59046 42568 83402 10207 20166 40112 52002 888//;
0172590460999992000042306004+24350+109400FM-12+009799999V0200401N002010042019N0080001N1+02001+01711100941ADDAA106000791AY161061GF108991081051004501999999KA1999N+01761MD1710181+9999MW1601REMSYN082AAXX  23061 59046 11458 80402 10200 20171 40094 57018 69901 76060 885// 333 20176;
0132590460999992000042309004+24350+109400FM-12+009799999V0200401N002010042019N0080001N1+01901+01741100781ADDAY161031GF108991081051004501999999MD1710161+9999MW1601REMSYN066AAXX  23091 59046 41458 80402 10190 20174 40078 57016 76060 885//;
0149590460999992000042312004+24350+109400FM-12+009799999V0200701N001010042019N0050001N1+01871+01741100861ADDAA106000191AY161061GF108991081051004501999999MD1210081+9999MW1601REMSYN072AAXX  23121 59046 11450 80701 10187 20174 40086 52008 69911 76060 885//;
0172590460999992000042318004+24350+109400FM-12+009799999V0209999C000010120019N0040001N1+01861+01781100861ADDAA106000791AY161061GF108991081051012501999999KA1999M+02111MD1710081+9999MW1211REMSYN082AAXX  23181 59046 11640 80000 10186 20178 40086 57008 69901 72160 885// 333 10211;
0145590460999992000042321004+24350+109400FM-12+009799999V0200901N001010120019N0040001N1+01851+01741100771ADDAA124000191GF108991081051012501999999MD1710091+9999MW1101REMSYN076AAXX  23211 59046 41640 80901 10185 20174 40077 57009 71000 885// 333 70001;
0150590460999992000042400004+24350+109400FM-12+009799999V0200701N001010120019N0060001N1+01871+01721100781ADDAA124000191GF108991081051012501999999MD1210011-0301MW1101REMSYN081AAXX  24001 59046 3165680701 10187 20172 40078 52001 71000 885// 333 05351 70001;
0124590460999992000042403004+24350+109400FM-12+009799999V0203601N002010120019N0060001N1+01901+01771100761ADDGF108991081051012501999999MD1710021+9999MW1101REMSYN066AAXX  24031 59046 41656 83602 10190 20177 40076 57002 71000 885//;
0172590460999992000042406004+24350+109400FM-12+009799999V0209999C000010120019N0030001N1+02071+01901100461ADDAA106000791AY161061GF108991081051012501999999KA1999N+01821MD1710291+9999MW1601REMSYN082AAXX  24061 59046 11630 80000 10207 20190 40046 57029 69901 76060 885// 333 20182;
0123590460999992000042409004+24350+109400FM-12+009799999V0203401N001010120019N0020001N1+02311+01991100231ADDGF108991081051012501999999MD1710221+9999MW1101REMSYN065AAXX  24091 59046 41620 83401 10231 20199 40023 57022 71000885//;
0168590460999992000042418004+24350+109400FM-12+009799999V0209999C000012200019N0030001N1+02001+01941100281ADDAA199000021GA1001+999999999GF100991001001999999001001KA1999M+02341MD1710111+9999MW1101REMSYN070AAXX  24181 59046 31930 00000 10200 20194 40028 57011 71000 333 10234;
0155590460999992000042421004+24350+109400FM-12+009799999V0209999C000012200019N0020001N1+01951+01901100321ADDAA124000791GA1001+999999999GF100991001001999999001001MD1210041+9999MW1101REMSYN070AAXX  24211 59046 41920 00000 10195 20190 40032 52004 71000 333 79999;
0151590460999992000042500004+24350+109400FM-12+009799999V0203201N001010120019N0060001N1+02051+01961100461ADDAA124000791GF107991071081008001999999MD1210141-0301MW1101REMSYN082AAXX  25001 59046 31556 73201 10205 20196 40046 52014 71000 878// 333 05302 79999;
0124590460999992000042503004+24350+109400FM-12+009799999V0200401N002010120019N0060001N1+02601+02231100431ADDGF107991071081008001999999MD1710021+9999MW1101REMSYN066AAXX  25031 59046 41556 70402 10260 20223 40043 57002 71000 878//;
0165590460999992000042506004+24350+109400FM-12+009799999V0202001N002010120019N0120001N1+03061+02381100201ADDAA199000091GF107991071081008001999999KA1999N+01931MD1710231+9999REMSYN070AAXX  25061 59046 32562 72002 10306 20238 40020 57023 878// 333 20193;EQDQ01  00002PRCP99
0112590460999992000042509004+24350+109400FM-12+009799999V0201401N001010075019N0200001N1+03201+02411100051ADDGF107991071091008001999999MD1710141+9999REMSYN060AAXX  25091 59046 42570 71401 10320 20241 40005 57014 879//;
0142590460999992000042512004+24350+109400FM-12+009799999V0202901N002010075019N0150001N1+02821+02511100181ADDAA199000091GF107991071091008001999999MD1210121+9999REMSYN060AAXX  25121 59046 32565 72902 10282 20251 40018 52012 879//;EQDQ01  00002PRCP99
0180590460999992000042518004+24350+109400FM-12+009799999V0200401N003010042019N0040001N1+02111+02061100481ADDAA106020191AY191061AY281061GF108991081091004501999999KA1999M+03301MD1210121+9999MW1951REMSYN082AAXX  25181 59046 11440 80403 10211 20206 40048 52012 60201 79598 889// 333 10330;
0161590460999992000042521004+24350+109400FM-12+009799999V0203401N001010150019N0120001N1+02131+02021100571ADDAA124024691AY191031AY281031GF108991081051017501999999MD1210101+9999MW1001REMSYN076AAXX  25211 59046 41762 83401 10213 20202 40057 52010 70098 885// 333 70247;
0173590460999992000042600004+24350+109400FM-12+009799999V0203401N002010120019N0150001N1+02101+01851100921ADDAA106005191AY191061AY281061GF108991081081008001999999MD1210331+0501MW1001REMSYN088AAXX  26001 59046 11565 83402 10210 20185 40092 52033 60051 70098 888// 333 00501 70247;
0132590460999992000042603004+24350+109400FM-12+009799999V0200401N001010120019N0180001N1+02041+01721101241ADDAY161031GF108991081051012501999999MD1210321+9999MW1601REMSYN066AAXX  26031 59046 41668 80401 10204 20172 40124 52032 76060 885//;
0180590460999992000042606004+24350+109400FM-12+009799999V0200401N003010120019N0200001N1+02181+01751101081ADDAA106006191AY181061AY261061GF108991081081008001999999KA1999N+01971MD1710171+9999MW1001REMSYN082AAXX  26061 59046 11570 80403 10218 20175 40108 57017 60061 70086 888// 333 20197;
0112590460999992000042609004+24350+109400FM-12+009799999V0200701N003010120019N0200001N1+02321+01821100981ADDGF107991071081008001001001MD1710101+9999REMSYN060AAXX  26091 59046 42570 70703 10232 20182 40098 57010 87800;
0123590460999992000042612004+24350+109400FM-12+009799999V0200401N002019999999N0250001N1+02141+01691101181ADDAA199000021GF106991061001999999031001MD1210201+9999REMSYN060AAXX  26121 59046 32975 60402 10214 20169 40118 52020 86030;
0165590460999992000042618004+24350+109400FM-12+009799999V0203401N001010150019N0150001N1+02021+01441101221ADDAA199000091GF108991081051017501999999KA1999M+02401MD1710101+9999REMSYN070AAXX  26181 59046 32765 83401 10202 20144 40122 57010 885// 333 10240;EQDQ01  00002PRCP99
0133590460999992000042621004+24350+109400FM-12+009799999V0200401N001010150019N0120001N1+01921+01481101111ADDAA124006191GF108991081051017501999999MD1710111+9999REMSYN070AAXX  26211 59046 42762 80401 10192 20148 40111 57011 885// 333 70060;
0165590460999992000042700004+24350+109400FM-12+009799999V0200401N002010120019N0080001N1+01931+01531101261ADDAA106000791AY161061GF108991081051012501999999MD1210141+0301MW1211REMSYN088AAXX  27001 59046 11658 80402 10193 20153 40126 52014 69901 72160 885// 333 00352 70060;
0132590460999992000042703004+24350+109400FM-12+009799999V0209999C000010042019N0060001N1+01961+01661101431ADDAY161031GF108991081051004501999999MD1210171+9999MW1601REMSYN066AAXX  27031 59046 41456 80000 10196 20166 40143 52017 76060 885//;
0172590460999992000042706004+24350+109400FM-12+009799999V0200701N004010090019N0030001N1+01841+01641101221ADDAA106006191AY161061GF108991081081004501999999KA1999N+01811MD1710211+9999MW1601REMSYN082AAXX  27061 59046 11430 80704 10184 20164 40122 57021 60061 76060 888// 333 20181;
0132590460999992000042709004+24350+109400FM-12+009799999V0209999C000010042019N0030001N1+01791+01691101111ADDAY161031GF108991081051004501999999MD1710111+9999MW1601REMSYN066AAXX  27091 59046 41430 80000 10179 20169 40111 57011 76060 885//;
0149590460999992000042712004+24350+109400FM-12+009799999V0203601N002010042019N0030001N1+01811+01731101071ADDAA106008991AY161061GF108991081051004501999999MD1710041+9999MW1601REMSYN072AAXX  27121 59046 11430 83602 10181 20173 40107 57004 60091 76060 885//;
0172590460999992000042718004+24350+109400FM-12+009799999V0200401N001010042019N0030001N1+01761+01661101171ADDAA106000891AY161061GF108991081071004501999999KA1999M+02011MD1210031+9999MW1601REMSYN082AAXX  27181 59046 11430 80401 10176 20166 40117 52003 69981 76060 887// 333 10201;
0153590460999992000042721004+24350+109400FM-12+009799999V0200201N001010120019N0030001N1+01771+01691101071ADDAA124016591AY161031GF108991081051012501999999MD1710101+9999MW1101REMSYN076AAXX  27211 59046 41630 80201 10177 20169 40107 57010 71060 885// 333 70164;
0165590460999992000042800004+24350+109400FM-12+009799999V0200401N001010042019N0040001N1+01811+01701101201ADDAA106000191AY161061GF108991081051004501999999MD1210131-0101MW1211REMSYN088AAXX  28001 59046 11440 80401 10181 20170 40120 52013 69921 72160 885// 333 05151 70165;
0132590460999992000042803004+24350+109400FM-12+009799999V0201101N002010120019N0130001N1+01971+01691101221ADDAY161031GF108991081081008001999999MD1210021+9999MW1001REMSYN066AAXX  28031 59046 41563 81102 10197 20169 40122 52002 70060 888//;
0172590460999992000042806004+24350+109400FM-12+009799999V0209999C000010120019N0120001N1+02201+01791101011ADDAA106000791AY161061GF107991071081008001999999KA1999N+01741MD1710211+9999MW1001REMSYN082AAXX  28061 59046 11562 70000 10220 20179 40101 57021 69901 70060 878// 333 20174;
0132590460999992000042809004+24350+109400FM-12+009799999V0209999C000010120019N0110001N1+02201+01841100751ADDAY161031GF108991081081008001999999MD1710251+9999MW1001REMSYN066AAXX  28091 59046 41561 80000 10220 20184 40075 57025 70060 888//;
0149590460999992000042812004+24350+109400FM-12+009799999V0209999C000010120019N0120001N1+02181+01931100911ADDAA106000791AY161061GF108991081051012501999999MD1210161+9999MW1601REMSYN072AAXX  28121 59046 11662 80000 10218 20193 40091 52016 69901 76060 885//;
0180590460999992000042818004+24350+109400FM-12+009799999V0209999C000010042019N0040001N1+02071+02011100911ADDAA106000391AY161061AY261061GF108991081051004501999999KA1999M+02251MD1710121+9999MW1601REMSYN082AAXX  28181 59046 11440 80000 10207 20201 40091 57012 69931 76066 885// 333 10225;
0153590460999992000042821004+24350+109400FM-12+009799999V0209999C000010120019N0040001N1+02081+01991100941ADDAA124000591AY161031GF108991081051012501999999MD1210031+9999MW1101REMSYN076AAXX  28211 59046 41640 80000 10208 20199 40094 52003 71060 885// 333 70004;
0165590460999992000042900004+24350+109400FM-12+009799999V0209999C000010120019N0030001N1+02121+02011101121ADDAA106000791AY161061GF108991081051012501999999MD1210181-0101MW1101REMSYN088AAXX  29001 59046 11630 80000 10212 20201 40112 52018 69901 71060 885// 333 05103 70003;
0132590460999992000042903004+24350+109400FM-12+009799999V0209999C000010120019N0030001N1+02161+02051101131ADDAY161031GF108991081051012501999999MD1210011+9999MW1601REMSYN066AAXX  29031 59046 41630 80000 10216 20205 40113 52001 76060 885//;
0172590460999992000042906004+24350+109400FM-12+009799999V0209999C000010120019N0030001N1+02241+02131100941ADDAA106000391AY161061GF108991081051012501999999KA1999N+02051MD1710191+9999MW1601REMSYN082AAXX  29061 59046 11630 80000 10224 20213 40094 57019 69931 76060 885// 333 20205;
0132590460999992000042909004+24350+109400FM-12+009799999V0209999C000010120019N0050001N1+02381+02231100791ADDAY161031GF108991081051012501999999MD1710141+9999MW1101REMSYN066AAXX  29091 59046 41650 80000 10238 20223 40079 57014 71060 885//;
0149590460999992000042912004+24350+109400FM-12+009799999V0209999C000010120019N0030001N1+02311+02241100921ADDAA106000191AY161061GF108991081051012501999999MD1210121+9999MW1101REMSYN072AAXX  29121 59046 11630 80000 10231 20224 40092 52012 69911 71060 885//;
0172590460999992000042918004+24350+109400FM-12+009799999V0203601N001010042019N0030001N1+02271+02201101021ADDAA106017091AY181061GF108991081091004501999999KA1999M+02391MD1710071+9999MW1801REMSYN082AAXX  29181 59046 11430 83601 10227 20220 40102 57007 60171 78080 889// 333 10239;
0161590460999992000042921004+24350+109400FM-12+009799999V0203401N002010042019N0030001N1+01941+01881101061ADDAA124039691AY191031AY281031GF108991081091004501999999MD1210031+9999MW1951REMSYN076AAXX  29211 59046 41430 83402 10194 20188 40106 52003 79598 889// 333 70397;
0173590460999992000043000004+24350+109400FM-12+009799999V0203401N002010042019N0080001N1+02001+01841101341ADDAA106026991AY191061AY281061GF108991081091004501999999MD1210281+0201MW1801REMSYN088AAXX  30001 59046 11458 83402 10200 20184 40134 52028 60271 78098 889// 333 00251 70441;
0132590460999992000043003004+24350+109400FM-12+009799999V0203401N003010120019N0180001N1+02121+01731101451ADDAY181031GF108991081081008001999999MD1210111+9999MW1001REMSYN066AAXX  30031 59046 41568 83403 10212 20173 40145 52011 70080 888//;
0172590460999992000043006004+24350+109400FM-12+009799999V0203201N003010150019N0200001N1+02241+01691101231ADDAA106000191AY181061GF108991081051017501999999KA1999N+01931MD1710221+9999MW1001REMSYN082AAXX  30061 59046 11770 83203 10224 20169 40123 57022 69911 70080 885// 333 20193;
0112590460999992000043009004+24350+109400FM-12+009799999V0200401N002010120019N0250001N1+02291+01771101041ADDGF108991081081008001999999MD1710191+9999REMSYN060AAXX  30091 59046 42575 80402 10229 20177 40104 57019 888//;
0123590460999992000043012004+24350+109400FM-12+009799999V0200701N002010120019N0200001N1+02201+01801101041ADDAA199000021GF108991081051012501999999MD1410001+9999REMSYN060AAXX  30121 59046 32670 80702 10220 20180 40104 54000 885//;
0165590460999992000043018004+24350+109400FM-12+009799999V0203401N001010120019N0150001N1+02081+01741101021ADDAA199000091GF108991081051012501999999KA1999M+02331MD1710101+9999REMSYN070AAXX  30181 59046 32665 83401 10208 20174 40102 57010 885// 333 10233;EQDQ01  00002PRCP99
0153590460999992000043021004+24350+109400FM-12+009799999V0209999C000010075019N0150001N1+02031+01771100921ADDAA124004691AY181031GF108991081091008001999999MD1710101+9999MW1251REMSYN076AAXX  30211 59046 41565 80000 10203 20177 40092 57010 72580 889// 333 70046;
0165590460999992000050100004+24350+109400FM-12+009799999V0209999C000010075019N0080001N1+02031+01771101071ADDAA106000191AY181061GF108991081091008001999999MD1210151-0301MW1801REMSYN088AAXX  01001 59046 11558 80000 10203 20177 40107 52015 69911 78080 889// 333 05300 70002;
0132590460999992000050103004+24350+109400FM-12+009799999V0209999C000010075019N0080001N1+02101+01831101231ADDAY181031GF108991081091008001999999MD1210161+9999MW1251REMSYN066AAXX  01031 59046 41558 80000 10210 20183 40123 52016 72580 889//;
0172590460999992000050106004+24350+109400FM-12+009799999V0200401N002010120019N0150001N1+02241+01831101021ADDAA106000591AY181061GF108991081081008001999999KA1999N+01991MD1710211+9999MW1001REMSYN082AAXX  01061 59046 11565 80402 10224 20183 40102 57021 69951 70080 888// 333 20199;
0112590460999992000050109004+24350+109400FM-12+009799999V0200701N001010120019N0200001N1+02311+01921100831ADDGF108991081081008001999999MD1710191+9999REMSYN060AAXX  01091 59046 42570 80701 10231 20192 40083 57019 888//;
0123590460999992000050112004+24350+109400FM-12+009799999V0200901N002010120019N0150001N1+02261+01981100911ADDAA199000021GF108991081051012501999999MD1210081+9999REMSYN060AAXX  01121 59046 32665 80902 10226 20198 40091 52008 885//;
0165590460999992000050118004+24350+109400FM-12+009799999V0209999C000019999999N0120001N1+02111+01791101091ADDAA199000091GF107991071001999999031999KA1999M+02331MD1710081+9999REMSYN070AAXX  01181 59046 32962 70000 10211 20179 40109 57008 8703/ 333 10233;EQDQ01  00002PRCP99
0133590460999992000050121004+24350+109400FM-12+009799999V0209999C000010150019N0120001N1+02081+01691101061ADDAA124000591GF107991071051017501999999MD1710031+9999REMSYN070AAXX  01211 59046 42762 70000 10208 20169 40106 57003 875// 333 70005;
0165590460999992000050200004+24350+109400FM-12+009799999V0203401N002010042019N0030001N1+01941+01751101391ADDAA106001091AY181061GF108991081091004501999999MD1210331+0301MW1801REMSYN088AAXX  02001 59046 11430 83402 10194 20175 40139 52033 60011 78080 889// 333 00351 70016;
0140590460999992000050203004+24350+109400FM-12+009799999V0203201N002010042019N0030001N1+01981+01821101601ADDAY181031AY281031GF108991081091004501999999MD1210201+9999MW1801REMSYN066AAXX  02031 59046 41430 83202 10198 20182 40160 52020 78088 889//;
0172590460999992000050206004+24350+109400FM-12+009799999V0200401N002010120019N0160001N1+02231+01841101391ADDAA106005191AY181061GF108991081081008001999999KA1999N+01881MD1710201+9999MW1001REMSYN082AAXX  02061 59046 11566 80402 10223 20184 40139 57020 60051 70080 888// 333 20188;
0112590460999992000050209004+24350+109400FM-12+009799999V0200901N002010360019N0300001N1+02461+01891101271ADDGF106991021011008001031011MD1710121+9999REMSYN060AAXX  02091 59046 42580 60902 10246 20189 40127 57012 82131;
0123590460999992000050212004+24350+109400FM-12+009799999V0200901N002012200019N0180001N1+02241+01761101361ADDAA199000021GF101991011001999999031001MD1210091+9999REMSYN060AAXX  02121 59046 32968 10902 10224 20176 40136 52009 81030;
0175590460999992000050218004+24350+109400FM-12+009799999V0203201N001012200019N0120001N1+01921+01791101441ADDAA199000091GA1001+999999999GF100991001001999999001001KA1999M+02481MD1710121+9999REMSYN064AAXX  02181 59046 32962 03201 10192 20179 40144 57012 333 10248;EQDQ01  00002PRCP99
0155590460999992000050221004+24350+109400FM-12+009799999V0209999C000012200019N0040001N1+01821+01751101361ADDAA124006191GA1001+999999999GF100991001001999999001001MD1710071+9999MW1101REMSYN070AAXX  02211 59046 41940 00000 10182 20175 40136 57007 71000 333 70060;
0161590460999992000050300004+24350+109400FM-12+009799999V0203601N001012200019N0030001N1+01981+01841101511ADDAA124004891GA1001+999999999GF100991001001999999001001MD1210141+0101MW1101REMSYN076AAXX  03001 59046 31930 03601 10198 20184 40151 52014 71000 333 00100 70049;
0112590460999992000050303004+24350+109400FM-12+009799999V0200401N003012200019N0120001N1+02511+01841101511ADDGF103991031011008001001001MD1210011+9999REMSYN060AAXX  03031 59046 42562 30403 10251 20184 40151 52001 83100;
0165590460999992000050306004+24350+109400FM-12+009799999V0203401N002012200019N0200001N1+02841+01821101321ADDAA199000091GF103991031011008001001001KA1999N+01801MD1710181+9999REMSYN070AAXX  03061 59046 32570 33402 10284 20182 40132 57018 83100 333 20180;EQDQ01  00002PRCP99
0112590460999992000050309004+24350+109400FM-12+009799999V0203201N002012200019N0300001N1+02941+01641101071ADDGF102991011011008001001011MD1710251+9999REMSYN060AAXX  03091 59046 42580 23202 10294 20164 40107 57025 81101;
0152590460999992000050312004+24350+109400FM-12+009799999V0201601N002012200019N0250001N1+02681+01811101141ADDAA199000091GA1001+999999999GF100991001001999999001001MD1210071+9999REMSYN054AAXX  03121 59046 32975 01602 10268 20181 40114 52007;EQDQ01  00002PRCP99
0175590460999992000050318004+24350+109400FM-12+009799999V0209999C000012200019N0120001N1+02111+01941101241ADDAA199000091GA1001+999999999GF100991001001999999001001KA1999M+02981MD1710071+9999REMSYN064AAXX  03181 59046 32962 00000 10211 20194 40124 57007 333 10298;EQDQ01  00002PRCP99
0134590460999992000050321004+24350+109400FM-12+009799999V0202901N001012200019N0060001N1+02001+01911101191ADDGA1001+999999999GF100991001001999999001001MD1710051+9999MW1101REMSYN060AAXX  03211 59046 41956 02901 10200 20191 40119 57005 71000;
0164590460999992000050400004+24350+109400FM-12+009799999V0202901N001012200019N0030001N1+02061+01901101351ADDAA199000091GF102991001001999999001011MD1210161+0011MW1101REMSYN076AAXX  04001 59046 31930 22901 10206 20190 40135 52016 71000 80001 333 05101;EQDQ01  00002PRCP99
0124590460999992000050403004+24350+109400FM-12+009799999V0202901N002019999999N0030001N1+02661+01961101391ADDGF107991001001999999001081MD1210041+9999MW1041REMSYN066AAXX  04031 59046 41930 72902 10266 20196 40139 52004 70400 80008;
0165590460999992000050406004+24350+109400FM-12+009799999V0202201N002010360019N0150001N1+03011+01831101171ADDAA199000091GF105991021011008001031001KA1999N+01951MD1710211+9999REMSYN070AAXX  04061 59046 32565 52202 10301 20183 40117 57021 82130 333 20195;EQDQ01  00002PRCP99
0112590460999992000050409004+24350+109400FM-12+009799999V0200401N002019999999N0160001N1+03141+01671100961ADDGF106991001001999999001021MD1710211+9999REMSYN060AAXX  04091 59046 42966 60402 10314 20167 40096 57021 80002;
0142590460999992000050412004+24350+109400FM-12+009799999V0209999C000012200019N0150001N1+02711+01841101081ADDAA199000091GF101991001001999999001011MD1210111+9999REMSYN060AAXX  04121 59046 32965 10000 10271 20184 40108 52011 80001;EQDQ01  00002PRCP99
0165590460999992000050418004+24350+109400FM-12+009799999V0209999C000019999999N0120001N1+02341+01951101151ADDAA199000091GF107991071001999999031999KA1999M+03141MD1710081+9999REMSYN070AAXX  04181 59046 32962 70000 10234 20195 40115 57008 8703/ 333 10314;EQDQ01  00002PRCP99
0124590460999992000050421004+24350+109400FM-12+009799999V0209999C000019999999N0060001N1+02221+01991101101ADDGF107991071001999999031999MD1710051+9999MW1101REMSYN066AAXX  04211 59046 41956 70000 10222 20199 40110 57005 71000 8703/;
0164590460999992000050500004+24350+109400FM-12+009799999V0209999C000019999999N0030001N1+02351+01961101331ADDAA199000091GF107991071001999999031999MD1210221+0001MW1101REMSYN076AAXX  05001 59046 31930 70000 10235 20196 40133 52022 71000 8703/ 333 00003;EQDQ01  00002PRCP99
0112590460999992000050503004+24350+109400FM-12+009799999V0202201N003010360019N0150001N1+02791+02171101431ADDGF106991011011008001031001MD1210101+9999REMSYN060AAXX  05031 59046 42565 62203 10279 20217 40143 52010 81130;
0165590460999992000050506004+24350+109400FM-12+009799999V0202201N002010075019N0180001N1+03091+02181101221ADDAA199000091GF106991051021008001031001KA1999N+02191MD1710201+9999REMSYN070AAXX  05061 59046 32568 62202 10309 20218 40122 57020 85230 333 20219;EQDQ01  00002PRCP99
0132590460999992000050509004+24350+109400FM-12+009799999V0203601N002010042019N0100001N1+02581+02211101091ADDAY191031GF108991081091004501999999MD1710141+9999MW1801REMSYN066AAXX  05091 59046 41460 83602 10258 20221 40109 57014 78090 889//;
0157590460999992000050512004+24350+109400FM-12+009799999V0209999C000010150019N0040001N1+02501+02201101161ADDAA106000891AY191061AY281061GF108991081051017501999999MD1210071+9999MW1101REMSYN072AAXX  05121 59046 11740 80000 10250 20220 40116 52007 69981 71098 885//;
0164590460999992000050518004+24350+109400FM-12+009799999V0209999C000010120019N0030001N1+02331+02231101261ADDAA106000791GF108991081051012501999999KA1999M+03111MD1710041+9999MW1211REMSYN082AAXX  05181 59046 11630 80000 10233 20223 40126 57004 69901 72100 885// 333 10311;
0153590460999992000050521004+24350+109400FM-12+009799999V0203601N001010120019N0030001N1+02361+02211101271ADDAA124001091AY161031GF108991081051012501999999MD1410001+9999MW1601REMSYN076AAXX  05211 59046 41630 83601 10236 20221 40127 54000 76060 885// 333 70010;
0165590460999992000050600004+24350+109400FM-12+009799999V0200701N002010120019N0040001N1+02381+02231101391ADDAA106000391AY161061GF108991081051012501999999MD1210121+0101MW1601REMSYN088AAXX  06001 59046 11640 80702 10238 20223 40139 52012 69931 76060 885// 333 00100 70011;
0124590460999992000050603004+24350+109400FM-12+009799999V0202701N001010120019N0040001N1+02571+02311101541ADDGF108991081051012501999999MD1210151+9999MW1101REMSYN066AAXX  06031 59046 41640 82701 10257 20231 40154 52015 71000 885//;
0146590460999992000050606004+24350+109400FM-12+009799999V0201801N003010120019N0120001N1+02661+02251101341ADDAA199000021GF108991081081008001999999KA1999N+02311MD1710201+9999REMSYN070AAXX  06061 59046 32562 81803 10266 20225 40134 57020 888// 333 20231;
0112590460999992000050609004+24350+109400FM-12+009799999V0202201N002010150019N0200001N1+02791+02201101131ADDGF107991071051017501999999MD1710201+9999REMSYN060AAXX  06091 59046 42770 72202 10279 20220 40113 57020 875//;
0123590460999992000050612004+24350+109400FM-12+009799999V0202001N001010150019N0200001N1+02651+02141101181ADDAA199000021GF108991081051017501999999MD1210041+9999REMSYN060AAXX  06121 59046 32770 82001 10265 20214 40118 52004 885//;
0177590460999992000050618004+24350+109400FM-12+009799999V0209999C000010150019N0080001N1+02411+02201101251ADDAA199000091GF108991081051017501999999KA1999M+02871MD1710101+9999MW1101REMSYN076AAXX  06181 59046 31758 80000 10241 20220 40125 57010 71000 885// 333 10287;EQDQ01  00002PRCP99
0145590460999992000050621004+24350+109400FM-12+009799999V0209999C000010150019N0050001N1+02381+02221101191ADDAA124000191GF108991081051017501999999MD1710051+9999MW1101REMSYN076AAXX  06211 59046 41750 80000 10238 20222 40119 57005 71000 885// 333 70001;
0165590460999992000050700004+24350+109400FM-12+009799999V0209999C000010120019N0050001N1+02351+02251101311ADDAA106000791AY161061GF108991081051012501999999MD1210111-0101MW1211REMSYN088AAXX  07001 59046 11650 80000 10235 20225 40131 52011 69901 72160 885// 333 05100 79999;
0124590460999992000050703004+24350+109400FM-12+009799999V0209999C000010042019N0060001N1+02461+02341101381ADDGF108991081051004501999999MD1210071+9999MW1601REMSYN066AAXX  07031 59046 41456 80000 10246 20234 40138 52007 76000 885//;
0180590460999992000050706004+24350+109400FM-12+009799999V0203201N001010042019N0030001N1+02291+02251101311ADDAA106043991AY191061AY261061GF108991081091004501999999KA1999N+02271MD1710071+9999MW1801REMSYN082AAXX  07061 59046 11430 83201 10229 20225 40131 57007 60441 78096 889// 333 20227;
0140590460999992000050709004+24350+109400FM-12+009799999V0200901N001010075019N0040001N1+02461+02281101001ADDAY181031AY281031GF108991081091008001999999MD1710311+9999MW1251REMSYN066AAXX  07091 59046 41540 80901 10246 20228 40100 57031 72588 889//;
0149590460999992000050712004+24350+109400FM-12+009799999V0200901N002010120019N0040001N1+02361+02241101051ADDAA106007191AY181061GF108991081051012501999999MD1210051+9999MW1101REMSYN072AAXX  07121 59046 11640 80902 10236 20224 40105 52005 60071 71080 885//;
0172590460999992000050718004+24350+109400FM-12+009799999V0209999C000010120019N0050001N1+02261+02111100951ADDAA106000791AY161061GF108991081051012501999999KA1999M+02461MD1710131+9999MW1601REMSYN082AAXX  07181 59046 11650 80000 10226 20211 40095 57013 69901 76060 885// 333 10246;
0161590460999992000050721004+24350+109400FM-12+009799999V0209999C000010042019N0030001N1+02221+02141100901ADDAA124054991AY191031AY261031GF108991081091004501999999MD1710051+9999MW1801REMSYN076AAXX  07211 59046 41430 80000 10222 20214 40090 57005 78096 889// 333 70549;
0173590460999992000050800004+24350+109400FM-12+009799999V0209999C000010042019N0020001N1+02251+02191101011ADDAA106009991AY191061AY261061GF108991081091004501999999MD1210111-0301MW1801REMSYN088AAXX  08001 59046 11420 80000 10225 20219 40101 52011 60101 78096 889// 333 05351 70598;
0140590460999992000050803004+24350+109400FM-12+009799999V0201401N001010042019N0020001N1+02301+02241100981ADDAY191031AY281031GF108991081091004501999999MD1710031+9999MW1911REMSYN066AAXX  08031 59046 41420 81401 10230 20224 40098 57003 79198 889//;
0180590460999992000050806004+24350+109400FM-12+009799999V0201401N001010042019N0030001N1+02521+02351100801ADDAA106015091AY191061AY281061GF108991081091004501999999KA1999N+02191MD1710181+9999MW1951REMSYN082AAXX  08061 59046 11430 81401 10252 20235 40080 57018 60151 79598 889// 333 20219;
0140590460999992000050809004+24350+109400FM-12+009799999V0201601N003010042019N0030001N1+02501+02411100631ADDAY191031AY281031GF107991071091004501999999MD1710171+9999MW1801REMSYN066AAXX  08091 59046 41430 71603 10250 20241 40063 57017 78098 879//;
0157590460999992000050812004+24350+109400FM-12+009799999V0201401N002010042019N0060001N1+02461+02311100691ADDAA106007191AY191061AY281061GF108991081091004501999999MD1210061+9999MW1101REMSYN072AAXX  08121 59046 11456 81402 10246 20231 40069 52006 60071 71098 889//;
0172590460999992000050818004+24350+109400FM-12+009799999V0201801N002010150019N0050001N1+02501+02301100581ADDAA106000791AY161061GF108991081051017501999999KA1999M+02571MD1710181+9999MW1101REMSYN082AAXX  08181 59046 11750 81802 10250 20230 40058 57018 69901 71060 885// 333 10257;
0161590460999992000050821004+24350+109400FM-12+009799999V0201801N002010120019N0060001N1+02481+02311100551ADDAA124026991AY191031AY281031GF108991081091012501999999MD1710031+9999MW1101REMSYN076AAXX  08211 59046 41656 81802 10248 20231 40055 57003 71098 889// 333 70268;
0173590460999992000050900004+24350+109400FM-12+009799999V0209999C000010042019N0050001N1+02421+02331100621ADDAA106001091AY191061AY281061GF108991081091004501999999MD1210071-0401MW1801REMSYN088AAXX  09001 59046 11450 80000 10242 20233 40062 52007 60011 78098 889// 333 05402 70230;
0140590460999992000050903004+24350+109400FM-12+009799999V0202201N001010042019N0200001N1+02451+02321100621ADDAY191031AY281031GF108991081091004501999999MD1410001+9999MW1801REMSYN066AAXX  09031 59046 41470 82201 10245 20232 40062 54000 78098 889//;
0180590460999992000050906004+24350+109400FM-12+009799999V0202701N003010042019N0060001N1+02311+02251100461ADDAA106066091AY191061AY281061GF108991081091004501999999KA1999N+02271MD1710161+9999MW1911REMSYN082AAXX  09061 59046 11456 82703 10231 20225 40046 57016 60661 79198 889// 333 20227;
0132590460999992000050909004+24350+109400FM-12+009799999V0203401N004010042019N0200001N1+02771+02131100431ADDAY181031GF108991081091004501999999MD1710031+9999MW1801REMSYN066AAXX  09091 59046 41470 83404 10277 20213 40043 57003 78080 889//;
0149590460999992000050912004+24350+109400FM-12+009799999V0203601N003010042019N0250001N1+02331+01991100641ADDAA106031091AY181061GF108991081051004501999999MD1210201+9999MW1001REMSYN072AAXX  09121 59046 11475 83603 10233 20199 40064 52020 60311 70080 885//;
0146590460999992000050918004+24350+109400FM-12+009799999V0203201N001010120019N0250001N1+02221+01881100761ADDAA199000021GF108991081051012501999999KA1999M+02501MD1710061+9999REMSYN070AAXX  09181 59046 32675 83201 10222 20188 40076 57006 885// 333 10250;
0143590460999992000050921004+24350+109400FM-12+009799999V0203401N002012200019N0250001N1+02121+01791100721ADDAA124097891GA1001+999999999GF100991001001999999001001MD1710041+9999REMSYN064AAXX  09211 59046 42975 03402 10212 20179 40072 57004 333 70978;
0139590460999992000051000004+24350+109400FM-12+009799999V0203401N003019999999N0250001N1+02181+01701100901ADDAA124096891GF106991011001999999031021MD1210181+0301REMSYN076AAXX  10001 59046 32975 63403 10218 20170 40090 52018 81032 333 00352 70967;
0112590460999992000051003004+24350+109400FM-12+009799999V0203201N003019999999N0300001N1+02511+01701100961ADDGF107991011001999999031021MD1210061+9999REMSYN060AAXX  10031 59046 42980 73203 10251 20170 40096 52006 81032;
0165590460999992000051006004+24350+109400FM-12+009799999V0203601N002019999999N0300001N1+02921+01661100751ADDAA199000091GF105991031001999999031021KA1999N+02031MD1710201+9999REMSYN070AAXX  10061 59046 32980 53602 10292 20166 40075 57020 83032 333 20203;EQDQ01  00002PRCP99
0112590460999992000051009004+24350+109400FM-12+009799999V0200901N003010360019N0300001N1+03091+01821100571ADDGF107991011011008001031021MD1710181+9999REMSYN060AAXX  10091 59046 42580 70903 10309 20182 40057 57018 81132;
0142590460999992000051012004+24350+109400FM-12+009799999V0200901N002019999999N0300001N1+02791+01781100631ADDAA199000091GF106991001001999999001011MD1210061+9999REMSYN060AAXX  10121 59046 32980 60902 10279 20178 40063 52006 80001;EQDQ01  00002PRCP99
0187590460999992000051018004+24350+109400FM-12+009799999V0209999C000012200019N0080001N1+02141+01991100731ADDAA199000091GA1001+999999999GF100991001001999999001001KA1999M+03121MD1710071+9999MW1101REMSYN070AAXX  10181 59046 31958 00000 10214 20199 40073 57007 71000 333 10312;EQDQ01  00002PRCP99
0134590460999992000051021004+24350+109400FM-12+009799999V0209999C000012200019N0060001N1+02041+01881100721ADDGA1001+999999999GF100991001001999999001001MD1710011+9999MW1101REMSYN060AAXX  10211 59046 41956 00000 10204 20188 40072 57001 71000;
0164590460999992000051100004+24350+109400FM-12+009799999V0202701N001012200019N0080001N1+02161+01811100861ADDAA199000091GF102991021001999999031001MD1210141+0001MW1101REMSYN076AAXX  11001 59046 31958 22701 10216 20181 40086 52014 71000 82030 333 00000;EQDQ01  00002PRCP99
0112590460999992000051103004+24350+109400FM-12+009799999V0209999C000019999999N0200001N1+02761+01761100801ADDGF106991061001999999031001MD1710061+9999REMSYN060AAXX  11031 59046 42970 60000 10276 20176 40080 57006 86030;
0165590460999992000051106004+24350+109400FM-12+009799999V0202701N001012200019N0300001N1+03151+01761100591ADDAA199000091GF103991021001999999031011KA1999N+01981MD1710211+9999REMSYN070AAXX  11061 59046 32980 32701 10315 20176 40059 57021 82031 333 20198;EQDQ01  00002PRCP99
0112590460999992000051109004+24350+109400FM-12+009799999V0202201N002019999999N0300001N1+03201+01861100421ADDGF107991071001999999031001MD1710161+9999REMSYN060AAXX  11091 59046 42980 72202 10320 20186 40042 57016 87030;
0142590460999992000051112004+24350+109400FM-12+009799999V0209999C000012200019N0250001N1+02871+02001100591ADDAA199000091GF104991041081008001001001MD1210161+9999REMSYN060AAXX  11121 59046 32575 40000 10287 20200 40059 52016 84800;EQDQ01  00002PRCP99
0177590460999992000051118004+24350+109400FM-12+009799999V0209999C000010150019N0080001N1+02351+02121100691ADDAA199000091GF107991071051017501999999KA1999M+03241MD1710051+9999MW1101REMSYN076AAXX  11181 59046 31758 70000 10235 20212 40069 57005 71000 875// 333 10324;EQDQ01  00002PRCP99
0124590460999992000051121004+24350+109400FM-12+009799999V0202901N001010150019N0050001N1+02291+02111100671ADDGF108991081051017501999999MD1710021+9999MW1101REMSYN066AAXX  11211 59046 41750 82901 10229 20211 40067 57002 71000 885//;
0164590460999992000051200004+24350+109400FM-12+009799999V0209999C000019999999N0080001N1+02391+02041100821ADDAA199000091GF107991071001999999031999MD1210141+0001MW1101REMSYN076AAXX  12001 59046 31958 70000 10239 20204 40082 52014 71000 8703/ 333 00002;EQDQ01  00002PRCP99
0165590460999992000051206004+24350+109400FM-12+009799999V0203201N001010150019N0150001N1+02841+02131100731ADDAA199000091GF107991071051017501999999KA1999N+02251MD1710091+9999REMSYN070AAXX  12061 59046 32765 73201 10284 20213 40073 57009 875// 333 20225;EQDQ01  00002PRCP99
0112590460999992000051209004+24350+109400FM-12+009799999V0202701N001019999999N0200001N1+03051+01881100481ADDGF107991071001999999031999MD1710241+9999REMSYN060AAXX  12091 59046 42970 72701 10305 20188 40048 57024 8703/;
0142590460999992000051212004+24350+109400FM-12+009799999V0209999C000010150019N0120001N1+02781+01931100571ADDAA199000091GF107991071051017501999999MD1210081+9999REMSYN060AAXX  12121 59046 32762 70000 10278 20193 40057 52008 875//;EQDQ01  00002PRCP99
0177590460999992000051218004+24350+109400FM-12+009799999V0209999C000019999999N0080001N1+02391+02141100711ADDAA199000091GF107991071001999999031999KA1999M+03101MD1210021+9999MW1101REMSYN076AAXX  12181 59046 31958 70000 10239 20214 40071 52002 71000 8703/ 333 10310;EQDQ01  00002PRCP99
0124590460999992000051221004+24350+109400FM-12+009799999V0209999C000010150019N0050001N1+02311+02181100721ADDGF108991081051017501999999MD1210011+9999MW1101REMSYN066AAXX  12211 59046 41750 80000 10231 20218 40072 52001 71000 885//;
0164590460999992000051300004+24350+109400FM-12+009799999V0202701N001012200019N0030001N1+02361+02211100881ADDAA199000091GF103991031001999999031001MD1210161+0011MW1101REMSYN076AAXX  13001 59046 31930 32701 10236 20221 40088 52016 71000 83030 333 00100;EQDQ01  00002PRCP99
0124590460999992000051303004+24350+109400FM-12+009799999V0202901N001019999999N0040001N1+02761+02231100911ADDGF107991001001999999001081MD1210031+9999MW1101REMSYN066AAXX  13031 59046 41940 72901 10276 20223 40091 52003 71000 80008;
0177590460999992000051306004+24350+109400FM-12+009799999V0201801N002012200019N0040001N1+03161+02121100681ADDAA199000091GF103991011011008001001021KA1999N+02281MD1710221+9999MW1041REMSYN076AAXX  13061 59046 31540 31802 10316 20212 40068 57022 70400 81102 333 20228;EQDQ01  00002PRCP99
0112590460999992000051309004+24350+109400FM-12+009799999V0209999C000019999999N0180001N1+03201+02081100461ADDGF106991011001999999031021MD1710221+9999REMSYN060AAXX  13091 59046 42968 60000 10320 20208 40046 57022 81032;
0142590460999992000051312004+24350+109400FM-12+009799999V0209999C000019999999N0180001N1+02951+02251100501ADDAA199000091GF107991021001999999031021MD1210041+9999REMSYN060AAXX  13121 59046 32968 70000 10295 20225 40050 52004 82032;EQDQ01  00002PRCP99
0165590460999992000051318004+24350+109400FM-12+009799999V0209999C000010150019N0120001N1+02521+02291100761ADDAA199000091GF107991071051017501999999KA1999M+03251MD1210031+9999REMSYN070AAXX  13181 59046 32762 70000 10252 20229 40076 52003 875// 333 10325;EQDQ01  00002PRCP99
0134590460999992000051321004+24350+109400FM-12+009799999V0209999C000012200019N0080001N1+02401+02271100761ADDGA1001+999999999GF100991001001999999001001MD1410001+9999MW1101REMSYN060AAXX  13211 59046 41958 00000 10240 20227 40076 54000 71000;
0164590460999992000051400004+24350+109400FM-12+009799999V0209999C000019999999N0030001N1+02401+02251100911ADDAA199000091GF106991061001999999031011MD1210141+0001MW1101REMSYN076AAXX  14001 59046 31930 60000 10240 20225 40091 52014 71000 86031 333 00000;EQDQ01  00002PRCP99
0124590460999992000051403004+24350+109400FM-12+009799999V0201801N002012200019N0050001N1+03121+02191100941ADDGF104991041001999999031001MD1210041+9999MW1041REMSYN066AAXX  14031 59046 41950 41802 10312 20219 40094 52004 70400 84030;
0165590460999992000051406004+24350+109400FM-12+009799999V0201801N003012200019N0300001N1+03341+01551100681ADDAA199000091GF102991011011012501031001KA1999N+02291MD1710261+9999REMSYN070AAXX  14061 59046 32680 21803 10334 20155 40068 57026 81130 333 20229;EQDQ01  00002PRCP99
0112590460999992000051409004+24350+109400FM-12+009799999V0202201N003012200019N0300001N1+03381+01701100451ADDGF102991021001999999031001MD1710221+9999REMSYN060AAXX  14091 59046 42980 22203 10338 20170 40045 57022 82030;
0152590460999992000051412004+24350+109400FM-12+009799999V0201801N003012200019N0250001N1+03101+01581100571ADDAA199000091GA1001+999999999GF100991001001999999001001MD1210111+9999REMSYN054AAXX  14121 59046 32975 01803 10310 20158 40057 52011;EQDQ01  00002PRCP99
0175590460999992000051418004+24350+109400FM-12+009799999V0209999C000012200019N0200001N1+02481+01981100761ADDAA199000091GA1001+999999999GF100991001001999999001001KA1999M+03401MD1710111+9999REMSYN064AAXX  14181 59046 32970 00000 10248 20198 40076 57011 333 10340;EQDQ01  00002PRCP99
0134590460999992000051421004+24350+109400FM-12+009799999V0209999C000012200019N0080001N1+02291+02061100781ADDGA1001+999999999GF100991001001999999001001MD1210021+9999MW1101REMSYN060AAXX  14211 59046 41958 00000 10229 20206 40078 52002 71000;
0174590460999992000051500004+24350+109400FM-12+009799999V0202701N001012200019N0080001N1+02411+02091100891ADDAA199000091GA1001+999999999GF100991001001999999001001MD1210111+0001MW1101REMSYN070AAXX  15001 59046 31958 02701 10241 20209 40089 52011 71000 333 00000;EQDQ01  00002PRCP99
0134590460999992000051503004+24350+109400FM-12+009799999V0201801N002012200019N0060001N1+03021+02001100921ADDGA1001+999999999GF100991001001999999001001MD1210031+9999MW1041REMSYN060AAXX  15031 59046 41956 01802 10302 20200 40092 52003 70400;
0165590460999992000051506004+24350+109400FM-12+009799999V0202901N001010075019N0150001N1+03241+02021100621ADDAA199000091GF106991061021008001001001KA1999N+02221MD1710301+9999REMSYN070AAXX  15061 59046 32565 62901 10324 20202 40062 57030 86200 333 20222;EQDQ01  00002PRCP99
0112590460999992000051509004+24350+109400FM-12+009799999V0202201N003012200019N0300001N1+03331+01971100421ADDGF102991021011008001001001MD1710201+9999REMSYN060AAXX  15091 59046 42580 22203 10333 20197 40042 57020 82100;
0152590460999992000051512004+24350+109400FM-12+009799999V0201801N002012200019N0200001N1+03161+01911100481ADDAA199000091GA1001+999999999GF100991001001999999001001MD1210061+9999REMSYN054AAXX  15121 59046 32970 01802 10316 20191 40048 52006;EQDQ01  00002PRCP99
0177590460999992000051518004+24350+109400FM-12+009799999V0209999C000010360019N0080001N1+02741+02241100651ADDAA199000091GF105991011011008001031001KA1999M+03401MD1710061+9999MW1101REMSYN076AAXX  15181 59046 31558 50000 10274 20224 40065 57006 71000 81130 333 10340;EQDQ01  00002PRCP99
0124590460999992000051521004+24350+109400FM-12+009799999V0202901N001010150019N0080001N1+02601+02291100661ADDGF107991071051017501999999MD1210011+9999MW1101REMSYN066AAXX  15211 59046 41758 72901 10260 20229 40066 52001 71000 875//;
0164590460999992000051600004+24350+109400FM-12+009799999V0202001N003010120019N0080001N1+02741+02311100791ADDAA199000091GF107991071081008001999999MD1210121+0011MW1101REMSYN076AAXX  16001 59046 31558 72003 10274 20231 40079 52012 71000 878// 333 05103;EQDQ01  00002PRCP99
0132590460999992000051603004+24350+109400FM-12+009799999V0202201N002010042019N0180001N1+02751+02421100841ADDAY181031GF107991071091004501999999MD1210051+9999MW1801REMSYN066AAXX  16031 59046 41468 72202 10275 20242 40084 52005 78080 879//;
0172590460999992000051606004+24350+109400FM-12+009799999V0202201N002010075019N0250001N1+03231+02271100581ADDAA106000591AY181061GF107991071021008001001011KA1999N+02481MD1710251+9999MW1001REMSYN082AAXX  16061 59046 11575 72202 10323 20227 40058 57025 69951 70080 87201 333 20248;
0112590460999992000051609004+24350+109400FM-12+009799999V0200901N002012200019N0200001N1+03151+02451100351ADDGF107991031021008001001011MD1710231+9999REMSYN060AAXX  16091 59046 42570 70902 10315 20245 40035 57023 83201;
0149590460999992000051612004+24350+109400FM-12+009799999V0203401N002010042019N0150001N1+02241+02121100761ADDAA106005191AY181061GF108991081091004501999999MD1210391+9999MW1951REMSYN072AAXX  16121 59046 11465 83402 10224 20212 40076 52039 60051 79580 889//;
0180590460999992000051618004+24350+109400FM-12+009799999V0209999C000010120019N0150001N1+02241+01731100921ADDAA106000591AY191061AY281061GF108991081051012501999999KA1999M+03371MD1710081+9999MW1001REMSYN082AAXX  16181 59046 11665 80000 10224 20173 40092 57008 69941 70098 885// 333 10337;
0133590460999992000051621004+24350+109400FM-12+009799999V0203201N002010150019N0150001N1+02161+01641100901ADDAA124005691GF108991081051017501999999MD1710021+9999REMSYN070AAXX  16211 59046 42765 83202 10216 20164 40090 57002 885// 333 70057;
0139590460999992000051700004+24350+109400FM-12+009799999V0203201N003010150019N0300001N1+02101+01611101031ADDAA124005691GF108991081051017501999999MD1210111+0201REMSYN076AAXX  17001 59046 32780 83203 10210 20161 40103 52011 885// 333 00256 70057;
0112590460999992000051703004+24350+109400FM-12+009799999V0203201N003010120019N0300001N1+02221+01691101081ADDGF108991081081008001999999MD1210051+9999REMSYN060AAXX  17031 59046 42580 83203 10222 20169 40108 52005 888//;
0165590460999992000051706004+24350+109400FM-12+009799999V0200401N002010120019N0300001N1+02451+01771100871ADDAA199000091GF108991081081008001999999KA1999N+02071MD1710201+9999REMSYN070AAXX  17061 59046 32580 80402 10245 20177 40087 57020 888// 333 20207;EQDQ01  00002PRCP99
0112590460999992000051709004+24350+109400FM-12+009799999V0200701N002010120019N0300001N1+02491+01831100731ADDGF108991081081008001999999MD1710141+9999REMSYN060AAXX  17091 59046 42580 80702 10249 20183 40073 57014 888//;
0142590460999992000051712004+24350+109400FM-12+009799999V0200201N002010120019N0300001N1+02361+01791100891ADDAA199000091GF108991081051012501999999MD1210161+9999REMSYN060AAXX  17121 59046 32680 80202 10236 20179 40089 52016 885//;EQDQ01  00002PRCP99
0172590460999992000051718004+24350+109400FM-12+009799999V0200401N002010120019N0200001N1+02221+01701100951ADDAA106000791AY161061GF108991081051012501999999KA1999M+02501MD1710091+9999MW1001REMSYN082AAXX  17181 59046 11670 80402 10222 20170 40095 57009 69901 70060 885// 333 10250;
0133590460999992000051721004+24350+109400FM-12+009799999V0203201N003010120019N0200001N1+02121+01701100951ADDAA124000791GF108991081081008001999999MD1410001+9999REMSYN070AAXX  17211 59046 42570 83203 10212 20170 40095 54000 888// 333 79999;
0165590460999992000051800004+24350+109400FM-12+009799999V0203201N001010042019N0040001N1+01981+01851101111ADDAA106002091AY161061GF108991081051004501999999MD1210151+0101MW1601REMSYN088AAXX  18001 59046 11440 83201 10198 20185 40111 52015 60021 76060 885// 333 00151 70017;
0140590460999992000051803004+24350+109400FM-12+009799999V0200901N002010090019N0300001N1+02061+01521101251ADDAY161031AY261031GF108991081081004501999999MD1210141+9999MW1601REMSYN066AAXX  18031 59046 41480 80902 10206 20152 40125 52014 76066 888//;
0172590460999992000051806004+24350+109400FM-12+009799999V0203401N003010042019N0030001N1+01781+01651101221ADDAA106001091AY161061GF108991081071004501999999KA1999N+01761MD1710041+9999MW1601REMSYN082AAXX  18061 59046 11430 83403 10178 20165 40122 57004 60011 76060 887// 333 20176;
0140590460999992000051809004+24350+109400FM-12+009799999V0203201N005010042019N0040001N1+01801+01671101131ADDAY161031AY261031GF108991081071004501999999MD1710091+9999MW1601REMSYN066AAXX  18091 59046 41440 83205 10180 20167 40113 57009 76066 887//;
0157590460999992000051812004+24350+109400FM-12+009799999V0202901N002010042019N0040001N1+01821+01671101191ADDAA106004191AY161061AY261061GF108991081071004501999999MD1210061+9999MW1601REMSYN072AAXX  18121 59046 11440 82902 10182 20167 40119 52006 60041 76066 887//;
0172590460999992000051818004+24350+109400FM-12+009799999V0209999C000010120019N0040001N1+01871+01661101201ADDAA106001091AY161061GF108991081051012501999999KA1999M+02211MD1710111+9999MW1101REMSYN082AAXX  18181 59046 11640 80000 10187 20166 40120 57011 60011 71060 885// 333 10221;
0145590460999992000051821004+24350+109400FM-12+009799999V0203201N001010120019N0080001N1+01851+01631101121ADDAA124008691GF108991081051012501999999MD1710081+9999MW1101REMSYN076AAXX  18211 59046 41658 83201 10185 20163 40112 57008 71000 885// 333 70086;
0157590460999992000051900004+24350+109400FM-12+009799999V0203401N001010042019N0130001N1+01921+01661101261ADDAA106000791GF108991081051004501999999MD1210141+0101MW1601REMSYN088AAXX  19001 59046 11463 83401 10192 20166 40126 52014 69901 76000 885// 333 00151 70069;
0132590460999992000051903004+24350+109400FM-12+009799999V0203601N001010120019N0200001N1+02201+01611101271ADDAY161031GF107991071051012501999999MD1210011+9999MW1211REMSYN066AAXX  19031 59046 41670 73601 10220 20161 40127 52001 72160 875//;
0172590460999992000051906004+24350+109400FM-12+009799999V0202901N002019999999N0300001N1+02681+01811101041ADDAA106000791AY161061GF107991071001999999031001KA1999N+01751MD1710211+9999MW1001REMSYN082AAXX  19061 59046 11980 72902 10268 20181 40104 57021 69901 70060 87030 333 20175;
0112590460999992000051909004+24350+109400FM-12+009799999V0202901N002019999999N0300001N1+02821+01441100861ADDGF106991031001999999031021MD1710181+9999REMSYN060AAXX  19091 59046 42980 62902 10282 20144 40086 57018 83032;
0123590460999992000051912004+24350+109400FM-12+009799999V0209999C000019999999N0250001N1+02551+01831100921ADDAA199000021GF107991071001999999031999MD1210061+9999REMSYN060AAXX  19121 59046 32975 70000 10255 20183 40092 52006 8703/;
0177590460999992000051918004+24350+109400FM-12+009799999V0209999C000010150019N0080001N1+02241+01931100971ADDAA199000091GF108991081051017501999999KA1999M+02871MD1710071+9999MW1101REMSYN076AAXX  19181 59046 31758 80000 10224 20193 40097 57007 71000 885// 333 10287;EQDQ01  00002PRCP99
0145590460999992000051921004+24350+109400FM-12+009799999V0209999C000010150019N0060001N1+02161+01941100971ADDAA124000791GF107991071051017501999999MD1410001+9999MW1101REMSYN076AAXX  19211 59046 41756 70000 10216 20194 40097 54000 71000 875// 333 79999;
0151590460999992000052000004+24350+109400FM-12+009799999V0209999C000010150019N0040001N1+02181+01901101071ADDAA124000791GF107991071051017501999999MD1210101-0201MW1101REMSYN082AAXX  20001 59046 31740 70000 10218 20190 40107 52010 71000 875// 333 05203 79999;
0112590460999992000052003004+24350+109400FM-12+009799999V0203601N001019999999N0250001N1+02601+01821101091ADDGF107991071001999999031999MD1210021+9999REMSYN060AAXX  20031 59046 42975 73601 10260 20182 40109 52002 8703/;
0165590460999992000052006004+24350+109400FM-12+009799999V0200201N003019999999N0200001N1+03001+01621100971ADDAA199000091GF107991071001999999031999KA1999N+02111MD1710111+9999REMSYN070AAXX  20061 59046 32970 70203 10300 20162 40097 57011 8703/ 333 20211;EQDQ01  00002PRCP99
0112590460999992000052009004+24350+109400FM-12+009799999V0203201N001010075019N0200001N1+02911+01581100811ADDGF108991081091008001999999MD1710161+9999REMSYN060AAXX  20091 59046 42570 83201 10291 20158 40081 57016 889//;
0142590460999992000052012004+24350+109400FM-12+009799999V0209999C000010120019N0150001N1+02631+01961100911ADDAA199000091GF108991081081008001999999MD1210091+9999REMSYN060AAXX  20121 59046 32565 80000 10263 20196 40091 52009 888//;EQDQ01  00002PRCP99
0177590460999992000052018004+24350+109400FM-12+009799999V0203401N002019999999N0080001N1+02341+02001100961ADDAA199000091GF107991071001999999031999KA1999M+03051MD1710081+9999MW1101REMSYN076AAXX  20181 59046 31958 73402 10234 20200 40096 57008 71000 8703/ 333 10305;EQDQ01  00002PRCP99
0124590460999992000052021004+24350+109400FM-12+009799999V0202901N002019999999N0060001N1+02161+02011100951ADDGF107991071001999999031001MD1710011+9999MW1101REMSYN066AAXX  20211 59046 41956 72902 10216 20201 40095 57001 71000 87030;
0164590460999992000052100004+24350+109400FM-12+009799999V0209999C000019999999N0080001N1+02221+01991101111ADDAA199000091GF107991001001999999001021MD1210151+0001MW1101REMSYN076AAXX  21001 59046 31958 70000 10222 20199 40111 52015 71000 80002 333 00000;EQDQ01  00002PRCP99
0124590460999992000052103004+24350+109400FM-12+009799999V0202701N002019999999N0080001N1+02721+01801101141ADDGF107991001001999999001011MD1210041+9999MW1041REMSYN066AAXX  21031 59046 41958 72702 10272 20180 40114 52004 70400 80001;
0165590460999992000052106004+24350+109400FM-12+009799999V0202901N001012200019N0200001N1+03101+01491100971ADDAA199000091GF107991011011008001001011KA1999N+02071MD1710171+9999REMSYN070AAXX  21061 59046 32570 72901 10310 20149 40097 57017 81101 333 20207;EQDQ01  00002PRCP99
0112590460999992000052109004+24350+109400FM-12+009799999V0202201N002019999999N0200001N1+03161+01221100761ADDGF108991001001999999001071MD1710211+9999REMSYN060AAXX  21091 59046 42970 82202 10316 20122 40076 57021 80007;
0142590460999992000052112004+24350+109400FM-12+009799999V0202001N001019999999N0200001N1+02831+01661100851ADDAA199000091GF105991001001999999001011MD1210091+9999REMSYN060AAXX  21121 59046 32970 52001 10283 20166 40085 52009 80001;EQDQ01  00002PRCP99
0165590460999992000052118004+24350+109400FM-12+009799999V0209999C000012200019N0150001N1+02291+02001100981ADDAA199000091GF101991011001999999031001KA1999M+03181MD1710031+9999REMSYN070AAXX  21181 59046 32965 10000 10229 20200 40098 57003 81030 333 10318;EQDQ01  00002PRCP99
0124590460999992000052121004+24350+109400FM-12+009799999V0209999C000019999999N0080001N1+02131+01931101021ADDGF106991061001999999031001MD1210041+9999MW1101REMSYN066AAXX  21211 59046 41958 60000 10213 20193 40102 52004 71000 86030;
0164590460999992000052200004+24350+109400FM-12+009799999V0202701N002019999999N0060001N1+02241+01961101161ADDAA199000091GF107991071001999999031999MD1210131+0011MW1101REMSYN076AAXX  22001 59046 31956 72702 10224 20196 40116 52013 71000 8703/ 333 00100;EQDQ01  00002PRCP99
0112590460999992000052203004+24350+109400FM-12+009799999V0202201N001019999999N0120001N1+02791+02041101211ADDGF107991071001999999031999MD1210061+9999REMSYN060AAXX  22031 59046 42962 72201 10279 20204 40121 52006 8703/;
0165590460999992000052206004+24350+109400FM-12+009799999V0202201N005010360019N0300001N1+03061+01341101021ADDAA199000091GF107991021011008001031021KA1999N+02081MD1710191+9999REMSYN070AAXX  22061 59046 32580 72205 10306 20134 40102 57019 82132 333 20208;EQDQ01  00002PRCP99
0124590460999992000052209004+24350+109400FM-12+009799999V0202201N004010120019N0180001N1+02641+01941101011ADDGF108991081091012501999999MD1710021+9999MW1801REMSYN066AAXX  22091 59046 41668 82204 10264 20194 40101 57002 78000 889//;
0157590460999992000052212004+24350+109400FM-12+009799999V0202201N003019999999N0150001N1+02321+01761101051ADDAA106000191AY181061AY261061GF107991071001999999031999MD1210041+9999MW1211REMSYN072AAXX  22121 59046 11965 72203 10232 20176 40105 52004 69911 72186 8703/;
0146590460999992000052218004+24350+109400FM-12+009799999V0202201N002010120019N0120001N1+02321+01761101091ADDAA199000021GF108991081051012501999999KA1999M+03101MD1710071+9999REMSYN070AAXX  22181 59046 32662 82202 10232 20176 40109 57007 885// 333 10310;
0153590460999992000052221004+24350+109400FM-12+009799999V0201401N002010120019N0060001N1+02081+01921101091ADDAA124000591AY161031GF108991081051012501999999MD1710011+9999MW1211REMSYN076AAXX  22211 59046 41656 81402 10208 20192 40109 57001 72160 885// 333 70004;
0165590460999992000052300004+24350+109400FM-12+009799999V0200401N001010042019N0040001N1+02061+01951101201ADDAA106000591AY161061GF108991081051004501999999MD1210101+0001MW1601REMSYN088AAXX  23001 59046 11440 80401 10206 20195 40120 52010 69941 76060 885// 333 00052 70005;
0132590460999992000052303004+24350+109400FM-12+009799999V0201401N002010120019N0040001N1+02291+02011101151ADDAY161031GF108991081051012501999999MD1710041+9999MW1101REMSYN066AAXX  23031 59046 41640 81402 10229 20201 40115 57004 71060 885//;
0172590460999992000052306004+24350+109400FM-12+009799999V0201601N001010120019N0060001N1+02401+02071101011ADDAA106000791AY161061GF108991081081008001999999KA1999N+02041MD1710141+9999MW1101REMSYN082AAXX  23061 59046 11556 81601 10240 20207 40101 57014 69901 71060 888// 333 20204;
0112590460999992000052309004+24350+109400FM-12+009799999V0201101N002010120019N0110001N1+02481+02121100861ADDGF108991081081008001999999MD1710151+9999REMSYN060AAXX  23091 59046 42561 81102 10248 20212 40086 57015 888//;
0123590460999992000052312004+24350+109400FM-12+009799999V0201801N002010120019N0170001N1+02441+02141100901ADDAA199000021GF108991081081008001999999MD1210041+9999REMSYN060AAXX  23121 59046 32567 81802 10244 20214 40090 52004 888//;
0172590460999992000052318004+24350+109400FM-12+009799999V0209999C000010042019N0050001N1+02321+02251100881ADDAA106008991AY161061GF108991081051004501999999KA1999M+02531MD1710091+9999MW1601REMSYN082AAXX  23181 59046 11450 80000 10232 20225 40088 57009 60091 76060 885// 333 10253;
0161590460999992000052321004+24350+109400FM-12+009799999V0201801N002010042019N0080001N1+02301+02231100811ADDAA124012291AY161031AY261031GF108991081051004501999999MD1710071+9999MW1601REMSYN076AAXX  23211 59046 41458 81802 10230 20223 40081 57007 76066 885// 333 70123;
0173590460999992000052400004+24350+109400FM-12+009799999V0201601N001010042019N0040001N1+02321+02281100831ADDAA106005191AY161061AY261061GF108991081051004501999999MD1210021-0401MW1601REMSYN088AAXX  24001 59046 11440 81601 10232 20228 40083 52002 60051 76066 885// 333 05403 70145;
0132590460999992000052403004+24350+109400FM-12+009799999V0202201N002010120019N0120001N1+02661+02371100771ADDAY161031GF108991081081008001999999MD1710051+9999MW1001REMSYN066AAXX  24031 59046 41562 82202 10266 20237 40077 57005 70060 888//;
0180590460999992000052406004+24350+109400FM-12+009799999V0202501N002010075019N0040001N1+02541+02431100571ADDAA106002091AY181061AY261061GF108991081091008001999999KA1999N+02281MD1710201+9999MW1801REMSYN082AAXX  24061 59046 11540 82502 10254 20243 40057 57020 60021 78086 889// 333 20228;
0132590460999992000052409004+24350+109400FM-12+009799999V0202001N002010075019N0200001N1+02831+02421100351ADDAY181031GF106991061091008001001001MD1710221+9999MW1001REMSYN066AAXX  24091 59046 41570 62002 10283 20242 40035 57022 70080 86900;
0149590460999992000052412004+24350+109400FM-12+009799999V0201401N002012200019N0200001N1+02761+02451100361ADDAA106000191AY181061GF104991011011008001031021MD1210011+9999MW1001REMSYN072AAXX  24121 59046 11570 41402 10276 20245 40036 52001 69911 70080 81132;
0146590460999992000052418004+24350+109400FM-12+009799999V0202001N002010360019N0150001N1+02661+02391100321ADDAA199000021GF107991011011008001031021KA1999M+02891MD1710041+9999REMSYN070AAXX  24181 59046 32565 72002 10266 20239 40032 57004 81132 333 10289;
0133590460999992000052421004+24350+109400FM-12+009799999V0201801N002010120019N0150001N1+02591+02331100261ADDAA124004391GF107991071081008001999999MD1710061+9999REMSYN070AAXX  24211 59046 42565 71802 10259 20233 40026 57006 878// 333 70044;
0139590460999992000052500004+24350+109400FM-12+009799999V0201801N003010120019N0250001N1+02571+02231100291ADDAA124002091GF108991081081008001999999MD1210031-0501REMSYN076AAXX  25001 59046 32575 81803 10257 20223 40029 52003 888// 333 05503 70021;
0112590460999992000052503004+24350+109400FM-12+009799999V0201801N002010120019N0300001N1+02661+02431100271ADDGF107991071081008001999999MD1710021+9999REMSYN060AAXX  25031 59046 42580 71802 10266 20243 40027 57002 878//;
0165590460999992000052506004+24350+109400FM-12+009799999V0201801N004010120019N0300001N1+03061+02441100121ADDAA199000091GF107991071081008001999999KA1999N+02531MD1710141+9999REMSYN070AAXX  25061 59046 32580 71804 10306 20244 40012 57014 878// 333 20253;EQDQ01  00002PRCP99
0112590460999992000052509004+24350+109400FM-12+009799999V0201801N004010360019N0300001N1+03201+02491099931ADDGF106991011011008001031021MD1710191+9999REMSYN060AAXX  25091 59046 42580 61804 10320 20249 49993 57019 81132;
0142590460999992000052512004+24350+109400FM-12+009799999V0201801N002010360019N0300001N1+03051+02501099981ADDAA199000091GF107991021041008001031999MD1210051+9999REMSYN060AAXX  25121 59046 32580 71802 10305 20250 49998 52005 8243/;EQDQ01  00002PRCP99
0177590460999992000052518004+24350+109400FM-12+009799999V0202001N003010120019N0250001N1+02811+02401100121ADDAA199000091GF107991071091012501999999KA1999M+03241MD1710011+9999MW1131REMSYN076AAXX  25181 59046 31675 72003 10281 20240 40012 57001 71300 879// 333 10324;EQDQ01  00002PRCP99
0153590460999992000052521004+24350+109400FM-12+009799999V0209999C000010120019N0150001N1+02541+02381100171ADDAA124002091AY181031GF108991081091012501999999MD1210051+9999MW1251REMSYN076AAXX  25211 59046 41665 80000 10254 20238 40017 52005 72580 889// 333 70021;
0165590460999992000052600004+24350+109400FM-12+009799999V0201801N003010120019N0300001N1+02671+02351100221ADDAA106002091AY181061GF108991081081008001999999MD1210051-0101MW1001REMSYN088AAXX  26001 59046 11580 81803 10267 20235 40022 52005 60021 70080 888// 333 05101 70021;
0112590460999992000052603004+24350+109400FM-12+009799999V0202201N003010120019N0300001N1+02851+02421100281ADDGF107991071081008001999999MD1210061+9999REMSYN060AAXX  26031 59046 42580 72203 10285 20242 40028 52006 878//;
0146590460999992000052606004+24350+109400FM-12+009799999V0201801N003010120019N0300001N1+03221+02451100111ADDAA199000021GF107991071081008001999999KA1999N+02471MD1710171+9999REMSYN070AAXX  26061 59046 32580 71803 10322 20245 40011 57017 878// 333 20247;
0112590460999992000052609004+24350+109400FM-12+009799999V0201801N004010075019N0300001N1+03331+02491099921ADDGF105991051021008001001001MD1710191+9999REMSYN060AAXX  26091 59046 42580 51804 10333 20249 49992 57019 85200;
0133590460999992000052612004+24350+109400FM-12+009799999V0201101N002019999999N0200001N1+03101+02541099981ADDAA199000091GF108991999999008001999999REMSYN065AAXX  26121 59046 31570 81102 10310 20254 49998 5206 71300 889//;EQDQ01  00002PRCP99
0180590460999992000052618004+24350+109400FM-12+009799999V0200401N003010042019N0040001N1+02301+02271100491ADDAA106036191AY191061AY281061GF108991081091004501999999KA1999M+03371MD1210221+9999MW1951REMSYN082AAXX  26181 59046 11440 80403 10230 20227 40049 52022 60361 79598 889// 333 10337;
0161590460999992000052621004+24350+109400FM-12+009799999V0200701N002010042019N0040001N1+02331+02261100341ADDAA124067191AY191031AY281031GF108991081091004501999999MD1710151+9999MW1911REMSYN076AAXX  26211 59046 41440 80702 10233 20226 40034 57015 79198 889// 333 70671;
0173590460999992000052700004+24350+109400FM-12+009799999V0200701N001010042019N0180001N1+02361+02271100601ADDAA106034091AY191061AY281061GF108991081091004501999999MD1210261+0401MW1801REMSYN088AAXX  27001 59046 11468 80701 10236 20227 40060 52026 60341 78098 889// 333 00453 70699;
0140590460999992000052703004+24350+109400FM-12+009799999V0200401N003010120019N0300001N1+02501+02301100661ADDAY181031AY261031GF108991081081008001999999MD1210061+9999MW1001REMSYN066AAXX  27031 59046 41580 80403 10250 20230 40066 52006 70086 888//;
0180590460999992000052706004+24350+109400FM-12+009799999V0200701N001010120019N0200001N1+02711+02351100551ADDAA106000191AY181061AY261061GF108991081081008001999999KA1999N+02291MD1710121+9999MW1001REMSYN082AAXX  27061 59046 11570 80701 10271 20235 40055 57012 69911 70086 888// 333 20229;
0112590460999992000052709004+24350+109400FM-12+009799999V0200701N003010075019N0200001N1+02721+02351100381ADDGF107991071091008001001001MD1710171+9999REMSYN060AAXX  27091 59046 42570 70703 10272 20235 40038 57017 87900;
0123590460999992000052712004+24350+109400FM-12+009799999V0201101N001010360019N0200001N1+02511+02341100551ADDAA199000021GF107991031091008001031999MD1210171+9999REMSYN060AAXX  27121 59046 32570 71101 10251 20234 40055 52017 8393/;
0172590460999992000052718004+24350+109400FM-12+009799999V0200901N001010075019N0080001N1+02441+02381100621ADDAA106003091AY181061GF108991081091008001999999KA1999M+02771MD1710111+9999MW1801REMSYN082AAXX  27181 59046 11558 80901 10244 20238 40062 57011 60031 78080 889// 333 10277;
0161590460999992000052721004+24350+109400FM-12+009799999V0200401N002010075019N0080001N1+02421+02381100651ADDAA124014291AY191031AY281031GF108991081091008001999999MD1210031+9999MW1911REMSYN076AAXX  27211 59046 41558 80402 10242 20238 40065 52003 79198 889// 333 70143;
0173590460999992000052800004+24350+109400FM-12+009799999V0209999C000010042019N0120001N1+02441+02381100821ADDAA106007991AY191061AY281061GF108991081091004501999999MD1210171+0201MW1251REMSYN088AAXX  28001 59046 11462 80000 10244 20238 40082 52017 60081 72598 889// 333 00201 70119;
0132590460999992000052803004+24350+109400FM-12+009799999V0201801N002010360019N0100001N1+02701+02471100851ADDAY181031GF107991031091012501031999MD1210031+9999MW1001REMSYN066AAXX  28031 59046 41660 71802 10270 20247 40085 52003 70080 8393/;
0172590460999992000052806004+24350+109400FM-12+009799999V0202001N003010120019N0180001N1+03011+02531100641ADDAA106000191AY181061GF107991061081008001031999KA1999N+02401MD1710201+9999MW1001REMSYN082AAXX  28061 59046 11568 72003 10301 20253 40064 57020 69911 70080 8683/ 333 20240;
0124590460999992000052809004+24350+109400FM-12+009799999V0202201N004010075019N0200001N1+02921+02601100481ADDGF107991071091008001999999MD1710161+9999MW1801REMSYN066AAXX  28091 59046 41570 72204 10292 20260 40048 57016 78000 879//;
0157590460999992000052812004+24350+109400FM-12+009799999V0202901N001010042019N0180001N1+02501+02411100761ADDAA106002091AY191061AY281061GF108991081091004501999999MD1210271+9999MW1951REMSYN072AAXX  28121 59046 11468 82901 10250 20241 40076 52027 60021 79598 889//;
0180590460999992000052818004+24350+109400FM-12+009799999V0209999C000010120019N0120001N1+02411+02381100751ADDAA106005191AY191061AY281061GF108991081051012501999999KA1999M+03091MD1710091+9999MW1001REMSYN082AAXX  28181 59046 11662 80000 10241 20238 40075 57009 60051 70098 885// 333 10309;
0153590460999992000052821004+24350+109400FM-12+009799999V0209999C000010120019N0050001N1+02421+02391100751ADDAA124008191AY181031GF108991081051012501999999MD1710011+9999MW1251REMSYN076AAXX  28211 59046 41650 80000 10242 20239 40075 57001 72580 885// 333 70082;
0165590460999992000052900004+24350+109400FM-12+009799999V0209999C000010120019N0040001N1+02491+02431100871ADDAA106000191AY181061GF108991081051012501999999MD1210121+0101MW1101REMSYN088AAXX  29001 59046 11640 80000 10249 20243 40087 52012 69921 71080 885// 333 00101 70078;
0112590460999992000052903004+24350+109400FM-12+009799999V0202201N002010120019N0180001N1+02811+02491100861ADDGF108991081081008001999999MD1710011+9999REMSYN060AAXX  29031 59046 42568 82202 10281 20249 40086 57001 888//;
0172590460999992000052906004+24350+109400FM-12+009799999V0202001N004010075019N0180001N1+03031+02511100611ADDAA106000191AY181061GF108991081091008001999999KA1999N+02401MD1710241+9999MW1001REMSYN082AAXX  29061 59046 11568 82004 10303 20251 40061 57024 69911 70080 889// 333 20240;
0132590460999992000052909004+24350+109400FM-12+009799999V0202001N006010075019N0100001N1+02641+02381100571ADDAY181031GF108991081091008001999999MD1710051+9999MW1951REMSYN066AAXX  29091 59046 41560 82006 10264 20238 40057 57005 79580 889//;
0157590460999992000052912004+24350+109400FM-12+009799999V0201401N002010075019N0250001N1+02441+02231100661ADDAA106004191AY191061AY281061GF108991081091008001999999MD1210091+9999MW1801REMSYN072AAXX  29121 59046 11575 81402 10244 20223 40066 52009 60041 78098 889//;
0172590460999992000052918004+24350+109400FM-12+009799999V0209999C000010120019N0150001N1+02431+02331100721ADDAA106000191AY181061GF108991081051012501999999KA1999M+03051MD1710091+9999MW1001REMSYN082AAXX  29181 59046 11665 80000 10243 20233 40072 57009 69911 70080 885// 333 10305;
0153590460999992000052921004+24350+109400FM-12+009799999V0209999C000010042019N0100001N1+02501+02401100651ADDAA124004891AY181031GF108991081091004501999999MD1710081+9999MW1801REMSYN076AAXX  29211 59046 41460 80000 10250 20240 40065 57008 78080 889// 333 70047;
0165590460999992000053000004+24350+109400FM-12+009799999V0201601N002010120019N0180001N1+02631+02441100771ADDAA106001091AY181061GF108991081081008001999999MD1210121-0101MW1001REMSYN088AAXX  30001 59046 11568 81602 10263 20244 40077 52012 60011 70080 888// 333 05101 70054;
0112590460999992000053003004+24350+109400FM-12+009799999V0201801N004010120019N0250001N1+02941+02491100731ADDGF107991061081008001031999MD1710031+9999REMSYN060AAXX  30031 59046 42575 71804 10294 20249 40073 57003 8683/;
0146590460999992000053006004+24350+109400FM-12+009799999V0201801N005010360019N0300001N1+03221+02451100491ADDAA199000021GF106991041011008001031001KA1999N+02411MD1710241+9999REMSYN070AAXX  30061 59046 32580 61805 10322 20245 40049 57024 84130 333 20241;
0112590460999992000053009004+24350+109400FM-12+009799999V0202201N002012200019N0300001N1+03281+02471100311ADDGF103991021021008001031011MD1710171+9999REMSYN060AAXX  30091 59046 42580 32202 10328 20247 40031 57017 82231;
0154590460999992000053012004+24350+109400FM-12+009799999V0202201N001010075019N0300001N1+03051+02561100441ADDAA199000091GF107991071091008001031999MD1210121+9999MW1171REMSYN066AAXX  30121 59046 31580 72201 10305 20256 40044 52012 71700 8793/;EQDQ01  00002PRCP99
0185590460999992000053018004+24350+109400FM-12+009799999V0201801N003012200019N0200001N1+02801+02471100531ADDAA199000091AY191061GF104991041051017501001001KA1999M+03311MD1710091+9999MW1001REMSYN076AAXX  30181 59046 31770 41803 10280 20247 40053 57009 70090 84500 333 10331;EQDQ01  00002PRCP99
0133590460999992000053021004+24350+109400FM-12+009799999V0201801N002010150019N0180001N1+02761+02421100561ADDAA124000891GF107991071051017501999999MD1210031+9999REMSYN070AAXX  30211 59046 42768 71802 10276 20242 40056 52003 875// 333 70007;
0152590460999992000053100004+24350+109400FM-12+009799999V0201401N003010120019N0120001N1+02741+02511100751ADDAA199000091GF108991081081008001999999MD1210181+0001REMSYN070AAXX  31001 59046 32562 81403 10274 20251 40075 52018 888// 333 00001;EQDQ01  00002PRCP99
0112590460999992000053103004+24350+109400FM-12+009799999V0201801N003010120019N0200001N1+02931+02431100791ADDGF107991071081008001031999MD1210041+9999REMSYN060AAXX  31031 59046 42570 71803 10293 20243 40079 52004 8783/;
0165590460999992000053106004+24350+109400FM-12+009799999V0201601N003010360019N0300001N1+03131+02441100561ADDAA199000091GF107991041021008001031011KA1999N+02711MD1710221+9999REMSYN070AAXX  31061 59046 32580 71603 10313 20244 40056 57022 84231 333 20271;EQDQ01  00002PRCP99
0112590460999992000053109004+24350+109400FM-12+009799999V0202701N002010075019N0300001N1+03161+02431100361ADDGF107991051091008001031021MD1710201+9999REMSYN060AAXX  31091 59046 42580 72702 10316 20243 40036 57020 85932;
0142590460999992000053112004+24350+109400FM-12+009799999V0202701N002010075019N0180001N1+02781+02561100461ADDAA199000091GF107991051091008001031999MD1210091+9999REMSYN060AAXX  31121 59046 32568 72702 10278 20256 40046 52009 8593/;EQDQ01  00002PRCP99
0175590460999992000053118004+24350+109400FM-12+009799999V0209999C000012200019N0120001N1+02581+02491100521ADDAA199000091GA1001+999999999GF100991001001999999001001KA1999M+03231MD1710051+9999REMSYN064AAXX  31181 59046 32962 00000 10258 20249 40052 57005 333 10323;EQDQ01  00002PRCP99
0124590460999992000053121004+24350+109400FM-12+009799999V0201801N002012200019N0080001N1+02661+02461100511ADDGF104991041001999999031001MD1410001+9999MW1101REMSYN066AAXX  31211 59046 41958 41802 10266 20246 40051 54000 71000 84030;
0152590460999992000060100004+24350+109400FM-12+009799999V0202001N002012200019N0300001N1+02821+02361100731ADDAA199000091GF102991011011008001031011MD1210211+0001REMSYN070AAXX  01001 59046 32580 22002 10282 20236 40073 52021 81131 333 00001;EQDQ01  00002PRCP99
0132590460999992000060103004+24350+109400FM-12+009799999V0209999C000010075019N0080001N1+02101+01831101231ADDAY181031GF108991081091008001999999MD1210161+9999MW1251REMSYN066AAXX  01031 59046 41558 80000 10210 20183 40123 52016 72580 889//;
0172590460999992000060106004+24350+109400FM-12+009799999V0200401N002010120019N0150001N1+02241+01831101021ADDAA106000591AY181061GF108991081081008001999999KA1999N+01991MD1710211+9999MW1001REMSYN082AAXX  01061 59046 11565 80402 10224 20183 40102 57021 69951 70080 888// 333 20199;
0140590460999992000060109004+24350+109400FM-12+009799999V0202001N004010075019N0300001N1+03221+02241100511ADDAY191031AY281031GF107991071091008001999999MD1710091+9999MW1001REMSYN066AAXX  01091 59046 41580 72004 10322 20224 40051 57009 70098 879//;
0157590460999992000060112004+24350+109400FM-12+009799999V0201801N002010360019N0300001N1+02991+02331100631ADDAA106000791AY191061AY281061GF106991031091008001031011MD1210111+9999MW1171REMSYN072AAXX  01121 59046 11580 61802 10299 20233 40063 52011 69901 71798 83931;
0185590460999992000060118004+24350+109400FM-12+009799999V0202201N002010120019N0250001N1+02781+02391100761ADDAA199000091AY191061GF107991071081008001999999KA1999M+03401MD1710031+9999MW1001REMSYN076AAXX  01181 59046 31575 72202 10278 20239 40076 57003 70090 878// 333 10340;EQDQ01  00002PRCP99
0145590460999992000060121004+24350+109400FM-12+009799999V0201801N003010042019N0200001N1+02671+02401100751ADDAA124000591GF108991081091004501999999MD1710021+9999MW1801REMSYN076AAXX  01211 59046 41470 81803 10267 20240 40075 57002 78000 889// 333 70004;
0165590460999992000060200004+24350+109400FM-12+009799999V0201801N002010900019N0300001N1+02811+02381100911ADDAA106000591AY181061GF105991021011008001031011MD1210161+0201MW1001REMSYN088AAXX  02001 59046 11580 51802 10281 20238 40091 52016 69941 70080 82131 333 00200 70004;
0112590460999992000060203004+24350+109400FM-12+009799999V0201801N004010075019N0300001N1+03121+02331100971ADDGF107991061021008001031011MD1210061+9999REMSYN060AAXX  02031 59046 42580 71804 10312 20233 40097 52006 86231;
0172590460999992000060206004+24350+109400FM-12+009799999V0201801N004012200019N0300001N1+03241+02421100771ADDAA106000191AY181061GF104991021021008001001011KA1999N+02651MD1710191+9999MW1001REMSYN082AAXX  02061 59046 11580 41804 10324 20242 40077 57019 69911 70080 82201 333 20265;
0112590460999992000060209004+24350+109400FM-12+009799999V0202001N003012200019N0300001N1+03391+02321100581ADDGF103991031021008001031001MD1710191+9999REMSYN060AAXX  02091 59046 42580 32003 10339 20232 40058 57019 83230;
0157590460999992000060212004+24350+109400FM-12+009799999V0201801N003010360019N0300001N1+02981+02411100701ADDAA106000191AY191061AY281061GF106991031091008001031021MD1210111+9999MW1001REMSYN072AAXX  02121 59046 11580 61803 10298 20241 40070 52011 69911 70098 83932;
0165590460999992000060218004+24350+109400FM-12+009799999V0209999C000019999999N0250001N1+02761+02371100891ADDAA199000091GF106991061001999999031001KA1999M+03401MD1210041+9999REMSYN070AAXX  02181 59046 32975 60000 10276 20237 40089 52004 86030 333 10340;EQDQ01  00002PRCP99
0133590460999992000060221004+24350+109400FM-12+009799999V0201401N002010150019N0250001N1+02721+02361100881ADDAA124000391GF107991071051017501999999MD1410001+9999REMSYN070AAXX  02211 59046 42775 71402 10272 20236 40088 54000 875// 333 70002;
0139590460999992000060300004+24350+109400FM-12+009799999V0201801N002012200019N0300001N1+02811+02361101001ADDAA124000391GF102991011011008001031001MD1210111+0101REMSYN076AAXX  03001 59046 32580 21802 10281 20236 40100 52011 81130 333 00100 70002;
0112590460999992000060303004+24350+109400FM-12+009799999V0201801N003010075019N0300001N1+03011+02321101051ADDGF107991071021008001001001MD1210051+9999REMSYN060AAXX  03031 59046 42580 71803 10301 20232 40105 52005 87200;
0165590460999992000060306004+24350+109400FM-12+009799999V0201801N003010075019N0300001N1+03251+02391100821ADDAA199000091GF107991071021008001001001KA1999N+02671MD1710221+9999REMSYN070AAXX  03061 59046 32580 71803 10325 20239 40082 57022 87200 333 20267;EQDQ01  00002PRCP99
0112590460999992000060309004+24350+109400FM-12+009799999V0201801N003012200019N0300001N1+03391+02211100651ADDGF104991041021008001001001MD1710171+9999REMSYN060AAXX  03091 59046 42580 41803 10339 20221 40065 57017 84200;
0142590460999992000060312004+24350+109400FM-12+009799999V0201801N002012200019N0300001N1+03181+02351100631ADDAA199000091GF101991011011008001001001MD1710021+9999REMSYN060AAXX  03121 59046 32580 11802 10318 20235 40063 57002 81100;EQDQ01  00002PRCP99
0175590460999992000060318004+24350+109400FM-12+009799999V0202001N003012200019N0200001N1+02901+02371100721ADDAA199000091GA1001+999999999GF100991001001999999001001KA1999M+03451MD1710041+9999REMSYN064AAXX  03181 59046 32970 02003 10290 20237 40072 57004 333 10345;EQDQ01  00002PRCP99
0122590460999992000060321004+24350+109400FM-12+009799999V0201801N003012200019N0200001N1+02781+02261100791ADDGA1001+999999999GF100991001001999999001001MD1210071+9999REMSYN054AAXX  03211 59046 42970 01803 10278 20226 40079 52007;
0152590460999992000060400004+24350+109400FM-12+009799999V0202201N003012200019N0300001N1+02841+02291100931ADDAA199000091GF101991011011008001001001MD1210131+0011REMSYN070AAXX  04001 59046 32580 12203 10284 20229 40093 52013 81100 333 05100;EQDQ01  00002PRCP99
0112590460999992000060403004+24350+109400FM-12+009799999V0202501N004012200019N0300001N1+03171+02331100891ADDGF102991021011008001001001MD1710031+9999REMSYN060AAXX  04031 59046 42580 22504 10317 20233 40089 57003 82100;
0165590460999992000060406004+24350+109400FM-12+009799999V0202701N002012200019N0300001N1+03441+02201100721ADDAA199000091GF101991011011008001001001KA1999N+02711MD1710171+9999REMSYN070AAXX  04061 59046 32580 12702 10344 20220 40072 57017 81100 333 20271;EQDQ01  00002PRCP99
0112590460999992000060409004+24350+109400FM-12+009799999V0201801N005012200019N0300001N1+03461+02191100481ADDGF101991011011008001001001MD1710241+9999REMSYN060AAXX  04091 59046 42580 11805 10346 20219 40048 57024 81100;
0152590460999992000060412004+24350+109400FM-12+009799999V0201801N003012200019N0300001N1+03221+02241100551ADDAA199000091GA1001+999999999GF100991001001999999001001MD1210071+9999REMSYN054AAXX  04121 59046 32980 01803 10322 20224 40055 52007;EQDQ01  00002PRCP99
0175590460999992000060418004+24350+109400FM-12+009799999V0209999C000012200019N0150001N1+02781+02391100601ADDAA199000091GA1001+999999999GF100991001001999999001001KA1999M+03501MD1710081+9999REMSYN064AAXX  04181 59046 32965 00000 10278 20239 40060 57008 333 10350;EQDQ01  00002PRCP99
0122590460999992000060421004+24350+109400FM-12+009799999V0209999C000012200019N0120001N1+02621+02421100641ADDGA1001+999999999GF100991001001999999001001MD1210041+9999REMSYN054AAXX  04211 59046 42962 00000 10262 20242 40064 52004;
0152590460999992000060500004+24350+109400FM-12+009799999V0202001N003012200019N0300001N1+02871+02401100771ADDAA199000091GF102991011011008001001011MD1210131+0021REMSYN070AAXX  05001 59046 32580 22003 10287 20240 40077 52013 81101 333 05200;EQDQ01  00002PRCP99
0112590460999992000060503004+24350+109400FM-12+009799999V0202201N003010900019N0300001N1+03171+02451100701ADDGF106991011011008001001021MD1710071+9999REMSYN060AAXX  05031 59046 42580 62203 10317 20245 40070 57007 81102;
0165590460999992000060506004+24350+109400FM-12+009799999V0202201N003012200019N0300001N1+03461+02261100501ADDAA199000091GF103991021011008001001011KA1999N+02571MD1710201+9999REMSYN070AAXX  05061 59046 32580 32203 10346 20226 40050 57020 82101 333 20257;EQDQ01  00002PRCP99
0112590460999992000060509004+24350+109400FM-12+009799999V0202001N006012200019N0300001N1+03501+02171100301ADDGF102991011011008001031011MD1710201+9999REMSYN060AAXX  05091 59046 42580 22006 10350 20217 40030 57020 81131;
0142590460999992000060512004+24350+109400FM-12+009799999V0201801N004012200019N0300001N1+03231+02301100311ADDAA199000091GF102991001001999999001011MD1210011+9999REMSYN060AAXX  05121 59046 32980 21804 10323 20230 40031 52001 80001;EQDQ01  00002PRCP99
0175590460999992000060518004+24350+109400FM-12+009799999V0202001N004012200019N0300001N1+02861+02191100471ADDAA199000091GA1001+999999999GF100991001001999999001001KA1999M+03581MD1710051+9999REMSYN064AAXX  05181 59046 32980 02004 10286 20219 40047 57005 333 10358;EQDQ01  00002PRCP99
0112590460999992000060521004+24350+109400FM-12+009799999V0202201N002012200019N0300001N1+02721+02251100521ADDGF101991011011008001001001MD1210051+9999REMSYN060AAXX  05211 59046 42580 12202 10272 20225 40052 52005 81100;
0152590460999992000060600004+24350+109400FM-12+009799999V0201801N003010120019N0250001N1+02761+02331100641ADDAA199000091GF107991071081008001999999MD1210121+0011REMSYN070AAXX  06001 59046 32575 71803 10276 20233 40064 52012 878// 333 05151;EQDQ01  00002PRCP99
0112590460999992000060603004+24350+109400FM-12+009799999V0202001N005010120019N0300001N1+03061+02381100651ADDGF107991071081008001999999MD1210011+9999REMSYN060AAXX  06031 59046 42580 72005 10306 20238 40065 52001 878//;
0165590460999992000060606004+24350+109400FM-12+009799999V0202201N004010120019N0300001N1+03201+02351100471ADDAA199000091GF107991071081008001999999KA1999N+02701MD1710181+9999REMSYN070AAXX  06061 59046 32580 72204 10320 20235 40047 57018 878// 333 20270;EQDQ01  00002PRCP99
0112590460999992000060609004+24350+109400FM-12+009799999V0202201N002010360019N0300001N1+03371+02401100301ADDGF107991021021008001031999MD1710171+9999REMSYN060AAXX  06091 59046 42580 72202 10337 20240 40030 57017 8223/;
0142590460999992000060612004+24350+109400FM-12+009799999V0201801N002010900019N0300001N1+03201+02411100311ADDAA199000091GF105991011011008001001021MD1210011+9999REMSYN060AAXX  06121 59046 32580 51802 10320 20241 40031 52001 81102;EQDQ01  00002PRCP99
0175590460999992000060618004+24350+109400FM-12+009799999V0202001N003012200019N0300001N1+02901+02261100511ADDAA199000091GA1001+999999999GF100991001001999999001001KA1999M+03401MD1710041+9999REMSYN064AAXX  06181 59046 32980 02003 10290 20226 40051 57004 333 10340;EQDQ01  00002PRCP99
0112590460999992000060621004+24350+109400FM-12+009799999V0201801N002012200019N0300001N1+02761+02301100511ADDGF101991001001999999001011MD1410001+9999REMSYN060AAXX  06211 59046 42980 11802 10276 20230 40051 54000 80001;
0152590460999992000060700004+24350+109400FM-12+009799999V0202001N003012200019N0300001N1+02801+02341100671ADDAA199000091GF107991011011008001001011MD1210161+0001REMSYN070AAXX  07001 59046 32580 72003 10280 20234 40067 52016 81101 333 00000;EQDQ01  00002PRCP99
0112590460999992000060703004+24350+109400FM-12+009799999V0202001N003010360019N0300001N1+03071+02391100711ADDGF107991021011008001031021MD1210041+9999REMSYN060AAXX  07031 59046 42580 72003 10307 20239 40071 52004 82132;
0165590460999992000060706004+24350+109400FM-12+009799999V0201801N005010075019N0300001N1+03331+02301100501ADDAA199000091GF107991061021008001001021KA1999N+02711MD1710211+9999REMSYN070AAXX  07061 59046 32580 71805 10333 20230 40050 57021 86202 333 20271;EQDQ01  00002PRCP99
0112590460999992000060709004+24350+109400FM-12+009799999V0202501N004010075019N0300001N1+03471+02301100301ADDGF107991071021008001001021MD1710191+9999REMSYN060AAXX  07091 59046 42580 72504 10347 20230 40030 57019 87202;
0142590460999992000060712004+24350+109400FM-12+009799999V0201401N003012200019N0300001N1+03121+02461100341ADDAA199000091GF103991011021008001001011MD1210031+9999REMSYN060AAXX  07121 59046 32580 31403 10312 20246 40034 52003 81201;EQDQ01  00002PRCP99
0165590460999992000060718004+24350+109400FM-12+009799999V0202001N003010150019N0300001N1+02841+02441100521ADDAA199000091GF106991061051017501001001KA1999M+03501MD1710051+9999REMSYN070AAXX  07181 59046 32780 62003 10284 20244 40052 57005 86500 333 10350;EQDQ01  00002PRCP99
0112590460999992000060721004+24350+109400FM-12+009799999V0202201N003010150019N0300001N1+02791+02431100531ADDGF106991061051017501001001MD1210011+9999REMSYN060AAXX  07211 59046 42780 62203 10279 20243 40053 52001 86500;
0152590460999992000060800004+24350+109400FM-12+009799999V0201801N003010120019N0300001N1+02881+02401100631ADDAA199000091GF107991071081008001999999MD1210101+0001REMSYN070AAXX  08001 59046 32580 71803 10288 20240 40063 52010 878// 333 00001;EQDQ01  00002PRCP99
0112590460999992000060803004+24350+109400FM-12+009799999V0201801N003010360019N0300001N1+03081+02451100601ADDGF107991021021008001031021MD1710031+9999REMSYN060AAXX  08031 59046 42580 71803 10308 20245 40060 57003 82232;
0165590460999992000060806004+24350+109400FM-12+009799999V0202001N005010120019N0300001N1+03241+02411100431ADDAA199000091GF108991081081008001999999KA1999N+02741MD1710171+9999REMSYN070AAXX  08061 59046 32580 82005 10324 20241 40043 57017 888// 333 20274;EQDQ01  00002PRCP99
0112590460999992000060809004+24350+109400FM-12+009799999V0202201N003010075019N0300001N1+03331+02451100221ADDGF107991051021008001001011MD1710211+9999REMSYN060AAXX  08091 59046 42580 72203 10333 20245 40022 57021 85201;
0149590460999992000060812004+24350+109400FM-12+009799999V0201601N003010075019N0200001N1+02971+02601100341ADDAA106002091AY181061GF108991081091008001999999MD1210121+9999MW1171REMSYN072AAXX  08121 59046 11570 81603 10297 20260 40034 52012 60021 71780 889//;
0180590460999992000060818004+24350+109400FM-12+009799999V0202001N002010120019N0200001N1+02831+02511100331ADDAA106013091AY191061AY281061GF108991081091012501999999KA1999M+03361MD1710081+9999MW1131REMSYN082AAXX  08181 59046 11670 82002 10283 20251 40033 57008 60131 71398 889// 333 10336;
0145590460999992000060821004+24350+109400FM-12+009799999V0201801N003010075019N0200001N1+02801+02481100371ADDAA124015291GF108991081091008001999999MD1210041+9999MW1801REMSYN076AAXX  08211 59046 41570 81803 10280 20248 40037 52004 78000 889// 333 70153;
0132590460999992000060903004+24350+109400FM-12+009799999V0209999C000010075019N0200001N1+02801+02561100521ADDAY181031GF108991081091008001999999MD1210021+9999MW1001REMSYN066AAXX  09031 59046 41570 80000 10280 20256 40052 52002 70080 889//;
0172590460999992000060906004+24350+109400FM-12+009799999V0202701N002010120019N0300001N1+03141+02591100221ADDAA106000791AY181061GF107991071081008001031999KA1999N+02651MD1710291+9999MW1001REMSYN082AAXX  09061 59046 11580 72702 10314 20259 40022 57029 69901 70080 8783/ 333 20265;
0112590460999992000060909004+24350+109400FM-12+009799999V0202201N004010120019N0300001N1+03191+02491100051ADDGF107991051081008001031999MD1710171+9999REMSYN060AAXX  09091 59046 42580 72204 10319 20249 40005 57017 8583/;
0149590460999992000060912004+24350+109400FM-12+009799999V0209999C000010120019N0250001N1+02941+02621100231ADDAA106000591AY181061GF108991081081008001999999MD1210181+9999MW1001REMSYN072AAXX  09121 59046 11575 80000 10294 20262 40023 52018 69961 70080 888//;
0172590460999992000060918004+24350+109400FM-12+009799999V0202001N002010150019N0200001N1+02721+02461100261ADDAA106000591AY161061GF106991061051017501001001KA1999M+03221MD1710111+9999MW1001REMSYN082AAXX  09181 59046 11770 62002 10272 20246 40026 57011 69951 70060 86500 333 10322;
0145590460999992000060921004+24350+109400FM-12+009799999V0201801N002010075019N0180001N1+02761+02401100241ADDAA124001591GF108991081091008001999999MD1710021+9999MW1801REMSYN076AAXX  09211 59046 41568 81802 10276 20240 40024 57002 78000 889// 333 70014;
0165590460999992000061000004+24350+109400FM-12+009799999V0201601N002010042019N0180001N1+02631+02491100351ADDAA106004191AY181061GF108991081091004501999999MD1210101-0201MW1801REMSYN088AAXX  10001 59046 11468 81602 10263 20249 40035 52010 60041 78080 889// 333 05251 70049;
0140590460999992000061003004+24350+109400FM-12+009799999V0201401N002010042019N0100001N1+02681+02581100391ADDAY191031AY281031GF108991081091004501999999MD1210041+9999MW1801REMSYN066AAXX  10031 59046 41460 81402 10268 20258 40039 52004 78098 889//;
0180590460999992000061006004+24350+109400FM-12+009799999V0209999C000010042019N0120001N1+02841+02651100281ADDAA106014091AY191061AY281061GF108991081091004501999999KA1999N+02581MD1710111+9999MW1801REMSYN082AAXX  10061 59046 11462 80000 10284 20265 40028 57011 60141 78098 889// 333 20258;
0132590460999992000061009004+24350+109400FM-12+009799999V0201601N002010075019N0060001N1+02961+02631100101ADDAY181031GF108991081091008001999999MD1710171+9999MW1951REMSYN066AAXX  10091 59046 41556 81602 10296 20263 40010 57017 79580 889//;
0157590460999992000061012004+24350+109400FM-12+009799999V0209999C000010042019N0080001N1+02721+02621100241ADDAA106005191AY191061AY281061GF108991081091004501999999MD1210131+9999MW1911REMSYN072AAXX  10121 59046 11458 80000 10272 20262 40024 52013 60051 79198 889//;
0172590460999992000061018004+24350+109400FM-12+009799999V0203601N001010042019N0080001N1+02191+02131100381ADDAA106032091AY181061GF108991081091004501999999KA1999M+02971MD1210041+9999MW1951REMSYN082AAXX  10181 59046 11458 83601 10219 20213 40038 52004 60321 79580 889// 333 10297;
0161590460999992000061021004+24350+109400FM-12+009799999V0203401N002010042019N0060001N1+02101+01991100461ADDAA124076591AY191031AY281031GF108991081091004501999999MD1210081+9999MW1951REMSYN076AAXX  10211 59046 41456 83402 10210 20199 40046 52008 79598 889// 333 70764;
0173590460999992000061100004+24350+109400FM-12+009799999V0203401N003010042019N0040001N1+02061+01971100691ADDAA106038191AY191061AY281061GF108991081091004501999999MD1210221+0301MW1801REMSYN088AAXX  11001 59046 11440 83403 10206 20197 40069 52022 60381 78098 889// 333 00356 70876;
0140590460999992000061103004+24350+109400FM-12+009799999V0203201N002010042019N0030001N1+02021+01931100781ADDAY181031AY281031GF108991081091004501999999MD1210091+9999MW1801REMSYN066AAXX  11031 59046 41430 83202 10202 20193 40078 52009 78088 889//;
0180590460999992000061106004+24350+109400FM-12+009799999V0202901N003010042019N0080001N1+02081+01961100701ADDAA106014091AY181061AY281061GF108991081091004501999999KA1999N+02001MD1710091+9999MW1801REMSYN082AAXX  11061 59046 11458 82903 10208 20196 40070 57009 60141 78088 889// 333 20200;
0140590460999992000061109004+24350+109400FM-12+009799999V0203401N002010042019N0150001N1+02141+02031100631ADDAY181031AY281031GF108991081091004501999999MD1710071+9999MW1801REMSYN066AAXX  11091 59046 41465 83402 10214 20203 40063 57007 78088 889//;
0157590460999992000061112004+24350+109400FM-12+009799999V0203601N001010042019N0060001N1+02141+02061100711ADDAA106006191AY181061AY281061GF108991081091004501999999MD1210081+9999MW1801REMSYN072AAXX  11121 59046 11456 83601 10214 20206 40071 52008 60061 78088 889//;
0180590460999992000061118004+24350+109400FM-12+009799999V0209999C000010075019N0080001N1+02111+01991100781ADDAA106000591AY181061AY261061GF108991081091008001999999KA1999M+02171MD1710081+9999MW1251REMSYN082AAXX  11181 59046 11558 80000 10211 20199 40078 57008 69951 72586 889// 333 10217;
0145590460999992000061121004+24350+109400FM-12+009799999V0209999C000010120019N0080001N1+02101+01941100731ADDAA124034591GF108991081051012501999999MD1710051+9999MW1101REMSYN076AAXX  11211 59046 41658 80000 10210 20194 40073 57005 71000 885// 333 70346;
0138590460999992000061200004+24350+109400FM-12+009799999V0203601N001019999999N0200001N1+99999+99999999999ADDAA199000021GF107991999999008001999999MD1999999+0101REMSYN075AAXX  12001 59046 32570 73601 1216 20188 40082 52009 8783/ 333 00101 70197;
0132590460999992000061203004+24350+109400FM-12+009799999V0200701N002010090019N0150001N1+02121+01841100891ADDAY161031GF108991081081004501999999MD1210071+9999MW1601REMSYN066AAXX  12031 59046 41465 80702 10212 20184 40089 52007 76060 888//;
0172590460999992000061206004+24350+109400FM-12+009799999V0202901N001010120019N0180001N1+02241+01931100841ADDAA106000891AY161061GF107991071081008001999999KA1999N+02061MD1710051+9999MW1601REMSYN082AAXX  12061 59046 11568 72901 10224 20193 40084 57005 69981 76060 878// 333 20206;
0132590460999992000061209004+24350+109400FM-12+009799999V0200401N001010150019N0300001N1+02401+01801100741ADDAY161031GF108991081051017501999999MD1710091+9999MW1001REMSYN066AAXX  12091 59046 41780 80401 10240 20180 40074 57009 70060 885//;
0149590460999992000061212004+24350+109400FM-12+009799999V0203201N001010120019N0120001N1+02281+01821100841ADDAA106000791AY161061GF108991081051012501999999MD1210101+9999MW1211REMSYN072AAXX  12121 59046 11662 83201 10228 20182 40084 52010 69901 72160 885//;
0172590460999992000061218004+24350+109400FM-12+009799999V0203601N002010120019N0120001N1+02181+01801100921ADDAA106000791AY161061GF108991081051012501999999KA1999M+02401MD1710081+9999MW1001REMSYN082AAXX  12181 59046 11662 83602 10218 20180 40092 57008 69901 70060 885// 333 10240;
0153590460999992000061221004+24350+109400FM-12+009799999V0200201N001010120019N0080001N1+02081+01831100941ADDAA124001091AY161031GF108991081051012501999999MD1210031+9999MW1211REMSYN076AAXX  12211 59046 41658 80201 10208 20183 40094 52003 72160 885// 333 70011;
0165590460999992000061300004+24350+109400FM-12+009799999V0209999C000010120019N0120001N1+02111+01891101071ADDAA106000391AY161061GF108991081051012501999999MD1210121+0301MW1001REMSYN088AAXX  13001 59046 11662 80000 10211 20189 40107 52012 69931 70060 885// 333 00351 70011;
0132590460999992000061303004+24350+109400FM-12+009799999V0200401N002010150019N0180001N1+02361+01721101101ADDAY161031GF107991071051017501999999MD1210041+9999MW1211REMSYN066AAXX  13031 59046 41768 70402 10236 20172 40110 52004 72160 875//;
0172590460999992000061306004+24350+109400FM-12+009799999V0203201N002010360019N0200001N1+02641+01801100971ADDAA106000791AY161061GF107991011011008001031999KA1999N+02061MD1710131+9999MW1001REMSYN082AAXX  13061 59046 11570 73202 10264 20180 40097 57013 69901 70060 8113/ 333 20206;
0132590460999992000061309004+24350+109400FM-12+009799999V0202901N002010120019N0180001N1+02421+01891100871ADDAY161031GF107991071051012501999999MD1710101+9999MW1601REMSYN066AAXX  13091 59046 41668 72902 10242 20189 40087 57010 76060 875//;
0149590460999992000061312004+24350+109400FM-12+009799999V0202901N001010120019N0060001N1+02361+01981100911ADDAA106000191AY161061GF108991081051012501999999MD1210041+9999MW1101REMSYN072AAXX  13121 59046 11656 82901 10236 20198 40091 52004 69911 71060 885//;
0172590460999992000061318004+24350+109400FM-12+009799999V0203201N001019999999N0060001N1+02211+01981100941ADDAA106000791AY161061GF107991071001999999031999KA1999M+02691MD1710111+9999MW1101REMSYN082AAXX  13181 59046 11956 73201 10221 20198 40094 57011 69901 71060 8703/ 333 10269;
0145590460999992000061321004+24340+109390FM-12+009799999V0209999C000019999999N0060001N1+02151+01951100861ADDAA124000191GF107991071001999999031999MD1710081+9999MW1101REMSYN076AAXX  13211 59046 41956 70000 10215 20195 40086 57008 71000 8703/ 333 70001;
0151590460999992000061400004+24340+109390FM-12+009799999V0209999C000019999999N0060001N1+02241+01981100961ADDAA124000191GF107991071001999999031999MD1210101-0101MW1101REMSYN082AAXX  14001 59046 31956 70000 10224 20198 40096 52010 71000 8703/ 333 05101 70001;
0124590460999992000061403004+24340+109390FM-12+009799999V0202701N002019999999N0080001N1+02491+01971100971ADDGF107991071001999999031999MD1210011+9999MW1101REMSYN066AAXX  14031 59046 41958 72702 10249 20197 40097 52001 71000 8703/;
0165590460999992000061406004+24340+109390FM-12+009799999V0200401N002010360019N0120001N1+02831+01951100771ADDAA199000091GF107991011011008001031999KA1999N+02111MD1710191+9999REMSYN070AAXX  14061 59046 32562 70402 10283 20195 40077 57019 8113/ 333 20211;EQDQ01  00002PRCP99
0112590460999992000061409004+24340+109390FM-12+009799999V0202701N001010120019N0120001N1+02771+01911100621ADDGF108991081051012501999999MD1710151+9999REMSYN060AAXX  14091 59046 42662 82701 10277 20191 40062 57015 885//;
0142590460999992000061412004+24340+109390FM-12+009799999V0209999C000010120019N0120001N1+02651+02031100671ADDAA199000091GF108991081091012501999999MD1210051+9999REMSYN060AAXX  14121 59046 32662 80000 10265 20203 40067 52005 889//;EQDQ01  00002PRCP99
0165590460999992000061418004+24340+109390FM-12+009799999V0202701N001010150019N0120001N1+02381+02081100671ADDAA199000091GF108991081051017501999999KA1999M+02861MD1710111+9999REMSYN070AAXX  14181 59046 32762 82701 10238 20208 40067 57011 885// 333 10286;EQDQ01  00002PRCP99
0112590460999992000061421004+24340+109390FM-12+009799999V0209999C000010150019N0120001N1+02321+01981100631ADDGF108991081051017501999999MD1710041+9999REMSYN060AAXX  14211 59046 42762 80000 10232 20198 40063 57004 885//;
0164590460999992000061500004+24340+109390FM-12+009799999V0209999C000010150019N0060001N1+02341+02001100701ADDAA199000091GF108991081051017501999999MD1210071+0031MW1101REMSYN076AAXX  15001 59046 31756 80000 10234 20200 40070 52007 71000 885// 333 05301;EQDQ01  00002PRCP99
0124590460999992000061503004+24340+109390FM-12+009799999V0202201N002019999999N0080001N1+02611+01951100661ADDGF107991071001999999031999MD1710041+9999MW1041REMSYN066AAXX  15031 59046 41958 72202 10261 20195 40066 57004 70400 8703/;
0165590460999992000061506004+24340+109390FM-12+009799999V0203201N001010360019N0150001N1+02861+01881100511ADDAA199000091GF107991031051017501031999KA1999N+02301MD1710161+9999REMSYN070AAXX  15061 59046 32765 73201 10286 20188 40051 57016 8353/ 333 20230;EQDQ01  00002PRCP99
0112590460999992000061509004+24340+109390FM-12+009799999V0202701N001019999999N0150001N1+02901+01961100321ADDGF107991071001999999031001MD1710181+9999REMSYN060AAXX  15091 59046 42965 72701 10290 20196 40032 57018 87030;
0154590460999992000061512004+24340+109390FM-12+009799999V0209999C000010360019N0060001N1+02701+02071100411ADDAA199000091GF107991031051017501031999MD1210081+9999MW1041REMSYN066AAXX  15121 59046 31756 70000 10270 20207 40041 52008 70400 8353/;EQDQ01  00002PRCP99
0187590460999992000061518004+24340+109390FM-12+009799999V0209999C000012200019N0080001N1+02291+02121100601ADDAA199000091GA1001+999999999GF100991001001999999001001KA1999M+02991MD1710061+9999MW1101REMSYN070AAXX  15181 59046 31958 00000 10229 20212 40060 57006 71000 333 10299;EQDQ01  00002PRCP99
0124590460999992000061521004+24340+109390FM-12+009799999V0209999C000010210019N0060001N1+02221+02131100581ADDGF108991081051022501999999MD1710021+9999MW1101REMSYN066AAXX  15211 59046 41856 80000 10222 20213 40058 57002 71000 885//;
0164590460999992000061600004+24340+109390FM-12+009799999V0209999C000010150019N0030001N1+02331+02211100721ADDAA199000091GF107991071051017501999999MD1210141+0001MW1101REMSYN076AAXX  16001 59046 31730 70000 10233 20221 40072 52014 71000 875// 333 00000;EQDQ01  00002PRCP99
0124590460999992000061603004+24340+109390FM-12+009799999V0209999C000019999999N0030001N1+02511+02251100721ADDGF107991071001999999031999MD1410001+9999MW1101REMSYN066AAXX  16031 59046 41930 70000 10251 20225 40072 54000 71000 8703/;
0177590460999992000061606004+24340+109390FM-12+009799999V0202701N003010900019N0040001N1+02961+02171100571ADDAA199000091GF105991021011008001031011KA1999N+02211MD1710151+9999MW1041REMSYN076AAXX  16061 59046 31540 52703 10296 20217 40057 57015 70400 82131 333 20221;EQDQ01  00002PRCP99
0124590460999992000061609004+24340+109390FM-12+009799999V0202901N002019999999N0050001N1+02921+02121100421ADDGF107991071001999999031999MD1710151+9999MW1041REMSYN066AAXX  16091 59046 41950 72902 10292 20212 40042 57015 70400 8703/;
0154590460999992000061612004+24340+109390FM-12+009799999V0209999C000019999999N0050001N1+02821+02211100481ADDAA199000091GF107991071001999999031999MD1210061+9999MW1041REMSYN066AAXX  16121 59046 31950 70000 10282 20221 40048 52006 70400 8703/;EQDQ01  00002PRCP99
0177590460999992000061618004+24340+109390FM-12+009799999V0209999C000010150019N0040001N1+02531+02331100661ADDAA199000091GF108991081051017501999999KA1999M+03001MD1410001+9999MW1101REMSYN076AAXX  16181 59046 31740 80000 10253 20233 40066 54000 71000 885// 333 10300;EQDQ01  00002PRCP99
0124590460999992000061621004+24340+109390FM-12+009799999V0203201N001010150019N0040001N1+02431+02251100641ADDGF108991081051017501999999MD1710021+9999MW1101REMSYN066AAXX  16211 59046 41740 83201 10243 20225 40064 57002 71000 885//;
0164590460999992000061700004+24340+109390FM-12+009799999V0209999C000019999999N0030001N1+02531+02271100771ADDAA199000091GF107991071001999999031001MD1210121+0011MW1101REMSYN076AAXX  17001 59046 31930 70000 10253 20227 40077 52012 71000 87030 333 00102;EQDQ01  00002PRCP99
0124590460999992000061703004+24340+109390FM-12+009799999V0200701N001010150019N0080001N1+02821+02171100801ADDGF107991071051017501999999MD1210041+9999MW1041REMSYN066AAXX  17031 59046 41758 70701 10282 20217 40080 52004 70400 875//;
0165590460999992000061706004+24340+109390FM-12+009799999V0200401N002019999999N0170001N1+03181+02121100681ADDAA199000091GF107991071001999999031001KA1999N+02401MD1710121+9999REMSYN070AAXX  17061 59046 32967 70402 10318 20212 40068 57012 87030 333 20240;EQDQ01  00002PRCP99
0132590460999992000061709004+24340+109390FM-12+009799999V0200901N001010120019N0180001N1+03141+02181100531ADDAY161031GF108991081081008001999999MD1710151+9999MW1601REMSYN066AAXX  17091 59046 41568 80901 10314 20218 40053 57015 76060 888//;
0149590460999992000061712004+24340+109390FM-12+009799999V0200701N002019999999N0150001N1+02991+02191100581ADDAA106000791AY161061GF107991071001999999031999MD1210051+9999MW1001REMSYN072AAXX  17121 59046 11965 70702 10299 20219 40058 52005 69901 70060 8703/;
0172590460999992000061718004+24340+109390FM-12+009799999V0203401N001012200019N0150001N1+02611+02171100711ADDAA106000791AY161061GF103991031001999999031001KA1999M+03221MD1710041+9999MW1001REMSYN082AAXX  17181 59046 11965 33401 10261 20217 40071 57004 69901 70060 83030 333 10322;
0133590460999992000061721004+24340+109390FM-12+009799999V0209999C000019999999N0110001N1+02461+02161100671ADDAA124000791GF107991071001999999031999MD1710041+9999REMSYN070AAXX  17211 59046 42961 70000 10246 20216 40067 57004 8703/ 333 79999;
0161590460999992000061800004+24340+109390FM-12+009799999V0202701N001012200019N0040001N1+02501+02171100791ADDAA124000791GA1001+999999999GF100991001001999999001001MD1210121+0001MW1101REMSYN076AAXX  18001 59046 31940 02701 10250 20217 40079 52012 71000 333 00000 79999;
0112590460999992000061803004+24340+109390FM-12+009799999V0200901N001012200019N0150001N1+03001+01981100821ADDGF102991021001999999031001MD1210031+9999REMSYN060AAXX  18031 59046 42965 20901 10300 20198 40082 52003 82030;
0175590460999992000061806004+24340+109390FM-12+009799999V0200901N002012200019N0180001N1+03231+02201100621ADDAA199000091GA1001+999999999GF100991001001999999001001KA1999N+02371MD1710201+9999REMSYN064AAXX  18061 59046 32968 00902 10323 20220 40062 57020 333 20237;EQDQ01  00002PRCP99
0112590460999992000061809004+24340+109390FM-12+009799999V0203201N002012200019N0200001N1+03281+02231100421ADDGF102991001001999999001011MD1710201+9999REMSYN060AAXX  18091 59046 42970 23202 10328 20223 40042 57020 80001;
0142590460999992000061812004+24340+109390FM-12+009799999V0202901N001012200019N0150001N1+03041+02281100461ADDAA199000091GF102991021001999999031001MD1210041+9999REMSYN060AAXX  18121 59046 32965 22901 10304 20228 40046 52004 82030;EQDQ01  00002PRCP99
0175590460999992000061818004+24340+109390FM-12+009799999V0209999C000012200019N0110001N1+02531+02311100641ADDAA199000091GA1001+999999999GF100991001001999999001001KA1999M+03351MD1710021+9999REMSYN064AAXX  18181 59046 32961 00000 10253 20231 40064 57002 333 10335;EQDQ01  00002PRCP99
0134590460999992000061821004+24340+109390FM-12+009799999V0209999C000012200019N0070001N1+02511+02311100591ADDGA1001+999999999GF100991001001999999001001MD1710051+9999MW1101REMSYN060AAXX  18211 59046 41957 00000 10251 20231 40059 57005 71000;
0174590460999992000061900004+24340+109390FM-12+009799999V0202701N001012200019N0050001N1+02501+02301100681ADDAA199000091GA1001+999999999GF100991001001999999001001MD1210091+0011MW1101REMSYN070AAXX  19001 59046 31950 02701 10250 20230 40068 52009 71000 333 05100;EQDQ01  00002PRCP99
0122590460999992000061903004+24340+109390FM-12+009799999V0209999C000012200019N0120001N1+03121+02191100701ADDGA1001+999999999GF100991001001999999001001MD1210031+9999REMSYN054AAXX  19031 59046 42962 00000 10312 20219 40070 52003;
0177590460999992000061906004+24340+109390FM-12+009799999V0202501N003012200019N0080001N1+03371+02351100501ADDAA199000091GF102991021011008001031001KA1999N+02401MD1710201+9999MW1041REMSYN076AAXX  19061 59046 31558 22503 10337 20235 40050 57020 70400 82130 333 20240;EQDQ01  00002PRCP99
0124590460999992000061909004+24340+109390FM-12+009799999V0202901N002010075019N0120001N1+03101+02261100431ADDGF108991081091008001999999MD1710081+9999MW1951REMSYN066AAXX  19091 59046 41562 82902 10310 20226 40043 57008 79500 889//;
0157590460999992000061912004+24340+109390FM-12+009799999V0200401N003010120019N0060001N1+02641+02321100671ADDAA106001091AY191061AY281061GF108991081081008001999999MD1210231+9999MW1101REMSYN072AAXX  19121 59046 11556 80403 10264 20232 40067 52023 60011 71098 888//;
0158590460999992000061918004+24340+109390FM-12+009799999V0200401N001019999999N0060001N1+02481+02311100661ADDAA199000021GF107991071001999999031999KA1999M+03431MD1710121+9999MW1101REMSYN076AAXX  19181 59046 31956 70401 10248 20231 40066 57012 71000 8703/ 333 10343;
0145590460999992000061921004+24340+109390FM-12+009799999V0209999C000010150019N0060001N1+02431+02331100631ADDAA124001391GF108991081051017501999999MD1710031+9999MW1101REMSYN076AAXX  19211 59046 41756 80000 10243 20233 40063 57003 71000 885// 333 70013;
0165590460999992000062000004+24340+109390FM-12+009799999V0209999C000010150019N0060001N1+02471+02311100711ADDAA106000191AY161061GF107991061051017501031999MD1210071+0001MW1101REMSYN088AAXX  20001 59046 11756 70000 10247 20231 40071 52007 69911 71060 8653/ 333 00000 70014;
0124590460999992000062003004+24340+109390FM-12+009799999V0202201N001010120019N0060001N1+02751+02331100731ADDGF108991081081008001999999MD1210021+9999MW1101REMSYN066AAXX  20031 59046 41556 82201 10275 20233 40073 52002 71000 888//;
0177590460999992000062006004+24340+109390FM-12+009799999V0202701N002010075019N0040001N1+03101+02501100471ADDAA199000091GF105991051021008001001001KA1999N+02411MD1710251+9999MW1041REMSYN076AAXX  20061 59046 31540 52702 10310 20250 40047 57025 70400 85200 333 20241;EQDQ01  00002PRCP99
0140590460999992000062009004+24340+109390FM-12+009799999V0201601N001010075019N0060001N1+02761+02561100421ADDAY191031AY281031GF107991071091008001999999MD1710061+9999MW1291REMSYN066AAXX  20091 59046 41556 71601 10276 20256 40042 57006 72998 879//;
0157590460999992000062012004+24340+109390FM-12+009799999V0202201N002010042019N0150001N1+02681+02421100571ADDAA106002091AY191061AY281061GF108991081091004501999999MD1210151+9999MW1801REMSYN072AAXX  20121 59046 11465 82202 10268 20242 40057 52015 60021 78098 889//;
0172590460999992000062018004+24340+109390FM-12+009799999V0201801N004010150019N0150001N1+02651+02411100521ADDAA106000191AY181061GF107991071051017501999999KA1999M+03181MD1710061+9999MW1001REMSYN082AAXX  20181 59046 11765 71804 10265 20241 40052 57006 69911 70080 875// 333 10318;
0145590460999992000062021004+24340+109390FM-12+009799999V0202001N003010120019N0120001N1+02641+02371100451ADDAA124002591GF108991081051012501999999MD1710071+9999MW1601REMSYN076AAXX  20211 59046 41662 82003 10264 20237 40045 57007 76000 885// 333 70026;
0165590460999992000062100004+24340+109390FM-12+009799999V0201801N003010120019N0300001N1+02671+02401100541ADDAA106000791AY161061GF108991081081008001999999MD1210091-0201MW1001REMSYN088AAXX  21001 59046 11580 81803 10267 20240 40054 52009 69901 70060 888// 333 05202 70025;
0112590460999992000062103004+24340+109390FM-12+009799999V0201801N006010120019N0300001N1+02901+02401100531ADDGF107991061081008001031999MD1710011+9999REMSYN060AAXX  21031 59046 42580 71806 10290 20240 40053 57001 8683/;
0146590460999992000062106004+24340+109390FM-12+009799999V0201801N003010120019N0300001N1+03101+02471100461ADDAA199000021GF107991071081008001999999KA1999N+02601MD1710071+9999REMSYN070AAXX  21061 59046 32580 71803 10310 20247 40046 57007 878// 333 20260;
0132590460999992000062109004+24340+109390FM-12+009799999V0201801N004010360019N0300001N1+03051+02321100361ADDAY161031GF107991021011008001031999MD1710101+9999MW1001REMSYN066AAXX  21091 59046 41580 71804 10305 20232 40036 57010 70060 8213/;
0149590460999992000062112004+24340+109390FM-12+009799999V0201801N002010120019N0300001N1+02921+02361100501ADDAA106000791AY161061GF108991081081008001999999MD1210141+9999MW1001REMSYN072AAXX  21121 59046 11580 81802 10292 20236 40050 52014 69901 70060 888//;
0165590460999992000062118004+24340+109390FM-12+009799999V0201801N003010120019N0200001N1+02781+02391100581ADDAA199000091GF107991071081008001999999KA1999M+03151MD1710021+9999REMSYN070AAXX  21181 59046 32570 71803 10278 20239 40058 57002 878// 333 10315;EQDQ01  00002PRCP99
0133590460999992000062121004+24340+109390FM-12+009799999V0201801N002010120019N0200001N1+02731+02421100511ADDAA124000791GF108991081081008001999999MD1710081+9999REMSYN070AAXX  21211 59046 42570 81802 10273 20242 40051 57008 888// 333 79999;
0139590460999992000062200004+24340+109390FM-12+009799999V0201801N003010120019N0300001N1+02781+02471100641ADDAA124000791GF108991081081008001999999MD1210131+0101REMSYN076AAXX  22001 59046 32580 81803 10278 20247 40064 52013 888// 333 00101 79999;
0132590460999992000062203004+24340+109390FM-12+009799999V0201801N004010120019N0300001N1+02941+02471100621ADDAY161031GF108991081081008001999999MD1710021+9999MW1211REMSYN066AAXX  22031 59046 41580 81804 10294 20247 40062 57002 72160 888//;
0172590460999992000062206004+24340+109390FM-12+009799999V0202001N004010900019N0300001N1+03011+02521100471ADDAA106000791AY161061GF108991031011008001001071KA1999N+02721MD1710141+9999MW1001REMSYN082AAXX  22061 59046 11580 82004 10301 20252 40047 57014 69901 70060 83107 333 20272;
0112590460999992000062209004+24340+109390FM-12+009799999V0202001N004010360019N0300001N1+03111+02511100281ADDGF108991041021008001021999MD1710191+9999REMSYN060AAXX  22091 59046 42580 82004 10311 20251 40028 57019 8422/;
0141590460999992000062212004+24340+109390FM-12+009799999V0201801N004010075019N0300001N1+02951+02491100371ADDAA106000791GF108991081091008001999999MD1210091+9999MW1801REMSYN072AAXX  22121 59046 11580 81804 10295 20249 40037 52009 69901 78000 889//;
0172590460999992000062218004+24340+109390FM-12+009799999V0201801N004010075019N0200001N1+02811+02301100331ADDAA106000791AY181061GF108991081091008001999999KA1999M+03151MD1710161+9999MW1251REMSYN082AAXX  22181 59046 11570 81804 10281 20230 40033 57016 69901 72580 889// 333 10315;
0153590460999992000062221004+24340+109390FM-12+009799999V0201801N003010120019N0200001N1+02761+02361100391ADDAA124000791AY181031GF108991081081008001999999MD1210061+9999MW1001REMSYN076AAXX  22211 59046 41570 81803 10276 20236 40039 52006 70080 888// 333 79999;
0165590460999992000062300004+24340+109390FM-12+009799999V0202001N002010075019N0300001N1+02741+02381100481ADDAA106000191AY181061GF108991081091008001999999MD1210081-0201MW1251REMSYN088AAXX  23001 59046 11580 82002 10274 20238 40048 52008 69911 72580 889// 333 05200 70001;
0112590460999992000062303004+24340+109390FM-12+009799999V0202001N006010075019N0300001N1+03061+02381100491ADDGF107991061021008001001021MD1210021+9999REMSYN060AAXX  23031 59046 42580 72006 10306 20238 40049 52002 86202;
0172590460999992000062306004+24340+109390FM-12+009799999V0202001N004010075019N0300001N1+03091+02431100261ADDAA106000191AY181061GF108991081091008001999999KA1999N+02701MD1710231+9999MW1801REMSYN082AAXX  23061 59046 11580 82004 10309 20243 40026 57023 69911 78080 889// 333 20270;
0132590460999992000062309004+24340+109390FM-12+009799999V0202701N004010042019N0030001N1+02501+02301100171ADDAY181031GF108991081091004501999999MD1710101+9999MW1951REMSYN066AAXX  23091 59046 41430 82704 10250 20230 40017 57010 79580 889//;
0157590460999992000062312004+24340+109390FM-12+009799999V0209999C000010120019N0150001N1+02541+02401100161ADDAA106024991AY191061AY281061GF108991081091012501999999MD1710011+9999MW1251REMSYN072AAXX  23121 59046 11665 80000 10254 20240 40016 57001 60251 72598 889//;
0172590460999992000062318004+24340+109390FM-12+009799999V0201801N002010120019N0200001N1+02731+02401100221ADDAA106000791AY181061GF108991081081008001999999KA1999M+03171MD1710061+9999MW1001REMSYN082AAXX  23181 59046 11570 81802 10273 20240 40022 57006 69901 70080 888// 333 10317;
0133590460999992000062321004+24340+109390FM-12+009799999V0201801N003010120019N0200001N1+02701+02351100171ADDAA124024991GF108991081081008001999999MD1710061+9999REMSYN070AAXX  23211 59046 42570 81803 10270 20235 40017 57006 888// 333 70248;
0165590460999992000062400004+24340+109390FM-12+009799999V0201801N004010042019N0250001N1+02701+02341100261ADDAA106000191AY181061GF108991081091004501999999MD1210091-0201MW1801REMSYN088AAXX  24001 59046 11475 81804 10270 20234 40026 52009 69911 78080 889// 333 05200 70248;
0140590460999992000062403004+24340+109390FM-12+009799999V0201801N005010075019N0250001N1+02741+02461100331ADDAY191031AY281031GF108991081091008001999999MD1210071+9999MW1251REMSYN066AAXX  24031 59046 41575 81805 10274 20246 40033 52007 72598 889//;
0180590460999992000062406004+24340+109390FM-12+009799999V0201801N004010075019N0300001N1+02941+02431100051ADDAA106006191AY191061AY281061GF108991081091008001999999KA1999N+02421MD1710271+9999MW1951REMSYN082AAXX  24061 59046 11580 81804 10294 20243 40005 57027 60061 79598 889// 333 20242;
0140590460999992000062409004+24340+109390FM-12+009799999V0209999C000010075019N0180001N1+02701+02571100041ADDAY191031AY281031GF107991071091008001041999MD1710021+9999MW1801REMSYN066AAXX  24091 59046 41568 70000 10270 20257 40004 57002 78098 8794/;
0157590460999992000062412004+24340+109390FM-12+009799999V0202001N003010042019N0250001N1+02681+02511100131ADDAA106020191AY191061AY281061GF108991081091004501999999MD1210091+9999MW1801REMSYN072AAXX  24121 59046 11475 82003 10268 20251 40013 52009 60201 78098 889//;
0172590460999992000062418004+24340+109390FM-12+009799999V0201801N005010075019N0200001N1+02731+02371100221ADDAA106000191AY181061GF108991081091008001999999KA1999M+02951MD1710081+9999MW1001REMSYN082AAXX  24181 59046 11570 81805 10273 20237 40022 57008 69911 70080 889// 333 10295;
0153590460999992000062421004+24340+109390FM-12+009799999V0201801N003010120019N0200001N1+02621+02391100241ADDAA124025991AY181031GF108991081081008001999999MD1210011+9999MW1251REMSYN076AAXX  24211 59046 41570 81803 10262 20239 40024 52001 72580 888// 333 70260;
0165590460999992000062500004+24340+109390FM-12+009799999V0201801N002010120019N0300001N1+02681+02391100391ADDAA106000391AY181061GF107991071081008001031999MD1210151+0101MW1001REMSYN088AAXX  25001 59046 11580 71802 10268 20239 40039 52015 69931 70080 8783/ 333 00100 70259;
0112590460999992000062503004+24340+109390FM-12+009799999V0201801N004010075019N0300001N1+02891+02481100461ADDGF107991061011008001031999MD1210071+9999REMSYN060AAXX  25031 59046 42580 71804 10289 20248 40046 52007 8613/;
0180590460999992000062506004+24340+109390FM-12+009799999V0202201N002010042019N0100001N1+02541+02441100441ADDAA106015091AY191061AY281061GF108991081091004501999999KA1999N+02541MD1710021+9999MW1951REMSYN082AAXX  25061 59046 11460 82202 10254 20244 40044 57002 60151 79598 889// 333 20254;
0140590460999992000062509004+24340+109390FM-12+009799999V0201801N002010360019N0300001N1+02611+02481100351ADDAY181031AY281031GF108991021091004501071999MD1710091+9999MW1801REMSYN066AAXX  25091 59046 41480 81802 10261 20248 40035 57009 78088 8297/;
0149590460999992000062512004+24340+109390FM-12+009799999V0209999C000010120019N0250001N1+02601+02471100411ADDAA106001091AY181061GF108991081081008001999999MD1210061+9999MW1001REMSYN072AAXX  25121 59046 11575 80000 10260 20247 40041 52006 60011 70080 888//;
0146590460999992000062518004+24340+109390FM-12+009799999V0209999C000012200019N0200001N1+02511+02411100511ADDAA199000021GF102991021051017501001001KA1999M+03021MD1710071+9999REMSYN070AAXX  25181 59046 32770 20000 10251 20241 40051 57007 82500 333 10302;
0153590460999992000062521004+24340+109390FM-12+009799999V0201801N003010075019N0200001N1+02601+02381100521ADDAA124017091AY181031GF107991071091008001001001MD1210011+9999MW1251REMSYN076AAXX  25211 59046 41570 71803 10260 20238 40052 52001 72580 87900 333 70169;
0165590460999992000062600004+24340+109390FM-12+009799999V0201801N003010120019N0300001N1+02701+02431100671ADDAA106000891AY181061GF107991071081008001999999MD1210151+0301MW1251REMSYN088AAXX  26001 59046 11580 71803 10270 20243 40067 52015 69981 72580 878// 333 00300 70170;
0132590460999992000062603004+24340+109390FM-12+009799999V0201801N002010075019N0300001N1+02801+02471100741ADDAY181031GF107991071091008001999999MD1210071+9999MW1251REMSYN066AAXX  26031 59046 41580 71802 10280 20247 40074 52007 72580 879//;
0172590460999992000062606004+24340+109390FM-12+009799999V0201801N004012200019N0300001N1+03151+02431100511ADDAA106000191AY181061GF102991021021008001001001KA1999N+02501MD1710221+9999MW1001REMSYN082AAXX  26061 59046 11580 21804 10315 20243 40051 57022 69921 70080 82200 333 20250;
0132590460999992000062609004+24340+109390FM-12+009799999V0202201N003010075019N0300001N1+02721+02281100511ADDAY181031GF107991071091008001999999MD1410001+9999MW1251REMSYN066AAXX  26091 59046 41580 72203 10272 20228 40051 54000 72580 879//;
0149590460999992000062612004+24340+109390FM-12+009799999V0201401N001010900019N0300001N1+02681+02381100601ADDAA106001091AY181061GF107991011021008001001081MD1210091+9999MW1001REMSYN072AAXX  26121 59046 11580 71401 10268 20238 40060 52009 60011 70080 81208;
0156590460999992000062618004+24340+109390FM-12+009799999V0209999C000012200019N0200001N1+02521+02411100781ADDAA199000021GA1001+999999999GF100991001001999999001001KA1999M+03281MD1710031+9999REMSYN064AAXX  26181 59046 32970 00000 10252 20241 40078 57003 333 10328;
0133590460999992000062621004+24340+109390FM-12+009799999V0202001N002012200019N0150001N1+02581+02321100761ADDAA124001891GF103991031051012501001001MD1710031+9999REMSYN070AAXX  26211 59046 42665 32002 10258 20232 40076 57003 83500 333 70017;
0157590460999992000062700004+24340+109390FM-12+009799999V0202201N003012200019N0300001N1+02701+02351100881ADDAA199000091GF104991041051012501001001MD1210121+9999REMSYN075AAXX  27001 59046 32680 42203 10270 20235 40088 52012 84500 33 00200 70016;EQDQ01  00002PRCP99
0112590460999992000062703004+24340+109390FM-12+009799999V0202201N003012200019N0300001N1+03061+02311100901ADDGF104991041021008001001001MD1210031+9999REMSYN060AAXX  27031 59046 42580 42203 10306 20231 40090 52003 84200;
0165590460999992000062706004+24340+109390FM-12+009799999V0201801N003010075019N0300001N1+03281+02341100751ADDAA199000091GF106991061021008001001011KA1999N+02501MD1710151+9999REMSYN070AAXX  27061 59046 32580 61803 10328 20234 40075 57015 86201 333 20250;EQDQ01  00002PRCP99
0117590460999992000062709004+24340+109390FM-12+009799999V0201801N004012200019N0300001N1+03271+02251100541ADDGF103991999999008001999999MD1710201+9999REMSYN065AAXX  27091 59046 41580 31804 10327 20225 40054 57020 0080 82201;
0149590460999992000062712004+24340+109390FM-12+009799999V0201801N002010900019N0300001N1+03111+02341100671ADDAA106000791AY181061GF106991031091008001001021MD1210121+9999MW1001REMSYN072AAXX  27121 59046 11580 61802 10311 20234 40067 52012 69901 70080 83902;
0165590460999992000062718004+24340+109390FM-12+009799999V0202001N003012200019N0250001N1+02711+02411100801ADDAA199000091GF103991031051017501001001KA1999M+03301MD1710031+9999REMSYN070AAXX  27181 59046 32775 32003 10271 20241 40080 57003 83500 333 10330;EQDQ01  00002PRCP99
0135590460999992000062721004+24340+109390FM-12+009799999V0201601N002012200019N0250001N1+02641+02411100811ADDGF102991021051017501001001KA1999N+99999MD1410001+9999REMSYN070AAXX  27211 59046 42775 21602 10264 20241 40081 54000 82500 333 29999;
0139590460999992000062800004+24340+109390FM-12+009799999V0202001N003010075019N0300001N1+02721+02381100951ADDAA124000791GF106991061021008001001011MD1210141+0101REMSYN076AAXX  28001 59046 32580 62003 10272 20238 40095 52014 86201 333 00100 79999;
0112590460999992000062803004+24340+109390FM-12+009799999V0201601N003010075019N0300001N1+03071+02391100951ADDGF106991061021008001001011MD1410001+9999REMSYN060AAXX  28031 59046 42580 61603 10307 20239 40095 54000 86201;
0165590460999992000062806004+24340+109390FM-12+009799999V0202201N005012200019N0300001N1+03221+02341100781ADDAA199000091GF105991041021008001001011KA1999N+02631MD1710171+9999REMSYN070AAXX  28061 59046 32580 52205 10322 20234 40078 57017 84201 333 20263;EQDQ01  00002PRCP99
0112590460999992000062809004+24340+109390FM-12+009799999V0201801N005012200019N0300001N1+03331+02291100571ADDGF105991021021008001001011MD1710201+9999REMSYN060AAXX  28091 59046 42580 51805 10333 20229 40057 57020 82201;
0142590460999992000062812004+24340+109390FM-12+009799999V0201801N003012200019N0300001N1+03131+02361100571ADDAA199000091GF102991001001999999001021MD1410001+9999REMSYN060AAXX  28121 59046 32980 21803 10313 20236 40057 54000 80002;EQDQ01  00002PRCP99
0175590460999992000062818004+24340+109390FM-12+009799999V0209999C000012200019N0250001N1+02771+02471100611ADDAA199000091GA1001+999999999GF100991001001999999001001KA1999M+03361MD1710101+9999REMSYN064AAXX  28181 59046 32975 00000 10277 20247 40061 57010 333 10336;EQDQ01  00002PRCP99
0122590460999992000062821004+24340+109390FM-12+009799999V0201601N001012200019N0250001N1+02701+02441100591ADDGA1001+999999999GF100991001001999999001001MD1710021+9999REMSYN054AAXX  28211 59046 42975 01601 10270 20244 40059 57002;
0152590460999992000062900004+24340+109390FM-12+009799999V0202201N002012200019N0300001N1+02801+02281100721ADDAA199000091GF101991001001999999001011MD1210131+0021REMSYN070AAXX  29001 59046 32980 12202 10280 20228 40072 52013 80001 333 05201;EQDQ01  00002PRCP99
0112590460999992000062903004+24340+109390FM-12+009799999V0201801N002012200019N0300001N1+03161+02361100761ADDGF103991031021008001001001MD1210041+9999REMSYN060AAXX  29031 59046 42580 31802 10316 20236 40076 52004 83200;
0165590460999992000062906004+24340+109390FM-12+009799999V0202501N003012200019N0300001N1+03401+02371100601ADDAA199000091GF103991031021008001001001KA1999N+02651MD1710161+9999REMSYN070AAXX  29061 59046 32580 32503 10340 20237 40060 57016 83200 333 20265;EQDQ01  00002PRCP99
0112590460999992000062909004+24340+109390FM-12+009799999V0202501N003012200019N0300001N1+03391+02211100381ADDGF102991021011008001001001MD1710221+9999REMSYN060AAXX  29091 59046 42580 22503 10339 20221 40038 57022 82100;
0142590460999992000062912004+24340+109390FM-12+009799999V0201801N001012200019N0300001N1+03221+02271100411ADDAA199000091GF101991011001999999031001MD1210031+9999REMSYN060AAXX  29121 59046 32980 11801 10322 20227 40041 52003 81030;EQDQ01  00002PRCP99
0175590460999992000062918004+24340+109390FM-12+009799999V0201801N002012200019N0250001N1+02921+02391100571ADDAA199000091GA1001+999999999GF100991001001999999001001KA1999M+03501MD1710061+9999REMSYN064AAXX  29181 59046 32975 01802 10292 20239 40057 57006 333 10350;EQDQ01  00002PRCP99
0122590460999992000062921004+24340+109390FM-12+009799999V0202701N001012200019N0120001N1+02651+02451100611ADDGA1001+999999999GF100991001001999999001001MD1210041+9999REMSYN054AAXX  29211 59046 42962 02701 10265 20245 40061 52004;
0164590460999992000063000004+24340+109390FM-12+009799999V0209999C000019999999N0080001N1+02831+02491100751ADDAA199000091GF107991001001999999001021MD1210141+0001MW1101REMSYN076AAXX  30001 59046 31958 70000 10283 20249 40075 52014 71000 80002 333 00000;EQDQ01  00002PRCP99
0112590460999992000063003004+24340+109390FM-12+009799999V0202201N004010900019N0300001N1+03231+02281100811ADDGF107991021011008001001021MD1210061+9999REMSYN060AAXX  30031 59046 42580 72204 10323 20228 40081 52006 82102;
0165590460999992000063006004+24340+109390FM-12+009799999V0201801N003012200019N0300001N1+03461+02291100651ADDAA199000091GF102991021011008001001011KA1999N+02611MD1710161+9999REMSYN070AAXX  30061 59046 32580 21803 10346 20229 40065 57016 82101 333 20261;EQDQ01  00002PRCP99
0142590460999992000063012004+24340+109390FM-12+009799999V0201801N002012200019N0300001N1+03281+02141100501ADDAA199000091GF104991001001999999001011MD1210071+9999REMSYN060AAXX  30121 59046 32980 41802 10328 20214 40050 52007 80001;EQDQ01  00002PRCP99
0175590460999992000063018004+24340+109390FM-12+009799999V0209999C000012200019N0120001N1+02651+02361100651ADDAA199000091GA1001+999999999GF100991001001999999001001KA1999M+03571MD1710011+9999REMSYN064AAXX  30181 59046 32962 00000 10265 20236 40065 57001 333 10357;EQDQ01  00002PRCP99
0122590460999992000063021004+24340+109390FM-12+009799999V0209999C000012200019N0120001N1+02601+02371100661ADDGA1001+999999999GF100991001001999999001001MD1210011+9999REMSYN054AAXX  30211 59046 42962 00000 10260 20237 40066 52001;
0164590460999992000070100004+24340+109390FM-12+009799999V0202901N001012200019N0050001N1+02701+02431100751ADDAA199000091GF102991001001999999001011MD1210091+0001MW1101REMSYN076AAXX  01001 59046 31950 22901 10270 20243 40075 52009 71000 80001 333 00051;EQDQ01  00002PRCP99
0112590460999992000070103004+24340+109390FM-12+009799999V0201801N002012200019N0300001N1+03281+02311100781ADDGF102991011011008001001011MD1210031+9999REMSYN060AAXX  01031 59046 42580 21802 10328 20231 40078 52003 81101;
0165590460999992000070106004+24340+109390FM-12+009799999V0202701N003012200019N0300001N1+03491+02291100551ADDAA199000091GF102991021011008001001001KA1999N+02551MD1710231+9999REMSYN070AAXX  01061 59046 32580 22703 10349 20229 40055 57023 82100 333 20255;EQDQ01  00002PRCP99
0112590460999992000070109004+24340+109390FM-12+009799999V0202001N003012200019N0300001N1+03601+02011100371ADDGF102991011021008001001011MD1710181+9999REMSYN060AAXX  01091 59046 42580 22003 10360 20201 40037 57018 81201;
0142590460999992000070112004+24340+109390FM-12+009799999V0202201N002012200019N0300001N1+03371+02181100401ADDAA199000091GF101991011021008001001021MD1210031+9999REMSYN060AAXX  01121 59046 32580 12202 10337 20218 40040 52003 81202;EQDQ01  00002PRCP99
0165590460999992000070118004+24340+109390FM-12+009799999V0209999C000010900019N0250001N1+02791+02461100501ADDAA199000091GF107991011011008001001081KA1999M+03601MD1710041+9999REMSYN070AAXX  01181 59046 32575 70000 10279 20246 40050 57004 81108 333 10360;EQDQ01  00002PRCP99
0124590460999992000070121004+24340+109390FM-12+009799999V0201601N002019999999N0070001N1+02801+02461100531ADDGF107991001001999999001081MD1210041+9999MW1101REMSYN066AAXX  01211 59046 41957 71602 10280 20246 40053 52004 71000 80008;
0152590460999992000070200004+24340+109390FM-12+009799999V0201801N003010900019N0250001N1+02861+02401100671ADDAA199000091GF107991021011008001001021MD1210131+0011REMSYN070AAXX  02001 59046 32575 71803 10286 20240 40067 52013 82102 333 05102;EQDQ01  00002PRCP99
0112590460999992000070203004+24340+109390FM-12+009799999V0201801N003012200019N0300001N1+03201+02441100691ADDGF107991021011008001001011MD1210021+9999REMSYN060AAXX  02031 59046 42580 71803 10320 20244 40069 52002 82101;
0165590460999992000070206004+24340+109390FM-12+009799999V0202701N003010900019N0300001N1+03411+02151100501ADDAA199000091GF107991031021008001001021KA1999N+02691MD1710191+9999REMSYN070AAXX  02061 59046 32580 72703 10341 20215 40050 57019 83202 333 20269;EQDQ01  00002PRCP99
0112590460999992000070209004+24340+109390FM-12+009799999V0202201N002019999999N0300001N1+03421+02121100301ADDGF107991001001999999001081MD1710201+9999REMSYN060AAXX  02091 59046 42980 72202 10342 20212 40030 57020 80008;
0142590460999992000070212004+24340+109390FM-12+009799999V0202201N001019999999N0300001N1+03231+02181100291ADDAA199000091GF107991001001999999001081MD1710011+9999REMSYN060AAXX  02121 59046 32980 72201 10323 20218 40029 57001 80008;EQDQ01  00002PRCP99
0177590460999992000070218004+24340+109390FM-12+009799999V0209999C000019999999N0080001N1+02781+02441100461ADDAA199000091GF107991001001999999001081KA1999M+03541MD1210091+9999MW1101REMSYN076AAXX  02181 59046 31958 70000 10278 20244 40046 52009 71000 80008 333 10354;EQDQ01  00002PRCP99
0112590460999992000070221004+24340+109390FM-12+009799999V0201801N001010150019N0150001N1+02851+02421100471ADDGF107991071051017501999999MD1210011+9999REMSYN060AAXX  02211 59046 42765 71801 10285 20242 40047 52001 875//;
0152590460999992000070300004+24340+109390FM-12+009799999V0201801N003010900019N0300001N1+02901+02361100531ADDAA199000091GF107991011021008001001081MD1210061+0011REMSYN070AAXX  03001 59046 32580 71803 10290 20236 40053 52006 81208 333 05100;EQDQ01  00002PRCP99
0112590460999992000070303004+24340+109390FM-12+009799999V0201801N003010900019N0300001N1+03151+02321100541ADDGF107991031021008001001021MD1210011+9999REMSYN060AAXX  03031 59046 42580 71803 10315 20232 40054 52001 83202;
0165590460999992000070306004+24340+109390FM-12+009799999V0202701N002010900019N0300001N1+03501+02171100371ADDAA199000091GF107991021021008001001081KA1999N+02761MD1710161+9999REMSYN070AAXX  03061 59046 32580 72702 10350 20217 40037 57016 82208 333 20276;EQDQ01  00002PRCP99
0112590460999992000070309004+24340+109390FM-12+009799999V0202001N003010900019N0300001N1+03541+02171100091ADDGF107991011021008001001081MD1710281+9999REMSYN060AAXX  03091 59046 42580 72003 10354 20217 40009 57028 81208;
0142590460999992000070312004+24340+109390FM-12+009799999V0202001N002019999999N0300001N1+03331+02221100161ADDAA199000091GF107991001001999999001081MD1210071+9999REMSYN060AAXX  03121 59046 32980 72002 10333 20222 40016 52007 80008;EQDQ01  00002PRCP99
0165590460999992000070318004+24340+109390FM-12+009799999V0202001N003019999999N0250001N1+02971+02361100331ADDAA199000091GF107991001001999999001081KA1999M+03601MD1710041+9999REMSYN070AAXX  03181 59046 32975 72003 10297 20236 40033 57004 80008 333 10360;EQDQ01  00002PRCP99
0122590460999992000070321004+24340+109390FM-12+009799999V0202001N003012200019N0250001N1+02821+02351100341ADDGA1001+999999999GF100991001001999999001001MD1210011+9999REMSYN054AAXX  03211 59046 42975 02003 10282 20235 40034 52001;
0152590460999992000070400004+24340+109390FM-12+009799999V0202001N002019999999N0250001N1+02881+02361100431ADDAA199000091GF107991001001999999001081MD1210081+0011REMSYN070AAXX  04001 59046 32975 72002 10288 20236 40043 52008 80008 333 05100;EQDQ01  00002PRCP99
0112590460999992000070403004+24340+109390FM-12+009799999V0202001N003010900019N0250001N1+03081+02291100401ADDGF107991021021008001001081MD1710031+9999REMSYN060AAXX  04031 59046 42575 72003 10308 20229 40040 57003 82208;
0165590460999992000070406004+24340+109390FM-12+009799999V0201801N002010900019N0300001N1+03341+02301100251ADDAA199000091GF107991021021008001001081KA1999N+02781MD1710141+9999REMSYN070AAXX  04061 59046 32580 71802 10334 20230 40025 57014 82208 333 20278;EQDQ01  00002PRCP99
0112590460999992000070409004+24340+109390FM-12+009799999V0201801N002010900019N0300001N1+03361+02211100081ADDGF107991011021008001001081MD1710171+9999REMSYN060AAXX  04091 59046 42580 71802 10336 20221 40008 57017 81208;
0142590460999992000070412004+24340+109390FM-12+009799999V0201801N002019999999N0300001N1+03221+02351100171ADDAA199000091GF107991021001999999041081MD1210081+9999REMSYN060AAXX  04121 59046 32980 71802 10322 20235 40017 52008 82048;EQDQ01  00002PRCP99
0165590460999992000070418004+24340+109390FM-12+009799999V0209999C000019999999N0250001N1+02791+02481100291ADDAA199000091GF107991001001999999001081KA1999M+03411MD1210031+9999REMSYN070AAXX  04181 59046 32975 70000 10279 20248 40029 52003 80008 333 10341;EQDQ01  00002PRCP99
0164590460999992000070500004+24340+109390FM-12+009799999V0209999C000012200019N0030001N1+02751+02541100381ADDAA199000091GF102991021001999999031001MD1210081+0011MW1101REMSYN076AAXX  05001 59046 31930 20000 10275 20254 40038 52008 71000 82030 333 05151;EQDQ01  00002PRCP99
0112590460999992000070503004+24340+109390FM-12+009799999V0202901N001010360019N0120001N1+03201+02421100411ADDGF105991031021008001031001MD1210031+9999REMSYN060AAXX  05031 59046 42562 52901 10320 20242 40041 52003 83230;
0165590460999992000070506004+24340+109390FM-12+009799999V0201801N003010900019N0150001N1+03401+02541100201ADDAA199000091GF107991031021008001001081KA1999N+02651MD1710201+9999REMSYN070AAXX  05061 59046 32565 71803 10340 20254 40020 57020 83208 333 20265;EQDQ01  00002PRCP99
0112590460999992000070509004+24340+109390FM-12+009799999V0201801N003019999999N0300001N1+03521+02251100061ADDGF107991001001999999001081MD1710141+9999REMSYN060AAXX  05091 59046 42980 71803 10352 20225 40006 57014 80008;
0157590460999992000070512004+24340+109390FM-12+009799999V0200701N002010042019N0150001N1+02891+02361100221ADDAA106000191AY191061AY281061GF108991081091004501999999MD1210151+9999MW1801REMSYN072AAXX  05121 59046 11465 80702 10289 20236 40022 52015 69921 78098 889//;
0172590460999992000070518004+24340+109390FM-12+009799999V0200701N001010150019N0080001N1+02721+02521100381ADDAA106000191AY181061GF107991071051017501999999KA1999M+03561MD1210031+9999MW1101REMSYN082AAXX  05181 59046 11758 70701 10272 20252 40038 52003 69911 71080 875// 333 10356;
0155590460999992000070521004+24340+109390FM-12+009799999V0209999C000012200019N0060001N1+02661+02521100341ADDAA124000391GA1001+999999999GF100991001001999999001001MD1710041+9999MW1101REMSYN070AAXX  05211 59046 41956 00000 10266 20252 40034 57004 71000 333 70003;
0161590460999992000070600004+24340+109390FM-12+009799999V0209999C000012200019N0040001N1+02731+02521100411ADDAA124000391GA1001+999999999GF100991001001999999001001MD1210061+0001MW1101REMSYN076AAXX  06001 59046 31940 00000 10273 20252 40041 52006 71000 333 00000 70003;
0124590460999992000070603004+24340+109390FM-12+009799999V0200901N002012200019N0060001N1+03191+02541100391ADDGF101991011011008001001001MD1710011+9999MW1041REMSYN066AAXX  06031 59046 41556 10902 10319 20254 40039 57001 70400 81100;
0165590460999992000070606004+24340+109390FM-12+009799999V0200901N003010075019N0200001N1+03461+02471100141ADDAA199000091GF105991051021008001001001KA1999N+02651MD1710241+9999REMSYN070AAXX  06061 59046 32570 50903 10346 20247 40014 57024 85200 333 20265;EQDQ01  00002PRCP99
0112590460999992000070609004+24340+109390FM-12+009799999V0201801N005010900019N0180001N1+03321+02421100031ADDGF107991031091008001001081MD1710121+9999REMSYN060AAXX  06091 59046 42568 71805 10332 20242 40003 57012 83908;
0149590460999992000070612004+24340+109390FM-12+009799999V0200401N007010075019N0250001N1+02821+02111100341ADDAA106000791AY191061GF108991081091008001999999MD1210301+9999MW1951REMSYN072AAXX  06121 59046 11575 80407 10282 20211 40034 52030 69901 79590 889//;
0180590460999992000070618004+24340+109390FM-12+009799999V0209999C000010150019N0120001N1+02501+02341100281ADDAA106007191AY191061AY281061GF107991071051017501999999KA1999M+03581MD1710061+9999MW1001REMSYN082AAXX  06181 59046 11762 70000 10250 20234 40028 57006 60071 70098 875// 333 10358;
0145590460999992000070621004+24340+109390FM-12+009799999V0209999C000010150019N0080001N1+02501+02361100261ADDAA124006991GF107991071051017501999999MD1710021+9999MW1101REMSYN076AAXX  06211 59046 41758 70000 10250 20236 40026 57002 71000 875// 333 70068;
0151590460999992000070700004+24340+109390FM-12+009799999V0203601N001010120019N0030001N1+02561+02391100321ADDAA124006991GF108991081081008001999999MD1210051-0101MW1101REMSYN082AAXX  07001 59046 31530 83601 10256 20239 40032 52005 71000 888// 333 05152 70068;
0124590460999992000070703004+24340+109390FM-12+009799999V0209999C000010900019N0040001N1+02861+02431100311ADDGF107991011011008001001081MD1710011+9999MW1101REMSYN066AAXX  07031 59046 41540 70000 10286 20243 40031 57001 71000 81108;
0165590460999992000070706004+24340+109390FM-12+009799999V0202501N002010075019N0120001N1+03231+02541100021ADDAA199000091GF107991061021008001001021KA1999N+02451MD1710281+9999REMSYN070AAXX  07061 59046 32562 72502 10323 20254 40002 57028 86202 333 20245;EQDQ01  00002PRCP99
0112590460999992000070709004+24340+109390FM-12+009799999V0202701N001010360019N0300001N1+03001+02511099781ADDGF107991011011008001031021MD1710241+9999REMSYN060AAXX  07091 59046 42580 72701 10300 20251 49978 57024 81132;
0142590460999992000070712004+24340+109390FM-12+009799999V0209999C000012200019N0150001N1+03191+02541099931ADDAA199000091GF103991011041008001001021MD1210151+9999REMSYN060AAXX  07121 59046 32565 30000 10319 20254 49993 52015 81402;EQDQ01  00002PRCP99
0180590460999992000070718004+24340+109390FM-12+009799999V0209999C000010075019N0040001N1+02421+02361100081ADDAA106042991AY191061AY281061GF108991081091008001999999KA1999M+03351MD1710181+9999MW1131REMSYN082AAXX  07181 59046 11540 80000 10242 20236 40008 57018 60431 71398 889// 333 10335;
0145590460999992000070721004+24340+109390FM-12+009799999V0200401N001010120019N0050001N1+02461+02401100041ADDAA124043291GF107991071081008001999999MD1710051+9999MW1101REMSYN076AAXX  07211 59046 41550 70401 10246 20240 40004 57005 71000 878// 333 70432;
0151590460999992000070800004+24340+109390FM-12+009799999V0202701N001010120019N0080001N1+02541+02431100171ADDAA124043291GF107991071081008001999999MD1210141-0101MW1101REMSYN082AAXX  08001 59046 31558 72701 10254 20243 40017 52014 71000 878// 333 05100 70432;
0112590460999992000070803004+24340+109390FM-12+009799999V0200901N002010360019N0130001N1+02921+02481100131ADDGF105991021011008001031001MD1710051+9999REMSYN060AAXX  08031 59046 42563 50902 10292 20248 40013 57005 82130;
0181590460999992000070806004+24340+109390FM-12+009799999V0202501N002010075019N0150001N1+03231+02521999999ADDAA199000091GF105991051021008001001001KA1999N+02351MD1710231+9999REMSYN070AAXX  08061 59046 32565 52502 10323 20252 40089 57023 85200 333 20235;EQDQ01+100893APOSLPQ02  00002PRCP99
0112590460999992000070809004+24340+109390FM-12+009799999V0200401N002010075019N0200001N1+03321+02451099751ADDGF107991071091008001999999MD1710151+9999REMSYN060AAXX  08091 59046 42570 70402 10332 20245 49975 57015 879//;
0141590460999992000070812004+24340+109390FM-12+009799999V0200901N006010075019N0250001N1+02761+02341100001ADDAA106000791GF108991081091008001999999MD1210251+9999MW1951REMSYN072AAXX  08121 59046 11575 80906 10276 20234 40000 52025 69901 79500 889//;
0180590460999992000070818004+24340+109390FM-12+009799999V0209999C000010150019N0060001N1+02601+02441100041ADDAA106007191AY191061AY281061GF106991061051017501001001KA1999M+03381MD1710061+9999MW1101REMSYN082AAXX  08181 59046 11756 60000 10260 20244 40004 57006 60071 71098 86500 333 10338;
0145590460999992000070821004+24340+109390FM-12+009799999V0209999C000010150019N0060001N1+02601+02431099991ADDAA124006691GF108991081051017501999999MD1710051+9999MW1101REMSYN076AAXX  08211 59046 41756 80000 10260 20243 49999 57005 71000 885// 333 70065;
0151590460999992000070900004+24340+109390FM-12+009799999V0200401N001019999999N0080001N1+02701+02461100121ADDAA124006691GF106991061001999999031001MD1210121-0101MW1101REMSYN082AAXX  09001 59046 31958 60401 10270 20246 40012 52012 71000 86030 333 05102 70065;
0112590460999992000070903004+24340+109390FM-12+009799999V0200401N003012200019N0130001N1+03121+02471100121ADDGF104991041021008001001011MD1210011+9999REMSYN060AAXX  09031 59046 42563 40403 10312 20247 40012 52001 84201;
0165590460999992000070906004+24340+109390FM-12+009799999V0200901N003012200019N0150001N1+03371+02431099901ADDAA199000091GF106991021021008001001011KA1999N+02531MD1710221+9999REMSYN070AAXX  09061 59046 32565 60903 10337 20243 49990 57022 82201 333 20253;EQDQ01  00002PRCP99
0112590460999992000070909004+24340+109390FM-12+009799999V0202701N002019999999N0110001N1+03311+02441099801ADDGF106991021001999999031021MD1710101+9999REMSYN060AAXX  09091 59046 42961 62702 10331 20244 49980 57010 82032;
0142590460999992000070912004+24340+109390FM-12+009799999V0202701N001019999999N0120001N1+03041+02491099981ADDAA199000091GF107991071001999999031999MD1210181+9999REMSYN060AAXX  09121 59046 32962 72701 10304 20249 49998 52018 8703/;EQDQ01  00002PRCP99
0165590460999992000070918004+24340+109390FM-12+009799999V0200401N001019999999N0120001N1+02761+02281100191ADDAA199000091GF107991071001999999031999KA1999M+03401MD1710041+9999REMSYN070AAXX  09181 59046 32962 70401 10276 20228 40019 57004 8703/ 333 10340;EQDQ01  00002PRCP99
0124590460999992000070921004+24340+109390FM-12+009799999V0209999C000010150019N0080001N1+02701+02291100221ADDGF108991081051017501999999MD1210031+9999MW1101REMSYN066AAXX  09211 59046 41758 80000 10270 20229 40022 52003 71000 885//;
0164590460999992000071000004+24340+109390FM-12+009799999V0209999C000012200019N0080001N1+02771+02321100361ADDAA199000091GF104991041001999999031001MD1210141+0031MW1101REMSYN076AAXX  10001 59046 31958 40000 10277 20232 40036 52014 71000 84030 333 00301;EQDQ01  00002PRCP99
0112590460999992000071003004+24340+109390FM-12+009799999V0203201N002012200019N0110001N1+03121+02271100451ADDGF102991001001999999001011MD1210091+9999REMSYN060AAXX  10031 59046 42961 23202 10312 20227 40045 52009 80001;
0165590460999992000071006004+24340+109390FM-12+009799999V0200901N003012200019N0180001N1+03421+02161100281ADDAA199000091GF102991011021008001031001KA1999N+02661MD1710171+9999REMSYN070AAXX  10061 59046 32568 20903 10342 20216 40028 57017 81230 333 20266;EQDQ01  00002PRCP99
0112590460999992000071009004+24340+109390FM-12+009799999V0200401N003012200019N0250001N1+03481+02021100091ADDGF103991011011008001001011MD1710181+9999REMSYN060AAXX  10091 59046 42575 30403 10348 20202 40009 57018 81101;
0142590460999992000071012004+24340+109390FM-12+009799999V0209999C000010900019N0180001N1+03191+02431100261ADDAA199000091GF107991011011008001001081MD1210161+9999REMSYN060AAXX  10121 59046 32568 70000 10319 20243 40026 52016 81108;EQDQ01  00002PRCP99
0165590460999992000071018004+24340+109390FM-12+009799999V0200401N001010150019N0150001N1+02861+02401100451ADDAA199000091GF105991051051017501001001KA1999M+03551MD1710041+9999REMSYN070AAXX  10181 59046 32765 50401 10286 20240 40045 57004 85500 333 10355;EQDQ01  00002PRCP99
0124590460999992000071021004+24340+109390FM-12+009799999V0209999C000010150019N0080001N1+02801+02461100451ADDGF106991061051017501001001MD1410001+9999MW1101REMSYN066AAXX  10211 59046 41758 60000 10280 20246 40045 54000 71000 86500;
0164590460999992000071100004+24340+109390FM-12+009799999V0202901N001012200019N0060001N1+02841+02431100591ADDAA199000091GF101991011011008001001001MD1210141+0021MW1101REMSYN076AAXX  11001 59046 31556 12901 10284 20243 40059 52014 71000 81100 333 00201;EQDQ01  00002PRCP99
0134590460999992000071103004+24340+109390FM-12+009799999V0200701N002012200019N0060001N1+03161+02331100631ADDGA1001+999999999GF100991001001999999001001MD1210041+9999MW1041REMSYN060AAXX  11031 59046 41956 00702 10316 20233 40063 52004 70400;
0165590460999992000071106004+24340+109390FM-12+009799999V0200401N002012200019N0150001N1+03471+02421100421ADDAA199000091GF103991031021008001001001KA1999N+02721MD1710201+9999REMSYN070AAXX  11061 59046 32565 30402 10347 20242 40042 57020 83200 333 20272;EQDQ01  00002PRCP99
0124590460999992000071109004+24340+109390FM-12+009799999V0200701N003010075019N0120001N1+03551+02351100291ADDGF107991071091008001999999MD1710131+9999MW1951REMSYN066AAXX  11091 59046 41562 70703 10355 20235 40029 57013 79500 879//;
0157590460999992000071112004+24340+109390FM-12+009799999V0202201N002010120019N0110001N1+02861+02551100531ADDAA106004191AY191061AY281061GF108991081081008001999999MD1210221+9999MW1001REMSYN072AAXX  11121 59046 11561 82202 10286 20255 40053 52022 60041 70098 888//;
0172590460999992000071118004+24340+109390FM-12+009799999V0200701N002010150019N0150001N1+02741+02411100631ADDAA106000191AY181061GF107991071051017501999999KA1999M+03551MD1710111+9999MW1001REMSYN082AAXX  11181 59046 11765 70702 10274 20241 40063 57011 69911 70080 875// 333 10355;
0145590460999992000071121004+24340+109390FM-12+009799999V0202701N002010150019N0080001N1+02661+02501100611ADDAA124003691GF107991071051017501999999MD1710021+9999MW1101REMSYN076AAXX  11211 59046 41758 72702 10266 20250 40061 57002 71000 875// 333 70036;
0165590460999992000071200004+24340+109390FM-12+009799999V0202701N001010075019N0080001N1+02681+02451100761ADDAA106000891AY181061GF107991071091008001999999MD1210141+0201MW1251REMSYN088AAXX  12001 59046 11558 72701 10268 20245 40076 52014 69971 72580 879// 333 00252 70043;
0132590460999992000071203004+24340+109390FM-12+009799999V0202701N003012200019N0080001N1+02841+02521100781ADDAY181031GF102991011011008001031001MD1210021+9999MW1101REMSYN066AAXX  12031 59046 41558 22703 10284 20252 40078 52002 71080 81130;
0172590460999992000071206004+24340+109390FM-12+009799999V0201601N003012200019N0300001N1+03281+02371100621ADDAA106000191AY181061GF103991021021008001031011KA1999N+02611MD1710151+9999MW1001REMSYN082AAXX  12061 59046 11580 31603 10328 20237 40062 57015 69911 70080 82231 333 20261;
0141590460999992000071212004+24340+109390FM-12+009799999V0202201N003010075019N0300001N1+02861+02541100581ADDAA106000391GF107991071091008001031999MD1210081+9999MW1951REMSYN072AAXX  12121 59046 11580 72203 10286 20254 40058 52008 69931 79500 8793/;
0166590460999992000071218004+24340+109390FM-12+009799999V0202201N001010360019N0200001N1+02721+02481100691ADDAA199000021AY191061GF106991011011008001031001KA1999M+03391MD1710031+9999MW1001REMSYN076AAXX  12181 59046 31570 62201 10272 20248 40069 57003 70090 81130 333 10339;
0145590460999992000071221004+24340+109390FM-12+009799999V0209999C000010150019N0060001N1+02681+02451100641ADDAA124001091GF107991071051017501999999MD1710051+9999MW1101REMSYN076AAXX  12211 59046 41756 70000 10268 20245 40064 57005 71000 875// 333 70011;
0139590460999992000071300004+24340+109390FM-12+009799999V0201601N001010120019N0120001N1+02721+02441100741ADDAA124000591GF107991071081008001999999MD1210091+0001REMSYN076AAXX  13001 59046 32562 71601 10272 20244 40074 52009 878// 333 00000 70004;
0112590460999992000071303004+24340+109390FM-12+009799999V0201401N003010075019N0250001N1+03021+02331100731ADDGF106991061021008001031001MD1710011+9999REMSYN060AAXX  13031 59046 42575 61403 10302 20233 40073 57001 86230;
0165590460999992000071306004+24340+109390FM-12+009799999V0202201N004012200019N0300001N1+03351+02281100541ADDAA199000091GF103991021021008001031001KA1999N+02661MD1710181+9999REMSYN070AAXX  13061 59046 32580 32204 10335 20228 40054 57018 82230 333 20266;EQDQ01  00002PRCP99
0112590460999992000071309004+24340+109390FM-12+009799999V0202201N003012200019N0300001N1+03351+02311100331ADDGF102991011021008001031001MD1710211+9999REMSYN060AAXX  13091 59046 42580 22203 10335 20231 40033 57021 81230;
0142590460999992000071312004+24340+109390FM-12+009799999V0201801N002012200019N0300001N1+03161+02321100371ADDAA199000091GF102991011091008001001021MD1210041+9999REMSYN060AAXX  13121 59046 32580 21802 10316 20232 40037 52004 81902;EQDQ01  00002PRCP99
0164590460999992000071318004+24340+109390FM-12+009799999V0202701N002010075019N0200001N1+02801+02461100461ADDAA106000191GF107991071091008001999999KA1999M+03431MD1710061+9999MW1251REMSYN082AAXX  13181 59046 11570 72702 10280 20246 40046 57006 69911 72500 879// 333 10343;
0153590460999992000071321004+24340+109390FM-12+009799999V0209999C000010075019N0120001N1+02621+02491100441ADDAA124016091AY181031GF107991071091008001999999MD1710021+9999MW1001REMSYN076AAXX  13211 59046 41562 70000 10262 20249 40044 57002 70080 879// 333 70159;
0165590460999992000071400004+24340+109390FM-12+009799999V0201401N002012200019N0130001N1+02741+02501100521ADDAA106016091AY181061GF102991011001999999031011MD1210081-0201MW1001REMSYN088AAXX  14001 59046 11963 21402 10274 20250 40052 52008 60161 70080 81031 333 05200 70159;
0112590460999992000071403004+24340+109390FM-12+009799999V0202201N002010075019N0300001N1+03041+02351100511ADDGF106991061021008001001011MD1710011+9999REMSYN060AAXX  14031 59046 42580 62202 10304 20235 40051 57001 86201;
0172590460999992000071406004+24340+109390FM-12+009799999V0202201N004010075019N0300001N1+03181+02451100391ADDAA106000391AY181061GF107991071091008001031999KA1999N+02561MD1710121+9999MW1001REMSYN082AAXX  14061 59046 11580 72204 10318 20245 40039 57012 69931 70080 8793/ 333 20256;
0112590460999992000071409004+24340+109390FM-12+009799999V0202201N002010360019N0300001N1+03051+02411100201ADDGF107991021091008001031021MD1710191+9999REMSYN060AAXX  14091 59046 42580 72202 10305 20241 40020 57019 82932;
0142590460999992000071412004+24340+109390FM-12+009799999V0202501N001012200019N0200001N1+02981+02441100211ADDAA199000091GF102991021001999999061011MD1210011+9999REMSYN060AAXX  14121 59046 32970 22501 10298 20244 40021 52001 82061;EQDQ01  00002PRCP99
0164590460999992000071418004+24340+109390FM-12+009799999V0209999C000010075019N0180001N1+02741+02541100351ADDAA106000791GF107991071091008001999999KA1999M+03401MD1710011+9999MW1801REMSYN082AAXX  14181 59046 11568 70000 10274 20254 40035 57001 69901 78000 879// 333 10340;
0161590460999992000071421004+24340+109390FM-12+009799999V0201801N002010075019N0180001N1+02811+02431100301ADDAA124000391AY191031AY281031GF108991081091008001999999MD1710051+9999MW1131REMSYN076AAXX  14211 59046 41568 81802 10281 20243 40030 57005 71398 889// 333 70003;
0173590460999992000071500004+24340+109390FM-12+009799999V0201801N003019999999N0200001N1+02811+02401100371ADDAA106000791AY191061AY281061GF107991011001999999031081MD1210071-0201MW1001REMSYN088AAXX  15001 59046 11970 71803 10281 20240 40037 52007 69901 70098 81038 333 05201 70003;
0112590460999992000071503004+24340+109390FM-12+009799999V0202701N002010075019N0250001N1+03051+02411100401ADDGF107991071021008001001021MD1210031+9999REMSYN060AAXX  15031 59046 42575 72702 10305 20241 40040 52003 87202;
0146590460999992000071506004+24340+109390FM-12+009799999V0202201N004010075019N0250001N1+03351+02331100201ADDAA199000021GF107991061021008001001021KA1999N+02731MD1710201+9999REMSYN070AAXX  15061 59046 32575 72204 10335 20233 40020 57020 86202 333 20273;
0112590460999992000071509004+24340+109390FM-12+009799999V0202201N003010900019N0300001N1+03411+02361100081ADDGF107991021021008001001081MD1710111+9999REMSYN060AAXX  15091 59046 42580 72203 10341 20236 40008 57011 82208;
0142590460999992000071512004+24340+109390FM-12+009799999V0200401N001019999999N0250001N1+03221+02421100251ADDAA199000091GF106991011001999999031011MD1210161+9999REMSYN060AAXX  15121 59046 32975 60401 10322 20242 40025 52016 81031;EQDQ01  00002PRCP99
0175590460999992000071518004+24340+109390FM-12+009799999V0209999C000012200019N0200001N1+02761+02591100251ADDAA199000091GA1001+999999999GF100991001001999999001001KA1999M+03461MD1710121+9999REMSYN064AAXX  15181 59046 32970 00000 10276 20259 40025 57012 333 10346;EQDQ01  00002PRCP99
0164590460999992000071600004+24340+109390FM-12+009799999V0203201N001012200019N0060001N1+02781+02541100341ADDAA199000091GF102991021001999999031001MD1210151+0001MW1101REMSYN076AAXX  16001 59046 31956 23201 10278 20254 40034 52015 71000 82030 333 00000;EQDQ01  00002PRCP99
0124590460999992000071603004+24340+109390FM-12+009799999V0200901N002012200019N0080001N1+03261+02451100421ADDGF101991011011008001001001MD1210081+9999MW1041REMSYN066AAXX  16031 59046 41558 10902 10326 20245 40042 52008 70400 81100;
0165590460999992000071606004+24340+109390FM-12+009799999V0202501N003010075019N0200001N1+03461+02441100201ADDAA199000091GF106991061021008001001001KA1999N+02661MD1710211+9999REMSYN070AAXX  16061 59046 32570 62503 10346 20244 40020 57021 86200 333 20266;EQDQ01  00002PRCP99
0112590460999992000071609004+24340+109390FM-12+009799999V0200901N002012200019N0300001N1+03591+02281099941ADDGF102991011021008001001011MD1710261+9999REMSYN060AAXX  16091 59046 42580 20902 10359 20228 49994 57026 81201;
0152590460999992000071612004+24340+109390FM-12+009799999V0209999C000012200019N0300001N1+03341+02521099981ADDAA199000091GA1001+999999999GF100991001001999999001001MD1210041+9999REMSYN054AAXX  16121 59046 32980 00000 10334 20252 49998 52004;EQDQ01  00002PRCP99
0177590460999992000071618004+24340+109390FM-12+009799999V0203201N001012200019N0180001N1+02881+02571100031ADDAA199000091GF102991011091008001031001KA1999M+03621MD1710121+9999MW1131REMSYN076AAXX  16181 59046 31568 23201 10288 20257 40003 57012 71300 81930 333 10362;EQDQ01  00002PRCP99
0132590460999992000071621004+24340+109390FM-12+009799999V0209999C000010120019N0150001N1+02901+02551100001ADDAY191031GF107991071081008001999999MD1710031+9999MW1001REMSYN066AAXX  16211 59046 41565 70000 10290 20255 40000 57003 70090 878//;
0172590460999992000071700004+24340+109390FM-12+009799999V0200901N001012200019N0060001N1+02911+02471100041ADDAA199000091AY191061GF101991011001999999031001MD1210041+0131MW1101REMSYN076AAXX  17001 59046 31956 10901 10291 20247 40004 52004 71090 81030 333 01301;EQDQ01  00002PRCP99
0112590460999992000071703004+24340+109390FM-12+009799999V0201101N001012200019N0180001N1+03361+02541099991ADDGF101991011011008001001001MD1710051+9999REMSYN060AAXX  17031 59046 42568 11101 10336 20254 49999 57005 81100;
0165590460999992000071706004+24340+109390FM-12+009799999V0203201N001012200019N0300001N1+03641+02411099751ADDAA199000091GF102991021021008001001001KA1999N+02781MD1710231+9999REMSYN070AAXX  17061 59046 32580 23201 10364 20241 49975 57023 82200 333 20278;EQDQ01  00002PRCP99
0124590460999992000071709004+24340+109390FM-12+009799999V0203201N004010075019N0250001N1+03321+02331099631ADDGF108991081091008001999999MD1710131+9999MW1171REMSYN066AAXX  17091 59046 41575 83204 10332 20233 49963 57013 71700 889//;
0176590460999992000071712004+24340+109390FM-12+009799999V0201101N002019999999N0130001N1+02921+02511099741ADDAA106001091AY191061AY281061GF108991999091012501999999MD1210101+9999MW1131REMSYN072AAXX  17121 59046 11663 81102 10292 20251 49974 52010 60011 71398 899//;EQDQ01+000092SCOTLC
0165590460999992000071718004+24340+109390FM-12+009799999V0209999C000012200019N0120001N1+02781+02381099851ADDAA199000091GF102991011001999999031021KA1999M+03761MD1710081+9999REMSYN070AAXX  17181 59046 32962 20000 10278 20238 49985 57008 81032 333 10376;EQDQ01  00002PRCP99
0133590460999992000071721004+24340+109390FM-12+009799999V0209999C000012200019N0100001N1+02711+02431099771ADDAA124001391GF102991001001999999001021MD1710081+9999REMSYN070AAXX  17211 59046 42960 20000 10271 20243 49977 57008 80002 333 70013;
0151590460999992000071800004+24340+109390FM-12+009799999V0202701N001012200019N0050001N1+02701+02431099861ADDAA124001391GF101991011001999999031001MD1210081-0201MW1101REMSYN082AAXX  18001 59046 31950 12701 10270 20243 49986 52008 71000 81030 333 05252 70013;
0124590460999992000071803004+24340+109390FM-12+009799999V0201401N002012200019N0050001N1+03181+02501099901ADDGF103991031001999999031011MD1210051+9999MW1041REMSYN066AAXX  18031 59046 41950 31402 10318 20250 49990 52005 70400 83031;
0165590460999992000071806004+24340+109390FM-12+009799999V0202001N003012200019N0150001N1+03481+02541099691ADDAA199000091GF102991021011008001001001KA1999N+02641MD1710211+9999REMSYN070AAXX  18061 59046 32565 22003 10348 20254 49969 57021 82100 333 20264;EQDQ01  00002PRCP99
0112590460999992000071809004+24340+109390FM-12+009799999V0202001N003010075019N0200001N1+03571+02511099411ADDGF107991061091008001031999MD1710271+9999REMSYN060AAXX  18091 59046 42570 72003 10357 20251 49941 57027 8693/;
0157590460999992000071812004+24340+109390FM-12+009799999V0201801N003010042019N0120001N1+02681+02211099711ADDAA106000791AY191061AY281061GF108991081091004501999999MD1210281+9999MW1951REMSYN072AAXX  18121 59046 11462 81803 10268 20221 49971 52028 69901 79598 889//;
0175590460999992000071818004+24340+109390FM-12+009799999V0209999C000012200019N0110001N1+02531+02311999999ADDAA199000021GA1001+999999999GF100991001001999999001001KA1999M+03351MD1710021+9999REMSYN064AAXX  18181 59046 32961 00000 10253 20231 40064 57002 333 10335;EQDQ01+100643APOSLP
0133590460999992000071821004+24340+109390FM-12+009799999V0201101N002010150019N0130001N1+02521+02321099791ADDAA124000591GF108991081051017501999999MD1710211+9999REMSYN070AAXX  18211 59046 42763 81102 10252 20232 49979 57021 885// 333 70005;
0139590460999992000071900004+24340+109390FM-12+009799999V0202001N002010360019N0250001N1+02651+02301099971ADDAA124000591GF107991021011008001031999MD1210161+0101REMSYN076AAXX  19001 59046 32575 72002 10265 20230 49997 52016 8213/ 333 00151 70005;
0112590460999992000071903004+24340+109390FM-12+009799999V0201801N003010360019N0300001N1+02881+02261100061ADDGF107991031011008001031999MD1210091+9999REMSYN060AAXX  19031 59046 42580 71803 10288 20226 40006 52009 8313/;
0165590460999992000071906004+24340+109390FM-12+009799999V0201801N003010360019N0300001N1+03081+02141100061ADDAA199000091GF108991021021008001071999KA1999N+02521MD1210011+9999REMSYN070AAXX  19061 59046 32580 81803 10308 20214 40006 52001 8227/ 333 20252;EQDQ01  00002PRCP99
0112590460999992000071909004+24340+109390FM-12+009799999V0202001N003010360019N0300001N1+03181+02161099861ADDGF107991011011008001031999MD1710201+9999REMSYN060AAXX  19091 59046 42580 72003 10318 20216 49986 57020 8113/;
0142590460999992000071912004+24340+109390FM-12+009799999V0201801N002010360019N0300001N1+02991+02171100011ADDAA199000091GF107991021091008001031011MD1210151+9999REMSYN060AAXX  19121 59046 32580 71802 10299 20217 40001 52015 82931;EQDQ01  00002PRCP99
0172590460999992000071918004+24340+109390FM-12+009799999V0209999C000010120019N0250001N1+02501+02331100221ADDAA106000591AY181061GF107991071081008001999999KA1999M+03211MD1710101+9999MW1251REMSYN082AAXX  19181 59046 11575 70000 10250 20233 40022 57010 69961 72580 878// 333 10321;
0153590460999992000071921004+24340+109390FM-12+009799999V0200701N002010075019N0200001N1+02501+02381100171ADDAA124003891AY181031GF108991081091008001999999MD1710041+9999MW1251REMSYN076AAXX  19211 59046 41570 80702 10250 20238 40017 57004 72580 889// 333 70038;
0165590460999992000072000004+24340+109390FM-12+009799999V0209999C000010075019N0100001N1+02581+02441100341ADDAA106004191AY181061GF108991081091008001999999MD1210161+0401MW1801REMSYN088AAXX  20001 59046 11560 80000 10258 20244 40034 52016 60041 78080 889// 333 00451 70050;
0132590460999992000072003004+24340+109390FM-12+009799999V0201601N003010075019N0150001N1+02851+02471100441ADDAY181031GF108991081091008001999999MD1210101+9999MW1251REMSYN066AAXX  20031 59046 41565 81603 10285 20247 40044 52010 72580 889//;
0172590460999992000072006004+24340+109390FM-12+009799999V0202001N003010075019N0300001N1+03181+02391100281ADDAA106000191AY181061GF107991061091008001031011KA1999N+02471MD1710151+9999MW1171REMSYN082AAXX  20061 59046 11580 72003 10318 20239 40028 57015 69911 71780 86931 333 20247;
0140590460999992000072009004+24340+109390FM-12+009799999V0201401N001010042019N0150001N1+02531+02421100401ADDAY191031AY281031GF108991081091004501999999MD1210101+9999MW1911REMSYN066AAXX  20091 59046 41465 81401 10253 20242 40040 52010 79198 889//;
0172590460999992000072018004+24340+109390FM-12+009799999V0200701N002010150019N0130001N1+02581+02411100631ADDAA106000791AY181061GF108991081051017501999999KA1999M+03211MD1710081+9999MW1001REMSYN082AAXX  20181 59046 11763 80702 10258 20241 40063 57008 69901 70080 885// 333 10321;
0145590460999992000072021004+24340+109390FM-12+009799999V0200901N001010120019N0060001N1+02561+02431100661ADDAA124020391GF108991081051012501999999MD1210021+9999MW1211REMSYN076AAXX  20211 59046 41656 80901 10256 20243 40066 52002 72100 885// 333 70203;
0165590460999992000072100004+24340+109390FM-12+009799999V0200701N002010120019N0060001N1+02631+02391100781ADDAA106000791AY161061GF107991071051012501999999MD1210121+0401MW1601REMSYN088AAXX  21001 59046 11656 70702 10263 20239 40078 52012 69901 76060 875// 333 00401 70191;
0132590460999992000072103004+24340+109390FM-12+009799999V0201601N002010360019N0100001N1+02891+02471100791ADDAY161031GF107991011011008001031999MD1210021+9999MW1001REMSYN066AAXX  21031 59046 41560 71602 10289 20247 40079 52002 70060 8113/;
0180590460999992000072106004+24340+109390FM-12+009799999V0202001N004010120019N0250001N1+02911+02491100691ADDAA106000191AY181061AY261061GF107991071081008001999999KA1999N+02431MD1710101+9999MW1001REMSYN082AAXX  21061 59046 11575 72004 10291 20249 40069 57010 69921 70086 878// 333 20243;
0140590460999992000072109004+24340+109390FM-12+009799999V0201801N004010075019N0300001N1+02861+02371100611ADDAY181031AY261031GF108991081091008001999999MD1710081+9999MW1801REMSYN066AAXX  21091 59046 41580 81804 10286 20237 40061 57008 78086 889//;
0157590460999992000072112004+24340+109390FM-12+009799999V0201801N004010120019N0250001N1+02741+02341100771ADDAA106000791AY181061AY261061GF108991081081008001999999MD1210151+9999MW1001REMSYN072AAXX  21121 59046 11575 81804 10274 20234 40077 52015 69901 70086 888//;
0172590460999992000072118004+24340+109390FM-12+009799999V0202001N002010150019N0150001N1+02621+02361100801ADDAA106000791AY161061GF107991071051017501999999KA1999M+03001MD1710071+9999MW1001REMSYN082AAXX  21181 59046 11765 72002 10262 20236 40080 57007 69901 70060 875// 333 10300;
0153590460999992000072121004+24340+109390FM-12+009799999V0201801N002010120019N0080001N1+02521+02361100731ADDAA124000591AY161031GF108991081051012501999999MD1710081+9999MW1101REMSYN076AAXX  21211 59046 41658 81802 10252 20236 40073 57008 71060 885// 333 70006;
0165590460999992000072200004+24340+109390FM-12+009799999V0209999C000010360019N0120001N1+02581+02441100781ADDAA106002091AY161061GF107991021011008001031999MD1210051+0001MW1001REMSYN088AAXX  22001 59046 11562 70000 10258 20244 40078 52005 60021 70060 8213/ 333 00051 70018;
0112590460999992000072203004+24340+109390FM-12+009799999V0202001N002010120019N0150001N1+02801+02441100811ADDGF108991081081008001999999MD1210041+9999REMSYN060AAXX  22031 59046 42565 82002 10280 20244 40081 52004 888//;
0172590460999992000072206004+24340+109390FM-12+009799999V0202001N001010075019N0180001N1+02761+02541100651ADDAA106005191AY181061GF107991071091008001999999KA1999N+02501MD1710161+9999MW1801REMSYN082AAXX  22061 59046 11568 72001 10276 20254 40065 57016 60051 78080 879// 333 20250;
0140590460999992000072209004+24340+109390FM-12+009799999V0209999C000010075019N0200001N1+02771+02431100531ADDAY191031AY281031GF108991081091008001999999MD1710121+9999MW1801REMSYN066AAXX  22091 59046 41570 80000 10277 20243 40053 57012 78098 889//;
0157590460999992000072212004+24340+109390FM-12+009799999V0201801N002010075019N0200001N1+02531+02341100621ADDAA106002091AY191061AY281061GF108991081091008001999999MD1210081+9999MW1801REMSYN072AAXX  22121 59046 11570 81802 10253 20234 40062 52008 60021 78098 889//;
0172590460999992000072218004+24340+109390FM-12+009799999V0209999C000010150019N0200001N1+02471+02281100661ADDAA106000191AY181061GF108991081051017501999999KA1999M+02901MD1710051+9999MW1001REMSYN082AAXX  22181 59046 11770 80000 10247 20228 40066 57005 69911 70080 885// 333 10290;
0133590460999992000072221004+24340+109390FM-12+009799999V0201601N001010150019N0120001N1+02441+02321100561ADDAA124008191GF108991081051017501999999MD1710101+9999REMSYN070AAXX  22211 59046 42762 81601 10244 20232 40056 57010 885// 333 70082;
0139590460999992000072300004+24340+109390FM-12+009799999V0201801N002010120019N0250001N1+02501+02271100581ADDAA124007191GF108991081051012501999999MD1210021-0201REMSYN076AAXX  23001 59046 32675 81802 10250 20227 40058 52002 885// 333 05251 70070;
0112590460999992000072303004+24340+109390FM-12+009799999V0202001N002010120019N0300001N1+02821+02381100581ADDGF107991071081008001999999MD1210011+9999REMSYN060AAXX  23031 59046 42580 72002 10282 20238 40058 52001 878//;
0165590460999992000072306004+24340+109390FM-12+009799999V0202701N003012200019N0300001N1+03101+02421100471ADDAA199000091GF104991041021008001031001KA1999N+02431MD1710111+9999REMSYN070AAXX  23061 59046 32580 42703 10310 20242 40047 57011 84230 333 20243;EQDQ01  00002PRCP99
0112590460999992000072309004+24340+109390FM-12+009799999V0201801N003012200019N0300001N1+03311+02361100211ADDGF103991031021008001031011MD1710251+9999REMSYN060AAXX  23091 59046 42580 31803 10331 20236 40021 57025 83231;
0152590460999992000072312004+24340+109390FM-12+009799999V0201801N003012200019N0300001N1+03081+02401100281ADDAA199000091GA1001+999999999GF100991001001999999001001MD1210061+9999REMSYN054AAXX  23121 59046 32980 01803 10308 20240 40028 52006;EQDQ01  00002PRCP99
0172590460999992000072318004+24340+109390FM-12+009799999V0209999C000010120019N0150001N1+02771+02621100391ADDAA106001091AY181061GF108991081091012501999999KA1999M+03321MD1410001+9999MW1801REMSYN082AAXX  23181 59046 11665 80000 10277 20262 40039 54000 60011 78080 889// 333 10332;
0153590460999992000072321004+24340+109390FM-12+009799999V0201801N001012200019N0150001N1+02711+02481100391ADDAA124001391AY191031GF101991001001999999001021MD1410001+9999MW1001REMSYN076AAXX  23211 59046 41965 11801 10271 20248 40039 54000 70090 80002 333 70013;
0159590460999992000072400004+24340+109390FM-12+009799999V0201101N002010120019N0200001N1+02721+02461100501ADDAA124001391AY191061GF107991071081008001999999MD1210111-0101MW1001REMSYN082AAXX  24001 59046 31570 71102 10272 20246 40050 52011 70090 878// 333 05104 70013;
0112590460999992000072403004+24340+109390FM-12+009799999V0202001N003010075019N0300001N1+02911+02461100541ADDGF107991071091008001999999MD1210031+9999REMSYN060AAXX  24031 59046 42580 72003 10291 20246 40054 52003 879//;
0146590460999992000072406004+24340+109390FM-12+009799999V0202001N003012200019N0300001N1+03321+02421100391ADDAA199000021GF104991041021008001001001KA1999N+02641MD1710141+9999REMSYN070AAXX  24061 59046 32580 42003 10332 20242 40039 57014 84200 333 20264;
0112590460999992000072409004+24340+109390FM-12+009799999V0201801N002010900019N0300001N1+03371+02351100201ADDGF105991021011008001001021MD1710191+9999REMSYN060AAXX  24091 59046 42580 51802 10337 20235 40020 57019 82102;
0142590460999992000072412004+24340+109390FM-12+009799999V0202001N003012200019N0300001N1+03221+02371100191ADDAA199000091GF104991011001999999031011MD1710011+9999REMSYN060AAXX  24121 59046 32980 42003 10322 20237 40019 57001 81031;EQDQ01  00002PRCP99
0175590460999992000072418004+24340+109390FM-12+009799999V0201801N001012200019N0200001N1+02901+02521100351ADDAA199000091GA1001+999999999GF100991001001999999001001KA1999M+03431MD1710061+9999REMSYN064AAXX  24181 59046 32970 01801 10290 20252 40035 57006 333 10343;EQDQ01  00002PRCP99
0112590460999992000072421004+24340+109390FM-12+009799999V0202001N002012200019N0150001N1+02841+02471100371ADDGF101991011001999999031001MD1210021+9999REMSYN060AAXX  24211 59046 42965 12002 10284 20247 40037 52002 81030;
0152590460999992000072500004+24340+109390FM-12+009799999V0202001N002010120019N0200001N1+02851+02421100491ADDAA199000091GF106991061081008001001001MD1210121+0001REMSYN070AAXX  25001 59046 32570 62002 10285 20242 40049 52012 86800 333 00001;EQDQ01  00002PRCP99
0112590460999992000072503004+24340+109390FM-12+009799999V0202001N003012200019N0300001N1+03201+02421100531ADDGF103991031021008001001011MD1210041+9999REMSYN060AAXX  25031 59046 42580 32003 10320 20242 40053 52004 83201;
0165590460999992000072506004+24340+109390FM-12+009799999V0201801N003012200019N0300001N1+03361+02401100331ADDAA199000091GF105991041021008001001011KA1999N+02811MD1710191+9999REMSYN070AAXX  25061 59046 32580 51803 10336 20240 40033 57019 84201 333 20281;EQDQ01  00002PRCP99
0112590460999992000072509004+24340+109390FM-12+009799999V0202201N002012200019N0300001N1+03501+02361100091ADDGF103991011011008001001011MD1710241+9999REMSYN060AAXX  25091 59046 42580 32202 10350 20236 40009 57024 81101;
0142590460999992000072512004+24340+109390FM-12+009799999V0201801N002012200019N0300001N1+03271+02331100061ADDAA199000091GF101991001001999999001011MD1710031+9999REMSYN060AAXX  25121 59046 32980 11802 10327 20233 40006 57003 80001;EQDQ01  00002PRCP99
0165590460999992000072518004+24340+109390FM-12+009799999V0202201N002012200019N0200001N1+02981+02501100301ADDAA199000091GF102991001001999999001011KA1999M+03541MD1210021+9999REMSYN070AAXX  25181 59046 32970 22202 10298 20250 40030 52002 80001 333 10354;EQDQ01  00002PRCP99
0112590460999992000072521004+24340+109390FM-12+009799999V0202001N003010150019N0200001N1+02921+02471100331ADDGF107991071051017501999999MD1210031+9999REMSYN060AAXX  25211 59046 42770 72003 10292 20247 40033 52003 875//;
0152590460999992000072600004+24340+109390FM-12+009799999V0201801N003012200019N0250001N1+02901+02421100441ADDAA199000091GF103991011011008001001011MD1210101+0011REMSYN070AAXX  26001 59046 32575 31803 10290 20242 40044 52010 81101 333 05101;EQDQ01  00002PRCP99
0112590460999992000072603004+24340+109390FM-12+009799999V0202201N003010075019N0250001N1+03151+02481100471ADDGF106991061021008001001011MD1210031+9999REMSYN060AAXX  26031 59046 42575 62203 10315 20248 40047 52003 86201;
0165590460999992000072606004+24340+109390FM-12+009799999V0202001N003010075019N0300001N1+03421+02421100281ADDAA199000091GF106991061021008001001001KA1999N+02821MD1710181+9999REMSYN070AAXX  26061 59046 32580 62003 10342 20242 40028 57018 86200 333 20282;EQDQ01  00002PRCP99
0112590460999992000072609004+24340+109390FM-12+009799999V0202201N003012200019N0300001N1+03491+02301100011ADDGF102991011011008001001011MD1710271+9999REMSYN060AAXX  26091 59046 42580 22203 10349 20230 40001 57027 81101;
0142590460999992000072612004+24340+109390FM-12+009799999V0201801N002019999999N0300001N1+03321+02321100001ADDAA199000091GF105991001001999999001011MD1710011+9999REMSYN060AAXX  26121 59046 32980 51802 10332 20232 40000 57001 80001;EQDQ01  00002PRCP99
0175590460999992000072618004+24340+109390FM-12+009799999V0209999C000012200019N0300001N1+02961+02541100071ADDAA199000091GA1001+999999999GF100991001001999999001001KA1999M+03571MD1710111+9999REMSYN064AAXX  26181 59046 32980 00000 10296 20254 40007 57011 333 10357;EQDQ01  00002PRCP99
0122590460999992000072621004+24340+109390FM-12+009799999V0201601N001012200019N0250001N1+02831+02511100041ADDGA1001+999999999GF100991001001999999001001MD1710031+9999REMSYN054AAXX  26211 59046 42975 01601 10283 20251 40004 57003;
0152590460999992000072700004+24340+109390FM-12+009799999V0202001N002010360019N0300001N1+02861+02431100261ADDAA199000091GF107991011011008001031081MD1210211+0021REMSYN070AAXX  27001 59046 32580 72002 10286 20243 40026 52021 81138 333 05200;EQDQ01  00002PRCP99
0112590460999992000072703004+24340+109390FM-12+009799999V0202001N004012200019N0300001N1+03211+02441100281ADDGF102991021011008001001011MD1210031+9999REMSYN060AAXX  27031 59046 42580 22004 10321 20244 40028 52003 82101;
0165590460999992000072706004+24340+109390FM-12+009799999V0201601N003010360019N0300001N1+03401+02451100101ADDAA199000091GF107991021011008001031999KA1999N+02781MD1710181+9999REMSYN070AAXX  27061 59046 32580 71603 10340 20245 40010 57018 8213/ 333 20278;EQDQ01  00002PRCP99
0112590460999992000072709004+24340+109390FM-12+009799999V0202201N002010360019N0300001N1+03481+02321099881ADDGF106991011011008001031001MD1710221+9999REMSYN060AAXX  27091 59046 42580 62202 10348 20232 49988 57022 81130;
0142590460999992000072712004+24340+109390FM-12+009799999V0201801N003019999999N0300001N1+03331+02421099891ADDAA199000091GF106991021001999999031021MD1210011+9999REMSYN060AAXX  27121 59046 32980 61803 10333 20242 49989 52001 82032;EQDQ01  00002PRCP99
0175590460999992000072718004+24340+109390FM-12+009799999V0201801N001012200019N0200001N1+02981+02461100111ADDAA199000091GA1001+999999999GF100991001001999999001001KA1999M+03591MD1710051+9999REMSYN064AAXX  27181 59046 32970 01801 10298 20246 40011 57005 333 10359;EQDQ01  00002PRCP99
0122590460999992000072721004+24340+109390FM-12+009799999V0201601N002012200019N0200001N1+02861+02451100121ADDGA1001+999999999GF100991001001999999001001MD1210011+9999REMSYN054AAXX  27211 59046 42970 01602 10286 20245 40012 52001;
0152590460999992000072800004+24340+109390FM-12+009799999V0201801N004012200019N0300001N1+02911+02441100341ADDAA199000091GF102991011011008001001011MD1210211+0011REMSYN070AAXX  28001 59046 32580 21804 10291 20244 40034 52021 81101 333 00101;EQDQ01  00002PRCP99
0112590460999992000072803004+24340+109390FM-12+009799999V0201801N003012200019N0300001N1+03131+02391100481ADDGF102991021011008001001001MD1210141+9999REMSYN060AAXX  28031 59046 42580 21803 10313 20239 40048 52014 82100;
0165590460999992000072806004+24340+109390FM-12+009799999V0202501N002012200019N0300001N1+03421+02411100241ADDAA199000091GF102991021021008001001001KA1999N+02811MD1710231+9999REMSYN070AAXX  28061 59046 32580 22502 10342 20241 40024 57023 82200 333 20281;EQDQ01  00002PRCP99
0112590460999992000072809004+24340+109390FM-12+009799999V0201801N002012200019N0300001N1+03561+02331100031ADDGF101991011011008001001001MD1710211+9999REMSYN060AAXX  28091 59046 42580 11802 10356 20233 40003 57021 81100;
0142590460999992000072812004+24340+109390FM-12+009799999V0201801N002012200019N0300001N1+03381+02301100091ADDAA199000091GF103991001001999999001021MD1210061+9999REMSYN060AAXX  28121 59046 32980 31802 10338 20230 40009 52006 80002;EQDQ01  00002PRCP99
0175590460999992000072818004+24340+109390FM-12+009799999V0202001N002012200019N0200001N1+03051+02461100231ADDAA199000091GA1001+999999999GF100991001001999999001001KA1999M+03601MD1710031+9999REMSYN064AAXX  28181 59046 32970 02002 10305 20246 40023 57003 333 10360;EQDQ01  00002PRCP99
0112590460999992000072821004+24340+109390FM-12+009799999V0202201N003012200019N0200001N1+02941+02371100291ADDGF101991011001999999031001MD1210061+9999REMSYN060AAXX  28211 59046 42970 12203 10294 20237 40029 52006 81030;
0152590460999992000072900004+24340+109390FM-12+009799999V0201801N003010900019N0300001N1+02951+02431100491ADDAA199000091GF107991011011008001001081MD1210191+0021REMSYN070AAXX  29001 59046 32580 71803 10295 20243 40049 52019 81108 333 00200;EQDQ01  00002PRCP99
0112590460999992000072903004+24340+109390FM-12+009799999V0202201N002012200019N0300001N1+03221+02451100491ADDGF106991021021008001001011MD1210011+9999REMSYN060AAXX  29031 59046 42580 62202 10322 20245 40049 52001 82201;
0165590460999992000072906004+24340+109390FM-12+009799999V0202201N004012200019N0300001N1+03531+02461100231ADDAA199000091GF104991041021008001001011KA1999N+02891MD1710261+9999REMSYN070AAXX  29061 59046 32580 42204 10353 20246 40023 57026 84201 333 20289;EQDQ01  00002PRCP99
0112590460999992000072909004+24340+109390FM-12+009799999V0202501N003012200019N0300001N1+03561+02441100041ADDGF104991021021008001001011MD1710191+9999REMSYN060AAXX  29091 59046 42580 42503 10356 20244 40004 57019 82201;
0142590460999992000072912004+24340+109390FM-12+009799999V0202001N003012200019N0300001N1+03401+02271100121ADDAA199000091GF103991001001999999001021MD1210081+9999REMSYN060AAXX  29121 59046 32980 32003 10340 20227 40012 52008 80002;EQDQ01  00002PRCP99
0165590460999992000072918004+24340+109390FM-12+009799999V0201801N004019999999N0300001N1+03111+02341100371ADDAA199000091GF106991001001999999001011KA1999M+03601MD1210021+9999REMSYN070AAXX  29181 59046 32980 61804 10311 20234 40037 52002 80001 333 10360;EQDQ01  00002PRCP99
0112590460999992000072921004+24340+109390FM-12+009799999V0202001N003010120019N0250001N1+02921+02441100411ADDGF105991051051012501001001MD1210041+9999REMSYN060AAXX  29211 59046 42675 52003 10292 20244 40041 52004 85500;
0152590460999992000073000004+24340+109390FM-12+009799999V0203601N001010075019N0200001N1+02851+02531100551ADDAA199000091GF108991081091008001999999MD1210131+0011REMSYN070AAXX  30001 59046 32570 83601 10285 20253 40055 52013 889// 333 00151;EQDQ01  00002PRCP99
0124590460999992000073003004+24340+109390FM-12+009799999V0203201N001019999999N0080001N1+02941+02471100591ADDGF107991071001999999031999MD1210041+9999MW1101REMSYN066AAXX  30031 59046 41958 73201 10294 20247 40059 52004 71000 8703/;
0165590460999992000073006004+24340+109390FM-12+009799999V0203201N002010075019N0180001N1+03241+02451100421ADDAA199000091GF106991051021008001031001KA1999N+02811MD1710161+9999REMSYN070AAXX  30061 59046 32568 63202 10324 20245 40042 57016 85230 333 20281;EQDQ01  00002PRCP99
0112590460999992000073009004+24340+109390FM-12+009799999V0201401N002010360019N0300001N1+03341+02271100271ADDGF106991021011008001031001MD1710151+9999REMSYN060AAXX  30091 59046 42580 61402 10334 20227 40027 57015 82130;
0142590460999992000073012004+24340+109390FM-12+009799999V0203201N002010360019N0300001N1+03101+02361100361ADDAA199000091GF107991011021008001031999MD1210081+9999REMSYN060AAXX  30121 59046 32580 73202 10310 20236 40036 52008 8123/;EQDQ01  00002PRCP99
0165590460999992000073018004+24340+109390FM-12+009799999V0209999C000010150019N0250001N1+02781+02261100491ADDAA199000091GF107991071051017501999999KA1999M+03401MD1710051+9999REMSYN070AAXX  30181 59046 32775 70000 10278 20226 40049 57005 875// 333 10340;EQDQ01  00002PRCP99
0112590460999992000073021004+24340+109390FM-12+009799999V0200201N001010150019N0250001N1+02701+02261100471ADDGF108991081051017501999999MD1710021+9999REMSYN060AAXX  30211 59046 42775 80201 10270 20226 40047 57002 885//;
0152590460999992000073100004+24340+109390FM-12+009799999V0200401N002010360019N0250001N1+02701+02071100551ADDAA199000091GF107991021081008001031011MD1210071+0001REMSYN070AAXX  31001 59046 32575 70402 10270 20207 40055 52007 82831 333 00052;EQDQ01  00002PRCP99
0112590460999992000073103004+24340+109390FM-12+009799999V0202701N002012200019N0250001N1+03051+02051100531ADDGF102991021001999999031011MD1710011+9999REMSYN060AAXX  31031 59046 42975 22702 10305 20205 40053 57001 82031;
0165590460999992000073106004+24340+109390FM-12+009799999V0203201N002012200019N0300001N1+03261+02121100311ADDAA199000091GF102991011011008001001011KA1999N+02611MD1710221+9999REMSYN070AAXX  31061 59046 32580 23202 10326 20212 40031 57022 81101 333 20261;EQDQ01  00002PRCP99
0112590460999992000073109004+24340+109390FM-12+009799999V0203201N003012200019N0300001N1+03401+02191100151ADDGF102991011011008001001021MD1710161+9999REMSYN060AAXX  31091 59046 42580 23203 10340 20219 40015 57016 81102;
0142590460999992000073112004+24340+109390FM-12+009799999V0200701N002012200019N0300001N1+03191+02191100201ADDAA199000091GF102991001001999999001011MD1210051+9999REMSYN060AAXX  31121 59046 32980 20702 10319 20219 40020 52005 80001;EQDQ01  00002PRCP99
0185590460999992000073118004+24340+109390FM-12+009799999V0201801N002010150019N0250001N1+02831+02401100361ADDAA199000091AY191061GF106991061051017501001001KA1999M+03441MD1710051+9999MW1001REMSYN076AAXX  31181 59046 31775 61802 10283 20240 40036 57005 70090 86500 333 10344;EQDQ01  00002PRCP99
0124590460999992000073121004+24340+109390FM-12+009799999V0202001N003010075019N0200001N1+02801+02421100311ADDGF107991071091008001999999MD1710051+9999MW1131REMSYN066AAXX  31211 59046 41570 72003 10280 20242 40031 57005 71300 879//;
0152590460999992000080100004+24340+109390FM-12+009799999V0201601N002010120019N0180001N1+02781+02441100421ADDAA199000091GF108991081081008001999999MD1210111+0011REMSYN070AAXX  01001 59046 32568 81602 10278 20244 40042 52011 888// 333 05101;EQDQ01  00002PRCP99
0132590460999992000080103004+24340+109390FM-12+009799999V0201601N002010120019N0120001N1+02851+02471100481ADDAY161031GF108991081081008001999999MD1210061+9999MW1601REMSYN066AAXX  01031 59046 41562 81602 10285 20247 40048 52006 76060 888//;
0172590460999992000080106004+24340+109390FM-12+009799999V0201101N002010120019N0120001N1+02991+02541100351ADDAA106000791AY161061GF107991071081008001999999KA1999N+02761MD1710131+9999MW1001REMSYN082AAXX  01061 59046 11562 71102 10299 20254 40035 57013 69901 70060 878// 333 20276;
0124590460999992000080109004+24340+109390FM-12+009799999V0202201N001012200019N0300001N1+03231+02381100141ADDGF104991031031008001031001MD1710211+9999MW1251REMSYN066AAXX  01091 59046 41580 42201 10323 20238 40014 57021 72500 83330;
0157590460999992000080112004+24340+109390FM-12+009799999V0200901N002010075019N0150001N1+02921+02511100291ADDAA106000791AY191061AY281061GF108991081091008001999999MD1210151+9999MW1001REMSYN072AAXX  01121 59046 11565 80902 10292 20251 40029 52015 69901 70098 889//;
0133590460999992000080118004+24340+109390FM-12+009799999V0209999C000019999999N0120001N1+02701+02491100451ADDGF106991999999008001999999MD1710071+9999REMSYN081AAXX  01181 59046 11562 60000 10270 20249 40045 57007 6992 70080 82130 333 10325;
0145590460999992000080121004+24340+109390FM-12+009799999V0201801N002010042019N0060001N1+02481+02391100351ADDAA124004691GF108991081091004501999999MD1710091+9999MW1801REMSYN076AAXX  01211 59046 41456 81802 10248 20239 40035 57009 78000 889// 333 70045;
0165590460999992000080200004+24340+109390FM-12+009799999V0201401N001010120019N0060001N1+02691+02511100381ADDAA106007191AY181061GF107991071081008001031999MD1210021-0101MW1101REMSYN088AAXX  02001 59046 11556 71401 10269 20251 40038 52002 60071 71080 8783/ 333 05151 70067;
0132590460999992000080203004+24340+109390FM-12+009799999V0202001N003010120019N0300001N1+02951+02491100391ADDAY181031GF107991071081008001031999MD1210021+9999MW1001REMSYN066AAXX  02031 59046 41580 72003 10295 20249 40039 52002 70080 8783/;
0172590460999992000080206004+24340+109390FM-12+009799999V0202201N003010075019N0300001N1+03301+02511100101ADDAA106000791AY181061GF107991071091008001001021KA1999N+02471MD1710291+9999MW1001REMSYN082AAXX  02061 59046 11580 72203 10330 20251 40010 57029 69901 70080 87902 333 20247;
0132590460999992000080209004+24340+109390FM-12+009799999V0202001N004010075019N0250001N1+03121+02351099981ADDAY191031GF107991071091008001999999MD1710121+9999MW1951REMSYN066AAXX  02091 59046 41575 72004 10312 20235 49998 57012 79590 879//;
0157590460999992000080212004+24340+109390FM-12+009799999V0201801N002010075019N0250001N1+02921+02451100121ADDAA106000791AY191061AY281061GF108991081091008001999999MD1210141+9999MW1001REMSYN072AAXX  02121 59046 11575 81802 10292 20245 40012 52014 69901 70098 889//;
0146590460999992000080218004+24340+109390FM-12+009799999V0201801N003010150019N0150001N1+02801+02401100211ADDAA199000021GF107991071051017501999999KA1999M+03391MD1710091+9999REMSYN070AAXX  02181 59046 32765 71803 10280 20240 40021 57009 875// 333 10339;
0153590460999992000080221004+24340+109390FM-12+009799999V0202201N002010120019N0030001N1+02511+02451100181ADDAA124015591AY161031GF108991081091012501999999MD1710031+9999MW1801REMSYN076AAXX  02211 59046 41630 82202 10251 20245 40018 57003 78060 889// 333 70156;
0173590460999992000080300004+24340+109390FM-12+009799999V0202001N002010042019N0060001N1+02531+02471100311ADDAA106045091AY181061AY261061GF108991081091004501999999MD1210121-0101MW1801REMSYN088AAXX  03001 59046 11456 82002 10253 20247 40031 52012 60451 78086 889// 333 05152 70452;
0132590460999992000080303004+24340+109390FM-12+009799999V0201401N003010120019N0200001N1+02821+02531100291ADDAY181031GF107991071081008001999999MD1710011+9999MW1001REMSYN066AAXX  03031 59046 41570 71403 10282 20253 40029 57001 70080 878//;
0172590460999992000080306004+24340+109390FM-12+009799999V0202001N003010120019N0250001N1+02991+02511100161ADDAA106000891AY181061GF107991071081008001999999KA1999N+02481MD1710131+9999MW1001REMSYN082AAXX  03061 59046 11575 72003 10299 20251 40016 57013 69981 70080 878// 333 20248;
0132590460999992000080309004+24340+109390FM-12+009799999V0201801N003010075019N0300001N1+02831+02431100091ADDAY191031GF108991081091008001999999MD1710081+9999MW1001REMSYN066AAXX  03091 59046 41580 81803 10283 20243 40009 57008 70090 889//;
0157590460999992000080312004+24340+109390FM-12+009799999V0201801N002010042019N0120001N1+02651+02491100231ADDAA106000191AY191061AY281061GF108991081091004501999999MD1210141+9999MW1801REMSYN072AAXX  03121 59046 11462 81802 10265 20249 40023 52014 69921 78098 889//;
0172590460999992000080318004+24340+109390FM-12+009799999V0200401N001010042019N0080001N1+02561+02471100251ADDAA106007191AY181061GF108991081091004501999999KA1999M+03141MD1710121+9999MW1801REMSYN082AAXX  03181 59046 11458 80401 10256 20247 40025 57012 60071 78080 889// 333 10314;
0153590460999992000080321004+24340+109390FM-12+009799999V0209999C000010120019N0080001N1+02571+02501100271ADDAA124039991AY181031GF108991081051012501999999MD1210021+9999MW1101REMSYN076AAXX  03211 59046 41658 80000 10257 20250 40027 52002 71080 885// 333 70400;
0165590460999992000080400004+24340+109390FM-12+009799999V0200901N002010120019N0080001N1+02611+02511100351ADDAA106000191AY181061GF108991081091012501999999MD1210081+0001MW1251REMSYN088AAXX  04001 59046 11658 80902 10261 20251 40035 52008 69921 72580 889// 333 00001 70082;
0112590460999992000080403004+24340+109390FM-12+009799999V0201801N002010120019N0120001N1+02921+02511100381ADDGF107991071081008001999999MD1210031+9999REMSYN060AAXX  04031 59046 42562 71802 10292 20251 40038 52003 878//;
0164590460999992000080406004+24340+109390FM-12+009799999V0202701N002010075019N0300001N1+02851+02531100271ADDAA106000391GF107991071091008001999999KA1999N+02501MD1710111+9999MW1801REMSYN082AAXX  04061 59046 11580 72702 10285 20253 40027 57011 69931 78000 879// 333 20250;
0140590460999992000080409004+24340+109390FM-12+009799999V0201601N002010075019N0300001N1+02751+02451100201ADDAY191031AY281031GF108991081091008001999999MD1710071+9999MW1801REMSYN066AAXX  04091 59046 41580 81602 10275 20245 40020 57007 78098 889//;
0157590460999992000080412004+24340+109390FM-12+009799999V0201401N002010075019N0300001N1+02721+02491100391ADDAA106002091AY191061AY281061GF108991081091008001999999MD1210191+9999MW1801REMSYN072AAXX  04121 59046 11580 81402 10272 20249 40039 52019 60021 78098 889//;
0172590460999992000080418004+24340+109390FM-12+009799999V0209999C000010120019N0150001N1+02641+02461100541ADDAA106000791AY181061GF108991081091012501999999KA1999M+03151MD1710041+9999MW1801REMSYN082AAXX  04181 59046 11665 80000 10264 20246 40054 57004 69901 78080 889// 333 10315;
0153590460999992000080421004+24340+109390FM-12+009799999V0201801N001010120019N0080001N1+02611+02461100511ADDAA124002591AY181031GF107991071051012501999999MD1710031+9999MW1101REMSYN076AAXX  04211 59046 41658 71801 10261 20246 40051 57003 71080 875// 333 70026;
0165590460999992000080500004+24340+109390FM-12+009799999V0209999C000019999999N0060001N1+02681+02421100611ADDAA106000791AY181061GF105991021001999999031011MD1210101+0301MW1101REMSYN088AAXX  05001 59046 11956 50000 10268 20242 40061 52010 69901 71080 82031 333 00301 70026;
0112590460999992000080503004+24340+109390FM-12+009799999V0201601N002010120019N0250001N1+03031+02451100651ADDGF107991071081008001999999MD1210041+9999REMSYN060AAXX  05031 59046 42575 71602 10303 20245 40065 52004 878//;
0146590460999992000080506004+24340+109390FM-12+009799999V0202201N003010360019N0300001N1+03181+02451100431ADDAA199000021GF106991031021008001031011KA1999N+02591MD1710211+9999REMSYN070AAXX  05061 59046 32580 62203 10318 20245 40043 57021 83231 333 20259;
0124590460999992000080509004+24340+109390FM-12+009799999V0201401N002010075019N0300001N1+03091+02521100321ADDGF107991071091008001031999MD1710111+9999MW1291REMSYN066AAXX  05091 59046 41580 71402 10309 20252 40032 57011 72900 8793/;
0157590460999992000080512004+24340+109390FM-12+009799999V0201801N003010042019N0150001N1+02541+02451100581ADDAA106017091AY191061AY281061GF108991081091004501999999MD1210241+9999MW1951REMSYN072AAXX  05121 59046 11465 81803 10254 20245 40058 52024 60171 79598 889//;
0180590460999992000080518004+24340+109390FM-12+009799999V0200901N002010042019N0100001N1+02501+02411100701ADDAA106005191AY191061AY281061GF108991081091004501999999KA1999M+03311MD1410001+9999MW1801REMSYN082AAXX  05181 59046 11460 80902 10250 20241 40070 54000 60051 78098 889// 333 10331;
0153590460999992000080521004+24340+109390FM-12+009799999V0209999C000010075019N0080001N1+02501+02361100651ADDAA124021391AY181031GF108991081091008001999999MD1710051+9999MW1801REMSYN076AAXX  05211 59046 41558 80000 10250 20236 40065 57005 78080 889// 333 70213;
0165590460999992000080600004+24340+109390FM-12+009799999V0209999C000010120019N0120001N1+02541+02401100751ADDAA106000791AY181061GF108991081081008001999999MD1210091+0101MW1001REMSYN088AAXX  06001 59046 11562 80000 10254 20240 40075 52009 69901 70080 888// 333 00151 70213;
0132590460999992000080603004+24340+109390FM-12+009799999V0201801N002010042019N0110001N1+02661+02401100831ADDAY181031GF108991081091004501999999MD1210081+9999MW1801REMSYN066AAXX  06031 59046 41461 81802 10266 20240 40083 52008 78080 889//;
0172590460999992000080606004+24340+109390FM-12+009799999V0202701N002010042019N0050001N1+02621+02541100691ADDAA106010991AY181061GF107991071091004501999999KA1999N+02461MD1710141+9999MW1801REMSYN082AAXX  06061 59046 11450 72702 10262 20254 40069 57014 60111 78080 879// 333 20246;
0132590460999992000080609004+24340+109390FM-12+009799999V0200901N001010042019N0040001N1+02701+02561100541ADDAY181031GF107991071091004501999999MD1710151+9999MW1801REMSYN066AAXX  06091 59046 41440 70901 10270 20256 40054 57015 78080 879//;
0149590460999992000080612004+24340+109390FM-12+009799999V0209999C000010150019N0130001N1+02691+02541100631ADDAA106000791AY181061GF107991071051017501999999MD1210091+9999MW1001REMSYN072AAXX  06121 59046 11763 70000 10269 20254 40063 52009 69901 70080 875//;
0180590460999992000080618004+24340+109390FM-12+009799999V0201801N002010120019N0100001N1+02531+02401100801ADDAA106002091AY191061AY281061GF108991081051012501999999KA1999M+02761MD1710041+9999MW1001REMSYN082AAXX  06181 59046 11660 81802 10253 20240 40080 57004 60021 70098 885// 333 10276;
0153590460999992000080621004+24340+109390FM-12+009799999V0209999C000010075019N0080001N1+02501+02411100761ADDAA124012791AY181031GF108991081091008001999999MD1710041+9999MW1101REMSYN076AAXX  06211 59046 41558 80000 10250 20241 40076 57004 71080 889// 333 70128;
0165590460999992000080700004+24340+109390FM-12+009799999V0201801N002010120019N0110001N1+02601+02401100871ADDAA106000791AY181061GF106991051081008001001021MD1210111+0101MW1001REMSYN088AAXX  07001 59046 11561 61802 10260 20240 40087 52011 69901 70080 85802 333 00101 70128;
0112590460999992000080703004+24340+109390FM-12+009799999V0202501N001010120019N0250001N1+02851+02381100921ADDGF107991071081008001999999MD1210051+9999REMSYN060AAXX  07031 59046 42575 72501 10285 20238 40092 52005 878//;
0165590460999992000080706004+24340+109390FM-12+009799999V0201801N001010360019N0300001N1+03191+02251100741ADDAA199000091GF106991041021008001031011KA1999N+02481MD1710171+9999REMSYN070AAXX  07061 59046 32580 61801 10319 20225 40074 57017 84231 333 20248;EQDQ01  00002PRCP99
0112590460999992000080709004+24340+109390FM-12+009799999V0202201N001010360019N0300001N1+03141+02281100561ADDGF106991021021008001031001MD1710181+9999REMSYN060AAXX  07091 59046 42580 62201 10314 20228 40056 57018 82230;
0142590460999992000080712004+24340+109390FM-12+009799999V0201801N002012200019N0300001N1+03041+02391100681ADDAA199000091GF103991011021008001001011MD1210121+9999REMSYN060AAXX  07121 59046 32580 31802 10304 20239 40068 52012 81201;EQDQ01  00002PRCP99
0175590460999992000080718004+24340+109390FM-12+009799999V0202201N002012200019N0250001N1+02701+02321100881ADDAA199000091GA1001+999999999GF100991001001999999001001KA1999M+03271MD1710071+9999REMSYN064AAXX  07181 59046 32975 02202 10270 20232 40088 57007 333 10327;EQDQ01  00002PRCP99
0122590460999992000080721004+24340+109390FM-12+009799999V0201801N002012200019N0150001N1+02601+02311100851ADDGA1001+999999999GF100991001001999999001001MD1710031+9999REMSYN054AAXX  07211 59046 42965 01802 10260 20231 40085 57003;
0152590460999992000080800004+24340+109390FM-12+009799999V0209999C000012200019N0250001N1+02691+02361101041ADDAA199000091GF104991041081008001031001MD1210191+0021REMSYN070AAXX  08001 59046 32575 40000 10269 20236 40104 52019 84830 333 00201;EQDQ01  00002PRCP99
0112590460999992000080803004+24340+109390FM-12+009799999V0202201N003010120019N0300001N1+02961+02331101101ADDGF107991071081008001001001MD1210061+9999REMSYN060AAXX  08031 59046 42580 72203 10296 20233 40110 52006 87800;
0165590460999992000080806004+24340+109390FM-12+009799999V0202501N003012200019N0300001N1+03221+02341100921ADDAA199000091GF103991021021008001031001KA1999N+02571MD1710181+9999REMSYN070AAXX  08061 59046 32580 32503 10322 20234 40092 57018 82230 333 20257;EQDQ01  00002PRCP99
0112590460999992000080809004+24340+109390FM-12+009799999V0201801N003010360019N0300001N1+03281+02261100711ADDGF105991021021008001031001MD1710211+9999REMSYN060AAXX  08091 59046 42580 51803 10328 20226 40071 57021 82230;
0142590460999992000080812004+24340+109390FM-12+009799999V0203201N001010360019N0300001N1+03031+02411100781ADDAA199000091GF106991021021008001031011MD1210071+9999REMSYN060AAXX  08121 59046 32580 63201 10303 20241 40078 52007 82231;EQDQ01  00002PRCP99
0175590460999992000080818004+24340+109390FM-12+009799999V0209999C000012200019N0180001N1+02701+02341100921ADDAA199000091GA1001+999999999GF100991001001999999001001KA1999M+03301MD1710081+9999REMSYN064AAXX  08181 59046 32968 00000 10270 20234 40092 57008 333 10330;EQDQ01  00002PRCP99
0122590460999992000080821004+24340+109390FM-12+009799999V0201801N001012200019N0150001N1+02611+02361100871ADDGA1001+999999999GF100991001001999999001001MD1710051+9999REMSYN054AAXX  08211 59046 42965 01801 10261 20236 40087 57005;
0152590460999992000080900004+24340+109390FM-12+009799999V0202201N001019999999N0300001N1+02681+02291101041ADDAA199000091GF105991051001999999031001MD1210171+0001REMSYN070AAXX  09001 59046 32980 52201 10268 20229 40104 52017 85030 333 00000;EQDQ01  00002PRCP99
0112590460999992000080903004+24340+109390FM-12+009799999V0202201N002010075019N0300001N1+02961+02311101041ADDGF106991061021008001001001MD1410001+9999REMSYN060AAXX  09031 59046 42580 62202 10296 20231 40104 54000 86200;
0165590460999992000080906004+24340+109390FM-12+009799999V0201801N003012200019N0300001N1+03271+02281100831ADDAA199000091GF103991031021008001001001KA1999N+02571MD1710211+9999REMSYN070AAXX  09061 59046 32580 31803 10327 20228 40083 57021 83200 333 20257;EQDQ01  00002PRCP99
0112590460999992000080909004+24340+109390FM-12+009799999V0200401N002012200019N0300001N1+03291+02371100581ADDGF104991041021008001001001MD1710241+9999REMSYN060AAXX  09091 59046 42580 40402 10329 20237 40058 57024 84200;
0142590460999992000080912004+24340+109390FM-12+009799999V0201801N001012200019N0300001N1+03161+02321100621ADDAA199000091GF102991001001999999001011MD1210031+9999REMSYN060AAXX  09121 59046 32980 21801 10316 20232 40062 52003 80001;EQDQ01  00002PRCP99
0175590460999992000080918004+24340+109390FM-12+009799999V0209999C000012200019N0200001N1+02721+02491100651ADDAA199000091GA1001+999999999GF100991001001999999001001KA1999M+03371MD1710071+9999REMSYN064AAXX  09181 59046 32970 00000 10272 20249 40065 57007 333 10337;EQDQ01  00002PRCP99
0174590460999992000081000004+24340+109390FM-12+009799999V0209999C000012200019N0060001N1+02721+02491100761ADDAA199000091GA1001+999999999GF100991001001999999001001MD1210141+0031MW1101REMSYN070AAXX  10001 59046 31956 00000 10272 20249 40076 52014 71000 333 05300;EQDQ01  00002PRCP99
0112590460999992000081003004+24340+109390FM-12+009799999V0202001N002012200019N0300001N1+03181+02421100711ADDGF101991011011008001001001MD1710041+9999REMSYN060AAXX  10031 59046 42580 12002 10318 20242 40071 57004 81100;
0165590460999992000081006004+24340+109390FM-12+009799999V0202501N003012200019N0300001N1+03421+02441100471ADDAA199000091GF104991041021008001001001KA1999N+02621MD1710241+9999REMSYN070AAXX  10061 59046 32580 42503 10342 20244 40047 57024 84200 333 20262;EQDQ01  00002PRCP99
0112590460999992000081009004+24340+109390FM-12+009799999V0202201N002012200019N0300001N1+03471+02341100221ADDGF102991021021008001001001MD1710251+9999REMSYN060AAXX  10091 59046 42580 22202 10347 20234 40022 57025 82200;
0142590460999992000081012004+24340+109390FM-12+009799999V0201801N003012200019N0300001N1+03291+02391100241ADDAA199000091GF101991001001999999001011MD1210021+9999REMSYN060AAXX  10121 59046 32980 11803 10329 20239 40024 52002 80001;EQDQ01  00002PRCP99
0175590460999992000081018004+24340+109390FM-12+009799999V0202001N002012200019N0200001N1+02971+02401100281ADDAA199000091GA1001+999999999GF100991001001999999001001KA1999M+03531MD1710101+9999REMSYN064AAXX  10181 59046 32970 02002 10297 20240 40028 57010 333 10353;EQDQ01  00002PRCP99
0122590460999992000081021004+24340+109390FM-12+009799999V0201601N002012200019N0200001N1+02821+02441100241ADDGA1001+999999999GF100991001001999999001001MD1710041+9999REMSYN054AAXX  10211 59046 42970 01602 10282 20244 40024 57004;
0162590460999992000081100004+24340+109390FM-12+009799999V0201601N002012200019N0300001N1+02871+02401100371ADDAA199000091GA1001+999999999GF100991001001999999001001MD1210121+0041REMSYN064AAXX  11001 59046 32980 01602 10287 20240 40037 52012 333 05402;EQDQ01  00002PRCP99
0112590460999992000081103004+24340+109390FM-12+009799999V0202701N002012200019N0300001N1+03151+02461100421ADDGF101991011011008001001001MD1210051+9999REMSYN060AAXX  11031 59046 42580 12702 10315 20246 40042 52005 81100;
0165590460999992000081106004+24340+109390FM-12+009799999V0203201N001010900019N0300001N1+03421+02341100231ADDAA199000091GF106991031021008001001021KA1999N+02751MD1710181+9999REMSYN070AAXX  11061 59046 32580 63201 10342 20234 40023 57018 83202 333 20275;EQDQ01  00002PRCP99
0112590460999992000081109004+24340+109390FM-12+009799999V0202201N003012200019N0300001N1+03501+02411100051ADDGF102991011011008001001021MD1710181+9999REMSYN060AAXX  11091 59046 42580 22203 10350 20241 40005 57018 81102;
0142590460999992000081112004+24340+109390FM-12+009799999V0201801N002012200019N0300001N1+03331+02351100161ADDAA199000091GF101991001001999999001011MD1210111+9999REMSYN060AAXX  11121 59046 32980 11802 10333 20235 40016 52011 80001;EQDQ01  00002PRCP99
0175590460999992000081118004+24340+109390FM-12+009799999V0209999C000012200019N0200001N1+02951+02591100361ADDAA199000091GA1001+999999999GF100991001001999999001001KA1999M+03601MD1410001+9999REMSYN064AAXX  11181 59046 32970 00000 10295 20259 40036 54000 333 10360;EQDQ01  00002PRCP99
0122590460999992000081121004+24340+109390FM-12+009799999V0201601N001012200019N0200001N1+02871+02551100311ADDGA1001+999999999GF100991001001999999001001MD1710051+9999REMSYN054AAXX  11211 59046 42970 01601 10287 20255 40031 57005;
0152590460999992000081200004+24340+109390FM-12+009799999V0201801N002012200019N0300001N1+02941+02471100501ADDAA199000091GF102991001001999999001011MD1210181+0011REMSYN070AAXX  12001 59046 32980 21802 10294 20247 40050 52018 80001 333 00101;EQDQ01  00002PRCP99
0112590460999992000081203004+24340+109390FM-12+009799999V0201801N003012200019N0300001N1+03161+02461100541ADDGF104991041021008001001001MD1210041+9999REMSYN060AAXX  12031 59046 42580 41803 10316 20246 40054 52004 84200;
0112590460999992000081209004+24340+109390FM-12+009799999V0202201N002010900019N0300001N1+03501+02341100231ADDGF107991011011008001001081MD1710151+9999REMSYN060AAXX  12091 59046 42580 72202 10350 20234 40023 57015 81108;
0142590460999992000081212004+24340+109390FM-12+009799999V0201601N002012200019N0300001N1+03301+02431100281ADDAA199000091GF103991001001999999001021MD1210051+9999REMSYN060AAXX  12121 59046 32980 31602 10330 20243 40028 52005 80002;EQDQ01  00002PRCP99
0175590460999992000081218004+24340+109390FM-12+009799999V0209999C000012200019N0200001N1+02891+02551100511ADDAA199000091GA1001+999999999GF100991001001999999001001KA1999M+03591MD1210031+9999REMSYN064AAXX  12181 59046 32970 00000 10289 20255 40051 52003 333 10359;EQDQ01  00002PRCP99
0122590460999992000081221004+24340+109390FM-12+009799999V0201401N002012200019N0200001N1+02881+02501100481ADDGA1001+999999999GF100991001001999999001001MD1710031+9999REMSYN054AAXX  12211 59046 42970 01402 10288 20250 40048 57003;
0152590460999992000081300004+24340+109390FM-12+009799999V0202001N002010360019N0300001N1+02881+02491100591ADDAA199000091GF106991021011008001031021MD1210101+0011REMSYN070AAXX  13001 59046 32580 62002 10288 20249 40059 52010 82132 333 00151;EQDQ01  00002PRCP99
0112590460999992000081303004+24340+109390FM-12+009799999V0202701N003010360019N0300001N1+03201+02501100561ADDGF107991021021008001031011MD1710031+9999REMSYN060AAXX  13031 59046 42580 72703 10320 20250 40056 57003 82231;
0165590460999992000081306004+24340+109390FM-12+009799999V0202201N002010360019N0300001N1+03371+02461100381ADDAA199000091GF107991021011008001031999KA1999N+02841MD1710181+9999REMSYN070AAXX  13061 59046 32580 72202 10337 20246 40038 57018 8213/ 333 20284;EQDQ01  00002PRCP99
0112590460999992000081309004+24340+109390FM-12+009799999V0201801N002010900019N0300001N1+03461+02491100201ADDGF107991011011008001001081MD1710171+9999REMSYN060AAXX  13091 59046 42580 71802 10346 20249 40020 57017 81108;
0141590460999992000081312004+24340+109390FM-12+009799999V0201401N002010120019N0030001N1+02521+02411100431ADDAA106032091GF108991081091012501999999MD1210211+9999MW1951REMSYN072AAXX  13121 59046 11630 81402 10252 20241 40043 52021 60321 79500 889//;
0180590460999992000081318004+24340+109390FM-12+009799999V0203201N001010120019N0200001N1+02601+02311100511ADDAA106003091AY191061AY281061GF108991081051012501999999KA1999M+03501MD1710041+9999MW1001REMSYN082AAXX  13181 59046 11670 83201 10260 20231 40051 57004 60031 70098 885// 333 10350;
0145590460999992000081321004+24340+109390FM-12+009799999V0209999C000010120019N0080001N1+02581+02321100461ADDAA124035391GF106991061081008001001001MD1710051+9999MW1101REMSYN076AAXX  13211 59046 41558 60000 10258 20232 40046 57005 71000 86800 333 70354;
0165590460999992000081400004+24340+109390FM-12+009799999V0203401N002010075019N0080001N1+02601+02401100591ADDAA106000791AY181061GF108991081091008001999999MD1210111+0001MW1101REMSYN088AAXX  14001 59046 11558 83402 10260 20240 40059 52011 69901 71080 889// 333 00053 70354;
0112590460999992000081403004+24340+109390FM-12+009799999V0200901N003010120019N0110001N1+02641+02351100691ADDGF108991081051012501999999MD1210101+9999REMSYN060AAXX  14031 59046 42661 80903 10264 20235 40069 52010 885//;
0165590460999992000081406004+24340+109390FM-12+009799999V0200401N002010120019N0300001N1+02711+02351100511ADDAA199000091GF107991071081008001999999KA1999N+02481MD1710171+9999REMSYN070AAXX  14061 59046 32580 70402 10271 20235 40051 57017 878// 333 20248;EQDQ01  00002PRCP99
0142590460999992000081412004+24340+109390FM-12+009799999V0203201N001012200019N0180001N1+02841+02501100391ADDAA199000091GF103991031001999999031001MD1210121+9999REMSYN060AAXX  14121 59046 32968 33201 10284 20250 40039 52012 83030;EQDQ01  00002PRCP99
0177590460999992000081418004+24340+109390FM-12+009799999V0209999C000010120019N0080001N1+02701+02561100511ADDAA199000091GF107991071081008001999999KA1999M+03061MD1710021+9999MW1101REMSYN076AAXX  14181 59046 31558 70000 10270 20256 40051 57002 71000 878// 333 10306;EQDQ01  00002PRCP99
0145590460999992000081421004+24340+109390FM-12+009799999V0209999C000010120019N0040001N1+02661+02551100441ADDAA124000791GF108991081051012501999999MD1710071+9999MW1101REMSYN076AAXX  14211 59046 41640 80000 10266 20255 40044 57007 71000 885// 333 79999;
0164590460999992000081500004+24340+109390FM-12+009799999V0209999C000010900019N0030001N1+02751+02541100561ADDAA199000091GF107991021011008001001081MD1210121+0001MW1101REMSYN076AAXX  15001 59046 31530 70000 10275 20254 40056 52012 71000 82108 333 00002;EQDQ01  00002PRCP99
0112590460999992000081503004+24340+109390FM-12+009799999V0202501N002010075019N0200001N1+03061+02541100621ADDGF107991061031008001001081MD1210061+9999REMSYN060AAXX  15031 59046 42570 72502 10306 20254 40062 52006 86308;
0165590460999992000081506004+24340+109390FM-12+009799999V0202501N002010075019N0300001N1+03311+02531100321ADDAA199000091GF107991061021008001001021KA1999N+02661MD1710291+9999REMSYN070AAXX  15061 59046 32580 72502 10331 20253 40032 57029 86202 333 20266;EQDQ01  00002PRCP99
0140590460999992000081509004+24340+109390FM-12+009799999V0201801N003010042019N0100001N1+03011+02451100181ADDAY191031AY281031GF107991071091004501999999MD1710141+9999MW1951REMSYN066AAXX  15091 59046 41460 71803 10301 20245 40018 57014 79598 879//;
0157590460999992000081512004+24340+109390FM-12+009799999V0202001N002019999999N0200001N1+02921+02441100211ADDAA106000591AY191061AY281061GF107991061001999999031011MD1210031+9999MW1001REMSYN072AAXX  15121 59046 11970 72002 10292 20244 40021 52003 69951 70098 86031;
0146590460999992000081518004+24340+109390FM-12+009799999V0209999C000019999999N0110001N1+02741+02431100351ADDAA199000021GF107991001001999999001081KA1999M+03421MD1710051+9999REMSYN070AAXX  15181 59046 32961 70000 10274 20243 40035 57005 80008 333 10342;
0139590460999992000081600004+24340+109390FM-12+009799999V0201801N001010120019N0150001N1+02831+02521100451ADDAA124000591GF107991071081008001999999MD1210151-0101REMSYN076AAXX  16001 59046 32565 71801 10283 20252 40045 52015 878// 333 05101 70005;
0112590460999992000081603004+24340+109390FM-12+009799999V0201801N003010075019N0300001N1+03071+02431100461ADDGF107991051021008001001081MD1210021+9999REMSYN060AAXX  16031 59046 42580 71803 10307 20243 40046 52002 85208;
0165590460999992000081606004+24340+109390FM-12+009799999V0202201N003010360019N0300001N1+03321+02371100181ADDAA199000091GF107991021021008001031081KA1999N+02631MD1710281+9999REMSYN070AAXX  16061 59046 32580 72203 10332 20237 40018 57028 82238 333 20263;EQDQ01  00002PRCP99
0112590460999992000081609004+24340+109390FM-12+009799999V0201801N003010360019N0300001N1+03421+02361100031ADDGF107991011021008001031011MD1710141+9999REMSYN060AAXX  16091 59046 42580 71803 10342 20236 40003 57014 81231;
0142590460999992000081612004+24340+109390FM-12+009799999V0202201N004010900019N0300001N1+03171+02421100201ADDAA199000091GF107991031021008001001081MD1210161+9999REMSYN060AAXX  16121 59046 32580 72204 10317 20242 40020 52016 83208;EQDQ01  00002PRCP99
0165590460999992000081618004+24340+109390FM-12+009799999V0201801N002019999999N0250001N1+02901+02451100421ADDAA199000091GF107991001001999999001081KA1999M+03451MD1710011+9999REMSYN070AAXX  16181 59046 32975 71802 10290 20245 40042 57001 80008 333 10345;EQDQ01  00002PRCP99
0112590460999992000081621004+24340+109390FM-12+009799999V0202001N002012200019N0250001N1+02801+02451100421ADDGF103991031001999999031001MD1410001+9999REMSYN060AAXX  16211 59046 42975 32002 10280 20245 40042 54000 83030;
0152590460999992000081700004+24340+109390FM-12+009799999V0201801N003010360019N0200001N1+02861+02391100571ADDAA199000091GF107991011011008001031081MD1210151+0011REMSYN070AAXX  17001 59046 32570 71803 10286 20239 40057 52015 81138 333 00100;EQDQ01  00002PRCP99
0112590460999992000081703004+24340+109390FM-12+009799999V0201801N005010075019N0300001N1+03101+02331100671ADDGF107991071021008001031999MD1210101+9999REMSYN060AAXX  17031 59046 42580 71805 10310 20233 40067 52010 8723/;
0172590460999992000081706004+24340+109390FM-12+009799999V0202001N003010075019N0250001N1+02641+02371100661ADDAA106006191AY181061GF107991071091008001999999KA1999N+02451MD1710021+9999MW1251REMSYN082AAXX  17061 59046 11575 72003 10264 20237 40066 57002 60061 72580 879// 333 20245;
0112590460999992000081709004+24340+109390FM-12+009799999V0201801N002010120019N0300001N1+02941+02371100471ADDGF107991071081008001999999MD1710191+9999REMSYN060AAXX  17091 59046 42580 71802 10294 20237 40047 57019 878//;
0123590460999992000081712004+24340+109390FM-12+009799999V0202201N002010120019N0300001N1+02831+02281100601ADDAA199000021GF108991081091012501999999MD1210131+9999REMSYN060AAXX  17121 59046 32680 82202 10283 20228 40060 52013 889//;
0172590460999992000081718004+24340+109390FM-12+009799999V0209999C000010150019N0200001N1+02641+02441100771ADDAA106000791AY181061GF107991071051017501999999KA1999M+03131MD1210011+9999MW1001REMSYN082AAXX  17181 59046 11770 70000 10264 20244 40077 52001 69901 70080 875// 333 10313;
0133590460999992000081721004+24340+109390FM-12+009799999V0209999C000019999999N0120001N1+02631+02431100741ADDAA124005891GF107991071001999999031999MD1710021+9999REMSYN070AAXX  17211 59046 42962 70000 10263 20243 40074 57002 8703/ 333 70059;
0165590460999992000081800004+24340+109390FM-12+009799999V0201601N002010360019N0200001N1+02731+02341100901ADDAA106000791AY181061GF106991041051017501031001MD1210161+0301MW1001REMSYN088AAXX  18001 59046 11770 61602 10273 20234 40090 52016 69901 70080 84530 333 00351 70059;
0112590460999992000081803004+24340+109390FM-12+009799999V0201801N003019999999N0200001N1+02961+02371100991ADDGF107991071001999999031999MD1210091+9999REMSYN060AAXX  18031 59046 42970 71803 10296 20237 40099 52009 8703/;
0165590460999992000081806004+24340+109390FM-12+009799999V0202501N003010075019N0300001N1+03271+02411100801ADDAA199000091GF105991051021008001001001KA1999N+02611MD1710191+9999REMSYN070AAXX  18061 59046 32580 52503 10327 20241 40080 57019 85200 333 20261;EQDQ01  00002PRCP99
0165590460999992000081818004+24340+109390FM-12+009799999V0209999C000019999999N0200001N1+02731+02401100721ADDAA199000091GF107991001001999999001081KA1999M+03421MD1710091+9999REMSYN070AAXX  18181 59046 32970 70000 10273 20240 40072 57009 80008 333 10342;EQDQ01  00002PRCP99
0133590460999992000081821004+24340+109390FM-12+009799999V0209999C000019999999N0200001N1+02581+02321100661ADDAA124000791GF107991001001999999001081MD1710061+9999REMSYN070AAXX  18211 59046 42970 70000 10258 20232 40066 57006 80008 333 79999;
0152590460999992000081900004+24340+109390FM-12+009799999V0209999C000019999999N0150001N1+02741+02431100771ADDAA199000091GF107991071001999999031999MD1210101+0011REMSYN070AAXX  19001 59046 32965 70000 10274 20243 40077 52010 8703/ 333 05100;EQDQ01  00002PRCP99
0112590460999992000081903004+24340+109390FM-12+009799999V0201801N003010360019N0300001N1+03151+02371100751ADDGF107991031021008001031021MD1710011+9999REMSYN060AAXX  19031 59046 42580 71803 10315 20237 40075 57001 83232;
0165590460999992000081906004+24340+109390FM-12+009799999V0201801N003010900019N0300001N1+03381+02261100571ADDAA199000091GF107991021021008001001021KA1999N+02581MD1710181+9999REMSYN070AAXX  19061 59046 32580 71803 10338 20226 40057 57018 82202 333 20258;EQDQ01  00002PRCP99
0112590460999992000081909004+24340+109390FM-12+009799999V0201801N003010900019N0300001N1+03401+02221100361ADDGF106991031021008001001021MD1710211+9999REMSYN060AAXX  19091 59046 42580 61803 10340 20222 40036 57021 83202;
0142590460999992000081912004+24340+109390FM-12+009799999V0203401N001019999999N0300001N1+03061+02561100421ADDAA199000091GF106991021001999999031021MD1210061+9999REMSYN060AAXX  19121 59046 32980 63401 10306 20256 40042 52006 82032;EQDQ01  00002PRCP99
0165590460999992000081918004+24340+109390FM-12+009799999V0202201N002019999999N0250001N1+02911+02441100511ADDAA199000091GF107991071001999999031999KA1999M+03501MD1710051+9999REMSYN070AAXX  19181 59046 32975 72202 10291 20244 40051 57005 8703/ 333 10350;EQDQ01  00002PRCP99
0112590460999992000081921004+24340+109390FM-12+009799999V0209999C000012200019N0200001N1+02781+02471100541ADDGF102991021001999999031001MD1210031+9999REMSYN060AAXX  19211 59046 42970 20000 10278 20247 40054 52003 82030;
0152590460999992000082000004+24340+109390FM-12+009799999V0201401N001012200019N0120001N1+02841+02501100641ADDAA199000091GF104991021001999999031011MD1210101+0011REMSYN070AAXX  20001 59046 32962 41401 10284 20250 40064 52010 82031 333 05101;EQDQ01  00002PRCP99
0112590460999992000082003004+24340+109390FM-12+009799999V0201801N003012200019N0300001N1+03221+02301100591ADDGF102991011011008001001011MD1710051+9999REMSYN060AAXX  20031 59046 42580 21803 10322 20230 40059 57005 81101;
0165590460999992000082006004+24340+109390FM-12+009799999V0202201N002010900019N0300001N1+03501+02241100391ADDAA199000091GF106991021021008001001021KA1999N+02751MD1710191+9999REMSYN070AAXX  20061 59046 32580 62202 10350 20224 40039 57019 82202 333 20275;EQDQ01  00002PRCP99
0112590460999992000082009004+24340+109390FM-12+009799999V0202501N003010900019N0300001N1+03581+02221100161ADDGF105991021021008001001021MD1710231+9999REMSYN060AAXX  20091 59046 42580 52503 10358 20222 40016 57023 82202;
0142590460999992000082012004+24340+109390FM-12+009799999V0200701N002012200019N0300001N1+03321+02371100311ADDAA199000091GF104991011001999999031011MD1210141+9999REMSYN060AAXX  20121 59046 32980 40702 10332 20237 40031 52014 81031;EQDQ01  00002PRCP99
0165590460999992000082018004+24340+109390FM-12+009799999V0200901N002010120019N0250001N1+02911+02381100471ADDAA199000091GF107991071091012501999999KA1999M+03611MD1210011+9999REMSYN070AAXX  20181 59046 32675 70902 10291 20238 40047 52001 879// 333 10361;EQDQ01  00002PRCP99
0153590460999992000082021004+24340+109390FM-12+009799999V0200901N002012200019N0150001N1+02721+02381100481ADDAA124000391AY181031GF102991021001999999031001MD1410001+9999MW1001REMSYN076AAXX  20211 59046 41965 20902 10272 20238 40048 54000 70080 82030 333 70003;
0165590460999992000082100004+24340+109390FM-12+009799999V0200201N001012200019N0080001N1+02761+02421100561ADDAA106000391AY181061GF103991021011008001001021MD1210081-0101MW1101REMSYN088AAXX  21001 59046 11558 30201 10276 20242 40056 52008 69931 71080 82102 333 05151 70003;
0112590460999992000082103004+24340+109390FM-12+009799999V0200701N003012200019N0120001N1+03141+02471100631ADDGF101991011011008001001001MD1210071+9999REMSYN060AAXX  21031 59046 42562 10703 10314 20247 40063 52007 81100;
0165590460999992000082106004+24340+109390FM-12+009799999V0201101N002012200019N0200001N1+03391+02511100391ADDAA199000091GF103991031021008001001001KA1999N+02691MD1710231+9999REMSYN070AAXX  21061 59046 32570 31102 10339 20251 40039 57023 83200 333 20269;EQDQ01  00002PRCP99
0112590460999992000082109004+24340+109390FM-12+009799999V0200901N003010360019N0250001N1+03541+02291100221ADDGF105991041091008001031001MD1710171+9999REMSYN060AAXX  21091 59046 42575 50903 10354 20229 40022 57017 84930;
0154590460999992000082112004+24340+109390FM-12+009799999V0200901N004010075019N0250001N1+03171+02361100471ADDAA199000091GF108991081091008001999999MD1210251+9999MW1171REMSYN066AAXX  21121 59046 31575 80904 10317 20236 40047 52025 71700 889//;EQDQ01  00002PRCP99
0180590460999992000082118004+24340+109390FM-12+009799999V0209999C000012200019N0120001N1+02551+02331100621ADDAA106003091AY191061AY281061GF101991011011008001001001KA1999M+03571MD1710081+9999MW1001REMSYN082AAXX  21181 59046 11562 10000 10255 20233 40062 57008 60031 70098 81100 333 10357;
0155590460999992000082121004+24340+109390FM-12+009799999V0209999C000012200019N0060001N1+02541+02371100581ADDAA124003091GA1001+999999999GF100991001001999999001001MD1710041+9999MW1101REMSYN070AAXX  21211 59046 41956 00000 10254 20237 40058 57004 71000 333 70031;
0151590460999992000082200004+24340+109390FM-12+009799999V0200401N001019999999N0060001N1+02641+02381100721ADDAA124003091GF106991031001999999031011MD1210131+0201MW1101REMSYN082AAXX  22001 59046 31956 60401 10264 20238 40072 52013 71000 83031 333 00251 70031;
0112590460999992000082203004+24340+109390FM-12+009799999V0200701N003012200019N0120001N1+03111+02451100781ADDGF103991031021008001001001MD1210061+9999REMSYN060AAXX  22031 59046 42562 30703 10311 20245 40078 52006 83200;
0165590460999992000082206004+24340+109390FM-12+009799999V0200701N002012200019N0250001N1+03431+02421100511ADDAA199000091GF103991031021008001001001KA1999N+02531MD1710261+9999REMSYN070AAXX  22061 59046 32575 30702 10343 20242 40051 57026 83200 333 20253;EQDQ01  00002PRCP99
0112590460999992000082209004+24340+109390FM-12+009799999V0203601N002012200019N0300001N1+03461+02451100281ADDGF101991011011008001001001MD1710231+9999REMSYN060AAXX  22091 59046 42580 13602 10346 20245 40028 57023 81100;
0142590460999992000082212004+24340+109390FM-12+009799999V0200401N002012200019N0250001N1+03271+02491100391ADDAA199000091GF101991001001999999001011MD1210111+9999REMSYN060AAXX  22121 59046 32975 10402 10327 20249 40039 52011 80001;EQDQ01  00002PRCP99
0175590460999992000082218004+24340+109390FM-12+009799999V0203401N002012200019N0180001N1+02901+02421100391ADDAA199000091GA1001+999999999GF100991001001999999001001KA1999M+03511MD1710131+9999REMSYN064AAXX  22181 59046 32968 03402 10290 20242 40039 57013 333 10351;EQDQ01  00002PRCP99
0122590460999992000082221004+24340+109390FM-12+009799999V0200401N001012200019N0150001N1+02841+02411100341ADDGA1001+999999999GF100991001001999999001001MD1710051+9999REMSYN054AAXX  22211 59046 42965 00401 10284 20241 40034 57005;
0174590460999992000082300004+24340+109390FM-12+009799999V0200201N002012200019N0080001N1+02891+02381100501ADDAA199000091GA1001+999999999GF100991001001999999001001MD1210151+0021MW1101REMSYN070AAXX  23001 59046 31958 00202 10289 20238 40050 52015 71000 333 05203;EQDQ01  00002PRCP99
0112590460999992000082303004+24340+109390FM-12+009799999V0203401N005012200019N0200001N1+03221+02381100481ADDGF101991011011008001001001MD1710021+9999REMSYN060AAXX  23031 59046 42570 13405 10322 20238 40048 57002 81100;
0165590460999992000082306004+24340+109390FM-12+009799999V0203201N002012200019N0200001N1+03471+02421100241ADDAA199000091GF104991041021008001001001KA1999N+02781MD1710231+9999REMSYN070AAXX  23061 59046 32570 43202 10347 20242 40024 57023 84200 333 20278;EQDQ01  00002PRCP99
0112590460999992000082309004+24340+109390FM-12+009799999V0203401N002012200019N0200001N1+03521+02351100031ADDGF102991021021008001001001MD1710211+9999REMSYN060AAXX  23091 59046 42570 23402 10352 20235 40003 57021 82200;
0142590460999992000082312004+24340+109390FM-12+009799999V0203601N002012200019N0180001N1+03201+02311100111ADDAA199000091GF101991001001999999001011MD1210071+9999REMSYN060AAXX  23121 59046 32968 13602 10320 20231 40011 52007 80001;EQDQ01  00002PRCP99
0175590460999992000082318004+24340+109390FM-12+009799999V0203401N002012200019N0150001N1+02931+02311100151ADDAA199000091GA1001+999999999GF100991001001999999001001KA1999M+03561MD1710111+9999REMSYN064AAXX  23181 59046 32965 03402 10293 20231 40015 57011 333 10356;EQDQ01  00002PRCP99
0122590460999992000082321004+24340+109390FM-12+009799999V0209999C000012200019N0150001N1+02781+02241100201ADDGA1001+999999999GF100991001001999999001001MD1210051+9999REMSYN054AAXX  23211 59046 42965 00000 10278 20224 40020 52005;
0152590460999992000082400004+24340+109390FM-12+009799999V0203401N002019999999N0200001N1+02801+02151100341ADDAA199000091GF107991001001999999001081MD1210131+0021REMSYN070AAXX  24001 59046 32970 73402 10280 20215 40034 52013 80008 333 05251;EQDQ01  00002PRCP99
0112590460999992000082403004+24340+109390FM-12+009799999V0202701N002012200019N0250001N1+03111+02111100411ADDGF102991001001999999001021MD1210071+9999REMSYN060AAXX  24031 59046 42975 22702 10311 20211 40041 52007 80002;
0165590460999992000082406004+24340+109390FM-12+009799999V0203601N003012200019N0250001N1+03391+02141100151ADDAA199000091GF103991001001999999001021KA1999N+02731MD1710251+9999REMSYN070AAXX  24061 59046 32975 33603 10339 20214 40015 57025 80002 333 20273;EQDQ01  00002PRCP99
0112590460999992000082409004+24340+109390FM-12+009799999V0203201N002012200019N0250001N1+03401+02241100041ADDGF104991001001999999001021MD1710111+9999REMSYN060AAXX  24091 59046 42975 43202 10340 20224 40004 57011 80002;
0142590460999992000082412004+24340+109390FM-12+009799999V0203601N002019999999N0200001N1+03261+02291100191ADDAA199000091GF106991001001999999001021MD1210141+9999REMSYN060AAXX  24121 59046 32970 63602 10326 20229 40019 52014 80002;EQDQ01  00002PRCP99
0165590460999992000082418004+24340+109390FM-12+009799999V0209999C000019999999N0180001N1+02921+02421100361ADDAA199000091GF106991061001999999031001KA1999M+03521MD1210021+9999REMSYN070AAXX  24181 59046 32968 60000 10292 20242 40036 52002 86030 333 10352;EQDQ01  00002PRCP99
0112590460999992000082421004+24340+109390FM-12+009799999V0209999C000019999999N0150001N1+02851+02391100361ADDGF106991001001999999001081MD1710011+9999REMSYN060AAXX  24211 59046 42965 60000 10285 20239 40036 57001 80008;
0152590460999992000082500004+24340+109390FM-12+009799999V0200401N002010120019N0110001N1+02821+02281100521ADDAA199000091GF106991061081008001001001MD1210161+0021REMSYN070AAXX  25001 59046 32561 60402 10282 20228 40052 52016 86800 333 00200;EQDQ01  00002PRCP99
0112590460999992000082503004+24340+109390FM-12+009799999V0202201N001012200019N0150001N1+03251+02321100571ADDGF101991011011008001001001MD1210051+9999REMSYN060AAXX  25031 59046 42565 12201 10325 20232 40057 52005 81100;
0165590460999992000082506004+24340+109390FM-12+009799999V0200401N003012200019N0250001N1+03471+02191100321ADDAA199000091GF103991031011008001001001KA1999N+02771MD1710241+9999REMSYN070AAXX  25061 59046 32575 30403 10347 20219 40032 57024 83100 333 20277;EQDQ01  00002PRCP99
0112590460999992000082509004+24340+109390FM-12+009799999V0203201N002012200019N0300001N1+03531+02261100141ADDGF102991021011008001001001MD1710181+9999REMSYN060AAXX  25091 59046 42580 23202 10353 20226 40014 57018 82100;
0142590460999992000082512004+24340+109390FM-12+009799999V0209999C000010120019N0300001N1+03351+02371100371ADDAA199000091GF106991061081008001001001MD1210221+9999REMSYN060AAXX  25121 59046 32580 60000 10335 20237 40037 52022 86800;EQDQ01  00002PRCP99
0165590460999992000082518004+24340+109390FM-12+009799999V0200401N001012200019N0250001N1+02971+02311100481ADDAA199000091GF101991011011008001001001KA1999M+03591MD1410001+9999REMSYN070AAXX  25181 59046 32575 10401 10297 20231 40048 54000 81100 333 10359;EQDQ01  00002PRCP99
0112590460999992000082521004+24340+109390FM-12+009799999V0203601N002010150019N0120001N1+02861+02341100461ADDGF106991061051017501001001MD1710021+9999REMSYN060AAXX  25211 59046 42762 63602 10286 20234 40046 57002 86500;
0152590460999992000082600004+24340+109390FM-12+009799999V0200401N003012200019N0140001N1+02901+02281100561ADDAA199000091GF101991011011008001001001MD1210091+0001REMSYN070AAXX  26001 59046 32564 10403 10290 20228 40056 52009 81100 333 00001;EQDQ01  00002PRCP99
0122590460999992000082603004+24340+109390FM-12+009799999V0200401N003012200019N0200001N1+03231+02081100651ADDGA1001+999999999GF100991001001999999001001MD1210091+9999REMSYN054AAXX  26031 59046 42970 00403 10323 20208 40065 52009;
0165590460999992000082606004+24340+109390FM-12+009799999V0200701N004012200019N0250001N1+03501+01841100401ADDAA199000091GF101991011011008001001001KA1999N+02811MD1710241+9999REMSYN070AAXX  26061 59046 32575 10704 10350 20184 40040 57024 81100 333 20281;EQDQ01  00002PRCP99
0112590460999992000082609004+24340+109390FM-12+009799999V0200401N003012200019N0250001N1+03521+01941100171ADDGF101991011011008001001001MD1710231+9999REMSYN060AAXX  26091 59046 42575 10403 10352 20194 40017 57023 81100;
0152590460999992000082612004+24340+109390FM-12+009799999V0200901N002012200019N0180001N1+03261+01851100351ADDAA199000091GA1001+999999999GF100991001001999999001001MD1210171+9999REMSYN054AAXX  26121 59046 32968 00902 10326 20185 40035 52017;EQDQ01  00002PRCP99
0175590460999992000082618004+24340+109390FM-12+009799999V0202701N001012200019N0120001N1+02821+02391100431ADDAA199000091GA1001+999999999GF100991001001999999001001KA1999M+03581MD1710051+9999REMSYN064AAXX  26181 59046 32962 02701 10282 20239 40043 57005 333 10358;EQDQ01  00002PRCP99
0122590460999992000082621004+24340+109390FM-12+009799999V0209999C000012200019N0100001N1+02681+02391100431ADDGA1001+999999999GF100991001001999999001001MD1710011+9999REMSYN054AAXX  26211 59046 42960 00000 10268 20239 40043 57001;
0164590460999992000082700004+24340+109390FM-12+009799999V0200701N002012200019N0060001N1+02781+02261100471ADDAA199000091GF102991011001999999031021MD1210041+0011MW1101REMSYN076AAXX  27001 59046 31956 20702 10278 20226 40047 52004 71000 81032 333 05151;EQDQ01  00002PRCP99
0122590460999992000082703004+24340+109390FM-12+009799999V0200701N003012200019N0170001N1+03181+02161100601ADDGA1001+999999999GF100991001001999999001001MD1210131+9999REMSYN054AAXX  27031 59046 42967 00703 10318 20216 40060 52013;
0165590460999992000082706004+24340+109390FM-12+009799999V0203601N003010075019N0250001N1+03331+02171100371ADDAA199000091GF107991071021008001001001KA1999N+02661MD1710231+9999REMSYN070AAXX  27061 59046 32575 73603 10333 20217 40037 57023 87200 333 20266;EQDQ01  00002PRCP99
0112590460999992000082709004+24340+109390FM-12+009799999V0200401N003010075019N0200001N1+03321+02211100251ADDGF107991071091008001999999MD1710121+9999REMSYN060AAXX  27091 59046 42570 70403 10332 20221 40025 57012 879//;
0149590460999992000082712004+24340+109390FM-12+009799999V0203201N002010360019N0200001N1+02931+02301100411ADDAA106001091AY181061GF107991031091012501031999MD1210151+9999MW1001REMSYN072AAXX  27121 59046 11670 73202 10293 20230 40041 52015 60011 70080 8393/;
0165590460999992000082718004+24340+109390FM-12+009799999V0203201N002010150019N0150001N1+02721+02171100541ADDAA199000091GF108991081051017501999999KA1999M+03411MD1710041+9999REMSYN070AAXX  27181 59046 32765 83202 10272 20217 40054 57004 885// 333 10341;EQDQ01  00002PRCP99
0133590460999992000082721004+24340+109390FM-12+009799999V0203201N002010150019N0150001N1+02701+02041100451ADDAA124001391GF108991081051017501999999MD1710091+9999REMSYN070AAXX  27211 59046 42765 83202 10270 20204 40045 57009 885// 333 70012;
0139590460999992000082800004+24340+109390FM-12+009799999V0202901N002010120019N0150001N1+02661+02091100571ADDAA124001391GF107991071081008001999999MD1210111+0101REMSYN076AAXX  28001 59046 32565 72902 10266 20209 40057 52011 878// 333 00151 70012;
0112590460999992000082803004+24340+109390FM-12+009799999V0202701N001019999999N0170001N1+02881+02041100681ADDGF106991061001999999031001MD1210111+9999REMSYN060AAXX  28031 59046 42967 62701 10288 20204 40068 52011 86030;
0165590460999992000082806004+24340+109390FM-12+009799999V0203401N002019999999N0250001N1+03161+02131100451ADDAA199000091GF106991021001999999031011KA1999N+02651MD1710221+9999REMSYN070AAXX  28061 59046 32975 63402 10316 20213 40045 57022 82031 333 20265;EQDQ01  00002PRCP99
0112590460999992000082809004+24340+109390FM-12+009799999V0203201N002019999999N0300001N1+03271+02221100251ADDGF107991001001999999001011MD1710201+9999REMSYN060AAXX  28091 59046 42980 73202 10327 20222 40025 57020 80001;
0142590460999992000082812004+24340+109390FM-12+009799999V0203401N001012200019N0180001N1+03021+02091100401ADDAA199000091GF103991031001999999031001MD1210141+9999REMSYN060AAXX  28121 59046 32968 33401 10302 20209 40040 52014 83030;EQDQ01  00002PRCP99
0122590460999992000082821004+24340+109390FM-12+009799999V0203601N002012200019N0120001N1+02661+02121100421ADDGA1001+999999999GF100991001001999999001001MD1710101+9999REMSYN054AAXX  28211 59046 42962 03602 10266 20212 40042 57010;
0152590460999992000082900004+24340+109390FM-12+009799999V0209999C000019999999N0120001N1+02701+02101100531ADDAA199000091GF107991061001999999031011MD1210101+0001REMSYN070AAXX  29001 59046 32962 70000 10270 20210 40053 52010 86031 333 00000;EQDQ01  00002PRCP99
0112590460999992000082903004+24340+109390FM-12+009799999V0203601N003010360019N0150001N1+03011+02111100521ADDGF106991011011008001031001MD1410001+9999REMSYN060AAXX  29031 59046 42565 63603 10301 20211 40052 54000 81130;
0165590460999992000082906004+24340+109390FM-12+009799999V0203201N003010075019N0160001N1+03261+02241100271ADDAA199000091GF105991051021008001031001KA1999N+02651MD1710251+9999REMSYN070AAXX  29061 59046 32566 53203 10326 20224 40027 57025 85230 333 20265;EQDQ01  00002PRCP99
0112590460999992000082909004+24340+109390FM-12+009799999V0203401N003019999999N0200001N1+03321+02261100091ADDGF107991071001999999031999MD1710181+9999REMSYN060AAXX  29091 59046 42970 73403 10332 20226 40009 57018 8703/;
0142590460999992000082912004+24340+109390FM-12+009799999V0200401N002019999999N0180001N1+03091+02291100171ADDAA199000091GF107991071001999999031999MD1210081+9999REMSYN060AAXX  29121 59046 32968 70402 10309 20229 40017 52008 8703/;EQDQ01  00002PRCP99
0175590460999992000082918004+24340+109390FM-12+009799999V0203401N002012200019N0150001N1+02811+02081100241ADDAA199000091GA1001+999999999GF100991001001999999001001KA1999M+03401MD1710091+9999REMSYN064AAXX  29181 59046 32965 03402 10281 20208 40024 57009 333 10340;EQDQ01  00002PRCP99
0122590460999992000082921004+24340+109390FM-12+009799999V0203401N004012200019N0150001N1+02691+02081100171ADDGA1001+999999999GF100991001001999999001001MD1710071+9999REMSYN054AAXX  29211 59046 42965 03404 10269 20208 40017 57007;
0152590460999992000083000004+24340+109390FM-12+009799999V0203201N003019999999N0150001N1+02681+01971100281ADDAA199000091GF106991061001999999031001MD1210111+0021REMSYN070AAXX  30001 59046 32965 63203 10268 20197 40028 52011 86030 333 05200;EQDQ01  00002PRCP99
0112590460999992000083003004+24340+109390FM-12+009799999V0203401N002012200019N0200001N1+02981+01991100331ADDGF102991021011008001001001MD1210051+9999REMSYN060AAXX  30031 59046 42570 23402 10298 20199 40033 52005 82100;
0165590460999992000083006004+24340+109390FM-12+009799999V0203601N003012200019N0200001N1+03201+02051100131ADDAA199000091GF104991041021008001001001KA1999N+02631MD1710201+9999REMSYN070AAXX  30061 59046 32570 43603 10320 20205 40013 57020 84200 333 20263;EQDQ01  00002PRCP99
0112590460999992000083009004+24340+109390FM-12+009799999V0203401N003010900019N0200001N1+03261+01921100011ADDGF107991011011008001001081MD1710121+9999REMSYN060AAXX  30091 59046 42570 73403 10326 20192 40001 57012 81108;
0142590460999992000083012004+24340+109390FM-12+009799999V0203201N001019999999N0180001N1+03041+01981099991ADDAA199000091GF105991001001999999001021MD1710021+9999REMSYN060AAXX  30121 59046 32968 53201 10304 20198 49999 57002 80002;EQDQ01  00002PRCP99
0175590460999992000083018004+24340+109390FM-12+009799999V0203201N001012200019N0150001N1+02741+02081100151ADDAA199000091GA1001+999999999GF100991001001999999001001KA1999M+03351MD1710061+9999REMSYN064AAXX  30181 59046 32965 03201 10274 20208 40015 57006 333 10335;EQDQ01  00002PRCP99
0122590460999992000083021004+24340+109390FM-12+009799999V0209999C000012200019N0150001N1+02581+02181100061ADDGA1001+999999999GF100991001001999999001001MD1710091+9999REMSYN054AAXX  30211 59046 42965 00000 10258 20218 40006 57009;
0152590460999992000083100004+24340+109390FM-12+009799999V0203201N001019999999N0120001N1+02731+02141100221ADDAA199000091GF107991071001999999031999MD1210161+0011REMSYN070AAXX  31001 59046 32962 73201 10273 20214 40022 52016 8703/ 333 05101;EQDQ01  00002PRCP99
0112590460999992000083103004+24340+109390FM-12+009799999V0209999C000019999999N0150001N1+02961+02201100291ADDGF106991061001999999031001MD1210071+9999REMSYN060AAXX  31031 59046 42965 60000 10296 20220 40029 52007 86030;
0165590460999992000083106004+24340+109390FM-12+009799999V0200701N003010075019N0250001N1+03261+02081100091ADDAA199000091GF105991051021008001001001KA1999N+02581MD1710201+9999REMSYN070AAXX  31061 59046 32575 50703 10326 20208 40009 57020 85200 333 20258;EQDQ01  00002PRCP99
0112590460999992000083109004+24340+109390FM-12+009799999V0203201N003010120019N0250001N1+03421+02071099951ADDGF106991061081008001001001MD1710141+9999REMSYN060AAXX  31091 59046 42575 63203 10342 20207 49995 57014 86800;
0142590460999992000083112004+24340+109390FM-12+009799999V0200701N002019999999N0250001N1+03121+02221100101ADDAA199000091GF106991061001999999031001MD1210151+9999REMSYN060AAXX  31121 59046 32975 60702 10312 20222 40010 52015 86030;EQDQ01  00002PRCP99
0175590460999992000083118004+24340+109390FM-12+009799999V0200401N002012200019N0150001N1+02791+02111100231ADDAA199000091GA1001+999999999GF100991001001999999001001KA1999M+03511MD1710021+9999REMSYN064AAXX  31181 59046 32965 00402 10279 20211 40023 57002 333 10351;EQDQ01  00002PRCP99
0112590460999992000083121004+24340+109390FM-12+009799999V0209999C000019999999N0120001N1+02631+02281100171ADDGF107991071001999999031999MD1710061+9999REMSYN060AAXX  31211 59046 42962 70000 10263 20228 40017 57006 8703/;
0174590460999992000090100004+24340+109390FM-12+009799999V0202701N002012200019N0080001N1+02671+02291100281ADDAA199000091GA1001+999999999GF100991001001999999001001MD1210111+0011MW1101REMSYN070AAXX  01001 59046 31958 02702 10267 20229 40028 52011 71000 333 00151;EQDQ01  00002PRCP99
0112590460999992000090103004+24340+109390FM-12+009799999V0202701N002012200019N0150001N1+03121+02141100371ADDGF101991011011008001001001MD1210091+9999REMSYN060AAXX  01031 59046 42565 12702 10312 20214 40037 52009 81100;
0165590460999992000090106004+24340+109390FM-12+009799999V0203201N002012200019N0300001N1+03421+02091100131ADDAA199000091GF102991021011008001001021KA1999N+02611MD1710231+9999REMSYN070AAXX  01061 59046 32580 23202 10342 20209 40013 57023 82102 333 20261;EQDQ01  00002PRCP99
0112590460999992000090109004+24340+109390FM-12+009799999V0200901N002012200019N0300001N1+03501+01921099951ADDGF103991001001999999001011MD1710181+9999REMSYN060AAXX  01091 59046 42980 30902 10350 20192 49995 57018 80001;
0142590460999992000090112004+24340+109390FM-12+009799999V0209999C000012200019N0250001N1+03301+02061100031ADDAA199000091GF102991001001999999001021MD1210071+9999REMSYN060AAXX  01121 59046 32975 20000 10330 20206 40003 52007 80002;EQDQ01  00002PRCP99
0175590460999992000090118004+24340+109390FM-12+009799999V0209999C000012200019N0150001N1+02771+02341100221ADDAA199000091GA1001+999999999GF100991001001999999001001KA1999M+03601MD1410001+9999REMSYN064AAXX  01181 59046 32965 00000 10277 20234 40022 54000 333 10360;EQDQ01  00002PRCP99
0122590460999992000090121004+24340+109390FM-12+009799999V0200401N001012200019N0120001N1+02681+02351100191ADDGA1001+999999999GF100991001001999999001001MD1710031+9999REMSYN054AAXX  01211 59046 42962 00401 10268 20235 40019 57003;
0174590460999992000090200004+24340+109390FM-12+009799999V0209999C000012200019N0060001N1+02741+02351100331ADDAA199000091GA1001+999999999GF100991001001999999001001MD1210131+0011MW1101REMSYN070AAXX  02001 59046 31956 00000 10274 20235 40033 52013 71000 333 00101;EQDQ01  00002PRCP99
0112590460999992000090203004+24340+109390FM-12+009799999V0200901N002012200019N0150001N1+03221+02241100451ADDGF101991011011008001001001MD1210121+9999REMSYN060AAXX  02031 59046 42565 10902 10322 20224 40045 52012 81100;
0165590460999992000090206004+24340+109390FM-12+009799999V0202501N002012200019N0170001N1+03521+02131100201ADDAA199000091GF102991021011008001001021KA1999N+02591MD1710241+9999REMSYN070AAXX  02061 59046 32567 22502 10352 20213 40020 57024 82102 333 20259;EQDQ01  00002PRCP99
0112590460999992000090209004+24340+109390FM-12+009799999V0200701N002012200019N0200001N1+03591+02051100041ADDGF102991011011008001001021MD1710161+9999REMSYN060AAXX  02091 59046 42570 20702 10359 20205 40004 57016 81102;
0152590460999992000090212004+24340+109390FM-12+009799999V0201801N005012200019N0200001N1+03161+02241100281ADDAA199000091GA1001+999999999GF100991001001999999001001MD1210231+9999REMSYN054AAXX  02121 59046 32970 01805 10316 20224 40028 52023;EQDQ01  00002PRCP99
0165590460999992000090218004+24340+109390FM-12+009799999V0201801N002012200019N0120001N1+02901+02371100501ADDAA199000091GF104991041001999999031001KA1999M+03681MD1210031+9999REMSYN070AAXX  02181 59046 32962 41802 10290 20237 40050 52003 84030 333 10368;EQDQ01  00002PRCP99
0112590460999992000090221004+24340+109390FM-12+009799999V0209999C000010150019N0100001N1+02841+02381100481ADDGF107991071051017501999999MD1710021+9999REMSYN060AAXX  02211 59046 42760 70000 10284 20238 40048 57002 875//;
0164590460999992000090300004+24340+109390FM-12+009799999V0201601N002010120019N0070001N1+02841+02351100681ADDAA199000091GF108991081091012501999999MD1210191+0041MW1101REMSYN076AAXX  03001 59046 31657 81602 10284 20235 40068 52019 71000 889// 333 00401;EQDQ01  00002PRCP99
0132590460999992000090303004+24340+109390FM-12+009799999V0201601N002019999999N0070001N1+02961+02481100811ADDAY181031GF107991001001999999001081MD1210121+9999MW1101REMSYN066AAXX  03031 59046 41957 71602 10296 20248 40081 52012 71080 80008;
0172590460999992000090306004+24340+109390FM-12+009799999V0200701N003010075019N0150001N1+03281+02401100561ADDAA106002091AY181061GF106991051021008001031001KA1999N+02711MD1710241+9999MW1001REMSYN082AAXX  03061 59046 11565 60703 10328 20240 40056 57024 60021 70080 85230 333 20271;
0112590460999992000090309004+24340+109390FM-12+009799999V0200701N003010900019N0250001N1+03301+02331100461ADDGF106991021021008001001021MD1710101+9999REMSYN060AAXX  03091 59046 42575 60703 10330 20233 40046 57010 82202;
0149590460999992000090312004+24340+109390FM-12+009799999V0201801N003010042019N0060001N1+02581+02441100701ADDAA106009991AY191061GF108991081091004501999999MD1210231+9999MW1951REMSYN072AAXX  03121 59046 11456 81803 10258 20244 40070 52023 60101 79590 889//;
0180590460999992000090318004+24340+109390FM-12+009799999V0202901N001010120019N0060001N1+02561+02461100781ADDAA106005191AY191061AY281061GF108991081051012501999999KA1999M+03381MD1210011+9999MW1101REMSYN082AAXX  03181 59046 11656 82901 10256 20246 40078 52001 60051 71098 885// 333 10338;
0145590460999992000090321004+24340+109390FM-12+009799999V0209999C000010150019N0040001N1+02561+02451100741ADDAA124016091GF106991061051017501001001MD1710041+9999MW1101REMSYN076AAXX  03211 59046 41740 60000 10256 20245 40074 57004 71000 86500 333 70159;
0151590460999992000090400004+24340+109390FM-12+009799999V0200401N001019999999N0030001N1+02611+02451100791ADDAA124016091GF107991071001999999031999MD1210041+0101MW1101REMSYN082AAXX  04001 59046 31930 70401 10261 20245 40079 52004 71000 8703/ 333 00152 70159;
0112590460999992000090403004+24340+109390FM-12+009799999V0201401N001012200019N0110001N1+03001+02461100851ADDGF102991011011008001001021MD1210071+9999REMSYN060AAXX  04031 59046 42561 21401 10300 20246 40085 52007 81102;
0165590460999992000090406004+24340+109390FM-12+009799999V0202501N001010075019N0180001N1+03241+02411100631ADDAA199000091GF106991061031008001031001KA1999N+02551MD1710221+9999REMSYN070AAXX  04061 59046 32568 62501 10324 20241 40063 57022 86330 333 20255;EQDQ01  00002PRCP99
0112590460999992000090409004+24340+109390FM-12+009799999V0203201N002010075019N0200001N1+03461+02391100341ADDGF105991051031008001001001MD1710281+9999REMSYN060AAXX  04091 59046 42570 53202 10346 20239 40034 57028 85300;
0152590460999992000090412004+24340+109390FM-12+009799999V0209999C000012200019N0150001N1+03161+02431100451ADDAA199000091GA1001+999999999GF100991001001999999001001MD1210111+9999REMSYN054AAXX  04121 59046 32965 00000 10316 20243 40045 52011;EQDQ01  00002PRCP99
0187590460999992000090418004+24340+109390FM-12+009799999V0209999C000012200019N0070001N1+02901+02591100541ADDAA199000091GA1001+999999999GF100991001001999999001001KA1999M+03471MD1710071+9999MW1101REMSYN070AAXX  04181 59046 31957 00000 10290 20259 40054 57007 71000 333 10347;EQDQ01  00002PRCP99
0124590460999992000090421004+24340+109390FM-12+009799999V0200401N002019999999N0070001N1+02801+02461100561ADDGF107991071001999999031999MD1210021+9999MW1101REMSYN066AAXX  04211 59046 41957 70402 10280 20246 40056 52002 71000 8703/;
0164590460999992000090500004+24340+109390FM-12+009799999V0209999C000010360019N0070001N1+02791+02521100651ADDAA199000091GF107991021021008001031011MD1210091+0011MW1101REMSYN076AAXX  05001 59046 31557 70000 10279 20252 40065 52009 71000 82231 333 05102;EQDQ01  00002PRCP99
0112590460999992000090503004+24340+109390FM-12+009799999V0200901N002010900019N0120001N1+03221+02481100621ADDGF105991011011008001031011MD1710031+9999REMSYN060AAXX  05031 59046 42562 50902 10322 20248 40062 57003 81131;
0165590460999992000090506004+24340+109390FM-12+009799999V0201401N001012200019N0150001N1+03521+02431100341ADDAA199000091GF102991021021008001031001KA1999N+02721MD1710271+9999REMSYN070AAXX  05061 59046 32565 21401 10352 20243 40034 57027 82230 333 20272;EQDQ01  00002PRCP99
0112590460999992000090509004+24340+109390FM-12+009799999V0200401N003010075019N0200001N1+03311+02311100041ADDGF107991071091008001031999MD1710301+9999REMSYN060AAXX  05091 59046 42570 70403 10331 20231 40004 57030 8793/;
0162590460999992000090512004+24340+109390FM-12+009799999V0202201N003010075019N0120001N1+02951+02321100321ADDAA199000091AY191061GF107991071091008001031999MD1210271+9999MW1171REMSYN066AAXX  05121 59046 31562 72203 10295 20232 40032 52027 71790 8793/;EQDQ01  00002PRCP99
0180590460999992000090518004+24340+109390FM-12+009799999V0200701N002010042019N0120001N1+02521+02261100671ADDAA106002091AY191061AY281061GF107991071091004501999999KA1999M+03661MD1210171+9999MW1951REMSYN082AAXX  05181 59046 11462 70702 10252 20226 40067 52017 60021 79598 879// 333 10366;
0161590460999992000090521004+24340+109390FM-12+009799999V0209999C000010150019N0120001N1+02541+02291100551ADDAA124002091AY191031AY281031GF108991081051017501999999MD1710121+9999MW1001REMSYN076AAXX  05211 59046 41762 80000 10254 20229 40055 57012 70098 885// 333 70021;
0173590460999992000090600004+24340+109390FM-12+009799999V0200701N001010360019N0200001N1+02561+02311100641ADDAA106000791AY191061AY281061GF107991011011008001031999MD1210081+0001MW1001REMSYN088AAXX  06001 59046 11570 70701 10256 20231 40064 52008 69901 70098 8113/ 333 00052 70021;
0112590460999992000090603004+24340+109390FM-12+009799999V0200401N004010360019N0300001N1+02881+02271100741ADDGF107991021011008001031999MD1210101+9999REMSYN060AAXX  06031 59046 42580 70404 10288 20227 40074 52010 8213/;
0146590460999992000090606004+24340+109390FM-12+009799999V0200701N003010360019N0300001N1+03141+02161100531ADDAA199000021GF106991021021008001031001KA1999N+02521MD1710211+9999REMSYN070AAXX  06061 59046 32580 60703 10314 20216 40053 57021 82230 333 20252;
0112590460999992000090609004+24340+109390FM-12+009799999V0203401N004012200019N0250001N1+03061+02251100481ADDGF104991031021008001031001MD1710051+9999REMSYN060AAXX  06091 59046 42575 43404 10306 20225 40048 57005 83230;
0152590460999992000090612004+24340+109390FM-12+009799999V0200201N003012200019N0250001N1+02581+02021100731ADDAA199000091GA1001+999999999GF100991001001999999001001MD1210241+9999REMSYN054AAXX  06121 59046 32975 00203 10258 20202 40073 52024;EQDQ01  00002PRCP99
0175590460999992000090618004+24340+109390FM-12+009799999V0200401N003012200019N0200001N1+02371+01921100901ADDAA199000091GA1001+999999999GF100991001001999999001001KA1999M+03251MD1710051+9999REMSYN064AAXX  06181 59046 32970 00403 10237 20192 40090 57005 333 10325;EQDQ01  00002PRCP99
0112590460999992000090621004+24340+109390FM-12+009799999V0200401N002012200019N0150001N1+02301+01861100981ADDGF103991031001999999031001MD1210071+9999REMSYN060AAXX  06211 59046 42965 30402 10230 20186 40098 52007 83030;
0152590460999992000090700004+24340+109390FM-12+009799999V0203601N003019999999N0200001N1+02321+01801101091ADDAA199000091GF107991071001999999031999MD1210101+0041REMSYN070AAXX  07001 59046 32970 73603 10232 20180 40109 52010 8703/ 333 00452;EQDQ01  00002PRCP99
0112590460999992000090703004+24340+109390FM-12+009799999V0203201N003010120019N0300001N1+02461+01761101261ADDGF108991081081008001999999MD1210171+9999REMSYN060AAXX  07031 59046 42580 83203 10246 20176 40126 52017 888//;
0165590460999992000090706004+24340+109390FM-12+009799999V0203201N003010120019N0300001N1+02581+01761101101ADDAA199000091GF107991071081008001999999KA1999N+02271MD1710161+9999REMSYN070AAXX  07061 59046 32580 73203 10258 20176 40110 57016 878// 333 20227;EQDQ01  00002PRCP99
0112590460999992000090709004+24340+109390FM-12+009799999V0202501N003010120019N0300001N1+02411+01651101101ADDGF108991081051012501999999MD1410001+9999REMSYN060AAXX  07091 59046 42680 82503 10241 20165 40110 54000 885//;
0142590460999992000090712004+24340+109390FM-12+009799999V0200901N004010210019N0300001N1+02201+01541101251ADDAA199000091GF107991071051022501999999MD1210141+9999REMSYN060AAXX  07121 59046 32880 70904 10220 20154 40125 52014 875//;EQDQ01  00002PRCP99
0175590460999992000090718004+24340+109390FM-12+009799999V0203201N003012200019N0200001N1+02041+01501101301ADDAA199000091GA1001+999999999GF100991001001999999001001KA1999M+02711MD1710121+9999REMSYN064AAXX  07181 59046 32970 03203 10204 20150 40130 57012 333 10271;EQDQ01  00002PRCP99
0112590460999992000090721004+24340+109390FM-12+009799999V0203601N003010150019N0150001N1+02041+01541101271ADDGF107991071051017501999999MD1710031+9999REMSYN060AAXX  07211 59046 42765 73603 10204 20154 40127 57003 875//;
0152590460999992000090800004+24340+109390FM-12+009799999V0203401N003010150019N0250001N1+02091+01541101451ADDAA199000091GF108991081051017501999999MD1210181+0041REMSYN070AAXX  08001 59046 32775 83403 10209 20154 40145 52018 885// 333 00452;EQDQ01  00002PRCP99
0112590460999992000090803004+24340+109390FM-12+009799999V0203201N003010360019N0300001N1+02301+01561101481ADDGF107991011011008001031999MD1210031+9999REMSYN060AAXX  08031 59046 42580 73203 10230 20156 40148 52003 8113/;
0165590460999992000090806004+24340+109390FM-12+009799999V0203201N002010360019N0300001N1+02541+01661101231ADDAA199000091GF107991021011008001031999KA1999N+02011MD1710251+9999REMSYN070AAXX  08061 59046 32580 73202 10254 20166 40123 57025 8213/ 333 20201;EQDQ01  00002PRCP99
0112590460999992000090809004+24340+109390FM-12+009799999V0202701N002010120019N0300001N1+02671+01701101131ADDGF107991061081008001031999MD1710091+9999REMSYN060AAXX  08091 59046 42580 72702 10267 20170 40113 57009 8683/;
0142590460999992000090812004+24340+109390FM-12+009799999V0200201N002012200019N0300001N1+02351+01621101231ADDAA199000091GF103991031001999999031001MD1210091+9999REMSYN060AAXX  08121 59046 32980 30202 10235 20162 40123 52009 83030;EQDQ01  00002PRCP99
0175590460999992000090818004+24340+109390FM-12+009799999V0202901N001012200019N0200001N1+02131+01671101251ADDAA199000091GA1001+999999999GF100991001001999999001001KA1999M+02781MD1710091+9999REMSYN064AAXX  08181 59046 32970 02901 10213 20167 40125 57009 333 10278;EQDQ01  00002PRCP99
0112590460999992000090821004+24340+109390FM-12+009799999V0203401N001010150019N0150001N1+02111+01691101211ADDGF107991071051017501999999MD1710041+9999REMSYN060AAXX  08211 59046 42765 73401 10211 20169 40121 57004 875//;
0152590460999992000090900004+24340+109390FM-12+009799999V0200201N002019999999N0180001N1+02141+01651101291ADDAA199000091GF107991071001999999031999MD1210071+0021REMSYN070AAXX  09001 59046 32968 70202 10214 20165 40129 52007 8703/ 333 05201;EQDQ01  00002PRCP99
0112590460999992000090903004+24340+109390FM-12+009799999V0200401N004010360019N0200001N1+02541+01711101311ADDGF107991011011008001031001MD1210031+9999REMSYN060AAXX  09031 59046 42570 70404 10254 20171 40131 52003 81130;
0165590460999992000090906004+24340+109390FM-12+009799999V0200401N003012200019N0300001N1+02851+01851101031ADDAA199000091GF104991041001999999031001KA1999N+02091MD1710281+9999REMSYN070AAXX  09061 59046 32980 40403 10285 20185 40103 57028 84030 333 20209;EQDQ01  00002PRCP99
0112590460999992000090909004+24340+109390FM-12+009799999V0209999C000012200019N0300001N1+02971+01891100831ADDGF103991031001999999031001MD1710191+9999REMSYN060AAXX  09091 59046 42980 30000 10297 20189 40083 57019 83030;
0142590460999992000090912004+24340+109390FM-12+009799999V0200401N003010150019N0250001N1+02741+01911101011ADDAA199000091GF107991071051017501001001MD1210171+9999REMSYN060AAXX  09121 59046 32775 70403 10274 20191 40101 52017 87500;EQDQ01  00002PRCP99
0165590460999992000090918004+24340+109390FM-12+009799999V0200701N002012200019N0200001N1+02351+01761101101ADDAA199000091GF104991041001999999031001KA1999M+03051MD1710061+9999REMSYN070AAXX  09181 59046 32970 40702 10235 20176 40110 57006 84030 333 10305;EQDQ01  00002PRCP99
0112590460999992000090921004+24340+109390FM-12+009799999V0200401N002010210019N0120001N1+02341+01731101011ADDGF107991071051022501999999MD1710091+9999REMSYN060AAXX  09211 59046 42862 70402 10234 20173 40101 57009 875//;
0152590460999992000091000004+24340+109390FM-12+009799999V0203601N002010150019N0180001N1+02321+01781101151ADDAA199000091GF108991081051017501999999MD1210131+0011REMSYN070AAXX  10001 59046 32768 83602 10232 20178 40115 52013 885// 333 05102;EQDQ01  00002PRCP99
0112590460999992000091003004+24340+109390FM-12+009799999V0200901N002019999999N0300001N1+02581+01801101171ADDGF107991071001999999031999MD1210031+9999REMSYN060AAXX  10031 59046 42980 70902 10258 20180 40117 52003 8703/;
0165590460999992000091006004+24340+109390FM-12+009799999V0200701N004012200019N0300001N1+03061+01761100801ADDAA199000091GF102991021011008001001001KA1999N+02301MD1710371+9999REMSYN070AAXX  10061 59046 32580 20704 10306 20176 40080 57037 82100 333 20230;EQDQ01  00002PRCP99
0112590460999992000091009004+24340+109390FM-12+009799999V0200901N003010075019N0300001N1+03161+01891100631ADDGF106991061011008001001001MD1710161+9999REMSYN060AAXX  10091 59046 42580 60903 10316 20189 40063 57016 86100;
0142590460999992000091012004+24340+109390FM-12+009799999V0200901N002012200019N0200001N1+02811+01761100831ADDAA199000091GF103991031001999999031001MD1210191+9999REMSYN060AAXX  10121 59046 32970 30902 10281 20176 40083 52019 83030;EQDQ01  00002PRCP99
0165590460999992000091018004+24340+109390FM-12+009799999V0203201N002019999999N0150001N1+02471+01721100951ADDAA199000091GF107991071001999999031999KA1999M+03221MD1710071+9999REMSYN070AAXX  10181 59046 32965 73202 10247 20172 40095 57007 8703/ 333 10322;EQDQ01  00002PRCP99
0122590460999992000091021004+24340+109390FM-12+009799999V0200701N002012200019N0150001N1+02301+01761100891ADDGA1001+999999999GF100991001001999999001001MD1710071+9999REMSYN054AAXX  10211 59046 42565 00702 10230 20176 40089 57007;
0162590460999992000091100004+24340+109390FM-12+009799999V0200401N004012200019N0120001N1+02331+01701101001ADDAA199000091GA1001+999999999GF100991001001999999001001MD1210111+0011REMSYN064AAXX  11001 59046 32962 00404 10233 20170 40100 52011 333 05100;EQDQ01  00002PRCP99
0122590460999992000091103004+24340+109390FM-12+009799999V0200901N004012200019N0200001N1+02761+01681101031ADDGA1001+999999999GF100991001001999999001001MD1210031+9999REMSYN054AAXX  11031 59046 42970 00904 10276 20168 40103 52003;
0165590460999992000091106004+24340+109390FM-12+009799999V0200401N003012200019N0200001N1+03031+01661100771ADDAA199000091GF102991021011008001031001KA1999N+02261MD1710251+9999REMSYN070AAXX  11061 59046 32570 20403 10303 20166 40077 57025 82130 333 20226;EQDQ01  00002PRCP99
0112590460999992000091109004+24340+109390FM-12+009799999V0200401N003012200019N0200001N1+03071+01711100621ADDGF101991011011008001031001MD1710151+9999REMSYN060AAXX  11091 59046 42570 10403 10307 20171 40062 57015 81130;
0152590460999992000091112004+24340+109390FM-12+009799999V0200701N003012200019N0150001N1+02771+01771100831ADDAA199000091GA1001+999999999GF100991001001999999001001MD1210201+9999REMSYN054AAXX  11121 59046 32965 00703 10277 20177 40083 52020;EQDQ01  00002PRCP99
0175590460999992000091118004+24340+109390FM-12+009799999V0200401N001012200019N0150001N1+02401+01641101091ADDAA199000091GA1001+999999999GF100991001001999999001001KA1999M+03151MD1210021+9999REMSYN064AAXX  11181 59046 32965 00401 10240 20164 40109 52002 333 10315;EQDQ01  00002PRCP99
0112590460999992000091121004+24340+109390FM-12+009799999V0200401N003019999999N0120001N1+02361+01721101041ADDGF107991071001999999031999MD1710051+9999REMSYN060AAXX  11211 59046 42962 70403 10236 20172 40104 57005 8703/;
0164590460999992000091200004+24340+109390FM-12+009799999V0203401N002019999999N0080001N1+02381+01711101221ADDAA199000091GF107991071001999999031999MD1210181+0021MW1041REMSYN076AAXX  12001 59046 31958 73402 10238 20171 40122 52018 70400 8703/ 333 00201;EQDQ01  00002PRCP99
0112590460999992000091203004+24340+109390FM-12+009799999V0200401N003012200019N0120001N1+02831+01671101281ADDGF101991011011008001001001MD1210061+9999REMSYN060AAXX  12031 59046 42562 10403 10283 20167 40128 52006 81100;
0165590460999992000091206004+24340+109390FM-12+009799999V0203201N003010075019N0120001N1+02991+01711101081ADDAA199000091GF105991051011008001001001KA1999N+02331MD1710201+9999REMSYN070AAXX  12061 59046 32562 53203 10299 20171 40108 57020 85100 333 20233;EQDQ01  00002PRCP99
0112590460999992000091209004+24340+109390FM-12+009799999V0200701N003010120019N0180001N1+02901+01781100991ADDGF108991081081008001999999MD1710091+9999REMSYN060AAXX  12091 59046 42568 80703 10290 20178 40099 57009 888//;
0142590460999992000091212004+24340+109390FM-12+009799999V0202901N002010150019N0150001N1+02721+01751101141ADDAA199000091GF108991081051017501999999MD1210151+9999REMSYN060AAXX  12121 59046 32765 82902 10272 20175 40114 52015 885//;EQDQ01  00002PRCP99
0165590460999992000091218004+24340+109390FM-12+009799999V0203201N003012200019N0150001N1+02341+01551101291ADDAA199000091GF103991001001999999001011KA1999M+03071MD1710021+9999REMSYN070AAXX  12181 59046 32965 33203 10234 20155 40129 57002 80001 333 10307;EQDQ01  00002PRCP99
0112590460999992000091221004+24340+109390FM-12+009799999V0203201N003019999999N0150001N1+02301+01601101261ADDGF107991071001999999031999MD1710031+9999REMSYN060AAXX  12211 59046 42965 73203 10230 20160 40126 57003 8703/;
0152590460999992000091300004+24340+109390FM-12+009799999V0203401N003012200019N0120001N1+02241+01601101441ADDAA199000091GF101991011001999999031001MD1210171+0021REMSYN070AAXX  13001 59046 32962 13403 10224 20160 40144 52017 81030 333 00251;EQDQ01  00002PRCP99
0112590460999992000091303004+24340+109390FM-12+009799999V0203201N003012200019N0150001N1+02651+01561101411ADDGF102991021011008001001001MD1710031+9999REMSYN060AAXX  13031 59046 42565 23203 10265 20156 40141 57003 82100;
0165590460999992000091306004+24340+109390FM-12+009799999V0203201N003012200019N0150001N1+02921+01511101091ADDAA199000091GF102991021011008001001001KA1999N+02201MD1710311+9999REMSYN070AAXX  13061 59046 32565 23203 10292 20151 40109 57031 82100 333 20220;EQDQ01  00002PRCP99
0112590460999992000091309004+24340+109390FM-12+009799999V0200401N003010150019N0150001N1+02841+01531100991ADDGF108991081051017501999999MD1710101+9999REMSYN060AAXX  13091 59046 42765 80403 10284 20153 40099 57010 885//;
0152590460999992000091312004+24340+109390FM-12+009799999V0200401N002012200019N0150001N1+02661+01461101081ADDAA199000091GA1001+999999999GF100991001001999999001001MD1210081+9999REMSYN054AAXX  13121 59046 32965 00402 10266 20146 40108 52008;EQDQ01  00002PRCP99
0175590460999992000091318004+24340+109390FM-12+009799999V0200401N002012200019N0150001N1+02411+01421101191ADDAA199000091GA1001+999999999GF100991001001999999001001KA1999M+03011MD1710031+9999REMSYN064AAXX  13181 59046 32965 00402 10241 20142 40119 57003 333 10301;EQDQ01  00002PRCP99
0122590460999992000091321004+24340+109390FM-12+009799999V0203201N002012200019N0150001N1+02261+01321101181ADDGA1001+999999999GF100991001001999999001001MD1710021+9999REMSYN054AAXX  13211 59046 42965 03202 10226 20132 40118 57002;
0162590460999992000091400004+24340+109390FM-12+009799999V0203601N002012200019N0120001N1+02301+01221101241ADDAA199000091GA1001+999999999GF100991001001999999001001MD1210061+0021REMSYN064AAXX  14001 59046 32962 03602 10230 20122 40124 52006 333 05201;EQDQ01  00002PRCP99
0122590460999992000091403004+24340+109390FM-12+009799999V0203201N005012200019N0180001N1+02781+01161101181ADDGA1001+999999999GF100991001001999999001001MD1710051+9999REMSYN054AAXX  14031 59046 42968 03205 10278 20116 40118 57005;
0175590460999992000091406004+24340+109390FM-12+009799999V0200401N004012200019N0300001N1+03061+01161100941ADDAA199000091GA1001+999999999GF100991001001999999001001KA1999N+02201MD1710241+9999REMSYN064AAXX  14061 59046 32980 00404 10306 20116 40094 57024 333 20220;EQDQ01  00002PRCP99
0122590460999992000091409004+24340+109390FM-12+009799999V0200401N003012200019N0300001N1+03141+01191100761ADDGA1001+999999999GF100991001001999999001001MD1710181+9999REMSYN054AAXX  14091 59046 42980 00403 10314 20119 40076 57018;
0142590460999992000091412004+24340+109390FM-12+009799999V0203201N002012200019N0300001N1+02821+01221100851ADDAA199000091GF101991011001999999031001MD1210091+9999REMSYN060AAXX  14121 59046 32980 13202 10282 20122 40085 52009 81030;EQDQ01  00002PRCP99
0175590460999992000091418004+24340+109390FM-12+009799999V0209999C000012200019N0200001N1+02391+01421100991ADDAA199000091GA1001+999999999GF100991001001999999001001KA1999M+03181MD1210011+9999REMSYN064AAXX  14181 59046 32970 00000 10239 20142 40099 52001 333 10318;EQDQ01  00002PRCP99
0122590460999992000091421004+24340+109390FM-12+009799999V0203401N001012200019N0200001N1+02231+01281100941ADDGA1001+999999999GF100991001001999999001001MD1710051+9999REMSYN054AAXX  14211 59046 42970 03401 10223 20128 40094 57005;
0162590460999992000091500004+24340+109390FM-12+009799999V0203201N001012200019N0150001N1+02261+01251101091ADDAA199000091GA1001+999999999GF100991001001999999001001MD1210151+0011REMSYN064AAXX  15001 59046 32965 03201 10226 20125 40109 52015 333 05100;EQDQ01  00002PRCP99
0122590460999992000091503004+24340+109390FM-12+009799999V0202701N002012200019N0200001N1+02891+01161101111ADDGA1001+999999999GF100991001001999999001001MD1210021+9999REMSYN054AAXX  15031 59046 42970 02702 10289 20116 40111 52002;
0175590460999992000091506004+24340+109390FM-12+009799999V0200201N003012200019N0300001N1+03161+01171100831ADDAA199000091GA1001+999999999GF100991001001999999001001KA1999N+02141MD1710271+9999REMSYN064AAXX  15061 59046 32980 00203 10316 20117 40083 57027 333 20214;EQDQ01  00002PRCP99
0112590460999992000091509004+24340+109390FM-12+009799999V0203601N003012200019N0300001N1+03241+01151100701ADDGF101991011011008001001001MD1710131+9999REMSYN060AAXX  15091 59046 42580 13603 10324 20115 40070 57013 81100;
0152590460999992000091512004+24340+109390FM-12+009799999V0200401N001012200019N0300001N1+02901+01431100831ADDAA199000091GA1001+999999999GF100991001001999999001001MD1210121+9999REMSYN054AAXX  15121 59046 32980 00401 10290 20143 40083 52012;EQDQ01  00002PRCP99
0175590460999992000091518004+24340+109390FM-12+009799999V0202701N002012200019N0200001N1+02311+01721101081ADDAA199000091GA1001+999999999GF100991001001999999001001KA1999M+03331MD1210041+9999REMSYN064AAXX  15181 59046 32970 02702 10231 20172 40108 52004 333 10333;EQDQ01  00002PRCP99
0122590460999992000091521004+24340+109390FM-12+009799999V0200201N001012200019N0150001N1+02251+01501101101ADDGA1001+999999999GF100991001001999999001001MD1210021+9999REMSYN054AAXX  15211 59046 42965 00201 10225 20150 40110 52002;
0164590460999992000091600004+24340+109390FM-12+009799999V0203201N001012200019N0070001N1+02161+01561101301ADDAA199000091GF102991011011008001031011MD1210191+0021MW1041REMSYN076AAXX  16001 59046 31557 23201 10216 20156 40130 52019 70400 81131 333 00251;EQDQ01  00002PRCP99
0112590460999992000091603004+24340+109390FM-12+009799999V0200401N003012200019N0200001N1+02901+01331101341ADDGF104991011001999999031021MD1210051+9999REMSYN060AAXX  16031 59046 42970 40403 10290 20133 40134 52005 81032;
0175590460999992000091606004+24340+109390FM-12+009799999V0200401N002012200019N0300001N1+03141+00981101041ADDAA199000091GA1001+999999999GF100991001001999999001001KA1999N+02041MD1710301+9999REMSYN064AAXX  16061 59046 32980 00402 10314 20098 40104 57030 333 20204;EQDQ01  00002PRCP99
0122590460999992000091609004+24340+109390FM-12+009799999V0200901N004012200019N0300001N1+03261+00921100911ADDGA1001+999999999GF100991001001999999001001MD1710121+9999REMSYN054AAXX  16091 59046 42980 00904 10326 20092 40091 57012;
0152590460999992000091612004+24340+109390FM-12+009799999V0209999C000012200019N0300001N1+02821+01131101011ADDAA199000091GA1001+999999999GF100991001001999999001001MD1210081+9999REMSYN054AAXX  16121 59046 32980 00000 10282 20113 40101 52008;EQDQ01  00002PRCP99
0175590460999992000091618004+24340+109390FM-12+009799999V0202901N002012200019N0200001N1+02271+01711101201ADDAA199000091GA1001+999999999GF100991001001999999001001KA1999M+03351MD1210021+9999REMSYN064AAXX  16181 59046 32970 02902 10227 20171 40120 52002 333 10335;EQDQ01  00002PRCP99
0112590460999992000091621004+24340+109390FM-12+009799999V0209999C000019999999N0120001N1+02161+01601101201ADDGF107991001001999999001081MD1410001+9999REMSYN060AAXX  16211 59046 42962 70000 10216 20160 40120 54000 80008;
0164590460999992000091700004+24340+109390FM-12+009799999V0209999C000019999999N0030001N1+02101+01711101341ADDAA199000091GF106991061001999999031001MD1210131+0001MW1101REMSYN076AAXX  17001 59046 31930 60000 10210 20171 40134 52013 71000 86030 333 00051;EQDQ01  00002PRCP99
0112590460999992000091703004+24340+109390FM-12+009799999V0200401N002019999999N0120001N1+02801+01411101341ADDGF106991061001999999031001MD1210011+9999REMSYN060AAXX  17031 59046 42962 60402 10280 20141 40134 52001 86030;
0165590460999992000091706004+24340+109390FM-12+009799999V0200401N003012200019N0300001N1+03201+01001101051ADDAA199000091GF103991021001999999031011KA1999N+01981MD1710291+9999REMSYN070AAXX  17061 59046 32980 30403 10320 20100 40105 57029 82031 333 20198;EQDQ01  00002PRCP99
0112590460999992000091709004+24340+109390FM-12+009799999V0203401N001019999999N0300001N1+03241+00911100931ADDGF105991001001999999001011MD1710121+9999REMSYN060AAXX  17091 59046 42980 53401 10324 20091 40093 57012 80001;
0142590460999992000091712004+24340+109390FM-12+009799999V0209999C000010900019N0200001N1+02701+01681101011ADDAA199000091GF107991021041012501001081MD1210071+9999REMSYN060AAXX  17121 59046 32670 70000 10270 20168 40101 52007 82408;EQDQ01  00002PRCP99
0177590460999992000091718004+24340+109390FM-12+009799999V0202701N001019999999N0080001N1+02201+01751101081ADDAA199000091GF107991041001999999031021KA1999M+03321MD1710031+9999MW1101REMSYN076AAXX  17181 59046 31958 72701 10220 20175 40108 57003 71000 84032 333 10332;EQDQ01  00002PRCP99
0124590460999992000091721004+24340+109390FM-12+009799999V0209999C000010150019N0080001N1+02161+01711101141ADDGF107991071051017501999999MD1210061+9999MW1101REMSYN066AAXX  17211 59046 41758 70000 10216 20171 40114 52006 71000 875//;
0164590460999992000091800004+24340+109390FM-12+009799999V0202701N001010150019N0040001N1+02201+01731101241ADDAA199000091GF107991071051017501999999MD1210091+0011MW1101REMSYN076AAXX  18001 59046 31740 72701 10220 20173 40124 52009 71000 875// 333 05101;EQDQ01  00002PRCP99
0112590460999992000091803004+24340+109390FM-12+009799999V0209999C000019999999N0120001N1+02671+01491101301ADDGF107991071001999999031999MD1210061+9999REMSYN060AAXX  18031 59046 42962 70000 10267 20149 40130 52006 8703/;
0177590460999992000091806004+24340+109390FM-12+009799999V0209999C000010150019N0050001N1+02961+01571101131ADDAA199000091GF107991071051017501999999KA1999N+02151MD1710161+9999MW1041REMSYN076AAXX  18061 59046 31750 70000 10296 20157 40113 57016 70400 875// 333 20215;EQDQ01  00002PRCP99
0124590460999992000091809004+24340+109390FM-12+009799999V0201101N002010120019N0080001N1+02931+01691101051ADDGF108991081051012501999999MD1710081+9999MW1041REMSYN066AAXX  18091 59046 41658 81102 10293 20169 40105 57008 70400 885//;
0154590460999992000091812004+24340+109390FM-12+009799999V0201401N002019999999N0080001N1+02751+01761101111ADDAA199000091GF108991081001999999071999MD1210051+9999MW1041REMSYN066AAXX  18121 59046 31958 81402 10275 20176 40111 52005 70400 8807/;EQDQ01  00002PRCP99
0177590460999992000091818004+24340+109390FM-12+009799999V0209999C000010150019N0080001N1+02401+01941101191ADDAA199000091GF107991071051017501999999KA1999M+03001MD1710051+9999MW1101REMSYN076AAXX  18181 59046 31758 70000 10240 20194 40119 57005 71000 875// 333 10300;EQDQ01  00002PRCP99
0124590460999992000091821004+24340+109390FM-12+009799999V0202701N001019999999N0080001N1+02301+01911101221ADDGF107991071001999999031999MD1210031+9999MW1101REMSYN066AAXX  18211 59046 41958 72701 10230 20191 40122 52003 71000 8703/;
0164590460999992000091900004+24340+109390FM-12+009799999V0202701N001019999999N0040001N1+02331+01861101391ADDAA199000091GF107991071001999999031999MD1210161+0021MW1101REMSYN076AAXX  19001 59046 31940 72701 10233 20186 40139 52016 71000 8703/ 333 00201;EQDQ01  00002PRCP99
0132590460999992000091903004+24340+109390FM-12+009799999V0209999C000010120019N0040001N1+02661+01911101451ADDAY161031GF108991081051012501999999MD1210061+9999MW1041REMSYN066AAXX  19031 59046 41640 80000 10266 20191 40145 52006 70460 885//;
0172590460999992000091906004+24340+109390FM-12+009799999V0201801N003010120019N0050001N1+02721+01961101311ADDAA106000791AY161061GF108991081051012501999999KA1999N+02271MD1710141+9999MW1601REMSYN082AAXX  19061 59046 11650 81803 10272 20196 40131 57014 69901 76060 885// 333 20227;
0132590460999992000091909004+24340+109390FM-12+009799999V0202001N002010075019N0050001N1+02801+01931101221ADDAY161031GF108991081051008001999999MD1710091+9999MW1601REMSYN066AAXX  19091 59046 41550 82002 10280 20193 40122 57009 76060 885//;
0149590460999992000091912004+24340+109390FM-12+009799999V0201601N002010120019N0050001N1+02661+02071101311ADDAA106000791AY161061GF108991081051012501999999MD1210091+9999MW1101REMSYN072AAXX  19121 59046 11650 81602 10266 20207 40131 52009 69901 71060 885//;
0172590460999992000091918004+24340+109390FM-12+009799999V0209999C000010120019N0050001N1+02481+02181101431ADDAA106000791AY161061GF108991081051012501999999KA1999M+02831MD1710021+9999MW1211REMSYN082AAXX  19181 59046 11650 80000 10248 20218 40143 57002 69901 72160 885// 333 10283;
0145590460999992000091921004+24340+109390FM-12+009799999V0209999C000010150019N0050001N1+02391+02151101391ADDAA124000791GF108991081051017501999999MD1710041+9999MW1101REMSYN076AAXX  19211 59046 41750 80000 10239 20215 40139 57004 71000 885// 333 79999;
0165590460999992000092000004+24340+109390FM-12+009799999V0201801N002010120019N0040001N1+02411+02171101551ADDAA106000791AY161061GF108991081051012501999999MD1210161+0201MW1101REMSYN088AAXX  20001 59046 11640 81802 10241 20217 40155 52016 69901 71060 885// 333 00201 79999;
0124590460999992000092003004+24340+109390FM-12+009799999V0209999C000010120019N0030001N1+02501+02191101581ADDGF108991081051012501999999MD1210031+9999MW1101REMSYN066AAXX  20031 59046 41630 80000 10250 20219 40158 52003 71000 885//;
0158590460999992000092006004+24340+109390FM-12+009799999V0200701N003010360019N0050001N1+02901+02061101341ADDAA199000021GF105991011011008001031001KA1999N+02381MD1710231+9999MW1041REMSYN076AAXX  20061 59046 31550 50703 10290 20206 40134 57023 70400 81130 333 20238;
0112590460999992000092009004+24340+109390FM-12+009799999V0200701N003010150019N0110001N1+02921+01881101271ADDGF107991071051017501999999MD1710071+9999REMSYN060AAXX  20091 59046 42761 70703 10292 20188 40127 57007 875//;
0154590460999992000092012004+24340+109390FM-12+009799999V0203201N001010120019N0080001N1+02661+02091101391ADDAA199000091GF108991081051012501999999MD1210111+9999MW1101REMSYN066AAXX  20121 59046 31658 83201 10266 20209 40139 52011 71000 885//;EQDQ01  00002PRCP99
0177590460999992000092018004+24340+109390FM-12+009799999V0200401N001010120019N0060001N1+02431+02031101521ADDAA199000091GF108991081051012501999999KA1999M+03041MD1210021+9999MW1101REMSYN076AAXX  20181 59046 31656 80401 10243 20203 40152 52002 71000 885// 333 10304;EQDQ01  00002PRCP99
0145590460999992000092021004+24340+109390FM-12+009799999V0200201N001010120019N0060001N1+02361+01961101511ADDAA124000791GF108991081051012501999999MD1710021+9999MW1101REMSYN076AAXX  20211 59046 41656 80201 10236 20196 40151 57002 71000 885// 333 79999;
0164590460999992000092100004+24340+109390FM-12+009799999V0200401N001010120019N0060001N1+02361+01931101651ADDAA199000091GF107991071051012501999999MD1210141+0011MW1101REMSYN076AAXX  21001 59046 31656 70401 10236 20193 40165 52014 71000 875// 333 00151;EQDQ01  00002PRCP99
0124590460999992000092103004+24340+109390FM-12+009799999V0209999C000012200019N0060001N1+02821+02041101671ADDGF102991021001999999031001MD1210021+9999MW1041REMSYN066AAXX  21031 59046 41956 20000 10282 20204 40167 52002 70400 82030;
0165590460999992000092106004+24340+109390FM-12+009799999V0202001N003012200019N0120001N1+03181+01981101421ADDAA199000091GF104991031011008001031001KA1999N+02321MD1710241+9999REMSYN070AAXX  21061 59046 32562 42003 10318 20198 40142 57024 83130 333 20232;EQDQ01  00002PRCP99
0124590460999992000092109004+24340+109390FM-12+009799999V0201601N003010120019N0100001N1+02991+02181101331ADDGF107991071091012501999999MD1710091+9999MW1251REMSYN066AAXX  21091 59046 41660 71603 10299 20218 40133 57009 72500 879//;
0149590460999992000092112004+24340+109390FM-12+009799999V0201601N001019999999N0050001N1+02741+02241101421ADDAA106000391AY181061GF106991061001999999031001MD1210081+9999MW1101REMSYN072AAXX  21121 59046 11950 61601 10274 20224 40142 52008 69931 71080 86030;
0168590460999992000092118004+24340+109390FM-12+009799999V0202901N001012200019N0050001N1+02441+02311101551ADDAA199000021GA1001+999999999GF100991001001999999001001KA1999M+03251MD1710031+9999MW1101REMSYN070AAXX  21181 59046 31950 02901 10244 20231 40155 57003 71000 333 10325;
0155590460999992000092121004+24340+109390FM-12+009799999V0203201N001012200019N0060001N1+02381+02261101511ADDAA124000391GA1001+999999999GF100991001001999999001001MD1710041+9999MW1101REMSYN070AAXX  21211 59046 41956 03201 10238 20226 40151 57004 71000 333 70003;
0151590460999992000092200004+24340+109390FM-12+009799999V0209999C000010120019N0030001N1+02481+02241101671ADDAA124000391GF108991081051012501999999MD1210151+0001MW1101REMSYN082AAXX  22001 59046 31630 80000 10248 20224 40167 52015 71000 885// 333 00001 70003;
0124590460999992000092203004+24340+109390FM-12+009799999V0202701N002019999999N0040001N1+02841+02291101681ADDGF107991071001999999031999MD1210011+9999MW1101REMSYN066AAXX  22031 59046 41940 72702 10284 20229 40168 52001 71000 8703/;
0177590460999992000092206004+24340+109390FM-12+009799999V0202501N002010360019N0060001N1+03121+02151101391ADDAA199000091GF107991021021008001031999KA1999N+02381MD1710281+9999MW1041REMSYN076AAXX  22061 59046 31556 72502 10312 20215 40139 57028 70400 8223/ 333 20238;EQDQ01  00002PRCP99
0124590460999992000092209004+24340+109390FM-12+009799999V0203401N001010900019N0060001N1+03101+02231101191ADDGF107991011011008001001081MD1710201+9999MW1041REMSYN066AAXX  22091 59046 41556 73401 10310 20223 40119 57020 70400 81108;
0164590460999992000092212004+24340+109390FM-12+009799999V0209999C000012200019N0060001N1+02881+02271101321ADDAA199000091GA1001+999999999GF100991001001999999001001MD1210131+9999MW1041REMSYN060AAXX  22121 59046 31956 00000 10288 20227 40132 52013 70400;EQDQ01  00002PRCP99
0187590460999992000092218004+24340+109390FM-12+009799999V0209999C000012200019N0060001N1+02661+02331101411ADDAA199000091GA1001+999999999GF100991001001999999001001KA1999M+03201MD1210011+9999MW1101REMSYN070AAXX  22181 59046 31956 00000 10266 20233 40141 52001 71000 333 10320;EQDQ01  00002PRCP99
0161590460999992000092221004+24340+109390FM-12+009799999V0201601N003010042019N0080001N1+02431+02211101421ADDAA124001391AY191031AY281031GF108991081091004501999999MD1210011+9999MW1951REMSYN076AAXX  22211 59046 41458 81603 10243 20221 40142 52001 79598 889// 333 70013;
0173590460999992000092300004+24340+109390FM-12+009799999V0209999C000010120019N0120001N1+02321+02201101521ADDAA106009991AY191061AY281061GF107991071081008001999999MD1210091-0201MW1251REMSYN088AAXX  23001 59046 11562 70000 10232 20220 40152 52009 60101 72598 878// 333 05252 70101;
0112590460999992000092303004+24340+109390FM-12+009799999V0200701N003010360019N0170001N1+02561+02271101621ADDGF107991011011008001031999MD1210101+9999REMSYN060AAXX  23031 59046 42567 70703 10256 20227 40162 52010 8113/;
0146590460999992000092306004+24340+109390FM-12+009799999V0200401N002010360019N0200001N1+03041+02321101241ADDAA199000021GF105991041021008001031001KA1999N+02251MD1710361+9999REMSYN070AAXX  23061 59046 32570 50402 10304 20232 40124 57036 84230 333 20225;
0112590460999992000092309004+24340+109390FM-12+009799999V0200901N002012200019N0300001N1+03141+02281100981ADDGF103991021011008001001021MD1710261+9999REMSYN060AAXX  23091 59046 42580 30902 10314 20228 40098 57026 82102;
0133590460999992000092312004+24340+109390FM-12+009799999V0201601N001012200019N0250001N1+02921+02311101041ADDAA199000021GA1001+999999999GF100991001001999999001001MD1210051+9999REMSYN054AAXX  23121 59046 32975 01601 10292 20231 40104 52005;
0175590460999992000092318004+24340+109390FM-12+009799999V0201601N001012200019N0120001N1+02651+02301101161ADDAA199000091GA1001+999999999GF100991001001999999001001KA1999M+03181MD1710051+9999REMSYN064AAXX  23181 59046 32962 01601 10265 20230 40116 57005 333 10318;EQDQ01  00002PRCP99
0133590460999992000092321004+24340+109390FM-12+009799999V0201801N002019999999N0110001N1+02581+02291101071ADDAA124008991GF106991061001999999031001MD1710091+9999REMSYN070AAXX  23211 59046 42961 61802 10258 20229 40107 57009 86030 333 70088;
0112590460999992000092403004+24340+109390FM-12+009799999V0201801N003010075019N0300001N1+02861+02231101251ADDGF107991061021008001031001MD1210011+9999REMSYN060AAXX  24031 59046 42580 71803 10286 20223 40125 52001 86230;
0165590460999992000092406004+24340+109390FM-12+009799999V0201801N003010075019N0300001N1+03181+02191100921ADDAA199000091GF106991061021008001031001KA1999N+02571MD1710321+9999REMSYN070AAXX  24061 59046 32580 61803 10318 20219 40092 57032 86230 333 20257;EQDQ01  00002PRCP99
0112590460999992000092409004+24340+109390FM-12+009799999V0201801N003012200019N0300001N1+03171+02111100681ADDGF103991021021008001031001MD1710241+9999REMSYN060AAXX  24091 59046 42580 31803 10317 20211 40068 57024 82230;
0142590460999992000092412004+24340+109390FM-12+009799999V0201601N002012200019N0200001N1+02971+02201100761ADDAA199000091GF101991011041008001001001MD1210081+9999REMSYN060AAXX  24121 59046 32570 11602 10297 20220 40076 52008 81400;EQDQ01  00002PRCP99
0165590460999992000092418004+24340+109390FM-12+009799999V0201801N002010360019N0200001N1+02741+02271100911ADDAA199000091GF106991011011008001031001KA1999M+03271MD1710011+9999REMSYN070AAXX  24181 59046 32570 61802 10274 20227 40091 57001 81130 333 10327;EQDQ01  00002PRCP99
0112590460999992000092421004+24340+109390FM-12+009799999V0201801N003010150019N0200001N1+02661+02221100881ADDGF107991071051017501999999MD1710031+9999REMSYN060AAXX  24211 59046 42770 71803 10266 20222 40088 57003 875//;
0152590460999992000092500004+24340+109390FM-12+009799999V0201801N003010120019N0300001N1+02661+02231101001ADDAA199000091GF107991071081008001031999MD1210121+0021REMSYN070AAXX  25001 59046 32580 71803 10266 20223 40100 52012 8783/ 333 05201;EQDQ01  00002PRCP99
0112590460999992000092503004+24340+109390FM-12+009799999V0202201N005010120019N0300001N1+02901+02281101071ADDGF107991071081008001999999MD1210071+9999REMSYN060AAXX  25031 59046 42580 72205 10290 20228 40107 52007 878//;
0165590460999992000092506004+24340+109390FM-12+009799999V0202001N004010075019N0300001N1+03171+02311100721ADDAA199000091GF107991061091008001031021KA1999N+02651MD1710351+9999REMSYN070AAXX  25061 59046 32580 72004 10317 20231 40072 57035 86932 333 20265;EQDQ01  00002PRCP99
0112590460999992000092509004+24340+109390FM-12+009799999V0202001N005010360019N0300001N1+03031+02181100691ADDGF107991021091008001031011MD1710031+9999REMSYN060AAXX  25091 59046 42580 72005 10303 20218 40069 57003 82931;
0142590460999992000092512004+24340+109390FM-12+009799999V0202201N002012200019N0300001N1+02861+02261100741ADDAA199000091GF105991011011008001001011MD1210051+9999REMSYN060AAXX  25121 59046 32580 52202 10286 20226 40074 52005 81101;EQDQ01  00002PRCP99
0165590460999992000092518004+24340+109390FM-12+009799999V0201801N002010150019N0250001N1+02581+02151100981ADDAA199000091GF107991071051017501999999KA1999M+03301MD1210011+9999REMSYN070AAXX  25181 59046 32775 71802 10258 20215 40098 52001 875// 333 10330;EQDQ01  00002PRCP99
0112590460999992000092521004+24340+109390FM-12+009799999V0201801N003010120019N0250001N1+02541+02171100901ADDGF107991071081008001999999MD1710081+9999REMSYN060AAXX  25211 59046 42575 71803 10254 20217 40090 57008 878//;
0152590460999992000092600004+24340+109390FM-12+009799999V0201801N002010120019N0250001N1+02561+02211101121ADDAA199000091GF107991071081008001999999MD1210211+0011REMSYN070AAXX  26001 59046 32575 71802 10256 20221 40112 52021 878// 333 00151;EQDQ01  00002PRCP99
0112590460999992000092603004+24340+109390FM-12+009799999V0201801N002010120019N0300001N1+02891+02251101191ADDGF107991071081008001999999MD1210071+9999REMSYN060AAXX  26031 59046 42580 71802 10289 20225 40119 52007 878//;
0165590460999992000092606004+24340+109390FM-12+009799999V0202001N003010075019N0300001N1+03141+02261100971ADDAA199000091GF107991071021008001031001KA1999N+02531MD1710211+9999REMSYN070AAXX  26061 59046 32580 72003 10314 20226 40097 57021 87230 333 20253;EQDQ01  00002PRCP99
0124590460999992000092609004+24340+109390FM-12+009799999V0202201N004010075019N0200001N1+03081+02221100911ADDGF108991081091008001999999MD1710061+9999MW1951REMSYN066AAXX  26091 59046 41570 82204 10308 20222 40091 57006 79500 889//;
0157590460999992000092612004+24340+109390FM-12+009799999V0200701N002010075019N0150001N1+02521+02331101031ADDAA106002091AY191061AY281061GF107991071091008001001001MD1210111+9999MW1251REMSYN072AAXX  26121 59046 11565 70702 10252 20233 40103 52011 60021 72598 87900;
0172590460999992000092618004+24340+109390FM-12+009799999V0202701N002010150019N0060001N1+02471+02351101081ADDAA106001091AY181061GF108991081051017501999999KA1999M+03261MD1710071+9999MW1101REMSYN082AAXX  26181 59046 11756 82702 10247 20235 40108 57007 60011 71080 885// 333 10326;
0153590460999992000092621004+24340+109390FM-12+009799999V0209999C000010150019N0060001N1+02461+02341101091ADDAA124002891AY161031GF108991081051017501999999MD1410001+9999MW1101REMSYN076AAXX  26211 59046 41756 80000 10246 20234 40109 54000 71060 885// 333 70029;
0165590460999992000092700004+24340+109390FM-12+009799999V0209999C000010360019N0020001N1+02491+02371101301ADDAA106000191AY161061GF107991021051017501031999MD1210201+0201MW1101REMSYN088AAXX  27001 59046 11720 70000 10249 20237 40130 52020 69911 71060 8253/ 333 00251 70029;
0124590460999992000092703004+24340+109390FM-12+009799999V0201801N002010075019N0100001N1+02741+02321101331ADDGF107991061091008001031999MD1210041+9999MW1801REMSYN066AAXX  27031 59046 41560 71802 10274 20232 40133 52004 78000 8693/;
0172590460999992000092706004+24340+109390FM-12+009799999V0202001N002012200019N0250001N1+03161+02031101051ADDAA106000191AY181061GF104991041021008001001001KA1999N+02401MD1710271+9999MW1001REMSYN082AAXX  27061 59046 11575 42002 10316 20203 40105 57027 69911 70080 84200 333 20240;
0112590460999992000092709004+24340+109390FM-12+009799999V0201601N003012200019N0300001N1+03261+01961100861ADDGF103991031021008001001001MD1710191+9999REMSYN060AAXX  27091 59046 42580 31603 10326 20196 40086 57019 83200;
0133590460999992000092712004+24340+109390FM-12+009799999V0201101N002012200019N0200001N1+02931+02081101021ADDAA199000021GA1001+999999999GF100991001001999999001001MD1210151+9999REMSYN054AAXX  27121 59046 32970 01102 10293 20208 40102 52015;
0165590460999992000092718004+24340+109390FM-12+009799999V0209999C000010150019N0150001N1+02541+02341101101ADDAA199000091GF107991071051017501999999KA1999M+03291MD1710011+9999REMSYN070AAXX  27181 59046 32765 70000 10254 20234 40110 57001 875// 333 10329;EQDQ01  00002PRCP99
0145590460999992000092721004+24340+109390FM-12+009799999V0201401N001010150019N0060001N1+02561+02271101151ADDAA124000191GF107991071051017501999999MD1210051+9999MW1101REMSYN076AAXX  27211 59046 41756 71401 10256 20227 40115 52005 71000 875// 333 70001;
0161590460999992000092800004+24340+109390FM-12+009799999V0201401N001012200019N0060001N1+02621+02251101301ADDAA124000191GA1001+999999999GF100991001001999999001001MD1210141+0001MW1101REMSYN076AAXX  28001 59046 31956 01401 10262 20225 40130 52014 71000 333 00001 70001;
0112590460999992000092803004+24340+109390FM-12+009799999V0202001N002012200019N0120001N1+03061+02151101311ADDGF102991021021008001001001MD1210021+9999REMSYN060AAXX  28031 59046 42562 22002 10306 20215 40131 52002 82200;
0165590460999992000092806004+24340+109390FM-12+009799999V0201801N003012200019N0250001N1+03271+02081101151ADDAA199000091GF104991041021008001001001KA1999N+02531MD1710161+9999REMSYN070AAXX  28061 59046 32575 41803 10327 20208 40115 57016 84200 333 20253;EQDQ01  00002PRCP99
0112590460999992000092809004+24340+109390FM-12+009799999V0202501N002012200019N0300001N1+03351+01851100961ADDGF102991021021008001001001MD1710191+9999REMSYN060AAXX  28091 59046 42580 22502 10335 20185 40096 57019 82200;
0142590460999992000092812004+24340+109390FM-12+009799999V0201801N003019999999N0250001N1+03121+01981101081ADDAA199000091GF105991051001999999031001MD1210121+9999REMSYN060AAXX  28121 59046 32975 51803 10312 20198 40108 52012 85030;EQDQ01  00002PRCP99
0165590460999992000092818004+24340+109390FM-12+009799999V0202001N003010150019N0200001N1+02771+02201101191ADDAA199000091GF107991071051017501999999KA1999M+03401MD1210021+9999REMSYN070AAXX  28181 59046 32770 72003 10277 20220 40119 52002 875// 333 10340;EQDQ01  00002PRCP99
0112590460999992000092821004+24340+109390FM-12+009799999V0201601N001010150019N0110001N1+02641+02261101191ADDGF107991071051017501999999MD1410001+9999REMSYN060AAXX  28211 59046 42761 71601 10264 20226 40119 54000 875//;
0164590460999992000092900004+24340+109390FM-12+009799999V0209999C000010150019N0060001N1+02671+02281101391ADDAA199000091GF108991081051017501999999MD1210201+0011MW1101REMSYN076AAXX  29001 59046 31756 80000 10267 20228 40139 52020 71000 885// 333 00101;EQDQ01  00002PRCP99
0112590460999992000092903004+24340+109390FM-12+009799999V0202701N002010360019N0200001N1+02961+02261101491ADDGF107991031021008001031999MD1210091+9999REMSYN060AAXX  29031 59046 42570 72702 10296 20226 40149 52009 8323/;
0165590460999992000092906004+24340+109390FM-12+009799999V0201801N002010075019N0300001N1+03251+02221101201ADDAA199000091GF107991051021008001031001KA1999N+02631MD1710281+9999REMSYN070AAXX  29061 59046 32580 71802 10325 20222 40120 57028 85230 333 20263;EQDQ01  00002PRCP99
0112590460999992000092909004+24340+109390FM-12+009799999V0201401N003012200019N0300001N1+03221+02141101011ADDGF104991041021008001001001MD1710191+9999REMSYN060AAXX  29091 59046 42580 41403 10322 20214 40101 57019 84200;
0142590460999992000092912004+24340+109390FM-12+009799999V0201801N002012200019N0300001N1+03091+02231101101ADDAA199000091GF103991031051017501001001MD1210091+9999REMSYN060AAXX  29121 59046 32780 31802 10309 20223 40110 52009 83500;EQDQ01  00002PRCP99
0172590460999992000092918004+24340+109390FM-12+009799999V0209999C000010150019N0180001N1+02761+02361101261ADDAA106000791AY181061GF106991061051017501001001KA1999M+03361MD1710011+9999MW1001REMSYN082AAXX  29181 59046 11768 60000 10276 20236 40126 57001 69901 70080 86500 333 10336;
0133590460999992000092921004+24340+109390FM-12+009799999V0201801N001012200019N0150001N1+02721+02291101301ADDAA124000791GF104991041051017501001001MD1210041+9999REMSYN070AAXX  29211 59046 42765 41801 10272 20229 40130 52004 84500 333 79999;
0139590460999992000093000004+24340+109390FM-12+009799999V0209999C000012200019N0150001N1+02721+02331101471ADDAA124000791GF102991011011008001031001MD1210171+0101REMSYN076AAXX  30001 59046 32565 20000 10272 20233 40147 52017 81130 333 00101 79999;
0112590460999992000093003004+24340+109390FM-12+009799999V0202201N003010075019N0300001N1+02961+02261101471ADDGF106991051021008001031011MD1410001+9999REMSYN060AAXX  30031 59046 42580 62203 10296 20226 40147 54000 85231;
0165590460999992000093006004+24340+109390FM-12+009799999V0202001N003010075019N0300001N1+03381+02231101241ADDAA199000091GF105991051021008001001001KA1999N+02661MD1710221+9999REMSYN070AAXX  30061 59046 32580 52003 10338 20223 40124 57022 85200 333 20266;EQDQ01  00002PRCP99
0112590460999992000093009004+24340+109390FM-12+009799999V0202501N002012200019N0300001N1+03331+02111101081ADDGF103991021091008001031001MD1710161+9999REMSYN060AAXX  30091 59046 42580 32502 10333 20211 40108 57016 82930;
0152590460999992000093012004+24340+109390FM-12+009799999V0200701N002012200019N0300001N1+03111+02221101201ADDAA199000091GA1001+999999999GF100991001001999999001001MD1210121+9999REMSYN054AAXX  30121 59046 32980 00702 10311 20222 40120 52012;EQDQ01  00002PRCP99
0165590460999992000093018004+24340+109390FM-12+009799999V0209999C000012200019N0150001N1+02681+02351101381ADDAA199000091GF103991031001999999031001KA1999M+03431MD1410001+9999REMSYN070AAXX  30181 59046 32965 30000 10268 20235 40138 54000 83030 333 10343;EQDQ01  00002PRCP99
0153590460999992000093021004+24340+109390FM-12+009799999V0201401N002010075019N0150001N1+02681+02301101401ADDAA124000191AY181031GF107991071091008001999999MD1210021+9999MW1131REMSYN076AAXX  30211 59046 41565 71402 10268 20230 40140 52002 71380 879// 333 70001;
0165590460999992000100100004+24340+109390FM-12+009799999V0201601N002010150019N0250001N1+02721+02251101551ADDAA106000191AY181061GF107991071051017501999999MD1210141+0101MW1001REMSYN088AAXX  01001 59046 11775 71602 10272 20225 40155 52014 69911 70080 875// 333 00100 70001;
0112590460999992000100103004+24340+109390FM-12+009799999V0202001N002010900019N0300001N1+02881+02271101541ADDGF106991021011008001001021MD1710011+9999REMSYN060AAXX  01031 59046 42580 62002 10288 20227 40154 57001 82102;
0165590460999992000100106004+24340+109390FM-12+009799999V0201801N004010360019N0300001N1+03261+02031101261ADDAA199000091GF106991021021008001031011KA1999N+02631MD1710271+9999REMSYN070AAXX  01061 59046 32580 61804 10326 20203 40126 57027 82231 333 20263;EQDQ01  00002PRCP99
0112590460999992000100109004+24340+109390FM-12+009799999V0202501N003012200019N0300001N1+03321+02051101051ADDGF103991021021008001001011MD1710211+9999REMSYN060AAXX  01091 59046 42580 32503 10332 20205 40105 57021 82201;
0152590460999992000100112004+24340+109390FM-12+009799999V0201601N001012200019N0250001N1+03081+02211101131ADDAA199000091GA1001+999999999GF100991001001999999001001MD1210081+9999REMSYN054AAXX  01121 59046 32975 01601 10308 20221 40113 52008;EQDQ01  00002PRCP99
0175590460999992000100118004+24340+109390FM-12+009799999V0201801N003012200019N0200001N1+02801+02121101251ADDAA199000091GA1001+999999999GF100991001001999999001001KA1999M+03421MD1710011+9999REMSYN064AAXX  01181 59046 32970 01803 10280 20212 40125 57001 333 10342;EQDQ01  00002PRCP99
0112590460999992000100121004+24340+109390FM-12+009799999V0202001N002010150019N0200001N1+02731+02201101251ADDGF107991071051017501999999MD1410001+9999REMSYN060AAXX  01211 59046 42770 72002 10273 20220 40125 54000 875//;
0152590460999992000100200004+24340+109390FM-12+009799999V0202201N002010150019N0250001N1+02701+02261101351ADDAA199000091GF107991071051017501031999MD1210101+0021REMSYN070AAXX  02001 59046 32775 72202 10270 20226 40135 52010 8753/ 333 05200;EQDQ01  00002PRCP99
0112590460999992000100203004+24340+109390FM-12+009799999V0202201N003010120019N0300001N1+02961+02051101351ADDGF107991061081008001031999MD1410001+9999REMSYN060AAXX  02031 59046 42580 72203 10296 20205 40135 54000 8683/;
0165590460999992000100206004+24340+109390FM-12+009799999V0202701N003010120019N0300001N1+03221+02241101031ADDAA199000091GF106991061081008001001011KA1999N+02661MD1710321+9999REMSYN070AAXX  02061 59046 32580 62703 10322 20224 40103 57032 86801 333 20266;EQDQ01  00002PRCP99
0112590460999992000100209004+24340+109390FM-12+009799999V0201801N003010360019N0300001N1+03261+02201100861ADDGF105991041021008001031001MD1710171+9999REMSYN060AAXX  02091 59046 42580 51803 10326 20220 40086 57017 84230;
0142590460999992000100212004+24340+109390FM-12+009799999V0201601N002012200019N0300001N1+03121+02221100951ADDAA199000091GF103991011001999999031011MD1210091+9999REMSYN060AAXX  02121 59046 32980 31602 10312 20222 40095 52009 81031;EQDQ01  00002PRCP99
0177590460999992000100218004+24340+109390FM-12+009799999V0203401N001010120019N0250001N1+02861+02251101131ADDAA199000091GF108991081091012501999999KA1999M+03411MD1210051+9999MW1131REMSYN076AAXX  02181 59046 31675 83401 10286 20225 40113 52005 71300 889// 333 10341;EQDQ01  00002PRCP99
0161590460999992000100221004+24340+109390FM-12+009799999V0203201N002010120019N0120001N1+02401+02281101151ADDAA124000891AY191031AY281031GF108991081091012501999999MD1210021+9999MW1951REMSYN076AAXX  02211 59046 41662 83202 10240 20228 40115 52002 79598 889// 333 70007;
0173590460999992000100300004+24340+109390FM-12+009799999V0202701N001010042019N0080001N1+02361+02261101341ADDAA106010991AY191061AY281061GF108991081091004501999999MD1210181+0001MW1801REMSYN088AAXX  03001 59046 11458 82701 10236 20226 40134 52018 60111 78098 889// 333 00053 70110;
0132590460999992000100303004+24340+109390FM-12+009799999V0203601N003010120019N0200001N1+02481+02141101411ADDAY181031GF108991081081008001999999MD1210071+9999MW1001REMSYN066AAXX  03031 59046 41570 83603 10248 20214 40141 52007 70080 888//;
0172590460999992000100306004+24340+109390FM-12+009799999V0200401N003010120019N0300001N1+02451+02121101251ADDAA106000191AY181061GF108991081081008001999999KA1999N+02321MD1710161+9999MW1001REMSYN082AAXX  03061 59046 11580 80403 10245 20212 40125 57016 69911 70080 888// 333 20232;
0112590460999992000100309004+24340+109390FM-12+009799999V0200701N002010120019N0300001N1+02561+02111101121ADDGF108991081081008001999999MD1710141+9999REMSYN060AAXX  03091 59046 42580 80702 10256 20211 40112 57014 888//;
0123590460999992000100312004+24340+109390FM-12+009799999V0200401N002012200019N0250001N1+02421+01931101231ADDAA199000021GF102991021001999999031001MD1210111+9999REMSYN060AAXX  03121 59046 32975 20402 10242 20193 40123 52011 82030;
0165590460999992000100318004+24340+109390FM-12+009799999V0200201N001010150019N0250001N1+02261+01951101291ADDAA199000091GF108991081051017501999999KA1999M+02861MD1710071+9999REMSYN070AAXX  03181 59046 32775 80201 10226 20195 40129 57007 885// 333 10286;EQDQ01  00002PRCP99
0133590460999992000100321004+24340+109390FM-12+009799999V0200401N002010150019N0200001N1+02231+01901101291ADDAA124010491GF107991071051017501999999MD1410001+9999REMSYN070AAXX  03211 59046 42770 70402 10223 20190 40129 54000 875// 333 70104;
0151590460999992000100400004+24340+109390FM-12+009799999V0203401N001010150019N0080001N1+02201+01951101371ADDAA124000191GF108991081051017501999999MD1210071+0001MW1101REMSYN082AAXX  04001 59046 31758 83401 10220 20195 40137 52007 71000 885// 333 00052 70001;
0112590460999992000100403004+24340+109390FM-12+009799999V0203401N002010120019N0150001N1+02421+01941101471ADDGF108991081081008001999999MD1210101+9999REMSYN060AAXX  04031 59046 42565 83402 10242 20194 40147 52010 888//;
0165590460999992000100406004+24340+109390FM-12+009799999V0200401N003010120019N0200001N1+02501+01951101241ADDAA199000091GF108991081081008001999999KA1999N+02191MD1710221+9999REMSYN070AAXX  04061 59046 32570 80403 10250 20195 40124 57022 888// 333 20219;EQDQ01  00002PRCP99
0124590460999992000100409004+24340+109390FM-12+009799999V0203401N001010120019N0080001N1+02401+02071101191ADDGF108991081091012501999999MD1710051+9999MW1801REMSYN066AAXX  04091 59046 41658 83401 10240 20207 40119 57005 78000 889//;
0149590460999992000100412004+24340+109390FM-12+009799999V0200201N002010120019N0200001N1+02241+02031101361ADDAA106000791AY181061GF108991081081008001999999MD1210161+9999MW1001REMSYN072AAXX  04121 59046 11570 80202 10224 20203 40136 52016 69901 70080 888//;
0172590460999992000100418004+24340+109390FM-12+009799999V0203401N001010120019N0150001N1+02151+01931101441ADDAA106000791AY161061GF108991081051012501999999KA1999M+02561MD1710081+9999MW1001REMSYN082AAXX  04181 59046 11665 83401 10215 20193 40144 57008 69901 70060 885// 333 10256;
0133590460999992000100421004+24340+109390FM-12+009799999V0203601N001010150019N0150001N1+02161+01881101381ADDAA124000791GF108991081051017501999999MD1710061+9999REMSYN070AAXX  04211 59046 42765 83601 10216 20188 40138 57006 885// 333 79999;
0139590460999992000100500004+24340+109390FM-12+009799999V0200401N002010150019N0180001N1+02211+01881101521ADDAA124000791GF108991081051017501999999MD1210141+0201REMSYN076AAXX  05001 59046 32768 80402 10221 20188 40152 52014 885// 333 00200 79999;
0112590460999992000100503004+24340+109390FM-12+009799999V0203401N001010120019N0250001N1+02371+01921101601ADDGF108991081081008001999999MD1210081+9999REMSYN060AAXX  05031 59046 42575 83401 10237 20192 40160 52008 888//;
0164590460999992000100506004+24340+109390FM-12+009799999V0202901N002010075019N0200001N1+02361+02021101411ADDAA106000791GF108991081091008001999999KA1999N+02141MD1710191+9999MW1801REMSYN082AAXX  05061 59046 11570 82902 10236 20202 40141 57019 69901 78000 889// 333 20214;
0132590460999992000100509004+24340+109390FM-12+009799999V0202501N001010120019N0250001N1+02421+01991101341ADDAY181031GF108991081081008001999999MD1710071+9999MW1001REMSYN066AAXX  05091 59046 41575 82501 10242 20199 40134 57007 70080 888//;
0149590460999992000100512004+24340+109390FM-12+009799999V0200201N001010120019N0200001N1+02341+01991101471ADDAA106000391AY181061GF108991081051012501999999MD1210131+9999MW1001REMSYN072AAXX  05121 59046 11670 80201 10234 20199 40147 52013 69931 70080 885//;
0172590460999992000100518004+24340+109390FM-12+009799999V0203401N001010120019N0150001N1+02261+02001101531ADDAA106000791AY181061GF108991081091012501999999KA1999M+02501MD1710021+9999MW1801REMSYN082AAXX  05181 59046 11665 83401 10226 20200 40153 57002 69901 78080 889// 333 10250;
0145590460999992000100521004+24340+109390FM-12+009799999V0200201N001010120019N0150001N1+02211+02011101431ADDAA124000391GF108991081091012501999999MD1710101+9999MW1801REMSYN076AAXX  05211 59046 41665 80201 10221 20201 40143 57010 78000 889// 333 70003;
0165590460999992000100600004+24340+109390FM-12+009799999V0209999C000010042019N0150001N1+02221+02001101591ADDAA106000791AY181061GF108991081091004501999999MD1210161+0101MW1801REMSYN088AAXX  06001 59046 11465 80000 10222 20200 40159 52016 69901 78080 889// 333 00100 70003;
0132590460999992000100603004+24340+109390FM-12+009799999V0203201N001010120019N0150001N1+02341+02051101691ADDAY181031GF108991081081008001999999MD1210101+9999MW1001REMSYN066AAXX  06031 59046 41565 83201 10234 20205 40169 52010 70080 888//;
0172590460999992000100606004+24340+109390FM-12+009799999V0209999C000010042019N0020001N1+02271+02131101491ADDAA106003091AY181061GF108991081091004501999999KA1999N+02201MD1710201+9999MW1801REMSYN082AAXX  06061 59046 11420 80000 10227 20213 40149 57020 60031 78080 889// 333 20220;
0132590460999992000100609004+24340+109390FM-12+009799999V0200401N002010120019N0060001N1+02381+02171101371ADDAY181031GF107991071081008001999999MD1710121+9999MW1101REMSYN066AAXX  06091 59046 41556 70402 10238 20217 40137 57012 71080 878//;
0157590460999992000100612004+24340+109390FM-12+009799999V0200701N001010150019N0120001N1+02301+02151101361ADDAA106004191AY181061AY261061GF107991071051017501999999MD1710011+9999MW1001REMSYN072AAXX  06121 59046 11762 70701 10230 20215 40136 57001 60041 70086 875//;
0168590460999992000100618004+24340+109390FM-12+009799999V0209999C000012200019N0060001N1+02171+02091101391ADDAA199000021GA1001+999999999GF100991001001999999001001KA1999M+02411MD1710021+9999MW1101REMSYN070AAXX  06181 59046 31956 00000 10217 20209 40139 57002 71000 333 10241;
0145590460999992000100621004+24340+109390FM-12+009799999V0209999C000010150019N0020001N1+02161+02131101391ADDAA124006691GF107991071051017501999999MD1410001+9999MW1101REMSYN076AAXX  06211 59046 41720 70000 10216 20213 40139 54000 71000 875// 333 70067;
0151590460999992000100700004+24340+109390FM-12+009799999V0200401N001010120019N0020001N1+02151+02101101551ADDAA124006691GF108991081051012501999999MD1210161+0001MW1101REMSYN082AAXX  07001 59046 31620 80401 10215 20210 40155 52016 71000 885// 333 00051 70067;
0124590460999992000100703004+24340+109390FM-12+009799999V0200901N002010360019N0030001N1+02501+02161101551ADDGF107991011011008001031999MD1410001+9999MW1101REMSYN066AAXX  07031 59046 41530 70902 10250 20216 40155 54000 71000 8113/;
0165590460999992000100706004+24340+109390FM-12+009799999V0203401N003010075019N0130001N1+02841+02131101211ADDAA199000091GF105991051021008001001001KA1999N+02141MD1710331+9999REMSYN070AAXX  07061 59046 32563 53403 10284 20213 40121 57033 85200 333 20214;EQDQ01  00002PRCP99
0124590460999992000100709004+24340+109390FM-12+009799999V0200401N002012200019N0080001N1+02921+02151101021ADDGF102991021011008001001001MD1710181+9999MW1041REMSYN066AAXX  07091 59046 41558 20402 10292 20215 40102 57018 70400 82100;
0152590460999992000100712004+24340+109390FM-12+009799999V0209999C000012200019N0120001N1+02661+02271101131ADDAA199000091GA1001+999999999GF100991001001999999001001MD1210101+9999REMSYN054AAXX  07121 59046 32962 00000 10266 20227 40113 52010;EQDQ01  00002PRCP99
0124590460999992000100721004+24340+109390FM-12+009799999V0202701N001012200019N0030001N1+02281+02191101171ADDGF103991031001999999031001MD1710041+9999MW1101REMSYN066AAXX  07211 59046 41930 32701 10228 20219 40117 57004 71000 83030;
0164590460999992000100800004+24340+109390FM-12+009799999V0209999C000019999999N0040001N1+02341+02191101261ADDAA199000091GF107991071001999999031999MD1210081+0031MW1101REMSYN076AAXX  08001 59046 31940 70000 10234 20219 40126 52008 71000 8703/ 333 05302;EQDQ01  00002PRCP99
0124590460999992000100803004+24340+109390FM-12+009799999V0203201N001012200019N0080001N1+02861+02281101191ADDGF101991011011008001001001MD1710061+9999MW1101REMSYN066AAXX  08031 59046 41558 13201 10286 20228 40119 57006 71000 81100;
0177590460999992000100806004+24340+109390FM-12+009799999V0202201N001012200019N0080001N1+03211+02121100831ADDAA199000091GF103991031021008001001001KA1999N+02261MD1710351+9999MW1041REMSYN076AAXX  08061 59046 31558 32201 10321 20212 40083 57035 70400 83200 333 20226;EQDQ01  00002PRCP99
0112590460999992000100809004+24340+109390FM-12+009799999V0209999C000012200019N0120001N1+03231+02121100691ADDGF101991011011008001001001MD1710141+9999REMSYN060AAXX  08091 59046 42562 10000 10323 20212 40069 57014 81100;
0152590460999992000100812004+24340+109390FM-12+009799999V0209999C000012200019N0100001N1+02931+02251100821ADDAA199000091GA1001+999999999GF100991001001999999001001MD1210121+9999REMSYN054AAXX  08121 59046 32960 00000 10293 20225 40082 52012;EQDQ01  00002PRCP99
0187590460999992000100818004+24340+109390FM-12+009799999V0209999C000012200019N0060001N1+02481+02301100921ADDAA199000091GA1001+999999999GF100991001001999999001001KA1999M+03301MD1710021+9999MW1101REMSYN070AAXX  08181 59046 31956 00000 10248 20230 40092 57002 71000 333 10330;EQDQ01  00002PRCP99
0134590460999992000100821004+24340+109390FM-12+009799999V0209999C000012200019N0060001N1+02421+02271100941ADDGA1001+999999999GF100991001001999999001001MD1210021+9999MW1101REMSYN060AAXX  08211 59046 41956 00000 10242 20227 40094 52002 71000;
0174590460999992000100900004+24340+109390FM-12+009799999V0209999C000012200019N0040001N1+02431+02301101161ADDAA199000091GA1001+999999999GF100991001001999999001001MD1210211+0011MW1101REMSYN070AAXX  09001 59046 31940 00000 10243 20230 40116 52021 71000 333 05101;EQDQ01  00002PRCP99
0124590460999992000100903004+24340+109390FM-12+009799999V0202201N002012200019N0080001N1+02981+02351101171ADDGF101991011011008001001001MD1210021+9999MW1041REMSYN066AAXX  09031 59046 41558 12202 10298 20235 40117 52002 70400 81100;
0165590460999992000100906004+24340+109390FM-12+009799999V0202001N001012200019N0150001N1+03291+02141100831ADDAA199000091GF102991021011008001001001KA1999N+02371MD1710341+9999REMSYN070AAXX  09061 59046 32565 22001 10329 20214 40083 57034 82100 333 20237;EQDQ01  00002PRCP99
0112590460999992000100909004+24340+109390FM-12+009799999V0202501N001012200019N0200001N1+03341+02131100671ADDGF101991011011008001001001MD1710161+9999REMSYN060AAXX  09091 59046 42570 12501 10334 20213 40067 57016 81100;
0142590460999992000100912004+24340+109390FM-12+009799999V0209999C000019999999N0200001N1+03051+02221100801ADDAA199000091GF107991071001999999031999MD1210131+9999REMSYN060AAXX  09121 59046 32970 70000 10305 20222 40080 52013 8703/;EQDQ01  00002PRCP99
0187590460999992000100918004+24340+109390FM-12+009799999V0209999C000012200019N0060001N1+02581+02381100921ADDAA199000091GA1001+999999999GF100991001001999999001001KA1999M+03411MD1710011+9999MW1101REMSYN070AAXX  09181 59046 31956 00000 10258 20238 40092 57001 71000 333 10341;EQDQ01  00002PRCP99
0134590460999992000100921004+24340+109390FM-12+009799999V0209999C000012200019N0040001N1+02491+02331100931ADDGA1001+999999999GF100991001001999999001001MD1210011+9999MW1101REMSYN060AAXX  09211 59046 41940 00000 10249 20233 40093 52001 71000;
0174590460999992000101000004+24340+109390FM-12+009799999V0209999C000012200019N0040001N1+02491+02331101091ADDAA199000091GA1001+999999999GF100991001001999999001001MD1210151+0011MW1101REMSYN070AAXX  10001 59046 31940 00000 10249 20233 40109 52015 71000 333 05101;EQDQ01  00002PRCP99
0134590460999992000101003004+24340+109390FM-12+009799999V0202701N001012200019N0060001N1+03061+02311101121ADDGA1001+999999999GF100991001001999999001001MD1210041+9999MW1041REMSYN060AAXX  10031 59046 41956 02701 10306 20231 40112 52004 70400;
0165590460999992000101006004+24340+109390FM-12+009799999V0203201N001012200019N0200001N1+03301+02221100821ADDAA199000091GF103991031021008001001001KA1999N+02431MD1710301+9999REMSYN070AAXX  10061 59046 32570 33201 10330 20222 40082 57030 83200 333 20243;EQDQ01  00002PRCP99
0112590460999992000101009004+24340+109390FM-12+009799999V0200901N002012200019N0200001N1+03361+02071100691ADDGF101991011011008001001001MD1710131+9999REMSYN060AAXX  10091 59046 42570 10902 10336 20207 40069 57013 81100;
0142590460999992000101012004+24340+109390FM-12+009799999V0201401N002012200019N0150001N1+03111+02161100871ADDAA199000091GF101991011001999999031001MD1210181+9999REMSYN060AAXX  10121 59046 32965 11402 10311 20216 40087 52018 81030;EQDQ01  00002PRCP99
0175590460999992000101018004+24340+109390FM-12+009799999V0209999C000012200019N0100001N1+02611+02291100981ADDAA199000091GA1001+999999999GF100991001001999999001001KA1999M+03441MD1710021+9999REMSYN064AAXX  10181 59046 32960 00000 10261 20229 40098 57002 333 10344;EQDQ01  00002PRCP99
0122590460999992000101021004+24340+109390FM-12+009799999V0202701N002012200019N0100001N1+02381+02231101001ADDGA1001+999999999GF100991001001999999001001MD1210021+9999REMSYN054AAXX  10211 59046 42960 02702 10238 20223 40100 52002;
0174590460999992000101100004+24340+109390FM-12+009799999V0209999C000012200019N0040001N1+02441+02311101161ADDAA199000091GA1001+999999999GF100991001001999999001001MD1210151+0011MW1101REMSYN070AAXX  11001 59046 31940 00000 10244 20231 40116 52015 71000 333 00151;EQDQ01  00002PRCP99
0134590460999992000101103004+24340+109390FM-12+009799999V0200901N002012200019N0080001N1+03081+02171101171ADDGA1001+999999999GF100991001001999999001001MD1210021+9999MW1041REMSYN060AAXX  11031 59046 41958 00902 10308 20217 40117 52002 70400;
0165590460999992000101106004+24340+109390FM-12+009799999V0203201N002012200019N0180001N1+03351+02021100941ADDAA199000091GF104991041021008001001001KA1999N+02371MD1710231+9999REMSYN070AAXX  11061 59046 32568 43202 10335 20202 40094 57023 84200 333 20237;EQDQ01  00002PRCP99
0112590460999992000101109004+24340+109390FM-12+009799999V0200701N003010075019N0250001N1+03391+01981100831ADDGF106991051021008001031001MD1710111+9999REMSYN060AAXX  11091 59046 42575 60703 10339 20198 40083 57011 85230;
0142590460999992000101112004+24340+109390FM-12+009799999V0200901N002010360019N0150001N1+03081+02161100991ADDAA199000091GF105991021011008001031001MD1210151+9999REMSYN060AAXX  11121 59046 32565 50902 10308 20216 40099 52015 82130;EQDQ01  00002PRCP99
0175590460999992000101118004+24340+109390FM-12+009799999V0200201N001012200019N0120001N1+02701+02181101081ADDAA199000091GA1001+999999999GF100991001001999999001001KA1999M+03441MD1710061+9999REMSYN064AAXX  11181 59046 32962 00201 10270 20218 40108 57006 333 10344;EQDQ01  00002PRCP99
0122590460999992000101121004+24340+109390FM-12+009799999V0200701N003012200019N0100001N1+02601+02111101161ADDGA1001+999999999GF100991001001999999001001MD1210081+9999REMSYN054AAXX  11211 59046 42960 00703 10260 20211 40116 52008;
0162590460999992000101200004+24340+109390FM-12+009799999V0200401N004012200019N0200001N1+02461+01781101441ADDAA199000091GA1001+999999999GF100991001001999999001001MD1210271+0031REMSYN064AAXX  12001 59046 32970 00404 10246 20178 40144 52027 333 00300;EQDQ01  00002PRCP99
0112590460999992000101203004+24340+109390FM-12+009799999V0200701N006012200019N0250001N1+02721+01741101471ADDGF102991021011008001001001MD1210031+9999REMSYN060AAXX  12031 59046 42575 20706 10272 20174 40147 52003 82100;
0135590460999992000101206004+24340+109390FM-12+009799999V0200401N004012200019N0300001N1+02881+01681101271ADDGF103991031011008001001001KA1999N+02451MD1710201+9999REMSYN070AAXX  12061 59046 42580 30404 10288 20168 40127 57020 83100 333 20245;
0122590460999992000101209004+24340+109390FM-12+009799999V0203601N004012200019N0300001N1+02481+01571101271ADDGA1001+999999999GF100991001001999999001001MD1710011+9999REMSYN054AAXX  12091 59046 42980 03604 10248 20157 40127 57001;
0152590460999992000101212004+24340+109390FM-12+009799999V0203401N003012200019N0300001N1+02061+01451101521ADDAA199000091GA1001+999999999GF100991001001999999001001MD1210241+9999REMSYN054AAXX  12121 59046 32980 03403 10206 20145 40152 52024;EQDQ01  00002PRCP99
0165590460999992000101218004+24340+109390FM-12+009799999V0203601N003010150019N0200001N1+01921+01331101601ADDAA199000091GF107991071051017501999999KA1999M+02931MD1710041+9999REMSYN070AAXX  12181 59046 32770 73603 10192 20133 40160 57004 875// 333 10293;EQDQ01  00002PRCP99
0112590460999992000101221004+24340+109390FM-12+009799999V0200401N004010150019N0200001N1+01891+01251101561ADDGF108991081051017501999999MD1710041+9999REMSYN060AAXX  12211 59046 42770 80404 10189 20125 40156 57004 885//;
0152590460999992000101300004+24340+109390FM-12+009799999V0203201N003010120019N0300001N1+01801+01151101751ADDAA199000091GF107991061081008001031999MD1210171+0031REMSYN070AAXX  13001 59046 32580 73203 10180 20115 40175 52017 8683/ 333 00357;EQDQ01  00002PRCP99
0112590460999992000101303004+24340+109390FM-12+009799999V0203401N004010120019N0300001N1+01961+01171101781ADDGF108991081081008001999999MD1210041+9999REMSYN060AAXX  13031 59046 42580 83404 10196 20117 40178 52004 888//;
0165590460999992000101306004+24340+109390FM-12+009799999V0203201N004010120019N0300001N1+02141+01231101491ADDAA199000091GF108991081081008001999999KA1999N+01781MD1710291+9999REMSYN070AAXX  13061 59046 32580 83204 10214 20123 40149 57029 888// 333 20178;EQDQ01  00002PRCP99
0112590460999992000101309004+24340+109390FM-12+009799999V0202701N003010120019N0300001N1+02081+01191101411ADDGF108991081081008001999999MD1710081+9999REMSYN060AAXX  13091 59046 42580 82703 10208 20119 40141 57008 888//;
0142590460999992000101312004+24340+109390FM-12+009799999V0203401N003010150019N0300001N1+01801+01101101641ADDAA199000091GF108991081051017501999999MD1210221+9999REMSYN060AAXX  13121 59046 32780 83403 10180 20110 40164 52022 885//;EQDQ01  00002PRCP99
0172590460999992000101318004+24340+109390FM-12+009799999V0200701N002010042019N0080001N1+01431+01211101771ADDAA106002091AY161061GF108991081051004501999999KA1999M+02211MD1710021+9999MW1601REMSYN082AAXX  13181 59046 11458 80702 10143 20121 40177 57002 60021 76060 885// 333 10221;
0161590460999992000101321004+24340+109390FM-12+009799999V0203601N001010042019N0040001N1+01361+01211101761ADDAA124003891AY161031AY261031GF108991081051004501999999MD1710011+9999MW1601REMSYN076AAXX  13211 59046 41440 83601 10136 20121 40176 57001 76066 885// 333 70039;
0173590460999992000101400004+24340+109390FM-12+009799999V0203201N002010042019N0030001N1+01311+01141101961ADDAA106005191AY161061AY261061GF108991081051004501999999MD1210191+0201MW1601REMSYN088AAXX  14001 59046 11430 83202 10131 20114 40196 52019 60051 76066 885// 333 00255 70063;
0140590460999992000101403004+24340+109390FM-12+009799999V0203401N003010042019N0030001N1+01361+01151102061ADDAY161031AY261031GF108991081051004501999999MD1210091+9999MW1601REMSYN066AAXX  14031 59046 41430 83403 10136 20115 40206 52009 76066 885//;
0180590460999992000101406004+24340+109390FM-12+009799999V0203601N003010042019N0040001N1+01371+01201101791ADDAA106002091AY161061AY261061GF108991081071004501999999KA1999N+01301MD1710271+9999MW1601REMSYN082AAXX  14061 59046 11440 83603 10137 20120 40179 57027 60021 76066 887// 333 20130;
0140590460999992000101409004+24340+109390FM-12+009799999V0203401N003010042019N0040001N1+01371+01281101761ADDAY161031AY261031GF108991081071004501999999MD1710031+9999MW1601REMSYN066AAXX  14091 59046 41440 83403 10137 20128 40176 57003 76066 887//;
0157590460999992000101412004+24340+109390FM-12+009799999V0203201N003010042019N0040001N1+01341+01211101921ADDAA106007191AY161061AY261061GF108991081071004501999999MD1210161+9999MW1601REMSYN072AAXX  14121 59046 11440 83203 10134 20121 40192 52016 60071 76066 887//;
0180590460999992000101418004+24340+109390FM-12+009799999V0203201N002010042019N0050001N1+01321+01211101931ADDAA106003091AY161061AY261061GF108991081071004501999999KA1999M+01431MD1710091+9999MW1601REMSYN082AAXX  14181 59046 11450 83202 10132 20121 40193 57009 60031 76066 887// 333 10143;
0161590460999992000101421004+24340+109390FM-12+009799999V0203201N003010042019N0030001N1+01311+01221101891ADDAA124015091AY161031AY261031GF108991081071004501999999MD1710041+9999MW1601REMSYN076AAXX  14211 59046 41430 83203 10131 20122 40189 57004 76066 887// 333 70150;
0173590460999992000101500004+24340+109390FM-12+009799999V0203401N004010042019N0250001N1+01351+01201102081ADDAA106003091AY161061AY261061GF108991081051004501999999MD1210191+0101MW1601REMSYN088AAXX  15001 59046 11475 83404 10135 20120 40208 52019 60031 76066 885// 333 00100 70141;
0140590460999992000101503004+24340+109390FM-12+009799999V0203201N002010042019N0300001N1+01461+01281102211ADDAY161031AY261031GF108991081051004501999999MD1210131+9999MW1601REMSYN066AAXX  15031 59046 41480 83202 10146 20128 40221 52013 76066 885//;
0180590460999992000101506004+24340+109390FM-12+009799999V0203401N004010042019N0080001N1+01461+01331102021ADDAA106005191AY161061AY261061GF108991081071004501999999KA1999N+01311MD1710191+9999MW1601REMSYN082AAXX  15061 59046 11458 83404 10146 20133 40202 57019 60051 76066 887// 333 20131;
0140590460999992000101509004+24340+109390FM-12+009799999V0203601N003010042019N0030001N1+01421+01351102021ADDAY181031AY261031GF108991081091004501999999MD1410001+9999MW1801REMSYN066AAXX  15091 59046 41430 83603 10142 20135 40202 54000 78086 889//;
0157590460999992000101512004+24340+109390FM-12+009799999V0203401N003010042019N0020001N1+01391+01341102071ADDAA106054191AY181061AY261061GF108991081091004501999999MD1210051+9999MW1801REMSYN072AAXX  15121 59046 11420 83403 10139 20134 40207 52005 60541 78086 889//;
0180590460999992000101518004+24340+109390FM-12+009799999V0200201N002010042019N0020001N1+01421+01381102141ADDAA106016091AY181061AY281061GF108991081091004501999999KA1999M+01501MD1710051+9999MW1801REMSYN082AAXX  15181 59046 11420 80202 10142 20138 40214 57005 60161 78088 889// 333 10150;
0153590460999992000101521004+24340+109390FM-12+009799999V0200201N001010042019N0180001N1+01461+01351102061ADDAA124076791AY181031GF108991081091004501999999MD1710081+9999MW1001REMSYN076AAXX  15211 59046 41468 80201 10146 20135 40206 57008 70080 889// 333 70768;
0165590460999992000101600004+24340+109390FM-12+009799999V0203401N001010120019N0200001N1+01541+01331102211ADDAA106000191AY181061GF108991081081008001999999MD1210151+0101MW1001REMSYN088AAXX  16001 59046 11570 83401 10154 20133 40221 52015 69921 70080 888// 333 00102 70753;
0112590460999992000101603004+24340+109390FM-12+009799999V0203601N002010120019N0300001N1+01841+01391102221ADDGF107991071081008001999999MD1210021+9999REMSYN060AAXX  16031 59046 42580 73602 10184 20139 40222 52002 878//;
0146590460999992000101606004+24340+109390FM-12+009799999V0203401N002010120019N0300001N1+02021+01401101961ADDAA199000021GF107991071081008001999999KA1999N+01381MD1710261+9999REMSYN070AAXX  16061 59046 32580 73402 10202 20140 40196 57026 878// 333 20138;
0112590460999992000101609004+24340+109390FM-12+009799999V0203601N004010120019N0300001N1+02021+01401101881ADDGF107991071051012501999999MD1710071+9999REMSYN060AAXX  16091 59046 42680 73604 10202 20140 40188 57007 875//;
0142590460999992000101612004+24340+109390FM-12+009799999V0203401N003010120019N0250001N1+01821+01371102001ADDAA199000091GF108991081051012501999999MD1210111+9999REMSYN060AAXX  16121 59046 32675 83403 10182 20137 40200 52011 885//;EQDQ01  00002PRCP99
0165590460999992000101618004+24340+109390FM-12+009799999V0203401N002019999999N0200001N1+01661+01271101911ADDAA199000091GF107991071001999999031999KA1999M+02111MD1710111+9999REMSYN070AAXX  16181 59046 32970 73402 10166 20127 40191 57011 8703/ 333 10211;EQDQ01  00002PRCP99
0112590460999992000101621004+24340+109390FM-12+009799999V0200401N001019999999N0200001N1+01601+01301101861ADDGF105991051001999999031001MD1710051+9999REMSYN060AAXX  16211 59046 42970 50401 10160 20130 40186 57005 85030;
0152590460999992000101700004+24340+109390FM-12+009799999V0203201N002010120019N0250001N1+01681+01271102031ADDAA199000091GF108991081081008001999999MD1210161+0021REMSYN070AAXX  17001 59046 32575 83202 10168 20127 40203 52016 888// 333 05201;EQDQ01  00002PRCP99
0112590460999992000101703004+24340+109390FM-12+009799999V0200201N002010120019N0300001N1+01941+01351102051ADDGF108991081081008001999999MD1210031+9999REMSYN060AAXX  17031 59046 42580 80202 10194 20135 40205 52003 888//;
0165590460999992000101706004+24340+109390FM-12+009799999V0200401N003010120019N0300001N1+02221+01461101661ADDAA199000091GF107991071081008001999999KA1999N+01571MD1710381+9999REMSYN070AAXX  17061 59046 32580 70403 10222 20146 40166 57038 878// 333 20157;EQDQ01  00002PRCP99
0112590460999992000101709004+24340+109390FM-12+009799999V0203201N003010360019N0300001N1+02301+01541101571ADDGF107991041011008001031999MD1710091+9999REMSYN060AAXX  17091 59046 42580 73203 10230 20154 40157 57009 8413/;
0142590460999992000101712004+24340+109390FM-12+009799999V0203601N002019999999N0250001N1+02031+01471101691ADDAA199000091GF107991071001999999031999MD1210111+9999REMSYN060AAXX  17121 59046 32975 73602 10203 20147 40169 52011 8703/;EQDQ01  00002PRCP99
0165590460999992000101718004+24340+109390FM-12+009799999V0203401N001012200019N0200001N1+01791+01431101631ADDAA199000091GF103991031001999999031001KA1999M+02351MD1710121+9999REMSYN070AAXX  17181 59046 32970 33401 10179 20143 40163 57012 83030 333 10235;EQDQ01  00002PRCP99
0112590460999992000101721004+24340+109390FM-12+009799999V0209999C000019999999N0200001N1+01751+01441101621ADDGF106991061001999999031001MD1710011+9999REMSYN060AAXX  17211 59046 42970 60000 10175 20144 40162 57001 86030;
0152590460999992000101800004+24340+109390FM-12+009799999V0203401N002019999999N0200001N1+01831+01431101701ADDAA199000091GF106991051001999999031011MD1210081+0031REMSYN070AAXX  18001 59046 32970 63402 10183 20143 40170 52008 85031 333 05302;EQDQ01  00002PRCP99
0112590460999992000101803004+24340+109390FM-12+009799999V0203601N003010360019N0250001N1+02231+01461101691ADDGF106991021011008001031001MD1710011+9999REMSYN060AAXX  18031 59046 42575 63603 10223 20146 40169 57001 82130;
0165590460999992000101806004+24340+109390FM-12+009799999V0200401N003010360019N0250001N1+02521+01481101341ADDAA199000091GF106991021011008001031001KA1999N+01701MD1710341+9999REMSYN070AAXX  18061 59046 32575 60403 10252 20148 40134 57034 82130 333 20170;EQDQ01  00002PRCP99
0112590460999992000101809004+24340+109390FM-12+009799999V0200201N004010360019N0300001N1+02451+01571101261ADDGF107991011011008001031999MD1710081+9999REMSYN060AAXX  18091 59046 42580 70204 10245 20157 40126 57008 8113/;
0142590460999992000101812004+24340+109390FM-12+009799999V0203201N002010150019N0250001N1+02181+01551101411ADDAA199000091GF107991071051017501999999MD1210141+9999REMSYN060AAXX  18121 59046 32775 73202 10218 20155 40141 52014 875//;EQDQ01  00002PRCP99
0164590460999992000101818004+24340+109390FM-12+009799999V0203201N002010120019N0100001N1+01881+01581101481ADDAA106000191GF108991081051012501999999KA1999M+02681MD1710031+9999MW1601REMSYN082AAXX  18181 59046 11660 83202 10188 20158 40148 57003 69911 76000 885// 333 10268;
0161590460999992000101821004+24340+109390FM-12+009799999V0203601N002010042019N0100001N1+01701+01601101421ADDAA124001391AY161031AY261031GF108991081051004501999999MD1710071+9999MW1601REMSYN076AAXX  18211 59046 41460 83602 10170 20160 40142 57007 76066 885// 333 70013;
0173590460999992000101900004+24340+109390FM-12+009799999V0203401N002010042019N0030001N1+01691+01611101571ADDAA106007191AY161061AY261061GF108991081071004501999999MD1210151-0101MW1601REMSYN088AAXX  19001 59046 11430 83402 10169 20161 40157 52015 60071 76066 887// 333 05151 70072;
0140590460999992000101903004+24340+109390FM-12+009799999V0202901N002010042019N0030001N1+01751+01671101631ADDAY161031AY261031GF108991081071004501999999MD1210051+9999MW1601REMSYN066AAXX  19031 59046 41430 82902 10175 20167 40163 52005 76066 887//;
0180590460999992000101906004+24340+109390FM-12+009799999V0203401N004010090019N0130001N1+01821+01651101341ADDAA106011991AY161061AY261061GF108991081081004501999999KA1999N+01681MD1710281+9999MW1211REMSYN082AAXX  19061 59046 11463 83404 10182 20165 40134 57028 60121 72166 888// 333 20168;
0132590460999992000101909004+24340+109390FM-12+009799999V0202901N001010090019N0120001N1+01821+01651101301ADDAY161031GF108991081081004501999999MD1710051+9999MW1601REMSYN066AAXX  19091 59046 41462 82901 10182 20165 40130 57005 76060 888//;
0149590460999992000101912004+24340+109390FM-12+009799999V0203201N002010042019N0080001N1+01771+01691101391ADDAA106003091AY161061GF108991081051004501999999MD1210091+9999MW1601REMSYN072AAXX  19121 59046 11458 83202 10177 20169 40139 52009 60031 76060 885//;
0172590460999992000101918004+24340+109390FM-12+009799999V0200401N001010042019N0150001N1+01811+01701101361ADDAA106000891AY161061GF108991081051004501999999KA1999M+01901MD1710121+9999MW1601REMSYN082AAXX  19181 59046 11465 80401 10181 20170 40136 57012 69971 76060 885// 333 10190;
0161590460999992000101921004+24340+109390FM-12+009799999V0209999C000010042019N0060001N1+01791+01721101281ADDAA124033891AY161031AY261031GF108991081071004501999999MD1710081+9999MW1601REMSYN076AAXX  19211 59046 41456 80000 10179 20172 40128 57008 76066 887// 333 70339;
0173590460999992000102000004+24340+109390FM-12+009799999V0203201N002010042019N0040001N1+01751+01701101511ADDAA106018091AY161061AY261061GF108991081071004501999999MD1210231-0101MW1601REMSYN088AAXX  20001 59046 11440 83202 10175 20170 40151 52023 60181 76066 887// 333 05101 70346;
0140590460999992000102003004+24340+109390FM-12+009799999V0203201N001010042019N0050001N1+01811+01731101611ADDAY161031AY261031GF108991081071004501999999MD1210101+9999MW1601REMSYN066AAXX  20031 59046 41450 83201 10181 20173 40161 52010 76066 887//;
0180590460999992000102006004+24340+109390FM-12+009799999V0203601N002010042019N0040001N1+01861+01811101351ADDAA106008991AY161061AY261061GF108991081071004501999999KA1999N+01751MD1710251+9999MW1601REMSYN082AAXX  20061 59046 11440 83602 10186 20181 40135 57025 60091 76066 887// 333 20175;
0140590460999992000102009004+24340+109390FM-12+009799999V0203601N002010042019N0040001N1+01861+01811101261ADDAY161031AY261031GF108991081071004501999999MD1710091+9999MW1601REMSYN066AAXX  20091 59046 41440 83602 10186 20181 40126 57009 76066 887//;
0157590460999992000102012004+24340+109390FM-12+009799999V0203601N001010042019N0060001N1+01861+01801101391ADDAA106010991AY161061AY261061GF108991081071004501999999MD1210121+9999MW1601REMSYN072AAXX  20121 59046 11456 83601 10186 20180 40139 52012 60111 76066 887//;
0180590460999992000102018004+24340+109390FM-12+009799999V0200201N002010042019N0080001N1+01831+01751101321ADDAA106005191AY161061AY261061GF108991081071004501999999KA1999M+01891MD1710121+9999MW1601REMSYN082AAXX  20181 59046 11458 80202 10183 20175 40132 57012 60051 76066 887// 333 10189;
0161590460999992000102021004+24340+109390FM-12+009799999V0209999C000010042019N0050001N1+01811+01761101281ADDAA124032091AY161031AY261031GF108991081071004501999999MD1710041+9999MW1601REMSYN076AAXX  20211 59046 41450 80000 10181 20176 40128 57004 76066 887// 333 70320;
0173590460999992000102100004+24340+109390FM-12+009799999V0209999C000010075019N0080001N1+01821+01751101451ADDAA106000591AY161061AY261061GF108991081051008001999999MD1210161-0101MW1211REMSYN088AAXX  21001 59046 11558 80000 10182 20175 40145 52016 69951 72166 885// 333 05101 70255;
0132590460999992000102103004+24340+109390FM-12+009799999V0203401N002010042019N0060001N1+01931+01821101451ADDAY161031GF108991081051004501999999MD1210011+9999MW1601REMSYN066AAXX  21031 59046 41456 83402 10193 20182 40145 52001 76060 885//;
0172590460999992000102106004+24340+109390FM-12+009799999V0202901N001010042019N0060001N1+02001+01911101191ADDAA106000191AY161061GF108991081051004501999999KA1999N+01801MD1710261+9999MW1601REMSYN082AAXX  21061 59046 11456 82901 10200 20191 40119 57026 69921 76060 885// 333 20180;
0140590460999992000102109004+24340+109390FM-12+009799999V0203201N001010042019N0060001N1+01941+01881101131ADDAY161031AY261031GF108991081071004501999999MD1710061+9999MW1211REMSYN066AAXX  21091 59046 41456 83201 10194 20188 40113 57006 72166 887//;
0149590460999992000102112004+24340+109390FM-12+009799999V0203401N002010042019N0060001N1+01921+01841101261ADDAA106002091AY161061GF108991081071004501999999MD1210131+9999MW1601REMSYN072AAXX  21121 59046 11456 83402 10192 20184 40126 52013 60021 76060 887//;
0180590460999992000102118004+24340+109390FM-12+009799999V0203401N001010042019N0050001N1+01891+01841101241ADDAA106002091AY161061AY261061GF108991081071004501999999KA1999M+02041MD1710081+9999MW1601REMSYN082AAXX  21181 59046 11450 83401 10189 20184 40124 57008 60021 76066 887// 333 10204;
0161590460999992000102121004+24340+109390FM-12+009799999V0203201N001010042019N0030001N1+01861+01831101191ADDAA124004391AY161031AY261031GF108991081071004501999999MD1710051+9999MW1601REMSYN076AAXX  21211 59046 41430 83201 10186 20183 40119 57005 76066 887// 333 70044;
0173590460999992000102200004+24340+109390FM-12+009799999V0202901N002010042019N0060001N1+01861+01801101321ADDAA106004191AY161061AY261061GF108991081071004501999999MD1210131-0101MW1601REMSYN088AAXX  22001 59046 11456 82902 10186 20180 40132 52013 60041 76066 887// 333 05100 70080;
0140590460999992000102203004+24340+109390FM-12+009799999V0203201N001010042019N0080001N1+01981+01851101391ADDAY161031AY261031GF108991081071004501999999MD1210071+9999MW1211REMSYN066AAXX  22031 59046 41458 83201 10198 20185 40139 52007 72166 887//;
0172590460999992000102206004+24340+109390FM-12+009799999V0203401N002010120019N0200001N1+02101+01851101181ADDAA106002091AY161061GF108991081081008001999999KA1999N+01851MD1710211+9999MW1001REMSYN082AAXX  22061 59046 11570 83402 10210 20185 40118 57021 60021 70060 888// 333 20185;
0112590460999992000102209004+24340+109390FM-12+009799999V0203401N001010120019N0200001N1+02141+01921101121ADDGF108991081081008001999999MD1710061+9999REMSYN060AAXX  22091 59046 42570 83401 10214 20192 40112 57006 888//;
0123590460999992000102212004+24340+109390FM-12+009799999V0209999C000010120019N0200001N1+02101+01941101211ADDAA199000021GF108991081051012501999999MD1210091+9999REMSYN060AAXX  22121 59046 32670 80000 10210 20194 40121 52009 885//;
0177590460999992000102218004+24340+109390FM-12+009799999V0209999C000010120019N0060001N1+02041+01951101171ADDAA199000091GF108991081051012501999999KA1999M+02181MD1710071+9999MW1101REMSYN076AAXX  22181 59046 31656 80000 10204 20195 40117 57007 71000 885// 333 10218;EQDQ01  00002PRCP99
0153590460999992000102221004+24340+109390FM-12+009799999V0209999C000010042019N0040001N1+02021+01961101141ADDAA124006191AY161031GF108991081051004501999999MD1710031+9999MW1601REMSYN076AAXX  22211 59046 41440 80000 10202 20196 40114 57003 76060 885// 333 70062;
0165590460999992000102300004+24340+109390FM-12+009799999V0209999C000010120019N0060001N1+02021+01941101351ADDAA106000591AY161061GF108991081081008001999999MD1210201+0001MW1101REMSYN088AAXX  23001 59046 11556 80000 10202 20194 40135 52020 69951 71060 888// 333 00002 70027;
0124590460999992000102303004+24340+109390FM-12+009799999V0209999C000010120019N0080001N1+02291+01971101401ADDGF108991081081008001999999MD1210061+9999MW1101REMSYN066AAXX  23031 59046 41558 80000 10229 20197 40140 52006 71000 888//;
0158590460999992000102306004+24340+109390FM-12+009799999V0209999C000010210019N0060001N1+02611+02121101051ADDAA199000021GF107991071051022501999999KA1999N+02001MD1710341+9999MW1101REMSYN076AAXX  23061 59046 31856 70000 10261 20212 40105 57034 71000 875// 333 20200;
0124590460999992000102309004+24340+109390FM-12+009799999V0201401N002010150019N0080001N1+02641+02171101001ADDGF107991071051017501999999MD1710051+9999MW1101REMSYN066AAXX  23091 59046 41758 71402 10264 20217 40100 57005 71000 875//;
0154590460999992000102312004+24340+109390FM-12+009799999V0209999C000010150019N0080001N1+02531+02241101131ADDAA199000091GF107991071051017501999999MD1210121+9999MW1101REMSYN066AAXX  23121 59046 31758 70000 10253 20224 40113 52012 71000 875//;EQDQ01  00002PRCP99
0177590460999992000102318004+24340+109390FM-12+009799999V0209999C000010150019N0060001N1+02261+02171101211ADDAA199000091GF106991061051017501001001KA1999M+02691MD1410001+9999MW1101REMSYN076AAXX  23181 59046 31756 60000 10226 20217 40121 54000 71000 86500 333 10269;EQDQ01  00002PRCP99
0145590460999992000102321004+24340+109390FM-12+009799999V0209999C000010120019N0060001N1+02201+02141101261ADDAA124000391GF108991081051012501999999MD1210051+9999MW1101REMSYN076AAXX  23211 59046 41656 80000 10220 20214 40126 52005 71000 885// 333 70002;
0165590460999992000102400004+24340+109390FM-12+009799999V0209999C000010042019N0040001N1+02221+02161101471ADDAA106001091AY161061GF108991081051004501999999MD1210201+0101MW1601REMSYN088AAXX  24001 59046 11440 80000 10222 20216 40147 52020 60011 76060 885// 333 00102 70013;
0140590460999992000102403004+24340+109390FM-12+009799999V0209999C000010042019N0040001N1+02271+02231101621ADDAY161031AY261031GF108991081051004501999999MD1210151+9999MW1601REMSYN066AAXX  24031 59046 41440 80000 10227 20223 40162 52015 76066 885//;
0172590460999992000102406004+24340+109390FM-12+009799999V0209999C000010120019N0040001N1+02601+02351101331ADDAA106010991AY161061GF107991071051012501999999KA1999N+02201MD1710281+9999MW1101REMSYN082AAXX  24061 59046 11640 70000 10260 20235 40133 57028 60111 71060 875// 333 20220;
0124590460999992000102409004+24340+109390FM-12+009799999V0209999C000012200019N0040001N1+02771+02411101241ADDGF104991021081008001031001MD1710091+9999MW1101REMSYN066AAXX  24091 59046 41540 40000 10277 20241 40124 57009 71000 82830;
0135590460999992000102412004+24340+109390FM-12+009799999V0209999C000012200019N0040001N1+02481+02361101351ADDAA199000021GF102991021081008001001001MD1210111+9999MW1101REMSYN066AAXX  24121 59046 31540 20000 10248 20236 40135 52011 71000 82800;
0187590460999992000102418004+24340+109390FM-12+009799999V0209999C000012200019N0060001N1+02261+02201101491ADDAA199000091GA1001+999999999GF100991001001999999001001KA1999M+02851MD1210011+9999MW1101REMSYN070AAXX  24181 59046 31956 00000 10226 20220 40149 52001 71000 333 10285;EQDQ01  00002PRCP99
0163590460999992000102421004+24340+109390FM-12+009799999V0209999C000012200019N0002001N1+02131+02131101511ADDAA124012491AY141031GA1001+999999999GF100991001001999999001001MD1210021+9999MW1441REMSYN070AAXX  24211 59046 41902 00000 10213 20213 40151 52002 74440 333 70125;
0159590460999992000102500004+24340+109390FM-12+009799999V0209999C000019999999N0003001N1+02201+02191101651ADDAA124011291AY141061GF107991071001999999031999MD1210131+0201MW1441REMSYN082AAXX  25001 59046 31903 70000 10220 20219 40165 52013 74440 8703/ 333 00200 70112;
0142590460999992000102503004+24340+109390FM-12+009799999V0202701N002012200019N0040001N1+02741+02331101721ADDAY141031GA1001+999999999GF100991001001999999001001MD1210081+9999MW1101REMSYN060AAXX  25031 59046 41940 02702 10274 20233 40172 52008 71040;
0185590460999992000102506004+24340+109390FM-12+009799999V0201801N002010360019N0150001N1+03191+02231101401ADDAA199000091AY141061GF106991021021008001031001KA1999N+02131MD1710311+9999MW1001REMSYN076AAXX  25061 59046 31565 61802 10319 20223 40140 57031 70040 82230 333 20213;EQDQ01  00002PRCP99
0112590460999992000102509004+24340+109390FM-12+009799999V0200401N002012200019N0200001N1+03121+02191101281ADDGF102991011011008001031001MD1710121+9999REMSYN060AAXX  25091 59046 42570 20402 10312 20219 40128 57012 81130;
0152590460999992000102512004+24340+109390FM-12+009799999V0200701N003012200019N0200001N1+02761+02261101411ADDAA199000091GA1001+999999999GF100991001001999999001001MD1210121+9999REMSYN054AAXX  25121 59046 32970 00703 10276 20226 40141 52012;EQDQ01  00002PRCP99
0175590460999992000102518004+24340+109390FM-12+009799999V0200701N003012200019N0150001N1+02301+01841101661ADDAA199000091GA1001+999999999GF100991001001999999001001KA1999M+03231MD1210041+9999REMSYN064AAXX  25181 59046 32965 00703 10230 20184 40166 52004 333 10323;EQDQ01  00002PRCP99
0122590460999992000102521004+24340+109390FM-12+009799999V0203601N001012200019N0150001N1+02151+01801101641ADDGA1001+999999999GF100991001001999999001001MD1710031+9999REMSYN054AAXX  25211 59046 42965 03601 10215 20180 40164 57003;
0152590460999992000102600004+24340+109390FM-12+009799999V0200701N003010360019N0250001N1+02111+01771101821ADDAA199000091GF106991011011008001031001MD1210171+0021REMSYN070AAXX  26001 59046 32575 60703 10211 20177 40182 52017 81130 333 00251;EQDQ01  00002PRCP99
0112590460999992000102603004+24340+109390FM-12+009799999V0200701N003010360019N0300001N1+02441+01771101931ADDGF107991011011008001031999MD1210111+9999REMSYN060AAXX  26031 59046 42580 70703 10244 20177 40193 52011 8113/;
0165590460999992000102606004+24340+109390FM-12+009799999V0200401N003012200019N0300001N1+02751+01971101591ADDAA199000091GF103991031001999999031001KA1999N+02091MD1710331+9999REMSYN070AAXX  26061 59046 32980 30403 10275 20197 40159 57033 83030 333 20209;EQDQ01  00002PRCP99
0132590460999992000102609004+24340+109390FM-12+009799999V0200901N002012200019N0300001N1+02751+02011101511ADDAY161031GF102991021001999999031001MD1710081+9999MW1001REMSYN066AAXX  26091 59046 41980 20902 10275 20201 40151 57008 70060 82030;
0149590460999992000102612004+24340+109390FM-12+009799999V0200401N003019999999N0300001N1+02421+01861101671ADDAA106000791AY161061GF107991071001999999031001MD1210151+9999MW1001REMSYN072AAXX  26121 59046 11980 70403 10242 20186 40167 52015 69901 70060 87030;
0175590460999992000102618004+24340+109390FM-12+009799999V0200401N003012200019N0200001N1+02031+01651101841ADDAA199000091GA1001+999999999GF100991001001999999001001KA1999M+02811MD1210041+9999REMSYN064AAXX  26181 59046 32970 00403 10203 20165 40184 52004 333 10281;EQDQ01  00002PRCP99
0133590460999992000102621004+24340+109390FM-12+009799999V0200401N001012200019N0170001N1+01911+01591101851ADDAA124000791GF102991021001999999031001MD1210011+9999REMSYN070AAXX  26211 59046 42967 20401 10191 20159 40185 52001 82030 333 79999;
0139590460999992000102700004+24340+109390FM-12+009799999V0200401N002010120019N0200001N1+01871+01591102011ADDAA124000791GF108991081081008001999999MD1210151+0201REMSYN076AAXX  27001 59046 32570 80402 10187 20159 40201 52015 888// 333 00252 79999;
0112590460999992000102703004+24340+109390FM-12+009799999V0203401N002010120019N0250001N1+02041+01521102111ADDGF108991081081008001999999MD1210101+9999REMSYN060AAXX  27031 59046 42575 83402 10204 20152 40211 52010 888//;
0165590460999992000102706004+24340+109390FM-12+009799999V0200701N002019999999N0300001N1+02341+01601101831ADDAA199000091GF107991071001999999031999KA1999N+01861MD1710281+9999REMSYN070AAXX  27061 59046 32980 70702 10234 20160 40183 57028 8703/ 333 20186;EQDQ01  00002PRCP99
0112590460999992000102709004+24340+109390FM-12+009799999V0200401N002019999999N0300001N1+02401+01751101701ADDGF106991061001999999031011MD1710131+9999REMSYN060AAXX  27091 59046 42980 60402 10240 20175 40170 57013 86031;
0142590460999992000102712004+24340+109390FM-12+009799999V0200401N002019999999N0200001N1+02191+01621101821ADDAA199000091GF107991071001999999031999MD1210121+9999REMSYN060AAXX  27121 59046 32970 70402 10219 20162 40182 52012 8703/;EQDQ01  00002PRCP99
0165590460999992000102718004+24340+109390FM-12+009799999V0203401N002010120019N0150001N1+02041+01721101911ADDAA199000091GF108991081051012501999999KA1999M+02471MD1710031+9999REMSYN070AAXX  27181 59046 32665 83402 10204 20172 40191 57003 885// 333 10247;EQDQ01  00002PRCP99
0112590460999992000102721004+24340+109390FM-12+009799999V0200401N002010120019N0120001N1+02001+01641101821ADDGF108991081051012501999999MD1710091+9999REMSYN060AAXX  27211 59046 42662 80402 10200 20164 40182 57009 885//;
0152590460999992000102800004+24340+109390FM-12+009799999V0200401N001010150019N0150001N1+01961+01661101911ADDAA199000091GF108991081051017501999999MD1210091+0011REMSYN070AAXX  28001 59046 32765 80401 10196 20166 40191 52009 885// 333 05101;EQDQ01  00002PRCP99
0112590460999992000102803004+24340+109390FM-12+009799999V0200401N002010150019N0200001N1+02081+01621102001ADDGF108991081051017501999999MD1210091+9999REMSYN060AAXX  28031 59046 42770 80402 10208 20162 40200 52009 885//;
0112590460999992000102809004+24340+109390FM-12+009799999V0203201N002019999999N0200001N1+02381+01831101671ADDGF107991071001999999031999MD1710071+9999REMSYN060AAXX  28091 59046 42970 73202 10238 20183 40167 57007 8703/;
0142590460999992000102812004+24340+109390FM-12+009799999V0200701N001019999999N0200001N1+02151+01781101821ADDAA199000091GF105991051001999999031001MD1210141+9999REMSYN060AAXX  28121 59046 32970 50701 10215 20178 40182 52014 85030;EQDQ01  00002PRCP99
0165590460999992000102818004+24340+109390FM-12+009799999V0200201N002010150019N0150001N1+01781+01201102101ADDAA199000091GF108991081051017501999999KA1999M+02421MD1210051+9999REMSYN070AAXX  28181 59046 32765 80202 10178 20120 40210 52005 885// 333 10242;EQDQ01  00002PRCP99
0112590460999992000102821004+24340+109390FM-12+009799999V0203601N004010150019N0200001N1+01741+01071102071ADDGF108991081051017501999999MD1710021+9999REMSYN060AAXX  28211 59046 42770 83604 10174 20107 40207 57002 885//;
0152590460999992000102900004+24340+109390FM-12+009799999V0203201N002010150019N0300001N1+01681+01061102271ADDAA199000091GF107991071051017501999999MD1210191+0041REMSYN070AAXX  29001 59046 32780 73202 10168 20106 40227 52019 875// 333 00453;EQDQ01  00002PRCP99
0112590460999992000102903004+24340+109390FM-12+009799999V0203401N003010120019N0300001N1+01801+01081102401ADDGF107991071081008001999999MD1210131+9999REMSYN060AAXX  29031 59046 42580 73403 10180 20108 40240 52013 878//;
0165590460999992000102906004+24340+109390FM-12+009799999V0203601N004010360019N0300001N1+02011+01101102051ADDAA199000091GF107991011011008001031999KA1999N+01681MD1710351+9999REMSYN070AAXX  29061 59046 32580 73604 10201 20110 40205 57035 8113/ 333 20168;EQDQ01  00002PRCP99
0112590460999992000102909004+24340+109390FM-12+009799999V0200401N003012200019N0300001N1+02191+01051101981ADDGF101991011011008001031001MD1710071+9999REMSYN060AAXX  29091 59046 42580 10403 10219 20105 40198 57007 81130;
0152590460999992000102912004+24340+109390FM-12+009799999V0203201N002012200019N0300001N1+01881+01141102081ADDAA199000091GA1001+999999999GF100991001001999999001001MD1210091+9999REMSYN054AAXX  29121 59046 32980 03202 10188 20114 40208 52009;EQDQ01  00002PRCP99
0175590460999992000102918004+24340+109390FM-12+009799999V0203201N002012200019N0250001N1+01591+00961102021ADDAA199000091GA1001+999999999GF100991001001999999001001KA1999M+02251MD1710121+9999REMSYN064AAXX  29181 59046 32975 03202 10159 20096 40202 57012 333 10225;EQDQ01  00002PRCP99
0122590460999992000102921004+24340+109390FM-12+009799999V0203201N001012200019N0250001N1+01471+00911101841ADDGA1001+999999999GF100991001001999999001001MD1710181+9999REMSYN054AAXX  29211 59046 42975 03201 10147 20091 40184 57018;
0152590460999992000103000004+24340+109390FM-12+009799999V0203401N001012200019N0300001N1+01511+00891101901ADDAA199000091GF101991011001999999031001MD1210051+0041REMSYN070AAXX  30001 59046 32980 13401 10151 20089 40190 52005 81030 333 05452;EQDQ01  00002PRCP99
0122590460999992000103003004+24340+109390FM-12+009799999V0200401N004012200019N0300001N1+02001+00741101821ADDGA1001+999999999GF100991001001999999001001MD1710071+9999REMSYN054AAXX  30031 59046 42980 00404 10200 20074 40182 57007;
0165590460999992000103006004+24340+109390FM-12+009799999V0200901N001012200019N0300001N1+02241+00751101421ADDAA199000091GF101991011001999999031001KA1999N+01381MD1710391+9999REMSYN070AAXX  30061 59046 32980 10901 10224 20075 40142 57039 81030 333 20138;EQDQ01  00002PRCP99
0112590460999992000103009004+24340+109390FM-12+009799999V0200701N004012200019N0300001N1+02291+00471101291ADDGF102991021001999999031001MD1710131+9999REMSYN060AAXX  30091 59046 42980 20704 10229 20047 40129 57013 82030;
0142590460999992000103012004+24340+109390FM-12+009799999V0200401N002019999999N0300001N1+01981+00681101401ADDAA199000091GF106991061001999999031001MD1210101+9999REMSYN060AAXX  30121 59046 32980 60402 10198 20068 40140 52010 86030;EQDQ01  00002PRCP99
0164590460999992000103018004+24340+109390FM-12+009799999V0200401N001010120019N0200001N1+01831+00901101631ADDAA106000791GF108991081051012501999999KA1999M+02351MD1210091+9999MW1601REMSYN082AAXX  30181 59046 11670 80401 10183 20090 40163 52009 69901 76000 885// 333 10235;
0153590460999992000103021004+24340+109390FM-12+009799999V0200701N002010120019N0200001N1+01771+00791101721ADDAA124000791AY161031GF108991081051012501999999MD1210091+9999MW1001REMSYN076AAXX  30211 59046 41670 80702 10177 20079 40172 52009 70060 885// 333 79999;
0165590460999992000103100004+24340+109390FM-12+009799999V0203601N002019999999N0250001N1+01741+00731101941ADDAA106000791AY161061GF105991051001999999031001MD1210211+0101MW1001REMSYN088AAXX  31001 59046 11975 53602 10174 20073 40194 52021 69901 70060 85030 333 00102 79999;
0112590460999992000103103004+24340+109390FM-12+009799999V0200401N004019999999N0300001N1+01961+00541102041ADDGF107991071001999999031999MD1210101+9999REMSYN060AAXX  31031 59046 42980 70404 10196 20054 40204 52010 8703/;
0146590460999992000103106004+24340+109390FM-12+009799999V0200401N003012200019N0300001N1+02241+00641101721ADDAA199000021GF102991021001999999031001KA1999N+01651MD1710311+9999REMSYN070AAXX  31061 59046 32980 20403 10224 20064 40172 57031 82030 333 20165;
0112590460999992000103109004+24340+109390FM-12+009799999V0203201N001012200019N0300001N1+02341+00581101601ADDGF101991011001999999031001MD1710121+9999REMSYN060AAXX  31091 59046 42980 13201 10234 20058 40160 57012 81030;
0152590460999992000103112004+24340+109390FM-12+009799999V0200401N002012200019N0300001N1+02041+00771101821ADDAA199000091GA1001+999999999GF100991001001999999001001MD1210211+9999REMSYN054AAXX  31121 59046 32980 00402 10204 20077 40182 52021;EQDQ01  00002PRCP99
0175590460999992000103118004+24340+109390FM-12+009799999V0203401N002012200019N0200001N1+01671+00661102011ADDAA199000091GA1001+999999999GF100991001001999999001001KA1999M+02411MD1210061+9999REMSYN064AAXX  31181 59046 32970 03402 10167 20066 40201 52006 333 10241;EQDQ01  00002PRCP99
0143590460999992000103121004+24340+109390FM-12+009799999V0200201N001012200019N0200001N1+01581+00611102071ADDAA124000791GA1001+999999999GF100991001001999999001001MD1210061+9999REMSYN064AAXX  31211 59046 42970 00201 10158 20061 40207 52006 333 79999;
0162590460999992000110100004+24340+109390FM-12+009799999V0203601N003012200019N0250001N1+01581+00531102281ADDAA199000091GA1001+999999999GF100991001001999999001001MD1210201+0031REMSYN064AAXX  01001 59046 32975 03603 10158 20053 40228 52020 333 00352;EQDQ01  00002PRCP99
0122590460999992000110103004+24340+109390FM-12+009799999V0200401N006012200019N0300001N1+02021+00211102261ADDGA1001+999999999GF100991001001999999001001MD1710011+9999REMSYN054AAXX  01031 59046 42980 00406 10202 20021 40226 57001;
0175590460999992000110106004+24340+109390FM-12+009799999V0201801N002012200019N0300001N1+02281+00351101991ADDAA199000091GA1001+999999999GF100991001001999999001001KA1999N+01471MD1710271+9999REMSYN064AAXX  01061 59046 32980 01802 10228 20035 40199 57027 333 20147;EQDQ01  00002PRCP99
0122590460999992000110109004+24340+109390FM-12+009799999V0200201N002012200019N0300001N1+02241+00441101891ADDGA1001+999999999GF100991001001999999001001MD1710101+9999REMSYN054AAXX  01091 59046 42980 00202 10224 20044 40189 57010;
0152590460999992000110112004+24340+109390FM-12+009799999V0200201N002012200019N0300001N1+01961+00511102041ADDAA199000091GA1001+999999999GF100991001001999999001001MD1210141+9999REMSYN054AAXX  01121 59046 32980 00202 10196 20051 40204 52014;EQDQ01  00002PRCP99
0175590460999992000110118004+24340+109390FM-12+009799999V0203601N001012200019N0200001N1+01481+00581102221ADDAA199000091GA1001+999999999GF100991001001999999001001KA1999M+02351MD1210021+9999REMSYN064AAXX  01181 59046 32970 03601 10148 20058 40222 52002 333 10235;EQDQ01  00002PRCP99
0122590460999992000110121004+24340+109390FM-12+009799999V0203601N001012200019N0200001N1+01321+00651102201ADDGA1001+999999999GF100991001001999999001001MD1710031+9999REMSYN054AAXX  01211 59046 42970 03601 10132 20065 40220 57003;
0162590460999992000110200004+24340+109390FM-12+009799999V0203401N002012200019N0200001N1+01331+00641102341ADDAA199000091GA1001+999999999GF100991001001999999001001MD1210141+0011REMSYN064AAXX  02001 59046 32970 03402 10133 20064 40234 52014 333 00153;EQDQ01  00002PRCP99
0122590460999992000110203004+24340+109390FM-12+009799999V0203401N002012200019N0250001N1+01801+00411102291ADDGA1001+999999999GF100991001001999999001001MD1710051+9999REMSYN054AAXX  02031 59046 42975 03402 10180 20041 40229 57005;
0175590460999992000110206004+24340+109390FM-12+009799999V0200701N002012200019N0300001N1+02261+00501101931ADDAA199000091GA1001+999999999GF100991001001999999001001KA1999N+01151MD1710351+9999REMSYN064AAXX  02061 59046 32980 00702 10226 20050 40193 57035 333 20115;EQDQ01  00002PRCP99
0122590460999992000110209004+24340+109390FM-12+009799999V0203401N001012200019N0300001N1+02341+00461101811ADDGA1001+999999999GF100991001001999999001001MD1710121+9999REMSYN054AAXX  02091 59046 42980 03401 10234 20046 40181 57012;
0152590460999992000110212004+24340+109390FM-12+009799999V0209999C000012200019N0300001N1+01781+00781101941ADDAA199000091GA1001+999999999GF100991001001999999001001MD1210121+9999REMSYN054AAXX  02121 59046 32980 00000 10178 20078 40194 52012;EQDQ01  00002PRCP99
0175590460999992000110218004+24340+109390FM-12+009799999V0202901N001012200019N0150001N1+01261+00951102021ADDAA199000091GA1001+999999999GF100991001001999999001001KA1999M+02431MD1210011+9999REMSYN064AAXX  02181 59046 32965 02901 10126 20095 40202 52001 333 10243;EQDQ01  00002PRCP99
0122590460999992000110221004+24340+109390FM-12+009799999V0202901N001012200019N0110001N1+01101+00861101981ADDGA1001+999999999GF100991001001999999001001MD1710041+9999REMSYN054AAXX  02211 59046 42961 02901 10110 20086 40198 57004;
0174590460999992000110300004+24340+109390FM-12+009799999V0202901N001012200019N0080001N1+01181+00961102121ADDAA199000091GA1001+999999999GF100991001001999999001001MD1210131+0021MW1101REMSYN070AAXX  03001 59046 31958 02901 10118 20096 40212 52013 71000 333 05252;EQDQ01  00002PRCP99
0122590460999992000110303004+24340+109390FM-12+009799999V0202901N002012200019N0200001N1+01881+00591102131ADDGA1001+999999999GF100991001001999999001001MD1210021+9999REMSYN054AAXX  03031 59046 42970 02902 10188 20059 40213 52002;
0175590460999992000110306004+24340+109390FM-12+009799999V0203201N002012200019N0300001N1+02321+00451101801ADDAA199000091GA1001+999999999GF100991001001999999001001KA1999N+01021MD1710321+9999REMSYN064AAXX  03061 59046 32980 03202 10232 20045 40180 57032 333 20102;EQDQ01  00002PRCP99
0122590460999992000110309004+24340+109390FM-12+009799999V0203201N002012200019N0300001N1+02401+00561101671ADDGA1001+999999999GF100991001001999999001001MD1710131+9999REMSYN054AAXX  03091 59046 42980 03202 10240 20056 40167 57013;
0152590460999992000110312004+24340+109390FM-12+009799999V0209999C000012200019N0250001N1+01781+00991101841ADDAA199000091GA1001+999999999GF100991001001999999001001MD1210161+9999REMSYN054AAXX  03121 59046 32975 00000 10178 20099 40184 52016;EQDQ01  00002PRCP99
0175590460999992000110318004+24340+109390FM-12+009799999V0209999C000012200019N0150001N1+01341+01071102021ADDAA199000091GA1001+999999999GF100991001001999999001001KA1999M+02531MD1210071+9999REMSYN064AAXX  03181 59046 32965 00000 10134 20107 40202 52007 333 10253;EQDQ01  00002PRCP99
0134590460999992000110321004+24340+109390FM-12+009799999V0209999C000012200019N0080001N1+01231+01021102041ADDGA1001+999999999GF100991001001999999001001MD1210021+9999MW1101REMSYN060AAXX  03211 59046 41958 00000 10123 20102 40204 52002 71000;
0174590460999992000110400004+24340+109390FM-12+009799999V0209999C000012200019N0080001N1+01291+01001102201ADDAA199000091GA1001+999999999GF100991001001999999001001MD1210141+0011MW1101REMSYN070AAXX  04001 59046 31958 00000 10129 20100 40220 52014 71000 333 00101;EQDQ01  00002PRCP99
0122590460999992000110403004+24340+109390FM-12+009799999V0203401N002012200019N0100001N1+02061+00821102211ADDGA1001+999999999GF100991001001999999001001MD1210021+9999REMSYN054AAXX  04031 59046 42960 03402 10206 20082 40221 52002;
0175590460999992000110406004+24340+109390FM-12+009799999V0203201N002012200019N0300001N1+02541+00821101821ADDAA199000091GA1001+999999999GF100991001001999999001001KA1999N+01131MD1710381+9999REMSYN064AAXX  04061 59046 32980 03202 10254 20082 40182 57038 333 20113;EQDQ01  00002PRCP99
0122590460999992000110409004+24340+109390FM-12+009799999V0203401N002012200019N0300001N1+02591+00591101691ADDGA1001+999999999GF100991001001999999001001MD1710131+9999REMSYN054AAXX  04091 59046 42980 03402 10259 20059 40169 57013;
0152590460999992000110412004+24340+109390FM-12+009799999V0200901N001012200019N0250001N1+01901+00701101831ADDAA199000091GA1001+999999999GF100991001001999999001001MD1210131+9999REMSYN054AAXX  04121 59046 32975 00901 10190 20070 40183 52013;EQDQ01  00002PRCP99
0175590460999992000110418004+24340+109390FM-12+009799999V0209999C000012200019N0150001N1+01391+01031101721ADDAA199000091GA1001+999999999GF100991001001999999001001KA1999M+02681MD1710151+9999REMSYN064AAXX  04181 59046 32965 00000 10139 20103 40172 57015 333 10268;EQDQ01  00002PRCP99
0134590460999992000110421004+24340+109390FM-12+009799999V0202901N001012200019N0080001N1+01241+01071101641ADDGA1001+999999999GF100991001001999999001001MD1710081+9999MW1101REMSYN060AAXX  04211 59046 41958 02901 10124 20107 40164 57008 71000;
0174590460999992000110500004+24340+109390FM-12+009799999V0209999C000012200019N0080001N1+01301+00951101731ADDAA199000091GA1001+999999999GF100991001001999999001001MD1210071+0051MW1101REMSYN070AAXX  05001 59046 31958 00000 10130 20095 40173 52007 71000 333 05500;EQDQ01  00002PRCP99
0122590460999992000110503004+24340+109390FM-12+009799999V0200701N002012200019N0120001N1+02011+00671101691ADDGA1001+999999999GF100991001001999999001001MD1710031+9999REMSYN054AAXX  05031 59046 42962 00702 10201 20067 40169 57003;
0175590460999992000110506004+24340+109390FM-12+009799999V0202701N002012200019N0250001N1+02481+00811101271ADDAA199000091GA1001+999999999GF100991001001999999001001KA1999N+01161MD1710411+9999REMSYN064AAXX  05061 59046 32975 02702 10248 20081 40127 57041 333 20116;EQDQ01  00002PRCP99
0122590460999992000110509004+24340+109390FM-12+009799999V0203201N001012200019N0200001N1+02481+00761101101ADDGA1001+999999999GF100991001001999999001001MD1710171+9999REMSYN054AAXX  05091 59046 42970 03201 10248 20076 40110 57017;
0152590460999992000110512004+24340+109390FM-12+009799999V0209999C000012200019N0200001N1+01821+01371101221ADDAA199000091GA1001+999999999GF100991001001999999001001MD1210111+9999REMSYN054AAXX  05121 59046 32970 00000 10182 20137 40122 52011;EQDQ01  00002PRCP99
0175590460999992000110518004+24340+109390FM-12+009799999V0203201N001012200019N0120001N1+01381+01161101241ADDAA199000091GA1001+999999999GF100991001001999999001001KA1999M+02571MD1710051+9999REMSYN064AAXX  05181 59046 32962 03201 10138 20116 40124 57005 333 10257;EQDQ01  00002PRCP99
0134590460999992000110521004+24340+109390FM-12+009799999V0203201N001012200019N0060001N1+01271+00961101221ADDGA1001+999999999GF100991001001999999001001MD1710021+9999MW1101REMSYN060AAXX  05211 59046 41956 03201 10127 20096 40122 57002 71000;
0174590460999992000110600004+24340+109390FM-12+009799999V0203601N001012200019N0060001N1+01321+00931101421ADDAA199000091GA1001+999999999GF100991001001999999001001MD1210181+0031MW1101REMSYN070AAXX  06001 59046 31956 03601 10132 20093 40142 52018 71000 333 05300;EQDQ01  00002PRCP99
0134590460999992000110603004+24340+109390FM-12+009799999V0209999C000012200019N0060001N1+02051+01051101461ADDGA1001+999999999GF100991001001999999001001MD1210051+9999MW1041REMSYN060AAXX  06031 59046 41956 00000 10205 20105 40146 52005 70400;
0175590460999992000110606004+24340+109390FM-12+009799999V0202501N002012200019N0110001N1+02591+01101101121ADDAA199000091GA1001+999999999GF100991001001999999001001KA1999N+01171MD1710331+9999REMSYN064AAXX  06061 59046 32961 02502 10259 20110 40112 57033 333 20117;EQDQ01  00002PRCP99
0122590460999992000110609004+24340+109390FM-12+009799999V0202901N001012200019N0110001N1+02651+01091101041ADDGA1001+999999999GF100991001001999999001001MD1710081+9999REMSYN054AAXX  06091 59046 42961 02901 10265 20109 40104 57008;
0152590460999992000110612004+24340+109390FM-12+009799999V0209999C000012200019N0110001N1+01961+01501101241ADDAA199000091GA1001+999999999GF100991001001999999001001MD1210191+9999REMSYN054AAXX  06121 59046 32961 00000 10196 20150 40124 52019;EQDQ01  00002PRCP99
0187590460999992000110618004+24340+109390FM-12+009799999V0209999C000012200019N0060001N1+01541+01331101341ADDAA199000091GA1001+999999999GF100991001001999999001001KA1999M+02761MD1710011+9999MW1101REMSYN070AAXX  06181 59046 31956 00000 10154 20133 40134 57001 71000 333 10276;EQDQ01  00002PRCP99
0134590460999992000110621004+24340+109390FM-12+009799999V0200201N001012200019N0050001N1+01501+01131101371ADDGA1001+999999999GF100991001001999999001001MD1210031+9999MW1101REMSYN060AAXX  06211 59046 41950 00201 10150 20113 40137 52003 71000;
0174590460999992000110700004+24340+109390FM-12+009799999V0200401N001012200019N0060001N1+01521+01071101641ADDAA199000091GA1001+999999999GF100991001001999999001001MD1210261+0021MW1101REMSYN070AAXX  07001 59046 31956 00401 10152 20107 40164 52026 71000 333 00202;EQDQ01  00002PRCP99
0124590460999992000110703004+24340+109390FM-12+009799999V0203601N002012200019N0080001N1+02241+01221101661ADDGF101991011001999999031001MD1210031+9999MW1041REMSYN066AAXX  07031 59046 41958 13602 10224 20122 40166 52003 70400 81030;
0175590460999992000110706004+24340+109390FM-12+009799999V0203201N001012200019N0180001N1+02741+01371101321ADDAA199000091GA1001+999999999GF100991001001999999001001KA1999N+01441MD1710331+9999REMSYN064AAXX  07061 59046 32968 03201 10274 20137 40132 57033 333 20144;EQDQ01  00002PRCP99
0122590460999992000110709004+24340+109390FM-12+009799999V0200701N002012200019N0150001N1+02781+01341101211ADDGA1001+999999999GF100991001001999999001001MD1710111+9999REMSYN054AAXX  07091 59046 42965 00702 10278 20134 40121 57011;
0152590460999992000110712004+24340+109390FM-12+009799999V0200201N001012200019N0100001N1+02341+01451101401ADDAA199000091GA1001+999999999GF100991001001999999001001MD1210181+9999REMSYN054AAXX  07121 59046 32960 00201 10234 20145 40140 52018;EQDQ01  00002PRCP99
0187590460999992000110718004+24340+109390FM-12+009799999V0209999C000012200019N0060001N1+01841+01591101501ADDAA199000091GA1001+999999999GF100991001001999999001001KA1999M+02841MD1410001+9999MW1101REMSYN070AAXX  07181 59046 31956 00000 10184 20159 40150 54000 71000 333 10284;EQDQ01  00002PRCP99
0134590460999992000110721004+24340+109390FM-12+009799999V0203401N001012200019N0060001N1+01761+01471101451ADDGA1001+999999999GF100991001001999999001001MD1710051+9999MW1101REMSYN060AAXX  07211 59046 41956 03401 10176 20147 40145 57005 71000;
0164590460999992000110800004+24340+109390FM-12+009799999V0203601N001012200019N0050001N1+01791+01431101591ADDAA199000091GF101991011001999999031001MD1210131+0001MW1101REMSYN076AAXX  08001 59046 31950 13601 10179 20143 40159 52013 71000 81030 333 00003;EQDQ01  00002PRCP99
0177590460999992000110806004+24340+109390FM-12+009799999V0203401N004010150019N0080001N1+02321+01411101471ADDAA199000091GF107991071051017501999999KA1999N+01701MD1710231+9999MW1041REMSYN076AAXX  08061 59046 31758 73404 10232 20141 40147 57023 70400 875// 333 20170;EQDQ01  00002PRCP99
0124590460999992000110809004+24340+109390FM-12+009799999V0200401N003010150019N0080001N1+02271+01431101401ADDGF107991071051017501999999MD1710071+9999MW1041REMSYN066AAXX  08091 59046 41758 70403 10227 20143 40140 57007 70400 875//;
0154590460999992000110812004+24340+109390FM-12+009799999V0203201N002010120019N0060001N1+02111+01471101611ADDAA199000091GF108991081051012501999999MD1210211+9999MW1041REMSYN066AAXX  08121 59046 31656 83202 10211 20147 40161 52021 70400 885//;EQDQ01  00002PRCP99
0177590460999992000110818004+24340+109390FM-12+009799999V0200401N001010120019N0060001N1+01861+01371101601ADDAA199000091GF107991071051012501999999KA1999M+02351MD1710101+9999MW1101REMSYN076AAXX  08181 59046 31656 70401 10186 20137 40160 57010 71000 875// 333 10235;EQDQ01  00002PRCP99
0134590460999992000110821004+24340+109390FM-12+009799999V0203601N001012200019N0050001N1+01671+01301101491ADDGA1001+999999999GF100991001001999999001001MD1710111+9999MW1101REMSYN060AAXX  08211 59046 41950 03601 10167 20130 40149 57011 71000;
0164590460999992000110900004+24340+109390FM-12+009799999V0200401N001010150019N0060001N1+01641+01241101671ADDAA199000091GF107991071051017501999999MD1210171+0011MW1101REMSYN076AAXX  09001 59046 31756 70401 10164 20124 40167 52017 71000 875// 333 00152;EQDQ01  00002PRCP99
0124590460999992000110903004+24340+109390FM-12+009799999V0200401N003010150019N0080001N1+01941+01281101711ADDGF107991071051017501999999MD1210051+9999MW1041REMSYN066AAXX  09031 59046 41758 70403 10194 20128 40171 52005 70400 875//;
0112590460999992000110909004+24340+109390FM-12+009799999V0201101N003012200019N0250001N1+02111+01391101371ADDGF103991031051017501001001MD1710021+9999REMSYN060AAXX  09091 59046 42775 31103 10211 20139 40137 57002 83500;
0142590460999992000110912004+24340+109390FM-12+009799999V0200701N002010150019N0200001N1+01971+01401101591ADDAA199000091GF107991071051017501999999MD1210211+9999REMSYN060AAXX  09121 59046 32770 70702 10197 20140 40159 52021 875//;EQDQ01  00002PRCP99
0165590460999992000110918004+24340+109390FM-12+009799999V0200901N003010150019N0200001N1+01841+01231101811ADDAA199000091GF108991081051017501999999KA1999M+02311MD1210051+9999REMSYN070AAXX  09181 59046 32770 80903 10184 20123 40181 52005 885// 333 10231;EQDQ01  00002PRCP99
0112590460999992000110921004+24340+109390FM-12+009799999V0200401N003010150019N0120001N1+01771+01231101901ADDGF107991071051017501999999MD1210081+9999REMSYN060AAXX  09211 59046 42762 70403 10177 20123 40190 52008 875//;
0152590460999992000111000004+24340+109390FM-12+009799999V0200401N002010150019N0100001N1+01741+01261102171ADDAA199000091GF107991071051017501999999MD1210271+0051REMSYN070AAXX  10001 59046 32760 70402 10174 20126 40217 52027 875// 333 00501;EQDQ01  00002PRCP99
0112590460999992000111003004+24340+109390FM-12+009799999V0200701N003010150019N0150001N1+01931+01221102321ADDGF107991071051017501999999MD1210151+9999REMSYN060AAXX  10031 59046 42765 70703 10193 20122 40232 52015 875//;
0165590460999992000111006004+24340+109390FM-12+009799999V0200701N004010150019N0300001N1+02021+01181102101ADDAA199000091GF108991081051017501999999KA1999N+01731MD1710221+9999REMSYN070AAXX  10061 59046 32780 80704 10202 20118 40210 57022 885// 333 20173;EQDQ01  00002PRCP99
0112590460999992000111009004+24340+109390FM-12+009799999V0200901N004010150019N0250001N1+01831+01011102081ADDGF107991071051017501999999MD1710021+9999REMSYN060AAXX  10091 59046 42775 70904 10183 20101 40208 57002 875//;
0142590460999992000111012004+24340+109390FM-12+009799999V0200401N003010150019N0200001N1+01591+00841102401ADDAA199000091GF108991081051017501999999MD1210311+9999REMSYN060AAXX  10121 59046 32770 80403 10159 20084 40240 52031 885//;EQDQ01  00002PRCP99
0175590460999992000111018004+24340+109390FM-12+009799999V0200401N003012200019N0150001N1+01241+00681102511ADDAA199000091GA1001+999999999GF100991001001999999001001KA1999M+02101MD1210021+9999REMSYN064AAXX  10181 59046 32965 00403 10124 20068 40251 52002 333 10210;EQDQ01  00002PRCP99
0112590460999992000111021004+24340+109390FM-12+009799999V0200401N003019999999N0150001N1+01151+00641102481ADDGF107991071001999999031999MD1710031+9999REMSYN060AAXX  10211 59046 42965 70403 10115 20064 40248 57003 8703/;
0152590460999992000111100004+24340+109390FM-12+009799999V0200401N003010120019N0200001N1+01211+00691102651ADDAA199000091GF108991081051012501999999MD1210161+0051REMSYN070AAXX  11001 59046 32670 80403 10121 20069 40265 52016 885// 333 00555;EQDQ01  00002PRCP99
0112590460999992000111103004+24340+109390FM-12+009799999V0200201N002010120019N0200001N1+01301+00701102791ADDGF108991081051012501999999MD1210141+9999REMSYN060AAXX  11031 59046 42670 80202 10130 20070 40279 52014 885//;
0165590460999992000111106004+24340+109390FM-12+009799999V0200901N003010150019N0250001N1+01401+00651102471ADDAA199000091GF108991081051017501999999KA1999N+01111MD1710321+9999REMSYN070AAXX  11061 59046 32775 80903 10140 20065 40247 57032 885// 333 20111;EQDQ01  00002PRCP99
0112590460999992000111109004+24340+109390FM-12+009799999V0203401N004010150019N0200001N1+01281+00551102341ADDGF108991081051017501999999MD1710131+9999REMSYN060AAXX  11091 59046 42770 83404 10128 20055 40234 57013 885//;
0142590460999992000111112004+24340+109390FM-12+009799999V0203201N002010120019N0200001N1+01181+00481102581ADDAA199000091GF108991081051012501999999MD1210241+9999REMSYN060AAXX  11121 59046 32670 83202 10118 20048 40258 52024 885//;EQDQ01  00002PRCP99
0165590460999992000111118004+24340+109390FM-12+009799999V0203601N003010150019N0200001N1+01041+00461102761ADDAA199000091GF108991081051017501999999KA1999M+01421MD1210031+9999REMSYN070AAXX  11181 59046 32770 83603 10104 20046 40276 52003 885// 333 10142;EQDQ01  00002PRCP99
0112590460999992000111121004+24340+109390FM-12+009799999V0203201N003010150019N0200001N1+01011+00401102681ADDGF108991081051017501999999MD1710081+9999REMSYN060AAXX  11211 59046 42770 83203 10101 20040 40268 57008 885//;
0152590460999992000111200004+24340+109390FM-12+009799999V0200201N002010150019N0200001N1+00961+00361102781ADDAA199000091GF108991081051017501999999MD1210101+0011REMSYN070AAXX  12001 59046 32770 80202 10096 20036 40278 52010 885// 333 00153;EQDQ01  00002PRCP99
0112590460999992000111203004+24340+109390FM-12+009799999V0203201N004010150019N0250001N1+01151+00411102811ADDGF108991081051017501999999MD1210031+9999REMSYN060AAXX  12031 59046 42775 83204 10115 20041 40281 52003 885//;
0165590460999992000111206004+24340+109390FM-12+009799999V0203201N003012200019N0300001N1+01581+00561102461ADDAA199000091GF102991021051017501001001KA1999N+00961MD1710341+9999REMSYN070AAXX  12061 59046 32780 23203 10158 20056 40246 57034 82500 333 20096;EQDQ01  00002PRCP99
0122590460999992000111209004+24340+109390FM-12+009799999V0200401N004012200019N0300001N1+01541+00531102351ADDGA1001+999999999GF100991001001999999001001MD1710111+9999REMSYN054AAXX  12091 59046 42980 00404 10154 20053 40235 57011;
0152590460999992000111212004+24340+109390FM-12+009799999V0203401N002012200019N0300001N1+01211+00541102461ADDAA199000091GA1001+999999999GF100991001001999999001001MD1210101+9999REMSYN054AAXX  12121 59046 32980 03402 10121 20054 40246 52010;EQDQ01  00002PRCP99
0175590460999992000111218004+24340+109390FM-12+009799999V0203601N001012200019N0200001N1+01041+00441102441ADDAA199000091GA1001+999999999GF100991001001999999001001KA1999M+01641MD1710091+9999REMSYN064AAXX  12181 59046 32970 03601 10104 20044 40244 57009 333 10164;EQDQ01  00002PRCP99
0112590460999992000111221004+24340+109390FM-12+009799999V0200401N002012200019N0150001N1+00921+00471102341ADDGF102991021001999999031001MD1710101+9999REMSYN060AAXX  12211 59046 42965 20402 10092 20047 40234 57010 82030;
0152590460999992000111300004+24340+109390FM-12+009799999V0200901N002019999999N0180001N1+00921+00371102461ADDAA199000091GF105991051001999999031001MD1210111+0031REMSYN070AAXX  13001 59046 32968 50902 10092 20037 40246 52011 85030 333 05300;EQDQ01  00002PRCP99
0112590460999992000111303004+24340+109390FM-12+009799999V0200701N003012200019N0200001N1+01371+00321102411ADDGF102991021001999999031001MD1710041+9999REMSYN060AAXX  13031 59046 42970 20703 10137 20032 40241 57004 82030;
0165590460999992000111306004+24340+109390FM-12+009799999V0200401N002019999999N0300001N1+01821+00441101931ADDAA199000091GF106991061001999999031001KA1999N+00881MD1710471+9999REMSYN070AAXX  13061 59046 32980 60402 10182 20044 40193 57047 86030 333 20088;EQDQ01  00002PRCP99
0112590460999992000111309004+24340+109390FM-12+009799999V0200401N002019999999N0300001N1+01851+00571101751ADDGF107991071001999999031999MD1710181+9999REMSYN060AAXX  13091 59046 42980 70402 10185 20057 40175 57018 8703/;
0142590460999992000111312004+24340+109390FM-12+009799999V0209999C000010150019N0250001N1+01771+00821101891ADDAA199000091GF107991071051017501999999MD1210141+9999REMSYN060AAXX  13121 59046 32775 70000 10177 20082 40189 52014 875//;EQDQ01  00002PRCP99
0165590460999992000111318004+24340+109390FM-12+009799999V0200401N003019999999N0200001N1+01601+00671101971ADDAA199000091GF107991071001999999031999KA1999M+01911MD1410001+9999REMSYN070AAXX  13181 59046 32970 70403 10160 20067 40197 54000 8703/ 333 10191;EQDQ01  00002PRCP99
0112590460999992000111321004+24340+109390FM-12+009799999V0200701N002010150019N0200001N1+01541+00781101931ADDGF108991081051017501999999MD1710041+9999REMSYN060AAXX  13211 59046 42770 80702 10154 20078 40193 57004 885//;
0157590460999992000111400004+24340+109390FM-12+009799999V0200401N003010150019N0200001N1+01431+00811102051ADDAA106000791GF108991081051017501999999MD1210121-0401MW1601REMSYN088AAXX  14001 59046 11770 80403 10143 20081 40205 52012 69901 76000 885// 333 05405 79999;
0132590460999992000111403004+24340+109390FM-12+009799999V0200401N003010150019N0180001N1+01501+00961102171ADDAY161031GF108991081051017501999999MD1210121+9999MW1211REMSYN066AAXX  14031 59046 41768 80403 10150 20096 40217 52012 72160 885//;
0172590460999992000111406004+24340+109390FM-12+009799999V0201101N003010150019N0200001N1+01801+01141101851ADDAA106000791AY161061GF107991071051017501999999KA1999N+01391MD1710321+9999MW1001REMSYN082AAXX  14061 59046 11770 71103 10180 20114 40185 57032 69901 70060 875// 333 20139;
0112590460999992000111409004+24340+109390FM-12+009799999V0200701N002010150019N0200001N1+01891+01231101751ADDGF107991071051017501999999MD1710091+9999REMSYN060AAXX  14091 59046 42770 70702 10189 20123 40175 57009 875//;
0165590460999992000111418004+24340+109390FM-12+009799999V0203201N003010120019N0150001N1+01561+01071102121ADDAA199000091GF108991081051012501999999KA1999M+01951MD1210061+9999REMSYN070AAXX  14181 59046 32665 83203 10156 20107 40212 52006 885// 333 10195;EQDQ01  00002PRCP99
0139590460999992000111500004+24340+109390FM-12+009799999V0203401N002010150019N0150001N1+01441+00981102221ADDAA124000791GF107991071051017501999999MD1210161+0201REMSYN076AAXX  15001 59046 32765 73402 10144 20098 40222 52016 875// 333 00200 79999;
0112590460999992000111503004+24340+109390FM-12+009799999V0203201N004010210019N0150001N1+01651+00991102331ADDGF107991071051022501999999MD1210111+9999REMSYN060AAXX  15031 59046 42865 73204 10165 20099 40233 52011 875//;
0165590460999992000111506004+24340+109390FM-12+009799999V0203201N003019999999N0200001N1+01951+01091102061ADDAA199000091GF107991071001999999031999KA1999N+01421MD1710271+9999REMSYN070AAXX  15061 59046 32970 73203 10195 20109 40206 57027 8703/ 333 20142;EQDQ01  00002PRCP99
0112590460999992000111509004+24340+109390FM-12+009799999V0203401N003010150019N0150001N1+01831+01051102021ADDGF107991071051017501999999MD1710041+9999REMSYN060AAXX  15091 59046 42765 73403 10183 20105 40202 57004 875//;
0142590460999992000111512004+24340+109390FM-12+009799999V0203201N004010150019N0150001N1+01521+00851102391ADDAA199000091GF108991081051017501999999MD1210361+9999REMSYN060AAXX  15121 59046 32765 83204 10152 20085 40239 52036 885//;EQDQ01  00002PRCP99
0172590460999992000111518004+24340+109390FM-12+009799999V0203201N003010120019N0200001N1+01281+00751102501ADDAA106000791AY161061GF108991081051012501999999KA1999M+02041MD1710081+9999MW1601REMSYN082AAXX  15181 59046 11670 83203 10128 20075 40250 57008 69901 76060 885// 333 10204;
0153590460999992000111521004+24340+109390FM-12+009799999V0203401N003010120019N0150001N1+01251+00711102441ADDAA124000791AY161031GF107991071051012501999999MD1710061+9999MW1601REMSYN076AAXX  15211 59046 41665 73403 10125 20071 40244 57006 76060 875// 333 79999;
0165590460999992000111600004+24340+109390FM-12+009799999V0203201N002010150019N0300001N1+01261+00681102601ADDAA106000791AY161061GF108991081051017501999999MD1210151+0401MW1001REMSYN088AAXX  16001 59046 11780 83202 10126 20068 40260 52015 69901 70060 885// 333 00452 79999;
0112590460999992000111603004+24340+109390FM-12+009799999V0203201N002010150019N0300001N1+01421+00681102701ADDGF108991081051017501999999MD1210101+9999REMSYN060AAXX  16031 59046 42780 83202 10142 20068 40270 52010 885//;
0146590460999992000111606004+24340+109390FM-12+009799999V0200201N002010150019N0300001N1+01501+00781102441ADDAA199000021GF107991071051017501999999KA1999N+01231MD1710261+9999REMSYN070AAXX  16061 59046 32780 70202 10150 20078 40244 57026 875// 333 20123;
0112590460999992000111609004+24340+109390FM-12+009799999V0200401N006012200019N0300001N1+01501+00761102411ADDGF102991021051017501001001MD1710031+9999REMSYN060AAXX  16091 59046 42780 20406 10150 20076 40241 57003 82500;
0142590460999992000111612004+24340+109390FM-12+009799999V0203601N002010120019N0300001N1+01401+00801102641ADDAA199000091GF108991081051012501999999MD1210231+9999REMSYN060AAXX  16121 59046 32680 83602 10140 20080 40264 52023 885//;EQDQ01  00002PRCP99
0165590460999992000111618004+24340+109390FM-12+009799999V0203401N002010120019N0200001N1+01261+00771102781ADDAA199000091GF108991081051012501999999KA1999M+01601MD1410001+9999REMSYN070AAXX  16181 59046 32670 83402 10126 20077 40278 54000 885// 333 10160;EQDQ01  00002PRCP99
0133590460999992000111621004+24340+109390FM-12+009799999V0202901N002010120019N0150001N1+01231+00661102711ADDAA124000791GF108991081051012501999999MD1710071+9999REMSYN070AAXX  16211 59046 42665 82902 10123 20066 40271 57007 885// 333 79999;
0152590460999992000111700004+24340+109390FM-12+009799999V0203601N001019999999N0200001N1+01181+00551102791ADDAA199000091GF106991061001999999031001MD1210081+0021REMSYN070AAXX  17001 59046 32970 63601 10118 20055 40279 52008 86030 333 00251;EQDQ01  00002PRCP99
0112590460999992000111703004+24340+109390FM-12+009799999V0200701N002019999999N0200001N1+01531+00651102741ADDGF106991061001999999031001MD1710051+9999REMSYN060AAXX  17031 59046 42970 60702 10153 20065 40274 57005 86030;
0175590460999992000111706004+24340+109390FM-12+009799999V0203201N004012200019N0300001N1+01781+00651102271ADDAA199000091GA1001+999999999GF100991001001999999001001KA1999N+01131MD1710461+9999REMSYN064AAXX  17061 59046 32980 03204 10178 20065 40227 57046 333 20113;EQDQ01  00002PRCP99
0112590460999992000111709004+24340+109390FM-12+009799999V0200401N003019999999N0300001N1+01841+00691102111ADDGF106991061001999999031001MD1710161+9999REMSYN060AAXX  17091 59046 42980 60403 10184 20069 40211 57016 86030;
0152590460999992000111712004+24340+109390FM-12+009799999V0200701N002012200019N0250001N1+01541+00511102231ADDAA199000091GA1001+999999999GF100991001001999999001001MD1210121+9999REMSYN054AAXX  17121 59046 32975 00702 10154 20051 40223 52012;EQDQ01  00002PRCP99
0165590460999992000111718004+24340+109390FM-12+009799999V0200401N002019999999N0200001N1+01271+00521102301ADDAA199000091GF107991071001999999031999KA1999M+01991MD1210011+9999REMSYN070AAXX  17181 59046 32970 70402 10127 20052 40230 52001 8703/ 333 10199;EQDQ01  00002PRCP99
0112590460999992000111721004+24340+109390FM-12+009799999V0200701N002019999999N0200001N1+01231+00381102251ADDGF107991071001999999031999MD1710051+9999REMSYN060AAXX  17211 59046 42970 70702 10123 20038 40225 57005 8703/;
0152590460999992000111800004+24340+109390FM-12+009799999V0200701N002010150019N0180001N1+01221+00481102331ADDAA199000091GF108991081051017501999999MD1210081+0051REMSYN070AAXX  18001 59046 32768 80702 10122 20048 40233 52008 885// 333 05500;EQDQ01  00002PRCP99
0112590460999992000111803004+24340+109390FM-12+009799999V0200401N003010150019N0180001N1+01361+00551102301ADDGF107991071051017501999999MD1710031+9999REMSYN060AAXX  18031 59046 42768 70403 10136 20055 40230 57003 875//;
0165590460999992000111806004+24340+109390FM-12+009799999V0200401N002010150019N0200001N1+01511+00621101961ADDAA199000091GF107991071051017501999999KA1999N+01191MD1710341+9999REMSYN070AAXX  18061 59046 32770 70402 10151 20062 40196 57034 875// 333 20119;EQDQ01  00002PRCP99
0112590460999992000111809004+24340+109390FM-12+009799999V0200901N003010150019N0150001N1+01521+00711101901ADDGF108991081051017501999999MD1710061+9999REMSYN060AAXX  18091 59046 42765 80903 10152 20071 40190 57006 885//;
0142590460999992000111812004+24340+109390FM-12+009799999V0200701N001010120019N0110001N1+01441+00781102041ADDAA199000091GF108991081051012501999999MD1210141+9999REMSYN060AAXX  18121 59046 32661 80701 10144 20078 40204 52014 885//;EQDQ01  00002PRCP99
0158590460999992000111818004+24340+109390FM-12+009799999V0200701N002010120019N0060001N1+01311+00961101961ADDAA106000791AY161061GF108991081051012501999999MD1710051+9999MW1601REMSYN081AAXX  18181 59046 11656 80702 10131 20096 40196 57005 69901 76060 885// 333 1018;
0153590460999992000111821004+24340+109390FM-12+009799999V0203401N001010120019N0040001N1+01171+01031101871ADDAA124000591AY161031GF108991081051012501999999MD1710091+9999MW1601REMSYN076AAXX  18211 59046 41640 83401 10117 20103 40187 57009 76060 885// 333 70005;
0165590460999992000111900004+24340+109390FM-12+009799999V0209999C000010120019N0040001N1+01201+01091101991ADDAA106000591AY161061GF108991081051012501999999MD1210121-0301MW1601REMSYN088AAXX  19001 59046 11640 80000 10120 20109 40199 52012 69961 76060 885// 333 05300 70006;
0132590460999992000111903004+24340+109390FM-12+009799999V0200201N002010120019N0080001N1+01291+01141102121ADDAY161031GF108991081051012501999999MD1210131+9999MW1101REMSYN066AAXX  19031 59046 41658 80202 10129 20114 40212 52013 71060 885//;
0172590460999992000111906004+24340+109390FM-12+009799999V0203201N002010042019N0060001N1+01301+01191102041ADDAA106002091AY161061GF108991081071004501999999KA1999N+01151MD1710081+9999MW1601REMSYN082AAXX  19061 59046 11456 83202 10130 20119 40204 57008 60021 76060 887// 333 20115;
0140590460999992000111909004+24340+109390FM-12+009799999V0203201N003010042019N0150001N1+01221+01031102231ADDAY161031AY261031GF108991081071004501999999MD1210181+9999MW1601REMSYN066AAXX  19091 59046 41465 83203 10122 20103 40223 52018 76066 887//;
0149590460999992000111912004+24340+109390FM-12+009799999V0203401N004010042019N0250001N1+01191+00801102511ADDAA106001091AY161061GF108991081051004501999999MD1210281+9999MW1601REMSYN072AAXX  19121 59046 11475 83404 10119 20080 40251 52028 60011 76060 885//;
0172590460999992000111918004+24340+109390FM-12+009799999V0202701N003010120019N0250001N1+01071+00621102841ADDAA106000791AY161061GF108991081051012501999999KA1999M+01331MD1210121+9999MW1001REMSYN082AAXX  19181 59046 11675 82703 10107 20062 40284 52012 69901 70060 885// 333 10133;
0133590460999992000111921004+24340+109390FM-12+009799999V0200201N002010120019N0200001N1+01041+00461102841ADDAA124003091GF108991081051012501999999MD1410001+9999REMSYN070AAXX  19211 59046 42670 80202 10104 20046 40284 54000 885// 333 70030;
0149590460999992000112000004+24340+109390FM-12+009799999V0203401N002012200019N0250001N1+01001+00461103041ADDAA124002891GA1001+999999999GF100991001001999999001001MD1210201+1001REMSYN070AAXX  20001 59046 32975 03402 10100 20046 40304 52020 333 01052 70029;
0112590460999992000112003004+24340+109390FM-12+009799999V0203201N004012200019N0300001N1+01381+00471102981ADDGF102991021011008001001001MD1710061+9999REMSYN060AAXX  20031 59046 42580 23204 10138 20047 40298 57006 82100;
0165590460999992000112006004+24340+109390FM-12+009799999V0203401N005012200019N0300001N1+01631+00161102581ADDAA199000091GF101991011011008001001001KA1999N+00961MD1710391+9999REMSYN070AAXX  20061 59046 32580 13405 10163 20016 40258 57039 81100 333 20096;EQDQ01  00002PRCP99
0112590460999992000112009004+24340+109390FM-12+009799999V0203201N003012200019N0300001N1+01661+00251102471ADDGF101991011001999999031001MD1710111+9999REMSYN060AAXX  20091 59046 42980 13203 10166 20025 40247 57011 81030;
0152590460999992000112012004+24340+109390FM-12+009799999V0200701N003012200019N0200001N1+01371+00351102621ADDAA199000091GA1001+999999999GF100991001001999999001001MD1210141+9999REMSYN054AAXX  20121 59046 32970 00703 10137 20035 40262 52014;EQDQ01  00002PRCP99
0175590460999992000112018004+24340+109390FM-12+009799999V0209999C000012200019N0200001N1+01031+00371102571ADDAA199000091GA1001+999999999GF100991001001999999001001KA1999M+01721MD1710071+9999REMSYN064AAXX  20181 59046 32970 00000 10103 20037 40257 57007 333 10172;EQDQ01  00002PRCP99
0122590460999992000112021004+24340+109390FM-12+009799999V0200201N001012200019N0150001N1+00881+00421102541ADDGA1001+999999999GF100991001001999999001001MD1710031+9999REMSYN054AAXX  20211 59046 42965 00201 10088 20042 40254 57003;
0170590460999992000112100004+24340+109390FM-12+009799999V0203601N001012200019N0130001N1+00871+00391102641ADDAA199000091GF104991041001999999031001IA2999+00309MD1210091-0401REMSYN076AAXX  21001 59046 32963 43601 10087 20039 40264 52009 84030 333 05451 30036;EQDQ01  00002PRCP99
0112590460999992000112103004+24340+109390FM-12+009799999V0200701N002012200019N0300001N1+01441+00081102621ADDGF101991011001999999031001MD1710011+9999REMSYN060AAXX  21031 59046 42980 10702 10144 20008 40262 57001 81030;
0175590460999992000112106004+24340+109390FM-12+009799999V0200201N003012200019N0300001N1+01811-00241102271ADDAA199000091GA1001+999999999GF100991001001999999001001KA1999N+00771MD1710341+9999REMSYN064AAXX  21061 59046 32980 00203 10181 21024 40227 57034 333 20077;EQDQ01  00002PRCP99
0122590460999992000112109004+24340+109390FM-12+009799999V0200701N002012200019N0300001N1+01901-00021102131ADDGA1001+999999999GF100991001001999999001001MD1710141+9999REMSYN054AAXX  21091 59046 42980 00702 10190 21002 40213 57014;
0152590460999992000112112004+24340+109390FM-12+009799999V0209999C000012200019N0300001N1+01421+00421102261ADDAA199000091GA1001+999999999GF100991001001999999001001MD1210121+9999REMSYN054AAXX  21121 59046 32980 00000 10142 20042 40226 52012;EQDQ01  00002PRCP99
0175590460999992000112118004+24340+109390FM-12+009799999V0203201N001012200019N0200001N1+00921+00711102401ADDAA199000091GA1001+999999999GF100991001001999999001001KA1999M+01951MD1710041+9999REMSYN064AAXX  21181 59046 32970 03201 10092 20071 40240 57004 333 10195;EQDQ01  00002PRCP99
0122590460999992000112121004+24340+109390FM-12+009799999V0209999C000012200019N0150001N1+00801+00531102341ADDGA1001+999999999GF100991001001999999001001MD1710061+9999REMSYN054AAXX  21211 59046 42965 00000 10080 20053 40234 57006;
0162590460999992000112200004+24340+109390FM-12+009799999V0200201N001012200019N0120001N1+00841+00431102441ADDAA199000091GA1001+999999999GF100991001001999999001001MD1210091+0021REMSYN064AAXX  22001 59046 32962 00201 10084 20043 40244 52009 333 05200;EQDQ01  00002PRCP99
0122590460999992000112203004+24340+109390FM-12+009799999V0200901N001012200019N0150001N1+01531+00351102521ADDGA1001+999999999GF100991001001999999001001MD1210091+9999REMSYN054AAXX  22031 59046 42965 00901 10153 20035 40252 52009;
0175590460999992000112206004+24340+109390FM-12+009799999V0202701N002012200019N0200001N1+02001+00271102111ADDAA199000091GA1001+999999999GF100991001001999999001001KA1999N+00741MD1710401+9999REMSYN064AAXX  22061 59046 32970 02702 10200 20027 40211 57040 333 20074;EQDQ01  00002PRCP99
0122590460999992000112209004+24340+109390FM-12+009799999V0209999C000012200019N0200001N1+01991+00381101981ADDGA1001+999999999GF100991001001999999001001MD1710131+9999REMSYN054AAXX  22091 59046 42970 00000 10199 20038 40198 57013;
0152590460999992000112212004+24340+109390FM-12+009799999V0202901N001012200019N0200001N1+01471+00951102101ADDAA199000091GA1001+999999999GF100991001001999999001001MD1210111+9999REMSYN054AAXX  22121 59046 32970 02901 10147 20095 40210 52011;EQDQ01  00002PRCP99
0175590460999992000112218004+24340+109390FM-12+009799999V0209999C000012200019N0150001N1+01111+00711102231ADDAA199000091GA1001+999999999GF100991001001999999001001KA1999M+02061MD1710011+9999REMSYN064AAXX  22181 59046 32965 00000 10111 20071 40223 57001 333 10206;EQDQ01  00002PRCP99
0107590460999992000112221004+24340+109390FM-12+009799999V0202901N001012200019N0150001N1+99999+99999999999ADDGA1001+999999999GF100991001001999999001001REMSYN053AAXX  22211 59046 42965 02901 1010 20070 40223 54000;
0164590460999992000112300004+24340+109390FM-12+009799999V0209999C000012200019N0080001N1+00981+00731102331ADDAA199000091GF102991021001999999031001MD1210091+0011MW1101REMSYN076AAXX  23001 59046 31958 20000 10098 20073 40233 52009 71000 82030 333 05101;EQDQ01  00002PRCP99
0134590460999992000112303004+24340+109390FM-12+009799999V0203401N002012200019N0080001N1+01751+00691102301ADDGA1001+999999999GF100991001001999999001001MD1710021+9999MW1041REMSYN060AAXX  23031 59046 41958 03402 10175 20069 40230 57002 70400;
0175590460999992000112306004+24340+109390FM-12+009799999V0203201N002012200019N0120001N1+02161+00631101881ADDAA199000091GA1001+999999999GF100991001001999999001001KA1999N+00911MD1710411+9999REMSYN064AAXX  23061 59046 32962 03202 10216 20063 40188 57041 333 20091;EQDQ01  00002PRCP99
0122590460999992000112309004+24340+109390FM-12+009799999V0201801N002012200019N0200001N1+02301+00681101711ADDGA1001+999999999GF100991001001999999001001MD1710171+9999REMSYN054AAXX  23091 59046 42970 01802 10230 20068 40171 57017;
0152590460999992000112312004+24340+109390FM-12+009799999V0209999C000012200019N0150001N1+01681+00961101811ADDAA199000091GA1001+999999999GF100991001001999999001001MD1210091+9999REMSYN054AAXX  23121 59046 32965 00000 10168 20096 40181 52009;EQDQ01  00002PRCP99
0175590460999992000112318004+24340+109390FM-12+009799999V0202701N001012200019N0120001N1+01251+00961101881ADDAA199000091GA1001+999999999GF100991001001999999001001KA1999M+02361MD1710021+9999REMSYN064AAXX  23181 59046 32962 02701 10125 20096 40188 57002 333 10236;EQDQ01  00002PRCP99
0124590460999992000112321004+24340+109390FM-12+009799999V0209999C000010150019N0080001N1+01201+00961101881ADDGF108991081051017501999999MD1210011+9999MW1101REMSYN066AAXX  23211 59046 41758 80000 10120 20096 40188 52001 71000 885//;
0164590460999992000112400004+24340+109390FM-12+009799999V0202701N002010150019N0060001N1+01301+00991102001ADDAA199000091GF107991071051017501999999MD1210101+0031MW1101REMSYN076AAXX  24001 59046 31756 72702 10130 20099 40200 52010 71000 875// 333 05303;EQDQ01  00002PRCP99
0124590460999992000112403004+24340+109390FM-12+009799999V0203201N001012200019N0060001N1+01911+01001101971ADDGF104991041001999999031001MD1710021+9999MW1041REMSYN066AAXX  24031 59046 41956 43201 10191 20100 40197 57002 70400 84030;
0177590460999992000112406004+24340+109390FM-12+009799999V0201401N001012200019N0070001N1+02421+01061101581ADDAA199000091GF102991011011008001031001KA1999N+01171MD1710381+9999MW1041REMSYN076AAXX  24061 59046 31557 21401 10242 20106 40158 57038 70400 81130 333 20117;EQDQ01  00002PRCP99
0112590460999992000112409004+24340+109390FM-12+009799999V0201801N003012200019N0170001N1+02521+01021101411ADDGF102991021001999999031001MD1710161+9999REMSYN060AAXX  24091 59046 42967 21803 10252 20102 40141 57016 82030;
0142590460999992000112412004+24340+109390FM-12+009799999V0202001N002012200019N0150001N1+02001+01261101541ADDAA199000091GF101991011001999999031001MD1210121+9999REMSYN060AAXX  24121 59046 32965 12002 10200 20126 40154 52012 81030;EQDQ01  00002PRCP99
0165590460999992000112418004+24340+109390FM-12+009799999V0209999C000010150019N0120001N1+01881+01471101611ADDAA199000091GF108991081051017501999999KA1999M+02601MD1210021+9999REMSYN070AAXX  24181 59046 32762 80000 10188 20147 40161 52002 885// 333 10260;EQDQ01  00002PRCP99
0145590460999992000112421004+24340+109390FM-12+009799999V0209999C000010120019N0080001N1+01801+01581101631ADDAA124000391GF108991081051012501999999MD1210021+9999MW1211REMSYN076AAXX  24211 59046 41658 80000 10180 20158 40163 52002 72100 885// 333 70002;
0165590460999992000112500004+24340+109390FM-12+009799999V0209999C000010120019N0030001N1+01761+01491101761ADDAA106000191AY161061GF108991081051012501999999MD1210111-0201MW1101REMSYN088AAXX  25001 59046 11630 80000 10176 20149 40176 52011 69921 71060 885// 333 05205 70002;
0132590460999992000112503004+24340+109390FM-12+009799999V0202001N001010120019N0030001N1+01701+01561101931ADDAY161031GF108991081051012501999999MD1210171+9999MW1601REMSYN066AAXX  25031 59046 41630 82001 10170 20156 40193 52017 76060 885//;
0172590460999992000112506004+24340+109390FM-12+009799999V0200701N002010120019N0030001N1+01781+01681101631ADDAA106002091AY161061GF108991081051012501999999KA1999N+01681MD1710301+9999MW1101REMSYN082AAXX  25061 59046 11630 80702 10178 20168 40163 57030 60021 71060 885// 333 20168;
0132590460999992000112509004+24340+109390FM-12+009799999V0200701N001010120019N0060001N1+01851+01721101521ADDAY161031GF108991081051012501999999MD1710111+9999MW1211REMSYN066AAXX  25091 59046 41656 80701 10185 20172 40152 57011 72160 885//;
0149590460999992000112512004+24340+109390FM-12+009799999V0200201N001010120019N0030001N1+01841+01711101621ADDAA106000191AY161061GF108991081051012501999999MD1210101+9999MW1101REMSYN072AAXX  25121 59046 11630 80201 10184 20171 40162 52010 69921 71060 885//;
0158590460999992000112518004+24340+109390FM-12+009799999V0209999C000010150019N0030001N1+01741+01671101771ADDAA199000021GF107991071051017501999999KA1999M+01891MD1210011+9999MW1101REMSYN076AAXX  25181 59046 31730 70000 10174 20167 40177 52001 71000 875// 333 10189;
0145590460999992000112521004+24340+109390FM-12+009799999V0209999C000010120019N0030001N1+01721+01651101761ADDAA124001891GF108991081051012501999999MD1710011+9999MW1101REMSYN076AAXX  25211 59046 41630 80000 10172 20165 40176 57001 71000 885// 333 70018;
0151590460999992000112600004+24340+109390FM-12+009799999V0209999C000010120019N0030001N1+01751+01681101951ADDAA124001891GF107991071051012501999999MD1210191+0201MW1101REMSYN082AAXX  26001 59046 31630 70000 10175 20168 40195 52019 71000 875// 333 00200 70018;
0124590460999992000112603004+24340+109390FM-12+009799999V0202701N002010120019N0030001N1+02011+01771102061ADDGF107991071051012501999999MD1210111+9999MW1101REMSYN066AAXX  26031 59046 41630 72702 10201 20177 40206 52011 71000 875//;
0177590460999992000112606004+24340+109390FM-12+009799999V0209999C000019999999N0030001N1+02421+01871101771ADDAA199000091GF107991071001999999031999KA1999N+01701MD1710281+9999MW1101REMSYN076AAXX  26061 59046 31930 70000 10242 20187 40177 57028 71000 8703/ 333 20170;EQDQ01  00002PRCP99
0124590460999992000112609004+24340+109390FM-12+009799999V0209999C000019999999N0040001N1+02481+01891101681ADDGF107991071001999999031999MD1710091+9999MW1041REMSYN066AAXX  26091 59046 41940 70000 10248 20189 40168 57009 70400 8703/;
0154590460999992000112612004+24340+109390FM-12+009799999V0200701N002019999999N0050001N1+02241+01831101781ADDAA199000091GF107991071001999999031999MD1210101+9999MW1101REMSYN066AAXX  26121 59046 31950 70702 10224 20183 40178 52010 71000 8703/;EQDQ01  00002PRCP99
0177590460999992000112618004+24340+109390FM-12+009799999V0200401N002019999999N0060001N1+01881+01471101921ADDAA199000091GF107991071001999999031999KA1999M+02561MD1210011+9999MW1101REMSYN076AAXX  26181 59046 31956 70402 10188 20147 40192 52001 71000 8703/ 333 10256;EQDQ01  00002PRCP99
0124590460999992000112621004+24340+109390FM-12+009799999V0203601N001019999999N0060001N1+01801+01461101981ADDGF107991071001999999031999MD1210061+9999MW1101REMSYN066AAXX  26211 59046 41956 73601 10180 20146 40198 52006 71000 8703/;
0164590460999992000112700004+24340+109390FM-12+009799999V0203201N002019999999N0030001N1+01721+01391102151ADDAA199000091GF107991071001999999031999MD1210161+0021MW1101REMSYN076AAXX  27001 59046 31930 73202 10172 20139 40215 52016 71000 8703/ 333 00200;EQDQ01  00002PRCP99
0124590460999992000112703004+24340+109390FM-12+009799999V0203401N003010150019N0040001N1+01891+01331102221ADDGF108991081051017501999999MD1210071+9999MW1101REMSYN066AAXX  27031 59046 41740 83403 10189 20133 40222 52007 71000 885//;
0177590460999992000112706004+24340+109390FM-12+009799999V0202901N001019999999N0060001N1+02111+01411101901ADDAA199000091GF107991071001999999031999KA1999N+01711MD1710311+9999MW1041REMSYN076AAXX  27061 59046 31956 72901 10211 20141 40190 57031 70400 8703/ 333 20171;EQDQ01  00002PRCP99
0124590460999992000112709004+24340+109390FM-12+009799999V0203601N002019999999N0050001N1+02011+01291101881ADDGF107991071001999999031999MD1710031+9999MW1041REMSYN066AAXX  27091 59046 41950 73602 10201 20129 40188 57003 70400 8703/;
0154590460999992000112712004+24340+109390FM-12+009799999V0203401N002010150019N0060001N1+01671+01101102041ADDAA199000091GF107991071051017501999999MD1210151+9999MW1041REMSYN066AAXX  27121 59046 31756 73402 10167 20110 40204 52015 70400 875//;EQDQ01  00002PRCP99
0177590460999992000112718004+24340+109390FM-12+009799999V0203601N001010150019N0070001N1+01491+00911102081ADDAA199000091GF107991071051017501999999KA1999M+02171MD1710051+9999MW1041REMSYN076AAXX  27181 59046 31757 73601 10149 20091 40208 57005 70400 875// 333 10217;EQDQ01  00002PRCP99
0124590460999992000112721004+24340+109390FM-12+009799999V0203401N002010150019N0070001N1+01421+00911102051ADDGF108991081051017501999999MD1710041+9999MW1101REMSYN066AAXX  27211 59046 41757 83402 10142 20091 40205 57004 71000 885//;
0164590460999992000112800004+24340+109390FM-12+009799999V0203401N002010120019N0060001N1+01391+00901102201ADDAA199000091GF108991081051012501999999MD1210141+0001MW1101REMSYN076AAXX  28001 59046 31656 83402 10139 20090 40220 52014 71000 885// 333 00053;EQDQ01  00002PRCP99
0132590460999992000112803004+24340+109390FM-12+009799999V0203401N002010120019N0060001N1+01441+00981102271ADDAY161031GF108991081051012501999999MD1210071+9999MW1101REMSYN066AAXX  28031 59046 41656 83402 10144 20098 40227 52007 71060 885//;
0172590460999992000112806004+24340+109390FM-12+009799999V0203401N001010120019N0080001N1+01471+00991102001ADDAA106000791AY161061GF108991081051012501999999KA1999N+01371MD1710271+9999MW1101REMSYN082AAXX  28061 59046 11658 83401 10147 20099 40200 57027 69901 71060 885// 333 20137;
0124590460999992000112809004+24340+109390FM-12+009799999V0203201N001010120019N0080001N1+01481+01021101871ADDGF108991081051012501999999MD1710131+9999MW1101REMSYN066AAXX  28091 59046 41658 83201 10148 20102 40187 57013 71000 885//;
0142590460999992000112812004+24340+109390FM-12+009799999V0200201N001010120019N0120001N1+01441+01021101971ADDAA199000091GF108991081051012501999999MD1210101+9999REMSYN060AAXX  28121 59046 32662 80201 10144 20102 40197 52010 885//;EQDQ01  00002PRCP99
0164590460999992000112818004+24340+109390FM-12+009799999V0209999C000010120019N0110001N1+01391+01031102021ADDAA106000791GF108991081051012501999999KA1999M+01531MD1710021+9999MW1601REMSYN082AAXX  28181 59046 11661 80000 10139 20103 40202 57002 69901 76000 885// 333 10153;
0153590460999992000112821004+24340+109390FM-12+009799999V0203401N001010120019N0060001N1+01361+01061101961ADDAA124000791AY161031GF108991081051012501999999MD1710061+9999MW1101REMSYN076AAXX  28211 59046 41656 83401 10136 20106 40196 57006 71060 885// 333 79999;
0124590460999992000112903004+24340+109390FM-12+009799999V0200701N002010120019N0060001N1+01501+01131102091ADDGF108991081051012501999999MD1210041+9999MW1101REMSYN066AAXX  29031 59046 41656 80702 10150 20113 40209 52004 71000 885//;
0158590460999992000112906004+24340+109390FM-12+009799999V0203401N002010120019N0050001N1+01591+01191101801ADDAA199000021GF108991081051012501999999KA1999N+01351MD1710281+9999MW1101REMSYN076AAXX  29061 59046 31650 83402 10159 20119 40180 57028 71000 885// 333 20135;
0124590460999992000112909004+24340+109390FM-12+009799999V0203601N001010150019N0070001N1+01581+01201101731ADDGF107991071051017501999999MD1710071+9999MW1101REMSYN066AAXX  29091 59046 41757 73601 10158 20120 40173 57007 71000 875//;
0154590460999992000112912004+24340+109390FM-12+009799999V0203401N002010150019N0060001N1+01471+01141101831ADDAA199000091GF108991081051017501999999MD1210091+9999MW1101REMSYN066AAXX  29121 59046 31756 83402 10147 20114 40183 52009 71000 885//;EQDQ01  00002PRCP99
0172590460999992000112918004+24340+109390FM-12+009799999V0203201N001010120019N0080001N1+01421+01201101811ADDAA106000591AY161061GF108991081051012501999999KA1999M+01611MD1710081+9999MW1101REMSYN082AAXX  29181 59046 11658 83201 10142 20120 40181 57008 69951 71060 885// 333 10161;
0145590460999992000112921004+24340+109390FM-12+009799999V0203401N001010120019N0050001N1+01401+01141101721ADDAA124000591GF108991081051012501999999MD1710091+9999MW1101REMSYN076AAXX  29211 59046 41650 83401 10140 20114 40172 57009 71000 885// 333 70005;
0157590460999992000113000004+24340+109390FM-12+009799999V0200201N001010120019N0100001N1+01411+01131101901ADDAA106000791GF108991081051012501999999MD1210171-0201MW1601REMSYN088AAXX  30001 59046 11660 80201 10141 20113 40190 52017 69901 76000 885// 333 05200 70005;
0140590460999992000113003004+24340+109390FM-12+009799999V0202901N001010042019N0080001N1+01291+01201102101ADDAY161031AY261031GF108991081051004501999999MD1210201+9999MW1601REMSYN066AAXX  30031 59046 41458 82901 10129 20120 40210 52020 76066 885//;
0180590460999992000113006004+24340+109390FM-12+009799999V0200401N002010042019N0080001N1+01281+01131101881ADDAA106002091AY161061AY261061GF108991081051004501999999KA1999N+01251MD1710221+9999MW1601REMSYN082AAXX  30061 59046 11458 80402 10128 20113 40188 57022 60021 76066 885// 333 20125;
0140590460999992000113009004+24340+109390FM-12+009799999V0203201N001010042019N0060001N1+01231+01121101891ADDAY161031AY261031GF108991081051004501999999MD1210011+9999MW1601REMSYN066AAXX  30091 59046 41456 83201 10123 20112 40189 52001 76066 885//;
0149590460999992000113012004+24340+109390FM-12+009799999V0203401N002010120019N0200001N1+01271+01021101971ADDAA106000191AY161061GF108991081051012501999999MD1210081+9999MW1001REMSYN072AAXX  30121 59046 11670 83402 10127 20102 40197 52008 69911 70060 885//;
0172590460999992000113018004+24340+109390FM-12+009799999V0200201N002010042019N0120001N1+01161+01061101991ADDAA106000591AY161061GF108991081051004501999999KA1999M+01441MD1710011+9999MW1601REMSYN082AAXX  30181 59046 11462 80202 10116 20106 40199 57001 69941 76060 885// 333 10144;
0153590460999992000113021004+24340+109390FM-12+009799999V0203401N001010042019N0080001N1+01171+01071101891ADDAA124002391AY161031GF108991081051004501999999MD1710101+9999MW1601REMSYN076AAXX  30211 59046 41458 83401 10117 20107 40189 57010 76060 885// 333 70024;
0165590460999992000120100004+24340+109390FM-12+009799999V0203401N001010042019N0040001N1+01161+01061102001ADDAA106000191AY161061GF108991081051004501999999MD1210111+0101MW1601REMSYN088AAXX  01001 59046 11440 83401 10116 20106 40200 52011 69921 76060 885// 333 00153 70025;
0132590460999992000120103004+24340+109390FM-12+009799999V0203601N001010120019N0040001N1+01251+01081102081ADDAY161031GF108991081051012501999999MD1210081+9999MW1601REMSYN066AAXX  01031 59046 41640 83601 10125 20108 40208 52008 76060 885//;
0172590460999992000120106004+24340+109390FM-12+009799999V0203201N001010120019N0080001N1+01321+01131101811ADDAA106000191AY161061GF108991081051012501999999KA1999N+01151MD1710261+9999MW1101REMSYN082AAXX  01061 59046 11658 83201 10132 20113 40181 57026 69911 71060 885// 333 20115;
0112590460999992000120109004+24340+109390FM-12+009799999V0200201N001010120019N0130001N1+01341+01111101751ADDGF108991081051012501999999MD1710061+9999REMSYN060AAXX  01091 59046 42663 80201 10134 20111 40175 57006 885//;
0141590460999992000120112004+24340+109390FM-12+009799999V0200401N002010042019N0130001N1+01281+01091101891ADDAA106000791GF108991081051004501999999MD1210131+9999MW1601REMSYN072AAXX  01121 59046 11463 80402 10128 20109 40189 52013 69901 76000 885//;
0172590460999992000120118004+24340+109390FM-12+009799999V0203401N003010120019N0120001N1+01261+00991102111ADDAA106000791AY161061GF108991081051012501999999KA1999M+01381MD1210061+9999MW1001REMSYN082AAXX  01181 59046 11662 83403 10126 20099 40211 52006 69901 70060 885// 333 10138;
0145590460999992000120121004+24340+109390FM-12+009799999V0203401N004010120019N0060001N1+01171+00911102191ADDAA124000391GF108991081051012501999999MD1210081+9999MW1601REMSYN076AAXX  01211 59046 41656 83404 10117 20091 40219 52008 76000 885// 333 70002;
0165590460999992000120200004+24340+109390FM-12+009799999V0203401N003010042019N0080001N1+01041+00921102401ADDAA106000391AY161061GF108991081051004501999999MD1210211+0401MW1601REMSYN088AAXX  02001 59046 11458 83403 10104 20092 40240 52021 69931 76060 885// 333 00451 70004;
0132590460999992000120203004+24340+109390FM-12+009799999V0203601N003010042019N0250001N1+01121+00841102591ADDAY161031GF108991081051004501999999MD1210191+9999MW1601REMSYN066AAXX  02031 59046 41475 83603 10112 20084 40259 52019 76060 885//;
0172590460999992000120206004+24340+109390FM-12+009799999V0203201N002010120019N0300001N1+01191+00741102361ADDAA106000191AY161061GF108991081051012501999999KA1999N+01021MD1710231+9999MW1001REMSYN082AAXX  02061 59046 11680 83202 10119 20074 40236 57023 69921 70060 885// 333 20102;
0112590460999992000120209004+24340+109390FM-12+009799999V0203401N002010120019N0300001N1+01181+00721102341ADDGF108991081051012501999999MD1710021+9999REMSYN060AAXX  02091 59046 42680 83402 10118 20072 40234 57002 885//;
0123590460999992000120212004+24340+109390FM-12+009799999V0203201N001010120019N0300001N1+01171+00711102561ADDAA199000021GF108991081051012501999999MD1210211+9999REMSYN060AAXX  02121 59046 32680 83201 10117 20071 40256 52021 885//;
0165590460999992000120218004+24340+109390FM-12+009799999V0203401N005010120019N0200001N1+01131+00731102611ADDAA199000091GF108991081051012501999999KA1999M+01241MD1710031+9999REMSYN070AAXX  02181 59046 32670 83405 10113 20073 40261 57003 885// 333 10124;EQDQ01  00002PRCP99
0153590460999992000120221004+24340+109390FM-12+009799999V0203401N001010042019N0080001N1+01021+00861102611ADDAA124000891AY161031GF108991081051004501999999MD1410001+9999MW1601REMSYN076AAXX  02211 59046 41458 83401 10102 20086 40261 54000 76060 885// 333 70007;
0165590460999992000120300004+24340+109390FM-12+009799999V0203401N002010042019N0080001N1+00961+00841102831ADDAA106000891AY161061GF108991081051004501999999MD1210221+0401MW1601REMSYN088AAXX  03001 59046 11458 83402 10096 20084 40283 52022 69971 76060 885// 333 00451 70009;
0140590460999992000120303004+24340+109390FM-12+009799999V0203401N003010042019N0060001N1+00961+00841102921ADDAY161031AY261031GF108991081051004501999999MD1210091+9999MW1601REMSYN066AAXX  03031 59046 41456 83403 10096 20084 40292 52009 76066 885//;
0180590460999992000120306004+24340+109390FM-12+009799999V0203601N002010042019N0060001N1+01081+00881102671ADDAA106006191AY161061AY261061GF108991081051004501999999KA1999N+00931MD1710251+9999MW1601REMSYN082AAXX  03061 59046 11456 83602 10108 20088 40267 57025 60061 76066 885// 333 20093;
0132590460999992000120309004+24340+109390FM-12+009799999V0200201N001010042019N0060001N1+01161+00881102511ADDAY161031GF108991081051004501999999MD1710161+9999MW1601REMSYN066AAXX  03091 59046 41456 80201 10116 20088 40251 57016 76060 885//;
0149590460999992000120312004+24340+109390FM-12+009799999V0200201N002010120019N0150001N1+01131+00821102571ADDAA106000191AY161061GF107991071051012501999999MD1210061+9999MW1001REMSYN072AAXX  03121 59046 11665 70202 10113 20082 40257 52006 69911 70060 875//;
0168590460999992000120318004+24340+109390FM-12+009799999V0209999C000012200019N0080001N1+00821+00731102341ADDAA199000021GA1001+999999999GF100991001001999999001001KA1999M+01191MD1710161+9999MW1101REMSYN070AAXX  03181 59046 31958 00000 10082 20073 40234 57016 71000 333 10119;
0155590460999992000120321004+24340+109390FM-12+009799999V0200201N001012200019N0080001N1+00781+00741102231ADDAA124006991GA1001+999999999GF100991001001999999001001MD1710111+9999MW1101REMSYN070AAXX  03211 59046 41958 00201 10078 20074 40223 57011 71000 333 70068;
0187590460999992000120400004+24340+109390FM-12+009799999V0209999C000010001519N0001001N1+00651+00631102371ADDAA124006491AY141061GA1091+999999999GF109991091999999999999999IA2999+00379MD1210131-0501MW1471REMSYN082AAXX  04001 59046 31/01 90000 10065 20063 40237 52013 74740 333 05553 30037 70063;
0195590460999992000120406004+24340+109390FM-12+009799999V0203401N003012200019N0250001N1+01641+00481101981ADDAA199000091AY141061GA1001+999999999GF100991001001999999001001KA1999N+00641MD1710421+9999MW1001REMSYN070AAXX  04061 59046 31975 03403 10164 20048 40198 57042 70040 333 20064;EQDQ01  00002PRCP99
0112590460999992000120409004+24340+109390FM-12+009799999V0209999C000019999999N0250001N1+01751+00641101761ADDGF105991051001999999031001MD1710211+9999REMSYN060AAXX  04091 59046 42975 50000 10175 20064 40176 57021 85030;
0152590460999992000120412004+24340+109390FM-12+009799999V0209999C000012200019N0150001N1+01241+00951101911ADDAA199000091GA1001+999999999GF100991001001999999001001MD1210131+9999REMSYN054AAXX  04121 59046 32965 00000 10124 20095 40191 52013;EQDQ01  00002PRCP99
0165590460999992000120418004+24340+109390FM-12+009799999V0209999C000012200019N0110001N1+00981+00861101961ADDAA199000091GF104991041001999999031001KA1999M+01821MD1410001+9999REMSYN070AAXX  04181 59046 32961 40000 10098 20086 40196 54000 84030 333 10182;EQDQ01  00002PRCP99
0124590460999992000120421004+24340+109390FM-12+009799999V0209999C000010150019N0060001N1+01021+00861101981ADDGF107991071051017501999999MD1210021+9999MW1101REMSYN066AAXX  04211 59046 41756 70000 10102 20086 40198 52002 71000 875//;
0164590460999992000120500004+24340+109390FM-12+009799999V0209999C000010150019N0080001N1+01111+00851102141ADDAA199000091GF107991071051017501999999MD1210151+0021MW1101REMSYN076AAXX  05001 59046 31758 70000 10111 20085 40214 52015 71000 875// 333 05205;EQDQ01  00002PRCP99
0124590460999992000120503004+24340+109390FM-12+009799999V0203401N001010210019N0080001N1+01461+00781102261ADDGF107991071051022501999999MD1210121+9999MW1041REMSYN066AAXX  05031 59046 41858 73401 10146 20078 40226 52012 70400 875//;
0165590460999992000120506004+24340+109390FM-12+009799999V0202701N001019999999N0150001N1+01841+00911101841ADDAA199000091GF107991071001999999031999KA1999N+00951MD1710411+9999REMSYN070AAXX  05061 59046 32965 72701 10184 20091 40184 57041 8703/ 333 20095;EQDQ01  00002PRCP99
0112590460999992000120509004+24340+109390FM-12+009799999V0209999C000019999999N0120001N1+01951+00961101691ADDGF107991071001999999031999MD1710141+9999REMSYN060AAXX  05091 59046 42962 70000 10195 20096 40169 57014 8703/;
0142590460999992000120512004+24340+109390FM-12+009799999V0209999C000010150019N0100001N1+01651+01181101861ADDAA199000091GF107991071051017501999999MD1210161+9999REMSYN060AAXX  05121 59046 32760 70000 10165 20118 40186 52016 875//;EQDQ01  00002PRCP99
0165590460999992000120518004+24340+109390FM-12+009799999V0209999C000010150019N0100001N1+01521+01231101881ADDAA199000091GF108991081051017501999999KA1999M+02031MD1710051+9999REMSYN070AAXX  05181 59046 32760 80000 10152 20123 40188 57005 885// 333 10203;EQDQ01  00002PRCP99
0124590460999992000120521004+24340+109390FM-12+009799999V0209999C000010120019N0080001N1+01531+01061101891ADDGF108991081051012501999999MD1210021+9999MW1101REMSYN066AAXX  05211 59046 41658 80000 10153 20106 40189 52002 71000 885//;
0164590460999992000120600004+24340+109390FM-12+009799999V0209999C000010120019N0060001N1+01511+00931102061ADDAA199000091GF108991081051012501999999MD1210161+0011MW1041REMSYN076AAXX  06001 59046 31656 80000 10151 20093 40206 52016 70400 885// 333 05104;EQDQ01  00002PRCP99
0165590460999992000120606004+24340+109390FM-12+009799999V0200901N002019999999N0120001N1+02121+01071101761ADDAA199000091GF106991011001999999031021KA1999N+01481MD1710381+9999REMSYN070AAXX  06061 59046 32962 60902 10212 20107 40176 57038 81032 333 20148;EQDQ01  00002PRCP99
0122590460999992000120609004+24340+109390FM-12+009799999V0200701N002012200019N0150001N1+02221+01181101621ADDGA1001+999999999GF100991001001999999001001MD1710141+9999REMSYN054AAXX  06091 59046 42965 00702 10222 20118 40162 57014;
0152590460999992000120612004+24340+109390FM-12+009799999V0209999C000012200019N0150001N1+01721+01411101831ADDAA199000091GA1001+999999999GF100991001001999999001001MD1210201+9999REMSYN054AAXX  06121 59046 32965 00000 10172 20141 40183 52020;EQDQ01  00002PRCP99
0165590460999992000120618004+24340+109390FM-12+009799999V0209999C000010150019N0150001N1+01671+01261101991ADDAA199000091GF107991071051017501999999KA1999M+02301MD1410001+9999REMSYN070AAXX  06181 59046 32765 70000 10167 20126 40199 54000 875// 333 10230;EQDQ01  00002PRCP99
0112590460999992000120621004+24340+109390FM-12+009799999V0209999C000010150019N0120001N1+01531+01331101981ADDGF107991071051017501999999MD1710011+9999REMSYN060AAXX  06211 59046 42762 70000 10153 20133 40198 57001 875//;
0164590460999992000120700004+24340+109390FM-12+009799999V0203401N001010150019N0030001N1+01591+01281102131ADDAA199000091GF107991071051017501999999MD1210141+0011MW1101REMSYN076AAXX  07001 59046 31730 73401 10159 20128 40213 52014 71000 875// 333 00101;EQDQ01  00002PRCP99
0112590460999992000120703004+24340+109390FM-12+009799999V0200701N002019999999N0110001N1+01871+01061102251ADDGF107991071001999999031999MD1210121+9999REMSYN060AAXX  07031 59046 42961 70702 10187 20106 40225 52012 8703/;
0175590460999992000120706004+24340+109390FM-12+009799999V0203401N003012200019N0180001N1+02121+00981101921ADDAA199000091GA1001+999999999GF100991001001999999001001KA1999N+01511MD1710321+9999REMSYN064AAXX  07061 59046 32968 03403 10212 20098 40192 57032 333 20151;EQDQ01  00002PRCP99
0112590460999992000120709004+24340+109390FM-12+009799999V0203201N003012200019N0180001N1+02101+00951101861ADDGF102991021001999999031001MD1710061+9999REMSYN060AAXX  07091 59046 42968 23203 10210 20095 40186 57006 82030;
0127590460999992000120712004+24340+109390FM-12+009799999V0203401N003019999999N0120001N1+01821+99999999999ADDAA199000091GF107991999999017501999999REMSYN059AAXX  07121 59046 32762 73403 10182 2005 40205 52018 875//;EQDQ01  00002PRCP99
0172590460999992000120718004+24340+109390FM-12+009799999V0203201N002010150019N0140001N1+01611+00981102071ADDAA106000791AY161061GF107991071051017501999999KA1999M+02261MD1710081+9999MW1001REMSYN082AAXX  07181 59046 11764 73202 10161 20098 40207 57008 69901 70060 875// 333 10226;
0133590460999992000120721004+24340+109390FM-12+009799999V0209999C000010150019N0100001N1+01551+01021101871ADDAA124000791GF107991071051017501999999MD1710201+9999REMSYN070AAXX  07211 59046 42760 70000 10155 20102 40187 57020 875// 333 79999;
0151590460999992000120800004+24340+109390FM-12+009799999V0209999C000019999999N0070001N1+01491+01011101971ADDAA124000791GF107991071001999999031999MD1210091-0201MW1101REMSYN082AAXX  08001 59046 31957 70000 10149 20101 40197 52009 71000 8703/ 333 05251 79999;
0124590460999992000120803004+24340+109390FM-12+009799999V0203201N002019999999N0080001N1+01801+00971102011ADDGF107991071001999999031999MD1210041+9999MW1041REMSYN066AAXX  08031 59046 41958 73202 10180 20097 40201 52004 70400 8703/;
0177590460999992000120806004+24340+109390FM-12+009799999V0202901N001019999999N0080001N1+01981+01041101621ADDAA199000091GF107991071001999999031999KA1999N+01481MD1710381+9999MW1041REMSYN076AAXX  08061 59046 31958 72901 10198 20104 40162 57038 70400 8703/ 333 20148;EQDQ01  00002PRCP99
0124590460999992000120809004+24340+109390FM-12+009799999V0209999C000019999999N0080001N1+02081+01171101471ADDGF107991071001999999031999MD1710151+9999MW1041REMSYN066AAXX  08091 59046 41958 70000 10208 20117 40147 57015 70400 8703/;
0154590460999992000120812004+24340+109390FM-12+009799999V0209999C000019999999N0080001N1+01791+01351101571ADDAA199000091GF107991071001999999031999MD1210101+9999MW1101REMSYN066AAXX  08121 59046 31958 70000 10179 20135 40157 52010 71000 8703/;EQDQ01  00002PRCP99
0177590460999992000120818004+24340+109390FM-12+009799999V0209999C000012200019N0030001N1+01441+01311101541ADDAA199000091GF102991021001999999031001KA1999M+02091MD1710051+9999MW1101REMSYN076AAXX  08181 59046 31930 20000 10144 20131 40154 57005 71000 82030 333 10209;EQDQ01  00002PRCP99
0134590460999992000120821004+24340+109390FM-12+009799999V0209999C000012200019N0030001N1+01321+01211101481ADDGA1001+999999999GF100991001001999999001001MD1710061+9999MW1101REMSYN060AAXX  08211 59046 41930 00000 10132 20121 40148 57006 71000;
0174590460999992000120900004+24340+109390FM-12+009799999V0209999C000012200019N0020001N1+01261+01191101571ADDAA199000091GA1001+999999999GF100991001001999999001001MD1210081+0041MW1101REMSYN070AAXX  09001 59046 31920 00000 10126 20119 40157 52008 71000 333 05452;EQDQ01  00002PRCP99
0134590460999992000120903004+24340+109390FM-12+009799999V0209999C000012200019N0030001N1+01821+01331101671ADDGA1001+999999999GF100991001001999999001001MD1210111+9999MW1101REMSYN060AAXX  09031 59046 41930 00000 10182 20133 40167 52011 71000;
0177590460999992000120906004+24340+109390FM-12+009799999V0202001N004012200019N0040001N1+02521+01421101281ADDAA199000091GF103991031001999999031001KA1999N+01231MD1710381+9999MW1041REMSYN076AAXX  09061 59046 31940 32004 10252 20142 40128 57038 70400 83030 333 20123;EQDQ01  00002PRCP99
0112590460999992000120909004+24340+109390FM-12+009799999V0201801N002012200019N0250001N1+02501+01351101201ADDGF101991011001999999031001MD1710081+9999REMSYN060AAXX  09091 59046 42975 11802 10250 20135 40120 57008 81030;
0152590460999992000120912004+24340+109390FM-12+009799999V0201601N002012200019N0250001N1+02061+01511101381ADDAA199000091GA1001+999999999GF100991001001999999001001MD1210171+9999REMSYN054AAXX  09121 59046 32975 01602 10206 20151 40138 52017;EQDQ01  00002PRCP99
0177590460999992000120918004+24340+109390FM-12+009799999V0209999C000019999999N0080001N1+01841+01541101561ADDAA199000091GF107991071001999999031999KA1999M+02621MD1210121+9999MW1101REMSYN076AAXX  09181 59046 31958 70000 10184 20154 40156 52012 71000 8703/ 333 10262;EQDQ01  00002PRCP99
0124590460999992000120921004+24340+109390FM-12+009799999V0209999C000010150019N0080001N1+01681+01511101621ADDGF107991071051017501999999MD1210051+9999MW1101REMSYN066AAXX  09211 59046 41758 70000 10168 20151 40162 52005 71000 875//;
0164590460999992000121000004+24340+109390FM-12+009799999V0209999C000010120019N0030001N1+01741+01501101891ADDAA199000091GF107991071051012501999999MD1210261+0031MW1101REMSYN076AAXX  10001 59046 31630 70000 10174 20150 40189 52026 71000 875// 333 00305;EQDQ01  00002PRCP99
0124590460999992000121003004+24340+109390FM-12+009799999V0202901N001010210019N0030001N1+02041+01591102021ADDGF107991071051022501999999MD1210131+9999MW1101REMSYN066AAXX  10031 59046 41830 72901 10204 20159 40202 52013 71000 875//;
0177590460999992000121006004+24340+109390FM-12+009799999V0202901N001019999999N0030001N1+02421+01571101771ADDAA199000091GF107991071001999999031999KA1999N+01651MD1710241+9999MW1041REMSYN076AAXX  10061 59046 31930 72901 10242 20157 40177 57024 70400 8703/ 333 20165;EQDQ01  00002PRCP99
0112590460999992000121009004+24340+109390FM-12+009799999V0200401N003010150019N0130001N1+02401+01511101741ADDGF107991071051017501999999MD1710031+9999REMSYN060AAXX  10091 59046 42763 70403 10240 20151 40174 57003 875//;
0142590460999992000121012004+24340+109390FM-12+009799999V0203401N002019999999N0120001N1+01771+01211102081ADDAA199000091GF107991071001999999031999MD1210321+9999REMSYN060AAXX  10121 59046 32962 73402 10177 20121 40208 52032 8703/;EQDQ01  00002PRCP99
0165590460999992000121018004+24340+109390FM-12+009799999V0203201N003019999999N0120001N1+01381+00911102241ADDAA199000091GF107991071001999999031999KA1999M+02511MD1710041+9999REMSYN070AAXX  10181 59046 32962 73203 10138 20091 40224 57004 8703/ 333 10251;EQDQ01  00002PRCP99
0112590460999992000121021004+24340+109390FM-12+009799999V0203201N004010120019N0120001N1+01321+00801102261ADDGF108991081051012501999999MD1210021+9999REMSYN060AAXX  10211 59046 42662 83204 10132 20080 40226 52002 885//;
0152590460999992000121100004+24340+109390FM-12+009799999V0200201N002010150019N0220001N1+01281+00751102471ADDAA199000091GF107991071051017501999999MD1210191+0061REMSYN070AAXX  11001 59046 32772 70202 10128 20075 40247 52019 875// 333 00655;EQDQ01  00002PRCP99
0112590460999992000121103004+24340+109390FM-12+009799999V0203201N002019999999N0160001N1+01481+00821102491ADDGF107991071001999999031001MD1210021+9999REMSYN060AAXX  11031 59046 42966 73202 10148 20082 40249 52002 87030;
0165590460999992000121106004+24340+109390FM-12+009799999V0203401N003019999999N0120001N1+01781+00881102141ADDAA199000091GF107991071001999999031999KA1999N+01271MD1710341+9999REMSYN070AAXX  11061 59046 32962 73403 10178 20088 40214 57034 8703/ 333 20127;EQDQ01  00002PRCP99
0112590460999992000121109004+24340+109390FM-12+009799999V0203401N002019999999N0120001N1+01741+00941102151ADDGF107991071001999999031999MD1410001+9999REMSYN060AAXX  11091 59046 42962 73402 10174 20094 40215 54000 8703/;
0154590460999992000121112004+24340+109390FM-12+009799999V0203401N003010150019N0080001N1+01541+00831102221ADDAA199000091GF107991071051017501999999MD1210071+9999MW1041REMSYN066AAXX  11121 59046 31758 73403 10154 20083 40222 52007 70400 875//;EQDQ01  00002PRCP99
0165590460999992000121118004+24340+109390FM-12+009799999V0203601N003010120019N0110001N1+01301+00631102461ADDAA199000091GF108991081051012501999999KA1999M+01881MD1210101+9999REMSYN070AAXX  11181 59046 32661 83603 10130 20063 40246 52010 885// 333 10188;EQDQ01  00002PRCP99
0153590460999992000121121004+24340+109390FM-12+009799999V0200901N002010120019N0110001N1+01161+00631102431ADDAA124000791AY161031GF108991081051012501999999MD1710031+9999MW1211REMSYN076AAXX  11211 59046 41661 80902 10116 20063 40243 57003 72160 885// 333 79999;
0165590460999992000121200004+24340+109390FM-12+009799999V0203401N004010120019N0110001N1+01071+00571102571ADDAA106000791AY161061GF108991081051012501999999MD1210131+0101MW1001REMSYN088AAXX  12001 59046 11661 83404 10107 20057 40257 52013 69901 70060 885// 333 00152 79999;
0132590460999992000121203004+24340+109390FM-12+009799999V0203401N002010120019N0120001N1+00881+00621102821ADDAY161031GF108991081051012501999999MD1210241+9999MW1601REMSYN066AAXX  12031 59046 41662 83402 10088 20062 40282 52024 76060 885//;
0172590460999992000121206004+24340+109390FM-12+009799999V0200401N004010042019N0300001N1+00941+00261102571ADDAA106000191AY161061GF108991081051004501999999KA1999N+00861MD1710251+9999MW1601REMSYN082AAXX  12061 59046 11480 80404 10094 20026 40257 57025 69921 76060 885// 333 20086;
0132590460999992000121209004+24340+109390FM-12+009799999V0200401N002010120019N0300001N1+00881+00211102611ADDAY161031GF108991081051012501999999MD1210041+9999MW1001REMSYN066AAXX  12091 59046 41680 80402 10088 20021 40261 52004 70060 885//;
0149590460999992000121212004+24340+109390FM-12+009799999V0203201N003010120019N0200001N1+00821+00191102771ADDAA106000791AY161061GF108991081051012501999999MD1210151+9999MW1001REMSYN072AAXX  12121 59046 11670 83203 10082 20019 40277 52015 69901 70060 885//;
0146590460999992000121218004+24340+109390FM-12+009799999V0203401N002010120019N0200001N1+00731+00041102711ADDAA199000021GF108991081051012501999999KA1999M+01291MD1710061+9999REMSYN070AAXX  12181 59046 32670 83402 10073 20004 40271 57006 885// 333 10129;
0133590460999992000121221004+24340+109390FM-12+009799999V0200901N002010120019N0200001N1+00721+00031102641ADDAA124000391GF108991081051012501999999MD1710071+9999REMSYN070AAXX  12211 59046 42670 80902 10072 20003 40264 57007 885// 333 70002;
0139590460999992000121300004+24340+109390FM-12+009799999V0203601N002010150019N0300001N1+00711+00081102691ADDAA124000391GF107991071051017501999999MD1210051+0101REMSYN076AAXX  13001 59046 32780 73602 10071 20008 40269 52005 875// 333 00154 70002;
0112590460999992000121303004+24340+109390FM-12+009799999V0200401N003012200019N0300001N1+01021+00191102651ADDGF101991011001999999031001MD1710041+9999REMSYN060AAXX  13031 59046 42980 10403 10102 20019 40265 57004 81030;
0175590460999992000121306004+24340+109390FM-12+009799999V0200401N002012200019N0300001N1+01311+00271102231ADDAA199000091GA1001+999999999GF100991001001999999001001KA1999N+00701MD1710411+9999REMSYN064AAXX  13061 59046 32980 00402 10131 20027 40223 57041 333 20070;EQDQ01  00002PRCP99
0142590460999992000121312004+24340+109390FM-12+009799999V0200201N002012200019N0250001N1+01041+00301102241ADDAA199000091GF101991011001999999031001MD1210111+9999REMSYN060AAXX  13121 59046 32975 10202 10104 20030 40224 52011 81030;EQDQ01  00002PRCP99
0175590460999992000121318004+24340+109390FM-12+009799999V0203401N002012200019N0200001N1+00711+00221102421ADDAA199000091GA1001+999999999GF100991001001999999001001KA1999M+01411MD1210031+9999REMSYN064AAXX  13181 59046 32970 03402 10071 20022 40242 52003 333 10141;EQDQ01  00002PRCP99
0122590460999992000121321004+24340+109390FM-12+009799999V0202901N003012200019N0200001N1+00661+00161102441ADDGA1001+999999999GF100991001001999999001001MD1210021+9999REMSYN054AAXX  13211 59046 42970 02903 10066 20016 40244 52002;
0180590460999992000121400004+24340+109390FM-12+009799999V0200901N001012200019N0120001N1+00631+00151102611ADDAA199000091GA1001+999999999GF100991001001999999001001IA2999+00209MD1210161-0101REMSYN070AAXX  14001 59046 32962 00901 10063 20015 40261 52016 333 05151 30024;EQDQ01  00002PRCP99
0122590460999992000121403004+24340+109390FM-12+009799999V0200401N002012200019N0150001N1+01051+00261102581ADDGA1001+999999999GF100991001001999999001001MD1710031+9999REMSYN054AAXX  14031 59046 42965 00402 10105 20026 40258 57003;
0175590460999992000121406004+24340+109390FM-12+009799999V0202701N002012200019N0250001N1+01421+00251102201ADDAA199000091GA1001+999999999GF100991001001999999001001KA1999N+00571MD1710371+9999REMSYN064AAXX  14061 59046 32975 02702 10142 20025 40220 57037 333 20057;EQDQ01  00002PRCP99
0112590460999992000121409004+24340+109390FM-12+009799999V0203401N002012200019N0250001N1+01501+00371102141ADDGF103991031001999999031001MD1710051+9999REMSYN060AAXX  14091 59046 42975 33402 10150 20037 40214 57005 83030;
0142590460999992000121412004+24340+109390FM-12+009799999V0203401N001012200019N0200001N1+01231+00411102221ADDAA199000091GF101991011001999999031001MD1210071+9999REMSYN060AAXX  14121 59046 32970 13401 10123 20041 40222 52007 81030;EQDQ01  00002PRCP99
0165590460999992000121418004+24340+109390FM-12+009799999V0203401N001010210019N0150001N1+00941+00281102291ADDAA199000091GF107991071051022501999999KA1999M+01571MD1210011+9999REMSYN070AAXX  14181 59046 32865 73401 10094 20028 40229 52001 875// 333 10157;EQDQ01  00002PRCP99
0112590460999992000121421004+24340+109390FM-12+009799999V0203601N002019999999N0120001N1+00911+00361102271ADDGF107991071001999999031999MD1710021+9999REMSYN060AAXX  14211 59046 42962 73602 10091 20036 40227 57002 8703/;
0152590460999992000121500004+24340+109390FM-12+009799999V0203601N001019999999N0110001N1+00851+00361102371ADDAA199000091GF106991061001999999031001MD1210091+0021REMSYN070AAXX  15001 59046 32961 63601 10085 20036 40237 52009 86030 333 05202;EQDQ01  00002PRCP99
0124590460999992000121503004+24340+109390FM-12+009799999V0200901N002012200019N0080001N1+01261+00421102351ADDGF101991011001999999031001MD1710011+9999MW1041REMSYN066AAXX  15031 59046 41958 10902 10126 20042 40235 57001 70400 81030;
0165590460999992000121506004+24340+109390FM-12+009799999V0202501N002010150019N0110001N1+01361+00561102081ADDAA199000091GF108991081051017501999999KA1999N+00851MD1710271+9999REMSYN070AAXX  15061 59046 32761 82502 10136 20056 40208 57027 885// 333 20085;EQDQ01  00002PRCP99
0124590460999992000121509004+24340+109390FM-12+009799999V0202701N002010150019N0070001N1+01421+00631102041ADDGF108991081051017501999999MD1710041+9999MW1041REMSYN066AAXX  15091 59046 41757 82702 10142 20063 40204 57004 70400 885//;
0154590460999992000121512004+24340+109390FM-12+009799999V0209999C000010150019N0070001N1+01361+00751102151ADDAA199000091GF108991081051017501999999MD1210111+9999MW1041REMSYN066AAXX  15121 59046 31757 80000 10136 20075 40215 52011 70400 885//;EQDQ01  00002PRCP99
0177590460999992000121518004+24340+109390FM-12+009799999V0209999C000010150019N0040001N1+01351+00871102301ADDAA199000091GF108991081051017501999999KA1999M+01451MD1210101+9999MW1101REMSYN076AAXX  15181 59046 31740 80000 10135 20087 40230 52010 71000 885// 333 10145;EQDQ01  00002PRCP99
0124590460999992000121521004+24340+109390FM-12+009799999V0209999C000010150019N0040001N1+01341+00841102271ADDGF108991081051017501999999MD1710031+9999MW1101REMSYN066AAXX  15211 59046 41740 80000 10134 20084 40227 57003 71000 885//;
0164590460999992000121600004+24340+109390FM-12+009799999V0203401N001010150019N0080001N1+01331+00831102481ADDAA199000091GF108991081051017501999999MD1210201+0011MW1101REMSYN076AAXX  16001 59046 31758 83401 10133 20083 40248 52020 71000 885// 333 00105;EQDQ01  00002PRCP99
0124590460999992000121603004+24340+109390FM-12+009799999V0200201N001010150019N0080001N1+01411+00941102581ADDGF108991081051017501999999MD1210101+9999MW1101REMSYN066AAXX  16031 59046 41758 80201 10141 20094 40258 52010 71000 885//;
0172590460999992000121606004+24340+109390FM-12+009799999V0202901N002010120019N0040001N1+01361+01051102321ADDAA106000791AY161061GF108991081051012501999999KA1999N+01321MD1710261+9999MW1601REMSYN082AAXX  16061 59046 11640 82902 10136 20105 40232 57026 69901 76060 885// 333 20132;
0132590460999992000121609004+24340+109390FM-12+009799999V0200201N001010120019N0050001N1+01381+00991102311ADDAY161031GF108991081051012501999999MD1410001+9999MW1101REMSYN066AAXX  16091 59046 41650 80201 10138 20099 40231 54000 71060 885//;
0149590460999992000121612004+24340+109390FM-12+009799999V0203401N002010120019N0050001N1+01381+00911102451ADDAA106000791AY161061GF108991081051012501999999MD1210131+9999MW1101REMSYN072AAXX  16121 59046 11650 83402 10138 20091 40245 52013 69901 71060 885//;
0158590460999992000121618004+24340+109390FM-12+009799999V0200401N002010120019N0060001N1+01261+00771102391ADDAA199000021GF108991081051012501999999KA1999M+01441MD1710111+9999MW1101REMSYN076AAXX  16181 59046 31656 80402 10126 20077 40239 57011 71000 885// 333 10144;
0145590460999992000121621004+24340+109390FM-12+009799999V0200401N001010120019N0080001N1+01261+00771102411ADDAA124000791GF108991081051012501999999MD1210021+9999MW1101REMSYN076AAXX  16211 59046 41658 80401 10126 20077 40241 52002 71000 885// 333 79999;
0151590460999992000121700004+24340+109390FM-12+009799999V0203401N001010150019N0080001N1+01211+00781102481ADDAA124000791GF107991071051017501001001MD1210071+0001MW1101REMSYN082AAXX  17001 59046 31758 73401 10121 20078 40248 52007 71000 87500 333 00051 79999;
0112590460999992000121703004+24340+109390FM-12+009799999V0203201N002010150019N0120001N1+01421+00801102431ADDGF106991061051017501001001MD1710051+9999REMSYN060AAXX  17031 59046 42762 63202 10142 20080 40243 57005 86500;
0165590460999992000121706004+24340+109390FM-12+009799999V0200701N002019999999N0300001N1+01781+00921101931ADDAA199000091GF105991001001999999001011KA1999N+01201MD1710481+9999REMSYN070AAXX  17061 59046 32980 50702 10178 20092 40193 57048 80001 333 20120;EQDQ01  00002PRCP99
0122590460999992000121709004+24340+109390FM-12+009799999V0203401N002012200019N0300001N1+01851+00991101781ADDGA1001+999999999GF100991001001999999001001MD1710151+9999REMSYN054AAXX  17091 59046 42980 03402 10185 20099 40178 57015;
0152590460999992000121712004+24340+109390FM-12+009799999V0209999C000012200019N0200001N1+01471+01031101861ADDAA199000091GA1001+999999999GF100991001001999999001001MD1210071+9999REMSYN054AAXX  17121 59046 32970 00000 10147 20103 40186 52007;EQDQ01  00002PRCP99
0165590460999992000121718004+24340+109390FM-12+009799999V0209999C000010120019N0150001N1+01301+00911101821ADDAA199000091GF107991071051012501999999KA1999M+01921MD1710101+9999REMSYN070AAXX  17181 59046 32665 70000 10130 20091 40182 57010 875// 333 10192;EQDQ01  00002PRCP99
0112590460999992000121721004+24340+109390FM-12+009799999V0203601N001010120019N0150001N1+01311+00921101761ADDGF108991081051012501999999MD1710061+9999REMSYN060AAXX  17211 59046 42665 83601 10131 20092 40176 57006 885//;
0157590460999992000121800004+24340+109390FM-12+009799999V0209999C000010120019N0070001N1+01331+00961101811ADDAA106000791GF108991081051012501999999MD1210041-0701MW1211REMSYN088AAXX  18001 59046 11657 80000 10133 20096 40181 52004 69901 72100 885// 333 05701 79999;
0124590460999992000121803004+24340+109390FM-12+009799999V0203201N002010210019N0050001N1+01561+01031101821ADDGF107991071051022501999999MD1210011+9999MW1101REMSYN066AAXX  18031 59046 41850 73202 10156 20103 40182 52001 71000 875//;
0158590460999992000121806004+24340+109390FM-12+009799999V0209999C000019999999N0040001N1+01931+01111101411ADDAA199000021GF107991071001999999031999KA1999N+01271MD1710391+9999MW1041REMSYN076AAXX  18061 59046 31940 70000 10193 20111 40141 57039 70400 8703/ 333 20127;
0124590460999992000121809004+24340+109390FM-12+009799999V0200701N001012200019N0040001N1+02221+01331101211ADDGF103991031001999999031001MD1710201+9999MW1041REMSYN066AAXX  18091 59046 41940 30701 10222 20133 40121 57020 70400 83030;
0135590460999992000121812004+24340+109390FM-12+009799999V0209999C000010150019N0040001N1+01951+01401101381ADDAA199000021GF107991071051017501999999MD1210171+9999MW1101REMSYN066AAXX  18121 59046 31740 70000 10195 20140 40138 52017 71000 875//;
0177590460999992000121818004+24340+109390FM-12+009799999V0202901N001010150019N0040001N1+01701+01391101541ADDAA199000091GF107991071051017501999999KA1999M+02351MD1210061+9999MW1101REMSYN076AAXX  18181 59046 31740 72901 10170 20139 40154 52006 71000 875// 333 10235;EQDQ01  00002PRCP99
0153590460999992000121821004+24340+109390FM-12+009799999V0209999C000010150019N0040001N1+01701+01351101481ADDAA124000791AY161031GF107991071051017501999999MD1710051+9999MW1101REMSYN076AAXX  18211 59046 41740 70000 10170 20135 40148 57005 71060 875// 333 79999;
0165590460999992000121900004+24340+109390FM-12+009799999V0209999C000010120019N0030001N1+01621+01371101611ADDAA106000791AY161061GF108991081051012501999999MD1210121-0201MW1101REMSYN088AAXX  19001 59046 11630 80000 10162 20137 40161 52012 69901 71060 885// 333 05203 79999;
0124590460999992000121903004+24340+109390FM-12+009799999V0209999C000010120019N0030001N1+01941+01371101731ADDGF108991081051012501999999MD1210121+9999MW1101REMSYN066AAXX  19031 59046 41630 80000 10194 20137 40173 52012 71000 885//;
0177590460999992000121906004+24340+109390FM-12+009799999V0209999C000010210019N0020001N1+02281+01611101361ADDAA199000091GF107991071051022501999999KA1999N+01621MD1710361+9999MW1041REMSYN076AAXX  19061 59046 31820 70000 10228 20161 40136 57036 70400 875// 333 20162;EQDQ01  00002PRCP99
0132590460999992000121909004+24340+109390FM-12+009799999V0200701N003010120019N0050001N1+02031+01601101341ADDAY161031GF107991071081008001999999MD1710021+9999MW1101REMSYN066AAXX  19091 59046 41550 70703 10203 20160 40134 57002 71060 878//;
0149590460999992000121912004+24340+109390FM-12+009799999V0200701N002010120019N0030001N1+01871+01571101571ADDAA106000591AY161061GF108991081051012501999999MD1210221+9999MW1101REMSYN072AAXX  19121 59046 11630 80702 10187 20157 40157 52022 69961 71060 885//;
0172590460999992000121918004+24340+109390FM-12+009799999V0203401N003010120019N0080001N1+01641+01281101981ADDAA106000791AY161061GF108991081051012501999999KA1999M+02301MD1210191+9999MW1101REMSYN082AAXX  19181 59046 11658 83403 10164 20128 40198 52019 69901 71060 885// 333 10230;
0153590460999992000121921004+24340+109390FM-12+009799999V0200201N003010120019N0120001N1+01271+01001102221ADDAA124002091AY161031GF108991081051012501999999MD1210231+9999MW1601REMSYN076AAXX  19211 59046 41662 80203 10127 20100 40222 52023 76060 885// 333 70020;
0165590460999992000122000004+24340+109390FM-12+009799999V0203401N003010042019N0300001N1+01121+00861102541ADDAA106003091AY161061GF108991081051004501999999MD1210311+0901MW1601REMSYN088AAXX  20001 59046 11480 83403 10112 20086 40254 52031 60031 76060 885// 333 00955 70037;
0132590460999992000122003004+24340+109390FM-12+009799999V0203201N002010120019N0300001N1+01221+00631102801ADDAY161031GF108991081081008001999999MD1210251+9999MW1001REMSYN066AAXX  20031 59046 41580 83202 10122 20063 40280 52025 70060 888//;
0172590460999992000122006004+24340+109390FM-12+009799999V0200201N004010120019N0300001N1+01261+00531102601ADDAA106000191AY161061GF108991081081008001999999KA1999N+01111MD1710191+9999MW1001REMSYN082AAXX  20061 59046 11580 80204 10126 20053 40260 57019 69911 70060 888// 333 20111;
0112590460999992000122009004+24340+109390FM-12+009799999V0200401N003010360019N0300001N1+01211+00491102581ADDGF107991031011008001031999MD1710031+9999REMSYN060AAXX  20091 59046 42580 70403 10121 20049 40258 57003 8313/;
0123590460999992000122012004+24340+109390FM-12+009799999V0203201N002019999999N0300001N1+01041+00461102751ADDAA199000021GF105991051001999999031001MD1210161+9999REMSYN060AAXX  20121 59046 32980 53202 10104 20046 40275 52016 85030;
0165590460999992000122018004+24340+109390FM-12+009799999V0203601N001012200019N0200001N1+00821+00501102811ADDAA199000091GF102991021001999999031001KA1999M+01641MD1210021+9999REMSYN070AAXX  20181 59046 32970 23601 10082 20050 40281 52002 82030 333 10164;EQDQ01  00002PRCP99
0143590460999992000122021004+24340+109390FM-12+009799999V0203601N003012200019N0150001N1+00761+00051102801ADDAA124001891GA1001+999999999GF100991001001999999001001MD1710021+9999REMSYN064AAXX  20211 59046 42965 03603 10076 20005 40280 57002 333 70018;
0167590460999992000122100004+24340+109390FM-12+009799999V0203401N002012200019N0200001N1+00751+00101102941ADDAA124000191GA1001+999999999GF100991001001999999001001IA2999+00359MD1210141+0401REMSYN076AAXX  21001 59046 32970 03402 10075 20010 40294 52014 333 00454 30035 70001;
0122590460999992000122103004+24340+109390FM-12+009799999V0203401N003012200019N0200001N1+01101+00051102911ADDGA1001+999999999GF100991001001999999001001MD1710031+9999REMSYN054AAXX  21031 59046 42970 03403 10110 20005 40291 57003;
0175590460999992000122106004+24340+109390FM-12+009799999V0200401N002012200019N0300001N1+01481+00121102451ADDAA199000091GA1001+999999999GF100991001001999999001001KA1999N+00721MD1710451+9999REMSYN064AAXX  21061 59046 32980 00402 10148 20012 40245 57045 333 20072;EQDQ01  00002PRCP99
0122590460999992000122109004+24340+109390FM-12+009799999V0203401N002012200019N0300001N1+01561+00081102211ADDGA1001+999999999GF100991001001999999001001MD1710231+9999REMSYN054AAXX  21091 59046 42980 03402 10156 20008 40221 57023;
0152590460999992000122112004+24340+109390FM-12+009799999V0209999C000012200019N0250001N1+01271+00331102271ADDAA199000091GA1001+999999999GF100991001001999999001001MD1210051+9999REMSYN054AAXX  21121 59046 32975 00000 10127 20033 40227 52005;EQDQ01  00002PRCP99
0175590460999992000122118004+24340+109390FM-12+009799999V0202901N001012200019N0200001N1+00871+00611102181ADDAA199000091GA1001+999999999GF100991001001999999001001KA1999M+01601MD1710071+9999REMSYN064AAXX  21181 59046 32970 02901 10087 20061 40218 57007 333 10160;EQDQ01  00002PRCP99
0122590460999992000122121004+24340+109390FM-12+009799999V0203201N001012200019N0120001N1+00731+00531102091ADDGA1001+999999999GF100991001001999999001001MD1710091+9999REMSYN054AAXX  21211 59046 42962 03201 10073 20053 40209 57009;
0192590460999992000122200004+24340+109390FM-12+009799999V0202901N001012200019N0050001N1+00671+00441102241ADDAA199000091GA1001+999999999GF100991001001999999001001IA2999+00309MD1210141-0701MW1101REMSYN076AAXX  22001 59046 31950 02901 10067 20044 40224 52014 71000 333 05751 30031;EQDQ01  00002PRCP99
0134590460999992000122203004+24340+109390FM-12+009799999V0201101N002012200019N0040001N1+01281+00481102291ADDGA1001+999999999GF100991001001999999001001MD1210061+9999MW1041REMSYN060AAXX  22031 59046 41940 01102 10128 20048 40229 52006 70400;
0175590460999992000122206004+24340+109390FM-12+009799999V0203201N001012200019N0200001N1+01751+00331101911ADDAA199000091GA1001+999999999GF100991001001999999001001KA1999N+00661MD1710371+9999REMSYN064AAXX  22061 59046 32970 03201 10175 20033 40191 57037 333 20066;EQDQ01  00002PRCP99
0122590460999992000122209004+24340+109390FM-12+009799999V0202701N001012200019N0250001N1+01821+00231101881ADDGA1001+999999999GF100991001001999999001001MD1710031+9999REMSYN054AAXX  22091 59046 42975 02701 10182 20023 40188 57003;
0152590460999992000122212004+24340+109390FM-12+009799999V0209999C000012200019N0250001N1+01361+00751102111ADDAA199000091GA1001+999999999GF100991001001999999001001MD1210211+9999REMSYN054AAXX  22121 59046 32975 00000 10136 20075 40211 52021;EQDQ01  00002PRCP99
0187590460999992000122218004+24340+109390FM-12+009799999V0202901N001012200019N0080001N1+00911+00701102321ADDAA199000091GA1001+999999999GF100991001001999999001001KA1999M+01881MD1210031+9999MW1101REMSYN070AAXX  22181 59046 31958 02901 10091 20070 40232 52003 71000 333 10188;EQDQ01  00002PRCP99
0134590460999992000122221004+24340+109390FM-12+009799999V0209999C000012200019N0060001N1+00741+00611102171ADDGA1001+999999999GF100991001001999999001001MD1710151+9999MW1101REMSYN060AAXX  22211 59046 41956 00000 10074 20061 40217 57015 71000;
0192590460999992000122300004+24340+109390FM-12+009799999V0202901N001012200019N0050001N1+00681+00501102321ADDAA199000091GA1001+999999999GF100991001001999999001001IA2999+00109MD1210141+0101MW1101REMSYN076AAXX  23001 59046 31950 02901 10068 20050 40232 52014 71000 333 00100 30015;EQDQ01  00002PRCP99
0134590460999992000122303004+24340+109390FM-12+009799999V0202701N002012200019N0080001N1+01421+00611102381ADDGA1001+999999999GF100991001001999999001001MD1210071+9999MW1041REMSYN060AAXX  23031 59046 41958 02702 10142 20061 40238 52007 70400;
0175590460999992000122306004+24340+109390FM-12+009799999V0202701N002012200019N0150001N1+02001+00431101991ADDAA199000091GA1001+999999999GF100991001001999999001001KA1999N+00621MD1710381+9999REMSYN064AAXX  23061 59046 32965 02702 10200 20043 40199 57038 333 20062;EQDQ01  00002PRCP99
0122590460999992000122309004+24340+109390FM-12+009799999V0209999C000012200019N0250001N1+02101+00411101831ADDGA1001+999999999GF100991001001999999001001MD1710161+9999REMSYN054AAXX  23091 59046 42975 00000 10210 20041 40183 57016;
0152590460999992000122312004+24340+109390FM-12+009799999V0209999C000012200019N0200001N1+01401+00711101981ADDAA199000091GA1001+999999999GF100991001001999999001001MD1210141+9999REMSYN054AAXX  23121 59046 32970 00000 10140 20071 40198 52014;EQDQ01  00002PRCP99
0175590460999992000122318004+24340+109390FM-12+009799999V0202901N001012200019N0120001N1+00881+00661102131ADDAA199000091GA1001+999999999GF100991001001999999001001KA1999M+02181MD1710021+9999REMSYN064AAXX  23181 59046 32962 02901 10088 20066 40213 57002 333 10218;EQDQ01  00002PRCP99
0122590460999992000122321004+24340+109390FM-12+009799999V0209999C000012200019N0110001N1+00741+00511102141ADDGA1001+999999999GF100991001001999999001001MD1210011+9999REMSYN054AAXX  23211 59046 42961 00000 10074 20051 40214 52001;
0192590460999992000122400004+24340+109390FM-12+009799999V0202901N001012200019N0030001N1+00641+00501102321ADDAA199000091GA1001+999999999GF100991001001999999001001IA2999+00109MD1210161+0001MW1101REMSYN076AAXX  24001 59046 31930 02901 10064 20050 40232 52016 71000 333 00000 30012;EQDQ01  00002PRCP99
0134590460999992000122403004+24340+109390FM-12+009799999V0203401N002012200019N0030001N1+01441+00581102391ADDGA1001+999999999GF100991001001999999001001MD1210081+9999MW1041REMSYN060AAXX  24031 59046 41930 03402 10144 20058 40239 52008 70400;
0175590460999992000122406004+24340+109390FM-12+009799999V0202701N001012200019N0200001N1+02071+00511102001ADDAA199000091GA1001+999999999GF100991001001999999001001KA1999N+00621MD1710381+9999REMSYN064AAXX  24061 59046 32970 02701 10207 20051 40200 57038 333 20062;EQDQ01  00002PRCP99
0122590460999992000122409004+24340+109390FM-12+009799999V0209999C000012200019N0300001N1+02161+00261101901ADDGA1001+999999999GF100991001001999999001001MD1710101+9999REMSYN054AAXX  24091 59046 42980 00000 10216 20026 40190 57010;
0152590460999992000122412004+24340+109390FM-12+009799999V0209999C000012200019N0180001N1+01381+00751102051ADDAA199000091GA1001+999999999GF100991001001999999001001MD1210131+9999REMSYN054AAXX  24121 59046 32968 00000 10138 20075 40205 52013;EQDQ01  00002PRCP99
0175590460999992000122418004+24340+109390FM-12+009799999V0202901N001012200019N0120001N1+00901+00571102211ADDAA199000091GA1001+999999999GF100991001001999999001001KA1999M+02261MD1210021+9999REMSYN064AAXX  24181 59046 32962 02901 10090 20057 40221 52002 333 10226;EQDQ01  00002PRCP99
0122590460999992000122421004+24340+109390FM-12+009799999V0202901N001012200019N0110001N1+00801+00561102191ADDGA1001+999999999GF100991001001999999001001MD1710021+9999REMSYN054AAXX  24211 59046 42961 02901 10080 20056 40219 57002;
0192590460999992000122500004+24340+109390FM-12+009799999V0209999C000012200019N0060001N1+00721+00541102361ADDAA199000091GA1001+999999999GF100991001001999999001001IA2999+00209MD1210151+0001MW1101REMSYN076AAXX  25001 59046 31956 00000 10072 20054 40236 52015 71000 333 00001 30023;EQDQ01  00002PRCP99
0134590460999992000122503004+24340+109390FM-12+009799999V0203401N002012200019N0080001N1+01541+00581102431ADDGA1001+999999999GF100991001001999999001001MD1210081+9999MW1041REMSYN060AAXX  25031 59046 41958 03402 10154 20058 40243 52008 70400;
0175590460999992000122506004+24340+109390FM-12+009799999V0202701N002012200019N0110001N1+02131+00491102071ADDAA199000091GA1001+999999999GF100991001001999999001001KA1999N+00721MD1710351+9999REMSYN064AAXX  25061 59046 32961 02702 10213 20049 40207 57035 333 20072;EQDQ01  00002PRCP99
0122590460999992000122509004+24340+109390FM-12+009799999V0202501N001012200019N0200001N1+02241+00441101921ADDGA1001+999999999GF100991001001999999001001MD1710141+9999REMSYN054AAXX  25091 59046 42970 02501 10224 20044 40192 57014;
0152590460999992000122512004+24340+109390FM-12+009799999V0209999C000012200019N0150001N1+01481+00801102011ADDAA199000091GA1001+999999999GF100991001001999999001001MD1210071+9999REMSYN054AAXX  25121 59046 32965 00000 10148 20080 40201 52007;EQDQ01  00002PRCP99
0175590460999992000122518004+24340+109390FM-12+009799999V0209999C000012200019N0110001N1+01021+00771102251ADDAA199000091GA1001+999999999GF100991001001999999001001KA1999M+02351MD1210061+9999REMSYN064AAXX  25181 59046 32961 00000 10102 20077 40225 52006 333 10235;EQDQ01  00002PRCP99
0112590460999992000122521004+24340+109390FM-12+009799999V0209999C000010150019N0110001N1+01081+00701102191ADDGF107991071051017501999999MD1710051+9999REMSYN060AAXX  25211 59046 42761 70000 10108 20070 40219 57005 875//;
0164590460999992000122600004+24340+109390FM-12+009799999V0203201N001010150019N0060001N1+01081+00701102391ADDAA199000091GF107991071051017501999999MD1210181+0001MW1101REMSYN076AAXX  26001 59046 31756 73201 10108 20070 40239 52018 71000 875// 333 00004;EQDQ01  00002PRCP99
0124590460999992000122603004+24340+109390FM-12+009799999V0202701N001019999999N0060001N1+01521+00661102511ADDGF107991071001999999031999MD1210121+9999MW1041REMSYN066AAXX  26031 59046 41956 72701 10152 20066 40251 52012 70400 8703/;
0177590460999992000122606004+24340+109390FM-12+009799999V0202701N002019999999N0050001N1+01941+00701102151ADDAA199000091GF107991071001999999031999KA1999N+00981MD1710351+9999MW1041REMSYN076AAXX  26061 59046 31950 72702 10194 20070 40215 57035 70400 8703/ 333 20098;EQDQ01  00002PRCP99
0134590460999992000122609004+24340+109390FM-12+009799999V0209999C000012200019N0070001N1+02151+00851101971ADDGA1001+999999999GF100991001001999999001001MD1710171+9999MW1041REMSYN060AAXX  26091 59046 41957 00000 10215 20085 40197 57017 70400;
0154590460999992000122612004+24340+109390FM-12+009799999V0209999C000019999999N0070001N1+01561+01111102061ADDAA199000091GF105991001001999999001021MD1210081+9999MW1101REMSYN066AAXX  26121 59046 31957 50000 10156 20111 40206 52008 71000 80002;EQDQ01  00002PRCP99
0177590460999992000122618004+24340+109390FM-12+009799999V0209999C000010120019N0050001N1+01461+01101102091ADDAA199000091GF108991081051012501999999KA1999M+02261MD1710031+9999MW1101REMSYN076AAXX  26181 59046 31650 80000 10146 20110 40209 57003 71000 885// 333 10226;EQDQ01  00002PRCP99
0124590460999992000122621004+24340+109390FM-12+009799999V0209999C000010120019N0050001N1+01441+01101102051ADDGF108991081051012501999999MD1710031+9999MW1101REMSYN066AAXX  26211 59046 41650 80000 10144 20110 40205 57003 71000 885//;
0164590460999992000122700004+24340+109390FM-12+009799999V0202901N001010150019N0060001N1+01381+01141102211ADDAA199000091GF107991071051017501999999MD1210141+0021MW1101REMSYN076AAXX  27001 59046 31756 72901 10138 20114 40221 52014 71000 875// 333 05203;EQDQ01  00002PRCP99
0124590460999992000122703004+24340+109390FM-12+009799999V0200201N001019999999N0070001N1+01761+00971102311ADDGF107991071001999999031999MD1210111+9999MW1041REMSYN066AAXX  27031 59046 41957 70201 10176 20097 40231 52011 70400 8703/;
0177590460999992000122706004+24340+109390FM-12+009799999V0209999C000019999999N0080001N1+02181+00991101961ADDAA199000091GF106991061001999999031001KA1999N+01381MD1710341+9999MW1041REMSYN076AAXX  27061 59046 31958 60000 10218 20099 40196 57034 70400 86030 333 20138;EQDQ01  00002PRCP99
0124590460999992000122709004+24340+109390FM-12+009799999V0203601N002012200019N0080001N1+02221+01151101871ADDGF104991041001999999031001MD1710091+9999MW1041REMSYN066AAXX  27091 59046 41958 43602 10222 20115 40187 57009 70400 84030;
0154590460999992000122712004+24340+109390FM-12+009799999V0203601N001010150019N0060001N1+01901+01141102081ADDAA199000091GF107991071051017501999999MD1210201+9999MW1041REMSYN066AAXX  27121 59046 31756 73601 10190 20114 40208 52020 70400 875//;EQDQ01  00002PRCP99
0177590460999992000122718004+24340+109390FM-12+009799999V0203601N001010150019N0060001N1+01661+01061102231ADDAA199000091GF107991071051017501999999KA1999M+02301MD1210021+9999MW1041REMSYN076AAXX  27181 59046 31756 73601 10166 20106 40223 52002 70400 875// 333 10230;EQDQ01  00002PRCP99
0124590460999992000122721004+24340+109390FM-12+009799999V0203601N001010150019N0050001N1+01531+01061102221ADDGF107991071051017501999999MD1710011+9999MW1101REMSYN066AAXX  27211 59046 41750 73601 10153 20106 40222 57001 71000 875//;
0164590460999992000122800004+24340+109390FM-12+009799999V0200401N002019999999N0040001N1+01411+00941102361ADDAA199000091GF106991061001999999031001MD1210131+0021MW1101REMSYN076AAXX  28001 59046 31940 60402 10141 20094 40236 52013 71000 86030 333 00200;EQDQ01  00002PRCP99
0134590460999992000122803004+24340+109390FM-12+009799999V0200201N002012200019N0030001N1+01661+00911102481ADDGA1001+999999999GF100991001001999999001001MD1210121+9999MW1041REMSYN060AAXX  28031 59046 41930 00202 10166 20091 40248 52012 70400;
0187590460999992000122806004+24340+109390FM-12+009799999V0203201N002012200019N0060001N1+02031+00951102101ADDAA199000091GA1001+999999999GF100991001001999999001001KA1999N+01381MD1710371+9999MW1041REMSYN070AAXX  28061 59046 31956 03202 10203 20095 40210 57037 70400 333 20138;EQDQ01  00002PRCP99
0134590460999992000122809004+24340+109390FM-12+009799999V0203401N002012200019N0070001N1+02021+00961101991ADDGA1001+999999999GF100991001001999999001001MD1710111+9999MW1041REMSYN060AAXX  28091 59046 41957 03402 10202 20096 40199 57011 70400;
0164590460999992000122812004+24340+109390FM-12+009799999V0203601N001012200019N0080001N1+01661+01041102061ADDAA199000091GA1001+999999999GF100991001001999999001001MD1210061+9999MW1041REMSYN060AAXX  28121 59046 31958 03601 10166 20104 40206 52006 70400;EQDQ01  00002PRCP99
0187590460999992000122818004+24340+109390FM-12+009799999V0203601N001012200019N0050001N1+01261+00771102081ADDAA199000091GA1001+999999999GF100991001001999999001001KA1999M+02101MD1710021+9999MW1101REMSYN070AAXX  28181 59046 31950 03601 10126 20077 40208 57002 71000 333 10210;EQDQ01  00002PRCP99
0124590460999992000122821004+24340+109390FM-12+009799999V0203401N001010150019N0040001N1+01211+00641102001ADDGF107991071051017501999999MD1710081+9999MW1101REMSYN066AAXX  28211 59046 41740 73401 10121 20064 40200 57008 71000 875//;
0164590460999992000122900004+24340+109390FM-12+009799999V0200201N001010150019N0030001N1+01171+00541102141ADDAA199000091GF107991071051017501999999MD1210131+0021MW1041REMSYN076AAXX  29001 59046 31730 70201 10117 20054 40214 52013 70400 875// 333 05252;EQDQ01  00002PRCP99
0124590460999992000122903004+24340+109390FM-12+009799999V0200201N002010150019N0040001N1+01261+00551102201ADDGF107991071051017501999999MD1210061+9999MW1041REMSYN066AAXX  29031 59046 41740 70202 10126 20055 40220 52006 70400 875//;
0177590460999992000122906004+24340+109390FM-12+009799999V0209999C000010150019N0050001N1+01401+00751101871ADDAA199000091GF108991081051017501999999KA1999N+01161MD1710331+9999MW1041REMSYN076AAXX  29061 59046 31750 80000 10140 20075 40187 57033 70400 885// 333 20116;EQDQ01  00002PRCP99
0132590460999992000122909004+24340+109390FM-12+009799999V0203601N001010150019N0050001N1+01441+00821101751ADDAY161031GF107991071051017501999999MD1710121+9999MW1041REMSYN066AAXX  29091 59046 41750 73601 10144 20082 40175 57012 70460 875//;
0149590460999992000122912004+24340+109390FM-12+009799999V0209999C000010150019N0040001N1+01331+00921101871ADDAA106000791AY161061GF108991081051017501999999MD1210121+9999MW1101REMSYN072AAXX  29121 59046 11740 80000 10133 20092 40187 52012 69901 71060 885//;
0177590460999992000122918004+24340+109390FM-12+009799999V0203601N001010150019N0040001N1+01221+00901102021ADDAA199000091GF108991081051017501999999KA1999M+01471MD1210041+9999MW1101REMSYN076AAXX  29181 59046 31740 83601 10122 20090 40202 52004 71000 885// 333 10147;EQDQ01  00002PRCP99
0145590460999992000122921004+24340+109390FM-12+009799999V0200201N002010150019N0040001N1+01221+00901101991ADDAA124000791GF108991081051017501999999MD1710031+9999MW1101REMSYN076AAXX  29211 59046 41740 80202 10122 20090 40199 57003 71000 885// 333 79999;
0157590460999992000123000004+24340+109390FM-12+009799999V0203401N002010120019N0040001N1+01221+00941102151ADDAA106000791GF108991081051012501999999MD1210151+0001MW1601REMSYN088AAXX  30001 59046 11640 83402 10122 20094 40215 52015 69901 76000 885// 333 00001 79999;
0132590460999992000123003004+24340+109390FM-12+009799999V0203401N003010042019N0030001N1+01101+00961102331ADDAY161031GF108991081051004501999999MD1210181+9999MW1601REMSYN066AAXX  30031 59046 41430 83403 10110 20096 40233 52018 76060 885//;
0172590460999992000123006004+24340+109390FM-12+009799999V0203201N002010120019N0040001N1+01161+00881102101ADDAA106001091AY161061GF108991081051012501999999KA1999N+01091MD1710231+9999MW1601REMSYN082AAXX  30061 59046 11640 83202 10116 20088 40210 57023 60011 76060 885// 333 20109;
0132590460999992000123009004+24340+109390FM-12+009799999V0209999C000010120019N0030001N1+01201+00841102081ADDAY161031GF108991081051012501999999MD1710021+9999MW1101REMSYN066AAXX  30091 59046 41630 80000 10120 20084 40208 57002 71060 885//;
0149590460999992000123012004+24340+109390FM-12+009799999V0203401N002010120019N0040001N1+01191+00891102191ADDAA106000191AY161061GF108991081051012501999999MD1210111+9999MW1101REMSYN072AAXX  30121 59046 11640 83402 10119 20089 40219 52011 69911 71060 885//;
0168590460999992000123018004+24340+109390FM-12+009799999V0209999C000012200019N0040001N1+01001+00701102291ADDAA199000021GA1001+999999999GF100991001001999999001001KA1999M+01251MD1710031+9999MW1101REMSYN070AAXX  30181 59046 31940 00000 10100 20070 40229 57003 71000 333 10125;
0155590460999992000123021004+24340+109390FM-12+009799999V0203601N002012200019N0060001N1+00961+00661102141ADDAA124001091GA1001+999999999GF100991001001999999001001MD1710141+9999MW1101REMSYN070AAXX  30211 59046 41956 03602 10096 20066 40214 57014 71000 333 70011;
0179590460999992000123100004+24340+109390FM-12+009799999V0203601N001012200019N0050001N1+00941+00641102321ADDAA124001091GA1001+999999999GF100991001001999999001001IA2999+00409MD1210171+0201MW1101REMSYN082AAXX  31001 59046 31950 03601 10094 20064 40232 52017 71000 333 00253 30040 70011;
0134590460999992000123103004+24340+109390FM-12+009799999V0203201N001012200019N0030001N1+01361+00751102411ADDGA1001+999999999GF100991001001999999001001MD1210101+9999MW1041REMSYN060AAXX  31031 59046 41930 03201 10136 20075 40241 52010 70400;
0175590460999992000123106004+24340+109390FM-12+009799999V0200401N002012200019N0200001N1+01711+00761101991ADDAA199000091GA1001+999999999GF100991001001999999001001KA1999N+00851MD1710411+9999REMSYN064AAXX  31061 59046 32970 00402 10171 20076 40199 57041 333 20085;EQDQ01  00002PRCP99
0122590460999992000123109004+24340+109390FM-12+009799999V0200701N003012200019N0200001N1+01801+00741101801ADDGA1001+999999999GF100991001001999999001001MD1710191+9999REMSYN054AAXX  31091 59046 42970 00703 10180 20074 40180 57019;
0152590460999992000123112004+24340+109390FM-12+009799999V0200901N001012200019N0160001N1+01341+00801101911ADDAA199000091GA1001+999999999GF100991001001999999001001MD1210101+9999REMSYN054AAXX  31121 59046 32966 00901 10134 20080 40191 52010;EQDQ01  00002PRCP99
0175590460999992000123118004+24340+109390FM-12+009799999V0209999C000012200019N0120001N1+00951+00671101881ADDAA199000091GA1001+999999999GF100991001001999999001001KA1999M+01831MD1710061+9999REMSYN064AAXX  31181 59046 32962 00000 10095 20067 40188 57006 333 10183;EQDQ01  00002PRCP99
0134590460999992000123121004+24340+109390FM-12+009799999V0209999C000012200019N0080001N1+00801+00581101851ADDGA1001+999999999GF100991001001999999001001MD1710031+9999MW1101REMSYN060AAXX  31211 59046 41958 00000 10080 20058 40185 57003 71000;
