0183614980999992000010100004+16630-011400FM-12+0115GQNF V0209999C000012200019N0100001N1+02161+00951100901ADDAA106000091GA1001+999999999GF100991001001999999001001MA1999999099501MD1999999-0011REMSYN070AAXX  01004 61498 33960 00000 10216 20095 39950 40090 333 0//00 59001;EQDQ01  00002PRCP06
0200614980999992000010106004+16630-011400FM-12+0115GQNF V02099999999990390019N0100001N1+01801+00481100891ADDAA106000091GA1081+039009079GF108991081001999999071999KA1120N+01761MA1999999099531REMSYN088AAXX  01064 61498 33960 80/00 10180 20048 39953 40089 8807/ 333 20176 50824 55/// 88363;EQDQ01  00002PRCP06
0159614980999992000010109004+16630-011400FM-12+0115GQNF V02099999999990390019N0100001N1+01821-00171100941ADDGA1081+039009079GF108991081001999999081999MA1999999099611MD1999999-0031REMSYN076AAXX  01094 61498 42960 8000/ 10182 21017 39961 40094 8808/ 333 59003 88363;
0195614980999992000010112004+16630-011400FM-12+0115GQNF V0209999C000010390019N0100001N1+02111+00701101041ADDAA106000091GA1081+039009079GF108991081001999999081999MA1999999099711MD1999999+0111REMSYN082AAXX  01124 61498 33960 80000 10211 20070 39971 40104 8808/ 333 0//00 58011 88363;EQDQ01  00002PRCP06
0143614980999992000010115004+16630-011400FM-12+0115GQNF V0209999C000019999999N0100001N1+02231+01131999999ADDGF108991081001999999081999MA1999999099501MD1999999+0161REMSYN076AAXX  01154 61498 43960 80000 10223 20113 39950 40/83 8808/ 333 58016 8836/;
0208614980999992000010118004+16630-011400FM-12+0115GQNF V0209999C000010390019N0100001N1+02241+00991100791ADDAA106000091GA1081+039009079GF108991081001999999081999KA1120M+02301MA1999999099481MD1999999+0171REMSYN082AAXX  01184 61498 33960 80000 10224 20099 39948 40079 8808/ 333 10230 58017 88363;EQDQ01  00002PRCP06
0105614980999992000010121004+16630-011400FM-12+0115GQNF V0200601N002119999999N0100001N1+01871+00801100971ADDMA1999999099631MD1999999+0151REMSYN064AAXX  01214 61498 43960 /0604 10187 2008/ 39963 40097 333 58015;
0206614980999992000010206004+16630-011400FM-12+0115GQNF V0209999C000010390019N0100001N1+01831+01141101011ADDAA106000091GA1071+039009079GF107991071001999999071999KA1120N+01831MA1999999099671REMSYN094AAXX  02064 61498 33960 70000 10183 20114 39967 40101 8707/ 333 0//00 20183 50034 55/// 87363;EQDQ01  00002PRCP06
0159614980999992000010209004+16630-011400FM-12+0115GQNF V0209999C000010390019N0100001N1+01941+01161101281ADDGA1071+039009079GF107991071001999999071999MA1999999099941MD1999999+0331REMSYN076AAXX  02094 61498 42960 70000 10194 20116 39994 40128 8707/ 333 58033 87363;
0185614980999992000010211004+16630-011400FM-12+0115GQNF V02099999999999999999N0100001N1+02821+99999999999ADDAA106000091GA1041+039009039GF107991999999999999999999KA1120M+03101REMSYN088AAXX  02114 61498 33960 708/8 10282 200=8 39959 40091 84072 333 10310 8013/ 84363 83073;EQDQ01  00002PRCP06
0195614980999992000010212004+16630-011400FM-12+0115GQNF V0200401N004112200019N0100001N1+02741+00581101321ADDAA106000091GA1041+039009079GF104991041001999999031001MA1999999099991MD1999999+0261REMSYN082AAXX  02124 61498 33960 40408 10274 20058 39999 40132 84030 333 0//00 58026 84363;EQDQ01  00002PRCP06
0165614980999992000010215004+16630-011400FM-12+0115GQNF V0201401N004119999999N0100001N1+03051+00481100971ADDGA1021+039009039GF106991021001999999031011MA1999999099661MD1999999+0161REMSYN082AAXX  02154 61498 43960 61408 10305 20048 39966 40097 82031 333 58016 82363 85073;
0214614980999992000010218004+16630-011400FM-12+0115GQNF V0200801N004119999999N0100001N1+02821+00481100911ADDAA106000091GA1041+039009039GF107991041001999999071021KA1120M+03101MA1999999099591MD1999999+0131REMSYN088AAXX  02184 61498 33960 70808 10282 20048 39959 40091 84072 333 10310 58013 84363 83073;EQDQ01  00002PRCP06
0137614980999992000010221004+16630-011400FM-12+0115GQNF V0209999C000019999999N0100001N1+02501+00741101201ADDGF107991071001999999031999MA1999999099871MD1999999+0241REMSYN070AAXX  02214 61498 43960 70000 10250 20074 39987 40120 8703/ 333 58024;
0195614980999992000010300004+16630-011400FM-12+0115GQNF V0209999C000010390019N0100001N1+02321+01251101211ADDAA106000091GA1071+039009079GF107991071001999999071999MA1999999099881MD1999999+0221REMSYN082AAXX  03004 61498 33960 70000 10232 20125 39988 40121 8707/ 333 0//00 58022 87363;EQDQ01  00002PRCP06
0159614980999992000010309004+16630-011400FM-12+0115GQNF V0209999C000010390019N0100001N1+01991+00991101321ADDGA1051+039009079GF105991051001999999031001MA1999999099991MD1999999+0051REMSYN076AAXX  03094 61498 42960 50000 10199 20099 39999 40132 85030 333 58005 85363;
0195614980999992000010312004+16630-011400FM-12+0115GQNF V0200401N004110390019N0100001N1+02491+00701101371ADDAA106000091GA1071+039009079GF107991071001999999071999MA1999999100051MD1999999+0061REMSYN082AAXX  03124 61498 33960 70408 10249 20070 30005 40137 8707/ 333 0//00 58006 87363;EQDQ01  00002PRCP06
0113614980999992000010315004+16630-011400FM-12+0115GQNF V0200601N004119999999N0100001N1+02551+00791101171ADDGF107991071001999999071999MA1999999099851REMSYN060AAXX  03154 61498 43960 70608 10255 20079 39985 40117 8707/;
0214614980999992000010318004+16630-011400FM-12+0115GQNF V0200801N004119999999N0100001N1+02491+00931101041ADDAA106000091GA1021+039009039GF105991021001999999031011KA1120M+02581MA1999999099711MD1999999+0121REMSYN088AAXX  03184 61498 33960 50808 10249 20093 39971 40104 82031 333 10258 58012 82363 83073;EQDQ01  00002PRCP06
0166614980999992000010321004+16630-011400FM-12+0115GQNF V0209999C000012200019N0100001N1+02211+01021101171ADDGA1001+999999999GF100991001001999999001001MA1999999098842MD1999999-0031REMSYN064AAXX  03214 61498 43960 00000 10221 20102 39884 40117 333 59003;EQDQ01+098843APOSP 
0187614980999992000010409004+16630-011400FM-12+0115GQNF V0209999C000010390019N0020001N1+01761+00541101371ADDAY121031AY221031GA1081+039009079GF108991081001999999071999MA1999999100031MD1999999+0041MW1051REMSYN082AAXX  04094 61498 41920 80000 10176 20054 30003 40137 70522 8807/ 333 58004 88363;
0207614980999992000010412004+16630-011400FM-12+0115GQNF V0209999C000010390019N0030001N1+01941+00401101451ADDAA106000091GA1081+039009079GF108991081001999999071999MA1999999100111MD1999999+0061MW1051REMSYN088AAXX  04124 61498 31930 80000 10194 20040 30011 40145 705// 8807/ 333 0//00 58006 88363;EQDQ01  00002PRCP06
0171614980999992000010415004+16630-011400FM-12+0115GQNF V0200401N003610390019N0060001N1+02001+00201101241ADDGA1071+039009079GF107991071001999999071999MA1999999099901MD1999999+0051MW1071REMSYN082AAXX  04154 61498 41956 70407 10200 20020 39990 40124 707// 8707/ 333 58005 87363;
0220614980999992000010418004+16630-011400FM-12+0115GQNF V0200201N003610390019N0080001N1+01951+00241101191ADDAA106000091GA1071+039009079GF107991071001999999071999KA1120M+02101MA1999999099851MD1999999+0141MW1051REMSYN088AAXX  04184 61498 31958 70207 10195 20024 39985 40119 705// 8707/ 333 10210 58014 87363;EQDQ01  00002PRCP06
0171614980999992000010421004+16630-011400FM-12+0115GQNF V0200401N002610390019N0040001N1+01801+00181101351ADDGA1071+039009079GF107991071001999999071999MA1999999100001MD1999999+0161MW1051REMSYN082AAXX  04214 61498 41940 70405 10180 20018 30000 40135 705// 8707/ 333 58016 87363;
0207614980999992000010500004+16630-011400FM-12+0115GQNF V0209999C000010390019N0080001N1+01801-00021101331ADDAA106000091GA1051+039009079GF105991051001999999031001MA1999999100081MD1999999+0211MW1051REMSYN088AAXX  05004 61498 31958 50000 10180 21002 30008 40133 705// 85030 333 0//00 58021 85363;EQDQ01  00002PRCP06
0207614980999992000010512004+16630-011400FM-12+0115GQNF V0200401N003610390019N0080001N1+02201-00181101451ADDAA106000091GA1051+039009079GF105991051001999999031001MA1999999100111MD1999999+0001MW1051REMSYN088AAXX  05124 61498 31958 50407 10220 21018 30011 40145 705// 85030 333 0//00 58000 85363;EQDQ01  00002PRCP06
0208614980999992000010518004+16630-011400FM-12+0115GQNF V0203601N004112200019N0060001N1+02511+00121101081ADDAA106000091GA1001+999999999GF100991001001999999001001KA1120M+02601MA1999999099751MD1999999-0101MW1051REMSYN076AAXX  05184 61498 31956 03608 10251 20012 39975 40108 705// 333 10260 59010;EQDQ01  00002PRCP06
0153614980999992000010615004+16630-011400FM-12+0115GQNF V0200401N002612200019N0080001N1+02671+99999101001ADDGA1021+039009079GF102991021001999999031001MA1999999098701MD1999999-0121REMSYN070AAXX  06154 61498 42958 20405 10267 39870 40100 82030 333 59012 82363;
0162614980999992000010621004+16630-011400FM-12+0115GQNF V0203601N002112200019N0048001N1+02301-00241999999ADDGA1001+999999999GF100991001001999999001001MA1999999099811MD1999999-0091ME1311159REMSYN070AAXX  06214 61498 41948 03604 10230 21024 39981 48115 70/// 333 59009;
0183614980999992000010700004+16630-011400FM-12+0115GQNF V02099999999992200019N0100001N1+02101-00281101241ADDAA106000091GA1001+999999999GF100991001001999999001001MA1999999099911MD1999999-0061REMSYN070AAXX  07004 61498 33960 00/00 10210 21028 39991 40124 333 0//00 59006;EQDQ01  00002PRCP06
0194614980999992000010706004+16630-011400FM-12+0115GQNF V0203601N003112200019N0100001N1+01501-00201101221ADDAA106000091GA1001+999999999GF100991001001999999001001KA1120N+01481MA1999999099891REMSYN082AAXX  07064 61498 33960 03606 10150 21020 39989 40122 333 0//00 20148 50644 55///;EQDQ01  00002PRCP06
0159614980999992000010709004+16630-011400FM-12+0115GQNF V0209999C000012200019N0100001N1+01621-00231101301ADDGA1021+039009079GF102991021001999999031001MA1999999099961MD1999999-0081REMSYN076AAXX  07094 61498 42960 20000 10162 21023 39996 40130 82030 333 59008 82363;
0195614980999992000010712004+16630-011400FM-12+0115GQNF V0209999C000012200019N0100001N1+02581-00121101191ADDAA106000091GA1021+039009079GF102991021001999999031011MA1999999099861MD1999999-0181REMSYN082AAXX  07124 61498 33960 20000 10258 21012 39986 40119 82031 333 0//00 59018 82363;EQDQ01  00002PRCP06
0114614980999992000010715004+16630-011400FM-12+0115GQNF V0200801N005119999999N0060001N1+02781+00801999999ADDGF105991051001999999031001MW1061REMSYN070AAXX  07154 61498 41956 50810 10278 20080 3//// 4//// 706// 85030 333;
0208614980999992000010718004+16630-011400FM-12+0115GQNF V0209999C000010390019N0100001N1+02871+00571100831ADDAA106000091GA1061+039009079GF106991061001999999071001KA1120M+03041MA1999999099501MD1999999-0141REMSYN082AAXX  07184 61498 33960 60000 10287 20057 39950 40083 86070 333 10304 59014 86363;EQDQ01  00002PRCP06
0170614980999992000010721004+16630-011400FM-12+0115GQNF V0203601N002112200019N0060001N1+02571+00131101812ADDGA1031+039009079GF103991031001999999031001MA1999999099681REMSYN082AAXX  07214 61498 41956 33604 10257 20013 39968 40181 70/// 83030 333 59/11 83363;EQDQ01+101813APOSLP
0181614980999992000010806004+16630-011400FM-12+0115GQNF V0209999C000012200019N0100001N1+01701+00141100931ADDAA106000091GA1001+999999999GF100991001001999999001001MA1999999099611REMSYN082AAXX  08064 61498 33960 00000 10170 20014 39961 40093 333 0//00 20/70 50554 55///;EQDQ01  00002PRCP06
0159614980999992000010809004+16630-011400FM-12+0115GQNF V0209999C000010390019N0100001N1+01901+00051101071ADDGA1071+039009079GF107991071001999999071999MA1999999099741MD1999999-0221REMSYN076AAXX  08094 61498 42960 70000 10190 20005 39974 40107 8707/ 333 59022 87363;
0195614980999992000010812004+16630-011400FM-12+0115GQNF V0209999C000010390019N0100001N1+02531+00571101081ADDAA106000091GA1061+039009079GF106991061001999999071001MA1999999099761MD1999999-0101REMSYN082AAXX  08124 61498 33960 60000 10253 20057 39976 40108 86070 333 0//00 59010 86363;EQDQ01  00002PRCP06
0132614980999992000010815004+16630-011400FM-12+0115GQNF V02099999999999999999N0170001N1+99999+99999100841ADDGA1031+039009079GF107991031001999999071001MD1999999-0021REMSYN064AAXX  08154 61498 43967 707/7 2053/ 40084 83070 333 59002 83363;
0208614980999992000010818004+16630-011400FM-12+0115GQNF V0209999C000012200019N0100001N1+03071+00661100791ADDAA106000091GA1031+039009079GF103991031001999999071001KA1120M+03281MA1999999099471MD1999999-0031REMSYN082AAXX  08184 61498 33960 30000 10307 20066 39947 40079 83070 333 10328 59003 83363;EQDQ01  00002PRCP06
0195614980999992000010900004+16630-011400FM-12+0115GQNF V0203601N003112200019N0100001N1+02461+00391101071ADDAA106000091GA1021+039009079GF102991021001999999031001MA1999999099761MD1999999+0051REMSYN082AAXX  09004 61498 33960 23606 10246 20039 39976 40107 82030 333 0//00 58005 82363;EQDQ01  00002PRCP06
0166614980999992000010906004+16630-011400FM-12+0115GQNF V02099999999999999999N0100001N1+01901+00151101051ADDAA106000091KA1120N+01881MA1999999099731MD1999999+0121REMSYN082AAXX  09064 61498 33960 /3/08 10190 20015 39973 40105 333 0//00 20188 55/// 58012;EQDQ01  00002PRCP06
0159614980999992000010909004+16630-011400FM-12+0115GQNF V0203601N002612200019N0100001N1+01981+00121101181ADDGA1031+039009079GF103991031001999999071001MA1999999099851MD1999999+0111REMSYN076AAXX  09094 61498 42960 33605 10198 20012 39985 40118 83070 333 58011 83363;
0211614980999992000010912004+16630-011400FM-12+0115GQNF V0203601N003112200019N0100001N1+02611+00461101161ADDAA106000091GA1021+039009079GF102991999001999999071001MA1999999099841MD1999999+0011REMSYN082AAXX  09124 61498 33960 23606 10261 20046 39984 40116 86070 333 0//00 58001 82363;EQDQ01+000062SCOTLCQ02  00002PRCP06
0153614980999992000010915004+16630-011400FM-12+0115GQNF V0209999C000012200019N0100001N1+03001+99999999999ADDGA1021+039009079GF102991999001999999071001MA1999999099531MD1999999+0001REMSYN070AAXX  09154 61498 43960 20000 10300 39953 4/0/4 8/070 333 58000 82363;
0218614980999992000011006004+16630-011400FM-12+0115GQNF V0209999C000012200019N0080001N1+02001+01341101071ADDAA106000091GA1011+039009079GF101991011001999999031001KA1120N+02001MA1999999099751MW1051REMSYN100AAXX  10064 61498 31958 10000 10200 20134 39975 40107 705// 81030 333 0//00 20200 50614 55/// 81363;EQDQ01  00002PRCP06
0159614980999992000011009004+16630-011400FM-12+0115GQNF V0203601N003612200019N0100001N1+01951+01341101241ADDGA1031+039009079GF103991031001999999031001MA1999999099911MD1999999+0061REMSYN076AAXX  10094 61498 42960 33607 10195 20134 39991 40124 83030 333 58006 83363;
0195614980999992000011012004+16630-011400FM-12+0115GQNF V0203601N006212200019N0100001N1+02461+01261101291ADDAA106000091GA1021+039009079GF102991021001999999031001MA1999999099971MD1999999+0131REMSYN082AAXX  10124 61498 33960 23612 10246 20126 39997 40129 82030 333 0//00 58013 82363;EQDQ01  00002PRCP06
0159614980999992000011015004+16630-011400FM-12+0115GQNF V0200201N004112200019N0100001N1+02941+01121100881ADDGA1011+039009079GF101991011001999999031001MA1999999099571MD1999999+0041REMSYN076AAXX  10154 61498 43960 10208 10294 20112 39957 40088 81030 333 58004 81363;
0192614980999992000011018004+16630-011400FM-12+0115GQNF V0200401N003612200019N0100001N1+02851+01011100851ADDAA106000091GF101991011001999999031001KA1120M+02941MA1999999099531MD1999999+0071REMSYN082AAXX  10184 61498 33960 10407 10285 20101 39953 40085 81030 333 10294 58007 8/363;EQDQ01  00002PRCP06
0194614980999992000011106004+16630-011400FM-12+0115GQNF V0203601N003112200019N0100001N1+01801+00841101171ADDAA106000091GA1001+999999999GF100991001001999999001001KA1120N+01781MA1999999099841REMSYN082AAXX  11064 61498 33960 03606 10180 20084 39984 40117 333 0//00 20178 50574 55///;EQDQ01  00002PRCP06
0159614980999992000011109004+16630-011400FM-12+0115GQNF V0200401N003112200019N0100001N1+01801+00741101341ADDGA1041+039009079GF104991041001999999071001MA1999999100051MD1999999+0101REMSYN076AAXX  11094 61498 42960 40406 10180 20074 30005 40134 84070 333 58010 84363;
0195614980999992000011112004+16630-011400FM-12+0115GQNF V0200401N003612200019N0100001N1+02461+00891101331ADDAA106000091GA1021+039009079GF102991021001999999031001MA1999999100011MD1999999+0041REMSYN082AAXX  11124 61498 33960 20407 10246 20089 30001 40133 82030 333 0//00 58004 82363;EQDQ01  00002PRCP06
0159614980999992000011115004+16630-011400FM-12+0115GQNF V0200401N003112200019N0100001N1+02851+00911100991ADDGA1011+039009079GF101991011001999999071001MA1999999099611MD1999999+0111REMSYN076AAXX  11154 61498 43960 10406 10285 20091 39961 40099 81070 333 58011 81363;
0159614980999992000011209004+16630-011400FM-12+0115GQNF V0203601N003112200019N0100001N1+01701-00381101461ADDGA1021+039009079GF102991021001999999031001MA1999999100121MD1999999+0111REMSYN076AAXX  12094 61498 42960 23606 10170 21038 30012 40146 82030 333 58011 82363;
0195614980999992000011212004+16630-011400FM-12+0115GQNF V0200601N004110690019N0100001N1+02281-00501101441ADDAA106000091GA1061+069009019GF106991001001999999001011MA1999999100111MD1999999+0101REMSYN082AAXX  12124 61498 33960 60608 10228 21050 30011 40144 80001 333 0//00 58010 86073;EQDQ01  00002PRCP06
0159614980999992000011215004+16630-011400FM-12+0115GQNF V0203601N003610690019N0100001N1+02761+00061101161ADDGA1051+069009019GF105991001001999999001011MA1999999099831MD1999999+0151REMSYN076AAXX  12154 61498 43960 53607 10276 20006 39983 40116 80001 333 58015 85073;
0194614980999992000011306004+16630-011400FM-12+0115GQNF V0203601N003112200019N0100001N1+01441-00301101331ADDAA106000091GA1001+999999999GF100991001001999999001001KA1120N+01401MA1999999099991REMSYN082AAXX  13064 61498 33960 03606 10144 21030 39999 40133 333 0//00 20140 50624 55///;EQDQ01  00002PRCP06
0147614980999992000011309004+16630-011400FM-12+0115GQNF V0203601N002112200019N0100001N1+01561-00481101511ADDGA1001+999999999GF100991001001999999001001MA1999999100161MD1999999+0041REMSYN064AAXX  13094 61498 42960 03604 10156 21048 30016 40151 333 58004;
0147614980999992000011315004+16630-011400FM-12+0115GQNF V0203601N002612200019N0100001N1+02681+99999101111ADDGA1001+999999999GF100991001001999999001001MA1999999099781MD1999999-0051REMSYN064AAXX  13154 61498 43960 03605 10268 21/05 39978 40111 333 59005;
0196614980999992000011318004+16630-011400FM-12+0115GQNF V0203601N004112200019N0100001N1+02541-00121101081ADDAA106000091GA1001+999999999GF100991001001999999001001KA1120M+02711MA1999999099741MD1999999-0021REMSYN070AAXX  13184 61498 33960 03608 10254 21012 39974 40108 333 10271 59002;EQDQ01  00002PRCP06
0198614980999992000011406004+16630-011400FM-12+011599999V0200401N002612200019N0100001N1+01301-00181101211ADDAA199000091GA1001+999999999GF100991001001999999001001KA1120N+01341MA1999999099871REMSYN086    AAXX  14064 61498 33960 00405 1013/ 21018 39987 40121 333 0//00 20134 50664 55///;EQDQ01  00002PRCP99
0179614980999992000011409004+16630-011400FM-12+011599999V0209999C000012200019N0060001N1+01501+00001101401ADDAY101031AY201031GA1001+999999999GF100991001001999999001001MA1999999100051MD1999999-0111MW1051REMSYN074    AAXX  14094 61498 41956 00000 10150 20000 30005 40140 70500 333 59011;
0228614980999992000011418004+16630-011400FM-12+011599999V0200401N002612200019N0050001N1+02591+00101101321ADDAA199000091GA1001+999999999GF100991001001999999001001KA1120M+02661MA1999999999999MD1999999-0231MW1051REMSYN080    AAXX  14184 61498 31950 00405 10259 20010 39751 40132 705// 333 10266 59023;EQDQ01  00002PRCP99Q02 097513APOSP 
0227614980999992000011500004+16630-011400FM-12+011599999V0209999C000012200019N0060001N1+01841+00101101081ADDAA199000091GA1031+039009079GF103991031001999999031001MA1999999099752MD1999999-0161MW1051REMSYN092    AAXX  15004 61498 31956 30000 10184 20010 39975 40108 705// 83030 333 0//00 59016 83363;EQDQ01+099753APOSP Q02  00002PRCP99
0210614980999992000011506004+16630-011400FM-12+011599999V0209999C000012200019N0060001N1+01361-00161101081ADDAA199000091GA1001+999999999GF100991001001999999001001KA1120N+01231MA1999999099741MW1051REMSYN092    AAXX  15064 61498 31956 00000 10136 21016 39974 40108 705// 333 0//00 20123 50774 55///;EQDQ01  00002PRCP99
0163614980999992000011509004+16630-011400FM-12+011599999V0203601N002110390019N0100001N1+01441-00161101201ADDGA1061+039009079GF106991061001999999031001MA1999999099851MD1999999-0201REMSYN080    AAXX  15094 61498 42960 63604 10144 21016 39985 40120 86030 333 59020 86363;
0205614980999992000011512004+16630-011400FM-12+011599999V0200801N002119999999N0100001N1+02301-00021101451ADDAA199000091GA1021+039009039GF106991021001999999031011MA1999999100011MD1999999+0071REMSYN092    AAXX  15124 61498 33960 60804 10230 21002 30001 40145 82031 333 0//00 58007 82363 84073;EQDQ01  00002PRCP99
0149614980999992000011515004+16630-011400FM-12+011599999V0209999C000010390019N0100001N1+02701+00181999999ADDGA1061+039009079GF106991061001999999031001MA1999999099601REMSYN080    AAXX  15154 61498 43960 60000 1027/ 20018 39960 400/3 86030 333 5001/ 86363;
0212614980999992000011518004+16630-011400FM-12+011599999V0209999C000010390019N0100001N1+02651+00041100891ADDAA199000091GA1071+039009079GF107991061001999999081001KA1120M+02781MA1999999099561MD1999999+0041REMSYN086    AAXX  15184 61498 33960 70000 10265 20004 39956 40089 86080 333 10278 58004 87363;EQDQ01  00002PRCP99
0198614980999992000011606004+16630-011400FM-12+011599999V0203601N002112200019N0100001N1+01701+00051100941ADDAA199000091GA1001+999999999GF100991001001999999001001KA1120N+01701MA1999999099611REMSYN086    AAXX  16064 61498 33960 03604 10170 20005 39961 40094 333 0//00 20170 50714 55///;EQDQ01  00002PRCP99
0167614980999992000011609004+16630-011400FM-12+011599999V0209999C000012200019N0100001N1+01901-00201101281ADDGA1021+039009079GF102991021001999999031001MD1999999+0121REMSYN080    AAXX  16094 61498 42960 20000 10190 21020 39794 40128 82030 333 58012 82363;EQDQ01+097943APOSP 
0215614980999992000011612004+16630-011400FM-12+011599999V0209999C000012200019N0100001N1+02611+00031101311ADDAA199000091GA1021+069009019GF102991021001999999031999MA1999999099991MD1999999-0021REMSYN086    AAXX  16124 61498 33960 20000 10261 20003 39999 40131 82030 333 0//00 59002 82073;EQDQ01+000002SCOHCGQ02  00002PRCP99
0163614980999992000011615004+16630-011400FM-12+011599999V0209999C000012200019N0100001N1+03181+00251100971ADDGA1021+039009079GF102991021001999999031001MA1999999099661MD1999999+0061REMSYN080    AAXX  16154 61498 43960 20000 10318 20025 39966 40097 82030 333 58006 82363;
0212614980999992000011618004+16630-011400FM-12+011599999V0209999C000012200019N0100001N1+03151+00371100971ADDAA199000091GA1031+039009079GF103991031001999999031001KA1120M+03231MA1999999099651MD1999999+0081REMSYN086    AAXX  16184 61498 32960 30000 10315 20037 39965 40097 83030 333 10323 58008 83363;EQDQ01  00002PRCP99
0198614980999992000011706004+16630-011400FM-12+011599999V0209999C000012200019N0100001N1+01901+00001101251ADDAA199000091GA1001+999999999GF100991001001999999001001KA1120N+01901MA1999999099931REMSYN086    AAXX  17064 61498 33960 00000 10190 20000 39993 40125 333 0//00 20190 50684 55///;EQDQ01  00002PRCP99
0163614980999992000011709004+16630-011400FM-12+011599999V0203601N001512200019N0100001N1+02041-00091101381ADDGA1011+039009079GF101991011001999999031001MA1999999100061MD1999999+0121REMSYN080    AAXX  17094 61498 42960 13603 10204 21009 30006 40138 81030 333 58012 81363;
0187614980999992000011712004+16630-011400FM-12+011599999V0200401N002112200019N0100001N1+02861+00041101391ADDAA199000091GA1001+999999999GF100991001001999999001001MA1999999100081MD1999999+0171REMSYN074    AAXX  17124 61498 33960 00404 10286 20004 30008 40139 333 0//00 58017;EQDQ01  00002PRCP99
0170614980999992000011715004+16630-011400FM-12+011599999V0203601N002112200019N0100001N1+03281+00171101161ADDGA1001+999999999GF100991001001999999001001MA1999999098842MD1999999+0181REMSYN068    AAXX  17154 61498 43960 03604 10328 20017 39884 40116 333 58018;EQDQ01+098843APOSP 
0210614980999992000011809004+16630-011400FM-12+011599999V0200401N002612200019N0100001N1+02021-00041101081ADDAA199000091GA1031+039009079GF103991031001999999031001KA1120N+02001MA1999999099871REMSYN098    AAXX  18094 61498 33960 30405 10202 21004 39987 40108 83030 333 0//00 20200 50734 55/// 83363;EQDQ01  00002PRCP99
0199614980999992000011812004+16630-011400FM-12+011599999V0203601N003112200019N0060001N1+01811+00321101501ADDAA199000091GA1011+039009079GF101991011001999999031001MA1999999100181MD1999999+0101REMSYN086    AAXX  18124 61498 33956 13606 10181 20032 30018 40150 81030 333 0//00 58010 81363;EQDQ01  00002PRCP99
0212614980999992000011818004+16630-011400FM-12+011599999V0200601N002112200019N0100001N1+03201+00301101011ADDAA199000091GA1011+039009079GF101991011001999999031001KA1120M+03331MA1999999099701MD1999999-0101REMSYN086    AAXX  18184 61498 33960 10604 10320 20030 39970 40101 81030 333 10333 59010 81363;EQDQ01  00002PRCP99
0163614980999992000011821004+16630-011400FM-12+011599999V0203601N002112200019N0100001N1+02701+00231101111ADDGA1011+039009079GF101991011001999999031001MA1999999099791MD1999999-0061REMSYN080    AAXX  18214 61498 43960 13604 10270 20023 39979 40111 81030 333 59006 81363;
0224614980999992000011906004+16630-011400FM-12+011599999V0203601N003112200019N0100001N1+01841+00021101101ADDAA199000091GA1021+039009079GF102991021001999999031001KA1120N+01801MA1999999099981MD1999999-0091REMSYN098    AAXX  19064 61498 33960 23606 10184 20002 39998 40110 82030 333 0//00 20180 50954 59009 82363;EQDQ01  00002PRCP99
0151614980999992000011909004+16630-011400FM-12+011599999V0200401N003112200019N0100001N1+01961-00091101291ADDGA1001+999999999GF100991001001999999001001MA1999999099961MD1999999-0161REMSYN068    AAXX  19094 61498 42960 00406 10196 21009 39996 40129 333 59016;
0187614980999992000011912004+16630-011400FM-12+011599999V0200401N003112200019N0100001N1+02701+00161101311ADDAA199000091GA1001+999999999GF100991001001999999001001MA1999999099991MD1999999-0191REMSYN074    AAXX  19124 61498 33960 00406 10270 20016 39999 40131 333 0//00 59019;EQDQ01  00002PRCP99
0147614980999992000011915004+16630-011400FM-12+0115GQNF V0200401N002112200019N0100001N1+03171+00191100971ADDGA1001+999999999GF100991001001999999001001MA1999999099661MD1999999-0141REMSYN064AAXX  19154 61498 43960 00404 10317 20019 39966 40097 333 59014;
0208614980999992000011918004+16630-011400FM-12+0115GQNF V0200401N002112200019N0100001N1+03151+00171100861ADDAA199000091GA1011+069009019GF101991001001999999001011KA1120M+03251MA1999999099551MD1999999-0151REMSYN082AAXX  19184 61498 33960 10404 10315 20017 39955 40086 80001 333 10325 59015 81073;EQDQ01  00002PRCP99
0195614980999992000012000004+16630-011400FM-12+0115GQNF V0200401N002612200019N0100001N1+02161+00001100971ADDAA199000091GA1021+069009019GF102991001001999999001011MA1999999099651MD1999999-0351REMSYN082AAXX  20004 61498 33960 20405 10216 20000 39965 40097 80001 333 0//00 59035 82073;EQDQ01  00002PRCP99
0126614980999992000012009004+16630-011400FM-12+0115GQNF V0203601N003110690019N0100001N1+01871+99999101301ADDGA1051+069009019GF105991999999999999999999MD1999999+0011REMSYN058AAXX  20094 61498 42960 53606 10187 40130 333 58001 85073;
0195614980999992000012012004+16630-011400FM-12+0115GQNF V0203601N004110690019N0100001N1+02741+00001101311ADDAA199000091GA1051+069009019GF105991001001999999001021MA1999999099991MD1999999+0001REMSYN082AAXX  20124 61498 33960 53608 10274 20000 39999 40131 80002 333 0//00 58000 85073;EQDQ01  00002PRCP99
0178614980999992000012015004+16630-011400FM-12+0115GQNF V0200601N002610690019N0100001N1+03271+00191100971ADDGA1071+069009019GF199999001001999999001011MA1999999099661MD1999999+0001REMSYN076AAXX  20154 61498 43960 50605 10327 20019 39966 40097 80001 333 58000 87073;EQDQ01+000052SCOTCV
0209614980999992000012018004+16630-011400FM-12+0115GQNF V0209999C000012200019N0100001N1+03101+00291100931ADDAA199000091GA1021+069009019GF102991001001999999001011KA1120M+03301MD1999999+0071REMSYN082AAXX  20184 61498 33960 20000 10310 20029 39762 40093 80001 333 10330 58007 82073;EQDQ01+097623APOSP Q02  00002PRCP99
0195614980999992000012100004+16630-011400FM-12+0115GQNF V0203601N003112200019N0100001N1+02221+00041101221ADDAA199000091GA1021+069009019GF102991001001999999001011MA1999999099901MD1999999+0251REMSYN082AAXX  21004 61498 33960 23606 10222 20004 39990 40122 80001 333 0//00 58025 82073;EQDQ01  00002PRCP99
0195614980999992000012103004+16630-011400FM-12+0115GQNF V0203601N003112200019N0100001N1+02221+00041101221ADDAA199000091GA1021+069009019GF102991001001999999001011MA1999999099901MD1999999+0251REMSYN082AAXX  21034 61498 33960 23606 10222 20004 39990 40122 80001 333 0//00 58025 82073;EQDQ01  00002PRCP99
0159614980999992000012109004+16630-011400FM-12+0115GQNF V0203601N002110690019N0100001N1+01941-00141101311ADDGA1051+069009019GF105991001001999999001999MA1999999099981MD1999999+0011REMSYN076AAXX  21094 61498 42960 53604 10194 21014 39998 40131 8000/ 333 58001 85073;
0195614980999992000012112004+16630-011400FM-12+0115GQNF V0209999C000012200019N0100001N1+02791+00171101351ADDAA199000091GA1041+069009019GF104991001001999999001011MA1999999100031MD1999999+0041REMSYN082AAXX  21124 61498 33960 40000 10279 20017 30003 40135 80001 333 0//00 58004 84073;EQDQ01  00002PRCP99
0159614980999992000012115004+16630-011400FM-12+0115GQNF V0209999C000012200019N0100001N1+03351+00411101051ADDGA1021+069009019GF102991001001999999001011MA1999999099741MD1999999+0081REMSYN076AAXX  21154 61498 43960 20000 10335 20041 39974 40105 80001 333 58008 82073;
0159614980999992000012209004+16630-011400FM-12+0115GQNF V0200401N003110690019N0100001N1+01961-00091101441ADDGA1061+069009019GF106991001001999999001011MA1999999100111MD1999999+0131REMSYN076AAXX  22094 61498 42960 60406 10196 21009 30011 40144 80001 333 58013 86073;
0195614980999992000012212004+16630-011400FM-12+0115GQNF V0200401N003110690019N0100001N1+02641+00021101431ADDAA199000091GA1061+069009019GF106991001001999999001011MA1999999100111MD1999999+0081REMSYN082AAXX  22124 61498 33960 60406 10264 20002 30011 40143 80001 333 0//00 58008 86073;EQDQ01  00002PRCP99
0159614980999992000012215004+16630-011400FM-12+0115GQNF V0200201N003110690019N0100001N1+03131+00211101141ADDGA1051+069009019GF105991001001999999001011MA1999999099831MD1999999+0091REMSYN076AAXX  22154 61498 43960 50206 10313 20021 39983 40114 80001 333 58009 85073;
0222614980999992000012306004+16630-011400FM-12+0115GQNF V0203601N003110690019N0100001N1+01801-00031101201ADDAA199000091GA1071+069009089GF107991999001999999001081KA1120N+01801MA1999999099881REMSYN094AAXX  23064 61498 33960 73606 10180 21003 39988 40120 80008 333 0//00 20180 50704 55/// 87273;EQDQ01+000002SCOTLCQ02  00002PRCP99
0159614980999992000012309004+16630-011400FM-12+0115GQNF V0200401N003110390019N0100001N1+01901-00161101311ADDGA1071+039009079GF107991071001999999071999MA1999999099981MD1999999-0131REMSYN076AAXX  23094 61498 42960 70406 10190 21016 39998 40131 8707/ 333 59013 87363;
0201614980999992000012312004+16630-011400FM-12+0115GQNF V0200401N002119999999N0100001N1+02641+00161101311ADDAA199000091GA1021+039009039GF106991021001999999031011MA1999999099991MD1999999-0111REMSYN088AAXX  23124 61498 33960 60404 10264 20016 39999 40131 82031 333 0//00 59011 82363 84073;EQDQ01  00002PRCP99
0159614980999992000012315004+16630-011400FM-12+0115GQNF V0200401N002112200019N0100001N1+03181+00101100991ADDGA1021+069009019GF102991001001999999001011MA1999999099681MD1999999-0161REMSYN076AAXX  23154 61498 43960 20404 10318 2001/ 39968 40099 80001 333 59016 82073;
0208614980999992000012318004+16630-011400FM-12+0115GQNF V0209999C000012200019N0100001N1+03171+00441100921ADDAA199000091GA1011+039009079GF101991011001999999031011KA1120M+03221MA1999999099611MD1999999-0141REMSYN082AAXX  23184 61498 33960 10000 10317 20044 39961 40092 81031 333 10322 59014 81363;EQDQ01  00002PRCP99
0210614980999992000012406004+16630-011400FM-12+0115GQNF V0200401N002612200019N0100001N1+01801-00041100921ADDAA199000091GF102991021001999999031001KA1120N+01801MA1999999099691MD1999999-0271REMSYN100AAXX  24064 61498 33960 20405 10180 21004 39969 40092 82030 333 0//00 20180 50654 55/// 59027 82363;EQDQ01  00002PRCP99
0159614980999992000012409004+16630-011400FM-12+0115GQNF V0209999C000012200019N0100001N1+01901+00001101251ADDGA1031+039009079GF103991031001999999031001MA1999999099921MD1999999-0061REMSYN076AAXX  24094 61498 42960 30000 10190 20000 39992 40125 83030 333 59006 83363;
0195614980999992000012412004+16630-011400FM-12+0115GQNF V0209999C000012200019N0100001N1+02781+00321101211ADDAA199000091GA1041+039009079GF104991041001999999031001MA1999999099871MD1999999-0101REMSYN082AAXX  24124 61498 33960 40000 10278 20032 39987 40121 84030 333 0//00 59010 84363;EQDQ01  00002PRCP99
0159614980999992000012415004+16630-011400FM-12+0115GQNF V0209999C000012200019N0100001N1+03301+00611100881ADDGA1031+039009079GF103991031001999999031001MA1999999099571MD1999999-0111REMSYN076AAXX  24154 61498 43960 30000 10330 20061 39957 40088 83030 333 59011 83363;
0203614980999992000012418004+16630-011400FM-12+0115GQNF V0209999C000010390019N0000001N1+03251+99999100821ADDAA199000091GA1071+039009079GF107991071001999999071999KA1120M+03501MD1999999-0101REMSYN076AAXX  24184 61498 3//90 70000 10325 33952 40082 8707/ 333 10350 59010 87363;EQDQ01+039521APOSP Q02  00002PRCP99
0205614980999992000012500004+16630-011400FM-12+0115GQNF V0200401N003112200019N0100001N1+99999+99999101862ADDAA199000091GA1041+039009079GF104991041001999999031001MA1999999099751MD1999999+0131REMSYN076AAXX  25004 61498 33960 40406 21018 39975 40186 84030 333 0//00 58013 84363;EQDQ01+101863APOSLPQ02  00002PRCP99
0190614980999992000012506004+16630-011400FM-12+0115GQNF V0200401N002119999999N0100001N1+02061+99999101081ADDAA199000091GF105991051001999999031001KA1120N+02021MA1999999099771REMSYN094AAXX  25064 61498 33960 50404 10206 39977 40108 85030 333 0//00 20202 58804 55/// 58016 85363;EQDQ01  00002PRCP99
0159614980999992000012509004+16630-011400FM-12+0115GQNF V0209999C000010390019N0100001N1+02261+00041101191ADDGA1061+039009079GF106991061001999999031001MA1999999099861MD1999999-0041REMSYN076AAXX  25094 61498 42960 60000 10226 20004 39986 40119 86030 333 59004 86363;
0195614980999992000012512004+16630-011400FM-12+0115GQNF V0209999C000010390019N0100001N1+03101+00001101191ADDAA199000091GA1051+039009079GF105991051001999999031001MA1999999099891MD1999999+0001REMSYN082AAXX  25124 61498 33960 50000 10310 20000 39989 40119 85030 333 0//00 58000 85363;EQDQ01  00002PRCP99
0159614980999992000012515004+16630-011400FM-12+0115GQNF V0209999C000010390019N0100001N1+03611+00271100911ADDGA1051+039009079GF105991051001999999031001MA1999999099611MD1999999+0041REMSYN076AAXX  25154 61498 43960 50000 10361 20027 39961 40091 85030 333 58004 85363;
0208614980999992000012518004+16630-011400FM-12+0115GQNF V0209999C000010390019N0100001N1+03351+00271100831ADDAA199000091GA1071+039009079GF107991071001999999071999KA1120M+03611MA1999999099531MD1999999+0011REMSYN082AAXX  25184 61498 33960 70000 10335 20027 39953 40083 8707/ 333 10361 58001 87363;EQDQ01  00002PRCP99
0194614980999992000012606004+16630-011400FM-12+0115GQNF V0209999C000012200019N0100001N1+01981+00131100931ADDAA199000091GA1001+999999999GF100991001001999999001001KA1120N+01961MA1999999099621REMSYN082AAXX  26064 61498 33960 00000 10198 20013 39962 40093 333 0//00 20196 50684 55///;EQDQ01  00002PRCP99
0159614980999992000012609004+16630-011400FM-12+0115GQNF V0209999C000010690019N0100001N1+02301+00201101241ADDGA1051+069009019GF105991001001999999001021MA1999999099921MD1999999+0041REMSYN076AAXX  26094 61498 43960 50000 10230 20020 39992 40124 80002 333 58004 85073;
0195614980999992000012612004+16630-011400FM-12+0115GQNF V0200401N005112200019N0100001N1+03101-00121101211ADDAA199000091GA1041+069009019GF104991001001999999001021MA1999999099911MD1999999+0021REMSYN082AAXX  26124 61498 33960 40410 10310 21012 39991 40121 80002 333 0//00 58002 84073;EQDQ01  00002PRCP99
0159614980999992000012615004+16630-011400FM-12+0115GQNF V0200401N004110690019N0100001N1+03501-00111100971ADDGA1051+069009019GF105991001001999999001021MA1999999099671MD1999999+0061REMSYN076AAXX  26154 61498 43960 50408 10350 21011 39967 40097 80002 333 58006 85073;
0171614980999992000012709004+16630-011400FM-12+0115GQNF V0200401N003612200019N0040001N1+02441+00801101501ADDGA1031+039009079GF103991031001999999031001MA1999999100191MD1999999+0271MW1051REMSYN082AAXX  27094 61498 41940 30407 10244 20080 30019 40150 705// 83030 333 58027 83363;
0195614980999992000012712004+16630-011400FM-12+0115GQNF V0200401N005112200019N0030001N1+03041+00641101531ADDAA199000091GA1001+999999999GF100991001001999999001001MA1999999100221MD1999999+0311MW1061REMSYN076AAXX  27124 61498 31930 00410 10304 20064 30022 40153 706// 333 0//00 58031;EQDQ01  00002PRCP99
0123614980999992000012715004+16630-011400FM-12+0115GQNF V0200801N007212200019N0010001N1+03381+00481999999ADDGF103991001001999999001011MA1999999099751MW1071REMSYN064AAXX  27154 61498 41910 30814 10338 20048 39975 707// 80001 333;
0220614980999992000012718004+16630-011400FM-12+0115GQNF V0200401N004112200019N0020001N1+03301+00511101011ADDAA199000091GA1031+039009079GF103991031001999999031001KA1120M+03381MA1999999099711MD1999999+0101MW1061REMSYN088AAXX  27184 61498 31920 30408 10330 20051 39971 40101 706// 83030 333 10338 58010 83363;EQDQ01  00002PRCP99
0189614980999992000012803004+16630-011400FM-12+0115GQNF V0200401N005112200019N0020001N1+02441+00341101121ADDAA199000091GF103991001001999999001011MA1999999099821MW1061REMSYN100AAXX  28034 61498 31920 30410 10244 20034 39982 40112 706// 80001 333 0//00 52044 51004 55/// 83073;EQDQ01  00002PRCP99
0187614980999992000012809004+16630-011400FM-12+0115GQNF V0200401N008210690019N0010001N1+02341+00861101441ADDAY111031AY211031GA1051+069009019GF105991001001999999001021MA1999999100131MD1999999-0061MW1071REMSYN082AAXX  28094 61498 41910 50416 10234 20086 30013 40144 70711 80002 333 59006 85073;
0195614980999992000012812004+16630-011400FM-12+0115GQNF V0200401N010312200019N0007001N1+02801+00791101441ADDAA199000091GA1001+999999999GF100991001001999999001001MA1999999100131MD1999999-0091MW1311REMSYN076AAXX  28124 61498 31907 00420 10280 20079 30013 40144 731// 333 0//00 59009;EQDQ01  00002PRCP99
0171614980999992000012815004+16630-011400FM-12+0115GQNF V0200401N006212200019N0010001N1+03251+00511101111ADDGA1031+135009029GF103991001001999999001011MA1999999099811MD1999999+0061MW1961REMSYN082AAXX  28154 61498 41910 30412 10325 20051 39981 40111 796// 80001 333 58006 83883;
0189614980999992000012818004+16630-011400FM-12+0115GQNF V0200801N006212200019N0010001N1+03251+00401101031ADDAA199000021GA1001+999999999GF100991001001999999001001KA1120M+03321MA1999999099731MD1999999+0021MW1061REMSYN076AAXX  28184 61498 31910 00812 10325 20040 39973 40103 706// 333 10332 58002;
0211614980999992000012900004+16630-011400FM-12+0115GQNF V0200401N002612200019N0005001N1+01861+00261101341ADDAA199000021GA1001+999999999GF100991001001999999001001MA1999999999999MD1999999+0201MW1061REMSYN076AAXX  29004 61498 31905 00405 10186 20026 39683 40134 706// 333 0//00 58020;EQDQ01+096833APOSP Q02 096833APOSP 
0187614980999992000012909004+16630-011400FM-12+0115GQNF V0200401N003112200019N0012001N1+02461+00441101441ADDAY101031AY201031GA1021+039009079GF102991021001999999031001MA1999999100121MD1999999-0011MW1051REMSYN082AAXX  29094 61498 41912 20406 10246 20044 30012 40144 70500 82030 333 59001 82363;
0207614980999992000012912004+16630-011400FM-12+0115GQNF V0200801N003612200019N0012001N1+03101+00501101461ADDAA199000091GA1021+069009019GF102991001001999999001011MA1999999100161MD1999999+0031MW1051REMSYN088AAXX  29124 61498 31912 20807 10310 20050 30016 40146 705// 80001 333 0//00 58003 82073;EQDQ01  00002PRCP99
0171614980999992000012915004+16630-011400FM-12+0115GQNF V0200801N004112200019N0050001N1+03741+00231101091ADDGA1021+069009019GF102991001001999999001011MA1999999099801MD1999999-0011MW1051REMSYN082AAXX  29154 61498 41950 20808 10374 20023 39980 40109 705// 80001 333 59001 82073;
0220614980999992000012918004+16630-011400FM-12+0115GQNF V0200601N004110690019N0050001N1+03651+00081100951ADDAA199000091GA1061+069009019GF106991001001999999001011KA1120M+03741MA1999999099661MD1999999+0071MW1051REMSYN088AAXX  29184 61498 31950 60608 10365 20008 39966 40095 705// 80001 333 10374 58007 86073;EQDQ01  00002PRCP99
0187614980999992000013009004+16630-011400FM-12+0115GQNF V0209999C000010690019N0005001N1+02361+00101101541ADDAY121031AY221031GA1051+069009019GF105991001001999999001011MA1999999100231MD1999999+0111MW1051REMSYN082AAXX  30094 61498 41905 50000 10236 20010 30023 40154 70522 80001 333 58011 85073;
0207614980999992000013012004+16630-011400FM-12+0115GQNF V0200401N004110690019N0060001N1+03361+00031101621ADDAA199000091GA1051+069009019GF105991001001999999001011MA1999999100321MD1999999+0161MW1051REMSYN088AAXX  30124 61498 31956 50408 10336 20003 30032 40162 705// 80001 333 0//00 58016 85073;EQDQ01  00002PRCP99
0206614980999992000013018004+16630-011400FM-12+0115GQNF V0200401N004110690019N0080001N1+03591+00231101281ADDAA199000091GA1061+069009019GF106991001001999999001021KA1120M+03651MA1999999099981MW1051REMSYN088AAXX  30184 61498 31958 60408 10359 20023 39998 40128 705// 80002 333 10365 58/// 86073;EQDQ01  00002PRCP99
0195614980999992000013100004+16630-011400FM-12+0115GQNF V0200401N003112200019N0080001N1+02841+00221101591ADDAA199000091GA1001+999999999GF100991001001999999001001MA1999999100291MD1999999+0411MW1051REMSYN076AAXX  31004 61498 31958 00406 10284 20022 30029 40159 705// 333 0//00 58041;EQDQ01  00002PRCP99
0187614980999992000013109004+16630-011400FM-12+0115GQNF V0200401N002110690019N0040001N1+02561+00301101781ADDAY111031AY211031GA1061+069009019GF106991001001999999001011MA1999999100471MD1999999+0291MW1051REMSYN082AAXX  31094 61498 41940 60404 10256 20030 30047 40178 70511 80001 333 58029 86073;
0207614980999992000013112004+16630-011400FM-12+0115GQNF V0200701N007210690019N0016001N1+02901-00101101841ADDAA199000091GA1071+069009019GF107991001001999999001021MA1999999100531MD1999999+0211MW1071REMSYN088AAXX  31124 61498 31916 70714 10290 21010 30053 40184 707// 80002 333 0//00 58021 87073;EQDQ01  00002PRCP99
0171614980999992000013115004+16630-011400FM-12+0115GQNF V0200401N006712200019N0015001N1+03071-00101101581ADDGA1041+069009019GF104991001001999999001011MA1999999100281MD1999999+0251MW1071REMSYN082AAXX  31154 61498 41915 40413 10307 21010 30028 40158 707// 80001 333 58025 84073;
0165614980999992000013118004+16630-011400FM-12+0115GQNF V0200401N006719999999N0020001N1+99999+99999101521ADDAA199000091MA1999999100211MD1999999+0231MW1071REMSYN088AAXX  31184 61498 31920 /0413 1093/ 21049 30021 40152 707// 80001 333 1/307 58023 8/073;EQDQ01  00002PRCP99
0206614980999992000020106004+16630-011400FM-12+0115GQNF V0200401N002112200019N0050001N1+01761-00321101601ADDAA199000091GA1001+999999999GF100991001001999999001001KA1120N+01761MA1999999100281MW1051REMSYN088AAXX  01064 61498 31950 00404 10176 21032 30028 40160 705// 333 0//00 20176 50924 55///;EQDQ01  00002PRCP99
0175614980999992000020109004+16630-011400FM-12+0115GQNF V0200401N003112200019N0030001N1+01941-00291101781ADDAY101031AY201031GA1001+999999999GF100991001001999999001001MA1999999100451MD1999999-0021MW1051REMSYN070AAXX  01094 61498 41930 00406 10194 21029 30045 40178 70500 333 59002;
0195614980999992000020112004+16630-011400FM-12+0115GQNF V0200401N008212200019N0015001N1+02961-00301101761ADDAA199000091GA1001+999999999GF100991001001999999001001MA1999999100041MD1999999-0131MW1071REMSYN076AAXX  01124 61498 31915 00416 10296 21030 30004 40176 707// 333 0//00 59013;EQDQ01  00002PRCP99
0159614980999992000020115004+16630-011400FM-12+0115GQNF V0200801N008212200019N0015001N1+03191-00321101511ADDGA1001+999999999GF100991001001999999001001MA1999999100191MD1999999-0191MW1071REMSYN070AAXX  01154 61498 41915 00816 10319 21032 30019 40151 707// 333 59019;
0208614980999992000020118004+16630-011400FM-12+0115GQNF V0200801N006212200019N0020001N1+03101-00071101441ADDAA199000091GA1001+999999999GF100991001001999999001001KA1120M+03211MA1999999100121MD1999999-0091MW1071REMSYN076AAXX  01184 61498 31920 00812 10310 21007 30012 40144 707// 333 10321 59009;EQDQ01  00002PRCP99
0195614980999992000020200004+16630-011400FM-12+0115GQNF V0200401N004112200019N0030001N1+02501-00421101691ADDAA199000091GA1001+999999999GF100991001001999999001001MA1999999100381MD1999999+0051MW1051REMSYN076AAXX  02004 61498 31930 00408 10250 21042 30038 40169 705// 333 0//00 58005;EQDQ01  00002PRCP99
0187614980999992000020209004+16630-011400FM-12+0115GQNF V0200401N003612200019N0015001N1+02121-00801101851ADDAY111031AY211031GA1041+069009019GF104991001001999999001011MA1999999100531MD1999999+0081MW1051REMSYN082AAXX  02094 61498 41915 40407 10212 21080 30053 40185 70511 80001 333 58008 84073;
0195614980999992000020212004+16630-011400FM-12+0115GQNF V0200801N006212200019N0010001N1+02761-00691101871ADDAA199000091GA1001+999999999GF100991001001999999001001MA1999999100551MD1999999+0111MW1071REMSYN076AAXX  02124 61498 31910 00812 10276 21069 30055 40187 707// 333 0//00 58011;EQDQ01  00002PRCP99
0159614980999992000020215004+16630-011400FM-12+0115GQNF V0200801N005112200019N9999999N1+03041-00521101551ADDGA1001+999999999GF100991001001999999001001MA1999999100241MD1999999+0051MW1061REMSYN070AAXX  02154 61498 419/0 00810 10304 21052 30024 40155 706// 333 58005;
0208614980999992000020218004+16630-011400FM-12+0115GQNF V0200401N004612200019N0030001N1+02911-00671101421ADDAA199000091GA1001+999999999GF100991001001999999001001KA1120M+03061MA1999999100101MD1999999-0021MW1061REMSYN076AAXX  02184 61498 31930 00409 10291 21067 30010 40142 706// 333 10306 59002;EQDQ01  00002PRCP99
0161614980999992000020309004+16630-011400FM-12+0115GQNF V0209999C000012200019N0020001N1+01761-00311101811ADDAY101031AY201031GA1001+999999999GF100991001001999999001001MA1999999100491MW1051REMSYN070AAXX  03094 61498 41920 00000 10176 21031 30049 40181 70500 333 5900/;
0195614980999992000020312004+16630-011400FM-12+0115GQNF V0200801N008212200019N0020001N1+02741-00421101801ADDAA199000091GA1001+999999999GF100991001001999999001001MA1999999100481MD1999999-0071MW1071REMSYN076AAXX  03124 61498 31920 00816 10274 21042 30048 40180 707// 333 0//00 59007;EQDQ01  00002PRCP99
0208614980999992000020318004+16630-011400FM-12+0115GQNF V0200801N004112200019N0060001N1+03031-00801101401ADDAA199000091GA1001+999999999GF100991001001999999001001KA1120M+03101MA1999999100071MD1999999-0031MW1051REMSYN076AAXX  03184 61498 31956 00808 10303 21080 30007 40140 705// 333 10310 59003;EQDQ01  00002PRCP99
0166614980999992000020406004+16630-011400FM-12+0115GQNF V0209999C000012200019N0060001N1+01641-00491101641ADDAA199000091GA1001+999999999GF100991001001999999001001MW1051REMSYN076AAXX  04064 61498 31956 00000 10164 21049 40164 705// 333 0//00 50754 55///;EQDQ01  00002PRCP99
0171614980999992000020409004+16630-011400FM-12+0115GQNF V0200401N002112200019N0060001N1+01841-00501101751ADDGA1041+069009019GF104991001001999999001011MA1999999100411MD1999999-0081MW1051REMSYN082AAXX  04094 61498 41956 40404 10184 21050 30041 40175 705// 80001 333 59008 84073;
0207614980999992000020412004+16630-011400FM-12+0115GQNF V0200801N006212200019N0030001N1+02921-00801101701ADDAA199000091GA1011+039009079GF103991011001999999031011MA1999999100381MD1999999-0101MW1061REMSYN088AAXX  04124 61498 31930 30812 10292 21080 30038 40170 706// 81031 333 0//00 59010 81363;EQDQ01  00002PRCP99
0190614980999992000020415004+16630-011400FM-12+0115GQNF V0200401N004612200019N0060001N1+03131-00801999999ADDGA1011+039009079GF102991011001999999031011MA1999999100131MD1999999-0051MW1061REMSYN082AAXX  04154 61498 41956 20409 10313 21080 30013 40745 706// 81031 333 59005 81363;EQDQ01+107453APOSLP
0220614980999992000020418004+16630-011400FM-12+0115GQNF V0200801N004612200019N0060001N1+03081-00801101361ADDAA199000091GA1011+069009019GF101991001001999999001011KA1120M+03191MA1999999100041MD1999999-0031MW1061REMSYN088AAXX  04184 61498 31956 10809 10308 21080 30004 40136 706// 80001 333 10319 59003 81073;EQDQ01  00002PRCP99
0218614980999992000020506004+16630-011400FM-12+0115GQNF V0200401N003612200019N0060001N1+01661-00521101481ADDAA199000091GA1021+069009019GF102991001001999999001011KA1120N+01661MA1999999100161MW1051REMSYN100AAXX  05064 61498 31956 20407 10166 21052 30016 40148 705// 80001 333 0//00 20166 50984 55/// 82073;EQDQ01  00002PRCP99
0187614980999992000020509004+16630-011400FM-12+0115GQNF V0209999C999990690019N0080001N1+01961-00301101761ADDAY121031AY221031GA1051+069009019GF105991001001999999001021MA1999999100471MD1999999+0031MW1051REMSYN082AAXX  05094 61498 41958 58000 10196 21030 30047 40176 70522 80002 333 58003 85073;
0220614980999992000020518004+16630-011400FM-12+0115GQNF V0200801N004112200019N0080001N1+03031-00801101411ADDAA199000091GA1011+039009079GF102991011001999999031011KA1120M+03141MA1999999100091MD1999999+0051MW1051REMSYN088AAXX  05184 61498 31958 20808 10303 21080 30009 40141 705// 81031 333 10314 58005 81363;EQDQ01  00002PRCP99
0183614980999992000020600004+16630-011400FM-12+0115GQNF V0200401N003112200019N0100001N1+02101-00441101681ADDAA199000091GA1001+999999999GF100991001001999999001001MA1999999100361MD1999999+0161REMSYN070AAXX  06004 61498 33960 00406 10210 21044 30036 40168 333 0//00 58016;EQDQ01  00002PRCP99
0194614980999992000020606004+16630-011400FM-12+0115GQNF V0200401N002612200019N0100001N1+01621-00261101691ADDAA199000091GA1001+999999999GF100991001001999999001001KA1120N+01601MA1999999100361REMSYN082AAXX  06064 61498 33960 00405 10162 21026 30036 40169 333 0//00 20160 50924 55///;EQDQ01  00002PRCP99
0187614980999992000020609004+16630-011400FM-12+0115GQNF V0200401N002112200019N0060001N1+01801-00241101801ADDAY101031AY201031GA1031+069009019GF103991001001999999001011MA1999999100461MD1999999+0021MW1051REMSYN082AAXX  06094 61498 41956 30404 10180 21024 30046 40180 70500 80001 333 58002 83073;
0207614980999992000020612004+16630-011400FM-12+0115GQNF V0200401N004110690019N0020001N1+02461-00491101851ADDAA199000091GA1061+069009019GF106991001001999999001021MA1999999100521MD1999999+0101MW1061REMSYN088AAXX  06124 61498 31920 60408 10246 21049 30052 40185 706// 80002 333 0//00 58010 86073;EQDQ01  00002PRCP99
0190614980999992000020615004+16630-011400FM-12+0115GQNF V0200401N004112200019N0040001N1+02891-00451101591ADDGA1071+069009019GF199999001001999999001021MA1999999100241MD1999999+0091MW1061REMSYN082AAXX  06154 61498 41940 20408 10289 21045 30024 40159 706// 80002 333 58009 87073;EQDQ01+000022SCOTCV
0220614980999992000020618004+16630-011400FM-12+0115GQNF V0200801N004110690019N0040001N1+02931-00541101461ADDAA199000091GA1061+069009019GF106991001001999999001021KA1120M+02981MA1999999100131MD1999999+0041MW1061REMSYN088AAXX  06184 61498 31940 60808 10293 21054 30013 40146 706// 80002 333 10298 58004 86073;EQDQ01  00002PRCP99
0206614980999992000020706004+16630-011400FM-12+0115GQNF V0200801N004112200019N0025001N1+02021-00201101501ADDAA199000091GA1001+999999999GF100991001001999999001001KA1120N+02021MA1999999100181MW1051REMSYN088AAXX  07064 61498 31925 00808 10202 21020 30018 40150 705// 333 0//00 20202 50754 55///;EQDQ01  00002PRCP99
0177614980999992000020709004+16630-011400FM-12+0115GQNF V0200401N004119999999N0020001N1+02001-00171101851ADDGA1031+039009039GF106991031001999999031021MA1999999100521MD1999999+0061MW1051REMSYN088AAXX  07094 61498 41920 60408 10200 21017 30052 40185 705// 83032 333 58006 83363 86073;
0207614980999992000020712004+16630-011400FM-12+0115GQNF V0200801N007210690019N0020001N1+02601-00301101861ADDAA199000091GA1061+069009019GF106991001001999999001021MA1999999100531MD1999999+0011MW1071REMSYN088AAXX  07124 61498 31920 60814 10260 21030 30053 40186 707// 80002 333 0//00 58001 86073;EQDQ01  00002PRCP99
0171614980999992000020715004+16630-011400FM-12+0115GQNF V0200601N006210690019N0040001N1+02951-00591101531ADDGA1051+069009019GF105991001001999999001021MA1999999100211MD1999999+0031MW1061REMSYN082AAXX  07154 61498 41940 50612 10295 21059 30021 40153 706// 80002 333 58003 85073;
0220614980999992000020718004+16630-011400FM-12+0115GQNF V0201801N005110690019N0060001N1+02901-00631101461ADDAA199000091GA1081+069009019GF108991001001999999001021KA1120M+03001MA1999999100151MD1999999+0021MW1061REMSYN088AAXX  07184 61498 31956 81810 10290 21063 30015 40146 706// 80002 333 10300 58002 88073;EQDQ01  00002PRCP99
0183614980999992000020800004+16630-011400FM-12+0115GQNF V0200401N003112200019N0100001N1+02261-00321101661ADDAA199000091GA1001+999999999GF100991001001999999001001MA1999999100331MD1999999+0141REMSYN070AAXX  08004 61498 33960 00406 10226 21032 30033 40166 333 0//00 58014;EQDQ01  00002PRCP99
0194614980999992000020806004+16630-011400FM-12+0115GQNF V0200401N002112200019N0100001N1+01961-00311101751ADDAA199000091GA1001+999999999GF100991001001999999001001KA1120N+01851MA1999999100421REMSYN082AAXX  08064 61498 33960 00404 10196 21031 30042 40175 333 0//00 20185 50834 55///;EQDQ01  00002PRCP99
0207614980999992000020809004+16630-011400FM-12+0115GQNF V0200401N003110690019N0080001N1+02241-00381999999ADDAY111031AY211031GA1061+069009019GF106991001001999999001021MD1999999-0031MW1051REMSYN082AAXX  08094 61498 41958 60406 10224 21038 30149 4082/ 70511 80002 333 59003 86073;EQDQ01+101493APOSP Q02+108203APOSLP
0171614980999992000020815004+16630-011400FM-12+0115GQNF V0200801N005112200019N0020001N1+03051-00541101571ADDGA1041+069009019GF104991001001999999001011MA1999999100251MD1999999+0041MW1061REMSYN082AAXX  08154 61498 41920 40810 10305 21054 30025 40157 706// 80001 333 58004 84073;
0236614980999992000020818004+16630-011400FM-12+0115GQNF V0200801N005110690019N0020001N1+02871-00461101591ADDAA199000091GA1071+069009019GF107991001001999999001011KA1120M+03051MA1999999100862MD1999999+0111MW1061REMSYN088AAXX  08184 61498 31920 70810 10287 21046 30086 40159 706// 80001 333 10305 58011 87073;EQDQ01+100863APOSP Q02  00002PRCP99
0206614980999992000020906004+16630-011400FM-12+0115GQNF V0200401N002612200019N0040001N1+02041-00401101661ADDAA199000091GA1001+999999999GF100991001001999999001001KA1120N+02041MA1999999100341MW1051REMSYN088AAXX  09064 61498 31940 00405 10204 21040 30034 40166 705// 333 0//00 20204 50904 55///;EQDQ01  00002PRCP99
0207614980999992000020912004+16630-011400FM-12+0115GQNF V0200801N005110690019N0025001N1+02701-00801101901ADDAA199000091GA1061+069009019GF106991001001999999001021MA1999999100581MD1999999+0021MW1071REMSYN088AAXX  09124 61498 31925 60810 10270 21080 30058 40190 707// 80002 333 0//00 58002 86073;EQDQ01  00002PRCP99
0152614980999992000020915004+16630-011400FM-12+0115GQNF V0200801N006219999999N0060001N1+02951-00801999999ADDGF106991999999999999999999MA1999999100251MD1999999+0001ME1311579MW1061REMSYN070AAXX  09154 61498 41956 60812 10295 21080 30025 48157 706// 333 58000;
0220614980999992000020918004+16630-011400FM-12+0115GQNF V0200401N005110690019N0060001N1+02841-00801101491ADDAA199000091GA1071+069009019GF107991001001999999001021KA1120M+02951MA1999999100171MD1999999-0091MW1061REMSYN088AAXX  09184 61498 31956 70410 10284 21080 30017 40149 706// 80002 333 10295 59009 87073;EQDQ01  00002PRCP99
0170614980999992000021000004+16630-011400FM-12+0115GQNF V0200401N003112200019N0060001N1+02161-00301101691ADDAA199000091GF103991001001999999001021MD1999999-0021REMSYN088AAXX  10004 61498 31956 30406 10216 21030 30/36 40169 7/9// 80002 333 0/0/0 59002 8307/;EQDQ01  00002PRCP99
0206614980999992000021006004+16630-011400FM-12+0115GQNF V0200401N003112200019N0060001N1+01621-00451101641ADDAA199000091GA1001+999999999GF100991001001999999001001KA1120N+01601MA1999999100301MW1051REMSYN088AAXX  10064 61498 31956 00406 10162 21045 30030 40164 705// 333 0//00 20160 50834 55///;EQDQ01  00002PRCP99
0175614980999992000021009004+16630-011400FM-12+0115GQNF V0200401N006212200019N0060001N1+01761-00311101721ADDAY101031AY201031GA1001+999999999GF100991001001999999001001MA1999999100381MD1999999-0161MW1051REMSYN070AAXX  10094 61498 41956 00412 10176 21031 30038 40172 70500 333 59016;
0207614980999992000021012004+16630-011400FM-12+0115GQNF V0200401N002112200019N0060001N1+02731-00701101691ADDAA199000091GA1011+069009019GF102991001001999999001011MA1999999100381MD1999999+0211MW1051REMSYN088AAXX  10124 61498 31956 20404 10273 21070 30038 40169 705// 80001 333 0//00 58021 81073;EQDQ01  00002PRCP99
0159614980999992000021015004+16630-011400FM-12+0115GQNF V0200801N002112200019N0100001N1+03011-00731101391ADDGA1021+069009019GF102991001001999999001011MA1999999100071MD1999999-0191REMSYN076AAXX  10154 61498 43960 20804 10301 21073 30007 40139 80001 333 59019 82073;
0208614980999992000021018004+16630-011400FM-12+0115GQNF V0200401N003112200019N0100001N1+03021-00481101281ADDAA199000091GA1031+069009019GF103991001001999999001011KA1120M+03081MA1999999099951MD1999999-0221REMSYN082AAXX  10184 61498 33960 30406 10302 21048 39995 40128 80001 333 10308 59022 83073;EQDQ01  00002PRCP99
0165614980999992000021109004+16630-011400FM-12+0115GQNF V0203601N002112200019N0100001N1+99999+99999101561ADDGA1021+039009039GF102991021001999999031021MA1999999100241MD1999999-0141REMSYN082AAXX  11094 61498 42960 23604 1/196 21030 30024 40156 82032 333 59014 82363 85073;
0207614980999992000021112004+16630-011400FM-12+0115GQNF V0200801N007210690019N0040001N1+02801-00561101501ADDAA199000091GA1051+069009019GF105991001001999999001011MA1999999100181MD1999999-0191MW1071REMSYN088AAXX  11124 61498 31940 50814 10280 21056 30018 40150 707// 80001 333 0//00 59019 85073;EQDQ01  00002PRCP99
0150614980999992000021115004+16630-011400FM-12+0115GQNF V0200801N005112200019N0060001N1+03151-00501101241ADDGA1011+039009079GF102991011001999999031011MD1999999-0151MW1061REMSYN076AAXX  11154 61498 41956 20810 10315 21050 40124 706// 81031 333 59015 81363;
0208614980999992000021118004+16630-011400FM-12+0115GQNF V0200801N003610390019N0100001N1+03051-00331101141ADDAA199000091GA1051+039009079GF106991051001999999031021KA1120M+03151MA1999999099821MD1999999-0131REMSYN082AAXX  11184 61498 33960 60807 10305 21033 39982 40114 85032 333 10315 59013 85363;EQDQ01  00002PRCP99
0206614980999992000021206004+16630-011400FM-12+0115GQNF V0209999C000012200019N0100001N1+02001-00401101381ADDAA199000091GA1031+069009019GF103991001001999999001021KA1120N+01981MA1999999100061REMSYN094AAXX  12064 61498 33960 30000 10200 21040 30006 40138 80002 333 0//00 20198 50844 55/// 83073;EQDQ01  00002PRCP99
0159614980999992000021209004+16630-011400FM-12+0115GQNF V0203601N001510690019N0100001N1+02001-00341101541ADDGA1061+069009019GF106991001001999999001021MA1999999100211MD1999999-0031REMSYN076AAXX  12094 61498 42960 63603 10200 21034 30021 40154 80002 333 59003 86073;
0207614980999992000021212004+16630-011400FM-12+0115GQNF V0200801N003110690019N0020001N1+02861-00681101461ADDAA199000091GA1061+069009019GF106991001001999999001021MA1999999100161MD1999999-0021MW1051REMSYN088AAXX  12124 61498 31920 60806 10286 21068 30016 40146 705// 80002 333 0//00 59002 86073;EQDQ01  00002PRCP99
0171614980999992000021215004+16630-011400FM-12+0115GQNF V0200801N005112200019N0050001N1+03201-00621101161ADDGA1031+039009079GF103991031001999999031001MA1999999099851MD1999999-0071MW1061REMSYN082AAXX  12154 61498 41950 30810 10320 21062 39985 40116 706// 83030 333 59007 83363;
0206614980999992000021306004+16630-011400FM-12+0115GQNF V0209999C000012200019N0100001N1+01901-00171101161ADDAA199000091GA1021+069009019GF102991001001999999001011KA1120N+01901MA1999999099851REMSYN094AAXX  13064 61498 33960 20000 10190 21017 39985 40116 80001 333 0//00 20190 50714 55/// 82073;EQDQ01  00002PRCP99
0207614980999992000021312004+16630-011400FM-12+0115GQNF V0200401N003110690019N0060001N1+03101+00501101551ADDAA199000091GA1051+069009019GF105991001001999999001011MA1999999100241MD1999999+0081MW1051REMSYN088AAXX  13124 61498 31956 50406 10310 20050 30024 40155 705// 80001 333 0//00 58008 85073;EQDQ01  00002PRCP99
0171614980999992000021315004+16630-011400FM-12+0115GQNF V02099999999999999999N0080001N1+03251-00451101201ADDGA1021+039009039GF105991021001999999031021MA1999999099901MD1999999+0051REMSYN088AAXX  13154 61498 41958 5/808 10325 21045 39990 40120 7//// 82032 333 58005 82363 83073;
0220614980999992000021318004+16630-011400FM-12+0115GQNF V0200801N003110390019N0080001N1+03131-00471101151ADDAA199000091GA1061+039009079GF107991061001999999031021KA1120M+03301MA1999999099831MD1999999+0081MW1051REMSYN088AAXX  13184 61498 31958 70806 10313 21047 39983 40115 705// 86032 333 10330 58008 86363;EQDQ01  00002PRCP99
0201614980999992000021400004+16630-011400FM-12+0115GQNF V0200401N003110390019N0100001N1+02541-00091101381ADDAA199000091GA1061+039009039GF106991061001999999031021MA1999999100071MD1999999+0211REMSYN088AAXX  14004 61498 33960 60406 10254 21009 30007 40138 86032 333 0//00 58021 86363 86073;EQDQ01  00002PRCP99
0212614980999992000021406004+16630-011400FM-12+0115GQNF V0200401N003119999999N0100001N1+02281-00521101431ADDAA199000091GA1021+039009039GF106991021001999999081021KA1120N+02201MA1999999100121REMSYN100AAXX  14064 61498 33960 60406 10228 21052 30012 40143 82082 333 0//00 20220 50814 55/// 82363 86073;EQDQ01  00002PRCP99
0159614980999992000021409004+16630-011400FM-12+0115GQNF V0209999C000010390019N0100001N1+02281-00691101521ADDGA1051+039009079GF105991051001999999031001MA1999999100201MD1999999+0031REMSYN076AAXX  14094 61498 42960 50000 10228 21069 30020 40152 85030 333 58003 85363;
0213614980999992000021412004+16630-011400FM-12+0115GQNF V0200801N005119999999N0030001N1+02941-00801101551ADDAA199000091GA1021+039009039GF107991021001999999031021MA1999999100241MD1999999+0001MW1061REMSYN094AAXX  14124 61498 31930 70810 10294 21080 30024 40155 706// 82032 333 0//00 58000 82363 86073;EQDQ01  00002PRCP99
0145614980999992000021415004+16630-011400FM-12+0115GQNF V0200801N003619999999N0100001N1+03201-00801101281ADDGA1021+039009039GF105991999999999999999999MA1999999099981REMSYN076AAXX  14154 61498 43960 50807 10320 21080 39998 40128 333 5808/ 82363 85073;
0220614980999992000021418004+16630-011400FM-12+0115GQNF V0200401N007710390019N0015001N1+02851-00801101191ADDAA199000091GA1051+039009079GF105991051001999999031011KA1120M+03201MA1999999099881MD1999999+0051MW1071REMSYN088AAXX  14184 61498 31915 50415 10285 21080 39988 40119 707// 85031 333 10320 58005 85363;EQDQ01  00002PRCP99
0207614980999992000021500004+16630-011400FM-12+0115GQNF V0200401N003110390019N0040001N1+02401-00801101321ADDAA199000091GA1061+039009079GF106991061001999999071001MA1999999100011MD1999999+0041MW1051REMSYN088AAXX  15004 61498 31940 60406 10240 21080 30001 40132 705// 86070 333 0//00 58004 86363;EQDQ01  00002PRCP99
0187614980999992000021509004+16630-011400FM-12+0115GQNF V0203601N003110390019N0080001N1+02101-00621101611ADDAY121031AY221031GA1061+039009079GF106991061001999999031001MA1999999100261MD1999999+0081MW1051REMSYN082AAXX  15094 61498 42958 63606 10210 21062 30026 40161 70522 86030 333 58008 86363;
0195614980999992000021512004+16630-011400FM-12+0115GQNF V0200401N004112200019N0100001N1+02961-00801101651ADDAA199000091GA1031+039009079GF103991031001999999031001MA1999999100301MD1999999+0061REMSYN082AAXX  15124 61498 33960 30408 10296 21080 30030 40165 83030 333 0//00 58006 83363;EQDQ01  00002PRCP99
0123614980999992000021515004+16630-011400FM-12+0115GQNF V0200801N003612200019N0100001N1+03271-00551101271ADDGF104991041001999999031011MA1999999099961REMSYN070AAXX  15154 61498 43960 40807 10327 21055 39996 40127 84031 333 5908/;
0208614980999992000021518004+16630-011400FM-12+0115GQNF V0200401N004119999999N0100001N1+03111-00701101161ADDAA199000091GA1041+039009079GF105991041001999999031011KA1120M+03271MA1999999099851MD1999999-0031REMSYN082AAXX  15184 61498 33960 50408 10311 21070 39985 40116 84031 333 10327 59003 84363;EQDQ01  00002PRCP99
0194614980999992000021606004+16630-011400FM-12+0115GQNF V0209999C000012200019N0100001N1+01901-00381101401ADDAA199000091GA1001+999999999GF100991001001999999001001KA1120N+01881MA1999999100081REMSYN082AAXX  16064 61498 33960 00000 10190 21038 30008 40140 333 0//00 20188 50884 55///;EQDQ01  00002PRCP99
0159614980999992000021609004+16630-011400FM-12+0115GQNF V0203601N002112200019N0100001N1+02201-00211101481ADDGA1011+039009079GF101991011001999999031001MA1999999100161MD1999999-0121REMSYN076AAXX  16094 61498 42960 13604 10220 21021 30016 40148 81030 333 59012 81363;
0207614980999992000021612004+16630-011400FM-12+0115GQNF V0200401N004112200019N0060001N1+03001-00711101571ADDAA199000091GA1011+039009079GF101991011001999999031011MA1999999100261MD1999999-0041MW1051REMSYN088AAXX  16124 61498 31956 10408 10300 21071 30026 40157 705// 81031 333 0//00 59004 81363;EQDQ01  00002PRCP99
0159614980999992000021615004+16630-011400FM-12+0115GQNF V0200201N002612200019N0100001N1+03351-00451101341ADDGA1011+039009079GF101991011001999999031001MA1999999100031MD1999999+0071REMSYN076AAXX  16154 61498 43960 10205 10335 21045 30003 40134 81030 333 58007 81363;
0208614980999992000021618004+16630-011400FM-12+0115GQNF V0200401N003612200019N0100001N1+03281-00411101201ADDAA199000091GA1021+039009079GF102991021001999999031001KA1120M+03381MA1999999099891MD1999999+0041REMSYN082AAXX  16184 61498 33960 20407 10328 21041 39989 40120 82030 333 10338 58004 82363;EQDQ01  00002PRCP99
0200614980999992000021706004+16630-011400FM-12+0115GQNF V0200401N003612200019N0100001N1+01701-00491101301ADDAA199000091GA1001+999999999GF100991001001999999001001KA1120M+01701MA1999999099981REMSYN088AAXX  17064 61498 33960 00407 10170 21049 39998 40130 333 0//00 10170 50924 55/// 59010;EQDQ01  00002PRCP99
0159614980999992000021709004+16630-011400FM-12+0115GQNF V0200401N003112200019N0100001N1+02081+00301101691ADDGA1021+039009079GF102991021001999999031001MA1999999100291MD1999999+0301REMSYN076AAXX  17094 61498 42960 20406 10208 20030 30029 40169 82030 333 58030 82363;
0159614980999992000021809004+16630-011400FM-12+0115GQNF V0203601N002110690019N0100001N1+01941-00141101441ADDGA1051+069009019GF105991001001999999001011MA1999999100111MD1999999-0181REMSYN076AAXX  18094 61498 42960 53604 10194 21014 30011 40144 80001 333 59018 85073;
0195614980999992000021812004+16630-011400FM-12+0115GQNF V0200401N004112200019N0100001N1+02931-00201101451ADDAA199000091GA1031+069009019GF103991001001999999001011MA1999999100131MD1999999-0131REMSYN082AAXX  18124 61498 33960 30408 10293 21020 30013 40145 80001 333 0//00 59013 83073;EQDQ01  00002PRCP99
0165614980999992000021815004+16630-011400FM-12+0115GQNF V0200801N003112200019N0100001N1+03261-00101101251ADDGA1011+039009039GF104991011001999999031011MA1999999099941MD1999999-0051REMSYN082AAXX  18154 61498 43960 40806 10326 21010 39994 40125 81031 333 59005 81363 83073;
0214614980999992000021818004+16630-011400FM-12+0115GQNF V0200401N002112200019N0100001N1+03231-00701101131ADDAA199000091GA1011+039009039GF104991011001999999031011KA1120M+03301MA1999999099811MD1999999-0051REMSYN088AAXX  18184 61498 33960 40404 10323 21070 39981 40113 81031 333 10330 59005 81363 84073;EQDQ01  00002PRCP99
0212614980999992000021906004+16630-011400FM-12+0115GQNF V0200401N002119999999N0100001N1+01661-00721101171ADDAA199000091GA1041+039009039GF105991041001999999031011KA1120N+01661MA1999999099851REMSYN100AAXX  19064 61498 33960 50404 10166 21072 39985 40117 84031 333 0//00 20166 50844 55/// 84363 83073;EQDQ01  00002PRCP99
0159614980999992000021909004+16630-011400FM-12+0115GQNF V0200401N003112200019N0100001N1+01861-00741101461ADDGA1041+039009079GF104991041001999999031001MA1999999100131MD1999999+0021REMSYN076AAXX  19094 61498 42960 40406 10186 21074 30013 40146 84030 333 58002 84363;
0195614980999992000021912004+16630-011400FM-12+0115GQNF V0200401N003112200019N0100001N1+03061-00801101451ADDAA199000091GA1031+039009079GF103991031001999999031001MA1999999100131MD1999999+0001REMSYN082AAXX  19124 61498 33960 30406 10306 21080 30013 40145 83030 333 0//00 58000 83363;EQDQ01  00002PRCP99
0159614980999992000021915004+16630-011400FM-12+0115GQNF V0201001N002612200019N0100001N1+03441-00611101061ADDGA1031+069009019GF103991001001999999001011MA1999999099751MD1999999-0131REMSYN076AAXX  19154 61498 43960 31005 10344 21061 39975 40106 80001 333 59013 83073;
0193614980999992000021918004+16630-011400FM-12+0115GQNF V0209999C000019999999N0100001N1+03321-00621100931ADDAA199000091GA1021+039009039GF105991021001999999031011KA1120M+03441MD1999999-0191REMSYN082AAXX  19184 61498 33960 50000 10332 21062 40093 82031 333 10344 59019 82363 83073;EQDQ01  00002PRCP99
0159614980999992000022009004+16630-011400FM-12+0115GQNF V0200401N002112200019N0100001N1+02101-00801101191ADDGA1021+039009079GF102991021001999999031001MA1999999099871MD1999999-0261REMSYN076AAXX  20094 61498 42960 20404 10210 21080 39987 40119 82030 333 59026 82363;
0195614980999992000022012004+16630-011400FM-12+0115GQNF V0200401N003112200019N0100001N1+02941-00801101191ADDAA199000091GA1021+069009019GF102991001001999999001011MA1999999099881MD1999999-0251REMSYN082AAXX  20124 61498 33960 20406 10294 21080 39988 40119 80001 333 0//00 59025 82073;EQDQ01  00002PRCP99
0178614980999992000022015004+16630-011400FM-12+0115GQNF V0200401N002612200019N0100001N1+03471-00801100911ADDGA1999+000159999GF101991011001999999031001MA1999999099601MD1999999-0151REMSYN076AAXX  20154 61498 43960 10405 10347 21080 39960 40091 81030 333 59015 80/63;EQDQ01    003SCCGA1
0208614980999992000022018004+16630-011400FM-12+0115GQNF V0209999C000012200019N0100001N1+03401-00211100781ADDAA199000091GA1011+039009079GF101991011001999999031001KA1120M+03501MA1999999099471MD1999999-0161REMSYN082AAXX  20184 61498 33960 10000 10340 21021 39947 40078 81030 333 10350 59016 81363;EQDQ01  00002PRCP99
0206614980999992000022106004+16630-011400FM-12+0115GQNF V0203601N002610390019N0100001N1+02141-00641100761ADDAA199000091GA1061+039009079GF106991061001999999031001KA1120N+02101MA1999999099461REMSYN094AAXX  21064 61498 33960 63605 10214 21064 39946 40076 86030 333 0//00 20210 50764 55/// 86363;EQDQ01  00002PRCP99
0159614980999992000022109004+16630-011400FM-12+0115GQNF V0200401N003110390019N0100001N1+02301-00611101081ADDGA1061+039009079GF106991061001999999031001MA1999999099771MD1999999-0101REMSYN076AAXX  21094 61498 42960 60406 10230 21061 39977 40108 86030 333 59010 86363;
0195614980999992000022112004+16630-011400FM-12+0115GQNF V0200401N004110390019N9999999N1+03201-00801101091ADDAA199000091GA1061+039009079GF106991061001999999031001MA1999999099791MD1999999-0091REMSYN082AAXX  21124 61498 339/0 60408 10320 21080 39979 40109 86030 333 0//00 59009 86363;EQDQ01  00002PRCP99
0208614980999992000022118004+16630-011400FM-12+0115GQNF V0209999C000012200019N0100001N1+03641+00101100691ADDAA199000091GA1011+039009079GF101991011001999999031001KA1120M+03731MA1999999099401MD1999999-0071REMSYN082AAXX  21184 61498 33960 10000 10364 20010 39940 40069 81030 333 10373 59007 81363;EQDQ01  00002PRCP99
0194614980999992000022206004+16630-011400FM-12+0115GQNF V0209999C000012200019N0100001N1+02201-00401100911ADDAA199000091GA1001+999999999GF100991001001999999001001KA1120N+02201MA1999999099611REMSYN082AAXX  22064 61498 33960 00000 10220 21040 39961 40091 333 0//80 20220 50784 55///;EQDQ01  00002PRCP99
0169614980999992000022209004+16630-011400FM-12+0115GQNF V0209999C000019999999N0100001N1+02401-00501101061ADDGA1021+039009039GF105991021001999999031011MD1999999-0011REMSYN082AAXX  22094 61498 42960 50000 10240 21050 39273 40106 82031 333 59001 82363 84073;EQDQ01+092733APOSP 
0201614980999992000022212004+16630-011400FM-12+0115GQNF V0209999C000019999999N0100001N1+03201+00061101091ADDAA199000091GA1021+039009039GF106991021001999999031011MA1999999099801MD1999999-0011REMSYN088AAXX  22124 61498 33960 60000 10320 20006 39980 40109 82031 333 0//00 59001 82363 85073;EQDQ01  00002PRCP99
0169614980999992000022215004+16630-011400FM-12+0115GQNF V0209999C000019999999N0100001N1+03661-00421100801ADDGA1011+039009039GF105991011001999999031011MD1999999-0011REMSYN082AAXX  22154 61498 43960 50000 10366 21042 39751 40080 81031 333 59001 81363 84073;EQDQ01+097513APOSP 
0224614980999992000022218004+16630-011400FM-12+0115GQNF V0209999C000010390019N0100001N1+03521-00021101752ADDAA199000091GA1071+039009079GF107991071001999999071999KA1120M+03681MA1999999099461MD1999999+0061REMSYN082AAXX  22184 61498 33960 70000 10352 21002 39946 40175 8707/ 333 10368 58006 87363;EQDQ01+101753APOSLPQ02  00002PRCP99
0206614980999992000022306004+16630-011400FM-12+0115GQNF V0203601N003110390019N0080001N1+02661+00451100871ADDAA199000091GA1061+039009079GF106991061001999999071001KA1120N+02661MA1999999099581REMSYN094AAXX  23064 61498 33958 63606 10266 20045 39958 40087 86070 333 0//00 20266 50714 55/// 86363;EQDQ01  00002PRCP99
0194614980999992000022309004+16630-011400FM-12+0115GQNF V0203001N999990390019N0100001N1+02701+00681101211ADDGA1071+039009079GF107991071001999999071999MA1999999099911MD1999999+0131REMSYN076AAXX  23094 61498 42960 73060 10270 20068 39991 40121 8707/ 333 58013 87363;EQDQ01+003083WOSPD Q020003083WOSPD 
0159614980999992000022315004+16630-011400FM-12+0115GQNF V0203601N002610390019N0100001N1+03201-00451100991ADDGA1071+039009079GF107991071001999999071999MA1999999099701MD1999999+0191REMSYN076AAXX  23154 61498 43960 73605 10320 21045 39970 40099 8707/ 333 58019 87363;
0208614980999992000022318004+16630-011400FM-12+0115GQNF V0203601N001510390019N0100001N1+03101-00401100881ADDAA199000091GA1071+039009079GF107991071001999999071999KA1120M+03221MA1999999099581MD1999999+0121REMSYN082AAXX  23184 61498 33960 73603 10310 21040 39958 40088 8707/ 333 10322 58012 87363;EQDQ01  00002PRCP99
0206614980999992000022406004+16630-011400FM-12+0115GQNF V0209999C000010390019N0100001N1+02301+00201100981ADDAA199000091GA1061+039009079GF106991061001999999031001KA1120N+02281MA1999999099671REMSYN094AAXX  24064 61498 33960 60000 10230 20020 39967 40098 86030 333 0//00 20228 50724 55/// 86363;EQDQ01  00002PRCP99
0159614980999992000022409004+16630-011400FM-12+0115GQNF V0209999C000010390019N0100001N1+02421+00501101051ADDGA1071+039009079GF107991071001999999071001MA1999999099741MD1999999-0171REMSYN076AAXX  24094 61498 42960 70000 10242 20050 39974 40105 87070 333 59017 87363;
0195614980999992000022412004+16630-011400FM-12+0115GQNF V0209999C000010390019N0100001N1+03341-00391101071ADDAA199000091GA1061+039009079GF106991061001999999071001MA1999999099781MD1999999-0201REMSYN082AAXX  24124 61498 33960 60000 10334 21039 39978 40107 86070 333 0//00 59020 86363;EQDQ01  00002PRCP99
0208614980999992000022418004+16630-011400FM-12+0115GQNF V0209999C000010390019N0100001N1+03311-00321100801ADDAA199000091GA1071+039009079GF107991071001999999071999KA1120M+03401MA1999999099501MD1999999-0081REMSYN082AAXX  24184 61498 33960 70000 10331 21032 39950 40080 8707/ 333 10340 59008 87363;EQDQ01  00002PRCP99
0159614980999992000022509004+16630-011400FM-12+0115GQNF V0200401N003110390019N0080001N1+02701-00091101101ADDGA1061+039009079GF106991061001999999031001MA1999999099801MD1999999+0061REMSYN076AAXX  25094 61498 41958 60406 10270 21009 39980 40110 86030 333 58006 86363;
0195614980999992000022512004+16630-011400FM-12+0115GQNF V0200601N006212200019N0020001N1+03481-00601101031ADDAA199000091GA1001+999999999GF100991001001999999001001MA1999999099801MD1999999+0021MW1061REMSYN076AAXX  25124 61498 31920 00612 10348 21060 39980 40103 706// 333 0//00 58002;EQDQ01  00002PRCP99
0181614980999992000022513004+16630-011400FM-12+0115GQNF V0200601N006212200019N0020001N1+03481-00601101031ADDAA199000091GA1001+999999999GF100991001001999999001001MA1999999099801MW1061REMSYN076AAXX  25134 61498 31920 00612 10348 21060 39980 40103 706// 333 0//00 58/02;EQDQ01  00002PRCP99
0208614980999992000022518004+16630-011400FM-12+0115GQNF V0201001N003112200019N0080001N1+03821-00171100691ADDAA199000091GA1001+999999999GF100991001001999999001001KA1120M+03881MA1999999099411MD1999999-0091MW1051REMSYN076AAXX  25184 61498 31958 01006 10382 21017 39941 40069 705// 333 10388 59009;EQDQ01  00002PRCP99
0189614980999992000022521004+16630-011400FM-12+0115GQNF V0200601N006212200019N0020001N1+03481-00601101031ADDAA199000091GA1001+999999999GF100991001001999999001001MA1999999099801MD1999999+0021REMSYN076AAXX  25214 61498 31920 00612 10348 21060 39980 40103 811// 333 0//00 58002;EQDQ01  00002PRCP99
0195614980999992000022600004+16630-011400FM-12+0115GQNF V0200401N003112200019N0080001N1+03021-00221100971ADDAA199000091GA1001+999999999GF100991001001999999001001MA1999999099691MD1999999+0091MW1051REMSYN076AAXX  26004 61498 31958 00406 10302 21022 39969 40097 705// 333 0//00 58009;EQDQ01  00002PRCP99
0212614980999992000022606004+16630-011400FM-12+0115GQNF V0200401N003112200019N0080001N1+02401-00191101131ADDAA199000091GA1001+999999999GF100991001001999999001001KA1120N+02381MA1999999099841MW1051REMSYN094AAXX  26064 61498 31958 00406 10240 21019 39984 40113 705// 333 0//00 20238 50844 55/// 58029;EQDQ01  00002PRCP99
0187614980999992000022609004+16630-011400FM-12+0115GQNF V0203601N003112200019N0040001N1+02601-00371101321ADDAY111031AY211031GA1021+069009019GF102991001001999999001011MA1999999100021MD1999999+0221MW1051REMSYN082AAXX  26094 61498 41940 23606 10260 21037 30002 40132 70511 80001 333 58022 82073;
0207614980999992000022612004+16630-011400FM-12+0115GQNF V0203601N004112200019N0050001N1+03321+00541101331ADDAA199000091GA1021+069009019GF102991001001999999001011MA1999999100041MD1999999+0241MW1051REMSYN088AAXX  26124 61498 31950 23608 10332 20054 30004 40133 705// 80001 333 0//00 58024 82073;EQDQ01  00002PRCP99
0191614980999992000022615004+16630-011400FM-12+0115GQNF V0203001N999999999999N0070001N1+99999+99999100941ADDAA199000091GA1031+069009019MA1999999099661MD1999999+0111MW1051REMSYN082AAXX  26154 61498 31957 /3088 10/75 21022 39966 40094 705// 80001 333 58011 83073;EQDQ01+004523WOSPD Q02  00002PRCP99
0220614980999992000022618004+16630-011400FM-12+0115GQNF V0200801N003612200019N0070001N1+03691-00171100841ADDAA199000091GA1021+069009019GF102991001001999999001011KA1120M+03801MA1999999099551MD1999999+0141MW1051REMSYN088AAXX  26184 61498 31957 20807 10369 21017 39955 40084 705// 80001 333 10380 58014 82073;EQDQ01  00002PRCP99
0206614980999992000022706004+16630-011400FM-12+0115GQNF V0200401N003612200019N0050001N1+02441+99999100881ADDAA199000091GA1001+999999999GF100991001001999999001001KA1120N+02441MA1999999099561MW1051REMSYN088AAXX  27064 61498 31950 00407 10244 2/026 39956 40088 705// 333 0//00 20244 50824 55///;EQDQ01  00002PRCP99
0175614980999992000022709004+16630-011400FM-12+0115GQNF V0200401N003112200019N0020001N1+02461-00221101171ADDAY101031AY201031GA1001+999999999GF100991001001999999001001MA1999999099871MD1999999-0151MW1051REMSYN070AAXX  27094 61498 41920 00406 10246 21022 39987 40117 70500 333 59015;
0195614980999992000022712004+16630-011400FM-12+0115GQNF V0200401N003112200019N0020001N1+03301-00301101171ADDAA199000091GA1001+999999999GF100991001001999999001001MA1999999099881MD1999999-0161MW1051REMSYN076AAXX  27124 61498 31920 00406 10330 21030 39988 40117 705// 333 0//00 59016;EQDQ01  00002PRCP99
0208614980999992000022718004+16630-011400FM-12+0115GQNF V0209999C000012200019N0040001N1+03751+00091100621ADDAA199000091GA1001+999999999GF100991001001999999001001KA1120M+03841MA1999999099341MD1999999-0211MW1051REMSYN076AAXX  27184 61498 31940 00000 10375 20009 39934 40062 705// 333 10384 59021;EQDQ01  00002PRCP99
0206614980999992000022806004+16630-011400FM-12+0115GQNF V0200401N003112200019N0030001N1+02561+00401100831ADDAA199000091GA1001+999999999GF100991001001999999001001KA1120N+02351MA1999999099541MW1051REMSYN088AAXX  28064 61498 31930 00406 10256 20040 39954 40083 705// 333 0//00 20235 50894 55///;EQDQ01  00002PRCP99
0175614980999992000022809004+16630-011400FM-12+0115GQNF V0209999C000012200019N0020001N1+02441+00051100921ADDAY101031AY201031GA1001+999999999GF100991001001999999001001MA1999999099631MD1999999-0241MW1051REMSYN070AAXX  28094 61498 41920 00000 10244 20005 39963 40092 70500 333 59024;
0195614980999992000022812004+16630-011400FM-12+0115GQNF V0201801N002112200019N0015001N1+03301-00111100941ADDAA199000091GA1001+999999999GF100991001001999999001001MA1999999099651MD1999999-0231MW1051REMSYN076AAXX  28124 61498 31915 01804 10330 21011 39965 40094 705// 333 0//00 59023;EQDQ01  00002PRCP99
0159614980999992000022815004+16630-011400FM-12+0115GQNF V0209999C000012200019N0020001N1+03701+00001100731ADDGA1001+999999999GF100991001001999999001001MA1999999099451MD1999999-0021MW1051REMSYN070AAXX  28154 61498 41920 00000 10370 21000 39945 40073 705// 333 59002;
0208614980999992000022818004+16630-011400FM-12+0115GQNF V0209999C000012200019N0020001N1+03751+00631100601ADDAA199000091GA1001+999999999GF100991001001999999001001KA1120M+03851MA1999999099321MD1999999-0021MW1051REMSYN076AAXX  28184 61498 31920 00000 10375 20063 39932 40060 705// 333 10385 59002;EQDQ01  00002PRCP99
0175614980999992000022909004+16630-011400FM-12+0115GQNF V0203601N002112200019N0020001N1+02641+00181101081ADDAY101031AY201031GA1001+999999999GF100991001001999999001001MA1999999099791MD1999999+0161MW1051REMSYN070AAXX  29094 61498 41920 03604 10264 20018 39979 40108 70500 333 58016;
0189614980999992000022912004+16630-011400FM-12+0115GQNF V0200401N004112200019N0020001N1+03341-00191101151ADDAA199000091GA1001+999999999GF100991001001999999001001MA1999999099861MD1999999+0211MW1051REMSYN070AAXX  29124 61498 31920 00408 10334 21019 39986 40115 705// 333 58021;EQDQ01  00002PRCP99
0153614980999992000022915004+16630-011400FM-12+0115GQNF V0200801N025712200019N0030001N1+03791+00071999999ADDGA1001+999999999GF100991001001999999001001MA1999999099671MD1999999+0161MW1051REMSYN064AAXX  29154 61498 41930 00850 10379 20007 39967 705// 333 58016;
0195614980999992000030100004+16630-011400FM-12+0115GQNF V0203601N003112200019N0030001N1+03101+00211101071ADDAA199000091GA1001+999999999GF100991001001999999001001MA1999999099791MD1999999+0281MW1051REMSYN076AAXX  01004 61498 31930 03606 10310 20021 39979 40107 705// 333 0//00 58028;EQDQ01  00002PRCP99
0195614980999992000030103004+16630-011400FM-12+0115GQNF V0203601N003112200019N0030001N1+03101+00211101071ADDAA199000091GA1001+999999999GF100991001001999999001001MA1999999099791MD1999999+0281MW1051REMSYN076AAXX  01034 61498 31930 03606 10310 20021 39979 40107 705// 333 0//00 58028;EQDQ01  00002PRCP99
0206614980999992000030106004+16630-011400FM-12+0115GQNF V0203601N002112200019N0040001N1+02461+00201101051ADDAA199000091GA1001+999999999GF100991001001999999001001KA1120N+02401MA1999999099771MW1051REMSYN088AAXX  01064 61498 31940 03604 10246 20020 39977 40105 705// 333 0//00 20240 50954 55///;EQDQ01  00002PRCP99
0175614980999992000030109004+16630-011400FM-12+0115GQNF V0200401N001512200019N0015001N1+02701-00161101251ADDAY101031AY201031GA1001+999999999GF100991001001999999001001MA1999999099951MD1999999+0161MW1051REMSYN070AAXX  01094 61498 41915 00403 10270 21016 39995 40125 70500 333 58016;
0195614980999992000030112004+16630-011400FM-12+0115GQNF V0200801N003612200019N0012001N1+03401-00261101241ADDAA199000091GA1001+999999999GF100991001001999999001001MA1999999099961MD1999999+0101MW1051REMSYN076AAXX  01124 61498 31912 00807 10340 21026 39996 40124 705// 333 0//00 58010;EQDQ01  00002PRCP99
0159614980999992000030115004+16630-011400FM-12+0115GQNF V0201001N003112200019N0015001N1+03731-00111100941ADDGA1001+999999999GF100991001001999999001001MA1999999099661MD1999999+0051MW1051REMSYN070AAXX  01154 61498 41915 01006 10373 21011 39966 40094 705// 333 58005;
0208614980999992000030118004+16630-011400FM-12+0115GQNF V0200401N002112200019N0015001N1+03701+00131100801ADDAA199000091GA1001+999999999GF100991001001999999001001KA1120M+03791MA1999999099511MD1999999+0041MW1051REMSYN076AAXX  01184 61498 31915 00404 10370 20013 39951 40080 705// 333 10379 58004;EQDQ01  00002PRCP99
0206614980999992000030206004+16630-011400FM-12+0115GQNF V0209999C000012200019N0020001N1+02301+00021101031ADDAA199000091GA1001+999999999GF100991001001999999001001KA1120N+02301MA1999999099641MW1051REMSYN088AAXX  02064 61498 31920 00000 10230 20002 39964 40103 705// 333 0//00 20230 50824 55///;EQDQ01  00002PRCP99
0159614980999992000030209004+16630-011400FM-12+0115GQNF V0209999C000012200019N0020001N1+02401+00121101181ADDGA1001+999999999GF100991001001999999001001MA1999999099881MD1999999-0071MW1051REMSYN070AAXX  02094 61498 41920 00000 10240 20012 39988 40118 705// 333 59007;
0195614980999992000030212004+16630-011400FM-12+0115GQNF V0201001N003112200019N0020001N1+03501-00201101161ADDAA199000091GA1001+999999999GF100991001001999999001001MA1999999099881MD1999999-0081MW1051REMSYN076AAXX  02124 61498 31920 01006 10350 21020 39988 40116 705// 333 0//00 59008;EQDQ01  00002PRCP99
0208614980999992000030218004+16630-011400FM-12+0115GQNF V0209999C000012200019N0020001N1+03731+00331100731ADDAA199000091GA1001+999999999GF100991001001999999001001KA1120M+03871MA1999999099441MD1999999-0071MW1051REMSYN076AAXX  02184 61498 31920 00000 10373 20033 39944 40073 705// 333 10387 59007;EQDQ01  00002PRCP99
0206614980999992000030306004+16630-011400FM-12+0115GQNF V0209999C000012200019N0030001N1+02351+00131100871ADDAA199000091GA1001+999999999GF100991001001999999001001KA1120N+02351MA1999999099581MW1051REMSYN088AAXX  03064 61498 31930 00000 10235 20013 39958 40087 705// 333 0//00 20235 50794 55///;EQDQ01  00002PRCP99
0175614980999992000030309004+16630-011400FM-12+0115GQNF V0209999C000012200019N0030001N1+02631+00081101081ADDAY101031AY201031GA1001+999999999GF100991001001999999001001MA1999999099791MD1999999-0091MW1051REMSYN070AAXX  03094 61498 41930 00000 10263 20008 39979 40108 70500 333 59009;
0195614980999992000030312004+16630-011400FM-12+0115GQNF V0209999C000012200019N0040001N1+03601+00071101081ADDAA199000091GA1001+999999999GF100991001001999999001001MA1999999099801MD1999999-0081MW1051REMSYN076AAXX  03124 61498 31940 00000 10360 20007 39980 40108 705// 333 0//00 59008;EQDQ01  00002PRCP99
0159614980999992000030315004+16630-011400FM-12+0115GQNF V0209999C000012200019N0040001N1+03931+01101100831ADDGA1001+999999999GF100991001001999999001001MA1999999099551MD1999999-0041MW1051REMSYN070AAXX  03154 61498 41940 00000 10393 2011/ 39955 40083 705// 333 59004;
0208614980999992000030318004+16630-011400FM-12+0115GQNF V0209999C000012200019N0040001N1+03801+01041100721ADDAA199000091GA1001+999999999GF100991001001999999001001KA1120M+03951MA1999999099431MD1999999-0011MW1051REMSYN076AAXX  03184 61498 31940 00000 10380 20104 39943 40072 705// 333 10395 59001;EQDQ01  00002PRCP99
0187614980999992000030321004+16630-011400FM-12+0115GQNF V0209999C000012200019N0040001N1+03801+99999100721ADDAA199000091GA1001+999999999GF100991001001999999001001KA1120M+03951MD1999999-0011MW1051REMSYN070AAXX  03214 61498 31940 00000 10380 207/0 40072 705// 333 10395 59001;EQDQ01  00002PRCP99
0206614980999992000030406004+16630-011400FM-12+0115GQNF V0209999C000012200019N0050001N1+02301-00091100971ADDAA199000091GA1001+999999999GF100991001001999999001001KA1120N+02301MA1999999099681MW1051REMSYN088AAXX  04064 61498 31950 00000 10230 21009 39968 40097 705// 333 0//00 20230 50814 55///;EQDQ01  00002PRCP99
0175614980999992000030409004+16630-011400FM-12+0115GQNF V0209999C000012200019N0030001N1+02441-00021101131ADDAY101031AY201031GA1001+999999999GF100991001001999999001001MA1999999099831MD1999999+0041MW1051REMSYN070AAXX  04094 61498 41930 00000 10244 21002 39983 40113 70500 333 58004;
0159614980999992000030415004+16630-011400FM-12+0115GQNF V0209999C000012200019N0030001N1+03941-00141100851ADDGA1001+999999999GF100991001001999999001001MA1999999099571MD1999999+0021MW1051REMSYN070AAXX  04154 61498 41930 00000 10394 21014 39957 40085 705// 333 58002;
0212614980999992000030506004+16630-011400FM-12+0115GQNF V0203601N002612200019N0040001N1+02201-00211100851ADDAA199000091GA1001+999999999GF100991001001999999001001KA1120N+02201MA1999999099561MW1051REMSYN094AAXX  05064 61498 31940 03605 10220 21021 39956 40085 705// 333 0//00 20220 50804 55/// 59012;EQDQ01  00002PRCP99
0159614980999992000030509004+16630-011400FM-12+0115GQNF V0209999C000012200019N0050001N1+02511-00071101161ADDGA1001+999999999GF100991001001999999001001MA1999999099861MD1999999+0031MW1051REMSYN070AAXX  05094 61498 41950 00000 10251 21007 39986 40116 705// 333 58003;
0195614980999992000030512004+16630-011400FM-12+0115GQNF V0200801N002112200019N0050001N1+03631-00261101161ADDAA199000091GA1001+999999999GF100991001001999999001001MA1999999099861MD1999999+0001MW1051REMSYN076AAXX  05124 61498 31950 00804 10363 21026 39986 40116 705// 333 0//00 58000;EQDQ01  00002PRCP99
0159614980999992000030515004+16630-011400FM-12+0115GQNF V0200801N001512200019N0050001N1+03991-00711100841ADDGA1001+999999999GF100991001001999999001001MA1999999099561MD1999999-0011MW1051REMSYN070AAXX  05154 61498 41950 00803 10399 21071 39956 40084 705// 333 59001;
0208614980999992000030518004+16630-011400FM-12+0115GQNF V0200801N001512200019N0060001N1+03921-00541100741ADDAA199000091GA1001+999999999GF100991001001999999001001KA1120M+04011MA1999999099451MD1999999-0011MW1051REMSYN076AAXX  05184 61498 31956 00803 10392 21054 39945 40074 705// 333 10401 59001;EQDQ01  00002PRCP99
0175614980999992000030606004+16630-011400FM-12+0115GQNF V0203601N002612200019N0050001N1+02601-00601101111ADDAY101061AY201061GA1001+999999999GF100991001001999999001001MA1999999099801MD1999999-0041MW1051REMSYN070AAXX  06064 61498 41950 03605 10260 21060 39980 40111 70500 333 59004;
0195614980999992000030612004+16630-011400FM-12+0115GQNF V0203601N002112200019N0050001N1+03661-00541101081ADDAA199000091GA1001+999999999GF100991001001999999001001MA1999999099801MD1999999-0061MW1051REMSYN076AAXX  06124 61498 31950 03604 10366 21054 39980 40108 705// 333 0//00 59006;EQDQ01  00002PRCP99
0208614980999992000030618004+16630-011400FM-12+0115GQNF V0209999C000012200019N0060001N1+04001-00151100671ADDAA199000091GA1001+999999999GF100991001001999999001001KA1120M+04151MA1999999099391MD1999999-0061MW1051REMSYN076AAXX  06184 61498 31956 00000 10400 21015 39939 40067 705// 333 10415 59006;EQDQ01  00002PRCP99
0206614980999992000030706004+16630-011400FM-12+0115GQNF V0209999C000012200019N0060001N1+02441-00181100861ADDAA199000091GA1001+999999999GF100991001001999999001001KA1120N+02441MA1999999099581MW1051REMSYN088AAXX  07064 61498 31956 00000 10244 21018 39958 40086 705// 333 0//00 20244 50924 55///;EQDQ01  00002PRCP99
0195614980999992000030712004+16630-011400FM-12+0115GQNF V0200801N006712200019N0015001N1+03901-00801101151ADDAA199000091GA1001+999999999GF100991001001999999001001MA1999999099881MD1999999+0081MW1051REMSYN076AAXX  07124 61498 31915 00813 10390 21080 39988 40115 705// 333 0//00 58008;EQDQ01  00002PRCP99
0159614980999992000030715004+16630-011400FM-12+0115GQNF V0201001N006212200019N0015001N1+04131-00801100851ADDGA1001+999999999GF100991001001999999001001MA1999999099581MD1999999+0021MW1051REMSYN070AAXX  07154 61498 41915 01012 10413 21080 39958 40085 705// 333 58002;
0208614980999992000030718004+16630-011400FM-12+0115GQNF V0200801N004112200019N0070001N1+03951-00691100751ADDAA199000091GA1001+999999999GF100991001001999999001001KA1120M+04131MA1999999099471MD1999999+0081MW1051REMSYN076AAXX  07184 61498 31957 00808 10395 21069 39947 40075 705// 333 10413 58008;EQDQ01  00002PRCP99
0194614980999992000030806004+16630-011400FM-12+0115GQNF V0209999C000012200019N0100001N1+02551-00221101041ADDAA199000091GA1001+999999999GF100991001001999999001001KA1120N+02551MA1999999099761REMSYN082AAXX  08064 61498 33960 00000 10255 21022 39976 40104 333 0//00 20255 50944 55///;EQDQ01  00002PRCP99
0147614980999992000030809004+16630-011400FM-12+0115GQNF V0209999C000012200019N0080001N1+02601-00061101281ADDGA1001+999999999GF100991001001999999001001MA1999999099981MD1999999+0131REMSYN064AAXX  08094 61498 42958 00000 10260 21006 39998 40128 333 58013;
0206614980999992000030906004+16630-011400FM-12+0115GQNF V0200401N002112200019N0060001N1+02261-00241101131ADDAA199000091GA1001+999999999GF100991001001999999001001KA1120N+02261MA1999999099841MW1051REMSYN088AAXX  09064 61498 31956 00404 10226 21024 39984 40113 705// 333 0//00 20226 50984 55///;EQDQ01  00002PRCP99
0175614980999992000030909004+16630-011400FM-12+0115GQNF V0200201N002612200019N0080001N1+02601-00561101461ADDAY101031AY201031GA1001+999999999GF100991001001999999001001MA1999999100131MD1999999+0181MW1061REMSYN070AAXX  09094 61498 41958 00205 10260 21056 30013 40146 70600 333 58018;
0195614980999992000030912004+16630-011400FM-12+0115GQNF V0200801N006712200019N0040001N1+03671-00801101421ADDAA199000091GA1001+999999999GF100991001001999999001001MA1999999100141MD1999999+0151MW1061REMSYN076AAXX  09124 61498 31940 00813 10367 21080 30014 40142 706// 333 0//00 58015;EQDQ01  00002PRCP99
0155614980999992000030915004+16630-011400FM-12+0115GQNF V0200201N003612200019N0080001N1+03941-00821101081ADDGF101991001001999999001011MA1999999099801MD1999999+0101MW1051REMSYN082AAXX  09154 61498 41958 10207 10394 21082 39980 40108 705// 80001 333 58010 8107/;
0214614980999992000030918004+16630-011400FM-12+0115GQNF V0200401N002612200019N0080001N1+03801+99999100971ADDAA199000091GA1011+069009019GF101991001001999999001011KA1120M+03951MA1999999099681MD1999999+0081MW1051REMSYN082AAXX  09184 61498 31958 10405 10380 39968 40097 705// 80001 333 10395 58008 81073;EQDQ01  00002PRCP99
0159614980999992000031009004+16630-011400FM-12+0115GQNF V0209999C000012200019N0100001N1+02341-00361101321ADDGA1021+069009019GF102991001001999999001011MA1999999100011MD1999999-0151REMSYN076AAXX  10094 61498 42960 20000 10234 21036 30001 40132 80001 333 59015 82073;
0207614980999992000031013004+16630-011400FM-12+0115GQNF V0200801N005712200019N0040001N1+03651-00511101251ADDAA199000091GA1011+069009019GF101991001001999999001011MA1999999099961MD1999999-0181MW1061REMSYN088AAXX  10134 61498 31940 10811 10365 21051 39996 40125 706// 80001 333 0//00 59018 81073;EQDQ01  00002PRCP99
0159614980999992000031015004+16630-011400FM-12+0115GQNF V0200801N004612200019N0060001N1+03841-00541100961ADDGA1001+999999999GF100991001001999999001001MA1999999099671MD1999999-0131MW1061REMSYN070AAXX  10154 61498 43956 00809 10384 21054 39967 40096 706// 333 59013;
0206614980999992000031106004+16630-011400FM-12+0115GQNF V0200401N004112200019N0060001N1+02501-00201101081ADDAA199000091GA1001+999999999GF100991001001999999001001KA1120N+02501MA1999999099771MW1051REMSYN088AAXX  11064 61498 31956 00408 10250 21020 39977 40108 705// 333 0//00 20250 51264 55///;EQDQ01  00002PRCP99
0195614980999992000031112004+16630-011400FM-12+0115GQNF V0200401N003612200019N0050001N1+03451-00421101301ADDAA199000091GA1001+999999999GF100991001001999999001001MA1999999100011MD1999999+0051MW1051REMSYN076AAXX  11124 61498 31950 00407 10345 21042 30001 40130 705// 333 0//00 58005;EQDQ01  00002PRCP99
0195614980999992000031115004+16630-011400FM-12+0115GQNF V0200401N003612200019N0050001N1+03451-00421101301ADDAA199000091GA1001+999999999GF100991001001999999001001MA1999999100011MD1999999+0051MW1051REMSYN076AAXX  11154 61498 31950 00407 10345 21042 30001 40130 705// 333 0//00 58005;EQDQ01  00002PRCP99
0208614980999992000031118004+16630-011400FM-12+0115GQNF V0200401N003112200019N0060001N1+03531-00311100891ADDAA199000091GA1001+999999999GF100991001001999999001001KA1120M+03701MA1999999099601MD1999999+0001MW1051REMSYN076AAXX  11184 61498 31956 00406 10353 21031 39960 40089 705// 333 10370 58000;EQDQ01  00002PRCP99
0206614980999992000031206004+16630-011400FM-12+0115GQNF V0209999C000012200019N0060001N1+01901-00401101111ADDAA199000091GA1001+999999999GF100991001001999999001001KA1120N+01901MA1999999099801MW1051REMSYN088AAXX  12064 61498 31956 00000 10190 21040 39980 40111 705// 333 0//00 20190 50944 55///;EQDQ01  00002PRCP99
0175614980999992000031209004+16630-011400FM-12+0115GQNF V0200401N002112200019N0060001N1+02301-00721101271ADDAY101031AY201031GA1001+999999999GF100991001001999999001001MA1999999099961MD1999999-0091MW1051REMSYN070AAXX  12094 61498 41956 00404 10230 21072 39996 40127 70500 333 59009;
0195614980999992000031212004+16630-011400FM-12+0115GQNF V0200401N004112200019N0050001N1+03402-00701101241ADDAA199000091GA1001+999999999GF100991001001999999001001MA1999999099941MD1999999-0071MW1051REMSYN076AAXX  12124 61498 31950 00408 10340 21070 39994 40124 705// 333 0//00 59007;EQDQ01  00002PRCP99
0120614980999992000031215004+16630-011400FM-12+0115GQNF V0201201N003112200019N0100001N1+02701-00501999999ADDGA1001+999999999GF100991001001999999001001MD1999999-0111REMSYN052AAXX  12154 61498 43960 01206 10270 2105/ 333 59011;
0200614980999992000031306004+16630-011400FM-12+0115GQNF V0209999C000012200019N0100001N1+02001-00311100911ADDAA199000091GA1001+999999999GF100991001001999999001001KA1120N+02001MA1999999099621REMSYN088AAXX  13064 61498 33960 00000 10200 21031 39962 40091 333 0//00 20200 50824 5/6// 55///;EQDQ01  00002PRCP99
0151614980999992000031309004+16630-011400FM-12+0115GQNF V0209999C000012200019N0100001N1+02381-00361101291ADDGA1001+999999999GF100991001001999999001001MD1999999+0021REMSYN064AAXX  13094 61498 42960 00000 10238 21036 39798 40129 333 58002;EQDQ01+097983APOSP 
0195614980999992000031312004+16630-011400FM-12+0115GQNF V0200801N005112200019N0020001N1+03501-00641101241ADDAA199000091GA1001+999999999GF100991001001999999001001MA1999999099951MD1999999+0011MW1061REMSYN076AAXX  13124 61498 31920 00810 10350 21064 39995 40124 706// 333 0//00 58001;EQDQ01  00002PRCP99
0132614980999992000031315004+16630-011400FM-12+0115GQNF V0200401N003612200019N9999999N1+03751-00201100961ADDGA1001+999999999GF100991001001999999001001MD1999999+0051REMSYN064AAXX  13154 61498 1/56/ 00407 10375 2102/ 40096 705// 333 58005;
0208614980999992000031318004+16630-011400FM-12+0115GQNF V0200601N003612200019N0070001N1+03651-00511100921ADDAA199000091GA1001+999999999GF100991001001999999001001KA1120M+03761MA1999999099621MD1999999+0111MW1051REMSYN076AAXX  13184 61498 31957 00607 10365 21051 39962 40092 705// 333 10376 58011;EQDQ01  00002PRCP99
0175614980999992000031409004+16630-011400FM-12+0115GQNF V0200401N002112200019N0080001N1+02341-00501101351ADDAY101031AY201031GA1001+999999999GF100991001001999999001001MA1999999100041MD1999999+0061MW1051REMSYN070AAXX  14094 61498 41958 00404 10234 21050 30004 40135 70500 333 58006;
0195614980999992000031412004+16630-011400FM-12+0115GQNF V0200801N003112200019N0040001N1+03441-00611101201ADDAA199000091GA1001+999999999GF100991001001999999001001MA1999999100011MD1999999+0061MW1051REMSYN076AAXX  14124 61498 31940 00806 10344 21061 30001 40120 705// 333 0//00 58006;EQDQ01  00002PRCP99
0159614980999992000031415004+16630-011400FM-12+0115GQNF V0203601N002612200019N0080001N1+03661-00531101001ADDGA1001+999999999GF100991001001999999001001MA1999999099711MD1999999+0041MW1051REMSYN070AAXX  14154 61498 41958 03605 10366 21053 39971 40100 705// 333 58004;
0208614980999992000031418004+16630-011400FM-12+0115GQNF V0200401N003112200019N0080001N1+03551-00301100901ADDAA199000091GA1001+999999999GF100991001001999999001001KA1120M+03661MA1999999099601MD1999999-0021MW1051REMSYN076AAXX  14184 61498 31958 00406 10355 21030 39960 40090 705// 333 10366 59002;EQDQ01  00002PRCP99
0194614980999992000031506004+16630-011400FM-12+0115GQNF V0209999C000012200019N0100001N1+01761-00491100951ADDAA199000091GA1001+999999999GF100991001001999999001001KA1120N+01761MA1999999099641REMSYN082AAXX  15064 61498 33960 00000 10176 21049 39964 40095 333 0//00 20176 50904 55///;EQDQ01  00002PRCP99
0195614980999992000031512004+16630-011400FM-12+0115GQNF V0200801N002612200019N0100001N1+03391-00501101091ADDAA199000091GA1011+069009019GF101991001001999999001011MA1999999099791MD1999999-0221REMSYN082AAXX  15124 61498 33960 10805 10339 21050 39979 40109 80001 333 0//00 59022 81073;EQDQ01  00002PRCP99
0147614980999992000031515004+16630-011400FM-12+0115GQNF V0200401N002612200019N0100001N1+03681-00501100781ADDGA1001+999999999GF100991001001999999001001MA1999999099481MD1999999-0231REMSYN064AAXX  15154 61498 43960 00405 10368 21050 39948 40078 333 59023;
0196614980999992000031518004+16630-011400FM-12+0115GQNF V0209999C000012200019N0100001N1+03561-00211100721ADDAA199000091GA1001+999999999GF100991001001999999001001KA1120M+03691MA1999999099421MD1999999-0181REMSYN070AAXX  15184 61498 33960 00000 10356 21021 39942 40072 333 10369 59018;EQDQ01  00002PRCP99
0147614980999992000031609004+16630-011400FM-12+0115GQNF V0203601N002112200019N0100001N1+02141-00741101201ADDGA1001+999999999GF100991001001999999001001MA1999999099701MD1999999-0121REMSYN064AAXX  16094 61498 42960 03604 10214 21074 39970 40120 333 59012;
0183614980999992000031612004+16630-011400FM-12+0115GQNF V0209999C000012200019N0100001N1+03301-00471100951ADDAA199000091GA1001+999999999GF100991001001999999001001MA1999999099661MD1999999-0131REMSYN070AAXX  16124 61498 33960 00000 10330 21047 39966 40095 333 0//00 59013;EQDQ01  00002PRCP99
0147614980999992000031615004+16630-011400FM-12+0115GQNF V0209999C000012200019N0100001N1+03771-00221100741ADDGA1001+999999999GF100991001001999999001001MA1999999099451MD1999999-0031REMSYN064AAXX  16154 61498 43960 00000 10377 21022 39945 40074 333 59003;
0196614980999992000031618004+16630-011400FM-12+0115GQNF V0209999C000012200019N0100001N1+03661-00271100651ADDAA199000091GA1001+999999999GF100991001001999999001001KA1120M+03831MA1999999099351MD1999999-0071REMSYN070AAXX  16184 61498 33960 00000 10366 21027 39935 40065 333 10383 59007;EQDQ01  00002PRCP99
0194614980999992000031706004+16630-011400FM-12+0115GQNF V0209999C000012200019N0100001N1+02041-00801100711ADDAA199000091GA1001+999999999GF100991001001999999001001KA1120N+02041MA1999999099421REMSYN082AAXX  17064 61498 33960 00000 10204 21080 39942 40071 333 0//00 20204 50974 55///;EQDQ01  00002PRCP99
0183614980999992000031712004+16630-011400FM-12+0115GQNF V0200801N002612200019N0100001N1+03501-00781100921ADDAA199000091GA1001+999999999GF100991001001999999001001MA1999999099631MD1999999-0031REMSYN070AAXX  17124 61498 33960 00805 10350 21078 39963 40092 333 0//00 59003;EQDQ01  00002PRCP99
0196614980999992000031718004+16630-011400FM-12+0115GQNF V0200201N002612200019N0100001N1+03651-00341100581ADDAA199000091GA1001+999999999GF100991001001999999001001KA1120M+03751MA1999999099291MD1999999-0061REMSYN070AAXX  17184 61498 33960 00205 10365 21034 39929 40058 333 10375 59006;EQDQ01  00002PRCP99
0194614980999992000031806004+16630-011400FM-12+0115GQNF V0209999C000012200019N0100001N1+01951-00511100811ADDAA199000091GA1001+999999999GF100991001001999999001001KA1120N+01951MA1999999099511REMSYN082AAXX  18064 61498 33960 00000 10195 21051 39951 40081 333 0//00 20195 50904 55///;EQDQ01  00002PRCP99
0147614980999992000031809004+16630-011400FM-12+0115GQNF V0203601N002112200019N0100001N1+02301-00421100981ADDGA1001+999999999GF100991001001999999001001MA1999999099671MD1999999+0021REMSYN064AAXX  18094 61498 42960 03604 10230 21042 30967 40098 333 58002;
0183614980999992000031812004+16630-011400FM-12+0115GQNF V0200801N003112200019N0100001N1+03501-00211100811ADDAA199000091GA1001+999999999GF100991001001999999001001MA1999999099661MD1999999+0031REMSYN070AAXX  18124 61498 33960 00806 10350 21021 39966 40081 333 0//00 58003;EQDQ01  00002PRCP99
0159614980999992000031815004+16630-011400FM-12+0115GQNF V0203601N002612200019N0100001N1+03851-00131100701ADDGA1011+069009019GF101991001001999999001011MA1999999099441MD1999999-0021REMSYN076AAXX  18154 61498 43960 13605 10385 21013 39944 40070 80001 333 59002 81073;
0196614980999992000031818004+16630-011400FM-12+0115GQNF V0203601N003112200019N0100001N1+03681-00101100611ADDAA199000091GA1001+999999999GF100991001001999999001001KA1120M+03851MA1999999099311MD1999999+0021REMSYN070AAXX  18184 61498 33960 03606 10368 21010 39931 40061 333 10385 58002;EQDQ01  00002PRCP99
0156614980999992000031900004+16630-011400FM-12+0115GQNF V0203601N002112200019N0100001N1+99999+99999100751ADDAA199000091GA1001+999999999GF100991001001999999001001MD1999999-0121REMSYN058AAXX  19004 61498 33960 03604 21114 40075 333 0//00 59012;EQDQ01  00002PRCP99
0183614980999992000031912004+16630-011400FM-12+0115GQNF V0200401N003112200019N0100001N1+03381-00211100961ADDAA199000091GA1001+999999999GF100991001001999999001001MA1999999099671MD1999999+0011REMSYN070AAXX  19124 61498 33960 00406 10338 21021 39967 40096 333 0//00 58001;EQDQ01  00002PRCP99
0147614980999992000031915004+16630-011400FM-12+0115GQNF V0209999C000012200019N0100001N1+03741+00061100691ADDGA1001+999999999GF100991001001999999001001MA1999999099401MD1999999-0011REMSYN064AAXX  19154 61498 43960 00000 10374 20006 39940 40069 333 59001;
0196614980999992000031918004+16630-011400FM-12+0115GQNF V0209999C000012200019N0100001N1+03651+00401100611ADDAA199000091GA1001+999999999GF100991001001999999001001KA1120M+03741MA1999999099311MD1999999+0001REMSYN070AAXX  19184 61498 33960 00000 10365 20040 39931 40061 333 10374 58000;EQDQ01  00002PRCP99
0194614980999992000032006004+16630-011400FM-12+0115GQNF V0209999C000012200019N0100001N1+01951-00041100771ADDAA199000091GA1001+999999999GF100991001001999999001001KA1120N+01351MA1999999099471REMSYN082AAXX  20064 61498 33960 00000 10195 21004 39947 40077 333 0//00 20135 50804 55///;EQDQ01  00002PRCP99
0147614980999992000032009004+16630-011400FM-12+0115GQNF V0209999C000012200019N0100001N1+02321-00041100961ADDGA1001+999999999GF100991001001999999001001MA1999999099651MD1999999-0011REMSYN064AAXX  20094 61498 42960 00000 10232 21004 39965 40096 333 59001;
0153614980999992000032015004+16630-011400FM-12+0115GQNF V0201001N001512200019N0100001N1+03501+00051100731ADDGA1031+069009019GF103991999999999999999999MA1999999099441MD1999999+0041REMSYN070AAXX  20154 61498 43960 31003 1035/ 20005 39944 40073 333 58004 83073;
0208614980999992000032018004+16630-011400FM-12+0115GQNF V0201001N002112200019N0100001N1+03541+00251100611ADDAA199000091GA1021+069009019GF102991001001999999001011KA1120M+03681MA1999999099311MD1999999+0001REMSYN082AAXX  20184 61498 33960 21004 10354 20025 39931 40061 80001 333 10368 58000 82073;EQDQ01  00002PRCP99
0194614980999992000032106004+16630-011400FM-12+0115GQNF V0203601N003112200019N0100001N1+01921-00171100661ADDAA199000091GA1001+999999999GF100991001001999999001001KA1120N+01921MA1999999099361REMSYN082AAXX  21064 61498 33960 03606 10192 21017 39936 40066 333 0//00 20192 50744 55///;EQDQ01  00002PRCP99
0183614980999992000032112004+16630-011400FM-12+0115GQNF V0201401N003112200019N0100001N1+03351-00201100831ADDAA199000091GA1001+999999999GF100991001001999999001001MA1999999099541MD1999999-0101REMSYN070AAXX  21124 61498 33960 01406 10335 21020 39954 40083 333 0//00 59010;EQDQ01  00002PRCP99
0147614980999992000032115004+16630-011400FM-12+0115GQNF V0209999C000012200019N0100001N1+03751+00131100781ADDGA1001+999999999GF100991001001999999001001MA1999999099291MD1999999-0151REMSYN064AAXX  21154 61498 43960 00000 10375 20013 39929 40078 333 59015;
0196614980999992000032118004+16630-011400FM-12+0115GQNF V0209999C000012200019N0100001N1+03751+00641100501ADDAA199000091GA1001+999999999GF100991001001999999001001KA1120M+03821MA1999999099201MD1999999-0111REMSYN070AAXX  21184 61498 33960 00000 10375 20064 39920 40050 333 10382 59011;EQDQ01  00002PRCP99
0194614980999992000032206004+16630-011400FM-12+0115GQNF V0209999C000012200019N0100001N1+02071-00061100691ADDAA199000091GA1001+999999999GF100991001001999999001001KA1120N+02071MA1999999099401REMSYN082AAXX  22064 61498 33960 00000 10207 21006 39940 40069 333 0//00 20207 50724 55///;EQDQ01  00002PRCP99
0147614980999992000032209004+16630-011400FM-12+0115GQNF V0209999C000012200019N0100001N1+02481-00101100861ADDGA1001+999999999GF100991001001999999001001MA1999999099561MD1999999+0001REMSYN064AAXX  22094 61498 42960 00000 10248 21010 39956 40086 333 58000;
0162614980999992000032212004+16630-011400FM-12+0115GQNF V0200801N002112200019N0100001N1+03461+00131100881ADDAA199000091GA1001+999999999GF100991001001999999001001MD1999999+0081REMSYN064AAXX  22124 61498 33960 00804 10346 20013 40088 333 0//00 58008;EQDQ01  00002PRCP99
0196614980999992000032218004+16630-011400FM-12+0115GQNF V0209999C000012200019N0100001N1+03851+00681100531ADDAA199000091GA1001+999999999GF100991001001999999001001KA1120M+04001MA1999999099241MD1999999+0041REMSYN070AAXX  22184 61498 33960 00000 10385 20068 39924 40053 333 10400 58004;EQDQ01  00002PRCP99
0159614980999992000032309004+16630-011400FM-12+0115GQNF V0209999C000012200019N0100001N1+02631+00031100841ADDGA1031+069009019GF103991001001999999001011MA1999999099541MD1999999-0021REMSYN076AAXX  23094 61498 42960 30000 10263 20003 39954 40084 80001 333 59002 83073;
0196614980999992000032312004+16630-011400FM-12+0115GQNF V0209999C000012200019N0100001N1+03651+00291100811ADDAA199000091GA1031+069009019GF103991001001999999001011MD1999999-0071REMSYN082AAXX  23124 61498 33960 30000 10365 20029 39693 40081 80001 333 0//00 59007 83073;EQDQ01+096933APOSP Q02  00002PRCP99
0159614980999992000032315004+16630-011400FM-12+0115GQNF V0209999C000012200019N0100001N1+04021+00471100531ADDGA1041+069009019GF104991001001999999001011MA1999999099251MD1999999-0091REMSYN076AAXX  23154 61498 43960 40000 10402 20047 39925 40053 80001 333 59009 84073;
0186614980999992000032318004+16630-011400FM-12+0115GQNF V0209999C000012200019N0100001N1+04001+00681100401ADDAA199000091GF104991001001999999001011KA1120M+04101MA1999999099121MD1999999-0121REMSYN076AAXX  23184 61498 33960 40000 10400 20068 39912 40040 80001 333 10410 59012;EQDQ01  00002PRCP99
0194614980999992000032406004+16630-011400FM-12+0115GQNF V0209999C000012200019N0100001N1+02301+00141100711ADDAA199000091GA1001+999999999GF100991001001999999001001KA1120N+02301MA1999999099431REMSYN082AAXX  24064 61498 33960 00000 10230 20014 39943 40071 333 0//00 20230 50944 55///;EQDQ01  00002PRCP99
0175614980999992000032409004+16630-011400FM-12+0115GQNF V0200401N003612200019N0050001N1+02701+00081100871ADDAY101031AY201031GA1001+999999999GF100991001001999999001001MA1999999099581MD1999999+0041MW1051REMSYN070AAXX  24094 61498 41950 00407 10270 20008 39958 40087 70500 333 58004;
0183614980999992000032412004+16630-011400FM-12+0115GQNF V0200201N003612200019N0100001N1+03361+00441100851ADDAA199000091GA1001+999999999GF100991001001999999001001MA1999999099571MD1999999+0041REMSYN070AAXX  24124 61498 33960 00207 10336 20044 39957 40085 333 0//00 58004;EQDQ01  00002PRCP99
0147614980999992000032415004+16630-011400FM-12+0115GQNF V0209999C000012200019N0100001N1+04001+00711100521ADDGA1001+999999999GF100991001001999999001001MA1999999099251MD1999999+0001REMSYN064AAXX  24154 61498 43960 00000 10400 20071 39925 40052 333 58000;
0196614980999992000032418004+16630-011400FM-12+0115GQNF V0209999C000012200019N0100001N1+04001+01081100431ADDAA199000091GA1001+999999999GF100991001001999999001001KA1120M+04101MA1999999099151MD1999999+0031REMSYN070AAXX  24184 61498 33960 00000 10400 20108 39915 40043 333 10410 58003;EQDQ01  00002PRCP99
0181614980999992000032506004+16630-011400FM-12+0115GQNF V0209999C000012200019N0100001N1+02341+00421100591ADDAA199000091GA1001+999999999GF100991001001999999001001MA1999999099311REMSYN082AAXX  25064 61498 32960 00000 10234 20042 39931 40059 333 0//00 2023/ 50934 55///;EQDQ01  00002PRCP99
0147614980999992000032509004+16630-011400FM-12+0115GQNF V0203601N002612200019N0100001N1+02701+00461100871ADDGA1001+999999999GF100991001001999999001001MA1999999099581MD1999999+0001REMSYN064AAXX  25094 61498 42960 03605 10270 20046 39958 40087 333 58000;
0183614980999992000032512004+16630-011400FM-12+0115GQNF V0203601N003612200019N0100001N1+03431+00841100831ADDAA199000091GA1001+999999999GF100991001001999999001001MA1999999099551MD1999999-0021REMSYN070AAXX  25124 61498 33960 03607 10343 20084 39955 40083 333 0//00 59002;EQDQ01  00002PRCP99
0147614980999992000032515004+16630-011400FM-12+0115GQNF V0203601N002612200019N0100001N1+03951+01041100601ADDGA1001+999999999GF100991001001999999001001MA1999999099231MD1999999-0021REMSYN064AAXX  25154 61498 43960 03605 10395 20104 39923 40060 333 59002;
0196614980999992000032518004+16630-011400FM-12+0115GQNF V0203601N002112200019N0100001N1+03931+01061100411ADDAA199000091GA1001+999999999GF100991001001999999001001KA1120M+04021MA1999999099131MD1999999-0021REMSYN070AAXX  25184 61498 33960 03604 10393 20106 39913 40041 333 10402 59002;EQDQ01  00002PRCP99
0182614980999992000032521004+16630-011400FM-12+0115GQNF V0203601N002112200019N0100001N1+03931+01061100411ADDAA199000091GA1001+999999999GF100991001001999999001001KA1120M+04021MA1999999099131REMSYN070AAXX  25214 61498 33960 03604 10393 20106 39913 40041 333 10402 590//;EQDQ01  00002PRCP99
0175614980999992000032609004+16630-011400FM-12+0115GQNF V0200401N002112200019N0060001N1+02661+00581100751ADDAY101031AY201031GA1001+999999999GF100991001001999999001001MA1999999099461MD1999999-0121MW1051REMSYN070AAXX  26094 61498 41956 00404 10266 20058 39946 40075 70500 333 59012;
0195614980999992000032612004+16630-011400FM-12+0115GQNF V0200401N003112200019N0080001N1+03301+00941100731ADDAA199000091GA1001+999999999GF100991001001999999001001MA1999999099451MD1999999-0191MW1051REMSYN076AAXX  26124 61498 31958 00406 10330 20094 39945 40073 705// 333 0//00 59019;EQDQ01  00002PRCP99
0196614980999992000032618004+16630-011400FM-12+0115GQNF V0203601N002112200019N0100001N1+03801+00181100391ADDAA199000091GA1001+999999999GF100991001001999999001001KA1120M+03931MA1999999099111MD1999999-0021REMSYN070AAXX  26184 61498 33960 03604 10380 20018 39911 40039 333 10393 59002;EQDQ01  00002PRCP99
0194614980999992000032706004+16630-011400FM-12+0115GQNF V0203601N003612200019N0100001N1+02341+00081100441ADDAA199000091GA1001+999999999GF100991001001999999001001KA1120N+02341MA1999999099151REMSYN082AAXX  27064 61498 33960 03607 10234 20008 39915 40044 333 0//00 20234 50824 55///;EQDQ01  00002PRCP99
0147614980999992000032709004+16630-011400FM-12+0115GQNF V0203601N003612200019N0100001N1+02751-00121100751ADDGA1001+999999999GF100991001001999999001001MA1999999099461MD1999999+0001REMSYN064AAXX  27094 61498 42960 03607 10275 21012 39946 40075 333 58000;
0183614980999992000032712004+16630-011400FM-12+0115GQNF V0200401N003612200019N0100001N1+03401-00031100751ADDAA199000091GA1001+999999999GF100991001001999999001001MA1999999099471MD1999999+0021REMSYN070AAXX  27124 61498 33960 00407 10340 21003 39947 40075 333 0//00 58002;EQDQ01  00002PRCP99
0147614980999992000032815004+16630-011400FM-12+0115GQNF V0209999C000012200019N0100001N1+04051+00231100421ADDGA1001+999999999GF100991001001999999001001MA1999999099151MD1999999-0071REMSYN064AAXX  28154 61498 43960 00000 10405 20023 39915 40042 333 59007;
0196614980999992000032818004+16630-011400FM-12+0115GQNF V0209999C000012200019N0100001N1+04031+00541100291ADDAA199000091GA1001+999999999GF100991001001999999001001KA1120M+04171MA1999999099021MD1999999-0101REMSYN070AAXX  28184 61498 33960 00000 10403 20054 39902 40029 333 10417 59010;EQDQ01  00002PRCP99
0200614980999992000032906004+16630-011400FM-12+0115GQNF V0200401N009312200019N0100001N1+99999+99999100461ADDAA199000091GA1001+999999999GF100991001001999999001001KA1120N+02601MA1999999099191REMSYN088AAXX  29064 61498 33960 00418 102/0 20010 39919 40046 333 0//00 20260 51784 55/// 59023;EQDQ01  00002PRCP99
0159614980999992000032909004+16630-011400FM-12+0115GQNF V0203601N002112200019N0100001N1+03051-00081100791ADDGA1021+039009079GF102991021001999999031001MA1999999099511MD1999999-0011REMSYN076AAXX  29094 61498 42960 23604 10305 21008 39951 40079 82030 333 59001 82363;
0195614980999992000032912004+16630-011400FM-12+0115GQNF V0209999C000012200019N0100001N1+03911+00561100741ADDAA199000091GA1011+039009079GF101991011001999999031001MA1999999099451MD1999999-0041REMSYN082AAXX  29124 61498 33960 10000 10391 20056 39945 40074 81030 333 0//00 59004 81363;EQDQ01  00002PRCP99
0141614980999992000032915004+16630-011400FM-12+0115GQNF V0201401N002619999999N0100001N1+03991+00861100461ADDGF107991071001999999031999MA1999999099191REMSYN088AAXX  29154 61498 43960 71405 10399 20086 39919 40046 8703/ 333 580// 52/08 74030 84363;
0208614980999992000032918004+16630-011400FM-12+0115GQNF V0209999C000010390019N0100001N1+03721+01251100391ADDAA199000091GA1071+039009079GF107991071001999999071999KA1120M+04101MA1999999099111MD1999999+0091REMSYN082AAXX  29184 61498 33960 70000 10372 20125 39911 40039 8707/ 333 10410 58009 87363;EQDQ01  00002PRCP99
0206614980999992000033006004+16630-011400FM-12+0115GQNF V0209999C000012200019N0100001N1+02901+01211100731ADDAA199000091GA1011+039009079GF101991011001999999031001KA1120N+02901MA1999999099451REMSYN094AAXX  30064 61498 33960 10000 10290 20121 39945 40073 81030 333 0//00 20290 50804 55/// 81363;EQDQ01  00002PRCP99
0159614980999992000033009004+16630-011400FM-12+0115GQNF V02099999999990390019N9999999N1+03041+01321100911ADDGA1061+039009079GF106991061001999999031001MA1999999099631MD1999999+0121REMSYN076AAXX  30094 61498 429/0 600/0 10304 20132 39963 40091 86030 333 58012 86363;
0183614980999992000033012004+16630-011400FM-12+0115GQNF V0200801N002112200019N0100001N1+03751+01461100921ADDAA199000091GA1001+999999999GF100991001001999999001001MA1999999099651MD1999999+0201REMSYN070AAXX  30124 61498 33960 00804 10375 20146 39965 40092 333 0//00 58020;EQDQ01  00002PRCP99
0208614980999992000033018004+16630-011400FM-12+0115GQNF V0209999C000012200019N0100001N1+04081+01331100551ADDAA199000091GA1021+039009079GF102991021001999999031001KA1120M+04161MA1999999099281MD1999999+0171REMSYN082AAXX  30184 61498 33960 20000 10408 20133 39928 40055 82030 333 10416 58017 82363;EQDQ01  00002PRCP99
0206614980999992000033106004+16630-011400FM-12+0115GQNF V0209999C000012200019N0100001N1+02901+01431100561ADDAA199000091GA1031+039009079GF103991031001999999031001KA1120N+02901MA1999999099291REMSYN094AAXX  31064 61498 33960 30000 10290 20143 39929 40056 83030 333 0//00 20290 50824 55/// 83363;EQDQ01  00002PRCP99
0195614980999992000033112004+16630-011400FM-12+0115GQNF V0200201N002610390019N0100001N1+03861+00701100801ADDAA199000091GA1061+039009079GF106991061001999999031001MA1999999099541MD1999999-0111REMSYN082AAXX  31124 61498 33960 60205 10386 20070 39954 40080 86030 333 0//00 59011 86363;EQDQ01  00002PRCP99
0147614980999992000033115004+16630-011400FM-12+0115GQNF V0203601N001512200019N0100001N1+04201+00661100451ADDGA1001+999999999GF100991001001999999001001MA1999999099191MD1999999-0151REMSYN064AAXX  31154 61498 43960 03603 10420 20066 39919 40045 333 59015;
0196614980999992000033118004+16630-011400FM-12+0115GQNF V0203601N003112200019N0100001N1+04151+00841100361ADDAA199000091GA1001+999999999GF100991001001999999001001KA1120M+04251MA1999999099101MD1999999-0181REMSYN070AAXX  31184 61498 33960 03606 10415 20084 39910 40036 333 10425 59018;EQDQ01  00002PRCP99
0200614980999992000040106004+16630-011400FM-12+0115GQNF V0203601N002612200019N0100001N1+02901+00531100501ADDAA199000091GA1001+999999999GF100991001001999999001001KA1120N+02901MA1999999099231REMSYN088AAXX  01064 61498 33960 03605 10290 20053 39923 40050 333 0//00 20290 50954 55/// 59006;EQDQ01  00002PRCP99
0147614980999992000040109004+16630-011400FM-12+0115GQNF V0203601N003112200019N0100001N1+03201+00441100611ADDGA1001+999999999GF100991001001999999001001MA1999999099331MD1999999-0201REMSYN064AAXX  01094 61498 42960 03606 10320 20044 39933 40061 333 59020;
0195614980999992000040112004+16630-011400FM-12+0115GQNF V0200401N006212200019N0040001N1+04051+00431100611ADDAA199000091GA1001+999999999GF100991001001999999001001MA1999999099351MD1999999+0191MW1061REMSYN076AAXX  01124 61498 31940 00412 10405 20043 39935 40061 706// 333 0//00 58019;EQDQ01  00002PRCP99
0137614980999992000040212004+16630-011400FM-12+0115GQNF V0200401N006212200019N0070001N1+04081+00431999999ADDAA199000091GF101991999999999999999999MA1999999099341REMSYN054AAXX  02124 61498 31957 10412 10408 20043 39934 40/60;EQDQ01  00002PRCP99
0159614980999992000040215004+16630-011400FM-12+0115GQNF V0209999C000012200019N0100001N1+04351+00621100281ADDGA1021+069009019GF102991001001999999001011MA1999999099021MD1999999-0051REMSYN076AAXX  02154 61498 43960 20000 10435 20062 39902 40028 80001 333 59005 82073;
0196614980999992000040218004+16630-011400FM-12+0115GQNF V0209999C000012200019N0100001N1+04231+00561100191ADDAA199000091GA1001+999999999GF100991001001999999001001KA1120M+04431MA1999999098931MD1999999-0031REMSYN070AAXX  02184 61498 33960 00000 10423 20056 39893 40019 333 10443 59003;EQDQ01  00002PRCP99
0194614980999992000040306004+16630-011400FM-12+0115GQNF V0200401N003112200019N0100001N1+02801+01081100511ADDAA199000091GA1001+999999999GF100991001001999999001001KA1120N+02801MA1999999099241REMSYN082AAXX  03064 61498 33960 00406 10280 20108 39924 40051 333 0//00 20280 50924 55///;EQDQ01  00002PRCP99
0175614980999992000040309004+16630-011400FM-12+0115GQNF V0200401N003112200019N0070001N1+03201+00821100771ADDAY111031AY211031GA1001+999999999GF100991001001999999001001MA1999999099501MD1999999+0251MW1051REMSYN070AAXX  03094 61498 41957 00406 10320 20082 39950 40077 70511 333 58025;
0207614980999992000040312004+16630-011400FM-12+0115GQNF V0200401N002112200019N0080001N1+03701+00881100801ADDAA199000091GA1031+069009019GF103991001001999999001011MA1999999099531MD1999999+0191MW1051REMSYN088AAXX  03124 61498 31958 30404 10370 20088 39953 40080 705// 80001 333 0//00 58019 83073;EQDQ01  00002PRCP99
0147614980999992000040415004+16630-011400FM-12+0115GQNF V0209999C000012200019N0100001N1+03881+00651100891ADDGA1001+999999999GF100991001001999999001001MA1999999099611MD1999999+0281REMSYN064AAXX  04154 61498 43960 00000 10388 20065 39961 40089 333 58028;
0208614980999992000040418004+16630-011400FM-12+0115GQNF V0203601N002112200019N0100001N1+03831+00741100771ADDAA199000091GA1011+069009019GF101991001001999999001011KA1120M+03831MA1999999099491MD1999999+0321REMSYN082AAXX  04184 61498 33960 13604 10383 20074 39949 40077 80001 333 10383 58032 81073;EQDQ01  00002PRCP99
0194614980999992000040506004+16630-011400FM-12+0115GQNF V0200401N002112200019N0000001N1+02741+00691100991ADDAA199000091GA1001+999999999GF100991001001999999001001KA1120N+02701MA1999999099711REMSYN082AAXX  05064 61498 3/690 00404 10274 20069 39971 40099 333 0//00 20270 50904 55///;EQDQ01  00002PRCP99
0220614980999992000040518004+16630-011400FM-12+0115GQNF V0200201N002610390019N0080001N1+03831+00391100631ADDAA199000091GA1071+039009079GF107991071001999999021999KA1120M+03951MA1999999099351MD1999999-0141MW1051REMSYN088AAXX  05184 61498 31958 70205 10383 20039 39935 40063 705// 8702/ 333 10395 59014 87363;EQDQ01  00002PRCP99
0200614980999992000040606004+16630-011400FM-12+0115GQNF V0209999C000012200019N0100001N1+02621+00601100351ADDAA199000091GA1001+999999999GF100991001001999999001001KA1120N+02621MA1999999099371REMSYN088AAXX  06064 61498 33960 00000 10262 20060 39937 40035 333 0//00 20262 50874 55/// 59034;EQDQ01  00002PRCP99
0195614980999992000040612004+16630-011400FM-12+0115GQNF V0209999C000012200019N0100001N1+03831-00091100861ADDAA199000091GA1041+039009079GF104991041001999999031001MA1999999099591MD1999999-0331REMSYN082AAXX  06124 61498 33960 40000 10383 21009 39959 40086 84030 333 0//00 59033 84363;EQDQ01  00002PRCP99
0206614980999992000040706004+16630-011400FM-12+0115GQNF V0200401N002110390019N0100001N1+02961+00491100671ADDAA199000091GA1071+039009079GF107991071001999999071999KA1120N+02941MA1999999099401REMSYN094AAXX  07064 61498 33960 70404 10296 20049 39940 40067 8707/ 333 0//00 20294 50844 55/// 87363;EQDQ01  00002PRCP99
0220614980999992000040718004+16630-011400FM-12+0115GQNF V0209999C000010390019N0080001N1+04051+00621100401ADDAA199000091GA1071+039009079GF107991071001999999071999KA1120M+04301MA1999999099141MD1999999-0081MW1051REMSYN088AAXX  07184 61498 31958 70000 10405 20062 39914 40040 705// 8707/ 333 10430 59008 87363;EQDQ01  00002PRCP99
0200614980999992000040806004+16630-011400FM-12+0115GQNF V0209999C000012200019N0100001N1+02801+00621100391ADDAA199000091GA1001+999999999GF100991001001999999001001KA1120N+02801MA1999999099121REMSYN088AAXX  08064 61498 33960 00000 10280 20062 39912 40039 333 0//00 20280 50904 55/// 59028;EQDQ01  00002PRCP99
0208614980999992000040818004+16630-011400FM-12+0115GQNF V0200401N004112200019N0025001N1+04161+00321100361ADDAA199000091GA1001+999999999GF100991001001999999001001KA1120M+04301MA1999999099101MD1999999-0041MW1051REMSYN076AAXX  08184 61498 31925 00408 10416 20032 39910 40036 705// 333 10430 59004;EQDQ01  00002PRCP99
0194614980999992000040906004+16630-011400FM-12+0115GQNF V0200401N002112200019N0100001N1+02901+00961100541ADDAA199000091GA1001+999999999GF100991001001999999001001KA1120N+02901MA1999999099271REMSYN082AAXX  09064 61498 33960 00404 10290 20096 39927 40054 333 0//00 20290 51204 55///;EQDQ01  00002PRCP99
0195614980999992000040912004+16630-011400FM-12+0115GQNF V0200401N005112200019N0060001N1+03861+00501100691ADDAA199000091GA1001+999999999GF100991001001999999001001MA1999999099431MD1999999-0051MW1061REMSYN076AAXX  09124 61498 31956 00410 10386 20050 39943 40069 706// 333 0//00 59005;EQDQ01  00002PRCP99
0220614980999992000040918004+16630-011400FM-12+0115GQNF V0200801N003112200019N0060001N1+04141+00741100311ADDAA199000091GA1041+039009079GF104991041001999999031001KA1120M+04301MA1999999099051MD1999999-0051MW1051REMSYN088AAXX  09184 61498 31956 40806 10414 20074 39905 40031 705// 84030 333 10430 59005 84363;EQDQ01  00002PRCP99
0206614980999992000041006004+16630-011400FM-12+0115GQNF V0200401N003112200019N0070001N1+02981+00481100361ADDAA199000091GA1001+999999999GF100991001001999999001001KA1120N+02981MA1999999099101MW1051REMSYN088AAXX  10064 61498 31957 00406 10298 20048 39910 40036 705// 333 0//00 20298 51204 55///;EQDQ01  00002PRCP99
0207614980999992000041012004+16630-011400FM-12+0115GQNF V0200401N008212200019N0030001N1+03861+00341100761ADDAA199000091GA1031+039009079GF103991031001999999031001MA1999999099501MD1999999+0071MW1071REMSYN088AAXX  10124 61498 31930 30416 10386 20034 39950 40076 707// 83030 333 0//00 58007 83363;EQDQ01  00002PRCP99
0183614980999992000041100004+16630-011400FM-12+0115GQNF V0200401N005112200019N0100001N1+03561+00601100641ADDAA199000091GA1001+999999999GF100991001001999999001001MA1999999099381MD1999999+0281REMSYN070AAXX  11004 61498 32960 00410 10356 20060 39938 40064 333 0//00 58028;EQDQ01  00002PRCP99
0195614980999992000041112004+16630-011400FM-12+0115GQNF V0200401N006212200019N0040001N1+03841+00121100761ADDAA199000091GA1001+999999999GF100991001001999999001001MA1999999099501MD1999999+0001MW1061REMSYN076AAXX  11124 61498 31940 00412 10384 20012 39950 40076 706// 333 0//00 58000;EQDQ01  00002PRCP99
0208614980999992000041118004+16630-011400FM-12+0115GQNF V0200401N004112200019N0060001N1+04161+00481100421ADDAA199000091GA1001+999999999GF100991001001999999001001KA1120M+04311MA1999999099161MD1999999+0021MW1051REMSYN076AAXX  11184 61498 31956 00408 10416 20048 39916 40042 705// 333 10431 58002;EQDQ01  00002PRCP99
0206614980999992000041206004+16630-011400FM-12+0115GQNF V0200401N007212200019N0060001N1+02741+00171100571ADDAA199000091GA1001+999999999GF100991001001999999001001KA1120N+02741MA1999999099301MW1061REMSYN088AAXX  12064 61498 31956 00414 10274 20017 39930 40057 706// 333 0//00 20274 51124 55///;EQDQ01  00002PRCP99
0207614980999992000041212004+16630-011400FM-12+0115GQNF V0200401N008212200019N0030001N1+04261-00801100801ADDAA199000091GA1031+069009019GF103991001001999999001011MA1999999099541MD1999999+0041MW1071REMSYN088AAXX  12124 61498 31930 30416 10426 21080 39954 40080 707// 80001 333 0//00 58004 83073;EQDQ01  00002PRCP99
0220614980999992000041218004+16630-011400FM-12+0115GQNF V0200801N004112200019N0040001N1+04101+00141100581ADDAA199000091GA1031+069009019GF103991001001999999001011KA1120M+04181MA1999999099311MD1999999+0151MW1051REMSYN088AAXX  12184 61498 31940 30808 10410 20014 39931 40058 705// 80001 333 10418 58015 83073;EQDQ01  00002PRCP99
0200614980999992000041306004+16630-011400FM-12+0115GQNF V0209999C000012200019N0100001N1+02601+00301100641ADDAA199000091GA1001+999999999GF100991001001999999001001KA1120N+02541MA1999999099341REMSYN088AAXX  13064 61498 33960 00000 10260 20030 39934 40064 333 0//00 20254 51004 55/// 58004;EQDQ01  00002PRCP99
0216614980999992000041506004+16630-011400FM-12+0115GQNF V0200401N003112200019N0100001N1+02651+00721100761ADDAA199000091GA1001+999999999GF100991001001999999001001KA1120N+99999MA1999999099381REMSYN088AAXX  15064 61498 32960 00406 10265 20072 39938 40076 333 0//00 20274 51474 55/// 58001;EQDQ01  00002PRCP99Q02 +02742ATMN  
0183614980999992000041512004+16630-011400FM-12+0115GQNF V0200401N003612200019N0100001N1+03161+01091100831ADDAA199000091GA1001+999999999GF100991001001999999001001MA1999999099561MD1999999-0131REMSYN070AAXX  15124 61498 33960 00407 10316 20109 39956 40083 333 0//00 59013;EQDQ01  00002PRCP99
0196614980999992000041518004+16630-011400FM-12+0115GQNF V0200801N003112200019N0200001N1+04261+01161100431ADDAA199000091GA1001+999999999GF100991001001999999001001KA1120M+04421MA1999999099171MD1999999-0081REMSYN070AAXX  15184 61498 33970 00806 10426 20116 39917 40043 333 10442 59008;EQDQ01  00002PRCP99
0210614980999992000041706004+16630-011400FM-12+0115GQNF V0200401N004112200019N0100001N1+03061+01301100711ADDAA199000091GF103991001001999999001011KA1120N+03001MA1999999099451MD1999999+0161REMSYN100AAXX  17064 61498 33960 30408 10306 20130 39945 40071 80001 333 0//00 20300 51354 55/// 58016 83073;EQDQ01  00002PRCP99
0207614980999992000041712004+16630-011400FM-12+0115GQNF V0200401N007212200019N0020001N1+03801+01481100911ADDAA199000091GA1041+069009019GF104991001001999999001021MA1999999099611MD1999999+0121MW1071REMSYN088AAXX  17124 61498 32920 40414 10380 20148 39961 40091 707// 80002 333 0//00 58012 84073;EQDQ01  00002PRCP99
0220614980999992000041718004+16630-011400FM-12+0115GQNF V0200401N005110690019N0030001N1+04161+01541100511ADDAA199000091GA1061+069009019GF106991001001999999001021KA1120M+04241MA1999999099251MD1999999+0101MW1061REMSYN088AAXX  17184 61498 31930 60410 10416 20154 39925 40051 706// 80002 333 10424 58010 86073;EQDQ01  00002PRCP99
0222614980999992000041806004+16630-011400FM-12+0115GQNF V0200401N003619999999N0050001N1+03001+01271100571ADDAA199000091GF106991001001999999001021KA1120N+03001MA1999999099311MD1999999-0141MW1051REMSYN106AAXX  18064 61498 31950 60407 10300 20127 39931 40057 705// 80002 333 0//00 20300 51194 55/// 59014 86073;EQDQ01  00002PRCP99
0220614980999992000041818004+16630-011400FM-12+0115GQNF V0200401N002110690019N0060001N1+04241+01681100491ADDAA199000091GA1061+069009019GF106991001001999999001021KA1120M+04411MA1999999099231MD1999999-0021MW1051REMSYN088AAXX  18184 61498 31956 60404 10424 20168 39923 40049 705// 80002 333 10441 59002 86073;EQDQ01  00002PRCP99
0207614980999992000041906004+16630-011400FM-12+0115GQNF V0200401N003119999999N0060001N1+03001+01121100821ADDAA199000091GF106991001001999999001021KA1120N+02961MA1999999099551MW1051REMSYN105AAXX  19064 61498 31956 60406 10300 20112 39955 40082 705// 80002 333 0//00 20296 51104 55/// 5024 86073;EQDQ01  00002PRCP99
0236614980999992000041918004+16630-011400FM-12+0115GQNF V0200401N005112200019N0040001N1+04101+01701100681ADDAA199000091GA1041+039009079GF199999041001999999031001KA1120M+04261MA1999999099421MD1999999+0191MW1061REMSYN088AAXX  19184 61498 31940 30410 10410 20170 39942 40068 706// 84030 333 10426 58019 84363;EQDQ01+000032SCOTCVQ02  00002PRCP99
0220614980999992000042018004+16630-011400FM-12+0115GQNF V0200401N004110390019N0060001N1+04001+00121100741ADDAA199000091GA1061+039009079GF106991061001999999031001KA1120M+04161MA1999999099471MD1999999+0051MW1051REMSYN088AAXX  20184 61498 31956 60408 10400 20012 39947 40074 705// 86030 333 10416 58005 86363;EQDQ01  00002PRCP99
0207614980999992000042112004+16630-011400FM-12+0115GQNF V0200401N004112200019N0080001N1+03951-00161101001ADDAA199000091GA1011+039009079GF101991011001999999031001MA1999999099741MD1999999-0041MW1051REMSYN088AAXX  21124 61498 31958 10408 10395 21016 39974 40100 705// 81030 333 0//00 59004 81363;EQDQ01  00002PRCP99
0210614980999992000042206004+16630-011400FM-12+0115GQNF V0200401N002612200019N0100001N1+02561+00121100891ADDAA199000091GF103991031001999999031001KA1120N+02561MA1999999099611MD1999999-0041REMSYN100AAXX  22064 61498 33960 30405 10256 20012 39961 40089 83030 333 0//00 20256 51154 55/// 59004 83363;EQDQ01  00002PRCP99
0220614980999992000042218004+16630-011400FM-12+0115GQNF V0203601N005110390019N0080001N1+03901+00021100731ADDAA199000091GA1061+039009079GF106991061001999999031001KA1120M+04061MA1999999099481MD1999999+0011MW1061REMSYN088AAXX  22184 61498 31958 63610 10390 20002 39948 40073 706// 86030 333 10406 58001 86363;EQDQ01  00002PRCP99
0196614980999992000042318004+16630-011400FM-12+0115GQNF V0209999C000012200019N0100001N1+04191+00481100501ADDAA199000091GA1001+999999999GF100991001001999999001001KA1120M+04301MA1999999099231MD1999999-0251REMSYN070AAXX  23184 61498 33960 00000 10419 20048 39923 40050 333 10430 59025;EQDQ01  00002PRCP99
0220614980999992000042406004+16630-011400FM-12+0115GQNF V0209999C000012200019N0100001N1+02641+00061100501ADDAA199000091GA1041+039009079GF104991041001999999031001KA1120N+02641MA1999999099231MD1999999-0361REMSYN094AAXX  24064 61498 33960 40000 10264 20006 39923 40050 84030 333 0//00 20264 51054 59036 84363;EQDQ01  00002PRCP99
0208614980999992000042418004+16630-011400FM-12+0115GQNF V0209999C000012200019N0100001N1+04231+00391100441ADDAA199000091GA1021+039009079GF102991021001999999031001KA1120M+04401MA1999999099171MD1999999-0061REMSYN082AAXX  24184 61498 33960 20000 10423 20039 39917 40044 82030 333 10440 59006 82363;EQDQ01  00002PRCP99
0210614980999992000042506004+16630-011400FM-12+0115GQNF V0209999C000012200019N0100001N1+03161+00341100601ADDAA199000091GF103991031001999999031001KA1120N+02821MA1999999099341MD1999999+0111REMSYN100AAXX  25064 61498 33960 30000 10316 20034 39934 40060 83030 333 0//00 20282 51004 55/// 58011 83363;EQDQ01  00002PRCP99
0165614980999992000042512004+16630-011400FM-12+0115GQNF V0203201N003112200019N0060001N1+03961+00661100741ADDAA199000091GF103991001001999999001011MA1999999099481MW1051REMSYN076AAXX  25124 61498 31956 33206 10396 20066 39948 40074 705// 80001 333 0//00;EQDQ01  00002PRCP99
0210614980999992000042606004+16630-011400FM-12+0115GQNF V0209999C000019999999N0100001N1+03061+00621100541ADDAA199000091GF106991061001999999031001KA1120N+03061MA1999999099281MD1999999-0061REMSYN100AAXX  26064 61498 33960 60000 10306 20062 39928 40054 86030 333 0//00 20306 51074 55/// 59006 86363;EQDQ01  00002PRCP99
0206614980999992000042706004+16630-011400FM-12+0115GQNF V0200401N002112200019N0100001N1+02941+00151100671ADDAA199000091GA1031+039009079GF103991031001999999031001KA1120N+02881MA1999999099401REMSYN094AAXX  27064 61498 33960 30404 10294 20015 39940 40067 83030 333 0//00 20288 51064 55/// 83363;EQDQ01  00002PRCP99
0196614980999992000042712004+16630-011400FM-12+0115GQNF V0200401N006212200019N0030001N1+04101+00161100771ADDAA199000091GA1001+999999999GF100991001001999999001001MD1999999-0071MW1061REMSYN076AAXX  27124 61498 31930 00412 10410 20016 39751 40077 706// 333 0//00 59007;EQDQ01+097513APOSP Q02  00002PRCP99
0208614980999992000042718004+16630-011400FM-12+0115GQNF V0200401N004112200019N0080001N1+04301+00291100391ADDAA199000091GA1001+999999999GF100991001001999999001001KA1120M+04401MA1999999099131MD1999999-0031MW1061REMSYN076AAXX  27184 61498 31958 00408 10430 20029 39913 40039 706// 333 10440 59003;EQDQ01  00002PRCP99
0195614980999992000042800004+16630-011400FM-12+0115GQNF V0200401N003112200019N0080001N1+03441+00321100811ADDAA199000091GA1001+999999999GF100991001001999999001001MA1999999099351MD1999999-0051MW1051REMSYN076AAXX  28004 61498 31958 00406 10344 20032 39935 40081 705// 333 0//00 59005;EQDQ01  00002PRCP99
0212614980999992000042806004+16630-011400FM-12+0115GQNF V0200401N003612200019N0080001N1+02801+00141100541ADDAA199000091GA1001+999999999GF100991001001999999001001KA1120N+02841MA1999999099281MW1051REMSYN094AAXX  28064 61498 31958 00407 10280 20014 39928 40054 705// 333 0//00 20284 51184 55/// 59012;EQDQ01  00002PRCP99
0189614980999992000042812004+16630-011400FM-12+0115GQNF V0200401N004112200019N0070001N1+03761-00471100871ADDAA199000091GA1001+999999999GF100991001001999999001001MA1999999099601MD1999999+0091MW1061REMSYN070AAXX  28124 61498 31957 00408 10376 21047 39960 40087 706// 333 58009;EQDQ01  00002PRCP99
0183614980999992000042900004+16630-011400FM-12+0115GQNF V0200401N003112200019N0100001N1+03301+00141100691ADDAA199000091GA1001+999999999GF100991001001999999001001MA1999999099421MD1999999+0271REMSYN070AAXX  29004 61498 33960 00406 10330 20014 39942 40069 333 0//00 58027;EQDQ01  00002PRCP99
0195614980999992000042912004+16630-011400FM-12+0115GQNF V0200401N002112200019N0100001N1+03801-00291100911ADDAA199000091GA1021+069009019GF102991001001999999001011MA1999999099641MD1999999+0041REMSYN082AAXX  29124 61498 33960 20404 10380 21029 39964 40091 80001 333 0//00 58004 82073;EQDQ01  00002PRCP99
0196614980999992000042918004+16630-011400FM-12+0115GQNF V0209999C000012200019N0100001N1+04161+00001100521ADDAA199000091GA1001+999999999GF100991001001999999001001KA1120M+04301MA1999999099251MD1999999+0011REMSYN070AAXX  29184 61498 33960 00000 10416 20000 39925 40052 333 10430 58001;EQDQ01  00002PRCP99
0195614980999992000043012004+16630-011400FM-12+0115GQNF V0200401N004110690019N0100001N1+03761-00021101071ADDAA199000091GA1051+069009019GF105991001001999999001011MA1999999099791MD1999999+0151REMSYN082AAXX  30124 61498 33960 50408 10376 21002 39979 40107 80001 333 0//00 58015 85073;EQDQ01  00002PRCP99
0208614980999992000043018004+16630-011400FM-12+0115GQNF V0209999C000012200019N0100001N1+04021+00271100661ADDAA199000091GA1011+069009019GF101991001001999999001011KA1120M+04151MA1999999099381MD1999999+0131REMSYN082AAXX  30184 61498 33960 10000 10402 20027 39938 40066 80001 333 10415 58013 81073;EQDQ01  00002PRCP99
0183614980999992000050112004+16630-011400FM-12+0115GQNF V0200401N002112200019N0100001N1+03661+00401100921ADDAA199000091GA1001+999999999GF100991001001999999001001MA1999999099641MD1999999-0161REMSYN070AAXX  01124 61498 33960 00404 10366 20040 39964 40092 333 0//00 59016;EQDQ01  00002PRCP99
0196614980999992000050118004+16630-011400FM-12+0115GQNF V0209999C000012200019N0100001N1+03901+00561100571ADDAA199000091GA1001+999999999GF100991001001999999001001KA1120M+04051MA1999999099291MD1999999-0091REMSYN070AAXX  01184 61498 33960 00000 10390 20056 39929 40057 333 10405 59009;EQDQ01  00002PRCP99
0183614980999992000050200004+16630-011400FM-12+0115GQNF V0209999C000012200019N0100001N1+03101+00621100681ADDAA199000091GA1001+999999999GF100991001001999999001001MA1999999099391MD1999999-0231REMSYN070AAXX  02004 61498 33960 00000 10310 20062 39939 40068 333 0//00 59023;EQDQ01  00002PRCP99
0208614980999992000050218004+16630-011400FM-12+0115GQNF V0209999C000012200019N0100001N1+04181+00521100401ADDAA199000091GA1011+069009019GF101991001001999999001011KA1120M+04251MA1999999099131MD1999999-0131REMSYN082AAXX  02184 61498 33960 10000 10418 20052 39913 40040 80001 333 10425 59013 81073;EQDQ01  00002PRCP99
0210614980999992000050306004+16630-011400FM-12+0115GQNF V0209999C000012200019N0100001N1+02701+00541100721ADDAA199000091GF103991021001999999031021KA1120N+02661MA1999999099451MD1999999+0141REMSYN100AAXX  03064 61498 33960 30000 10270 20054 39945 40072 82032 333 0//00 20266 50894 55/// 58014 82363;EQDQ01  00002PRCP99
0195614980999992000050312004+16630-011400FM-12+0115GQNF V0200401N002112200019N0100001N1+03901+00521100861ADDAA199000091GA1041+069009019GF104991001001999999001011MA1999999099591MD1999999-0011REMSYN082AAXX  03124 61498 33960 40404 10390 20052 39959 40086 80001 333 0//00 59001 84073;EQDQ01  00002PRCP99
0204614980999992000050406004+16630-011400FM-12+0115GQNF V0209999C000012200019N0100001N1+02701+00741100831ADDAA199000091GF104991999999999999999999KA1120N+02701MA1999999099561MD1999999+0111REMSYN094AAXX  04064 61498 33960 40000 10270 20074 39956 40083 333 0//00 20270 50954 55/// 58011 89363;EQDQ01  00002PRCP99
0195614980999992000050412004+16630-011400FM-12+0115GQNF V0200401N003112200019N0100001N1+03981+00561101101ADDAA199000091GA1021+039009079GF102991021001999999031001MA1999999099831MD1999999+0241REMSYN082AAXX  04124 61498 33960 20406 10398 20056 39983 40110 82030 333 0//00 58024 82363;EQDQ01  00002PRCP99
0208614980999992000050418004+16630-011400FM-12+0115GQNF V0209999C000012200019N0100001N1+04171+00701100601ADDAA199000091GA1011+039009079GF101991011001999999031001KA1120M+04251MA1999999099331MD1999999+0071REMSYN082AAXX  04184 61498 33960 10000 10417 20070 39933 40060 81030 333 10425 58007 81363;EQDQ01  00002PRCP99
0183614980999992000050500004+16630-011400FM-12+0115GQNF V0200401N003112200019N0100001N1+03361+00761100951ADDAA199000091GA1001+999999999GF100991001001999999001001MA1999999099681MD1999999+0101REMSYN070AAXX  05004 61498 33960 00406 10336 20076 39968 40095 333 0//00 58010;EQDQ01  00002PRCP99
0183614980999992000050512004+16630-011400FM-12+0115GQNF V0200401N003112200019N0100001N1+04001+01001100851ADDAA199000091GA1001+999999999GF100991001001999999001001MA1999999099591MD1999999-0241REMSYN070AAXX  05124 61498 33960 00406 10400 20100 39959 40085 333 0//00 59024;EQDQ01  00002PRCP99
0208614980999992000050518004+16630-011400FM-12+0115GQNF V0209999C000012200019N0100001N1+04251+00901100391ADDAA199000091GA1031+039009079GF103991031001999999031001KA1120M+04381MA1999999099131MD1999999-0201REMSYN082AAXX  05184 61498 33960 30000 10425 20090 39913 40039 83030 333 10438 59020 83363;EQDQ01  00002PRCP99
0202614980999992000050606004+16630-011400FM-12+0115GQNF V0200401N003112200019N0050001N1+03001+00741100541ADDAA199000091GF104991001001999999001011KA1120N+03001MA1999999099481MW1051REMSYN100AAXX  06064 61498 31950 40406 10300 20074 39948 40054 705// 80001 333 0//00 20300 50954 55/// 59039;EQDQ01  00002PRCP99
0195614980999992000050612004+16630-011400FM-12+0115GQNF V0200401N003112200019N0070001N1+03901+01091100851ADDAA199000091GA1001+999999999GF100991001001999999001001MA1999999099591MD1999999+0001MW1051REMSYN076AAXX  06124 61498 31957 00406 10390 20109 39959 40085 705// 333 0//00 58000;EQDQ01  00002PRCP99
0171614980999992000050615004+16630-011400FM-12+0115GQNF V0203601N002610690019N0070001N1+04201+01101100531ADDGA1051+069009019GF105991001001999999001011MA1999999099261MD1999999-0051MW1051REMSYN082AAXX  06154 61498 41957 53605 10420 20110 39926 40053 705// 80001 333 59005 85073;
0220614980999992000050618004+16630-011400FM-12+0115GQNF V0203601N003110690019N0070001N1+04121+01171100401ADDAA199000091GA1051+069009019GF105991001001999999001011KA1120M+04241MA1999999099141MD1999999+0011MW1051REMSYN088AAXX  06184 61498 31957 53606 10412 20117 39914 40040 705// 80001 333 10424 58001 85073;EQDQ01  00002PRCP99
0159614980999992000050621004+16630-011400FM-12+0115GQNF V0209999C000012200019N0070001N1+03751+01121100411ADDGA1001+999999999GF100991001001999999001001MA1999999099161MD1999999+0041MW1051REMSYN070AAXX  06214 61498 41957 00000 10375 20112 39916 40041 705// 333 58004;
0183614980999992000050700004+16630-011400FM-12+0115GQNF V0209999C000012200019N0100001N1+03501+01181100631ADDAA199000091GA1001+999999999GF100991001001999999001001MA1999999099371MD1999999+0271REMSYN070AAXX  07004 61498 33960 00000 10350 20118 39937 40063 333 0//00 58027;EQDQ01  00002PRCP99
0183614980999992000050712004+16630-011400FM-12+0115GQNF V0200401N003112200019N0100001N1+04061+01081100721ADDAA199000091GA1001+999999999GF100991001001999999001001MA1999999099461MD1999999-0131REMSYN070AAXX  07124 61498 33960 00406 10406 20108 39946 40072 333 0//00 59013;EQDQ01  00002PRCP99
0163614980999992000050715004+16630-011400FM-12+0115GQNF V0200201N001512200019N0080001N1+04401+01201100471ADDGA1001+999999999GF100991001001999999001001MD1999999-0051MW1051REMSYN070AAXX  07154 61498 41958 00203 10440 20120 39822 40047 705// 333 59005;EQDQ01+098223APOSP 
0208614980999992000050718004+16630-011400FM-12+0115GQNF V0209999C000012200019N0080001N1+04301+01321100361ADDAA199000091GA1001+999999999GF100991001001999999001001KA1120M+04451MA1999999099101MD1999999-0041MW1051REMSYN076AAXX  07184 61498 31958 00000 10430 20132 39910 40036 705// 333 10445 59004;EQDQ01  00002PRCP99
0222614980999992000050809004+16630-011400FM-12+0115GQNF V0200401N003112200019N0080001N1+03241+00941100601ADDAA199000091GF104991001001999999001011KA1120N+03241MA1999999099341MD1999999-0011MW1051REMSYN106AAXX  08094 61498 31958 40406 10324 20094 39934 40060 705// 80001 333 0//00 20324 50984 55/// 59001 84073;EQDQ01  00002PRCP99
0183614980999992000050812004+16630-011400FM-12+0115GQNF V0200401N004112200019N0100001N1+04141+00651100791ADDAA199000091GA1001+999999999GF100991001001999999001001MA1999999099541MD1999999+0081REMSYN070AAXX  08124 61498 33960 00408 10414 20065 39954 40079 333 0//00 58008;EQDQ01  00002PRCP99
0171614980999992000050815004+16630-011400FM-12+0115GQNF V0203601N002610690019N0040001N1+04451+01301100491ADDGA1061+069009019GF106991001001999999001011MA1999999099241MD1999999+0021MW1051REMSYN082AAXX  08154 61498 41940 63605 10445 20130 39924 40049 705// 80001 333 58002 86073;
0171614980999992000050821004+16630-011400FM-12+0115GQNF V0209999C000010690019N0060001N1+04001+00841100571ADDGA1061+069009019GF106991001001999999001011MA1999999099311MD1999999+0181MW1051REMSYN082AAXX  08214 61498 41956 60000 10400 20084 39931 40057 705// 80001 333 58018 86073;
0210614980999992000050906004+16630-011400FM-12+0115GQNF V0209999C000019999999N0100001N1+03201+00931100721ADDAA199000091GF105991001001999999001021KA1120N+03201MA1999999099461MD1999999+0121REMSYN100AAXX  09064 61498 33960 50000 10320 20093 39946 40072 80002 333 0//00 20320 51204 55/// 58012 85073;EQDQ01  00002PRCP99
0159614980999992000050909004+16630-011400FM-12+0115GQNF V0200401N003112200019N0100001N1+03561+00301100761ADDGA1031+069009019GF103991001001999999001011MA1999999099501MD1999999+0031REMSYN076AAXX  09094 61498 42960 30406 10356 20030 39950 40076 80001 333 58003 83073;
0211614980999992000050912004+16630-011400FM-12+0115GQNF V0200401N008212200019N0020001N1+04161+00321100751ADDAA199000091AY101061AY201061GA1001+999999999GF100991001001999999001001MA1999999099501MD1999999-0041MW1071REMSYN076AAXX  09124 61498 31920 00416 10416 20032 39950 40075 70700 333 0//00 59004;EQDQ01  00002PRCP99
0159614980999992000050915004+16630-011400FM-12+0115GQNF V0200801N004112200019N0070001N1+04401+00561100491ADDGA1001+999999999GF100991001001999999001001MA1999999099241MD1999999+0001MW1051REMSYN070AAXX  09154 61498 41957 00808 10440 20056 39924 40049 705// 333 58000;
0208614980999992000050918004+16630-011400FM-12+0115GQNF V0200201N003612200019N0080001N1+04251+00741100391ADDAA199000091GA1001+999999999GF100991001001999999001001KA1120M+04401MA1999999099131MD1999999-0041MW1051REMSYN076AAXX  09184 61498 31958 00207 10425 20074 39913 40039 705// 333 10440 59004;EQDQ01  00002PRCP99
0192614980999992000051006004+16630-011400FM-12+0115GQNF V0200401N003112200019N0080001N1+03161+00121100341ADDGF103991001001999999001011KA1120N+03161MA1999999099201MD1999999-0021MW1051REMSYN106AAXX  10064 61498 41958 30406 10316 20012 39920 40034 705// 80001 333 0//00 20316 51284 55/// 59002 83073;
0175614980999992000051009004+16630-011400FM-12+0115GQNF V0203601N006212200019N0040001N1+03401+00221100791ADDAY101031AY201031GA1001+999999999GF100991001001999999001001MA1999999099521MD1999999+0021MW1061REMSYN070AAXX  10094 61498 41940 03612 10340 20022 39952 40079 70600 333 58002;
0195614980999992000051012004+16630-011400FM-12+0115GQNF V0200401N007212200019N0040001N1+04121+00381100671ADDAA199000091GA1001+999999999GF100991001001999999001001MA1999999099411MD1999999-0091MW1071REMSYN076AAXX  10124 61498 31940 00414 10412 20038 39941 40067 707// 333 0//00 59009;EQDQ01  00002PRCP99
0159614980999992000051015004+16630-011400FM-12+0115GQNF V0203601N003612200019N0060001N1+04451+00581100451ADDGA1001+999999999GF100991001001999999001001MA1999999099201MD1999999-0041MW1051REMSYN070AAXX  10154 61498 41956 03607 10445 20058 39920 40045 705// 333 59004;
0171614980999992000051021004+16630-011400FM-12+0115GQNF V0209999C000012200019N0080001N1+03901+00861100501ADDGA1011+039009079GF101991011001999999031001MA1999999099241MD1999999+0101MW1051REMSYN082AAXX  10214 61498 41958 10000 10390 20086 39924 40050 705// 81030 333 58010 81363;
0210614980999992000051106004+16630-011400FM-12+0115GQNF V0200401N003112200019N0100001N1+03261+00421100661ADDAA199000091GF103991031001999999031001KA1120N+03261MA1999999099401MD1999999+0201REMSYN100AAXX  11064 61498 33960 30406 10326 20042 39940 40066 83030 333 0//00 20326 51324 55/// 58020 83363;EQDQ01  00002PRCP99
0191614980999992000051109004+16630-011400FM-12+0115GQNF V0200401N002110690019N0080001N1+03551+01642100801ADDAY111031AY211031GA1051+069009019GF105991001001999999001011MD1999999+0081MW1071REMSYN082AAXX  11094 61498 41958 50404 10355 20164 39637 40080 70711 80001 333 58008 85073;EQDQ01+096373APOSP 
0195614980999992000051112004+16630-011400FM-12+0115GQNF V0200401N004112200019N0070001N1+04101+00901100671ADDAA199000091GA1001+999999999GF100991001001999999001001MA1999999099411MD1999999+0001MW1051REMSYN076AAXX  11124 61498 31957 00408 10410 20090 39941 40067 705// 333 0//00 58000;EQDQ01  00002PRCP99
0171614980999992000051115004+16630-011400FM-12+0115GQNF V0209999C000012200019N0080001N1+04401+01201100461ADDGA1011+069009019GF101991001001999999001011MA1999999099211MD1999999+0011MW1051REMSYN082AAXX  11154 61498 41958 10000 10440 20120 39921 40046 705// 80001 333 58001 81073;
0232614980999992000051118004+16630-011400FM-12+0115GQNF V0200401N002612200019N0070001N1+04281+01021100361ADDAA199000091GA1011+015009089GF102991011011999999001011KA1120M+04401MA1999999099111MD1999999+0011MW1051REMSYN100AAXX  11184 61498 31957 20405 10428 20102 39911 40036 705// 81101 333 10440 58001 81850 94902 95872;EQDQ01  00002PRCP99
0207614980999992000051212004+16630-011400FM-12+0115GQNF V0201001N004112200019N0080001N1+04151+01141100761ADDAA199000091GA1021+069009019GF102991001001999999001011MA1999999099511MD1999999+0101MW1051REMSYN088AAXX  12124 61498 31958 21008 10415 20114 39951 40076 705// 80001 333 0//00 58010 82073;EQDQ01  00002PRCP99
0208614980999992000051218004+16630-011400FM-12+0115GQNF V0209999C000012200019N0100001N1+04301+01151100381ADDAA199000091GA1021+039009079GF102991021001999999031011KA1120M+04421MA1999999099131MD1999999+0021REMSYN082AAXX  12184 61498 33960 20000 10430 20115 39913 40038 82031 333 10442 58002 82363;EQDQ01  00002PRCP99
0159614980999992000051221004+16630-011400FM-12+0115GQNF V0209999C000012200019N0100001N1+03951+01181100531ADDGA1011+039009079GF101991011001999999031001MA1999999099281MD1999999+0101REMSYN076AAXX  12214 61498 43960 10000 10395 20118 39928 40053 81030 333 58010 81363;
0183614980999992000051612004+16630-011400FM-12+0115GQNF V0200401N004112200019N0100001N1+04181+00801100791ADDAA199000091GA1001+999999999GF100991001001999999001001MA1999999099541MD1999999+0221REMSYN070AAXX  16124 61498 33960 00408 10418 20080 39954 40079 333 0//00 58022;EQDQ01  00002PRCP99
0147614980999992000051615004+16630-011400FM-12+0115GQNF V0202601N002612200019N0100001N1+04351+00621100591ADDGA1001+999999999GF100991001001999999001001MA1999999099341MD1999999+0261REMSYN064AAXX  16154 61498 43960 02605 10435 20062 39934 40059 333 58026;
0147614980999992000051715004+16630-011400FM-12+0115GQNF V0209999C000012200019N0100001N1+04451+00651100591ADDGA1001+999999999GF100991001001999999001001MA1999999099341MD1999999+0001REMSYN064AAXX  17154 61498 43960 00000 10445 20065 39934 40059 333 58000;
0196614980999992000051718004+16630-011400FM-12+0115GQNF V0209999C000012200019N0100001N1+04381+00381100451ADDAA199000091GA1001+999999999GF100991001001999999001001KA1120M+04501MA1999999099201MD1999999+0041REMSYN070AAXX  17184 61498 33960 00000 10438 20038 39920 40045 333 10450 58004;EQDQ01  00002PRCP99
0210614980999992000051806004+16630-011400FM-12+0115GQNF V0209999C000012200019N0100001N1+03141+00881100461ADDAA199000091GF102991021001999999031001KA1120N+03141MA1999999099211MD1999999-0321REMSYN100AAXX  18064 61498 33960 20000 10314 20088 39921 40046 82030 333 0//00 20314 51044 55/// 59032 82363;EQDQ01  00002PRCP99
0147614980999992000051809004+16630-011400FM-12+0115GQNF V0209999C000012200019N0100001N1+03581+00641100741ADDGA1001+999999999GF100991001001999999001001MA1999999099461MD1999999-0091REMSYN064AAXX  18094 61498 42960 00000 10358 20064 39946 40074 333 59009;
0195614980999992000051812004+16630-011400FM-12+0115GQNF V0209999C000012200019N0100001N1+04401+00781100721ADDAA199000091GA1021+039009079GF102991021001999999031001MA1999999099481MD1999999-0071REMSYN082AAXX  18124 61498 32960 20000 10440 20078 39948 40072 82030 333 0//00 59007 82363;EQDQ01  00002PRCP99
0220614980999992000051818004+16630-011400FM-12+0115GQNF V0209999C000012200019N0100001N1+04601+01181100261ADDAA199000091GA1041+015009089GF104991041021017501001001KA1120M+04681MA1999999099011MD1999999-0191REMSYN094AAXX  18184 61498 33760 40000 10460 20118 39901 40026 84200 333 10468 59019 84850 94919 95879;EQDQ01  00002PRCP99
0159614980999992000051821004+16630-011400FM-12+0115GQNF V0209999C000010390019N0100001N1+04101+01021100351ADDGA1051+039009079GF105991051001999999071001MA1999999099101MD1999999+0101REMSYN076AAXX  18214 61498 43960 50000 10410 20102 39910 40035 85070 333 58010 85363;
0195614980999992000051912004+16630-011400FM-12+0115GQNF V0200401N005112200019N0070001N1+04401+00781100461ADDAA199000091GA1001+999999999GF100991001001999999001001MA1999999099221MD1999999-0261MW1051REMSYN076AAXX  19124 61498 31957 00410 10440 20078 39922 40046 705// 333 0//00 59026;EQDQ01  00002PRCP99
0232614980999992000051918004+16630-011400FM-12+0115GQNF V0201801N002612200019N0080001N1+04551+00521100361ADDAA199000091GA1021+012009089GF102991021021012501001001KA1120M+04641MA1999999098751MD1999999-0191MW1051REMSYN100AAXX  19184 61498 31658 21805 10455 20052 39875 40036 705// 82200 333 10464 59019 82840 94929 95879;EQDQ01  00002PRCP99
0212614980999992000052006004+16630-011400FM-12+0115GQNF V0201801N003112200019N0080001N1+03401+01161100231ADDAA199000091GA1001+999999999GF100991001001999999001001KA1120N+03401MA1999999098891MW1051REMSYN094AAXX  20064 61498 31958 01806 10340 20116 39889 40023 705// 333 0//00 20340 51444 55/// 59022;EQDQ01  00002PRCP99
0207614980999992000052012004+16630-011400FM-12+0115GQNF V0201801N007212200019N0010001N1+04101+00401100591ADDAA199000091GA1021+039009079GF102991021001999999031001MA1999999099341MD1999999+0121MW1071REMSYN088AAXX  20124 61498 31910 21814 10410 20040 39934 40059 707// 82030 333 0//00 58012 82363;EQDQ01  00002PRCP99
0159614980999992000052015004+16630-011400FM-12+0115GQNF V0202201N003612200019N0050001N1+04371+00671100411ADDGA1001+999999999GF100991001001999999001001MA1999999099171MD1999999+0221MW1061REMSYN070AAXX  20154 61498 41950 02207 10437 20067 39917 40041 706// 333 58022;
0220614980999992000052018004+16630-011400FM-12+0115GQNF V0202201N004112200019N0050001N1+04171+00661100351ADDAA199000091GA1031+039009079GF103991031001999999031001KA1120M+04411MA1999999099101MD1999999+0281MW1051REMSYN088AAXX  20184 61498 31950 32208 10417 20066 39910 40035 705// 83030 333 10441 58028 83363;EQDQ01  00002PRCP99
0159614980999992000052021004+16630-011400FM-12+0115GQNF V0202201N008212200019N0060001N1+03851+00721100461ADDGA1001+999999999GF100991001001999999001001MA1999999099221MD1999999+0371MW1051REMSYN070AAXX  20214 61498 41956 02216 10385 20072 39922 40046 705// 333 58037;
0222614980999992000052109004+16630-011400FM-12+0115GQNF V0202201N003112200019N0040001N1+03441+00801100711ADDAY101031AY201031GA1071+039009079GF199999999001999999001021MA1999999099451MD1999999+0181MW1051REMSYN082AAXX  21094 61498 41940 42206 10344 20080 39945 40071 70500 80002 333 58018 87363;EQDQ01+000042SCOTCVQ02+000002SCOTLC
0207614980999992000052112004+16630-011400FM-12+0115GQNF V0202201N003110390019N0040001N1+03901+00921100761ADDAA199000091GA1051+039009079GF105991051001999999071001MA1999999099501MD1999999+0061MW1051REMSYN088AAXX  21124 61498 31940 52206 10390 20092 39950 40076 705// 85070 333 0//00 58006 85363;EQDQ01  00002PRCP99
0171614980999992000052115004+16630-011400FM-12+0115GQNF V0202201N004110390019N0040001N1+04101+01021100711ADDGA1051+039009079GF105991051001999999031001MA1999999099451MD1999999+0281MW1061REMSYN082AAXX  21154 61498 41940 52208 10410 20102 39945 40071 706// 85030 333 58028 85363;
0226614980999992000052118004+16630-011400FM-12+0115GQNF V0200801N003119999999N0050001N1+04051+01041100501ADDAA199000091GA1031+039009039GF107991031001999999031011KA1120M+04201MA1999999099241MD1999999+0141MW1051REMSYN094AAXX  21184 61498 31950 70806 10405 20104 39924 40050 705// 83031 333 10420 58014 83363 84073;EQDQ01  00002PRCP99
0222614980999992000052206004+16630-011400FM-12+0115GQNF V0202601N004612200019N0070001N1+03101+00481100791ADDAA199000091GF102991001001999999001011KA1120N+03101MA1999999099521MD1999999+0201MW1051REMSYN106AAXX  22064 61498 31957 22609 10310 20048 39952 40079 705// 80001 333 0//00 20310 51004 55/// 58020 82073;EQDQ01  00002PRCP99
0207614980999992000052212004+16630-011400FM-12+0115GQNF V0202601N003110690019N0040001N1+03901+01091101011ADDAA199000091GA1061+069009019GF106991001001999999001021MA1999999099761MD1999999+0251MW1051REMSYN088AAXX  22124 61498 31940 62606 10390 20109 39976 40101 705// 80002 333 0//00 58025 86073;EQDQ01  00002PRCP99
0210614980999992000052306004+16630-011400FM-12+0115GQNF V0201801N003119999999N0100001N1+03221+00901101141ADDAA199000091GF108991081001999999071999KA1120N+03221MA1999999099871MD1999999+0351REMSYN100AAXX  23064 61498 33960 81806 10322 20090 39987 40114 8807/ 333 0//00 20322 51104 55/// 58035 88363;EQDQ01  00002PRCP99
0208614980999992000052318004+16630-011400FM-12+0115GQNF V0209999C000010390019N0100001N1+04001+01081100931ADDAA199000091GA1071+039009079GF107991071001999999031999KA1120M+04101MA1999999099701MD1999999+0111REMSYN082AAXX  23184 61498 33960 70000 10400 20108 39970 40093 8703/ 333 10410 58011 87363;EQDQ01  00002PRCP99
0210614980999992000052406004+16630-011400FM-12+0115GQNF V0200401N003112200019N0100001N1+03301+01081100911ADDAA199000091GF103991031001999999031001KA1120N+03301MA1999999099651MD1999999-0221REMSYN100AAXX  24064 61498 33960 30406 10330 20108 39965 40091 83030 333 0//00 20330 50904 55/// 59022 83363;EQDQ01  00002PRCP99
0175614980999992000052409004+16630-011400FM-12+0115GQNF V0200401N008212200019N0015001N1+03541+01141101151ADDAY101031AY201031GA1001+999999999GF100991001001999999001001MA1999999099881MD1999999-0071MW1071REMSYN070AAXX  24094 61498 41915 00416 10354 20114 39988 40115 70700 333 59007;
0211614980999992000052412004+16630-011400FM-12+0115GQNF V0200401N007212200019N0010001N1+04021+01201100122ADDAA199000091GA1001+999999999GF100991001001999999001001MA1999999099851MD1999999-0131MW1071REMSYN076AAXX  24124 61498 31910 00414 10402 20120 39985 40012 707// 333 0//00 59013;EQDQ01+100123APOSLPQ02  00002PRCP99
0208614980999992000052418004+16630-011400FM-12+0115GQNF V0200201N004612200019N0020001N1+04201+01231100701ADDAA199000091GA1001+999999999GF100991001001999999001001KA1120M+04351MA1999999099441MD1999999-0221MW1051REMSYN076AAXX  24184 61498 31920 00209 10420 20123 39944 40070 705// 333 10435 59022;EQDQ01  00002PRCP99
0207614980999992000052512004+16630-011400FM-12+0115GQNF V0200401N002110690019N0025001N1+03841+00731101011ADDAA199000091GA1051+069009019GF107991001001999999001021MA1999999099851MD1999999+0001MW1051REMSYN088AAXX  25124 61498 31925 70404 10384 20073 39985 40101 705// 80002 333 0//00 58000 85073;EQDQ01  00002PRCP99
0175614980999992000052515004+16630-011400FM-12+0115GQNF V0200401N002610690019N0070001N1+04201+00951100801ADDGA1061+069009019GF106991001001999999001021MD1999999+0011MW1051REMSYN082AAXX  25154 61498 41957 60405 10420 20095 39755 40080 705// 80002 333 58001 86073;EQDQ01+097553APOSP 
0220614980999992000052518004+16630-011400FM-12+0115GQNF V0200401N003612200019N0070001N1+04151+00881100701ADDAA199000091GA1031+069009019GF103991001001999999001011KA1120M+04231MA1999999099441MD1999999+0001MW1051REMSYN088AAXX  25184 61498 31957 30407 10415 20088 39944 40070 705// 80001 333 10423 58000 83073;EQDQ01  00002PRCP99
0212614980999992000052606004+16630-011400FM-12+0115GQNF V0200401N004112200019N0080001N1+03041+00521100771ADDAA199000091GA1001+999999999GF100991001001999999001001KA1120N+03001MA1999999098511MW1051REMSYN094AAXX  26064 61498 31958 00408 10304 20052 39851 40077 705// 333 0//00 20300 51194 55/// 59013;EQDQ01  00002PRCP99
0194614980999992000052609004+16630-011400FM-12+0115GQNF V0200401N004112200019N0060001N1+03441+00321101041ADDAY101031AY201031GA1001+999999999GF100991001001999999001001MA1999999099772MD1999999-0031MW1051REMSYN070AAXX  26094 61498 41956 00408 10344 20032 39977 40104 70500 333 59003;EQDQ01+099773APOSP 
0183614980999992000052612004+16630-011400FM-12+0115GQNF V0200601N004112200019N0100001N1+04051+00441100991ADDAA199000091GA1001+999999999GF100991001001999999001001MA1999999099731MD1999999-0121REMSYN070AAXX  26124 61498 33960 00608 10405 20044 39973 40099 333 0//00 59012;EQDQ01  00002PRCP99
0196614980999992000052618004+16630-011400FM-12+0115GQNF V0209999C000012200019N0100001N1+04301+00981100601ADDAA199000091GA1001+999999999GF100991001001999999001001KA1120M+04451MA1999999099341MD1999999-0101REMSYN070AAXX  26184 61498 33960 00000 10430 20098 39934 40060 333 10445 59010;EQDQ01  00002PRCP99
0147614980999992000052621004+16630-011400FM-12+0115GQNF V0209999C000012200019N0100001N1+03851+00791100671ADDGA1001+999999999GF100991001001999999001001MA1999999099411MD1999999-0091REMSYN064AAXX  26214 61498 43960 00000 10385 20079 39941 40067 333 59009;
0183614980999992000052712004+16630-011400FM-12+0115GQNF V0201801N002612200019N0100001N1+04001+01001100841ADDAA199000091GA1001+999999999GF100991001001999999001001MA1999999099581MD1999999-0151REMSYN070AAXX  27124 61498 32960 01805 10400 20100 39958 40084 333 0//00 59015;EQDQ01  00002PRCP99
0147614980999992000052715004+16630-011400FM-12+0115GQNF V0209999C000012200019N0100001N1+04321+00981100591ADDGA1001+999999999GF100991001001999999001001MA1999999099331MD1999999-0131REMSYN064AAXX  27154 61498 43960 00000 10432 20098 39933 40059 333 59013;
0196614980999992000052718004+16630-011400FM-12+0115GQNF V0209999C000012200019N0100001N1+04201+00951100451ADDAA199000091GA1001+999999999GF100991001001999999001001KA1120M+04351MA1999999099191MD1999999-0151REMSYN070AAXX  27184 61498 33960 00000 10420 20095 39919 40045 333 10435 59015;EQDQ01  00002PRCP99
0147614980999992000052809004+16630-011400FM-12+0115GQNF V0209999C000012200019N0100001N1+03501+01021100831ADDGA1001+999999999GF100991001001999999001001MA1999999099571MD1999999-0011REMSYN064AAXX  28094 61498 42960 00000 10350 20102 39957 40083 333 59001;
0183614980999992000052812004+16630-011400FM-12+0115GQNF V0200401N002112200019N0100001N1+04201+01101100841ADDAA199000091GA1001+999999999GF100991001001999999001001MA1999999099591MD1999999+0011REMSYN070AAXX  28124 61498 33960 00404 10420 20110 39959 40084 333 0//00 58001;EQDQ01  00002PRCP99
0208614980999992000052818004+16630-011400FM-12+0115GQNF V0200601N002112200019N0060001N1+04351+00251100451ADDAA199000091GA1001+999999999GF100991001001999999001001KA1120M+04501MA1999999099191MD1999999+0001MW1051REMSYN076AAXX  28184 61498 31956 00604 10435 20025 39919 40045 705// 333 10450 58000;EQDQ01  00002PRCP99
0175614980999992000052909004+16630-011400FM-12+0115GQNF V0201401N006212200019N0030001N1+03461+01261100961ADDAY101031AY201031GA1001+999999999GF100991001001999999001001MA1999999099701MD1999999+0131MW1061REMSYN070AAXX  29094 61498 41930 01412 10346 20126 39970 40096 70600 333 58013;
0195614980999992000052912004+16630-011400FM-12+0115GQNF V0200801N002112200019N0070001N1+03961+01091100941ADDAA199000091GA1001+999999999GF100991001001999999001001MA1999999099681MD1999999+0091MW1051REMSYN076AAXX  29124 61498 31957 00804 10396 20109 39968 40094 705// 333 0//00 58009;EQDQ01  00002PRCP99
0163614980999992000052915004+16630-011400FM-12+0115GQNF V0200801N002612200019N0080001N1+04351+00661100701ADDGA1001+999999999GF100991001001999999001001MD1999999+0101MW1051REMSYN070AAXX  29154 61498 41958 00805 10435 20066 39444 40070 705// 333 58010;EQDQ01+094443APOSP 
0196614980999992000052918004+16630-011400FM-12+0115GQNF V0200401N003112200019N0100001N1+04281+00031100561ADDAA199000091GA1001+999999999GF100991001001999999001001KA1120M+04401MA1999999099301MD1999999+0111REMSYN070AAXX  29184 61498 33960 00406 10428 20003 39930 40056 333 10440 58011;EQDQ01  00002PRCP99
0194614980999992000053006004+16630-011400FM-12+0115GQNF V0209999C000012200019N0100001N1+02701+00301100681ADDAA199000091GA1001+999999999GF100991001001999999001001KA1120N+02701MA1999999099411REMSYN082AAXX  30064 61498 33960 00000 10270 20030 39941 40068 333 0//00 20270 51704 55///;EQDQ01  00002PRCP99
0147614980999992000053009004+16630-011400FM-12+0115GQNF V0200401N003112200019N0100001N1+03401+00051100971ADDGA1001+999999999GF100991001001999999001001MA1999999099701MD1999999+0001REMSYN064AAXX  30094 61498 42960 00406 10340 20005 39970 40097 333 58000;
0195614980999992000053012004+16630-011400FM-12+0115GQNF V0200401N008212200019N0010001N1+04161-00151101111ADDAA199000091GA1001+999999999GF100991001001999999001001MA1999999099751MD1999999-0071MW1071REMSYN076AAXX  30124 61498 31910 00416 10416 21015 39975 40111 707// 333 0//00 59007;EQDQ01  00002PRCP99
0145614980999992000053015004+16630-011400FM-12+0115GQNF V0200801N004112200019N0050001N1+04421+00291100671ADDGA1001+999999999GF100991001001999999001001MA1999999099411MW1051REMSYN070AAXX  30154 61498 41950 00808 10442 20029 39941 40067 705// 333 59///;
0208614980999992000053018004+16630-011400FM-12+0115GQNF V0200201N003112200019N0060001N1+04271+00051100591ADDAA199000091GA1001+999999999GF100991001001999999001001KA1120M+04421MA1999999099301MD1999999+0001MW1051REMSYN076AAXX  30184 61498 31956 00206 10427 20005 39930 40059 705// 333 10442 58000;EQDQ01  00002PRCP99
0200614980999992000053106004+16630-011400FM-12+0115GQNF V0209999C000012200019N0100001N1+02861+00281100711ADDAA199000091GA1001+999999999GF100991001001999999001001KA1120N+02861MA1999999099451REMSYN088AAXX  31064 61498 33960 00000 10286 20028 39945 40071 333 0//00 20286 51124 55/// 58004;EQDQ01  00002PRCP99
0147614980999992000053109004+16630-011400FM-12+0115GQNF V0200401N002112200019N0100001N1+03441+00471100731ADDGA1001+999999999GF100991001001999999001001MA1999999099471MD1999999-0231REMSYN064AAXX  31094 61498 42960 00404 10344 20047 39947 40073 333 59023;
0195614980999992000053112004+16630-011400FM-12+0115GQNF V0200401N003112200019N0060001N1+04301-00191100751ADDAA199000091GA1001+999999999GF100991001001999999001001MA1999999099501MD1999999-0251MW1051REMSYN076AAXX  31124 61498 31956 00406 10430 21019 39950 40075 705// 333 0//00 59025;EQDQ01  00002PRCP99
0159614980999992000053115004+16630-011400FM-12+0115GQNF V0209999C000012200019N0080001N1+04501-00071100521ADDGA1001+999999999GF100991001001999999001001MA1999999099271MD1999999-0141MW1051REMSYN070AAXX  31154 61498 41958 00000 10450 21007 39927 40052 705// 333 59014;
0208614980999992000053118004+16630-011400FM-12+0115GQNF V0209999C000012200019N0080001N1+04421+00531100391ADDAA199000091GA1001+999999999GF100991001001999999001001KA1120M+04551MA1999999099131MD1999999-0171MW1051REMSYN076AAXX  31184 61498 31958 00000 10442 20053 39913 40039 705// 333 10455 59017;EQDQ01  00002PRCP99
0222614980999992000060106004+16630-011400FM-12+0115GQNF V0209999C000012200019N0060001N1+03141+00381100531ADDAA199000091GF103991031001999999031001KA1120N+03141MA1999999099281MD1999999-0171MW1051REMSYN106AAXX  01064 61498 31956 30000 10314 20038 39928 40053 705// 83030 333 0//00 20314 51024 55/// 59017 83363;EQDQ01  00002PRCP99
0187614980999992000060109004+16630-011400FM-12+0115GQNF V0202201N006212200019N0050001N1+03521+01211100861ADDAY101031AY201031GA1031+039009079GF103991031001999999031001MA1999999099601MD1999999+0131MW1061REMSYN082AAXX  01094 61498 41950 32212 10352 20121 39960 40086 70600 83030 333 58013 83363;
0195614980999992000060112004+16630-011400FM-12+0115GQNF V0202201N003112200019N0050001N1+04061+01371100931ADDAA199000091GA1001+999999999GF100991001001999999001001MA1999999099671MD1999999+0171MW1051REMSYN076AAXX  01124 61498 31950 02206 10406 20137 39967 40093 705// 333 0//00 58017;EQDQ01  00002PRCP99
0212614980999992000060206004+16630-011400FM-12+0115GQNF V0203201N008212200019N0010001N1+03361+01441100911ADDAA199000091GA1001+999999999GF100991001001999999001001KA1120N+03361MA1999999099581MW1071REMSYN094AAXX  02064 61498 31910 03216 10336 20144 39958 40091 707// 333 0//00 20336 51014 55/// 58027;EQDQ01  00002PRCP99
0175614980999992000060209004+16630-011400FM-12+0115GQNF V0202601N006712200019N0012001N1+03261+01021101011ADDAY101031AY201031GA1001+999999999GF100991001001999999001001MA1999999099751MD1999999+0151MW1061REMSYN070AAXX  02094 61498 41912 02613 10326 20102 39975 40101 70600 333 58015;
0195614980999992000060212004+16630-011400FM-12+0115GQNF V0202801N006212200019N0050001N1+03751+01221100961ADDAA199000091GA1001+999999999GF100991001001999999001001MA1999999099701MD1999999+0031MW1061REMSYN076AAXX  02124 61498 31950 02812 10375 20122 39970 40096 706// 333 0//00 58003;EQDQ01  00002PRCP99
0171614980999992000060215004+16630-011400FM-12+0115GQNF V0202801N003112200019N0050001N1+04231+01131100681ADDGA1021+039009079GF102991021001999999031001MA1999999099431MD1999999+0041MW1051REMSYN082AAXX  02154 61498 41950 22806 10423 20113 39943 40068 705// 82030 333 58004 82363;
0208614980999992000060218004+16630-011400FM-12+0115GQNF V0203401N003112200019N0040001N1+04251+01141100491ADDAA199000091GA1001+999999999GF100991001001999999001001KA1120M+04321MA1999999099241MD1999999-0041MW1051REMSYN076AAXX  02184 61498 31940 03406 10425 20114 39924 40049 705// 333 10432 59004;EQDQ01  00002PRCP99
0222614980999992000060306004+16630-011400FM-12+0115GQNF V0202201N003112200019N0070001N1+03101+01081100551ADDAA199000091GF103991031001999999031001KA1120N+03101MA1999999099291MD1999999-0261MW1051REMSYN106AAXX  03064 61498 31957 32206 10310 20108 39929 40055 705// 83030 333 0//00 20310 51244 55/// 59026 83363;EQDQ01  00002PRCP99
0175614980999992000060309004+16630-011400FM-12+0115GQNF V0202201N006212200019N0040001N1+03461+00651100791ADDAY101031AY201031GA1001+999999999GF100991001001999999001001MA1999999099531MD1999999+0201MW1061REMSYN070AAXX  03094 61498 41940 02212 10346 20065 39953 40079 70600 333 58020;
0159614980999992000060315004+16630-011400FM-12+0115GQNF V0202801N003612200019N0080001N1+04301+00851100521ADDGA1001+999999999GF100991001001999999001001MA1999999099271MD1999999-0161MW1051REMSYN070AAXX  03154 61498 41958 02807 10430 20085 39927 40052 705// 333 59016;
0207614980999992000060412004+16630-011400FM-12+0115GQNF V0202801N003110390019N0040001N1+03761+01461100731ADDAA199000091GA1051+039009079GF105991051001999999031001MA1999999099471MD1999999-0071MW1051REMSYN088AAXX  04124 61498 31940 52806 10376 20146 39947 40073 705// 85030 333 0//00 59007 85363;EQDQ01  00002PRCP99
0159614980999992000060415004+16630-011400FM-12+0115GQNF V0202801N002612200019N0080001N1+04081+01281100631ADDGA1001+999999999GF100991001001999999001001MA1999999099371MD1999999+0101MW1051REMSYN070AAXX  04154 61498 41958 02805 10408 20128 39937 40063 705// 333 58010;
0208614980999992000060418004+16630-011400FM-12+0115GQNF V0202801N002612200019N0080001N1+04001+01111100511ADDAA199000091GA1001+999999999GF100991001001999999001001KA1120M+04081MA1999999099251MD1999999+0061MW1051REMSYN076AAXX  04184 61498 31958 02805 10400 20111 39925 40051 705// 333 10408 58006;EQDQ01  00002PRCP99
0222614980999992000060506004+16630-011400FM-12+0115GQNF V0200801N002119999999N0080001N1+03241+00461100601ADDAA199000091GF106991061001999999031001KA1120N+03241MA1999999099341MD1999999+0001MW1051REMSYN106AAXX  05064 61498 31958 60804 10324 20046 39934 40060 705// 86030 333 0//00 20324 51284 55/// 58000 86363;EQDQ01  00002PRCP99
0207614980999992000060512004+16630-011400FM-12+0115GQNF V0203201N004110390019N0080001N1+03861+00091100931ADDAA199000091GA1051+039009079GF105991051001999999031001MA1999999099701MD1999999-0191MW1051REMSYN088AAXX  05124 61498 31958 53208 10386 20009 39970 40093 705// 85030 333 0//00 59019 85363;EQDQ01  00002PRCP99
0159614980999992000060515004+16630-011400FM-12+0115GQNF V0200801N004112200019N0080001N1+04201+00551100741ADDGA1001+999999999GF100991001001999999001001MA1999999099481MD1999999+0111MW1051REMSYN070AAXX  05154 61498 41958 00808 10420 20055 39948 40074 705// 333 58011;
0147614980999992000060609004+16630-011400FM-12+0115GQNF V0203201N003112200019N0100001N1+03361+00701100941ADDGA1001+999999999GF100991001001999999001001MA1999999099671MD1999999+0041REMSYN064AAXX  06094 61498 42960 03206 10336 20070 39967 40094 333 58004;
0183614980999992000060612004+16630-011400FM-12+0115GQNF V0202801N003612200019N0100001N1+03931+00691100981ADDAA199000091GA1001+999999999GF100991001001999999001001MA1999999099721MD1999999+0061REMSYN070AAXX  06124 61498 33960 02807 10393 20069 39972 40098 333 0//00 58006;EQDQ01  00002PRCP99
0163614980999992000060615004+16630-011400FM-12+0115GQNF V0202801N002112200019N0050001N1+04351+00651100641ADDGA1001+999999999GF100991001001999999001001MD1999999+0001MW1051REMSYN070AAXX  06154 61498 41950 02804 10435 20065 39822 40064 705// 333 58000;EQDQ01+098223APOSP 
0208614980999992000060618004+16630-011400FM-12+0115GQNF V0202601N002612200019N0100001N1+04151+00291100641ADDAA199000091GA1011+069009019GF101991001001999999001011KA1120M+04251MA1999999099381MD1999999-0041REMSYN082AAXX  06184 61498 33960 12605 10415 20029 39938 40064 80001 333 10425 59004 81073;EQDQ01  00002PRCP99
0203614980999992000060706004+16630-011400FM-12+0115GQNF V0203201N003112200019N0080001N1+03101+00501100741ADDAA199000091GF104991041001999999031001MA1999999099481MD1999999-0091MW1051REMSYN100AAXX  07064 61498 31958 43206 10310 20050 39948 40074 705// 84030 333 0//00 51074 55/// 59009 84363;EQDQ01  00002PRCP99
0187614980999992000060709004+16630-011400FM-12+0115GQNF V0202801N004612200019N0040001N1+03231+01111100981ADDAY101031AY201031GA1011+069009019GF102991001001999999001011MA1999999099711MD1999999+0041MW1061REMSYN082AAXX  07094 61498 41940 22809 10323 20111 39971 40098 70600 80001 333 58004 81073;
0183614980999992000060712004+16630-011400FM-12+0115GQNF V0202801N003112200019N0100001N1+03961+00961100941ADDAA199000091GA1001+999999999GF100991001001999999001001MA1999999099701MD1999999-0041REMSYN070AAXX  07124 61498 33960 02806 10396 20096 39970 40094 333 0//00 59004;EQDQ01  00002PRCP99
0175614980999992000060809004+16630-011400FM-12+0115GQNF V0201801N002112200019N0020001N1+03341+00841100731ADDAY101031AY201031GA1001+999999999GF100991001001999999001001MA1999999092501MD1999999-0211MW1051REMSYN070AAXX  08094 61498 41920 01804 10334 20084 39250 40073 70500 333 59021;
0178614980999992000060815004+16630-011400FM-12+0115GQNF V0202801N005112200019N0050001N1+04271+00711100611ADDGA1001+999999999GF100991001001999999001001MA1999999099352MD1999999-0021MW1051REMSYN070AAXX  08154 61498 41950 02810 10427 20071 39935 40061 705// 333 59002;EQDQ01+099353APOSP 
0220614980999992000060818004+16630-011400FM-12+0115GQNF V0201801N001512200019N0060001N1+04201+00981100571ADDAA199000091GA1041+069009019GF104991001001999999001011KA1120M+04301MA1999999099311MD1999999+0101MW1051REMSYN088AAXX  08184 61498 31956 41803 10420 20098 39931 40057 705// 80001 333 10430 58010 84073;EQDQ01  00002PRCP99
0195614980999992000060912004+16630-011400FM-12+0115GQNF V0202801N003112200019N0100001N1+03851+01361101091ADDAA199000091GA1021+039009079GF102991021001999999031001MA1999999099821MD1999999+0341REMSYN082AAXX  09124 61498 33960 22806 10385 20136 39982 40109 82030 333 0//00 58034 82363;EQDQ01  00002PRCP99
0159614980999992000060915004+16630-011400FM-12+0115GQNF V0209999C000012200019N0100001N1+04201+01291100891ADDGA1011+069009019GF101991001001999999001011MA1999999099631MD1999999+0281REMSYN076AAXX  09154 61498 43960 10000 10420 20129 39963 40089 80001 333 58028 81073;
0208614980999992000060918004+16630-011400FM-12+0115GQNF V0209999C000012200019N0100001N1+04171+01211100781ADDAA199000091GA1011+069009019GF101991001001999999001011KA1120M+04251MA1999999099511MD1999999+0201REMSYN082AAXX  09184 61498 33960 10000 10417 20121 39951 40078 80001 333 10425 58020 81073;EQDQ01  00002PRCP99
0159614980999992000060921004+16630-011400FM-12+0115GQNF V0209999C000012200019N0100001N1+03851+01271100881ADDGA1041+069009019GF104991001001999999001011MA1999999099611MD1999999+0211REMSYN076AAXX  09214 61498 43960 40000 10385 20127 39961 40088 80001 333 58021 84073;
0222614980999992000061006004+16630-011400FM-12+0115GQNF V0202801N006219999999N0060001N1+03101+01901101251ADDAA199000091GF108991081001999999071999KA1120N+03051MA1999999099981MD1999999+0211MW1061REMSYN106AAXX  10064 61498 31956 82812 10310 20190 39998 40125 706// 8807/ 333 0//00 20305 50054 55/// 58021 88363;EQDQ01  00002PRCP99
0191614980999992000061009004+16630-011400FM-12+0115GQNF V0203201N004110390019N0040001N1+03121+01761101381ADDAY121031AY221031GA1051+039009079GF105991051001999999071001MD1999999+0131MW1051REMSYN082AAXX  10094 61498 41940 53208 10312 20176 30110 40138 70522 85070 333 58013 85363;EQDQ01+101103APOSP 
0207614980999992000061012004+16630-011400FM-12+0115GQNF V0202801N005110690019N0050001N1+03701+01641101131ADDAA199000091GA1061+069009019GF106991001001999999001021MA1999999099891MD1999999+0071MW1051REMSYN088AAXX  10124 61498 31950 62810 10370 20164 39989 40113 705// 80002 333 0//00 58007 86073;EQDQ01  00002PRCP99
0215614980999992000061106004+16630-011400FM-12+0115GQNF V0202801N002112200019N0060001N1+03081+01551100851ADDAA124001091AC13I9GF104991041001999999031001KA1120N+03061MA1999999099581MD1999999-0401MW1051REMSYN112AAXX  11064 61498 11956 42804 10308 20155 39958 40085 60014 705// 84030 333 0//18 20306 50904 55/// 59040 84363;
0187614980999992000061109004+16630-011400FM-12+0115GQNF V0202201N004112200019N0080001N1+03421+01561101001ADDAY101031AY201031GA1041+039009079GF104991041001999999031001MA1999999099731MD1999999-0371MW1051REMSYN082AAXX  11094 61498 41958 42208 10342 20156 39973 40100 70500 84030 333 59037 84363;
0195614980999992000061112004+16630-011400FM-12+0115GQNF V0203601N002112200019N0080001N1+04301+01461100891ADDAA199000091GA1001+999999999GF100991001001999999001001MA1999999099611MD1999999-0281MW1051REMSYN076AAXX  11124 61498 31958 03604 10430 20146 39961 40089 705// 333 0//00 59028;EQDQ01  00002PRCP99
0232614980999992000061118004+16630-011400FM-12+0115GQNF V0209999C000012200019N0060001N1+04551+00921100351ADDAA199000091GA1031+015009089GF103991031021999999001001KA1120M+04681MA1999999099101MD1999999-0421MW1051REMSYN100AAXX  11184 61498 31956 30000 10455 20092 39910 40035 705// 83200 333 10468 59042 83850 94939 95879;EQDQ01  00002PRCP99
0195614980999992000061212004+16630-011400FM-12+0115GQNF V0202201N004112200019N0070001N1+04001+00371100881ADDAA199000091GA1001+999999999GF100991001001999999001001MA1999999099631MD1999999+0021MW1051REMSYN076AAXX  12124 61498 31957 02208 10400 20037 39963 40088 705// 333 0//00 58002;EQDQ01  00002PRCP99
0159614980999992000061215004+16630-011400FM-12+0115GQNF V0202201N003612200019N0080001N1+04301+01311100691ADDGA1001+999999999GF100991001001999999001001MA1999999099441MD1999999+0131MW1051REMSYN070AAXX  12154 61498 41958 02207 10430 20131 39944 40069 705// 333 58013;
0208614980999992000061218004+16630-011400FM-12+0115GQNF V0202601N004112200019N0080001N1+04221+01351100631ADDAA199000091GA1001+999999999GF100991001001999999001001KA1120M+04301MA1999999099371MD1999999+0271MW1051REMSYN076AAXX  12184 61498 31958 02608 10422 20135 39937 40063 705// 333 10430 58027;EQDQ01  00002PRCP99
0159614980999992000061315004+16630-011400FM-12+0115GQNF V0203001N002612200019N0080001N1+04621+01271100811ADDGA1001+999999999GF100991001001999999001001MA1999999099561MD1999999+0121MW1051REMSYN070AAXX  13154 61498 41958 03005 10462 20127 39956 40081 705// 333 58012;
0208614980999992000061318004+16630-011400FM-12+0115GQNF V0202801N003112200019N0080001N1+04071+01491100771ADDAA199000091GA1001+999999999GF100991001001999999001001KA1120M+04201MA1999999099501MD1999999+0131MW1051REMSYN076AAXX  13184 61498 31958 02806 10407 20149 39950 40077 705// 333 10420 58013;EQDQ01  00002PRCP99
0212614980999992000061406004+16630-011390FM-12+0115GQNF V0209999C000012200019N0040001N1+03101+01781100961ADDAA199000091GA1001+999999999GF100991001001999999001001KA1120N+03061MA1999999099701MW1051REMSYN094AAXX  14064 61498 31940 00000 10310 20178 39970 40096 705// 333 0//00 20306 50804 55/// 58019;EQDQ01  00002PRCP99
0175614980999992000061409004+16630-011390FM-12+0115GQNF V0202601N003112200019N0040001N1+03221+01451101051ADDAY101031AY201031GA1001+999999999GF100991001001999999001001MA1999999099771MD1999999-0101MW1051REMSYN070AAXX  14094 61498 41940 02606 10322 20145 39977 40105 70500 333 59010;
0195614980999992000061412004+16630-011390FM-12+0115GQNF V0203201N003612200019N0040001N1+03901+01221100971ADDAA199000091GA1001+999999999GF100991001001999999001001MA1999999099701MD1999999-0101MW1061REMSYN076AAXX  14124 61498 31940 03207 10390 20122 39970 40097 706// 333 0//00 59010;EQDQ01  00002PRCP99
0159614980999992000061415004+16630-011390FM-12+0115GQNF V0202801N002112200019N0060001N1+04251+01251100721ADDGA1001+999999999GF100991001001999999001001MA1999999099461MD1999999-0101MW1051REMSYN070AAXX  14154 61498 41956 02804 10425 20125 39946 40072 705// 333 59010;
0195614980999992000061512004+16630-011390FM-12+0115GQNF V0202201N003112200019N0080001N1+04061+01381100791ADDAA199000091GA1001+999999999GF100991001001999999001001MA1999999099531MD1999999-0141MW1051REMSYN076AAXX  15124 61498 31958 02206 10406 20138 39953 40079 705// 333 0//00 59014;EQDQ01  00002PRCP99
0220614980999992000061518004+16630-011390FM-12+0115GQNF V0209999C000012200019N0080001N1+04321+00881100361ADDAA199000091GA1021+069009019GF102991001001999999001011KA1120M+04451MA1999999099111MD1999999-0161MW1051REMSYN088AAXX  15184 61498 31958 20000 10432 20088 39911 40036 705// 80001 333 10445 59016 82073;EQDQ01  00002PRCP99
0171614980999992000061521004+16630-011390FM-12+0115GQNF V0202201N002610690019N0080001N1+04001+01271100501ADDGA1051+069009019GF105991001001999999001011MA1999999099241MD1999999-0101MW1051REMSYN082AAXX  15214 61498 41958 52205 10400 20127 39924 40050 705// 80001 333 59010 85073;
0195614980999992000061612004+16630-011390FM-12+0115GQNF V0209999C000012200019N0080001N1+04151+01411100701ADDAA199000091GA1001+999999999GF100991001001999999001001MA1999999099451MD1999999-0081MW1051REMSYN076AAXX  16124 61498 31958 00000 10415 20141 39945 40070 705// 333 0//00 59008;EQDQ01  00002PRCP99
0208614980999992000061618004+16630-011390FM-12+0115GQNF V0202801N002612200019N0080001N1+04321+01241100301ADDAA199000091GA1001+999999999GF100991001001999999001001KA1120M+04551MA1999999099051MD1999999-0061MW1051REMSYN076AAXX  16184 61498 31958 02805 10432 20124 39905 40030 705// 333 10455 59006;EQDQ01  00002PRCP99
0195614980999992000061712004+16630-011390FM-12+0115GQNF V0202201N007212200019N0020001N1+03741+01691100851ADDAA199000091GA1001+999999999GF100991001001999999001001MA1999999099601MD1999999+0151MW1071REMSYN076AAXX  17124 61498 31920 02214 10374 20169 39960 40085 707// 333 0//00 58015;EQDQ01  00002PRCP99
0159614980999992000061715004+16630-011390FM-12+0115GQNF V0200801N001512200019N0060001N1+04181+01361100711ADDGA1001+999999999GF100991001001999999001001MA1999999099451MD1999999+0201MW1051REMSYN070AAXX  17154 61498 41956 00803 10418 20136 39945 40071 705// 333 58020;
0208614980999992000061718004+16630-011390FM-12+0115GQNF V0202601N003112200019N0060001N1+04041+01211100661ADDAA199000091GA1001+999999999GF100991001001999999001001KA1120M+04181MA1999999099301MD1999999+0351MW1051REMSYN076AAXX  17184 61498 31956 02606 10404 20121 39930 40066 705// 333 10418 58035;EQDQ01  00002PRCP99
0171614980999992000061721004+16630-011390FM-12+0115GQNF V0202801N003110690019N0060001N1+03731+01241100731ADDGA1061+069009019GF106991001001999999001011MA1999999099471MD1999999+0441MW1051REMSYN082AAXX  17214 61498 41956 62806 10373 20124 39947 40073 705// 80001 333 58044 86073;
0195614980999992000061812004+16630-011390FM-12+0115GQNF V0202201N004112200019N0060001N1+03681+01421100971ADDAA199000091GA1001+999999999GF100991001001999999001001MA1999999099701MD1999999+0101MW1051REMSYN076AAXX  18124 61498 31956 02208 10368 20142 39970 40097 705// 333 0//00 58010;EQDQ01  00002PRCP99
0159614980999992000061815004+16630-011390FM-12+0115GQNF V0209999C000012200019N0080001N1+04101+01451100901ADDGA1001+999999999GF100991001001999999001001MA1999999099641MD1999999+0191MW1051REMSYN070AAXX  18154 61498 43958 00000 10410 20145 39964 40090 705// 333 58019;
0208614980999992000061818004+16630-011390FM-12+0115GQNF V0209999C000012200019N0080001N1+04121+01301100681ADDAA199000091GA1001+999999999GF100991001001999999001001KA1120M+04151MA1999999099421MD1999999+0021MW1051REMSYN076AAXX  18184 61498 31958 00000 10412 20130 39942 40068 705// 333 10415 58002;EQDQ01  00002PRCP99
0195614980999992000061912004+16630-011390FM-12+0115GQNF V0202201N003112200019N0030001N1+03861+01381100861ADDAA199000091GA1001+999999999GF100991001001999999001001MA1999999099601MD1999999-0101MW1051REMSYN076AAXX  19124 61498 31930 02206 10386 20138 39960 40086 705// 333 0//00 59010;EQDQ01  00002PRCP99
0159614980999992000061915004+16630-011390FM-12+0115GQNF V0209999C000012200019N0020001N1+04401+01031100501ADDGA1001+999999999GF100991001001999999001001MA1999999099251MD1999999-0391MW1051REMSYN070AAXX  19154 61498 41920 00000 10440 20103 39925 40050 705// 333 59039;
0208614980999992000061918004+16630-011390FM-12+0115GQNF V0209999C000012200019N0020001N1+04401-00021100371ADDAA199000091GA1001+999999999GF100991001001999999001001KA1120M+04501MA1999999099121MD1999999-0301MW1051REMSYN076AAXX  19184 61498 31920 00000 10440 21002 39912 40037 705// 333 10450 59030;EQDQ01  00002PRCP99
0187614980999992000062009004+16630-011390FM-12+0115GQNF V0201801N003612200019N0060001N1+03181+01561100831ADDAY101031AY201031GA1041+039009079GF104991041001999999071001MA1999999099561MD1999999-0161MW1051REMSYN082AAXX  20094 61498 41956 41807 10318 20156 39956 40083 70500 84070 333 59016 84363;
0159614980999992000062015004+16630-011390FM-12+0115GQNF V0209999C000012200019N0080001N1+04061+01221100691ADDGA1001+999999999GF100991001001999999001001MA1999999099431MD1999999+0181MW1051REMSYN070AAXX  20154 61498 41958 00000 10406 20122 39943 40069 705// 333 58018;
0208614980999992000062018004+16630-011390FM-12+0115GQNF V0209999C000012200019N0080001N1+04161+01401100571ADDAA199000091GA1001+999999999GF100991001001999999001001KA1120M+04201MA1999999099311MD1999999+0191MW1051REMSYN076AAXX  20184 61498 31958 00000 10416 20140 39931 40057 705// 333 10420 58019;EQDQ01  00002PRCP99
0222614980999992000062106004+16630-011390FM-12+0115GQNF V0202201N004112200019N0070001N1+03281+01501999999ADDAA199000091GF103991001001999999001091KA1120N+03281MA1999999099531MD1999999-0061MW1051REMSYN106AAXX  21064 61498 31957 32208 10328 20150 39953 40/// 705// 80009 333 0//00 20328 50784 55/// 59006 83073;EQDQ01  00002PRCP99
0187614980999992000062109004+16630-011390FM-12+0115GQNF V0201801N007210390019N0015001N1+02801+00981101291ADDAY191031AY211031GA1071+039009079GF107991071001999999071999MA1999999100011MD1999999+0451MW1291REMSYN082AAXX  21094 61498 41915 71814 10280 20098 30001 40129 72991 8707/ 333 58045 87363;
0207614980999992000062112004+16630-011390FM-12+0115GQNF V0201801N004110390019N0060001N1+03441+01951101221ADDAA199000091GA1061+039009079GF106991061001999999031001MA1999999099951MD1999999+0411MW1051REMSYN088AAXX  21124 61498 31956 61808 10344 20195 39995 40122 705// 86030 333 0//00 58041 86363;EQDQ01  00002PRCP99
0207614980999992000062118004+16630-011390FM-12+0115GQNF V0202801N002112200019N0080001N1+03901+01591100741ADDAA112000891GA1021+069009019GF102991001001999999001011KA1120M+04011MA1999999099481MD1999999+0171MW1051REMSYN094AAXX  21184 61498 11958 22804 10390 20159 39948 40074 69972 705// 80001 333 10401 58017 82073;
0197614980999992000062206004+16630-011390FM-12+0115GQNF V0209999C000012200019N0100001N1+02501+01881101041ADDAA124005191GF104991041001999999031001KA1120N+02301MA1999999099761MD1999999+0331REMSYN106AAXX  22064 61498 13960 40000 10250 20188 39976 40104 60054 84030 333 0//29 20230 50704 55/// 58033 84363;
0187614980999992000062209004+16630-011390FM-12+0115GQNF V0202801N003112200019N0040001N1+02801+01881101171ADDAY101031AY201031GA1021+069009019GF102991001001999999001011MA1999999099891MD1999999-0121MW1051REMSYN082AAXX  22094 61498 41940 22806 10280 20188 39989 40117 70500 80001 333 59012 82073;
0207614980999992000062212004+16630-011390FM-12+0115GQNF V0202801N003112200019N0030001N1+03421+01861101201ADDAA199000091GA1031+069009019GF103991001001999999001011MA1999999099901MD1999999-0051MW1051REMSYN088AAXX  22124 61498 31930 32806 10342 20186 39990 40120 705// 80001 333 0//00 59005 83073;EQDQ01  00002PRCP99
0171614980999992000062215004+16630-011390FM-12+0115GQNF V0209999C000012200019N0040001N1+04001+01741100941ADDGA1011+069009019GF101991001001999999001011MA1999999099661MD1999999+0061MW1051REMSYN082AAXX  22154 61498 41940 10000 10400 20174 39966 40094 705// 80001 333 58006 81073;
0220614980999992000062218004+16630-011390FM-12+0115GQNF V0209999C000012200019N0040001N1+04101+01541100751ADDAA199000091GA1011+039009079GF101991011001999999031001KA1120M+04101MA1999999099471MD1999999-0011MW1051REMSYN088AAXX  22184 61498 31940 10000 10410 20154 39947 40075 705// 81030 333 10410 59001 81363;EQDQ01  00002PRCP99
0175614980999992000062309004+16630-011390FM-12+0115GQNF V0202801N003112200019N0060001N1+03361+01721101101ADDAY101031AY201031GA1001+999999999GF100991001001999999001001MA1999999099831MD1999999-0061MW1051REMSYN070AAXX  23094 61498 41956 02806 10336 20172 39983 40110 70500 333 59006;
0195614980999992000062312004+16630-011390FM-12+0115GQNF V0202801N002612200019N0080001N1+03831+01431101051ADDAA199000091GA1001+999999999GF100991001001999999001001MA1999999099771MD1999999-0131MW1051REMSYN076AAXX  23124 61498 31958 02805 10383 20143 39977 40105 705// 333 0//00 59013;EQDQ01  00002PRCP99
0159614980999992000062315004+16630-011390FM-12+0115GQNF V0201801N002612200019N0060001N1+04091+01191100831ADDGA1001+999999999GF100991001001999999001001MA1999999099571MD1999999-0091MW1051REMSYN070AAXX  23154 61498 41956 01805 10409 20119 39957 40083 705// 333 59009;
0208614980999992000062318004+16630-011390FM-12+0115GQNF V0201801N004112200019N0080001N1+03951+01311100731ADDAA199000091GA1001+999999999GF100991001001999999001001KA1120M+04111MA1999999099471MD1999999+0001MW1051REMSYN076AAXX  23184 61498 31958 01808 10395 20131 39947 40073 705// 333 10411 58000;EQDQ01  00002PRCP99
0159614980999992000062321004+16630-011390FM-12+0115GQNF V0202001N003112200019N0080001N1+03701+01701100801ADDGA1001+999999999GF100991001001999999001001MA1999999099531MD1999999+0071MW1051REMSYN070AAXX  23214 61498 41958 02006 10370 20170 39953 40080 705// 333 58007;
0226614980999992000062406004+16630-011390FM-12+0115GQNF V0209999C000012200019N0100001N1+03101+01881100931ADDAA199000091GF102991999001999999031001KA1120N+03101MA1999999099731MD1999999+0081REMSYN100AAXX  24064 61498 33960 20000 10310 20188 39973 40093 81030 333 0//00 20310 50924 55/// 58008 82363;EQDQ01+000012SCOTLCQ02  00002PRCP99
0187614980999992000062409004+16630-011390FM-12+0115GQNF V0202801N003112200019N0060001N1+03301+01421101001ADDAY101031AY201031GA1021+069009019GF102991001001999999001011MA1999999099761MD1999999-0071MW1051REMSYN082AAXX  24094 61498 41956 22806 1033/ 20142 39976 40100 70500 80001 333 59007 82073;
0220614980999992000062418004+16630-011390FM-12+0115GQNF V0202801N001512200019N0080001N1+03951+01431100641ADDAA199000091GA1011+039009079GF101991011001999999031001KA1120M+04081MA1999999099371MD1999999-0101MW1051REMSYN088AAXX  24184 61498 31958 12803 10395 20143 39937 40064 705// 81030 333 10408 59010 81363;EQDQ01  00002PRCP99
0212614980999992000062506004+16630-011390FM-12+0115GQNF V0202201N003112200019N0080001N1+03201+01611100791ADDAA199000091GA1001+999999999GF100991001001999999001001KA1120N+03201MA1999999099531MW1051REMSYN094AAXX  25064 61498 31958 02206 10320 20161 39953 40079 705// 333 0//00 20320 50484 55/// 59017;EQDQ01  00002PRCP99
0187614980999992000062509004+16630-011390FM-12+0115GQNF V0202201N003112200019N0060001N1+03161+01451101141ADDAY101031AY201031GA1031+039009079GF103991031001999999031001MA1999999099861MD1999999+0101MW1051REMSYN082AAXX  25094 61498 41956 32206 10316 20145 39986 40114 70500 83030 333 58010 83363;
0195614980999992000062512004+16630-011390FM-12+0115GQNF V0202201N003112200019N0060001N1+03641+01451101081ADDAA199000091GA1001+999999999GF100991001001999999001001MA1999999099811MD1999999+0021MW1051REMSYN076AAXX  25124 61498 31956 02206 10364 20145 39981 40108 705// 333 0//00 58002;EQDQ01  00002PRCP99
0196614980999992000062518004+16630-011390FM-12+0115GQNF V0209999C000012200019N0100001N1+03971+01731100711ADDAA199000091GA1001+999999999GF100991001001999999001001KA1120M+04051MA1999999099451MD1999999+0081REMSYN070AAXX  25184 61498 33960 00000 10397 20173 39945 40071 333 10405 58008;EQDQ01  00002PRCP99
0159614980999992000062521004+16630-011390FM-12+0115GQNF V0201801N008212200019N0030001N1+02951+01701101101ADDGA1001+999999999GF100991001001999999001001MA1999999099691MD1999999+0211MW1051REMSYN070AAXX  25214 61498 41930 01816 10295 20170 39969 40110 705// 333 58021;
0222614980999992000062606004+16630-011390FM-12+0115GQNF V0202201N003119999999N0060001N1+02801+01881101081ADDAA199000091GF107991071001999999071999KA1120N+02701MA1999999099861MD1999999+0281MW1051REMSYN106AAXX  26064 61498 31956 72206 10280 20188 39986 40108 705// 8707/ 333 0//00 20270 51004 55/// 58028 87363;EQDQ01  00002PRCP99
0187614980999992000062609004+16630-011390FM-12+0115GQNF V0202801N003110390019N0030001N1+02961+01961101211ADDAY121031AY221031GA1061+039009079GF106991061001999999071999MA1999999099911MD1999999+0051MW1051REMSYN082AAXX  26094 61498 41930 62806 10296 20196 39991 40121 70522 8607/ 333 58005 86363;
0207614980999992000062612004+16630-011390FM-12+0115GQNF V0203201N003112200019N0080001N1+03541+01611101201ADDAA199000091GA1041+039009079GF104991041001999999031001MA1999999099931MD1999999+0121MW1051REMSYN088AAXX  26124 61498 31958 43206 10354 20161 39993 40120 705// 84030 333 0//00 58012 84363;EQDQ01  00002PRCP99
0171614980999992000062615004+16630-011390FM-12+0115GQNF V0203201N002112200019N0080001N1+03821+01661100971ADDGA1031+039009079GF103991031001999999031001MA1999999099691MD1999999+0171MW1051REMSYN082AAXX  26154 61498 41958 33204 10382 20166 39969 40097 705// 83030 333 58017 83363;
0220614980999992000062618004+16630-011390FM-12+0115GQNF V0209999C000012200019N0080001N1+03481+01551100841ADDAA199000091GA1031+039009079GF103991031001999999031001KA1120M+03971MA1999999099571MD1999999+0121MW1051REMSYN088AAXX  26184 61498 31958 30000 10348 20155 39957 40084 705// 83030 333 10397 58012 83363;EQDQ01  00002PRCP99
0222614980999992000062706004+16630-011390FM-12+0115GQNF V0202801N002112200019N0060001N1+03001+01381100911ADDAA199000091GF104991041001999999031001KA1120N+03001MA1999999099561MD1999999-0241MW1051REMSYN106AAXX  27064 61498 31956 42804 10300 20138 39956 40091 705// 84030 333 0//00 20300 50944 55/// 59024 84363;EQDQ01  00002PRCP99
0159614980999992000062709004+16630-011390FM-12+0115GQNF V0202201N003112200019N0100001N1+03401+01261101081ADDGA1021+039009079GF102991021001999999031001MA1999999099811MD1999999-0101REMSYN076AAXX  27094 61498 42960 22206 10340 20126 39981 40108 82030 333 59010 82363;
0147614980999992000062715004+16630-011390FM-12+0115GQNF V0209999C000012200019N0100001N1+04351+01251100791ADDGA1001+999999999GF100991001001999999001001MA1999999099531MD1999999-0161REMSYN064AAXX  27154 61498 43960 00000 10435 20125 39953 40079 333 59016;
0220614980999992000062718004+16630-011390FM-12+0115GQNF V0209999C000012200019N0100001N1+04281+01021100631ADDAA199000091GA1011+015009089GF101991011011017501001001KA1120M+04431MA1999999099371MD1999999-0201REMSYN094AAXX  27184 61498 33760 10000 10428 20102 39937 40063 81100 333 10443 59020 81850 94909 95879;EQDQ01  00002PRCP99
0200614980999992000062806004+16630-011390FM-12+0115GQNF V0201801N003112200019N0100001N1+03201+01631100911ADDAA199000091GA1001+999999999GF100991001001999999001001KA1120N+03201MA1999999099651REMSYN088AAXX  28064 61498 33960 01806 10320 20163 39965 40091 333 0//00 20320 50764 55/// 58009;EQDQ01  00002PRCP99
0175614980999992000062809004+16630-011390FM-12+0115GQNF V0202201N004112200019N0040001N1+03241+01801101111ADDAY101031AY201031GA1001+999999999GF100991001001999999001001MA1999999099751MD1999999-0061MW1051REMSYN070AAXX  28094 61498 41940 02208 10324 20180 39975 40111 70500 333 59006;
0183614980999992000062812004+16630-011390FM-12+0115GQNF V0202201N003112200019N0100001N1+03701+01721101071ADDAA199000091GA1001+999999999GF100991001001999999001001MA1999999099801MD1999999+0021REMSYN070AAXX  28124 61498 33960 02206 10370 20172 39980 40107 333 0//00 58002;EQDQ01  00002PRCP99
0147614980999992000062815004+16630-011390FM-12+0115GQNF V0202001N002612200019N0100001N1+04151+01671100831ADDGA1001+999999999GF100991001001999999001001MA1999999099571MD1999999+0041REMSYN064AAXX  28154 61498 43960 02005 10415 20167 39957 40083 333 58004;
0208614980999992000062818004+16630-011390FM-12+0115GQNF V0209999C000012200019N0100001N1+04131+01451100711ADDAA199000091GA1011+039009079GF101991011001999999031001KA1120M+04251MA1999999099461MD1999999+0091REMSYN082AAXX  28184 61498 33960 10000 10413 20145 39946 40071 81030 333 10425 58009 81363;EQDQ01  00002PRCP99
0178614980999992000062906004+16630-011390FM-12+0115GQNF V0201401N002119999999N0100001N1+03561+02021100951ADDAA124026991GF108991061001999999071999MA1999999099671MD1999999+0021REMSYN100AAXX  29064 61498 13960 81404 10356 20202 39967 40095 60274 8607/ 333 22040 50834 55/// 58002 86363;
0207614980999992000062912004+16630-011390FM-12+0115GQNF V0201801N002612200019N0060001N1+03061+02251101321ADDAA199000091GA1031+069009019GF103991001001999999001011MA1999999100041MD1999999+0241MW1051REMSYN088AAXX  29124 61498 31956 31805 10306 20225 30004 40132 705// 80001 333 0//00 58024 83073;EQDQ01  00002PRCP99
0159614980999992000062915004+16630-011390FM-12+0115GQNF V0202201N002110390019N0100001N1+03121+01971101131ADDGA1081+039009079GF108991081001999999071999MA1999999099831MD1999999+0261REMSYN076AAXX  29154 61498 43960 82204 10312 20197 39983 40113 8807/ 333 58026 88363;
0159614980999992000062921004+16630-011390FM-12+0115GQNF V0203201N002610390019N0100001N1+03051+01991100921ADDGA1061+039009079GF106991061001999999071001MA1999999099621MD1999999+0071REMSYN076AAXX  29214 61498 43960 63205 10305 20199 39962 40092 86070 333 58007 86363;
0175614980999992000063009004+16630-011390FM-12+0115GQNF V0202601N004112200019N0060001N1+02961+01861100961ADDAY101031AY201031GA1001+999999999GF100991001001999999001001MA1999999099671MD1999999-0371MW1051REMSYN070AAXX  30094 61498 41956 02608 10296 20186 39967 40096 70500 333 59037;
0183614980999992000063012004+16630-011390FM-12+0115GQNF V0202801N003112200019N0100001N1+03531+01721100911ADDAA199000091GA1001+999999999GF100991001001999999001001MA1999999099631MD1999999-0411REMSYN070AAXX  30124 61498 33960 02806 10353 20172 39963 40091 333 0//00 59041;EQDQ01  00002PRCP99
0208614980999992000063018004+16630-011390FM-12+0115GQNF V0202801N002612200019N0100001N1+03951+01551100481ADDAA199000091GA1021+069009019GF102991001001999999001011KA1120M+04021MA1999999099211MD1999999-0451REMSYN082AAXX  30184 61498 33960 22805 10395 20155 39921 40048 80001 333 10402 59045 82073;EQDQ01  00002PRCP99
0210614980999992000070106004+16630-011390FM-12+0115GQNF V0209999C000012200019N0100001N1+03001+01761100501ADDAA199000091GF103991001001999999001011KA1120N+03001MA1999999099231MD1999999-0381REMSYN100AAXX  01064 61498 33960 30000 10300 20176 39923 40050 80001 333 0//00 20300 50844 55/// 59038 83073;EQDQ01  00002PRCP99
0183614980999992000070112004+16630-011390FM-12+0115GQNF V0202801N003112200019N0100001N1+03761+01451100811ADDAA199000091GA1001+999999999GF100991001001999999001001MA1999999099551MD1999999-0081REMSYN070AAXX  01124 61498 33960 02806 10376 20145 39955 40081 333 0//00 59008;EQDQ01  00002PRCP99
0208614980999992000070118004+16630-011390FM-12+0115GQNF V0202201N005112200019N0100001N1+03941+01561100451ADDAA199000091GA1041+069009019GF104991001001999999001011KA1120M+04041MA1999999099191MD1999999-0021REMSYN082AAXX  01184 61498 33960 42210 10394 20156 39919 40045 80001 333 10404 59002 84073;EQDQ01  00002PRCP99
0147614980999992000070215004+16630-011390FM-12+0115GQNF V0209999C000012200019N0100001N1+04101+01591100721ADDGA1001+999999999GF100991001001999999001001MA1999999099461MD1999999+0131REMSYN064AAXX  02154 61498 43960 00000 10410 20159 39946 40072 333 58013;
0196614980999992000070218004+16630-011390FM-12+0115GQNF V0209999C000012200019N0100001N1+04131+01541100591ADDAA199000091GA1001+999999999GF100991001001999999001001KA1120M+04201MA1999999099331MD1999999+0141REMSYN070AAXX  02184 61498 33960 00000 10413 20154 39933 40059 333 10420 58014;EQDQ01  00002PRCP99
0187614980999992000070409004+16630-011390FM-12+0115GQNF V0202201N003110390019N0060001N1+03121+01521100601ADDAY121031AY221031GA1051+039009079GF105991051001999999031001MA1999999099321MD1999999-0501MW1051REMSYN082AAXX  04094 61498 41956 52206 10312 20152 39932 40060 70522 85030 333 59050 85363;
0195614980999992000070412004+16630-011390FM-12+0115GQNF V0202801N004112200019N0040001N1+03461+01451100621ADDAA199000091GA1001+999999999GF100991001001999999001001MA1999999099351MD1999999-0461MW1051REMSYN076AAXX  04124 61498 31940 02808 10346 20145 39935 40062 705// 333 0//00 59046;EQDQ01  00002PRCP99
0159614980999992000070415004+16630-011390FM-12+0115GQNF V0202801N004112200019N0030001N1+03801+01431100481ADDGA1001+999999999GF100991001001999999001001MA1999999099211MD1999999-0211MW1051REMSYN070AAXX  04154 61498 41930 02808 10380 20143 39921 40048 705// 333 59021;
0208614980999992000070418004+16630-011390FM-12+0115GQNF V0202601N003612200019N0015001N1+03771+01351100291ADDAA199000091GA1001+999999999GF100991001001999999001001KA1120M+03851MA1999999099021MD1999999-0251MW1051REMSYN076AAXX  04184 61498 31915 02607 10377 20135 39902 40029 705// 333 10385 59025;EQDQ01  00002PRCP99
0222614980999992000070506004+16630-011390FM-12+0115GQNF V0202201N004119999999N0050001N1+02901+01601100601ADDAA199000091GF106991061001999999071001KA1120N+02901MA1999999099331MD1999999-0111MW1051REMSYN106AAXX  05064 61498 31950 62208 10290 20160 39933 40060 705// 86070 333 0//00 20290 50964 55/// 59011 86363;EQDQ01  00002PRCP99
0175614980999992000070509004+16630-011390FM-12+0115GQNF V0202801N005112200019N0060001N1+03001+01761100801ADDAY111031AY211031GA1001+999999999GF100991001001999999001001MA1999999099521MD1999999+0201MW1051REMSYN070AAXX  05094 61498 41956 02810 10300 20176 39952 40080 70511 333 58020;
0195614980999992000070512004+16630-011390FM-12+0115GQNF V0202201N007212200019N0020001N1+03401+01701100721ADDAA199000091GA1001+999999999GF100991001001999999001001MA1999999099451MD1999999+0101MW1071REMSYN076AAXX  05124 61498 31920 02214 10340 20170 39945 40072 707// 333 0//00 58010;EQDQ01  00002PRCP99
0195614980999992000070612004+16630-011390FM-12+0115GQNF V0201801N002112200019N0100001N1+03601+01901100991ADDAA199000091GA1031+069009019GF103991001001999999001011MA1999999099721MD1999999+0271REMSYN082AAXX  06124 61498 33960 31804 10360 20190 39972 40099 80001 333 0//00 58027 83073;EQDQ01  00002PRCP99
0190614980999992000070615004+16630-011390FM-12+0115GQNF V0209999C000012200019N0100001N1+03791+01861100781ADDGA1041+015009089GF105991041021017501001011MA1999999095512MD1999999+0231REMSYN088AAXX  06154 61498 43760 50000 10379 20186 39551 40078 84201 333 58023 84850 94939 95878;EQDQ01+095513APOSP 
0197614980999992000070706004+16630-011390FM-12+0115GQNF V0209999C000019999999N0100001N1+02761+02301101201ADDAA124007991GF108991081001999999071999KA1120N+02761MA1999999099901MD1999999+0311REMSYN106AAXX  07064 61498 13960 80000 10276 20230 39990 40120 60084 8807/ 333 0//29 20276 50524 55/// 58031 88363;
0188614980999992000070712004+16630-011390FM-12+0115GQNF V0203401N002110390019N0150001N1+02431+02021101421ADDAA112001091AC13C9GA1071+039009079GF107991071001999999071001MA1999999100111MD1999999+0391REMSYN088AAXX  07124 61498 13965 73404 10243 20202 30011 40142 60012 87070 333 0//53 58039 87363;
0159614980999992000070715004+16630-011390FM-12+0115GQNF V0209999C000012200019N0200001N1+03351+02111101211ADDGA1031+069009019GF103991001001999999001011MA1999999099921MD1999999+0411REMSYN076AAXX  07154 61498 43970 30000 10335 20211 39992 40121 80001 333 58041 83073;
0195614980999992000070718004+16630-011390FM-12+0115GQNF V0209999C000012200019N0200001N1+03631+01891100961ADDAA112001091GA1031+069009019GF103991001001999999001011KA1120M+03651MA1999999099681MD1999999+0101REMSYN088AAXX  07184 61498 13970 30000 10363 20189 39968 40096 60012 80001 333 10365 58010 83073;
0195614980999992000070812004+16630-011390FM-12+0115GQNF V0200801N002110690019N0150001N1+03181+02261101131ADDAA199000091GA1061+069009019GF106991001001999999001021MA1999999099841MD1999999-0171REMSYN082AAXX  08124 61498 33965 60804 10318 20226 39984 40113 80002 333 0//00 59017 86073;EQDQ01  00002PRCP99
0159614980999992000070815004+16630-011390FM-12+0115GQNF V0209999C000012200019N0100001N1+03651+01951100951ADDGA1011+069009019GF101991001001999999001011MA1999999099661MD1999999-0261REMSYN076AAXX  08154 61498 43960 10000 10365 20195 39966 40095 80001 333 59026 81073;
0196614980999992000070818004+16630-011390FM-12+0115GQNF V0209999C000012200019N0100001N1+03651+01811100891ADDAA199000091GA1001+999999999GF100991001001999999001001KA1120M+03731MA1999999099601MD1999999-0081REMSYN070AAXX  08184 61498 33960 00000 10365 20181 39960 40089 333 10373 59008;EQDQ01  00002PRCP99
0210614980999992000070906004+16630-011390FM-12+0115GQNF V0201801N003112200019N0100001N1+02841+02201100881ADDAA199000091GF103991031001999999031001KA1120N+02821MA1999999099601MD1999999+0281REMSYN100AAXX  09064 61498 33960 31806 10284 20220 39960 40088 83030 333 0//00 20282 50404 55/// 58028 83363;EQDQ01  00002PRCP99
0147614980999992000070909004+16630-011390FM-12+0115GQNF V0202201N003112200019N0100001N1+03001+01941101111ADDGA1001+999999999GF100991001001999999001001MA1999999099821MD1999999+0031REMSYN064AAXX  09094 61498 42960 02206 10300 20194 39982 40111 333 58003;
0183614980999992000070912004+16630-011390FM-12+0115GQNF V0202201N005112200019N0100001N1+03441+01951101071ADDAA199000091GA1001+999999999GF100991001001999999001001MA1999999099791MD1999999-0051REMSYN070AAXX  09124 61498 33960 02210 10344 20195 39979 40107 333 0//00 59005;EQDQ01  00002PRCP99
0159614980999992000070921004+16630-011390FM-12+0115GQNF V0202601N002112200019N0080001N1+03451+01871100781ADDGA1001+999999999GF100991001001999999001001MA1999999099501MD1999999-0091MW1051REMSYN070AAXX  09214 61498 41958 02604 10345 20187 39950 40078 705// 333 59009;
0210614980999992000071006004+16630-011390FM-12+0115GQNF V0202801N003112200019N0100001N1+02961+01961100791ADDAA199000091GF103991001001999999001011KA1120N+02961MA1999999099521MD1999999-0081REMSYN100AAXX  10064 61498 33960 32806 10296 20196 39952 40079 80001 333 0//00 20296 50904 55/// 59008 83073;EQDQ01  00002PRCP99
0187614980999992000071009004+16630-011390FM-12+0115GQNF V0202801N003112200019N0080001N1+03041+01921100861ADDAY101031AY201031GA1021+069009019GF102991001001999999001011MA1999999099561MD1999999-0261MW1051REMSYN082AAXX  10094 61498 41958 22806 10304 20192 39956 40086 70500 80001 333 59026 82073;
0195614980999992000071012004+16630-011390FM-12+0115GQNF V0200801N003112200019N0070001N1+03441+01661100881ADDAA199000091GA1001+999999999GF100991001001999999001001MA1999999099561MD1999999-0201MW1051REMSYN076AAXX  10124 61498 31957 00806 10344 20166 39956 40088 705// 333 0//00 59020;EQDQ01  00002PRCP99
0212614980999992000071106004+16630-011390FM-12+0115GQNF V0201801N003112200019N0070001N1+02861+01991100751ADDAA199000091GA1001+999999999GF100991001001999999001001KA1120N+02861MA1999999099461MW1051REMSYN094AAXX  11064 61498 31957 01806 10286 20199 39946 40075 705// 333 0//00 20286 50804 55/// 59006;EQDQ01  00002PRCP99
0147614980999992000071109004+16630-011390FM-12+0115GQNF V0202801N003112200019N0100001N1+02941+01981100941ADDGA1001+999999999GF100991001001999999001001MA1999999099661MD1999999+0101REMSYN064AAXX  11094 61498 42960 02806 10294 20198 39966 40094 333 58010;
0195614980999992000071112004+16630-011390FM-12+0115GQNF V0202801N004112200019N0070001N1+03361+01841100941ADDAA199000091GA1001+999999999GF100991001001999999001001MA1999999099681MD1999999+0091MW1051REMSYN076AAXX  11124 61498 31957 02808 10336 20184 39968 40094 705// 333 0//00 58009;EQDQ01  00002PRCP99
0159614980999992000071115004+16630-011390FM-12+0115GQNF V0200201N003612200019N0080001N1+03621+01771100781ADDGA1001+999999999GF100991001001999999001001MA1999999099501MD1999999+0131MW1051REMSYN070AAXX  11154 61498 41958 00207 10362 20177 39950 40078 705// 333 58013;
0208614980999992000071118004+16630-011390FM-12+0115GQNF V0202601N003112200019N0080001N1+03561+01771100611ADDAA199000091GA1001+999999999GF100991001001999999001001KA1120M+03651MA1999999099331MD1999999+0061MW1051REMSYN076AAXX  11184 61498 31958 02606 10356 20177 39933 40061 705// 333 10365 58006;EQDQ01  00002PRCP99
0159614980999992000071309004+16630-011390FM-12+0115GQNF V0202801N003110690019N0100001N1+03261+01831101171ADDGA1051+069009019GF105991001001999999001021MA1999999099891MD1999999+0141REMSYN076AAXX  13094 61498 42960 52806 10326 20183 39989 40117 80002 333 58014 85073;
0195614980999992000071312004+16630-011390FM-12+0115GQNF V0209999C000012200019N0100001N1+03761+01801101151ADDAA199000091GA1021+069009019GF102991001001999999001021MA1999999099861MD1999999+0041REMSYN082AAXX  13124 61498 33960 20000 10376 20180 39986 40115 80002 333 0//00 58004 82073;EQDQ01  00002PRCP99
0171614980999992000071315004+16630-011390FM-12+0115GQNF V0209999C000012200019N0100001N1+04031+01721100921ADDGA1011+015009089GF101991011011017501001001MA1999999099651MD1999999+0011REMSYN088AAXX  13154 61498 43760 10000 10403 20172 39965 40092 81100 333 58001 81850 94909 95879;
0220614980999992000071318004+16630-011390FM-12+0115GQNF V0209999C000012200019N0100001N1+03991+01651100751ADDAA199000091GA1011+015009089GF101991011011017501001001KA1120M+04031MA1999999099481MD1999999-0031REMSYN094AAXX  13184 61498 33760 10000 10399 20165 39948 40075 81100 333 10403 59003 81850 94908 95878;EQDQ01  00002PRCP99
0220614980999992000071418004+16630-011390FM-12+0115GQNF V0203201N002612200019N0070001N1+04251+01171100391ADDAA199000091GA1011+039009079GF101991011001999999031001KA1120M+04301MA1999999099141MD1999999-0341MW1051REMSYN088AAXX  14184 61498 31957 13205 10425 20117 39914 40039 705// 81030 333 10430 59034 81363;EQDQ01  00002PRCP99
0195614980999992000071512004+16630-011390FM-12+0115GQNF V0202801N005112200019N0030001N1+03641+01541100581ADDAA199000091GA1001+999999999GF100991001001999999001001MA1999999099321MD1999999-0341MW1061REMSYN076AAXX  15124 61498 31930 02810 10364 20154 39932 40058 706// 333 0//00 59034;EQDQ01  00002PRCP99
0159614980999992000071515004+16630-011390FM-12+0115GQNF V0202801N004112200019N0030001N1+03921+01481100441ADDGA1001+999999999GF100991001001999999001001MA1999999099181MD1999999-0151MW1051REMSYN070AAXX  15154 61498 41930 02808 10392 20148 39918 40044 705// 333 59015;
0220614980999992000071518004+16630-011390FM-12+0115GQNF V0202201N003110390019N0040001N1+03701+01501100291ADDAA199000091GA1071+039009079GF107991071001999999031999KA1120M+03921MA1999999099031MD1999999-0111MW1051REMSYN088AAXX  15184 61498 31940 72206 10370 20150 39903 40029 705// 8703/ 333 10392 59011 87363;EQDQ01  00002PRCP99
0196614980999992000071618004+16630-011390FM-12+0115GQNF V0202201N002112200019N0100001N1+03651+01951100591ADDAA199000091GA1001+999999999GF100991001001999999001001KA1120M+03751MA1999999099311MD1999999+0281REMSYN070AAXX  16184 61498 33960 02204 10365 20195 39931 40059 333 10375 58028;EQDQ01  00002PRCP99
0210614980999992000071706004+16630-011390FM-12+0115GQNF V0202201N001512200019N0100001N1+03061+01061100851ADDAA199000091GF104991041001999999031001KA1120N+03061MA1999999099571MD1999999+0091REMSYN100AAXX  17064 61498 33960 42203 10306 20106 39957 40085 84030 333 0//00 20306 50724 55/// 58009 84363;EQDQ01  00002PRCP99
0159614980999992000071709004+16630-011390FM-12+0115GQNF V0202801N003110390019N0100001N1+03241+01991101131ADDGA1051+039009079GF105991051001999999031001MA1999999099851MD1999999+0091REMSYN076AAXX  17094 61498 42960 52806 10324 20199 39985 40113 85030 333 58009 85363;
0201614980999992000071712004+16630-011390FM-12+0115GQNF V0209999C00001105001CN0100001N1+03661+02021101251ADDAA199000091GA1031+015009089GF105991031021017501001051MA1999999099981MD1999999+0311REMSYN088AAXX  17124 61498 33760 50000 10366 20202 39998 40125 83205 333 0//00 58031 83850 85073;EQDQ01  00002PRCP99
0159614980999992000071715004+16630-011390FM-12+0115GQNF V0209999C000010390019N0100001N1+03771+01881101011ADDGA1071+039009079GF107991071001999999031999MA1999999099741MD1999999+0281REMSYN076AAXX  17154 61498 43960 70000 10377 20188 39974 40101 8703/ 333 58028 87363;
0208614980999992000071718004+16630-011390FM-12+0115GQNF V0201801N003112200019N0100001N1+03151+01991101001ADDAA199000091GA1021+039009079GF102991021001999999031001KA1120M+03771MA1999999099711MD1999999+0401REMSYN082AAXX  17184 61498 33960 21806 10315 20199 39971 40100 82030 333 10377 58040 82363;EQDQ01  00002PRCP99
0210614980999992000071806004+16630-011390FM-12+0115GQNF V0202801N003119999999N0100001N1+03901+01981101201ADDAA199000091GF105991001001999999001021KA1120N+02881MA1999999099901MD1999999+0331REMSYN100AAXX  18064 61498 33960 52806 10390 20198 39990 40120 80002 333 0//00 20288 50624 55/// 58033 85073;EQDQ01  00002PRCP99
0187614980999992000071809004+16630-011390FM-12+0115GQNF V0202801N004112200019N0080001N1+03141+02011101271ADDAY111031AY211031GA1041+069009019GF104991001001999999001021MA1999999099981MD1999999+0131MW1051REMSYN082AAXX  18094 61498 41958 42808 10314 20201 39998 40127 70511 80002 333 58013 84073;
0183614980999992000071812004+16630-011390FM-12+0115GQNF V0202801N003112200019N0100001N1+03641+01961101231ADDAA199000091GA1001+999999999GF100991001001999999001001MA1999999099951MD1999999-0031REMSYN070AAXX  18124 61498 33960 02806 10364 20196 39995 40123 333 0//00 59003;EQDQ01  00002PRCP99
0171614980999992000071815004+16630-011390FM-12+0115GQNF V0202801N001512200019N0080001N1+03981+01851100951ADDGA1011+015009089GF101991011011017501001001MA1999999099671MD1999999-0071REMSYN088AAXX  18154 61498 43758 12803 10398 20185 39967 40095 81100 333 59007 81850 94909 95879;
0232614980999992000071818004+16630-011390FM-12+0115GQNF V0203201N002112200019N0080001N1+03861+01831100801ADDAA199000091GA1041+015009089GF104991041021017501001001KA1120M+03981MA1999999099531MD1999999-0181MW1051REMSYN100AAXX  18184 61498 31758 43204 10386 20183 39953 40080 705// 84200 333 10398 59018 84850 94939 95879;EQDQ01  00002PRCP99
0193614980999992000071906004+16630-011390FM-12+0115GQNF V0203201N007212200019N0040001N1+02841+01861100721ADDAA199000091GA1001+999999999GF100991001001999999001001MA1999999099451MW1061REMSYN088AAXX  19064 61498 31940 03214 10284 20186 39945 40072 706// 333 0//00 50764 55/// 59045;EQDQ01  00002PRCP99
0195614980999992000071912004+16630-011390FM-12+0115GQNF V0202801N006212200019N0100001N1+03601+01441100701ADDAA199000091GA1001+999999999GF100991001001999999001001MA1999999099431MD1999999-0521MW1061REMSYN076AAXX  19124 61498 32960 02812 10360 20144 39943 40070 706// 333 0//00 59052;EQDQ01  00002PRCP99
0171614980999992000071915004+16630-011390FM-12+0115GQNF V0202801N003112200019N0060001N1+04021+01381100361ADDGA1011+039009079GF101991011001999999031001MA1999999099101MD1999999-0071MW1071REMSYN082AAXX  19154 61498 43956 12806 10402 20138 39910 40036 707// 81030 333 59007 81363;
0224614980999992000071918004+16630-011390FM-12+0115GQNF V0202801N002112200019N0080001N1+03991+01261100211ADDAA199000091GA1001+999999999GF100991001001999999001001KA1120M+04101MA1999999096942MD1999999-0591MW1051REMSYN076AAXX  19184 61498 31958 02804 10399 20126 39694 40021 705// 333 10410 59059;EQDQ01+096943APOSP Q02  00002PRCP99
0183614980999992000072015004+16630-011390FM-12+0115GQNF V0209999C000012200019N0080001N1+03701+02011100541ADDGA1031+015009089GF103991031021017501001001MA1999999099271MD1999999-0171MW1051REMSYN094AAXX  20154 61498 41758 30000 10370 20201 39927 40054 705// 83200 333 59017 83850 94939 95879;
0220614980999992000072018004+16630-011390FM-12+0115GQNF V0209999C000012200019N0100001N1+03731+01901100421ADDAA199000091GA1031+015009089GF103991031021999999001001KA1120M+03851MA1999999099151MD1999999+0211REMSYN094AAXX  20184 61498 33960 30000 10373 20190 39915 40042 83200 333 10385 58021 83850 94939 95879;EQDQ01  00002PRCP99
0207614980999992000072100004+16630-011390FM-12+0115GQNF V0202801N002110150019N0100001N1+03481+02001101071ADDAA199000091GA1051+015009089GF105991051021999999001001MA1999999099791MD1999999+0361REMSYN094AAXX  21004 61498 33960 52804 10348 20200 39979 40107 85200 333 0//00 58036 85850 94936 95876;EQDQ01  00002PRCP99
0210614980999992000072106004+16630-011390FM-12+0115GQNF V0201801N002112200019N0100001N1+02741+02021100761ADDAA199000091GF103991031001999999031001KA1120N+02741MA1999999099481MD1999999+0171REMSYN100AAXX  21064 61498 33960 31804 10274 20202 39948 40076 83030 333 0//00 20274 50874 55/// 58017 83363;EQDQ01  00002PRCP99
0159614980999992000072109004+16630-011390FM-12+0115GQNF V0202801N002112200019N0100001N1+03051+01971100971ADDGA1011+039009079GF101991011001999999031011MA1999999099681MD1999999+0241REMSYN076AAXX  21094 61498 42960 12804 10305 20197 39968 40097 81031 333 58024 81363;
0171614980999992000072215004+16630-011390FM-12+0115GQNF V0209999C000012200019N0150001N1+03431+02071100951ADDGA1011+015009089GF101991011011017501001011MA1999999099661MD1999999+0141REMSYN088AAXX  22154 61498 43765 10000 10343 20207 39966 40095 81101 333 58014 81850 94908 95838;
0210614980999992000072306004+16630-011390FM-12+0115GQNF V0209999C000012200019N0100001N1+02841+02291100821ADDAA199000091GF103991001001999999001011KA1120N+02801MA1999999099541MD1999999-0361REMSYN100AAXX  23064 61498 33960 30000 10284 20229 39954 40082 80001 333 0//00 20280 50704 55/// 59036 83073;EQDQ01  00002PRCP99
0183614980999992000072312004+16630-011390FM-12+0115GQNF V0200401N003112200019N0100001N1+03601+01971101001ADDAA199000091GA1001+999999999GF100991001001999999001001MA1999999099721MD1999999-0051REMSYN070AAXX  23124 61498 33960 00406 10360 20197 39972 40100 333 0//00 59005;EQDQ01  00002PRCP99
0147614980999992000072315004+16630-011390FM-12+0115GQNF V0209999C000012200019N0100001N1+03881+01851100781ADDGA1001+999999999GF100991001001999999001001MA1999999099511MD1999999-0151REMSYN064AAXX  23154 61498 43960 00000 10388 20185 39951 40078 333 59015;
0200614980999992000072406004+16630-011390FM-12+0115GQNF V0202201N004112200019N0100001N1+03101+02061100861ADDAA199000091GA1001+999999999GF100991001001999999001001KA1120N+03101MA1999999099591REMSYN088AAXX  24064 61498 33960 02208 10310 20206 39959 40086 333 0//00 20310 50704 55/// 58005;EQDQ01  00002PRCP99
0147614980999992000072409004+16630-011390FM-12+0115GQNF V0202201N003112200019N0100001N1+03121+02041100931ADDGA1001+999999999GF100991001001999999001001MA1999999099651MD1999999-0051REMSYN064AAXX  24094 61498 42960 02206 10312 20204 39965 40093 333 59005;
0147614980999992000072415004+16630-011390FM-12+0115GQNF V0202801N002612200019N0100001N1+03891+01701100631ADDGA1001+999999999GF100991001001999999001001MA1999999099371MD1999999-0141REMSYN064AAXX  24154 61498 43960 02805 10389 20170 39937 40063 333 59014;
0208614980999992000072418004+16630-011390FM-12+0115GQNF V0202201N001512200019N0100001N1+03951+01661100471ADDAA199000091GA1011+069009019GF101991001001999999001011KA1120M+04041MA1999999099201MD1999999-0121REMSYN082AAXX  24184 61498 33960 12203 10395 20166 39920 40047 80001 333 10404 59012 81073;EQDQ01  00002PRCP99
0203614980999992000072506004+16630-011390FM-12+0115GQNF V0202601N004119999999N0080001N1+03001+01941100691ADDAA199000091GF106991061001999999031001MA1999999099421MD1999999-0171MW1051REMSYN100AAXX  25064 61498 31958 62608 10300 20194 39942 40069 705// 86030 333 0//00 50834 55/// 59017 86363;EQDQ01  00002PRCP99
0208614980999992000072606004+16630-011390FM-12+0115GQNF V0209999C000012200019N0100001N1+02741+02021100991ADDAA199000091GA1001+999999999GF100991001001999999001001KA1120N+02701MA1999999099701MD1999999+0281REMSYN082AAXX  26064 61498 33960 00000 10274 20202 39970 40099 333 0//00 20270 55/// 58028;EQDQ01  00002PRCP99
0223614980999992000072612004+16630-011390FM-12+0115GQNF V0200801N003112200019N0150001N1+03461+02051101021ADDAA199000091GA1041+012009089GF104991041999012501031001MA1999999099741MD1999999+0061REMSYN094AAXX  26124 61498 33665 40806 10346 20205 39974 40102 84030 333 0//00 58006 84840 94919 95839;EQDQ01+000002SCOLCGQ02  00002PRCP99
0165614980999992000072615004+16630-011390FM-12+0115GQNF V0202201N00261045001CN0150001N1+03521+02001100791ADDGA1021+015009089GF107991021011012501031021MA1999999099951MD1999999-0101REMSYN082AAXX  26154 61498 43665 72205 10352 20200 39995 40079 82132 333 59010 82850 83363;
0229614980999992000072618004+16630-011390FM-12+0115GQNF V0209999C00001045001CN0100001N1+02501+02231100791ADDAA112001091AY191061AY261061GA1021+003909079GF108991021071002501071999KA1120M+03521MA1999999099481MD1999999-0051MW1601REMSYN100AAXX  26184 61498 11360 80000 10250 20223 39948 40079 60012 76096 8277/ 333 10352 59005 82713 87363;
0197614980999992000072706004+16630-011390FM-12+0115GQNF V0201801N002112200019N0100001N1+02621+02331100871ADDAA124001091GF104991041001999999031001KA1120N+02541MA1999999099561MD1999999-0141REMSYN106AAXX  27064 61498 13960 41804 10262 20233 39956 40087 60014 84030 333 0//19 20254 50304 55/// 59014 84363;
0207614980999992000072712004+16630-011390FM-12+0115GQNF V0202801N002110090019N0100001N1+03151+02211101201ADDAA199000091GA1061+009009069GF106991061021008001001001MA1999999099901MD1999999+0161REMSYN094AAXX  27124 61498 33560 62804 10315 20221 39990 40120 86200 333 0//00 58016 86630 94939 95879;EQDQ01  00002PRCP99
0171614980999992000072715004+16630-011390FM-12+0115GQNF V0209999C000010120019N0150001N1+03501+02211101021ADDGA1051+012009089GF105991051021012501001001MA1999999099731MD1999999+0251REMSYN088AAXX  27154 61498 43665 50000 10350 20221 39973 40102 85200 333 58025 85840 94939 95879;
0220614980999992000072718004+16630-011390FM-12+0115GQNF V0209999C000012200019N0150001N1+03511+02201100851ADDAA199000091GA1031+012009089GF103991031021012501001001KA1120M+03571MA1999999099561MD1999999+0081REMSYN094AAXX  27184 61498 33665 30000 10351 20220 39956 40085 83200 333 10357 58008 83840 94939 95879;EQDQ01  00002PRCP99
0147614980999992000072721004+16630-011390FM-12+0115GQNF V0202601N002112200019N0100001N1+03201+02201100911ADDGA1001+999999999GF100991001001999999001001MA1999999099621MD1999999+0121REMSYN064AAXX  27214 61498 43960 02604 10320 20220 39962 40091 333 58012;
0272614980999992000072806004+16630-011390FM-12+0115GQNF V0202201N00311039001CN0100001N1+02821+02261101021ADDAA199000091GA1031+015009099GA2041+039009039GF106991031091017501071001KA1120N+02821MA1999999099731MD1999999+0171MW1131REMSYN124AAXX  28064 61498 31760 62206 10282 20226 39973 40102 713// 83970 333 0//00 20282 50584 55/// 58017 83950 84363 94944 95874;EQDQ01  00002PRCP99
0193614980999992000072809004+16630-011390FM-12+0115GQNF V0202801N002110390019N0100001N1+02961+02301101051ADDGA1041+012009089GA2061+039009039GF107991041021012501071999MA1999999099761MD1999999-0141REMSYN094AAXX  28094 61498 42660 72804 10296 20230 39976 40105 8427/ 333 59014 84840 86363 94919 95839;
0195614980999992000072812004+16630-011390FM-12+0115GQNF V0202601N002112200019N0100001N1+03221+01911101071ADDAA199000091GA1011+039009079GF102991011001999999031021MA1999999099781MD1999999-0121REMSYN082AAXX  28124 61498 33960 22604 10322 20191 39978 40107 81032 333 0//00 59012 81363;EQDQ01  00002PRCP99
0147614980999992000072815004+16630-011390FM-12+0115GQNF V0209999C000012200019N0100001N1+03751+01891100831ADDGA1001+999999999GF100991001001999999001001MA1999999099531MD1999999-0201REMSYN064AAXX  28154 61498 43960 00000 10375 20189 39953 40083 333 59020;
0253614980999992000072906004+16630-011390FM-12+0115GQNF V0202801N00311039001CN0100001N1+02461+02141100691ADDAA124011991AC12C9GA1041+012009099GA2071+039009039GF108991041091012501041001KA1120N+02401MA1999999099401MD1999999-0331REMSYN124AAXX  29064 61498 11660 82806 10246 20214 39940 40069 60124 84940 333 0//22 20240 50774 55/// 59033 84940 87363 94941 95831;
0159614980999992000072909004+16630-011390FM-12+0115GQNF V0209999C000010390019N0100001N1+02721+02141100771ADDGA1081+039009079GF108991061001999999071999MA1999999099481MD1999999-0261REMSYN076AAXX  29094 61498 42960 80000 10272 20214 39948 40077 8607/ 333 59026 88363;
0195614980999992000072912004+16630-011390FM-12+0115GQNF V0202601N002110390019N0100001N1+03221+01141100741ADDAA199000091GA1071+039009079GF107991071001999999071001MA1999999099461MD1999999-0321REMSYN082AAXX  29124 61498 33960 72604 10322 20114 39946 40074 87070 333 0//00 59032 87363;EQDQ01  00002PRCP99
0147614980999992000072921004+16630-011390FM-12+0115GQNF V0209999C000012200019N0100001N1+03151+02121100561ADDGA1001+999999999GF100991001001999999001001MA1999999099271MD1999999-0081REMSYN064AAXX  29214 61498 43960 00000 10315 20212 39927 40056 333 59008;
0159614980999992000073009004+16630-011390FM-12+0115GQNF V0202201N003110690019N0100001N1+02761+02141100891ADDGA1061+069009019GF106991001001999999001021MA1999999099601MD1999999+0121REMSYN076AAXX  30094 61498 42960 62206 10276 20214 39960 40089 80002 333 58012 86073;
0195614980999992000073012004+16630-011390FM-12+0115GQNF V0209999C000012200019N0100001N1+03261+02011100911ADDAA199000091GA1031+069009019GF103991001001999999001011MA1999999099621MD1999999+0161REMSYN082AAXX  30124 61498 32960 30000 10326 20201 39962 40091 80001 333 0//00 58016 83073;EQDQ01  00002PRCP99
0195614980999992000073018004+16630-011390FM-12+0115GQNF V0209999C000010390019N0150001N1+02971+02011100721ADDAA112003091GA1071+039009079GF107991071001999999071999KA1120M+03031MA1999999099421MD1999999+0291REMSYN088AAXX  30184 61498 13965 70000 10297 20201 39942 40072 60032 8707/ 333 10303 58029 87363;
0281614980999992000073106004+16630-011390FM-12+0115GQNF V0201801N00311039001CN0070001N1+02541+02341100931ADDAA124006191AC12C9AY161061AY261061GA1021+009009089GA2081+039009049GF108991021091008001071999KA1120N+02521MA1999999099631MD1999999+0101MW1921REMSYN130AAXX  31064 61498 11557 81806 10254 20234 39963 40093 60064 79266 8297/ 333 0//12 20252 50724 55/// 58010 82830 88463 94941 95831;
0187614980999992000073109004+16630-011390FM-12+0115GQNF V0202801N002110390019N0100001N1+02441+02291101271ADDAY191031AY261031GA1081+039009079GF108991081001999999071999MA1999999099961MD1999999+0361MW1211REMSYN082AAXX  31094 61498 41960 82804 10244 20229 39996 40127 72196 8807/ 333 58036 88363;
0204614980999992000073112004+16630-011390FM-12+0115GQNF V0202801N004110390019N0100001N1+02601+02251101221ADDAA199000021AY191061AY261061GA1081+039009079GF108991081001999999081999MA1999999099911MD1999999+0291MW1001REMSYN088AAXX  31124 61498 31960 82808 10260 20225 39991 40122 70096 8808/ 333 0//00 58029 88363;
0193614980999992000073115004+16630-011390FM-12+0115GQNF V0209999C000010690019N0100001N1+02971+02331100961ADDGA1041+015009089GA2041+069009009GF107991041021017501001021MA1999999099661MD1999999+0181REMSYN094AAXX  31154 61498 43760 70000 10297 20233 39966 40096 84202 333 58018 84850 84073 94939 95879;
0207614980999992000073118004+16630-011390FM-12+0115GQNF V0209999C000011050019N0100001N1+02941+02161100921ADDAA112075991GA1041+015009089GF105991041021017501001021KA1120M+03001MA1999999099611MD1999999+0191REMSYN100AAXX  31184 61498 13760 50000 10294 20216 39961 40092 60762 84202 333 10300 58019 84850 94939 95879;
0197614980999992000080106004+16630-011390FM-12+0115GQNF V0209999C000012200019N0100001N1+02501+02351101171ADDAA124075991GF104991041001999999031001KA1120N+02501MA1999999099861MD1999999+0281REMSYN106AAXX  01064 61498 13960 40000 10250 20235 39986 40117 60764 84030 333 0//00 20250 50164 55/// 58028 84363;
0187614980999992000080109004+16630-011390FM-12+0115GQNF V0201801N003110390019N0100001N1+02561+02281101221ADDAY161031AY211031GA1071+039009079GF107991071001999999071999MA1999999099921MD1999999-0041MW1011REMSYN082AAXX  01094 61498 41960 71806 10256 20228 39992 40122 70161 8707/ 333 59004 87363;
0269614980999992000080112004+16630-011390FM-12+0115GQNF V0201801N003110120019N0100001N1+03001+02311101251ADDAA106001091AC12I9AY161061AY261061GA1051+012009089GA2071+039009039GF108991051999012501021071MA1999999099951MD1999999+0041MW1001REMSYN112AAXX  01124 61498 11660 81806 10300 20231 39995 40125 60011 70066 85027 333 0//16 58004 85840 87363 94939 95819;EQDQ01+000002SCOLCG
0171614980999992000080115004+16630-011390FM-12+0115GQNF V0209999C000010150019N0150001N1+03171+02191101111ADDGA1061+015009089GF106991061021017501001001MA1999999099801MD1999999+0141REMSYN088AAXX  01154 61498 43765 60000 10317 20219 39980 40111 86200 333 58014 86850 94939 95879;
0207614980999992000080118004+16630-011390FM-12+0115GQNF V0209999C000012200019N0150001N1+03201+02081100921ADDAA112001091GA1021+015009089GF103991021011017501001011KA1120M+03221MA1999999099621MD1999999+0011REMSYN100AAXX  01184 61498 13765 30000 10320 20208 39962 40092 60012 82101 333 10322 58001 82850 94919 95879;
0197614980999992000080206004+16630-011390FM-12+0115GQNF V0202801N003112200019N0100001N1+02621+02301101001ADDAA124001091GF102991021001999999031001KA1120N+02621MA1999999099701MD1999999-0161REMSYN106AAXX  02064 61498 13960 22806 10262 20230 39970 40100 60014 82030 333 0//19 20262 50204 55/// 59016 82363;
0147614980999992000080209004+16630-011390FM-12+0115GQNF V0203201N004112200019N0100001N1+02841+02351101131ADDGA1001+999999999GF100991001001999999001001MA1999999099831MD1999999-0091REMSYN064AAXX  02094 61498 42960 03208 10284 20235 39983 40113 333 59009;
0195614980999992000080212004+16630-011390FM-12+0115GQNF V0203201N004112200019N0100001N1+03321+02421101061ADDAA199000091GA1021+069009019GF102991001001999999001021MA1999999099781MD1999999-0141REMSYN082AAXX  02124 61498 33960 23208 10332 20242 39978 40106 80002 333 0//00 59014 82073;EQDQ01  00002PRCP99
0147614980999992000080215004+16630-011390FM-12+0115GQNF V0203601N002612200019N0100001N1+03771+02111100781ADDGA1001+999999999GF100991001001999999001001MA1999999099501MD1999999-0301REMSYN064AAXX  02154 61498 43960 03605 10377 20211 39950 40078 333 59030;
0210614980999992000080306004+16630-011390FM-12+0115GQNF V0201801N003119999999N0100001N1+02601+02161101071ADDAA199000091GF106991061001999999031001KA1120N+02601MA1999999099701MD1999999+0091REMSYN100AAXX  03064 61498 33960 61806 10260 20216 39970 40107 86030 333 0//00 20260 50704 55/// 58009 86363;EQDQ01  00002PRCP99
0159614980999992000080309004+16630-011390FM-12+0115GQNF V0201801N003612200019N0100001N1+02781+02031101211ADDGA1031+069009019GF103991001001999999001011MA1999999099921MD1999999+0091REMSYN076AAXX  03094 61498 42960 31807 10278 20203 39992 40121 80001 333 58009 83073;
0211614980999992000080312004+16630-011390FM-12+0115GQNF V0201801N003112200019N0100001N1+03201+01941101271ADDAA199000091GA1051+039009079GF199999031001999999031001MA1999999099971MD1999999+0191REMSYN082AAXX  03124 61498 33960 31806 10320 20194 39997 40127 83030 333 0//00 58019 85363;EQDQ01+000032SCOTCVQ02  00002PRCP99
0177614980999992000080315004+16630-011390FM-12+0115GQNF V0209999C00001105001CN0150001N1+03331+02131101261ADDGA1031+000609029GF105991031021017501001021MA1999999099971MD1999999+0471REMSYN094AAXX  03154 61498 43765 50000 10333 20213 39997 40126 83202 333 58047 83850 83073 94939 95879;
0232614980999992000080318004+16630-011390FM-12+0115GQNF V0200801N008210150019N0015001N1+02701+01851101501ADDAA199000091GA1081+015009099GF108991081031017501999999KA1120M+03431MA1999999100191MD1999999+0841MW1071REMSYN100AAXX  03184 61498 31715 80816 10270 20185 30019 40150 707// 883// 333 10343 58084 88950 94979 95879;EQDQ01  00002PRCP99
0197614980999992000080406004+16630-011390FM-12+0115GQNF V0209999C000012200019N0100001N1+02361+02121101741ADDAA124010991GF102991021001999999031001KA1120N+02361MA1999999100421MD1999999+0631REMSYN106AAXX  04064 61498 13960 20000 10236 20212 30042 40174 60114 82030 333 0//29 20236 50504 55/// 58063 82363;
0207614980999992000080412004+16630-011390FM-12+0115GQNF V0209999C000012200019N0150001N1+03191+02101101391ADDAA199000091GA1011+015009089GF101991011011017501001011MA1999999100091MD1999999+0121REMSYN094AAXX  04124 61498 33765 10000 10319 20210 30009 40139 81101 333 0//00 58012 81850 94904 95834;EQDQ01  00002PRCP99
0171614980999992000080415004+16630-011390FM-12+0115GQNF V0209999C000012200019N0150001N1+03451+02051101231ADDGA1011+015009089GF101991011011017501001001MA1999999099931MD1999999-0041REMSYN088AAXX  04154 61498 43765 10000 10345 20205 39993 40123 81100 333 59004 81850 94909 95839;
0183614980999992000080512004+16630-011390FM-12+0115GQNF V0202801N003112200019N0100001N1+03401+02261101331ADDAA199000091GA1001+999999999GF100991001001999999001001MA1999999100041MD1999999-0051REMSYN070AAXX  05124 61498 33960 02806 10340 20226 30004 40133 333 0//00 59005;EQDQ01  00002PRCP99
0147614980999992000080515004+16630-011390FM-12+0115GQNF V0209999C000012200019N0100001N1+03751+02081101141ADDGA1001+999999999GF100991001001999999001001MA1999999099861MD1999999-0071REMSYN064AAXX  05154 61498 43960 00000 10375 20208 39986 40114 333 59007;
0212614980999992000080518004+16630-011390FM-12+0115GQNF V0203401N001512200019N0100001N1+03761+02151101952ADDAA199000091GA1001+999999999GF100991001001999999001001KA1120M+03831MA1999999099671MD1999999-0381REMSYN070AAXX  05184 61498 33960 03403 10376 20215 39967 40195 333 10383 59038;EQDQ01+101953APOSLPQ02  00002PRCP99
0200614980999992000080606004+16630-011390FM-12+0115GQNF V0202801N004112200019N0100001N1+02941+02111100811ADDAA199000091GA1001+999999999GF100991001001999999001001KA1120N+02841MA1999999099541REMSYN088AAXX  06064 61498 33960 02808 10294 20211 39954 40081 333 0//00 20284 51004 55/// 59049;EQDQ01  00002PRCP99
0159614980999992000080609004+16630-011390FM-12+0115GQNF V0202801N003112200019N0100001N1+03081+01961100971ADDGA1031+069009019GF103991001001999999001011MA1999999099691MD1999999-0321REMSYN076AAXX  06094 61498 42960 32806 10308 20196 39969 40097 80001 333 59032 83073;
0195614980999992000080612004+16630-011390FM-12+0115GQNF V0202801N003110690019N0100001N1+03601+00862100991ADDAA199000091GA1051+069009019GF105991001001999999001021MA1999999099711MD1999999-0331REMSYN082AAXX  06124 61498 33960 52806 10360 20086 39971 40099 80002 333 0//00 59033 85073;EQDQ01  00002PRCP99
0147614980999992000080615004+16630-011390FM-12+0115GQNF V0202801N003112200019N0100001N1+03811+01751100801ADDGA1001+999999999GF100991001001999999001001MA1999999099531MD1999999-0331REMSYN064AAXX  06154 61498 43960 02806 10381 20175 39953 40080 333 59033;
0187614980999992000080618004+16630-011390FM-12+0115GQNF V0209999C000012200019N0100001N1+03751+01851100671ADDAA199000091GA1011+069009019GF101991001001999999001011KA1120M+03851MD1999999-0271REMSYN076AAXX  06184 61498 33960 10000 10375 20185 40067 80001 333 10385 59027 81073;EQDQ01  00002PRCP99
0147614980999992000080621004+16630-011390FM-12+0115GQNF V0209999C000012200019N0100001N1+03481+02041100801ADDGA1001+999999999GF100991001001999999001001MA1999999099621MD1999999-0091REMSYN064AAXX  06214 61498 43960 00000 10348 20204 39962 40080 333 59009;
0200614980999992000080706004+16630-011390FM-12+0115GQNF V0209999C000012200019N0100001N1+02761+02301100961ADDAA199000091GA1001+999999999GF100991001001999999001001KA1120N+02761MA1999999099681REMSYN088AAXX  07064 61498 33960 00000 10276 20230 39968 40096 333 0//00 20276 50804 55/// 58014;EQDQ01  00002PRCP99
0147614980999992000080709004+16630-011390FM-12+0115GQNF V0201401N003112200019N0100001N1+02801+02241101051ADDGA1001+999999999GF100991001001999999001001MA1999999099761MD1999999+0071REMSYN064AAXX  07094 61498 42960 01406 10280 20224 39976 40105 333 58007;
0196614980999992000080918004+16630-011390FM-12+0115GQNF V0209999C000012200019N0100001N1+03631+01761100981ADDAA199000091GA1001+999999999GF100991001001999999001001KA1120M+03751MA1999999099691MD1999999+0011REMSYN070AAXX  09184 61498 33960 00000 10363 20176 39969 40098 333 10375 58001;EQDQ01  00002PRCP99
0193614980999992000081115004+16630-011390FM-12+0115GQNF V0209999C00001105001CN0150001N1+03531+01961101071ADDGA1011+015009089GA2031+039009039GF105991011011017501031011MA1999999099791MD1999999+0111REMSYN094AAXX  11154 61498 43765 50000 10353 20196 39979 40107 81131 333 58011 81850 83363 94909 95879;
0207614980999992000081118004+16630-011390FM-12+0115GQNF V0209999C000012200019N0150001N1+03511+01951100911ADDAA112002091GA1011+015009089GF102991011011017501031011KA1120M+03601MA1999999099621MD1999999+0111REMSYN100AAXX  11184 61498 13765 20000 10351 20195 39962 40091 60022 81131 333 10360 58011 81850 94904 95834;
0187614980999992000081206004+16630-011390FM-12+0115GQNF V0201801N003112200019N0100001N1+02781+02131101011ADDAA124002091GA1001+999999999GF100991001001999999001001KA1120N+02781MA1999999099731REMSYN094AAXX  12064 61498 13960 01806 10278 20213 39973 40101 60024 333 0//19 20278 50954 55/// 59025;
0159614980999992000081209004+16630-011390FM-12+0115GQNF V0209999C000012200019N0100001N1+03161+02171101191ADDGA1031+069009019GF103991001001999999001021MA1999999099901MD1999999-0231REMSYN076AAXX  12094 61498 42960 30000 10316 20217 39990 40119 80002 333 59023 83073;
0183614980999992000081212004+16630-011390FM-12+0115GQNF V0201801N004112200019N0050001N1+03541+02191101121ADDAA199000091GA1001+999999999GF100991001001999999001001MA1999999099841MD1999999-0231REMSYN070AAXX  12124 61498 33950 01808 10354 29219 39984 40112 333 0//00 59023;EQDQ01  00002PRCP99
0196614980999992000081318004+16630-011390FM-12+0115GQNF V0202001N002612200019N0100001N1+03811+01951100751ADDAA199000091GA1001+999999999GF100991001001999999001001KA1120M+03911MA1999999099481MD1999999+0071REMSYN070AAXX  13184 61498 33960 02005 10381 20195 39948 40075 333 10391 58007;EQDQ01  00002PRCP99
0193614980999992000081409004+16630-011390FM-12+0115GQNF V0202801N00721045001CN0060001N1+03101+02231101161ADDAY101031AY201031GA1041+008109069GF106991041061008001031001MA1999999099881MD1999999+0071MW1071REMSYN088AAXX  14094 61498 41556 62814 10310 20223 39988 40116 70700 84630 333 58007 84627 83363;
0207614980999992000081412004+16630-011390FM-12+0115GQNF V0202201N007210390019N0060001N1+02741+02101101501ADDAA199000091GA1071+039009079GF107991071001999999071999MA1999999100201MD1999999+0391MW1071REMSYN088AAXX  14124 61498 31956 72214 10274 20210 30020 40150 707// 8707/ 333 0//00 58039 87363;EQDQ01  00002PRCP99
0226614980999992000081418004+16630-011390FM-12+0115GQNF V0201001N003119999999N0040001N1+02911+01901101251ADDAA199000091GA1021+039009039GF107991021001999999031011KA1120M+03361MA1999999099861MD1999999+0381MW1051REMSYN094AAXX  14184 61498 31940 71006 10291 20190 39986 40125 705// 82031 333 10336 58038 82363 86073;EQDQ01  00002PRCP99
0155614980999992000081421004+16630-011390FM-12+0115GQNF V0202201N001519999999N0060001N1+02961+01911100971ADDGF107991071001999999031999MA1999999099681MD1999999+0161MW1051REMSYN082AAXX  14214 61498 41956 72203 10296 20191 39968 40097 705// 8703/ 333 58016 97363;
0210614980999992000081506004+16630-011390FM-12+0115GQNF V0209999C000019999999N0100001N1+02661+01931101111ADDAA199000091GF107991071001999999071999KA1120N+02651MA1999999099851MD1999999+0021REMSYN100AAXX  15064 61498 33960 70000 10266 20193 39985 40111 8707/ 333 0//00 20265 50554 55/// 58002 87363;EQDQ01  00002PRCP99
0147614980999992000081509004+16630-011390FM-12+0115GQNF V0202201N003112200019N0100001N1+02841+01931101281ADDGA1001+999999999GF100991001001999999001001MA1999999099981MD1999999+0101REMSYN064AAXX  15094 61498 42960 02206 10284 20193 39998 40128 333 58010;
0195614980999992000081512004+16630-011390FM-12+0115GQNF V0202201N003112200019N0100001N1+03301+02111101251ADDAA199000091GA1031+039009079GF103991031001999999031001MA1999999099961MD1999999-0241REMSYN082AAXX  15124 61498 33960 32206 10330 20211 39996 40125 83030 333 0//00 59024 83363;EQDQ01  00002PRCP99
0159614980999992000081515004+16630-011390FM-12+0115GQNF V0209999C000012200019N0150001N1+03631+02071101021ADDGA1031+039009079GF103991031001999999031001MA1999999099731MD1999999-0191REMSYN076AAXX  15154 61498 43965 30000 10363 20207 39973 40102 83030 333 59019 83363;
0208614980999992000081518004+16630-011390FM-12+0115GQNF V0202201N002610390019N0150001N1+03531+02011100821ADDAA199000091GA1051+039009079GF105991051001999999031001KA1120M+03701MA1999999099541MD1999999-0321REMSYN082AAXX  15184 61498 33965 52205 10353 20201 39954 40082 85030 333 10370 59032 85363;EQDQ01  00002PRCP99
0200614980999992000081606004+16630-011390FM-12+0115GQNF V0202201N003112200019N0100001N1+02841+02231100951ADDAA199000091GA1001+999999999GF100991001001999999001001KA1120N+02341MA1999999099671REMSYN088AAXX  16064 61498 33960 02206 10284 20223 39967 40095 333 0//00 20234 50904 55/// 59018;EQDQ01  00002PRCP99
0165614980999992000081609004+16630-011390FM-12+0115GQNF V0202201N003112200019N0100001N1+03001+02181101231ADDGA1021+008109069GF103991021061012501031001MA1999999099941MD1999999+0041REMSYN082AAXX  16094 61498 42660 32206 10300 20218 39994 40123 82630 333 58004 82627 82363;
0195614980999992000081612004+16630-011390FM-12+0115GQNF V0202801N004110120019N0100001N1+03401+02351101241ADDAA199000091GA1051+012009059GF105991051051012501001001MA1999999099951MD1999999-0011REMSYN082AAXX  16124 61498 33660 52808 10340 20235 39995 40124 85500 333 0//00 59001 85640;EQDQ01  00002PRCP99
0149614980999992000081615004+16630-011390FM-12+0115GQNF V0209999C000012200019N0100001N1+03841+02091100921ADDGF101991011011012501001001MA1999999099641MD1999999-0091REMSYN082AAXX  16154 61498 43660 10000 10384 20209 39964 40092 81100 333 59009 94906 95836;
0208614980999992000081618004+16630-011390FM-12+0115GQNF V0209999C000010390019N0100001N1+03721+02091100741ADDAA199000091GA1051+039009079GF105991051001999999031001KA1120M+03841MA1999999099461MD1999999-0081REMSYN082AAXX  16184 61498 33960 50000 10372 20209 39946 40074 85030 333 10384 59008 85363;EQDQ01  00002PRCP99
0200614980999992000081706004+16630-011390FM-12+0115GQNF V0202201N003112200019N0100001N1+02941+02161100921ADDAA199000091GA1001+999999999GF100991001001999999001001KA1120N+02901MA1999999099641REMSYN088AAXX  17064 61498 33960 02206 10294 20216 39964 40092 333 0//00 20290 50774 55/// 59003;EQDQ01  00002PRCP99
0159614980999992000081709004+16630-011390FM-12+0115GQNF V0201201N003612200019N0100001N1+03061+02081100971ADDGA1011+039009079GF101991011001999999031001MA1999999099691MD1999999-0251REMSYN076AAXX  17094 61498 42960 11207 10306 20208 39969 40097 81030 333 59025 81363;
0207614980999992000081712004+16630-011390FM-12+0115GQNF V0202201N003112200019N0100001N1+03601+02081101001ADDAA199000091GA1021+012009089GF102991021011022501001001MA1999999099721MD1999999-0231REMSYN094AAXX  17124 61498 33860 22206 10360 20208 39972 40100 82100 333 0//00 59023 82840 94905 95815;EQDQ01  00002PRCP99
0220614980999992000081718004+16630-011390FM-12+0115GQNF V0202601N002612200019N0100001N1+03641+02051100751ADDAA199000091GA1011+012009089GF101991011011012501001001KA1120M+03821MA1999999099471MD1999999-0011REMSYN094AAXX  17184 61498 33660 12605 10364 20205 39947 40075 81100 333 10382 59001 81840 94909 95879;EQDQ01  00002PRCP99
0227614980999992000081806004+16630-011390FM-12+0115GQNF V0202801N003110390019N0100001N1+02401+01941100891ADDAA124022191AC11I9AY191061AY261061GA1081+039009079GF108991081001012501071999KA1120N+02321MA1999999099601MW1021REMSYN106AAXX  18064 61498 11660 82806 10240 20194 39960 40089 60224 70296 8807/ 333 0//75 20232 50734 55/// 88363;
0159614980999992000081809004+16630-011390FM-12+0115GQNF V0209999C000010390019N0100001N1+02501+02041101141ADDGA1081+039009079GF108991081001999999071999MA1999999099841MD1999999+0151REMSYN076AAXX  18094 61498 42960 80000 10250 20204 39984 40114 8807/ 333 58015 88363;
0208614980999992000081818004+16630-011390FM-12+0115GQNF V0209999C000010390019N0100001N1+03251+02171100791ADDAA199000091GA1051+039009079GF105991051001999999031001KA1120M+03491MA1999999099491MD1999999+0021REMSYN082AAXX  18184 61498 33960 50000 10325 20217 39949 40079 85030 333 10349 58002 85363;EQDQ01  00002PRCP99
0147614980999992000081821004+16630-011390FM-12+0115GQNF V0201801N002612200019N0100001N1+02921+02291100881ADDGA1001+999999999GF100991001001999999001001MA1999999099581MD1999999+0151REMSYN064AAXX  18214 61498 43960 01805 10292 20229 39958 40088 333 58015;
0207614980999992000081912004+16630-011390FM-12+0115GQNF V0201801N002112200019N0100001N1+03261+02221101211ADDAA199000091GA1021+012009089GF102991021011012501001001MA1999999099921MD1999999+0181REMSYN094AAXX  19124 61498 33660 21804 10326 20222 39992 40121 82100 333 0//00 58018 82840 94903 95613;EQDQ01  00002PRCP99
0193614980999992000081915004+16630-011390FM-12+0115GQNF V0209999C000012200019N0100001N1+03501+01941101051ADDGA1011+015009089GA2041+069009009GF104991011011017501001011MA1999999099761MD1999999+0161REMSYN094AAXX  19154 61498 43760 40000 10350 20194 39976 40105 81101 333 58016 81850 84073 94909 95839;
0241614980999992000082006004+16630-011390FM-12+0115GQNF V0201801N003610450019N0100001N1+02561+02221101261ADDAA124011991AY191061AY261061GA1031+009009099GF105991031091008001071001KA1120N+02501MA1999999099871MD1999999+0101MW1171REMSYN112AAXX  20064 61498 11560 51807 10256 20222 39987 40126 60124 71796 83970 333 20250 50434 55/// 58010 83930 83363;
0216614980999992000082012004+16630-011390FM-12+0115GQNF V0209999C000010390019N0100001N1+02461+02311101551ADDAA106025991AC12C9AY191061AY261061GA1081+039009079GF108991081001999999071999MA1999999100241MD1999999+0321MW1001REMSYN094AAXX  20124 61498 11960 80000 10246 20231 30024 40155 60261 70096 8807/ 333 0//62 58032 88363;
0159614980999992000082015004+16630-011390FM-12+0115GQNF V0209999C000010390019N0100001N1+03521+02121101611ADDGA1071+039009079GF107991071001999999071999MA1999999100001MD1999999+0041REMSYN076AAXX  20154 61498 43960 70000 10352 20212 30000 40161 8707/ 333 58004 87363;
0201614980999992000082018004+16630-011390FM-12+0115GQNF V0209999C000010390019N0100001N1+02751+02381101261ADDAA112030091GA1051+039009039GF107991051001999999031021KA1120M+03041MA1999999099951MD1999999-0291REMSYN094AAXX  20184 61498 12960 70000 10275 20238 39995 40126 60302 85032 333 10304 59029 85363 83073;
0201614980999992000082112004+16630-011390FM-12+0115GQNF V0209999C00001105001CN0600001N1+03001+02181101491ADDAA199000091GA1021+012009089GF106991021011022501001021MA1999999100181MD1999999-0061REMSYN088AAXX  21124 61498 33886 60000 10300 20218 30018 40149 82102 333 0//00 59006 82840 85073;EQDQ01  00002PRCP99
0193614980999992000082115004+16630-011390FM-12+0115GQNF V0209999C000010690019N0150001N1+03261+02271101231ADDGA1021+015009089GA2041+069009009GF105991021011017501001011MA1999999099931MD1999999-0071REMSYN094AAXX  21154 61498 43765 50000 10326 20227 39993 40123 82101 333 59007 82850 84073 94919 95879;
0220614980999992000082118004+16630-011390FM-12+0115GQNF V0209999C000012200019N0150001N1+03311+02281101101ADDAA199000091GA1021+015009089GF103991021011017501001011KA1120M+03351MA1999999099801MD1999999-0111REMSYN094AAXX  21184 61498 33765 30000 10331 20228 39980 40110 82101 333 10335 59011 82850 94919 95879;EQDQ01  00002PRCP99
0203614980999992000082206004+16630-011390FM-12+0115GQNF V0202201N004119999999N0100001N1+02241+02051101001ADDAA124017091AC12C9GF107991071001999999071001KA1120N+02101MA1999999099701MD1999999-0391REMSYN106AAXX  22064 61498 13960 72208 10224 20205 39970 40100 60174 87070 333 0//62 20210 50234 55/// 59039 87363;
0165614980999992000082209004+16630-011390FM-12+0115GQNF V0209999C00001045001CN0100001N1+02441+02141101441ADDGA1041+009009069GF108991041051012501071999MA1999999100131MD1999999-0051REMSYN082AAXX  22094 61498 42660 80000 10244 20214 30013 40144 8457/ 333 59005 84630 87363;
0211614980999992000082212004+16630-011390FM-12+0115GQNF V0202201N003110690019N0100001N1+02801+02221101371ADDAA199000091GA1071+069009089GF107991999001999999001081MA1999999100061MD1999999-0121REMSYN082AAXX  22124 61498 33960 72206 10280 20222 30006 40137 80008 333 0//00 59012 87273;EQDQ01+000002SCOTLCQ02  00002PRCP99
0178614980999992000082215004+16630-011390FM-12+0115GQNF V0209999C000010690019N0150001N1+03151+02211101131ADDGA1081+069009089GF108991999001999999001071MA1999999099821MD1999999-0111REMSYN076AAXX  22154 61498 43965 80000 10315 20221 39982 40113 80007 333 59011 88273;EQDQ01+000002SCOTLC
0224614980999992000082218004+16630-011390FM-12+0115GQNF V0209999C000010690019N0150001N1+03101+02231101031ADDAA199000091GA1081+069009089GF108991999001999999001071KA1120M+03181MA1999999099721MD1999999-0081REMSYN082AAXX  22184 61498 32965 80000 10310 20223 39972 40103 80007 333 10318 59008 88273;EQDQ01+000002SCOTLCQ02  00002PRCP99
0147614980999992000082221004+16630-011390FM-12+0115GQNF V0209999C000012200019N0100001N1+02821+02141101111ADDGA1001+999999999GF100991001001999999001001MA1999999099801MD1999999+0081REMSYN064AAXX  22214 61498 43960 00000 10282 20214 39980 40111 333 58008;
0200614980999992000082306004+16630-011390FM-12+0115GQNF V0209999C000012200019N0100001N1+02581+02261101111ADDAA199000091GA1001+999999999GF100991001001999999001001KA1120N+02561MA1999999099811REMSYN088AAXX  23064 61498 33960 00000 10258 20226 39981 40111 333 0//00 20256 50184 55/// 58011;EQDQ01  00002PRCP99
0147614980999992000082309004+16630-011390FM-12+0115GQNF V0202801N002612200019N0100001N1+02781+02291101131ADDGA1001+999999999GF100991001001999999001001MA1999999099831MD1999999-0331REMSYN064AAXX  23094 61498 42960 02805 10278 20229 39983 40113 333 59033;
0193614980999992000082315004+16630-011390FM-12+0115GQNF V0202601N002612200019N0100001N1+03451+02161100941ADDGA1011+015009089GA2031+039009039GF103991011011017501031001MA1999999099651MD1999999-0171REMSYN094AAXX  23154 61498 43760 32605 10345 20216 39965 40094 81130 333 59017 81850 83363 94909 95879;
0220614980999992000082318004+16630-011390FM-12+0115GQNF V0202601N002612200019N0100001N1+03361+02051100911ADDAA199000091GA1011+015009089GF103991011011999999001011KA1120M+03451MA1999999099621MD1999999-0101REMSYN094AAXX  23184 61498 33960 32605 10336 20205 39962 40091 81101 333 10345 59010 81850 94909 95879;EQDQ01  00002PRCP99
0217614980999992000082412004+16630-011390FM-12+0115GQNF V0202201N004119999999N0100001N1+03241+02391101281ADDAA199000091GA1031+015009089GF106991999011017501001011MA1999999099981MD1999999+0161REMSYN088AAXX  24124 61498 33760 62208 10324 20239 39998 40128 80101 333 0//00 58016 83850 86073;EQDQ01+000002SCOTLCQ02  00002PRCP99
0171614980999992000082415004+16630-011390FM-12+0115GQNF V0202201N002112200019N0150001N1+03561+02311101061ADDGA1031+015009089GF103991031011017501001001MA1999999099771MD1999999+0121REMSYN088AAXX  24154 61498 43765 32204 10356 20231 39977 40106 83100 333 58012 83850 94919 95879;
0200614980999992000082506004+16630-011390FM-12+0115GQNF V0201801N003112200019N0100001N1+02761+02451101091ADDAA199000091GA1001+999999999GF100991001001999999001001KA1120N+02751MA1999999099801REMSYN088AAXX  25064 61498 33960 01806 10276 20245 39980 40109 333 0//00 20275 50344 55/// 58021;EQDQ01  00002PRCP99
0171614980999992000082509004+16630-011390FM-12+0115GQNF V0201801N002112200019N0100001N1+03001+02441101191ADDGA1011+012009089GF101991011011012501001001MA1999999099901MD1999999-0071REMSYN088AAXX  25094 61498 42660 11804 10300 20244 39990 40119 81100 333 59007 81840 94908 95818;
0207614980999992000082512004+16630-011390FM-12+0115GQNF V0209999C000012200019N0150001N1+03451+02161101151ADDAA199000091GA1041+012009089GF104991041021012501001001MA1999999099861MD1999999-0121REMSYN094AAXX  25124 61498 33665 40000 10345 20216 39986 40115 84200 333 0//00 59012 84840 94939 95879;EQDQ01  00002PRCP99
0198614980999992000082518004+16630-011390FM-12+0115GQNF V0209999C000012200019N0150001N1+03561+02071100831ADDAA199000091GF101991011011012501001001KA1120M+03651MA1999999099531MD1999999-0121REMSYN088AAXX  25184 61498 33665 10000 10356 20207 39953 40083 81100 333 10365 59012 94917 95879;EQDQ01  00002PRCP99
0272614980999992000082606004+16630-011390FM-12+0115GQNF V0201401N00511039001CN0070001N1+02861+99999100851ADDAA199000091GA1031+009009099GA2071+039009039GF108991041091008001071999KA1120N+02861MA1999999099571MD1999999-0231MW1171REMSYN124AAXX  26064 61498 31557 81410 10286 20295 39957 40085 717// 8497/ 333 0//00 20286 50674 55/// 59023 83930 87363 94959 95839;EQDQ01  00002PRCP99
0165614980999992000082615004+16630-011390FM-12+0115GQNF V0209999C000019999999N0200001N1+02761+02151101001ADDGA1031+039009039GF108991031001999999031021MA1999999099701MD1999999+0031REMSYN082AAXX  26154 61498 43970 80000 10276 20215 39970 40100 83032 333 58003 83363 86073;
0201614980999992000082618004+16630-011390FM-12+0115GQNF V0209999C000012200019N0200001N1+02901+02231100861ADDAA112029091GA1011+039009039GF104991011001999999031011KA1120M+03121MA1999999099561MD1999999+0031REMSYN094AAXX  26184 61498 13970 40000 10290 20223 39956 40086 60292 81031 333 10312 58003 81363 83073;
0147614980999992000082621004+16630-011390FM-12+0115GQNF V0209999C000012200019N0100001N1+02751+02341100911ADDGA1001+999999999GF100991001001999999001001MA1999999099601MD1999999+0061REMSYN064AAXX  26214 61498 43960 00000 10275 20234 39960 40091 333 58006;
0187614980999992000082706004+16630-011390FM-12+0115GQNF V0209999C000012200019N0100001N1+02501+02291101061ADDAA124029091GA1001+999999999GF100991001001999999001001KA1120N+02501MA1999999099751REMSYN094AAXX  27064 61498 13960 00000 10250 20229 39975 40106 60294 333 0//00 20250 50064 55/// 58018;
0159614980999992000082709004+16630-011390FM-12+0115GQNF V0209999C000012200019N0100001N1+02701+02361101181ADDGA1021+069009019GF102991001001999999001011MA1999999099861MD1999999-0201REMSYN076AAXX  27094 61498 42960 20000 10270 20236 39986 40118 80001 333 59020 82073;
0207614980999992000082712004+16630-011390FM-12+0115GQNF V0209999C000012200019N0100001N1+03081+02241101101ADDAA199000091GA1011+012009089GF101991011011012501001001MA1999999099801MD1999999-0241REMSYN094AAXX  27124 61498 33660 10000 10308 20224 39980 40110 81100 333 0//00 59024 81840 94906 95836;EQDQ01  00002PRCP99
0147614980999992000082715004+16630-011390FM-12+0115GQNF V0209999C000012200019N0100001N1+03451+02251100881ADDGA1001+999999999GF100991001001999999001001MA1999999099591MD1999999-0111REMSYN064AAXX  27154 61498 43960 00000 10345 20225 39959 40088 333 59011;
0196614980999992000082718004+16630-011390FM-12+0115GQNF V0209999C000012200019N0100001N1+03501+02281100761ADDAA199000091GA1001+999999999GF100991001001999999001001KA1120M+03531MA1999999099471MD1999999-0011REMSYN070AAXX  27184 61498 33960 00000 10350 20228 39947 40076 333 10353 59001;EQDQ01  00002PRCP99
0219614980999992000082800004+16630-011390FM-12+0115GQNF V0209999C000012200019N0100001N1+02941+02401100801ADDAA199000091GA1021+012009099GF102991021091012501001001MA1999999099511MD1999999-0261MW1131REMSYN100AAXX  28004 61498 31660 20000 10294 20240 39951 40080 713// 82900 333 0//00 59026 82940 94944 95814;EQDQ01  00002PRCP99
0200614980999992000082806004+16630-011390FM-12+0115GQNF V0209999C000012200019N0100001N1+02701+01421100791ADDAA199000091GA1001+999999999GF100991001001999999001001KA1120N+02701MA1999999099501REMSYN088AAXX  28064 61498 32960 00000 10270 20142 39950 40079 333 0//00 20270 50244 55/// 59025;EQDQ01  00002PRCP99
0159614980999992000082809004+16630-011390FM-12+0115GQNF V0201801N002112200019N0100001N1+02901+02391101081ADDGA1031+069009019GF103991001001999999001011MA1999999099791MD1999999-0071REMSYN076AAXX  28094 61498 42960 31804 10290 20239 39979 40108 80001 333 59007 83073;
0201614980999992000082812004+16630-011390FM-12+0115GQNF V0202201N00311220001CN0100001N1+03341+02441101191ADDAA199000091GA1021+015009089GF105991021011017501001011MA1999999099901MD1999999+0101REMSYN088AAXX  28124 61498 33760 52206 10334 20244 39990 40119 82101 333 0//00 58010 82850 85073;EQDQ01  00002PRCP99
0196614980999992000082818004+16630-011390FM-12+0115GQNF V0209999C000012200019N0100001N1+03531+02101100791ADDAA199000091GA1001+999999999GF100991001001999999001001KA1120M+03681MA1999999099501MD1999999+0031REMSYN070AAXX  28184 61498 33960 00000 10353 20210 39950 40079 333 10368 58003;EQDQ01  00002PRCP99
0147614980999992000082821004+16630-011390FM-12+0115GQNF V0209999C000012200019N0100001N1+03251+02331100931ADDGA1001+999999999GF100991001001999999001001MA1999999099641MD1999999-0181REMSYN064AAXX  28214 61498 43960 00000 10325 20233 39964 40093 333 59018;
0196614980999992000082918004+16630-011390FM-12+0115GQNF V0209999C000012200019N0150001N1+03871+02171100791ADDAA199000091GA1001+999999999GF100991001001999999001001KA1120M+03951MA1999999099511MD1999999+0011REMSYN070AAXX  29184 61498 33965 00000 10387 20217 39951 40079 333 10395 58001;EQDQ01  00002PRCP99
0210614980999992000083006004+16630-011390FM-12+0115GQNF V0201801N003119999999N0100001N1+02701+02011100781ADDAA199000091GF105991051001999999071001KA1120N+02701MA1999999099501MD1999999-0181REMSYN100AAXX  30064 61498 33960 51806 10270 20201 39950 40078 85070 333 0//00 20270 50494 55/// 59018 85363;EQDQ01  00002PRCP99
0159614980999992000083009004+16630-011390FM-12+0115GQNF V0201801N004110690019N0100001N1+02901+02001101021ADDGA1051+069009019GF105991001001999999001021MA1999999099741MD1999999+0011REMSYN076AAXX  30094 61498 42960 51808 10290 20200 39974 40102 80002 333 58001 85073;
0195614980999992000083012004+16630-011390FM-12+0115GQNF V0202201N004110690019N0100001N1+03361+02211101051ADDAA199000091GA1051+069009019GF105991001001999999001021MA1999999099771MD1999999+0021REMSYN082AAXX  30124 61498 33960 52208 10336 20221 39977 40105 80002 333 0//00 58002 85073;EQDQ01  00002PRCP99
0159614980999992000083015004+16630-011390FM-12+0115GQNF V0202801N003110690019N0100001N1+03481+02041100871ADDGA1061+069009019GF106991001001999999001011MA1999999099591MD1999999-0051REMSYN076AAXX  30154 61498 43960 62806 10348 20204 39959 40087 80001 333 59005 86073;
0147614980999992000083021004+16630-011390FM-12+0115GQNF V0209999C000012200019N0100001N1+03101+02111100811ADDGA1001+999999999GF100991001001999999001001MA1999999099521MD1999999+0081REMSYN064AAXX  30214 61498 43960 00000 10310 20211 39952 40081 333 58008;
0200614980999992000083106004+16630-011390FM-12+0115GQNF V0202801N003112200019N0100001N1+02801+02181100901ADDAA199000091GA1001+999999999GF100991001001999999001001KA1120N+02781MA1999999099611REMSYN088AAXX  31064 61498 33960 02806 10280 20218 39961 40090 333 0//00 20278 50444 55/// 58010;EQDQ01  00002PRCP99
0159614980999992000083109004+16630-011390FM-12+0115GQNF V0202801N003112200019N0100001N1+02981+02151100981ADDGA1031+039009079GF103991031001999999071001MA1999999099681MD1999999-0081REMSYN076AAXX  31094 61498 42960 32806 10298 20215 39968 40098 83070 333 59008 83363;
0183614980999992000083112004+16630-011390FM-12+0115GQNF V0202201N002112200019N0100001N1+03461+02051100981ADDAA199000091GA1001+999999999GF100991001001999999001001MA1999999099701MD1999999-0071REMSYN070AAXX  31124 61498 33960 02204 10346 20205 39970 40098 333 0//00 59007;EQDQ01  00002PRCP99
0147614980999992000083115004+16630-011390FM-12+0115GQNF V0209999C000012200019N0100001N1+03801+01991100761ADDGA1001+999999999GF100991001001999999001001MA1999999099491MD1999999-0101REMSYN064AAXX  31154 61498 43960 00000 10380 20199 39949 40076 333 59010;
0196614980999992000083118004+16630-011390FM-12+0115GQNF V0209999C000012200019N0100001N1+03641+01931100601ADDAA199000091GA1001+999999999GF100991001001999999001001KA1120M+03801MA1999999099321MD1999999-0121REMSYN070AAXX  31184 61498 33960 00000 10364 20193 39932 40060 333 10380 59012;EQDQ01  00002PRCP99
0159614980999992000090115004+16630-011390FM-12+0115GQNF V0209999C000012200019N0100001N1+03751+01991100821ADDGA1011+069009019GF101991001001999999001011MA1999999099531MD1999999-0041REMSYN076AAXX  01154 61498 43960 10000 10375 20199 39953 40082 80001 333 59004 81073;
0208614980999992000090118004+16630-011390FM-12+0115GQNF V0209999C000012200019N0100001N1+03601+02151100811ADDAA199000091GA1011+069009019GF101991001001999999001011KA1120M+03801MA1999999099521MD1999999-0201REMSYN082AAXX  01184 61498 33960 10000 10360 20215 39952 40081 80001 333 10380 59020 81073;EQDQ01  00002PRCP99
0159614980999992000090209004+16630-011390FM-12+0115GQNF V0209999C000012200019N0100001N1+03141+02211100971ADDGA1041+039009079GF104991041001999999031001MA1999999097691MD1999999+0021REMSYN076AAXX  02094 61498 42960 40000 10314 20221 39769 40097 84030 333 58002 84363;
0208614980999992000090218004+16630-011390FM-12+0115GQNF V0201801N002110390019N0100001N1+03521+02091100811ADDAA199000091GA1071+039009079GF107991071001999999071001KA1120M+03841MA1999999099531MD1999999+0011REMSYN082AAXX  02184 61498 33960 71804 10352 20209 39953 40081 87070 333 10384 58001 87363;EQDQ01  00002PRCP99
0183614980999992000090300004+16630-011390FM-12+0115GQNF V0209999C000012200019N0100001N1+03141+02371100901ADDAA199000091GA1001+999999999GF100991001001999999001001MA1999999099621MD1999999-0041REMSYN070AAXX  03004 61498 33960 00000 10314 20237 39962 40090 333 0//00 59004;EQDQ01  00002PRCP99
0203614980999992000090406004+16630-011390FM-12+0115GQNF V0209999C000019999999N0100001N1+02541+02091100881ADDAA124004191AC10I9GF107991071001999999071999KA1120N+02361MA1999999099601MD1999999+0011REMSYN106AAXX  04064 61498 13960 70000 10254 20209 39960 40088 60044 8707/ 333 0//54 20236 50074 55/// 58001 87363;
0159614980999992000090409004+16630-011390FM-12+0115GQNF V0202801N002610390019N0100001N1+02741+02191100891ADDGA1061+039009079GF106991061001999999071001MA1999999099611MD1999999-0251REMSYN076AAXX  04094 61498 42960 62805 10274 20219 39961 40089 86070 333 59025 86363;
0195614980999992000090412004+16630-011390FM-12+0115GQNF V0202201N003112200019N0070001N1+03301+02141100891ADDAA199000091GA1001+999999999GF100991001001999999001001MA1999999099611MD1999999-0201MW1051REMSYN076AAXX  04124 61498 32957 02206 10330 20214 39961 40089 705// 333 0//00 59020;EQDQ01  00002PRCP99
0187614980999992000090509004+16630-011390FM-12+0115GQNF V0202801N003110390019N0030001N1+03041+02321100731ADDAY121031AY221031GA1051+039009079GF105991051001999999031001MA1999999099451MD1999999-0161MW1051REMSYN082AAXX  05094 61498 41930 52806 10304 20232 39945 40073 70522 85030 333 59016 85363;
0195614980999992000090512004+16630-011390FM-12+0115GQNF V0200401N003112200019N0030001N1+03731+01971100721ADDAA199000091GA1001+999999999GF100991001001999999001001MA1999999099451MD1999999-0161MW1051REMSYN076AAXX  05124 61498 31930 00406 10373 20197 30945 40072 705// 333 0//00 59016;EQDQ01  00002PRCP99
0208614980999992000090518004+16630-011390FM-12+0115GQNF V0202201N004112200019N0040001N1+03561+02181100501ADDAA199000091GA1001+999999999GF100991001001999999001001KA1120M+03921MA1999999099221MD1999999+0071MW1051REMSYN076AAXX  05184 61498 31940 02208 10356 20218 39922 40050 705// 333 10392 58007;EQDQ01  00002PRCP99
0159614980999992000090521004+16630-011390FM-12+0115GQNF V0202201N004112200019N0060001N1+03201+02281100671ADDGA1001+999999999GF100991001001999999001001MA1999999099391MD1999999+0261MW1051REMSYN070AAXX  05214 61498 41956 02208 10320 20228 39939 40067 705// 333 58026;
0222614980999992000090606004+16630-011390FM-12+0115GQNF V0201801N005112200019N0080001N1+02801+02461100981ADDAA199000091GF103991031001999999031001KA1120N+02781MA1999999099701MD1999999+0581MW1051REMSYN106AAXX  06064 61498 31958 31810 10280 20246 39970 40098 705// 83030 333 0//00 20278 50564 55/// 58058 83363;EQDQ01  00002PRCP99
0207614980999992000090612004+16630-011390FM-12+0115GQNF V0202201N005110690019N0080001N1+03401+02261100981ADDAA199000091GA1061+069009019GF106991001001999999001021MA1999999099701MD1999999+0251MW1051REMSYN088AAXX  06124 61498 31958 62210 10340 20226 39970 40098 705// 80002 333 0//00 58025 86073;EQDQ01  00002PRCP99
0171614980999992000090615004+16630-011390FM-12+0115GQNF V0201801N002112200019N0100001N1+03801+02301100721ADDGA1021+012009069GF102991021011012501001001MA1999999099451MD1999999+0201REMSYN088AAXX  06154 61498 43660 21804 10380 20230 39945 40072 82100 333 58020 82640 94904 95814;
0208614980999992000090618004+16630-011390FM-12+0115GQNF V0202201N002112200019N0100001N1+03701+02211100631ADDAA199000091GA1031+039009079GF103991031001999999031001KA1120M+03801MA1999999099361MD1999999+0141REMSYN082AAXX  06184 61498 33960 32204 10370 20221 39936 40063 83030 333 10380 58014 83363;EQDQ01  00002PRCP99
0147614980999992000090709004+16630-011390FM-12+0115GQNF V0209999C000012200019N0100001N1+03001+02521101061ADDGA1001+999999999GF100991001001999999001001MA1999999099781MD1999999+0121REMSYN064AAXX  07094 61498 42960 00000 10300 20252 39978 40106 333 58012;
0207614980999992000090712004+16630-011390FM-12+0115GQNF V0209999C000012200019N0100001N1+03601+02321101021ADDAA199000091GA1021+012009089GF102991021011012501001001MA1999999099741MD1999999+0141REMSYN094AAXX  07124 61498 33660 20000 10360 20232 39974 40102 82100 333 0//00 58014 82840 94904 95814;EQDQ01  00002PRCP99
0203614980999992000090806004+16630-011390FM-12+0115GQNF V0202201N003119999999N0100001N1+02701+02201100791ADDAA124010991AC11I9GF107991071001999999071999KA1120N+02461MA1999999099571MD1999999+0041REMSYN106AAXX  08064 61498 13960 72206 10270 20220 39957 40079 60114 8707/ 333 0//25 20246 50504 55/// 58004 87363;
0159614980999992000090809004+16630-011390FM-12+0115GQNF V0201801N002112200019N0100001N1+02801+02121100901ADDGA1021+039009079GF102991021001999999031001MA1999999099611MD1999999-0171REMSYN076AAXX  08094 61498 42960 21804 10280 20212 39961 40090 82030 333 59017 82363;
0196614980999992000090818004+16630-011390FM-12+0115GQNF V0202801N002112200019N0100001N1+03601+02161100581ADDAA199000091GA1001+999999999GF100991001001999999001001KA1120M+03701MA1999999099301MD1999999-0101REMSYN070AAXX  08184 61498 33960 02804 10360 20216 39930 40058 333 10370 59010;EQDQ01  00002PRCP99
0210614980999992000090906004+16630-011390FM-12+0115GQNF V0202201N003119999999N0100001N1+02941+01981100511ADDAA199000091GF106991061001999999071001KA1120N+02941MA1999999099241MD1999999-0331REMSYN100AAXX  09064 61498 33960 62206 10294 20198 39924 40051 86070 333 0//00 20294 50454 55/// 59033 86363;EQDQ01  00002PRCP99
0147614980999992000090915004+16630-011390FM-12+0115GQNF V0202801N003112200019N0100001N1+03761+01921100521ADDGA1001+999999999GF100991001001999999001001MA1999999099251MD1999999-0161REMSYN064AAXX  09154 61498 43960 02806 10376 20192 39925 40052 333 59016;
0216614980999992000091012004+16630-011390FM-12+0115GQNF V0201801N002110390019N0100001N1+03101+02131101171ADDAA106017091AC11I9AY191061AY261061GA1051+039009079GF106991041001999999071011MA1999999099881MD1999999+0391MW1001REMSYN094AAXX  10124 61498 11960 61804 10310 20213 39988 40117 60171 70096 84071 333 0//25 58039 85363;
0159614980999992000091015004+16630-011390FM-12+0115GQNF V0201801N002612200019N0100001N1+03401+02121100931ADDGA1031+069009019GF103991001001999999001011MA1999999099651MD1999999+0401REMSYN076AAXX  10154 61498 43960 31805 10340 20212 39965 40093 80001 333 58040 83073;
0195614980999992000091018004+16630-011390FM-12+0115GQNF V0209999C000010390019N0100001N1+03341+02181100901ADDAA112017091GA1051+039009079GF105991051001999999071001KA1120M+03501MA1999999099571MD1999999+0431REMSYN088AAXX  10184 61498 13960 50000 10334 20218 39957 40090 60172 85070 333 10350 58043 85363;
0197614980999992000091106004+16630-011390FM-12+0115GQNF V0209999C000019999999N0100001N1+02741+02421100841ADDAA124017091GF105991051001999999071001KA1120N+02741MA1999999099551MD1999999-0111REMSYN106AAXX  11064 61498 13960 50000 10274 20242 39955 40084 60174 85070 333 0//29 20274 50424 55/// 59011 85363;
0183614980999992000091112004+16630-011390FM-12+0115GQNF V0202201N003112200019N0100001N1+03501+02371101041ADDAA199000091GA1001+999999999GF100991001001999999001001MA1999999099761MD1999999-0121REMSYN070AAXX  11124 61498 33960 02206 10350 20237 39976 40104 333 0//00 59012;EQDQ01  00002PRCP99
0147614980999992000091115004+16630-011390FM-12+0115GQNF V0209999C000012200019N0100001N1+03701+02281100881ADDGA1001+999999999GF100991001001999999001001MA1999999099601MD1999999-0051REMSYN064AAXX  11154 61498 43960 00000 10370 20228 39960 40088 333 59005;
0196614980999992000091118004+16630-011390FM-12+0115GQNF V0209999C000012200019N0100001N1+03501+02211100761ADDAA199000091GA1001+999999999GF100991001001999999001001KA1120M+03761MA1999999099481MD1999999-0091REMSYN070AAXX  11184 61498 33960 00000 10350 20221 39948 40076 333 10376 59009;EQDQ01  00002PRCP99
0147614980999992000091121004+16630-011390FM-12+0115GQNF V0209999C000012200019N0100001N1+03341+02221100741ADDGA1001+999999999GF100991001001999999001001MA1999999099441MD1999999-0091REMSYN064AAXX  11214 61498 43960 00000 10334 20222 39944 40074 333 59009;
0159614980999992000091209004+16630-011390FM-12+0115GQNF V0209999C000012200019N0100001N1+03141+02241100701ADDGA1021+069009019GF102991001001999999001011MA1999999099421MD1999999-0381REMSYN076AAXX  12094 61498 42960 20000 10314 20224 39942 40070 80001 333 59038 82073;
0207614980999992000091212004+16630-011390FM-12+0115GQNF V0202801N002112200019N0040001N1+03741+02081100721ADDAA199000091GA1021+069009019GF102991001001999999001011MA1999999099431MD1999999-0331MW1051REMSYN088AAXX  12124 61498 31940 22804 10374 20208 39943 40072 705// 80001 333 0//00 59033 82073;EQDQ01  00002PRCP99
0171614980999992000091215004+16630-011390FM-12+0115GQNF V0202801N002612200019N0030001N1+04101+01801100381ADDGA1031+069009019GF103991001001999999001011MA1999999099121MD1999999-0481MW1051REMSYN082AAXX  12154 61498 41930 32805 10410 20180 39912 40038 705// 80001 333 59048 83073;
0220614980999992000091218004+16630-011390FM-12+0115GQNF V0202801N002112200019N0050001N1+03981+01621100351ADDAA199000091GA1041+069009019GF104991001001999999001011KA1120M+04101MA1999999099091MD1999999-0391MW1051REMSYN088AAXX  12184 61498 31950 42804 10398 20162 39909 40035 705// 80001 333 10410 59039 84073;EQDQ01  00002PRCP99
0222614980999992000091306004+16630-011390FM-12+0115GQNF V0201801N002112200019N0060001N1+02981+02321100421ADDAA199000091GF103991031001999999031001KA1120N+02901MA1999999099151MD1999999-0231MW1051REMSYN106AAXX  13064 61498 31956 31804 10298 20232 39915 40042 705// 83030 333 0//00 20290 50554 55/// 59023 83363;EQDQ01  00002PRCP99
0183614980999992000091312004+16630-011390FM-12+0115GQNF V0202201N003112200019N0100001N1+03521+02091100911ADDAA199000091GA1001+999999999GF100991001001999999001001MA1999999099651MD1999999+0221REMSYN070AAXX  13124 61498 33960 02206 10352 20209 39965 40091 333 0//00 58022;EQDQ01  00002PRCP99
0147614980999992000091315004+16630-011390FM-12+0115GQNF V0201801N002112200019N0100001N1+03701+02181100751ADDGA1001+999999999GF100991001001999999001001MA1999999099481MD1999999+0361REMSYN064AAXX  13154 61498 43960 01804 10370 20218 39948 40075 333 58036;
0159614980999992000091406004+16630-011390FM-12+0115GQNF V0202801N002110390019N0100001N1+02941+02241101181ADDGA1051+039009079GF105991051001999999031001MA1999999099891MD1999999+0371REMSYN076AAXX  14064 61498 42960 52804 10294 20224 39989 40118 85030 333 58037 85363;
0200614980999992000091412004+16630-011390FM-12+0115GQNF V0200801N002110390019N0070001N1+02261+02081101751ADDAA106014091AC12C9GA1081+039009019GF108991081001999999071999MA1999999100431MD1999999+0781MW1611REMSYN094AAXX  14124 61498 11957 80804 10226 20208 30043 40175 60141 761// 8807/ 333 0//22 58078 88463;
0221614980999992000091415004+16630-011390FM-12+0115GQNF V0200401N002610390019N0100001N1+02381+02111101191ADDAY191031AY261031GA1041+030009089GA2071+039009039GF108991041021012501071999MA1999999100081MD1999999+0601MW1001REMSYN100AAXX  14154 61498 41660 80405 10238 20211 30008 40119 70096 8427/ 333 58060 84860 87363 94919 95839;
0223614980999992000091418004+16630-011390FM-12+0115GQNF V0209999C000010390019N0100001N1+02501+02101101131ADDAA102019191AY191061AY261061GA1061+039009079GF106991061001999999071001KA1120M+03051MA1999999099821MD1999999+0401MW1001REMSYN094AAXX  14184 61498 11960 60000 10250 20210 39982 40113 60196 70096 86070 333 10305 58040 86363;
0225614980999992000091506004+16630-011390FM-12+0115GQNF V0209999C000012200019N0100001N1+02401+02191101151ADDAA124020191AY161061AY261061GF101991011001999999031001KA1120N+02401MA1999999099831MD1999999+0111MW1011REMSYN112AAXX  15064 61498 11960 10000 10240 20219 39983 40115 60204 70166 81030 333 0//29 20240 50164 55/// 58011 81363;
0159614980999992000091509004+16630-011390FM-12+0115GQNF V0209999C000012200019N0100001N1+02641+02231101291ADDGA1011+039009079GF101991011001999999031001MA1999999099991MD1999999+0091REMSYN076AAXX  15094 61498 42960 10000 10264 20223 39999 40129 81030 333 58009 81363;
0195614980999992000091512004+16630-011390FM-12+0115GQNF V0209999C000012200019N0100001N1+03081+02241101281ADDAA199000091GA1031+069009019GF103991001001999999001011MA1999999099981MD1999999-0051REMSYN082AAXX  15124 61498 33960 30000 10308 20224 39998 40128 80001 333 0//00 59005 83073;EQDQ01  00002PRCP99
0159614980999992000091515004+16630-011390FM-12+0115GQNF V0209999C000012200019N0100001N1+03401+02181101041ADDGA1031+069009019GF103991001001999999001011MA1999999099901MD1999999-0341REMSYN076AAXX  15154 61498 43960 30000 10340 20218 39990 40104 80001 333 59034 83073;
0214614980999992000091518004+16630-011390FM-12+0115GQNF V0209999C000012200019N0100001N1+03501+02141100981ADDAA199000091GA1031+069009019GF103991001001999999001011KA1120M+03581MA1999999099701MD1999999-0141REMSYN088AAXX  15184 61498 33960 30000 10350 20214 39970 40098 80001 333 0//00 10358 59014 83073;EQDQ01  00002PRCP99
0183614980999992000091612004+16630-011390FM-12+0115GQNF V0202201N003112200019N0100001N1+03461+02221100921ADDAA199000091GA1001+999999999GF100991001001999999001001MA1999999099641MD1999999-0341REMSYN070AAXX  16124 61498 33960 02206 10346 20222 39964 40092 333 0//00 59034;EQDQ01  00002PRCP99
0196614980999992000091618004+16630-011390FM-12+0115GQNF V0201801N002112200019N0100001N1+03661+01881100621ADDAA199000091GA1001+999999999GF100991001001999999001001KA1120M+03781MA1999999099341MD1999999-0341REMSYN070AAXX  16184 61498 33960 01804 10366 20188 39934 40062 333 10378 59034;EQDQ01  00002PRCP99
0200614980999992000091706004+16630-011390FM-12+0115GQNF V0201801N002112200019N0100001N1+02741+02181100911ADDAA199000091GA1001+999999999GF100991001001999999001001KA1120N+02741MA1999999099711REMSYN088AAXX  17064 61498 33960 01804 10274 20218 39971 40091 333 0//00 20274 50534 55/// 59001;EQDQ01  00002PRCP99
0159614980999992000091715004+16630-011390FM-12+0115GQNF V0200801N003110150019N0100001N1+03701+02101101031ADDGA1051+015009029GF105991051011012501001001MA1999999099751MD1999999+0321REMSYN076AAXX  17154 61498 43660 50806 10370 20210 39975 40103 85100 333 58032 85850;
0231614980999992000091806004+16630-011390FM-12+0115GQNF V0209999C000019999999N0100001N1+02501+02221101011ADDAA124017091AC12I9AY191061AY261061GF107991071001999999071999KA1120N+02301MA1999999099721MD1999999+0091MW1021REMSYN112AAXX  18064 61498 11960 70000 10250 20222 39972 40101 60174 70296 8707/ 333 0//26 20230 50514 55/// 58009 87363;
0221614980999992000091809004+16630-011390FM-12+0115GQNF V0201801N002110390019N0100001N1+02741+01052101241ADDAY121031AY221031GA1041+012009029GA2071+039009039GF108991041091012501071999MA1999999099951MD1999999+0091MW1171REMSYN100AAXX  18094 61498 41660 81804 10274 20105 39995 40124 71722 8497/ 333 58009 84240 87363 94952 95832;
0235614980999992000091812004+16630-011390FM-12+0115GQNF V0202201N002110690019N0100001N1+02541+02091101351ADDAA106005191AC10I9AY191061AY261061GA1071+069009089GF107991999001999999001081MA1999999100031MD1999999-0221MW1001REMSYN094AAXX  18124 61498 11960 72204 10254 20209 30003 40135 60051 70096 80008 333 0//14 59022 87273;EQDQ01+000002SCOTLC
0159614980999992000091815004+16630-011390FM-12+0115GQNF V0202201N002612200019N0100001N1+03241+02331101101ADDGA1031+069009019GF103991001001999999001011MA1999999099761MD1999999+0011REMSYN076AAXX  18154 61498 43960 32205 10324 20233 39976 40110 80001 333 58001 83073;
0195614980999992000091818004+16630-011390FM-12+0115GQNF V0202601N002112200019N0100001N1+03241+02251100871ADDAA112005191GA1031+069009019GF103991001001999999001011KA1120M+03301MA1999999099571MD1999999-0031REMSYN088AAXX  18184 61498 13960 32604 10324 20225 39957 40087 60052 80001 333 10330 59003 83073;
0195614980999992000091912004+16630-011390FM-12+0115GQNF V0202801N003110690019N0100001N1+03201+02251101091ADDAA199000091GA1051+069009019GF105991001001999999001021MA1999999097801MD1999999-0231REMSYN082AAXX  19124 61498 33960 52806 10320 20225 39780 40109 80002 333 0//00 59023 85073;EQDQ01  00002PRCP99
0200614980999992000092006004+16630-011390FM-12+0115GQNF V0209999C000012200019N0100001N1+02641+02411100911ADDAA199000091GA1001+999999999GF100991001001999999001001KA1120N+02621MA1999999099611REMSYN088AAXX  20064 61498 33960 00000 10264 20241 39961 40091 333 0//00 20262 50294 55/// 59006;EQDQ01  00002PRCP99
0147614980999992000092009004+16630-011390FM-12+0115GQNF V0202601N002112200019N0100001N1+02941+02371101001ADDGA1001+999999999GF100991001001999999001001MA1999999099711MD1999999-0141REMSYN064AAXX  20094 61498 42960 02604 10294 20237 39971 40100 333 59014;
0177614980999992000092012004+16630-011390FM-12+0115GQNF V0202201N002112200019N0100001N1+03421+02181101011ADDGA1031+012009089GF103991021011012501001011MA1999999099731MD1999999-0071REMSYN094AAXX  20124 61498 22660 32204 10342 20218 39973 40101 82101 333 0//00 59007 83840 94904 95814;
0171614980999992000092015004+16630-011390FM-12+0115GQNF V0200801N002112200019N0100001N1+03641+02201100811ADDGA1041+012009089GF104991041021012501001001MA1999999099531MD1999999-0081REMSYN088AAXX  20154 61498 43660 40804 10364 20220 39953 40081 84200 333 59008 84840 94919 95839;
0220614980999992000092018004+16630-011390FM-12+0115GQNF V0200801N002112200019N0100001N1+03561+02241100721ADDAA199000091GA1041+012009089GF104991041021012501001001KA1120M+03661MA1999999099431MD1999999-0341REMSYN094AAXX  20184 61498 33660 40804 10356 20224 39943 40072 84200 333 10366 59034 84840 94909 95838;EQDQ01  00002PRCP99
0210614980999992000092106004+16630-011390FM-12+0115GQNF V0209999C000012200019N0100001N1+02741+02301100911ADDAA199000091GF102991021001999999031001KA1120N+02741MA1999999099631MD1999999+0021REMSYN100AAXX  21064 61498 33960 20000 10274 20230 39963 40091 82030 333 0//00 20274 50484 55/// 58002 82363;EQDQ01  00002PRCP99
0159614980999992000092109004+16630-011390FM-12+0115GQNF V0202201N003110690019N0100001N1+03061+02321101261ADDGA1051+069009019GF105991001001999999001021MA1999999099971MD1999999+0261REMSYN076AAXX  21094 61498 42960 52206 10306 20232 39997 40126 80002 333 58026 85073;
0229614980999992000092112004+16630-011390FM-12+0115GQNF V0209999C000010390019N0100001N1+03441+02401101311ADDAA199000091GA1041+015009089GA2041+039009039GF107991041021999999071001MA1999999100031MD1999999+0301REMSYN100AAXX  21124 61498 33960 70000 10344 20240 30003 40131 84270 333 0//00 58030 84850 84363 94939 95879;EQDQ01  00002PRCP99
0221614980999992000092115004+16630-011390FM-12+0115GQNF V0209999C000010390019N0100001N1+02741+02181101281ADDAY191031AY261031GA1031+015009099GA2071+039009039GF107991031031012501071999MA1999999099981MD1999999+0451MW1001REMSYN100AAXX  21154 61498 41660 70000 10274 20218 39998 40128 70096 8337/ 333 58045 83950 87363 94946 95836;
0242614980999992000092118004+16630-011390FM-12+0115GQNF V0209999C000010690019N0100001N1+02881+02251101081ADDAA112002091AY191061AY261061GA1071+069009089GF107991999001999999001071KA1120M+03461MA1999999099781MD1999999+0351MW1321REMSYN094AAXX  21184 61498 11960 70000 10288 20225 39978 40108 60022 73296 80007 333 10346 58035 87273;EQDQ01+000002SCOTLC
0183614980999992000092200004+16630-011390FM-12+0115GQNF V0209999C000012200019N0100001N1+02561+02181101391ADDAA199000091GA1001+999999999GF100991001001999999001001MA1999999100081MD1999999+0521REMSYN070AAXX  22004 61498 33960 00000 10256 20218 30008 40139 333 0//00 58052;EQDQ01  00002PRCP99
0197614980999992000092206004+16630-011390FM-12+0115GQNF V0209999C000012200019N0100001N1+02751+02241101221ADDAA124002091GF103991031001999999031001KA1120N+02471MA1999999099911MD1999999+0281REMSYN106AAXX  22064 61498 13960 30000 10275 20224 39991 40122 60024 83030 333 0//19 20247 50884 55/// 58028 83363;
0159614980999992000092209004+16630-011390FM-12+0115GQNF V0209999C000012200019N0100001N1+02861+02341101281ADDGA1041+039009079GF104991041001999999031001MA1999999099981MD1999999+0011REMSYN076AAXX  22094 61498 42960 40000 10286 20234 39998 40128 84030 333 58001 84363;
0147614980999992000092215004+16630-011390FM-12+0115GQNF V0209999C000012200019N0100001N1+03801+02091100981ADDGA1001+999999999GF100991001001999999001001MA1999999099681MD1999999-0301REMSYN064AAXX  22154 61498 43960 00000 10380 20209 39968 40098 333 59030;
0242614980999992000092218004+16630-011390FM-12+0115GQNF V0200401N002110690019N0100001N1+03741+01971100831ADDAA199000091GA1031+012009089GA2041+069009009GF105991031021012501001021KA1120M+03841MA1999999099541MD1999999-0241REMSYN100AAXX  22184 61498 33660 50404 10374 20197 39954 40083 83202 333 10384 59024 83840 84073 94929 95819;EQDQ01  00002PRCP99
0200614980999992000092406004+16630-011390FM-12+0115GQNF V0209999C000012200019N0100001N1+02801+02061100661ADDAA199000091GA1001+999999999GF100991001001999999001001KA1120N+02801MA1999999099381REMSYN088AAXX  24064 61498 33960 00000 10280 20206 39938 40066 333 0//00 20280 50394 55/// 59028;EQDQ01  00002PRCP99
0187614980999992000092409004+16630-011390FM-12+0115GQNF V0209999C000012200019N0030001N1+03001+02021100741ADDAY101031AY201031GA1021+039009079GF102991021001999999031001MA1999999099461MD1999999-0381MW1051REMSYN082AAXX  24094 61498 41930 20000 10300 20202 39946 40074 70500 82030 333 59038 82363;
0202614980999992000092418004+16630-011390FM-12+0115GQNF V0209999C000012200019N0040001N1+03941+01161999999ADDAA199000091GA1001+999999999GF100991001001999999001001KA1120M+04151MA1999999099401MD1999999-0231MW1051REMSYN070AAXX  24184 61498 31940 00000 10394 20116 39940 705// 333 10415 59023;EQDQ01  00002PRCP99
0175614980999992000092509004+16630-011390FM-12+0115GQNF V0201801N003112200019N0060001N1+02861+02411101101ADDAY101031AY201031GA1001+999999999GF100991001001999999001001MA1999999099811MD1999999+0351MW1051REMSYN070AAXX  25094 61498 41956 01806 10286 20241 39981 40110 70500 333 58035;
0259614980999992000092606004+16630-011390FM-12+0115GQNF V0209999C000012200019N0050001N1+02601+02311101141ADDAA124002091GA1021+012009029GA2031+039009039GF103991021091012501031001KA1120N+02541MA1999999099841MD1999999+0461MW1131REMSYN130AAXX  26064 61498 11650 30000 10260 20231 39984 40114 60024 713// 82930 333 0//19 20254 50374 55/// 58046 82240 83363 94944 95834;
0159614980999992000092609004+16630-011390FM-12+0115GQNF V0209999C000012200019N0100001N1+02901+02161101261ADDGA1021+039009079GF102991021001999999031001MA1999999099961MD1999999+0151REMSYN076AAXX  26094 61498 42960 20000 10290 20216 39996 40126 82030 333 58015 82363;
0195614980999992000092612004+16630-011390FM-12+0115GQNF V0209999C000010390019N0100001N1+03201+02121101361ADDAA199000091GA1071+039009079GF107991071001999999071999MA1999999100061MD1999999+0311REMSYN082AAXX  26124 61498 33960 70000 10320 20212 30006 40136 8707/ 333 0//00 58031 87363;EQDQ01  00002PRCP99
0208614980999992000092618004+16630-011390FM-12+0115GQNF V0209999C000010390019N0100001N1+03341+02121100981ADDAA199000091GA1061+039009079GF106991061001999999071001KA1120M+03441MA1999999099681MD1999999-0171REMSYN082AAXX  26184 61498 33960 60000 10334 20212 39968 40098 86070 333 10344 59017 86363;EQDQ01  00002PRCP99
0210614980999992000092706004+16630-011390FM-12+0115GQNF V0202801N003119999999N0100001N1+02561+01921101011ADDAA199000091GF108991061001999999071999KA1120N+02561MA1999999099721MD1999999-0131REMSYN100AAXX  27064 61498 33960 82806 10256 20192 39972 40101 8607/ 333 0//00 20256 50374 55/// 59013 86363;EQDQ01  00002PRCP99
0178614980999992000092709004+16630-011390FM-12+0115GQNF V0202201N003110390019N0100001N1+02841+01891101121ADDGA1071+039009079GF199999071001999999071999MA1999999099831MD1999999-0131REMSYN076AAXX  27094 61498 42960 62206 10284 20189 39983 40112 8707/ 333 59013 87363;EQDQ01+000062SCOTCV
0195614980999992000092712004+16630-011390FM-12+0115GQNF V0202201N003110390019N0100001N1+03341+01821101261ADDAA199000091GA1071+039009079GF107991071001999999071999MA1999999099951MD1999999-0111REMSYN082AAXX  27124 61498 33960 72206 10334 20182 39995 40126 8707/ 333 0//00 59011 87363;EQDQ01  00002PRCP99
0159614980999992000092715004+16630-011390FM-12+0115GQNF V0202201N003110390019N0100001N1+03601+01821101071ADDGA1051+039009079GF105991051001999999031001MA1999999099791MD1999999-0011REMSYN076AAXX  27154 61498 43960 52206 10360 20182 39979 40107 85030 333 59001 85363;
0208614980999992000092718004+16630-011390FM-12+0115GQNF V0202801N003112200019N0100001N1+03521+02021100901ADDAA199000091GA1021+039009079GF102991021001999999031001KA1120M+03701MA1999999099611MD1999999-0171REMSYN082AAXX  27184 61498 33960 22806 10352 20202 39961 40090 82030 333 10370 59017 82363;EQDQ01  00002PRCP99
0183614980999992000092800004+16630-011390FM-12+0115GQNF V0202201N003112200019N0100001N1+02801+01931100991ADDAA199000091GA1001+999999999GF100991001001999999001001MA1999999099701MD1999999-0421REMSYN070AAXX  28004 61498 33960 02206 10280 20193 39970 40099 333 0//00 59042;EQDQ01  00002PRCP99
0200614980999992000092806004+16630-011390FM-12+0115GQNF V0209999C000012200019N0100001N1+02761+01831100991ADDAA199000091GA1001+999999999GF100991001001999999001001KA1120N+02721MA1999999099701REMSYN088AAXX  28064 61498 33960 00000 10276 20183 39970 40099 333 0//00 20272 50554 55/// 59002;EQDQ01  00002PRCP99
0175614980999992000092809004+16630-011390FM-12+0115GQNF V0209999C000012200019N0060001N1+02901+02001100991ADDAY101031AY201031GA1001+999999999GF100991001001999999001001MA1999999099701MD1999999-1301MW1051REMSYN070AAXX  28094 61498 41956 00000 10290 20200 39970 40099 70500 333 59130;
0195614980999992000092812004+16630-011390FM-12+0115GQNF V0203201N002112200019N0030001N1+03561+01881100971ADDAA199000091GA1001+999999999GF100991001001999999001001MA1999999099391MD1999999-0261MW1051REMSYN076AAXX  28124 61498 31930 03204 10356 20188 39939 40097 705// 333 0//00 59026;EQDQ01  00002PRCP99
0159614980999992000092815004+16630-011390FM-12+0115GQNF V0200801N002112200019N0040001N1+03941+01641100761ADDGA1001+999999999GF100991001001999999001001MA1999999099491MD1999999-0121MW1051REMSYN070AAXX  28154 61498 41940 00804 10394 20164 39949 40076 705// 333 59012;
0208614980999992000092818004+16630-011390FM-12+0115GQNF V0209999C000012200019N0030001N1+03701+01591100611ADDAA199000091GA1001+999999999GF100991001001999999001001KA1120M+04001MA1999999099331MD1999999-0281MW1051REMSYN076AAXX  28184 61498 31930 00000 10370 20159 39933 40061 705// 333 10400 59028;EQDQ01  00002PRCP99
0175614980999992000092909004+16630-011390FM-12+0115GQNF V0209999C000012200019N0030001N1+02801+01981100961ADDAY101031AY201031GA1001+999999999GF100991001001999999001001MA1999999099671MD1999999-0031MW1051REMSYN070AAXX  29094 61498 41930 00000 10280 20198 39967 40096 70500 333 59003;
0195614980999992000092912004+16630-011390FM-12+0115GQNF V0209999C000012200019N0020001N1+03601+01981100971ADDAA199000091GA1001+999999999GF100991001001999999001001MA1999999099391MD1999999+0001MW1051REMSYN076AAXX  29124 61498 31920 00000 10360 20198 39939 40097 705// 333 0//00 58000;EQDQ01  00002PRCP99
0159614980999992000092915004+16630-011390FM-12+0115GQNF V0209999C000012200019N0030001N1+04001+01741100741ADDGA1001+999999999GF100991001001999999001001MA1999999099471MD1999999-0021MW1051REMSYN070AAXX  29154 61498 41930 00000 10400 20174 39947 40074 705// 333 59002;
0159614980999992000092921004+16630-011390FM-12+0115GQNF V0209999C000012200019N0100001N1+03301+01991100811ADDGA1001+999999999GF100991001001999999001001MA1999999099541MD1999999-0101MW1051REMSYN070AAXX  29214 61498 41960 00000 10330 20199 39954 40081 705// 333 59010;
0212614980999992000093006004+16630-011390FM-12+0115GQNF V0209999C000012200019N0060001N1+02861+02191100911ADDAA199000091GA1001+999999999GF100991001001999999001001KA1120N+02861MA1999999099641MW1051REMSYN094AAXX  30064 61498 31956 00000 10286 20219 39964 40091 705// 333 0//00 20286 50514 55/// 58015;EQDQ01  00002PRCP99
0175614980999992000093009004+16630-011390FM-12+0115GQNF V0202801N002112200019N0040001N1+03181+02291100961ADDAY101031AY201031GA1001+999999999GF100991001001999999001001MA1999999099681MD1999999+0011MW1051REMSYN070AAXX  30094 61498 41940 02804 10318 20229 39968 40096 70500 333 58001;
0195614980999992000093012004+16630-011390FM-12+0115GQNF V0200401N003112200019N0060001N1+03761+01341100981ADDAA199000091GA1001+999999999GF100991001001999999001001MA1999999099701MD1999999+0011MW1051REMSYN076AAXX  30124 61498 31956 00406 10376 20134 39970 40098 705// 333 0//00 58001;EQDQ01  00002PRCP99
0147614980999992000093015004+16630-011390FM-12+0115GQNF V0200401N002112200019N0100001N1+03961+01451100751ADDGA1001+999999999GF100991001001999999001001MA1999999099481MD1999999+0011REMSYN064AAXX  30154 61498 43960 00404 10396 20145 39948 40075 333 58001;
0171614980999992000100109004+16630-011390FM-12+0115GQNF V0201801N002112200019N0100001N1+03001+02081101211ADDGA1021+012009089GF102991021011012501001001MA1999999099921MD1999999+0241REMSYN088AAXX  01094 61498 42660 21804 10300 20208 39992 40121 82100 333 58024 82840 94914 95834;
0195614980999992000100212004+16630-011390FM-12+0115GQNF V0209999C000012200019N0150001N1+03061+02151101321ADDAA199000091GA1041+069009019GF104991001001999999001011MA1999999100021MD1999999+0091REMSYN082AAXX  02124 61498 33965 40000 10306 20215 30002 40132 80001 333 0//00 58009 84073;EQDQ01  00002PRCP99
0193614980999992000100215004+16630-011390FM-12+0115GQNF V0209999C00001220001CN0150001N1+03441+02301101141ADDGA1011+012009089GA2041+069009009GF105991011011012501001011MA1999999099841MD1999999+0181REMSYN094AAXX  02154 61498 43665 50000 10344 20230 39984 40114 81101 333 58018 81840 84073 94902 95812;
0220614980999992000100218004+16630-011390FM-12+0115GQNF V0209999C000012200019N0150001N1+03501+02371100851ADDAA199000091GA1031+012009089GF104991031011012501001011KA1120M+03561MA1999999099751MD1999999+0011REMSYN094AAXX  02184 61498 32665 40000 10350 20237 39975 40085 83101 333 10356 58001 83840 94929 95839;EQDQ01  00002PRCP99
0250614980999992000100306004+16630-011390FM-12+0115GQNF V0200801N003112200019N0100001N1+02721+02451101131ADDAA199000091GA1021+009009099GF102991021091012501001001KA1120N+02721MA1999999099841MD1999999-0191MW1131REMSYN118AAXX  03064 61498 31660 20806 10272 20245 39984 40113 713// 82900 333 0//00 20272 50524 55/// 59019 82930 94943 95833;EQDQ01  00002PRCP99
0168614980999992000100309004+16630-011390FM-12+0115GQNF V0202201N003119999999N0100001N1+02941+02211999999ADDGA1031+039009079GF105991031001999999031021MA1999999100061MD1999999+0071ME1100369REMSYN076AAXX  03094 61498 42960 52206 10294 20221 30006 41036 83032 333 58007 83363;
0195614980999992000100312004+16630-011390FM-12+0115GQNF V0209999C000010390019N0100001N1+03441+02261101281ADDAA199000091GA1051+039009079GF105991051001999999031001MA1999999099991MD1999999-0031REMSYN082AAXX  03124 61498 33960 50000 10344 20226 39999 40128 85030 333 0//00 59003 85363;EQDQ01  00002PRCP99
0159614980999992000100315004+16630-011390FM-12+0115GQNF V0209999C000010390019N0100001N1+03601+02161101041ADDGA1061+039009079GF106991061001999999031001MA1999999099761MD1999999-0081REMSYN076AAXX  03154 61498 43960 60000 10360 20216 39976 40104 86030 333 59008 86363;
0208614980999992000100318004+16630-011390FM-12+0115GQNF V0209999C000010390019N0100001N1+03501+01961100931ADDAA199000091GA1051+039009079GF105991051001999999031001KA1120M+03701MA1999999099641MD1999999-0111REMSYN082AAXX  03184 61498 33960 50000 10350 20196 39964 40093 85030 333 10370 59011 85363;EQDQ01  00002PRCP99
0200614980999992000100406004+16630-011390FM-12+0115GQNF V0209999C000012200019N0100001N1+02801+02051100961ADDAA199000091GA1001+999999999GF100991001001999999001001KA1120N+02781MA1999999099681REMSYN088AAXX  04064 61498 33960 00000 10280 20205 39968 40096 333 0//00 20278 50374 55/// 59016;EQDQ01  00002PRCP99
0208614980999992000100418004+16630-011390FM-12+0115GQNF V0200401N002110390019N0100001N1+03641+02101100961ADDAA199000091GA1051+039009079GF105991051001999999031001KA1120M+03801MA1999999099481MD1999999-0161REMSYN082AAXX  04184 61498 33960 50404 10364 20210 39948 40096 85030 333 10380 59016 85363;EQDQ01  00002PRCP99
0210614980999992000100506004+16630-011390FM-12+0115GQNF V0200401N002112200019N0100001N1+02501+01761100831ADDAA199000091GF102991021001999999031001KA1120N+02501MA1999999099541MD1999999-0141REMSYN100AAXX  05064 61498 33960 20404 10250 20176 39954 40083 82030 333 0//00 20250 50814 55/// 59014 82363;EQDQ01  00002PRCP99
0159614980999992000100509004+16630-011390FM-12+0115GQNF V0209999C000012200019N0100001N1+02901+01511101151ADDGA1021+039009079GF102991021001999999031001MA1999999099861MD1999999+0041REMSYN076AAXX  05094 61498 42960 20000 10290 20151 39986 40115 82030 333 58004 82363;
0195614980999992000100512004+16630-011390FM-12+0115GQNF V0209999C000012200019N0100001N1+03541+01341101211ADDAA199000091GA1031+039009079GF103991031001999999031001MA1999999099921MD1999999+0121REMSYN082AAXX  05124 61498 33960 30000 10354 20134 39992 40121 83030 333 0//00 58012 83363;EQDQ01  00002PRCP99
0159614980999992000100515004+16630-011390FM-12+0115GQNF V0209999C000010390019N0100001N1+03801+01181100981ADDGA1051+039009079GF105991051001999999031001MA1999999099691MD1999999+0161REMSYN076AAXX  05154 61498 42960 50000 10380 20118 39969 40098 85030 333 58016 85363;
0200614980999992000100606004+16630-011390FM-12+0115GQNF V0209999C000012200019N0100001N1+02401+01871101071ADDAA199000091GA1001+999999999GF100991001001999999001001KA1120N+02381MA1999999099781REMSYN088AAXX  06064 61498 33960 00000 10240 20187 39978 40107 333 0//00 20238 50884 55/// 58024;EQDQ01  00002PRCP99
0159614980999992000100609004+16630-011390FM-12+0115GQNF V0209999C000012200019N0100001N1+02761+01651101121ADDGA1021+039009079GF102991021001999999031001MA1999999099831MD1999999-0041REMSYN076AAXX  06094 61498 42960 20000 10276 20165 39983 40112 82030 333 59004 82363;
0195614980999992000100612004+16630-011390FM-12+0115GQNF V0209999C000012200019N0100001N1+03601+01301101111ADDAA199000091GA1011+039009079GF101991011001999999031001MA1999999099821MD1999999-0101REMSYN082AAXX  06124 61498 33960 10000 10360 20130 39982 40111 81030 333 0//00 59010 81363;EQDQ01  00002PRCP99
0196614980999992000100618004+16630-011390FM-12+0115GQNF V0209999C000012200019N0100001N1+03541+00981100871ADDAA199000091GA1001+999999999GF100991001001999999001001KA1120M+03741MA1999999099581MD1999999-0011REMSYN070AAXX  06184 61498 33960 00000 10354 20098 39958 40087 333 10374 59001;EQDQ01  00002PRCP99
0147614980999992000100621004+16630-011390FM-12+0115GQNF V0200801N002112200019N0100001N1+02941+01601100921ADDGA1001+999999999GF100991001001999999001001MA1999999099621MD1999999+0031REMSYN064AAXX  06214 61498 43960 00804 10294 20160 39962 40092 333 58003;
0183614980999992000100700004+16630-011390FM-12+0115GQNF V0209999C000012200019N0100001N1+02561+01561100961ADDAA199000091GA1001+999999999GF100991001001999999001001MA1999999099671MD1999999-0091REMSYN070AAXX  07004 61498 33960 00000 10256 20156 39967 40096 333 0//00 59009;EQDQ01  00002PRCP99
0147614980999992000100709004+16630-011390FM-12+0115GQNF V0209999C000012200019N0100001N1+02861+01331101201ADDGA1001+999999999GF100991001001999999001001MA1999999099901MD1999999+0081REMSYN064AAXX  07094 61498 42960 00000 10286 20133 39990 40120 333 58008;
0183614980999992000100712004+16630-011390FM-12+0115GQNF V0209999C000012200019N0100001N1+03661+01141101151ADDAA199000091GA1001+999999999GF100991001001999999001001MA1999999099861MD1999999+0041REMSYN070AAXX  07124 61498 33960 00000 10366 20114 39986 40115 333 0//00 58004;EQDQ01  00002PRCP99
0147614980999992000100715004+16630-011390FM-12+0115GQNF V0209999C000012200019N0100001N1+03841+00022101031ADDGA1001+999999999GF100991001001999999001001MA1999999099741MD1999999+0081REMSYN064AAXX  07154 61498 43960 00000 10384 20002 39974 40103 333 58008;
0196614980999992000100718004+16630-011390FM-12+0115GQNF V0209999C000012200019N0100001N1+03701+01081100951ADDAA199000091GA1001+999999999GF100991001001999999001001KA1120M+03801MA1999999099641MD1999999+0091REMSYN070AAXX  07184 61498 33960 00000 10370 20108 39964 40095 333 10380 58009;EQDQ01  00002PRCP99
0166614980999992000100721004+16630-011390FM-12+0115GQNF V0209999C000012200019N0100001N1+03041+01811101121ADDGA1001+999999999GF100991001001999999001001MA1999999097832MD1999999+0211REMSYN064AAXX  07214 61498 43960 00000 10304 20181 39783 40112 333 58021;EQDQ01+097833APOSP 
0200614980999992000100806004+16630-011390FM-12+0115GQNF V0209999C000012200019N0100001N1+02301+01471101091ADDAA199000091GA1001+999999999GF100991001001999999001001KA1120N+02281MA1999999099801REMSYN088AAXX  08064 61498 33960 00000 10230 20147 39980 40109 333 0//00 20228 50624 55/// 58016;EQDQ01  00002PRCP99
0147614980999992000100809004+16630-011390FM-12+0115GQNF V0209999C000012200019N0100001N1+02841+01301101141ADDGA1001+999999999GF100991001001999999001001MA1999999099841MD1999999-0061REMSYN064AAXX  08094 61498 42960 00000 10284 20130 39984 40114 333 59006;
0183614980999992000100812004+16630-011390FM-12+0115GQNF V0209999C000012200019N0100001N1+03801+01021101131ADDAA199000091GA1001+999999999GF100991001001999999001001MA1999999099851MD1999999-0011REMSYN070AAXX  08124 61498 33960 00000 10380 20102 39985 40113 333 0//00 59001;EQDQ01  00002PRCP99
0147614980999992000100815004+16630-011390FM-12+0115GQNF V0209999C000012200019N0100001N1+04001+01111100911ADDGA1001+999999999GF100991001001999999001001MA1999999099631MD1999999-0111REMSYN064AAXX  08154 61498 43960 00000 10400 20111 39963 40091 333 59011;
0196614980999992000100818004+16630-011390FM-12+0115GQNF V0209999C000012200019N0100001N1+03901+01351100801ADDAA199000091GA1001+999999999GF100991001001999999001001KA1120M+04061MA1999999099511MD1999999-0161REMSYN070AAXX  08184 61498 33960 00000 10390 20135 39951 40080 333 10406 59016;EQDQ01  00002PRCP99
0147614980999992000100821004+16630-011390FM-12+0115GQNF V0209999C000012200019N0100001N1+03101+01401100831ADDGA1001+999999999GF100991001001999999001001MA1999999099541MD1999999-0291REMSYN064AAXX  08214 61498 43960 00000 10310 20140 39954 40083 333 59029;
0183614980999992000100900004+16630-011390FM-12+0115GQNF V0209999C000012200019N0100001N1+02801+01501100851ADDAA199000091GA1001+999999999GF100991001001999999001001MA1999999099581MD1999999-0321REMSYN070AAXX  09004 61498 32960 00000 10280 20150 39958 40085 333 0//00 59032;EQDQ01  00002PRCP99
0200614980999992000100906004+16630-011390FM-12+0115GQNF V0209999C000012200019N0100001N1+02401+01401100811ADDAA199000091GA1001+999999999GF100991001001999999001001KA1120N+02401MA1999999099531REMSYN088AAXX  09064 61498 33960 00000 10240 20140 39953 40081 333 0//00 20240 50584 55/// 59027;EQDQ01  00002PRCP99
0159614980999992000100909004+16630-011390FM-12+0115GQNF V0200401N002112200019N0100001N1+03001+01351100991ADDGA1021+069009019GF102991001001999999001011MA1999999099701MD1999999-0141REMSYN076AAXX  09094 61498 42960 20404 10300 20135 39970 40099 80001 333 59014 82073;
0183614980999992000100912004+16630-011390FM-12+0115GQNF V0200401N002112200019N0100001N1+03821+01161101011ADDAA199000091GA1001+999999999GF100991001001999999001001MA1999999099731MD1999999-0121REMSYN070AAXX  09124 61498 33960 00404 10382 20116 39973 40101 333 0//00 59012;EQDQ01  00002PRCP99
0147614980999992000100921004+16630-011390FM-12+0115GQNF V0209999C000012200019N0100001N1+03201+01461100761ADDGA1001+999999999GF100991001001999999001001MA1999999099471MD1999999-0071REMSYN064AAXX  09214 61498 43960 00000 10320 20146 39947 40076 333 59007;
0200614980999992000101006004+16630-011390FM-12+0115GQNF V0209999C000012200019N0100001N1+02501+01101100741ADDAA199000091GA1001+999999999GF100991001001999999001001KA1120N+02501MA1999999099461REMSYN088AAXX  10064 61498 33960 00000 10250 20110 39946 40074 333 0//00 20250 50714 55/// 59007;EQDQ01  00002PRCP99
0159614980999992000101009004+16630-011390FM-12+0115GQNF V0209999C000010390019N0100001N1+02761+01261100921ADDGA1051+039009079GF105991051001999999031001MA1999999099621MD1999999-0081REMSYN076AAXX  10094 61498 42960 50000 10276 20126 39962 40092 85030 333 59008 85363;
0195614980999992000101012004+16630-011390FM-12+0115GQNF V0201801N002112200019N0100001N1+03601+01701101021ADDAA199000091GA1021+069009019GF102991001001999999001011MA1999999099741MD1999999+0011REMSYN082AAXX  10124 61498 33960 21804 10360 20170 39974 40102 80001 333 0//00 58001 82073;EQDQ01  00002PRCP99
0159614980999992000101015004+16630-011390FM-12+0115GQNF V0200401N002612200019N0100001N1+04001+01521100701ADDGA1031+069009019GF103991001001999999001011MA1999999099421MD1999999-0101REMSYN076AAXX  10154 61498 43960 30405 10400 20152 39942 40070 80001 333 59010 83073;
0200614980999992000101106004+16630-011390FM-12+0115GQNF V0203201N002112200019N0100001N1+02561+01061100541ADDAA199000091GA1001+999999999GF100991001001999999001001KA1120N+02561MA1999999099261REMSYN088AAXX  11064 61498 33960 03204 10256 20106 39926 40054 333 0//00 20256 50644 55/// 59020;EQDQ01  00002PRCP99
0147614980999992000101109004+16630-011390FM-12+0115GQNF V0200401N003112200019N0100001N1+03001+01021100871ADDGA1001+999999999GF100991001001999999001001MA1999999099581MD1999999-0041REMSYN064AAXX  11094 61498 42960 00406 10300 20102 39958 40087 333 59004;
0183614980999992000101112004+16630-011390FM-12+0115GQNF V0209999C000012200019N0100001N1+03881+01361100891ADDAA199000091GA1001+999999999GF100991001001999999001001MA1999999099661MD1999999-0081REMSYN070AAXX  11124 61498 33960 00000 10388 20136 39966 40089 333 0//00 59008;EQDQ01  00002PRCP99
0159614980999992000101115004+16630-011390FM-12+0115GQNF V0200401N003112200019N0100001N1+04101+01671100691ADDGA1031+069009019GF103991001001999999001021MA1999999099421MD1999999+0001REMSYN076AAXX  11154 61498 43960 30406 10410 20167 39942 40069 80002 333 58000 83073;
0208614980999992000101118004+16630-011390FM-12+0115GQNF V0200401N003110690019N0100001N1+03861+01821100661ADDAA199000091GA1061+069009019GF106991001001999999001021KA1120M+04121MA1999999099391MD1999999+0101REMSYN082AAXX  11184 61498 33960 60406 10386 20182 39939 40066 80002 333 10412 58010 86073;EQDQ01  00002PRCP99
0200614980999992000101206004+16630-011390FM-12+0115GQNF V0209999C000012200019N0100001N1+02901+01851101041ADDAA199000091GA1001+999999999GF100991001001999999001001KA1120N+01851MA1999999099761REMSYN088AAXX  12064 61498 33960 00000 10290 20185 39976 40104 333 0//00 20185 50964 55/// 58050;EQDQ01  00002PRCP99
0159614980999992000101209004+16630-011390FM-12+0115GQNF V0200801N003112200019N0100001N1+03261+01941101121ADDGA1041+039009079GF104991041001999999031001MA1999999099831MD1999999+0251REMSYN076AAXX  12094 61498 42960 40806 10326 20194 39983 40112 84030 333 58025 84363;
0195614980999992000101212004+16630-011390FM-12+0115GQNF V0201801N002112200019N0100001N1+03561+02101101181ADDAA199000091GA1031+039009079GF103991031001999999071001MA1999999099911MD1999999+0251REMSYN082AAXX  12124 61498 33960 31804 10356 20210 39991 40118 83070 333 0//00 58025 83363;EQDQ01  00002PRCP99
0159614980999992000101215004+16630-011390FM-12+0115GQNF V0200801N003110390019N0100001N1+03761+01881101081ADDGA1051+039009079GF105991051001999999031001MA1999999099811MD1999999+0391REMSYN076AAXX  12154 61498 43960 50806 10376 20188 39981 40108 85030 333 58039 85363;
0208614980999992000101218004+16630-011390FM-12+0115GQNF V0200401N002110390019N0100001N1+03501+02021100971ADDAA199000091GA1061+039009079GF106991061001999999071001KA1120M+03801MA1999999099691MD1999999+0311REMSYN082AAXX  12184 61498 33960 60404 10350 20202 39969 40097 86070 333 10380 58031 86363;EQDQ01  00002PRCP99
0195614980999992000101300004+16630-011390FM-12+0115GQNF V0209999C000010390019N0100001N1+03161+02041101071ADDAA199000091GA1061+039009079GF106991061001999999071001MA1999999099791MD1999999+0051REMSYN082AAXX  13004 61498 33960 60000 10316 20204 39979 40107 86070 333 0//00 58005 86363;EQDQ01  00002PRCP99
0210614980999992000101306004+16630-011390FM-12+0115GQNF V0209999C000019999999N0100001N1+02641+02401101171ADDAA199000091GF108991061001999999071999KA1120N+02641MA1999999099861MD1999999+0121REMSYN100AAXX  13064 61498 33960 80000 10264 20240 39986 40117 8607/ 333 0//00 20264 50634 55/// 58012 86363;EQDQ01  00002PRCP99
0159614980999992000101309004+16630-011390FM-12+0115GQNF V0209999C000010390019N0100001N1+02641+02141101411ADDGA1081+039009079GF108991081001999999071999MA1999999100111MD1999999+0261REMSYN076AAXX  13094 61498 42960 80000 10264 20214 30011 40141 8807/ 333 58026 88363;
0195614980999992000101312004+16630-011390FM-12+0115GQNF V0209999C000010390019N0100001N1+02941+02141101471ADDAA199000091GA1081+039009079GF108991081001999999071999MA1999999100181MD1999999+0271REMSYN082AAXX  13124 61498 33960 80000 10294 20214 30018 40147 8807/ 333 0//00 58027 88363;EQDQ01  00002PRCP99
0159614980999992000101315004+16630-011390FM-12+0115GQNF V0209999C001010390019N0100001N1+03441+01951101161ADDGA1081+039009079GF108991081001999999071999MA1999999099871MD1999999+0061REMSYN076AAXX  13154 61498 43960 80002 10344 20195 39987 40116 8807/ 333 58006 88363;
0216614980999992000101412004+16630-011390FM-12+0115GQNF V0200801N003110390019N0080001N1+02301+02151101441ADDAA106002091AC10I9AY161061AY261061GA1081+039009019GF108991081001999999071999MA1999999100121MD1999999-0061MW1631REMSYN094AAXX  14124 61498 11958 80806 10230 20215 30012 40144 60021 76366 8807/ 333 0//14 59006 88463;
0187614980999992000101415004+16630-011390FM-12+0115GQNF V0200801N003110390019N0070001N1+02201+02111101291ADDAY161031AY261031GA1081+039009019GF108991081001999999071999MA1999999099971MD1999999+0101MW1631REMSYN082AAXX  14154 61498 41957 80806 10220 20211 39997 40129 76366 8807/ 333 58010 88463;
0223614980999992000101418004+16630-011390FM-12+0115GQNF V0200801N003110390019N0100001N1+02121+01961101201ADDAA112057991AY161061AY261061GA1081+039009079GF108991081001999999071999KA1120M+02441MA1999999099871MD1999999+0091MW1211REMSYN094AAXX  14184 61498 11960 80806 10212 20196 39987 40120 60582 72166 8807/ 333 10244 58009 88363;
0225614980999992000101506004+16630-011390FM-12+0115GQNF V0200801N003119999999N0080001N1+02161+02071101181ADDAA124072991AY161061AY261061GF108991061001999999071999KA1120N+02191MA1999999099851MD1999999-0091MW1611REMSYN112AAXX  15064 61498 11958 80806 10216 20207 39985 40118 60734 76166 8607/ 333 0//19 20219 50264 55/// 59009 88463;
0187614980999992000101509004+16630-011390FM-12+0115GQNF V0209999C000010390019N0060001N1+02201+02111101451ADDAY161031AY261031GA1081+039009019GF108991081001999999071999MA1999999100121MD1999999+0161MW1501REMSYN082AAXX  15094 61498 42956 80000 10220 20211 30012 40145 75066 8807/ 333 58016 88463;
0159614980999992000101515004+16630-011390FM-12+0115GQNF V0209999C000010390019N0100001N1+02661+02661101231ADDGA1081+039009079GF108991081001999999071999MA1999999099911MD1999999-0061REMSYN076AAXX  15154 61498 43960 80000 10266 20266 39991 40123 8807/ 333 59006 88363;
0223614980999992000101518004+16630-011390FM-12+0115GQNF V0201601N005110390019N0030001N1+02401+02341101181ADDAA112014091AY161061AY261061GA1081+039009079GF108991081001999999071999KA1120M+02661MA1999999099851MD1999999-0021MW1601REMSYN094AAXX  15184 61498 11930 81610 10240 20234 39985 40118 60142 76066 8807/ 333 10266 59002 88363;
0159614980999992000101521004+16630-011390FM-12+0115GQNF V0209999C000010390019N0100001N1+02301+02181101271ADDGA1061+039009079GF108991061001999999071999MA1999999099941MD1999999+0021REMSYN076AAXX  15214 61498 43960 80000 10230 20218 39994 40127 8607/ 333 58002 86363;
0159614980999992000101609004+16630-011390FM-12+0115GQNF V0200401N002110390019N0100001N1+02501+02301101421ADDGA1071+039009079GF107991071001999999071999MA1999999100101MD1999999-0021REMSYN076AAXX  16094 61498 42960 70404 10250 20230 30010 40142 8707/ 333 59002 87363;
0193614980999992000101615004+16630-011390FM-12+0115GQNF V0200801N002110690019N0100001N1+03101+02301101311ADDGA1031+012009089GA2061+069009029GF107991031021012501001081MA1999999100001MD1999999+0091REMSYN094AAXX  16154 61498 43660 70804 10310 20230 30000 40131 83208 333 58009 83840 86273 94929 95819;
0208614980999992000101618004+16630-011390FM-12+0115GQNF V0209999C000010390019N0100001N1+02961+02241101241ADDAA199000091GA1071+039009079GF107991071001999999071001KA1120M+03101MA1999999099931MD1999999+0081REMSYN082AAXX  16184 61498 33960 70000 10296 20224 39993 40124 87070 333 10310 58008 87363;EQDQ01  00002PRCP99
0195614980999992000101700004+16630-011390FM-12+0115GQNF V0209999C000010390019N0100001N1+02621+02391101401ADDAA199000091GA1071+039009079GF107991071001999999071001MA1999999100091MD1999999+0051REMSYN082AAXX  17004 61498 33960 70000 10262 20239 30009 40140 87070 333 0//00 58005 87363;EQDQ01  00002PRCP99
0210614980999992000101706004+16630-011390FM-12+0115GQNF V0209999C000019999999N0100001N1+02841+02341101321ADDAA199000091GF107991071001999999071001KA1120N+02521MA1999999100011MD1999999+0041REMSYN100AAXX  17064 61498 32960 70000 10284 20234 30001 40132 87070 333 0//00 20252 50184 55/// 58004 87363;EQDQ01  00002PRCP99
0159614980999992000101709004+16630-011390FM-12+0115GQNF V0209999C000010390019N0100001N1+02801+02341101541ADDGA1051+039009079GF105991051001999999031001MA1999999100231MD1999999+0131REMSYN076AAXX  17094 61498 42960 50000 10280 20234 30023 40154 85030 333 58013 85363;
0195614980999992000101712004+16630-011390FM-12+0115GQNF V0209999C000010390019N0100001N1+03161+02301101641ADDAA199000091GA1051+039009079GF105991051001999999031001MA1999999100331MD1999999+0211REMSYN082AAXX  17124 61498 33960 50000 10316 20230 30033 40164 85030 333 0//00 58021 85363;EQDQ01  00002PRCP99
0159614980999992000101721004+16630-011390FM-12+0115GQNF V0200401N003112200019N0100001N1+02961+02301101411ADDGA1031+039009079GF103991031001999999031001MA1999999100111MD1999999+0061REMSYN076AAXX  17214 61498 43960 30406 10296 20230 30011 40141 83030 333 58006 83363;
0204614980999992000101806004+16630-011390FM-12+0115GQNF V0209999C000019999999N0100001N1+02661+02261999999ADDAA199000091GF108991061001999999071999KA1120N+02661MA1999999100121MD1999999+0111REMSYN094AAXX  18064 61498 33960 80000 10266 20226 30012 8607/ 333 0//00 20266 50404 55/// 58011 86363;EQDQ01  00002PRCP99
0159614980999992000101809004+16630-011390FM-12+0115GQNF V0203201N002110390019N0100001N1+02901+02231101451ADDGA1061+039009079GF106991061001999999071001MA1999999100151MD1999999-0081REMSYN076AAXX  18094 61498 42960 63204 10290 20223 30015 40145 86070 333 59008 86363;
0211614980999992000101812004+16630-011390FM-12+0115GQNF V0200401N003110390019N0100001N1+03501+02061101461ADDAA199000091GA1051+039009079GF105991999001999999001021MA1999999100171MD1999999-0161REMSYN082AAXX  18124 61498 33960 50406 10350 20206 30017 40146 80002 333 0//00 59016 85363;EQDQ01+000002SCOTLCQ02  00002PRCP99
0159614980999992000101815004+16630-011390FM-12+0115GQNF V0200401N003110690019N0100001N1+03701+02001101171ADDGA1051+069009019GF105991001001999999001021MA1999999099981MD1999999-0231REMSYN076AAXX  18154 61498 43960 50406 10370 20200 39998 40117 80002 333 59023 85073;
0208614980999992000101818004+16630-011390FM-12+0115GQNF V0200401N002110690019N0100001N1+03501+01841101081ADDAA199000091GA1061+069009019GF106991001001999999001021KA1120M+03701MA1999999099791MD1999999-0291REMSYN082AAXX  18184 61498 33960 60404 10350 20184 39979 40108 80002 333 10370 59029 86073;EQDQ01  00002PRCP99
0147614980999992000101909004+16630-011390FM-12+0115GQNF V0200401N002112200019N0100001N1+02901+02001101331ADDGA1001+999999999GF100991001001999999001001MA1999999100031MD1999999-0121REMSYN064AAXX  19094 61498 42960 00404 10290 20200 30003 40133 333 59012;
0207614980999992000101912004+16630-011390FM-12+0115GQNF V0200401N003112200019N0060001N1+03541+01391101321ADDAA199000091GA1021+039009079GF102991021001999999031001MA1999999100031MD1999999-0141MW1051REMSYN088AAXX  19124 61498 31956 20406 10354 20139 30003 40132 705// 82030 333 0//00 59014 82363;EQDQ01  00002PRCP99
0208614980999992000101918004+16630-011390FM-12+0115GQNF V0200401N003112200019N0100001N1+03601+01341100991ADDAA199000091GA1021+039009079GF102991021001999999031001KA1120M+03781MA1999999099701MD1999999-0091REMSYN082AAXX  19184 61498 33960 20406 10360 20134 39970 40099 82030 333 10378 59009 82363;EQDQ01  00002PRCP99
0147614980999992000101921004+16630-011390FM-12+0115GQNF V0200401N002112200019N0100001N1+03101+01491101081ADDGA1001+999999999GF100991001001999999001001MA1999999099791MD1999999+0001REMSYN064AAXX  19214 61498 43960 00404 10310 20149 39979 40108 333 58000;
0210614980999992000102006004+16630-011390FM-12+0115GQNF V0200401N002119999999N0100001N1+02601+01441101101ADDAA199000091GF105991051001999999031001KA1120N+02581MA1999999099811MD1999999-0021REMSYN100AAXX  20064 61498 33960 50404 10260 20144 39981 40110 85030 333 0//00 20258 50654 55/// 59002 85363;EQDQ01  00002PRCP99
0159614980999992000102009004+16630-011390FM-12+0115GQNF V0200401N002110390019N0100001N1+02601+01601101221ADDGA1071+039009079GF107991071001999999071999MA1999999099921MD1999999-0111REMSYN076AAXX  20094 61498 42960 70404 10260 20160 39992 40122 8707/ 333 59011 87363;
0195614980999992000102012004+16630-011390FM-12+0115GQNF V0200401N004110390019N0100001N1+03501+01021101271ADDAA199000091GA1051+039009079GF105991051001999999031001MA1999999099981MD1999999-0051REMSYN082AAXX  20124 61498 33960 50408 10350 20102 39998 40127 85030 333 0//00 59005 85363;EQDQ01  00002PRCP99
0165614980999992000102015004+16630-011390FM-12+0115GQNF V0200401N002619999999N0100001N1+03601+00921101031ADDGA1021+039009039GF106991021001999999031011MA1999999099761MD1999999-0011REMSYN082AAXX  20154 61498 43960 60405 10360 20092 39976 40103 82031 333 59001 82363 84073;
0208614980999992000102018004+16630-011390FM-12+0115GQNF V0200401N002112200019N0100001N1+03361+01041100961ADDAA199000091GA1031+069009019GF103991001001999999001011KA1120M+03641MA1999999099661MD1999999-0041REMSYN082AAXX  20184 61498 33960 30404 10336 20104 39966 40096 80001 333 10364 59004 83073;EQDQ01  00002PRCP99
0159614980999992000102109004+16630-011390FM-12+0115GQNF V0209999C000012200019N0100001N1+02601+01141101341ADDGA1021+039009079GF102991021001999999031011MA1999999100031MD1999999+0111REMSYN076AAXX  21094 61498 42960 20000 10260 20114 30003 40134 82031 333 58011 82363;
0195614980999992000102112004+16630-011390FM-12+0115GQNF V0200401N004112200019N0100001N1+03201+00931101331ADDAA199000091GA1041+069009019GF104991001001999999001021MA1999999100031MD1999999+0051REMSYN082AAXX  21124 61498 33960 40408 10320 20093 30003 40133 80002 333 0//00 58005 84073;EQDQ01  00002PRCP99
0163614980999992000102115004+16630-011390FM-12+0115GQNF V0200401N003112200019N0100001N1+03441+00851101091ADDGA1041+069009019GF104991001001999999001021MD1999999+0051REMSYN076AAXX  21154 61498 43960 40406 10344 20085 39780 40109 80002 333 58005 84073;EQDQ01+097803APOSP 
0147614980999992000102121004+16630-011390FM-12+0115GQNF V0200401N004112200019N0100001N1+02761+01001101091ADDGA1001+999999999GF100991001001999999001001MA1999999099781MD1999999+0051REMSYN064AAXX  21214 61498 43960 00408 10276 20100 39978 40109 333 58005;
0200614980999992000102206004+16630-011390FM-12+0115GQNF V0209999C000012200019N0100001N1+01961+01301101141ADDAA199000091GA1001+999999999GF100991001001999999001001KA1120N+01961MA1999999099841REMSYN088AAXX  22064 61498 33960 00000 10196 20130 39984 40114 333 0//00 20196 51024 55/// 58004;EQDQ01  00002PRCP99
0183614980999992000102312004+16630-011390FM-12+0115GQNF V0200401N003112200019N0100001N1+03201+01181101321ADDAA199000091GA1001+999999999GF100991001001999999001001MA1999999100011MD1999999+0121REMSYN070AAXX  23124 61498 33960 00406 10320 20118 30001 40132 333 0//00 58012;EQDQ01  00002PRCP99
0159614980999992000102315004+16630-011390FM-12+0115GQNF V0209999C000012200019N0150001N1+03521+01211101001ADDGA1041+069009019GF104991001001999999001011MA1999999099701MD1999999+0011REMSYN076AAXX  23154 61498 43965 40000 10352 20121 39970 40100 80001 333 58001 84073;
0208614980999992000102318004+16630-011390FM-12+0115GQNF V0209999C000012200019N0150001N1+03301+01301100981ADDAA199000091GA1041+069009019GF104991001001999999001011KA1120M+03521MA1999999099671MD1999999+0071REMSYN082AAXX  23184 61498 33965 40000 10330 20130 39967 40098 80001 333 10352 58007 84073;EQDQ01  00002PRCP99
0159614980999992000102409004+16630-011390FM-12+0115GQNF V0200401N002610690019N0100001N1+02361+01081101141ADDGA1051+069009019GF105991001001999999001021MA1999999099821MD1999999-0141REMSYN076AAXX  24094 61498 42960 50405 10236 20108 39982 40114 80002 333 59014 85073;
0195614980999992000102412004+16630-011390FM-12+0115GQNF V0200401N002110690019N0100001N1+03141+01241101111ADDAA199000091GA1051+069009019GF105991001001999999001021MA1999999099811MD1999999-0201REMSYN082AAXX  24124 61498 33960 50404 10314 20124 39981 40111 80002 333 0//00 59020 85073;EQDQ01  00002PRCP99
0159614980999992000102415004+16630-011390FM-12+0115GQNF V0209999C000012200019N0100001N1+03471+01321100811ADDGA1041+069009019GF104991001001999999001021MA1999999099511MD1999999-0191REMSYN076AAXX  24154 61498 43960 40000 10347 20132 39951 40081 80002 333 59019 84073;
0187614980999992000102418004+16630-011390FM-12+0115GQNF V0209999C000012200019N0100001N1+03331+01391100841ADDAA199000091GA1041+069009019GF104991001001999999001021KA1120M+03351MD1999999-0131REMSYN076AAXX  24184 61498 33960 40000 10333 20139 40084 80002 333 10335 59013 84073;EQDQ01  00002PRCP99
0147614980999992000102421004+16630-011390FM-12+0115GQNF V0209999C000012200019N0100001N1+02841+01261100841ADDGA1001+999999999GF100991001001999999001001MA1999999099581MD1999999-0211REMSYN064AAXX  24214 61498 43960 00000 10284 20126 39958 40084 333 59021;
0159614980999992000102509004+16630-011390FM-12+0115GQNF V0209999C000012200019N0100001N1+02541+01191101201ADDGA1041+039009079GF104991041001999999031001MA1999999098891MD1999999+0071REMSYN076AAXX  25094 61498 42960 40000 10254 20119 39889 40120 84030 333 58007 84363;
0211614980999992000102512004+16630-011390FM-12+0115GQNF V0200401N003112200019N0100001N1+03401+01451101211ADDAA199000091GA1041+039009079GF104991041001999999031001MA1999999099912MD1999999+0101REMSYN082AAXX  25124 61498 33960 40406 10340 20145 39991 40121 84030 333 0//00 58010 84363;EQDQ01+099913APOSP Q02  00002PRCP99
0159614980999992000102515004+16630-011390FM-12+0115GQNF V0209999C000010390019N0100001N1+03751+01461100921ADDGA1061+039009079GF106991061001999999031001MA1999999099621MD1999999+0111REMSYN076AAXX  25154 61498 43960 60000 10375 20146 39962 40092 86030 333 58011 86363;
0159614980999992000102521004+16630-011390FM-12+0115GQNF V0209999C000012200019N0100001N1+03111+01401101031ADDGA1021+039009079GF102991021001999999031001MA1999999099731MD1999999+0151REMSYN076AAXX  25214 61498 43960 20000 10311 20140 39973 40103 82030 333 58015 82363;
0210614980999992000102606004+16630-011390FM-12+0115GQNF V0200401N003112200019N0100001N1+02661+01391101061ADDAA199000091GF103991001001999999001021KA1120N+02561MA1999999099771MD1999999+0151REMSYN100AAXX  26064 61498 33960 30406 10266 20139 39977 40106 80002 333 0//00 20256 50804 55/// 58015 83073;EQDQ01  00002PRCP99
0165614980999992000102609004+16630-011390FM-12+0115GQNF V0200401N002119999999N0100001N1+03061+02161101151ADDGA1021+039009039GF105991021001999999031021MA1999999099861MD1999999-0031REMSYN082AAXX  26094 61498 42960 50404 10306 20216 39986 40115 82032 333 59003 82363 84073;
0201614980999992000102612004+16630-011390FM-12+0115GQNF V0209999C000019999999N0100001N1+03441+01901101171ADDAA199000091GA1031+039009039GF107991031001999999031021MA1999999099881MD1999999-0031REMSYN088AAXX  26124 61498 33960 70000 10344 20190 39988 40117 83032 333 0//00 59003 83363 85073;EQDQ01  00002PRCP99
0178614980999992000102615004+16630-011390FM-12+0115GQNF V0200801N002610690019N0100001N1+03801+01861100921ADDGA1061+069009019GF106991001001999999001011MA1999999098642MD1999999+0021REMSYN076AAXX  26154 61498 43960 60805 10380 20186 39864 40092 80001 333 58002 86073;EQDQ01+098643APOSP 
0209614980999992000102618004+16630-011390FM-12+0115GQNF V0209999C000010690019N0100001N1+03641+01801100891ADDAA199000091GA1061+069009019GF106991001001999999001011KA1120M+03831MD1999999+0031REMSYN082AAXX  26184 61498 33960 60000 10364 20180 39761 40089 80001 333 10383 58003 86073;EQDQ01+097613APOSP Q02  00002PRCP99
0166614980999992000102621004+16630-011390FM-12+0115GQNF V0209999C000012200019N0100001N1+03151+01691101061ADDGA1001+999999999GF100991001001999999001001MA1999999099772MD1999999+0041REMSYN064AAXX  26214 61498 43960 00000 10315 20169 39977 40106 333 58004;EQDQ01+099773APOSP 
0200614980999992000102706004+16630-011390FM-12+0115GQNF V0200401N003112200019N0100001N1+02481+01461100961ADDAA199000091GA1001+999999999GF100991001001999999001001KA1120N+02481MA1999999099681REMSYN088AAXX  27064 61498 33960 00406 10248 20146 39968 40096 333 0//00 20248 50874 55/// 59009;EQDQ01  00002PRCP99
0147614980999992000102709004+16630-011390FM-12+0115GQNF V0209999C000012200019N0100001N1+02901+01441101231ADDGA1001+999999999GF100991001001999999001001MA1999999099931MD1999999+0071REMSYN064AAXX  27094 61498 42960 00000 10290 20144 39993 40123 333 58007;
0183614980999992000102712004+16630-011390FM-12+0115GQNF V0209999C000012200019N0100001N1+03761+01481101141ADDAA199000091GA1001+999999999GF100991001001999999001001MA1999999099861MD1999999-0021REMSYN070AAXX  27124 61498 33960 00000 10376 20148 39986 40114 333 0//00 59002;EQDQ01  00002PRCP99
0147614980999992000102715004+16630-011390FM-12+0115GQNF V0209999C000012200019N0100001N1+03951+01481100931ADDGA1001+999999999GF100991001001999999001001MA1999999099651MD1999999+0011REMSYN064AAXX  27154 61498 43960 00000 10395 20148 39965 40093 333 58001;
0196614980999992000102718004+16630-011390FM-12+0115GQNF V0209999C000012200019N0100001N1+03731+01481100921ADDAA199000091GA1001+999999999GF100991001001999999001001KA1120M+03951MA1999999099631MD1999999+0021REMSYN070AAXX  27184 61498 33960 00000 10373 20148 39963 40092 333 10395 58002;EQDQ01  00002PRCP99
0147614980999992000102721004+16630-011390FM-12+0115GQNF V0209999C000012200019N0100001N1+03131+01541101081ADDGA1001+999999999GF100991001001999999001001MA1999999099791MD1999999+0021REMSYN064AAXX  27214 61498 43960 00000 10313 20154 39979 40108 333 58002;
0183614980999992000102800004+16630-011390FM-12+0115GQNF V0209999C000012200019N0100001N1+02901+01511101141ADDAA199000091GA1001+999999999GF100991001001999999001001MA1999999099861MD1999999+0101REMSYN070AAXX  28004 61498 33960 00000 10290 20151 39986 40114 333 0//00 58010;EQDQ01  00002PRCP99
0200614980999992000102806004+16630-011390FM-12+0115GQNF V0209999C000012200019N0100001N1+02441+01061101091ADDAA199000091GA1001+999999999GF100991001001999999001001KA1120N+02431MA1999999099801REMSYN088AAXX  28064 61498 33960 00000 10244 20106 39980 40109 333 0//00 20243 50524 55/// 58012;EQDQ01  00002PRCP99
0175614980999992000102809004+16630-011390FM-12+0115GQNF V0200401N003112200019N0080001N1+02801+01201101171ADDAY101031AY201031GA1001+999999999GF100991001001999999001001MA1999999099881MD1999999-0031MW1051REMSYN070AAXX  28094 61498 41958 00406 10280 20120 39988 40117 70500 333 59003;
0195614980999992000102812004+16630-011390FM-12+0115GQNF V0209999C000012200019N0060001N1+03701+01361101171ADDAA199000091GA1001+999999999GF100991001001999999001001MA1999999099891MD1999999+0031MW1051REMSYN076AAXX  28124 61498 31956 00000 10370 20136 39989 40117 705// 333 0//00 58003;EQDQ01  00002PRCP99
0147614980999992000102815004+16630-011390FM-12+0115GQNF V0209999C000012200019N0100001N1+04041+01411100921ADDGA1001+999999999GF100991001001999999001001MA1999999099641MD1999999-0011REMSYN064AAXX  28154 61498 43960 00000 10404 20141 39964 40092 333 59001;
0196614980999992000102818004+16630-011390FM-12+0115GQNF V0209999C000012200019N0100001N1+03751+01421100891ADDAA199000091GA1001+999999999GF100991001001999999001001KA1120M+04041MA1999999099601MD1999999-0031REMSYN070AAXX  28184 61498 33960 00000 10375 20142 39960 40089 333 10404 59003;EQDQ01  00002PRCP99
0200614980999992000102906004+16630-011390FM-12+0115GQNF V0200401N002612200019N0100001N1+02341+01361101031ADDAA199000091GA1001+999999999GF100991001001999999001001KA1120N+02341MA1999999099741REMSYN088AAXX  29064 61498 33960 00405 10234 20136 39974 40103 333 0//00 20234 51004 55/// 59006;EQDQ01  00002PRCP99
0147614980999992000102909004+16630-011390FM-12+0115GQNF V0200401N003112200019N0100001N1+02761+01451101261ADDGA1001+999999999GF100991001001999999001001MA1999999099961MD1999999+0081REMSYN064AAXX  29094 61498 42960 00406 10276 20145 39996 40126 333 58008;
0183614980999992000102912004+16630-011390FM-12+0115GQNF V0209999C000012200019N0100001N1+03641+01361101251ADDAA199000091GA1001+999999999GF100991001001999999001001MA1999999099961MD1999999+0071REMSYN070AAXX  29124 61498 33960 00000 10364 20136 39996 40125 333 0//00 58007;EQDQ01  00002PRCP99
0147614980999992000102915004+16630-011390FM-12+0115GQNF V0209999C000012200019N0100001N1+03871+01561100901ADDGA1001+999999999GF100991001001999999001001MA1999999099621MD1999999-0021REMSYN064AAXX  29154 61498 43960 00000 10387 20156 39962 40090 333 59002;
0147614980999992000102921004+16630-011390FM-12+0115GQNF V0209999C000012200019N0100001N1+03051+01531101021ADDGA1001+999999999GF100991001001999999001001MA1999999099621MD1999999-0091REMSYN064AAXX  29214 61498 43960 00000 10305 20153 39962 40102 333 59009;
0200614980999992000103006004+16630-011390FM-12+0115GQNF V0209999C000012200019N0100001N1+02501+01641100991ADDAA199000091GA1001+999999999GF100991001001999999001001KA1120N+02471MA1999999099701REMSYN088AAXX  30064 61498 33960 00000 10250 20164 39970 40099 333 0//00 20247 50804 55/// 59004;EQDQ01  00002PRCP99
0159614980999992000103009004+16630-011390FM-12+0115GQNF V0209999C000012200019N0100001N1+02901+01711101151ADDGA1021+039009079GF102991021001999999031001MA1999999099861MD1999999-0101REMSYN076AAXX  30094 61498 42960 20000 10290 20171 39986 40115 82030 333 59010 82363;
0183614980999992000103012004+16630-011390FM-12+0115GQNF V0200801N003112200019N0100001N1+03561+01511101171ADDAA199000091GA1001+999999999GF100991001001999999001001MA1999999099881MD1999999-0081REMSYN070AAXX  30124 61498 33960 00806 10356 20151 39988 40117 333 0//00 59008;EQDQ01  00002PRCP99
0159614980999992000103015004+16630-011390FM-12+0115GQNF V0201001N002112200019N0100001N1+03841+01511100871ADDGA1011+039009079GF101991011001999999031001MA1999999099571MD1999999-0031REMSYN076AAXX  30154 61498 43960 11004 10384 20151 39957 40087 81030 333 59003 81363;
0208614980999992000103018004+16630-011390FM-12+0115GQNF V0209999C000010390019N0100001N1+03601+01461100791ADDAA199000091GA1051+039009079GF105991031001999999031001KA1120M+03841MA1999999099501MD1999999-0031REMSYN082AAXX  30184 61498 33960 50000 10360 20146 39950 40079 83030 333 10384 59003 85363;EQDQ01  00002PRCP99
0210614980999992000103106004+16630-011390FM-12+0115GQNF V0202801N003112200019N0100001N1+02661+01521100941ADDAA199000091GF103991001001999999001011KA1120N+02661MA1999999099651MD1999999-0051REMSYN100AAXX  31064 61498 33960 32806 10266 20152 39965 40094 80001 333 0//00 20266 50684 55/// 59005 83073;EQDQ01  00002PRCP99
0159614980999992000103109004+16630-011390FM-12+0115GQNF V0209999C000012200019N0100001N1+02901+01201101211ADDGA1031+039009079GF103991031001999999031001MA1999999099921MD1999999+0061REMSYN076AAXX  31094 61498 42960 30000 10290 20120 39992 40121 83030 333 58006 83363;
0195614980999992000103112004+16630-011390FM-12+0115GQNF V0200401N003112200019N0100001N1+03541+00621101201ADDAA199000091GA1021+069009019GF102991001001999999001021MA1999999099921MD1999999+0041REMSYN082AAXX  31124 61498 33960 20406 10354 20062 39992 40120 80002 333 0//00 58004 82073;EQDQ01  00002PRCP99
0166614980999992000103115004+16630-011390FM-12+0115GQNF V0200801N002112200019N0100001N1+03751+00641100302ADDGA1001+999999999GF100991001001999999001001MA1999999099651MD1999999+0061REMSYN064AAXX  31154 61498 43960 00804 10375 20064 39965 40030 333 58006;EQDQ01+100303APOSLP
0208614980999992000103118004+16630-011390FM-12+0115GQNF V0209999C000012200019N0100001N1+03531+00941100871ADDAA199000091GA1021+069009019GF102991001001999999001011KA1120M+03751MA1999999099581MD1999999+0081REMSYN082AAXX  31184 61498 33960 20000 10353 20094 39958 40087 80001 333 10375 58008 82073;EQDQ01  00002PRCP99
0147614980999992000103121004+16630-011390FM-12+0115GQNF V0209999C000012200019N0100001N1+02921+01391101051ADDGA1001+999999999GF100991001001999999001001MA1999999099651MD1999999+0201REMSYN064AAXX  31214 61498 43960 00000 10292 20139 39965 40105 333 58020;
0200614980999992000110106004+16630-011390FM-12+0115GQNF V0209999C000012200019N0100001N1+02461+01121101041ADDAA199000091GA1001+999999999GF100991001001999999001001KA1120N+02461MA1999999099761REMSYN088AAXX  01064 61498 33960 00000 10246 20112 39976 40104 333 0//00 20246 51024 55/// 58010;EQDQ01  00002PRCP99
0159614980999992000110109004+16630-011390FM-12+0115GQNF V0209999C000012200019N0100001N1+02741+00961101481ADDGA1021+039009079GF102991021001999999031001MA1999999099881MD1999999-0041REMSYN076AAXX  01094 61498 42960 20000 10274 20096 39988 40148 82030 333 59004 82363;
0153614980999992000110112004+16630-011390FM-12+0115GQNF V0200401N002112200019N0100001N1+03501+99999999999ADDAA199000091GA1001+999999999GF100991001001999999001001REMSYN069AAXX  01124 61498 33960 00404 10350 2072 39988 40116 333 0//00 59004;EQDQ01  00002PRCP99
0147614980999992000110115004+16630-011390FM-12+0115GQNF V0209999C000012200019N0100001N1+03731+00661100941ADDGA1001+999999999GF100991001001999999001001MA1999999099661MD1999999+0011REMSYN064AAXX  01154 61498 43960 00000 10373 20066 39966 40094 333 58001;
0196614980999992000110118004+16630-011390FM-12+0115GQNF V0209999C000012200019N0100001N1+03551+00861100891ADDAA199000091GA1001+999999999GF100991001001999999001001KA1120M+03731MA1999999099601MD1999999+0021REMSYN070AAXX  01184 61498 33960 00000 10355 20086 39960 40089 333 10373 58002;EQDQ01  00002PRCP99
0147614980999992000110121004+16630-011390FM-12+0115GQNF V0209999C000012200019N0100001N1+03001+01261100961ADDGA1001+999999999GF100991001001999999001001MA1999999099631MD1999999-0121REMSYN064AAXX  01214 61498 43960 00000 10300 20126 39963 40096 333 59012;
0200614980999992000110206004+16630-011390FM-12+0115GQNF V0202801N002112200019N0100001N1+02301+00801100961ADDAA199000091GA1001+999999999GF100991001001999999001001KA1120N+02301MA1999999099671REMSYN088AAXX  02064 61498 33960 02804 10230 20080 39967 40096 333 0//00 20230 50794 55/// 59008;EQDQ01  00002PRCP99
0159614980999992000110209004+16630-011390FM-12+0115GQNF V0200401N002112200019N0100001N1+02701+00801101171ADDGA1031+069009019GF103991001001999999001011MA1999999099871MD1999999-0011REMSYN076AAXX  02094 61498 42960 30404 10270 20080 39987 40117 80001 333 59001 83073;
0195614980999992000110212004+16630-011390FM-12+0115GQNF V0200401N004112200019N0100001N1+03441+01801101131ADDAA199000091GA1031+069009019GF103991001001999999001011MA1999999099841MD1999999-0041REMSYN082AAXX  02124 61498 33960 30408 10344 20180 39984 40113 80001 333 0//00 59004 83073;EQDQ01  00002PRCP99
0208614980999992000110218004+16630-011390FM-12+0115GQNF V0200401N003112200019N0100001N1+03401+00381100811ADDAA199000091GA1011+069009019GF101991001001999999001011KA1120M+03641MA1999999099511MD1999999-0111REMSYN082AAXX  02184 61498 33960 10406 10340 20038 39951 40081 80001 333 10364 59011 81073;EQDQ01  00002PRCP99
0183614980999992000110300004+16630-011390FM-12+0115GQNF V0209999C000012200019N0100001N1+02601+00741101211ADDAA199000091GA1001+999999999GF100991001001999999001001MA1999999099721MD1999999+0061REMSYN070AAXX  03004 61498 33960 00000 10260 20074 39972 40121 333 0//00 58006;EQDQ01  00002PRCP99
0195614980999992000110312004+16630-011390FM-12+0115GQNF V0200401N003110690019N0100001N1+03401+00221100991ADDAA199000091GA1051+069009019GF105991001001999999001021MA1999999099701MD1999999-0141REMSYN082AAXX  03124 61498 33960 50406 10340 20022 39970 40099 80002 333 0//00 59014 85073;EQDQ01  00002PRCP99
0159614980999992000110321004+16630-011390FM-12+0115GQNF V0200801N002112200019N0100001N1+03061+00491100791ADDGA1021+069009019GF102991001001999999001011MA1999999099491MD1999999-0141REMSYN076AAXX  03214 61498 43960 20804 10306 20049 39949 40079 80001 333 59014 82073;
0210614980999992000110406004+16630-011390FM-12+0115GQNF V0200401N003112200019N0100001N1+02601+00441100811ADDAA199000091GF103991031001999999031001KA1120N+02601MA1999999099521MD1999999-0151REMSYN100AAXX  04064 61498 33960 30406 10260 20044 39952 40081 83030 333 0//00 20260 50844 55/// 59015 83363;EQDQ01  00002PRCP99
0201614980999992000110412004+16630-011390FM-12+0115GQNF V0200401N003119999999N0100001N1+03361+00781101071ADDAA199000091GA1021+039009039GF105991021001999999031011MA1999999099781MD1999999+0081REMSYN088AAXX  04124 61498 33960 50406 10336 20078 39978 40107 82031 333 0//00 58008 82363 85073;EQDQ01  00002PRCP99
0159614980999992000110415004+16630-011390FM-12+0115GQNF V0200401N003110690019N0100001N1+03861+00341100841ADDGA1051+069009019GF105991001001999999001021MA1999999099571MD1999999+0121REMSYN076AAXX  04154 61498 43960 50406 10386 20034 39957 40084 80002 333 58012 85073;
0200614980999992000110506004+16630-011390FM-12+0115GQNF V0209999C000012200019N0100001N1+02261+00701101021ADDAA199000091GA1001+999999999GF100991001001999999001001KA1120N+02061MA1999999099731REMSYN088AAXX  05064 61498 33960 00000 10226 20070 39973 40102 333 0//00 20206 51044 55/// 58021;EQDQ01  00002PRCP99
0159614980999992000110509004+16630-011390FM-12+0115GQNF V0200401N002112200019N0100001N1+02601+00741101291ADDGA1031+069009019GF103991001001999999001011MA1999999099921MD1999999+0131REMSYN076AAXX  05094 61498 42960 30404 10260 20074 39992 40129 80001 333 58013 83073;
0159614980999992000110515004+16630-011390FM-12+0115GQNF V0200801N003610690019N0100001N1+03761+00241100891ADDGA1051+069009019GF105991001001999999001021MA1999999099611MD1999999+0041REMSYN076AAXX  05154 61498 43960 50807 10376 20024 39961 40089 80002 333 58004 85073;
0208614980999992000110518004+16630-011390FM-12+0115GQNF V0200401N003610690019N0100001N1+03631+00011100581ADDAA199000091GA1071+069009019GF107991001001999999001021KA1120M+03761MA1999999099581MD1999999-0021REMSYN082AAXX  05184 61498 33960 70407 10363 20001 39958 40058 80002 333 10376 59002 87073;EQDQ01  00002PRCP99
0200614980999992000110606004+16630-011390FM-12+0115GQNF V0200401N003112200019N0100001N1+02201+00011100861ADDAA199000091GA1001+999999999GF100991001001999999001001KA1120N+02201MA1999999099561REMSYN088AAXX  06064 61498 33960 00406 10220 20001 39956 40086 333 0//00 20220 50824 55/// 59017;EQDQ01  00002PRCP99
0159614980999992000110609004+16630-011390FM-12+0115GQNF V0200401N003112200019N0100001N1+02541+00031101131ADDGA1031+069009019GF103991001001999999001021MA1999999099831MD1999999-0091REMSYN076AAXX  06094 61498 42960 30406 10254 20003 39983 40113 80002 333 59009 83073;
0195614980999992000110612004+16630-011390FM-12+0115GQNF V0200401N004112200019N0100001N1+03501+00061101071ADDAA199000091GA1031+069009019GF103991001001999999001021MA1999999099781MD1999999-0181REMSYN082AAXX  06124 61498 33960 30408 10350 20006 39978 40107 80002 333 0//00 59018 83073;EQDQ01  00002PRCP99
0159614980999992000110621004+16630-011390FM-12+0115GQNF V0209999C000012200019N0080001N1+03151+00371100911ADDGA1001+999999999GF100991001001999999001001MA1999999099611MD1999999-0041MW1051REMSYN070AAXX  06214 61498 41958 00000 10315 20037 39961 40091 705// 333 59004;
0200614980999992000110706004+16630-011390FM-12+0115GQNF V0209999C000012200019N0100001N1+02141+00441100871ADDAA199000091GA1001+999999999GF100991001001999999001001KA1120N+02061MA1999999099561REMSYN088AAXX  07064 61498 33960 00000 10214 20044 39956 40087 333 0//00 20206 50874 55/// 58001;EQDQ01  00002PRCP99
0159614980999992000110709004+16630-011390FM-12+0115GQNF V0200401N002112200019N0100001N1+02541+00111100931ADDGA1011+039009079GF101991011001999999031001MA1999999099631MD1999999-0201REMSYN076AAXX  07094 61498 42960 10404 10254 20011 39963 40093 81030 333 59020 81363;
0183614980999992000110712004+16630-011390FM-12+0115GQNF V0200401N003112200019N0100001N1+03501-00021100861ADDAA199000091GA1001+999999999GF100991001001999999001001MA1999999099581MD1999999-0201REMSYN070AAXX  07124 61498 33960 00406 10350 21002 39958 40086 333 0//00 59020;EQDQ01  00002PRCP99
0159614980999992000110715004+16630-011390FM-12+0115GQNF V0201001N002112200019N0100001N1+03881-00141100531ADDGA1031+069009019GF103991001001999999001011MA1999999099251MD1999999-0241REMSYN076AAXX  07154 61498 43960 31004 10388 21014 39925 40053 80001 333 59024 83073;
0200614980999992000110806004+16630-011390FM-12+0115GQNF V0209999C000012200019N0100001N1+02101+00491100521ADDAA199000091GA1001+999999999GF100991001001999999001001KA1120N+02101MA1999999099221REMSYN088AAXX  08064 61498 33960 00000 10210 20049 39922 40052 333 0//00 20210 50744 55/// 59035;EQDQ01  00002PRCP99
0159614980999992000110809004+16630-011390FM-12+0115GQNF V0209999C000012200019N0100001N1+02601+00621100761ADDGA1031+069009019GF103991001001999999001021MA1999999099471MD1999999-0161REMSYN076AAXX  08094 61498 42960 30000 10260 20062 39947 40076 80002 333 59016 83073;
0183614980999992000110812004+16630-011390FM-12+0115GQNF V0209999C000012200019N0100001N1+03361+00281100761ADDAA199000091GA1001+999999999GF100991001001999999001001MA1999999099471MD1999999-0111REMSYN070AAXX  08124 61498 33960 00000 10336 20028 39947 40076 333 0//00 59011;EQDQ01  00002PRCP99
0200614980999992000110906004+16630-011390FM-12+0115GQNF V0209999C000012200019N0100001N1+02001+00611100691ADDAA199000091GA1001+999999999GF100991001001999999001001KA1120N+01961MA1999999099391REMSYN088AAXX  09064 61498 33960 00000 10200 20061 39939 40069 333 0//00 20196 50724 55/// 58017;EQDQ01  00002PRCP99
0195614980999992000110912004+16630-011390FM-12+0115GQNF V0200801N002119999999N0100001N1+03201+00501100891ADDAA199000091GA1031+039009079GF105991031001999999031011MA1999999099591MD1999999+0121REMSYN082AAXX  09124 61498 33960 50804 10320 20050 39959 40089 83031 333 0//00 58012 83363;EQDQ01  00002PRCP99
0159614980999992000110915004+16630-011390FM-12+0115GQNF V0200801N001510390019N0100001N1+03731+00361100691ADDGA1061+039009079GF106991061001999999031001MA1999999099401MD1999999+0221REMSYN076AAXX  09154 61498 43960 60803 10373 20036 39940 40069 86030 333 58022 86363;
0208614980999992000110918004+16630-011390FM-12+0115GQNF V0209999C000010390019N0100001N1+03501+00421100621ADDAA199000091GA1051+039009079GF105991051001999999031001KA1120M+03681MA1999999099321MD1999999+0181REMSYN082AAXX  09184 61498 33960 50000 10350 20042 39932 40062 85030 333 10368 58018 85363;EQDQ01  00002PRCP99
0159614980999992000111009004+16630-011390FM-12+0115GQNF V0200401N002110390019N0100001N1+02441+00641100981ADDGA1061+039009079GF106991061001999999031001MA1999999097671MD1999999+0151REMSYN076AAXX  10094 61498 42960 60404 10244 20064 39767 40098 86030 333 58015 86363;
0211614980999992000111012004+16630-011390FM-12+0115GQNF V0209999C000010390019N0100001N1+03321+00651100841ADDAA199000091GA1051+039009079GF105991051001999999031001MA1999999099552MD1999999-0041REMSYN082AAXX  10124 61498 33960 50000 10332 20065 39955 40084 85030 333 0//00 59004 85363;EQDQ01+099553APOSP Q02  00002PRCP99
0159614980999992000111015004+16630-011390FM-12+0115GQNF V0209999C000012200019N0100001N1+03711+00681100591ADDGA1031+039009079GF103991031001999999031001MA1999999099301MD1999999-0101REMSYN076AAXX  10154 61498 43960 30000 10371 20068 39930 40059 83030 333 59010 83363;
0194614980999992000111021004+16630-011390FM-12+0115GQNF V0209999C000010390019N0100001N1+02981+01091100661ADDGA1061+039009079GF106991061001999999031001MA1999999999999MD1999999+0051REMSYN076AAXX  10214 61498 43960 60000 10298 20109 39636 40066 86030 333 58005 86363;EQDQ01+096363APOSP Q02 096363APOSP 
0222614980999992000111106004+16630-011390FM-12+0115GQNF V0202201N004119999999N0060001N1+02601+01441100721ADDAA199000091GF107991071001999999071999KA1120N+02601MA1999999099431MD1999999+0041MW1061REMSYN106AAXX  11064 61498 31956 72208 10260 20144 39943 40072 706// 8707/ 333 0//00 20260 50734 55/// 58004 87363;EQDQ01  00002PRCP99
0207614980999992000111112004+16630-011390FM-12+0115GQNF V0201801N006210390019N0030001N1+02941+01171101041ADDAA199000091GA1061+039009079GF106991061001999999071001MA1999999099741MD1999999-0191MW1061REMSYN088AAXX  11124 61498 31930 61812 10294 20117 39974 40104 706// 86070 333 0//00 59019 86363;EQDQ01  00002PRCP99
0159614980999992000111115004+16630-011390FM-12+0115GQNF V0201001N003610390019N0100001N1+02531+01551100881ADDGA1071+039009079GF107991071001999999071999MA1999999099581MD1999999+0281REMSYN076AAXX  11154 61498 43960 71007 10253 20155 39958 40088 8707/ 333 58028 87363;
0231614980999992000111206004+16630-011390FM-12+0115GQNF V0201801N001519999999N0100001N1+02141+01701100741ADDAA124000591AC12C9AY161061AY261061GF107991071001999999071999KA1120N+02121MA1999999099621MD1999999+0191MW1011REMSYN112AAXX  12064 61498 11960 71803 10214 20170 39962 40074 69944 70166 8707/ 333 0//12 20212 50504 55/// 58019 87363;
0178614980999992000111209004+16630-011390FM-12+0115GQNF V0209999C000010390019N0100001N1+02261+01751101021ADDGA1071+039009079GF199999071001999999071999MA1999999099701MD1999999+0101REMSYN076AAXX  12094 61498 42960 60000 10226 20175 39970 40102 8707/ 333 58010 87363;EQDQ01+000062SCOTCV
0201614980999992000111212004+16630-011390FM-12+0115GQNF V0209999C000019999999N0100001N1+02861+01461101251ADDAA199000091GA1031+039009039GF106991031001999999031021MA1999999099941MD1999999+0101REMSYN088AAXX  12124 61498 33960 60000 10286 20146 39994 40125 83032 333 0//00 58010 83363 85073;EQDQ01  00002PRCP99
0159614980999992000111215004+16630-011390FM-12+0115GQNF V0201401N003110690019N0100001N1+03251+01011100941ADDGA1061+069009019GF106991001001999999001021MA1999999099631MD1999999+0051REMSYN076AAXX  12154 61498 43960 61406 10325 20101 39963 40094 80002 333 58005 86073;
0214614980999992000111218004+16630-011390FM-12+0115GQNF V0209999C000019999999N0100001N1+03101+01001100871ADDAA199000091GA1011+039009039GF107991011001999999031021KA1120M+03281MA1999999099561MD1999999+0011REMSYN088AAXX  12184 61498 32960 70000 10310 20100 39956 40087 81032 333 10328 58001 81363 87073;EQDQ01  00002PRCP99
0184614980999992000111221004+16630-011390FM-12+0115GQNF V0209999C000019999999N0100001N1+02701+01301100951ADDGA1021+039009039GF105991999001999999031001MA1999999099641MD1999999+0051REMSYN082AAXX  12214 61498 43960 50000 10270 20130 39964 40095 82030 333 58005 82363 84073;EQDQ01+000022SCOTLC
0210614980999992000111306004+16630-011390FM-12+0115GQNF V0209999C000019999999N0100001N1+02281+01401101011ADDAA199000091GF106991061001999999071001KA1120N+02221MA1999999099701MD1999999+0081REMSYN100AAXX  13064 61498 33960 60000 10228 20140 39970 40101 86070 333 0//00 20222 50584 55/// 58008 86363;EQDQ01  00002PRCP99
0195614980999992000111312004+16630-011390FM-12+0115GQNF V0200401N002112200019N0100001N1+03201+01141101041ADDAA199000091GA1021+039009079GF102991021001999999031001MA1999999099741MD1999999-0201REMSYN082AAXX  13124 61498 33960 20404 10320 20114 39974 40104 82030 333 0//00 59020 82363;EQDQ01  00002PRCP99
0210614980999992000111406004+16630-011390FM-12+0115GQNF V0200401N002119999999N0100001N1+02201+01221100901ADDAA199000091GF107991071001999999071999KA1120N+02201MA1999999099601MD1999999-0101REMSYN100AAXX  14064 61498 33960 70404 10220 20122 39960 40090 8707/ 333 0//00 20220 50724 55/// 59010 87363;EQDQ01  00002PRCP99
0159614980999992000111409004+16630-011390FM-12+0115GQNF V0209999C000010390019N0100001N1+02201+01341101171ADDGA1051+039009079GF105991051001999999031001MA1999999099961MD1999999+0101REMSYN076AAXX  14094 61498 42960 50000 10220 20134 39996 40117 85030 333 58010 85363;
0208614980999992000111418004+16630-011390FM-12+0115GQNF V0209999C000012200019N0100001N1+03351+01061100821ADDAA199000091GA1011+039009079GF101991011001999999031001KA1120M+03521MA1999999099521MD1999999+0061REMSYN082AAXX  14184 61498 33960 10000 10335 20106 39952 40082 81030 333 10352 58006 81363;EQDQ01  00002PRCP99
0147614980999992000111421004+16630-011390FM-12+0115GQNF V0209999C000012200019N0100001N1+02881+01181100971ADDGA1001+999999999GF100991001001999999001001MA1999999099681MD1999999+0191REMSYN064AAXX  14214 61498 43960 00000 10288 20118 39968 40097 333 58019;
0195614980999992000111506004+16630-011390FM-12+0115GQNF V0209999C000019999999N0100001N1+02201+01141101011ADDAA199000091GF105991051001999999031001KA1120N+02201MD1999999+0111REMSYN100AAXX  15064 61498 33960 50000 10220 20114 391// 40101 85030 333 0//00 20220 50604 55/// 58011 85363;EQDQ01  00002PRCP99
0159614980999992000111509004+16630-011390FM-12+0115GQNF V0200401N002112200019N0100001N1+02561+00991101081ADDGA1021+069009019GF102991001001999999001011MA1999999099771MD1999999-0091REMSYN076AAXX  15094 61498 42960 20404 10256 20099 39977 40108 80001 333 59009 82073;
0195614980999992000111512004+16630-011390FM-12+0115GQNF V0200801N002612200019N0100001N1+03301+00831101091ADDAA199000091GA1031+069009019GF103991001001999999001011MA1999999099801MD1999999-0021REMSYN082AAXX  15124 61498 33960 30805 10330 20083 39980 40109 80001 333 0//00 59002 83073;EQDQ01  00002PRCP99
0159614980999992000111515004+16630-011390FM-12+0115GQNF V0209999C000010690019N0100001N1+03651+00841100841ADDGA1051+069009019GF105991001001999999001011MA1999999099551MD1999999+0001REMSYN076AAXX  15154 61498 43960 50000 10365 20084 39955 40084 80001 333 58000 85073;
0147614980999992000111521004+16630-011390FM-12+0115GQNF V0209999C000012200019N0100001N1+02981+00981100961ADDGA1001+999999999GF100991001001999999001001MA1999999099581MD1999999-0101REMSYN064AAXX  15214 61498 43960 00000 10298 20098 39958 40096 333 59010;
0210614980999992000111606004+16630-011390FM-12+0115GQNF V0209999C000019999999N0100001N1+02601+00741100941ADDAA199000091GF106991061001999999071001KA1120N+02601MA1999999099651MD1999999-0091REMSYN100AAXX  16064 61498 33960 60000 10260 20074 39965 40094 86070 333 0//00 20260 50804 55/// 59009 86363;EQDQ01  00002PRCP99
0159614980999992000111609004+16630-011390FM-12+0115GQNF V0200401N003110390019N0100001N1+02621+00821101341ADDGA1061+039009079GF106991061001999999031001MA1999999100031MD1999999+0261REMSYN076AAXX  16094 61498 42960 60406 10262 20082 30003 40134 86030 333 58026 86363;
0207614980999992000111612004+16630-011390FM-12+0115GQNF V0200401N006212200019N0070001N1+03161+00801101271ADDAA199000091GA1031+039009079GF103991031001999999031001MA1999999099971MD1999999+0171MW1061REMSYN088AAXX  16124 61498 31957 30412 10316 20080 39997 40127 706// 83030 333 0//00 58017 83363;EQDQ01  00002PRCP99
0159614980999992000111615004+16630-011390FM-12+0115GQNF V0200801N004110390019N0100001N1+03401+00721101031ADDGA1071+039009079GF107991071001999999031999MA1999999099741MD1999999+0191REMSYN076AAXX  16154 61498 43960 70808 10340 20072 39974 40103 8703/ 333 58019 87363;
0208614980999992000111618004+16630-011390FM-12+0115GQNF V0209999C000010390019N0100001N1+03261+00871101011ADDAA199000091GA1071+039009079GF107991071001999999031999KA1120M+03401MA1999999099611MD1999999+0231REMSYN082AAXX  16184 61498 33960 70000 10326 20087 39961 40101 8703/ 333 10340 58023 87363;EQDQ01  00002PRCP99
0159614980999992000111621004+16630-011390FM-12+0115GQNF V0209999C000012200019N0100001N1+03021+00921101231ADDGA1041+039009079GF104991041001999999031001MA1999999099931MD1999999+0371REMSYN076AAXX  16214 61498 43960 40000 10302 20092 39993 40123 84030 333 58037 84363;
0195614980999992000111700004+16630-011390FM-12+0115GQNF V0209999C000010390019N0100001N1+02841+01021101181ADDAA199000091GA1071+039009079GF107991071001999999071999MA1999999099981MD1999999+0341REMSYN082AAXX  17004 61498 33960 70000 10284 20102 39998 40118 8707/ 333 0//00 58034 87363;EQDQ01  00002PRCP99
0159614980999992000111706004+16630-011390FM-12+0115GQNF V0200401N003112200019N0100001N1+02541+00861101321ADDGA1021+039009079GF104991021001999999031011MA1999999100021MD1999999-0011REMSYN076AAXX  17064 61498 42960 40406 10254 20086 30002 40132 82031 333 59001 82363;
0195614980999992000111712004+16630-011390FM-12+0115GQNF V0200601N003610390019N0100001N1+03301+00741101221ADDAA199000091GA1051+039009079GF105991051001999999031001MA1999999100001MD1999999+0031REMSYN082AAXX  17124 61498 33960 50607 10330 20074 30000 40122 85030 333 0//00 58003 85363;EQDQ01  00002PRCP99
0159614980999992000111715004+16630-011390FM-12+0115GQNF V0200401N002619999999N0100001N1+03651+00931101041ADDGA1041+039009079GF105991041001999999031011MA1999999099761MD1999999+0021REMSYN076AAXX  17154 61498 43960 50405 10365 20093 39976 40104 84031 333 58002 84363;
0159614980999992000111809004+16630-011390FM-12+0115GQNF V0200401N003112200019N0100001N1+02541+00251101371ADDGA1021+069009019GF102991001001999999001011MA1999999100041MD1999999+0041REMSYN076AAXX  18094 61498 42960 20406 10254 20025 30004 40137 80001 333 58004 82073;
0195614980999992000111812004+16630-011390FM-12+0115GQNF V0200401N003110690019N0100001N1+03201+00301101261ADDAA199000091GA1051+069009019GF105991001001999999001021MA1999999099961MD1999999-0061REMSYN082AAXX  18124 61498 33960 50406 10320 20030 39996 40126 80002 333 0//00 59006 85073;EQDQ01  00002PRCP99
0208614980999992000111818004+16630-011390FM-12+0115GQNF V0200401N002112200019N0100001N1+03301+00521100941ADDAA199000091GA1011+039009079GF101991011001999999031011KA1120M+03501MA1999999099641MD1999999-0131REMSYN082AAXX  18184 61498 33960 10404 10330 20052 39964 40094 81031 333 10350 59013 81363;EQDQ01  00002PRCP99
0151614980999992000111821004+16630-011390FM-12+0115GQNF V0200401N002112200019N0100001N1+02891+00641101041ADDGA1001+999999999GF100991001001999999001001MD1999999-0031REMSYN064AAXX  18214 61498 43960 00404 10289 20064 39273 40104 333 59003;EQDQ01+092733APOSP 
0183614980999992000111900004+16630-011390FM-12+0115GQNF V0209999C000012200019N0100001N1+02661+00561101101ADDAA199000091GA1001+999999999GF100991001001999999001001MA1999999099801MD1999999-0081REMSYN070AAXX  19004 61498 33960 00000 10266 20056 39980 40110 333 0//00 59008;EQDQ01  00002PRCP99
0159614980999992000111906004+16630-011390FM-12+0115GQNF V0200401N001512200019N0100001N1+02461+00171101201ADDGA1031+039009079GF103991031001999999031001MA1999999099891MD1999999-0171REMSYN076AAXX  19064 61498 42960 30403 10246 20017 39989 40120 83030 333 59017 83363;
0183614980999992000111912004+16630-011390FM-12+0115GQNF V0209999C000012200019N0100001N1+03181+00321101241ADDAA199000091GA1001+999999999GF100991001001999999001001MA1999999099941MD1999999-0021REMSYN070AAXX  19124 61498 33960 00000 10318 20032 39994 40124 333 0//00 59002;EQDQ01  00002PRCP99
0147614980999992000111915004+16630-011390FM-12+0115GQNF V0200401N003112200019N0100001N1+03381+00441101001ADDGA1001+999999999GF100991001001999999001001MA1999999099701MD1999999+0041REMSYN064AAXX  19154 61498 43960 00406 10338 20044 39970 40100 333 58004;
0208614980999992000111918004+16630-011390FM-12+0115GQNF V0200401N002112200019N0100001N1+03251+00581101001ADDAA199000091GA1011+069009019GF101991001001999999001011KA1120M+03401MA1999999099701MD1999999+0061REMSYN082AAXX  19184 61498 33960 10404 10325 20058 39970 40100 80001 333 10340 58006 81073;EQDQ01  00002PRCP99
0183614980999992000112000004+16630-011390FM-12+0115GQNF V0200401N002612200019N0100001N1+02481+00411101071ADDAA199000091GA1001+999999999GF100991001001999999001001MA1999999099771MD1999999-0031REMSYN070AAXX  20004 61498 33960 00405 10248 20041 39977 40107 333 0//00 59003;EQDQ01  00002PRCP99
0200614980999992000112006004+16630-011390FM-12+0115GQNF V0200401N003112200019N0100001N1+02001+00361101181ADDAA199000091GA1001+999999999GF100991001001999999001001KA1120N+02001MA1999999099871REMSYN088AAXX  20064 61498 33960 00406 10200 20036 39987 40118 333 0//00 20200 50854 55/// 58007;EQDQ01  00002PRCP99
0147614980999992000112009004+16630-011390FM-12+0115GQNF V0200401N003112200019N0100001N1+02301+00201101491ADDGA1001+999999999GF100991001001999999001001MA1999999100171MD1999999+0281REMSYN064AAXX  20094 61498 42960 00406 10230 20020 30017 40149 333 58028;
0147614980999992000112015004+16630-011390FM-12+0115GQNF V0209999C000012200019N0100001N1+03391+00561101121ADDGA1001+999999999GF100991001001999999001001MA1999999099821MD1999999+0121REMSYN064AAXX  20154 61498 43960 00000 10339 20056 39982 40112 333 58012;
0196614980999992000112018004+16630-011390FM-12+0115GQNF V0209999C000012200019N0100001N1+03201+00441101091ADDAA199000091GA1001+999999999GF100991001001999999001001KA1120M+03391MA1999999099781MD1999999+0081REMSYN070AAXX  20184 61498 33960 00000 10320 20044 39978 40109 333 10339 58008;EQDQ01  00002PRCP99
0200614980999992000112106004+16630-011390FM-12+0115GQNF V0200401N004112200019N0100001N1+01961-00101101351ADDAA199000091GA1001+999999999GF100991001001999999001001KA1120N+01921MA1999999100041REMSYN088AAXX  21064 61498 33960 00408 10196 21010 30004 40135 333 0//00 20192 50964 55/// 58014;EQDQ01  00002PRCP99
0159614980999992000112109004+16630-011390FM-12+0115GQNF V0200401N002612200019N0100001N1+02301-00021101521ADDGA1041+069009019GF104991001001999999001011MA1999999100201MD1999999+0031REMSYN076AAXX  21094 61498 42960 40405 10230 21002 30020 40152 80001 333 58003 84073;
0195614980999992000112112004+16630-011390FM-12+0115GQNF V0200401N003112200019N0100001N1+02881-00321101491ADDAA199000091GA1031+069009019GF103991001001999999001011MA1999999100181MD1999999+0071REMSYN082AAXX  21124 61498 33960 30406 10288 21032 30018 40149 80001 333 0//00 58007 83073;EQDQ01  00002PRCP99
0159614980999992000112115004+16630-011390FM-12+0115GQNF V0200401N002112200019N0100001N1+03141-00231101211ADDGA1041+069009019GF104991001001999999001021MA1999999099901MD1999999+0081REMSYN076AAXX  21154 61498 43960 40404 10314 21023 39990 40121 80002 333 58008 84073;
0208614980999992000112118004+16630-011390FM-12+0115GQNF V0203601N001510690019N0100001N1+03011+00091101171ADDAA199000091GA1071+069009019GF107991001001999999001021KA1120M+03141MA1999999099841MD1999999+0071REMSYN082AAXX  21184 61498 33960 73603 10301 20009 39984 40117 80002 333 10314 58007 87073;EQDQ01  00002PRCP99
0183614980999992000112200004+16630-011390FM-12+0115GQNF V0200401N002112200019N0100001N1+02401-00361101251ADDAA199000091GA1001+999999999GF100991001001999999001001MA1999999099941MD1999999-0111REMSYN070AAXX  22004 61498 33960 00404 10240 21036 39994 40125 333 0//00 59011;EQDQ01  00002PRCP99
0210614980999992000112206004+16630-011390FM-12+0115GQNF V0200401N003112200019N0100001N1+01981-00441101201ADDAA199000091GF101991011001999999031001KA1120N+01981MA1999999099881MD1999999-0161REMSYN100AAXX  22064 61498 33960 10406 10198 21044 39988 40120 81030 333 0//00 20198 50904 55/// 59016 81363;EQDQ01  00002PRCP99
0159614980999992000112209004+16630-011390FM-12+0115GQNF V0209999C000010690019N0100001N1+02181-00181101551ADDGA1051+069009019GF105991001001999999001021MA1999999100221MD1999999+0021REMSYN076AAXX  22094 61498 42960 50000 10218 21018 30022 40155 80002 333 58002 85073;
0200614980999992000112306004+16630-011390FM-12+0115GQNF V0200401N003112200019N0100001N1+01901-00291101441ADDAA199000091GA1001+999999999GF100991001001999999001001KA1120N+01901MA1999999100121REMSYN088AAXX  23064 61498 33960 00406 10190 21029 30012 40144 333 0//00 20190 50734 55/// 58023;EQDQ01  00002PRCP99
0159614980999992000112309004+16630-011390FM-12+0115GQNF V0200401N003110390019N0100001N1+02041-00311101601ADDGA1061+039009079GF106991061001999999031001MA1999999100271MD1999999+0051REMSYN076AAXX  23094 61498 42960 60406 10204 21031 30027 40160 86030 333 58005 86363;
0201614980999992000112312004+16630-011390FM-12+0115GQNF V0200401N003619999999N0100001N1+02661-00171101611ADDAA199000091GA1031+039009039GF107991031001999999031021MA1999999100291MD1999999+0051REMSYN088AAXX  23124 61498 33960 70407 10266 21017 30029 40161 83032 333 0//00 58005 83363 85073;EQDQ01  00002PRCP99
0165614980999992000112315004+16630-011390FM-12+0115GQNF V0200201N003119999999N0100001N1+02951-00331101351ADDGA1011+039009039GF105991011001999999031021MA1999999100031MD1999999+0061REMSYN082AAXX  23154 61498 43960 50206 10295 21033 30003 40135 81032 333 58006 81363 85073;
0214614980999992000112318004+16630-011390FM-12+0115GQNF V0200401N002619999999N0100001N1+02841-00121101321ADDAA199000091GA1011+039009039GF105991011001999999031021KA1120M+03051MA1999999100001MD1999999+0081REMSYN088AAXX  23184 61498 33960 50405 10284 21012 30000 40132 81032 333 10305 58008 81363 85073;EQDQ01  00002PRCP99
0183614980999992000112400004+16630-011390FM-12+0115GQNF V0200401N002112200019N0100001N1+02161+00001101461ADDAA199000091GA1001+999999999GF100991001001999999001001MA1999999100141MD1999999-0031REMSYN070AAXX  24004 61498 33960 00404 10216 20000 30014 40146 333 0//00 59003;EQDQ01  00002PRCP99
0200614980999992000112406004+16630-011390FM-12+0115GQNF V0200401N003112200019N0100001N1+01781-00301101411ADDAA199000091GA1001+999999999GF100991001001999999001001KA1120N+01781MA1999999100081REMSYN088AAXX  24064 61498 33960 00406 10178 21030 30008 40141 333 0//00 20178 50664 55/// 59004;EQDQ01  00002PRCP99
0159614980999992000112409004+16630-011390FM-12+0115GQNF V0200401N003112200019N0100001N1+02061-00201101681ADDGA1031+069009019GF103991001001999999001021MA1999999100341MD1999999+0071REMSYN076AAXX  24094 61498 42960 30406 10206 21020 30034 40168 80002 333 58007 83073;
0211614980999992000112412004+16630-011390FM-12+0115GQNF V0203601N004612200019N0100001N1+02851-00461101561ADDAA199000091GA1051+069009019GF199999001001999999001021MA1999999100141MD1999999-0051REMSYN082AAXX  24124 61498 33960 13609 10285 21046 30014 40156 80002 333 0//00 59005 85073;EQDQ01+000012SCOTCVQ02  00002PRCP99
0159614980999992000112415004+16630-011390FM-12+0115GQNF V0200601N004110690019N0100001N1+03111-00271101301ADDGA1071+069009019GF107991001001999999001021MA1999999099981MD1999999-0051REMSYN076AAXX  24154 61498 43960 70608 10311 21027 39998 40130 80002 333 59005 87073;
0208614980999992000112418004+16630-011390FM-12+0115GQNF V0200401N004110690019N0100001N1+02951-00331101261ADDAA199000091GA1061+069009019GF107991001001999999001021KA1120M+03111MA1999999099941MD1999999-0061REMSYN082AAXX  24184 61498 33960 70408 10295 21033 39994 40126 80002 333 10311 59006 86073;EQDQ01  00002PRCP99
0200614980999992000112506004+16630-011390FM-12+0115GQNF V0209999C000012200019N0100001N1+01681+00101101421ADDAA199000091GA1001+999999999GF100991001001999999001001KA1120N+01681MA1999999100091REMSYN088AAXX  25064 61498 33960 00000 10168 20010 30009 40142 333 0//00 20168 50694 55/// 58001;EQDQ01  00002PRCP99
0159614980999992000112509004+16630-011390FM-12+0115GQNF V0200401N002610690019N0100001N1+01961-00241101601ADDGA1061+069009019GF106991001001999999001021MA1999999100261MD1999999-0081REMSYN076AAXX  25094 61498 42960 60405 10196 21024 30026 40160 80002 333 59008 86073;
0195614980999992000112512004+16630-011390FM-12+0115GQNF V0200401N003110690019N0100001N1+02801-00361101581ADDAA199000091GA1061+069009019GF106991001001999999001021MA1999999100261MD1999999+0021REMSYN082AAXX  25124 61498 33960 60406 10280 21036 30026 40158 80002 333 0//00 58002 86073;EQDQ01  00002PRCP99
0165614980999992000112515004+16630-011390FM-12+0115GQNF V0200401N002619999999N0100001N1+03001-00431101341ADDGA1011+039009039GF107991011001999999031021MA1999999100021MD1999999+0051REMSYN082AAXX  25154 61498 43960 70405 10300 21043 30002 40134 81032 333 58005 81363 87073;
0195614980999992000112812004+16630-011390FM-12+0115GQNF V0209999C000010690019N0100001N1+03231+00251101451ADDAA199000091GA1051+069009019GF105991001001999999001011MA1999999100141MD1999999-0171REMSYN082AAXX  28124 61498 33960 50000 10323 20025 30014 40145 80001 333 0//00 59017 85073;EQDQ01  00002PRCP99
0159614980999992000112815004+16630-011390FM-12+0115GQNF V0201001N002110690019N0100001N1+03741+00061101111ADDGA1051+069009019GF105991001001999999001011MA1999999099811MD1999999-0131REMSYN076AAXX  28154 61498 43960 51004 10374 20006 39981 40111 80001 333 59013 85073;
0200614980999992000112906004+16630-011390FM-12+0115GQNF V0200401N003112200019N0100001N1+02101+00021101341ADDAA199000091GA1001+999999999GF100991001001999999001001KA1120N+02041MA1999999100031REMSYN088AAXX  29064 61498 33960 00406 10210 20002 30003 40134 333 0//00 20204 50714 55/// 58001;EQDQ01  00002PRCP99
0159614980999992000112909004+16630-011390FM-12+0115GQNF V0203601N001512200019N0100001N1+02281-00061101371ADDGA1021+069009019GF102991001001999999001021MA1999999100061MD1999999-0131REMSYN076AAXX  29094 61498 42960 23603 10228 21006 30006 40137 80002 333 59013 82073;
0159614980999992000112915004+16630-011390FM-12+0115GQNF V0200801N003110690019N0100001N1+03701-00051101121ADDGA1051+069009019GF105991001001999999001021MA1999999099831MD1999999+0021REMSYN076AAXX  29154 61498 43960 50806 10370 21005 39983 40112 80002 333 58002 85073;
0208614980999992000112918004+16630-011390FM-12+0115GQNF V0209999C000010690019N0100001N1+03401+00351101091ADDAA199000091GA1061+069009019GF106991001001999999001021KA1120M+03701MA1999999099791MD1999999+0021REMSYN082AAXX  29184 61498 33960 60000 10340 20035 39979 40109 80002 333 10370 58002 86073;EQDQ01  00002PRCP99
0211614980999992000120412004+16630-011390FM-12+0115GQNF V0209999C000010690019N0100001N1+02941+00301101541ADDAA199000091GA1081+069009089GF108991999001999999001071MA1999999100221MD1999999-0061REMSYN082AAXX  04124 61498 33960 80000 10294 20030 30022 40154 80007 333 0//00 59006 88273;EQDQ01+000002SCOTLCQ02  00002PRCP99
0165614980999992000120415004+16630-011390FM-12+0115GQNF V0200801N002619999999N0100001N1+03461-00041101201ADDGA1031+039009039GF105991031001999999031021MA1999999099891MD1999999-0111REMSYN082AAXX  04154 61498 43960 50805 10346 21004 39989 40120 83032 333 59011 83363 83073;
0210614980999992000120506004+16630-011390FM-12+0115GQNF V0200401N003119999999N0100001N1+02101-00111101321ADDAA199000091GF105991001001999999001021KA1120N+02101MA1999999100011MD1999999-0041REMSYN100AAXX  05064 61498 33960 50406 10210 21011 30001 40132 80002 333 0//00 20210 59004 55/// 59008 85073;EQDQ01  00002PRCP99
0165614980999992000120509004+16630-011390FM-12+0115GQNF V0209999C000019999999N0100001N1+02301+00101101471ADDGA1031+039009039GF105991031001999999031021MA1999999100141MD1999999-0091REMSYN082AAXX  05094 61498 42960 50000 10230 20010 30014 40147 83032 333 59009 83363 84073;
0195614980999992000120512004+16630-011390FM-12+0115GQNF V0203601N002112200019N0100001N1+03071+00101101451ADDAA199000091GA1021+039009079GF104991021001999999031021MA1999999100141MD1999999-0081REMSYN082AAXX  05124 61498 33960 43604 10307 20010 30014 40145 82032 333 0//00 59008 82363;EQDQ01  00002PRCP99
0159614980999992000120515004+16630-011390FM-12+0115GQNF V0200401N002112200019N0100001N1+03451-00031101191ADDGA1011+039009079GF103991011001999999031021MA1999999099891MD1999999+0001REMSYN076AAXX  05154 61498 43960 30404 10345 21003 39989 40119 81032 333 58000 81363;
0214614980999992000120518004+16630-011390FM-12+0115GQNF V0200401N003619999999N0100001N1+03251-00041101101ADDAA199000091GA1041+039009039GF106991041001999999031021KA1120M+03451MA1999999099791MD1999999-0041REMSYN088AAXX  05184 61498 33960 60407 10325 21004 39979 40110 84032 333 10345 59004 84363 83073;EQDQ01  00002PRCP99
0210614980999992000120606004+16630-011390FM-12+0115GQNF V0209999C000012200019N0100001N1+01901+00041101301ADDAA199000091GF101991001001999999001021KA1120N+01901MA1999999099991MD1999999-0021REMSYN100AAXX  06064 61498 33960 10000 10190 20004 39999 40130 80002 333 0//00 20190 50704 55/// 59002 81073;EQDQ01  00002PRCP99
0159614980999992000120609004+16630-011390FM-12+0115GQNF V0209999C000010390019N0100001N1+02001+00121101471ADDGA1051+039009079GF105991051001999999031021MA1999999100151MD1999999+0011REMSYN076AAXX  06094 61498 42960 50000 10200 20012 30015 40147 85032 333 58001 85363;
0207614980999992000120612004+16630-011390FM-12+0115GQNF V0201401N007212200019N0060001N1+03301-00121101411ADDAA199000091GA1031+039009079GF103991031001999999031001MA1999999100111MD1999999-0031MW1071REMSYN088AAXX  06124 61498 31956 31414 10330 21012 30011 40141 707// 83030 333 0//00 59003 83363;EQDQ01  00002PRCP99
0159614980999992000120615004+16630-011390FM-12+0115GQNF V0200201N004112200019N0100001N1+03551+00081101091ADDGA1021+039009079GF102991021001999999031001MA1999999099791MD1999999-0101REMSYN076AAXX  06154 61498 43960 20208 10355 20008 39979 40109 82030 333 59010 82363;
0200614980999992000120706004+16630-011390FM-12+0115GQNF V0200401N002112200019N0100001N1+01801+00411101351ADDAA199000091GA1001+999999999GF100991001001999999001001KA1120N+01781MA1999999100041REMSYN088AAXX  07064 61498 33960 00404 10180 20041 30004 40135 333 0//00 20178 50704 55/// 58005;EQDQ01  00002PRCP99
0159614980999992000120709004+16630-011390FM-12+0115GQNF V0209999C000012200019N0100001N1+02231+00211101541ADDGA1011+069009019GF101991001001999999001011MA1999999100221MD1999999+0071REMSYN076AAXX  07094 61498 42960 10000 10223 20021 30022 40154 80001 333 58007 81073;
0195614980999992000120712004+16630-011390FM-12+0115GQNF V0200801N003612200019N0100001N1+03321+00111101431ADDAA199000091GA1021+069009019GF102991001001999999001021MA1999999100131MD1999999+0021REMSYN082AAXX  07124 61498 33960 20807 10332 20011 30013 40143 80002 333 0//00 58002 82073;EQDQ01  00002PRCP99
0159614980999992000120715004+16630-011390FM-12+0115GQNF V0200801N003112200019N0100001N1+03541+00131101151ADDGA1021+069009019GF102991001001999999001021MA1999999099851MD1999999+0061REMSYN076AAXX  07154 61498 43960 20806 10354 20013 39985 40115 80002 333 58006 82073;
0208614980999992000120718004+16630-011390FM-12+0115GQNF V0209999C000012200019N0100001N1+03281-00131101161ADDAA199000091GA1021+069009019GF102991001001999999001021KA1120M+03541MA1999999099841MD1999999+0061REMSYN082AAXX  07184 61498 33960 20000 10328 21013 39984 40116 80002 333 10354 58006 82073;EQDQ01  00002PRCP99
0183614980999992000120800004+16630-011390FM-12+0115GQNF V0209999C000012200019N0100001N1+02341-00051101301ADDAA199000091GA1001+999999999GF100991001001999999001001MA1999999100081MD1999999+0031REMSYN070AAXX  08004 61498 33960 00000 10234 21005 30008 40130 333 0//00 58003;EQDQ01  00002PRCP99
0200614980999992000120806004+16630-011390FM-12+0115GQNF V0209999C000012200019N0100001N1+01551-00111101391ADDAA199000091GA1001+999999999GF100991001001999999001001KA1120N+01551MA1999999100071REMSYN088AAXX  08064 61498 33960 00000 10155 21011 30007 40139 333 0//00 20155 50794 55/// 58003;EQDQ01  00002PRCP99
0147614980999992000120809004+16630-011390FM-12+0115GQNF V0209999C000012200019N0100001N1+02041+00121101581ADDGA1001+999999999GF100991001001999999001001MA1999999100351MD1999999+0031REMSYN064AAXX  08094 61498 42960 00000 10204 20012 30035 40158 333 58003;
0183614980999992000120812004+16630-011390FM-12+0115GQNF V0200801N002112200019N0100001N1+03191-00101101471ADDAA199000091GA1001+999999999GF100991001001999999001001MA1999999100161MD1999999+0031REMSYN070AAXX  08124 61498 33960 00804 10319 21010 30016 40147 333 0//00 58003;EQDQ01  00002PRCP99
0196614980999992000120818004+16630-011390FM-12+0115GQNF V0200401N001512200019N0100001N1+03231-00511101081ADDAA199000091GA1001+999999999GF100991001001999999001001KA1120M+03461MA1999999099761MD1999999-0081REMSYN070AAXX  08184 61498 33960 00403 10323 21051 39976 40108 333 10346 59008;EQDQ01  00002PRCP99
0147614980999992000120821004+16630-011390FM-12+0115GQNF V0200401N003112200019N0100001N1+02601-00301101301ADDGA1001+999999999GF100991001001999999001001MA1999999099971MD1999999-0071REMSYN064AAXX  08214 61498 43960 00406 10260 21030 39997 40130 333 59007;
0200614980999992000120906004+16630-011390FM-12+0115GQNF V0200401N002112200019N0100001N1+01641+00041101311ADDAA199000091GA1001+999999999GF100991001001999999001001KA1120N+01621MA1999999099991REMSYN088AAXX  09064 61498 33960 00404 10164 20004 39999 40131 333 0//00 20162 51004 55/// 59008;EQDQ01  00002PRCP99
0159614980999992000120909004+16630-011390FM-12+0115GQNF V0209999C000012200019N0100001N1+02101+99999101421ADDGA1011+039009079GF101991011001999999031001MA1999999100111MD1999999-0141REMSYN076AAXX  09094 61498 42960 10000 10210 20217 30011 40142 81030 333 59014 81363;
0195614980999992000120912004+16630-011390FM-12+0115GQNF V0200401N005112200019N0100001N1+03201-00341101381ADDAA199000091GA1011+039009079GF101991011001999999031001MA1999999100071MD1999999-0091REMSYN082AAXX  09124 61498 33960 10410 10320 21034 30007 40138 81030 333 0//00 59009 81363;EQDQ01  00002PRCP99
0147614980999992000120915004+16630-011390FM-12+0115GQNF V0200301N003612200019N0100001N1+03421-00291101141ADDGA1001+999999999GF100991001001999999001001MA1999999099831MD1999999+0011REMSYN064AAXX  09154 61498 43960 00307 10342 21029 39983 40114 333 58001;
0196614980999992000120918004+16630-011390FM-12+0115GQNF V0200401N003612200019N0100001N1+03151-00241101131ADDAA199000091GA1001+999999999GF100991001001999999001001KA1120M+03421MA1999999099811MD1999999+0051REMSYN070AAXX  09184 61498 33960 00407 10315 21024 39981 40113 333 10342 58005;EQDQ01  00002PRCP99
0147614980999992000120921004+16630-011390FM-12+0115GQNF V0200401N002612200019N0100001N1+02581-00081101331ADDGA1001+999999999GF100991001001999999001001MA1999999100001MD1999999+0031REMSYN064AAXX  09214 61498 43960 00405 10258 21008 30000 40133 333 58003;
0195614980999992000121012004+16630-011390FM-12+0115GQNF V0200601N002112200019N0060001N1+03181-00271101421ADDAA199000091GA1001+999999999GF100991001001999999001001MA1999999100111MD1999999+0041MW1061REMSYN076AAXX  10124 61498 31956 00604 10318 21027 30011 40142 706// 333 0//00 58004;EQDQ01  00002PRCP99
0159614980999992000121015004+16630-011390FM-12+0115GQNF V0200401N004112200019N0100001N1+03401-00471101141ADDGA1011+039009079GF101991011001999999031011MA1999999099831MD1999999+0001REMSYN076AAXX  10154 61498 43960 10408 10340 21047 39983 40114 81031 333 58000 81363;
0240614980999992000121018004+16630-011390FM-12+0115GQNF V0200401N003112200019N0100001N1+03201-00351101131ADDAA199000091GA1011+069009019GF101991001001999999001011KA1120M+03401MA1999999999999MD1999999+0001REMSYN082AAXX  10184 61498 33960 10406 10320 21035 39481 40113 80001 333 10340 58000 81073;EQDQ01+094813APOSP Q02  00002PRCP99Q03 094813APOSP 
0210614980999992000121106004+16630-011390FM-12+0115GQNF V0209999C000012200019N0100001N1+01901+00151101451ADDAA199000091GF102991021001999999031001KA1120N+01861MA1999999100131MD1999999+0121REMSYN100AAXX  11064 61498 33960 20000 10190 20015 30013 40145 82030 333 0//00 20186 51094 55/// 58012 82363;EQDQ01  00002PRCP99
0207614980999992000121112004+16630-011390FM-12+0115GQNF V0200801N005112200019N0070001N1+03201-00091101551ADDAA199000091GA1041+039009079GF104991041001999999031001MA1999999100241MD1999999+0131MW1061REMSYN088AAXX  11124 61498 31957 40810 10320 21009 30024 40155 706// 84030 333 0//00 58013 84363;EQDQ01  00002PRCP99
0159614980999992000121115004+16630-011390FM-12+0115GQNF V0200801N004112200019N0100001N1+03301-00071101311ADDGA1011+039009079GF101991011001999999031001MA1999999100001MD1999999+0171REMSYN076AAXX  11154 61498 43960 10808 10330 21007 30000 40131 81030 333 58017 81363;
0208614980999992000121118004+16630-011390FM-12+0115GQNF V0200401N004112200019N0100001N1+03101-00151101301ADDAA199000091GA1011+039009079GF101991011001999999031001KA1120M+03301MA1999999099981MD1999999+0171REMSYN082AAXX  11184 61498 33960 10408 10310 21015 39998 40130 81030 333 10330 58017 81363;EQDQ01  00002PRCP99
0147614980999992000121121004+16630-011390FM-12+0115GQNF V0200201N002612200019N0100001N1+02601-00031101451ADDGA1001+999999999GF100991001001999999001001MA1999999100131MD1999999+0221REMSYN064AAXX  11214 61498 43960 00205 10260 21003 30013 40145 333 58022;
0200614980999992000121206004+16630-011390FM-12+0115GQNF V0209999C000012200019N0100001N1+01751+00101101501ADDAA199000091GA1001+999999999GF100991001001999999001001KA1120N+01751MA1999999100181REMSYN088AAXX  12064 61498 33960 00000 10175 20010 30018 40150 333 0//00 20175 50824 55/// 58007;EQDQ01  00002PRCP99
0159614980999992000121209004+16630-011390FM-12+0115GQNF V0209999C000012200019N0100001N1+02101-00031101691ADDGA1041+039009079GF104991041001999999031001MA1999999100361MD1999999+0111REMSYN076AAXX  12094 61498 42960 40000 10210 21003 30036 40169 84030 333 58011 84363;
0223614980999992000121212004+16630-011390FM-12+0115GQNF V0200401N007212200019N0070001N1+03101-00401101671ADDAA199000091GA1031+039009079GF104991031001999999031001MA1999999103362MD1999999+0121MW1071REMSYN088AAXX  12124 61498 32957 40414 10310 21040 30336 40167 707// 83030 333 0//00 58012 83363;EQDQ01+103363APOSP Q02  00002PRCP99
0191614980999992000121306004+16630-011390FM-12+0115GQNF V0200401N003112200019N0100001N1+01961+00121101461ADDAA199000091GF102991021001999999031001MA1999999100141MD1999999-0041REMSYN094AAXX  13064 61498 33960 20406 10196 20012 30014 40146 82030 333 0//00 50884 55/// 59004 82363;EQDQ01  00002PRCP99
0159614980999992000121309004+16630-011390FM-12+0115GQNF V0200401N003112200019N0100001N1+02171-00121101501ADDGA1041+039009079GF104991041001999999031001MA1999999100181MD1999999-0181REMSYN076AAXX  13094 61498 42960 40406 10217 21012 30018 40150 84030 333 59018 84363;
0207614980999992000121312004+16630-011390FM-12+0115GQNF V0200401N006712200019N0030001N1+03131-00451101361ADDAA199000091GA1031+039009079GF103991031001999999031001MA1999999100051MD1999999-0311MW1071REMSYN088AAXX  13124 61498 31930 30413 10313 21045 30005 40136 707// 83030 333 0//00 59031 83363;EQDQ01  00002PRCP99
0171614980999992000121315004+16630-011390FM-12+0115GQNF V0203601N004612200019N0080001N1+03241-00141101131ADDGA1031+039009079GF104991031001999999031011MA1999999099931MD1999999-0281MW1071REMSYN082AAXX  13154 61498 41958 43609 10324 21014 39993 40113 707// 83031 333 59028 83363;
0220614980999992000121318004+16630-011390FM-12+0115GQNF V0200401N004112200019N0080001N1+03031-00251101141ADDAA199000091GA1031+039009079GF104991031001999999031011KA1120M+03241MA1999999099821MD1999999-0171MW1071REMSYN088AAXX  13184 61498 31958 40408 10303 21025 39982 40114 707// 83031 333 10324 59017 83363;EQDQ01  00002PRCP99
0159614980999992000121321004+16630-011390FM-12+0115GQNF V0203601N002612200019N0100001N1+02551-00061101261ADDGA1011+039009079GF101991011001999999031001MA1999999099941MD1999999-0191REMSYN076AAXX  13214 61498 43960 13605 10255 21006 39994 40126 81030 333 59019 81363;
0210614980999992000121406004+16630-011390FM-12+0115GQNF V0203601N002112200019N0100001N1+01851-00221101281ADDAA199000091GF101991011001999999031001KA1120N+01851MA1999999099961MD1999999-0181REMSYN100AAXX  14064 61498 33960 13604 10185 21022 39996 40128 81030 333 0//00 20185 50184 55/// 59018 81363;EQDQ01  00002PRCP99
0175614980999992000121409004+16630-011390FM-12+0115GQNF V0203601N002112200019N0030001N1+02041+00061101461ADDAY101031AY201031GA1001+999999999GF100991001001999999001001MA1999999100141MD1999999-0041MW1051REMSYN070AAXX  14094 61498 41930 03604 10204 20006 30014 40146 70500 333 59004;
0195614980999992000121412004+16630-011390FM-12+0115GQNF V0200401N008212200019N0020001N1+02901-00181101351ADDAA199000091GA1001+999999999GF100991001001999999001001MA1999999100041MD1999999-0011MW1071REMSYN076AAXX  14124 61498 31920 00416 10290 21018 30004 40135 707// 333 0//00 59001;EQDQ01  00002PRCP99
0159614980999992000121415004+16630-011390FM-12+0115GQNF V0200401N004112200019N0040001N1+03261-00011101081ADDGA1001+999999999GF100991001001999999001001MA1999999099771MD1999999-0061MW1051REMSYN070AAXX  14154 61498 41940 00408 10326 21001 39977 40108 705// 333 59006;
0212614980999992000121506004+16630-011390FM-12+0115GQNF V0209999C000012200019N0050001N1+01901+00151101241ADDAA199000091GA1001+999999999GF100991001001999999001001KA1120N+01901MA1999999099921MW1051REMSYN094AAXX  15064 61498 31950 00000 10190 20015 39992 40124 705// 333 0//00 20190 50744 55/// 59004;EQDQ01  00002PRCP99
0159614980999992000121509004+16630-011390FM-12+0115GQNF V0209999C000012200019N0020001N1+01951+00241101281ADDGA1001+999999999GF100991001001999999001001MA1999999099971MD1999999-0171MW1051REMSYN070AAXX  15094 61498 41920 00000 10195 20024 39997 40128 705// 333 59017;
0195614980999992000121512004+16630-011390FM-12+0115GQNF V0200401N004112200019N0015001N1+02901+00801101171ADDAA199000091GA1001+999999999GF100991001001999999001001MA1999999099861MD1999999-0181MW1051REMSYN076AAXX  15124 61498 31915 00408 10290 20080 39986 40117 705// 333 0//00 59018;EQDQ01  00002PRCP99
0159614980999992000121515004+16630-011390FM-12+0115GQNF V0200601N003112200019N0030001N1+03151+00221101001ADDGA1001+999999999GF100991001001999999001001MA1999999099691MD1999999-0081MW1051REMSYN070AAXX  15154 61498 41930 00606 10315 20022 39969 40100 705// 333 59008;
0208614980999992000121518004+16630-011390FM-12+0115GQNF V0200401N002612200019N0030001N1+03001+00291100921ADDAA199000091GA1001+999999999GF100991001001999999001001KA1120M+03161MA1999999099611MD1999999-0121MW1051REMSYN076AAXX  15184 61498 31930 00405 10300 20029 39961 40092 705// 333 10316 59012;EQDQ01  00002PRCP99
0159614980999992000121521004+16630-011390FM-12+0115GQNF V0203601N002112200019N0030001N1+02451+00251101081ADDGA1001+999999999GF100991001001999999001001MA1999999099751MD1999999-0141MW1051REMSYN070AAXX  15214 61498 41930 03604 10245 20025 39975 40108 705// 333 59014;
0195614980999992000121600004+16630-011390FM-12+0115GQNF V0203601N003112200019N0030001N1+02201+00191101071ADDAA199000091GA1001+999999999GF100991001001999999001001MA1999999099761MD1999999-0161MW1051REMSYN076AAXX  16004 61498 31930 03606 10220 20019 39976 40107 705// 333 0//00 59016;EQDQ01  00002PRCP99
0207614980999992000121612004+16630-011390FM-12+0115GQNF V0200401N004110690019N0020001N1+02761+00341101401ADDAA199000091GA1061+069009019GF106991001001999999001021MA1999999100081MD1999999+0221MW1051REMSYN088AAXX  16124 61498 31920 60408 10276 20034 30008 40140 705// 80002 333 0//00 58022 86073;EQDQ01  00002PRCP99
0159614980999992000121621004+16630-011390FM-12+0115GQNF V0209999C000012200019N0030001N1+02461+00261101161ADDGA1001+999999999GF100991001001999999001001MA1999999099831MD1999999+0081MW1051REMSYN070AAXX  16214 61498 41930 00000 10246 20026 39983 40116 705// 333 58008;
0195614980999992000121700004+16630-011390FM-12+0115GQNF V0200401N005112200019N0020001N1+02161+00281101181ADDAA199000091GA1001+999999999GF100991001001999999001001MA1999999099861MD1999999+0101MW1061REMSYN076AAXX  17004 61498 31920 00410 10216 20028 39986 40118 706// 333 0//00 58010;EQDQ01  00002PRCP99
0238614980999992000121706004+16630-011390FM-12+0115GQNF V0209999C000012200019N0020001N1+01801+00301101251ADDAA199000091AY101061AY201061GF103991031001999999031001KA1120N+01801MA1999999099921MD1999999+0101MW1051REMSYN106AAXX  17064 61498 31920 30000 10180 20030 39992 40125 70500 83030 333 0//00 20180 51553 55/// 58010 85363;EQDQ01  00002PRCP99
0207614980999992000121712004+16630-011390FM-12+0115GQNF V0200401N003612200019N0040001N1+02901+00371101341ADDAA199000091GA1011+069009019GF101991001001999999001011MA1999999100021MD1999999-0061MW1051REMSYN088AAXX  17124 61498 31940 10407 10290 20037 30002 40134 705// 80001 333 0//00 59006 81073;EQDQ01  00002PRCP99
0171614980999992000121715004+16630-011390FM-12+0115GQNF V0200201N002112200019N0050001N1+03151+00181101081ADDGA1021+069009019GF102991001001999999001011MA1999999099761MD1999999+0031MW1051REMSYN082AAXX  17154 61498 41950 20204 10315 20018 39976 40108 705// 80001 333 58003 82073;
0236614980999992000121718004+16630-011390FM-12+0115GQNF V0203601N002610690019N0060001N1+03001+99999101041ADDAA199000091GA1051+069009019GF105991001001999999001011KA1120M+03181MA1999999099721MD1999999+0001MW1051REMSYN088AAXX  17184 61498 31956 53605 10300 20214 39972 40104 705// 80001 333 10318 58000 85073;EQDQ01+002143ATOD  Q02  00002PRCP99
0138614980999992000121721004+16630-011390FM-12+0115GQNF V0200401N002612200019N0060001N1+99999+99999999999ADDGA1001+999999999GF100991001001999999001001MA1102001999999REMSYN069AAXX  17214 61498 41956 00405 1020 20007 39986 40119 705// 333 58003;
0195614980999992000121800004+16630-011390FM-12+0115GQNF V0200201N002112200019N0060001N1+02151+00171101261ADDAA199000091GA1001+999999999GF100991001001999999001001MA1999999099941MD1999999+0081MW1061REMSYN076AAXX  18004 61498 31956 00204 10215 20017 39994 40126 706// 333 0//00 58008;EQDQ01  00002PRCP99
0207614980999992000121812004+16630-011390FM-12+0115GQNF V0200401N002112200019N0020001N1+02761+00281101401ADDAA199000091GA1021+039009079GF102991021001999999031001MA1999999100081MD1999999+0061MW1051REMSYN088AAXX  18124 61498 31920 20404 10276 20028 30008 40140 705// 82030 333 0//00 58006 82363;EQDQ01  00002PRCP99
0171614980999992000122015004+16630-011390FM-12+0115GQNF V0209999C000012200019N0080001N1+03251+00001101061ADDGA1021+069009019GF102991001001999999001011MA1999999099741MD1999999-0141MW1051REMSYN082AAXX  20154 61498 41958 20000 10325 20000 39974 40106 705// 80001 333 59014 82073;
0220614980999992000122018004+16630-011390FM-12+0115GQNF V0209999C000012200019N0080001N1+03061+00311101041ADDAA199000091GA1011+069009019GF101991001001999999001011KA1120M+03261MA1999999099721MD1999999-0101MW1051REMSYN088AAXX  20184 61498 31958 10000 10306 20031 39972 40104 705// 80001 333 10326 59010 81073;EQDQ01  00002PRCP99
0205614980999992000122100004+16630-011390FM-12+0115GQNF V0209999C000012200019N0060001N1+02301-00021101171ADDAA199000091GA1001+999999999GF100991001001999999001001MA1999999099861MD1999999-0061REMSYN076AAXX  21004 61498 31956 00000 10230 21002 39986 40117 795// 333 0//00 59006;EQDQ01+000952PRSWM1Q02  00002PRCP99
0212614980999992000122106004+16630-011390FM-12+0115GQNF V0209999C000012200019N0080001N1+01581+00001101231ADDAA199000091GA1001+999999999GF100991001001999999001001KA1120N+01561MA1999999099901MW1051REMSYN094AAXX  21064 61498 31958 00000 10158 20000 39990 40123 705// 333 0//00 20156 50634 55/// 58005;EQDQ01  00002PRCP99
0171614980999992000122109004+16630-011390FM-12+0115GQNF V0209999C000012200019N0080001N1+01831-00081101421ADDGA1011+069009019GF101991001001999999001011MA1999999100091MD1999999+0051MW1051REMSYN082AAXX  21094 61498 41958 10000 10183 21008 30009 40142 705// 80001 333 58005 81073;
0147614980999992000122121004+16630-011390FM-12+0115GQNF V0209999C000012200019N0100001N1+02451+00041101201ADDGA1001+999999999GF100991001001999999001001MA1999999099871MD1999999+0061REMSYN064AAXX  21214 61498 43960 00000 10245 20004 39987 40120 333 58006;
0200614980999992000122206004+16630-011390FM-12+0115GQNF V0209999C000012200019N0100001N1+01441+00071101311ADDAA199000091GA1001+999999999GF100991001001999999001001KA1120N+01441MA1999999099981REMSYN088AAXX  22064 61498 33960 00000 10144 20007 39998 40131 333 0//00 20144 50774 55/// 58004;EQDQ01  00002PRCP99
0159614980999992000122208004+16630-011390FM-12+0115GQNF V0209999C000012200019N0100001N1+01801+00181101491ADDGA1031+069009019GF103991001001999999001011MA1999999100151MD1999999+0061REMSYN076AAXX  22084 61498 42960 30000 10180 20018 30015 40149 80001 333 58006 83073;
0159614980999992000122215004+16630-011390FM-12+0115GQNF V0209999C000012200019N0100001N1+03161+00351101181ADDGA1041+069009019GF104991001001999999001011MA1999999099861MD1999999+0031REMSYN076AAXX  22154 61498 43960 40000 10316 20035 39986 40118 80001 333 58003 84073;
0208614980999992000122218004+16630-011390FM-12+0115GQNF V0209999C000012200019N0100001N1+02971+00261101091ADDAA199000091GA1031+069009019GF103991001001999999001011KA1120M+03161MA1999999099761MD1999999-0031REMSYN082AAXX  22184 61498 33960 30000 10297 20026 39976 40109 80001 333 10316 59003 83073;EQDQ01  00002PRCP99
0183614980999992000122300004+16630-011390FM-12+0115GQNF V0209999C000012200019N0100001N1+02101+00301101321ADDAA199000091GA1001+999999999GF100991001001999999001001MA1999999100001MD1999999+0021REMSYN070AAXX  23004 61498 33960 00000 10210 20030 30000 40132 333 0//00 58002;EQDQ01  00002PRCP99
0200614980999992000122306004+16630-011390FM-12+0115GQNF V0209999C000012200019N0100001N1+01521-00041101401ADDAA199000091GA1001+999999999GF100991001001999999001001KA1120N+01481MA1999999100071REMSYN088AAXX  23064 61498 33960 00000 10152 21004 30007 40140 333 0//00 20148 50524 55/// 58009;EQDQ01  00002PRCP99
0159614980999992000122309004+16630-011390FM-12+0115GQNF V0209999C000012200019N0100001N1+01801-00051101531ADDGA1011+069009019GF101991001001999999001011MA1999999100191MD1999999+0041REMSYN076AAXX  23094 61498 42960 10000 10180 21005 30019 40153 80001 333 58004 81073;
0195614980999992000122312004+16630-011390FM-12+0115GQNF V0209999C000012200019N0100001N1+02671+00041101531ADDAA199000091GA1011+069009019GF101991001001999999001011MA1999999100201MD1999999+0101REMSYN082AAXX  23124 61498 33960 10000 10267 20004 30020 40153 80001 333 0//00 58010 81073;EQDQ01  00002PRCP99
0159614980999992000122315004+16630-011390FM-12+0115GQNF V0209999C000012200019N0100001N1+03051+00751101241ADDGA1041+069009019GF104991001001999999001011MA1999999099921MD1999999+0061REMSYN076AAXX  23154 61498 43960 40000 10305 20075 39992 40124 80001 333 58006 84073;
0208614980999992000122318004+16630-011390FM-12+0115GQNF V0209999C000010690019N0100001N1+02971+00231101161ADDAA199000091GA1061+069009019GF106991001001999999001011KA1120M+03171MA1999999099831MD1999999+0071REMSYN082AAXX  23184 61498 33960 60000 10297 20023 39983 40116 80001 333 10317 58007 86073;EQDQ01  00002PRCP99
0147614980999992000122321004+16630-011390FM-12+0115GQNF V0209999C000012200019N0100001N1+02501-00021101271ADDGA1001+999999999GF100991001001999999001001MA1999999099741MD1999999-0011REMSYN064AAXX  23214 61498 43960 00000 10250 21002 39974 40127 333 59001;
0183614980999992000122400004+16630-011390FM-12+0115GQNF V0209999C000012200019N0100001N1+02201+00001101371ADDAA199000091GA1001+999999999GF100991001001999999001001MA1999999100051MD1999999+0051REMSYN070AAXX  24004 61498 33960 00000 10220 20000 30005 40137 333 0//00 58005;EQDQ01  00002PRCP99
0159614980999992000122409004+16630-011390FM-12+0115GQNF V0209999C000012200019N0100001N1+01701+00131101681ADDGA1031+069009019GF103991001001999999001011MA1999999100341MD1999999+0151REMSYN076AAXX  24094 61498 42960 30000 10170 20013 30034 40168 80001 333 58015 83073;
0189614980999992000122412004+16630-011390FM-12+0115GQNF V0209999C000012200019N0100001N1+02761-00031101511ADDAA199000091GA1011+069009019GF101991001001999999001011MA1999999100191MD1999999-0011REMSYN076AAXX  24124 61498 33960 10000 10276 21003 30019 40151 80001 333 59001 81073;EQDQ01  00002PRCP99
0208614980999992000122418004+16630-011390FM-12+0115GQNF V0209999C000012200019N0100001N1+03021+00161101161ADDAA199000091GA1041+069009019GF104991001001999999001011KA1120M+03181MA1999999099831MD1999999+0001REMSYN082AAXX  24184 61498 33960 40000 10302 20016 39983 40116 80001 333 10318 58000 84073;EQDQ01  00002PRCP99
0183614980999992000122500004+16630-011390FM-12+0115GQNF V0209999C000012200019N0100001N1+02161-00151101441ADDAA199000091GA1001+999999999GF100991001001999999001001MA1999999100121MD1999999+0071REMSYN070AAXX  25004 61498 33960 00000 10216 21015 30012 40144 333 0//00 58007;EQDQ01  00002PRCP99
0200614980999992000122506004+16630-011390FM-12+0115GQNF V0209999C000012200019N0100001N1+01601-00051101381ADDAA199000091GA1001+999999999GF100991001001999999001001KA1120N+01601MA1999999100051REMSYN088AAXX  25064 61498 33960 00000 10160 21005 30005 40138 333 0//00 20160 50544 55/// 58002;EQDQ01  00002PRCP99
0195614980999992000122512004+16630-011390FM-12+0115GQNF V0200201N002110690019N0100001N1+02701-00081101401ADDAA199000091GA1051+069009019GF105991001001999999001011MA1999999100081MD1999999-0111REMSYN082AAXX  25124 61498 33960 50204 10270 21008 30008 40140 80001 333 0//00 59011 85073;EQDQ01  00002PRCP99
0159614980999992000122515004+16630-011390FM-12+0115GQNF V0203601N001512200019N0100001N1+03251-00041101151ADDGA1041+069009019GF104991001001999999001011MA1999999099841MD1999999-0071REMSYN076AAXX  25154 61498 43960 43603 10325 21004 39984 40115 80001 333 59007 84073;
0208614980999992000122518004+16630-011390FM-12+0115GQNF V0203601N002112200019N0100001N1+03051-00201101111ADDAA199000091GA1041+069009019GF104991001001999999001011KA1120M+03251MA1999999099781MD1999999-0051REMSYN082AAXX  25184 61498 33960 43604 10305 21020 39978 40111 80001 333 10325 59005 84073;EQDQ01  00002PRCP99
0159614980999992000122521004+16630-011390FM-12+0115GQNF V0203601N002112200019N0100001N1+02501-00341101341ADDGA1031+069009019GF103991001001999999001011MA1999999100001MD1999999+0071REMSYN076AAXX  25214 61498 43960 33604 10250 21034 30000 40134 80001 333 58007 83073;
0159614980999992000122609004+16630-011390FM-12+0115GQNF V0209999C000010690019N0100001N1+01861+00081101491ADDGA1061+069009019GF106991001001999999001011MA1999999100161MD1999999+0061REMSYN076AAXX  26094 61498 42960 60000 10186 20008 30016 40149 80001 333 58006 86073;
0195614980999992000122612004+16630-011390FM-12+0115GQNF V0209999C000010690019N0100001N1+02821-00041101481ADDAA199000091GA1071+069009019GF107991001001999999001071MA1999999100161MD1999999+0081REMSYN082AAXX  26124 61498 33960 70000 10282 21004 30016 40148 80007 333 0//00 58008 87073;EQDQ01  00002PRCP99
0159614980999992000122615004+16630-011390FM-12+0115GQNF V0209999C000010690019N0100001N1+03201-00041101231ADDGA1061+069009019GF106991001001999999001011MA1999999099921MD1999999+0081REMSYN076AAXX  26154 61498 43960 60000 10320 21004 39992 40123 80001 333 58008 86073;
0147614980999992000122621004+16630-011390FM-12+0115GQNF V0209999C000012200019N0100001N1+02601+00091101291ADDGA1001+999999999GF100991001001999999001001MA1999999099961MD1999999-0041REMSYN064AAXX  26214 61498 43960 00000 10260 20009 39996 40129 333 59004;
0183614980999992000122700004+16630-011390FM-12+0115GQNF V0209999C000012200019N0100001N1+02141+00251101331ADDAA199000091GA1001+999999999GF100991001001999999001001MA1999999100011MD1999999-0031REMSYN070AAXX  27004 61498 33960 00000 10214 20025 30001 40133 333 0//00 59003;EQDQ01  00002PRCP99
0200614980999992000122706004+16630-011390FM-12+0115GQNF V0209999C000012200019N0100001N1+01641+00101101371ADDAA199000091GA1001+999999999GF100991001001999999001001KA1120N+01621MA1999999100041REMSYN088AAXX  27064 61498 33960 00000 10164 20010 30004 40137 333 0//00 20162 50504 55/// 58003;EQDQ01  00002PRCP99
0178614980999992000122709004+16630-011390FM-12+0115GQNF V0209999C000012200019N0100001N1+01881-00171101481ADDGA1031+069009019GF103991001001999999001011MA1999999100151MD1999999-0011REMSYN076AAXX  27094 61498 42560 30000 10188 21017 30015 40148 80001 333 59001 83073;EQDQ01+008002SCOLCB
0195614980999992000122712004+16630-011390FM-12+0115GQNF V0203601N002112200019N0100001N1+02951-00101101501ADDAA199000091GA1021+069009019GF102991001001999999001011MA1999999100581MD1999999+0021REMSYN082AAXX  27124 61498 33960 23604 10295 21010 30058 40150 80001 333 0//00 58002 82073;EQDQ01  00002PRCP99
0208614980999992000122718004+16630-011390FM-12+0115GQNF V0203601N002112200019N0100001N1+03061-00331101251ADDAA199000091GA1011+069009019GF101991001001999999001011KA1120M+03251MA1999999099931MD1999999+0071REMSYN082AAXX  27184 61498 33960 13604 10306 21033 39993 40125 80001 333 10325 58007 81073;EQDQ01  00002PRCP99
0159614980999992000122721004+16630-011390FM-12+0115GQNF V0200601N002112200019N0100001N1+02501-00191101381ADDGA1011+069009019GF101991001001999999001011MA1999999100051MD1999999+0091REMSYN076AAXX  27214 61498 43960 10604 10250 21019 30005 40138 80001 333 58009 81073;
0200614980999992000122806004+16630-011390FM-12+0115GQNF V0209999C000012200019N0100001N1+01601-00231101421ADDAA199000091GA1001+999999999GF100991001001999999001001KA1120N+01601MA1999999100101REMSYN088AAXX  28064 61498 33960 00000 10160 21023 30010 40142 333 0//00 20160 50724 55/// 58006;EQDQ01  00002PRCP99
0159614980999992000122809004+16630-011390FM-12+0115GQNF V0203601N003110690019N0100001N1+01741+00001101711ADDGA1051+069009019GF105991001001999999001011MA1999999100371MD1999999+0181REMSYN076AAXX  28094 61498 42960 53606 10174 20000 30037 40171 80001 333 58018 85073;
0208614980999992000122818004+16630-011390FM-12+0115GQNF V0203601N003110690019N0100001N1+02951+00301101371ADDAA199000091GA1051+069009019GF105991001001999999001021KA1120M+03121MA1999999100041MD1999999+0111REMSYN082AAXX  28184 61498 33960 53606 10295 20030 30004 40137 80002 333 10312 58011 85073;EQDQ01  00002PRCP99
0200614980999992000122906004+16630-011390FM-12+0115GQNF V0203601N003112200019N0100001N1+01561+00621101531ADDAA199000091GA1001+999999999GF100991001001999999001001KA1120N+01561MA1999999100201REMSYN088AAXX  29064 61498 33960 03606 10156 20062 30020 40153 333 0//00 20156 50844 55/// 58010;EQDQ01  00002PRCP99
0195614980999992000122912004+16630-011390FM-12+0115GQNF V0200401N003612200019N0100001N1+02701+00681101541ADDAA199000091GA1011+069009019GF101991001001999999001011MA1999999100221MD1999999-0131REMSYN082AAXX  29124 61498 33960 10407 10270 20068 30022 40154 80001 333 0//00 59013 81073;EQDQ01  00002PRCP99
0159614980999992000122915004+16630-011390FM-12+0115GQNF V0203601N003112200019N0100001N1+03101+00501101281ADDGA1021+069009019GF102991001001999999001011MA1999999099961MD1999999-0141REMSYN076AAXX  29154 61498 43960 23606 10310 20050 39996 40128 80001 333 59014 82073;
0208614980999992000122918004+16630-011390FM-12+0115GQNF V0203601N001512200019N0100001N1+02901+00361101211ADDAA199000091GA1041+069009019GF104991001001999999001011KA1120M+03101MA1999999099881MD1999999-0161REMSYN082AAXX  29184 61498 33960 43603 10290 20036 39988 40121 80001 333 10310 59016 84073;EQDQ01  00002PRCP99
0147614980999992000122921004+16630-011390FM-12+0115GQNF V0209999C000012200019N0100001N1+02401+00161101311ADDGA1001+999999999GF100991001001999999001001MA1999999099971MD1999999-0171REMSYN064AAXX  29214 61498 43960 00000 10240 20016 39997 40131 333 59017;
0183614980999992000123000004+16630-011390FM-12+0115GQNF V0209999C000012200019N0100001N1+02031+00281101331ADDAA199000091GA1001+999999999GF100991001001999999001001MA1999999100011MD1999999-0201REMSYN070AAXX  30004 61498 33960 00000 10203 20028 30001 40133 333 0//00 59020;EQDQ01  00002PRCP99
0159614980999992000123009004+16630-011390FM-12+0115GQNF V0203601N003112200019N0100001N1+01801+00101101481ADDGA1011+069009019GF101991001001999999001011MA1999999100141MD1999999-0101REMSYN076AAXX  30094 61498 42960 13606 10180 20010 30014 40148 80001 333 59010 81073;
0195614980999992000123012004+16630-011390FM-12+0115GQNF V0203601N003112200019N0100001N1+02861+00421101411ADDAA199000091GA1021+069009019GF102991001001999999001011MA1999999100091MD1999999-0131REMSYN082AAXX  30124 61498 33960 23606 10286 20042 30009 40141 80001 333 0//00 59013 82073;EQDQ01  00002PRCP99
0159614980999992000123015004+16630-011390FM-12+0115GQNF V0209999C000010690019N0100001N1+03201+00471101101ADDGA1051+069009019GF105991001001999999001011MA1999999099781MD1999999-0181REMSYN076AAXX  30154 61498 43960 50000 10320 20047 39978 40110 80001 333 59018 85073;
0208614980999992000123018004+16630-011390FM-12+0115GQNF V0209999C000012200019N0100001N1+03131+00351101041ADDAA199000091GA1041+069009019GF104991001001999999001021KA1120M+03251MA1999999099721MD1999999-0161REMSYN082AAXX  30184 61498 33960 40000 10313 20035 39972 40104 80002 333 10325 59016 84073;EQDQ01  00002PRCP99
0200614980999992000123106004+16630-011390FM-12+0115GQNF V0209999C000012200019N0100001N1+01641-00101101271ADDAA199000091GA1001+999999999GF100991001001999999001001KA1120N+01541MA1999999099951REMSYN088AAXX  31064 61498 33960 00000 10164 21010 39995 40127 333 0//00 20154 50574 55/// 59005;EQDQ01  00002PRCP99
0159614980999992000123109004+16630-011390FM-12+0115GQNF V0209999C000012200019N0100001N1+01841+00041101351ADDGA1021+069009019GF102991001001999999001011MA1999999100021MD1999999-0121REMSYN076AAXX  31094 61498 42960 20000 10184 20004 30002 40135 80001 333 59012 82073;
0195614980999992000123112004+16630-011390FM-12+0115GQNF V0209999C000012200019N0100001N1+02961+00121101241ADDAA199000091GA1011+069009019GF101991001001999999001011MA1999999099921MD1999999-0171REMSYN082AAXX  31124 61498 33960 10000 10296 20012 39992 40124 80001 333 0//00 59017 81073;EQDQ01  00002PRCP99
0159614980999992000123115004+16630-011390FM-12+0115GQNF V0209999C000012200019N0100001N1+03371+00421101011ADDGA1011+069009019GF101991001001999999001011MA1999999099701MD1999999-0081REMSYN076AAXX  31154 61498 43960 10000 10337 20042 39970 40101 80001 333 59008 81073;
