0189616300999992000010100004+15650-013250FM-12+0017GOSM V0209999C000010390019N0100001N1+02381+01101100791ADDAA106000091GA1051+039009079GF105991051001999999081001MA1999999100601MD1999999-0121REMSYN076AAXX  01004 61630 32960 50000 10238 20110 30060 40079 85080 333 59012 85363;EQDQ01  00002PRCP06
0159616300999992000010103004+15650-013250FM-12+0017GOSM V0209999C000010390019N0100001N1+02081+01241100711ADDGA1061+039009079GF106991061001999999081001MA1999999100521MD1999999-0111REMSYN076AAXX  01034 61630 42960 60000 10208 20124 30052 40071 86080 333 59011 86363;
0255616300999992000010106004+15650-013250FM-12+0017GOSM V0209999C000019999999N0100001N1+02001+00821100651ADDAA106000091GA1021+039009039GF107991021001999999081021IA2240+01609KA1120N+01891MA1999999100461MD1999999-0101OA150600461REMSYN106AAXX  01064 61630 32960 70000 10200 20082 30046 40065 82082 333 01600 20189 50592 55095 59010 82363 87073;EQDQ01  00002PRCP06
0132616300999992000010109004+15650-013250FM-12+0017GOSM V0209999C000010390019N0100001N1+01981+00571999999ADDGA1071+039009079GF107991071001999999071999MD1999999-0031REMSYN064AAXX  01094 61630 42960 70000 10198 20057 8707/ 333 59003 87363;
0189616300999992000010112004+15650-013250FM-12+0017GOSM V0209999C000010390019N0100001N1+02701+01161100931ADDAA106000091GA1081+039009079GF108991081001999999071999MA1999999100741MD1999999-0011REMSYN076AAXX  01124 61630 32960 80000 10270 20116 30074 40093 8807/ 333 59001 88363;EQDQ01  00002PRCP06
0159616300999992000010115004+15650-013250FM-12+0017GOSM V0209999C000010390019N0100001N1+02881+01351100721ADDGA1071+039009079GF107991071001999999071999MA1999999100531MD1999999+0141REMSYN076AAXX  01154 61630 42960 70000 10288 20135 30053 40072 8707/ 333 58014 87363;
0208616300999992000010118004+15650-013250FM-12+0017GOSM V0209999C000010390019N0100001N1+02801+01191100741ADDAA106000091GA1081+039009079GF108991081001999999071999KA1120M+02941MA1999999100841MD1999999+0141REMSYN082AAXX  01184 61630 32960 80000 10280 20119 30084 40074 8807/ 333 10294 58014 88363;EQDQ01  00002PRCP06
0159616300999992000010121004+15650-013250FM-12+0017GOSM V0209999C000010390019N0100001N1+02461+01381100921ADDGA1061+039009079GF106991061001999999071001MA1999999100731MD1999999+0151REMSYN076AAXX  01214 61630 42960 60000 10246 20138 30073 40092 86070 333 58015 86363;
0189616300999992000010200004+15650-013250FM-12+0017GOSM V0209999C000010390019N0100001N1+02381+01281100961ADDAA106000091GA1051+039009079GF105991051001999999071001MA1999999100771MD1999999+0171REMSYN076AAXX  02004 61630 32960 50000 10238 20128 30077 40096 85070 333 58017 85363;EQDQ01  00002PRCP06
0159616300999992000010203004+15650-013250FM-12+0017GOSM V0209999C000010390019N0100001N1+02181+01151100941ADDGA1051+039009079GF105991051001999999071001MA1999999100751MD1999999+0231REMSYN076AAXX  02034 61630 42960 50000 10218 20115 30075 40094 85070 333 58023 85363;
0208616300999992000010206004+15650-013250FM-12+0017GOSM V0209999C000019999999N0100001N1+02021+99999100941ADDAA106000091GF105991051001999999071001IA2240+01509KA1120N+01921OA150600001REMSYN088AAXX  02064 61630 32960 50000 10202 30014 40094 85070 333 01500 20192 50312 55007 58028;EQDQ01+100143APOSP Q02  00002PRCP06
0159616300999992000010209004+15650-013250FM-12+0017GOSM V0209999C000010390019N0100001N1+02061+01211101101ADDGA1061+039009079GF106991061001999999071001MA1999999100901MD1999999+0181REMSYN076AAXX  02094 61630 42960 60000 10206 20121 30090 40110 86070 333 58018 86363;
0195616300999992000010212004+15650-013250FM-12+0017GOSM V0201401N005110390019N0080001N1+02741+01061101131ADDAA106000091GA1061+039009079GF106991061001999999071001MA1999999100941MD1999999+0201REMSYN082AAXX  02124 61630 32958 61410 10274 20106 30094 40113 86070 333 0//00 58020 86363;EQDQ01  00002PRCP06
0159616300999992000010215004+15650-013250FM-12+0017GOSM V02099999999990390019N0080001N1+03011+01271100861ADDGA1071+039009079GF107991071001999999071999MA1999999100671MD1999999+0141REMSYN076AAXX  02154 61630 42958 7104/ 10301 20127 30067 40086 8707/ 333 58014 87363;
0208616300999992000010218004+15650-013250FM-12+0017GOSM V0201401N001010390019N0080001N1+02901+01251100801ADDAA106000091GA1081+039009079GF108991081001999999071999KA1120M+03101MA1999999100611MD1999999+0071REMSYN082AAXX  02184 61630 32958 81402 10290 20125 30061 40080 8807/ 333 10310 58007 88363;EQDQ01  00002PRCP06
0159616300999992000010221004+15650-013250FM-12+0017GOSM V0201401N001010390019N0080001N1+02511+01281101001ADDGA1071+039009079GF107991071001999999071999MA1999999100801MD1999999+0071REMSYN076AAXX  02214 61630 42958 71402 10251 20128 30080 40100 8707/ 333 58007 87363;
0189616300999992000010300004+15650-013250FM-12+0017GOSM V0209999C000012200019N0080001N1+02391+01181100931ADDAA106000091GA1031+039009079GF103991031001999999071001MA1999999100741MD1999999-0031REMSYN076AAXX  03004 61630 32958 30000 10239 20118 30074 40093 83070 333 59003 83363;EQDQ01  00002PRCP06
0159616300999992000010303004+15650-013250FM-12+0017GOSM V0209999C000012200019N0080001N1+02401+01181100841ADDGA1031+039009079GF103991031001999999071001MA1999999100651MD1999999-0101REMSYN076AAXX  03034 61630 42958 30000 10240 20118 30065 40084 83070 333 59010 83363;
0233616300999992000010306004+15650-013250FM-12+0017GOSM V0201201N002112200019N0080001N1+02301+01221101041ADDAA106000091GF102991021001999999071001IA2240+01709KA1120N+02201MA1999999100851MD1999999+0111OA150600261REMSYN100AAXX  03064 61630 32958 21204 10230 20122 30085 40104 82070 333 01700 20220 50602 55055 58011 82363;EQDQ01  00002PRCP06
0159616300999992000010309004+15650-013250FM-12+0017GOSM V0201001N002110390019N0100001N1+02391+01221101211ADDGA1071+039009079GF107991071001999999071999MA1999999101021MD1999999+0121REMSYN076AAXX  03094 61630 42960 71004 10239 20122 30102 40121 8707/ 333 58012 87363;
0189616300999992000010312004+15650-013250FM-12+0017GOSM V0201001N002110390019N0100001N1+02571+01211101231ADDAA106000091GA1081+039009079GF108991081001999999071999MA1999999101041MD1999999+0101REMSYN076AAXX  03124 61630 32960 81004 10257 20121 30104 40123 8807/ 333 58010 88363;EQDQ01  00002PRCP06
0159616300999992000010315004+15650-013250FM-12+0017GOSM V0201401N003112200019N0100001N1+02861+01321100921ADDGA1021+069009019GF102991001001999999001021MA1999999100731MD1999999+0061REMSYN076AAXX  03154 61630 42960 21406 10286 20132 30073 40092 80002 333 58006 82073;
0208616300999992000010318004+15650-013250FM-12+0017GOSM V0200801N004110390019N0100001N1+02841+01381100831ADDAA106000091GA1051+039009079GF105991051001999999081001KA1120M+02801MA1999999100641MD1999999+0031REMSYN082AAXX  03184 61630 32960 50808 10284 20138 30064 40083 85080 333 10280 58003 85363;EQDQ01  00002PRCP06
0195616300999992000010400004+15650-013250FM-12+0017GOSM V0200801N004112200019N0100001N1+02401+01301101161ADDAA106000091GA1041+039009079GF104991041001999999081001MA1999999100971MD1999999+0231REMSYN082AAXX  04004 61630 32960 40808 10240 20130 30097 40116 84080 333 0//00 58023 84363;EQDQ01  00002PRCP06
0178616300999992000010403004+15650-013250FM-12+0017GOSM V0200801N002112200019N0100001N1+02341+01311101131ADDGA1041+009309079GF104991041999999999081001MA1999999100941MD1999999+0291REMSYN076AAXX  04034 61630 42960 40804 10234 20131 30094 40113 84080 333 58029 84331;EQDQ01+000002SCOLCG
0249616300999992000010406004+15650-013250FM-12+0017GOSM V0200801N002112200019N0100001N1+02261+01081101021ADDAA106000091GF104991041001999999081001IA2240+01709KA1120N+02141MA1999999100831MD1999999-0021OA150699999REMSYN100AAXX  04064 61630 32960 40804 10226 20108 30083 40102 84080 333 01700 20214 50522 55031 59002 84363;EQDQ01  00002PRCP06Q02  00152WGOSPD
0187616300999992000010409004+15650-013250FM-12+0017GOSM V0209999C000010390019N0080001N1+01961+01291101291ADDAY161031AY221031GA1081+039009079GF108991081001999999071999MA1999999101061MD1999999+0041MW1601REMSYN082AAXX  04094 61630 41958 80000 10196 20129 30106 40129 76062 8807/ 333 58004 88363;
0188616300999992000010412004+15650-013250FM-12+0017GOSM V0200801N004110390019N0080001N1+01961+01331101381ADDAA112002091AC12I9GA1081+039009079GF108991081001999999071999MA1999999101181MD1999999+0141REMSYN088AAXX  04124 61630 12958 80808 10196 20133 30118 40138 60022 8807/ 333 0//26 58014 88363;
0215616300999992000010418004+15650-013250FM-12+0017GOSM V0201001N002110390019N0040001N1+02251+01341101081ADDAA112002091AY161061GA1081+039009079GF108991081001999999071999KA1120M+02321MA1999999100881MD1999999+0241MW1061REMSYN094AAXX  04184 61630 11940 81004 10225 20134 30088 40108 60022 7066/ 8807/ 333 10232 58024 88363;
0149616300999992000010421004+15650-013250FM-12+0017GOSM V0209999C000019999999N0050001N1+02001+01341101181ADDGF108991061001999999061061MA1999999100981MD1999999+0101REMSYN082AAXX  04214 61630 42950 80000 10200 20134 30098 40118 86066 8807/ 333 58010 88363;
0208616300999992000010500004+15650-013250FM-12+0017GOSM V0201201N001010390019N0050001N1+01951+01161101221ADDAA106001091AC13C9AY161061GA1081+039009079GF108991071001999999071999MA1999999101021MD1999999+0051MW1061REMSYN094AAXX  05004 61630 31950 81202 10195 20116 30102 40122 69991 7066/ 8707/ 333 0//13 58005 88363;
0179616300999992000010503004+15650-013250FM-12+0017GOSM V0201201N001010390019N0050001N1+01901+01101101181ADDAY161031GA1081+039009079GF108991081001999999071999MA1999999100981MD1999999+0041MW1611REMSYN082AAXX  05034 61630 41950 81202 10190 20110 30098 40118 7616/ 8807/ 333 58004 88363;
0246616300999992000010506004+15650-013250FM-12+0017GOSM V0209999C000019999999N0050001N1+01841+00861101191ADDAA124003091AC13C9AY161061GF108991081001999999071999IA2240+01509KA1120N+01761MA1999999100991MD1999999+0161MW1061OA150600001REMSYN112AAXX  05064 61630 11950 80000 10184 20086 30099 40119 60034 7066/ 8807/ 333 01553 20176 50282 55002 58016 88363;
0187616300999992000010509004+15650-013250FM-12+0017GOSM V0201201N002110390019N0080001N1+01701+00921101291ADDAY161031AY221031GA1081+039009079GF108991081001999999071999MA1999999101091MD1999999+0031MW1021REMSYN082AAXX  05094 61630 41958 81204 10170 20092 30109 40129 70262 8807/ 333 58003 88363;
0216616300999992000010512004+15650-013250FM-12+0017GOSM V0201001N001010390019N0080001N1+02211+00911101371ADDAA106000791AC12I9AY161061AY221061GA1071+039009079GF107991071001999999071999MA1999999101171MD1999999-0011MW1011REMSYN094AAXX  05124 61630 11958 71002 10221 20091 30117 40137 69901 70162 8707/ 333 0//56 59001 87363;
0159616300999992000010515004+15650-013250FM-12+0017GOSM V0201401N002112200019N0100001N1+02781+01211101181ADDGA1021+039009079GF102991021001999999081001MA1999999100881MD1999999+0021REMSYN076AAXX  05154 61630 42960 21404 10278 20121 30088 40118 82080 333 58002 82363;
0195616300999992000010518004+15650-013250FM-12+0017GOSM V0201401N002112200019N0100001N1+02741+01201101021ADDAA112000791GA1041+039009079GF104991041001008001081001KA1120M+02851MA1999999100821MD1999999-0061REMSYN088AAXX  05184 61630 12560 41404 10274 20120 30082 40102 69902 84080 333 10285 59006 84363;
0147616300999992000010521004+15650-013250FM-12+0017GOSM V0209999C000012200019N0100001N1+02401+01351101221ADDGA1001+999999999GF100991001001999999001001MA1999999101021MD1999999+0041REMSYN064AAXX  05214 61630 42960 00000 10240 20135 30102 40122 333 58004;
0147616300999992000010603004+15650-013250FM-12+0017GOSM V02099999999992200019N0100001N1+02161+00691101181ADDGA1001+999999999GF100991001001999999001001MA1999999100981MD1999999+0011REMSYN064AAXX  06034 61630 42960 00/00 10216 20069 30098 40118 333 58001;
0210616300999992000010606004+15650-013250FM-12+0017GOSM V0209999C000012200019N0100001N1+02081+00621101151ADDAA124000791GA1001+999999999GF100991001001999999001001IA2240+01409KA1120N+02001MA1999999100951OA150600311REMSYN094AAXX  06064 61630 12960 00000 10208 20062 30095 40115 69904 333 01459 20200 50402 55067 59004;
0159616300999992000010615004+15650-013250FM-12+0017GOSM V0200801N001010390019N0100001N1+03061+00951100931ADDGA1051+039009079GF105991051001999999081001MA1999999100741MD1999999-0141REMSYN076AAXX  06154 61630 42960 50802 10306 20095 30074 40093 85080 333 59014 85363;
0208616300999992000010618004+15650-013250FM-12+0017GOSM V0209999C000012200019N0100001N1+02881+00891100921ADDAA106000091GA1021+039009079GF102991021001999999031001KA1120M+03071MA1999999100731MD1999999-0091REMSYN082AAXX  06184 61630 32960 20000 10288 20089 30073 40092 82030 333 10307 59009 82363;EQDQ01  00002PRCP06
0189616300999992000010700004+15650-013250FM-12+0017GOSM V0209999C000012200019N0100001N1+02301+00581101251ADDAA106000091GA1031+039009079GF103991031001999999031001MA1999999101051MD1999999+0011REMSYN076AAXX  07004 61630 32960 30000 10230 20058 30105 40125 83030 333 58001 83363;EQDQ01  00002PRCP06
0223616300999992000010706004+15650-013250FM-12+0017GOSM V0209999C000012200019N0100001N1+01921+00481101061ADDAA106000091GA1001+999999999GF100991001001999999001001IA2240+01909KA1120N+01871MA1999999100861OA150600151REMSYN088AAXX  07064 61630 32960 00000 10192 20048 30086 40106 333 01900 20187 50562 55033 59009;EQDQ01  00002PRCP06
0159616300999992000010709004+15650-013250FM-12+0017GOSM V0209999C000012200019N0100001N1+02001+00661101161ADDGA1031+039009079GF103991031001999999071001MA1999999100961MD1999999-0071REMSYN076AAXX  07094 61630 42960 30000 10200 20066 30096 40116 83070 333 59007 83363;
0189616300999992000010712004+15650-013250FM-12+0017GOSM V0201201N002110390019N0100001N1+02731+00801101091ADDAA106000091GA1071+039009079GF107991071001999999081001MA1999999100901MD1999999-0161REMSYN076AAXX  07124 61630 32960 71204 10273 20080 30090 40109 87080 333 59016 87363;EQDQ01  00002PRCP06
0159616300999992000010715004+15650-013250FM-12+0017GOSM V0201201N001010390019N0100001N1+03121+01001100851ADDGA1071+039009079GF107991071001999999071001MA1999999100661MD1999999-0081REMSYN076AAXX  07154 61630 42960 71202 10312 20100 30066 40085 87070 333 59008 87363;
0208616300999992000010718004+15650-013250FM-12+0017GOSM V0209999C000010390019N0100001N1+03061+01141100781ADDAA106000091GA1061+039009079GF106991061001999999071001KA1120M+03191MA1999999100691MD1999999-0131REMSYN082AAXX  07184 61630 32960 60000 10306 20114 30069 40078 86070 333 10319 59013 86363;EQDQ01  00002PRCP06
0159616300999992000010721004+15650-013250FM-12+0017GOSM V0209999C000010390019N0100001N1+02551+01371100911ADDGA1051+039009079GF105991051001999999071001MA1999999100721MD1999999-0121REMSYN076AAXX  07214 61630 42960 50000 10255 20137 30072 40091 85070 333 59012 85363;
0189616300999992000010800004+15650-013250FM-12+0017GOSM V0209999C000010390019N0100001N1+02301+00941101031ADDAA106000091GA1051+039009079GF105991051001999999071001MA1999999100841MD1999999-0211REMSYN076AAXX  08004 61630 32960 50000 10230 20094 30084 40103 85070 333 59021 85363;EQDQ01  00002PRCP06
0147616300999992000010803004+15650-013250FM-12+0017GOSM V0209999C000012200019N0100001N1+02071+00601101001ADDGA1001+999999999GF100991001001999999001001MA1999999100811MD1999999-0071REMSYN064AAXX  08034 61630 42960 00000 10207 20060 30081 40100 333 59007;
0159616300999992000010809004+15650-013250FM-12+0017GOSM V0209999C000012200019N0100001N1+02001+00611101091ADDGA1011+039009079GF101991011001999999081001MA1999999100891MD1999999-0071REMSYN076AAXX  08094 61630 42960 10000 10200 20061 30089 40109 81080 333 59007 81363;
0189616300999992000010812004+15650-013250FM-12+0017GOSM V0200401N001012200019N0120001N1+02901+00951101131ADDAA106000091GA1041+039009079GF104991041001999999081001MA1999999100941MD1999999+0041REMSYN076AAXX  08124 61630 32962 40402 10290 20095 30094 40113 84080 333 58004 84363;EQDQ01  00002PRCP06
0159616300999992000010815004+15650-013250FM-12+0017GOSM V0209999C000012200019N0100001N1+03361+01921100891ADDGA1021+069009019GF102991001001999999001021MA1999999100701MD1999999+0041REMSYN076AAXX  08154 61630 42960 20000 10336 20192 30070 40089 80002 333 58004 82073;
0208616300999992000010818004+15650-013250FM-12+0017GOSM V0203201N002112200019N0100001N1+03161+00791100831ADDAA106000091GA1041+039009079GF104991041001999999081001KA1120M+03251MA1999999100541MD1999999+0041REMSYN082AAXX  08184 61630 32960 43204 10316 20079 30054 40083 84080 333 10325 58004 84363;EQDQ01  00002PRCP06
0177616300999992000010900004+15650-013250FM-12+0017GOSM V0209999C000012200019N0100001N1+02241+00531101201ADDAA106000091GA1001+999999999GF100991001001999999001001MA1999999101011MD1999999+0171REMSYN064AAXX  09004 61630 32960 00000 10224 20053 30101 40120 333 58017;EQDQ01  00002PRCP06
0147616300999992000010903004+15650-013250FM-12+0017GOSM V0209999C000012200019N0100001N1+01881+00481101101ADDGA1001+999999999GF100991001001999999001001MA1999999100911MD1999999+0131REMSYN064AAXX  09034 61630 42960 00000 10188 20048 30091 40110 333 58013;
0159616300999992000010909004+15650-013250FM-12+0017GOSM V0209999C000012200019N0100001N1+01781+00501101191ADDGA1041+039009079GF104991041001999999081001MA1999999100991MD1999999+0101REMSYN076AAXX  09094 61630 42960 40000 10178 20050 30099 40119 84080 333 58010 84363;
0183616300999992000010912004+15650-013250FM-12+0017GOSM V0200801N002112200019N0100001N1+99999+99999101191ADDAA106000091GA1031+039009079GF103991031001999999081001MA1999999101001MD1999999+0061REMSYN070AAXX  09124 61630 32960 30804 201// 30100 40119 83080 333 58006 83363;EQDQ01  00002PRCP06
0192616300999992000010918004+15650-013250FM-12+0017GOSM V0209999C000012200019N0100001N1+03151+00971100801ADDAA106000091GF104991041001999999081001KA1120M+03351MA1999999100601MD1999999+0041REMSYN082AAXX  09184 61630 32960 40000 10315 20097 30060 40080 84080 333 10335 58004 843/3;EQDQ01  00002PRCP06
0159616300999992000010921004+15650-013250FM-12+0017GOSM V0209999C000012200019N0100001N1+02561+00801100961ADDGA1021+039009079GF102991021001999999081001MA1999999100771MD1999999-0171REMSYN076AAXX  09214 61630 42960 20000 10256 20080 30077 40096 82080 333 59017 82363;
0177616300999992000011000004+15650-013250FM-12+0017GOSM V0209999C000012200019N0100001N1+02201+00671101011ADDAA106000091GA1001+999999999GF100991001001999999001001MA1999999100821MD1999999-0191REMSYN064AAXX  10004 61630 32960 00000 10220 20067 30082 40101 333 59019;EQDQ01  00002PRCP06
0147616300999992000011003004+15650-013250FM-12+0017GOSM V0209999C000012200019N0100001N1+01861+00721100851ADDGA1001+999999999GF100991001001999999001001MA1999999100661MD1999999-0251REMSYN064AAXX  10034 61630 42960 00000 10186 20072 30066 40085 333 59025;
0223616300999992000011006004+15650-013250FM-12+0017GOSM V0209999C000012200019N0100001N1+01731+00721100891ADDAA106000091GA1001+999999999GF100991001001999999001001IA2240+01409KA1120N+01651MA1999999100691OA150600461REMSYN088AAXX  10064 61630 32960 00000 10173 20072 30069 40089 333 01400 20165 50632 55098 59003;EQDQ01  00002PRCP06
0147616300999992000011009004+15650-013250FM-12+0017GOSM V0209999C000012200019N0120001N1+02161+01471101071ADDGA1001+999999999GF100991001001999999001001MA1999999100871MD1999999-0121REMSYN064AAXX  10094 61630 42962 00000 10216 20147 30087 40107 333 59012;
0189616300999992000011012004+15650-013250FM-12+0017GOSM V0201201N002112200019N0120001N1+02871+01431101081ADDAA106000091GA1011+039009079GF101991011001999999081001MA1999999100891MD1999999-0111REMSYN076AAXX  10124 61630 32962 11204 10287 20143 30089 40108 81080 333 59011 81363;EQDQ01  00002PRCP06
0159616300999992000011015004+15650-013250FM-12+0017GOSM V0209999C000012200019N0120001N1+03301+01601100811ADDGA1021+039009079GF102991021001999999081001MA1999999100621MD1999999+0021REMSYN076AAXX  10154 61630 42962 20000 10330 20160 30062 40081 82080 333 58002 82363;
0208616300999992000011018004+15650-013250FM-12+0017GOSM V0209999C000012200019N0120001N1+03151+01561100781ADDAA106000091GA1011+039009079GF101991011001999999031001KA1120M+03401MA1999999100591MD1999999-0011REMSYN082AAXX  10184 61630 32962 10000 10315 20156 30059 40078 81030 333 10340 59001 81363;EQDQ01  00002PRCP06
0159616300999992000011021004+15650-013250FM-12+0017GOSM V0209999C000012200019N0100001N1+02641+01491100971ADDGA1011+039009079GF101991011001999999081001MA1999999100781MD1999999+0011REMSYN076AAXX  10214 61630 42960 10000 10264 20149 30078 40097 81080 333 58001 81363;
0177616300999992000011100004+15650-013250FM-12+0017GOSM V0201001N002112200019N0100001N1+02501+01241101031ADDAA106000091GA1001+999999999GF100991001001999999001001MA1999999100841MD1999999+0021REMSYN064AAXX  11004 61630 32960 01004 10250 20124 30084 40103 333 58002;EQDQ01  00002PRCP06
0147616300999992000011109004+15650-013250FM-12+0017GOSM V0209999C000012200019N0100001N1+02221+01201101171ADDGA1001+999999999GF100991001001999999001001MA1999999100981MD1999999+0111REMSYN064AAXX  11094 61630 42960 00000 10222 20120 30098 40117 333 58011;
0189616300999992000011112004+15650-013250FM-12+0017GOSM V0201001N003112200019N0100001N1+02801+01391101241ADDAA106000091GA1011+039009079GF101991011001999999031001MA1999999101051MD1999999+0161REMSYN076AAXX  11124 61630 32960 11006 10280 20139 30105 40124 81030 333 58016 81363;EQDQ01  00002PRCP06
0147616300999992000011115004+15650-013250FM-12+0017GOSM V0200801N002112200019N0100001N1+03261+01541100871ADDGA1001+999999999GF100991001001999999001001MA1999999100681MD1999999+0061REMSYN064AAXX  11154 61630 42960 00804 10326 20154 30068 40087 333 58006;
0196616300999992000011118004+15650-013250FM-12+0017GOSM V0200801N002112200019N0100001N1+03161+01531100871ADDAA106000091GA1001+999999999GF100991001001999999001001KA1120M+03401MA1999999100681MD1999999+0091REMSYN070AAXX  11184 61630 32960 00804 10316 20153 30068 40087 333 10340 58009;EQDQ01  00002PRCP06
0159616300999992000011121004+15650-013250FM-12+0017GOSM V0209999C000012200019N0100001N1+02531+01651101041ADDGA1011+069009019GF101991001001999999001021MA1999999100841MD1999999+0061REMSYN076AAXX  11214 61630 42960 10000 10253 20165 30084 40104 80002 333 58006 81073;
0177616300999992000011200004+15650-013250FM-12+0017GOSM V0209999C000012200019N0100001N1+02341+01181101111ADDAA106000091GA1001+999999999GF100991001001999999001001MA1999999100921MD1999999+0081REMSYN064AAXX  12004 61630 32960 00000 10234 20118 30092 40111 333 58008;EQDQ01  00002PRCP06
0223616300999992000011206004+15650-013250FM-12+0017GOSM V0200601N001012200019N0100001N1+02021+00801101051ADDAA106000091GA1001+999999999GF100991001001999999001001IA2240+01909KA1120N+01931MA1999999100861OA150600511REMSYN088AAXX  12064 61630 32960 00602 10202 20080 30086 40105 333 01900 20193 50562 55102 58001;EQDQ01  00002PRCP06
0159616300999992000011209004+15650-013250FM-12+0017GOSM V0201001N002110690019N0120001N1+02061+00481101271ADDGA1051+069009019GF105991001001999999001021MA1999999101071MD1999999+0091REMSYN076AAXX  12094 61630 42962 51004 10206 20048 30107 40127 80002 333 58009 85073;
0189616300999992000011212004+15650-013250FM-12+0017GOSM V0201001N003110690019N0100001N1+02761+00541101321ADDAA106000091GA1051+069009019GF105991001001999999001021MA1999999101131MD1999999+0081REMSYN076AAXX  12124 61630 32960 51006 10276 20054 30113 40132 80002 333 58008 85073;EQDQ01  00002PRCP06
0159616300999992000011215004+15650-013250FM-12+0017GOSM V0209999C000012200019N0100001N1+03141+00081101001ADDGA1041+069009019GF104991001001999999001021MA1999999100811MD1999999+0131REMSYN076AAXX  12154 61630 42960 40000 10314 20008 30081 40100 80002 333 58013 84073;
0208616300999992000011218004+15650-013250FM-12+0017GOSM V0200601N001012200019N0100001N1+03011+01101100971ADDAA106000091GA1031+069009019GF103991001001999999001021KA1120M+03251MA1999999100781MD1999999+0101REMSYN082AAXX  12184 61630 32960 30602 10301 20110 30078 40097 80002 333 10325 58010 83073;EQDQ01  00002PRCP06
0147616300999992000011221004+15650-013250FM-12+0017GOSM V0209999C000012200019N0100001N1+02451+00941101171ADDGA1001+999999999GF100991001001999999001001MA1999999100981MD1999999+0141REMSYN064AAXX  12214 61630 42960 00000 10245 20094 30098 40117 333 58014;
0147616300999992000011303004+15650-013250FM-12+0017GOSM V0201001N002112200019N0100001N1+02101+00541101231ADDGA1001+999999999GF100991001001999999001001MA1999999101041MD1999999+0311REMSYN064AAXX  13034 61630 42960 01004 10210 20054 30104 40123 333 58031;
0147616300999992000011306004+15650-013250FM-12+0017GOSM V0209999C000012200019N0100001N1+01911+00291101451ADDGA1001+999999999GF100991001001999999001001MA1999999101251MD1999999+0181REMSYN064AAXX  13064 61630 42960 00000 10191 20029 30125 40145 333 58018;
0177616300999992000011312004+15650-013250FM-12+0017GOSM V0201001N004112200019N0100001N1+02601+00291101361ADDAA106000091GA1001+999999999GF100991001001999999001001MA1999999101161MD1999999+0031REMSYN064AAXX  13124 61630 32960 01008 10260 20029 30116 40136 333 58003;EQDQ01  00002PRCP06
0147616300999992000011315004+15650-013250FM-12+0017GOSM V0200801N001012200019N0150001N1+03101+00741100931ADDGA1001+999999999GF100991001001999999001001MA1999999100741MD1999999-0071REMSYN064AAXX  13154 61630 42965 00802 10310 20074 30074 40093 333 59007;
0196616300999992000011318004+15650-013250FM-12+0017GOSM V0200601N001012200019N0150001N1+02981+00661100951ADDAA106000091GA1001+999999999GF100991001001999999001001KA1120M+03141MA1999999100751MD1999999-0031REMSYN070AAXX  13184 61630 32965 00602 10298 20066 30075 40095 333 10314 59003;EQDQ01  00002PRCP06
0151616300999992000011321004+15650-013250FM-12+001799999V0200601N00101220001SN0080001N1+02371+00481101111ADDGA1001+999999999GF100991001001999999001001MA1999999100911MD1999999-0071REMSYN068    AAXX  13214 61630 42958 00602 10237 20048 30091 40111 333 59007;
0181616300999992000011400004+15650-013250FM-12+001799999V0200601N00101220001SN0100001N1+02081+00261101141ADDAA199000091GA1001+999999999GF100991001001999999001001MA1999999100951MD1999999-0101REMSYN068    AAXX  14004 61630 32960 00602 10208 20026 30095 40114 333 59010;EQDQ01  00002PRCP99
0151616300999992000011403004+15650-013250FM-12+001799999V0200801N00101220001SN0100001N1+01881+00201101061ADDGA1001+999999999GF100991001001999999001001MA1999999100871MD1999999-0141REMSYN068    AAXX  14034 61630 42960 00802 10188 20020 30087 40106 333 59014;
0227616300999992000011406004+15650-013250FM-12+001799999V0201001N00101220001SN0100001N1+01601+00221101101ADDAA199000091GA1001+999999999GF100991001001999999001001IA2240+01409KA1120N+01501MA1999999100901OA150600511REMSYN092    AAXX  14064 61630 32960 01002 10160 20022 30090 40110 333 01400 20150 50662 55100 59015;EQDQ01  00002PRCP99
0151616300999992000011409004+15650-013250FM-12+001799999V0201001N00101220001SN0120001N1+01761+00321101201ADDGA1001+999999999GF100991001001999999001001MA1999999101001MD1999999-0251REMSYN068    AAXX  14094 61630 42962 01002 10176 20032 30100 40120 333 59025;
0181616300999992000011412004+15650-013250FM-12+001799999V0201201N00211220001SN0100001N1+02521+00441101171ADDAA199000091GA1001+999999999GF100991001001999999001001MA1999999100971MD1999999-0191REMSYN068    AAXX  14124 61630 32960 01204 10252 20044 30097 40117 333 59019;EQDQ01  00002PRCP99
0151616300999992000011415004+15650-013250FM-12+001799999V0201001N00101220001SN0100001N1+02991+00711100831ADDGA1001+999999999GF100991001001999999001001MA1999999100641MD1999999-0101REMSYN068    AAXX  14154 61630 42960 01002 10299 20071 30064 40083 333 59010;
0200616300999992000011418004+15650-013250FM-12+001799999V0209999C00001220001SN0100001N1+02961+00751100801ADDAA199000091GA1001+999999999GF100991001001999999001001KA1120M+03101MA1999999100601MD1999999-0151REMSYN074    AAXX  14184 61630 32960 00000 10296 20075 30060 40080 333 10310 59015;EQDQ01  00002PRCP99
0181616300999992000011500004+15650-013250FM-12+001799999V0209999C00001220001SN0100001N1+02061+00471101041ADDAA199000091GA1001+999999999GF100991001001999999001001MA1999999100841MD1999999-0111REMSYN068    AAXX  15004 61630 32960 00000 10206 20047 30084 40104 333 59011;EQDQ01  00002PRCP99
0157616300999992000011509004+15650-013250FM-12+001799999V0209999C00001039001SN0100001N1+01841+00361101101ADDGA1071+039009079GF107991999999999999999999MA1999999100901MD1999999-0101REMSYN074    AAXX  15094 61630 42960 70000 10184 20036 30090 40110 333 59010 87363;
0193616300999992000011512004+15650-013250FM-12+001799999V0209999C00001039001SN0100001N1+02661+00501101171ADDAA199000091GA1051+039009079GF105991051001999999081001MA1999999100971MD1999999+0001REMSYN080    AAXX  15124 61630 32960 50000 10266 20050 30097 40117 85080 333 58000 85363;EQDQ01  00002PRCP99
0163616300999992000011515004+15650-013250FM-12+001799999V0209999C00001039001SN0120001N1+03241+00851100911ADDGA1061+039009079GF106991061001999999031001MA1999999100721MD1999999+0081REMSYN080    AAXX  15154 61630 42962 60000 10324 20085 30072 40091 86030 333 58008 86363;
0212616300999992000011518004+15650-013250FM-12+001799999V0209999C00001039001SN0100001N1+03021+00641100811ADDAA199000091GA1071+039009079GF107991071001999999071999KA1120M+03301MA1999999100611MD1999999+0011REMSYN086    AAXX  15184 61630 32960 70000 10302 20064 30061 40081 8707/ 333 10330 58001 87363;EQDQ01  00002PRCP99
0163616300999992000011521004+15650-013250FM-12+001799999V0209999C00001039001SN0100001N1+02581+00961100901ADDGA1071+039009079GF107991071001999999071999MA1999999100701MD1999999-0071REMSYN080    AAXX  15214 61630 42960 70000 10258 20096 30070 40090 8707/ 333 59007 87363;
0163616300999992000011600004+15650-013250FM-12+001799999V0209999C00001039001SN0100001N1+02181+00661100881ADDGA1071+039009079GF107991071001999999031999MA1999999100691MD1999999-0121REMSYN080    AAXX  16004 61630 42960 70000 10218 20066 30069 40088 8703/ 333 59012 87363;
0163616300999992000011609004+15650-013250FM-12+001799999V0209999C00001220001SN0100001N1+02091+00821101221ADDGA1031+039009079GF103991031001999999031001MA1999999101021MD1999999+0121REMSYN080    AAXX  16094 61630 42960 30000 10209 20082 30102 40122 83030 333 58012 83363;
0193616300999992000011612004+15650-013250FM-12+001799999V0200801N00101220001SN0100001N1+03071+00711101201ADDAA199000091GA1011+039009079GF101991011001999999031001MA1999999101011MD1999999+0041REMSYN080    AAXX  16124 61630 32960 10802 10307 20071 30101 40120 81030 333 58004 81363;EQDQ01  00002PRCP99
0163616300999992000011615004+15650-013250FM-12+001799999V0209999C00001220001SN0100001N1+03521+00881100911ADDGA1011+069009019GF101991001001999999001021MA1999999100721MD1999999+0001REMSYN080    AAXX  16154 61630 42960 10000 10352 20088 30072 40091 80002 333 58000 81073;
0193616300999992000011700004+15650-013250FM-12+001799999V0209999C00001220001SN0100001N1+02481+00701101281ADDAA199000091GA1031+039009079GF103991031001999999081001MA1999999101091MD1999999+0271REMSYN080    AAXX  17004 61630 32960 30000 10248 20070 30109 40128 83080 333 58027 83363;EQDQ01  00002PRCP99
0151616300999992000011709004+15650-013250FM-12+001799999V0209999C00001220001SN0100001N1+02151+00801101341ADDGA1001+999999999GF100991001001999999001001MA1999999101151MD1999999+0131REMSYN068    AAXX  17094 61630 42960 00000 10215 20080 30115 40134 333 58013;
0181616300999992000011712004+15650-013250FM-12+001799999V0201001N00101220001SN0100001N1+03141+00811101421ADDAA199000091GA1001+999999999GF100991001001999999001001MA1999999101231MD1999999+0221REMSYN068    AAXX  17124 61630 32960 01002 10314 20081 30123 40142 333 58022;EQDQ01  00002PRCP99
0151616300999992000011715004+15650-013250FM-12+001799999V0200201N00101220001SN0150001N1+03681+01031101061ADDGA1001+999999999GF100991001001999999001001MA1999999100871MD1999999+0121REMSYN068    AAXX  17154 61630 42965 00202 10368 20103 30087 40106 333 58012;
0200616300999992000011718004+15650-013250FM-12+001799999V0209999C00001220001SN0120001N1+03511+01051101041ADDAA199000091GA1001+999999999GF100991001001999999001001KA1120M+03751MA1999999100851MD1999999+0171REMSYN074    AAXX  17184 61630 32962 00000 10351 20105 30085 40104 333 10375 58017;EQDQ01  00002PRCP99
0140616300999992000011721004+15650-013250FM-12+001799999V0209999C00001220001SN0100001N1+02691+99999101201ADDGA1001+999999999GF100991001001999999001001REMSYN067    AAXX  17214 61630 42960 00000 10269 2083/ 30003 4012/ 333 5805;EQDQ01+100033APOSP 
0181616300999992000011800004+15650-013250FM-12+001799999V0209999C00001220001SN0100001N1+02401+00481101361ADDAA199000091GA1001+999999999GF100991001001999999001001MA1999999101171MD1999999+0081REMSYN068    AAXX  18004 61630 32960 00000 10240 20048 30117 40136 333 58008;EQDQ01  00002PRCP99
0227616300999992000011806004+15650-013250FM-12+001799999V0209999C00001220001SN0100001N1+01911+00441101141ADDAA199000091GA1001+999999999GF100991001001999999001001IA2240+01609KA1120N+01821MA1999999100951OA150600511REMSYN092    AAXX  18064 61630 32960 00000 10191 20044 30095 40114 333 01600 20182 50682 55102 59007;EQDQ01  00002PRCP99
0163616300999992000011809004+15650-013250FM-12+001799999V0209999C00001220001SN0100001N1+02101+00781101361ADDGA1011+039009079GF101991011001999999031001MA1999999101161MD1999999-0011REMSYN080    AAXX  18094 61630 42960 10000 10210 20078 30116 40136 81030 333 59001 81363;
0181616300999992000011812004+15650-013250FM-12+001799999V0201001N00101220001SN0120001N1+03211+00701101321ADDAA199000091GA1001+999999999GF100991001001999999001001MA1999999101131MD1999999-0101REMSYN068    AAXX  18124 61630 32962 01002 10321 20070 30113 40132 333 59010;EQDQ01  00002PRCP99
0151616300999992000011815004+15650-013250FM-12+001799999V0209999C00001220001SN0100001N1+03681+00881101001ADDGA1001+999999999GF100991001001999999001001MA1999999100811MD1999999-0061REMSYN068    AAXX  18154 61630 42960 00000 10368 20088 30081 40100 333 59006;
0200616300999992000011818004+15650-013250FM-12+001799999V0209999C00001220001SN0100001N1+03601+00961100891ADDAA199000091GA1001+999999999GF100991001001999999001001KA1120M+03801MA1999999100701MD1999999-0151REMSYN074    AAXX  18184 61630 32960 00000 10360 20096 30070 40089 333 10380 59015;EQDQ01  00002PRCP99
0151616300999992000011821004+15650-013250FM-12+001799999V0209999C00001220001SN0100001N1+02631+01021101071ADDGA1001+999999999GF100991001001999999001001MA1999999100881MD1999999-0151REMSYN068    AAXX  18214 61630 42960 00000 10263 20102 30088 40107 333 59015;
0181616300999992000011900004+15650-013250FM-12+001799999V0209999C00001220001SN0100001N1+02501+00731101161ADDAA199000091GA1001+999999999GF100991001001999999001001MA1999999100971MD1999999-0201REMSYN068    AAXX  19004 61630 32960 00000 10250 20073 30097 40116 333 59020;EQDQ01  00002PRCP99
0227616300999992000011906004+15650-013250FM-12+001799999V0209999C00001220001SN0100001N1+01801+00691100961ADDAA199000091GA1001+999999999GF100991001001999999001001IA2240+01609KA1120N+01701MA1999999100771OA150600461REMSYN092    AAXX  19064 61630 32960 00000 10180 20069 30077 40096 333 01600 20170 50812 55094 59018;EQDQ01  00002PRCP99
0151616300999992000011909004+15650-013250FM-12+001799999V0209999C00001220001SN0100001N1+02081+00831101211ADDGA1001+999999999GF100991001001999999001001MA1999999101021MD1999999-0141REMSYN068    AAXX  19094 61630 42960 00000 10208 20083 30102 40121 333 59014;
0187616300999992000011912004+15650-013250FM-12+001799999V0200801N00211220001SN0100001N1+03041+00741101221ADDAA199000091GA1001+999999999GF100991001001999999001001MA1999999101031MD1999999-0101REMSYN074    AAXX  19124 61630 32960 00804 10304 20074 30103 40122 333 0//00 59010;EQDQ01  00002PRCP99
0159616300999992000011915004+15650-013250FM-12+0017GOSM V0209999C000012200019N0100001N1+03491+00931100881ADDGA1021+069009019GF102991001001999999001021MA1999999100691MD1999999-0121REMSYN076AAXX  19154 61630 42960 20000 10349 20093 30069 40088 80002 333 59012 82073;
0196616300999992000011918004+15650-013250FM-12+0017GOSM V0209999C000012200019N0100001N1+03491+01121100841ADDAA199000091GA1001+999999999GF100991001001999999001001KA1120M+03661MA1999999100651MD1999999-0151REMSYN070AAXX  19184 61630 32960 00000 10349 20112 30065 40084 333 10366 59015;EQDQ01  00002PRCP99
0182616300999992000011921004+15650-013250FM-12+0017GOSM V0209999C000012200019N0100001N1+02551+00941999999ADDGA1001+999999999GF100991001001999999001001MA1999999100761MD1999999-0121REMSYN064AAXX  19214 61630 42960 00000 10255 20094 30076 40896 333 59012;EQDQ01+108963APOSLPQ02 108963APOSLP
0205616300999992000012000004+15650-013250FM-12+0017GOSM V0200801N002112200019N0100001N1+02511+00581101062ADDAA199000091GA1021+069009019GF102991001001999999001021MA1999999100871MD1999999-0101REMSYN076AAXX  20004 61630 32960 20804 10251 20058 30087 40106 80002 333 59010 82073;EQDQ01+101063APOSLPQ02  00002PRCP99
0159616300999992000012009004+15650-013250FM-12+0017GOSM V0209999C000012200019N0100001N1+02071+00681101171ADDGA1021+069009019GF102991001001999999001021MA1999999100971MD1999999-0051REMSYN076AAXX  20094 61630 42960 20000 10207 20068 30097 40117 80002 333 59005 82073;
0189616300999992000012012004+15650-013250FM-12+0017GOSM V0209999C000012200019N0120001N1+03081+01451101211ADDAA199000091GA1021+069009019GF102991001001999999001021MA1999999101021MD1999999-0011REMSYN076AAXX  20124 61630 32962 20000 10308 20145 30102 40121 80002 333 59001 82073;EQDQ01  00002PRCP99
0159616300999992000012015004+15650-013250FM-12+0017GOSM V0209999C000010690019N0120001N1+03511+00971100871ADDGA1061+069009019GF106991001001999999001021MA1999999100681MD1999999-0011REMSYN076AAXX  20154 61630 42962 60000 10351 20097 30068 40087 80002 333 59001 86073;
0208616300999992000012018004+15650-013250FM-12+0017GOSM V0209999C000012200019N0120001N1+03541+01131100851ADDAA199000091GA1031+069009019GF103991001001999999001021KA1120M+03611MA1999999100661MD1999999+0011REMSYN082AAXX  20184 61630 32962 30000 10354 20113 30066 40085 80002 333 10361 58001 83073;EQDQ01  00002PRCP99
0159616300999992000012021004+15650-013250FM-12+0017GOSM V0209999C000012200019N0100001N1+02691+00851100961ADDGA1011+069009019GF101991001001999999001021MA1999999100761MD1999999+0001REMSYN076AAXX  20214 61630 42960 10000 10269 20085 30076 40096 80002 333 58000 81073;
0159616300999992000012109004+15650-013250FM-12+0017GOSM V0209999C000010690019N0100001N1+01991+00821101161ADDGA1061+069009019GF106991001001999999001021MA1999999100961MD1999999-0011REMSYN076AAXX  21094 61630 42960 60000 10199 20082 30096 40116 80002 333 59001 86073;
0195616300999992000012112004+15650-013250FM-12+0017GOSM V0209999C000010690019N0100001N1+03051+00761101251ADDAA199000091GA1061+069009019GF106991001001999999001021MA1999999101061MD1999999+0041REMSYN082AAXX  21124 61630 32960 60000 10305 20076 30106 40125 80002 333 0//00 58004 86073;EQDQ01  00002PRCP99
0159616300999992000012115004+15650-013250FM-12+0017GOSM V0209999C000012200019N0100001N1+03561+00951100971ADDGA1041+069009019GF104991001001999999001021MA1999999100781MD1999999+0101REMSYN076AAXX  21154 61630 42960 40000 10356 20095 30078 40097 80002 333 58010 84073;
0208616300999992000012118004+15650-013250FM-12+0017GOSM V0209999C000012200019N0100001N1+03561+01061100901ADDAA199000091GA1041+069009019GF104991001001999999001021KA1120M+03681MA1999999100711MD1999999+0051REMSYN082AAXX  21184 61630 32960 40000 10356 20106 30071 40090 80002 333 10368 58005 84073;EQDQ01  00002PRCP99
0147616300999992000012209004+15650-013250FM-12+0017GOSM V0209999C000012200019N0100001N1+01921+00701101371ADDGA1001+999999999GF100991001001999999001001MA1999999101171MD1999999+0211REMSYN064AAXX  22094 61630 42960 00000 10192 20070 30117 40137 333 58021;
0211616300999992000012212004+15650-013250FM-12+0017GOSM V0209999C000012200019N0100001N1+03022+00711101321ADDAA199000091GA1041+069009019GF104991001001999999001021MA1999999101131MD1999999+0071REMSYN082AAXX  22124 61630 32960 40000 10302 20071 30113 40132 80002 333 0//00 58007 84073;EQDQ01+003023ATOT  Q02  00002PRCP99
0159616300999992000012215004+15650-013250FM-12+0017GOSM V0209999C000012200019N0120001N1+03651+00821101041ADDGA1021+069009019GF102991001001999999001021MA1999999100851MD1999999+0071REMSYN076AAXX  22154 61630 42962 20000 10365 20082 30085 40104 80002 333 58007 82073;
0159616300999992000012221004+15650-013250FM-12+0017GOSM V0209999C000012200019N0100001N1+02731+00811101161ADDGA1031+069009019GF103991001001999999001021MA1999999100961MD1999999+0031REMSYN076AAXX  22214 61630 42960 30000 10273 20081 30096 40116 80002 333 58003 83073;
0189616300999992000012300004+15650-013250FM-12+0017GOSM V0209999C000012200019N0100001N1+02351+00591101191ADDAA199000091GA1021+039009079GF102991021001999999081001MA1999999101001MD1999999-0061REMSYN076AAXX  23004 61630 32960 20000 10235 20059 30100 40119 82080 333 59006 82363;EQDQ01  00002PRCP99
0159616300999992000012309004+15650-013250FM-12+0017GOSM V0209999C000010390019N0100001N1+01951+00851101211ADDGA1061+039009079GF106991061001999999071001MA1999999101011MD1999999-0161REMSYN076AAXX  23094 61630 42960 60000 10195 20085 30101 40121 86070 333 59016 86363;
0189616300999992000012312004+15650-013250FM-12+0017GOSM V0209999C000010690019N0120001N1+02901+00681101171ADDAA199000091GA1051+069009019GF105991001001999999001021MA1999999100981MD1999999-0151REMSYN076AAXX  23124 61630 32962 50000 10290 20068 30098 40117 80002 333 59015 85073;EQDQ01  00002PRCP99
0159616300999992000012315004+15650-013250FM-12+0017GOSM V0209999C000012200019N0120001N1+03501+00901100901ADDGA1011+069009019GF101991001001999999001021MA1999999100711MD1999999-0141REMSYN076AAXX  23154 61630 42962 10000 10350 20090 30071 40090 80002 333 59014 81073;
0177616300999992000012400004+15650-013250FM-12+0017GOSM V0209999C000012200019N0100001N1+02331+01101100991ADDAA199000091GA1001+999999999GF100991001001999999001001MA1999999100801MD1999999-0201REMSYN064AAXX  24004 61630 32960 00000 10233 20110 30080 40099 333 59020;EQDQ01  00002PRCP99
0159616300999992000012403004+15650-013250FM-12+0017GOSM V0209999C000012200019N0100001N1+02111+00701100821ADDGA1021+069009019GF102991001001999999001021MA1999999100631MD1999999-0311REMSYN076AAXX  24034 61630 43960 20000 10211 20070 30063 40082 80002 333 59031 82073;
0233616300999992000012406004+15650-013250FM-12+0017GOSM V0209999C000019999999N0100001N1+02001+00601100931ADDAA199000091GF107991071001999999031999IA2240+01509KA1120N+01901MA1999999100741MD1999999-0181OA150600461REMSYN100AAXX  24064 61630 32960 70000 10200 20060 30074 40093 8703/ 333 01500 20190 50742 55092 59018 87363;EQDQ01  00002PRCP99
0178616300999992000012409004+15650-013250FM-12+0017GOSM V0209999C000012200019N0100001N1+03031+00651101081ADDGA1041+039009079GF104991999001999999081001MA1999999100881MD1999999-0131REMSYN076AAXX  24094 61630 42960 40000 10303 20065 30088 40108 86080 333 59013 84363;EQDQ01+000062SCOTLC
0189616300999992000012412004+15650-013250FM-12+0017GOSM V0209999C000010390019N0100001N1+03181+00821101111ADDAA199000091GA1051+039009079GF105991051001999999031001MA1999999100921MD1999999-0061REMSYN076AAXX  24124 61630 32960 50000 10318 20082 30092 40111 85030 333 59006 85363;EQDQ01  00002PRCP99
0159616300999992000012415004+15650-013250FM-12+0017GOSM V0209999C000012200019N0100001N1+03681+00881100861ADDGA1041+039009079GF104991041001999999081001MA1999999100671MD1999999-0041REMSYN076AAXX  24154 61630 42960 40000 10368 20088 30067 40086 84080 333 59004 84363;
0208616300999992000012418004+15650-013250FM-12+0017GOSM V0209999C000010390019N0100001N1+03621+01111100821ADDAA199000091GA1051+039009079GF105991051001999999081001KA1120M+03751MA1999999100631MD1999999+0011REMSYN082AAXX  24184 61630 32960 50000 10362 20111 30063 40082 85080 333 10375 58001 85363;EQDQ01  00002PRCP99
0159616300999992000012509004+15650-013250FM-12+0017GOSM V0209999C000010390019N0100001N1+02281+00541101271ADDGA1061+039009079GF106991061001999999081001MA1999999101081MD1999999+0201REMSYN076AAXX  25094 61630 42960 60000 10228 20054 30108 40127 86080 333 58020 86363;
0189616300999992000012512004+15650-013250FM-12+0017GOSM V0209999C000010390019N0100001N1+02841+00681101321ADDAA199000091GA1061+039009079GF106991061001999999081001MA1999999101131MD1999999+0211REMSYN076AAXX  25124 61630 32960 60000 10284 20068 30113 40132 86080 333 58021 86363;EQDQ01  00002PRCP99
0165616300999992000012515004+15650-013250FM-12+0017GOSM V0209999C000012200019N0120001N1+03621+01091100911ADDGA1011+039009039GF104991011001999999031021MA1999999100721MD1999999+0051REMSYN082AAXX  25154 61630 42962 40000 10362 20109 30072 40091 81032 333 58005 81363 83073;
0208616300999992000012518004+15650-013250FM-12+0017GOSM V0209999C000012200019N0120001N1+03441+00871100851ADDAA199000091GA1031+039009079GF103991031001999999081001KA1120M+03761MA1999999100661MD1999999+0031REMSYN082AAXX  25184 61630 32962 30000 10344 20087 30066 40085 83080 333 10376 58003 83363;EQDQ01  00002PRCP99
0159616300999992000012521004+15650-013250FM-12+0017GOSM V0209999C000012200019N0100001N1+02761+00831101071ADDGA1021+069009019GF102991001001999999001021MA1999999100881MD1999999+0021REMSYN076AAXX  25214 61630 42960 20000 10276 20083 30088 40107 80002 333 58002 82073;
0223616300999992000012606004+15650-013250FM-12+0017GOSM V0209999C000012200019N0100001N1+02021+00531101071ADDAA199000091GA1001+999999999GF100991001001999999001001IA2240+01809KA1120N+01941MA1999999100881OA150600411REMSYN088AAXX  26064 61630 32960 00000 10202 20053 30088 40107 333 01800 20194 50782 55086 59004;EQDQ01  00002PRCP99
0159616300999992000012609004+15650-013250FM-12+0017GOSM V0209999C000012200019N0100001N1+02081+00641101261ADDGA1031+069009019GF103991001001999999001021MA1999999101061MD1999999-0021REMSYN076AAXX  26094 61630 42960 30000 10208 20064 30106 40126 80002 333 59002 83073;
0189616300999992000012612004+15650-013250FM-12+0017GOSM V0209999C000010690019N0120001N1+03141+00841101281ADDAA199000091GA1061+069009019GF106991001001999999001021MA1999999101091MD1999999-0041REMSYN076AAXX  26124 61630 32962 60000 10314 20084 30109 40128 80002 333 59004 86073;EQDQ01  00002PRCP99
0166616300999992000012613004+15650-013250FM-12+0017GOSM V0209999C000019999999N0100001N1+03401+01071100911ADDAA199000091GF108991999999999999999999KA1120M+03731MA1999999100721REMSYN070AAXX  26134 61630 32960 80000 10340 20107 30072 40091 333 10373 5800/;EQDQ01  00002PRCP99
0159616300999992000012615004+15650-013250FM-12+0017GOSM V0209999C000010690019N0100001N1+03701+01101100971ADDGA1071+069009019GF107991001001999999001021MA1999999100781MD1999999+0011REMSYN076AAXX  26154 61630 42960 70000 10370 20110 30078 40097 80002 333 58001 87073;
0208616300999992000012618004+15650-013250FM-12+0017GOSM V0209999C000010690019N0100001N1+03401+01071100911ADDAA199000091GA1081+069009019GF108991001001999999001021KA1120M+03731MA1999999100721MD1999999+0061REMSYN082AAXX  26184 61630 32960 80000 10340 20107 30072 40091 80002 333 10373 58006 88073;EQDQ01  00002PRCP99
0159616300999992000012621004+15650-013250FM-12+0017GOSM V0209999C000010690019N0100001N1+02721+01011101071ADDGA1061+069009019GF106991001001999999001021MA1999999100881MD1999999+0001REMSYN076AAXX  26214 61630 42960 60000 10272 20101 30088 40107 80002 333 58000 86073;
0177616300999992000012700004+15650-013250FM-12+0017GOSM V0200401N004112200019N0100001N1+02681+01291101241ADDAA199000091GA1001+999999999GF100991001001999999001001MA1999999101051MD1999999+0041REMSYN064AAXX  27004 61630 32960 00408 10268 20129 30105 40124 333 58004;EQDQ01  00002PRCP99
0187616300999992000012709004+15650-013250FM-12+0017GOSM V0201201N004110390019N0040001N1+02591+01241101381ADDAY121031AY221031GA1071+039009079GF107991071001999999081999MA1999999101191MD1999999+0131MW1061REMSYN082AAXX  27094 61630 41940 71208 10259 20124 30119 40138 70622 8708/ 333 58013 87363;
0217616300999992000012712004+15650-013250FM-12+0017GOSM V0201201N006210390019N0020001N1+03011+00951101281ADDAA199000091AY121061AY221061GA1061+039009079GF106991061001999999081001MA1999999101091MD1999999+0001MW1071REMSYN082AAXX  27124 61630 31920 61212 10301 20095 30109 40128 70722 86080 333 58000 86363;EQDQ01  00002PRCP99
0171616300999992000012715004+15650-013250FM-12+0017GOSM V0201401N003110390019N0030001N1+03361+01331100991ADDGA1061+039009079GF106991061001999999081001MA1999999100801MD1999999+0021MW1061REMSYN082AAXX  27154 61630 41930 61406 10336 20133 30080 40099 706// 86080 333 58002 86363;
0220616300999992000012718004+15650-013250FM-12+0017GOSM V0201401N003110390019N0030001N1+03281+01351100951ADDAA199000091GA1061+039009079GF106991061001999999081001KA1120M+03401MA1999999100761MD1999999+0041MW1061REMSYN088AAXX  27184 61630 31930 61406 10328 20135 30076 40095 706// 86080 333 10340 58004 86363;EQDQ01  00002PRCP99
0175616300999992000012809004+15650-013250FM-12+0017GOSM V0201401N005112200019N0020001N1+02701+01041101311ADDAY101031AY201031GA1001+999999999GF100991001001999999001001MA1999999101121MD1999999-0071MW1071REMSYN070AAXX  28094 61630 41920 01410 10270 20104 30112 40131 70700 333 59007;
0211616300999992000012812004+15650-013250FM-12+0017GOSM V0200801N004112200019N0008001N1+03001+01431101331ADDAA199000091AY101061AY201061GA1001+999999999GF100991001001999999001001MA1999999101141MD1999999+0051MW1071REMSYN076AAXX  28124 61630 31908 00808 10300 20143 30114 40133 70700 333 0//00 58005;EQDQ01  00002PRCP99
0167616300999992000012815004+15650-013250FM-12+0017GOSM V0201001N004112200019N0010001N1+03401+01531100971ADDAY121031GA1001+999999999GF100991001001999999001001MA1999999100781MD1999999-0021MW1071REMSYN070AAXX  28154 61630 41910 01008 10340 20153 30078 40097 7072/ 333 59002;
0216616300999992000012818004+15650-013250FM-12+0017GOSM V0201001N001012200019N0012001N1+03351+01451100961ADDAA199000091AY141061GA1001+999999999GF100991001001999999001001KA1120M+03461MA1999999100771MD1999999+0021MW1061REMSYN076AAXX  28184 61630 31912 01002 10335 20145 30077 40096 7064/ 333 10346 58002;EQDQ01  00002PRCP99
0175616300999992000012909004+15650-013250FM-12+0017GOSM V0200401N001012200019N0004001N1+02601+01181101321ADDAY141031AY201031GA1001+999999999GF100991001001999999001001MA1999999101131MD1999999+0011MW1061REMSYN070AAXX  29094 61630 41904 00402 10260 20118 30113 40132 70640 333 58001;
0171616300999992000012915004+15650-013250FM-12+0017GOSM V0201201N002110690019N0015001N1+03681+01461100851ADDGA1071+069009019GF107991001001999999001021MA1999999100661MD1999999-0121MW1061REMSYN082AAXX  29154 61630 41915 71204 10368 20146 30066 40085 706// 80002 333 59012 87073;
0171616300999992000012921004+15650-013250FM-12+0017GOSM V0209999C000012200019N0045001N1+02981+01381101131ADDGA1031+069009019GF103991001001999999001021MA1999999100941MD1999999-0061MW1061REMSYN082AAXX  29214 61630 41945 30000 10298 20138 30094 40113 706// 80002 333 59006 83073;
0177616300999992000013000004+15650-013250FM-12+0017GOSM V0200801N001012200019N0080001N1+02831+01191101231ADDAA199000091GA1001+999999999GF100991001001999999001001MA1999999101041MD1999999-0081REMSYN064AAXX  30004 61630 32958 00802 10283 20119 30104 40123 333 59008;EQDQ01  00002PRCP99
0147616300999992000013003004+15650-013250FM-12+0017GOSM V0200801N002112200019N0080001N1+02781+01231101151ADDGA1001+999999999GF100991001001999999001001MA1999999100961MD1999999-0021REMSYN064AAXX  30034 61630 42958 00804 10278 20123 30096 40115 333 59002;
0159616300999992000013009004+15650-013250FM-12+0017GOSM V0209999C000010690019N0080001N1+02591+01141101381ADDGA1071+069009019GF107991001001999999001021MA1999999101191MD1999999+0061REMSYN076AAXX  30094 61630 42958 70000 10259 20114 30119 40138 80002 333 58006 87073;
0189616300999992000013012004+15650-013250FM-12+0017GOSM V0201401N002110690019N0060001N1+03411+01271101381ADDAA199000091GA1071+069009019GF107991001001999999001021MA1999999101191MD1999999+0071REMSYN076AAXX  30124 61630 32956 71404 10341 20127 30119 40138 80002 333 58007 87073;EQDQ01  00002PRCP99
0159616300999992000013015004+15650-013250FM-12+0017GOSM V0201401N004110690019N0080001N1+03701+01401101161ADDGA1061+069009019GF106991001001999999001021MA1999999100971MD1999999+0311REMSYN076AAXX  30154 61630 42958 61408 10370 20140 30097 40116 80002 333 58031 86073;
0208616300999992000013018004+15650-013250FM-12+0017GOSM V0209999C000010690019N0080001N1+03601+01381101141ADDAA199000091GA1061+069009019GF106991001001999999001021KA1120M+03751MA1999999100951MD1999999+0321REMSYN082AAXX  30184 61630 32958 60000 10360 20138 30095 40114 80002 333 10375 58032 86073;EQDQ01  00002PRCP99
0159616300999992000013109004+15650-013250FM-12+0017GOSM V0201401N002110690019N0080001N1+02621+01211101611ADDGA1051+069009019GF105991001001999999001021MA1999999101421MD1999999+0231REMSYN076AAXX  31094 61630 42958 51404 10262 20121 30142 40161 80002 333 58023 85073;
0189616300999992000013112004+15650-013250FM-12+0017GOSM V0201401N005110690019N0080001N1+03221+01261101711ADDAA199000091GA1051+069009019GF105991001001999999001021MA1999999101521MD1999999+0331REMSYN076AAXX  31124 61630 32958 51410 10322 20126 30152 40171 80002 333 58033 85073;EQDQ01  00002PRCP99
0159616300999992000013115004+15650-013250FM-12+0017GOSM V0201001N003110690019N0060001N1+03341+01321101371ADDGA1061+069009019GF106991001001999999001021MA1999999101181MD1999999+0211REMSYN076AAXX  31154 61630 42956 61006 10334 20132 30118 40137 80002 333 58021 86073;
0208616300999992000013118004+15650-013250FM-12+0017GOSM V0201001N002110690019N0060001N1+03221+01281101371ADDAA199000091GA1071+069009019GF107991001001999999001021KA1120M+03461MA1999999101181MD1999999+0231REMSYN082AAXX  31184 61630 32956 71004 10322 20128 30118 40137 80002 333 10346 58023 87073;EQDQ01  00002PRCP99
0178616300999992000013121004+15650-013250FM-12+0017GOSM V0200601N004110690019N0060001N1+02851+00871102562ADDGA1051+069009019GF105991001001999999001021MA1999999101371MD1999999+0191REMSYN076AAXX  31214 61630 42956 50608 10285 20087 30137 40256 80002 333 58019 85073;EQDQ01+102563APOSLP
0147616300999992000020109004+15650-013250FM-12+0017GOSM V0201001N001012200019N0080001N1+02111+00691101651ADDGA1001+999999999GF100991001001999999001001MA1999999101461MD1999999+0041REMSYN064AAXX  01094 61630 42958 01002 10211 20069 30146 40165 333 58004;
0183616300999992000020112004+15650-013250FM-12+0017GOSM V0201001N004112200019N0060001N1+02961+00941101651ADDAA199000091GA1001+999999999GF100991001001999999001001MA1999999101461MD1999999-0061REMSYN070AAXX  01124 61630 32956 01008 10296 20094 30146 40165 333 0//00 59006;EQDQ01  00002PRCP99
0147616300999992000020115004+15650-013250FM-12+0017GOSM V0201201N004112200019N0070001N1+03301+01021101291ADDGA1001+999999999GF100991001001999999001001MA1999999101101MD1999999-0081REMSYN064AAXX  01154 61630 42957 01208 10330 20102 30110 40129 333 59008;
0196616300999992000020118004+15650-013250FM-12+0017GOSM V0201201N003112200019N0060001N1+03211+01061101291ADDAA199000091GA1001+999999999GF100991001001999999001001KA1120M+03331MA1999999101101MD1999999-0081REMSYN070AAXX  01184 61630 32956 01206 10321 20106 30110 40129 333 10333 59008;EQDQ01  00002PRCP99
0147616300999992000020121004+15650-013250FM-12+0017GOSM V0201001N001012200019N0080001N1+02781+01021101471ADDGA1001+999999999GF100991001001999999001001MA1999999101281MD1999999-0081REMSYN064AAXX  01214 61630 42958 01002 10278 20102 30128 40147 333 59008;
0223616300999992000020206004+15650-013250FM-12+0017GOSM V0201201N002112200019N0080001N1+02281+00481101531ADDAA199000091GA1001+999999999GF100991001001999999001001IA2240+01609KA1120N+02181MA1999999101341OA150600461REMSYN088AAXX  02064 61630 32958 01204 10228 20048 30134 40153 333 01600 20218 50922 55096 58001;EQDQ01  00002PRCP99
0147616300999992000020209004+15650-013250FM-12+0017GOSM V0201001N004112200019N0070001N1+02271+00591101731ADDGA1001+999999999GF100991001001999999001001MA1999999101541MD1999999+0081REMSYN064AAXX  02094 61630 42957 01008 10227 20059 30154 40173 333 58008;
0205616300999992000020212004+15650-013250FM-12+0017GOSM V0201201N005112200019N0008001N1+02781+00751101711ADDAA199000091AY141061AY201061GA1001+999999999GF100991001001999999001001MA1999999101521MD1999999+0061MW1071REMSYN070AAXX  02124 61630 31908 01210 10278 20075 30152 40171 70740 333 58006;EQDQ01  00002PRCP99
0171616300999992000020215004+15650-013250FM-12+0017GOSM V0201401N004110690019N0050001N1+03161+00901101331ADDGA1051+069009019GF105991001001999999001021MA1999999101141MD1999999+0041MW1061REMSYN082AAXX  02154 61630 41950 51408 10316 20090 30114 40133 706// 80002 333 58004 85073;
0208616300999992000020218004+15650-013250FM-12+0017GOSM V0200801N002112200019N0050001N1+03101+00961101271ADDAA199000091GA1001+999999999GF100991001001999999001001KA1120M+03201MA1999999101081MD1999999-0021MW1061REMSYN076AAXX  02184 61630 31950 00804 10310 20096 30108 40127 706// 333 10320 59002;EQDQ01  00002PRCP99
0159616300999992000020221004+15650-013250FM-12+0017GOSM V0200801N002112200019N0050001N1+02561+00721101461ADDGA1001+999999999GF100991001001999999001001MA1999999101271MD1999999-0011MW1061REMSYN070AAXX  02214 61630 41950 00804 10256 20072 30127 40146 706// 333 59001;
0189616300999992000020300004+15650-013250FM-12+0017GOSM V0209999C000012200019N0050001N1+02261+00681101631ADDAA199000091GA1001+999999999GF100991001001999999001001MA1999999101441MD1999999+0151MW1061REMSYN070AAXX  03004 61630 31950 00000 10226 20068 30144 40163 706// 333 58015;EQDQ01  00002PRCP99
0175616300999992000020309004+15650-013250FM-12+0017GOSM V0201001N001012200019N0050001N1+02001+00521101701ADDAY101031AY201031GA1001+999999999GF100991001001999999001001MA1999999101501MD1999999-0041MW1061REMSYN070AAXX  03094 61630 41950 01002 10200 20052 30150 40170 70600 333 59004;
0211616300999992000020312004+15650-013250FM-12+0017GOSM V0201401N004112200019N0050001N1+02781+00691101731ADDAA199000091AY101061AY201061GA1001+999999999GF100991001001999999001001MA1999999101541MD1999999+0021MW1061REMSYN076AAXX  03124 61630 31950 01408 10278 20069 30154 40173 70600 333 0//00 58002;EQDQ01  00002PRCP99
0147616300999992000020315004+15650-013250FM-12+0017GOSM V0201001N004112200019N0060001N1+03151+00941101381ADDGA1001+999999999GF100991001001999999001001MA1999999101131MD1999999+0051REMSYN064AAXX  03154 61630 42956 01008 10315 20094 30113 40138 333 58005;
0196616300999992000020318004+15650-013250FM-12+0017GOSM V0201401N002112200019N0070001N1+03091+00861101231ADDAA199000091GA1001+999999999GF100991001001999999001001KA1120M+03351MA1999999101041MD1999999-0041REMSYN070AAXX  03184 61630 32957 01404 10309 20086 30104 40123 333 10335 59004;EQDQ01  00002PRCP99
0147616300999992000020321004+15650-013250FM-12+0017GOSM V0209999C000012200019N0070001N1+02441+00691101481ADDGA1001+999999999GF100991001001999999001001MA1999999101291MD1999999+0021REMSYN064AAXX  03214 61630 42957 00000 10244 20069 30129 40148 333 58002;
0177616300999992000020400004+15650-013250FM-12+0017GOSM V0201001N001012200019N0070001N1+02141+00661101581ADDAA199000091GA1001+999999999GF100991001001999999001001MA1999999101391MD1999999-0051REMSYN064AAXX  04004 61630 32957 01002 10214 20066 30139 40158 333 59005;EQDQ01  00002PRCP99
0159616300999992000020409004+15650-013250FM-12+0017GOSM V0209999C000012200019N0080001N1+02041+00561101651ADDGA1021+069009019GF102991001001999999001021MA1999999101451MD1999999-0051REMSYN076AAXX  04094 61630 42958 20000 10204 20056 30145 40165 80002 333 59005 82073;
0177616300999992000020412004+15650-013250FM-12+0017GOSM V0201001N004112200019N0080001N1+02861+00871101651ADDAA199000091GA1001+999999999GF100991001001999999001001MA1999999101461MD1999999-0081REMSYN064AAXX  04124 61630 32958 01008 10286 20087 30146 40165 333 59008;EQDQ01  00002PRCP99
0159616300999992000020415004+15650-013250FM-12+0017GOSM V0201201N004112200019N0080001N1+03221+00921101311ADDGA1011+039009079GF101991011001999999031001MA1999999101121MD1999999-0071REMSYN076AAXX  04154 61630 42958 11208 10322 20092 30112 40131 81030 333 59007 81363;
0208616300999992000020418004+15650-013250FM-12+0017GOSM V0201201N002112200019N0080001N1+03201+00921101281ADDAA199000091GA1031+039009079GF103991031001999999081001KA1120M+03311MA1999999101091MD1999999+0051REMSYN082AAXX  04184 61630 32958 31204 10320 20092 30109 40128 83080 333 10331 58005 83363;EQDQ01  00002PRCP99
0177616300999992000020500004+15650-013250FM-12+0017GOSM V0200801N002112200019N0080001N1+02381+00591101601ADDAA199000091GA1001+999999999GF100991001001999999001001MA1999999101411MD1999999+0021REMSYN064AAXX  05004 61630 32958 00804 10238 20059 30141 40160 333 58002;EQDQ01  00002PRCP99
0159616300999992000020503004+15650-013250FM-12+0017GOSM V0201001N003112200019N0080001N1+02271+00771101431ADDGA1011+069009019GF101991001001999999001021MA1999999101241MD1999999-0111REMSYN076AAXX  05034 61630 42958 11006 10227 20077 30124 40143 80002 333 59011 81073;
0233616300999992000020506004+15650-013250FM-12+0017GOSM V0200801N002112200019N0080001N1+02101+00481101521ADDAA199000091GF101991001001999999001021IA2240+01509KA1120N+02011MA1999999101331MD1999999-0021OA150600461REMSYN100AAXX  05064 61630 32958 10804 10210 20048 30133 40152 80002 333 01500 20201 50872 55098 59002 81073;EQDQ01  00002PRCP99
0159616300999992000020509004+15650-013250FM-12+0017GOSM V0201001N002110690019N0080001N1+02291+00641101661ADDGA1061+069009019GF106991001001999999001021MA1999999101461MD1999999+0011REMSYN076AAXX  05094 61630 42958 61004 10229 20064 30146 40166 80002 333 58001 86073;
0189616300999992000020512004+15650-013250FM-12+0017GOSM V0201201N006210690019N0080001N1+03011+00811101661ADDAA199000091GA1051+069009019GF105991001001999999001021MA1999999101471MD1999999+0011REMSYN076AAXX  05124 61630 32958 51212 10301 20081 30147 40166 80002 333 58001 85073;EQDQ01  00002PRCP99
0159616300999992000020515004+15650-013250FM-12+0017GOSM V0200801N003112200019N0100001N1+03421+01081101321ADDGA1041+039009079GF104991041001999999081001MA1999999101131MD1999999+0011REMSYN076AAXX  05154 61630 42960 40806 10342 20108 30113 40132 84080 333 58001 84363;
0208616300999992000020518004+15650-013250FM-12+0017GOSM V0200801N002110390019N0100001N1+03261+00851101271ADDAA199000091GA1051+039009079GF105991051001999999081001KA1120M+03451MA1999999101081MD1999999-0011REMSYN082AAXX  05184 61630 32960 50804 10326 20085 30108 40127 85080 333 10345 59001 85363;EQDQ01  00002PRCP99
0159616300999992000020609004+15650-013250FM-12+0017GOSM V0201201N001010690019N0100001N1+02101+00701101661ADDGA1061+069009019GF106991001001999999001021MA1999999101461MD1999999+0001REMSYN076AAXX  06094 61630 42960 61202 10210 20070 30146 40166 80002 333 58000 86073;
0211616300999992000020612004+15650-013250FM-12+0017GOSM V0200801N003110390019N0100001N1+02861+00881101721ADDAA199000091GA1061+039009079GF106991999001999999001021MA1999999101531MD1999999+0061REMSYN082AAXX  06124 61630 32960 60806 10286 20088 30153 40172 80002 333 0//00 58006 86363;EQDQ01+000002SCOTLCQ02  00002PRCP99
0159616300999992000020615004+15650-013250FM-12+0017GOSM V0201001N004110690019N0100001N1+03161+00951101411ADDGA1061+069009019GF106991001001999999001021MA1999999101221MD1999999+0091REMSYN076AAXX  06154 61630 42960 61008 10316 20095 30122 40141 80002 333 58009 86073;
0208616300999992000020618004+15650-013250FM-12+0017GOSM V0201001N001010690019N0100001N1+03041+00921101291ADDAA199000091GA1071+069009019GF107991001001999999001021KA1120M+03191MA1999999101101MD1999999+0021REMSYN082AAXX  06184 61630 32960 71002 10304 20092 30110 40129 80002 333 10319 58002 87073;EQDQ01  00002PRCP99
0159616300999992000020621004+15650-013250FM-12+0017GOSM V0209999C000010690019N0100001N1+02581+00801101521ADDGA1051+069009019GF105991001001999999001021MA1999999101321MD1999999+0001REMSYN076AAXX  06214 61630 42960 50000 10258 20080 30132 40152 80002 333 58000 85073;
0189616300999992000020700004+15650-013250FM-12+0017GOSM V0209999C000012200019N0100001N1+02411+00741101601ADDAA199000091GA1041+069009019GF104991001001999999001021MA1999999101411MD1999999+0031REMSYN076AAXX  07004 61630 32960 40000 10241 20074 30141 40160 80002 333 58003 84073;EQDQ01  00002PRCP99
0159616300999992000020703004+15650-013250FM-12+0017GOSM V0201001N002110690019N0100001N1+02361+00721101441ADDGA1051+069009019GF105991001001999999001021MA1999999101251MD1999999-0141REMSYN076AAXX  07034 61630 42960 51004 10236 20072 30125 40144 80002 333 59014 85073;
0233616300999992000020706004+15650-013250FM-12+0017GOSM V0209999C000019999999N0100001N1+02101+00651101501ADDAA199000091GF105991001001999999001021IA2240+01309KA1120N+02041MA1999999101311MD1999999-0021OA150600461REMSYN100AAXX  07064 61630 32960 50000 10210 20065 30131 40150 80002 333 01300 20204 50832 55090 59002 85073;EQDQ01  00002PRCP99
0189616300999992000020712004+15650-013250FM-12+0017GOSM V0201401N005110690019N0060001N1+02801+00841101701ADDAA199000091GA1071+069009019GF107991001001999999001021MA1999999101511MD1999999-0021REMSYN076AAXX  07124 61630 32956 71410 10280 20084 30151 40170 80002 333 59002 87073;EQDQ01  00002PRCP99
0159616300999992000020715004+15650-013250FM-12+0017GOSM V0201201N004110690019N0060001N1+03011+01241101401ADDGA1071+069009019GF107991001001999999001021MA1999999101211MD1999999-0091REMSYN076AAXX  07154 61630 42956 71208 10301 20124 30121 40140 80002 333 59009 87073;
0208616300999992000020718004+15650-013250FM-12+0017GOSM V0201201N003110690019N0070001N1+03021+01041101341ADDAA199000091GA1081+069009019GF108991001001999999001021KA1120M+03201MA1999999101151MD1999999+0051REMSYN082AAXX  07184 61630 32957 81206 10302 20104 30115 40134 80002 333 10320 58005 88073;EQDQ01  00002PRCP99
0189616300999992000020800004+15650-013250FM-12+0017GOSM V0200801N002110690019N0080001N1+02481+00671101701ADDAA199000091GA1071+069009019GF107991001001999999001021MA1999999101511MD1999999+0101REMSYN076AAXX  08004 61630 32958 70804 10248 20067 30151 40170 80002 333 58010 87073;EQDQ01  00002PRCP99
0159616300999992000020803004+15650-013250FM-12+0017GOSM V0200801N002110690019N0080001N1+02441+00391101491ADDGA1071+069009019GF107991001001999999001021MA1999999101301MD1999999+0051REMSYN076AAXX  08034 61630 42958 70804 10244 20039 30130 40149 80002 333 58005 87073;
0233616300999992000020806004+15650-013250FM-12+0017GOSM V0209999C000012200019N0080001N1+02031+00601101641ADDAA199000091GF101991001001999999001021IA2240+01809KA1120N+01211MA1999999101451MD1999999+0141OA150600311REMSYN100AAXX  08064 61630 32958 10000 10203 20060 30145 40164 80002 333 01800 20121 50872 55065 58014 81073;EQDQ01  00002PRCP99
0194616300999992000020809004+15650-013250FM-12+0017GOSM V0209999C000010690019N0080001N1+02021+00941101781ADDGA1051+069009019GF105991001001999999001021MA1999999999999MD1999999+0061REMSYN076AAXX  08094 61630 42958 50000 10202 20094 30508 40178 80002 333 58006 85073;EQDQ01+095083APOSP Q02 095083APOSP 
0233616300999992000020812004+15650-013250FM-12+0017GOSM V0201201N005112200019N0008001N1+01921+00881101721ADDAA199000091AY141061AY201061GA1041+069009019GF104991001001999999001021MA1999999100532MD1999999+0021MW1071REMSYN082AAXX  08124 61630 31908 41210 10192 20088 30053 40172 70740 80002 333 58002 84073;EQDQ01+100533APOSP Q02  00002PRCP99
0205616300999992000020815004+15650-013250FM-12+0017GOSM V0201401N004112200019N0050001N1+03122+01051101521ADDAA199000091GA1001+999999999GF100991001001999999001001MA1999999101332MD1999999+0121MW1061REMSYN070AAXX  08154 61630 31950 01408 10312 20105 30133 40152 706// 333 58012;EQDQ01+101333APOSP Q02  00002PRCP99
0220616300999992000020818004+15650-013250FM-12+0017GOSM V0201401N004110690019N0050001N1+03041+00961101401ADDAA199000091GA1051+069009019GF105991001001999999001021KA1120M+03151MA1999999101211MD1999999+0061MW1061REMSYN088AAXX  08184 61630 31950 51408 10304 20096 30121 40140 706// 80002 333 10315 58006 85073;EQDQ01  00002PRCP99
0189616300999992000020900004+15650-013250FM-12+0017GOSM V0209999C000012200019N0050001N1+02521+00821101691ADDAA199000091GA1001+999999999GF100991001001999999001001MA1999999101501MD1999999-0011MW1061REMSYN070AAXX  09004 61630 31950 00000 10252 20082 30150 40169 706// 333 59001;EQDQ01  00002PRCP99
0223616300999992000020906004+15650-013250FM-12+0017GOSM V0200801N002112200019N0050001N1+02261+00731101611ADDAA199000091GA1001+999999999GF100991001001999999001001IA2240+01409KA1120N+02161MA1999999101421OA150600261REMSYN088AAXX  09064 61630 31950 00804 10226 20073 30142 40161 333 01400 20216 50892 55051 59003;EQDQ01  00002PRCP99
0159616300999992000020909004+15650-013250FM-12+0017GOSM V0201401N002112200019N0080001N1+02361+00781101751ADDGA1041+069009019GF104991001001999999001021MA1999999101561MD1999999-0021REMSYN076AAXX  09094 61630 42958 41404 10236 20078 30156 40175 80002 333 59002 84073;
0195616300999992000020912004+15650-013250FM-12+0017GOSM V0201401N004110690019N0060001N1+02821+00981101811ADDAA199000091GA1061+069009019GF106991001001999999001021MA1999999101621MD1999999+0091REMSYN082AAXX  09124 61630 32956 61408 10282 20098 30162 40181 80002 333 0//00 58009 86073;EQDQ01  00002PRCP99
0159616300999992000020915004+15650-013250FM-12+0017GOSM V0201001N004110690019N0080001N1+03051+01041101441ADDGA1061+069009019GF106991001001999999001021MA1999999101251MD1999999-0081REMSYN076AAXX  09154 61630 42958 61008 10305 20104 30125 40144 80002 333 59008 86073;
0208616300999992000020918004+15650-013250FM-12+0017GOSM V0201001N003110690019N0080001N1+03061+00951101351ADDAA199000091GA1061+069009019GF106991001001999999001021KA1120M+03191MA1999999101161MD1999999-0051REMSYN082AAXX  09184 61630 32958 61006 10306 20095 30116 40135 80002 333 10319 59005 86073;EQDQ01  00002PRCP99
0223616300999992000021006004+15650-013250FM-12+0017GOSM V0209999C000012200019N0060001N1+01911+00501101411ADDAA199000091GA1001+999999999GF100991001001999999001001IA2240+01709KA1120N+01791MA1999999101221OA150600461REMSYN088AAXX  10064 61630 32956 00000 10191 20050 30122 40141 333 01700 20179 50912 55099 59020;EQDQ01  00002PRCP99
0147616300999992000021009004+15650-013250FM-12+0017GOSM V0200801N001012200019N0080001N1+01921+00541101571ADDGA1001+999999999GF100991001001999999001001MA1999999101371MD1999999-0191REMSYN064AAXX  10094 61630 42958 00802 10192 20054 30137 40157 333 59019;
0189616300999992000021012004+15650-013250FM-12+0017GOSM V0201001N005719999999N0100001N1+02831+00861101641ADDAA199000091GA1021+069009019GF105991001001999999001021MA1999999101451MD1999999-0171REMSYN076AAXX  10124 61630 32960 51011 10283 20086 30145 40164 80002 333 59017 82073;EQDQ01  00002PRCP99
0159616300999992000021015004+15650-013250FM-12+0017GOSM V0201201N003112200019N0100001N1+03221+01101101201ADDGA1031+069009019GF103991001001999999001021MA1999999101011MD1999999-0241REMSYN076AAXX  10154 61630 42960 31206 10322 20110 30101 40120 80002 333 59024 83073;
0224616300999992000021018004+15650-013250FM-12+0017GOSM V0200601N002110390019N0100001N1+03181+01001101181ADDAA199000091GA1061+039009079GF199999051001999999071021KA1120M+03331MA1999999100991MD1999999-0171REMSYN082AAXX  10184 61630 32960 50604 10318 20100 30099 40118 85072 333 10333 59017 86363;EQDQ01+000052SCOTCVQ02  00002PRCP99
0177616300999992000021100004+15650-013250FM-12+0017GOSM V0200801N001012200019N0100001N1+02201+00661101391ADDAA199000091GA1001+999999999GF100991001001999999001001MA1999999101201MD1999999-0241REMSYN064AAXX  11004 61630 32960 00802 10220 20066 30120 40139 333 59024;EQDQ01  00002PRCP99
0159616300999992000021103004+15650-013250FM-12+0017GOSM V0200801N002112200019N0100001N1+02201+00481101221ADDGA1011+039009079GF101991011001999999031001MA1999999101031MD1999999-0261REMSYN076AAXX  11034 61630 42960 10804 10220 20048 30103 40122 81030 333 59026 81363;
0159616300999992000021109004+15650-013250FM-12+0017GOSM V0201201N002110390019N0100001N1+02281+00741101461ADDGA1051+039009079GF105991051001999999071001MA1999999101261MD1999999-0111REMSYN076AAXX  11094 61630 42960 51204 10228 20074 30126 40146 85070 333 59011 85363;
0195616300999992000021112004+15650-013250FM-12+0017GOSM V0201201N007210390019N0100001N1+02901+00951101381ADDAA199000091GA1071+039009079GF107991071001999999071001MA1999999101191MD1999999-0261REMSYN082AAXX  11124 61630 32960 71214 10290 20095 30119 40138 87070 333 0//00 59026 87363;EQDQ01  00002PRCP99
0159616300999992000021115004+15650-013250FM-12+0017GOSM V0209999C000010390019N0100001N1+03121+01151101131ADDGA1051+039009079GF105991051001999999081001MA1999999100941MD1999999-0071REMSYN076AAXX  11154 61630 42960 50000 10312 20115 30094 40113 85080 333 59007 85363;
0208616300999992000021118004+15650-013250FM-12+0017GOSM V0209999C000010690019N0100001N1+03261+01131101031ADDAA199000091GA1061+069009019GF106991001001999999001021KA1120M+03351MA1999999100841MD1999999-0151REMSYN082AAXX  11184 61630 32960 60000 10326 20113 30084 40103 80002 333 10335 59015 86073;EQDQ01  00002PRCP99
0137616300999992000021121004+15650-013250FM-12+0017GOSM V0209999C000012200019N0100001N1+02581+00861101081ADDGF102991001001999999001021MA1999999101081MD1999999-0021REMSYN070AAXX  11214 61630 42960 20000 10258 20086 30108 40108 80002 333 59002;
0177616300999992000021200004+15650-013250FM-12+0017GOSM V0209999C000012200019N0100001N1+02301+00791101311ADDAA199000091GA1001+999999999GF100991001001999999001001MA1999999101121MD1999999-0081REMSYN064AAXX  12004 61630 32960 00000 10230 20079 30112 40131 333 59008;EQDQ01  00002PRCP99
0147616300999992000021203004+15650-013250FM-12+0017GOSM V0209999C000012200019N0100001N1+02041+00671101271ADDGA1001+999999999GF100991001001999999001001MA1999999101081MD1999999+0051REMSYN064AAXX  12034 61630 42960 00000 10204 20067 30108 40127 333 58005;
0159616300999992000021209004+15650-013250FM-12+0017GOSM V0201001N001010390019N0100001N1+02141+00761101451ADDGA1051+039009079GF105991051001999999031001MA1999999101251MD1999999-0011REMSYN076AAXX  12094 61630 42960 51002 10214 20076 30125 40145 85030 333 59001 85363;
0195616300999992000021212004+15650-013250FM-12+0017GOSM V0201401N004110690019N0100001N1+02901+00901101361ADDAA199000091GA1061+069009019GF106991001001999999001021MA1999999101171MD1999999-0021REMSYN082AAXX  12124 61630 32960 61408 10290 20090 30117 40136 80002 333 0//00 59002 86073;EQDQ01  00002PRCP99
0159616300999992000021215004+15650-013250FM-12+0017GOSM V0201201N005110390019N0080001N1+03381+01201100981ADDGA1061+039009079GF106991041001999999031021MA1999999100791MD1999999-0151REMSYN076AAXX  12154 61630 42958 61210 10338 20120 30079 40098 84032 333 59015 86363;
0159616300999992000021221004+15650-013250FM-12+0017GOSM V0209999C000010690019N0100001N1+02701+00891101141ADDGA1051+069009019GF105991001001999999001021MA1999999100951MD1999999-0191REMSYN076AAXX  12214 61630 42960 50000 10270 20089 30095 40114 80002 333 59019 85073;
0189616300999992000021300004+15650-013250FM-12+0017GOSM V0209999C000012200019N0100001N1+02351+00541101201ADDAA199000091GA1031+069009019GF103991001001999999001021MA1999999101011MD1999999-0111REMSYN076AAXX  13004 61630 32960 30000 10235 20054 30101 40120 80002 333 59011 83073;EQDQ01  00002PRCP99
0233616300999992000021306004+15650-013250FM-12+0017GOSM V0209999C000019999999N0100001N1+02211+00711101241ADDAA199000091GF106991001001999999001021IA2240+01409KA1120N+02101MA1999999101051MD1999999+0021OA150600411REMSYN100AAXX  13064 61630 32960 60000 10221 20071 30105 40124 80002 333 01400 20210 50552 55085 58002 86073;EQDQ01  00002PRCP99
0159616300999992000021309004+15650-013250FM-12+0017GOSM V0209999C000010390019N0100001N1+02251+00711101351ADDGA1071+039009079GF107991071001999999071001MA1999999101161MD1999999-0091REMSYN076AAXX  13094 61630 42960 70000 10225 20071 30116 40135 87070 333 59009 87363;
0189616300999992000021312004+15650-013250FM-12+0017GOSM V0201401N004110690019N0100001N1+03061+01051101321ADDAA199000091GA1071+069009019GF107991001001999999001021MA1999999101131MD1999999-0041REMSYN076AAXX  13124 61630 32960 71408 10306 20105 30113 40132 80002 333 59004 87073;EQDQ01  00002PRCP99
0165616300999992000021315004+15650-013250FM-12+0017GOSM V0201001N003119999999N0100001N1+03341+01181101091ADDGA1021+039009039GF106991021001999999031021MA1999999100901MD1999999+0111REMSYN082AAXX  13154 61630 42960 61006 10334 20118 30090 40109 82032 333 58011 82363 85073;
0208616300999992000021318004+15650-013250FM-12+0017GOSM V0209999C000010390019N0100001N1+03421+01381100971ADDAA199000091GA1051+039009079GF105991051001999999081001KA1120M+03551MA1999999100781MD1999999+0011REMSYN082AAXX  13184 61630 32960 50000 10342 20138 30078 40097 85080 333 10355 58001 85363;EQDQ01  00002PRCP99
0189616300999992000021400004+15650-013250FM-12+0017GOSM V0209999C000010690019N0100001N1+02501+00841101281ADDAA199000091GA1071+069009019GF107991001001999999001021MA1999999101091MD1999999+0041REMSYN076AAXX  14004 61630 32960 70000 10250 20084 30109 40128 80002 333 58004 87073;EQDQ01  00002PRCP99
0147616300999992000021403004+15650-013250FM-12+0017GOSM V0201001N001012200019N0100001N1+02431+00701101181ADDGA1001+999999999GF100991001001999999001001MA1999999100991MD1999999-0031REMSYN064AAXX  14034 61630 42960 01002 10243 20070 30099 40118 333 59003;
0223616300999992000021406004+15650-013250FM-12+0017GOSM V0201001N002112200019N0100001N1+02261+00561101281ADDAA199000091GA1001+999999999GF100991001001999999001001IA2240+01509KA1120N+02141MA1999999101091OA150600361REMSYN088AAXX  14064 61630 32960 01004 10226 20056 30109 40128 333 01500 20214 50992 55074 58004;EQDQ01  00002PRCP99
0189616300999992000021412004+15650-013250FM-12+0017GOSM V0201201N006210390019N0080001N1+03001+00871101421ADDAA199000091GA1061+039009079GF106991061001999999031001MA1999999101231MD1999999+0101REMSYN076AAXX  14124 61630 32958 61212 10300 20087 30123 40142 86030 333 58010 86363;EQDQ01  00002PRCP99
0159616300999992000021415004+15650-013250FM-12+0017GOSM V0201401N003119999999N0100001N1+03421+01191101101ADDGA1031+039009079GF105991051001999999081001MA1999999100911MD1999999+0011REMSYN076AAXX  14154 61630 42960 51406 10342 20119 30091 40110 85080 333 58001 83363;
0208616300999992000021418004+15650-013250FM-12+0017GOSM V0200801N003110390019N0100001N1+03301+01091101061ADDAA199000091GA1061+039009079GF106991061001999999081001KA1120M+03431MA1999999100871MD1999999+0091REMSYN082AAXX  14184 61630 32960 60806 10330 20109 30087 40106 86080 333 10343 58009 86363;EQDQ01  00002PRCP99
0159616300999992000021421004+15650-013250FM-12+0017GOSM V0209999C000010390019N0100001N1+02761+00931101281ADDGA1061+039009079GF106991061001999999081001MA1999999101091MD1999999+0111REMSYN076AAXX  14214 61630 42960 60000 10276 20093 30109 40128 86080 333 58011 86363;
0195616300999992000021500004+15650-013250FM-12+0017GOSM V0209999C000010390019N0100001N1+02641+00741101371ADDAA199000091GA1051+039009079GF105991051001999999081001MA1999999101181MD1999999+0091REMSYN082AAXX  15004 61630 32960 50000 10264 20074 30118 40137 85080 333 0//00 58009 85363;EQDQ01  00002PRCP99
0159616300999992000021503004+15650-013250FM-12+0017GOSM V0209999C000010390019N0100001N1+02501+00621101291ADDGA1051+039009079GF105991051001999999081001MA1999999101101MD1999999+0111REMSYN076AAXX  15034 61630 42960 50000 10250 20062 30110 40129 85080 333 58011 85363;
0159616300999992000021509004+15650-013250FM-12+0017GOSM V0209999C000010390019N0100001N1+02301+00941101501ADDGA1071+039009079GF107991071001999999071001MA1999999101311MD1999999+0051REMSYN076AAXX  15094 61630 42960 70000 10230 20094 30131 40150 87070 333 58005 87363;
0195616300999992000021512004+15650-013250FM-12+0017GOSM V0200801N004110390019N0100001N1+02821+01011101521ADDAA199000091GA1071+039009079GF107991071001999999071001MA1999999101331MD1999999+0101REMSYN082AAXX  15124 61630 32960 70808 10282 20101 30133 40152 87070 333 0//00 58010 87363;EQDQ01  00002PRCP99
0208616300999992000021518004+15650-013250FM-12+0017GOSM V0201401N001010390019N0100001N1+03061+01021101121ADDAA199000091GA1061+039009079GF106991061001999999071001KA1120M+03291MA1999999100931MD1999999+0061REMSYN082AAXX  15184 61630 32960 61402 10306 20102 30093 40112 86070 333 10329 58006 86363;EQDQ01  00002PRCP99
0137616300999992000021521004+15650-013250FM-12+0017GOSM V0209999C000019999999N0100001N1+02491+00771101271ADDGF105991051001999999071001MA1999999101081MD1999999-0011REMSYN070AAXX  15214 61630 42960 50000 10249 20077 30108 40127 85070 333 59001;
0189616300999992000021600004+15650-013250FM-12+0017GOSM V0209999C000010390019N0100001N1+02321+00721101381ADDAA199000091GA1051+039009079GF105991051001999999071001MA1999999101191MD1999999+0011REMSYN076AAXX  16004 61630 32960 50000 10232 20072 30119 40138 85070 333 58001 85363;EQDQ01  00002PRCP99
0223616300999992000021606004+15650-013250FM-12+0017GOSM V0209999C000012200019N0100001N1+01971+00541101231ADDAA199000091GA1001+999999999GF100991001001999999001001IA2240+01909KA1120N+01861MA1999999101041OA150600101REMSYN088AAXX  16064 61630 32960 00000 10197 20054 30104 40123 333 01900 20186 50592 55025 59005;EQDQ01  00002PRCP99
0159616300999992000021609004+15650-013250FM-12+0017GOSM V0209999C000010390019N0100001N1+02211+00761101561ADDGA1051+039009079GF105991051001999999031001MA1999999101361MD1999999+0051REMSYN076AAXX  16094 61630 42960 50000 10221 20076 30136 40156 85030 333 58005 85363;
0159616300999992000021615004+15650-013250FM-12+0017GOSM V0201401N003112200019N0100001N1+03421+01241101221ADDGA1021+039009079GF102991021001999999031001MA1999999101031MD1999999+0031REMSYN076AAXX  16154 61630 42960 21406 10342 20124 30103 40122 82030 333 58003 82363;
0208616300999992000021618004+15650-013250FM-12+0017GOSM V0200801N003112200019N0100001N1+03421+01261101091ADDAA199000091GA1031+039009079GF103991031001999999031021KA1120M+03551MA1999999100901MD1999999-0031REMSYN082AAXX  16184 61630 32960 30806 10342 20126 30090 40109 83032 333 10355 59003 83363;EQDQ01  00002PRCP99
0159616300999992000021621004+15650-013250FM-12+0017GOSM V0200601N001010390019N0100001N1+02801+00971101271ADDGA1061+039009079GF106991061001999999031001MA1999999101081MD1999999+0001REMSYN076AAXX  16214 61630 42960 60602 10280 20097 30108 40127 86030 333 58000 86363;
0189616300999992000021700004+15650-013250FM-12+0017GOSM V0201001N002110390019N0100001N1+02571+00731101381ADDAA199000091GA1051+039009079GF105991051001999999031001MA1999999101191MD1999999+0001REMSYN076AAXX  17004 61630 32960 51004 10257 20073 30119 40138 85030 333 58000 85363;EQDQ01  00002PRCP99
0159616300999992000021703004+15650-013250FM-12+0017GOSM V0200801N003110390019N0100001N1+02501+00641101281ADDGA1071+039009079GF107991071001999999071999MA1999999101091MD1999999-0021REMSYN076AAXX  17034 61630 42960 70806 10250 20064 30109 40128 8707/ 333 59002 87363;
0159616300999992000021709004+15650-013250FM-12+0017GOSM V0201201N003112200019N0100001N1+02401+00731101431ADDGA1021+039009079GF102991021001999999031001MA1999999101241MD1999999-0121REMSYN076AAXX  17094 61630 42960 21206 10240 20073 30124 40143 82030 333 59012 82363;
0189616300999992000021712004+15650-013250FM-12+0017GOSM V0201201N005112200019N0060001N1+03181+01151101401ADDAA199000091GA1011+039009079GF102991011001999999031021MA1999999101211MD1999999-0161REMSYN076AAXX  17124 61630 32956 21210 10318 20115 30121 40140 81032 333 59016 81363;EQDQ01  00002PRCP99
0147616300999992000021715004+15650-013250FM-12+0017GOSM V0201401N003112200019N0100001N1+03461+01351101121ADDGA1001+999999999GF100991001001999999001001MA1999999100931MD1999999-0101REMSYN064AAXX  17154 61630 42960 01406 10346 20135 30093 40112 333 59010;
0208616300999992000021718004+15650-013250FM-12+0017GOSM V0201401N002110690019N0100001N1+03401+01251101031ADDAA199000091GA1061+069009019GF106991001001999999001021KA1120M+03541MA1999999100841MD1999999-0061REMSYN082AAXX  17184 61630 32960 61404 10340 20125 30084 40103 80002 333 10354 59006 86073;EQDQ01  00002PRCP99
0147616300999992000021809004+15650-013250FM-12+0017GOSM V0209999C000012200019N0100001N1+02041+00821101361ADDGA1001+999999999GF100991001001999999001001MA1999999101171MD1999999-0121REMSYN064AAXX  18094 61630 42960 00000 10204 20082 30117 40136 333 59012;
0195616300999992000021812004+15650-013250FM-12+0017GOSM V0201401N003112200019N0100001N1+03061+01001101421ADDAA199000091GA1001+999999999GF100991001001999999001001IA2240+00009MA1999999101231MD1999999+0021REMSYN070AAXX  18124 61630 32960 01406 10306 20100 30123 40142 333 00000 58002;EQDQ01  00002PRCP99
0159616300999992000021815004+15650-013250FM-12+0017GOSM V0201401N001012200019N0120001N1+03401+01371101081ADDGA1021+039009079GF102991021001001501031001MA1999999100891MD1999999-0041REMSYN076AAXX  18154 61630 4/262 21402 10340 20137 30089 40108 82030 333 59004 82363;
0208616300999992000021818004+15650-013250FM-12+0017GOSM V0209999C000012200019N0100001N1+03401+01351101031ADDAA199000091GA1021+069009019GF102991001001999999001021KA1120M+03521MA1999999100841MD1999999+0001REMSYN082AAXX  18184 61630 32960 20000 10340 20135 30084 40103 80002 333 10352 58000 82073;EQDQ01  00002PRCP99
0159616300999992000021821004+15650-013250FM-12+0017GOSM V0209999C000010390019N0100001N1+02551+01021101201ADDGA1051+039009079GF105991051001999999031001MA1999999101011MD1999999-0081REMSYN076AAXX  18214 61630 42960 50000 10255 20102 30101 40120 85030 333 59008 85363;
0189616300999992000021900004+15650-013250FM-12+0017GOSM V0209999C000010390019N0100001N1+02501+00971101271ADDAA199000091GA1061+039009079GF106991061001999999071001MA1999999101081MD1999999-0101REMSYN076AAXX  19004 61630 32960 60000 10250 20097 30108 40127 86070 333 59010 86363;EQDQ01  00002PRCP99
0159616300999992000021909004+15650-013250FM-12+0017GOSM V0209999C000010390019N0100001N1+02231+00921101311ADDGA1051+039009079GF105991051001999999031001MA1999999101111MD1999999-0061REMSYN076AAXX  19094 61630 42960 50000 10223 20092 30111 40131 85030 333 59006 85363;
0159616300999992000021915004+15650-013250FM-12+0017GOSM V0201201N001010390019N0120001N1+03621+01271100891ADDGA1051+039009079GF105991051001999999031001MA1999999100701MD1999999-0191REMSYN076AAXX  19154 61630 42962 51202 10362 20127 30070 40089 85030 333 59019 85363;
0208616300999992000021918004+15650-013250FM-12+0017GOSM V0209999C000010390019N0100001N1+03441+01391100851ADDAA199000091GA1071+039009079GF107991071001999999071001KA1120M+03701MA1999999100661MD1999999-0181REMSYN082AAXX  19184 61630 32960 70000 10344 20139 30066 40085 87070 333 10370 59018 87363;EQDQ01  00002PRCP99
0159616300999992000021921004+15650-013250FM-12+0017GOSM V0209999C000012200019N0100001N1+02661+00931100951ADDGA1021+039009079GF102991021001999999031001MA1999999100761MD1999999-0251REMSYN076AAXX  19214 61630 42960 20000 10266 20093 30076 40095 82030 333 59025 82363;
0177616300999992000022000004+15650-013250FM-12+0017GOSM V0209999C000012200019N0100001N1+02361+00751101081ADDAA199000091GA1001+999999999GF100991001001999999001001MA1999999100891MD1999999-0191REMSYN064AAXX  20004 61630 32960 00000 10236 20075 30089 40108 333 59019;EQDQ01  00002PRCP99
0233616300999992000022006004+15650-013250FM-12+0017GOSM V0209999C000012200019N0100001N1+01981+00631100931ADDAA199000091GF103991031001999999031001IA2240+01709KA1120N+01891MA1999999100741MD1999999-0261OA150600411REMSYN100AAXX  20064 61630 32960 30000 10198 20063 30074 40093 83030 333 01700 20189 50902 55087 59026 83363;EQDQ01  00002PRCP99
0159616300999992000022009004+15650-013250FM-12+0017GOSM V0209999C000012200019N0100001N1+01921+00831101161ADDGA1031+039009079GF103991031001999999071001MA1999999100961MD1999999-0151REMSYN076AAXX  20094 61630 42960 30000 10192 20083 30096 40116 83070 333 59015 83363;
0189616300999992000022012004+15650-013250FM-12+0017GOSM V0201201N002112200019N0100001N1+03221-00101101081ADDAA199000091GA1011+039009079GF101991011001999999031001MA1999999100891MD1999999-0241REMSYN076AAXX  20124 61630 32960 11204 10322 21010 30089 40108 81030 333 59024 81363;EQDQ01  00002PRCP99
0159616300999992000022015004+15650-013250FM-12+0017GOSM V0201401N002112200019N0100001N1+03681+00341100791ADDGA1021+069009019GF102991001001999999001021MA1999999100601MD1999999-0101REMSYN076AAXX  20154 61630 42960 21404 10368 20034 30060 40079 80002 333 59010 82073;
0196616300999992000022018004+15650-013250FM-12+0017GOSM V0209999C000012200019N0100001N1+03621+00421100691ADDAA199000091GA1001+999999999GF100991001001999999001001KA1120M+03721MA1999999100501MD1999999-0161REMSYN070AAXX  20184 61630 32960 00000 10362 20042 30050 40069 333 10372 59016;EQDQ01  00002PRCP99
0227616300999992000022100004+15650-013250FM-12+0017GOSM V0209999C000012200019N0100001N1+02521+00411100891ADDAA199000091GA1031+039009079GF199999999001999999001001MA1999999100701MD1999999-0191REMSYN082AAXX  21004 61630 32960 00000 10252 20041 30070 40089 83080 333 0//00 59019 83363;EQDQ01+000002SCOTCVQ02+000002SCOTLCQ03  00002PRCP99
0159616300999992000022109004+15650-013250FM-12+0017GOSM V0209999C000010390019N0100001N1+02201+00211100921ADDGA1051+039009079GF105991051001999999081001MA1999999100731MD1999999-0231REMSYN076AAXX  21094 61630 42960 50000 10220 20021 30073 40092 85080 333 59023 85363;
0195616300999992000022112004+15650-013250FM-12+0017GOSM V0201401N002112200019N0100001N1+03361+00341101011ADDAA199000091GA1021+039009079GF102991021001999999081001MA1999999100821MD1999999-0071REMSYN082AAXX  21124 61630 32960 21404 10336 20034 30082 40101 82080 333 0//00 59007 82363;EQDQ01  00002PRCP99
0214616300999992000022118004+15650-013250FM-12+0017GOSM V0209999C000012200019N0100001N1+03751+00841100621ADDAA199000091GA1011+039009039GF104991011001999999031021KA1120M+03981MA1999999100431MD1999999-0071REMSYN088AAXX  21184 61630 32960 40000 10375 20084 30043 40062 81032 333 10398 59007 81363 84073;EQDQ01  00002PRCP99
0223616300999992000022206004+15650-013250FM-12+0017GOSM V0209999C000012200019N0100001N1+02101+00421101031ADDAA199000091GA1001+999999999GF100991001001999999001001IA2240+01809KA1120N+02041MA1999999100841OA150600461REMSYN088AAXX  22064 61630 32960 00000 10210 20042 30084 40103 333 01800 20204 50692 55099 58024;EQDQ01  00002PRCP99
0194616300999992000022209004+15650-013250FM-12+0017GOSM V0209999C000012200019N0100001N1+02151+00771101091ADDGA1051+039009079GF199999999001999999001001MA1999999100901MD1999999+0171REMSYN076AAXX  22094 61630 42960 00000 10215 20077 30090 40109 85030 333 58017 85363;EQDQ01+000002SCOTCVQ02+000002SCOTLC
0189616300999992000022212004+15650-013250FM-12+0017GOSM V0209999C000010390019N0100001N1+03211+00371101021ADDAA199000091GA1071+039009079GF107991071001999999031001MA1999999100831MD1999999+0011REMSYN076AAXX  22124 61630 32960 70000 10321 20037 30083 40102 87030 333 58001 87363;EQDQ01  00002PRCP99
0159616300999992000022215004+15650-013250FM-12+0017GOSM V0202401N002110390019N0100001N1+03671+00641100851ADDGA1061+039009079GF106991061001999999031001MA1999999100661MD1999999+0121REMSYN076AAXX  22154 61630 42960 62404 10367 20064 30066 40085 86030 333 58012 86363;
0187616300999992000022221004+15650-013250FM-12+0017GOSM V0209999C000010390019N0100001N1+02901+01161101151ADDAY161031AY261031GA1081+039009079GF108991081001999999071999MA1999999100961MD1999999+0231MW1601REMSYN082AAXX  22214 61630 41960 80000 10290 20116 30096 40115 76066 8807/ 333 58023 88363;
0216616300999992000022300004+15650-013250FM-12+0017GOSM V0209999C000010390019N0100001N1+02701+01301101271ADDAA106000791AC11C9AY161061AY261061GA1081+039009079GF108991071001999999071999MA1999999101081MD1999999+0311MW1601REMSYN094AAXX  23004 61630 11960 80000 10270 20130 30108 40127 69901 76066 8707/ 333 0//11 58031 88363;
0246616300999992000022306004+15650-013250FM-12+0017GOSM V0209999C000019999999N0100001N1+02321+01601101151ADDAA124000791AC13I9AY161061GF108991081001999999071999IA2240+01709KA1120N+02231MA1999999100961MD1999999+0121MW1021OA150600261REMSYN112AAXX  23064 61630 11960 80000 10232 20160 30096 40115 69904 7026/ 8807/ 333 01707 20223 50832 55056 58012 88363;
0149616300999992000022309004+15650-013250FM-12+0017GOSM V0203601N001019999999N0100001N1+02191+01531101311ADDGF108991071011999999061021MA1999999101121MD1999999+0221REMSYN082AAXX  23094 61630 41960 83602 10219 20153 30112 40131 87162 8807/ 333 58022 88363;
0210616300999992000022312004+15650-013250FM-12+0017GOSM V0209999C000010390019N0100001N1+02421+99999101431ADDAA106000791AC11C9AY161061AY221061GA1081+039009079GF108991081001999999071999MA1999999101241MD1999999+0411MW1601REMSYN088AAXX  23124 61630 11960 80000 10242 30124 40143 69901 76062 8807/ 333 0//11 58041 88363;
0179616300999992000022315004+15650-013250FM-12+0017GOSM V0209999C000010390019N0100001N1+02721+01671101101ADDAY161031GA1061+039009079GF106991061001999999081001MA1999999100911MD1999999+0251MW1211REMSYN082AAXX  23154 61630 41960 60000 10272 20167 30091 40110 7216/ 86080 333 58025 86363;
0215616300999992000022318004+15650-013250FM-12+0017GOSM V0209999C000010390019N0100001N1+02741+01621101021ADDAA112000791AY161061GA1061+039009079GF106991061001999999071001KA1120M+02801MA1999999100831MD1999999+0081MW1021REMSYN094AAXX  23184 61630 11960 60000 10274 20162 30083 40102 69902 7026/ 86070 333 10280 58008 86363;
0159616300999992000022409004+15650-013250FM-12+0017GOSM V0200401N002110390019N0100001N1+02331+01191101221ADDGA1051+039009079GF105991051001999999081001MA1999999101031MD1999999-0091REMSYN076AAXX  24094 61630 42960 50404 10233 20119 30103 40122 85080 333 59009 85363;
0195616300999992000022412004+15650-013250FM-12+0017GOSM V0200401N002110390019N0100001N1+02721+01431101281ADDAA199000091GA1071+039009079GF107991071001999999071999MA1999999101091MD1999999-0151REMSYN082AAXX  24124 61630 32960 70404 10272 20143 30109 40128 8707/ 333 0//19 59015 87363;EQDQ01  00002PRCP99
0159616300999992000022415004+15650-013250FM-12+0017GOSM V0200401N002110390019N0100001N1+03141+01371100951ADDGA1061+039009079GF106991061001999999071001MA1999999100761MD1999999-0151REMSYN076AAXX  24154 61630 42960 60404 10314 20137 30076 40095 86070 333 59015 86363;
0208616300999992000022418004+15650-013250FM-12+0017GOSM V0209999C000010390019N0100001N1+03211+01261100871ADDAA199000091GA1061+039009079GF106991061001999999071001KA1120M+03391MA1999999100681MD1999999-0151REMSYN082AAXX  24184 61630 32960 60000 10321 20126 30068 40087 86070 333 10339 59015 86363;EQDQ01  00002PRCP99
0159616300999992000022509004+15650-013250FM-12+0017GOSM V0209999C000010390019N0100001N1+02341+00581101091ADDGA1061+039009079GF106991061001999999071001MA1999999100901MD1999999-0131REMSYN076AAXX  25094 61630 42960 60000 10234 20058 30090 40109 86070 333 59013 86363;
0195616300999992000022512004+15650-013250FM-12+0017GOSM V0200401N002112200019N0100001N1+03241+00701101101ADDAA199000091GA1021+069009019GF102991001001999999001021MA1999999100911MD1999999-0191REMSYN082AAXX  25124 61630 32960 20404 10324 20070 30091 40110 80002 333 0//00 59019 82073;EQDQ01  00002PRCP99
0159616300999992000022515004+15650-013250FM-12+0017GOSM V0209999C000012200019N0100001N1+03981+00621100771ADDGA1011+039009079GF101991011001999999031001MA1999999100581MD1999999-0181REMSYN076AAXX  25154 61630 42960 10000 10398 20062 30058 40077 81030 333 59018 81363;
0147616300999992000022521004+15650-013250FM-12+0017GOSM V0203201N002112200019N0100001N1+03091+00691100931ADDGA1001+999999999GF100991001001999999001001MA1999999100741MD1999999-0071REMSYN064AAXX  25214 61630 42960 03204 10309 20069 30074 40093 333 59007;
0223616300999992000022606004+15650-013250FM-12+0017GOSM V0209999C000012200019N0100001N1+02261+00541100981ADDAA199000091GA1001+999999999GF100991001001999999001001IA2240+02009KA1120N+02171MA1999999100791OA150600411REMSYN088AAXX  26064 61630 32960 00000 10226 20054 30079 40098 333 02000 20217 50952 55087 58001;EQDQ01  00002PRCP99
0147616300999992000022609004+15650-013250FM-12+0017GOSM V0209999C000012200019N0100001N1+02451+00761101201ADDGA1001+999999999GF100991001001999999001001MA1999999101011MD1999999+0111REMSYN064AAXX  26094 61630 42960 00000 10245 20076 30101 40120 333 58011;
0205616300999992000022612004+15650-013250FM-12+0017GOSM V0201201N006212200019N0040001N1+03401+00021101171ADDAA199000091AY101061AY201061GA1001+999999999GF100991001001999999001001MA1999999100981MD1999999-0071MW1061REMSYN070AAXX  26124 61630 31940 01212 10340 20002 30098 40117 70600 333 59007;EQDQ01  00002PRCP99
0159616300999992000022615004+15650-013250FM-12+0017GOSM V0201401N003112200019N0080001N1+03721+00511100861ADDGA1041+069009019GF104991001001999999001021MA1999999100671MD1999999+0091REMSYN076AAXX  26154 61630 42958 41406 10372 20051 30067 40086 80002 333 58009 84073;
0196616300999992000022618004+15650-013250FM-12+0017GOSM V0209999C000012200019N0080001N1+03661+00521100771ADDAA199000091GA1001+999999999GF100991001001999999001001KA1120M+03851MA1999999100581MD1999999-0041REMSYN070AAXX  26184 61630 32958 00000 10366 20052 30058 40077 333 10385 59004;EQDQ01  00002PRCP99
0175616300999992000022709004+15650-013250FM-12+0017GOSM V0209999C000012200019N0040001N1+02561+00771101021ADDAY101031AY201031GA1001+999999999GF100991001001999999001001MA1999999100831MD1999999-0181MW1061REMSYN070AAXX  27094 61630 41940 00000 10256 20077 30083 40102 70600 333 59018;
0211616300999992000022712004+15650-013250FM-12+0017GOSM V0201401N004112200019N0020001N1+03421+00741101041ADDAA199000091AY101061AY201061GA1001+999999999GF100991001001999999001001MA1999999100851MD1999999-0151MW1061REMSYN076AAXX  27124 61630 31920 01408 10342 20074 30085 40104 70600 333 0//00 59015;EQDQ01  00002PRCP99
0159616300999992000022715004+15650-013250FM-12+0017GOSM V0201601N002112200019N0020001N1+03881+00661100621ADDGA1001+999999999GF100991001001999999001001MA1999999100431MD1999999-0341MW1061REMSYN070AAXX  27154 61630 41920 01604 10388 20066 30043 40062 706// 333 59034;
0196616300999992000022718004+15650-013250FM-12+0017GOSM V0209999C000012200019N0020001N1+03811+00901100591ADDAA199000091GA1001+999999999GF100991001001999999001001KA1120M+03861MA1999999100421MD1999999-0181REMSYN070AAXX  27184 61630 31920 00000 10381 20090 30042 40059 333 10386 59018;EQDQ01  00002PRCP99
0159616300999992000022721004+15650-013250FM-12+0017GOSM V0209999C000012200019N0030001N1+03101+01021100691ADDGA1001+999999999GF100991001001999999001001MA1999999100501MD1999999-0231MW1061REMSYN070AAXX  27214 61630 41930 00000 10310 20102 30050 40069 706// 333 59023;
0189616300999992000022800004+15650-013250FM-12+0017GOSM V0209999C000012200019N0050001N1+02781+00821100731ADDAA199000091GA1001+999999999GF100991001001999999001001MA1999999100541MD1999999-0231MW1061REMSYN070AAXX  28004 61630 31950 00000 10278 20082 30054 40073 706// 333 59023;EQDQ01  00002PRCP99
0235616300999992000022806004+15650-013250FM-12+0017GOSM V0209999C000012200019N0050001N1+02421+00631100751ADDAA199000091GA1001+999999999GF100991001001999999001001IA2240+02109KA1120N+02331MA1999999100561MW1061OA150600411REMSYN094AAXX  28064 61630 31950 00000 10242 20063 30056 40075 706// 333 02100 20233 50942 55086 59020;EQDQ01  00002PRCP99
0175616300999992000022809004+15650-013250FM-12+0017GOSM V0209999C000012200019N0040001N1+02521+00761100871ADDAY101031AY201031GA1001+999999999GF100991001001999999001001MA1999999100681MD1999999-0151MW1061REMSYN070AAXX  28094 61630 41940 00000 10252 20076 30068 40087 70600 333 59015;
0205616300999992000022812004+15650-013250FM-12+0017GOSM V0209999C000012200019N0040001N1+03571+00701100941ADDAA199000091AY101061AY201061GA1001+999999999GF100991001001999999001001MA1999999100751MD1999999-0101MW1061REMSYN070AAXX  28124 61630 31940 00000 10357 20070 30075 40094 70600 333 59010;EQDQ01  00002PRCP99
0196616300999992000022818004+15650-013250FM-12+0017GOSM V0209999C000012200019N0060001N1+03901+01101100481ADDAA199000091GA1001+999999999GF100991001001999999001001KA1120M+04001MA1999999100291MD1999999-0111REMSYN070AAXX  28184 61630 32956 00000 10390 20110 30029 40048 333 10400 59011;EQDQ01  00002PRCP99
0177616300999992000022900004+15650-013250FM-12+0017GOSM V0209999C000012200019N0060001N1+02961+01741100911ADDAA199000091GA1001+999999999GF100991001001999999001001MA1999999100721MD1999999-0181REMSYN064AAXX  29004 61630 32956 00000 10296 20174 30072 40091 333 59018;EQDQ01  00002PRCP99
0147616300999992000022909004+15650-013250FM-12+0017GOSM V0209999C000012200019N0060001N1+02461+00491100981ADDGA1001+999999999GF100991001001999999001001MA1999999100771MD1999999+0011REMSYN064AAXX  29094 61630 42956 00000 10246 20049 30077 40098 333 58001;
0166616300999992000022918004+15650-013250FM-12+0017GOSM V0209999C000019999999N0040001N1+03901+01081100651ADDAA199000091KA1120M+04001MA1999999100471MD1999999+0171MW1061REMSYN076AAXX  29184 61630 31940 /0000 10390 20108 30047 40065 706// 333 10400 58017;EQDQ01  00002PRCP99
0147616300999992000030109004+15650-013250FM-12+0017GOSM V0209999C000012200019N0060001N1+02621+01211101181ADDGA1001+999999999GF100991001001999999001001MA1999999100991MD1999999+0201REMSYN064AAXX  01094 61630 42956 00000 10262 20121 30099 40118 333 58020;
0205616300999992000030111004+15650-013250FM-12+0017GOSM V0201401N003112200019N0040001N1+03261+01131101121ADDAA199000091AY101999AY201999GA1001+999999999GF100991001001999999001001MA1999999100931MD1999999+0131MW1061REMSYN070AAXX  01114 61630 31940 01406 10326 20113 30093 40112 70600 333 58013;EQDQ01  00002PRCP99
0205616300999992000030112004+15650-013250FM-12+0017GOSM V0201401N003112200019N0040001N1+03261+01131101121ADDAA199000091AY101061AY201061GA1001+999999999GF100991001001999999001001MA1999999100931MD1999999+0131MW1061REMSYN070AAXX  01124 61630 31940 01406 10326 20113 30093 40112 70600 333 58013;EQDQ01  00002PRCP99
0159616300999992000030115004+15650-013250FM-12+0017GOSM V0209999C000012200019N0020001N1+03821+00931100811ADDGA1001+999999999GF100991001001999999001001MA1999999100621MD1999999+0071MW1061REMSYN070AAXX  01154 61630 41920 00000 10382 20093 30062 40081 706// 333 58007;
0208616300999992000030118004+15650-013250FM-12+0017GOSM V0201401N001012200019N0020001N1+03711+01031100731ADDAA199000091GA1001+999999999GF100991001001999999001001KA1120M+03901MA1999999100541MD1999999+0081MW1061REMSYN076AAXX  01184 61630 31920 01402 10371 20103 30054 40073 706// 333 10390 58008;EQDQ01  00002PRCP99
0189616300999992000030200004+15650-013250FM-12+0017GOSM V0209999C000012200019N0050001N1+02881+00921101031ADDAA199000091GA1001+999999999GF100991001001999999001001MA1999999100841MD1999999+0011MW1061REMSYN070AAXX  02004 61630 31950 00000 10288 20092 30084 40103 706// 333 58001;EQDQ01  00002PRCP99
0159616300999992000030203004+15650-013250FM-12+0017GOSM V0202801N001012200019N0050001N1+02681+00661100931ADDGA1001+999999999GF100991001001999999001001MA1999999100741MD1999999-0031MW1061REMSYN070AAXX  02034 61630 41950 02802 10268 20066 30074 40093 706// 333 59003;
0235616300999992000030206004+15650-013250FM-12+0017GOSM V0209999C000012200019N0050001N1+02591+00801100951ADDAA199000091GA1001+999999999GF100991001001999999001001IA2240+02309KA1120N+02501MA1999999100761MW1061OA150600261REMSYN094AAXX  02064 61630 31950 00000 10259 20080 30076 40095 706// 333 02300 20250 50872 55058 58000;EQDQ01  00002PRCP99
0175616300999992000030209004+15650-013250FM-12+0017GOSM V0209999C000012200019N0040001N1+02681+00911101171ADDAY101031AY201031GA1001+999999999GF100991001001999999001001MA1999999100981MD1999999-0011MW1061REMSYN070AAXX  02094 61630 41940 00000 10268 20091 30098 40117 70600 333 59001;
0205616300999992000030212004+15650-013250FM-12+0017GOSM V0209999C000012200019N0015001N1+03481+00701101141ADDAA199000091AY101061AY201061GA1001+999999999GF100991001001999999001001MA1999999100951MD1999999+0021MW1061REMSYN070AAXX  02124 61630 31915 00000 10348 20070 30095 40114 70600 333 58002;EQDQ01  00002PRCP99
0159616300999992000030215004+15650-013250FM-12+0017GOSM V0209999C000012200019N0030001N1+03821+00861100861ADDGA1001+999999999GF100991001001999999001001MA1999999100671MD1999999+0051MW1061REMSYN070AAXX  02154 61630 41930 00000 10382 20086 30067 40086 706// 333 58005;
0224616300999992000030218004+15650-013250FM-12+0017GOSM V0209999C000012200019N0040001N1+03831+01031100701ADDAA199000091AY101061AY201061GA1001+999999999GF100991001001999999001001KA1120M+03921MA1999999100511MD1999999-0041MW1061REMSYN076AAXX  02184 61630 31940 00000 10383 20103 30051 40070 70600 333 10392 59004;EQDQ01  00002PRCP99
0159616300999992000030221004+15650-013250FM-12+0017GOSM V0209999C000012200019N0040001N1+03161+00971100861ADDGA1001+999999999GF100991001001999999001001MA1999999100671MD1999999-0061MW1061REMSYN070AAXX  02214 61630 41940 00000 10316 20097 30067 40086 706// 333 59006;
0177616300999992000030300004+15650-013250FM-12+0017GOSM V0209999C000012200019N0060001N1+03001+00821101021ADDAA199000091GA1001+999999999GF100991001001999999001001MA1999999100831MD1999999-0011REMSYN064AAXX  03004 61630 32956 00000 10300 20082 30083 40102 333 59001;EQDQ01  00002PRCP99
0147616300999992000030303004+15650-013250FM-12+0017GOSM V0209999C000012200019N0060001N1+02721+00871100891ADDGA1001+999999999GF100991001001999999001001MA1999999100701MD1999999-0061REMSYN064AAXX  03034 61630 42956 00000 10272 20087 30070 40089 333 59006;
0223616300999992000030306004+15650-013250FM-12+0017GOSM V0209999C000012200019N0060001N1+02511+00811100911ADDAA199000091GA1001+999999999GF100991001001999999001001IA2240+02309KA1120N+02421MA1999999100721OA150600001REMSYN088AAXX  03064 61630 32956 00000 10251 20081 30072 40091 333 02300 20242 50852 55000 59004;EQDQ01  00002PRCP99
0147616300999992000030309004+15650-013250FM-12+0017GOSM V0209999C000012200019N0060001N1+02551+00811101041ADDGA1001+999999999GF100991001001999999001001MA1999999100851MD1999999-0131REMSYN064AAXX  03094 61630 42956 00000 10255 20081 30085 40104 333 59013;
0177616300999992000030312004+15650-013250FM-12+0017GOSM V0209999C000012200019N0060001N1+03491+01011101111ADDAA199000091GA1001+999999999GF100991001001999999001001MA1999999100921MD1999999-0041REMSYN064AAXX  03124 61630 32956 00000 10349 20101 30092 40111 333 59004;EQDQ01  00002PRCP99
0147616300999992000030315004+15650-013250FM-12+0017GOSM V0209999C000012200019N0070001N1+03981+00881100811ADDGA1001+999999999GF100991001001999999001001MA1999999100621MD1999999-0051REMSYN064AAXX  03154 61630 42957 00000 10398 20088 30062 40081 333 59005;
0196616300999992000030318004+15650-013250FM-12+0017GOSM V0209999C000012200019N0070001N1+03941+00921100701ADDAA199000091GA1001+999999999GF100991001001999999001001KA1120M+04051MA1999999100511MD1999999+0001REMSYN070AAXX  03184 61630 32957 00000 10394 20092 30051 40070 333 10405 58000;EQDQ01  00002PRCP99
0147616300999992000030321004+15650-013250FM-12+0017GOSM V0209999C000012200019N0080001N1+03301+00811100911ADDGA1001+999999999GF100991001001999999001001MA1999999100721MD1999999+0051REMSYN064AAXX  03214 61630 42958 00000 10330 20081 30072 40091 333 58005;
0177616300999992000030400004+15650-013250FM-12+0017GOSM V0209999C000012200019N0080001N1+03021+00771101011ADDAA199000091GA1001+999999999GF100991001001999999001001MA1999999100821MD1999999-0011REMSYN064AAXX  04004 61630 32958 00000 10302 20077 30082 40101 333 59001;EQDQ01  00002PRCP99
0147616300999992000030403004+15650-013250FM-12+0017GOSM V0209999C000012200019N0100001N1+02721+00581100921ADDGA1001+999999999GF100991001001999999001001MA1999999100731MD1999999+0031REMSYN064AAXX  04034 61630 42960 00000 10272 20058 30073 40092 333 58003;
0159616300999992000030409004+15650-013250FM-12+0017GOSM V0203601N001012200019N0060001N1+02631+00751101071ADDGA1011+039009079GF101991011001999999031001MA1999999100881MD1999999+0031REMSYN076AAXX  04094 61630 42956 13602 10263 20075 30088 40107 81030 333 58003 81363;
0147616300999992000030414004+15650-013250FM-12+0017GOSM V0201601N001012200019N0060001N1+03981+00721100781ADDGA1001+999999999GF100991001001999999001001MA1999999100591MD1999999-0031REMSYN064AAXX  04144 61630 42956 01602 10398 20072 30059 40078 333 59003;
0147616300999992000030415004+15650-013250FM-12+0017GOSM V0201601N001012200019N0060001N1+03981+00201100781ADDGA1001+999999999GF100991001001999999001001MA1999999100591MD1999999-0031REMSYN064AAXX  04154 61630 42956 01602 10398 2002/ 30059 40078 333 59003;
0196616300999992000030418004+15650-013250FM-12+0017GOSM V0209999C000012200019N0060001N1+03901+01021100741ADDAA199000091GA1001+999999999GF100991001001999999001001KA1120M+04121MA1999999100551MD1999999+0031REMSYN070AAXX  04184 61630 32956 00000 10390 20102 30055 40074 333 10412 58003;EQDQ01  00002PRCP99
0147616300999992000030421004+15650-013250FM-12+0017GOSM V0209999C000012200019N0060001N1+03121+01001100891ADDGA1001+999999999GF100991001001999999001001MA1999999100701MD1999999-0021REMSYN064AAXX  04214 61630 42956 00000 10312 20100 30070 40089 333 59002;
0177616300999992000030500004+15650-013250FM-12+0017GOSM V0209999C000012200019N0060001N1+02881+00751101101ADDAA199000091GA1001+999999999GF100991001001999999001001MA1999999100911MD1999999+0091REMSYN064AAXX  05004 61630 32956 00000 10288 20075 30091 40110 333 58009;EQDQ01  00002PRCP99
0147616300999992000030503004+15650-013250FM-12+0017GOSM V0209999C000012200019N0060001N1+02711+00661100851ADDGA1001+999999999GF100991001001999999001001MA1999999100661MD1999999-0071REMSYN064AAXX  05034 61630 42956 00000 10271 20066 30066 40085 333 59007;
0147616300999992000030509004+15650-013250FM-12+0017GOSM V0209999C000012200019N0060001N1+02591+00771101111ADDGA1001+999999999GF100991001001999999001001MA1999999100921MD1999999+0041REMSYN064AAXX  05094 61630 42956 00000 10259 20077 30092 40111 333 58004;
0177616300999992000030512004+15650-013250FM-12+0017GOSM V0209999C000012200019N0060001N1+03681+00971101121ADDAA199000091GA1001+999999999GF100991001001999999001001MA1999999100931MD1999999-0031REMSYN064AAXX  05124 61630 32956 00000 10368 20097 30093 40112 333 59003;EQDQ01  00002PRCP99
0147616300999992000030515004+15650-013250FM-12+0017GOSM V0209999C000012200019N0060001N1+04061+00621100841ADDGA1001+999999999GF100991001001999999001001MA1999999100651MD1999999+0061REMSYN064AAXX  05154 61630 42956 00000 10406 20062 30065 40084 333 58006;
0196616300999992000030518004+15650-013250FM-12+0017GOSM V0209999C000012200019N0080001N1+04071+00971100621ADDAA199000091GA1001+999999999GF100991001001999999001001KA1120M+04251MA1999999100431MD1999999-0121REMSYN070AAXX  05184 61630 32958 00000 10407 20097 30043 40062 333 10425 59012;EQDQ01  00002PRCP99
0177616300999992000030600004+15650-013250FM-12+0017GOSM V0209999C000012200019N0080001N1+03021+00581101001ADDAA199000091GA1001+999999999GF100991001001999999001001MA1999999100811MD1999999-0101REMSYN064AAXX  06004 61630 32958 00000 10302 20058 30081 40100 333 59010;EQDQ01  00002PRCP99
0147616300999992000030603004+15650-013250FM-12+0017GOSM V0209999C000012200019N0080001N1+02821+00581100811ADDGA1001+999999999GF100991001001999999001001MA1999999100721MD1999999-0071REMSYN064AAXX  06034 61630 42958 00000 10282 20058 30072 40081 333 59007;
0147616300999992000030609004+15650-013250FM-12+0017GOSM V0209999C000012200019N0080001N1+02501+00621101061ADDGA1001+999999999GF100991001001999999001001MA1999999100871MD1999999-0051REMSYN064AAXX  06094 61630 42958 00000 10250 20062 30087 40106 333 59005;
0177616300999992000030612004+15650-013250FM-12+0017GOSM V0209999C000012200019N0100001N1+03801+00821101101ADDAA199000091GA1001+999999999GF100991001001999999001001MA1999999100911MD1999999-0021REMSYN064AAXX  06124 61630 32960 00000 10380 20082 30091 40110 333 59002;EQDQ01  00002PRCP99
0147616300999992000030615004+15650-013250FM-12+0017GOSM V0201401N002112200019N0070001N1+04161+00941100771ADDGA1001+999999999GF100991001001999999001001MA1999999100581MD1999999-0071REMSYN064AAXX  06154 61630 42957 01404 10416 20094 30058 40077 333 59007;
0177616300999992000030618004+15650-013250FM-12+0017GOSM V0209999C000012200019N0100001N1+03801+00821101101ADDAA199000091GA1001+999999999GF100991001001999999001001MA1999999100911MD1999999-0021REMSYN064AAXX  06184 61630 32960 00000 10380 20082 30091 40110 333 59002;EQDQ01  00002PRCP99
0147616300999992000030621004+15650-013250FM-12+0017GOSM V0209999C000012200019N0100001N1+03201+01021100891ADDGA1001+999999999GF100991001001999999001001MA1999999100701MD1999999-0081REMSYN064AAXX  06214 61630 42960 00000 10320 20102 30070 40089 333 59008;
0183616300999992000030700004+15650-013250FM-12+0017GOSM V0209999C000012200019N0070001N1+02901+00781100941ADDAA199000091GA1001+999999999GF100991001001999999001001MA1999999100751MD1999999-0061REMSYN070AAXX  07004 61630 32957 00000 10290 20078 30075 40094 333 0//00 59006;EQDQ01  00002PRCP99
0147616300999992000030703004+15650-013250FM-12+0017GOSM V0209999C000012200019N0070001N1+02661+00661100821ADDGA1001+999999999GF100991001001999999001001MA1999999100631MD1999999-0171REMSYN064AAXX  07034 61630 42957 00000 10266 20066 30063 40082 333 59017;
0223616300999992000030706004+15650-013250FM-12+0017GOSM V0209999C000012200019N0070001N1+02481+00751100841ADDAA199000091GA1001+999999999GF100991001001999999001001IA2240+02009KA1120N+02301MA1999999100651OA150600461REMSYN088AAXX  07064 61630 32957 00000 10248 20075 30065 40084 333 02000 20230 50902 55091 59005;EQDQ01  00002PRCP99
0147616300999992000030709004+15650-013250FM-12+0017GOSM V0209999C000012200019N0060001N1+02621+01121101071ADDGA1001+999999999GF100991001001999999001001MA1999999100881MD1999999+0011REMSYN064AAXX  07094 61630 42956 00000 10262 20112 30088 40107 333 58001;
0183616300999992000030712004+15650-013250FM-12+0017GOSM V0201401N003112200019N0060001N1+03481+01231101111ADDAA199000091GA1001+999999999GF100991001001999999001001MA1999999100921MD1999999+0011REMSYN070AAXX  07124 61630 32956 01406 10348 20123 30092 40111 333 0//00 58001;EQDQ01  00002PRCP99
0147616300999992000030715004+15650-013250FM-12+0017GOSM V0201401N002112200019N0060001N1+04051+00801100771ADDGA1001+999999999GF100991001001999999001001MA1999999100581MD1999999+0001REMSYN064AAXX  07154 61630 42956 01404 10405 20080 30058 40077 333 58000;
0181616300999992000030718004+15650-013250FM-12+0017GOSM V0209999C000012200019N0060001N1+03981+00971100621ADDAA199000091GA1001+999999999GF100991001001999999001001KA1120M+04131MD1999999-0021REMSYN070AAXX  07184 61630 32956 00000 10398 20097 3//43 40062 333 10413 59002;EQDQ01  00002PRCP99
0147616300999992000030721004+15650-013250FM-12+0017GOSM V0209999C000012200019N0070001N1+03121+00961100771ADDGA1001+999999999GF100991001001999999001001MA1999999100581MD1999999-0121REMSYN064AAXX  07214 61630 42957 00000 10312 20096 30058 40077 333 59012;
0211616300999992000030806004+15650-013250FM-12+0017GOSM V0200801N002112200019N0080001N1+02701+00291100921ADDAA199000091GA1001+999999999GF100991001001999999001001KA1120N+02601MA1999999100731OA150600411REMSYN088AAXX  08064 61630 32958 00804 10270 20029 30073 40092 333 0/000 20260 51032 55088 58008;EQDQ01  00002PRCP99
0147616300999992000030809004+15650-013250FM-12+0017GOSM V0201201N002112200019N0080001N1+02921+00491101131ADDGA1001+999999999GF100991001001999999001001MA1999999100941MD1999999+0061REMSYN064AAXX  08094 61630 42958 01204 10292 20049 30094 40113 333 58006;
0205616300999992000030812004+15650-013250FM-12+0017GOSM V0201201N006212200019N0040001N1+03801+00651101131ADDAA199000091AY101061AY201061GA1001+999999999GF100991001001999999001001MA1999999100941MD1999999+0021MW1071REMSYN070AAXX  08124 61630 31940 01212 10380 20065 30094 40113 70700 333 58002;EQDQ01  00002PRCP99
0159616300999992000030815004+15650-013250FM-12+0017GOSM V0201001N005112200019N0040001N1+04041+00761100901ADDGA1001+999999999GF100991001001999999001001MA1999999100711MD1999999+0131MW1071REMSYN070AAXX  08154 61630 41940 01010 10404 20076 30071 40090 707// 333 58013;
0196616300999992000030818004+15650-013250FM-12+0017GOSM V0200801N001012200019N0060001N1+03941+00791100741ADDAA199000091GA1001+999999999GF100991001001999999001001KA1120M+04101MA1999999100551MD1999999+0121REMSYN070AAXX  08184 61630 32956 00802 10394 20079 30055 40074 333 10410 58012;EQDQ01  00002PRCP99
0177616300999992000030900004+15650-013250FM-12+0017GOSM V0209999C000012200019N0060001N1+02981+00671101111ADDAA199000091GA1001+999999999GF100991001001999999001001MA1999999100921MD1999999+0211REMSYN064AAXX  09004 61630 32956 00000 10298 20067 30092 40111 333 58021;EQDQ01  00002PRCP99
0147616300999992000030903004+15650-013250FM-12+0017GOSM V0209999C000012200019N0060001N1+02801+00721101071ADDGA1001+999999999GF100991001001999999001001MA1999999100881MD1999999+0241REMSYN064AAXX  09034 61630 42956 00000 10280 20072 30088 40107 333 58024;
0147616300999992000030909004+15650-013250FM-12+0017GOSM V0209999C000012200019N0060001N1+02801+00541101271ADDGA1001+999999999GF100991001001999999001001MA1999999101081MD1999999+0141REMSYN064AAXX  09094 61630 42956 00000 10280 20054 30108 40127 333 58014;
0205616300999992000030912004+15650-013250FM-12+0017GOSM V0201001N005112200019N0030001N1+03721+00511101261ADDAA199000091AY101061AY201061GA1001+999999999GF100991001001999999001001MA1999999101071MD1999999+0131MW1071REMSYN070AAXX  09124 61630 31930 01010 10372 20051 30107 40126 70700 333 58013;EQDQ01  00002PRCP99
0147616300999992000030915004+15650-013250FM-12+0017GOSM V0201401N004112200019N0080001N1+04021+00961100961ADDGA1001+999999999GF100991001001999999001001MA1999999100771MD1999999+0061REMSYN064AAXX  09154 61630 42958 01408 10402 20096 30077 40096 333 58006;
0196616300999992000030918004+15650-013250FM-12+0017GOSM V0209999C000012200019N0080001N1+03941+00791100861ADDAA199000091GA1001+999999999GF100991001001999999001001KA1120M+04121MA1999999100671MD1999999+0121REMSYN070AAXX  09184 61630 32958 00000 10394 20079 30067 40086 333 10412 58012;EQDQ01  00002PRCP99
0147616300999992000030921004+15650-013250FM-12+0017GOSM V0209999C000012200019N0080001N1+03261+00741101131ADDGA1001+999999999GF100991001001999999001001MA1999999100941MD1999999+0151REMSYN064AAXX  09214 61630 42958 00000 10326 20074 30094 40113 333 58015;
0183616300999992000031000004+15650-013250FM-12+0017GOSM V0209999C000012200019N0080001N1+02901+00671101131ADDAA199000091GA1001+999999999GF100991001001999999001001MA1999999100941MD1999999+0021REMSYN070AAXX  10004 61630 32958 00000 10290 20067 30094 40113 333 0//00 58002;EQDQ01  00002PRCP99
0147616300999992000031003004+15650-013250FM-12+0017GOSM V0209999C000012200019N0080001N1+02721+00581101061ADDGA1001+999999999GF100991001001999999001001MA1999999100871MD1999999-0051REMSYN064AAXX  10034 61630 42958 00000 10272 20058 30087 40106 333 59005;
0223616300999992000031006004+15650-013250FM-12+0017GOSM V0209999C000012200019N0080001N1+02561+00601101051ADDAA199000091GA1001+999999999GF100991001001999999001001IA2240+02209KA1120N+02481MA1999999100861OA150600461REMSYN088AAXX  10064 61630 32958 00000 10256 20060 30086 40105 333 02200 20248 51182 55098 59007;EQDQ01  00002PRCP99
0147616300999992000031009004+15650-013250FM-12+0017GOSM V0209999C000012200019N0060001N1+02781+00751101241ADDGA1001+999999999GF100991001001999999001001MA1999999101051MD1999999-0031REMSYN064AAXX  10094 61630 42956 00000 10278 20075 30105 40124 333 59003;
0183616300999992000031012004+15650-013250FM-12+0017GOSM V0201401N004112200019N0080001N1+03601+00791101251ADDAA199000091GA1001+999999999GF100991001001999999001001MA1999999101061MD1999999-0011REMSYN070AAXX  10124 61630 32958 01408 10360 20079 30106 40125 333 0//00 59001;EQDQ01  00002PRCP99
0147616300999992000031015004+15650-013250FM-12+0017GOSM V0201201N002112200019N0080001N1+03961+00901100781ADDGA1001+999999999GF100991001001999999001001MA1999999100591MD1999999-0181REMSYN064AAXX  10154 61630 42958 01204 10396 20090 30059 40078 333 59018;
0196616300999992000031018004+15650-013250FM-12+0017GOSM V0201201N004112200019N0080001N1+03801+00821100861ADDAA199000091GA1001+999999999GF100991001001999999001001KA1120M+04031MA1999999100671MD1999999-0101REMSYN070AAXX  10184 61630 32958 01208 10380 20082 30067 40086 333 10403 59010;EQDQ01  00002PRCP99
0177616300999992000031100004+15650-013250FM-12+0017GOSM V0209999C000012200019N0080001N1+02851+00481101021ADDAA199000091GA1001+999999999GF100991001001999999001001MA1999999100831MD1999999-0111REMSYN064AAXX  11004 61630 32958 00000 10285 20048 30083 40102 333 59011;EQDQ01  00002PRCP99
0147616300999992000031103004+15650-013250FM-12+0017GOSM V0201001N001012200019N0080001N1+02701+00361100911ADDGA1001+999999999GF100991001001999999001001MA1999999100721MD1999999-0151REMSYN064AAXX  11034 61630 42958 01002 10270 20036 30072 40091 333 59015;
0223616300999992000031106004+15650-013250FM-12+0017GOSM V0201001N002112200019N0080001N1+02541+00181101141ADDAA199000091GA1001+999999999GF100991001001999999001001IA2240+02209KA1120N+02471MA1999999100951OA150600461REMSYN088AAXX  11064 61630 32958 01004 10254 20018 30095 40114 333 02200 20247 51101 55098 58009;EQDQ01  00002PRCP99
0147616300999992000031109004+15650-013250FM-12+0017GOSM V0201001N005112200019N0080001N1+02881+00381101161ADDGA1001+999999999GF100991001001999999001001MA1999999100971MD1999999-0081REMSYN064AAXX  11094 61630 42958 01010 10288 20038 30097 40116 333 59008;
0205616300999992000031112004+15650-013250FM-12+0017GOSM V0201201N007212200019N0008001N1+03501+00171101161ADDAA199000091AY101061AY201061GA1001+999999999GF100991001001999999001001MA1999999100971MD1999999-0091MW1071REMSYN070AAXX  11124 61630 31908 01214 10350 20017 30097 40116 70700 333 59009;EQDQ01  00002PRCP99
0159616300999992000031115004+15650-013250FM-12+0017GOSM V0201001N006212200019N0010001N1+03801+00481100901ADDGA1001+999999999GF100991001001999999001001MA1999999100711MD1999999+0121MW1071REMSYN070AAXX  11154 61630 41910 01012 10380 20048 30071 40090 707// 333 58012;
0196616300999992000031118004+15650-013250FM-12+0017GOSM V0201001N001012200019N0060001N1+03681+00601100811ADDAA199000091GA1001+999999999GF100991001001999999001001KA1120M+03841MA1999999100621MD1999999+0051REMSYN070AAXX  11184 61630 32956 01002 10368 20060 30062 40081 333 10384 58005;EQDQ01  00002PRCP99
0177616300999992000031200004+15650-013250FM-12+0017GOSM V0209999C000012200019N0080001N1+02791+00431101161ADDAA199000091GA1001+999999999GF100991001001999999001001MA1999999100971MD1999999+0141REMSYN064AAXX  12004 61630 32958 00000 10279 20043 30097 40116 333 58014;EQDQ01  00002PRCP99
0147616300999992000031203004+15650-013250FM-12+0017GOSM V0200801N001012200019N0080001N1+02651+00351100941ADDGA1001+999999999GF100991001001999999001001MA1999999100751MD1999999+0031REMSYN064AAXX  12034 61630 42958 00802 10265 20035 30075 40094 333 58003;
0223616300999992000031206004+15650-013250FM-12+0017GOSM V0201001N002112200019N0080001N1+02441+00181101141ADDAA199000091GA1001+999999999GF100991001001999999001001IA2240+02209KA1120N+02461MA1999999100951OA150600461REMSYN088AAXX  12064 61630 32958 01004 10244 20018 30095 40114 333 02200 20246 51102 55098 58004;EQDQ01  00002PRCP99
0147616300999992000031209004+15650-013250FM-12+0017GOSM V0209999C000012200019N0080001N1+02541+00181101131ADDGA1001+999999999GF100991001001999999001001MA1999999100941MD1999999-0031REMSYN064AAXX  12094 61630 42958 00000 10254 20018 30094 40113 333 59003;
0189616300999992000031212004+15650-013250FM-12+0017GOSM V0201401N002112200019N0080001N1+02451+00251101101ADDAA199000091GA1041+069009019GF104991001001999999001021MA1999999100911MD1999999-0061REMSYN076AAXX  12124 61630 32958 41404 10245 20025 30091 40110 80002 333 59006 84073;EQDQ01  00002PRCP99
0147616300999992000031215004+15650-013250FM-12+0017GOSM V0201801N002112200019N0080001N1+03862+01001100831ADDGA1001+999999999GF100991001001999999001001MA1999999100651MD1999999-0071REMSYN064AAXX  12154 61630 42958 01804 10386 20100 30065 40083 333 59007;
0196616300999992000031218004+15650-013250FM-12+0017GOSM V0209999C000012200019N0080001N1+03821+00921100781ADDAA199000091GA1001+999999999GF100991001001999999001001KA1120M+03951MA1999999100591MD1999999-0031REMSYN070AAXX  12184 61630 32958 00000 10382 20092 30059 40078 333 10395 59003;EQDQ01  00002PRCP99
0183616300999992000031300004+15650-013250FM-12+0017GOSM V0209999C000012200019N0080001N1+02621+00761101041ADDAA199000091GA1001+999999999GF100991001001999999001001MA1999999100851MD1999999-0121REMSYN070AAXX  13004 61630 32958 00000 10262 20076 30085 40104 333 0//00 59012;EQDQ01  00002PRCP99
0147616300999992000031303004+15650-013250FM-12+0017GOSM V0209999C000012200019N0080001N1+02601+00621100941ADDGA1001+999999999GF100991001001999999001001MA1999999100751MD1999999+0001REMSYN064AAXX  13034 61630 42958 00000 10260 20062 30075 40094 333 58000;
0202616300999992000031306004+15650-013250FM-12+0017GOSM V0209999C000012200019N0080001N1+02501+00681100941ADDAA199000091GA1001+999999999GF100991001001999999001001IA2240+02009KA1120N+02401OA150600511REMSYN082AAXX  13064 61630 32958 00000 10250 20068 40094 333 02000 20240 50842 5510/ 59003;EQDQ01  00002PRCP99
0147616300999992000031309004+15650-013250FM-12+0017GOSM V0201401N003112200019N0080001N1+02821+00701101121ADDGA1001+999999999GF100991001001999999001001MA1999999100931MD1999999-0011REMSYN064AAXX  13094 61630 42958 01406 10282 20070 30093 40112 333 59001;
0183616300999992000031312004+15650-013250FM-12+0017GOSM V0201401N004112200019N0060001N1+03481+00861101151ADDAA199000091GA1001+999999999GF100991001001999999001001MA1999999100961MD1999999+0051REMSYN070AAXX  13124 61630 32956 01408 10348 20086 30096 40115 333 0//00 58005;EQDQ01  00002PRCP99
0159616300999992000031315004+15650-013250FM-12+0017GOSM V0201401N003112200019N0080001N1+03881+00601100891ADDGA1011+069009019GF101991001001999999001021MA1999999100701MD1999999+0061REMSYN076AAXX  13154 61630 42958 11406 10388 20060 30070 40089 80002 333 58006 81073;
0208616300999992000031318004+15650-013250FM-12+0017GOSM V0201001N001012200019N0080001N1+03761+00601100791ADDAA199000091GA1021+069009019GF102991001001999999001021KA1120M+04001MA1999999100601MD1999999+0011REMSYN082AAXX  13184 61630 32958 21002 10376 20060 30060 40079 80002 333 10400 58001 82073;EQDQ01  00002PRCP99
0177616300999992000031400004+15650-013250FM-12+0017GOSM V0200801N001012200019N0080001N1+02821+00461101211ADDAA199000091GA1001+999999999GF100991001001999999001001MA1999999101021MD1999999+0171REMSYN064AAXX  14004 61630 32958 00802 10282 20046 30102 40121 333 58017;EQDQ01  00002PRCP99
0147616300999992000031403004+15650-013250FM-12+0017GOSM V0200801N001012200019N0080001N1+02701+00281100911ADDGA1001+999999999GF100991001001999999001001MA1999999100721MD1999999-0031REMSYN064AAXX  14034 61630 42958 00802 10270 20028 30072 40091 333 59003;
0223616300999992000031406004+15650-013250FM-12+0017GOSM V0209999C000012200019N0080001N1+02391+00401101051ADDAA199000091GA1001+999999999GF100991001001999999001001IA2240+01109KA1120N+02301MA1999999100861OA150600511REMSYN088AAXX  14064 61630 32958 00000 10239 20040 30086 40105 333 01100 20230 51052 55103 58011;EQDQ01  00002PRCP99
0147616300999992000031409004+15650-013250FM-12+0017GOSM V0200801N002112200019N0100001N1+02731+00281101271ADDGA1001+999999999GF100991001001999999001001MA1999999101081MD1999999+0151REMSYN064AAXX  14094 61630 42960 00804 10273 20028 30108 40127 333 58015;
0177616300999992000031412004+15650-013250FM-12+0017GOSM V0201201N004112200019N0060001N1+03501+00651101251ADDAA199000091GA1001+999999999GF100991001001999999001001MA1999999101061MD1999999+0101REMSYN064AAXX  14124 61630 32956 01208 10350 20065 30106 40125 333 58010;EQDQ01  00002PRCP99
0159616300999992000031415004+15650-013250FM-12+0017GOSM V0201401N002112200019N0080001N1+03951+00851100881ADDGA1031+069009019GF103991001001999999001021MA1999999100691MD1999999-0011REMSYN076AAXX  14154 61630 42958 31404 10395 20085 30069 40088 80002 333 59001 83073;
0208616300999992000031418004+15650-013250FM-12+0017GOSM V0200401N001010690019N0080001N1+03751+00641100851ADDAA199000091GA1051+069009019GF105991001001999999001021KA1120M+03951MA1999999100661MD1999999+0061REMSYN082AAXX  14184 61630 32958 50402 10375 20064 30066 40085 80002 333 10395 58006 85073;EQDQ01  00002PRCP99
0177616300999992000031500004+15650-013250FM-12+0017GOSM V0209999C000012200019N0080001N1+02501+00791101111ADDAA199000091GA1001+999999999GF100991001001999999001001MA1999999100921MD1999999-0101REMSYN064AAXX  15004 61630 32958 00000 10250 20079 30092 40111 333 59010;EQDQ01  00002PRCP99
0147616300999992000031503004+15650-013250FM-12+0017GOSM V0200801N001012200019N0080001N1+02451+00121100931ADDGA1001+999999999GF100991001001999999001001MA1999999100741MD1999999+0021REMSYN064AAXX  15034 61630 42958 00802 10245 20012 30074 40093 333 58002;
0223616300999992000031506004+15650-013250FM-12+0017GOSM V0200801N002112200019N0080001N1+02341+00401101051ADDAA199000091GA1001+999999999GF100991001001999999001001IA2240+02709KA1120N+02301MA1999999100861OA150600511REMSYN088AAXX  15064 61630 32958 00804 10234 20040 30086 40105 333 02700 20230 51054 55103 58011;EQDQ01  00002PRCP99
0159616300999992000031509004+15650-013250FM-12+0017GOSM V0209999C000012200019N0080001N1+02591+00171101081ADDGA1041+069009019GF104991001001999999001021MA1999999100891MD1999999-0191REMSYN076AAXX  15094 61630 42958 40000 10259 20017 30089 40108 80002 333 59019 84073;
0177616300999992000031512004+15650-013250FM-12+0017GOSM V0201001N001012200019N0100001N1+03501+00401101051ADDAA199000091GA1001+999999999GF100991001001999999001001MA1999999100861MD1999999-0201REMSYN064AAXX  15124 61630 32960 01002 10350 20040 30086 40105 333 59020;EQDQ01  00002PRCP99
0147616300999992000031515004+15650-013250FM-12+0017GOSM V0209999C000012200019N0100001N1+03941+00661100751ADDGA1001+999999999GF100991001001999999001001MA1999999100561MD1999999-0131REMSYN064AAXX  15154 61630 42960 00000 10394 20066 30056 40075 333 59013;
0196616300999992000031518004+15650-013250FM-12+0017GOSM V0209999C000012200019N0100001N1+03861+00611100701ADDAA199000091GA1001+999999999GF100991001001999999001001KA1120M+04001MA1999999100511MD1999999-0151REMSYN070AAXX  15184 61630 32960 00000 10386 20061 30051 40070 333 10400 59015;EQDQ01  00002PRCP99
0147616300999992000031521004+15650-013250FM-12+0017GOSM V0209999C000012200019N0100001N1+02961+00601100891ADDGA1001+999999999GF100991001001999999001001MA1999999100701MD1999999+0131REMSYN064AAXX  15214 61630 42960 00000 10296 20060 30070 40089 333 58013;
0177616300999992000031600004+15650-013250FM-12+0017GOSM V0209999C000012200019N0100001N1+02401+00621100931ADDAA199000091GA1001+999999999GF100991001001999999001001MA1999999100741MD1999999-0181REMSYN064AAXX  16004 61630 32960 00000 10240 20062 30074 40093 333 59018;EQDQ01  00002PRCP99
0147616300999992000031603004+15650-013250FM-12+0017GOSM V0209999C000012200019N0100001N1+02361+00561100851ADDGA1001+999999999GF100991001001999999001001MA1999999100661MD1999999-0081REMSYN064AAXX  16034 61630 42960 00000 10236 20056 30066 40085 333 59008;
0223616300999992000031606004+15650-013250FM-12+0017GOSM V0209999C000012200019N0100001N1+02201+00531100771ADDAA199000091GA1001+999999999GF100991001001999999001001IA2240+01609KA1120N+01821MA1999999100581OA150600511REMSYN088AAXX  16064 61630 32960 00000 10220 20053 30058 40077 333 01600 20182 50822 55100 59016;EQDQ01  00002PRCP99
0147616300999992000031609004+15650-013250FM-12+0017GOSM V0209999C000012200019N0100001N1+02301+00391100941ADDGA1001+999999999GF100991001001999999001001MA1999999100751MD1999999-0141REMSYN064AAXX  16094 61630 42960 00000 10230 20039 30075 40094 333 59014;
0183616300999992000031612004+15650-013250FM-12+0017GOSM V0201401N002112200019N0100001N1+03381+00601101061ADDAA199000091GA1001+999999999GF100991001001999999001001MA1999999100871MD1999999+0011REMSYN070AAXX  16124 61630 32960 01404 10338 20060 30087 40106 333 0//00 58001;EQDQ01  00002PRCP99
0147616300999992000031615004+15650-013250FM-12+0017GOSM V0200401N001012200019N0100001N1+99999+99999100721ADDGA1001+999999999GF100991001001999999001001MA1999999100531MD1999999-0031REMSYN064AAXX  16154 61630 42960 00402 1/386 20040 30053 40072 333 59003;
0196616300999992000031618004+15650-013250FM-12+0017GOSM V0200401N001012200019N0100001N1+03821+00561100621ADDAA199000091GA1001+999999999GF100991001001999999001001KA1120M+04031MA1999999100431MD1999999-0081REMSYN070AAXX  16184 61630 32960 00402 10382 20056 30043 40062 333 10403 59008;EQDQ01  00002PRCP99
0177616300999992000031700004+15650-013250FM-12+0017GOSM V0200401N002112200019N0100001N1+02601+00321100951ADDAA199000091GA1001+999999999GF100991001001999999001001MA1999999100761MD1999999+0021REMSYN064AAXX  17004 61630 32960 00404 10260 20032 30076 40095 333 58002;EQDQ01  00002PRCP99
0147616300999992000031703004+15650-013250FM-12+0017GOSM V0209999C000012200019N0100001N1+02281+00481100751ADDGA1001+999999999GF100991001001999999001001MA1999999100561MD1999999-0101REMSYN064AAXX  17034 61630 42960 00000 10228 20048 30056 40075 333 59010;
0223616300999992000031706004+15650-013250FM-12+0017GOSM V0209999C000012200019N0100001N1+02001+00081100701ADDAA199000091GA1001+999999999GF100991001001999999001001IA2240+01509KA1120N+01901MA1999999100511OA150600511REMSYN088AAXX  17064 61630 32960 00000 10200 20008 30051 40070 333 01500 20190 50922 55107 59007;EQDQ01  00002PRCP99
0147616300999992000031709004+15650-013250FM-12+0017GOSM V0209999C000012200019N0100001N1+02201+00701100861ADDGA1001+999999999GF100991001001999999001001MA1999999100671MD1999999-0081REMSYN064AAXX  17094 61630 42960 00000 10220 20070 30067 40086 333 59008;
0177616300999992000031712004+15650-013250FM-12+0017GOSM V0201001N002112200019N0100001N1+03601+00391100901ADDAA199000091GA1001+999999999GF100991001001999999001001MA1999999100711MD1999999-0161REMSYN064AAXX  17124 61630 32960 01004 10360 20039 30071 40090 333 59016;EQDQ01  00002PRCP99
0147616300999992000031715004+15650-013250FM-12+0017GOSM V0209999C000012200019N0100001N1+04091+00721100581ADDGA1001+999999999GF100991001001999999001001MA1999999100391MD1999999-0141REMSYN064AAXX  17154 61630 42960 00000 10409 20072 30039 40058 333 59014;
0177616300999992000031800004+15650-013250FM-12+0017GOSM V0200401N001012200019N0100001N1+02701+00341100861ADDAA199000091GA1001+999999999GF100991001001999999001001MA1999999100671MD1999999-0091REMSYN064AAXX  18004 61630 32960 00402 10270 20034 30067 40086 333 59009;EQDQ01  00002PRCP99
0157616300999992000031803004+15650-013250FM-12+0017GOSM V0200401N001012200019N0100001N1+02701+00341100861ADDAA199000091GA1001+999999999GF100991001001999999001001MA1999999100671REMSYN058AAXX  18034 61630 32960 00402 10270 20034 30067 40086 333;EQDQ01  00002PRCP99
0177616300999992000031804004+15650-013250FM-12+0017GOSM V0200401N001012200019N0100001N1+02701+00341100861ADDAA199000091GA1001+999999999GF100991001001999999001001MA1999999100671MD1999999-0091REMSYN064AAXX  18044 61630 32960 00402 10270 20034 30067 40086 333 59009;EQDQ01  00002PRCP99
0177616300999992000031806004+15650-013250FM-12+0017GOSM V0200401N001012200019N0100001N1+02701+00341100861ADDAA199000091GA1001+999999999GF100991001001999999001001MA1999999100671MD1999999-0091REMSYN064AAXX  18064 61630 32960 00402 10270 20034 30067 40086 333 59009;EQDQ01  00002PRCP99
0147616300999992000031809004+15650-013250FM-12+0017GOSM V0209999C000012200019N0100001N1+02151+00951100881ADDGA1001+999999999GF100991001001999999001001MA1999999100691MD1999999+0021REMSYN064AAXX  18094 61630 42960 00000 10215 20095 30069 40088 333 58002;
0177616300999992000031812004+15650-013250FM-12+0017GOSM V0201001N002112200019N0100001N1+03601+00331101001ADDAA199000091GA1001+999999999GF100991001001999999001001MA1999999100811MD1999999+0101REMSYN064AAXX  18124 61630 32960 01004 10360 20033 30081 40100 333 58010;EQDQ01  00002PRCP99
0147616300999992000031815004+15650-013250FM-12+0017GOSM V0209999C000012200019N0100001N1+04001+00661100651ADDGA1001+999999999GF100991001001999999001001MA1999999100461MD1999999+0071REMSYN064AAXX  18154 61630 42960 00000 10400 20066 30046 40065 333 58007;
0196616300999992000031818004+15650-013250FM-12+0017GOSM V0209999C000012200019N0100001N1+03921+00621100591ADDAA199000091GA1001+999999999GF100991001001999999001001KA1120M+04151MA1999999100401MD1999999+0061REMSYN070AAXX  18184 61630 32960 00000 10392 20062 30040 40059 333 10415 58006;EQDQ01  00002PRCP99
0147616300999992000031821004+15650-013250FM-12+0017GOSM V0209999C000012200019N0100001N1+02981+00701100771ADDGA1001+999999999GF100991001001999999001001MA1999999100581MD1999999+0051REMSYN064AAXX  18214 61630 42960 00000 10298 20070 30058 40077 333 58005;
0183616300999992000031900004+15650-013250FM-12+0017GOSM V0209999C000012200019N0100001N1+02681+00751100871ADDAA199000091GA1001+999999999GF100991001001999999001001MA1999999100681MD1999999+0001REMSYN070AAXX  19004 61630 32960 00000 10268 20075 30068 40087 333 0//00 58000;EQDQ01  00002PRCP99
0147616300999992000031903004+15650-013250FM-12+0017GOSM V0209999C000012200019N0100001N1+02501+00241100401ADDGA1001+999999999GF100991001001999999001001MA1999999100651MD1999999-0041REMSYN064AAXX  19034 61630 42960 00000 10250 20024 30065 4004/ 333 59004;
0223616300999992000031906004+15650-013250FM-12+0017GOSM V0209999C000012200019N0100001N1+02141+00301100821ADDAA199000091GA1001+999999999GF100991001001999999001001IA2240+01609KA1120N+02021MA1999999100631OA150600511REMSYN088AAXX  19064 61630 32960 00000 10214 20030 30063 40082 333 01600 20202 50942 55102 58008;EQDQ01  00002PRCP99
0147616300999992000031909004+15650-013250FM-12+0017GOSM V0209999C000012200019N0100001N1+02381+00411100881ADDGA1001+999999999GF100991001001999999001001MA1999999100691MD1999999+0001REMSYN064AAXX  19094 61630 42960 00000 10238 20041 30069 40088 333 58000;
0183616300999992000031912004+15650-013250FM-12+0017GOSM V0200801N002112200019N0100001N1+03461+00881100961ADDAA199000091GA1001+999999999GF100991001001999999001001MA1999999100771MD1999999-0041REMSYN070AAXX  19124 61630 32960 00804 10346 20088 30077 40096 333 0//00 59004;EQDQ01  00002PRCP99
0147616300999992000031915004+15650-013250FM-12+0017GOSM V0201401N002112200019N0120001N1+03901+00771100611ADDGA1001+999999999GF100991001001999999001001MA1999999100621MD1999999-0041REMSYN064AAXX  19154 61630 42962 01404 10390 20077 30062 40061 333 59004;
0196616300999992000031918004+15650-013250FM-12+0017GOSM V0209999C000012200019N0120001N1+03881+00831100511ADDAA199000091GA1001+999999999GF100991001001999999001001KA1120M+03971MA1999999100321MD1999999-0081REMSYN070AAXX  19184 61630 32962 00000 10388 20083 30032 40051 333 10397 59008;EQDQ01  00002PRCP99
0147616300999992000031921004+15650-013250FM-12+0017GOSM V0209999C000012200019N0100001N1+03081+00761100691ADDGA1001+999999999GF100991001001999999001001MA1999999100501MD1999999-0081REMSYN064AAXX  19214 61630 42960 00000 10308 20076 30050 40069 333 59008;
0177616300999992000032000004+15650-013250FM-12+0017GOSM V0209999C000012200019N0100001N1+02611+00661100931ADDAA199000091GA1001+999999999GF100991001001999999001001MA1999999100741MD1999999+0061REMSYN064AAXX  20004 61630 32960 00000 10261 20066 30074 40093 333 58006;EQDQ01  00002PRCP99
0147616300999992000032003004+15650-013250FM-12+0017GOSM V0209999C000012200019N0100001N1+02461+00551100751ADDGA1001+999999999GF100991001001999999001001MA1999999100561MD1999999-0091REMSYN064AAXX  20034 61630 42960 00000 10246 20055 30056 40075 333 59009;
0147616300999992000032009004+15650-013250FM-12+0017GOSM V0209999C000012200019N0120001N1+02511+00911100891ADDGA1001+999999999GF100991001001999999001001MA1999999100701MD1999999+0011REMSYN064AAXX  20094 61630 42962 00000 10251 20091 30070 40089 333 58001;
0189616300999992000032012004+15650-013250FM-12+0017GOSM V0201601N005112200019N0100001N1+03361+00411100931ADDAA199000091GA1011+069009019GF101991001001999999001021MA1999999100741MD1999999-0031REMSYN076AAXX  20124 61630 32960 11610 10336 20041 30074 40093 80002 333 59003 81073;EQDQ01  00002PRCP99
0208616300999992000032018004+15650-013250FM-12+0017GOSM V0209999C000012200019N0100001N1+03721+00951100601ADDAA199000091GA1021+069009019GF102991001001999999001021KA1120M+03851MA1999999100411MD1999999+0091REMSYN082AAXX  20184 61630 32960 20000 10372 20095 30041 40060 80002 333 10385 58009 82073;EQDQ01  00002PRCP99
0177616300999992000032100004+15650-013250FM-12+0017GOSM V0209999C000012200019N0100001N1+02601+00841100761ADDAA199000091GA1001+999999999GF100991001001999999001001MA1999999100571MD1999999-0181REMSYN064AAXX  21004 61630 32960 00000 10260 20084 30057 40076 333 59018;EQDQ01  00002PRCP99
0223616300999992000032106004+15650-013250FM-12+0017GOSM V0209999C000012200019N0100001N1+02301+00301100641ADDAA199000091GA1001+999999999GF100991001001999999001001IA2240+01709KA1120N+02021MA1999999100451OA150600511REMSYN088AAXX  21064 61630 32960 00000 10230 20030 30045 40064 333 01700 20202 50872 55100 59022;EQDQ01  00002PRCP99
0147616300999992000032109004+15650-013250FM-12+0017GOSM V0209999C000012200019N0100001N1+02421+00711100851ADDGA1001+999999999GF100991001001999999001001MA1999999100661MD1999999-0041REMSYN064AAXX  21094 61630 42960 00000 10242 20071 30066 40085 333 59004;
0177616300999992000032112004+15650-013250FM-12+0017GOSM V0201401N001012200019N0120001N1+03401+00431100911ADDAA199000091GA1001+999999999GF100991001001999999001001MA1999999100721MD1999999-0021REMSYN064AAXX  21124 61630 32962 01402 10340 20043 30072 40091 333 59002;EQDQ01  00002PRCP99
0147616300999992000032115004+15650-013250FM-12+0017GOSM V0209999C000012200019N0100001N1+03901+00711100521ADDGA1001+999999999GF100991001001999999001001MA1999999100331MD1999999-0121REMSYN064AAXX  21154 61630 42960 00000 10390 20071 30033 40052 333 59012;
0196616300999992000032118004+15650-013250FM-12+0017GOSM V0209999C000012200019N0100001N1+03901+00771100441ADDAA199000091GA1001+999999999GF100991001001999999001001KA1120M+04051MA1999999100251MD1999999-0161REMSYN070AAXX  21184 61630 32960 00000 10390 20077 30025 40044 333 10405 59016;EQDQ01  00002PRCP99
0147616300999992000032121004+15650-013250FM-12+0017GOSM V0209999C000012200019N0100001N1+03101+01121100611ADDGA1001+999999999GF100991001001999999001001MA1999999100421MD1999999-0021REMSYN064AAXX  21214 61630 42960 00000 10310 20112 30042 40061 333 59002;
0183616300999992000032200004+15650-013250FM-12+0017GOSM V0209999C000012200019N0100001N1+02801+00731100741ADDAA199000091GA1001+999999999GF100991001001999999001001MA1999999100551MD1999999-0021REMSYN070AAXX  22004 61630 32960 00000 10280 20073 30055 40074 333 0//00 59002;EQDQ01  00002PRCP99
0147616300999992000032203004+15650-013250FM-12+0017GOSM V0209999C000012200019N9999999N1+02501+00991100741ADDGA1001+999999999GF100991001001999999001001MA1999999100551MD1999999+0051REMSYN064AAXX  22034 61630 2/60/ 00000 10250 20099 30055 40074 333 58005;
0223616300999992000032206004+15650-013250FM-12+0017GOSM V0209999C000012200019N0100001N1+02321+00771100711ADDAA199000091GA1001+999999999GF100991001001999999001001IA2240+01809KA1120N+02201MA1999999100521OA150600511REMSYN088AAXX  22064 61630 32960 00000 10232 20077 30052 40071 333 01800 20220 50902 55100 58007;EQDQ01  00002PRCP99
0147616300999992000032209004+15650-013250FM-12+0017GOSM V0209999C000012200019N0100001N1+02841+00791100731ADDGA1001+999999999GF100991001001999999001001MA1999999100541MD1999999-0121REMSYN064AAXX  22094 61630 42960 00000 10284 20079 30054 40073 333 59012;
0183616300999992000032212004+15650-013250FM-12+0017GOSM V0209999C000012200019N0100001N1+03581+01151100971ADDAA199000091GA1001+999999999GF100991001001999999001001MA1999999100781MD1999999+0061REMSYN070AAXX  22124 61630 32960 00000 10358 20115 30078 40097 333 0//00 58006;EQDQ01  00002PRCP99
0147616300999992000032215004+15650-013250FM-12+0017GOSM V0209999C000012200019N0120001N1+04081+00901100581ADDGA1001+999999999GF100991001001999999001001MA1999999100371MD1999999+0041REMSYN064AAXX  22154 61630 42962 00000 10408 20090 30037 40058 333 58004;
0208616300999992000032218004+15650-013250FM-12+0017GOSM V0209999C000010690019N0120001N1+04001+00921100491ADDAA199000091GA1051+069009019GF105991001001999999001021KA1120M+04131MA1999999100301MD1999999+0051REMSYN082AAXX  22184 61630 32962 50000 10400 20092 30030 40049 80002 333 10413 58005 85073;EQDQ01  00002PRCP99
0147616300999992000032221004+15650-013250FM-12+0017GOSM V0209999C000012200019N0100001N1+03201+01021100591ADDGA1001+999999999GF100991001001999999001001MA1999999100401MD1999999-0021REMSYN064AAXX  22214 61630 42960 00000 10320 20102 30040 40059 333 59002;
0195616300999992000032300004+15650-013250FM-12+0017GOSM V0209999C000012200019N0100001N1+02881+00921100691ADDAA199000091GA1021+069009019GF102991001001999999001021MA1999999100501MD1999999-0051REMSYN082AAXX  23004 61630 32960 20000 10288 20092 30050 40069 80002 333 0//00 59005 82073;EQDQ01  00002PRCP99
0159616300999992000032303004+15650-013250FM-12+0017GOSM V0209999C000012200019N0100001N1+02591+00771100521ADDGA1031+069009019GF103991001001999999001021MA1999999100331MD1999999-0221REMSYN076AAXX  23034 61630 42960 30000 10259 20077 30033 40052 80002 333 59022 83073;
0202616300999992000032306004+15650-013250FM-12+0017GOSM V0209999C000012200019N0100001N1+02401+00591100671ADDAA199000091GA1001+999999999GF100991001001999999001001IA2240+01909KA1120N+02301OA150600511REMSYN082AAXX  23064 61630 32960 00000 10240 20059 40067 333 01900 20230 50792 55107 59004;EQDQ01  00002PRCP99
0147616300999992000032309004+15650-013250FM-12+0017GOSM V0209999C000012200019N0120001N1+02691+00621100771ADDGA1001+999999999GF100991001001999999001001MA1999999100581MD1999999+0041REMSYN064AAXX  23094 61630 42962 00000 10269 20062 30058 40077 333 58004;
0189616300999992000032312004+15650-013250FM-12+0017GOSM V0201601N001010690019N0150001N1+03881+00661100721ADDAA199000091GA1061+069009019GF106991001001999999001021MA1999999100531MD1999999-0251REMSYN076AAXX  23124 61630 32965 61602 10388 20066 30053 40072 80002 333 59025 86073;EQDQ01  00002PRCP99
0159616300999992000032315004+15650-013250FM-12+0017GOSM V0209999C000010690019N0150001N1+04121+00801100621ADDGA1061+069009019GF106991001001999999001021MA1999999100431MD1999999+0061REMSYN076AAXX  23154 61630 42965 60000 10412 20080 30043 40062 80002 333 58006 86073;
0224616300999992000032318004+15650-013250FM-12+0017GOSM V0209999C000010690019N0150001N1+04131+99999100411ADDAA199000091GA1051+069009019GF105991001001999999001021KA1120M+04301MA1999999100221MD1999999-0081REMSYN082AAXX  23184 61630 32965 50000 10413 20203 30022 40041 80002 333 10430 59008 85073;EQDQ01+002033ATOD  Q02  00002PRCP99
0147616300999992000032321004+15650-013250FM-12+0017GOSM V0209999C000012200019N0100001N1+03351+00881100471ADDGA1001+999999999GF100991001001999999001001MA1999999100281MD1999999-0121REMSYN064AAXX  23214 61630 42960 00000 10335 20088 30028 40047 333 59012;
0177616300999992000032400004+15650-013250FM-12+0017GOSM V0200401N001012200019N0100001N1+02991+00801100701ADDAA199000091GA1001+999999999GF100991001001999999001001MA1999999100511MD1999999+0011REMSYN064AAXX  24004 61630 32960 00402 10299 20080 30051 40070 333 58001;EQDQ01  00002PRCP99
0129616300999992000032403004+15650-013250FM-12+0017GOSM V0209999C000012200019N0100001N1+02601+00921999999ADDGA1001+999999999GF100991001001999999001001MA1999999100881REMSYN060AAXX  24034 61630 42960 00000 10260 20092 30088 401/7 99012;
0223616300999992000032406004+15650-013250FM-12+0017GOSM V0209999C000012200019N0100001N1+02401+00591100671ADDAA199000091GA1001+999999999GF100991001001999999001001IA2240+01909KA1120N+02301MA1999999100481OA150600511REMSYN088AAXX  24064 61630 32960 00000 10240 20059 30048 40067 333 01900 20230 50792 55107 59004;EQDQ01  00002PRCP99
0147616300999992000032409004+15650-013250FM-12+0017GOSM V0209999C000012200019N0120001N1+02641+00651100851ADDGA1001+999999999GF100991001001999999001001MA1999999100661MD1999999+0081REMSYN064AAXX  24094 61630 42962 00000 10264 20065 30066 40085 333 58008;
0177616300999992000032412004+15650-013250FM-12+0017GOSM V0209999C000012200019N0120001N1+03821+00731100881ADDAA199000091GA1001+999999999GF100991001001999999001001MA1999999100691MD1999999+0161REMSYN064AAXX  24124 61630 32962 00000 10382 20073 30069 40088 333 58016;EQDQ01  00002PRCP99
0147616300999992000032415004+15650-013250FM-12+0017GOSM V0209999C000012200019N0100001N1+04261+01201100531ADDGA1001+999999999GF100991001001999999001001MA1999999100341MD1999999-0061REMSYN064AAXX  24154 61630 42960 00000 10426 20120 30034 40053 333 59006;
0196616300999992000032418004+15650-013250FM-12+0017GOSM V0203201N002112200019N0100001N1+04101+01001100461ADDAA199000091GA1001+999999999GF100991001001999999001001KA1120M+04321MA1999999100271MD1999999+0051REMSYN070AAXX  24184 61630 32960 03204 10410 20100 30027 40046 333 10432 58005;EQDQ01  00002PRCP99
0183616300999992000032500004+15650-013250FM-12+0017GOSM V0209999C000012200019N0100001N1+03021+00711100781ADDAA199000091GA1001+999999999GF100991001001999999001001MA1999999100591MD1999999+0081REMSYN070AAXX  25004 61630 32960 00000 10302 20071 30059 40078 333 0//00 58008;EQDQ01  00002PRCP99
0147616300999992000032503004+15650-013250FM-12+0017GOSM V0209999C000012200019N0100001N1+02621+00651100711ADDGA1001+999999999GF100991001001999999001001MA1999999100521MD1999999+0001REMSYN064AAXX  25034 61630 41960 00000 10262 20065 30052 40071 333 58000;
0223616300999992000032506004+15650-013250FM-12+0017GOSM V0209999C000012200019N0100001N1+02481+00521100711ADDAA199000091GA1001+999999999GF100991001001999999001001IA2240+02009KA1120N+02351MA1999999100521OA150600461REMSYN088AAXX  25064 61630 32960 00000 10248 20052 30052 40071 333 02000 20235 51122 55098 58000;EQDQ01  00002PRCP99
0147616300999992000032509004+15650-013250FM-12+0017GOSM V0209999C000012200019N0120001N1+02781+00751100791ADDGA1001+999999999GF100991001001999999001001MA1999999100601MD1999999-0061REMSYN064AAXX  25094 61630 42962 00000 10278 20075 30060 40079 333 59006;
0183616300999992000032512004+15650-013250FM-12+0017GOSM V0209999C000012200019N0100001N1+03701+01091100871ADDAA199000091GA1001+999999999GF100991001001999999001001MA1999999100681MD1999999-0011REMSYN070AAXX  25124 61630 32960 00000 10370 20109 30068 40087 333 0//00 59001;EQDQ01  00002PRCP99
0151616300999992000032515004+15650-013250FM-12+0017GOSM V02099999999992200019N0150001N1+04181+01041100471ADDGA1001+999999999GF100991001001999999001001MD1999999-0061REMSYN064AAXX  25154 61630 42965 000// 10418 20104 30128 40047 333 59006;EQDQ01+101283APOSP 
0196616300999992000032518004+15650-013250FM-12+0017GOSM V0203201N002112200019N0150001N1+04081+00931100391ADDAA199000091GA1001+999999999GF100991001001999999001001KA1120M+04251MA1999999100201MD1999999-0071REMSYN070AAXX  25184 61630 32965 03204 10408 20093 30020 40039 333 10425 59007;EQDQ01  00002PRCP99
0147616300999992000032521004+15650-013250FM-12+0017GOSM V0209999C000012200019N0100001N1+03421+00901100561ADDGA1001+999999999GF100991001001999999001001MA1999999100371MD1999999-0061REMSYN064AAXX  25214 61630 42960 00000 10342 20090 30037 40056 333 59006;
0177616300999992000032600004+15650-013250FM-12+0017GOSM V0209999C000012200019N0100001N1+03121+00721100691ADDAA199000091GA1001+999999999GF100991001001999999001001MA1999999100501MD1999999-0091REMSYN064AAXX  26004 61630 32960 00000 10312 20072 30050 40069 333 59009;EQDQ01  00002PRCP99
0129616300999992000032603004+15650-013250FM-12+0017GOSM V0209999C000012200019N0100001N1+02681+00701100521ADDGA1001+999999999GF100991001001999999001001MA1999999100331REMSYN060AAXX  26034 61630 42/60 00000 10268 20070 30033 40052 59019;
0223616300999992000032606004+15650-013250FM-12+0017GOSM V0209999C000012200019N0100001N1+02421+00661100541ADDAA199000091GA1001+999999999GF100991001001999999001001IA2240+02009KA1120N+02361MA1999999100351OA150600511REMSYN088AAXX  26064 61630 32960 00000 10242 20066 30035 40054 333 02000 20236 51172 55104 59017;EQDQ01  00002PRCP99
0147616300999992000032609004+15650-013250FM-12+0017GOSM V0209999C000012200019N0100001N1+02781+00801100691ADDGA1001+999999999GF100991001001999999001001MA1999999100501MD1999999-0101REMSYN064AAXX  26094 61630 42960 00000 10278 20080 30050 40069 333 59010;
0177616300999992000032612004+15650-013250FM-12+0017GOSM V0201201N002112200019N0120001N1+03771+00821100751ADDAA199000091GA1001+999999999GF100991001001999999001001MA1999999100561MD1999999-0121REMSYN064AAXX  26124 61630 32962 01204 10377 20082 30056 40075 333 59012;EQDQ01  00002PRCP99
0166616300999992000032615004+15650-013250FM-12+0017GOSM V0209999C000012200019N0120001N1+04141+01321999999ADDGA1001+999999999GF100991001001999999001001MA1999999100321MD1999999+0041REMSYN064AAXX  26154 61630 42962 00000 10414 20132 30032 40151 333 58004;EQDQ01+101513APOSLP
0208616300999992000032618004+15650-013250FM-12+0017GOSM V0209999C000012200019N0150001N1+03951+00971100431ADDAA199000091GA1011+039009079GF101991011001999999031001KA1120M+04181MA1999999100241MD1999999+0041REMSYN082AAXX  26184 61630 32965 10000 10395 20097 30024 40043 81030 333 10418 58004 81363;EQDQ01  00002PRCP99
0147616300999992000032621004+15650-013250FM-12+0017GOSM V0209999C000012200019N0100001N1+03401+00941100581ADDGA1001+999999999GF100991001001999999001001MA1999999100391MD1999999+0021REMSYN064AAXX  26214 61630 42960 00000 10340 20094 30039 40058 333 58002;
0177616300999992000032700004+15650-013250FM-12+0017GOSM V0203601N001012200019N0100001N1+03071+00831100711ADDAA199000091GA1001+999999999GF100991001001999999001001MA1999999100521MD1999999+0021REMSYN064AAXX  27004 61630 32960 03602 10307 20083 30052 40071 333 58002;EQDQ01  00002PRCP99
0147616300999992000032703004+15650-013250FM-12+0017GOSM V0209999C000012200019N0100001N1+02621+00701100521ADDGA1001+999999999GF100991001001999999001001MA1999999100331MD1999999+0171REMSYN064AAXX  27034 61630 42960 00000 10262 20070 30033 40052 333 58017;
0223616300999992000032706004+15650-013250FM-12+0017GOSM V0209999C000012200019N0100001N1+02401+00661100551ADDAA199000091GA1001+999999999GF100991001001999999001001IA2240+02109KA1120N+02321MA1999999100361OA150600511REMSYN088AAXX  27064 61630 32960 00000 10240 20066 30036 40055 333 02100 20232 51172 55101 59009;EQDQ01  00002PRCP99
0147616300999992000032709004+15650-013250FM-12+0017GOSM V0203601N001012200019N0100001N1+02651+00721100811ADDGA1001+999999999GF100991001001999999001001MA1999999100621MD1999999+0121REMSYN064AAXX  27094 61630 42960 03602 10265 20072 30062 40081 333 58012;
0183616300999992000032712004+15650-013250FM-12+0017GOSM V0209999C000012200019N0120001N1+03691+00991100811ADDAA199000091GA1001+999999999GF100991001001999999001001MA1999999100621MD1999999+0061REMSYN070AAXX  27124 61630 32962 00000 10369 20099 30062 40081 333 0//00 58006;EQDQ01  00002PRCP99
0147616300999992000032715004+15650-013250FM-12+0017GOSM V0209999C000012200019N0100001N1+04081+01191100471ADDGA1001+999999999GF100991001001999999001001MA1999999100281MD1999999-0041REMSYN064AAXX  27154 61630 42960 00000 10408 20119 30028 40047 333 59004;
0196616300999992000032718004+15650-013250FM-12+0017GOSM V0209999C000012200019N0100001N1+03981+01221100411ADDAA199000091GA1001+999999999GF100991001001999999001001KA1120M+04161MA1999999100221MD1999999-0021REMSYN070AAXX  27184 61630 32960 00000 10398 20122 30022 40041 333 10416 59002;EQDQ01  00002PRCP99
0147616300999992000032721004+15650-013250FM-12+0017GOSM V0209999C000012200019N0100001N1+03381+01021100591ADDGA1001+999999999GF100991001001999999001001MA1999999100401MD1999999+0011REMSYN064AAXX  27214 61630 42960 00000 10338 20102 30040 40059 333 58001;
0177616300999992000032800004+15650-013250FM-12+0017GOSM V0209999C000012200019N0100001N1+02961+00941100741ADDAA199000091GA1001+999999999GF100991001001999999001001MA1999999100551MD1999999+0031REMSYN064AAXX  28004 61630 32960 00000 10296 20094 30055 40074 333 58003;EQDQ01  00002PRCP99
0126616300999992000032803004+15650-013250FM-12+0017GOSM V0209999C000012200019N0100001N1+02601+00551100701ADDGA1001+999999999GF100991001001999999001001MD1999999-0011REMSYN058AAXX  28034 61630 42960 00000 10260 20055 40070 333 59001;
0159616300999992000032809004+15650-013250FM-12+0017GOSM V0209999C000012200019N0120001N1+02781+00831100821ADDGA1021+069009019GF102991001001999999001021MA1999999100631MD1999999+0011REMSYN076AAXX  28094 61630 42962 20000 10278 20083 30063 40082 80002 333 58001 82073;
0177616300999992000032812004+15650-013250FM-12+0017GOSM V0209999C000012200019N0100001N1+03701+01251100861ADDAA199000091GA1001+999999999GF100991001001999999001001MA1999999100671MD1999999+0051REMSYN064AAXX  28124 61630 32960 00000 10370 20125 30067 40086 333 58005;EQDQ01  00002PRCP99
0147616300999992000032815004+15650-013250FM-12+0017GOSM V0209999C000012200019N0120001N1+04101+01281100491ADDGA1001+999999999GF100991001001999999001001MA1999999100301MD1999999+0021REMSYN064AAXX  28154 61630 42962 00000 10410 20128 30030 40049 333 58002;
0196616300999992000032818004+15650-013250FM-12+0017GOSM V0203601N002112200019N0120001N1+04091+00152100341ADDAA199000091GA1001+999999999GF100991001001999999001001KA1120M+04261MA1999999100151MD1999999-0071REMSYN070AAXX  28184 61630 32962 03604 10409 20015 30015 40034 333 10426 59007;EQDQ01  00002PRCP99
0177616300999992000032900004+15650-013250FM-12+0017GOSM V0203601N002112200019N0100001N1+03081+00821100661ADDAA199000091GA1001+999999999GF100991001001999999001001MA1999999100471MD1999999-0081REMSYN064AAXX  29004 61630 32960 03604 10308 20082 30047 40066 333 59008;EQDQ01  00002PRCP99
0147616300999992000032903004+15650-013250FM-12+0017GOSM V0209999C000012200019N0100001N1+02681+00861100641ADDGA1001+999999999GF100991001001999999001001MA1999999100451MD1999999-0061REMSYN064AAXX  29034 61630 42960 00000 10268 20086 30045 40064 333 59006;
0233616300999992000032906004+15650-013250FM-12+0017GOSM V0209999C000019999999N0100001N1+02471+00601100741ADDAA199000091GF106991061001999999081001IA2240+02109KA1120N+02371MA1999999100551MD1999999+0011OA150600511REMSYN100AAXX  29064 61630 32960 60000 10247 20060 30055 40074 86080 333 02100 20237 51042 55108 58001 86363;EQDQ01  00002PRCP99
0159616300999992000032909004+15650-013250FM-12+0017GOSM V0209999C000012200019N0120001N1+02801+00841100841ADDGA1011+039009079GF101991011001999999081001MA1999999100651MD1999999+0021REMSYN076AAXX  29094 61630 42962 10000 10280 20084 30065 40084 81080 333 58002 81363;
0189616300999992000032912004+15650-013250FM-12+0017GOSM V0200201N001012200019N0100001N1+03801+01221100721ADDAA199000091GA1031+039009079GF103991031001999999031001MA1999999100531MD1999999-0141REMSYN076AAXX  29124 61630 32960 30202 10380 20122 30053 40072 83030 333 59014 83363;EQDQ01  00002PRCP99
0159616300999992000032915004+15650-013250FM-12+0017GOSM V0200801N001010390019N0120001N1+04111+01141100481ADDGA1051+039009079GF105991051001999999031001MA1999999100291MD1999999-0011REMSYN076AAXX  29154 61630 42962 50802 10411 20114 30029 40048 85030 333 59001 85363;
0208616300999992000032918004+15650-013250FM-12+0017GOSM V0209999C000010390019N0120001N1+04081+01341100371ADDAA199000091GA1061+039009079GF106991061001999999031001KA1120M+04301MA1999999100181MD1999999+0031REMSYN082AAXX  29184 61630 32962 60000 10408 20134 30018 40037 86030 333 10430 58003 86363;EQDQ01  00002PRCP99
0159616300999992000032921004+15650-013250FM-12+0017GOSM V0209999C000012200019N0100001N1+03601+01231100571ADDGA1041+039009079GF104991041001999999031001MA1999999100381MD1999999+0001REMSYN076AAXX  29214 61630 42960 40000 10360 20123 30038 40057 84030 333 58000 84363;
0177616300999992000033000004+15650-013250FM-12+0017GOSM V0209999C000012200019N0100001N1+03161+01091100791ADDAA199000091GA1001+999999999GF100991001001999999001001MA1999999100601MD1999999+0131REMSYN064AAXX  30004 61630 32960 00000 10316 20109 30060 40079 333 58013;EQDQ01  00002PRCP99
0147616300999992000033003004+15650-013250FM-12+0017GOSM V0209999C000012200019N0100001N1+02601+00881100661ADDGA1001+999999999GF100991001001999999001001MA1999999100471MD1999999-0041REMSYN064AAXX  30034 61630 42960 00000 10260 20088 30047 40066 333 59004;
0233616300999992000033006004+15650-013250FM-12+0017GOSM V0209999C000012200019N0100001N1+02641+00961100751ADDAA199000091GF104991041001999999031001IA2240+02209KA1120N+02551MA1999999100561MD1999999+0011OA150600461REMSYN100AAXX  30064 61630 32960 40000 10264 20096 30056 40075 84030 333 02200 20255 50852 55093 58001 84363;EQDQ01  00002PRCP99
0159616300999992000033009004+15650-013250FM-12+0017GOSM V0209999C000012200019N0100001N1+02851+01271100871ADDGA1011+039009079GF101991011001999999031001MA1999999100681MD1999999+0031REMSYN076AAXX  30094 61630 42960 10000 10285 20127 30068 40087 81030 333 58003 81363;
0177616300999992000033012004+15650-013250FM-12+0017GOSM V0201401N002112200019N0100001N1+03681+01661100941ADDAA199000091GA1001+999999999GF100991001001999999001001MA1999999100751MD1999999+0221REMSYN064AAXX  30124 61630 32960 01404 10368 20166 30075 40094 333 58022;EQDQ01  00002PRCP99
0147616300999992000033015004+15650-013250FM-12+0017GOSM V0201801N003112200019N0100001N1+04021+01801100661ADDGA1001+999999999GF100991001001999999001001MA1999999100471MD1999999+0181REMSYN064AAXX  30154 61630 42960 01806 10402 20180 30047 40066 333 58018;
0196616300999992000033018004+15650-013250FM-12+0017GOSM V0209999C000012200019N0100001N1+03981+01871100601ADDAA199000091GA1001+999999999GF100991001001999999001001KA1120M+04151MA1999999100411MD1999999+0231REMSYN070AAXX  30184 61630 32960 00000 10398 20187 30041 40060 333 10415 58023;EQDQ01  00002PRCP99
0147616300999992000033021004+15650-013250FM-12+0017GOSM V0209999C000012200019N0100001N1+03481+01961100681ADDGA1001+999999999GF100991001001999999001001MA1999999100491MD1999999+0111REMSYN064AAXX  30214 61630 42960 00000 10348 20196 30049 40068 333 58011;
0177616300999992000033100004+15650-013250FM-12+0017GOSM V0209999C000012200019N0100001N1+03201+01751100741ADDAA199000091GA1001+999999999GF100991001001999999001001MA1999999100551MD1999999-0051REMSYN064AAXX  31004 61630 32960 00000 10320 20175 30055 40074 333 59005;EQDQ01  00002PRCP99
0147616300999992000033103004+15650-013250FM-12+0017GOSM V0209999C000012200019N0100001N1+03161+01601100741ADDGA1001+999999999GF100991001001999999001001MA1999999100551MD1999999-0041REMSYN064AAXX  31034 61630 42960 00000 10316 20160 30055 40074 333 59004;
0159616300999992000033109004+15650-013250FM-12+0017GOSM V0209999C000012200019N0120001N1+03291+01561100831ADDGA1011+039009079GF101991011001999999081001MA1999999100641MD1999999-0041REMSYN076AAXX  31094 61630 42962 10000 10329 20156 30064 40083 81080 333 59004 81363;
0183616300999992000033112004+15650-013250FM-12+0017GOSM V0200801N002112200019N0100001N1+04001+01861100871ADDAA199000091GA1001+999999999GF100991001001999999001001MA1999999100681MD1999999-0071REMSYN070AAXX  31124 61630 32960 00804 10400 20186 30068 40087 333 0//00 59007;EQDQ01  00002PRCP99
0147616300999992000033115004+15650-013250FM-12+0017GOSM V0200401N001012200019N0120001N1+04331+01851100471ADDGA1001+999999999GF100991001001999999001001MA1999999100281MD1999999-0191REMSYN064AAXX  31154 61630 42962 00402 10433 20185 30028 40047 333 59019;
0196616300999992000033118004+15650-013250FM-12+0017GOSM V0209999C000012200019N0120001N1+04301+01761100331ADDAA199000091GA1001+999999999GF100991001001999999001001KA1120M+04481MA1999999100141MD1999999-0271REMSYN070AAXX  31184 61630 32962 00000 10430 20176 30014 40033 333 10448 59027;EQDQ01  00002PRCP99
0147616300999992000033121004+15650-013250FM-12+0017GOSM V0209999C000012200019N0100001N1+03581+01621100621ADDGA1001+999999999GF100991001001999999001001MA1999999100431MD1999999-0071REMSYN064AAXX  31214 61630 42960 00000 10358 20162 30043 40062 333 59007;
0177616300999992000040100004+15650-013250FM-12+0017GOSM V0209999C000012200019N0100001N1+03191+01501100771ADDAA199000091GA1001+999999999GF100991001001999999001001MA1999999100581MD1999999+0021REMSYN064AAXX  01004 61630 32960 00000 10319 20150 30058 40077 333 58002;EQDQ01  00002PRCP99
0147616300999992000040103004+15650-013250FM-12+0017GOSM V0209999C000012200019N0100001N1+03091+01431100571ADDGA1001+999999999GF100991001001999999001001MA1999999100381MD1999999-0171REMSYN064AAXX  01034 61630 42960 00000 10309 20143 30038 40057 333 59017;
0223616300999992000040106004+15650-013250FM-12+0017GOSM V0209999C000012200019N0100001N1+03031+01321100601ADDAA199000091GA1001+999999999GF100991001001999999001001IA2240+02609KA1120N+02881MA1999999100411OA150600511REMSYN088AAXX  01064 61630 32960 00000 10303 20132 30041 40060 333 02600 20288 51002 55105 59007;EQDQ01  00002PRCP99
0147616300999992000040109004+15650-013250FM-12+0017GOSM V0209999C000012200019N0120001N1+03111+01671100721ADDGA1001+999999999GF100991001001999999001001MA1999999100531MD1999999-0111REMSYN064AAXX  01094 61630 42962 00000 10311 20167 30053 40072 333 59011;
0189616300999992000040112004+15650-013250FM-12+0017GOSM V0209999C000012200019N0120001N1+03961+01621100691ADDAA199000091GA1011+069009019GF101991001001999999001021MA1999999100501MD1999999-0181REMSYN076AAXX  01124 61630 32962 10000 10396 20162 30050 40069 80002 333 59018 81073;EQDQ01  00002PRCP99
0159616300999992000040115004+15650-013250FM-12+0017GOSM V0209999C000012200019N0120001N1+04251+01561100391ADDGA1031+069009019GF103991001001999999001021MA1999999100201MD1999999-0081REMSYN076AAXX  01154 61630 42962 30000 10425 20156 30020 40039 80002 333 59008 83073;
0224616300999992000040118004+15650-013250FM-12+0017GOSM V0209999C000010690019N0120001N1+04181+01651101262ADDAA199000091GA1061+069009019GF106991001001999999001021KA1120M+04351MA1999999100071MD1999999-0071REMSYN082AAXX  01184 61630 32962 60000 10418 20165 30007 40126 80002 333 10435 59007 86073;EQDQ01+101263APOSLPQ02  00002PRCP99
0177616300999992000040200004+15650-013250FM-12+0017GOSM V0209999C000012200019N0100001N1+03451+01311100521ADDAA199000091GA1001+999999999GF100991001001999999001001MA1999999100331MD1999999-0251REMSYN064AAXX  02004 61630 32960 00000 10345 20131 30033 40052 333 59025;EQDQ01  00002PRCP99
0147616300999992000040203004+15650-013250FM-12+0017GOSM V0209999C000012200019N0100001N1+02881+01121100951ADDGA1001+999999999GF100991001001999999001001MA1999999100761MD1999999-0061REMSYN064AAXX  02034 61630 42960 00000 10288 20112 30076 40095 333 59006;
0223616300999992000040206004+15650-013250FM-12+0017GOSM V0203601N002112200019N0100001N1+03051+01411100471ADDAA199000091GA1001+999999999GF100991001001999999001001IA2240+02609KA1120N+02951MA1999999100281OA150600411REMSYN088AAXX  02064 61630 32960 03604 10305 20141 30028 40047 333 02600 20295 50982 55084 59013;EQDQ01  00002PRCP99
0159616300999992000040209004+15650-013250FM-12+0017GOSM V0203601N002112200019N0120001N1+03191+01421100641ADDGA1021+069009019GF102991001001999999001021MA1999999100451MD1999999-0081REMSYN076AAXX  02094 61630 42962 23604 10319 20142 30045 40064 80002 333 59008 82073;
0189616300999992000040212004+15650-013250FM-12+0017GOSM V0203601N004112200019N0080001N1+04021+01761100651ADDAA199000091GA1041+069009019GF104991001001999999001011MA1999999100461MD1999999-0041REMSYN076AAXX  02124 61630 32958 43608 10402 20176 30046 40065 80001 333 59004 84073;EQDQ01  00002PRCP99
0147616300999992000040215004+15650-013250FM-12+0017GOSM V0203201N002112200019N0100001N1+04441+01671100411ADDGA1001+999999999GF100991001001999999001001MA1999999100221MD1999999+0021REMSYN064AAXX  02154 61630 42960 03204 10444 20167 30022 40041 333 58002;
0196616300999992000040218004+15650-013250FM-12+0017GOSM V0203201N002112200019N0100001N1+04201+01691100371ADDAA199000091GA1001+999999999GF100991001001999999001001KA1120M+04501MA1999999100181MD1999999+0111REMSYN070AAXX  02184 61630 32960 03204 10420 20169 30018 40037 333 10450 58011;EQDQ01  00002PRCP99
0147616300999992000040221004+15650-013250FM-12+0017GOSM V0203201N002112200019N0070001N1+03681+01551100531ADDGA1001+999999999GF100991001001999999001001MA1999999100341MD1999999+0171REMSYN064AAXX  02214 61630 42957 03204 10368 20155 30034 40053 333 58017;
0177616300999992000040300004+15650-013250FM-12+0017GOSM V0203201N004112200019N0070001N1+03361+01431100711ADDAA199000091GA1001+999999999GF100991001001999999001001MA1999999100521MD1999999+0191REMSYN064AAXX  03004 61630 32957 03208 10336 20143 30052 40071 333 58019;EQDQ01  00002PRCP99
0147616300999992000040303004+15650-013250FM-12+0017GOSM V0203201N002112200019N0070001N1+03341+01441100641ADDGA1001+999999999GF100991001001999999001001MA1999999100451MD1999999+0171REMSYN064AAXX  03034 61630 42957 03204 10334 20144 30045 40064 333 58017;
0223616300999992000040306004+15650-013250FM-12+0017GOSM V0203201N002112200019N0070001N1+02761+01311100691ADDAA199000091GA1001+999999999GF100991001001999999001001IA2240+02709KA1120N+02651MA1999999100501OA150600411REMSYN088AAXX  03064 61630 32957 03204 10276 20131 30050 40069 333 02700 20265 51152 55085 58022;EQDQ01  00002PRCP99
0159616300999992000040309004+15650-013250FM-12+0017GOSM V0203201N002112200019N0070001N1+02801+01431101001ADDGA1031+069009019GF103991001001999999001021MA1999999100811MD1999999+0361REMSYN076AAXX  03094 61630 42957 33204 10280 20143 30081 40100 80002 333 58036 83073;
0167616300999992000040311004+15650-013250FM-12+0017GOSM V0203201N003112200019N0070001N1+03401+01531101061ADDAA199000091GF103991001001999999001021MA1999999100871MD1999999+0411REMSYN070AAXX  03114 61630 32957 33206 10340 20153 30087 40106 80002 333 58041;EQDQ01  00002PRCP99
0189616300999992000040312004+15650-013250FM-12+0017GOSM V0203201N003112200019N0070001N1+03401+01531101061ADDAA199000091GA1031+069009019GF103991001001999999001021MA1999999100871MD1999999+0411REMSYN076AAXX  03124 61630 32957 33206 10340 20153 30087 40106 80002 333 58041 83073;EQDQ01  00002PRCP99
0159616300999992000040315004+15650-013250FM-12+0017GOSM V0203201N002112200019N0070001N1+03911+01571100781ADDGA1011+069009019GF101991001001999999001021MA1999999100591MD1999999+0371REMSYN076AAXX  03154 61630 42957 13204 10391 20157 30059 40078 80002 333 58037 81073;
0208616300999992000040318004+15650-013250FM-12+0017GOSM V0203201N002112200019N0070001N1+03811+01591100701ADDAA199000091GA1031+069009019GF103991001001999999001021KA1120M+03981MA1999999100511MD1999999+0331REMSYN082AAXX  03184 61630 32957 33204 10381 20159 30051 40070 80002 333 10398 58033 83073;EQDQ01  00002PRCP99
0177616300999992000040400004+15650-013250FM-12+0017GOSM V0203601N001012200019N0080001N1+03101+01271101181ADDAA199000091GA1001+999999999GF100991001001999999001001MA1999999100991MD1999999+0471REMSYN064AAXX  04004 61630 32958 03602 10310 20127 30099 40118 333 58047;EQDQ01  00002PRCP99
0147616300999992000040403004+15650-013250FM-12+0017GOSM V0209999C000012200019N0080001N1+02771+01121100911ADDGA1001+999999999GF100991001001999999001001MA1999999100721MD1999999+0271REMSYN064AAXX  04034 61630 42958 00000 10277 20112 30072 40091 333 58027;
0233616300999992000040406004+15650-013250FM-12+0017GOSM V0209999C000012200019N0080001N1+02511+01241101141ADDAA199000091GF101991001001999999001021IA2240+02109KA1120N+02421MA1999999100951MD1999999+0451OA150600511REMSYN100AAXX  04064 61630 32958 10000 10251 20124 30095 40114 80002 333 02100 20242 50112 55101 58045 81073;EQDQ01  00002PRCP99
0189616300999992000040412004+15650-013250FM-12+0017GOSM V0203201N001010390019N0100001N1+03551+01461101261ADDAA199000091GA1051+039009079GF105991051001999999031001MA1999999101071MD1999999+0201REMSYN076AAXX  04124 61630 32960 53202 10355 20146 30107 40126 85030 333 58020 85363;EQDQ01  00002PRCP99
0147616300999992000040415004+15650-013250FM-12+0017GOSM V0209999C000012200019N0100001N1+04081+01651100901ADDGA1001+999999999GF100991001001999999001001MA1999999100711MD1999999+0121REMSYN064AAXX  04154 61630 42960 00000 10408 20165 30071 40090 333 58012;
0196616300999992000040418004+15650-013250FM-12+0017GOSM V0209999C000012200019N0100001N1+03981+01521100791ADDAA199000091GA1001+999999999GF100991001001999999001001KA1120M+04111MA1999999100601MD1999999+0091REMSYN070AAXX  04184 61630 32960 00000 10398 20152 30060 40079 333 10411 58009;EQDQ01  00002PRCP99
0147616300999992000040421004+15650-013250FM-12+0017GOSM V0209999C000012200019N0100001N1+03411+01461100891ADDGA1001+999999999GF100991001001999999001001MA1999999100701MD1999999-0081REMSYN064AAXX  04214 61630 42960 00000 10341 20146 30070 40089 333 59008;
0177616300999992000040500004+15650-013250FM-12+0017GOSM V0203601N002112200019N0100001N1+03181+01291101051ADDAA199000091GA1001+999999999GF100991001001999999001001MA1999999100861MD1999999-0131REMSYN064AAXX  05004 61630 32960 03604 10318 20129 30086 40105 333 59013;EQDQ01  00002PRCP99
0147616300999992000040503004+15650-013250FM-12+0017GOSM V0209999C000012200019N0100001N1+02781+01201101011ADDGA1001+999999999GF100991001001999999001001MA1999999100821MD1999999-0121REMSYN064AAXX  05034 61630 42960 00000 10278 20120 30082 40101 333 59012;
0223616300999992000040506004+15650-013250FM-12+0017GOSM V0203201N001012200019N0100001N1+02691+01121100881ADDAA199000091GA1001+999999999GF100991001001999999001001IA2240+02209KA1120N+02571MA1999999100691OA150600511REMSYN088AAXX  05064 61630 32960 03202 10269 20112 30069 40088 333 02200 20257 50902 55102 59026;EQDQ01  00002PRCP99
0159616300999992000040509004+15650-013250FM-12+0017GOSM V0209999C000012200019N0100001N1+03011+01361101031ADDGA1031+039009079GF103991031001999999031001MA1999999100841MD1999999-0201REMSYN076AAXX  05094 61630 42960 30000 10301 20136 30084 40103 83030 333 59020 83363;
0208616300999992000040518004+15650-013250FM-12+0017GOSM V0209999C000012200019N0100001N1+04021+01671100621ADDAA199000091GA1031+039009079GF103991031001999999081001KA1120M+04201MA1999999100431MD1999999-0171REMSYN082AAXX  05184 61630 32960 30000 10402 20167 30043 40062 83080 333 10420 59017 83363;EQDQ01  00002PRCP99
0183616300999992000040600004+15650-013250FM-12+0017GOSM V0209999C000012200019N0100001N1+03161+01491100901ADDAA199000091GA1001+999999999GF100991001001999999001001MA1999999100711MD1999999-0151REMSYN070AAXX  06004 61630 32960 00000 10316 20149 30071 40090 333 0//00 59015;EQDQ01  00002PRCP99
0147616300999992000040603004+15650-013250FM-12+0017GOSM V0209999C000012200019N0100001N1+03141+01411100741ADDGA1001+999999999GF100991001001999999001001MA1999999100551MD1999999-0171REMSYN064AAXX  06034 61630 42960 00000 10314 20141 30055 40074 333 59017;
0223616300999992000040606004+15650-013250FM-12+0017GOSM V0209999C000012200019N0100001N1+02961+01101100661ADDAA199000091GA1001+999999999GF100991001001999999001001IA2240+02509KA1120N+02851MA1999999100471OA150600411REMSYN088AAXX  06064 61630 32960 00000 10296 20110 30047 40066 333 02500 20285 50952 55082 59022;EQDQ01  00002PRCP99
0159616300999992000040609004+15650-013250FM-12+0017GOSM V0209999C000012200019N0100001N1+03061+01201100941ADDGA1041+039009079GF104991041001999999081001MA1999999100751MD1999999-0091REMSYN076AAXX  06094 61630 42960 40000 10306 20120 30075 40094 84080 333 59009 84363;
0183616300999992000040612004+15650-013250FM-12+0017GOSM V0209999C000012200019N0100001N1+03701+01441100951ADDAA199000091GA1001+999999999GF100991001001999999001001MA1999999100761MD1999999-0111REMSYN070AAXX  06124 61630 32960 00000 10370 20144 30076 40095 333 0//00 59011;EQDQ01  00002PRCP99
0159616300999992000040615004+15650-013250FM-12+0017GOSM V0201601N001012200019N0120001N1+04121+01541100561ADDGA1041+069009019GF104991001001999999001021MA1999999100371MD1999999-0101REMSYN076AAXX  06154 61630 42962 41602 10412 20154 30037 40056 80002 333 59010 84073;
0208616300999992000040618004+15650-013250FM-12+0017GOSM V0209999C000012200019N0120001N1+04101+01711100461ADDAA199000091GA1011+039009079GF101991011001999999031001KA1120M+04231MA1999999100271MD1999999-0161REMSYN082AAXX  06184 61630 32962 10000 10410 20171 30027 40046 81030 333 10423 59016 81363;EQDQ01  00002PRCP99
0205616300999992000040621004+15650-013250FM-12+0017GOSM V0209999C000012200019N0100001N1+03501+01591100771ADDGA1011+009009099GA2031+069009009GF103991011031008001001021MA1999999100511MD1999999-0041MW1121REMSYN100AAXX  06214 61630 41560 30000 10350 20159 30051 40077 712// 81302 333 59004 81930 83073 94944 95814;
0235616300999992000040700004+15650-013250FM-12+0017GOSM V0209999C000012200019N0100001N1+03301+01401100851ADDAA199000091GA1011+009009099GA2031+039009039GF103991011031008001071001MA1999999100661MD1999999-0051MW1131REMSYN100AAXX  07004 61630 31560 30000 10330 20140 30066 40085 713// 81370 333 59005 81930 83363 94948 95838;EQDQ01  00002PRCP99
0159616300999992000040703004+15650-013250FM-12+0017GOSM V0203201N002110390019N0100001N1+03221+01461100771ADDGA1071+039009079GF107991071001999999071001MA1999999100581MD1999999+0031REMSYN076AAXX  07034 61630 42960 73204 10322 20146 30058 40077 87070 333 58003 87363;
0223616300999992000040706004+15650-013250FM-12+0017GOSM V0202201N005112200019N0070001N1+03061+02051100901ADDAA199000091GA1001+999999999GF100991001001999999001001IA2240+02409KA1120N+02981MA1999999100711OA150600511REMSYN088AAXX  07064 61630 32957 02210 10306 20205 30071 40090 333 02400 20298 51072 55101 58024;EQDQ01  00002PRCP99
0165616300999992000040709004+15650-013250FM-12+0017GOSM V0203201N003119999999N0100001N1+03221+02121101001ADDGA1011+039009039GF107991011001999999031021MA1999999100811MD1999999+0061REMSYN082AAXX  07094 61630 42960 73206 10322 20212 30081 40100 81032 333 58006 81363 86073;
0189616300999992000040712004+15650-013250FM-12+0017GOSM V0203601N006210690019N0060001N1+03701+01511100931ADDAA199000091GA1061+069009019GF106991001001999999001021MA1999999100741MD1999999-0021REMSYN076AAXX  07124 61630 32956 63612 10370 20151 30074 40093 80002 333 59002 86073;EQDQ01  00002PRCP99
0159616300999992000040715004+15650-013250FM-12+0017GOSM V0203201N005110690019N0060001N1+04091+01601100661ADDGA1061+069009019GF106991001001999999001021MA1999999100471MD1999999+0101REMSYN076AAXX  07154 61630 42956 63210 10409 20160 30047 40066 80002 333 58010 86073;
0208616300999992000040718004+15650-013250FM-12+0017GOSM V0203201N003112200019N0070001N1+04041+01481100571ADDAA199000091GA1031+039009079GF103991031001999999031001KA1120M+04201MA1999999100381MD1999999+0111REMSYN082AAXX  07184 61630 32957 33206 10404 20148 30038 40057 83030 333 10420 58011 83363;EQDQ01  00002PRCP99
0147616300999992000040721004+15650-013250FM-12+0017GOSM V0203201N001012200019N0070001N1+03491+01401100671ADDGA1001+999999999GF100991001001999999001001MA1999999100481MD1999999-0031REMSYN064AAXX  07214 61630 42957 03202 10349 20140 30048 40067 333 59003;
0177616300999992000040800004+15650-013250FM-12+0017GOSM V0203201N002112200019N0080001N1+03241+01261100761ADDAA199000091GA1001+999999999GF100991001001999999001001MA1999999100571MD1999999-0091REMSYN064AAXX  08004 61630 32958 03204 10324 20126 30057 40076 333 59009;EQDQ01  00002PRCP99
0147616300999992000040803004+15650-013250FM-12+0017GOSM V0209999C000012200019N0100001N1+03201+01421100791ADDGA1001+999999999GF100991001001999999001001MA1999999100601MD1999999+0041REMSYN064AAXX  08034 61630 42960 00000 10320 20142 30060 40079 333 58004;
0223616300999992000040806004+15650-013250FM-12+0017GOSM V0203201N003112200019N0080001N1+02621+01321100701ADDAA199000091GA1001+999999999GF100991001001999999001001IA2240+02809KA1120N+02541MA1999999100511OA150600411REMSYN088AAXX  08064 61630 32958 03206 10262 20132 30051 40070 333 02800 20254 51172 55088 59007;EQDQ01  00002PRCP99
0147616300999992000040809004+15650-013250FM-12+0017GOSM V0203201N003112200019N0080001N1+02801+01541100871ADDGA1001+999999999GF100991001001999999001001MA1999999100681MD1999999-0131REMSYN064AAXX  08094 61630 42958 03206 10280 20154 30068 40087 333 59013;
0177616300999992000040812004+15650-013250FM-12+0017GOSM V0200401N002112200019N0080001N1+03761+01651100801ADDAA199000091GA1001+999999999GF100991001001999999001001MA1999999100611MD1999999-0131REMSYN064AAXX  08124 61630 32958 00404 10376 20165 30061 40080 333 59013;EQDQ01  00002PRCP99
0147616300999992000040815004+15650-013250FM-12+0017GOSM V0203201N003112200019N0100001N1+04341+01821100591ADDGA1001+999999999GF100991001001999999001001MA1999999100401MD1999999-0071REMSYN064AAXX  08154 61630 42960 03206 10434 20182 30040 40059 333 59007;
0196616300999992000040818004+15650-013250FM-12+0017GOSM V0203201N002112200019N0100001N1+04241+01661100501ADDAA199000091GA1001+999999999GF100991001001999999001001KA1120M+04401MA1999999100311MD1999999-0071REMSYN070AAXX  08184 61630 32960 03204 10424 20166 30031 40050 333 10440 59007;EQDQ01  00002PRCP99
0147616300999992000040821004+15650-013250FM-12+0017GOSM V0209999C000012200019N0100001N1+03661+01521100601ADDGA1001+999999999GF100991001001999999001001MA1999999100411MD1999999-0071REMSYN064AAXX  08214 61630 42960 00000 10366 20152 30041 40060 333 59007;
0183616300999992000040900004+15650-013250FM-12+0017GOSM V0209999C000012200019N0100001N1+03341+01441100771ADDAA199000091GA1001+999999999GF100991001001999999001001MA1999999100581MD1999999+0011REMSYN070AAXX  09004 61630 32960 00000 10334 20144 30058 40077 333 0//00 58001;EQDQ01  00002PRCP99
0147616300999992000040903004+15650-013250FM-12+0017GOSM V0209999C000012200019N0100001N1+03081+01371100641ADDGA1001+999999999GF100991001001999999001001MA1999999100451MD1999999-0061REMSYN064AAXX  09034 61630 42960 00000 10308 20137 30045 40064 333 59006;
0223616300999992000040906004+15650-013250FM-12+0017GOSM V0209999C000012200019N0100001N1+02841+01251100601ADDAA199000091GA1001+999999999GF100991001001999999001001IA2240+02309KA1120N+02751MA1999999100411OA150600461REMSYN088AAXX  09064 61630 32960 00000 10284 20125 30041 40060 333 02300 20275 51052 55090 59010;EQDQ01  00002PRCP99
0147616300999992000040909004+15650-013250FM-12+0017GOSM V0203201N002112200019N0080001N1+03061+01321100841ADDGA1001+999999999GF100991001001999999001001MA1999999100651MD1999999-0031REMSYN064AAXX  09094 61630 42958 03204 10306 20132 30065 40084 333 59003;
0183616300999992000040912004+15650-013250FM-12+0017GOSM V0203201N002112200019N0080001N1+03821+01721100871ADDAA199000091GA1001+999999999GF100991001001999999001001MA1999999100681MD1999999+0071REMSYN070AAXX  09124 61630 32958 03204 10382 20172 30068 40087 333 0//00 58007;EQDQ01  00002PRCP99
0147616300999992000040915004+15650-013250FM-12+0017GOSM V0203201N003112200019N0100001N1+04451+01881100411ADDGA1001+999999999GF100991001001999999001001MA1999999100221MD1999999-0181REMSYN064AAXX  09154 61630 42960 03206 10445 20188 30022 40041 333 59018;
0177616300999992000041000004+15650-013250FM-12+0017GOSM V0203601N002112200019N0100001N1+03331+01271100741ADDAA199000091GA1001+999999999GF100991001001999999001001MA1999999100551MD1999999-0031REMSYN064AAXX  10004 61630 32960 03604 10333 20127 30055 40074 333 59003;EQDQ01  00002PRCP99
0223616300999992000041006004+15650-013250FM-12+0017GOSM V0203601N001012200019N0100001N1+02801+01101100611ADDAA199000091GA1001+999999999GF100991001001999999001001IA2240+02409KA1120N+02701MA1999999100421OA150600511REMSYN088AAXX  10064 61630 32960 03602 10280 20110 30042 40061 333 02400 20270 51162 55104 58001;EQDQ01  00002PRCP99
0159616300999992000041009004+15650-013250FM-12+0017GOSM V0203601N001012200019N0100001N1+03091+01251100781ADDGA1011+039009079GF101991011001999999031001MA1999999100591MD1999999-0061REMSYN076AAXX  10094 61630 42960 13602 10309 20125 30059 40078 81030 333 59006 81363;
0189616300999992000041012004+15650-013250FM-12+0017GOSM V0200601N004112200019N0100001N1+04101+01501100771ADDAA199000091GA1011+039009079GF101991011001999999031001MA1999999100581MD1999999-0101REMSYN076AAXX  10124 61630 32960 10608 10410 20150 30058 40077 81030 333 59010 81363;EQDQ01  00002PRCP99
0147616300999992000041015004+15650-013250FM-12+0017GOSM V0201001N003112200019N0100001N1+04351+01491100481ADDGA1001+999999999GF100991001001999999001001MA1999999100291MD1999999+0071REMSYN064AAXX  10154 61630 42960 01006 10435 20149 30029 40048 333 58007;
0208616300999992000041018004+15650-013250FM-12+0017GOSM V0202201N002112200019N0100001N1+04301+01621100441ADDAA199000091GA1031+039009079GF103991031001999999031001KA1120M+04521MA1999999100251MD1999999+0101REMSYN082AAXX  10184 61630 32960 32204 10430 20162 30025 40044 83030 333 10452 58010 83363;EQDQ01  00002PRCP99
0159616300999992000041021004+15650-013250FM-12+0017GOSM V0209999C000010390019N0100001N1+03901+01461100571ADDGA1061+039009079GF106991061001999999031001MA1999999100381MD1999999+0011REMSYN076AAXX  10214 61630 42960 60000 10390 20146 30038 40057 86030 333 58001 86363;
0189616300999992000041100004+15650-013250FM-12+0017GOSM V0203201N002112200019N0100001N1+03341+01231100741ADDAA199000091GA1021+039009079GF102991021001999999031001MA1999999100551MD1999999+0001REMSYN076AAXX  11004 61630 32960 23204 10334 20123 30055 40074 82030 333 58000 82363;EQDQ01  00002PRCP99
0147616300999992000041103004+15650-013250FM-12+0017GOSM V0209999C000012200019N0100001N1+03201+01101100561ADDGA1001+999999999GF100991001001999999001001MA1999999100371MD1999999-0061REMSYN064AAXX  11034 61630 42960 00000 10320 20110 30037 40056 333 59006;
0223616300999992000041106004+15650-013250FM-12+0017GOSM V0203201N002112200019N0100001N1+02761+01201100721ADDAA199000091GA1001+999999999GF100991001001999999001001IA2240+02409KA1120N+02661MA1999999100531OA150600511REMSYN088AAXX  11064 61630 32960 03204 10276 20120 30053 40072 333 02400 20266 51122 55104 58000;EQDQ01  00002PRCP99
0159616300999992000041109004+15650-013250FM-12+0017GOSM V0209999C000010690019N0100001N1+03101+01121100821ADDGA1051+069009019GF105991001001999999001021MA1999999100631MD1999999+0041REMSYN076AAXX  11094 61630 42960 50000 10310 20112 30063 40082 80002 333 58004 85073;
0189616300999992000041112004+15650-013250FM-12+0017GOSM V0201001N003110690019N0120001N1+04151+01561100851ADDAA199000091GA1051+069009019GF105991001001999999001021MA1999999100661MD1999999+0081REMSYN076AAXX  11124 61630 32962 51006 10415 20156 30066 40085 80002 333 58008 85073;EQDQ01  00002PRCP99
0159616300999992000041115004+15650-013250FM-12+0017GOSM V0203201N002112200019N0100001N1+04461+01741100521ADDGA1041+069009019GF104991001001999999001021MA1999999100331MD1999999+0041REMSYN076AAXX  11154 61630 42960 43204 10446 20174 30033 40052 80002 333 58004 84073;
0208616300999992000041118004+15650-013250FM-12+0017GOSM V0209999C000012200019N0100001N1+04301+01671999999ADDAA199000091GA1031+069009019GF103991001001999999001021KA1120M+04501MA1999999100231MD1010421-0021REMSYN082AAXX  11184 61630 32960 30000 10430 20167 30023 50042 80002 333 10450 59002 83073;EQDQ01  00002PRCP99
0223616300999992000041206004+15650-013250FM-12+0017GOSM V0203201N002112200019N0100001N1+02881+00861100631ADDAA199000091GA1001+999999999GF100991001001999999001001IA2240+02409KA1120N+02751MA1999999100441OA150600461REMSYN088AAXX  12064 61630 32960 03204 10288 20086 30044 40063 333 02400 20275 51092 55093 59009;EQDQ01  00002PRCP99
0159616300999992000041209004+15650-013250FM-12+0017GOSM V0203201N002112200019N0100001N1+03161+01111100921ADDGA1041+069009019GF104991001001999999001021MA1999999100731MD1999999+0101REMSYN076AAXX  12094 61630 42960 43204 10316 20111 30073 40092 80002 333 58010 84073;
0195616300999992000041212004+15650-013250FM-12+0017GOSM V0203201N004112200019N0100001N1+03901+01341100981ADDAA199000091GA1041+069009019GF104991001001999999001021MA1999999100791MD1999999+0131REMSYN082AAXX  12124 61630 32960 43208 10390 20134 30079 40098 80002 333 0//00 58013 84073;EQDQ01  00002PRCP99
0208616300999992000041218004+15650-013250FM-12+0017GOSM V0209999C000012200019N0100001N1+04181+01371100441ADDAA199000091GA1011+069009019GF101991001001999999001021KA1120M+04321MA1999999100251MD1999999+0021REMSYN082AAXX  12184 61630 32960 10000 10418 20137 30025 40044 80002 333 10432 58002 81073;EQDQ01  00002PRCP99
0147616300999992000041221004+15650-013250FM-12+0017GOSM V0209999C000012200019N0100001N1+03411+01291100651ADDGA1001+999999999GF100991001001999999001001MA1999999100461MD1999999-0021REMSYN064AAXX  12214 61630 42960 00000 10341 20129 30046 40065 333 59002;
0177616300999992000041300004+15650-013250FM-12+0017GOSM V0209999C000012200019N0100001N1+03021+01141100771ADDAA199000091GA1001+999999999GF100991001001999999001001MA1999999100581MD1999999-0021REMSYN064AAXX  13004 61630 32960 00000 10302 20114 30058 40077 333 59002;EQDQ01  00002PRCP99
0223616300999992000041306004+15650-013250FM-12+0017GOSM V0209999C000012200019N0100001N1+02621+00971100761ADDAA199000091GA1001+999999999GF100991001001999999001001IA2240+02509KA1120N+02481MA1999999100571OA150600511REMSYN088AAXX  13064 61630 32960 00000 10262 20097 30057 40076 333 02500 20248 51062 55104 58013;EQDQ01  00002PRCP99
0147616300999992000041309004+15650-013250FM-12+0017GOSM V0203201N001012200019N0120001N1+03041+01121100841ADDGA1001+999999999GF100991001001999999001001MA1999999100651MD1999999-0081REMSYN064AAXX  13094 61630 42962 03202 10304 20112 30065 40084 333 59008;
0177616300999992000041312004+15650-013250FM-12+0017GOSM V0203201N001012200019N0120001N1+04141+01271100871ADDAA199000091GA1001+999999999GF100991001001999999001001MA1999999100681MD1999999-0111REMSYN064AAXX  13124 61630 32962 03202 10414 20127 30068 40087 333 59011;EQDQ01  00002PRCP99
0147616300999992000041315004+15650-013250FM-12+0017GOSM V0203201N002112200019N0120001N1+04451+01531100631ADDGA1001+999999999GF100991001001999999001001MA1999999100441MD1999999+0191REMSYN064AAXX  13154 61630 42962 03204 10445 20153 30044 40063 333 58019;
0208616300999992000041318004+15650-013250FM-12+0017GOSM V0203201N001012200019N0120001N1+04271+01621100481ADDAA199000091GA1041+069009019GF104991001001999999001021KA1120M+04471MA1999999100291MD1999999+0041REMSYN082AAXX  13184 61630 32962 43202 10427 20162 30029 40048 80002 333 10447 58004 84073;EQDQ01  00002PRCP99
0177616300999992000041400004+15650-013250FM-12+0017GOSM V0203601N002112200019N0100001N1+03421+01231100761ADDAA199000091GA1001+999999999GF100991001001999999001001MA1999999100571MD1999999-0011REMSYN064AAXX  14004 61630 32960 03604 10342 20123 30057 40076 333 59001;EQDQ01  00002PRCP99
0147616300999992000041403004+15650-013250FM-12+0017GOSM V0203401N002112200019N0100001N1+02681+00981100621ADDGA1001+999999999GF100991001001999999001001MA1999999100431MD1999999+0041REMSYN064AAXX  14034 61630 42960 03404 10268 20098 30043 40062 333 58004;
0223616300999992000041406004+15650-013250FM-12+0017GOSM V0209999C000012200019N0100001N1+02521+00971100761ADDAA199000091GA1001+999999999GF100991001001999999001001IA2240+02509KA1120N+02421MA1999999100571OA150600511REMSYN088AAXX  14064 61630 32960 00000 10252 20097 30057 40076 333 02500 20242 51062 55104 58013;EQDQ01  00002PRCP99
0147616300999992000041409004+15650-013250FM-12+0017GOSM V0203601N001012200019N0100001N1+03401+01321100921ADDGA1001+999999999GF100991001001999999001001MA1999999100731MD1999999+0081REMSYN064AAXX  14094 61630 42960 03602 10340 20132 30073 40092 333 58008;
0147616300999992000041415004+15650-013250FM-12+0017GOSM V0201401N004112200019N0100001N1+04541+01691100581ADDGA1001+999999999GF100991001001999999001001MA1999999100391MD1999999-0051REMSYN064AAXX  14154 61630 42960 01408 10454 20169 30039 40058 333 59005;
0196616300999992000041418004+15650-013250FM-12+0017GOSM V0209999C000012200019N0100001N1+04381+01611100441ADDAA199000091GA1001+999999999GF100991001001999999001001KA1120M+04551MA1999999100251MD1999999-0041REMSYN070AAXX  14184 61630 32960 00000 10438 20161 30025 40044 333 10455 59004;EQDQ01  00002PRCP99
0147616300999992000041421004+15650-013250FM-12+0017GOSM V0209999C000012200019N0100001N1+03701+01451100621ADDGA1001+999999999GF100991001001999999001001MA1999999100431MD1999999-0031REMSYN064AAXX  14214 61630 42960 00000 10370 20145 30043 40062 333 59003;
0183616300999992000041500004+15650-013250FM-12+0017GOSM V0209999C000012200019N0100001N1+03461+01301100911ADDAA199000091GA1001+999999999GF100991001001999999001001MA1999999100721MD1999999+0151REMSYN070AAXX  15004 61630 32960 00000 10346 20130 30072 40091 333 0//00 58015;EQDQ01  00002PRCP99
0147616300999992000041503004+15650-013250FM-12+0017GOSM V0209999C000012200019N0100001N1+03101+01221100591ADDGA1001+999999999GF100991001001999999001001MA1999999100401MD1999999-0091REMSYN064AAXX  15034 61630 42960 00000 10310 20122 30040 40059 333 59009;
0223616300999992000041506004+15650-013250FM-12+0017GOSM V0209999C000012200019N0100001N1+02901+01381100541ADDAA199000091GA1001+999999999GF100991001001999999001001IA2240+02709KA1120N+02721MA1999999100351OA150600461REMSYN088AAXX  15064 61630 32960 00000 10290 20138 30035 40054 333 02700 20272 51172 55099 59020;EQDQ01  00002PRCP99
0147616300999992000041509004+15650-013250FM-12+0017GOSM V0201601N002112200019N0100001N1+03301+01531100821ADDGA1001+999999999GF100991001001999999001001MA1999999100631MD1999999-0101REMSYN064AAXX  15094 61630 42960 01604 10330 20153 30063 40082 333 59010;
0183616300999992000041512004+15650-013250FM-12+0017GOSM V0201801N002112200019N0100001N1+03861+01321100871ADDAA199000091GA1001+999999999GF100991001001999999001001MA1999999100681MD1999999-0021REMSYN070AAXX  15124 61630 32960 01804 10386 20132 30068 40087 333 0//00 59002;EQDQ01  00002PRCP99
0147616300999992000041515004+15650-013250FM-12+0017GOSM V0200801N004112200019N0120001N1+04201+01381100621ADDGA1001+999999999GF100991001001999999001001MA1999999100431MD1999999+0081REMSYN064AAXX  15154 61630 42962 00808 10420 20138 30043 40062 333 58008;
0196616300999992000041518004+15650-013250FM-12+0017GOSM V0209999C000012200019N0100001N1+04181+01541100471ADDAA199000091GA1001+999999999GF100991001001999999001001KA1120M+04291MA1999999100281MD1999999+0031REMSYN070AAXX  15184 61630 32960 00000 10418 20154 30028 40047 333 10429 58003;EQDQ01  00002PRCP99
0177616300999992000041600004+15650-013250FM-12+0017GOSM V0209999C000012200019N0100001N1+03201+01181100871ADDAA199000091GA1001+999999999GF100991001001999999001001MA1999999100681MD1999999+0121REMSYN064AAXX  16004 61630 32960 00000 10320 20118 30068 40087 333 58012;EQDQ01  00002PRCP99
0147616300999992000041603004+15650-013250FM-12+0017GOSM V0203601N004112200019N0080001N1+03101+01021100671ADDGA1001+999999999GF100991001001999999001001MA1999999100481MD1999999+0081REMSYN064AAXX  16034 61630 42958 03608 10310 20102 30048 40067 333 58008;
0223616300999992000041606004+15650-013250FM-12+0017GOSM V0209999C000012200019N0080001N1+02911+01301100801ADDAA199000091GA1001+999999999GF100991001001999999001001IA2240+02609KA1120N+02821MA1999999100611OA150600461REMSYN088AAXX  16064 61630 32958 00000 10291 20130 30061 40080 333 02600 20282 51192 55094 58026;EQDQ01  00002PRCP99
0159616300999992000041609004+15650-013250FM-12+0017GOSM V0200401N005110690019N0080001N1+03191+01401100891ADDGA1051+069009019GF105991001001999999001021MA1999999100701MD1999999+0071REMSYN076AAXX  16094 61630 42958 50410 10319 20140 30070 40089 80002 333 58007 85073;
0189616300999992000041612004+15650-013250FM-12+0017GOSM V0200601N002110690019N0080001N1+04061+01511100841ADDAA199000091GA1051+069009019GF105991001001999999001021MA1999999100651MD1999999-0031REMSYN076AAXX  16124 61630 32958 50604 10406 20151 30065 40084 80002 333 59003 85073;EQDQ01  00002PRCP99
0159616300999992000041615004+15650-013250FM-12+0017GOSM V0201001N003112200019N0100001N1+04401+01601100531ADDGA1031+069009019GF103991001001999999001021MA1999999100341MD1999999+0091REMSYN076AAXX  16154 61630 42960 31006 10440 20160 30034 40053 80002 333 58009 83073;
0208616300999992000041618004+15650-013250FM-12+0017GOSM V0201001N005110690019N0100001N1+04111+01541100431ADDAA199000091GA1061+069009019GF106991001001999999001021KA1120M+04451MA1999999100241MD1999999-0041REMSYN082AAXX  16184 61630 32960 61010 10411 20154 30024 40043 80002 333 10445 59004 86073;EQDQ01  00002PRCP99
0159616300999992000041621004+15650-013250FM-12+0017GOSM V0209999C000010690019N0100001N1+03581+01461100641ADDGA1061+069009019GF106991001001999999001021MA1999999100451MD1999999+0121REMSYN076AAXX  16214 61630 42960 60000 10358 20146 30045 40064 80002 333 58012 86073;
0189616300999992000041700004+15650-013250FM-12+0017GOSM V0209999C000012200019N0100001N1+03401+01351100751ADDAA199000091GA1021+069009019GF102991001001999999001021MA1999999100561MD1999999-0121REMSYN076AAXX  17004 61630 32960 20000 10340 20135 30056 40075 80002 333 59012 82073;EQDQ01  00002PRCP99
0147616300999992000041703004+15650-013250FM-12+0017GOSM V0203201N002112200019N0100001N1+03201+01301100791ADDGA1001+999999999GF100991001001999999001001MA1999999100601MD1999999-0041REMSYN064AAXX  17034 61630 42960 03204 10320 20130 30060 40079 333 59004;
0223616300999992000041706004+15650-013250FM-12+0017GOSM V0209999C000012200019N0100001N1+02921+01301100801ADDAA199000091GA1001+999999999GF100991001001999999001001IA2240+02609KA1120N+02821MA1999999100611OA150600461REMSYN088AAXX  17064 61630 32960 00000 10292 20130 30061 40080 333 02600 20282 51192 55094 58026;EQDQ01  00002PRCP99
0195616300999992000041712004+15650-013250FM-12+0017GOSM V0201001N003110690019N0100001N1+03901+01571100941ADDAA199000091GA1061+069009019GF106991001001999999001021MA1999999100751MD1999999+0101REMSYN082AAXX  17124 61630 32960 61006 10390 20157 30075 40094 80002 333 0//00 58010 86073;EQDQ01  00002PRCP99
0159616300999992000041715004+15650-013250FM-12+0017GOSM V0209999C000010690019N0060001N1+04261+01831100671ADDGA1051+069009019GF105991001001999999001021MA1999999100481MD1999999+0141REMSYN076AAXX  17154 61630 42956 50000 10426 20183 30048 40067 80002 333 58014 85073;
0208616300999992000041718004+15650-013250FM-12+0017GOSM V0209999C000010690019N0060001N1+04201+01691100491ADDAA199000091GA1051+069009019GF105991001001999999001021KA1120M+04451MA1999999100301MD1999999+0061REMSYN082AAXX  17184 61630 32956 50000 10420 20169 30030 40049 80002 333 10445 58006 85073;EQDQ01  00002PRCP99
0183616300999992000041800004+15650-013250FM-12+0017GOSM V0209999C000012200019N0060001N1+03581+01441100791ADDAA199000091GA1001+999999999GF100991001001999999001001MA1999999100601MD1999999+0041REMSYN070AAXX  18004 61630 32956 00000 10358 20144 30060 40079 333 0//00 58004;EQDQ01  00002PRCP99
0147616300999992000041803004+15650-013250FM-12+0017GOSM V0209999C000012200019N0060001N1+03081+01281100641ADDGA1001+999999999GF100991001001999999001001MA1999999100451MD1999999+0051REMSYN064AAXX  18034 61630 42956 00000 10308 20128 30045 40064 333 58005;
0223616300999992000041806004+15650-013250FM-12+0017GOSM V0209999C000012200019N0060001N1+03061+01051100741ADDAA199000091GA1001+999999999GF100991001001999999001001IA2240+02509KA1120N+02901MA1999999100551OA150600361REMSYN088AAXX  18064 61630 32956 00000 10306 20105 30055 40074 333 02500 20290 51032 55070 58000;EQDQ01  00002PRCP99
0159616300999992000041809004+15650-013250FM-12+0017GOSM V0202801N004110690019N0060001N1+03171+01971101031ADDGA1051+069009019GF105991001001999999001021MA1999999100841MD1999999+0121REMSYN076AAXX  18094 61630 42956 52808 10317 20197 30084 40103 80002 333 58012 85073;
0195616300999992000041812004+15650-013250FM-12+0017GOSM V0209999C000010690019N0060001N1+03721+01861101081ADDAA199000091GA1051+069009019GF105991001001999999001021MA1999999100891MD1999999+0141REMSYN082AAXX  18124 61630 32956 50000 10372 20186 30089 40108 80002 333 0//00 58014 85073;EQDQ01  00002PRCP99
0159616300999992000041815004+15650-013250FM-12+0017GOSM V0201601N002110690019N0070001N1+04091+01821100681ADDGA1061+069009019GF106991001001999999001021MA1999999100491MD1999999+0011REMSYN076AAXX  18154 61630 42957 61604 10409 20182 30049 40068 80002 333 58001 86073;
0208616300999992000041818004+15650-013250FM-12+0017GOSM V0201601N001010690019N0070001N1+03991+01691100581ADDAA199000091GA1051+069009019GF105991001001999999001021KA1120M+04131MA1999999100391MD1999999+0091REMSYN082AAXX  18184 61630 32957 51602 10399 20169 30039 40058 80002 333 10413 58009 85073;EQDQ01  00002PRCP99
0159616300999992000041821004+15650-013250FM-12+0017GOSM V0209999C000012200019N0080001N1+03601+01561100761ADDGA1041+069009019GF104991001001999999001021MA1999999100571MD1999999+0171REMSYN076AAXX  18214 61630 42958 40000 10360 20156 30057 40076 80002 333 58017 84073;
0189616300999992000041900004+15650-013250FM-12+0017GOSM V0209999C000012200019N0080001N1+03181+01641100821ADDAA199000091GA1031+069009019GF103991001001999999001021MA1999999100631MD1999999+0031REMSYN076AAXX  19004 61630 32958 30000 10318 20164 30063 40082 80002 333 58003 83073;EQDQ01  00002PRCP99
0165616300999992000041903004+15650-013250FM-12+0017GOSM V0209999C000012200019N0080001N1+02981+01441100701ADDGA1011+039009039GF103991011001999999031021MA1999999100511MD1999999+0061REMSYN082AAXX  19034 61630 42958 30000 10298 20144 30051 40070 81032 333 58006 81363 83073;
0223616300999992000041906004+15650-013250FM-12+0017GOSM V0209999C000012200019N0080001N1+02891+01551100821ADDAA199000091GA1001+999999999GF100991001001999999001001IA2240+02809KA1120N+02801MA1999999100631OA150600361REMSYN088AAXX  19064 61630 32958 00000 10289 20155 30063 40082 333 02800 20280 51022 55078 58008;EQDQ01  00002PRCP99
0147616300999992000041909004+15650-013250FM-12+0017GOSM V0203001N002112200019N0080001N1+03221+01571101021ADDGA1001+999999999GF100991001001999999001001MA1999999100831MD1999999-0011REMSYN064AAXX  19094 61630 42958 03004 10322 20157 30083 40102 333 59001;
0195616300999992000041912004+15650-013250FM-12+0017GOSM V0201401N006212200019N0070001N1+04031+01231100921ADDAA199000091GA1011+039009039GF103991011001999999031021MA1999999100731MD1999999-0161REMSYN082AAXX  19124 61630 32957 31412 10403 20123 30073 40092 81032 333 59016 81363 83073;EQDQ01  00002PRCP99
0159616300999992000041915004+15650-013250FM-12+0017GOSM V0201001N004110390019N0070001N1+04351+01361100581ADDGA1051+039009079GF105991051001999999031001MA1999999100391MD1999999-0101REMSYN076AAXX  19154 61630 42957 51008 10435 20136 30039 40058 85030 333 59010 85363;
0208616300999992000041918004+15650-013250FM-12+0017GOSM V0201001N004110390019N0080001N1+04071+01481100651ADDAA199000091GA1071+039009079GF107991071001999999071001KA1120M+04451MA1999999100481MD1999999+0071REMSYN082AAXX  19184 61630 32958 71008 10407 20148 30048 40065 87070 333 10445 58007 87363;EQDQ01  00002PRCP99
0159616300999992000041921004+15650-013250FM-12+0017GOSM V0209999C000010390019N0080001N1+03721+01281100751ADDGA1071+039009079GF107991071001999999071001MA1999999100561MD1999999-0011REMSYN076AAXX  19214 61630 42958 70000 10372 20128 30056 40075 87070 333 59001 87363;
0189616300999992000042000004+15650-013250FM-12+0017GOSM V0209999C000010390019N0080001N1+03301+01211100931ADDAA199000091GA1061+039009079GF106991061001999999071001MA1999999100741MD1999999+0131REMSYN076AAXX  20004 61630 32958 60000 10330 20121 30074 40093 86070 333 58013 86363;EQDQ01  00002PRCP99
0159616300999992000042003004+15650-013250FM-12+0017GOSM V0209999C000010390019N0100001N1+02981+01481100701ADDGA1051+039009079GF105991051001999999071001MA1999999100521MD1999999+0041REMSYN076AAXX  20034 61630 42960 50000 10298 20148 30052 40070 85070 333 58004 85363;
0233616300999992000042006004+15650-013250FM-12+0017GOSM V0202801N003119999999N0080001N1+02981+01471100891ADDAA199000091GF106991061001999999071001IA2240+02609KA1120N+02861MA1999999100701MD1999999+0071OA150600361REMSYN100AAXX  20064 61630 32958 62806 10298 20147 30070 40089 86070 333 02600 20286 50782 55070 58007 86363;EQDQ01  00002PRCP99
0159616300999992000042009004+15650-013250FM-12+0017GOSM V02099999999990390019N0080001N1+03171+01571101021ADDGA1051+039009079GF106991051001999999071001MA1999999100831MD1999999-0031REMSYN076AAXX  20094 61630 42958 63806 10317 20157 30083 40102 85070 333 59003 85363;
0189616300999992000042012004+15650-013250FM-12+0017GOSM V0201801N001012200019N0100001N1+03751+01571101091ADDAA199000091GA1041+039009079GF104991041001999999031001MA1999999100901MD1999999+0171REMSYN076AAXX  20124 61630 32960 41802 10375 20157 30090 40109 84030 333 58017 84363;EQDQ01  00002PRCP99
0208616300999992000042018004+15650-013250FM-12+0017GOSM V0209999C000012200019N0080001N1+03901+01241100741ADDAA199000091GA1041+039009079GF104991041001999999081001KA1120M+04151MA1999999100551MD1999999+0091REMSYN082AAXX  20184 61630 32958 40000 10390 20124 30055 40074 84080 333 10415 58009 84363;EQDQ01  00002PRCP99
0159616300999992000042021004+15650-013250FM-12+0017GOSM V0209999C000010690019N0080001N1+03501+01171100891ADDGA1051+069009019GF105991001001999999001021MA1999999100701MD1999999+0141REMSYN076AAXX  20214 61630 42958 50000 10350 20117 30070 40089 80002 333 58014 85073;
0233616300999992000042106004+15650-013250FM-12+0017GOSM V0209999C000019999999N0080001N1+03141+01031100851ADDAA199000091GF105991001001999999001021IA2240+02609KA1120N+03021MA1999999100661MD1999999-0041OA150600261REMSYN100AAXX  21064 61630 32958 50000 10314 20103 30066 40085 80002 333 02600 20302 51052 55054 59004 85073;EQDQ01  00002PRCP99
0159616300999992000042109004+15650-013250FM-12+0017GOSM V0209999C000012200019N0100001N1+03401+01201101021ADDGA1041+039009079GF104991041001999999081001MA1999999100831MD1999999-0061REMSYN076AAXX  21094 61630 42960 40000 10340 20120 30083 40102 84080 333 59006 84363;
0189616300999992000042112004+15650-013250FM-12+0017GOSM V0201401N004112200019N0080001N1+04021+01241101091ADDAA199000091GA1021+039009079GF102991021001999999081001MA1999999100821MD1999999-0081REMSYN076AAXX  21124 61630 32958 21408 10402 20124 30082 40109 82080 333 59008 82363;EQDQ01  00002PRCP99
0159616300999992000042115004+15650-013250FM-12+0017GOSM V0200801N002112200019N0080001N1+04351+01611100731ADDGA1031+039009079GF103991031001999999031001MA1999999100541MD1999999-0041REMSYN076AAXX  21154 61630 42958 30804 10435 20161 30054 40073 83030 333 59004 83363;
0208616300999992000042118004+15650-013250FM-12+0017GOSM V0200801N002112200019N0080001N1+04141+01611100731ADDAA199000091GA1041+039009079GF104991041001999999031001KA1120M+04401MA1999999100541MD1999999-0011REMSYN082AAXX  21184 61630 31958 40804 10414 20161 30054 40073 84030 333 10440 59001 84363;EQDQ01  00002PRCP99
0189616300999992000042200004+15650-013250FM-12+0017GOSM V0202201N002110390019N0080001N1+03401+01231101051ADDAA199000091GA1071+039009079GF107991071001999999071001MA1999999100861MD1999999+0071REMSYN076AAXX  22004 61630 32958 72204 10340 20123 30086 40105 87070 333 58007 87363;EQDQ01  00002PRCP99
0159616300999992000042203004+15650-013250FM-12+0017GOSM V0209999C000010390019N0080001N1+03211+01171100891ADDGA1071+039009079GF107991071001999999031001MA1999999100701MD1999999+0061REMSYN076AAXX  22034 61630 42958 70000 10321 20117 30070 40089 87030 333 58006 87363;
0233616300999992000042206004+15650-013250FM-12+0017GOSM V0209999C000019999999N0080001N1+02881+01021101011ADDAA199000091GF107991071001999999031001IA2240+02809KA1120N+02801MA1999999100821MD1999999+0161OA150600411REMSYN100AAXX  22064 61630 32958 70000 10288 20102 30082 40101 87030 333 02800 20280 51222 55085 58016 87363;EQDQ01  00002PRCP99
0159616300999992000042209004+15650-013250FM-12+0017GOSM V0209999C000010390019N0080001N1+03211+01261101111ADDGA1071+039009079GF107991071001999999071999MA1999999100921MD1999999+0091REMSYN076AAXX  22094 61630 42958 70000 10321 20126 30092 40111 8707/ 333 58009 87363;
0159616300999992000042215004+15650-013250FM-12+0017GOSM V0201001N004110390019N0080001N1+04251+01561100791ADDGA1051+039009079GF105991051001999999031001MA1999999100601MD1999999+0061REMSYN076AAXX  22154 61630 42958 51008 10425 20156 30060 40079 85030 333 58006 85363;
0208616300999992000042218004+15650-013250FM-12+0017GOSM V0200401N005110390019N0070001N1+03881+01361100761ADDAA199000091GA1071+039009079GF107991071001999999071001KA1120M+04281MA1999999100571MD1999999+0041REMSYN082AAXX  22184 61630 32957 70410 10388 20136 30057 40076 87070 333 10428 58004 87363;EQDQ01  00002PRCP99
0159616300999992000042221004+15650-013250FM-12+0017GOSM V0209999C000010390019N0080001N1+03381+01341100871ADDGA1061+039009079GF106991061001999999071001MA1999999100681MD1999999-0071REMSYN076AAXX  22214 61630 42958 60000 10338 20134 30068 40087 86070 333 59007 86363;
0189616300999992000042300004+15650-013250FM-12+0017GOSM V0203601N001012200019N0080001N1+03111+01281100971ADDAA199000091GA1031+039009079GF103991031001999999031001MA1999999100781MD1999999-0081REMSYN076AAXX  23004 61630 32958 33602 10311 20128 30078 40097 83030 333 59008 83363;EQDQ01  00002PRCP99
0159616300999992000042303004+15650-013250FM-12+0017GOSM V0209999C000012200019N0100001N1+03001+01171100911ADDGA1031+039009079GF103991031001999999031001MA1999999100721MD1999999-0061REMSYN076AAXX  23034 61630 42960 30000 10300 20117 30072 40091 83030 333 59006 83363;
0159616300999992000042309004+15650-013250FM-12+0017GOSM V0209999C000012200019N0100001N1+03091+01361100991ADDGA1021+039009079GF102991021001999999031001MA1999999100801MD1999999-0121REMSYN076AAXX  23094 61630 42960 20000 10309 20136 30080 40099 82030 333 59012 82363;
0189616300999992000042312004+15650-013250FM-12+0017GOSM V0201401N004112200019N0100001N1+04131+01431100951ADDAA199000091GA1011+039009079GF101991011001999999031001MA1999999100761MD1999999-0141REMSYN076AAXX  23124 61630 32960 11408 10413 20143 30076 40095 81030 333 59014 81363;EQDQ01  00002PRCP99
0147616300999992000042315004+15650-013250FM-12+0017GOSM V0209999C000012200019N0100001N1+04381+01561100651ADDGA1001+999999999GF100991001001999999001001MA1999999100461MD1999999-0141REMSYN064AAXX  23154 61630 42960 00000 10438 20156 30046 40065 333 59014;
0196616300999992000042318004+15650-013250FM-12+0017GOSM V0209999C000012200019N0100001N1+04301+01531100561ADDAA199000091GA1001+999999999GF100991001001999999001001KA1120M+04421MA1999999100371MD1999999-0201REMSYN070AAXX  23184 61630 32960 00000 10430 20153 30037 40056 333 10442 59020;EQDQ01  00002PRCP99
0147616300999992000042321004+15650-013250FM-12+0017GOSM V0209999C000012200019N0100001N1+03401+01301100671ADDGA1001+999999999GF100991001001999999001001MA1999999100481MD1999999-0021REMSYN064AAXX  23214 61630 42960 00000 10340 20130 30048 40067 333 59002;
0177616300999992000042400004+15650-013250FM-12+0017GOSM V0209999C000012200019N0100001N1+03161+01211100801ADDAA199000091GA1001+999999999GF100991001001999999001001MA1999999100611MD1999999-0171REMSYN064AAXX  24004 61630 32960 00000 10316 20121 30061 40080 333 59017;EQDQ01  00002PRCP99
0147616300999992000042403004+15650-013250FM-12+0017GOSM V0209999C000012200019N0100001N1+02761+00981999999ADDGA1001+999999999GF100991001001999999001001MA1999999100501MD1999999-0161REMSYN064AAXX  24034 61630 42960 00000 10276 20098 30050 40906 333 59016;
0223616300999992000042406004+15650-013250FM-12+0017GOSM V0209999C000012200019N0100001N1+02521+00871100661ADDAA199000091GA1001+999999999GF100991001001999999001001IA2240+02409KA1120N+02401MA1999999100471OA150600511REMSYN088AAXX  24064 61630 32960 00000 10252 20087 30047 40066 333 02400 20240 50982 55100 59021;EQDQ01  00002PRCP99
0147616300999992000042409004+15650-013250FM-12+0017GOSM V0202201N004112200019N0100001N1+03001+01601100971ADDGA1001+999999999GF100991001001999999001001MA1999999100781MD1999999-0021REMSYN064AAXX  24094 61630 42960 02208 10300 20160 30078 40097 333 59002;
0147616300999992000042415004+15650-013250FM-12+0017GOSM V0209999C000012200019N0100001N1+04351+01661100561ADDGA1001+999999999GF100991001001999999001001MA1999999100371MD1999999-0091REMSYN064AAXX  24154 61630 42960 00000 10435 20166 30037 40056 333 59009;
0208616300999992000042418004+15650-013250FM-12+0017GOSM V0209999C000012200019N0120001N1+04191+01651100521ADDAA199000091GA1041+039009079GF104991041001999999081001KA1120M+04391MA1999999100331MD1999999-0041REMSYN082AAXX  24184 61630 32962 40000 10419 20165 30033 40052 84080 333 10439 59004 84363;EQDQ01  00002PRCP99
0159616300999992000042421004+15650-013250FM-12+0017GOSM V0209999C000012200019N0100001N1+03421+01261100681ADDGA1021+039009079GF102991021001999999081001MA1999999100491MD1999999+0011REMSYN076AAXX  24214 61630 42960 20000 10342 20126 30049 40068 82080 333 58001 82363;
0177616300999992000042500004+15650-013250FM-12+0017GOSM V0209999C000012200019N0100001N1+03101+01071100771ADDAA199000091GA1001+999999999GF100991001001999999001001MA1999999100581MD1999999-0031REMSYN064AAXX  25004 61630 32960 00000 10310 20107 30058 40077 333 59003;EQDQ01  00002PRCP99
0159616300999992000042503004+15650-013250FM-12+0017GOSM V0209999C000010390019N0100001N1+02981+01191100701ADDGA1071+039009079GF107991071001999999081999MA1999999100511MD1999999+0011REMSYN076AAXX  25034 61630 42960 70000 10298 20119 30051 40070 8708/ 333 58001 87363;
0223616300999992000042506004+15650-013250FM-12+0017GOSM V0202401N004112200019N0100001N1+02901+01311100851ADDAA199000091GA1001+999999999GF100991001001999999001001IA2240+02109KA1120N+02781MA1999999100661OA150600461REMSYN088AAXX  25064 61630 32960 02408 10290 20131 30066 40085 333 02100 20278 50992 55095 58016;EQDQ01  00002PRCP99
0165616300999992000042509004+15650-013250FM-12+0017GOSM V0202401N004119999999N0100001N1+03031+01581100941ADDGA1031+039009039GF107991031001999999031021MA1999999100751MD1999999-0031REMSYN082AAXX  25094 61630 42960 72408 10303 20158 30075 40094 83032 333 59003 83363 84073;
0195616300999992000042512004+15650-013250FM-12+0017GOSM V02099999999999999999N0100001N1+03581+01751100971ADDAA199000091GA1021+039009039GF106991021001999999031021MA1999999100781MD1999999+0021REMSYN082AAXX  25124 61630 32960 64410 10358 20175 30078 40097 82032 333 58002 82363 84073;EQDQ01  00002PRCP99
0159616300999992000042515004+15650-013250FM-12+0017GOSM V02099999999990690019N0100001N1+04111+01641100681ADDGA1051+069009019GF105991001001999999001021MA1999999100491MD1999999+0121REMSYN076AAXX  25154 61630 42960 58802 10411 20164 30049 40068 80002 333 58012 85073;
0208616300999992000042518004+15650-013250FM-12+0017GOSM V0202401N001010390019N0100001N1+04051+01491100571ADDAA199000091GA1071+039009079GF107991071001999999071001KA1120M+04221MA1999999100381MD1999999+0051REMSYN082AAXX  25184 61630 32960 72402 10405 20149 30038 40057 87070 333 10422 58005 87363;EQDQ01  00002PRCP99
0177616300999992000042600004+15650-013250FM-12+0017GOSM V0209999C000012200019N0100001N1+03161+01351100851ADDAA199000091GA1001+999999999GF100991001001999999001001MA1999999100661MD1999999+0081REMSYN064AAXX  26004 61630 32960 00000 10316 20135 30066 40085 333 58008;EQDQ01  00002PRCP99
0189616300999992000042603004+15650-013250FM-12+0017GOSM V0203201N002110390019N0100001N1+03161+01771100821ADDAA199000091GA1051+039009079GF105991051001999999071001MA1999999100631MD1999999+0121REMSYN076AAXX  26034 61630 32960 53204 10316 20177 30063 40082 85070 333 58012 85363;EQDQ01  00002PRCP99
0227616300999992000042606004+15650-013250FM-12+0017GOSM V0209999C000019999999N0100001N1+02901+01311100851ADDAA199000091GF106991999999999999999999IA2240+02609KA1120N+02801MA1999999100661MD1999999+0071OA150600461REMSYN094AAXX  26064 61630 32960 60000 10290 20131 30066 40085 333 02600 20280 50992 55091 58007 86363;EQDQ01  00002PRCP99
0159616300999992000042609004+15650-013250FM-12+0017GOSM V0203201N003110390019N0100001N1+03021+01481101001ADDGA1071+039009079GF107991071001999999071001MA1999999100811MD1999999+0061REMSYN076AAXX  26094 61630 42960 73206 10302 20148 30081 40100 87070 333 58006 87363;
0189616300999992000042612004+15650-013250FM-12+0017GOSM V0202801N003112200019N0120001N1+03801+01641100981ADDAA199000091GA1031+135009079GF103991031001999999031001MA1999999100791MD1999999+0011REMSYN076AAXX  26124 61630 32962 32806 10380 20164 30079 40098 83030 333 58001 83383;EQDQ01  00002PRCP99
0159616300999992000042615004+15650-013250FM-12+0017GOSM V0209999C000012200019N0100001N1+04281+01811100741ADDGA1041+039009079GF104991041001999999081001MA1999999100551MD1999999+0061REMSYN076AAXX  26154 61630 42960 40000 10428 20181 30055 40074 84080 333 58006 84363;
0159616300999992000042621004+15650-013250FM-12+0017GOSM V0209999C000012200019N0100001N1+03621+01591100701ADDGA1041+039009079GF104991041001999999081001MA1999999100511MD1999999+0011REMSYN076AAXX  26214 61630 42960 40000 10362 20159 30051 40070 84080 333 58001 84363;
0177616300999992000042700004+15650-013250FM-12+0017GOSM V0209999C000012200019N0100001N1+03441+01541100821ADDAA199000091GA1001+999999999GF100991001001999999001001MA1999999100631MD1999999-0031REMSYN064AAXX  27004 61630 32960 00000 10344 20154 30063 40082 333 59003;EQDQ01  00002PRCP99
0147616300999992000042703004+15650-013250FM-12+0017GOSM V0209999C000012200019N0100001N1+03201+01621100731ADDGA1001+999999999GF100991001001999999001001MA1999999100541MD1999999-0091REMSYN064AAXX  27034 61630 42960 00000 10320 20162 30054 40073 333 59009;
0147616300999992000042709004+15650-013250FM-12+0017GOSM V0209999C000012200019N0100001N1+03121+01761100911ADDGA1001+999999999GF100991001001999999001001MA1999999100721MD1999999-0091REMSYN064AAXX  27094 61630 42960 00000 10312 20176 30072 40091 333 59009;
0183616300999992000042712004+15650-013250FM-12+0017GOSM V0209999C000012200019N0100001N1+04021+01921100901ADDAA199000091GA1001+999999999GF100991001001999999001001MA1999999100711MD1999999-0081REMSYN070AAXX  27124 61630 32960 00000 10402 20192 30071 40090 333 0//00 59008;EQDQ01  00002PRCP99
0147616300999992000042715004+15650-013250FM-12+0017GOSM V0200801N002112200019N0100001N1+04571+01511100541ADDGA1001+999999999GF100991001001999999001001MA1999999100351MD1999999-0201REMSYN064AAXX  27154 61630 42960 00804 10457 20151 30035 40054 333 59020;
0196616300999992000042718004+15650-013250FM-12+0017GOSM V0200801N002112200019N0100001N1+04361+01761100411ADDAA199000091GA1001+999999999GF100991001001999999001001KA1120M+04611MA1999999100221MD1999999-0161REMSYN070AAXX  27184 61630 32960 00804 10436 20176 30022 40041 333 10461 59016;EQDQ01  00002PRCP99
0189616300999992000042800004+15650-013250FM-12+0017GOSM V0200401N002112200019N0040001N1+03621+01591100781ADDAA199000091GA1001+999999999GF100991001001999999001001MA1999999100591MD1999999-0041MW1061REMSYN070AAXX  28004 61630 31940 00404 10362 20159 30059 40078 706// 333 59004;EQDQ01  00002PRCP99
0147616300999992000042803004+15650-013250FM-12+0017GOSM V0200401N001012200019N0080001N1+03301+01471100741ADDGA1001+999999999GF100991001001999999001001MA1999999100551MD1999999+0011REMSYN064AAXX  28034 61630 42958 00402 10330 20147 30055 40074 333 58001;
0223616300999992000042806004+15650-013250FM-12+0017GOSM V0209999C000012200019N0080001N1+02811+01321100811ADDAA199000091GA1001+999999999GF100991001001999999001001IA2240+02609KA1120N+02721MA1999999100621OA150600261REMSYN088AAXX  28064 61630 32958 00000 10281 20132 30062 40081 333 02600 20272 51152 55051 58008;EQDQ01  00002PRCP99
0147616300999992000042821004+15650-013250FM-12+0017GOSM V0202801N002112200019N0100001N1+03491+01201100741ADDGA1001+999999999GF100991001001999999001001MA1999999100551MD1999999+0101REMSYN064AAXX  28214 61630 42960 02804 10349 20120 30055 40074 333 58010;
0223616300999992000042906004+15650-013250FM-12+0017GOSM V0209999C000012200019N0100001N1+02841+01321100811ADDAA199000091GA1001+999999999GF100991001001999999001001IA2240+02609KA1120N+02621MA1999999100621OA150600261REMSYN088AAXX  29064 61630 32960 00000 10284 20132 30062 40081 333 02600 20262 51152 55051 58008;EQDQ01  00002PRCP99
0147616300999992000042909004+15650-013250FM-12+0017GOSM V0209999C000012200019N0100001N1+03031+01321100931ADDGA1001+999999999GF100991001001999999001001MA1999999100741MD1999999+0031REMSYN064AAXX  29094 61630 42960 00000 10303 20132 30074 40093 333 58003;
0147616300999992000042915004+15650-013250FM-12+0017GOSM V0201801N004112200019N0100001N1+04301+01531100741ADDGA1001+999999999GF100991001001999999001001MA1999999100551MD1999999+0061REMSYN064AAXX  29154 61630 42960 01808 10430 20153 30055 40074 333 58006;
0196616300999992000042918004+15650-013250FM-12+0017GOSM V0209999C000012200019N0100001N1+04241+01211100591ADDAA199000091GA1001+999999999GF100991001001999999001001KA1120M+04361MA1999999100401MD1999999+0081REMSYN070AAXX  29184 61630 32960 00000 10424 20121 30040 40059 333 10436 58008;EQDQ01  00002PRCP99
0183616300999992000043000004+15650-013250FM-12+0017GOSM V0209999C000012200019N0100001N1+03201+01581100951ADDAA199000091GA1001+999999999GF100991001001999999001001MA1999999100761MD1999999+0101REMSYN070AAXX  30004 61630 32960 00000 10320 20158 30076 40095 333 0//00 58010;EQDQ01  00002PRCP99
0223616300999992000043006004+15650-013250FM-12+0017GOSM V0209999C000012200019N0100001N1+02641+00501100841ADDAA199000091GA1001+999999999GF100991001001999999001001IA2240+02409KA1120N+02521MA1999999100651OA150600461REMSYN088AAXX  30064 61630 32960 00000 10264 20050 30065 40084 333 02400 20252 51072 55099 58009;EQDQ01  00002PRCP99
0147616300999992000043009004+15650-013250FM-12+0017GOSM V0200401N002112200019N0100001N1+03021+00711101051ADDGA1001+999999999GF100991001001999999001001MA1999999100861MD1999999+0121REMSYN064AAXX  30094 61630 42960 00404 10302 20071 30086 40105 333 58012;
0159616300999992000043011004+15650-013250FM-12+0017GOSM V0203601N002112200019N0100001N1+04222+01311100831ADDGA1041+069009019GF104991001001999999001021MA1999999100631MD1999999+0081REMSYN076AAXX  30114 61630 42960 43604 10422 20131 30063 40083 80002 333 58008 84073;
0195616300999992000043012004+15650-013250FM-12+0017GOSM V0200401N002112200019N0100001N1+03761+01201101141ADDAA199000091GA1031+069009019GF103991001001999999001021MA1999999100951MD1999999+0131REMSYN082AAXX  30124 61630 32960 30404 10376 20120 30095 40114 80002 333 0//00 58013 83073;EQDQ01  00002PRCP99
0196616300999992000043018004+15650-013250FM-12+0017GOSM V0203601N002112200019N0100001N1+04121+00921100751ADDAA199000091GA1001+999999999GF100991001001999999001001KA1120M+04361MA1999999100561MD1999999+0161REMSYN070AAXX  30184 61630 32960 03604 10412 20092 30056 40075 333 10436 58016;EQDQ01  00002PRCP99
0147616300999992000043021004+15650-013250FM-12+0017GOSM V0203601N001012200019N0100001N1+03511+00831100961ADDGA1001+999999999GF100991001001999999001001MA1999999100771MD1999999+0171REMSYN064AAXX  30214 61630 42960 03602 10351 20083 30077 40096 333 58017;
0223616300999992000050106004+15650-013250FM-12+0017GOSM V0209999C000012200019N0100001N1+02611+00421101031ADDAA199000091GA1001+999999999GF100991001001999999001001IA2240+02309KA1120N+02511MA1999999100841OA150600411REMSYN088AAXX  01064 61630 32960 00000 10261 20042 30084 40103 333 02300 20251 51192 55087 58019;EQDQ01  00002PRCP99
0141616300999992000050109004+15650-013250FM-12+0017GOSM V0203601N003112200019N0100001N1+02981+99999101061ADDGA1001+999999999GF100991001001999999001001MA1999999100871MD1999999+0011REMSYN058AAXX  01094 61630 42960 03606 10298 30087 40106 333 58001;
0183616300999992000050112004+15650-013250FM-12+0017GOSM V0200201N001012200019N0100001N1+03681+00921101061ADDAA199000091GA1001+999999999GF100991001001999999001001MA1999999100871MD1999999-0081REMSYN070AAXX  01124 61630 32960 00202 10368 20092 30087 40106 333 0//00 59008;EQDQ01  00002PRCP99
0147616300999992000050115004+15650-013250FM-12+0017GOSM V0209999C000012200019N0120001N1+04001+00691100771ADDGA1001+999999999GF100991001001999999001001MA1999999100581MD1999999-0051REMSYN064AAXX  01154 61630 42962 00000 10400 20069 30058 40077 333 59005;
0196616300999992000050118004+15650-013250FM-12+0017GOSM V0203001N010312200019N0120001N1+04001+00721100661ADDAA199000091GA1001+999999999GF100991001001999999001001KA1120M+04181MA1999999100471MD1999999-0091REMSYN070AAXX  01184 61630 32962 03020 10400 20072 30047 40066 333 10418 59009;EQDQ01  00002PRCP99
0147616300999992000050121004+15650-013250FM-12+0017GOSM V0209999C000012200019N0100001N1+03411+00561100751ADDGA1001+999999999GF100991001001999999001001MA1999999100561MD1999999-0211REMSYN064AAXX  01214 61630 42960 00000 10341 20056 30056 40075 333 59021;
0183616300999992000050200004+15650-013250FM-12+0017GOSM V0203201N001012200019N0100001N1+02951+00781100911ADDAA199000091GA1001+999999999GF100991001001999999001001MA1999999100721MD1999999-0191REMSYN070AAXX  02004 61630 32960 03202 10295 20078 30072 40091 333 0//00 59019;EQDQ01  00002PRCP99
0147616300999992000050203004+15650-013250FM-12+0017GOSM V0209999C000012200019N0100001N1+02781+00761100981ADDGA1001+999999999GF100991001001999999001001MA1999999100791MD1999999-0071REMSYN064AAXX  02034 61630 42960 00000 10278 20076 30079 40098 333 59007;
0233616300999992000050206004+15650-013250FM-12+0017GOSM V0203201N002112200019N0100001N1+02481+00911100771ADDAA199000091GF103991001001999999001021IA2240+02209KA1120N+02401MA1999999100581MD1999999-0261OA150600461REMSYN100AAXX  02064 61630 32960 33204 10248 20091 30058 40077 80002 333 02200 20240 51052 55096 59026 83073;EQDQ01  00002PRCP99
0159616300999992000050209004+15650-013250FM-12+0017GOSM V0200801N002112200019N0100001N1+02721+01211100971ADDGA1031+069009019GF103991001001999999001021MA1999999100781MD1999999-0091REMSYN076AAXX  02094 61630 42960 30804 10272 20121 30078 40097 80002 333 59009 83073;
0195616300999992000050212004+15650-013250FM-12+0017GOSM V0200801N001012200019N0120001N1+03501+01171100951ADDAA199000091GA1041+069009019GF104991001001999999001021MA1999999100621MD1999999-0111REMSYN082AAXX  02124 61630 32962 40802 10350 20117 30062 40095 80002 333 0//00 59011 84073;EQDQ01  00002PRCP99
0159616300999992000050215004+15650-013250FM-12+0017GOSM V0202601N001012200019N0100001N1+03981+00881100591ADDGA1011+069009019GF101991001001999999001021MA1999999100401MD1999999-0181REMSYN076AAXX  02154 61630 42960 12602 10398 20088 30040 40059 80002 333 59018 81073;
0196616300999992000050218004+15650-013250FM-12+0017GOSM V0203201N004112200019N0100001N1+03921+00881100581ADDAA199000091GA1001+999999999GF100991001001999999001001KA1120M+04161MA1999999100391MD1999999-0081REMSYN070AAXX  02184 61630 32960 03208 10392 20088 30039 40058 333 10416 59008;EQDQ01  00002PRCP99
0147616300999992000050221004+15650-013250FM-12+0017GOSM V0209999C000012200019N0100001N1+03401+01001100821ADDGA1001+999999999GF100991001001999999001001MA1999999100621MD1999999+0071REMSYN064AAXX  02214 61630 42960 00000 10340 20100 30062 40082 333 58007;
0177616300999992000050300004+15650-013250FM-12+0017GOSM V0209999C000012200019N0100001N1+03101+00911100901ADDAA199000091GA1001+999999999GF100991001001999999001001MA1999999100711MD1999999-0011REMSYN064AAXX  03004 61630 32960 00000 10310 20091 30071 40090 333 59001;EQDQ01  00002PRCP99
0147616300999992000050303004+15650-013250FM-12+0017GOSM V0203201N002112200019N0100001N1+02901+01051100841ADDGA1001+999999999GF100991001001999999001001MA1999999100651MD1999999+0001REMSYN064AAXX  03034 61630 42960 03204 10290 20105 30065 40084 333 58000;
0223616300999992000050306004+15650-013250FM-12+0017GOSM V0209999C000012200019N0100001N1+02641+01141100871ADDAA199000091GA1001+999999999GF100991001001999999001001IA2240+02209KA1120N+02521MA1999999100681OA150600461REMSYN088AAXX  03064 61630 32960 00000 10264 20114 30068 40087 333 02200 20252 50722 55095 58010;EQDQ01  00002PRCP99
0159616300999992000050309004+15650-013250FM-12+0017GOSM V0203201N003110690019N0100001N1+02761+01181101051ADDGA1051+069009019GF105991001001999999001021MA1999999100861MD1999999+0081REMSYN076AAXX  03094 61630 42960 53206 10276 20118 30086 40105 80002 333 58008 85073;
0207616300999992000050312004+15650-013250FM-12+0017GOSM V0209999C000010690019N0100001N1+03361+01281101161ADDAA199000091GA1051+069009019GF105991001001999999001021IA2240+00009MA1999999100971MD1999999+0211REMSYN082AAXX  03124 61630 32960 50000 10336 20128 30097 40116 80002 333 00000 58021 85073;EQDQ01  00002PRCP99
0208616300999992000050318004+15650-013250FM-12+0017GOSM V0203201N001010390019N0100001N1+03791+01121100751ADDAA199000091GA1061+039009079GF106991061001999999071021KA1120M+03931MA1999999100561MD1999999+0171REMSYN082AAXX  03184 61630 32960 63202 10379 20112 30056 40075 86072 333 10393 58017 86363;EQDQ01  00002PRCP99
0147616300999992000050321004+15650-013250FM-12+0017GOSM V0209999C000012200019N0100001N1+03321+01221101051ADDGA1001+999999999GF100991001001999999001001MA1999999100861MD1999999+0231REMSYN064AAXX  03214 61630 42960 00000 10332 20122 30086 40105 333 58023;
0177616300999992000050400004+15650-013250FM-12+0017GOSM V0203601N003112200019N0100001N1+03081+01091101281ADDAA199000091GA1001+999999999GF100991001001999999001001MA1999999101091MD1999999+0381REMSYN064AAXX  04004 61630 32960 03606 10308 20109 30109 40128 333 58038;EQDQ01  00002PRCP99
0166616300999992000050403004+15650-013250FM-12+0017GOSM V0203601N004112200019N0100001N1+02951+01001101882ADDGA1001+999999999GF100991001001999999001001MA1999999100991MD1999999+0341REMSYN064AAXX  04034 61630 42960 03608 10295 20100 30099 40188 333 58034;EQDQ01+101883APOSLP
0249616300999992000050406004+15650-013250FM-12+0017GOSM V0203201N001012200019N0100001N1+02721+01451101132ADDAA199000091GF104991041001999999031001IA2240+02209KA1120N+02621MA1999999100941MD1999999+0261OA150600411REMSYN100AAXX  04064 61630 32960 43202 10272 20145 30094 40113 84030 333 02200 20262 51052 55082 58026 84363;EQDQ01+101133APOSLPQ02  00002PRCP99
0159616300999992000050409004+15650-013250FM-12+0017GOSM V0200401N002110390019N0100001N1+02981+01611101381ADDGA1051+039009079GF105991051001999999071001MA1999999101191MD1999999+0331REMSYN076AAXX  04094 61630 42960 50404 10298 20161 30119 40138 85070 333 58033 85363;
0189616300999992000050412004+15650-013250FM-12+0017GOSM V0203201N002112200019N0100001N1+03661+01431101281ADDAA199000091GA1011+039009079GF101991011001999999031001MA1999999101091MD1999999+0121REMSYN076AAXX  04124 61630 32960 13204 10366 20143 30109 40128 81030 333 58012 81363;EQDQ01  00002PRCP99
0147616300999992000050415004+15650-013250FM-12+0017GOSM V0203201N001012200019N0100001N1+04021+01491101031ADDGA1001+999999999GF100991001001999999001001MA1999999100841MD1999999+0231REMSYN064AAXX  04154 61630 42960 03202 10402 20149 30084 40103 333 58023;
0208616300999992000050418004+15650-013250FM-12+0017GOSM V0203601N001012200019N0100001N1+04001+01361100751ADDAA199000091GA1031+069009019GF103991001001999999001021KA1120M+04101MA1999999100561MD1999999+0001REMSYN082AAXX  04184 61630 32960 33602 10400 20136 30056 40075 80002 333 10410 58000 83073;EQDQ01  00002PRCP99
0147616300999992000050421004+15650-013250FM-12+0017GOSM V0203601N002112200019N0100001N1+03401+01301100901ADDGA1001+999999999GF100991001001999999001001MA1999999100711MD1999999-0151REMSYN064AAXX  04214 61630 42960 03604 10340 20130 30071 40090 333 59015;
0177616300999992000050500004+15650-013250FM-12+0017GOSM V0203201N002112200019N0100001N1+03021+01261101041ADDAA199000091GA1001+999999999GF100991001001999999001001MA1999999100851MD1999999-0241REMSYN064AAXX  05004 61630 32960 03204 10302 20126 30085 40104 333 59024;EQDQ01  00002PRCP99
0147616300999992000050503004+15650-013250FM-12+0017GOSM V0203201N003112200019N0100001N1+02841+01001101181ADDGA1001+999999999GF100991001001999999001001MA1999999100991MD1999999-0081REMSYN064AAXX  05034 61630 42960 03206 10284 20100 30099 40118 333 59008;
0233616300999992000050506004+15650-013250FM-12+0017GOSM V0203201N002112200019N0100001N1+02601+00961100911ADDAA199000091GF101991001001999999001021IA2240+02309KA1120N+02501MA1999999100721MD1999999-0221OA150600461REMSYN100AAXX  05064 61630 32960 13204 10260 20096 30072 40091 80002 333 02300 20250 50972 55095 59022 81073;EQDQ01  00002PRCP99
0147616300999992000050509004+15650-013250FM-12+0017GOSM V0203201N002112200019N0100001N1+03081+01091101031ADDGA1001+999999999GF100991001001999999001001MA1999999100841MD1999999-0351REMSYN064AAXX  05094 61630 42960 03204 10308 20109 30084 40103 333 59035;
0183616300999992000050512004+15650-013250FM-12+0017GOSM V0203601N001012200019N0120001N1+03971+01461101001ADDAA199000091GA1001+999999999GF100991001001999999001001MA1999999100811MD1999999-0281REMSYN070AAXX  05124 61630 32962 03602 10397 20146 30081 40100 333 0//00 59028;EQDQ01  00002PRCP99
0147616300999992000050515004+15650-013250FM-12+0017GOSM V0209999C000012200019N0100001N1+04401+01691100671ADDGA1001+999999999GF100991001001999999001001MA1999999100471MD1999999-0371REMSYN064AAXX  05154 61630 42960 00000 10440 20169 30047 40067 333 59037;
0196616300999992000050518004+15650-013250FM-12+0017GOSM V0209999C000012200019N0100001N1+04341+01641100561ADDAA199000091GA1001+999999999GF100991001001999999001001KA1120M+04451MA1999999100371MD1999999-0191REMSYN070AAXX  05184 61630 32960 00000 10434 20164 30037 40056 333 10445 59019;EQDQ01  00002PRCP99
0105616300999992000050521004+15650-013250FM-12+0017GOSM V0209999C000019999999N0100001N1+03761+01451100601ADDMA1999999100411MD1999999-0301REMSYN064AAXX  05214 61630 42960 /0000 10376 20145 30041 40060 333 59030;
0183616300999992000050600004+15650-013250FM-12+0017GOSM V0200401N004112200019N0100001N1+03761+01301100861ADDAA199000091GA1001+999999999GF100991001001999999001001MA1999999100671MD1999999-0181REMSYN070AAXX  06004 61630 32960 00408 10376 20130 30067 40086 333 0//00 59018;EQDQ01  00002PRCP99
0223616300999992000050606004+15650-013250FM-12+0017GOSM V0200401N002112200019N0100001N1+02921+01031100701ADDAA199000091GA1001+999999999GF100991001001999999001001IA2240+02209KA1120N+02821MA1999999100511OA150600511REMSYN088AAXX  06064 61630 32960 00404 10292 20103 30051 40070 333 02200 20282 51152 55100 59021;EQDQ01  00002PRCP99
0159616300999992000050609004+15650-013250FM-12+0017GOSM V0200401N002110690019N0100001N1+03201+01371100921ADDGA1051+069009019GF105991001001999999001021MA1999999100731MD1999999-0111REMSYN076AAXX  06094 61630 42960 50404 10320 20137 30073 40092 80002 333 59011 85073;
0189616300999992000050612004+15650-013250FM-12+0017GOSM V0200801N003110690019N0100001N1+04061+01551100981ADDAA199000091GA1051+069009019GF105991001001999999001021MA1999999100791MD1999999-0021REMSYN076AAXX  06124 61630 32960 50806 10406 20155 30079 40098 80002 333 59002 85073;EQDQ01  00002PRCP99
0159616300999992000050615004+15650-013250FM-12+0017GOSM V0200601N005110690019N0100001N1+04401+01691100581ADDGA1061+069009019GF106991001001999999001021MA1999999100391MD1999999-0081REMSYN076AAXX  06154 61630 42960 60610 10440 20169 30039 40058 80002 333 59008 86073;
0208616300999992000050618004+15650-013250FM-12+0017GOSM V0200601N003110690019N0100001N1+04201+01631100391ADDAA199000091GA1061+069009019GF106991001001999999001021KA1120M+04461MA1999999100201MD1999999-0171REMSYN082AAXX  06184 61630 32960 60606 10420 20163 30020 40039 80002 333 10446 59017 86073;EQDQ01  00002PRCP99
0159616300999992000050621004+15650-013250FM-12+0017GOSM V0200401N002112200019N0100001N1+03701+01451100541ADDGA1021+069009019GF102991001001999999001021MA1999999100351MD1999999-0061REMSYN076AAXX  06214 61630 42960 20404 10370 20145 30035 40054 80002 333 59006 82073;
0177616300999992000050700004+15650-013250FM-12+0017GOSM V0209999C000012200019N0100001N1+03321+01171100761ADDAA199000091GA1001+999999999GF100991001001999999001001MA1999999100571MD1999999-0101REMSYN064AAXX  07004 61630 32960 00000 10332 20117 30057 40076 333 59010;EQDQ01  00002PRCP99
0147616300999992000050703004+15650-013250FM-12+0017GOSM V0203201N002112200019N0100001N1+03081+01091100671ADDGA1001+999999999GF100991001001999999001001MA1999999100481MD1999999-0051REMSYN064AAXX  07034 61630 42960 03204 10308 20109 30048 40067 333 59005;
0223616300999992000050706004+15650-013250FM-12+0017GOSM V0203201N002112200019N0100001N1+02881+01101100711ADDAA199000091GA1001+999999999GF100991001001999999001001IA2240+02409KA1120N+02781MA1999999100521OA150600411REMSYN088AAXX  07064 61630 32960 03204 10288 20110 30052 40071 333 02400 20278 51092 55085 59001;EQDQ01  00002PRCP99
0159616300999992000050709004+15650-013250FM-12+0017GOSM V0200201N003110390019N0100001N1+03201+01131100811ADDGA1071+039009079GF107991071001999999031001MA1999999100621MD1999999-0111REMSYN076AAXX  07094 61630 42960 70206 10320 20113 30062 40081 87030 333 59011 87363;
0147616300999992000050715004+15650-013250FM-12+0017GOSM V0201001N001012200019N0100001N1+04461+01651100551ADDGA1001+999999999GF100991001001999999001001MA1999999100361MD1999999-0031REMSYN064AAXX  07154 61630 42960 01002 10446 20165 30036 40055 333 59003;
0196616300999992000050718004+15650-013250FM-12+0017GOSM V0209999C000012200019N0100001N1+04381+01591100431ADDAA199000091GA1001+999999999GF100991001001999999001001KA1120M+04491MA1999999100241MD1999999+0041REMSYN070AAXX  07184 61630 32960 00000 10438 20159 30024 40043 333 10449 58004;EQDQ01  00002PRCP99
0147616300999992000050721004+15650-013250FM-12+0017GOSM V0209999C000012200019N0100001N1+03841+01531100541ADDGA1001+999999999GF100991001001999999001001MA1999999100351MD1999999+0001REMSYN064AAXX  07214 61630 42960 00000 10384 20153 30035 40054 333 58000;
0177616300999992000050800004+15650-013250FM-12+0017GOSM V0203201N001012200019N0100001N1+03591+01241100671ADDAA199000091GA1001+999999999GF100991001001999999001001MA1999999100481MD1999999-0091REMSYN064AAXX  08004 61630 32960 03202 10359 20124 30048 40067 333 59009;EQDQ01  00002PRCP99
0147616300999992000050803004+15650-013250FM-12+0017GOSM V0203601N001012200019N0100001N1+03301+01101100611ADDGA1001+999999999GF100991001001999999001001MA1999999100421MD1999999+0041REMSYN064AAXX  08034 61630 42960 03602 10330 20110 30042 40061 333 58004;
0223616300999992000050806004+15650-013250FM-12+0017GOSM V0202601N001012200019N0100001N1+02801+01171100711ADDAA199000091GA1001+999999999GF100991001001999999001001IA2240+02409KA1120N+02761MA1999999100521OA150600411REMSYN088AAXX  08064 61630 32960 02602 10280 20117 30052 40071 333 02400 20276 51092 55085 59005;EQDQ01  00002PRCP99
0147616300999992000050809004+15650-013250FM-12+0017GOSM V0203201N001012200019N0100001N1+03261+00991100911ADDGA1001+999999999GF100991001001999999001001MA1999999100721MD1999999+0101REMSYN064AAXX  08094 61630 42960 03202 10326 20099 30072 40091 333 58010;
0177616300999992000050812004+15650-013250FM-12+0017GOSM V0203601N002112200019N0100001N1+04161+01361100921ADDAA199000091GA1001+999999999GF100991001001999999001001MA1999999100731MD1999999+0121REMSYN064AAXX  08124 61630 32960 03604 10416 20136 30073 40092 333 58012;EQDQ01  00002PRCP99
0159616300999992000050815004+15650-013250FM-12+0017GOSM V0200401N003110690019N0100001N1+04501+01531100611ADDGA1061+069009019GF106991001001999999001021MA1999999100421MD1999999+0061REMSYN076AAXX  08154 61630 42960 60406 10450 20153 30042 40061 80002 333 58006 86073;
0189616300999992000050900004+15650-013250FM-12+0017GOSM V0203201N002112200019N0100001N1+03621+01211100951ADDAA199000091GA1021+039009079GF102991021001999999081001MA1999999100761MD1999999+0281REMSYN076AAXX  09004 61630 32960 23204 10362 20121 30076 40095 82080 333 58028 82363;EQDQ01  00002PRCP99
0147616300999992000050903004+15650-013250FM-12+0017GOSM V0203201N002112200019N0100001N1+03361+01141100801ADDGA1001+999999999GF100991001001999999001001MA1999999100611MD1999999+0191REMSYN064AAXX  09034 61630 42960 03204 10336 20114 30061 40080 333 58019;
0159616300999992000050909004+15650-013250FM-12+0017GOSM V0203201N002110108019N0100001N1+03201+01321100951ADDGA1061+010809019GF106991061001999999081001MA1999999100761MD1999999+0041REMSYN076AAXX  09094 61630 42960 63204 10320 20132 30076 40095 86080 333 58004 86036;
0183616300999992000050912004+15650-013250FM-12+0017GOSM V0203201N002112200019N0100001N1+03961+01491100991ADDAA199000091GA1001+999999999GF100991001001999999001001MA1999999100801MD1999999+0071REMSYN070AAXX  09124 61630 32960 03204 10396 20149 30080 40099 333 0//00 58007;EQDQ01  00002PRCP99
0147616300999992000050915004+15650-013250FM-12+0017GOSM V0203201N004112200019N0100001N1+04501+01321100541ADDGA1001+999999999GF100991001001999999001001MA1999999100351MD1999999-0071REMSYN064AAXX  09154 61630 42960 03208 10450 20132 30035 40054 333 59007;
0205616300999992000050918004+15650-013250FM-12+0017GOSM V0200401N001012200019N0100001N1+99999+01451100451ADDAA199000091GA1011+039009079GF101991011001999999031001MA1999999100261MD1999999-0111REMSYN076AAXX  09184 61630 32960 10402 10240 20145 30026 40045 81030 333 59011 81363;EQDQ01+002403ATOT  Q02  00002PRCP99
0147616300999992000050921004+15650-013250FM-12+0017GOSM V0209999C000012200019N0100001N1+03801+01111100611ADDGA1001+999999999GF100991001001999999001001MA1999999100421MD1999999-0131REMSYN064AAXX  09214 61630 42960 00000 10380 20111 30042 40061 333 59013;
0147616300999992000051003004+15650-013250FM-12+0017GOSM V0203201N001012200019N0100001N1+03181+00881100671ADDGA1001+999999999GF100991001001999999001001MA1999999100481MD1999999-0131REMSYN064AAXX  10034 61630 42960 03202 10318 20088 30048 40067 333 59013;
0233616300999992000051006004+15650-013250FM-12+0017GOSM V0203201N002112200019N0100001N1+02971+01041100721ADDAA199000091GF103991031001999999081001IA2240+02009KA1120N+02881MA1999999100531MD1999999-0051OA150600361REMSYN100AAXX  10064 61630 32960 33204 10297 20104 30053 40072 83080 333 02000 20288 51202 55076 59005 83363;EQDQ01  00002PRCP99
0147616300999992000051009004+15650-013250FM-12+0017GOSM V0200201N003112200019N0100001N1+03281+01031100801ADDGA1001+999999999GF100991001001999999001001MA1999999100611MD1999999-0151REMSYN064AAXX  10094 61630 42960 00206 10328 20103 30061 40080 333 59015;
0177616300999992000051012004+15650-013250FM-12+0017GOSM V0209999C000012200019N0100001N1+04141+01401100821ADDAA199000091GA1001+999999999GF100991001001999999001001MA1999999100631MD1999999-0171REMSYN064AAXX  10124 61630 32960 00000 10414 20140 30063 40082 333 59017;EQDQ01  00002PRCP99
0137616300999992000051015004+15650-013250FM-12+0017GOSM V0209999C000012200019N0100001N1+04451+01541100521ADDGF103991031001999999031001MA1999999100331MD1999999-0051REMSYN070AAXX  10154 61630 42960 30000 10445 20154 30033 40052 83030 333 59005;
0147616300999992000051021004+15650-013250FM-12+0017GOSM V0203601N001012200019N0100001N1+03851+01331100621ADDGA1001+999999999GF100991001001999999001001MA1999999100431MD1999999+0011REMSYN064AAXX  10214 61630 42960 03602 10385 20133 30043 40062 333 58001;
0177616300999992000051100004+15650-013250FM-12+0017GOSM V0203601N002112200019N0100001N1+03501+01271100771ADDAA199000091GA1001+999999999GF100991001001999999001001MA1999999100581MD1999999-0041REMSYN064AAXX  11004 61630 32960 03604 10350 20127 30058 40077 333 59004;EQDQ01  00002PRCP99
0233616300999992000051106004+15650-013250FM-12+0017GOSM V0203201N003119999999N0100001N1+02891+01341100841ADDAA199000091GF107991071001999999071001IA2240+02509KA1120N+02901MA1999999100651MD1999999-0071OA150600461REMSYN100AAXX  11064 61630 32960 73206 10289 20134 30065 40084 87070 333 02500 20290 51202 55095 59007 87363;EQDQ01  00002PRCP99
0159616300999992000051109004+15650-013250FM-12+0017GOSM V0203201N001012200019N0100001N1+03201+01271100941ADDGA1021+039009079GF102991021001999999071001MA1999999100751MD1999999+0141REMSYN076AAXX  11094 61630 42960 23202 10320 20127 30075 40094 82070 333 58014 82363;
0189616300999992000051112004+15650-013250FM-12+0017GOSM V0203201N002112200019N0120001N1+03841+01431100921ADDAA199000091GA1031+069009019GF103991001001999999001021MA1999999100731MD1999999+0101REMSYN076AAXX  11124 61630 32962 33204 10384 20143 30073 40092 80002 333 58010 83073;EQDQ01  00002PRCP99
0147616300999992000051115004+15650-013250FM-12+0017GOSM V0209999C000012200019N0100001N1+04461+01611100661ADDGA1001+999999999GF100991001001999999001001MA1999999100471MD1999999+0141REMSYN064AAXX  11154 61630 42960 00000 10446 20161 30047 40066 333 58014;
0196616300999992000051118004+15650-013250FM-12+0017GOSM V0203201N004112200019N0100001N1+04281+01441100561ADDAA199000091GA1001+999999999GF100991001001999999001001KA1120M+04461MA1999999100371MD1999999+0121REMSYN070AAXX  11184 61630 32960 03208 10428 20144 30037 40056 333 10446 58012;EQDQ01  00002PRCP99
0195616300999992000051212004+15650-013250FM-12+0017GOSM V0203201N003110690019N0100001N1+03701+01581101011ADDAA199000091GA1061+069009019GF106991001001999999001021MA1999999100821MD1999999+0091REMSYN082AAXX  12124 61630 32960 63206 10370 20158 30082 40101 80002 333 0//00 58009 86073;EQDQ01  00002PRCP99
0208616300999992000051218004+15650-013250FM-12+0017GOSM V0209999C000012200019N0100001N1+04201+01601100571ADDAA199000091GA1031+069009019GF103991001001999999001021KA1120M+04301MA1999999100381MD1999999+0011REMSYN082AAXX  12184 61630 32960 30000 10420 20160 30038 40057 80002 333 10430 58001 83073;EQDQ01  00002PRCP99
0177616300999992000051300004+15650-013250FM-12+0017GOSM V0209999C000012200019N0100001N1+03391+01101100961ADDAA199000091GA1001+999999999GF100991001001999999001001MA1999999100771MD1999999+0111REMSYN064AAXX  13004 61630 32960 00000 10339 20110 30077 40096 333 58011;EQDQ01  00002PRCP99
0239616300999992000051306004+15650-013250FM-12+0017GOSM V0203201N005112200019N0100001N1+02771+01331100931ADDAA199000091GA1001+999999999GF100991001001999999001001IA2240+02209KA1120N+02671MA1999999100741OA150699999REMSYN088AAXX  13064 61630 32960 03210 10277 20133 30074 40093 333 02200 20267 50982 55083 58012;EQDQ01  00002PRCP99Q02  00412WGOSPD
0196616300999992000051418004+15650-013250FM-12+0017GOSM V0209999C000012200019N0100001N1+04481+01551100551ADDAA199000091GA1001+999999999GF100991001001999999001001KA1120M+04601MA1999999100361MD1999999+0001REMSYN070AAXX  14184 61630 32960 00000 10448 20155 30036 40055 333 10460 58000;EQDQ01  00002PRCP99
0129616300999992000051503004+15650-013250FM-12+0017GOSM V0203201N003112200019N0100001N1+03201+01461100661ADDGA1001+999999999GF100991001001999999001001MA1999999100471REMSYN060AAXX  15034 61630 42960 03206 10320 20146 30047 40066 59007;
0196616300999992000051518004+15650-013250FM-12+0017GOSM V0202801N002112200019N0100001N1+04381+01471100391ADDAA199000091GA1001+999999999GF100991001001999999001001KA1120M+04551MA1999999100201MD1999999-0161REMSYN070AAXX  15184 61630 32960 02804 10438 20147 30020 40039 333 10455 59016;EQDQ01  00002PRCP99
0159616300999992000051603004+15650-013250FM-12+0017GOSM V0203201N006212200019N0100001N1+03181+01341100751ADDGA1011+039009079GF101991011001999999081001MA1999999100561MD1999999+0091REMSYN076AAXX  16034 61630 42960 13212 10318 20134 30056 40075 81080 333 58009 81363;
0233616300999992000051606004+15650-013250FM-12+0017GOSM V0202401N002112200019N0100001N1+02971+01311100921ADDAA199000091GF101991011001999999081001IA2240+02309KA1120N+02781MA1999999100731MD1999999+0271OA150600411REMSYN100AAXX  16064 61630 32960 12404 10297 20131 30073 40092 81080 333 02300 20278 51512 55086 58027 81363;EQDQ01  00002PRCP99
0147616300999992000051609004+15650-013250FM-12+0017GOSM V0202501N006212200019N0100001N1+02901+01591101171ADDGA1001+999999999GF100991001001999999001001MA1999999100981MD1999999+0231REMSYN064AAXX  16094 61630 42960 02512 10290 20159 30098 40117 333 58023;
0177616300999992000051612004+15650-013250FM-12+0017GOSM V0203201N006212200019N0100001N1+03571+01601101121ADDAA199000091GA1001+999999999GF100991001001999999001001MA1999999100931MD1999999+0181REMSYN064AAXX  16124 61630 32960 03212 10357 20160 30093 40112 333 58018;EQDQ01  00002PRCP99
0147616300999992000051615004+15650-013250FM-12+0017GOSM V0203201N001012200019N0100001N1+04111+01631100831ADDGA1001+999999999GF100991001001999999001001MA1999999100641MD1999999+0281REMSYN064AAXX  16154 61630 42960 03202 10411 20163 30064 40083 333 58028;
0147616300999992000051621004+15650-013250FM-12+0017GOSM V0209999C000012200019N0100001N1+03571+01401100841ADDGA1001+999999999GF100991001001999999001001MA1999999100651MD1999999+0241REMSYN064AAXX  16214 61630 42960 00000 10357 20140 30065 40084 333 58024;
0183616300999992000051712004+15650-013250FM-12+0017GOSM V0203201N001012200019N0100001N1+03751+01641101001ADDAA199000091GA1001+999999999GF100991001001999999001001MA1999999100811MD1999999-0121REMSYN070AAXX  17124 61630 32960 03202 10375 20164 30081 40100 333 0//00 59012;EQDQ01  00002PRCP99
0147616300999992000051715004+15650-013250FM-12+0017GOSM V0209999C000012200019N0100001N1+04321+01561100791ADDGA1001+999999999GF100991001001999999001001MA1999999100601MD1999999-0041REMSYN064AAXX  17154 61630 42960 00000 10432 20156 30060 40079 333 59004;
0147616300999992000051721004+15650-013250FM-12+0017GOSM V0209999C000012200019N0100001N1+03521+01621100751ADDGA1001+999999999GF100991001001999999001001MA1999999100561MD1999999-0091REMSYN064AAXX  17214 61630 24960 00000 10352 20162 30056 40075 333 59009;
0183616300999992000051800004+15650-013250FM-12+0017GOSM V0209999C000012200019N0100001N1+03381+01381100901ADDAA199000091GA1001+999999999GF100991001001999999001001MA1999999100711MD1999999-0101REMSYN070AAXX  18004 61630 32960 00000 10338 20138 30071 40090 333 0//00 59010;EQDQ01  00002PRCP99
0147616300999992000051803004+15650-013250FM-12+0017GOSM V0203201N002112200019N0100001N1+03141+01281100771ADDGA1001+999999999GF100991001001999999001001MA1999999100581MD1999999-0171REMSYN064AAXX  18034 61630 42960 03204 10314 20128 30058 40077 333 59017;
0223616300999992000051806004+15650-013250FM-12+0017GOSM V0203201N002112200019N0100001N1+02781+01511100791ADDAA199000091GA1001+999999999GF100991001001999999001001IA2240+02009KA1120N+02651MA1999999100601OA150600511REMSYN088AAXX  18064 61630 32960 03204 10278 20151 30060 40079 333 02000 20265 51162 55104 59021;EQDQ01  00002PRCP99
0147616300999992000051809004+15650-013250FM-12+0017GOSM V0203201N002112200019N0100001N1+03001+01681100941ADDGA1001+999999999GF100991001001999999001001MA1999999100751MD1999999-0211REMSYN064AAXX  18094 61630 42960 03204 10300 20168 30075 40094 333 59021;
0183616300999992000051812004+15650-013250FM-12+0017GOSM V0203201N002112200019N0100001N1+03501+01911100971ADDAA199000091GA1001+999999999GF100991001001999999001001MA1999999100781MD1999999-0031REMSYN070AAXX  18124 61630 32960 03204 10350 20191 30078 40097 333 0//00 59003;EQDQ01  00002PRCP99
0147616300999992000051815004+15650-013250FM-12+0017GOSM V0200401N001012200019N0100001N1+04622+01971100471ADDGA1001+999999999GF100991001001999999001001MA1999999100281MD1999999-0161REMSYN064AAXX  18154 61630 42960 00402 10462 20197 30028 40047 333 59016;
0196616300999992000051818004+15650-013250FM-12+0017GOSM V0203001N002112200019N0120001N1+04531+01751100421ADDAA199000091GA1001+999999999GF100991001001999999001001KA1120M+04651MA1999999100231MD1999999-0201REMSYN070AAXX  18184 61630 32962 03004 10453 20175 30023 40042 333 10465 59020;EQDQ01  00002PRCP99
0177616300999992000051900004+15650-013250FM-12+0017GOSM V0203201N003112200019N0100001N1+03721+01611100661ADDAA199000091GA1001+999999999GF100991001001999999001001MA1999999100471MD1999999-0241REMSYN064AAXX  19004 61630 32960 03206 10372 20161 30047 40066 333 59024;EQDQ01  00002PRCP99
0159616300999992000051903004+15650-013250FM-12+0017GOSM V0200201N002112200019N0100001N1+03381+01341100561ADDGA1011+039009079GF101991011001999999031001MA1999999100371MD1999999-0211REMSYN076AAXX  19034 61630 42960 10204 10338 20134 30037 40056 81030 333 59021 81363;
0233616300999992000051906004+15650-013250FM-12+0017GOSM V0203201N002112200019N0100001N1+03121+01251100651ADDAA199000091GF101991011001999999031001IA2240+02109KA1120N+03031MA1999999100461MD1999999-0141OA150600461REMSYN100AAXX  19064 61630 32960 13204 10312 20125 30046 40065 81030 333 02100 20303 51212 55094 59014 81363;EQDQ01  00002PRCP99
0147616300999992000051909004+15650-013250FM-12+0017GOSM V0200201N004112200019N0100001N1+03501+01221100661ADDGA1001+999999999GF100991001001999999001001MA1999999100471MD1999999-0281REMSYN064AAXX  19094 61630 42960 00208 10350 20122 30047 40066 333 59028;
0177616300999992000051912004+15650-013250FM-12+0017GOSM V0200801N002112200019N0120001N1+04491+01941100531ADDAA199000091GA1001+999999999GF100991001001999999001001MA1999999100341MD1999999-0441REMSYN064AAXX  19124 61630 32962 00804 10449 20194 30034 40053 333 59044;EQDQ01  00002PRCP99
0208616300999992000051918004+15650-013250FM-12+0017GOSM V0201801N002112200019N0120001N1+04551+01911100181ADDAA199000091GA1031+039009079GF103991031001999999031001KA1120M+04811MA1999999100991MD1999999-0241REMSYN082AAXX  19184 61630 32962 31804 10455 20191 30099 40018 83030 333 10481 59024 83363;EQDQ01  00002PRCP99
0147616300999992000052009004+15650-013250FM-12+0017GOSM V0202801N004112200019N0100001N1+03191+01711100851ADDGA1001+999999999GF100991001001999999001001MA1999999100661MD1999999+0191REMSYN064AAXX  20094 61630 42960 02808 10319 20171 30066 40085 333 58019;
0177616300999992000052012004+15650-013250FM-12+0017GOSM V0202801N004112200019N0100001N1+03841+01831100891ADDAA199000091GA1001+999999999GF100991001001999999001001MA1999999100701MD1999999+0361REMSYN064AAXX  20124 61630 32960 02808 10384 20183 30070 40089 333 58036;EQDQ01  00002PRCP99
0147616300999992000052015004+15650-013250FM-12+0017GOSM V0202801N003112200019N0060001N1+04261+01871100561ADDGA1001+999999999GF100991001001999999001001MA1999999100371MD1999999+0291REMSYN064AAXX  20154 61630 42956 02806 10426 20187 30037 40056 333 58029;
0196616300999992000052018004+15650-013250FM-12+0017GOSM V0202801N003112200019N0060001N1+04201+01861100451ADDAA199000091GA1001+999999999GF100991001001999999001001KA1120M+04351MA1999999100261MD1999999+0271REMSYN070AAXX  20184 61630 32956 02806 10420 20186 30026 40045 333 10435 58027;EQDQ01  00002PRCP99
0159616300999992000052109004+15650-013250FM-12+0017GOSM V0202801N003110690019N0100001N1+02961+01781101081ADDGA1051+069009019GF105991001001999999001021MA1999999100891MD1999999+0231REMSYN076AAXX  21094 61630 42960 52806 10296 20178 30089 40108 80002 333 58023 85073;
0189616300999992000052112004+15650-013250FM-12+0017GOSM V0202801N004110690019N0100001N1+03401+01931101161ADDAA199000091GA1051+069009019GF105991001001999999001021MA1999999100971MD1999999+0271REMSYN076AAXX  21124 61630 32960 52808 10340 20193 30097 40116 80002 333 58027 85073;EQDQ01  00002PRCP99
0159616300999992000052115004+15650-013250FM-12+0017GOSM V0203601N005110390019N0100001N1+03701+02011100871ADDGA1051+039009079GF105991051001999999031001MA1999999100681MD1999999+0311REMSYN076AAXX  21154 61630 42960 53610 10370 20201 30068 40087 85030 333 58031 85363;
0208616300999992000052118004+15650-013250FM-12+0017GOSM V0203201N005110690019N0100001N1+03821+01801100821ADDAA199000091GA1071+069009019GF107991001001999999001021KA1120M+03951MA1999999100631MD1999999+0371REMSYN082AAXX  21184 61630 32960 73210 10382 20180 30063 40082 80002 333 10395 58037 87073;EQDQ01  00002PRCP99
0159616300999992000052121004+15650-013250FM-12+0017GOSM V0203201N002112200019N0100001N1+03421+01731101151ADDGA1031+069009019GF103991001001999999001021MA1999999100961MD1999999+0461REMSYN076AAXX  21214 61630 42960 33204 10342 20173 30096 40115 80002 333 58046 83073;
0205616300999992000052200004+15650-013250FM-12+0017GOSM V0203201N002110690019N0100001N1+02182+01641101241ADDAA199000091GA1071+069009019GF107991001001999999001021MA1999999101051MD1999999+0301REMSYN076AAXX  22004 61630 32960 73204 10218 20164 30105 40124 80002 333 58030 87073;EQDQ01+002183ATOT  Q02  00002PRCP99
0249616300999992000052206004+15650-013250FM-12+0017GOSM V0203201N004119999999N0100001N1+02501+01661101261ADDAA199000091GF107991001001999999001021IA2240+02309KA1120N+02401MA1999999101071MD1999999+0291OA150699999REMSYN100AAXX  22064 61630 32960 73208 10250 20166 30107 40126 80002 333 02300 20240 51302 55063 58029 87073;EQDQ01  00002PRCP99Q02  00312WGOSPD
0159616300999992000052209004+15650-013250FM-12+0017GOSM V0203201N002110690019N0120001N1+02681+01731101291ADDGA1061+069009019GF106991001001999999001021MA1999999101101MD1999999+0211REMSYN076AAXX  22094 61630 42962 63204 10268 20173 30110 40129 80002 333 58021 86073;
0189616300999992000052212004+15650-013250FM-12+0017GOSM V0203601N002110690019N0120001N1+03381+01711101301ADDAA199000091GA1051+069009019GF105991001001999999001021MA1999999101111MD1999999+0141REMSYN076AAXX  22124 61630 32962 53604 10338 20171 30111 40130 80002 333 58014 85073;EQDQ01  00002PRCP99
0159616300999992000052215004+15650-013250FM-12+0017GOSM V0203201N001012200019N0100001N1+03891+01881101081ADDGA1041+069009019GF104991001001999999001021MA1999999100891MD1999999+0211REMSYN076AAXX  22154 61630 42960 43202 10389 20188 30089 40108 80002 333 58021 84073;
0214616300999992000052218004+15650-013250FM-12+0017GOSM V0203601N001019999999N0120001N1+03921+01901100991ADDAA199000091GA1021+039009039GF105991021001999999031021KA1120M+04021MA1999999100801MD1999999+0171REMSYN088AAXX  22184 61630 32962 53602 10392 20190 30080 40099 82032 333 10402 58017 82363 83073;EQDQ01  00002PRCP99
0147616300999992000052221004+15650-013250FM-12+0017GOSM V0203201N001012200019N0100001N1+03411+01691101281ADDGA1001+999999999GF100991001001999999001001MA1999999101091MD1999999+0131REMSYN064AAXX  22214 61630 42960 03202 10341 20169 30109 40128 333 58013;
0159616300999992000052309004+15650-013250FM-12+0017GOSM V0203201N002110390019N0100001N1+02761+01621101521ADDGA1071+039009079GF107991071001999999071001MA1999999101331MD1999999+0231REMSYN076AAXX  23094 61630 42960 73204 10276 20162 30133 40152 87070 333 58023 87363;
0222616300999992000052312004+15650-013250FM-12+0017GOSM V0203601N001019999999N0120001N1+03371+01931101531ADDAA106000791AC13C9AY161061AY221061GA1031+039009039GF106991031001999999031021MA1999999101341MD1999999+0231MW1011REMSYN100AAXX  23124 61630 11962 63602 10337 20193 30134 40153 69901 70162 83032 333 0//13 58023 83363 84073;
0195616300999992000052318004+15650-013250FM-12+0017GOSM V0203201N002110390019N0100001N1+03801+02011101131ADDAA112000791GA1051+039009079GF105991051001999999081001KA1120M+03951MA1999999100941MD1999999+0141REMSYN088AAXX  23184 61630 12960 53204 10380 20201 30094 40113 69902 85080 333 10395 58014 85363;
0220616300999992000052406004+15650-013250FM-12+0017GOSM V0209999C000012200019N0100001N1+02981+01771101161ADDAA124000791GF104991041001999999081001IA2240+01909KA1120N+02861MA1999999100971MD1999999-0171OA150600101REMSYN106AAXX  24064 61630 12960 40000 10298 20177 30097 40116 69904 84080 333 01919 20286 50902 55023 59017 84363;
0159616300999992000052409004+15650-013250FM-12+0017GOSM V0209999C000012200019N0100001N1+03301+02091101261ADDGA1041+039009079GF104991041001999999081001MA1999999101071MD1999999-0261REMSYN076AAXX  24094 61630 42960 40000 10330 20209 30107 40126 84080 333 59026 84363;
0195616300999992000052412004+15650-013250FM-12+0017GOSM V0209999C000010390019N0100001N1+04101+02261101231ADDAA199000091GA1051+039009079GF105991051001999999081001MA1999999101041MD1999999-0301REMSYN082AAXX  24124 61630 32960 50000 10410 20226 30104 40123 85080 333 0//00 59030 85363;EQDQ01  00002PRCP99
0171616300999992000052415004+15650-013250FM-12+0017GOSM V0200801N002110690019N0040001N1+04281+02181100841ADDGA1071+069009019GF107991001001999999001021MA1999999100651MD1999999-0411MW1061REMSYN082AAXX  24154 61630 41940 70804 10428 20218 30065 40084 706// 80002 333 59041 87073;
0220616300999992000052418004+15650-013250FM-12+0017GOSM V0209999C000010690019N0040001N1+04301+01891100721ADDAA199000091GA1071+069009019GF107991001001999999001021KA1120M+04401MA1999999100531MD1999999-0411MW1061REMSYN088AAXX  24184 61630 31940 70000 10430 20189 30053 40072 706// 80002 333 10440 59041 87073;EQDQ01  00002PRCP99
0171616300999992000052421004+15650-013250FM-12+0017GOSM V0209999C000010690019N0040001N1+03921+01821100751ADDGA1051+069009019GF105991001001999999001021MA1999999100561MD1999999-0531MW1061REMSYN082AAXX  24214 61630 41940 50000 10392 20182 30056 40075 706// 80002 333 59053 85073;
0194616300999992000052500004+15650-013250FM-12+0017GOSM V0200401N002119999999N0040001N1+03721+01741101081ADDAC12C9AY161061GF107991999001999999071999MA1999999100891MD1999999-0261MW1061REMSYN088AAXX  25004 61630 11940 70404 10372 20174 30089 40108 7066/ 8807/ 333 0//52 59026 8736/;EQDQ01+000082SCOTLC
0171616300999992000052503004+15650-013250FM-12+0017GOSM V0200601N002110390019N0050001N1+03581+01811100951ADDGA1071+039009079GF107991071001999999071999MA1999999100761MD1999999-0201MW1061REMSYN082AAXX  25034 61630 41950 70604 10358 20181 30076 40095 706// 8707/ 333 59020 87363;
0223616300999992000052512004+15650-013250FM-12+0017GOSM V0201001N002110690019N0030001N1+04001+01771101061ADDAA199000091AY101061AY201061GA1071+069009019GF107991001001999999001021MA1999999100781MD1999999-0171MW1061REMSYN088AAXX  25124 61630 31930 71004 10400 20177 30078 40106 70600 80002 333 0//59 59017 87073;EQDQ01  00002PRCP99
0171616300999992000052515004+15650-013250FM-12+0017GOSM V0201401N001010690019N0040001N1+03901+01871100851ADDGA1071+069009019GF107991001001999999001021MA1999999100661MD1999999+0011MW1061REMSYN082AAXX  25154 61630 41940 71402 10390 20187 30066 40085 706// 80002 333 58001 87073;
0208616300999992000052518004+15650-013250FM-12+0017GOSM V0202801N001010690019N0060001N1+04041+01991100741ADDAA199000091GA1071+069009019GF107991001001999999001021KA1120M+04111MA1999999100551MD1999999+0021REMSYN082AAXX  25184 61630 32956 72802 10404 20199 30055 40074 80002 333 10411 58002 87073;EQDQ01  00002PRCP99
0147616300999992000052521004+15650-013250FM-12+0017GOSM V0209999C000012200019N0060001N1+03661+01791100881ADDGA1001+999999999GF100991001001999999001001MA1999999100691MD1999999+0131REMSYN064AAXX  25214 61630 42956 00000 10366 20179 30069 40088 333 58013;
0223616300999992000052606004+15650-013250FM-12+0017GOSM V0209999C000012200019N0080001N1+03001+01451100871ADDAA199000091GA1001+999999999GF100991001001999999001001IA2240+02909KA1120N+02861MA1999999100681OA150600001REMSYN088AAXX  26064 61630 32958 00000 10300 20145 30068 40087 333 02900 20286 50942 55000 59017;EQDQ01  00002PRCP99
0159616300999992000052609004+15650-013250FM-12+0017GOSM V0209999C000010690019N0080001N1+03351+01631101021ADDGA1061+069009019GF106991001001999999001021MA1999999100831MD1999999-0081REMSYN076AAXX  26094 61630 42958 60000 10335 20163 30083 40102 80002 333 59008 86073;
0189616300999992000052612004+15650-013250FM-12+0017GOSM V0201001N002112200019N0080001N1+04151+01381101021ADDAA199000091GA1031+069009019GF103991001001999999001021MA1999999100831MD1999999-0041REMSYN076AAXX  26124 61630 32958 31004 10415 20138 30083 40102 80002 333 59004 83073;EQDQ01  00002PRCP99
0147616300999992000052615004+15650-013250FM-12+0017GOSM V0200801N002112200019N0100001N1+04421+01391100771ADDGA1001+999999999GF100991001001999999001001MA1999999100581MD1999999-0081REMSYN064AAXX  26154 61630 42960 00804 10442 20139 30058 40077 333 59008;
0196616300999992000052618004+15650-013250FM-12+0017GOSM V0209999C000012200019N0100001N1+04361+01331100691ADDAA199000091GA1001+999999999GF100991001001999999001001KA1120M+04521MA1999999100501MD1999999-0051REMSYN070AAXX  26184 61630 32960 00000 10436 20133 30050 40069 333 10452 59005;EQDQ01  00002PRCP99
0147616300999992000052709004+15650-013250FM-12+0017GOSM V0202201N004112200019N0100001N1+03101+01731101081ADDGA1001+999999999GF100991001001999999001001MA1999999100891MD1999999+0061REMSYN064AAXX  27094 61630 42960 02208 10310 20173 30089 40108 333 58006;
0183616300999992000052712004+15650-013250FM-12+0017GOSM V0202201N003112200019N0080001N1+03581+01871101091ADDAA199000091GA1001+999999999GF100991001001999999001001MA1999999100901MD1999999+0071REMSYN070AAXX  27124 61630 32958 02206 10358 20187 30090 40109 333 0//00 58007;EQDQ01  00002PRCP99
0202616300999992000052718004+15650-013250FM-12+0017GOSM V0209999C000010690019N0100001N1+04201+01721999999ADDAA199000091GA1051+069009019GF105991001001999999001021KA1120M+04451MA1999999100371MD1999999-0131REMSYN076AAXX  27184 61630 32960 50000 10420 20172 30037 80002 333 10445 59013 85073;EQDQ01  00002PRCP99
0159616300999992000052809004+15650-013250FM-12+0017GOSM V0202801N003112200019N0100001N1+03001+01681100961ADDGA1031+069009019GF103991001001999999001021MA1999999100771MD1999999-0121REMSYN076AAXX  28094 61630 42960 32806 10300 20168 30077 40096 80002 333 59012 83073;
0177616300999992000052812004+15650-013250FM-12+0017GOSM V0202801N003112200019N0100001N1+03721+01821100961ADDAA199000091GA1001+999999999GF100991001001999999001001MA1999999100771MD1999999-0131REMSYN064AAXX  28124 61630 32960 02806 10372 20182 30077 40096 333 59013;EQDQ01  00002PRCP99
0147616300999992000052815004+15650-013250FM-12+0017GOSM V0203001N002112200019N0120001N1+04301+01711100701ADDGA1001+999999999GF100991001001999999001001MA1999999100511MD1999999-0071REMSYN064AAXX  28154 61630 42962 03004 10430 20171 30051 40070 333 59007;
0196616300999992000052818004+15650-013250FM-12+0017GOSM V0200401N002112200019N0120001N1+04281+01681100591ADDAA199000091GA1001+999999999GF100991001001999999001001KA1120M+04401MA1999999100401MD1999999+0031REMSYN070AAXX  28184 61630 32962 00404 10428 20168 30040 40059 333 10440 58003;EQDQ01  00002PRCP99
0147616300999992000052909004+15650-013250FM-12+0017GOSM V0202401N001012200019N0100001N1+03001+01771101171ADDGA1001+999999999GF100991001001999999001001MA1999999100981MD1999999+0211REMSYN064AAXX  29094 61630 42960 02402 10300 20177 30098 40117 333 58021;
0183616300999992000052912004+15650-013250FM-12+0017GOSM V0209999C000012200019N0100001N1+03531+01831101051ADDAA199000091GA1001+999999999GF100991001001999999001001MA1999999100861MD1999999+0091REMSYN070AAXX  29124 61630 32960 00000 10353 20183 30086 40105 333 0//00 58009;EQDQ01  00002PRCP99
0147616300999992000052915004+15650-013250FM-12+0017GOSM V0209999C000012200019N0100001N1+04161+01971100771ADDGA1001+999999999GF100991001001999999001001MA1999999100581MD1999999+0071REMSYN064AAXX  29154 61630 42960 00000 10416 20197 30058 40077 333 58007;
0196616300999992000052918004+15650-013250FM-12+0017GOSM V0209999C000012200019N0100001N1+04161+01821100611ADDAA199000091GA1001+999999999GF100991001001999999001001KA1120M+04241MA1999999100421MD1999999+0021REMSYN070AAXX  29184 61630 32960 00000 10416 20182 30042 40061 333 10424 58002;EQDQ01  00002PRCP99
0183616300999992000053000004+15650-013250FM-12+0017GOSM V0209999C000012200019N0100001N1+03281+01851100871ADDAA199000091GA1001+999999999GF100991001001999999001001MA1999999100681MD1999999+0021REMSYN070AAXX  30004 61630 32960 00000 10328 20185 30068 40087 333 0//00 58002;EQDQ01  00002PRCP99
0147616300999992000053009004+15650-013250FM-12+0017GOSM V0203001N002112200019N0100001N1+02921+01951101081ADDGA1001+999999999GF100991001001999999001001MA1999999100891MD1999999-0091REMSYN064AAXX  30094 61630 42960 03004 10292 20195 30089 40108 333 59009;
0147616300999992000053015004+15650-013250FM-12+0017GOSM V0201401N001012200019N0120001N1+04291+01411100751ADDGA1001+999999999GF100991001001999999001001MA1999999100561MD1999999-0021REMSYN064AAXX  30154 61630 42962 01402 10429 20141 30056 40075 333 59002;
0147616300999992000053021004+15650-013250FM-12+0017GOSM V0209999C000012200019N0100001N1+03701+01421100741ADDGA1001+999999999GF100991001001999999001001MA1999999100551MD1999999+0051REMSYN064AAXX  30214 61630 42960 00000 10370 20142 30055 40074 333 58005;
0147616300999992000053109004+15650-013250FM-12+0017GOSM V0203201N001012200019N0100001N1+03151+01851100901ADDGA1001+999999999GF100991001001999999001001MA1999999100711MD1999999+0181REMSYN064AAXX  31094 61630 42960 03202 10315 20185 30071 40090 333 58018;
0147616300999992000053115004+15650-013250FM-12+0017GOSM V0209999C000012200019N0120001N1+04551+01541100601ADDGA1001+999999999GF100991001001999999001001MA1999999100411MD1999999-0151REMSYN064AAXX  31154 61630 42962 00000 10455 20154 30041 40060 333 59015;
0196616300999992000053118004+15650-013250FM-12+0017GOSM V0209999C000012200019N0120001N1+04441+01621100471ADDAA199000091GA1001+999999999GF100991001001999999001001KA1120M+04651MA1999999100281MD1999999-0091REMSYN070AAXX  31184 61630 32962 00000 10444 20162 30028 40047 333 10465 59009;EQDQ01  00002PRCP99
0239616300999992000060106004+15650-013250FM-12+0017GOSM V0202401N004112200019N0100001N1+02981+01921100931ADDAA199000091GA1001+999999999GF100991001001999999001001IA2240+02109KA1120N+02861MA1999999100741OA150699999REMSYN088AAXX  01064 61630 32960 02408 10298 20192 30074 40093 333 02100 20286 51192 55078 58019;EQDQ01  00002PRCP99Q02  00362WGOSPD
0147616300999992000060109004+15650-013250FM-12+0017GOSM V0202401N004112200019N0100001N1+03091+01741101021ADDGA1001+999999999GF100991001001999999001001MA1999999100831MD1999999+0121REMSYN064AAXX  01094 61630 42960 02408 10309 20174 30083 40102 333 58012;
0177616300999992000060112004+15650-013250FM-12+0017GOSM V0202401N005112200019N0100001N1+03651+01961101021ADDAA199000091GA1001+999999999GF100991001001999999001001MA1999999100831MD1999999+0121REMSYN064AAXX  01124 61630 32960 02410 10365 20196 30083 40102 333 58012;EQDQ01  00002PRCP99
0147616300999992000060203004+15650-013250FM-12+0017GOSM V0202801N005112200019N0100001N1+03181+01721100961ADDGA1001+999999999GF100991001001999999001001MA1999999100771MD1999999+0181REMSYN064AAXX  02034 61630 42960 02810 10318 20172 30077 40096 333 58018;
0249616300999992000060206004+15650-013250FM-12+0017GOSM V0202801N005112200019N0100001N1+02961+01781101181ADDAA199000091GF104991041001999999081001IA2240+02309KA1120N+01701MA1999999100991MD1999999+0251OA150699999REMSYN100AAXX  02064 61630 32960 42810 10296 20178 30099 40118 84080 333 02300 20170 50942 55073 58025 84363;EQDQ01  00002PRCP99Q02  00362WGOSPD
0159616300999992000060209004+15650-013250FM-12+0017GOSM V0202801N005112200019N0100001N1+03041+02131101261ADDGA1041+039009079GF104991041001999999081001MA1999999101071MD1999999+0241REMSYN076AAXX  02094 61630 42960 42810 10304 20213 30107 40126 84080 333 58024 84363;
0183616300999992000060212004+15650-013250FM-12+0017GOSM V0202801N004112200019N0100001N1+03501+02201101261ADDAA199000091GA1001+999999999GF100991001001999999001001MA1999999101071MD1999999+0241REMSYN070AAXX  02124 61630 32960 02808 10350 20220 30107 40126 333 0//00 58024;EQDQ01  00002PRCP99
0147616300999992000060215004+15650-013250FM-12+0017GOSM V0202801N004112200019N0100001N1+04021+02121100861ADDGA1001+999999999GF100991001001999999001001MA1999999100671MD1999999+0051REMSYN064AAXX  02154 61630 42960 02808 10402 20212 30067 40086 333 58005;
0239616300999992000060306004+15650-013250FM-12+0017GOSM V0202801N005112200019N0100001N1+02861+01581100931ADDAA199000091GA1001+999999999GF100991001001999999001001IA2240+02309KA1120N+02721MA1999999100741OA150699999REMSYN088AAXX  03064 61630 32960 02810 10286 20158 30074 40093 333 02300 20272 50882 55072 59025;EQDQ01  00002PRCP99Q02  00362WGOSPD
0188616300999992000060309004+15650-013250FM-12+0017GOSM V0202201N002112200019N0100001N1+02551+02191101131ADDGA1021+069009019GF199999001001999999001999MA1999999100901MD1999999-0211REMSYN070AAXX  03094 61630 42960 02204 10255 20219 30090 40113 333 59021 82073;EQDQ01+000002SCOTCVQ02+000002SCOHCG
0177616300999992000060312004+15650-013250FM-12+0017GOSM V0202801N003112200019N0080001N1+03691+01991101021ADDAA199000091GA1001+999999999GF100991001001999999001001MA1999999100831MD1999999-0211REMSYN064AAXX  03124 61630 32958 02806 10369 20199 30083 40102 333 59021;EQDQ01  00002PRCP99
0224616300999992000060318004+15650-013250FM-12+0017GOSM V0202601N002112200019N0100001N1+04091+02021100611ADDAA199000091GA1011+069009099GF101991999001999999001091KA1120M+04251MA1999999100421MD1999999-0091REMSYN082AAXX  03184 61630 32960 12604 10409 20202 30042 40061 80009 333 10425 59009 81173;EQDQ01+000002SCOTLCQ02  00002PRCP99
0147616300999992000060321004+15650-013250FM-12+0017GOSM V0209999C000012200019N0100001N1+03661+01901100761ADDGA1001+999999999GF100991001001999999001001MA1999999100571MD1999999-0061REMSYN064AAXX  03214 61630 42960 00000 10366 20190 30057 40076 333 59006;
0177616300999992000060400004+15650-013250FM-12+0017GOSM V0202801N002112200019N0100001N1+03401+01871100821ADDAA199000091GA1001+999999999GF100991001001999999001001MA1999999100631MD1999999-0151REMSYN064AAXX  04004 61630 32960 02804 10340 20187 30063 40082 333 59015;EQDQ01  00002PRCP99
0159616300999992000060409004+15650-013250FM-12+0017GOSM V0202601N007212200019N0100001N1+02881+01921100991ADDGA1031+039009079GF103991031001999999031001MA1999999100801MD1999999-0061REMSYN076AAXX  04094 61630 42960 32614 10288 20192 30080 40099 83030 333 59006 83363;
0189616300999992000060412004+15650-013250FM-12+0017GOSM V0202601N002112200019N0100001N1+03411+02041101021ADDAA199000091GA1011+039009079GF101991011001999999031001MA1999999100831MD1999999+0001REMSYN076AAXX  04124 61630 32960 12604 10341 20204 30083 40102 81030 333 58000 81363;EQDQ01  00002PRCP99
0147616300999992000060415004+15650-013250FM-12+0017GOSM V0202801N005112200019N0100001N1+03861+01601100811ADDGA1001+999999999GF100991001001999999001001MA1999999100621MD1999999+0151REMSYN064AAXX  04154 61630 42960 02810 10386 20160 30062 40081 333 58015;
0168616300999992000060418004+15650-013250FM-12+0017GOSM V0202801N003112200019N0100001N1+03801+01601100711ADDAA199000091GA1001+999999999GF100991001001999999001001MA1999999100521REMSYN069AAXX  04184 61630 32960 02806 10380 20160 30052 40071 333 0390 58010;EQDQ01  00002PRCP99
0195616300999992000060512004+15650-013250FM-12+0017GOSM V0202801N005110390019N0100001N1+03261+02011101251ADDAA199000091GA1051+039009079GF105991051001999999081001MA1999999101061MD1999999+0231REMSYN082AAXX  05124 61630 32960 52810 10326 20201 30106 40125 85080 333 0//00 58023 85363;EQDQ01  00002PRCP99
0208616300999992000060518004+15650-013250FM-12+0017GOSM V0202801N002110390019N0100001N1+03771+01681100971ADDAA199000091GA1071+039009079GF107991071001999999071001KA1120M+03991MA1999999100781MD1999999+0261REMSYN082AAXX  05184 61630 32960 72804 10377 20168 30078 40097 87070 333 10399 58026 87363;EQDQ01  00002PRCP99
0159616300999992000060521004+15650-013250FM-12+0017GOSM V0202801N001012200019N0100001N1+03341+01611101031ADDGA1031+039009079GF103991031001999999071001MA1999999100841MD1999999+0161REMSYN076AAXX  05214 61630 42960 32802 10334 20161 30084 40103 83070 333 58016 83363;
0147616300999992000060609004+15650-013250FM-12+0017GOSM V0202801N003112200019N0100001N1+02871+01731101271ADDGA1001+999999999GF100991001001999999001001MA1999999101081MD1999999+0061REMSYN064AAXX  06094 61630 42960 02806 10287 20173 30108 40127 333 58006;
0195616300999992000060612004+15650-013250FM-12+0017GOSM V0202801N002112200019N0120001N1+03541+01891101321ADDAA199000091GA1021+039009079GF102991021001999999081001MA1999999101131MD1999999+0071REMSYN082AAXX  06124 61630 32962 22804 10354 20189 30113 40132 82080 333 0//00 58007 82363;EQDQ01  00002PRCP99
0147616300999992000060615004+15650-013250FM-12+0017GOSM V0202801N003112200019N0100001N1+03901+01621101001ADDGA1001+999999999GF100991001001999999001001MA1999999100811MD1999999-0061REMSYN064AAXX  06154 61630 42960 02806 10390 20162 30081 40100 333 59006;
0196616300999992000060618004+15650-013250FM-12+0017GOSM V0203201N001012200019N0120001N1+03981+01591100901ADDAA199000091GA1001+999999999GF100991001001999999001001KA1120M+04081MA1999999100711MD1999999-0071REMSYN070AAXX  06184 61630 32962 03202 10398 20159 30071 40090 333 10408 59007;EQDQ01  00002PRCP99
0147616300999992000060621004+15650-013250FM-12+0017GOSM V0203001N001012200019N0100001N1+03501+01591101171ADDGA1001+999999999GF100991001001999999001001MA1999999100981MD1999999+0141REMSYN064AAXX  06214 61630 42960 03002 10350 20159 30098 40117 333 58014;
0223616300999992000060706004+15650-013250FM-12+0017GOSM V0202501N003112200019N0100001N1+02611+01651101271ADDAA199000091GA1001+999999999GF100991001001999999001001IA2240+02409KA1120N+02501MA1999999101081OA150600411REMSYN088AAXX  07064 61630 32960 02506 10261 20165 30108 40127 333 02400 20250 51342 55085 58018;EQDQ01  00002PRCP99
0159616300999992000060709004+15650-013250FM-12+0017GOSM V0203001N005112200019N0100001N1+02801+01821101291ADDGA1011+069009019GF101991001001999999001021MA1999999101101MD1999999+0021REMSYN076AAXX  07094 61630 42960 13010 10280 20182 30110 40129 80002 333 58002 81073;
0189616300999992000060712004+15650-013250FM-12+0017GOSM V0203601N002112200019N0120001N1+03561+01951101121ADDAA199000091GA1021+069009019GF102991001001999999001021MA1999999100931MD1999999-0021REMSYN076AAXX  07124 61630 32962 23604 10356 20195 30093 40112 80002 333 59002 82073;EQDQ01  00002PRCP99
0147616300999992000060715004+15650-013250FM-12+0017GOSM V0200401N003112200019N0100001N1+04121+01951100821ADDGA1001+999999999GF100991001001999999001001MA1999999100631MD1999999-0181REMSYN064AAXX  07154 61630 42960 00406 10412 20195 30063 40082 333 59018;
0196616300999992000060718004+15650-013250FM-12+0017GOSM V0200401N002112200019N0100001N1+04121+01871100711ADDAA199000091GA1001+999999999GF100991001001999999001001KA1120M+04251MA1999999100521MD1999999-0191REMSYN070AAXX  07184 61630 32960 00404 10412 20187 30052 40071 333 10425 59019;EQDQ01  00002PRCP99
0223616300999992000060806004+15650-013250FM-12+0017GOSM V0203201N004112200019N0100001N1+02601+01851100911ADDAA199000091GA1001+999999999GF100991001001999999001001IA2240+02209KA1120N+02481MA1999999100721OA150600411REMSYN088AAXX  08064 61630 32960 03208 10260 20185 30072 40091 333 02200 20248 51172 55084 59036;EQDQ01  00002PRCP99
0147616300999992000060809004+15650-013250FM-12+0017GOSM V0203201N003112200019N0100001N1+02701+01901101071ADDGA1001+999999999GF100991001001999999001001MA1999999100881MD1999999-0221REMSYN064AAXX  08094 61630 42960 03206 10270 20190 30088 40107 333 59022;
0183616300999992000060812004+15650-013250FM-12+0017GOSM V0202801N002112200019N0100001N1+03421+01991101091ADDAA199000091GA1001+999999999GF100991001001999999001001MA1999999100901MD1999999-0031REMSYN070AAXX  08124 61630 32960 02804 10342 20199 30090 40109 333 0//00 59003;EQDQ01  00002PRCP99
0159616300999992000060815004+15650-013250FM-12+0017GOSM V0203201N002110690019N0120001N1+03951+02061100821ADDGA1051+069009019GF105991001001999999001021MA1999999100631MD1999999+0001REMSYN076AAXX  08154 61630 42962 53204 10395 20206 30063 40082 80002 333 58000 85073;
0208616300999992000060818004+15650-013250FM-12+0017GOSM V0202201N001010690019N0120001N1+03951+02151100771ADDAA199000091GA1051+069009019GF105991001001999999001021KA1120M+04201MA1999999100581MD1999999+0061REMSYN082AAXX  08184 61630 32962 52202 10395 20215 30058 40077 80002 333 10420 58006 85073;EQDQ01  00002PRCP99
0249616300999992000060906004+15650-013250FM-12+0017GOSM V0202801N005119999999N0100001N1+02871+02061101231ADDAA199000091GF105991001001999999001021IA2240+02409KA1120N+02761MA1999999101041MD1999999+0321OA150699999REMSYN100AAXX  09064 61630 32960 52810 10287 20206 30104 40123 80002 333 02400 20276 50912 55079 58032 85073;EQDQ01  00002PRCP99Q02  00362WGOSPD
0159616300999992000060909004+15650-013250FM-12+0017GOSM V0202801N002112200019N0100001N1+03021+02171101351ADDGA1031+069009019GF103991001001999999001021MA1999999101161MD1999999+0281REMSYN076AAXX  09094 61630 42960 32804 10302 20217 30116 40135 80002 333 58028 83073;
0189616300999992000060912004+15650-013250FM-12+0017GOSM V0202401N003112200019N0100001N1+03491+02311101351ADDAA199000091GA1021+069009019GF102991001001999999001021MA1999999101161MD1999999+0261REMSYN076AAXX  09124 61630 32960 22406 10349 20231 30116 40135 80002 333 58026 82073;EQDQ01  00002PRCP99
0159616300999992000060915004+15650-013250FM-12+0017GOSM V0202801N001012200019N0120001N1+03921+02141101001ADDGA1041+039009079GF104991041001999999031001MA1999999100811MD1999999+0181REMSYN076AAXX  09154 61630 42962 42802 10392 20214 30081 40100 84030 333 58018 84363;
0208616300999992000060918004+15650-013250FM-12+0017GOSM V0202001N001012200019N0120001N1+04031+02581100881ADDAA199000091GA1011+069009019GF101991001001999999001021KA1120M+04101MA1999999100691MD1999999+0111REMSYN082AAXX  09184 61630 32962 12002 10403 20258 30069 40088 80002 333 10410 58011 81073;EQDQ01  00002PRCP99
0147616300999992000060921004+15650-013250FM-12+0017GOSM V0202601N001012200019N0100001N1+03681+02241101121ADDGA1001+999999999GF100991001001999999001001MA1999999100931MD1999999+0251REMSYN064AAXX  09214 61630 42960 02602 10368 20224 30093 40112 333 58025;
0177616300999992000061000004+15650-013250FM-12+0017GOSM V0203001N005112200019N0100001N1+03481+02071101171ADDAA199000091GA1001+999999999GF100991001001999999001001MA1999999100981MD1999999+0091REMSYN064AAXX  10004 61630 32960 03010 10348 20207 30098 40117 333 58009;EQDQ01  00002PRCP99
0147616300999992000061003004+15650-013250FM-12+0017GOSM V0203001N006212200019N0100001N1+03091+02151101201ADDGA1001+999999999GF100991001001999999001001MA1999999101011MD1999999+0131REMSYN064AAXX  10034 61630 42960 03012 10309 20215 30101 40120 333 58013;
0159616300999992000061009004+15650-013250FM-12+0017GOSM V0203201N005110390019N0100001N1+03091+01961101281ADDGA1071+039009079GF107991071001999999071999MA1999999101291MD1999999+0131REMSYN076AAXX  10094 61630 42960 73210 10309 20196 30129 40128 8707/ 333 58013 87363;
0189616300999992000061012004+15650-013250FM-12+0017GOSM V0203201N004110690019N0100001N1+03591+02061101311ADDAA199000091GA1071+069009019GF107991001001999999001021MA1999999101121MD1999999-0041REMSYN076AAXX  10124 61630 32960 73208 10359 20206 30112 40131 80002 333 59004 87073;EQDQ01  00002PRCP99
0159616300999992000061015004+15650-013250FM-12+0017GOSM V0209999C000010390019N0100001N1+04021+01921101191ADDGA1051+039009079GF105991051001999999081001MA1999999101001MD1999999+0191REMSYN076AAXX  10154 61630 42960 50000 10402 20192 30100 40119 85080 333 58019 85363;
0208616300999992000061018004+15650-013250FM-12+0017GOSM V0209999C000012200019N0100001N1+04001+01971101001ADDAA199000091GA1041+039009079GF104991041001999999081001KA1120M+04101MA1999999100811MD1999999+0121REMSYN082AAXX  10184 61630 32960 40000 10400 20197 30081 40100 84080 333 10410 58012 84363;EQDQ01  00002PRCP99
0195616300999992000061100004+15650-013250FM-12+0017GOSM V0202801N002112200019N0100001N1+03461+02191101281ADDAA199000091GA1041+039009079GF104991041001999999081001MA1999999101091MD1999999+0111REMSYN082AAXX  11004 61630 32960 42804 10346 20219 30109 40128 84080 333 0//00 58011 84363;EQDQ01  00002PRCP99
0187616300999992000061109004+15650-013250FM-12+0017GOSM V0203201N002110390019N0100001N1+02901+02061101251ADDAY161031AY211031GA1061+039009079GF106991061001999999071001MA1999999101061MD1999999-0231MW1211REMSYN082AAXX  11094 61630 41960 63204 10290 20206 30106 40125 72161 86070 333 59023 86363;
0216616300999992000061112004+15650-013250FM-12+0017GOSM V0203201N002110390019N0100001N1+03481+02041101221ADDAA106000791AC10I9AY181061AY211061GA1061+039009079GF106991061001999999071001MA1999999101031MD1999999-0091MW1211REMSYN094AAXX  11124 61630 41960 63204 10348 20204 30103 40122 69901 72181 86070 333 0//14 59009 86363;
0147616300999992000061115004+15650-013250FM-12+0017GOSM V0209999C000012200019N0120001N1+04281+02411100851ADDGA1001+999999999GF100991001001999999001001MA1999999100661MD1999999-0341REMSYN064AAXX  11154 61630 42962 00000 10428 20241 30066 40085 333 59034;
0183616300999992000061118004+15650-013250FM-12+0017GOSM V0203001N004112200019N0120001N1+04211+02391100681ADDAA112000791GA1001+999999999GF100991001001999999001001KA1120M+04351MA1999999100491MD1999999-0321REMSYN076AAXX  11184 61630 12962 03008 10421 20239 30049 40068 69902 333 10435 59032;
0159616300999992000061209004+15650-013250FM-12+0017GOSM V0203001N007210390019N0100001N1+03181+02161101171ADDGA1051+039009079GF105991051001999999031001MA1999999100981MD1999999-0081REMSYN076AAXX  12094 61630 42960 53014 10318 20216 30098 40117 85030 333 59008 85363;
0177616300999992000061212004+15650-013250FM-12+0017GOSM V0203001N007212200019N0070001N1+03691+02141101011ADDAA199000091GA1001+999999999GF100991001001999999001001MA1999999100821MD1999999-0191REMSYN064AAXX  12124 61630 32957 03014 10369 20214 30082 40101 333 59019;EQDQ01  00002PRCP99
0147616300999992000061215004+15650-013250FM-12+0017GOSM V0203201N005112200019N0100001N1+04101+02261100761ADDGA1001+999999999GF100991001001999999001001MA1999999100571MD1999999-0091REMSYN064AAXX  12154 61630 42960 03210 10410 20226 30057 40076 333 59009;
0196616300999992000061218004+15650-013250FM-12+0017GOSM V0203201N004112200019N0100001N1+04141+02091100791ADDAA199000091GA1001+999999999GF100991001001999999001001KA1120M+04181MA1999999100601MD1999999+0111REMSYN070AAXX  12184 61630 32960 03208 10414 20209 30060 40079 333 10418 58011;EQDQ01  00002PRCP99
0177616300999992000061300004+15650-013250FM-12+0017GOSM V0203201N004112200019N0100001N1+03521+02191101121ADDAA199000091GA1001+999999999GF100991001001999999001001MA1999999100931MD1999999+0191REMSYN064AAXX  13004 61630 32960 03208 10352 20219 30093 40112 333 58019;EQDQ01  00002PRCP99
0147616300999992000061303004+15650-013250FM-12+0017GOSM V0203201N004112200019N0100001N1+03201+02241101001ADDGA1001+999999999GF100991001001999999001001MA1999999100811MD1999999+0141REMSYN064AAXX  13034 61630 42960 03208 10320 20224 30081 40100 333 58014;
0147616300999992000061309004+15650-013250FM-12+0017GOSM V0203201N005112200019N0100001N1+03101+01881101251ADDGA1001+999999999GF100991001001999999001001MA1999999101061MD1999999+0081REMSYN064AAXX  13094 61630 42960 03210 10310 20188 30106 40125 333 58008;
0183616300999992000061312004+15650-013250FM-12+0017GOSM V0203201N004112200019N0100001N1+03561+02241101251ADDAA199000091GA1001+999999999GF100991001001999999001001MA1999999101061MD1999999+0241REMSYN070AAXX  13124 61630 32960 03208 10356 20224 30106 40125 333 0//00 58024;EQDQ01  00002PRCP99
0147616300999992000061315004+15650-013250FM-12+0017GOSM V0202201N004112200019N0100001N1+04001+02221101011ADDGA1001+999999999GF100991001001999999001001MA1999999100821MD1999999+0251REMSYN064AAXX  13154 61630 42960 02208 10400 20222 30082 40101 333 58025;
0208616300999992000061318004+15650-013250FM-12+0017GOSM V0209999C000012200019N0100001N1+04021+02281100951ADDAA199000091GA1031+039009079GF103991031001999999071001KA1120M+04141MA1999999100761MD1999999+0141REMSYN082AAXX  13184 61630 32960 30000 10402 20228 30076 40095 83070 333 10414 58014 83363;EQDQ01  00002PRCP99
0205616300999992000061400004+15640-013250FM-12+0017GOSM V0202801N004110390019N0100001N1+03101+02131101311ADDAA199000091GA1061+039009079GF199999061001999999071001MA1999999101121MD1999999+0191REMSYN076AAXX  14004 61630 32960 52808 10310 20213 30112 40131 86070 333 58019 86363;EQDQ01+000052SCOTCVQ02  00002PRCP99
0141616300999992000061403004+15640-013250FM-12+0017GOSM V0202801N004112200019N0100001N1+99999+99999101241ADDGA1001+999999999GF100991001001999999001001MA1999999101051MD1999999+0241REMSYN058AAXX  14034 61630 42960 02808 20223 30105 40124 333 58024;
0233616300999992000061406004+15640-013250FM-12+0017GOSM V0202801N003112200019N0100001N1+02901+02161101131ADDAA199000091GF103991001001999999001021IA2240+02709KA1120N+02811MA1999999100941MD1999999+0011OA150600461REMSYN100AAXX  14064 61630 32960 32806 10290 20216 30094 40113 80002 333 02700 20281 50922 55095 58001 83073;EQDQ01  00002PRCP99
0194616300999992000061409004+15640-013250FM-12+0017GOSM V0202001N999990690019N0100001N1+03121+02201101231ADDGA1061+069009019GF106991001001999999001021MA1999999101041MD1999999-0021REMSYN076AAXX  14094 61630 42960 62080 10312 20220 30104 40123 80002 333 59002 86073;EQDQ01+004113WOSPD Q020004113WOSPD 
0147616300999992000061415004+15640-013250FM-12+0017GOSM V0202801N004112200019N0100001N1+04021+02001100851ADDGA1001+999999999GF100991001001999999001001MA1999999100661MD1999999-0161REMSYN064AAXX  14154 61630 42960 02808 10402 20200 30066 40085 333 59016;
0183616300999992000061500004+15640-013250FM-12+0017GOSM V0209999C000012200019N0100001N1+03401+01891100971ADDAA199000091GA1001+999999999GF100991001001999999001001MA1999999100781MD1999999-0341REMSYN070AAXX  15004 61630 32960 00000 10340 20189 30078 40097 333 0//00 59034;EQDQ01  00002PRCP99
0147616300999992000061509004+15640-013250FM-12+0017GOSM V0203201N002112200019N0100001N1+03101+02061100931ADDGA1001+999999999GF100991001001999999001001MA1999999100741MD1999999-0301REMSYN064AAXX  15094 61630 42960 03204 10310 20206 30074 40093 333 59030;
0183616300999992000061512004+15640-013250FM-12+0017GOSM V0209999C000012200019N0100001N1+03621+02211100921ADDAA199000091GA1001+999999999GF100991001001999999001001MA1999999100731MD1999999-0291REMSYN070AAXX  15124 61630 32960 00000 10362 20221 30073 40092 333 0//00 59029;EQDQ01  00002PRCP99
0159616300999992000061515004+15640-013250FM-12+0017GOSM V0209999C000012200019N0100001N1+04111+02221100651ADDGA1041+069009019GF104991001001999999001021MA1999999100461MD1999999-0201REMSYN076AAXX  15154 61630 42960 40000 10411 20222 30046 40065 80002 333 59020 84073;
0208616300999992000061518004+15640-013250FM-12+0017GOSM V0202401N003110690019N0080001N1+04051+01911100531ADDAA199000091GA1051+069009019GF105991001001999999001021KA1120M+04221MA1999999100341MD1999999-0211REMSYN082AAXX  15184 61630 32958 52406 10405 20191 30034 40053 80002 333 10422 59021 85073;EQDQ01  00002PRCP99
0189616300999992000061600004+15640-013250FM-12+0017GOSM V0202401N003112200019N0080001N1+03481+01861100821ADDAA199000091GA1021+069009019GF102991001001999999001021MA1999999100631MD1999999-0151REMSYN076AAXX  16004 61630 32958 22406 10348 20186 30063 40082 80002 333 59015 82073;EQDQ01  00002PRCP99
0177616300999992000061612004+15640-013250FM-12+0017GOSM V0202801N002112200019N0100001N1+03591+02101100921ADDAA199000091GA1001+999999999GF100991001001999999001001MA1999999100731MD1999999+0001REMSYN064AAXX  16124 61630 32960 02804 10359 20210 30073 40092 333 58000;EQDQ01  00002PRCP99
0147616300999992000061615004+15640-013250FM-12+0017GOSM V0202501N003112200019N0100001N1+03961+02151100711ADDGA1001+999999999GF100991001001999999001001MA1999999100521MD1999999+0061REMSYN064AAXX  16154 61630 42960 02506 10396 20215 30052 40071 333 58006;
0196616300999992000061618004+15640-013250FM-12+0017GOSM V0202801N002112200019N0100001N1+03921+02091100601ADDAA199000091GA1001+999999999GF100991001001999999001001KA1120M+04221MA1999999100411MD1999999+0071REMSYN070AAXX  16184 61630 32960 02804 10392 20209 30041 40060 333 10422 58007;EQDQ01  00002PRCP99
0147616300999992000061709004+15640-013250FM-12+0017GOSM V0202801N002112200019N0100001N1+02881+02041101051ADDGA1001+999999999GF100991001001999999001001MA1999999100861MD1999999+0091REMSYN064AAXX  17094 61630 42960 02804 10288 20204 30086 40105 333 58009;
0183616300999992000061712004+15640-013250FM-12+0017GOSM V0202801N004112200019N0100001N1+03441+02131101141ADDAA199000091GA1001+999999999GF100991001001999999001001MA1999999100931MD1999999+0201REMSYN070AAXX  17124 61630 32960 02808 10344 20213 30093 40114 333 0//00 58020;EQDQ01  00002PRCP99
0147616300999992000061715004+15640-013250FM-12+0017GOSM V0202801N004112200019N0100001N1+03901+01991100891ADDGA1001+999999999GF100991001001999999001001MA1999999100701MD1999999+0181REMSYN064AAXX  17154 61630 42960 02808 10390 20199 30070 40089 333 58018;
0208616300999992000061718004+15640-013250FM-12+0017GOSM V0202801N003110690019N0100001N1+03851+02111100741ADDAA199000091GA1051+069009019GF105991001001999999001021KA1120M+04001MA1999999100551MD1999999+0141REMSYN082AAXX  17184 61630 32960 52806 10385 20211 30055 40074 80002 333 10400 58014 85073;EQDQ01  00002PRCP99
0189616300999992000061800004+15640-013250FM-12+0017GOSM V0202801N001012200019N0100001N1+03321+02081101081ADDAA199000091GA1021+069009019GF102991001001999999001021MA1999999100891MD1999999+0261REMSYN076AAXX  18004 61630 32960 22802 10332 20208 30089 40108 80002 333 58026 82073;EQDQ01  00002PRCP99
0159616300999992000061809004+15640-013250FM-12+0017GOSM V0202801N001012200019N0100001N1+02951+02081101271ADDGA1021+069009019GF102991001001999999001021MA1999999101081MD1999999+0221REMSYN076AAXX  18094 61630 42960 22802 10295 20208 30108 40127 80002 333 58022 82073;
0177616300999992000061812004+15640-013250FM-12+0017GOSM V0203201N003112200019N0100001N1+03511+02181101251ADDAA199000091GA1001+999999999GF100991001001999999001001MA1999999101061MD1999999+0131REMSYN064AAXX  18124 61630 32960 03206 10351 20218 30106 40125 333 58013;EQDQ01  00002PRCP99
0147616300999992000061815004+15640-013250FM-12+0017GOSM V0203201N003112200019N0100001N1+03941+02161100961ADDGA1001+999999999GF100991001001999999001001MA1999999100771MD1999999+0071REMSYN064AAXX  18154 61630 42960 03206 10394 20216 30077 40096 333 58007;
0196616300999992000061818004+15640-013250FM-12+0017GOSM V0209999C000012200019N0100001N1+03981+02321100891ADDAA199000091GA1001+999999999GF100991001001999999001001KA1120M+04051MA1999999100701MD1999999+0151REMSYN070AAXX  18184 61630 32960 00000 10398 20232 30070 40089 333 10405 58015;EQDQ01  00002PRCP99
0183616300999992000061900004+15640-013250FM-12+0017GOSM V0203201N004112200019N0100001N1+03481+02001101041ADDAA199000091GA1001+999999999GF100991001001999999001001MA1999999100851MD1999999-0041REMSYN070AAXX  19004 61630 32960 03208 10348 20200 30085 40104 333 0//00 59004;EQDQ01  00002PRCP99
0147616300999992000061903004+15640-013250FM-12+0017GOSM V0203201N004112200019N0100001N1+03161+01991101031ADDGA1001+999999999GF100991001001999999001001MA1999999100841MD1999999-0011REMSYN064AAXX  19034 61630 42960 03208 10316 20199 30084 40103 333 59001;
0147616300999992000061909004+15640-013250FM-12+0017GOSM V0202801N004112200019N0100001N1+02921+01951101231ADDGA1001+999999999GF100991001001999999001001MA1999999101041MD1999999-0041REMSYN064AAXX  19094 61630 42960 02808 10292 20195 30104 40123 333 59004;
0147616300999992000061915004+15640-013250FM-12+0017GOSM V0203201N004112200019N0100001N1+03901+02181100791ADDGA1001+999999999GF100991001001999999001001MA1999999100601MD1999999-0151REMSYN064AAXX  19154 61630 42960 03208 10390 20218 30060 40079 333 59015;
0159616300999992000061921004+15640-013250FM-12+0017GOSM V0203201N002112200019N0100001N1+03561+01921100761ADDGA1031+069009019GF103991001001999999001021MA1999999100581MD1999999-0181REMSYN076AAXX  19214 61630 42960 33204 10356 20192 30058 40076 80002 333 59018 83073;
0147616300999992000062009004+15640-013250FM-12+0017GOSM V0202801N002112200019N0100001N1+02901+01931101061ADDGA1001+999999999GF100991001001999999001001MA1999999100871MD1999999-0171REMSYN064AAXX  20094 61630 42960 02804 10290 20193 30087 40106 333 59017;
0147616300999992000062015004+15640-013250FM-12+0017GOSM V0203201N002112200019N0100001N1+04021+01841100811ADDGA1001+999999999GF100991001001999999001001MA1999999100621MD1999999+0021REMSYN064AAXX  20154 61630 42960 03204 10402 20184 30062 40081 333 58002;
0196616300999992000062018004+15640-013250FM-12+0017GOSM V0203201N002112200019N0100001N1+04001+01811100751ADDAA199000091GA1001+999999999GF100991001001999999001001KA1120M+04151MA1999999100561MD1999999+0061REMSYN070AAXX  20184 61630 32960 03204 10400 20181 30056 40075 333 10415 58006;EQDQ01  00002PRCP99
0183616300999992000062021004+15640-013250FM-12+0017GOSM V0209999C000012200019N0100001N1+03641+02061100901ADDGA1011+009009099GF101991011091999999001001MA1999999100711MD1999999+0131MW1131REMSYN094AAXX  20214 61630 41960 10000 10364 20206 30071 40090 713// 81900 333 58013 81930 94942 95872;
0232616300999992000062100004+15640-013250FM-12+0017GOSM V0203201N005110390019N0070001N1+99999+99999101161ADDAA106000791AY191061AY261061GA1011+009009099GA2071+039009039GF107991011091008001071999MA1999999100971MD1999999+0281MW1951REMSYN100AAXX  21004 61630 11557 73210 20228 30097 40116 69901 79596 8197/ 333 58028 81930 87363 94942 95872;
0226616300999992000062106004+15640-013250FM-12+0017GOSM V0203201N002119999999N0100001N1+02601+02281101071ADDAA124003091AC12I9GF105991051001999999071001IA2240+02309KA1120N+02501MA1999999100881MD1999999+0131OA150600361REMSYN106AAXX  21064 61630 12960 53204 10260 20228 30088 40107 60034 85070 333 02356 20250 50862 55070 58013 85363;
0159616300999992000062109004+15640-013250FM-12+0017GOSM V0203201N002112200019N0100001N1+02981+02291101431ADDGA1021+039009079GF102991021001999999031001MA1999999101151MD1999999+0381REMSYN076AAXX  21094 61630 42960 23204 10298 20229 30115 40143 82030 333 58038 82363;
0176616300999992000062112004+15640-013250FM-12+0017GOSM V0201801N002110390019N0070001N1+03061+02341101501ADDAA199000021GA1061+039009079GF106991061001999999071001MA1999999101311MD1999999+0481REMSYN082AAXX  21124 61630 32957 61804 10306 20234 30131 40150 86070 333 0//59 58048 86363;
0159616300999992000062115004+15640-013250FM-12+0017GOSM V0201801N001010690019N0100001N1+03641+02311101111ADDGA1061+069009019GF106991001001999999001021MA1999999100921MD1999999-0301REMSYN076AAXX  21154 61630 42960 61802 10364 20231 30092 40111 80002 333 59030 86073;
0208616300999992000062118004+15640-013250FM-12+0017GOSM V0201601N002110690019N0100001N1+03641+02201100941ADDAA199000091GA1061+069009019GF106991001001999999001021KA1120M+03851MA1999999100751MD1999999+0191REMSYN082AAXX  21184 61630 32960 61604 10364 20220 30075 40094 80002 333 10385 58019 86073;EQDQ01  00002PRCP99
0223616300999992000062200004+15640-013250FM-12+0017GOSM V0209999C000012200019N0100001N1+02801+02311101191ADDAA199000091GA1001+999999999GF100991001001999999001001IA2240+02109KA1120N+02741MA1999999101001OA150600511REMSYN088AAXX  23064 61630 32960 00000 10280 20231 30100 40119 333 02100 20274 50532 55100 58026;EQDQ01  00002PRCP99
0254616300999992000062206004+15640-013250FM-12+0017GOSM V0203201N002119999999N0100001N1+02501+02201100951ADDAA124011991AC13C9AY161061AY221061GF108991081001999999071999IA2240+02009KA1120N+02461MA1999999100761MD1999999-0121MW1021OA150600411REMSYN112AAXX  22064 61630 11960 83204 10250 20220 30076 40095 60124 70262 8807/ 333 02033 20246 50472 55087 59012 88363;
0159616300999992000062209004+15640-013250FM-12+0017GOSM V0201401N001012200019N0100001N1+02741+02311101371ADDGA1041+069009019GF104991001001999999001021MA1999999101181MD1999999+0031REMSYN076AAXX  22094 61630 42960 41402 10274 20231 30118 40137 80002 333 58003 84073;
0177616300999992000062212004+15640-013250FM-12+0017GOSM V0209999C000012200019N0120001N1+03121+02331101461ADDAA199000091GA1001+999999999GF100991001001999999001001MA1999999101271MD1999999-0041REMSYN064AAXX  22124 61630 32962 00000 10312 20233 30127 40146 333 59004;EQDQ01  00002PRCP99
0147616300999992000062215004+15640-013250FM-12+0017GOSM V0202401N003112200019N0150001N1+03481+02411101171ADDGA1001+999999999GF100991001001999999001001MA1999999100981MD1999999+0061REMSYN064AAXX  22154 61630 42965 02406 10348 20241 30098 40117 333 58006;
0196616300999992000062218004+15640-013250FM-12+0017GOSM V0202201N002112200019N0100001N1+03701+02461100991ADDAA199000091GA1001+999999999GF100991001001999999001001KA1120M+03741MA1999999100801MD1999999+0051REMSYN070AAXX  22184 61630 32960 02204 10370 20246 30080 40099 333 10374 58005;EQDQ01  00002PRCP99
0189616300999992000062300004+15640-013250FM-12+0017GOSM V0209999C000012200019N0100001N1+03181+02461101221ADDAA199000091AC13C9GA1001+999999999GF100991001001999999001001MA1999999101031MD1999999-0131REMSYN070AAXX  23004 61630 32960 00000 10318 20246 30103 40122 333 0//13 59013;EQDQ01  00002PRCP99
0147616300999992000062309004+15640-013250FM-12+0017GOSM V0202601N003112200019N0120001N1+03071+02081101251ADDGA1001+999999999GF100991001001999999001001MA1999999101061MD1999999-0221REMSYN064AAXX  23094 61630 42962 02606 10307 20208 30106 40125 333 59022;
0177616300999992000062312004+15640-013250FM-12+0017GOSM V0203201N002112200019N0120001N1+03541+01851101241ADDAA199000091GA1001+999999999GF100991001001999999001001MA1999999101051MD1999999-0221REMSYN064AAXX  23124 61630 32962 03204 10354 20185 30105 40124 333 59022;EQDQ01  00002PRCP99
0147616300999992000062315004+15640-013250FM-12+0017GOSM V0202201N003112200019N0100001N1+03901+02111101001ADDGA1001+999999999GF100991001001999999001001MA1999999100811MD1999999-0171REMSYN064AAXX  23154 61630 42960 02206 10390 20211 30081 40100 333 59017;
0196616300999992000062318004+15640-013250FM-12+0017GOSM V0202801N002112200019N0100001N1+03961+02111100901ADDAA199000091GA1001+999999999GF100991001001999999001001KA1120M+04021MA1999999100711MD1999999-0091REMSYN070AAXX  23184 61630 32960 02804 10396 20211 30071 40090 333 10402 59009;EQDQ01  00002PRCP99
0177616300999992000062400004+15640-013250FM-12+0017GOSM V0209999C000012200019N0100001N1+03441+02161101001ADDAA199000091GA1001+999999999GF100991001001999999001001MA1999999100811MD1999999-0221REMSYN064AAXX  24004 61630 32960 00000 10344 20216 30081 40100 333 59022;EQDQ01  00002PRCP99
0223616300999992000062406004+15640-013250FM-12+0017GOSM V0202801N003112200019N0100001N1+02961+01961102171ADDAA199000091GA1001+999999999GF100991001001999999001001IA2240+02509KA1120N+02861MA1999999100981OA150600361REMSYN088AAXX  24064 61630 32960 02806 10296 20196 30098 40217 333 02500 20286 50862 55073 59002;EQDQ01  00002PRCP99
0147616300999992000062409004+15640-013250FM-12+0017GOSM V0202801N005112200019N0100001N1+03081+02171101261ADDGA1001+999999999GF100991001001999999001001MA1999999101071MD1999999+0011REMSYN064AAXX  24094 61630 42960 02810 10308 20217 30107 40126 333 58001;
0183616300999992000062412004+15640-013250FM-12+0017GOSM V0202801N004112200019N0100001N1+03501+02131101231ADDAA199000091GA1001+999999999GF100991001001999999001001MA1999999101041MD1999999-0011REMSYN070AAXX  24124 61630 32960 02808 10350 20213 30104 40123 333 0//00 59001;EQDQ01  00002PRCP99
0177616300999992000062500004+15640-013250FM-12+0017GOSM V0203201N001012200019N0100001N1+03451+02061101041ADDAA199000091GA1001+999999999GF100991001001999999001001MA1999999100851MD1999999+0041REMSYN064AAXX  25004 61630 32960 03202 10345 20206 30085 40104 333 58004;EQDQ01  00002PRCP99
0239616300999992000062506004+15640-013250FM-12+0017GOSM V0202801N005112200019N0100001N1+02851+02431101051ADDAA199000091GA1001+999999999GF100991001001999999001001IA2240+02709KA1120N+02751MA1999999100861OA150699999REMSYN088AAXX  25064 61630 32960 02810 10285 20243 30086 40105 333 02700 20275 50892 55075 59012;EQDQ01  00002PRCP99Q02  00362WGOSPD
0183616300999992000062512004+15640-013250FM-12+0017GOSM V0202801N001012200019N0100001N1+03481+02241101221ADDAA199000091GA1001+999999999GF100991001001999999001001MA1999999101031MD1999999-0011REMSYN070AAXX  25124 61630 32960 02802 10348 20224 30103 40122 333 0//00 59001;EQDQ01  00002PRCP99
0159616300999992000062515004+15640-013250FM-12+0017GOSM V0202801N002112200019N0120001N1+03881+02261101031ADDGA1021+004509059GF102991021051004501001001MA1999999100761MD1999999-0021REMSYN076AAXX  25154 61630 42462 22804 10388 20226 30076 40103 82500 333 59002 82615;
0201616300999992000062518004+15640-013250FM-12+0017GOSM V0209999C000012200019N0120001N1+03901+02221100811ADDAA199000091GA1031+004509089GF103991031021004501001001MA1999999100621MD1999999-0031REMSYN088AAXX  25184 61630 32462 30000 10390 20222 30062 40081 83200 333 59003 83815 94923 95833;EQDQ01  00002PRCP99
0221616300999992000062521004+15640-013250FM-12+0017GOSM V0201401N007210360019N0060001N1+02581+02211101201ADDAY191031AY261031GA1041+007809099GA2081+036009039GF108991041091008001071999MA1999999101011MD1999999+0361MW1951REMSYN100AAXX  25214 61630 41556 81414 10258 20221 30101 40120 79596 8497/ 333 58036 84926 88362 94942 95872;
0216616300999992000062600004+15640-013250FM-12+0017GOSM V0202201N005110390019N0080001N1+02401+02221101491ADDAA106056991AC12C9AY191061AY261061GA1081+039009079GF108991081001999999071999MA1999999101301MD1999999+0451MW1611REMSYN094AAXX  26004 61630 11958 82210 10240 20222 30130 40149 60571 76196 8807/ 333 0//32 58045 88363;
0187616300999992000062603004+15640-013250FM-12+0017GOSM V0202201N002110390019N0100001N1+02431+02261101181ADDAY191031AY261031GA1071+039009079GF107991071001999999071999MA1999999100991MD1999999+0131MW1001REMSYN082AAXX  26034 61630 41960 72204 10243 20226 30099 40118 70096 8707/ 333 58013 87363;
0254616300999992000062606004+15640-013250FM-12+0017GOSM V0209999C000012200019N0100001N1+02511+02311101211ADDAA124055191AC12I9AY191061AY261061GF101991011001999999071001IA2240+02709KA1120N+01711MA1999999101021MD1999999+0161MW1011OA150600411REMSYN112AAXX  26064 61630 11960 10000 10251 20231 30102 40121 60554 70196 81070 333 02756 20171 50732 55086 58016 81363;
0159616300999992000062609004+15640-013250FM-12+0017GOSM V0201401N002110390019N0100001N1+02601+02271101451ADDGA1081+039009079GF108991081001999999071999MA1999999101261MD1999999+0191REMSYN076AAXX  26094 61630 42960 81404 10260 20227 30126 40145 8807/ 333 58019 88363;
0216616300999992000062612004+15640-013250FM-12+0017GOSM V0209999C000010390019N0100001N1+02881+02291101261ADDAA106000791AC11C9AY161061AY221061GA1081+039009079GF108991081001999999071999MA1999999101071MD1999999+0041MW1601REMSYN094AAXX  26124 61630 11960 80000 10288 20229 30107 40126 69901 76062 8807/ 333 0//11 58004 88363;
0179616300999992000062615004+15640-013250FM-12+0017GOSM V0209999C000010390019N0100001N1+03161+02171101121ADDAY161031GA1071+039009079GF107991071001999999071001MA1999999100931MD1999999+0171MW1611REMSYN082AAXX  26154 61630 41960 70000 10316 20217 30093 40112 7616/ 87070 333 58017 87363;
0198616300999992000062618004+15640-013250FM-12+0017GOSM V0209999C000010390019N0100001N1+03181+02351101081ADDAY161061GA1061+039009079GF106991061001999999071001KA1120M+03201MA1999999100891MD1999999+0251MW1011REMSYN088AAXX  26184 61630 11960 60000 10318 20235 30089 40108 7016/ 86070 333 10320 58025 86363;
0170616300999992000062700004+15640-013250FM-12+0017GOSM V0209999C000012200019N0100001N1+02761+02451101321ADDAA199000021AC13I9GA1001+999999999GF100991001001999999001001MA1999999101131MD1999999-0171REMSYN070AAXX  27004 61630 32960 00000 10276 20245 30113 40132 333 0//18 59017;
0229616300999992000062706004+15640-013250FM-12+0017GOSM V0209999C000012200019N0100001N1+02581+02201101171ADDAA199000091AC13I9GA1001+999999999GF100991001001999999001001IA2240+02109KA1120N+02501MA1999999100981OA150600001REMSYN088AAXX  27064 61630 32960 00000 10258 20220 30098 40117 333 02118 20250 50282 55000 59004;EQDQ01  00002PRCP99
0147616300999992000062709004+15640-013250FM-12+0017GOSM V0209999C000012200019N0120001N1+02781+01941101251ADDGA1001+999999999GF100991001001999999001001MA1999999101061MD1999999-0201REMSYN064AAXX  27094 61630 42962 00000 10278 20194 30106 40125 333 59020;
0195616300999992000062712004+15640-013250FM-12+0017GOSM V0203201N002112200019N0100001N1+03201+01831101251ADDAA199000091GA1021+039009079GF102991021001999999081001MA1999999101081MD1999999+0011REMSYN082AAXX  27124 61630 32960 23204 10320 20183 30108 40125 82080 333 0//19 58001 82363;EQDQ01  00002PRCP99
0159616300999992000062809004+15640-013250FM-12+0017GOSM V0202801N003112200019N0100001N1+02871+02221101271ADDGA1031+069009019GF103991001001999999001021MA1999999101021MD1999999+0021REMSYN076AAXX  28094 61630 42960 32806 10287 20222 30102 40127 80002 333 58002 83073;
0177616300999992000062812004+15640-013250FM-12+0017GOSM V0202201N002112200019N0100001N1+03451+02211101171ADDAA199000091GA1001+999999999GF100991001001999999001001MA1999999100981MD1999999-0101REMSYN064AAXX  28124 61630 32960 02204 10345 20221 30098 40117 333 59010;EQDQ01  00002PRCP99
0147616300999992000062815004+15640-013250FM-12+0017GOSM V0202201N003112200019N0150001N1+03881+02191100991ADDGA1001+999999999GF100991001001999999001001MA1999999100801MD1999999-0051REMSYN064AAXX  28154 61630 42965 02206 10388 20219 30080 40099 333 59005;
0196616300999992000062818004+15640-013250FM-12+0017GOSM V0209999C000012200019N0150001N1+03411+02181100851ADDAA199000091GA1001+999999999GF100991001001999999001001KA1120M+03991MA1999999100661MD1999999+0011REMSYN070AAXX  28184 61630 32965 00000 10341 20218 30066 40085 333 10399 58001;EQDQ01  00002PRCP99
0177616300999992000062900004+15640-013250FM-12+0017GOSM V0209999C000012200019N0100001N1+03301+02301101241ADDAA199000091GA1001+999999999GF100991001001999999001001MA1999999101051MD1999999+0201REMSYN064AAXX  29004 61630 32960 00000 10330 20230 30105 40124 333 58020;EQDQ01  00002PRCP99
0304616300999992000062906004+15640-013250FM-12+0017GOSM V0201401N00211036001CN0080001N1+02291+02131101551ADDAA124023191AC11C9AY191061AY261061GA1031+007809099GA2081+036009039GF108991031091008001071999IA2240+02509KA1120N+02141MA1999999101361MD1999999+0431MW1951OA150600461REMSYN130AAXX  29064 61630 11558 81404 10229 20213 30136 40155 60234 79596 8397/ 333 02561 20214 50802 55097 58043 83926 88362 94930 95870;
0187616300999992000062909004+15640-013250FM-12+0017GOSM V0202201N005110390019N0100001N1+02601+01991101271ADDAY191031AY261031GA1081+039009079GF108991081001999999071999MA1999999101081MD1999999+0001MW1021REMSYN082AAXX  29094 61630 41960 82210 10260 20199 30108 40127 70296 8807/ 333 58000 88363;
0222616300999992000062912004+15640-013250FM-12+0017GOSM V0202001N001010390019N0100001N1+02831+02101101461ADDAA106002091AC12I9AY191061AY261061GA1051+039009039GF108991071001999999071021MA1999999101271MD1999999+0291MW1011REMSYN100AAXX  29124 61630 11960 82002 10283 20210 30127 40146 60021 70196 87072 333 0//56 58029 85363 83073;
0187616300999992000062915004+15640-013250FM-12+0017GOSM V0209999C000019999999N0100001N1+03161+02301101391ADDGA1021+004509069GA2031+039009039GF105991021051999999031021MA1999999101021MD1999999+0121REMSYN088AAXX  29154 61630 42960 50000 10316 20230 30102 40139 82532 333 58012 82615 83363 85073;
0195616300999992000062918004+15640-013250FM-12+0017GOSM V0209999C000010390019N0100001N1+03061+02151101051ADDAA112002091GA1061+039009079GF106991061001999999071001KA1120M+03151MA1999999100861MD1999999+0201REMSYN088AAXX  29184 61630 12960 60000 10306 20215 30086 40105 60022 86070 333 10315 58020 86363;
0201616300999992000063000004+15640-013250FM-12+0017GOSM V0209999C000010390019N0100001N1+02801+02521101121ADDAA199000091AC13I9GA1051+039009079GF105991051001999999071001MA1999999100931MD1999999-0121REMSYN082AAXX  30004 61630 32960 50000 10280 20252 30093 40112 85070 333 0//58 59012 85363;EQDQ01  00002PRCP99
0147616300999992000063009004+15640-013250FM-12+0017GOSM V0209999C000012200019N0100001N1+02841+02351101191ADDGA1001+999999999GF100991001001999999001001MA1999999101001MD1999999-0081REMSYN064AAXX  30094 61630 42960 00000 10284 20235 30100 40119 333 59008;
0183616300999992000063012004+15640-013250FM-12+0017GOSM V0202801N002112200019N0100001N1+03261+02471101171ADDAA199000091GA1001+999999999GF100991001001999999001001MA1999999100981MD1999999-0291REMSYN070AAXX  30124 61630 32960 02804 10326 20247 30098 40117 333 0//00 59029;EQDQ01  00002PRCP99
0147616300999992000063015004+15640-013250FM-12+0017GOSM V0209999C000012200019N0100001N1+03681+02181100891ADDGA1001+999999999GF100991001001999999001001MA1999999100701MD1999999-0321REMSYN064AAXX  30154 61630 42960 00000 10368 20218 30070 40089 333 59032;
0177616300999992000070100004+15640-013250FM-12+0017GOSM V0209999C000012200019N0100001N1+03021+02441100921ADDAA199000091GA1001+999999999GF100991001001999999001001MA1999999100731MD1999999-0201REMSYN064AAXX  01004 61630 32960 00000 10302 20244 30073 40092 333 59020;EQDQ01  00002PRCP99
0159616300999992000070109004+15640-013250FM-12+0017GOSM V0202801N003110390019N0100001N1+02681+02191100981ADDGA1051+039009079GF105991051001999999071001MA1999999100791MD1999999-0211REMSYN076AAXX  01094 61630 42960 52806 10268 20219 30079 40098 85070 333 59021 85363;
0189616300999992000070112004+15640-013250FM-12+0017GOSM V0202801N001010690019N0100001N1+03101+02261100981ADDAA199000091GA1061+069009019GF106991001001999999001021MA1999999100791MD1999999-0191REMSYN076AAXX  01124 61630 32960 62802 10310 20226 30079 40098 80002 333 59019 86073;EQDQ01  00002PRCP99
0159616300999992000070115004+15640-013250FM-12+0017GOSM V0202801N001010690019N0100001N1+03401+02251100901ADDGA1071+069009019GF107991001001999999001021MA1999999100711MD1999999+0011REMSYN076AAXX  01154 61630 42960 72802 10340 20225 30071 40090 80002 333 58001 87073;
0147616300999992000070121004+15640-013250FM-12+0017GOSM V0209999C000012200019N0100001N1+03181+02351100821ADDGA1001+999999999GF100991001001999999001001MA1999999100631MD1999999+0071REMSYN064AAXX  01214 61630 42960 00000 10318 20235 30063 40082 333 58007;
0177616300999992000070200004+15640-013250FM-12+0017GOSM V0201801N001012200019N0100001N1+03001+02371100941ADDAA199000091GA1001+999999999GF100991001001999999001001MA1999999100751MD1999999+0021REMSYN064AAXX  02004 61630 32960 01802 10300 20237 30075 40094 333 58002;EQDQ01  00002PRCP99
0223616300999992000070206004+15640-013250FM-12+0017GOSM V0209999C000012200019N0100001N1+02721+02211100911ADDAA199000091GA1001+999999999GF100991001001999999001001IA2240+02309KA1120N+02641MA1999999100721OA150600461REMSYN088AAXX  02064 61630 32960 00000 10272 20221 30072 40091 333 02300 20264 50512 55090 58013;EQDQ01  00002PRCP99
0165616300999992000070209004+15640-013250FM-12+0017GOSM V0209999C000019999999N0100001N1+02871+02181101071ADDGA1011+039009039GF107991011001999999081021MA1999999100881MD1999999+0091REMSYN082AAXX  02094 61630 42960 70000 10287 20218 30088 40107 81082 333 58009 81363 87073;
0195616300999992000070212004+15640-013250FM-12+0017GOSM V0209999C000019999999N0120001N1+03291+02331101241ADDAA199000091GA1021+039009039GF107991021001999999031021MA1999999101051MD1999999+0261REMSYN082AAXX  02124 61630 32962 70000 10329 20233 30105 40124 82032 333 58026 82363 86073;EQDQ01  00002PRCP99
0159616300999992000070215004+15640-013250FM-12+0017GOSM V0202801N002110390019N0100001N1+03421+01991100961ADDGA1051+039009079GF105991051001999999081001MA1999999100771MD1999999+0061REMSYN076AAXX  02154 61630 42960 52804 10342 20199 30077 40096 85080 333 58006 85363;
0196616300999992000070218004+15640-013250FM-12+0017GOSM V0202801N002112200019N0100001N1+03501+02021100851ADDAA199000091GA1001+999999999GF100991001001999999001001KA1120M+03551MA1999999100661MD1999999+0141REMSYN070AAXX  02184 61630 32960 02804 10350 20202 30066 40085 333 10355 58014;EQDQ01  00002PRCP99
0191616300999992000070300004+15640-013250FM-12+0017GOSM V0209999C000012200019N0100001N1+03001+02281101131ADDAA199000091GF101991011091008001001001MA1999999100941MD1999999+0191MW1131REMSYN088AAXX  03004 61630 31560 10000 10300 20228 30094 40113 713// 81900 333 58019 94942 95872;EQDQ01  00002PRCP99
0251616300999992000070306004+15640-013250FM-12+0017GOSM V0202801N002110450019N0100001N1+02781+02191100961ADDAA199000091GF105991011091008001071001IA2240+02409KA1120N+02681MA1999999100771MD1999999+0051MW1131OA150600311REMSYN112AAXX  03064 61630 31560 52804 10278 20219 30077 40096 713// 81970 333 02400 20268 50552 55068 58005 94942 95872;EQDQ01  00002PRCP99
0147616300999992000070309004+15640-013250FM-12+0017GOSM V0209999C000012200019N0100001N1+02761+02141101371ADDGA1001+999999999GF100991001001999999001001MA1999999101181MD1999999+0301REMSYN064AAXX  03094 61630 42960 00000 10276 20214 30118 40137 333 58030;
0195616300999992000070312004+15640-013250FM-12+0017GOSM V02099999999992200019N0100001N1+03261+02381101241ADDAA199000091GA1041+039009079GF104991041001999999081001MA1999999101051MD1999999+0001REMSYN082AAXX  03124 61630 32960 43808 10326 20238 30105 40124 84080 333 0//00 58000 84363;EQDQ01  00002PRCP99
0159616300999992000070315004+15640-013250FM-12+0017GOSM V0203001N001012200019N0100001N1+03741+02261100901ADDGA1021+039009079GF102991021001999999031001MA1999999100711MD1999999-0061REMSYN076AAXX  03154 61630 42960 23002 10374 20226 30071 40090 82030 333 59006 82363;
0196616300999992000070318004+15640-013250FM-12+0017GOSM V0202801N002112200019N0120001N1+03851+02081100671ADDAA199000091GA1001+999999999GF100991001001999999001001KA1120M+03921MA1999999100481MD1999999-0181REMSYN070AAXX  03184 61630 32962 02804 10385 20208 30048 40067 333 10392 59018;EQDQ01  00002PRCP99
0177616300999992000070400004+15640-013250FM-12+0017GOSM V0209999C000012200019N0100001N1+03181+02311100961ADDAA199000091GA1001+999999999GF100991001001999999001001MA1999999100771MD1999999-0171REMSYN064AAXX  04004 61630 32960 00000 10318 20231 30077 40096 333 59017;EQDQ01  00002PRCP99
0159616300999992000070409004+15640-013250FM-12+0017GOSM V0202601N002112200019N0100001N1+02921+02141100801ADDGA1021+039009079GF102991021001999999081001MA1999999100611MD1999999-0571REMSYN076AAXX  04094 61630 42960 22604 10292 20214 30061 40080 82080 333 59057 82363;
0189616300999992000070412004+15640-013250FM-12+0017GOSM V0202601N004112200019N0100001N1+03351+02261100921ADDAA199000091GA1011+039009079GF101991011001999999081001MA1999999100731MD1999999-0321REMSYN076AAXX  04124 61630 32960 12608 10335 20226 30073 40092 81080 333 59032 81363;EQDQ01  00002PRCP99
0147616300999992000070415004+15640-013250FM-12+0017GOSM V0202501N006212200019N0100001N1+03681+02041100691ADDGA1001+999999999GF100991001001999999001001MA1999999100501MD1999999-0211REMSYN064AAXX  04154 61630 42960 02512 10368 20204 30050 40069 333 59021;
0196616300999992000070418004+15640-013250FM-12+0017GOSM V0202801N007212200019N0100001N1+03741+02001100521ADDAA199000091GA1001+999999999GF100991001001999999001001KA1120M+03761MA1999999100331MD1999999-0151REMSYN070AAXX  04184 61630 32960 02814 10374 20200 30033 40052 333 10376 59015;EQDQ01  00002PRCP99
0183616300999992000070500004+15640-013250FM-12+0017GOSM V0202801N004112200019N0100001N1+03101+01991100771ADDAA199000091GA1001+999999999GF100991001001999999001001MA1999999100581MD1999999-0191REMSYN070AAXX  05004 61630 32960 02808 10310 20199 30058 40077 333 0//00 59019;EQDQ01  00002PRCP99
0239616300999992000070506004+15640-013250FM-12+0017GOSM V0202801N004112200019N0100001N1+02721+02191100891ADDAA199000091GA1001+999999999GF100991001001999999001001IA2240+02509KA1120N+02621MA1999999100701OA150699999REMSYN088AAXX  05064 61630 32960 02808 10272 20219 30070 40089 333 02500 20262 51002 55070 59016;EQDQ01  00002PRCP99Q02  00362WGOSPD
0147616300999992000070509004+15640-013250FM-12+0017GOSM V0202801N004112200019N0100001N1+02841+02221100921ADDGA1001+999999999GF100991001001999999001001MA1999999100731MD1999999+0121REMSYN064AAXX  05094 61630 42960 02808 10284 20222 30073 40092 333 58012;
0183616300999992000070512004+15640-013250FM-12+0017GOSM V0202801N001012200019N0100001N1+03201+02281100901ADDAA199000091GA1001+999999999GF100991001001999999001001MA1999999100701MD1999999-0021REMSYN070AAXX  05124 61630 32960 02802 10320 20228 30070 40090 333 0//00 59002;EQDQ01  00002PRCP99
0147616300999992000070515004+15640-013250FM-12+0017GOSM V0202401N004112200019N0100001N1+03461+02231100681ADDGA1001+999999999GF100991001001999999001001MA1999999100491MD1999999-0011REMSYN064AAXX  05154 61630 42960 02408 10346 20223 30049 40068 333 59001;
0214616300999992000070518004+15640-013250FM-12+0017GOSM V0202201N003112200019N0100001N1+03541+02181100601ADDAA199000091GA1011+039009039GF103991011001999999031011KA1120M+03601MA1999999100411MD1999999-0061REMSYN088AAXX  05184 61630 32960 32206 10354 20218 30041 40060 81031 333 10360 59006 81363 83073;EQDQ01  00002PRCP99
0233616300999992000070606004+15640-013250FM-12+0017GOSM V0209999C000012200019N0100001N1+02721+02211101051ADDAA199000091GF101991001001999999001021IA2240+02509KA1120N+02651MA1999999100861MD1999999+0161OA150600411REMSYN100AAXX  06064 61630 32960 10000 10272 20221 30086 40105 80002 333 02500 20265 50742 55084 58016 81073;EQDQ01  00002PRCP99
0159616300999992000070609004+15640-013250FM-12+0017GOSM V0209999C000010690019N0120001N1+03021+02231101101ADDGA1051+069009019GF105991001001999999001021MA1999999100911MD1999999+0181REMSYN076AAXX  06094 61630 42962 50000 10302 20223 30091 40110 80002 333 58018 85073;
0189616300999992000070612004+15640-013250FM-12+0017GOSM V0202401N001012200019N0120001N1+03481+02351101101ADDAA199000091GA1021+069009019GF102991001001999999001021MA1999999100911MD1999999+0201REMSYN076AAXX  06124 61630 32962 22402 10348 20235 30091 40110 80002 333 58020 82073;EQDQ01  00002PRCP99
0159616300999992000070615004+15640-013250FM-12+0017GOSM V0209999C000012200019N0100001N1+03721+02231100901ADDGA1041+003909059GF104991041051004501001001MA1999999100711MD1999999+0221REMSYN076AAXX  06154 61630 42460 40000 10372 20223 30071 40090 84500 333 58022 84613;
0257616300999992000070618004+15640-013250FM-12+0017GOSM V0209999C000010390019N0080001N1+02502+02231101211ADDAA112003091AY191061AY261061GA1011+009009099GA2081+039009039GF108991011091008001071999KA1120M+03761MA1999999101021MD1999999+0611MW1951REMSYN112AAXX  06184 61630 11558 80000 10250 20223 30102 40121 60032 79596 8197/ 333 10376 58061 81930 88363 94942 95872;
0188616300999992000070700004+15640-013250FM-12+0017GOSM V0209999C000010390019N0100001N1+02681+02331101291ADDAA106005191AC13I9GA1051+039009079GF105991051001999999071001MA1999999101101MD1999999+0381REMSYN088AAXX  07004 61630 12960 50000 10268 20233 30110 40129 60051 85070 333 0//57 58038 85363;
0159616300999992000070709004+15640-013250FM-12+0017GOSM V0209999C000012200019N0100001N1+02821+02481101471ADDGA1031+003909059GF103991031051004501001001MA1999999101281MD1999999+0371REMSYN076AAXX  07094 61630 42460 30000 10282 20248 30128 40147 83500 333 58037 83613;
0159616300999992000070715004+15640-013250FM-12+0017GOSM V0209999C000010690019N0070001N1+03571+02341101181ADDGA1081+069009019GF108991001001999999001021MA1999999100991MD1999999+0281REMSYN076AAXX  07154 61630 42957 80000 10357 20234 30099 40118 80002 333 58028 88073;
0208616300999992000070718004+15640-013250FM-12+0017GOSM V0209999C000010390019N0060001N1+03581+02341101071ADDAA199000091GA1071+039009079GF107991071001999999071999KA1120M+03601MA1999999100861MD1999999-0141REMSYN082AAXX  07184 61630 32956 70000 10358 20234 30086 40107 8707/ 333 10360 59014 87363;EQDQ01  00002PRCP99
0189616300999992000070800004+15640-013250FM-12+0017GOSM V0209999C000012200019N0100001N1+02831+99999101241ADDAA199000091GA1031+069009019GF103991001001999999001021MA1999999101051MD1999999-0051REMSYN076AAXX  08004 61630 32960 30000 10283 20336 30105 40124 80002 333 59005 83073;EQDQ01  00002PRCP99
0254616300999992000070806004+15640-013250FM-12+0017GOSM V0209999C000019999999N0100001N1+02291+02131101341ADDAA106045091AC11C9AY191061AY261061GF108991081001999999071999IA2240+02309KA1120N+02011MA1999999101151MD1999999-0061MW1611OA150600261REMSYN112AAXX  08064 61630 11960 80000 10229 20213 30115 40134 60451 76196 8807/ 333 02351 20201 50362 55051 59006 88362;
0187616300999992000070809004+15640-013250FM-12+0017GOSM V0203201N002110390019N0030001N1+02481+02211101261ADDAY191031AY261031GA1071+039009079GF107991071001999999071999MA1999999101071MD1999999-0211MW1011REMSYN082AAXX  08094 61630 41930 73204 10248 20221 30107 40126 70196 8707/ 333 59021 87363;
0216616300999992000070812004+15640-013250FM-12+0017GOSM V0209999C000012200019N0150001N1+03081+02401101281ADDAA106000591AC12I9AY161061AY211061GA1011+069009019GF101991001001999999001021MA1999999101091MD1999999-0021MW1011REMSYN094AAXX  08124 61630 11965 10000 10308 20240 30109 40128 69941 70161 80002 333 0//56 59002 81073;
0159616300999992000070815004+15640-013250FM-12+0017GOSM V0209999C000012200019N0100001N1+03361+02271101151ADDGA1041+069009019GF104991001001999999001021MA1999999100961MD1999999-0031REMSYN076AAXX  08154 61630 42960 40000 10336 20227 30096 40115 80002 333 59003 84073;
0195616300999992000070818004+15640-013250FM-12+0017GOSM V0209999C000010390019N0100001N1+03381+02421101051ADDAA112000591GA1061+039009079GF106991061001999999071001KA1120M+03401MA1999999100861MD1999999+0001REMSYN088AAXX  08184 61630 12960 60000 10338 20242 30086 40105 69942 86070 333 10340 58000 86363;
0189616300999992000070900004+15640-013250FM-12+0017GOSM V0202801N002112200019N0100001N1+02961+02541101351ADDAA199000091AC13I9GA1001+999999999GF100991001001999999001001MA1999999101161MD1999999+0111REMSYN070AAXX  09004 61630 32960 02804 10296 20254 30116 40135 333 0//58 58011;EQDQ01  00002PRCP99
0210616300999992000070906004+15640-013250FM-12+0017GOSM V0209999C000012200019N0100001N1+02641+02441101221ADDAA124000591GA1001+999999999GF100991001001999999001001IA2240+02109KA1120N+02541MA1999999101031OA150600311REMSYN094AAXX  09064 61630 12960 00000 10264 20244 30103 40122 69944 333 02159 20254 50382 55067 59012;
0159616300999992000070909004+15640-013250FM-12+0017GOSM V0209999C000010390019N0100001N1+02771+02411101271ADDGA1061+039009079GF106991061001999999071001MA1999999101081MD1999999+0011REMSYN076AAXX  09094 61630 42960 60000 10277 20241 30108 40127 86070 333 58001 86363;
0216616300999992000070912004+15640-013250FM-12+0017GOSM V0202801N002112200019N0100001N1+03161+02421101261ADDAA106000791AC11C9AY161061AY211061GA1041+039009079GF104991041001999999081001MA1999999101071MD1999999-0021MW1211REMSYN094AAXX  09124 61630 11960 42804 10316 20242 30107 40126 69901 72161 84080 333 0//51 59002 84363;
0147616300999992000070915004+15640-013250FM-12+0017GOSM V0202201N002112200019N0120001N1+03491+02451101031ADDGA1001+999999999GF100991001001999999001001MA1999999100841MD1999999-0121REMSYN064AAXX  09154 61630 42962 02204 10349 20245 30084 40103 333 59012;
0183616300999992000070918004+15640-013250FM-12+0017GOSM V0202801N003112200019N0120001N1+03451+02411100871ADDAA112000791GA1001+999999999GF100991001001999999001001KA1120M+03561MA1999999100681MD1999999-0181REMSYN076AAXX  09184 61630 12962 02806 10345 20241 30068 40087 69902 333 10356 59018;
0159616300999992000071009004+15640-013250FM-12+0017GOSM V0202201N002110690019N0120001N1+02721+02301101101ADDGA1051+069009019GF105991001001999999001021MA1999999100911MD1999999-0171REMSYN076AAXX  10094 61630 42962 52204 10272 20230 30091 40110 80002 333 59017 85073;
0195616300999992000071012004+15640-013250FM-12+0017GOSM V0202201N003119999999N0120001N1+03151+02291101061ADDAA199000091GA1021+039009039GF106991021001999999071021MA1999999100871MD1999999-0201REMSYN082AAXX  10124 61630 32962 62206 10315 20229 30087 40106 82072 333 59020 82363 84073;EQDQ01  00002PRCP99
0147616300999992000071015004+15640-013250FM-12+0017GOSM V0200401N004112200019N0120001N1+03411+02371100801ADDGA1001+999999999GF100991001001999999001001MA1999999100611MD1999999-0231REMSYN064AAXX  10154 61630 42962 00408 10341 20237 30061 40080 333 59023;
0208616300999992000071018004+15640-013250FM-12+0017GOSM V0202201N003112200019N0120001N1+03421+02311100721ADDAA199000091GA1041+069009019GF104991001001999999001021KA1120M+03491MA1999999100531MD1999999-0151REMSYN082AAXX  10184 61630 32962 42206 10342 20231 30053 40072 80002 333 10349 59015 84073;EQDQ01  00002PRCP99
0159616300999992000071109004+15640-013250FM-12+0017GOSM V0202801N004112200019N0100001N1+01701+99999101091ADDGA1021+004809059GF102991021051008001001001MA1999999100901MD1999999-0011REMSYN076AAXX  11094 61630 42560 22808 10170 20223 30090 40109 82500 333 59001 82616;
0196616300999992000071118004+15640-013250FM-12+0017GOSM V0202801N004112200019N0100001N1+03381+02161100811ADDAA199000091GA1001+999999999GF100991001001999999001001KA1120M+03451MA1999999100621MD1999999+0091REMSYN070AAXX  11184 61630 32960 02808 10338 20216 30062 40081 333 10345 58009;EQDQ01  00002PRCP99
0147616300999992000071209004+15640-013250FM-12+0017GOSM V0202801N002112200019N0100001N1+02781+02251101201ADDGA1001+999999999GF100991001001999999001001MA1999999101011MD1999999+0111REMSYN064AAXX  12094 61630 42960 02804 10278 20225 30101 40120 333 58011;
0183616300999992000071212004+15640-013250FM-12+0017GOSM V0202801N002112200019N0100001N1+03141+02311101311ADDAA199000091GA1001+999999999GF100991001001999999001001MA1999999101121MD1999999+0151REMSYN070AAXX  12124 61630 32960 02804 10314 20231 30112 40131 333 0//00 58015;EQDQ01  00002PRCP99
0208616300999992000071218004+15640-013250FM-12+0017GOSM V0202801N001010690019N0120001N1+03461+02251100981ADDAA199000091GA1051+069009019GF105991001001999999001021KA1120M+03551MA1999999100791MD1999999+0171REMSYN082AAXX  12184 61630 32962 52802 10346 20225 30079 40098 80002 333 10355 58017 85073;EQDQ01  00002PRCP99
0159616300999992000071309004+15640-013250FM-12+0017GOSM V0202201N002110690019N0120001N1+02841+02161101271ADDGA1061+069009019GF106991001001999999001021MA1999999101081MD1999999+0071REMSYN076AAXX  13094 61630 42962 62204 10284 20216 30108 40127 80002 333 58007 86073;
0189616300999992000071312004+15640-013250FM-12+0017GOSM V0202801N001010690019N0120001N1+03291+02301101281ADDAA199000091GA1051+069009019GF105991001001999999001021MA1999999101091MD1999999-0031REMSYN076AAXX  13124 61630 32962 52802 10329 20230 30109 40128 80002 333 59003 85073;EQDQ01  00002PRCP99
0159616300999992000071315004+15640-013250FM-12+0017GOSM V0202801N001012200019N0120001N1+03661+02401101001ADDGA1031+069009019GF103991001001999999001021MA1999999100811MD1999999-0041REMSYN076AAXX  13154 61630 42962 32802 10366 20240 30081 40100 80002 333 59004 83073;
0208616300999992000071318004+15640-013250FM-12+0017GOSM V0209999C000012200019N0120001N1+03721+02291100941ADDAA199000091GA1011+069009019GF101991001001999999001021KA1120M+03801MA1999999100751MD1999999-0041REMSYN082AAXX  13184 61630 32962 10000 10372 20229 30075 40094 80002 333 10380 59004 81073;EQDQ01  00002PRCP99
0147616300999992000071321004+15640-013250FM-12+0017GOSM V0209999C000012200019N0100001N1+03391+02281101101ADDGA1001+999999999GF100991001001999999001001MA1999999100911MD1999999-0031REMSYN064AAXX  13214 61630 42960 00000 10339 20228 30091 40110 333 59003;
0223616300999992000071406004+15640-013250FM-12+0017GOSM V0209999C000012200019N0100001N1+02881+02171101131ADDAA199000091GA1001+999999999GF100991001001999999001001IA2240+02309KA1120N+02791MA1999999100941OA150600511REMSYN088AAXX  14064 61630 32960 00000 10288 20217 30094 40113 333 02300 20279 50632 55100 58004;EQDQ01  00002PRCP99
0147616300999992000071409004+15640-013250FM-12+0017GOSM V0202801N004112200019N0100001N1+02941+02191101321ADDGA1001+999999999GF100991001001999999001001MA1999999101131MD1999999+0051REMSYN064AAXX  14094 61630 42960 02808 10294 20219 30113 40132 333 58005;
0177616300999992000071412004+15640-013250FM-12+0017GOSM V0203201N002112200019N0100001N1+03331+02281101221ADDAA199000091GA1001+999999999GF100991001001999999001001MA1999999101031MD1999999-0061REMSYN064AAXX  14124 61630 32960 03204 10333 20228 30103 40122 333 59006;EQDQ01  00002PRCP99
0147616300999992000071415004+15640-013250FM-12+0017GOSM V0203201N004112200019N0100001N1+03741+02221100951ADDGA1001+999999999GF100991001001999999001001MA1999999100761MD1999999-0051REMSYN064AAXX  14154 61630 42960 03208 10374 20222 30076 40095 333 59005;
0196616300999992000071418004+15640-013250FM-12+0017GOSM V0203601N004112200019N0100001N1+03821+02221100771ADDAA199000091GA1001+999999999GF100991001001999999001001KA1120M+03851MA1999999100581MD1999999-0171REMSYN070AAXX  14184 61630 32960 03608 10382 20222 30058 40077 333 10385 59017;EQDQ01  00002PRCP99
0159616300999992000071509004+15640-013250FM-12+0017GOSM V0202801N004110690019N0100001N1+02981+02091100771ADDGA1051+069009019GF105991001001999999001021MA1999999100581MD1999999-0551REMSYN076AAXX  15094 61630 42960 52808 10298 20209 30058 40077 80002 333 59055 85073;
0181616300999992000071512004+15640-013250FM-12+0017GOSM V0202801N006210690019N0100001N1+03381+02091100771ADDAA199000091GA1061+069009019GF106991001001999999001021MA1999999100581REMSYN082AAXX  15124 61630 32960 62812 10338 20209 30058 40077 80002 333 0//00 59/// 86073;EQDQ01  00002PRCP99
0159616300999992000071515004+15640-013250FM-12+0017GOSM V0202801N006210690019N0100001N1+03651+02131100541ADDGA1061+069009019GF106991001001999999001021MA1999999100351MD1999999-0411REMSYN076AAXX  15154 61630 42960 62812 10365 20213 30035 40054 80002 333 59041 86073;
0208616300999992000071518004+15640-013250FM-12+0017GOSM V0202801N003112200019N0100001N1+03651+02031100531ADDAA199000091GA1031+069009019GF103991001001999999001021KA1120M+03801MA1999999100341MD1999999-0241REMSYN082AAXX  15184 61630 32960 32806 10365 20203 30034 40053 80002 333 10380 59024 83073;EQDQ01  00002PRCP99
0171616300999992000071609004+15640-013250FM-12+0017GOSM V0202201N006210060019N0100001N1+02881+02331100991ADDGA1061+006009089GF106991061021008001001001MA1999999100801MD1999999+0221REMSYN088AAXX  16094 61630 42560 62212 10288 20233 30080 40099 86200 333 58022 86820 94939 95879;
0214616300999992000071618004+15640-013250FM-12+0017GOSM V0202201N002112200019N0100001N1+03521+02361100701ADDAA199000091GA1011+004809069GF103991011051008001001021KA1120M+03621MA1999999100511MD1999999+0171REMSYN088AAXX  16184 61630 32560 32204 10352 20236 30051 40070 81502 333 10362 58017 81616 83073;EQDQ01  00002PRCP99
0147616300999992000071621004+15640-013250FM-12+0017GOSM V0209999C000012200019N0100001N1+03281+02361100921ADDGA1001+999999999GF100991001001999999001001MA1999999100731MD1999999+0301REMSYN064AAXX  16214 61630 42960 00000 10328 20236 30073 40092 333 58030;
0177616300999992000071700004+15640-013250FM-12+0017GOSM V0209999C000012200019N0100001N1+03101+02331101141ADDAA199000091GA1001+999999999GF100991001001999999001001MA1999999100951MD1999999+0351REMSYN064AAXX  17004 61630 32960 00000 10310 20233 30095 40114 333 58035;EQDQ01  00002PRCP99
0165616300999992000071709004+15640-013250FM-12+0017GOSM V0202301N00821045001CN0100001N1+03011+02251101251ADDGA1041+006009069GF108991041051008001031021MA1999999101061MD1999999+0261REMSYN082AAXX  17094 61630 42560 82316 10301 20225 30106 40125 84532 333 58026 84620 83363;
0201616300999992000071712004+15640-013250FM-12+0017GOSM V0209999C000010060019N0100001N1+03291+02351101301ADDAA199000091GA1051+006009089GF105991051021008001001021MA1999999101111MD1999999+0251REMSYN088AAXX  17124 61630 32560 50000 10329 20235 30111 40130 85202 333 58025 85820 94902 95872;EQDQ01  00002PRCP99
0159616300999992000071715004+15640-013250FM-12+0017GOSM V0201601N002110039019N0100001N1+03521+02421101221ADDGA1051+003909079GF105991051051004501001001MA1999999101031MD1999999+0361REMSYN076AAXX  17154 61630 42460 51604 10352 20242 30103 40122 85500 333 58036 85313;
0208616300999992000071718004+15640-013250FM-12+0017GOSM V0209999C000010039019N0100001N1+03501+02401101051ADDAA199000091GA1051+003909059GF105991051051004501001001KA1120M+03601MA1999999100861MD1999999+0351REMSYN082AAXX  17184 61630 32460 50000 10350 20240 30086 40105 85500 333 10360 58035 85613;EQDQ01  00002PRCP99
0159616300999992000071803004+15640-013250FM-12+0017GOSM V0209999C000010390019N0100001N1+02781+02221101321ADDGA1051+039009079GF105991051001999999071001MA1999999101131MD1999999+0281REMSYN076AAXX  18034 61630 42960 50000 10278 20222 30113 40132 85070 333 58028 85363;
0233616300999992000071806004+15640-013250FM-12+0017GOSM V0209999C000012200019N0100001N1+02701+02351101391ADDAA199000091GF104991041001999999071001IA2240+02409KA1120N+02601MA1999999101201MD1999999+0281OA150600261REMSYN100AAXX  18064 61630 32960 40000 10270 20235 30120 40139 84070 333 02400 20260 50462 55058 58028 84363;EQDQ01  00002PRCP99
0159616300999992000071809004+15640-013250FM-12+0017GOSM V0203201N002112200019N0100001N1+02801+02371101421ADDGA1041+039009079GF104991041001999999071031MA1999999101201MD1999999+0171REMSYN076AAXX  18094 61630 42960 43204 10280 20237 30120 40142 84073 333 58017 84363;
0201616300999992000071812004+15640-013250FM-12+0017GOSM V0203201N00211105001CN0100001N1+03221+01551101481ADDAA199000091GA1021+003909069GF106991021051004501001021MA1999999101291MD1999999+0181REMSYN088AAXX  18124 61630 32460 63204 10322 20155 30129 40148 82502 333 0//00 58018 82613 86073;EQDQ01  00002PRCP99
0208616300999992000071818004+15640-013250FM-12+0017GOSM V0209999C000012200019N0120001N1+03491+02441101121ADDAA199000091GA1011+003909059GF101991011051004501001001KA1120M+03591MA1999999100931MD1999999+0071REMSYN082AAXX  18184 61630 32462 10000 10349 20244 30093 40112 81500 333 10359 58007 81613;EQDQ01  00002PRCP99
0239616300999992000071906004+15640-013250FM-12+0017GOSM V0202801N004112200019N0100001N1+02611+02251101131ADDAA199000091GA1001+999999999GF100991001001999999001001IA2240+02409KA1120N+02541MA1999999100941OA150699999REMSYN088AAXX  19064 61630 32960 02808 10261 20225 30094 40113 333 02400 20254 50582 55054 59026;EQDQ01  00002PRCP99Q02  00262WGOSPD
0147616300999992000071909004+15640-013250FM-12+0017GOSM V0202801N002112200019N0100001N1+02751+02141101181ADDGA1001+999999999GF100991001001999999001001MA1999999100991MD1999999-0241REMSYN064AAXX  19094 61630 42960 02804 10275 20214 30099 40118 333 59024;
0147616300999992000071915004+15640-013250FM-12+0017GOSM V0203201N004112200019N0100001N1+03601+02191100611ADDGA1001+999999999GF100991001001999999001001MA1999999100421MD1999999-0631REMSYN064AAXX  19154 61630 42960 03208 10360 20219 30042 40061 333 59063;
0208616300999992000071918004+15640-013250FM-12+0017GOSM V0203201N003112200019N0070001N1+03691+02141100481ADDAA199000091GA1011+069009019GF101991001001999999001021KA1120M+03771MA1999999100291MD1999999-0641REMSYN082AAXX  19184 61630 32957 13206 10369 20214 30029 40048 80002 333 10377 59064 81073;EQDQ01  00002PRCP99
0147616300999992000071921004+15640-013250FM-12+0017GOSM V0202801N001012200019N0080001N1+03421+02081100691ADDGA1001+999999999GF100991001001999999001001MA1999999100501MD1999999-0511REMSYN064AAXX  19214 61630 42958 02802 10342 20208 30050 40069 333 59051;
0223616300999992000072006004+15640-013250FM-12+0017GOSM V0209999C000012200019N0080001N1+02611+02121100741ADDAA199000091GA1001+999999999GF100991001001999999001001IA2240+02409KA1120N+02511MA1999999100551OA150600261REMSYN088AAXX  20064 61630 32958 00000 10261 20212 30055 40074 333 02400 20251 50942 55052 59039;EQDQ01  00002PRCP99
0165616300999992000072009004+15640-013250FM-12+0017GOSM V0209999C000012200019N0100001N1+02781+02221100851ADDGA1011+004509069GF103991011051004501001021MA1999999100661MD1999999-0331REMSYN082AAXX  20094 61630 42460 30000 10278 20222 30066 40085 81502 333 59033 81615 83073;
0195616300999992000072012004+15640-013250FM-12+0017GOSM V0202201N00211105001CN0100001N1+03111+02251100811ADDAA199000091GA1011+006009069GF107991011051008001001021MA1999999100621MD1999999-0241REMSYN082AAXX  20124 61630 32560 72204 10311 20225 30062 40081 81502 333 59024 81620 86073;EQDQ01  00002PRCP99
0208616300999992000072018004+15640-013250FM-12+0017GOSM V0209999C000010690019N0100001N1+03201+02241100631ADDAA199000091GA1051+069009019GF105991001001999999001021KA1120M+03301MA1999999100441MD1999999+0151REMSYN082AAXX  20184 61630 32960 50000 10320 20224 30044 40063 80002 333 10330 58015 85073;EQDQ01  00002PRCP99
0195616300999992000072100004+15640-013250FM-12+0017GOSM V0209999C000012200019N0100001N1+03021+02101100901ADDAA199000091GA1041+039009079GF104991041001999999081001MA1999999100711MD1999999+0151REMSYN082AAXX  21004 61630 32960 40000 10302 20210 30071 40090 84080 333 0//00 58015 84363;EQDQ01  00002PRCP99
0233616300999992000072106004+15640-013250FM-12+0017GOSM V0209999C000019999999N0100001N1+02861+02181100981ADDAA199000091GF105991051001999999081001IA2240+02409KA1120N+02741MA1999999100791MD1999999+0241OA150600411REMSYN100AAXX  21064 61630 32960 50000 10286 20218 30079 40098 85080 333 02400 20274 50452 55082 58024 85363;EQDQ01  00002PRCP99
0147616300999992000072109004+15640-013250FM-12+0017GOSM V0202801N002112200019N0100001N1+02881+02391101071ADDGA1001+999999999GF100991001001999999001001MA1999999100881MD1999999+0221REMSYN064AAXX  21094 61630 42960 02804 10288 20239 30088 40107 333 58022;
0195616300999992000072112004+15640-013250FM-12+0017GOSM V0202801N002112200019N0100001N1+03301+02461101201ADDAA199000091GA1041+003909059GF104991041051999999001001MA1999999100911MD1999999+0291REMSYN082AAXX  21124 61630 32960 42804 10330 20246 30091 40120 84500 333 0//00 58029 84613;EQDQ01  00002PRCP99
0232616300999992000072118004+15640-013250FM-12+0017GOSM V0202201N001012200019N0120001N1+03671+02201100741ADDAA199000091GA1031+006009089GA2041+008709099GF199999031021004501001021KA1120M+03731MA1999999100551REMSYN088AAXX  21184 61630 32462 32202 10367 20220 30055 40074 83202 333 10373 83820 84929 95879;EQDQ01+000032SCOTCVQ02  00002PRCP99
0193616300999992000072215004+15640-013250FM-12+0017GOSM V0209999C000010690019N0150001N1+03201+02361101071ADDGA1011+004509089GA2071+069009009GF107991011021004501001021MA1999999100861MD1999999+0121REMSYN094AAXX  22154 61630 42465 70000 10320 20236 30086 40107 81202 333 58012 81815 87073 94904 95814;
0242616300999992000072218004+15640-013250FM-12+0017GOSM V0209999C000010690019N0150001N1+02231+99999100941ADDAA199000091GA1011+004509089GA2061+069009009GF106991011021004501001021KA1120M+03301MA1999999100751MD1999999+0201REMSYN100AAXX  22184 61630 32465 60000 10223 20236 30075 40094 81202 333 10330 58020 81815 86073 94905 95815;EQDQ01  00002PRCP99
0159616300999992000072309004+15640-013250FM-12+0017GOSM V0203601N002112200019N0120001N1+02901+02321101221ADDGA1011+039009079GF101991011001999999031001MA1999999101031MD1999999-0221REMSYN076AAXX  23094 61630 42962 13604 10290 20232 30103 40122 81030 333 59022 81363;
0189616300999992000072312004+15640-013250FM-12+0017GOSM V0209999C000012200019N0150001N1+03271+02341101111ADDAA199000091GA1011+039009079GF101991011001999999031021MA1999999100961MD1999999-0091REMSYN076AAXX  23124 61630 32965 10000 10327 20234 30096 40111 81032 333 59009 81363;EQDQ01  00002PRCP99
0147616300999992000072315004+15640-013250FM-12+0017GOSM V0202801N002112200019N0100001N1+03581+02471100941ADDGA1001+999999999GF100991001001999999001001MA1999999100751MD1999999-0131REMSYN064AAXX  23154 61630 42960 02804 10358 20247 30075 40094 333 59013;
0196616300999992000072318004+15640-013250FM-12+0017GOSM V0209999C000012200019N0100001N1+03501+02411100751ADDAA199000091GA1001+999999999GF100991001001999999001001KA1120M+03621MA1999999100561MD1999999-0191REMSYN070AAXX  23184 61630 32960 00000 10350 20241 30056 40075 333 10362 59019;EQDQ01  00002PRCP99
0183616300999992000072400004+15640-013250FM-12+0017GOSM V0202801N003112200019N0100001N1+03001+02401101031ADDAA199000091GA1001+999999999GF100991001001999999001001MA1999999100841MD1999999-0141REMSYN070AAXX  24004 61630 32960 02806 10300 20240 30084 40103 333 0//00 59014;EQDQ01  00002PRCP99
0147616300999992000072415004+15640-013250FM-12+0017GOSM V0202801N002112200019N0120001N1+03651+02471100811ADDGA1001+999999999GF100991001001999999001001MA1999999100621MD1999999-0131REMSYN064AAXX  24154 61630 42962 02804 10365 20247 30062 40081 333 59013;
0196616300999992000072418004+15640-013250FM-12+0017GOSM V0202801N002112200019N0120001N1+03621+02491100611ADDAA199000091GA1001+999999999GF100991001001999999001001KA1120M+03721MA1999999100421MD1999999-0141REMSYN070AAXX  24184 61630 32962 02804 10362 20249 30042 40061 333 10372 59014;EQDQ01  00002PRCP99
0233616300999992000072506004+15640-013250FM-12+0017GOSM V0201801N003119999999N0100001N1+02551+02021100881ADDAA199000091GF108991081001999999071999IA2240+02509KA1120N+02491MA1999999100691MD1999999-0091OA150600511REMSYN100AAXX  25064 61630 32960 81806 10255 20202 30069 40088 8807/ 333 02500 20249 50582 55102 59009 88363;EQDQ01  00002PRCP99
0159616300999992000072509004+15640-013250FM-12+0017GOSM V0209999C000010390019N0120001N1+02751+02241100981ADDGA1071+039009079GF107991071001999999071001MA1999999100791MD1999999-0151REMSYN076AAXX  25094 61630 42962 70000 10275 20224 30079 40098 87070 333 59015 87363;
0223616300999992000072512004+15640-013250FM-12+0017GOSM V0201801N00211004201CN0120001N1+03041+02481101181ADDAA199000091GA1021+006009089GA2031+069009009GF106991051021004501001021MA1999999100991MD1999999+0071REMSYN094AAXX  25124 61630 32462 61804 10304 20248 30099 40118 85202 333 58007 82820 83073 94939 95879;EQDQ01  00002PRCP99
0179616300999992000072515004+15640-013250FM-12+0017GOSM V0202201N001019999999N0100001N1+03121+02351100821ADDAY161031GA1041+006009069GF108991999999008001999999MA1999999100641MD1999999+0021MW1211REMSYN082AAXX  25154 61630 41560 82202 10312 20235 30064 40082 7216/ 333 58002 84620 85363;
0215616300999992000072518004+15640-013250FM-12+0017GOSM V0209999C000010390019N0100001N1+03131+02471100801ADDAA112000791AY181061GA1071+039009079GF107991071001999999071999KA1120M+03191MA1999999100611MD1999999+0191MW1021REMSYN094AAXX  25184 61630 11960 70000 10313 20247 30061 40080 69902 7028/ 8707/ 333 10319 58019 87363;
0213616300999992000072521004+15640-013250FM-12+0017GOSM V0209999C000010390019N0100001N1+03021+02451101061ADDAY161031GA1011+009009099GA2081+039009039GF108991011031008001071999MA1999999100871MD1999999-0241MW1211REMSYN100AAXX  25214 61630 41560 80000 10302 20245 30087 40106 7216/ 8137/ 333 59024 81930 88363 94944 95814;
0159616300999992000072609004+15640-013250FM-12+0017GOSM V0209999C000012200019N0120001N1+02801+02381101171ADDGA1031+004509059GF104991031051004501031021MA1999999100981MD1999999+0191REMSYN076AAXX  26094 61630 42462 40000 10280 20238 30098 40117 83532 333 58019 83615;
0207616300999992000072612004+15640-013250FM-12+0017GOSM V0209999C000010048019N0120001N1+03101+02411101181ADDAA199000091GA1061+004809089GF106991061021004501001021MA1999999100991MD1999999+0001REMSYN094AAXX  26124 61630 32462 60000 10310 20241 30099 40118 86202 333 0//00 58000 86816 94912 95872;EQDQ01  00002PRCP99
0159616300999992000072615004+15640-013250FM-12+0017GOSM V0209999C000010039019N0100001N1+03361+02431100941ADDGA1051+003909059GF105991051051004501001001MA1999999100751MD1999999+0111REMSYN076AAXX  26154 61630 42460 50000 10336 20243 30075 40094 85500 333 58011 85613;
0208616300999992000072618004+15640-013250FM-12+0017GOSM V0209999C000012200019N0100001N1+03401+02381100771ADDAA199000091GA1041+003909059GF104991041051004501001001KA1120M+03451MA1999999100581MD1999999-0031REMSYN082AAXX  26184 61630 32460 40000 10340 20238 30058 40077 84500 333 10345 59003 84613;EQDQ01  00002PRCP99
0226616300999992000072706004+15640-013250FM-12+0017GOSM V0202801N003119999999N0100001N1+02481+02261101101ADDAA124000591AC13C9GF107991071001999999071001IA2240+02309KA1120N+02341MA1999999100911MD1999999+0031OA150600461REMSYN106AAXX  27064 61630 12960 72806 10248 20226 30091 40110 69954 87070 333 02353 20234 50362 55098 58003 87363;
0221616300999992000072709004+15640-013250FM-12+0017GOSM V0209999C000010390019N0100001N1+02611+02331101301ADDAY191031AY221031GA1011+009009099GA2071+039009039GF107991011091008001071001MA1999999101111MD1999999+0131MW1291REMSYN100AAXX  27094 61630 41560 70000 10261 20233 30111 40130 72992 81970 333 58013 81930 87363 94942 95872;
0229616300999992000072712004+15640-013250FM-12+0017GOSM V0202801N003110390019N0100001N1+02961+02451101401ADDAA199000091AC13I9AY191061AY221061GA1061+039009079GF106991061001999999071001MA1999999101211MD1999999+0221MW1291REMSYN088AAXX  27124 61630 31960 62806 10296 20245 30121 40140 72992 86070 333 0//58 58022 86363;EQDQ01  00002PRCP99
0191616300999992000072715004+15640-013250FM-12+0017GOSM V0209999C000010060019N0120001N1+03021+02501101171ADDAY161031GA1051+006009089GF106991051021004501001021MA1999999100981MD1999999+0231MW1211REMSYN094AAXX  27154 61630 41462 60000 10302 20250 30098 40117 7216/ 85202 333 58023 85820 94939 95879;
0233616300999992000072800004+15640-013250FM-12+0017GOSM V0202801N004112200019N0100001N1+02761+02481101281ADDAA106002091AC12C9AY161061AY221061GA1011+009009099GF104991011031008001071001MA1999999101091MD1999999+0161MW1131REMSYN111AAXX  28004 61630 11560 42808 10276 20248 30109 40128 60021 71362 81370 333 0//52 58016 81930 8836394946 95836;
0221616300999992000072809004+15640-013250FM-12+0017GOSM V0202801N003110390019N0100001N1+02651+02451101241ADDAY161031AY221031GA1021+006009089GA2061+039009039GF107991021021004501071001MA1999999101051MD1999999-0061MW1031REMSYN100AAXX  28094 61630 41460 72806 10265 20245 30105 40124 70362 82270 333 59006 82820 86363 94920 95870;
0193616300999992000072815004+15640-013250FM-12+0017GOSM V0203001N002110390019N0100001N1+03001+02451100981ADDGA1021+004809089GA2071+039009039GF107991021021004501071999MA1999999100791MD1999999-0181REMSYN094AAXX  28154 61630 42460 73004 10300 20245 30079 40098 8227/ 333 59018 82816 87363 94924 95814;
0229616300999992000072818004+15640-013250FM-12+0017GOSM V0203001N002112200019N0100001N1+03221+02491100841ADDAA112000791GA1011+004809069GA2021+009009099GF102991021031004501031001KA1120M+03281MA1999999100651MD1999999-0191REMSYN106AAXX  28184 61630 12460 23004 10322 20249 30065 40084 69902 82330 333 10328 59019 81616 82930 94944 95814;
0159616300999992000072909004+15640-013250FM-12+0017GOSM V0209999C000012200019N0100001N1+02781+02321100911ADDGA1031+004809059GF103991031051004501001001MA1999999100711MD1999999-0341REMSYN076AAXX  29094 61630 42460 30000 10278 20232 30071 40091 83500 333 59034 83616;
0220616300999992000072918004+15640-013250FM-12+0017GOSM V0203001N002110048019N0100001N1+03441+02401100521ADDAA199000091GA1051+004809089GF105991051021004501001001KA1120M+03501MA1999999100331MD1999999-0321REMSYN094AAXX  29184 61630 32460 53004 10344 20240 30033 40052 85200 333 10350 59032 85816 94939 95879;EQDQ01  00002PRCP99
0221616300999992000072921004+15640-013250FM-12+0017GOSM V0209999C000010390019N0100001N1+02661+02281100721ADDAY191031AY261031GA1011+009009099GA2061+039009039GF106991011091999999071001MA1999999100531MD1999999-0231MW1171REMSYN100AAXX  29214 61630 41960 60000 10266 20228 30053 40072 71796 81970 333 59023 81930 86363 94943 95873;
0205616300999992000073003004+15640-013250FM-12+0017GOSM V0209999C000010390019N0100001N1+02761+02391100851ADDGA1011+009009099GA2051+039009039GF105991011091008001071001MA1999999100661MD1999999+0011MW1131REMSYN100AAXX  30034 61630 41560 50000 10276 20239 30066 40085 713// 81970 333 58001 81930 85363 94946 95876;
0195616300999992000073012004+15640-013250FM-12+0017GOSM V0209999C000010690019N0100001N1+03641+02411101101ADDAA199000091GA1061+069009019GF106991001001999999001021MA1999999100911MD1999999+0331REMSYN082AAXX  30124 61630 32960 60000 10364 20241 30091 40110 80002 333 0//59 58033 86073;EQDQ01  00002PRCP99
0233616300999992000073106004+15640-013250FM-12+0017GOSM V0202801N003119999999N0100001N1+02561+02281101131ADDAA199000091GF106991061001999999071001IA2240+02309KA1120N+02491MA1999999100941MD1999999+0261OA150600461REMSYN100AAXX  31064 61630 32960 62806 10256 20228 30094 40113 86070 333 02300 20249 50372 55096 58026 86363;EQDQ01  00002PRCP99
0193616300999992000073109004+15640-013250FM-12+0017GOSM V0202801N002119999999N0100001N1+02501+02361101241ADDAY161031AY221031GA1011+004509069GF108991011051999999071999MA1999999101051MD1999999+0261MW1611REMSYN088AAXX  31094 61630 41960 82804 10250 20236 30105 40124 76162 8157/ 333 58026 81615 88363;
0213616300999992000073115004+15640-013250FM-12+0017GOSM V0202801N004110045019N0120001N1+02901+02421101031ADDAY161031GA1051+004509089GA2031+039009039GF107991041021004501031001MA1999999100841MD1999999+0161MW1001REMSYN100AAXX  31154 61630 41462 72808 10290 20242 30084 40103 7006/ 84230 333 58016 85815 83363 94939 95879;
0271616300999992000073118004+15640-013250FM-12+0017GOSM V0203201N002110390019N0120001N1+03001+02401100951ADDAA112003091AY161061GA1011+004509089GA2011+009009099GA3031+039009039GF107991021091004501071021KA1120M+03051MA1999999100761MD1999999+0151MW1031REMSYN118AAXX  31184 61630 11462 73204 10300 20240 30076 40095 60032 7036/ 82972 333 10305 58015 81815 83363 81930 94944 95814;
0241616300999992000080100004+15640-013250FM-12+0017GOSM V0209999C000010390019N0100001N1+02711+02481101351ADDAA199000091GA1011+009009099GA2081+039009039GF108991011031008001071999MA1999999101161MD1999999+0181MW1131REMSYN106AAXX  01004 61630 31560 80000 10271 20248 30116 40135 713// 8137/ 333 0//59 58018 81930 88363 94946 95816;EQDQ01  00002PRCP99
0250616300999992000080112004+15640-013250FM-12+0017GOSM V0202401N002110048019N0100001N1+02811+02431101341ADDAA106003091AC11C9AY161061AY221061GA1051+004809089GA2051+039009039GF108991051021004501071999MA1999999101151MD1999999-0021MW1021REMSYN112AAXX  01124 61630 11460 82404 10281 20243 30115 40134 60031 70262 8527/ 333 0//51 59002 85816 85363 94939 95879;
0193616300999992000080115004+15640-013250FM-12+0017GOSM V0201801N00211045001CN0100001N1+02801+02581101131ADDAY161031AY221031GA1041+003609079GF107991041071004501011999MA1999999100901MD1999999+0001MW1601REMSYN088AAXX  01154 61630 41460 71804 10280 20258 30090 40113 76062 8471/ 333 58000 84712 87462;
0215616300999992000080118004+15640-013250FM-12+0017GOSM V0202801N002110390019N0100001N1+02901+02471101081ADDAA112004191AY161061GA1061+039009079GF106991061001999999071001KA1120M+03101MA1999999100891MD1999999+0131MW1211REMSYN094AAXX  01184 61630 11960 62804 10290 20247 30089 40108 60042 7216/ 86070 333 10310 58013 86363;
0204616300999992000080206004+15640-013250FM-12+0017GOSM V0209999C000012200019N0100001N1+02441+02321101231ADDAA199000021GA1001+999999999GF100991001001999999001001IA2240+02309KA1120N+02351MA1999999101041OA150600151REMSYN088AAXX  02064 61630 32960 00000 10244 20232 30104 40123 333 02359 20235 50132 55030 59008;
0159616300999992000080209004+15640-013250FM-12+0017GOSM V0209999C000010039019N0100001N1+02621+02421101271ADDGA1051+003909059GF105991051051004501001001MA1999999101081MD1999999-0011REMSYN076AAXX  02094 61630 42460 50000 10262 20242 30108 40127 85500 333 59001 85613;
0195616300999992000080212004+15640-013250FM-12+0017GOSM V0203201N002112200019N0100001N1+03001+02571101291ADDAA199000091GA1041+003909059GF104991041051004501001001MA1999999101101MD1999999-0051REMSYN082AAXX  02124 61630 32460 43204 10300 20257 30110 40129 84500 333 0//59 59005 84613;EQDQ01  00002PRCP99
0251616300999992000080300004+15640-013250FM-12+0017GOSM V0202801N002110390019N0100001N1+02361+02151101221ADDAA199000091AY191061AY221061GA1011+009009099GA2081+039009039GF108991011031008001071999MA1999999101031MD1999999-0161MW1131REMSYN100AAXX  03004 61630 31560 82804 10236 20215 30103 40122 71392 8137/ 333 59016 81930 88363 94946 95816;EQDQ01  00002PRCP99
0159616300999992000080315004+15640-013250FM-12+0017GOSM V0201801N002110690019N0150001N1+03271+02471101171ADDGA1071+069009019GF107991001001999999001021MA1999999100981MD1999999+0091REMSYN076AAXX  03154 61630 42965 71804 10327 20247 30098 40117 80002 333 58009 87073;
0264616300999992000080318004+15640-013250FM-12+0017GOSM V0209999C000010690019N0120001N1+03221+02461101251ADDAA199000091GA1011+004509069GA2011+009009099GA3061+069009009GF107991021031004501071021KA1120M+03301MA1999999101061MD1999999+0281REMSYN106AAXX  03184 61630 32462 70000 10322 20246 30106 40125 82372 333 10330 58028 81615 86073 81930 94942 95832;EQDQ01  00002PRCP99
0216616300999992000080400004+15640-013250FM-12+0017GOSM V0201801N002110390019N0100001N1+02661+02301101351ADDAA106000791AC12C9AY191061AY261061GA1071+039009079GF107991071001999999071999MA1999999101161MD1999999+0131MW1011REMSYN094AAXX  04004 61630 11960 71804 10266 20230 30116 40135 69901 70196 8707/ 333 0//12 58013 87363;
0159616300999992000080409004+15640-013250FM-12+0017GOSM V0209999C000012200019N0120001N1+02861+02481101541ADDGA1011+039009079GF101991011001999999081001MA1999999101351MD1999999+0121REMSYN076AAXX  04094 61630 42962 10000 10286 20248 30135 40154 81080 333 58012 81363;
0229616300999992000080412004+15640-013250FM-12+0017GOSM V0202801N001010048019N0120001N1+03161+02411101581ADDAA199000091GA1031+004509069GA2041+004809089GF107991071081004501001001MA1999999101391MD1999999+0221REMSYN100AAXX  04124 61630 32462 72802 10316 20241 30139 40158 87800 333 0//19 58022 83615 84816 94939 95879;EQDQ01  00002PRCP99
0171616300999992000080415004+15640-013250FM-12+0017GOSM V0202801N002110048019N0100001N1+03361+02531101281ADDGA1051+004809089GF105991051021999999001001MA1999999101091MD1999999+0111REMSYN088AAXX  04154 61630 42960 52804 10336 20253 30109 40128 85200 333 58011 85816 94939 95879;
0262616300999992000080418004+15640-013250FM-12+0017GOSM V0209999C000010390019N0100001N1+03301+02461101231ADDAA199000091AY191061GA1011+009009099GA2061+039009039GF106991011091008001031001KA1120M+03421MA1999999101041MD1999999-0021MW1171REMSYN106AAXX  04184 61630 31560 60000 10330 20246 30104 40123 7179/ 81930 333 10342 59002 81930 86363 94943 95873;EQDQ01  00002PRCP99
0159616300999992000080509004+15640-013250FM-12+0017GOSM V0209999C000010390019N0100001N1+02621+02271101521ADDGA1051+039009079GF105991051001999999071001MA1999999101331MD1999999-0021REMSYN076AAXX  05094 61630 42960 50000 10262 20227 30133 40152 85070 333 59002 85363;
0201616300999992000080512004+15640-013250FM-12+0017GOSM V0203201N002110690019N0100001N1+03041+02511101561ADDAA199000091AC13I9GA1051+069009019GF105991001001999999001021MA1999999101371MD1999999-0021REMSYN082AAXX  05124 61630 32960 53204 10304 20251 30137 40156 80002 333 0//58 59002 85073;EQDQ01  00002PRCP99
0168616300999992000080518004+15640-013250FM-12+0017GOSM V0209999C000012200019N0120001N1+03351+02751101181ADDAA199000091GA1001+999999999GF100991001001999999001001MA1999999100991REMSYN069AAXX  05184 61630 32962 00000 10335 20275 30099 40118 33 10346 59005;EQDQ01  00002PRCP99
0147616300999992000080609004+15640-013250FM-12+0017GOSM V0202801N003112200019N0100001N1+02701+02321101171ADDGA1001+999999999GF100991001001999999001001MA1999999100981MD1999999-0351REMSYN064AAXX  06094 61630 42960 02806 10270 20232 30098 40117 333 59035;
0189616300999992000080612004+15640-013250FM-12+0017GOSM V0202801N003110390019N0120001N1+03101+02701101171ADDAA199000091GA1071+039009079GF107991071001999999071001MA1999999100981MD1999999-0391REMSYN076AAXX  06124 61630 32962 72806 10310 20270 30098 40117 87070 333 59039 87363;EQDQ01  00002PRCP99
0165616300999992000080615004+15640-013250FM-12+0017GOSM V0209999C00001105001CN0100001N1+03361+02711101031ADDGA1031+006009069GF107991031051008001001021MA1999999100841MD1999999-0301REMSYN082AAXX  06154 61630 42560 70000 10336 20271 30084 40103 83502 333 59030 83620 87073;
0214616300999992000080618004+15640-013250FM-12+0017GOSM V0202601N00211105001CN0100001N1+03321+02651100931ADDAA199000091GA1021+006009069GF107991021051008001001021KA1120M+03451MA1999999100741MD1999999-0251REMSYN088AAXX  06184 61630 32560 72604 10332 20265 30074 40093 82502 333 10345 59025 82620 87073;EQDQ01  00002PRCP99
0159616300999992000080621004+15640-013250FM-12+0017GOSM V0209999C000010690019N0100001N1+03061+02531101101ADDGA1051+069009019GF105991001001999999001021MA1999999100911MD1999999-0141REMSYN076AAXX  06214 61630 42960 50000 10306 20253 30091 40110 80002 333 59014 85073;
0159616300999992000080709004+15640-013250FM-12+0017GOSM V0202401N001010048019N0100001N1+02781+02451101151ADDGA1071+004809059GF107991071051004501001021MA1999999100961MD1999999-0021REMSYN076AAXX  07094 61630 42460 72402 10278 20245 30096 40115 87502 333 59002 87616;
0195616300999992000080712004+15640-013250FM-12+0017GOSM V0202401N001012200019N0100001N1+03101+02421101181ADDAA199000091GA1011+004809059GF101991011051004501001001MA1999999100991MD1999999+0011REMSYN082AAXX  07124 61630 32460 12402 10310 20242 30099 40118 81500 333 0//00 58001 81616;EQDQ01  00002PRCP99
0147616300999992000080809004+15640-013250FM-12+0017GOSM V0209999C000012200019N0100001N1+02821+02391101271ADDGA1001+999999999GF100991001001999999001001MA1999999101081MD1999999+0121REMSYN064AAXX  08094 61630 42960 00000 10282 20239 30108 40127 333 58012;
0196616300999992000080918004+15640-013250FM-12+0017GOSM V0201801N002112200019N0100001N1+03501+02201101101ADDAA199000091GA1001+999999999GF100991001001999999001001KA1120M+03621MA1999999100911MD1999999-0031REMSYN070AAXX  09184 61630 32960 01804 10350 20220 30091 40110 333 10362 59003;EQDQ01  00002PRCP99
0147616300999992000080921004+15640-013250FM-12+0017GOSM V0209999C000012200019N0100001N1+03141+02371101221ADDGA1001+999999999GF100991001001999999001001MA1999999101031MD1999999+0061REMSYN064AAXX  09214 61630 42960 00000 10314 20237 30103 40122 333 58006;
0147616300999992000081003004+15640-013250FM-12+0017GOSM V0202801N002112200019N0100001N1+02841+02381101221ADDGA1001+999999999GF100991001001999999001001MA1999999101031MD1999999-0081REMSYN064AAXX  10034 61630 42960 02804 10284 20238 30103 40122 333 59008;
0207616300999992000081012004+15640-013250FM-12+0017GOSM V0203201N002110048019N0100001N1+03181+02661101451ADDAA199000091GA1061+004809089GF106991061021004501001001MA1999999101261MD1999999-0021REMSYN094AAXX  10124 61630 32460 63204 10318 20266 30126 40145 86200 333 0//00 59002 86816 94939 95879;EQDQ01  00002PRCP99
0226616300999992000081106004+15640-013250FM-12+0017GOSM V0209999C000019999999N0100001N1+02351+02181101271ADDAA124043991AC13I9GF107991071001999999071001IA2240+02509KA1120N+02111MA1999999101081MD1999999+0091OA150600461REMSYN106AAXX  11064 61630 12960 70000 10235 20218 30108 40127 60444 87070 333 02567 20211 50352 55095 58009 87363;
0159616300999992000081109004+15640-013250FM-12+0017GOSM V0209999C000010390019N0100001N1+02501+02231101311ADDGA1061+039009079GF106991061001999999071001MA1999999101221MD1999999+0041REMSYN076AAXX  11094 61630 42960 60000 10250 20223 30122 40131 86070 333 58004 86363;
0159616300999992000081115004+15640-013250FM-12+0017GOSM V0209999C000012200019N0150001N1+03181+02381101181ADDGA1031+039009079GF103991031001999999031001MA1999999100991MD1999999-0141REMSYN076AAXX  11154 61630 42965 30000 10318 20238 30099 40118 83030 333 59014 83363;
0208616300999992000081118004+15640-013250FM-12+0017GOSM V0209999C000010390019N0100001N1+03221+02371101051ADDAA199000091GA1051+039009079GF105991051001999999031001KA1120M+03281MA1999999100861MD1999999-0021REMSYN082AAXX  11184 61630 32960 50000 10322 20237 30086 40105 85030 333 10328 59002 85363;EQDQ01  00002PRCP99
0147616300999992000081203004+15640-013250FM-12+0017GOSM V0209999C000012200019N0100001N1+02781+02531101201ADDGA1001+999999999GF100991001001999999001001MA1999999101011MD1999999+0031REMSYN064AAXX  12034 61630 42960 00000 10278 20253 30101 40120 333 58003;
0223616300999992000081206004+15640-013250FM-12+0017GOSM V0209999C000012200019N0100001N1+02601+02471101261ADDAA199000091GA1001+999999999GF100991001001999999001001IA2240+02109KA1120N+02511MA1999999101071OA150600311REMSYN088AAXX  12064 61630 32960 00000 10260 20247 30107 40126 333 02100 20251 50192 55062 59002;EQDQ01  00002PRCP99
0147616300999992000081209004+15640-013250FM-12+0017GOSM V0209999C000012200019N0120001N1+02871+02521101271ADDGA1001+999999999GF100991001001999999001001MA1999999101081MD1999999-0141REMSYN064AAXX  12094 61630 42962 00000 10287 20252 30108 40127 333 59014;
0177616300999992000081212004+15640-013250FM-12+0017GOSM V0202401N001012200019N0120001N1+03281+02421101151ADDAA199000091GA1001+999999999GF100991001001999999001001MA1999999100961MD1999999-0291REMSYN064AAXX  12124 61630 32962 02402 10328 20242 30096 40115 333 59029;EQDQ01  00002PRCP99
0147616300999992000081315004+15640-013250FM-12+0017GOSM V0202001N002112200019N0100001N1+03551+02511101051ADDGA1001+999999999GF100991001001999999001001MA1999999100861MD1999999+0111REMSYN064AAXX  13154 61630 42960 02004 10355 20251 30086 40105 333 58011;
0196616300999992000081318004+15640-013250FM-12+0017GOSM V0202201N001012200019N0100001N1+03501+02541101001ADDAA199000091GA1001+999999999GF100991001001999999001001KA1120M+03601MA1999999100811MD1999999+0151REMSYN070AAXX  13184 61630 32960 02202 10350 20254 30081 40100 333 10360 58015;EQDQ01  00002PRCP99
0177616300999992000081400004+15640-013250FM-12+0017GOSM V0202401N002112200019N0100001N1+02981+02501101271ADDAA199000091GA1001+999999999GF100991001001999999001001MA1999999101081MD1999999+0121REMSYN064AAXX  14004 61630 32960 02404 10298 20250 30108 40127 333 58012;EQDQ01  00002PRCP99
0187616300999992000081415004+15640-013250FM-12+0017GOSM V0209999C000010390019N0100001N1+02221+02071101371ADDAY191031AY261031GA1081+039009079GF108991081001999999071999MA1999999101181MD1999999+0321MW1611REMSYN082AAXX  14154 61630 41960 80000 10222 20207 30118 40137 76196 8807/ 333 58032 88363;
0229616300999992000081418004+15640-013250FM-12+0017GOSM V0202801N003119999999N0100001N1+02511+02151101211ADDAA112010991AY191061AY261061GA1021+039009039GF107991021001999999071021KA1120M+03081MA1999999101021MD1999999+0211MW1021REMSYN100AAXX  14184 61630 11960 72806 10251 20215 30102 40121 60112 70296 82072 333 10308 58021 82363 86073;
0159616300999992000081509004+15640-013250FM-12+0017GOSM V0209999C000010390019N0100001N1+02401+02181101471ADDGA1071+039009079GF107991071001999999071999MA1999999101271MD1999999+0091REMSYN076AAXX  15094 61630 42960 70000 10240 20218 30127 40147 8707/ 333 58009 87363;
0195616300999992000081512004+15640-013250FM-12+0017GOSM V0209999C000010048019N0120001N1+02981+02461101411ADDAA199000091GA1071+004809059GF107991071051004501001001MA1999999101221MD1999999-0111REMSYN082AAXX  15124 61630 32462 70000 10298 20246 30122 40141 87500 333 0//79 59011 87616;EQDQ01  00002PRCP99
0159616300999992000081515004+15640-013250FM-12+0017GOSM V0209999C000010039019N0100001N1+03181+02481101181ADDGA1061+003909059GF106991061051004501001001MA1999999100991MD1999999-0191REMSYN076AAXX  15154 61630 42460 60000 10318 20248 30099 40118 86500 333 59019 86613;
0208616300999992000081518004+15640-013250FM-12+0017GOSM V0209999C000010039019N0100001N1+03201+02471101071ADDAA199000091GA1051+003909059GF105991051051004501001001KA1120M+03251MA1999999100881MD1999999-0141REMSYN082AAXX  15184 61630 32460 50000 10320 20247 30088 40107 85500 333 10325 59014 85613;EQDQ01  00002PRCP99
0233616300999992000081606004+15640-013250FM-12+0017GOSM V0209999C000019999999N0100001N1+02661+02431101171ADDAA199000091GF105991051001999999081001IA2240+02109KA1120N+02541MA1999999100981MD1999999-0291OA150600361REMSYN100AAXX  16064 61630 32960 50000 10266 20243 30098 40117 85080 333 02100 20254 50182 55070 59029 85363;EQDQ01  00002PRCP99
0195616300999992000081612004+15640-013250FM-12+0017GOSM V0209999C000010039019N0100001N1+03161+02491101371ADDAA199000091GA1061+003909059GF106991061051004501001001MA1999999101181MD1999999-0041REMSYN082AAXX  16124 61630 32460 60000 10316 20249 30118 40137 86500 333 0//00 59004 86613;EQDQ01  00002PRCP99
0208616300999992000081618004+15640-013250FM-12+0017GOSM V0209999C000012200019N0120001N1+03301+02491100941ADDAA199000091GA1011+039009079GF101991011001999999071001KA1120M+03381MA1999999100751MD1999999-0131REMSYN082AAXX  16184 61630 32962 10000 10330 20249 30075 40094 81070 333 10338 59013 81363;EQDQ01  00002PRCP99
0147616300999992000081703004+15640-013250FM-12+0017GOSM V0202801N002112200019N0100001N1+02811+02411101171ADDGA1001+999999999GF100991001001999999001001MA1999999100981MD1999999-0051REMSYN064AAXX  17034 61630 42960 02804 10281 20241 30098 40117 333 59005;
0239616300999992000081706004+15640-013250FM-12+0017GOSM V0202801N003112200019N0100001N1+02651+02381101111ADDAA199000091GA1001+999999999GF100991001001999999001001IA2240+02409KA1120N+02551MA1999999100921OA150699999REMSYN088AAXX  17064 61630 32960 02806 10265 20238 30092 40111 333 02400 20255 50262 55059 59006;EQDQ01  00002PRCP99Q02  00262WGOSPD
0147616300999992000081709004+15640-013250FM-12+0017GOSM V0202801N003112200019N0100001N1+02771+02461101221ADDGA1001+999999999GF100991001001999999001001MA1999999101031MD1999999-0081REMSYN064AAXX  17094 61630 42960 02806 10277 20246 30103 40122 333 59008;
0201616300999992000081712004+15640-013250FM-12+0017GOSM V0202801N004112200019N0100001N1+03111+02451101271ADDAA199000091GA1041+004809089GF104991041021004501001021MA1999999101081MD1999999-0101REMSYN088AAXX  17124 61630 32460 42808 10311 20245 30108 40127 84202 333 59010 84816 94939 95879;EQDQ01  00002PRCP99
0171616300999992000081715004+15640-013250FM-12+0017GOSM V0202401N002112200019N0150001N1+03331+02461101051ADDGA1041+000159029GF104991041021004501001001MA1999999100861MD1999999-0011REMSYN088AAXX  17154 61630 42465 42404 10333 20246 30086 40105 84200 333 59001 84816 94909 95879;
0220616300999992000081718004+15640-013250FM-12+0017GOSM V0202601N001012200019N0120001N1+03211+02461100981ADDAA199000091GA1031+006009089GF103991031011004501081001KA1120M+03401MA1999999100791MD1999999+0041REMSYN094AAXX  17184 61630 32462 32602 10321 20246 30079 40098 83180 333 10340 58004 83820 94919 95879;EQDQ01  00002PRCP99
0147616300999992000081721004+15640-013250FM-12+0017GOSM V0202401N001012200019N0100001N1+02981+02441101151ADDGA1001+999999999GF100991001001999999001001MA1999999100961MD1999999+0101REMSYN064AAXX  17214 61630 42960 02402 10298 20244 30096 40115 333 58010;
0177616300999992000081800004+15640-013250FM-12+0017GOSM V0202401N002112200019N0100001N1+02821+02471101251ADDAA199000091GA1001+999999999GF100991001001999999001001MA1999999101061MD1999999+0061REMSYN064AAXX  18004 61630 32960 02404 10282 20247 30106 40125 333 58006;EQDQ01  00002PRCP99
0187616300999992000081809004+15640-013250FM-12+0017GOSM V0209999C000010390019N0100001N1+02281+02051101321ADDAY191031AY261031GA1081+039009079GF108991081001999999071999MA1999999101131MD1999999+0101MW1021REMSYN082AAXX  18094 61630 41960 80000 10228 20205 30113 40132 70296 8807/ 333 58010 88363;
0159616300999992000081815004+15640-013250FM-12+0017GOSM V0209999C000010390019N0100001N1+03201+02441100931ADDGA1061+039009079GF106991061001999999081001MA1999999100741MD1999999-0121REMSYN076AAXX  18154 61630 42960 60000 10320 20244 30074 40093 86080 333 59012 86363;
0206616300999992000081818004+15640-013250FM-12+0017GOSM V0209999C000010390019N0100001N1+03081+02401100891ADDAY131061AY221061GA1061+039009079GF106991061001999999081001KA1120M+03201MA1999999100701MD1999999-0091MW1991REMSYN088AAXX  18184 61630 12960 60000 10308 20240 30070 40089 79932 86080 333 10320 59009 86363;
0159616300999992000081909004+15640-013250FM-12+0017GOSM V0209999C000010390019N0100001N1+02721+02461101321ADDGA1061+039009079GF106991061001999999071001MA1999999101131MD1999999+0001REMSYN076AAXX  19094 61630 42960 60000 10272 20246 30113 40132 86070 333 58000 86363;
0207616300999992000081912004+15640-013250FM-12+0017GOSM V0209999C000010048019N0100001N1+03201+02591101381ADDAA199000091GA1051+004809089GF105991051021004501001001MA1999999101191MD1999999+0271REMSYN094AAXX  19124 61630 32460 50000 10320 20259 30119 40138 85200 333 0//00 58027 85816 94939 95879;EQDQ01  00002PRCP99
0250616300999992000082012004+15640-013250FM-12+0017GOSM V0209999C000010390019N0100001N1+02881+02301101591ADDAA112000791AC11C9AY161061AY221061GA1041+004809069GA2061+039009039GF107991041021004501071001MA1999999101401MD1999999+0211MW1211REMSYN112AAXX  20124 61630 11460 70000 10288 20230 30140 40159 69902 72162 84270 333 0//11 58021 84616 86363 94939 95879;
0193616300999992000082015004+15640-013250FM-12+0017GOSM V0209999C000010390019N0100001N1+02991+02371101411ADDGA1021+006009089GA2071+039009039GF108991021021008001071999MA1999999101221MD1999999+0331REMSYN094AAXX  20154 61630 42560 80000 10299 20237 30122 40141 8227/ 333 58033 82820 87363 94921 95831;
0229616300999992000082018004+15640-013250FM-12+0017GOSM V0209999C000010390019N0100001N1+02911+02381101321ADDAA112000791GA1011+009009099GA2081+039009039GF108991011031008001071999KA1120M+03081MA1999999101131MD1999999+0221REMSYN106AAXX  20184 61630 12560 80000 10291 20238 30113 40132 69902 8137/ 333 10308 58022 81930 88363 94944 95814;
0301616300999992000082106004+15640-013250FM-12+0017GOSM V0202601N00211039001CN0100001N1+02541+02341101501ADDAA124000791GA1011+009009099GA2081+039009039GF108991011031008001071999IA2240+02209KA1120N+02461MA1999999101311MD1999999+0121MW1171OA150699999REMSYN130AAXX  21064 61630 11560 82604 10254 20234 30131 40150 69904 717// 8137/ 333 02259 20246 50182 55000 58012 81930 88363 94942 95872;EQDQ01  00002WGOSPD
0193616300999992000082109004+15640-013250FM-12+0017GOSM V0203001N00101045001CN0120001N1+02571+02411101611ADDAY191031AY261031GA1011+006009069GF107991011051008001071999MA1999999101421MD1999999+0041MW1011REMSYN088AAXX  21094 61630 41562 73002 10257 20241 30142 40161 70196 8157/ 333 58004 81620 87363;
0222616300999992000082112004+15640-013250FM-12+0017GOSM V0202601N002110048019N0100001N1+02911+02431101601ADDAA106015091AY191061AY261061GA1061+004809089GF107991061021004501031999MA1999999101411MD1999999+0011MW1031REMSYN106AAXX  21124 61630 11460 72604 10291 20243 30141 40160 60151 70396 8623/ 333 0//79 58001 86816 94939 95879;
0171616300999992000082115004+15640-013250FM-12+0017GOSM V0209999C000010048019N0100001N1+03121+02441101381ADDGA1061+004809089GF106991061021004501001001MA1999999101191MD1999999-0031REMSYN088AAXX  21154 61630 42460 60000 10312 20244 30119 40138 86200 333 59003 86816 94939 95879;
0201616300999992000082118004+15640-013250FM-12+0017GOSM V0209999C00001045001CN0100001N1+03101+02421101211ADDAA112015091GA1021+003909069GF106991021051004501071001KA1120M+03151MA1999999101021MD1999999-0111REMSYN094AAXX  21184 61630 12460 60000 10310 20242 30102 40121 60152 82570 333 10315 59011 82613 86363;
0183616300999992000082200004+15640-013250FM-12+0017GOSM V0209999C000012200019N0100001N1+02741+02571101481ADDAA199000091GA1001+999999999GF100991001001999999001001MA1999999101291MD1999999-0171REMSYN070AAXX  22004 61630 32960 00000 10274 20257 30129 40148 333 0//79 59017;EQDQ01  00002PRCP99
0187616300999992000082209004+15640-013250FM-12+0017GOSM V0209999C000010390019N0100001N1+02381+02201101371ADDAY161031AY221031GA1071+039009079GF107991071001999999071999MA1999999101181MD1999999-0241MW1211REMSYN082AAXX  22094 61630 41960 70000 10238 20220 30118 40137 72162 8707/ 333 59024 87363;
0188616300999992000082212004+15640-013250FM-12+0017GOSM V0209999C000010390019N0100001N1+02841+02321101501ADDAA106001091AC12C9GA1061+039009079GF106991061001999999071001MA1999999101311MD1999999-0101REMSYN088AAXX  22124 61630 11960 60000 10284 20232 30131 40150 60011 86070 333 0//52 59010 86363;
0201616300999992000082218004+15640-013250FM-12+0017GOSM V0209999C00001105001CN0120001N1+03101+02481101101ADDAA112001091GA1011+004509069GF106991011051004501001021KA1120M+03131MA1999999100911MD1999999-0111REMSYN094AAXX  22184 61630 12462 60000 10310 20248 30091 40110 60012 81502 333 10313 59011 81615 86073;
0177616300999992000082300004+15640-013250FM-12+0017GOSM V0209999C000012200019N0100001N1+02651+02451101311ADDAA199000091GA1001+999999999GF100991001001999999001001MA1999999101121MD1999999-0171REMSYN064AAXX  23004 61630 32960 00000 10265 20245 30112 40131 333 59017;EQDQ01  00002PRCP99
0147616300999992000082309004+15640-013250FM-12+0017GOSM V02099999999992200019N0100001N1+02721+02421101311ADDGA1001+999999999GF100991001001999999001001MA1999999101121MD1999999-0061REMSYN064AAXX  23094 61630 42960 0/0// 10272 20242 30112 40131 333 59006;
0189616300999992000082312004+15640-013250FM-12+0017GOSM V0209999C000012200019N0120001N1+03121+02461101271ADDAA199000091GA1011+004509059GF101991011051004501001001MA1999999101081MD1999999-0261REMSYN076AAXX  23124 61630 32462 10000 10312 20246 30108 40127 81500 333 59026 81615;EQDQ01  00002PRCP99
0171616300999992000082315004+15640-013250FM-12+0017GOSM V0202401N002112200019N0120001N1+03361+02531101051ADDGA1011+004509089GF101991011011004501001001MA1999999100861MD1999999-0141REMSYN088AAXX  23154 61630 42462 12404 10336 20253 30086 40105 81100 333 59014 81815 94904 95874;
0220616300999992000082318004+15640-013250FM-12+0017GOSM V0200201N002110450019N0100001N1+03291+02531101031ADDAA199000091GA1041+004809089GF105991041021004501031001KA1120M+03411MA1999999100841MD1999999-0081REMSYN094AAXX  23184 61630 32460 50204 10329 20253 30084 40103 84230 333 10341 59008 84816 94922 95872;EQDQ01  00002PRCP99
0189616300999992000082400004+15640-013250FM-12+0017GOSM V0209999C000012200019N0100001N1+02881+02601101311ADDAA199000091GA1031+039009079GF103991031001999999071001MA1999999101121MD1999999+0001REMSYN076AAXX  24004 61630 32960 30000 10288 20260 30112 40131 83070 333 58000 83363;EQDQ01  00002PRCP99
0223616300999992000082406004+15640-013250FM-12+0017GOSM V0209999C000012200019N0100001N1+02681+02531101271ADDAA199000091GA1001+999999999GF100991001001999999001001IA2240+02209KA1120N+02581MA1999999101081OA150600411REMSYN088AAXX  24064 61630 32960 00000 10268 20253 30108 40127 333 02200 20258 50292 55087 58014;EQDQ01  00002PRCP99
0147616300999992000082409004+15640-013250FM-12+0017GOSM V0202401N002112200019N0120001N1+02851+02501101361ADDGA1001+999999999GF100991001001999999001001MA1999999101171MD1999999+0051REMSYN064AAXX  24094 61630 42962 02404 10285 20250 30117 40136 333 58005;
0201616300999992000082412004+15640-013250FM-12+0017GOSM V0202401N002112200019N0120001N1+03211+02551101351ADDAA199000091GA1021+004509089GF102991021021004501001001MA1999999101161MD1999999+0081REMSYN088AAXX  24124 61630 32462 22404 10321 20255 30116 40135 82200 333 58008 82815 94914 95874;EQDQ01  00002PRCP99
0171616300999992000082415004+15640-013250FM-12+0017GOSM V0209999C000010048019N0100001N1+03461+02581101141ADDGA1051+004809089GF105991051021004501001001MA1999999100951MD1999999+0091REMSYN088AAXX  24154 61630 42460 50000 10346 20258 30095 40114 85200 333 58009 85816 94939 95879;
0208616300999992000082418004+15640-013250FM-12+0017GOSM V0209999C000012200019N0100001N1+03401+02511101021ADDAA199000091GA1041+003909059GF104991041051004501001001KA1120M+03521MA1999999100831MD1999999-0011REMSYN082AAXX  24184 61630 32460 40000 10340 20251 30083 40102 84500 333 10352 59001 84613;EQDQ01  00002PRCP99
0147616300999992000082503004+15640-013250FM-12+0017GOSM V0209999C000012200019N0100001N1+02841+02621101171ADDGA1001+999999999GF100991001001999999001001MA1999999100981MD1999999-0061REMSYN064AAXX  25034 61630 42960 00000 10284 20262 30098 40117 333 59006;
0147616300999992000082509004+15640-013250FM-12+0017GOSM V0209999C000012200019N0100001N1+02881+02431101291ADDGA1001+999999999GF100991001001999999001001MA1999999101101MD1999999-0071REMSYN064AAXX  25094 61630 42960 00000 10288 20243 30110 40129 333 59007;
0207616300999992000082512004+15640-013250FM-12+0017GOSM V0209999C000010048019N0100001N1+03301+02551101291ADDAA199000091GA1061+004809089GF106991061021004501001001MA1999999101101MD1999999-0061REMSYN094AAXX  25124 61630 32460 60000 10330 20255 30110 40129 86200 333 0//00 59006 86816 94939 95879;EQDQ01  00002PRCP99
0171616300999992000082515004+15640-013250FM-12+0017GOSM V0209999C000010048019N0120001N1+03451+02481101011ADDGA1061+004809089GF106991061021004501001001MA1999999100821MD1999999-0131REMSYN088AAXX  25154 61630 42462 60000 10345 20248 30082 40101 86200 333 59013 86816 94939 95879;
0242616300999992000082518004+15640-013250FM-12+0017GOSM V0209999C000010690019N0120001N1+03531+02421100501ADDAA199000091GA1011+004809069GA2051+069009009GF105991011021004501001021KA1120M+03601MA1999999100711MD1999999-0121REMSYN100AAXX  25184 61630 32462 50000 10353 20242 30071 40050 81202 333 10360 59012 81616 85073 94924 95834;EQDQ01  00002PRCP99
0183616300999992000082521004+15640-013250FM-12+0017GOSM V0209999C000012200019N0100001N1+03141+02521101081ADDGA1011+009009099GF101991011031008001001001MA1999999100891MD1999999-0141MW1131REMSYN094AAXX  25214 61630 41560 10000 10314 20252 30089 40108 713// 81300 333 59014 81930 94944 95814;
0304616300999992000082606004+15640-013250FM-12+0017GOSM V0209999C00001039001CN0100001N1+02281+02161101201ADDAA124015091AC11C9AY191061AY261061GA1021+009009099GA2061+039009039GF108991021091008001071999IA2240+02309KA1120N+02151MA1999999101011MD1999999+0121MW1951OA150600511REMSYN130AAXX  26064 61630 11560 80000 10228 20216 30101 40120 60154 79596 8297/ 333 02361 20215 50352 55100 58012 82930 86363 94953 95873;
0291616300999992000082612004+15640-013250FM-12+0017GOSM V0209999C00001009001CN0120001N1+02691+02411101411ADDAA106004191AC11C9AY191061AY261061GA1031+003909089GA2021+009009099GA3051+039009049GF108991081999999999071999MA1999999101221MD1999999+0031MW1611REMSYN118AAXX  26124 61630 11962 80000 10269 20241 30122 40141 60041 76196 8807/ 333 0//61 58003 83813 85463 82930 94943 95833;EQDQ01+000002SCOLCG
0213616300999992000082615004+15640-013250FM-12+0017GOSM V0209999C000010390019N0120001N1+02981+02321100981ADDAY161031GA1011+004509089GA2061+039009039GF108991011021004501071021MA1999999100791MD1999999-0031MW1001REMSYN100AAXX  26154 61630 41462 80000 10298 20232 30079 40098 7006/ 81272 333 59003 81815 86363 94906 95836;
0221616300999992000082618004+15640-013250FM-12+0017GOSM V0209999C00001045001CN0120001N1+03021+02391100871ADDAA112004191AY161061GA1011+004509069GF106991011051004501031021KA1120M+03021MA1999999100681MD1999999-0031MW1031REMSYN100AAXX  26184 61630 11462 60000 10302 20239 30068 40087 60042 7036/ 81532 333 10302 59003 81615 84363;
0159616300999992000082621004+15640-013250FM-12+0017GOSM V0209999C000012200019N0100001N1+02781+02411101061ADDGA1021+039009079GF102991021001999999071001MA1999999100861MD1999999-0031REMSYN076AAXX  26214 61630 42960 20000 10278 20241 30086 40106 82070 333 59003 82363;
0159616300999992000082709004+15640-013250FM-12+0017GOSM V0209999C000019999999N0120001N1+02591+02171101231ADDGA1041+039009079GF105991041001999999031021MA1999999101041MD1999999-0111REMSYN076AAXX  27094 61630 42962 50000 10259 20217 30104 40123 84032 333 59011 84363;
0195616300999992000082712004+15640-013250FM-12+0017GOSM V0201401N001019999999N0120001N1+03001+02281101231ADDAA199000091GA1041+039009079GF106991041001999999031021MA1999999101041MD1999999-0131REMSYN082AAXX  27124 61630 32962 61402 10300 20228 30104 40123 84032 333 0//59 59013 84363;EQDQ01  00002PRCP99
0159616300999992000082715004+15640-013250FM-12+0017GOSM V0209999C000010390019N0100001N1+03361+02461100951ADDGA1061+039009079GF106991061001999999081001MA1999999100761MD1999999-0031REMSYN076AAXX  27154 61630 42960 60000 10336 20246 30076 40095 86080 333 59003 86363;
0208616300999992000082718004+15640-013250FM-12+0017GOSM V0209999C000012200019N0100001N1+03341+02441100861ADDAA199000091GA1041+039009079GF104991041001999999081001KA1120M+03451MA1999999100671MD1999999-0011REMSYN082AAXX  27184 61630 32960 40000 10334 20244 30067 40086 84080 333 10345 59001 84363;EQDQ01  00002PRCP99
0159616300999992000082809004+15640-013250FM-12+0017GOSM V0209999C000010690019N0100001N1+02661+02251101231ADDGA1061+069009019GF106991001001999999001021MA1999999101041MD1999999+0001REMSYN076AAXX  28094 61630 42960 60000 10266 20225 30104 40123 80002 333 58000 86073;
0195616300999992000082812004+15640-013250FM-12+0017GOSM V0209999C000010690019N0100001N1+03021+02421101291ADDAA199000091GA1061+069009019GF106991001001999999001021MA1999999101101MD1999999+0061REMSYN082AAXX  28124 61630 32960 60000 10302 20242 30110 40129 80002 333 0//00 58006 86073;EQDQ01  00002PRCP99
0193616300999992000082815004+15640-013250FM-12+0017GOSM V0209999C000010690019N0120001N1+03491+02511100961ADDGA1011+004809089GA2051+069009009GF105991011021004501001021MA1999999100771MD1999999+0011REMSYN094AAXX  28154 61630 42462 50000 10349 20251 30077 40096 81202 333 58001 81816 85073 94924 95834;
0214616300999992000082818004+15640-013250FM-12+0017GOSM V0209999C00001045001CN0120001N1+03021+02391100871ADDAA199000091GA1011+004509069GF106991011051004501031021KA1120M+03021MA1999999100681MD1999999-0031REMSYN088AAXX  28184 61630 32462 60000 10302 20239 30068 40087 81532 333 10302 59003 81615 84363;EQDQ01  00002PRCP99
0177616300999992000082900004+15640-013250FM-12+0017GOSM V0209999C000012200019N0100001N1+02971+02531101041ADDAA199000091GA1001+999999999GF100991001001999999001001MA1999999100851MD1999999-0021REMSYN064AAXX  29004 61630 32960 00000 10297 20253 30085 40104 333 59002;EQDQ01  00002PRCP99
0147616300999992000082909004+15640-013250FM-12+0017GOSM V0209999C000012200019N0100001N1+02921+02511101131ADDGA1001+999999999GF100991001001999999001001MA1999999100941MD1999999-0101REMSYN064AAXX  29094 61630 42960 00000 10292 20251 30094 40113 333 59010;
0207616300999992000082912004+15640-013250FM-12+0017GOSM V0203201N002110048019N0150001N1+03181+02791101421ADDAA199000091GA1061+004809089GF106991061021004501001021MA1999999101341MD1999999+0061REMSYN094AAXX  29124 61630 32465 63204 10318 20279 30134 40142 86202 333 0//00 58006 86816 94939 95879;EQDQ01  00002PRCP99
0166616300999992000082915004+15640-013250FM-12+0017GOSM V0202401N002112200019N0150001N1+03641+02571100921ADDGA1001+999999999GF100991001001999999001001MA1999999100732MD1999999-0041REMSYN064AAXX  29154 61630 42965 02404 10364 20257 30073 40092 333 59004;EQDQ01+100733APOSP 
0196616300999992000082918004+15640-013250FM-12+0017GOSM V0209999C000012200019N0120001N1+03691+02551100991ADDAA199000091GA1001+999999999GF100991001001999999001001KA1120M+03791MA1999999100801MD1999999+0091REMSYN070AAXX  29184 61630 32962 00000 10369 20255 30080 40099 333 10379 58009;EQDQ01  00002PRCP99
0147616300999992000082921004+15640-013250FM-12+0017GOSM V0209999C000012200019N0100001N1+03301+02611100991ADDGA1001+999999999GF100991001001999999001001MA1999999100801MD1999999-0021REMSYN064AAXX  29214 61630 42960 00000 10330 20261 30080 40099 333 59002;
0177616300999992000083000004+15640-013250FM-12+0017GOSM V0202601N002112200019N0100001N1+03021+02571101191ADDAA199000091GA1001+999999999GF100991001001999999001001MA1999999101001MD1999999+0151REMSYN064AAXX  30004 61630 32960 02604 10302 20257 30100 40119 333 58015;EQDQ01  00002PRCP99
0273616300999992000083006004+15640-013250FM-12+0017GOSM V0202401N002110450019N0100001N1+02621+02251101101ADDAA199000091GA1021+009009099GF108991021031008001071999IA2240+02409KA1120N+02491MA1999999100911MD1999999+0131MW1131OA150600461REMSYN118AAXX  30064 61630 31560 82404 10262 20225 30091 40110 713// 8237/ 333 02400 20249 50412 55097 58013 82930 94945 95815;EQDQ01  00002PRCP99
0159616300999992000083009004+15640-013250FM-12+0017GOSM V0202401N002110390019N0100001N1+02591+02211101261ADDGA1081+039009019GF108991081001999999021999MA1999999101071MD1999999+0131REMSYN076AAXX  30094 61630 42960 82404 10259 20221 30107 40126 8802/ 333 58013 88463;
0250616300999992000083012004+15640-013250FM-12+0017GOSM V0202601N002110390019N0100001N1+02181+02091101261ADDAA106024991AC11C9AY191061AY261061GA1011+009009099GA2081+039009039GF108991011091008001071999MA1999999101071MD1999999+0011MW1171REMSYN112AAXX  30124 61630 11560 82604 10218 20209 30107 40126 60251 71796 8197/ 333 0//71 58001 81930 88363 94940 95870;
0187616300999992000083015004+15640-013250FM-12+0017GOSM V0209999C000010390019N0100001N1+02681+02241100901ADDAY191031AY261031GA1071+039009079GF107991071001999999071001MA1999999100711MD1999999-0021MW1291REMSYN082AAXX  30154 61630 41960 70000 10268 20224 30071 40090 72996 87070 333 59002 87363;
0195616300999992000083018004+15640-013250FM-12+0017GOSM V0209999C000010390019N0100001N1+02701+02261100891ADDAA112024991GA1071+039009079GF107991071001999999071001KA1120M+03451MA1999999100701MD1999999-0101REMSYN088AAXX  30184 61630 12960 70000 10270 20226 30070 40089 60252 87070 333 10345 59010 87363;
0147616300999992000083103004+15640-013250FM-12+0017GOSM V0209999C000012200019N0100001N1+02501+02361101031ADDGA1001+999999999GF100991001001999999001001MA1999999100841MD1999999+0101REMSYN064AAXX  31034 61630 42960 00000 10250 20236 30084 40103 333 58010;
0147616300999992000083109004+15640-013250FM-12+0017GOSM V02099999999992200019N0100001N1+02741+02431101111ADDGA1001+999999999GF100991001001999999001001MA1999999100921MD1999999-0151REMSYN064AAXX  31094 61630 42960 0/0// 10274 20243 30092 40111 333 59015;
0201616300999992000083112004+15640-013250FM-12+0017GOSM V0209999C000012200019N0100001N1+03201+02471101201ADDAA199000091AC13I9GA1041+069009019GF104991001001999999001021MA1999999101011MD1999999-0061REMSYN082AAXX  31124 61630 32960 40000 10320 20247 30101 40120 80002 333 0//17 59006 84073;EQDQ01  00002PRCP99
0147616300999992000083115004+15640-013250FM-12+0017GOSM V0209999C000012200019N0100001N1+03401+02491100911ADDGA1001+999999999GF100991001001999999001001MA1999999100721MD1999999+0011REMSYN064AAXX  31154 61630 42960 00000 10340 20249 30072 40091 333 58001;
0189616300999992000090112004+15640-013250FM-12+0017GOSM V0209999C000012200019N0120001N1+03051+02331101071ADDAA199000091GA1041+069009019GF104991001001999999001021MA1999999100881MD1999999-0131REMSYN076AAXX  01124 61630 32962 40000 10305 20233 30088 40107 80002 333 59013 84073;EQDQ01  00002PRCP99
0208616300999992000090118004+15640-013250FM-12+0017GOSM V0209999C000012200019N0120001N1+03381+02391100821ADDAA199000091GA1011+039009079GF101991011001999999031021KA1120M+03501MA1999999100631MD1999999+0071REMSYN082AAXX  01184 61630 32962 10000 10338 20239 30063 40082 81032 333 10350 58007 81363;EQDQ01  00002PRCP99
0183616300999992000090200004+15640-013250FM-12+0017GOSM V0209999C000012200019N0100001N1+02851+02511101111ADDAA199000091GA1001+999999999GF100991001001999999001001MA1999999100921MD1999999+0151REMSYN070AAXX  02004 61630 32960 00000 10285 20251 30092 40111 333 0//59 58015;EQDQ01  00002PRCP99
0255616300999992000090206004+15640-013250FM-12+0017GOSM V0209999C000019999999N0100001N1+02701+02441101071ADDAA199000091GA1021+039009039GF107991021001999999071021IA2240+02109KA1120N+02601MA1999999100881MD1999999-0101OA150600411REMSYN106AAXX  02064 61630 32960 70000 10270 20244 30088 40107 82072 333 02100 20260 50312 55087 59010 82363 85073;EQDQ01  00002PRCP99
0216616300999992000090212004+15640-013250FM-12+0017GOSM V0202401N002112200019N0120001N1+03351+02511101131ADDAA106000791AC13C9AY161061AY221061GA1021+039009079GF102991021001999999081001MA1999999100941MD1999999+0061MW1011REMSYN094AAXX  02124 61630 11962 22404 10335 20251 30094 40113 69901 70162 82080 333 0//53 58006 82363;
0159616300999992000090215004+15640-013250FM-12+0017GOSM V0209999C000012200019N0100001N1+03561+02411100981ADDGA1021+003909059GF102991021051004501001001MA1999999100791MD1999999+0131REMSYN076AAXX  02154 61630 42460 20000 10356 20241 30079 40098 82500 333 58013 82613;
0183616300999992000090218004+15640-013250FM-12+0017GOSM V0209999C000012200019N0100001N1+03501+02371100901ADDAA112000791GA1001+999999999GF100991001001999999001001KA1120M+03561MA1999999100711MD1999999+0001REMSYN076AAXX  02184 61630 12960 00000 10350 20237 30071 40090 69902 333 10356 58000;
0210616300999992000090306004+15640-013250FM-12+0017GOSM V0209999C000012200019N0100001N1+02761+02511101081ADDAA124000791GA1001+999999999GF100991001001999999001001IA2240+02209KA1120N+02661MA1999999100891OA150600411REMSYN094AAXX  03064 61630 12960 00000 10276 20251 30089 40108 69904 333 02259 20266 50322 55084 58001;
0147616300999992000090309004+15640-013250FM-12+0017GOSM V0209999C000012200019N0100001N1+03041+02441101251ADDGA1001+999999999GF100991001001999999001001MA1999999101061MD1999999+0061REMSYN064AAXX  03094 61630 42960 00000 10304 20244 30106 40125 333 58006;
0183616300999992000090312004+15640-013250FM-12+0017GOSM V0209999C000012200019N0100001N1+03441+02651101291ADDAA199000091GA1001+999999999GF100991001001999999001001MA1999999101101MD1999999+0161REMSYN070AAXX  03124 61630 32960 00000 10344 20265 30110 40129 333 0//00 58016;EQDQ01  00002PRCP99
0179616300999992000090321004+15640-013250FM-12+0017GOSM V0202801N003112200019N0100001N1+03261+02631999999ADDAY191031GA1021+069009019GF102991001001999999001021MA1999999100811MD1999999-0051MW1001REMSYN082AAXX  03214 61630 41960 22806 10326 20263 30081 401/0 7009/ 80002 333 59005 82073;
0187616300999992000090409004+15640-013250FM-12+0017GOSM V0202801N002110390019N0100001N1+02561+02171101061ADDAY191031AY261031GA1071+039009079GF107991071001999999071001MA1999999101871MD1999999-0191MW1011REMSYN082AAXX  04094 61630 41960 72804 10256 20217 30187 40106 70196 87070 333 59019 87363;
0188616300999992000090412004+15640-013250FM-12+0017GOSM V0203201N001012200019N0100001N1+03151+02481101091ADDAA106007191AC10I9GA1041+069009019GF104991001001999999001021MA1999999100901MD1999999-0201REMSYN088AAXX  04124 61630 12960 43202 10315 20248 30090 40109 60071 80002 333 0//64 59020 84073;
0159616300999992000090415004+15640-013250FM-12+0017GOSM V0200401N002112200019N0120001N1+03461+02391100811ADDGA1011+039009079GF101991011001999999031001MA1999999100621MD1999999-0201REMSYN076AAXX  04154 61630 42962 10404 10346 20239 30062 40081 81030 333 59020 81363;
0195616300999992000090418004+15640-013250FM-12+0017GOSM V0209999C000012200019N0100001N1+03481+02441100721ADDAA112007191GA1021+039009079GF102991021001999999031001KA1120M+03591MA1999999100531MD1999999-0251REMSYN088AAXX  04184 61630 12960 20000 10348 20244 30053 40072 60072 82030 333 10359 59025 82363;
0239616300999992000090506004+15640-013250FM-12+0017GOSM V0209999C000012200019N0100001N1+02581+02361100841ADDAA124007191GF101991999001999999031001IA2240+02109KA1120N+02481MA1999999100651MD1999999-0591OA150600361REMSYN106AAXX  05064 61630 12960 10000 10258 20236 30065 40084 60074 82030 333 02169 20248 50432 55074 59059 82363;EQDQ01+000022SCOTLC
0196616300999992000090518004+15640-013250FM-12+0017GOSM V0202801N002112200019N0100001N1+03381+02481100671ADDAA199000091GA1001+999999999GF100991001001999999001001KA1120M+03521MA1999999100481MD1999999-0051REMSYN070AAXX  05184 61630 32960 02804 10338 20248 30048 40067 333 10352 59005;EQDQ01  00002PRCP99
0183616300999992000090600004+15640-013250FM-12+0017GOSM V0209999C000012200019N0100001N1+02881+02541100941ADDAA199000091GA1001+999999999GF100991001001999999001001MA1999999100751MD1999999-0041REMSYN070AAXX  06004 61630 32960 00000 10288 20254 30075 40094 333 0//00 59004;EQDQ01  00002PRCP99
0223616300999992000090606004+15640-013250FM-12+0017GOSM V0202801N002112200019N0100001N1+02701+02561100891ADDAA199000091GA1001+999999999GF100991001001999999001001IA2240+02309KA1120N+02601MA1999999100701OA150600411REMSYN088AAXX  06064 61630 32960 02804 10270 20256 30070 40089 333 02300 20260 50272 55087 58005;EQDQ01  00002PRCP99
0159616300999992000090609004+15640-013250FM-12+0017GOSM V0202801N002110690019N0100001N1+02781+02641101101ADDGA1061+069009019GF106991001001999999001021MA1999999100911MD1999999+0211REMSYN076AAXX  06094 61630 42960 62804 10278 20264 30091 40110 80002 333 58021 86073;
0195616300999992000090612004+15640-013250FM-12+0017GOSM V0202801N002110690019N0100001N1+03181+02771101171ADDAA199000091GA1061+069009019GF106991001001999999001021MA1999999100981MD1999999+0321REMSYN082AAXX  06124 61630 32960 62804 10318 20277 30098 40117 80002 333 0//00 58032 86073;EQDQ01  00002PRCP99
0193616300999992000090615004+15640-013250FM-12+0017GOSM V0202201N003110690019N0100001N1+03241+02541100851ADDGA1011+004509089GA2061+069009009GF106991011021004501001021MA1999999100661MD1999999+0141REMSYN094AAXX  06154 61630 42460 62206 10324 20254 30066 40085 81202 333 58014 81815 86073 94924 95874;
0258616300999992000090618004+15640-013250FM-12+0017GOSM V0209999C000010690019N0100001N1+03601+02551100791ADDAA199000091GA1021+004509089GA2041+069009009GF105991021021004501001021KA1120M+99999MA1999999100601MD1999999+0121REMSYN100AAXX  06184 61630 32460 50000 10360 20255 30060 40079 82202 333 10340 58012 82815 84073 94921 95871;EQDQ01  00002PRCP99Q02 +03402ATMX  
0189616300999992000090700004+15640-013250FM-12+0017GOSM V0209999C000012200019N0100001N1+02871+02661101051ADDAA199000091GA1031+069009019GF103991001001999999001021MA1999999100861MD1999999+0111REMSYN076AAXX  07004 61630 32960 30000 10287 20266 30086 40105 80002 333 58011 83073;EQDQ01  00002PRCP99
0223616300999992000090706004+15640-013250FM-12+0017GOSM V0202201N001012200019N0100001N1+02541+02371101031ADDAA199000091GA1001+999999999GF100991001001999999001001IA2240+02409KA1120N+02451MA1999999100841OA150600261REMSYN088AAXX  07064 61630 32960 02202 10254 20237 30084 40103 333 02400 20245 50362 55051 58014;EQDQ01  00002PRCP99
0201616300999992000090712004+15640-013250FM-12+0017GOSM V0209999C000012200019N0120001N1+03201+02561101181ADDAA199000091GA1031+004509089GF103991031021999999001001MA1999999100991MD1999999+0011REMSYN088AAXX  07124 61630 32962 30000 10320 20256 30099 40118 83200 333 58001 83815 94939 95879;EQDQ01  00002PRCP99
0171616300999992000090715004+15640-013250FM-12+0017GOSM V0202401N001012200019N0120001N1+03481+02681100941ADDGA1021+006009089GF103991031021008001031001MA1999999100751MD1999999+0091REMSYN088AAXX  07154 61630 42562 32402 10348 20268 30075 40094 83230 333 58009 82820 94925 95875;
0208616300999992000090718004+15640-013250FM-12+0017GOSM V0209999C000012200019N0120001N1+03431+02421100821ADDAA199000091GA1011+039009079GF101991011001999999031001KA1120M+03501MA1999999100631MD1999999+0031REMSYN082AAXX  07184 61630 32962 10000 10343 20242 30063 40082 81030 333 10350 58003 81363;EQDQ01  00002PRCP99
0147616300999992000090721004+15640-013250FM-12+0017GOSM V0209999C000012200019N0100001N1+03101+02571100911ADDGA1001+999999999GF100991001001999999001001MA1999999100721MD1999999-0111REMSYN064AAXX  07214 61630 42960 00000 10310 20257 30072 40091 333 59011;
0187616300999992000090809004+15640-013250FM-12+0017GOSM V0202201N001010390019N0100001N1+02541+02311101101ADDAY191031AY261031GA1081+039009079GF108991081001999999071999MA1999999100911MD1999999-0081MW1021REMSYN082AAXX  08094 61630 41960 82202 10254 20231 30091 40110 70296 8807/ 333 59008 88363;
0216616300999992000090812004+15640-013250FM-12+0017GOSM V0209999C000010390019N0100001N1+02971+02451101091ADDAA106008991AC12I9AY191061AY261061GA1071+039009079GF107991071001999999031021MA1999999100901MD1999999-0091MW1011REMSYN094AAXX  08124 61630 11960 70000 10297 20245 30090 40109 60091 70196 87032 333 0//66 59009 87363;
0159616300999992000090815004+15640-013250FM-12+0017GOSM V0209999C000012200019N0100001N1+03321+02541100891ADDGA1041+039009079GF104991041001999999081001MA1999999100701MD1999999-0051REMSYN076AAXX  08154 61630 42960 40000 10332 20254 30070 40089 84080 333 59005 84363;
0183616300999992000090818004+15640-013250FM-12+0017GOSM V0209999C000012200019N0100001N1+03281+02471100761ADDAA112008991GA1001+999999999GF100991001001999999001001KA1120M+03401MA1999999100571MD1999999-0061REMSYN076AAXX  08184 61630 12960 00000 10328 20247 30057 40076 60092 333 10340 59006;
0159616300999992000090909004+15640-013250FM-12+0017GOSM V0209999C000010390019N0100001N1+02801+02431100941ADDGA1051+039009079GF105991051001999999081001MA1999999100751MD1999999-0161REMSYN076AAXX  09094 61630 42960 50000 10280 20243 30075 40094 85080 333 59016 85363;
0195616300999992000090912004+15640-013250FM-12+0017GOSM V0203201N002112200019N0100001N1+03241+02631100991ADDAA199000091GA1021+039009079GF102991021001999999081001MA1999999100801MD1999999-0101REMSYN082AAXX  09124 61630 32960 23204 10324 20263 30080 40099 82080 333 0//00 59010 82363;EQDQ01  00002PRCP99
0147616300999992000090921004+15640-013250FM-12+0017GOSM V0201801N003112200019N0100001N1+03051+99999100831ADDGA1001+999999999GF100991001001999999001001MA1999999100641MD1999999-0061REMSYN064AAXX  09214 61630 42960 01806 10305 20/// 30064 40083 333 59006;
0235616300999992000091000004+15640-013250FM-12+0017GOSM V0202201N004110450019N0100001N1+99999+99999100971ADDAA199000091GA1011+009009099GA2041+999999999GF105991011031008001071001MA1999999100781MD1999999+0021MW1131REMSYN100AAXX  10004 61630 31560 52208 19294 20/// 30078 40097 713// 81370 333 58002 81930 84/// 94944 95874;EQDQ01  00002PRCP99
0171616300999992000091009004+15640-013250FM-12+0017GOSM V0202201N001010045019N0120001N1+02721+02371101281ADDGA1051+004509089GF105991051021004501001001MA1999999101091MD1999999+0341REMSYN088AAXX  10094 61630 42462 52202 10272 20237 30109 40128 85200 333 58034 85815 94939 95879;
0201616300999992000091012004+15640-013250FM-12+0017GOSM V0209999C000010045019N0120001N1+03161+02431101321ADDAA199000091GA1051+004509089GF105991051021004501001001MA1999999101131MD1999999+0031REMSYN088AAXX  10124 61630 32462 50000 10316 20243 30113 40132 85200 333 58003 85815 94939 95879;EQDQ01  00002PRCP99
0159616300999992000091015004+15640-013250FM-12+0017GOSM V0202401N002110390019N0120001N1+03381+02461100931ADDGA1051+039009079GF105991051081999999031001MA1999999100741MD1999999+0281REMSYN076AAXX  10154 61630 42962 52404 10338 29246 30074 40093 85830 333 58028 85363;
0214616300999992000091018004+15640-013250FM-12+0017GOSM V0209999C00001045001CN0120001N1+03321+02451100911ADDAA199000091GA1011+006009069GF107991011051008001071001KA1120M+03421MA1999999100721MD1999999+0381REMSYN088AAXX  10184 61630 32562 70000 10332 20245 30072 40091 81570 333 10342 58038 81620 87363;EQDQ01  00002PRCP99
0159616300999992000091109004+15640-013250FM-12+0017GOSM V0209999C000012200019N0120001N1+02881+02501101221ADDGA1011+039009079GF101991011001999999031001MA1999999101031MD1999999-0061REMSYN076AAXX  11094 61630 42962 10000 10288 20250 30103 40122 81030 333 59006 81363;
0229616300999992000091112004+15640-013250FM-12+0017GOSM V0202201N001012200019N0120001N1+03281+02461101191ADDAA199000091GA1011+004809089GA2031+039009039GF103991011011004501031001MA1999999101001MD1999999-0131REMSYN100AAXX  11124 61630 32462 32202 10328 20246 30100 40119 81130 333 0//59 59013 81816 83363 94905 95837;EQDQ01  00002PRCP99
0208616300999992000091118004+15640-013250FM-12+0017GOSM V0202201N001012200019N0120001N1+03461+02471100771ADDAA199000091GA1041+039009079GF104991041001999999071001KA1120M+03571MA1999999100561MD1999999-0141REMSYN082AAXX  11184 61630 32962 42202 10346 20247 30056 40077 84070 333 10357 59014 84363;EQDQ01  00002PRCP99
0147616300999992000091121004+15640-013250FM-12+0017GOSM V0202201N002112200019N0100001N1+03111+02541100851ADDGA1001+999999999GF100991001001999999001001MA1999999100661MD1999999-0191REMSYN064AAXX  11214 61630 42960 02204 10311 20254 30066 40085 333 59019;
0177616300999992000091200004+15640-013250FM-12+0017GOSM V0202801N003112200019N0100001N1+02921+01491100951ADDAA199000091GA1001+999999999GF100991001001999999001001MA1999999100761MD1999999-0181REMSYN064AAXX  12004 61630 32960 02806 10292 20149 30076 40095 333 59018;EQDQ01  00002PRCP99
0223616300999992000091206004+15640-013250FM-12+0017GOSM V0202801N001012200019N0100001N1+02671+02461100791ADDAA199000091GA1001+999999999GF100991001001999999001001IA2240+02409KA1120N+02601MA1999999100601OA150600461REMSYN088AAXX  12064 61630 32960 02802 10267 20246 30060 40079 333 02400 20260 50372 55095 59022;EQDQ01  00002PRCP99
0189616300999992000091212004+15640-013250FM-12+0017GOSM V0203201N003112200019N0100001N1+03451+02391100921ADDAA199000091GA1041+069009019GF104991001001999999001021MA1999999100731MD1999999-0271REMSYN076AAXX  12124 61630 32960 43206 10345 20239 30073 40092 80002 333 59027 84073;EQDQ01  00002PRCP99
0159616300999992000091215004+15640-013250FM-12+0017GOSM V0209999C000010690019N0120001N1+03781+02411100591ADDGA1061+069009019GF106991001001999999001021MA1999999100401MD1999999-0351REMSYN076AAXX  12154 61630 42962 60000 10378 20241 30040 40059 80002 333 59035 86073;
0208616300999992000091218004+15640-013250FM-12+0017GOSM V0209999C000010690019N0120001N1+03781+02241100541ADDAA199000091GA1071+069009019GF107991001001999999001021KA1120M+03831MA1999999100351MD1999999-0331REMSYN082AAXX  12184 61630 32962 70000 10378 20224 30035 40054 80002 333 10383 59033 87073;EQDQ01  00002PRCP99
0223616300999992000091306004+15640-013250FM-12+0017GOSM V0202601N001012200019N0100001N1+02691+02391100881ADDAA199000091GA1001+999999999GF100991001001999999001001IA2240+02409KA1120N+02581MA1999999100691OA150600461REMSYN088AAXX  13064 61630 32960 02602 10269 20239 30069 40088 333 02400 20258 50572 55095 58009;EQDQ01  00002PRCP99
0189616300999992000091312004+15640-013250FM-12+0017GOSM V0202401N002112200019N0100001N1+03301+02441101011ADDAA199000091GA1021+039009079GF102991021001999999031001MA1999999100821MD1999999+0091REMSYN076AAXX  13124 61630 32960 22404 10330 20244 30082 40101 82030 333 58009 82363;EQDQ01  00002PRCP99
0208616300999992000091318004+15640-013250FM-12+0017GOSM V0202201N003112200019N0120001N1+03371+02541100891ADDAA199000091GA1031+069009019GF103991001001999999001021KA1120M+03511MA1999999100701MD1999999+0351REMSYN082AAXX  13184 61630 32962 32206 10337 20254 30070 40089 80002 333 10351 58035 83073;EQDQ01  00002PRCP99
0254616300999992000091406004+15640-013250FM-12+0017GOSM V0202201N002119999999N0100001N1+02561+02391101061ADDAA124006191AC12I9AY191061AY261061GF107991071001999999071001IA2240+02409KA1120N+02461MA1999999100871MD1999999+0181MW1011OA150600411REMSYN112AAXX  14064 61630 11960 72204 10256 20239 30087 40106 60064 70196 87070 333 02466 20246 50412 55082 58018 87363;
0159616300999992000091409004+15640-013250FM-12+0017GOSM V0202201N001010390019N0100001N1+02721+02471101271ADDGA1061+039009079GF106991061001999999071001MA1999999101081MD1999999+0381REMSYN076AAXX  14094 61630 42960 62202 10272 20247 30108 40127 86070 333 58038 86363;
0221616300999992000091415004+15640-013250FM-12+0017GOSM V0201201N003110360019N0080001N1+02291+02141101421ADDAY191031AY261031GA1011+007809099GA2081+036009039GF108991011091004501071999MA1999999101231MD1999999+0561MW1951REMSYN100AAXX  14154 61630 41458 81206 10229 20214 30123 40142 79596 8197/ 333 58056 81926 88362 94940 95870;
0223616300999992000091418004+15640-013250FM-12+0017GOSM V0209999C000010390019N0100001N1+02381+02191101321ADDAA112043991AY191061AY261061GA1081+039009079GF108991081001999999071999KA1120M+03261MA1999999101131MD1999999+0431MW1611REMSYN094AAXX  14184 61630 11960 80000 10238 20219 30113 40132 60442 76196 8807/ 333 10326 58043 88363;
0208616300999992000091500004+15640-013250FM-12+0017GOSM V0209999C000010390019N0100001N1+02281+02161101441ADDAA106000791AC13I9AY161061GA1051+039009079GF105991051001999999081001MA1999999101251MD1999999+0181MW1011REMSYN094AAXX  15004 61630 11960 50000 10228 20216 30125 40144 69901 7016/ 85080 333 0//77 58018 85363;
0159616300999992000091503004+15640-013250FM-12+0017GOSM V0209999C000010390019N0100001N1+02301+02151101351ADDGA1071+039009079GF107991071001999999031001MA1999999101161MD1999999+0171REMSYN076AAXX  15034 61630 42960 70000 10230 20215 30116 40135 87030 333 58017 87363;
0220616300999992000091506004+15640-013250FM-12+0017GOSM V0209999C000012200019N0100001N1+02291+02191101261ADDAA124043991GF103991031001999999031001IA2240+02009KA1120N+02171MA1999999101061MD1999999+0191OA150600001REMSYN106AAXX  15064 61630 12960 30000 10229 20219 30106 40126 60444 83030 333 02079 20217 50112 55000 58019 83363;
0195616300999992000091512004+15640-013250FM-12+0017GOSM V0209999C000010390019N0150001N1+03021+02361101231ADDAA199000091GA1051+039009079GF105991051001999999031001MA1999999101041MD1999999-0141REMSYN082AAXX  15124 61630 32965 50000 10302 20236 30104 40123 85030 333 0//79 59014 85363;EQDQ01  00002PRCP99
0147616300999992000091609004+15640-013250FM-12+0017GOSM V0203201N002112200019N0100001N1+02801+02531101051ADDGA1001+999999999GF100991001001999999001001MA1999999100861MD1999999-0281REMSYN064AAXX  16094 61630 42960 03204 10280 20253 30086 40105 333 59028;
0147616300999992000091615004+15640-013250FM-12+0017GOSM V0202801N001012200019N0120001N1+03601+02491100841ADDGA1001+999999999GF100991001001999999001001MA1999999100651MD1999999-0241REMSYN064AAXX  16154 61630 42462 02802 10360 20249 30065 40084 333 59024;
0208616300999992000091618004+15640-013250FM-12+0017GOSM V0209999C000012200019N0100001N1+03591+02461100731ADDAA199000091GA1011+039009079GF101991011001999999031001KA1120M+03651MA1999999100541MD1999999-0301REMSYN082AAXX  16184 61630 32960 10000 10359 20246 30054 40073 81030 333 10365 59030 81363;EQDQ01  00002PRCP99
0159616300999992000091709004+15640-013250FM-12+0017GOSM V0209999C000010690019N0120001N1+02881+02301101221ADDGA1051+069009019GF105991001001999999001021MA1999999101031MD1999999+0071REMSYN076AAXX  17094 61630 42962 50000 10288 20230 30103 40122 80002 333 58007 85073;
0187616300999992000091809004+15640-013250FM-12+0017GOSM V0202801N002110390019N0120001N1+02541+02401101391ADDAY191031AY261031GA1081+039009079GF108991081001999999071999MA1999999101201MD1999999+0191MW1021REMSYN082AAXX  18094 61630 41962 82804 10254 20240 30120 40139 70296 8807/ 333 58019 88363;
0194616300999992000091812004+15640-013250FM-12+0017GOSM V0209999C00001045001CN0150001N1+02911+02471101351ADDAA106002091AC12I9GA1011+003909069GF107991011051004501071001MA1999999101161MD1999999+0061REMSYN094AAXX  18124 61630 12465 70000 10291 20247 30116 40135 60021 81570 333 0//56 58006 81613 86363;
0131616300999992000091815004+15640-013250FM-12+0017GOSM V0200401N002119999999N0100001N1+03101+99999999999ADDGF107991999999008001999999REMSYN093AAXX  18154 61630 42560 70404 10310 2248 30100 40119 8127/ 333 58017 81820 87363 94931 95871;
0215616300999992000091818004+15640-013250FM-12+0017GOSM V0209999C000010390019N0100001N1+02811+02361101061ADDAA112002091AY161061GA1071+039009079GF107991071001999999071001KA1120M+03141MA1999999100871MD1999999+0071MW1011REMSYN094AAXX  18184 61630 11960 70000 10281 20236 30087 40106 60022 7016/ 87070 333 10314 58007 87363;
0131616300999992000091821004+15640-013250FM-12+0017GOSM V0209999C000012200019N0100001N1+02641+02411101131ADDGF102991999999999999999999MA1999999100941MD1999999+0021REMSYN064AAXX  18214 61630 42960 20000 10264 20241 30094 40113 333 58002;
0201616300999992000091900004+15640-013250FM-12+0017GOSM V0209999C000012200019N0100001N1+02681+02421101271ADDAA199000091AC13I9GA1031+039009079GF103991031001999999031001MA1999999101081MD1999999-0031REMSYN082AAXX  19004 61630 32960 30000 10268 20242 30108 40127 83030 333 0//58 59003 83363;EQDQ01  00002PRCP99
0220616300999992000091906004+15640-013250FM-12+0017GOSM V0209999C000019999999N0100001N1+02561+02281101201ADDAA124002091GF107991071001999999071999IA2240+02109KA1120N+02461MA1999999101011MD1999999+0011OA150600151REMSYN106AAXX  19064 61630 12960 70000 10256 20228 30101 40120 60024 8707/ 333 02159 20246 50202 55037 58001 87363;
0189616300999992000091912004+15640-013250FM-12+0017GOSM V0202801N002110690019N0120001N1+03001+02341101141ADDAA199000091GA1061+069009019GF106991001001999999001021MA1999999100951MD1999999-0211REMSYN076AAXX  19124 61630 32962 62804 10300 20234 30095 40114 80002 333 59021 86073;EQDQ01  00002PRCP99
0187616300999992000091915004+15640-013250FM-12+0017GOSM V0209999C000010690019N0120001N1+03361+02461100951ADDGA1021+004509089GA2051+069009009GF106991021021004501001051MA1999999100761MD1999999-0091REMSYN088AAXX  19154 61630 42462 60000 10336 20246 30076 40095 82205 333 59009 82815 85073 94923;
0159616300999992000092009004+15640-013250FM-12+0017GOSM V0209999C000012200019N0100001N1+02701+02371101081ADDGA1041+069009019GF104991001001999999001021MA1999999100891MD1999999-0301REMSYN076AAXX  20094 61630 42960 40000 10270 20237 30089 40108 80002 333 59030 84073;
0171616300999992000092015004+15640-013250FM-12+0017GOSM V0201801N002112200019N0150001N1+03391+02431100871ADDGA1041+004809089GF104991041021004501001001MA1999999100681MD1999999-0081REMSYN088AAXX  20154 61630 42465 41804 10339 20243 30068 40087 84200 333 59008 84816 94929 95879;
0242616300999992000092018004+15640-013250FM-12+0017GOSM V0201801N001012200019N0150001N1+03381+02431100861ADDAA199000091GA1011+004809089GA2011+009009099GF102991021091004501001031KA1120M+03451MA1999999100671MD1999999+0041REMSYN100AAXX  20184 61630 32465 21802 10338 20243 30067 40086 82903 333 10345 58004 81816 81930 94942 95832;EQDQ01  00002PRCP99
0233616300999992000092106004+15640-013250FM-12+0017GOSM V0202401N002112200019N0100001N1+02601+02511101181ADDAA199000091GF101991001001999999001021IA2240+02209KA1120N+02491MA1999999100991MD1999999+0151OA150600511REMSYN100AAXX  21064 61630 32960 12404 10260 20251 30099 40118 80002 333 02200 20249 50442 55102 58015 81073;EQDQ01  00002PRCP99
0159616300999992000092109004+15640-013250FM-12+0017GOSM V0202201N002112200019N0120001N1+03802+02371101381ADDGA1011+069009019GF101991001001999999001021MA1999999101191MD1999999+0301REMSYN076AAXX  21094 61630 42962 12204 10380 20237 30119 40138 80002 333 58030 81073;
0223616300999992000092112004+15640-013250FM-12+0017GOSM V0202801N002112200019N0120001N1+03241+02491101371ADDAA199000091GA1011+004809089GA2031+069009009GF103991011011004501041021MA1999999101181MD1999999+0281REMSYN094AAXX  21124 61630 32462 32804 10324 20249 30118 40137 81142 333 58028 81816 83073 94906 95816;EQDQ01  00002PRCP99
0270616300999992000092118004+15640-013250FM-12+0017GOSM V0209999C000012200019N0120001N1+03441+02481101021ADDAA199000091AY191061AY211061GA1011+004809089GA2031+069009009GF103991011021004501001031KA1120M+03491MA1999999100831MD1999999+0261MW1291REMSYN106AAXX  21184 61630 31462 30000 10344 20248 30083 40102 72991 81203 333 10349 58026 81816 83073 94925 95815;EQDQ01  00002PRCP99
0159616300999992000092209004+15640-013250FM-12+0017GOSM V0209999C000012200019N0100001N1+02951+02511101421ADDGA1041+069009019GF104991001001999999001021MA1999999101231MD1999999+0041REMSYN076AAXX  22094 61630 42960 40000 10295 20251 30123 40142 80002 333 58004 84073;
0171616300999992000092215004+15640-013250FM-12+0017GOSM V0209999C000012200019N0120001N1+03701+02511101091ADDGA1031+004809089GF103991031021004501001001MA1999999100901MD1999999-0041REMSYN088AAXX  22154 61630 42462 30000 10370 20251 30090 40109 83200 333 59004 83816 94922 95872;
0248616300999992000092218004+15640-013250FM-12+0017GOSM V0209999C000010690019N0100001N1+03621+02411100891ADDAY181061GA1011+006009089GA2011+009009099GA3041+069009009GF105991999999008001999999KA1120M+03761MA1999999100701MD1999999-0131MW1251REMSYN106AAXX  22184 61630 11560 50000 10362 20241 30070 40089 7258/ 333 10376 59013 81820 84073 81930 94942 95872;
0221616300999992000092221004+15640-013250FM-12+0017GOSM V0209999C000010390019N0100001N1+02601+02201101301ADDAY191031AY261031GA1011+009009099GA2081+039009039GF108991011091008001071999MA1999999101111MD1999999+0101MW1291REMSYN100AAXX  22214 61630 41560 80000 10260 20220 30111 40130 72996 8197/ 333 58010 81930 88363 94946 95816;
0221616300999992000092303004+15640-013250FM-12+0017GOSM V0202201N005110390019N0080001N1+02401+02281101381ADDAY191031AY261031GA1021+009009099GA2081+039009039GF108991021091008001071999MA1999999101191MD1999999+0141MW1951REMSYN100AAXX  23034 61630 41558 82210 10240 20228 30119 40138 79596 8297/ 333 58014 82930 88363 94940 95870;
0159616300999992000092309004+15640-013250FM-12+0017GOSM V0209999C000012200019N0120001N1+02711+02381101271ADDGA1011+039009079GF101991011001999999031021MA1999999101081MD1999999-0151REMSYN076AAXX  23094 61630 42962 10000 10271 20238 30108 40127 81032 333 59015 81363;
0176616300999992000092312004+15640-013250FM-12+0017GOSM V0203201N001012200019N0120001N1+03161+02581101291ADDAA199000021GA1041+069009019GF104991001001999999001021MA1999999101101MD1999999-0081REMSYN082AAXX  23124 61630 32962 43202 10316 20258 30110 40129 80002 333 0//59 59008 84073;
0159616300999992000092315004+15640-013250FM-12+0017GOSM V0209999C000012200019N0120001N1+03421+02531100991ADDGA1031+069009019GF103991001001999999001021MA1999999100801MD1999999-0101REMSYN076AAXX  23154 61630 42962 30000 10342 20253 30080 40099 80002 333 59010 83073;
0159616300999992000092415004+15640-013250FM-12+0017GOSM V0202801N001010390019N0100001N1+03471+02251100721ADDGA1071+039009079GF107991071001999999031999MA1999999100531MD1999999-0271REMSYN076AAXX  24154 61630 42960 72802 10347 20225 30053 40072 8703/ 333 59027 87363;
0196616300999992000092418004+15640-013250FM-12+0017GOSM V0209999C000012200019N0070001N1+03471+02361100661ADDAA199000091GA1001+999999999GF100991001001999999001001KA1120M+03581MA1999999100471MD1999999-0211REMSYN070AAXX  24184 61630 32957 00000 10347 20236 30047 40066 333 10358 59021;EQDQ01  00002PRCP99
0133616300999992000092421004+15640-013250FM-12+0017GOSM V0202401N001012200019N0100001N1+03081+02501100721ADDGA1001+999999999GF100991001001999999001001MA1999999100531REMSYN064AAXX  24214 61630 42960 02402 10308 20250 30053 40072 333 590//;
0147616300999992000092503004+15640-013250FM-12+0017GOSM V0202401N002112200019N0100001N1+02751+02481100731ADDGA1001+999999999GF100991001001999999001001MA1999999100541MD1999999-0261REMSYN064AAXX  25034 61630 42960 02404 10275 20248 30054 40073 333 59026;
0159616300999992000092509004+15640-013250FM-12+0017GOSM V0202201N002110060019N0100001N1+02761+02481101081ADDGA1061+006009059GF106991061051008001001001MA1999999100891MD1999999+0061REMSYN076AAXX  25094 61630 42560 62204 10276 20248 30089 40108 86500 333 58006 86620;
0189616300999992000092512004+15640-013250FM-12+0017GOSM V0202401N003110060019N0100001N1+03121+02531101171ADDAA199000091GA1061+006009059GF106991061051008001001001MA1999999100981MD1999999+0181REMSYN076AAXX  25124 61630 32560 62406 10312 20253 30098 40117 86500 333 58018 86620;EQDQ01  00002PRCP99
0147616300999992000092515004+15640-013250FM-12+0017GOSM V0202201N002112200019N0120001N1+03451+02531100931ADDGA1001+999999999GF100991001001999999001001MA1999999100741MD1999999-0211REMSYN064AAXX  25154 61630 42962 02204 10345 20253 30074 40093 333 59021;
0196616300999992000092518004+15640-013250FM-12+0017GOSM V0202401N001012200019N0120001N1+03481+02431100801ADDAA199000091GA1001+999999999GF100991001001999999001001KA1120M+03581MA1999999100611MD1999999+0141REMSYN070AAXX  25184 61630 32962 02402 10348 20243 30061 40080 333 10358 58014;EQDQ01  00002PRCP99
0233616300999992000092606004+15640-013250FM-12+0017GOSM V0201801N001019999999N0100001N1+02501+02241101091ADDAA199000091GF105991051001999999071001IA2240+02209KA1120N+02461MA1999999100901MD1999999+0321OA150600461REMSYN100AAXX  26064 61630 32960 51802 10250 20224 30090 40109 85070 333 02200 20246 50212 55092 58032 85363;EQDQ01  00002PRCP99
0159616300999992000092609004+15640-013250FM-12+0017GOSM V0202201N001010390019N0100001N1+02631+02281101371ADDGA1061+039009079GF106991061001999999071001MA1999999101181MD1999999+0291REMSYN076AAXX  26094 61630 42960 62202 10263 20228 30118 40137 86070 333 58029 86363;
0208616300999992000092618004+15640-013250FM-12+0017GOSM V0209999C000012200019N0150001N1+03421+02371101071ADDAA199000091GA1021+039009079GF103991021001999999031001KA1120M+03651MA1999999100881MD1999999+0271REMSYN082AAXX  26184 61630 32965 30000 10342 20237 30088 40107 82030 333 10365 58027 82363;EQDQ01  00002PRCP99
0159616300999992000092621004+15640-013250FM-12+0017GOSM V0209999C000012200019N0100001N1+03061+02331101121ADDGA1011+039009079GF101991011001999999031001MA1999999100931MD1999999-0201REMSYN076AAXX  26214 61630 42960 10000 10306 20233 30093 40112 81030 333 59020 81363;
0233616300999992000092706004+15640-013250FM-12+0017GOSM V0201001N002119999999N0100001N1+02801+02401101341ADDAA199000091GF107991001001999999001021IA2240+02109KA1120N+02701MA1999999101151MD1999999+0351OA150600461REMSYN100AAXX  27064 61630 32960 71004 10280 20240 30115 40134 80002 333 02100 20270 50382 55099 58035 87073;EQDQ01  00002PRCP99
0187616300999992000092709004+15640-013250FM-12+0017GOSM V0202401N001010390019N0100001N1+02591+02311101591ADDAY191031AY221031GA1081+039009079GF108991081001008001071999MA1999999101401MD1999999+0121MW1291REMSYN082AAXX  27094 61630 42560 82402 10259 20231 30140 40159 72992 8807/ 333 58012 88363;
0159616300999992000092815004+15640-013250FM-12+0017GOSM V0209999C000010390019N0080001N1+03681+02291100941ADDGA1071+039009079GF107991071001999999031001MA1999999100751MD1999999-0291REMSYN076AAXX  28154 61630 42958 70000 10368 20229 30075 40094 87030 333 59029 87363;
0196616300999992000092818004+15640-013250FM-12+0017GOSM V0209999C000012200019N0080001N1+03481+02161100801ADDAA199000091GA1001+999999999GF100991001001999999001001KA1120M+03701MA1999999100611MD1999999-0331REMSYN070AAXX  28184 61630 32958 00000 10348 20216 30061 40080 333 10370 59033;EQDQ01  00002PRCP99
0147616300999992000092909004+15640-013250FM-12+0017GOSM V0202401N001012200019N0100001N1+02701+02411101031ADDGA1001+999999999GF100991001001999999001001MA1999999100841MD1999999-0241REMSYN064AAXX  29094 61630 42960 02402 10270 20241 30084 40103 333 59024;
0177616300999992000092912004+15640-013250FM-12+0017GOSM V0209999C000012200019N0100001N1+03281+02481101071ADDAA199000091GA1001+999999999GF100991001001999999001001MA1999999100881MD1999999-0181REMSYN064AAXX  29124 61630 32960 00000 10328 20248 30088 40107 333 59018;EQDQ01  00002PRCP99
0147616300999992000092915004+15640-013250FM-12+0017GOSM V0209999C000012200019N0100001N1+03701+02481100751ADDGA1001+999999999GF100991001001999999001001MA1999999100561MD1999999-0191REMSYN064AAXX  29154 61630 42960 00000 10370 20248 30056 40075 333 59019;
0196616300999992000092918004+15640-013250FM-12+0017GOSM V0209999C000012200019N0100001N1+03601+02421100701ADDAA199000091GA1001+999999999GF100991001001999999001001KA1120M+03801MA1999999100511MD1999999-0101REMSYN070AAXX  29184 61630 32960 00000 10360 20242 30051 40070 333 10380 59010;EQDQ01  00002PRCP99
0147616300999992000092921004+15640-013250FM-12+0017GOSM V0202201N002112200019N0100001N1+03201+02531100911ADDGA1001+999999999GF100991001001999999001001MA1999999100721MD1999999-0061REMSYN064AAXX  29214 61630 42960 02204 10320 20253 30072 40091 333 59006;
0171616300999992000093015004+15640-013250FM-12+0017GOSM V0209999C000012200019N0120001N1+03781+02521100801ADDGA1011+009009099GF101991011031008001001001MA1999999100611MD1999999+0051REMSYN088AAXX  30154 61630 42562 10000 10378 20252 30061 40080 81300 333 58005 81930 94941 95871;
0220616300999992000093018004+15640-013250FM-12+0017GOSM V0209999C000012200019N0100001N1+03661+02531100731ADDAA199000091GA1011+009009099GF101991011031008001001001KA1120M+03871MA1999999100541MD1999999+0031REMSYN094AAXX  30184 61630 32560 10000 10366 20253 30054 40073 81300 333 10387 58003 81930 94943 95873;EQDQ01  00002PRCP99
0221616300999992000093021004+15640-013250FM-12+0017GOSM V0201601N002110390019N0080001N1+02911+02131101201ADDAY191031AY261031GA1041+009009099GA2041+039009039GF107991041091008001071999MA1999999101011MD1999999+0291MW1951REMSYN100AAXX  30214 61630 41558 71604 10291 20213 30101 40120 79596 8497/ 333 58029 84930 84363 94940 95870;
0165616300999992000100109004+15640-013250FM-12+0017GOSM V0202401N002119999999N0100001N1+02721+02281101201ADDGA1031+039009039GF107991031001999999071021MA1999999101011MD1999999+0131REMSYN082AAXX  01094 61630 42960 72404 10272 20228 30101 40120 83072 333 58013 83363 85073;
0195616300999992000100112004+15640-013250FM-12+0017GOSM V0201601N001010690019N0120001N1+03261+02321101251ADDAA199000091GA1071+069009019GF107991001001999999001021MA1999999101061MD1999999+0191REMSYN082AAXX  01124 61630 32962 71602 10326 20232 30106 40125 80002 333 0//59 58019 87073;EQDQ01  00002PRCP99
0193616300999992000100215004+15640-013250FM-12+0017GOSM V0209999C000012200019N0120001N1+03541+02451101121ADDGA1021+004809089GA2011+009009099GF103991031031004501001021MA1999999100931MD1999999+0161REMSYN094AAXX  02154 61630 42462 30000 10354 20245 30093 40112 83302 333 58016 82816 81930 94948 95878;
0242616300999992000100218004+15640-013250FM-12+0017GOSM V0209999C000012200019N0120001N1+03481+02491101121ADDAA199000091GA1011+004809089GA2021+009009089GF104991031091004501001031KA1120M+03641MA1999999100931MD1999999+0201REMSYN100AAXX  02184 61630 32462 40000 10348 20249 30093 40112 83903 333 10364 58020 81816 82830 94942 95872;EQDQ01  00002PRCP99
0159616300999992000100309004+15640-013250FM-12+0017GOSM V0201401N002110390019N0100001N1+02731+02291101501ADDGA1061+039009079GF106991061001999999081001MA1999999101311MD1999999+0111REMSYN076AAXX  03094 61630 42960 61404 10273 20229 30131 40150 86080 333 58011 86363;
0216616300999992000100312004+15640-013250FM-12+0017GOSM V0200401N001010390019N0120001N1+03241+02491101341ADDAA112000791AC13C9AY161061AY221061GA1051+039009079GF105991051001999999031001MA1999999101151MD1999999-0011MW1011REMSYN094AAXX  03124 61630 11962 50402 10324 20249 30115 40134 69902 70162 85030 333 0//53 59001 85363;
0193616300999992000100315004+15640-013250FM-12+0017GOSM V0209999C000010390019N0120001N1+03651+02531101041ADDGA1011+004509089GA2041+039009039GF105991011021004501071021MA1999999100851MD1999999-0081REMSYN094AAXX  03154 61630 42462 50000 10365 20253 30085 40104 81272 333 59008 81815 84363 94924 95834;
0229616300999992000100318004+15640-013250FM-12+0017GOSM V0209999C000010450019N0120001N1+03551+02451100911ADDAA112000791GA1011+004809069GA2021+009009099GF105991031091004501071021KA1120M+03701MA1999999100721MD1999999-0211REMSYN106AAXX  03184 61630 12462 50000 10355 20245 30072 40091 69902 83972 333 10370 59021 81616 82930 94942 95832;
0304616300999992000100406004+15640-013250FM-12+0017GOSM V0202201N00211039001CN0100001N1+02551+02181100971ADDAA124026991AC13C9AY191061AY261061GA1011+009009099GA2081+039009039GF108991011031008001071999IA2240+02109KA1120N+02201MA1999999100781MD1999999-0391MW1131OA150600411REMSYN130AAXX  04064 61630 11560 82204 10255 20218 30078 40097 60274 71396 8137/ 333 02153 20220 50282 55085 59039 81930 88363 94945 95815;
0220616300999992000100418004+15640-013250FM-12+0017GOSM V0209999C00001045001CN0120001N1+03491+02391100821ADDAA112000791GA1011+006009069GF107991011051008001071001KA1120M+99999MA1999999100631MD1999999-0091REMSYN094AAXX  04184 61630 12562 70000 10349 20239 30063 40082 69902 81570 333 10270 59009 81620 87363;EQDQ01 +02702ATMX  
0203616300999992000100506004+15640-013250FM-12+0017GOSM V0209999C000012200019N0100001N1+02681+02471100951ADDGF101991011001999999071001IA2240+02009KA1120N+02581MA1999999100761MD1999999-0021OA150600261REMSYN100AAXX  05064 61630 12960 10000 10268 20247 30076 40095 81070 333 02059 20258 50352 55051 59002 81363;
0159616300999992000100509004+15640-013250FM-12+0017GOSM V0209999C000010390019N0120001N1+02791+02451101231ADDGA1051+039009079GF105991051001999999071001MA1999999101041MD1999999+0131REMSYN076AAXX  05094 61630 42962 50000 10279 20245 30104 40123 85070 333 58013 85363;
0189616300999992000100512004+15640-013250FM-12+0017GOSM V0202401N001010390019N0120001N1+03241+02511101231ADDAA199000091GA1071+039009079GF107991071001999999031001MA1999999101041MD1999999+0151REMSYN076AAXX  05124 61630 32962 72402 10324 20251 30104 40123 87030 333 58015 87363;EQDQ01  00002PRCP99
0171616300999992000100615004+15640-013250FM-12+0017GOSM V0203201N001012200019N0120001N1+03541+02421101031ADDGA1011+003909089GF101991011011004501001001MA1999999100841MD1999999+0071REMSYN088AAXX  06154 61630 42462 13202 10354 20242 30084 40103 81100 333 58007 81813 94902 95832;
0147616300999992000100621004+15640-013250FM-12+0017GOSM V0209999C000012200019N0100001N1+02981+02221101121ADDGA1001+999999999GF100991001001999999001001MA1999999100931MD1999999+0071REMSYN064AAXX  06214 61630 42960 00000 10298 20222 30093 40112 333 58007;
0147616300999992000100709004+15640-013250FM-12+0017GOSM V0209999C000012200019N0120001N1+02781+02291101261ADDGA1001+999999999GF100991001001999999001001MA1999999101071MD1999999+0041REMSYN064AAXX  07094 61630 42962 00000 10278 20229 30107 40126 333 58004;
0177616300999992000100712004+15640-013250FM-12+0017GOSM V0209999C000012200019N0120001N1+03401+02221101211ADDAA199000091GA1001+999999999GF100991001001999999001001MA1999999101021MD1999999-0061REMSYN064AAXX  07124 61630 32962 00000 10340 20222 30102 40121 333 59006;EQDQ01  00002PRCP99
0196616300999992000100718004+15640-013250FM-12+0017GOSM V0203201N001012200019N0120001N1+03621+01701100911ADDAA199000091GA1001+999999999GF100991001001999999001001KA1120M+03841MA1999999100721MD1999999+0001REMSYN070AAXX  07184 61630 32962 03202 10362 20170 30072 40091 333 10384 58000;EQDQ01  00002PRCP99
0147616300999992000100721004+15640-013250FM-12+0017GOSM V0209999C000012200019N0100001N1+02951+01791101101ADDGA1001+999999999GF100991001001999999001001MA1999999100911MD1999999-0021REMSYN064AAXX  07214 61630 42960 00000 10295 20179 30091 40110 333 59002;
0223616300999992000100806004+15640-013250FM-12+0017GOSM V0209999C000012200019N0100001N1+02221+01941101041ADDAA199000091GA1001+999999999GF100991001001999999001001IA2240+02009KA1120N+02121MA1999999101851OA150600511REMSYN088AAXX  08064 61630 32960 00000 10222 20194 30185 40104 333 02000 20212 50572 55108 59004;EQDQ01  00002PRCP99
0166616300999992000100809004+15640-013250FM-12+0017GOSM V0209999C000012200019N0120001N1+02601+02101101191ADDGA1001+999999999GF100991001001999999001001MA1999999101002MD1999999-0071REMSYN064AAXX  08094 61630 42962 00000 10260 20210 30100 40119 333 59007;EQDQ01+101003APOSP 
0196616300999992000100818004+15640-013250FM-12+0017GOSM V0209999C000012200019N0120001N1+03681+01621100871ADDAA199000091GA1001+999999999GF100991001001999999001001KA1120M+03951MA1999999100681MD1999999-0041REMSYN070AAXX  08184 61630 32962 00000 10368 20162 30068 40087 333 10395 59004;EQDQ01  00002PRCP99
0223616300999992000100906004+15640-013250FM-12+0017GOSM V0209999C000012200019N0100001N1+02321+01671100981ADDAA199000091GA1001+999999999GF100991001001999999001001IA2240+01709KA1120N+02221MA1999999100791OA150600511REMSYN088AAXX  09064 61630 32960 00000 10232 20167 30079 40098 333 01700 20222 50582 55106 59006;EQDQ01  00002PRCP99
0147616300999992000100909004+15640-013250FM-12+0017GOSM V0209999C000012200019N0120001N1+02721+01871101101ADDGA1001+999999999GF100991001001999999001001MA1999999100911MD1999999-0091REMSYN064AAXX  09094 61630 42962 00000 10272 20187 30091 40110 333 59009;
0189616300999992000100912004+15640-013250FM-12+0017GOSM V0209999C000012200019N0120001N1+03641+02061101131ADDAA199000091GA1011+069009019GF101991001001999999001021MA1999999100941MD1999999-0101REMSYN076AAXX  09124 61630 32962 10000 10364 20206 30094 40113 80002 333 59010 81073;EQDQ01  00002PRCP99
0159616300999992000101009004+15640-013250FM-12+0017GOSM V0209999C000010390019N0100001N1+02751+01801101041ADDGA1051+039009079GF105991051001999999071001MA1999999100851MD1999999-0061REMSYN076AAXX  10094 61630 42960 50000 10275 20180 30085 40104 85070 333 59006 85363;
0159616300999992000101015004+15640-013250FM-12+0017GOSM V0209999C000010690019N0150001N1+03901+01901100701ADDGA1051+069009019GF105991001001999999001021MA1999999100511MD1999999-0231REMSYN076AAXX  10154 61630 42965 50000 10390 20190 30051 40070 80002 333 59023 85073;
0214616300999992000101018004+15640-013250FM-12+0017GOSM V0209999C000019999999N0120001N1+03661+01931100691ADDAA199000091GA1011+039009039GF106991011001999999071021KA1120M+04021MA1999999100501MD1999999-0151REMSYN088AAXX  10184 61630 32962 60000 10366 20193 30050 40069 81072 333 10402 59015 81363 85073;EQDQ01  00002PRCP99
0223616300999992000101106004+15640-013250FM-12+0017GOSM V0209999C000012200019N0100001N1+02361+01991100791ADDAA199000091GA1001+999999999GF100991001001999999001001IA2240+01909KA1120N+02261MA1999999100601OA150600411REMSYN088AAXX  11064 61630 32960 00000 10236 20199 30060 40079 333 01900 20226 50522 55086 59006;EQDQ01  00002PRCP99
0147616300999992000101109004+15640-013250FM-12+0017GOSM V0209999C000012200019N0120001N1+02621+02151100901ADDGA1001+999999999GF100991001001999999001001MA1999999100711MD1999999-0141REMSYN064AAXX  11094 61630 42962 00000 10262 20215 30071 40090 333 59014;
0195616300999992000101112004+15640-013250FM-12+0017GOSM V0209999C000012200019N0120001N1+03501+02221100941ADDAA199000091GA1011+069009019GF101991001001999999001021MA1999999100751MD1999999-0111REMSYN082AAXX  11124 61630 32962 10000 10350 20222 30075 40094 80002 333 0//00 59011 81073;EQDQ01  00002PRCP99
0163616300999992000101115004+15640-013250FM-12+0017GOSM V0209999C000012200019N0120001N1+03901+02161100681ADDGA1031+069009019GF103991001001999999001021MD1999999-0021REMSYN076AAXX  11154 61630 42962 30000 10390 20216 30149 40068 80002 333 59002 83073;EQDQ01+101493APOSP 
0208616300999992000101118004+15640-013250FM-12+0017GOSM V0202201N001012200019N0120001N1+03751+02181100541ADDAA199000091GA1011+069009019GF101991001001999999001021KA1120M+03971MA1999999100381MD1999999-0121REMSYN082AAXX  11184 61630 32962 12202 10375 20218 30038 40054 80002 333 10397 59012 81073;EQDQ01  00002PRCP99
0159616300999992000101215004+15640-013250FM-12+0017GOSM V0201801N002110390019N0120001N1+03301+02331101011ADDGA1061+039009079GF106991061001999999071001MA1999999100821MD1999999+0331REMSYN076AAXX  12154 61630 42962 61804 10330 20233 30082 40101 86070 333 58033 86363;
0214616300999992000101218004+15640-013250FM-12+0017GOSM V0201801N002119999999N0120001N1+03311+02341100991ADDAA199000091GA1021+039009039GF107991021001999999071021KA1120M+03361MA1999999100801MD1999999+0421REMSYN088AAXX  12184 61630 32962 71804 10331 20234 30080 40099 82072 333 10336 58042 82363 85073;EQDQ01  00002PRCP99
0159616300999992000101221004+15640-013250FM-12+0017GOSM V0209999C000010390019N0100001N1+03061+02441101131ADDGA1071+039009079GF107991071001999999031001MA1999999100941MD1999999+0381REMSYN076AAXX  12214 61630 42960 70000 10306 20244 30094 40113 87030 333 58038 87363;
0189616300999992000101300004+15640-013250FM-12+0017GOSM V0209999C000010390019N0100001N1+02981+02441101321ADDAA199000091GA1081+039009079GF108991081001999999031999MA1999999101131MD1999999+0441REMSYN076AAXX  13004 61630 32960 80000 10298 20244 30113 40132 8803/ 333 58044 88363;EQDQ01  00002PRCP99
0187616300999992000101309004+15640-013250FM-12+0017GOSM V0209999C000010390019N0100001N1+02671+02311101411ADDAY161031AY221031GA1081+039009079GF108991081001999999071999MA1999999101221MD1999999+0261MW1611REMSYN082AAXX  13094 61630 41960 80000 10267 20231 30122 40141 76162 8807/ 333 58026 88363;
0216616300999992000101312004+15640-013250FM-12+0017GOSM V0209999C000010390019N0100001N1+03041+02441101431ADDAA106000791AC11C9AY161061AY221061GA1081+039009079GF108991081001999999071999MA1999999101241MD1999999+0161MW1611REMSYN094AAXX  13124 61630 11960 80000 10304 20244 30124 40143 69901 76162 8807/ 333 0//51 58016 88363;
0204616300999992000101400004+15640-013250FM-12+0017GOSM V0209999C000010390019N0100001N1+02651+99999101261ADDAA106000191AY161061AY221061GA1081+039009079GF108991081001999999071999MA1999999101071MD1999999-0061MW1211REMSYN088AAXX  14004 61630 12960 80000 10265 20/04 30107 40126 69921 72162 8807/ 333 59006 88363;
0214616300999992000101406004+15640-013250FM-12+0017GOSM V0201801N001019999999N0100001N1+02701+02261101261ADDAA199000021GF107991071001999999071999IA2240+02609KA1120N+02601MA1999999101071MD1999999+0271OA150600461REMSYN100AAXX  14064 61630 32960 71802 10270 20226 30107 40126 8707/ 333 02600 20260 50452 55091 58027 87363;
0179616300999992000101415004+15640-013250FM-12+0017GOSM V0200801N002110390019N0100001N1+02641+02311101201ADDAY161031GA1081+039009079GF108991081001999999071999MA1999999101011MD1999999+0051MW1211REMSYN082AAXX  14154 61630 41960 80804 10264 20231 30101 40120 7216/ 8807/ 333 58005 88363;
0215616300999992000101418004+15640-013250FM-12+0017GOSM V0200801N002110390019N0100001N1+02501+02201101181ADDAA112039191AY161061GA1071+039009079GF107991071001999999071001KA1120M+03501MA1999999100991MD1999999+0151MW1211REMSYN094AAXX  14184 61630 11960 70804 10250 20220 30099 40118 60392 7216/ 87070 333 10350 58015 87363;
0179616300999992000101509004+15640-013250FM-12+0017GOSM V0200801N002110390019N0100001N1+02401+02311101361ADDAY161031GA1081+039009079GF108991081001999999071999MA1999999101161MD1999999-0031MW1611REMSYN082AAXX  15094 61630 41960 80804 10240 20231 30116 40136 7616/ 8807/ 333 59003 88363;
0235616300999992000101512004+15640-013250FM-12+0017GOSM V0201801N002110129019N0100001N1+02621+02391101381ADDAA106000591AC12C9AY161061AY221061GA1081+012909079GF108991081999999999071999MA1999999101191MD1999999-0031MW1211REMSYN094AAXX  15124 61630 11960 81804 10262 20239 30119 40138 69951 72162 8807/ 333 0//12 59003 88343;EQDQ01+000002SCOLCG
0187616300999992000101515004+15640-013250FM-12+0017GOSM V0209999C000010390019N0100001N1+02711+02401101151ADDAY161031AY221031GA1081+039009079GF108991061001999999071001MA1999999100961MD1999999-0051MW1611REMSYN082AAXX  15154 61630 41960 80000 10271 20240 30096 40115 76162 86070 333 59005 88363;
0209616300999992000101518004+15640-013250FM-12+0017GOSM V0209999C000010390019N0100001N1+02641+02471101071ADDAA112006191AY161061GA1071+039009079GF107991999999999999999999KA1120M+02771MA1999999100881MD1999999-0111MW1211REMSYN088AAXX  15184 61630 11960 70000 10264 20247 30088 40107 60062 7216/ 333 10277 59011 87363;
0154616300999992000101608474+15640-013250FM-16+0017GOSM V0209999C000010360019N0080001N1+99999+99999999999ADDGA1021+007809099GA2081+036009999GF108991999999999999999999MW1001MW2171MW3631REMMET047GOSM 160847Z 00000KT 8000 RATS FEW026CB OVC120;EQDQ01+000003PRSWM1
0221616300999992000101609004+15640-013250FM-12+0017GOSM V0209999C000010360019N0080001N1+02441+02351101521ADDAY161031AY261031GA1011+008409099GA2081+036009049GF108991011091999999071999MA1999999101331MD1999999+0171MW1951REMSYN100AAXX  16094 61630 41958 80000 10244 20235 30133 40152 79566 8197/ 333 58017 81928 88462 94946 95836;
0216616300999992000101612004+15640-013250FM-12+0017GOSM V0209999C000010360019N0080001N1+02401+02311101551ADDAA106031091AC11C9AY161061AY261061GA1081+036009079GF108991061071999999999999MA1999999101361MD1999999+0171MW1611REMSYN094AAXX  16124 61630 11958 80000 10240 20231 30136 40155 60311 76166 867// 333 0//51 58017 88362;
0257616300999992000101618004+15640-013250FM-12+0017GOSM V0202201N004110390019N0100001N1+02721+02471101401ADDAA112034091AY191061AY221061GA1011+009009099GA2071+039009039GF107991011091008001071001KA1120M+03841MA1999999101211MD1999999-0331MW1171REMSYN112AAXX  16184 61630 11560 72208 10272 20247 30121 40140 60342 71792 81970 333 10384 59033 81930 87363 94945 95875;
0179616300999992000101621004+15640-013250FM-12+0017GOSM V0209999C000010390019N0100001N1+02481+02211101631ADDAY161031GA1081+039009079GF108991081001999999071999MA1999999101441MD1999999+0381MW1211REMSYN082AAXX  16214 61630 41960 80000 10248 20221 30144 40163 7216/ 8807/ 333 58038 88363;
0273616300999992000101706004+15640-013250FM-12+0017GOSM V0202201N004119999999N0100001N1+02401+02281101551ADDAA124036191AC13C9AY161061AY221061GF108991061001999999071999IA2240+02209KA1120N+02311MA1999999101351MD1999999+0341MW1021OA150699999REMSYN112AAXX  17064 61630 11960 82208 10240 20228 30135 40155 60364 70262 8607/ 333 02253 20231 50062 55023 58034 88363;EQDQ01  00102WGOSPD
0201616300999992000101712004+15640-013250FM-12+0017GOSM V0202601N001010390019N0120001N1+02821+02451101631ADDAA199000091AC13I9GA1071+039009079GF107991071001999999071001MA1999999101441MD1999999+0081REMSYN082AAXX  17124 61630 32962 72602 10282 20245 30144 40163 87070 333 0//57 58008 87363;EQDQ01  00002PRCP99
0159616300999992000101715004+15640-013250FM-12+0017GOSM V0209999C000010390019N0100001N1+03081+02581101421ADDGA1071+039009079GF107991071001999999071001MA1999999101231MD1999999+0151REMSYN076AAXX  17154 61630 42960 70000 10308 20258 30123 40142 87070 333 58015 87363;
0208616300999992000101718004+15640-013250FM-12+0017GOSM V0209999C000010390019N0100001N1+03021+02541101491ADDAA199000091GA1071+039009079GF107991071001999999071001KA1120M+03751MA1999999101201MD1999999-0181REMSYN082AAXX  17184 61630 32960 70000 10302 20254 30120 40149 87070 333 10375 59018 87363;EQDQ01  00002PRCP99
0159616300999992000101809004+15640-013250FM-12+0017GOSM V0209999C000010390019N0100001N1+02621+02451101571ADDGA1081+039009079GF108991081001999999071999MA1999999101381MD1999999-0121REMSYN076AAXX  18094 61630 42960 80000 10262 20245 30138 40157 8807/ 333 59012 88363;
0216616300999992000101812004+15640-013250FM-12+0017GOSM V0209999C000010390019N0100001N1+02821+02571101631ADDAA106000791AC11C9AY161061AY221061GA1081+039009079GF108991081001999999071999MA1999999101441MD1999999+0001MW1601REMSYN094AAXX  18124 61630 11960 80000 10282 20257 30144 40163 69901 76062 8807/ 333 0//51 58000 88363;
0179616300999992000101815004+15640-013250FM-12+0017GOSM V0209999C000010390019N0100001N1+02901+02451101291ADDAY161031GA1081+039009079GF108991081001999999071999MA1999999101101MD1999999-0131MW1001REMSYN082AAXX  18154 61630 41960 80000 10290 20245 30110 40129 7006/ 8807/ 333 59013 88363;
0159616300999992000101909004+15640-013250FM-12+0017GOSM V0200401N001010390019N0100001N1+02641+02171101421ADDGA1071+039009079GF107991071001999999071001MA1999999101231MD1999999-0151REMSYN076AAXX  19094 61630 42960 70402 10264 20217 30123 40142 87070 333 59015 87363;
0158616300999992000102009004+15640-013250FM-12+0017GOSM V0209999C000010390019N0100001N1+02571+01991101201ADDGA1051+039009079GF105991051001999999071001MA1999999101011MD1999999-0221REMSYN075AAXX  20094 61630 4296050000 10257 20199 30101 40120 85070 333 59022 85363;
0208616300999992000102018004+15640-013250FM-12+0017GOSM V0209999C000010390019N0100001N1+03461+01931100921ADDAA199000091GA1051+039009079GF105991051001999999081001KA1120M+03741MA1999999100731MD1999999-0121REMSYN082AAXX  20184 61630 32960 50000 10346 20193 30073 40092 85080 333 10374 59012 85363;EQDQ01  00002PRCP99
0147616300999992000102021004+15640-013250FM-12+0017GOSM V0209999C000012200019N0100001N1+99999+99999101131ADDGA1001+999999999GF100991001001999999001001MA1999999100941MD1999999+0061REMSYN064AAXX  20214 61630 42960 00000 10/// 20178 30094 40113 333 58006;
0147616300999992000102103004+15640-013250FM-12+0017GOSM V0209999C000012200019N0100001N1+02761+99999101131ADDGA1001+999999999GF100991001001999999001001MA1999999100941MD1999999+0051REMSYN064AAXX  21034 61630 42960 00000 10276 201/2 30094 40113 333 58005;
0223616300999992000102106004+15640-013250FM-12+0017GOSM V0209999C000012200019N0100001N1+02501+01501101141ADDAA199000091GA1001+999999999GF100991001001999999001001IA2240+02709KA1120N+02351MA1999999100951OA150600311REMSYN088AAXX  21064 61630 32960 00000 10250 20150 30095 40114 333 02700 20235 50452 55067 58009;EQDQ01  00002PRCP99
0159616300999992000102109004+15640-013250FM-12+0017GOSM V0209999C000012200019N0100001N1+02621+01771101341ADDGA1021+039009079GF102991021001999999081001MA1999999101151MD1999999+0141REMSYN076AAXX  21094 61630 42960 20000 10262 20177 30115 40134 82080 333 58014 82363;
0183616300999992000102112004+15640-013250FM-12+0017GOSM V0201801N002112200019N0100001N1+03341+01701101311ADDAA199000091GA1001+999999999GF100991001001999999001001MA1999999101121MD1999999+0131REMSYN070AAXX  21124 61630 32960 01804 10334 20170 30112 40131 333 0//00 58013;EQDQ01  00002PRCP99
0147616300999992000102115004+15640-013250FM-12+0017GOSM V0201001N001012200019N0100001N1+03601+01521101041ADDGA1001+999999999GF100991001001999999001001MA1999999100851MD1999999+0091REMSYN064AAXX  21154 61630 42960 01002 10360 20152 30085 40104 333 58009;
0208616300999992000102118004+15640-013250FM-12+0017GOSM V0209999C000012200019N0100001N1+03291+01631100981ADDAA199000091GA1031+069009019GF103991001001999999001021KA1120M+03701MA1999999100791MD1999999+0051REMSYN082AAXX  21184 61630 32960 30000 10329 20163 30079 40098 80002 333 10370 58005 83073;EQDQ01  00002PRCP99
0159616300999992000102209004+15640-013250FM-12+0017GOSM V0209999C000010690019N0120001N1+02421+01911101231ADDGA1051+069009019GF105991001001999999001021MA1999999101041MD1999999-0111REMSYN076AAXX  22094 61630 42962 50000 10242 20191 30104 40123 80002 333 59011 85073;
0189616300999992000102212004+15640-013250FM-12+0017GOSM V0209999C000012200019N0120001N1+03481+01581101221ADDAA199000091GA1021+069009019GF102991001001999999001021MA1999999101031MD1999999-0091REMSYN076AAXX  22124 61630 32962 20000 10348 20158 30103 40122 80002 333 59009 82073;EQDQ01  00002PRCP99
0159616300999992000102215004+15640-013250FM-12+0017GOSM V0209999C000012200019N0100001N1+03661+01521100891ADDGA1041+069009019GF104991001001999999001021MA1999999100801MD1999999-0051REMSYN076AAXX  22154 61630 42960 40000 10366 20152 30080 40089 80002 333 59005 84073;
0208616300999992000102218004+15640-013250FM-12+0017GOSM V0209999C000012200019N0100001N1+03401+01701100921ADDAA199000091GA1041+069009019GF104991001001999999001021KA1120M+03701MA1999999100731MD1999999-0061REMSYN082AAXX  22184 61630 32960 40000 10340 20170 30073 40092 80002 333 10370 59006 84073;EQDQ01  00002PRCP99
0223616300999992000102306004+15640-013250FM-12+0017GOSM V0209999C000012200019N0100001N1+02061+01701101081ADDAA199000091GA1001+999999999GF100991001001999999001001IA2240+02509KA1120N+01951MA1999999100891OA150600001REMSYN088AAXX  23064 61630 32960 00000 10206 20170 30089 40108 333 02500 20195 50462 55000 59005;EQDQ01  00002PRCP99
0195616300999992000102312004+15640-013250FM-12+0017GOSM V0209999C000010690019N0100001N1+03341+01701101221ADDAA199000091GA1051+069009019GF105991001001999999001021MA1999999101031MD1999999+0001REMSYN082AAXX  23124 61630 32960 50000 10334 20170 30103 40122 80002 333 0//00 58000 85073;EQDQ01  00002PRCP99
0159616300999992000102315004+15640-013250FM-12+0017GOSM V0209999C000010690019N0120001N1+03601+01671100991ADDGA1051+069009019GF105991001001999999001021MA1999999100801MD1999999+0001REMSYN076AAXX  23154 61630 42962 50000 10360 20167 30080 40099 80002 333 58000 85073;
0208616300999992000102318004+15640-013250FM-12+0017GOSM V0209999C000012200019N0120001N1+03491+01531100941ADDAA199000091GA1031+069009019GF103991001001999999001021KA1120M+03701MA1999999100751MD1999999+0021REMSYN082AAXX  23184 61630 32962 30000 10349 20153 30075 40094 80002 333 10370 58002 83073;EQDQ01  00002PRCP99
0127616300999992000102321004+15640-013250FM-12+0017GOSM V0209999C000012200019N0100001N1+02711+01551101041ADDGA1001+999999999GF100991001001999999001001MA1999999100851REMSYN058AAXX  23214 61630 42860 00000 10271 20155 30085 40104 333;
0233616300999992000102406004+15640-013250FM-12+0017GOSM V0209999C000019999999N0100001N1+02101+01851100941ADDAA199000091GF105991001001999999001021IA2240+02509KA1120N+02001MA1999999100751MD1999999-0141OA150600571REMSYN100AAXX  24064 61630 32960 50000 10210 20185 30075 40094 80002 333 02500 20200 50392 55110 59014 85073;EQDQ01  00002PRCP99
0159616300999992000102409004+15640-013250FM-12+0017GOSM V0209999C000010690019N0100001N1+02451+01671101111ADDGA1051+069009019GF105991001001999999001021MA1999999100921MD1999999-0161REMSYN076AAXX  24094 61630 42960 50000 10245 20167 30092 40111 80002 333 59016 85073;
0159616300999992000102415004+15640-013250FM-12+0017GOSM V0209999C000012200019N0120001N1+03611+01561100861ADDGA1041+069009019GF104991001001999999001021MA1999999100671MD1999999-0131REMSYN076AAXX  24154 61630 42962 40000 10361 20156 30067 40086 80002 333 59013 84073;
0147616300999992000102421004+15640-013250FM-12+0017GOSM V0209999C000012200019N0100001N1+02911+01941999999ADDGA1001+999999999GF100991001001999999001001MA1999999100831MD1999999-0021REMSYN064AAXX  24214 61630 42960 00000 10291 20194 30083 40/// 333 59002;
0159616300999992000102509004+15640-013250FM-12+0017GOSM V0202601N002110390019N0120001N1+02621+01881101221ADDGA1051+039009079GF105991051001999999071001MA1999999101031MD1999999+0111REMSYN076AAXX  25094 61630 42962 52604 10262 20188 30103 40122 85070 333 58011 85363;
0189616300999992000102512004+15640-013250FM-12+0017GOSM V0209999C000010390019N0120001N1+03201+01861101181ADDAA199000091GA1071+039009079GF107991071001999999071999MA1999999100991MD1999999+0061REMSYN076AAXX  25124 61630 32962 70000 10320 20186 30099 40118 8707/ 333 58006 87363;EQDQ01  00002PRCP99
0179616300999992000102515004+15640-013250FM-12+0017GOSM V0209999C000010390019N0100001N1+03281+01961101001ADDAY161031GA1061+039009079GF106991061001999999071001MA1999999100811MD1999999+0141MW1211REMSYN082AAXX  25154 61630 41960 60000 10328 20196 30081 40100 7216/ 86070 333 58014 86363;
0209616300999992000102518004+15640-013250FM-12+0017GOSM V0209999C000010390019N0100001N1+03121+01981999999ADDAA112000791AY161061GA1071+039009079GF107991071001999999071999KA1120M+03521MA1999999100761MD1999999+0121MW1211REMSYN088AAXX  25184 61630 11960 70000 10312 20198 30076 69902 7216/ 8707/ 333 10352 58012 87363;
0153616300999992000102609004+15640-013250FM-12+0017GOSM V0209999C000010690019N0100001N1+02521+01971999999ADDGA1051+069009019GF105991001001999999001021MA1999999101011MD1999999-0021REMSYN070AAXX  26094 61630 42960 50000 10252 20197 30101 80002 333 59002 85073;
0195616300999992000102612004+15640-013250FM-12+0017GOSM V0200801N002110690019N0100001N1+03541+01961101011ADDAA199000091GA1051+069009019GF105991001001999999001021MA1999999101021MD1999999+0031REMSYN082AAXX  26124 61630 32960 50804 10354 20196 30102 40101 80002 333 0//19 58003 85073;EQDQ01  00002PRCP99
0147616300999992000102709004+15640-013250FM-12+0017GOSM V0209999C000012200019N0100001N1+02751+02161101191ADDGA1001+999999999GF100991001001999999001001MA1999999101001MD1999999-0011REMSYN064AAXX  27094 61630 42960 00000 10275 20216 30100 40119 333 59001;
0147616300999992000102715004+15640-013250FM-12+0017GOSM V0209999C000012200019N0120001N1+03891+01881100891ADDGA1001+999999999GF100991001001999999001001MA1999999100701MD1999999-0041REMSYN064AAXX  27154 61630 42962 00000 10389 20188 30070 40089 333 59004;
0196616300999992000102718004+15640-013250FM-12+0017GOSM V0209999C000012200019N0100001N1+03661+02291100911ADDAA199000091GA1001+999999999GF100991001001999999001001KA1120M+03921MA1999999100721MD1999999+0001REMSYN070AAXX  27184 61630 32960 00000 10366 20229 30072 40091 333 10392 58000;EQDQ01  00002PRCP99
0177616300999992000102800004+15640-013250FM-12+0017GOSM V0209999C000012200019N0100001N1+02781+02351101131ADDAA199000091GA1001+999999999GF100991001001999999001001MA1999999100941MD1999999+0041REMSYN064AAXX  28004 61630 32960 00000 10278 20235 30094 40113 333 58004;EQDQ01  00002PRCP99
0223616300999992000102806004+15640-013250FM-12+0017GOSM V0209999C000012200019N0100001N1+02471+02221100991ADDAA199000091GA1001+999999999GF100991001001999999001001IA2240+03009KA1120N+02331MA1999999100801OA150600461REMSYN088AAXX  28064 61630 32960 00000 10247 20222 30080 40099 333 03000 20233 50532 55092 59008;EQDQ01  00002PRCP99
0147616300999992000102809004+15640-013250FM-12+0017GOSM V0209999C000012200019N0100001N1+02801+02151101241ADDGA1001+999999999GF100991001001999999001001MA1999999101051MD1999999+0051REMSYN064AAXX  28094 61630 42960 00000 10280 20215 30105 40124 333 58005;
0183616300999992000102812004+15640-013250FM-12+0017GOSM V0209999C000012200019N0120001N1+03681+01881101191ADDAA199000091GA1001+999999999GF100991001001999999001001MA1999999101001MD1999999-0031REMSYN070AAXX  28124 61630 32962 00000 10368 20188 30100 40119 333 0//00 59003;EQDQ01  00002PRCP99
0147616300999992000102815004+15640-013250FM-12+0017GOSM V0209999C000012200019N0100001N1+04021+01721100911ADDGA1001+999999999GF100991001001999999001001MA1999999100731MD1999999+0021REMSYN064AAXX  28154 61630 42960 00000 10402 20172 30073 40091 333 58002;
0223616300999992000102906004+15640-013250FM-12+0017GOSM V0209999C000012200019N0100001N1+02361+01791101041ADDAA199000091GA1001+999999999GF100991001001999999001001IA2240+02909KA1120N+02261MA1999999100851OA150600461REMSYN088AAXX  29064 61630 32960 00000 10236 20179 30085 40104 333 02900 20226 50472 55091 58005;EQDQ01  00002PRCP99
0147616300999992000102909004+15640-013250FM-12+0017GOSM V0209999C000012200019N0100001N1+02701+01801101201ADDGA1001+999999999GF100991001001999999001001MA1999999101011MD1999999-0041REMSYN064AAXX  29094 61630 42960 00000 10270 20180 30101 40120 333 59004;
0183616300999992000102912004+15640-013250FM-12+0017GOSM V0209999C000012200019N0100001N1+03501+02201101201ADDAA199000091GA1001+999999999GF100991001001999999001001MA1999999101011MD1999999+0011REMSYN070AAXX  29124 61630 32960 00000 10350 20220 30101 40120 333 0//00 58001;EQDQ01  00002PRCP99
0147616300999992000103009004+15640-013250FM-12+0017GOSM V0209999C000012200019N0100001N1+02651+02211101101ADDGA1001+999999999GF100991001001999999001001MA1999999100911MD1999999-0101REMSYN064AAXX  30094 61630 42960 00000 10265 20221 30091 40110 333 59010;
0147616300999992000103015004+15640-013250FM-12+0017GOSM V0201601N001012200019N0120001N1+03581+02001100921ADDGA1001+999999999GF100991001001999999001001MA1999999100731MD1999999+0001REMSYN064AAXX  30154 61630 42962 01602 10358 20200 30073 40092 333 58000;
0208616300999992000103018004+15640-013250FM-12+0017GOSM V0209999C000012200019N0100001N1+03411+02091100911ADDAA199000091GA1011+039009079GF103991011001999999031021KA1120M+03621MA1999999100721MD1999999+0041REMSYN082AAXX  30184 61630 32960 30000 10341 20209 30072 40091 81032 333 10362 58004 81363;EQDQ01  00002PRCP99
0159616300999992000103106004+15640-013250FM-12+0017GOSM V0209999C000010690019N0100001N1+02801+02221101171ADDGA1051+069009019GF105991001001999999001021MA1999999100981MD1999999+0071REMSYN076AAXX  31064 61630 42960 50000 10280 20222 30098 40117 80002 333 58007 85073;
0183616300999992000103112004+15640-013250FM-12+0017GOSM V0201601N001012200019N0100001N1+03501+01611101101ADDAA199000091GA1001+999999999GF100991001001999999001001MA1999999100911MD1999999-0021REMSYN070AAXX  31124 61630 32960 01602 10350 20161 30091 40110 333 0//00 59002;EQDQ01  00002PRCP99
0147616300999992000103115004+15640-013250FM-12+0017GOSM V0209999C000012200019N0100001N1+03601+02041100871ADDGA1001+999999999GF100991001001999999001001MA1999999100681MD1999999-0051REMSYN064AAXX  31154 61630 42960 00000 10360 20204 30068 40087 333 59005;
0196616300999992000103118004+15640-013250FM-12+0017GOSM V0209999C000012200019N0100001N1+03481+01961100851ADDAA199000091GA1001+999999999GF100991001001999999001001KA1120M+03701MA1999999100661MD1999999-0061REMSYN070AAXX  31184 61630 32960 00000 10348 20196 30066 40085 333 10370 59006;EQDQ01  00002PRCP99
0177616300999992000110100004+15640-013250FM-12+0017GOSM V0209999C000012200019N0100001N1+02501+99999101091ADDAA199000091GA1001+999999999GF100991001001999999001001MA1999999100901MD1999999-0011REMSYN064AAXX  01004 61630 32960 00000 10250 2057/ 30090 40109 333 59001;EQDQ01  00002PRCP99
0177616300999992000110112004+15640-013250FM-12+0017GOSM V0209999C000012200019N0100001N1+03361+02131101301ADDAA199000091GA1001+999999999GF100991001001999999001001MA1999999101111MD1999999+0201REMSYN064AAXX  01124 61630 32960 00000 10336 20213 30111 40130 333 58020;EQDQ01  00002PRCP99
0147616300999992000110209004+15640-013250FM-12+0017GOSM V0209999C000012200019N0100001N1+02671+01951101111ADDGA1001+999999999GF100991001001999999001001MA1999999100921MD1999999-0081REMSYN064AAXX  02094 61630 42960 00000 10267 20195 30092 40111 333 59008;
0189616300999992000110212004+15640-013250FM-12+0017GOSM V0201401N002110630019N0100001N1+03461+01841101111ADDAA199000091GA1051+063009019GF105991001001999999001021MA1999999100921MD1999999-0201REMSYN076AAXX  02124 61630 32960 51404 10346 20184 30092 40111 80002 333 59020 85071;EQDQ01  00002PRCP99
0208616300999992000110218004+15640-013250FM-12+0017GOSM V0209999C000010690019N0100001N1+03461+01551100831ADDAA199000091GA1051+069009019GF105991001001999999001021KA1120M+03721MA1999999100641MD1999999+0021REMSYN082AAXX  02184 61630 32960 50000 10346 20155 30064 40083 80002 333 10372 58002 85073;EQDQ01  00002PRCP99
0177616300999992000110300004+15640-013250FM-12+0017GOSM V0209999C010312200019N0100001N1+02501+01511101051ADDAA199000091GA1001+999999999GF100991001001999999001001MA1999999100861MD1999999+0001REMSYN064AAXX  03004 61630 32960 00020 10250 20151 30086 40105 333 58000;EQDQ01  00002PRCP99
0153616300999992000110303004+15640-013250FM-12+0017GOSM V0209999C000010690019N0100001N1+02501+01651101081ADDGA1071+069009019GF107991999999999999999999MA1999999100891MD1999999-0031REMSYN070AAXX  03034 61630 42960 70000 10250 20165 30089 40108 333 59003 87073;
0208616300999992000110318004+15640-013250FM-12+0017GOSM V0209999C000010690019N0100001N1+03361+01431100721ADDAA199000091GA1051+069009019GF105991001001999999001021KA1120M+03741MA1999999100531MD1999999-0111REMSYN082AAXX  03184 61630 32960 50000 10336 20143 30053 40072 80002 333 10374 59011 85073;EQDQ01  00002PRCP99
0195616300999992000110412004+15640-013250FM-12+0017GOSM V0209999C000010690019N0100001N1+03501+01631101121ADDAA199000091GA1061+069009019GF106991001001999999001021MA1999999100931MD1999999+0081REMSYN082AAXX  04124 61630 32960 60000 10350 20163 30093 40112 80002 333 0//00 58008 86073;EQDQ01  00002PRCP99
0208616300999992000110418004+15640-013250FM-12+0017GOSM V0209999C000010690019N0100001N1+03401+01821100711ADDAA199000091GA1071+069009019GF107991001001999999001021KA1120M+03871MA1999999100521MD1999999-0011REMSYN082AAXX  04184 61630 32960 70000 10340 20182 30052 40071 80002 333 10387 59001 87073;EQDQ01  00002PRCP99
0189616300999992000110500004+15640-013250FM-12+0017GOSM V0209999C000012200019N0100001N1+02511+01771101021ADDAA199000091GA1031+069009019GF103991001001999999001021MA1999999100831MD1999999+0021REMSYN076AAXX  05004 61630 32960 30000 10251 20177 30083 40102 80002 333 58002 83073;EQDQ01  00002PRCP99
0159616300999992000110509004+15640-013250FM-12+0017GOSM V0209999C000010690019N0100001N1+02601+01561101111ADDGA1061+069009019GF106991001001999999001021MA1999999100921MD1999999+0061REMSYN076AAXX  05094 61630 42960 60000 10260 20156 30092 40111 80002 333 58006 86073;
0189616300999992000110512004+15640-013250FM-12+0017GOSM V0201001N004110690019N0080001N1+03641+01061101081ADDAA199000091GA1061+069009019GF106991001001999999001021MA1999999100891MD1999999-0041REMSYN076AAXX  05124 61630 32958 61008 10364 20106 30089 40108 80002 333 59004 86073;EQDQ01  00002PRCP99
0208616300999992000110518004+15640-013250FM-12+0017GOSM V0201001N001010690019N0080001N1+03571+01311100821ADDAA199000091GA1071+069009019GF107991001001999999001021KA1120M+03901MA1999999100631MD1999999+0111REMSYN082AAXX  05184 61630 32958 71002 10357 20131 30063 40082 80002 333 10390 58011 87073;EQDQ01  00002PRCP99
0159616300999992000110521004+15640-013250FM-12+0017GOSM V0209999C000012200019N0100001N1+03501+01281101021ADDGA1041+069009019GF104991001001999999001021MA1999999100831MD1999999+0071REMSYN076AAXX  05214 61630 42960 40000 10350 20128 30083 40102 80002 333 58007 84073;
0183616300999992000110600004+15640-013250FM-12+0017GOSM V0209999C000012200019N0100001N1+02941+01021101021ADDAA199000091GA1001+999999999GF100991001001999999001001MA1999999100831MD1999999+0001REMSYN070AAXX  06004 61630 32960 00000 10294 20102 30083 40102 333 0//00 58000;EQDQ01  00002PRCP99
0147616300999992000110609004+15640-013250FM-12+0017GOSM V0209999C000012200019N0100001N1+02721+01431101111ADDGA1001+999999999GF100991001001999999001001MA1999999100921MD1999999+0001REMSYN064AAXX  06094 61630 42960 00000 10272 20143 30092 40111 333 58000;
0195616300999992000110612004+15640-013250FM-12+0017GOSM V0209999C000010690019N0100001N1+03601+01431101081ADDAA199000091GA1051+069009019GF105991001001999999001021MA1999999100891MD1999999+0001REMSYN082AAXX  06124 61630 32960 50000 10360 20143 30089 40108 80002 333 0//00 58000 85073;EQDQ01  00002PRCP99
0139616300999992000110615004+15640-013250FM-12+0017GOSM V0201001N002112200019N0100001N1+03801+01281100731ADDGA1031+069009019GF103991999999999999999999MA1999999100541REMSYN070AAXX  06154 61630 42960 31004 1038/ 20128 30054 40073 333 5011/ 83073;
0208616300999992000110618004+15640-013250FM-12+0017GOSM V0209999C000012200019N0100001N1+03561+01701100711ADDAA199000091GA1031+069009019GF103991001001999999001021KA1120M+03781MA1999999100521MD1999999-0111REMSYN082AAXX  06184 61630 32960 30000 10356 20170 30052 40071 80002 333 10378 59011 83073;EQDQ01  00002PRCP99
0159616300999992000110621004+15640-013250FM-12+0017GOSM V0209999C000012200019N0100001N1+02791+01601100871ADDGA1021+069009019GF102991001001999999001021MA1999999100681MD1999999-0151REMSYN076AAXX  06214 61630 42960 20000 10279 20160 30068 40087 80002 333 59015 82073;
0177616300999992000110700004+15640-013250FM-12+0017GOSM V0209999C000012200019N0080001N1+02571+01801100961ADDAA199000091GA1001+999999999GF100991001001999999001001MA1999999100771MD1999999-0061REMSYN064AAXX  07004 61630 32958 00000 10257 20180 30077 40096 333 59006;EQDQ01  00002PRCP99
0223616300999992000110706004+15640-013250FM-12+0017GOSM V0209999C000012200019N0100001N1+02101+01771100731ADDAA199000091GA1001+999999999GF100991001001999999001001IA2240+01709KA1120N+02001MA1999999100541OA150600511REMSYN088AAXX  07064 61630 32960 00000 10210 20177 30054 40073 333 01700 20200 50332 55100 59022;EQDQ01  00002PRCP99
0147616300999992000110709004+15640-013250FM-12+0017GOSM V0209999C000012200019N0100001N1+02551+01441100861ADDGA1001+999999999GF100991001001999999001001MA1999999100671MD1999999-0251REMSYN064AAXX  07094 61630 42960 00000 10255 20144 30067 40086 333 59025;
0147616300999992000110715004+15640-013250FM-12+0017GOSM V0209999C000012200019N0100001N1+03761+01441100471ADDGA1001+999999999GF100991001001999999001001MA1999999100281MD1999999-0261REMSYN064AAXX  07154 61630 42960 00000 10376 20144 30028 40047 333 59026;
0196616300999992000110718004+15640-013250FM-12+0017GOSM V0209999C000012200019N0100001N1+03501+01481100511ADDAA199000091GA1001+999999999GF100991001001999999001001KA1120M+04001MA1999999100321MD1999999-0201REMSYN070AAXX  07184 61630 32960 00000 10350 20148 30032 40051 333 10400 59020;EQDQ01  00002PRCP99
0183616300999992000110800004+15640-013250FM-12+0017GOSM V0209999C000012200019N0100001N1+02661+01751100681ADDAA199000091GA1001+999999999GF100991001001999999001001MA1999999100491MD1999999-0281REMSYN070AAXX  08004 61630 32960 00000 10266 20175 30049 40068 333 0//00 59028;EQDQ01  00002PRCP99
0223616300999992000110806004+15640-013250FM-12+0017GOSM V0209999C000012200019N0100001N1+02421+01681100561ADDAA199000091GA1001+999999999GF100991001001999999001001IA2240+01809KA1120N+02281MA1999999100371OA150600461REMSYN088AAXX  08064 61630 32960 00000 10242 20168 30037 40056 333 01800 20228 50592 55093 59030;EQDQ01  00002PRCP99
0147616300999992000110809004+15640-013250FM-12+0017GOSM V0209999C000012200019N0100001N1+02661+01961100691ADDGA1001+999999999GF100991001001999999001001MA1999999100501MD1999999-0171REMSYN064AAXX  08094 61630 42960 00000 10266 20196 30050 40069 333 59017;
0183616300999992000110812004+15640-013250FM-12+0017GOSM V0209999C000012200019N0100001N1+03301+02161100751ADDAA199000091GA1001+999999999GF100991001001999999001001MA1999999100561MD1999999-0081REMSYN070AAXX  08124 61630 32960 00000 10330 20216 30056 40075 333 0//00 59008;EQDQ01  00002PRCP99
0147616300999992000110815004+15640-013250FM-12+0017GOSM V0201401N001012200019N0100001N1+03681+01361999999ADDGA1001+999999999GF100991001001999999001001MA1999999100261MD1999999-0021REMSYN064AAXX  08154 61630 42960 01402 10368 20136 30026 4//// 333 59002;
0196616300999992000110818004+15640-013250FM-12+0017GOSM V0209999C000012200019N0100001N1+03451+01801100851ADDAA199000091GA1001+999999999GF100991001001999999001001KA1120M+03721MA1999999100161MD1999999-0161REMSYN070AAXX  08184 61630 32960 00000 10345 20180 30016 40085 333 10372 59016;EQDQ01  00002PRCP99
0166616300999992000110915004+15640-013250FM-12+0017GOSM V0209999C000012200019N0100001N1+03621+01361999999ADDGA1001+999999999GF100991001001999999001001MA1999999100451MD1010642+0191REMSYN064AAXX  09154 61630 42960 00000 10362 20136 30045 50064 333 58019;EQDQ01+000642APC3  
0196616300999992000110918004+15640-013250FM-12+0017GOSM V0209999C000012200019N0100001N1+03401+01491100671ADDAA199000091GA1001+999999999GF100991001001999999001001KA1120M+03901MA1999999100481MD1999999+0321REMSYN070AAXX  09184 61630 32960 00000 10340 20149 30048 40067 333 10390 58032;EQDQ01  00002PRCP99
0147616300999992000111003004+15640-013250FM-12+0017GOSM V0209999C000012200019N0100001N1+02241+01491100671ADDGA1001+999999999GF100991001001999999001001MA1999999100581MD1999999+0151REMSYN064AAXX  10034 61630 42960 00000 10224 20149 30058 40067 333 58015;
0223616300999992000111006004+15640-013250FM-12+0017GOSM V0209999C000012200019N0100001N1+02101+01501100791ADDAA199000091GA1001+999999999GF100991001001999999001001IA2240+01709KA1120N+02001MA1999999100601OA150600461REMSYN088AAXX  10064 61630 32960 00000 10210 20150 30060 40079 333 01700 20200 50502 55094 58015;EQDQ01  00002PRCP99
0183616300999992000111012004+15640-013250FM-12+0017GOSM V0209999C000012200019N0100001N1+03141+01741100941ADDAA199000091GA1001+999999999GF100991001001999999001001MA1999999100751MD1999999+0001REMSYN070AAXX  10124 61630 32960 00000 10314 20174 30075 40094 333 0//00 58000;EQDQ01  00002PRCP99
0189616300999992000111018004+15640-013250FM-12+0017GOSM V0209999C000010390019N0100001N1+03581+01781100511ADDAA199000091GA1051+039009079GF105991051001999999071001MA1999999100321MD1999999-0161REMSYN076AAXX  10184 61630 32960 50000 10358 20178 30032 40051 85070 333 59016 85363;EQDQ01  00002PRCP99
0221616300999992000111109004+15640-013250FM-12+0017GOSM V0209999C000010390019N0100001N1+02391+02061100971ADDAY191031AY261031GA1011+009009099GA2071+039009039GF107991011091008001071999MA1999999100781MD1999999+0041MW1951REMSYN100AAXX  11094 61630 41560 70000 10239 20206 30078 40097 79596 8197/ 333 58004 81930 87363 94948 95878;
0216616300999992000111112004+15640-013250FM-12+0017GOSM V0201801N003110390019N0120001N1+02681+02211100901ADDAA106006191AC12C9AY191061AY261061GA1061+039009079GF106991061001999999071001MA1999999100711MD1999999-0041MW1011REMSYN094AAXX  11124 61630 11962 61806 10268 20221 30071 40090 60061 70196 86070 333 0//22 59004 86363;
0147616300999992000111115004+15640-013250FM-12+0017GOSM V0209999C000012200019N0100001N1+03161+02201100741ADDGA1001+999999999GF100991001001999999001001MA1999999100551MD1999999+0191REMSYN064AAXX  11154 61630 42960 00000 10316 20220 30055 40074 333 58019;
0183616300999992000111118004+15640-013250FM-12+0017GOSM V0209999C000012200019N0100001N1+03061+02151100721ADDAA112006191GA1001+999999999GF100991001001999999001001KA1120M+03401MA1999999100531MD1999999+0211REMSYN076AAXX  11184 61630 32960 00000 10306 20215 30053 40072 60062 333 10340 58021;
0159616300999992000111203004+15640-013250FM-12+0017GOSM V0209999C000010390019N0100001N1+02361+02121101091ADDGA1051+039009079GF105991051001999999071001MA1999999100901MD1999999+0331REMSYN076AAXX  12034 61630 42960 50000 10236 20212 30090 40109 85070 333 58033 85363;
0129616300999992000111209004+15640-013250FM-12+0017GOSM V0201801N003119999999N0100001N1+02441+01811101221ADDGF106991061001999999071001MA1999999101031REMSYN076AAXX  12094 61630 42960 61806 10244 20181 30103 40122 86070 333 5025/ 8663/;
0195616300999992000111212004+15640-013250FM-12+0017GOSM V0201801N002112200019N0100001N1+02941+02011101251ADDAA199000091GA1041+039009079GF104991041001999999081001MA1999999101061MD1999999+0351REMSYN082AAXX  12124 61630 32960 41804 10294 20201 30106 40125 84080 333 0//00 58035 84363;EQDQ01  00002PRCP99
0189616300999992000111300004+15640-013250FM-12+0017GOSM V0209999C000012200019N0100001N1+02381+01951101101ADDAA199000091GA1031+039009079GF103991031001999999071001MA1999999100911MD1999999+0001REMSYN076AAXX  13004 61630 32960 30000 10238 20195 30091 40110 83070 333 58000 83363;EQDQ01  00002PRCP99
0223616300999992000111306004+15640-013250FM-12+0017GOSM V0209999C000012200019N0100001N1+02261+01901101001ADDAA199000091GA1001+999999999GF100991001001999999001001IA2240+02109KA1120N+02221MA1999999100811OA150600211REMSYN088AAXX  13064 61630 32960 00000 10226 20190 30081 40100 333 02100 20222 50302 55044 59010;EQDQ01  00002PRCP99
0165616300999992000111309004+15640-013250FM-12+0017GOSM V0209999C000012200019N0100001N1+02511+02011101071ADDGA1011+039009039GF103991011001999999031021MA1999999100881MD1999999-0151REMSYN082AAXX  13094 61630 42960 30000 10251 20201 30088 40107 81032 333 59015 81363 83073;
0189616300999992000111312004+15640-013250FM-12+0017GOSM V0209999C000012200019N0120001N1+02351+02061101091ADDAA199000091GA1031+039009079GF103991031001999999031001MA1999999100901MD1999999-0161REMSYN076AAXX  13124 61630 32962 30000 10235 20206 30090 40109 83030 333 59016 83363;EQDQ01  00002PRCP99
0195616300999992000111400004+15640-013250FM-12+0017GOSM V0209999C000010390019N0100001N1+02741+01981100951ADDAA199000091GA1051+039009079GF105991051001999999081001MA1999999100761MD1999999-0151REMSYN082AAXX  14004 61630 32960 50000 10274 20198 30076 40095 85080 333 0//00 59015 85363;EQDQ01  00002PRCP99
0233616300999992000111406004+15640-013250FM-12+0017GOSM V0209999C000019999999N0100001N1+02461+01831100891ADDAA199000091GF105991051001999999081001IA2240+02009KA1120N+02351MA1999999100701MD1999999-0111OA150600461REMSYN100AAXX  14064 61630 32960 50000 10246 20183 30070 40089 85080 333 02000 20235 50422 55097 59011 85363;EQDQ01  00002PRCP99
0132616300999992000111421004+15640-013250FM-12+0017GOSM V0209999C000012200019N0100001N1+99999+99999100941ADDGA1001+999999999GF100991001001999999001001MD1999999+0011REMSYN064AAXX  14214 61630 42960 00000 10/// 20/// 30/// 40094 333 58001;
0223616300999992000111506004+15640-013250FM-12+0017GOSM V0209999C000012200019N0100001N1+02241+01921101031ADDAA199000091GA1001+999999999GF100991001001999999001001IA2240+02209KA1120N+02141MA1999999100841OA150600511REMSYN088AAXX  15064 61630 32960 00000 10224 20192 30084 40103 333 02200 20214 50432 55102 58014;EQDQ01  00002PRCP99
0189616300999992000111512004+15640-013250FM-12+0017GOSM V0202201N001010690019N0120001N1+03251+01721101201ADDAA199000091GA1061+069009019GF106991001001999999001021MA1999999101011MD1999999+0091REMSYN076AAXX  15124 61630 32962 62202 10325 20172 30101 40120 80002 333 58009 86073;EQDQ01  00002PRCP99
0159616300999992000111515004+15640-013250FM-12+0017GOSM V0209999C000010690019N0100001N1+03501+01591100851ADDGA1051+069009019GF105991001001999999001021MA1999999100661MD1999999+0011REMSYN076AAXX  15154 61630 42960 50000 10350 20159 30066 40085 80002 333 58001 85073;
0208616300999992000111518004+15640-013250FM-12+0017GOSM V0209999C000010690019N0100001N1+03361+01561100921ADDAA199000091GA1051+069009019GF105991001001999999001021KA1120M+03721MA1999999100731MD1999999+0071REMSYN082AAXX  15184 61630 32960 50000 10336 20156 30073 40092 80002 333 10372 58007 85073;EQDQ01  00002PRCP99
0233616300999992000111606004+15640-013250FM-12+0017GOSM V0209999C000019999999N0100001N1+02581+01801101061ADDAA199000091GF106991061001999999081001IA2240+02009KA1120N+02481MA1999999100871MD1999999+0031OA150600461REMSYN100AAXX  16064 61630 32960 60000 10258 20180 30087 40106 86080 333 02000 20248 50462 55096 58003 86363;EQDQ01  00002PRCP99
0159616300999992000111609004+15640-013250FM-12+0017GOSM V0209999C000010390019N0100001N1+02621+01811101231ADDGA1061+039009079GF106991061001999999081001MA1999999101041MD1999999+0111REMSYN076AAXX  16094 61630 42960 60000 10262 20181 30104 40123 86080 333 58011 86363;
0195616300999992000111612004+15640-013250FM-12+0017GOSM V0200801N003110390019N0100001N1+03081+02041101231ADDAA199000091GA1061+039009079GF106991061001999999081001MA1999999101041MD1999999+0031REMSYN082AAXX  16124 61630 32960 60806 10308 20204 30104 40123 86080 333 0//00 58003 86363;EQDQ01  00002PRCP99
0163616300999992000111615004+15640-013250FM-12+0017GOSM V0201401N003110390019N0100001N1+03521+01901100931ADDGA1071+039009079GF107991021001999999071001MD1999999+0081REMSYN076AAXX  16154 61630 42960 71406 10352 2019/ 3074/ 40093 82070 333 58008 87363;EQDQ01+097403APOSP 
0159616300999992000111618004+15640-013250FM-12+0017GOSM V0201401N003110390019N0100001N1+03521+01391100931ADDGA1071+039009079GF107991021001999999071001MA1999999100741MD1999999+0081REMSYN076AAXX  16184 61630 42960 71406 10352 20139 30074 40093 82070 333 58008 87363;
0159616300999992000111621004+15640-013250FM-12+0017GOSM V0209999C000010390019N0100001N1+02881+01621101221ADDGA1071+039009079GF107991071001999999071001MA1999999101031MD1999999+0091REMSYN076AAXX  16214 61630 42960 70000 10288 20162 30103 40122 87070 333 58009 87363;
0159616300999992000111709004+15640-013250FM-12+0017GOSM V0209999C000012200019N0100001N1+02701+01611101291ADDGA1031+039009079GF103991031001999999031001MA1999999101101MD1999999+0061REMSYN076AAXX  17094 61630 42960 30000 10270 20161 30110 40129 83030 333 58006 83363;
0189616300999992000111712004+15640-013250FM-12+0017GOSM V0201001N002112200019N0100001N1+03451+01631101671ADDAA199000091GA1041+039009079GF104991041001999999031001MA1999999101081MD1999999+0041REMSYN076AAXX  17124 61630 32960 41004 10345 20163 30108 40167 84030 333 58004 84363;EQDQ01  00002PRCP99
0159616300999992000111715004+15640-013250FM-12+0017GOSM V0200801N003110390019N0100001N1+03321+01581101071ADDGA1061+039009079GF106991061001999999081001MA1999999100881MD1999999+0141REMSYN076AAXX  17154 61630 42960 60806 10332 20158 30088 40107 86080 333 58014 86363;
0208616300999992000111718004+15640-013250FM-12+0017GOSM V0209999C000010690019N0100001N1+03281+01571101041ADDAA199000091GA1061+069009019GF106991001001999999001021KA1120M+03451MA1999999100851MD1999999+0061REMSYN082AAXX  17184 61630 32960 60000 10328 20157 30085 40104 80002 333 10345 58006 86073;EQDQ01  00002PRCP99
0147616300999992000111803004+15640-013250FM-12+0017GOSM V0209999C000012200019N0100001N1+02641+01411101131ADDGA1001+999999999GF100991001001999999001001MA1999999100941MD1999999+0011REMSYN064AAXX  18034 61630 42960 00000 10264 20141 30094 40113 333 58001;
0223616300999992000111806004+15640-013250FM-12+0017GOSM V0209999C000012200019N0100001N1+02241+01431101171ADDAA199000091GA1001+999999999GF100991001001999999001001IA2240+02009KA1120N+02121MA1999999100981OA150600411REMSYN088AAXX  18064 61630 32960 00000 10224 20143 30098 40117 333 02000 20212 50402 55084 58003;EQDQ01  00002PRCP99
0147616300999992000111809004+15640-013250FM-12+0017GOSM V0209999C000012200019N0100001N1+02681+01421101281ADDGA1001+999999999GF100991001001999999001001MA1999999101091MD1999999-0011REMSYN064AAXX  18094 61630 42960 00000 10268 20142 30109 40128 333 59001;
0183616300999992000111812004+15640-013250FM-12+0017GOSM V0200801N002112200019N0100001N1+03401+01741101331ADDAA199000091GA1001+999999999GF100991001001999999001001MA1999999101141MD1999999+0061REMSYN070AAXX  18124 61630 32960 00804 10340 20174 30114 40133 333 0//00 58006;EQDQ01  00002PRCP99
0159616300999992000111815004+15640-013250FM-12+0017GOSM V0201001N002112200019N0100001N1+03751+01681100901ADDGA1011+069009019GF101991001001999999001021MA1999999100711MD1999999-0171REMSYN076AAXX  18154 61630 42960 11004 10375 20168 30071 40090 80002 333 59017 81073;
0208616300999992000111818004+15640-013250FM-12+0017GOSM V0200801N001012200019N0100001N1+03501+01571100891ADDAA199000091GA1021+069009019GF102991001001999999001021KA1120M+03801MA1999999100701MD1999999-0151REMSYN082AAXX  18184 61630 32960 20802 10350 20157 30070 40089 80002 333 10380 59015 82073;EQDQ01  00002PRCP99
0147616300999992000111909004+15640-013250FM-12+0017GOSM V0209999C000012200019N0100001N1+02541+01401101111ADDGA1001+999999999GF100991001001999999001001MA1999999100921MD1999999-0171REMSYN064AAXX  19094 61630 42960 00000 10254 20140 30092 40111 333 59017;
0147616300999992000111915004+15640-013250FM-12+0017GOSM V0209999C000012200019N0100001N1+03721+01481100941ADDGA1001+999999999GF100991001001999999001001MA1999999100751MD1999999+0041REMSYN064AAXX  19154 61630 42960 00000 10372 20148 30075 40094 333 58004;
0196616300999992000111918004+15640-013250FM-12+0017GOSM V0209999C000012200019N0100001N1+03501+01541100921ADDAA199000091GA1001+999999999GF100991001001999999001001KA1120M+03751MA1999999100731MD1999999+0031REMSYN070AAXX  19184 61630 32960 00000 10350 20154 30073 40092 333 10375 58003;EQDQ01  00002PRCP99
0147616300999992000112009004+15640-013250FM-12+0017GOSM V0209999C000012200019N0100001N1+02521+01351101371ADDGA1001+999999999GF100991001001999999001001MA1999999101181MD1999999+0261REMSYN064AAXX  20094 61630 42960 00000 10252 20135 30118 40137 333 58026;
0183616300999992000112012004+15640-013250FM-12+0017GOSM V0209999C000012200019N0100001N1+03301+01381101411ADDAA199000091GA1001+999999999GF100991001001999999001001MA1999999101221MD1999999+0141REMSYN070AAXX  20124 61630 32960 00000 10330 20138 30122 40141 333 0//00 58014;EQDQ01  00002PRCP99
0147616300999992000112015004+15640-013250FM-12+0017GOSM V0209999C000012200019N0100001N1+03651+01551101101ADDGA1001+999999999GF100991001001999999001001MA1999999100911MD1999999+0161REMSYN064AAXX  20154 61630 42960 00000 10365 20155 30091 40110 333 58016;
0177616300999992000112018004+15640-013250FM-12+0017GOSM V0209999C000012200019N0100001N1+03451+01711101071ADDAA199000091GA1001+999999999GF100991001001999999001001MA1999999100881MD1999999+0151REMSYN064AAXX  20184 61630 32960 00000 10345 20171 30088 40107 333 58015;EQDQ01  00002PRCP99
0147616300999992000112021004+15640-013250FM-12+0017GOSM V0209999C000012200019N0100001N1+02701+01401101241ADDGA1001+999999999GF100991001001999999001001MA1999999101051MD1999999+0041REMSYN064AAXX  20214 61630 42960 00000 10270 20140 30105 40124 333 58004;
0159616300999992000112109004+15640-013250FM-12+0017GOSM V0209999C000010690019N0100001N1+02301+01341101431ADDGA1081+069009019GF108991001001999999001021MA1999999101241MD1999999+0081REMSYN076AAXX  21094 61630 42960 80000 10230 20134 30124 40143 80002 333 58008 88073;
0189616300999992000112112004+15640-013250FM-12+0017GOSM V0201001N002110690019N0100001N1+03101+00651101471ADDAA199000091GA1051+069009019GF105991001001999999001021MA1999999101281MD1999999+0061REMSYN076AAXX  21124 61630 32960 51004 10310 20065 30128 40147 80002 333 58006 85073;EQDQ01  00002PRCP99
0208616300999992000112118004+15640-013250FM-12+0017GOSM V0209999C000010390019N0100001N1+03371+01281101131ADDAA199000091GA1051+039009079GF105991051001999999071001KA1120M+03651MA1999999100941MD1999999+0061REMSYN082AAXX  21184 61630 32960 50000 10337 20128 30094 40113 85070 333 10365 58006 85363;EQDQ01  00002PRCP99
0147616300999992000112121004+15640-013250FM-12+0017GOSM V0209999C000012200019N0100001N1+02641+01321101311ADDGA1001+999999999GF100991001001999999001001MA1999999101121MD1999999+0071REMSYN064AAXX  21214 61630 42960 00000 10264 20132 30112 40131 333 58007;
0223616300999992000112206004+15640-013250FM-12+0017GOSM V0209999C000012200019N0100001N1+01901+01781101281ADDAA199000091GA1001+999999999GF100991001001999999001001IA2240+01709KA1120N+01801MA1999999101091OA150600411REMSYN088AAXX  22064 61630 32960 00000 10190 20178 30109 40128 333 01700 20180 50572 55082 58002;EQDQ01  00002PRCP99
0159616300999992000112209004+15640-013250FM-12+0017GOSM V0209999C000010690019N0100001N1+02381+00991101501ADDGA1071+069009019GF107991001001999999001021MA1999999101301MD1999999+0061REMSYN076AAXX  22094 61630 42960 70000 10238 20099 30130 40150 80002 333 58006 87073;
0189616300999992000112212004+15640-013250FM-12+0017GOSM V0209999C000010690019N0120001N1+03181+00991101491ADDAA199000091GA1061+069009019GF106991001001999999001021MA1999999101301MD1999999+0021REMSYN076AAXX  22124 61630 32962 60000 10318 20099 30130 40149 80002 333 58002 86073;EQDQ01  00002PRCP99
0208616300999992000112218004+15640-013250FM-12+0017GOSM V0209999C000012200019N0120001N1+03201+01231101141ADDAA199000091GA1041+069009019GF104991001001999999001021KA1120M+03611MA1999999100951MD1999999+0011REMSYN082AAXX  22184 61630 32962 40000 10320 20123 30095 40114 80002 333 10361 58001 84073;EQDQ01  00002PRCP99
0177616300999992000112300004+15640-013250FM-12+0017GOSM V0209999C000012200019N0100001N1+02381+00801101311ADDAA199000091GA1001+999999999GF100991001001999999001001MA1999999101321MD1999999+0091REMSYN064AAXX  23004 61630 32960 00000 10238 20080 30132 40131 333 58009;EQDQ01  00002PRCP99
0138616300999992000112309004+15640-013250FM-12+0017GOSM V0209999C000010690019N0100001N1+02011+00801101571ADDGA1071+069009019GF107991001001999999001021MD1999999+0071REMSYN070AAXX  23094 61630 42960 70000 10201 20080 40157 80002 333 58007 87073;
0159616300999992000112315004+15640-013250FM-12+0017GOSM V0209999C000010690019N0100001N1+03441+01121101241ADDGA1061+069009019GF106991001001999999001021MA1999999101051MD1999999+0091REMSYN076AAXX  23154 61630 42960 60000 10344 20112 30105 40124 80002 333 58009 86073;
0208616300999992000112318004+15640-013250FM-12+0017GOSM V0209999C000010690019N0100001N1+03121+01151101271ADDAA199000091GA1051+069009019GF105991001001999999001021KA1120M+03501MA1999999101081MD1999999+0131REMSYN082AAXX  23184 61630 32960 50000 10312 20115 30108 40127 80002 333 10350 58013 85073;EQDQ01  00002PRCP99
0133616300999992000112321004+15640-013250FM-12+0017GOSM V0209999C000012200019N0100001N1+02521+00971101481ADDGA1001+999999999GF100991001001999999001001MA1999999101291REMSYN064AAXX  23214 61630 42960 00000 10252 20097 30129 40148 333 58409;
0177616300999992000112400004+15640-013250FM-12+0017GOSM V0209999C000012200019N0100001N1+02361+00721101521ADDAA199000091GA1001+999999999GF100991001001999999001001MA1999999101331MD1999999+0011REMSYN064AAXX  24004 61630 32960 00000 10236 20072 30133 40152 333 58001;EQDQ01  00002PRCP99
0223616300999992000112406004+15640-013250FM-12+0017GOSM V0209999C000012200019N0100001N1+01741+00941101411ADDAA199000091GA1001+999999999GF100991001001999999001001IA2240+01709KA1120N+01621MA1999999101221OA150600261REMSYN088AAXX  24064 61630 32960 00000 10174 20094 30122 40141 333 01700 20162 50592 55055 58008;EQDQ01  00002PRCP99
0159616300999992000112409004+15640-013250FM-12+0017GOSM V0209999C000012200019N0100001N1+02241+00961101581ADDGA1041+069009019GF104991001001999999001021MA1999999101391MD1999999+0021REMSYN076AAXX  24094 61630 42960 40000 10224 20096 30139 40158 80002 333 58002 84073;
0195616300999992000112412004+15640-013250FM-12+0017GOSM V0200801N002112200019N0100001N1+03101+01021101571ADDAA199000091GA1041+069009019GF104991001001999999001021MA1999999101381MD1999999-0041REMSYN082AAXX  24124 61630 32960 40804 10310 20102 30138 40157 80002 333 0//00 59004 84073;EQDQ01  00002PRCP99
0159616300999992000112415004+15640-013250FM-12+0017GOSM V0200801N002110690019N0100001N1+03381+01071101281ADDGA1061+069009019GF106991001001999999001021MA1999999101091MD1999999+0041REMSYN076AAXX  24154 61630 42960 60804 10338 20107 30109 40128 80002 333 58004 86073;
0208616300999992000112418004+15640-013250FM-12+0017GOSM V0209999C000010690019N0100001N1+03101+01071101171ADDAA199000091GA1071+069009019GF107991001001999999001021KA1120M+03441MA1999999100981MD1999999-0101REMSYN082AAXX  24184 61630 32960 70000 10310 20107 30098 40117 80002 333 10344 59010 87073;EQDQ01  00002PRCP99
0189616300999992000112500004+15640-013250FM-12+0017GOSM V0200801N001012200019N0100001N1+02501+00791101481ADDAA199000091GA1031+069009019GF103991001001999999001021MA1999999101291MD1999999-0041REMSYN076AAXX  25004 61630 32960 30802 10250 20079 30129 40148 80002 333 59004 83073;EQDQ01  00002PRCP99
0233616300999992000112506004+15640-013250FM-12+0017GOSM V0209999C000019999999N0100001N1+02101+00701101401ADDAA199000091GF105991001001999999001021IA2240+01409KA1120N+02001MA1999999101211MD1999999-0011OA150600461REMSYN100AAXX  25064 61630 32960 50000 10210 20070 30121 40140 80002 333 01400 20200 50672 55097 59001 85073;EQDQ01  00002PRCP99
0159616300999992000112509004+15640-013250FM-12+0017GOSM V0209999C000010690019N0100001N1+02201+00901101511ADDGA1071+069009019GF107991001001999999001021MA1999999101311MD1999999-0071REMSYN076AAXX  25094 61630 42960 70000 10220 20090 30131 40151 80002 333 59007 87073;
0205616300999992000112512004+15640-013250FM-12+0017GOSM V0201401N002110690019N0100001N1+03001+02012101491ADDAA199000091GA1071+069009019GF107991001001999999001021MA1999999101301MD1999999-0081REMSYN076AAXX  25124 61630 32960 71404 10300 20201 30130 40149 80002 333 59008 87073;EQDQ01+002013ATOD  Q02  00002PRCP99
0159616300999992000112521004+15640-013250FM-12+0017GOSM V0209999C000010690019N0100001N1+02581+00911101381ADDGA1051+069009019GF105991001001999999001021MA1999999101191MD1999999-0031REMSYN076AAXX  25214 61630 42960 50000 10258 20091 30119 40138 80002 333 59003 85073;
0223616300999992000112806004+15640-013250FM-12+0017GOSM V0209999C000012200019N0100001N1+01761+00971101421ADDAA199000091GA1001+999999999GF100991001001999999001001IA2240+01409KA1120N+01621MA1999999101231OA150600461REMSYN088AAXX  28064 61630 32960 00000 10176 20097 30123 40142 333 01400 20162 50572 55097 59007;EQDQ01  00002PRCP99
0159616300999992000112815004+15640-013250FM-12+0017GOSM V0209999C000012200019N0100001N1+03781+01431101131ADDGA1041+069009019GF104991001001999999001021MA1999999100941MD1999999-0151REMSYN076AAXX  28154 61630 42960 40000 10378 20143 30094 40113 80002 333 59015 84073;
0177616300999992000112900004+15640-013250FM-12+0017GOSM V0209999C000012200019N0100001N1+02311+01081101451ADDAA199000091GA1001+999999999GF100991001001999999001001MA1999999101261MD1999999-0051REMSYN064AAXX  29004 61630 32960 00000 10231 20108 30126 40145 333 59005;EQDQ01  00002PRCP99
0223616300999992000112906004+15640-013250FM-12+0017GOSM V0209999C000012200019N0100001N1+01841+00891101341ADDAA199000091GA1001+999999999GF100991001001999999001001IA2240+01409KA1120N+01741MA1999999101151OA150600511REMSYN088AAXX  29064 61630 32960 00000 10184 20089 30115 40134 333 01400 20174 50642 55102 59008;EQDQ01  00002PRCP99
0189616300999992000112912004+15640-013250FM-12+0017GOSM V0201201N002110690019N0100001N1+03562+01291101291ADDAA199000091GA1051+069009019GF105991001001999999001021MA1999999101101MD1999999-0221REMSYN076AAXX  29124 61630 32960 51204 10356 20129 30110 40129 80002 333 59022 85073;EQDQ01  00002PRCP99
0208616300999992000112918004+15640-013250FM-12+0017GOSM V0209999C000010690019N0100001N1+03461+01501101071ADDAA199000091GA1051+069009019GF105991001001999999001021KA1120M+03901MA1999999100881MD1999999-0101REMSYN082AAXX  29184 61630 32960 50000 10346 20150 30088 40107 80002 333 10390 59010 85073;EQDQ01  00002PRCP99
0147616300999992000112921004+15640-013250FM-12+0017GOSM V0209999C000012200019N0100001N1+02601+01311101251ADDGA1001+999999999GF100991001001999999001001MA1999999101061MD1999999-0121REMSYN064AAXX  29214 61630 42960 00000 10260 20131 30106 40125 333 59012;
0208616300999992000113018004+15640-013250FM-12+0017GOSM V0209999C000012200019N0100001N1+03381+01321101051ADDAA199000091GA1041+069009019GF104991001001999999001021KA1120M+03821MA1999999100861MD1999999-0021REMSYN082AAXX  30184 61630 32960 40000 10338 20132 30086 40105 80002 333 10382 59002 84073;EQDQ01  00002PRCP99
0159616300999992000120109004+15640-013250FM-12+0017GOSM V0209999C000012200019N0100001N1+02131+00931101521ADDGA1011+069009019GF101991001001999999001021MA1999999101321MD1999999+0081REMSYN076AAXX  01094 61630 42960 10000 10213 20093 30132 40152 80002 333 58008 81073;
0196616300999992000120118004+15640-013250FM-12+0017GOSM V0209999C000012200019N0100001N1+03421+01241101231ADDAA199000091GA1001+999999999GF100991001001999999001001KA1120M+03701MA1999999101041MD1999999+0181REMSYN070AAXX  01184 61630 32960 00000 10342 20124 30104 40123 333 10370 58018;EQDQ01  00002PRCP99
0223616300999992000120206004+15640-013250FM-12+0017GOSM V0209999C000012200019N0100001N1+01961+00601101461ADDAA199000091GA1001+999999999GF100991001001999999001001IA2240+01309KA1120N+01751MA1999999101271OA150600511REMSYN088AAXX  02064 61630 32960 00000 10196 20060 30127 40146 333 01300 20175 50702 55103 58010;EQDQ01  00002PRCP99
0183616300999992000120212004+15640-013250FM-12+0017GOSM V0200801N004112200019N0100001N1+03241+01091101661ADDAA199000091GA1001+999999999GF100991001001999999001001MA1999999101471MD1999999+0271REMSYN070AAXX  02124 61630 32960 00808 10324 20109 30147 40166 333 0//00 58027;EQDQ01  00002PRCP99
0189616300999992000120300004+15640-013250FM-12+0017GOSM V0209999C000012200019N0100001N1+02281+00841101591ADDAA199000091GA1021+069009019GF102991001001999999001021MA1999999101401MD1999999+0101REMSYN076AAXX  03004 61630 32960 20000 10228 20084 30140 40159 80002 333 58010 82073;EQDQ01  00002PRCP99
0223616300999992000120306004+15640-013250FM-12+0017GOSM V0200801N001012200019N0100001N1+01991+00701101541ADDAA199000091GA1001+999999999GF100991001001999999001001IA2240+01409KA1120N+01881MA1999999101351OA150600461REMSYN088AAXX  03064 61630 32960 00802 10199 20070 30135 40154 333 01400 20188 50792 55099 58008;EQDQ01  00002PRCP99
0159616300999992000120309004+15640-013250FM-12+0017GOSM V0209999C000012200019N0120001N1+02361+00831101671ADDGA1031+069009019GF103991001001999999001021MA1999999101471MD1999999+0031REMSYN076AAXX  03094 61630 42962 30000 10236 20083 30147 40167 80002 333 58003 83073;
0189616300999992000120312004+15640-013250FM-12+0017GOSM V0201201N004110690019N0080001N1+03221+01111101581ADDAA199000091GA1051+069009019GF105991001001999999001021MA1999999101391MD1999999-0081REMSYN076AAXX  03124 61630 32958 51208 10322 20111 30139 40158 80002 333 59008 85073;EQDQ01  00002PRCP99
0187616300999992000120318004+15640-013250FM-12+0017GOSM V0209999C000010690019N0100001N1+03021+01101101291ADDAA199000091GA1051+069009019GF105991001001999999001021KA1120M+03601MD1999999-0061REMSYN076AAXX  03184 61630 32960 50000 10302 20110 40129 80002 333 10360 59006 85073;EQDQ01  00002PRCP99
0223616300999992000120406004+15640-013250FM-12+0017GOSM V0209999C000012200019N0100001N1+02101+00861101401ADDAA199000091GA1001+999999999GF100991001001999999001001IA2240+01409KA1120N+01921MA1999999101211OA150600261REMSYN088AAXX  04064 61630 32960 00000 10210 20086 30121 40140 333 01400 20192 50632 55058 59014;EQDQ01  00002PRCP99
0195616300999992000120412004+15640-013250FM-12+0017GOSM V0209999C000010690019N0100001N1+03021+01371101611ADDAA199000091GA1051+069009019GF105991001001999999001021MA1999999101421MD1999999+0031REMSYN082AAXX  04124 61630 32960 50000 10302 20137 30142 40161 80002 333 0//00 58003 85073;EQDQ01  00002PRCP99
0159616300999992000120415004+15640-013250FM-12+0017GOSM V0201201N002110390019N0100001N1+03191+01191101191ADDGA1071+039009079GF107991071021999999071999MA1999999101001MD1999999-0151REMSYN076AAXX  04154 61630 42960 71204 10319 20119 30100 40119 8727/ 333 59015 87363;
0159616300999992000120509004+15640-013250FM-12+0017GOSM V0209999C000012200019N0100001N1+02061+01041101481ADDGA1021+039009079GF104991021001999999031021MA1999999101281MD1999999-0071REMSYN076AAXX  05094 61630 42960 40000 10206 20104 30128 40148 82032 333 59007 82363;
0168616300999992000120512004+15640-013250FM-12+0017GOSM V0201201N002112200019N0120001N1+03281+01131101421ADDAA199000091GA1011+039009079GF101991011001999999031001MD1999999-0091REMSYN070AAXX  05124 61630 32962 11204 10328 20113 40142 81030 333 59009 81363;EQDQ01  00002PRCP99
0147616300999992000120515004+15640-013250FM-12+0017GOSM V0209999C000012200019N0100001N1+03521+01301101091ADDGA1001+999999999GF100991001001999999001001MA1999999100901MD1999999-0101REMSYN064AAXX  05154 61630 42960 00000 10352 20130 30090 40109 333 59010;
0208616300999992000120518004+15640-013250FM-12+0017GOSM V0209999C000012200019N0100001N1+03381+01221101071ADDAA199000091GA1031+039009079GF103991031001999999081001KA1120M+03601MA1999999100881MD1999999-0091REMSYN082AAXX  05184 61630 32960 30000 10338 20122 30088 40107 83080 333 10360 59009 83363;EQDQ01  00002PRCP99
0223616300999992000120606004+15640-013250FM-12+0017GOSM V0209999C000012200019N0100001N1+01821+00821101251ADDAA199000091GA1001+999999999GF100991001001999999001001IA2240+01609KA1120N+01551MA1999999101061OA150600511REMSYN088AAXX  06064 61630 32960 00000 10182 20082 30106 40125 333 01600 20155 50542 55104 59010;EQDQ01  00002PRCP99
0147616300999992000120609004+15640-013250FM-12+0017GOSM V0209999C000012200019N0100001N1+02161+01081101381ADDGA1001+999999999GF100991001001999999001001MA1999999101191MD1999999-0091REMSYN064AAXX  06094 61630 42960 00000 10216 20108 30119 40138 333 59009;
0183616300999992000120612004+15640-013250FM-12+0017GOSM V0200801N003112200019N0100001N1+03301+01241101421ADDAA199000091GA1001+999999999GF100991001001999999001001MA1999999101231MD1999999+0001REMSYN070AAXX  06124 61630 32960 00806 10330 20124 30123 40142 333 0//00 58000;EQDQ01  00002PRCP99
0147616300999992000120615004+15640-013250FM-12+0017GOSM V0200801N003112200019N0100001N1+03581+01351101091ADDGA1001+999999999GF100991001001999999001001MA1999999100901MD1999999+0001REMSYN064AAXX  06154 61630 42960 00806 10358 20135 30090 40109 333 58000;
0208616300999992000120618004+15640-013250FM-12+0017GOSM V0209999C000012200019N0100001N1+03381+01461101031ADDAA199000091GA1011+039009079GF101991011001999999081001KA1120M+03361MA1999999100841MD1999999-0041REMSYN082AAXX  06184 61630 32960 10000 10338 20146 30084 40103 81080 333 10336 59004 81363;EQDQ01  00002PRCP99
0168616300999992000120700004+15640-013250FM-12+0017GOSM V0209999C000012200019N0100001N1+02101+00881101371ADDAA199000091GA1011+039009079GF101991011001999999081001MD1999999+0011REMSYN070AAXX  07004 61630 32960 10000 10210 20088 40137 81080 333 58001 81363;EQDQ01  00002PRCP99
0159616300999992000120709004+15640-013250FM-12+0017GOSM V0209999C000012200019N0120001N1+02271+01021101531ADDGA1011+039009079GF101991011001999999031001MA1999999101331MD1999999+0141REMSYN076AAXX  07094 61630 42962 10000 10227 20102 30133 40153 81030 333 58014 81363;
0189616300999992000120712004+15640-013250FM-12+0017GOSM V0201401N001012200019N0120001N1+03291+01271101481ADDAA199000091GA1011+039009079GF101991011001999999031021MA1999999101291MD1999999+0061REMSYN076AAXX  07124 61630 32962 11402 10329 20127 30129 40148 81032 333 58006 81363;EQDQ01  00002PRCP99
0177616300999992000120715004+15640-013250FM-12+0017GOSM V0200801N002112200019N0100001N1+03581+01321101151ADDAA199000091GA1001+999999999GF100991001001999999001001MA1999999100961MD1999999+0061REMSYN064AAXX  07154 61630 32960 00804 10358 20132 30096 40115 333 58006;EQDQ01  00002PRCP99
0196616300999992000120718004+15640-013250FM-12+0017GOSM V0209999C000012200019N0100001N1+03401+01351101171ADDAA199000091GA1001+999999999GF100991001001999999001001KA1120M+03621MA1999999100981MD1999999+0141REMSYN070AAXX  07184 61630 32960 00000 10340 20135 30098 40117 333 10362 58014;EQDQ01  00002PRCP99
0183616300999992000120800004+15640-013250FM-12+0017GOSM V0209999C000012200019N0100001N1+02081+00881101431ADDAA199000091GA1001+999999999GF100991001001999999001001MA1999999101241MD1999999+0061REMSYN070AAXX  08004 61630 32960 00000 10208 20088 30124 40143 333 0//00 58006;EQDQ01  00002PRCP99
0147616300999992000120803004+15640-013250FM-12+0017GOSM V0209999C000012200019N0100001N1+01941+00971101361ADDGA1001+999999999GF100991001001999999001001MA1999999101171MD1999999+0011REMSYN064AAXX  08034 61630 42960 00000 10194 20097 30117 40136 333 58001;
0223616300999992000120806004+15640-013250FM-12+0017GOSM V0209999C000012200019N0100001N1+01621+00841101371ADDAA199000091GA1001+999999999GF100991001001999999001001IA2240+01309KA1120N+01501MA1999999101181OA150600511REMSYN088AAXX  08064 61630 32960 00000 10162 20084 30118 40137 333 01300 20150 50682 55105 58000;EQDQ01  00002PRCP99
0147616300999992000120809004+15640-013250FM-12+0017GOSM V0209999C000012200019N0100001N1+02221+01201101511ADDGA1001+999999999GF100991001001999999001001MA1999999101321MD1999999-0011REMSYN064AAXX  08094 61630 42960 00000 10222 20120 30132 40151 333 59001;
0183616300999992000120812004+15640-013250FM-12+0017GOSM V0200801N003112200019N0100001N1+03241+01291101471ADDAA199000091GA1001+999999999GF100991001001999999001001MA1999999101281MD1999999-0011REMSYN070AAXX  08124 61630 32960 00806 10324 20129 30128 40147 333 0//00 59001;EQDQ01  00002PRCP99
0147616300999992000120815004+15640-013250FM-12+0017GOSM V0209999C000012200019N0120001N1+03601+01411101051ADDGA1001+999999999GF100991001001999999001001MA1999999100881MD1999999-0121REMSYN064AAXX  08154 61630 42962 00000 10360 20141 30088 40105 333 59012;
0177616300999992000120900004+15640-013250FM-12+0017GOSM V0209999C000012200019N0100001N1+02401+00301101381ADDAA199000091GA1001+999999999GF100991001001999999001001MA1999999101191MD1999999-0051REMSYN064AAXX  09004 61630 32960 00000 10240 20030 30119 40138 333 59005;EQDQ01  00002PRCP99
0223616300999992000120906004+15640-013250FM-12+0017GOSM V0209999C000012200019N0100001N1+01631+00801101271ADDAA199000091GA1001+999999999GF100991001001999999001001IA2240+01309KA1120N+01531MA1999999101081OA150600511REMSYN088AAXX  09064 61630 32960 00000 10163 20080 30108 40127 333 01300 20153 50702 55106 59010;EQDQ01  00002PRCP99
0085616300999992000120909004+15640-013250FM-12+0017GOSM V0209999C000019999999N0120001N1+02281+01101101381ADDMA1999999101181REMSYN058AAXX  09094 61630 42962 /0000 10228 20110 30118 40138 333;
0183616300999992000120912004+15640-013250FM-12+0017GOSM V0201401N002112200019N0100001N1+03301+01191101381ADDAA199000091GA1001+999999999GF100991001001999999001001MA1999999101191MD1999999-0091REMSYN070AAXX  09124 61630 32960 01404 10330 20119 30119 40138 333 0//00 59009;EQDQ01  00002PRCP99
0147616300999992000120915004+15640-013250FM-12+0017GOSM V0209999C000012200019N0100001N1+03581+01351101101ADDGA1001+999999999GF100991001001999999001001MA1999999100911MD1999999+0031REMSYN064AAXX  09154 61630 42960 00000 10358 20135 30091 40110 333 58003;
0196616300999992000120918004+15640-013250FM-12+0017GOSM V0209999C000012200019N0100001N1+03361+01241101051ADDAA199000091GA1001+999999999GF100991001001999999001001KA1120M+03651MA1999999100861MD1999999-0051REMSYN070AAXX  09184 61630 32960 00000 10336 20124 30086 40105 333 10365 59005;EQDQ01  00002PRCP99
0223616300999992000121006004+15640-013250FM-12+0017GOSM V0209999C000012200019N0100001N1+01901+00721101261ADDAA199000091GA1001+999999999GF100991001001999999001001IA2240+01309KA1120N+01801MA1999999101071OA150600511REMSYN088AAXX  10064 61630 32960 00000 10190 20072 30107 40126 333 01300 20180 50712 55108 59001;EQDQ01  00002PRCP99
0147616300999992000121009004+15640-013250FM-12+0017GOSM V0209999C000012200019N0100001N1+02181+01151101411ADDGA1001+999999999GF100991001001999999001001MA1999999101221MD1999999+0041REMSYN064AAXX  10094 61630 42960 00000 10218 20115 30122 40141 333 58004;
0177616300999992000121012004+15640-013250FM-12+0017GOSM V0200801N003112200019N0100001N1+03221+01301101391ADDAA199000091GA1001+999999999GF100991001001999999001001MA1999999101201MD1999999+0011REMSYN064AAXX  10124 61630 32960 00806 10322 20130 30120 40139 333 58001;EQDQ01  00002PRCP99
0159616300999992000121015004+15640-013250FM-12+0017GOSM V0201401N001012200019N0100001N1+03481+01401101121ADDGA1011+039009079GF101991011001999999031001MA1999999100931MD1999999+0021REMSYN076AAXX  10154 61630 42960 11402 10348 20140 30093 40112 81030 333 58002 81363;
0208616300999992000121018004+15640-013250FM-12+0017GOSM V0209999C000012200019N0100001N1+03281+01301101131ADDAA199000091GA1011+039009079GF101991011001999999081001KA1120M+03581MA1999999100941MD1999999+0081REMSYN082AAXX  10184 61630 32960 10000 10328 20130 30094 40113 81080 333 10358 58008 81363;EQDQ01  00002PRCP99
0221616300999992000121100004+15640-013250FM-12+0017GOSM V0201001N002112200019N0100001N1+02381+00941101391ADDAA199000091GA1011+039009079GF199999999001999999001001MA1999999101201MD1999999+0021REMSYN076AAXX  11004 61630 32960 01004 10238 20094 30120 40139 81030 333 58002 81363;EQDQ01+000002SCOTCVQ02+000002SCOTLCQ03  00002PRCP99
0159616300999992000121103004+15640-013250FM-12+0017GOSM V0200801N001012200019N0100001N1+02271+00861101351ADDGA1011+039009079GF101991011001999999031001MA1999999101161MD1999999-0061REMSYN076AAXX  11034 61630 42960 10802 10227 20086 30116 40135 81030 333 59006 81363;
0189616300999992000121112004+15640-013250FM-12+0017GOSM V0201201N002112200019N0080001N1+03181+01271101471ADDAA199000091GA1011+039009079GF101991011001999999031001MA1999999101281MD1999999+0081REMSYN076AAXX  11124 61630 32958 11204 10318 20127 30128 40147 81030 333 58008 81363;EQDQ01  00002PRCP99
0147616300999992000121115004+15640-013250FM-12+0017GOSM V0200801N002112200019N0100001N1+03481+01421101201ADDGA1001+999999999GF100991001001999999001001MA1999999101011MD1999999+0081REMSYN064AAXX  11154 61630 42960 00804 10348 20142 30101 40120 333 58008;
0196616300999992000121118004+15640-013250FM-12+0017GOSM V0209999C000012200019N0100001N1+03321+01361101241ADDAA199000091GA1001+999999999GF100991001001999999001001KA1120M+03551MA1999999101051MD1999999+0441REMSYN070AAXX  11184 61630 32960 00000 10332 20136 30105 40124 333 10355 58044;EQDQ01  00002PRCP99
0177616300999992000121200004+15640-013250FM-12+0017GOSM V0200801N002112200019N0100001N1+02601+00891101461ADDAA199000091GA1001+999999999GF100991001001999999001001MA1999999101271MD1999999+0071REMSYN064AAXX  12004 61630 32960 00804 10260 20089 30127 40146 333 58007;EQDQ01  00002PRCP99
0147616300999992000121203004+15640-013250FM-12+0017GOSM V0209999C000012200019N0100001N1+02341+01001101431ADDGA1001+999999999GF100991001001999999001001MA1999999101241MD1999999+0081REMSYN064AAXX  12034 61630 42960 00000 10234 20100 30124 40143 333 58008;
0223616300999992000121206004+15640-013250FM-12+0017GOSM V0209999C000012200019N0100001N1+02121+00891101451ADDAA199000091GA1001+999999999GF100991001001999999001001IA2240+01509KA1120N+02021MA1999999101261OA150600311REMSYN088AAXX  12064 61630 32960 00000 10212 20089 30126 40145 333 01500 20202 50902 55065 58003;EQDQ01  00002PRCP99
0159616300999992000121209004+15640-013250FM-12+0017GOSM V0209999C000012200019N0100001N1+02321+01061101671ADDGA1011+039009079GF101991011001999999031001MA1999999101481MD1999999+0081REMSYN076AAXX  12094 61630 42960 10000 10232 20106 30148 40167 81030 333 58008 81363;
0183616300999992000121212004+15640-013250FM-12+0017GOSM V0200801N004112200019N0100001N1+03101+01271101651ADDAA199000091GA1001+999999999GF100991001001999999001001MA1999999101401MD1999999+0181REMSYN070AAXX  12124 61630 32960 00808 10310 20127 3014/ 40165 333 0//00 58018;EQDQ01  00002PRCP99
0159616300999992000121215004+15640-013250FM-12+0017GOSM V0200801N002112200019N0100001N1+03381+01461101271ADDGA1021+039009079GF102991021001999999081001MA1999999101081MD1999999+0071REMSYN076AAXX  12154 61630 42960 20804 10338 20146 30108 40127 82080 333 58007 82363;
0208616300999992000121218004+15640-013250FM-12+0017GOSM V0209999C000012200019N0100001N1+03181+01341101151ADDAA199000091GA1011+039009079GF101991011001999999031001KA1120M+03521MA1999999100961MD1999999-0091REMSYN082AAXX  12184 61630 32960 10000 10318 20134 30096 40115 81030 333 10352 59009 81363;EQDQ01  00002PRCP99
0159616300999992000121221004+15640-013250FM-12+0017GOSM V0200801N001012200019N0100001N1+02581+01021101421ADDGA1011+039009079GF101991011001999999031001MA1999999101231MD1999999+0001REMSYN076AAXX  12214 61630 42960 10802 10258 20102 30123 40142 81030 333 58000 81363;
0233616300999992000121306004+15640-013250FM-12+0017GOSM V0209999C000012200019N0100001N1+02081+00661101341ADDAA199000091GF103991031001999999031001IA2240+01409KA1120N+01581MA1999999101151MD1999999-0111OA150600511REMSYN100AAXX  13064 61630 32960 30000 10208 20066 30115 40134 83030 333 01400 20158 50712 55103 59011 83363;EQDQ01  00002PRCP99
0159616300999992000121309004+15640-013250FM-12+0017GOSM V0209999C000010390019N0100001N1+02201+01021101461ADDGA1051+039009079GF105991051001999999071001MA1999999101261MD1999999-0021REMSYN076AAXX  13094 61630 42960 50000 10220 20102 30126 40146 85070 333 59002 85363;
0189616300999992000121312004+15640-013250FM-12+0017GOSM V0201201N002112200019N0100001N1+03201+01351101331ADDAA199000091GA1021+039009079GF102991021001999999081001MA1999999101141MD1999999-0321REMSYN076AAXX  13124 61630 32960 21204 10320 20135 30114 40133 82080 333 59032 82363;EQDQ01  00002PRCP99
0159616300999992000121315004+15640-013250FM-12+0017GOSM V0200801N004112200019N0100001N1+03381+01411101081ADDGA1021+039009079GF102991021001999999081001MA1999999100891MD1999999-0191REMSYN076AAXX  13154 61630 42960 20808 10338 20141 30089 40108 82080 333 59019 82363;
0196616300999992000121318004+15640-013250FM-12+0017GOSM V0209999C000012200019N0100001N1+03261+01411101081ADDAA199000091GA1001+999999999GF100991001001999999001001KA1120M+03501MA1999999100891MD1999999-0071REMSYN070AAXX  13184 61630 32960 00000 10326 20141 30089 40108 333 10350 59007;EQDQ01  00002PRCP99
0147616300999992000121409004+15640-013250FM-12+0017GOSM V0209999C000012200019N0100001N1+02141+01051101291ADDGA1001+999999999GF100991001001999999001001MA1999999101101MD1999999-0161REMSYN064AAXX  14094 61630 42960 00000 10214 20105 30110 40129 333 59016;
0183616300999992000121412004+15640-013250FM-12+0017GOSM V0200801N004112200019N0100001N1+03101+01271101271ADDAA199000091GA1001+999999999GF100991001001999999001001MA1999999101081MD1999999-0061REMSYN070AAXX  14124 61630 32960 00808 10310 20127 30108 40127 333 0//00 59006;EQDQ01  00002PRCP99
0147616300999992000121415004+15640-013250FM-12+0017GOSM V0200801N001012200019N0070001N1+03401+01551100981ADDGA1001+999999999GF100991001001999999001001MA1999999100791MD1999999-0101REMSYN064AAXX  14154 61630 42957 00802 10340 20155 30079 40098 333 59010;
0196616300999992000121418004+15640-013250FM-12+0017GOSM V0209999C000012200019N0070001N1+03201+01101101031ADDAA199000091GA1001+999999999GF100991001001999999001001KA1120M+03481MA1999999100841MD1999999-0051REMSYN070AAXX  14184 61630 32957 00000 10320 20110 30084 40103 333 10348 59005;EQDQ01  00002PRCP99
0147616300999992000121421004+15640-013250FM-12+0017GOSM V0209999C000012200019N0060001N1+02611+01011101191ADDGA1001+999999999GF100991001001999999001001MA1999999100991MD1999999-0051REMSYN064AAXX  14214 61630 42956 00000 10261 20101 30099 40119 333 59005;
0189616300999992000121500004+15640-013250FM-12+0017GOSM V0209999C000012200019N0060001N1+02501+00861101161ADDAA199000091GA1011+039009079GF101991011001999999031001MA1999999100971MD1999999-0111REMSYN076AAXX  15004 61630 32956 10000 10250 20086 30097 40116 81030 333 59011 81363;EQDQ01  00002PRCP99
0147616300999992000121503004+15640-013250FM-12+0017GOSM V0209999C000012200019N0080001N1+02221+00861101121ADDGA1001+999999999GF100991001001999999001001MA1999999100931MD1999999-0141REMSYN064AAXX  15034 61630 42958 00000 10222 20086 30093 40112 333 59014;
0223616300999992000121506004+15640-013250FM-12+0017GOSM V0209999C000012200019N0100001N1+02011+00801101141ADDAA199000091GA1001+999999999GF100991001001999999001001IA2240+01409KA1120N+01401MA1999999100951OA150600261REMSYN088AAXX  15064 61630 32960 00000 10201 20080 30095 40114 333 01400 20140 50742 55052 59006;EQDQ01  00002PRCP99
0175616300999992000121509004+15640-013250FM-12+0017GOSM V0209999C000012200019N0040001N1+02151+00951101271ADDAY101031AY201031GA1001+999999999GF100991001001999999001001MA1999999101071MD1999999-0031MW1061REMSYN070AAXX  15094 61630 41940 00000 10215 20095 30107 40127 70600 333 59003;
0205616300999992000121512004+15640-013250FM-12+0017GOSM V0201201N002112200019N0012001N1+02971+01061101191ADDAA199000091AY101061AY201061GA1001+999999999GF100991001001999999001001MA1999999101001MD1999999-0081MW1061REMSYN070AAXX  15124 61630 31912 01204 10297 20106 30100 40119 70600 333 59008;EQDQ01  00002PRCP99
0159616300999992000121515004+15640-013250FM-12+0017GOSM V0200801N004112200019N0040001N1+03301+01241100911ADDGA1001+999999999GF100991001001999999001001MA1999999100721MD1999999-0071MW1061REMSYN070AAXX  15154 61630 41940 00808 10330 20124 30072 40091 706// 333 59007;
0208616300999992000121518004+15640-013250FM-12+0017GOSM V0209999C000012200019N0040001N1+03121+01151100871ADDAA199000091GA1001+999999999GF100991001001999999001001KA1120M+03501MA1999999100681MD1999999-0161MW1061REMSYN076AAXX  15184 61630 31940 00000 10312 20115 30068 40087 706// 333 10350 59016;EQDQ01  00002PRCP99
0183616300999992000121600004+15640-013250FM-12+0017GOSM V0200401N001012200019N0080001N1+02481+00641101051ADDAA199000091GA1001+999999999GF100991001001999999001001MA1999999100821MD1999999+0011REMSYN070AAXX  16004 61630 32958 00402 10248 20064 30082 40105 333 0//00 58001;EQDQ01  00002PRCP99
0159616300999992000121603004+15640-013250FM-12+0017GOSM V0209999C000012200019N0050001N1+02301+00901101111ADDGA1001+999999999GF100991001001999999001001MA1999999100921MD1999999-0011MW1061REMSYN070AAXX  16034 61630 41950 00000 10230 20090 30092 40111 706// 333 59001;
0235616300999992000121606004+15640-013250FM-12+0017GOSM V0209999C000012200019N0050001N1+02161+00851101121ADDAA199000091GA1001+999999999GF100991001001999999001001IA2240+01709KA1120N+02051MA1999999100931MW1061OA150600101REMSYN094AAXX  16064 61630 31950 00000 10216 20085 30093 40112 706// 333 01700 20205 50622 55020 59002;EQDQ01  00002PRCP99
0187616300999992000121609004+15640-013250FM-12+0017GOSM V0200601N005110690019N0030001N1+02281+00941101181ADDAY111031AY211031GA1051+069009019GF105991001001999999001021MA1999999100851MD1999999+0001MW1061REMSYN082AAXX  16094 61630 41930 50610 10228 20094 30085 40118 70611 80002 333 58000 85073;
0223616300999992000121612004+15640-013250FM-12+0017GOSM V0200801N004112200019N0050001N1+02961+01051101291ADDAA199000091AY101061AY201061GA1041+069009019GF104991001001999999001021MA1999999101101MD1999999+0101MW1061REMSYN088AAXX  16124 61630 31950 40808 10296 20105 30110 40129 70600 80002 333 0//00 58010 84073;EQDQ01  00002PRCP99
0171616300999992000121615004+15640-013250FM-12+0017GOSM V0201201N002110690019N0040001N1+03301+01191100901ADDGA1071+069009019GF107991001001999999001021MA1999999100711MD1999999+0011MW1061REMSYN082AAXX  16154 61630 41940 71204 10330 20119 30071 40090 706// 80002 333 58001 87073;
0220616300999992000121618004+15640-013250FM-12+0017GOSM V0209999C000010690019N0050001N1+03131+01241100971ADDAA199000091GA1071+069009019GF107991001001999999001021KA1120M+03391MA1999999100781MD1999999+0101MW1061REMSYN088AAXX  16184 61630 31950 70000 10313 20124 30078 40097 706// 80002 333 10339 58010 87073;EQDQ01  00002PRCP99
0177616300999992000121700004+15640-013250FM-12+0017GOSM V0209999C000012200019N0070001N1+02421+00991101181ADDAA199000091GA1001+999999999GF100991001001999999001001MA1999999100991MD1999999+0181REMSYN064AAXX  17004 61630 32957 00000 10242 20099 30099 40118 333 58018;EQDQ01  00002PRCP99
0159616300999992000121709004+15640-013250FM-12+0017GOSM V0209999C000010690019N0070001N1+02031+01061101421ADDGA1071+069009019GF107991001001999999001021MA1999999101221MD1999999+0071REMSYN076AAXX  17094 61630 42957 70000 10203 20106 30122 40142 80002 333 58007 87073;
0189616300999992000121712004+15640-013250FM-12+0017GOSM V0201601N002110690019N0070001N1+02961+01151101321ADDAA199000091GA1071+069009019GF107991001001999999001021MA1999999101131MD1999999+0031REMSYN076AAXX  17124 61630 32957 71604 10296 20115 30113 40132 80002 333 58003 87073;EQDQ01  00002PRCP99
0147616300999992000121715004+15640-013250FM-12+0017GOSM V0209999C000012200019N0080001N1+03381+01311101001ADDGA1001+999999999GF100991001001999999001001MA1999999100811MD1999999+0101REMSYN064AAXX  17154 61630 42958 00000 10338 20131 30081 40100 333 58010;
0196616300999992000121718004+15640-013250FM-12+0017GOSM V0209999C000012200019N0080001N1+03181+01341101011ADDAA199000091GA1001+999999999GF100991001001999999001001KA1120M+03451MA1999999100821MD1999999+0041REMSYN070AAXX  17184 61630 32958 00000 10318 20134 30082 40101 333 10345 58004;EQDQ01  00002PRCP99
0142616300999992000121803004+15640-013250FM-12+0017GOSM V0209999C000012200019N9999999N1+02001+00601999999ADDGA1001+999999999GF100991001001999999001001MA1999999100701ME1102609REMSYN064AAXX  18034 61630 4295/ 00000 10200 2006/ 3007/ 4126/ 333 5005/;
0223616300999992000121806004+15640-013250FM-12+0017GOSM V0209999C000012200019N0080001N1+01861+00871101171ADDAA199000091GA1001+999999999GF100991001001999999001001IA2240+01609KA1120N+01751MA1999999100981OA150600151REMSYN088AAXX  18064 61630 32958 00000 10186 20087 30098 40117 333 01600 20175 50552 55032 59005;EQDQ01  00002PRCP99
0147616300999992000121809004+15640-013250FM-12+0017GOSM V0209999C000012200019N0100001N1+01941+00981101361ADDGA1001+999999999GF100991001001999999001001MA1999999101171MD1999999-0051REMSYN064AAXX  18094 61630 42960 00000 10194 20098 30117 40136 333 59005;
0165616300999992000121815004+15640-013250FM-12+0017GOSM V0200601N001019999999N0100001N1+03461+01401101061ADDGA1011+039009039GF106991011001999999031021MA1999999100871MD1999999+0061REMSYN082AAXX  18154 61630 42960 60602 10346 20140 30087 40106 81032 333 58006 81363 85073;
0208616300999992000121818004+15640-013250FM-12+0017GOSM V0209999C000010690019N0100001N1+03111+01281101081ADDAA199000091GA1071+069009019GF107991001001999999001021KA1120M+03481MA1999999100891MD1999999+0071REMSYN082AAXX  18184 61630 32960 70000 10311 20128 30089 40108 80002 333 10348 58007 87073;EQDQ01  00002PRCP99
0147616300999992000121821004+15640-013250FM-12+0017GOSM V0209999C000012200019N0100001N1+02381+01011101371ADDGA1001+999999999GF100991001001999999001001MA1999999101171MD1999999+0101REMSYN064AAXX  18214 61630 42960 00000 10238 20101 30117 40137 333 58010;
0159616300999992000121903004+15640-013250FM-12+0017GOSM V0209999C000012200019N0100001N1+02101+00921101381ADDGA1021+069009019GF102991001001999999001021MA1999999101191MD1999999+0121REMSYN076AAXX  19034 61630 42960 20000 10210 20092 30119 40138 80002 333 58012 82073;
0159616300999992000121909004+15640-013250FM-12+0017GOSM V0209999C000010690019N0100001N1+02001+00941101511ADDGA1051+069009019GF105991001001999999001021MA1999999101311MD1999999+0141REMSYN076AAXX  19094 61630 42960 50000 10200 20094 30131 40151 80002 333 58014 85073;
0189616300999992000121912004+15640-013250FM-12+0017GOSM V0209999C000010690019N0100001N1+03111+01111101511ADDAA199000091GA1071+069009019GF107991001001999999001021MA1999999101321MD1999999+0131REMSYN076AAXX  19124 61630 32960 70000 10311 20111 30132 40151 80002 333 58013 87073;EQDQ01  00002PRCP99
0208616300999992000121918004+15640-013250FM-12+0017GOSM V0209999C000010690019N0100001N1+03261+01221101191ADDAA199000091GA1061+069009019GF106991001001999999001021KA1120M+03951MA1999999101001MD1999999+0111REMSYN082AAXX  19184 61630 32960 60000 10326 20122 30100 40119 80002 333 10395 58011 86073;EQDQ01  00002PRCP99
0177616300999992000122000004+15640-013250FM-12+0017GOSM V0209999C000012200019N0100001N1+02221+00931101331ADDAA199000091GA1001+999999999GF100991001001999999001001MA1999999101141MD1999999-0071REMSYN064AAXX  20004 61630 32960 00000 10222 20093 30114 40133 333 59007;EQDQ01  00002PRCP99
0147616300999992000122003004+15640-013250FM-12+0017GOSM V0209999C000012200019N0100001N1+01981+00791101321ADDGA1001+999999999GF100991001001999999001001MA1999999101131MD1999999-0061REMSYN064AAXX  20034 61630 42960 00000 10198 20079 30113 40132 333 59006;
0223616300999992000122006004+15640-013250FM-12+0017GOSM V0209999C000012200019N0100001N1+01701+00701101281ADDAA199000091GA1001+999999999GF100991001001999999001001IA2240+01709KA1120N+01601MA1999999101091OA150600151REMSYN088AAXX  20064 61630 32960 00000 10170 20070 30109 40128 333 01700 20160 50542 55030 59008;EQDQ01  00002PRCP99
0159616300999992000122009004+15640-013250FM-12+0017GOSM V0209999C000012200019N0100001N1+01821+00661101381ADDGA1041+069009019GF104991001001999999001021MA1999999101191MD1999999-0121REMSYN076AAXX  20094 61630 42960 40000 10182 20066 30119 40138 80002 333 59012 84073;
0195616300999992000122012004+15640-013250FM-12+0017GOSM V0209999C000012200019N0100001N1+02881+01401101451ADDAA199000091GA1041+069009019GF104991001001999999001021MA1999999101261MD1999999-0061REMSYN082AAXX  20124 61630 32960 40000 10288 20140 30126 40145 80002 333 0//00 59006 84073;EQDQ01  00002PRCP99
0208616300999992000122018004+15640-013250FM-12+0017GOSM V0209999C000012200019N0100001N1+03181+01071101101ADDAA199000091GA1021+069009019GF102991001001999999001021KA1120M+03501MA1999999100911MD1999999-0091REMSYN082AAXX  20184 61630 32960 20000 10318 20107 30091 40110 80002 333 10350 59009 82073;EQDQ01  00002PRCP99
0147616300999992000122103004+15640-013250FM-12+0017GOSM V0209999C000012200019N0100001N1+01701+00681101351ADDGA1001+999999999GF100991001001999999001001MA1999999101161MD1999999+0001REMSYN064AAXX  21034 61630 42960 00000 1017/ 20068 30116 40135 333 58000;
0159616300999992000122109004+15640-013250FM-12+0017GOSM V0209999C000012200019N0120001N1+01791+00801101411ADDGA1021+069009019GF102991001001999999001021MA1999999101211MD1999999+0021REMSYN076AAXX  21094 61630 42962 20000 10179 20080 30121 40141 80002 333 58002 82073;
0177616300999992000122112004+15640-013250FM-12+0017GOSM V0201601N001012200019N0100001N1+03001+01011101411ADDAA199000091GA1001+999999999GF100991001001999999001001MA1999999101221MD1999999-0041REMSYN064AAXX  21124 61630 32960 01602 10300 20101 30122 40141 333 59004;EQDQ01  00002PRCP99
0208616300999992000122118004+15640-013250FM-12+0017GOSM V0209999C000012200019N0100001N1+03221+01111101131ADDAA199000091GA1041+069009019GF104991001001999999001021KA1120M+03451MA1999999100941MD1999999+0031REMSYN082AAXX  21184 61630 32960 40000 10322 20111 30094 40113 80002 333 10345 58003 84073;EQDQ01  00002PRCP99
0177616300999992000122200004+15640-013250FM-12+0017GOSM V0209999C000012200019N0100001N1+02101+00911101401ADDAA199000091GA1001+999999999GF100991001001999999001001MA1999999101211MD1999999-0011REMSYN064AAXX  22004 61630 32960 00000 10210 20091 30121 40140 333 59001;EQDQ01  00002PRCP99
0147616300999992000122203004+15640-013250FM-12+0017GOSM V0209999C000012200019N0100001N1+01801+00791101431ADDGA1001+999999999GF100991001001999999001001MA1999999101241MD1999999+0081REMSYN064AAXX  22034 61630 42960 00000 10180 20079 30124 40143 333 58008;
0217616300999992000122206004+15640-013250FM-12+0017GOSM V0209999C000012200019N0100001N1+01621+00701999999ADDAA199000091GA1001+999999999GF100991001001999999001001IA2240+01309KA1120N+01521MA1999999101191OA150600361REMSYN082AAXX  22064 61630 32960 00000 10162 20070 30119 333 01300 20152 50562 55070 58014;EQDQ01  00002PRCP99
0159616300999992000122209004+15640-013250FM-12+0017GOSM V0209999C000010690019N0100001N1+01801+00891101491ADDGA1061+069009019GF106991001001999999001021MA1999999101291MD1999999+0081REMSYN076AAXX  22094 61630 42960 60000 10180 20089 30129 40149 80002 333 58008 86073;
0195616300999992000122212004+15640-013250FM-12+0017GOSM V0209999C000010690019N0100001N1+02721+01261101501ADDAA199000091GA1061+069009019GF106991001001999999001021MA1999999101301MD1999999+0081REMSYN082AAXX  22124 61630 32960 60000 10272 20126 30130 40150 80002 333 0//00 58008 86073;EQDQ01  00002PRCP99
0159616300999992000122215004+15640-013250FM-12+0017GOSM V0209999C000010690019N0120001N1+03381+01291101121ADDGA1061+069009019GF106991001001999999001021MA1999999100931MD1999999+0001REMSYN076AAXX  22154 61630 42962 60000 10338 20129 30093 40112 80002 333 58000 86073;
0208616300999992000122218004+15640-013250FM-12+0017GOSM V0209999C000010690019N0100001N1+03021+01141101141ADDAA199000091GA1071+069009019GF107991001001999999001021KA1120M+03451MA1999999100951MD1999999+0011REMSYN082AAXX  22184 61630 32960 70000 10302 20114 30095 40114 80002 333 10345 58001 87073;EQDQ01  00002PRCP99
0159616300999992000122221004+15640-013250FM-12+0017GOSM V0209999C000012200019N0100001N1+02251+01041101401ADDGA1021+069009019GF102991001001999999001021MA1999999101201MD1999999-0071REMSYN076AAXX  22214 61630 42960 20000 10225 20104 30120 40140 80002 333 59007 82073;
0177616300999992000122300004+15640-013250FM-12+0017GOSM V0209999C000012200019N0100001N1+01941+00781101471ADDAA199000091GA1001+999999999GF100991001001999999001001MA1999999101281MD1999999+0071REMSYN064AAXX  23004 61630 32960 00000 10194 20078 30128 40147 333 58007;EQDQ01  00002PRCP99
0147616300999992000122309004+15640-013250FM-12+0017GOSM V0209999C000012200019N0120001N1+01781+01061101501ADDGA1001+999999999GF100991001001999999001001MA1999999101301MD1999999+0011REMSYN064AAXX  23094 61630 42962 00000 10178 20106 30130 40150 333 58001;
0208616300999992000122318004+15640-013250FM-12+0017GOSM V0209999C000010690019N0100001N1+03141+01321101161ADDAA199000091GA1061+069009019GF106991001001999999001021KA1120M+03401MA1999999100961MD1999999+0011REMSYN082AAXX  23184 61630 32960 60000 10314 20132 30096 40116 80002 333 10340 58001 86073;EQDQ01  00002PRCP99
0183616300999992000122400004+15640-013250FM-12+0017GOSM V0209999C000012200019N0100001N1+02061+01251101431ADDAA199000091GA1001+999999999GF100991001001999999001001MA1999999101241MD1999999-0041REMSYN070AAXX  24004 61630 32960 00000 10206 20125 30124 40143 333 0//00 59004;EQDQ01  00002PRCP99
0147616300999992000122409004+15640-013250FM-12+0017GOSM V0209999C000012200019N0100001N1+01981+00931101531ADDGA1001+999999999GF100991001001999999001001MA1999999101331MD1999999+0031REMSYN064AAXX  24094 61630 42960 00000 10198 20093 30133 40153 333 58003;
0183616300999992000122412004+15640-013250FM-12+0017GOSM V0209999C000012200019N0100001N1+03041+01171101591ADDAA199000091GA1001+999999999GF100991001001999999001001MA1999999101381MD1999999+0071REMSYN070AAXX  24124 61630 32960 00000 10304 20117 30138 40159 333 0//00 58007;EQDQ01  00002PRCP99
0159616300999992000122415004+15640-013250FM-12+0017GOSM V0209999C000010690019N0120001N1+03401+01181101171ADDGA1051+069009019GF105991001001999999001021MA1999999100981MD1999999-0031REMSYN076AAXX  24154 61630 42962 50000 10340 20118 30098 40117 80002 333 59003 85073;
0224616300999992000122418004+15640-013250FM-12+0017GOSM V0209999C000010690019N0100001N1+03191+01221101141ADDAA199000091GA1071+069009019GF107991001001999999001021KA1120M+99999MA1999999100951MD1999999-0011REMSYN082AAXX  24184 61630 32960 70000 10319 20122 30095 40114 80002 333 10300 59001 87073;EQDQ01  00002PRCP99Q02 +03002ATMX  
0113616300999992000122421004+15640-013250FM-12+0017GOSM V0209999C000019999999N0100001N1+02321+01201101311ADDGF105991001001999999001021MA1999999101111REMSYN060AAXX  24214 61630 42960 50000 10232 20120 30111 40131 80002;
0177616300999992000122500004+15640-013250FM-12+0017GOSM V0209999C000012200019N0100001N1+02181+00921101421ADDAA199000091GA1001+999999999GF100991001001999999001001MA1999999101231MD1999999-0011REMSYN064AAXX  25004 61630 32960 00000 10218 20092 30123 40142 333 59001;EQDQ01  00002PRCP99
0166616300999992000122503004+15640-013250FM-12+0017GOSM V02099999999992200019N9999999N1+01911+00901102532ADDGA1001+999999999GF100991001001999999001001MA1999999100901MD1999999-0011REMSYN064AAXX  25034 61630 429// 04010 10191 20090 30090 40253 333 59001;EQDQ01+102533APOSLP
0159616300999992000122509004+15640-013250FM-12+0017GOSM V0209999C000010690019N0100001N1+01921+00941101431ADDGA1071+069009019GF107991001001999999001021MA1999999101231MD1999999-0101REMSYN076AAXX  25094 61630 42960 70000 10192 20094 30123 40143 80002 333 59010 87073;
0189616300999992000122512004+15640-013250FM-12+0017GOSM V0209999C000010690019N0100001N1+02921+01111101411ADDAA199000091GA1051+069009019GF105991001001999999001021MA1999999101221MD1999999-0161REMSYN076AAXX  25124 61630 32960 50000 10292 20111 30122 40141 80002 333 59016 85073;EQDQ01  00002PRCP99
0159616300999992000122515004+15640-013250FM-12+0017GOSM V0209999C000010690019N0100001N1+03521+01301101071ADDGA1051+069009019GF105991001001999999001021MA1999999100881MD1999999-0101REMSYN076AAXX  25154 61630 42960 50000 10352 20130 30088 40107 80002 333 59010 85073;
0208616300999992000122518004+15640-013250FM-12+0017GOSM V0209999C000010690019N0100001N1+03201+01411101131ADDAA199000091GA1051+069009019GF105991001001999999001021KA1120M+03551MA1999999100941MD1999999-0011REMSYN082AAXX  25184 61630 32960 50000 10320 20141 30094 40113 80002 333 10355 59001 85073;EQDQ01  00002PRCP99
0159616300999992000122609004+15640-013250FM-12+0017GOSM V0209999C000010690019N0080001N1+02081+00931101441ADDGA1051+069009019GF105991001001999999001021MA1999999101251MD1999999+0021REMSYN076AAXX  26094 61630 42958 50000 10208 20093 30125 40144 80002 333 58002 85073;
0195616300999992000122612004+15640-013250FM-12+0017GOSM V0209999C000010690019N0080001N1+02961+01201101491ADDAA199000091GA1051+069009019GF105991001001999999001021MA1999999101301MD1999999+0081REMSYN082AAXX  26124 61630 32958 50000 10296 20120 30130 40149 80002 333 0//00 58008 85073;EQDQ01  00002PRCP99
0208616300999992000122618004+15640-013250FM-12+0017GOSM V0209999C000010690019N0100001N1+03201+01301101091ADDAA199000091GA1071+069009019GF107991001001999999001021KA1120M+03541MA1999999100901MD1999999-0041REMSYN082AAXX  26184 61630 32960 70000 10320 20130 30090 40109 80002 333 10354 59004 87073;EQDQ01  00002PRCP99
0189616300999992000122700004+15640-013250FM-12+0017GOSM V0209999C000012200019N0100001N1+02421+00991101401ADDAA199000091GA1041+069009019GF104991001001999999001021MA1999999101211MD1999999+0001REMSYN076AAXX  27004 61630 32960 40000 10242 20099 30121 40140 80002 333 58000 84073;EQDQ01  00002PRCP99
0233616300999992000122703004+15640-013250FM-12+0017GOSM V0209999C000012200019N0100001N1+01721+00721101391ADDAA199000091GF104991001001999999001021IA2240+01509KA1120N+01661MA1999999101201MD1999999+0061OA150300311REMSYN100AAXX  27034 61630 32960 40000 10172 20072 30120 40139 80002 333 01500 20166 50382 55060 58006 84073;EQDQ01  00002PRCP99
0159616300999992000122709004+15640-013250FM-12+0017GOSM V0209999C000010690019N0100001N1+01821+00721101481ADDGA1061+069009019GF106991001001999999001021MA1999999101291MD1999999+0031REMSYN076AAXX  27094 61630 42960 60000 10182 20072 30129 40148 80002 333 58003 86073;
0189616300999992000122712004+15640-013250FM-12+0017GOSM V0209999C000010690019N0100001N1+03191+01261101491ADDAA199000091GA1051+069009019GF105991001001999999001021MA1999999101301MD1999999+0001REMSYN076AAXX  27124 61630 32960 50000 10319 20126 30130 40149 80002 333 58000 85073;EQDQ01  00002PRCP99
0159616300999992000122715004+15640-013250FM-12+0017GOSM V0200801N001010690019N0120001N1+03561+01341101201ADDGA1061+069009019GF106991001001999999001021MA1999999101011MD1999999+0061REMSYN076AAXX  27154 61630 42962 60802 10356 20134 30101 40120 80002 333 58006 86073;
0208616300999992000122718004+15640-013250FM-12+0017GOSM V0209999C000010690019N0100001N1+03361+01311101251ADDAA199000091GA1071+069009019GF107991001001999999001021KA1120M+03631MA1999999101061MD1999999+0161REMSYN082AAXX  27184 61630 32960 70000 10336 20131 30106 40125 80002 333 10363 58016 87073;EQDQ01  00002PRCP99
0177616300999992000122800004+15640-013250FM-12+0017GOSM V0209999C000012200019N0100001N1+02281+00821101441ADDAA199000091GA1001+999999999GF100991001001999999001001MA1999999101251MD1999999+0041REMSYN064AAXX  28004 61630 32960 00000 10228 20082 30125 40144 333 58004;EQDQ01  00002PRCP99
0223616300999992000122806004+15640-013250FM-12+0017GOSM V0209999C000012200019N0100001N1+01631+00741101441ADDAA199000091GA1001+999999999GF100991001001999999001001IA2240+01409KA1120N+01531MA1999999101251OA150600311REMSYN088AAXX  28064 61630 32960 00000 10163 20074 30125 40144 333 01400 20153 50552 55067 58005;EQDQ01  00002PRCP99
0159616300999992000122809004+15640-013250FM-12+0017GOSM V0209999C000012200019N0120001N1+01921+00881101591ADDGA1031+069009019GF103991001001999999001021MA1999999101391MD1999999+0111REMSYN076AAXX  28094 61630 42962 30000 10192 20088 30139 40159 80002 333 58011 83073;
0189616300999992000122812004+15640-013250FM-12+0017GOSM V0201201N002110690019N0120001N1+03061+01021101621ADDAA199000091GA1051+069009019GF105991001001999999001021MA1999999101431MD1999999+0131REMSYN076AAXX  28124 61630 32962 51204 10306 20102 30143 40162 80002 333 58013 85073;EQDQ01  00002PRCP99
0159616300999992000122815004+15640-013250FM-12+0017GOSM V0209999C000010690019N0100001N1+03541+01521101271ADDGA1061+069009019GF106991001001999999001021MA1999999101081MD1999999+0071REMSYN076AAXX  28154 61630 42960 60000 10354 20152 30108 40127 80002 333 58007 86073;
0208616300999992000122818004+15640-013250FM-12+0017GOSM V0209999C000010690019N0100001N1+03281+01301101301ADDAA199000091GA1061+069009019GF106991001001999999001021KA1120M+03551MA1999999101111MD1999999+0051REMSYN082AAXX  28184 61630 32960 60000 10328 20130 30111 40130 80002 333 10355 58005 86073;EQDQ01  00002PRCP99
0147616300999992000122821004+15640-013250FM-12+0017GOSM V0209999C000012200019N0100001N1+02661+01081101401ADDGA1001+999999999GF100991001001999999001001MA1999999101211MD1999999+0021REMSYN064AAXX  28214 61630 42960 00000 10266 20108 30121 40140 333 58002;
0177616300999992000122900004+15640-013250FM-12+0017GOSM V0209999C000012200019N0100001N1+02441+01251101481ADDAA199000091GA1001+999999999GF100991001001999999001001MA1999999101291MD1999999+0041REMSYN064AAXX  29004 61630 32960 00000 10244 20125 30129 40148 333 58004;EQDQ01  00002PRCP99
0207616300999992000122906004+15640-013250FM-12+0017GOSM V0209999C000012200019N0100001N1+01701+99999999999ADDAA199000091GA1001+999999999GF100991001001999999001001IA2240+01309KA1120N+01581OA150600461REMSYN087AAXX  29064 61630 32960 00000 10170 2000 30124 40143 333 01300 20158 50632 55098 59001;EQDQ01  00002PRCP99
0159616300999992000122909004+15640-013250FM-12+0017GOSM V0209999C000012200019N0100001N1+02021+01081101571ADDGA1031+069009019GF103991001001999999001021MA1999999101381MD1999999-0011REMSYN076AAXX  29094 61630 42960 30000 10202 20108 30138 40157 80002 333 59001 83073;
0195616300999992000122912004+15640-013250FM-12+0017GOSM V0200801N002112200019N0100001N1+02961+01421101581ADDAA199000091GA1021+069009019GF102991001001999999001021MA1999999101391MD1999999-0041REMSYN082AAXX  29124 61630 32960 20804 10296 20142 30139 40158 80002 333 0//00 59004 82073;EQDQ01  00002PRCP99
0159616300999992000122915004+15640-013250FM-12+0017GOSM V0200801N001012200019N0100001N1+03451+01561101211ADDGA1021+069009019GF102991001001999999001021MA1999999101021MD1999999-0061REMSYN076AAXX  29154 61630 42960 20802 10345 20156 30102 40121 80002 333 59006 82073;
0208616300999992000122918004+15640-013250FM-12+0017GOSM V0209999C000010690019N0100001N1+03111+01411101171ADDAA199000091GA1061+069009019GF106991001001999999001021KA1120M+03511MA1999999100981MD1999999-0131REMSYN082AAXX  29184 61630 32960 60000 10311 20141 30098 40117 80002 333 10351 59013 86073;EQDQ01  00002PRCP99
0223616300999992000123006004+15640-013250FM-12+0017GOSM V0209999C000012200019N0100001N1+01501+00691101221ADDAA199000091GA1001+999999999GF100991001001999999001001IA2240+01309KA1120N+01411MA1999999101031OA150600461REMSYN088AAXX  30064 61630 32960 00000 10150 20069 30103 40122 333 01300 20141 50452 55096 59021;EQDQ01  00002PRCP99
0147616300999992000123009004+15640-013250FM-12+0017GOSM V0209999C000012200019N0100001N1+01801+01021101361ADDGA1001+999999999GF100991001001999999001001MA1999999101161MD1999999-0221REMSYN064AAXX  30094 61630 42960 00000 10180 20102 30116 40136 333 59022;
0189616300999992000123012004+15640-013250FM-12+0017GOSM V0201001N001012200019N0100001N1+03081+01241101321ADDAA199000091GA1031+069009019GF103991001001999999001021MA1999999101131MD1999999-0261REMSYN076AAXX  30124 61630 32960 31002 10308 20124 30113 40132 80002 333 59026 83073;EQDQ01  00002PRCP99
0159616300999992000123015004+15640-013250FM-12+0017GOSM V0209999C000010690019N0120001N1+03541+01521101101ADDGA1051+069009019GF105991001001999999001021MA1999999100911MD1999999-0111REMSYN076AAXX  30154 61630 42962 50000 10354 20152 30091 40110 80002 333 59011 85073;
0208616300999992000123018004+15640-013250FM-12+0017GOSM V0209999C000010690019N0100001N1+03401+01441100961ADDAA199000091GA1051+069009019GF105991001001999999001021KA1120M+03611MA1999999100771MD1999999-0221REMSYN082AAXX  30184 61630 31960 50000 10340 20144 30077 40096 80002 333 10361 59022 85073;EQDQ01  00002PRCP99
0147616300999992000123109004+15640-013250FM-12+0017GOSM V0209999C000012200019N0120001N1+01921+00921101291ADDGA1001+999999999GF100991001001999999001001MA1999999101091MD1999999-0071REMSYN064AAXX  31094 61630 42962 00000 10192 20092 30109 40129 333 59007;
0177616300999992000123112004+15640-013250FM-12+0017GOSM V0201401N002112200019N0120001N1+03121+01201101241ADDAA199000091GA1001+999999999GF100991001001999999001001MA1999999101051MD1999999-0081REMSYN064AAXX  31124 61630 32962 01404 10312 20120 30105 40124 333 59008;EQDQ01  00002PRCP99
0147616300999992000123115004+15640-013250FM-12+0017GOSM V0209999C000012200019N0100001N1+03481+01471100931ADDGA1001+999999999GF100991001001999999001001MA1999999100741MD1999999-0171REMSYN064AAXX  31154 61630 42960 00000 10348 20147 30074 40093 333 59017;
0196616300999992000123118004+15640-013250FM-12+0017GOSM V0209999C000012200019N0100001N1+03421+01471100901ADDAA199000091GA1001+999999999GF100991001001999999001001KA1120M+03651MA1999999100711MD1999999-0061REMSYN070AAXX  31184 61630 32960 00000 10342 20147 30071 40090 333 10365 59006;EQDQ01  00002PRCP99
0147616300999992000123121004+15640-013250FM-12+0017GOSM V0209999C000012200019N0100001N1+02501+01221101211ADDGA1001+999999999GF100991001001999999001001MA1999999101011MD1999999-0091REMSYN064AAXX  31214 61630 42960 00000 10250 20122 30101 40121 333 59009;
