0147619840999992000041103004-21330+055480FM-15+0053FMEP V0200901N003612200019N0112651N1+02401+01501999999ADDGA1021+006309999GF102991999999999999999999MA1101591999999MW1001REMMET053FMEP 110300Z 09007KT 040V150 9999 FEW021 24/15 Q1016;EQDQ01+000000PRSWM2
0147619840999992000041104004-21330+055480FM-15+0053FMEP V0201201N002612200019N0112651N1+02601+01401999999ADDGA1021+006309999GF102991999999999999999999MA1101591999999MW1001REMMET053FMEP 110400Z 12005KT 010V160 9999 FEW021 26/14 Q1016;EQDQ01+000000PRSWM2
0139619840999992000041105004-21330+055480FM-15+0053FMEP V0201301N008712200019N0112651N1+02701+01901999999ADDGA1021+006309999GF102991999999999999999999MA1101591999999MW1001REMMET045FMEP 110500Z 13017KT 9999 FEW021 27/19 Q1016;EQDQ01+000000PRSWM2
0139619840999992000041106004-21330+055480FM-15+0053FMEP V0201301N010312200019N0112651N1+02801+02001999999ADDGA1021+006309999GF102991999999999999999999MA1101591999999MW1001REMMET045FMEP 110600Z 13020KT 9999 FEW021 28/20 Q1016;EQDQ01+000000PRSWM2
0142619840999992000041107004-21330+055480FM-15+0053FMEP V0201401N010812200019N0112651N1+02801+02001999999ADDGA1021+006309029GF102991999999999999999999MA1101591999999MW1001REMMET048FMEP 110700Z 14021KT 9999 FEW021TCU 28/20 Q1016;EQDQ01+000000PRSWM2
0139619840999992000041110004-21330+055480FM-15+0053FMEP V0201401N011312200019N0112651N1+02901+02101999999ADDGA1021+007509999GF102991999999999999999999MA1101391999999MW1001REMMET045FMEP 111000Z 14022KT 9999 FEW025 29/21 Q1014;EQDQ01+000000PRSWM2
0139619840999992000041111004-21330+055480FM-15+0053FMEP V0201401N010812200019N0112651N1+02801+02001999999ADDGA1021+007509999GF102991999999999999999999MA1101391999999MW1001REMMET045FMEP 111100Z 14021KT 9999 FEW025 28/20 Q1014;EQDQ01+000000PRSWM2
0139619840999992000041112004-21330+055480FM-15+0053FMEP V0201401N010312200019N0112651N1+02801+02001999999ADDGA1021+007509999GF102991999999999999999999MA1101391999999MW1001REMMET045FMEP 111200Z 14020KT 9999 FEW025 28/20 Q1014;EQDQ01+000000PRSWM2
0139619840999992000041113004-21330+055480FM-15+0053FMEP V0201301N010312200019N0112651N1+02701+02001999999ADDGA1021+007509999GF102991999999999999999999MA1101391999999MW1001REMMET045FMEP 111300Z 13020KT 9999 FEW025 27/20 Q1014;EQDQ01+000000PRSWM2
0139619840999992000041203004-21330+055480FM-15+0053FMEP V0200601N003612200019N0112651N1+02101+01201999999ADDGA1021+007509999GF102991999999999999999999MA1101591999999MW1001REMMET045FMEP 120300Z 06007KT 9999 FEW025 21/12 Q1016;EQDQ01+000000PRSWM2
0139619840999992000041204004-21330+055480FM-15+0053FMEP V0200901N001512200019N0112651N1+02501+01601999999ADDGA1021+007509999GF102991999999999999999999MA1101691999999MW1001REMMET045FMEP 120400Z 09003KT 9999 FEW025 25/16 Q1017;EQDQ01+000000PRSWM2
0139619840999992000041205004-21330+055480FM-15+0053FMEP V0201301N006212200019N0112651N1+02701+02001999999ADDGA1021+006909999GF102991999999999999999999MA1101691999999MW1001REMMET045FMEP 120500Z 13012KT 9999 FEW023 27/20 Q1017;EQDQ01+000000PRSWM2
0139619840999992000041206004-21330+055480FM-15+0053FMEP V0201301N008712200019N0112651N1+02801+02101999999ADDGA1021+006909999GF102991999999999999999999MA1101691999999MW1001REMMET045FMEP 120600Z 13017KT 9999 FEW023 28/21 Q1017;EQDQ01+000000PRSWM2
0139619840999992000041207004-21330+055480FM-15+0053FMEP V0201401N009812200019N0112651N1+02801+02101999999ADDGA1021+007809999GF102991999999999999999999MA1101591999999MW1001REMMET045FMEP 120700Z 14019KT 9999 FEW026 28/21 Q1016;EQDQ01+000000PRSWM2
0139619840999992000041208004-21330+055480FM-15+0053FMEP V0201401N009812200019N0112651N1+02901+02101999999ADDGA1021+007809999GF102991999999999999999999MA1101491999999MW1001REMMET045FMEP 120800Z 14019KT 9999 FEW026 29/21 Q1015;EQDQ01+000000PRSWM2
0139619840999992000041210004-21330+055480FM-15+0053FMEP V0201301N009812200019N0112651N1+02901+02101999999ADDGA1021+006009999GF102991999999999999999999MA1101391999999MW1001REMMET045FMEP 121000Z 13019KT 9999 FEW020 29/21 Q1014;EQDQ01+000000PRSWM2
0162619840999992000041211004-21330+055480FM-15+0053FMEP V0201401N009812200019N0112651N1+02801+02101999999ADDGA1021+006009999GA2021+018009999GF104991999999999999999999MA1101391999999MW1001REMMET052FMEP 121100Z 14019KT 9999 FEW020 SCT063 28/21 Q1014;EQDQ01+000000PRSWM2
0186619840999992000041212004-21330+055480FM-15+0053FMEP V0201301N008210180019N0112651N1+02701+02101999999ADDGA1021+005409029GA2071+018009999GF107991999999999999999999MA1101391999999MW1161REMMET060FMEP 121200Z 13016KT 9999 VCSH SCT018TCU BKN060 27/21 Q1014;EQDQ01+000003PRSWM1Q02    003PRSWM1
0162619840999992000041213004-21330+055480FM-15+0053FMEP V0201401N008710180019N0112651N1+02701+02201999999ADDGA1021+003909999GA2071+018009999GF107991999999999999999999MA1101391999999MW1001REMMET052FMEP 121300Z 14017KT 9999 SCT013 BKN061 27/22 Q1014;EQDQ01+000000PRSWM2
0139619840999992000041303004-21330+055480FM-15+0053FMEP V0200601N003112200019N0112651N1+02301+01701999999ADDGA1021+003909999GF102991999999999999999999MA1101491999999MW1001REMMET045FMEP 130300Z 06006KT 9999 FEW013 23/17 Q1015;EQDQ01+000000PRSWM2
0139619840999992000041304004-21330+055480FM-15+0053FMEP V0200201N002112200019N0112651N1+02501+01901999999ADDGA1021+004809999GF102991999999999999999999MA1101591999999MW1001REMMET045FMEP 130400Z 02004KT 9999 FEW016 25/19 Q1016;EQDQ01+000000PRSWM2
0147619840999992000041305004-21330+055480FM-15+0053FMEP V0201401N002112200019N0112651N1+02801+01901999999ADDGA1021+006009999GF102991999999999999999999MA1101591999999MW1001REMMET053FMEP 130500Z 14004KT 340V160 9999 FEW020 28/19 Q1016;EQDQ01+000000PRSWM2
0139619840999992000041306004-21330+055480FM-15+0053FMEP V0201401N006712200019N0112651N1+02801+02101999999ADDGA1021+006009999GF102991999999999999999999MA1101591999999MW1001REMMET045FMEP 130600Z 14013KT 9999 FEW020 28/21 Q1016;EQDQ01+000000PRSWM2
0139619840999992000041307004-21330+055480FM-15+0053FMEP V0201301N008712200019N0112651N1+02901+02201999999ADDGA1021+006009999GF102991999999999999999999MA1101491999999MW1001REMMET045FMEP 130700Z 13017KT 9999 FEW020 29/22 Q1015;EQDQ01+000000PRSWM2
0139619840999992000041308004-21330+055480FM-15+0053FMEP V0201301N009812200019N0112651N1+02901+02201999999ADDGA1021+007509999GF102991999999999999999999MA1101391999999MW1001REMMET045FMEP 130800Z 13019KT 9999 FEW025 29/22 Q1014;EQDQ01+000000PRSWM2
0139619840999992000041309004-21330+055480FM-15+0053FMEP V0201401N009312200019N0112651N1+02901+02101999999ADDGA1021+006009999GF102991999999999999999999MA1101391999999MW1001REMMET045FMEP 130900Z 14018KT 9999 FEW020 29/21 Q1014;EQDQ01+000000PRSWM2
0139619840999992000041310004-21330+055480FM-15+0053FMEP V0201401N009812200019N0112651N1+02901+02101999999ADDGA1021+006009999GF102991999999999999999999MA1101291999999MW1001REMMET045FMEP 131000Z 14019KT 9999 FEW020 29/21 Q1013;EQDQ01+000000PRSWM2
0139619840999992000041311004-21330+055480FM-15+0053FMEP V0201401N009812200019N0112651N1+02801+02101999999ADDGA1021+006909999GF102991999999999999999999MA1101191999999MW1001REMMET045FMEP 131100Z 14019KT 9999 FEW023 28/21 Q1012;EQDQ01+000000PRSWM2
0162619840999992000041312004-21330+055480FM-15+0053FMEP V0201401N008212200019N0112651N1+02701+02101999999ADDGA1021+006909999GA2021+045009999GF104991999999999999999999MA1101291999999MW1001REMMET052FMEP 131200Z 14016KT 9999 FEW023 SCT150 27/21 Q1013;EQDQ01+000000PRSWM2
0162619840999992000041313004-21330+055480FM-15+0053FMEP V0201401N009312200019N0112651N1+02701+02101999999ADDGA1021+006909999GA2021+045009999GF104991999999999999999999MA1101191999999MW1001REMMET052FMEP 131300Z 14018KT 9999 FEW023 SCT150 27/21 Q1012;EQDQ01+000000PRSWM2
0186619840999992000041403004-21330+055480FM-15+0053FMEP V0201001N001510210019N0112651N1+02301+01901999999ADDGA1021+004509029GA2071+021009999GF107991999999999999999999MA1101191999999MW1161REMMET060FMEP 140300Z 10003KT 9999 VCSH FEW015TCU BKN070 23/19 Q1012;EQDQ01+000003PRSWM1Q02    003PRSWM1
0139619840999992000041404004-21330+055480FM-15+0053FMEP V0200301N000512200019N0112651N1+02501+01701999999ADDGA1021+006309999GF102991999999999999999999MA1101291999999MW1001REMMET045FMEP 140400Z 03001KT 9999 FEW021 25/17 Q1013;EQDQ01+000000PRSWM2
0162619840999992000041405004-21330+055480FM-15+0053FMEP V0202101N002610150019N0112651N1+02601+02201999999ADDGA1021+006309999GA2071+015009999GF107991999999999999999999MA1101291999999MW1001REMMET052FMEP 140500Z 21005KT 9999 FEW021 BKN050 26/22 Q1013;EQDQ01+000000PRSWM2
0162619840999992000041406004-21330+055480FM-15+0053FMEP V0201901N003612200019N0112651N1+02701+02301999999ADDGA1021+006309999GA2021+013509999GF104991999999999999999999MA1101291999999MW1001REMMET052FMEP 140600Z 19007KT 9999 FEW021 SCT045 27/23 Q1013;EQDQ01+000000PRSWM2
0150619840999992000041408004-21330+055480FM-15+0053FMEP V0202101N002612200019N0112651N1+02801+02301999999ADDGA1021+006009029GF102991999999999999999999MA1101291999999MW1001REMMET056FMEP 140800Z 21005KT 170V240 9999 FEW020TCU 28/23 Q1013;EQDQ01+000000PRSWM2
0165619840999992000041409004-21330+055480FM-15+0053FMEP V0202001N003112200019N0112651N1+02901+02301999999ADDGA1021+006009029GA2021+015009999GF104991999999999999999999MA1101191999999MW1001REMMET055FMEP 140900Z 20006KT 9999 FEW020TCU SCT050 29/23 Q1012;EQDQ01+000000PRSWM2
0170619840999992000041410004-21330+055480FM-15+0053FMEP V0202501N003112200019N0112651N1+02801+02101999999ADDGA1021+006009999GA2021+014409999GF104991999999999999999999MA1101081999999MW1001REMMET060FMEP 141000Z 25006KT 210V300 9999 FEW020 SCT048 28/21 Q1011;EQDQ01+000000PRSWM2
0162619840999992000041411004-21330+055480FM-15+0053FMEP V0202501N003612200019N0112651N1+02901+02201999999ADDGA1021+006009999GA2021+014409999GF104991999999999999999999MA1101081999999MW1001REMMET052FMEP 141100Z 25007KT 9999 FEW020 SCT048 29/22 Q1011;EQDQ01+000000PRSWM2
0139619840999992000041413004-21330+055480FM-15+0053FMEP V0202901N006712200019N0112651N1+02801+02301999999ADDGA1021+006309999GF102991999999999999999999MA1101081999999MW1001REMMET045FMEP 141300Z 29013KT 9999 FEW021 28/23 Q1011;EQDQ01+000000PRSWM2
0162619840999992000041503004-21330+055480FM-15+0053FMEP V0200301N002112200019N0112651N1+02401+02101999999ADDGA1021+006309999GA2021+015009999GF104991999999999999999999MA1101291999999MW1001REMMET052FMEP 150300Z 03004KT 9999 FEW021 SCT050 24/21 Q1013;EQDQ01+000000PRSWM2
0147619840999992000041504004-21330+055480FM-15+0053FMEP V0200201N002112200019N0112651N1+02701+02101999999ADDGA1021+006309999GF102991999999999999999999MA1101391999999MW1001REMMET053FMEP 150400Z 02004KT 340V050 9999 FEW021 27/21 Q1014;EQDQ01+000000PRSWM2
0147619840999992000041505004-21330+055480FM-15+0053FMEP V0202601N002112200019N0112651N1+02801+02201999999ADDGA1021+006309999GF102991999999999999999999MA1101391999999MW1001REMMET053FMEP 150500Z 26004KT 220V290 9999 FEW021 28/22 Q1014;EQDQ01+000000PRSWM2
0147619840999992000041506004-21330+055480FM-15+0053FMEP V0202501N002612200019N0112651N1+02901+02301999999ADDGA1021+006309999GF102991999999999999999999MA1101491999999MW1001REMMET053FMEP 150600Z 25005KT 200V290 9999 FEW021 29/23 Q1015;EQDQ01+000000PRSWM2
0170619840999992000041507004-21330+055480FM-15+0053FMEP V0202501N002612200019N0112651N1+02801+02301999999ADDGA1021+006309999GA2021+015009999GF104991999999999999999999MA1101491999999MW1001REMMET060FMEP 150700Z 25005KT 220V290 9999 FEW021 SCT050 28/23 Q1015;EQDQ01+000000PRSWM2
0162619840999992000041508004-21330+055480FM-15+0053FMEP V0202201N003612200019N0112651N1+02901+02301999999ADDGA1021+006309999GA2021+015009999GF104991999999999999999999MA1101391999999MW1001REMMET052FMEP 150800Z 22007KT 9999 FEW021 SCT050 29/23 Q1014;EQDQ01+000000PRSWM2
0162619840999992000041509004-21330+055480FM-15+0053FMEP V0202201N003112200019N0112651N1+02801+02301999999ADDGA1021+006309999GA2021+015009999GF104991999999999999999999MA1101391999999MW1001REMMET052FMEP 150900Z 22006KT 9999 FEW021 SCT050 28/23 Q1014;EQDQ01+000000PRSWM2
0162619840999992000041510004-21330+055480FM-15+0053FMEP V0202101N002612200019N0112651N1+02801+02301999999ADDGA1021+006309999GA2021+015009999GF104991999999999999999999MA1101291999999MW1001REMMET052FMEP 151000Z 21005KT 9999 FEW021 SCT050 28/23 Q1013;EQDQ01+000000PRSWM2
0162619840999992000041511004-21330+055480FM-15+0053FMEP V0202101N002610150019N0112651N1+02801+02301999999ADDGA1021+006309999GA2071+015009999GF107991999999999999999999MA1101291999999MW1001REMMET052FMEP 151100Z 21005KT 9999 FEW021 BKN050 28/23 Q1013;EQDQ01+000000PRSWM2
0162619840999992000041512004-21330+055480FM-15+0053FMEP V0201901N001510180019N0112651N1+02701+02301999999ADDGA1021+007509999GA2071+018009999GF107991999999999999999999MA1101291999999MW1001REMMET052FMEP 151200Z 19003KT 9999 FEW025 BKN060 27/23 Q1013;EQDQ01+000000PRSWM2
0183619840999992000041513004-21330+055480FM-15+0053FMEP V0200101N002110180019N0050001N1+02601+02301999999ADDGA1021+007509999GA2071+018009999GF107991999999999999999999MA1101291999999MW1161REMMET057FMEP 151300Z 01004KT 5000 VCSH FEW025 BKN060 26/23 Q1013;EQDQ01+000003PRSWM1Q02    003PRSWM1
0139619840999992000041603004-21330+055480FM-15+0053FMEP V0200301N003612200019N0112651N1+02301+01901999999ADDGA1021+006309999GF102991999999999999999999MA1101591999999MW1001REMMET045FMEP 160300Z 03007KT 9999 FEW021 23/19 Q1016;EQDQ01+000000PRSWM2
0162619840999992000041604004-21330+055480FM-15+0053FMEP V0200401N003612200019N0112651N1+02501+01901999999ADDGA1021+006309999GA2021+015009999GF104991999999999999999999MA1101591999999MW1001REMMET052FMEP 160400Z 04007KT 9999 FEW021 SCT050 25/19 Q1016;EQDQ01+000000PRSWM2
0139619840999992000041605004-21330+055480FM-15+0053FMEP V0200201N001512200019N0112651N1+02901+02101999999ADDGA1021+006309999GF102991999999999999999999MA1101691999999MW1001REMMET045FMEP 160500Z 02003KT 9999 FEW021 29/21 Q1017;EQDQ01+000000PRSWM2
0147619840999992000041606004-21330+055480FM-15+0053FMEP V0202601N002612200019N0112651N1+02801+02201999999ADDGA1021+006309999GF102991999999999999999999MA1101691999999MW1001REMMET053FMEP 160600Z 26005KT 220V290 9999 FEW021 28/22 Q1017;EQDQ01+000000PRSWM2
0147619840999992000041607004-21330+055480FM-15+0053FMEP V0202301N002612200019N0112651N1+02901+02201999999ADDGA1021+006309999GF102991999999999999999999MA1101591999999MW1001REMMET053FMEP 160700Z 23005KT 190V260 9999 FEW021 29/22 Q1016;EQDQ01+000000PRSWM2
0139619840999992000041608004-21330+055480FM-15+0053FMEP V0202001N002612200019N0112651N1+02901+02201999999ADDGA1021+007509999GF102991999999999999999999MA1101591999999MW1001REMMET045FMEP 160800Z 20005KT 9999 FEW025 29/22 Q1016;EQDQ01+000000PRSWM2
0139619840999992000041609004-21330+055480FM-15+0053FMEP V0201901N003112200019N0112651N1+02901+02201999999ADDGA1021+007509999GF102991999999999999999999MA1101491999999MW1001REMMET045FMEP 160900Z 19006KT 9999 FEW025 29/22 Q1015;EQDQ01+000000PRSWM2
0147619840999992000041611004-21330+055480FM-15+0053FMEP V0201901N002612200019N0112651N1+02901+02201999999ADDGA1021+007509999GF102991999999999999999999MA1101491999999MW1001REMMET053FMEP 161100Z 19005KT 150V220 9999 FEW025 29/22 Q1015;EQDQ01+000000PRSWM2
0139619840999992000041612004-21330+055480FM-15+0053FMEP V0201901N002612200019N0112651N1+02901+02201999999ADDGA1021+007509999GF102991999999999999999999MA1101491999999MW1001REMMET045FMEP 161200Z 19005KT 9999 FEW025 29/22 Q1015;EQDQ01+000000PRSWM2
0170619840999992000041613004-21330+055480FM-15+0053FMEP V0201801N002112200019N0112651N1+02801+02101999999ADDGA1021+007509999GA2021+018009999GF104991999999999999999999MA1101491999999MW1001REMMET060FMEP 161300Z 18004KT 150V220 9999 FEW025 SCT066 28/21 Q1015;EQDQ01+000000PRSWM2
0139619840999992000041703004-21330+055480FM-15+0053FMEP V0200901N001512200019N0112651N1+02201+01701999999ADDGA1021+010809999GF102991999999999999999999MA1101591999999MW1001REMMET045FMEP 170300Z 09003KT 9999 FEW036 22/17 Q1016;EQDQ01+000000PRSWM2
0139619840999992000041704004-21330+055480FM-15+0053FMEP V0200401N001512200019N0112651N1+02501+01801999999ADDGA1021+010809999GF102991999999999999999999MA1101591999999MW1001REMMET045FMEP 170400Z 04003KT 9999 FEW036 25/18 Q1016;EQDQ01+000000PRSWM2
0139619840999992000041705004-21330+055480FM-15+0053FMEP V0201401N005112200019N0112651N1+02701+02001999999ADDGA1021+012009999GF102991999999999999999999MA1101591999999MW1001REMMET045FMEP 170500Z 14010KT 9999 FEW040 27/20 Q1016;EQDQ01+000000PRSWM2
0139619840999992000041706004-21330+055480FM-15+0053FMEP V0201301N008212200019N0112651N1+02801+02101999999ADDGA1021+012009999GF102991999999999999999999MA1101591999999MW1001REMMET045FMEP 170600Z 13016KT 9999 FEW040 28/21 Q1016;EQDQ01+000000PRSWM2
0139619840999992000041707004-21330+055480FM-15+0053FMEP V0201401N009312200019N0112651N1+02901+02101999999ADDGA1021+012909999GF102991999999999999999999MA1101591999999MW1001REMMET045FMEP 170700Z 14018KT 9999 FEW043 29/21 Q1016;EQDQ01+000000PRSWM2
0139619840999992000041708004-21330+055480FM-15+0053FMEP V0201301N009312200019N0112651N1+02901+02101999999ADDGA1021+010809999GF102991999999999999999999MA1101491999999MW1001REMMET045FMEP 170800Z 13018KT 9999 FEW036 29/21 Q1015;EQDQ01+000000PRSWM2
0139619840999992000041709004-21330+055480FM-15+0053FMEP V0201401N009812200019N0112651N1+02901+02101999999ADDGA1021+009909999GF102991999999999999999999MA1101391999999MW1001REMMET045FMEP 170900Z 14019KT 9999 FEW033 29/21 Q1014;EQDQ01+000000PRSWM2
0150619840999992000041710004-21330+055480FM-15+0053FMEP V0201301N009812200019N0112651N1+02901+02001999999ADDGA1021+009309999GF102991999999999999999999MA1101391999999MW1001OC101491REMMET048FMEP 171000Z 13019G29KT 9999 FEW031 29/20 Q1014;EQDQ01+000000PRSWM2
0139619840999992000041711004-21330+055480FM-15+0053FMEP V0201401N009812200019N0112651N1+02901+02101999999ADDGA1021+009309999GF102991999999999999999999MA1101291999999MW1001REMMET045FMEP 171100Z 14019KT 9999 FEW031 29/21 Q1013;EQDQ01+000000PRSWM2
0162619840999992000041712004-21330+055480FM-15+0053FMEP V0201301N009312200019N0112651N1+02801+02101999999ADDGA1021+009909999GA2021+090009999GF104991999999999999999999MA1101391999999MW1001REMMET052FMEP 171200Z 13018KT 9999 FEW033 SCT330 28/21 Q1014;EQDQ01+000000PRSWM2
0139619840999992000041713004-21330+055480FM-15+0053FMEP V0201301N008712200019N0112651N1+02701+02101999999ADDGA1021+009909999GF102991999999999999999999MA1101391999999MW1001REMMET045FMEP 171300Z 13017KT 9999 FEW033 27/21 Q1014;EQDQ01+000000PRSWM2
0139619840999992000041803004-21330+055480FM-15+0053FMEP V0200401N003112200019N0112651N1+02101+01701999999ADDGA1021+004809999GF102991999999999999999999MA1101491999999MW1001REMMET045FMEP 180300Z 04006KT 9999 FEW016 21/17 Q1015;EQDQ01+000000PRSWM2
0139619840999992000041804004-21330+055480FM-15+0053FMEP V0200201N001512200019N0112651N1+02501+01801999999ADDGA1021+004509999GF102991999999999999999999MA1101591999999MW1001REMMET045FMEP 180400Z 02003KT 9999 FEW015 25/18 Q1016;EQDQ01+000000PRSWM2
0139619840999992000041805004-21330+055480FM-15+0053FMEP V02099999999992200019N0112651N1+02701+01901999999ADDGA1021+003909999GF102991999999999999999999MA1101491999999MW1001REMMET045FMEP 180500Z VRB02KT 9999 FEW013 27/19 Q1015;EQDQ01+000000PRSWM2
0139619840999992000041806004-21330+055480FM-15+0053FMEP V0201601N003612200019N0112651N1+02801+02101999999ADDGA1021+004809999GF102991999999999999999999MA1101491999999MW1001REMMET045FMEP 180600Z 16007KT 9999 FEW016 28/21 Q1015;EQDQ01+000000PRSWM2
0139619840999992000041807004-21330+055480FM-15+0053FMEP V0201401N005112200019N0112651N1+02901+02101999999ADDGA1021+004809999GF102991999999999999999999MA1101391999999MW1001REMMET045FMEP 180700Z 14010KT 9999 FEW016 29/21 Q1014;EQDQ01+000000PRSWM2
0147619840999992000041808004-21330+055480FM-15+0053FMEP V0201501N004612200019N0112651N1+02901+02101999999ADDGA1021+004809999GF102991999999999999999999MA1101391999999MW1001REMMET053FMEP 180800Z 15009KT 100V180 9999 FEW016 29/21 Q1014;EQDQ01+000000PRSWM2
0147619840999992000041809004-21330+055480FM-15+0053FMEP V0201701N003612200019N0112651N1+02901+02101999999ADDGA1021+004809999GF102991999999999999999999MA1101291999999MW1001REMMET053FMEP 180900Z 17007KT 130V200 9999 FEW016 29/21 Q1013;EQDQ01+000000PRSWM2
0139619840999992000041810004-21330+055480FM-15+0053FMEP V0201501N004612200019N0112651N1+02901+02101999999ADDGA1021+006009999GF102991999999999999999999MA1101291999999MW1001REMMET045FMEP 181000Z 15009KT 9999 FEW020 29/21 Q1013;EQDQ01+000000PRSWM2
0162619840999992000041811004-21330+055480FM-15+0053FMEP V0201401N007212200019N0112651N1+02901+02101999999ADDGA1021+006009999GA2021+015009999GF104991999999999999999999MA1101291999999MW1001REMMET052FMEP 181100Z 14014KT 9999 FEW020 SCT050 29/21 Q1013;EQDQ01+000000PRSWM2
0139619840999992000041812004-21330+055480FM-15+0053FMEP V0201301N007212200019N0112651N1+02801+02101999999ADDGA1021+006009999GF102991999999999999999999MA1101291999999MW1001REMMET045FMEP 181200Z 13014KT 9999 FEW020 28/21 Q1013;EQDQ01+000000PRSWM2
0139619840999992000041813004-21330+055480FM-15+0053FMEP V0201301N007212200019N0112651N1+02701+02101999999ADDGA1021+015009999GF102991999999999999999999MA1101391999999MW1001REMMET045FMEP 181300Z 13014KT 9999 FEW050 27/21 Q1014;EQDQ01+000000PRSWM2
0139619840999992000041903004-21330+055480FM-15+0053FMEP V0200501N003112200019N0112651N1+02101+01701999999ADDGA1021+006309999GF102991999999999999999999MA1101491999999MW1001REMMET045FMEP 190300Z 05006KT 9999 FEW021 21/17 Q1015;EQDQ01+000000PRSWM2
0139619840999992000041904004-21330+055480FM-15+0053FMEP V0200301N001512200019N0112651N1+02501+01701999999ADDGA1021+006309999GF102991999999999999999999MA1101491999999MW1001REMMET045FMEP 190400Z 03003KT 9999 FEW021 25/17 Q1015;EQDQ01+000000PRSWM2
0139619840999992000041905004-21330+055480FM-15+0053FMEP V0200101N001012200019N0112651N1+02801+01901999999ADDGA1021+006309999GF102991999999999999999999MA1101491999999MW1001REMMET045FMEP 190500Z 01002KT 9999 FEW021 28/19 Q1015;EQDQ01+000000PRSWM2
0147619840999992000041906004-21330+055480FM-15+0053FMEP V0201801N002112200019N0112651N1+02801+01901999999ADDGA1021+006309999GF102991999999999999999999MA1101491999999MW1001REMMET053FMEP 190600Z 18004KT 130V220 9999 FEW021 28/19 Q1015;EQDQ01+000000PRSWM2
0147619840999992000041907004-21330+055480FM-15+0053FMEP V0202501N003612200019N0112651N1+02801+01901999999ADDGA1021+006309999GF102991999999999999999999MA1101391999999MW1001REMMET053FMEP 190700Z 25007KT 220V300 9999 FEW021 28/19 Q1014;EQDQ01+000000PRSWM2
0139619840999992000041908004-21330+055480FM-15+0053FMEP V0202601N003612200019N0112651N1+02901+01801999999ADDGA1021+006309999GF102991999999999999999999MA1101291999999MW1001REMMET045FMEP 190800Z 26007KT 9999 FEW021 29/18 Q1013;EQDQ01+000000PRSWM2
0139619840999992000041909004-21330+055480FM-15+0053FMEP V0202601N004112200019N0112651N1+02901+01901999999ADDGA1021+006309999GF102991999999999999999999MA1101291999999MW1001REMMET045FMEP 190900Z 26008KT 9999 FEW021 29/19 Q1013;EQDQ01+000000PRSWM2
0139619840999992000041910004-21330+055480FM-15+0053FMEP V0202401N003612200019N0112651N1+03001+02001999999ADDGA1021+007509999GF102991999999999999999999MA1101291999999MW1001REMMET045FMEP 191000Z 24007KT 9999 FEW025 30/20 Q1013;EQDQ01+000000PRSWM2
0139619840999992000041911004-21330+055480FM-15+0053FMEP V0202401N003112200019N0112651N1+02901+02001999999ADDGA1021+007509999GF102991999999999999999999MA1101291999999MW1001REMMET045FMEP 191100Z 24006KT 9999 FEW025 29/20 Q1013;EQDQ01+000000PRSWM2
0170619840999992000041912004-21330+055480FM-15+0053FMEP V0201901N002612200019N0112651N1+02801+02001999999ADDGA1021+007509999GA2021+018009999GF104991999999999999999999MA1101391999999MW1001REMMET060FMEP 191200Z 19005KT 150V220 9999 FEW025 SCT060 28/20 Q1014;EQDQ01+000000PRSWM2
0162619840999992000041913004-21330+055480FM-15+0053FMEP V0201401N005112200019N0112651N1+02701+02101999999ADDGA1021+007509999GA2021+018009999GF104991999999999999999999MA1101391999999MW1001REMMET052FMEP 191300Z 14010KT 9999 FEW025 SCT060 27/21 Q1014;EQDQ01+000000PRSWM2
0139619840999992000042003004-21330+055480FM-15+0053FMEP V0200401N003112200019N0112651N1+02001+01401999999ADDGA1021+012909999GF102991999999999999999999MA1101391999999MW1001REMMET045FMEP 200300Z 04006KT 9999 FEW043 20/14 Q1014;EQDQ01+000000PRSWM2
0139619840999992000042004004-21330+055480FM-15+0053FMEP V0200401N002612200019N0112651N1+02401+01501999999ADDGA1021+012009999GF102991999999999999999999MA1101391999999MW1001REMMET045FMEP 200400Z 04005KT 9999 FEW040 24/15 Q1014;EQDQ01+000000PRSWM2
0139619840999992000042005004-21330+055480FM-15+0053FMEP V02099999999992200019N0112651N1+02701+01701999999ADDGA1021+012009999GF102991999999999999999999MA1101491999999MW1001REMMET045FMEP 200500Z VRB01KT 9999 FEW040 27/17 Q1015;EQDQ01+000000PRSWM2
0147619840999992000042006004-21330+055480FM-15+0053FMEP V0201901N002112200019N0112651N1+02701+02001999999ADDGA1021+012009999GF102991999999999999999999MA1101491999999MW1001REMMET053FMEP 200600Z 19004KT 140V240 9999 FEW040 27/20 Q1015;EQDQ01+000000PRSWM2
0139619840999992000042007004-21330+055480FM-15+0053FMEP V0202101N002612200019N0112651N1+02701+01901999999ADDGA1021+010809999GF102991999999999999999999MA1101491999999MW1001REMMET045FMEP 200700Z 21005KT 9999 FEW036 27/19 Q1015;EQDQ01+000000PRSWM2
0147619840999992000042008004-21330+055480FM-15+0053FMEP V0202001N002612200019N0112651N1+02801+01901999999ADDGA1021+010809999GF102991999999999999999999MA1101391999999MW1001REMMET053FMEP 200800Z 20005KT 160V240 9999 FEW036 28/19 Q1014;EQDQ01+000000PRSWM2
0147619840999992000042009004-21330+055480FM-15+0053FMEP V0201801N003112200019N0112651N1+02801+01801999999ADDGA1021+010809999GF102991999999999999999999MA1101291999999MW1001REMMET053FMEP 200900Z 18006KT 140V210 9999 FEW036 28/18 Q1013;EQDQ01+000000PRSWM2
0162619840999992000042010004-21330+055480FM-15+0053FMEP V0201701N004612200019N0112651N1+02901+02101999999ADDGA1021+007809999GA2021+015009999GF104991999999999999999999MA1101291999999MW1001REMMET052FMEP 201000Z 17009KT 9999 FEW026 SCT050 29/21 Q1013;EQDQ01+000000PRSWM2
0139619840999992000042011004-21330+055480FM-15+0053FMEP V0201301N003612200019N0112651N1+02801+02001999999ADDGA1021+006909999GF102991999999999999999999MA1101291999999MW1001REMMET045FMEP 201100Z 13007KT 9999 FEW023 28/20 Q1013;EQDQ01+000000PRSWM2
0139619840999992000042012004-21330+055480FM-15+0053FMEP V0201601N004112200019N0112651N1+02801+02101999999ADDGA1021+012009999GF102991999999999999999999MA1101191999999MW1001REMMET045FMEP 201200Z 16008KT 9999 FEW040 28/21 Q1012;EQDQ01+000000PRSWM2
0162619840999992000042013004-21330+055480FM-15+0053FMEP V0201601N003112200019N0112651N1+02701+02101999999ADDGA1021+005409999GA2021+012909999GF104991999999999999999999MA1101191999999MW1001REMMET052FMEP 201300Z 16006KT 9999 FEW018 SCT043 27/21 Q1012;EQDQ01+000000PRSWM2
0139619840999992000042103004-21330+055480FM-15+0053FMEP V0200401N003612200019N0112651N1+02101+01501999999ADDGA1021+006309999GF102991999999999999999999MA1101391999999MW1001REMMET045FMEP 210300Z 04007KT 9999 FEW021 21/15 Q1014;EQDQ01+000000PRSWM2
0139619840999992000042104004-21330+055480FM-15+0053FMEP V0200501N001512200019N0112651N1+02501+01601999999ADDGA1021+006309999GF102991999999999999999999MA1101391999999MW1001REMMET045FMEP 210400Z 05003KT 9999 FEW021 25/16 Q1014;EQDQ01+000000PRSWM2
0139619840999992000042105004-21330+055480FM-15+0053FMEP V0201501N002612200019N0112651N1+02701+01901999999ADDGA1021+006309999GF102991999999999999999999MA1101391999999MW1001REMMET045FMEP 210500Z 15005KT 9999 FEW021 27/19 Q1014;EQDQ01+000000PRSWM2
0139619840999992000042106004-21330+055480FM-15+0053FMEP V0201501N005712200019N0112651N1+02801+02001999999ADDGA1021+015009999GF102991999999999999999999MA1101391999999MW1001REMMET045FMEP 210600Z 15011KT 9999 FEW050 28/20 Q1014;EQDQ01+000000PRSWM2
0139619840999992000042107004-21330+055480FM-15+0053FMEP V0201601N006212200019N0112651N1+02901+02101999999ADDGA1021+015009999GF102991999999999999999999MA1101391999999MW1001REMMET045FMEP 210700Z 16012KT 9999 FEW050 29/21 Q1014;EQDQ01+000000PRSWM2
0139619840999992000042108004-21330+055480FM-15+0053FMEP V0201501N005712200019N0112651N1+02901+02001999999ADDGA1021+015009999GF102991999999999999999999MA1101391999999MW1001REMMET045FMEP 210800Z 15011KT 9999 FEW050 29/20 Q1014;EQDQ01+000000PRSWM2
0139619840999992000042109004-21330+055480FM-15+0053FMEP V0201601N005112200019N0112651N1+02901+02001999999ADDGA1021+006309999GF102991999999999999999999MA1101291999999MW1001REMMET045FMEP 210900Z 16010KT 9999 FEW021 29/20 Q1013;EQDQ01+000000PRSWM2
0139619840999992000042110004-21330+055480FM-15+0053FMEP V0201601N005112200019N0112651N1+02901+02101999999ADDGA1021+006309999GF102991999999999999999999MA1101291999999MW1001REMMET045FMEP 211000Z 16010KT 9999 FEW021 29/21 Q1013;EQDQ01+000000PRSWM2
0139619840999992000042112004-21330+055480FM-15+0053FMEP V0201501N005112200019N0112651N1+02801+02101999999ADDGA1021+006309999GF102991999999999999999999MA1101291999999MW1001REMMET045FMEP 211200Z 15010KT 9999 FEW021 28/21 Q1013;EQDQ01+000000PRSWM2
0139619840999992000042113004-21330+055480FM-15+0053FMEP V0201401N004612200019N0112651N1+02701+02101999999ADDGA1021+006309999GF102991999999999999999999MA1101291999999MW1001REMMET045FMEP 211300Z 14009KT 9999 FEW021 27/21 Q1013;EQDQ01+000000PRSWM2
0162619840999992000042203004-21330+055480FM-15+0053FMEP V0200501N003112200019N0112651N1+02101+01501999999ADDGA1021+006309999GA2021+060009999GF104991999999999999999999MA1101391999999MW1001REMMET052FMEP 220300Z 05006KT 9999 FEW021 SCT200 21/15 Q1014;EQDQ01+000000PRSWM2
0162619840999992000042204004-21330+055480FM-15+0053FMEP V0200901N002612200019N0112651N1+02601+01701999999ADDGA1021+006309999GA2021+060009999GF104991999999999999999999MA1101491999999MW1001REMMET052FMEP 220400Z 09005KT 9999 FEW021 SCT200 26/17 Q1015;EQDQ01+000000PRSWM2
0142619840999992000042206004-21330+055480FM-15+0053FMEP V0201301N006212200019N0112651N1+02801+02101999999ADDGA1021+006309029GF102991999999999999999999MA1101591999999MW1001REMMET048FMEP 220600Z 13012KT 9999 FEW021TCU 28/21 Q1016;EQDQ01+000000PRSWM2
0142619840999992000042207004-21330+055480FM-15+0053FMEP V0201401N006712200019N0112651N1+02901+02101999999ADDGA1021+006309029GF102991999999999999999999MA1101491999999MW1001REMMET048FMEP 220700Z 14013KT 9999 FEW021TCU 29/21 Q1015;EQDQ01+000000PRSWM2
0142619840999992000042208004-21330+055480FM-15+0053FMEP V0201601N007212200019N0112651N1+02901+02201999999ADDGA1021+006309029GF102991999999999999999999MA1101391999999MW1001REMMET048FMEP 220800Z 16014KT 9999 FEW021TCU 29/22 Q1014;EQDQ01+000000PRSWM2
0139619840999992000042209004-21330+055480FM-15+0053FMEP V0201401N007712200019N0112651N1+02901+02101999999ADDGA1021+006309999GF102991999999999999999999MA1101391999999MW1001REMMET045FMEP 220900Z 14015KT 9999 FEW021 29/21 Q1014;EQDQ01+000000PRSWM2
0142619840999992000042211004-21330+055480FM-15+0053FMEP V0201501N007712200019N0112651N1+02801+02201999999ADDGA1021+007509029GF102991999999999999999999MA1101291999999MW1001REMMET048FMEP 221100Z 15015KT 9999 FEW025TCU 28/22 Q1013;EQDQ01+000000PRSWM2
0139619840999992000042213004-21330+055480FM-15+0053FMEP V0201401N007712200019N0112651N1+02701+02101999999ADDGA1021+007509999GF102991999999999999999999MA1101391999999MW1001REMMET045FMEP 221300Z 14015KT 9999 FEW025 27/21 Q1014;EQDQ01+000000PRSWM2
0162619840999992000042303004-21330+055480FM-15+0053FMEP V0200401N003112200019N0112651N1+02101+01701999999ADDGA1021+010809999GA2021+090009999GF104991999999999999999999MA1101491999999MW1001REMMET052FMEP 230300Z 04006KT 9999 FEW036 SCT310 21/17 Q1015;EQDQ01+000000PRSWM2
0162619840999992000042304004-21330+055480FM-15+0053FMEP V0200201N002110900019N0112651N1+02501+01801999999ADDGA1021+010809999GA2071+090009999GF107991999999999999999999MA1101591999999MW1001REMMET052FMEP 230400Z 02004KT 9999 FEW036 BKN310 25/18 Q1016;EQDQ01+000000PRSWM2
0170619840999992000042305004-21330+055480FM-15+0053FMEP V0201801N002110900019N0112651N1+02801+01801999999ADDGA1021+010809999GA2071+090009999GF107991999999999999999999MA1101591999999MW1001REMMET060FMEP 230500Z 18004KT 150V250 9999 FEW036 BKN330 28/18 Q1016;EQDQ01+000000PRSWM2
0162619840999992000042306004-21330+055480FM-15+0053FMEP V0201401N004110900019N0112651N1+02901+02001999999ADDGA1021+012009999GA2071+090009999GF107991999999999999999999MA1101591999999MW1001REMMET052FMEP 230600Z 14008KT 9999 FEW040 BKN330 29/20 Q1016;EQDQ01+000000PRSWM2
0170619840999992000042307004-21330+055480FM-15+0053FMEP V0201801N003610900019N0112651N1+02901+02001999999ADDGA1021+009009999GA2071+090009999GF107991999999999999999999MA1101591999999MW1001REMMET060FMEP 230700Z 18007KT 100V220 9999 FEW030 BKN330 29/20 Q1016;EQDQ01+000000PRSWM2
0170619840999992000042308004-21330+055480FM-15+0053FMEP V0201401N007710900019N0112651N1+02901+02201999999ADDGA1021+008409999GA2071+090009999GF107991999999999999999999MA1101491999999MW1001REMMET060FMEP 230800Z 14015KT 110V180 9999 FEW028 BKN330 29/22 Q1015;EQDQ01+000000PRSWM2
0162619840999992000042310004-21330+055480FM-15+0053FMEP V0201401N009812200019N0112651N1+02901+02301999999ADDGA1021+007809999GA2021+090009999GF104991999999999999999999MA1101391999999MW1001REMMET052FMEP 231000Z 14019KT 9999 FEW026 SCT330 29/23 Q1014;EQDQ01+000000PRSWM2
0162619840999992000042311004-21330+055480FM-15+0053FMEP V0201301N010812200019N0112651N1+02901+02301999999ADDGA1021+006309999GA2021+090009999GF104991999999999999999999MA1101391999999MW1001REMMET052FMEP 231100Z 13021KT 9999 FEW021 SCT330 29/23 Q1014;EQDQ01+000000PRSWM2
0162619840999992000042312004-21330+055480FM-15+0053FMEP V0201301N009812200019N0112651N1+02801+02301999999ADDGA1021+007809999GA2021+090009999GF104991999999999999999999MA1101391999999MW1001REMMET052FMEP 231200Z 13019KT 9999 FEW026 SCT330 28/23 Q1014;EQDQ01+000000PRSWM2
0186619840999992000042313004-21330+055480FM-15+0053FMEP V0201201N008712200019N0112651N1+02801+02201999999ADDGA1021+008409029GA2021+090009999GF104991999999999999999999MA1101491999999MW1161REMMET060FMEP 231300Z 12017KT 9999 VCSH SCT028TCU SCT330 28/22 Q1015;EQDQ01+000003PRSWM1Q02    003PRSWM1
0162619840999992000042403004-21330+055480FM-15+0053FMEP V0201001N004612200019N0112651N1+02301+01901999999ADDGA1021+006309999GA2021+060009999GF104991999999999999999999MA1101491999999MW1001REMMET052FMEP 240300Z 10009KT 9999 FEW021 SCT200 23/19 Q1015;EQDQ01+000000PRSWM2
0170619840999992000042404004-21330+055480FM-15+0053FMEP V0200601N003112200019N0112651N1+02601+02101999999ADDGA1021+006309999GA2021+060009999GF104991999999999999999999MA1101491999999MW1001REMMET060FMEP 240400Z 06006KT 030V120 9999 FEW021 SCT200 26/21 Q1015;EQDQ01+000000PRSWM2
0162619840999992000042405004-21330+055480FM-15+0053FMEP V0201201N002112200019N0112651N1+02701+02001999999ADDGA1021+006309999GA2021+018009999GF104991999999999999999999MA1101491999999MW1001REMMET052FMEP 240500Z 12004KT 9999 FEW021 SCT066 27/20 Q1015;EQDQ01+000000PRSWM2
0162619840999992000042406004-21330+055480FM-15+0053FMEP V0203301N003112200019N0112651N1+02801+02101999999ADDGA1021+006309999GA2021+018009999GF104991999999999999999999MA1101591999999MW1001REMMET052FMEP 240600Z 33006KT 9999 FEW021 SCT066 28/21 Q1016;EQDQ01+000000PRSWM2
0162619840999992000042407004-21330+055480FM-15+0053FMEP V0203101N005712200019N0112651N1+02901+02101999999ADDGA1021+006309999GA2021+060009999GF104991999999999999999999MA1101491999999MW1001REMMET052FMEP 240700Z 31011KT 9999 FEW021 SCT200 29/21 Q1015;EQDQ01+000000PRSWM2
0170619840999992000042408004-21330+055480FM-15+0053FMEP V0202701N002612200019N0112651N1+02901+02201999999ADDGA1021+006309999GA2021+060009999GF104991999999999999999999MA1101591999999MW1001REMMET060FMEP 240800Z 27005KT 220V330 9999 FEW021 SCT200 29/22 Q1016;EQDQ01+000000PRSWM2
0162619840999992000042409004-21330+055480FM-15+0053FMEP V0202401N005710150019N0112651N1+02801+02301999999ADDGA1021+006309999GA2071+015009999GF107991999999999999999999MA1101491999999MW1001REMMET052FMEP 240900Z 24011KT 9999 FEW021 BKN050 28/23 Q1015;EQDQ01+000000PRSWM2
0162619840999992000042411004-21330+055480FM-15+0053FMEP V0202801N001010180019N0112651N1+02701+02201999999ADDGA1021+007509999GA2071+018009999GF107991999999999999999999MA1101491999999MW1001REMMET052FMEP 241100Z 28002KT 9999 FEW025 BKN060 27/22 Q1015;EQDQ01+000000PRSWM2
0162619840999992000042503004-21330+055480FM-15+0053FMEP V0200201N003112200019N0112651N1+02401+02001999999ADDGA1021+003909999GA2021+015009999GF104991999999999999999999MA1101591999999MW1001REMMET052FMEP 250300Z 02006KT 9999 FEW013 SCT056 24/20 Q1016;EQDQ01+000000PRSWM2
0185619840999992000042504004-21330+055480FM-15+0053FMEP V0200201N001510390019N0112651N1+02801+02101999999ADDGA1021+003909999GA2021+015009999GA3071+039009999GF107991999999999999999999MA1101591999999MW1001REMMET059FMEP 250400Z 02003KT 9999 FEW013 SCT056 BKN130 28/21 Q1016;EQDQ01+000000PRSWM2
0185619840999992000042505004-21330+055480FM-15+0053FMEP V02099999999990390019N0112651N1+02801+02001999999ADDGA1021+003909999GA2021+015009999GA3071+039009999GF107991999999999999999999MA1101691999999MW1001REMMET059FMEP 250500Z VRB01KT 9999 FEW013 SCT056 BKN130 28/20 Q1017;EQDQ01+000000PRSWM2
0162619840999992000042506004-21330+055480FM-15+0053FMEP V0201401N001010180019N0112651N1+02801+02201999999ADDGA1021+004809999GA2071+018009999GF107991999999999999999999MA1101591999999MW1001REMMET052FMEP 250600Z 14002KT 9999 FEW016 BKN060 28/22 Q1016;EQDQ01+000000PRSWM2
0192619840999992000042508004-21330+055480FM-15+0053FMEP V0202201N002610480019N0112651N1+99999+99999999999ADDGA1021+009009999GA2021+018009999GA3071+048009999GF107991999999999999999999MW1001REMMET081FMEP 250800Z 22005KT 180V270 9999 FEW030 SCT060 BKN160 9999 FEW030 SCT060 BKN160;EQDQ01+000000PRSWM2
0192619840999992000042509004-21330+055480FM-15+0053FMEP V0202401N002610480019N0112651N1+99999+99999999999ADDGA1021+007809999GA2021+018009999GA3071+048009999GF107991999999999999999999MW1001REMMET081FMEP 250900Z 24005KT 210V280 9999 SCT026 SCT060 BKN160 9999 SCT026 SCT060 BKN160;EQDQ01+000000PRSWM2
0192619840999992000042510004-21330+055480FM-15+0053FMEP V0202401N002110480019N0112651N1+99999+99999999999ADDGA1021+007809999GA2021+018009999GA3071+048009999GF107991999999999999999999MW1001REMMET081FMEP 251000Z 24004KT 200V280 9999 FEW026 SCT060 BKN160 9999 FEW026 SCT060 BKN160;EQDQ01+000000PRSWM2
0185619840999992000042511004-21330+055480FM-15+0053FMEP V0202901N001010150019N0112651N1+02801+02201999999ADDGA1021+003909999GA2071+015009999GA3071+054009999GF107991999999999999999999MA1101591999999MW1001REMMET059FMEP 251100Z 29002KT 9999 FEW013 BKN053 BKN180 28/22 Q1016;EQDQ01+000000PRSWM2
0212619840999992000042512004-21330+055480FM-15+0053FMEP V0200301N001510510019N0112651N1+02701+02401999999ADDGA1021+003909999GA2021+018009999GA3071+051009999GF107991999999999999999999MW1631REMMET085FMEP 251200Z 03003KT 9999 RA FEW013 SCT060 BKN170 27/24 9999 RA FEW013 SCT060 BKN170;EQDQ01+000003PRSWM1Q02    003PRSWM1
0185619840999992000042513004-21330+055480FM-15+0053FMEP V0200801N001510180019N0112651N1+02701+02301999999ADDGA1021+003909999GA2071+018009999GA3071+057009999GF107991999999999999999999MA1101591999999MW1001REMMET059FMEP 251300Z 08003KT 9999 FEW013 BKN060 BKN190 27/23 Q1016;EQDQ01+000000PRSWM2
0142619840999992000042603004-21330+055480FM-15+0053FMEP V0201101N002112200019N0112651N1+02301+01901999999ADDGA1021+010809029GF102991999999999999999999MA1101691999999MW1001REMMET048FMEP 260300Z 11004KT 9999 FEW036TCU 23/19 Q1017;EQDQ01+000000PRSWM2
0162619840999992000042604004-21330+055480FM-15+0053FMEP V0200101N003112200019N0112651N1+02501+01901999999ADDGA1021+010809999GA2021+120009999GF104991999999999999999999MA1101691999999MW1001REMMET052FMEP 260400Z 01006KT 9999 FEW036 SCT400 25/19 Q1017;EQDQ01+000000PRSWM2
0139619840999992000042605004-21330+055480FM-15+0053FMEP V0203001N003112200019N0112651N1+02801+02001999999ADDGA1021+010809999GF102991999999999999999999MA1101691999999MW1001REMMET045FMEP 260500Z 30006KT 9999 FEW036 28/20 Q1017;EQDQ01+000000PRSWM2
0170619840999992000042606004-21330+055480FM-15+0053FMEP V0202701N003112200019N0112651N1+02901+02101999999ADDGA1021+009309999GA2021+048009999GF104991999999999999999999MA1101691999999MW1001REMMET060FMEP 260600Z 27006KT 240V310 9999 FEW031 SCT160 29/21 Q1017;EQDQ01+000000PRSWM2
0162619840999992000042607004-21330+055480FM-15+0053FMEP V0202401N002612200019N0112651N1+02901+02201999999ADDGA1021+009309999GA2021+090009999GF104991999999999999999999MA1101691999999MW1001REMMET052FMEP 260700Z 24005KT 9999 FEW031 SCT310 29/22 Q1017;EQDQ01+000000PRSWM2
0162619840999992000042608004-21330+055480FM-15+0053FMEP V0202401N003612200019N0112651N1+02901+02201999999ADDGA1021+008409999GA2021+090009999GF104991999999999999999999MA1101591999999MW1001REMMET052FMEP 260800Z 24007KT 9999 FEW028 SCT310 29/22 Q1016;EQDQ01+000000PRSWM2
0165619840999992000042609004-21330+055480FM-15+0053FMEP V0202401N003112200019N0112651N1+02901+02201999999ADDGA1021+008409029GA2021+090009999GF104991999999999999999999MA1101591999999MW1001REMMET055FMEP 260900Z 24006KT 9999 FEW028TCU SCT310 29/22 Q1016;EQDQ01+000000PRSWM2
0174619840999992000042610004-21330+055480FM-15+0053FMEP V0202401N003112200019N0112651N1+03001+02201999999ADDGA1021+006909029GA2021+090009999GF104991999999999999999999MW1001REMMET079FMEP 261000Z 24006KT 200V270 9999 FEW023TCU SCT310 30/22 9999 FEW023TCU SCT310;EQDQ01+000000PRSWM2
0196619840999992000042611004-21330+055480FM-15+0053FMEP V0202101N003110480019N0112651N1+02901+02201999999ADDGA1021+006909029GA2021+015009999GA3071+048009999GF107991999999999999999999MW1001REMMET085FMEP 261100Z 21006KT 9999 FEW023TCU SCT056 BKN160 29/22 9999 FEW023TCU SCT056 BKN160;EQDQ01+000000PRSWM2
0198619840999992000042612004-21330+055480FM-15+0053FMEP V0201801N002610480019N0112651N1+99999+99999999999ADDGA1021+005409029GA2021+015009999GA3071+048009999GF107991999999999999999999MW1001REMMET087FMEP 261200Z 18005KT 130V200 9999 FEW018TCU SCT050 BKN160 9999 FEW018TCU SCT050 BKN160;EQDQ01+000000PRSWM2
0172619840999992000042613004-21330+055480FM-15+0053FMEP V0202301N003110480019N0112651N1+99999+99999999999ADDGA1021+003909029GA2021+012909999GA3071+048009999GF107991999999999999999999MW1001MW2161REMMET055FMEP 261300Z 23006KT 9999 VCSH FEW013TCU SCT043 BKN160;EQDQ01+000003PRSWM1
0186619840999992000042703004-21330+055480FM-15+0053FMEP V0200401N003112200019N0112651N1+02301+01901999999ADDGA1021+003909029GA2021+015009999GF104991999999999999999999MA1101691999999MW1161REMMET060FMEP 270300Z 04006KT 9999 VCSH FEW013TCU SCT050 23/19 Q1017;EQDQ01+000003PRSWM1Q02    003PRSWM1
0139619840999992000042704004-21330+055480FM-15+0053FMEP V0200401N003112200019N0112651N1+02501+01901999999ADDGA1021+003909999GF102991999999999999999999MA1101801999999MW1001REMMET045FMEP 270400Z 04006KT 9999 FEW013 25/19 Q1018;EQDQ01+000000PRSWM2
0139619840999992000042705004-21330+055480FM-15+0053FMEP V0200501N001512200019N0112651N1+02801+02101999999ADDGA1021+003909999GF102991999999999999999999MA1101801999999MW1001REMMET045FMEP 270500Z 05003KT 9999 FEW013 28/21 Q1018;EQDQ01+000000PRSWM2
0139619840999992000042707004-21330+055480FM-15+0053FMEP V0201401N006712200019N0112651N1+02901+02201999999ADDGA1021+003909999GF102991999999999999999999MA1101691999999MW1001REMMET045FMEP 270700Z 14013KT 9999 FEW013 29/22 Q1017;EQDQ01+000000PRSWM2
0139619840999992000042708004-21330+055480FM-15+0053FMEP V0201301N008212200019N0112651N1+02901+02201999999ADDGA1021+003909999GF102991999999999999999999MA1101691999999MW1001REMMET045FMEP 270800Z 13016KT 9999 FEW013 29/22 Q1017;EQDQ01+000000PRSWM2
0139619840999992000042709004-21330+055480FM-15+0053FMEP V0201401N007712200019N0112651N1+02901+02201999999ADDGA1021+009909999GF102991999999999999999999MA1101591999999MW1001REMMET045FMEP 270900Z 14015KT 9999 FEW033 29/22 Q1016;EQDQ01+000000PRSWM2
0139619840999992000042710004-21330+055480FM-15+0053FMEP V0201401N009312200019N0112651N1+02901+02101999999ADDGA1021+009909999GF102991999999999999999999MA1101591999999MW1001REMMET045FMEP 271000Z 14018KT 9999 FEW033 29/21 Q1016;EQDQ01+000000PRSWM2
0139619840999992000042711004-21330+055480FM-15+0053FMEP V0201401N009312200019N0112651N1+02901+02201999999ADDGA1021+012009999GF102991999999999999999999MA1101491999999MW1001REMMET045FMEP 271100Z 14018KT 9999 FEW040 29/22 Q1015;EQDQ01+000000PRSWM2
0139619840999992000042712004-21330+055480FM-15+0053FMEP V0201401N010312200019N0112651N1+02801+02201999999ADDGA1021+010809999GF102991999999999999999999MA1101491999999MW1001REMMET045FMEP 271200Z 14020KT 9999 FEW036 28/22 Q1015;EQDQ01+000000PRSWM2
0139619840999992000042713004-21330+055480FM-15+0053FMEP V0201301N008712200019N0112651N1+02701+02101999999ADDGA1021+009909999GF102991999999999999999999MA1101591999999MW1001REMMET045FMEP 271300Z 13017KT 9999 FEW033 27/21 Q1016;EQDQ01+000000PRSWM2
0139619840999992000042803004-21330+055480FM-15+0053FMEP V0200401N003612200019N0112651N1+02201+01701999999ADDGA1021+009309999GF102991999999999999999999MA1101801999999MW1001REMMET045FMEP 280300Z 04007KT 9999 FEW031 22/17 Q1018;EQDQ01+000000PRSWM2
0139619840999992000042804004-21330+055480FM-15+0053FMEP V0200501N002612200019N0112651N1+02501+01701999999ADDGA1021+004509999GF102991999999999999999999MA1101801999999MW1001REMMET045FMEP 280400Z 05005KT 9999 FEW015 25/17 Q1018;EQDQ01+000000PRSWM2
0139619840999992000042805004-21330+055480FM-15+0053FMEP V0201101N001512200019N0112651N1+02701+02101999999ADDGA1021+004509999GF102991999999999999999999MA1101801999999MW1001REMMET045FMEP 280500Z 11003KT 9999 FEW015 27/21 Q1018;EQDQ01+000000PRSWM2
0139619840999992000042806004-21330+055480FM-15+0053FMEP V0201401N004612200019N0112651N1+02801+02101999999ADDGA1021+004809999GF102991999999999999999999MA1101801999999MW1001REMMET045FMEP 280600Z 14009KT 9999 FEW016 28/21 Q1018;EQDQ01+000000PRSWM2
0147619840999992000042807004-21330+055480FM-15+0053FMEP V0201701N002612200019N0112651N1+02801+02101999999ADDGA1021+010809999GF102991999999999999999999MA1101801999999MW1001REMMET053FMEP 280700Z 17005KT 100V230 9999 FEW036 28/21 Q1018;EQDQ01+000000PRSWM2
0139619840999992000042808004-21330+055480FM-15+0053FMEP V0201901N004112200019N0112651N1+02901+02001999999ADDGA1021+011409999GF102991999999999999999999MA1101691999999MW1001REMMET045FMEP 280800Z 19008KT 9999 FEW038 29/20 Q1017;EQDQ01+000000PRSWM2
0162619840999992000042809004-21330+055480FM-15+0053FMEP V0201801N004612200019N0112651N1+02901+02101999999ADDGA1021+009009999GA2021+018009999GF104991999999999999999999MA1101591999999MW1001REMMET052FMEP 280900Z 18009KT 9999 FEW030 SCT060 29/21 Q1016;EQDQ01+000000PRSWM2
0162619840999992000042810004-21330+055480FM-15+0053FMEP V0202201N004610129019N0112651N1+02801+02201999999ADDGA1021+008409999GA2071+012909999GF107991999999999999999999MA1101591999999MW1001REMMET052FMEP 281000Z 22009KT 9999 SCT028 BKN043 28/22 Q1016;EQDQ01+000000PRSWM2
0170619840999992000042811004-21330+055480FM-15+0053FMEP V0203001N002110120019N0112651N1+02801+02101999999ADDGA1021+006909999GA2071+012009999GF107991999999999999999999MA1101591999999MW1001REMMET060FMEP 281100Z 30004KT 230V350 9999 SCT023 BKN040 28/21 Q1016;EQDQ01+000000PRSWM2
0162619840999992000042812004-21330+055480FM-15+0053FMEP V0202101N001510150019N0112651N1+02801+02101999999ADDGA1021+008409999GA2071+015009999GF107991999999999999999999MA1101591999999MW1001REMMET052FMEP 281200Z 21003KT 9999 SCT028 BKN050 28/21 Q1016;EQDQ01+000000PRSWM2
0170619840999992000042813004-21330+055480FM-15+0053FMEP V0201501N003110180019N0112651N1+02701+02101999999ADDGA1021+006909999GA2071+018009999GF107991999999999999999999MA1101591999999MW1001REMMET060FMEP 281300Z 15006KT 110V210 9999 SCT023 BKN060 27/21 Q1016;EQDQ01+000000PRSWM2
0139619840999992000042903004-21330+055480FM-15+0053FMEP V0200401N003612200019N0112651N1+02201+01701999999ADDGA1021+012009999GF102991999999999999999999MA1101691999999MW1001REMMET045FMEP 290300Z 04007KT 9999 FEW040 22/17 Q1017;EQDQ01+000000PRSWM2
0139619840999992000042904004-21330+055480FM-15+0053FMEP V0200401N003112200019N0112651N1+02401+01701999999ADDGA1021+012009999GF102991999999999999999999MA1101801999999MW1001REMMET045FMEP 290400Z 04006KT 9999 FEW040 24/17 Q1018;EQDQ01+000000PRSWM2
0147619840999992000042905004-21330+055480FM-15+0053FMEP V0201601N002112200019N0112651N1+02701+01901999999ADDGA1021+004809999GF102991999999999999999999MA1101691999999MW1001REMMET053FMEP 290500Z 16004KT 120V190 9999 FEW016 27/19 Q1017;EQDQ01+000000PRSWM2
0147619840999992000042906004-21330+055480FM-15+0053FMEP V0201501N004112200019N0112651N1+02801+02001999999ADDGA1021+006009999GF102991999999999999999999MA1101691999999MW1001REMMET053FMEP 290600Z 15008KT 110V190 9999 FEW020 28/20 Q1017;EQDQ01+000000PRSWM2
0139619840999992000042907004-21330+055480FM-15+0053FMEP V0201401N005112200019N0112651N1+02801+02101999999ADDGA1021+009309999GF102991999999999999999999MA1101691999999MW1001REMMET045FMEP 290700Z 14010KT 9999 FEW031 28/21 Q1017;EQDQ01+000000PRSWM2
0139619840999992000042908004-21330+055480FM-15+0053FMEP V0201401N006212200019N0112651N1+02901+02101999999ADDGA1021+009309999GF102991999999999999999999MA1101591999999MW1001REMMET045FMEP 290800Z 14012KT 9999 FEW031 29/21 Q1016;EQDQ01+000000PRSWM2
0139619840999992000042909004-21330+055480FM-15+0053FMEP V0201401N007212200019N0112651N1+02901+02101999999ADDGA1021+009309999GF102991999999999999999999MA1101591999999MW1001REMMET045FMEP 290900Z 14014KT 9999 FEW031 29/21 Q1016;EQDQ01+000000PRSWM2
0162619840999992000042910004-21330+055480FM-15+0053FMEP V0201401N006712200019N0112651N1+02801+02101999999ADDGA1021+007509999GA2021+018009999GF104991999999999999999999MA1101491999999MW1001REMMET052FMEP 291000Z 14013KT 9999 FEW025 SCT060 28/21 Q1015;EQDQ01+000000PRSWM2
0162619840999992000042911004-21330+055480FM-15+0053FMEP V0201501N005110150019N0112651N1+02801+02101999999ADDGA1021+006909999GA2071+015009999GF107991999999999999999999MA1101491999999MW1001REMMET052FMEP 291100Z 15010KT 9999 SCT023 BKN050 28/21 Q1015;EQDQ01+000000PRSWM2
0162619840999992000042912004-21330+055480FM-15+0053FMEP V0201501N005110150019N0112651N1+02701+02101999999ADDGA1021+006909999GA2071+015009999GF107991999999999999999999MA1101491999999MW1001REMMET052FMEP 291200Z 15010KT 9999 FEW023 BKN053 27/21 Q1015;EQDQ01+000000PRSWM2
0162619840999992000042913004-21330+055480FM-15+0053FMEP V0201301N004610150019N0112651N1+02701+02101999999ADDGA1021+005409999GA2071+015009999GF107991999999999999999999MA1101591999999MW1001REMMET052FMEP 291300Z 13009KT 9999 SCT018 BKN053 27/21 Q1016;EQDQ01+000000PRSWM2
0139619840999992000043003004-21330+055480FM-15+0053FMEP V0200401N003612200019N0112651N1+02101+01701999999ADDGA1021+006309999GF102991999999999999999999MA1101591999999MW1001REMMET045FMEP 300300Z 04007KT 9999 FEW021 21/17 Q1016;EQDQ01+000000PRSWM2
0139619840999992000043004004-21330+055480FM-15+0053FMEP V0200401N003112200019N0112651N1+02401+01801999999ADDGA1021+006309999GF102991999999999999999999MA1101591999999MW1001REMMET045FMEP 300400Z 04006KT 9999 FEW021 24/18 Q1016;EQDQ01+000000PRSWM2
0139619840999992000043005004-21330+055480FM-15+0053FMEP V0201801N002612200019N0112651N1+02701+02001999999ADDGA1021+006309999GF102991999999999999999999MA1101691999999MW1001REMMET045FMEP 300500Z 18005KT 9999 FEW021 27/20 Q1017;EQDQ01+000000PRSWM2
0150619840999992000043006004-21330+055480FM-15+0053FMEP V0201501N002612200019N0112651N1+02701+02001999999ADDGA1021+006309029GF102991999999999999999999MA1101691999999MW1001REMMET056FMEP 300600Z 15005KT 120V200 9999 FEW021TCU 27/20 Q1017;EQDQ01+000000PRSWM2
0142619840999992000043007004-21330+055480FM-15+0053FMEP V0201601N003612200019N0112651N1+02801+02001999999ADDGA1021+006309029GF102991999999999999999999MA1101591999999MW1001REMMET048FMEP 300700Z 16007KT 9999 FEW021TCU 28/20 Q1016;EQDQ01+000000PRSWM2
0142619840999992000043008004-21330+055480FM-15+0053FMEP V0201601N005112200019N0112651N1+02801+02101999999ADDGA1021+006309029GF102991999999999999999999MA1101491999999MW1001REMMET048FMEP 300800Z 16010KT 9999 FEW021TCU 28/21 Q1015;EQDQ01+000000PRSWM2
0142619840999992000043009004-21330+055480FM-15+0053FMEP V0201501N006212200019N0112651N1+02901+02101999999ADDGA1021+007509029GF102991999999999999999999MA1101491999999MW1001REMMET048FMEP 300900Z 15012KT 9999 FEW025TCU 29/21 Q1015;EQDQ01+000000PRSWM2
0142619840999992000043010004-21330+055480FM-15+0053FMEP V0201401N005712200019N0112651N1+02901+02101999999ADDGA1021+007509029GF102991999999999999999999MA1101391999999MW1001REMMET048FMEP 301000Z 14011KT 9999 FEW025TCU 29/21 Q1014;EQDQ01+000000PRSWM2
0142619840999992000043011004-21330+055480FM-15+0053FMEP V0201401N005112200019N0112651N1+02801+02201999999ADDGA1021+007509029GF102991999999999999999999MA1101391999999MW1001REMMET048FMEP 301100Z 14010KT 9999 FEW025TCU 28/22 Q1014;EQDQ01+000000PRSWM2
0142619840999992000043012004-21330+055480FM-15+0053FMEP V0201501N005112200019N0112651N1+02801+02101999999ADDGA1021+007509029GF102991999999999999999999MA1101391999999MW1001REMMET048FMEP 301200Z 15010KT 9999 FEW025TCU 28/21 Q1014;EQDQ01+000000PRSWM2
0142619840999992000043013004-21330+055480FM-15+0053FMEP V0201401N005112200019N0112651N1+02701+02101999999ADDGA1021+007509029GF102991999999999999999999MA1101491999999MW1001REMMET048FMEP 301300Z 14010KT 9999 FEW025TCU 27/21 Q1015;EQDQ01+000000PRSWM2
0139619840999992000050103004-21330+055480FM-15+0053FMEP V0200401N003612200019N0112651N1+02101+01701999999ADDGA1021+006309999GF102991999999999999999999MA1101591999999MW1001REMMET045FMEP 300300Z 04007KT 9999 FEW021 21/17 Q1016;EQDQ01+000000PRSWM2
0220619840999992000050104004-21330+055480FM-15+0053FMEP V0201201N006210090019N0060001N1+02201+02101999999ADDGA1021+000909999GA2021+003009029GA3081+009009999GF108991999999999999999999MW1611REMMET093FMEP 010400Z 12012KT 6000 -RA FEW003 SCT010TCU OVC030 22/21 6000 -RA FEW003 SCT010TCU OVC030;EQDQ01+000003PRSWM1Q02    003PRSWM1
0220619840999992000050105004-21330+055480FM-15+0053FMEP V0201501N009810078019N0040001N1+02301+02201999999ADDGA1021+000909999GA2021+003009029GA3071+007809999GF107991999999999999999999MW1611REMMET093FMEP 010500Z 15019KT 4000 -RA SCT003 SCT010TCU BKN026 23/22 4000 -RA SCT003 SCT010TCU BKN026;EQDQ01+000003PRSWM1Q02    003PRSWM1
0220619840999992000050106004-21330+055480FM-15+0053FMEP V0201401N009310084019N0030001N1+02201+02101999999ADDGA1021+000909999GA2021+003009029GA3071+008409999GF107991999999999999999999MW1611REMMET093FMEP 010600Z 14018KT 3000 -RA SCT003 SCT010TCU BKN028 22/21 3000 -RA SCT003 SCT010TCU BKN028;EQDQ01+000003PRSWM1Q02    003PRSWM1
0220619840999992000050108004-21330+055480FM-15+0053FMEP V0201401N008710060019N0050001N1+02301+02101999999ADDGA1021+000909999GA2021+003309029GA3081+006009999GF108991999999999999999999MW1611REMMET093FMEP 010800Z 14017KT 5000 -RA SCT003 SCT011TCU OVC020 23/21 5000 -RA SCT003 SCT011TCU OVC020;EQDQ01+000003PRSWM1Q02    003PRSWM1
0208619840999992000050109004-21330+055480FM-15+0053FMEP V0201201N008210063019N0040001N1+99999+99999999999ADDGA1021+000909999GA2021+003309029GA3081+006309999GF108991999999999999999999MW1001MW2801REMMET091FMEP 010900Z 12016KT 4000 -SHRA SCT003 SCT011TCU OVC021 4000 -SHRA SCT003 SCT011TCU OVC021;EQDQ01+000003PRSWM1
0208619840999992000050110004-21330+055480FM-15+0053FMEP V0201201N007710090019N0080001N1+99999+99999999999ADDGA1021+000909999GA2021+005409029GA3071+009009999GF107991999999999999999999MW1001MW2801REMMET091FMEP 011000Z 12015KT 8000 -SHRA FEW003 SCT018TCU BKN030 8000 -SHRA FEW003 SCT018TCU BKN030;EQDQ01+000003PRSWM1
0208619840999992000050111004-21330+055480FM-15+0053FMEP V0201201N007710084019N0030001N1+99999+99999999999ADDGA1021+000909999GA2021+005409029GA3081+008409999GF108991999999999999999999MW1001MW2801REMMET091FMEP 011100Z 12015KT 3000 -SHRA FEW003 SCT018TCU OVC028 3000 -SHRA FEW003 SCT018TCU OVC028;EQDQ01+000003PRSWM1
0208619840999992000050112004-21330+055480FM-15+0053FMEP V0201301N008710090019N0015001N1+99999+99999999999ADDGA1021+000909999GA2021+006009029GA3071+009009999GF107991999999999999999999MW1001MW2801REMMET091FMEP 011200Z 13017KT 1500 -SHRA SCT003 SCT020TCU BKN030 1500 -SHRA SCT003 SCT020TCU BKN030;EQDQ01+000003PRSWM1
0206619840999992000050113004-21330+055480FM-15+0053FMEP V0201201N007710048019N0015001N1+99999+99999999999ADDGA1021+000909999GA2021+003009029GA3081+004809999GF108991999999999999999999MW1001MW2811REMMET089FMEP 011300Z 12015KT 1500 SHRA SCT003 SCT010TCU OVC016 1500 SHRA SCT003 SCT010TCU OVC016;EQDQ01+000003PRSWM1
0162619840999992000050203004-21330+055480FM-15+0053FMEP V0201001N006212200019N0015001N1+02101+01801999999ADDGA1021+003009999GA2021+015009999GF104991999999999999999999MA1102001999999MW1001REMMET052FMEP 020300Z 10012KT 1500 SCT010 SCT050 21/18 Q1020;EQDQ01+000000PRSWM2
0162619840999992000050204004-21330+055480FM-15+0053FMEP V0201001N006212200019N0112651N1+02201+01801999999ADDGA1021+003009999GA2021+015009999GF104991999999999999999999MA1102001999999MW1001REMMET052FMEP 020400Z 10012KT 9999 SCT010 SCT050 22/18 Q1020;EQDQ01+000000PRSWM2
0139619840999992000050205004-21330+055480FM-15+0053FMEP V0201101N006212200019N0112651N1+02401+01701999999ADDGA1021+003009999GF104991999999999999999999MA1102001999999MW1001REMMET045FMEP 020500Z 11012KT 9999 SCT010 24/17 Q1020;EQDQ01+000000PRSWM2
0139619840999992000050206004-21330+055480FM-15+0053FMEP V0201301N007212200019N0112651N1+02601+01801999999ADDGA1021+004809999GF102991999999999999999999MA1102001999999MW1001REMMET045FMEP 020600Z 13014KT 9999 FEW016 26/18 Q1020;EQDQ01+000000PRSWM2
0139619840999992000050207004-21330+055480FM-15+0053FMEP V0201301N008712200019N0112651N1+02601+01901999999ADDGA1021+015009999GF102991999999999999999999MA1102001999999MW1001REMMET045FMEP 020700Z 13017KT 9999 FEW053 26/19 Q1020;EQDQ01+000000PRSWM2
0139619840999992000050208004-21330+055480FM-15+0053FMEP V0201301N008712200019N0112651N1+02601+01801999999ADDGA1021+007809999GF102991999999999999999999MA1101901999999MW1001REMMET045FMEP 020800Z 13017KT 9999 FEW026 26/18 Q1019;EQDQ01+000000PRSWM2
0139619840999992000050210004-21330+055480FM-15+0053FMEP V0201301N008712200019N0112651N1+02601+01701999999ADDGA1021+009909999GF102991999999999999999999MA1101801999999MW1001REMMET045FMEP 021000Z 13017KT 9999 FEW033 26/17 Q1018;EQDQ01+000000PRSWM2
0139619840999992000050211004-21330+055480FM-15+0053FMEP V0201301N008712200019N0112651N1+02601+01701999999ADDGA1021+007809999GF102991999999999999999999MA1101801999999MW1001REMMET045FMEP 021100Z 13017KT 9999 FEW026 26/17 Q1018;EQDQ01+000000PRSWM2
0162619840999992000050212004-21330+055480FM-15+0053FMEP V0201301N008212200019N0112651N1+02501+01701999999ADDGA1021+007809999GA2021+015009999GF104991999999999999999999MA1101801999999MW1001REMMET052FMEP 021200Z 13016KT 9999 FEW026 SCT056 25/17 Q1018;EQDQ01+000000PRSWM2
0162619840999992000050213004-21330+055480FM-15+0053FMEP V0201201N007710150019N0112651N1+02401+01701999999ADDGA1021+007809999GA2071+015009999GF107991999999999999999999MA1101901999999MW1001REMMET052FMEP 021300Z 12015KT 9999 FEW026 BKN056 24/17 Q1019;EQDQ01+000000PRSWM2
0139619840999992000050304004-21330+055480FM-15+0053FMEP V0201101N005112200019N0112651N1+02401+01701999999ADDGA1021+009009999GF102991999999999999999999MA1102201999999MW1001REMMET045FMEP 030400Z 11010KT 9999 FEW030 24/17 Q1022;EQDQ01+000000PRSWM2
0139619840999992000050306004-21330+055480FM-15+0053FMEP V0201301N009812200019N0112651N1+02601+01601999999ADDGA1021+012909999GF102991999999999999999999MA1102201999999MW1001REMMET045FMEP 030600Z 13019KT 9999 FEW043 26/16 Q1022;EQDQ01+000000PRSWM2
0139619840999992000050307004-21330+055480FM-15+0053FMEP V0201301N009312200019N0112651N1+02801+01501999999ADDGA1021+015009999GF102991999999999999999999MA1102101999999MW1001REMMET045FMEP 030700Z 13018KT 9999 FEW050 28/15 Q1021;EQDQ01+000000PRSWM2
0139619840999992000050308004-21330+055480FM-15+0053FMEP V0201301N011312200019N0112651N1+02801+01401999999ADDGA1021+010809999GF102991999999999999999999MA1102001999999MW1001REMMET045FMEP 030800Z 13022KT 9999 FEW036 28/14 Q1020;EQDQ01+000000PRSWM2
0139619840999992000050309004-21330+055480FM-15+0053FMEP V0201301N008712200019N0112651N1+02801+01401999999ADDGA1021+015009999GF102991999999999999999999MA1102001999999MW1001REMMET045FMEP 030900Z 13017KT 9999 FEW050 28/14 Q1020;EQDQ01+000000PRSWM2
0139619840999992000050310004-21330+055480FM-15+0053FMEP V0201301N010312200019N0112651N1+02801+01701999999ADDGA1021+015009999GF102991999999999999999999MA1101901999999MW1001REMMET045FMEP 031000Z 13020KT 9999 FEW050 28/17 Q1019;EQDQ01+000000PRSWM2
0139619840999992000050311004-21330+055480FM-15+0053FMEP V0201301N011312200019N0112651N1+02701+01801999999ADDGA1021+013509999GF102991999999999999999999MA1101901999999MW1001REMMET045FMEP 031100Z 13022KT 9999 FEW045 27/18 Q1019;EQDQ01+000000PRSWM2
0139619840999992000050312004-21330+055480FM-15+0053FMEP V0201301N012312200019N0112651N1+02601+01801999999ADDGA1021+013509999GF102991999999999999999999MA1101901999999MW1001REMMET045FMEP 031200Z 13024KT 9999 FEW045 26/18 Q1019;EQDQ01+000000PRSWM2
0139619840999992000050313004-21330+055480FM-15+0053FMEP V0201301N012912200019N0112651N1+02501+01901999999ADDGA1021+013509999GF102991999999999999999999MA1101901999999MW1001REMMET045FMEP 031300Z 13025KT 9999 FEW045 25/19 Q1019;EQDQ01+000000PRSWM2
0147619840999992000050403004-21330+055480FM-15+0053FMEP V0201001N002112200019N0112651N1+02001+01101999999ADDGA1021+006309999GF104991999999999999999999MA1102101999999MW1001REMMET053FMEP 040300Z 10004KT 070V140 9999 SCT021 20/11 Q1021;EQDQ01+000000PRSWM2
0162619840999992000050405004-21330+055480FM-15+0053FMEP V0201201N008212200019N0112651N1+02401+01601999999ADDGA1021+006309999GA2021+015009999GF104991999999999999999999MA1102201999999MW1001REMMET052FMEP 040500Z 12016KT 9999 FEW021 SCT050 24/16 Q1022;EQDQ01+000000PRSWM2
0147619840999992000050406004-21330+055480FM-15+0053FMEP V0201001N007212200019N0112651N1+02601+01701999999ADDGA1021+006309999GF102991999999999999999999MA1102201999999MW1001REMMET053FMEP 040600Z 10014KT 070V140 9999 FEW021 26/17 Q1022;EQDQ01+000000PRSWM2
0139619840999992000050407004-21330+055480FM-15+0053FMEP V0201201N010812200019N0112651N1+02701+01501999999ADDGA1021+006309999GF102991999999999999999999MA1102101999999MW1001REMMET045FMEP 040700Z 12021KT 9999 FEW021 27/15 Q1021;EQDQ01+000000PRSWM2
0139619840999992000050408004-21330+055480FM-15+0053FMEP V0201301N012312200019N0112651N1+02701+01601999999ADDGA1021+006309999GF102991999999999999999999MA1102001999999MW1001REMMET045FMEP 040800Z 13024KT 9999 FEW021 27/16 Q1020;EQDQ01+000000PRSWM2
0139619840999992000050409004-21330+055480FM-15+0053FMEP V0201301N010812200019N0112651N1+02701+01501999999ADDGA1021+007509999GF102991999999999999999999MA1102001999999MW1001REMMET045FMEP 040900Z 13021KT 9999 FEW025 27/15 Q1020;EQDQ01+000000PRSWM2
0139619840999992000050410004-21330+055480FM-15+0053FMEP V0201301N010312200019N0112651N1+02701+01501999999ADDGA1021+007509999GF102991999999999999999999MA1101901999999MW1001REMMET045FMEP 041000Z 13020KT 9999 FEW025 27/15 Q1019;EQDQ01+000000PRSWM2
0139619840999992000050411004-21330+055480FM-15+0053FMEP V0201301N010312200019N0112651N1+02701+01501999999ADDGA1021+007509999GF102991999999999999999999MA1101901999999MW1001REMMET045FMEP 041100Z 13020KT 9999 FEW025 27/15 Q1019;EQDQ01+000000PRSWM2
0139619840999992000050412004-21330+055480FM-15+0053FMEP V0201301N009812200019N0112651N1+02701+01501999999ADDGA1021+007509999GF102991999999999999999999MA1101901999999MW1001REMMET045FMEP 041200Z 13019KT 9999 FEW025 27/15 Q1019;EQDQ01+000000PRSWM2
0139619840999992000050413004-21330+055480FM-15+0053FMEP V0201201N007712200019N0112651N1+02601+01301999999ADDGA1021+007509999GF102991999999999999999999MA1101901999999MW1001REMMET045FMEP 041300Z 12015KT 9999 FEW025 26/13 Q1019;EQDQ01+000000PRSWM2
0147619840999992000050503004-21330+055480FM-15+0053FMEP V0200801N003612200019N0112651N1+01901+01301999999ADDGA1021+004809999GF102991999999999999999999MA1102001999999MW1001REMMET053FMEP 050300Z 08007KT 050V130 9999 FEW016 19/13 Q1020;EQDQ01+000000PRSWM2
0139619840999992000050503304-21330+055480FM-15+0053FMEP V0201301N006712200019N0112651N1+02501+01801999999ADDGA1021+006909999GF104991999999999999999999MA1102001999999MW1001REMMET045FMEP 050430Z 13013KT 9999 SCT023 25/18 Q1020;EQDQ01+000000PRSWM2
0139619840999992000050506004-21330+055480FM-15+0053FMEP V0201201N009312200019N0112651N1+02601+01701999999ADDGA1021+006909999GF102991999999999999999999MA1102101999999MW1001REMMET045FMEP 050600Z 12018KT 9999 FEW023 26/17 Q1021;EQDQ01+000000PRSWM2
0139619840999992000050508004-21330+055480FM-15+0053FMEP V0201301N010312200019N0112651N1+02801+01701999999ADDGA1021+003909999GF102991999999999999999999MA1101901999999MW1001REMMET045FMEP 050800Z 13020KT 9999 FEW013 28/17 Q1019;EQDQ01+000000PRSWM2
0139619840999992000050509004-21330+055480FM-15+0053FMEP V0201301N011812200019N0112651N1+02801+01601999999ADDGA1021+007809999GF102991999999999999999999MA1101901999999MW1001REMMET045FMEP 050900Z 13023KT 9999 FEW026 28/16 Q1019;EQDQ01+000000PRSWM2
0139619840999992000050510004-21330+055480FM-15+0053FMEP V0201301N011312200019N0112651N1+02801+01801999999ADDGA1021+009909999GF102991999999999999999999MA1101801999999MW1001REMMET045FMEP 051000Z 13022KT 9999 FEW033 28/18 Q1018;EQDQ01+000000PRSWM2
0139619840999992000050511004-21330+055480FM-15+0053FMEP V0201401N011312200019N0112651N1+02701+01801999999ADDGA1021+007809999GF102991999999999999999999MA1101801999999MW1001REMMET045FMEP 051100Z 14022KT 9999 FEW026 27/18 Q1018;EQDQ01+000000PRSWM2
0139619840999992000050513004-21330+055480FM-15+0053FMEP V0201301N011812200019N0112651N1+02601+01701999999ADDGA1021+007809999GF102991999999999999999999MA1101801999999MW1001REMMET045FMEP 051300Z 13023KT 9999 FEW026 26/17 Q1018;EQDQ01+000000PRSWM2
0170619840999992000050603004-21330+055480FM-15+0053FMEP V0200701N003112200019N0112651N1+02201+01501999999ADDGA1021+006309999GA2021+018009999GF104991999999999999999999MA1102001999999MW1001REMMET060FMEP 060300Z 07006KT 030V120 9999 FEW021 SCT066 22/15 Q1020;EQDQ01+000000PRSWM2
0173619840999992000050604004-21330+055480FM-15+0053FMEP V0201101N007212200019N0112651N1+02501+01601999999ADDGA1021+006309999GA2021+015009999GF104991999999999999999999MA1102101999999MW1001OC101291REMMET055FMEP 060400Z 11014G25KT 9999 FEW021 SCT050 25/16 Q1021;EQDQ01+000000PRSWM2
0139619840999992000050606004-21330+055480FM-15+0053FMEP V0201201N010312200019N0112651N1+02701+01901999999ADDGA1021+006309999GF102991999999999999999999MA1102101999999MW1001REMMET045FMEP 060600Z 12020KT 9999 FEW021 27/19 Q1021;EQDQ01+000000PRSWM2
0139619840999992000050607004-21330+055480FM-15+0053FMEP V0201301N010812200019N0112651N1+02801+01801999999ADDGA1021+006309999GF102991999999999999999999MA1102001999999MW1001REMMET045FMEP 060700Z 13021KT 9999 FEW021 28/18 Q1020;EQDQ01+000000PRSWM2
0139619840999992000050608004-21330+055480FM-15+0053FMEP V0201301N011812200019N0112651N1+02801+01901999999ADDGA1021+006309999GF102991999999999999999999MA1101901999999MW1001REMMET045FMEP 060800Z 13023KT 9999 FEW021 28/19 Q1019;EQDQ01+000000PRSWM2
0139619840999992000050609004-21330+055480FM-15+0053FMEP V0201301N013412200019N0112651N1+02801+02001999999ADDGA1021+006309999GF102991999999999999999999MA1101901999999MW1001REMMET045FMEP 060900Z 13026KT 9999 FEW021 28/20 Q1019;EQDQ01+000000PRSWM2
0150619840999992000050610004-21330+055480FM-15+0053FMEP V0201301N011812200019N0112651N1+02801+01901999999ADDGA1021+007509999GF102991999999999999999999MA1101801999999MW1001OC101701REMMET048FMEP 061000Z 13023G33KT 9999 FEW025 28/19 Q1018;EQDQ01+000000PRSWM2
0139619840999992000050611004-21330+055480FM-15+0053FMEP V0201301N012912200019N0112651N1+02701+01801999999ADDGA1021+007509999GF102991999999999999999999MA1101801999999MW1001REMMET045FMEP 061100Z 13025KT 9999 FEW025 27/18 Q1018;EQDQ01+000000PRSWM2
0158619840999992000050612004-21330+055480FM-15+0053FMEP V0201001N005112200019N0112651N1+02801+01601999999ADDGA1021+007509999GF102991999999999999999999MA1101801999999MW1001OC101231REMMET056FMEP 061200Z 10010G24KT 040V140 9999 FEW025 28/16 Q1018;EQDQ01+000000PRSWM2
0165619840999992000050613004-21330+055480FM-15+0053FMEP V02099999999992200019N0112651N1+02701+01701999999ADDGA1021+007509029GA2021+018009999GF104991999999999999999999MA1101901999999MW1001REMMET055FMEP 061300Z VRB03KT 9999 FEW025TCU SCT060 27/17 Q1019;EQDQ01+000000PRSWM2
0147619840999992000050703004-21330+055480FM-15+0053FMEP V0201101N002612200019N0112651N1+02201+01601999999ADDGA1021+006309999GF102991999999999999999999MA1102001999999MW1001REMMET053FMEP 070300Z 11005KT 070V190 9999 FEW021 22/16 Q1020;EQDQ01+000000PRSWM2
0162619840999992000050704004-21330+055480FM-15+0053FMEP V0201201N010312200019N0112651N1+02401+01901999999ADDGA1021+006309999GA2021+015009999GF104991999999999999999999MA1102001999999MW1001REMMET052FMEP 070400Z 12020KT 9999 FEW021 SCT050 24/19 Q1020;EQDQ01+000000PRSWM2
0139619840999992000050705004-21330+055480FM-15+0053FMEP V0201301N006212200019N0112651N1+02601+01901999999ADDGA1021+006309999GF102991999999999999999999MA1102001999999MW1001REMMET045FMEP 070500Z 13012KT 9999 FEW021 26/19 Q1020;EQDQ01+000000PRSWM2
0139619840999992000050706004-21330+055480FM-15+0053FMEP V0201201N007712200019N0112651N1+02801+01701999999ADDGA1021+006309999GF102991999999999999999999MA1102001999999MW1001REMMET045FMEP 070600Z 12015KT 9999 FEW021 28/17 Q1020;EQDQ01+000000PRSWM2
0139619840999992000050707004-21330+055480FM-15+0053FMEP V0201301N009312200019N0112651N1+02901+01801999999ADDGA1021+006309999GF102991999999999999999999MA1102001999999MW1001REMMET045FMEP 070700Z 13018KT 9999 FEW021 29/18 Q1020;EQDQ01+000000PRSWM2
0139619840999992000050708004-21330+055480FM-15+0053FMEP V0201201N011312200019N0112651N1+02901+01701999999ADDGA1021+006309999GF102991999999999999999999MA1101901999999MW1001REMMET045FMEP 070800Z 12022KT 9999 FEW021 29/17 Q1019;EQDQ01+000000PRSWM2
0139619840999992000050709004-21330+055480FM-15+0053FMEP V0201301N011812200019N0112651N1+02901+01801999999ADDGA1021+006309999GF102991999999999999999999MA1101801999999MW1001REMMET045FMEP 070900Z 13023KT 9999 FEW021 29/18 Q1018;EQDQ01+000000PRSWM2
0150619840999992000050710004-21330+055480FM-15+0053FMEP V0201301N013912200019N0112651N1+02801+01901999999ADDGA1021+007509999GF102991999999999999999999MA1101691999999MW1001OC102011REMMET048FMEP 071000Z 13027G39KT 9999 FEW025 28/19 Q1017;EQDQ01+000000PRSWM2
0150619840999992000050711004-21330+055480FM-15+0053FMEP V0201201N012312200019N0112651N1+02901+01801999999ADDGA1021+007509999GF102991999999999999999999MA1101691999999MW1001OC101751REMMET048FMEP 071100Z 12024G34KT 9999 FEW025 29/18 Q1017;EQDQ01+000000PRSWM2
0096619840999992000050712004-21330+055480FM-15+0053FMEP V0203001N006212200019N0210001N1+99999+99999999999ADDMW1001REMMET059FMEP 071200Z 30012KT 210V30 9999 FEW025 SCT200 28/19 Q1018;EQDQ01+000000PRSWM2
0162619840999992000050713004-21330+055480FM-15+0053FMEP V02099999999992200019N0112651N1+02701+01901999999ADDGA1021+007509999GA2021+060009999GF104991999999999999999999MA1101801999999MW1001REMMET052FMEP 071300Z VRB01KT 9999 FEW025 SCT200 27/19 Q1018;EQDQ01+000000PRSWM2
0139619840999992000050801444-21330+055480FM-15+0053FMEP V0200701N003112200019N0112651N1+01901+01501999999ADDGA1021+012009999GF102991999999999999999999MA1101901999999MW1001REMMET045FMEP 080244Z 07006KT 9999 FEW040 19/15 Q1019;EQDQ01+000000PRSWM2
0139619840999992000050803004-21330+055480FM-15+0053FMEP V0200801N003612200019N0112651N1+01901+01501999999ADDGA1021+012009999GF102991999999999999999999MA1101901999999MW1001REMMET045FMEP 080300Z 08007KT 9999 FEW040 19/15 Q1019;EQDQ01+000000PRSWM2
0139619840999992000050804004-21330+055480FM-15+0053FMEP V0200501N003112200019N0112651N1+02301+01601999999ADDGA1021+012009999GF102991999999999999999999MA1101901999999MW1001REMMET045FMEP 080400Z 05006KT 9999 FEW040 23/16 Q1019;EQDQ01+000000PRSWM2
0139619840999992000050805004-21330+055480FM-15+0053FMEP V0201201N001512200019N0112651N1+02601+01601999999ADDGA1021+010809999GF102991999999999999999999MA1101901999999MW1001REMMET045FMEP 080500Z 12003KT 9999 FEW036 26/16 Q1019;EQDQ01+000000PRSWM2
0139619840999992000050806004-21330+055480FM-15+0053FMEP V0202901N001512200019N0112651N1+02801+01701999999ADDGA1021+012009999GF102991999999999999999999MA1101901999999MW1001REMMET045FMEP 080600Z 29003KT 9999 FEW040 28/17 Q1019;EQDQ01+000000PRSWM2
0147619840999992000050807004-21330+055480FM-15+0053FMEP V0202001N002112200019N0112651N1+02801+01701999999ADDGA1021+010809999GF102991999999999999999999MA1101901999999MW1001REMMET053FMEP 080700Z 20004KT 160V270 9999 FEW036 28/17 Q1019;EQDQ01+000000PRSWM2
0147619840999992000050808004-21330+055480FM-15+0053FMEP V0202401N002112200019N0112651N1+02901+01801999999ADDGA1021+008409999GF102991999999999999999999MA1101801999999MW1001REMMET053FMEP 080800Z 24004KT 190V290 9999 FEW028 29/18 Q1018;EQDQ01+000000PRSWM2
0162619840999992000050810004-21330+055480FM-15+0053FMEP V0202501N003612200019N0112651N1+02701+02001999999ADDGA1021+009009999GA2021+024009999GF104991999999999999999999MA1101691999999MW1001REMMET052FMEP 081000Z 25007KT 9999 FEW030 SCT080 27/20 Q1017;EQDQ01+000000PRSWM2
0162619840999992000050811004-21330+055480FM-15+0053FMEP V0202501N003112200019N0112651N1+02801+01901999999ADDGA1021+007809999GA2021+024009999GF104991999999999999999999MA1101691999999MW1001REMMET052FMEP 081100Z 25006KT 9999 FEW026 SCT080 28/19 Q1017;EQDQ01+000000PRSWM2
0162619840999992000050812004-21330+055480FM-15+0053FMEP V0202701N004112200019N0112651N1+02701+02001999999ADDGA1021+007809999GA2021+021009999GF104991999999999999999999MA1101691999999MW1001REMMET052FMEP 081200Z 27008KT 9999 SCT026 SCT070 27/20 Q1017;EQDQ01+000000PRSWM2
0170619840999992000050813004-21330+055480FM-15+0053FMEP V02099999999992200019N0112651N1+02601+02001999999ADDGA1021+009009999GA2021+021009999GF104991999999999999999999MA1101691999999MW1001REMMET060FMEP 081300Z VRB04KT 360V240 9999 SCT030 SCT070 26/20 Q1017;EQDQ01+000000PRSWM2
0139619840999992000050903004-21330+055480FM-15+0053FMEP V0200301N003112200019N0112651N1+02001+01501999999ADDGA1021+006309999GF102991999999999999999999MA1101801999999MW1001REMMET045FMEP 090300Z 03006KT 9999 FEW021 20/15 Q1018;EQDQ01+000000PRSWM2
0162619840999992000050904004-21330+055480FM-15+0053FMEP V0200301N001512200019N0112651N1+02201+01801999999ADDGA1021+006309999GA2021+015009999GF104991999999999999999999MA1101901999999MW1001REMMET052FMEP 090400Z 03003KT 9999 FEW021 SCT050 22/18 Q1019;EQDQ01+000000PRSWM2
0183619840999992000050905004-21330+055480FM-15+0053FMEP V0201001N005110150019N0080001N1+02501+01901999999ADDGA1021+006309999GA2071+015009999GF107991999999999999999999MA1102001999999MW1161REMMET057FMEP 090500Z 10010KT 8000 VCSH FEW021 BKN050 25/19 Q1020;EQDQ01+000003PRSWM1Q02    003PRSWM1
0183619840999992000050906004-21330+055480FM-15+0053FMEP V0200601N002612200019N0080001N1+02501+01701999999ADDGA1021+006309999GA2021+015009999GF104991999999999999999999MA1101901999999MW1161REMMET057FMEP 090600Z 06005KT 8000 VCSH FEW021 SCT050 25/17 Q1019;EQDQ01+000003PRSWM1Q02    003PRSWM1
0170619840999992000050907004-21330+055480FM-15+0053FMEP V0201401N004612200019N0112651N1+02701+01901999999ADDGA1021+006309999GA2021+015009999GF104991999999999999999999MA1101901999999MW1001REMMET060FMEP 090700Z 14009KT 030V180 9999 FEW021 SCT050 27/19 Q1019;EQDQ01+000000PRSWM2
0139619840999992000050908004-21330+055480FM-15+0053FMEP V0201301N007212200019N0112651N1+02801+02001999999ADDGA1021+006309999GF102991999999999999999999MA1101801999999MW1001REMMET045FMEP 090800Z 13014KT 9999 FEW021 28/20 Q1018;EQDQ01+000000PRSWM2
0139619840999992000050909004-21330+055480FM-15+0053FMEP V0201301N009812200019N0112651N1+02801+02001999999ADDGA1021+006309999GF102991999999999999999999MA1101691999999MW1001REMMET045FMEP 090900Z 13019KT 9999 FEW021 28/20 Q1017;EQDQ01+000000PRSWM2
0139619840999992000050911004-21330+055480FM-15+0053FMEP V0201301N010312200019N0112651N1+02701+01801999999ADDGA1021+007509999GF102991999999999999999999MA1101591999999MW1001REMMET045FMEP 091100Z 13020KT 9999 FEW025 27/18 Q1016;EQDQ01+000000PRSWM2
0139619840999992000050912004-21330+055480FM-15+0053FMEP V0201301N009812200019N0112651N1+02701+01901999999ADDGA1021+007509999GF102991999999999999999999MA1101591999999MW1001REMMET045FMEP 091200Z 13019KT 9999 FEW025 27/19 Q1016;EQDQ01+000000PRSWM2
0139619840999992000050913004-21330+055480FM-15+0053FMEP V0201201N004112200019N0112651N1+02701+01901999999ADDGA1021+007509999GF102991999999999999999999MA1101591999999MW1001REMMET045FMEP 091300Z 12008KT 9999 FEW025 27/19 Q1016;EQDQ01+000000PRSWM2
0139619840999992000051003004-21330+055480FM-15+0053FMEP V0200301N003112200019N0112651N1+02001+01501999999ADDGA1021+006309999GF102991999999999999999999MA1101801999999MW1001REMMET045FMEP 090300Z 03006KT 9999 FEW021 20/15 Q1018;EQDQ01+000000PRSWM2
0174619840999992000051004004-21330+055480FM-15+0053FMEP V0200901N002112200019N0112651N1+02301+01901999999ADDGA1021+006909029GA2021+021009999GF104991999999999999999999MW1001REMMET079FMEP 100400Z 09004KT 060V130 9999 FEW023TCU SCT076 23/19 9999 FEW023TCU SCT076;EQDQ01+000000PRSWM2
0165619840999992000051005004-21330+055480FM-15+0053FMEP V0201001N003612200019N0112651N1+02601+02101999999ADDGA1021+006909029GA2021+045009999GF104991999999999999999999MA1101691999999MW1001REMMET055FMEP 100500Z 10007KT 9999 FEW023TCU SCT150 26/21 Q1017;EQDQ01+000000PRSWM2
0142619840999992000051006004-21330+055480FM-15+0053FMEP V0201301N005112200019N0112651N1+02701+02201999999ADDGA1021+006909029GF102991999999999999999999MA1101691999999MW1001REMMET048FMEP 100600Z 13010KT 9999 FEW023TCU 27/22 Q1017;EQDQ01+000000PRSWM2
0165619840999992000051007004-21330+055480FM-15+0053FMEP V0201301N006712200019N0112651N1+02701+02201999999ADDGA1021+007809029GA2021+045009999GF104991999999999999999999MA1101691999999MW1001REMMET055FMEP 100700Z 13013KT 9999 FEW026TCU SCT150 27/22 Q1017;EQDQ01+000000PRSWM2
0162619840999992000051008004-21330+055480FM-15+0053FMEP V0202901N004612200019N0112651N1+02801+02001999999ADDGA1021+007809999GA2021+021009999GF104991999999999999999999MA1101591999999MW1001REMMET052FMEP 100800Z 29009KT 9999 FEW026 SCT076 28/20 Q1016;EQDQ01+000000PRSWM2
0162619840999992000051010004-21330+055480FM-15+0053FMEP V0202601N003112200019N0112651N1+02801+02101999999ADDGA1021+008409999GA2021+024009999GF104991999999999999999999MA1101491999999MW1001REMMET052FMEP 101000Z 26006KT 9999 FEW028 SCT080 28/21 Q1015;EQDQ01+000000PRSWM2
0139619840999992000051011004-21330+055480FM-15+0053FMEP V0201701N003112200019N0112651N1+02801+02201999999ADDGA1021+009009999GF102991999999999999999999MA1101491999999MW1001REMMET045FMEP 101100Z 17006KT 9999 FEW030 28/22 Q1015;EQDQ01+000000PRSWM2
0139619840999992000051012004-21330+055480FM-15+0053FMEP V0202201N001512200019N0112651N1+02801+02101999999ADDGA1021+009309999GF102991999999999999999999MA1101491999999MW1001REMMET045FMEP 101200Z 22003KT 9999 FEW031 28/21 Q1015;EQDQ01+000000PRSWM2
0139619840999992000051013004-21330+055480FM-15+0053FMEP V0201901N001512200019N0112651N1+02701+02101999999ADDGA1021+009009999GF102991999999999999999999MA1101591999999MW1001REMMET045FMEP 101300Z 19003KT 9999 FEW030 27/21 Q1016;EQDQ01+000000PRSWM2
0139619840999992000051103004-21330+055480FM-15+0053FMEP V0200501N003612200019N0112651N1+02201+01801999999ADDGA1021+006309999GF102991999999999999999999MA1101691999999MW1001REMMET045FMEP 110300Z 05007KT 9999 FEW021 22/18 Q1017;EQDQ01+000000PRSWM2
0139619840999992000051104004-21330+055480FM-15+0053FMEP V0200401N002612200019N0112651N1+02401+01901999999ADDGA1021+006309999GF102991999999999999999999MA1101801999999MW1001REMMET045FMEP 110400Z 04005KT 9999 FEW021 24/19 Q1018;EQDQ01+000000PRSWM2
0139619840999992000051105004-21330+055480FM-15+0053FMEP V0200201N003112200019N0112651N1+02701+02001999999ADDGA1021+006309999GF102991999999999999999999MA1101801999999MW1001REMMET045FMEP 110500Z 02006KT 9999 FEW021 27/20 Q1018;EQDQ01+000000PRSWM2
0139619840999992000051106004-21330+055480FM-15+0053FMEP V0202301N001512200019N0112651N1+02701+02001999999ADDGA1021+006309999GF102991999999999999999999MA1101801999999MW1001REMMET045FMEP 110600Z 23003KT 9999 FEW021 27/20 Q1018;EQDQ01+000000PRSWM2
0147619840999992000051107004-21330+055480FM-15+0053FMEP V0202601N002612200019N0112651N1+02801+02001999999ADDGA1021+006309999GF102991999999999999999999MA1101691999999MW1001REMMET053FMEP 110700Z 26005KT 210V290 9999 FEW021 28/20 Q1017;EQDQ01+000000PRSWM2
0147619840999992000051108004-21330+055480FM-15+0053FMEP V0202401N002112200019N0112651N1+02801+02101999999ADDGA1021+006309999GF102991999999999999999999MA1101591999999MW1001REMMET053FMEP 110800Z 24004KT 200V300 9999 FEW021 28/21 Q1016;EQDQ01+000000PRSWM2
0139619840999992000051109004-21330+055480FM-15+0053FMEP V0202501N003612200019N0112651N1+02901+02101999999ADDGA1021+006309999GF102991999999999999999999MA1101591999999MW1001REMMET045FMEP 110900Z 25007KT 9999 FEW021 29/21 Q1016;EQDQ01+000000PRSWM2
0139619840999992000051110004-21330+055480FM-15+0053FMEP V0202401N002612200019N0112651N1+02901+02101999999ADDGA1021+007509999GF102991999999999999999999MA1101591999999MW1001REMMET045FMEP 111000Z 24005KT 9999 FEW025 29/21 Q1016;EQDQ01+000000PRSWM2
0139619840999992000051111004-21330+055480FM-15+0053FMEP V0202701N003612200019N0112651N1+02901+02001999999ADDGA1021+007509999GF102991999999999999999999MA1101491999999MW1001REMMET045FMEP 111100Z 27007KT 9999 FEW025 29/20 Q1015;EQDQ01+000000PRSWM2
0162619840999992000051112004-21330+055480FM-15+0053FMEP V0202701N003612200019N0112651N1+02801+02101999999ADDGA1021+007509999GA2021+018009999GF104991999999999999999999MA1101491999999MW1001REMMET052FMEP 111200Z 27007KT 9999 FEW025 SCT060 28/21 Q1015;EQDQ01+000000PRSWM2
0162619840999992000051113004-21330+055480FM-15+0053FMEP V0202401N002112200019N0112651N1+02701+02201999999ADDGA1021+007509999GA2021+018009999GF104991999999999999999999MA1101591999999MW1001REMMET052FMEP 111300Z 24004KT 9999 FEW025 SCT060 27/22 Q1016;EQDQ01+000000PRSWM2
0139619840999992000051203004-21330+055480FM-15+0053FMEP V0200401N003612200019N0112651N1+02101+01701999999ADDGA1021+012909999GF102991999999999999999999MA1101691999999MW1001REMMET045FMEP 120300Z 04007KT 9999 FEW043 21/17 Q1017;EQDQ01+000000PRSWM2
0139619840999992000051204004-21330+055480FM-15+0053FMEP V0200301N002612200019N0112651N1+02401+01801999999ADDGA1021+012909999GF102991999999999999999999MA1101691999999MW1001REMMET045FMEP 120400Z 03005KT 9999 FEW043 24/18 Q1017;EQDQ01+000000PRSWM2
0139619840999992000051205004-21330+055480FM-15+0053FMEP V0200301N000512200019N0112651N1+02701+02001999999ADDGA1021+015009999GF102991999999999999999999MA1101691999999MW1001REMMET045FMEP 120500Z 03001KT 9999 FEW050 27/20 Q1017;EQDQ01+000000PRSWM2
0147619840999992000051206004-21330+055480FM-15+0053FMEP V0202201N002112200019N0112651N1+02701+02101999999ADDGA1021+012909999GF102991999999999999999999MA1101691999999MW1001REMMET053FMEP 120600Z 22004KT 160V270 9999 FEW043 27/21 Q1017;EQDQ01+000000PRSWM2
0139619840999992000051207004-21330+055480FM-15+0053FMEP V0202201N002112200019N0112651N1+02801+02101999999ADDGA1021+009009999GF102991999999999999999999MA1101691999999MW1001REMMET045FMEP 120700Z 22004KT 9999 FEW030 28/21 Q1017;EQDQ01+000000PRSWM2
0147619840999992000051208004-21330+055480FM-15+0053FMEP V0202001N002612200019N0112651N1+02801+02101999999ADDGA1021+009009999GF102991999999999999999999MA1101591999999MW1001REMMET053FMEP 120800Z 20005KT 170V240 9999 FEW030 28/21 Q1016;EQDQ01+000000PRSWM2
0170619840999992000051210004-21330+055480FM-15+0053FMEP V0201801N002612200019N0112651N1+02801+02001999999ADDGA1021+009009999GA2021+018009999GF104991999999999999999999MA1101491999999MW1001REMMET060FMEP 121000Z 18005KT 140V210 9999 FEW030 SCT060 28/20 Q1015;EQDQ01+000000PRSWM2
0170619840999992000051211004-21330+055480FM-15+0053FMEP V0201401N002612200019N0112651N1+02801+02101999999ADDGA1021+009009999GA2021+018009999GF104991999999999999999999MA1101491999999MW1001REMMET060FMEP 121100Z 14005KT 110V180 9999 FEW030 SCT060 28/21 Q1015;EQDQ01+000000PRSWM2
0139619840999992000051212004-21330+055480FM-15+0053FMEP V0201401N003112200019N0112651N1+02801+02101999999ADDGA1021+007509999GF102991999999999999999999MA1101491999999MW1001REMMET045FMEP 121200Z 14006KT 9999 FEW025 28/21 Q1015;EQDQ01+000000PRSWM2
0142619840999992000051213004-21330+055480FM-15+0053FMEP V0201401N003112200019N0112651N1+02701+02101999999ADDGA1021+007509029GF102991999999999999999999MA1101591999999MW1001REMMET048FMEP 121300Z 14006KT 9999 FEW025TCU 27/21 Q1016;EQDQ01+000000PRSWM2
0139619840999992000051303004-21330+055480FM-15+0053FMEP V0200501N003112200019N0112651N1+02201+01601999999ADDGA1021+006309999GF102991999999999999999999MA1101691999999MW1001REMMET045FMEP 130300Z 05006KT 9999 FEW021 22/16 Q1017;EQDQ01+000000PRSWM2
0139619840999992000051304004-21330+055480FM-15+0053FMEP V0200601N002612200019N0112651N1+02501+01701999999ADDGA1021+006309999GF102991999999999999999999MA1101801999999MW1001REMMET045FMEP 130400Z 06005KT 9999 FEW021 25/17 Q1018;EQDQ01+000000PRSWM2
0147619840999992000051305004-21330+055480FM-15+0053FMEP V0201401N002612200019N0112651N1+02701+02001999999ADDGA1021+006309999GF102991999999999999999999MA1101801999999MW1001REMMET053FMEP 130500Z 14005KT 100V170 9999 FEW021 27/20 Q1018;EQDQ01+000000PRSWM2
0147619840999992000051306004-21330+055480FM-15+0053FMEP V0201501N003612200019N0112651N1+02701+02101999999ADDGA1021+006309999GF102991999999999999999999MA1101801999999MW1001REMMET053FMEP 130600Z 15007KT 120V190 9999 FEW021 27/21 Q1018;EQDQ01+000000PRSWM2
0147619840999992000051307004-21330+055480FM-15+0053FMEP V0201801N002112200019N0112651N1+02801+02201999999ADDGA1021+006309999GF102991999999999999999999MA1101801999999MW1001REMMET053FMEP 130700Z 18004KT 120V230 9999 FEW021 28/22 Q1018;EQDQ01+000000PRSWM2
0139619840999992000051308004-21330+055480FM-15+0053FMEP V0201801N003112200019N0112651N1+02801+02201999999ADDGA1021+006309999GF102991999999999999999999MA1101801999999MW1001REMMET045FMEP 130800Z 18006KT 9999 FEW021 28/22 Q1018;EQDQ01+000000PRSWM2
0139619840999992000051309004-21330+055480FM-15+0053FMEP V0201701N003612200019N0112651N1+02801+02201999999ADDGA1021+006309999GF102991999999999999999999MA1101691999999MW1001REMMET045FMEP 130900Z 17007KT 9999 FEW021 28/22 Q1017;EQDQ01+000000PRSWM2
0162619840999992000051310004-21330+055480FM-15+0053FMEP V0201401N004112200019N0112651N1+02801+02101999999ADDGA1021+006309999GA2021+015009999GF104991999999999999999999MA1101691999999MW1001REMMET052FMEP 131000Z 14008KT 9999 FEW021 SCT050 28/21 Q1017;EQDQ01+000000PRSWM2
0162619840999992000051312004-21330+055480FM-15+0053FMEP V0201301N005112200019N0112651N1+02801+02201999999ADDGA1021+006309999GA2021+015009999GF104991999999999999999999MA1101691999999MW1001REMMET052FMEP 131200Z 13010KT 9999 FEW021 SCT050 28/22 Q1017;EQDQ01+000000PRSWM2
0139619840999992000051313004-21330+055480FM-15+0053FMEP V0201301N005112200019N0112651N1+02701+02201999999ADDGA1021+006309999GF102991999999999999999999MA1101691999999MW1001REMMET045FMEP 131300Z 13010KT 9999 FEW021 27/22 Q1017;EQDQ01+000000PRSWM2
0139619840999992000051403004-21330+055480FM-15+0053FMEP V0200301N003612200019N0112651N1+02101+01701999999ADDGA1021+012009999GF102991999999999999999999MA1101801999999MW1001REMMET045FMEP 140300Z 03007KT 9999 FEW040 21/17 Q1018;EQDQ01+000000PRSWM2
0139619840999992000051404004-21330+055480FM-15+0053FMEP V0200501N002612200019N0112651N1+02401+01801999999ADDGA1021+012009999GF102991999999999999999999MA1101901999999MW1001REMMET045FMEP 140400Z 05005KT 9999 FEW040 24/18 Q1019;EQDQ01+000000PRSWM2
0139619840999992000051405004-21330+055480FM-15+0053FMEP V0200401N001012200019N0112651N1+02701+01801999999ADDGA1021+012309999GF102991999999999999999999MA1101901999999MW1001REMMET045FMEP 140500Z 04002KT 9999 FEW041 27/18 Q1019;EQDQ01+000000PRSWM2
0147619840999992000051406004-21330+055480FM-15+0053FMEP V0203001N003112200019N0112651N1+02801+02001999999ADDGA1021+010509999GF102991999999999999999999MA1101901999999MW1001REMMET053FMEP 140600Z 30006KT 270V350 9999 FEW035 28/20 Q1019;EQDQ01+000000PRSWM2
0139619840999992000051407004-21330+055480FM-15+0053FMEP V0203001N005112200019N0112651N1+02801+02101999999ADDGA1021+008409999GF102991999999999999999999MA1101801999999MW1001REMMET045FMEP 140700Z 30010KT 9999 FEW028 28/21 Q1018;EQDQ01+000000PRSWM2
0139619840999992000051408004-21330+055480FM-15+0053FMEP V0202901N005712200019N0112651N1+02801+02201999999ADDGA1021+007809999GF102991999999999999999999MA1101691999999MW1001REMMET045FMEP 140800Z 29011KT 9999 FEW026 28/22 Q1017;EQDQ01+000000PRSWM2
0139619840999992000051409004-21330+055480FM-15+0053FMEP V0202801N005112200019N0112651N1+02901+02201999999ADDGA1021+007509999GF102991999999999999999999MA1101691999999MW1001REMMET045FMEP 140900Z 28010KT 9999 FEW025 29/22 Q1017;EQDQ01+000000PRSWM2
0139619840999992000051410004-21330+055480FM-15+0053FMEP V0202601N004612200019N0112651N1+02801+02101999999ADDGA1021+006909999GF102991999999999999999999MA1101591999999MW1001REMMET045FMEP 141000Z 26009KT 9999 FEW023 28/21 Q1016;EQDQ01+000000PRSWM2
0139619840999992000051411004-21330+055480FM-15+0053FMEP V0202701N003612200019N0112651N1+02901+02201999999ADDGA1021+006309999GF102991999999999999999999MA1101591999999MW1001REMMET045FMEP 141100Z 27007KT 9999 FEW021 29/22 Q1016;EQDQ01+000000PRSWM2
0185619840999992000051412004-21330+055480FM-15+0053FMEP V0202401N002110900019N0112651N1+02801+02201999999ADDGA1021+005409999GA2021+015009999GA3071+090009999GF107991999999999999999999MA1101591999999MW1001REMMET059FMEP 141200Z 24004KT 9999 FEW018 SCT056 BKN300 28/22 Q1016;EQDQ01+000000PRSWM2
0162619840999992000051413004-21330+055480FM-15+0053FMEP V0202501N001510900019N0112651N1+02701+02201999999ADDGA1021+005409999GA2071+090009999GF107991999999999999999999MA1101591999999MW1001REMMET052FMEP 141300Z 25003KT 9999 FEW018 BKN300 27/22 Q1016;EQDQ01+000000PRSWM2
0139619840999992000051503004-21330+055480FM-15+0053FMEP V0200501N003112200019N0112651N1+02201+01701999999ADDGA1021+021009999GF104991999999999999999999MA1101591999999MW1001REMMET045FMEP 150300Z 05006KT 9999 SCT076 22/17 Q1016;EQDQ01+000000PRSWM2
0139619840999992000051504004-21330+055480FM-15+0053FMEP V0200401N003112200019N0112651N1+02401+01801999999ADDGA1021+021009999GF102991999999999999999999MA1101591999999MW1001REMMET045FMEP 150400Z 04006KT 9999 FEW076 24/18 Q1016;EQDQ01+000000PRSWM2
0139619840999992000051505004-21330+055480FM-15+0053FMEP V0201401N001512200019N0112651N1+02701+02001999999ADDGA1021+024009999GF102991999999999999999999MA1101691999999MW1001REMMET045FMEP 150500Z 14003KT 9999 FEW080 27/20 Q1017;EQDQ01+000000PRSWM2
0139619840999992000051506004-21330+055480FM-15+0053FMEP V0201501N002612200019N0112651N1+02801+02101999999ADDGA1021+010809999GF102991999999999999999999MA1101691999999MW1001REMMET045FMEP 150600Z 15005KT 9999 FEW036 28/21 Q1017;EQDQ01+000000PRSWM2
0139619840999992000051507004-21330+055480FM-15+0053FMEP V0202001N002612200019N0112651N1+02801+02101999999ADDGA1021+015009999GF102991999999999999999999MA1101591999999MW1001REMMET045FMEP 150700Z 20005KT 9999 FEW050 28/21 Q1016;EQDQ01+000000PRSWM2
0139619840999992000051508004-21330+055480FM-15+0053FMEP V0201901N003612200019N0112651N1+02801+02201999999ADDGA1021+008409999GF102991999999999999999999MA1101491999999MW1001REMMET045FMEP 150800Z 19007KT 9999 FEW028 28/22 Q1015;EQDQ01+000000PRSWM2
0162619840999992000051509004-21330+055480FM-15+0053FMEP V0201601N004112200019N0112651N1+02801+02101999999ADDGA1021+008409999GA2021+018009999GF104991999999999999999999MA1101491999999MW1001REMMET052FMEP 150900Z 16008KT 9999 SCT028 SCT066 28/21 Q1015;EQDQ01+000000PRSWM2
0139619840999992000051510004-21330+055480FM-15+0053FMEP V0201301N004112200019N0112651N1+02801+02201999999ADDGA1021+006009999GF102991999999999999999999MA1101391999999MW1001REMMET045FMEP 151000Z 13008KT 9999 FEW020 28/22 Q1014;EQDQ01+000000PRSWM2
0162619840999992000051511004-21330+055480FM-15+0053FMEP V0201501N004612200019N0112651N1+02801+02201999999ADDGA1021+006009999GA2021+054009999GF104991999999999999999999MA1101391999999MW1001REMMET052FMEP 151100Z 15009KT 9999 FEW020 SCT180 28/22 Q1014;EQDQ01+000000PRSWM2
0162619840999992000051512004-21330+055480FM-15+0053FMEP V0201501N004610600019N0112651N1+02701+02201999999ADDGA1021+004809999GA2071+060009999GF107991999999999999999999MA1101391999999MW1001REMMET052FMEP 151200Z 15009KT 9999 FEW016 BKN200 27/22 Q1014;EQDQ01+000000PRSWM2
0162619840999992000051513004-21330+055480FM-15+0053FMEP V0201401N003610150019N0112651N1+02701+02101999999ADDGA1021+004809999GA2071+015009999GF107991999999999999999999MA1101391999999MW1001REMMET052FMEP 151300Z 14007KT 9999 SCT016 BKN053 27/21 Q1014;EQDQ01+000000PRSWM2
0139619840999992000051603004-21330+055480FM-15+0053FMEP V0200401N003112200019N0112651N1+02201+01601999999ADDGA1021+009309999GF102991999999999999999999MA1101491999999MW1001REMMET045FMEP 160300Z 04006KT 9999 FEW031 22/16 Q1015;EQDQ01+000000PRSWM2
0139619840999992000051604004-21330+055480FM-15+0053FMEP V0200301N002612200019N0112651N1+02501+01701999999ADDGA1021+009309999GF102991999999999999999999MA1101491999999MW1001REMMET045FMEP 160400Z 03005KT 9999 FEW031 25/17 Q1015;EQDQ01+000000PRSWM2
0139619840999992000051605004-21330+055480FM-15+0053FMEP V0203501N001012200019N0112651N1+02801+01801999999ADDGA1021+009309999GF102991999999999999999999MA1101591999999MW1001REMMET045FMEP 160500Z 35002KT 9999 FEW031 28/18 Q1016;EQDQ01+000000PRSWM2
0139619840999992000051606004-21330+055480FM-15+0053FMEP V0203001N006212200019N0112651N1+03001+02201999999ADDGA1021+007509999GF102991999999999999999999MA1101491999999MW1001REMMET045FMEP 160600Z 30012KT 9999 FEW025 30/22 Q1015;EQDQ01+000000PRSWM2
0139619840999992000051607004-21330+055480FM-15+0053FMEP V0202901N009312200019N0112651N1+02901+02301999999ADDGA1021+007509999GF102991999999999999999999MA1101491999999MW1001REMMET045FMEP 160700Z 29018KT 9999 FEW025 29/23 Q1015;EQDQ01+000000PRSWM2
0142619840999992000051608004-21330+055480FM-15+0053FMEP V0202901N009312200019N0112651N1+02901+02201999999ADDGA1021+007509029GF102991999999999999999999MA1101491999999MW1001REMMET048FMEP 160800Z 29018KT 9999 FEW025TCU 29/22 Q1015;EQDQ01+000000PRSWM2
0142619840999992000051609004-21330+055480FM-15+0053FMEP V0202901N008712200019N0112651N1+02901+02301999999ADDGA1021+006309029GF102991999999999999999999MA1101391999999MW1001REMMET048FMEP 160900Z 29017KT 9999 FEW021TCU 29/23 Q1014;EQDQ01+000000PRSWM2
0139619840999992000051610004-21330+055480FM-15+0053FMEP V0202901N009812200019N0112651N1+02901+02301999999ADDGA1021+007509999GF102991999999999999999999MA1101291999999MW1001REMMET045FMEP 161000Z 29019KT 9999 FEW025 29/23 Q1013;EQDQ01+000000PRSWM2
0142619840999992000051611004-21330+055480FM-15+0053FMEP V0202801N008212200019N0112651N1+02901+02201999999ADDGA1021+007509029GF102991999999999999999999MA1101291999999MW1001REMMET048FMEP 161100Z 28016KT 9999 FEW025TCU 29/22 Q1013;EQDQ01+000000PRSWM2
0142619840999992000051612004-21330+055480FM-15+0053FMEP V0202701N008212200019N0112651N1+02801+02201999999ADDGA1021+007509029GF102991999999999999999999MA1101291999999MW1001REMMET048FMEP 161200Z 27016KT 9999 FEW025TCU 28/22 Q1013;EQDQ01+000000PRSWM2
0142619840999992000051613004-21330+055480FM-15+0053FMEP V0202801N005712200019N0112651N1+02701+02201999999ADDGA1021+007509029GF104991999999999999999999MA1101391999999MW1001REMMET048FMEP 161300Z 28011KT 9999 SCT025TCU 27/22 Q1014;EQDQ01+000000PRSWM2
0142619840999992000051703004-21330+055480FM-15+0053FMEP V0200301N004112200019N0112651N1+02101+01701999999ADDGA1021+003009029GF102991999999999999999999MA1101591999999MW1001REMMET048FMEP 170300Z 03008KT 9999 FEW010TCU 21/17 Q1016;EQDQ01+000000PRSWM2
0139619840999992000051704004-21330+055480FM-15+0053FMEP V0200401N003112200019N0112651N1+02301+01801999999ADDGA1021+003009999GF102991999999999999999999MA1101691999999MW1001REMMET045FMEP 170400Z 04006KT 9999 FEW010 23/18 Q1017;EQDQ01+000000PRSWM2
0139619840999992000051705004-21330+055480FM-15+0053FMEP V0200301N002612200019N0112651N1+02601+01801999999ADDGA1021+003009999GF102991999999999999999999MA1101691999999MW1001REMMET045FMEP 170500Z 03005KT 9999 FEW010 26/18 Q1017;EQDQ01+000000PRSWM2
0147619840999992000051706004-21330+055480FM-15+0053FMEP V0201901N002112200019N0112651N1+02601+02001999999ADDGA1021+004509999GF104991999999999999999999MA1101691999999MW1001REMMET053FMEP 170600Z 19004KT 150V230 9999 SCT015 26/20 Q1017;EQDQ01+000000PRSWM2
0147619840999992000051707004-21330+055480FM-15+0053FMEP V0201801N002612200019N0112651N1+02701+02101999999ADDGA1021+006309999GF104991999999999999999999MA1101691999999MW1001REMMET053FMEP 170700Z 18005KT 150V240 9999 SCT021 27/21 Q1017;EQDQ01+000000PRSWM2
0139619840999992000051709004-21330+055480FM-15+0053FMEP V0201701N004612200019N0112651N1+02801+01901999999ADDGA1021+007509999GF102991999999999999999999MA1101491999999MW1001REMMET045FMEP 170900Z 17009KT 9999 FEW025 28/19 Q1015;EQDQ01+000000PRSWM2
0162619840999992000051710004-21330+055480FM-15+0053FMEP V0201501N005112200019N0112651N1+02801+02001999999ADDGA1021+007509999GA2021+018009999GF104991999999999999999999MA1101491999999MW1001REMMET052FMEP 171000Z 15010KT 9999 FEW025 SCT060 28/20 Q1015;EQDQ01+000000PRSWM2
0162619840999992000051711004-21330+055480FM-15+0053FMEP V0201501N006712200019N0112651N1+02601+02001999999ADDGA1021+007509999GA2021+015009999GF104991999999999999999999MA1101491999999MW1001REMMET052FMEP 171100Z 15013KT 9999 FEW025 SCT053 26/20 Q1015;EQDQ01+000000PRSWM2
0162619840999992000051712004-21330+055480FM-15+0053FMEP V0201401N006712200019N0112651N1+02601+02001999999ADDGA1021+007509999GA2021+015009999GF104991999999999999999999MA1101491999999MW1001REMMET052FMEP 171200Z 14013KT 9999 FEW025 SCT053 26/20 Q1015;EQDQ01+000000PRSWM2
0162619840999992000051713004-21330+055480FM-15+0053FMEP V0201201N006210150019N0112651N1+02501+02001999999ADDGA1021+007509999GA2071+015009999GF107991999999999999999999MA1101491999999MW1001REMMET052FMEP 171300Z 12012KT 9999 FEW025 BKN053 25/20 Q1015;EQDQ01+000000PRSWM2
0147619840999992000051803004-21330+055480FM-15+0053FMEP V0200801N002112200019N0112651N1+02001+01601999999ADDGA1021+006309999GF102991999999999999999999MA1101691999999MW1001REMMET053FMEP 180300Z 08004KT 020V120 9999 FEW021 20/16 Q1017;EQDQ01+000000PRSWM2
0147619840999992000051804004-21330+055480FM-15+0053FMEP V0201001N003112200019N0112651N1+02301+01601999999ADDGA1021+006309999GF102991999999999999999999MA1101801999999MW1001REMMET053FMEP 180400Z 10006KT 060V150 9999 FEW021 23/16 Q1018;EQDQ01+000000PRSWM2
0139619840999992000051805004-21330+055480FM-15+0053FMEP V0201001N004612200019N0112651N1+02601+01501999999ADDGA1021+006309999GF102991999999999999999999MA1101801999999MW1001REMMET045FMEP 180500Z 10009KT 9999 FEW021 26/15 Q1018;EQDQ01+000000PRSWM2
0139619840999992000051806004-21330+055480FM-15+0053FMEP V0201301N008212200019N0112651N1+02701+01801999999ADDGA1021+006309999GF102991999999999999999999MA1101801999999MW1001REMMET045FMEP 180600Z 13016KT 9999 FEW021 27/18 Q1018;EQDQ01+000000PRSWM2
0139619840999992000051807004-21330+055480FM-15+0053FMEP V0201301N009812200019N0112651N1+02701+02001999999ADDGA1021+006309999GF102991999999999999999999MA1101691999999MW1001REMMET045FMEP 180700Z 13019KT 9999 FEW021 27/20 Q1017;EQDQ01+000000PRSWM2
0139619840999992000051808004-21330+055480FM-15+0053FMEP V0201301N009812200019N0112651N1+02701+02001999999ADDGA1021+006309999GF102991999999999999999999MA1101691999999MW1001REMMET045FMEP 180800Z 13019KT 9999 FEW021 27/20 Q1017;EQDQ01+000000PRSWM2
0139619840999992000051809004-21330+055480FM-15+0053FMEP V0201301N009812200019N0112651N1+02701+02001999999ADDGA1021+007509999GF102991999999999999999999MA1101591999999MW1001REMMET045FMEP 180900Z 13019KT 9999 FEW025 27/20 Q1016;EQDQ01+000000PRSWM2
0139619840999992000051810004-21330+055480FM-15+0053FMEP V0201401N010312200019N0112651N1+02701+01901999999ADDGA1021+007509999GF102991999999999999999999MA1101491999999MW1001REMMET045FMEP 181000Z 14020KT 9999 FEW025 27/19 Q1015;EQDQ01+000000PRSWM2
0139619840999992000051811004-21330+055480FM-15+0053FMEP V0201301N009812200019N0112651N1+02601+01901999999ADDGA1021+007509999GF102991999999999999999999MA1101491999999MW1001REMMET045FMEP 181100Z 13019KT 9999 FEW025 26/19 Q1015;EQDQ01+000000PRSWM2
0139619840999992000051812004-21330+055480FM-15+0053FMEP V0201301N008712200019N0112651N1+02601+01801999999ADDGA1021+007509999GF102991999999999999999999MA1101491999999MW1001REMMET045FMEP 181200Z 13017KT 9999 FEW025 26/18 Q1015;EQDQ01+000000PRSWM2
0139619840999992000051813004-21330+055480FM-15+0053FMEP V0201201N007712200019N0112651N1+02501+01701999999ADDGA1021+007509999GF102991999999999999999999MA1101491999999MW1001REMMET045FMEP 181300Z 12015KT 9999 FEW025 25/17 Q1015;EQDQ01+000000PRSWM2
0147619840999992000051903004-21330+055480FM-15+0053FMEP V0200801N002112200019N0112651N1+02001+01601999999ADDGA1021+006309999GF102991999999999999999999MA1101691999999MW1001REMMET053FMEP 180300Z 08004KT 020V120 9999 FEW021 20/16 Q1017;EQDQ01+000000PRSWM2
0139619840999992000051904004-21330+055480FM-15+0053FMEP V0200401N003112200019N0112651N1+02201+01401999999ADDGA1021+006309999GF102991999999999999999999MA1101801999999MW1001REMMET045FMEP 190400Z 04006KT 9999 FEW021 22/14 Q1018;EQDQ01+000000PRSWM2
0170619840999992000051905004-21330+055480FM-15+0053FMEP V0200501N002112200019N0112651N1+02401+01401999999ADDGA1021+006309999GA2021+015009999GF104991999999999999999999MA1101801999999MW1001REMMET060FMEP 190500Z 05004KT 360V100 9999 FEW021 SCT050 24/14 Q1018;EQDQ01+000000PRSWM2
0139619840999992000051906004-21330+055480FM-15+0053FMEP V0201401N004112200019N0112651N1+02601+01901999999ADDGA1021+006309999GF102991999999999999999999MA1101801999999MW1001REMMET045FMEP 190600Z 14008KT 9999 FEW021 26/19 Q1018;EQDQ01+000000PRSWM2
0160619840999992000051907004-21330+055480FM-15+0053FMEP V0201501N007212200019N0050001N1+02501+02001999999ADDGA1021+003909999GF104991999999999999999999MA1101801999999MW1161REMMET050FMEP 190700Z 15014KT 5000 VCSH SCT013 25/20 Q1018;EQDQ01+000003PRSWM1Q02    003PRSWM1
0160619840999992000051908004-21330+055480FM-15+0053FMEP V0201401N005112200019N0080001N1+02601+02001999999ADDGA1021+006309999GF102991999999999999999999MA1101691999999MW1161REMMET050FMEP 190800Z 14010KT 8000 VCSH FEW021 26/20 Q1017;EQDQ01+000003PRSWM1Q02    003PRSWM1
0183619840999992000051909004-21330+055480FM-15+0053FMEP V0201501N005112200019N0080001N1+02501+02001999999ADDGA1021+006309999GA2021+015009999GF104991999999999999999999MA1101691999999MW1161REMMET057FMEP 190900Z 15010KT 8000 VCSH FEW021 SCT050 25/20 Q1017;EQDQ01+000003PRSWM1Q02    003PRSWM1
0183619840999992000051910004-21330+055480FM-15+0053FMEP V0201401N006212200019N0080001N1+02601+02101999999ADDGA1021+006309999GA2021+015009999GF104991999999999999999999MA1101591999999MW1161REMMET057FMEP 191000Z 14012KT 8000 VCSH FEW021 SCT050 26/21 Q1016;EQDQ01+000003PRSWM1Q02    003PRSWM1
0162619840999992000051911004-21330+055480FM-15+0053FMEP V0201301N006212200019N0112651N1+02601+02001999999ADDGA1021+006309999GA2021+015009999GF104991999999999999999999MA1101591999999MW1001REMMET052FMEP 191100Z 13012KT 9999 FEW021 SCT050 26/20 Q1016;EQDQ01+000000PRSWM2
0162619840999992000051913004-21330+055480FM-15+0053FMEP V0201401N003612200019N0112651N1+02401+02001999999ADDGA1021+006309999GA2021+015009999GF104991999999999999999999MA1101591999999MW1001REMMET052FMEP 191300Z 14007KT 9999 FEW021 SCT050 24/20 Q1016;EQDQ01+000000PRSWM2
0162619840999992000052003004-21330+055480FM-15+0053FMEP V0200301N004112200019N0112651N1+02001+01601999999ADDGA1021+007809999GA2021+024009999GF104991999999999999999999MA1101691999999MW1001REMMET052FMEP 200300Z 03008KT 9999 FEW026 SCT081 20/16 Q1017;EQDQ01+000000PRSWM2
0162619840999992000052004004-21330+055480FM-15+0053FMEP V0200301N002612200019N0112651N1+02401+01701999999ADDGA1021+012009999GA2021+024009999GF104991999999999999999999MA1101801999999MW1001REMMET052FMEP 200400Z 03005KT 9999 FEW040 SCT080 24/17 Q1018;EQDQ01+000000PRSWM2
0162619840999992000052005004-21330+055480FM-15+0053FMEP V0200201N001012200019N0112651N1+02701+01701999999ADDGA1021+012009999GA2021+024009999GF104991999999999999999999MA1101801999999MW1001REMMET052FMEP 200500Z 02002KT 9999 FEW040 SCT080 27/17 Q1018;EQDQ01+000000PRSWM2
0139619840999992000052006004-21330+055480FM-15+0053FMEP V0201801N003112200019N0112651N1+02701+01801999999ADDGA1021+012009999GF102991999999999999999999MA1101801999999MW1001REMMET045FMEP 200600Z 18006KT 9999 FEW040 27/18 Q1018;EQDQ01+000000PRSWM2
0139619840999992000052007004-21330+055480FM-15+0053FMEP V0201301N008212200019N0112651N1+02701+02101999999ADDGA1021+010809999GF102991999999999999999999MA1101801999999MW1001REMMET045FMEP 200700Z 13016KT 9999 FEW036 27/21 Q1018;EQDQ01+000000PRSWM2
0139619840999992000052008004-21330+055480FM-15+0053FMEP V0201301N008712200019N0112651N1+02801+02001999999ADDGA1021+010809999GF102991999999999999999999MA1101691999999MW1001REMMET045FMEP 200800Z 13017KT 9999 FEW036 28/20 Q1017;EQDQ01+000000PRSWM2
0162619840999992000052010004-21330+055480FM-15+0053FMEP V0201401N008712200019N0112651N1+02701+02001999999ADDGA1021+009909999GA2021+021009999GF104991999999999999999999MA1101591999999MW1001REMMET052FMEP 201000Z 14017KT 9999 FEW033 SCT073 27/20 Q1016;EQDQ01+000000PRSWM2
0139619840999992000052011004-21330+055480FM-15+0053FMEP V0201301N008712200019N0112651N1+02701+02001999999ADDGA1021+010809999GF102991999999999999999999MA1101591999999MW1001REMMET045FMEP 201100Z 13017KT 9999 FEW036 27/20 Q1016;EQDQ01+000000PRSWM2
0139619840999992000052013004-21330+055480FM-15+0053FMEP V0201301N007712200019N0112651N1+02501+01901999999ADDGA1021+010809999GF102991999999999999999999MA1101591999999MW1001REMMET045FMEP 201300Z 13015KT 9999 FEW036 25/19 Q1016;EQDQ01+000000PRSWM2
0139619840999992000052103004-21330+055480FM-15+0053FMEP V0200401N003612200019N0112651N1+01901+01401999999ADDGA1021+015009999GF102991999999999999999999MA1101591999999MW1001REMMET045FMEP 210300Z 04007KT 9999 FEW050 19/14 Q1016;EQDQ01+000000PRSWM2
0139619840999992000052104004-21330+055480FM-15+0053FMEP V0200201N003112200019N0112651N1+02201+01501999999ADDGA1021+015009999GF102991999999999999999999MA1101691999999MW1001REMMET045FMEP 210400Z 02006KT 9999 FEW050 22/15 Q1017;EQDQ01+000000PRSWM2
0139619840999992000052105004-21330+055480FM-15+0053FMEP V0200201N001512200019N0112651N1+02501+01701999999ADDGA1021+012909999GF102991999999999999999999MA1101691999999MW1001REMMET045FMEP 210500Z 02003KT 9999 FEW043 25/17 Q1017;EQDQ01+000000PRSWM2
0139619840999992000052106004-21330+055480FM-15+0053FMEP V0202601N003612200019N0112651N1+02601+01901999999ADDGA1021+010509999GF102991999999999999999999MA1101801999999MW1001REMMET045FMEP 210600Z 26007KT 9999 FEW035 26/19 Q1018;EQDQ01+000000PRSWM2
0139619840999992000052107004-21330+055480FM-15+0053FMEP V0202701N004112200019N0112651N1+02801+02001999999ADDGA1021+009909999GF104991999999999999999999MA1101691999999MW1001REMMET045FMEP 210700Z 27008KT 9999 SCT033 28/20 Q1017;EQDQ01+000000PRSWM2
0147619840999992000052108004-21330+055480FM-15+0053FMEP V0202701N003612200019N0112651N1+02801+01901999999ADDGA1021+009309999GF102991999999999999999999MA1101591999999MW1001REMMET053FMEP 210800Z 27007KT 240V310 9999 FEW031 28/19 Q1016;EQDQ01+000000PRSWM2
0162619840999992000052109004-21330+055480FM-15+0053FMEP V0202701N004612200019N0112651N1+02801+01901999999ADDGA1021+009009999GA2021+015009999GF104991999999999999999999MA1101591999999MW1001REMMET052FMEP 210900Z 27009KT 9999 FEW030 SCT050 28/19 Q1016;EQDQ01+000000PRSWM2
0162619840999992000052110004-21330+055480FM-15+0053FMEP V0202601N003612200019N0112651N1+02801+02001999999ADDGA1021+009009999GA2021+018009999GF104991999999999999999999MA1101491999999MW1001REMMET052FMEP 211000Z 26007KT 9999 FEW030 SCT060 28/20 Q1015;EQDQ01+000000PRSWM2
0162619840999992000052111004-21330+055480FM-15+0053FMEP V0202501N003110138019N0112651N1+02701+02001999999ADDGA1021+008409999GA2071+013809999GF107991999999999999999999MA1101491999999MW1001REMMET052FMEP 211100Z 25006KT 9999 SCT028 BKN046 27/20 Q1015;EQDQ01+000000PRSWM2
0162619840999992000052112004-21330+055480FM-15+0053FMEP V0202601N003110120019N0112651N1+02601+02001999999ADDGA1021+007509999GA2071+012009999GF107991999999999999999999MA1101491999999MW1001REMMET052FMEP 211200Z 26006KT 9999 SCT025 BKN040 26/20 Q1015;EQDQ01+000000PRSWM2
0218619840999992000052113004-21330+055480FM-15+0053FMEP V0200501N001010108019N0070001N1+02501+02101999999ADDGA1021+000909999GA2021+007509999GA3071+010809999GF107991999999999999999999MW1801REMMET091FMEP 211300Z 05002KT 7000 -SHRA FEW003 SCT025 BKN036 25/21 7000 -SHRA FEW003 SCT025 BKN036;EQDQ01+000003PRSWM1Q02    003PRSWM1
0139619840999992000052203004-21330+055480FM-15+0053FMEP V0200401N004112200019N0112651N1+02001+01801999999ADDGA1021+006309999GF102991999999999999999999MA1101591999999MW1001REMMET045FMEP 220300Z 04008KT 9999 FEW021 20/18 Q1016;EQDQ01+000000PRSWM2
0139619840999992000052204004-21330+055480FM-15+0053FMEP V0200401N003112200019N0112651N1+02301+01801999999ADDGA1021+006309999GF102991999999999999999999MA1101691999999MW1001REMMET045FMEP 220400Z 04006KT 9999 FEW021 23/18 Q1017;EQDQ01+000000PRSWM2
0165619840999992000052205004-21330+055480FM-15+0053FMEP V0201101N002112200019N0112651N1+02601+01901999999ADDGA1021+006309029GA2021+006309999GF102991999999999999999999MA1101691999999MW1001REMMET055FMEP 220500Z 11004KT 9999 FEW021TCU FEW021 26/19 Q1017;EQDQ01+000000PRSWM2
0165619840999992000052206004-21330+055480FM-15+0053FMEP V0201501N003612200019N0112651N1+02601+02001999999ADDGA1021+006309029GA2021+006309999GF102991999999999999999999MA1101801999999MW1001REMMET055FMEP 220600Z 15007KT 9999 FEW021TCU FEW021 26/20 Q1018;EQDQ01+000000PRSWM2
0165619840999992000052207004-21330+055480FM-15+0053FMEP V0201801N001512200019N0112651N1+02701+02001999999ADDGA1021+006309029GA2021+006309999GF102991999999999999999999MA1101691999999MW1001REMMET055FMEP 220700Z 18003KT 9999 FEW021TCU FEW021 27/20 Q1017;EQDQ01+000000PRSWM2
0147619840999992000052208004-21330+055480FM-15+0053FMEP V0202201N002112200019N0112651N1+02701+02101999999ADDGA1021+006309999GF102991999999999999999999MA1101591999999MW1001REMMET053FMEP 220800Z 22004KT 180V270 9999 FEW021 27/21 Q1016;EQDQ01+000000PRSWM2
0139619840999992000052209004-21330+055480FM-15+0053FMEP V0202501N003112200019N0112651N1+02801+02101999999ADDGA1021+006309999GF102991999999999999999999MA1101491999999MW1001REMMET045FMEP 220900Z 25006KT 9999 FEW021 28/21 Q1015;EQDQ01+000000PRSWM2
0139619840999992000052210004-21330+055480FM-15+0053FMEP V0202701N004612200019N0112651N1+02801+02101999999ADDGA1021+006309999GF104991999999999999999999MA1101491999999MW1001REMMET045FMEP 221000Z 27009KT 9999 SCT021 28/21 Q1015;EQDQ01+000000PRSWM2
0196619840999992000052211004-21330+055480FM-15+0053FMEP V0202701N004612200019N0112651N1+02701+02101999999ADDGA1021+006309029GA2021+006309999GA3021+018009999GF104991999999999999999999MW1001REMMET085FMEP 221100Z 27009KT 9999 FEW021TCU FEW021 SCT066 27/21 9999 FEW021TCU FEW021 SCT066;EQDQ01+000000PRSWM2
0196619840999992000052212004-21330+055480FM-15+0053FMEP V0202801N004612200019N0112651N1+02701+02101999999ADDGA1021+006309029GA2021+006309999GA3021+018009999GF104991999999999999999999MW1001REMMET085FMEP 221200Z 28009KT 9999 FEW021TCU FEW021 SCT066 27/21 9999 FEW021TCU FEW021 SCT066;EQDQ01+000000PRSWM2
0165619840999992000052213004-21330+055480FM-15+0053FMEP V0202901N004112200019N0112651N1+02601+02101999999ADDGA1021+006309029GA2021+006309999GF102991999999999999999999MA1101491999999MW1001REMMET055FMEP 221300Z 29008KT 9999 FEW021TCU FEW021 26/21 Q1015;EQDQ01+000000PRSWM2
0192619840999992000052303004-21330+055480FM-15+0053FMEP V0203601N001510240019N0112651N1+02101+01901999999ADDGA1021+004509029GA2071+024009999GF107991999999999999999999MA1101591999999MW1001REMMET082FMEP 230300Z 36003KT 9999 FEW015TCU BKN080 21/19 Q1016 9999 FEW015TCU BKN080 RERA;EQDQ01+000000PRSWM2
0162619840999992000052304004-21330+055480FM-15+0053FMEP V0200101N001510240019N0112651N1+02201+02001999999ADDGA1021+010809999GA2071+024009999GF107991999999999999999999MA1101591999999MW1001REMMET052FMEP 230400Z 01003KT 9999 FEW036 BKN080 22/20 Q1016;EQDQ01+000000PRSWM2
0162619840999992000052305004-21330+055480FM-15+0053FMEP V0200401N001510210019N0112651N1+02401+02001999999ADDGA1021+011409999GA2071+021009999GF107991999999999999999999MA1101591999999MW1001REMMET052FMEP 230500Z 04003KT 9999 FEW038 BKN073 24/20 Q1016;EQDQ01+000000PRSWM2
0162619840999992000052306004-21330+055480FM-15+0053FMEP V0202101N001012200019N0112651N1+02501+01901999999ADDGA1021+009909999GA2021+021009999GF104991999999999999999999MA1101691999999MW1001REMMET052FMEP 230600Z 21002KT 9999 FEW033 SCT073 25/19 Q1017;EQDQ01+000000PRSWM2
0170619840999992000052307004-21330+055480FM-15+0053FMEP V0202401N002112200019N0112651N1+02601+01901999999ADDGA1021+009309999GA2021+048009999GF104991999999999999999999MA1101591999999MW1001REMMET060FMEP 230700Z 24004KT 200V280 9999 FEW031 SCT160 26/19 Q1016;EQDQ01+000000PRSWM2
0165619840999992000052308004-21330+055480FM-15+0053FMEP V0202501N003612200019N0112651N1+02701+02101999999ADDGA1021+009309029GA2021+024009999GF104991999999999999999999MA1101591999999MW1001REMMET055FMEP 230800Z 25007KT 9999 FEW031TCU SCT080 27/21 Q1016;EQDQ01+000000PRSWM2
0165619840999992000052309004-21330+055480FM-15+0053FMEP V0202501N003610180019N0112651N1+02801+02001999999ADDGA1021+007809029GA2071+018009999GF107991999999999999999999MA1101591999999MW1001REMMET055FMEP 230900Z 25007KT 9999 FEW026TCU BKN063 28/20 Q1016;EQDQ01+000000PRSWM2
0165619840999992000052310004-21330+055480FM-15+0053FMEP V0202701N003610180019N0112651N1+02801+02101999999ADDGA1021+006909029GA2071+018009999GF107991999999999999999999MA1101491999999MW1001REMMET055FMEP 231000Z 27007KT 9999 SCT023TCU BKN066 28/21 Q1015;EQDQ01+000000PRSWM2
0186619840999992000052311004-21330+055480FM-15+0053FMEP V0202701N003610180019N0112651N1+02701+02001999999ADDGA1021+006909029GA2071+018009999GF107991999999999999999999MA1101491999999MW1161REMMET060FMEP 231100Z 27007KT 9999 VCSH SCT023TCU BKN060 27/20 Q1015;EQDQ01+000003PRSWM1Q02    003PRSWM1
0165619840999992000052312004-21330+055480FM-15+0053FMEP V0202801N003110150019N0112651N1+02601+02001999999ADDGA1021+005409029GA2071+015009999GF107991999999999999999999MA1101491999999MW1001REMMET055FMEP 231200Z 28006KT 9999 SCT018TCU BKN056 26/20 Q1015;EQDQ01+000000PRSWM2
0165619840999992000052313004-21330+055480FM-15+0053FMEP V0202501N002610150019N0112651N1+02601+02001999999ADDGA1021+004509029GA2071+015009999GF107991999999999999999999MA1101491999999MW1001REMMET055FMEP 231300Z 25005KT 9999 SCT015TCU BKN050 26/20 Q1015;EQDQ01+000000PRSWM2
0142619840999992000052403004-21330+055480FM-15+0053FMEP V0200401N002612200019N0112651N1+02101+01701999999ADDGA1021+006309029GF102991999999999999999999MA1101691999999MW1001REMMET048FMEP 240300Z 04005KT 9999 FEW021TCU 21/17 Q1017;EQDQ01+000000PRSWM2
0142619840999992000052404004-21330+055480FM-15+0053FMEP V0200301N002112200019N0112651N1+02301+01801999999ADDGA1021+006309029GF102991999999999999999999MA1101691999999MW1001REMMET048FMEP 240400Z 03004KT 9999 FEW021TCU 23/18 Q1017;EQDQ01+000000PRSWM2
0139619840999992000052405004-21330+055480FM-15+0053FMEP V0200401N001012200019N0112651N1+02601+01801999999ADDGA1021+007509999GF102991999999999999999999MA1101801999999MW1001REMMET045FMEP 240500Z 04002KT 9999 FEW025 26/18 Q1018;EQDQ01+000000PRSWM2
0139619840999992000052406004-21330+055480FM-15+0053FMEP V0201401N005712200019N0112651N1+02701+02101999999ADDGA1021+007509999GF102991999999999999999999MA1101801999999MW1001REMMET045FMEP 240600Z 14011KT 9999 FEW025 27/21 Q1018;EQDQ01+000000PRSWM2
0139619840999992000052407004-21330+055480FM-15+0053FMEP V0201401N005712200019N0112651N1+02701+02101999999ADDGA1021+007509999GF102991999999999999999999MA1101691999999MW1001REMMET045FMEP 240700Z 14011KT 9999 FEW025 27/21 Q1017;EQDQ01+000000PRSWM2
0142619840999992000052408004-21330+055480FM-15+0053FMEP V0201401N006212200019N0112651N1+02801+02201999999ADDGA1021+007509029GF102991999999999999999999MA1101591999999MW1001REMMET048FMEP 240800Z 14012KT 9999 FEW025TCU 28/22 Q1016;EQDQ01+000000PRSWM2
0142619840999992000052409004-21330+055480FM-15+0053FMEP V0201401N006712200019N0112651N1+02801+02101999999ADDGA1021+006309029GF102991999999999999999999MA1101591999999MW1001REMMET048FMEP 240900Z 14013KT 9999 FEW021TCU 28/21 Q1016;EQDQ01+000000PRSWM2
0139619840999992000052411004-21330+055480FM-15+0053FMEP V0201501N006212200019N0112651N1+02701+02101999999ADDGA1021+006309999GF102991999999999999999999MA1101491999999MW1001REMMET045FMEP 241100Z 15012KT 9999 FEW021 27/21 Q1015;EQDQ01+000000PRSWM2
0139619840999992000052412004-21330+055480FM-15+0053FMEP V0201401N006712200019N0112651N1+02601+02101999999ADDGA1021+007509999GF102991999999999999999999MA1101491999999MW1001REMMET045FMEP 241200Z 14013KT 9999 FEW025 26/21 Q1015;EQDQ01+000000PRSWM2
0139619840999992000052413004-21330+055480FM-15+0053FMEP V0201301N007712200019N0112651N1+02501+02101999999ADDGA1021+007509999GF102991999999999999999999MA1101491999999MW1001REMMET045FMEP 241300Z 13015KT 9999 FEW025 25/21 Q1015;EQDQ01+000000PRSWM2
0165619840999992000052503004-21330+055480FM-15+0053FMEP V0201001N002612200019N0112651N1+02301+01701999999ADDGA1021+003909029GA2021+033009999GF104991999999999999999999MA1101691999999MW1001REMMET055FMEP 250300Z 10005KT 9999 FEW013TCU SCT110 23/17 Q1017;EQDQ01+000000PRSWM2
0170619840999992000052504004-21330+055480FM-15+0053FMEP V0201101N002112200019N0112651N1+02301+01701999999ADDGA1021+004809999GA2021+033009999GF104991999999999999999999MA1101691999999MW1001REMMET060FMEP 250400Z 11004KT 070V140 9999 FEW016 SCT110 23/17 Q1017;EQDQ01+000000PRSWM2
0162619840999992000052506004-21330+055480FM-15+0053FMEP V0201601N001012200019N0112651N1+02701+01901999999ADDGA1021+004809999GA2021+024009999GF104991999999999999999999MA1101691999999MW1001REMMET052FMEP 250600Z 16002KT 9999 FEW016 SCT083 27/19 Q1017;EQDQ01+000000PRSWM2
0170619840999992000052508004-21330+055480FM-15+0053FMEP V0202301N002610210019N0112651N1+02801+02001999999ADDGA1021+004809999GA2071+021009999GF107991999999999999999999MA1101691999999MW1001REMMET060FMEP 250800Z 23005KT 200V270 9999 FEW016 BKN073 28/20 Q1017;EQDQ01+000000PRSWM2
0170619840999992000052509004-21330+055480FM-15+0053FMEP V0202501N003110180019N0112651N1+02801+01801999999ADDGA1021+006309999GA2071+018009999GF107991999999999999999999MA1101591999999MW1001REMMET060FMEP 250900Z 25006KT 210V280 9999 FEW021 BKN066 28/18 Q1016;EQDQ01+000000PRSWM2
0170619840999992000052511004-21330+055480FM-15+0053FMEP V0202901N003110180019N0112651N1+02701+02001999999ADDGA1021+007509999GA2071+018009999GF107991999999999999999999MA1101491999999MW1001REMMET060FMEP 251100Z 29006KT 260V330 9999 SCT025 BKN063 27/20 Q1015;EQDQ01+000000PRSWM2
0172619840999992000052512004-21330+055480FM-15+0053FMEP V0202801N002110180019N0112651N1+02601+01901999999ADDGA1021+004509099GA2071+018009999GF107991999999999999999999MW1001REMMET077FMEP 251200Z 28004KT 230V320 9999 SCT015CB BKN060 26/19 9999 SCT015CB BKN060;EQDQ01+000000PRSWM2
0139619840999992000052603004-21330+055480FM-15+0053FMEP V0200201N003612200019N0112651N1+02001+01701999999ADDGA1021+003909999GF102991999999999999999999MA1101591999999MW1001REMMET045FMEP 260300Z 02007KT 9999 FEW013 20/17 Q1016;EQDQ01+000000PRSWM2
0139619840999992000052604004-21330+055480FM-15+0053FMEP V0200401N002612200019N0112651N1+02301+01801999999ADDGA1021+004809999GF102991999999999999999999MA1101591999999MW1001REMMET045FMEP 260400Z 04005KT 9999 FEW016 23/18 Q1016;EQDQ01+000000PRSWM2
0139619840999992000052605004-21330+055480FM-15+0053FMEP V0200301N001512200019N0112651N1+02501+01901999999ADDGA1021+004509999GF102991999999999999999999MA1101691999999MW1001REMMET045FMEP 260500Z 03003KT 9999 FEW015 25/19 Q1017;EQDQ01+000000PRSWM2
0139619840999992000052608004-21330+055480FM-15+0053FMEP V0202701N004112200019N0112651N1+02701+02101999999ADDGA1021+003909999GF102991999999999999999999MA1101591999999MW1001REMMET045FMEP 260800Z 27008KT 9999 FEW013 27/21 Q1016;EQDQ01+000000PRSWM2
0139619840999992000052609004-21330+055480FM-15+0053FMEP V0202601N004612200019N0112651N1+02801+02101999999ADDGA1021+004509999GF102991999999999999999999MA1101491999999MW1001REMMET045FMEP 260900Z 26009KT 9999 FEW015 28/21 Q1015;EQDQ01+000000PRSWM2
0162619840999992000052610004-21330+055480FM-15+0053FMEP V0202501N005112200019N0112651N1+02801+02101999999ADDGA1021+004509999GA2021+015009999GF104991999999999999999999MA1101491999999MW1001REMMET052FMEP 261000Z 25010KT 9999 FEW015 SCT050 28/21 Q1015;EQDQ01+000000PRSWM2
0162619840999992000052611004-21330+055480FM-15+0053FMEP V0202701N004112200019N0112651N1+02701+02101999999ADDGA1021+004509999GA2021+015009999GF104991999999999999999999MA1101491999999MW1001REMMET052FMEP 261100Z 27008KT 9999 FEW015 SCT050 27/21 Q1015;EQDQ01+000000PRSWM2
0162619840999992000052612004-21330+055480FM-15+0053FMEP V0202801N004612200019N0112651N1+02701+02101999999ADDGA1021+004509999GA2021+015009999GF104991999999999999999999MA1101391999999MW1001REMMET052FMEP 261200Z 28009KT 9999 FEW015 SCT050 27/21 Q1014;EQDQ01+000000PRSWM2
0162619840999992000052613004-21330+055480FM-15+0053FMEP V0203101N003612200019N0112651N1+02501+02001999999ADDGA1021+004509999GA2021+015009999GF104991999999999999999999MA1101491999999MW1001REMMET052FMEP 261300Z 31007KT 9999 FEW015 SCT050 25/20 Q1015;EQDQ01+000000PRSWM2
0139619840999992000052704004-21330+055480FM-15+0053FMEP V0200401N003612200019N0112651N1+02201+01601999999ADDGA1021+004809999GF102991999999999999999999MA1101591999999MW1001REMMET045FMEP 270400Z 04007KT 9999 FEW016 22/16 Q1016;EQDQ01+000000PRSWM2
0139619840999992000052705004-21330+055480FM-15+0053FMEP V0200301N003112200019N0112651N1+02501+01601999999ADDGA1021+003909999GF102991999999999999999999MA1101591999999MW1001REMMET045FMEP 270500Z 03006KT 9999 FEW013 25/16 Q1016;EQDQ01+000000PRSWM2
0147619840999992000052706114-21330+055480FM-15+0053FMEP V0202301N002112200019N0112651N1+02601+02001999999ADDGA1021+004809999GF102991999999999999999999MA1101591999999MW1001REMMET053FMEP 270611Z 23004KT 180V270 9999 FEW016 26/20 Q1016;EQDQ01+000000PRSWM2
0162619840999992000052708004-21330+055480FM-15+0053FMEP V0201801N002612200019N0112651N1+02701+01901999999ADDGA1021+009009999GA2021+015009999GF104991999999999999999999MA1101591999999MW1001REMMET052FMEP 270800Z 18005KT 9999 FEW030 SCT053 27/19 Q1016;EQDQ01+000000PRSWM2
0185619840999992000052709004-21330+055480FM-15+0053FMEP V0201801N003110240019N0112651N1+02601+01901999999ADDGA1021+009909999GA2021+015009999GA3071+024009999GF107991999999999999999999MA1101491999999MW1001REMMET059FMEP 270900Z 18006KT 9999 FEW033 SCT053 BKN086 26/19 Q1015;EQDQ01+000000PRSWM2
0192619840999992000052710004-21330+055480FM-15+0053FMEP V0201301N002110270019N0112651N1+99999+99999999999ADDGA1021+009909999GA2021+013809999GA3071+027009999GF107991999999999999999999MW1001REMMET081FMEP 271000Z 13004KT 090V170 9999 FEW033 SCT046 BKN093 9999 FEW033 SCT046 BKN093;EQDQ01+000000PRSWM2
0162619840999992000052711004-21330+055480FM-15+0053FMEP V0201901N001510150019N0112651N1+02601+01901999999ADDGA1021+006909999GA2071+015009999GF107991999999999999999999MA1101391999999MW1001REMMET052FMEP 271100Z 19003KT 9999 FEW023 BKN050 26/19 Q1014;EQDQ01+000000PRSWM2
0162619840999992000052712004-21330+055480FM-15+0053FMEP V0202101N001510150019N0112651N1+02501+01901999999ADDGA1021+007809999GA2071+015009999GF107991999999999999999999MA1101391999999MW1001REMMET052FMEP 271200Z 21003KT 9999 FEW026 BKN050 25/19 Q1014;EQDQ01+000000PRSWM2
0162619840999992000052713004-21330+055480FM-15+0053FMEP V0202801N001010150019N0112651N1+02501+01901999999ADDGA1021+007809999GA2071+015009999GF107991999999999999999999MA1101491999999MW1001REMMET052FMEP 271300Z 28002KT 9999 FEW026 BKN050 25/19 Q1015;EQDQ01+000000PRSWM2
0139619840999992000052803004-21330+055480FM-15+0053FMEP V0200401N003612200019N0112651N1+02001+01501999999ADDGA1021+003009999GF102991999999999999999999MA1101491999999MW1001REMMET045FMEP 280300Z 04007KT 9999 FEW010 20/15 Q1015;EQDQ01+000000PRSWM2
0147619840999992000052806004-21330+055480FM-15+0053FMEP V0202001N002112200019N0112651N1+02701+01901999999ADDGA1021+003009999GF102991999999999999999999MA1101591999999MW1001REMMET053FMEP 280600Z 20004KT 160V240 9999 FEW010 27/19 Q1016;EQDQ01+000000PRSWM2
0139619840999992000052807004-21330+055480FM-15+0053FMEP V0201801N002612200019N0112651N1+02701+01801999999ADDGA1021+007809999GF102991999999999999999999MA1101591999999MW1001REMMET045FMEP 280700Z 18005KT 9999 FEW026 27/18 Q1016;EQDQ01+000000PRSWM2
0147619840999992000052809004-21330+055480FM-15+0053FMEP V0202301N003112200019N0112651N1+02801+01901999999ADDGA1021+009009999GF102991999999999999999999MA1101491999999MW1001REMMET053FMEP 280900Z 23006KT 190V260 9999 FEW030 28/19 Q1015;EQDQ01+000000PRSWM2
0139619840999992000052810004-21330+055480FM-15+0053FMEP V0202501N003112200019N0112651N1+02701+01801999999ADDGA1021+009009999GF104991999999999999999999MA1101391999999MW1001REMMET045FMEP 281000Z 25006KT 9999 SCT030 27/18 Q1014;EQDQ01+000000PRSWM2
0147619840999992000052812004-21330+055480FM-15+0053FMEP V0203101N002612200019N0112651N1+02801+01801999999ADDGA1021+009909999GF102991999999999999999999MA1101391999999MW1001REMMET053FMEP 281200Z 31005KT 260V010 9999 FEW033 28/18 Q1014;EQDQ01+000000PRSWM2
0139619840999992000052813004-21330+055480FM-15+0053FMEP V0203001N002612200019N0112651N1+02601+01801999999ADDGA1021+007809999GF102991999999999999999999MA1101391999999MW1001REMMET045FMEP 281300Z 30005KT 9999 FEW026 26/18 Q1014;EQDQ01+000000PRSWM2
0139619840999992000052903004-21330+055480FM-15+0053FMEP V0200301N005112200019N0112651N1+02001+01401999999ADDGA1021+006309999GF102991999999999999999999MA1101591999999MW1001REMMET045FMEP 290300Z 03010KT 9999 FEW021 20/14 Q1016;EQDQ01+000000PRSWM2
0139619840999992000052904004-21330+055480FM-15+0053FMEP V0200401N003612200019N0112651N1+02201+01401999999ADDGA1021+006309999GF102991999999999999999999MA1101691999999MW1001REMMET045FMEP 290400Z 04007KT 9999 FEW021 22/14 Q1017;EQDQ01+000000PRSWM2
0139619840999992000052905004-21330+055480FM-15+0053FMEP V0200301N002612200019N0112651N1+02501+01501999999ADDGA1021+006309999GF102991999999999999999999MA1101801999999MW1001REMMET045FMEP 290500Z 03005KT 9999 FEW021 25/15 Q1018;EQDQ01+000000PRSWM2
0139619840999992000052907004-21330+055480FM-15+0053FMEP V0201501N003612200019N0112651N1+02701+01801999999ADDGA1021+006309999GF102991999999999999999999MA1101691999999MW1001REMMET045FMEP 290700Z 15007KT 9999 FEW021 27/18 Q1017;EQDQ01+000000PRSWM2
0147619840999992000052908004-21330+055480FM-15+0053FMEP V0201801N003112200019N0112651N1+02701+01901999999ADDGA1021+006309999GF102991999999999999999999MA1101691999999MW1001REMMET053FMEP 290800Z 18006KT 140V210 9999 FEW021 27/19 Q1017;EQDQ01+000000PRSWM2
0139619840999992000052909004-21330+055480FM-15+0053FMEP V0202001N003612200019N0112651N1+02801+01901999999ADDGA1021+006309999GF102991999999999999999999MA1101591999999MW1001REMMET045FMEP 290900Z 20007KT 9999 FEW021 28/19 Q1016;EQDQ01+000000PRSWM2
0139619840999992000052911004-21330+055480FM-15+0053FMEP V0201701N003112200019N0112651N1+02701+01901999999ADDGA1021+006309999GF102991999999999999999999MA1101491999999MW1001REMMET045FMEP 291100Z 17006KT 9999 FEW021 27/19 Q1015;EQDQ01+000000PRSWM2
0147619840999992000052912004-21330+055480FM-15+0053FMEP V0201701N002112200019N0112651N1+02601+01901999999ADDGA1021+006309999GF104991999999999999999999MA1101491999999MW1001REMMET053FMEP 291200Z 17004KT 120V190 9999 SCT021 26/19 Q1015;EQDQ01+000000PRSWM2
0139619840999992000052913004-21330+055480FM-15+0053FMEP V0201701N001512200019N0112651N1+02501+01901999999ADDGA1021+006309999GF104991999999999999999999MA1101591999999MW1001REMMET045FMEP 291300Z 17003KT 9999 SCT021 25/19 Q1016;EQDQ01+000000PRSWM2
0139619840999992000053003004-21330+055480FM-15+0053FMEP V0200301N005112200019N0112651N1+02001+01401999999ADDGA1021+006309999GF102991999999999999999999MA1101591999999MW1001REMMET045FMEP 290300Z 03010KT 9999 FEW021 20/14 Q1016;EQDQ01+000000PRSWM2
0162619840999992000053004004-21330+055480FM-15+0053FMEP V0200401N003112200019N0112651N1+02101+01501999999ADDGA1021+003309999GA2021+021009999GF104991999999999999999999MA1101801999999MW1001REMMET052FMEP 300400Z 04006KT 9999 FEW011 SCT076 21/15 Q1018;EQDQ01+000000PRSWM2
0162619840999992000053005004-21330+055480FM-15+0053FMEP V0200501N002112200019N0112651N1+02401+01601999999ADDGA1021+006009999GA2021+021009999GF104991999999999999999999MA1101801999999MW1001REMMET052FMEP 300500Z 05004KT 9999 FEW020 SCT076 24/16 Q1018;EQDQ01+000000PRSWM2
0162619840999992000053006004-21330+055480FM-15+0053FMEP V0201301N003612200019N0112651N1+02601+01901999999ADDGA1021+009009999GA2021+024009999GF104991999999999999999999MA1101801999999MW1001REMMET052FMEP 300600Z 13007KT 9999 FEW030 SCT080 26/19 Q1018;EQDQ01+000000PRSWM2
0162619840999992000053007004-21330+055480FM-15+0053FMEP V0201501N004612200019N0112651N1+02701+02001999999ADDGA1021+009309999GA2021+024009999GF104991999999999999999999MA1101801999999MW1001REMMET052FMEP 300700Z 15009KT 9999 FEW031 SCT080 27/20 Q1018;EQDQ01+000000PRSWM2
0162619840999992000053008004-21330+055480FM-15+0053FMEP V0201501N005112200019N0112651N1+02701+01901999999ADDGA1021+007809999GA2021+018009999GF104991999999999999999999MA1101801999999MW1001REMMET052FMEP 300800Z 15010KT 9999 FEW026 SCT063 27/19 Q1018;EQDQ01+000000PRSWM2
0139619840999992000053009004-21330+055480FM-15+0053FMEP V0201501N005712200019N0112651N1+02701+02001999999ADDGA1021+007809999GF102991999999999999999999MA1101691999999MW1001REMMET045FMEP 300900Z 15011KT 9999 FEW026 27/20 Q1017;EQDQ01+000000PRSWM2
0139619840999992000053010004-21330+055480FM-15+0053FMEP V0201501N006212200019N0112651N1+02701+02001999999ADDGA1021+004509999GF102991999999999999999999MA1101691999999MW1001REMMET045FMEP 301000Z 15012KT 9999 FEW015 27/20 Q1017;EQDQ01+000000PRSWM2
0139619840999992000053011004-21330+055480FM-15+0053FMEP V0201501N006712200019N0112651N1+02701+02001999999ADDGA1021+004809999GF104991999999999999999999MA1101591999999MW1001REMMET045FMEP 301100Z 15013KT 9999 SCT016 27/20 Q1016;EQDQ01+000000PRSWM2
0162619840999992000053011484-21330+055480FM-15+0053FMEP V0201501N006712200019N0112651N1+02601+02001999999ADDGA1021+005409999GA2021+018009999GF104991999999999999999999MA1101591999999MW1001REMMET052FMEP 301148Z 15013KT 9999 SCT018 SCT060 26/20 Q1016;EQDQ01+000000PRSWM2
0165619840999992000053013004-21330+055480FM-15+0053FMEP V0201501N006712200019N0112651N1+02501+02001999999ADDGA1021+006009029GA2021+018009999GF104991999999999999999999MA1101691999999MW1001REMMET055FMEP 301300Z 15013KT 9999 SCT020TCU SCT060 25/20 Q1017;EQDQ01+000000PRSWM2
0170619840999992000053104004-21330+055480FM-15+0053FMEP V0201001N002112200019N0112651N1+02301+01901999999ADDGA1021+003909999GA2021+024009999GF104991999999999999999999MA1101901999999MW1001REMMET060FMEP 310400Z 10004KT 060V130 9999 FEW013 SCT080 23/19 Q1019;EQDQ01+000000PRSWM2
0162619840999992000053105004-21330+055480FM-15+0053FMEP V0201001N003612200019N0112651N1+02501+01901999999ADDGA1021+003909999GA2021+039009999GF104991999999999999999999MA1101901999999MW1001REMMET052FMEP 310500Z 10007KT 9999 FEW013 SCT130 25/19 Q1019;EQDQ01+000000PRSWM2
0162619840999992000053106004-21330+055480FM-15+0053FMEP V0201301N006212200019N0112651N1+02601+02001999999ADDGA1021+003909999GA2021+039009999GF104991999999999999999999MA1101901999999MW1001REMMET052FMEP 310600Z 13012KT 9999 FEW013 SCT130 26/20 Q1019;EQDQ01+000000PRSWM2
0162619840999992000053107004-21330+055480FM-15+0053FMEP V0201301N007212200019N0112651N1+02701+02001999999ADDGA1021+003309999GA2021+042009999GF104991999999999999999999MA1101901999999MW1001REMMET052FMEP 310700Z 13014KT 9999 FEW011 SCT140 27/20 Q1019;EQDQ01+000000PRSWM2
0170619840999992000053109004-21330+055480FM-15+0053FMEP V0201401N005110450019N0112651N1+02801+01901999999ADDGA1021+009909999GA2071+045009999GF107991999999999999999999MA1101691999999MW1001REMMET060FMEP 310900Z 14010KT 120V190 9999 FEW033 BKN150 28/19 Q1017;EQDQ01+000000PRSWM2
0162619840999992000053110004-21330+055480FM-15+0053FMEP V0201301N007210450019N0112651N1+02701+02101999999ADDGA1021+009909999GA2071+045009999GF107991999999999999999999MA1101691999999MW1001REMMET052FMEP 311000Z 13014KT 9999 FEW033 BKN150 27/21 Q1017;EQDQ01+000000PRSWM2
0162619840999992000053113004-21330+055480FM-15+0053FMEP V0202401N003612200019N0112651N1+02601+02001999999ADDGA1021+009909999GA2021+042009999GF104991999999999999999999MA1101691999999MW1001REMMET052FMEP 311300Z 24007KT 9999 FEW033 SCT140 26/20 Q1017;EQDQ01+000000PRSWM2
0170619840999992000060104004-21330+055480FM-15+0053FMEP V0200901N002112200019N0112651N1+02201+01701999999ADDGA1021+006309999GA2021+018009999GF104991999999999999999999MA1101901999999MW1001REMMET060FMEP 010400Z 09004KT 050V120 9999 FEW021 SCT066 22/17 Q1019;EQDQ01+000000PRSWM2
0139619840999992000060105004-21330+055480FM-15+0053FMEP V0200801N001512200019N0112651N1+02501+01701999999ADDGA1021+006309999GF102991999999999999999999MA1102001999999MW1001REMMET045FMEP 010500Z 08003KT 9999 FEW021 25/17 Q1020;EQDQ01+000000PRSWM2
0147619840999992000060106004-21330+055480FM-15+0053FMEP V0202801N002112200019N0112651N1+02701+01901999999ADDGA1021+006309999GF102991999999999999999999MA1102001999999MW1001REMMET053FMEP 010600Z 28004KT 220V330 9999 FEW021 27/19 Q1020;EQDQ01+000000PRSWM2
0147619840999992000060107004-21330+055480FM-15+0053FMEP V0201801N002112200019N0112651N1+02801+01901999999ADDGA1021+006309999GF102991999999999999999999MA1101901999999MW1001REMMET053FMEP 010700Z 18004KT 140V230 9999 FEW021 28/19 Q1019;EQDQ01+000000PRSWM2
0139619840999992000060108004-21330+055480FM-15+0053FMEP V0201401N006712200019N0112651N1+02801+02101999999ADDGA1021+006309999GF102991999999999999999999MA1101901999999MW1001REMMET045FMEP 010800Z 14013KT 9999 FEW021 28/21 Q1019;EQDQ01+000000PRSWM2
0139619840999992000060109004-21330+055480FM-15+0053FMEP V0201301N007712200019N0112651N1+02801+02001999999ADDGA1021+006309999GF102991999999999999999999MA1101901999999MW1001REMMET045FMEP 010900Z 13015KT 9999 FEW021 28/20 Q1019;EQDQ01+000000PRSWM2
0139619840999992000060110004-21330+055480FM-15+0053FMEP V0201301N008212200019N0112651N1+02801+02001999999ADDGA1021+006309999GF102991999999999999999999MA1101801999999MW1001REMMET045FMEP 011000Z 13016KT 9999 FEW021 28/20 Q1018;EQDQ01+000000PRSWM2
0139619840999992000060111004-21330+055480FM-15+0053FMEP V0201401N007712200019N0112651N1+02701+02001999999ADDGA1021+006309999GF102991999999999999999999MA1101691999999MW1001REMMET045FMEP 011100Z 14015KT 9999 FEW021 27/20 Q1017;EQDQ01+000000PRSWM2
0139619840999992000060112004-21330+055480FM-15+0053FMEP V0201301N007712200019N0112651N1+02601+02001999999ADDGA1021+006309999GF102991999999999999999999MA1101801999999MW1001REMMET045FMEP 011200Z 13015KT 9999 FEW021 26/20 Q1018;EQDQ01+000000PRSWM2
0139619840999992000060113004-21330+055480FM-15+0053FMEP V0201301N007212200019N0112651N1+02501+02001999999ADDGA1021+006309999GF102991999999999999999999MA1101801999999MW1001REMMET045FMEP 011300Z 13014KT 9999 FEW021 25/20 Q1018;EQDQ01+000000PRSWM2
0139619840999992000060203004-21330+055480FM-15+0053FMEP V0200601N003112200019N0112651N1+02001+01201999999ADDGA1021+006309999GF102991999999999999999999MA1101901999999MW1001REMMET045FMEP 020300Z 06006KT 9999 FEW021 20/12 Q1019;EQDQ01+000000PRSWM2
0139619840999992000060204004-21330+055480FM-15+0053FMEP V0200701N002612200019N0112651N1+02201+01301999999ADDGA1021+006309999GF102991999999999999999999MA1102001999999MW1001REMMET045FMEP 020400Z 07005KT 9999 FEW021 22/13 Q1020;EQDQ01+000000PRSWM2
0147619840999992000060205004-21330+055480FM-15+0053FMEP V0201001N003112200019N0112651N1+02601+01801999999ADDGA1021+006309999GF102991999999999999999999MA1102001999999MW1001REMMET053FMEP 020500Z 10006KT 060V150 9999 FEW021 26/18 Q1020;EQDQ01+000000PRSWM2
0139619840999992000060206004-21330+055480FM-15+0053FMEP V0201301N006212200019N0112651N1+02601+01901999999ADDGA1021+006309999GF102991999999999999999999MA1102001999999MW1001REMMET045FMEP 020600Z 13012KT 9999 FEW021 26/19 Q1020;EQDQ01+000000PRSWM2
0139619840999992000060207004-21330+055480FM-15+0053FMEP V0201401N007212200019N0112651N1+02701+02001999999ADDGA1021+006309999GF102991999999999999999999MA1102001999999MW1001REMMET045FMEP 020700Z 14014KT 9999 FEW021 27/20 Q1020;EQDQ01+000000PRSWM2
0139619840999992000060208004-21330+055480FM-15+0053FMEP V0201401N007212200019N0112651N1+02701+01901999999ADDGA1021+006309999GF102991999999999999999999MA1101901999999MW1001REMMET045FMEP 020800Z 14014KT 9999 FEW021 27/19 Q1019;EQDQ01+000000PRSWM2
0139619840999992000060209004-21330+055480FM-15+0053FMEP V0201401N007712200019N0112651N1+02801+02001999999ADDGA1021+007809999GF102991999999999999999999MA1101801999999MW1001REMMET045FMEP 020900Z 14015KT 9999 FEW026 28/20 Q1018;EQDQ01+000000PRSWM2
0139619840999992000060211004-21330+055480FM-15+0053FMEP V0201401N007712200019N0112651N1+02701+02001999999ADDGA1021+007809999GF102991999999999999999999MA1101801999999MW1001REMMET045FMEP 021100Z 14015KT 9999 FEW026 27/20 Q1018;EQDQ01+000000PRSWM2
0139619840999992000060212004-21330+055480FM-15+0053FMEP V0201401N007712200019N0112651N1+02601+02001999999ADDGA1021+007809999GF102991999999999999999999MA1101801999999MW1001REMMET045FMEP 021200Z 14015KT 9999 FEW026 26/20 Q1018;EQDQ01+000000PRSWM2
0142619840999992000060213004-21330+055480FM-15+0053FMEP V0201401N007712200019N0112651N1+02501+02001999999ADDGA1021+007809029GF102991999999999999999999MA1101801999999MW1001REMMET048FMEP 021300Z 14015KT 9999 FEW026TCU 25/20 Q1018;EQDQ01+000000PRSWM2
0194619840999992000060303004-21330+055480FM-15+0053FMEP V0200901N003112200019N0080001N1+02001+01801999999ADDGA1021+000909999GA2021+003909029GF104991999999999999999999MW1801REMMET083FMEP 030300Z 09006KT 8000 -SHRA FEW003 SCT013TCU 20/18 8000 -SHRA FEW003 SCT013TCU;EQDQ01+000003PRSWM1Q02    003PRSWM1
0192619840999992000060304004-21330+055480FM-15+0053FMEP V0200901N001512200019N0112651N1+02101+02001999999ADDGA1021+003909029GA2021+021009999GF104991999999999999999999MA1102001999999MW1001REMMET082FMEP 030400Z 09003KT 9999 SCT013TCU SCT073 21/20 Q1020 9999 SCT013TCU SCT073 RERA;EQDQ01+000000PRSWM2
0165619840999992000060305004-21330+055480FM-15+0053FMEP V0201101N001512200019N0112651N1+02301+02001999999ADDGA1021+004509029GA2021+021009999GF104991999999999999999999MA1102001999999MW1001REMMET055FMEP 030500Z 11003KT 9999 FEW015TCU SCT076 23/20 Q1020;EQDQ01+000000PRSWM2
0165619840999992000060306004-21330+055480FM-15+0053FMEP V0201301N004112200019N0112651N1+02401+02101999999ADDGA1021+004509029GA2021+021009999GF104991999999999999999999MA1102101999999MW1001REMMET055FMEP 030600Z 13008KT 9999 FEW015TCU SCT070 24/21 Q1021;EQDQ01+000000PRSWM2
0192619840999992000060307004-21330+055480FM-15+0053FMEP V0201401N005112200019N0112651N1+02501+02001999999ADDGA1021+003309029GA2021+015009999GF104991999999999999999999MA1102001999999MW1001REMMET082FMEP 030700Z 14010KT 9999 FEW011TCU SCT056 25/20 Q1020 9999 FEW011TCU SCT056 RERA;EQDQ01+000000PRSWM2
0165619840999992000060309004-21330+055480FM-15+0053FMEP V0201401N006712200019N0112651N1+02601+02101999999ADDGA1021+003309029GA2021+090009999GF104991999999999999999999MA1101901999999MW1001REMMET055FMEP 030900Z 14013KT 9999 FEW011TCU SCT300 26/21 Q1019;EQDQ01+000000PRSWM2
0162619840999992000060310004-21330+055480FM-15+0053FMEP V0201301N006212200019N0112651N1+02601+02001999999ADDGA1021+003909999GA2021+045009999GF104991999999999999999999MA1101801999999MW1001REMMET052FMEP 031000Z 13012KT 9999 SCT013 SCT150 26/20 Q1018;EQDQ01+000000PRSWM2
0139619840999992000060311004-21330+055480FM-15+0053FMEP V0201301N009312200019N0112651N1+02501+02001999999ADDGA1021+003909999GF102991999999999999999999MA1101801999999MW1001REMMET045FMEP 031100Z 13018KT 9999 FEW013 25/20 Q1018;EQDQ01+000000PRSWM2
0142619840999992000060312004-21330+055480FM-15+0053FMEP V0201301N009312200019N0112651N1+02501+02001999999ADDGA1021+003309029GF104991999999999999999999MA1101801999999MW1001REMMET048FMEP 031200Z 13018KT 9999 SCT011TCU 25/20 Q1018;EQDQ01+000000PRSWM2
0192619840999992000060313004-21330+055480FM-15+0053FMEP V0201201N007712200019N0112651N1+02301+02001999999ADDGA1021+003009029GA2021+015009999GF104991999999999999999999MA1101901999999MW1001REMMET082FMEP 031300Z 12015KT 9999 SCT010TCU SCT056 23/20 Q1019 9999 SCT010TCU SCT056 RERA;EQDQ01+000000PRSWM2
0142619840999992000060403004-21330+055480FM-15+0053FMEP V0201001N005112200019N0112651N1+02201+01801999999ADDGA1021+003909029GF104991999999999999999999MA1102101999999MW1001REMMET048FMEP 040300Z 10010KT 9999 SCT013TCU 22/18 Q1021;EQDQ01+000000PRSWM2
0142619840999992000060404004-21330+055480FM-15+0053FMEP V0201201N009312200019N0112651N1+02401+01801999999ADDGA1021+003909029GF104991999999999999999999MA1102201999999MW1001REMMET048FMEP 040400Z 12018KT 9999 SCT013TCU 24/18 Q1022;EQDQ01+000000PRSWM2
0139619840999992000060405004-21330+055480FM-15+0053FMEP V0201201N009312200019N0112651N1+02501+01801999999ADDGA1021+003309999GF102991999999999999999999MA1102201999999MW1001REMMET045FMEP 040500Z 12018KT 9999 FEW011 25/18 Q1022;EQDQ01+000000PRSWM2
0139619840999992000060406004-21330+055480FM-15+0053FMEP V0201201N010312200019N0112651N1+02601+01601999999ADDGA1021+012009999GF102991999999999999999999MA1102201999999MW1001REMMET045FMEP 040600Z 12020KT 9999 FEW040 26/16 Q1022;EQDQ01+000000PRSWM2
0139619840999992000060407004-21330+055480FM-15+0053FMEP V0201301N010312200019N0112651N1+02601+01601999999ADDGA1021+012909999GF102991999999999999999999MA1102101999999MW1001REMMET045FMEP 040700Z 13020KT 9999 FEW043 26/16 Q1021;EQDQ01+000000PRSWM2
0139619840999992000060408004-21330+055480FM-15+0053FMEP V0201301N011312200019N0112651N1+02601+01701999999ADDGA1021+012909999GF102991999999999999999999MA1102001999999MW1001REMMET045FMEP 040800Z 13022KT 9999 FEW043 26/17 Q1020;EQDQ01+000000PRSWM2
0150619840999992000060409004-21330+055480FM-15+0053FMEP V0201301N012912200019N0112651N1+02601+01801999999ADDGA1021+012909999GF102991999999999999999999MA1101901999999MW1001OC101801REMMET048FMEP 040900Z 13025G35KT 9999 FEW043 26/18 Q1019;EQDQ01+000000PRSWM2
0139619840999992000060410004-21330+055480FM-15+0053FMEP V0201301N013412200019N0112651N1+02601+01901999999ADDGA1021+012009999GF102991999999999999999999MA1101801999999MW1001REMMET045FMEP 041000Z 13026KT 9999 FEW040 26/19 Q1018;EQDQ01+000000PRSWM2
0139619840999992000060411004-21330+055480FM-15+0053FMEP V0201301N012912200019N0112651N1+02501+01801999999ADDGA1021+004809999GF102991999999999999999999MA1101801999999MW1001REMMET045FMEP 041100Z 13025KT 9999 FEW016 25/18 Q1018;EQDQ01+000000PRSWM2
0139619840999992000060412004-21330+055480FM-15+0053FMEP V0201201N010812200019N0112651N1+02501+01701999999ADDGA1021+006009999GF102991999999999999999999MA1101901999999MW1001REMMET045FMEP 041200Z 12021KT 9999 FEW020 25/17 Q1019;EQDQ01+000000PRSWM2
0139619840999992000060413004-21330+055480FM-15+0053FMEP V0201201N011312200019N0112651N1+02401+01701999999ADDGA1021+010509999GF102991999999999999999999MA1101901999999MW1001REMMET045FMEP 041300Z 12022KT 9999 FEW035 24/17 Q1019;EQDQ01+000000PRSWM2
0147619840999992000060503004-21330+055480FM-15+0053FMEP V0200701N002612200019N0112651N1+01901+01101999999ADDGA1021+006309999GF102991999999999999999999MA1102101999999MW1001REMMET053FMEP 050300Z 07005KT 030V110 9999 FEW021 19/11 Q1021;EQDQ01+000000PRSWM2
0139619840999992000060504004-21330+055480FM-15+0053FMEP V0201201N004612200019N0112651N1+02201+01101999999ADDGA1021+007809999GF102991999999999999999999MA1102101999999MW1001REMMET045FMEP 050400Z 12009KT 9999 FEW026 22/11 Q1021;EQDQ01+000000PRSWM2
0147619840999992000060505004-21330+055480FM-15+0053FMEP V0200401N003112200019N0112651N1+02401+01101999999ADDGA1021+007809999GF102991999999999999999999MA1102101999999MW1001REMMET053FMEP 050500Z 04006KT 360V070 9999 FEW026 24/11 Q1021;EQDQ01+000000PRSWM2
0147619840999992000060506004-21330+055480FM-15+0053FMEP V0201201N003112200019N0112651N1+02601+01101999999ADDGA1021+007809999GF102991999999999999999999MA1102101999999MW1001REMMET053FMEP 050600Z 12006KT 030V160 9999 FEW026 26/11 Q1021;EQDQ01+000000PRSWM2
0139619840999992000060507004-21330+055480FM-15+0053FMEP V0201301N007210003019N0112651N1+02601+01201999999ADDGA1071+000309999GF107991999999999999999999MA1102101999999MW1001REMMET045FMEP 050700Z 13014KT 9999 BKN001 26/12 Q1021;EQDQ01+000000PRSWM2
0139619840999992000060508004-21330+055480FM-15+0053FMEP V0201601N005112200019N0112651N1+02701+01001999999ADDGA1021+006309999GF102991999999999999999999MA1102001999999MW1001REMMET045FMEP 050800Z 16010KT 9999 FEW021 27/10 Q1020;EQDQ01+000000PRSWM2
0147619840999992000060509004-21330+055480FM-15+0053FMEP V0201401N007712200019N0112651N1+02701+01401999999ADDGA1021+006309999GF102991999999999999999999MA1102001999999MW1001REMMET053FMEP 050900Z 14015KT 110V210 9999 FEW021 27/14 Q1020;EQDQ01+000000PRSWM2
0162619840999992000060510004-21330+055480FM-15+0053FMEP V0201301N007212200019N0112651N1+02601+01501999999ADDGA1021+006309999GA2021+015009999GF104991999999999999999999MA1101901999999MW1001REMMET052FMEP 051000Z 13014KT 9999 FEW021 SCT050 26/15 Q1019;EQDQ01+000000PRSWM2
0162619840999992000060511004-21330+055480FM-15+0053FMEP V0201301N007710150019N0112651N1+02501+01601999999ADDGA1021+006309999GA2071+015009999GF107991999999999999999999MA1101901999999MW1001REMMET052FMEP 051100Z 13015KT 9999 FEW021 BKN050 25/16 Q1019;EQDQ01+000000PRSWM2
0162619840999992000060512004-21330+055480FM-15+0053FMEP V0201301N007710150019N0112651N1+02401+01701999999ADDGA1021+006309999GA2071+015009999GF107991999999999999999999MA1101901999999MW1001REMMET052FMEP 051200Z 13015KT 9999 FEW021 BKN050 24/17 Q1019;EQDQ01+000000PRSWM2
0162619840999992000060513004-21330+055480FM-15+0053FMEP V0201201N006210150019N0112651N1+02401+01601999999ADDGA1021+006309999GA2071+015009999GF107991999999999999999999MA1101901999999MW1001REMMET052FMEP 051300Z 12012KT 9999 FEW021 BKN050 24/16 Q1019;EQDQ01+000000PRSWM2
0162619840999992000060603004-21330+055480FM-15+0053FMEP V0200601N003112200019N0112651N1+02001+01501999999ADDGA1021+004509999GA2021+090009999GF104991999999999999999999MA1102001999999MW1001REMMET052FMEP 060300Z 06006KT 9999 FEW015 SCT300 20/15 Q1020;EQDQ01+000000PRSWM2
0142619840999992000060604004-21330+055480FM-15+0053FMEP V0200801N003112200019N0112651N1+02101+01501999999ADDGA1021+004509029GF102991999999999999999999MA1102101999999MW1001REMMET048FMEP 060400Z 08006KT 9999 FEW015TCU 21/15 Q1021;EQDQ01+000000PRSWM2
0139619840999992000060605004-21330+055480FM-15+0053FMEP V0200901N003112200019N0112651N1+02301+01601999999ADDGA1021+004509999GF102991999999999999999999MA1102101999999MW1001REMMET045FMEP 060500Z 09006KT 9999 FEW015 23/16 Q1021;EQDQ01+000000PRSWM2
0156619840999992000060606004-21330+055480FM-15+0053FMEP V0201201N006212200019N0112651N1+02401+01701999999ADDGA1021+004509999GF102991999999999999999999MA1102101999999MW1001REMMET062FMEP 060600Z 12012KT 9999 FEW015 24/17 Q1021 9999 FEW015 RERA;EQDQ01+000000PRSWM2
0139619840999992000060607004-21330+055480FM-15+0053FMEP V0201301N006212200019N0112651N1+02501+01401999999ADDGA1021+003009999GF102991999999999999999999MA1102101999999MW1001REMMET045FMEP 060700Z 13012KT 9999 FEW010 25/14 Q1021;EQDQ01+000000PRSWM2
0139619840999992000060608004-21330+055480FM-15+0053FMEP V0201301N006212200019N0112651N1+02601+01401999999ADDGA1021+003009999GF102991999999999999999999MA1102001999999MW1001REMMET045FMEP 060800Z 13012KT 9999 FEW010 26/14 Q1020;EQDQ01+000000PRSWM2
0186619840999992000060609004-21330+055480FM-15+0053FMEP V0201501N007712200019N0080001N1+02601+01801999999ADDGA1021+000909999GA2021+003009029GF102991999999999999999999MA1102001999999MW1161REMMET060FMEP 060900Z 15015KT 8000 VCSH FEW003 FEW010TCU 26/18 Q1020;EQDQ01+000003PRSWM1Q02    003PRSWM1
0139619840999992000060611004-21330+055480FM-15+0053FMEP V0201401N007712200019N0112651N1+02401+01601999999ADDGA1021+009009999GF104991999999999999999999MA1102001999999MW1001REMMET045FMEP 061100Z 14015KT 9999 SCT030 24/16 Q1020;EQDQ01+000000PRSWM2
0139619840999992000060612004-21330+055480FM-15+0053FMEP V0201301N006212200019N0112651N1+02501+01501999999ADDGA1021+009909999GF104991999999999999999999MA1102001999999MW1001REMMET045FMEP 061200Z 13012KT 9999 SCT033 25/15 Q1020;EQDQ01+000000PRSWM2
0139619840999992000060613004-21330+055480FM-15+0053FMEP V0201001N005112200019N0112651N1+02301+01601999999ADDGA1021+010809999GF104991999999999999999999MA1102001999999MW1001REMMET045FMEP 061300Z 10010KT 9999 SCT036 23/16 Q1020;EQDQ01+000000PRSWM2
0181619840999992000060703004-21330+055480FM-15+0053FMEP V0200501N003610138019N0112651N1+01901+01601999999ADDGA1021+006009999GA2071+013809999GF107991999999999999999999MA1102201999999MW1631REMMET055FMEP 070300Z 05007KT 9999 RA SCT020 BKN046 19/16 Q1022;EQDQ01+000003PRSWM1Q02    003PRSWM1
0162619840999992000060705004-21330+055480FM-15+0053FMEP V0201301N007712200019N0112651N1+02201+01601999999ADDGA1021+004809999GA2021+015009999GF104991999999999999999999MA1102301999999MW1001REMMET052FMEP 070500Z 13015KT 9999 FEW016 SCT050 22/16 Q1023;EQDQ01+000000PRSWM2
0162619840999992000060706004-21330+055480FM-15+0053FMEP V0201401N008712200019N0112651N1+02301+01601999999ADDGA1021+007809999GA2021+015009999GF104991999999999999999999MA1102301999999MW1001REMMET052FMEP 070600Z 14017KT 9999 FEW026 SCT050 23/16 Q1023;EQDQ01+000000PRSWM2
0139619840999992000060708004-21330+055480FM-15+0053FMEP V0201301N008712200019N0112651N1+02501+01301999999ADDGA1021+007809999GF102991999999999999999999MA1102201999999MW1001REMMET045FMEP 070800Z 13017KT 9999 FEW026 25/13 Q1022;EQDQ01+000000PRSWM2
0139619840999992000060710004-21330+055480FM-15+0053FMEP V0201301N009812200019N0112651N1+02501+01401999999ADDGA1021+004809999GF102991999999999999999999MA1102201999999MW1001REMMET045FMEP 071000Z 13019KT 9999 FEW016 25/14 Q1022;EQDQ01+000000PRSWM2
0139619840999992000060711004-21330+055480FM-15+0053FMEP V0201201N008212200019N0112651N1+02501+01301999999ADDGA1021+004809999GF102991999999999999999999MA1102101999999MW1001REMMET045FMEP 071100Z 12016KT 9999 FEW016 25/13 Q1021;EQDQ01+000000PRSWM2
0139619840999992000060712004-21330+055480FM-15+0053FMEP V0201201N006712200019N0112651N1+02501+01301999999ADDGA1021+006009999GF102991999999999999999999MA1102101999999MW1001REMMET045FMEP 071200Z 12013KT 9999 FEW020 25/13 Q1021;EQDQ01+000000PRSWM2
0186619840999992000060713004-21330+055480FM-15+0053FMEP V0201501N009312200019N0112651N1+02301+01701999999ADDGA1021+003909029GA2021+004809999GF104991999999999999999999MA1102201999999MW1161REMMET060FMEP 071300Z 15018KT 9999 VCSH SCT013TCU SCT016 23/17 Q1022;EQDQ01+000003PRSWM1Q02    003PRSWM1
0142619840999992000060804004-21330+055480FM-15+0053FMEP V0201201N005112200019N0112651N1+02101+01701999999ADDGA1021+009309029GF102991999999999999999999MA1102301999999MW1001REMMET048FMEP 080400Z 12010KT 9999 FEW031TCU 21/17 Q1023;EQDQ01+000000PRSWM2
0142619840999992000060806004-21330+055480FM-15+0053FMEP V0201301N011312200019N0112651N1+02401+01701999999ADDGA1021+003909029GF102991999999999999999999MA1102301999999MW1001REMMET048FMEP 080600Z 13022KT 9999 FEW013TCU 24/17 Q1023;EQDQ01+000000PRSWM2
0163619840999992000060807004-21330+055480FM-15+0053FMEP V0201301N010812200019N0112651N1+02501+01701999999ADDGA1021+003009029GF102991999999999999999999MA1102301999999MW1161REMMET053FMEP 080700Z 13021KT 9999 VCSH FEW010TCU 25/17 Q1023;EQDQ01+000003PRSWM1Q02    003PRSWM1
0139619840999992000060808004-21330+055480FM-15+0053FMEP V0201301N011812200019N0112651N1+02501+01701999999ADDGA1021+006309999GF102991999999999999999999MA1102201999999MW1001REMMET045FMEP 080800Z 13023KT 9999 FEW021 25/17 Q1022;EQDQ01+000000PRSWM2
0139619840999992000060809004-21330+055480FM-15+0053FMEP V0201201N012912200019N0112651N1+02501+01701999999ADDGA1021+006309999GF102991999999999999999999MA1102201999999MW1001REMMET045FMEP 080900Z 12025KT 9999 FEW021 25/17 Q1022;EQDQ01+000000PRSWM2
0139619840999992000060810004-21330+055480FM-15+0053FMEP V0201201N011312200019N0112651N1+02401+01701999999ADDGA1021+006309999GF102991999999999999999999MA1102101999999MW1001REMMET045FMEP 081000Z 12022KT 9999 FEW021 24/17 Q1021;EQDQ01+000000PRSWM2
0139619840999992000060811004-21330+055480FM-15+0053FMEP V0201201N011812200019N0112651N1+02401+01601999999ADDGA1021+006309999GF102991999999999999999999MA1102101999999MW1001REMMET045FMEP 081100Z 12023KT 9999 FEW021 24/16 Q1021;EQDQ01+000000PRSWM2
0150619840999992000060812004-21330+055480FM-15+0053FMEP V0201201N010812200019N0112651N1+02401+01501999999ADDGA1021+006309999GF102991999999999999999999MA1102101999999MW1001OC101591REMMET048FMEP 081200Z 12021G31KT 9999 FEW021 24/15 Q1021;EQDQ01+000000PRSWM2
0139619840999992000060813004-21330+055480FM-15+0053FMEP V0201201N008712200019N0112651N1+02301+01601999999ADDGA1021+006309999GF102991999999999999999999MA1102101999999MW1001REMMET045FMEP 081300Z 12017KT 9999 FEW021 23/16 Q1021;EQDQ01+000000PRSWM2
0139619840999992000060903004-21330+055480FM-15+0053FMEP V0200401N004112200019N0112651N1+01901+01001999999ADDGA1021+003009999GF102991999999999999999999MA1102101999999MW1001REMMET045FMEP 090300Z 04008KT 9999 FEW010 19/10 Q1021;EQDQ01+000000PRSWM2
0147619840999992000060904004-21330+055480FM-15+0053FMEP V0200901N002112200019N0112651N1+02101+01001999999ADDGA1021+003909999GF102991999999999999999999MA1102201999999MW1001REMMET053FMEP 090400Z 09004KT 050V130 9999 FEW013 21/10 Q1022;EQDQ01+000000PRSWM2
0139619840999992000060905004-21330+055480FM-15+0053FMEP V0201101N002112200019N0112651N1+02401+01101999999ADDGA1021+004809999GF102991999999999999999999MA1102201999999MW1001REMMET045FMEP 090500Z 11004KT 9999 FEW016 24/11 Q1022;EQDQ01+000000PRSWM2
0139619840999992000060906004-21330+055480FM-15+0053FMEP V0201301N006712200019N0112651N1+02601+01301999999ADDGA1021+006009999GF102991999999999999999999MA1102201999999MW1001REMMET045FMEP 090600Z 13013KT 9999 FEW020 26/13 Q1022;EQDQ01+000000PRSWM2
0139619840999992000060908004-21330+055480FM-15+0053FMEP V0201301N009812200019N0112651N1+02601+01701999999ADDGA1021+003909999GF102991999999999999999999MA1102101999999MW1001REMMET045FMEP 090800Z 13019KT 9999 FEW013 26/17 Q1021;EQDQ01+000000PRSWM2
0139619840999992000060909004-21330+055480FM-15+0053FMEP V0201301N009812200019N0112651N1+02501+01801999999ADDGA1021+003909999GF102991999999999999999999MA1102101999999MW1001REMMET045FMEP 090900Z 13019KT 9999 FEW013 25/18 Q1021;EQDQ01+000000PRSWM2
0139619840999992000060910004-21330+055480FM-15+0053FMEP V0201301N009312200019N0112651N1+02601+01601999999ADDGA1021+003909999GF102991999999999999999999MA1102001999999MW1001REMMET045FMEP 091000Z 13018KT 9999 FEW013 26/16 Q1020;EQDQ01+000000PRSWM2
0162619840999992000060912004-21330+055480FM-15+0053FMEP V0201201N006212200019N0112651N1+02401+01601999999ADDGA1021+003909999GA2021+015009999GF104991999999999999999999MA1102001999999MW1001REMMET052FMEP 091200Z 12012KT 9999 FEW013 SCT053 24/16 Q1020;EQDQ01+000000PRSWM2
0162619840999992000060913004-21330+055480FM-15+0053FMEP V0201201N005712200019N0112651N1+02401+01701999999ADDGA1021+003909999GA2021+015009999GF104991999999999999999999MA1102001999999MW1001REMMET052FMEP 091300Z 12011KT 9999 FEW013 SCT053 24/17 Q1020;EQDQ01+000000PRSWM2
0165619840999992000061203004-21330+055480FM-15+0053FMEP V0201101N006712200019N0112651N1+01901+01601999999ADDGA1021+009309029GA2021+021009999GF104991999999999999999999MA1102201999999MW1001REMMET055FMEP 120300Z 11013KT 9999 FEW031TCU SCT070 19/16 Q1022;EQDQ01+000000PRSWM2
0139619840999992000061206004-21330+055480FM-15+0053FMEP V0201201N007712200019N0112651N1+02401+01601999999ADDGA1021+010509999GF102991999999999999999999MA1102301999999MW1001REMMET045FMEP 120600Z 12015KT 9999 FEW035 24/16 Q1023;EQDQ01+000000PRSWM2
0139619840999992000061207004-21330+055480FM-15+0053FMEP V0201201N009812200019N0112651N1+02501+01601999999ADDGA1021+010809999GF102991999999999999999999MA1102201999999MW1001REMMET045FMEP 120700Z 12019KT 9999 FEW036 25/16 Q1022;EQDQ01+000000PRSWM2
0139619840999992000061208004-21330+055480FM-15+0053FMEP V0201301N010812200019N0112651N1+02501+01501999999ADDGA1021+011409999GF102991999999999999999999MA1102201999999MW1001REMMET045FMEP 120800Z 13021KT 9999 FEW038 25/15 Q1022;EQDQ01+000000PRSWM2
0139619840999992000061209004-21330+055480FM-15+0053FMEP V0201301N010812200019N0112651N1+02501+01601999999ADDGA1021+012009999GF102991999999999999999999MA1102101999999MW1001REMMET045FMEP 120900Z 13021KT 9999 FEW040 25/16 Q1021;EQDQ01+000000PRSWM2
0139619840999992000061210004-21330+055480FM-15+0053FMEP V0201301N010312200019N0112651N1+02501+01601999999ADDGA1021+013809999GF102991999999999999999999MA1102101999999MW1001REMMET045FMEP 121000Z 13020KT 9999 FEW046 25/16 Q1021;EQDQ01+000000PRSWM2
0139619840999992000061211004-21330+055480FM-15+0053FMEP V0201301N010812200019N0112651N1+02501+01701999999ADDGA1021+015009999GF102991999999999999999999MA1102101999999MW1001REMMET045FMEP 121100Z 13021KT 9999 FEW050 25/17 Q1021;EQDQ01+000000PRSWM2
0139619840999992000061212004-21330+055480FM-15+0053FMEP V0201301N011812200019N0112651N1+02401+01701999999ADDGA1021+013509999GF102991999999999999999999MA1102101999999MW1001REMMET045FMEP 121200Z 13023KT 9999 FEW045 24/17 Q1021;EQDQ01+000000PRSWM2
0139619840999992000061213004-21330+055480FM-15+0053FMEP V0201201N010312200019N0112651N1+02301+01601999999ADDGA1021+010809999GF102991999999999999999999MA1102101999999MW1001REMMET045FMEP 121300Z 12020KT 9999 FEW036 23/16 Q1021;EQDQ01+000000PRSWM2
0139619840999992000061303004-21330+055480FM-15+0053FMEP V0201001N005112200019N0112651N1+02001+01501999999ADDGA1021+004809999GF102991999999999999999999MA1102301999999MW1001REMMET045FMEP 130300Z 10010KT 9999 FEW016 20/15 Q1023;EQDQ01+000000PRSWM2
0150619840999992000061305004-21330+055480FM-15+0053FMEP V0201201N008212200019N0112651N1+02301+01601999999ADDGA1021+004809999GF102991999999999999999999MA1102401999999MW1001OC101391REMMET048FMEP 130500Z 12016G27KT 9999 FEW016 23/16 Q1024;EQDQ01+000000PRSWM2
0139619840999992000061306004-21330+055480FM-15+0053FMEP V0201201N009812200019N0112651N1+02501+01501999999ADDGA1021+003909999GF102991999999999999999999MA1102401999999MW1001REMMET045FMEP 130600Z 12019KT 9999 FEW013 25/15 Q1024;EQDQ01+000000PRSWM2
0139619840999992000061307004-21330+055480FM-15+0053FMEP V0201301N011812200019N0112651N1+02501+01501999999ADDGA1021+003009999GF102991999999999999999999MA1102301999999MW1001REMMET045FMEP 130700Z 13023KT 9999 FEW010 25/15 Q1023;EQDQ01+000000PRSWM2
0139619840999992000061308004-21330+055480FM-15+0053FMEP V0201301N013912200019N0112651N1+02501+01601999999ADDGA1021+004809999GF102991999999999999999999MA1102301999999MW1001REMMET045FMEP 130800Z 13027KT 9999 FEW016 25/16 Q1023;EQDQ01+000000PRSWM2
0139619840999992000061310004-21330+055480FM-15+0053FMEP V0201301N013412200019N0112651N1+02501+01701999999ADDGA1021+003009999GF102991999999999999999999MA1102101999999MW1001REMMET045FMEP 131000Z 13026KT 9999 FEW010 25/17 Q1021;EQDQ01+000000PRSWM2
0139619840999992000061311004-21330+055480FM-15+0053FMEP V0201201N013412200019N0112651N1+02401+01701999999ADDGA1021+003909999GF102991999999999999999999MA1102101999999MW1001REMMET045FMEP 131100Z 12026KT 9999 FEW013 24/17 Q1021;EQDQ01+000000PRSWM2
0171619840999992000061312004-21330+055480FM-15+0053FMEP V0201201N010312200019N0112651N1+02401+01701999999ADDGA1021+003009999GF102991999999999999999999MA1102201999999MW1161OC101541REMMET053FMEP 131200Z 12020G30KT 9999 VCSH FEW010 24/17 Q1022;EQDQ01+000003PRSWM1Q02    003PRSWM1
0163619840999992000061313004-21330+055480FM-15+0053FMEP V0201301N011312200019N0112651N1+02301+01601999999ADDGA1021+003909029GF102991999999999999999999MA1102201999999MW1161REMMET053FMEP 131300Z 13022KT 9999 VCSH FEW013TCU 23/16 Q1022;EQDQ01+000003PRSWM1Q02    003PRSWM1
0139619840999992000061403004-21320+055480FM-15+0053FMEP V0201201N006712200019N0112651N1+02101+01401999999ADDGA1021+006309999GF102991999999999999999999MA1102301999999MW1001REMMET045FMEP 140300Z 12013KT 9999 FEW021 21/14 Q1023;EQDQ01+000000PRSWM2
0139619840999992000061404004-21320+055480FM-15+0053FMEP V0201101N008212200019N0112651N1+02201+01601999999ADDGA1021+006309999GF102991999999999999999999MA1102401999999MW1001REMMET045FMEP 140400Z 11016KT 9999 FEW021 22/16 Q1024;EQDQ01+000000PRSWM2
0139619840999992000061405004-21320+055480FM-15+0053FMEP V0201301N011312200019N0112651N1+02301+01601999999ADDGA1021+006309999GF102991999999999999999999MA1102401999999MW1001REMMET045FMEP 140500Z 13022KT 9999 FEW021 23/16 Q1024;EQDQ01+000000PRSWM2
0139619840999992000061406004-21320+055480FM-15+0053FMEP V0201301N012312200019N0112651N1+02401+01701999999ADDGA1021+006309999GF102991999999999999999999MA1102401999999MW1001REMMET045FMEP 140600Z 13024KT 9999 FEW021 24/17 Q1024;EQDQ01+000000PRSWM2
0150619840999992000061407004-21320+055480FM-15+0053FMEP V0201301N012312200019N0112651N1+02501+01701999999ADDGA1021+006309999GF102991999999999999999999MA1102301999999MW1001OC101751REMMET048FMEP 140700Z 13024G34KT 9999 FEW021 25/17 Q1023;EQDQ01+000000PRSWM2
0139619840999992000061408004-21320+055480FM-15+0053FMEP V0201301N011812200019N0112651N1+02501+01701999999ADDGA1021+006309999GF102991999999999999999999MA1102201999999MW1001REMMET045FMEP 140800Z 13023KT 9999 FEW021 25/17 Q1022;EQDQ01+000000PRSWM2
0150619840999992000061409004-21320+055480FM-15+0053FMEP V0201301N010812200019N0112651N1+02501+01601999999ADDGA1021+006309999GF102991999999999999999999MA1102101999999MW1001OC101651REMMET048FMEP 140900Z 13021G32KT 9999 FEW021 25/16 Q1021;EQDQ01+000000PRSWM2
0139619840999992000061410004-21320+055480FM-15+0053FMEP V0201301N010812200019N0112651N1+02601+01501999999ADDGA1021+004509999GF102991999999999999999999MA1102101999999MW1001REMMET045FMEP 141000Z 13021KT 9999 FEW015 26/15 Q1021;EQDQ01+000000PRSWM2
0139619840999992000061411004-21320+055480FM-15+0053FMEP V0201301N008712200019N0112651N1+02601+01601999999ADDGA1021+004509999GF102991999999999999999999MA1102101999999MW1001REMMET045FMEP 141100Z 13017KT 9999 FEW015 26/16 Q1021;EQDQ01+000000PRSWM2
0139619840999992000061412004-21320+055480FM-15+0053FMEP V0201301N006712200019N0112651N1+02501+01601999999ADDGA1021+004509999GF102991999999999999999999MA1102101999999MW1001REMMET045FMEP 141200Z 13013KT 9999 FEW015 25/16 Q1021;EQDQ01+000000PRSWM2
0147619840999992000061413004-21320+055480FM-15+0053FMEP V0202901N002112200019N0112651N1+02501+01501999999ADDGA1021+004509999GF102991999999999999999999MA1102101999999MW1001REMMET053FMEP 141300Z 29004KT 240V340 9999 FEW015 25/15 Q1021;EQDQ01+000000PRSWM2
0139619840999992000061503004-21320+055480FM-15+0053FMEP V0200301N004112200019N0112651N1+02001+00901999999ADDGA1021+004809999GF102991999999999999999999MA1102201999999MW1001REMMET045FMEP 150300Z 03008KT 9999 FEW016 20/09 Q1022;EQDQ01+000000PRSWM2
0139619840999992000061505004-21320+055480FM-15+0053FMEP V0200301N003112200019N0112651N1+02301+01101999999ADDGA1021+003009999GF102991999999999999999999MA1102301999999MW1001REMMET045FMEP 150500Z 03006KT 9999 FEW010 23/11 Q1023;EQDQ01+000000PRSWM2
0139619840999992000061506004-21320+055480FM-15+0053FMEP V0200401N001012200019N0112651N1+02601+01501999999ADDGA1021+003909999GF102991999999999999999999MA1102301999999MW1001REMMET045FMEP 150600Z 04002KT 9999 FEW013 26/15 Q1023;EQDQ01+000000PRSWM2
0139619840999992000061507004-21320+055480FM-15+0053FMEP V0201601N003112200019N0112651N1+02601+01501999999ADDGA1021+004809999GF102991999999999999999999MA1102301999999MW1001REMMET045FMEP 150700Z 16006KT 9999 FEW016 26/15 Q1023;EQDQ01+000000PRSWM2
0139619840999992000061508004-21320+055480FM-15+0053FMEP V0201601N003612200019N0112651N1+02601+01501999999ADDGA1021+004809999GF102991999999999999999999MA1102201999999MW1001REMMET045FMEP 150800Z 16007KT 9999 FEW016 26/15 Q1022;EQDQ01+000000PRSWM2
0139619840999992000061509004-21320+055480FM-15+0053FMEP V0201701N003112200019N0112651N1+02601+01501999999ADDGA1021+015009999GF102991999999999999999999MA1102101999999MW1001REMMET045FMEP 150900Z 17006KT 9999 FEW053 26/15 Q1021;EQDQ01+000000PRSWM2
0139619840999992000061510004-21320+055480FM-15+0053FMEP V0201401N004112200019N0112651N1+02601+01601999999ADDGA1021+006909999GF102991999999999999999999MA1102101999999MW1001REMMET045FMEP 151000Z 14008KT 9999 FEW023 26/16 Q1021;EQDQ01+000000PRSWM2
0139619840999992000061511004-21320+055480FM-15+0053FMEP V0201401N004112200019N0112651N1+02601+01601999999ADDGA1021+003009999GF102991999999999999999999MA1102101999999MW1001REMMET045FMEP 151100Z 14008KT 9999 FEW010 26/16 Q1021;EQDQ01+000000PRSWM2
0162619840999992000061512004-21320+055480FM-15+0053FMEP V0201301N005112200019N0112651N1+02501+01701999999ADDGA1021+003009999GA2021+018009999GF104991999999999999999999MA1102101999999MW1001REMMET052FMEP 151200Z 13010KT 9999 FEW010 SCT060 25/17 Q1021;EQDQ01+000000PRSWM2
0165619840999992000061513004-21320+055480FM-15+0053FMEP V0201201N005712200019N0112651N1+02401+01601999999ADDGA1021+003009999GA2021+004809029GF104991999999999999999999MA1102101999999MW1001REMMET055FMEP 151300Z 12011KT 9999 FEW010 SCT016TCU 24/16 Q1021;EQDQ01+000000PRSWM2
0139619840999992000061603004-21320+055480FM-15+0053FMEP V0200301N004112200019N0112651N1+01901+01301999999ADDGA1021+004809999GF102991999999999999999999MA1102301999999MW1001REMMET045FMEP 160300Z 03008KT 9999 FEW016 19/13 Q1023;EQDQ01+000000PRSWM2
0139619840999992000061604004-21320+055480FM-15+0053FMEP V0200401N003112200019N0112651N1+02101+01401999999ADDGA1021+006009999GF102991999999999999999999MA1102301999999MW1001REMMET045FMEP 160400Z 04006KT 9999 FEW020 21/14 Q1023;EQDQ01+000000PRSWM2
0139619840999992000061605004-21320+055480FM-15+0053FMEP V0200201N001512200019N0112651N1+02501+01501999999ADDGA1021+004809999GF102991999999999999999999MA1102401999999MW1001REMMET045FMEP 160500Z 02003KT 9999 FEW016 25/15 Q1024;EQDQ01+000000PRSWM2
0147619840999992000061607004-21320+055480FM-15+0053FMEP V0201401N003112200019N0112651N1+02601+01501999999ADDGA1021+006009999GF102991999999999999999999MA1102301999999MW1001REMMET053FMEP 160700Z 14006KT 090V190 9999 FEW020 26/15 Q1023;EQDQ01+000000PRSWM2
0139619840999992000061608004-21320+055480FM-15+0053FMEP V0201301N009812200019N0112651N1+02701+01701999999ADDGA1021+003909999GF102991999999999999999999MA1102301999999MW1001REMMET045FMEP 160800Z 13019KT 9999 FEW013 27/17 Q1023;EQDQ01+000000PRSWM2
0139619840999992000061609004-21320+055480FM-15+0053FMEP V0201301N011312200019N0112651N1+02601+01801999999ADDGA1021+003909999GF102991999999999999999999MA1102201999999MW1001REMMET045FMEP 160900Z 13022KT 9999 FEW013 26/18 Q1022;EQDQ01+000000PRSWM2
0139619840999992000061610004-21320+055480FM-15+0053FMEP V0201301N010812200019N0112651N1+02701+01701999999ADDGA1021+003909999GF102991999999999999999999MA1102101999999MW1001REMMET045FMEP 161000Z 13021KT 9999 FEW013 27/17 Q1021;EQDQ01+000000PRSWM2
0139619840999992000061611004-21320+055480FM-15+0053FMEP V0201301N012312200019N0112651N1+02601+01601999999ADDGA1021+003909999GF102991999999999999999999MA1102101999999MW1001REMMET045FMEP 161100Z 13024KT 9999 FEW013 26/16 Q1021;EQDQ01+000000PRSWM2
0139619840999992000061612004-21320+055480FM-15+0053FMEP V0201301N011812200019N0112651N1+02501+01701999999ADDGA1021+003909999GF102991999999999999999999MA1102101999999MW1001REMMET045FMEP 161200Z 13023KT 9999 FEW013 25/17 Q1021;EQDQ01+000000PRSWM2
0139619840999992000061613004-21320+055480FM-15+0053FMEP V0201301N012912200019N0112651N1+02401+01701999999ADDGA1021+003909999GF102991999999999999999999MA1102101999999MW1001REMMET045FMEP 161300Z 13025KT 9999 FEW013 24/17 Q1021;EQDQ01+000000PRSWM2
0139619840999992000061803004-21320+055480FM-15+0053FMEP V0201301N012912200019N0112651N1+02401+01701999999ADDGA1021+003909999GF102991999999999999999999MA1102101999999MW1001REMMET045FMEP 180300Z 13025KT 9999 FEW013 24/17 Q1021;EQDQ01+000000PRSWM2
0139619840999992000061903004-21320+055480FM-15+0053FMEP V0200401N003612200019N0112651N1+01801+01001999999ADDGA1021+006309999GF102991999999999999999999MA1102101999999MW1001REMMET045FMEP 190300Z 04007KT 9999 FEW021 18/10 Q1021;EQDQ01+000000PRSWM2
0139619840999992000061904004-21320+055480FM-15+0053FMEP V0200201N004612200019N0112651N1+02001+01001999999ADDGA1021+006309999GF102991999999999999999999MA1102201999999MW1001REMMET045FMEP 190400Z 02009KT 9999 FEW021 20/10 Q1022;EQDQ01+000000PRSWM2
0147619840999992000061906004-21320+055480FM-15+0053FMEP V0201701N002112200019N0112651N1+02501+01301999999ADDGA1021+006309999GF102991999999999999999999MA1102201999999MW1001REMMET053FMEP 190600Z 17004KT 120V210 9999 FEW021 25/13 Q1022;EQDQ01+000000PRSWM2
0147619840999992000061907004-21320+055480FM-15+0053FMEP V0202101N002112200019N0112651N1+02501+01401999999ADDGA1021+006309999GF102991999999999999999999MA1102201999999MW1001REMMET053FMEP 190700Z 21004KT 180V250 9999 FEW021 25/14 Q1022;EQDQ01+000000PRSWM2
0147619840999992000061908004-21320+055480FM-15+0053FMEP V0202401N002612200019N0112651N1+02601+01401999999ADDGA1021+006309999GF102991999999999999999999MA1102101999999MW1001REMMET053FMEP 190800Z 24005KT 200V270 9999 FEW021 26/14 Q1021;EQDQ01+000000PRSWM2
0147619840999992000061909004-21320+055480FM-15+0053FMEP V0201701N003612200019N0112651N1+02701+01401999999ADDGA1021+006309999GF102991999999999999999999MA1102101999999MW1001REMMET053FMEP 190900Z 17007KT 130V200 9999 FEW021 27/14 Q1021;EQDQ01+000000PRSWM2
0139619840999992000061910004-21320+055480FM-15+0053FMEP V0201401N006212200019N0112651N1+02501+01801999999ADDGA1021+004509999GF104991999999999999999999MA1102001999999MW1001REMMET045FMEP 191000Z 14012KT 9999 SCT015 25/18 Q1020;EQDQ01+000000PRSWM2
0139619840999992000061912004-21320+055480FM-15+0053FMEP V0201401N007212200019N0112651N1+02501+01801999999ADDGA1021+004509999GF104991999999999999999999MA1101901999999MW1001REMMET045FMEP 191200Z 14014KT 9999 SCT015 25/18 Q1019;EQDQ01+000000PRSWM2
0139619840999992000061913004-21320+055480FM-15+0053FMEP V0201201N007212200019N0112651N1+02401+01801999999ADDGA1021+004509999GF104991999999999999999999MA1101901999999MW1001REMMET045FMEP 191300Z 12014KT 9999 SCT015 24/18 Q1019;EQDQ01+000000PRSWM2
0139619840999992000061914004-21320+055480FM-15+0053FMEP V0201201N005712200019N0112651N1+02301+01801999999ADDGA1021+004509999GF102991999999999999999999MA1102001999999MW1001REMMET045FMEP 191400Z 12011KT 9999 FEW015 23/18 Q1020;EQDQ01+000000PRSWM2
0147619840999992000062003004-21320+055480FM-15+0053FMEP V0200801N003612200019N0112651N1+01901+01201999999ADDGA1021+012009999GF102991999999999999999999MA1102001999999MW1001REMMET053FMEP 200300Z 08007KT 060V140 9999 FEW040 19/12 Q1020;EQDQ01+000000PRSWM2
0139619840999992000062005004-21320+055480FM-15+0053FMEP V0201001N003612200019N0112651N1+02401+01301999999ADDGA1021+012909999GF102991999999999999999999MA1102101999999MW1001REMMET045FMEP 200500Z 10007KT 9999 FEW043 24/13 Q1021;EQDQ01+000000PRSWM2
0139619840999992000062006004-21320+055480FM-15+0053FMEP V0201201N007712200019N0112651N1+02601+01701999999ADDGA1021+012909999GF102991999999999999999999MA1102001999999MW1001REMMET045FMEP 200600Z 12015KT 9999 FEW043 26/17 Q1020;EQDQ01+000000PRSWM2
0139619840999992000062007004-21320+055480FM-15+0053FMEP V0201301N009312200019N0112651N1+02601+01801999999ADDGA1021+012309999GF102991999999999999999999MA1102001999999MW1001REMMET045FMEP 200700Z 13018KT 9999 FEW041 26/18 Q1020;EQDQ01+000000PRSWM2
0139619840999992000062008004-21320+055480FM-15+0053FMEP V0201301N011812200019N0112651N1+02601+01801999999ADDGA1021+012009999GF102991999999999999999999MA1101901999999MW1001REMMET045FMEP 200800Z 13023KT 9999 FEW040 26/18 Q1019;EQDQ01+000000PRSWM2
0139619840999992000062009004-21320+055480FM-15+0053FMEP V0201301N011812200019N0112651N1+02601+01701999999ADDGA1021+010809999GF102991999999999999999999MA1101901999999MW1001REMMET045FMEP 200900Z 13023KT 9999 FEW036 26/17 Q1019;EQDQ01+000000PRSWM2
0139619840999992000062010004-21320+055480FM-15+0053FMEP V0201301N012912200019N0112651N1+02501+01601999999ADDGA1021+010809999GF102991999999999999999999MA1101801999999MW1001REMMET045FMEP 201000Z 13025KT 9999 FEW036 25/16 Q1018;EQDQ01+000000PRSWM2
0139619840999992000062011004-21320+055480FM-15+0053FMEP V0201301N012312200019N0112651N1+02501+01701999999ADDGA1021+011409999GF102991999999999999999999MA1101801999999MW1001REMMET045FMEP 201100Z 13024KT 9999 FEW038 25/17 Q1018;EQDQ01+000000PRSWM2
0139619840999992000062012004-21320+055480FM-15+0053FMEP V0201301N011812200019N0112651N1+02501+01701999999ADDGA1021+012009999GF102991999999999999999999MA1101801999999MW1001REMMET045FMEP 201200Z 13023KT 9999 FEW040 25/17 Q1018;EQDQ01+000000PRSWM2
0139619840999992000062013004-21320+055480FM-15+0053FMEP V0201201N011812200019N0112651N1+02401+01601999999ADDGA1021+012009999GF102991999999999999999999MA1101801999999MW1001REMMET045FMEP 201300Z 12023KT 9999 FEW040 24/16 Q1018;EQDQ01+000000PRSWM2
0147619840999992000062103004-21320+055480FM-15+0053FMEP V0200801N002612200019N0112651N1+01801+01301999999ADDGA1021+009309999GF102991999999999999999999MA1102001999999MW1001REMMET053FMEP 210300Z 08005KT 040V130 9999 FEW031 18/13 Q1020;EQDQ01+000000PRSWM2
0147619840999992000062104004-21320+055480FM-15+0053FMEP V0200701N003112200019N0112651N1+02101+01401999999ADDGA1021+009309999GF102991999999999999999999MA1102001999999MW1001REMMET053FMEP 210400Z 07006KT 030V110 9999 FEW031 21/14 Q1020;EQDQ01+000000PRSWM2
0139619840999992000062105004-21320+055480FM-15+0053FMEP V0201401N009812200019N0112651N1+02401+01901999999ADDGA1021+009909999GF102991999999999999999999MA1102001999999MW1001REMMET045FMEP 210500Z 14019KT 9999 FEW033 24/19 Q1020;EQDQ01+000000PRSWM2
0147619840999992000062106004-21320+055480FM-15+0053FMEP V0201101N006712200019N0112651N1+02601+01801999999ADDGA1021+012009999GF102991999999999999999999MA1102001999999MW1001REMMET053FMEP 210600Z 11013KT 070V140 9999 FEW040 26/18 Q1020;EQDQ01+000000PRSWM2
0139619840999992000062107004-21320+055480FM-15+0053FMEP V02099999999992200019N0112651N1+02801+01701999999ADDGA1021+012009999GF102991999999999999999999MA1102001999999MW1001REMMET045FMEP 210700Z VRB03KT 9999 FEW040 28/17 Q1020;EQDQ01+000000PRSWM2
0162619840999992000062108004-21320+055480FM-15+0053FMEP V0202801N007212200019N0112651N1+02801+01701999999ADDGA1021+012009999GA2021+018009999GF104991999999999999999999MA1102001999999MW1001REMMET052FMEP 210800Z 28014KT 9999 FEW040 SCT063 28/17 Q1020;EQDQ01+000000PRSWM2
0162619840999992000062109004-21320+055480FM-15+0053FMEP V0202701N004612200019N0112651N1+02701+01801999999ADDGA1021+011409999GA2021+045009999GF104991999999999999999999MA1102001999999MW1001REMMET052FMEP 210900Z 27009KT 9999 FEW038 SCT150 27/18 Q1020;EQDQ01+000000PRSWM2
0139619840999992000062110004-21320+055480FM-15+0053FMEP V0202401N004112200019N0112651N1+02701+01801999999ADDGA1021+010509999GF102991999999999999999999MA1101901999999MW1001REMMET045FMEP 211000Z 24008KT 9999 FEW035 27/18 Q1019;EQDQ01+000000PRSWM2
0147619840999992000062111004-21320+055480FM-15+0053FMEP V0202101N002112200019N0112651N1+02701+01701999999ADDGA1021+010509999GF102991999999999999999999MA1101901999999MW1001REMMET053FMEP 211100Z 21004KT 160V260 9999 FEW035 27/17 Q1019;EQDQ01+000000PRSWM2
0139619840999992000062112004-21320+055480FM-15+0053FMEP V0201301N006212200019N0112651N1+02601+01701999999ADDGA1021+009309999GF102991999999999999999999MA1101901999999MW1001REMMET045FMEP 211200Z 13012KT 9999 FEW031 26/17 Q1019;EQDQ01+000000PRSWM2
0139619840999992000062113004-21320+055480FM-15+0053FMEP V0201301N010312200019N0112651N1+02401+01801999999ADDGA1021+009309999GF102991999999999999999999MA1101901999999MW1001REMMET045FMEP 211300Z 13020KT 9999 FEW031 24/18 Q1019;EQDQ01+000000PRSWM2
0139619840999992000062203004-21320+055480FM-15+0053FMEP V0200601N002612200019N0112651N1+01701+01301999999ADDGA1021+003909999GF102991999999999999999999MA1102001999999MW1001REMMET045FMEP 220300Z 06005KT 9999 FEW013 17/13 Q1020;EQDQ01+000000PRSWM2
0139619840999992000062204004-21320+055480FM-15+0053FMEP V0200401N002612200019N0112651N1+02001+01401999999ADDGA1021+004809999GF102991999999999999999999MA1102101999999MW1001REMMET045FMEP 220400Z 04005KT 9999 FEW016 20/14 Q1021;EQDQ01+000000PRSWM2
0147619840999992000062205004-21320+055480FM-15+0053FMEP V0200401N002112200019N0112651N1+02401+01401999999ADDGA1021+006009999GF102991999999999999999999MA1102101999999MW1001REMMET053FMEP 220500Z 04004KT 360V110 9999 FEW020 24/14 Q1021;EQDQ01+000000PRSWM2
0139619840999992000062206004-21320+055480FM-15+0053FMEP V02099999999992200019N0112651N1+02601+01401999999ADDGA1021+004809999GF102991999999999999999999MA1102101999999MW1001REMMET045FMEP 220600Z VRB02KT 9999 FEW016 26/14 Q1021;EQDQ01+000000PRSWM2
0147619840999992000062207004-21320+055480FM-15+0053FMEP V0201501N003112200019N0112651N1+02701+01401999999ADDGA1021+004809999GF102991999999999999999999MA1102001999999MW1001REMMET053FMEP 220700Z 15006KT 110V180 9999 FEW016 27/14 Q1020;EQDQ01+000000PRSWM2
0147619840999992000062208004-21320+055480FM-15+0053FMEP V0201401N007212200019N0112651N1+02801+01301999999ADDGA1021+004809999GF102991999999999999999999MA1102001999999MW1001REMMET053FMEP 220800Z 14014KT 090V170 9999 FEW016 28/13 Q1020;EQDQ01+000000PRSWM2
0139619840999992000062209004-21320+055480FM-15+0053FMEP V0201401N010312200019N0112651N1+02701+01601999999ADDGA1021+006009999GF102991999999999999999999MA1101901999999MW1001REMMET045FMEP 220900Z 14020KT 9999 FEW020 27/16 Q1019;EQDQ01+000000PRSWM2
0158619840999992000062210004-21320+055480FM-15+0053FMEP V0201101N003612200019N0112651N1+02801+01501999999ADDGA1021+004809999GF102991999999999999999999MA1101801999999MW1001OC101081REMMET056FMEP 221000Z 11007G21KT 040V200 9999 FEW016 28/15 Q1018;EQDQ01+000000PRSWM2
0147619840999992000062211004-21320+055480FM-15+0053FMEP V0201401N006212200019N0112651N1+02701+01601999999ADDGA1021+015009999GF102991999999999999999999MA1101801999999MW1001REMMET053FMEP 221100Z 14012KT 110V180 9999 FEW053 27/16 Q1018;EQDQ01+000000PRSWM2
0139619840999992000062212004-21320+055480FM-15+0053FMEP V0202901N005712200019N0112651N1+02601+01701999999ADDGA1021+006909999GF102991999999999999999999MA1101901999999MW1001REMMET045FMEP 221200Z 29011KT 9999 FEW023 26/17 Q1019;EQDQ01+000000PRSWM2
0139619840999992000062213004-21320+055480FM-15+0053FMEP V0202801N004112200019N0112651N1+02501+01701999999ADDGA1021+006009999GF102991999999999999999999MA1101901999999MW1001REMMET045FMEP 221300Z 28008KT 9999 FEW020 25/17 Q1019;EQDQ01+000000PRSWM2
0139619840999992000062303004-21320+055480FM-15+0053FMEP V0200501N003612200019N0112651N1+01801+01201999999ADDGA1021+012009999GF102991999999999999999999MA1102001999999MW1001REMMET045FMEP 230300Z 05007KT 9999 FEW040 18/12 Q1020;EQDQ01+000000PRSWM2
0139619840999992000062304004-21320+055480FM-15+0053FMEP V0200401N003112200019N0112651N1+02001+01301999999ADDGA1021+012009999GF102991999999999999999999MA1102001999999MW1001REMMET045FMEP 230400Z 04006KT 9999 FEW040 20/13 Q1020;EQDQ01+000000PRSWM2
0139619840999992000062305004-21320+055480FM-15+0053FMEP V0200401N002112200019N0112651N1+02401+01401999999ADDGA1021+012009999GF102991999999999999999999MA1102101999999MW1001REMMET045FMEP 230500Z 04004KT 9999 FEW040 24/14 Q1021;EQDQ01+000000PRSWM2
0147619840999992000062307004-21320+055480FM-15+0053FMEP V02099999999992200019N0112651N1+02601+01401999999ADDGA1021+012309999GF102991999999999999999999MA1102101999999MW1001REMMET053FMEP 230700Z VRB04KT 080V320 9999 FEW041 26/14 Q1021;EQDQ01+000000PRSWM2
0147619840999992000062308004-21320+055480FM-15+0053FMEP V0201501N003112200019N0112651N1+02701+01501999999ADDGA1021+010509999GF102991999999999999999999MA1102001999999MW1001REMMET053FMEP 230800Z 15006KT 110V180 9999 FEW035 27/15 Q1020;EQDQ01+000000PRSWM2
0147619840999992000062309004-21320+055480FM-15+0053FMEP V0201401N004112200019N0112651N1+02601+01501999999ADDGA1021+010509999GF102991999999999999999999MA1101901999999MW1001REMMET053FMEP 230900Z 14008KT 090V200 9999 FEW035 26/15 Q1019;EQDQ01+000000PRSWM2
0139619840999992000062310004-21320+055480FM-15+0053FMEP V0201301N006712200019N0112651N1+02601+01801999999ADDGA1021+010809999GF102991999999999999999999MA1101801999999MW1001REMMET045FMEP 231000Z 13013KT 9999 FEW036 26/18 Q1018;EQDQ01+000000PRSWM2
0139619840999992000062311004-21320+055480FM-15+0053FMEP V0201301N007712200019N0112651N1+02601+01901999999ADDGA1021+009609999GF102991999999999999999999MA1101801999999MW1001REMMET045FMEP 231100Z 13015KT 9999 FEW032 26/19 Q1018;EQDQ01+000000PRSWM2
0162619840999992000062312004-21320+055480FM-15+0053FMEP V0201401N009312200019N0112651N1+02301+01801999999ADDGA1021+009909999GA2021+018009999GF104991999999999999999999MA1101801999999MW1001REMMET052FMEP 231200Z 14018KT 9999 FEW033 SCT063 23/18 Q1018;EQDQ01+000000PRSWM2
0139619840999992000062313004-21320+055480FM-15+0053FMEP V0201001N004612200019N0112651N1+02401+01901999999ADDGA1021+009909999GF102991999999999999999999MA1101801999999MW1001REMMET045FMEP 231300Z 10009KT 9999 FEW033 24/19 Q1018;EQDQ01+000000PRSWM2
0139619840999992000062403004-21320+055480FM-15+0053FMEP V0200301N005112200019N0112651N1+01801+01301999999ADDGA1021+004809999GF102991999999999999999999MA1101901999999MW1001REMMET045FMEP 240300Z 03010KT 9999 FEW016 18/13 Q1019;EQDQ01+000000PRSWM2
0139619840999992000062404004-21320+055480FM-15+0053FMEP V0200501N003112200019N0112651N1+01901+01301999999ADDGA1021+004809999GF102991999999999999999999MA1102001999999MW1001REMMET045FMEP 240400Z 05006KT 9999 FEW016 19/13 Q1020;EQDQ01+000000PRSWM2
0139619840999992000062406004-21320+055480FM-15+0053FMEP V0201301N005112200019N0112651N1+02501+01601999999ADDGA1021+003909999GF102991999999999999999999MA1102001999999MW1001REMMET045FMEP 240600Z 13010KT 9999 FEW013 25/16 Q1020;EQDQ01+000000PRSWM2
0139619840999992000062407004-21320+055480FM-15+0053FMEP V0201301N008712200019N0112651N1+02601+01801999999ADDGA1021+009909999GF102991999999999999999999MA1102001999999MW1001REMMET045FMEP 240700Z 13017KT 9999 FEW033 26/18 Q1020;EQDQ01+000000PRSWM2
0139619840999992000062408004-21320+055480FM-15+0053FMEP V0201301N010312200019N0112651N1+02601+01801999999ADDGA1021+012009999GF102991999999999999999999MA1101901999999MW1001REMMET045FMEP 240800Z 13020KT 9999 FEW040 26/18 Q1019;EQDQ01+000000PRSWM2
0142619840999992000062409004-21320+055480FM-15+0053FMEP V0201301N010312200019N0112651N1+02601+01901999999ADDGA1021+013809029GF102991999999999999999999MA1101801999999MW1001REMMET048FMEP 240900Z 13020KT 9999 FEW046TCU 26/19 Q1018;EQDQ01+000000PRSWM2
0165619840999992000062410004-21320+055480FM-15+0053FMEP V0201301N011312200019N0112651N1+02501+01601999999ADDGA1021+015009999GA2021+015009029GF102991999999999999999999MA1101691999999MW1001REMMET055FMEP 241000Z 13022KT 9999 FEW050 FEW056TCU 25/16 Q1017;EQDQ01+000000PRSWM2
0139619840999992000062411004-21320+055480FM-15+0053FMEP V0201401N009312200019N0112651N1+02501+01501999999ADDGA1021+013809999GF102991999999999999999999MA1101691999999MW1001REMMET045FMEP 241100Z 14018KT 9999 FEW046 25/15 Q1017;EQDQ01+000000PRSWM2
0139619840999992000062412004-21320+055480FM-15+0053FMEP V0201301N007712200019N0112651N1+02501+01501999999ADDGA1021+015009999GF102991999999999999999999MA1101691999999MW1001REMMET045FMEP 241200Z 13015KT 9999 FEW056 25/15 Q1017;EQDQ01+000000PRSWM2
0139619840999992000062413004-21320+055480FM-15+0053FMEP V0201101N000512200019N0112651N1+02501+01501999999ADDGA1021+018009999GF102991999999999999999999MA1101691999999MW1001REMMET045FMEP 241300Z 11001KT 9999 FEW063 25/15 Q1017;EQDQ01+000000PRSWM2
0139619840999992000062504004-21320+055480FM-15+0053FMEP V0200501N003612200019N0112651N1+02001+01001999999ADDGA1021+003009999GF102991999999999999999999MA1101901999999MW1001REMMET045FMEP 250400Z 05007KT 9999 FEW010 20/10 Q1019;EQDQ01+000000PRSWM2
0139619840999992000062506004-21320+055480FM-15+0053FMEP V0200201N001012200019N0112651N1+02501+01401999999ADDGA1021+004809999GF102991999999999999999999MA1102001999999MW1001REMMET045FMEP 250600Z 02002KT 9999 FEW016 25/14 Q1020;EQDQ01+000000PRSWM2
0139619840999992000062507004-21320+055480FM-15+0053FMEP V0202401N002612200019N0112651N1+02501+01501999999ADDGA1021+004809999GF102991999999999999999999MA1101901999999MW1001REMMET045FMEP 250700Z 24005KT 9999 FEW016 25/15 Q1019;EQDQ01+000000PRSWM2
0139619840999992000062508004-21320+055480FM-15+0053FMEP V0202501N002612200019N0112651N1+02601+01501999999ADDGA1021+006909999GF102991999999999999999999MA1101801999999MW1001REMMET045FMEP 250800Z 25005KT 9999 FEW023 26/15 Q1018;EQDQ01+000000PRSWM2
0139619840999992000062509004-21320+055480FM-15+0053FMEP V0202401N003112200019N0112651N1+02601+01501999999ADDGA1021+006909999GF102991999999999999999999MA1101801999999MW1001REMMET045FMEP 250900Z 24006KT 9999 FEW023 26/15 Q1018;EQDQ01+000000PRSWM2
0139619840999992000062510004-21320+055480FM-15+0053FMEP V0203001N004112200019N0112651N1+02701+01501999999ADDGA1021+003909999GF102991999999999999999999MA1101691999999MW1001REMMET045FMEP 251000Z 30008KT 9999 FEW013 27/15 Q1017;EQDQ01+000000PRSWM2
0139619840999992000062511004-21320+055480FM-15+0053FMEP V0202701N004112200019N0112651N1+02601+01501999999ADDGA1021+004809999GF102991999999999999999999MA1101691999999MW1001REMMET045FMEP 251100Z 27008KT 9999 FEW016 26/15 Q1017;EQDQ01+000000PRSWM2
0139619840999992000062513004-21320+055480FM-15+0053FMEP V0202901N003612200019N0112651N1+02501+01401999999ADDGA1021+003009999GF102991999999999999999999MA1101801999999MW1001REMMET045FMEP 251300Z 29007KT 9999 FEW010 25/14 Q1018;EQDQ01+000000PRSWM2
0139619840999992000062603004-21320+055480FM-15+0053FMEP V0200701N004112200019N0112651N1+01901+01101999999ADDGA1021+006309999GF102991999999999999999999MA1101801999999MW1001REMMET045FMEP 260300Z 07008KT 9999 FEW021 19/11 Q1018;EQDQ01+000000PRSWM2
0162619840999992000062606004-21320+055480FM-15+0053FMEP V0201101N006712200019N0112651N1+02501+01701999999ADDGA1021+006309999GA2021+018009999GF104991999999999999999999MA1101901999999MW1001REMMET052FMEP 260600Z 11013KT 9999 FEW021 SCT066 25/17 Q1019;EQDQ01+000000PRSWM2
0162619840999992000062607004-21320+055480FM-15+0053FMEP V0201401N008212200019N0112651N1+02501+01901999999ADDGA1021+006309999GA2021+018009999GF104991999999999999999999MA1101901999999MW1001REMMET052FMEP 260700Z 14016KT 9999 FEW021 SCT066 25/19 Q1019;EQDQ01+000000PRSWM2
0162619840999992000062608004-21320+055480FM-15+0053FMEP V0201301N008712200019N0112651N1+02601+01801999999ADDGA1021+006309999GA2021+018009999GF104991999999999999999999MA1101801999999MW1001REMMET052FMEP 260800Z 13017KT 9999 FEW021 SCT066 26/18 Q1018;EQDQ01+000000PRSWM2
0162619840999992000062703004-21320+055480FM-15+0053FMEP V0200601N001512200019N0112651N1+01901+01501999999ADDGA1021+009309999GA2021+048009999GF104991999999999999999999MA1101801999999MW1001REMMET052FMEP 270300Z 06003KT 9999 FEW031 SCT160 19/15 Q1018;EQDQ01+000000PRSWM2
0165619840999992000062704004-21320+055480FM-15+0053FMEP V0200901N002112200019N0112651N1+01901+01501999999ADDGA1021+004809029GA2021+048009999GF104991999999999999999999MA1101801999999MW1001REMMET055FMEP 270400Z 09004KT 9999 FEW016TCU SCT160 19/15 Q1018;EQDQ01+000000PRSWM2
0162619840999992000062705004-21320+055480FM-15+0053FMEP V0200901N001012200019N0112651N1+02201+01601999999ADDGA1021+004809999GA2021+048009999GF104991999999999999999999MA1101901999999MW1001REMMET052FMEP 270500Z 09002KT 9999 FEW016 SCT160 22/16 Q1019;EQDQ01+000000PRSWM2
0162619840999992000062706004-21320+055480FM-15+0053FMEP V0201301N005712200019N0112651N1+02401+01901999999ADDGA1021+004809999GA2021+045009999GF104991999999999999999999MA1101901999999MW1001REMMET052FMEP 270600Z 13011KT 9999 FEW016 SCT150 24/19 Q1019;EQDQ01+000000PRSWM2
0139619840999992000062708004-21320+055480FM-15+0053FMEP V0201401N006712200019N0112651N1+02601+01801999999ADDGA1021+009309999GF102991999999999999999999MA1101691999999MW1001REMMET045FMEP 270800Z 14013KT 9999 FEW031 26/18 Q1017;EQDQ01+000000PRSWM2
0165619840999992000062709004-21320+055480FM-15+0053FMEP V0201501N006212200019N0112651N1+02601+01801999999ADDGA1021+009009029GA2021+090009999GF104991999999999999999999MA1101691999999MW1001REMMET055FMEP 270900Z 15012KT 9999 FEW030TCU SCT300 26/18 Q1017;EQDQ01+000000PRSWM2
0142619840999992000062710004-21320+055480FM-15+0053FMEP V0201501N005112200019N0112651N1+02501+01801999999ADDGA1021+009009029GF102991999999999999999999MA1101591999999MW1001REMMET048FMEP 271000Z 15010KT 9999 FEW030TCU 25/18 Q1016;EQDQ01+000000PRSWM2
0142619840999992000062711004-21320+055480FM-15+0053FMEP V0201501N006212200019N0112651N1+02501+01801999999ADDGA1021+008409029GF102991999999999999999999MA1101591999999MW1001REMMET048FMEP 271100Z 15012KT 9999 FEW028TCU 25/18 Q1016;EQDQ01+000000PRSWM2
0142619840999992000062712004-21320+055480FM-15+0053FMEP V0201501N005112200019N0112651N1+02501+01901999999ADDGA1021+009309029GF102991999999999999999999MA1101591999999MW1001REMMET048FMEP 271200Z 15010KT 9999 FEW031TCU 25/19 Q1016;EQDQ01+000000PRSWM2
0165619840999992000062713004-21320+055480FM-15+0053FMEP V0201401N004112200019N0112651N1+02401+01901999999ADDGA1021+003309029GA2021+090009999GF104991999999999999999999MA1101691999999MW1001REMMET055FMEP 271300Z 14008KT 9999 SCT011TCU SCT300 24/19 Q1017;EQDQ01+000000PRSWM2
0142619840999992000062803004-21320+055480FM-15+0053FMEP V0200501N003112200019N0112651N1+01901+01301999999ADDGA1021+003009029GF102991999999999999999999MA1101901999999MW1001REMMET048FMEP 280300Z 05006KT 9999 FEW010TCU 19/13 Q1019;EQDQ01+000000PRSWM2
0183619840999992000062805004-21320+055480FM-15+0053FMEP V0201301N006710048019N0040001N1+02101+01901999999ADDGA1021+003009999GA2071+004809099GF107991999999999999999999MA1102001999999MW1631REMMET057FMEP 280500Z 13013KT 4000 RA SCT010 BKN016CB 21/19 Q1020;EQDQ01+000003PRSWM1Q02    003PRSWM1
0162619840999992000062806004-21320+055480FM-15+0053FMEP V0200801N003112200019N0040001N1+02101+01901999999ADDGA1021+003009999GA2021+015009999GF104991999999999999999999MA1102001999999MW1001REMMET052FMEP 280600Z 08006KT 4000 SCT010 SCT056 21/19 Q1020;EQDQ01+000000PRSWM2
0183619840999992000062808004-21320+055480FM-15+0053FMEP V0201501N010810030019N0050001N1+02101+01901999999ADDGA1071+003009999GA2071+015009999GF107991999999999999999999MA1101901999999MW1161REMMET057FMEP 280800Z 15021KT 5000 VCSH BKN010 BKN050 21/19 Q1019;EQDQ01+000003PRSWM1Q02    003PRSWM1
0162619840999992000062809004-21320+055480FM-15+0053FMEP V0201501N010810009019N0090001N1+02101+01801999999ADDGA1071+000909999GA2071+003009999GF107991999999999999999999MA1101901999999MW1001REMMET052FMEP 280900Z 15021KT 9000 BKN003 BKN010 21/18 Q1019;EQDQ01+000000PRSWM2
0160619840999992000062810004-21320+055480FM-15+0053FMEP V0201301N006710039019N0090001N1+02001+01901999999ADDGA1071+003909999GF107991999999999999999999MA1101901999999MW1161REMMET050FMEP 281000Z 13013KT 9000 VCSH BKN013 20/19 Q1019;EQDQ01+000003PRSWM1Q02    003PRSWM1
0185619840999992000062811004-21320+055480FM-15+0053FMEP V0201301N010310150019N0112651N1+02101+01801999999ADDGA1021+003009999GA2021+004809999GA3071+015009999GF107991999999999999999999MA1101901999999MW1001REMMET059FMEP 281100Z 13020KT 9999 FEW010 SCT016 BKN050 21/18 Q1019;EQDQ01+000000PRSWM2
0152619840999992000062812004-21320+055480FM-15+0053FMEP V0201101N00721220001CN0112651N1+01901+01801999999ADDGA1071+003009999GA2021+015009999MA1101901999999MW1001REMMET052FMEP 281200Z 11014KT 9999 BKN010 SCT050 19/18 Q1019;EQDQ01+000042SCOTCVQ02+000000PRSWM2
0158619840999992000062813004-21320+055480FM-15+0053FMEP V0201401N010810018019N0020001N1+01901+01701999999ADDGA1071+001809999GF107991999999999999999999MA1102001999999MW1631REMMET048FMEP 281300Z 14021KT 2000 RA BKN006 19/17 Q1020;EQDQ01+000003PRSWM1Q02    003PRSWM1
0165619840999992000062904004-21320+055480FM-15+0053FMEP V0200801N004610150019N0112651N1+01801+01401999999ADDGA1021+004509029GA2071+015009999GF107991999999999999999999MA1102301999999MW1001REMMET055FMEP 290400Z 08009KT 9999 SCT015TCU BKN056 18/14 Q1023;EQDQ01+000000PRSWM2
0142619840999992000062905004-21320+055480FM-15+0053FMEP V0201001N005712200019N0112651N1+02001+01401999999ADDGA1021+004809029GF104991999999999999999999MA1102401999999MW1001REMMET048FMEP 290500Z 10011KT 9999 SCT016TCU 20/14 Q1024;EQDQ01+000000PRSWM2
0142619840999992000062906004-21320+055480FM-15+0053FMEP V0201101N006212200019N0112651N1+02201+01301999999ADDGA1021+003909029GF104991999999999999999999MA1102401999999MW1001REMMET048FMEP 290600Z 11012KT 9999 SCT013TCU 22/13 Q1024;EQDQ01+000000PRSWM2
0142619840999992000062907004-21320+055480FM-15+0053FMEP V0201201N007712200019N0112651N1+02101+01201999999ADDGA1021+003909029GF104991999999999999999999MA1102401999999MW1001REMMET048FMEP 290700Z 12015KT 9999 SCT013TCU 21/12 Q1024;EQDQ01+000000PRSWM2
0139619840999992000062909004-21320+055480FM-15+0053FMEP V0201301N009312200019N0112651N1+02301+01301999999ADDGA1021+003309999GF104991999999999999999999MA1102201999999MW1001REMMET045FMEP 290900Z 13018KT 9999 SCT011 23/13 Q1022;EQDQ01+000000PRSWM2
0139619840999992000062910004-21320+055480FM-15+0053FMEP V0201301N009312200019N0112651N1+02201+01201999999ADDGA1021+005409999GF104991999999999999999999MA1102201999999MW1001REMMET045FMEP 291000Z 13018KT 9999 SCT018 22/12 Q1022;EQDQ01+000000PRSWM2
0162619840999992000062911004-21320+055480FM-15+0053FMEP V0201301N009312200019N0112651N1+02301+01201999999ADDGA1021+005409999GA2021+045009999GF104991999999999999999999MA1102201999999MW1001REMMET052FMEP 291100Z 13018KT 9999 FEW018 SCT150 23/12 Q1022;EQDQ01+000000PRSWM2
0162619840999992000062912004-21320+055480FM-15+0053FMEP V0201201N009312200019N0112651N1+02201+01101999999ADDGA1021+006009999GA2021+045009999GF104991999999999999999999MA1102201999999MW1001REMMET052FMEP 291200Z 12018KT 9999 FEW020 SCT150 22/11 Q1022;EQDQ01+000000PRSWM2
0142619840999992000062913004-21320+055480FM-15+0053FMEP V0201101N008712200019N0112651N1+02101+01201999999ADDGA1021+003309029GF104991999999999999999999MA1102201999999MW1001REMMET048FMEP 291300Z 11017KT 9999 SCT011TCU 21/12 Q1022;EQDQ01+000000PRSWM2
0139619840999992000063004004-21320+055480FM-15+0053FMEP V0200901N005712200019N0112651N1+01901+01101999999ADDGA1021+003009999GF102991999999999999999999MA1102401999999MW1001REMMET045FMEP 300400Z 09011KT 9999 FEW010 19/11 Q1024;EQDQ01+000000PRSWM2
0160619840999992000063005004-21320+055480FM-15+0053FMEP V0201101N006712200019N0112651N1+02201+01101999999ADDGA1021+004809999GF102991999999999999999999MA1102511999999MW1161REMMET050FMEP 300500Z 11013KT 9999 VCSH FEW016 22/11 Q1025;EQDQ01+000003PRSWM1Q02    003PRSWM1
0139619840999992000063006004-21320+055480FM-15+0053FMEP V0201101N007712200019N0112651N1+02101+01101999999ADDGA1021+003909999GF102991999999999999999999MA1102511999999MW1001REMMET045FMEP 300600Z 11015KT 9999 FEW013 21/11 Q1025;EQDQ01+000000PRSWM2
0139619840999992000063008004-21320+055480FM-15+0053FMEP V0201201N007212200019N0112651N1+02301+01301999999ADDGA1021+003909999GF102991999999999999999999MA1102401999999MW1001REMMET045FMEP 300800Z 12014KT 9999 FEW013 23/13 Q1024;EQDQ01+000000PRSWM2
0142619840999992000063009004-21320+055480FM-15+0053FMEP V0201201N008212200019N0112651N1+02301+01401999999ADDGA1021+003909029GF102991999999999999999999MA1102301999999MW1001REMMET048FMEP 300900Z 12016KT 9999 FEW013TCU 23/14 Q1023;EQDQ01+000000PRSWM2
0139619840999992000063010004-21320+055480FM-15+0053FMEP V0201101N008212200019N0112651N1+02201+01301999999ADDGA1021+003309999GF102991999999999999999999MA1102301999999MW1001REMMET045FMEP 301000Z 11016KT 9999 FEW011 22/13 Q1023;EQDQ01+000000PRSWM2
0139619840999992000063011004-21320+055480FM-15+0053FMEP V0201301N010812200019N0112651N1+02201+01201999999ADDGA1021+003309999GF104991999999999999999999MA1102301999999MW1001REMMET045FMEP 301100Z 13021KT 9999 SCT011 22/12 Q1023;EQDQ01+000000PRSWM2
0139619840999992000063012004-21320+055480FM-15+0053FMEP V0201301N008712200019N0112651N1+02201+01101999999ADDGA1021+003309999GF102991999999999999999999MA1102301999999MW1001REMMET045FMEP 301200Z 13017KT 9999 FEW011 22/11 Q1023;EQDQ01+000000PRSWM2
0139619840999992000063013004-21320+055480FM-15+0053FMEP V0201201N008712200019N0112651N1+02101+01001999999ADDGA1021+010809999GF102991999999999999999999MA1102301999999MW1001REMMET045FMEP 301300Z 12017KT 9999 FEW036 21/10 Q1023;EQDQ01+000000PRSWM2
0139619840999992000070103004-21320+055480FM-15+0053FMEP V0200501N004112200019N0112651N1+01601+01001999999ADDGA1021+006909999GF102991999999999999999999MA1102301999999MW1001REMMET045FMEP 010300Z 05008KT 9999 FEW023 16/10 Q1023;EQDQ01+000000PRSWM2
0139619840999992000070104004-21320+055480FM-15+0053FMEP V0200401N004612200019N0112651N1+01701+01001999999ADDGA1021+006909999GF102991999999999999999999MA1102301999999MW1001REMMET045FMEP 010400Z 04009KT 9999 FEW023 17/10 Q1023;EQDQ01+000000PRSWM2
0165619840999992000070105004-21320+055480FM-15+0053FMEP V0200601N003112200019N0112651N1+02001+00901999999ADDGA1021+006909029GA2021+015009999GF104991999999999999999999MA1102401999999MW1001REMMET055FMEP 010500Z 06006KT 9999 FEW023TCU SCT050 20/09 Q1024;EQDQ01+000000PRSWM2
0157619840999992000070106004-21320+055480FM-15+0053FMEP V0200601N004612200019N0080001N1+99999+99999999999ADDGA1021+006909029GA2021+015009999GF104991999999999999999999MW1001MW2161REMMET056FMEP 010600Z 06009KT 030V130 8000 VCSH FEW023TCU SCT050;EQDQ01+000003PRSWM1
0186619840999992000070107004-21320+055480FM-15+0053FMEP V0201401N009312200019N0080001N1+02001+01501999999ADDGA1021+006909029GA2021+015009999GF104991999999999999999999MA1102301999999MW1161REMMET060FMEP 010700Z 14018KT 8000 VCSH FEW023TCU SCT050 20/15 Q1023;EQDQ01+000003PRSWM1Q02    003PRSWM1
0182619840999992000070109004-21320+055480FM-15+0053FMEP V0200701N005110150019N0015001N1+01801+01601999999ADDGA1021+006909999GA2071+015009999GF107991999999999999999999MA1102201999999MW1611REMMET056FMEP 010900Z 07010KT 1500 -RA FEW023 BKN050 18/16 Q1022;EQDQ01+000003PRSWM1Q02    003PRSWM1
0158619840999992000070110004-21320+055480FM-15+0053FMEP V0201101N005110120019N0010001N1+01801+01601999999ADDGA1081+012009999GF108991999999999999999999MA1102201999999MW1631REMMET048FMEP 011000Z 11010KT 1000 RA OVC040 18/16 Q1022;EQDQ01+000003PRSWM1Q02    003PRSWM1
0159619840999992000070111004-21320+055480FM-15+0053FMEP V0201101N002610120019N0015001N1+01801+01701999999ADDGA1081+012009999GF108991999999999999999999MA1102101999999MW1611REMMET049FMEP 011100Z 11005KT 1500 -RA OVC040 18/17 Q1021;EQDQ01+000003PRSWM1Q02    003PRSWM1
0160619840999992000070112004-21320+055480FM-15+0053FMEP V0201501N008210120019N0030001N1+01801+01701999999ADDGA1081+012009999GF108991999999999999999999MA1102101999999MW1161REMMET050FMEP 011200Z 15016KT 3000 VCSH OVC040 18/17 Q1021;EQDQ01+000003PRSWM1Q02    003PRSWM1
0160619840999992000070113004-21320+055480FM-15+0053FMEP V0201101N006210120019N0030001N1+01701+01601999999ADDGA1081+012009999GF108991999999999999999999MA1102201999999MW1161REMMET050FMEP 011300Z 11012KT 3000 VCSH OVC040 17/16 Q1022;EQDQ01+000003PRSWM1Q02    003PRSWM1
0192619840999992000070203004-21320+055480FM-15+0053FMEP V0201101N007710150019N0112651N1+01701+01601999999ADDGA1021+004509999GA2081+015009999GF108991999999999999999999MA1102201999999MW1631OC101341REMMET058FMEP 020300Z 11015G26KT 9999 RA FEW015 OVC050 17/16 Q1022;EQDQ01+000003PRSWM1Q02    003PRSWM1
0181619840999992000070204004-21320+055480FM-15+0053FMEP V0200901N006210150019N0015001N1+01701+01601999999ADDGA1021+004509999GA2081+015009999GF108991999999999999999999MA1102201999999MW1631REMMET055FMEP 020400Z 09012KT 1500 RA FEW015 OVC050 17/16 Q1022;EQDQ01+000003PRSWM1Q02    003PRSWM1
0181619840999992000070205004-21320+055480FM-15+0053FMEP V0201001N006210150019N0012001N1+01701+01601999999ADDGA1021+004509999GA2081+015009999GF108991999999999999999999MA1102301999999MW1631REMMET055FMEP 020500Z 10012KT 1200 RA FEW015 OVC050 17/16 Q1023;EQDQ01+000003PRSWM1Q02    003PRSWM1
0181619840999992000070206004-21320+055480FM-15+0053FMEP V0201001N008210150019N0020001N1+01801+01601999999ADDGA1021+004809999GA2081+015009999GF108991999999999999999999MA1102301999999MW1631REMMET055FMEP 020600Z 10016KT 2000 RA FEW016 OVC050 18/16 Q1023;EQDQ01+000003PRSWM1Q02    003PRSWM1
0168619840999992000070207004-21320+055480FM-15+0053FMEP V0201001N006210150019N0112651N1+01801+01701999999ADDGA1071+015009999GF107991999999999999999999MA1102201999999MW1161REMMET058FMEP 020700Z 10012KT 070V140 9999 VCSH BKN050 18/17 Q1022;EQDQ01+000003PRSWM1Q02    003PRSWM1
0183619840999992000070208004-21320+055480FM-15+0053FMEP V0201101N008710150019N0080001N1+01901+01601999999ADDGA1021+006309999GA2071+015009999GF107991999999999999999999MA1102201999999MW1161REMMET057FMEP 020800Z 11017KT 8000 VCSH FEW021 BKN050 19/16 Q1022;EQDQ01+000003PRSWM1Q02    003PRSWM1
0194619840999992000070209004-21320+055480FM-15+0053FMEP V0201101N007710150019N0080001N1+01801+01701999999ADDGA1021+006309999GA2071+015009999GF107991999999999999999999MA1102101999999MW1161OC101391REMMET060FMEP 020900Z 11015G27KT 8000 VCSH FEW021 BKN050 18/17 Q1021;EQDQ01+000003PRSWM1Q02    003PRSWM1
0167619840999992000070210004-21320+055480FM-15+0053FMEP V0201201N007210150019N0020001N1+01901+01701999999ADDGA1081+015009999GF108991999999999999999999MA1102101999999MW1611REMMET057FMEP 021000Z 12014KT 080V150 2000 -RA OVC050 19/17 Q1021;EQDQ01+000003PRSWM1Q02    003PRSWM1
0159619840999992000070211004-21320+055480FM-15+0053FMEP V0201101N008210150019N0020001N1+01901+01601999999ADDGA1081+015009999GF108991999999999999999999MA1102001999999MW1611REMMET049FMEP 021100Z 11016KT 2000 -RA OVC050 19/16 Q1020;EQDQ01+000003PRSWM1Q02    003PRSWM1
0182619840999992000070212004-21320+055480FM-15+0053FMEP V0201301N009810150019N0020001N1+02101+01601999999ADDGA1021+006309999GA2081+015009999GF108991999999999999999999MA1102001999999MW1611REMMET056FMEP 021200Z 13019KT 2000 -RA FEW021 OVC050 21/16 Q1020;EQDQ01+000003PRSWM1Q02    003PRSWM1
0183619840999992000070213004-21320+055480FM-15+0053FMEP V0201201N008210150019N0080001N1+01901+01501999999ADDGA1021+006309999GA2071+015009999GF107991999999999999999999MA1102001999999MW1161REMMET057FMEP 021300Z 12016KT 8000 VCSH FEW021 BKN050 19/15 Q1020;EQDQ01+000003PRSWM1Q02    003PRSWM1
0139619840999992000070303004-21320+055480FM-15+0053FMEP V0201001N004612200019N0112651N1+01701+01301999999ADDGA1021+010809999GF102991999999999999999999MA1102001999999MW1001REMMET045FMEP 030300Z 10009KT 9999 FEW036 17/13 Q1020;EQDQ01+000000PRSWM2
0147619840999992000070304004-21320+055480FM-15+0053FMEP V0200801N002612200019N0112651N1+01901+01301999999ADDGA1021+010809999GF102991999999999999999999MA1102001999999MW1001REMMET053FMEP 030400Z 08005KT 040V120 9999 FEW036 19/13 Q1020;EQDQ01+000000PRSWM2
0147619840999992000070305004-21320+055480FM-15+0053FMEP V0200901N002612200019N0112651N1+02101+01301999999ADDGA1021+012009999GF102991999999999999999999MA1102001999999MW1001REMMET053FMEP 030500Z 09005KT 030V130 9999 FEW040 21/13 Q1020;EQDQ01+000000PRSWM2
0139619840999992000070306004-21320+055480FM-15+0053FMEP V0201201N008212200019N0112651N1+02201+01401999999ADDGA1021+010509999GF102991999999999999999999MA1102001999999MW1001REMMET045FMEP 030600Z 12016KT 9999 FEW035 22/14 Q1020;EQDQ01+000000PRSWM2
0139619840999992000070307004-21320+055480FM-15+0053FMEP V0201301N007712200019N0112651N1+02401+01401999999ADDGA1021+010509999GF102991999999999999999999MA1102001999999MW1001REMMET045FMEP 030700Z 13015KT 9999 FEW035 24/14 Q1020;EQDQ01+000000PRSWM2
0142619840999992000070308004-21320+055480FM-15+0053FMEP V0201301N008212200019N0112651N1+02401+01401999999ADDGA1021+009309029GF102991999999999999999999MA1101901999999MW1001REMMET048FMEP 030800Z 13016KT 9999 FEW031TCU 24/14 Q1019;EQDQ01+000000PRSWM2
0165619840999992000070309004-21320+055480FM-15+0053FMEP V0201401N009310480019N0112651N1+02401+01501999999ADDGA1021+009309029GA2071+048009999GF107991999999999999999999MA1101901999999MW1001REMMET055FMEP 030900Z 14018KT 9999 FEW031TCU BKN160 24/15 Q1019;EQDQ01+000000PRSWM2
0142619840999992000070310004-21320+055480FM-15+0053FMEP V0201401N009812200019N0112651N1+02501+01701999999ADDGA1021+009309029GF102991999999999999999999MA1101901999999MW1001REMMET048FMEP 031000Z 14019KT 9999 FEW031TCU 25/17 Q1019;EQDQ01+000000PRSWM2
0139619840999992000070312004-21320+055480FM-15+0053FMEP V0201301N008712200019N0112651N1+02301+01501999999ADDGA1021+012009999GF102991999999999999999999MA1101901999999MW1001REMMET045FMEP 031200Z 13017KT 9999 FEW040 23/15 Q1019;EQDQ01+000000PRSWM2
0139619840999992000070313004-21320+055480FM-15+0053FMEP V0201201N007712200019N0112651N1+02201+01501999999ADDGA1021+012009999GF102991999999999999999999MA1101901999999MW1001REMMET045FMEP 031300Z 12015KT 9999 FEW040 22/15 Q1019;EQDQ01+000000PRSWM2
0139619840999992000070403004-21320+055480FM-15+0053FMEP V0201001N002612200019N0112651N1+01601+01001999999ADDGA1021+007809999GF102991999999999999999999MA1101901999999MW1001REMMET045FMEP 040300Z 10005KT 9999 FEW026 16/10 Q1019;EQDQ01+000000PRSWM2
0139619840999992000070405004-21320+055480FM-15+0053FMEP V0200401N001512200019N0112651N1+02201+01101999999ADDGA1021+006009999GF102991999999999999999999MA1102001999999MW1001REMMET045FMEP 040500Z 04003KT 9999 FEW020 22/11 Q1020;EQDQ01+000000PRSWM2
0139619840999992000070406004-21320+055480FM-15+0053FMEP V0201201N000512200019N0112651N1+02501+01201999999ADDGA1021+004809999GF102991999999999999999999MA1102001999999MW1001REMMET045FMEP 040600Z 12001KT 9999 FEW016 25/12 Q1020;EQDQ01+000000PRSWM2
0139619840999992000070407004-21320+055480FM-15+0053FMEP V0203501N001512200019N0112651N1+02601+01101999999ADDGA1021+009009999GF102991999999999999999999MA1101901999999MW1001REMMET045FMEP 040700Z 35003KT 9999 FEW030 26/11 Q1019;EQDQ01+000000PRSWM2
0147619840999992000070408004-21320+055480FM-15+0053FMEP V0202801N003112200019N0112651N1+02601+01401999999ADDGA1021+009009999GF102991999999999999999999MA1101901999999MW1001REMMET053FMEP 040800Z 28006KT 250V320 9999 FEW030 26/14 Q1019;EQDQ01+000000PRSWM2
0147619840999992000070409004-21320+055480FM-15+0053FMEP V0202901N004612200019N0112651N1+02601+01601999999ADDGA1021+007809999GF102991999999999999999999MA1101801999999MW1001REMMET053FMEP 040900Z 29009KT 260V330 9999 FEW026 26/16 Q1018;EQDQ01+000000PRSWM2
0139619840999992000070411004-21320+055480FM-15+0053FMEP V0202901N004612200019N0112651N1+02501+01601999999ADDGA1021+007809999GF102991999999999999999999MA1101801999999MW1001REMMET045FMEP 041100Z 29009KT 9999 FEW026 25/16 Q1018;EQDQ01+000000PRSWM2
0139619840999992000070412004-21320+055480FM-15+0053FMEP V0202901N004112200019N0112651N1+02501+01601999999ADDGA1021+004809999GF102991999999999999999999MA1101801999999MW1001REMMET045FMEP 041200Z 29008KT 9999 FEW016 25/16 Q1018;EQDQ01+000000PRSWM2
0139619840999992000070413004-21320+055480FM-15+0053FMEP V0202701N002612200019N0112651N1+02401+01601999999ADDGA1021+015009999GF102991999999999999999999MA1101801999999MW1001REMMET045FMEP 041300Z 27005KT 9999 FEW056 24/16 Q1018;EQDQ01+000000PRSWM2
0170619840999992000070503004-21320+055480FM-15+0053FMEP V0200801N002612200019N0112651N1+02001+01401999999ADDGA1021+015009999GA2021+018009999GF104991999999999999999999MA1101901999999MW1001REMMET060FMEP 050300Z 08005KT 030V140 9999 FEW050 SCT066 20/14 Q1019;EQDQ01+000000PRSWM2
0162619840999992000070504004-21320+055480FM-15+0053FMEP V0200801N003112200019N0112651N1+02001+01501999999ADDGA1021+015009999GA2021+018009999GF104991999999999999999999MA1101901999999MW1001REMMET052FMEP 050400Z 08006KT 9999 FEW050 SCT066 20/15 Q1019;EQDQ01+000000PRSWM2
0162619840999992000070505004-21320+055480FM-15+0053FMEP V0201401N005110180019N0112651N1+02201+01701999999ADDGA1021+015009999GA2071+018009999GF107991999999999999999999MA1102001999999MW1001REMMET052FMEP 050500Z 14010KT 9999 FEW050 BKN066 22/17 Q1020;EQDQ01+000000PRSWM2
0170619840999992000070506004-21320+055480FM-15+0053FMEP V0200901N002110150019N0112651N1+02301+01501999999ADDGA1021+006309999GA2071+015009999GF107991999999999999999999MA1101901999999MW1001REMMET060FMEP 050600Z 09004KT 060V140 9999 FEW021 BKN050 23/15 Q1019;EQDQ01+000000PRSWM2
0162619840999992000070507004-21320+055480FM-15+0053FMEP V0201101N006210150019N0112651N1+02301+01601999999ADDGA1021+006309999GA2071+015009999GF107991999999999999999999MA1101901999999MW1001REMMET052FMEP 050700Z 11012KT 9999 FEW021 BKN050 23/16 Q1019;EQDQ01+000000PRSWM2
0162619840999992000070508004-21320+055480FM-15+0053FMEP V02099999999992200019N0112651N1+02601+01701999999ADDGA1021+006309999GA2021+015009999GF104991999999999999999999MA1101801999999MW1001REMMET052FMEP 050800Z VRB03KT 9999 FEW021 SCT050 26/17 Q1018;EQDQ01+000000PRSWM2
0170619840999992000070509004-21320+055480FM-15+0053FMEP V0202501N002612200019N0112651N1+02601+01701999999ADDGA1021+006309999GA2021+015009999GF104991999999999999999999MA1101801999999MW1001REMMET060FMEP 050900Z 25005KT 180V290 9999 FEW021 SCT050 26/17 Q1018;EQDQ01+000000PRSWM2
0162619840999992000070510004-21320+055480FM-15+0053FMEP V0202201N004112200019N0112651N1+02501+01701999999ADDGA1021+004509999GA2021+015009999GF104991999999999999999999MA1101801999999MW1001REMMET052FMEP 051000Z 22008KT 9999 FEW015 SCT050 25/17 Q1018;EQDQ01+000000PRSWM2
0162619840999992000070511004-21320+055480FM-15+0053FMEP V0202301N004112200019N0112651N1+02501+01701999999ADDGA1021+004509999GA2021+015009999GF104991999999999999999999MA1101801999999MW1001REMMET052FMEP 051100Z 23008KT 9999 FEW015 SCT050 25/17 Q1018;EQDQ01+000000PRSWM2
0162619840999992000070513004-21320+055480FM-15+0053FMEP V0201101N001510150019N0112651N1+02301+01701999999ADDGA1021+004509999GA2071+015009999GF107991999999999999999999MA1101801999999MW1001REMMET052FMEP 051300Z 11003KT 9999 FEW015 BKN050 23/17 Q1018;EQDQ01+000000PRSWM2
0139619840999992000070603004-21320+055480FM-15+0053FMEP V0200501N003112200019N0112651N1+01801+01301999999ADDGA1021+004509999GF102991999999999999999999MA1101801999999MW1001REMMET045FMEP 060300Z 05006KT 9999 FEW015 18/13 Q1018;EQDQ01+000000PRSWM2
0139619840999992000070604004-21320+055480FM-15+0053FMEP V0203601N003612200019N0112651N1+02001+01501999999ADDGA1021+004509999GF102991999999999999999999MA1101801999999MW1001REMMET045FMEP 060400Z 36007KT 9999 FEW015 20/15 Q1018;EQDQ01+000000PRSWM2
0139619840999992000070605004-21320+055480FM-15+0053FMEP V0201101N001012200019N0112651N1+02301+01501999999ADDGA1021+004509999GF102991999999999999999999MA1101901999999MW1001REMMET045FMEP 060500Z 11002KT 9999 FEW015 23/15 Q1019;EQDQ01+000000PRSWM2
0139619840999992000070606004-21320+055480FM-15+0053FMEP V0202101N001012200019N0112651N1+02401+01701999999ADDGA1021+004509999GF102991999999999999999999MA1101901999999MW1001REMMET045FMEP 060600Z 21002KT 9999 FEW015 24/17 Q1019;EQDQ01+000000PRSWM2
0147619840999992000070607004-21320+055480FM-15+0053FMEP V0201801N002112200019N0112651N1+02501+01701999999ADDGA1021+004509999GF102991999999999999999999MA1101901999999MW1001REMMET053FMEP 060700Z 18004KT 110V230 9999 FEW015 25/17 Q1019;EQDQ01+000000PRSWM2
0139619840999992000070608004-21320+055480FM-15+0053FMEP V0202201N003112200019N0112651N1+02601+01701999999ADDGA1021+004509999GF102991999999999999999999MA1101901999999MW1001REMMET045FMEP 060800Z 22006KT 9999 FEW015 26/17 Q1019;EQDQ01+000000PRSWM2
0139619840999992000070609004-21320+055480FM-15+0053FMEP V0202901N004612200019N0112651N1+02601+01601999999ADDGA1021+004509999GF102991999999999999999999MA1101801999999MW1001REMMET045FMEP 060900Z 29009KT 9999 FEW015 26/16 Q1018;EQDQ01+000000PRSWM2
0139619840999992000070610004-21320+055480FM-15+0053FMEP V0202701N004112200019N0112651N1+02601+01701999999ADDGA1021+004809999GF102991999999999999999999MA1101691999999MW1001REMMET045FMEP 061000Z 27008KT 9999 FEW016 26/17 Q1017;EQDQ01+000000PRSWM2
0147619840999992000070612004-21320+055480FM-15+0053FMEP V0202401N002112200019N0112651N1+02501+01801999999ADDGA1021+004809999GF102991999999999999999999MA1101691999999MW1001REMMET053FMEP 061200Z 24004KT 200V270 9999 FEW016 25/18 Q1017;EQDQ01+000000PRSWM2
0139619840999992000070613004-21320+055480FM-15+0053FMEP V0203101N001012200019N0112651N1+02501+01801999999ADDGA1021+004809999GF102991999999999999999999MA1101801999999MW1001REMMET045FMEP 061300Z 31002KT 9999 FEW016 25/18 Q1018;EQDQ01+000000PRSWM2
0139619840999992000070703004-21320+055480FM-15+0053FMEP V0200501N002612200019N0112651N1+01801+01501999999ADDGA1021+004809999GF102991999999999999999999MA1101801999999MW1001REMMET045FMEP 070300Z 05005KT 9999 FEW016 18/15 Q1018;EQDQ01+000000PRSWM2
0139619840999992000070704004-21320+055480FM-15+0053FMEP V0200901N001012200019N0112651N1+02001+01601999999ADDGA1021+004809999GF102991999999999999999999MA1101901999999MW1001REMMET045FMEP 070400Z 09002KT 9999 FEW016 20/16 Q1019;EQDQ01+000000PRSWM2
0139619840999992000070705004-21320+055480FM-15+0053FMEP V0203601N002112200019N0112651N1+02301+01701999999ADDGA1021+004809999GF102991999999999999999999MA1101901999999MW1001REMMET045FMEP 070500Z 36004KT 9999 FEW016 23/17 Q1019;EQDQ01+000000PRSWM2
0139619840999992000070706004-21320+055480FM-15+0053FMEP V02099999999992200019N0112651N1+02501+01601999999ADDGA1021+004809999GF102991999999999999999999MA1101901999999MW1001REMMET045FMEP 070600Z VRB03KT 9999 FEW016 25/16 Q1019;EQDQ01+000000PRSWM2
0147619840999992000070707004-21320+055480FM-15+0053FMEP V0202601N002612200019N0112651N1+02501+01701999999ADDGA1021+004509999GF102991999999999999999999MA1101901999999MW1001REMMET053FMEP 070700Z 26005KT 220V300 9999 FEW015 25/17 Q1019;EQDQ01+000000PRSWM2
0147619840999992000070708004-21320+055480FM-15+0053FMEP V0202901N002612200019N0112651N1+02701+01701999999ADDGA1021+004509999GF102991999999999999999999MA1101901999999MW1001REMMET053FMEP 070800Z 29005KT 220V330 9999 FEW015 27/17 Q1019;EQDQ01+000000PRSWM2
0147619840999992000070710004-21320+055480FM-15+0053FMEP V0201401N007712200019N0112651N1+02601+01801999999ADDGA1021+004509999GF102991999999999999999999MA1101801999999MW1001REMMET053FMEP 071000Z 14015KT 110V190 9999 FEW015 26/18 Q1018;EQDQ01+000000PRSWM2
0147619840999992000070711004-21320+055480FM-15+0053FMEP V0201301N007212200019N0112651N1+02601+01801999999ADDGA1021+004509999GF102991999999999999999999MA1101691999999MW1001REMMET053FMEP 071100Z 13014KT 070V160 9999 FEW015 26/18 Q1017;EQDQ01+000000PRSWM2
0139619840999992000070712004-21320+055480FM-15+0053FMEP V0201301N007212200019N0112651N1+02501+01801999999ADDGA1021+004509999GF102991999999999999999999MA1101801999999MW1001REMMET045FMEP 071200Z 13014KT 9999 FEW015 25/18 Q1018;EQDQ01+000000PRSWM2
0139619840999992000070713004-21320+055480FM-15+0053FMEP V0201201N008212200019N0112651N1+02301+01701999999ADDGA1021+004509999GF102991999999999999999999MA1101801999999MW1001REMMET045FMEP 071300Z 12016KT 9999 FEW015 23/17 Q1018;EQDQ01+000000PRSWM2
0147619840999992000070803004-21320+055480FM-15+0053FMEP V0203601N003112200019N0112651N1+01801+01401999999ADDGA1021+010509999GF102991999999999999999999MA1102001999999MW1001REMMET053FMEP 080300Z 36006KT 310V040 9999 FEW035 18/14 Q1020;EQDQ01+000000PRSWM2
0139619840999992000070804004-21320+055480FM-15+0053FMEP V0200101N001512200019N0112651N1+02001+01401999999ADDGA1021+012009999GF102991999999999999999999MA1102101999999MW1001REMMET045FMEP 080400Z 01003KT 9999 FEW040 20/14 Q1021;EQDQ01+000000PRSWM2
0139619840999992000070805004-21320+055480FM-15+0053FMEP V0200101N001512200019N0112651N1+02301+01501999999ADDGA1021+012009999GF102991999999999999999999MA1102101999999MW1001REMMET045FMEP 080500Z 01003KT 9999 FEW040 23/15 Q1021;EQDQ01+000000PRSWM2
0147619840999992000070806004-21320+055480FM-15+0053FMEP V0200701N002112200019N0112651N1+02501+01601999999ADDGA1021+012009999GF102991999999999999999999MA1102101999999MW1001REMMET053FMEP 080600Z 07004KT 360V140 9999 FEW040 25/16 Q1021;EQDQ01+000000PRSWM2
0139619840999992000070808004-21320+055480FM-15+0053FMEP V0201301N009312200019N0112651N1+02501+01901999999ADDGA1021+009309999GF102991999999999999999999MA1102101999999MW1001REMMET045FMEP 080800Z 13018KT 9999 FEW031 25/19 Q1021;EQDQ01+000000PRSWM2
0139619840999992000070810004-21320+055480FM-15+0053FMEP V0201301N013412200019N0112651N1+02401+01701999999ADDGA1021+007809999GF104991999999999999999999MA1102001999999MW1001REMMET045FMEP 081000Z 13026KT 9999 SCT026 24/17 Q1020;EQDQ01+000000PRSWM2
0173619840999992000070811004-21320+055480FM-15+0053FMEP V0201301N014912200019N0112651N1+02301+01801999999ADDGA1021+007809999GA2021+018009999GF104991999999999999999999MA1101901999999MW1001OC102111REMMET055FMEP 081100Z 13029G41KT 9999 FEW026 SCT063 23/18 Q1019;EQDQ01+000000PRSWM2
0139619840999992000070812004-21320+055480FM-15+0053FMEP V0201301N013912200019N0112651N1+02401+01901999999ADDGA1021+006009999GF102991999999999999999999MA1102001999999MW1001REMMET045FMEP 081200Z 13027KT 9999 FEW020 24/19 Q1020;EQDQ01+000000PRSWM2
0150619840999992000070813004-21320+055480FM-15+0053FMEP V0201201N012912200019N0112651N1+02301+01801999999ADDGA1021+004809999GF102991999999999999999999MA1102001999999MW1001OC101801REMMET048FMEP 081300Z 12025G35KT 9999 FEW016 23/18 Q1020;EQDQ01+000000PRSWM2
0162619840999992000070904004-21320+055480FM-15+0053FMEP V0201201N012312200019N0090001N1+02101+01701999999ADDGA1021+004809099GF104991999999999999999999MA1102401999999MW1161REMMET052FMEP 090400Z 12024KT 9000 VCSH SCT016CB 21/17 Q1024;EQDQ01+000003PRSWM1Q02    003PRSWM1
0163619840999992000070905004-21320+055480FM-15+0053FMEP V0201101N011312200019N0090001N1+02201+01501999999ADDGA1021+003909029GF104991999999999999999999MA1102511999999MW1161REMMET053FMEP 090500Z 11022KT 9000 VCSH SCT013TCU 22/15 Q1025;EQDQ01+000003PRSWM1Q02    003PRSWM1
0160619840999992000070906004-21320+055480FM-15+0053FMEP V0201201N013912200019N0112651N1+02301+01401999999ADDGA1021+003009999GF102991999999999999999999MA1102401999999MW1161REMMET050FMEP 090600Z 12027KT 9999 VCSH FEW010 23/14 Q1024;EQDQ01+000003PRSWM1Q02    003PRSWM1
0150619840999992000070907004-21320+055480FM-15+0053FMEP V0201201N013912200019N0112651N1+02401+01501999999ADDGA1021+003009999GF102991999999999999999999MA1102401999999MW1001OC101951REMMET048FMEP 090700Z 12027G38KT 9999 FEW010 24/15 Q1024;EQDQ01+000000PRSWM2
0150619840999992000070908004-21320+055480FM-15+0053FMEP V0201301N014412200019N0112651N1+02501+01401999999ADDGA1021+006009999GF102991999999999999999999MA1102301999999MW1001OC102011REMMET048FMEP 090800Z 13028G39KT 9999 FEW020 25/14 Q1023;EQDQ01+000000PRSWM2
0150619840999992000070909004-21320+055480FM-15+0053FMEP V0201301N016512200019N0112651N1+02401+01801999999ADDGA1021+018009999GF102991999999999999999999MA1102201999999MW1001OC102261REMMET048FMEP 090900Z 13032G44KT 9999 FEW063 24/18 Q1022;EQDQ01+000000PRSWM2
0150619840999992000070910004-21320+055480FM-15+0053FMEP V0201301N013912200019N0112651N1+02401+01601999999ADDGA1021+003009999GF102991999999999999999999MA1102201999999MW1001OC101901REMMET048FMEP 091000Z 13027G37KT 9999 FEW010 24/16 Q1022;EQDQ01+000000PRSWM2
0142619840999992000070911004-21320+055480FM-15+0053FMEP V0201201N013412200019N0112651N1+02401+01601999999ADDGA1021+003909029GF102991999999999999999999MA1102101999999MW1001REMMET048FMEP 091100Z 12026KT 9999 FEW013TCU 24/16 Q1021;EQDQ01+000000PRSWM2
0150619840999992000070912004-21320+055480FM-15+0053FMEP V0201201N014412200019N0112651N1+02301+01601999999ADDGA1021+007809999GF102991999999999999999999MA1102201999999MW1001OC101951REMMET048FMEP 091200Z 12028G38KT 9999 FEW026 23/16 Q1022;EQDQ01+000000PRSWM2
0153619840999992000070913004-21320+055480FM-15+0053FMEP V0201201N012912200019N0112651N1+02201+01601999999ADDGA1021+006009029GF102991999999999999999999MA1102201999999MW1001OC101801REMMET051FMEP 091300Z 12025G35KT 9999 FEW020TCU 22/16 Q1022;EQDQ01+000000PRSWM2
0139619840999992000071003004-21320+055480FM-15+0053FMEP V0201101N009312200019N0112651N1+01901+01401999999ADDGA1021+004809999GF102991999999999999999999MA1102301999999MW1001REMMET045FMEP 100300Z 11018KT 9999 FEW016 19/14 Q1023;EQDQ01+000000PRSWM2
0150619840999992000071004004-21320+055480FM-15+0053FMEP V0201001N008712200019N0112651N1+02001+01401999999ADDGA1021+004809999GF102991999999999999999999MA1102401999999MW1001OC101541REMMET048FMEP 100400Z 10017G30KT 9999 FEW016 20/14 Q1024;EQDQ01+000000PRSWM2
0150619840999992000071006004-21320+055480FM-15+0053FMEP V0201201N011812200019N0112651N1+02201+01401999999ADDGA1021+004809999GF102991999999999999999999MA1102301999999MW1001OC101901REMMET048FMEP 100600Z 12023G37KT 9999 FEW016 22/14 Q1023;EQDQ01+000000PRSWM2
0150619840999992000071007004-21320+055480FM-15+0053FMEP V0201301N013912200019N0112651N1+02301+01601999999ADDGA1021+004809999GF102991999999999999999999MA1102301999999MW1001OC102061REMMET048FMEP 100700Z 13027G40KT 9999 FEW016 23/16 Q1023;EQDQ01+000000PRSWM2
0150619840999992000071008004-21320+055480FM-15+0053FMEP V0201201N015412200019N0112651N1+02201+01501999999ADDGA1021+004809999GF102991999999999999999999MA1102301999999MW1001OC102161REMMET048FMEP 100800Z 12030G42KT 9999 FEW016 22/15 Q1023;EQDQ01+000000PRSWM2
0173619840999992000071009004-21320+055480FM-15+0053FMEP V0201201N015412200019N0112651N1+02301+01401999999ADDGA1021+004809999GA2021+018009999GF104991999999999999999999MA1102201999999MW1001OC102161REMMET055FMEP 100900Z 12030G42KT 9999 FEW016 SCT060 23/14 Q1022;EQDQ01+000000PRSWM2
0162619840999992000071010004-21320+055480FM-15+0053FMEP V0201201N013912200019N0112651N1+02301+01201999999ADDGA1021+003909999GA2021+015009999GF104991999999999999999999MA1102101999999MW1001REMMET052FMEP 101000Z 12027KT 9999 FEW013 SCT056 23/12 Q1021;EQDQ01+000000PRSWM2
0139619840999992000071011004-21320+055480FM-15+0053FMEP V0201201N014412200019N0112651N1+02301+01401999999ADDGA1021+003009999GF102991999999999999999999MA1102101999999MW1001REMMET045FMEP 101100Z 12028KT 9999 FEW010 23/14 Q1021;EQDQ01+000000PRSWM2
0150619840999992000071012004-21320+055480FM-15+0053FMEP V0201301N014412200019N0112651N1+02301+01401999999ADDGA1021+003009999GF102991999999999999999999MA1102101999999MW1001OC101951REMMET048FMEP 101200Z 13028G38KT 9999 FEW010 23/14 Q1021;EQDQ01+000000PRSWM2
0150619840999992000071013004-21320+055480FM-15+0053FMEP V0201201N012912200019N0112651N1+02201+01701999999ADDGA1021+003909999GF102991999999999999999999MA1102201999999MW1001OC101851REMMET048FMEP 101300Z 12025G36KT 9999 FEW013 22/17 Q1022;EQDQ01+000000PRSWM2
0162619840999992000071103004-21320+055480FM-15+0053FMEP V0201201N009312200019N0112651N1+02001+01501999999ADDGA1021+004809999GA2021+015009999GF104991999999999999999999MA1102301999999MW1001REMMET052FMEP 110300Z 12018KT 9999 FEW016 SCT050 20/15 Q1023;EQDQ01+000000PRSWM2
0183619840999992000071104004-21320+055480FM-15+0053FMEP V0201101N004612200019N0112651N1+01901+01601999999ADDGA1021+004809999GA2021+015009999GF104991999999999999999999MA1102301999999MW1161REMMET057FMEP 110400Z 11009KT 9999 VCSH FEW016 SCT050 19/16 Q1023;EQDQ01+000003PRSWM1Q02    003PRSWM1
0183619840999992000071106004-21320+055480FM-15+0053FMEP V0201201N009812200019N0080001N1+02001+01601999999ADDGA1021+004809999GA2021+015009999GF104991999999999999999999MA1102401999999MW1161REMMET057FMEP 110600Z 12019KT 8000 VCSH FEW016 SCT050 20/16 Q1024;EQDQ01+000003PRSWM1Q02    003PRSWM1
0183619840999992000071107004-21320+055480FM-15+0053FMEP V0201101N011312200019N0080001N1+02201+01301999999ADDGA1021+004809999GA2021+015009999GF104991999999999999999999MA1102301999999MW1161REMMET057FMEP 110700Z 11022KT 8000 VCSH FEW016 SCT050 22/13 Q1023;EQDQ01+000003PRSWM1Q02    003PRSWM1
0181619840999992000071108004-21320+055480FM-15+0053FMEP V0201101N008210120019N0080001N1+02001+01701999999ADDGA1021+004809999GA2071+012009999GF107991999999999999999999MA1102401999999MW1631REMMET055FMEP 110800Z 11016KT 8000 RA FEW016 BKN040 20/17 Q1024;EQDQ01+000003PRSWM1Q02    003PRSWM1
0181619840999992000071109004-21320+055480FM-15+0053FMEP V0201201N009810120019N0080001N1+02101+01701999999ADDGA1021+004809999GA2071+012009999GF107991999999999999999999MA1102201999999MW1631REMMET055FMEP 110900Z 12019KT 8000 RA FEW016 BKN040 21/17 Q1022;EQDQ01+000003PRSWM1Q02    003PRSWM1
0162619840999992000071111004-21320+055480FM-15+0053FMEP V0201201N010812200019N0080001N1+02101+01501999999ADDGA1021+004509999GA2021+012009999GF104991999999999999999999MA1102201999999MW1001REMMET052FMEP 111100Z 12021KT 8000 FEW015 SCT040 21/15 Q1022;EQDQ01+000000PRSWM2
0193619840999992000071112004-21320+055480FM-15+0053FMEP V0201201N011810120019N0060001N1+02001+01701999999ADDGA1021+004509999GA2071+012009999GF107991999999999999999999MA1102201999999MW1611OC101701REMMET059FMEP 111200Z 12023G33KT 6000 -RA FEW015 BKN040 20/17 Q1022;EQDQ01+000003PRSWM1Q02    003PRSWM1
0194619840999992000071113004-21320+055480FM-15+0053FMEP V0201201N012310120019N0080001N1+02001+01601999999ADDGA1021+004509999GA2071+012009999GF107991999999999999999999MA1102201999999MW1161OC101851REMMET060FMEP 111300Z 12024G36KT 8000 VCSH FEW015 BKN040 20/16 Q1022;EQDQ01+000003PRSWM1Q02    003PRSWM1
0170619840999992000071204004-21320+055480FM-15+0053FMEP V0200901N004612200019N0112651N1+01901+01601999999ADDGA1021+003909999GA2021+018009999GF104991999999999999999999MA1102301999999MW1001REMMET060FMEP 120400Z 09009KT 050V120 9999 SCT013 SCT063 19/16 Q1023;EQDQ01+000000PRSWM2
0181619840999992000071205004-21320+055480FM-15+0053FMEP V0201101N006210180019N0060001N1+01901+01601999999ADDGA1021+000909999GA2071+018009999GF107991999999999999999999MA1102401999999MW1631REMMET055FMEP 120500Z 11012KT 6000 RA SCT003 BKN060 19/16 Q1024;EQDQ01+000003PRSWM1Q02    003PRSWM1
0186619840999992000071206004-21320+055480FM-15+0053FMEP V0201201N007210180019N0070001N1+02001+01801999999ADDGA1021+004809029GA2071+018009999GF107991999999999999999999MA1102401999999MW1161REMMET060FMEP 120600Z 12014KT 7000 VCSH SCT016TCU BKN063 20/18 Q1024;EQDQ01+000003PRSWM1Q02    003PRSWM1
0163619840999992000071207004-21320+055480FM-15+0053FMEP V0201301N009312200019N0112651N1+02101+01601999999ADDGA1021+001809029GF104991999999999999999999MA1102301999999MW1161REMMET053FMEP 120700Z 13018KT 9999 VCSH SCT006TCU 21/16 Q1023;EQDQ01+000003PRSWM1Q02    003PRSWM1
0150619840999992000071209004-21320+055480FM-15+0053FMEP V0201201N011812200019N0112651N1+02301+01601999999ADDGA1021+004809999GF104991999999999999999999MA1102101999999MW1001OC101701REMMET048FMEP 120900Z 12023G33KT 9999 SCT016 23/16 Q1021;EQDQ01+000000PRSWM2
0165619840999992000071210004-21320+055480FM-15+0053FMEP V0201201N011812200019N0112651N1+02301+01601999999ADDGA1021+003009029GA2021+018009999GF104991999999999999999999MA1102101999999MW1001REMMET055FMEP 121000Z 12023KT 9999 SCT010TCU SCT060 23/16 Q1021;EQDQ01+000000PRSWM2
0162619840999992000071211004-21320+055480FM-15+0053FMEP V0201201N012910180019N0112651N1+02201+01701999999ADDGA1021+003009999GA2071+018009999GF107991999999999999999999MA1102101999999MW1001REMMET052FMEP 121100Z 12025KT 9999 SCT010 BKN063 22/17 Q1021;EQDQ01+000000PRSWM2
0162619840999992000071212004-21320+055480FM-15+0053FMEP V0201201N010810150019N0112651N1+02201+01701999999ADDGA1021+004809999GA2071+015009999GF107991999999999999999999MA1102101999999MW1001REMMET052FMEP 121200Z 12021KT 9999 SCT016 BKN056 22/17 Q1021;EQDQ01+000000PRSWM2
0162619840999992000071213004-21320+055480FM-15+0053FMEP V0201201N009810180019N0112651N1+02101+01601999999ADDGA1021+004809999GA2071+018009999GF107991999999999999999999MA1102201999999MW1001REMMET052FMEP 121300Z 12019KT 9999 FEW016 BKN066 21/16 Q1022;EQDQ01+000000PRSWM2
0147619840999992000071303004-21320+055480FM-15+0053FMEP V0201301N006212200019N0112651N1+02001+01601999999ADDGA1021+004809999GF102991999999999999999999MA1102201999999MW1001REMMET053FMEP 130300Z 13012KT 090V160 9999 FEW016 20/16 Q1022;EQDQ01+000000PRSWM2
0139619840999992000071304004-21320+055480FM-15+0053FMEP V0201001N004112200019N0112651N1+02001+01601999999ADDGA1021+003009999GF102991999999999999999999MA1102301999999MW1001REMMET045FMEP 130400Z 10008KT 9999 FEW010 20/16 Q1023;EQDQ01+000000PRSWM2
0160619840999992000071305004-21320+055480FM-15+0053FMEP V0201001N001512200019N0112651N1+02201+01501999999ADDGA1021+003909999GF102991999999999999999999MA1102301999999MW1161REMMET050FMEP 130500Z 10003KT 9999 VCSH FEW013 22/15 Q1023;EQDQ01+000003PRSWM1Q02    003PRSWM1
0139619840999992000071306004-21320+055480FM-15+0053FMEP V0201301N003612200019N0112651N1+02301+01601999999ADDGA1021+004809999GF102991999999999999999999MA1102301999999MW1001REMMET045FMEP 130600Z 13007KT 9999 FEW016 23/16 Q1023;EQDQ01+000000PRSWM2
0139619840999992000071307004-21320+055480FM-15+0053FMEP V0201301N008212200019N0112651N1+02401+01801999999ADDGA1021+004809999GF102991999999999999999999MA1102201999999MW1001REMMET045FMEP 130700Z 13016KT 9999 FEW016 24/18 Q1022;EQDQ01+000000PRSWM2
0162619840999992000071308004-21320+055480FM-15+0053FMEP V0201301N009812200019N0112651N1+02301+01601999999ADDGA1021+003009999GA2021+018009999GF104991999999999999999999MA1102201999999MW1001REMMET052FMEP 130800Z 13019KT 9999 FEW010 SCT060 23/16 Q1022;EQDQ01+000000PRSWM2
0162619840999992000071309004-21320+055480FM-15+0053FMEP V0201301N008212200019N0112651N1+02401+01701999999ADDGA1021+003009999GA2021+018009999GF104991999999999999999999MA1102101999999MW1001REMMET052FMEP 130900Z 13016KT 9999 FEW010 SCT060 24/17 Q1021;EQDQ01+000000PRSWM2
0162619840999992000071310004-21320+055480FM-15+0053FMEP V0201301N008710180019N0112651N1+02301+01701999999ADDGA1021+003909999GA2071+018009999GF107991999999999999999999MA1102101999999MW1001REMMET052FMEP 131000Z 13017KT 9999 FEW013 BKN060 23/17 Q1021;EQDQ01+000000PRSWM2
0162619840999992000071311004-21320+055480FM-15+0053FMEP V0201301N010810180019N0112651N1+02301+01701999999ADDGA1021+003009999GA2071+018009999GF107991999999999999999999MA1102101999999MW1001REMMET052FMEP 131100Z 13021KT 9999 FEW010 BKN060 23/17 Q1021;EQDQ01+000000PRSWM2
0162619840999992000071312004-21320+055480FM-15+0053FMEP V0201301N010310150019N0112651N1+02201+01701999999ADDGA1021+003009999GA2071+015009999GF107991999999999999999999MA1102101999999MW1001REMMET052FMEP 131200Z 13020KT 9999 SCT010 BKN053 22/17 Q1021;EQDQ01+000000PRSWM2
0173619840999992000071313004-21320+055480FM-15+0053FMEP V0201201N009812200019N0112651N1+02201+01601999999ADDGA1021+003009999GA2021+018009999GF104991999999999999999999MA1102101999999MW1001OC101491REMMET055FMEP 131300Z 12019G29KT 9999 FEW010 SCT060 22/16 Q1021;EQDQ01+000000PRSWM2
0139619840999992000071403004-21320+055480FM-15+0053FMEP V0200401N003112200019N0112651N1+01701+01301999999ADDGA1021+003009999GF102991999999999999999999MA1102201999999MW1001REMMET045FMEP 140300Z 04006KT 9999 FEW010 17/13 Q1022;EQDQ01+000000PRSWM2
0139619840999992000071404004-21320+055480FM-15+0053FMEP V0200401N003112200019N0112651N1+01901+01301999999ADDGA1021+003909999GF102991999999999999999999MA1102201999999MW1001REMMET045FMEP 140400Z 04006KT 9999 FEW013 19/13 Q1022;EQDQ01+000000PRSWM2
0139619840999992000071405004-21320+055480FM-15+0053FMEP V0200301N000512200019N0112651N1+02201+01401999999ADDGA1021+003009999GF102991999999999999999999MA1102201999999MW1001REMMET045FMEP 140500Z 03001KT 9999 FEW010 22/14 Q1022;EQDQ01+000000PRSWM2
0139619840999992000071406004-21320+055480FM-15+0053FMEP V0203001N001012200019N0112651N1+02401+01401999999ADDGA1021+003909999GF102991999999999999999999MA1102201999999MW1001REMMET045FMEP 140600Z 30002KT 9999 FEW013 24/14 Q1022;EQDQ01+000000PRSWM2
0139619840999992000071407004-21320+055480FM-15+0053FMEP V0202301N001512200019N0112651N1+02401+01501999999ADDGA1021+004809999GF102991999999999999999999MA1102201999999MW1001REMMET045FMEP 140700Z 23003KT 9999 FEW016 24/15 Q1022;EQDQ01+000000PRSWM2
0139619840999992000071409004-21320+055480FM-15+0053FMEP V0202701N004612200019N0112651N1+02501+01701999999ADDGA1021+006009999GF102991999999999999999999MA1102001999999MW1001REMMET045FMEP 140900Z 27009KT 9999 FEW020 25/17 Q1020;EQDQ01+000000PRSWM2
0139619840999992000071410004-21320+055480FM-15+0053FMEP V0201301N007212200019N0112651N1+02401+01801999999ADDGA1021+009909999GF102991999999999999999999MA1102001999999MW1001REMMET045FMEP 141000Z 13014KT 9999 FEW033 24/18 Q1020;EQDQ01+000000PRSWM2
0162619840999992000071411004-21320+055480FM-15+0053FMEP V0201301N007712200019N0112651N1+02401+01801999999ADDGA1021+009909999GA2021+015009999GF104991999999999999999999MA1101901999999MW1001REMMET052FMEP 141100Z 13015KT 9999 FEW033 SCT056 24/18 Q1019;EQDQ01+000000PRSWM2
0162619840999992000071413004-21320+055480FM-15+0053FMEP V0201301N007212200019N0112651N1+02201+01801999999ADDGA1021+007809999GA2021+018009999GF104991999999999999999999MA1101901999999MW1001REMMET052FMEP 141300Z 13014KT 9999 FEW026 SCT063 22/18 Q1019;EQDQ01+000000PRSWM2
0139619840999992000071503004-21320+055480FM-15+0053FMEP V0200401N003612200019N0112651N1+01801+01101999999ADDGA1021+004809999GF102991999999999999999999MA1102001999999MW1001REMMET045FMEP 150300Z 04007KT 9999 FEW016 18/11 Q1020;EQDQ01+000000PRSWM2
0139619840999992000071504004-21320+055480FM-15+0053FMEP V0200401N003112200019N0112651N1+01901+01201999999ADDGA1021+004809999GF102991999999999999999999MA1102001999999MW1001REMMET045FMEP 150400Z 04006KT 9999 FEW016 19/12 Q1020;EQDQ01+000000PRSWM2
0139619840999992000071505004-21320+055480FM-15+0053FMEP V0200501N001512200019N0112651N1+02301+01301999999ADDGA1021+004809999GF102991999999999999999999MA1102101999999MW1001REMMET045FMEP 150500Z 05003KT 9999 FEW016 23/13 Q1021;EQDQ01+000000PRSWM2
0147619840999992000071506004-21320+055480FM-15+0053FMEP V0201601N002112200019N0112651N1+02401+01401999999ADDGA1021+004809999GF102991999999999999999999MA1102101999999MW1001REMMET053FMEP 150600Z 16004KT 090V210 9999 FEW016 24/14 Q1021;EQDQ01+000000PRSWM2
0139619840999992000071507004-21320+055480FM-15+0053FMEP V0201501N004612200019N0112651N1+02501+01701999999ADDGA1021+004809999GF102991999999999999999999MA1102101999999MW1001REMMET045FMEP 150700Z 15009KT 9999 FEW016 25/17 Q1021;EQDQ01+000000PRSWM2
0139619840999992000071508004-21320+055480FM-15+0053FMEP V0201401N005112200019N0112651N1+02501+01601999999ADDGA1021+004809999GF102991999999999999999999MA1102001999999MW1001REMMET045FMEP 150800Z 14010KT 9999 FEW016 25/16 Q1020;EQDQ01+000000PRSWM2
0139619840999992000071509004-21320+055480FM-15+0053FMEP V0201401N005112200019N0112651N1+02501+01701999999ADDGA1021+004809999GF102991999999999999999999MA1101901999999MW1001REMMET045FMEP 150900Z 14010KT 9999 FEW016 25/17 Q1019;EQDQ01+000000PRSWM2
0139619840999992000071510004-21320+055480FM-15+0053FMEP V0201401N005112200019N0112651N1+02501+01701999999ADDGA1021+004509999GF102991999999999999999999MA1101901999999MW1001REMMET045FMEP 151000Z 14010KT 9999 FEW015 25/17 Q1019;EQDQ01+000000PRSWM2
0170619840999992000071511004-21320+055480FM-15+0053FMEP V0201401N004612200019N0112651N1+02501+01601999999ADDGA1021+004509999GA2021+018009999GF104991999999999999999999MA1101801999999MW1001REMMET060FMEP 151100Z 14009KT 090V170 9999 FEW015 SCT066 25/16 Q1018;EQDQ01+000000PRSWM2
0162619840999992000071512004-21320+055480FM-15+0053FMEP V0201301N004112200019N0112651N1+02401+01701999999ADDGA1021+004509999GA2021+018009999GF104991999999999999999999MA1101801999999MW1001REMMET052FMEP 151200Z 13008KT 9999 FEW015 SCT060 24/17 Q1018;EQDQ01+000000PRSWM2
0162619840999992000071513004-21320+055480FM-15+0053FMEP V0201201N003612200019N0112651N1+02301+01801999999ADDGA1021+004509999GA2021+018009999GF104991999999999999999999MA1101901999999MW1001REMMET052FMEP 151300Z 12007KT 9999 FEW015 SCT066 23/18 Q1019;EQDQ01+000000PRSWM2
0139619840999992000071603004-21320+055480FM-15+0053FMEP V0200401N003612200019N0112651N1+01701+01201999999ADDGA1021+004509999GF102991999999999999999999MA1102001999999MW1001REMMET045FMEP 160300Z 04007KT 9999 FEW015 17/12 Q1020;EQDQ01+000000PRSWM2
0139619840999992000071604004-21320+055480FM-15+0053FMEP V0200501N003612200019N0112651N1+01901+01201999999ADDGA1021+004509999GF102991999999999999999999MA1102001999999MW1001REMMET045FMEP 160400Z 05007KT 9999 FEW015 19/12 Q1020;EQDQ01+000000PRSWM2
0139619840999992000071605004-21320+055480FM-15+0053FMEP V0200401N001512200019N0112651N1+02301+01401999999ADDGA1021+004509999GF102991999999999999999999MA1102101999999MW1001REMMET045FMEP 160500Z 04003KT 9999 FEW015 23/14 Q1021;EQDQ01+000000PRSWM2
0147619840999992000071606004-21320+055480FM-15+0053FMEP V0201601N002612200019N0112651N1+02401+01601999999ADDGA1021+004509999GF102991999999999999999999MA1102001999999MW1001REMMET053FMEP 160600Z 16005KT 130V210 9999 FEW015 24/16 Q1020;EQDQ01+000000PRSWM2
0139619840999992000071607004-21320+055480FM-15+0053FMEP V0201401N005712200019N0112651N1+02501+01701999999ADDGA1021+004509999GF102991999999999999999999MA1102001999999MW1001REMMET045FMEP 160700Z 14011KT 9999 FEW015 25/17 Q1020;EQDQ01+000000PRSWM2
0147619840999992000071608004-21320+055480FM-15+0053FMEP V0202801N003112200019N0112651N1+02601+01701999999ADDGA1021+003009999GF102991999999999999999999MA1102001999999MW1001REMMET053FMEP 160800Z 28006KT 230V320 9999 FEW010 26/17 Q1020;EQDQ01+000000PRSWM2
0170619840999992000071610004-21320+055480FM-15+0053FMEP V0201501N005112200019N0112651N1+02501+01701999999ADDGA1021+004509999GA2021+018009999GF104991999999999999999999MA1101901999999MW1001REMMET060FMEP 161000Z 15010KT 110V200 9999 FEW015 SCT060 25/17 Q1019;EQDQ01+000000PRSWM2
0170619840999992000071611004-21320+055480FM-15+0053FMEP V0201501N004612200019N0112651N1+02401+01701999999ADDGA1021+004509999GA2021+018009999GF104991999999999999999999MA1101901999999MW1001REMMET060FMEP 161100Z 15009KT 100V180 9999 FEW015 SCT060 24/17 Q1019;EQDQ01+000000PRSWM2
0162619840999992000071612004-21320+055480FM-15+0053FMEP V0201301N005112200019N0112651N1+02301+01801999999ADDGA1021+004509999GA2021+018009999GF104991999999999999999999MA1101901999999MW1001REMMET052FMEP 161200Z 13010KT 9999 FEW015 SCT060 23/18 Q1019;EQDQ01+000000PRSWM2
0162619840999992000071613004-21320+055480FM-15+0053FMEP V0201301N006212200019N0112651N1+02301+01801999999ADDGA1021+004509999GA2021+018009999GF104991999999999999999999MA1102001999999MW1001REMMET052FMEP 161300Z 13012KT 9999 FEW015 SCT060 23/18 Q1020;EQDQ01+000000PRSWM2
0139619840999992000071703004-21320+055480FM-15+0053FMEP V0200401N004112200019N0112651N1+01701+01201999999ADDGA1021+010809999GF102991999999999999999999MA1101901999999MW1001REMMET045FMEP 170300Z 04008KT 9999 FEW036 17/12 Q1019;EQDQ01+000000PRSWM2
0139619840999992000071704004-21320+055480FM-15+0053FMEP V0200401N003112200019N0112651N1+01901+01301999999ADDGA1021+012009999GF102991999999999999999999MA1102001999999MW1001REMMET045FMEP 170400Z 04006KT 9999 FEW040 19/13 Q1020;EQDQ01+000000PRSWM2
0139619840999992000071705004-21320+055480FM-15+0053FMEP V0203401N001512200019N0112651N1+02301+01501999999ADDGA1021+012009999GF102991999999999999999999MA1102001999999MW1001REMMET045FMEP 170500Z 34003KT 9999 FEW040 23/15 Q1020;EQDQ01+000000PRSWM2
0147619840999992000071706004-21320+055480FM-15+0053FMEP V0202401N002612200019N0112651N1+02401+01801999999ADDGA1021+009309999GF102991999999999999999999MA1102001999999MW1001REMMET053FMEP 170600Z 24005KT 210V280 9999 FEW031 24/18 Q1020;EQDQ01+000000PRSWM2
0139619840999992000071707004-21320+055480FM-15+0053FMEP V0202801N006712200019N0112651N1+02601+01801999999ADDGA1021+009009999GF102991999999999999999999MA1102001999999MW1001REMMET045FMEP 170700Z 28013KT 9999 FEW030 26/18 Q1020;EQDQ01+000000PRSWM2
0139619840999992000071708004-21320+055480FM-15+0053FMEP V0202901N009312200019N0112651N1+02501+01801999999ADDGA1021+008409999GF102991999999999999999999MA1101901999999MW1001REMMET045FMEP 170800Z 29018KT 9999 FEW028 25/18 Q1019;EQDQ01+000000PRSWM2
0142619840999992000071709004-21320+055480FM-15+0053FMEP V0202901N008712200019N0112651N1+02501+01801999999ADDGA1021+007809029GF102991999999999999999999MA1101901999999MW1001REMMET048FMEP 170900Z 29017KT 9999 FEW026TCU 25/18 Q1019;EQDQ01+000000PRSWM2
0162619840999992000071710004-21320+055480FM-15+0053FMEP V0202801N006212200019N0112651N1+02501+01801999999ADDGA1021+007809999GA2021+015009999GF104991999999999999999999MA1101901999999MW1001REMMET052FMEP 171000Z 28012KT 9999 FEW026 SCT053 25/18 Q1019;EQDQ01+000000PRSWM2
0162619840999992000071711004-21320+055480FM-15+0053FMEP V0202701N003610150019N0112651N1+02401+01801999999ADDGA1021+006009999GA2071+015009999GF107991999999999999999999MA1101901999999MW1001REMMET052FMEP 171100Z 27007KT 9999 SCT020 BKN050 24/18 Q1019;EQDQ01+000000PRSWM2
0139619840999992000071712004-21320+055480FM-15+0053FMEP V0202801N003112200019N0112651N1+02301+01701999999ADDGA1021+005409999GF102991999999999999999999MA1101901999999MW1001REMMET045FMEP 171200Z 28006KT 9999 FEW018 23/17 Q1019;EQDQ01+000000PRSWM2
0162619840999992000071713004-21320+055480FM-15+0053FMEP V0202801N002612200019N0112651N1+02301+01701999999ADDGA1021+004809999GA2021+018009999GF104991999999999999999999MA1101901999999MW1001REMMET052FMEP 171300Z 28005KT 9999 SCT016 SCT060 23/17 Q1019;EQDQ01+000000PRSWM2
0139619840999992000071803004-21320+055480FM-15+0053FMEP V0200701N004112200019N0112651N1+01801+01001999999ADDGA1021+006309999GF102991999999999999999999MA1101901999999MW1001REMMET045FMEP 180300Z 07008KT 9999 FEW021 18/10 Q1019;EQDQ01+000000PRSWM2
0139619840999992000071805004-21320+055480FM-15+0053FMEP V0200701N002112200019N0112651N1+02301+01301999999ADDGA1021+006309999GF102991999999999999999999MA1102001999999MW1001REMMET045FMEP 180500Z 07004KT 9999 FEW021 23/13 Q1020;EQDQ01+000000PRSWM2
0139619840999992000071806004-21320+055480FM-15+0053FMEP V0201301N004612200019N0112651N1+02401+01701999999ADDGA1021+006309999GF102991999999999999999999MA1102001999999MW1001REMMET045FMEP 180600Z 13009KT 9999 FEW021 24/17 Q1020;EQDQ01+000000PRSWM2
0142619840999992000071807004-21320+055480FM-15+0053FMEP V0201401N006212200019N0112651N1+02401+01801999999ADDGA1021+006309029GF102991999999999999999999MA1102001999999MW1001REMMET048FMEP 180700Z 14012KT 9999 FEW021TCU 24/18 Q1020;EQDQ01+000000PRSWM2
0142619840999992000071808004-21320+055480FM-15+0053FMEP V0201401N005712200019N0112651N1+02501+01901999999ADDGA1021+004809029GF102991999999999999999999MA1101901999999MW1001REMMET048FMEP 180800Z 14011KT 9999 FEW016TCU 25/19 Q1019;EQDQ01+000000PRSWM2
0142619840999992000071809004-21320+055480FM-15+0053FMEP V0201401N005112200019N0112651N1+02501+01901999999ADDGA1021+004809029GF102991999999999999999999MA1101901999999MW1001REMMET048FMEP 180900Z 14010KT 9999 FEW016TCU 25/19 Q1019;EQDQ01+000000PRSWM2
0142619840999992000071810004-21320+055480FM-15+0053FMEP V0201401N007212200019N0112651N1+02501+01901999999ADDGA1021+004809029GF102991999999999999999999MA1101801999999MW1001REMMET048FMEP 181000Z 14014KT 9999 FEW016TCU 25/19 Q1018;EQDQ01+000000PRSWM2
0142619840999992000071811004-21320+055480FM-15+0053FMEP V0201301N006212200019N0112651N1+02401+01901999999ADDGA1021+004509029GF102991999999999999999999MA1101801999999MW1001REMMET048FMEP 181100Z 13012KT 9999 FEW015TCU 24/19 Q1018;EQDQ01+000000PRSWM2
0142619840999992000071812004-21320+055480FM-15+0053FMEP V0201401N006712200019N0112651N1+02401+01801999999ADDGA1021+004509029GF102991999999999999999999MA1101801999999MW1001REMMET048FMEP 181200Z 14013KT 9999 FEW015TCU 24/18 Q1018;EQDQ01+000000PRSWM2
0142619840999992000071813004-21320+055480FM-15+0053FMEP V0201301N006212200019N0112651N1+02301+01801999999ADDGA1021+004509029GF102991999999999999999999MA1101801999999MW1001REMMET048FMEP 181300Z 13012KT 9999 FEW015TCU 23/18 Q1018;EQDQ01+000000PRSWM2
0185619840999992000071904004-21320+055480FM-15+0053FMEP V0201001N004110150019N0090001N1+01901+01701999999ADDGA1021+006909029GA2071+015009999GF107991999999999999999999MA1102001999999MW1611REMMET059FMEP 190400Z 10008KT 9000 -RA SCT023TCU BKN053 19/17 Q1020;EQDQ01+000003PRSWM1Q02    003PRSWM1
0142619840999992000071906004-21320+055480FM-15+0053FMEP V0201201N005712200019N0112651N1+02301+01701999999ADDGA1021+007809029GF102991999999999999999999MA1102101999999MW1001REMMET048FMEP 190600Z 12011KT 9999 FEW026TCU 23/17 Q1021;EQDQ01+000000PRSWM2
0142619840999992000071907004-21320+055480FM-15+0053FMEP V0201301N008712200019N0112651N1+02301+01501999999ADDGA1021+009009029GF102991999999999999999999MA1102001999999MW1001REMMET048FMEP 190700Z 13017KT 9999 FEW030TCU 23/15 Q1020;EQDQ01+000000PRSWM2
0142619840999992000071908004-21320+055480FM-15+0053FMEP V0201301N008712200019N0112651N1+02401+01501999999ADDGA1021+010209029GF102991999999999999999999MA1101901999999MW1001REMMET048FMEP 190800Z 13017KT 9999 FEW034TCU 24/15 Q1019;EQDQ01+000000PRSWM2
0139619840999992000071909004-21320+055480FM-15+0053FMEP V0201401N009812200019N0112651N1+02401+01601999999ADDGA1021+010209999GF102991999999999999999999MA1101901999999MW1001REMMET045FMEP 190900Z 14019KT 9999 FEW034 24/16 Q1019;EQDQ01+000000PRSWM2
0139619840999992000071910004-21320+055480FM-15+0053FMEP V0201301N009312200019N0112651N1+02401+01501999999ADDGA1021+010809999GF102991999999999999999999MA1101801999999MW1001REMMET045FMEP 191000Z 13018KT 9999 FEW036 24/15 Q1018;EQDQ01+000000PRSWM2
0139619840999992000071911004-21320+055480FM-15+0053FMEP V0201301N009812200019N0112651N1+02401+01501999999ADDGA1021+004509999GF102991999999999999999999MA1101801999999MW1001REMMET045FMEP 191100Z 13019KT 9999 FEW015 24/15 Q1018;EQDQ01+000000PRSWM2
0139619840999992000071912004-21320+055480FM-15+0053FMEP V0201401N009312200019N0112651N1+02301+01601999999ADDGA1021+003009999GF102991999999999999999999MA1101801999999MW1001REMMET045FMEP 191200Z 14018KT 9999 FEW010 23/16 Q1018;EQDQ01+000000PRSWM2
0139619840999992000071913004-21320+055480FM-15+0053FMEP V0201301N009312200019N0112651N1+02201+01501999999ADDGA1021+003009999GF102991999999999999999999MA1101801999999MW1001REMMET045FMEP 191300Z 13018KT 9999 FEW010 22/15 Q1018;EQDQ01+000000PRSWM2
0139619840999992000072003004-21320+055480FM-15+0053FMEP V0200301N003612200019N0112651N1+01601+01101999999ADDGA1021+003009999GF102991999999999999999999MA1101901999999MW1001REMMET045FMEP 200300Z 03007KT 9999 FEW010 16/11 Q1019;EQDQ01+000000PRSWM2
0165619840999992000072004004-21320+055480FM-15+0053FMEP V0200401N003112200019N0112651N1+01901+01201999999ADDGA1021+003009999GA2021+003909029GF102991999999999999999999MA1101901999999MW1001REMMET055FMEP 200400Z 04006KT 9999 FEW010 FEW013TCU 19/12 Q1019;EQDQ01+000000PRSWM2
0147619840999992000072005004-21320+055480FM-15+0053FMEP V0200501N002112200019N0112651N1+02201+01201999999ADDGA1021+001809999GF102991999999999999999999MA1102001999999MW1001REMMET053FMEP 200500Z 05004KT 020V090 9999 FEW006 22/12 Q1020;EQDQ01+000000PRSWM2
0147619840999992000072006004-21320+055480FM-15+0053FMEP V0200301N002612200019N0112651N1+02401+01501999999ADDGA1021+003909999GF102991999999999999999999MA1102001999999MW1001REMMET053FMEP 200600Z 03005KT 360V080 9999 FEW013 24/15 Q1020;EQDQ01+000000PRSWM2
0139619840999992000072007004-21320+055480FM-15+0053FMEP V0201301N008712200019N0112651N1+02501+01901999999ADDGA1021+004809999GF102991999999999999999999MA1101901999999MW1001REMMET045FMEP 200700Z 13017KT 9999 FEW016 25/19 Q1019;EQDQ01+000000PRSWM2
0139619840999992000072008004-21320+055480FM-15+0053FMEP V0201301N009812200019N0112651N1+02501+01801999999ADDGA1021+006009999GF102991999999999999999999MA1101901999999MW1001REMMET045FMEP 200800Z 13019KT 9999 FEW020 25/18 Q1019;EQDQ01+000000PRSWM2
0139619840999992000072009004-21320+055480FM-15+0053FMEP V0201301N008712200019N0112651N1+02601+01801999999ADDGA1021+009909999GF102991999999999999999999MA1101801999999MW1001REMMET045FMEP 200900Z 13017KT 9999 FEW033 26/18 Q1018;EQDQ01+000000PRSWM2
0139619840999992000072010004-21320+055480FM-15+0053FMEP V0201301N008212200019N0112651N1+02601+01601999999ADDGA1021+012009999GF102991999999999999999999MA1101691999999MW1001REMMET045FMEP 201000Z 13016KT 9999 FEW040 26/16 Q1017;EQDQ01+000000PRSWM2
0147619840999992000072011004-21320+055480FM-15+0053FMEP V0202001N002612200019N0112651N1+02601+01601999999ADDGA1021+009909999GF102991999999999999999999MA1101691999999MW1001REMMET053FMEP 201100Z 20005KT 120V280 9999 FEW033 26/16 Q1017;EQDQ01+000000PRSWM2
0147619840999992000072012004-21320+055480FM-15+0053FMEP V02099999999992200019N0112651N1+02501+01801999999ADDGA1021+007809999GF102991999999999999999999MA1101691999999MW1001REMMET053FMEP 201200Z VRB07KT 260V220 9999 FEW026 25/18 Q1017;EQDQ01+000000PRSWM2
0139619840999992000072013004-21320+055480FM-15+0053FMEP V0203001N004612200019N0112651N1+02401+01601999999ADDGA1021+006909999GF102991999999999999999999MA1101801999999MW1001REMMET045FMEP 201300Z 30009KT 9999 FEW023 24/16 Q1018;EQDQ01+000000PRSWM2
0162619840999992000072103004-21320+055480FM-15+0053FMEP V0200301N005012200019N0112651N1+01801+01301999999ADDGA1021+004809999GA2021+042009999GF104991999999999999999999MA1101801999999MW1001REMMET052FMEP 210300Z 03005KT 9999 FEW016 SCT140 18/13 Q1018;EQDQ01+000000PRSWM2
0139619840999992000072104004-21320+055480FM-15+0053FMEP V0200401N004012200019N0112651N1+02001+01401999999ADDGA1021+004809999GF102991999999999999999999MA1101901999999MW1001REMMET045FMEP 210400Z 04004KT 9999 FEW016 20/14 Q1019;EQDQ01+000000PRSWM2
0139619840999992000072105004-21320+055480FM-15+0053FMEP V0200301N003012200019N0112651N1+02301+01601999999ADDGA1021+004809999GF102991999999999999999999MA1102001999999MW1001REMMET045FMEP 210500Z 03003KT 9999 FEW016 23/16 Q1020;EQDQ01+000000PRSWM2
0139619840999992000072106004-21320+055480FM-15+0053FMEP V0202901N003012200019N0112651N1+02401+01801999999ADDGA1021+004809999GF102991999999999999999999MA1102001999999MW1001REMMET045FMEP 210600Z 29003KT 9999 FEW016 24/18 Q1020;EQDQ01+000000PRSWM2
0139619840999992000072108004-21320+055480FM-15+0053FMEP V0202001N005012200019N0112651N1+02501+01801999999ADDGA1021+009909999GF102991999999999999999999MA1101901999999MW1001REMMET045FMEP 210800Z 20005KT 9999 FEW033 25/18 Q1019;EQDQ01+000000PRSWM2
0139619840999992000072109004-21320+055480FM-15+0053FMEP V0202101N006012200019N0112651N1+02501+01801999999ADDGA1021+007809999GF102991999999999999999999MA1101901999999MW1001REMMET045FMEP 210900Z 21006KT 9999 FEW026 25/18 Q1019;EQDQ01+000000PRSWM2
0139619840999992000072110004-21320+055480FM-15+0053FMEP V0202601N007012200019N0112651N1+02501+01701999999ADDGA1021+009909999GF102991999999999999999999MA1101801999999MW1001REMMET045FMEP 211000Z 26007KT 9999 FEW033 25/17 Q1018;EQDQ01+000000PRSWM2
0139619840999992000072111004-21320+055480FM-15+0053FMEP V0202701N007012200019N0112651N1+02601+01801999999ADDGA1021+009009999GF102991999999999999999999MA1101801999999MW1001REMMET045FMEP 211100Z 27007KT 9999 FEW030 26/18 Q1018;EQDQ01+000000PRSWM2
0147619840999992000072112004-21320+055480FM-15+0053FMEP V0202801N005012200019N0112651N1+02501+01701999999ADDGA1021+007809999GF102991999999999999999999MA1101691999999MW1001REMMET053FMEP 211200Z 28005KT 250V320 9999 FEW026 25/17 Q1017;EQDQ01+000000PRSWM2
0139619840999992000072113004-21320+055480FM-15+0053FMEP V0202801N006012200019N0112651N1+02401+01701999999ADDGA1021+009909999GF102991999999999999999999MA1101801999999MW1001REMMET045FMEP 211300Z 28006KT 9999 FEW033 24/17 Q1018;EQDQ01+000000PRSWM2
0139619840999992000072203004-21320+055480FM-15+0053FMEP V0200501N003612200019N0112651N1+01701+00901999999ADDGA1021+006309999GF102991999999999999999999MA1101901999999MW1001REMMET045FMEP 220300Z 05007KT 9999 FEW021 17/09 Q1019;EQDQ01+000000PRSWM2
0139619840999992000072204004-21320+055480FM-15+0053FMEP V0200401N003112200019N0112651N1+01901+00901999999ADDGA1021+006309999GF102991999999999999999999MA1102001999999MW1001REMMET045FMEP 220400Z 04006KT 9999 FEW021 19/09 Q1020;EQDQ01+000000PRSWM2
0139619840999992000072205004-21320+055480FM-15+0053FMEP V0200601N002112200019N0112651N1+02301+01101999999ADDGA1021+006309999GF102991999999999999999999MA1102001999999MW1001REMMET045FMEP 220500Z 06004KT 9999 FEW021 23/11 Q1020;EQDQ01+000000PRSWM2
0139619840999992000072206004-21320+055480FM-15+0053FMEP V0201501N003112200019N0112651N1+02401+01601999999ADDGA1021+006309999GF102991999999999999999999MA1102001999999MW1001REMMET045FMEP 220600Z 15006KT 9999 FEW021 24/16 Q1020;EQDQ01+000000PRSWM2
0139619840999992000072207004-21320+055480FM-15+0053FMEP V0201401N006212200019N0112651N1+02401+01801999999ADDGA1021+006309999GF102991999999999999999999MA1102001999999MW1001REMMET045FMEP 220700Z 14012KT 9999 FEW021 24/18 Q1020;EQDQ01+000000PRSWM2
0139619840999992000072208004-21320+055480FM-15+0053FMEP V0201501N006712200019N0112651N1+02501+01801999999ADDGA1021+004509999GF102991999999999999999999MA1102001999999MW1001REMMET045FMEP 220800Z 15013KT 9999 FEW015 25/18 Q1020;EQDQ01+000000PRSWM2
0139619840999992000072209004-21320+055480FM-15+0053FMEP V0201401N006712200019N0112651N1+02401+01701999999ADDGA1021+004509999GF102991999999999999999999MA1101901999999MW1001REMMET045FMEP 220900Z 14013KT 9999 FEW015 24/17 Q1019;EQDQ01+000000PRSWM2
0139619840999992000072210004-21320+055480FM-15+0053FMEP V0201401N006212200019N0112651N1+02401+01701999999ADDGA1021+004509999GF102991999999999999999999MA1101901999999MW1001REMMET045FMEP 221000Z 14012KT 9999 FEW015 24/17 Q1019;EQDQ01+000000PRSWM2
0139619840999992000072211004-21320+055480FM-15+0053FMEP V0201401N006212200019N0112651N1+02401+01701999999ADDGA1021+004509999GF102991999999999999999999MA1101801999999MW1001REMMET045FMEP 221100Z 14012KT 9999 FEW015 24/17 Q1018;EQDQ01+000000PRSWM2
0139619840999992000072212004-21320+055480FM-15+0053FMEP V0201401N006212200019N0112651N1+02401+01601999999ADDGA1021+004509999GF102991999999999999999999MA1101901999999MW1001REMMET045FMEP 221200Z 14012KT 9999 FEW015 24/16 Q1019;EQDQ01+000000PRSWM2
0139619840999992000072213004-21320+055480FM-15+0053FMEP V0201401N005712200019N0112651N1+02301+01701999999ADDGA1021+004509999GF102991999999999999999999MA1101901999999MW1001REMMET045FMEP 221300Z 14011KT 9999 FEW015 23/17 Q1019;EQDQ01+000000PRSWM2
0141619840999992000072303004-21320+055480FM-15+0053FMEP V0200401N003612200019N0112651N1+01701+01001999999ADDGA1021+006309099GF102991999999999999999999MA1102001999999MW1001REMMET047FMEP 230300Z 04007KT 9999 FEW021CB 17/10 Q1020;EQDQ01+000000PRSWM2
0142619840999992000072304004-21320+055480FM-15+0053FMEP V0200501N003112200019N0112651N1+01901+01001999999ADDGA1021+006309029GF102991999999999999999999MA1102101999999MW1001REMMET048FMEP 230400Z 05006KT 9999 FEW021TCU 19/10 Q1021;EQDQ01+000000PRSWM2
0142619840999992000072305004-21320+055480FM-15+0053FMEP V0200901N002612200019N0112651N1+02201+01601999999ADDGA1021+006309029GF102991999999999999999999MA1102101999999MW1001REMMET048FMEP 230500Z 09005KT 9999 FEW021TCU 22/16 Q1021;EQDQ01+000000PRSWM2
0139619840999992000072306004-21320+055480FM-15+0053FMEP V0201401N004112200019N0112651N1+02301+01701999999ADDGA1021+006309999GF102991999999999999999999MA1102201999999MW1001REMMET045FMEP 230600Z 14008KT 9999 FEW021 23/17 Q1022;EQDQ01+000000PRSWM2
0139619840999992000072307004-21320+055480FM-15+0053FMEP V0201501N004612200019N0112651N1+02401+01701999999ADDGA1021+006309999GF102991999999999999999999MA1102101999999MW1001REMMET045FMEP 230700Z 15009KT 9999 FEW021 24/17 Q1021;EQDQ01+000000PRSWM2
0139619840999992000072308004-21320+055480FM-15+0053FMEP V0201601N005112200019N0112651N1+02401+01701999999ADDGA1021+004509999GF102991999999999999999999MA1102101999999MW1001REMMET045FMEP 230800Z 16010KT 9999 FEW015 24/17 Q1021;EQDQ01+000000PRSWM2
0139619840999992000072309004-21320+055480FM-15+0053FMEP V0201501N005712200019N0112651N1+02501+01701999999ADDGA1021+004509999GF102991999999999999999999MA1102001999999MW1001REMMET045FMEP 230900Z 15011KT 9999 FEW015 25/17 Q1020;EQDQ01+000000PRSWM2
0165619840999992000072310004-21320+055480FM-15+0053FMEP V0201501N006212200019N0112651N1+02401+01701999999ADDGA1021+004509029GA2021+004509999GF102991999999999999999999MA1102001999999MW1001REMMET055FMEP 231000Z 15012KT 9999 FEW015TCU FEW015 24/17 Q1020;EQDQ01+000000PRSWM2
0165619840999992000072311004-21320+055480FM-15+0053FMEP V0201601N006212200019N0112651N1+02401+01601999999ADDGA1021+004509029GA2021+004509999GF102991999999999999999999MA1101901999999MW1001REMMET055FMEP 231100Z 16012KT 9999 FEW015TCU FEW015 24/16 Q1019;EQDQ01+000000PRSWM2
0142619840999992000072312004-21320+055480FM-15+0053FMEP V0201501N005112200019N0112651N1+02401+01601999999ADDGA1021+004509029GF102991999999999999999999MA1102001999999MW1001REMMET048FMEP 231200Z 15010KT 9999 FEW015TCU 24/16 Q1020;EQDQ01+000000PRSWM2
0142619840999992000072313004-21320+055480FM-15+0053FMEP V0201201N005112200019N0112651N1+02301+01601999999ADDGA1021+004509029GF104991999999999999999999MA1102001999999MW1001REMMET048FMEP 231300Z 12010KT 9999 SCT015TCU 23/16 Q1020;EQDQ01+000000PRSWM2
0165619840999992000072403004-21320+055480FM-15+0053FMEP V0200301N002112200019N0112651N1+01701+01201999999ADDGA1021+003009999GA2021+004809029GF102991999999999999999999MA1102101999999MW1001REMMET055FMEP 240300Z 03004KT 9999 FEW010 FEW016TCU 17/12 Q1021;EQDQ01+000000PRSWM2
0139619840999992000072404004-21320+055480FM-15+0053FMEP V0200601N003112200019N0112651N1+01901+01401999999ADDGA1021+003009999GF102991999999999999999999MA1102101999999MW1001REMMET045FMEP 240400Z 06006KT 9999 FEW010 19/14 Q1021;EQDQ01+000000PRSWM2
0139619840999992000072405004-21320+055480FM-15+0053FMEP V0201101N005112200019N0112651N1+02201+01501999999ADDGA1021+004809999GF102991999999999999999999MA1102201999999MW1001REMMET045FMEP 240500Z 11010KT 9999 FEW016 22/15 Q1022;EQDQ01+000000PRSWM2
0139619840999992000072407004-21320+055480FM-15+0053FMEP V0201201N007212200019N0112651N1+02301+01501999999ADDGA1021+006009999GF102991999999999999999999MA1102101999999MW1001REMMET045FMEP 240700Z 12014KT 9999 FEW020 23/15 Q1021;EQDQ01+000000PRSWM2
0139619840999992000072408004-21320+055480FM-15+0053FMEP V0201301N009812200019N0112651N1+02401+01501999999ADDGA1021+009909999GF102991999999999999999999MA1102101999999MW1001REMMET045FMEP 240800Z 13019KT 9999 FEW033 24/15 Q1021;EQDQ01+000000PRSWM2
0139619840999992000072409004-21320+055480FM-15+0053FMEP V0201401N009812200019N0112651N1+02301+01501999999ADDGA1021+007809999GF102991999999999999999999MA1102001999999MW1001REMMET045FMEP 240900Z 14019KT 9999 FEW026 23/15 Q1020;EQDQ01+000000PRSWM2
0139619840999992000072411004-21320+055480FM-15+0053FMEP V0201301N009812200019N0112651N1+02201+01401999999ADDGA1021+004809999GF102991999999999999999999MA1102001999999MW1001REMMET045FMEP 241100Z 13019KT 9999 FEW016 22/14 Q1020;EQDQ01+000000PRSWM2
0139619840999992000072412004-21320+055480FM-15+0053FMEP V0201301N010312200019N0112651N1+02301+01401999999ADDGA1021+003009999GF102991999999999999999999MA1102001999999MW1001REMMET045FMEP 241200Z 13020KT 9999 FEW010 23/14 Q1020;EQDQ01+000000PRSWM2
0139619840999992000072413004-21320+055480FM-15+0053FMEP V0201301N010312200019N0112651N1+02201+01501999999ADDGA1021+004809999GF102991999999999999999999MA1102001999999MW1001REMMET045FMEP 241300Z 13020KT 9999 FEW016 22/15 Q1020;EQDQ01+000000PRSWM2
0139619840999992000072503004-21320+055480FM-15+0053FMEP V0200701N003112200019N0112651N1+01501+00601999999ADDGA1021+003909999GF102991999999999999999999MA1102101999999MW1001REMMET045FMEP 250300Z 07006KT 9999 FEW013 15/06 Q1021;EQDQ01+000000PRSWM2
0139619840999992000072504004-21320+055480FM-15+0053FMEP V0200801N002612200019N0112651N1+01801+00801999999ADDGA1021+003909999GF102991999999999999999999MA1102201999999MW1001REMMET045FMEP 250400Z 08005KT 9999 FEW013 18/08 Q1022;EQDQ01+000000PRSWM2
0139619840999992000072505004-21320+055480FM-15+0053FMEP V0201101N006712200019N0112651N1+02201+01201999999ADDGA1021+003909999GF102991999999999999999999MA1102201999999MW1001REMMET045FMEP 250500Z 11013KT 9999 FEW013 22/12 Q1022;EQDQ01+000000PRSWM2
0139619840999992000072506004-21320+055480FM-15+0053FMEP V0201201N008712200019N0112651N1+02301+01201999999ADDGA1021+004809999GF102991999999999999999999MA1102201999999MW1001REMMET045FMEP 250600Z 12017KT 9999 FEW016 23/12 Q1022;EQDQ01+000000PRSWM2
0139619840999992000072507004-21320+055480FM-15+0053FMEP V0201301N009812200019N0112651N1+02301+01301999999ADDGA1021+004809999GF102991999999999999999999MA1102201999999MW1001REMMET045FMEP 250700Z 13019KT 9999 FEW016 23/13 Q1022;EQDQ01+000000PRSWM2
0139619840999992000072508004-21320+055480FM-15+0053FMEP V0201301N009812200019N0112651N1+02401+01301999999ADDGA1021+005409999GF102991999999999999999999MA1102101999999MW1001REMMET045FMEP 250800Z 13019KT 9999 FEW018 24/13 Q1021;EQDQ01+000000PRSWM2
0139619840999992000072509004-21320+055480FM-15+0053FMEP V0201401N010312200019N0112651N1+02401+01501999999ADDGA1021+005409999GF102991999999999999999999MA1102101999999MW1001REMMET045FMEP 250900Z 14020KT 9999 FEW018 24/15 Q1021;EQDQ01+000000PRSWM2
0139619840999992000072510004-21320+055480FM-15+0053FMEP V0201401N010312200019N0112651N1+02401+01501999999ADDGA1021+005409999GF102991999999999999999999MA1102001999999MW1001REMMET045FMEP 251000Z 14020KT 9999 FEW018 24/15 Q1020;EQDQ01+000000PRSWM2
0139619840999992000072512004-21320+055480FM-15+0053FMEP V0201301N009312200019N0112651N1+02301+01601999999ADDGA1021+007809999GF102991999999999999999999MA1102001999999MW1001REMMET045FMEP 251200Z 13018KT 9999 FEW026 23/16 Q1020;EQDQ01+000000PRSWM2
0139619840999992000072513004-21320+055480FM-15+0053FMEP V0201301N007712200019N0112651N1+02201+01501999999ADDGA1021+007809999GF102991999999999999999999MA1102001999999MW1001REMMET045FMEP 251300Z 13015KT 9999 FEW026 22/15 Q1020;EQDQ01+000000PRSWM2
0139619840999992000072603004-21320+055480FM-15+0053FMEP V0200301N003612200019N0112651N1+01601+01101999999ADDGA1021+006309999GF102991999999999999999999MA1102301999999MW1001REMMET045FMEP 260300Z 03007KT 9999 FEW021 16/11 Q1023;EQDQ01+000000PRSWM2
0139619840999992000072604004-21320+055480FM-15+0053FMEP V0200401N003112200019N0112651N1+01801+01101999999ADDGA1021+006309999GF102991999999999999999999MA1102301999999MW1001REMMET045FMEP 260400Z 04006KT 9999 FEW021 18/11 Q1023;EQDQ01+000000PRSWM2
0139619840999992000072605004-21320+055480FM-15+0053FMEP V0200701N001512200019N0112651N1+02301+01101999999ADDGA1021+006309999GF102991999999999999999999MA1102401999999MW1001REMMET045FMEP 260500Z 07003KT 9999 FEW021 23/11 Q1024;EQDQ01+000000PRSWM2
0147619840999992000072606004-21320+055480FM-15+0053FMEP V0201301N004612200019N0112651N1+02401+01501999999ADDGA1021+006309999GF102991999999999999999999MA1102401999999MW1001REMMET053FMEP 260600Z 13009KT 060V180 9999 FEW021 24/15 Q1024;EQDQ01+000000PRSWM2
0139619840999992000072607004-21320+055480FM-15+0053FMEP V0201401N006212200019N0112651N1+02401+01601999999ADDGA1021+006309999GF102991999999999999999999MA1102301999999MW1001REMMET045FMEP 260700Z 14012KT 9999 FEW021 24/16 Q1023;EQDQ01+000000PRSWM2
0139619840999992000072608004-21320+055480FM-15+0053FMEP V0201301N008712200019N0112651N1+02401+01701999999ADDGA1021+004509999GF102991999999999999999999MA1102301999999MW1001REMMET045FMEP 260800Z 13017KT 9999 FEW015 24/17 Q1023;EQDQ01+000000PRSWM2
0147619840999992000072609004-21320+055480FM-15+0053FMEP V0201401N009812200019N0112651N1+02401+01701999999ADDGA1021+004509999GF102991999999999999999999MA1102201999999MW1001REMMET053FMEP 260900Z 14019KT 110V180 9999 FEW015 24/17 Q1022;EQDQ01+000000PRSWM2
0162619840999992000072611004-21320+055480FM-15+0053FMEP V0201301N009812200019N0112651N1+02401+01601999999ADDGA1021+004509999GA2021+012009999GF104991999999999999999999MA1102101999999MW1001REMMET052FMEP 261100Z 13019KT 9999 FEW015 SCT040 24/16 Q1021;EQDQ01+000000PRSWM2
0162619840999992000072612004-21320+055480FM-15+0053FMEP V0201201N009810120019N0112651N1+02201+01601999999ADDGA1021+004509999GA2071+012009999GF107991999999999999999999MA1102101999999MW1001REMMET052FMEP 261200Z 12019KT 9999 FEW015 BKN040 22/16 Q1021;EQDQ01+000000PRSWM2
0162619840999992000072613004-21320+055480FM-15+0053FMEP V0201301N008710120019N0112651N1+02201+01601999999ADDGA1021+004509999GA2071+012009999GF107991999999999999999999MA1102101999999MW1001REMMET052FMEP 261300Z 13017KT 9999 FEW015 BKN040 22/16 Q1021;EQDQ01+000000PRSWM2
0162619840999992000072703004-21320+055480FM-15+0053FMEP V0200401N003112200019N0112651N1+01801+01201999999ADDGA1021+006309999GA2021+018009999GF104991999999999999999999MA1102201999999MW1001REMMET052FMEP 270300Z 04006KT 9999 FEW021 SCT066 18/12 Q1022;EQDQ01+000000PRSWM2
0139619840999992000072704004-21320+055480FM-15+0053FMEP V0200301N000512200019N0112651N1+01801+01301999999ADDGA1021+006309999GF102991999999999999999999MA1102201999999MW1001REMMET045FMEP 270400Z 03001KT 9999 FEW021 18/13 Q1022;EQDQ01+000000PRSWM2
0139619840999992000072705004-21320+055480FM-15+0053FMEP V0203501N002112200019N0112651N1+02101+01501999999ADDGA1021+006309999GF102991999999999999999999MA1102201999999MW1001REMMET045FMEP 270500Z 35004KT 9999 FEW021 21/15 Q1022;EQDQ01+000000PRSWM2
0139619840999992000072707004-21320+055480FM-15+0053FMEP V0201801N002112200019N0112651N1+02401+01501999999ADDGA1021+006309999GF102991999999999999999999MA1102201999999MW1001REMMET045FMEP 270700Z 18004KT 9999 FEW021 24/15 Q1022;EQDQ01+000000PRSWM2
0147619840999992000072708004-21320+055480FM-15+0053FMEP V0201401N004112200019N0112651N1+02601+01701999999ADDGA1021+006309999GF102991999999999999999999MA1102101999999MW1001REMMET053FMEP 270800Z 14008KT 100V200 9999 FEW021 26/17 Q1021;EQDQ01+000000PRSWM2
0150619840999992000072709004-21320+055480FM-15+0053FMEP V0201401N006712200019N0112651N1+02601+01701999999ADDGA1021+006309999GF102991999999999999999999MA1102001999999MW1001OC101181REMMET048FMEP 270900Z 14013G23KT 9999 FEW021 26/17 Q1020;EQDQ01+000000PRSWM2
0139619840999992000072711004-21320+055480FM-15+0053FMEP V0202501N004112200019N0112651N1+02501+01801999999ADDGA1021+007509999GF102991999999999999999999MA1101901999999MW1001REMMET045FMEP 271100Z 25008KT 9999 FEW025 25/18 Q1019;EQDQ01+000000PRSWM2
0142619840999992000072712004-21320+055480FM-15+0053FMEP V0202601N004112200019N0112651N1+02501+01701999999ADDGA1021+006309029GF102991999999999999999999MA1102001999999MW1001REMMET048FMEP 271200Z 26008KT 9999 FEW021TCU 25/17 Q1020;EQDQ01+000000PRSWM2
0165619840999992000072713004-21320+055480FM-15+0053FMEP V0202901N004612200019N0112651N1+02301+01801999999ADDGA1021+006309029GA2021+015009999GF104991999999999999999999MA1102001999999MW1001REMMET055FMEP 271300Z 29009KT 9999 FEW021TCU SCT050 23/18 Q1020;EQDQ01+000000PRSWM2
0139619840999992000072803004-21320+055480FM-15+0053FMEP V0200301N003612200019N0112651N1+01701+01301999999ADDGA1021+006309999GF102991999999999999999999MA1102001999999MW1001REMMET045FMEP 280300Z 03007KT 9999 FEW021 17/13 Q1020;EQDQ01+000000PRSWM2
0139619840999992000072804004-21320+055480FM-15+0053FMEP V0200601N002612200019N0112651N1+02001+01401999999ADDGA1021+006309999GF102991999999999999999999MA1102101999999MW1001REMMET045FMEP 280400Z 06005KT 9999 FEW021 20/14 Q1021;EQDQ01+000000PRSWM2
0139619840999992000072805004-21320+055480FM-15+0053FMEP V02099999999992200019N0112651N1+02301+01301999999ADDGA1021+006309999GF102991999999999999999999MA1102201999999MW1001REMMET045FMEP 280500Z VRB02KT 9999 FEW021 23/13 Q1022;EQDQ01+000000PRSWM2
0139619840999992000072806004-21320+055480FM-15+0053FMEP V02099999999992200019N0112651N1+02501+01301999999ADDGA1021+006309999GF102991999999999999999999MA1102201999999MW1001REMMET045FMEP 280600Z VRB03KT 9999 FEW021 25/13 Q1022;EQDQ01+000000PRSWM2
0150619840999992000072807004-21320+055480FM-15+0053FMEP V0201301N008712200019N0112651N1+02401+01601999999ADDGA1021+006309999GF102991999999999999999999MA1102101999999MW1001OC101391REMMET048FMEP 280700Z 13017G27KT 9999 FEW021 24/16 Q1021;EQDQ01+000000PRSWM2
0139619840999992000072808004-21320+055480FM-15+0053FMEP V0201301N010312200019N0112651N1+02501+01601999999ADDGA1021+004509999GF102991999999999999999999MA1102101999999MW1001REMMET045FMEP 280800Z 13020KT 9999 FEW015 25/16 Q1021;EQDQ01+000000PRSWM2
0139619840999992000072809004-21320+055480FM-15+0053FMEP V0201301N010312200019N0112651N1+02501+01601999999ADDGA1021+004509999GF102991999999999999999999MA1102001999999MW1001REMMET045FMEP 280900Z 13020KT 9999 FEW015 25/16 Q1020;EQDQ01+000000PRSWM2
0139619840999992000072810004-21320+055480FM-15+0053FMEP V0201301N011312200019N0112651N1+02501+01401999999ADDGA1021+004509999GF102991999999999999999999MA1101901999999MW1001REMMET045FMEP 281000Z 13022KT 9999 FEW015 25/14 Q1019;EQDQ01+000000PRSWM2
0139619840999992000072811004-21320+055480FM-15+0053FMEP V0201301N011312200019N0112651N1+02301+01701999999ADDGA1021+004509999GF102991999999999999999999MA1101901999999MW1001REMMET045FMEP 281100Z 13022KT 9999 FEW015 23/17 Q1019;EQDQ01+000000PRSWM2
0139619840999992000072812004-21320+055480FM-15+0053FMEP V0201301N011812200019N0112651N1+02301+01601999999ADDGA1021+004509999GF102991999999999999999999MA1101901999999MW1001REMMET045FMEP 281200Z 13023KT 9999 FEW015 23/16 Q1019;EQDQ01+000000PRSWM2
0139619840999992000072813004-21320+055480FM-15+0053FMEP V0201301N009812200019N0112651N1+02301+01601999999ADDGA1021+004509999GF102991999999999999999999MA1102001999999MW1001REMMET045FMEP 281300Z 13019KT 9999 FEW015 23/16 Q1020;EQDQ01+000000PRSWM2
0147619840999992000072903004-21320+055480FM-15+0053FMEP V02099999999992200019N0112651N1+01801+01301999999ADDGA1021+009309999GF102991999999999999999999MA1102101999999MW1001REMMET053FMEP 290300Z VRB04KT 090V340 9999 FEW031 18/13 Q1021;EQDQ01+000000PRSWM2
0142619840999992000072904004-21320+055480FM-15+0053FMEP V0200801N001512200019N0112651N1+01901+01201999999ADDGA1021+006909029GF102991999999999999999999MA1102201999999MW1001REMMET048FMEP 290400Z 08003KT 9999 FEW023TCU 19/12 Q1022;EQDQ01+000000PRSWM2
0150619840999992000072905004-21320+055480FM-15+0053FMEP V0200701N002112200019N0112651N1+02301+01401999999ADDGA1021+006909029GF102991999999999999999999MA1102201999999MW1001REMMET056FMEP 290500Z 07004KT 030V130 9999 FEW023TCU 23/14 Q1022;EQDQ01+000000PRSWM2
0142619840999992000072906004-21320+055480FM-15+0053FMEP V0201501N006212200019N0112651N1+02401+01601999999ADDGA1021+006909029GF102991999999999999999999MA1102201999999MW1001REMMET048FMEP 290600Z 15012KT 9999 FEW023TCU 24/16 Q1022;EQDQ01+000000PRSWM2
0142619840999992000072907004-21320+055480FM-15+0053FMEP V0201401N006712200019N0112651N1+02401+01601999999ADDGA1021+008409029GF102991999999999999999999MA1102201999999MW1001REMMET048FMEP 290700Z 14013KT 9999 FEW028TCU 24/16 Q1022;EQDQ01+000000PRSWM2
0150619840999992000072908004-21320+055480FM-15+0053FMEP V0201301N006212200019N0112651N1+02501+01601999999ADDGA1021+008409029GF102991999999999999999999MA1102101999999MW1001REMMET056FMEP 290800Z 13012KT 100V170 9999 FEW028TCU 25/16 Q1021;EQDQ01+000000PRSWM2
0165619840999992000072909004-21320+055480FM-15+0053FMEP V0201301N007712200019N0112651N1+02501+01701999999ADDGA1021+007809029GA2021+024009999GF104991999999999999999999MA1102001999999MW1001REMMET055FMEP 290900Z 13015KT 9999 FEW026TCU SCT080 25/17 Q1020;EQDQ01+000000PRSWM2
0165619840999992000072910004-21320+055480FM-15+0053FMEP V0201401N007710240019N0112651N1+02301+01601999999ADDGA1021+007809029GA2071+024009999GF107991999999999999999999MA1102001999999MW1001REMMET055FMEP 291000Z 14015KT 9999 FEW026TCU BKN080 23/16 Q1020;EQDQ01+000000PRSWM2
0152619840999992000072911004-21320+055480FM-15+0053FMEP V0202301N003612200019N0112651N1+02401+01701999999ADDGA1021+008409029GA2021+018009999GF104991999999999999999999MW1001REMMET057FMEP 291100Z 23007KT 190V260 9999 FEW028TCU SCT060 24/17;EQDQ01+000000PRSWM2
0162619840999992000072912004-21320+055480FM-15+0053FMEP V0202001N002612200019N0112651N1+02301+01501999999ADDGA1021+009309999GA2021+018009999GF104991999999999999999999MA1102001999999MW1001REMMET052FMEP 291200Z 20005KT 9999 FEW031 SCT063 23/15 Q1020;EQDQ01+000000PRSWM2
0162619840999992000072913004-21320+055480FM-15+0053FMEP V0200101N001512200019N0112651N1+02301+01501999999ADDGA1021+009309999GA2021+045009999GF104991999999999999999999MA1102001999999MW1001REMMET052FMEP 291300Z 01003KT 9999 FEW031 SCT150 23/15 Q1020;EQDQ01+000000PRSWM2
0139619840999992000073003004-21320+055480FM-15+0053FMEP V0200501N003612200019N0112651N1+01701+01101999999ADDGA1021+012009999GF102991999999999999999999MA1102101999999MW1001REMMET045FMEP 300300Z 05007KT 9999 FEW040 17/11 Q1021;EQDQ01+000000PRSWM2
0139619840999992000073004004-21320+055480FM-15+0053FMEP V0200401N003112200019N0112651N1+01901+01201999999ADDGA1021+010809999GF102991999999999999999999MA1102201999999MW1001REMMET045FMEP 300400Z 04006KT 9999 FEW036 19/12 Q1022;EQDQ01+000000PRSWM2
0139619840999992000073005004-21320+055480FM-15+0053FMEP V0200601N001512200019N0112651N1+02301+01201999999ADDGA1021+010809999GF102991999999999999999999MA1102201999999MW1001REMMET045FMEP 300500Z 06003KT 9999 FEW036 23/12 Q1022;EQDQ01+000000PRSWM2
0147619840999992000073006004-21320+055480FM-15+0053FMEP V0201601N002612200019N0112651N1+02401+01501999999ADDGA1021+010509999GF102991999999999999999999MA1102201999999MW1001REMMET053FMEP 300600Z 16005KT 130V200 9999 FEW035 24/15 Q1022;EQDQ01+000000PRSWM2
0147619840999992000073007004-21320+055480FM-15+0053FMEP V0202901N003112200019N0112651N1+02601+01501999999ADDGA1021+010509999GF102991999999999999999999MA1102201999999MW1001REMMET053FMEP 300700Z 29006KT 250V330 9999 FEW035 26/15 Q1022;EQDQ01+000000PRSWM2
0147619840999992000073008004-21320+055480FM-15+0053FMEP V0202101N002612200019N0112651N1+02501+01501999999ADDGA1021+009909999GF102991999999999999999999MA1102101999999MW1001REMMET053FMEP 300800Z 21005KT 160V270 9999 FEW033 25/15 Q1021;EQDQ01+000000PRSWM2
0147619840999992000073009004-21320+055480FM-15+0053FMEP V0202001N002112200019N0112651N1+02601+01501999999ADDGA1021+009309999GF102991999999999999999999MA1102101999999MW1001REMMET053FMEP 300900Z 20004KT 150V280 9999 FEW031 26/15 Q1021;EQDQ01+000000PRSWM2
0142619840999992000073010004-21320+055480FM-15+0053FMEP V0201301N008212200019N0112651N1+02501+01801999999ADDGA1021+009309029GF102991999999999999999999MA1102001999999MW1001REMMET048FMEP 301000Z 13016KT 9999 FEW031TCU 25/18 Q1020;EQDQ01+000000PRSWM2
0142619840999992000073011004-21320+055480FM-15+0053FMEP V0201401N008712200019N0112651N1+02501+01801999999ADDGA1021+006309029GF102991999999999999999999MA1101901999999MW1001REMMET048FMEP 301100Z 14017KT 9999 FEW021TCU 25/18 Q1019;EQDQ01+000000PRSWM2
0142619840999992000073012004-21320+055480FM-15+0053FMEP V0201301N009312200019N0112651N1+02401+01801999999ADDGA1021+009009029GF102991999999999999999999MA1101901999999MW1001REMMET048FMEP 301200Z 13018KT 9999 FEW030TCU 24/18 Q1019;EQDQ01+000000PRSWM2
0142619840999992000073013004-21320+055480FM-15+0053FMEP V0201201N006712200019N0112651N1+02301+01701999999ADDGA1021+009009029GF102991999999999999999999MA1101901999999MW1001REMMET048FMEP 301300Z 12013KT 9999 FEW030TCU 23/17 Q1019;EQDQ01+000000PRSWM2
0139619840999992000073104004-21320+055480FM-15+0053FMEP V0201001N004112200019N0112651N1+02001+01101999999ADDGA1021+004809999GF102991999999999999999999MA1102101999999MW1001REMMET045FMEP 310400Z 10008KT 9999 FEW016 20/11 Q1021;EQDQ01+000000PRSWM2
0139619840999992000073105004-21320+055480FM-15+0053FMEP V0201201N008712200019N0112651N1+02301+01501999999ADDGA1021+007809999GF102991999999999999999999MA1102101999999MW1001REMMET045FMEP 310500Z 12017KT 9999 FEW026 23/15 Q1021;EQDQ01+000000PRSWM2
0139619840999992000073106004-21320+055480FM-15+0053FMEP V0201301N009812200019N0112651N1+02401+01601999999ADDGA1021+012009999GF102991999999999999999999MA1102101999999MW1001REMMET045FMEP 310600Z 13019KT 9999 FEW040 24/16 Q1021;EQDQ01+000000PRSWM2
0139619840999992000073107004-21320+055480FM-15+0053FMEP V0201401N010812200019N0112651N1+02401+01701999999ADDGA1021+009909999GF102991999999999999999999MA1102001999999MW1001REMMET045FMEP 310700Z 14021KT 9999 FEW033 24/17 Q1020;EQDQ01+000000PRSWM2
0139619840999992000073109004-21320+055480FM-15+0053FMEP V0201401N011312200019N0112651N1+02401+01801999999ADDGA1021+012009999GF102991999999999999999999MA1101901999999MW1001REMMET045FMEP 310900Z 14022KT 9999 FEW040 24/18 Q1019;EQDQ01+000000PRSWM2
0139619840999992000073110004-21320+055480FM-15+0053FMEP V0201401N011812200019N0112651N1+02401+01801999999ADDGA1021+009909999GF102991999999999999999999MA1101801999999MW1001REMMET045FMEP 311000Z 14023KT 9999 FEW033 24/18 Q1018;EQDQ01+000000PRSWM2
0139619840999992000073112004-21320+055480FM-15+0053FMEP V0201301N011812200019N0112651N1+02301+01801999999ADDGA1021+009909999GF102991999999999999999999MA1101691999999MW1001REMMET045FMEP 311200Z 13023KT 9999 FEW033 23/18 Q1017;EQDQ01+000000PRSWM2
0139619840999992000073113004-21320+055480FM-15+0053FMEP V0201301N011312200019N0112651N1+02301+01901999999ADDGA1021+007809999GF102991999999999999999999MA1101691999999MW1001REMMET045FMEP 311300Z 13022KT 9999 FEW026 23/19 Q1017;EQDQ01+000000PRSWM2
0139619840999992000080103004-21320+055480FM-15+0053FMEP V0200501N003112200019N0112651N1+01801+01401999999ADDGA1021+006009999GF102991999999999999999999MA1101901999999MW1001REMMET045FMEP 010300Z 05006KT 9999 FEW020 18/14 Q1019;EQDQ01+000000PRSWM2
0139619840999992000080104004-21320+055480FM-15+0053FMEP V0200601N001512200019N0112651N1+02001+01501999999ADDGA1021+012009999GF102991999999999999999999MA1101901999999MW1001REMMET045FMEP 010400Z 06003KT 9999 FEW040 20/15 Q1019;EQDQ01+000000PRSWM2
0139619840999992000080105004-21320+055480FM-15+0053FMEP V0201401N001012200019N0112651N1+02301+01801999999ADDGA1021+005409999GF102991999999999999999999MA1101901999999MW1001REMMET045FMEP 010500Z 14002KT 9999 FEW018 23/18 Q1019;EQDQ01+000000PRSWM2
0139619840999992000080106004-21320+055480FM-15+0053FMEP V0202001N001512200019N0112651N1+02301+01801999999ADDGA1021+006309999GF102991999999999999999999MA1102001999999MW1001REMMET045FMEP 010600Z 20003KT 9999 FEW021 23/18 Q1020;EQDQ01+000000PRSWM2
0139619840999992000080107004-21320+055480FM-15+0053FMEP V0202201N002612200019N0112651N1+02401+01901999999ADDGA1021+006909999GF102991999999999999999999MA1101901999999MW1001REMMET045FMEP 010700Z 22005KT 9999 FEW023 24/19 Q1019;EQDQ01+000000PRSWM2
0139619840999992000080108004-21320+055480FM-15+0053FMEP V0201701N003112200019N0112651N1+02401+01901999999ADDGA1021+007509999GF102991999999999999999999MA1101901999999MW1001REMMET045FMEP 010800Z 17006KT 9999 FEW025 24/19 Q1019;EQDQ01+000000PRSWM2
0139619840999992000080109004-21320+055480FM-15+0053FMEP V0201601N003612200019N0112651N1+02501+01901999999ADDGA1021+007509999GF102991999999999999999999MA1101801999999MW1001REMMET045FMEP 010900Z 16007KT 9999 FEW025 25/19 Q1018;EQDQ01+000000PRSWM2
0139619840999992000080110004-21320+055480FM-15+0053FMEP V0201401N005112200019N0112651N1+02501+01801999999ADDGA1021+007809999GF102991999999999999999999MA1101801999999MW1001REMMET045FMEP 011000Z 14010KT 9999 FEW026 25/18 Q1018;EQDQ01+000000PRSWM2
0162619840999992000080111004-21320+055480FM-15+0053FMEP V0201501N005110180019N0112651N1+02401+01801999999ADDGA1021+007809999GA2071+018009999GF107991999999999999999999MA1101801999999MW1001REMMET052FMEP 011100Z 15010KT 9999 FEW026 BKN060 24/18 Q1018;EQDQ01+000000PRSWM2
0165619840999992000080113004-21320+055480FM-15+0053FMEP V0201401N005112200019N0112651N1+02301+01801999999ADDGA1021+005409029GA2021+018009999GF104991999999999999999999MA1101801999999MW1001REMMET055FMEP 011300Z 14010KT 9999 FEW018TCU SCT060 23/18 Q1018;EQDQ01+000000PRSWM2
0162619840999992000080203004-21320+055480FM-15+0053FMEP V0201101N004110150019N0112651N1+02101+01801999999ADDGA1021+006309999GA2071+015009999GF107991999999999999999999MA1101901999999MW1001REMMET052FMEP 020300Z 11008KT 9999 FEW021 BKN050 21/18 Q1019;EQDQ01+000000PRSWM2
0162619840999992000080204004-21320+055480FM-15+0053FMEP V0201201N006212200019N0112651N1+02201+01901999999ADDGA1021+006309999GA2021+015009999GF104991999999999999999999MA1102001999999MW1001REMMET052FMEP 020400Z 12012KT 9999 FEW021 SCT050 22/19 Q1020;EQDQ01+000000PRSWM2
0165619840999992000080205004-21320+055480FM-15+0053FMEP V0201301N007712200019N0112651N1+02401+01901999999ADDGA1021+006309029GA2021+018009999GF104991999999999999999999MA1102101999999MW1001REMMET055FMEP 020500Z 13015KT 9999 FEW021TCU SCT066 24/19 Q1021;EQDQ01+000000PRSWM2
0165619840999992000080206004-21320+055480FM-15+0053FMEP V0201301N008212200019N0112651N1+02401+01901999999ADDGA1021+004509029GA2021+018009999GF104991999999999999999999MA1102101999999MW1001REMMET055FMEP 020600Z 13016KT 9999 FEW015TCU SCT066 24/19 Q1021;EQDQ01+000000PRSWM2
0165619840999992000080207004-21320+055480FM-15+0053FMEP V0201401N008712200019N0112651N1+02401+01901999999ADDGA1021+004509029GA2021+018009999GF104991999999999999999999MA1102101999999MW1001REMMET055FMEP 020700Z 14017KT 9999 FEW015TCU SCT066 24/19 Q1021;EQDQ01+000000PRSWM2
0165619840999992000080208004-21320+055480FM-15+0053FMEP V0201401N008712200019N0112651N1+02401+01901999999ADDGA1021+004509029GA2021+018009999GF104991999999999999999999MA1102001999999MW1001REMMET055FMEP 020800Z 14017KT 9999 FEW015TCU SCT066 24/19 Q1020;EQDQ01+000000PRSWM2
0165619840999992000080209004-21320+055480FM-15+0053FMEP V0201401N009312200019N0112651N1+02401+01901999999ADDGA1021+004509029GA2021+018009999GF104991999999999999999999MA1102001999999MW1001REMMET055FMEP 020900Z 14018KT 9999 FEW015TCU SCT066 24/19 Q1020;EQDQ01+000000PRSWM2
0165619840999992000080210004-21320+055480FM-15+0053FMEP V0201401N009812200019N0112651N1+02401+02001999999ADDGA1021+004509029GA2021+018009999GF104991999999999999999999MA1101901999999MW1001REMMET055FMEP 021000Z 14019KT 9999 FEW015TCU SCT066 24/20 Q1019;EQDQ01+000000PRSWM2
0186619840999992000080211004-21320+055480FM-15+0053FMEP V0201401N010312200019N0080001N1+02401+02001999999ADDGA1021+003909029GA2021+018009999GF104991999999999999999999MA1101901999999MW1161REMMET060FMEP 021100Z 14020KT 8000 VCSH FEW013TCU SCT066 24/20 Q1019;EQDQ01+000003PRSWM1Q02    003PRSWM1
0186619840999992000080212004-21320+055480FM-15+0053FMEP V0201401N010312200019N0080001N1+02301+01901999999ADDGA1021+003909029GA2021+018009999GF104991999999999999999999MA1101901999999MW1161REMMET060FMEP 021200Z 14020KT 8000 VCSH FEW013TCU SCT066 23/19 Q1019;EQDQ01+000003PRSWM1Q02    003PRSWM1
0186619840999992000080213004-21320+055480FM-15+0053FMEP V0201401N010812200019N0080001N1+02301+01901999999ADDGA1021+003909029GA2021+018009999GF104991999999999999999999MA1101901999999MW1161REMMET060FMEP 021300Z 14021KT 8000 VCSH FEW013TCU SCT066 23/19 Q1019;EQDQ01+000003PRSWM1Q02    003PRSWM1
0164619840999992000080303004-21320+055480FM-15+0053FMEP V0201201N00981220001CN0060001N1+02101+01901999999ADDGA1071+001809029GA2021+015009999MW1631OC101491REMMET055FMEP 030300Z 12019G29KT 6000 RA BKN006TCU SCT050 21/19;EQDQ01+000042SCOTCVQ02+000003PRSWM1Q03    003PRSWM1
0139619840999992000080304004-21320+055480FM-15+0053FMEP V0201201N009312200019N0112651N1+02101+01901999999ADDGA1021+006009999GF104991999999999999999999MA1102201999999MW1001REMMET045FMEP 030400Z 12018KT 9999 SCT020 21/19 Q1022;EQDQ01+000000PRSWM2
0183619840999992000080306004-21320+055480FM-15+0053FMEP V0201201N008712200019N0112651N1+02201+01901999999ADDGA1021+004809999GA2021+018009999GF104991999999999999999999MA1102301999999MW1161REMMET057FMEP 030600Z 12017KT 9999 VCSH FEW016 SCT060 22/19 Q1023;EQDQ01+000003PRSWM1Q02    003PRSWM1
0183619840999992000080307004-21320+055480FM-15+0053FMEP V0201201N011310180019N0112651N1+02301+01901999999ADDGA1021+004809999GA2071+018009999GF107991999999999999999999MA1102301999999MW1161REMMET057FMEP 030700Z 12022KT 9999 VCSH SCT016 BKN063 23/19 Q1023;EQDQ01+000003PRSWM1Q02    003PRSWM1
0165619840999992000080308004-21320+055480FM-15+0053FMEP V0201201N012312200019N0112651N1+02401+01901999999ADDGA1021+004809029GA2021+015009999GF104991999999999999999999MA1102201999999MW1001REMMET055FMEP 030800Z 12024KT 9999 FEW016TCU SCT056 24/19 Q1022;EQDQ01+000000PRSWM2
0153619840999992000080309004-21320+055480FM-15+0053FMEP V0201301N012912200019N0112651N1+02401+01901999999ADDGA1021+004509029GF102991999999999999999999MA1102101999999MW1001OC101901REMMET051FMEP 030900Z 13025G37KT 9999 FEW015TCU 24/19 Q1021;EQDQ01+000000PRSWM2
0153619840999992000080310004-21320+055480FM-15+0053FMEP V0201301N013912200019N0112651N1+02501+01901999999ADDGA1021+004509029GF102991999999999999999999MA1102001999999MW1001OC102011REMMET051FMEP 031000Z 13027G39KT 9999 FEW015TCU 25/19 Q1020;EQDQ01+000000PRSWM2
0142619840999992000080311004-21320+055480FM-15+0053FMEP V0201301N014412200019N0112651N1+02401+01901999999ADDGA1021+004509029GF102991999999999999999999MA1102001999999MW1001REMMET048FMEP 031100Z 13028KT 9999 FEW015TCU 24/19 Q1020;EQDQ01+000000PRSWM2
0186619840999992000080312004-21320+055480FM-15+0053FMEP V0201201N013912200019N0080001N1+02301+01901999999ADDGA1021+004509029GA2021+018009999GF104991999999999999999999MA1102001999999MW1161REMMET060FMEP 031200Z 12027KT 8000 VCSH FEW015TCU SCT066 23/19 Q1020;EQDQ01+000003PRSWM1Q02    003PRSWM1
0171619840999992000080313004-21320+055480FM-15+0053FMEP V0201201N012912200019N0080001N1+02301+01801999999ADDGA1021+004509999GF102991999999999999999999MA1102101999999MW1161OC101851REMMET053FMEP 031300Z 12025G36KT 8000 VCSH FEW015 23/18 Q1021;EQDQ01+000003PRSWM1Q02    003PRSWM1
0091619840999992000080316004-21320+055480FM-15+0053FMEP V0201201N01231220001CN0099001N1+02101+01801999999ADDMA1102301999999MW1001REMMET039FMEP 031600Z 12024KT CAVOK 21/18 Q1023;EQDQ01+000000PRSWM2
0162619840999992000080403004-21320+055480FM-15+0053FMEP V0201101N009812200019N0112651N1+02101+01701999999ADDGA1021+006309999GA2021+018009999GF104991999999999999999999MA1102301999999MW1001REMMET052FMEP 040300Z 11019KT 9999 FEW021 SCT066 21/17 Q1023;EQDQ01+000000PRSWM2
0139619840999992000080404004-21320+055480FM-15+0053FMEP V0201101N007212200019N0112651N1+02101+01701999999ADDGA1021+006309999GF102991999999999999999999MA1102301999999MW1001REMMET045FMEP 040400Z 11014KT 9999 FEW021 21/17 Q1023;EQDQ01+000000PRSWM2
0150619840999992000080405004-21320+055480FM-15+0053FMEP V0201201N010312200019N0112651N1+02301+01701999999ADDGA1021+006309999GF102991999999999999999999MA1102301999999MW1001OC101541REMMET048FMEP 040500Z 12020G30KT 9999 FEW021 23/17 Q1023;EQDQ01+000000PRSWM2
0173619840999992000080406004-21320+055480FM-15+0053FMEP V0201201N011812200019N0112651N1+02401+01801999999ADDGA1021+006309999GA2021+018009999GF104991999999999999999999MA1102401999999MW1001OC101701REMMET055FMEP 040600Z 12023G33KT 9999 FEW021 SCT066 24/18 Q1024;EQDQ01+000000PRSWM2
0150619840999992000080407004-21320+055480FM-15+0053FMEP V0201201N012912200019N0112651N1+02401+01701999999ADDGA1021+006309999GF102991999999999999999999MA1102301999999MW1001OC101801REMMET048FMEP 040700Z 12025G35KT 9999 FEW021 24/17 Q1023;EQDQ01+000000PRSWM2
0150619840999992000080408004-21320+055480FM-15+0053FMEP V0201301N011812200019N0112651N1+02501+01701999999ADDGA1021+006309999GF102991999999999999999999MA1102201999999MW1001OC101701REMMET048FMEP 040800Z 13023G33KT 9999 FEW021 25/17 Q1022;EQDQ01+000000PRSWM2
0139619840999992000080409004-21320+055480FM-15+0053FMEP V0201301N012312200019N0112651N1+02501+01701999999ADDGA1021+006309999GF102991999999999999999999MA1102101999999MW1001REMMET045FMEP 040900Z 13024KT 9999 FEW021 25/17 Q1021;EQDQ01+000000PRSWM2
0139619840999992000080412004-21320+055480FM-15+0053FMEP V0201201N009312200019N0112651N1+02401+01601999999ADDGA1021+007809999GF102991999999999999999999MA1102001999999MW1001REMMET045FMEP 041200Z 12018KT 9999 FEW026 24/16 Q1020;EQDQ01+000000PRSWM2
0139619840999992000080413004-21320+055480FM-15+0053FMEP V0201301N009812200019N0112651N1+02301+01501999999ADDGA1021+007809999GF102991999999999999999999MA1102001999999MW1001REMMET045FMEP 041300Z 13019KT 9999 FEW026 23/15 Q1020;EQDQ01+000000PRSWM2
0139619840999992000080414004-21320+055480FM-15+0053FMEP V0201101N006212200019N0112651N1+02101+01501999999ADDGA1021+013809999GF102991999999999999999999MA1102101999999MW1001REMMET045FMEP 041400Z 11012KT 9999 FEW046 21/15 Q1021;EQDQ01+000000PRSWM2
0139619840999992000080503004-21320+055480FM-15+0053FMEP V0200201N004112200019N0112651N1+01701+01001999999ADDGA1021+012009999GF102991999999999999999999MA1102101999999MW1001REMMET045FMEP 050300Z 02008KT 9999 FEW040 17/10 Q1021;EQDQ01+000000PRSWM2
0139619840999992000080504004-21320+055480FM-15+0053FMEP V0200401N002612200019N0112651N1+01901+01001999999ADDGA1021+012009999GF102991999999999999999999MA1102101999999MW1001REMMET045FMEP 050400Z 04005KT 9999 FEW040 19/10 Q1021;EQDQ01+000000PRSWM2
0147619840999992000080505004-21320+055480FM-15+0053FMEP V0201601N002112200019N0112651N1+02301+01101999999ADDGA1021+012009999GF102991999999999999999999MA1102201999999MW1001REMMET053FMEP 050500Z 16004KT 120V190 9999 FEW040 23/11 Q1022;EQDQ01+000000PRSWM2
0147619840999992000080506004-21320+055480FM-15+0053FMEP V0201601N002612200019N0112651N1+02401+01401999999ADDGA1021+012909999GF102991999999999999999999MA1102201999999MW1001REMMET053FMEP 050600Z 16005KT 110V230 9999 FEW043 24/14 Q1022;EQDQ01+000000PRSWM2
0147619840999992000080507004-21320+055480FM-15+0053FMEP V0201201N005112200019N0112651N1+02501+01401999999ADDGA1021+011409999GF102991999999999999999999MA1102101999999MW1001REMMET053FMEP 050700Z 12010KT 070V160 9999 FEW038 25/14 Q1021;EQDQ01+000000PRSWM2
0139619840999992000080508004-21320+055480FM-15+0053FMEP V0201401N008712200019N0112651N1+02501+01501999999ADDGA1021+009309999GF102991999999999999999999MA1102101999999MW1001REMMET045FMEP 050800Z 14017KT 9999 FEW031 25/15 Q1021;EQDQ01+000000PRSWM2
0142619840999992000080509004-21320+055480FM-15+0053FMEP V0201401N009812200019N0112651N1+02501+01501999999ADDGA1021+009009029GF102991999999999999999999MA1102001999999MW1001REMMET048FMEP 050900Z 14019KT 9999 FEW030TCU 25/15 Q1020;EQDQ01+000000PRSWM2
0142619840999992000080510004-21320+055480FM-15+0053FMEP V0201301N010812200019N0112651N1+02401+01501999999ADDGA1021+009009029GF102991999999999999999999MA1101901999999MW1001REMMET048FMEP 051000Z 13021KT 9999 FEW030TCU 24/15 Q1019;EQDQ01+000000PRSWM2
0139619840999992000080511004-21320+055480FM-15+0053FMEP V0201301N010312200019N0112651N1+02401+01701999999ADDGA1021+010509999GF102991999999999999999999MA1101801999999MW1001REMMET045FMEP 051100Z 13020KT 9999 FEW035 24/17 Q1018;EQDQ01+000000PRSWM2
0139619840999992000080512004-21320+055480FM-15+0053FMEP V0201301N009312200019N0112651N1+02401+01701999999ADDGA1021+010509999GF102991999999999999999999MA1101801999999MW1001REMMET045FMEP 051200Z 13018KT 9999 FEW035 24/17 Q1018;EQDQ01+000000PRSWM2
0139619840999992000080513004-21320+055480FM-15+0053FMEP V0201301N007212200019N0112651N1+02301+01601999999ADDGA1021+009909999GF102991999999999999999999MA1101801999999MW1001REMMET045FMEP 051300Z 13014KT 9999 FEW033 23/16 Q1018;EQDQ01+000000PRSWM2
0165619840999992000080603004-21320+055480FM-15+0053FMEP V0201201N005110390019N0112651N1+02001+01601999999ADDGA1021+004809029GA2071+039009999GF107991999999999999999999MA1101901999999MW1001REMMET055FMEP 060300Z 12010KT 9999 FEW016TCU BKN130 20/16 Q1019;EQDQ01+000000PRSWM2
0152619840999992000080604004-21320+055480FM-15+0053FMEP V0201201N004110390019N0112651N1+02101+01601999999ADDGA1021+003909029GA2071+039009999GF107991999999999999999999MW1001REMMET057FMEP 060400Z 12008KT 080V150 9999 FEW013TCU BKN130 21/16;EQDQ01+000000PRSWM2
0165619840999992000080605004-21320+055480FM-15+0053FMEP V0201201N006712200019N0112651N1+02201+01401999999ADDGA1021+003909029GA2021+039009999GF104991999999999999999999MA1102001999999MW1001REMMET055FMEP 060500Z 12013KT 9999 FEW013TCU SCT130 22/14 Q1020;EQDQ01+000000PRSWM2
0165619840999992000080606004-21320+055480FM-15+0053FMEP V0201401N008712200019N0112651N1+02401+01601999999ADDGA1021+003309029GA2021+039009999GF104991999999999999999999MA1101901999999MW1001REMMET055FMEP 060600Z 14017KT 9999 FEW011TCU SCT130 24/16 Q1019;EQDQ01+000000PRSWM2
0165619840999992000080607004-21320+055480FM-15+0053FMEP V0201301N009312200019N0112651N1+02501+01601999999ADDGA1021+003909029GA2021+045009999GF104991999999999999999999MA1101901999999MW1001REMMET055FMEP 060700Z 13018KT 9999 FEW013TCU SCT150 25/16 Q1019;EQDQ01+000000PRSWM2
0185619840999992000080612004-21320+055480FM-15+0053FMEP V0201201N006210390019N0112651N1+02301+01501999999ADDGA1021+005409999GA2021+021009999GA3071+039009999GF107991999999999999999999MA1101691999999MW1001REMMET059FMEP 061200Z 12012KT 9999 FEW018 SCT070 BKN130 23/15 Q1017;EQDQ01+000000PRSWM2
0185619840999992000080613004-21320+055480FM-15+0053FMEP V0201201N006210390019N0112651N1+02201+01701999999ADDGA1021+009309999GA2021+021009999GA3071+039009999GF107991999999999999999999MA1101801999999MW1001REMMET059FMEP 061300Z 12012KT 9999 FEW031 SCT070 BKN130 22/17 Q1018;EQDQ01+000000PRSWM2
0162619840999992000080614004-21320+055480FM-15+0053FMEP V0201201N006210450019N0112651N1+02201+01601999999ADDGA1021+009909999GA2071+045009999GF107991999999999999999999MA1101801999999MW1001REMMET052FMEP 061400Z 12012KT 9999 FEW033 BKN150 22/16 Q1018;EQDQ01+000000PRSWM2
0162619840999992000080615004-21320+055480FM-15+0053FMEP V0201101N003112200019N0112651N1+02101+01501999999ADDGA1021+009909999GA2021+048009999GF104991999999999999999999MA1101901999999MW1001REMMET052FMEP 061500Z 11006KT 9999 FEW033 SCT160 21/15 Q1019;EQDQ01+000000PRSWM2
0170619840999992000080703004-21320+055480FM-15+0053FMEP V0200501N003110180019N0112651N1+01901+01401999999ADDGA1021+003009999GA2071+018009999GF107991999999999999999999MA1101801999999MW1001REMMET060FMEP 070300Z 05006KT 360V090 9999 SCT010 BKN060 19/14 Q1018;EQDQ01+000000PRSWM2
0162619840999992000080704004-21320+055480FM-15+0053FMEP V0201201N008710180019N0112651N1+02201+01701999999ADDGA1021+003909999GA2071+018009999GF107991999999999999999999MA1101901999999MW1001REMMET052FMEP 070400Z 12017KT 9999 SCT013 BKN063 22/17 Q1019;EQDQ01+000000PRSWM2
0183619840999992000080705004-21320+055480FM-15+0053FMEP V0201301N007710180019N0112651N1+02201+01701999999ADDGA1021+003009999GA2071+018009999GF107991999999999999999999MA1101901999999MW1161REMMET057FMEP 070500Z 13015KT 9999 VCSH SCT010 BKN063 22/17 Q1019;EQDQ01+000003PRSWM1Q02    003PRSWM1
0162619840999992000080706004-21320+055480FM-15+0053FMEP V0201201N009810210019N0112651N1+02301+01601999999ADDGA1021+003009999GA2071+021009999GF107991999999999999999999MA1101901999999MW1001REMMET052FMEP 070600Z 12019KT 9999 SCT010 BKN073 23/16 Q1019;EQDQ01+000000PRSWM2
0162619840999992000080707004-21320+055480FM-15+0053FMEP V0201101N009810180019N0112651N1+02301+01601999999ADDGA1021+003009999GA2071+018009999GF107991999999999999999999MA1101901999999MW1001REMMET052FMEP 070700Z 11019KT 9999 SCT010 BKN066 23/16 Q1019;EQDQ01+000000PRSWM2
0162619840999992000080708004-21320+055480FM-15+0053FMEP V0201201N009310180019N0112651N1+02401+01701999999ADDGA1021+003009999GA2071+018009999GF107991999999999999999999MA1101901999999MW1001REMMET052FMEP 070800Z 12018KT 9999 FEW010 BKN066 24/17 Q1019;EQDQ01+000000PRSWM2
0162619840999992000080709004-21320+055480FM-15+0053FMEP V0201201N008210180019N0112651N1+02501+01801999999ADDGA1021+003009999GA2071+018009999GF107991999999999999999999MA1101801999999MW1001REMMET052FMEP 070900Z 12016KT 9999 FEW010 BKN066 25/18 Q1018;EQDQ01+000000PRSWM2
0162619840999992000080711004-21320+055480FM-15+0053FMEP V0201301N010312200019N0112651N1+02401+01801999999ADDGA1021+003009999GA2021+018009999GF104991999999999999999999MA1101691999999MW1001REMMET052FMEP 071100Z 13020KT 9999 FEW010 SCT066 24/18 Q1017;EQDQ01+000000PRSWM2
0162619840999992000080713004-21320+055480FM-15+0053FMEP V0201301N008712200019N0112651N1+02301+01701999999ADDGA1021+003009999GA2021+018009999GF104991999999999999999999MA1101801999999MW1001REMMET052FMEP 071300Z 13017KT 9999 FEW010 SCT066 23/17 Q1018;EQDQ01+000000PRSWM2
0142619840999992000080803004-21320+055480FM-15+0053FMEP V0200901N003112200019N0112651N1+01901+01401999999ADDGA1021+007809029GF102991999999999999999999MA1101901999999MW1001REMMET048FMEP 080300Z 09006KT 9999 FEW026TCU 19/14 Q1019;EQDQ01+000000PRSWM2
0139619840999992000080804004-21320+055480FM-15+0053FMEP V0201201N007212200019N0112651N1+02201+01701999999ADDGA1021+007809999GF102991999999999999999999MA1102001999999MW1001REMMET045FMEP 080400Z 12014KT 9999 FEW026 22/17 Q1020;EQDQ01+000000PRSWM2
0139619840999992000080805004-21320+055480FM-15+0053FMEP V0201301N008712200019N0112651N1+02301+01701999999ADDGA1021+007809999GF102991999999999999999999MA1102001999999MW1001REMMET045FMEP 080500Z 13017KT 9999 FEW026 23/17 Q1020;EQDQ01+000000PRSWM2
0139619840999992000080806004-21320+055480FM-15+0053FMEP V0201301N009812200019N0112651N1+02401+01801999999ADDGA1021+007809999GF102991999999999999999999MA1102001999999MW1001REMMET045FMEP 080600Z 13019KT 9999 FEW026 24/18 Q1020;EQDQ01+000000PRSWM2
0162619840999992000080807004-21320+055480FM-15+0053FMEP V0201301N009812200019N0112651N1+02501+01801999999ADDGA1021+007809999GA2021+045009999GF104991999999999999999999MA1102001999999MW1001REMMET052FMEP 080700Z 13019KT 9999 FEW026 SCT150 25/18 Q1020;EQDQ01+000000PRSWM2
0165619840999992000080808004-21320+055480FM-15+0053FMEP V0201401N009812200019N0112651N1+02501+01801999999ADDGA1021+007509029GA2021+045009999GF104991999999999999999999MA1101901999999MW1001REMMET055FMEP 080800Z 14019KT 9999 FEW025TCU SCT150 25/18 Q1019;EQDQ01+000000PRSWM2
0165619840999992000080809004-21320+055480FM-15+0053FMEP V0201401N010312200019N0112651N1+02501+01701999999ADDGA1021+005409029GA2021+024009999GF104991999999999999999999MA1101901999999MW1001REMMET055FMEP 080900Z 14020KT 9999 FEW018TCU SCT080 25/17 Q1019;EQDQ01+000000PRSWM2
0162619840999992000080810004-21320+055480FM-15+0053FMEP V0201401N010310450019N0112651N1+02501+01801999999ADDGA1021+003909999GA2071+045009999GF107991999999999999999999MA1101801999999MW1001REMMET052FMEP 081000Z 14020KT 9999 FEW013 BKN150 25/18 Q1018;EQDQ01+000000PRSWM2
0185619840999992000080811004-21320+055480FM-15+0053FMEP V0201401N009810390019N0112651N1+02401+01701999999ADDGA1021+003909999GA2021+024009999GA3071+039009999GF107991999999999999999999MA1101801999999MW1001REMMET059FMEP 081100Z 14019KT 9999 FEW013 SCT080 BKN130 24/17 Q1018;EQDQ01+000000PRSWM2
0162619840999992000080812004-21320+055480FM-15+0053FMEP V0201301N009810450019N0112651N1+02301+01701999999ADDGA1021+003909999GA2071+045009999GF107991999999999999999999MA1101801999999MW1001REMMET052FMEP 081200Z 13019KT 9999 FEW013 BKN150 23/17 Q1018;EQDQ01+000000PRSWM2
0162619840999992000080813004-21320+055480FM-15+0053FMEP V0201301N010312200019N0112651N1+02201+01601999999ADDGA1021+003909999GA2021+045009999GF104991999999999999999999MA1101901999999MW1001REMMET052FMEP 081300Z 13020KT 9999 FEW013 SCT150 22/16 Q1019;EQDQ01+000000PRSWM2
0139619840999992000080903004-21320+055480FM-15+0053FMEP V0201101N005112200019N0112651N1+02001+01501999999ADDGA1021+003009999GF102991999999999999999999MA1102001999999MW1001REMMET045FMEP 090300Z 11010KT 9999 FEW010 20/15 Q1020;EQDQ01+000000PRSWM2
0163619840999992000080904004-21320+055480FM-15+0053FMEP V0201201N005112200019N0112651N1+02201+01501999999ADDGA1021+003009029GF104991999999999999999999MA1102101999999MW1161REMMET053FMEP 090400Z 12010KT 9999 VCSH SCT010TCU 22/15 Q1021;EQDQ01+000003PRSWM1Q02    003PRSWM1
0142619840999992000080905004-21320+055480FM-15+0053FMEP V0201301N008212200019N0112651N1+02301+01701999999ADDGA1021+003909029GF104991999999999999999999MA1102101999999MW1001REMMET048FMEP 090500Z 13016KT 9999 SCT013TCU 23/17 Q1021;EQDQ01+000000PRSWM2
0162619840999992000080906004-21320+055480FM-15+0053FMEP V0201301N010312200019N0112651N1+02401+01701999999ADDGA1021+003909999GA2021+015009999GF104991999999999999999999MA1102101999999MW1001REMMET052FMEP 090600Z 13020KT 9999 FEW013 SCT056 24/17 Q1021;EQDQ01+000000PRSWM2
0139619840999992000080907004-21320+055480FM-15+0053FMEP V0201301N010312200019N0112651N1+02501+01601999999ADDGA1021+015009999GF102991999999999999999999MA1102101999999MW1001REMMET045FMEP 090700Z 13020KT 9999 FEW056 25/16 Q1021;EQDQ01+000000PRSWM2
0139619840999992000080908004-21320+055480FM-15+0053FMEP V0201401N011312200019N0112651N1+02501+01701999999ADDGA1021+015009999GF102991999999999999999999MA1102001999999MW1001REMMET045FMEP 090800Z 14022KT 9999 FEW053 25/17 Q1020;EQDQ01+000000PRSWM2
0139619840999992000080910004-21320+055480FM-15+0053FMEP V0201401N011812200019N0112651N1+02501+01701999999ADDGA1021+004809999GF102991999999999999999999MA1101901999999MW1001REMMET045FMEP 091000Z 14023KT 9999 FEW016 25/17 Q1019;EQDQ01+000000PRSWM2
0139619840999992000080911004-21320+055480FM-15+0053FMEP V0201301N011812200019N0112651N1+02401+01701999999ADDGA1021+003009999GF102991999999999999999999MA1101901999999MW1001REMMET045FMEP 091100Z 13023KT 9999 FEW010 24/17 Q1019;EQDQ01+000000PRSWM2
0162619840999992000080912004-21320+055480FM-15+0053FMEP V0201301N010312200019N0112651N1+02401+01701999999ADDGA1021+003909999GA2021+015009999GF104991999999999999999999MA1101901999999MW1001REMMET052FMEP 091200Z 13020KT 9999 FEW013 SCT056 24/17 Q1019;EQDQ01+000000PRSWM2
0162619840999992000080913004-21320+055480FM-15+0053FMEP V0201301N010310150019N0112651N1+02201+01601999999ADDGA1021+003909999GA2071+015009999GF107991999999999999999999MA1101901999999MW1001REMMET052FMEP 091300Z 13020KT 9999 FEW013 BKN056 22/16 Q1019;EQDQ01+000000PRSWM2
0139619840999992000081003004-21320+055480FM-15+0053FMEP V0201001N003612200019N0112651N1+01901+01501999999ADDGA1021+003309999GF102991999999999999999999MA1102101999999MW1001REMMET045FMEP 100300Z 10007KT 9999 FEW011 19/15 Q1021;EQDQ01+000000PRSWM2
0139619840999992000081004004-21320+055480FM-15+0053FMEP V0201101N005112200019N0112651N1+02101+01501999999ADDGA1021+006909999GF102991999999999999999999MA1102101999999MW1001REMMET045FMEP 100400Z 11010KT 9999 FEW023 21/15 Q1021;EQDQ01+000000PRSWM2
0139619840999992000081005004-21320+055480FM-15+0053FMEP V0201301N007712200019N0112651N1+02301+01501999999ADDGA1021+006909999GF102991999999999999999999MA1102101999999MW1001REMMET045FMEP 100500Z 13015KT 9999 FEW023 23/15 Q1021;EQDQ01+000000PRSWM2
0139619840999992000081007004-21320+055480FM-15+0053FMEP V0201301N010812200019N0112651N1+02401+01601999999ADDGA1021+010509999GF102991999999999999999999MA1102101999999MW1001REMMET045FMEP 100700Z 13021KT 9999 FEW035 24/16 Q1021;EQDQ01+000000PRSWM2
0139619840999992000081008004-21320+055480FM-15+0053FMEP V0201401N009812200019N0112651N1+02501+01501999999ADDGA1021+010509999GF102991999999999999999999MA1102001999999MW1001REMMET045FMEP 100800Z 14019KT 9999 FEW035 25/15 Q1020;EQDQ01+000000PRSWM2
0139619840999992000081010004-21320+055480FM-15+0053FMEP V0201401N009812200019N0112651N1+02501+01601999999ADDGA1021+006009999GF102991999999999999999999MA1101801999999MW1001REMMET045FMEP 101000Z 14019KT 9999 FEW020 25/16 Q1018;EQDQ01+000000PRSWM2
0139619840999992000081011004-21320+055480FM-15+0053FMEP V0201401N010312200019N0112651N1+02401+01501999999ADDGA1021+006009999GF102991999999999999999999MA1101801999999MW1001REMMET045FMEP 101100Z 14020KT 9999 FEW020 24/15 Q1018;EQDQ01+000000PRSWM2
0139619840999992000081012004-21320+055480FM-15+0053FMEP V0201301N010312200019N0112651N1+02301+01501999999ADDGA1021+006009999GF102991999999999999999999MA1101801999999MW1001REMMET045FMEP 101200Z 13020KT 9999 FEW020 23/15 Q1018;EQDQ01+000000PRSWM2
0163619840999992000081013004-21320+055480FM-15+0053FMEP V0201301N010812200019N0112651N1+02201+01601999999ADDGA1021+003909029GF104991999999999999999999MA1101801999999MW1161REMMET053FMEP 101300Z 13021KT 9999 VCSH SCT013TCU 22/16 Q1018;EQDQ01+000003PRSWM1Q02    003PRSWM1
0139619840999992000081103004-21320+055480FM-15+0053FMEP V0200901N004112200019N0112651N1+02001+01301999999ADDGA1021+004809999GF104991999999999999999999MA1101901999999MW1001REMMET045FMEP 110300Z 09008KT 9999 SCT016 20/13 Q1019;EQDQ01+000000PRSWM2
0162619840999992000081104004-21320+055480FM-15+0053FMEP V0201001N004110129019N0112651N1+02101+01301999999ADDGA1021+004809999GA2071+012909999GF107991999999999999999999MA1102001999999MW1001REMMET052FMEP 110400Z 10008KT 9999 FEW016 BKN043 21/13 Q1020;EQDQ01+000000PRSWM2
0162619840999992000081105004-21320+055480FM-15+0053FMEP V0201101N006710150019N0112651N1+02201+01301999999ADDGA1021+004809999GA2071+015009999GF107991999999999999999999MA1102001999999MW1001REMMET052FMEP 110500Z 11013KT 9999 FEW016 BKN050 22/13 Q1020;EQDQ01+000000PRSWM2
0162619840999992000081107004-21320+055480FM-15+0053FMEP V0201301N008712200019N0112651N1+02401+01101999999ADDGA1021+009309999GA2021+024009999GF104991999999999999999999MA1102001999999MW1001REMMET052FMEP 110700Z 13017KT 9999 FEW031 SCT080 24/11 Q1020;EQDQ01+000000PRSWM2
0162619840999992000081108004-21320+055480FM-15+0053FMEP V0201301N008712200019N0112651N1+02401+01201999999ADDGA1021+009309999GA2021+024009999GF104991999999999999999999MA1101901999999MW1001REMMET052FMEP 110800Z 13017KT 9999 FEW031 SCT080 24/12 Q1019;EQDQ01+000000PRSWM2
0139619840999992000081110004-21320+055480FM-15+0053FMEP V0201401N008712200019N0112651N1+02401+01101999999ADDGA1021+006909999GF102991999999999999999999MA1101691999999MW1001REMMET045FMEP 111000Z 14017KT 9999 FEW023 24/11 Q1017;EQDQ01+000000PRSWM2
0139619840999992000081112004-21320+055480FM-15+0053FMEP V0201401N008212200019N0112651N1+02301+01301999999ADDGA1021+006909999GF102991999999999999999999MA1101691999999MW1001REMMET045FMEP 111200Z 14016KT 9999 FEW023 23/13 Q1017;EQDQ01+000000PRSWM2
0139619840999992000081113004-21320+055480FM-15+0053FMEP V0201301N008212200019N0112651N1+02201+01401999999ADDGA1021+006009999GF102991999999999999999999MA1101691999999MW1001REMMET045FMEP 111300Z 13016KT 9999 FEW020 22/14 Q1017;EQDQ01+000000PRSWM2
0150619840999992000081114004-21320+055480FM-15+0053FMEP V0201201N008712200019N0112651N1+02101+01401999999ADDGA1021+006009999GF102991999999999999999999MA1101691999999MW1001OC101391REMMET048FMEP 111400Z 12017G27KT 9999 FEW020 21/14 Q1017;EQDQ01+000000PRSWM2
0162619840999992000081204004-21320+055480FM-15+0053FMEP V0201101N005110180019N0112651N1+01901+01401999999ADDGA1021+006309999GA2071+018009999GF107991999999999999999999MA1101901999999MW1001REMMET052FMEP 120400Z 11010KT 9999 FEW021 BKN060 19/14 Q1019;EQDQ01+000000PRSWM2
0162619840999992000081205004-21320+055480FM-15+0053FMEP V0201101N003610180019N0112651N1+02001+01301999999ADDGA1021+006309999GA2071+018009999GF107991999999999999999999MA1101901999999MW1001REMMET052FMEP 120500Z 11007KT 9999 FEW021 BKN060 20/13 Q1019;EQDQ01+000000PRSWM2
0162619840999992000081206004-21320+055480FM-15+0053FMEP V0201301N006712200019N0112651N1+02301+01201999999ADDGA1021+006309999GA2021+018009999GF104991999999999999999999MA1101901999999MW1001REMMET052FMEP 120600Z 13013KT 9999 FEW021 SCT060 23/12 Q1019;EQDQ01+000000PRSWM2
0162619840999992000081207004-21320+055480FM-15+0053FMEP V0201301N009812200019N0112651N1+02301+01401999999ADDGA1021+004809999GA2021+015009999GF104991999999999999999999MA1101901999999MW1001REMMET052FMEP 120700Z 13019KT 9999 FEW016 SCT050 23/14 Q1019;EQDQ01+000000PRSWM2
0162619840999992000081208004-21320+055480FM-15+0053FMEP V0201301N009812200019N0112651N1+02401+01401999999ADDGA1021+004809999GA2021+015009999GF104991999999999999999999MA1101801999999MW1001REMMET052FMEP 120800Z 13019KT 9999 FEW016 SCT050 24/14 Q1018;EQDQ01+000000PRSWM2
0162619840999992000081210004-21320+055480FM-15+0053FMEP V0201301N009812200019N0112651N1+02301+01401999999ADDGA1021+004509999GA2021+018009999GF104991999999999999999999MA1101591999999MW1001REMMET052FMEP 121000Z 13019KT 9999 FEW015 SCT066 23/14 Q1016;EQDQ01+000000PRSWM2
0162619840999992000081211004-21320+055480FM-15+0053FMEP V0201301N010812200019N0112651N1+02401+01301999999ADDGA1021+004509999GA2021+018009999GF104991999999999999999999MA1101591999999MW1001REMMET052FMEP 121100Z 13021KT 9999 FEW015 SCT066 24/13 Q1016;EQDQ01+000000PRSWM2
0139619840999992000081213004-21320+055480FM-15+0053FMEP V0201201N009812200019N0112651N1+02201+01201999999ADDGA1021+004509999GF102991999999999999999999MA1101591999999MW1001REMMET045FMEP 121300Z 12019KT 9999 FEW015 22/12 Q1016;EQDQ01+000000PRSWM2
0139619840999992000081303004-21320+055480FM-15+0053FMEP V0200501N004112200019N0112651N1+01701+01001999999ADDGA1021+006309999GF102991999999999999999999MA1101901999999MW1001REMMET045FMEP 130300Z 05008KT 9999 FEW021 17/10 Q1019;EQDQ01+000000PRSWM2
0139619840999992000081304004-21320+055480FM-15+0053FMEP V0200501N002612200019N0112651N1+02101+00901999999ADDGA1021+006309999GF102991999999999999999999MA1101901999999MW1001REMMET045FMEP 130400Z 05005KT 9999 FEW021 21/09 Q1019;EQDQ01+000000PRSWM2
0147619840999992000081305004-21320+055480FM-15+0053FMEP V0201401N002612200019N0112651N1+02301+01201999999ADDGA1021+006309999GF102991999999999999999999MA1102001999999MW1001REMMET053FMEP 130500Z 14005KT 090V170 9999 FEW021 23/12 Q1020;EQDQ01+000000PRSWM2
0139619840999992000081306004-21320+055480FM-15+0053FMEP V0201501N004612200019N0112651N1+02401+01501999999ADDGA1021+006309999GF102991999999999999999999MA1102001999999MW1001REMMET045FMEP 130600Z 15009KT 9999 FEW021 24/15 Q1020;EQDQ01+000000PRSWM2
0139619840999992000081307004-21320+055480FM-15+0053FMEP V0201401N007712200019N0112651N1+02501+01701999999ADDGA1021+006309999GF102991999999999999999999MA1102001999999MW1001REMMET045FMEP 130700Z 14015KT 9999 FEW021 25/17 Q1020;EQDQ01+000000PRSWM2
0139619840999992000081308004-21320+055480FM-15+0053FMEP V0201301N009312200019N0112651N1+02501+01701999999ADDGA1021+004509999GF102991999999999999999999MA1101901999999MW1001REMMET045FMEP 130800Z 13018KT 9999 FEW015 25/17 Q1019;EQDQ01+000000PRSWM2
0139619840999992000081309004-21320+055480FM-15+0053FMEP V0201301N010312200019N0112651N1+02301+01801999999ADDGA1021+004509999GF102991999999999999999999MA1101901999999MW1001REMMET045FMEP 130900Z 13020KT 9999 FEW015 23/18 Q1019;EQDQ01+000000PRSWM2
0162619840999992000081310004-21320+055480FM-15+0053FMEP V0201301N009312200019N0112651N1+02301+01801999999ADDGA1021+004509999GA2021+018009999GF104991999999999999999999MA1101801999999MW1001REMMET052FMEP 131000Z 13018KT 9999 FEW015 SCT066 23/18 Q1018;EQDQ01+000000PRSWM2
0139619840999992000081311004-21320+055480FM-15+0053FMEP V0201301N009812200019N0112651N1+02301+01801999999ADDGA1021+004509999GF102991999999999999999999MA1101801999999MW1001REMMET045FMEP 131100Z 13019KT 9999 FEW015 23/18 Q1018;EQDQ01+000000PRSWM2
0139619840999992000081312004-21320+055480FM-15+0053FMEP V0201301N010812200019N0112651N1+02301+01801999999ADDGA1021+004509999GF102991999999999999999999MA1101691999999MW1001REMMET045FMEP 131200Z 13021KT 9999 FEW015 23/18 Q1017;EQDQ01+000000PRSWM2
0139619840999992000081313004-21320+055480FM-15+0053FMEP V0201301N011812200019N0112651N1+02101+01801999999ADDGA1021+004509999GF102991999999999999999999MA1101801999999MW1001REMMET045FMEP 131300Z 13023KT 9999 FEW015 21/18 Q1018;EQDQ01+000000PRSWM2
0139619840999992000081315004-21320+055480FM-15+0053FMEP V0201001N005112200019N0112651N1+02001+01701999999ADDGA1021+006309999GF102991999999999999999999MA1101901999999MW1001REMMET045FMEP 131500Z 10010KT 9999 FEW021 20/17 Q1019;EQDQ01+000000PRSWM2
0162619840999992000081404004-21320+055480FM-15+0053FMEP V0200501N001512200019N0112651N1+02101+01701999999ADDGA1021+004809999GA2021+018009999GF104991999999999999999999MA1102001999999MW1001REMMET052FMEP 140400Z 05003KT 9999 FEW016 SCT060 21/17 Q1020;EQDQ01+000000PRSWM2
0139619840999992000081405004-21320+055480FM-15+0053FMEP V0202901N002612200019N0112651N1+02401+01701999999ADDGA1021+015009999GF102991999999999999999999MA1102001999999MW1001REMMET045FMEP 140500Z 29005KT 9999 FEW056 24/17 Q1020;EQDQ01+000000PRSWM2
0147619840999992000081406004-21320+055480FM-15+0053FMEP V0202701N002612200019N0112651N1+02401+01801999999ADDGA1021+012009999GF102991999999999999999999MA1102001999999MW1001REMMET053FMEP 140600Z 27005KT 240V310 9999 FEW040 24/18 Q1020;EQDQ01+000000PRSWM2
0162619840999992000081408004-21320+055480FM-15+0053FMEP V0202801N005712200019N0112651N1+02601+01901999999ADDGA1021+013809999GA2021+045009999GF104991999999999999999999MA1102001999999MW1001REMMET052FMEP 140800Z 28011KT 9999 FEW046 SCT150 26/19 Q1020;EQDQ01+000000PRSWM2
0142619840999992000081409004-21320+055480FM-15+0053FMEP V0202901N006212200019N0112651N1+02701+01801999999ADDGA1021+009009029GF102991999999999999999999MA1101901999999MW1001REMMET048FMEP 140900Z 29012KT 9999 FEW030TCU 27/18 Q1019;EQDQ01+000000PRSWM2
0142619840999992000081410004-21320+055480FM-15+0053FMEP V0202701N004612200019N0112651N1+02601+01801999999ADDGA1021+009909029GF102991999999999999999999MA1101901999999MW1001REMMET048FMEP 141000Z 27009KT 9999 FEW033TCU 26/18 Q1019;EQDQ01+000000PRSWM2
0150619840999992000081411004-21320+055480FM-15+0053FMEP V0203001N003612200019N0112651N1+02601+01701999999ADDGA1021+010509029GF102991999999999999999999MA1101901999999MW1001REMMET056FMEP 141100Z 30007KT 260V340 9999 FEW035TCU 26/17 Q1019;EQDQ01+000000PRSWM2
0142619840999992000081412004-21320+055480FM-15+0053FMEP V0202801N003612200019N0112651N1+02601+01701999999ADDGA1021+010509029GF102991999999999999999999MA1101901999999MW1001REMMET048FMEP 141200Z 28007KT 9999 FEW035TCU 26/17 Q1019;EQDQ01+000000PRSWM2
0162619840999992000081414004-21320+055480FM-15+0053FMEP V0203001N002112200019N0112651N1+02301+01801999999ADDGA1021+007809999GA2021+045009999GF104991999999999999999999MA1101901999999MW1001REMMET052FMEP 141400Z 30004KT 9999 FEW026 SCT150 23/18 Q1019;EQDQ01+000000PRSWM2
0139619840999992000081415004-21320+055480FM-15+0053FMEP V0203401N002112200019N0112651N1+02201+01701999999ADDGA1021+006009999GF102991999999999999999999MA1102001999999MW1001REMMET045FMEP 141500Z 34004KT 9999 FEW020 22/17 Q1020;EQDQ01+000000PRSWM2
0162619840999992000081416004-21320+055480FM-15+0053FMEP V0203601N002612200019N0112651N1+02201+01701999999ADDGA1021+006009999GA2021+048009999GF104991999999999999999999MA1102001999999MW1001REMMET052FMEP 141600Z 36005KT 9999 FEW020 SCT160 22/17 Q1020;EQDQ01+000000PRSWM2
0162619840999992000081503004-21320+055480FM-15+0053FMEP V0200301N002112200019N0112651N1+01901+01501999999ADDGA1021+006309999GA2021+018009999GF104991999999999999999999MA1102001999999MW1001REMMET052FMEP 150300Z 03004KT 9999 FEW021 SCT066 19/15 Q1020;EQDQ01+000000PRSWM2
0139619840999992000081504004-21320+055480FM-15+0053FMEP V0200201N002112200019N0112651N1+02201+01601999999ADDGA1021+006309999GF102991999999999999999999MA1102101999999MW1001REMMET045FMEP 150400Z 02004KT 9999 FEW021 22/16 Q1021;EQDQ01+000000PRSWM2
0142619840999992000081505004-21320+055480FM-15+0053FMEP V0202501N001512200019N0112651N1+02301+01801999999ADDGA1021+004509029GF102991999999999999999999MA1102101999999MW1001REMMET048FMEP 150500Z 25003KT 9999 FEW015TCU 23/18 Q1021;EQDQ01+000000PRSWM2
0142619840999992000081506004-21320+055480FM-15+0053FMEP V0201901N003612200019N0112651N1+02401+01901999999ADDGA1021+004509029GF102991999999999999999999MA1102101999999MW1001REMMET048FMEP 150600Z 19007KT 9999 FEW015TCU 24/19 Q1021;EQDQ01+000000PRSWM2
0142619840999992000081507004-21320+055480FM-15+0053FMEP V0201901N005112200019N0112651N1+02501+01901999999ADDGA1021+004509029GF102991999999999999999999MA1102101999999MW1001REMMET048FMEP 150700Z 19010KT 9999 FEW015TCU 25/19 Q1021;EQDQ01+000000PRSWM2
0142619840999992000081508004-21320+055480FM-15+0053FMEP V0201601N004112200019N0112651N1+02501+01801999999ADDGA1021+004509029GF102991999999999999999999MA1102101999999MW1001REMMET048FMEP 150800Z 16008KT 9999 FEW015TCU 25/18 Q1021;EQDQ01+000000PRSWM2
0142619840999992000081509004-21320+055480FM-15+0053FMEP V0201701N004112200019N0112651N1+02501+01801999999ADDGA1021+004509029GF102991999999999999999999MA1102001999999MW1001REMMET048FMEP 150900Z 17008KT 9999 FEW015TCU 25/18 Q1020;EQDQ01+000000PRSWM2
0150619840999992000081510004-21320+055480FM-15+0053FMEP V0201601N003612200019N0112651N1+02501+01801999999ADDGA1021+004509029GF102991999999999999999999MA1102001999999MW1001REMMET056FMEP 151000Z 16007KT 120V210 9999 FEW015TCU 25/18 Q1020;EQDQ01+000000PRSWM2
0142619840999992000081511004-21320+055480FM-15+0053FMEP V0201401N005112200019N0112651N1+02501+01801999999ADDGA1021+005409029GF102991999999999999999999MA1102001999999MW1001REMMET048FMEP 151100Z 14010KT 9999 FEW018TCU 25/18 Q1020;EQDQ01+000000PRSWM2
0150619840999992000081512004-21320+055480FM-15+0053FMEP V0201601N002612200019N0112651N1+02501+01701999999ADDGA1021+005409029GF102991999999999999999999MA1102001999999MW1001REMMET056FMEP 151200Z 16005KT 140V210 9999 FEW018TCU 25/17 Q1020;EQDQ01+000000PRSWM2
0142619840999992000081513004-21320+055480FM-15+0053FMEP V0201501N003612200019N0112651N1+02401+01701999999ADDGA1021+005409029GF102991999999999999999999MA1102001999999MW1001REMMET048FMEP 151300Z 15007KT 9999 FEW018TCU 24/17 Q1020;EQDQ01+000000PRSWM2
0142619840999992000081603004-21320+055480FM-15+0053FMEP V0200801N003112200019N0112651N1+01801+01301999999ADDGA1021+004509029GF102991999999999999999999MA1102301999999MW1001REMMET048FMEP 160300Z 08006KT 9999 FEW015TCU 18/13 Q1023;EQDQ01+000000PRSWM2
0142619840999992000081604004-21320+055480FM-15+0053FMEP V0201201N002612200019N0112651N1+02101+01401999999ADDGA1021+003909029GF102991999999999999999999MA1102301999999MW1001REMMET048FMEP 160400Z 12005KT 9999 FEW013TCU 21/14 Q1023;EQDQ01+000000PRSWM2
0139619840999992000081605004-21320+055480FM-15+0053FMEP V0201401N007212200019N0112651N1+02301+01701999999ADDGA1021+003909999GF102991999999999999999999MA1102401999999MW1001REMMET045FMEP 160500Z 14014KT 9999 FEW013 23/17 Q1024;EQDQ01+000000PRSWM2
0139619840999992000081606004-21320+055480FM-15+0053FMEP V0201401N008712200019N0112651N1+02401+01901999999ADDGA1021+003009999GF102991999999999999999999MA1102401999999MW1001REMMET045FMEP 160600Z 14017KT 9999 FEW010 24/19 Q1024;EQDQ01+000000PRSWM2
0142619840999992000081607004-21320+055480FM-15+0053FMEP V0201401N009812200019N0112651N1+02501+01801999999ADDGA1021+003309029GF102991999999999999999999MA1102401999999MW1001REMMET048FMEP 160700Z 14019KT 9999 FEW011TCU 25/18 Q1024;EQDQ01+000000PRSWM2
0139619840999992000081608004-21320+055480FM-15+0053FMEP V0201301N009312200019N0112651N1+02501+01801999999ADDGA1021+005409999GF102991999999999999999999MA1102401999999MW1001REMMET045FMEP 160800Z 13018KT 9999 FEW018 25/18 Q1024;EQDQ01+000000PRSWM2
0139619840999992000081609004-21320+055480FM-15+0053FMEP V0201401N010312200019N0112651N1+02501+01701999999ADDGA1021+004809999GF102991999999999999999999MA1102301999999MW1001REMMET045FMEP 160900Z 14020KT 9999 FEW016 25/17 Q1023;EQDQ01+000000PRSWM2
0139619840999992000081610004-21320+055480FM-15+0053FMEP V0201401N010312200019N0112651N1+02401+01801999999ADDGA1021+003309999GF102991999999999999999999MA1102201999999MW1001REMMET045FMEP 161000Z 14020KT 9999 FEW011 24/18 Q1022;EQDQ01+000000PRSWM2
0139619840999992000081611004-21320+055480FM-15+0053FMEP V0201401N010812200019N0112651N1+02401+01801999999ADDGA1021+003309999GF102991999999999999999999MA1102201999999MW1001REMMET045FMEP 161100Z 14021KT 9999 FEW011 24/18 Q1022;EQDQ01+000000PRSWM2
0142619840999992000081612004-21320+055480FM-15+0053FMEP V0201401N011312200019N0112651N1+02301+01801999999ADDGA1021+003009029GF102991999999999999999999MA1102201999999MW1001REMMET048FMEP 161200Z 14022KT 9999 FEW010TCU 23/18 Q1022;EQDQ01+000000PRSWM2
0165619840999992000081613004-21320+055480FM-15+0053FMEP V0201301N009810210019N0112651N1+02201+01801999999ADDGA1021+003009029GA2071+021009999GF107991999999999999999999MA1102201999999MW1001REMMET055FMEP 161300Z 13019KT 9999 SCT010TCU BKN070 22/18 Q1022;EQDQ01+000000PRSWM2
0139619840999992000081703004-21320+055480FM-15+0053FMEP V0201201N007712200019N0112651N1+01801+01301999999ADDGA1021+006309999GF102991999999999999999999MA1102201999999MW1001REMMET045FMEP 170300Z 12015KT 9999 FEW021 18/13 Q1022;EQDQ01+000000PRSWM2
0158619840999992000081704004-21320+055480FM-15+0053FMEP V0200901N005112200019N0112651N1+01901+01101999999ADDGA1021+006309999GF102991999999999999999999MA1102301999999MW1001OC101031REMMET056FMEP 170400Z 09010G20KT 060V130 9999 FEW021 19/11 Q1023;EQDQ01+000000PRSWM2
0139619840999992000081705004-21320+055480FM-15+0053FMEP V0201201N009312200019N0112651N1+02201+01301999999ADDGA1021+006309999GF102991999999999999999999MA1102301999999MW1001REMMET045FMEP 170500Z 12018KT 9999 FEW021 22/13 Q1023;EQDQ01+000000PRSWM2
0139619840999992000081707004-21320+055480FM-15+0053FMEP V0201301N009812200019N0112651N1+02401+01301999999ADDGA1021+006309999GF102991999999999999999999MA1102301999999MW1001REMMET045FMEP 170700Z 13019KT 9999 FEW021 24/13 Q1023;EQDQ01+000000PRSWM2
0139619840999992000081708004-21320+055480FM-15+0053FMEP V0201301N009812200019N0112651N1+02501+01401999999ADDGA1021+006309999GF102991999999999999999999MA1102201999999MW1001REMMET045FMEP 170800Z 13019KT 9999 FEW021 25/14 Q1022;EQDQ01+000000PRSWM2
0139619840999992000081709004-21320+055480FM-15+0053FMEP V0201301N010812200019N0112651N1+02401+01401999999ADDGA1021+006309999GF102991999999999999999999MA1102101999999MW1001REMMET045FMEP 170900Z 13021KT 9999 FEW021 24/14 Q1021;EQDQ01+000000PRSWM2
0139619840999992000081710004-21320+055480FM-15+0053FMEP V0201301N010312200019N0112651N1+02401+01401999999ADDGA1021+007809999GF102991999999999999999999MA1102001999999MW1001REMMET045FMEP 171000Z 13020KT 9999 FEW026 24/14 Q1020;EQDQ01+000000PRSWM2
0139619840999992000081711004-21320+055480FM-15+0053FMEP V0201301N009812200019N0112651N1+02401+01401999999ADDGA1021+008409999GF102991999999999999999999MA1102001999999MW1001REMMET045FMEP 171100Z 13019KT 9999 FEW028 24/14 Q1020;EQDQ01+000000PRSWM2
0139619840999992000081712004-21320+055480FM-15+0053FMEP V0201301N009812200019N0112651N1+02301+01501999999ADDGA1021+012009999GF102991999999999999999999MA1102001999999MW1001REMMET045FMEP 171200Z 13019KT 9999 FEW040 23/15 Q1020;EQDQ01+000000PRSWM2
0139619840999992000081713004-21320+055480FM-15+0053FMEP V0201201N008212200019N0112651N1+02301+01501999999ADDGA1021+012909999GF102991999999999999999999MA1102001999999MW1001REMMET045FMEP 171300Z 12016KT 9999 FEW043 23/15 Q1020;EQDQ01+000000PRSWM2
0139619840999992000081714004-21320+055480FM-15+0053FMEP V0201201N005112200019N0112651N1+02101+01401999999ADDGA1021+013809999GF102991999999999999999999MA1102001999999MW1001REMMET045FMEP 171400Z 12010KT 9999 FEW046 21/14 Q1020;EQDQ01+000000PRSWM2
0147619840999992000081715004-21320+055480FM-15+0053FMEP V0200801N002112200019N0112651N1+01901+01401999999ADDGA1021+015009999GF102991999999999999999999MA1102101999999MW1001REMMET053FMEP 171500Z 08004KT 030V140 9999 FEW050 19/14 Q1021;EQDQ01+000000PRSWM2
0147619840999992000081804004-21320+055480FM-15+0053FMEP V0200701N002612200019N0112651N1+02001+00901999999ADDGA1021+006309999GF102991999999999999999999MA1102301999999MW1001REMMET053FMEP 180400Z 07005KT 010V140 9999 FEW021 20/09 Q1023;EQDQ01+000000PRSWM2
0147619840999992000081805004-21320+055480FM-15+0053FMEP V0201201N002612200019N0112651N1+02301+01101999999ADDGA1021+006309999GF102991999999999999999999MA1102401999999MW1001REMMET053FMEP 180500Z 12005KT 060V180 9999 FEW021 23/11 Q1024;EQDQ01+000000PRSWM2
0139619840999992000081806004-21320+055480FM-15+0053FMEP V0201301N008212200019N0112651N1+02401+01401999999ADDGA1021+006309999GF102991999999999999999999MA1102401999999MW1001REMMET045FMEP 180600Z 13016KT 9999 FEW021 24/14 Q1024;EQDQ01+000000PRSWM2
0139619840999992000081807004-21320+055480FM-15+0053FMEP V0201401N008712200019N0112651N1+02501+01401999999ADDGA1021+004509999GF102991999999999999999999MA1102301999999MW1001REMMET045FMEP 180700Z 14017KT 9999 FEW015 25/14 Q1023;EQDQ01+000000PRSWM2
0139619840999992000081808004-21320+055480FM-15+0053FMEP V0201401N008712200019N0112651N1+02501+01301999999ADDGA1021+009009999GF102991999999999999999999MA1102201999999MW1001REMMET045FMEP 180800Z 14017KT 9999 FEW030 25/13 Q1022;EQDQ01+000000PRSWM2
0139619840999992000081809004-21320+055480FM-15+0053FMEP V0201301N008712200019N0112651N1+02501+01301999999ADDGA1021+009009999GF102991999999999999999999MA1102201999999MW1001REMMET045FMEP 180900Z 13017KT 9999 FEW030 25/13 Q1022;EQDQ01+000000PRSWM2
0139619840999992000081810004-21320+055480FM-15+0053FMEP V0201401N009312200019N0112651N1+02401+01301999999ADDGA1021+009909999GF102991999999999999999999MA1102101999999MW1001REMMET045FMEP 181000Z 14018KT 9999 FEW033 24/13 Q1021;EQDQ01+000000PRSWM2
0139619840999992000081811004-21320+055480FM-15+0053FMEP V0201401N008712200019N0112651N1+02401+01301999999ADDGA1021+010809999GF102991999999999999999999MA1102101999999MW1001REMMET045FMEP 181100Z 14017KT 9999 FEW036 24/13 Q1021;EQDQ01+000000PRSWM2
0139619840999992000081812004-21320+055480FM-15+0053FMEP V0201401N008712200019N0112651N1+02401+01501999999ADDGA1021+010509999GF102991999999999999999999MA1102101999999MW1001REMMET045FMEP 181200Z 14017KT 9999 FEW035 24/15 Q1021;EQDQ01+000000PRSWM2
0162619840999992000081813004-21320+055480FM-15+0053FMEP V0201401N007712200019N0112651N1+02301+01501999999ADDGA1021+010509999GA2021+045009999GF104991999999999999999999MA1102101999999MW1001REMMET052FMEP 181300Z 14015KT 9999 FEW035 SCT150 23/15 Q1021;EQDQ01+000000PRSWM2
0162619840999992000081814004-21320+055480FM-15+0053FMEP V0201301N007212200019N0112651N1+02201+01401999999ADDGA1021+009909999GA2021+045009999GF104991999999999999999999MA1102101999999MW1001REMMET052FMEP 181400Z 13014KT 9999 FEW033 SCT150 22/14 Q1021;EQDQ01+000000PRSWM2
0139619840999992000081815004-21320+055480FM-15+0053FMEP V0201201N005712200019N0112651N1+02101+01401999999ADDGA1021+009309999GF102991999999999999999999MA1102201999999MW1001REMMET045FMEP 181500Z 12011KT 9999 FEW031 21/14 Q1022;EQDQ01+000000PRSWM2
0139619840999992000081903004-21320+055480FM-15+0053FMEP V0200401N003612200019N0112651N1+01701+00901999999ADDGA1021+003909999GF102991999999999999999999MA1102201999999MW1001REMMET045FMEP 190300Z 04007KT 9999 FEW013 17/09 Q1022;EQDQ01+000000PRSWM2
0139619840999992000081904004-21320+055480FM-15+0053FMEP V0200801N003112200019N0112651N1+02001+01001999999ADDGA1021+004809999GF102991999999999999999999MA1102301999999MW1001REMMET045FMEP 190400Z 08006KT 9999 FEW016 20/10 Q1023;EQDQ01+000000PRSWM2
0147619840999992000081905004-21320+055480FM-15+0053FMEP V0201401N002112200019N0112651N1+02201+01101999999ADDGA1021+003909999GF102991999999999999999999MA1102301999999MW1001REMMET053FMEP 190500Z 14004KT 110V180 9999 FEW013 22/11 Q1023;EQDQ01+000000PRSWM2
0139619840999992000081906004-21320+055480FM-15+0053FMEP V0201401N004612200019N0112651N1+02301+01501999999ADDGA1021+004809999GF102991999999999999999999MA1102301999999MW1001REMMET045FMEP 190600Z 14009KT 9999 FEW016 23/15 Q1023;EQDQ01+000000PRSWM2
0139619840999992000081907004-21320+055480FM-15+0053FMEP V0201401N005712200019N0112651N1+02401+01601999999ADDGA1021+009009999GF102991999999999999999999MA1102301999999MW1001REMMET045FMEP 190700Z 14011KT 9999 FEW030 24/16 Q1023;EQDQ01+000000PRSWM2
0139619840999992000081908184-21320+055480FM-15+0053FMEP V0201401N005112200019N0112651N1+02501+01601999999ADDGA1021+009009999GF102991999999999999999999MA1102201999999MW1001REMMET045FMEP 190818Z 14010KT 9999 FEW030 25/16 Q1022;EQDQ01+000000PRSWM2
0139619840999992000081910004-21320+055480FM-15+0053FMEP V0201501N004112200019N0112651N1+02501+01501999999ADDGA1021+006909999GF102991999999999999999999MA1102101999999MW1001REMMET045FMEP 191000Z 15008KT 9999 FEW023 25/15 Q1021;EQDQ01+000000PRSWM2
0139619840999992000081911004-21320+055480FM-15+0053FMEP V0201801N003112200019N0112651N1+02501+01401999999ADDGA1021+018009999GF102991999999999999999999MA1102101999999MW1001REMMET045FMEP 191100Z 18006KT 9999 FEW060 25/14 Q1021;EQDQ01+000000PRSWM2
0147619840999992000081912004-21320+055480FM-15+0053FMEP V0202001N002612200019N0112651N1+02501+01301999999ADDGA1021+015009999GF102991999999999999999999MA1102101999999MW1001REMMET053FMEP 191200Z 20005KT 140V240 9999 FEW056 25/13 Q1021;EQDQ01+000000PRSWM2
0139619840999992000081913004-21320+055480FM-15+0053FMEP V0202101N001512200019N0112651N1+02401+01401999999ADDGA1021+018009999GF102991999999999999999999MA1102101999999MW1001REMMET045FMEP 191300Z 21003KT 9999 FEW060 24/14 Q1021;EQDQ01+000000PRSWM2
0091619840999992000082003004-21320+055480FM-15+0053FMEP V0200601N00311220001CN0099001N1+01701+00801999999ADDMA1102201999999MW1001REMMET039FMEP 200300Z 06006KT CAVOK 17/08 Q1022;EQDQ01+000000PRSWM2
0091619840999992000082004004-21320+055480FM-15+0053FMEP V0200401N00211220001CN0099001N1+02101+01101999999ADDMA1102201999999MW1001REMMET039FMEP 200400Z 04004KT CAVOK 21/11 Q1022;EQDQ01+000000PRSWM2
0147619840999992000082006004-21320+055480FM-15+0053FMEP V0201501N002612200019N0112651N1+02301+01501999999ADDGA1021+003009999GF102991999999999999999999MA1102301999999MW1001REMMET053FMEP 200600Z 15005KT 100V190 9999 FEW010 23/15 Q1023;EQDQ01+000000PRSWM2
0099619840999992000082007004-21320+055480FM-15+0053FMEP V0201401N00311220001CN0099001N1+02401+01601999999ADDMA1102301999999MW1001REMMET047FMEP 200700Z 14006KT 100V170 CAVOK 24/16 Q1023;EQDQ01+000000PRSWM2
0139619840999992000082008004-21320+055480FM-15+0053FMEP V0201701N003612200019N0112651N1+02401+01601999999ADDGA1021+003009999GF102991999999999999999999MA1102201999999MW1001REMMET045FMEP 200800Z 17007KT 9999 FEW010 24/16 Q1022;EQDQ01+000000PRSWM2
0139619840999992000082009004-21320+055480FM-15+0053FMEP V0201601N003612200019N0112651N1+02401+01601999999ADDGA1021+009009999GF102991999999999999999999MA1102201999999MW1001REMMET045FMEP 200900Z 16007KT 9999 FEW030 24/16 Q1022;EQDQ01+000000PRSWM2
0139619840999992000082010004-21320+055480FM-15+0053FMEP V0201801N004112200019N0112651N1+02401+01601999999ADDGA1021+009909999GF102991999999999999999999MA1102101999999MW1001REMMET045FMEP 201000Z 18008KT 9999 FEW033 24/16 Q1021;EQDQ01+000000PRSWM2
0139619840999992000082011004-21320+055480FM-15+0053FMEP V0201701N003612200019N0112651N1+02401+01501999999ADDGA1021+009909999GF102991999999999999999999MA1102101999999MW1001REMMET045FMEP 201100Z 17007KT 9999 FEW033 24/15 Q1021;EQDQ01+000000PRSWM2
0139619840999992000082012004-21320+055480FM-15+0053FMEP V0201701N003112200019N0112651N1+02401+01501999999ADDGA1021+007809999GF102991999999999999999999MA1102101999999MW1001REMMET045FMEP 201200Z 17006KT 9999 FEW026 24/15 Q1021;EQDQ01+000000PRSWM2
0139619840999992000082013004-21320+055480FM-15+0053FMEP V0201901N002612200019N0112651N1+02401+01501999999ADDGA1021+007809999GF102991999999999999999999MA1102101999999MW1001REMMET045FMEP 201300Z 19005KT 9999 FEW026 24/15 Q1021;EQDQ01+000000PRSWM2
0139619840999992000082014004-21320+055480FM-15+0053FMEP V0201601N002112200019N0112651N1+02201+01501999999ADDGA1021+012909999GF102991999999999999999999MA1102101999999MW1001REMMET045FMEP 201400Z 16004KT 9999 FEW043 22/15 Q1021;EQDQ01+000000PRSWM2
0193619840999992000082103004-21320+055480FM-15+0053FMEP V0200301N004612200019N0080001N1+99999+99999999999ADDGA1021+001509999GA2021+003909029GA3021+013809999GF104991999999999999999999MA1102201999999MW1001MW2161REMMET061FMEP 210300Z 03009KT 8000 VCSH FEW005 FEW013TCU SCT046 Q1022;EQDQ01+000003PRSWM1
0162619840999992000082105004-21320+055480FM-15+0053FMEP V0200301N003112200019N0112651N1+02201+01601999999ADDGA1021+008409999GA2021+039009999GF104991999999999999999999MA1102201999999MW1001REMMET052FMEP 210500Z 03006KT 9999 FEW028 SCT130 22/16 Q1022;EQDQ01+000000PRSWM2
0139619840999992000082106004-21320+055480FM-15+0053FMEP V0201601N003612200019N0112651N1+02301+01701999999ADDGA1021+009009999GF102991999999999999999999MA1102201999999MW1001REMMET045FMEP 210600Z 16007KT 9999 FEW030 23/17 Q1022;EQDQ01+000000PRSWM2
0139619840999992000082107004-21320+055480FM-15+0053FMEP V0201601N004112200019N0112651N1+02401+01701999999ADDGA1021+009009999GF102991999999999999999999MA1102201999999MW1001REMMET045FMEP 210700Z 16008KT 9999 FEW030 24/17 Q1022;EQDQ01+000000PRSWM2
0139619840999992000082108004-21320+055480FM-15+0053FMEP V0201501N005712200019N0112651N1+02501+01801999999ADDGA1021+008409999GF102991999999999999999999MA1102101999999MW1001REMMET045FMEP 210800Z 15011KT 9999 FEW028 25/18 Q1021;EQDQ01+000000PRSWM2
0139619840999992000082109004-21320+055480FM-15+0053FMEP V0201501N007212200019N0112651N1+02501+01801999999ADDGA1021+008409999GF102991999999999999999999MA1102101999999MW1001REMMET045FMEP 210900Z 15014KT 9999 FEW028 25/18 Q1021;EQDQ01+000000PRSWM2
0139619840999992000082110004-21320+055480FM-15+0053FMEP V0201501N008712200019N0112651N1+02501+01801999999ADDGA1021+006309999GF102991999999999999999999MA1102001999999MW1001REMMET045FMEP 211000Z 15017KT 9999 FEW021 25/18 Q1020;EQDQ01+000000PRSWM2
0139619840999992000082111004-21320+055480FM-15+0053FMEP V0201401N010312200019N0112651N1+02501+01701999999ADDGA1021+006309999GF102991999999999999999999MA1101901999999MW1001REMMET045FMEP 211100Z 14020KT 9999 FEW021 25/17 Q1019;EQDQ01+000000PRSWM2
0139619840999992000082112004-21320+055480FM-15+0053FMEP V0201401N009812200019N0112651N1+02401+01701999999ADDGA1021+004509999GF102991999999999999999999MA1101901999999MW1001REMMET045FMEP 211200Z 14019KT 9999 FEW015 24/17 Q1019;EQDQ01+000000PRSWM2
0139619840999992000082113004-21320+055480FM-15+0053FMEP V0201301N010312200019N0112651N1+02301+01801999999ADDGA1021+004509999GF102991999999999999999999MA1101901999999MW1001REMMET045FMEP 211300Z 13020KT 9999 FEW015 23/18 Q1019;EQDQ01+000000PRSWM2
0139619840999992000082114004-21320+055480FM-15+0053FMEP V0201201N008712200019N0112651N1+02201+01601999999ADDGA1021+004509999GF102991999999999999999999MA1102001999999MW1001REMMET045FMEP 211400Z 12017KT 9999 FEW015 22/16 Q1020;EQDQ01+000000PRSWM2
0162619840999992000082204004-21320+055480FM-15+0053FMEP V0201301N006710180019N0090001N1+02001+01601999999ADDGA1021+000909999GA2071+018009999GF107991999999999999999999MA1102301999999MW1001REMMET052FMEP 220400Z 13013KT 9000 SCT003 BKN063 20/16 Q1023;EQDQ01+000000PRSWM2
0162619840999992000082206004-21320+055480FM-15+0053FMEP V0201201N011312200019N0112651N1+02401+01601999999ADDGA1021+006909999GA2021+018009999GF104991999999999999999999MA1102301999999MW1001REMMET052FMEP 220600Z 12022KT 9999 FEW023 SCT060 24/16 Q1023;EQDQ01+000000PRSWM2
0162619840999992000082207004-21320+055480FM-15+0053FMEP V0201201N013412200019N0112651N1+02301+01501999999ADDGA1021+009009999GA2021+018009999GF104991999999999999999999MA1102301999999MW1001REMMET052FMEP 220700Z 12026KT 9999 FEW030 SCT063 23/15 Q1023;EQDQ01+000000PRSWM2
0162619840999992000082208004-21320+055480FM-15+0053FMEP V0201301N012912200019N0112651N1+02301+01401999999ADDGA1021+009009999GA2021+036009999GF104991999999999999999999MA1102201999999MW1001REMMET052FMEP 220800Z 13025KT 9999 FEW030 SCT120 23/14 Q1022;EQDQ01+000000PRSWM2
0139619840999992000082209004-21320+055480FM-15+0053FMEP V0201301N012312200019N0112651N1+02301+01501999999ADDGA1021+007809999GF102991999999999999999999MA1102101999999MW1001REMMET045FMEP 220900Z 13024KT 9999 FEW026 23/15 Q1021;EQDQ01+000000PRSWM2
0162619840999992000082210004-21320+055480FM-15+0053FMEP V0201301N012312200019N0112651N1+02401+01501999999ADDGA1021+007809999GA2021+039009999GF104991999999999999999999MA1102101999999MW1001REMMET052FMEP 221000Z 13024KT 9999 FEW026 SCT130 24/15 Q1021;EQDQ01+000000PRSWM2
0162619840999992000082211004-21320+055480FM-15+0053FMEP V0201301N012312200019N0112651N1+02401+01401999999ADDGA1021+012009999GA2021+039009999GF104991999999999999999999MA1102101999999MW1001REMMET052FMEP 221100Z 13024KT 9999 FEW040 SCT130 24/14 Q1021;EQDQ01+000000PRSWM2
0139619840999992000082212004-21320+055480FM-15+0053FMEP V0201301N012912200019N0112651N1+02301+01501999999ADDGA1021+015009999GF102991999999999999999999MA1102001999999MW1001REMMET045FMEP 221200Z 13025KT 9999 FEW050 23/15 Q1020;EQDQ01+000000PRSWM2
0139619840999992000082213004-21320+055480FM-15+0053FMEP V0201301N012312200019N0112651N1+02301+01401999999ADDGA1021+012909999GF102991999999999999999999MA1102001999999MW1001REMMET045FMEP 221300Z 13024KT 9999 FEW043 23/14 Q1020;EQDQ01+000000PRSWM2
0147619840999992000082303004-21320+055480FM-15+0053FMEP V0201201N005112200019N0112651N1+01801+01201999999ADDGA1021+006309999GF102991999999999999999999MA1102401999999MW1001REMMET053FMEP 230300Z 12010KT 090V170 9999 FEW021 18/12 Q1024;EQDQ01+000000PRSWM2
0147619840999992000082304004-21320+055480FM-15+0053FMEP V0200901N004112200019N0112651N1+02101+01201999999ADDGA1021+006309999GF102991999999999999999999MA1102511999999MW1001REMMET053FMEP 230400Z 09008KT 040V130 9999 FEW021 21/12 Q1025;EQDQ01+000000PRSWM2
0139619840999992000082305004-21320+055480FM-15+0053FMEP V0201201N008712200019N0112651N1+02301+01201999999ADDGA1021+006309999GF102991999999999999999999MA1102511999999MW1001REMMET045FMEP 230500Z 12017KT 9999 FEW021 23/12 Q1025;EQDQ01+000000PRSWM2
0139619840999992000082306004-21320+055480FM-15+0053FMEP V0201201N011312200019N0112651N1+02401+01101999999ADDGA1021+006309999GF102991999999999999999999MA1102611999999MW1001REMMET045FMEP 230600Z 12022KT 9999 FEW021 24/11 Q1026;EQDQ01+000000PRSWM2
0139619840999992000082307004-21320+055480FM-15+0053FMEP V0201301N010812200019N0112651N1+02501+01201999999ADDGA1021+006309999GF102991999999999999999999MA1102511999999MW1001REMMET045FMEP 230700Z 13021KT 9999 FEW021 25/12 Q1025;EQDQ01+000000PRSWM2
0139619840999992000082308004-21320+055480FM-15+0053FMEP V0201301N013412200019N0112651N1+02401+01301999999ADDGA1021+004509999GF102991999999999999999999MA1102401999999MW1001REMMET045FMEP 230800Z 13026KT 9999 FEW015 24/13 Q1024;EQDQ01+000000PRSWM2
0139619840999992000082309004-21320+055480FM-15+0053FMEP V0201301N013912200019N0112651N1+02401+01201999999ADDGA1021+004509999GF102991999999999999999999MA1102301999999MW1001REMMET045FMEP 230900Z 13027KT 9999 FEW015 24/12 Q1023;EQDQ01+000000PRSWM2
0150619840999992000082310004-21320+055480FM-15+0053FMEP V0201301N014412200019N0112651N1+02401+01401999999ADDGA1021+004509999GF102991999999999999999999MA1102301999999MW1001OC102161REMMET048FMEP 231000Z 13028G42KT 9999 FEW015 24/14 Q1023;EQDQ01+000000PRSWM2
0139619840999992000082311004-21320+055480FM-15+0053FMEP V0201201N014912200019N0112651N1+02301+01301999999ADDGA1021+004509999GF102991999999999999999999MA1102301999999MW1001REMMET045FMEP 231100Z 12029KT 9999 FEW015 23/13 Q1023;EQDQ01+000000PRSWM2
0150619840999992000082312004-21320+055480FM-15+0053FMEP V0201201N013912200019N0112651N1+02301+01401999999ADDGA1021+004509999GF102991999999999999999999MA1102301999999MW1001OC101951REMMET048FMEP 231200Z 12027G38KT 9999 FEW015 23/14 Q1023;EQDQ01+000000PRSWM2
0150619840999992000082313004-21320+055480FM-15+0053FMEP V0201201N012912200019N0112651N1+02201+01201999999ADDGA1021+004509999GF102991999999999999999999MA1102301999999MW1001OC101951REMMET048FMEP 231300Z 12025G38KT 9999 FEW015 22/12 Q1023;EQDQ01+000000PRSWM2
0139619840999992000082403004-21320+055480FM-15+0053FMEP V0201001N005112200019N0112651N1+01801+01201999999ADDGA1021+006309999GF102991999999999999999999MA1102401999999MW1001REMMET045FMEP 240300Z 10010KT 9999 FEW021 18/12 Q1024;EQDQ01+000000PRSWM2
0139619840999992000082404004-21320+055480FM-15+0053FMEP V0201201N008712200019N0112651N1+02101+01101999999ADDGA1021+006309999GF102991999999999999999999MA1102401999999MW1001REMMET045FMEP 240400Z 12017KT 9999 FEW021 21/11 Q1024;EQDQ01+000000PRSWM2
0139619840999992000082405004-21320+055480FM-15+0053FMEP V0201301N008712200019N0112651N1+02301+01201999999ADDGA1021+006309999GF102991999999999999999999MA1102511999999MW1001REMMET045FMEP 240500Z 13017KT 9999 FEW021 23/12 Q1025;EQDQ01+000000PRSWM2
0139619840999992000082407004-21320+055480FM-15+0053FMEP V0201301N011312200019N0112651N1+02301+01401999999ADDGA1021+006309999GF102991999999999999999999MA1102401999999MW1001REMMET045FMEP 240700Z 13022KT 9999 FEW021 23/14 Q1024;EQDQ01+000000PRSWM2
0139619840999992000082408004-21320+055480FM-15+0053FMEP V0201301N012312200019N0112651N1+02301+01401999999ADDGA1021+006309999GF102991999999999999999999MA1102301999999MW1001REMMET045FMEP 240800Z 13024KT 9999 FEW021 23/14 Q1023;EQDQ01+000000PRSWM2
0139619840999992000082409004-21320+055480FM-15+0053FMEP V0201301N011812200019N0112651N1+02201+01501999999ADDGA1021+004809999GF102991999999999999999999MA1102301999999MW1001REMMET045FMEP 240900Z 13023KT 9999 FEW016 22/15 Q1023;EQDQ01+000000PRSWM2
0150619840999992000082410004-21320+055480FM-15+0053FMEP V0201301N013412200019N0112651N1+02301+01501999999ADDGA1021+004809999GF102991999999999999999999MA1102201999999MW1001OC101851REMMET048FMEP 241000Z 13026G36KT 9999 FEW016 23/15 Q1022;EQDQ01+000000PRSWM2
0150619840999992000082411004-21320+055480FM-15+0053FMEP V0201301N013912200019N0112651N1+02301+01301999999ADDGA1021+004809999GF102991999999999999999999MA1102101999999MW1001OC101901REMMET048FMEP 241100Z 13027G37KT 9999 FEW016 23/13 Q1021;EQDQ01+000000PRSWM2
0150619840999992000082412004-21320+055480FM-15+0053FMEP V0201301N012312200019N0112651N1+02301+01201999999ADDGA1021+006909999GF102991999999999999999999MA1102101999999MW1001OC101901REMMET048FMEP 241200Z 13024G37KT 9999 FEW023 23/12 Q1021;EQDQ01+000000PRSWM2
0165619840999992000082413004-21320+055480FM-15+0053FMEP V0201301N012312200019N0112651N1+02201+01301999999ADDGA1021+004809999GA2021+006909029GF102991999999999999999999MA1102201999999MW1001REMMET055FMEP 241300Z 13024KT 9999 FEW016 FEW023TCU 22/13 Q1022;EQDQ01+000000PRSWM2
0162619840999992000082503004-21320+055480FM-15+0053FMEP V0201201N009312200019N0112651N1+01801+01401999999ADDGA1021+006309999GA2021+018009999GF104991999999999999999999MA1102301999999MW1001REMMET052FMEP 250300Z 12018KT 9999 FEW021 SCT066 18/14 Q1023;EQDQ01+000000PRSWM2
0162619840999992000082504004-21320+055480FM-15+0053FMEP V0201101N008712200019N0112651N1+01901+01401999999ADDGA1021+006309999GA2021+018009999GF104991999999999999999999MA1102301999999MW1001REMMET052FMEP 250400Z 11017KT 9999 FEW021 SCT066 19/14 Q1023;EQDQ01+000000PRSWM2
0139619840999992000082505004-21320+055480FM-15+0053FMEP V0201101N007712200019N0112651N1+02101+01301999999ADDGA1021+006309999GF102991999999999999999999MA1102301999999MW1001REMMET045FMEP 250500Z 11015KT 9999 FEW021 21/13 Q1023;EQDQ01+000000PRSWM2
0139619840999992000082506004-21320+055480FM-15+0053FMEP V0201101N011812200019N0112651N1+02301+01301999999ADDGA1021+006309999GF102991999999999999999999MA1102301999999MW1001REMMET045FMEP 250600Z 11023KT 9999 FEW021 23/13 Q1023;EQDQ01+000000PRSWM2
0139619840999992000082507004-21320+055480FM-15+0053FMEP V0201201N012312200019N0112651N1+02301+01201999999ADDGA1021+006309999GF102991999999999999999999MA1102301999999MW1001REMMET045FMEP 250700Z 12024KT 9999 FEW021 23/12 Q1023;EQDQ01+000000PRSWM2
0139619840999992000082508004-21320+055480FM-15+0053FMEP V0201301N012312200019N0112651N1+02401+01401999999ADDGA1021+004509999GF102991999999999999999999MA1102201999999MW1001REMMET045FMEP 250800Z 13024KT 9999 FEW015 24/14 Q1022;EQDQ01+000000PRSWM2
0150619840999992000082509004-21320+055480FM-15+0053FMEP V0201301N013412200019N0112651N1+02401+01301999999ADDGA1021+004509999GF102991999999999999999999MA1102101999999MW1001OC101901REMMET048FMEP 250900Z 13026G37KT 9999 FEW015 24/13 Q1021;EQDQ01+000000PRSWM2
0139619840999992000082510004-21320+055480FM-15+0053FMEP V0201301N012912200019N0112651N1+02401+01401999999ADDGA1021+004509999GF102991999999999999999999MA1102001999999MW1001REMMET045FMEP 251000Z 13025KT 9999 FEW015 24/14 Q1020;EQDQ01+000000PRSWM2
0150619840999992000082511004-21320+055480FM-15+0053FMEP V0201301N012912200019N0112651N1+02401+01501999999ADDGA1021+004509999GF102991999999999999999999MA1102001999999MW1001OC101801REMMET048FMEP 251100Z 13025G35KT 9999 FEW015 24/15 Q1020;EQDQ01+000000PRSWM2
0150619840999992000082512004-21320+055480FM-15+0053FMEP V0201301N012912200019N0112651N1+02301+01301999999ADDGA1021+004509999GF102991999999999999999999MA1102001999999MW1001OC101801REMMET048FMEP 251200Z 13025G35KT 9999 FEW015 23/13 Q1020;EQDQ01+000000PRSWM2
0150619840999992000082513004-21320+055480FM-15+0053FMEP V0201201N011812200019N0112651N1+02201+01301999999ADDGA1021+009009999GF102991999999999999999999MA1102001999999MW1001OC101701REMMET048FMEP 251300Z 12023G33KT 9999 FEW030 22/13 Q1020;EQDQ01+000000PRSWM2
0150619840999992000082514004-21320+055480FM-15+0053FMEP V0201201N011312200019N0112651N1+02101+01101999999ADDGA1021+009009999GF102991999999999999999999MA1102001999999MW1001OC101651REMMET048FMEP 251400Z 12022G32KT 9999 FEW030 21/11 Q1020;EQDQ01+000000PRSWM2
0147619840999992000082603004-21320+055480FM-15+0053FMEP V0200501N003112200019N0112651N1+01601+00901999999ADDGA1021+003309999GF102991999999999999999999MA1102201999999MW1001REMMET053FMEP 260300Z 05006KT 020V090 9999 FEW011 16/09 Q1022;EQDQ01+000000PRSWM2
0139619840999992000082604004-21320+055480FM-15+0053FMEP V0201301N005112200019N0112651N1+02101+01001999999ADDGA1021+003909999GF102991999999999999999999MA1102201999999MW1001REMMET045FMEP 260400Z 13010KT 9999 FEW013 21/10 Q1022;EQDQ01+000000PRSWM2
0147619840999992000082605004-21320+055480FM-15+0053FMEP V0201101N004612200019N0112651N1+02301+00901999999ADDGA1021+003909999GF102991999999999999999999MA1102301999999MW1001REMMET053FMEP 260500Z 11009KT 060V140 9999 FEW013 23/09 Q1023;EQDQ01+000000PRSWM2
0139619840999992000082606004-21320+055480FM-15+0053FMEP V0201401N009812200019N0112651N1+02401+01001999999ADDGA1021+004509999GF102991999999999999999999MA1102301999999MW1001REMMET045FMEP 260600Z 14019KT 9999 FEW015 24/10 Q1023;EQDQ01+000000PRSWM2
0139619840999992000082607004-21320+055480FM-15+0053FMEP V0201401N011312200019N0112651N1+02401+01301999999ADDGA1021+004509999GF102991999999999999999999MA1102201999999MW1001REMMET045FMEP 260700Z 14022KT 9999 FEW015 24/13 Q1022;EQDQ01+000000PRSWM2
0139619840999992000082608004-21320+055480FM-15+0053FMEP V0201301N012312200019N0112651N1+02301+01401999999ADDGA1021+004509999GF102991999999999999999999MA1102201999999MW1001REMMET045FMEP 260800Z 13024KT 9999 FEW015 23/14 Q1022;EQDQ01+000000PRSWM2
0161619840999992000082609004-21320+055480FM-15+0053FMEP V0201301N009312200019N0112651N1+02501+01401999999ADDGA1021+004809029GF102991999999999999999999MA1102101999999MW1001OC101441REMMET059FMEP 260900Z 13018G28KT 090V160 9999 FEW016TCU 25/14 Q1021;EQDQ01+000000PRSWM2
0139619840999992000082610004-21320+055480FM-15+0053FMEP V0201301N010812200019N0112651N1+02401+01501999999ADDGA1021+004809999GF102991999999999999999999MA1102101999999MW1001REMMET045FMEP 261000Z 13021KT 9999 FEW016 24/15 Q1021;EQDQ01+000000PRSWM2
0139619840999992000082611004-21320+055480FM-15+0053FMEP V0201301N008712200019N0112651N1+02501+01301999999ADDGA1021+008409999GF102991999999999999999999MA1102001999999MW1001REMMET045FMEP 261100Z 13017KT 9999 FEW028 25/13 Q1020;EQDQ01+000000PRSWM2
0139619840999992000082613004-21320+055480FM-15+0053FMEP V0201201N007712200019N0112651N1+02301+01501999999ADDGA1021+009009999GF102991999999999999999999MA1102101999999MW1001REMMET045FMEP 261300Z 12015KT 9999 FEW030 23/15 Q1021;EQDQ01+000000PRSWM2
0153619840999992000082703004-21320+055480FM-15+0053FMEP V0201101N005112200019N0112651N1+02001+01201999999ADDGA1021+003909029GF102991999999999999999999MA1102301999999MW1001OC101031REMMET051FMEP 270300Z 11010G20KT 9999 FEW013TCU 20/12 Q1023;EQDQ01+000000PRSWM2
0142619840999992000082704004-21320+055480FM-15+0053FMEP V0201301N009312200019N0112651N1+02201+01001999999ADDGA1021+004509029GF102991999999999999999999MA1102401999999MW1001REMMET048FMEP 270400Z 13018KT 9999 FEW015TCU 22/10 Q1024;EQDQ01+000000PRSWM2
0139619840999992000082705004-21320+055480FM-15+0053FMEP V0201201N010812200019N0112651N1+02201+01401999999ADDGA1021+004509999GF102991999999999999999999MA1102401999999MW1001REMMET045FMEP 270500Z 12021KT 9999 FEW015 22/14 Q1024;EQDQ01+000000PRSWM2
0139619840999992000082706004-21320+055480FM-15+0053FMEP V0201301N012312200019N0112651N1+02301+01401999999ADDGA1021+003909999GF102991999999999999999999MA1102401999999MW1001REMMET045FMEP 270600Z 13024KT 9999 FEW013 23/14 Q1024;EQDQ01+000000PRSWM2
0162619840999992000082708004-21320+055480FM-15+0053FMEP V0201301N013412200019N0112651N1+02301+01501999999ADDGA1021+010809999GA2021+042009999GF104991999999999999999999MA1102301999999MW1001REMMET052FMEP 270800Z 13026KT 9999 FEW036 SCT140 23/15 Q1023;EQDQ01+000000PRSWM2
0162619840999992000082709004-21320+055480FM-15+0053FMEP V0201301N012312200019N0112651N1+02401+01601999999ADDGA1021+012009999GA2021+042009999GF104991999999999999999999MA1102201999999MW1001REMMET052FMEP 270900Z 13024KT 9999 FEW040 SCT140 24/16 Q1022;EQDQ01+000000PRSWM2
0162619840999992000082710004-21320+055480FM-15+0053FMEP V0201301N013412200019N0112651N1+02501+01501999999ADDGA1021+012009999GA2021+045009999GF104991999999999999999999MA1102201999999MW1001REMMET052FMEP 271000Z 13026KT 9999 FEW040 SCT150 25/15 Q1022;EQDQ01+000000PRSWM2
0162619840999992000082711004-21320+055480FM-15+0053FMEP V0201201N011812200019N0112651N1+02401+01401999999ADDGA1021+012009999GA2021+045009999GF104991999999999999999999MA1102101999999MW1001REMMET052FMEP 271100Z 12023KT 9999 FEW040 SCT150 24/14 Q1021;EQDQ01+000000PRSWM2
0150619840999992000082712004-21320+055480FM-15+0053FMEP V0201201N012912200019N0112651N1+02301+01401999999ADDGA1021+010809999GF102991999999999999999999MA1102101999999MW1001OC101801REMMET048FMEP 271200Z 12025G35KT 9999 FEW036 23/14 Q1021;EQDQ01+000000PRSWM2
0162619840999992000082713004-21320+055480FM-15+0053FMEP V0201201N012312200019N0112651N1+02201+01501999999ADDGA1021+010509999GA2021+039009999GF104991999999999999999999MA1102201999999MW1001REMMET052FMEP 271300Z 12024KT 9999 FEW035 SCT130 22/15 Q1022;EQDQ01+000000PRSWM2
0162619840999992000082714004-21320+055480FM-15+0053FMEP V0201201N011312200019N0112651N1+02101+01501999999ADDGA1021+009909999GA2021+039009999GF104991999999999999999999MA1102201999999MW1001REMMET052FMEP 271400Z 12022KT 9999 FEW033 SCT130 21/15 Q1022;EQDQ01+000000PRSWM2
0139619840999992000082715004-21320+055480FM-15+0053FMEP V0201101N010812200019N0112651N1+02101+01401999999ADDGA1021+010809999GF102991999999999999999999MA1102301999999MW1001REMMET045FMEP 271500Z 11021KT 9999 FEW036 21/14 Q1023;EQDQ01+000000PRSWM2
0139619840999992000082803004-21320+055480FM-15+0053FMEP V0200501N002612200019N0112651N1+01601+01201999999ADDGA1021+006909999GF102991999999999999999999MA1102301999999MW1001REMMET045FMEP 280300Z 05005KT 9999 FEW023 16/12 Q1023;EQDQ01+000000PRSWM2
0139619840999992000082804004-21320+055480FM-15+0053FMEP V0200801N002112200019N0112651N1+02101+01201999999ADDGA1021+009909999GF102991999999999999999999MA1102301999999MW1001REMMET045FMEP 280400Z 08004KT 9999 FEW033 21/12 Q1023;EQDQ01+000000PRSWM2
0147619840999992000082805004-21320+055480FM-15+0053FMEP V0201301N003112200019N0112651N1+02401+01101999999ADDGA1021+007809999GF102991999999999999999999MA1102301999999MW1001REMMET053FMEP 280500Z 13006KT 070V170 9999 FEW026 24/11 Q1023;EQDQ01+000000PRSWM2
0139619840999992000082806004-21320+055480FM-15+0053FMEP V0201301N010812200019N0112651N1+02501+01301999999ADDGA1021+009909999GF102991999999999999999999MA1102301999999MW1001REMMET045FMEP 280600Z 13021KT 9999 FEW033 25/13 Q1023;EQDQ01+000000PRSWM2
0147619840999992000082807004-21320+055480FM-15+0053FMEP V0200901N005112200019N0112651N1+02701+01101999999ADDGA1021+009009999GF102991999999999999999999MA1102201999999MW1001REMMET053FMEP 280700Z 09010KT 020V170 9999 FEW030 27/11 Q1022;EQDQ01+000000PRSWM2
0139619840999992000082808004-21320+055480FM-15+0053FMEP V0201401N011812200019N0112651N1+02501+01601999999ADDGA1021+007809999GF102991999999999999999999MA1102201999999MW1001REMMET045FMEP 280800Z 14023KT 9999 FEW026 25/16 Q1022;EQDQ01+000000PRSWM2
0139619840999992000082809004-21320+055480FM-15+0053FMEP V0201301N009312200019N0112651N1+02601+01501999999ADDGA1021+007809999GF102991999999999999999999MA1102101999999MW1001REMMET045FMEP 280900Z 13018KT 9999 FEW026 26/15 Q1021;EQDQ01+000000PRSWM2
0139619840999992000082810004-21320+055480FM-15+0053FMEP V0201401N008712200019N0112651N1+02501+01501999999ADDGA1021+007809999GF102991999999999999999999MA1102101999999MW1001REMMET045FMEP 281000Z 14017KT 9999 FEW026 25/15 Q1021;EQDQ01+000000PRSWM2
0150619840999992000082811004-21320+055480FM-15+0053FMEP V0201301N009812200019N0112651N1+02501+01601999999ADDGA1021+007809999GF102991999999999999999999MA1102101999999MW1001OC101491REMMET048FMEP 281100Z 13019G29KT 9999 FEW026 25/16 Q1021;EQDQ01+000000PRSWM2
0139619840999992000082812004-21320+055480FM-15+0053FMEP V0201301N010812200019N0112651N1+02401+01601999999ADDGA1021+007809999GF102991999999999999999999MA1102001999999MW1001REMMET045FMEP 281200Z 13021KT 9999 FEW026 24/16 Q1020;EQDQ01+000000PRSWM2
0147619840999992000082813004-21320+055480FM-15+0053FMEP V0201501N005112200019N0112651N1+02401+01501999999ADDGA1021+007809999GF102991999999999999999999MA1102101999999MW1001REMMET053FMEP 281300Z 15010KT 100V200 9999 FEW026 24/15 Q1021;EQDQ01+000000PRSWM2
0142619840999992000082903004-21320+055480FM-15+0053FMEP V0201301N009312200019N0112651N1+02001+01601999999ADDGA1021+005409029GF102991999999999999999999MA1102201999999MW1001REMMET048FMEP 290300Z 13018KT 9999 FEW018TCU 20/16 Q1022;EQDQ01+000000PRSWM2
0163619840999992000082904004-21320+055480FM-15+0053FMEP V0201201N007212200019N0112651N1+02201+01601999999ADDGA1021+003909029GF102991999999999999999999MA1102301999999MW1161REMMET053FMEP 290400Z 12014KT 9999 VCSH FEW013TCU 22/16 Q1023;EQDQ01+000003PRSWM1Q02    003PRSWM1
0163619840999992000082905004-21320+055480FM-15+0053FMEP V0201301N011312200019N0112651N1+02301+01701999999ADDGA1021+003909029GF102991999999999999999999MA1102201999999MW1161REMMET053FMEP 290500Z 13022KT 9999 VCSH FEW013TCU 23/17 Q1022;EQDQ01+000003PRSWM1Q02    003PRSWM1
0142619840999992000082906004-21320+055480FM-15+0053FMEP V0201301N011312200019N0112651N1+02401+01701999999ADDGA1021+003309029GF102991999999999999999999MA1102201999999MW1001REMMET048FMEP 290600Z 13022KT 9999 FEW011TCU 24/17 Q1022;EQDQ01+000000PRSWM2
0150619840999992000082907004-21320+055480FM-15+0053FMEP V0201301N012912200019N0112651N1+02401+01601999999ADDGA1021+008409999GF102991999999999999999999MA1102301999999MW1001OC101801REMMET048FMEP 290700Z 13025G35KT 9999 FEW028 24/16 Q1023;EQDQ01+000000PRSWM2
0139619840999992000082908004-21320+055480FM-15+0053FMEP V0201201N011312200019N0112651N1+02501+01601999999ADDGA1021+008409999GF102991999999999999999999MA1102201999999MW1001REMMET045FMEP 290800Z 12022KT 9999 FEW028 25/16 Q1022;EQDQ01+000000PRSWM2
0162619840999992000082909004-21320+055480FM-15+0053FMEP V0201301N011812200019N0112651N1+02501+01501999999ADDGA1021+009009999GA2021+021009999GF104991999999999999999999MA1102101999999MW1001REMMET052FMEP 290900Z 13023KT 9999 FEW030 SCT070 25/15 Q1021;EQDQ01+000000PRSWM2
0139619840999992000082910004-21320+055480FM-15+0053FMEP V0201201N011812200019N0112651N1+02501+01501999999ADDGA1021+009009999GF102991999999999999999999MA1102001999999MW1001REMMET045FMEP 291000Z 12023KT 9999 FEW030 25/15 Q1020;EQDQ01+000000PRSWM2
0139619840999992000082911004-21320+055480FM-15+0053FMEP V0201301N011812200019N0112651N1+02501+01401999999ADDGA1021+010509999GF102991999999999999999999MA1102001999999MW1001REMMET045FMEP 291100Z 13023KT 9999 FEW035 25/14 Q1020;EQDQ01+000000PRSWM2
0139619840999992000082912004-21320+055480FM-15+0053FMEP V0201301N011812200019N0112651N1+02401+01501999999ADDGA1021+010809999GF102991999999999999999999MA1102001999999MW1001REMMET045FMEP 291200Z 13023KT 9999 FEW036 24/15 Q1020;EQDQ01+000000PRSWM2
0139619840999992000082913004-21320+055480FM-15+0053FMEP V0201301N009312200019N0112651N1+02301+01401999999ADDGA1021+010809999GF102991999999999999999999MA1102001999999MW1001REMMET045FMEP 291300Z 13018KT 9999 FEW036 23/14 Q1020;EQDQ01+000000PRSWM2
0139619840999992000083003004-21320+055480FM-15+0053FMEP V0200401N003612200019N0112651N1+01701+01101999999ADDGA1021+003909999GF102991999999999999999999MA1102101999999MW1001REMMET045FMEP 300300Z 04007KT 9999 FEW013 17/11 Q1021;EQDQ01+000000PRSWM2
0139619840999992000083004004-21320+055480FM-15+0053FMEP V0200301N002612200019N0112651N1+02101+01101999999ADDGA1021+004809999GF102991999999999999999999MA1102201999999MW1001REMMET045FMEP 300400Z 03005KT 9999 FEW016 21/11 Q1022;EQDQ01+000000PRSWM2
0147619840999992000083005004-21320+055480FM-15+0053FMEP V0202101N002112200019N0112651N1+02301+01401999999ADDGA1021+006009999GF102991999999999999999999MA1102201999999MW1001REMMET053FMEP 300500Z 21004KT 170V290 9999 FEW020 23/14 Q1022;EQDQ01+000000PRSWM2
0139619840999992000083006004-21320+055480FM-15+0053FMEP V0202101N001512200019N0112651N1+02401+01401999999ADDGA1021+007809999GF102991999999999999999999MA1102201999999MW1001REMMET045FMEP 300600Z 21003KT 9999 FEW026 24/14 Q1022;EQDQ01+000000PRSWM2
0147619840999992000083007004-21320+055480FM-15+0053FMEP V0202301N002112200019N0112651N1+02401+01401999999ADDGA1021+009909999GF102991999999999999999999MA1102201999999MW1001REMMET053FMEP 300700Z 23004KT 160V270 9999 FEW033 24/14 Q1022;EQDQ01+000000PRSWM2
0139619840999992000083008004-21320+055480FM-15+0053FMEP V0202601N003612200019N0112651N1+02601+01501999999ADDGA1021+009909999GF102991999999999999999999MA1102101999999MW1001REMMET045FMEP 300800Z 26007KT 9999 FEW033 26/15 Q1021;EQDQ01+000000PRSWM2
0139619840999992000083009004-21320+055480FM-15+0053FMEP V0202601N004112200019N0112651N1+02501+01501999999ADDGA1021+007809999GF102991999999999999999999MA1102001999999MW1001REMMET045FMEP 300900Z 26008KT 9999 FEW026 25/15 Q1020;EQDQ01+000000PRSWM2
0139619840999992000083010004-21320+055480FM-15+0053FMEP V0202701N005112200019N0112651N1+02601+01501999999ADDGA1021+006009999GF102991999999999999999999MA1102001999999MW1001REMMET045FMEP 301000Z 27010KT 9999 FEW020 26/15 Q1020;EQDQ01+000000PRSWM2
0147619840999992000083011004-21320+055480FM-15+0053FMEP V0202801N004612200019N0112651N1+02601+01601999999ADDGA1021+018009999GF102991999999999999999999MA1101901999999MW1001REMMET053FMEP 301100Z 28009KT 250V320 9999 FEW060 26/16 Q1019;EQDQ01+000000PRSWM2
0139619840999992000083012004-21320+055480FM-15+0053FMEP V0202801N003612200019N0112651N1+02501+01501999999ADDGA1021+012909999GF102991999999999999999999MA1101901999999MW1001REMMET045FMEP 301200Z 28007KT 9999 FEW043 25/15 Q1019;EQDQ01+000000PRSWM2
0139619840999992000083013004-21320+055480FM-15+0053FMEP V0202601N004112200019N0112651N1+02401+01501999999ADDGA1021+013809999GF102991999999999999999999MA1101901999999MW1001REMMET045FMEP 301300Z 26008KT 9999 FEW046 24/15 Q1019;EQDQ01+000000PRSWM2
0139619840999992000083103004-21320+055480FM-15+0053FMEP V0200301N003612200019N0112651N1+01701+01101999999ADDGA1021+003909999GF102991999999999999999999MA1102001999999MW1001REMMET045FMEP 310300Z 03007KT 9999 FEW013 17/11 Q1020;EQDQ01+000000PRSWM2
0139619840999992000083104004-21320+055480FM-15+0053FMEP V0200301N002612200019N0112651N1+02201+01101999999ADDGA1021+003909999GF102991999999999999999999MA1102101999999MW1001REMMET045FMEP 310400Z 03005KT 9999 FEW013 22/11 Q1021;EQDQ01+000000PRSWM2
0139619840999992000083105004-21320+055480FM-15+0053FMEP V0202301N001512200019N0112651N1+02401+01401999999ADDGA1021+004809999GF102991999999999999999999MA1102101999999MW1001REMMET045FMEP 310500Z 23003KT 9999 FEW016 24/14 Q1021;EQDQ01+000000PRSWM2
0147619840999992000083106004-21320+055480FM-15+0053FMEP V0202101N003112200019N0112651N1+02401+01601999999ADDGA1021+004809999GF102991999999999999999999MA1102101999999MW1001REMMET053FMEP 310600Z 21006KT 170V240 9999 FEW016 24/16 Q1021;EQDQ01+000000PRSWM2
0147619840999992000083107004-21320+055480FM-15+0053FMEP V0202801N003112200019N0112651N1+02501+01601999999ADDGA1021+004809999GF102991999999999999999999MA1102101999999MW1001REMMET053FMEP 310700Z 28006KT 240V320 9999 FEW016 25/16 Q1021;EQDQ01+000000PRSWM2
0147619840999992000083108004-21320+055480FM-15+0053FMEP V0202201N002612200019N0112651N1+02501+01701999999ADDGA1021+003909999GF102991999999999999999999MA1102001999999MW1001REMMET053FMEP 310800Z 22005KT 160V290 9999 FEW013 25/17 Q1020;EQDQ01+000000PRSWM2
0162619840999992000083109004-21320+055480FM-15+0053FMEP V0202301N002612200019N0112651N1+02401+01601999999ADDGA1021+004809999GA2021+015009999GF104991999999999999999999MA1101901999999MW1001REMMET052FMEP 310900Z 23005KT 9999 FEW016 SCT056 24/16 Q1019;EQDQ01+000000PRSWM2
0170619840999992000083110004-21320+055480FM-15+0053FMEP V0201501N005110150019N0112651N1+02501+01701999999ADDGA1021+004809999GA2071+015009999GF107991999999999999999999MA1101901999999MW1001REMMET060FMEP 311000Z 15010KT 120V190 9999 SCT016 BKN056 25/17 Q1019;EQDQ01+000000PRSWM2
0162619840999992000083112004-21320+055480FM-15+0053FMEP V0202701N001510150019N0112651N1+02401+01701999999ADDGA1021+004809999GA2071+015009999GF107991999999999999999999MA1101901999999MW1001REMMET052FMEP 311200Z 27003KT 9999 SCT016 BKN053 24/17 Q1019;EQDQ01+000000PRSWM2
0170619840999992000083113004-21320+055480FM-15+0053FMEP V0202201N002110150019N0112651N1+02401+01701999999ADDGA1021+006009999GA2071+015009999GF107991999999999999999999MA1101901999999MW1001REMMET060FMEP 311300Z 22004KT 190V260 9999 SCT020 BKN056 24/17 Q1019;EQDQ01+000000PRSWM2
0162619840999992000090103004-21320+055480FM-15+0053FMEP V0200601N002112200019N0112651N1+01801+01501999999ADDGA1021+012009999GA2021+039009999GF104991999999999999999999MA1102001999999MW1001REMMET052FMEP 010300Z 06004KT 9999 FEW040 SCT130 18/15 Q1020;EQDQ01+000000PRSWM2
0170619840999992000090104004-21320+055480FM-15+0053FMEP V0201301N002112200019N0112651N1+02201+01601999999ADDGA1021+009009999GA2021+015009999GF104991999999999999999999MA1102101999999MW1001REMMET060FMEP 010400Z 13004KT 060V180 9999 FEW030 SCT056 22/16 Q1021;EQDQ01+000000PRSWM2
0162619840999992000090105004-21320+055480FM-15+0053FMEP V0201601N003112200019N0112651N1+02401+01601999999ADDGA1021+009909999GA2021+036009999GF104991999999999999999999MA1102101999999MW1001REMMET052FMEP 010500Z 16006KT 9999 FEW033 SCT120 24/16 Q1021;EQDQ01+000000PRSWM2
0162619840999992000090106004-21320+055480FM-15+0053FMEP V0201401N004112200019N0112651N1+02501+01701999999ADDGA1021+009309999GA2021+039009999GF104991999999999999999999MA1102101999999MW1001REMMET052FMEP 010600Z 14008KT 9999 FEW031 SCT130 25/17 Q1021;EQDQ01+000000PRSWM2
0139619840999992000090109004-21320+055480FM-15+0053FMEP V0202701N004112200019N0112651N1+02601+01801999999ADDGA1021+009309999GF102991999999999999999999MA1102001999999MW1001REMMET045FMEP 010900Z 27008KT 9999 FEW031 26/18 Q1020;EQDQ01+000000PRSWM2
0142619840999992000090110004-21320+055480FM-15+0053FMEP V0202601N005112200019N0112651N1+02601+01801999999ADDGA1021+009309029GF102991999999999999999999MA1102001999999MW1001REMMET048FMEP 011000Z 26010KT 9999 FEW031TCU 26/18 Q1020;EQDQ01+000000PRSWM2
0150619840999992000090111004-21320+055480FM-15+0053FMEP V0202501N002612200019N0112651N1+02601+01701999999ADDGA1021+007509029GF102991999999999999999999MA1102001999999MW1001REMMET056FMEP 011100Z 25005KT 150V280 9999 FEW025TCU 26/17 Q1020;EQDQ01+000000PRSWM2
0142619840999992000090112004-21320+055480FM-15+0053FMEP V0201401N006212200019N0112651N1+02501+01801999999ADDGA1021+009009029GF102991999999999999999999MA1102001999999MW1001REMMET048FMEP 011200Z 14012KT 9999 FEW030TCU 25/18 Q1020;EQDQ01+000000PRSWM2
0139619840999992000090114004-21320+055480FM-15+0053FMEP V0201301N007212200019N0112651N1+02201+01801999999ADDGA1021+009309999GF102991999999999999999999MA1102001999999MW1001REMMET045FMEP 011400Z 13014KT 9999 FEW031 22/18 Q1020;EQDQ01+000000PRSWM2
0139619840999992000090115004-21320+055480FM-15+0053FMEP V0201201N007712200019N0112651N1+02201+01701999999ADDGA1021+009009999GF102991999999999999999999MA1102101999999MW1001REMMET045FMEP 011500Z 12015KT 9999 FEW030 22/17 Q1021;EQDQ01+000000PRSWM2
0139619840999992000090203004-21320+055480FM-15+0053FMEP V0200301N003112200019N0112651N1+01701+01101999999ADDGA1021+006309999GF102991999999999999999999MA1102101999999MW1001REMMET045FMEP 020300Z 03006KT 9999 FEW021 17/11 Q1021;EQDQ01+000000PRSWM2
0139619840999992000090205004-21320+055480FM-15+0053FMEP V0201601N003112200019N0112651N1+02401+01401999999ADDGA1021+006309999GF102991999999999999999999MA1102201999999MW1001REMMET045FMEP 020500Z 16006KT 9999 FEW021 24/14 Q1022;EQDQ01+000000PRSWM2
0139619840999992000090206004-21320+055480FM-15+0053FMEP V0201301N009312200019N0112651N1+02501+01601999999ADDGA1021+006309999GF102991999999999999999999MA1102201999999MW1001REMMET045FMEP 020600Z 13018KT 9999 FEW021 25/16 Q1022;EQDQ01+000000PRSWM2
0139619840999992000090207004-21320+055480FM-15+0053FMEP V0201301N010812200019N0112651N1+02501+01601999999ADDGA1021+006309999GF102991999999999999999999MA1102101999999MW1001REMMET045FMEP 020700Z 13021KT 9999 FEW021 25/16 Q1021;EQDQ01+000000PRSWM2
0139619840999992000090208004-21320+055480FM-15+0053FMEP V0201401N011312200019N0112651N1+02501+01701999999ADDGA1021+006309999GF102991999999999999999999MA1102101999999MW1001REMMET045FMEP 020800Z 14022KT 9999 FEW021 25/17 Q1021;EQDQ01+000000PRSWM2
0139619840999992000090209004-21320+055480FM-15+0053FMEP V0201301N010812200019N0112651N1+02501+01701999999ADDGA1021+006309999GF102991999999999999999999MA1102001999999MW1001REMMET045FMEP 020900Z 13021KT 9999 FEW021 25/17 Q1020;EQDQ01+000000PRSWM2
0139619840999992000090210004-21320+055480FM-15+0053FMEP V0201401N011812200019N0112651N1+02501+01701999999ADDGA1021+006309999GF102991999999999999999999MA1101901999999MW1001REMMET045FMEP 021000Z 14023KT 9999 FEW021 25/17 Q1019;EQDQ01+000000PRSWM2
0139619840999992000090211004-21320+055480FM-15+0053FMEP V0201301N009812200019N0112651N1+02401+01701999999ADDGA1021+004509999GF102991999999999999999999MA1101901999999MW1001REMMET045FMEP 021100Z 13019KT 9999 FEW015 24/17 Q1019;EQDQ01+000000PRSWM2
0139619840999992000090212004-21320+055480FM-15+0053FMEP V0201301N011812200019N0112651N1+02401+01701999999ADDGA1021+004509999GF102991999999999999999999MA1101901999999MW1001REMMET045FMEP 021200Z 13023KT 9999 FEW015 24/17 Q1019;EQDQ01+000000PRSWM2
0138619840999992000090213004-21320+055480FM-15+0053FMEP V0201301N011312200019N0112651N1+02301+01701999999ADDGA1021+004509999GF102991999999999999999999MA1101901999999MW1001REMMET044FMEP 021300Z 13022KT 9999 FEW015 23/17Q1019;EQDQ01+000000PRSWM2
0139619840999992000090303004-21320+055480FM-15+0053FMEP V0200301N002612200019N0112651N1+01701+01101999999ADDGA1021+006309999GF102991999999999999999999MA1102101999999MW1001REMMET045FMEP 030300Z 03005KT 9999 FEW021 17/11 Q1021;EQDQ01+000000PRSWM2
0139619840999992000090304004-21320+055480FM-15+0053FMEP V0200401N002612200019N0112651N1+02101+01201999999ADDGA1021+006309999GF102991999999999999999999MA1102201999999MW1001REMMET045FMEP 030400Z 04005KT 9999 FEW021 21/12 Q1022;EQDQ01+000000PRSWM2
0139619840999992000090305004-21320+055480FM-15+0053FMEP V0202101N001512200019N0112651N1+02401+01301999999ADDGA1021+006309999GF102991999999999999999999MA1102201999999MW1001REMMET045FMEP 030500Z 21003KT 9999 FEW021 24/13 Q1022;EQDQ01+000000PRSWM2
0147619840999992000090306004-21320+055480FM-15+0053FMEP V0202001N002112200019N0112651N1+02401+01401999999ADDGA1021+006309999GF102991999999999999999999MA1102201999999MW1001REMMET053FMEP 030600Z 20004KT 170V240 9999 FEW021 24/14 Q1022;EQDQ01+000000PRSWM2
0147619840999992000090307004-21320+055480FM-15+0053FMEP V0202401N002612200019N0112651N1+02501+01501999999ADDGA1021+006309999GF102991999999999999999999MA1102201999999MW1001REMMET053FMEP 030700Z 24005KT 200V300 9999 FEW021 25/15 Q1022;EQDQ01+000000PRSWM2
0139619840999992000090308004-21320+055480FM-15+0053FMEP V0202101N003112200019N0112651N1+02601+01501999999ADDGA1021+004509999GF102991999999999999999999MA1102101999999MW1001REMMET045FMEP 030800Z 21006KT 9999 FEW015 26/15 Q1021;EQDQ01+000000PRSWM2
0147619840999992000090309004-21320+055480FM-15+0053FMEP V0201701N002612200019N0112651N1+02601+01501999999ADDGA1021+004509999GF102991999999999999999999MA1102101999999MW1001REMMET053FMEP 030900Z 17005KT 130V230 9999 FEW015 26/15 Q1021;EQDQ01+000000PRSWM2
0147619840999992000090310004-21320+055480FM-15+0053FMEP V0201601N003612200019N0112651N1+02501+01501999999ADDGA1021+004509999GF102991999999999999999999MA1102001999999MW1001REMMET053FMEP 031000Z 16007KT 120V200 9999 FEW015 25/15 Q1020;EQDQ01+000000PRSWM2
0147619840999992000090311004-21320+055480FM-15+0053FMEP V0201401N004612200019N0112651N1+02501+01501999999ADDGA1021+004509999GF104991999999999999999999MA1102001999999MW1001REMMET053FMEP 031100Z 14009KT 100V180 9999 SCT015 25/15 Q1020;EQDQ01+000000PRSWM2
0147619840999992000090312004-21320+055480FM-15+0053FMEP V0201501N003612200019N0112651N1+02501+01501999999ADDGA1021+004509999GF104991999999999999999999MA1102001999999MW1001REMMET053FMEP 031200Z 15007KT 060V190 9999 SCT015 25/15 Q1020;EQDQ01+000000PRSWM2
0139619840999992000090313004-21320+055480FM-15+0053FMEP V0201401N005112200019N0112651N1+02401+01601999999ADDGA1021+004509999GF104991999999999999999999MA1102001999999MW1001REMMET045FMEP 031300Z 14010KT 9999 SCT015 24/16 Q1020;EQDQ01+000000PRSWM2
0139619840999992000090403004-21320+055480FM-15+0053FMEP V0200901N002612200019N0112651N1+01801+01201999999ADDGA1021+010809999GF102991999999999999999999MA1102201999999MW1001REMMET045FMEP 040300Z 09005KT 9999 FEW036 18/12 Q1022;EQDQ01+000000PRSWM2
0147619840999992000090405004-21320+055480FM-15+0053FMEP V0202101N002112200019N0112651N1+02301+01501999999ADDGA1021+010809999GF102991999999999999999999MA1102201999999MW1001REMMET053FMEP 040500Z 21004KT 160V330 9999 FEW036 23/15 Q1022;EQDQ01+000000PRSWM2
0139619840999992000090406004-21320+055480FM-15+0053FMEP V0202601N004112200019N0112651N1+02501+01501999999ADDGA1021+012009999GF102991999999999999999999MA1102201999999MW1001REMMET045FMEP 040600Z 26008KT 9999 FEW040 25/15 Q1022;EQDQ01+000000PRSWM2
0139619840999992000090407004-21320+055480FM-15+0053FMEP V0202501N004612200019N0112651N1+02601+01501999999ADDGA1021+010809999GF102991999999999999999999MA1102201999999MW1001REMMET045FMEP 040700Z 25009KT 9999 FEW036 26/15 Q1022;EQDQ01+000000PRSWM2
0139619840999992000090408004-21320+055480FM-15+0053FMEP V0202701N006212200019N0112651N1+02601+01601999999ADDGA1021+009309999GF102991999999999999999999MA1102101999999MW1001REMMET045FMEP 040800Z 27012KT 9999 FEW031 26/16 Q1021;EQDQ01+000000PRSWM2
0147619840999992000090410004-21320+055480FM-15+0053FMEP V0201901N002112200019N0112651N1+02601+01401999999ADDGA1021+012009999GF102991999999999999999999MA1102001999999MW1001REMMET053FMEP 041000Z 19004KT 150V260 9999 FEW040 26/14 Q1020;EQDQ01+000000PRSWM2
0147619840999992000090411004-21320+055480FM-15+0053FMEP V0201701N002112200019N0112651N1+02601+01301999999ADDGA1021+010809999GF102991999999999999999999MA1102001999999MW1001REMMET053FMEP 041100Z 17004KT 100V250 9999 FEW036 26/13 Q1020;EQDQ01+000000PRSWM2
0139619840999992000090412004-21320+055480FM-15+0053FMEP V0202701N003612200019N0112651N1+02601+01501999999ADDGA1021+010809999GF102991999999999999999999MA1102001999999MW1001REMMET045FMEP 041200Z 27007KT 9999 FEW036 26/15 Q1020;EQDQ01+000000PRSWM2
0147619840999992000090413004-21320+055480FM-15+0053FMEP V0202901N002112200019N0112651N1+02601+01301999999ADDGA1021+009909999GF102991999999999999999999MA1102001999999MW1001REMMET053FMEP 041300Z 29004KT 240V350 9999 FEW033 26/13 Q1020;EQDQ01+000000PRSWM2
0142619840999992000090503004-21320+055480FM-15+0053FMEP V0200401N003612200019N0112651N1+01901+01001999999ADDGA1021+006309029GF102991999999999999999999MA1102201999999MW1001REMMET048FMEP 050300Z 04007KT 9999 FEW021TCU 19/10 Q1022;EQDQ01+000000PRSWM2
0139619840999992000090504004-21320+055480FM-15+0053FMEP V0200301N003112200019N0112651N1+02201+01101999999ADDGA1021+006309999GF102991999999999999999999MA1102101999999MW1001REMMET045FMEP 050400Z 03006KT 9999 FEW021 22/11 Q1021;EQDQ01+000000PRSWM2
0139619840999992000090505004-21320+055480FM-15+0053FMEP V0201501N004612200019N0112651N1+02401+01601999999ADDGA1021+006309999GF102991999999999999999999MA1102201999999MW1001REMMET045FMEP 050500Z 15009KT 9999 FEW021 24/16 Q1022;EQDQ01+000000PRSWM2
0139619840999992000090506004-21320+055480FM-15+0053FMEP V0201301N007712200019N0112651N1+02501+01601999999ADDGA1021+006309999GF102991999999999999999999MA1102201999999MW1001REMMET045FMEP 050600Z 13015KT 9999 FEW021 25/16 Q1022;EQDQ01+000000PRSWM2
0139619840999992000090507004-21320+055480FM-15+0053FMEP V0201401N006712200019N0112651N1+02601+01501999999ADDGA1021+006309999GF102991999999999999999999MA1102101999999MW1001REMMET045FMEP 050700Z 14013KT 9999 FEW021 26/15 Q1021;EQDQ01+000000PRSWM2
0139619840999992000090508004-21320+055480FM-15+0053FMEP V0201301N010812200019N0112651N1+02601+01801999999ADDGA1021+006309999GF102991999999999999999999MA1102001999999MW1001REMMET045FMEP 050800Z 13021KT 9999 FEW021 26/18 Q1020;EQDQ01+000000PRSWM2
0139619840999992000090509004-21320+055480FM-15+0053FMEP V0201301N011312200019N0112651N1+02601+01801999999ADDGA1021+006309999GF102991999999999999999999MA1101901999999MW1001REMMET045FMEP 050900Z 13022KT 9999 FEW021 26/18 Q1019;EQDQ01+000000PRSWM2
0139619840999992000090510004-21320+055480FM-15+0053FMEP V0201301N010312200019N0112651N1+02601+01701999999ADDGA1021+006309999GF102991999999999999999999MA1101801999999MW1001REMMET045FMEP 051000Z 13020KT 9999 FEW021 26/17 Q1018;EQDQ01+000000PRSWM2
0139619840999992000090511004-21320+055480FM-15+0053FMEP V0201301N010312200019N0112651N1+02501+01801999999ADDGA1021+004509999GF102991999999999999999999MA1101801999999MW1001REMMET045FMEP 051100Z 13020KT 9999 FEW015 25/18 Q1018;EQDQ01+000000PRSWM2
0162619840999992000090512004-21320+055480FM-15+0053FMEP V0201301N008712200019N0112651N1+02401+01801999999ADDGA1021+004509999GA2021+018009999GF104991999999999999999999MA1101801999999MW1001REMMET052FMEP 051200Z 13017KT 9999 FEW015 SCT066 24/18 Q1018;EQDQ01+000000PRSWM2
0162619840999992000090513004-21320+055480FM-15+0053FMEP V0201401N003112200019N0112651N1+02401+01701999999ADDGA1021+004509999GA2021+018009999GF104991999999999999999999MA1101801999999MW1001REMMET052FMEP 051300Z 14006KT 9999 FEW015 SCT066 24/17 Q1018;EQDQ01+000000PRSWM2
0165619840999992000090703004-21320+055480FM-15+0053FMEP V0200401N003612200019N0112651N1+02001+01201999999ADDGA1021+005409029GA2021+021009999GF104991999999999999999999MA1101591999999MW1001REMMET055FMEP 070300Z 04007KT 9999 FEW018TCU SCT073 20/12 Q1016;EQDQ01+000000PRSWM2
0162619840999992000090704004-21320+055480FM-15+0053FMEP V0200201N002612200019N0112651N1+02301+01301999999ADDGA1021+009309999GA2021+021009999GF104991999999999999999999MA1101591999999MW1001REMMET052FMEP 070400Z 02005KT 9999 FEW031 SCT073 23/13 Q1016;EQDQ01+000000PRSWM2
0170619840999992000090705004-21320+055480FM-15+0053FMEP V0202001N002110390019N0112651N1+02401+01501999999ADDGA1021+010809999GA2071+039009999GF107991999999999999999999MA1101691999999MW1001REMMET060FMEP 070500Z 20004KT 160V240 9999 FEW036 BKN130 24/15 Q1017;EQDQ01+000000PRSWM2
0170619840999992000090706004-21320+055480FM-15+0053FMEP V0202001N002610390019N0112651N1+02401+01501999999ADDGA1021+009309999GA2071+039009999GF107991999999999999999999MA1101691999999MW1001REMMET060FMEP 070600Z 20005KT 170V240 9999 FEW031 BKN130 24/15 Q1017;EQDQ01+000000PRSWM2
0162619840999992000090707004-21320+055480FM-15+0053FMEP V0202101N002610390019N0112651N1+02501+01601999999ADDGA1021+009309999GA2071+039009999GF107991999999999999999999MA1101591999999MW1001REMMET052FMEP 070700Z 21005KT 9999 FEW031 BKN130 25/16 Q1016;EQDQ01+000000PRSWM2
0147619840999992000090708004-21320+055480FM-15+0053FMEP V0202101N003112200019N0112651N1+02601+01701999999ADDGA1021+009009999GF102991999999999999999999MA1101491999999MW1001REMMET053FMEP 070800Z 21006KT 180V250 9999 FEW030 26/17 Q1015;EQDQ01+000000PRSWM2
0139619840999992000090709004-21320+055480FM-15+0053FMEP V0202001N003612200019N0112651N1+02501+01701999999ADDGA1021+009009999GF102991999999999999999999MA1101491999999MW1001REMMET045FMEP 070900Z 20007KT 9999 FEW030 25/17 Q1015;EQDQ01+000000PRSWM2
0139619840999992000090710004-21320+055480FM-15+0053FMEP V0201801N003112200019N0112651N1+02601+01701999999ADDGA1021+009009999GF102991999999999999999999MA1101391999999MW1001REMMET045FMEP 071000Z 18006KT 9999 FEW030 26/17 Q1014;EQDQ01+000000PRSWM2
0162619840999992000090711004-21320+055480FM-15+0053FMEP V0201701N003612200019N0112651N1+02501+01701999999ADDGA1021+009009999GA2021+039009999GF104991999999999999999999MA1101391999999MW1001REMMET052FMEP 071100Z 17007KT 9999 FEW030 SCT130 25/17 Q1014;EQDQ01+000000PRSWM2
0170619840999992000090712004-21320+055480FM-15+0053FMEP V0201601N003112200019N0112651N1+02501+01701999999ADDGA1021+009009999GA2021+039009999GF104991999999999999999999MA1101391999999MW1001REMMET060FMEP 071200Z 16006KT 120V200 9999 FEW030 SCT130 25/17 Q1014;EQDQ01+000000PRSWM2
0162619840999992000090713004-21320+055480FM-15+0053FMEP V0201501N002612200019N0112651N1+02401+01701999999ADDGA1021+009009999GA2021+033009999GF104991999999999999999999MA1101391999999MW1001REMMET052FMEP 071300Z 15005KT 9999 FEW030 SCT110 24/17 Q1014;EQDQ01+000000PRSWM2
0162619840999992000090803004-21320+055480FM-15+0053FMEP V0200401N003612200019N0112651N1+01901+01101999999ADDGA1021+012909999GA2021+105009999GF104991999999999999999999MA1101591999999MW1001REMMET052FMEP 080300Z 04007KT 9999 FEW043 SCT360 19/11 Q1016;EQDQ01+000000PRSWM2
0091619840999992000090804004-21320+055480FM-15+0053FMEP V0200401N00261220001CN0099001N1+02201+01101999999ADDMA1101591999999MW1001REMMET039FMEP 080400Z 04005KT CAVOK 22/11 Q1016;EQDQ01+000000PRSWM2
0170619840999992000090805004-21320+055480FM-15+0053FMEP V0202201N002111050019N0112651N1+02401+01601999999ADDGA1021+013809999GA2071+105009999GF107991999999999999999999MA1101591999999MW1001REMMET060FMEP 080500Z 22004KT 180V270 9999 FEW046 BKN360 24/16 Q1016;EQDQ01+000000PRSWM2
0162619840999992000090806004-21320+055480FM-15+0053FMEP V0201801N002611050019N0112651N1+02401+01601999999ADDGA1021+010809999GA2071+105009999GF107991999999999999999999MA1101591999999MW1001REMMET052FMEP 080600Z 18005KT 9999 FEW036 BKN360 24/16 Q1016;EQDQ01+000000PRSWM2
0162619840999992000090807004-21320+055480FM-15+0053FMEP V0201801N003611050019N0112651N1+02501+01601999999ADDGA1021+010509999GA2071+105009999GF107991999999999999999999MA1101591999999MW1001REMMET052FMEP 080700Z 18007KT 9999 FEW035 BKN360 25/16 Q1016;EQDQ01+000000PRSWM2
0162619840999992000090808004-21320+055480FM-15+0053FMEP V0201801N003612200019N0112651N1+02501+01701999999ADDGA1021+009309999GA2021+105009999GF104991999999999999999999MA1101491999999MW1001REMMET052FMEP 080800Z 18007KT 9999 FEW031 SCT360 25/17 Q1015;EQDQ01+000000PRSWM2
0170619840999992000090809004-21320+055480FM-15+0053FMEP V0202201N003112200019N0112651N1+02501+01601999999ADDGA1021+009309999GA2021+033009999GF104991999999999999999999MA1101491999999MW1001REMMET060FMEP 080900Z 22006KT 180V250 9999 FEW031 SCT110 25/16 Q1015;EQDQ01+000000PRSWM2
0162619840999992000090810004-21320+055480FM-15+0053FMEP V0201601N002612200019N0112651N1+02401+01701999999ADDGA1021+009309999GA2021+033009999GF104991999999999999999999MA1101391999999MW1001REMMET052FMEP 081000Z 16005KT 9999 FEW031 SCT110 24/17 Q1014;EQDQ01+000000PRSWM2
0162619840999992000090811004-21320+055480FM-15+0053FMEP V0201201N003612200019N0112651N1+02401+01701999999ADDGA1021+009309999GA2021+033009999GF104991999999999999999999MA1101391999999MW1001REMMET052FMEP 081100Z 12007KT 9999 FEW031 SCT110 24/17 Q1014;EQDQ01+000000PRSWM2
0170619840999992000090812004-21320+055480FM-15+0053FMEP V0201001N003112200019N0112651N1+02401+01701999999ADDGA1021+006309999GA2021+033009999GF104991999999999999999999MA1101391999999MW1001REMMET060FMEP 081200Z 10006KT 060V130 9999 FEW021 SCT110 24/17 Q1014;EQDQ01+000000PRSWM2
0147619840999992000090813004-21320+055480FM-15+0053FMEP V0201401N003112200019N0112651N1+02401+01701999999ADDGA1021+006309999GF102991999999999999999999MA1101391999999MW1001REMMET053FMEP 081300Z 14006KT 100V170 9999 FEW021 24/17 Q1014;EQDQ01+000000PRSWM2
0139619840999992000090814004-21320+055480FM-15+0053FMEP V0201901N001512200019N0112651N1+02301+01701999999ADDGA1021+006309999GF102991999999999999999999MA1101491999999MW1001REMMET045FMEP 081400Z 19003KT 9999 FEW021 23/17 Q1015;EQDQ01+000000PRSWM2
0139619840999992000090815004-21320+055480FM-15+0053FMEP V0201201N001512200019N0112651N1+02201+01601999999ADDGA1021+006309999GF102991999999999999999999MA1101491999999MW1001REMMET045FMEP 081500Z 12003KT 9999 FEW021 22/16 Q1015;EQDQ01+000000PRSWM2
0139619840999992000090915004-21320+055480FM-15+0053FMEP V0201201N001512200019N0112651N1+02201+01601999999ADDGA1021+006309999GF102991999999999999999999MA1101491999999MW1001REMMET045FMEP 081500Z 12003KT 9999 FEW021 22/16 Q1015;EQDQ01+000000PRSWM2
0139619840999992000091009004-21320+055480FM-15+0053FMEP V0201301N012912200019N0112651N1+02401+01201999999ADDGA1021+006309999GF102991999999999999999999MA1102201999999MW1001REMMET045FMEP 100900Z 13025KT 9999 FEW021 24/12 Q1022;EQDQ01+000000PRSWM2
0150619840999992000091010004-21320+055480FM-15+0053FMEP V0201301N012312200019N0112651N1+02401+01401999999ADDGA1021+006309999GF102991999999999999999999MA1102101999999MW1001OC101751REMMET048FMEP 101000Z 13024G34KT 9999 FEW021 24/14 Q1021;EQDQ01+000000PRSWM2
0139619840999992000091011004-21320+055480FM-15+0053FMEP V0201301N012912200019N0112651N1+02301+01301999999ADDGA1021+006309999GF102991999999999999999999MA1102101999999MW1001REMMET045FMEP 101100Z 13025KT 9999 FEW021 23/13 Q1021;EQDQ01+000000PRSWM2
0150619840999992000091012004-21320+055480FM-15+0053FMEP V0201301N012312200019N0112651N1+02301+01401999999ADDGA1021+006309999GF102991999999999999999999MA1102101999999MW1001OC101751REMMET048FMEP 101200Z 13024G34KT 9999 FEW021 23/14 Q1021;EQDQ01+000000PRSWM2
0139619840999992000091013004-21320+055480FM-15+0053FMEP V0201301N012312200019N0112651N1+02201+01201999999ADDGA1021+006309999GF102991999999999999999999MA1102101999999MW1001REMMET045FMEP 101300Z 13024KT 9999 FEW021 22/12 Q1021;EQDQ01+000000PRSWM2
0162619840999992000091103004-21320+055480FM-15+0053FMEP V0200401N004610150019N0112651N1+01801+00901999999ADDGA1021+008709999GA2071+015009999GF107991999999999999999999MA1102201999999MW1001REMMET052FMEP 110300Z 04009KT 9999 FEW029 BKN050 18/09 Q1022;EQDQ01+000000PRSWM2
0162619840999992000091104004-21320+055480FM-15+0053FMEP V0200201N002110120019N0112651N1+02201+01001999999ADDGA1021+009309999GA2071+012009999GF107991999999999999999999MA1102301999999MW1001REMMET052FMEP 110400Z 02004KT 9999 FEW031 BKN040 22/10 Q1023;EQDQ01+000000PRSWM2
0162619840999992000091105004-21320+055480FM-15+0053FMEP V0202401N001512200019N0112651N1+02301+01201999999ADDGA1021+010809999GA2021+036009999GF104991999999999999999999MA1102301999999MW1001REMMET052FMEP 110500Z 24003KT 9999 FEW036 SCT120 23/12 Q1023;EQDQ01+000000PRSWM2
0170619840999992000091106004-21320+055480FM-15+0053FMEP V0202101N002112200019N0112651N1+02401+01101999999ADDGA1021+010809999GA2021+012909999GF104991999999999999999999MA1102301999999MW1001REMMET060FMEP 110600Z 21004KT 170V260 9999 FEW036 SCT043 24/11 Q1023;EQDQ01+000000PRSWM2
0162619840999992000091108004-21320+055480FM-15+0053FMEP V0202101N003112200019N0112651N1+02401+01201999999ADDGA1021+010809999GA2021+033009999GF104991999999999999999999MA1102201999999MW1001REMMET052FMEP 110800Z 21006KT 9999 FEW036 SCT110 24/12 Q1022;EQDQ01+000000PRSWM2
0185619840999992000091109004-21320+055480FM-15+0053FMEP V0202401N003110330019N0112651N1+02401+01201999999ADDGA1021+009009999GA2021+012909999GA3071+033009999GF107991999999999999999999MA1102101999999MW1001REMMET059FMEP 110900Z 24006KT 9999 FEW030 SCT043 BKN110 24/12 Q1021;EQDQ01+000000PRSWM2
0185619840999992000091111004-21320+055480FM-15+0053FMEP V0202401N001510360019N0112651N1+02301+01201999999ADDGA1021+009009999GA2021+018009999GA3081+036009999GF108991999999999999999999MA1102001999999MW1001REMMET059FMEP 111100Z 24003KT 9999 FEW030 SCT060 OVC120 23/12 Q1020;EQDQ01+000000PRSWM2
0185619840999992000091112004-21320+055480FM-15+0053FMEP V0202401N001510390019N0112651N1+02301+01201999999ADDGA1021+010809999GA2021+021009999GA3081+039009999GF108991999999999999999999MA1102001999999MW1001REMMET059FMEP 111200Z 24003KT 9999 FEW036 SCT070 OVC130 23/12 Q1020;EQDQ01+000000PRSWM2
0185619840999992000091113004-21320+055480FM-15+0053FMEP V0202401N001510390019N0112651N1+02201+01201999999ADDGA1021+009309999GA2021+021009999GA3081+039009999GF108991999999999999999999MA1102001999999MW1001REMMET059FMEP 111300Z 24003KT 9999 FEW031 SCT073 OVC130 22/12 Q1020;EQDQ01+000000PRSWM2
0139619840999992000091203004-21320+055480FM-15+0053FMEP V0200501N004112200019N0112651N1+01801+00801999999ADDGA1021+006309999GF102991999999999999999999MA1102301999999MW1001REMMET045FMEP 120300Z 05008KT 9999 FEW021 18/08 Q1023;EQDQ01+000000PRSWM2
0139619840999992000091204004-21320+055480FM-15+0053FMEP V0200901N001512200019N0112651N1+02201+00901999999ADDGA1021+006309999GF102991999999999999999999MA1102401999999MW1001REMMET045FMEP 120400Z 09003KT 9999 FEW021 22/09 Q1024;EQDQ01+000000PRSWM2
0139619840999992000091206004-21320+055480FM-15+0053FMEP V0201401N008212200019N0112651N1+02501+01501999999ADDGA1021+007809999GF102991999999999999999999MA1102401999999MW1001REMMET045FMEP 120600Z 14016KT 9999 FEW026 25/15 Q1024;EQDQ01+000000PRSWM2
0139619840999992000091207004-21320+055480FM-15+0053FMEP V0201401N008212200019N0112651N1+02501+01401999999ADDGA1021+007809999GF102991999999999999999999MA1102401999999MW1001REMMET045FMEP 120700Z 14016KT 9999 FEW026 25/14 Q1024;EQDQ01+000000PRSWM2
0139619840999992000091208004-21320+055480FM-15+0053FMEP V0201301N008712200019N0112651N1+02501+01401999999ADDGA1021+007809999GF102991999999999999999999MA1102301999999MW1001REMMET045FMEP 120800Z 13017KT 9999 FEW026 25/14 Q1023;EQDQ01+000000PRSWM2
0139619840999992000091209004-21320+055480FM-15+0053FMEP V0201401N008712200019N0112651N1+02501+01301999999ADDGA1021+006309999GF102991999999999999999999MA1102201999999MW1001REMMET045FMEP 120900Z 14017KT 9999 FEW021 25/13 Q1022;EQDQ01+000000PRSWM2
0139619840999992000091211004-21320+055480FM-15+0053FMEP V0201401N009812200019N0112651N1+02501+01601999999ADDGA1021+004509999GF102991999999999999999999MA1102101999999MW1001REMMET045FMEP 121100Z 14019KT 9999 FEW015 25/16 Q1021;EQDQ01+000000PRSWM2
0139619840999992000091213004-21320+055480FM-15+0053FMEP V0201301N009312200019N0112651N1+02301+01601999999ADDGA1021+004509999GF102991999999999999999999MA1102001999999MW1001REMMET045FMEP 121300Z 13018KT 9999 FEW015 23/16 Q1020;EQDQ01+000000PRSWM2
0142619840999992000091303004-21320+055480FM-15+0053FMEP V0200301N002112200019N0112651N1+01801+01301999999ADDGA1021+003009029GF102991999999999999999999MA1102201999999MW1001REMMET048FMEP 130300Z 03004KT 9999 FEW010TCU 18/13 Q1022;EQDQ01+000000PRSWM2
0150619840999992000091304004-21320+055480FM-15+0053FMEP V0201401N002612200019N0112651N1+02201+01701999999ADDGA1021+003909029GF102991999999999999999999MA1102301999999MW1001REMMET056FMEP 130400Z 14005KT 080V180 9999 FEW013TCU 22/17 Q1023;EQDQ01+000000PRSWM2
0165619840999992000091305004-21320+055480FM-15+0053FMEP V0201401N007712200019N0112651N1+02301+01801999999ADDGA1021+003909029GA2021+015009999GF104991999999999999999999MA1102401999999MW1001REMMET055FMEP 130500Z 14015KT 9999 FEW013TCU SCT050 23/18 Q1024;EQDQ01+000000PRSWM2
0165619840999992000091306004-21320+055480FM-15+0053FMEP V0201401N005112200019N0112651N1+02401+01701999999ADDGA1021+005409029GA2021+018009999GF104991999999999999999999MA1102401999999MW1001REMMET055FMEP 130600Z 14010KT 9999 FEW018TCU SCT060 24/17 Q1024;EQDQ01+000000PRSWM2
0165619840999992000091307004-21320+055480FM-15+0053FMEP V0201301N009310180019N0112651N1+02501+01701999999ADDGA1021+005409029GA2071+018009999GF107991999999999999999999MA1102401999999MW1001REMMET055FMEP 130700Z 13018KT 9999 FEW018TCU BKN060 25/17 Q1024;EQDQ01+000000PRSWM2
0186619840999992000091308004-21320+055480FM-15+0053FMEP V0201301N009810180019N0112651N1+02501+01801999999ADDGA1021+003909029GA2071+018009999GF107991999999999999999999MA1102301999999MW1161REMMET060FMEP 130800Z 13019KT 9999 VCSH FEW013TCU BKN060 25/18 Q1023;EQDQ01+000003PRSWM1Q02    003PRSWM1
0142619840999992000091310004-21320+055480FM-15+0053FMEP V0201401N010812200019N0112651N1+02501+01901999999ADDGA1021+006309029GF102991999999999999999999MA1102101999999MW1001REMMET048FMEP 131000Z 14021KT 9999 FEW021TCU 25/19 Q1021;EQDQ01+000000PRSWM2
0142619840999992000091311004-21320+055480FM-15+0053FMEP V0201301N011812200019N0112651N1+02401+01901999999ADDGA1021+005409029GF102991999999999999999999MA1102101999999MW1001REMMET048FMEP 131100Z 13023KT 9999 FEW018TCU 24/19 Q1021;EQDQ01+000000PRSWM2
0139619840999992000091312004-21320+055480FM-15+0053FMEP V0201401N011312200019N0112651N1+02301+01901999999ADDGA1021+007509999GF102991999999999999999999MA1102001999999MW1001REMMET045FMEP 131200Z 14022KT 9999 FEW025 23/19 Q1020;EQDQ01+000000PRSWM2
0139619840999992000091313004-21320+055480FM-15+0053FMEP V0201201N010312200019N0112651N1+02301+01701999999ADDGA1021+007509999GF102991999999999999999999MA1102001999999MW1001REMMET045FMEP 131300Z 12020KT 9999 FEW025 23/17 Q1020;EQDQ01+000000PRSWM2
0139619840999992000091403004-21320+055480FM-15+0053FMEP V0200401N004112200019N0112651N1+01901+01101999999ADDGA1021+007509999GF102991999999999999999999MA1102201999999MW1001REMMET045FMEP 140300Z 04008KT 9999 FEW025 19/11 Q1022;EQDQ01+000000PRSWM2
0139619840999992000091404004-21320+055480FM-15+0053FMEP V0200401N002612200019N0112651N1+02201+01201999999ADDGA1021+007509999GF102991999999999999999999MA1102201999999MW1001REMMET045FMEP 140400Z 04005KT 9999 FEW025 22/12 Q1022;EQDQ01+000000PRSWM2
0147619840999992000091406004-21320+055480FM-15+0053FMEP V0202501N002612200019N0112651N1+02501+01501999999ADDGA1021+008409999GF102991999999999999999999MA1102201999999MW1001REMMET053FMEP 140600Z 25005KT 220V290 9999 FEW028 25/15 Q1022;EQDQ01+000000PRSWM2
0139619840999992000091407004-21320+055480FM-15+0053FMEP V0202701N005112200019N0112651N1+02601+01701999999ADDGA1021+006309999GF102991999999999999999999MA1102201999999MW1001REMMET045FMEP 140700Z 27010KT 9999 FEW021 26/17 Q1022;EQDQ01+000000PRSWM2
0139619840999992000091408004-21320+055480FM-15+0053FMEP V0202501N004612200019N0112651N1+02601+01701999999ADDGA1021+009009999GF102991999999999999999999MA1102201999999MW1001REMMET045FMEP 140800Z 25009KT 9999 FEW030 26/17 Q1022;EQDQ01+000000PRSWM2
0139619840999992000091409004-21320+055480FM-15+0053FMEP V0202501N004112200019N0112651N1+02501+01701999999ADDGA1021+009009999GF102991999999999999999999MA1102101999999MW1001REMMET045FMEP 140900Z 25008KT 9999 FEW030 25/17 Q1021;EQDQ01+000000PRSWM2
0162619840999992000091410004-21320+055480FM-15+0053FMEP V0202501N003612200019N0112651N1+02501+01701999999ADDGA1021+009009999GA2021+018009999GF104991999999999999999999MA1102101999999MW1001REMMET052FMEP 141000Z 25007KT 9999 FEW030 SCT066 25/17 Q1021;EQDQ01+000000PRSWM2
0147619840999992000091411004-21320+055480FM-15+0053FMEP V0202301N002612200019N0112651N1+02501+01601999999ADDGA1021+009009999GF102991999999999999999999MA1102001999999MW1001REMMET053FMEP 141100Z 23005KT 200V280 9999 FEW030 25/16 Q1020;EQDQ01+000000PRSWM2
0139619840999992000091412004-21320+055480FM-15+0053FMEP V0201901N002612200019N0112651N1+02501+01601999999ADDGA1021+006309999GF102991999999999999999999MA1102001999999MW1001REMMET045FMEP 141200Z 19005KT 9999 FEW021 25/16 Q1020;EQDQ01+000000PRSWM2
0139619840999992000091413004-21320+055480FM-15+0053FMEP V0201801N002612200019N0112651N1+02401+01601999999ADDGA1021+006309999GF102991999999999999999999MA1102001999999MW1001REMMET045FMEP 141300Z 18005KT 9999 FEW021 24/16 Q1020;EQDQ01+000000PRSWM2
0139619840999992000091503004-21320+055480FM-15+0053FMEP V0200501N002612200019N0112651N1+01901+01501999999ADDGA1021+009909999GF102991999999999999999999MA1102001999999MW1001REMMET045FMEP 150300Z 05005KT 9999 FEW033 19/15 Q1020;EQDQ01+000000PRSWM2
0147619840999992000091504004-21320+055480FM-15+0053FMEP V0201101N002112200019N0112651N1+02301+01601999999ADDGA1021+009909999GF102991999999999999999999MA1102001999999MW1001REMMET053FMEP 150400Z 11004KT 050V150 9999 FEW033 23/16 Q1020;EQDQ01+000000PRSWM2
0139619840999992000091506004-21320+055480FM-15+0053FMEP V0201801N003112200019N0112651N1+02501+01701999999ADDGA1021+009909999GF102991999999999999999999MA1102101999999MW1001REMMET045FMEP 150600Z 18006KT 9999 FEW033 25/17 Q1021;EQDQ01+000000PRSWM2
0139619840999992000091507004-21320+055480FM-15+0053FMEP V0202101N003112200019N0112651N1+02501+01701999999ADDGA1021+009909999GF102991999999999999999999MA1102001999999MW1001REMMET045FMEP 150700Z 21006KT 9999 FEW033 25/17 Q1020;EQDQ01+000000PRSWM2
0139619840999992000091508004-21320+055480FM-15+0053FMEP V0202301N003612200019N0112651N1+02601+01701999999ADDGA1021+009909999GF102991999999999999999999MA1102001999999MW1001REMMET045FMEP 150800Z 23007KT 9999 FEW033 26/17 Q1020;EQDQ01+000000PRSWM2
0139619840999992000091509004-21320+055480FM-15+0053FMEP V0202201N003612200019N0112651N1+02601+01701999999ADDGA1021+007509999GF102991999999999999999999MA1101901999999MW1001REMMET045FMEP 150900Z 22007KT 9999 FEW025 26/17 Q1019;EQDQ01+000000PRSWM2
0162619840999992000091510004-21320+055480FM-15+0053FMEP V0202201N003612200019N0112651N1+02501+01701999999ADDGA1021+007509999GA2021+018009999GF104991999999999999999999MA1101801999999MW1001REMMET052FMEP 151000Z 22007KT 9999 FEW025 SCT066 25/17 Q1018;EQDQ01+000000PRSWM2
0162619840999992000091511004-21320+055480FM-15+0053FMEP V0202201N003612200019N0112651N1+02501+01701999999ADDGA1021+007509999GA2021+018009999GF104991999999999999999999MA1101801999999MW1001REMMET052FMEP 151100Z 22007KT 9999 FEW025 SCT066 25/17 Q1018;EQDQ01+000000PRSWM2
0139619840999992000091512004-21320+055480FM-15+0053FMEP V0202001N002612200019N0112651N1+02501+01801999999ADDGA1021+006309999GF102991999999999999999999MA1101801999999MW1001REMMET045FMEP 151200Z 20005KT 9999 FEW021 25/18 Q1018;EQDQ01+000000PRSWM2
0139619840999992000091513004-21320+055480FM-15+0053FMEP V0202101N002112200019N0112651N1+02501+01801999999ADDGA1021+006309999GF102991999999999999999999MA1101801999999MW1001REMMET045FMEP 151300Z 21004KT 9999 FEW021 25/18 Q1018;EQDQ01+000000PRSWM2
0139619840999992000091603004-21320+055480FM-15+0053FMEP V0200301N004112200019N0112651N1+01901+01401999999ADDGA1021+006909999GF102991999999999999999999MA1101801999999MW1001REMMET045FMEP 160300Z 03008KT 9999 FEW023 19/14 Q1018;EQDQ01+000000PRSWM2
0139619840999992000091604004-21320+055480FM-15+0053FMEP V0202901N001512200019N0112651N1+02201+01501999999ADDGA1021+012009999GF102991999999999999999999MA1101801999999MW1001REMMET045FMEP 160400Z 29003KT 9999 FEW040 22/15 Q1018;EQDQ01+000000PRSWM2
0091619840999992000091605004-21320+055480FM-15+0053FMEP V0202501N00261220001CN0099001N1+02401+01701999999ADDMA1101901999999MW1001REMMET039FMEP 160500Z 25005KT CAVOK 24/17 Q1019;EQDQ01+000000PRSWM2
0139619840999992000091606004-21320+055480FM-15+0053FMEP V0202601N003112200019N0112651N1+02401+01801999999ADDGA1021+009309999GF102991999999999999999999MA1101901999999MW1001REMMET045FMEP 160600Z 26006KT 9999 FEW031 24/18 Q1019;EQDQ01+000000PRSWM2
0147619840999992000091607004-21320+055480FM-15+0053FMEP V0202501N002112200019N0112651N1+02501+01701999999ADDGA1021+010509999GF102991999999999999999999MA1101901999999MW1001REMMET053FMEP 160700Z 25004KT 180V320 9999 FEW035 25/17 Q1019;EQDQ01+000000PRSWM2
0170619840999992000091608004-21320+055480FM-15+0053FMEP V0202501N002112200019N0112651N1+02501+01601999999ADDGA1021+012009999GA2021+048009999GF104991999999999999999999MA1101801999999MW1001REMMET060FMEP 160800Z 25004KT 200V310 9999 FEW040 SCT160 25/16 Q1018;EQDQ01+000000PRSWM2
0162619840999992000091609004-21320+055480FM-15+0053FMEP V0202201N004112200019N0112651N1+02601+01601999999ADDGA1021+012009999GA2021+048009999GF104991999999999999999999MA1101801999999MW1001REMMET052FMEP 160900Z 22008KT 9999 FEW040 SCT160 26/16 Q1018;EQDQ01+000000PRSWM2
0162619840999992000091610004-21320+055480FM-15+0053FMEP V0201801N003110450019N0112651N1+02501+01601999999ADDGA1021+012009999GA2071+045009999GF107991999999999999999999MA1101801999999MW1001REMMET052FMEP 161000Z 18006KT 9999 FEW040 BKN150 25/16 Q1018;EQDQ01+000000PRSWM2
0162619840999992000091611004-21320+055480FM-15+0053FMEP V0201601N008210450019N0112651N1+02401+01901999999ADDGA1021+012009999GA2071+045009999GF107991999999999999999999MA1101691999999MW1001REMMET052FMEP 161100Z 16016KT 9999 FEW040 BKN150 24/19 Q1017;EQDQ01+000000PRSWM2
0172619840999992000091612004-21320+055480FM-15+0053FMEP V0201401N011810108019N0080001N1+99999+99999999999ADDGA1021+000909999GA2021+003009029GA3071+010809999GF107991999999999999999999MW1001MW2161REMMET055FMEP 161200Z 14023KT 8000 VCSH SCT003 FEW010TCU BKN036;EQDQ01+000003PRSWM1
0172619840999992000091613004-21320+055480FM-15+0053FMEP V0201401N010310120019N0020001N1+99999+99999999999ADDGA1021+000909999GA2021+003009029GA3081+012009999GF108991999999999999999999MW1001MW2811REMMET055FMEP 161300Z 14020KT 2000 SHRA SCT003 SCT010TCU OVC040;EQDQ01+000003PRSWM1
0165619840999992000091703004-21320+055480FM-15+0053FMEP V0201101N005710150019N0112651N1+01901+01201999999ADDGA1021+004809029GA2071+015009999GF107991999999999999999999MA1102301999999MW1001REMMET055FMEP 170300Z 11011KT 9999 FEW016TCU BKN056 19/12 Q1023;EQDQ01+000000PRSWM2
0162619840999992000091704004-21320+055480FM-15+0053FMEP V0201101N007212200019N0112651N1+02101+01101999999ADDGA1021+012009999GA2021+018009999GF104991999999999999999999MA1102301999999MW1001REMMET052FMEP 170400Z 11014KT 9999 FEW040 SCT066 21/11 Q1023;EQDQ01+000000PRSWM2
0162619840999992000091706004-21320+055480FM-15+0053FMEP V0201201N011312200019N0112651N1+02301+01101999999ADDGA1021+012009999GA2021+024009999GF104991999999999999999999MA1102301999999MW1001REMMET052FMEP 170600Z 12022KT 9999 FEW040 SCT083 23/11 Q1023;EQDQ01+000000PRSWM2
0139619840999992000091707004-21320+055480FM-15+0053FMEP V0201301N011812200019N0112651N1+02401+01101999999ADDGA1021+012009999GF102991999999999999999999MA1102301999999MW1001REMMET045FMEP 170700Z 13023KT 9999 FEW040 24/11 Q1023;EQDQ01+000000PRSWM2
0139619840999992000091708004-21320+055480FM-15+0053FMEP V0201301N011812200019N0112651N1+02301+01401999999ADDGA1021+012909999GF102991999999999999999999MA1102201999999MW1001REMMET045FMEP 170800Z 13023KT 9999 FEW043 23/14 Q1022;EQDQ01+000000PRSWM2
0139619840999992000091709004-21320+055480FM-15+0053FMEP V0201401N013412200019N0112651N1+02301+01301999999ADDGA1021+003309999GF102991999999999999999999MA1102101999999MW1001REMMET045FMEP 170900Z 14026KT 9999 FEW011 23/13 Q1021;EQDQ01+000000PRSWM2
0139619840999992000091710004-21320+055480FM-15+0053FMEP V0201401N013412200019N0112651N1+02401+01301999999ADDGA1021+010809999GF102991999999999999999999MA1102101999999MW1001REMMET045FMEP 171000Z 14026KT 9999 FEW036 24/13 Q1021;EQDQ01+000000PRSWM2
0139619840999992000091711004-21320+055480FM-15+0053FMEP V0201401N013412200019N0112651N1+02301+01401999999ADDGA1021+010809999GF102991999999999999999999MA1102001999999MW1001REMMET045FMEP 171100Z 14026KT 9999 FEW036 23/14 Q1020;EQDQ01+000000PRSWM2
0139619840999992000091712004-21320+055480FM-15+0053FMEP V0201301N012912200019N0112651N1+02201+01401999999ADDGA1021+010509999GF102991999999999999999999MA1102001999999MW1001REMMET045FMEP 171200Z 13025KT 9999 FEW035 22/14 Q1020;EQDQ01+000000PRSWM2
0139619840999992000091713004-21320+055480FM-15+0053FMEP V0201301N012312200019N0112651N1+02201+01301999999ADDGA1021+003309999GF102991999999999999999999MA1102101999999MW1001REMMET045FMEP 171300Z 13024KT 9999 FEW011 22/13 Q1021;EQDQ01+000000PRSWM2
0139619840999992000091714004-21320+055480FM-15+0053FMEP V0201201N012312200019N0112651N1+02101+01301999999ADDGA1021+005409999GF102991999999999999999999MA1102101999999MW1001REMMET045FMEP 171400Z 12024KT 9999 FEW018 21/13 Q1021;EQDQ01+000000PRSWM2
0139619840999992000091715004-21320+055480FM-15+0053FMEP V0201201N010312200019N0112651N1+02001+01201999999ADDGA1021+007809999GF102991999999999999999999MA1102101999999MW1001REMMET045FMEP 171500Z 12020KT 9999 FEW026 20/12 Q1021;EQDQ01+000000PRSWM2
0162619840999992000091803004-21320+055480FM-15+0053FMEP V0201201N005112200019N0112651N1+01901+01301999999ADDGA1021+007809999GA2021+024009999GF104991999999999999999999MA1102301999999MW1001REMMET052FMEP 180300Z 12010KT 9999 FEW026 SCT080 19/13 Q1023;EQDQ01+000000PRSWM2
0139619840999992000091804004-21320+055480FM-15+0053FMEP V0201301N005112200019N0112651N1+02101+01301999999ADDGA1021+007809999GF102991999999999999999999MA1102301999999MW1001REMMET045FMEP 180400Z 13010KT 9999 FEW026 21/13 Q1023;EQDQ01+000000PRSWM2
0162619840999992000091805004-21320+055480FM-15+0053FMEP V0201201N009812200019N0112651N1+02101+01401999999ADDGA1021+007809999GA2021+024009999GF104991999999999999999999MA1102301999999MW1001REMMET052FMEP 180500Z 12019KT 9999 FEW026 SCT080 21/14 Q1023;EQDQ01+000000PRSWM2
0139619840999992000091806004-21320+055480FM-15+0053FMEP V0201301N010812200019N0112651N1+02301+01301999999ADDGA1021+007809999GF102991999999999999999999MA1102301999999MW1001REMMET045FMEP 180600Z 13021KT 9999 FEW026 23/13 Q1023;EQDQ01+000000PRSWM2
0139619840999992000091807004-21320+055480FM-15+0053FMEP V0201301N012312200019N0112651N1+02301+01501999999ADDGA1021+006309999GF102991999999999999999999MA1102201999999MW1001REMMET045FMEP 180700Z 13024KT 9999 FEW021 23/15 Q1022;EQDQ01+000000PRSWM2
0139619840999992000091808004-21320+055480FM-15+0053FMEP V0201301N010812200019N0112651N1+02401+01501999999ADDGA1021+006309999GF102991999999999999999999MA1102201999999MW1001REMMET045FMEP 180800Z 13021KT 9999 FEW021 24/15 Q1022;EQDQ01+000000PRSWM2
0162619840999992000091810004-21320+055480FM-15+0053FMEP V0201401N011312200019N0112651N1+02301+01501999999ADDGA1021+006309999GA2021+018009999GF104991999999999999999999MA1102101999999MW1001REMMET052FMEP 181000Z 14022KT 9999 FEW021 SCT060 23/15 Q1021;EQDQ01+000000PRSWM2
0162619840999992000091811004-21320+055480FM-15+0053FMEP V0201301N011812200019N0112651N1+02201+01501999999ADDGA1021+006309999GA2021+018009999GF104991999999999999999999MA1102001999999MW1001REMMET052FMEP 181100Z 13023KT 9999 FEW021 SCT060 22/15 Q1020;EQDQ01+000000PRSWM2
0139619840999992000091812004-21320+055480FM-15+0053FMEP V0201301N012312200019N0112651N1+02201+01501999999ADDGA1021+006309999GF102991999999999999999999MA1102001999999MW1001REMMET045FMEP 181200Z 13024KT 9999 FEW021 22/15 Q1020;EQDQ01+000000PRSWM2
0139619840999992000091813004-21320+055480FM-15+0053FMEP V0201301N012312200019N0112651N1+02201+01401999999ADDGA1021+004509999GF102991999999999999999999MA1102001999999MW1001REMMET045FMEP 181300Z 13024KT 9999 FEW015 22/14 Q1020;EQDQ01+000000PRSWM2
0142619840999992000091904004-21320+055480FM-15+0053FMEP V0201101N006212200019N0112651N1+02101+01401999999ADDGA1021+003309029GF102991999999999999999999MA1102101999999MW1001REMMET048FMEP 190400Z 11012KT 9999 FEW011TCU 21/14 Q1021;EQDQ01+000000PRSWM2
0142619840999992000091905004-21320+055480FM-15+0053FMEP V0201201N009312200019N0112651N1+02301+01501999999ADDGA1021+003309029GF102991999999999999999999MA1102101999999MW1001REMMET048FMEP 190500Z 12018KT 9999 FEW011TCU 23/15 Q1021;EQDQ01+000000PRSWM2
0139619840999992000091906004-21320+055480FM-15+0053FMEP V0201301N009812200019N0112651N1+02301+01501999999ADDGA1021+003909999GF102991999999999999999999MA1102101999999MW1001REMMET045FMEP 190600Z 13019KT 9999 FEW013 23/15 Q1021;EQDQ01+000000PRSWM2
0139619840999992000091907004-21320+055480FM-15+0053FMEP V0201401N010312200019N0112651N1+02301+01501999999ADDGA1021+003909999GF102991999999999999999999MA1102101999999MW1001REMMET045FMEP 190700Z 14020KT 9999 FEW013 23/15 Q1021;EQDQ01+000000PRSWM2
0139619840999992000091908004-21320+055480FM-15+0053FMEP V0201301N010312200019N0112651N1+02301+01401999999ADDGA1021+009009999GF102991999999999999999999MA1102001999999MW1001REMMET045FMEP 190800Z 13020KT 9999 FEW030 23/14 Q1020;EQDQ01+000000PRSWM2
0162619840999992000091909004-21320+055480FM-15+0053FMEP V0201401N010812200019N0112651N1+02401+01501999999ADDGA1021+009009999GA2021+033009999GF104991999999999999999999MA1102001999999MW1001REMMET052FMEP 190900Z 14021KT 9999 FEW030 SCT110 24/15 Q1020;EQDQ01+000000PRSWM2
0162619840999992000091910004-21320+055480FM-15+0053FMEP V0201401N010310360019N0112651N1+02301+01601999999ADDGA1021+009009999GA2071+036009999GF107991999999999999999999MA1102001999999MW1001REMMET052FMEP 191000Z 14020KT 9999 FEW030 BKN120 23/16 Q1020;EQDQ01+000000PRSWM2
0162619840999992000091911004-21320+055480FM-15+0053FMEP V0201301N009810360019N0112651N1+02301+01401999999ADDGA1021+009009999GA2071+036009999GF107991999999999999999999MA1101901999999MW1001REMMET052FMEP 191100Z 13019KT 9999 FEW030 BKN120 23/14 Q1019;EQDQ01+000000PRSWM2
0162619840999992000091912004-21320+055480FM-15+0053FMEP V0201301N011310360019N0112651N1+02301+01501999999ADDGA1021+009009999GA2071+036009999GF107991999999999999999999MA1101901999999MW1001REMMET052FMEP 191200Z 13022KT 9999 FEW030 BKN120 23/15 Q1019;EQDQ01+000000PRSWM2
0162619840999992000091913004-21320+055480FM-15+0053FMEP V0201301N011812200019N0112651N1+02201+01601999999ADDGA1021+009009999GA2021+036009999GF104991999999999999999999MA1101901999999MW1001REMMET052FMEP 191300Z 13023KT 9999 FEW030 SCT120 22/16 Q1019;EQDQ01+000000PRSWM2
0163619840999992000092003004-21320+055480FM-15+0053FMEP V0200901N003612200019N0080001N1+01801+01301999999ADDGA1021+009909029GF104991999999999999999999MA1102101999999MW1161REMMET053FMEP 200300Z 09007KT 8000 VCSH SCT033TCU 18/13 Q1021;EQDQ01+000003PRSWM1Q02    003PRSWM1
0163619840999992000092004004-21320+055480FM-15+0053FMEP V0200901N004110099019N0080001N1+02001+01701999999ADDGA1071+009909029GF107991999999999999999999MA1102101999999MW1161REMMET053FMEP 200400Z 09008KT 8000 VCSH BKN033TCU 20/17 Q1021;EQDQ01+000003PRSWM1Q02    003PRSWM1
0163619840999992000092005004-21320+055480FM-15+0053FMEP V0201301N009312200019N0080001N1+02201+01701999999ADDGA1021+009909029GF104991999999999999999999MA1102101999999MW1161REMMET053FMEP 200500Z 13018KT 8000 VCSH SCT033TCU 22/17 Q1021;EQDQ01+000003PRSWM1Q02    003PRSWM1
0139619840999992000092006004-21320+055480FM-15+0053FMEP V0201201N009812200019N0112651N1+02301+01601999999ADDGA1021+009909999GF102991999999999999999999MA1102101999999MW1001REMMET045FMEP 200600Z 12019KT 9999 FEW033 23/16 Q1021;EQDQ01+000000PRSWM2
0139619840999992000092007004-21320+055480FM-15+0053FMEP V0201301N011312200019N0112651N1+02301+01701999999ADDGA1021+007809999GF102991999999999999999999MA1102001999999MW1001REMMET045FMEP 200700Z 13022KT 9999 FEW026 23/17 Q1020;EQDQ01+000000PRSWM2
0139619840999992000092008004-21320+055480FM-15+0053FMEP V0201301N009810078019N0112651N1+02301+01701999999ADDGA1071+007809999GF107991999999999999999999MA1102001999999MW1001REMMET045FMEP 200800Z 13019KT 9999 BKN026 23/17 Q1020;EQDQ01+000000PRSWM2
0139619840999992000092009004-21320+055480FM-15+0053FMEP V0201401N011310078019N0112651N1+02301+01601999999ADDGA1071+007809999GF107991999999999999999999MA1102001999999MW1001REMMET045FMEP 200900Z 14022KT 9999 BKN026 23/16 Q1020;EQDQ01+000000PRSWM2
0165619840999992000092010004-21320+055480FM-15+0053FMEP V0201301N010812200019N0112651N1+02301+01701999999ADDGA1021+007809029GA2021+018009999GF104991999999999999999999MA1101901999999MW1001REMMET055FMEP 201000Z 13021KT 9999 FEW026TCU SCT066 23/17 Q1019;EQDQ01+000000PRSWM2
0165619840999992000092012004-21320+055480FM-15+0053FMEP V0201301N011312200019N0112651N1+02201+01701999999ADDGA1021+004509029GA2021+018009999GF104991999999999999999999MA1101901999999MW1001REMMET055FMEP 201200Z 13022KT 9999 FEW015TCU SCT066 22/17 Q1019;EQDQ01+000000PRSWM2
0165619840999992000092013004-21320+055480FM-15+0053FMEP V0201201N009812200019N0112651N1+02101+01701999999ADDGA1021+004509029GA2021+018009999GF104991999999999999999999MA1101901999999MW1001REMMET055FMEP 201300Z 12019KT 9999 FEW015TCU SCT066 21/17 Q1019;EQDQ01+000000PRSWM2
0162619840999992000092103004-21320+055480FM-15+0053FMEP V0201101N007712200019N0112651N1+02001+01401999999ADDGA1021+005409999GA2021+018009999GF104991999999999999999999MA1102001999999MW1001REMMET052FMEP 210300Z 11015KT 9999 FEW018 SCT060 20/14 Q1020;EQDQ01+000000PRSWM2
0139619840999992000092104004-21320+055480FM-15+0053FMEP V0201101N005112200019N0112651N1+02101+01501999999ADDGA1021+006909999GF102991999999999999999999MA1102001999999MW1001REMMET045FMEP 210400Z 11010KT 9999 FEW023 21/15 Q1020;EQDQ01+000000PRSWM2
0139619840999992000092105004-21320+055480FM-15+0053FMEP V0201401N009312200019N0112651N1+02301+01501999999ADDGA1021+009309999GF102991999999999999999999MA1102001999999MW1001REMMET045FMEP 210500Z 14018KT 9999 FEW031 23/15 Q1020;EQDQ01+000000PRSWM2
0139619840999992000092106004-21320+055480FM-15+0053FMEP V0201201N009812200019N0112651N1+02301+01501999999ADDGA1021+009009999GF102991999999999999999999MA1102001999999MW1001REMMET045FMEP 210600Z 12019KT 9999 FEW030 23/15 Q1020;EQDQ01+000000PRSWM2
0139619840999992000092107004-21320+055480FM-15+0053FMEP V0201401N010312200019N0112651N1+02401+01601999999ADDGA1021+009009999GF102991999999999999999999MA1102001999999MW1001REMMET045FMEP 210700Z 14020KT 9999 FEW030 24/16 Q1020;EQDQ01+000000PRSWM2
0162619840999992000092108004-21320+055480FM-15+0053FMEP V0201401N010812200019N0112651N1+02401+01601999999ADDGA1021+009009999GA2021+018009999GF104991999999999999999999MA1101901999999MW1001REMMET052FMEP 210800Z 14021KT 9999 FEW030 SCT063 24/16 Q1019;EQDQ01+000000PRSWM2
0130619840999992000092109004-21320+055480FM-15+0053FMEP V0201401N011312200019N0112651N1+99999+99999999999ADDGA1021+009009999GF102991999999999999999999MW1001REMMET051FMEP 210900Z 14022KT 9999 FEW030SCT050 25/16 Q1018;EQDQ01+000000PRSWM2
0162619840999992000092110004-21320+055480FM-15+0053FMEP V0201301N010812200019N0112651N1+02401+01501999999ADDGA1021+009009999GA2021+015009999GF104991999999999999999999MA1101801999999MW1001REMMET052FMEP 211000Z 13021KT 9999 FEW030 SCT050 24/15 Q1018;EQDQ01+000000PRSWM2
0162619840999992000092112004-21320+055480FM-15+0053FMEP V0201301N010310150019N0112651N1+02301+01601999999ADDGA1021+009009999GA2071+015009999GF107991999999999999999999MA1101801999999MW1001REMMET052FMEP 211200Z 13020KT 9999 FEW030 BKN050 23/16 Q1018;EQDQ01+000000PRSWM2
0162619840999992000092113004-21320+055480FM-15+0053FMEP V0201201N009810180019N0112651N1+02201+01601999999ADDGA1021+009009999GA2071+018009999GF107991999999999999999999MA1101801999999MW1001REMMET052FMEP 211300Z 12019KT 9999 FEW030 BKN060 22/16 Q1018;EQDQ01+000000PRSWM2
0162619840999992000092203004-21320+055480FM-15+0053FMEP V0200701N003112200019N0112651N1+01901+01101999999ADDGA1021+010809999GA2021+015009999GF104991999999999999999999MA1102101999999MW1001REMMET052FMEP 220300Z 07006KT 9999 FEW036 SCT050 19/11 Q1021;EQDQ01+000000PRSWM2
0162619840999992000092204004-21320+055480FM-15+0053FMEP V0201201N005712200019N0112651N1+02301+01401999999ADDGA1021+012009999GA2021+015009999GF104991999999999999999999MA1102201999999MW1001REMMET052FMEP 220400Z 12011KT 9999 FEW040 SCT056 23/14 Q1022;EQDQ01+000000PRSWM2
0139619840999992000092205004-21320+055480FM-15+0053FMEP V0201301N007712200019N0112651N1+02401+01101999999ADDGA1021+012009999GF102991999999999999999999MA1102201999999MW1001REMMET045FMEP 220500Z 13015KT 9999 FEW040 24/11 Q1022;EQDQ01+000000PRSWM2
0139619840999992000092206004-21320+055480FM-15+0053FMEP V0201401N010812200019N0112651N1+02401+01501999999ADDGA1021+010509999GF102991999999999999999999MA1102201999999MW1001REMMET045FMEP 220600Z 14021KT 9999 FEW035 24/15 Q1022;EQDQ01+000000PRSWM2
0139619840999992000092207004-21320+055480FM-15+0053FMEP V0201301N011312200019N0112651N1+02401+01601999999ADDGA1021+009909999GF102991999999999999999999MA1102101999999MW1001REMMET045FMEP 220700Z 13022KT 9999 FEW033 24/16 Q1021;EQDQ01+000000PRSWM2
0162619840999992000092208004-21320+055480FM-15+0053FMEP V0201301N012312200019N0112651N1+02401+01601999999ADDGA1021+011409999GA2021+021009999GF104991999999999999999999MA1102001999999MW1001REMMET052FMEP 220800Z 13024KT 9999 FEW038 SCT073 24/16 Q1020;EQDQ01+000000PRSWM2
0162619840999992000092210004-21320+055480FM-15+0053FMEP V0201401N011312200019N0112651N1+02501+01501999999ADDGA1021+011409999GA2021+024009999GF104991999999999999999999MA1101901999999MW1001REMMET052FMEP 221000Z 14022KT 9999 FEW038 SCT080 25/15 Q1019;EQDQ01+000000PRSWM2
0139619840999992000092211004-21320+055480FM-15+0053FMEP V0201401N010312200019N0112651N1+02401+01401999999ADDGA1021+010809999GF102991999999999999999999MA1101901999999MW1001REMMET045FMEP 221100Z 14020KT 9999 FEW036 24/14 Q1019;EQDQ01+000000PRSWM2
0162619840999992000092212004-21320+055480FM-15+0053FMEP V0201401N010812200019N0112651N1+02301+01401999999ADDGA1021+010809999GA2021+048009999GF104991999999999999999999MA1101901999999MW1001REMMET052FMEP 221200Z 14021KT 9999 FEW036 SCT160 23/14 Q1019;EQDQ01+000000PRSWM2
0139619840999992000092213004-21320+055480FM-15+0053FMEP V0201301N010812200019N0112651N1+02301+01501999999ADDGA1021+010809999GF102991999999999999999999MA1101901999999MW1001REMMET045FMEP 221300Z 13021KT 9999 FEW036 23/15 Q1019;EQDQ01+000000PRSWM2
0162619840999992000092214004-21320+055480FM-15+0053FMEP V0201301N008712200019N0112651N1+02201+01601999999ADDGA1021+010809999GA2021+048009999GF104991999999999999999999MA1101901999999MW1001REMMET052FMEP 221400Z 13017KT 9999 FEW036 SCT160 22/16 Q1019;EQDQ01+000000PRSWM2
0162619840999992000092215004-21320+055480FM-15+0053FMEP V0201201N008210390019N0112651N1+02101+01601999999ADDGA1021+007509999GA2071+039009999GF107991999999999999999999MA1102001999999MW1001REMMET052FMEP 221500Z 12016KT 9999 FEW025 BKN130 21/16 Q1020;EQDQ01+000000PRSWM2
0142619840999992000092303004-21320+055480FM-15+0053FMEP V0200601N001512200019N0112651N1+01901+01201999999ADDGA1021+007809029GF102991999999999999999999MA1102001999999MW1001REMMET048FMEP 230300Z 06003KT 9999 FEW026TCU 19/12 Q1020;EQDQ01+000000PRSWM2
0150619840999992000092304004-21320+055480FM-15+0053FMEP V02099999999992200019N0112651N1+02301+01501999999ADDGA1021+007809029GF102991999999999999999999MA1102101999999MW1001REMMET056FMEP 230400Z VRB04KT 250V180 9999 FEW026TCU 23/15 Q1021;EQDQ01+000000PRSWM2
0142619840999992000092305004-21320+055480FM-15+0053FMEP V0201301N009812200019N0112651N1+02401+01801999999ADDGA1021+007809029GF102991999999999999999999MA1102101999999MW1001REMMET048FMEP 230500Z 13019KT 9999 FEW026TCU 24/18 Q1021;EQDQ01+000000PRSWM2
0142619840999992000092306004-21320+055480FM-15+0053FMEP V0201301N010812200019N0112651N1+02401+01701999999ADDGA1021+006309029GF102991999999999999999999MA1102001999999MW1001REMMET048FMEP 230600Z 13021KT 9999 FEW021TCU 24/17 Q1020;EQDQ01+000000PRSWM2
0139619840999992000092307004-21320+055480FM-15+0053FMEP V0201301N012312200019N0112651N1+02501+01801999999ADDGA1021+006309999GF102991999999999999999999MA1102001999999MW1001REMMET045FMEP 230700Z 13024KT 9999 FEW021 25/18 Q1020;EQDQ01+000000PRSWM2
0139619840999992000092308004-21320+055480FM-15+0053FMEP V0201301N011312200019N0112651N1+02501+01801999999ADDGA1021+006309999GF102991999999999999999999MA1101901999999MW1001REMMET045FMEP 230800Z 13022KT 9999 FEW021 25/18 Q1019;EQDQ01+000000PRSWM2
0162619840999992000092309004-21320+055480FM-15+0053FMEP V0201401N012312200019N0112651N1+02501+01701999999ADDGA1021+006309999GA2021+018009999GF104991999999999999999999MA1101801999999MW1001REMMET052FMEP 230900Z 14024KT 9999 FEW021 SCT066 25/17 Q1018;EQDQ01+000000PRSWM2
0162619840999992000092310004-21320+055480FM-15+0053FMEP V0201401N011812200019N0112651N1+02401+01801999999ADDGA1021+004509999GA2021+018009999GF104991999999999999999999MA1101801999999MW1001REMMET052FMEP 231000Z 14023KT 9999 FEW015 SCT066 24/18 Q1018;EQDQ01+000000PRSWM2
0162619840999992000092311004-21320+055480FM-15+0053FMEP V0201301N011812200019N0112651N1+02401+01801999999ADDGA1021+004509999GA2021+018009999GF104991999999999999999999MA1101801999999MW1001REMMET052FMEP 231100Z 13023KT 9999 FEW015 SCT066 24/18 Q1018;EQDQ01+000000PRSWM2
0162619840999992000092312004-21320+055480FM-15+0053FMEP V0201301N011812200019N0112651N1+02301+01701999999ADDGA1021+004509999GA2021+018009999GF104991999999999999999999MA1101801999999MW1001REMMET052FMEP 231200Z 13023KT 9999 FEW015 SCT066 23/17 Q1018;EQDQ01+000000PRSWM2
0162619840999992000092313004-21320+055480FM-15+0053FMEP V0201301N011312200019N0112651N1+02201+01701999999ADDGA1021+004509999GA2021+018009999GF104991999999999999999999MA1101801999999MW1001REMMET052FMEP 231300Z 13022KT 9999 FEW015 SCT066 22/17 Q1018;EQDQ01+000000PRSWM2
0147619840999992000092403004-21320+055480FM-15+0053FMEP V0200901N003112200019N0112651N1+01901+01601999999ADDGA1021+007809999GF102991999999999999999999MA1102101999999MW1001REMMET053FMEP 240300Z 09006KT 050V140 9999 FEW026 19/16 Q1021;EQDQ01+000000PRSWM2
0139619840999992000092404004-21320+055480FM-15+0053FMEP V0201301N008712200019N0112651N1+02201+01701999999ADDGA1021+007809999GF102991999999999999999999MA1102101999999MW1001REMMET045FMEP 240400Z 13017KT 9999 FEW026 22/17 Q1021;EQDQ01+000000PRSWM2
0139619840999992000092405004-21320+055480FM-15+0053FMEP V0201301N008712200019N0112651N1+02301+01701999999ADDGA1021+006309999GF102991999999999999999999MA1102201999999MW1001REMMET045FMEP 240500Z 13017KT 9999 FEW021 23/17 Q1022;EQDQ01+000000PRSWM2
0139619840999992000092406004-21320+055480FM-15+0053FMEP V0201301N011312200019N0112651N1+02401+01701999999ADDGA1021+006309999GF102991999999999999999999MA1102101999999MW1001REMMET045FMEP 240600Z 13022KT 9999 FEW021 24/17 Q1021;EQDQ01+000000PRSWM2
0139619840999992000092407004-21320+055480FM-15+0053FMEP V0201401N012312200019N0112651N1+02401+01701999999ADDGA1021+006309999GF102991999999999999999999MA1102101999999MW1001REMMET045FMEP 240700Z 14024KT 9999 FEW021 24/17 Q1021;EQDQ01+000000PRSWM2
0139619840999992000092409004-21320+055480FM-15+0053FMEP V0201401N012312200019N0112651N1+02501+01601999999ADDGA1021+006309999GF102991999999999999999999MA1102101999999MW1001REMMET045FMEP 240900Z 14024KT 9999 FEW021 25/16 Q1021;EQDQ01+000000PRSWM2
0139619840999992000092410004-21320+055480FM-15+0053FMEP V0201401N013412200019N0112651N1+02401+01501999999ADDGA1021+006309999GF102991999999999999999999MA1102001999999MW1001REMMET045FMEP 241000Z 14026KT 9999 FEW021 24/15 Q1020;EQDQ01+000000PRSWM2
0139619840999992000092412004-21320+055480FM-15+0053FMEP V0201301N012912200019N0112651N1+02301+01401999999ADDGA1021+006309999GF102991999999999999999999MA1102001999999MW1001REMMET045FMEP 241200Z 13025KT 9999 FEW021 23/14 Q1020;EQDQ01+000000PRSWM2
0139619840999992000092413004-21320+055480FM-15+0053FMEP V0201301N012912200019N0112651N1+02201+01301999999ADDGA1021+006309999GF102991999999999999999999MA1102001999999MW1001REMMET045FMEP 241300Z 13025KT 9999 FEW021 22/13 Q1020;EQDQ01+000000PRSWM2
0139619840999992000092414004-21320+055480FM-15+0053FMEP V0201201N009812200019N0112651N1+02101+01201999999ADDGA1021+007509999GF102991999999999999999999MA1102101999999MW1001REMMET045FMEP 241400Z 12019KT 9999 FEW025 21/12 Q1021;EQDQ01+000000PRSWM2
0139619840999992000092415004-21320+055480FM-15+0053FMEP V0201301N009312200019N0112651N1+02101+01401999999ADDGA1021+007509999GF102991999999999999999999MA1102201999999MW1001REMMET045FMEP 241500Z 13018KT 9999 FEW025 21/14 Q1022;EQDQ01+000000PRSWM2
0139619840999992000092503004-21320+055480FM-15+0053FMEP V0201201N006212200019N0112651N1+02001+01401999999ADDGA1021+012009999GF102991999999999999999999MA1102301999999MW1001REMMET045FMEP 250300Z 12012KT 9999 FEW040 20/14 Q1023;EQDQ01+000000PRSWM2
0139619840999992000092504004-21320+055480FM-15+0053FMEP V0201101N009812200019N0112651N1+02301+01301999999ADDGA1021+012009999GF102991999999999999999999MA1102301999999MW1001REMMET045FMEP 250400Z 11019KT 9999 FEW040 23/13 Q1023;EQDQ01+000000PRSWM2
0139619840999992000092505004-21320+055480FM-15+0053FMEP V0201201N010812200019N0112651N1+02401+01101999999ADDGA1021+010809999GF102991999999999999999999MA1102301999999MW1001REMMET045FMEP 250500Z 12021KT 9999 FEW036 24/11 Q1023;EQDQ01+000000PRSWM2
0139619840999992000092506004-21320+055480FM-15+0053FMEP V0201301N013912200019N0112651N1+02401+01401999999ADDGA1021+010809999GF102991999999999999999999MA1102301999999MW1001REMMET045FMEP 250600Z 13027KT 9999 FEW036 24/14 Q1023;EQDQ01+000000PRSWM2
0150619840999992000092508004-21320+055480FM-15+0053FMEP V0201301N014912200019N0112651N1+02401+01301999999ADDGA1021+010809999GF102991999999999999999999MA1102201999999MW1001OC102061REMMET048FMEP 250800Z 13029G40KT 9999 FEW036 24/13 Q1022;EQDQ01+000000PRSWM2
0139619840999992000092509004-21320+055480FM-15+0053FMEP V0201401N014412200019N0112651N1+02401+01401999999ADDGA1021+012009999GF102991999999999999999999MA1102101999999MW1001REMMET045FMEP 250900Z 14028KT 9999 FEW040 24/14 Q1021;EQDQ01+000000PRSWM2
0139619840999992000092510004-21320+055480FM-15+0053FMEP V0201301N014912200019N0112651N1+02401+01501999999ADDGA1021+012009999GF102991999999999999999999MA1102101999999MW1001REMMET045FMEP 251000Z 13029KT 9999 FEW040 24/15 Q1021;EQDQ01+000000PRSWM2
0150619840999992000092511004-21320+055480FM-15+0053FMEP V0201301N015412200019N0112651N1+02401+01401999999ADDGA1021+012009999GF102991999999999999999999MA1102001999999MW1001OC102061REMMET048FMEP 251100Z 13030G40KT 9999 FEW040 24/14 Q1020;EQDQ01+000000PRSWM2
0150619840999992000092512004-21320+055480FM-15+0053FMEP V0201301N013412200019N0112651N1+02301+01501999999ADDGA1021+012009999GF102991999999999999999999MA1102101999999MW1001OC101851REMMET048FMEP 251200Z 13026G36KT 9999 FEW040 23/15 Q1021;EQDQ01+000000PRSWM2
0150619840999992000092513004-21320+055480FM-15+0053FMEP V0201201N011812200019N0112651N1+02201+01401999999ADDGA1021+010809999GF102991999999999999999999MA1102101999999MW1001OC101851REMMET048FMEP 251300Z 12023G36KT 9999 FEW036 22/14 Q1021;EQDQ01+000000PRSWM2
0139619840999992000092603004-21320+055480FM-15+0053FMEP V0201001N005112200019N0112651N1+02001+00701999999ADDGA1021+008409999GF102991999999999999999999MA1102301999999MW1001REMMET045FMEP 260300Z 10010KT 9999 FEW028 20/07 Q1023;EQDQ01+000000PRSWM2
0139619840999992000092605004-21320+055480FM-15+0053FMEP V0201601N005112200019N0112651N1+02501+01101999999ADDGA1021+008409999GF102991999999999999999999MA1102301999999MW1001REMMET045FMEP 260500Z 16010KT 9999 FEW028 25/11 Q1023;EQDQ01+000000PRSWM2
0139619840999992000092606004-21320+055480FM-15+0053FMEP V0201301N009812200019N0112651N1+02401+01401999999ADDGA1021+007509999GF102991999999999999999999MA1102301999999MW1001REMMET045FMEP 260600Z 13019KT 9999 FEW025 24/14 Q1023;EQDQ01+000000PRSWM2
0139619840999992000092607004-21320+055480FM-15+0053FMEP V0201501N009812200019N0112651N1+02401+01501999999ADDGA1021+007509999GF102991999999999999999999MA1102301999999MW1001REMMET045FMEP 260700Z 15019KT 9999 FEW025 24/15 Q1023;EQDQ01+000000PRSWM2
0139619840999992000092608004-21320+055480FM-15+0053FMEP V0201401N011812200019N0112651N1+02401+01501999999ADDGA1021+007509999GF102991999999999999999999MA1102101999999MW1001REMMET045FMEP 260800Z 14023KT 9999 FEW025 24/15 Q1021;EQDQ01+000000PRSWM2
0139619840999992000092609004-21320+055480FM-15+0053FMEP V0201301N012312200019N0112651N1+02301+01601999999ADDGA1021+008409999GF102991999999999999999999MA1102101999999MW1001REMMET045FMEP 260900Z 13024KT 9999 FEW028 23/16 Q1021;EQDQ01+000000PRSWM2
0139619840999992000092610004-21320+055480FM-15+0053FMEP V0201301N010312200019N0112651N1+02501+01201999999ADDGA1021+008409999GF102991999999999999999999MA1102001999999MW1001REMMET045FMEP 261000Z 13020KT 9999 FEW028 25/12 Q1020;EQDQ01+000000PRSWM2
0139619840999992000092611004-21320+055480FM-15+0053FMEP V0201301N010812200019N0112651N1+02501+01301999999ADDGA1021+006309999GF102991999999999999999999MA1102001999999MW1001REMMET045FMEP 261100Z 13021KT 9999 FEW021 25/13 Q1020;EQDQ01+000000PRSWM2
0158619840999992000092612004-21320+055480FM-15+0053FMEP V0201401N008212200019N0112651N1+02501+01101999999ADDGA1021+006309999GF102991999999999999999999MA1102001999999MW1001OC101391REMMET056FMEP 261200Z 14016G27KT 100V170 9999 FEW021 25/11 Q1020;EQDQ01+000000PRSWM2
0147619840999992000092613004-21320+055480FM-15+0053FMEP V02099999999992200019N0112651N1+02401+01101999999ADDGA1021+010809999GF102991999999999999999999MA1102001999999MW1001REMMET053FMEP 261300Z VRB07KT 350V190 9999 FEW036 24/11 Q1020;EQDQ01+000000PRSWM2
0139619840999992000092703004-21320+055480FM-15+0053FMEP V0200201N003112200019N0112651N1+01801+01001999999ADDGA1021+006309999GF102991999999999999999999MA1102101999999MW1001REMMET045FMEP 270300Z 02006KT 9999 FEW021 18/10 Q1021;EQDQ01+000000PRSWM2
0139619840999992000092704004-21320+055480FM-15+0053FMEP V0200501N000512200019N0112651N1+02301+01101999999ADDGA1021+006309999GF102991999999999999999999MA1102101999999MW1001REMMET045FMEP 270400Z 05001KT 9999 FEW021 23/11 Q1021;EQDQ01+000000PRSWM2
0170619840999992000092706004-21320+055480FM-15+0053FMEP V0201801N002610330019N0112651N1+02401+01301999999ADDGA1021+009009999GA2071+033009999GF107991999999999999999999MA1102101999999MW1001REMMET060FMEP 270600Z 18005KT 140V230 9999 FEW030 BKN110 24/13 Q1021;EQDQ01+000000PRSWM2
0170619840999992000092707004-21320+055480FM-15+0053FMEP V0202501N002612200019N0112651N1+02501+01301999999ADDGA1021+009009999GA2021+033009999GF104991999999999999999999MA1102101999999MW1001REMMET060FMEP 270700Z 25005KT 210V310 9999 FEW030 SCT110 25/13 Q1021;EQDQ01+000000PRSWM2
0170619840999992000092708004-21320+055480FM-15+0053FMEP V0202401N003110360019N0112651N1+02401+01501999999ADDGA1021+008409999GA2071+036009999GF107991999999999999999999MA1102001999999MW1001REMMET060FMEP 270800Z 24006KT 200V270 9999 FEW028 BKN120 24/15 Q1020;EQDQ01+000000PRSWM2
0162619840999992000092709004-21320+055480FM-15+0053FMEP V0202401N003610390019N0112651N1+02401+01501999999ADDGA1021+009009999GA2071+039009999GF107991999999999999999999MA1102001999999MW1001REMMET052FMEP 270900Z 24007KT 9999 FEW030 BKN130 24/15 Q1020;EQDQ01+000000PRSWM2
0170619840999992000092711004-21320+055480FM-15+0053FMEP V0202201N002110390019N0112651N1+02401+01501999999ADDGA1021+009309999GA2071+039009999GF107991999999999999999999MA1101901999999MW1001REMMET060FMEP 271100Z 22004KT 180V270 9999 FEW031 BKN130 24/15 Q1019;EQDQ01+000000PRSWM2
0162619840999992000092712004-21320+055480FM-15+0053FMEP V0202501N002610390019N0112651N1+02401+01601999999ADDGA1021+009309999GA2071+039009999GF107991999999999999999999MA1101901999999MW1001REMMET052FMEP 271200Z 25005KT 9999 FEW031 BKN130 24/16 Q1019;EQDQ01+000000PRSWM2
0162619840999992000092713004-21320+055480FM-15+0053FMEP V0202401N001010390019N0112651N1+02301+01501999999ADDGA1021+009309999GA2071+039009999GF107991999999999999999999MA1101901999999MW1001REMMET052FMEP 271300Z 24002KT 9999 FEW031 BKN130 23/15 Q1019;EQDQ01+000000PRSWM2
0139619840999992000092803004-21320+055480FM-15+0053FMEP V0200701N002612200019N0112651N1+01801+01101999999ADDGA1021+008409999GF102991999999999999999999MA1102001999999MW1001REMMET045FMEP 280300Z 07005KT 9999 FEW028 18/11 Q1020;EQDQ01+000000PRSWM2
0142619840999992000092804004-21320+055480FM-15+0053FMEP V0200101N001512200019N0112651N1+02301+01201999999ADDGA1021+008409029GF102991999999999999999999MA1102001999999MW1001REMMET048FMEP 280400Z 01003KT 9999 FEW028TCU 23/12 Q1020;EQDQ01+000000PRSWM2
0139619840999992000092805004-21320+055480FM-15+0053FMEP V0201701N003112200019N0112651N1+02401+01101999999ADDGA1021+008409999GF102991999999999999999999MA1102101999999MW1001REMMET045FMEP 280500Z 17006KT 9999 FEW028 24/11 Q1021;EQDQ01+000000PRSWM2
0147619840999992000092806004-21320+055480FM-15+0053FMEP V0202101N002612200019N0112651N1+02401+01601999999ADDGA1021+008409999GF102991999999999999999999MA1102101999999MW1001REMMET053FMEP 280600Z 21005KT 180V250 9999 FEW028 24/16 Q1021;EQDQ01+000000PRSWM2
0147619840999992000092807004-21320+055480FM-15+0053FMEP V0201801N003112200019N0112651N1+02601+01301999999ADDGA1021+008409999GF102991999999999999999999MA1102001999999MW1001REMMET053FMEP 280700Z 18006KT 120V250 9999 FEW028 26/13 Q1020;EQDQ01+000000PRSWM2
0139619840999992000092808004-21320+055480FM-15+0053FMEP V0201401N005712200019N0112651N1+02601+01601999999ADDGA1021+008409999GF102991999999999999999999MA1102001999999MW1001REMMET045FMEP 280800Z 14011KT 9999 FEW028 26/16 Q1020;EQDQ01+000000PRSWM2
0162619840999992000092809004-21320+055480FM-15+0053FMEP V0201401N007712200019N0112651N1+02601+01601999999ADDGA1021+009009999GA2021+024009999GF104991999999999999999999MA1102001999999MW1001REMMET052FMEP 280900Z 14015KT 9999 FEW030 SCT083 26/16 Q1020;EQDQ01+000000PRSWM2
0162619840999992000092810004-21320+055480FM-15+0053FMEP V0201401N008212200019N0112651N1+02601+01701999999ADDGA1021+009009999GA2021+024009999GF104991999999999999999999MA1101901999999MW1001REMMET052FMEP 281000Z 14016KT 9999 FEW030 SCT083 26/17 Q1019;EQDQ01+000000PRSWM2
0162619840999992000092811004-21320+055480FM-15+0053FMEP V0201401N008212200019N0112651N1+02401+01701999999ADDGA1021+006309999GA2021+018009999GF104991999999999999999999MA1101901999999MW1001REMMET052FMEP 281100Z 14016KT 9999 FEW021 SCT066 24/17 Q1019;EQDQ01+000000PRSWM2
0162619840999992000092812004-21320+055480FM-15+0053FMEP V0201401N008212200019N0112651N1+02301+01801999999ADDGA1021+006309999GA2021+018009999GF104991999999999999999999MA1101901999999MW1001REMMET052FMEP 281200Z 14016KT 9999 FEW021 SCT066 23/18 Q1019;EQDQ01+000000PRSWM2
0162619840999992000092813004-21320+055480FM-15+0053FMEP V0201301N008212200019N0112651N1+02301+01801999999ADDGA1021+006309999GA2021+018009999GF104991999999999999999999MA1101901999999MW1001REMMET052FMEP 281300Z 13016KT 9999 FEW021 SCT066 23/18 Q1019;EQDQ01+000000PRSWM2
0091619840999992000092903004-21320+055480FM-15+0053FMEP V0200301N00211220001CN0099001N1+01901+01301999999ADDMA1102001999999MW1001REMMET039FMEP 290300Z 03004KT CAVOK 19/13 Q1020;EQDQ01+000000PRSWM2
0099619840999992000092904004-21320+055480FM-15+0053FMEP V0203401N00261220001CN0099001N1+02301+01501999999ADDMA1102101999999MW1001REMMET047FMEP 290400Z 34005KT 300V010 CAVOK 23/15 Q1021;EQDQ01+000000PRSWM2
0099619840999992000092905004-21320+055480FM-15+0053FMEP V0202901N00461220001CN0099001N1+02501+01601999999ADDMA1102101999999MW1001REMMET047FMEP 290500Z 29009KT 270V340 CAVOK 25/16 Q1021;EQDQ01+000000PRSWM2
0147619840999992000092906004-21320+055480FM-15+0053FMEP V0201301N009812200019N0112651N1+02601+01501999999ADDGA1021+009909999GF102991999999999999999999MA1102101999999MW1001REMMET053FMEP 290600Z 13019KT 080V150 9999 FEW033 26/15 Q1021;EQDQ01+000000PRSWM2
0139619840999992000092907004-21320+055480FM-15+0053FMEP V0201301N012312200019N0112651N1+02601+01701999999ADDGA1021+008409999GF102991999999999999999999MA1102101999999MW1001REMMET045FMEP 290700Z 13024KT 9999 FEW028 26/17 Q1021;EQDQ01+000000PRSWM2
0139619840999992000092908004-21320+055480FM-15+0053FMEP V0201301N011312200019N0112651N1+02601+01701999999ADDGA1021+008409999GF102991999999999999999999MA1102001999999MW1001REMMET045FMEP 290800Z 13022KT 9999 FEW028 26/17 Q1020;EQDQ01+000000PRSWM2
0139619840999992000092909004-21320+055480FM-15+0053FMEP V0201301N012312200019N0112651N1+02601+01701999999ADDGA1021+008409999GF102991999999999999999999MA1102001999999MW1001REMMET045FMEP 290900Z 13024KT 9999 FEW028 26/17 Q1020;EQDQ01+000000PRSWM2
0139619840999992000092910004-21320+055480FM-15+0053FMEP V0201401N011312200019N0112651N1+02601+01801999999ADDGA1021+006309999GF102991999999999999999999MA1101901999999MW1001REMMET045FMEP 291000Z 14022KT 9999 FEW021 26/18 Q1019;EQDQ01+000000PRSWM2
0139619840999992000092911004-21320+055480FM-15+0053FMEP V0201401N011812200019N0112651N1+02501+01701999999ADDGA1021+006309999GF102991999999999999999999MA1101901999999MW1001REMMET045FMEP 291100Z 14023KT 9999 FEW021 25/17 Q1019;EQDQ01+000000PRSWM2
0139619840999992000092912004-21320+055480FM-15+0053FMEP V0201401N011812200019N0112651N1+02501+01701999999ADDGA1021+006309999GF102991999999999999999999MA1101901999999MW1001REMMET045FMEP 291200Z 14023KT 9999 FEW021 25/17 Q1019;EQDQ01+000000PRSWM2
0139619840999992000092914004-21320+055480FM-15+0053FMEP V0201301N010312200019N0112651N1+02301+01701999999ADDGA1021+006309999GF102991999999999999999999MA1102001999999MW1001REMMET045FMEP 291400Z 13020KT 9999 FEW021 23/17 Q1020;EQDQ01+000000PRSWM2
0139619840999992000092915004-21320+055480FM-15+0053FMEP V0201301N010312200019N0112651N1+02201+01701999999ADDGA1021+006309999GF102991999999999999999999MA1102001999999MW1001REMMET045FMEP 291500Z 13020KT 9999 FEW021 22/17 Q1020;EQDQ01+000000PRSWM2
0139619840999992000093003004-21320+055480FM-15+0053FMEP V0200701N002112200019N0112651N1+01901+01401999999ADDGA1021+007809999GF102991999999999999999999MA1102101999999MW1001REMMET045FMEP 300300Z 07004KT 9999 FEW026 19/14 Q1021;EQDQ01+000000PRSWM2
0139619840999992000093004004-21320+055480FM-15+0053FMEP V0201701N001512200019N0112651N1+02301+01401999999ADDGA1021+007809999GF102991999999999999999999MA1102101999999MW1001REMMET045FMEP 300400Z 17003KT 9999 FEW026 23/14 Q1021;EQDQ01+000000PRSWM2
0091619840999992000093005004-21320+055480FM-15+0053FMEP V0201301N00821220001CN0099001N1+02501+01601999999ADDMA1102101999999MW1001REMMET039FMEP 300500Z 13016KT CAVOK 25/16 Q1021;EQDQ01+000000PRSWM2
0139619840999992000093006004-21320+055480FM-15+0053FMEP V0201301N010812200019N0112651N1+02501+01601999999ADDGA1021+012909999GF102991999999999999999999MA1102101999999MW1001REMMET045FMEP 300600Z 13021KT 9999 FEW043 25/16 Q1021;EQDQ01+000000PRSWM2
0139619840999992000093007004-21320+055480FM-15+0053FMEP V0201301N011312200019N0112651N1+02601+01601999999ADDGA1021+012909999GF102991999999999999999999MA1102101999999MW1001REMMET045FMEP 300700Z 13022KT 9999 FEW043 26/16 Q1021;EQDQ01+000000PRSWM2
0139619840999992000093008004-21320+055480FM-15+0053FMEP V0201301N012312200019N0112651N1+02601+01701999999ADDGA1021+012009999GF102991999999999999999999MA1102001999999MW1001REMMET045FMEP 300800Z 13024KT 9999 FEW040 26/17 Q1020;EQDQ01+000000PRSWM2
0139619840999992000093009004-21320+055480FM-15+0053FMEP V0201301N011812200019N0112651N1+02601+01701999999ADDGA1021+012009999GF102991999999999999999999MA1102001999999MW1001REMMET045FMEP 300900Z 13023KT 9999 FEW040 26/17 Q1020;EQDQ01+000000PRSWM2
0139619840999992000093010004-21320+055480FM-15+0053FMEP V0201301N011812200019N0112651N1+02501+01701999999ADDGA1021+013809999GF102991999999999999999999MA1101901999999MW1001REMMET045FMEP 301000Z 13023KT 9999 FEW046 25/17 Q1019;EQDQ01+000000PRSWM2
0139619840999992000093011004-21320+055480FM-15+0053FMEP V0201301N011312200019N0112651N1+02501+01701999999ADDGA1021+010809999GF102991999999999999999999MA1101901999999MW1001REMMET045FMEP 301100Z 13022KT 9999 FEW036 25/17 Q1019;EQDQ01+000000PRSWM2
0139619840999992000093012004-21320+055480FM-15+0053FMEP V0201301N011312200019N0112651N1+02401+01701999999ADDGA1021+010809999GF102991999999999999999999MA1101901999999MW1001REMMET045FMEP 301200Z 13022KT 9999 FEW036 24/17 Q1019;EQDQ01+000000PRSWM2
0139619840999992000093013004-21320+055480FM-15+0053FMEP V0201301N010812200019N0112651N1+02401+01801999999ADDGA1021+010809999GF102991999999999999999999MA1101901999999MW1001REMMET045FMEP 301300Z 13021KT 9999 FEW036 24/18 Q1019;EQDQ01+000000PRSWM2
0147619840999992000100103004-21320+055480FM-15+0053FMEP V0201101N002112200019N0112651N1+02001+01101999999ADDGA1021+013809999GF102991999999999999999999MA1102001999999MW1001REMMET053FMEP 010300Z 11004KT 020V170 9999 FEW046 20/11 Q1020;EQDQ01+000000PRSWM2
0139619840999992000100104004-21320+055480FM-15+0053FMEP V0200501N000512200019N0112651N1+02301+01101999999ADDGA1021+012009999GF102991999999999999999999MA1102101999999MW1001REMMET045FMEP 010400Z 05001KT 9999 FEW040 23/11 Q1021;EQDQ01+000000PRSWM2
0147619840999992000100105004-21320+055480FM-15+0053FMEP V0201901N002112200019N0112651N1+02501+01301999999ADDGA1021+009009999GF102991999999999999999999MA1102101999999MW1001REMMET053FMEP 010500Z 19004KT 140V240 9999 FEW030 25/13 Q1021;EQDQ01+000000PRSWM2
0139619840999992000100106004-21320+055480FM-15+0053FMEP V0201801N002612200019N0112651N1+02401+01501999999ADDGA1021+009009999GF102991999999999999999999MA1102101999999MW1001REMMET045FMEP 010600Z 18005KT 9999 FEW030 24/15 Q1021;EQDQ01+000000PRSWM2
0162619840999992000100107004-21320+055480FM-15+0053FMEP V0201401N005112200019N0112651N1+02501+01401999999ADDGA1021+009009999GA2021+015009999GF104991999999999999999999MA1102101999999MW1001REMMET052FMEP 010700Z 14010KT 9999 FEW030 SCT056 25/14 Q1021;EQDQ01+000000PRSWM2
0170619840999992000100108004-21320+055480FM-15+0053FMEP V0201701N002610150019N0112651N1+02501+01301999999ADDGA1021+008409999GA2071+015009999GF107991999999999999999999MA1102001999999MW1001REMMET060FMEP 010800Z 17005KT 130V200 9999 SCT028 BKN050 25/13 Q1020;EQDQ01+000000PRSWM2
0170619840999992000100109004-21320+055480FM-15+0053FMEP V0202301N002110180019N0112651N1+02601+01201999999ADDGA1021+008409999GA2071+018009999GF107991999999999999999999MA1102001999999MW1001REMMET060FMEP 010900Z 23004KT 150V300 9999 SCT028 BKN060 26/12 Q1020;EQDQ01+000000PRSWM2
0162619840999992000100111004-21320+055480FM-15+0053FMEP V0201301N007710210019N0112651N1+02401+01501999999ADDGA1021+009009999GA2071+021009999GF107991999999999999999999MA1101901999999MW1001REMMET052FMEP 011100Z 13015KT 9999 FEW030 BKN070 24/15 Q1019;EQDQ01+000000PRSWM2
0162619840999992000100112004-21320+055480FM-15+0053FMEP V0201301N008710210019N0112651N1+02401+01601999999ADDGA1021+009609999GA2071+021009999GF107991999999999999999999MA1101801999999MW1001REMMET052FMEP 011200Z 13017KT 9999 FEW032 BKN073 24/16 Q1018;EQDQ01+000000PRSWM2
0162619840999992000100113004-21320+055480FM-15+0053FMEP V0201301N009810180019N0112651N1+02301+01601999999ADDGA1021+009609999GA2071+018009999GF107991999999999999999999MA1101901999999MW1001REMMET052FMEP 011300Z 13019KT 9999 FEW032 BKN066 23/16 Q1019;EQDQ01+000000PRSWM2
0162619840999992000100114004-21320+055480FM-15+0053FMEP V0201301N009310210019N0112651N1+02201+01501999999ADDGA1021+009609999GA2071+021009999GF107991999999999999999999MA1101901999999MW1001REMMET052FMEP 011400Z 13018KT 9999 FEW032 BKN070 22/15 Q1019;EQDQ01+000000PRSWM2
0139619840999992000100115004-21320+055480FM-15+0053FMEP V0201301N009312200019N0112651N1+02201+01401999999ADDGA1021+010809999GF102991999999999999999999MA1102001999999MW1001REMMET045FMEP 011500Z 13018KT 9999 FEW036 22/14 Q1020;EQDQ01+000000PRSWM2
0139619840999992000100116004-21320+055480FM-15+0053FMEP V0201301N007712200019N0112651N1+02101+01201999999ADDGA1021+012009999GF102991999999999999999999MA1102001999999MW1001REMMET045FMEP 011600Z 13015KT 9999 FEW040 21/12 Q1020;EQDQ01+000000PRSWM2
0142619840999992000100203004-21320+055480FM-15+0053FMEP V0200901N003112200019N0112651N1+02001+01101999999ADDGA1021+012009029GF102991999999999999999999MA1102101999999MW1001REMMET048FMEP 020300Z 09006KT 9999 FEW040TCU 20/11 Q1021;EQDQ01+000000PRSWM2
0142619840999992000100204004-21320+055480FM-15+0053FMEP V0201301N009312200019N0112651N1+02301+01601999999ADDGA1021+015009029GF102991999999999999999999MA1102101999999MW1001REMMET048FMEP 020400Z 13018KT 9999 FEW050TCU 23/16 Q1021;EQDQ01+000000PRSWM2
0142619840999992000100205004-21320+055480FM-15+0053FMEP V0201201N010812200019N0112651N1+02401+01601999999ADDGA1021+015009029GF102991999999999999999999MA1102101999999MW1001REMMET048FMEP 020500Z 12021KT 9999 FEW050TCU 24/16 Q1021;EQDQ01+000000PRSWM2
0139619840999992000100206004-21320+055480FM-15+0053FMEP V0201301N012312200019N0112651N1+02501+01601999999ADDGA1021+012009999GF102991999999999999999999MA1102101999999MW1001REMMET045FMEP 020600Z 13024KT 9999 FEW040 25/16 Q1021;EQDQ01+000000PRSWM2
0153619840999992000100208004-21320+055480FM-15+0053FMEP V0201301N011312200019N0112651N1+02601+01501999999ADDGA1021+009009029GF102991999999999999999999MA1102001999999MW1001OC101651REMMET051FMEP 020800Z 13022G32KT 9999 FEW030TCU 26/15 Q1020;EQDQ01+000000PRSWM2
0142619840999992000100209004-21320+055480FM-15+0053FMEP V0201301N012312200019N0112651N1+02601+01601999999ADDGA1021+007809029GF102991999999999999999999MA1101901999999MW1001REMMET048FMEP 020900Z 13024KT 9999 FEW026TCU 26/16 Q1019;EQDQ01+000000PRSWM2
0142619840999992000100210004-21320+055480FM-15+0053FMEP V0201301N010812200019N0112651N1+02701+01501999999ADDGA1021+006909029GF102991999999999999999999MA1101801999999MW1001REMMET048FMEP 021000Z 13021KT 9999 FEW023TCU 27/15 Q1018;EQDQ01+000000PRSWM2
0162619840999992000100211004-21320+055480FM-15+0053FMEP V0201301N011312200019N0112651N1+02501+01501999999ADDGA1021+006909999GA2021+018009999GF104991999999999999999999MA1101801999999MW1001REMMET052FMEP 021100Z 13022KT 9999 FEW023 SCT066 25/15 Q1018;EQDQ01+000000PRSWM2
0166619840999992000100212004-21320+055480FM-15+0053FMEP V0201401N006712200019N0112651N1+02501+01501999999ADDGA1021+006909999GA2021+018009999GF104991999999999999999999MW1001OC101181REMMET063FMEP 021200Z 14013G23KT 080V160 9999 FEW023 SCT066 25/15 Q////;EQDQ01+000000PRSWM2
0162619840999992000100213004-21320+055480FM-15+0053FMEP V0201401N006212200019N0090001N1+02501+01301999999ADDGA1021+006909999GA2021+018009999GF104991999999999999999999MA1101901999999MW1001REMMET052FMEP 021300Z 14012KT 9000 FEW023 SCT066 25/13 Q1019;EQDQ01+000000PRSWM2
0139619840999992000100303004-21320+055480FM-15+0053FMEP V0200701N002112200019N0112651N1+02001+01301999999ADDGA1021+005409999GF102991999999999999999999MA1102101999999MW1001REMMET045FMEP 030300Z 07004KT 9999 FEW018 20/13 Q1021;EQDQ01+000000PRSWM2
0147619840999992000100304004-21320+055480FM-15+0053FMEP V0201401N002112200019N0112651N1+02301+01301999999ADDGA1021+005409999GF102991999999999999999999MA1102101999999MW1001REMMET053FMEP 030400Z 14004KT 090V190 9999 FEW018 23/13 Q1021;EQDQ01+000000PRSWM2
0139619840999992000100305004-21320+055480FM-15+0053FMEP V0201301N008712200019N0112651N1+02401+01501999999ADDGA1021+010509999GF102991999999999999999999MA1102101999999MW1001REMMET045FMEP 030500Z 13017KT 9999 FEW035 24/15 Q1021;EQDQ01+000000PRSWM2
0139619840999992000100306004-21320+055480FM-15+0053FMEP V0201301N009312200019N0112651N1+02501+01601999999ADDGA1021+009909999GF102991999999999999999999MA1102001999999MW1001REMMET045FMEP 030600Z 13018KT 9999 FEW033 25/16 Q1020;EQDQ01+000000PRSWM2
0170619840999992000100307004-21320+055480FM-15+0053FMEP V0201401N004112200019N0112651N1+02601+01401999999ADDGA1021+009309999GA2021+018009999GF104991999999999999999999MA1102001999999MW1001REMMET060FMEP 030700Z 14008KT 070V210 9999 FEW031 SCT060 26/14 Q1020;EQDQ01+000000PRSWM2
0170619840999992000100308004-21320+055480FM-15+0053FMEP V0201501N004112200019N0112651N1+02601+01201999999ADDGA1021+009309999GA2021+015009999GF104991999999999999999999MA1101901999999MW1001REMMET060FMEP 030800Z 15008KT 090V200 9999 FEW031 SCT056 26/12 Q1019;EQDQ01+000000PRSWM2
0147619840999992000100310004-21320+055480FM-15+0053FMEP V0202401N003112200019N0112651N1+02701+01401999999ADDGA1021+009909999GF102991999999999999999999MA1101801999999MW1001REMMET053FMEP 031000Z 24006KT 190V280 9999 FEW033 27/14 Q1018;EQDQ01+000000PRSWM2
0170619840999992000100311004-21320+055480FM-15+0053FMEP V0201401N007212200019N0112651N1+02601+01701999999ADDGA1021+009009999GA2021+018009999GF104991999999999999999999MA1101691999999MW1001REMMET060FMEP 031100Z 14014KT 100V170 9999 FEW030 SCT060 26/17 Q1017;EQDQ01+000000PRSWM2
0170619840999992000100312004-21320+055480FM-15+0053FMEP V0201401N006212200019N0112651N1+02501+01501999999ADDGA1021+009009999GA2021+021009999GF104991999999999999999999MA1101691999999MW1001REMMET060FMEP 031200Z 14012KT 100V170 9999 FEW030 SCT073 25/15 Q1017;EQDQ01+000000PRSWM2
0170619840999992000100313004-21320+055480FM-15+0053FMEP V0201701N004112200019N0112651N1+02501+01601999999ADDGA1021+009009999GA2021+021009999GF104991999999999999999999MA1101691999999MW1001REMMET060FMEP 031300Z 17008KT 140V250 9999 FEW030 SCT073 25/16 Q1017;EQDQ01+000000PRSWM2
0183619840999992000100403004-21320+055480FM-15+0053FMEP V0200301N003112200019N0080001N1+02101+01601999999ADDGA1021+004509999GA2021+018009999GF104991999999999999999999MA1101901999999MW1161REMMET057FMEP 040300Z 03006KT 8000 VCSH FEW015 SCT066 21/16 Q1019;EQDQ01+000003PRSWM1Q02    003PRSWM1
0170619840999992000100404004-21320+055480FM-15+0053FMEP V0201301N003112200019N0080001N1+02301+01501999999ADDGA1021+004509999GA2021+018009999GF104991999999999999999999MW1161REMMET059FMEP 040400Z 13006KT 090V170 8000 VCSH FEW015 SCT066 23/15;EQDQ01+000003PRSWM1Q02    003PRSWM1
0170619840999992000100405004-21320+055480FM-15+0053FMEP V0203501N002612200019N0112651N1+02401+01501999999ADDGA1021+006309999GA2021+018009999GF104991999999999999999999MA1101901999999MW1001REMMET060FMEP 040500Z 35005KT 290V030 9999 FEW021 SCT066 24/15 Q1019;EQDQ01+000000PRSWM2
0170619840999992000100406004-21320+055480FM-15+0053FMEP V0201401N005112200019N0112651N1+02501+01401999999ADDGA1021+007809999GA2021+018009999GF104991999999999999999999MA1101901999999MW1001REMMET060FMEP 040600Z 14010KT 110V180 9999 FEW026 SCT066 25/14 Q1019;EQDQ01+000000PRSWM2
0162619840999992000100407004-21320+055480FM-15+0053FMEP V0201301N008212200019N0112651N1+02401+01601999999ADDGA1021+009009999GA2021+024009999GF104991999999999999999999MA1101901999999MW1001REMMET052FMEP 040700Z 13016KT 9999 FEW030 SCT083 24/16 Q1019;EQDQ01+000000PRSWM2
0162619840999992000100408004-21320+055480FM-15+0053FMEP V0203001N004610240019N0112651N1+02601+01501999999ADDGA1021+009009999GA2071+024009999GF107991999999999999999999MA1101901999999MW1001REMMET052FMEP 040800Z 30009KT 9999 FEW030 BKN083 26/15 Q1019;EQDQ01+000000PRSWM2
0162619840999992000100409004-21320+055480FM-15+0053FMEP V0202801N006210240019N0112651N1+02601+01701999999ADDGA1021+009009999GA2071+024009999GF107991999999999999999999MA1101801999999MW1001REMMET052FMEP 040900Z 28012KT 9999 FEW030 BKN083 26/17 Q1018;EQDQ01+000000PRSWM2
0162619840999992000100410304-21320+055480FM-15+0053FMEP V0202601N005710240019N0112651N1+02501+01701999999ADDGA1021+009009999GA2071+024009999GF107991999999999999999999MA1101691999999MW1001REMMET052FMEP 041030Z 26011KT 9999 FEW030 BKN083 25/17 Q1017;EQDQ01+000000PRSWM2
0162619840999992000100412004-21320+055480FM-15+0053FMEP V0202601N003610180019N0112651N1+02601+01701999999ADDGA1021+008409999GA2071+018009999GF107991999999999999999999MA1101801999999MW1001REMMET052FMEP 041200Z 26007KT 9999 FEW028 BKN066 26/17 Q1018;EQDQ01+000000PRSWM2
0162619840999992000100413004-21320+055480FM-15+0053FMEP V0202901N002612200019N0112651N1+02601+01601999999ADDGA1021+008409999GA2021+018009999GF104991999999999999999999MA1101801999999MW1001REMMET052FMEP 041300Z 29005KT 9999 FEW028 SCT066 26/16 Q1018;EQDQ01+000000PRSWM2
0139619840999992000100503004-21320+055480FM-15+0053FMEP V0200301N003612200019N0112651N1+02001+01301999999ADDGA1021+009009999GF102991999999999999999999MA1101901999999MW1001REMMET045FMEP 050300Z 03007KT 9999 FEW030 20/13 Q1019;EQDQ01+000000PRSWM2
0147619840999992000100504004-21320+055480FM-15+0053FMEP V0202501N002612200019N0112651N1+02301+01601999999ADDGA1021+009009999GF102991999999999999999999MA1102001999999MW1001REMMET053FMEP 050400Z 25005KT 220V290 9999 FEW030 23/16 Q1020;EQDQ01+000000PRSWM2
0139619840999992000100506004-21320+055480FM-15+0053FMEP V0201701N004112200019N0112651N1+02601+01501999999ADDGA1021+007809999GF102991999999999999999999MA1102001999999MW1001REMMET045FMEP 050600Z 17008KT 9999 FEW026 26/15 Q1020;EQDQ01+000000PRSWM2
0139619840999992000100507004-21320+055480FM-15+0053FMEP V0201501N006212200019N0112651N1+02601+01701999999ADDGA1021+006309999GF102991999999999999999999MA1102001999999MW1001REMMET045FMEP 050700Z 15012KT 9999 FEW021 26/17 Q1020;EQDQ01+000000PRSWM2
0139619840999992000100508004-21320+055480FM-15+0053FMEP V0201401N008212200019N0112651N1+02601+01801999999ADDGA1021+006909999GF104991999999999999999999MA1101901999999MW1001REMMET045FMEP 050800Z 14016KT 9999 SCT023 26/18 Q1019;EQDQ01+000000PRSWM2
0165619840999992000100509004-21320+055480FM-15+0053FMEP V0201301N009812200019N0112651N1+02501+01801999999ADDGA1021+007809029GA2021+030009999GF104991999999999999999999MA1101901999999MW1001REMMET055FMEP 050900Z 13019KT 9999 FEW026TCU SCT100 25/18 Q1019;EQDQ01+000000PRSWM2
0165619840999992000100510004-21320+055480FM-15+0053FMEP V0201301N010312200019N0112651N1+02601+01901999999ADDGA1021+009009029GA2021+030009999GF104991999999999999999999MA1101801999999MW1001REMMET055FMEP 051000Z 13020KT 9999 FEW030TCU SCT100 26/19 Q1018;EQDQ01+000000PRSWM2
0165619840999992000100511004-21320+055480FM-15+0053FMEP V0201301N010812200019N0112651N1+02501+01801999999ADDGA1021+009909029GA2021+030009999GF104991999999999999999999MA1101801999999MW1001REMMET055FMEP 051100Z 13021KT 9999 FEW033TCU SCT100 25/18 Q1018;EQDQ01+000000PRSWM2
0162619840999992000100512004-21320+055480FM-15+0053FMEP V0201301N009812200019N0112651N1+02401+01801999999ADDGA1021+010809999GA2021+039009999GF104991999999999999999999MA1101801999999MW1001REMMET052FMEP 051200Z 13019KT 9999 FEW036 SCT130 24/18 Q1018;EQDQ01+000000PRSWM2
0162619840999992000100513004-21320+055480FM-15+0053FMEP V0201301N008710450019N0112651N1+02301+01801999999ADDGA1021+010809999GA2071+045009999GF107991999999999999999999MA1101801999999MW1001REMMET052FMEP 051300Z 13017KT 9999 FEW036 BKN150 23/18 Q1018;EQDQ01+000000PRSWM2
0162619840999992000100603004-21320+055480FM-15+0053FMEP V0209999C000010180019N0112651N1+02101+01601999999ADDGA1021+008409999GA2071+018009999GF107991999999999999999999MA1102001999999MW1001REMMET052FMEP 060300Z 00000KT 9999 FEW028 BKN060 21/16 Q1020;EQDQ01+000000PRSWM2
0162619840999992000100604004-21320+055480FM-15+0053FMEP V0203501N001510270019N0112651N1+02201+01601999999ADDGA1021+008409999GA2071+027009999GF107991999999999999999999MA1102001999999MW1001REMMET052FMEP 060400Z 35003KT 9999 FEW028 BKN093 22/16 Q1020;EQDQ01+000000PRSWM2
0170619840999992000100605004-21320+055480FM-15+0053FMEP V0202801N002610270019N0112651N1+02401+01701999999ADDGA1021+004809999GA2071+027009999GF107991999999999999999999MA1102001999999MW1001REMMET060FMEP 060500Z 28005KT 240V350 9999 FEW016 BKN093 24/17 Q1020;EQDQ01+000000PRSWM2
0162619840999992000100606004-21320+055480FM-15+0053FMEP V0202501N003112200019N0112651N1+02501+01701999999ADDGA1021+004809999GA2021+030009999GF104991999999999999999999MA1102001999999MW1001REMMET052FMEP 060600Z 25006KT 9999 FEW016 SCT100 25/17 Q1020;EQDQ01+000000PRSWM2
0165619840999992000100607004-21320+055480FM-15+0053FMEP V0201901N003112200019N0112651N1+02601+01701999999ADDGA1021+009009029GA2021+030009999GF104991999999999999999999MA1102001999999MW1001REMMET055FMEP 060700Z 19006KT 9999 SCT030TCU SCT100 26/17 Q1020;EQDQ01+000000PRSWM2
0165619840999992000100608004-21320+055480FM-15+0053FMEP V0201401N004612200019N0112651N1+02701+01501999999ADDGA1021+009009999GA2021+009909029GF102991999999999999999999MA1101901999999MW1001REMMET055FMEP 060800Z 14009KT 9999 FEW030 FEW033TCU 27/15 Q1019;EQDQ01+000000PRSWM2
0165619840999992000100609004-21320+055480FM-15+0053FMEP V0201501N004612200019N0112651N1+02701+01601999999ADDGA1021+009009029GA2021+030009999GF104991999999999999999999MA1101901999999MW1001REMMET055FMEP 060900Z 15009KT 9999 FEW030TCU SCT100 27/16 Q1019;EQDQ01+000000PRSWM2
0173619840999992000100611004-21320+055480FM-15+0053FMEP V0202901N001512200019N0112651N1+02601+01601999999ADDGA1021+007809999GA2021+030009999GF104991999999999999999999MA1101801999999MW1001OC100721REMMET055FMEP 061100Z 29003G14KT 9999 FEW026 SCT100 26/16 Q1018;EQDQ01+000000PRSWM2
0162619840999992000100612004-21320+055480FM-15+0053FMEP V0201401N007212200019N0112651N1+02601+01801999999ADDGA1021+007809999GA2021+030009999GF104991999999999999999999MA1101801999999MW1001REMMET052FMEP 061200Z 14014KT 9999 FEW026 SCT100 26/18 Q1018;EQDQ01+000000PRSWM2
0162619840999992000100613004-21320+055480FM-15+0053FMEP V0201401N004612200019N0112651N1+02501+01701999999ADDGA1021+009309999GA2021+030009999GF104991999999999999999999MA1101801999999MW1001REMMET052FMEP 061300Z 14009KT 9999 FEW031 SCT100 25/17 Q1018;EQDQ01+000000PRSWM2
0165619840999992000100614004-21320+055480FM-15+0053FMEP V0201301N006212200019N0112651N1+02301+01701999999ADDGA1021+007509029GA2021+030009999GF104991999999999999999999MA1101901999999MW1001REMMET055FMEP 061400Z 13012KT 9999 FEW025TCU SCT100 23/17 Q1019;EQDQ01+000000PRSWM2
0139619840999992000100615004-21320+055480FM-15+0053FMEP V0201201N003112200019N0112651N1+02301+01701999999ADDGA1021+012009999GF102991999999999999999999MA1102001999999MW1001REMMET045FMEP 061500Z 12006KT 9999 FEW040 23/17 Q1020;EQDQ01+000000PRSWM2
0147619840999992000100703004-21320+055480FM-15+0053FMEP V0200401N002112200019N0112651N1+02101+01501999999ADDGA1021+030009999GF102991999999999999999999MA1102101999999MW1001REMMET053FMEP 070300Z 04004KT 010V140 9999 FEW100 21/15 Q1021;EQDQ01+000000PRSWM2
0139619840999992000100704004-21320+055480FM-15+0053FMEP V0201801N002112200019N0112651N1+02301+01601999999ADDGA1021+009009999GF102991999999999999999999MA1102101999999MW1001REMMET045FMEP 070400Z 18004KT 9999 FEW030 23/16 Q1021;EQDQ01+000000PRSWM2
0139619840999992000100705004-21320+055480FM-15+0053FMEP V0202001N003112200019N0112651N1+02401+01601999999ADDGA1021+009009999GF102991999999999999999999MA1102101999999MW1001REMMET045FMEP 070500Z 20006KT 9999 FEW030 24/16 Q1021;EQDQ01+000000PRSWM2
0139619840999992000100706004-21320+055480FM-15+0053FMEP V0202401N003612200019N0112651N1+02501+01701999999ADDGA1021+008409999GF102991999999999999999999MA1102101999999MW1001REMMET045FMEP 070600Z 24007KT 9999 FEW028 25/17 Q1021;EQDQ01+000000PRSWM2
0139619840999992000100707004-21320+055480FM-15+0053FMEP V0202401N004112200019N0112651N1+02601+01701999999ADDGA1021+007509999GF102991999999999999999999MA1102001999999MW1001REMMET045FMEP 070700Z 24008KT 9999 FEW025 26/17 Q1020;EQDQ01+000000PRSWM2
0139619840999992000100708004-21320+055480FM-15+0053FMEP V0202301N004112200019N0112651N1+02601+01701999999ADDGA1021+007509999GF102991999999999999999999MA1102001999999MW1001REMMET045FMEP 070800Z 23008KT 9999 FEW025 26/17 Q1020;EQDQ01+000000PRSWM2
0162619840999992000100709004-21320+055480FM-15+0053FMEP V0202101N003612200019N0112651N1+02601+01701999999ADDGA1021+007509999GA2021+018009999GF104991999999999999999999MA1102001999999MW1001REMMET052FMEP 070900Z 21007KT 9999 FEW025 SCT066 26/17 Q1020;EQDQ01+000000PRSWM2
0162619840999992000100710004-21320+055480FM-15+0053FMEP V0201401N005112200019N0112651N1+02601+01501999999ADDGA1021+007509999GA2021+018009999GF104991999999999999999999MA1101901999999MW1001REMMET052FMEP 071000Z 14010KT 9999 FEW025 SCT066 26/15 Q1019;EQDQ01+000000PRSWM2
0162619840999992000100711004-21320+055480FM-15+0053FMEP V0201401N006212200019N0112651N1+02401+01501999999ADDGA1021+006309999GA2021+018009999GF104991999999999999999999MA1101901999999MW1001REMMET052FMEP 071100Z 14012KT 9999 FEW021 SCT066 24/15 Q1019;EQDQ01+000000PRSWM2
0162619840999992000100712004-21320+055480FM-15+0053FMEP V0201401N007712200019N0112651N1+02501+01601999999ADDGA1021+006309999GA2021+018009999GF104991999999999999999999MA1101901999999MW1001REMMET052FMEP 071200Z 14015KT 9999 FEW021 SCT066 25/16 Q1019;EQDQ01+000000PRSWM2
0162619840999992000100713004-21320+055480FM-15+0053FMEP V0201301N007712200019N0112651N1+02401+01601999999ADDGA1021+006309999GA2021+018009999GF104991999999999999999999MA1102001999999MW1001REMMET052FMEP 071300Z 13015KT 9999 FEW021 SCT066 24/16 Q1020;EQDQ01+000000PRSWM2
0139619840999992000100803004-21320+055480FM-15+0053FMEP V0200501N002612200019N0112651N1+02101+01201999999ADDGA1021+009009999GF102991999999999999999999MA1102101999999MW1001REMMET045FMEP 080300Z 05005KT 9999 FEW030 21/12 Q1021;EQDQ01+000000PRSWM2
0139619840999992000100805004-21320+055480FM-15+0053FMEP V0201701N003112200019N0112651N1+02401+01501999999ADDGA1021+009009999GF102991999999999999999999MA1102101999999MW1001REMMET045FMEP 080500Z 17006KT 9999 FEW030 24/15 Q1021;EQDQ01+000000PRSWM2
0139619840999992000100806004-21320+055480FM-15+0053FMEP V0201701N004612200019N0112651N1+02401+01801999999ADDGA1021+008409999GF102991999999999999999999MA1102101999999MW1001REMMET045FMEP 080600Z 17009KT 9999 FEW028 24/18 Q1021;EQDQ01+000000PRSWM2
0139619840999992000100807004-21320+055480FM-15+0053FMEP V0201701N003612200019N0112651N1+02501+01801999999ADDGA1021+008409999GF102991999999999999999999MA1102001999999MW1001REMMET045FMEP 080700Z 17007KT 9999 FEW028 25/18 Q1020;EQDQ01+000000PRSWM2
0139619840999992000100808004-21320+055480FM-15+0053FMEP V0201801N004112200019N0112651N1+02501+01801999999ADDGA1021+008409999GF102991999999999999999999MA1102001999999MW1001REMMET045FMEP 080800Z 18008KT 9999 FEW028 25/18 Q1020;EQDQ01+000000PRSWM2
0139619840999992000100809004-21320+055480FM-15+0053FMEP V0201601N004612200019N0112651N1+02501+01801999999ADDGA1021+008409999GF102991999999999999999999MA1101901999999MW1001REMMET045FMEP 080900Z 16009KT 9999 FEW028 25/18 Q1019;EQDQ01+000000PRSWM2
0139619840999992000100810004-21320+055480FM-15+0053FMEP V0201401N006212200019N0112651N1+02601+01801999999ADDGA1021+008409999GF102991999999999999999999MA1101901999999MW1001REMMET045FMEP 081000Z 14012KT 9999 FEW028 26/18 Q1019;EQDQ01+000000PRSWM2
0162619840999992000100811004-21320+055480FM-15+0053FMEP V0201501N007212200019N0112651N1+02401+01801999999ADDGA1021+006309999GA2021+024009999GF104991999999999999999999MA1101901999999MW1001REMMET052FMEP 081100Z 15014KT 9999 FEW021 SCT083 24/18 Q1019;EQDQ01+000000PRSWM2
0162619840999992000100813004-21320+055480FM-15+0053FMEP V0201401N008712200019N0112651N1+02301+01901999999ADDGA1021+006309999GA2021+024009999GF104991999999999999999999MA1101901999999MW1001REMMET052FMEP 081300Z 14017KT 9999 FEW021 SCT083 23/19 Q1019;EQDQ01+000000PRSWM2
0130619840999992000100814004-21320+055480FM-15+0053FMEP V0201301N008212200019N0112651N1+99999+99999999999ADDGA1021+006309999GF102991999999999999999999MW1001REMMET051FMEP 081400Z 13016KT 9999 FEW021SCT083 23/18 Q1019;EQDQ01+000000PRSWM2
0139619840999992000100816004-21320+055480FM-15+0053FMEP V0201201N002612200019N0112651N1+02201+01701999999ADDGA1021+006309999GF102991999999999999999999MA1102001999999MW1001REMMET045FMEP 081600Z 12005KT 9999 FEW021 22/17 Q1020;EQDQ01+000000PRSWM2
0162619840999992000100903004-21320+055480FM-15+0053FMEP V0200401N001010270019N0112651N1+02101+01701999999ADDGA1021+003309999GA2071+027009999GF107991999999999999999999MA1102001999999MW1001REMMET052FMEP 090300Z 04002KT 9999 FEW011 BKN093 21/17 Q1020;EQDQ01+000000PRSWM2
0162619840999992000100904004-21320+055480FM-15+0053FMEP V0201301N008212200019N0112651N1+02501+01501999999ADDGA1021+003309999GA2021+030009999GF104991999999999999999999MA1102001999999MW1001REMMET052FMEP 090400Z 13016KT 9999 FEW011 SCT100 25/15 Q1020;EQDQ01+000000PRSWM2
0147619840999992000100905004-21320+055480FM-15+0053FMEP V0201601N004612200019N0112651N1+02601+01601999999ADDGA1021+003909999GF102991999999999999999999MA1102001999999MW1001REMMET053FMEP 090500Z 16009KT 110V260 9999 FEW013 26/16 Q1020;EQDQ01+000000PRSWM2
0147619840999992000100906004-21320+055480FM-15+0053FMEP V02099999999992200019N0112651N1+02701+01601999999ADDGA1021+003909999GF102991999999999999999999MA1102001999999MW1001REMMET053FMEP 090600Z VRB04KT 150V020 9999 FEW013 27/16 Q1020;EQDQ01+000000PRSWM2
0160619840999992000100907004-21320+055480FM-15+0053FMEP V0201401N009312200019N0112651N1+02601+01701999999ADDGA1021+004509999GA2021+009009999GF104991999999999999999999MW1001OC101541REMMET057FMEP 090700Z 14018G30KT 100V190 9999 FEW015 SCT030 26/17;EQDQ01+000000PRSWM2
0162619840999992000100908004-21320+055480FM-15+0053FMEP V0201301N010312200019N0112651N1+02501+01601999999ADDGA1021+006009999GA2021+012009999GF104991999999999999999999MA1101901999999MW1001REMMET052FMEP 090800Z 13020KT 9999 FEW020 SCT040 25/16 Q1019;EQDQ01+000000PRSWM2
0162619840999992000100909004-21320+055480FM-15+0053FMEP V0201301N012312200019N0112651N1+02601+01601999999ADDGA1021+006009999GA2021+012909999GF104991999999999999999999MA1101901999999MW1001REMMET052FMEP 090900Z 13024KT 9999 FEW020 SCT043 26/16 Q1019;EQDQ01+000000PRSWM2
0162619840999992000100910004-21320+055480FM-15+0053FMEP V0201301N012312200019N0112651N1+02601+01601999999ADDGA1021+006009999GA2021+012909999GF104991999999999999999999MA1101801999999MW1001REMMET052FMEP 091000Z 13024KT 9999 FEW020 SCT043 26/16 Q1018;EQDQ01+000000PRSWM2
0139619840999992000100911004-21320+055480FM-15+0053FMEP V0201301N011812200019N0112651N1+02501+01601999999ADDGA1021+007509999GF102991999999999999999999MA1101691999999MW1001REMMET045FMEP 091100Z 13023KT 9999 FEW025 25/16 Q1017;EQDQ01+000000PRSWM2
0139619840999992000100912004-21320+055480FM-15+0053FMEP V0201301N011812200019N0112651N1+02501+01601999999ADDGA1021+007809999GF102991999999999999999999MA1101691999999MW1001REMMET045FMEP 091200Z 13023KT 9999 FEW026 25/16 Q1017;EQDQ01+000000PRSWM2
0139619840999992000100913004-21320+055480FM-15+0053FMEP V0201301N011812200019N0112651N1+02401+01601999999ADDGA1021+009309999GF102991999999999999999999MA1101801999999MW1001REMMET045FMEP 091300Z 13023KT 9999 FEW031 24/16 Q1018;EQDQ01+000000PRSWM2
0139619840999992000101003004-21320+055480FM-15+0053FMEP V0200601N002112200019N0112651N1+02001+01101999999ADDGA1021+009009999GF102991999999999999999999MA1102101999999MW1001REMMET045FMEP 100300Z 06004KT 9999 FEW030 20/11 Q1021;EQDQ01+000000PRSWM2
0139619840999992000101004004-21320+055480FM-15+0053FMEP V0201001N001512200019N0112651N1+02401+01001999999ADDGA1021+009009999GF102991999999999999999999MA1102101999999MW1001REMMET045FMEP 100400Z 10003KT 9999 FEW030 24/10 Q1021;EQDQ01+000000PRSWM2
0139619840999992000101005004-21320+055480FM-15+0053FMEP V0201401N007712200019N0112651N1+02501+01501999999ADDGA1021+009909999GF102991999999999999999999MA1102101999999MW1001REMMET045FMEP 100500Z 14015KT 9999 FEW033 25/15 Q1021;EQDQ01+000000PRSWM2
0139619840999992000101006004-21320+055480FM-15+0053FMEP V02099999999992200019N0112651N1+02601+01301999999ADDGA1021+009909999GF102991999999999999999999MA1102001999999MW1001REMMET045FMEP 100600Z VRB03KT 9999 FEW033 26/13 Q1020;EQDQ01+000000PRSWM2
0147619840999992000101007004-21320+055480FM-15+0053FMEP V0201601N004112200019N0112651N1+02601+01301999999ADDGA1021+009909999GF102991999999999999999999MA1102001999999MW1001REMMET053FMEP 100700Z 16008KT 070V240 9999 FEW033 26/13 Q1020;EQDQ01+000000PRSWM2
0147619840999992000101008004-21320+055480FM-15+0053FMEP V0202301N003612200019N0112651N1+02601+01301999999ADDGA1021+009009999GF102991999999999999999999MA1101901999999MW1001REMMET053FMEP 100800Z 23007KT 200V270 9999 FEW030 26/13 Q1019;EQDQ01+000000PRSWM2
0139619840999992000101009004-21320+055480FM-15+0053FMEP V0202601N004112200019N0112651N1+02701+01501999999ADDGA1021+009009999GF102991999999999999999999MA1101901999999MW1001REMMET045FMEP 100900Z 26008KT 9999 FEW030 27/15 Q1019;EQDQ01+000000PRSWM2
0139619840999992000101010004-21320+055480FM-15+0053FMEP V0202701N004612200019N0112651N1+02701+01601999999ADDGA1021+009009999GF102991999999999999999999MA1101901999999MW1001REMMET045FMEP 101000Z 27009KT 9999 FEW030 27/16 Q1019;EQDQ01+000000PRSWM2
0147619840999992000101011004-21320+055480FM-15+0053FMEP V0202501N003112200019N0112651N1+02601+01501999999ADDGA1021+009009999GF102991999999999999999999MA1101801999999MW1001REMMET053FMEP 101100Z 25006KT 210V290 9999 FEW030 26/15 Q1018;EQDQ01+000000PRSWM2
0170619840999992000101012004-21320+055480FM-15+0053FMEP V0201501N004612200019N0112651N1+02601+01401999999ADDGA1021+009009999GA2021+024009999GF104991999999999999999999MA1101801999999MW1001REMMET060FMEP 101200Z 15009KT 110V250 9999 FEW030 SCT083 26/14 Q1018;EQDQ01+000000PRSWM2
0162619840999992000101013004-21320+055480FM-15+0053FMEP V0201301N008712200019N0112651N1+02501+01701999999ADDGA1021+007509999GA2021+018009999GF104991999999999999999999MA1101901999999MW1001REMMET052FMEP 101300Z 13017KT 9999 FEW025 SCT066 25/17 Q1019;EQDQ01+000000PRSWM2
0162619840999992000101103004-21320+055480FM-15+0053FMEP V0200401N001510270019N0112651N1+02101+01501999999ADDGA1021+005409999GA2071+027009999GF107991999999999999999999MA1102101999999MW1001REMMET052FMEP 110300Z 04003KT 9999 FEW018 BKN090 21/15 Q1021;EQDQ01+000000PRSWM2
0162619840999992000101104004-21320+055480FM-15+0053FMEP V0201901N001510270019N0112651N1+02401+01601999999ADDGA1021+004509999GA2071+027009999GF107991999999999999999999MA1102201999999MW1001REMMET052FMEP 110400Z 19003KT 9999 FEW015 BKN090 24/16 Q1022;EQDQ01+000000PRSWM2
0147619840999992000101106004-21320+055480FM-15+0053FMEP V0203001N003112200019N0112651N1+02601+01701999999ADDGA1021+004509999GF102991999999999999999999MA1102201999999MW1001REMMET053FMEP 110600Z 30006KT 240V350 9999 FEW015 26/17 Q1022;EQDQ01+000000PRSWM2
0147619840999992000101107004-21320+055480FM-15+0053FMEP V0202501N002612200019N0112651N1+02601+01701999999ADDGA1021+004809999GF102991999999999999999999MA1102101999999MW1001REMMET053FMEP 110700Z 25005KT 210V300 9999 FEW016 26/17 Q1021;EQDQ01+000000PRSWM2
0139619840999992000101108004-21320+055480FM-15+0053FMEP V0201301N006712200019N0112651N1+02801+01801999999ADDGA1021+004809999GF102991999999999999999999MA1102101999999MW1001REMMET045FMEP 110800Z 13013KT 9999 FEW016 28/18 Q1021;EQDQ01+000000PRSWM2
0139619840999992000101109004-21320+055480FM-15+0053FMEP V0201301N008712200019N0112651N1+02801+01901999999ADDGA1021+004809999GF102991999999999999999999MA1102001999999MW1001REMMET045FMEP 110900Z 13017KT 9999 FEW016 28/19 Q1020;EQDQ01+000000PRSWM2
0170619840999992000101110004-21320+055480FM-15+0053FMEP V0201501N005712200019N0112651N1+02801+01801999999ADDGA1021+004809999GA2021+220009999GF104991999999999999999999MA1102001999999MW1001REMMET060FMEP 111000Z 15011KT 100V170 9999 FEW016 SCT930 28/18 Q1020;EQDQ01+000000PRSWM2
0170619840999992000101111004-21320+055480FM-15+0053FMEP V0201901N003612200019N0112651N1+02801+01701999999ADDGA1021+004809999GA2021+018009999GF104991999999999999999999MA1101901999999MW1001REMMET060FMEP 111100Z 19007KT 120V290 9999 FEW016 SCT066 28/17 Q1019;EQDQ01+000000PRSWM2
0170619840999992000101112004-21320+055480FM-15+0053FMEP V0202501N003112200019N0112651N1+02601+01701999999ADDGA1021+004809999GA2021+021009999GF104991999999999999999999MA1101901999999MW1001REMMET060FMEP 111200Z 25006KT 190V300 9999 FEW016 SCT073 26/17 Q1019;EQDQ01+000000PRSWM2
0162619840999992000101113004-21320+055480FM-15+0053FMEP V0202301N005712200019N0112651N1+02501+01901999999ADDGA1021+003909999GA2021+024009999GF104991999999999999999999MA1102001999999MW1001REMMET052FMEP 111300Z 23011KT 9999 FEW013 SCT083 25/19 Q1020;EQDQ01+000000PRSWM2
0162619840999992000101203004-21320+055480FM-15+0053FMEP V0203501N001512200019N0112651N1+02301+01701999999ADDGA1021+009009999GA2021+024009999GF104991999999999999999999MA1102201999999MW1001REMMET052FMEP 120300Z 35003KT 9999 FEW030 SCT083 23/17 Q1022;EQDQ01+000000PRSWM2
0139619840999992000101204004-21320+055480FM-15+0053FMEP V0202101N001512200019N0112651N1+02401+01701999999ADDGA1021+009009999GF102991999999999999999999MA1102201999999MW1001REMMET045FMEP 120400Z 21003KT 9999 FEW030 24/17 Q1022;EQDQ01+000000PRSWM2
0139619840999992000101205004-21320+055480FM-15+0053FMEP V0201901N003112200019N0112651N1+02501+01801999999ADDGA1021+007509999GF102991999999999999999999MA1102201999999MW1001REMMET045FMEP 120500Z 19006KT 9999 FEW025 25/18 Q1022;EQDQ01+000000PRSWM2
0152619840999992000101206004-21320+055480FM-15+0053FMEP V0201401N004112200019N0112651N1+02601+01801999999ADDGA1021+006309029GA2021+024009999GF104991999999999999999999MW1001REMMET057FMEP 120600Z 14008KT 100V180 9999 FEW021TCU SCT083 26/18;EQDQ01+000000PRSWM2
0170619840999992000101207004-21320+055480FM-15+0053FMEP V0201501N005710240019N0112651N1+02601+01701999999ADDGA1021+006309999GA2071+024009999GF107991999999999999999999MA1102101999999MW1001REMMET060FMEP 120700Z 15011KT 120V190 9999 FEW021 BKN083 26/17 Q1021;EQDQ01+000000PRSWM2
0162619840999992000101208004-21320+055480FM-15+0053FMEP V0201301N008710240019N0112651N1+02601+01701999999ADDGA1021+006309999GA2071+024009999GF107991999999999999999999MA1102101999999MW1001REMMET052FMEP 120800Z 13017KT 9999 FEW021 BKN083 26/17 Q1021;EQDQ01+000000PRSWM2
0162619840999992000101209004-21320+055480FM-15+0053FMEP V0201401N008710240019N0112651N1+02501+01801999999ADDGA1021+007509999GA2071+024009999GF107991999999999999999999MA1102001999999MW1001REMMET052FMEP 120900Z 14017KT 9999 FEW025 BKN083 25/18 Q1020;EQDQ01+000000PRSWM2
0162619840999992000101210004-21320+055480FM-15+0053FMEP V0201401N008710240019N0112651N1+02501+01701999999ADDGA1021+009009999GA2071+024009999GF107991999999999999999999MA1102001999999MW1001REMMET052FMEP 121000Z 14017KT 9999 FEW030 BKN083 25/17 Q1020;EQDQ01+000000PRSWM2
0162619840999992000101211004-21320+055480FM-15+0053FMEP V0201301N008710240019N0112651N1+02501+01801999999ADDGA1021+009009999GA2071+024009999GF107991999999999999999999MA1101901999999MW1001REMMET052FMEP 121100Z 13017KT 9999 FEW030 BKN083 25/18 Q1019;EQDQ01+000000PRSWM2
0162619840999992000101212004-21320+055480FM-15+0053FMEP V0201301N008712200019N0112651N1+02501+01701999999ADDGA1021+009009999GA2021+024009999GF104991999999999999999999MA1101901999999MW1001REMMET052FMEP 121200Z 13017KT 9999 FEW030 SCT083 25/17 Q1019;EQDQ01+000000PRSWM2
0162619840999992000101213004-21320+055480FM-15+0053FMEP V0201401N006712200019N0112651N1+02501+01801999999ADDGA1021+009009999GA2021+024009999GF104991999999999999999999MA1101901999999MW1001REMMET052FMEP 121300Z 14013KT 9999 FEW030 SCT083 25/18 Q1019;EQDQ01+000000PRSWM2
0139619840999992000101303004-21320+055480FM-15+0053FMEP V0200501N002112200019N0112651N1+02001+01201999999ADDGA1021+024009999GF102991999999999999999999MA1101901999999MW1001REMMET045FMEP 130300Z 05004KT 9999 FEW083 20/12 Q1019;EQDQ01+000000PRSWM2
0147619840999992000101305004-21320+055480FM-15+0053FMEP V0203001N003112200019N0112651N1+02501+01501999999ADDGA1021+009909999GF102991999999999999999999MA1102001999999MW1001REMMET053FMEP 130500Z 30006KT 260V340 9999 FEW033 25/15 Q1020;EQDQ01+000000PRSWM2
0139619840999992000101306004-21320+055480FM-15+0053FMEP V0202801N006212200019N0112651N1+02601+01701999999ADDGA1021+009909999GF102991999999999999999999MA1102001999999MW1001REMMET045FMEP 130600Z 28012KT 9999 FEW033 26/17 Q1020;EQDQ01+000000PRSWM2
0139619840999992000101307004-21320+055480FM-15+0053FMEP V0202801N007712200019N0112651N1+02701+01701999999ADDGA1021+009909999GF102991999999999999999999MA1101901999999MW1001REMMET045FMEP 130700Z 28015KT 9999 FEW033 27/17 Q1019;EQDQ01+000000PRSWM2
0139619840999992000101308004-21320+055480FM-15+0053FMEP V0202901N007712200019N0112651N1+02701+01601999999ADDGA1021+009909999GF102991999999999999999999MA1101901999999MW1001REMMET045FMEP 130800Z 29015KT 9999 FEW033 27/16 Q1019;EQDQ01+000000PRSWM2
0139619840999992000101309004-21320+055480FM-15+0053FMEP V0202801N006712200019N0112651N1+02701+01601999999ADDGA1021+009909999GF102991999999999999999999MA1101801999999MW1001REMMET045FMEP 130900Z 28013KT 9999 FEW033 27/16 Q1018;EQDQ01+000000PRSWM2
0139619840999992000101310004-21320+055480FM-15+0053FMEP V0202801N006212200019N0112651N1+02701+01601999999ADDGA1021+008409999GF102991999999999999999999MA1101801999999MW1001REMMET045FMEP 131000Z 28012KT 9999 FEW028 27/16 Q1018;EQDQ01+000000PRSWM2
0147619840999992000101311004-21320+055480FM-15+0053FMEP V0202401N002612200019N0112651N1+02601+01601999999ADDGA1021+008409999GF102991999999999999999999MA1101691999999MW1001REMMET053FMEP 131100Z 24005KT 190V290 9999 FEW028 26/16 Q1017;EQDQ01+000000PRSWM2
0147619840999992000101312004-21320+055480FM-15+0053FMEP V0202301N002112200019N0112651N1+02601+01601999999ADDGA1021+008409999GF102991999999999999999999MA1101691999999MW1001REMMET053FMEP 131200Z 23004KT 160V270 9999 FEW028 26/16 Q1017;EQDQ01+000000PRSWM2
0139619840999992000101313004-21320+055480FM-15+0053FMEP V0202101N002612200019N0112651N1+02501+01701999999ADDGA1021+008409999GF102991999999999999999999MA1101691999999MW1001REMMET045FMEP 131300Z 21005KT 9999 FEW028 25/17 Q1017;EQDQ01+000000PRSWM2
0139619840999992000101314004-21320+055480FM-15+0053FMEP V0202001N002612200019N0112651N1+02301+01701999999ADDGA1021+008409999GF102991999999999999999999MA1101801999999MW1001REMMET045FMEP 131400Z 20005KT 9999 FEW028 23/17 Q1018;EQDQ01+000000PRSWM2
0139619840999992000101315004-21320+055480FM-15+0053FMEP V0201901N001012200019N0112651N1+02201+01701999999ADDGA1021+008409999GF102991999999999999999999MA1101801999999MW1001REMMET045FMEP 131500Z 19002KT 9999 FEW028 22/17 Q1018;EQDQ01+000000PRSWM2
0171619840999992000101404004-21320+055480FM-15+0053FMEP V02099999999990180019N0112651N1+99999+99999999999ADDGA1021+000309999GA2021+003009029GA3071+018009999GF107991999999999999999999MW1001MW2161REMMET054FMEP 140400Z 03009T 7000 VCSH SCT001 SCT010TCU BKN066;EQDQ01+000003PRSWM1
0169619840999992000101406004-21320+055480FM-15+0053FMEP V0200801N002612200019N0112651N1+99999+99999999999ADDGA1021+006009999GA2021+021009999GF104991999999999999999999MA1101801999999MW1001REMMET059FMEP 140600Z 08005KT 360V140 9999 SCT020 SCT070 3/14 Q1018;EQDQ01+000000PRSWM2
0170619840999992000101407004-21320+055480FM-15+0053FMEP V0201501N003112200019N0112651N1+02401+01401999999ADDGA1021+007509999GA2021+021009999GF104991999999999999999999MA1101801999999MW1001REMMET060FMEP 140700Z 15006KT 110V190 9999 SCT025 SCT070 24/14 Q1018;EQDQ01+000000PRSWM2
0162619840999992000101408004-21320+055480FM-15+0053FMEP V0201601N004112200019N0112651N1+02501+01501999999ADDGA1021+007809999GA2021+021009999GF104991999999999999999999MA1101691999999MW1001REMMET052FMEP 140800Z 16008KT 9999 SCT026 SCT076 25/15 Q1017;EQDQ01+000000PRSWM2
0162619840999992000101409004-21320+055480FM-15+0053FMEP V0201701N004110210019N0112651N1+02501+01501999999ADDGA1021+007809999GA2071+021009999GF107991999999999999999999MA1101691999999MW1001REMMET052FMEP 140900Z 17008KT 9999 SCT026 BKN073 25/15 Q1017;EQDQ01+000000PRSWM2
0162619840999992000101410004-21320+055480FM-15+0053FMEP V0201701N005110180019N0112651N1+02401+01401999999ADDGA1021+008409999GA2071+018009999GF107991999999999999999999MA1101591999999MW1001REMMET052FMEP 141000Z 17010KT 9999 SCT028 BKN066 24/14 Q1016;EQDQ01+000000PRSWM2
0162619840999992000101411004-21320+055480FM-15+0053FMEP V0201801N004612200019N0112651N1+02501+01401999999ADDGA1021+008409999GA2021+018009999GF104991999999999999999999MA1101591999999MW1001REMMET052FMEP 141100Z 18009KT 9999 SCT028 SCT066 25/14 Q1016;EQDQ01+000000PRSWM2
0185619840999992000101412004-21320+055480FM-15+0053FMEP V0201701N004110240019N0112651N1+02401+01501999999ADDGA1021+006909999GA2021+012009999GA3071+024009999GF107991999999999999999999MA1101491999999MW1001REMMET059FMEP 141200Z 17008KT 9999 FEW023 SCT040 BKN080 24/15 Q1015;EQDQ01+000000PRSWM2
0167619840999992000101413004-21320+055480FM-15+0053FMEP V0201701N004110240019N0112651N1+02301+01501999999ADDGA1021+003909029GA2021+011409999GA3071+024009999GF107991999999999999999999MW1001REMMET056FMEP 141300Z 17008KT 9999 SCT013TCU SCT038 BKN080 23/15;EQDQ01+000000PRSWM2
0139619840999992000101503004-21320+055480FM-15+0053FMEP V0200401N002612200019N0112651N1+02001+01101999999ADDGA1021+003009999GF102991999999999999999999MA1101691999999MW1001REMMET045FMEP 150300Z 04005KT 9999 FEW010 20/11 Q1017;EQDQ01+000000PRSWM2
0139619840999992000101504004-21320+055480FM-15+0053FMEP V0201301N001512200019N0112651N1+02301+01501999999ADDGA1021+010809999GF102991999999999999999999MA1101691999999MW1001REMMET045FMEP 150400Z 13003KT 9999 FEW036 23/15 Q1017;EQDQ01+000000PRSWM2
0139619840999992000101505004-21320+055480FM-15+0053FMEP V0201701N003612200019N0112651N1+02401+01601999999ADDGA1021+012009999GF102991999999999999999999MA1101801999999MW1001REMMET045FMEP 150500Z 17007KT 9999 FEW040 24/16 Q1018;EQDQ01+000000PRSWM2
0139619840999992000101506004-21320+055480FM-15+0053FMEP V0201801N003612200019N0112651N1+02401+01601999999ADDGA1021+006309999GF102991999999999999999999MA1101801999999MW1001REMMET045FMEP 150600Z 18007KT 9999 FEW021 24/16 Q1018;EQDQ01+000000PRSWM2
0139619840999992000101507004-21320+055480FM-15+0053FMEP V0201801N003612200019N0112651N1+02501+01601999999ADDGA1021+006309999GF102991999999999999999999MA1101691999999MW1001REMMET045FMEP 150700Z 18007KT 9999 FEW021 25/16 Q1017;EQDQ01+000000PRSWM2
0139619840999992000101508004-21320+055480FM-15+0053FMEP V0201801N004112200019N0112651N1+02501+01601999999ADDGA1021+006909999GF102991999999999999999999MA1101691999999MW1001REMMET045FMEP 150800Z 18008KT 9999 FEW023 25/16 Q1017;EQDQ01+000000PRSWM2
0165619840999992000101509004-21320+055480FM-15+0053FMEP V0201801N003610240019N0112651N1+02401+01601999999ADDGA1021+006909029GA2071+024009999GF107991999999999999999999MA1101691999999MW1001REMMET055FMEP 150900Z 18007KT 9999 FEW023TCU BKN080 24/16 Q1017;EQDQ01+000000PRSWM2
0162619840999992000101510004-21320+055480FM-15+0053FMEP V0201601N003110240019N0112651N1+02301+01601999999ADDGA1021+005409999GA2071+024009999GF107991999999999999999999MA1101591999999MW1001REMMET052FMEP 151000Z 16006KT 9999 FEW018 BKN083 23/16 Q1016;EQDQ01+000000PRSWM2
0162619840999992000101511004-21320+055480FM-15+0053FMEP V0201501N002610210019N0112651N1+02401+01601999999ADDGA1021+006009999GA2071+021009999GF107991999999999999999999MA1101591999999MW1001REMMET052FMEP 151100Z 15005KT 9999 SCT020 BKN073 24/16 Q1016;EQDQ01+000000PRSWM2
0162619840999992000101512004-21320+055480FM-15+0053FMEP V0201601N003112200019N0112651N1+02401+01601999999ADDGA1021+005409999GA2021+021009999GF104991999999999999999999MA1101591999999MW1001REMMET052FMEP 151200Z 16006KT 9999 SCT018 SCT076 24/16 Q1016;EQDQ01+000000PRSWM2
0170619840999992000101513004-21320+055480FM-15+0053FMEP V0201601N003112200019N0112651N1+02401+01601999999ADDGA1021+004809999GA2021+024009999GF104991999999999999999999MA1101591999999MW1001REMMET060FMEP 151300Z 16006KT 120V190 9999 SCT016 SCT080 24/16 Q1016;EQDQ01+000000PRSWM2
0139619840999992000101514004-21320+055480FM-15+0053FMEP V0201601N002612200019N0112651N1+02301+01601999999ADDGA1021+006009999GF102991999999999999999999MA1101691999999MW1001REMMET045FMEP 151400Z 16005KT 9999 FEW020 23/16 Q1017;EQDQ01+000000PRSWM2
0139619840999992000101515004-21320+055480FM-15+0053FMEP V0201301N002612200019N0112651N1+02201+01601999999ADDGA1021+006009999GF102991999999999999999999MA1101691999999MW1001REMMET045FMEP 151500Z 13005KT 9999 FEW020 22/16 Q1017;EQDQ01+000000PRSWM2
0139619840999992000101603004-21320+055480FM-15+0053FMEP V0200301N001512200019N0112651N1+02201+01201999999ADDGA1021+009009999GF102991999999999999999999MA1101691999999MW1001REMMET045FMEP 160300Z 03003KT 9999 FEW030 22/12 Q1017;EQDQ01+000000PRSWM2
0139619840999992000101604004-21320+055480FM-15+0053FMEP V0203301N001512200019N0112651N1+02401+01501999999ADDGA1021+009009999GF102991999999999999999999MA1101691999999MW1001REMMET045FMEP 160400Z 33003KT 9999 FEW030 24/15 Q1017;EQDQ01+000000PRSWM2
0139619840999992000101605004-21320+055480FM-15+0053FMEP V0202601N003612200019N0112651N1+02501+01601999999ADDGA1021+009009999GF102991999999999999999999MA1101691999999MW1001REMMET045FMEP 160500Z 26007KT 9999 FEW030 25/16 Q1017;EQDQ01+000000PRSWM2
0162619840999992000101607004-21320+055480FM-15+0053FMEP V0202401N004112200019N0112651N1+02501+01701999999ADDGA1021+009009999GA2021+018009999GF104991999999999999999999MA1101691999999MW1001REMMET052FMEP 160700Z 24008KT 9999 FEW030 SCT066 25/17 Q1017;EQDQ01+000000PRSWM2
0162619840999992000101608004-21320+055480FM-15+0053FMEP V0202501N003112200019N0112651N1+02601+01701999999ADDGA1021+009009999GA2021+018009999GF104991999999999999999999MA1101691999999MW1001REMMET052FMEP 160800Z 25006KT 9999 FEW030 SCT066 26/17 Q1017;EQDQ01+000000PRSWM2
0162619840999992000101609004-21320+055480FM-15+0053FMEP V0202601N004110180019N0112651N1+02501+01601999999ADDGA1021+009009999GA2071+018009999GF107991999999999999999999MA1101591999999MW1001REMMET052FMEP 160900Z 26008KT 9999 FEW030 BKN066 25/16 Q1016;EQDQ01+000000PRSWM2
0162619840999992000101610004-21320+055480FM-15+0053FMEP V0202401N003610180019N0112651N1+02501+01601999999ADDGA1021+007509999GA2071+018009999GF107991999999999999999999MA1101591999999MW1001REMMET052FMEP 161000Z 24007KT 9999 FEW025 BKN066 25/16 Q1016;EQDQ01+000000PRSWM2
0162619840999992000101611004-21320+055480FM-15+0053FMEP V0202101N004110240019N0112651N1+02501+01601999999ADDGA1021+007509999GA2071+024009999GF107991999999999999999999MA1101591999999MW1001REMMET052FMEP 161100Z 21008KT 9999 FEW025 BKN083 25/16 Q1016;EQDQ01+000000PRSWM2
0162619840999992000101612004-21320+055480FM-15+0053FMEP V0202001N004110240019N0112651N1+02401+01601999999ADDGA1021+006909999GA2071+024009999GF107991999999999999999999MA1101591999999MW1001REMMET052FMEP 161200Z 20008KT 9999 FEW023 BKN083 24/16 Q1016;EQDQ01+000000PRSWM2
0162619840999992000101613004-21320+055480FM-15+0053FMEP V0201801N003610240019N0112651N1+02401+01501999999ADDGA1021+006909999GA2071+024009999GF107991999999999999999999MA1101591999999MW1001REMMET052FMEP 161300Z 18007KT 9999 FEW023 BKN083 24/15 Q1016;EQDQ01+000000PRSWM2
0187619840999992000101705004-21320+055480FM-15+0053FMEP V0201401N006210108019N0080001N1+02301+01301999999ADDGA1021+000909999GA2021+004509029GA3071+010809999GF107991999999999999999999MW1611REMMET060FMEP 170500Z 14012KT 8000 -RA FEW003 SCT015TCU BKN036 23/13;EQDQ01+000003PRSWM1Q02    003PRSWM1
0167619840999992000101706004-21320+055480FM-15+0053FMEP V0201501N005710180019N0090001N1+02301+01201999999ADDGA1021+004809029GA2021+012009999GA3071+018009999GF107991999999999999999999MW1001REMMET056FMEP 170600Z 15011KT 9000 FEW016TCU SCT040 BKN066 23/12;EQDQ01+000000PRSWM2
0185619840999992000101707004-21320+055480FM-15+0053FMEP V0201501N006210114019N0090001N1+02301+01201999999ADDGA1021+006009999GA2071+011409999GA3071+021009999GF107991999999999999999999MA1101901999999MW1001REMMET059FMEP 170700Z 15012KT 9000 FEW020 BKN038 BKN073 23/12 Q1019;EQDQ01+000000PRSWM2
0185619840999992000101708004-21320+055480FM-15+0053FMEP V0201501N007210120019N0090001N1+02301+01201999999ADDGA1021+006009999GA2071+012009999GA3071+021009999GF107991999999999999999999MA1101901999999MW1001REMMET059FMEP 170800Z 15014KT 9000 FEW020 BKN040 BKN073 23/12 Q1019;EQDQ01+000000PRSWM2
0162619840999992000101709004-21320+055480FM-15+0053FMEP V0201601N007210210019N0090001N1+02401+01201999999ADDGA1021+006009999GA2071+021009999GF107991999999999999999999MA1101801999999MW1001REMMET052FMEP 170900Z 16014KT 9000 FEW020 BKN073 24/12 Q1018;EQDQ01+000000PRSWM2
0162619840999992000101710004-21320+055480FM-15+0053FMEP V0201501N006210210019N0090001N1+02401+01101999999ADDGA1021+006009999GA2071+021009999GF107991999999999999999999MA1101691999999MW1001REMMET052FMEP 171000Z 15012KT 9000 FEW020 BKN073 24/11 Q1017;EQDQ01+000000PRSWM2
0185619840999992000101711004-21320+055480FM-15+0053FMEP V0201501N006710240019N0112651N1+02301+01101999999ADDGA1021+006009999GA2021+012909999GA3071+024009999GF107991999999999999999999MA1101691999999MW1001REMMET059FMEP 171100Z 15013KT 9999 FEW020 SCT043 BKN080 23/11 Q1017;EQDQ01+000000PRSWM2
0185619840999992000101712004-21320+055480FM-15+0053FMEP V0201401N006210240019N0112651N1+02301+01101999999ADDGA1021+006009999GA2021+012909999GA3071+024009999GF107991999999999999999999MA1101691999999MW1001REMMET059FMEP 171200Z 14012KT 9999 FEW020 SCT043 BKN080 23/11 Q1017;EQDQ01+000000PRSWM2
0162619840999992000101803004-21320+055480FM-15+0053FMEP V0200701N002110240019N0112651N1+02001+01201999999ADDGA1021+009009999GA2071+024009999GF107991999999999999999999MA1101801999999MW1001REMMET052FMEP 180300Z 07004KT 9999 FEW030 BKN083 20/12 Q1018;EQDQ01+000000PRSWM2
0162619840999992000101804004-21320+055480FM-15+0053FMEP V0201101N003610240019N0112651N1+02201+01101999999ADDGA1021+009009999GA2071+024009999GF107991999999999999999999MA1101801999999MW1001REMMET052FMEP 180400Z 11007KT 9999 FEW030 BKN083 22/11 Q1018;EQDQ01+000000PRSWM2
0162619840999992000101805004-21320+055480FM-15+0053FMEP V0201301N006210240019N0112651N1+02301+01101999999ADDGA1021+009009999GA2071+024009999GF107991999999999999999999MA1101801999999MW1001REMMET052FMEP 180500Z 13012KT 9999 FEW030 BKN083 23/11 Q1018;EQDQ01+000000PRSWM2
0162619840999992000101806004-21320+055480FM-15+0053FMEP V0201301N007710240019N0112651N1+02301+01101999999ADDGA1021+009009999GA2071+024009999GF107991999999999999999999MA1101801999999MW1001REMMET052FMEP 180600Z 13015KT 9999 FEW030 BKN083 23/11 Q1018;EQDQ01+000000PRSWM2
0162619840999992000101807004-21320+055480FM-15+0053FMEP V0201301N009312200019N0112651N1+02401+01101999999ADDGA1021+009009999GA2021+024009999GF104991999999999999999999MA1101691999999MW1001REMMET052FMEP 180700Z 13018KT 9999 FEW030 SCT083 24/11 Q1017;EQDQ01+000000PRSWM2
0162619840999992000101808004-21320+055480FM-15+0053FMEP V0201401N008712200019N0112651N1+02401+01101999999ADDGA1021+007509999GA2021+018009999GF104991999999999999999999MA1101691999999MW1001REMMET052FMEP 180800Z 14017KT 9999 FEW025 SCT066 24/11 Q1017;EQDQ01+000000PRSWM2
0162619840999992000101809004-21320+055480FM-15+0053FMEP V0201401N009312200019N0112651N1+02501+01101999999ADDGA1021+007509999GA2021+018009999GF104991999999999999999999MA1101591999999MW1001REMMET052FMEP 180900Z 14018KT 9999 FEW025 SCT066 25/11 Q1016;EQDQ01+000000PRSWM2
0162619840999992000101810004-21320+055480FM-15+0053FMEP V0201401N010812200019N0112651N1+02401+01301999999ADDGA1021+007509999GA2021+018009999GF104991999999999999999999MA1101591999999MW1001REMMET052FMEP 181000Z 14021KT 9999 FEW025 SCT066 24/13 Q1016;EQDQ01+000000PRSWM2
0162619840999992000101811004-21320+055480FM-15+0053FMEP V0201401N008712200019N0112651N1+02301+01301999999ADDGA1021+007509999GA2021+018009999GF104991999999999999999999MA1101591999999MW1001REMMET052FMEP 181100Z 14017KT 9999 FEW025 SCT066 23/13 Q1016;EQDQ01+000000PRSWM2
0139619840999992000101812004-21320+055480FM-15+0053FMEP V0201401N009812200019N0112651N1+02301+01401999999ADDGA1021+006309999GF102991999999999999999999MA1101591999999MW1001REMMET045FMEP 181200Z 14019KT 9999 FEW021 23/14 Q1016;EQDQ01+000000PRSWM2
0162619840999992000101813004-21320+055480FM-15+0053FMEP V0201401N009812200019N0112651N1+02201+01301999999ADDGA1021+006309999GA2021+018009999GF104991999999999999999999MA1101591999999MW1001REMMET052FMEP 181300Z 14019KT 9999 FEW021 SCT066 22/13 Q1016;EQDQ01+000000PRSWM2
0139619840999992000101903004-21320+055480FM-15+0053FMEP V0200401N003612200019N0112651N1+02101+01001999999ADDGA1021+009309999GF102991999999999999999999MA1101691999999MW1001REMMET045FMEP 190300Z 04007KT 9999 FEW031 21/10 Q1017;EQDQ01+000000PRSWM2
0139619840999992000101905004-21320+055480FM-15+0053FMEP V0201401N006212200019N0112651N1+02501+01301999999ADDGA1021+010809999GF102991999999999999999999MA1101691999999MW1001REMMET045FMEP 190500Z 14012KT 9999 FEW036 25/13 Q1017;EQDQ01+000000PRSWM2
0160619840999992000101907004-21320+055480FM-15+0053FMEP V0201301N006212200019N0112651N1+02501+01301999999ADDGA1021+009009999GA2021+021009999GF104991999999999999999999MW1001OC101131REMMET057FMEP 190700Z 13012G22KT 090V160 9999 FEW030 SCT073 25/13;EQDQ01+000000PRSWM2
0170619840999992000101908004-21320+055480FM-15+0053FMEP V0203001N003110240019N0112651N1+02501+01201999999ADDGA1021+009009999GA2071+024009999GF107991999999999999999999MA1101691999999MW1001REMMET060FMEP 190800Z 30006KT 240V340 9999 FEW030 BKN083 25/12 Q1017;EQDQ01+000000PRSWM2
0162619840999992000101909004-21320+055480FM-15+0053FMEP V0202801N005110270019N0112651N1+02401+01501999999ADDGA1021+009009999GA2071+027009999GF107991999999999999999999MA1101691999999MW1001REMMET052FMEP 190900Z 28010KT 9999 FEW030 BKN096 24/15 Q1017;EQDQ01+000000PRSWM2
0162619840999992000101910004-21320+055480FM-15+0053FMEP V0202701N005110300019N0112651N1+02501+01401999999ADDGA1021+009009999GA2071+030009999GF107991999999999999999999MA1101691999999MW1001REMMET052FMEP 191000Z 27010KT 9999 FEW030 BKN100 25/14 Q1017;EQDQ01+000000PRSWM2
0162619840999992000101911004-21320+055480FM-15+0053FMEP V0202601N004110300019N0112651N1+02401+01501999999ADDGA1021+009009999GA2071+030009999GF107991999999999999999999MA1101591999999MW1001REMMET052FMEP 191100Z 26008KT 9999 FEW030 BKN100 24/15 Q1016;EQDQ01+000000PRSWM2
0162619840999992000101912004-21320+055480FM-15+0053FMEP V0202401N001510300019N0112651N1+02301+01401999999ADDGA1021+009009999GA2071+030009999GF107991999999999999999999MA1101691999999MW1001REMMET052FMEP 191200Z 24003KT 9999 FEW030 BKN100 23/14 Q1017;EQDQ01+000000PRSWM2
0162619840999992000101913004-21320+055480FM-15+0053FMEP V0201501N002112200019N0112651N1+02301+01401999999ADDGA1021+009009999GA2021+015009999GF104991999999999999999999MA1101691999999MW1001REMMET052FMEP 191300Z 15004KT 9999 FEW030 SCT050 23/14 Q1017;EQDQ01+000000PRSWM2
0170619840999992000102003004-21320+055480FM-15+0053FMEP V0201501N002110300019N0112651N1+02201+01601999999ADDGA1021+010809999GA2071+030009999GF107991999999999999999999MA1101901999999MW1001REMMET060FMEP 200300Z 15004KT 100V190 9999 FEW036 BKN100 22/16 Q1019;EQDQ01+000000PRSWM2
0170619840999992000102004004-21320+055480FM-15+0053FMEP V0202801N002110300019N0112651N1+02401+01401999999ADDGA1021+010809999GA2071+030009999GF107991999999999999999999MA1101901999999MW1001REMMET060FMEP 200400Z 28004KT 230V330 9999 FEW036 BKN100 24/14 Q1019;EQDQ01+000000PRSWM2
0162619840999992000102005004-21320+055480FM-15+0053FMEP V0202901N001510300019N0112651N1+02401+01501999999ADDGA1021+012009999GA2071+030009999GF107991999999999999999999MA1101901999999MW1001REMMET052FMEP 200500Z 29003KT 9999 FEW040 BKN100 24/15 Q1019;EQDQ01+000000PRSWM2
0185619840999992000102007004-21320+055480FM-15+0053FMEP V0201401N006210300019N0112651N1+02401+01601999999ADDGA1021+012009999GA2021+018009999GA3071+030009999GF107991999999999999999999MA1101901999999MW1001REMMET059FMEP 200700Z 14012KT 9999 FEW040 SCT060 BKN100 24/16 Q1019;EQDQ01+000000PRSWM2
0162619840999992000102008004-21320+055480FM-15+0053FMEP V0201301N007210270019N0112651N1+02401+01801999999ADDGA1021+006909999GA2071+027009999GF107991999999999999999999MA1101901999999MW1001REMMET052FMEP 200800Z 13014KT 9999 FEW023 BKN090 24/18 Q1019;EQDQ01+000000PRSWM2
0162619840999992000102009004-21320+055480FM-15+0053FMEP V0201401N007210300019N0112651N1+02501+01701999999ADDGA1021+008409999GA2071+030009999GF107991999999999999999999MA1101801999999MW1001REMMET052FMEP 200900Z 14014KT 9999 FEW028 BKN100 25/17 Q1018;EQDQ01+000000PRSWM2
0162619840999992000102010004-21320+055480FM-15+0053FMEP V0201301N008210300019N0112651N1+02401+01801999999ADDGA1021+006009999GA2071+030009999GF107991999999999999999999MA1101801999999MW1001REMMET052FMEP 201000Z 13016KT 9999 FEW020 BKN100 24/18 Q1018;EQDQ01+000000PRSWM2
0185619840999992000102012004-21320+055480FM-15+0053FMEP V0203101N003610300019N0112651N1+02501+01601999999ADDGA1021+006909999GA2021+018009999GA3071+030009999GF107991999999999999999999MA1101691999999MW1001REMMET059FMEP 201200Z 31007KT 9999 FEW023 SCT066 BKN100 25/16 Q1017;EQDQ01+000000PRSWM2
0185619840999992000102014004-21320+055480FM-15+0053FMEP V0201301N004110330019N0112651N1+02301+01601999999ADDGA1021+009909999GA2021+015009999GA3071+033009999GF107991999999999999999999MA1101801999999MW1001REMMET059FMEP 201400Z 13008KT 9999 FEW033 SCT056 BKN110 23/16 Q1018;EQDQ01+000000PRSWM2
0139619840999992000102103004-21320+055480FM-15+0053FMEP V0200201N003112200019N0112651N1+02201+01501999999ADDGA1021+009009999GF102991999999999999999999MA1101901999999MW1001REMMET045FMEP 210300Z 02006KT 9999 FEW030 22/15 Q1019;EQDQ01+000000PRSWM2
0147619840999992000102105004-21320+055480FM-15+0053FMEP V0202201N003112200019N0112651N1+02501+01801999999ADDGA1021+007509999GF102991999999999999999999MA1102001999999MW1001REMMET053FMEP 210500Z 22006KT 190V260 9999 FEW025 25/18 Q1020;EQDQ01+000000PRSWM2
0139619840999992000102106004-21320+055480FM-15+0053FMEP V0202101N003112200019N0112651N1+02601+01701999999ADDGA1021+007509999GF102991999999999999999999MA1102001999999MW1001REMMET045FMEP 210600Z 21006KT 9999 FEW025 26/17 Q1020;EQDQ01+000000PRSWM2
0139619840999992000102107004-21320+055480FM-15+0053FMEP V0202101N003112200019N0112651N1+02601+01601999999ADDGA1021+007509999GF102991999999999999999999MA1101901999999MW1001REMMET045FMEP 210700Z 21006KT 9999 FEW025 26/16 Q1019;EQDQ01+000000PRSWM2
0147619840999992000102108004-21320+055480FM-15+0053FMEP V0202401N002612200019N0112651N1+02701+01601999999ADDGA1021+007509999GF102991999999999999999999MA1101901999999MW1001REMMET053FMEP 210800Z 24005KT 200V270 9999 FEW025 27/16 Q1019;EQDQ01+000000PRSWM2
0147619840999992000102109004-21320+055480FM-15+0053FMEP V0202701N003612200019N0112651N1+02701+01801999999ADDGA1021+007509999GF102991999999999999999999MA1101901999999MW1001REMMET053FMEP 210900Z 27007KT 220V300 9999 FEW025 27/18 Q1019;EQDQ01+000000PRSWM2
0170619840999992000102110004-21320+055480FM-15+0053FMEP V0202501N003112200019N0112651N1+02801+01701999999ADDGA1021+007509999GA2021+024009999GF104991999999999999999999MA1101801999999MW1001REMMET060FMEP 211000Z 25006KT 220V290 9999 FEW025 SCT083 28/17 Q1018;EQDQ01+000000PRSWM2
0162619840999992000102111004-21320+055480FM-15+0053FMEP V0202501N003112200019N0112651N1+02701+01701999999ADDGA1021+007509999GA2021+024009999GF104991999999999999999999MA1101801999999MW1001REMMET052FMEP 211100Z 25006KT 9999 FEW025 SCT083 27/17 Q1018;EQDQ01+000000PRSWM2
0147619840999992000102113004-21320+055480FM-15+0053FMEP V0202601N002112200019N0112651N1+02601+01701999999ADDGA1021+009009999GF102991999999999999999999MA1101801999999MW1001REMMET053FMEP 211300Z 26004KT 220V300 9999 FEW030 26/17 Q1018;EQDQ01+000000PRSWM2
0139619840999992000102203004-21320+055480FM-15+0053FMEP V0200301N001012200019N0112651N1+02401+01301999999ADDGA1021+009009999GF102991999999999999999999MA1101801999999MW1001REMMET045FMEP 220300Z 03002KT 9999 FEW030 24/13 Q1018;EQDQ01+000000PRSWM2
0170619840999992000102204004-21320+055480FM-15+0053FMEP V0202901N002112200019N0112651N1+02401+01601999999ADDGA1021+009009999GA2021+024009999GF104991999999999999999999MA1101901999999MW1001REMMET060FMEP 220400Z 29004KT 250V330 9999 FEW030 SCT083 24/16 Q1019;EQDQ01+000000PRSWM2
0170619840999992000102205004-21320+055480FM-15+0053FMEP V0202401N002612200019N0112651N1+02501+01701999999ADDGA1021+009009999GA2021+024009999GF104991999999999999999999MA1101801999999MW1001REMMET060FMEP 220500Z 24005KT 200V280 9999 FEW030 SCT083 25/17 Q1018;EQDQ01+000000PRSWM2
0170619840999992000102206004-21320+055480FM-15+0053FMEP V02099999999992200019N0112651N1+02601+01801999999ADDGA1021+007809999GA2021+024009999GF104991999999999999999999MA1101801999999MW1001REMMET060FMEP 220600Z VRB07KT 030V230 9999 FEW026 SCT083 26/18 Q1018;EQDQ01+000000PRSWM2
0162619840999992000102207004-21320+055480FM-15+0053FMEP V0202501N004612200019N0112651N1+02601+01901999999ADDGA1021+007809999GA2021+024009999GF104991999999999999999999MA1101801999999MW1001REMMET052FMEP 220700Z 25009KT 9999 FEW026 SCT083 26/19 Q1018;EQDQ01+000000PRSWM2
0162619840999992000102208004-21320+055480FM-15+0053FMEP V0202501N004112200019N0112651N1+02701+01801999999ADDGA1021+007509999GA2021+018009999GF104991999999999999999999MA1101801999999MW1001REMMET052FMEP 220800Z 25008KT 9999 FEW025 SCT066 27/18 Q1018;EQDQ01+000000PRSWM2
0162619840999992000102209004-21320+055480FM-15+0053FMEP V0201601N004112200019N0112651N1+02701+01901999999ADDGA1021+007509999GA2021+018009999GF104991999999999999999999MA1101691999999MW1001REMMET052FMEP 220900Z 16008KT 9999 FEW025 SCT066 27/19 Q1017;EQDQ01+000000PRSWM2
0183619840999992000102210004-21320+055480FM-15+0053FMEP V0201401N005112200019N0080001N1+02601+01801999999ADDGA1021+007509999GA2021+015009999GF104991999999999999999999MA1101691999999MW1161REMMET057FMEP 221000Z 14010KT 8000 VCSH FEW025 SCT050 26/18 Q1017;EQDQ01+000003PRSWM1Q02    003PRSWM1
0183619840999992000102211004-21320+055480FM-15+0053FMEP V0201301N004610150019N0080001N1+02601+01801999999ADDGA1021+007509999GA2071+015009999GF107991999999999999999999MA1101691999999MW1161REMMET057FMEP 221100Z 13009KT 8000 VCSH FEW025 BKN050 26/18 Q1017;EQDQ01+000003PRSWM1Q02    003PRSWM1
0162619840999992000102212004-21320+055480FM-15+0053FMEP V0201301N003612200019N0112651N1+02501+01801999999ADDGA1021+007509999GA2021+015009999GF104991999999999999999999MA1101691999999MW1001REMMET052FMEP 221200Z 13007KT 9999 FEW025 SCT050 25/18 Q1017;EQDQ01+000000PRSWM2
0139619840999992000102213004-21320+055480FM-15+0053FMEP V0201301N004112200019N0112651N1+02401+01901999999ADDGA1021+006309999GF102991999999999999999999MA1101691999999MW1001REMMET045FMEP 221300Z 13008KT 9999 FEW021 24/19 Q1017;EQDQ01+000000PRSWM2
0142619840999992000102214004-21320+055480FM-15+0053FMEP V0201401N003612200019N0112651N1+02401+01801999999ADDGA1021+006309029GF102991999999999999999999MA1101691999999MW1001REMMET048FMEP 221400Z 14007KT 9999 FEW021TCU 24/18 Q1017;EQDQ01+000000PRSWM2
0139619840999992000102215004-21320+055480FM-15+0053FMEP V0201501N003612200019N0112651N1+02301+02001999999ADDGA1021+006309999GF102991999999999999999999MA1101801999999MW1001REMMET045FMEP 221500Z 15007KT 9999 FEW021 23/20 Q1018;EQDQ01+000000PRSWM2
0139619840999992000102303004-21320+055480FM-15+0053FMEP V0200201N002612200019N0112651N1+02301+01701999999ADDGA1021+004509999GF102991999999999999999999MA1101691999999MW1001REMMET045FMEP 230300Z 02005KT 9999 FEW015 23/17 Q1017;EQDQ01+000000PRSWM2
0147619840999992000102304004-21320+055480FM-15+0053FMEP V0203001N002612200019N0112651N1+02601+01801999999ADDGA1021+004809999GF102991999999999999999999MA1101691999999MW1001REMMET053FMEP 230400Z 30005KT 230V360 9999 FEW016 26/18 Q1017;EQDQ01+000000PRSWM2
0139619840999992000102305004-21320+055480FM-15+0053FMEP V0202901N005112200019N0112651N1+02701+01901999999ADDGA1021+004809999GF102991999999999999999999MA1101691999999MW1001REMMET045FMEP 230500Z 29010KT 9999 FEW016 27/19 Q1017;EQDQ01+000000PRSWM2
0139619840999992000102306004-21320+055480FM-15+0053FMEP V0202801N004612200019N0112651N1+02801+01901999999ADDGA1021+008409999GF102991999999999999999999MA1101801999999MW1001REMMET045FMEP 230600Z 28009KT 9999 FEW028 28/19 Q1018;EQDQ01+000000PRSWM2
0162619840999992000102307004-21320+055480FM-15+0053FMEP V0202501N003612200019N0112651N1+02801+02001999999ADDGA1021+009009999GA2021+033009999GF104991999999999999999999MA1101691999999MW1001REMMET052FMEP 230700Z 25007KT 9999 FEW030 SCT110 28/20 Q1017;EQDQ01+000000PRSWM2
0162619840999992000102308004-21320+055480FM-15+0053FMEP V0202301N003112200019N0112651N1+02701+01901999999ADDGA1021+007809999GA2021+033009999GF104991999999999999999999MA1101691999999MW1001REMMET052FMEP 230800Z 23006KT 9999 FEW026 SCT110 27/19 Q1017;EQDQ01+000000PRSWM2
0162619840999992000102309004-21320+055480FM-15+0053FMEP V0202301N003110360019N0112651N1+02701+02001999999ADDGA1021+007809999GA2071+036009999GF107991999999999999999999MA1101691999999MW1001REMMET052FMEP 230900Z 23006KT 9999 FEW026 BKN120 27/20 Q1017;EQDQ01+000000PRSWM2
0170619840999992000102310004-21320+055480FM-15+0053FMEP V0202101N002110390019N0112651N1+02801+01901999999ADDGA1021+008409999GA2071+039009999GF107991999999999999999999MA1101591999999MW1001REMMET060FMEP 231000Z 21004KT 160V280 9999 FEW028 BKN130 28/19 Q1016;EQDQ01+000000PRSWM2
0185619840999992000102312004-21320+055480FM-15+0053FMEP V0201801N002610450019N0112651N1+02601+01901999999ADDGA1021+008409999GA2021+015009999GA3071+045009999GF107991999999999999999999MA1101491999999MW1001REMMET059FMEP 231200Z 18005KT 9999 FEW028 SCT053 BKN150 26/19 Q1015;EQDQ01+000000PRSWM2
0185619840999992000102313004-21320+055480FM-15+0053FMEP V0201601N002610450019N0112651N1+02601+02001999999ADDGA1021+008409999GA2021+013809999GA3071+045009999GF107991999999999999999999MA1101591999999MW1001REMMET059FMEP 231300Z 16005KT 9999 FEW028 SCT046 BKN150 26/20 Q1016;EQDQ01+000000PRSWM2
0139619840999992000102403004-21320+055480FM-15+0053FMEP V0200101N002112200019N0112651N1+02301+01901999999ADDGA1021+008409999GF102991999999999999999999MA1101591999999MW1001REMMET045FMEP 240300Z 01004KT 9999 FEW028 23/19 Q1016;EQDQ01+000000PRSWM2
0139619840999992000102404004-21320+055480FM-15+0053FMEP V0202501N001512200019N0112651N1+02601+01901999999ADDGA1021+008409999GF102991999999999999999999MA1101691999999MW1001REMMET045FMEP 240400Z 25003KT 9999 FEW028 26/19 Q1017;EQDQ01+000000PRSWM2
0139619840999992000102405004-21320+055480FM-15+0053FMEP V0202201N001512200019N0112651N1+02701+01901999999ADDGA1021+008409999GF102991999999999999999999MA1101801999999MW1001REMMET045FMEP 240500Z 22003KT 9999 FEW028 27/19 Q1018;EQDQ01+000000PRSWM2
0170619840999992000102406004-21320+055480FM-15+0053FMEP V0202001N002612200019N0112651N1+02701+01901999999ADDGA1021+008409999GA2021+024009999GF104991999999999999999999MA1101801999999MW1001REMMET060FMEP 240600Z 20005KT 160V240 9999 FEW028 SCT083 27/19 Q1018;EQDQ01+000000PRSWM2
0162619840999992000102407004-21320+055480FM-15+0053FMEP V0202101N002612200019N0112651N1+02801+01901999999ADDGA1021+008409999GA2021+024009999GF104991999999999999999999MA1101801999999MW1001REMMET052FMEP 240700Z 21005KT 9999 FEW028 SCT083 28/19 Q1018;EQDQ01+000000PRSWM2
0162619840999992000102408004-21320+055480FM-15+0053FMEP V02099999999990240019N0112651N1+02801+01801999999ADDGA1021+008409999GA2071+024009999GF107991999999999999999999MA1101801999999MW1001REMMET052FMEP 240800Z VRB03KT 9999 FEW028 BKN083 28/18 Q1018;EQDQ01+000000PRSWM2
0170619840999992000102410004-21320+055480FM-15+0053FMEP V02099999999990150019N0080001N1+02801+01901999999ADDGA1021+007509999GA2071+015009999GF107991999999999999999999MW1161REMMET059FMEP 241000Z VRB04KT 140V330 8000 VCSH FEW025 BKN050 28/19;EQDQ01+000003PRSWM1Q02    003PRSWM1
0170619840999992000102411004-21320+055480FM-15+0053FMEP V0201901N003110150019N0080001N1+02601+01901999999ADDGA1021+006309999GA2071+015009999GF107991999999999999999999MW1161REMMET059FMEP 241100Z 19006KT 150V220 8000 VCSH FEW021 BKN050 26/19;EQDQ01+000003PRSWM1Q02    003PRSWM1
0183619840999992000102412004-21320+055480FM-15+0053FMEP V0201401N006210150019N0080001N1+02601+02001999999ADDGA1021+006309999GA2071+015009999GF107991999999999999999999MA1101591999999MW1161REMMET057FMEP 241200Z 14012KT 8000 VCSH FEW021 BKN050 26/20 Q1016;EQDQ01+000003PRSWM1Q02    003PRSWM1
0139619840999992000102413004-21320+055480FM-15+0053FMEP V0201701N003612200019N0112651N1+02601+02001999999ADDGA1021+006309999GF102991999999999999999999MA1101591999999MW1001REMMET045FMEP 241300Z 17007KT 9999 FEW021 26/20 Q1016;EQDQ01+000000PRSWM2
0139619840999992000102503004-21320+055480FM-15+0053FMEP V0203601N001012200019N0112651N1+02401+01901999999ADDGA1021+012909999GF102991999999999999999999MA1101901999999MW1001REMMET045FMEP 250300Z 36002KT 9999 FEW043 24/19 Q1019;EQDQ01+000000PRSWM2
0147619840999992000102504004-21320+055480FM-15+0053FMEP V0201501N002612200019N0112651N1+02501+01901999999ADDGA1021+013809999GF102991999999999999999999MA1102001999999MW1001REMMET053FMEP 250400Z 15005KT 100V190 9999 FEW046 25/19 Q1020;EQDQ01+000000PRSWM2
0142619840999992000102505004-21320+055480FM-15+0053FMEP V0202601N004112200019N0112651N1+02601+02001999999ADDGA1021+006009029GF102991999999999999999999MA1102001999999MW1001REMMET048FMEP 250500Z 26008KT 9999 FEW020TCU 26/20 Q1020;EQDQ01+000000PRSWM2
0139619840999992000102506004-21320+055480FM-15+0053FMEP V0202401N003112200019N0112651N1+02701+02001999999ADDGA1021+005409999GF102991999999999999999999MA1102001999999MW1001REMMET045FMEP 250600Z 24006KT 9999 FEW018 27/20 Q1020;EQDQ01+000000PRSWM2
0139619840999992000102507004-21320+055480FM-15+0053FMEP V0202701N005112200019N0112651N1+02801+02001999999ADDGA1021+006009999GF102991999999999999999999MA1102001999999MW1001REMMET045FMEP 250700Z 27010KT 9999 FEW020 28/20 Q1020;EQDQ01+000000PRSWM2
0139619840999992000102508004-21320+055480FM-15+0053FMEP V0202601N005112200019N0112651N1+02801+02001999999ADDGA1021+009309999GF102991999999999999999999MA1101901999999MW1001REMMET045FMEP 250800Z 26010KT 9999 FEW031 28/20 Q1019;EQDQ01+000000PRSWM2
0142619840999992000102509004-21320+055480FM-15+0053FMEP V0202501N004112200019N0112651N1+02801+01901999999ADDGA1021+003909029GF102991999999999999999999MA1101901999999MW1001REMMET048FMEP 250900Z 25008KT 9999 FEW013TCU 28/19 Q1019;EQDQ01+000000PRSWM2
0162619840999992000102510004-21320+055480FM-15+0053FMEP V0202501N003612200019N0112651N1+02701+01901999999ADDGA1021+003909999GA2021+030009999GF104991999999999999999999MA1101901999999MW1001REMMET052FMEP 251000Z 25007KT 9999 FEW013 SCT100 27/19 Q1019;EQDQ01+000000PRSWM2
0162619840999992000102511004-21320+055480FM-15+0053FMEP V0202401N003612200019N0112651N1+02701+01901999999ADDGA1021+003309999GA2021+030009999GF104991999999999999999999MA1101801999999MW1001REMMET052FMEP 251100Z 24007KT 9999 FEW011 SCT100 27/19 Q1018;EQDQ01+000000PRSWM2
0167619840999992000102513004-21320+055480FM-15+0053FMEP V0202601N002610210019N0112651N1+02501+01901999999ADDGA1021+004809029GA2021+012009999GA3071+021009999GF107991999999999999999999MW1001REMMET056FMEP 251300Z 26005KT 9999 FEW016TCU SCT040 BKN070 25/19;EQDQ01+000000PRSWM2
0139619840999992000102603004-21320+055480FM-15+0053FMEP V0200701N001512200019N0112651N1+02301+01601999999ADDGA1021+009009999GF102991999999999999999999MA1102001999999MW1001REMMET045FMEP 260300Z 07003KT 9999 FEW030 23/16 Q1020;EQDQ01+000000PRSWM2
0147619840999992000102604004-21320+055480FM-15+0053FMEP V0201201N002612200019N0112651N1+02501+01801999999ADDGA1021+009009999GF102991999999999999999999MA1102001999999MW1001REMMET053FMEP 260400Z 12005KT 070V180 9999 FEW030 25/18 Q1020;EQDQ01+000000PRSWM2
0147619840999992000102605004-21320+055480FM-15+0053FMEP V0201201N006212200019N0112651N1+02701+01901999999ADDGA1021+009009999GF102991999999999999999999MA1102001999999MW1001REMMET053FMEP 260500Z 12012KT 060V170 9999 FEW030 27/19 Q1020;EQDQ01+000000PRSWM2
0147619840999992000102606004-21320+055480FM-15+0053FMEP V0201401N006712200019N0112651N1+02701+01801999999ADDGA1021+007509999GF102991999999999999999999MA1102001999999MW1001REMMET053FMEP 260600Z 14013KT 110V180 9999 FEW025 27/18 Q1020;EQDQ01+000000PRSWM2
0139619840999992000102607004-21320+055480FM-15+0053FMEP V0201501N005712200019N0112651N1+02801+01801999999ADDGA1021+007509999GF102991999999999999999999MA1102001999999MW1001REMMET045FMEP 260700Z 15011KT 9999 FEW025 28/18 Q1020;EQDQ01+000000PRSWM2
0147619840999992000102608004-21320+055480FM-15+0053FMEP V0201401N007212200019N0112651N1+02801+01801999999ADDGA1021+007509999GF102991999999999999999999MA1101901999999MW1001REMMET053FMEP 260800Z 14014KT 110V180 9999 FEW025 28/18 Q1019;EQDQ01+000000PRSWM2
0150619840999992000102609004-21320+055480FM-15+0053FMEP V0201401N009312200019N0112651N1+02701+01801999999ADDGA1021+007509029GF102991999999999999999999MA1101901999999MW1001REMMET056FMEP 260900Z 14018KT 110V190 9999 FEW025TCU 27/18 Q1019;EQDQ01+000000PRSWM2
0142619840999992000102610004-21320+055480FM-15+0053FMEP V0201401N009812200019N0112651N1+02701+01901999999ADDGA1021+007509029GF102991999999999999999999MA1101801999999MW1001REMMET048FMEP 261000Z 14019KT 9999 FEW025TCU 27/19 Q1018;EQDQ01+000000PRSWM2
0139619840999992000102611004-21320+055480FM-15+0053FMEP V0201401N010812200019N0112651N1+02601+01801999999ADDGA1021+007509999GF102991999999999999999999MA1101801999999MW1001REMMET045FMEP 261100Z 14021KT 9999 FEW025 26/18 Q1018;EQDQ01+000000PRSWM2
0139619840999992000102612004-21320+055480FM-15+0053FMEP V0201401N012312200019N0112651N1+02501+01801999999ADDGA1021+007509999GF102991999999999999999999MA1101691999999MW1001REMMET045FMEP 261200Z 14024KT 9999 FEW025 25/18 Q1017;EQDQ01+000000PRSWM2
0139619840999992000102613004-21320+055480FM-15+0053FMEP V0201401N012312200019N0112651N1+02501+01801999999ADDGA1021+007509999GF102991999999999999999999MA1101801999999MW1001REMMET045FMEP 261300Z 14024KT 9999 FEW025 25/18 Q1018;EQDQ01+000000PRSWM2
0139619840999992000102614004-21320+055480FM-15+0053FMEP V0201401N011312200019N0112651N1+02301+01801999999ADDGA1021+009009999GF102991999999999999999999MA1101901999999MW1001REMMET045FMEP 261400Z 14022KT 9999 FEW030 23/18 Q1019;EQDQ01+000000PRSWM2
0139619840999992000102615004-21320+055480FM-15+0053FMEP V0201301N009812200019N0112651N1+02301+01801999999ADDGA1021+009009999GF102991999999999999999999MA1102001999999MW1001REMMET045FMEP 261500Z 13019KT 9999 FEW030 23/18 Q1020;EQDQ01+000000PRSWM2
0088619840999992000102703004-21320+055480FM-15+0053FMEP V0201201N003112200019N0990001N1+99999+99999999999ADDMW1001REMMET051FMEP 270300Z 12006KT 999 SCT018 BKN080 23/18 Q1019;EQDQ01+000000PRSWM2
0165619840999992000102704004-21320+055480FM-15+0053FMEP V0201401N004610240019N0112651N1+02401+01801999999ADDGA1021+004809029GA2071+024009999GF107991999999999999999999MA1102001999999MW1001REMMET055FMEP 270400Z 14009KT 9999 SCT016TCU BKN080 24/18 Q1020;EQDQ01+000000PRSWM2
0165619840999992000102705004-21320+055480FM-15+0053FMEP V0201501N006712200019N0112651N1+02601+01801999999ADDGA1021+006909029GA2021+024009999GF104991999999999999999999MA1102001999999MW1001REMMET055FMEP 270500Z 15013KT 9999 FEW023TCU SCT083 26/18 Q1020;EQDQ01+000000PRSWM2
0142619840999992000102706004-21320+055480FM-15+0053FMEP V0201501N005712200019N0112651N1+02601+01801999999ADDGA1021+006909029GF102991999999999999999999MA1102001999999MW1001REMMET048FMEP 270600Z 15011KT 9999 FEW023TCU 26/18 Q1020;EQDQ01+000000PRSWM2
0165619840999992000102707004-21320+055480FM-15+0053FMEP V0201601N006712200019N0112651N1+02701+01901999999ADDGA1021+006909029GA2021+027009999GF104991999999999999999999MA1101901999999MW1001REMMET055FMEP 270700Z 16013KT 9999 FEW023TCU SCT093 27/19 Q1019;EQDQ01+000000PRSWM2
0162619840999992000102708004-21320+055480FM-15+0053FMEP V0201501N007712200019N0112651N1+02701+01901999999ADDGA1021+006009999GA2021+027009999GF104991999999999999999999MA1101801999999MW1001REMMET052FMEP 270800Z 15015KT 9999 FEW020 SCT093 27/19 Q1018;EQDQ01+000000PRSWM2
0139619840999992000102709004-21320+055480FM-15+0053FMEP V0201401N009312200019N0112651N1+02601+01901999999ADDGA1021+003309999GF104991999999999999999999MA1101801999999MW1001REMMET045FMEP 270900Z 14018KT 9999 SCT011 26/19 Q1018;EQDQ01+000000PRSWM2
0139619840999992000102710004-21320+055480FM-15+0053FMEP V0201501N008712200019N0112651N1+02601+01901999999ADDGA1021+003309999GF104991999999999999999999MA1101691999999MW1001REMMET045FMEP 271000Z 15017KT 9999 SCT011 26/19 Q1017;EQDQ01+000000PRSWM2
0139619840999992000102711004-21320+055480FM-15+0053FMEP V0201501N009312200019N0112651N1+02601+01801999999ADDGA1021+003909999GF104991999999999999999999MA1101691999999MW1001REMMET045FMEP 271100Z 15018KT 9999 SCT013 26/18 Q1017;EQDQ01+000000PRSWM2
0139619840999992000102712004-21320+055480FM-15+0053FMEP V0201501N008712200019N0112651N1+02501+01901999999ADDGA1021+004509999GF102991999999999999999999MA1101691999999MW1001REMMET045FMEP 271200Z 15017KT 9999 FEW015 25/19 Q1017;EQDQ01+000000PRSWM2
0162619840999992000102713004-21320+055480FM-15+0053FMEP V0201301N007712200019N0112651N1+02401+01801999999ADDGA1021+003909999GA2021+021009999GF104991999999999999999999MA1101691999999MW1001REMMET052FMEP 271300Z 13015KT 9999 FEW013 SCT073 24/18 Q1017;EQDQ01+000000PRSWM2
0185619840999992000102714004-21320+055480FM-15+0053FMEP V0201301N008210300019N0112651N1+02301+01801999999ADDGA1021+008409999GA2021+021009999GA3071+030009999GF107991999999999999999999MA1101801999999MW1001REMMET059FMEP 271400Z 13016KT 9999 FEW028 SCT070 BKN100 23/18 Q1018;EQDQ01+000000PRSWM2
0162619840999992000102715004-21320+055480FM-15+0053FMEP V0201301N007212200019N0112651N1+02301+01701999999ADDGA1021+009009999GA2021+030009999GF104991999999999999999999MA1101801999999MW1001REMMET052FMEP 271500Z 13014KT 9999 FEW030 SCT100 23/17 Q1018;EQDQ01+000000PRSWM2
0162619840999992000102803004-21320+055480FM-15+0053FMEP V0200201N001512200019N0112651N1+02201+01501999999ADDGA1021+009009999GA2021+024009999GF104991999999999999999999MA1101801999999MW1001REMMET052FMEP 280300Z 02003KT 9999 FEW030 SCT083 22/15 Q1018;EQDQ01+000000PRSWM2
0162619840999992000102804004-21320+055480FM-15+0053FMEP V0202301N001012200019N0112651N1+02401+01601999999ADDGA1021+009009999GA2021+024009999GF104991999999999999999999MA1101801999999MW1001REMMET052FMEP 280400Z 23002KT 9999 FEW030 SCT083 24/16 Q1018;EQDQ01+000000PRSWM2
0170619840999992000102805004-21320+055480FM-15+0053FMEP V0202001N002612200019N0112651N1+02601+01601999999ADDGA1021+009009999GA2021+024009999GF104991999999999999999999MA1101801999999MW1001REMMET060FMEP 280500Z 20005KT 160V260 9999 FEW030 SCT083 26/16 Q1018;EQDQ01+000000PRSWM2
0170619840999992000102806004-21320+055480FM-15+0053FMEP V0202001N002112200019N0112651N1+02501+01701999999ADDGA1021+007509999GA2021+018009999GF104991999999999999999999MA1101801999999MW1001REMMET060FMEP 280600Z 20004KT 130V300 9999 FEW025 SCT060 25/17 Q1018;EQDQ01+000000PRSWM2
0170619840999992000102807004-21320+055480FM-15+0053FMEP V0202601N003612200019N0112651N1+02601+01801999999ADDGA1021+007509999GA2021+015009999GF104991999999999999999999MA1101691999999MW1001REMMET060FMEP 280700Z 26007KT 230V310 9999 FEW025 SCT050 26/18 Q1017;EQDQ01+000000PRSWM2
0162619840999992000102808004-21320+055480FM-15+0053FMEP V0202501N003610180019N0112651N1+02601+01701999999ADDGA1021+007509999GA2071+018009999GF107991999999999999999999MA1101691999999MW1001REMMET052FMEP 280800Z 25007KT 9999 FEW025 BKN066 26/17 Q1017;EQDQ01+000000PRSWM2
0162619840999992000102810004-21320+055480FM-15+0053FMEP V0202501N002610180019N0112651N1+02501+01701999999ADDGA1021+008409999GA2071+018009999GF107991999999999999999999MA1101591999999MW1001REMMET052FMEP 281000Z 25005KT 9999 FEW028 BKN066 25/17 Q1016;EQDQ01+000000PRSWM2
0162619840999992000102811004-21320+055480FM-15+0053FMEP V0202601N002110180019N0112651N1+02501+01701999999ADDGA1021+008409999GA2071+018009999GF107991999999999999999999MA1101591999999MW1001REMMET052FMEP 281100Z 26004KT 9999 FEW028 BKN066 25/17 Q1016;EQDQ01+000000PRSWM2
0162619840999992000102812004-21320+055480FM-15+0053FMEP V0202601N002610180019N0112651N1+02501+01601999999ADDGA1021+007509999GA2071+018009999GF107991999999999999999999MA1101491999999MW1001REMMET052FMEP 281200Z 26005KT 9999 FEW025 BKN066 25/16 Q1015;EQDQ01+000000PRSWM2
0146619840999992000102813004-21320+055480FM-15+0053FMEP V0202301N001510180019N0112651N1+99999+99999999999ADDGA1021+007509999GA2071+018009999GF107991999999999999999999MW1001REMMET051FMEP 281300Z 23003KT 9999 FEW025 BKN066 2516 Q1015;EQDQ01+000000PRSWM2
0162619840999992000102814004-21320+055480FM-15+0053FMEP V0202001N002110180019N0112651N1+02501+01601999999ADDGA1021+008409999GA2071+018009999GF107991999999999999999999MA1101491999999MW1001REMMET052FMEP 281400Z 20004KT 9999 FEW028 BKN066 25/16 Q1015;EQDQ01+000000PRSWM2
0162619840999992000102815004-21320+055480FM-15+0053FMEP V0202001N002610180019N0112651N1+02401+01601999999ADDGA1021+008409999GA2071+018009999GF107991999999999999999999MA1101591999999MW1001REMMET052FMEP 281500Z 20005KT 9999 FEW028 BKN066 24/16 Q1016;EQDQ01+000000PRSWM2
0156619840999992000102903004-21320+055480FM-15+0053FMEP V0200201N001512200019N0112651N1+99999+99999999999ADDGA1021+012009999GA2021+090009999GF104991999999999999999999MA1101691999999MW1001REMMET046FMEP 290300Z 02003KT 9999 FEW040 SCT300 Q1017;EQDQ01+000000PRSWM2
0162619840999992000102904004-21320+055480FM-15+0053FMEP V0203501N001510900019N0112651N1+02501+01301999999ADDGA1021+012009999GA2071+090009999GF107991999999999999999999MA1101691999999MW1001REMMET052FMEP 290400Z 35003KT 9999 FEW040 BKN300 25/13 Q1017;EQDQ01+000000PRSWM2
0162619840999992000102906004-21320+055480FM-15+0053FMEP V0202601N005110900019N0112651N1+02601+01801999999ADDGA1021+010509999GA2071+090009999GF107991999999999999999999MA1101591999999MW1001REMMET052FMEP 290600Z 26010KT 9999 FEW035 BKN330 26/18 Q1016;EQDQ01+000000PRSWM2
0162619840999992000102907004-21320+055480FM-15+0053FMEP V0202601N005110900019N0112651N1+02701+01701999999ADDGA1021+010809999GA2071+090009999GF107991999999999999999999MA1101591999999MW1001REMMET052FMEP 290700Z 26010KT 9999 FEW036 BKN330 27/17 Q1016;EQDQ01+000000PRSWM2
0162619840999992000102908004-21320+055480FM-15+0053FMEP V0202701N005112200019N0112651N1+02801+01801999999ADDGA1021+012309999GA2021+090009999GF104991999999999999999999MA1101591999999MW1001REMMET052FMEP 290800Z 27010KT 9999 FEW041 SCT330 28/18 Q1016;EQDQ01+000000PRSWM2
0162619840999992000102909004-21320+055480FM-15+0053FMEP V0202301N004112200019N0112651N1+02701+01701999999ADDGA1021+010809999GA2021+045009999GF104991999999999999999999MA1101491999999MW1001REMMET052FMEP 290900Z 23008KT 9999 FEW036 SCT150 27/17 Q1015;EQDQ01+000000PRSWM2
0185619840999992000102910004-21320+055480FM-15+0053FMEP V0202101N004110900019N0112651N1+02701+01701999999ADDGA1021+010809999GA2021+048009999GA3071+090009999GF107991999999999999999999MA1101491999999MW1001REMMET059FMEP 291000Z 21008KT 9999 FEW036 SCT160 BKN300 27/17 Q1015;EQDQ01+000000PRSWM2
0185619840999992000102911004-21320+055480FM-15+0053FMEP V0201601N004610900019N0112651N1+02701+01901999999ADDGA1021+009309999GA2021+048009999GA3071+090009999GF107991999999999999999999MA1101491999999MW1001REMMET059FMEP 291100Z 16009KT 9999 FEW031 SCT160 BKN300 27/19 Q1015;EQDQ01+000000PRSWM2
0162619840999992000102912004-21320+055480FM-15+0053FMEP V0201401N004110480019N0112651N1+02501+01901999999ADDGA1021+009309999GA2071+048009999GF107991999999999999999999MA1101491999999MW1001REMMET052FMEP 291200Z 14008KT 9999 FEW031 BKN160 25/19 Q1015;EQDQ01+000000PRSWM2
0185619840999992000102914004-21320+055480FM-15+0053FMEP V0202801N000510900019N0112651N1+02501+01601999999ADDGA1021+009909999GA2021+039009999GA3071+090009999GF107991999999999999999999MA1101491999999MW1001REMMET059FMEP 291400Z 28001KT 9999 FEW033 SCT130 BKN300 25/16 Q1015;EQDQ01+000000PRSWM2
0139619840999992000103003004-21320+055480FM-15+0053FMEP V0200301N002612200019N0112651N1+02301+01501999999ADDGA1021+009009999GF102991999999999999999999MA1101691999999MW1001REMMET045FMEP 300300Z 03005KT 9999 FEW030 23/15 Q1017;EQDQ01+000000PRSWM2
0139619840999992000103004004-21320+055480FM-15+0053FMEP V02099999999992200019N0112651N1+02601+01701999999ADDGA1021+009009999GF102991999999999999999999MA1101691999999MW1001REMMET045FMEP 300400Z VRB03KT 9999 FEW030 26/17 Q1017;EQDQ01+000000PRSWM2
0139619840999992000103007004-21320+055480FM-15+0053FMEP V0202201N003112200019N0112651N1+02701+01801999999ADDGA1021+009009999GF102991999999999999999999MA1101691999999MW1001REMMET045FMEP 300700Z 22006KT 9999 FEW030 27/18 Q1017;EQDQ01+000000PRSWM2
0139619840999992000103008004-21320+055480FM-15+0053FMEP V0202101N003612200019N0112651N1+02701+01901999999ADDGA1021+009009999GF102991999999999999999999MA1101691999999MW1001REMMET045FMEP 300800Z 21007KT 9999 FEW030 27/19 Q1017;EQDQ01+000000PRSWM2
0147619840999992000103009004-21320+055480FM-15+0053FMEP V0202001N003112200019N0112651N1+02701+01901999999ADDGA1021+007509999GF102991999999999999999999MA1101691999999MW1001REMMET053FMEP 300900Z 20006KT 160V230 9999 FEW025 27/19 Q1017;EQDQ01+000000PRSWM2
0147619840999992000103011004-21320+055480FM-15+0053FMEP V0202401N003112200019N0112651N1+02801+01801999999ADDGA1021+007509999GF102991999999999999999999MA1101591999999MW1001REMMET053FMEP 301100Z 24006KT 200V270 9999 FEW025 28/18 Q1016;EQDQ01+000000PRSWM2
0139619840999992000103012004-21320+055480FM-15+0053FMEP V0202701N004112200019N0112651N1+02801+01801999999ADDGA1021+007509999GF102991999999999999999999MA1101591999999MW1001REMMET045FMEP 301200Z 27008KT 9999 FEW025 28/18 Q1016;EQDQ01+000000PRSWM2
0139619840999992000103013004-21320+055480FM-15+0053FMEP V0202701N004112200019N0112651N1+02701+01801999999ADDGA1021+007509999GF102991999999999999999999MA1101591999999MW1001REMMET045FMEP 301300Z 27008KT 9999 FEW025 27/18 Q1016;EQDQ01+000000PRSWM2
0139619840999992000103103004-21320+055480FM-15+0053FMEP V0200601N002612200019N0112651N1+02401+01501999999ADDGA1021+004809999GF102991999999999999999999MA1101901999999MW1001REMMET045FMEP 310300Z 06005KT 9999 FEW016 24/15 Q1019;EQDQ01+000000PRSWM2
0147619840999992000103104004-21320+055480FM-15+0053FMEP V0201601N002612200019N0112651N1+02601+01701999999ADDGA1021+006009999GF102991999999999999999999MA1101901999999MW1001REMMET053FMEP 310400Z 16005KT 130V200 9999 FEW020 26/17 Q1019;EQDQ01+000000PRSWM2
0147619840999992000103105004-21320+055480FM-15+0053FMEP V0201801N002612200019N0112651N1+02601+01801999999ADDGA1021+007509999GF102991999999999999999999MA1102001999999MW1001REMMET053FMEP 310500Z 18005KT 140V210 9999 FEW025 26/18 Q1020;EQDQ01+000000PRSWM2
0162619840999992000103107004-21320+055480FM-15+0053FMEP V0202101N003612200019N0112651N1+02701+01901999999ADDGA1021+007509999GA2021+033009999GF104991999999999999999999MA1101901999999MW1001REMMET052FMEP 310700Z 21007KT 9999 FEW025 SCT110 27/19 Q1019;EQDQ01+000000PRSWM2
0162619840999992000103108004-21320+055480FM-15+0053FMEP V0202201N004612200019N0112651N1+02701+01901999999ADDGA1021+006309999GA2021+033009999GF104991999999999999999999MA1101901999999MW1001REMMET052FMEP 310800Z 22009KT 9999 FEW021 SCT110 27/19 Q1019;EQDQ01+000000PRSWM2
0162619840999992000103109004-21320+055480FM-15+0053FMEP V0202401N004610330019N0112651N1+02701+02001999999ADDGA1021+006309999GA2071+033009999GF107991999999999999999999MA1101801999999MW1001REMMET052FMEP 310900Z 24009KT 9999 FEW021 BKN110 27/20 Q1018;EQDQ01+000000PRSWM2
0162619840999992000103110004-21320+055480FM-15+0053FMEP V0202601N004612200019N0112651N1+02801+01901999999ADDGA1021+006309999GA2021+033009999GF104991999999999999999999MA1101801999999MW1001REMMET052FMEP 311000Z 26009KT 9999 FEW021 SCT110 28/19 Q1018;EQDQ01+000000PRSWM2
0162619840999992000103111004-21320+055480FM-15+0053FMEP V0202901N004610240019N0112651N1+02601+01901999999ADDGA1021+006309999GA2071+024009999GF107991999999999999999999MA1101691999999MW1001REMMET052FMEP 311100Z 29009KT 9999 FEW021 BKN083 26/19 Q1017;EQDQ01+000000PRSWM2
0162619840999992000103112004-21320+055480FM-15+0053FMEP V0202901N004110300019N0112651N1+02601+01901999999ADDGA1021+009309999GA2071+030009999GF107991999999999999999999MA1101691999999MW1001REMMET052FMEP 311200Z 29008KT 9999 FEW031 BKN100 26/19 Q1017;EQDQ01+000000PRSWM2
0162619840999992000103113004-21320+055480FM-15+0053FMEP V0202701N003612200019N0112651N1+02601+01901999999ADDGA1021+009309999GA2021+039009999GF104991999999999999999999MA1101691999999MW1001REMMET052FMEP 311300Z 27007KT 9999 FEW031 SCT130 26/19 Q1017;EQDQ01+000000PRSWM2
0162619840999992000103114004-21320+055480FM-15+0053FMEP V0202501N002612200019N0112651N1+02501+01901999999ADDGA1021+006909999GA2021+045009999GF104991999999999999999999MA1101801999999MW1001REMMET052FMEP 311400Z 25005KT 9999 FEW023 SCT150 25/19 Q1018;EQDQ01+000000PRSWM2
0162619840999992000103115004-21320+055480FM-15+0053FMEP V0202301N002612200019N0112651N1+02401+01901999999ADDGA1021+005409999GA2021+030009999GF104991999999999999999999MA1101801999999MW1001REMMET052FMEP 311500Z 23005KT 9999 FEW018 SCT100 24/19 Q1018;EQDQ01+000000PRSWM2
0147619840999992000110103004-21320+055480FM-15+0053FMEP V0201201N003112200019N0112651N1+02401+01201999999ADDGA1021+009009999GF102991999999999999999999MA1101801999999MW1001REMMET053FMEP 010300Z 12006KT 070V190 9999 FEW030 24/12 Q1018;EQDQ01+000000PRSWM2
0139619840999992000110104004-21320+055480FM-15+0053FMEP V0201301N009812200019N0112651N1+02501+01701999999ADDGA1021+009009999GF102991999999999999999999MA1101801999999MW1001REMMET045FMEP 010400Z 13019KT 9999 FEW030 25/17 Q1018;EQDQ01+000000PRSWM2
0139619840999992000110105004-21320+055480FM-15+0053FMEP V0201301N009312200019N0112651N1+02701+01501999999ADDGA1021+009009999GF102991999999999999999999MA1101801999999MW1001REMMET045FMEP 010500Z 13018KT 9999 FEW030 27/15 Q1018;EQDQ01+000000PRSWM2
0139619840999992000110106004-21320+055480FM-15+0053FMEP V0201401N010812200019N0112651N1+02601+01701999999ADDGA1021+009009999GF102991999999999999999999MA1101801999999MW1001REMMET045FMEP 010600Z 14021KT 9999 FEW030 26/17 Q1018;EQDQ01+000000PRSWM2
0147619840999992000110107004-21320+055480FM-15+0053FMEP V02099999999992200019N0112651N1+02701+01501999999ADDGA1021+009009999GF102991999999999999999999MA1101691999999MW1001REMMET053FMEP 010700Z VRB10KT 010V360 9999 FEW030 27/15 Q1017;EQDQ01+000000PRSWM2
0139619840999992000110108004-21320+055480FM-15+0053FMEP V0201401N009812200019N0112651N1+02701+01701999999ADDGA1021+009009999GF102991999999999999999999MA1101691999999MW1001REMMET045FMEP 010800Z 14019KT 9999 FEW030 27/17 Q1017;EQDQ01+000000PRSWM2
0170619840999992000110109004-21320+055480FM-15+0053FMEP V0201901N003612200019N0112651N1+02801+01401999999ADDGA1021+007509999GA2021+024009999GF104991999999999999999999MA1101691999999MW1001REMMET060FMEP 010900Z 19007KT 120V240 9999 FEW025 SCT083 28/14 Q1017;EQDQ01+000000PRSWM2
0170619840999992000110110004-21320+055480FM-15+0053FMEP V0202401N003112200019N0112651N1+02601+01501999999ADDGA1021+007509999GA2021+024009999GF104991999999999999999999MA1101591999999MW1001REMMET060FMEP 011000Z 24006KT 180V280 9999 FEW025 SCT083 26/15 Q1016;EQDQ01+000000PRSWM2
0162619840999992000110111004-21320+055480FM-15+0053FMEP V0203001N003112200019N0112651N1+02701+01401999999ADDGA1021+009009999GA2021+024009999GF104991999999999999999999MA1101591999999MW1001REMMET052FMEP 011100Z 30006KT 9999 FEW030 SCT083 27/14 Q1016;EQDQ01+000000PRSWM2
0162619840999992000110112004-21320+055480FM-15+0053FMEP V0202601N002112200019N0112651N1+02601+01401999999ADDGA1021+009009999GA2021+024009999GF104991999999999999999999MA1101591999999MW1001REMMET052FMEP 011200Z 26004KT 9999 FEW030 SCT083 26/14 Q1016;EQDQ01+000000PRSWM2
0162619840999992000110113004-21320+055480FM-15+0053FMEP V0201301N005712200019N0112651N1+02501+01701999999ADDGA1021+009009999GA2021+024009999GF104991999999999999999999MA1101591999999MW1001REMMET052FMEP 011300Z 13011KT 9999 FEW030 SCT083 25/17 Q1016;EQDQ01+000000PRSWM2
0162619840999992000110203004-21320+055480FM-15+0053FMEP V0203601N002610420019N0112651N1+02301+01401999999ADDGA1021+012909999GA2071+042009999GF107991999999999999999999MA1101591999999MW1001REMMET052FMEP 020300Z 36005KT 9999 FEW043 BKN140 23/14 Q1016;EQDQ01+000000PRSWM2
0162619840999992000110204004-21320+055480FM-15+0053FMEP V0201401N005112200019N0112651N1+02501+01601999999ADDGA1021+012909999GA2021+042009999GF104991999999999999999999MA1101591999999MW1001REMMET052FMEP 020400Z 14010KT 9999 FEW043 SCT140 25/16 Q1016;EQDQ01+000000PRSWM2
0162619840999992000110205004-21320+055480FM-15+0053FMEP V0201501N001512200019N0112651N1+02501+01601999999ADDGA1021+010509999GA2021+042009999GF104991999999999999999999MA1101591999999MW1001REMMET052FMEP 020500Z 15003KT 9999 FEW035 SCT140 25/16 Q1016;EQDQ01+000000PRSWM2
0170619840999992000110206004-21320+055480FM-15+0053FMEP V0201501N004610390019N0112651N1+02601+01601999999ADDGA1021+010509999GA2071+039009999GF107991999999999999999999MA1101591999999MW1001REMMET060FMEP 020600Z 15009KT 120V190 9999 FEW035 BKN130 26/16 Q1016;EQDQ01+000000PRSWM2
0162619840999992000110207004-21320+055480FM-15+0053FMEP V0201401N006210390019N0112651N1+02701+01601999999ADDGA1021+010509999GA2071+039009999GF107991999999999999999999MA1101491999999MW1001REMMET052FMEP 020700Z 14012KT 9999 FEW035 BKN130 27/16 Q1015;EQDQ01+000000PRSWM2
0170619840999992000110208004-21320+055480FM-15+0053FMEP V0202101N002610360019N0112651N1+02701+01401999999ADDGA1021+009309999GA2071+036009999GF107991999999999999999999MA1101491999999MW1001REMMET060FMEP 020800Z 21005KT 120V280 9999 FEW031 BKN120 27/14 Q1015;EQDQ01+000000PRSWM2
0170619840999992000110209004-21320+055480FM-15+0053FMEP V0202101N003610390019N0112651N1+02701+01501999999ADDGA1021+008409999GA2071+039009999GF107991999999999999999999MA1101491999999MW1001REMMET060FMEP 020900Z 21007KT 130V270 9999 FEW028 BKN130 27/15 Q1015;EQDQ01+000000PRSWM2
0162619840999992000110210004-21320+055480FM-15+0053FMEP V0201401N005710390019N0112651N1+02701+01601999999ADDGA1021+010509999GA2071+039009999GF107991999999999999999999MA1101391999999MW1001REMMET052FMEP 021000Z 14011KT 9999 FEW035 BKN130 27/16 Q1014;EQDQ01+000000PRSWM2
0162619840999992000110211004-21320+055480FM-15+0053FMEP V0201301N008210330019N0112651N1+02601+01601999999ADDGA1021+010509999GA2071+033009999GF107991999999999999999999MA1101291999999MW1001REMMET052FMEP 021100Z 13016KT 9999 FEW035 BKN110 26/16 Q1013;EQDQ01+000000PRSWM2
0162619840999992000110212004-21320+055480FM-15+0053FMEP V0201401N008210360019N0112651N1+02601+01601999999ADDGA1021+010509999GA2071+036009999GF107991999999999999999999MA1101291999999MW1001REMMET052FMEP 021200Z 14016KT 9999 FEW035 BKN120 26/16 Q1013;EQDQ01+000000PRSWM2
0185619840999992000110213004-21320+055480FM-15+0053FMEP V0201301N007210360019N0112651N1+02501+01601999999ADDGA1021+010509999GA2021+015009999GA3071+036009999GF107991999999999999999999MA1101391999999MW1001REMMET059FMEP 021300Z 13014KT 9999 FEW035 SCT053 BKN120 25/16 Q1014;EQDQ01+000000PRSWM2
0139619840999992000110303004-21320+055480FM-15+0053FMEP V0200301N002112200019N0112651N1+02301+01201999999ADDGA1021+024009999GF102991999999999999999999MA1101491999999MW1001REMMET045FMEP 030300Z 03004KT 9999 FEW083 23/12 Q1015;EQDQ01+000000PRSWM2
0139619840999992000110304004-21320+055480FM-15+0053FMEP V0203301N001512200019N0112651N1+02501+01401999999ADDGA1021+015009999GF102991999999999999999999MA1101591999999MW1001REMMET045FMEP 030400Z 33003KT 9999 FEW050 25/14 Q1016;EQDQ01+000000PRSWM2
0138619840999992000110305004-21320+055480FM-15+0053FMEP V0202401N003112200019N0112651N1+02601+01701999999ADDGA1021+015009999GF102991999999999999999999MA1101591999999MW1001REMMET044FMEP 030500Z24006KT 9999 FEW050 26/17 Q1016;EQDQ01+000000PRSWM2
0142619840999992000110306004-21320+055480FM-15+0053FMEP V0202501N003112200019N0112651N1+02601+01701999999ADDGA1021+015009029GF102991999999999999999999MA1101591999999MW1001REMMET048FMEP 030600Z 25006KT 9999 FEW050TCU 26/17 Q1016;EQDQ01+000000PRSWM2
0150619840999992000110307004-21320+055480FM-15+0053FMEP V0202301N003112200019N0112651N1+02601+01701999999ADDGA1021+009009029GF102991999999999999999999MA1101591999999MW1001REMMET056FMEP 030700Z 23006KT 180V260 9999 FEW030TCU 26/17 Q1016;EQDQ01+000000PRSWM2
0165619840999992000110308004-21320+055480FM-15+0053FMEP V0202201N003612200019N0112651N1+02701+01701999999ADDGA1021+007509029GA2021+018009999GF104991999999999999999999MA1101591999999MW1001REMMET055FMEP 030800Z 22007KT 9999 FEW025TCU SCT066 27/17 Q1016;EQDQ01+000000PRSWM2
0165619840999992000110309004-21320+055480FM-15+0053FMEP V0202101N002612200019N0112651N1+02601+01701999999ADDGA1021+007509029GA2021+018009999GF104991999999999999999999MA1101491999999MW1001REMMET055FMEP 030900Z 21005KT 9999 FEW025TCU SCT066 26/17 Q1015;EQDQ01+000000PRSWM2
0174619840999992000110310004-21320+055480FM-15+0053FMEP V0202301N002610180019N0112651N1+02601+01701999999ADDGA1021+007509029GA2071+018009999GF107991999999999999999999MW1001REMMET079FMEP 031000Z 23005KT 180V280 9999 FEW025TCU BKN066 26/17 9999 FEW025TCU BKN066;EQDQ01+000000PRSWM2
0174619840999992000110311004-21320+055480FM-15+0053FMEP V0202001N002110180019N0112651N1+02501+01701999999ADDGA1021+007509029GA2071+018009999GF107991999999999999999999MW1001REMMET079FMEP 031100Z 20004KT 170V240 9999 FEW025TCU BKN066 25/17 9999 FEW025TCU BKN066;EQDQ01+000000PRSWM2
0165619840999992000110312004-21320+055480FM-15+0053FMEP V0201401N005112200019N0112651N1+02601+01801999999ADDGA1021+007509029GA2021+018009999GF104991999999999999999999MA1101491999999MW1001REMMET055FMEP 031200Z 14010KT 9999 FEW025TCU SCT066 26/18 Q1015;EQDQ01+000000PRSWM2
0165619840999992000110313004-21320+055480FM-15+0053FMEP V0201401N006212200019N0112651N1+02501+01801999999ADDGA1021+007509029GA2021+018009999GF104991999999999999999999MA1101491999999MW1001REMMET055FMEP 031300Z 14012KT 9999 FEW025TCU SCT066 25/18 Q1015;EQDQ01+000000PRSWM2
0147619840999992000110403004-21320+055480FM-15+0053FMEP V02099999999992200019N0112651N1+02301+01601999999ADDGA1021+012909999GF102991999999999999999999MA1101801999999MW1001REMMET053FMEP 040300Z VRB05KT 320V160 9999 FEW043 23/16 Q1018;EQDQ01+000000PRSWM2
0147619840999992000110404004-21320+055480FM-15+0053FMEP V0201101N005112200019N0112651N1+02501+01201999999ADDGA1021+012909999GF102991999999999999999999MA1101801999999MW1001REMMET053FMEP 040400Z 11010KT 070V140 9999 FEW043 25/12 Q1018;EQDQ01+000000PRSWM2
0139619840999992000110405004-21320+055480FM-15+0053FMEP V0201301N009812200019N0112651N1+02601+01701999999ADDGA1021+010809999GF102991999999999999999999MA1101901999999MW1001REMMET045FMEP 040500Z 13019KT 9999 FEW036 26/17 Q1019;EQDQ01+000000PRSWM2
0139619840999992000110406004-21320+055480FM-15+0053FMEP V0201301N010812200019N0112651N1+02601+01701999999ADDGA1021+010809999GF102991999999999999999999MA1101901999999MW1001REMMET045FMEP 040600Z 13021KT 9999 FEW036 26/17 Q1019;EQDQ01+000000PRSWM2
0139619840999992000110407004-21320+055480FM-15+0053FMEP V0201301N010312200019N0112651N1+02701+01701999999ADDGA1021+010809999GF102991999999999999999999MA1101901999999MW1001REMMET045FMEP 040700Z 13020KT 9999 FEW036 27/17 Q1019;EQDQ01+000000PRSWM2
0139619840999992000110408004-21320+055480FM-15+0053FMEP V0201401N010812200019N0112651N1+02701+01701999999ADDGA1021+010809999GF102991999999999999999999MA1101801999999MW1001REMMET045FMEP 040800Z 14021KT 9999 FEW036 27/17 Q1018;EQDQ01+000000PRSWM2
0162619840999992000110409004-21320+055480FM-15+0053FMEP V0201401N011812200019N0112651N1+02701+01801999999ADDGA1021+009909999GA2021+033009999GF104991999999999999999999MA1101801999999MW1001REMMET052FMEP 040900Z 14023KT 9999 FEW033 SCT110 27/18 Q1018;EQDQ01+000000PRSWM2
0162619840999992000110410004-21320+055480FM-15+0053FMEP V0201301N012312200019N0112651N1+02701+01701999999ADDGA1021+009909999GA2021+036009999GF104991999999999999999999MA1101691999999MW1001REMMET052FMEP 041000Z 13024KT 9999 FEW033 SCT120 27/17 Q1017;EQDQ01+000000PRSWM2
0139619840999992000110411004-21320+055480FM-15+0053FMEP V0201301N011812200019N0112651N1+02701+01801999999ADDGA1021+012009999GF102991999999999999999999MA1101691999999MW1001REMMET045FMEP 041100Z 13023KT 9999 FEW040 27/18 Q1017;EQDQ01+000000PRSWM2
0162619840999992000110412004-21320+055480FM-15+0053FMEP V0201301N012912200019N0112651N1+02601+01701999999ADDGA1021+012009999GA2021+090009999GF104991999999999999999999MA1101591999999MW1001REMMET052FMEP 041200Z 13025KT 9999 FEW040 SCT300 26/17 Q1016;EQDQ01+000000PRSWM2
0162619840999992000110413004-21320+055480FM-15+0053FMEP V0201301N011310900019N0112651N1+02501+01701999999ADDGA1021+012009999GA2071+090009999GF107991999999999999999999MA1101691999999MW1001REMMET052FMEP 041300Z 13022KT 9999 FEW040 BKN300 25/17 Q1017;EQDQ01+000000PRSWM2
0162619840999992000110503004-21320+055480FM-15+0053FMEP V0200301N002612200019N0112651N1+02301+01101999999ADDGA1021+012009999GA2021+060009999GF104991999999999999999999MA1101901999999MW1001REMMET052FMEP 050300Z 03005KT 9999 FEW040 SCT200 23/11 Q1019;EQDQ01+000000PRSWM2
0162619840999992000110504004-21320+055480FM-15+0053FMEP V02099999999992200019N0112651N1+02501+01101999999ADDGA1021+012009999GA2021+060009999GF104991999999999999999999MA1102001999999MW1001REMMET052FMEP 050400Z VRB02KT 9999 FEW040 SCT200 25/11 Q1020;EQDQ01+000000PRSWM2
0170619840999992000110505004-21320+055480FM-15+0053FMEP V0201201N003112200019N0112651N1+02701+01301999999ADDGA1021+012009999GA2021+060009999GF104991999999999999999999MA1102001999999MW1001REMMET060FMEP 050500Z 12006KT 030V170 9999 FEW040 SCT200 27/13 Q1020;EQDQ01+000000PRSWM2
0139619840999992000110506004-21320+055480FM-15+0053FMEP V0201301N008712200019N0112651N1+02701+01601999999ADDGA1021+012009999GF102991999999999999999999MA1102001999999MW1001REMMET045FMEP 050600Z 13017KT 9999 FEW040 27/16 Q1020;EQDQ01+000000PRSWM2
0150619840999992000110507004-21320+055480FM-15+0053FMEP V0201401N009812200019N0112651N1+02701+01701999999ADDGA1021+012009999GF102991999999999999999999MA1101901999999MW1001OC101591REMMET048FMEP 050700Z 14019G31KT 9999 FEW040 27/17 Q1019;EQDQ01+000000PRSWM2
0139619840999992000110508004-21320+055480FM-15+0053FMEP V0201301N010812200019N0112651N1+02701+01701999999ADDGA1021+009009999GF102991999999999999999999MA1101901999999MW1001REMMET045FMEP 050800Z 13021KT 9999 FEW030 27/17 Q1019;EQDQ01+000000PRSWM2
0158619840999992000110509004-21320+055480FM-15+0053FMEP V0201401N008712200019N0112651N1+02801+01701999999ADDGA1021+009009999GF102991999999999999999999MA1101801999999MW1001OC101391REMMET056FMEP 050900Z 14017G27KT 100V180 9999 FEW030 28/17 Q1018;EQDQ01+000000PRSWM2
0150619840999992000110510004-21320+055480FM-15+0053FMEP V02099999999992200019N0112651N1+02701+01801999999ADDGA1021+009009999GF102991999999999999999999MA1101801999999MW1001REMMET056FMEP 051000Z VRB16G29KT 100V290 9999 FEW030 27/18 Q1018;EQDQ01+000000PRSWM2
0150619840999992000110511004-21320+055480FM-15+0053FMEP V0201301N012312200019N0112651N1+02701+01801999999ADDGA1021+007509999GF102991999999999999999999MA1101691999999MW1001OC101751REMMET048FMEP 051100Z 13024G34KT 9999 FEW025 27/18 Q1017;EQDQ01+000000PRSWM2
0139619840999992000110512004-21320+055480FM-15+0053FMEP V0201301N011312200019N0112651N1+02601+01801999999ADDGA1021+009009999GF102991999999999999999999MA1101691999999MW1001REMMET045FMEP 051200Z 13022KT 9999 FEW030 26/18 Q1017;EQDQ01+000000PRSWM2
0139619840999992000110513004-21320+055480FM-15+0053FMEP V0201301N009812200019N0112651N1+02501+01801999999ADDGA1021+009009999GF102991999999999999999999MA1101691999999MW1001REMMET045FMEP 051300Z 13019KT 9999 FEW030 25/18 Q1017;EQDQ01+000000PRSWM2
0162619840999992000110604004-21320+055480FM-15+0053FMEP V0201601N003610900019N0112651N1+02501+01601999999ADDGA1021+012909999GA2071+090009999GF107991999999999999999999MA1101801999999MW1001REMMET052FMEP 060400Z 16007KT 9999 FEW043 BKN330 25/16 Q1018;EQDQ01+000000PRSWM2
0170619840999992000110605004-21320+055480FM-15+0053FMEP V0202501N003110900019N0112651N1+02601+01601999999ADDGA1021+010809999GA2071+090009999GF107991999999999999999999MA1101801999999MW1001REMMET060FMEP 060500Z 25006KT 210V290 9999 FEW036 BKN330 26/16 Q1018;EQDQ01+000000PRSWM2
0162619840999992000110606004-21320+055480FM-15+0053FMEP V0202101N003110900019N0112651N1+02701+01601999999ADDGA1021+011409999GA2071+090009999GF107991999999999999999999MA1101801999999MW1001REMMET052FMEP 060600Z 21006KT 9999 FEW038 BKN330 27/16 Q1018;EQDQ01+000000PRSWM2
0170619840999992000110607004-21320+055480FM-15+0053FMEP V0202401N003110900019N0112651N1+02701+01501999999ADDGA1021+009309999GA2071+090009999GF107991999999999999999999MA1101801999999MW1001REMMET060FMEP 060700Z 24006KT 200V270 9999 FEW031 BKN330 27/15 Q1018;EQDQ01+000000PRSWM2
0170619840999992000110608004-21320+055480FM-15+0053FMEP V0202401N002612200019N0112651N1+02801+01601999999ADDGA1021+011409999GA2021+039009999GF104991999999999999999999MA1101691999999MW1001REMMET060FMEP 060800Z 24005KT 170V280 9999 FEW038 SCT130 28/16 Q1017;EQDQ01+000000PRSWM2
0170619840999992000110609004-21320+055480FM-15+0053FMEP V0202101N002612200019N0112651N1+02801+01601999999ADDGA1021+011409999GA2021+042009999GF104991999999999999999999MA1101691999999MW1001REMMET060FMEP 060900Z 21005KT 130V250 9999 FEW038 SCT140 28/16 Q1017;EQDQ01+000000PRSWM2
0192619840999992000110610004-21320+055480FM-15+0053FMEP V0202501N002110900019N0112651N1+99999+99999999999ADDGA1021+011409999GA2021+042009999GA3071+090009999GF107991999999999999999999MW1001REMMET081FMEP 061000Z 25004KT 170V330 9999 FEW038 SCT140 BKN330 9999 FEW038 SCT140 BKN330;EQDQ01+000000PRSWM2
0170619840999992000110611004-21320+055480FM-15+0053FMEP V0202701N004112200019N0112651N1+02801+01601999999ADDGA1021+011409999GA2021+042009999GF104991999999999999999999MA1101491999999MW1001REMMET060FMEP 061100Z 27008KT 240V320 9999 FEW038 SCT140 28/16 Q1015;EQDQ01+000000PRSWM2
0162619840999992000110613004-21320+055480FM-15+0053FMEP V0202701N005112200019N0112651N1+02701+01701999999ADDGA1021+012009999GA2021+090009999GF104991999999999999999999MA1101491999999MW1001REMMET052FMEP 061300Z 27010KT 9999 FEW040 SCT330 27/17 Q1015;EQDQ01+000000PRSWM2
0162619840999992000110703004-21320+055480FM-15+0053FMEP V0200301N001512200019N0112651N1+02401+01501999999ADDGA1021+009009999GA2021+060009999GF104991999999999999999999MA1101591999999MW1001REMMET052FMEP 070300Z 03003KT 9999 FEW030 SCT200 24/15 Q1016;EQDQ01+000000PRSWM2
0139619840999992000110704004-21320+055480FM-15+0053FMEP V0202301N001512200019N0112651N1+02501+01801999999ADDGA1021+009009999GF102991999999999999999999MA1101691999999MW1001REMMET045FMEP 070400Z 23003KT 9999 FEW030 25/18 Q1017;EQDQ01+000000PRSWM2
0147619840999992000110705004-21320+055480FM-15+0053FMEP V0202401N002612200019N0112651N1+02601+01701999999ADDGA1021+009009999GF102991999999999999999999MA1101691999999MW1001REMMET053FMEP 070500Z 24005KT 190V310 9999 FEW030 26/17 Q1017;EQDQ01+000000PRSWM2
0170619840999992000110706004-21320+055480FM-15+0053FMEP V0202401N003112200019N0112651N1+02601+01801999999ADDGA1021+007509999GA2021+024009999GF104991999999999999999999MA1101591999999MW1001REMMET060FMEP 070600Z 24006KT 210V280 9999 FEW025 SCT083 26/18 Q1016;EQDQ01+000000PRSWM2
0162619840999992000110707004-21320+055480FM-15+0053FMEP V0201801N002612200019N0112651N1+02601+01801999999ADDGA1021+007509999GA2021+024009999GF104991999999999999999999MA1101591999999MW1001REMMET052FMEP 070700Z 18005KT 9999 FEW025 SCT083 26/18 Q1016;EQDQ01+000000PRSWM2
0216619840999992000110708004-21320+055480FM-15+0053FMEP V0202601N003110240019N0080001N1+02601+01801999999ADDGA1021+007509999GA2021+015009999GA3071+024009999GF107991999999999999999999MW1161REMMET089FMEP 070800Z 26006KT 8000 VCSH FEW025 SCT050 BKN083 26/18 8000 VCSH FEW025 SCT050 BKN083;EQDQ01+000003PRSWM1Q02    003PRSWM1
0216619840999992000110709004-21320+055480FM-15+0053FMEP V0202701N001510240019N0080001N1+02501+01801999999ADDGA1021+007509999GA2021+015009999GA3071+024009999GF107991999999999999999999MW1161REMMET089FMEP 070900Z 27003KT 8000 VCSH FEW025 SCT050 BKN083 25/18 8000 VCSH FEW025 SCT050 BKN083;EQDQ01+000003PRSWM1Q02    003PRSWM1
0208619840999992000110711004-21320+055480FM-15+0053FMEP V0201601N002610240019N0080001N1+99999+99999999999ADDGA1021+007509999GA2021+015009999GA3071+024009999GF107991999999999999999999MW1001MW2161REMMET091FMEP 071100Z 16005KT 130V200 8000 VCSH FEW025 SCT050 BKN083 8000 VCSH FEW025 SCT050 BKN083;EQDQ01+000003PRSWM1
0183619840999992000110712004-21320+055480FM-15+0053FMEP V0201601N001512200019N0080001N1+02501+01601999999ADDGA1021+007509999GA2021+015009999GF104991999999999999999999MA1101491999999MW1161REMMET057FMEP 071200Z 16003KT 8000 VCSH FEW025 SCT050 25/16 Q1015;EQDQ01+000003PRSWM1Q02    003PRSWM1
0170619840999992000110713004-21320+055480FM-15+0053FMEP V0200501N003110240019N0112651N1+02601+01401999999ADDGA1021+007509999GA2071+024009999GF107991999999999999999999MA1101491999999MW1001REMMET060FMEP 071300Z 05006KT 010V080 9999 FEW025 BKN083 26/14 Q1015;EQDQ01+000000PRSWM2
0162619840999992000110714004-21320+055480FM-15+0053FMEP V0200901N001512200019N0112651N1+02501+01401999999ADDGA1021+007509999GA2021+024009999GF104991999999999999999999MA1101491999999MW1001REMMET052FMEP 071400Z 09003KT 9999 FEW025 SCT083 25/14 Q1015;EQDQ01+000000PRSWM2
0147619840999992000110804004-21320+055480FM-15+0053FMEP V0201801N002612200019N0112651N1+02501+01401999999ADDGA1021+012909999GF102991999999999999999999MA1101691999999MW1001REMMET053FMEP 080400Z 18005KT 150V220 9999 FEW043 25/14 Q1017;EQDQ01+000000PRSWM2
0147619840999992000110805004-21320+055480FM-15+0053FMEP V0201801N003112200019N0112651N1+02601+01401999999ADDGA1021+013809999GF102991999999999999999999MA1101691999999MW1001REMMET053FMEP 080500Z 18006KT 150V220 9999 FEW046 26/14 Q1017;EQDQ01+000000PRSWM2
0147619840999992000110806004-21320+055480FM-15+0053FMEP V0201501N004112200019N0112651N1+02801+01501999999ADDGA1021+012009999GF102991999999999999999999MA1101691999999MW1001REMMET053FMEP 080600Z 15008KT 100V200 9999 FEW040 28/15 Q1017;EQDQ01+000000PRSWM2
0139619840999992000110807004-21320+055480FM-15+0053FMEP V0201401N008712200019N0112651N1+02801+01701999999ADDGA1021+010809999GF102991999999999999999999MA1101691999999MW1001REMMET045FMEP 080700Z 14017KT 9999 FEW036 28/17 Q1017;EQDQ01+000000PRSWM2
0139619840999992000110808004-21320+055480FM-15+0053FMEP V0201401N009312200019N0112651N1+02701+01701999999ADDGA1021+012009999GF102991999999999999999999MA1101591999999MW1001REMMET045FMEP 080800Z 14018KT 9999 FEW040 27/17 Q1016;EQDQ01+000000PRSWM2
0139619840999992000110809004-21320+055480FM-15+0053FMEP V0201401N009812200019N0112651N1+02701+01701999999ADDGA1021+012009999GF102991999999999999999999MA1101591999999MW1001REMMET045FMEP 080900Z 14019KT 9999 FEW040 27/17 Q1016;EQDQ01+000000PRSWM2
0139619840999992000110810004-21320+055480FM-15+0053FMEP V0201401N009312200019N0112651N1+02801+01801999999ADDGA1021+015009999GF102991999999999999999999MA1101491999999MW1001REMMET045FMEP 081000Z 14018KT 9999 FEW050 28/18 Q1015;EQDQ01+000000PRSWM2
0139619840999992000110811004-21320+055480FM-15+0053FMEP V0201401N008712200019N0112651N1+02701+01701999999ADDGA1021+015009999GF102991999999999999999999MA1101491999999MW1001REMMET045FMEP 081100Z 14017KT 9999 FEW050 27/17 Q1015;EQDQ01+000000PRSWM2
0091619840999992000110812004-21320+055480FM-15+0053FMEP V0201301N00771220001CN0099001N1+02601+01701999999ADDMA1101491999999MW1001REMMET039FMEP 081200Z 13015KT CAVOK 26/17 Q1015;EQDQ01+000000PRSWM2
0091619840999992000110813004-21320+055480FM-15+0053FMEP V0201401N00721220001CN0099001N1+02601+01701999999ADDMA1101491999999MW1001REMMET039FMEP 081300Z 14014KT CAVOK 26/17 Q1015;EQDQ01+000000PRSWM2
0162619840999992000110903004-21320+055480FM-15+0053FMEP V0200201N001012200019N0112651N1+02201+01001999999ADDGA1021+004809999GA2021+105009999GF104991999999999999999999MA1101491999999MW1001REMMET052FMEP 090300Z 02002KT 9999 FEW016 SCT360 22/10 Q1015;EQDQ01+000000PRSWM2
0170619840999992000110904004-21320+055480FM-15+0053FMEP V0201301N002612200019N0112651N1+02501+01501999999ADDGA1021+004809999GA2021+105009999GF104991999999999999999999MA1101591999999MW1001REMMET060FMEP 090400Z 13005KT 080V170 9999 FEW016 SCT360 25/15 Q1016;EQDQ01+000000PRSWM2
0162619840999992000110905004-21320+055480FM-15+0053FMEP V0201501N006212200019N0112651N1+02601+01601999999ADDGA1021+004509999GA2021+105009999GF104991999999999999999999MA1101591999999MW1001REMMET052FMEP 090500Z 15012KT 9999 FEW015 SCT360 26/16 Q1016;EQDQ01+000000PRSWM2
0162619840999992000110907004-21320+055480FM-15+0053FMEP V0201501N005712200019N0112651N1+02701+01501999999ADDGA1021+010509999GA2021+105009999GF104991999999999999999999MA1101591999999MW1001REMMET052FMEP 090700Z 15011KT 9999 FEW035 SCT360 27/15 Q1016;EQDQ01+000000PRSWM2
0162619840999992000110908004-21320+055480FM-15+0053FMEP V0201601N006712200019N0112651N1+02701+01601999999ADDGA1021+010809999GA2021+105009999GF104991999999999999999999MA1101591999999MW1001REMMET052FMEP 090800Z 16013KT 9999 FEW036 SCT360 27/16 Q1016;EQDQ01+000000PRSWM2
0162619840999992000110909004-21320+055480FM-15+0053FMEP V0201501N007212200019N0112651N1+02801+01601999999ADDGA1021+009609999GA2021+105009999GF104991999999999999999999MA1101491999999MW1001REMMET052FMEP 090900Z 15014KT 9999 FEW032 SCT360 28/16 Q1015;EQDQ01+000000PRSWM2
0162619840999992000110910004-21320+055480FM-15+0053FMEP V0201501N007212200019N0112651N1+02701+01601999999ADDGA1021+010809999GA2021+105009999GF104991999999999999999999MA1101491999999MW1001REMMET052FMEP 091000Z 15014KT 9999 FEW036 SCT360 27/16 Q1015;EQDQ01+000000PRSWM2
0162619840999992000110911004-21320+055480FM-15+0053FMEP V0201501N007212200019N0112651N1+02701+01601999999ADDGA1021+012009999GA2021+105009999GF104991999999999999999999MA1101391999999MW1001REMMET052FMEP 091100Z 15014KT 9999 FEW040 SCT360 27/16 Q1014;EQDQ01+000000PRSWM2
0162619840999992000110912004-21320+055480FM-15+0053FMEP V0201501N007712200019N0112651N1+02601+01601999999ADDGA1021+013809999GA2021+105009999GF104991999999999999999999MA1101391999999MW1001REMMET052FMEP 091200Z 15015KT 9999 FEW046 SCT360 26/16 Q1014;EQDQ01+000000PRSWM2
0139619840999992000110913004-21320+055480FM-15+0053FMEP V0201401N007212200019N0112651N1+02501+01701999999ADDGA1021+013809999GF102991999999999999999999MA1101391999999MW1001REMMET045FMEP 091300Z 14014KT 9999 FEW046 25/17 Q1014;EQDQ01+000000PRSWM2
0139619840999992000111003004-21320+055480FM-15+0053FMEP V0200301N002612200019N0112651N1+02201+01201999999ADDGA1021+009009999GF102991999999999999999999MA1101491999999MW1001REMMET045FMEP 100300Z 03005KT 9999 FEW030 22/12 Q1015;EQDQ01+000000PRSWM2
0139619840999992000111004004-21320+055480FM-15+0053FMEP V0202001N002612200019N0112651N1+02401+01601999999ADDGA1021+009009999GF102991999999999999999999MA1101591999999MW1001REMMET045FMEP 100400Z 20005KT 9999 FEW030 24/16 Q1016;EQDQ01+000000PRSWM2
0147619840999992000111005004-21320+055480FM-15+0053FMEP V0202501N002612200019N0112651N1+02501+01601999999ADDGA1021+009009999GF102991999999999999999999MA1101591999999MW1001REMMET053FMEP 100500Z 25005KT 200V310 9999 FEW030 25/16 Q1016;EQDQ01+000000PRSWM2
0139619840999992000111006004-21320+055480FM-15+0053FMEP V0202601N003612200019N0112651N1+02601+01601999999ADDGA1021+009909999GF102991999999999999999999MA1101591999999MW1001REMMET045FMEP 100600Z 26007KT 9999 FEW033 26/16 Q1016;EQDQ01+000000PRSWM2
0165619840999992000111007004-21320+055480FM-15+0053FMEP V0202501N003612200019N0112651N1+02701+01701999999ADDGA1021+009009999GA2021+009909029GF102991999999999999999999MA1101491999999MW1001REMMET055FMEP 100700Z 25007KT 9999 FEW030 FEW033TCU 27/17 Q1015;EQDQ01+000000PRSWM2
0174619840999992000111008004-21320+055480FM-15+0053FMEP V0202301N003112200019N0112651N1+02701+01801999999ADDGA1021+007509999GA2021+009909029GF102991999999999999999999MW1001REMMET079FMEP 100800Z 23006KT 190V280 9999 FEW025 FEW033TCU 27/18 9999 FEW025 FEW033TCU;EQDQ01+000000PRSWM2
0170619840999992000111009004-21320+055480FM-15+0053FMEP V0201601N004112200019N0112651N1+02701+01901999999ADDGA1021+007509999GA2021+015009999GF104991999999999999999999MA1101491999999MW1001REMMET060FMEP 100900Z 16008KT 120V270 9999 FEW025 SCT050 27/19 Q1015;EQDQ01+000000PRSWM2
0139619840999992000111010004-21320+055480FM-15+0053FMEP V0201501N005112200019N0112651N1+02801+01901999999ADDGA1021+007509999GF102991999999999999999999MA1101491999999MW1001REMMET045FMEP 101000Z 15010KT 9999 FEW025 28/19 Q1015;EQDQ01+000000PRSWM2
0142619840999992000111011004-21320+055480FM-15+0053FMEP V0201401N006712200019N0112651N1+02801+02001999999ADDGA1021+007509029GF102991999999999999999999MA1101491999999MW1001REMMET048FMEP 101100Z 14013KT 9999 FEW025TCU 28/20 Q1015;EQDQ01+000000PRSWM2
0142619840999992000111012004-21320+055480FM-15+0053FMEP V0201501N006712200019N0112651N1+02701+02001999999ADDGA1021+007509029GF102991999999999999999999MA1101491999999MW1001REMMET048FMEP 101200Z 15013KT 9999 FEW025TCU 27/20 Q1015;EQDQ01+000000PRSWM2
0142619840999992000111013004-21320+055480FM-15+0053FMEP V0201401N007212200019N0112651N1+02601+02001999999ADDGA1021+007509029GF102991999999999999999999MA1101491999999MW1001REMMET048FMEP 101300Z 14014KT 9999 FEW025TCU 26/20 Q1015;EQDQ01+000000PRSWM2
0120619840999992000111103004-21320+055480FM-15+0053FMEP V0200301N002612200019N0112651N1+02401+01501999999ADDGF100991999999999999999999MA1101801999999MW1001REMMET042FMEP 110300Z 03005KT 9999 SKC 24/15 Q1018;EQDQ01+000000PRSWM2
0139619840999992000111104004-21320+055480FM-15+0053FMEP V0201501N003112200019N0112651N1+02601+01601999999ADDGA1021+009009999GF102991999999999999999999MA1101801999999MW1001REMMET045FMEP 110400Z 15006KT 9999 FEW030 26/16 Q1018;EQDQ01+000000PRSWM2
0139619840999992000111105004-21320+055480FM-15+0053FMEP V0201401N006212200019N0112651N1+02701+01801999999ADDGA1021+009009999GF102991999999999999999999MA1101801999999MW1001REMMET045FMEP 110500Z 14012KT 9999 FEW030 27/18 Q1018;EQDQ01+000000PRSWM2
0139619840999992000111106004-21320+055480FM-15+0053FMEP V0201401N006712200019N0112651N1+02801+01801999999ADDGA1021+009009999GF102991999999999999999999MA1101801999999MW1001REMMET045FMEP 110600Z 14013KT 9999 FEW030 28/18 Q1018;EQDQ01+000000PRSWM2
0139619840999992000111108004-21320+055480FM-15+0053FMEP V0201401N007212200019N0112651N1+02801+01901999999ADDGA1021+007509999GF102991999999999999999999MA1101691999999MW1001REMMET045FMEP 110800Z 14014KT 9999 FEW025 28/19 Q1017;EQDQ01+000000PRSWM2
0162619840999992000111109004-21320+055480FM-15+0053FMEP V0201401N006712200019N0112651N1+02701+01801999999ADDGA1021+007509999GA2021+018009999GF104991999999999999999999MA1101691999999MW1001REMMET052FMEP 110900Z 14013KT 9999 FEW025 SCT066 27/18 Q1017;EQDQ01+000000PRSWM2
0162619840999992000111110004-21320+055480FM-15+0053FMEP V0201501N006712200019N0112651N1+02701+01801999999ADDGA1021+007509999GA2021+018009999GF104991999999999999999999MA1101691999999MW1001REMMET052FMEP 111000Z 15013KT 9999 FEW025 SCT066 27/18 Q1017;EQDQ01+000000PRSWM2
0131619840999992000111111004-21320+055480FM-15+0053FMEP V0202501N002112200019N0112651N1+99999+99999999999ADDGA1021+007509999GF102991999999999999999999MW1001REMMET052FMEP 111100Z 25004KT 190V330 9999 FEW025 2816 Q1017;EQDQ01+000000PRSWM2
0147619840999992000111112004-21320+055480FM-15+0053FMEP V0201601N004612200019N0112651N1+02701+01801999999ADDGA1021+007509999GF102991999999999999999999MA1101591999999MW1001REMMET053FMEP 111200Z 16009KT 120V210 9999 FEW025 27/18 Q1016;EQDQ01+000000PRSWM2
0139619840999992000111113004-21320+055480FM-15+0053FMEP V0201301N008712200019N0112651N1+02601+01801999999ADDGA1021+006309999GF102991999999999999999999MA1101691999999MW1001REMMET045FMEP 111300Z 13017KT 9999 FEW021 26/18 Q1017;EQDQ01+000000PRSWM2
0139619840999992000111203004-21320+055480FM-15+0053FMEP V0200901N001512200019N0112651N1+02401+01301999999ADDGA1021+007509999GF102991999999999999999999MA1101801999999MW1001REMMET045FMEP 120300Z 09003KT 9999 FEW025 24/13 Q1018;EQDQ01+000000PRSWM2
0170619840999992000111204004-21320+055480FM-15+0053FMEP V0201101N003612200019N0112651N1+02601+01301999999ADDGA1021+007509999GA2021+090009999GF104991999999999999999999MA1101801999999MW1001REMMET060FMEP 120400Z 11007KT 080V150 9999 FEW025 SCT300 26/13 Q1018;EQDQ01+000000PRSWM2
0162619840999992000111205004-21320+055480FM-15+0053FMEP V0201301N009312200019N0112651N1+02601+01801999999ADDGA1021+012909999GA2021+090009999GF104991999999999999999999MA1101801999999MW1001REMMET052FMEP 120500Z 13018KT 9999 FEW043 SCT300 26/18 Q1018;EQDQ01+000000PRSWM2
0162619840999992000111206004-21320+055480FM-15+0053FMEP V0201401N009310900019N0112651N1+02701+01801999999ADDGA1021+012309999GA2071+090009999GF107991999999999999999999MA1101691999999MW1001REMMET052FMEP 120600Z 14018KT 9999 FEW041 BKN330 27/18 Q1017;EQDQ01+000000PRSWM2
0162619840999992000111208004-21320+055480FM-15+0053FMEP V0201301N010310900019N0112651N1+02701+01801999999ADDGA1021+010809999GA2071+090009999GF107991999999999999999999MA1101591999999MW1001REMMET052FMEP 120800Z 13020KT 9999 FEW036 BKN330 27/18 Q1016;EQDQ01+000000PRSWM2
0162619840999992000111209004-21320+055480FM-15+0053FMEP V0201401N010810900019N0112651N1+02801+01801999999ADDGA1021+010809999GA2071+090009999GF107991999999999999999999MA1101591999999MW1001REMMET052FMEP 120900Z 14021KT 9999 FEW036 BKN330 28/18 Q1016;EQDQ01+000000PRSWM2
0162619840999992000111210004-21320+055480FM-15+0053FMEP V0201401N010312200019N0112651N1+02801+01801999999ADDGA1021+010509999GA2021+090009999GF104991999999999999999999MA1101491999999MW1001REMMET052FMEP 121000Z 14020KT 9999 FEW035 SCT330 28/18 Q1015;EQDQ01+000000PRSWM2
0162619840999992000111211004-21320+055480FM-15+0053FMEP V0201301N010812200019N0112651N1+02601+01901999999ADDGA1021+009909999GA2021+042009999GF104991999999999999999999MA1101491999999MW1001REMMET052FMEP 121100Z 13021KT 9999 FEW033 SCT140 26/19 Q1015;EQDQ01+000000PRSWM2
0185619840999992000111212004-21320+055480FM-15+0053FMEP V0201301N009810900019N0112651N1+02601+01801999999ADDGA1021+010509999GA2021+039009999GA3071+090009999GF107991999999999999999999MA1101491999999MW1001REMMET059FMEP 121200Z 13019KT 9999 FEW035 SCT130 BKN330 26/18 Q1015;EQDQ01+000000PRSWM2
0185619840999992000111213004-21320+055480FM-15+0053FMEP V0201401N009310900019N0112651N1+02501+01901999999ADDGA1021+010509999GA2021+039009999GA3071+090009999GF107991999999999999999999MA1101491999999MW1001REMMET059FMEP 121300Z 14018KT 9999 FEW035 SCT130 BKN330 25/19 Q1015;EQDQ01+000000PRSWM2
0162619840999992000111303004-21320+055480FM-15+0053FMEP V0203601N002112200019N0112651N1+02201+01401999999ADDGA1021+009009999GA2021+024009999GF104991999999999999999999MA1101591999999MW1001REMMET052FMEP 130300Z 36004KT 9999 FEW030 SCT083 22/14 Q1016;EQDQ01+000000PRSWM2
0147619840999992000111304004-21320+055480FM-15+0053FMEP V0201301N004612200019N0112651N1+02501+01601999999ADDGA1021+009009999GF102991999999999999999999MA1101591999999MW1001REMMET053FMEP 130400Z 13009KT 100V170 9999 FEW030 25/16 Q1016;EQDQ01+000000PRSWM2
0139619840999992000111305134-21320+055480FM-15+0053FMEP V0201401N008212200019N0112651N1+02501+01701999999ADDGA1021+009009999GF102991999999999999999999MA1101591999999MW1001REMMET045FMEP 130513Z 14016KT 9999 FEW030 25/17 Q1016;EQDQ01+000000PRSWM2
0162619840999992000111307004-21320+055480FM-15+0053FMEP V0201601N008212200019N0112651N1+02601+01801999999ADDGA1021+009009999GA2021+024009999GF104991999999999999999999MA1101491999999MW1001REMMET052FMEP 130700Z 16016KT 9999 FEW030 SCT083 26/18 Q1015;EQDQ01+000000PRSWM2
0162619840999992000111308004-21320+055480FM-15+0053FMEP V0201401N009312200019N0112651N1+02701+01801999999ADDGA1021+007509999GA2021+018009999GF104991999999999999999999MA1101491999999MW1001REMMET052FMEP 130800Z 14018KT 9999 FEW025 SCT066 27/18 Q1015;EQDQ01+000000PRSWM2
0139619840999992000111309004-21320+055480FM-15+0053FMEP V0201401N010312200019N0112651N1+02801+01801999999ADDGA1021+007509999GF102991999999999999999999MA1101391999999MW1001REMMET045FMEP 130900Z 14020KT 9999 FEW025 28/18 Q1014;EQDQ01+000000PRSWM2
0139619840999992000111310004-21320+055480FM-15+0053FMEP V0201401N010812200019N0112651N1+02701+01801999999ADDGA1021+007509999GF102991999999999999999999MA1101391999999MW1001REMMET045FMEP 131000Z 14021KT 9999 FEW025 27/18 Q1014;EQDQ01+000000PRSWM2
0139619840999992000111311004-21320+055480FM-15+0053FMEP V0201401N011312200019N0112651N1+02701+01801999999ADDGA1021+007509999GF102991999999999999999999MA1101291999999MW1001REMMET045FMEP 131100Z 14022KT 9999 FEW025 27/18 Q1013;EQDQ01+000000PRSWM2
0139619840999992000111312004-21320+055480FM-15+0053FMEP V0201401N011812200019N0112651N1+02601+01801999999ADDGA1021+007509999GF102991999999999999999999MA1101291999999MW1001REMMET045FMEP 131200Z 14023KT 9999 FEW025 26/18 Q1013;EQDQ01+000000PRSWM2
0139619840999992000111313004-21320+055480FM-15+0053FMEP V0201301N011812200019N0112651N1+02501+01801999999ADDGA1021+009009999GF102991999999999999999999MA1101291999999MW1001REMMET045FMEP 131300Z 13023KT 9999 FEW030 25/18 Q1013;EQDQ01+000000PRSWM2
0139619840999992000111403004-21320+055480FM-15+0053FMEP V0201001N002612200019N0112651N1+02301+01401999999ADDGA1021+013809999GF102991999999999999999999MA1101491999999MW1001REMMET045FMEP 140300Z 10005KT 9999 FEW046 23/14 Q1015;EQDQ01+000000PRSWM2
0139619840999992000111404004-21320+055480FM-15+0053FMEP V0201201N006212200019N0112651N1+02601+01701999999ADDGA1021+012909999GF102991999999999999999999MA1101591999999MW1001REMMET045FMEP 140400Z 12012KT 9999 FEW043 26/17 Q1016;EQDQ01+000000PRSWM2
0139619840999992000111405004-21320+055480FM-15+0053FMEP V0201301N010312200019N0112651N1+02601+01801999999ADDGA1021+012009999GF102991999999999999999999MA1101491999999MW1001REMMET045FMEP 140500Z 13020KT 9999 FEW040 26/18 Q1015;EQDQ01+000000PRSWM2
0139619840999992000111406004-21320+055480FM-15+0053FMEP V0201301N010812200019N0112651N1+02701+01801999999ADDGA1021+012009999GF102991999999999999999999MA1101491999999MW1001REMMET045FMEP 140600Z 13021KT 9999 FEW040 27/18 Q1015;EQDQ01+000000PRSWM2
0139619840999992000111407004-21320+055480FM-15+0053FMEP V0201401N010812200019N0112651N1+02801+01801999999ADDGA1021+009909999GF102991999999999999999999MA1101491999999MW1001REMMET045FMEP 140700Z 14021KT 9999 FEW033 28/18 Q1015;EQDQ01+000000PRSWM2
0139619840999992000111408004-21320+055480FM-15+0053FMEP V0201401N011312200019N0112651N1+02801+01701999999ADDGA1021+009909999GF102991999999999999999999MA1101391999999MW1001REMMET045FMEP 140800Z 14022KT 9999 FEW033 28/17 Q1014;EQDQ01+000000PRSWM2
0139619840999992000111409004-21320+055480FM-15+0053FMEP V0201401N011812200019N0112651N1+02701+01901999999ADDGA1021+009609999GF102991999999999999999999MA1101391999999MW1001REMMET045FMEP 140900Z 14023KT 9999 FEW032 27/19 Q1014;EQDQ01+000000PRSWM2
0162619840999992000111410004-21320+055480FM-15+0053FMEP V0201401N011812200019N0112651N1+02701+01801999999ADDGA1021+007809999GA2021+030009999GF104991999999999999999999MA1101291999999MW1001REMMET052FMEP 141000Z 14023KT 9999 FEW026 SCT100 27/18 Q1013;EQDQ01+000000PRSWM2
0162619840999992000111411004-21320+055480FM-15+0053FMEP V0201401N012312200019N0112651N1+02601+01901999999ADDGA1021+007809999GA2021+030009999GF104991999999999999999999MA1101291999999MW1001REMMET052FMEP 141100Z 14024KT 9999 FEW026 SCT100 26/19 Q1013;EQDQ01+000000PRSWM2
0162619840999992000111412004-21320+055480FM-15+0053FMEP V0201401N011312200019N0112651N1+02601+01801999999ADDGA1021+007809999GA2021+027009999GF104991999999999999999999MA1101291999999MW1001REMMET052FMEP 141200Z 14022KT 9999 FEW026 SCT096 26/18 Q1013;EQDQ01+000000PRSWM2
0162619840999992000111413004-21320+055480FM-15+0053FMEP V0201301N011312200019N0112651N1+02501+01901999999ADDGA1021+010509999GA2021+027009999GF104991999999999999999999MA1101291999999MW1001REMMET052FMEP 141300Z 13022KT 9999 FEW035 SCT093 25/19 Q1013;EQDQ01+000000PRSWM2
0120619840999992000111503004-21320+055480FM-15+0053FMEP V0201201N008212200019N0112651N1+02401+01501999999ADDGF100991999999999999999999MA1101491999999MW1001REMMET042FMEP 150300Z 12016KT 9999 SKC 24/15 Q1015;EQDQ01+000000PRSWM2
0120619840999992000111504004-21320+055480FM-15+0053FMEP V0201301N009312200019N0112651N1+02501+01601999999ADDGF100991999999999999999999MA1101491999999MW1001REMMET042FMEP 150400Z 13018KT 9999 SKC 25/16 Q1015;EQDQ01+000000PRSWM2
0139619840999992000111506004-21320+055480FM-15+0053FMEP V0201301N010812200019N0112651N1+02701+01701999999ADDGA1021+009009999GF102991999999999999999999MA1101391999999MW1001REMMET045FMEP 150600Z 13021KT 9999 FEW030 27/17 Q1014;EQDQ01+000000PRSWM2
0139619840999992000111507004-21320+055480FM-15+0053FMEP V0201301N011812200019N0112651N1+02701+01601999999ADDGA1021+009009999GF102991999999999999999999MA1101391999999MW1001REMMET045FMEP 150700Z 13023KT 9999 FEW030 27/16 Q1014;EQDQ01+000000PRSWM2
0139619840999992000111508004-21320+055480FM-15+0053FMEP V0201401N011312200019N0112651N1+02701+01701999999ADDGA1021+012009999GF102991999999999999999999MA1101391999999MW1001REMMET045FMEP 150800Z 14022KT 9999 FEW040 27/17 Q1014;EQDQ01+000000PRSWM2
0139619840999992000111510004-21320+055480FM-15+0053FMEP V0201401N010312200019N0112651N1+02701+01801999999ADDGA1021+012009999GF102991999999999999999999MA1101291999999MW1001REMMET045FMEP 151000Z 14020KT 9999 FEW040 27/18 Q1013;EQDQ01+000000PRSWM2
0139619840999992000111511004-21320+055480FM-15+0053FMEP V0201401N011812200019N0112651N1+02701+01701999999ADDGA1021+012009999GF102991999999999999999999MA1101191999999MW1001REMMET045FMEP 151100Z 14023KT 9999 FEW040 27/17 Q1012;EQDQ01+000000PRSWM2
0139619840999992000111512004-21320+055480FM-15+0053FMEP V0201401N011312200019N0112651N1+02601+01801999999ADDGA1021+012009999GF102991999999999999999999MA1101191999999MW1001REMMET045FMEP 151200Z 14022KT 9999 FEW040 26/18 Q1012;EQDQ01+000000PRSWM2
0139619840999992000111513004-21320+055480FM-15+0053FMEP V0201301N010312200019N0112651N1+02501+01701999999ADDGA1021+012009999GF102991999999999999999999MA1101291999999MW1001REMMET045FMEP 151300Z 13020KT 9999 FEW040 25/17 Q1013;EQDQ01+000000PRSWM2
0165619840999992000111603004-21320+055480FM-15+0053FMEP V0200501N001512200019N0112651N1+02201+01501999999ADDGA1021+006909029GA2021+027009999GF104991999999999999999999MA1101391999999MW1001REMMET055FMEP 160300Z 05003KT 9999 FEW023TCU SCT096 22/15 Q1014;EQDQ01+000000PRSWM2
0139619840999992000111604004-21320+055480FM-15+0053FMEP V0201701N003612200019N0112651N1+02501+01801999999ADDGA1021+009309999GF102991999999999999999999MA1101391999999MW1001REMMET045FMEP 160400Z 17007KT 9999 FEW031 25/18 Q1014;EQDQ01+000000PRSWM2
0147619840999992000111605004-21320+055480FM-15+0053FMEP V0201501N004112200019N0112651N1+02601+01701999999ADDGA1021+009309999GF102991999999999999999999MA1101391999999MW1001REMMET053FMEP 160500Z 15008KT 100V200 9999 FEW031 26/17 Q1014;EQDQ01+000000PRSWM2
0139619840999992000111606004-21320+055480FM-15+0053FMEP V0201401N008712200019N0112651N1+02701+01801999999ADDGA1021+009009999GF102991999999999999999999MA1101391999999MW1001REMMET045FMEP 160600Z 14017KT 9999 FEW030 27/18 Q1014;EQDQ01+000000PRSWM2
0139619840999992000111607004-21320+055480FM-15+0053FMEP V0201401N008212200019N0112651N1+02801+01801999999ADDGA1021+009009999GF102991999999999999999999MA1101291999999MW1001REMMET045FMEP 160700Z 14016KT 9999 FEW030 28/18 Q1013;EQDQ01+000000PRSWM2
0139619840999992000111608004-21320+055480FM-15+0053FMEP V0201401N006212200019N0112651N1+02801+01701999999ADDGA1021+010509999GF102991999999999999999999MA1101291999999MW1001REMMET045FMEP 160800Z 14012KT 9999 FEW035 28/17 Q1013;EQDQ01+000000PRSWM2
0170619840999992000111609004-21320+055480FM-15+0053FMEP V0201501N002612200019N0112651N1+02701+01601999999ADDGA1021+010509999GA2021+030009999GF104991999999999999999999MA1101191999999MW1001REMMET060FMEP 160900Z 15005KT 080V230 9999 FEW035 SCT100 27/16 Q1012;EQDQ01+000000PRSWM2
0162619840999992000111610004-21320+055480FM-15+0053FMEP V0201401N008212200019N0112651N1+02701+01801999999ADDGA1021+010509999GA2021+042009999GF104991999999999999999999MA1101191999999MW1001REMMET052FMEP 161000Z 14016KT 9999 FEW035 SCT140 27/18 Q1012;EQDQ01+000000PRSWM2
0162619840999992000111611004-21320+055480FM-15+0053FMEP V0201301N007712200019N0112651N1+02801+01801999999ADDGA1021+010509999GA2021+042009999GF104991999999999999999999MA1101081999999MW1001REMMET052FMEP 161100Z 13015KT 9999 FEW035 SCT140 28/18 Q1011;EQDQ01+000000PRSWM2
0162619840999992000111612004-21320+055480FM-15+0053FMEP V0201301N008212200019N0112651N1+02601+01801999999ADDGA1021+010509999GA2021+042009999GF104991999999999999999999MA1101081999999MW1001REMMET052FMEP 161200Z 13016KT 9999 FEW035 SCT140 26/18 Q1011;EQDQ01+000000PRSWM2
0162619840999992000111613004-21320+055480FM-15+0053FMEP V0201401N005712200019N0112651N1+02501+01801999999ADDGA1021+010509999GA2021+042009999GF104991999999999999999999MA1101081999999MW1001REMMET052FMEP 161300Z 14011KT 9999 FEW035 SCT140 25/18 Q1011;EQDQ01+000000PRSWM2
0139619840999992000111703004-21320+055480FM-15+0053FMEP V0200301N001512200019N0112651N1+02401+01601999999ADDGA1021+009909999GF102991999999999999999999MA1101191999999MW1001REMMET045FMEP 170300Z 03003KT 9999 FEW033 24/16 Q1012;EQDQ01+000000PRSWM2
0162619840999992000111704004-21320+055480FM-15+0053FMEP V0202001N001512200019N0112651N1+02501+01701999999ADDGA1021+009909999GA2021+024009999GF104991999999999999999999MA1101191999999MW1001REMMET052FMEP 170400Z 20003KT 9999 FEW033 SCT083 25/17 Q1012;EQDQ01+000000PRSWM2
0170619840999992000111705004-21320+055480FM-15+0053FMEP V0202001N002112200019N0112651N1+02601+01701999999ADDGA1021+009909999GA2021+060009999GF104991999999999999999999MA1101191999999MW1001REMMET060FMEP 170500Z 20004KT 150V250 9999 FEW033 SCT200 26/17 Q1012;EQDQ01+000000PRSWM2
0170619840999992000111706004-21320+055480FM-15+0053FMEP V0202001N003112200019N0112651N1+02601+01801999999ADDGA1021+009909999GA2021+060009999GF104991999999999999999999MA1101191999999MW1001REMMET060FMEP 170600Z 20006KT 170V250 9999 FEW033 SCT200 26/18 Q1012;EQDQ01+000000PRSWM2
0150619840999992000111707004-21320+055480FM-15+0053FMEP V0202001N003112200019N0112651N1+02701+01801999999ADDGA1021+009309029GF102991999999999999999999MA1101191999999MW1001REMMET056FMEP 170700Z 20006KT 170V240 9999 FEW031TCU 27/18 Q1012;EQDQ01+000000PRSWM2
0150619840999992000111708004-21320+055480FM-15+0053FMEP V0202001N003112200019N0112651N1+02701+01801999999ADDGA1021+007509029GF102991999999999999999999MA1101081999999MW1001REMMET056FMEP 170800Z 20006KT 140V250 9999 FEW025TCU 27/18 Q1011;EQDQ01+000000PRSWM2
0150619840999992000111709004-21320+055480FM-15+0053FMEP V0201701N003612200019N0112651N1+02701+01801999999ADDGA1021+007509029GF102991999999999999999999MA1101081999999MW1001REMMET056FMEP 170900Z 17007KT 130V200 9999 FEW025TCU 27/18 Q1011;EQDQ01+000000PRSWM2
0142619840999992000111710004-21320+055480FM-15+0053FMEP V0201801N004112200019N0112651N1+02701+01701999999ADDGA1021+007509029GF102991999999999999999999MA1101021999999MW1001REMMET048FMEP 171000Z 18008KT 9999 FEW025TCU 27/17 Q1010;EQDQ01+000000PRSWM2
0142619840999992000111711004-21320+055480FM-15+0053FMEP V0201601N004612200019N0112651N1+02701+01701999999ADDGA1021+007509029GF102991999999999999999999MA1101021999999MW1001REMMET048FMEP 171100Z 16009KT 9999 FEW025TCU 27/17 Q1010;EQDQ01+000000PRSWM2
0150619840999992000111712004-21320+055480FM-15+0053FMEP V0201501N004112200019N0112651N1+02701+01701999999ADDGA1021+007509029GF102991999999999999999999MA1100911999999MW1001REMMET056FMEP 171200Z 15008KT 110V190 9999 FEW025TCU 27/17 Q1009;EQDQ01+000000PRSWM2
0147619840999992000111713004-21320+055480FM-15+0053FMEP V0201501N003112200019N0112651N1+02601+01601999999ADDGA1021+007509999GF102991999999999999999999MA1100911999999MW1001REMMET053FMEP 171300Z 15006KT 110V190 9999 FEW025 26/16 Q1009;EQDQ01+000000PRSWM2
0091619840999992000111803004-21320+055480FM-15+0053FMEP V0200501N00261220001CN0099001N1+02401+01301999999ADDMA1101021999999MW1001REMMET039FMEP 180300Z 05005KT CAVOK 24/13 Q1010;EQDQ01+000000PRSWM2
0185619840999992000111804004-21320+055480FM-15+0053FMEP V0202101N002110900019N0112651N1+02601+01501999999ADDGA1021+009909999GA2021+039009999GA3071+090009999GF107991999999999999999999MA1101021999999MW1001REMMET059FMEP 180400Z 21004KT 9999 FEW033 SCT130 BKN330 26/15 Q1010;EQDQ01+000000PRSWM2
0185619840999992000111805004-21320+055480FM-15+0053FMEP V0202601N003110900019N0112651N1+02701+01601999999ADDGA1021+009909999GA2021+039009999GA3071+090009999GF107991999999999999999999MA1101021999999MW1001REMMET059FMEP 180500Z 26006KT 9999 FEW033 SCT130 BKN330 27/16 Q1010;EQDQ01+000000PRSWM2
0185619840999992000111806004-21320+055480FM-15+0053FMEP V0202501N003110900019N0112651N1+02601+01701999999ADDGA1021+009009999GA2021+039009999GA3071+090009999GF107991999999999999999999MA1101021999999MW1001REMMET059FMEP 180600Z 25006KT 9999 FEW030 SCT130 BKN330 26/17 Q1010;EQDQ01+000000PRSWM2
0185619840999992000111807004-21320+055480FM-15+0053FMEP V0202301N003110390019N0112651N1+02701+01701999999ADDGA1021+009009999GA2071+039009999GA3071+090009999GF107991999999999999999999MA1101021999999MW1001REMMET059FMEP 180700Z 23006KT 9999 FEW030 BKN130 BKN330 27/17 Q1010;EQDQ01+000000PRSWM2
0162619840999992000111808004-21320+055480FM-15+0053FMEP V0202201N003612200019N0112651N1+02801+01801999999ADDGA1021+009009999GA2021+039009999GF104991999999999999999999MA1101021999999MW1001REMMET052FMEP 180800Z 22007KT 9999 FEW030 SCT130 28/18 Q1010;EQDQ01+000000PRSWM2
0170619840999992000111809004-21320+055480FM-15+0053FMEP V0202101N003110420019N0112651N1+02801+01601999999ADDGA1021+008409999GA2071+042009999GF107991999999999999999999MA1100911999999MW1001REMMET060FMEP 180900Z 21006KT 170V250 9999 FEW028 BKN140 28/16 Q1009;EQDQ01+000000PRSWM2
0185619840999992000111810004-21320+055480FM-15+0053FMEP V0202101N003110420019N0112651N1+02701+01801999999ADDGA1021+008409999GA2021+015009999GA3071+042009999GF107991999999999999999999MA1100911999999MW1001REMMET059FMEP 181000Z 21006KT 9999 FEW028 SCT053 BKN140 27/18 Q1009;EQDQ01+000000PRSWM2
0185619840999992000111811004-21320+055480FM-15+0053FMEP V0202401N003110420019N0112651N1+02701+01901999999ADDGA1021+003909999GA2021+018009999GA3071+042009999GF107991999999999999999999MA1100911999999MW1001REMMET059FMEP 181100Z 24006KT 9999 FEW013 SCT063 BKN140 27/19 Q1009;EQDQ01+000000PRSWM2
0185619840999992000111812004-21320+055480FM-15+0053FMEP V0202101N002610150019N0112651N1+02601+01901999999ADDGA1021+003909999GA2071+015009999GA3071+042009999GF107991999999999999999999MA1100911999999MW1001REMMET059FMEP 181200Z 21005KT 9999 FEW013 BKN050 BKN140 26/19 Q1009;EQDQ01+000000PRSWM2
0185619840999992000111813004-21320+055480FM-15+0053FMEP V0201601N003110150019N0112651N1+02601+01801999999ADDGA1021+003309999GA2071+015009999GA3071+042009999GF107991999999999999999999MA1100911999999MW1001REMMET059FMEP 181300Z 16006KT 9999 SCT011 BKN050 BKN140 26/18 Q1009;EQDQ01+000000PRSWM2
0185619840999992000111903004-21320+055480FM-15+0053FMEP V0200801N002110300019N0112651N1+02301+01701999999ADDGA1021+009009999GA2021+018009999GA3071+030009999GF107991999999999999999999MA1101291999999MW1001REMMET059FMEP 190300Z 08004KT 9999 FEW030 SCT060 BKN100 23/17 Q1013;EQDQ01+000000PRSWM2
0165619840999992000111904004-21320+055480FM-15+0053FMEP V0201401N007212200019N0112651N1+02501+01901999999ADDGA1021+009009029GA2021+018009999GF104991999999999999999999MA1101291999999MW1001REMMET055FMEP 190400Z 14014KT 9999 FEW030TCU SCT060 25/19 Q1013;EQDQ01+000000PRSWM2
0162619840999992000111905004-21320+055480FM-15+0053FMEP V0201401N007212200019N0112651N1+02601+01901999999ADDGA1021+009009999GA2021+018009999GF104991999999999999999999MA1101291999999MW1001REMMET052FMEP 190500Z 14014KT 9999 FEW030 SCT060 26/19 Q1013;EQDQ01+000000PRSWM2
0165619840999992000111906004-21320+055480FM-15+0053FMEP V0201501N008712200019N0112651N1+02801+01901999999ADDGA1021+007509029GA2021+039009999GF104991999999999999999999MA1101391999999MW1001REMMET055FMEP 190600Z 15017KT 9999 FEW025TCU SCT130 28/19 Q1014;EQDQ01+000000PRSWM2
0142619840999992000111907004-21320+055480FM-15+0053FMEP V0201501N007712200019N0112651N1+02801+01801999999ADDGA1021+007509029GF102991999999999999999999MA1101391999999MW1001REMMET048FMEP 190700Z 15015KT 9999 FEW025TCU 28/18 Q1014;EQDQ01+000000PRSWM2
0142619840999992000111908004-21320+055480FM-15+0053FMEP V0201501N008712200019N0112651N1+02801+01901999999ADDGA1021+007509029GF102991999999999999999999MA1101391999999MW1001REMMET048FMEP 190800Z 15017KT 9999 FEW025TCU 28/19 Q1014;EQDQ01+000000PRSWM2
0142619840999992000111909004-21320+055480FM-15+0053FMEP V0201501N011812200019N0112651N1+02701+02001999999ADDGA1021+007509029GF104991999999999999999999MA1101391999999MW1001REMMET048FMEP 190900Z 15023KT 9999 SCT025TCU 27/20 Q1014;EQDQ01+000000PRSWM2
0142619840999992000111910004-21320+055480FM-15+0053FMEP V0201301N011812200019N0112651N1+02701+01901999999ADDGA1021+007509029GF104991999999999999999999MA1101291999999MW1001REMMET048FMEP 191000Z 13023KT 9999 SCT025TCU 27/19 Q1013;EQDQ01+000000PRSWM2
0186619840999992000111912004-21320+055480FM-15+0053FMEP V0201301N012312200019N0080001N1+02501+01901999999ADDGA1021+007509029GA2021+015009999GF104991999999999999999999MA1101391999999MW1161REMMET060FMEP 191200Z 13024KT 8000 VCSH FEW025TCU SCT050 25/19 Q1014;EQDQ01+000003PRSWM1Q02    003PRSWM1
0194619840999992000111913004-21320+055480FM-15+0053FMEP V0201301N011812200019N0080001N1+02501+02001999999ADDGA1021+007509999GA2021+015009999GF104991999999999999999999MA1101391999999MW1161OC101701REMMET060FMEP 191300Z 13023G33KT 8000 VCSH FEW025 SCT050 25/20 Q1014;EQDQ01+000003PRSWM1Q02    003PRSWM1
0162619840999992000112004004-21320+055480FM-15+0053FMEP V0201201N010812200019N0112651N1+02501+01701999999ADDGA1021+003909999GA2021+013809999GF104991999999999999999999MA1101801999999MW1001REMMET052FMEP 200400Z 12021KT 9999 FEW013 SCT046 25/17 Q1018;EQDQ01+000000PRSWM2
0173619840999992000112005004-21320+055480FM-15+0053FMEP V0201201N011812200019N0112651N1+02601+01601999999ADDGA1021+003909999GA2021+013809999GF104991999999999999999999MA1101801999999MW1001OC101701REMMET055FMEP 200500Z 12023G33KT 9999 FEW013 SCT046 26/16 Q1018;EQDQ01+000000PRSWM2
0162619840999992000112006004-21320+055480FM-15+0053FMEP V0201301N012312200019N0112651N1+02701+01501999999ADDGA1021+003909999GA2021+036009999GF104991999999999999999999MA1101801999999MW1001REMMET052FMEP 200600Z 13024KT 9999 FEW013 SCT120 27/15 Q1018;EQDQ01+000000PRSWM2
0162619840999992000112007004-21320+055480FM-15+0053FMEP V0201301N012912200019N0112651N1+02701+01601999999ADDGA1021+012009999GA2021+090009999GF104991999999999999999999MA1101801999999MW1001REMMET052FMEP 200700Z 13025KT 9999 FEW040 SCT300 27/16 Q1018;EQDQ01+000000PRSWM2
0162619840999992000112008004-21320+055480FM-15+0053FMEP V0201401N013912200019N0112651N1+02701+01601999999ADDGA1021+012909999GA2021+090009999GF104991999999999999999999MA1101691999999MW1001REMMET052FMEP 200800Z 14027KT 9999 FEW043 SCT300 27/16 Q1017;EQDQ01+000000PRSWM2
0162619840999992000112010004-21320+055480FM-15+0053FMEP V0201301N014412200019N0112651N1+02701+01601999999ADDGA1021+013809999GA2021+090009999GF104991999999999999999999MA1101491999999MW1001REMMET052FMEP 201000Z 13028KT 9999 FEW046 SCT300 27/16 Q1015;EQDQ01+000000PRSWM2
0162619840999992000112011004-21320+055480FM-15+0053FMEP V0201301N015412200019N0112651N1+02601+01801999999ADDGA1021+015009999GA2021+090009999GF104991999999999999999999MA1101491999999MW1001REMMET052FMEP 201100Z 13030KT 9999 FEW050 SCT300 26/18 Q1015;EQDQ01+000000PRSWM2
0173619840999992000112012004-21320+055480FM-15+0053FMEP V0201301N014912200019N0112651N1+02501+01601999999ADDGA1021+015009999GA2021+090009999GF104991999999999999999999MA1101391999999MW1001OC102011REMMET055FMEP 201200Z 13029G39KT 9999 FEW050 SCT300 25/16 Q1014;EQDQ01+000000PRSWM2
0162619840999992000112013004-21320+055480FM-15+0053FMEP V0201301N014910900019N0112651N1+02501+01501999999ADDGA1021+015009999GA2071+090009999GF107991999999999999999999MA1101491999999MW1001REMMET052FMEP 201300Z 13029KT 9999 FEW050 BKN330 25/15 Q1015;EQDQ01+000000PRSWM2
0185619840999992000112103004-21320+055480FM-15+0053FMEP V0201201N008210300019N0112651N1+02301+01701999999ADDGA1021+009909999GA2021+018009999GA3071+030009999GF107991999999999999999999MA1101801999999MW1001REMMET059FMEP 210300Z 12016KT 9999 FEW033 SCT060 BKN100 23/17 Q1018;EQDQ01+000000PRSWM2
0162619840999992000112104004-21320+055480FM-15+0053FMEP V0201201N009812200019N0112651N1+02401+01601999999ADDGA1021+009309999GA2021+018009999GF104991999999999999999999MA1101801999999MW1001REMMET052FMEP 210400Z 12019KT 9999 FEW031 SCT060 24/16 Q1018;EQDQ01+000000PRSWM2
0162619840999992000112105004-21320+055480FM-15+0053FMEP V0201301N009812200019N0112651N1+02601+01701999999ADDGA1021+009309999GA2021+060009999GF104991999999999999999999MA1101801999999MW1001REMMET052FMEP 210500Z 13019KT 9999 FEW031 SCT200 26/17 Q1018;EQDQ01+000000PRSWM2
0173619840999992000112106004-21320+055480FM-15+0053FMEP V0201301N010812200019N0112651N1+02601+01601999999ADDGA1021+009309999GA2021+060009999GF104991999999999999999999MA1101801999999MW1001OC101651REMMET055FMEP 210600Z 13021G32KT 9999 FEW031 SCT200 26/16 Q1018;EQDQ01+000000PRSWM2
0162619840999992000112107004-21320+055480FM-15+0053FMEP V0201301N012910180019N0112651N1+02601+01701999999ADDGA1021+009309999GA2071+018009999GF107991999999999999999999MA1101801999999MW1001REMMET052FMEP 210700Z 13025KT 9999 FEW031 BKN060 26/17 Q1018;EQDQ01+000000PRSWM2
0162619840999992000112108004-21320+055480FM-15+0053FMEP V0201401N011810180019N0112651N1+02701+01601999999ADDGA1021+009309999GA2071+018009999GF107991999999999999999999MA1101691999999MW1001REMMET052FMEP 210800Z 14023KT 9999 FEW031 BKN060 27/16 Q1017;EQDQ01+000000PRSWM2
0162619840999992000112109004-21320+055480FM-15+0053FMEP V0201301N011810180019N0112651N1+02701+01601999999ADDGA1021+009309999GA2071+018009999GF107991999999999999999999MA1101591999999MW1001REMMET052FMEP 210900Z 13023KT 9999 FEW031 BKN060 27/16 Q1016;EQDQ01+000000PRSWM2
0179619840999992000112110004-21320+055480FM-15+0053FMEP V0201301N010310150019N0112651N1+02601+01701999999ADDGA1021+007509999GA2071+015009999GF107991999999999999999999MW1001OC101651REMMET076FMEP 211000Z 13020G32KT 080V160 9999 FEW025 BKN050 26/17 9999 FEW025 BKN050;EQDQ01+000000PRSWM2
0162619840999992000112112004-21320+055480FM-15+0053FMEP V0201301N010812200019N0112651N1+02501+01701999999ADDGA1021+007509999GA2021+015009999GF104991999999999999999999MA1101391999999MW1001REMMET052FMEP 211200Z 13021KT 9999 FEW025 SCT050 25/17 Q1014;EQDQ01+000000PRSWM2
0139619840999992000112113004-21320+055480FM-15+0053FMEP V0201301N011812200019N0112651N1+02501+01701999999ADDGA1021+007509999GF102991999999999999999999MA1101391999999MW1001REMMET045FMEP 211300Z 13023KT 9999 FEW025 25/17 Q1014;EQDQ01+000000PRSWM2
0139619840999992000112114004-21320+055480FM-15+0053FMEP V0201301N010312200019N0112651N1+02401+01601999999ADDGA1021+007509999GF102991999999999999999999MA1101491999999MW1001REMMET045FMEP 211400Z 13020KT 9999 FEW025 24/16 Q1015;EQDQ01+000000PRSWM2
0162619840999992000112203004-21320+055480FM-15+0053FMEP V0200301N002110360019N0112651N1+02301+01401999999ADDGA1021+012009999GA2071+036009999GF107991999999999999999999MA1101691999999MW1001REMMET052FMEP 220300Z 03004KT 9999 FEW040 BKN120 23/14 Q1017;EQDQ01+000000PRSWM2
0162619840999992000112205004-21320+055480FM-15+0053FMEP V0201401N005110360019N0112651N1+02701+01701999999ADDGA1021+012009999GA2071+036009999GF107991999999999999999999MA1101691999999MW1001REMMET052FMEP 220500Z 14010KT 9999 FEW040 BKN120 27/17 Q1017;EQDQ01+000000PRSWM2
0170619840999992000112206004-21320+055480FM-15+0053FMEP V0201401N007712200019N0112651N1+02701+01701999999ADDGA1021+010809999GA2021+036009999GF104991999999999999999999MA1101691999999MW1001REMMET060FMEP 220600Z 14015KT 100V170 9999 FEW036 SCT120 27/17 Q1017;EQDQ01+000000PRSWM2
0139619840999992000112207004-21320+055480FM-15+0053FMEP V0201401N009812200019N0112651N1+02801+01801999999ADDGA1021+009609999GF102991999999999999999999MA1101691999999MW1001REMMET045FMEP 220700Z 14019KT 9999 FEW032 28/18 Q1017;EQDQ01+000000PRSWM2
0139619840999992000112208004-21320+055480FM-15+0053FMEP V0201301N009312200019N0112651N1+02701+01801999999ADDGA1021+009609999GF102991999999999999999999MA1101591999999MW1001REMMET045FMEP 220800Z 13018KT 9999 FEW032 27/18 Q1016;EQDQ01+000000PRSWM2
0162619840999992000112209004-21320+055480FM-15+0053FMEP V0201401N010812200019N0112651N1+02801+01701999999ADDGA1021+009609999GA2021+030009999GF104991999999999999999999MA1101491999999MW1001REMMET052FMEP 220900Z 14021KT 9999 FEW032 SCT100 28/17 Q1015;EQDQ01+000000PRSWM2
0162619840999992000112210004-21320+055480FM-15+0053FMEP V0201301N011312200019N0112651N1+02701+01901999999ADDGA1021+010509999GA2021+030009999GF104991999999999999999999MA1101491999999MW1001REMMET052FMEP 221000Z 13022KT 9999 FEW035 SCT100 27/19 Q1015;EQDQ01+000000PRSWM2
0162619840999992000112211004-21320+055480FM-15+0053FMEP V0201301N011312200019N0112651N1+02701+01901999999ADDGA1021+010509999GA2021+030009999GF104991999999999999999999MA1101391999999MW1001REMMET052FMEP 221100Z 13022KT 9999 FEW035 SCT100 27/19 Q1014;EQDQ01+000000PRSWM2
0162619840999992000112212004-21320+055480FM-15+0053FMEP V0201301N010312200019N0112651N1+02701+01801999999ADDGA1021+010809999GA2021+042009999GF104991999999999999999999MA1101391999999MW1001REMMET052FMEP 221200Z 13020KT 9999 FEW036 SCT140 27/18 Q1014;EQDQ01+000000PRSWM2
0162619840999992000112213004-21320+055480FM-15+0053FMEP V0201301N010812200019N0112651N1+02601+01901999999ADDGA1021+009909999GA2021+033009999GF104991999999999999999999MA1101391999999MW1001REMMET052FMEP 221300Z 13021KT 9999 FEW033 SCT110 26/19 Q1014;EQDQ01+000000PRSWM2
0162619840999992000112303004-21320+055480FM-15+0053FMEP V0203501N001512200019N0112651N1+02401+01401999999ADDGA1021+010809999GA2021+030009999GF104991999999999999999999MA1101691999999MW1001REMMET052FMEP 230300Z 35003KT 9999 FEW036 SCT100 24/14 Q1017;EQDQ01+000000PRSWM2
0170619840999992000112304004-21320+055480FM-15+0053FMEP V0202501N002112200019N0112651N1+02601+01601999999ADDGA1021+010809999GA2021+030009999GF104991999999999999999999MA1101801999999MW1001REMMET060FMEP 230400Z 25004KT 210V290 9999 FEW036 SCT100 26/16 Q1018;EQDQ01+000000PRSWM2
0139619840999992000112305004-21320+055480FM-15+0053FMEP V0202001N003112200019N0112651N1+02601+01701999999ADDGA1021+010809999GF102991999999999999999999MA1101801999999MW1001REMMET045FMEP 230500Z 20006KT 9999 FEW036 26/17 Q1018;EQDQ01+000000PRSWM2
0147619840999992000112306004-21320+055480FM-15+0053FMEP V0201901N002612200019N0112651N1+02801+01601999999ADDGA1021+010809999GF102991999999999999999999MA1101801999999MW1001REMMET053FMEP 230600Z 19005KT 140V270 9999 FEW036 28/16 Q1018;EQDQ01+000000PRSWM2
0139619840999992000112307004-21320+055480FM-15+0053FMEP V0201501N006212200019N0112651N1+02801+01801999999ADDGA1021+009009999GF102991999999999999999999MA1101691999999MW1001REMMET045FMEP 230700Z 15012KT 9999 FEW030 28/18 Q1017;EQDQ01+000000PRSWM2
0139619840999992000112308004-21320+055480FM-15+0053FMEP V0201601N003612200019N0112651N1+02801+01701999999ADDGA1021+009009999GF102991999999999999999999MA1101691999999MW1001REMMET045FMEP 230800Z 16007KT 9999 FEW030 28/17 Q1017;EQDQ01+000000PRSWM2
0170619840999992000112309004-21320+055480FM-15+0053FMEP V0201501N006712200019N0112651N1+02901+01801999999ADDGA1021+009009999GA2021+018009999GF104991999999999999999999MA1101591999999MW1001REMMET060FMEP 230900Z 15013KT 120V200 9999 FEW030 SCT060 29/18 Q1016;EQDQ01+000000PRSWM2
0162619840999992000112310004-21320+055480FM-15+0053FMEP V0201301N009312200019N0112651N1+02701+01901999999ADDGA1021+009009999GA2021+018009999GF104991999999999999999999MA1101591999999MW1001REMMET052FMEP 231000Z 13018KT 9999 FEW030 SCT060 27/19 Q1016;EQDQ01+000000PRSWM2
0162619840999992000112311004-21320+055480FM-15+0053FMEP V0201301N009812200019N0112651N1+02701+02001999999ADDGA1021+007809999GA2021+015009999GF104991999999999999999999MA1101491999999MW1001REMMET052FMEP 231100Z 13019KT 9999 FEW026 SCT050 27/20 Q1015;EQDQ01+000000PRSWM2
0162619840999992000112312004-21320+055480FM-15+0053FMEP V0201301N010312200019N0112651N1+02701+02001999999ADDGA1021+007809999GA2021+015009999GF104991999999999999999999MA1101491999999MW1001REMMET052FMEP 231200Z 13020KT 9999 FEW026 SCT050 27/20 Q1015;EQDQ01+000000PRSWM2
0162619840999992000112313004-21320+055480FM-15+0053FMEP V0201301N009312200019N0112651N1+02501+01901999999ADDGA1021+007809999GA2021+015009999GF104991999999999999999999MA1101491999999MW1001REMMET052FMEP 231300Z 13018KT 9999 FEW026 SCT050 25/19 Q1015;EQDQ01+000000PRSWM2
0196619840999992000112403004-21320+055480FM-15+0053FMEP V0200301N001510360019N0112651N1+02201+01901999999ADDGA1021+003909029GA2021+015009999GA3071+036009999GF107991999999999999999999MW1001REMMET085FMEP 240300Z 03003KT 9999 FEW013TCU SCT050 BKN120 22/19 9999 FEW013TCU SCT050 BKN120;EQDQ01+000000PRSWM2
0196619840999992000112404004-21320+055480FM-15+0053FMEP V0201601N003110360019N0112651N1+02401+01901999999ADDGA1021+003909029GA2021+012909999GA3071+036009999GF107991999999999999999999MW1001REMMET085FMEP 240400Z 16006KT 9999 FEW013TCU SCT043 BKN120 24/19 9999 FEW013TCU SCT043 BKN120;EQDQ01+000000PRSWM2
0165619840999992000112405004-21320+055480FM-15+0053FMEP V0201501N004612200019N0112651N1+02601+01901999999ADDGA1021+003309029GA2021+012009999GF104991999999999999999999MA1101691999999MW1001REMMET055FMEP 240500Z 15009KT 9999 FEW011TCU SCT040 26/19 Q1017;EQDQ01+000000PRSWM2
0174619840999992000112406004-21320+055480FM-15+0053FMEP V0202701N003112200019N0112651N1+02701+02001999999ADDGA1021+003309029GA2021+012909999GF104991999999999999999999MW1001REMMET079FMEP 240600Z 27006KT 230V310 9999 FEW011TCU SCT043 27/20 9999 FEW011TCU SCT043;EQDQ01+000000PRSWM2
0198619840999992000112407004-21320+055480FM-15+0053FMEP V0201701N003610330019N0112651N1+99999+99999999999ADDGA1021+003309029GA2021+012009999GA3071+033009999GF107991999999999999999999MW1001REMMET087FMEP 240700Z 17007KT 120V200 9999 SCT011TCU SCT040 BKN110 9999 SCT011TCU SCT040 BKN110;EQDQ01+000000PRSWM2
0178619840999992000112408004-21320+055480FM-15+0053FMEP V0202801N003112200019N0080001N1+99999+99999999999ADDGA1021+000909999GA2021+003309029GF104991999999999999999999MA1101591999999MW1001MW2161REMMET062FMEP 240800Z 28006KT 250V340 8000 VCSH FEW003 SCT011TCU Q1016;EQDQ01+000003PRSWM1
0198619840999992000112409004-21320+055480FM-15+0053FMEP V0203001N003610330019N0112651N1+99999+99999999999ADDGA1021+003909029GA2021+012009999GA3071+033009999GF107991999999999999999999MW1001REMMET087FMEP 240900Z 30007KT 260V340 9999 SCT013TCU SCT040 BKN110 9999 SCT013TCU SCT040 BKN110;EQDQ01+000000PRSWM2
0196619840999992000112410004-21320+055480FM-15+0053FMEP V0202601N003610360019N0112651N1+02901+01801999999ADDGA1021+005409029GA2021+015009999GA3071+036009999GF107991999999999999999999MW1001REMMET085FMEP 241000Z 26007KT 9999 SCT018TCU SCT050 BKN120 29/18 9999 SCT018TCU SCT050 BKN120;EQDQ01+000000PRSWM2
0170619840999992000112411004-21320+055480FM-15+0053FMEP V0202401N002610360019N0112651N1+02801+01901999999ADDGA1021+005409999GA2071+036009999GF107991999999999999999999MA1101491999999MW1001REMMET060FMEP 241100Z 24005KT 210V280 9999 SCT018 BKN120 28/19 Q1015;EQDQ01+000000PRSWM2
0170619840999992000112412004-21320+055480FM-15+0053FMEP V0201601N003612200019N0112651N1+02801+02001999999ADDGA1021+010509999GA2021+036009999GF104991999999999999999999MA1101391999999MW1001REMMET060FMEP 241200Z 16007KT 110V220 9999 FEW035 SCT120 28/20 Q1014;EQDQ01+000000PRSWM2
0162619840999992000112413004-21320+055480FM-15+0053FMEP V0201401N005110270019N0112651N1+02701+02001999999ADDGA1021+010509999GA2081+027009999GF108991999999999999999999MA1101491999999MW1001REMMET052FMEP 241300Z 14010KT 9999 FEW035 OVC096 27/20 Q1015;EQDQ01+000000PRSWM2
0139619840999992000112503004-21320+055480FM-15+0053FMEP V0200401N001012200019N0112651N1+02601+01901999999ADDGA1021+018009999GF102991999999999999999999MA1101591999999MW1001REMMET045FMEP 250300Z 04002KT 9999 FEW060 26/19 Q1016;EQDQ01+000000PRSWM2
0139619840999992000112504004-21320+055480FM-15+0053FMEP V0201401N003612200019N0112651N1+02701+01901999999ADDGA1021+018009999GF102991999999999999999999MA1101591999999MW1001REMMET045FMEP 250400Z 14007KT 9999 FEW060 27/19 Q1016;EQDQ01+000000PRSWM2
0139619840999992000112505004-21320+055480FM-15+0053FMEP V0201601N003612200019N0112651N1+02801+02001999999ADDGA1021+012009999GF102991999999999999999999MA1101591999999MW1001REMMET045FMEP 250500Z 16007KT 9999 FEW040 28/20 Q1016;EQDQ01+000000PRSWM2
0147619840999992000112506004-21320+055480FM-15+0053FMEP V0201701N003612200019N0112651N1+02901+02001999999ADDGA1021+009009999GF102991999999999999999999MA1101691999999MW1001REMMET053FMEP 250600Z 17007KT 130V210 9999 FEW030 29/20 Q1017;EQDQ01+000000PRSWM2
0147619840999992000112507004-21320+055480FM-15+0053FMEP V0201901N003112200019N0112651N1+02901+02001999999ADDGA1021+009009999GF102991999999999999999999MA1101691999999MW1001REMMET053FMEP 250700Z 19006KT 160V230 9999 FEW030 29/20 Q1017;EQDQ01+000000PRSWM2
0162619840999992000112508004-21320+055480FM-15+0053FMEP V0202301N003112200019N0112651N1+02801+02001999999ADDGA1021+009009999GA2021+024009999GF104991999999999999999999MA1101591999999MW1001REMMET052FMEP 250800Z 23006KT 9999 FEW030 SCT083 28/20 Q1016;EQDQ01+000000PRSWM2
0170619840999992000112509004-21320+055480FM-15+0053FMEP V0202201N002610240019N0112651N1+02801+02101999999ADDGA1021+009009999GA2071+024009999GF107991999999999999999999MA1101591999999MW1001REMMET060FMEP 250900Z 22005KT 190V270 9999 FEW030 BKN083 28/21 Q1016;EQDQ01+000000PRSWM2
0170619840999992000112510004-21320+055480FM-15+0053FMEP V0202001N002610240019N0112651N1+02801+02101999999ADDGA1021+009009999GA2071+024009999GF107991999999999999999999MA1101591999999MW1001REMMET060FMEP 251000Z 20005KT 150V260 9999 FEW030 BKN083 28/21 Q1016;EQDQ01+000000PRSWM2
0170619840999992000112511004-21320+055480FM-15+0053FMEP V0202101N002110180019N0112651N1+02901+02001999999ADDGA1021+007509999GA2071+018009999GF107991999999999999999999MA1101491999999MW1001REMMET060FMEP 251100Z 21004KT 170V270 9999 FEW025 BKN066 29/20 Q1015;EQDQ01+000000PRSWM2
0170619840999992000112512004-21320+055480FM-15+0053FMEP V0202201N002110180019N0112651N1+02801+02001999999ADDGA1021+007509999GA2071+018009999GF107991999999999999999999MA1101491999999MW1001REMMET060FMEP 251200Z 22004KT 180V250 9999 FEW025 BKN066 28/20 Q1015;EQDQ01+000000PRSWM2
0170619840999992000112513004-21320+055480FM-15+0053FMEP V0201501N003112200019N0112651N1+02801+02001999999ADDGA1021+007509999GA2021+018009999GF104991999999999999999999MA1101491999999MW1001REMMET060FMEP 251300Z 15006KT 120V190 9999 FEW025 SCT066 28/20 Q1015;EQDQ01+000000PRSWM2
0139619840999992000112514004-21320+055480FM-15+0053FMEP V0201401N004112200019N0112651N1+02701+02001999999ADDGA1021+007509999GF102991999999999999999999MA1101491999999MW1001REMMET045FMEP 251400Z 14008KT 9999 FEW025 27/20 Q1015;EQDQ01+000000PRSWM2
0139619840999992000112603004-21320+055480FM-15+0053FMEP V0201201N001012200019N0112651N1+02601+01801999999ADDGA1021+015009999GF102991999999999999999999MA1101691999999MW1001REMMET045FMEP 260300Z 12002KT 9999 FEW050 26/18 Q1017;EQDQ01+000000PRSWM2
0139619840999992000112604004-21320+055480FM-15+0053FMEP V0201501N003612200019N0112651N1+02701+01901999999ADDGA1021+015009999GF102991999999999999999999MA1101691999999MW1001REMMET045FMEP 260400Z 15007KT 9999 FEW050 27/19 Q1017;EQDQ01+000000PRSWM2
0147619840999992000112605004-21320+055480FM-15+0053FMEP V0202101N002612200019N0112651N1+02801+01901999999ADDGA1021+009909999GF102991999999999999999999MA1101691999999MW1001REMMET053FMEP 260500Z 21005KT 170V240 9999 FEW033 28/19 Q1017;EQDQ01+000000PRSWM2
0139619840999992000112606004-21320+055480FM-15+0053FMEP V0202701N005112200019N0112651N1+02901+02001999999ADDGA1021+009909999GF102991999999999999999999MA1101691999999MW1001REMMET045FMEP 260600Z 27010KT 9999 FEW033 29/20 Q1017;EQDQ01+000000PRSWM2
0170619840999992000112607004-21320+055480FM-15+0053FMEP V0202701N004112200019N0112651N1+02901+02001999999ADDGA1021+009909999GA2021+042009999GF104991999999999999999999MA1101691999999MW1001REMMET060FMEP 260700Z 27008KT 240V310 9999 FEW033 SCT140 29/20 Q1017;EQDQ01+000000PRSWM2
0139619840999992000112608004-21320+055480FM-15+0053FMEP V0202501N003612200019N0112651N1+02901+02001999999ADDGA1021+010509999GF102991999999999999999999MA1101591999999MW1001REMMET045FMEP 260800Z 25007KT 9999 FEW035 29/20 Q1016;EQDQ01+000000PRSWM2
0170619840999992000112609004-21320+055480FM-15+0053FMEP V0202301N003112200019N0112651N1+02901+02001999999ADDGA1021+009609999GA2021+036009999GF104991999999999999999999MA1101591999999MW1001REMMET060FMEP 260900Z 23006KT 190V270 9999 FEW032 SCT120 29/20 Q1016;EQDQ01+000000PRSWM2
0170619840999992000112610004-21320+055480FM-15+0053FMEP V0202201N003112200019N0112651N1+02901+01901999999ADDGA1021+009609999GA2021+042009999GF104991999999999999999999MA1101591999999MW1001REMMET060FMEP 261000Z 22006KT 180V260 9999 FEW032 SCT140 29/19 Q1016;EQDQ01+000000PRSWM2
0139619840999992000112611004-21320+055480FM-15+0053FMEP V0201401N006212200019N0112651N1+02901+01901999999ADDGA1021+009609999GF102991999999999999999999MA1101491999999MW1001REMMET045FMEP 261100Z 14012KT 9999 FEW032 29/19 Q1015;EQDQ01+000000PRSWM2
0139619840999992000112612004-21320+055480FM-15+0053FMEP V0201301N008712200019N0112651N1+02801+02001999999ADDGA1021+009009999GF102991999999999999999999MA1101491999999MW1001REMMET045FMEP 261200Z 13017KT 9999 FEW030 28/20 Q1015;EQDQ01+000000PRSWM2
0139619840999992000112613004-21320+055480FM-15+0053FMEP V0201301N011312200019N0112651N1+02701+01901999999ADDGA1021+010809999GF102991999999999999999999MA1101591999999MW1001REMMET045FMEP 261300Z 13022KT 9999 FEW036 27/19 Q1016;EQDQ01+000000PRSWM2
0139619840999992000112614004-21320+055480FM-15+0053FMEP V0201301N011312200019N0112651N1+02501+01901999999ADDGA1021+012009999GF102991999999999999999999MA1101591999999MW1001REMMET045FMEP 261400Z 13022KT 9999 FEW040 25/19 Q1016;EQDQ01+000000PRSWM2
0139619840999992000112615004-21320+055480FM-15+0053FMEP V0201301N010312200019N0112651N1+02501+01801999999ADDGA1021+012009999GF102991999999999999999999MA1101591999999MW1001REMMET045FMEP 261500Z 13020KT 9999 FEW040 25/18 Q1016;EQDQ01+000000PRSWM2
0147619840999992000112704004-21320+055480FM-15+0053FMEP V0201301N003112200019N0112651N1+02601+01901999999ADDGA1021+009909999GF102991999999999999999999MA1101801999999MW1001REMMET053FMEP 270400Z 13006KT 080V180 9999 FEW033 26/19 Q1018;EQDQ01+000000PRSWM2
0139619840999992000112705004-21320+055480FM-15+0053FMEP V0201501N003612200019N0112651N1+02701+01701999999ADDGA1021+009009999GF102991999999999999999999MA1101801999999MW1001REMMET045FMEP 270500Z 15007KT 9999 FEW030 27/17 Q1018;EQDQ01+000000PRSWM2
0170619840999992000112706004-21320+055480FM-15+0053FMEP V0201401N005112200019N0112651N1+02901+01801999999ADDGA1021+009009999GA2021+024009999GF104991999999999999999999MA1101801999999MW1001REMMET060FMEP 270600Z 14010KT 090V170 9999 FEW030 SCT083 29/18 Q1018;EQDQ01+000000PRSWM2
0162619840999992000112707004-21320+055480FM-15+0053FMEP V0201301N008212200019N0112651N1+02701+01901999999ADDGA1021+009009999GA2021+024009999GF104991999999999999999999MA1101801999999MW1001REMMET052FMEP 270700Z 13016KT 9999 FEW030 SCT083 27/19 Q1018;EQDQ01+000000PRSWM2
0162619840999992000112708004-21320+055480FM-15+0053FMEP V0201301N009812200019N0112651N1+02801+01801999999ADDGA1021+007509999GA2021+018009999GF104991999999999999999999MA1101691999999MW1001REMMET052FMEP 270800Z 13019KT 9999 FEW025 SCT066 28/18 Q1017;EQDQ01+000000PRSWM2
0162619840999992000112709004-21320+055480FM-15+0053FMEP V0201301N009812200019N0112651N1+02801+01801999999ADDGA1021+007509999GA2021+018009999GF104991999999999999999999MA1101691999999MW1001REMMET052FMEP 270900Z 13019KT 9999 FEW025 SCT066 28/18 Q1017;EQDQ01+000000PRSWM2
0185619840999992000112710004-21320+055480FM-15+0053FMEP V0201401N008210180019N0112651N1+02601+01901999999ADDGA1021+007509999GA2021+015009999GA3071+018009999GF107991999999999999999999MA1101591999999MW1001REMMET059FMEP 271000Z 14016KT 9999 FEW025 SCT050 BKN066 26/19 Q1016;EQDQ01+000000PRSWM2
0185619840999992000112711004-21320+055480FM-15+0053FMEP V0201301N008210180019N0112651N1+02601+01901999999ADDGA1021+007509999GA2021+015009999GA3071+018009999GF107991999999999999999999MA1101591999999MW1001REMMET059FMEP 271100Z 13016KT 9999 FEW025 SCT050 BKN066 26/19 Q1016;EQDQ01+000000PRSWM2
0185619840999992000112712004-21320+055480FM-15+0053FMEP V0201301N007710180019N0112651N1+02601+01801999999ADDGA1021+007509999GA2021+015009999GA3071+018009999GF107991999999999999999999MA1101591999999MW1001REMMET059FMEP 271200Z 13015KT 9999 FEW025 SCT050 BKN066 26/18 Q1016;EQDQ01+000000PRSWM2
0185619840999992000112713004-21320+055480FM-15+0053FMEP V0201401N008210180019N0112651N1+02501+01901999999ADDGA1021+007509999GA2021+015009999GA3071+018009999GF107991999999999999999999MA1101591999999MW1001REMMET059FMEP 271300Z 14016KT 9999 FEW025 SCT050 BKN066 25/19 Q1016;EQDQ01+000000PRSWM2
0185619840999992000112803004-21320+055480FM-15+0053FMEP V0203501N002610900019N0112651N1+02301+01601999999ADDGA1021+010809999GA2021+042009999GA3071+090009999GF107991999999999999999999MA1101691999999MW1001REMMET059FMEP 280300Z 35005KT 9999 FEW036 SCT140 BKN330 23/16 Q1017;EQDQ01+000000PRSWM2
0185619840999992000112804004-21320+055480FM-15+0053FMEP V0202601N003110900019N0112651N1+02601+01901999999ADDGA1021+012009999GA2021+042009999GA3071+090009999GF107991999999999999999999MA1101691999999MW1001REMMET059FMEP 280400Z 26006KT 9999 FEW040 SCT140 BKN330 26/19 Q1017;EQDQ01+000000PRSWM2
0185619840999992000112805004-21320+055480FM-15+0053FMEP V0202501N003610900019N0112651N1+02701+01801999999ADDGA1021+010509999GA2021+039009999GA3071+090009999GF107991999999999999999999MA1101691999999MW1001REMMET059FMEP 280500Z 25007KT 9999 FEW035 SCT130 BKN330 27/18 Q1017;EQDQ01+000000PRSWM2
0185619840999992000112806004-21320+055480FM-15+0053FMEP V0202601N003610900019N0112651N1+02801+02001999999ADDGA1021+009009999GA2021+039009999GA3071+090009999GF107991999999999999999999MA1101691999999MW1001REMMET059FMEP 280600Z 26007KT 9999 FEW030 SCT130 BKN330 28/20 Q1017;EQDQ01+000000PRSWM2
0162619840999992000112807004-21320+055480FM-15+0053FMEP V0202601N004112200019N0112651N1+02801+02001999999ADDGA1021+009009999GA2021+039009999GF104991999999999999999999MA1101691999999MW1001REMMET052FMEP 280700Z 26008KT 9999 FEW030 SCT130 28/20 Q1017;EQDQ01+000000PRSWM2
0192619840999992000112809004-21320+055480FM-15+0053FMEP V0202101N003610900019N0112651N1+99999+99999999999ADDGA1021+007509999GA2021+012009999GA3071+090009999GF107991999999999999999999MW1001REMMET081FMEP 280900Z 21007KT 170V240 9999 FEW025 SCT040 BKN330 9999 FEW025 SCT040 BKN330;EQDQ01+000000PRSWM2
0195619840999992000112810004-21320+055480FM-15+0053FMEP V0202201N003110900019N0112651N1+02801+01901999999ADDGA1021+006309029GA2021+012009999GA3071+090009999GF107991999999999999999999MW1001REMMET084FMEP 281000Z 22006KT 9999 FEW021TCU SCT040 BKN330 28/19 9999 FEW021TCUSCT040 BKN330;EQDQ01+000000PRSWM2
0165619840999992000112811004-21320+055480FM-15+0053FMEP V0202101N004112200019N0112651N1+02901+01901999999ADDGA1021+004809029GA2021+010809999GF104991999999999999999999MA1101491999999MW1001REMMET055FMEP 281100Z 21008KT 9999 FEW016TCU SCT036 29/19 Q1015;EQDQ01+000000PRSWM2
0150619840999992000112812004-21320+055480FM-15+0053FMEP V0202001N002112200019N0112651N1+02801+01901999999ADDGA1021+004509029GF102991999999999999999999MA1101491999999MW1001REMMET056FMEP 281200Z 20004KT 120V240 9999 FEW015TCU 28/19 Q1015;EQDQ01+000000PRSWM2
0142619840999992000112813004-21320+055480FM-15+0053FMEP V0201401N008212200019N0112651N1+02601+02001999999ADDGA1021+003909029GF104991999999999999999999MA1101491999999MW1001REMMET048FMEP 281300Z 14016KT 9999 SCT013TCU 26/20 Q1015;EQDQ01+000000PRSWM2
0142619840999992000112814004-21320+055480FM-15+0053FMEP V0201301N009312200019N0112651N1+02501+01901999999ADDGA1021+003909029GF104991999999999999999999MA1101491999999MW1001REMMET048FMEP 281400Z 13018KT 9999 SCT013TCU 25/19 Q1015;EQDQ01+000000PRSWM2
0142619840999992000112815004-21320+055480FM-15+0053FMEP V0201301N008212200019N0112651N1+02401+01701999999ADDGA1021+005409029GF102991999999999999999999MA1101591999999MW1001REMMET048FMEP 281500Z 13016KT 9999 FEW018TCU 24/17 Q1016;EQDQ01+000000PRSWM2
0139619840999992000112903004-21320+055480FM-15+0053FMEP V0201201N003112200019N0112651N1+02401+01701999999ADDGA1021+010809999GF102991999999999999999999MA1101691999999MW1001REMMET045FMEP 290300Z 12006KT 9999 FEW036 24/17 Q1017;EQDQ01+000000PRSWM2
0139619840999992000112904004-21320+055480FM-15+0053FMEP V0201401N006712200019N0112651N1+02601+01801999999ADDGA1021+012009999GF102991999999999999999999MA1101691999999MW1001REMMET045FMEP 290400Z 14013KT 9999 FEW040 26/18 Q1017;EQDQ01+000000PRSWM2
0139619840999992000112905004-21320+055480FM-15+0053FMEP V0201501N006712200019N0112651N1+02701+01801999999ADDGA1021+009909999GF102991999999999999999999MA1101691999999MW1001REMMET045FMEP 290500Z 15013KT 9999 FEW033 27/18 Q1017;EQDQ01+000000PRSWM2
0139619840999992000112906004-21320+055480FM-15+0053FMEP V0201501N007212200019N0112651N1+02701+01801999999ADDGA1021+010509999GF102991999999999999999999MA1101691999999MW1001REMMET045FMEP 290600Z 15014KT 9999 FEW035 27/18 Q1017;EQDQ01+000000PRSWM2
0139619840999992000112907004-21320+055480FM-15+0053FMEP V0201501N007212200019N0112651N1+02701+01801999999ADDGA1021+010509999GF102991999999999999999999MA1101591999999MW1001REMMET045FMEP 290700Z 15014KT 9999 FEW035 27/18 Q1016;EQDQ01+000000PRSWM2
0139619840999992000112908004-21320+055480FM-15+0053FMEP V0201501N007712200019N0112651N1+02801+01901999999ADDGA1021+009009999GF102991999999999999999999MA1101591999999MW1001REMMET045FMEP 290800Z 15015KT 9999 FEW030 28/19 Q1016;EQDQ01+000000PRSWM2
0162619840999992000112909004-21320+055480FM-15+0053FMEP V0201401N008712200019N0112651N1+02801+01901999999ADDGA1021+009009999GA2021+027009999GF104991999999999999999999MA1101491999999MW1001REMMET052FMEP 290900Z 14017KT 9999 FEW030 SCT096 28/19 Q1015;EQDQ01+000000PRSWM2
0162619840999992000112910004-21320+055480FM-15+0053FMEP V0201401N008712200019N0112651N1+02801+01901999999ADDGA1021+009009999GA2021+030009999GF104991999999999999999999MA1101491999999MW1001REMMET052FMEP 291000Z 14017KT 9999 FEW030 SCT100 28/19 Q1015;EQDQ01+000000PRSWM2
0162619840999992000112911004-21320+055480FM-15+0053FMEP V0201401N007712200019N0112651N1+02601+02001999999ADDGA1021+009009999GA2021+033009999GF104991999999999999999999MA1101491999999MW1001REMMET052FMEP 291100Z 14015KT 9999 FEW030 SCT110 26/20 Q1015;EQDQ01+000000PRSWM2
0162619840999992000112912004-21320+055480FM-15+0053FMEP V0201401N005712200019N0112651N1+02601+01901999999ADDGA1021+009009999GA2021+036009999GF104991999999999999999999MA1101491999999MW1001REMMET052FMEP 291200Z 14011KT 9999 FEW030 SCT120 26/19 Q1015;EQDQ01+000000PRSWM2
0139619840999992000112913004-21320+055480FM-15+0053FMEP V0201701N004112200019N0112651N1+02701+02001999999ADDGA1021+009009999GF102991999999999999999999MA1101491999999MW1001REMMET045FMEP 291300Z 17008KT 9999 FEW030 27/20 Q1015;EQDQ01+000000PRSWM2
0139619840999992000120203004-21320+055480FM-15+0053FMEP V0200401N001012200019N0112651N1+02601+01601999999ADDGA1021+005409999GF102991999999999999999999MA1101591999999MW1001REMMET045FMEP 020300Z 04002KT 9999 FEW018 26/16 Q1016;EQDQ01+000000PRSWM2
0170619840999992000120204004-21320+055480FM-15+0053FMEP V0201901N002112200019N0112651N1+02701+02001999999ADDGA1021+005409999GA2021+042009999GF104991999999999999999999MA1101591999999MW1001REMMET060FMEP 020400Z 19004KT 140V230 9999 FEW018 SCT140 27/20 Q1016;EQDQ01+000000PRSWM2
0170619840999992000120205004-21320+055480FM-15+0053FMEP V0201901N002610420019N0112651N1+02701+02101999999ADDGA1021+008409999GA2071+042009999GF107991999999999999999999MA1101691999999MW1001REMMET060FMEP 020500Z 19005KT 160V230 9999 FEW028 BKN140 27/21 Q1017;EQDQ01+000000PRSWM2
0162619840999992000120206004-21320+055480FM-15+0053FMEP V0201901N003110420019N0112651N1+02701+02101999999ADDGA1021+008409999GA2071+042009999GF107991999999999999999999MA1101591999999MW1001REMMET052FMEP 020600Z 19006KT 9999 FEW028 BKN140 27/21 Q1016;EQDQ01+000000PRSWM2
0162619840999992000120207004-21320+055480FM-15+0053FMEP V0201801N003610450019N0112651N1+02801+02101999999ADDGA1021+008409999GA2071+045009999GF107991999999999999999999MA1101591999999MW1001REMMET052FMEP 020700Z 18007KT 9999 FEW028 BKN150 28/21 Q1016;EQDQ01+000000PRSWM2
0185619840999992000120208004-21320+055480FM-15+0053FMEP V0201901N004611050019N0112651N1+02901+02101999999ADDGA1021+008409999GA2021+045009999GA3071+105009999GF107991999999999999999999MA1101591999999MW1001REMMET059FMEP 020800Z 19009KT 9999 FEW028 SCT150 BKN360 29/21 Q1016;EQDQ01+000000PRSWM2
0162619840999992000120209004-21320+055480FM-15+0053FMEP V0201701N005110450019N0112651N1+02801+02101999999ADDGA1021+007509999GA2071+045009999GF107991999999999999999999MA1101591999999MW1001REMMET052FMEP 020900Z 17010KT 9999 FEW025 BKN150 28/21 Q1016;EQDQ01+000000PRSWM2
0162619840999992000120210004-21320+055480FM-15+0053FMEP V0201501N005710390019N0112651N1+02801+02101999999ADDGA1021+006909999GA2071+039009999GF107991999999999999999999MA1101491999999MW1001REMMET052FMEP 021000Z 15011KT 9999 FEW023 BKN130 28/21 Q1015;EQDQ01+000000PRSWM2
0162619840999992000120211004-21320+055480FM-15+0053FMEP V0201501N005110390019N0112651N1+02701+02101999999ADDGA1021+006309999GA2071+039009999GF107991999999999999999999MA1101491999999MW1001REMMET052FMEP 021100Z 15010KT 9999 SCT021 BKN130 27/21 Q1015;EQDQ01+000000PRSWM2
0162619840999992000120212004-21320+055480FM-15+0053FMEP V0201501N005110420019N0112651N1+02701+02101999999ADDGA1021+009309999GA2071+042009999GF107991999999999999999999MA1101391999999MW1001REMMET052FMEP 021200Z 15010KT 9999 SCT031 BKN140 27/21 Q1014;EQDQ01+000000PRSWM2
0185619840999992000120213004-21320+055480FM-15+0053FMEP V0201401N006710450019N0112651N1+02601+02101999999ADDGA1021+009909999GA2021+015009999GA3071+045009999GF107991999999999999999999MA1101491999999MW1001REMMET059FMEP 021300Z 14013KT 9999 FEW033 SCT050 BKN150 26/21 Q1015;EQDQ01+000000PRSWM2
0139619840999992000120303004-21320+055480FM-15+0053FMEP V0200701N001512200019N0112651N1+02501+01801999999ADDGA1021+009909999GF102991999999999999999999MA1101691999999MW1001REMMET045FMEP 030300Z 07003KT 9999 FEW033 25/18 Q1017;EQDQ01+000000PRSWM2
0147619840999992000120305004-21320+055480FM-15+0053FMEP V0201701N003112200019N0112651N1+02801+01901999999ADDGA1021+009009999GF102991999999999999999999MA1101801999999MW1001REMMET053FMEP 030500Z 17006KT 130V260 9999 FEW030 28/19 Q1018;EQDQ01+000000PRSWM2
0150619840999992000120306004-21320+055480FM-15+0053FMEP V0202201N002612200019N0112651N1+02901+01901999999ADDGA1021+009009029GF102991999999999999999999MA1101691999999MW1001REMMET056FMEP 030600Z 22005KT 160V260 9999 FEW030TCU 29/19 Q1017;EQDQ01+000000PRSWM2
0174619840999992000120307004-21320+055480FM-15+0053FMEP V0201901N004612200019N0112651N1+02901+01901999999ADDGA1021+009009029GA2021+060009999GF104991999999999999999999MW1001REMMET079FMEP 030700Z 19009KT 130V250 9999 FEW030TCU SCT200 29/19 9999 FEW030TCU SCT200;EQDQ01+000000PRSWM2
0174619840999992000120308004-21320+055480FM-15+0053FMEP V0201501N005112200019N0112651N1+03001+02001999999ADDGA1021+009009029GA2021+060009999GF104991999999999999999999MW1001REMMET079FMEP 030800Z 15010KT 110V190 9999 FEW030TCU SCT200 30/20 9999 FEW030TCU SCT200;EQDQ01+000000PRSWM2
0165619840999992000120309004-21320+055480FM-15+0053FMEP V0201401N007712200019N0112651N1+02801+02101999999ADDGA1021+009009029GA2021+018009999GF104991999999999999999999MA1101591999999MW1001REMMET055FMEP 030900Z 14015KT 9999 FEW030TCU SCT060 28/21 Q1016;EQDQ01+000000PRSWM2
0162619840999992000120310004-21320+055480FM-15+0053FMEP V0201601N006712200019N0112651N1+02901+02101999999ADDGA1021+007509999GA2021+018009999GF104991999999999999999999MA1101591999999MW1001REMMET052FMEP 031000Z 16013KT 9999 FEW025 SCT060 29/21 Q1016;EQDQ01+000000PRSWM2
0194619840999992000120311004-21320+055480FM-15+0053FMEP V0201401N003112200019N0080001N1+02801+02001999999ADDGA1021+007509999GA2021+018009999GF104991999999999999999999MW1161REMMET083FMEP 031100Z 14006KT 100V200 8000 VCSH FEW025 SCT060 28/20 8000 VCSH FEW025 SCT060;EQDQ01+000003PRSWM1Q02    003PRSWM1
0183619840999992000120312004-21320+055480FM-15+0053FMEP V0201401N004612200019N0080001N1+02801+02001999999ADDGA1021+007509999GA2021+018009999GF104991999999999999999999MA1101591999999MW1161REMMET057FMEP 031200Z 14009KT 8000 VCSH FEW025 SCT060 28/20 Q1016;EQDQ01+000003PRSWM1Q02    003PRSWM1
0183619840999992000120313004-21320+055480FM-15+0053FMEP V0201401N005112200019N0080001N1+02701+02101999999ADDGA1021+007509999GA2021+018009999GF104991999999999999999999MA1101591999999MW1161REMMET057FMEP 031300Z 14010KT 8000 VCSH FEW025 SCT060 27/21 Q1016;EQDQ01+000003PRSWM1Q02    003PRSWM1
0139619840999992000120403004-21320+055480FM-15+0053FMEP V0201301N002612200019N0112651N1+02501+01801999999ADDGA1021+012909999GF102991999999999999999999MA1101801999999MW1001REMMET045FMEP 040300Z 13005KT 9999 FEW043 25/18 Q1018;EQDQ01+000000PRSWM2
0139619840999992000120404004-21320+055480FM-15+0053FMEP V0201301N008712200019N0112651N1+02701+02001999999ADDGA1021+008409999GF102991999999999999999999MA1101801999999MW1001REMMET045FMEP 040400Z 13017KT 9999 FEW028 27/20 Q1018;EQDQ01+000000PRSWM2
0139619840999992000120405004-21320+055480FM-15+0053FMEP V0201301N008712200019N0112651N1+02801+01901999999ADDGA1021+009309999GF102991999999999999999999MA1101801999999MW1001REMMET045FMEP 040500Z 13017KT 9999 FEW031 28/19 Q1018;EQDQ01+000000PRSWM2
0162619840999992000120406004-21320+055480FM-15+0053FMEP V0201401N009812200019N0112651N1+02801+02001999999ADDGA1021+010509999GA2021+042009999GF104991999999999999999999MA1101801999999MW1001REMMET052FMEP 040600Z 14019KT 9999 FEW035 SCT140 28/20 Q1018;EQDQ01+000000PRSWM2
0185619840999992000120407004-21320+055480FM-15+0053FMEP V0201401N005110360019N0112651N1+02901+01901999999ADDGA1021+010509999GA2021+018009999GA3071+036009999GF107991999999999999999999MA1101691999999MW1001REMMET059FMEP 040700Z 14010KT 9999 FEW035 SCT063 BKN120 29/19 Q1017;EQDQ01+000000PRSWM2
0162619840999992000120408004-21320+055480FM-15+0053FMEP V0201401N005110360019N0112651N1+02901+02001999999ADDGA1021+010509999GA2071+036009999GF107991999999999999999999MA1101691999999MW1001REMMET052FMEP 040800Z 14010KT 9999 FEW035 BKN120 29/20 Q1017;EQDQ01+000000PRSWM2
0185619840999992000120409004-21320+055480FM-15+0053FMEP V0201401N006210360019N0112651N1+02901+02001999999ADDGA1021+010509999GA2021+015009999GA3071+036009999GF107991999999999999999999MA1101691999999MW1001REMMET059FMEP 040900Z 14012KT 9999 FEW035 SCT050 BKN120 29/20 Q1017;EQDQ01+000000PRSWM2
0192619840999992000120410004-21320+055480FM-15+0053FMEP V02099999999990330019N0112651N1+99999+99999999999ADDGA1021+006009999GA2021+015009999GA3071+033009999GF107991999999999999999999MW1001REMMET081FMEP 041000Z VRB04KT 180V030 9999 FEW020 SCT050 BKN110 9999 FEW020 SCT050 BKN110;EQDQ01+000000PRSWM2
0192619840999992000120411004-21320+055480FM-15+0053FMEP V0201701N003610300019N0112651N1+99999+99999999999ADDGA1021+004809999GA2021+012909999GA3071+030009999GF107991999999999999999999MW1001REMMET081FMEP 041100Z 17007KT 110V230 9999 FEW016 SCT043 BKN100 9999 FEW016 SCT043 BKN100;EQDQ01+000000PRSWM2
0162619840999992000120412004-21320+055480FM-15+0053FMEP V0201401N006712200019N0112651N1+02801+02101999999ADDGA1021+006909999GA2021+015009999GF104991999999999999999999MA1101591999999MW1001REMMET052FMEP 041200Z 14013KT 9999 FEW023 SCT056 28/21 Q1016;EQDQ01+000000PRSWM2
0162619840999992000120413004-21320+055480FM-15+0053FMEP V0201401N005712200019N0112651N1+02701+02101999999ADDGA1021+007809999GA2021+013809999GF104991999999999999999999MA1101591999999MW1001REMMET052FMEP 041300Z 14011KT 9999 FEW026 SCT046 27/21 Q1016;EQDQ01+000000PRSWM2
0162619840999992000120503004-21320+055480FM-15+0053FMEP V0201101N002112200019N0112651N1+02401+01901999999ADDGA1021+007809999GA2021+013809999GF104991999999999999999999MA1101801999999MW1001REMMET052FMEP 050300Z 11004KT 9999 FEW026 SCT046 24/19 Q1018;EQDQ01+000000PRSWM2
0162619840999992000120504004-21320+055480FM-15+0053FMEP V0202901N001512200019N0112651N1+02601+02001999999ADDGA1021+007809999GA2021+013809999GF104991999999999999999999MA1101801999999MW1001REMMET052FMEP 050400Z 29003KT 9999 FEW026 SCT046 26/20 Q1018;EQDQ01+000000PRSWM2
0147619840999992000120505004-21320+055480FM-15+0053FMEP V0202401N002112200019N0112651N1+02701+01901999999ADDGA1021+007809999GF102991999999999999999999MA1101801999999MW1001REMMET053FMEP 050500Z 24004KT 200V290 9999 FEW026 27/19 Q1018;EQDQ01+000000PRSWM2
0147619840999992000120506004-21320+055480FM-15+0053FMEP V0201401N005712200019N0112651N1+02901+01901999999ADDGA1021+007509999GF102991999999999999999999MA1101801999999MW1001REMMET053FMEP 050600Z 14011KT 110V180 9999 FEW025 29/19 Q1018;EQDQ01+000000PRSWM2
0139619840999992000120507004-21320+055480FM-15+0053FMEP V0201401N006712200019N0112651N1+02901+02101999999ADDGA1021+007509999GF102991999999999999999999MA1101691999999MW1001REMMET045FMEP 050700Z 14013KT 9999 FEW025 29/21 Q1017;EQDQ01+000000PRSWM2
0162619840999992000120508004-21320+055480FM-15+0053FMEP V0201501N005112200019N0112651N1+02801+02101999999ADDGA1021+007509999GA2021+024009999GF104991999999999999999999MA1101691999999MW1001REMMET052FMEP 050800Z 15010KT 9999 FEW025 SCT086 28/21 Q1017;EQDQ01+000000PRSWM2
0162619840999992000120509004-21320+055480FM-15+0053FMEP V0201601N004612200019N0112651N1+02901+02101999999ADDGA1021+015009999GA2021+024009999GF104991999999999999999999MA1101591999999MW1001REMMET052FMEP 050900Z 16009KT 9999 FEW050 SCT086 29/21 Q1016;EQDQ01+000000PRSWM2
0170619840999992000120510004-21320+055480FM-15+0053FMEP V0202001N002112200019N0112651N1+02901+01901999999ADDGA1021+015009999GA2021+024009999GF104991999999999999999999MA1101591999999MW1001REMMET060FMEP 051000Z 20004KT 140V270 9999 FEW050 SCT086 29/19 Q1016;EQDQ01+000000PRSWM2
0162619840999992000120511004-21320+055480FM-15+0053FMEP V0202801N003612200019N0112651N1+02901+01901999999ADDGA1021+015009999GA2021+024009999GF104991999999999999999999MA1101591999999MW1001REMMET052FMEP 051100Z 28007KT 9999 FEW050 SCT086 29/19 Q1016;EQDQ01+000000PRSWM2
0170619840999992000120512004-21320+055480FM-15+0053FMEP V0202701N003112200019N0112651N1+02901+01901999999ADDGA1021+015009999GA2021+024009999GF104991999999999999999999MA1101491999999MW1001REMMET060FMEP 051200Z 27006KT 240V320 9999 FEW050 SCT083 29/19 Q1015;EQDQ01+000000PRSWM2
0170619840999992000120513004-21320+055480FM-15+0053FMEP V0201901N002610240019N0112651N1+02701+02001999999ADDGA1021+015009999GA2071+024009999GF107991999999999999999999MA1101591999999MW1001REMMET060FMEP 051300Z 19005KT 150V260 9999 FEW050 BKN083 27/20 Q1016;EQDQ01+000000PRSWM2
0162619840999992000120603004-21320+055480FM-15+0053FMEP V0200501N001512200019N0112651N1+02501+02001999999ADDGA1021+015009999GA2021+060009999GF104991999999999999999999MA1101691999999MW1001REMMET052FMEP 060300Z 05003KT 9999 FEW050 SCT200 25/20 Q1017;EQDQ01+000000PRSWM2
0162619840999992000120604004-21320+055480FM-15+0053FMEP V0201401N004612200019N0112651N1+02701+02001999999ADDGA1021+015009999GA2021+060009999GF104991999999999999999999MA1101691999999MW1001REMMET052FMEP 060400Z 14009KT 9999 FEW050 SCT200 27/20 Q1017;EQDQ01+000000PRSWM2
0139619840999992000120605004-21320+055480FM-15+0053FMEP V0201401N006712200019N0112651N1+02701+02001999999ADDGA1021+015009999GF102991999999999999999999MA1101691999999MW1001REMMET045FMEP 060500Z 14013KT 9999 FEW050 27/20 Q1017;EQDQ01+000000PRSWM2
0147619840999992000120606004-21320+055480FM-15+0053FMEP V0201801N002612200019N0112651N1+02801+02001999999ADDGA1021+015009999GF102991999999999999999999MA1101591999999MW1001REMMET053FMEP 060600Z 18005KT 130V220 9999 FEW050 28/20 Q1016;EQDQ01+000000PRSWM2
0147619840999992000120607004-21320+055480FM-15+0053FMEP V0201901N003112200019N0112651N1+03001+01901999999ADDGA1021+015009999GF102991999999999999999999MA1101591999999MW1001REMMET053FMEP 060700Z 19006KT 120V250 9999 FEW050 30/19 Q1016;EQDQ01+000000PRSWM2
0162619840999992000120608004-21320+055480FM-15+0053FMEP V0201401N007212200019N0112651N1+02901+02001999999ADDGA1021+015009999GA2021+024009999GF104991999999999999999999MA1101591999999MW1001REMMET052FMEP 060800Z 14014KT 9999 FEW050 SCT086 29/20 Q1016;EQDQ01+000000PRSWM2
0162619840999992000120609004-21320+055480FM-15+0053FMEP V0201501N008212200019N0112651N1+02801+02101999999ADDGA1021+018009999GA2021+024009999GF104991999999999999999999MA1101591999999MW1001REMMET052FMEP 060900Z 15016KT 9999 FEW060 SCT083 28/21 Q1016;EQDQ01+000000PRSWM2
0162619840999992000120610004-21320+055480FM-15+0053FMEP V0201901N001512200019N0112651N1+02801+01901999999ADDGA1021+015009999GA2021+018009999GF104991999999999999999999MA1101491999999MW1001REMMET052FMEP 061000Z 19003KT 9999 FEW050 SCT066 28/19 Q1015;EQDQ01+000000PRSWM2
0192619840999992000120611004-21320+055480FM-15+0053FMEP V0202501N002610240019N0112651N1+99999+99999999999ADDGA1021+015009999GA2021+018009999GA3071+024009999GF107991999999999999999999MW1001REMMET081FMEP 061100Z 25005KT 190V340 9999 FEW050 SCT066 BKN083 9999 FEW050 SCT066 BKN083;EQDQ01+000000PRSWM2
0192619840999992000120612004-21320+055480FM-15+0053FMEP V0201401N004610240019N0112651N1+99999+99999999999ADDGA1021+015009999GA2021+018009999GA3071+024009999GF107991999999999999999999MW1001REMMET081FMEP 061200Z 14009KT 100V180 9999 FEW050 SCT066 BKN083 9999 FEW050 SCT066 BKN083;EQDQ01+000000PRSWM2
0162619840999992000120613004-21320+055480FM-15+0053FMEP V0201301N007212200019N0112651N1+02701+02001999999ADDGA1021+015009999GA2021+018009999GF104991999999999999999999MA1101491999999MW1001REMMET052FMEP 061300Z 13014KT 9999 FEW050 SCT066 27/20 Q1015;EQDQ01+000000PRSWM2
0162619840999992000120703004-21320+055480FM-15+0053FMEP V0201301N001010450019N0112651N1+02401+01701999999ADDGA1021+012909999GA2071+045009999GF107991999999999999999999MA1101691999999MW1001REMMET052FMEP 070300Z 13002KT 9999 FEW043 BKN150 24/17 Q1017;EQDQ01+000000PRSWM2
0139619840999992000120704004-21320+055480FM-15+0053FMEP V0202501N001512200019N0112651N1+02701+01801999999ADDGA1021+012909999GF102991999999999999999999MA1101591999999MW1001REMMET045FMEP 070400Z 25003KT 9999 FEW043 27/18 Q1016;EQDQ01+000000PRSWM2
0147619840999992000120705004-21320+055480FM-15+0053FMEP V0202301N002112200019N0112651N1+02801+01901999999ADDGA1021+010509999GF102991999999999999999999MA1101691999999MW1001REMMET053FMEP 070500Z 23004KT 190V280 9999 FEW035 28/19 Q1017;EQDQ01+000000PRSWM2
0170619840999992000120706004-21320+055480FM-15+0053FMEP V0202001N003112200019N0112651N1+02801+02001999999ADDGA1021+009309999GA2021+012009999GF104991999999999999999999MA1101691999999MW1001REMMET060FMEP 070600Z 20006KT 170V260 9999 FEW031 SCT040 28/20 Q1017;EQDQ01+000000PRSWM2
0139619840999992000120707004-21320+055480FM-15+0053FMEP V0202401N003612200019N0112651N1+02901+02001999999ADDGA1021+009309999GF102991999999999999999999MA1101591999999MW1001REMMET045FMEP 070700Z 24007KT 9999 FEW031 29/20 Q1016;EQDQ01+000000PRSWM2
0185619840999992000120709004-21320+055480FM-15+0053FMEP V0201401N007210330019N0112651N1+02801+02001999999ADDGA1021+009309999GA2021+012009999GA3071+033009999GF107991999999999999999999MA1101591999999MW1001REMMET059FMEP 070900Z 14014KT 9999 FEW031 SCT040 BKN110 28/20 Q1016;EQDQ01+000000PRSWM2
0203619840999992000120710004-21320+055480FM-15+0053FMEP V0201401N006710330019N0112651N1+99999+99999999999ADDGA1021+006909999GA2021+012009999GA3071+033009999GF107991999999999999999999MW1001OC101231REMMET084FMEP 071000Z 14013G24KT 100V190 9999 FEW023 SCT040 BKN110 9999 FEW023 SCT040 BKN110;EQDQ01+000000PRSWM2
0185619840999992000120711004-21320+055480FM-15+0053FMEP V0201301N009310300019N0112651N1+02801+01901999999ADDGA1021+006009999GA2021+012009999GA3071+030009999GF107991999999999999999999MA1101491999999MW1001REMMET059FMEP 071100Z 13018KT 9999 FEW020 SCT040 BKN100 28/19 Q1015;EQDQ01+000000PRSWM2
0185619840999992000120712004-21320+055480FM-15+0053FMEP V0201301N010310270019N0112651N1+02701+02001999999ADDGA1021+007509999GA2021+012909999GA3071+027009999GF107991999999999999999999MA1101491999999MW1001REMMET059FMEP 071200Z 13020KT 9999 FEW025 SCT043 BKN093 27/20 Q1015;EQDQ01+000000PRSWM2
0185619840999992000120713004-21320+055480FM-15+0053FMEP V0201301N009310240019N0112651N1+02601+02001999999ADDGA1021+007509999GA2021+015009999GA3071+024009999GF107991999999999999999999MA1101491999999MW1001REMMET059FMEP 071300Z 13018KT 9999 FEW025 SCT050 BKN083 26/20 Q1015;EQDQ01+000000PRSWM2
0147619840999992000120803004-21320+055480FM-15+0053FMEP V0201301N003112200019N0112651N1+02501+01601999999ADDGA1021+009909999GF102991999999999999999999MA1101591999999MW1001REMMET053FMEP 080300Z 13006KT 080V160 9999 FEW033 25/16 Q1016;EQDQ01+000000PRSWM2
0147619840999992000120804004-21320+055480FM-15+0053FMEP V0201601N002612200019N0112651N1+02701+01801999999ADDGA1021+009909999GF102991999999999999999999MA1101691999999MW1001REMMET053FMEP 080400Z 16005KT 120V200 9999 FEW033 27/18 Q1017;EQDQ01+000000PRSWM2
0147619840999992000120805004-21320+055480FM-15+0053FMEP V0201501N003112200019N0112651N1+02801+01601999999ADDGA1021+009909999GF102991999999999999999999MA1101591999999MW1001REMMET053FMEP 080500Z 15006KT 100V180 9999 FEW033 28/16 Q1016;EQDQ01+000000PRSWM2
0139619840999992000120806004-21320+055480FM-15+0053FMEP V0201501N005712200019N0112651N1+02901+01801999999ADDGA1021+009909999GF102991999999999999999999MA1101591999999MW1001REMMET045FMEP 080600Z 15011KT 9999 FEW033 29/18 Q1016;EQDQ01+000000PRSWM2
0139619840999992000120807004-21320+055480FM-15+0053FMEP V0201601N004112200019N0112651N1+03001+01701999999ADDGA1021+009009999GF102991999999999999999999MA1101491999999MW1001REMMET045FMEP 080700Z 16008KT 9999 FEW030 30/17 Q1015;EQDQ01+000000PRSWM2
0162619840999992000120808004-21320+055480FM-15+0053FMEP V0201501N005112200019N0112651N1+02901+01701999999ADDGA1021+009009999GA2021+015009999GF104991999999999999999999MA1101591999999MW1001REMMET052FMEP 080800Z 15010KT 9999 FEW030 SCT050 29/17 Q1016;EQDQ01+000000PRSWM2
0162619840999992000120809004-21320+055480FM-15+0053FMEP V0201401N007712200019N0112651N1+02801+01901999999ADDGA1021+009009999GA2021+018009999GF104991999999999999999999MA1101491999999MW1001REMMET052FMEP 080900Z 14015KT 9999 FEW030 SCT060 28/19 Q1015;EQDQ01+000000PRSWM2
0162619840999992000120811004-21320+055480FM-15+0053FMEP V0201401N005110180019N0112651N1+02701+02001999999ADDGA1021+009009999GA2071+018009999GF107991999999999999999999MA1101391999999MW1001REMMET052FMEP 081100Z 14010KT 9999 FEW030 BKN060 27/20 Q1014;EQDQ01+000000PRSWM2
0162619840999992000120812004-21320+055480FM-15+0053FMEP V0201501N004610150019N0112651N1+02701+02101999999ADDGA1021+007509999GA2071+015009999GF107991999999999999999999MA1101391999999MW1001REMMET052FMEP 081200Z 15009KT 9999 FEW025 BKN050 27/21 Q1014;EQDQ01+000000PRSWM2
0162619840999992000120813004-21320+055480FM-15+0053FMEP V0202601N001510150019N0112651N1+02701+01801999999ADDGA1021+007509999GA2071+015009999GF107991999999999999999999MA1101391999999MW1001REMMET052FMEP 081300Z 26003KT 9999 FEW025 BKN050 27/18 Q1014;EQDQ01+000000PRSWM2
0139619840999992000120903004-21320+055480FM-15+0053FMEP V0200701N001512200019N0112651N1+02601+01601999999ADDGA1021+012009999GF102991999999999999999999MA1101391999999MW1001REMMET045FMEP 090300Z 07003KT 9999 FEW040 26/16 Q1014;EQDQ01+000000PRSWM2
0139619840999992000120904004-21320+055480FM-15+0053FMEP V0201301N005112200019N0112651N1+02701+01801999999ADDGA1021+009909999GF102991999999999999999999MA1101391999999MW1001REMMET045FMEP 090400Z 13010KT 9999 FEW033 27/18 Q1014;EQDQ01+000000PRSWM2
0139619840999992000120905004-21320+055480FM-15+0053FMEP V0201401N004612200019N0112651N1+02801+01801999999ADDGA1021+009909999GF102991999999999999999999MA1101391999999MW1001REMMET045FMEP 090500Z 14009KT 9999 FEW033 28/18 Q1014;EQDQ01+000000PRSWM2
0139619840999992000120906004-21320+055480FM-15+0053FMEP V0201401N007712200019N0112651N1+02801+01901999999ADDGA1021+009009999GF102991999999999999999999MA1101391999999MW1001REMMET045FMEP 090600Z 14015KT 9999 FEW030 28/19 Q1014;EQDQ01+000000PRSWM2
0139619840999992000120907004-21320+055480FM-15+0053FMEP V0201401N007212200019N0112651N1+02901+01901999999ADDGA1021+009009999GF102991999999999999999999MA1101291999999MW1001REMMET045FMEP 090700Z 14014KT 9999 FEW030 29/19 Q1013;EQDQ01+000000PRSWM2
0162619840999992000120908004-21320+055480FM-15+0053FMEP V0201401N006712200019N0112651N1+02801+02001999999ADDGA1021+009009999GA2021+018009999GF104991999999999999999999MA1101291999999MW1001REMMET052FMEP 090800Z 14013KT 9999 FEW030 SCT066 28/20 Q1013;EQDQ01+000000PRSWM2
0170619840999992000120909004-21320+055480FM-15+0053FMEP V0201501N003110180019N0112651N1+02701+01901999999ADDGA1021+009009999GA2071+018009999GF107991999999999999999999MA1101291999999MW1001REMMET060FMEP 090900Z 15006KT 100V190 9999 SCT030 BKN066 27/19 Q1013;EQDQ01+000000PRSWM2
0162619840999992000120910004-21320+055480FM-15+0053FMEP V0201701N001510180019N0112651N1+02701+01901999999ADDGA1021+007809999GA2071+018009999GF107991999999999999999999MA1101291999999MW1001REMMET052FMEP 091000Z 17003KT 9999 SCT026 BKN060 27/19 Q1013;EQDQ01+000000PRSWM2
0162619840999992000120911004-21320+055480FM-15+0053FMEP V0202401N001510180019N0112651N1+02701+01801999999ADDGA1021+006909999GA2071+018009999GF107991999999999999999999MA1101291999999MW1001REMMET052FMEP 091100Z 24003KT 9999 SCT023 BKN060 27/18 Q1013;EQDQ01+000000PRSWM2
0174619840999992000120912004-21320+055480FM-15+0053FMEP V0202201N002110180019N0112651N1+02801+01901999999ADDGA1021+006909029GA2071+018009999GF107991999999999999999999MW1001REMMET079FMEP 091200Z 22004KT 170V280 9999 SCT023TCU BKN060 28/19 9999 SCT023TCU BKN060;EQDQ01+000000PRSWM2
0165619840999992000120913004-21320+055480FM-15+0053FMEP V0202501N002110180019N0112651N1+02701+01901999999ADDGA1021+006909029GA2071+018009999GF107991999999999999999999MA1101191999999MW1001REMMET055FMEP 091300Z 25004KT 9999 FEW023TCU BKN060 27/19 Q1012;EQDQ01+000000PRSWM2
0162619840999992000120914004-21320+055480FM-15+0053FMEP V0202401N002110180019N0112651N1+02701+01901999999ADDGA1021+006909999GA2071+018009999GF107991999999999999999999MA1101191999999MW1001REMMET052FMEP 091400Z 24004KT 9999 SCT023 BKN066 27/19 Q1012;EQDQ01+000000PRSWM2
0139619840999992000121003004-21320+055480FM-15+0053FMEP V0200301N002112200019N0112651N1+02501+01701999999ADDGA1021+018009999GF102991999999999999999999MA1101291999999MW1001REMMET045FMEP 100300Z 03004KT 9999 FEW060 25/17 Q1013;EQDQ01+000000PRSWM2
0147619840999992000121004004-21320+055480FM-15+0053FMEP V0202501N002112200019N0112651N1+02701+02001999999ADDGA1021+012009999GF102991999999999999999999MA1101191999999MW1001REMMET053FMEP 100400Z 25004KT 220V290 9999 FEW040 27/20 Q1012;EQDQ01+000000PRSWM2
0147619840999992000121005004-21320+055480FM-15+0053FMEP V0202601N003612200019N0112651N1+02801+02001999999ADDGA1021+009009999GF102991999999999999999999MA1101291999999MW1001REMMET053FMEP 100500Z 26007KT 210V290 9999 FEW030 28/20 Q1013;EQDQ01+000000PRSWM2
0139619840999992000121006004-21320+055480FM-15+0053FMEP V0202101N002612200019N0112651N1+02801+02001999999ADDGA1021+009009999GF104991999999999999999999MA1101191999999MW1001REMMET045FMEP 100600Z 21005KT 9999 SCT030 28/20 Q1012;EQDQ01+000000PRSWM2
0139619840999992000121007004-21320+055480FM-15+0053FMEP V0202201N004112200019N0112651N1+02901+01901999999ADDGA1021+007809999GF104991999999999999999999MA1101191999999MW1001REMMET045FMEP 100700Z 22008KT 9999 SCT026 29/19 Q1012;EQDQ01+000000PRSWM2
0139619840999992000121008004-21320+055480FM-15+0053FMEP V0201901N003612200019N0112651N1+02901+02001999999ADDGA1021+007809999GF104991999999999999999999MA1101191999999MW1001REMMET045FMEP 100800Z 19007KT 9999 SCT026 29/20 Q1012;EQDQ01+000000PRSWM2
0139619840999992000121009004-21320+055480FM-15+0053FMEP V0202101N004110069019N0112651N1+02901+01901999999ADDGA1071+006909999GF107991999999999999999999MA1101191999999MW1001REMMET045FMEP 100900Z 21008KT 9999 BKN023 29/19 Q1012;EQDQ01+000000PRSWM2
0142619840999992000121010004-21320+055480FM-15+0053FMEP V0201901N004110069019N0112651N1+02901+02001999999ADDGA1071+006909029GF107991999999999999999999MA1101191999999MW1001REMMET048FMEP 101000Z 19008KT 9999 BKN023TCU 29/20 Q1012;EQDQ01+000000PRSWM2
0162619840999992000121011004-21320+055480FM-15+0053FMEP V0202101N003110099019N0112651N1+02801+01901999999ADDGA1021+006309999GA2071+009909999GF107991999999999999999999MA1101081999999MW1001REMMET052FMEP 101100Z 21006KT 9999 SCT021 BKN033 28/19 Q1011;EQDQ01+000000PRSWM2
0170619840999992000121012004-21320+055480FM-15+0053FMEP V0202701N002610099019N0080001N1+02701+01901999999ADDGA1021+006009999GA2071+009909999GF107991999999999999999999MA1101081999999MW1001REMMET060FMEP 101200Z 27005KT 240V310 8000 SCT020 BKN033 27/19 Q1011;EQDQ01+000000PRSWM2
0162619840999992000121013004-21320+055480FM-15+0053FMEP V0202501N003610039019N0112651N1+02701+02001999999ADDGA1071+003909999GA2071+009909999GF107991999999999999999999MA1101081999999MW1001REMMET052FMEP 101300Z 25007KT 9999 BKN013 BKN033 27/20 Q1011;EQDQ01+000000PRSWM2
0162619840999992000121014004-21320+055480FM-15+0053FMEP V02099999999990099019N0112651N1+02701+02001999999ADDGA1021+003909999GA2071+009909999GF107991999999999999999999MA1101191999999MW1001REMMET052FMEP 101400Z VRB02KT 9999 SCT013 BKN033 27/20 Q1012;EQDQ01+000000PRSWM2
0162619840999992000121015004-21320+055480FM-15+0053FMEP V0202701N001510099019N0112651N1+02701+02001999999ADDGA1021+003909999GA2071+009909999GF107991999999999999999999MA1101191999999MW1001REMMET052FMEP 101500Z 27003KT 9999 SCT013 BKN033 27/20 Q1012;EQDQ01+000000PRSWM2
0162619840999992000121103004-21320+055480FM-15+0053FMEP V0200401N003112200019N0112651N1+02501+01701999999ADDGA1021+009909999GA2021+027009999GF104991999999999999999999MA1101191999999MW1001REMMET052FMEP 110300Z 04006KT 9999 FEW033 SCT093 25/17 Q1012;EQDQ01+000000PRSWM2
0147619840999992000121104004-21320+055480FM-15+0053FMEP V0202201N002112200019N0112651N1+02701+02001999999ADDGA1021+009909999GF102991999999999999999999MA1101191999999MW1001REMMET053FMEP 110400Z 22004KT 180V280 9999 FEW033 27/20 Q1012;EQDQ01+000000PRSWM2
0147619840999992000121105004-21320+055480FM-15+0053FMEP V0202301N002612200019N0112651N1+02801+02001999999ADDGA1021+009909999GF102991999999999999999999MA1101291999999MW1001REMMET053FMEP 110500Z 23005KT 190V260 9999 FEW033 28/20 Q1013;EQDQ01+000000PRSWM2
0147619840999992000121106004-21320+055480FM-15+0053FMEP V0202201N003112200019N0112651N1+02901+01901999999ADDGA1021+009909999GF102991999999999999999999MA1101291999999MW1001REMMET053FMEP 110600Z 22006KT 180V260 9999 FEW033 29/19 Q1013;EQDQ01+000000PRSWM2
0147619840999992000121107004-21320+055480FM-15+0053FMEP V0202001N003112200019N0112651N1+02901+01901999999ADDGA1021+008409999GF102991999999999999999999MA1101191999999MW1001REMMET053FMEP 110700Z 20006KT 160V240 9999 FEW028 29/19 Q1012;EQDQ01+000000PRSWM2
0139619840999992000121108004-21320+055480FM-15+0053FMEP V0202101N003112200019N0112651N1+03001+01901999999ADDGA1021+008409999GF104991999999999999999999MA1101191999999MW1001REMMET045FMEP 110800Z 21006KT 9999 SCT028 30/19 Q1012;EQDQ01+000000PRSWM2
0147619840999992000121109004-21320+055480FM-15+0053FMEP V0202301N003112200019N0112651N1+02901+02001999999ADDGA1021+008409999GF104991999999999999999999MA1101191999999MW1001REMMET053FMEP 110900Z 23006KT 200V270 9999 SCT028 29/20 Q1012;EQDQ01+000000PRSWM2
0147619840999992000121110004-21320+055480FM-15+0053FMEP V0202201N003112200019N0112651N1+03001+01901999999ADDGA1021+008409999GF104991999999999999999999MA1101191999999MW1001REMMET053FMEP 111000Z 22006KT 180V260 9999 SCT028 30/19 Q1012;EQDQ01+000000PRSWM2
0147619840999992000121111004-21320+055480FM-15+0053FMEP V0202301N003112200019N0112651N1+03001+01901999999ADDGA1021+008409999GF104991999999999999999999MA1101191999999MW1001REMMET053FMEP 111100Z 23006KT 190V270 9999 SCT028 30/19 Q1012;EQDQ01+000000PRSWM2
0147619840999992000121112004-21320+055480FM-15+0053FMEP V0202401N004112200019N0112651N1+03001+01901999999ADDGA1021+007509999GF104991999999999999999999MA1101191999999MW1001REMMET053FMEP 111200Z 24008KT 210V280 9999 SCT025 30/19 Q1012;EQDQ01+000000PRSWM2
0138619840999992000121113004-21320+055480FM-15+0053FMEP V0202201N003112200019N0112651N1+02901+01901999999ADDGA1021+007509999GF104991999999999999999999MA1101191999999MW1001REMMET044FMEP 111300Z 22006KT 9999 SCT025 29/19Q1012;EQDQ01+000000PRSWM2
0139619840999992000121203004-21320+055480FM-15+0053FMEP V0200401N002612200019N0112651N1+02601+01501999999ADDGA1021+015009999GF102991999999999999999999MA1101191999999MW1001REMMET045FMEP 120300Z 04005KT 9999 FEW050 26/15 Q1012;EQDQ01+000000PRSWM2
0147619840999992000121204004-21320+055480FM-15+0053FMEP V0202401N002612200019N0112651N1+02801+01901999999ADDGA1021+015009999GF102991999999999999999999MA1101191999999MW1001REMMET053FMEP 120400Z 24005KT 210V280 9999 FEW050 28/19 Q1012;EQDQ01+000000PRSWM2
0147619840999992000121205004-21320+055480FM-15+0053FMEP V0202401N002612200019N0112651N1+02801+01901999999ADDGA1021+012009999GF102991999999999999999999MA1101191999999MW1001REMMET053FMEP 120500Z 24005KT 200V270 9999 FEW040 28/19 Q1012;EQDQ01+000000PRSWM2
0139619840999992000121206004-21320+055480FM-15+0053FMEP V0202201N003112200019N0112651N1+02801+02001999999ADDGA1021+010809999GF102991999999999999999999MA1101191999999MW1001REMMET045FMEP 120600Z 22006KT 9999 FEW036 28/20 Q1012;EQDQ01+000000PRSWM2
0139619840999992000121207004-21320+055480FM-15+0053FMEP V0202301N003612200019N0112651N1+02901+02001999999ADDGA1021+010809999GF102991999999999999999999MA1101191999999MW1001REMMET045FMEP 120700Z 23007KT 9999 FEW036 29/20 Q1012;EQDQ01+000000PRSWM2
0162619840999992000121208004-21320+055480FM-15+0053FMEP V0202401N004112200019N0112651N1+02901+02001999999ADDGA1021+010809999GA2021+042009999GF104991999999999999999999MA1101191999999MW1001REMMET052FMEP 120800Z 24008KT 9999 FEW036 SCT140 29/20 Q1012;EQDQ01+000000PRSWM2
0162619840999992000121209004-21320+055480FM-15+0053FMEP V0202301N003612200019N0112651N1+02901+02001999999ADDGA1021+010509999GA2021+036009999GF104991999999999999999999MA1101191999999MW1001REMMET052FMEP 120900Z 23007KT 9999 FEW035 SCT120 29/20 Q1012;EQDQ01+000000PRSWM2
0185619840999992000121210004-21320+055480FM-15+0053FMEP V0202201N002110360019N0112651N1+02901+02001999999ADDGA1021+009609999GA2021+018009999GA3071+036009999GF107991999999999999999999MA1101081999999MW1001REMMET059FMEP 121000Z 22004KT 9999 FEW032 SCT060 BKN120 29/20 Q1011;EQDQ01+000000PRSWM2
0192619840999992000121211004-21320+055480FM-15+0053FMEP V0201201N002610300019N0112651N1+99999+99999999999ADDGA1021+006009999GA2021+015009999GA3071+030009999GF107991999999999999999999MW1001REMMET081FMEP 121100Z 12005KT 090V190 9999 FEW020 SCT050 BKN100 9999 FEW020 SCT050 BKN100;EQDQ01+000000PRSWM2
0167619840999992000121212004-21320+055480FM-15+0053FMEP V0201301N004110300019N0112651N1+02701+02101999999ADDGA1021+005409029GA2021+012009999GA3071+030009999GF107991999999999999999999MW1001REMMET056FMEP 121200Z 13008KT 9999 SCT018TCU SCT040 BKN100 27/21;EQDQ01+000000PRSWM2
0196619840999992000121213004-21320+055480FM-15+0053FMEP V0201101N003610240019N0112651N1+02801+02001999999ADDGA1021+005409029GA2021+010809999GA3071+024009999GF107991999999999999999999MW1001REMMET085FMEP 121300Z 11007KT 9999 SCT018TCU SCT036 BKN083 28/20 9999 SCT018TCU SCT036 BKN083;EQDQ01+000000PRSWM2
0138619840999992000121303004-21320+055480FM-15+0053FMEP V0200301N003112200019N0112651N1+02601+01701999999ADDGA1021+018009999GF102991999999999999999999MA1101081999999MW1001REMMET044FMEP130300Z 03006KT 9999 FEW066 26/17 Q1011;EQDQ01+000000PRSWM2
0162619840999992000121304004-21320+055480FM-15+0053FMEP V0202101N001512200019N0112651N1+02701+02001999999ADDGA1021+018009999GA2021+048009999GF104991999999999999999999MA1101081999999MW1001REMMET052FMEP 130400Z 21003KT 9999 FEW066 SCT160 27/20 Q1011;EQDQ01+000000PRSWM2
0170619840999992000121305004-21320+055480FM-15+0053FMEP V0202001N002112200019N0112651N1+02801+02001999999ADDGA1021+012009999GA2021+048009999GF104991999999999999999999MA1101081999999MW1001REMMET060FMEP 130500Z 20004KT 150V230 9999 FEW040 SCT160 28/20 Q1011;EQDQ01+000000PRSWM2
0162619840999992000121306004-21320+055480FM-15+0053FMEP V0202301N003612200019N0112651N1+02901+02001999999ADDGA1021+009909999GA2021+048009999GF104991999999999999999999MA1101021999999MW1001REMMET052FMEP 130600Z 23007KT 9999 FEW033 SCT160 29/20 Q1010;EQDQ01+000000PRSWM2
0162619840999992000121307004-21320+055480FM-15+0053FMEP V0202301N005110480019N0112651N1+03001+02001999999ADDGA1021+009909999GA2071+048009999GF107991999999999999999999MA1101081999999MW1001REMMET052FMEP 130700Z 23010KT 9999 SCT033 BKN160 30/20 Q1011;EQDQ01+000000PRSWM2
0185619840999992000121308004-21320+055480FM-15+0053FMEP V0202101N004110480019N0112651N1+02901+02001999999ADDGA1021+009909999GA2021+024009999GA3071+048009999GF107991999999999999999999MA1101021999999MW1001REMMET059FMEP 130800Z 21008KT 9999 FEW033 SCT083 BKN160 29/20 Q1010;EQDQ01+000000PRSWM2
0185619840999992000121309004-21320+055480FM-15+0053FMEP V0202201N002110450019N0112651N1+02801+01901999999ADDGA1021+009909999GA2021+024009999GA3071+045009999GF107991999999999999999999MA1101021999999MW1001REMMET059FMEP 130900Z 22004KT 9999 FEW033 SCT083 BKN150 28/19 Q1010;EQDQ01+000000PRSWM2
0185619840999992000121310004-21320+055480FM-15+0053FMEP V0201601N003610450019N0112651N1+02901+02001999999ADDGA1021+009909999GA2021+024009999GA3071+045009999GF107991999999999999999999MA1101021999999MW1001REMMET059FMEP 131000Z 16007KT 9999 FEW033 SCT083 BKN150 29/20 Q1010;EQDQ01+000000PRSWM2
0185619840999992000121311004-21320+055480FM-15+0053FMEP V0201401N006710450019N0112651N1+02901+02101999999ADDGA1021+009909999GA2021+024009999GA3071+045009999GF107991999999999999999999MA1101021999999MW1001REMMET059FMEP 131100Z 14013KT 9999 FEW033 SCT083 BKN150 29/21 Q1010;EQDQ01+000000PRSWM2
0162619840999992000121312004-21320+055480FM-15+0053FMEP V0201401N007212200019N0112651N1+03101+02101999999ADDGA1021+009909999GA2021+024009999GF104991999999999999999999MA1100911999999MW1001REMMET052FMEP 131200Z 14014KT 9999 FEW033 SCT083 31/21 Q1009;EQDQ01+000000PRSWM2
0162619840999992000121313004-21320+055480FM-15+0053FMEP V0201401N008212200019N0112651N1+02901+02201999999ADDGA1021+009909999GA2021+024009999GF104991999999999999999999MA1100911999999MW1001REMMET052FMEP 131300Z 14016KT 9999 FEW033 SCT083 29/22 Q1009;EQDQ01+000000PRSWM2
0120619840999992000121403004-21320+055480FM-15+0053FMEP V0200201N002112200019N0112651N1+02701+01801999999ADDGF100991999999999999999999MA1101291999999MW1001REMMET042FMEP 140300Z 02004KT 9999 SKC 27/18 Q1013;EQDQ01+000000PRSWM2
0128619840999992000121404004-21320+055480FM-15+0053FMEP V0202801N003112200019N0112651N1+02901+02001999999ADDGF100991999999999999999999MA1101291999999MW1001REMMET050FMEP 140400Z 28006KT 250V320 9999 SKC 29/20 Q1013;EQDQ01+000000PRSWM2
0139619840999992000121406004-21320+055480FM-15+0053FMEP V0202301N003112200019N0112651N1+02901+02201999999ADDGA1021+009909999GF102991999999999999999999MA1101291999999MW1001REMMET045FMEP 140600Z 23006KT 9999 FEW033 29/22 Q1013;EQDQ01+000000PRSWM2
0139619840999992000121407004-21320+055480FM-15+0053FMEP V0202301N004112200019N0112651N1+03001+02201999999ADDGA1021+008409999GF102991999999999999999999MA1101291999999MW1001REMMET045FMEP 140700Z 23008KT 9999 FEW028 30/22 Q1013;EQDQ01+000000PRSWM2
0162619840999992000121408004-21320+055480FM-15+0053FMEP V0202101N003112200019N0112651N1+02901+02101999999ADDGA1021+008409999GA2021+024009999GF104991999999999999999999MA1101291999999MW1001REMMET052FMEP 140800Z 21006KT 9999 FEW028 SCT086 29/21 Q1013;EQDQ01+000000PRSWM2
0170619840999992000121409004-21320+055480FM-15+0053FMEP V0202101N002612200019N0112651N1+02901+02101999999ADDGA1021+008409999GA2021+024009999GF104991999999999999999999MA1101291999999MW1001REMMET060FMEP 140900Z 21005KT 170V240 9999 FEW028 SCT083 29/21 Q1013;EQDQ01+000000PRSWM2
0139619840999992000121411004-21320+055480FM-15+0053FMEP V0201901N003612200019N0112651N1+03101+02201999999ADDGA1021+007509999GF102991999999999999999999MA1101191999999MW1001REMMET045FMEP 141100Z 19007KT 9999 FEW025 31/22 Q1012;EQDQ01+000000PRSWM2
0139619840999992000121412004-21320+055480FM-15+0053FMEP V0202001N003612200019N0112651N1+03001+02101999999ADDGA1021+007509999GF102991999999999999999999MA1101081999999MW1001REMMET045FMEP 141200Z 20007KT 9999 FEW025 30/21 Q1011;EQDQ01+000000PRSWM2
0139619840999992000121413004-21320+055480FM-15+0053FMEP V0202301N003112200019N0112651N1+03001+02201999999ADDGA1021+007509999GF102991999999999999999999MA1101191999999MW1001REMMET045FMEP 141300Z 23006KT 9999 FEW025 30/22 Q1012;EQDQ01+000000PRSWM2
0162619840999992000121503004-21320+055480FM-15+0053FMEP V0200601N001512200019N0112651N1+02701+02101999999ADDGA1021+009909999GA2021+024009999GF104991999999999999999999MA1101391999999MW1001REMMET052FMEP 150300Z 06003KT 9999 FEW033 SCT083 27/21 Q1014;EQDQ01+000000PRSWM2
0139619840999992000121504004-21320+055480FM-15+0053FMEP V0202501N002612200019N0112651N1+02801+02101999999ADDGA1021+009909999GF102991999999999999999999MA1101391999999MW1001REMMET045FMEP 150400Z 25005KT 9999 FEW033 28/21 Q1014;EQDQ01+000000PRSWM2
0139619840999992000121505004-21320+055480FM-15+0053FMEP V0202801N004612200019N0112651N1+02901+02201999999ADDGA1021+009909999GF102991999999999999999999MA1101391999999MW1001REMMET045FMEP 150500Z 28009KT 9999 FEW033 29/22 Q1014;EQDQ01+000000PRSWM2
0139619840999992000121506004-21320+055480FM-15+0053FMEP V0202901N005112200019N0112651N1+03001+02101999999ADDGA1021+009909999GF102991999999999999999999MA1101291999999MW1001REMMET045FMEP 150600Z 29010KT 9999 FEW033 30/21 Q1013;EQDQ01+000000PRSWM2
0139619840999992000121507004-21320+055480FM-15+0053FMEP V0202801N006212200019N0112651N1+03101+02201999999ADDGA1021+009009999GF102991999999999999999999MA1101291999999MW1001REMMET045FMEP 150700Z 28012KT 9999 FEW030 31/22 Q1013;EQDQ01+000000PRSWM2
0139619840999992000121508004-21320+055480FM-15+0053FMEP V0202701N005112200019N0112651N1+03101+02101999999ADDGA1021+009009999GF102991999999999999999999MA1101291999999MW1001REMMET045FMEP 150800Z 27010KT 9999 FEW030 31/21 Q1013;EQDQ01+000000PRSWM2
0139619840999992000121509004-21320+055480FM-15+0053FMEP V0202701N005112200019N0112651N1+03101+02101999999ADDGA1021+009009999GF102991999999999999999999MA1101191999999MW1001REMMET045FMEP 150900Z 27010KT 9999 FEW030 31/21 Q1012;EQDQ01+000000PRSWM2
0139619840999992000121510004-21320+055480FM-15+0053FMEP V0202501N005112200019N0112651N1+03101+02201999999ADDGA1021+007509999GF102991999999999999999999MA1101191999999MW1001REMMET045FMEP 151000Z 25010KT 9999 FEW025 31/22 Q1012;EQDQ01+000000PRSWM2
0139619840999992000121511004-21320+055480FM-15+0053FMEP V0202201N003112200019N0112651N1+03001+02201999999ADDGA1021+007509999GF102991999999999999999999MA1101191999999MW1001REMMET045FMEP 151100Z 22006KT 9999 FEW025 30/22 Q1012;EQDQ01+000000PRSWM2
0162619840999992000121512004-21320+055480FM-15+0053FMEP V0201901N005112200019N0112651N1+02901+02201999999ADDGA1021+007509999GA2021+015009999GF104991999999999999999999MA1101191999999MW1001REMMET052FMEP 151200Z 19010KT 9999 FEW025 SCT050 29/22 Q1012;EQDQ01+000000PRSWM2
0162619840999992000121513004-21320+055480FM-15+0053FMEP V0201601N004110150019N0112651N1+02801+02201999999ADDGA1021+007509999GA2071+015009999GF107991999999999999999999MA1101191999999MW1001REMMET052FMEP 151300Z 16008KT 9999 FEW025 BKN050 28/22 Q1012;EQDQ01+000000PRSWM2
0123619840999992000121603004-21320+055480FM-15+0053FMEP V0200301N001512200019N0112651N1+02601+02001999999ADDGA1021+007809999GF102991999999999999999999MW1001REMMET044FMEP 160300Z 03003KT 9999 FEW026 26/20 Q114;EQDQ01+000000PRSWM2
0139619840999992000121604004-21320+055480FM-15+0053FMEP V0202901N005112200019N0112651N1+02901+02101999999ADDGA1021+009609999GF102991999999999999999999MA1101391999999MW1001REMMET045FMEP 160400Z 29010KT 9999 FEW032 29/21 Q1014;EQDQ01+000000PRSWM2
0139619840999992000121605004-21320+055480FM-15+0053FMEP V0202801N006212200019N0112651N1+02901+02201999999ADDGA1021+009309999GF102991999999999999999999MA1101491999999MW1001REMMET045FMEP 160500Z 28012KT 9999 FEW031 29/22 Q1015;EQDQ01+000000PRSWM2
0139619840999992000121606004-21320+055480FM-15+0053FMEP V0202701N005112200019N0112651N1+03001+02201999999ADDGA1021+009309999GF102991999999999999999999MA1101391999999MW1001REMMET045FMEP 160600Z 27010KT 9999 FEW031 30/22 Q1014;EQDQ01+000000PRSWM2
0162619840999992000121607004-21320+055480FM-15+0053FMEP V0202701N005112200019N0112651N1+03101+02201999999ADDGA1021+009309999GA2021+036009999GF104991999999999999999999MA1101391999999MW1001REMMET052FMEP 160700Z 27010KT 9999 FEW031 SCT120 31/22 Q1014;EQDQ01+000000PRSWM2
0185619840999992000121608004-21320+055480FM-15+0053FMEP V0202701N006210360019N0112651N1+03101+02001999999ADDGA1021+009309999GA2021+013809999GA3071+036009999GF107991999999999999999999MA1101391999999MW1001REMMET059FMEP 160800Z 27012KT 9999 FEW031 SCT046 BKN120 31/20 Q1014;EQDQ01+000000PRSWM2
0165619840999992000121609004-21320+055480FM-15+0053FMEP V0202601N005112200019N0112651N1+03101+02101999999ADDGA1021+006309029GA2021+012909999GF104991999999999999999999MA1101391999999MW1001REMMET055FMEP 160900Z 26010KT 9999 SCT021TCU SCT043 31/21 Q1014;EQDQ01+000000PRSWM2
0165619840999992000121610004-21320+055480FM-15+0053FMEP V0202601N004612200019N0112651N1+02901+02101999999ADDGA1021+006309029GA2021+012909999GF104991999999999999999999MA1101391999999MW1001REMMET055FMEP 161000Z 26009KT 9999 SCT021TCU SCT043 29/21 Q1014;EQDQ01+000000PRSWM2
0165619840999992000121611004-21320+055480FM-15+0053FMEP V0202401N004112200019N0112651N1+03001+02101999999ADDGA1021+006309029GA2021+012009999GF104991999999999999999999MA1101391999999MW1001REMMET055FMEP 161100Z 24008KT 9999 SCT021TCU SCT040 30/21 Q1014;EQDQ01+000000PRSWM2
0196619840999992000121612004-21320+055480FM-15+0053FMEP V0202501N003610360019N0112651N1+03001+02101999999ADDGA1021+004809029GA2021+010809999GA3071+036009999GF107991999999999999999999MW1001REMMET085FMEP 161200Z 25007KT 9999 SCT016TCU SCT036 BKN120 30/21 9999 SCT016TCU SCT036 BKN120;EQDQ01+000000PRSWM2
0165619840999992000121613004-21320+055480FM-15+0053FMEP V0202401N002610120019N0112651N1+02901+02001999999ADDGA1021+005409029GA2071+012009999GF107991999999999999999999MA1101391999999MW1001REMMET055FMEP 161300Z 24005KT 9999 SCT018TCU BKN040 29/20 Q1014;EQDQ01+000000PRSWM2
0165619840999992000121614004-21320+055480FM-15+0053FMEP V0202401N001510108019N0112651N1+02801+02101999999ADDGA1021+005409029GA2071+010809999GF107991999999999999999999MA1101491999999MW1001REMMET055FMEP 161400Z 24003KT 9999 SCT018TCU BKN036 28/21 Q1015;EQDQ01+000000PRSWM2
0162619840999992000121703004-21320+055480FM-15+0053FMEP V0200401N002612200019N0112651N1+02601+01701999999ADDGA1021+007509999GA2021+105009999GF104991999999999999999999MA1101591999999MW1001REMMET052FMEP 170300Z 04005KT 9999 FEW025 SCT360 26/17 Q1016;EQDQ01+000000PRSWM2
0162619840999992000121704004-21320+055480FM-15+0053FMEP V0201901N002612200019N0112651N1+02801+02001999999ADDGA1021+006909999GA2021+105009999GF104991999999999999999999MA1101691999999MW1001REMMET052FMEP 170400Z 19005KT 9999 FEW023 SCT360 28/20 Q1017;EQDQ01+000000PRSWM2
0170619840999992000121705004-21320+055480FM-15+0053FMEP V0202001N003112200019N0112651N1+02901+01901999999ADDGA1021+010509999GA2021+105009999GF104991999999999999999999MA1101691999999MW1001REMMET060FMEP 170500Z 20006KT 160V230 9999 FEW035 SCT360 29/19 Q1017;EQDQ01+000000PRSWM2
0139619840999992000121706004-21320+055480FM-15+0053FMEP V0202601N003612200019N0112651N1+03001+02001999999ADDGA1021+010509999GF102991999999999999999999MA1101591999999MW1001REMMET045FMEP 170600Z 26007KT 9999 FEW035 30/20 Q1016;EQDQ01+000000PRSWM2
0139619840999992000121707004-21320+055480FM-15+0053FMEP V0202401N004612200019N0112651N1+03001+02101999999ADDGA1021+012009999GF102991999999999999999999MA1101591999999MW1001REMMET045FMEP 170700Z 24009KT 9999 FEW040 30/21 Q1016;EQDQ01+000000PRSWM2
0162619840999992000121708004-21320+055480FM-15+0053FMEP V0202701N004112200019N0112651N1+03101+02001999999ADDGA1021+012009999GA2021+042009999GF104991999999999999999999MA1101591999999MW1001REMMET052FMEP 170800Z 27008KT 9999 FEW040 SCT140 31/20 Q1016;EQDQ01+000000PRSWM2
0162619840999992000121709004-21320+055480FM-15+0053FMEP V0202601N004612200019N0112651N1+03101+02001999999ADDGA1021+012009999GA2021+039009999GF104991999999999999999999MA1101491999999MW1001REMMET052FMEP 170900Z 26009KT 9999 FEW040 SCT130 31/20 Q1015;EQDQ01+000000PRSWM2
0162619840999992000121710004-21320+055480FM-15+0053FMEP V0202801N003612200019N0112651N1+03001+02001999999ADDGA1021+012009999GA2021+018009999GF104991999999999999999999MA1101491999999MW1001REMMET052FMEP 171000Z 28007KT 9999 FEW040 SCT063 30/20 Q1015;EQDQ01+000000PRSWM2
0185619840999992000121711004-21320+055480FM-15+0053FMEP V0203001N005110390019N0112651N1+03001+02001999999ADDGA1021+012009999GA2021+015009999GA3071+039009999GF107991999999999999999999MA1101491999999MW1001REMMET059FMEP 171100Z 30010KT 9999 FEW040 SCT050 BKN130 30/20 Q1015;EQDQ01+000000PRSWM2
0185619840999992000121712004-21320+055480FM-15+0053FMEP V0202801N005110360019N0112651N1+03001+02001999999ADDGA1021+012009999GA2021+012909999GA3071+036009999GF107991999999999999999999MA1101491999999MW1001REMMET059FMEP 171200Z 28010KT 9999 FEW040 SCT043 BKN120 30/20 Q1015;EQDQ01+000000PRSWM2
0170619840999992000121714004-21320+055480FM-15+0053FMEP V0202001N002112200019N0112651N1+02901+02001999999ADDGA1021+012909999GA2021+036009999GF104991999999999999999999MA1101491999999MW1001REMMET060FMEP 171400Z 20004KT 160V250 9999 FEW043 SCT120 29/20 Q1015;EQDQ01+000000PRSWM2
0139619840999992000121803004-21320+055480FM-15+0053FMEP V0200501N002112200019N0112651N1+02601+01401999999ADDGA1021+018009999GF102991999999999999999999MA1101591999999MW1001REMMET045FMEP 180300Z 05004KT 9999 FEW066 26/14 Q1016;EQDQ01+000000PRSWM2
0147619840999992000121804004-21320+055480FM-15+0053FMEP V0203101N002112200019N0112651N1+02801+01601999999ADDGA1021+018009999GF102991999999999999999999MA1101691999999MW1001REMMET053FMEP 180400Z 31004KT 260V360 9999 FEW066 28/16 Q1017;EQDQ01+000000PRSWM2
0139619840999992000121805004-21320+055480FM-15+0053FMEP V0202601N003112200019N0112651N1+02901+01701999999ADDGA1021+012909999GF102991999999999999999999MA1101591999999MW1001REMMET045FMEP 180500Z 26006KT 9999 FEW043 29/17 Q1016;EQDQ01+000000PRSWM2
0147619840999992000121806004-21320+055480FM-15+0053FMEP V0201501N004612200019N0112651N1+02901+01901999999ADDGA1021+012009999GF102991999999999999999999MA1101691999999MW1001REMMET053FMEP 180600Z 15009KT 110V200 9999 FEW040 29/19 Q1017;EQDQ01+000000PRSWM2
0142619840999992000121807004-21320+055480FM-15+0053FMEP V0202401N003112200019N0112651N1+03001+01701999999ADDGA1021+009909029GF102991999999999999999999MA1101591999999MW1001REMMET048FMEP 180700Z 24006KT 9999 FEW033TCU 30/17 Q1016;EQDQ01+000000PRSWM2
0165619840999992000121808004-21320+055480FM-15+0053FMEP V0202801N005112200019N0112651N1+03001+01901999999ADDGA1021+009909029GA2021+009909999GF102991999999999999999999MA1101591999999MW1001REMMET055FMEP 180800Z 28010KT 9999 FEW033TCU FEW033 30/19 Q1016;EQDQ01+000000PRSWM2
0174619840999992000121809004-21320+055480FM-15+0053FMEP V02099999999992200019N0112651N1+02901+02001999999ADDGA1021+009909029GA2021+009909999GF102991999999999999999999MW1001REMMET079FMEP 180900Z VRB06KT 060V010 9999 FEW033TCU FEW033 29/20 9999 FEW033TCU FEW033;EQDQ01+000000PRSWM2
0165619840999992000121810004-21320+055480FM-15+0053FMEP V0201401N008712200019N0112651N1+03101+02001999999ADDGA1021+009909029GA2021+009909999GF102991999999999999999999MA1101491999999MW1001REMMET055FMEP 181000Z 14017KT 9999 FEW033TCU FEW033 31/20 Q1015;EQDQ01+000000PRSWM2
0139619840999992000121812004-21320+055480FM-15+0053FMEP V0201501N007212200019N0112651N1+03001+02001999999ADDGA1021+010809999GF102991999999999999999999MA1101391999999MW1001REMMET045FMEP 181200Z 15014KT 9999 FEW036 30/20 Q1014;EQDQ01+000000PRSWM2
0139619840999992000121813004-21320+055480FM-15+0053FMEP V0201401N009812200019N0112651N1+02801+02101999999ADDGA1021+010809999GF102991999999999999999999MA1101391999999MW1001REMMET045FMEP 181300Z 14019KT 9999 FEW036 28/21 Q1014;EQDQ01+000000PRSWM2
0139619840999992000121903004-21320+055480FM-15+0053FMEP V0201001N002112200019N0112651N1+02701+01601999999ADDGA1021+009909999GF102991999999999999999999MA1101491999999MW1001REMMET045FMEP 190300Z 10004KT 9999 FEW033 27/16 Q1015;EQDQ01+000000PRSWM2
0158619840999992000121904004-21320+055480FM-15+0053FMEP V0201001N004612200019N0112651N1+02901+01601999999ADDGA1021+009909999GF102991999999999999999999MA1101491999999MW1001OC101081REMMET056FMEP 190400Z 10009G21KT 010V150 9999 FEW033 29/16 Q1015;EQDQ01+000000PRSWM2
0139619840999992000121905004-21320+055480FM-15+0053FMEP V0201301N009812200019N0112651N1+02901+02001999999ADDGA1021+009909999GF102991999999999999999999MA1101391999999MW1001REMMET045FMEP 190500Z 13019KT 9999 FEW033 29/20 Q1014;EQDQ01+000000PRSWM2
0150619840999992000121906004-21320+055480FM-15+0053FMEP V0201401N008712200019N0112651N1+03001+02001999999ADDGA1021+007809999GF102991999999999999999999MA1101391999999MW1001OC101391REMMET048FMEP 190600Z 14017G27KT 9999 FEW026 30/20 Q1014;EQDQ01+000000PRSWM2
0158619840999992000121907004-21320+055480FM-15+0053FMEP V0201501N009312200019N0112651N1+03001+02001999999ADDGA1021+007809999GF102991999999999999999999MA1101391999999MW1001OC101491REMMET056FMEP 190700Z 15018G29KT 120V220 9999 FEW026 30/20 Q1014;EQDQ01+000000PRSWM2
0150619840999992000121908004-21320+055480FM-15+0053FMEP V0201301N011812200019N0112651N1+03001+01901999999ADDGA1021+007809999GF102991999999999999999999MA1101291999999MW1001OC101801REMMET048FMEP 190800Z 13023G35KT 9999 FEW026 30/19 Q1013;EQDQ01+000000PRSWM2
0139619840999992000121909004-21320+055480FM-15+0053FMEP V0201401N012912200019N0112651N1+03001+02001999999ADDGA1021+007809999GF102991999999999999999999MA1101291999999MW1001REMMET045FMEP 190900Z 14025KT 9999 FEW026 30/20 Q1013;EQDQ01+000000PRSWM2
0173619840999992000121910004-21320+055480FM-15+0053FMEP V0201401N010812200019N0112651N1+02901+02101999999ADDGA1021+007509999GA2021+018009999GF104991999999999999999999MA1101291999999MW1001OC101801REMMET055FMEP 191000Z 14021G35KT 9999 FEW025 SCT066 29/21 Q1013;EQDQ01+000000PRSWM2
0162619840999992000121911004-21320+055480FM-15+0053FMEP V0201301N010812200019N0112651N1+02901+02101999999ADDGA1021+007509999GA2021+018009999GF104991999999999999999999MA1101291999999MW1001REMMET052FMEP 191100Z 13021KT 9999 FEW025 SCT060 29/21 Q1013;EQDQ01+000000PRSWM2
0162619840999992000121912004-21320+055480FM-15+0053FMEP V0201401N011312200019N0112651N1+02901+02101999999ADDGA1021+007509999GA2021+015009999GF104991999999999999999999MA1101191999999MW1001REMMET052FMEP 191200Z 14022KT 9999 FEW025 SCT050 29/21 Q1012;EQDQ01+000000PRSWM2
0139619840999992000121913004-21320+055480FM-15+0053FMEP V0201301N011312200019N0112651N1+02701+02101999999ADDGA1021+007509999GF102991999999999999999999MA1101191999999MW1001REMMET045FMEP 191300Z 13022KT 9999 FEW025 27/21 Q1012;EQDQ01+000000PRSWM2
0139619840999992000121914004-21320+055480FM-15+0053FMEP V0201301N012312200019N0112651N1+02701+02001999999ADDGA1021+008409999GF102991999999999999999999MA1101291999999MW1001REMMET045FMEP 191400Z 13024KT 9999 FEW028 27/20 Q1013;EQDQ01+000000PRSWM2
0139619840999992000121915004-21320+055480FM-15+0053FMEP V0201301N010312200019N0112651N1+02601+02001999999ADDGA1021+008409999GF102991999999999999999999MA1101291999999MW1001REMMET045FMEP 191500Z 13020KT 9999 FEW028 26/20 Q1013;EQDQ01+000000PRSWM2
0091619840999992000122003004-21320+055480FM-15+0053FMEP V0200401N00151220001CN0099001N1+02601+01701999999ADDMA1101491999999MW1001REMMET039FMEP 200300Z 04003KT CAVOK 26/17 Q1015;EQDQ01+000000PRSWM2
0091619840999992000122004004-21320+055480FM-15+0053FMEP V0202001N00311220001CN0099001N1+02801+01801999999ADDMA1101491999999MW1001REMMET039FMEP 200400Z 20006KT CAVOK 28/18 Q1015;EQDQ01+000000PRSWM2
0147619840999992000122005004-21320+055480FM-15+0053FMEP V0202401N002612200019N0112651N1+02901+01801999999ADDGA1021+018009999GF102991999999999999999999MA1101491999999MW1001REMMET053FMEP 200500Z 24005KT 200V280 9999 FEW060 29/18 Q1015;EQDQ01+000000PRSWM2
0147619840999992000122006004-21320+055480FM-15+0053FMEP V0201801N003112200019N0112651N1+02901+01801999999ADDGA1021+012009999GF102991999999999999999999MA1101491999999MW1001REMMET053FMEP 200600Z 18006KT 130V250 9999 FEW040 29/18 Q1015;EQDQ01+000000PRSWM2
0139619840999992000122007004-21320+055480FM-15+0053FMEP V0201601N004612200019N0112651N1+03001+01801999999ADDGA1021+009909999GF104991999999999999999999MA1101491999999MW1001REMMET045FMEP 200700Z 16009KT 9999 SCT033 30/18 Q1015;EQDQ01+000000PRSWM2
0147619840999992000122008004-21320+055480FM-15+0053FMEP V0201601N005712200019N0112651N1+03101+01801999999ADDGA1021+009909999GF104991999999999999999999MA1101391999999MW1001REMMET053FMEP 200800Z 16011KT 110V180 9999 SCT033 31/18 Q1014;EQDQ01+000000PRSWM2
0150619840999992000122009004-21320+055480FM-15+0053FMEP V0201401N010312200019N0112651N1+03001+02001999999ADDGA1021+009909999GF104991999999999999999999MA1101391999999MW1001OC101591REMMET048FMEP 200900Z 14020G31KT 9999 SCT033 30/20 Q1014;EQDQ01+000000PRSWM2
0150619840999992000122010004-21320+055480FM-15+0053FMEP V0201301N011812200019N0112651N1+03001+01901999999ADDGA1021+009909999GF104991999999999999999999MA1101291999999MW1001OC101901REMMET048FMEP 201000Z 13023G37KT 9999 SCT033 30/19 Q1013;EQDQ01+000000PRSWM2
0139619840999992000122011004-21320+055480FM-15+0053FMEP V0201301N013412200019N0112651N1+02901+02001999999ADDGA1021+009909999GF104991999999999999999999MA1101291999999MW1001REMMET045FMEP 201100Z 13026KT 9999 SCT033 29/20 Q1013;EQDQ01+000000PRSWM2
0150619840999992000122012004-21320+055480FM-15+0053FMEP V0201301N012912200019N0112651N1+02901+02001999999ADDGA1021+009009999GF102991999999999999999999MA1101291999999MW1001OC101801REMMET048FMEP 201200Z 13025G35KT 9999 FEW030 29/20 Q1013;EQDQ01+000000PRSWM2
0150619840999992000122013004-21320+055480FM-15+0053FMEP V02099999999992200019N0112651N1+02901+01901999999ADDGA1021+009009999GF102991999999999999999999MA1101291999999MW1001REMMET056FMEP 201300Z VRB13G32KT 010V360 9999 FEW030 29/19 Q1013;EQDQ01+000000PRSWM2
0139619840999992000122103004-21320+055480FM-15+0053FMEP V0201401N004112200019N0112651N1+02601+01801999999ADDGA1021+015009999GF102991999999999999999999MA1101591999999MW1001REMMET045FMEP 210300Z 14008KT 9999 FEW050 26/18 Q1016;EQDQ01+000000PRSWM2
0150619840999992000122105004-21320+055480FM-15+0053FMEP V0202501N003612200019N0112651N1+02901+01801999999ADDGA1021+009909029GF102991999999999999999999MA1101591999999MW1001REMMET056FMEP 210500Z 25007KT 220V290 9999 FEW033TCU 29/18 Q1016;EQDQ01+000000PRSWM2
0142619840999992000122106004-21320+055480FM-15+0053FMEP V0202601N004112200019N0112651N1+02901+01901999999ADDGA1021+009009029GF104991999999999999999999MA1101591999999MW1001REMMET048FMEP 210600Z 26008KT 9999 SCT030TCU 29/19 Q1016;EQDQ01+000000PRSWM2
0150619840999992000122107004-21320+055480FM-15+0053FMEP V0202401N003112200019N0112651N1+03001+01901999999ADDGA1021+009009029GF104991999999999999999999MA1101591999999MW1001REMMET056FMEP 210700Z 24006KT 190V270 9999 SCT030TCU 30/19 Q1016;EQDQ01+000000PRSWM2
0165619840999992000122108004-21320+055480FM-15+0053FMEP V0201701N004612200019N0112651N1+03001+01901999999ADDGA1021+009009999GA2021+009909029GF104991999999999999999999MA1101491999999MW1001REMMET055FMEP 210800Z 17009KT 9999 FEW030 SCT033TCU 30/19 Q1015;EQDQ01+000000PRSWM2
0165619840999992000122109004-21320+055480FM-15+0053FMEP V0201501N005112200019N0112651N1+03001+02001999999ADDGA1021+008409999GA2021+009909029GF104991999999999999999999MA1101391999999MW1001REMMET055FMEP 210900Z 15010KT 9999 FEW028 SCT033TCU 30/20 Q1014;EQDQ01+000000PRSWM2
0174619840999992000122110004-21320+055480FM-15+0053FMEP V0201501N005112200019N0112651N1+03001+01901999999ADDGA1021+009009999GA2021+009909029GF104991999999999999999999MW1001REMMET079FMEP 211000Z 15010KT 120V190 9999 SCT030 SCT033TCU 30/19 9999 SCT030 SCT033TCU;EQDQ01+000000PRSWM2
0161619840999992000122111004-21320+055480FM-15+0053FMEP V02099999999992200019N0112651N1+02901+02001999999ADDGA1021+006009999GA2021+007809999GF104991999999999999999999MA1101391999999MW1001REMMET051FMEP 211100Z 1319KT 9999 FEW020 SCT026 29/20 Q1014;EQDQ01+000000PRSWM2
0139619840999992000122112004-21320+055480FM-15+0053FMEP V0201301N009812200019N0112651N1+02901+02001999999ADDGA1021+007809999GF104991999999999999999999MA1101291999999MW1001REMMET045FMEP 211200Z 13019KT 9999 SCT026 29/20 Q1013;EQDQ01+000000PRSWM2
0165619840999992000122113004-21320+055480FM-15+0053FMEP V0201301N009312200019N0112651N1+02801+02101999999ADDGA1021+006009999GA2021+007809029GF102991999999999999999999MA1101291999999MW1001REMMET055FMEP 211300Z 13018KT 9999 SCT020 FEW026TCU 28/21 Q1013;EQDQ01+000000PRSWM2
0139619840999992000122203004-21320+055480FM-15+0053FMEP V0200301N002112200019N0112651N1+02701+01501999999ADDGA1021+030009999GF104991999999999999999999MA1101491999999MW1001REMMET045FMEP 220300Z 03004KT 9999 SCT100 27/15 Q1015;EQDQ01+000000PRSWM2
0147619840999992000122204004-21320+055480FM-15+0053FMEP V0201601N002610300019N0112651N1+02801+01701999999ADDGA1071+030009999GF107991999999999999999999MA1101491999999MW1001REMMET053FMEP 220400Z 16005KT 120V190 9999 BKN100 28/17 Q1015;EQDQ01+000000PRSWM2
0162619840999992000122205004-21320+055480FM-15+0053FMEP V0202001N002112200019N0112651N1+02901+01801999999ADDGA1021+018009999GA2021+048009999GF104991999999999999999999MA1101391999999MW1001REMMET052FMEP 220500Z 20004KT 9999 FEW060 SCT160 29/18 Q1014;EQDQ01+000000PRSWM2
0170619840999992000122206004-21320+055480FM-15+0053FMEP V0202101N002612200019N0112651N1+02901+01801999999ADDGA1021+018009999GA2021+048009999GF104991999999999999999999MA1101391999999MW1001REMMET060FMEP 220600Z 21005KT 180V250 9999 FEW060 SCT160 29/18 Q1014;EQDQ01+000000PRSWM2
0198619840999992000122207004-21320+055480FM-15+0053FMEP V0202201N002110450019N0112651N1+99999+99999999999ADDGA1021+009009999GA2021+009309029GA3071+045009999GF107991999999999999999999MW1001REMMET087FMEP 220700Z 22004KT 160V260 9999 FEW030 FEW031TCU BKN150 9999 FEW030 FEW031TCU BKN150;EQDQ01+000000PRSWM2
0162619840999992000122208004-21320+055480FM-15+0053FMEP V0202101N001510450019N0112651N1+02901+01901999999ADDGA1021+009309999GA2071+045009999GF107991999999999999999999MA1101291999999MW1001REMMET052FMEP 220800Z 21003KT 9999 FEW031 BKN150 29/19 Q1013;EQDQ01+000000PRSWM2
0170619840999992000122209004-21320+055480FM-15+0053FMEP V0202301N002110450019N0112651N1+02801+02001999999ADDGA1021+009009999GA2071+045009999GF107991999999999999999999MA1101291999999MW1001REMMET060FMEP 220900Z 23004KT 190V280 9999 FEW030 BKN150 28/20 Q1013;EQDQ01+000000PRSWM2
0162619840999992000122211004-21320+055480FM-15+0053FMEP V0202601N003110450019N0112651N1+02901+01901999999ADDGA1021+009309999GA2071+045009999GF107991999999999999999999MA1101191999999MW1001REMMET052FMEP 221100Z 26006KT 9999 FEW031 BKN150 29/19 Q1012;EQDQ01+000000PRSWM2
0162619840999992000122212004-21320+055480FM-15+0053FMEP V0202701N004612200019N0112651N1+03001+02001999999ADDGA1021+009309999GA2021+045009999GF104991999999999999999999MA1101081999999MW1001REMMET052FMEP 221200Z 27009KT 9999 FEW031 SCT150 30/20 Q1011;EQDQ01+000000PRSWM2
0152619840999992000122213004-21320+055480FM-15+0053FMEP V0202801N00411220001CN0112651N1+02901+02001999999ADDGA1071+018009999GA2021+045009999MA1101191999999MW1001REMMET052FMEP 221300Z 28008KT 9999 BKN066 SCT150 29/20 Q1012;EQDQ01+000042SCOTCVQ02+000000PRSWM2
0139619840999992000122303004-21320+055480FM-15+0053FMEP V0200401N002112200019N0112651N1+02601+01701999999ADDGA1021+009909999GF102991999999999999999999MA1101191999999MW1001REMMET045FMEP 230300Z 04004KT 9999 FEW033 26/17 Q1012;EQDQ01+000000PRSWM2
0162619840999992000122304004-21320+055480FM-15+0053FMEP V0202301N001512200019N0112651N1+02801+02101999999ADDGA1021+009909999GA2021+027009999GF104991999999999999999999MA1101291999999MW1001REMMET052FMEP 230400Z 23003KT 9999 FEW033 SCT093 28/21 Q1013;EQDQ01+000000PRSWM2
0162619840999992000122305004-21320+055480FM-15+0053FMEP V0201901N002612200019N0112651N1+02701+02101999999ADDGA1021+009009999GA2021+024009999GF104991999999999999999999MA1101291999999MW1001REMMET052FMEP 230500Z 19005KT 9999 FEW030 SCT083 27/21 Q1013;EQDQ01+000000PRSWM2
0162619840999992000122306004-21320+055480FM-15+0053FMEP V0201501N004612200019N0112651N1+03001+02001999999ADDGA1021+009009999GA2021+024009999GF104991999999999999999999MA1101291999999MW1001REMMET052FMEP 230600Z 15009KT 9999 FEW030 SCT083 30/20 Q1013;EQDQ01+000000PRSWM2
0162619840999992000122307004-21320+055480FM-15+0053FMEP V0201501N004612200019N0112651N1+03001+02101999999ADDGA1021+007509999GA2021+018009999GF104991999999999999999999MA1101291999999MW1001REMMET052FMEP 230700Z 15009KT 9999 FEW025 SCT066 30/21 Q1013;EQDQ01+000000PRSWM2
0170619840999992000122308004-21320+055480FM-15+0053FMEP V0201601N003112200019N0112651N1+03001+02101999999ADDGA1021+007509999GA2021+024009999GF104991999999999999999999MA1101291999999MW1001REMMET060FMEP 230800Z 16006KT 120V210 9999 FEW025 SCT083 30/21 Q1013;EQDQ01+000000PRSWM2
0170619840999992000122309004-21320+055480FM-15+0053FMEP V0202001N003112200019N0112651N1+03001+02101999999ADDGA1021+007509999GA2021+024009999GF104991999999999999999999MA1101191999999MW1001REMMET060FMEP 230900Z 20006KT 160V240 9999 FEW025 SCT083 30/21 Q1012;EQDQ01+000000PRSWM2
0170619840999992000122310004-21320+055480FM-15+0053FMEP V0201901N003112200019N0112651N1+03001+02101999999ADDGA1021+007509999GA2021+024009999GF104991999999999999999999MA1101191999999MW1001REMMET060FMEP 231000Z 19006KT 160V230 9999 FEW025 SCT083 30/21 Q1012;EQDQ01+000000PRSWM2
0194619840999992000122311004-21320+055480FM-15+0053FMEP V0202401N003112200019N0080001N1+03001+02101999999ADDGA1021+007509999GA2021+015009999GF104991999999999999999999MW1161REMMET083FMEP 231100Z 24006KT 200V280 8000 VCSH FEW025 SCT050 30/21 8000 VCSH FEW025 SCT050;EQDQ01+000003PRSWM1Q02    003PRSWM1
0181619840999992000122312004-21320+055480FM-15+0053FMEP V02099999999990150019N0080001N1+02901+02201999999ADDGA1021+007509999GA2071+015009999GF107991999999999999999999MA1101081999999MW1611REMMET055FMEP 231200Z VRB3KT 8000 -RA FEW025 BKN050 29/22 Q1011;EQDQ01+000003PRSWM1Q02    003PRSWM1
0182619840999992000122313004-21320+055480FM-15+0053FMEP V0203401N001010150019N0080001N1+02801+02301999999ADDGA1021+007509999GA2071+015009999GF107991999999999999999999MA1101081999999MW1611REMMET056FMEP 231300Z 34002KT 8000 -RA FEW025 BKN050 28/23 Q1011;EQDQ01+000003PRSWM1Q02    003PRSWM1
0162619840999992000122314004-21320+055480FM-15+0053FMEP V0200101N001510150019N0112651N1+02701+02301999999ADDGA1021+007509999GA2071+015009999GF107991999999999999999999MA1101081999999MW1001REMMET052FMEP 231400Z 01003KT 9999 FEW025 BKN050 27/23 Q1011;EQDQ01+000000PRSWM2
0162619840999992000122403004-21320+055480FM-15+0053FMEP V0200801N001510600019N0112651N1+02601+02001999999ADDGA1021+009909999GA2071+060009999GF107991999999999999999999MA1101191999999MW1001REMMET052FMEP 240300Z 08003KT 9999 FEW033 BKN200 26/20 Q1012;EQDQ01+000000PRSWM2
0162619840999992000122404004-21320+055480FM-15+0053FMEP V0201701N002610600019N0112651N1+02801+02101999999ADDGA1021+009909999GA2071+060009999GF107991999999999999999999MA1101191999999MW1001REMMET052FMEP 240400Z 17005KT 9999 FEW033 BKN200 28/21 Q1012;EQDQ01+000000PRSWM2
0161619840999992000122406004-21320+055480FM-15+0053FMEP V0202801N004610600019N0112651N1+02801+02101999999ADDGA1021+009909999GA2071+060009999GF107991999999999999999999MA1101291999999MW1001REMMET051FMEP 240600 28009KT 9999 FEW033 BKN200 28/21 Q1013;EQDQ01+000000PRSWM2
0162619840999992000122407004-21320+055480FM-15+0053FMEP V0203001N004110600019N0112651N1+02701+02101999999ADDGA1021+008409999GA2071+060009999GF107991999999999999999999MA1101291999999MW1001REMMET052FMEP 240700Z 30008KT 9999 FEW028 BKN200 27/21 Q1013;EQDQ01+000000PRSWM2
0162619840999992000122408004-21320+055480FM-15+0053FMEP V0202601N003110600019N0112651N1+02801+02101999999ADDGA1021+008409999GA2071+060009999GF107991999999999999999999MA1101191999999MW1001REMMET052FMEP 240800Z 26006KT 9999 FEW028 BKN200 28/21 Q1012;EQDQ01+000000PRSWM2
0162619840999992000122409004-21320+055480FM-15+0053FMEP V0202601N003110240019N0112651N1+02801+02201999999ADDGA1021+008409999GA2071+024009999GF107991999999999999999999MA1101191999999MW1001REMMET052FMEP 240900Z 26006KT 9999 FEW028 BKN083 28/22 Q1012;EQDQ01+000000PRSWM2
0162619840999992000122410004-21320+055480FM-15+0053FMEP V0202201N001510240019N0112651N1+02701+02101999999ADDGA1021+008409999GA2071+024009999GF107991999999999999999999MA1101191999999MW1001REMMET052FMEP 241000Z 22003KT 9999 FEW028 BKN083 27/21 Q1012;EQDQ01+000000PRSWM2
0162619840999992000122411004-21320+055480FM-15+0053FMEP V0202001N001510240019N0112651N1+02701+02101999999ADDGA1021+008409999GA2071+024009999GF107991999999999999999999MA1101081999999MW1001REMMET052FMEP 241100Z 20003KT 9999 FEW028 BKN083 27/21 Q1011;EQDQ01+000000PRSWM2
0162619840999992000122412004-21320+055480FM-15+0053FMEP V0201801N002610180019N0112651N1+02701+02201999999ADDGA1021+007509999GA2071+018009999GF107991999999999999999999MA1101081999999MW1001REMMET052FMEP 241200Z 18005KT 9999 FEW025 BKN066 27/22 Q1011;EQDQ01+000000PRSWM2
0162619840999992000122413004-21320+055480FM-15+0053FMEP V0201401N003110180019N0112651N1+02701+02201999999ADDGA1021+007509999GA2071+018009999GF107991999999999999999999MA1101081999999MW1001REMMET052FMEP 241300Z 14006KT 9999 FEW025 BKN066 27/22 Q1011;EQDQ01+000000PRSWM2
0162619840999992000122503004-21320+055480FM-15+0053FMEP V0200301N002612200019N0112651N1+02701+02101999999ADDGA1021+018009999GA2021+048009999GF104991999999999999999999MA1101191999999MW1001REMMET052FMEP 250300Z 03005KT 9999 FEW066 SCT160 27/21 Q1012;EQDQ01+000000PRSWM2
0147619840999992000122504004-21320+055480FM-15+0053FMEP V0202701N002112200019N0112651N1+02801+02201999999ADDGA1021+012009999GF102991999999999999999999MA1101191999999MW1001REMMET053FMEP 250400Z 27004KT 200V360 9999 FEW040 28/22 Q1012;EQDQ01+000000PRSWM2
0139619840999992000122505004-21320+055480FM-15+0053FMEP V0202601N003112200019N0112651N1+02901+02301999999ADDGA1021+009009999GF102991999999999999999999MA1101191999999MW1001REMMET045FMEP 250500Z 26006KT 9999 FEW030 29/23 Q1012;EQDQ01+000000PRSWM2
0162619840999992000122506004-21320+055480FM-15+0053FMEP V0202501N003612200019N0112651N1+02901+02301999999ADDGA1021+009009999GA2021+039009999GF104991999999999999999999MA1101191999999MW1001REMMET052FMEP 250600Z 25007KT 9999 SCT030 SCT130 29/23 Q1012;EQDQ01+000000PRSWM2
0183619840999992000122507004-21320+055480FM-15+0053FMEP V0202601N003612200019N0112651N1+02901+02201999999ADDGA1021+006009999GA2021+009009999GF104991999999999999999999MA1101191999999MW1161REMMET057FMEP 250700Z 26007KT 9999 VCSH SCT020 SCT030 29/22 Q1012;EQDQ01+000003PRSWM1Q02    003PRSWM1
0162619840999992000122508004-21320+055480FM-15+0053FMEP V0202301N004112200019N0112651N1+03001+02201999999ADDGA1021+006909999GA2021+009009999GF104991999999999999999999MA1101191999999MW1001REMMET052FMEP 250800Z 23008KT 9999 SCT023 SCT030 30/22 Q1012;EQDQ01+000000PRSWM2
0173619840999992000122509004-21320+055480FM-15+0053FMEP V0202101N00411220001CN0080001N1+02901+02301999999ADDGA1071+006909999GA2021+009009999MA1101081999999MW1161REMMET057FMEP 250900Z 21008KT 8000 VCSH BKN023 SCT030 29/23 Q1011;EQDQ01+000042SCOTCVQ02+000003PRSWM1Q03    003PRSWM1
0183619840999992000122510004-21320+055480FM-15+0053FMEP V0202001N002610048019N0080001N1+02801+02301999999ADDGA1071+004809999GA2071+006909999GF107991999999999999999999MA1101081999999MW1161REMMET057FMEP 251000Z 20005KT 8000 VCSH BKN016 BKN023 28/23 Q1011;EQDQ01+000003PRSWM1Q02    003PRSWM1
0191619840999992000122511004-21320+055480FM-15+0053FMEP V0203601N003110060019N0080001N1+02601+02301999999ADDGA1021+004809099GA2071+006009999GF107991999999999999999999MA1101081999999MW1811MW2951REMMET059FMEP 251100Z 36006KT 8000 TSRA SCT016CB BKN020 26/23 Q1011;EQDQ01+000003PRSWM1Q02    003PRSWM1
0183619840999992000122512004-21320+055480FM-15+0053FMEP V0200201N002110060019N0040001N1+02501+02301999999ADDGA1021+004809099GA2081+006009999GF108991999999999999999999MA1101081999999MW1631REMMET057FMEP 251200Z 02004KT 4000 RA SCT016CB OVC020 25/23 Q1011;EQDQ01+000003PRSWM1Q02    003PRSWM1
0162619840999992000122513004-21320+055480FM-15+0053FMEP V0201101N001510390019N0112651N1+02601+02401999999ADDGA1021+009009999GA2071+039009999GF107991999999999999999999MA1101021999999MW1001REMMET052FMEP 251300Z 11003KT 9999 SCT030 BKN130 26/24 Q1010;EQDQ01+000000PRSWM2
0162619840999992000122603004-21320+055480FM-15+0053FMEP V0200301N002612200019N0112651N1+02601+02001999999ADDGA1021+009909999GA2021+048009999GF104991999999999999999999MA1101081999999MW1001REMMET052FMEP 260300Z 03005KT 9999 FEW033 SCT160 26/20 Q1011;EQDQ01+000000PRSWM2
0162619840999992000122604004-21320+055480FM-15+0053FMEP V0202201N001012200019N0112651N1+02701+02201999999ADDGA1021+009909999GA2021+048009999GF104991999999999999999999MA1101081999999MW1001REMMET052FMEP 260400Z 22002KT 9999 FEW033 SCT160 27/22 Q1011;EQDQ01+000000PRSWM2
0139619840999992000122605004-21320+055480FM-15+0053FMEP V0202301N003112200019N0112651N1+02801+02201999999ADDGA1021+009309999GF102991999999999999999999MA1101081999999MW1001REMMET045FMEP 260500Z 23006KT 9999 FEW031 28/22 Q1011;EQDQ01+000000PRSWM2
0139619840999992000122606004-21320+055480FM-15+0053FMEP V0202001N003112200019N0112651N1+02901+02201999999ADDGA1021+009309999GF102991999999999999999999MA1101081999999MW1001REMMET045FMEP 260600Z 20006KT 9999 FEW031 29/22 Q1011;EQDQ01+000000PRSWM2
0139619840999992000122607004-21320+055480FM-15+0053FMEP V0201801N004112200019N0112651N1+02901+02201999999ADDGA1021+009309999GF102991999999999999999999MA1101081999999MW1001REMMET045FMEP 260700Z 18008KT 9999 FEW031 29/22 Q1011;EQDQ01+000000PRSWM2
0139619840999992000122608004-21320+055480FM-15+0053FMEP V0201801N004112200019N0112651N1+03001+02301999999ADDGA1021+009309999GF102991999999999999999999MA1101081999999MW1001REMMET045FMEP 260800Z 18008KT 9999 FEW031 30/23 Q1011;EQDQ01+000000PRSWM2
0139619840999992000122609004-21320+055480FM-15+0053FMEP V0201901N004112200019N0112651N1+03001+02301999999ADDGA1021+007509999GF102991999999999999999999MA1101081999999MW1001REMMET045FMEP 260900Z 19008KT 9999 FEW025 30/23 Q1011;EQDQ01+000000PRSWM2
0139619840999992000122610004-21320+055480FM-15+0053FMEP V0201901N003612200019N0112651N1+03001+02201999999ADDGA1021+007509999GF102991999999999999999999MA1101081999999MW1001REMMET045FMEP 261000Z 19007KT 9999 FEW025 30/22 Q1011;EQDQ01+000000PRSWM2
0162619840999992000122611004-21320+055480FM-15+0053FMEP V0202101N004612200019N0112651N1+03101+02201999999ADDGA1021+007509999GA2021+048009999GF104991999999999999999999MA1101021999999MW1001REMMET052FMEP 261100Z 21009KT 9999 FEW025 SCT160 31/22 Q1010;EQDQ01+000000PRSWM2
0162619840999992000122612004-21320+055480FM-15+0053FMEP V0201801N005112200019N0112651N1+03101+02101999999ADDGA1021+007509999GA2021+024009999GF104991999999999999999999MA1101021999999MW1001REMMET052FMEP 261200Z 18010KT 9999 FEW025 SCT083 31/21 Q1010;EQDQ01+000000PRSWM2
0162619840999992000122613004-21320+055480FM-15+0053FMEP V0201501N004112200019N0112651N1+03001+02101999999ADDGA1021+007509999GA2021+024009999GF104991999999999999999999MA1101021999999MW1001REMMET052FMEP 261300Z 15008KT 9999 FEW025 SCT083 30/21 Q1010;EQDQ01+000000PRSWM2
0162619840999992000122614004-21320+055480FM-15+0053FMEP V0201401N004112200019N0112651N1+02801+02101999999ADDGA1021+007509999GA2021+048009999GF104991999999999999999999MA1101021999999MW1001REMMET052FMEP 261400Z 14008KT 9999 FEW025 SCT160 28/21 Q1010;EQDQ01+000000PRSWM2
0091619840999992000122703004-21320+055480FM-15+0053FMEP V0200401N00101220001CN0099001N1+02601+01901999999ADDMA1101081999999MW1001REMMET039FMEP 270300Z 04002KT CAVOK 26/19 Q1011;EQDQ01+000000PRSWM2
0091619840999992000122704004-21320+055480FM-15+0053FMEP V0201501N00311220001CN0099001N1+02901+02001999999ADDMA1101081999999MW1001REMMET039FMEP 270400Z 15006KT CAVOK 29/20 Q1011;EQDQ01+000000PRSWM2
0091619840999992000122705004-21320+055480FM-15+0053FMEP V0201501N00411220001CN0099001N1+02901+02201999999ADDMA1101081999999MW1001REMMET039FMEP 270500Z 15008KT CAVOK 29/22 Q1011;EQDQ01+000000PRSWM2
0139619840999992000122706004-21320+055480FM-15+0053FMEP V0201501N004612200019N0112651N1+03001+02201999999ADDGA1021+009909999GF102991999999999999999999MA1101191999999MW1001REMMET045FMEP 270600Z 15009KT 9999 FEW033 30/22 Q1012;EQDQ01+000000PRSWM2
0162619840999992000122707004-21320+055480FM-15+0053FMEP V0201601N004612200019N0112651N1+03001+02301999999ADDGA1021+009909999GA2021+024009999GF104991999999999999999999MA1101191999999MW1001REMMET052FMEP 270700Z 16009KT 9999 FEW033 SCT083 30/23 Q1012;EQDQ01+000000PRSWM2
0162619840999992000122708004-21320+055480FM-15+0053FMEP V0201901N004110240019N0112651N1+03001+02201999999ADDGA1021+008409999GA2071+024009999GF107991999999999999999999MA1101191999999MW1001REMMET052FMEP 270800Z 19008KT 9999 FEW028 BKN083 30/22 Q1012;EQDQ01+000000PRSWM2
0170619840999992000122709004-21320+055480FM-15+0053FMEP V0201601N003610240019N0112651N1+03101+02201999999ADDGA1021+007509999GA2071+024009999GF107991999999999999999999MA1101191999999MW1001REMMET060FMEP 270900Z 16007KT 120V190 9999 FEW025 BKN083 31/22 Q1012;EQDQ01+000000PRSWM2
0162619840999992000122710004-21320+055480FM-15+0053FMEP V0201601N004110240019N0112651N1+03001+02201999999ADDGA1021+007509999GA2081+024009999GF108991999999999999999999MA1101191999999MW1001REMMET052FMEP 271000Z 16008KT 9999 FEW025 OVC083 30/22 Q1012;EQDQ01+000000PRSWM2
0170619840999992000122711004-21320+055480FM-15+0053FMEP V0201601N004110240019N0112651N1+03001+02201999999ADDGA1021+007509999GA2081+024009999GF108991999999999999999999MA1101081999999MW1001REMMET060FMEP 271100Z 16008KT 120V190 9999 FEW025 OVC083 30/22 Q1011;EQDQ01+000000PRSWM2
0162619840999992000122712004-21320+055480FM-15+0053FMEP V0201301N005110240019N0112651N1+02901+02201999999ADDGA1021+008409999GA2081+024009999GF108991999999999999999999MA1101081999999MW1001REMMET052FMEP 271200Z 13010KT 9999 FEW028 OVC083 29/22 Q1011;EQDQ01+000000PRSWM2
0162619840999992000122713004-21320+055480FM-15+0053FMEP V0201401N005110240019N0112651N1+02901+02301999999ADDGA1021+008409999GA2081+024009999GF108991999999999999999999MA1101021999999MW1001REMMET052FMEP 271300Z 14010KT 9999 FEW028 OVC083 29/23 Q1010;EQDQ01+000000PRSWM2
0162619840999992000122803004-21320+055480FM-15+0053FMEP V0201301N004610240019N0112651N1+02601+02301999999ADDGA1021+009909999GA2081+024009999GF108991999999999999999999MA1101191999999MW1001REMMET052FMEP 280300Z 13009KT 9999 FEW033 OVC083 26/23 Q1012;EQDQ01+000000PRSWM2
0162619840999992000122804004-21320+055480FM-15+0053FMEP V0201301N004610240019N0112651N1+02601+02301999999ADDGA1021+007809999GA2081+024009999GF108991999999999999999999MA1101291999999MW1001REMMET052FMEP 280400Z 13009KT 9999 SCT026 OVC083 26/23 Q1013;EQDQ01+000000PRSWM2
0162619840999992000122805004-21320+055480FM-15+0053FMEP V0201501N003610240019N0112651N1+02701+02401999999ADDGA1021+006009999GA2081+024009999GF108991999999999999999999MA1101291999999MW1001REMMET052FMEP 280500Z 15007KT 9999 SCT020 OVC083 27/24 Q1013;EQDQ01+000000PRSWM2
0192619840999992000122806004-21320+055480FM-15+0053FMEP V0202001N002110240019N0112651N1+99999+99999999999ADDGA1021+006009999GA2021+015009999GA3081+024009999GF108991999999999999999999MW1001REMMET081FMEP 280600Z 20004KT 150V260 9999 SCT020 SCT050 OVC083 9999 SCT020 SCT050 OVC083;EQDQ01+000000PRSWM2
0208619840999992000122807004-21320+055480FM-15+0053FMEP V0202001N002610039019N0080001N1+99999+99999999999ADDGA1071+003909999GA2021+009909999GA3081+024009999GF108991999999999999999999MW1001MW2161REMMET091FMEP 280700Z 20005KT 160V250 8000 VCSH BKN013 SCT033 OVC083 8000 VCSH BKN013 SCT033 OVC083;EQDQ01+000003PRSWM1
0216619840999992000122808004-21320+055480FM-15+0053FMEP V0200301N002610039019N0080001N1+02501+02301999999ADDGA1071+003909999GA2021+009909999GA3081+024009999GF108991999999999999999999MW1161REMMET089FMEP 280800Z 03005KT 8000 VCSH BKN013 SCT033 OVC083 25/23 8000 VCSH BKN013 SCT033 OVC083;EQDQ01+000003PRSWM1Q02    003PRSWM1
0182619840999992000122809004-21320+055480FM-15+0053FMEP V0203601N002110180019N0050001N1+02601+02301999999ADDGA1021+006009999GA2081+018009999GF108991999999999999999999MA1101291999999MW1611REMMET056FMEP 280900Z 36004KT 5000 -RA SCT020 OVC066 26/23 Q1013;EQDQ01+000003PRSWM1Q02    003PRSWM1
0216619840999992000122810004-21320+055480FM-15+0053FMEP V0200201N001510099019N0050001N1+02601+02301999999ADDGA1021+003009999GA2071+009909999GA3071+024009999GF107991999999999999999999MW1161REMMET089FMEP 281000Z 02003KT 5000 VCSH SCT010 BKN033 BKN083 26/23 5000 VCSH SCT010 BKN033 BKN083;EQDQ01+000003PRSWM1Q02    003PRSWM1
0172619840999992000122811004-21320+055480FM-15+0053FMEP V0200501N001510099019N0080001N1+99999+99999999999ADDGA1021+003009999GA2071+009909029GA3071+024009999GF107991999999999999999999MW1001MW2161REMMET055FMEP 281100Z 05003KT 8000 VCSH SCT010 BKN033TCU BKN083;EQDQ01+000003PRSWM1
0220619840999992000122812004-21320+055480FM-15+0053FMEP V0201401N004610300019N0080001N1+02701+02301999999ADDGA1021+002409099GA2021+012009999GA3081+030009999GF108991999999999999999999MW1161REMMET093FMEP 281200Z 14009KT 8000 VCSH FEW008CB SCT040 OVC100 27/23 8000 VCSH FEW008CB SCT040 OVC100;EQDQ01+000003PRSWM1Q02    003PRSWM1
0220619840999992000122813004-21320+055480FM-15+0053FMEP V0200401N002610300019N0080001N1+02601+02301999999ADDGA1021+002409099GA2021+012009999GA3081+030009999GF108991999999999999999999MW1161REMMET093FMEP 281300Z 04005KT 8000 VCSH FEW008CB SCT040 OVC100 26/23 8000 VCSH FEW008CB SCT040 OVC100;EQDQ01+000003PRSWM1Q02    003PRSWM1
0162619840999992000122904004-21320+055480FM-15+0053FMEP V0200201N001010300019N0112651N1+02701+02201999999ADDGA1021+009309999GA2071+030009999GF107991999999999999999999MA1101291999999MW1001REMMET052FMEP 290400Z 02002KT 9999 SCT031 BKN100 27/22 Q1013;EQDQ01+000000PRSWM2
0162619840999992000122905004-21320+055480FM-15+0053FMEP V0201301N001510240019N0112651N1+02701+02201999999ADDGA1021+009009999GA2071+024009999GF107991999999999999999999MA1101291999999MW1001REMMET052FMEP 290500Z 13003KT 9999 SCT030 BKN083 27/22 Q1013;EQDQ01+000000PRSWM2
0170619840999992000122906004-21320+055480FM-15+0053FMEP V0201501N002610240019N0112651N1+02901+02201999999ADDGA1021+008409999GA2071+024009999GF107991999999999999999999MA1101291999999MW1001REMMET060FMEP 290600Z 15005KT 120V190 9999 SCT028 BKN083 29/22 Q1013;EQDQ01+000000PRSWM2
0196619840999992000122908004-21320+055480FM-15+0053FMEP V0202001N005110300019N0112651N1+03001+02301999999ADDGA1021+007809999GA2021+009009029GA3071+030009999GF107991999999999999999999MW1001REMMET085FMEP 290800Z 20010KT 9999 SCT026 SCT030TCU BKN100 30/23 9999 SCT026 SCT030TCU BKN100;EQDQ01+000000PRSWM2
0196619840999992000122909004-21320+055480FM-15+0053FMEP V0202201N005112200019N0112651N1+03001+02201999999ADDGA1021+007509029GA2021+007509999GA3021+027009999GF104991999999999999999999MW1001REMMET085FMEP 290900Z 22010KT 9999 SCT025TCU SCT025 SCT093 30/22 9999 SCT025TCU SCT025 SCT093;EQDQ01+000000PRSWM2
0196619840999992000122910004-21320+055480FM-15+0053FMEP V0202301N005712200019N0112651N1+03001+02201999999ADDGA1021+007509029GA2021+007509999GA3021+027009999GF104991999999999999999999MW1001REMMET085FMEP 291000Z 23011KT 9999 SCT025TCU SCT025 SCT093 30/22 9999 SCT025TCU SCT025 SCT093;EQDQ01+000000PRSWM2
0162619840999992000122911004-21320+055480FM-15+0053FMEP V0202301N003612200019N0112651N1+03001+02201999999ADDGA1021+007509999GA2021+027009999GF104991999999999999999999MA1101191999999MW1001REMMET052FMEP 291100Z 23007KT 9999 SCT025 SCT093 30/22 Q1012;EQDQ01+000000PRSWM2
0162619840999992000122912004-21320+055480FM-15+0053FMEP V0202401N005112200019N0112651N1+02901+02201999999ADDGA1021+007509999GA2021+024009999GF104991999999999999999999MA1101081999999MW1001REMMET052FMEP 291200Z 24010KT 9999 FEW025 SCT083 29/22 Q1011;EQDQ01+000000PRSWM2
0183619840999992000122913004-21320+055480FM-15+0053FMEP V0202401N006710240019N0080001N1+02801+02201999999ADDGA1021+007509999GA2071+024009999GF107991999999999999999999MA1101081999999MW1161REMMET057FMEP 291300Z 24013KT 8000 VCSH FEW025 BKN083 28/22 Q1011;EQDQ01+000003PRSWM1Q02    003PRSWM1
0162619840999992000123003004-21320+055480FM-15+0053FMEP V0200301N002612200019N0112651N1+02401+02001999999ADDGA1021+012009999GA2021+048009999GF104991999999999999999999MA1101291999999MW1001REMMET052FMEP 300300Z 03005KT 9999 FEW040 SCT160 24/20 Q1013;EQDQ01+000000PRSWM2
0162619840999992000123005004-21320+055480FM-15+0053FMEP V0202901N005112200019N0112651N1+03001+02101999999ADDGA1021+012009999GA2021+048009999GF104991999999999999999999MA1101291999999MW1001REMMET052FMEP 300500Z 29010KT 9999 FEW040 SCT160 30/21 Q1013;EQDQ01+000000PRSWM2
0162619840999992000123006004-21320+055480FM-15+0053FMEP V0202901N005112200019N0112651N1+03001+02001999999ADDGA1021+009909999GA2021+048009999GF104991999999999999999999MA1101291999999MW1001REMMET052FMEP 300600Z 29010KT 9999 FEW033 SCT160 30/20 Q1013;EQDQ01+000000PRSWM2
0162619840999992000123007004-21320+055480FM-15+0053FMEP V0202801N005712200019N0112651N1+03101+02101999999ADDGA1021+009909999GA2021+048009999GF104991999999999999999999MA1101291999999MW1001REMMET052FMEP 300700Z 28011KT 9999 SCT033 SCT160 31/21 Q1013;EQDQ01+000000PRSWM2
0162619840999992000123008004-21320+055480FM-15+0053FMEP V0202701N006712200019N0112651N1+03101+02201999999ADDGA1021+009909999GA2021+048009999GF104991999999999999999999MA1101291999999MW1001REMMET052FMEP 300800Z 27013KT 9999 SCT033 SCT160 31/22 Q1013;EQDQ01+000000PRSWM2
0162619840999992000123009004-21320+055480FM-15+0053FMEP V0202701N007212200019N0112651N1+03101+02201999999ADDGA1021+009309999GA2021+048009999GF104991999999999999999999MA1101291999999MW1001REMMET052FMEP 300900Z 27014KT 9999 SCT031 SCT160 31/22 Q1013;EQDQ01+000000PRSWM2
0162619840999992000123010004-21320+055480FM-15+0053FMEP V0202601N005712200019N0112651N1+03101+02101999999ADDGA1021+009309999GA2021+048009999GF104991999999999999999999MA1101291999999MW1001REMMET052FMEP 301000Z 26011KT 9999 SCT031 SCT160 31/21 Q1013;EQDQ01+000000PRSWM2
0139619840999992000123011004-21320+055480FM-15+0053FMEP V0202301N003112200019N0112651N1+03101+02001999999ADDGA1021+009309999GF104991999999999999999999MA1101191999999MW1001REMMET045FMEP 301100Z 23006KT 9999 SCT031 31/20 Q1012;EQDQ01+000000PRSWM2
0162619840999992000123012004-21320+055480FM-15+0053FMEP V0202001N004112200019N0112651N1+03001+02001999999ADDGA1021+009309999GA2021+048009999GF104991999999999999999999MA1101191999999MW1001REMMET052FMEP 301200Z 20008KT 9999 SCT031 SCT160 30/20 Q1012;EQDQ01+000000PRSWM2
0162619840999992000123013004-21320+055480FM-15+0053FMEP V0202001N004612200019N0112651N1+02901+02101999999ADDGA1021+009309999GA2021+039009999GF104991999999999999999999MA1101291999999MW1001REMMET052FMEP 301300Z 20009KT 9999 SCT031 SCT130 29/21 Q1013;EQDQ01+000000PRSWM2
0162619840999992000123014004-21320+055480FM-15+0053FMEP V0202001N004612200019N0112651N1+02801+02101999999ADDGA1021+009309999GA2021+039009999GF104991999999999999999999MA1101291999999MW1001REMMET052FMEP 301400Z 20009KT 9999 SCT031 SCT130 28/21 Q1013;EQDQ01+000000PRSWM2
0162619840999992000123015004-21320+055480FM-15+0053FMEP V0202501N002612200019N0112651N1+02701+02101999999ADDGA1021+009309999GA2021+039009999GF104991999999999999999999MA1101291999999MW1001REMMET052FMEP 301500Z 25005KT 9999 SCT031 SCT130 27/21 Q1013;EQDQ01+000000PRSWM2
0139619840999992000123103004-21320+055480FM-15+0053FMEP V0200801N002112200019N0112651N1+02701+01701999999ADDGA1021+027009999GF102991999999999999999999MA1101391999999MW1001REMMET045FMEP 310300Z 08004KT 9999 FEW093 27/17 Q1014;EQDQ01+000000PRSWM2
0139619840999992000123104004-21320+055480FM-15+0053FMEP V0201401N003612200019N0112651N1+02901+01901999999ADDGA1021+009909999GF102991999999999999999999MA1101491999999MW1001REMMET045FMEP 310400Z 14007KT 9999 FEW033 29/19 Q1015;EQDQ01+000000PRSWM2
0147619840999992000123105004-21320+055480FM-15+0053FMEP V0201501N002612200019N0112651N1+03001+01901999999ADDGA1021+009909999GF102991999999999999999999MA1101491999999MW1001REMMET053FMEP 310500Z 15005KT 110V190 9999 FEW033 30/19 Q1015;EQDQ01+000000PRSWM2
0147619840999992000123106004-21320+055480FM-15+0053FMEP V0201501N003612200019N0112651N1+03001+01801999999ADDGA1021+009309999GF102991999999999999999999MA1101491999999MW1001REMMET053FMEP 310600Z 15007KT 110V210 9999 FEW031 30/18 Q1015;EQDQ01+000000PRSWM2
0162619840999992000123107004-21320+055480FM-15+0053FMEP V0201401N007212200019N0112651N1+02901+02101999999ADDGA1021+009309999GA2021+027009999GF104991999999999999999999MA1101491999999MW1001REMMET052FMEP 310700Z 14014KT 9999 FEW031 SCT093 29/21 Q1015;EQDQ01+000000PRSWM2
0162619840999992000123108004-21320+055480FM-15+0053FMEP V0201301N008210270019N0112651N1+02801+02001999999ADDGA1021+009309999GA2071+027009999GF107991999999999999999999MA1101491999999MW1001REMMET052FMEP 310800Z 13016KT 9999 FEW031 BKN093 28/20 Q1015;EQDQ01+000000PRSWM2
0162619840999992000123109004-21320+055480FM-15+0053FMEP V0201301N009810270019N0112651N1+02801+02201999999ADDGA1021+009309999GA2071+027009999GF107991999999999999999999MA1101391999999MW1001REMMET052FMEP 310900Z 13019KT 9999 FEW031 BKN093 28/22 Q1014;EQDQ01+000000PRSWM2
0162619840999992000123110004-21320+055480FM-15+0053FMEP V0201401N007710240019N0112651N1+02701+02201999999ADDGA1021+007509999GA2071+024009999GF107991999999999999999999MA1101391999999MW1001REMMET052FMEP 311000Z 14015KT 9999 FEW025 BKN083 27/22 Q1014;EQDQ01+000000PRSWM2
0182619840999992000123111004-21320+055480FM-15+0053FMEP V0201401N009310150019N0112651N1+02701+02201999999ADDGA1021+007509999GA2071+015009999GF107991999999999999999999MA1101291999999MW1611REMMET056FMEP 311100Z 14018KT 9999 -RA FEW025 BKN050 27/22 Q1013;EQDQ01+000003PRSWM1Q02    003PRSWM1
0182619840999992000123112004-21320+055480FM-15+0053FMEP V0201401N008212200019N0112651N1+02801+02301999999ADDGA1021+007509999GA2021+015009999GF104991999999999999999999MA1101291999999MW1611REMMET056FMEP 311200Z 14016KT 9999 -RA FEW025 SCT050 28/23 Q1013;EQDQ01+000003PRSWM1Q02    003PRSWM1
0182619840999992000123113004-21320+055480FM-15+0053FMEP V0201401N007712200019N0112651N1+02801+02201999999ADDGA1021+007509999GA2021+015009999GF104991999999999999999999MA1101291999999MW1611REMMET056FMEP 311300Z 14015KT 9999 -RA FEW025 SCT050 28/22 Q1013;EQDQ01+000003PRSWM1Q02    003PRSWM1
0139619840999992000123114004-21320+055480FM-15+0053FMEP V02099999999992200019N0112651N1+02801+02101999999ADDGA1021+007509999GF102991999999999999999999MA1101291999999MW1001REMMET045FMEP 311400Z VRB03KT 9999 FEW025 28/21 Q1013;EQDQ01+000000PRSWM2
0139619840999992000123115004-21320+055480FM-15+0053FMEP V0203001N000512200019N0112651N1+02801+02101999999ADDGA1021+007509999GF102991999999999999999999MA1101391999999MW1001REMMET045FMEP 311500Z 30001KT 9999 FEW025 28/21 Q1014;EQDQ01+000000PRSWM2
