0140654160999992000010121004+09030-002480FM-12+0301DGLB V0209999C000012200019N0120001N1+02801+02131100891ADDAY191031AY221031GA1001+999999999GF100991001001999999001001MW1011REMSYN064AAXX  01214 65416 41962 00000 10280 20213 40089 70192 333 58805;
0138654160999992000010309004+09030-002480FM-12+0301DGLB V0203201N000510360019N0180001N1+02151+01931101141ADDGA1071+036009019GF107991071001999999071999MD1999999-0061REMSYN070AAXX  03094 65416 42968 73201 10215 20193 40114 8707/ 333 59006 87462;
0132654160999992000010315004+09030-002480FM-12+0301DGLB V0200501N001012200019N0180001N1+03151+99999100721ADDGA1031+036009079GF104991031001999999031021MD1999999+0051REMSYN064AAXX  03154 65416 42968 40502 10315 40072 83032 333 58005 83362;
0156654160999992000010412004+09030-002480FM-12+0301DGLB V0200501N004612200019N0180001N1+03081+01131100921ADDAA106000091GA1001+999999999GF100991001001999999001001MD1999999-0031REMSYN058AAXX  04124 65416 32968 00509 10308 20113 40092 333 59003;EQDQ01  00002PRCP06
0104654160999992000010415004+09030-002480FM-12+0301DGLB V0200301N014912200019N0001001N1+99999+99999100631ADDGF101991999999004501999999MD1999999-0081REMSYN052AAXX  04154 65416 /1401 10329 20118 40063 333 59008;
0157654160999992000010509004+09030-002480FM-12+0301DGLB V0203601N001010750019N0180001N1+02401+01171101031ADDGA1061+075009089GF106991999001999999001061MD1999999-0011REMSYN070AAXX  05094 65416 42968 63602 10240 20117 40103 80006 333 59001 86275;EQDQ01+000002SCOTLC
0184654160999992000010512004+09030-002480FM-12+0301DGLB V0200501N003110750019N0180001N1+03051+01301100861ADDAA106000091GA1061+075009089GF106991999001999999001061MD1999999-0041REMSYN070AAXX  05124 65416 32968 60506 10305 20130 40086 80006 333 59004 86275;EQDQ01+000002SCOTLCQ02  00002PRCP06
0168654160999992000010912004+09030-002480FM-12+0301DGLB V0203601N000512200019N0180001N1+03201+01661100941ADDAA106000091GA1041+075009019GF104991001001999999001021MD1999999-0111REMSYN070AAXX  09124 65416 32968 43601 10320 20166 40094 80002 333 59011 84075;EQDQ01  00002PRCP06
0156654160999992000011100004+09030-002480FM-12+0301DGLB V0209999C000012200019N0180001N1+02551+01651100991ADDAA106000091GA1001+999999999GF100991001001999999001001MD1999999+0011REMSYN058AAXX  11004 65416 32968 00000 10255 20165 40099 333 58001;EQDQ01  00002PRCP06
0187654160999992000011118004+09030-002480FM-12+0301DGLB V0209999C000012200019N0180001N1+03201+01921100671ADDAA106000091GA1031+075009019GF103991001001999999001021KA1120M+03551MD1999999-0031REMSYN076AAXX  11184 65416 32968 30000 10320 20192 40067 80002 333 10355 59003 83075;EQDQ01  00002PRCP06
0166654160999992000011315004+09030-002480FM-12+0301DGLB V0201801N001012200019N0080001N1+03501+01871100591ADDAY101031AY201031GA1011+004509029GF101991011011004501001001MD1999999-0061MW1051REMSYN076AAXX  13154 65416 41458 11802 10350 20187 40059 70500 81100 333 59006 81815;
0138654160999992000012015004+09030-002480FM-12+0301DGLB V0201401N001511050019N0200001N1+03451+02141100681ADDGA1041+005409029GF105991041021004501001021MD1999999-0101REMSYN070AAXX  20154 65416 42470 51403 10345 20214 40068 84202 333 59010 84818;
0138654160999992000012715004+09030-002480FM-12+0301DGLB V0200901N003112200019N0220001N1+03671+01801100731ADDGA1011+004809029GF101991011011004501001031MD1999999-0091REMSYN070AAXX  27154 65416 42472 10906 10367 2018/ 40073 81103 333 59009 81816;
0203654160999992000030306004+09030-002480FM-12+0301DGLB V0200501N001512200019N0015001N1+02201+00771101061ADDAA199000091AY101061AY201061GA1001+999999999GF100991001001999999001001KA1120N+02031MD1999999-0091MW1051REMSYN070AAXX  03064 65416 31915 00503 10220 20077 40106 70500 333 20203 59009;EQDQ01  00002PRCP99
0154654160999992000030309004+09030-002480FM-12+0301DGLB V0200901N001012200019N0015001N1+02851+00571101281ADDAY101031AY201031GA1001+999999999GF100991001001999999001001MD1999999+0061MW1051REMSYN064AAXX  03094 65416 41915 00902 10285 20057 40128 70500 333 58006;
0160654160999992000030715004+09030-002480FM-12+0301DGLB V0200501N001010750019N0045001N1+03851+00481100711ADDAY101031AY201031GA1081+075009089GF108991999999999999999999MD1999999+0001MW1051REMSYN070AAXX  07154 65416 41945 80502 10385 20048 40071 70500 333 58000 88275;
0190654160999992000030718004+09030-002480FM-12+0301DGLB V0209999C000010750019N0045001N1+03601+00371100751ADDAA199000091AY151061GA1071+075009089GF107991999001999999001061MW1091REMSYN076AAXX  07184 65416 31945 70000 10360 20037 40075 7095/ 80006 333 5800/ 87275;EQDQ01+000002SCOTLCQ02  00002PRCP99
0154654160999992000030809004+09030-002480FM-12+0301DGLB V0200501N006212200019N0045001N1+03041+00301101191ADDAY101031AY201031GA1001+999999999GF100991001001999999001001MD1999999-0021MW1051REMSYN064AAXX  08094 65416 41945 00512 10304 20030 40119 70500 333 59002;
0154654160999992000031409004+09030-002480FM-12+0301DGLB V0209999C000012200019N0120001N1+02801+00481101191ADDAY101031AY201031GA1001+999999999GF100991001001999999001001MD1999999-0021MW1051REMSYN064AAXX  14094 65416 41962 00000 10280 20048 40119 70500 333 59002;
0215654160999992000031418004+09030-002480FM-12+0301DGLB V0209999C000012200019N0120001N1+03551+02821100711ADDAA199000091AY101061AY201061GA1021+075009019GF102991001001999999001021KA1120M+03801MD1999999-0081MW1051REMSYN082AAXX  14184 65416 31962 20000 10355 20282 40071 70500 80002 333 10380 59008 82075;EQDQ01  00002PRCP99
0231654160999992000031618004+09030-002480FM-12+0301DGLB V0209999C000010750019N0120001N1+03601+01511100561ADDAA199000091AY111061AY211061GA1071+075009089GF107991999001999999001061KA1120M+03781MD1999999-0071MW1051REMSYN082AAXX  16184 65416 31962 70000 10360 20151 40056 70511 80006 333 10378 59007 87275;EQDQ01+000002SCOTLCQ02  00002PRCP99
0185654160999992000031709004+09030-002480FM-12+0301DGLB V0202301N003110750019N0180001N1+02901+02171100881ADDAY111031AY211031GA1061+075009089GF106991999001999999001061MD1999999-0131MW1051REMSYN076AAXX  17094 65416 41968 62306 10290 20217 40088 70511 80006 333 59013 86275;EQDQ01+000002SCOTLC
0172654160999992000031715004+09030-002480FM-12+0301DGLB V0200901N004112200019N0120001N1+03951+01291100391ADDAY101031AY201031GA1011+005109089GF104991011011004501001021MD1999999-0121MW1051REMSYN082AAXX  17154 65416 41462 40908 10395 20129 40039 70500 81102 333 59012 81817 84075;
0138654160999992000031809004+09030-002480FM-12+0301DGLB V0202301N002612200019N0180001N1+02901+02161100951ADDGA1021+075009019GF102991001001999999001021MD1999999+0071REMSYN070AAXX  18094 65416 42968 22305 10290 20216 40095 80002 333 58007 82075;
0168654160999992000031812004+09030-002480FM-12+0301DGLB V0202301N004612200019N0180001N1+03451+02141100691ADDAA199000091GA1011+005109029GF102991011011004501001021MD1999999+0011REMSYN070AAXX  18124 65416 32468 22309 10345 20214 40069 81102 333 58001 81817;EQDQ01  00002PRCP99
0187654160999992000031906004+09030-002480FM-12+0301DGLB V0202301N002612200019N0180001N1+02601+02311100871ADDAA199000091GA1041+004509059GF104991041051004501001021KA1120N+02501MD1999999+0051REMSYN076AAXX  19064 65416 32468 42305 10260 20231 40087 84502 333 20250 58005 84615;EQDQ01  00002PRCP99
0138654160999992000031909004+09030-002480FM-12+0301DGLB V0202301N001510036019N0180001N1+02801+02211100951ADDGA1071+003609059GF107991071051004501999999MD1999999+0001REMSYN070AAXX  19094 65416 42468 72303 10280 20221 40095 875// 333 58000 87612;
0168654160999992000032012004+09030-002480FM-12+0301DGLB V0201401N001510360019N0270001N1+02701+02181101151ADDAA199000091GA1071+036009079GF107991071001999999031999MD1999999+0301REMSYN070AAXX  20124 65416 32977 71403 10270 20218 40115 8703/ 333 58030 87362;EQDQ01  00002PRCP99
0144654160999992000032015004+09030-002480FM-12+0301DGLB V0201801N00261045001CN0220001N1+02701+02101100891ADDGA1041+004209069GF107991041051004501011999MD1999999+0321REMSYN076AAXX  20154 65416 42472 71805 10270 20210 40089 8451/ 333 58032 84614 87461;
0187654160999992000032106004+09030-002480FM-12+0301DGLB V0209999C000010360019N0160001N1+02151+02071100901ADDAA199000091GA1061+036009079GF106991061001999999031001KA1120N+01951MD1999999-0161REMSYN076AAXX  21064 65416 32966 60000 10215 20207 40090 86030 333 20195 59016 86362;EQDQ01  00002PRCP99
0168654160999992000032109004+09030-002480FM-12+0301DGLB V0202701N001010360019N0300001N1+02551+02101101031ADDAA112999999GA1061+036009079GF106991999999999999999999MD1999999-0131REMSYN070AAXX  21094 65416 42980 62702 10255 20210 40103 68032 333 59013 86362;EQDQ01  80292PRCP12
0126654160999992000032209004+09030-002480FM-12+0301DGLB V0203201N003112200019N0200001N1+02761+02161101061ADDGA1001+999999999GF100991001001999999001001MD1999999+0101REMSYN058AAXX  22094 65416 42970 03206 10276 20216 40106 333 58010;
0162654160999992000032212004+09030-002480FM-12+0301DGLB V0203201N003112200019N0200001N1+03261+02181100901ADDAA199000091GA1001+999999999GF100991001001999999001001MD1999999-0011REMSYN064AAXX  22124 65416 32970 03206 10326 20218 40090 8000/ 333 59001;EQDQ01  00002PRCP99
0252654160999992000032700004+09030-002480FM-12+0301DGLB V0202301N004610042019N0150001N1+02781+01931100941ADDAA199000091AY191061AY221061GA1061+004209069GA2011+009009099GA3071+075009029GF107991061091004501031061MD1999999+0021MW1171REMSYN100AAXX  27004 65416 31465 72309 10278 20193 40094 71792 86936 333 58002 86614 87275 81930 94582 95701;EQDQ01  00002PRCP99
0092654160999992000032815004+09030-002480FM-12+0301DGLB V0200501N001512200019N0012001N1+03701+01871100561ADDGF102991001001999999001021REMSYN054AAXX  28154 65416 42912 20503 10370 20187 40056 80002;
0187654160999992000032818004+09030-002480FM-12+0301DGLB V0209999C000012200019N0180001N1+03411+02001100531ADDAA199000091GA1031+039009079GF103991031001999999031001KA1120M+03721MD1999999-0101REMSYN076AAXX  28184 65416 32968 30000 10341 20200 40053 83030 333 10372 59010 83363;EQDQ01  00002PRCP99
0187654160999992000032906004+09030-002480FM-12+0301DGLB V0209999C000010390019N0160001N1+02551+02021100821ADDAA199000091GA1051+039009079GF105991051001999999031001KA1120N+02371MD1999999-0101REMSYN076AAXX  29064 65416 32966 50000 10255 20202 40082 85030 333 20237 59010 85363;EQDQ01  00002PRCP99
0157654160999992000032909004+09030-002480FM-12+0301DGLB V0202301N003110780019N0200001N1+02901+02081100951ADDGA1081+078009089GF108991999001999999001071MD1999999+0001REMSYN070AAXX  29094 65416 42970 82306 10290 20208 40095 80007 333 58000 88276;EQDQ01+000002SCOTLC
0138654160999992000032915004+09030-002480FM-12+0301DGLB V0201801N000512200019N0220001N1+03751+02071100561ADDGA1011+039009079GF101991011001999999031021MD1999999+0011REMSYN070AAXX  29154 65416 42972 11801 10375 20207 40056 81032 333 58001 81363;
0215654160999992000032918004+09030-002480FM-12+0301DGLB V0202301N000512200019N0220001N1+03501+02021100571ADDAA199000091GA1011+009909099GA2041+078009009GF104991011091008001001021KA1120M+03761MD1999999+0041REMSYN088AAXX  29184 65416 32572 42301 10350 20202 40057 81902 333 10376 58004 81933 84076 94546;EQDQ01  00002PRCP99
0175654160999992000033006004+09030-002480FM-12+0301DGLB V0209999C000012200019N0160001N1+02651+02131100821ADDAA199000091GA1001+999999999GF100991001001999999001001KA1120N+02451MD1999999+0001REMSYN064AAXX  30064 65416 32966 00000 10265 20213 40082 333 20245 58000;EQDQ01  00002PRCP99
0163654160999992000033009004+09030-002480FM-12+0301DGLB V0202301N002619999999N0200001N1+02901+02241100991ADDGA1021+039009039GF106991999031999999999021MD1999999+0041REMSYN076AAXX  30094 65416 42970 62305 10290 20224 40099 803/2 333 58004 82363 86275;EQDQ01+000002SCOTLC
0208654160999992000033018004+09030-002480FM-12+0301DGLB V0202301N00261045001CN0180001N1+02501+02131100821ADDAA112011991AY191061AY261061GA1021+003909069GF107991021051004501071999KA1120M+03341MD1999999+0121MW1011REMSYN094AAXX  30184 65416 11468 72305 10250 20213 40082 60122 70196 8257/ 333 10334 58012 82613 87362;
0156654160999992000033100004+09030-002480FM-12+0301DGLB V0209999C000012200019N0180001N1+02441+01601100971ADDAA199000091GA1001+999999999GF100991001001999999001001MD1999999+0131REMSYN058AAXX  31004 65416 32968 00000 10244 2016/ 40097 333 58013;EQDQ01  00002PRCP99
0193654160999992000033106004+09030-002480FM-12+0301DGLB V0209999C000012200019N0040001N1+02251+02101100971ADDAA124011991GA1021+075009019GF102991001001999999001021KA1120N+02001MD1999999+0151REMSYN082AAXX  31064 65416 31296 20000 10225 20210 40097 60124 80002 333 20200 58015 82075;EQDQ01+001502SCOLCB
0157654160999992000033109004+09030-002480FM-12+0301DGLB V0202301N002110750019N0200001N1+02701+02101101021ADDGA1071+075009079GF107991999001999999001061MD1999999+0031REMSYN070AAXX  31094 65416 42970 72304 10270 20210 40102 80006 333 58003 87375;EQDQ01+000002SCOTLC
0174654160999992000040106004+09030-002480FM-12+0301DGLB V0209999C000012200019N0160001N1+02441+02201100741ADDAA124000191GA1021+075009019GF102991001001999999001021KA1120N+02281MD1999999-0231REMSYN082AAXX  01064 65416 12966 20000 10244 20220 40074 69914 80002 333 20228 59023 82075;
0138654160999992000040109004+09030-002480FM-12+0301DGLB V0202301N003612200019N0200001N1+02881+02361100811ADDGA1031+075009019GF103991001001999999001021MD1999999-0211REMSYN070AAXX  01094 65416 42970 32307 10288 20236 40081 80002 333 59021 83075;
0144654160999992000040115004+09030-002480FM-12+0301DGLB V0203201N00151220001CN0220001N1+03651+02301100481ADDGA1021+005109089GF106991021021004501001061MD1999999-0091REMSYN076AAXX  01154 65416 42472 63203 10365 20230 40048 82206 333 59009 82817 86275;
0205654160999992000040200004+09030-002480FM-12+0301DGLB V0202301N003110012019N0160001N1+02771+02081100801ADDAA106000391GA1051+001209069GA2011+009009099GA3071+075009029GF107991051091004501001061MD1999999-0061REMSYN094AAXX  02004 65416 11466 72306 10277 20208 40080 69931 85906 333 59006 85604 87275 81930 94513;
0157654160999992000040209004+09030-002480FM-12+0301DGLB V0202201N004110750019N0220001N1+02751+02071100911ADDGA1081+075009089GF108991999001999999001071MD1999999+0101REMSYN070AAXX  02094 65416 42972 82208 10275 20207 40091 80007 333 58010 88275;EQDQ01+000002SCOTLC
0144654160999992000040215004+09030-002480FM-12+0301DGLB V0202701N00411045001CN0220001N1+03461+02051100661ADDGA1021+005409089GF106991021011004501041021MD1999999+0181REMSYN076AAXX  02154 65416 42472 62708 10346 20205 40066 82142 333 58018 82818 85075;
0193654160999992000040218004+09030-002480FM-12+0301DGLB V0202301N003119999999N0220001N1+03301+01951100721ADDAA199000091GA1021+042009039GF107991021001999999041021KA1120M+03501MD1999999+0061REMSYN082AAXX  02184 65416 32972 72306 10330 20195 40072 82042 333 10350 58006 82364 87275;EQDQ01  00002PRCP99
0187654160999992000040306004+09030-002480FM-12+0301DGLB V0202301N001512200019N0200001N1+02451+02041100981ADDAA199000091GA1031+075009019GF103991001001999999001021KA1120N+02281MD1999999+0231REMSYN076AAXX  03064 65416 32970 32303 10245 20204 40098 80002 333 20228 58023 83075;EQDQ01  00002PRCP99
0174654160999992000040312004+09030-002480FM-12+0301DGLB V0202301N00621105001CN0250001N1+03401+02011100991ADDAA199000091GA1031+005109089GF106991031011004501001021MD1999999+0181REMSYN076AAXX  03124 65416 32475 62312 10340 20201 40099 83102 333 58018 83817 84074;EQDQ01  00002PRCP99
0219654160999992000040318004+09030-002480FM-12+0301DGLB V0209999C000010750019N0180001N1+03221+01901100791ADDAA199000091GA1071+075009089GF107991999001999999001061KA1120M+99999MD1999999+0131REMSYN076AAXX  03184 65416 32968 70000 10322 20190 40079 80006 333 10250 58013 87275;EQDQ01+000002SCOTLCQ02  00002PRCP99Q03 +02502ATMX  
0203654160999992000040406004+09030-002480FM-12+0301DGLB V0202301N002610750019N0160001N1+02521+02171100951ADDAA199000091GA1071+075009089GF107991999001999999001061KA1120N+02381MD1999999+0041REMSYN076AAXX  04064 65416 32966 72305 10252 20217 40095 80006 333 20238 58004 87275;EQDQ01+000002SCOTLCQ02  00002PRCP99
0174654160999992000040412004+09030-002480FM-12+0301DGLB V0203201N00151105001CN0200001N1+03301+02181101141ADDAA199000091GA1011+005109089GF107991011011004501001061MD1999999+0151REMSYN076AAXX  04124 65416 32470 73203 10330 20218 40114 81106 333 58015 81817 87275;EQDQ01  00002PRCP99
0138654160999992000040509004+09030-002480FM-12+0301DGLB V0202701N001010360019N0220001N1+02551+02131101111ADDGA1061+036009079GF106991061001999999031001MD1999999-0121REMSYN070AAXX  05094 65416 42972 62702 10255 20213 40111 86030 333 59012 86362;
0168654160999992000040612004+09030-002480FM-12+0301DGLB V0202301N003612200019N0260001N1+03361+02141100881ADDAA199000091GA1021+004509029GF104991021011004501001011MD1999999-0041REMSYN070AAXX  06124 65416 32476 42307 10336 20214 40088 82101 333 59004 82815;EQDQ01  00002PRCP99
0237654160999992000040618004+09030-002480FM-12+0301DGLB V0202301N001010750019N0220001N1+03481+02171100571ADDAA199000091GA1021+005109089GA2011+008409099GA3051+075009009GF106991021091004501031021KA1120M+03681MD1999999-0131REMSYN094AAXX  06184 65416 32472 62302 10348 20217 40057 82932 333 10368 59013 82817 85075 81928 94571;EQDQ01  00002PRCP99
0187654160999992000040806004+09030-002480FM-12+0301DGLB V0202301N003112200019N0160001N1+02961+02171100941ADDAA199000091GA1021+078009019GF104991001001999999001021KA1120N+02401MD1999999-0021REMSYN076AAXX  08064 65416 32966 42306 10296 20217 40094 80002 333 20240 59002 82076;EQDQ01  00002PRCP99
0293654160999992000040918004+09030-002480FM-12+0301DGLB V0209999C000010054019N0180001N1+03201+02181100551ADDAA199000091AY191061AY221061GA1021+004209069GA2031+005409089GA3021+009009099GA4071+075009029GF107991051091004501001061KA1120M+03751MD1999999-0061MW1171REMSYN112AAXX  09184 65416 31468 70000 10320 20218 40055 71792 85906 333 10375 59006 82614 83818 87275 82930 94599 95709;EQDQ01  00002PRCP99
0208654160999992000041106004+09030-002480FM-12+0301DGLB V0202301N00311045001CN0160001N1+02231+02111101081ADDAA124010991AY161061AY221061GA1021+003909089GF107991031051004501071999KA1120N+02051MD1999999+0251MW1611REMSYN094AAXX  11064 65416 11466 72306 10223 20211 40108 60114 76162 8357/ 333 20205 58025 82813 87461;
0203654160999992000051218004+09030-002480FM-12+0301DGLB V0209999C000010750019N0200001N1+03301+02131100791ADDAA199000091GA1061+075009089GF106991999001999999001061KA1120M+03301MD1999999+0001REMSYN076AAXX  12184 65416 32970 60000 10330 20213 40079 80006 333 10330 58000 86275;EQDQ01+000002SCOTLCQ02  00002PRCP99
0187654160999992000051306004+09030-002480FM-12+0301DGLB V0202301N001519999999N0160001N1+02451+02311101121ADDAA199000091GA1021+075009019GF105991001001999999001021KA1120N+02351MD1999999+0051REMSYN076AAXX  13064 65416 32966 52303 10245 20231 40112 80002 333 20235 58005 82075;EQDQ01  00002PRCP99
0193654160999992000051818004+09030-002480FM-12+0301DGLB V0209999C000012200019N0240001N1+03431+02351100721ADDAA199000091GA1011+005409089GF103991011021004501031021KA1120M+03541MD1999999-0091REMSYN082AAXX  18184 65416 32474 30000 10343 20235 40072 81232 333 10354 59009 81818 83075;EQDQ01  00002PRCP99
0193654160999992000052418004+09030-002480FM-12+0301DGLB V0209999C00001045001CN0180001N1+02651+02361101221ADDAA199000091GA1041+004209069GF107991041051004501071999KA1120M+02781MD1999999+0121REMSYN082AAXX  24184 65416 32468 70000 10265 20236 40122 8457/ 333 10278 58012 84614 87462;EQDQ01  00002PRCP99
0187654160999992000052506004+09030-002480FM-12+0301DGLB V0209999C000019999999N0180001N1+02211+02151101311ADDAA199000091GA1041+036009079GF105991041001999999031021KA1120N+02101MD1999999-0351REMSYN076AAXX  25064 65416 32968 50000 10221 20215 40131 84032 333 20210 59035 84362;EQDQ01  00002PRCP99
0156654160999992000052600004+09030-002480FM-12+0301DGLB V0209999C000012200019N0160001N1+02601+02391101331ADDAA199000091GA1001+999999999GF100991001001999999001001MD1999999-0081REMSYN058AAXX  26004 65416 32966 00000 10260 20239 40133 333 59008;EQDQ01  00002PRCP99
0274654160999992000052918004+09030-002480FM-12+0301DGLB V0209999C00001005401CN0180001N1+02751+02471100911ADDAA112009991AY191061AY261061GA1021+004209069GA2031+005409089GA3011+009009099GA4071+075009029GF107991041091004501001061KA1120M+03161MD1999999-0081MW1021REMSYN112AAXX  29184 65416 11468 70000 10275 20247 40091 60102 70296 84906 333 10316 59008 82614 83818 87275 81930 94635;
0180654160999992000053006004+09030-002480FM-12+0301DGLB V0209999C000019999999N0150001N1+02351+02281101071ADDAA112009991GA1021+036009039GF105991021001999999031021KA1120N+02241MD1999999-0101REMSYN088AAXX  30064 65416 12965 50000 10235 20228 40107 60102 82032 333 20224 59010 82362 83074;
0174654160999992000060206004+09030-002480FM-12+0301DGLB V0209999C000010360019N0160001N1+02281+02221101261ADDAA124004191GA1071+036009079GF107991071001999999031999KA1120N+02111MD1999999+0091REMSYN082AAXX  02064 65416 12966 70000 10228 20222 40126 60044 8703/ 333 20211 58009 87362;
0174654160999992000060212004+09030-002480FM-12+0301DGLB V0202301N00101009001CN0200001N1+02801+02371101351ADDAA199000091GA1041+004209069GF106991061081004501001001MD1999999-0031REMSYN076AAXX  02124 65416 32470 62302 10280 20237 40135 86800 333 59003 84614 83818;EQDQ01  00002PRCP99
0203654160999992000060318004+09030-002480FM-12+0301DGLB V0209999C000010750019N0220001N1+03001+02271100891ADDAA199000091GA1061+075009089GF106991999001999999001061KA1120M+03171MD1999999-0241REMSYN076AAXX  03184 65416 32972 60000 10300 20227 40089 80006 333 10317 59024 86275;EQDQ01+000002SCOTLCQ02  00002PRCP99
0140654160999992000060400004+09030-002480FM-12+0301DGLB V0209999C000012200019N0180001N1+02551+02331101221ADDAA199000091GF103991999999999999999999MD1999999-0031REMSYN058AAXX  04004 65416 32968 30000 10255 20233 40122 333 59003;EQDQ01  00002PRCP99
0168654160999992000060512004+09030-002480FM-12+0301DGLB V0202301N001010051019N0200001N1+03051+99999101371ADDAA199000091GA1061+005109029GF106991061021004501001001MD1999999+0171REMSYN070AAXX  05124 65416 32470 62302 10305 202/8 40137 86200 333 58017 86817;EQDQ01  00002PRCP99
0174654160999992000060712004+09030-002480FM-12+0301DGLB V0209999C000010051019N0200001N1+02901+02251101381ADDAA199000091GA1061+005109089GF106991061021004501031001MD1999999-0021REMSYN076AAXX  07124 65416 32470 60000 10290 20225 40138 86230 333 59002 86817 83362;EQDQ01  00002PRCP99
0168654160999992000060806004+09030-002480FM-12+0301DGLB V0209999C000012200019N0160001N1+02301+02231101471ADDAA124004191GA1041+036009079GF104991999999999999999999KA1120N+02201MD1999999+0011REMSYN076AAXX  08064 65416 12966 40000 10230 20223 40147 60044 333 20220 58001 84362;
0187654160999992000060818004+09030-002480FM-12+0301DGLB V0209999C000012200019N0200001N1+03011+02241101211ADDAA199000091GA1011+003909059GF102991021081004501001001KA1120M+03151MD1999999+0021REMSYN076AAXX  08184 65416 32470 20000 10301 20224 40121 82800 333 10315 58002 81613;EQDQ01  00002PRCP99
0109654160999992000061006004+09030-002480FM-12+0301DGLB V0209999C000012200019N0150001N1+02181+02131101321ADDAA124008991GF101991001001999999001021REMSYN060AAXX  10064 65416 12965 10000 10218 20213 40132 60094 80002;
0193654160999992000061018004+09030-002480FM-12+0301DGLB V0209999C00001105001CN0200001N1+02951+02381101221ADDAA199000091GA1021+005409089GF107991021021004501001081KA1120M+03181MD1999999-0051REMSYN082AAXX  10184 65416 32470 70000 10295 20238 40122 82208 333 10318 59005 82818 87275;EQDQ01  00002PRCP99
0208654160999992000061100004+09030-002480FM-12+0301DGLB V02099999999992200019N0180001N1+02601+02451101421ADDAA199000091AY111061AY211061GA1011+009009099GF103991011091008001001021MD1999999+0001MW1131REMSYN088AAXX  11004 65416 31568 3000/ 10260 20245 40142 71311 81902 333 58000 81930 94546 95205;EQDQ01  00002PRCP99
0252654160999992000061112004+09030-002480FM-12+0301DGLB V0209999C000010051019N0260001N1+02951+02381101461ADDAA199000091AY191061AY211061GA1031+003909069GA2061+005109089GA3011+009009099GF107991071091004501999999MD1999999+0051MW1171REMSYN100AAXX  11124 65416 31476 70000 10295 20238 40146 71791 879// 333 58005 83613 86817 81930 94624 95703;EQDQ01  00002PRCP99
0184654160999992000061200004+09030-002480FM-12+0301DGLB V0209999C000012200019N0180001N1+99999+99999101371ADDAA199000091GA1041+001809079GF104991041999999999031001MD1999999-0051REMSYN070AAXX  12004 65416 32968 40000 102/0 20223 40137 84030 333 59005 84306;EQDQ01+000002SCOLCGQ02  00002PRCP99
0171654160999992000061218004+09030-002480FM-12+0301DGLB V0209999C000012200019N0200001N1+02851+02271101161ADDAA199000091GF102991001001999999001021KA1120M+03021MD1999999+0041REMSYN076AAXX  12184 65416 32970 20000 10285 20227 40116 80002 333 10302 58004 5075/;EQDQ01  00002PRCP99
0168654160999992000061300004+09030-002480FM-12+0301DGLB V0209999C000012200019N0180001N1+02451+02331101521ADDAA199000091GA1011+036009079GF101991011001999999031001MD1999999+0081REMSYN070AAXX  13004 65416 32968 10000 10245 20233 40152 81030 333 58008 81362;EQDQ01  00002PRCP99
0193654160999992000061406004+09290-002470FM-12+0301DGLB V0209999C000019999999N0200001N1+02301+02231101281ADDAA199000091GA1021+036009039GF105991021001999999031021KA1120N+02201MD1999999-0021REMSYN082AAXX  14064 65416 32970 50000 10230 20223 40128 82032 333 20220 59002 82362 84075;EQDQ01  00002PRCP99
0193654160999992000061518004+09290-002470FM-12+0301DGLB V0202301N00211009001CN0220001N1+02921+02371100921ADDAA199000091GA1031+004509069GF105991051081004501001011KA1120M+03171MD1999999-0171REMSYN082AAXX  15184 65416 32472 52304 10292 20237 40092 85801 333 10317 59017 83615 83817;EQDQ01  00002PRCP99
0237654160999992000061706004+09290-002470FM-12+0301DGLB V0209999C000010750019N0250001N1+02151+01991101271ADDAA199000091GA1031+003909069GA2011+009009099GA3071+075009039GF107991031091004501031061KA1120N+02051MD1999999+0081REMSYN094AAXX  17064 65416 32475 70000 10215 20199 40127 83936 333 20205 58008 83613 87375 81930 94535;EQDQ01  00002PRCP99
0144654160999992000061709004+09290-002470FM-12+0301DGLB V0209999C000010390019N0250001N1+02551+02091101231ADDGA1051+039009039GF106991051001999999031021MD1999999+0021REMSYN076AAXX  17094 65416 42975 60000 10255 20209 40123 85032 333 58002 85363 83075;
0174654160999992000061712004+09290-002470FM-12+0301DGLB V0202301N00261045001CN0250001N1+02801+02131101241ADDAA199000091GA1021+004509089GF107991021011004501071999MD1999999+0161REMSYN076AAXX  17124 65416 32475 72305 10280 20213 40124 8217/ 333 58016 82815 87461;EQDQ01  00002PRCP99
0193654160999992000061718004+09290-002470FM-12+0301DGLB V0209999C00001045001CN0200001N1+02801+02291101111ADDAA199000091GA1021+005109089GF107991021021004501031061KA1120M+03001MD1999999+0161REMSYN082AAXX  17184 65416 32470 70000 10280 20229 40111 82236 333 10300 58016 82817 86275;EQDQ01  00002PRCP99
0187654160999992000061806004+09290-002470FM-12+0301DGLB V0209999C000010300019N0180001N1+02351+02351101351ADDAA199000091GA1071+030009019GF107991071001999999071999KA1120N+02241MD1999999+0121REMSYN076AAXX  18064 65416 32968 70000 10235 20235 40135 8707/ 333 20224 58012 87460;EQDQ01  00002PRCP99
0174654160999992000061812004+09290-002470FM-12+0301DGLB V0209999C000010042019N0220001N1+02801+02341101371ADDAA199000091GA1051+004209069GF107991071081004501999999MD1999999+0131REMSYN076AAXX  18124 65416 32472 70000 10280 20234 40137 878// 333 58013 85614 86816;EQDQ01  00002PRCP99
0174654160999992000062012004+09290-002470FM-12+0301DGLB V0201801N001510048019N0220001N1+02851+02351101301ADDAA199000091GA1061+004809089GF106991061021004501031001MD1999999+0121REMSYN076AAXX  20124 65416 32472 61803 10285 20235 40130 86230 333 58012 86816 84362;EQDQ01  00002PRCP99
0265654160999992000062018004+09290-002470FM-12+0301DGLB V0209999C000010360019N0220001N1+02851+02261101101ADDAA199000091AY191061AY221061GA1021+004509069GA2011+009009099GA3061+036009039GF107991031091004501031001KA1120M+03151MD1999999-0011MW1011REMSYN100AAXX  20184 65416 31472 70000 10285 20226 40110 70192 83930 333 10315 59001 82615 86362 81930 94546;EQDQ01  00002PRCP99
0189654160999992000062112004+09290-002470FM-12+0301DGLB V0209999C000010390019N0220001N1+02851+02131101131ADDAA106001091AY161061AY221061GA1051+039009039GF106991051001999999031021MD1999999-0111MW1011REMSYN088AAXX  21124 65416 11972 60000 10285 20213 40113 60011 70162 85032 333 59011 85363 83075;
0193654160999992000062118004+09290-002470FM-12+0301DGLB V0209999C00001045001CN0220001N1+02931+02481101001ADDAA199000091GA1031+003309069GF107991041081004501031999KA1120M+03081MD1999999+0031REMSYN082AAXX  21184 65416 32472 70000 10293 20248 40100 8483/ 333 10308 58003 83611 87364;EQDQ01  00002PRCP99
0208654160999992000062206004+09290-002470FM-12+0301DGLB V0209999C000010027019N0180001N1+02401+02311101381ADDAA124001091AY191061AY221061GA1061+002709069GF107991051091004501031999KA1120N+02051MD1999999+0131MW1171REMSYN094AAXX  22064 65416 11468 70000 10240 20231 40138 60014 71792 8593/ 333 20205 58013 86609 87361;
0189654160999992000062212004+09290-002470FM-12+0301DGLB V0209999C00001045001CN0180001N1+02171+02071101551ADDAA106011991AY191061AY261061GA1031+003609089GF107991031051004501071999MD1999999+0331MW1091REMSYN088AAXX  22124 65416 11468 70000 10217 20207 40155 60121 70996 8357/ 333 58033 83812 87461;
0180654160999992000062306004+09290-002470FM-12+0301DGLB V0209999C00001045001CN0180001N1+02251+02191101591ADDAA124011991GA1031+003609069GF107991031051004501071999KA1120N+02001MD1999999+0211REMSYN088AAXX  23064 65416 12468 70000 10225 20219 40159 60124 8357/ 333 20200 58021 83612 87463;
0202654160999992000062318004+09290-002470FM-12+0301DGLB V0202701N001510390019N0150001N1+02081+02001101381ADDAA112025991AY191061AY261061GA1071+039009019GF107991071001999999071999KA1120M+02881MD1999999+0011MW1211REMSYN088AAXX  23184 65416 11965 72703 10208 20200 40138 60262 72196 8707/ 333 10288 58001 87463;
0174654160999992000062406004+09290-002470FM-12+0301DGLB V0209999C000010330019N0150001N1+02041+01971101511ADDAA124025991GA1061+033009079GF106991061001999999031021KA1120N+01921MD1999999-0121REMSYN082AAXX  24064 65416 12965 60000 10204 20197 40151 60264 86032 333 20192 59012 86361;
0215654160999992000062518004+09290-002470FM-12+0301DGLB V0209999C000012200019N0250001N1+03001+02271101101ADDAA199000091AY191061AY211061GA1031+005409029GF103991031021004501001021KA1120M+03061MD1999999-0071MW1291REMSYN082AAXX  25184 65416 31475 30000 10300 20227 40110 72991 83202 333 10306 59007 83818;EQDQ01  00002PRCP99
0208654160999992000062600004+09290-002470FM-12+0301DGLB V0209999C000012200019N0220001N1+02401+02331101311ADDAA199000091AY101061AY201061GA1011+009009099GF103991011091008001001021MD1999999-0071MW1131REMSYN088AAXX  26004 65416 31572 30000 10240 20233 40131 71300 81902 333 59007 81930 94513 95707;EQDQ01  00002PRCP99
0174654160999992000062712004+09290-002470FM-12+0301DGLB V0209999C00001009001CN0200001N1+02901+02321101461ADDAA199000091GA1031+004209069GF106991061081004501001001MD1999999-0011REMSYN076AAXX  27124 65416 32470 60000 10290 20232 40146 86800 333 59001 83614 86818;EQDQ01  00002PRCP99
0215654160999992000062718004+09290-002470FM-12+0301DGLB V0209999C000012200019N0220001N1+02951+02331101211ADDAA199000091GA1031+004509089GA2011+007509099GF103991031091004501001001KA1120M+03101MD1999999-0031REMSYN088AAXX  27184 65416 32472 30000 10295 20233 40121 83900 333 10310 59003 83815 81925 94435;EQDQ01  00002PRCP99
0196654160999992000062900004+09290-002470FM-12+0301DGLB V0209999C000012200019N0180001N1+02351+02281101351ADDAA199000091AY191061AY201061GA1021+075009019GF102991001001999999001021MD1999999-0041MW1021REMSYN076AAXX  29004 65416 31968 20000 10235 20228 40135 70290 80002 333 59004 82075;EQDQ01  00002PRCP99
0174654160999992000062912004+09290-002470FM-12+0301DGLB V0202801N00151009001CN0220001N1+02801+02291101291ADDAA199000091GA1021+003909069GF107991071081004501999999MD1999999-0031REMSYN076AAXX  29124 65416 32472 72803 10280 20229 40129 878// 333 59003 82613 86816;EQDQ01  00002PRCP99
0156654160999992000063000004+09290-002470FM-12+0301DGLB V0209999C000012200019N0180001N1+02351+02281101371ADDAA199000091GA1001+999999999GF100991001001999999001001MD1999999+0021REMSYN058AAXX  30004 65416 32968 00000 10235 20228 40137 333 58002;EQDQ01  00002PRCP99
0193654160999992000063006004+09290-002470FM-12+0301DGLB V0209999C000019999999N0180001N1+02251+02171101271ADDAA199000091GA1021+033009039GF107991021001999999031061KA1120N+02101MD1999999+0021REMSYN082AAXX  30064 65416 32968 70000 10225 20217 40127 82036 333 20210 58002 82361 87275;EQDQ01  00002PRCP99
0174654160999992000063012004+09290-002470FM-12+0301DGLB V0209999C000010039019N0200001N1+02651+02351101361ADDAA199000091GA1061+003909069GF107991071081004501999999MD1999999+0001REMSYN076AAXX  30124 65416 32470 70000 10265 20235 40136 878// 333 58000 86613 85816;EQDQ01  00002PRCP99
0193654160999992000070206004+09290-002470FM-12+0301DGLB V0202301N00101045001CN0200001N1+02301+02151101291ADDAA199000091GA1031+004209069GF107991031051004501031999KA1120N+02151MD1999999+0081REMSYN082AAXX  02064 65416 32470 72302 10230 20215 40129 8353/ 333 20215 58008 83614 87362;EQDQ01  00002PRCP99
0174654160999992000070212004+09290-002470FM-12+0301DGLB V0209999C00001009001CN0200001N1+02631+02221101411ADDAA199000091GA1021+003909069GF107991071081004501999999MD1999999+0111REMSYN076AAXX  02124 65416 32470 70000 10263 20222 40141 878// 333 58011 82613 86816;EQDQ01  00002PRCP99
0193654160999992000070218004+09290-002470FM-12+0301DGLB V0209999C000012200019N0220001N1+02851+02231101071ADDAA199000091GA1011+004209069GF103991031081004501001001KA1120M+03001MD1999999+0011REMSYN082AAXX  02184 65416 32472 30000 10285 20223 40107 83800 333 10300 58001 81614 83818;EQDQ01  00002PRCP99
0156654160999992000070300004+09290-002470FM-12+0301DGLB V0209999C000012200019N0180001N1+02351+02271101321ADDAA199000091GA1001+999999999GF100991001001999999001001MD1999999+0061REMSYN058AAXX  03004 65416 32968 00000 10235 20227 40132 333 58006;EQDQ01  00002PRCP99
0187654160999992000070406004+09290-002470FM-12+0301DGLB V0209999C000010360019N0160001N1+02351+02201101181ADDAA199000091GA1071+036009079GF107991071001999999031999KA1120N+02201MD1999999-0081REMSYN076AAXX  04064 65416 32966 70000 10235 20220 40118 8703/ 333 20220 59008 87362;EQDQ01  00002PRCP99
0174654160999992000070412004+09290-002470FM-12+0301DGLB V0202301N003110042019N0240001N1+02701+02181101221ADDAA199000091GA1051+004209069GF107991071081004501999999MD1999999-0011REMSYN076AAXX  04124 65416 32474 72306 10270 20218 40122 878// 333 59001 85614 85818;EQDQ01  00002PRCP99
0189654160999992000070612004+09290-002470FM-12+0301DGLB V0209999C000010039019N0200001N1+02511+02351101471ADDAA106003091AY191061AY261061GA1061+003909069GF107991061051004501071999MD1999999+0081MW1291REMSYN088AAXX  06124 65416 11470 70000 10251 20235 40147 60031 72996 8657/ 333 58008 86613 87462;
0174654160999992000070618004+09290-002470FM-12+0301DGLB V0209999C000010390019N0200001N1+02661+02311101231ADDAA112003091GA1051+039009079GF107991041091004501031011KA1120M+02721MD1999999-0061REMSYN082AAXX  06184 65416 12470 70000 10266 20231 40123 60032 84931 333 10272 59006 85363;
0258654160999992000070706004+09290-002470FM-12+0301DGLB V0209999C000010036019N0150001N1+02061+02041101461ADDAA124013091AY191061AY261061GA1051+003609069GA2011+009009099GA3071+033009049GF107991051091004501071999KA1120N+01951MD1999999-0051MW1951REMSYN112AAXX  07064 65416 11465 70000 10206 20204 40146 60134 79596 8597/ 333 20195 59005 85612 87461 81930 94582 95701;
0189654160999992000070712004+09290-002470FM-12+0301DGLB V0209999C000019999999N0220001N1+02701+02341101411ADDAA106000391AY191061AY261061GA1031+039009039GF107991031001999999031021MD1999999+0011MW1011REMSYN088AAXX  07124 65416 11972 70000 10270 20234 40141 69931 70196 83032 333 58001 83363 85075;
0224654160999992000070718004+09290-002470FM-12+0301DGLB V0209999C000010420019N0200001N1+02601+02311101291ADDAA112000391GA1031+006009089GA2011+007509099GA3041+042009039GF105991031091008001031011KA1120M+02881MD1999999-0061REMSYN100AAXX  07184 65416 12570 50000 10260 20231 40129 69932 83931 333 10288 59006 83820 84364 81925 94471;
0174654160999992000070806004+09290-002470FM-12+0301DGLB V0209999C000012200019N0150001N1+02101+02081101441ADDAA124000391GA1021+075009019GF102991001001999999001021KA1120N+01991MD1999999-0021REMSYN082AAXX  08064 65416 12965 20000 10210 20208 40144 69934 80002 333 20199 59002 82075;
0174654160999992000070812004+09290-002470FM-12+0301DGLB V0202301N004110048019N0220001N1+02851+02351101281ADDAA199000091GA1051+004809089GF105991051021004501001001MD1999999-0061REMSYN076AAXX  08124 65416 32472 52308 10285 20235 40128 85200 333 59006 85816 83362;EQDQ01  00002PRCP99
0187654160999992000070818004+09290-002470FM-12+0301DGLB V0202301N000512200019N0200001N1+02671+02251101131ADDAA199000091GA1021+004209029GF103991031081004501001001KA1120M+03301MD1999999-0091REMSYN076AAXX  08184 65416 32470 32301 10267 20225 40113 83800 333 10330 59009 82814;EQDQ01  00002PRCP99
0187654160999992000070906004+09290-002470FM-12+0301DGLB V0209999C000012200019N0120001N1+02301+02231101441ADDAA199000091GA1021+036009079GF102991021001999999031001KA1120N+02151MD1999999+0071REMSYN076AAXX  09064 65416 32962 20000 10230 20223 40144 82030 333 20215 58007 82362;EQDQ01  00002PRCP99
0187654160999992000071006004+09290-002470FM-12+0301DGLB V0202301N001010360019N0180001N1+02301+02151101281ADDAA199000091GA1061+036009079GF106991061001999999031001KA1120N+02151MD1999999-0161REMSYN076AAXX  10064 65416 32968 62302 10230 20215 40128 86030 333 20215 59016 86362;EQDQ01  00002PRCP99
0174654160999992000071012004+09290-002470FM-12+0301DGLB V0209999C000010042019N0200001N1+02751+02241101331ADDAA199000091GA1051+004209069GF107991071081004501999999MD1999999-0061REMSYN076AAXX  10124 65416 32470 70000 10275 20224 40133 878// 333 59006 85614 83818;EQDQ01  00002PRCP99
0193654160999992000071018004+09290-002470FM-12+0301DGLB V0203201N00261220001CN0200001N1+02701+02261101021ADDAA199000091GA1011+004509069GF106991011051004501001061KA1120M+02921MD1999999+0091REMSYN082AAXX  10184 65416 32470 63205 10270 20226 40102 81506 333 10292 58009 81615 86274;EQDQ01  00002PRCP99
0187654160999992000071106004+09290-002470FM-12+0301DGLB V0209999C000010042019N0200001N1+02301+02131101311ADDAA199000091GA1051+004209059GF106991051051004501001021KA1120N+02051MD1999999+0031REMSYN076AAXX  11064 65416 32470 60000 10230 20213 40131 85502 333 20205 58003 85614;EQDQ01  00002PRCP99
0203654160999992000071118004+09290-002470FM-12+0301DGLB V0209999C000012200019N0200001N1+02861+02281101081ADDAA199000091GA1021+005409029GF103991999021004501001001KA1120M+03031MD1999999+0061REMSYN076AAXX  11184 65416 32470 30000 10286 20228 40108 82200 333 10303 58006 82818;EQDQ01+000022SCOTLCQ02  00002PRCP99
0183654160999992000071400004+09290-002470FM-12+0301DGLB V0209999C000010360019N0150001N1+02161+02141101311ADDAA106019191AY191061AY261061GA1051+036009079GF105991051001999999031001MD1999999-0021MW1021REMSYN082AAXX  14004 65416 11965 50000 10216 20214 40131 60191 70296 85030 333 59002 85362;
0187654160999992000071718004+09290-002470FM-12+0301DGLB V0209999C000012200019N0220001N1+02761+02231101211ADDAA199000091GA1021+005409029GF103991021021004501001021KA1120M+02931MD1999999+0001REMSYN076AAXX  17184 65416 32472 30000 10276 20223 40121 82202 333 10293 58000 82818;EQDQ01  00002PRCP99
0193654160999992000071806004+09020-002470FM-12+0301DGLB V0209999C000019999999N0180001N1+02271+02171101431ADDAA199000091GA1041+036009039GF107991041001999999031021KA1120N+02121MD1999999+0041REMSYN082AAXX  18064 65416 32968 70000 10227 20217 40143 84032 333 20212 58004 84362 85075;EQDQ01  00002PRCP99
0174654160999992000071812004+09020-002470FM-12+0301DGLB V0202301N002110048019N0200001N1+02651+02131101571ADDAA199000091GA1051+004809069GF107991071081004501999999MD1999999+0051REMSYN076AAXX  18124 65416 32470 72304 10265 20213 40157 878// 333 58005 85616 83818;EQDQ01  00002PRCP99
0193654160999992000071818004+09020-002470FM-12+0301DGLB V0209999C000012200019N0200001N1+02701+02201101281ADDAA199000091GA1011+009609099GF101991011091008001001021KA1120M+02841MD1999999+0071REMSYN082AAXX  18184 65416 32570 10000 10270 20220 40128 81902 333 10284 58007 81932 94524;EQDQ01  00002PRCP99
0187654160999992000071906004+09020-002470FM-12+0301DGLB V0209999C000010360019N0180001N1+02251+02181101321ADDAA199000091GA1071+036009079GF107991071001999999031999KA1120N+02121MD1999999-0111REMSYN076AAXX  19064 65416 32968 70000 10225 20218 40132 8703/ 333 20212 59011 87362;EQDQ01  00002PRCP99
0174654160999992000071912004+09020-002470FM-12+0301DGLB V0202301N001510036019N0180001N1+02551+02181101381ADDAA199000091GA1061+003609069GF107991071081004501999999MD1999999-0191REMSYN076AAXX  19124 65416 32468 72303 10255 20218 40138 878// 333 59019 86612 83815;EQDQ01  00002PRCP99
0174654160999992000072012004+09020-002470FM-12+0301DGLB V0202301N002110054019N0220001N1+02721+02201101271ADDAA199000091GA1051+005409089GF107991051021004501031999MD1999999-0041REMSYN076AAXX  20124 65416 32472 72304 10272 20220 40127 8523/ 333 59004 85818 87363;EQDQ01  00002PRCP99
0193654160999992000072018004+09020-002470FM-12+0301DGLB V0209999C000019999999N0200001N1+02651+02131101241ADDAA199000091GA1031+039009039GF107991031001999999031061KA1120M+02801MD1999999+0061REMSYN082AAXX  20184 65416 32970 70000 10265 20213 40124 83036 333 10280 58006 83363 87275;EQDQ01  00002PRCP99
0187654160999992000072106004+09020-002470FM-12+0301DGLB V0202301N000510330019N0160001N1+02151+02071101251ADDAA199000091GA1071+033009079GF107991071001999999031999KA1120N+02001MD1999999-0041REMSYN076AAXX  21064 65416 32966 72301 10215 20207 40125 8703/ 333 20200 59004 87361;EQDQ01  00002PRCP99
0168654160999992000072112004+09020-002470FM-12+0301DGLB V0202701N003110042019N0180001N1+02501+02131101461ADDAA199000091GA1071+004209059GF107991071081004501999999MD1999999-0121REMSYN070AAXX  21124 65416 32468 72706 10250 20213 40146 878// 333 59012 87614;EQDQ01  00002PRCP99
0202654160999992000072118004+09020-002470FM-12+0301DGLB V0209999C000010360019N0180001N1+02601+02151101181ADDAA199000091GA1021+004209069GA2041+036009039GF107991021051004501031021MD1999999-0061REMSYN088AAXX  21184 65416 32468 70000 10260 20215 40118 82532 333 10/// 59006 82614 84362 87275;EQDQ01  00002PRCP99
0237654160999992000072218004+09020-002470FM-12+0301DGLB V0209999C000010057019N0220001N1+02701+99999101101ADDAA199000091GA1021+004209069GA2041+005709089GA3021+008409099GF105991051091004501031001KA1120M+02801MD1999999-0011REMSYN094AAXX  22184 65416 32472 50000 10270 2//// 40110 85930 333 10280 59001 82614 84819 82928 94615;EQDQ01  00002PRCP99
0187654160999992000072306004+09020-002470FM-12+0301DGLB V02099999999990360019N0200001N1+03201+02131101391ADDAA199000091GA1071+036009079GF107991071001999999031999KA1120N+02041MD1999999+0021REMSYN076AAXX  23064 65416 32970 7/0// 10320 20213 40139 8703/ 333 20204 58002 87362;EQDQ01  00002PRCP99
0193654160999992000072406004+09020-002470FM-12+0301DGLB V0209999C000012200019N0180001N1+02021+01991101481ADDAA199000091GA1011+036009039GF103991011001999999031021KA1120N+01881MD1999999+0121REMSYN082AAXX  24064 65416 32968 30000 10202 20199 40148 81032 333 20188 58012 81362 82074;EQDQ01  00002PRCP99
0187654160999992000072506004+09020-002470FM-12+0301DGLB V0209999C000010039019N0160001N1+02061+02011101381ADDAA199000091GA1071+003909059GF107991071051004501999999KA1120N+01901MD1999999-0101REMSYN076AAXX  25064 65416 32466 70000 10206 20201 40138 875// 333 20190 59010 87613;EQDQ01  00002PRCP99
0168654160999992000072512004+09020-002470FM-12+0301DGLB V0202301N003110042019N0200001N1+02651+02211101441ADDAA199000091GA1051+004209059GF107991061081004501031999MD1999999-0031REMSYN070AAXX  25124 65416 32470 72306 10265 20221 40144 8683/ 333 59003 85614;EQDQ01  00002PRCP99
0215654160999992000072518004+09020-002470FM-12+0301DGLB V0209999C000010360019N0200001N1+02601+02151101261ADDAA199000091GA1031+005409089GA2031+036009039GF107991031021004501031061KA1120M+02931MD1999999+0121REMSYN088AAXX  25184 65416 32470 70000 10260 20215 40126 83236 333 10293 58012 83818 83362 87275;EQDQ01  00002PRCP99
0187654160999992000072606004+09020-002470FM-12+0301DGLB V0209999C000010360019N0180001N1+02101+02041101421ADDAA199000091GA1071+036009079GF107991071001999999031999KA1120N+01951MD1999999+0041REMSYN076AAXX  26064 65416 32968 70000 10210 20204 40142 8703/ 333 20195 58004 87362;EQDQ01  00002PRCP99
0174654160999992000072612004+09020-002470FM-12+0301DGLB V0202701N00101045001CN0200001N1+02901+02241101401ADDAA199000091GA1031+004209069GF107991041081004501031999MD1999999+0031REMSYN076AAXX  26124 65416 32470 72702 10290 20224 40140 8483/ 333 58003 83614 87362;EQDQ01  00002PRCP99
0237654160999992000072618004+09020-002470FM-12+0301DGLB V0209999C00001009001CN0160001N1+02831+02201101141ADDAA199000091GA1031+006009089GA2021+009009099GA3021+072009069GF106991041091008001001051KA1120M+03051MD1999999-0051REMSYN094AAXX  26184 65416 32566 60000 10283 20220 40114 84905 333 10305 59005 83820 82674 82930 94663;EQDQ01  00002PRCP99
0193654160999992000072706004+09020-002470FM-12+0301DGLB V0209999C000019999999N0200001N1+02151+02081101301ADDAA199000091GA1031+036009039GF105991031001999999031021KA1120N+02011MD1999999-0051REMSYN082AAXX  27064 65416 32970 50000 10215 20208 40130 83032 333 20201 59005 83362 83075;EQDQ01  00002PRCP99
0187654160999992000072806004+09020-002470FM-12+0301DGLB V0209999C000012200019N0180001N1+02261+02221101251ADDAA199000091GA1021+004209059GF103991021051004501031001KA1120N+02121MD1999999-0051REMSYN076AAXX  28064 65416 32468 30000 10226 20222 40125 82530 333 20212 59005 82614;EQDQ01  00002PRCP99
0174654160999992000072812004+09020-002470FM-12+0301DGLB V0202301N00311009001CN0220001N1+02841+02351101191ADDAA199000091GA1021+003909069GF106991061081004501001001MD1999999-0121REMSYN076AAXX  28124 65416 32472 62306 10284 20235 40119 86800 333 59012 82613 85818;EQDQ01  00002PRCP99
0265654160999992000072818004+09020-002470FM-12+0301DGLB V0209999C000010720019N0180001N1+02881+02341100861ADDAA199000091AY191061AY221061GA1031+004209089GA2011+009009099GA3071+072009029GF107991041091004501001061KA1120M+03061MD1999999-0191MW1171REMSYN100AAXX  28184 65416 31468 70000 10288 20234 40086 71792 84906 333 10306 59019 83814 87274 81930 94582;EQDQ01  00002PRCP99
0239654160999992000072900004+09020-002470FM-12+0301DGLB V0209999C000010330019N0140001N1+02121+02091101271ADDAA106039191AY191061AY261061GA1031+003609069GA2011+009009099GA3081+033009049GF108991031091004501021999MD1999999-0021MW1951REMSYN106AAXX  29004 65416 11464 80000 10212 20209 40127 60391 79596 8392/ 333 59002 83612 88461 81930 94546 95705;
0202654160999992000073006004+09020-002470FM-12+0301DGLB V0209999C000010036019N0130001N1+02201+02131101231ADDAA124002091AY151061AY211061GA1071+003609059GF107991071051004501999999KA1120N+02251MD1999999+0031MW1511REMSYN088AAXX  30064 65416 11463 70000 10220 20213 40123 60024 75151 875// 333 20225 58003 87612;
0174654160999992000073018004+09020-002470FM-12+0301DGLB V0201801N00101045001CN0220001N1+02701+02081101071ADDAA199000021GA1041+006009089GF105991041021008001031021KA1120M+02801MD1999999+0081REMSYN082AAXX  30184 65416 32572 51802 10270 20208 40107 84232 333 10280 58008 84820 84362;
0193654160999992000073106004+09020-002470FM-12+0301DGLB V0209999C00001045001CN0200001N1+02251+02231101361ADDAA199000091GA1041+003609069GF107991041051004501031999KA1120N+02141MD1999999+0131REMSYN082AAXX  31064 65416 32470 70000 10225 20223 40136 8453/ 333 20214 58013 84612 87361;EQDQ01  00002PRCP99
0174654160999992000073112004+09020-002470FM-12+0301DGLB V0202301N001510039019N0200001N1+02751+02241101421ADDAA199000091GA1051+003909069GF107991071081004501999999MD1999999+0081REMSYN076AAXX  31124 65416 32470 72303 10275 20224 40142 878// 333 58008 85613 84815;EQDQ01  00002PRCP99
0187654160999992000073118004+09020-002470FM-12+0301DGLB V0209999C000012200019N0200001N1+02851+02271101121ADDAA199000091GA1011+005409029GF102991011021004501031001KA1120M+03001MD1999999+0071REMSYN076AAXX  31184 65416 32470 20000 10285 20227 40112 81230 333 10300 58007 81818;EQDQ01  00002PRCP99
0193654160999992000080106004+09020-002470FM-12+0301DGLB V0209999C00001105001CN0180001N1+02251+02111101251ADDAA199000091GA1021+004209069GF105991021051004501031021KA1120N+02101MD1999999-0111REMSYN082AAXX  01064 65416 32468 50000 10225 20211 40125 82532 333 20210 59011 82614 84362;EQDQ01  00002PRCP99
0168654160999992000080112004+09020-002470FM-12+0301DGLB V0202701N000510054019N0220001N1+02901+02251101121ADDAA199000091GA1061+005409029GF106991061021004501001001MD1999999-0261REMSYN070AAXX  01124 65416 32472 62701 10290 20225 40112 86200 333 59026 86818;EQDQ01  00002PRCP99
0193654160999992000080218004+09020-002470FM-12+0301DGLB V0209999C00001045001CN0200001N1+02651+02291101321ADDAA199000091GA1031+004209069GF107991031031004501071999KA1120M+02801MD1999999+0051REMSYN082AAXX  02184 65416 32470 70000 10265 20229 40132 8337/ 333 10280 58005 83614 87362;EQDQ01  00002PRCP99
0202654160999992000080300004+09020-002470FM-12+0301DGLB V0209999C000010720019N0150001N1+02301+02281101491ADDAA106004191AY161061AY221061GA1071+072009089GF107991999001999999001061MD1999999+0041MW1021REMSYN082AAXX  03004 65416 11965 70000 10230 20228 40149 60041 70262 80006 333 58004 87274;EQDQ01+000002SCOTLC
0202654160999992000080306004+09020-002470FM-12+0301DGLB V0209999C000010360019N0180001N1+02151+02081101511ADDAA124004191GA1021+003609069GA2041+036009039GF107991021051004501031061KA1120N+02001MD1999999+0311REMSYN094AAXX  03064 65416 12468 70000 10215 20208 40151 60044 82536 333 20200 58031 82612 84362 86275;
0168654160999992000080312004+09020-002470FM-12+0301DGLB V0209999C000010039019N0200001N1+02601+02151101641ADDAA199000091GA1071+003909059GF107991071051004501999999MD1999999+0281REMSYN070AAXX  03124 65416 32470 70000 10260 20215 40164 875// 333 58028 87613;EQDQ01  00002PRCP99
0189654160999992000080400004+09020-002470FM-12+0301DGLB V0209999C00001045001CN0180001N1+02251+02181101591ADDAA106000891AY191061AY261061GA1041+003909069GF107991041051004501071999MD1999999+0101MW1211REMSYN088AAXX  04004 65416 11468 70000 10225 20218 40159 69981 72196 8457/ 333 58010 84613 87462;
0189654160999992000080412004+09020-002470FM-12+0301DGLB V0203201N00151045001CN0180001N1+02401+02171101721ADDAA106002091AY161061AY221061GA1031+003909069GF107991041081004501071999MD1999999+0081MW1011REMSYN088AAXX  04124 65416 11468 73203 10240 20217 40172 60021 70162 8487/ 333 58008 83613 87462;
0193654160999992000080418004+09020-002470FM-12+0301DGLB V0209999C00001045001CN0180001N1+02551+02231101421ADDAA199000091GA1011+005409089GF107991011021004501031999KA1120M+02731MD1999999-0091REMSYN082AAXX  04184 65416 32468 70000 10255 20223 40142 8123/ 333 10273 59009 81818 87362;EQDQ01  00002PRCP99
0202654160999992000080518004+09020-002470FM-12+0301DGLB V0209999C000010042019N0200001N1+02831+02451101171ADDAA112000591AY181061AY211061GA1051+004209059GF106991051051004501031021KA1120M+03081MD1999999-0181MW1031REMSYN088AAXX  05184 65416 11470 60000 10283 20245 40117 69952 70381 85532 333 10308 59018 85614;
0155654160999992000080606004+09020-002470FM-12+0301DGLB V0209999C000010330019N0160001N1+02231+02191101421ADDAA124000591GA1061+033009079GF106991061001999999031001MD1999999-0051REMSYN076AAXX  06064 65416 12966 60000 10223 20219 40142 69954 86030 333 59005 86361;
0174654160999992000080612004+09020-002470FM-12+0301DGLB V0202301N001010039019N0200001N1+02801+02341101391ADDAA199000091GA1051+003909069GF107991061081004501001021MD1999999-0031REMSYN076AAXX  06124 65416 32470 72302 10280 20234 40139 86802 333 59003 85613 83818;EQDQ01  00002PRCP99
0274654160999992000080618004+09020-002470FM-12+0301DGLB V0209999C00001005401CN0200001N1+02601+02311101281ADDAA112000791AY181061AY221061GA1021+004209069GA2031+005409089GA3011+009009099GA4051+075009009GF106991041091004501001021KA1120M+02991MD1999999+0041MW1011REMSYN112AAXX  06184 65416 11470 60000 10260 20231 40128 69902 70182 84902 333 10299 58004 82614 83818 85075 81930 94571;
0184654160999992000080700004+09020-002470FM-12+0301DGLB V0209999C000012200019N0160001N1+02301+02181101431ADDAA199000091AY191061AY211061GA1001+999999999GF100991001001999999001001MD1999999+0061MW1021REMSYN064AAXX  07004 65416 31966 00000 10230 20218 40143 70291 333 58006;EQDQ01  00002PRCP99
0208654160999992000081118004+09020-002470FM-12+0301DGLB V0209999C00001105001CN0200001N1+02651+02191101331ADDAA112000891AY181061AY211061GA1021+005409089GF106991021021004501031061KA1120M+02861MD1999999-0101MW1011REMSYN094AAXX  11184 65416 11470 60000 10265 20219 40133 69982 70181 82236 333 10286 59010 82818 86275;
0180654160999992000081206004+09020-002470FM-12+0301DGLB V0209999C000010390019N0180001N1+02101+02031101401ADDAA124000891GA1051+039009039GF106991051001004501031021KA1120N+01941MD1999999-0221REMSYN088AAXX  12064 65416 12468 60000 10210 20203 40140 69984 85032 333 20194 59022 85363 84075;
0174654160999992000081212004+09020-002470FM-12+0301DGLB V0202301N00311009001CN0200001N1+02661+02131101491ADDAA199000091GA1031+003909069GF107991071081004501999999MD1999999-0181REMSYN076AAXX  12124 65416 32470 72306 10266 20213 40149 878// 333 59018 83613 85818;EQDQ01  00002PRCP99
0168654160999992000081400004+09020-002470FM-12+0301DGLB V0209999C000010330019N0160001N1+02381+02321101471ADDAA199000091GA1071+033009079GF107991071001999999031999MD1999999+0151REMSYN070AAXX  14004 65416 32966 70000 10238 20232 40147 8703/ 333 58015 87361;EQDQ01  00002PRCP99
0168654160999992000081412004+09020-002470FM-12+0301DGLB V0209999C000010054019N0200001N1+02801+02211101371ADDAA199000091GA1051+005409029GF105991051021004501001001MD1999999-0041REMSYN070AAXX  14124 65416 32470 50000 10280 20221 40137 85200 333 59004 85818;EQDQ01  00002PRCP99
0208654160999992000081506004+09020-002470FM-12+0301DGLB V0209999C00001045001CN0150001N1+02101+02081101591ADDAA124043991AY191061AY261061GA1031+003609069GF107991031051004501071999KA1120N+01951MD1999999+0131MW1011REMSYN094AAXX  15064 65416 11465 70000 10210 20208 40159 60444 70196 8357/ 333 20195 58013 83612 87461;
0168654160999992000081512004+09020-002470FM-12+0301DGLB V0202301N000510054019N0200001N1+02741+02241101511ADDAA199000091GA1061+005409029GF106991061021004501001021MD1999999+0141REMSYN070AAXX  15124 65416 32470 62301 10274 20224 40151 86202 333 58014 86818;EQDQ01  00002PRCP99
0193654160999992000081518004+09020-002470FM-12+0301DGLB V0209999C00001045001CN0200001N1+02751+02261101271ADDAA199000091GA1031+004209069GF107991041081004501031061KA1120M+02921MD1999999+0041REMSYN082AAXX  15184 65416 32470 70000 10275 20226 40127 84836 333 10292 58004 83614 87275;EQDQ01  00002PRCP99
0187654160999992000081606004+09020-002470FM-12+0301DGLB V0209999C000010036019N0160001N1+02101+02021101551ADDAA199000091GA1051+003609059GF105991051051004501001001KA1120N+01941MD1999999-0041REMSYN076AAXX  16064 65416 32466 50000 10210 20202 40155 85500 333 20194 59004 85612;EQDQ01  00002PRCP99
0174654160999992000081612004+09020-002470FM-12+0301DGLB V0209999C00001009001CN0200001N1+02751+02241101491ADDAA199000091GA1041+004209069GF107991071081004501999999MD1999999-0021REMSYN076AAXX  16124 65416 32470 70000 10275 20224 40149 878// 333 59002 84614 86813;EQDQ01  00002PRCP99
0155654160999992000081700004+09020-002470FM-12+0301DGLB V0209999C000010360019N0180001N1+02251+02221101381ADDAA106023991GA1071+036009079GF107991071001999999031999MD1999999-0171REMSYN076AAXX  17004 65416 11968 70000 10225 20222 40138 60241 8703/ 333 59017 87362;
0168654160999992000081712004+09020-002470FM-12+0301DGLB V0209999C000010039019N0180001N1+02601+02231101571ADDAA199000091GA1071+003909059GF107991071051004501999999MD1999999+0011REMSYN070AAXX  17124 65416 32468 70000 10260 20223 40157 875// 333 58001 87613;EQDQ01  00002PRCP99
0208654160999992000081806004+09020-002470FM-12+0301DGLB V0209999C00001045001CN0160001N1+02201+02131101461ADDAA124005191AY191061AY221061GA1041+003909069GF107991041051004501071999KA1120N+02041MD1999999+0141MW1011REMSYN094AAXX  18064 65416 11466 70000 10220 20213 40146 60054 70192 8457/ 333 20204 58014 84613 84362;
0168654160999992000081812004+09020-002470FM-12+0301DGLB V0202301N000510039019N0180001N1+02601+02231101471ADDAA199000091GA1061+003909059GF107991071031004501999999MD1999999-0101REMSYN070AAXX  18124 65416 32468 72301 10260 20223 40147 873// 333 59010 86613;EQDQ01  00002PRCP99
0174654160999992000081906004+09020-002470FM-12+0301DGLB V0209999C000010039019N0160001N1+02251+02101101521ADDAA124002091GA1071+003909059GF107991071051002501999999KA1120N+02081MD1999999+0061REMSYN082AAXX  19064 65416 12366 70000 10225 20210 40152 60024 875// 333 20208 58006 87613;
0252654160999992000082406004+09020-002470FM-12+0301DGLB V0209999C000010036019N0180001N1+02301+02231101531ADDAA124009991AY191061AY261061GA1051+003609069GA2011+009009099GA3071+030009049GF107991051091004501071999KA1120N+02111MD1999999+0121MW1031REMSYN106AAXX  24064 65416 11468 70000 10230 20223 40153 60104 70396 8597/ 333 20211 58012 85612 87460 81930 94524;
0202654160999992000082506004+09020-002470FM-12+0301DGLB V0209999C000012200019N0120001N1+02201+02171101381ADDAA124000791AY141061AY261061GA1011+003609059GF102991011051004501031001KA1120N+02051MD1999999-0181MW1281REMSYN088AAXX  25064 65416 11462 20000 10220 20217 40138 69904 72846 81530 333 20205 59018 81612;
0168654160999992000082512004+09020-002470FM-12+0301DGLB V0209999C000010051019N0200001N1+02821+02331101381ADDAA199000091GA1061+005109029GF106991061021004501001001MD1999999-0231REMSYN070AAXX  25124 65416 32470 60000 10282 20233 40138 86200 333 59023 86817;EQDQ01  00002PRCP99
0187654160999992000082518004+09020-002470FM-12+0301DGLB V0209999C000012200019N0280001N1+02801+02371101121ADDAA199000091GA1031+005409029GF103991031021004501001001KA1120M+03121MD1999999-0221REMSYN076AAXX  25184 65416 32478 30000 10280 20237 40112 83200 333 10312 59022 83818;EQDQ01  00002PRCP99
0168654160999992000082612004+09020-002470FM-12+0301DGLB V0209999C000010036019N0180001N1+02601+02231101381ADDAA199000091GA1071+003609059GF107991071051004501999999MD1999999-0071REMSYN070AAXX  26124 65416 32468 70000 10260 20223 40138 875// 333 59007 87612;EQDQ01  00002PRCP99
0174654160999992000082712004+09020-002470FM-12+0301DGLB V0202701N00051004201CN0200001N1+02881+02331101281ADDAA199000091GA1031+003609069GF106991061021004501031001MD1999999-0031REMSYN076AAXX  27124 65416 32470 62701 10288 20233 40128 86230 333 59003 83612 86818;EQDQ01  00002PRCP99
0187654160999992000082718004+09020-002470FM-12+0301DGLB V0209999C000012200019N0200001N1+02801+02351101051ADDAA199000091GA1021+036009079GF103991021001999999031021KA1120M+02981MD1999999+0011REMSYN076AAXX  27184 65416 32970 30000 10280 20235 40105 82032 333 10298 58001 82362;EQDQ01  00002PRCP99
0221654160999992000082806004+09020-002470FM-12+0301DGLB V0209999C000019999999N0060001N1+02241+02181101231ADDAA199000091AY101061AY201061GA1031+033009039GF105991031001999999031021KA1120N+02081MD1999999-0111MW1101REMSYN088AAXX  28064 65416 31956 50000 10224 20218 40123 71000 83032 333 20208 59011 83361 85075;EQDQ01  00002PRCP99
0196654160999992000082812004+09020-002470FM-12+0301DGLB V0209999C000010051019N0220001N1+02951+02381101261ADDAA199000091AY141061AY211061GA1061+005109029GF106991061021004501001001MD1999999-0061MW1021REMSYN076AAXX  28124 65416 31472 60000 10295 20238 40126 70241 86200 333 59006 86817;EQDQ01  00002PRCP99
0196654160999992000082900004+09020-002470FM-12+0301DGLB V0209999C000019999999N0100001N1+02301+02241101211ADDAA199000091AY111061AY211061GA1031+075009019GF106991001001999999001021MD1999999-0091MW1101REMSYN076AAXX  29004 65416 31960 60000 10230 20224 40121 71011 80002 333 59009 83075;EQDQ01  00002PRCP99
0250654160999992000082906004+09020-002470FM-12+0301DGLB V0209999C000010330019N0160001N1+02301+02241101191ADDAA124009991AY191061GA1021+003609069GA2011+009009099GA3061+033009039GF107991021091004501031001KA1120N+02101MD1999999-0041MW1171REMSYN112AAXX  29064 65416 11466 70000 10230 20224 40119 60104 7179/ 82930 333 20210 59004 82612 86361 81930 94524 95703;
0168654160999992000082912004+09020-002470FM-12+0301DGLB V0209999C000010054019N0200001N1+02951+02451101271ADDAA199000091GA1051+005409029GF105991051021004501001001MD1999999+0011REMSYN070AAXX  29124 65416 32470 50000 10295 20245 40127 85200 333 58001 85818;EQDQ01  00002PRCP99
0168654160999992000083000004+09020-002470FM-12+0301DGLB V0209999C000012200019N0160001N1+02351+02281101371ADDAA199000091GA1021+036009079GF103991021001999999031021MD1999999+0101REMSYN070AAXX  30004 65416 32966 30000 10235 20228 40137 82032 333 58010 82362;EQDQ01  00002PRCP99
0174654160999992000083006004+09020-002470FM-12+0301DGLB V0209999C000012200019N0180001N1+02211+02191101381ADDAA124002091GA1041+036009079GF104991041001999999031021KA1120N+02071MD1999999+0091REMSYN082AAXX  30064 65416 12968 40000 10221 20219 40138 60024 84032 333 20207 58009 84362;
0168654160999992000083012004+09020-002470FM-12+0301DGLB V0202301N000510450019N0220001N1+02901+02451101251ADDAA199000091GA1041+005409029GF105991041021004501031001MD1999999-0021REMSYN070AAXX  30124 65416 32472 52301 10290 20245 40125 84230 333 59002 84818;EQDQ01  00002PRCP99
0271654160999992000083106004+09020-002470FM-12+0301DGLB V0209999C000010360019N0180001N1+02251+02181101241ADDAA199000091AY191061AY211061GA1021+003909069GA2011+009009099GA3061+036009039GF106991021091004501031001KA1120N+02071MD1999999-0041MW1171REMSYN106AAXX  31064 65416 31468 60000 10225 20218 40124 71791 82930 333 20207 59004 82613 86362 81930 94513 95702;EQDQ01  00002PRCP99
0189654160999992000083112004+09020-002470FM-12+0301DGLB V0209999C000010039019N0200001N1+02411+02131101321ADDAA106007191AY191061AY261061GA1061+003909069GF107991061051004501071999MD1999999+0061MW1031REMSYN088AAXX  31124 65416 11470 70000 10241 20213 40132 60071 70396 8657/ 333 58006 86613 87462;
0180654160999992000083118004+09020-002470FM-12+0301DGLB V0209999C00001045001CN0200001N1+02501+02281101021ADDAA112007191GA1011+004209069GF106991011081004501031001KA1120M+02751MD1999999-0011REMSYN088AAXX  31184 65416 12470 60000 10250 20228 40102 60072 81830 333 10275 59001 81614 85362;
0168654160999992000090100004+09020-002470FM-12+0301DGLB V0209999C000010039019N0150001N1+02251+02211101231ADDAA199000091GA1061+003909059GF106991061051004501001001MD1999999+0001REMSYN070AAXX  01004 65416 32465 60000 10225 20221 40123 86500 333 58000 86613;EQDQ01  00002PRCP99
0180654160999992000090106004+09020-002470FM-12+0301DGLB V0209999C000010039019N0180001N1+02271+02241101221ADDAA124007191GA1051+003909069GF107991051051004501031071KA1120N+01951MD1999999-0021REMSYN088AAXX  01064 65416 12468 70000 10227 20224 40122 60074 85537 333 20195 59002 85613 87462;
0168654160999992000090112004+09020-002470FM-12+0301DGLB V0209999C000010036019N0180001N1+02651+02291101321ADDAA199000091GA1061+003609059GF107991071081004501999999MD1999999-0061REMSYN070AAXX  01124 65416 32468 70000 10265 20229 40132 878// 333 59006 86612;EQDQ01  00002PRCP99
0208654160999992000090118004+09020-002470FM-12+0301DGLB V0209999C00001045001CN0200001N1+02721+02281101131ADDAA112000391AY161061AY221061GA1011+005409089GF106991011021004501031001KA1120M+02881MD1999999+0181MW1011REMSYN094AAXX  01184 65416 11470 60000 10272 20228 40113 69932 70162 81230 333 10288 58018 81818 86362;
0168654160999992000090200004+09020-002470FM-12+0301DGLB V0209999C000012200019N0160001N1+02351+02281101321ADDAA199000091GA1031+036009079GF103991031001999999031001MD1999999+0091REMSYN070AAXX  02004 65416 32966 30000 10235 20228 40132 83030 333 58009 83362;EQDQ01  00002PRCP99
0180654160999992000090206004+09020-002470FM-12+0301DGLB V0209999C000012200019N0160001N1+02301+02131101281ADDAA124000391GA1021+039009039GF104991031001999999031021KA1120N+02051MD1999999+0061REMSYN088AAXX  02064 65416 11966 40000 10230 20213 40128 69934 83032 333 20205 58006 82363 83075;
0168654160999992000090312004+09020-002470FM-12+0301DGLB V0209999C000010048019N0220001N1+03081+02351101171ADDAA199000091GA1051+004809029GF105991051021004501001001MD1999999-0141REMSYN070AAXX  03124 65416 32472 50000 10308 20235 40117 85200 333 59014 85816;EQDQ01  00002PRCP99
0187654160999992000090318004+09020-002470FM-12+0301DGLB V0209999C000012200019N0220001N1+03001+02511100991ADDAA199000091GA1031+005409029GF103991031021004501001001KA1120M+03261MD1999999-0051REMSYN076AAXX  03184 65416 32472 30000 10300 20251 40099 83200 333 10326 59005 83818;EQDQ01  00002PRCP99
0168654160999992000090412004+09020-002470FM-12+0301DGLB V0209999C000010042019N0180001N1+02751+02391101111ADDAA199000091GA1071+004209059GF107991071051004501999999MD1999999-0061REMSYN070AAXX  04124 65416 32468 70000 10275 20239 40111 875// 333 59006 87614;EQDQ01  00002PRCP99
0138654160999992000090415004+09020-002470FM-12+0301DGLB V0202701N001010042019N0160001N1+02901+02361101191ADDGA1061+004209059GF107991071081004501999999MD1999999+0171REMSYN070AAXX  04154 65416 42466 72702 10290 20236 40119 878// 333 58017 86614;
0193654160999992000090418004+09020-002470FM-12+0301DGLB V0201801N00151105001CN0280001N1+02651+02281100991ADDAA199000091GA1031+003909069GF105991021051004501001021KA1120M+02901MD1999999+0031REMSYN082AAXX  04184 65416 32478 51803 10265 20228 40099 82502 333 10290 58003 83613 84075;EQDQ01  00002PRCP99
0246654160999992000090500004+09020-002470FM-12+0301DGLB V0209999C000012200019N0160001N1+02301+02231101241ADDAA199000091AY111061AY211061GA1011+009009099GA2031+075009009GF103991011091008001031999MD1999999+0051MW1131REMSYN094AAXX  05004 65416 31566 30000 10230 20223 40124 71311 81930 333 58005 81930 83075 94524 95703;EQDQ01+000002SCOHCGQ02  00002PRCP99
0193654160999992000090506004+09020-002470FM-12+0301DGLB V0209999C00001045001CN0160001N1+02211+02191101271ADDAA199000091GA1021+003909069GF105991021051004501031001KA1120N+02011MD1999999+0071REMSYN082AAXX  05064 65416 32466 50000 10221 20219 40127 82530 333 20201 58007 82613 84362;EQDQ01  00002PRCP99
0174654160999992000090512004+09020-002470FM-12+0301DGLB V0201901N00361009001CN0160001N1+02701+02351101251ADDAA199000091GA1041+003609069GF107991071081004501999999MD1999999+0141REMSYN076AAXX  05124 65416 32466 71907 10270 20235 40125 878// 333 58014 84612 86816;EQDQ01  00002PRCP99
0200654160999992000090600004+09020-002470FM-12+0301DGLB V0209999C000012200019N0160001N1+02401+02331101231ADDAA199000091GA1061+078009089GF199999999001999999001001MD1999999-0011REMSYN070AAXX  06004 65416 32966 00000 10240 20233 40123 80006 333 59001 86276;EQDQ01+000002SCOTCVQ02+000002SCOTLCQ03  00002PRCP99
0193654160999992000090606004+09020-002470FM-12+0301DGLB V0209999C000010030019N0160001N1+02301+02271101111ADDAA199000091GA1051+003009069GF107991051051004501031999KA1120N+02131MD1999999-0161REMSYN082AAXX  06064 65416 32466 70000 10230 20227 40111 8553/ 333 20213 59016 85610 87362;EQDQ01  00002PRCP99
0208654160999992000090618004+09020-002470FM-12+0301DGLB V0209999C00001045001CN0180001N1+02361+02291101061ADDAA112002091AY191061AY261061GA1041+003609069GF107991041051004501031999KA1120M+02541MD1999999-0041MW1011REMSYN094AAXX  06184 65416 11468 70000 10236 20229 40106 60022 70196 8453/ 333 10254 59004 84612 87362;
0152654160999992000090706004+09020-002470FM-12+0301DGLB V0209999C000010042019N0160001N1+02101+02051101351ADDAA124002091GF107991071051004501999999KA1120N+01881MD1999999+0171REMSYN076AAXX  07064 65416 12466 70000 10210 20205 40135 60024 875// 333 20188 58017;
0208654160999992000090806004+09020-002470FM-12+0301DGLB V0209999C000010036019N0160001N1+02101+02031101271ADDAA124016091AY191061AY261061GA1051+003609069GF107991051051004501071999KA1120N+02131MD1999999-0081MW1211REMSYN094AAXX  08064 65416 11466 70000 10210 20203 40127 60164 72196 8557/ 333 20213 59008 85612 87461;
0174654160999992000090812004+09020-002470FM-12+0301DGLB V0209999C000012200019N0200001N1+02751+02241101041ADDAA199000021GA1021+004209069GF199999031081004501031999MD1999999-0221REMSYN076AAXX  08124 65416 32470 10000 10275 20224 40104 8383/ 333 59022 82614 87362;EQDQ01+000012SCOTCV
0258654160999992000090818004+09020-002470FM-12+0301DGLB V0209999C000010036019N0160001N1+02451+02271101031ADDAA112000391AY191061AY261061GA1051+003609069GA2011+009009099GA3071+036009039GF107991051091004501031999KA1120M+02901MD1999999+0021MW1171REMSYN112AAXX  08184 65416 11466 70000 10245 20227 40103 69932 71796 8593/ 333 10290 58002 85612 87362 81930 94572 95708;
0193654160999992000090918004+09020-002470FM-12+0301DGLB V0209999C000012200019N0200001N1+02801+02331101041ADDAA199000091GA1011+005109089GF103991011021004501031021KA1120M+03001MD1999999+0081REMSYN082AAXX  09184 65416 32470 30000 10280 20233 40104 81232 333 10300 58008 81817 86362;EQDQ01  00002PRCP99
0156654160999992000091000004+09020-002470FM-12+0301DGLB V0209999C000012200019N0160001N1+02681+02201101411ADDAA199000091GA1001+999999999GF100991001001999999001001MD1999999+0391REMSYN058AAXX  10004 65416 32966 00000 10268 20220 40141 333 58039;EQDQ01  00002PRCP99
0193654160999992000091106004+09020-002470FM-12+0301DGLB V0209999C000010039019N0160001N1+02301+02261101111ADDAA199000091GA1051+003909069GF107991051051004501031999KA1120N+02081MD1999999-0141REMSYN082AAXX  11064 65416 32466 70000 10230 20226 40111 8553/ 333 20208 59014 85613 87362;EQDQ01  00002PRCP99
0208654160999992000091206004+09020-002470FM-12+0301DGLB V0209999C00001105001CN0160001N1+02001+02001101131ADDAA124034091AY141061AY221061GA1041+003609069GF107991041051004501001061KA1120N+01781MD1999999-0051MW1031REMSYN094AAXX  12064 65416 11466 70000 10200 20200 40113 60344 70342 84506 333 20178 59005 84612 87275;
0196654160999992000091212004+09020-002470FM-12+0301DGLB V0209999999999045001CN0180001N1+02701+02261101171ADDAA199000091GA1031+004209069GA2031+005409089GF107991041081004501031999MD1999999+0031REMSYN082AAXX  12124 65416 32468 7//// 10270 20226 40117 8483/ 333 58003 83614 83818 87362;EQDQ01  00002PRCP99
0193654160999992000091306004+09020-002470FM-12+0301DGLB V0209999C00001105001CN0200001N1+02201+02171101391ADDAA199000091GA1041+003909069GF107991041051004501001061KA1120N+02001MD1999999+0331REMSYN082AAXX  13064 65416 32470 70000 10220 20217 40139 84506 333 20200 58033 84613 87275;EQDQ01  00002PRCP99
0168654160999992000091400004+09020-002470FM-12+0301DGLB V0209999C000010360019N0160001N1+02351+02281101431ADDAA199000091GA1071+036009079GF107991071001999999031999MD1999999+0141REMSYN070AAXX  14004 65416 32966 70000 10235 20228 40143 8703/ 333 58014 87362;EQDQ01  00002PRCP99
0187654160999992000091406004+09020-002470FM-12+0301DGLB V0209999C000010360019N0160001N1+02601+02141101331ADDAA199000091GA1071+036009079GF107991071001999999031999KA1120N+02001MD1999999-0061REMSYN076AAXX  14064 65416 32966 70000 10260 20214 40133 8703/ 333 20200 59006 87362;EQDQ01  00002PRCP99
0174654160999992000091412004+09020-002470FM-12+0301DGLB V0203201N00211045001CN0250001N1+03051+02331101341ADDAA199000091GA1021+005109089GF105991021021004501031001MD1999999-0041REMSYN076AAXX  14124 65416 32475 53204 10305 20233 40134 82230 333 59004 82817 85362;EQDQ01  00002PRCP99
0265654160999992000091418004+09020-002470FM-12+0301DGLB V0209999C000010750019N0200001N1+03001+02311101111ADDAA199000091AY191061AY221061GA1011+005409089GA2021+009009099GA3041+075009009GF105991021091004501031021KA1120M+03201MD1999999-0081MW1171REMSYN100AAXX  14184 65416 31470 50000 10300 20231 40111 71792 82932 333 10320 59008 81818 84075 82930 94599;EQDQ01  00002PRCP99
0189654160999992000091512004+09020-002470FM-12+0301DGLB V0209999C00001045001CN0220001N1+02601+02221101431ADDAA106000591AY161061AY221061GA1011+004809089GF106991011011004501031001MD1999999+0021MW1011REMSYN088AAXX  15124 65416 11472 60000 10260 20222 40143 69951 70162 81130 333 58002 81816 86362;
0184654160999992000091600004+09020-002470FM-12+0301DGLB V0209999C000010720019N0160001N1+02241+02121101461ADDAA199000091GA1081+072009089GF108991999001999999001071MD1999999+0031REMSYN070AAXX  16004 65416 32966 80000 10224 20212 40146 80007 333 58003 88274;EQDQ01+000002SCOTLCQ02  00002PRCP99
0174654160999992000091606004+09020-002470FM-12+0301DGLB V0209999C000010036019N0160001N1+02181+02061101411ADDAA124000591GA1071+003609059GF107991071051004501999999KA1120N+02001MD1999999+0061REMSYN082AAXX  16064 65416 12466 70000 10218 20206 40141 69954 875// 333 20200 58006 87612;
0168654160999992000091700004+09020-002470FM-12+0301DGLB V0209999C000010750019N0180001N1+02201+02161101411ADDAA199000091GA1051+075009019GF105991001001999999001021MD1999999-0051REMSYN070AAXX  17004 65416 32968 50000 10220 20216 40141 80002 333 59005 85075;EQDQ01  00002PRCP99
0180654160999992000091706004+09020-002470FM-12+0301DGLB V0209999C000010036019N0180001N1+02211+02191101391ADDAA124003091GA1051+003609069GF107991051051004501001061KA1120N+01951MD1999999-0021REMSYN088AAXX  17064 65416 12468 70000 10221 20219 40139 60034 85506 333 20195 59002 85612 87275;
0168654160999992000091712004+09020-002470FM-12+0301DGLB V0202301N002610048019N0200001N1+02821+02281101361ADDAA199000091GA1051+004809029GF105991051021004501031001MD1999999+0001REMSYN070AAXX  17124 65416 32470 52305 10282 20228 40136 85230 333 58000 85816;EQDQ01  00002PRCP99
0249654160999992000091806004+09020-002470FM-12+0301DGLB V0209999C000010390019N0160001N1+02281+02221101301ADDAA199000091AY191061AY221061GA1011+009009099GA2061+039009039GF106991011091008001031001KA1120N+02021MD1999999-0091MW1171REMSYN100AAXX  18064 65416 31566 60000 10228 20222 40130 71792 81930 333 20202 59009 81930 86363 94582 95701;EQDQ01  00002PRCP99
0168654160999992000091900004+09020-002470FM-12+0301DGLB V0209999C000010360019N0160001N1+02161+02141101391ADDAA199000091GA1051+036009079GF105991051001999999031001MD1999999+0041REMSYN070AAXX  19004 65416 32966 50000 10216 20214 40139 85030 333 58004 85362;EQDQ01  00002PRCP99
0174654160999992000091912004+09020-002470FM-12+0301DGLB V0209999C00001009001CN0200001N1+02801+02291101361ADDAA199000091GA1031+004209069GF106991061081004501031021MD1999999-0031REMSYN076AAXX  19124 65416 32470 60000 10280 20229 40136 86832 333 59003 83614 85818;EQDQ01  00002PRCP99
0174654160999992000092212004+09020-002470FM-12+0301DGLB V0209999C000010045019N0160001N1+03151+02371101361ADDAA199000091GA1051+004509089GF107991051081004501031999MD1999999+0031REMSYN076AAXX  22124 65416 32466 70000 10315 20237 40136 8583/ 333 58003 85815 87362;EQDQ01  00002PRCP99
0258654160999992000092718004+09020-002470FM-12+0301DGLB V0201401N001510036019N0160001N1+02101+02051101431ADDAA112043991AY191061AY261061GA1051+003609069GA2021+008409099GA3061+033009049GF108991051091004501021999KA1120M+03121MD1999999+0171MW1951REMSYN112AAXX  27184 65416 11466 81403 10210 20205 40143 60442 79596 8592/ 333 10312 58017 85612 86461 82928 94699 95709;
0168654160999992000093012004+09020-002470FM-12+0301DGLB V0209999C000010036019N0180001N1+02701+02261101361ADDAA199000091GA1071+003609059GF107991071051004501999999MD1999999+0091REMSYN070AAXX  30124 65416 32468 70000 10270 20226 40136 875// 333 58009 87612;EQDQ01  00002PRCP99
0174654160999992000100212004+09020-002470FM-12+0301DGLB V0209999C00001045001CN0220001N1+02871+02321101391ADDAA199000091GA1031+005109089GF107991031021004501031999MD1999999-0161REMSYN076AAXX  02124 65416 32472 70000 10287 20232 40139 8323/ 333 59016 83817 87362;EQDQ01  00002PRCP99
0187654160999992000100506004+09020-002470FM-12+0301DGLB V0201901N006210030019N0160001N1+02251+02181101271ADDAA199000091GA1071+003009059GF107991071051004501999999KA1120N+02201MD1999999+0111REMSYN076AAXX  05064 65416 32466 71912 10225 20218 40127 875// 333 20220 58011 87610;EQDQ01  00002PRCP99
0173654160999992000100518004+09020-002470FM-12+0301DGLB V0202301N00051009001CN0250001N1+03001+02441999999ADDAA199000091GA1041+003909069GF107991051081004501031061KA1120M+03481REMSYN076AAXX  05184 65416 32475 72301 10300 20244 4//// 85836 333 10348 84613 86275;EQDQ01  00002PRCP99
0174654160999992000100812004+09020-002470FM-12+0301DGLB V0209999C00001105001CN0220001N1+03041+02291101301ADDAA199000091GA1021+005109089GF105991021021004501031021MD1999999+0081REMSYN076AAXX  08124 65416 32472 50000 10304 20229 40130 82232 333 58008 82817 83361;EQDQ01  00002PRCP99
0231654160999992000101618004+09020-002470FM-12+0301DGLB V0209999C000012200019N0240001N1+02951+99999101171ADDAA199000091GA1011+004209069GA2011+009009099GA3031+078009009GF104991031091004501001021KA1120M+03341MD1999999+0101REMSYN088AAXX  16184 65416 32474 40000 10295 40117 83902 333 10334 58010 81614 83076 81930 94568;EQDQ01  00002PRCP99
0174654160999992000102606004+09020-002470FM-12+0301DGLB V0209999C000010750019N0200001N1+02101+02031101281ADDAA124000791GA1051+075009019GF105991001001999999001021KA1120N+02041MD1999999+0051REMSYN082AAXX  26064 65416 12970 50000 10210 20203 40128 69904 80002 333 20204 58005 85075;
0174654160999992000102612004+09020-002470FM-12+0301DGLB V0200501N002112200019N0240001N1+03301+02301101031ADDAA199000091GA1011+005109089GF104991011011004501001021MD1999999-0101REMSYN076AAXX  26124 65416 32474 40504 10330 20230 40103 81102 333 59010 81817 84075;EQDQ01  00002PRCP99
0175654160999992000102706004+09020-002470FM-12+0301DGLB V0209999C000012200019N0180001N1+02071+01991101271ADDAA199000091GA1001+999999999GF100991001001999999001001KA1120N+02001MD1999999-0011REMSYN064AAXX  27064 65416 32968 00000 10207 20199 40127 333 20200 59001;EQDQ01  00002PRCP99
0168654160999992000102712004+09020-002470FM-12+0301DGLB V0200501N002612200019N0220001N1+03251+02071101151ADDAA199000091GA1011+004809059GF101991011011004501001001MD1999999+0121REMSYN070AAXX  27124 65416 32472 10505 10325 20207 40115 81100 333 58012 81616;EQDQ01  00002PRCP99
0156654160999992000102800004+09020-002470FM-12+0301DGLB V0209999C000012200019N0170001N1+02351+02131101301ADDAA199000091GA1001+999999999GF100991001001999999001001MD1999999+0021REMSYN058AAXX  28004 65416 32967 00000 10235 20213 40130 333 58002;EQDQ01  00002PRCP99
0187654160999992000102806004+09020-002470FM-12+0301DGLB V0209999C000012200019N0160001N1+02171+02071101231ADDAA199000091GA1021+036009079GF102991021001999999031001KA1120N+02091MD1999999+0031REMSYN076AAXX  28064 65416 32966 20000 10217 20207 40123 82030 333 20209 58003 82362;EQDQ01  00002PRCP99
0168654160999992000102812004+09020-002470FM-12+0301DGLB V0201801N002110051019N0160001N1+02951+02371101091ADDAA199000091GA1061+005109029GF106991061021004501031001MD1999999-0161REMSYN070AAXX  28124 65416 32466 61804 10295 20237 40109 86230 333 59016 86817;EQDQ01  00002PRCP99
0168654160999992000103000004+09020-002470FM-12+0301DGLB V0209999C000012200019N0160001N1+02251+02101101301ADDAA199000091GA1031+075009019GF103991001001999999001021MD1999999-0081REMSYN070AAXX  30004 65416 32966 30000 10225 20210 40130 80002 333 59008 83075;EQDQ01  00002PRCP99
0168654160999992000110112004+09020-002470FM-12+0301DGLB V0201901N004110051019N0170001N1+03101+02391101181ADDAA199000091GA1061+005109029GF106991061021004501001001MD1999999-0051REMSYN070AAXX  01124 65416 32467 61908 10310 20239 40118 86200 333 59005 86817;EQDQ01  00002PRCP99
0187654160999992000110406004+09020-002470FM-12+0301DGLB V0209999C000012200019N0180001N1+02151+02081101061ADDAA199000091GA1011+075009019GF101991001001999999001021KA1120N+02101MD1999999+0011REMSYN076AAXX  04064 65416 32968 10000 10215 20208 40106 80002 333 20210 58001 81075;EQDQ01  00002PRCP99
0168654160999992000110412004+09020-002470FM-12+0301DGLB V0200501N002612200019N0220001N1+03201+02261101061ADDAA199000091GA1031+005109029GF103991031021004501001021MD1999999+0061REMSYN070AAXX  04124 65416 32472 30505 10320 20226 40106 83202 333 58006 83817;EQDQ01  00002PRCP99
0215654160999992000110418004+09020-002470FM-12+0301DGLB V0209999C000012200019N0220001N1+03001+02431100871ADDAA199000091GA1021+003609069GA2011+009009099GF102991021091004501001001KA1120M+03451MD1999999+0021REMSYN088AAXX  04184 65416 32472 20000 10300 20243 40087 82900 333 10345 58002 82612 81930 94558;EQDQ01  00002PRCP99
0215654160999992000110506004+09020-002470FM-12+0301DGLB V0209999C000012200019N0080001N1+02101+02021101251ADDAA199000091AY101061AY201061GA1021+072009019GF102991001001999999001021KA1120N+02051MD1999999+0121MW1101REMSYN082AAXX  05064 65416 31958 20000 10210 20202 40125 71000 80002 333 20205 58012 82074;EQDQ01  00002PRCP99
0196654160999992000110512004+09020-002470FM-12+0301DGLB V0201801N001012200019N0180001N1+03301+02231101031ADDAA199000091AY141061AY201061GA1021+005109029GF102991021021004501001001MD1999999+0041MW1021REMSYN076AAXX  05124 65416 31468 21802 10330 20223 40103 70240 82200 333 58004 82817;EQDQ01  00002PRCP99
0156654160999992000110600004+09020-002470FM-12+0301DGLB V0209999C000012200019N0150001N1+02301+02151101261ADDAA199000091GA1001+999999999GF100991001001999999001001MD1999999+0111REMSYN058AAXX  06004 65416 32965 00000 10230 20215 40126 333 58011;EQDQ01  00002PRCP99
0168654160999992000110612004+09020-002470FM-12+0301DGLB V0202301N00101009001CN0180001N1+03001+02271101091ADDAA199000091GA1031+004809059GF105991051081004501001001MD1999999+0001REMSYN070AAXX  06124 65416 32468 52302 10300 20227 40109 85800 333 58000 83616;EQDQ01  00002PRCP99
0187654160999992000110806004+09020-002470FM-12+0301DGLB V0209999C000012200019N0150001N1+01871+01761100881ADDAA199000091GA1041+075009019GF104991001001999999001021KA1120N+01821MD1999999-0181REMSYN076AAXX  08064 65416 32965 40000 10187 20176 40088 80002 333 20182 59018 84075;EQDQ01  00002PRCP99
0168654160999992000110812004+09020-002470FM-12+0301DGLB V0201401N002612200019N0180001N1+03461+02131100641ADDAA199000091GA1011+004809029GF101991011011999999001001MD1999999-0201REMSYN070AAXX  08124 65416 32968 11405 10346 20213 40064 81100 333 59020 81816;EQDQ01  00002PRCP99
0175654160999992000110818004+09020-002470FM-12+0301DGLB V0209999C000012200019N0140001N1+02851+02271100641ADDAA199000091GA1001+999999999GF100991001001999999001001KA1120M+03401MD1999999-0121REMSYN064AAXX  08184 65416 32964 00000 10285 20227 40064 333 10340 59012;EQDQ01  00002PRCP99
0156654160999992000110900004+09020-002470FM-12+0301DGLB V0209999C000012200019N0140001N1+02181+02021100911ADDAA199000091GA1001+999999999GF100991001001999999001001MD1999999-0031REMSYN058AAXX  09004 65416 32964 00000 10218 20202 40091 333 59003;EQDQ01  00002PRCP99
0187654160999992000110906004+09020-002470FM-12+0301DGLB V0209999C000012200019N0140001N1+02071+01991100971ADDAA199000091GA1021+072009019GF102991001001999999001021KA1120N+02011MD1999999+0091REMSYN076AAXX  09064 65416 32964 20000 10207 20199 40097 80002 333 20201 58009 82074;EQDQ01  00002PRCP99
0168654160999992000110912004+09020-002470FM-12+0301DGLB V0209999C000012200019N0140001N1+03151+02291101031ADDAA199000091GA1041+005109029GF104991041021004501001001MD1999999+0331REMSYN070AAXX  09124 65416 32464 40000 10315 20229 40103 84200 333 58033 84817;EQDQ01  00002PRCP99
0168654160999992000111000004+09020-002470FM-12+0301DGLB V0209999C000012200019N0140001N1+02301+02151101081ADDAA199000091GA1031+075009019GF103991001001999999001021MD1999999+0171REMSYN070AAXX  10004 65416 32964 30000 10230 20215 40108 80002 333 58017 83075;EQDQ01  00002PRCP99
0175654160999992000111006004+09020-002470FM-12+0301DGLB V0209999C000012200019N0130001N1+02101+02031101111ADDAA199000091GA1001+999999999GF100991001001999999001001KA1120N+02021MD1999999+0141REMSYN064AAXX  10064 65416 32963 00000 10210 20203 40111 333 20202 58014;EQDQ01  00002PRCP99
0187654160999992000111018004+09020-002470FM-12+0301DGLB V0209999C000010750019N0120001N1+02801+02311100741ADDAA199000091GA1051+075009019GF105991001001999999001021KA1120M+03501MD1999999-0051REMSYN076AAXX  10184 65416 32962 50000 10280 20231 40074 80002 333 10350 59005 85075;EQDQ01  00002PRCP99
0168654160999992000111112004+09020-002470FM-12+0301DGLB V0202301N001512200019N0180001N1+03181+02221101001ADDAA199000091GA1021+004809029GF102991021011004501001001MD1999999+0161REMSYN070AAXX  11124 65416 32468 22303 10318 20222 40100 82100 333 58016 82816;EQDQ01  00002PRCP99
0193654160999992000111118004+09020-002470FM-12+0301DGLB V0209999C000012200019N0220001N1+02841+02321100811ADDAA199000091GA1011+009609099GF102991011091008001001021KA1120M+03461MD1999999+0071REMSYN082AAXX  11184 65416 32572 20000 10284 20232 40081 81902 333 10346 58007 81932 94535;EQDQ01  00002PRCP99
0168654160999992000111212004+09020-002470FM-12+0301DGLB V0202301N004612200019N0220001N1+03151+02211101061ADDAA199000091GA1041+005109029GF104991041021004501001001MD1999999+0061REMSYN070AAXX  12124 65416 32472 42309 10315 20221 40106 84200 333 58006 84817;EQDQ01  00002PRCP99
0187654160999992000111218004+09020-002470FM-12+0301DGLB V0209999C000012200019N0220001N1+02951+02301100811ADDAA199000091GA1031+036009079GF103991031001999999031001KA1120M+03251MD1999999+0001REMSYN076AAXX  12184 65416 32972 30000 10295 20230 40081 83030 333 10325 58000 83362;EQDQ01  00002PRCP99
0187654160999992000111306004+09020-002470FM-12+0301DGLB V0209999C000012200019N0140001N1+02001+01971100111ADDAA199000091GA1011+036009079GF101991011001999999031001KA1120N+01971MD1999999-0021REMSYN076AAXX  13064 65416 32964 10000 10200 20197 40011 81030 333 20197 59002 81362;EQDQ01  00002PRCP99
0187654160999992000111318004+09020-002470FM-12+0301DGLB V0209999C000010750019N0180001N1+02901+02401100701ADDAA199000091GA1051+075009019GF105991001001999999001061KA1120M+03531MD1999999-0111REMSYN076AAXX  13184 65416 32968 50000 10290 20240 40070 80006 333 10353 59011 85075;EQDQ01  00002PRCP99
0156654160999992000111400004+09020-002470FM-12+0301DGLB V0209999C000012200019N0140001N1+02201+02051101051ADDAA199000091GA1001+999999999GF100991001001999999001001MD1999999-0071REMSYN058AAXX  14004 65416 32964 00000 10220 20205 40105 333 59007;EQDQ01  00002PRCP99
0174654160999992000111412004+09020-002470FM-12+0301DGLB V0202301N00361105001CN0180001N1+03251+02321100881ADDAA199000091GA1041+005409089GF105991041021004501001021MD1999999-0021REMSYN076AAXX  14124 65416 32468 52307 10325 20232 40088 84202 333 59002 84818 83076;EQDQ01  00002PRCP99
0187654160999992000111506004+09020-002470FM-12+0301DGLB V0209999C000010750019N0160001N1+02051+01971101241ADDAA199000091GA1061+075009019GF106991001001999999001021KA1120N+02001MD1999999+0141REMSYN076AAXX  15064 65416 32966 60000 10205 20197 40124 80002 333 20200 58014 86075;EQDQ01  00002PRCP99
0230654160999992000111518004+09020-002470FM-12+0301DGLB V0209999C000010750019N0150001N1+02431+02381101131ADDAA112017091AY191061AY261061GA1011+009009099GA2061+075009029GF106991011091008001001061KA1120M+03361MD1999999+0201MW1011REMSYN100AAXX  15184 65416 11565 60000 10243 20238 40113 60172 70196 81906 333 10336 58020 81930 86275 94568;
0168654160999992000111700004+09020-002470FM-12+0301DGLB V0209999C000012200019N0150001N1+02201+02071101231ADDAA199000091GA1031+036009079GF104991031001999999031021MD1999999+0021REMSYN070AAXX  17004 65416 32965 40000 10220 20207 40123 83032 333 58002 83362;EQDQ01  00002PRCP99
0187654160999992000111706004+09020-002470FM-12+0301DGLB V0209999C000010750019N0150001N1+02101+02031101251ADDAA199000091GA1051+075009019GF105991001001999999001021KA1120N+02001MD1999999-0051REMSYN076AAXX  17064 65416 32965 50000 10210 20203 40125 80002 333 20200 59005 85075;EQDQ01  00002PRCP99
0168654160999992000111712004+09020-002470FM-12+0301DGLB V0202301N001012200019N0180001N1+03401+02071101001ADDAA199000091GA1021+075009019GF102991001001999999001021MD1999999+0051REMSYN070AAXX  17124 65416 32968 22302 10340 20207 40100 80002 333 58005 82075;EQDQ01  00002PRCP99
0275654160999992000111718004+09020-002470FM-12+0301DGLB V0209999C000012200019N0160001N1+02901+02901100961ADDAA199000091GA1041+003909069GA2011+009009099GA3051+033009039GF199999021999999999031001KA1120M+03531MD1999999+0021REMSYN100AAXX  17184 65416 32966 20000 10290 20290 40096 82030 333 10353 58002 84613 85361 81930 94682 95701;EQDQ01+000022SCOTCVQ02+000002SCOLCGQ03  00002PRCP99
0187654160999992000111806004+09020-002470FM-12+0301DGLB V0209999C000012200019N0160001N1+02151+02081101181ADDAA199000091GA1031+075009019GF103991001001999999001021KA1120N+02111MD1999999+0001REMSYN076AAXX  18064 65416 32966 30000 10215 20208 40118 80002 333 20211 58000 83075;EQDQ01  00002PRCP99
0168654160999992000111812004+09020-002470FM-12+0301DGLB V0201801N004112200019N0180001N1+03201+02421101131ADDAA199000091GA1041+005109029GF104991041021004501001001MD1999999+0071REMSYN070AAXX  18124 65416 32468 41808 10320 20242 40113 84200 333 58007 84817;EQDQ01  00002PRCP99
0187654160999992000111906004+09020-002470FM-12+0301DGLB V0209999C000010330019N0160001N1+02201+02081101181ADDAA199000091GA1071+033009079GF107991071001999999031999KA1120N+02131MD1999999+0001REMSYN076AAXX  19064 65416 32966 70000 10220 20208 40118 8703/ 333 20213 58000 87361;EQDQ01  00002PRCP99
0174654160999992000111912004+09020-002470FM-12+0301DGLB V0202301N00211045001CN0180001N1+03101+02291101111ADDAA199000091GA1021+005109089GF107991021011004501031999MD1999999-0021REMSYN076AAXX  19124 65416 32468 72304 10310 20229 40111 8213/ 333 59002 82817 87362;EQDQ01  00002PRCP99
0203654160999992000111918004+09020-002470FM-12+0301DGLB V02099999999990750019N0180001N1+02851+02401100961ADDAA199000091GA1061+075009089GF106991999001999999001061KA1120M+03291MD1999999+0071REMSYN076AAXX  19184 65416 32968 6/0// 10285 20240 40096 80006 333 10329 58007 86275;EQDQ01+000002SCOTLCQ02  00002PRCP99
0156654160999992000112000004+09020-002470FM-12+0301DGLB V0209999C000012200019N0150001N1+02401+02251101211ADDAA199000091GA1001+999999999GF100991001001999999001001MD1999999+0001REMSYN058AAXX  20004 65416 32965 00000 10240 20225 40121 333 58000;EQDQ01  00002PRCP99
0193654160999992000112006004+09020-002470FM-12+0301DGLB V0209999C000012200019N0150001N1+02201+02131101231ADDAA199000091GA1011+036009039GF104991011001999999031021KA1120N+02141MD1999999+0051REMSYN082AAXX  20064 65416 32965 40000 10220 20213 40123 81032 333 20214 58005 81362 83075;EQDQ01  00002PRCP99
0174654160999992000112012004+09020-002470FM-12+0301DGLB V0203201N00151105001CN0180001N1+03351+02351101101ADDAA199000091GA1041+005409089GF106991041021004501001021MD1999999+0051REMSYN076AAXX  20124 65416 32468 63203 10335 20235 40110 84202 333 58005 84818 85075;EQDQ01  00002PRCP99
0138654160999992000112109004+09020-002470FM-12+0301DGLB V0202301N002612200019N0180001N1+02721+02231101361ADDGA1041+075009019GF104991001001999999001021MD1999999+0051REMSYN070AAXX  21094 65416 42968 42305 10272 20223 40136 80002 333 58005 84075;
0168654160999992000112112004+09020-002470FM-12+0301DGLB V0203201N001011050019N0180001N1+03241+02341101161ADDAA199000091GA1041+005409029GF105991041061004501001021MD1999999+0061REMSYN070AAXX  21124 65416 32468 53202 10324 20234 40116 84602 333 58006 84818;EQDQ01  00002PRCP99
0188654160999992000112115004+09020-002470FM-12+0301DGLB V0200501N004110390019N0220001N1+03401+01781100931ADDGA1011+008409099GA2031+030009089GA3041+039009039GF106991031091008001031021MD1999999+0071REMSYN088AAXX  21154 65416 42572 60508 10340 20178 40093 83932 333 58007 83860 84363 81928 94524;
0187654160999992000112206004+09020-002470FM-12+0301DGLB V0209999C000012200019N0180001N1+02141+02051101241ADDAA199000091GA1031+075009019GF103991001001999999001021KA1120N+02081MD1999999-0051REMSYN076AAXX  22064 65416 32968 30000 10214 20205 40124 80002 333 20208 59005 83075;EQDQ01  00002PRCP99
0168654160999992000112212004+09020-002470FM-12+0301DGLB V0201801N003112200019N0150001N1+03261+02281101191ADDAA199000091GA1041+004809029GF104991041011004501001011MD1999999+0031REMSYN070AAXX  22124 65416 32465 41806 10326 20228 40119 84101 333 58003 84816;EQDQ01  00002PRCP99
0215654160999992000112306004+09020-002470FM-12+0301DGLB V0209999C000010750019N0180001N1+02201+02131101331ADDAA199000091GA1011+030009099GA2051+075009009GF105991011091008001001021KA1120N+02151MD1999999+0091REMSYN088AAXX  23064 65416 32568 50000 10220 20213 40133 81902 333 20215 58009 81960 85075 94573;EQDQ01  00002PRCP99
0233654160999992000112312004+09020-002470FM-12+0301DGLB V0203601N001010750019N0200001N1+03151+02371101261ADDAA106005191AY191061AY261061GA1021+005409089GA2011+009009099GA3071+075009029GF107991031091004501001061MD1999999+0011MW1031REMSYN100AAXX  23124 65416 11470 73602 10315 20237 40126 60051 70396 83906 333 58001 82818 87275 81930 94513;
0180654160999992000112318004+09020-002470FM-12+0301DGLB V0209999C00001045001CN0180001N1+02741+02481101091ADDAA112005191GA1011+007509099GF107991011091008001071999KA1120M+03251MD1999999+0051REMSYN088AAXX  23184 65416 12568 70000 10274 20248 40109 60052 8197/ 333 10325 58005 81925 87462;
0168654160999992000112400004+09020-002470FM-12+0301DGLB V0209999C000012200019N0180001N1+02301+02151101331ADDAA199000091GA1031+075009019GF103991001001999999001021MD1999999+0011REMSYN070AAXX  24004 65416 32968 30000 10230 20215 40133 80002 333 58001 83075;EQDQ01  00002PRCP99
0215654160999992000112506004+09020-002470FM-12+0301DGLB V0209999C000010750019N0002001N1+02121+02061101231ADDAA199000091AY141061AY261061GA1051+075009019GF105991001001999999001021KA1120N+02051MD1999999+0001MW1421REMSYN082AAXX  25064 65416 31902 50000 10212 20206 40123 74246 80002 333 20205 58000 85075;EQDQ01  00002PRCP99
0196654160999992000112512004+09020-002470FM-12+0301DGLB V0203201N002612200019N0180001N1+03151+02031101251ADDAA199000091AY141061AY211061GA1031+005409029GF103991031021004501001001MD1999999+0071MW1011REMSYN076AAXX  25124 65416 31468 33205 10315 20203 40125 70141 83200 333 58007 83818;EQDQ01  00002PRCP99
0215654160999992000112518004+09020-002470FM-12+0301DGLB V0209999C000012200019N0200001N1+02701+02101101061ADDAA199000091GA1011+009009099GA2041+036009039GF104991011091008001031001KA1120M+03451MD1999999+0061REMSYN088AAXX  25184 65416 32570 40000 10270 20210 40106 81930 333 10345 58006 81930 84362 94535;EQDQ01  00002PRCP99
0187654160999992000112818004+09020-002470FM-12+0301DGLB V0209999C000012200019N0180001N1+02751+01911101101ADDAA199000091GA1021+075009019GF102991001001999999001021KA1120M+03521MD1999999-0041REMSYN076AAXX  28184 65416 32968 20000 10275 20191 40110 80002 333 10352 59004 82075;EQDQ01  00002PRCP99
0187654160999992000112906004+09020-002470FM-12+0301DGLB V0209999C000012200019N0180001N1+01901+01821101451ADDAA199000091GA1031+075009019GF103991001001999999001021KA1120N+01881MD1999999-0011REMSYN076AAXX  29064 65416 32968 30000 10190 20182 40145 80002 333 20188 59001 83075;EQDQ01  00002PRCP99
0187654160999992000112918004+09020-002470FM-12+0301DGLB V0209999C000012200019N0180001N1+02701+01891101121ADDAA199000091GA1031+075009019GF103991001001999999001021KA1120M+03451MD1999999+0021REMSYN076AAXX  29184 65416 32968 30000 10270 20189 40112 80002 333 10345 58002 83075;EQDQ01  00002PRCP99
0156654160999992000113000004+09020-002470FM-12+0301DGLB V0209999C000012200019N0180001N1+02101+01831101431ADDAA199000091GA1001+999999999GF100991001001999999001001MD1999999-0021REMSYN058AAXX  30004 65416 32968 00000 10210 20183 40143 333 59002;EQDQ01  00002PRCP99
0184654160999992000120412004+09020-002470FM-12+0301DGLB V02099999999992200019N0045001N1+02201+00801101281ADDAA199000091AY101061AY201061GA1001+999999999GF100991001001999999001001MD1999999-0041MW1051REMSYN064AAXX  04124 65416 31945 09008 10220 20080 40128 70500 333 59004;EQDQ01  00002PRCP99
0215654160999992000120418004+09020-002470FM-12+0301DGLB V0209999C000010750019N0080001N1+02611+01531101091ADDAA199000091AY101061AY201061GA1051+075009019GF105991001001999999001021KA1120M+03521MD1999999-0011MW1051REMSYN082AAXX  04184 65416 31958 50000 10261 20153 40109 70500 80002 333 10352 59001 85075;EQDQ01  00002PRCP99
0215654160999992000120506004+09020-002470FM-12+0301DGLB V0209999C000012200019N0045001N1+01501+01321101331ADDAA199000091AY101061AY201061GA1011+075009019GF101991001001999999001021KA1120N+01421MD1999999-0071MW1101REMSYN082AAXX  05064 65416 31945 10000 10150 20132 40133 71000 80002 333 20142 59007 81075;EQDQ01  00002PRCP99
0215654160999992000120606004+09020-002470FM-12+0301DGLB V0209999C000012200019N0080001N1+01501+99999101501ADDAA199000091AY101061AY201061GA1041+075009019GF104991001001999999001021KA1120N+01421MD1999999+0101MW1051REMSYN082AAXX  06064 65416 31958 40000 10150 20223 40150 70500 80002 333 20142 58010 84075;EQDQ01  00002PRCP99
0231654160999992000120706004+09020-002470FM-12+0301DGLB V0200501N001010750019N0080001N1+01951+00671101471ADDAA199000091AY121061AY221061GA1061+075009089GF106991999001999999001051KA1120N+01801MD1999999+0041MW1051REMSYN082AAXX  07064 65416 31958 60502 10195 20067 40147 70522 80005 333 20180 58004 86275;EQDQ01+000002SCOTLCQ02  00002PRCP99
0228654160999992000120712004+09020-002470FM-12+0301DGLB V02099999999992200019N0060001N1+03201+01001101271ADDAA199000091AY121061AY221061GA1051+075009019GF199999001001999999001999MD1999999+0031MW1051REMSYN076AAXX  07124 65416 31956 05005 10320 20100 40127 70522 80002 333 58003 85075;EQDQ01+000002SCOTCVQ02+000002SCOHCGQ03  00002PRCP99
0215654160999992000120718004+09020-002470FM-12+0301DGLB V0209999C000012200019N0080001N1+02621+01461101161ADDAA199000091AY111061AY211061GA1041+075009019GF104991001001999999001021KA1120M+03401MD1999999-0021MW1051REMSYN082AAXX  07184 65416 31958 40000 10262 20146 40116 70511 80002 333 10340 59002 84075;EQDQ01  00002PRCP99
0221654160999992000120806004+09020-002470FM-12+0301DGLB V02099999999999999999N0080001N1+01601+01141101531ADDAA199000091AY111061AY211061GA1031+036009039GF107991031001999999031061KA1120N+01081MD1999999+0061MW1051REMSYN088AAXX  08064 65416 31958 7//// 10160 20114 40153 70511 83036 333 20108 58006 83362 87275;EQDQ01  00002PRCP99
0268654160999992000120812004+09020-002470FM-12+0301DGLB V0200901N004110360019N0080001N1+03051+00481101241ADDAA199000091AY121061AY221061GA1031+004809089GA2011+009009099GA3041+036009039GA4061+075009029GF107991041091999999031061MD1999999-0031MW1051REMSYN100AAXX  08124 65416 31958 70908 10305 20048 40124 70522 84936 333 59003 83816 84362 86275 81930 94535;EQDQ01  00002PRCP99
0202654160999992000120912004+09020-002470FM-12+0301DGLB V0200501N003119999999N0080001N1+03201+00621101191ADDAA199000091AY101061AY221061GA1031+036009039GF107991031001999999031061MD1999999-0051MW1051REMSYN082AAXX  09124 65416 31958 70506 10320 20062 40119 70502 83036 333 59005 83362 87275;EQDQ01  00002PRCP99
0221654160999992000121006004+09020-002470FM-12+0301DGLB V0209999C000019999999N0080001N1+01701+00831101351ADDAA199000091AY111061AY211061GA1021+036009039GF105991021001999999031021KA1120N+01491MD1999999-0061MW1051REMSYN088AAXX  10064 65416 31958 50000 10170 20083 40135 70511 82032 333 20149 59006 82362 84075;EQDQ01  00002PRCP99
0215654160999992000121018004+09020-002470FM-12+0301DGLB V0209999C000010780019N0042001N1+02651+00941101221ADDAA199000091AY121061AY221061GA1051+078009019GF105991001001999999001021KA1120M+03251MD1999999+0041MW1051REMSYN082AAXX  10184 65416 31942 50000 10265 20094 40122 70522 80002 333 10325 58004 85076;EQDQ01  00002PRCP99
0202654160999992000121106004+09020-002470FM-12+0301DGLB V0200501N001012200019N0080001N1+01831+00671101421ADDAA199000091AY111061AY211061GA1021+075009019GF102991001001999999001021MD1999999+0071MW1051REMSYN082AAXX  11064 65416 31958 20502 10183 20067 40142 70511 80002 333 29165 58007 82075;EQDQ01  00002PRCP99
0184654160999992000121112004+09020-002470FM-12+0301DGLB V0200501N002612200019N0020001N1+03131+00701101291ADDAA199000091AY101061AY201061GA1001+999999999GF100991001001999999001001MD1999999+0081MW1051REMSYN064AAXX  11124 65416 31920 00505 10313 20070 40129 70500 333 58008;EQDQ01  00002PRCP99
0203654160999992000121206004+09020-002470FM-12+0301DGLB V0209999C000012200019N0030001N1+01901+00721101451ADDAA199000091AY101061AY201061GA1001+999999999GF100991001001999999001001KA1120N+01751MD1999999+0031MW1051REMSYN070AAXX  12064 65416 31930 00000 10190 20072 40145 70500 333 20175 58003;EQDQ01  00002PRCP99
0184654160999992000121212004+09020-002470FM-12+0301DGLB V0201401N001012200019N0100001N1+02101+00671101521ADDAA199000091AY101061AY201061GA1001+999999999GF100991001001999999001001MD1999999-0111MW1051REMSYN064AAXX  12124 65416 31960 01402 10210 20067 40152 70500 333 59011;EQDQ01  00002PRCP99
0203654160999992000121218004+09020-002470FM-12+0301DGLB V0209999C000012200019N0028001N1+02701+01141101131ADDAA199000091AY101061AY201061GA1001+999999999GF100991001001999999001001KA1120M+03281MD1999999-0041MW1051REMSYN070AAXX  12184 65416 31928 00000 10270 20114 40113 70500 333 10328 59004;EQDQ01  00002PRCP99
0203654160999992000121306004+09020-002470FM-12+0301DGLB V0209999C000012200019N0028001N1+02001+00601101311ADDAA199000091AY101061AY201061GA1001+999999999GF100991001001999999001001KA1120N+01801MD1999999-0141MW1051REMSYN070AAXX  13064 65416 31928 00000 10200 20060 40131 70500 333 20180 59014;EQDQ01  00002PRCP99
0221654160999992000121318004+09020-002470FM-12+0301DGLB V0209999C000019999999N0030001N1+02621+01161101091ADDAA199000091AY101061AY201061GA1031+036009039GF105991031001999999031021KA1120M+03401MD1999999-0111MW1051REMSYN088AAXX  13184 65416 31930 50000 10262 20116 40109 70500 83032 333 10340 59011 83362 84075;EQDQ01  00002PRCP99
0196654160999992000121400004+09020-002470FM-12+0301DGLB V0200901N001019999999N0030001N1+02141+01071101241ADDAA199000091AY111061AY211061GA1021+075009019GF107991001001999999001021MD1999999-0131MW1051REMSYN076AAXX  14004 65416 31930 70902 10214 20107 40124 70511 80002 333 59013 82075;EQDQ01  00002PRCP99
0221654160999992000121406004+09020-002470FM-12+0301DGLB V0200501N000512200019N0030001N1+02001+00611101301ADDAA199000091AY111061AY211061GA1011+036009039GF104991011001999999031021KA1120N+01591MD1999999-0011MW1051REMSYN088AAXX  14064 65416 31930 40501 10200 20061 40130 70511 81032 333 20159 59001 81362 84075;EQDQ01  00002PRCP99
0196654160999992000121412004+09020-002470FM-12+0301DGLB V0200501N003112200019N0030001N1+03101+00801101121ADDAA199000091AY111061AY211061GA1031+039009079GF103991031001999999031001MD1999999+0061MW1051REMSYN076AAXX  14124 65416 31930 30506 10310 20080 40112 70511 83030 333 58006 83363;EQDQ01  00002PRCP99
0215654160999992000121418004+09020-002470FM-12+0301DGLB V0209999C000010360019N0030001N1+02601+01121101131ADDAA199000091AY111061AY211061GA1071+036009079GF107991071001999999031999KA1120M+03201MD1999999+0041MW1051REMSYN082AAXX  14184 65416 31930 70000 10260 20112 40113 70511 8703/ 333 10320 58004 87362;EQDQ01  00002PRCP99
0215654160999992000121506004+09020-002470FM-12+0301DGLB V0200501N004612200019N0030001N1+02121+00501101191ADDAA199000091AY101061AY201061GA1031+036009079GF103991031001999999031001KA1120N+01681MD1999999-0041MW1051REMSYN082AAXX  15064 65416 31930 30509 10212 20050 40119 70500 83030 333 20168 59004 83362;EQDQ01  00002PRCP99
0196654160999992000121512004+09020-002470FM-12+0301DGLB V0200501N004612200019N0030001N1+03001+00981101121ADDAA199000091AY101061AY201061GA1031+075009019GF104991001001999999001021MD1999999+0011MW1051REMSYN076AAXX  15124 65416 31930 40509 10300 20098 40112 70500 80002 333 58001 83075;EQDQ01  00002PRCP99
0203654160999992000121606004+09020-002470FM-12+0301DGLB V0200501N001012200019N0030001N1+01901+00851101261ADDAA199000091AY101061AY201061GA1001+999999999GF100991001001999999001001KA1120N+01851MD1999999+0011MW1051REMSYN070AAXX  16064 65416 31930 00502 10190 20085 40126 70500 333 20185 58001;EQDQ01  00002PRCP99
0184654160999992000121612004+09020-002470FM-12+0301DGLB V02099999999992200019N0030001N1+03051+01061101161ADDAA199000091AY101061AY201061GA1001+999999999GF100991001001999999001001MD1999999+0041MW1051REMSYN064AAXX  16124 65416 31930 05008 10305 20106 40116 70500 333 58004;EQDQ01  00002PRCP99
0203654160999992000121618004+09020-002470FM-12+0301DGLB V0209999C000012200019N0030001N1+02701+01251100941ADDAA199000091AY101061AY201061GA1001+999999999GF100991001001999999001001KA1120M+03261MD1999999+0061MW1051REMSYN070AAXX  16184 65416 31930 00000 10270 20125 40094 70500 333 10326 58006;EQDQ01  00002PRCP99
0184654160999992000121700004+09020-002470FM-12+0301DGLB V0200501N001012200019N0030001N1+02361+01101101221ADDAA199000091AY101061AY201061GA1001+999999999GF100991001001999999001001MD1999999+0081MW1051REMSYN064AAXX  17004 65416 31930 00502 10236 20110 40122 70500 333 58008;EQDQ01  00002PRCP99
0184654160999992000121712004+09020-002470FM-12+0301DGLB V0200501N001012200019N0030001N1+03101+01251101111ADDAA199000091AY101061AY201061GA1001+999999999GF100991001001999999001001MD1999999+0051MW1051REMSYN064AAXX  17124 65416 31930 00502 10310 20125 40111 70500 333 58005;EQDQ01  00002PRCP99
0203654160999992000121718004+09020-002470FM-12+0301DGLB V0209999C000012200019N0028001N1+02751+01431100941ADDAA199000091AY101061AY201061GA1001+999999999GF100991001001999999001001KA1120M+03321MD1999999+0001MW1051REMSYN070AAXX  17184 65416 31928 00000 10275 20143 40094 70500 333 10332 58000;EQDQ01  00002PRCP99
0203654160999992000121806004+09020-002470FM-12+0301DGLB V0209999C000012200019N0028001N1+01651+01291101251ADDAA199000091AY101061AY201061GA1001+999999999GF100991001001999999001001KA1120N+01621MD1999999-0011MW1051REMSYN070AAXX  18064 65416 31928 00000 10165 20129 40125 70500 333 20162 59001;EQDQ01  00002PRCP99
0184654160999992000121812004+09020-002470FM-12+0301DGLB V0201401N001512200019N0028001N1+03301+01191101051ADDAA199000091AY101061AY201061GA1001+999999999GF100991001001999999001001MD1999999+0001MW1051REMSYN064AAXX  18124 65416 31928 01403 10330 20119 40105 70500 333 58000;EQDQ01  00002PRCP99
0203654160999992000121818004+09020-002470FM-12+0301DGLB V0209999C000012200019N0015001N1+02861+01661100911ADDAA199000091AY101061AY201061GA1001+999999999GF100991001001999999001001KA1120M+03461MD1999999-0031MW1051REMSYN070AAXX  18184 65416 31915 00000 10286 20166 40091 70500 333 10346 59003;EQDQ01  00002PRCP99
0203654160999992000121906004+09020-002470FM-12+0301DGLB V0209999C000012200019N0015001N1+01701+01281101341ADDAA199000091AY101061AY201061GA1001+999999999GF100991001001999999001001KA1120N+01651MD1999999+0091MW1051REMSYN070AAXX  19064 65416 31915 00000 10170 20128 40134 70500 333 20165 58009;EQDQ01  00002PRCP99
0184654160999992000121912004+09020-002470FM-12+0301DGLB V0203201N002612200019N0015001N1+03351+01171101181ADDAA199000091AY101061AY201061GA1001+999999999GF100991001001999999001001MD1999999+0131MW1051REMSYN064AAXX  19124 65416 31915 03205 10335 20117 40118 70500 333 58013;EQDQ01  00002PRCP99
0203654160999992000121918004+09020-002470FM-12+0301DGLB V0209999C000012200019N0015001N1+02951+01491100961ADDAA199000091AY101061AY201061GA1001+999999999GF100991001001999999001001KA1120M+03561MD1999999+0071MW1051REMSYN070AAXX  19184 65416 31915 00000 10295 20149 40096 70500 333 10356 58007;EQDQ01  00002PRCP99
0203654160999992000122006004+09020-002470FM-12+0301DGLB V0209999C000012200019N0045001N1+01471+00951101351ADDAA199000091AY101061AY201061GA1001+999999999GF100991001001999999001001KA1120N+01421MD1999999-0061MW1051REMSYN070AAXX  20064 65416 31945 00000 10147 20095 40135 70500 333 20142 59006;EQDQ01  00002PRCP99
0184654160999992000122012004+09020-002470FM-12+0301DGLB V0200901N001512200019N0045001N1+03502+00571101001ADDAA199000091AY101061AY201061GA1001+999999999GF100991001001999999001001MD1999999-0181MW1051REMSYN064AAXX  20124 65416 31945 00903 10350 20057 40100 70500 333 59018;EQDQ01  00002PRCP99
0215654160999992000122018004+09020-002470FM-12+0301DGLB V0209999C000012200019N0045001N1+02751+01211100861ADDAA199000091AY101061AY201061GA1021+075009019GF102991001001999999001021KA1120M+03661MD1999999-0121MW1051REMSYN082AAXX  20184 65416 31945 20000 10275 20121 40086 70500 80002 333 10366 59012 82075;EQDQ01  00002PRCP99
0184654160999992000122100004+09020-002470FM-12+0301DGLB V0209999C000012200019N0045001N1+01901+00961101301ADDAA199000091AY101061AY201061GA1001+999999999GF100991001001999999001001MD1999999+0061MW1051REMSYN064AAXX  21004 65416 31945 00000 10190 20096 40130 70500 333 58006;EQDQ01  00002PRCP99
0203654160999992000122106004+09020-002470FM-12+0301DGLB V0209999C000012200019N0045001N1+01801+01261101281ADDAA199000091AY101061AY201061GA1001+999999999GF100991001001999999001001KA1120N+01721MD1999999+0001MW1051REMSYN070AAXX  21064 65416 31945 00000 10180 20126 40128 70500 333 20172 58000;EQDQ01  00002PRCP99
0203654160999992000122206004+09020-002470FM-12+0301DGLB V0209999C000012200019N0045001N1+01901+01741101391ADDAA199000091AY101061AY201061GA1001+999999999GF100991001001999999001001KA1120N+01851MD1999999+0111MW1101REMSYN070AAXX  22064 65416 31945 00000 10190 20174 40139 71000 333 20185 58011;EQDQ01  00002PRCP99
0215654160999992000122306004+09020-002470FM-12+0301DGLB V0209999C000012200019N0120001N1+01721+01301101411ADDAA199000091AY101061AY201061GA1021+075009019GF102991001001999999001021KA1120N+01551MD1999999+0021MW1051REMSYN082AAXX  23064 65416 31962 20000 10172 20130 40141 70500 80002 333 20155 58002 82075;EQDQ01  00002PRCP99
0215654160999992000122406004+09020-002470FM-12+0301DGLB V0209999C000010210019N0060001N1+01401+00681101411ADDAA199000091AY101061AY201061GA1051+021009019GF105991001001999999001021KA1120N+01351MD1999999+0011MW1051REMSYN082AAXX  24064 65416 31956 50000 10140 20068 40141 70500 80002 333 20135 58001 85057;EQDQ01  00002PRCP99
0200654160999992000122412004+09020-002470FM-12+0301DGLB V0200501N003112200019N0060001N1+03502+00401101261ADDAA199000091AY111061AY211061GA1001+999999999GF100991001001999999001001MD1999999+0081MW1051REMSYN064AAXX  24124 65416 31956 00506 10350 20040 40126 70511 333 58008;EQDQ01+003503ATOT  Q02  00002PRCP99
0203654160999992000122506004+09020-002470FM-12+0301DGLB V0209999C000012200019N0060001N1+01361+00661101451ADDAA199000091AY101061AY201061GA1001+999999999GF100991001001999999001001KA1120N+01301MD1999999-0031MW1051REMSYN070AAXX  25064 65416 31956 00000 10136 20066 40145 70500 333 20130 59003;EQDQ01  00002PRCP99
0184654160999992000122512004+09020-002470FM-12+0301DGLB V0200901N004112200019N0060001N1+03602+00031101131ADDAA199000091AY101061AY201061GA1001+999999999GF100991001001999999001001MD1999999-0131MW1051REMSYN064AAXX  25124 65416 31956 00908 10360 20003 40113 70500 333 59013;EQDQ01  00002PRCP99
0203654160999992000122518004+09020-002470FM-12+0301DGLB V0209999C000012200019N0060001N1+03021+00651101001ADDAA199000091AY101061AY201061GA1001+999999999GF100991001001999999001001KA1120M+03771MD1999999-0081MW1051REMSYN070AAXX  25184 65416 31956 00000 10302 20065 40100 70500 333 10377 59008;EQDQ01  00002PRCP99
0231654160999992000122606004+09020-002470FM-12+0301DGLB V0209999C000012200019N0050001N1+01701+01351101441ADDAA199000091AY101061AY201061GA1021+075009019GF102991001001999999001021KA1120N+99999MD1999999+0061MW1101REMSYN082AAXX  26064 65416 31950 20000 10170 20135 40144 71000 80002 333 20264 58006 82075;EQDQ01  00002PRCP99Q02 +02642ATMN  
0203654160999992000122706004+09020-002470FM-12+0301DGLB V0209999C000012200019N0100001N1+01651+01261101401ADDAA199000091AY101061AY201061GA1001+999999999GF100991001001999999001001KA1120N+01601MD1999999-0041MW1051REMSYN070AAXX  27064 65416 31960 00000 10165 20126 40140 70500 333 20160 59004;EQDQ01  00002PRCP99
0184654160999992000122712004+09020-002470FM-12+0301DGLB V0203601N002612200019N0100001N1+03442+01451101161ADDAA199000091AY101061AY201061GA1001+999999999GF100991001001999999001001MD1999999-0041MW1051REMSYN064AAXX  27124 65416 31960 03605 10344 20145 40116 70500 333 59004;EQDQ01  00002PRCP99
0203654160999992000122718004+09020-002470FM-12+0301DGLB V0209999C000012200019N0100001N1+03251+01331100931ADDAA199000091AY101061AY201061GA1001+999999999GF100991001001999999001001KA1120M+03751MD1999999-0131MW1051REMSYN070AAXX  27184 65416 31960 00000 10325 20133 40093 70500 333 10375 59013;EQDQ01  00002PRCP99
0168654160999992000122812004+09020-002470FM-12+0301DGLB V0200501N001512200019N0180001N1+03251+01851101121ADDAA199000091GA1021+075009019GF102991001001999999001021MD1999999+0001REMSYN070AAXX  28124 65416 32968 20503 10325 20185 40112 80002 333 58000 82075;EQDQ01  00002PRCP99
0175654160999992000122818004+09020-002470FM-12+0301DGLB V0209999C000012200019N0180001N1+03201+01291101031ADDAA199000091GA1001+999999999GF100991001001999999001001KA1120M+03731MD1999999+0041REMSYN064AAXX  28184 65416 32968 00000 10320 20129 40103 333 10373 58004;EQDQ01  00002PRCP99
0174654160999992000122912004+09020-002470FM-12+0301DGLB V0203601N001012200019N0200001N1+03301+01761101411ADDAA199000091GA1011+004809089GF103991011021004501001021MD1999999+0001REMSYN076AAXX  29124 65416 32470 33602 10330 20176 40141 81202 333 58000 81816 83075;EQDQ01  00002PRCP99
