0134672050999992000010303004-11350+040370FM-12+0029FQMP V0203201N002119999999N0200001N1+02601+02581100701ADDGF108991081001999999071999MD1999999-0101MW1601REMSYN076AAXX  03034 67205 41970 83204 10260 20258 40070 760// 8807/ 333 59010 94380;
0187672050999992000031614004-11350+040370FM-15+0029FQMP V0200501N003610060019N0112651N1+02701+02301999999ADDGA1071+006009999GA2021+007509099GA3071+999999999GF107991999999999999999999MA1101081999999MW1001REMMET061FQMP 161400Z 05007KT 9999 BKN020 FEW025CB BKN/// 27/23 Q1011;EQDQ01+000000PRSWM2
0165672050999992000111218004-11350+040360FM-12+0029FQMP V0203601N002612200019N0300001N1+02701+02301101191ADDAA199000091GF103991031021008001001001KA1120M+03121MD1999999-0041REMSYN070AAXX  12184 67205 32580 33605 10270 20230 40119 83200 333 10312 59004;EQDQ01  00002PRCP99
0198672050999992000111506004-11350+040360FM-12+0029FQMP V0200301N003112200019N0300001N1+02901+02351101181ADDAA199000091GF105991041021008001001011KA1120N+02331MD1999999-0041OA150601101REMSYN092AAXX  15064 67205 32580 50306 10290 20235 40118 84201 333 20233 50127 55118 59004 555 10000;EQDQ01  00002PRCP99
0116672050999992000111509004-11350+040360FM-12+0029FQMP V0200301N004612200019N0300001N1+03101+02421101011ADDGF104991021021008001001011MD1999999+0031REMSYN064AAXX  15094 67205 42580 40309 10310 20242 40101 82201 333 58003;
0146672050999992000111512004-11350+040360FM-12+0029FQMP V0200201N007212200019N0300001N1+03121+02411100741ADDAA199000091GF103991021021008001001011MD1999999-0031REMSYN064AAXX  15124 67205 32580 30214 10312 20241 40074 82201 333 59003;EQDQ01  00002PRCP99
0198672050999992000111706004-11350+040360FM-12+0029FQMP V0200101N003111050019N0200001N1+02861+02361101051ADDAA199000091GF107991041021008001001061KA1120N+02401MD1999999-0131OA150600901REMSYN092AAXX  17064 67205 32570 70106 10286 20236 40105 84206 333 20240 50620 55099 59013 555 10000;EQDQ01  00002PRCP99
0146672050999992000111712004-11350+040360FM-12+0029FQMP V0200301N007211050019N0300001N1+03101+02411100611ADDAA199000091GF108991041091008001001061MD1999999-0081REMSYN064AAXX  17124 67205 32580 80314 10310 20241 40061 84906 333 59008;EQDQ01  00002PRCP99
0191672050999992000111806004-11350+040360FM-12+0029FQMP V0202401N001510450019N0300001N1+02681+02221100981ADDAA124004191GF107991021021008001031061KA1120N+02241MD1999999-0071OA150601001REMSYN104AAXX  18064 67205 12580 72403 10268 20222 40098 60044 82236 333 20224 50165 55100 59007 555 00041 10000;
0161672050999992000111912004-11350+040360FM-12+0029FQMP V0209999C000010075019N0150001N1+02701+02531100581ADDAA106007991AY191061AY221061GF108991081091008001999999MD1999999+0011MW1951REMSYN076AAXX  19124 67205 11565 80000 10270 20253 40058 60081 79592 889// 333 58001;
0191672050999992000112006004-11350+040360FM-12+0029FQMP V0203401N002610075019N0300001N1+02841+02521100971ADDAA124008991GF107991071091008001999999KA1120N+02521MD1999999+0061OA150600801REMSYN104AAXX  20064 67205 12580 73405 10284 20252 40097 60094 879// 333 20252 50067 55089 58006 555 00094 10004;
0116672050999992000112009004-11350+040360FM-12+0029FQMP V0203401N004111050019N0300001N1+03081+02531100871ADDGF108991041091008001001061MD1999999+0111REMSYN064AAXX  20094 67205 42580 83408 10308 20253 40087 84906 333 58011;
0116672050999992000112209004-11350+040360FM-12+0029FQMP V0200201N003110450019N0300001N1+02981+02361101161ADDGF107991041021008001071999MD1999999-0031REMSYN064AAXX  22094 67205 42580 70206 10298 20236 40116 8427/ 333 59003;
0146672050999992000112212004-11350+040360FM-12+0029FQMP V0200301N004111050019N0300001N1+02971+02321100891ADDAA199000091GF107991031091008001001061MD1999999-0051REMSYN064AAXX  22124 67205 32580 70308 10297 20232 40089 83906 333 59005;EQDQ01  00002PRCP99
0161672050999992000112412004-11350+040360FM-12+0029FQMP V0209999C000010450019N0300001N1+02701+02561101041ADDAA106007191AY191061AY261061GF106991041091008001031001MD1999999+0011MW1171REMSYN076AAXX  24124 67205 11580 60000 10270 20256 40104 60071 71796 84930 333 58001;
0198672050999992000112606004-11350+040360FM-12+0029FQMP V0203601N002112200019N0300001N1+02801+02511101331ADDAA199000091GF104991031021008001001011KA1120N+02451MD1999999-0071OA150601101REMSYN092AAXX  26064 67205 32580 43604 10280 20251 40133 83201 333 20245 50025 55113 59007 555 10072;EQDQ01  00002PRCP99
0116672050999992000112609004-11350+040360FM-12+0029FQMP V0203601N003612200019N0300001N1+03051+02441101241ADDGF103991031021008001001021MD1999999-0031REMSYN064AAXX  26094 67205 42580 33607 10305 20244 40124 83202 333 59003;
0146672050999992000112612004-11350+040360FM-12+0029FQMP V0200301N004112200019N0300001N1+03031+02441101011ADDAA199000091GF103991021091008001001031MD1999999-0021REMSYN064AAXX  26124 67205 32580 30308 10303 20244 40101 82903 333 59002;EQDQ01  00002PRCP99
0146672050999992000112812004-11350+040360FM-12+0029FQMP V0203601N003111050019N0250001N1+03031+02431101221ADDAA199000091GF105991031091008001001031MD1999999+0051REMSYN064AAXX  28124 67205 32575 53606 10303 20243 40122 83903 333 58005;EQDQ01  00002PRCP99
0131672050999992000112909004-11350+040360FM-12+0029FQMP V0200301N004612200019N0300001N1+03021+02431999999ADDGF102991021021008001001001MA1999999101251MD1999999-0091REMSYN064AAXX  29094 67205 42580 20309 10302 20243 30125 82200 333 59009;
0146672050999992000112912004-11350+040360FM-12+0029FQMP V0200201N003612200019N0300001N1+03001+02421101461ADDAA199000091GF102991021021008001001001MD1999999-0101REMSYN064AAXX  29124 67205 32580 20207 10300 20242 40146 82200 333 59010;EQDQ01  00002PRCP99
0210672050999992000120106004-11350+040360FM-12+0029FQMP V0209999C000011050019N0300001N1+02851+02501999999ADDAA124003091GF107991041021008001001051KA1120N+02401MD1011392-0011OA150600701REMSYN104AAXX  01064 67205 12580 70000 10285 20250 50139 60034 84205 333 20240 50730 55077 59001 555 00029 10000;EQDQ01+001392APC3  
0180672050999992000120112004-11350+040360FM-12+0029FQMP V0200201N004611050019N0300001N1+02941+02481100991ADDAA199000091AY191061AY221061GF107991031091008001001051MD1999999-0061MW1171REMSYN076AAXX  01124 67205 31580 70209 10294 20248 40099 71792 83905 333 59006 94398;EQDQ01  00002PRCP99
0204672050999992000120206004-11350+040360FM-12+0029FQMP V0200201N002111050019N0300001N1+02901+02501101331ADDAA199000091GF105991041091008001001031KA1120N+02401MD1999999-0061OA150601001REMSYN098AAXX  02064 67205 32580 50204 10290 20250 40133 84903 333 20240 50320 55100 59006 94398 555 10029;EQDQ01  00002PRCP99
0122672050999992000120209004-11350+040360FM-12+0029FQMP V0203601N004612200019N0300001N1+03051+02461101091ADDGF108991031021008001001011MD1999999-0111REMSYN070AAXX  02094 67205 42580 83609 10305 20246 40109 83201 333 59011 94320;
0122672050999992000120303004-11350+040360FM-12+0029FQMP V0209999C000012200019N0300001N1+02541+02471101161ADDGF106991031021008001001061MD1999999-0101REMSYN070AAXX  03034 67205 42580 60000 10254 20247 40116 83206 333 59010 94390;
0204672050999992000120408004-11350+040360FM-12+0029FQMP V0203001N002112200019N0300001N1+02701+02441101361ADDAA199000091GF103991031021008001001001KA1120N+02351MD1999999+0001OA159901001REMSYN098AAXX  04084 67205 32580 33004 10270 20244 40136 83200 333 20235 50840 55105 58000 94320 555 10000;EQDQ01  00002PRCP99
0204672050999992000120409004-11350+040360FM-12+0029FQMP V0203001N002112200019N0300001N1+02701+02441101361ADDAA199000091GF103991031021008001001001KA1120N+02351MD1999999+0001OA150301001REMSYN098AAXX  04094 67205 32580 33004 10270 20244 40136 83200 333 20235 50840 55105 58000 94320 555 10000;EQDQ01  00002PRCP99
0204672050999992000120506004-11350+040360FM-12+0029FQMP V0209999C000012200019N0300001N1+02891+02361101401ADDAA199000091GF103991031021008001001001KA1120N+02401MD1999999+0041OA150601101REMSYN098AAXX  05064 67205 32580 30000 10289 20236 40140 83200 333 20240 50610 55118 58004 94322 555 10000;EQDQ01  00002PRCP99
0152672050999992000120612004-11350+040360FM-12+0029FQMP V0203401N004612200019N0300001N1+03051+02441101081ADDAA199000091GF102991021021008001001001MD1999999+0091REMSYN070AAXX  06124 67205 32580 23409 10305 20244 40108 82200 333 58009 94390;EQDQ01  00002PRCP99
0204672050999992000120706004-11350+040360FM-12+0029FQMP V0209999C000012200019N0300001N1+02471+02361101301ADDAA199000091GF105991041021008001001011KA1120N+02351MD1999999-0031OA150601101REMSYN098AAXX  07064 67205 32580 50000 10247 20236 40130 84201 333 20235 50300 55117 59003 94390 555 10000;EQDQ01  00002PRCP99
0122672050999992000120710004-11350+040360FM-12+0029FQMP V0200201N002612200019N0300001N1+03181+02391101271ADDGF103991031021008001001001MD1999999-0031REMSYN070AAXX  07104 67205 42580 30205 10318 20239 40127 83200 333 59003 94320;
0122672050999992000120803004-11350+040360FM-12+0029FQMP V0209999C000012200019N0300001N1+02401+02271101211ADDGF103991021021008001001011MD1999999-0031REMSYN070AAXX  08034 67205 42580 30000 10240 20227 40121 82201 333 59003 94320;
0198672050999992000120806004-11350+040360FM-12+0029FQMP V0209999C000012200019N0300001N1+02931+02491101291ADDAA199000091GF105991041021008001001011KA1120N+02381MD1999999-0011OA150601201REMSYN092AAXX  08064 67205 32580 50000 10293 20249 40129 84201 333 20238 50100 55121 59001 555 10000;EQDQ01  00002PRCP99
0152672050999992000120912004-11350+040360FM-12+0029FQMP V0200101N004111050019N0300001N1+03141+02401100881ADDAA199000091GF108991031091008001001061MD1999999-0031REMSYN070AAXX  09124 67205 32580 80108 10314 20240 40088 83906 333 59003 94390;EQDQ01  00002PRCP99
0152672050999992000121212004-11350+040360FM-12+0029FQMP V0200301N007712200019N0300001N1+03221+02381100711ADDAA199000091GF103991021091008001001031MD1999999-0081REMSYN070AAXX  12124 67205 32580 30315 10322 20238 40071 82903 333 59008 94390;EQDQ01  00002PRCP99
0204672050999992000121507004-11350+040360FM-12+0029FQMP V0202001N003110075019N0200001N1+02701+02451100871ADDAA199000091GF107991071021008001999999KA1120N+02281MD1999999+0041OA159901001REMSYN098AAXX  15074 67205 32570 72006 10270 20245 40087 872// 333 20228 50/// 55105 58004 94320 555 10000;EQDQ01  00002PRCP99
0122672050999992000121509004-11350+040360FM-12+0029FQMP V02099999999990075019N0300001N1+02981+02461101111ADDGF107991071091008001999999MD1999999+0141REMSYN070AAXX  15094 67205 42580 7//// 10298 20246 40111 879// 333 58014 94391;
0146672050999992000121512004-11350+040360FM-12+0029FQMP V0201301N005110075019N0300001N1+99999+99999100911ADDAA199000091GF108991051091008001001051MD1999999+0061REMSYN064AAXX  15124 67205 32580 81310 20240 40091 85905 333 58006 94390;EQDQ01  00002PRCP99
0194672050999992000121606004-11350+040360FM-12+0029FQMP V0201501N003612200019N0300001N1+02951+02321101231ADDAA199000091GF103991031011008001001001KA1120N+02381MD1999999-0011OA150600801REMSYN088AAXX  16064 67205 32580 31507 10295 20232 40123 83100 333 20238 50800 55082 59001 94313;EQDQ01  00002PRCP99
0122672050999992000121609004-11350+040360FM-12+0029FQMP V0200901N004112200019N0300001N1+03161+02401101051ADDGF104991031091008001001031MD1999999-0061REMSYN070AAXX  16094 67205 42580 40908 10316 20240 40105 83903 333 59006 94390;
0197672050999992000121706004-11350+040360FM-12+0029FQMP V0201601N002610075019N0300001N1+02901+02351101381ADDAA124004191GF106991061091008001001001KA1120N+02351MD1999999+0151OA150601001REMSYN110AAXX  17064 67205 12580 61605 10290 20235 40138 60044 86900 333 20235 50990 55101 58015 94394 555 00040 10000;
0122672050999992000121803004-11350+040360FM-12+0029FQMP V0209999C000012200019N0300001N1+02451+02381101191ADDGF103991031021008001001001MD1999999-0011REMSYN070AAXX  18034 67205 42580 30000 10245 20238 40119 83200 333 59001 94320;
0122672050999992000121809004-11350+040360FM-12+0029FQMP V0201701N002612200019N0200001N1+03191+02401101231ADDGF104991041021008001001001MD1999999+0081REMSYN070AAXX  18094 67205 42570 41705 10319 20240 40123 84200 333 58008 94324;
0186672050999992000122012004-11350+040360FM-12+0029FQMP V0209999C000010075019N0300001N1+02751+02541100591ADDAA106008991AY101061AY221061GF107991061091008001001061MD1999999-0011MW1111REMSYN082AAXX  20124 67205 11580 70000 10275 20254 40059 60091 71172 86906 333 59001 94390;EQDQ01+000072PSTWM1
0197672050999992000122106004-11350+040360FM-12+0029FQMP V0209999C000010450019N0300001N1+02901+02501101161ADDAA124008991GF106991031091008001031031KA1120N+02441MD1999999+0091OA150600601REMSYN110AAXX  21064 67205 12580 60000 10290 20250 40116 60094 83933 333 20244 50110 55062 58009 94390 555 00090 10000;
0122672050999992000122109004-11350+040360FM-12+0029FQMP V0203601N004110450019N0300001N1+03161+02541101051ADDGF107991041091008001031031MD1999999+0101REMSYN070AAXX  21094 67205 42580 73608 10316 20254 40105 84933 333 58010 94390;
0174672050999992000122112004-11350+040360FM-12+0029FQMP V0200201N003610075019N0300001N1+03571+02851999999ADDAA199000091AY121061AY221061GF107991061091008001031061MD1999999+0261MW1171REMSYN070AAXX  21124 67205 31580 70207 10357 20285 71722 86936 333 58026 94391;EQDQ01  00002PRCP99
0122672050999992000122209004-11350+040360FM-12+0029FQMP V0209999C000010450019N0300001N1+03101+02511101081ADDGF108991031091008001031001MD1999999+0031REMSYN070AAXX  22094 67205 42580 80000 10310 20251 40108 83930 333 58003 94390;
0236672050999992000122506004-11350+040360FM-12+0029FQMP V0203201N004110450019N0300001N1+02501+02301100941ADDAA199000091GA1041+017509039GF107991031091008001071999KA1120N+02321MD1999999-0131OA150699999REMSYN098AAXX  25064 67205 32580 73208 10250 20230 40094 8397/ 333 20232 50440 55030 59013 84397 555 10149;EQDQ01  00002PRCP99Q02  00302WGOSPD
0122672050999992000122509004-11350+040360FM-12+0029FQMP V0202901N005110075019N0300001N1+03081+02271100861ADDGF108991051091008001051061MD1999999-0141REMSYN070AAXX  25094 67205 42580 82910 10308 20227 40086 85956 333 59014 94397;
0180672050999992000122512004-11350+040360FM-12+0029FQMP V0203201N007210042019N0300001N1+02681+02431100591ADDAA199000091AY121061AY221061GF108991061091004501071999MD1999999-0111MW1171REMSYN076AAXX  25124 67205 31480 83214 10268 20243 40059 71722 8697/ 333 59011 94390;EQDQ01  00002PRCP99
0244672050999992000122606004-11350+040360FM-12+0029FQMP V0202701N004110075019N0200001N1+02341+02281101031ADDAA124011991AY121061AY221061GF108991051091008001071999KA1120N+02321MD1999999+0091MW1951OA150699999REMSYN116AAXX  26064 67205 11570 82708 10234 20228 40103 60124 79522 8597/ 333 20232 50380 55020 58009 94397 555 00123 10000;EQDQ01  00202WGOSPD
0130672050999992000122609004-11350+040360FM-12+0029FQMP V0203201N002610450019N0300001N1+02961+02461100931ADDAY191031AY261031GF107991031091008001071999MW1011REMSYN070AAXX  26094 67205 41580 73205 10296 20246 40093 70196 8397/ 333 94397;
0167672050999992000122612004-11350+040360FM-12+0029FQMP V0203301N003110450019N0300001N1+02791+02391100801ADDAA106000891AY191061AY261061GF108991031091008001071999MD1999999+0291MW1021REMSYN082AAXX  26124 67205 11580 83306 10279 20239 40080 69981 70296 8397/ 333 58029 94397;
0186672050999992000122718004-11350+040360FM-12+0029FQMP V0209999C000010450019N0300001N1+02461+02381101021ADDAA112030091AY191061AY261061GF108991041091008001071999KA1120M+03141MD1999999+0061MW1131REMSYN088AAXX  27184 67205 11580 80000 10246 20238 40102 60302 71396 8497/ 333 10314 58006 94390;
0122672050999992000122803004-11350+040360FM-12+0029FQMP V0209999C000010450019N0300001N1+02381+02281101031ADDGF105991031091008001031031MD1999999+0041REMSYN070AAXX  28034 67205 42580 50000 10238 20228 40103 83933 333 58004 94390;
0197672050999992000122806004-11350+040360FM-12+0029FQMP V0209999C000011050019N0300001N1+02751+02421101271ADDAA124032091GF106991031091008001001051KA1120N+02351MD1999999+0181OA150600001REMSYN110AAXX  28064 67205 12580 60000 10275 20242 40127 60324 83905 333 20235 50560 55004 58018 94395 555 00322 10000;
0167672050999992000123013004-11350+040360FM-12+0029FQMP V0209999C000010450019N0200001N1+02981+02561100761ADDAA106006191AY161999AY221999GF108991041091008001021999MD1999999-0021MW1951REMSYN082AAXX  30134 67205 11570 80000 10298 20256 40076 60061 79562 8492/ 333 59002 94390;
0122672050999992000123109004-11350+040360FM-12+0029FQMP V02099999999991050019N0300001N1+02981+02331100991ADDGF108991041091012501001061MD1999999+0021REMSYN070AAXX  31094 67205 42680 84304 10298 20233 40099 84906 333 58002 94398;
