0264675610999992000010106004-13000+028650FM-12+1270FLND V0202301N001010300019N0300001N1+02081+01771999999ADDAA124000591GA1061+030009039GA2021+090009009GF107991061001999999031021KA1120M+02901KA2120N+01801MD1999999-0081ME1315019REMSYN134AAXX  01064 67561 12980 72302 10208 20177 48501 69954 86032 333 10290 20180 59008 86360 82080 555 00/// 20004 BB/// CC180 DD/// 67///;
0245675610999992000010206004-13000+028650FM-12+1270FLND V0209999C000010390019N0300001N1+02041+01621999999ADDAA124000791GA1071+039009049GF107991071001999999071999KA1120M+03101KA2120N+01801MD1999999-0061ME1314949REMSYN131AAXX  02064 67561 12980 70000 10204 20162 48494 69904 8707/ 333 10310 20180 59006 87463 555 00/// 20995 BB/// CC180 DD/// Q1 016.6;
0315675610999992000010509004-13000+028650SY-MT+1270FLND V0203501N002610330019N0250001N1+02351+01791999999ADDAY121031AY221031GA1021+006009999GA2071+033009999GF107991041021008001031001MA1101691999999MD1999999+0181ME1315069MW1151REMSYN086AAXX  05094 67561 41575 73505 10235 20179 48506 71522 84230 333 58018 84820 87361 555;MET058FLND 050900Z 35005KT 9999 SCT020 BKN110 23/18 Q1017 NOSIG;EQDQ01+000000PRSWM2Q02    003PRSWM1
0191675610999992000010512004-13000+028650FM-12+1270FLND V0200301N00311033001CN0300001N1+02711+01641999999ADDGA1011+009009099GA2041+009009089GA3051+033009039GF107991999999012501999999MD1999999+0121ME1314819REMSYN082AAXX  05124 67561 42680 70306 10271 20164 48481 333 58012 81930 84830 85361 85080;
0253675610999992000010606004-13000+028650FM-12+1270FLND V0209999C000010900019N0300001N1+02081+01831999999ADDAA106000091GA1021+030009039GA2071+090009029GF107991021001999999031081KA1120M+02851KA2120N+01761MD1999999+0021ME1315029REMSYN104AAXX  06064 67561 32980 70000 10208 20183 48502 82038 333 10285 20176 58002 82360 87280 555 00/// 20003;EQDQ01  00002PRCP06
0247675610999992000010612004-13000+028650FM-12+1270FLND V0201001N002110300019N0050001N1+01961+01741999999ADDAY191061AY221061GA1021+010509099GA2041+010509089GA3071+030009049GF107991021091012501071999MD1999999+0041ME1314799MW1951REMSYN116AAXX  06124 67561 41650 71004 10196 20174 48479 79592 8297/ 333 58004 82935 84835 87460 555 66/// 77/// 8870/ 98053;
0203675610999992000010615004-13000+028650FM-12+1270FLND V0200401N00311045001CN0150001N1+01931+01811999999ADDAY191031AY291031GA1011+010509099GA2021+010509069GF107991021041012501071999MD1999999+0091ME1314739MW1171REMSYN088AAXX  06154 67561 41665 70406 10193 20181 48473 71799 8247/ 333 58009 81935 82635 87460;
0269675610999992000010712004-13000+028650FM-12+1270FLND V0201601N003610330019N0100001N1+02921+01611999999ADDAY121061AY221061GA1011+013509099GA2031+013509089GA3051+033009049GA4071+090009029GF107991031021012501071081MD1999999+0231ME1314639MW1151REMSYN122AAXX  07124 67561 41660 71607 10292 20161 48463 71522 83278 333 58023 81945 83845 85461 87280 555 66/// 77/// 88801 98025;
0183675610999992000010805004-13000+028650FM-15+1270FLND V0200401N002110300019N0112651N1+01901+01801999999ADDGA1021+001509999GA2071+030009999GF107991999999999999999999MA1101391999999MW1401REMMET057FLND 080500Z 04004KT 9999 VCFG FEW005 BKN100 19/18 Q1014;EQDQ01+000003PRSWM1Q02    003PRSWM1
0290675610999992000010806004-13000+028650FM-12+1270FLND V0200101N002610300019N0150001N1+02001+01801999999ADDAA124000191AY161061AY221061GA1021+001809079GA2051+030009049GA3071+090009029GF107991021061002501071081KA1120M+03011KA2120N+01791MD1999999-0201ME1314769MW1051REMSYN122AAXX  08064 67561 11365 70105 10200 20180 48476 69914 70562 82678 333 10301 20179 59020 82706 85460 87280 555 00/// 20011;
0203675610999992000010812004-13000+028650FM-12+1270FLND V0203501N00151045001CN0300001N1+02481+02041999999ADDAY191061AY221061GA1011+007509099GA2021+007509089GF107991021021008001071081MD1999999-0151ME1314459MW1291REMSYN088AAXX  08124 67561 41580 73503 10248 20204 48445 72992 82278 333 59015 81925 82825 87280;
0225675610999992000010912004-13000+028650FM-12+1270FLND V0202301N002110330019N0300001N1+02541+01781999999ADDAY161061AY221061GA1021+007509099GA2041+007509089GA3041+033009049GF107991021091008001071071MD1999999+0141ME1314599MW1171REMSYN094AAXX  09124 67561 41580 72304 10254 20178 48459 71762 82977 333 58014 82925 84825 84461 87280;
0246675610999992000011006004-13000+028650FM-12+1270FLND V0203301N003110012019N0300001N1+01891+01731999999ADDAA124005191AY161061AY221061GA1051+999999079GF108991051071001501071999KA1120M+02251KA2120N+01751MD1999999+0021ME1314849MW1021REMSYN110AAXX  10064 67561 11280 83306 10189 20173 48484 60054 70262 8577/ 333 10225 20175 58002 8577/ 555 00/// 20008;
0247675610999992000011012004-13000+028650FM-12+1270FLND V0203401N00461007501CN0150001N1+02381+01761999999ADDAY121061AY221061GA1041+006609089GA2011+007509099GA3071+033009049GF107991041021008001071999MD1999999+0081ME1314679MW1151REMSYN116AAXX  10124 67561 41565 73409 10238 20176 48467 71522 8427/ 333 58008 81925 84822 87461 555 66/// 77/// 8881/ 98036;
0317675610999992000011106004-13000+028650FM-12+1270FLND V0203601N00211090001CN0080001N1+01851+01671999999ADDAA124003091AY121061AY221061GA1021+000909079GA2031+030009039GA3071+090009029GF107991021061001501031081KA1120M+02471KA2120N+01581MD1999999+0091ME1314939MW1041REMSYN149AAXX  11064 67561 11258 73604 10185 20167 48493 60034 70422 82638 333 10247 20158 58009 82703 83360 87280 555 00/// 20005 BB/// CC158 DD/// Q1 016.6;
0247675610999992000011112004-13000+028650FM-12+1270FLND V0203101N003110330019N0080001N1+02471+01631999999ADDAY121061AY221061GA1011+009009099GA2041+009009089GA3071+033009049GF107991041021012501071999MD1999999+0061ME1314739MW1151REMSYN116AAXX  11124 67561 41658 73106 10247 20163 48473 71522 8427/ 333 58006 81930 84830 87461 555 66/// 77/// 8878/ 98060;
0147675610999992000011304004-13000+028650FM-12+1270FLND V0209999C000010330019N0300001N1+01891+01701999999ADDGA1061+033009079GF107991061001999999031081MD1999999-0221ME1314659REMSYN070AAXX  13044 67561 42980 70000 10189 20170 48465 86038 333 59022 86361;
0397675610999992000011306004-13000+028650SY-MT+1270FLND V0203001N001010330019N0250001N1+02101+01701999999ADDAA106000091AY121061AY221061GA1071+033009039GA2071+090009029GF107991071001999999031081KA1120M+02841KA2120N+01811MA1101491999999MD1999999-0071ME1314809MW1051REMSYN134AAXX  13064 67561 31975 73002 10213 48480 70522 87038 333 10284 20181 59007 87361 87280 555 00/// 20002 BB/// CC181 DD/// QNH 1015.0 ;MET039FLND 130600Z 30002KT CAVOK 21/17 Q1015;EQDQ01+000000PRSWM2Q02  00002PRCP06Q03    003PRSWM1
0097675610999992000011307004-13000+028650FM-15+1270FLND V0209999C00001220001CN0099001N1+02301+01801999999ADDMA1101491999999MW1001REMMET045FLND 130700Z 00000KT CAVOK 23/18 Q1015 NOSIG;EQDQ01+000000PRSWM2
0191675610999992000011308004-13000+028650FM-15+1270FLND V0209999C000010330019N0112651N1+02501+01801999999ADDGA1021+009009999GA2071+033009999GA3071+090009999GF107991999999999999999999MA1101391999999MW1001REMMET065FLND 130800Z 00000KT 9999 FEW030 BKN110 BKN300 25/18 Q1014 NOSIG;EQDQ01+000000PRSWM2
0247675610999992000011312004-13000+028650FM-12+1270FLND V0202301N003610330019N0080001N1+02401+01961999999ADDAY191061AY221061GA1011+012009099GA2031+012009089GA3071+033009049GF107991031021012501071999MD1999999-0081ME1314479MW1171REMSYN116AAXX  13124 67561 41658 72307 10240 20196 48447 71792 8327/ 333 59008 81940 83840 87461 555 66/// 77/// 8864/ 98036;
0183675610999992000011313004-13000+028650FM-15+1270FLND V0201501N002110330019N0112651N1+02501+01801999999ADDGA1021+012009099GA2071+033009999GF107991999999999999999999MA1101021999999MW1171REMMET057FLND 131300Z 15004KT 9999 TS SCT040CB BKN110 25/18 Q1010;EQDQ01+000003PRSWM1Q02    003PRSWM1
0241675610999992000011412004-13000+028650FM-12+127099999V0203601N002110060019N0250001N1+02151+01721999999ADDAY161061AY221061GA1051+006009089GA2071+030009049GF107991051021008001071999MD1999999+0441ME1314899MW1611REMSYN126    AAXX  14124 67561 41575 73604 10215 20172 48489 76162 8527/ 333 58044 85820 87460 555 66/// 77/// 8871/ 98051 QNH 1015.9 ;
0299675610999992000011506004-13000+028650FM-12+127099999V0209999C000010270019N0250001N1+01791+01731999999ADDAA124002091AY161061AY221061GA1011+001509079GA2081+027009049GF108991011061001501071999KA1120M+02221KA2120N+01751MD1999999+0101ME1315079MW1211REMSYN147    AAXX  15064 67561 11275 80000 10179 20173 48507 60024 72162 8167/ 333 10222 20175 58010 81705 88459 555 00/// 20046 BB/// CC175 DD/// Q1 018.4;
0185675610999992000011509004-13000+028650FM-12+127099999V0200201N00261045001CN0300001N1+02151+01871999999ADDAY161031AY221031GA1031+004509089GF107991031011004501071999MD1999999+0061ME1315079MW1211REMSYN086    AAXX  15094 67561 41480 70205 10215 20187 48507 72162 8317/ 333 58006 83815 87460;
0179675610999992000011609004-13000+028650FM-12+127099999V0203601N002110060019N0300001N1+02371+01961999999ADDGA1031+004509089GA2031+006009069GF107991061081008001031001MD1999999-0071ME1315019REMSYN086    AAXX  16094 67561 42580 73604 10237 20196 48501 86830 333 59007 83815 83620 86361;
0272675610999992000011706004-13000+028650FM-12+127099999V0202301N001510018019N0060001N1+01901+01811999999ADDAA124002091AY141061AY221061GA1051+001809079GA2061+030009039GF107991051061002501081001KA1120M+02551KA2120N+01681MD1999999-0111ME1314959MW1401REMSYN120    AAXX  17064 67561 11356 72303 10190 20181 48495 60024 74042 85680 333 10255 20168 59011 85706 86360 555 00/// 20006;
0175675610999992000012009004-13000+028650FM-12+1270FLND V0200201N002110075019N0300001N1+02381+01741999999ADDGA1051+007509089GA2041+030009039GF107991051021008001031071MD1999999+0191ME1315429REMSYN082AAXX  20094 67561 42580 70204 10238 20174 48542 85237 333 58019 85825 84360 87280;
0279675610999992000012106004-13000+028650FM-12+1270FLND V0209999C000010300019N0300001N1+01951+01791999999ADDAA124001091GA1041+006609069GA2071+030009039GF107991041051008001031001KA1120M+02861KA2120N+01761MD1999999+0141ME1315319REMSYN149AAXX  21064 67561 12580 70000 10195 20179 48531 60014 84530 333 10286 20176 58014 84622 87360 555 00/// 20021 BB/// CC176 DD/// 8978/ 99038 Q1 020.9;
0225675610999992000012109004-13000+028650FM-12+1270FLND V0203601N001510300019N0300001N1+02581+01781999999ADDAY161031AY221031GA1011+007509099GA2031+007509089GA3021+030009039GF107991031021008001031081MD1999999-0121ME1315329MW1031REMSYN094AAXX  21094 67561 41580 73603 10258 20178 48532 70362 83238 333 59012 81925 83825 82360 86280;
0290675610999992000012306004-13000+028650FM-12+1270FLND V0201201N002112200019N0200001N1+02101+01861999999ADDAA124001091AY111061AY211061GA1011+004509099GA2031+033009039GA3011+090009009GF104991011091004501081021KA1120M+02861KA2120N+01641MD1999999-0101ME1315069MW1051REMSYN122AAXX  23064 67561 11470 41204 10210 20186 48506 60014 70511 81982 333 10286 20164 59010 81915 83361 81080 555 00/// 20002;
0091675610999992000012505004-13000+028650FM-15+1270FLND V0209999C00001220001CN0099001N1+01901+01801999999ADDMA1101901999999MW1001REMMET039FLND 250500Z 00000KT CAVOK 19/18 Q1019;EQDQ01+000000PRSWM2
0249675610999992000012506004-13000+028650FM-12+1270FLND V0201601N001512200019N0250001N1+02121+01921999999ADDAA199000091AY121061AY211061GA1031+033009039GF103991031001999999031011KA1120M+02811KA2120N+01791MD1999999-0041ME1315219MW1051REMSYN094AAXX  25064 67561 31975 31603 10212 20192 48521 70521 83031 333 10281 20179 59004 83361 81080;EQDQ01  00002PRCP99
0203675610999992000012512004-13000+028650FM-12+1270FLND V0209999C00001045001CN0300001N1+02721+01771999999ADDAY191061AY221061GA1011+012009099GA2041+012009089GF107991041031012501031021MD1999999+0061ME1315029MW1171REMSYN088AAXX  25124 67561 41680 70000 10272 20177 48502 71792 84332 333 58006 81940 84840 81080;
0125675610999992000012609004-13000+028650FM-12+1270FLND V0209999C000010450019N0300001N1+02621+01701999999ADDGF107991011011012501031021MD1999999+0061ME1315239REMSYN064AAXX  26094 67561 42680 70000 10262 20170 48523 81132 333 58006;
0297675610999992000012612004-13000+028650FM-12+1270FLND V0202901N00151010801CN0250001N1+02801+01741999999ADDAY121061AY221061GA1091+010809019GA2011+012009099GA3031+012009089GA4071+090009029GF107991091021012501031081MD1999999+0011ME1315039MW1151REMSYN131AAXX  26124 67561 41675 72903 10280 20174 48503 71522 83238 333 58001 81940 83840 89136 87280 555 66/// 77/// 8870/ 98061 Q1 017.0;EQDQ01+000032SCOTLC
0283675610999992000012706004-13000+028650FM-12+1270FLND V0209999C000010300019N0300001N1+01921+01661999999ADDAA124005191GA1011+001509079GA2051+030009049GA3071+090009029GF107991011061001501071081KA1120M+02901KA2120N+01701MD1999999+0061ME1315299REMSYN137AAXX  27064 67561 12280 70000 10192 20166 48529 60054 81678 333 10290 20170 58006 81705 85460 87280 555 00/// BB/// CC170 DD/// Q1 020.7;
0203675610999992000012712004-13000+028650FM-12+1270FLND V0202801N00311105001CN0250001N1+02641+01661999999ADDAY121061AY221061GA1011+010509099GA2041+010509089GF107991041021012501001081MD1999999+0021ME1315009MW1151REMSYN088AAXX  27124 67561 41675 72806 10264 20166 48500 71522 84208 333 58002 81935 84835 87280;
0256675610999992000012806004-13000+028650FM-12+1270FLND V0209999C000010330019N0300001N1+01931+01871999999ADDAA124021191GA1011+001809079GA2061+033009039GA3031+090009009GF107991011061002501081021KA1120M+02901KA2120N+01731MD1999999-0211ME1315089REMSYN110AAXX  28064 67561 12380 70000 10193 20187 48508 60214 81682 333 10290 20173 59021 81706 86361 83080 555 20005;
0269675610999992000012812004-13000+028650FM-12+1270FLND V0202701N003110120019N0300001N1+02841+01711999999ADDAY191061AY221061GA1011+012009099GA2051+012009089GA3021+039009039GA4011+090009009GF107991051021012501031021MD1999999-0231ME1314739MW1171REMSYN122AAXX  28124 67561 41680 72706 10284 20171 48473 71792 85232 333 59023 81940 85840 82363 81080 555 66/// 77/// 8873/ 98038;
0206675610999992000012816004-13000+028650FM-15+1270FLND V0209999C000010900019N0112651N1+02301+01901999999ADDGA1021+010509099GA2021+027009999GA3071+090009999GF107991999999999999999999MA1101391999999MW1171REMMET064FLND 271600Z 00000KT 9999 TS SCT035CB SCT090 BKN300 23/19 Q1014;EQDQ01+000003PRSWM1Q02    003PRSWM1
0208675610999992000012906004-13000+028650FM-12+1270FLND V0209999C00001105001CN0300001N1+02061+01741999999ADDAA124000791GA1011+005409089GF105991011011004501031021KA1120M+02971KA2120N+01851MD1999999-0051ME1315049REMSYN094AAXX  29064 67561 12480 50000 10206 20174 48504 69904 81132 333 10297 20185 59005 81818 82080;
0197675610999992000012909004-13000+028650FM-12+1270FLND V0202701N004110090019N0300001N1+02721+01771999999ADDGA1051+009009089GA2021+030009039GA3051+090009009GF107991051021012501031081MD1999999-0051ME1314999REMSYN088AAXX  29094 67561 42680 72708 10272 20177 48499 85238 333 59005 85830 82360 85080 91016;
0141675610999992000013005004-13000+028650FM-15+1270FLND V0209999C000010300019N0099001N1+01901+01701999999ADDGA1071+030009999GF107991999999999999999999MA1101801999999MW1001REMMET047FLND 300500Z 00000KT FEW009 BKN100 19/17 Q1018;EQDQ01+000000PRSWM2
0236675610999992000013006004-13000+028650FM-12+1270FLND V0202401N00311045001CN0250001N1+02051+01751999999ADDAA124000191AY121061AY221061GA1031+002709079GF107991031061002501071999KA1120M+03001KA2120N+01811MD1999999+0071ME1315119MW1051REMSYN100AAXX  30064 67561 11375 72406 10205 20175 48511 69914 70522 8367/ 333 10300 20181 58007 83709 87460;
0162675610999992000013007004-13000+028650FM-15+1270FLND V0202901N002610036019N0112651N1+02201+01801999999ADDGA1071+003609999GA2071+030009999GF107991999999999999999999MA1101801999999MW1001REMMET052FLND 300700Z 29005KT 9999 BKN012 BKN100 22/18 Q1018;EQDQ01+000000PRSWM2
0162675610999992000013009004-13000+028650FM-15+1270FLND V0203101N002610075019N0112651N1+02401+01901999999ADDGA1071+007509999GA2071+033009999GF107991999999999999999999MA1101801999999MW1001REMMET052FLND 300900Z 31005KT 9999 BKN025 BKN110 24/19 Q1018;EQDQ01+000000PRSWM2
0162675610999992000013010004-13000+028650FM-15+1270FLND V0202801N002110330019N0112651N1+02601+01901999999ADDGA1021+009009999GA2071+033009999GF107991999999999999999999MA1101691999999MW1001REMMET052FLND 301000Z 28004KT 9999 SCT030 BKN110 26/19 Q1017;EQDQ01+000000PRSWM2
0272675610999992000013012004-13000+028650SY-MT+1270FLND V0201701N002110330019N0300001N1+02781+01741999999ADDGA1021+010509999GA2071+033009999GF107991041021012501031021MA1101491999999MD1999999+0141ME1314899MW1001REMSYN082AAXX  30124 67561 42680 71704 10278 20174 48489 84232 333 58014 84835 86361 84080;MET051FLND 301200Z 17004KT 9999 SCT035 BKN11028/17 Q1015;EQDQ01+000000PRSWM2
0154675610999992000013013004-13000+028650FM-15+1270FLND V0209999C00001220001CN0112651N1+02801+01701999999ADDGA1071+010509099GA2021+033009999MA1101391999999MW1001REMMET054FLND 301300Z 00000KT 9999 BKN035CB SCT110 28/17 Q1014;EQDQ01+000042SCOTCVQ02+000000PRSWM2
0154675610999992000013014004-13000+028650FM-15+1270FLND V0201901N00311220001CN0112651N1+02701+01801999999ADDGA1071+010509099GA2021+033009999MA1101291999999MW1001REMMET054FLND 301400Z 19006KT 9999 BKN035CB SCT110 27/18 Q1013;EQDQ01+000042SCOTCVQ02+000000PRSWM2
0331675610999992000013015004-13000+028650SY-MT+1270FLND V0201901N008210105019N0250001N1+02481+01881999999ADDAY191031AY221031GA1071+010509099GA2021+033009999GA3071+090009999GF107991021091012501071081MA1101391999999MD1999999+0191ME1314799MW1951REMSYN094AAXX  30154 67561 41675 71916 10248 20188 48479 79592 82978 333 58019 82935 85835 84461 87280;MET066FLND 301500Z 19016KT 9999 TSRA BKN035CB SCT110 BKN300 25/19 Q1014;EQDQ01    003PRSWM1
0246675610999992000013106004-13000+028650FM-12+1270FLND V0201701N003110900019N0150001N1+01911+01791999999ADDAA124000391AY121061AY221061GA1051+090009029GF107991031051004501031081KA1120M+02881KA2120N+01811MD1999999+0051ME1315159MW1051REMSYN110AAXX  31064 67561 11465 71706 10191 20179 48515 69934 70522 83538 333 10288 20181 58005 85280 555 00/// 20091;
0229675610999992000013109004-13000+028650FM-12+1270FLND V0209999C000010330019N0250001N1+02591+01811999999ADDAY121031AY221031GA1031+007509089GA2041+033009039GA3041+090009009GF107991031021008001031021MD1999999+0041ME1315189MW1051REMSYN098AAXX  31094 67561 41575 70000 10259 20181 48518 70522 83232 333 58004 83825 84361 84080 555 91018;
0229675610999992000013112004-13000+028650FM-12+1270FLND V0202101N001510300019N0300001N1+02621+01821999999ADDGA1011+010509099GA2041+010509089GA3051+030009039GA4021+090009009GF107991041021012501031021MD1999999+0021ME1314909REMSYN104AAXX  31124 67561 42680 72103 10262 20182 48490 84232 333 58002 81935 84835 85360 82080 555 8871/ 98040;
0292675610999992000020106004-13000+028650FM-12+1270FLND V0209999C000010300019N0008001N1+02001+01781999999ADDAA124000591AY121061AY221061GA1021+001809079GA2071+030009039GF107991021071002501031001KA1120M+02841KA2120N+01691MD1999999-0021ME1315149MW1401REMSYN140AAXX  01064 67561 11308 70000 10200 20178 48514 69944 74022 82730 333 10284 20169 59002 82706 87360 555 00/// 20993 67/// 78/// 8975/ 99050;
0225675610999992000020109004-13000+028650FM-12+1270FLND V0209999C000010054019N0200001N1+02411+01791999999ADDAY121031AY221031GA1011+005409099GA2051+005409089GA3041+030009039GF107991051021004501031021MD1999999-0021ME1315159MW1051REMSYN094AAXX  01094 67561 41470 70000 10241 20179 48515 70522 85232 333 59002 81918 85818 84360 82080;
0236675610999992000020206004-13000+028650FM-12+1270FLND V0203601N001010012019N0200001N1+01901+01741999999ADDAA124006191AY121061AY221061GA1061+001209079GF108991061071001501071999KA1120M+02601KA2120N+01781MD1999999-0091ME1315219MW1051REMSYN100AAXX  02064 67561 11270 83602 10190 20174 48521 60064 70522 8677/ 333 10260 20178 59009 86704 88460;
0188675610999992000020209004-13000+028650FM-12+1270FLND V0200201N009312200019N0002001N1+99999+99999999999ADDGA1061+005409069GA2071+030009049GF199999061051000251071999MD1999999+0081ME1315229REMSYN076AAXX  02094 67561 /3002 10218 20173 48522 8657/ 333 58008 86618 87460 91010;EQDQ01+000012SCOTCV
0278675610999992000020212004-13000+028650FM-12+1270FLND V0202301N006710090019N0080001N1+02551+01731999999ADDAY121061AY221061GA1011+009009099GA2051+009009089GA3061+033009039GA4011+090009009GF107991051021012501031021MD1999999+0021ME1314989MW1171REMSYN131AAXX  02124 67561 41658 72313 10255 20173 48498 71722 85232 333 58002 81930 85830 86361 81080 555 66/// 77/// 8874/ 98029 Q1 016.6;
0236675610999992000020306004-13000+028650FM-12+1270FLND V0209999C00001045001CN0040001N1+01911+01821999999ADDAA124010991AY121061AY221061GA1031+000909079GF107991031061001501071999KA1120M+02651KA2120N+01741MD1999999-0071ME1315159MW1401REMSYN100AAXX  03064 67561 11240 70000 10191 20182 48515 60114 74022 8367/ 333 10265 20174 59007 83703 87462;
0256675610999992000020712004-13000+028650FM-12+1270FLND V0200501N001010300019N0060001N1+02261+01811999999ADDAY191061AY221061GA1011+006009099GA2041+006009089GA3081+030009049GF108991041021008001071999MD1999999+0011ME1315149MW1951REMSYN125AAXX  07124 67561 41556 80502 10226 20181 48514 79592 8427/ 333 58001 81920 84820 88460 555 66/// 77/// 8883/ 98041 21018 .8;
0257675610999992000020715004-13000+028650FM-12+1270FLND V0200501N001010270019N0030001N1+01941+01831999999ADDAY191031AY291031GA1011+006009099GA2031+006009039GA3071+027009049GF107991031021008001071999KA1240M+02411MD1999999+0071ME1315009MW1951REMSYN113AAXX  07154 67561 41530 70502 10194 20183 48500 79599 8327/ 333 58007 81920 83320 87459 555 10241 39999 Q1 017.4;
0317675610999992000021006004-13000+028650FM-12+1270FLND V0200901N002110360019N0050001N1+01941+01821999999ADDAA124000791AY121061AY221061GA1021+001209079GA2051+036009049GA3071+090009029GF107991021061001501081081KA1120M+02741KA2120N+01691MD1999999-0031ME1315209MW1401REMSYN149AAXX  10064 67561 11250 70904 10194 20182 48520 69904 74022 82688 333 10274 20169 59003 82704 85462 87280 555 00/// 20014 BB/// CC169 DD/// Q1 019.7;
0241675610999992000021112004-13000+028650FM-12+1270FLND V0200501N001010120019N0100001N1+02801+01751999999ADDGA1011+012009099GA2051+012009089GA3031+036009039GA4021+090009009GF107991051021012501031021MD1999999-0181ME1314789REMSYN116AAXX  11124 67561 41660 70502 10280 20175 48478 85232 333 59018 81940 85840 83362 82080 555 66/// 77/// 8872/ 98032;
0264675610999992000021115004-13000+028650FM-12+1270FLND V0200501N002610360019N0300001N1+02341+01911999999ADDAY191031AY221031GA1011+012009099GA2021+012009089GA3031+036009039GA4071+090009029GF107991021021012501031081KA1999M+02901MD1999999-0131ME1314669MW1291REMSYN104AAXX  11154 67561 41680 70505 10234 20191 48466 72992 82238 333 59013 81940 82840 83362 87280 555 10290;
0189675610999992000021511004-13000+028650FM-15+1270FLND V0202101N002110360019N0112651N1+02501+01701999999ADDGA1021+009009999GA2071+036009999GA3081+090009999GF108991999999999999999999MA1101491999999MW1001REMMET063FLND 1100Z 21004KT 9999 SCT030 BKN120 OVC300 25/17 Q1015 NOSIG;EQDQ01+000000PRSWM2
0225675610999992000021512004-13000+028650FM-12+1270FLND V0202701N004110360019N0200001N1+02601+01751999999ADDAY191061AY221061GA1011+009009099GA2031+009009089GA3041+036009049GF107991031021012501071071MD1999999+0061ME1314789MW1171REMSYN094AAXX  15124 67561 41670 72708 10260 20175 48478 71792 83277 333 58006 81930 83830 84462 87280;
0228675610999992000021612004-13000+028650FM-12+1270FLND V0202801N002110360019N0300001N1+02741+01621999999ADDGA1041+012009089GA2031+036009039GA3021+090009009GF107991041021012501031021MD1999999+0141ME1314939REMSYN119AAXX  16124 67561 42680 72804 10274 20162 48493 84232 333 58014 84840 83362 82080 555 66/// 77/// 8881/ 98028 Q1 015.9;
0189675610999992000021710004-13000+028650FM-15+1270FLND V0203601N002610300019N0112651N1+02301+01701999999ADDGA1021+007509999GA2071+030009999GA3071+090009999GF107991999999999999999999MA1101801999999MW1001REMMET063FLND 1000Z 36005KT 9999 FEW025 BKN100 BKN300 23/17 Q1018 NOSIG;EQDQ01+000000PRSWM2
0275675610999992000021712004-13000+028650FM-12+1270FLND V0200301N003110090019N0250001N1+02401+01321999999ADDAY121061AY221061GA1011+009009099GA2051+009009089GA3031+030009039GA4071+090009029GF107991051021012501031081MD1999999-0011ME1314899MW1951REMSYN128AAXX  17124 67561 41675 70306 10240 20132 48489 79522 85238 333 59001 81930 85830 83360 87280 555 66/// 77/// 887// 98060 91015;
0236675610999992000021806004-13000+028650FM-12+1270FLND V0209999C000010018019N0100001N1+01771+01721999999ADDAA124013091AY161061AY251061GA1061+001809079GF108991061071002501071999KA1120M+02591KA2120N+01801MD1999999-0051ME1315039MW1611REMSYN100AAXX  18064 67561 11360 80000 10177 20172 48503 60134 76165 8677/ 333 10259 20180 59005 86706 88459;
0181675610999992000021809004-13000+028650FM-12+1270FLND V0200801N00211045001CN0100001N1+02141+01871999999ADDAY161031AY261031GA1021+003009069GF107991021051004501071999MD1999999-0101ME1315019MW1611REMSYN082AAXX  18094 67561 41460 70804 10214 20187 48501 76166 8257/ 333 59010 82610 87459;
0271675610999992000022106004-13000+028650FM-12+1270FLND V0209999C000010300019N0080001N1+01881+01761999999ADDAA124004191GA1011+004509069GA2071+030009039GF107991011051004501031001KA1120M+02691KA2120N+99999MD1999999-0121ME1315029MW1041REMSYN116AAXX  21064 67561 11458 70000 10188 20176 48502 60044 704// 81530 333 10269 20199 59012 81615 87360 555 00/// 20003;EQDQ01 +01992ATMN  
0225675610999992000022112004-13000+028650FM-12+1270FLND V0202401N009810105019N0250001N1+02451+01591999999ADDAY121061AY221061GA1011+010509099GA2061+010509089GA3041+030009039GF107991061021012501031081MD1999999-0161ME1314819MW1171REMSYN094AAXX  21124 67561 41675 72419 10245 20159 48481 71722 86238 333 59016 81935 86835 84360 87280;
0230675610999992000022206004-13000+028650FM-12+1270FLND V0209999C000010360019N0100001N1+01961+01711999999ADDAA124000791AY161061AY221061GA1071+036009019GF107991071001999999071999KA1120M+02901KA2120N+01981MD1999999-0031ME1315009MW1211REMSYN094AAXX  22064 67561 11960 70000 10196 20171 48500 69904 72162 8707/ 333 10290 20198 59003 87462;
0089675610999992000022305004-13000+028650FM-15+1270FLND V0209999C00001220001CN0099001N1+01701+01601999999ADDMA1101391999999MW1001REMMET037FLND 0500Z 00000KT CAVOK 17/16 Q1014;EQDQ01+000000PRSWM2
0258675610999992000022306004-13000+028650FM-12+1270FLND V0203301N00051045001CN0250001N1+01921+01651999999ADDAA124010991AY121061AY221061GA1011+004509069GA2011+030009039GF107991011051004501031071KA1120M+02621KA2120N+01951MD1999999-0221ME1314779MW1051REMSYN106AAXX  23064 67561 11475 73301 10192 20165 48477 60114 70522 81537 333 10262 20195 59022 81615 81360 87280;
0175675610999992000022309004-13000+028650FM-12+1270FLND V0202901N004110300019N0300001N1+02351+01661999999ADDGA1031+005409089GA2041+030009039GF107991031021004501031071MD1999999-0181ME1314869REMSYN082AAXX  23094 67561 42480 72908 10235 20166 48486 83237 333 59018 83818 84360 87280;
0195675610999992000022409004-13000+028650FM-12+1270FLND V0203001N007710390019N0300001N1+02501+01511999999ADDGA1041+010509089GA2011+039009039GA3031+090009009GF106991041011012501031021MD1999999+0021ME1314899REMSYN086AAXX  24094 67561 42680 63015 10250 20151 48489 84132 333 58002 84835 81363 83080 555;
0175675610999992000022412004-13000+028650FM-12+1270FLND V0203201N003110105019N0300001N1+02661+01621999999ADDGA1011+010509099GA2051+010509089GF106991051021012501001021MD1999999+0031ME1314749REMSYN082AAXX  24124 67561 42680 63206 10266 20162 48474 85202 333 58003 81935 85835 82080;
0225675610999992000022512004-13000+028650FM-12+1270FLND V0203601N002610360019N0250001N1+02581+01691999999ADDAY181061AY221061GA1011+007509099GA2031+007509089GA3021+036009039GF106991031021008001031021MD1999999+0201ME1314949MW1251REMSYN094AAXX  25124 67561 41575 63605 10258 20169 48494 72582 83232 333 58020 81925 83825 82362 82080;
0145675610999992000022513004-13000+028650FM-15+1270FLND V0201901N003112200019N0112651N1+02601+01901999999ADDGA1021+007509099GF104991999999999999999999MA1101491999999MW1001REMMET051FLND 1300Z 19006KT 9999 SCT025CB 26/19 Q1015 NOSIG;EQDQ01+000000PRSWM2
0191675610999992000022515004-13000+028650FM-15+1270FLND V0202701N002110900019N0112651N1+02401+01801999999ADDGA1021+007509099GA2021+036009999GA3071+090009999GF107991999999999999999999MA1101391999999MW1001REMMET065FLND 1500Z 27004KT 9999 FEW025CB SCT120 BKN300 24/18 Q1014 NOSIG;EQDQ01+000000PRSWM2
0302675610999992000022606004-13000+028650FM-12+1270FLND V0200501N002110300019N0100001N1+01801+01661999999ADDAA124003091AY121061AY221061GA1041+002109079GA2051+030009039GA3071+090009029GF107991041061002501031081KA1120M+02681KA2120N+01671MD1999999+0011ME1315579MW1051REMSYN134AAXX  26064 67561 11360 70504 10180 20166 48557 60034 70522 84638 333 10268 20167 58001 84707 85360 87280 555 00/// 20001 QNH 1018.4 ;
0225675610999992000022712004-13000+028650FM-12+1270FLND V0202601N001510300019N0250001N1+02471+01741999999ADDAY121061AY221061GA1011+009009069GA2071+030009049GF107991011081012501071999MD1999999+0171ME1314969MW1051REMSYN110AAXX  27124 67561 41675 72603 10247 20174 48496 70522 8187/ 333 58017 81630 87460 555 66/// 77/// 8872/ 98028;
0091675610999992000022716004-13000+028650FM-15+1270FLND V0209999C00001220001CN0099001N1+02401+01901999999ADDMA1101391999999MW1001REMMET039FLND 261600Z 00000KT CAVOK 24/19 Q1014;EQDQ01+000000PRSWM2
0259675610999992000022806004-13000+028650FM-12+1270FLND V0200901N001510300019N0250001N1+01871+01791999999ADDAA199000091AY121061AY221061GA1071+030009049GF107991071001999999071999KA1120M+02711KA2120N+01711MD1999999+0001ME1315159MW1051REMSYN104AAXX  28064 67561 31975 70903 10187 20179 48515 70522 8707/ 333 10271 20171 58000 87460 555 00/// 20002;EQDQ01  00002PRCP99
0181675610999992000022809004-13000+028650FM-12+1270FLND V0209999C00001045001CN0250001N1+02501+01981999999ADDAY121031AY221031GA1011+006009089GF105991011011008001031001MD1999999-0011ME1315169MW1051REMSYN082AAXX  28094 67561 41575 50000 10250 20198 48516 70522 81130 333 59001 81820 85360;
0197675610999992000022812004-13000+028650FM-12+1270FLND V0200601N001510330019N0300001N1+02851+01841999999ADDGA1031+010509089GA2031+033009039GF105991031021012501031001MD1999999-0091ME1309909REMSYN104AAXX  28124 67561 42680 50603 10285 20184 48990 83230 333 59009 83835 83361 555 66/// 77/// 88801 98026;
0284675610999992000022906004-13000+028650FM-12+1270FLND V0209999C000010300019N0550001N1+01921+01841999999ADDAA124013091AY161061AY221061GA1041+001809079GA2051+030009049GA3061+090009029GF107991041061002501071081KA1120M+02961KA2120N+01801MD1999999+0071ME1315229MW1401REMSYN116AAXX  29064 67561 11385 70000 10192 20184 48522 60134 74062 84678 333 10296 20180 58007 84706 85460 86280 555 00///;
0175675610999992000022909004-13000+028650FM-12+1270FLND V0209999C000010360019N0300001N1+02471+01871999999ADDGA1041+006009089GA2011+036009039GF107991041021008001031081MD1999999+0041ME1315209REMSYN082AAXX  29094 67561 42580 70000 10247 20187 48520 84238 333 58004 84820 81362 87280;
0219675610999992000030106004-13000+028650FM-12+1270FLND V0202601N001010018019N0080001N1+01901+01841999999ADDAY121061AY221061GA1061+001809079GF108991061071002501071999KA1120M+02801KA2120N+01741MD1999999-0071ME1315149MW1051REMSYN094AAXX  01064 67561 11358 82602 10190 20184 48514 70522 8677/ 333 10280 20174 59007 86706 85460;
0188675610999992000030109004-13000+028650FM-12+1270FLND V0202701N001010045019N0300001N1+02181+01821999999ADDAY151031AY221031GA1011+004509099GA2061+004509089GF108991061021004501071999MD1999999-0031MW1031REMSYN082AAXX  01094 67561 41480 82702 10218 20182 70352 8627/ 333 59003 81915 86815 88460;
0181675610999992000030110004-13000+028650FM-15+1270FLND V0202701N002110054019N0112651N1+02301+01801999999ADDGA1071+005409099GA2071+030009999GF107991999999999999999999MA1101801999999MW1001REMMET071FLND 1000Z 27004KT 9999 BKN018CB BKN100 23/18 Q1018.2 BECMG 8000 -TSRA;EQDQ01+000000PRSWM2
0246675610999992000030206004-13000+028650FM-12+1270FLND V0209999C000010300019N0090001N1+01911+01801999999ADDAA124003091AY131061AY221061GA1071+030009049GF107991051061002501071999KA1120M+02541KA2120N+01801MD1999999-0051ME1315019MW1051REMSYN110AAXX  02064 67561 11359 70000 10191 20180 48501 60034 70532 8567/ 333 10254 20180 59005 87460 555 00/// 20019;
0223675610999992000030209004-13000+028650FM-12+1270FLND V0200601N002610360019N0150001N1+02401+01831999999ADDAY121031AY221031GA1011+006009099GA2041+006009089GA3051+036009039GF107991041021008001031001MD1999999-0071ME1315109MW1051REMSYN092AAXX  02094 67561 41565 70605 10240 20183 48510 70522 84230 333 59007 81920 84820 85362 555;
0274675610999992000030306004-13000+028650FM-12+1270FLND V0203601N004110018019N0200001N1+01921+01791999999ADDAA124000791AY121061AY221061GA1061+001809079GA2071+030009049GF107991061071002501071999KA1120M+02661KA2120N+01791MD1999999+0061ME1315049MW1051REMSYN122AAXX  03064 67561 11370 73608 10192 20179 48504 69904 70522 8677/ 333 10266 20179 58006 86706 87460 555 00/// 20003 91017;
0203675610999992000030312004-13000+028650FM-12+1270FLND V0209999C00001045001CN0070001N1+02151+01881999999ADDAY161061AY261061GA1011+003009099GA2031+003009089GF107991031021004501071999MD1999999-0011ME1314849MW1611REMSYN088AAXX  03124 67561 41457 70000 10215 20188 48484 76166 8327/ 333 59001 81910 83810 87459;
0296675610999992000030406004-13000+028650FM-12+1270FLND V0209999C000010024019N0150001N1+01881+01821999999ADDAA124027991AY151061AY221061GA1061+002409079GA2011+004509099GA3081+027009049GF108991061091002501071999KA1120M+02341KA2120N+01821MD1999999+0051ME1315099MW1511REMSYN128AAXX  04064 67561 11365 80000 10188 20182 48509 60284 75152 8697/ 333 10234 20182 58005 86708 81915 88459 555 00/// 20990 91018;
0273675610999992000030606004-13000+028650FM-12+1270FLND V0200801N002612200019N0100001N1+02001+01851999999ADDAA124000791AY111061AY211061GA1021+036009039GF102991021001999999031001KA1120M+02551KA2120N+01721MD1999999-0031ME1315159MW1051REMSYN137AAXX  06064 67561 11960 20805 10200 20185 48515 69904 70511 82030 333 10255 20172 59003 82362 555 00/// 20016 BB/// CC172 DD/// Q1 019.0;
0203675610999992000030709004-13000+028650FM-12+1270FLND V0200901N002110300019N0150001N1+02131+01841999999ADDAY121031AY221031GA1041+005109069GA2071+030009049GF107991041051004501071999MD1999999+0051ME1315199MW1051REMSYN088AAXX  07094 67561 41465 70904 10213 20184 48519 70522 8457/ 333 58005 84617 87460 91019;
0296675610999992000030806004-13000+028650FM-12+1270FLND V0200801N00261003001CN0150001N1+01801+01711999999ADDAA124000791AY121061AY221061GA1031+001209079GA2071+003009049GA3051+004509069GF107991031031001501071071KA1120M+02591KA2120N+01721MD1999999-0011ME1315139MW1051REMSYN128AAXX  08064 67561 11265 70805 10180 20171 48513 69904 70522 83377 333 10259 20172 59001 83704 85615 87410 555 20014 CC172 DD///;
0181675610999992000030809004-13000+028650FM-12+1270FLND V0202601N003110300019N0200001N1+02341+01731999999ADDAY121031AY221031GA1061+030009039GF107991031051004501031021MD1999999-0031ME1315189MW1051REMSYN082AAXX  08094 67561 41470 72606 10234 20173 48518 70522 83532 333 59003 86360 82080;
0269675610999992000030812004-13000+028650FM-12+1270FLND V0202701N003110330019N0200001N1+02601+01701999999ADDAY121061AY221061GA1011+010509099GA2041+010509089GA3031+033009039GA4041+090009009GF107991041021012501031021MD1999999-0031ME1314999MW1051REMSYN122AAXX  08124 67561 41670 72706 10260 20170 48499 70522 84232 333 59003 81935 84835 83361 84080 555 8863/ 98028 QNH 1016.7 ;
0306675610999992000030906004-13000+028650FM-12+1270FLND V0209999C00001006001CN0090001N1+01961+01841999999ADDAA124000191AY161061AY221061GA1021+002709079GA2011+006009099GA3021+006009089GA4071+030009049GF107991021061002501021001KA1120M+02711KA2120N+01851MD1999999+0031ME1315169MW1211REMSYN122AAXX  09064 67561 11359 70000 10196 20184 48516 69924 72162 82620 333 10271 20185 58003 82709 81920 82820 87460 555 20090;
0203675610999992000030912004-13000+028650FM-12+1270FLND V0209999C00001045001CN0150001N1+01891+01751999999ADDAY191061AY221061GA1011+006009099GA2021+006009089GF108991021021008001071999MD1999999-0061ME1315079MW1171REMSYN088AAXX  09124 67561 41565 80000 10189 20175 48507 71792 8227/ 333 59006 81920 82820 88460;
0257675610999992000030915004-13000+028650FM-12+1270FLND V0209999C000010300019N0300001N1+01851+01671999999ADDAY191031AY261031GA1011+004509099GA2031+004509069GA3071+030009049GF107991031041004501061999KA1240M+02351MD1999999+0211ME1315009MW1011REMSYN113AAXX  09154 67561 41480 70000 10185 20167 48500 70196 8346/ 333 58021 81915 83615 87460 555 10235 31111 Q1 917.5;
0091675610999992000031008004-13000+028650FM-15+1270FLND V0209999C00001220001CN0099001N1+02101+01701999999ADDMA1101901999999MW1001REMMET039FLND 100800Z 00000KT CAVOK 21/17 Q1019;EQDQ01+000000PRSWM2
0305675610999992000031009004-13000+028650SY-MT+1270FLND V0209999C000010300019N0200001N1+02311+01751999999ADDAY141031AY221031GA1021+006009999GA2071+030009999GF107991011011008001031001MA1101801999999MD1999999-0111ME1315139MW1051REMSYN082AAXX  10094 67561 41570 70000 10231 20175 48513 70542 81130 333 59011 81820 87360;MET052FLND 100900Z 00000KT 9999 FEW020 BKN100 23/17 Q1018;EQDQ01+000000PRSWM2Q02    003PRSWM1
0168675610999992000031010004-13000+028650FM-15+1270FLND V0209999C000010330019N0112651N1+02501+01701999999ADDGA1021+007509999GA2071+033009999GF107991999999999999999999MA1101691999999MW1001REMMET058FLND 101000Z 00000KT 9999 FEW025 BKN110 25/17 Q1017 NOSIG;EQDQ01+000000PRSWM2
0288675610999992000031012004-13000+028650SY-MT+1270FLND V0209999C000010090019N0200001N1+02621+01671999999ADDGA1071+009009999GA2021+033009999GF199999999999012501999999MA1101491999999MD1999999-0231ME1314879MW1001REMSYN081AAXX  10124 67561 41670 60000 10262 20167 48487 7052 85230 333 59023 85830 83361;MET052FLND 101200Z 00000KT 9999 BKN030 SCT110 26/17 Q1015;EQDQ01+000062SCOTCVQ02+000000PRSWM2
0139675610999992000031013004-13000+028650FM-15+1270FLND V0201701N001512200019N0112651N1+02701+01601999999ADDGA1021+010509999GF104991999999999999999999MA1101291999999MW1001REMMET045FLND 101300Z 17003KT 9999 SCT035 27/16 Q1013;EQDQ01+000000PRSWM2
0250675610999992000031015004-13000+028650SY-MT+1270FLND V0202001N002612200019N0300001N1+02621+01561999999ADDGA1021+010509999GF104991021021012501031021MA1101291999999MD1999999-0381ME1314699MW1001REMSYN082AAXX  10154 67561 42680 42005 10262 20156 48469 82232 333 59038 82835 81361 82080;MET045FLND 101500Z 20005KT 9999 FEW035 26/16 Q1013;EQDQ01+000000PRSWM2
0091675610999992000031016004-13000+028650FM-15+1270FLND V0202201N00101220001CN0099001N1+02501+01601999999ADDMA1101391999999MW1001REMMET039FLND 101600Z 22002KT CAVOK 25/16 Q1014;EQDQ01+000000PRSWM2
0219675610999992000031112004-13000+028650FM-12+1270FLND V0202901N002110300019N0200001N1+02541+01721999999ADDAY121061AY221061GA1021+007509089GA2061+030009039GF107991021021008001031001MD1999999+0091ME1314969MW1051REMSYN104AAXX  11124 67561 41570 72904 10254 20172 48496 70522 82230 333 58009 82825 86360 555 66/// 77/// 8879/;
0091675610999992000031116004-13000+028650FM-15+1270FLND V0209999C00001220001CN0099001N1+02601+01701999999ADDMA1101391999999MW1001REMMET039FLND 101600Z 00000KT CAVOK 26/17 Q1014;EQDQ01+000000PRSWM2
0298675610999992000031204004-13000+028650SY-MT+1270FLND V0209999C00001030001CN0060001N1+01701+01661999999ADDAY121999AY221999GA1021+004509999GA2071+030009999GF107991031051004501031081MA1101691999999MD1999999+0021ME1315049MW1041REMSYN088AAXX  12044 67561 41456 70000 10170 20166 48504 70422 83538 333 58002 83615 85365 87280;MET055FLND 120400Z 00000KT 6000 FU SCT015 BKN100 17/17 Q1017;EQDQ01    003PRSWM1
0234675610999992000031312004-13000+028650FM-12+1270FLND V0202801N003110300019N0300001N1+02501+01761999999ADDAY161061AY221061GA1021+007509089GA2071+030009049GF107991021021008001071999MD1999999-0021ME1314799MW1021REMSYN119AAXX  13124 67561 41580 72806 10250 20176 48479 70262 8227/ 333 59002 82825 87460 555 66/// 77/// 8881/ 98030 Q1 014.6;
0279675610999992000031315004-13000+028650FM-12+1270FLND V0209999C00001010501CN0300001N1+02501+01841999999ADDAY191031AY221031GA1071+010509059GA2011+011409099GA3031+033009039GA4041+090009009GF107991051021012501031021KA1240M+02761MD1999999-0021ME1314709MW1031REMSYN119AAXX  13154 67561 41680 70000 10250 20184 48470 70392 85232 333 59002 81938 87535 83361 84080 555 10276 39999 Q1 013.5;
0249675610999992000031606004-13000+028650FM-12+1270FLND V0202001N00261045001CN0250001N1+01961+01741999999ADDAA199000091AY121061AY221061GA1021+002709079GF107991021061002501031001KA1120M+02751KA2120N+01831MD1999999+0101ME1315259MW1051REMSYN094AAXX  16064 67561 31375 72005 10196 20174 48525 70522 82630 333 10275 20183 58010 82709 87360;EQDQ01  00002PRCP99
0160675610999992000031611004-13000+028650FM-15+1270FLND V0209999C000010900019N0112651N1+02501+01701999999ADDGA1021+009009999GA2071+090009999GF107991999999999999999999MA1101801999999MW1001REMMET050FLND 1100Z 00000KT 9999 FEW030 BKN300 25/17 Q1018;EQDQ01+000000PRSWM2
0203675610999992000031612004-13000+028650FM-12+1270FLND V0209999C00001045001CN0300001N1+02741+01571999999ADDAY161061AY221061GA1011+009009089GA2011+030009039GF107991011021012501031081MD1999999+0031ME1314939MW1031REMSYN088AAXX  16124 67561 41680 70000 10274 20157 48493 70362 81238 333 58003 81830 81360 87280;
0236675610999992000031615004-13000+028650FM-12+1270FLND V0203601N001510330019N0300001N1+02701+01721999999ADDGA1011+012009099GA2011+012009089GA3041+033009049GA4071+090009029GF107991011091012501071081KA1999M+02861MD1999999+0041ME1314829REMSYN098AAXX  16154 67561 42680 73603 10270 20172 48482 81978 333 58004 81940 81840 84461 87280 555 10286;
0271675610999992000031706004-13000+028650FM-12+1270FLND V0200201N002112200019N0250001N1+99999+99999999999ADDAA106000591AY141061AY221061GA1011+030009039GA2071+090009029GF199999011001999999081021KA1120M+02861KA2120N+01701MD1999999-0201ME1315069MW1051REMSYN100AAXX  17064 67561 11975 10204 20180 48506 69941 70542 81082 333 10286 20170 59020 81360 87280 91018;EQDQ01+000012SCOTCV
0175675610999992000031709004-13000+028650FM-12+1270FLND V0200601N002110300019N0300001N1+02651+01811999999ADDGA1041+009009089GA2011+030009039GF105991041021012501031021MD1999999-0091ME1315109REMSYN082AAXX  17094 67561 42680 50604 10265 20181 48510 84232 333 59009 84830 81360 81080;
0225675610999992000031912004-13000+028650FM-12+1270FLND V0203601N004110105019N0150001N1+02441+01791999999ADDAY121061AY221061GA1011+010509099GA2061+010509089GA3021+036009039GF107991061021012501031081MD1999999+0121ME1314539MW1151REMSYN094AAXX  19124 67561 41665 73608 10244 20179 48453 71522 86238 333 58012 81935 86835 82362 87280;
0203675610999992000032012004-13000+028650FM-12+1270FLND V0209999C000010300019N0250001N1+02541+01711999999ADDAY121061AY221061GA1031+009009089GA2031+030009039GF107991051021012501031081MD1999999+0121ME1314969MW1051REMSYN088AAXX  20124 67561 41675 70000 10254 20171 48496 70522 85238 333 58012 83830 83360 87280;
0247675610999992000032109004-13000+028650FM-12+1270FLND V0200601N007210300019N0300001N1+02461+01821999999ADDAY151031AY221031GA1011+007509099GA2041+007509089GA3021+030009039GA4011+090009009GF105991041021008001031021MD1999999-0061ME1315159MW1201REMSYN100AAXX  21094 67561 41580 50614 10246 20182 48515 72052 84232 333 59006 81925 84825 82360 81080 91018;
0230675610999992000032206004-13000+028650FM-12+1270FLND V0201001N00211045001CN0300001N1+02001+01631999999ADDAA124003091GA1011+003609089GA2021+033009039GF107991011011004501031081KA1120M+02621KA2120N+01661MD1999999+0001ME1315139REMSYN100AAXX  22064 67561 12480 71004 10200 20163 48513 60034 81138 333 10262 20166 58000 81812 82361 87280;
0285675610999992000032606004-13000+028650FM-12+1270FLND V0209999C000010300019N0300001N1+01781+01651999999ADDAY151061AY221061GA1031+002409079GA2051+030009049GA3071+090009029GF107991031071002501071081KA1120M+02841KA2120N+01661MD1999999+0041ME1315239MW1201REMSYN128AAXX  26064 67561 11380 70000 10178 20165 48523 72052 83778 333 10284 20166 58004 83708 85460 87280 555 00/// 20005 QNH 1020.3 ;
0153675610999992000032712004-13000+028650FM-12+1270FLND V0200901N002610120019N0300001N1+02801+01661999999ADDGA1051+012009089GF106991051021012501031001MD1999999-0101ME1314929REMSYN076AAXX  27124 67561 42680 60905 10280 20166 48492 85230 333 59010 85840 81362;
0197675610999992000032715004-13000+028650FM-12+1270FLND V0201801N00411105001CN0300001N1+02641+01731999999ADDGA1011+012009099GA2021+012009089GA3011+036009039GF105991021021012501031081MD1999999-0101ME1314729REMSYN088AAXX  27154 67561 42680 51808 10264 20173 48472 82238 333 59010 81940 82840 81362 85280;
0175675610999992000032809004-13000+028650FM-12+1270FLND V0201001N003110075019N0300001N1+02561+01771999999ADDGA1051+007509089GA2031+036009039GF107991051021008001031081MD1999999+0111ME1315269REMSYN082AAXX  28094 67561 42580 71006 10256 20177 48526 85238 333 58011 85825 83362 87280;
0225675610999992000032812004-13000+028650FM-12+1270FLND V0200601N004110300019N0300001N1+02761+01501999999ADDAY121061AY221061GA1011+010509099GA2041+010509089GA3021+030009039GF105991041021012501031021MD1999999+0111ME1315029MW1171REMSYN094AAXX  28124 67561 41680 50608 10276 20150 48502 71722 84232 333 58011 81935 84835 82360 81080;
0262675610999992000032906004-13000+028650FM-12+1270FLND V0209999C036012200019N0300001N1+02051+01811999999ADDAA124001091GA1011+003609089GA2011+030009039GA3011+090009009GF101991011011999999081021KA1120M+02901KA2120N+01581MD1999999+0041ME1315269REMSYN116AAXX  29064 67561 12980 10070 10205 20181 48526 60014 81182 333 10290 20158 58004 81812 81360 81080 555 00/// 91020;
0159675610999992000033009004-13000+028650FM-12+1270FLND V0201201N004612200019N0300001N1+02631+01661999999ADDGA1031+010509089GF103991031011012501001001MD1999999+0061ME1315359REMSYN082AAXX  30094 67561 42680 31209 10263 20166 48535 83100 333 58006 83835 QNH 1020.7 ;
0188675610999992000033012004-13000+028650FM-12+1270FLND V0201201N004110150019N0300001N1+02751+01541999999ADDGA1061+015009089GF106991061021017501001001MD1999999-0031ME1315119REMSYN111AAXX  30124 67561 42780 61208 10275 20154 48511 86200 333 59003 86850 555 66/// 77/// 8864/ 987085 QNH 1018.0 ;
0197675610999992000033109004-13000+028650FM-12+1270FLND V0200601N003112200019N0300001N1+02651+01691999999ADDGA1031+009009089GA2011+036009039GA3011+090009009GF104991031011012501041021MD1999999-0051ME1315309REMSYN088AAXX  31094 67561 42680 40606 10265 20169 48530 83142 333 59005 83830 81362 81080 91020;
0225675610999992000033112004-13000+028650FM-12+1270FLND V0200501N002110135019N0300001N1+02891+01661999999ADDGA1061+013509089GA2011+039009039GA3011+090009009GF106991061021012501031021MD1999999-0051ME1315039REMSYN116AAXX  31124 67561 42680 60504 10289 20166 48503 86232 333 59005 86845 81363 81080 555 66/// 77/// 8866/ 98065 91017;
0323675610999992000040206004-13000+028650SY-MT+1270FLND V0201301N004110360019N0300001N1+02031+01731999999ADDAA199000091GA1071+036009999GF107991011051004501031021KA1120M+02951KA2120N+01661MA1102001999999MD1999999+0071ME1315259MW1001REMSYN094AAXX  02064 67561 32480 71308 10203 20173 48525 81532 333 10295 20166 58007 81610 86362 82080;MET053FLND 020600Z 13008KT FEW010 BKN120 20/17 Q1020 NOSIG;EQDQ01+000000PRSWM2Q02  00002PRCP99
0141675610999992000040211004-13000+028650FM-15+1270FLND V0201001N004110120019N0112651N1+02801+01601999999ADDGA1071+012009099GF107991999999999999999999MA1101691999999MW1001REMMET047FLND 021100Z 10008KT 9999 BKN040CB 28/16 Q1017;EQDQ01+000000PRSWM2
0260675610999992000040212004-13000+028650SY-MT+1270FLND V0200901N005110135019N0300001N1+02801+01661999999ADDGA1071+013509999GF199999061021012501001001MA1101691999999MD1999999+0061ME1315079MW1001REMSYN076AAXX  02124 67561 42680 60910 10280 20166 48507 86200 333 58006 81945 86845;MET045FLND 021200Z 09010KT 9999 BKN045 28/17 Q1017;EQDQ01+000062SCOTCVQ02+000000PRSWM2
0141675610999992000040213004-13000+028650FM-15+1270FLND V0201501N004110150019N0112651N1+02701+01501999999ADDGA1071+015009099GF107991999999999999999999MA1101691999999MW1001REMMET047FLND 021300Z 15008KT 9999 BKN050CB 27/15 Q1017;EQDQ01+000000PRSWM2
0091675610999992000040215004-13000+028650FM-15+1270FLND V0201001N00361220001CN0099001N1+02601+01501999999ADDMA1101591999999MW1001REMMET039FLND 021500Z 10007KT CAVOK 26/15 Q1016;EQDQ01+000000PRSWM2
0097675610999992000040406004-13000+028650FM-15+1270FLND V0209999C00001220001CN0099001N1+02001+01701999999ADDMA1101901999999MW1001REMMET045FLND 040600Z 00000KT CAVOK 20/17 Q1019 NOSIG;EQDQ01+000000PRSWM2
0181675610999992000040412004-13000+028650FM-12+1270FLND V0201901N003110120019N0300001N1+02931+01681999999ADDGA1061+012009089GF106991061021012501001001MD1999999-0061ME1315079REMSYN104AAXX  04124 67561 42680 61906 10293 20168 48507 86200 333 59006 86840 555 66/// 77/// 8869/ 98065 91017;
0158675610999992000040504004-13000+028650FM-15+1270FLND V0209999C000010900019N0010001N1+01401+01401999999ADDGA1071+090009999GF107991999999999999999999MA1101801999999MW1441REMMET048FLND 050400Z 00000KT 1000 FG BKN300 14/14 Q1018;EQDQ01+000003PRSWM1Q02    003PRSWM1
0153675610999992000040512004-13000+028650FM-12+1270FLND V0209999C000010120019N0300001N1+02821+01461999999ADDGA1061+012009089GF106991061021012501001021MD1999999-0041ME1315029REMSYN076AAXX  05124 67561 42680 60000 10282 20146 48502 86202 333 59004 86840 81080;
0253675610999992000040606004-13000+028650FM-12+1270FLND V0209999C000010900019N0080001N1+01861+01601999999ADDAA199000091AY111061AY211061GA1061+090009029GF106991001001999999001081KA1120M+02941KA2120N+01381MD1999999-0041ME1315169MW1041REMSYN098AAXX  06064 67561 31958 60000 10186 20160 48516 70411 80008 333 10294 20138 59004 86280 555 00///;EQDQ01  00002PRCP99
0175675610999992000040709004-13000+028650FM-12+1270FLND V0200401N005110900019N0300001N1+02601+01661999999ADDGA1041+009009089GA2071+090009029GF107991041011012501001081MD1999999+0031ME1315269REMSYN082AAXX  07094 67561 42680 70410 10260 20166 48526 84108 333 58003 84830 87280 91019;
0153675610999992000040715004-13000+028650FM-12+1270FLND V0201701N00671105001CN0300001N1+02651+01441999999ADDGA1031+018009029GF105991031021017501001021MD1999999+0141ME1314989REMSYN076AAXX  07154 67561 42780 51713 10265 20144 48498 83202 333 58014 83256 83080;
0091675610999992000040806004-13000+028650FM-15+1270FLND V0209999C00001220001CN0099001N1+02001+01701999999ADDMA1101901999999MW1001REMMET039FLND 080600Z 00000KT CAVOK 20/17 Q1019;EQDQ01+000000PRSWM2
0162675610999992000040807004-13000+028650FM-15+1270FLND V0201001N004610900019N0112651N1+02301+01701999999ADDGA1021+004509999GA2071+090009999GF107991999999999999999999MA1102001999999MW1001REMMET052FLND 080700Z 10009KT 9999 FEW015 BKN300 23/17 Q1020;EQDQ01+000000PRSWM2
0162675610999992000040808004-13000+028650FM-15+1270FLND V0200801N003610900019N0112651N1+02501+01701999999ADDGA1021+006009999GA2071+090009999GF107991999999999999999999MA1102001999999MW1001REMMET052FLND 080800Z 08007KT 9999 FEW020 BKN300 25/17 Q1020;EQDQ01+000000PRSWM2
0162675610999992000040809004-13000+028650FM-15+1270FLND V0201201N001510900019N0112651N1+02601+01701999999ADDGA1021+007509999GA2071+090009999GF107991999999999999999999MA1101901999999MW1001REMMET052FLND 080900Z 12003KT 9999 SCT025 BKN300 26/17 Q1019;EQDQ01+000000PRSWM2
0139675610999992000040810004-13000+028650FM-15+1270FLND V0200301N001010090019N0112651N1+02701+01601999999ADDGA1071+009009999GF107991999999999999999999MA1101801999999MW1001REMMET045FLND 081000Z 03002KT 9999 BKN030 27/16 Q1018;EQDQ01+000000PRSWM2
0281675610999992000040906004-13000+028650SY-MT+1270FLND V0209999C00001220001CN0300001N1+01851+01571999999ADDAA199000091GF107991001001999999001081KA1120M+02861KA2120N+01381MA1101901999999MD1999999+0001ME1315219MW1001REMSYN082AAXX  09064 67561 32980 70000 10185 20157 48521 80008 333 10286 20138 58000 87280;MET039FLND 090600Z 00000KT CAVOK 18/16 Q1019;EQDQ01+000000PRSWM2Q02  00002PRCP99
0090675610999992000040907004-13000+028650FM-15+1270FLND V0200801N00261220001CN0099001N1+01101+00602999999ADDMA1102001999999MW1001REMMET038FLND 090700Z 08005KT CAVOK 11/6 Q1020;EQDQ01+000000PRSWM2
0162675610999992000040909004-13000+028650FM-15+1270FLND V0201001N002110900019N0112651N1+02602+01501999999ADDGA1021+009009999GA2071+090009999GF107991999999999999999999MA1101901999999MW1001REMMET052FLND 090900Z 10004KT 9999 FEW030 BKN300 26/15 Q1019;EQDQ01+000000PRSWM2
0162675610999992000040910004-13000+028650FM-15+1270FLND V0203601N001010105019N0112651N1+02601+01501999999ADDGA1071+010509999GA2071+090009999GF107991999999999999999999MA1101901999999MW1001REMMET052FLND 091000Z 36002KT 9999 BKN035 BKN300 26/15 Q1019;EQDQ01+000000PRSWM2
0139675610999992000040911004-13000+028650FM-15+1270FLND V0203601N002110120019N0112651N1+02801+01501999999ADDGA1071+012009999GF107991999999999999999999MA1101801999999MW1001REMMET045FLND 091100Z 36004KT 9999 BKN040 28/15 Q1018;EQDQ01+000000PRSWM2
0244675610999992000040912004-13000+028650SY-MT+1270FLND V0201501N001010135019N0300001N1+02821+01391999999ADDGA1071+013509999GF107991061021012501001021MA1101691999999MD1999999+0021ME1315109MW1001REMSYN076AAXX  09124 67561 42680 71502 10282 20139 48510 86202 333 58002 86845 84080;MET045FLND 091200Z 15002KT 9999 BKN045 28/14 Q1017;EQDQ01+000000PRSWM2
0091675610999992000040913004-13000+028650FM-15+1270FLND V0200901N00261220001CN0099001N1+02901+01501999999ADDMA1101591999999MW1001REMMET039FLND 091300Z 09005KT CAVOK 29/15 Q1016;EQDQ01+000000PRSWM2
0238675610999992000040915004-13000+028650SY-MT+1270FLND V0201601N002110180019N0300001N1+02681+01351999999ADDGA1061+018009089GF107991061021017501001021MA1101591999999MD1999999+0041ME1315019MW1001REMSYN076AAXX  09154 67561 42780 71604 10268 20135 48501 86202 333 58004 86856 83080;MET039FLND 091500Z 16004KT CAVOK 27/13 Q1016;EQDQ01+000000PRSWM2
0247675610999992000041006004-13000+028650FM-12+1270FLND V0200801N001012200019N0250001N1+01941+01611999999ADDAA199000091AY101061AY201061GA1001+999999999GF100991001001999999001001KA1120M+03001KA2120N+01461MD1999999-0011ME1315219MW1051REMSYN092AAXX  10064 67561 31975 00802 10194 20161 48521 70500 333 10300 20146 59001 555 00/// 91019;EQDQ01  00002PRCP99
0147675610999992000041009004-13000+028650FM-12+1270FLND V0201001N006212200019N0300001N1+02651+01471999999ADDGA1021+007509029GF102991021011008001001001MD1999999+0011ME1315289REMSYN070AAXX  10094 67561 42580 21012 10265 20147 48528 82100 333 58001 82825;
0153675610999992000041012004-13000+028650FM-12+1270FLND V0201801N001510135019N0300001N1+02831+01431999999ADDGA1061+013509089GF106991061021012501001001MD1999999-0051ME1315059REMSYN076AAXX  10124 67561 42680 61803 10283 20143 48505 86200 333 59005 86845 91017;
0091675610999992000041104004-13000+028650FM-15+1270FLND V0209999C00001220001CN0099001N1+01401+01301999999ADDMA1101901999999MW1001REMMET039FLND 110400Z 00000KT CAVOK 14/13 Q1019;EQDQ01+000000PRSWM2
0217675610999992000041106004-13000+028650FM-12+1270FLND V0209999C000012200019N0300001N1+01941+01581999999ADDAA199000091GA1011+036009039GF101991011001999999031001KA1120M+02921KA2120N+01441ME1315239REMSYN098AAXX  11064 67561 32980 10000 10194 20158 48523 81030 333 10292 20144 48002 81362 555 00/// 91020;EQDQ01  00002PRCP99
0247675610999992000041112004-13000+028650FM-12+1270FLND V0201101N002110090019N0300001N1+02571+01781999999ADDAY181061AY221061GA1011+009009099GA2061+009009089GA3011+090009009GF106991061021012501001021MD1999999-0011ME1315029MW1281REMSYN116AAXX  11124 67561 41680 61104 10257 20178 48502 72882 86202 333 59001 81930 86830 81080 555 8865/ 98020 QNH 1012.1 ;
0216675610999992000041212004-13000+028650FM-12+1270FLND V0201201N003610135019N0300001N1+02811+01621999999ADDGA1011+013509099GA2061+013509089GF107991061999012501001001MD1999999+0011ME1315059REMSYN104AAXX  12124 67561 42680 71207 10281 20162 48505 86000 333 58001 81945 86845 555 66/// 77/// 8868/ 98055;EQDQ01+000002SCOLCG
0147675610999992000041409004-13000+028650FM-12+1270FLND V0200901N003112200019N0300001N1+02801+01721999999ADDGA1041+012009029GF104991041021012501001001MD1999999+0091ME1315209REMSYN070AAXX  14094 67561 42680 40906 10280 20172 48520 84200 333 58009 84840;
0160675610999992000041505004-13000+028650FM-15+1270FLND V0209999C000012200019N0050001N1+01701+01701999999ADDGA1021+033009999GF104991999999999999999999MA1101901999999MW1401REMMET050FLND 150500Z 00000KT 5000 VCFG SCT110 17/17 Q1019;EQDQ01+000003PRSWM1Q02    003PRSWM1
0091675610999992000041506004-13000+028650FM-15+1270FLND V0209999C00001220001CN0099001N1+02001+01801999999ADDMA1101801999999MW1001REMMET039FLND 150600Z 00000KT CAVOK 20/18 Q1018;EQDQ01+000000PRSWM2
0139675610999992000041509004-13000+028650FM-15+1270FLND V0201201N003612200019N0112651N1+02601+01601999999ADDGA1021+007509999GF104991999999999999999999MA1101901999999MW1001REMMET045FLND 150900Z 12007KT 9999 SCT025 26/16 Q1019;EQDQ01+000000PRSWM2
0219675610999992000041512004-13000+028650FM-12+1270FLND V0200601N003110120019N0300001N1+02801+01521999999ADDGA1011+012009099GA2061+012009089GA3011+036009039GF107991061021012501031001MD1999999+0001ME1315049REMSYN110AAXX  15124 67561 42680 70606 10280 20152 48504 86230 333 58000 81940 86840 81362 555 66/// 77/// 8869/ 98050;
0245675610999992000041515004-13000+028650FM-12+1270FLND V0200301N00101090001CN0300001N1+02681+01551999999ADDGA1011+012009099GA2031+012009089GA3011+036009039GA4021+090009009GF105991031021012501031021KA1240M+03021MD1999999-0161ME1314909REMSYN107AAXX  15154 67561 42680 50302 10268 20155 48490 83232 333 59016 81940 83840 81362 82080 555 10302 Q1 015.7;
0183675610999992000041609004-13000+028650FM-12+1270FLND V0200901N005110330019N0300001N1+02561+01601999999ADDGA1041+010509089GA2061+033009039GA3011+090009009GF107991041021012501031021ME1315419REMSYN088AAXX  16094 67561 42680 70910 10256 20160 48541 84232 333 48017 84835 86361 81080 91021;
0250675610999992000041612004-13000+028650FM-12+1270FLND V0200601N004110330019N0300001N1+02891+01571999999ADDGA1011+013509099GA2041+013509089GA3011+033009039GA4011+090009009GF107991041021012501031021MD1999999+0151ME1315199REMSYN125AAXX  16124 67561 42680 70608 10289 20157 48519 84232 333 58015 81945 84845 81361 81080 555 66/// 77/// 88621 98048 Q1 018.8;
0183675610999992000041615004-13000+028650FM-12+1270FLND V0202001N001510300019N0100001N1+02061+01661999999ADDAY181031AY221031GA1041+012009069GA2041+030009049GF107991011091012501041001ME1315039MW1801REMSYN082AAXX  16154 67561 41660 72003 10206 20166 48503 78082 81940 333 84640 84460 81080;
0191675610999992000041616004-13000+028650FM-15+1270FLND V0201801N002612200019N0112651N1+02201+01701999999ADDGA1021+012009099GA2021+030009999GF104991999999999999999999MA1101801999999MW1161REMMET065FLND 161600Z 18005KT 9999 VCSH SCT040CB SCT100 22/17 Q1018 NOSIG;EQDQ01+000003PRSWM1Q02    003PRSWM1
0091675610999992000041704004-13000+028650FM-15+1270FLND V0209999C00001220001CN0099001N1+01801+01701999999ADDMA1102001999999MW1001REMMET039FLND 170400Z 00000KT CAVOK 18/17 Q1020;EQDQ01+000000PRSWM2
0202675610999992000041706004-13000+028650FM-12+1270FLND V0201001N002110300019N0300001N1+02001+01721999999ADDAA124004191GA1051+030009079GF105991051001999999031001KA1120M+02971KA2120N+01761MD1999999+0011ME1315359REMSYN088AAXX  17064 67561 12980 51004 10200 20172 48535 60044 85030 333 10297 20176 58001 85360;
0267675610999992000041806004-13000+028650FM-12+1270FLND V0200901N002112200019N0300001N1+01951+01721999999ADDAA124001091GA1011+004509089GA2011+036009039GF101991011011004501031001KA1120M+02841KA2120N+01491MD1999999-0081ME1315279REMSYN137AAXX  18064 67561 12480 10904 10195 20172 48527 60014 81130 333 10284 20149 59008 81815 81362 555 00/// 20005 BB/// CC149 DD/// Q1 020.5;
0143675610999992000041807004-13000+028650FM-15+1270FLND V0201001N007712200019N0112651N1+02301+01501999999ADDGA1021+006009999GF102991999999999999999999MA1102101999999MW1001REMMET049FLND 0700Z 10015KT 9999 FEW020 23/15 Q1021 NOSIG;EQDQ01+000000PRSWM2
0147675610999992000041812004-13000+028650FM-12+1270FLND V0201501N006212200019N0300001N1+02801+01531999999ADDGA1041+012009029GF104991041021012501001001MD1999999+0051ME1315229REMSYN070AAXX  18124 67561 42680 41512 10280 20153 48522 84200 333 58005 84840;
0153675610999992000041909004-13000+028650FM-12+1270FLND V0200901N005110090019N0300001N1+02571+01631999999ADDGA1051+009009089GF105991051011012501001001MD1999999+0031ME1315429REMSYN076AAXX  19094 67561 42680 50910 10257 20163 48542 85100 333 58003 85830 91021;
0153675610999992000042009004-13000+028650FM-12+1270FLND V0201101N004112200019N0300001N1+02521+01641999999ADDGA1031+009009089GF103991031011012501001001MD1999999+0021ME1315449REMSYN076AAXX  20094 67561 42680 31108 10252 20164 48544 83100 333 58002 83830 91021;
0091675610999992000042204004-13000+028650FM-15+1270FLND V0209999C00001220001CN0099001N1+01401+01301999999ADDMA1102001999999MW1001REMMET039FLND 220400Z 00000KT CAVOK 14/13 Q1020;EQDQ01+000000PRSWM2
0252675610999992000042206004-13000+028650FM-12+1270FLND V0209999C000010360019N0300001N1+01801+01461999999ADDAA199000091GA1051+036009039GF105991051001999999031001KA1120M+02901KA2120N+01851MD1999999+0051ME1315419REMSYN119AAXX  22064 67561 32980 50000 10180 20146 48541 85030 333 10290 20185 58005 85362 555 00/// BB/// CC185 DD/// Q1 022.3;EQDQ01  00002PRCP99
0153675610999992000042209004-13000+028650FM-12+1270FLND V0200901N00411045001CN0300001N1+02661+01541999999ADDGA1021+012609089GF107991021021012501031001MD1999999+0061ME1315519REMSYN076AAXX  22094 67561 42680 70908 10266 20154 48551 82230 333 58006 82842 86362;
0215675610999992000042506004-13000+028650FM-12+1270FLND V0209999C000012200019N0300001N1+01901+01481999999ADDAA199000091GA1011+036009079GF101991011001999999031001KA1120M+02941KA2120N+01301MD1999999+0001ME1315309REMSYN082AAXX  25064 67561 32980 10000 10190 20148 48530 81030 333 10294 20130 58000 81362;EQDQ01  00002PRCP99
0147675610999992000042509004-13000+028650FM-12+1270FLND V0200801N004112200019N0300001N1+02661+01131999999ADDGA1011+015009029GF101991011011012501001001MD1999999-0021ME1315329REMSYN070AAXX  25094 67561 42680 10808 10266 20113 48532 81100 333 59002 81850;
0129675610999992000042512004-13000+028650FM-12+1270FLND V0200901N001510150019N0300001N1+02641+01501999999ADDGF106991061021017501001001ME1315159REMSYN082AAXX  25124 67561 42780 60903 10264 20150 48515 86200 555 66/// 77/// 8861/ 98061;
0203675610999992000042606004-13000+028650FM-12+1270FLND V0200401N002612200019N0300001N1+01831+01441999999ADDAA199000091GA1001+999999999GF100991001001999999001001KA1120M+02911KA2120N+01221MD1999999-0041ME1315269REMSYN070AAXX  26064 67561 32980 00405 10183 20144 48526 333 10291 20122 59004;EQDQ01  00002PRCP99
0097675610999992000042607004-13000+028650FM-15+1270FLND V0200801N00621220001CN0099001N1+02301+01401999999ADDMA1102001999999MW1001REMMET045FLND 260700Z 08012KT CAVOK 23/14 Q1020 NOSIG;EQDQ01+000000PRSWM2
0260675610999992000042609004-13000+028650SY-MT+1270FLND V0200301N004112200019N0300001N1+02661+01461999999ADDGA1021+012009999GF199999011011012501001001MA1102001999999MD1999999+0021ME1315359MW1001REMSYN070AAXX  26094 67561 42680 10308 10266 20146 48535 81100 333 58002 81840;MET051FLND 260900Z 03008KT 9999 FEW040 27/15 Q1020 NOSIG;EQDQ01+000012SCOTCVQ02+000000PRSWM2
0139675610999992000042610004-13000+028650FM-15+1270FLND V0201201N003110120019N0112651N1+02701+01301999999ADDGA1071+012009999GF107991999999999999999999MA1102001999999MW1001REMMET045FLND 261000Z 12006KT 9999 BKN040 27/13 Q1020;EQDQ01+000000PRSWM2
0091675610999992000042613004-13000+028650FM-15+1270FLND V0203601N00361220001CN0099001N1+03001+01101999999ADDMA1101691999999MW1001REMMET039FLND 261300Z 36007KT CAVOK 30/11 Q1017;EQDQ01+000000PRSWM2
0091675610999992000042615004-13000+028650FM-15+1270FLND V0209999C00001220001CN0099001N1+02601+01301999999ADDMA1101801999999MW1001REMMET039FLND 261500Z 00000KT CAVOK 26/13 Q1018;EQDQ01+000000PRSWM2
0187675610999992000042712004-13000+028650FM-12+1270FLND V0201601N001510150019N0300001N1+02691+01321999999ADDGA1061+015009089GF106991061021017501001001MD1999999+0061ME1315169REMSYN110AAXX  27124 67561 42780 61603 10269 20132 48516 86200 333 58006 86850 555 66/// 77/// 8859/ 98027 QNH 1018.7 ;
0237675610999992000042906004-13000+028650FM-12+1270FLND V0200801N002610054019N0300001N1+01751+01501999999ADDAA199000091GA1071+005409069GF107991071051004501999999KA1120M+02921KA2120N+01431MD1999999+0181ME1315569REMSYN104AAXX  29064 67561 32480 70805 10175 20150 48556 875// 333 10292 20143 58018 87618 555 00/// 20990 91024;EQDQ01  00002PRCP99
0203675610999992000042912004-13000+028650FM-12+1270FLND V0200901N006210330019N0300001N1+02451+01411999999ADDGA1041+012009089GA2061+033009039GF107991041021012501031001MD1999999+0161ME1315459REMSYN110AAXX  29124 67561 42680 70912 10245 20141 48545 84230 333 58016 84840 86361 555 66/// 77/// 8867/ 98073 91022;
0175675610999992000043012004-13000+028650FM-12+1270FLND V0200601N005110075019N0300001N1+02261+01381999999ADDGA1071+007509069GF107991071051008001999999MD1999999+0021ME1315459REMSYN098AAXX  30124 67561 42580 70610 10226 20138 48545 875// 333 58002 87625 555 66/// 77/// 8872/ 98092;
0091675610999992000050305004-13000+028650FM-15+1270FLND V0209999C00001220001CN0099001N1+01501+01301999999ADDMA1102201999999MW1001REMMET039FLND 030500Z 00000KT CAVOK 15/13 Q1022;EQDQ01+000000PRSWM2
0306675610999992000050306004-13000+028650SY-MT+1270FLND V0200601N00261220001CN0300001N1+01801+01381999999ADDAA199000091GF100991001001999999001001KA1120M+02891KA2120N+01281MA1102101999999MD1999999+0011ME1315359MW1001REMSYN107AAXX  03064 67561 32980 00605 10180 20138 48535 333 10289 20128 58001 555 00/// BB/// CC128 DD/// Q1 021.6;MET039FLND 030600Z 00605KT CAVOK 18/14 Q1021;EQDQ01+000000PRSWM2Q02  00002PRCP99
0091675610999992000050307004-13000+028650FM-15+1270FLND V0200601N00411220001CN0099001N1+02301+01401999999ADDMA1102201999999MW1001REMMET039FLND 030700Z 06008KT CAVOK 23/14 Q1022;EQDQ01+000000PRSWM2
0091675610999992000050308004-13000+028650FM-15+1270FLND V0200601N00411220001CN0099001N1+02501+01401999999ADDMA1102201999999MW1001REMMET039FLND 030800Z 06008KT CAVOK 25/14 Q1022;EQDQ01+000000PRSWM2
0238675610999992000050309004-13000+028650SY-MT+1270FLND V0200901N004112200019N0300001N1+02641+01471999999ADDGA1021+010509999GF101991011011012501001001MA1102201999999MD1999999+0071ME1315489MW1001REMSYN070AAXX  03094 67561 42680 10908 10264 20147 48548 81100 333 58007 81835;MET045FLND 030900Z 09008KT 9999 FEW035 26/15 Q1022;EQDQ01+000000PRSWM2
0139675610999992000050310004-13000+028650FM-15+1270FLND V0200701N001512200019N0112651N1+02701+01401999999ADDGA1021+012009999GF102991999999999999999999MA1102101999999MW1001REMMET045FLND 031000Z 07003KT 9999 FEW040 27/14 Q1021;EQDQ01+000000PRSWM2
0091675610999992000050311004-13000+028650FM-15+1270FLND V0203501N00151220001CN0099001N1+02901+01501999999ADDMA1102101999999MW1001REMMET039FLND 031100Z 35003KT CAVOK 29/15 Q1021;EQDQ01+000000PRSWM2
0160675610999992000050312004-13000+028650FM-12+1270FLND V0202801N001012200019N0300001N1+02891+01451999999ADDGA1031+015009089GF103991031021017501001001MD1999999+0071ME1315279REMSYN083AAXX  03124 67561 42780 32802 10289 20145 48527 83200 333 58007 83850 555 Q1 019.7;
0097675610999992000050313004-13000+028650FM-15+1270FLND V0203601N00261220001CN0099001N1+03001+01501999999ADDMA1101801999999MW1001REMMET045FLND 031300Z 36005KT CAVOK 30/15 Q1018 NOSIG;EQDQ01+000000PRSWM2
0091675610999992000050504004-13000+028650FM-15+1270FLND V0209999C00001220001CN0099001N1+01401+01301999999ADDMA1101801999999MW1001REMMET039FLND 050400Z 00000KT CAVOK 14/13 Q1018;EQDQ01+000000PRSWM2
0091675610999992000050505004-13000+028650FM-15+1270FLND V0209999C00001220001CN0099001N1+01501+01401999999ADDMA1101901999999MW1001REMMET039FLND 050500Z 00000KT CAVOK 15/14 Q1019;EQDQ01+000000PRSWM2
0310675610999992000050506004-13000+028650SY-MT+1270FLND V0200801N003112200019N0300001N1+01901+01521999999ADDAA199000091GF100991001001999999001001KA1120M+03041KA2120N+01321MA1102001999999MD1999999-0161ME1315249MW1001REMSYN107AAXX  05064 67561 32980 00806 10190 20152 48524 333 10304 20132 59016 555 00/// BB/// CC132 DD/// Q1 020.3;MET043FLND 0600Z 08006KT CAVOK 19/15 Q1020 NOSIG;EQDQ01+000000PRSWM2Q02  00002PRCP99
0138675610999992000050510004-13000+028650FM-15+1270FLND V0200601N002112200019N0112651N1+02801+01501999999ADDGA1021+012009999GF102991999999999999999999MA1101901999999MW1001REMMET044FLND 1000Z 06004KT 9999 FEW040 28/15 Q1019 ;EQDQ01+000000PRSWM2
0147675610999992000050512004-13000+028650FM-12+1270FLND V0200601N002110150019N0300001N1+02991+01541999999ADDGA1051+015009029GF105991051021017501001001MD1999999-0081ME1315259REMSYN070AAXX  05124 67561 42780 50604 10299 20154 48525 85200 333 59008 85850;
0221675610999992000051006004-13000+028650FM-12+1270FLND V0200401N00151105001CN0300001N1+01841+01541999999ADDAA199000091GA1021+004509089GF106991021011004501001081KA1120M+02791KA2120N+01351MD1999999-0011ME1315389REMSYN088AAXX  10064 67561 32480 60403 10184 20154 48538 82108 333 10279 20135 59001 82815 85280;EQDQ01  00002PRCP99
0247675610999992000051012004-13000+028650SY-MT+1270FLND V0200901N001510135019N0300001N1+02441+01321999999ADDGA1071+013509999GA2021+090009999GF107991061051012501001021MD1999999+0001ME1315139MW1001REMSYN076AAXX  10124 67561 42680 70903 10244 20132 48513 86502 333 58000 86645 83080;MET047FLND 101200Z 09003KT 9999 BKN045 SCT300 24/13 ;EQDQ01+000000PRSWM2
0162675610999992000051104004-13000+028650FM-15+1270FLND V0209999C000012200019N0112651N1+01301+01101999999ADDGA1021+002409999GA2021+004509999GF104991999999999999999999MA1102101999999MW1001REMMET052FLND 110400Z 00000KT 9999 SCT008 SCT015 13/11 Q1021;EQDQ01+000000PRSWM2
0302675610999992000051106004-13000+028650FM-12+1270FLND V0201001N004112200019N0300001N1+01831+01461999999ADDAA199000091AY101061AY201061GA1011+006009069GA2011+090009009GF102991011051008001001011KA1120M+02711KA2120N+01251MD1999999+0061ME1315449MW1031REMSYN131AAXX  11064 67561 32580 21008 10183 20146 48544 70300 81501 333 10271 20125 58006 81620 81080 555 00/// BB/// CC/// DD/// Q1 022.6;EQDQ01  00002PRCP99
0257675610999992000051112004-13000+028650SY-MT+1270FLND V0200901N002610135019N0300001N1+02681+01281999999ADDGA1071+013509029GF199999061021012501001001MA1101901999999MD1999999+0041ME1315259MW1001REMSYN070AAXX  11124 67561 42680 60905 10268 20128 48525 86200 333 58004 86845;MET048FLND 111200Z 09005KT 9999 BKN045TCU 27/13 Q1019;EQDQ01+000062SCOTCVQ02+000000PRSWM2
0097675610999992000051115004-13000+028650FM-15+1270FLND V0201401N00311220001CN0099001N1+02401+01201999999ADDMA1101801999999MW1001REMMET045FLND 111500Z 14006KT CAVOK 24/12 Q1018 NOSIG;EQDQ01+000000PRSWM2
0315675610999992000051206004-13000+028650SY-MT+1270FLND V0201501N002112200019N0300001N1+01791+01541999999ADDAA199000091GA1021+003609999GF103991011011004501031021KA1120M+02751KA2120N+01201MA1102101999999MD1999999-0081ME1315369MW1001REMSYN094AAXX  12064 67561 32480 31504 10179 20154 48536 81132 333 10275 20120 59008 81812 81361 82080;MET045FLND 120600Z 15004KT 9999 FEW012 18/15 Q1021;EQDQ01+000000PRSWM2Q02  00002PRCP99
0231675610999992000051406004-13000+028650FM-12+1270FLND V0209999C000012200019N0300001N1+01541+01211999999ADDAA199000091GA1011+033009039GF101991011001999999031001KA1120M+02301KA2120N+01001MD1999999+0021ME1315469REMSYN098AAXX  14064 67561 32980 10000 10154 20121 48546 81030 333 10230 20100 58002 81361 555 00/// 91023;EQDQ01  00002PRCP99
0181675610999992000051412004-13000+028650FM-12+1270FLND V0209999C000010150019N0300001N1+02521+01221999999ADDAY111061AY211061GA1071+015009089GF107991071021017501001001MD1999999-0081ME1315329MW1031REMSYN082AAXX  14124 67561 42780 70000 10252 20122 48532 70311 87200 333 59008 87850 91020;
0281675610999992000051506004-13000+028650SY-MT+1270FLND V0209999C00001220001CN0300001N1+01711+01231999999ADDAA199000091GF101991001001999999001021KA1120M+02711KA2120N+01151MA1102401999999MD1999999-0071ME1315559MW1001REMSYN082AAXX  15064 67561 32980 10000 10171 20123 48555 80002 333 10271 20115 59007 81080;MET039FLND 150600Z 00000KT CAVOK 17/12 Q1024;EQDQ01+000000PRSWM2Q02  00002PRCP99
0153675610999992000051512004-13000+028650FM-12+1270FLND V0209999C000010150019N0300001N1+02751+01111999999ADDGA1061+015009089GF106991061021017501031001MD1999999+0011ME1315389REMSYN076AAXX  15124 67561 42780 60000 10275 20111 48538 86230 333 58001 86850 81362;
0370675610999992000051606004-13000+028650SY-MT+1270FLND V0200901N002112200019N0300001N1+01581+01171999999ADDAA199000091AY101061AY201061GA1021+030009039GF102991021001999999031001KA1120M+02881KA2120N+01031MA1102301999999MD1999999-0021ME1315499MW1031REMSYN125AAXX  16064 67561 32980 20904 10158 20117 48549 70300 82030 333 10288 20103 59002 82360 555 00/// BB/// CC103 DD/// Q1 023.8;MET037FLND 0600Z 09004KT CAVOK 16/13 Q1023;EQDQ01+000000PRSWM2Q02  00002PRCP99Q03    003PRSWM1
0095675610999992000051610004-13000+028650FM-15+1270FLND V0209999C00001220001CN0099001N1+02601+01101999999ADDMA1102201999999MW1001REMMET043FLND 1000Z 00000KT CAVOK 26/11 Q1022 NOSIG;EQDQ01+000000PRSWM2
0095675610999992000051611004-13000+028650FM-15+1270FLND V0200701N00151220001CN0099001N1+02701+01201999999ADDMA1102101999999MW1001REMMET043FLND 1100Z 07003KT CAVOK 27/12 Q1021 NOSIG;EQDQ01+000000PRSWM2
0303675610999992000051612004-13000+028650SY-MT+1270FLND V0200901N004112200019N0300001N1+02851+01041999999ADDAY101061AY201061GA1011+015009089GA2011+033009039GF101991011011017501081001MA1102001999999MD1999999-0031ME1315369MW1021REMSYN095AAXX  16124 67561 42780 10908 10285 20104 48536 70200 81180 333 59003 81850 81361 555 Q1 020.6;MET037FLND 1200Z 09008KT CAVOK 29/10 Q1020;EQDQ01+000000PRSWM2Q02    003PRSWM1
0316675610999992000051706004-13000+028650SY-MT+1270FLND V0200801N00101220001CN0300001N1+01721+01131999999ADDAA199000091GF101991011001999999031001KA1120M+02901KA2120N+01191MA1102301999999MD1999999-0011ME1315519MW1001REMSYN119AAXX  17064 67561 32980 10802 10172 20113 48551 81030 333 10290 20119 59001 81361 555 00/// BB/// CC119 DD/// Q1 023.7;MET037FLND 0600Z 08002KT CAVOK 17/11 Q1023;EQDQ01+000000PRSWM2Q02  00002PRCP99
0096675610999992000051711004-13000+028650FM-15+1270FLND V0200601N00261220001CN0099001N1+02701+00901999999ADDMA1102101999999MW1001REMMET044FLND 1100Z 06005KT CAVOK 27/09 Q1021 NOSIG ;EQDQ01+000000PRSWM2
0238675610999992000051712004-13000+028650SY-MT+1270FLND V0200601N004112200019N0300001N1+02801+00881999999ADDGA1011+033009079GF101991011001999999031001MA1102001999999MD1999999-0021ME1315339MW1001REMSYN070AAXX  17124 67561 42980 10608 10280 20088 48533 81030 333 59002 81361;MET045FLND 171200Z 06008KT CAVOK 28/09 Q1020 NOSIG;EQDQ01+000000PRSWM2
0231675610999992000051715004-13000+028650SY-MT+1270FLND V0201501N00511220001CN0300001N1+02541+00761999999ADDGF100991001001999999001001KA1240M+02811MA1102001999999MD1999999-0101ME1315289MW1001REMSYN074AAXX  17154 67561 42980 01510 10254 20076 48528 333 59010 555 10281 91020;MET037FLND 1500Z 15010KT CAVOK 25/08 Q1020;EQDQ01+000000PRSWM2
0313675610999992000051806004-13000+028650SY-MT+1270FLND V0209999C00001220001CN0300001N1+01571+01131999999ADDAA199000091AY101061AY201061GF100991001001999999001001KA1120M+02811KA2120N+00951MA1102201999999MD1999999-0071ME1315439MW1051REMSYN076AAXX  18064 67561 31980 00000 10157 20113 48543 70500 333 10281 20095 59007;MET045FLND 180600Z 00000KT CAVOK 16/11 Q1022 NOSIG;EQDQ01+000000PRSWM2Q02  00002PRCP99Q03    003PRSWM1
0135675610999992000051809004-13000+028650FM-12+1270FLND V0200601N002112200019N0300001N1+02381+01061999999ADDGA1001+999999999GF100991001001999999001001MD1999999-0041ME1315539REMSYN058AAXX  18094 67561 42980 00604 10238 20106 48553 333 59004;
0147675610999992000051912004-13000+028650FM-12+1270FLND V0209999C000012200019N0300001N1+02791+01071999999ADDGA1041+015009029GF104991041011017501001001MD1999999+0011ME1315349REMSYN070AAXX  19124 67561 42780 40000 10279 20107 48534 84100 333 58001 84850;
0247675610999992000052006004-13000+028650FM-12+1270FLND V0200601N002612200019N0250001N1+01651+01341999999ADDAA199000091AY101061AY201061GA1001+999999999GF100991001001999999001001KA1120M+02961KA2120N+01041MD1999999+0001ME1315439MW1051REMSYN092AAXX  20064 67561 31975 00605 10165 20134 48543 70500 333 10296 20104 58000 555 00/// 91022;EQDQ01  00002PRCP99
0249675610999992000052306004-13000+028650FM-12+1270FLND V0209999C000012200019N0030001N1+01451+01181999999ADDAA199000091AY101061AY201061GA1011+036009039GF102991011001999999031021KA1120M+02861KA2120N+00891MD1999999-0041ME1315419MW1041REMSYN094AAXX  23064 67561 31930 20000 10145 20118 48541 70400 81032 333 10286 20089 59004 81362 82080;EQDQ01  00002PRCP99
0095675610999992000052505004-13000+028650FM-15+1270FLND V0209999C00001220001CN0099001N1+01101+01001999999ADDMA1102101999999MW1001REMMET043FLND 0500Z 00000KT CAVOK 11/10 Q1021 NOSIG;EQDQ01+000000PRSWM2
0231675610999992000052506004-13000+028650FM-12+1270FLND V0209999C000012200019N0080001N1+01601+01421999999ADDAA199000091AY101061AY201061GA1001+999999999GF100991001001999999001001KA1120M+02931KA2120N+01001MD1999999+0021ME1315389MW1041REMSYN076AAXX  25064 67561 31958 00000 10160 20142 48538 70400 333 10293 20100 58002;EQDQ01  00002PRCP99
0163675610999992000052509004-13000+028650FM-12+1270FLND V02099999999992200019N0300001N1+02571+01111999999ADDAY101031AY201031GA1001+999999999GF100991001001999999001001MD1999999+0031ME1315429MW1021REMSYN064AAXX  25094 67561 42980 09002 10257 20111 48542 70200 333 58003;
0169675610999992000052512004-13000+028650FM-12+1270FLND V0202301N002112200019N0300001N1+02891+00861999999ADDAY101061AY201061GA1011+021009029GF101991999999022501999999MD1999999-0051ME1315149MW1031REMSYN070AAXX  25124 67561 42880 12304 10289 20086 48514 70300 333 59005 81857;
0110675610999992000052604004-13000+028650FM-15+1270FLND V0209999C000012200019N0080001N1+01101+01001999999ADDMA1102101999999MW1041REMMET042FLND 260400Z 00000KT 8000M FU 11/10 Q1021;EQDQ01+000003PRSWM1Q02    003PRSWM1
0219675610999992000052606004-13000+028650FM-12+1270FLND V0209999C000012200019N0500001N1+01571+01191999999ADDAA199000091GA1001+999999999GF100991001001999999001001KA1120M+02981KA2120N+01021MD1999999+0001ME1315379REMSYN086AAXX  26064 67561 31984 00000 10157 20119 48537 333 10298 20102 58000 555 00/// 91022;EQDQ01  00002PRCP99
0147675610999992000052612004-13000+028650FM-12+1270FLND V0202601N001012200019N0300001N1+02741+00941999999ADDGA1021+018009029GF102991021011017501001001MD1999999+0041ME1315209REMSYN070AAXX  26124 67561 42780 22602 10274 20094 48520 82100 333 58004 82856;
0231675610999992000052706004-13000+028650FM-12+1270FLND V0209999C000012200019N0080001N1+01601+01171999999ADDAA199000091AY141061AY201061GA1001+999999999GF100991001001999999001001KA1120M+02891KA2120N+00981MD1999999-0101ME1315249MW1041REMSYN076AAXX  27064 67561 31958 00000 10160 20117 48524 70440 333 10289 20098 59010;EQDQ01  00002PRCP99
0147675610999992000052709004-13000+028650FM-12+1270FLND V0201601N002612200019N0300001N1+02601+00841999999ADDGA1011+013509029GF101991011011012501001001MD1999999-0151ME1315339REMSYN070AAXX  27094 67561 42680 11605 10260 20084 48533 81100 333 59015 81845;
0169675610999992000052809004-13000+028650FM-12+1270FLND V0209999C000012200019N0280001N1+02531+00721999999ADDAY101031AY201031GA1001+999999999GF100991001001999999001001MD1999999+0031ME1315369MW1021REMSYN070AAXX  28094 67561 42978 00000 10253 20072 48536 70200 333 58003 91020;
0175675610999992000052904004-13000+028650FM-12+1270FLND V0209999C000012200019N0004001N1+00741+00661999999ADDAY101999AY201999GA1011+090009019GF101991001001999999001011MD1999999+0751ME1315209MW1041REMSYN076AAXX  29044 67561 41904 10000 10074 20066 48520 70400 80001 333 58075 81080;
0348675610999992000052906004-13000+028650SY-MT+1270FLND V0209999C00001220001CN0200001N1+01551+00801999999ADDAA199000091AY141061AY201061GF100991001001999999001001KA1120M+02931KA2120N+01551MA1102101999999MD1999999+0091ME1315359MW1051REMSYN113AAXX  29064 67561 31970 00000 10155 20080 48535 70540 333 10293 20155 58009 555 00/// BB/// CC155 DD/// Q1 021.8;MET043FLND 0600Z 00000KT CAVOK 15/08 Q1021 NOSIG;EQDQ01+000000PRSWM2Q02  00002PRCP99Q03    003PRSWM1
0169675610999992000052912004-13000+028650FM-12+1270FLND V0201201N001512200019N0007001N1+02761+00561999999ADDAY141061AY201061GA1001+999999999GF100991001001999999001001MD1999999+0101ME1315269MW1041REMSYN070AAXX  29124 67561 41907 01203 10276 20056 48526 70440 333 58010 91019;
0070675610999992000053005004-13000+028650FM-15+1270FLND V0209999C00001220001CN0099001N1+01201+00801999999ADDMW1001REMMET033FLND 300500Z 00000KT CAVOK 12/08;EQDQ01+000000PRSWM2
0317675610999992000053006004-13000+028650SY-MT+1270FLND V0200701N002612200019N0250001N1+01641+01011999999ADDAA199000091AY101061AY201061GF100991001001999999001001KA1120M+02801KA2120N+00911MA1102201999999MD1999999+0031ME1315389MW1051REMSYN086AAXX  30064 67561 31975 00705 10164 20101 48538 70500 333 10280 20091 58003 555 00///;MET039FLND 300600Z 07005KT CAVOK 16/10 Q1022;EQDQ01+000000PRSWM2Q02  00002PRCP99Q03    003PRSWM1
0231675610999992000053106004-13000+028650FM-12+1270FLND V0200901N001512200019N0200001N1+01801+01241999999ADDAA199000091AY101061AY201061GA1001+999999999GF100991001001999999001001KA1120M+02811KA2120N+00971MD1999999+0001ME1315499MW1051REMSYN076AAXX  31064 67561 31970 00903 10180 20124 48549 70500 333 10281 20097 58000;EQDQ01  00002PRCP99
0095675610999992000053107004-13000+028650FM-15+1270FLND V0200901N00461220001CN0099001N1+02201+01101999999ADDMA1102301999999MW1001REMMET043FLND 0700Z 09009KT CAVOK 22/11 Q1023 NOSIG;EQDQ01+000000PRSWM2
0287675610999992000053109004-13000+028650SY-MT+1270FLND V0200901N003612200019N0300001N1+02391+00951999999ADDAY101031AY201031GA1031+015009089GF103991031011017501001001MA1102301999999MD1999999+0041ME1315539MW1031REMSYN089AAXX  31094 67561 42780 30907 10239 20095 48553 70300 83100 333 58004 83850 555 Q1 023.1;MET043FLND 0900Z 09007KT CAVOK 24/10 Q1023 NOSIG;EQDQ01+000000PRSWM2Q02    003PRSWM1
0231675610999992000060106004-13000+028650FM-12+1270FLND V0201001N003112200019N0250001N1+01761+00961999999ADDAA199000091AY101061AY201061GA1001+999999999GF100991001001999999001001KA1120M+02691KA2120N+01091MD1999999+0071ME1315469MW1051REMSYN076AAXX  01064 67561 31975 01006 10176 20096 48546 70500 333 10269 20109 58007;EQDQ01  00002PRCP99
0166675610999992000060109004-13000+028650FM-12+1270FLND V0200901N004112200019N0300001N1+02311+00801999999ADDGA1021+090009029GF102991021011012501001999MD1999999+0011ME1315329REMSYN070AAXX  01094 67561 42680 20908 10231 20080 48532 82100 333 58001 82580;EQDQ01+000002SCOHCG
0147675610999992000060112004-13000+028650FM-12+1270FLND V0201201N003112200019N0300001N1+02451+00861999999ADDGA1031+018009029GF103991031011017501001001MD1999999-0011ME1315299REMSYN070AAXX  01124 67561 42780 31206 10245 20086 48529 83100 333 59001 83856;
0250675610999992000060206004-13000+028650FM-12+1270FLND V0200901N003112200019N0250001N1+01451+00921999999ADDAA199000091AY101061AY201061GA1001+999999999GF100991001001999999001001KA1120M+02551KA2120N+00941MD1999999-0061ME1315389MW1051REMSYN095AAXX  02064 67561 31975 00906 10145 20092 48538 70500 333 10255 20094 59006 555 00/// Q1 022.3;EQDQ01  00002PRCP99
0089675610999992000060304004-13000+028650FM-15+1270FLND V0209999C00001220001CN0099001N1+00801+00801999999ADDMA1102101999999MW1001REMMET037FLND 0400Z 00000KT CAVOK 08/08 Q1021;EQDQ01+000000PRSWM2
0153675610999992000060412004-13000+028650FM-12+1270FLND V0201101N002612200019N0300001N1+02641+00921999999ADDGA1011+018009089GF101991011011017501031001MD1999999+0171ME1315429REMSYN076AAXX  04124 67561 42780 11105 10264 20092 48542 81130 333 58017 81856 81363;
0269675610999992000060506004-13000+028650FM-12+1270FLND V0200901N002112200019N0250001N1+01641+01321999999ADDAA199000091AY101061AY201061GA1011+005409069GA2021+033009039GF102991999999004501999999KA1120M+02701KA2120N+01131MD1999999+0061ME1315539MW1051REMSYN098AAXX  05064 67561 31475 20904 10164 20132 48553 70500 333 10270 20113 58006 81618 82361 555 00///;EQDQ01  00002PRCP99
0332675610999992000060706004-13000+028650SY-MT+1270FLND V0200801N002110330019N0300001N1+01481+01161999999ADDAA199000091GA1071+033009039GF107991071001999999031001KA1120M+02491KA2120N+01301MA1102301999999MD1999999+0021ME1315459MW1001REMSYN119AAXX  07064 67561 32980 70804 10148 20116 48545 87030 333 10249 20130 58002 87361 555 00/// BB/// CC130 DD/// Q1 023.2;MET037FLND 0600Z 08004KT CAVOK 15/12 Q1023;EQDQ01+000000PRSWM2Q02  00002PRCP99
0215675610999992000060806004-13000+028650FM-12+1270FLND V0200901N004112200019N0300001N1+01531+01221999999ADDAA199000091GA1011+033009079GF101991011001999999031001KA1120M+02651KA2120N+01101MD1999999+0091ME1315559REMSYN082AAXX  08064 67561 32980 10908 10153 20122 48555 81030 333 10265 20110 58009 81361;EQDQ01  00002PRCP99
0147675610999992000060809004-13000+028650FM-12+1270FLND V0200801N006212200019N0300001N1+02341+00511999999ADDGA1011+033009079GF101991011001999999031001MD1999999+0071ME1315619REMSYN070AAXX  08094 67561 42980 10812 10234 20051 48561 81030 333 58007 81361;
0147675610999992000060812004-13000+028650FM-12+1270FLND V0201101N002112200019N0300001N1+02671+00961999999ADDGA1021+015009029GF102991021011017501001001MD1999999+0091ME1315499REMSYN070AAXX  08124 67561 42780 21104 10267 20096 48549 82100 333 58009 82850;
0091675610999992000060813004-13000+028650FM-15+1270FLND V0201201N00511220001CN0099001N1+02601+01001999999ADDMA1102101999999MW1001REMMET039FLND 081300Z 12010KT CAVOK 26/10 Q1021;EQDQ01+000000PRSWM2
0253675610999992000061106004-13000+028650FM-12+1270FLND V0209999C000012200019N0250001N1+01601+01191999999ADDAA199000091AY101061AY201061GA1011+033009039GF101991011001999999031001KA1120M+02711KA2120N+01101MD1999999-0021ME1315579MW1051REMSYN098AAXX  11064 67561 31975 10000 10160 20119 48557 70500 81030 333 10271 20110 59002 81361 555 00///;EQDQ01  00002PRCP99
0175675610999992000061112004-13000+028650FM-12+1270FLND V0201601N005710180019N0300001N1+02541+00521999999ADDAY141061AY211061GA1061+018009029GF106991061021017501001001MD1999999-0061ME1315409MW1021REMSYN076AAXX  11124 67561 41780 61611 10254 20052 48540 70241 86200 333 59006 86856;
0253675610999992000061206004-13000+028650FM-12+1270FLND V0209999C000012200019N0250001N1+01551+01191999999ADDAA199000091AY101061AY201061GA1011+030009039GF101991011001999999031001KA1120M+02701KA2120N+01041MD1999999-0041ME1315529MW1051REMSYN098AAXX  12064 67561 31975 10000 10155 20119 48552 70500 81030 333 10270 20104 59004 81360 555 00///;EQDQ01  00002PRCP99
0147675610999992000061209004-13000+028650FM-12+1270FLND V0201301N002112200019N0300001N1+02411+00471999999ADDGA1041+015009029GF104991041021017501001001MD1999999-0041ME1315619REMSYN070AAXX  12094 67561 42780 41304 10241 20047 48561 84200 333 59004 84850;
0173675610999992000061212004-13000+028650FM-12+1270FLND V0200801N003610210019N0300001N1+02381+00581999999ADDGA1011+021009089GA2071+021009069GF107991071081022501001001MD1999999+0051ME1315439REMSYN080AAXX  12124 67561 42880 70807 10238 20058 48543 87800 333 58005 81857 87657 555;
0097675610999992000061217004-13000+028650FM-15+1270FLND V0201101N00311220001CN0099001N1+02001+00801999999ADDMA1102301999999MW1001REMMET045FLND 121700Z 11006KT CAVOK 20/08 Q1023 NOSIG;EQDQ01+000000PRSWM2
0216675610999992000061304004-13000+028650SY-MT+1270FLND V0200601N001012200019N0300001N1+01301+00921999999ADDGF101991011001999999031001MA1102401999999MD1999999+0151ME1315579MW1001REMSYN070AAXX  13044 67561 42980 10602 10130 20092 48557 81030 333 58015 81361;MET039FLND 130400Z 06002KT CAVOK 13/09 Q1024;EQDQ01+000000PRSWM2
0190675610999992000061309004-13000+028650SY-MT+1270FLND V0200901N005112200019N0300001N1+02221+00841999999ADDGF101991011011012501001001MA1102511999999ME1315629MW1001REMSYN054AAXX  13094 67561 42680 10910 10222 20084 48562 81100;MET043FLND 0900Z 09010KT CAVOK 22/08 Q1025 NOSIG;EQDQ01+000000PRSWM2
0147675610999992000061312004-13000+028650FM-12+1270FLND V0201601N002610180019N0300001N1+02351+00721999999ADDGA1061+018009029GF106991061021017501001001MD1999999+0051ME1315489REMSYN070AAXX  13124 67561 42780 61605 10235 20072 48548 86200 333 58005 86856;
0147675610999992000061412004-13000+028650FM-12+1270FLND V0209999C000010180019N0300001N1+02381+00641999999ADDGA1061+018009029GF106991061021017501001001MD1999999-0091ME1315399REMSYN070AAXX  14124 67561 42780 60000 10238 20064 48539 86200 333 59009 86856;
0213675610999992000061506004-13000+028650FM-12+1270FLND V0201101N004112200019N0300001N1+01541+01151999999ADDAA199000091GA1001+999999999GF100991001001999999001001KA1120M+02471KA2120N+00811MD1999999-0121ME1315479REMSYN080AAXX  15064 67561 32980 01108 10154 20115 48547 333 10247 20081 59012 555 00///;EQDQ01  00002PRCP99
0147675610999992000061509004-13000+028650FM-12+1270FLND V0201301N003110120019N0300001N1+02201+00831999999ADDGA1051+012009029GF105991051021012501001001MD1999999-0111ME1315569REMSYN070AAXX  15094 67561 42680 51306 10220 20083 48556 85200 333 59011 85840;
0147675610999992000061512004-13000+028650FM-12+1270FLND V0201001N002110150019N0300001N1+02321+00771999999ADDGA1051+015009029GF105991051021017501001001MD1999999-0071ME1315329REMSYN070AAXX  15124 67561 42780 51004 10232 20077 48532 85200 333 59007 85850;
0241675610999992000061606004-13000+028650FM-12+1270FLND V0200901N005112200019N0250001N1+01501+01151999999ADDAA199000091AY141061AY201061GA1001+999999999GF100991001001999999001001KA1120M+02491KA2120N+00941MD1999999+0031ME1315409MW1051REMSYN086AAXX  16064 67561 31975 00910 10150 20115 48540 70540 333 10249 20094 58003 555 00///;EQDQ01  00002PRCP99
0179675610999992000061615004-13000+028650FM-12+1270FLND V0200301N001512200019N0300001N1+02361+00881999999ADDGA1011+018009069GF101991011041017501001001KA1240M+02641MD1999999-0051ME1315229REMSYN089AAXX  16154 67561 41780 10303 10236 20088 48522 81400 333 59005 81656 555 10264 Q1 019.6;
0166675610999992000061712004-13000+028650FM-12+1270FLND V0209999C000012200019N0300001N1+02631+00751999999ADDGA1011+018009029GF102991999011017501001001MD1999999+0011ME1315329REMSYN070AAXX  17124 67561 42780 20000 10263 20075 48532 81100 333 58001 81856;EQDQ01+000012SCOTLC
0091675610999992000061716004-13000+028650FM-15+1270FLND V0200701N00211220001CN0099001N1+02801+00801999999ADDMA1102001999999MW1001REMMET039FLND 171600Z 07004KT CAVOK 28/08 Q1020;EQDQ01+000000PRSWM2
0091675610999992000061804004-13000+028650FM-15+1270FLND V0209999C00001220001CN0099001N1+01001+00901999999ADDMA1102201999999MW1001REMMET039FLND 180400Z 00000KT CAVOK 10/09 Q1022;EQDQ01+000000PRSWM2
0079675610999992000061805004-13000+028650FM-15+1270FLND V02099999999992200019N0099001N1+99999+99999999999ADDMW1001REMMET042FLND 180500Z CALM CAVOK 10/09 Q1023 NOSIG;EQDQ01+000000PRSWM2
0268675610999992000061806004-13000+028650FM-12+1270FLND V0209999C000012200019N0200001N1+01541+01081999999ADDAA199000091AY101061AY201061GA1001+999999999GF100991001001999999001001KA1120M+02741KA2120N+00921MD1999999+0141ME1315569MW1041REMSYN113AAXX  18064 67561 31970 00000 10154 20108 48556 70400 333 10274 20092 58014 555 00/// BB/// CC094 DD/// Q1 024.3;EQDQ01  00002PRCP99
0182675610999992000061809004-13000+028650FM-12+1270FLND V0200801N003612200019N0300001N1+02481+00931999999ADDGA1011+015009089GA2011+090009009GF101991011011017501001011MD1999999+0101ME1315639REMSYN089AAXX  18094 67561 42780 10807 10248 20093 48563 81101 333 58010 81850 81080 555 Q1 024.1;
0147675610999992000061812004-13000+028650FM-12+1270FLND V0200801N002612200019N0300001N1+02651+00771999999ADDGA1041+018009029GF104991041011017501001001MD1999999+0131ME1315459REMSYN070AAXX  18124 67561 42780 40805 10265 20077 48545 84100 333 58013 84856;
0147675610999992000062009004-13000+028650FM-12+1270FLND V0200901N004612200019N0300001N1+02321+01291999999ADDGA1011+009009029GF101991011011999999001001MD1999999-0041ME1315509REMSYN070AAXX  20094 67561 42980 10909 10232 20129 48550 81100 333 59004 81830;
0147675610999992000062012004-13000+028650FM-12+1270FLND V0201101N001512200019N0300001N1+02611+01181999999ADDGA1021+015009029GF102991021021017501001001MD1999999-0011ME1315299REMSYN070AAXX  20124 67561 42780 21103 10261 20118 48529 82200 333 59001 82850;
0097675610999992000062108004-13000+028650FM-15+1270FLND V0200901N00571220001CN0099001N1+02101+01101999999ADDMA1102301999999MW1001REMMET045FLND 210800Z 09011KT CAVOK 21/11 Q1023 NOSIG;EQDQ01+000000PRSWM2
0160675610999992000062109004-13000+028650FM-12+1270FLND V0200901N005712200019N0300001N1+02271+01121999999ADDGA1011+030009039GF101991011001999999031001MD1999999-0011ME1315489REMSYN083AAXX  21094 67561 42980 10911 10227 20112 48548 81030 333 59001 81360 555 Q1 022.6;
0147675610999992000062112004-13000+028650FM-12+1270FLND V0200701N001512200019N0300001N1+02631+01031999999ADDGA1011+024009029GF101991011011017501001001MD1999999-0021ME1315279REMSYN070AAXX  21124 67561 42780 10703 10263 20103 48527 81100 333 59002 81858;
0198675610999992000062115004-13000+028650FM-12+1270FLND V0200801N011812200019N0300001N1+02551+01091999999ADDGA1011+021009049GF101991011041022501999001KA1240M+02741MD1999999-0071ME1315129REMSYN089AAXX  21154 67561 42880 10823 10255 20109 48512 81400 333 59007 81457 555 10274 Q1 018.9;EQDQ01+000002SCOMCG
0243675610999992000062206004-13000+028650FM-12+1270FLND V0200601N003112200019N0250001N1+01561+01241999999ADDAA199000091AY101061AY201061GA1011+033009079GF101991011001999999031001KA1120M+02741KA2120N+01081MD1999999-0031ME1315389MW1051REMSYN088AAXX  22064 67561 31975 10606 10156 20124 48538 70500 81030 333 10274 20108 59003 81361;EQDQ01  00002PRCP99
0147675610999992000062209004-13000+028650FM-12+1270FLND V0200801N004112200019N0300001N1+02351+01081999999ADDGA1031+033009079GF103991031001999999031001MD1999999-0011ME1315489REMSYN070AAXX  22094 67561 42980 30808 10235 20108 48548 83030 333 59001 83361;
0147675610999992000062212004-13000+028650FM-12+1270FLND V0209999C000010240019N0300001N1+02651+01051999999ADDGA1051+024009029GF105991051021017501001001MD1999999+0041ME1315319REMSYN070AAXX  22124 67561 42780 50000 10265 20105 48531 85200 333 58004 85858;
0253675610999992000062306004-13000+028650FM-12+1270FLND V0209999C000012200019N0050001N1+01411+01161999999ADDAA199000091AY101061AY201061GA1011+030009039GF101991011001999999031001KA1120M+02811KA2120N+01011MD1999999+0021ME1315399MW1041REMSYN098AAXX  23064 67561 32950 10000 10141 20116 48539 70400 81030 333 10281 20101 58002 81360 555 00///;EQDQ01  00002PRCP99
0181675610999992000062309004-13000+028650FM-12+1270FLND V0200601N003112200019N0200001N1+02431+01121999999ADDAY101031AY201031GA1011+012009089GF101991011011012501031001MD1999999+0021ME1315519MW1051REMSYN082AAXX  23094 67561 41670 10606 10243 20112 48551 70500 81130 333 58002 81840 81360;
0179675610999992000062312004-13000+028650FM-12+1270FLND V0209999C000010180019N0200001N1+02701+00941999999ADDAY121061AY221061GA1061+018009089GF106991061021999999001001MD1999999+0011ME1315339MW1051REMSYN080AAXX  23124 67561 41970 60000 10270 20094 48533 70522 86200 333 58001 86856 555;
0265675610999992000062406004-13000+028650FM-12+1270FLND V0209999C000012200019N0050001N1+01501+01151999999ADDAA199000091AY101061AY201061GA1001+999999999GF100991001001999999001001KA1120M+02801KA2120N+01001MD1999999+0051ME1315439MW1041REMSYN110AAXX  24064 67561 31950 00000 10150 20115 48543 70400 333 10280 20100 58005 555 00/// BB/// CC100 DD/// 11023;EQDQ01  00002PRCP99
0217675610999992000062409004-13000+028650FM-12+1270FLND V0201401N006212200019N0250001N1+02491+00681999999ADDAY101031AY201031GA1031+018009089GF103991031011017501001001KA1999M+99999MD1999999+0021ME1315539MW1051REMSYN086AAXX  24094 67561 41775 31412 10249 20068 48553 70500 83100 333 58002 83856 555 11023;EQDQ01 -00232ATMX  
0151675610999992000062412004-13000+028650FM-12+1270FLND V0201201N005110180019N0300001N1+02561+00791999999ADDGA1061+018009089GF106991061021017501001001MD1999999+0001ME1315319REMSYN074AAXX  24124 67561 42780 61210 10256 20079 48531 86200 333 58000 86856 555;
0243675610999992000062606004-13000+028650FM-12+1270FLND V0209999C000012200019N0150001N1+01301+00981999999ADDAA199000091AY101061AY201061GA1041+033009079GF104991041001999999031001KA1120M+02551KA2120N+00921MD1999999+0181ME1315649MW1051REMSYN088AAXX  26064 67561 31965 40000 10130 20098 48564 70500 84030 333 10255 20092 58018 84361;EQDQ01  00002PRCP99
0153675610999992000062609004-13000+028650FM-12+1270FLND V0201201N005712200019N0300001N1+02161+00881999999ADDGA1011+012009089GF101991011011012501031001MD1999999+0061ME1315739REMSYN076AAXX  26094 67561 42680 11211 10216 20088 48573 81130 333 58006 81840 81361;
0251675610999992000062612004-13000+028650SY-MT+1270FLND V0201301N005110150019N0300001N1+02301+00621999999ADDGA1061+015009089GF106991061021017501001001MA1102201999999MD1999999+0101ME1315499MW1001REMSYN083AAXX  26124 67561 42780 61310 10230 20062 48549 86200 333 58010 86850 555 Q1 022.7;MET045FLND 261200Z 13010KT CAVOK 23/06 Q1022 NOSIG;EQDQ01+000000PRSWM2
0113675610999992000062614004-13000+028650FM-15+1270FLND V0201401N00511220001CN0099001N1+01102+00701999999ADDMA1102201999999MW1001REMMET045FLND 261400Z 14010KT CAVOK 11/07 Q1022 NOSIG;EQDQ01+001103ATOT  Q02+000000PRSWM2
0124675610999992000062706004-13000+028650FM-12+1270FLND V0201101N005112200019N0300001N1+01651+00921999999ADDAA199000091GA1001+999999999GF100991001001999999001001KA1999M+02451KA2999N+01181MD1999999+0011ME1315689EQDQ01  00002PRCP99
0147675610999992000062709004-13000+028650FM-12+1270FLND V0200901N007712200019N0300001N1+02261+00841999999ADDGA1011+013509029GF101991011011012501001001MD1999999+0001ME1315749REMSYN070AAXX  27094 67561 42680 10915 10226 20084 48574 81100 333 58000 81845;
0249675610999992000062712004-13000+028650SY-MT+1270FLND V0200901N004612200019N0300001N1+02491+00571999999ADDGA1021+018009029GF102991021011017501001001MA1102201999999MD1999999-0011ME1315509MW1001REMSYN083AAXX  27124 67561 42780 20909 10249 20057 48550 82100 333 59001 82856 555 Q1 022.6;MET043FLND 1200Z 09009KT CAVOK 25/06 Q1022 NOSIG;EQDQ01+000000PRSWM2
0166675610999992000062812004-13000+028650FM-12+1270FLND V0201001N006212200019N0300001N1+02271+00681999999ADDGA1041+018009059GF104991041051022501999001MD1999999+0021ME1315509REMSYN070AAXX  28124 67561 42880 41012 10227 20068 48550 84500 333 58002 84656;EQDQ01+000002SCOMCG
0318675610999992000062906004-13000+028650SY-MT+1270FLND V0201401N00771220001CN0300001N1+01441+00781999999ADDAA199000091GF101991011001999999031001KA1120M+02381KA2120N+01151MA1102511999999MD1999999+0021ME1315649MW1001REMSYN119AAXX  29064 67561 32980 11415 10144 20078 48564 81030 333 10238 20115 58002 81361 555 00/// BB/// CC115 DD/// Q1 025.4;MET039FLND 290600Z 14015KT CAVOK 12/08 Q1025;EQDQ01+000000PRSWM2Q02  00002PRCP99
0151675610999992000062909004-13000+028650FM-12+1270FLND V0201101N004612200019N0300001N1+01991+00731999999ADDGA1041+012009089GF104991041011012501001001MD1999999+0031ME1315709REMSYN074AAXX  29094 67561 42680 41109 10199 20073 48570 84100 333 58003 84840 555;
0097675610999992000062912004-13000+028650FM-15+1270FLND V0201201N00621220001CN0099001N1+02301+00701999999ADDMA1102201999999MW1001REMMET045FLND 291200Z 12012KT CAVOK 23/07 Q1022 NOSIG;EQDQ01+000000PRSWM2
0240675610999992000063006004-13000+028650FM-12+1270FLND V0200901N003112200019N0300001N1+01271+00901999999ADDAA199000091GA1001+999999999GF100991001001999999001001KA1120M+02361KA2120N+00801MD1999999-0011ME1315619REMSYN107AAXX  30064 67561 32980 00906 10127 20090 48561 333 10236 20080 59001 555 00/// BB/// CC080 DD/// Q1 025.2;EQDQ01  00002PRCP99
0147675610999992000070212004-13000+028650FM-12+1270FLND V0201201N002112200019N0300001N1+02181+00601999999ADDGA1011+015009029GF101991011011017501001001MD1999999+0031ME1315489REMSYN070AAXX  02124 67561 42780 11204 10218 20060 48548 81100 333 58003 81850;
0168675610999992000070307004-13000+028650FM-15+1270FLND V0201001N011312200019N0112651N1+01601+00701999999ADDGA1021+007509999GA2021+012009999GF102991999999999999999999MA1102511999999MW1001REMMET058FLND 030700Z 10022KT 9999 SCT025 FEW040 16/07 Q1025 NOSIG;EQDQ01+000000PRSWM2
0147675610999992000070312004-13000+028650FM-12+1270FLND V0201301N006210135019N0300001N1+01791+00531999999ADDGA1071+013509059GF107991071041012501001001MD1999999+0031ME1315479REMSYN070AAXX  03124 67561 42680 71312 10179 20053 48547 87400 333 58003 87645;
0143675610999992000070409004-13000+028650FM-15+1270FLND V0201001N006210090019N0112651N1+01801+00601999999ADDGA1071+009009999GF107991999999999999999999MA1102401999999MW1001REMMET049FLND 0900Z 10012KT 9999 BKN030 18/06 Q1024 NOSIG;EQDQ01+000000PRSWM2
0097675610999992000070505004-13000+028650FM-15+1270FLND V0209999C00001220001CN0099001N1+00901+00901999999ADDMA1102401999999MW1001REMMET045FLND 050500Z 00000KT CAVOK 09/09 Q1024 NOSIG;EQDQ01+000000PRSWM2
0273675610999992000070506004-13000+028650SY-MT+1270FLND V0200901N00621220001CN0300001N1+01271+00821999999ADDAA199000091GF100991001001999999001001KA1120M+02181KA2120N+00801MA1102401999999MD1999999+0081ME1315539MW1001REMSYN070AAXX  05064 67561 32980 00912 10127 20082 48553 333 10218 20080 58008;MET043FLND 0600Z 09012KT CAVOK 13/10 Q1024 NOSIG;EQDQ01+000000PRSWM2Q02  00002PRCP99
0145675610999992000070507004-13000+028650FM-15+1270FLND V0201001N007712200019N0112651N1+01601+00701999999ADDGA1021+004509999GF102991999999999999999999MA1102511999999MW1001REMMET051FLND 050700Z 10015KT 9999 FEW015 16/07 Q1025 NOSIG;EQDQ01+000000PRSWM2
0145675610999992000070508004-13000+028650FM-15+1270FLND V0201201N008212200019N0112651N1+01801+00601999999ADDGA1021+010509999GF102991999999999999999999MA1102511999999MW1001REMMET051FLND 050800Z 12016KT 9999 FEW035 18/06 Q1025 NOSIG;EQDQ01+000000PRSWM2
0263675610999992000070509004-13000+028650SY-MT+1270FLND V0201001N006212200019N0300001N1+02021+00581999999ADDGA1021+012009999GF102991021011012501001011MA1102511999999MD1999999+0061ME1315699MW1001REMSYN089AAXX  05094 67561 42680 21012 10202 20058 48569 82101 333 58006 82840 81080 555 Q1 025.2;MET051FLND 050900Z 10012KT 9999 SCT040 20/06 Q1025 NOSIG;EQDQ01+000000PRSWM2
0145675610999992000070510004-13000+028650FM-15+1270FLND V0201201N003112200019N0112651N1+02101+00601999999ADDGA1021+013509999GF102991999999999999999999MA1102401999999MW1001REMMET051FLND 051000Z 12006KT 9999 FEW045 21/06 Q1024 NOSIG;EQDQ01+000000PRSWM2
0095675610999992000070511004-13000+028650FM-15+1270FLND V0201301N00361220001CN0099001N1+02101+00701999999ADDMA1102401999999MW1001REMMET043FLND 1100Z 13007KT CAVOK 21/07 Q1024 NOSIG;EQDQ01+000000PRSWM2
0273675610999992000070512004-13000+028650SY-MT+1270FLND V0201101N002612200019N0300001N1+02241+00501999999ADDGA1011+015009089GA2021+090009009GF102991011011017501001021MA1102301999999MD1999999+0071ME1315539MW1001REMSYN089AAXX  05124 67561 42780 21105 10224 20050 48553 81102 333 58007 81850 82080 555 Q1 023.2;MET045FLND 051200Z 11005KT CAVOK 22/05 Q1023 NOSIG;EQDQ01+000000PRSWM2
0097675610999992000070513004-13000+028650FM-15+1270FLND V0201001N00361220001CN0099001N1+02301+00501999999ADDMA1102201999999MW1001REMMET045FLND 051300Z 10007KT CAVOK 23/05 Q1022 NOSIG;EQDQ01+000000PRSWM2
0097675610999992000070515004-13000+028650FM-15+1270FLND V0201001N00411220001CN0099001N1+02101+00401999999ADDMA1102201999999MW1001REMMET045FLND 051500Z 10008KT CAVOK 21/04 Q1022 NOSIG;EQDQ01+000000PRSWM2
0243675610999992000070606004-13000+028650FM-12+1270FLND V0209999C000012200019N0050001N1+00981+00511999999ADDAA199000091AY101061AY201061GA1011+090009019GF101991001001999999001021KA1120M+02341KA2120N+00331MD1999999+0121ME1315629MW1041REMSYN088AAXX  06064 67561 31950 10000 10098 20051 48562 70400 80002 333 10234 20033 58012 81080;EQDQ01  00002PRCP99
0199675610999992000070615004-13000+028650FM-12+1270FLND V0201401N003610900019N0300001N1+02051+00381999999ADDGA1071+090009089GF107991001001999999001081KA1999M+99999MD1999999+0001ME1315559REMSYN090AAXX  06154 67561 42980 71407 10205 20038 48555 80008 333 58000 87880 555 1022.7 Q1 022.5;EQDQ01 +00222ATMX  
0153675610999992000070709004-13000+028650FM-12+1270FLND V0201101N006210105019N0300001N1+01691+00691999999ADDGA1051+010509069GF106991051051012501001021MD1999999+0091ME1315769REMSYN076AAXX  07094 67561 42680 61112 10169 20069 48576 85502 333 58009 85635 82080;
0153675610999992000070712004-13000+028650FM-12+1270FLND V0200901N004110150019N0300001N1+02101+00681999999ADDGA1051+015009069GF105991031031017501001021MD1999999+0031ME1315539REMSYN076AAXX  07124 67561 42780 50908 10210 20068 48553 83302 333 58003 85650 81080;
0302675610999992000070806004-13000+028650FM-12+1270FLND V0209999C000012200019N0015001N1+00941+00781999999ADDAA199000091AY141061AY201061GA1011+001809059GA2011+030009039GF101991011051002501031001KA1120M+02211KA2120N+00391MD1999999-0051ME1315599MW1041REMSYN131AAXX  08064 67561 31315 10000 10094 20078 48559 70440 81530 333 10221 20039 59005 81506 81360 555 00/// BB/// CC009 DD/// Q1 025.4;EQDQ01  00002PRCP99
0179675610999992000070815004-13000+028650FM-12+1270FLND V0201101N007210180019N0300001N1+01791+00701999999ADDGA1061+018009069GF106991061041017501001001KA1240M+02161MD1999999+0031ME1315529REMSYN089AAXX  08154 67561 42780 61114 10179 20070 48552 86400 333 58003 86656 555 10216 Q1 023.7;
0265675610999992000070906004-13000+028650FM-12+1270FLND V0201101N004112200019N0080001N1+99999+99999999999ADDAA199000091AY101061AY201061GA1011+004509069GF101991011051004501001001KA1120M+02161KA2120N+00601MD1999999-0041ME1309559MW1041REMSYN110AAXX  09064 67561 31458 11108 20090 48955 70400 81500 333 10216 20060 59004 81615 555 00/// BB/// CC060 DD///;EQDQ01  00002PRCP99
0248675610999992000070909004-13000+028650SY-MT+1270FLND V0200801N005112200019N0300001N1+01971+00851999999ADDGA1021+010509999GF104991041011012501001001MA1102401999999MD1999999-0141ME1315629MW1001REMSYN074AAXX  09094 67561 42680 40810 10197 20085 48562 84100 333 59014 84835 555;MET051FLND 090900Z 08010KT 9999 SCT035 20/09 Q1024 NOSIG;EQDQ01+000000PRSWM2
0173675610999992000070912004-13000+028650FM-12+1270FLND V0201701N002110135019N0300001N1+02131+00681999999ADDGA1051+013509089GA2031+014409069GF107991071081012501001001MD1999999-0151ME1315389REMSYN080AAXX  09124 67561 42680 71704 10213 20068 48538 87800 333 59015 85845 83648 555;
0231675610999992000071006004-13000+028650FM-12+1270FLND V0209999C000012200019N0200001N1+01091+00901999999ADDAA199000091AY101061AY201061GA1001+999999999GF100991001001999999001001KA1120M+02311KA2120N+00701MD1999999+0081ME1315489MW1051REMSYN076AAXX  10064 67561 31970 00000 10109 20090 48548 70500 333 10231 20070 58008;EQDQ01  00002PRCP99
0231675610999992000071007004-13000+028650FM-12+1270FLND V0209999C000012200019N0200001N1+01091+00901999999ADDAA199000091AY101999AY201999GA1001+999999999GF100991001001999999001001KA1120M+02311KA2120N+00701MD1999999+0081ME1315489MW1051REMSYN076AAXX  10074 67561 31970 00000 10109 20090 48548 70500 333 10231 20070 58008;EQDQ01  00002PRCP99
0097675610999992000071104004-13000+028650FM-15+1270FLND V0209999C00001220001CN0099001N1+01101+00901999999ADDMA1102101999999MW1001REMMET045FLND 110400Z 00000KT CAVOK 11/09 Q1021 NOSIG;EQDQ01+000000PRSWM2
0153675610999992000071109004-13000+028650FM-12+1270FLND V0200901N003112200019N0300001N1+02311+00781999999ADDGA1011+015009089GF102991011011017501031001MD1999999-0041ME1315579REMSYN076AAXX  11094 67561 42780 20906 10231 20078 48557 81130 333 59004 81850 81361;
0194675610999992000071112004-13000+028650FM-12+1270FLND V0201301N002610180019N0250001N1+02491+00731999999ADDAY111061AY211061GA1061+018009059GF106991061041017501999001MD1999999-0061ME1313309MW1051REMSYN076AAXX  11124 67561 41775 61305 10249 20073 48330 70511 86400 333 59006 86656;EQDQ01+000002SCOMCG
0147675610999992000071209004-13000+028650FM-12+1270FLND V0209999C000012200019N0300001N1+02311+00981999999ADDGA1011+012009029GF101991011011012501001001MD1999999+0011ME1315509REMSYN070AAXX  12094 67561 42680 10000 10231 20098 48550 81100 333 58001 81840;
0091675610999992000071306004-13000+028650FM-15+1270FLND V0209999C00001220001CN0099001N1+99999+99999999999ADDMW1001REMMET054FLND 130600Z 00000KT CAVOK 5000 FU FEW110 13/10 Q1022;EQDQ01+000000PRSWM2
0147675610999992000071312004-13000+028650FM-12+1270FLND V0209999C000010180019N0300001N1+02551+00431999999ADDGA1051+018009029GF105991051021017501001001MD1999999-0071ME1315259REMSYN070AAXX  13124 67561 42780 50000 10255 20043 48525 85200 333 59007 85856;
0265675610999992000071315004-13000+028650SY-MT+1270FLND V0209999C000010270019N0300001N1+02521+00791999999ADDGA1051+027009069GF105991051051999999001001KA1240M+02701MA1101801999999MD1999999-0141ME1315149MW1001REMSYN086AAXX  13154 67561 42980 50000 10252 20079 48514 85500 333 59014 85659 555 10270 91018;MET043FLND 1500Z 00000KT CAVOK 25/08 Q1018 NOSIG;EQDQ01+000000PRSWM2
0091675610999992000071405004-13000+028650FM-15+1270FLND V0209999C00001220001CN0099001N1+01001+00801999999ADDMA1102001999999MW1001REMMET039FLND 140500Z 00000KT CAVOK 10/08 Q1020;EQDQ01+000000PRSWM2
0091675610999992000071406004-13000+028650FM-15+1270FLND V0209999C00001220001CN0099001N1+01201+00901999999ADDMA1102101999999MW1001REMMET039FLND 140600Z 00000KT CAVOK 12/09 Q1021;EQDQ01+000000PRSWM2
0091675610999992000071407004-13000+028650FM-15+1270FLND V0200401N00151220001CN0099001N1+01801+00901999999ADDMA1102101999999MW1001REMMET039FLND 140700Z 04003KT CAVOK 18/09 Q1021;EQDQ01+000000PRSWM2
0091675610999992000071409004-13000+028650FM-15+1270FLND V0200801N00261220001CN0099001N1+02401+00901999999ADDMA1102101999999MW1001REMMET039FLND 140900Z 08005KT CAVOK 24/09 Q1021;EQDQ01+000000PRSWM2
0139675610999992000071411004-13000+028650FM-15+1270FLND V0200301N002112200019N0112651N1+02601+00901999999ADDGA1021+013509999GF104991999999999999999999MA1102001999999MW1001REMMET045FLND 141100Z 03004KT 9999 SCT045 26/09 Q1020;EQDQ01+000000PRSWM2
0216675610999992000071412004-13000+028650SY-MT+1270FLND V0209999C00001220001CN0300001N1+02661+00751999999ADDGF104991041021017501001001MA1101801999999MD1999999-0071ME1315199MW1001REMSYN070AAXX  14124 67561 42780 40000 10266 20075 48519 84200 333 59007 84850;MET039FLND 141200Z 00000KT CAVOK 27/07 Q1018;EQDQ01+000000PRSWM2
0091675610999992000071413004-13000+028650FM-15+1270FLND V0203301N00101220001CN0099001N1+02601+00701999999ADDMA1101801999999MW1001REMMET039FLND 141300Z 33002KT CAVOK 26/07 Q1018;EQDQ01+000000PRSWM2
0091675610999992000071414004-13000+028650FM-15+1270FLND V0209999C00001220001CN0099001N1+02601+00801999999ADDMA1101801999999MW1001REMMET039FLND 141400Z 00000KT CAVOK 26/08 Q1018;EQDQ01+000000PRSWM2
0091675610999992000071415004-13000+028650FM-15+1270FLND V0209999C00001220001CN0099001N1+02301+00901999999ADDMA1101801999999MW1001REMMET039FLND 141500Z 00000KT CAVOK 23/09 Q1018;EQDQ01+000000PRSWM2
0091675610999992000071416004-13000+028650FM-15+1270FLND V0209999C00001220001CN0099001N1+02101+01001999999ADDMA1101801999999MW1001REMMET039FLND 141600Z 00000KT CAVOK 21/10 Q1018;EQDQ01+000000PRSWM2
0243675610999992000071506004-13000+028650FM-12+1270FLND V0209999C000012200019N0050001N1+01401+00951999999ADDAA199000091AY111061AY211061GA1041+030009079GF104991041001999999031001KA1120M+02761KA2120N+00971MD1999999-0051ME1315249MW1041REMSYN088AAXX  15064 67561 31950 40000 10140 20095 48524 70411 84030 333 10276 20097 59005 84360;EQDQ01  00002PRCP99
0175675610999992000071509004-13000+028650FM-12+1270FLND V0200401N002112200019N0100001N1+02451+00751999999ADDAY101031AY201031GA1011+030009079GF101991011001999999031001MD1999999-0061ME1315359MW1051REMSYN076AAXX  15094 67561 41960 10404 10245 20075 48535 70500 81030 333 59006 81360;
0175675610999992000071512004-13000+028650FM-12+1270FLND V0209999C000010210019N0100001N1+02701+00681999999ADDAY111061AY211061GA1051+021009069GF105991051021022501001001MD1999999-0011ME1315199MW1051REMSYN076AAXX  15124 67561 41860 50000 10270 20068 48519 70511 85200 333 59001 85757;
0135675610999992000071604004-13000+028650FM-12+1270FLND V0200901N003112200019N0100001N1+01011+00801999999ADDGA1001+999999999GF100991001001999999001001MD1999999+0111ME1315219REMSYN058AAXX  16044 67561 41960 00906 10101 20080 48521 333 58011;
0297675610999992000071606004-13000+028650SY-MT+1270FLND V0209999C000012200019N0080001N1+01491+00991999999ADDAA199000091AY101061AY201061GF100991001001999999001001KA1120M+02791KA2120N+00991MA1102201999999MD1999999+0131ME1315379MW1041REMSYN076AAXX  16064 67561 31958 00000 10149 20099 48537 70400 333 10279 20099 58013;MET045FLND 160600Z 00000KT 8000 FU SKC 15/10 Q1022;EQDQ01  00002PRCP99Q02    003PRSWM1
0077675610999992000071608004-13000+028650FM-15+1270FLND V0201101N00871220001CN0099001N1+02301+00901999999ADDMW1001REMMET040FLND 160800Z 11017KT CAVOK 23/09 QQ1022;EQDQ01+000000PRSWM2
0091675610999992000071609004-13000+028650FM-15+1270FLND V0201001N00771220001CN0099001N1+02601+00501999999ADDMA1102201999999MW1001REMMET039FLND 160900Z 10015KT CAVOK 26/05 Q1022;EQDQ01+000000PRSWM2
0091675610999992000071612004-13000+028650FM-15+1270FLND V0201601N00671220001CN0099001N1+02701+00401999999ADDMA1102101999999MW1001REMMET039FLND 161200Z 16013KT CAVOK 27/04 Q1021;EQDQ01+000000PRSWM2
0091675610999992000071615004-13000+028650FM-15+1270FLND V0201001N00511220001CN0099001N1+02701+00401999999ADDMA1102001999999MW1001REMMET039FLND 161500Z 10010KT CAVOK 27/04 Q1020;EQDQ01+000000PRSWM2
0297675610999992000071706004-13000+028650SY-MT+1270FLND V0209999C000012200019N0080001N1+01541+00801999999ADDAA199000091AY101061AY201061GF100991001001999999001001KA1120M+02841KA2120N+01101MA1102401999999MD1999999+0221ME1315599MW1041REMSYN076AAXX  17064 67561 31958 00000 10154 20080 48559 70400 333 10284 20110 58022;MET045FLND 170600Z 00000KT 8000 FU SKC 15/18 Q1024;EQDQ01  00002PRCP99Q02    003PRSWM1
0097675610999992000071707004-13000+028650FM-15+1270FLND V0200901N00981220001CN0099001N1+02001+00701999999ADDMA1102511999999MW1001REMMET045FLND 170700Z 09019KT CAVOK 20/07 Q1025 NOSIG;EQDQ01+000000PRSWM2
0097675610999992000071710004-13000+028650FM-15+1270FLND V0200801N00511220001CN0099001N1+02501+00501999999ADDMA1102511999999MW1001REMMET045FLND 171000Z 08010KT CAVOK 25/05 Q1025 NOSIG;EQDQ01+000000PRSWM2
0091675610999992000071711004-13000+028650FM-15+1270FLND V0200901N00511220001CN0099001N1+02601+00601999999ADDMA1102401999999MW1001REMMET039FLND 171100Z 09010KT CAVOK 26/06 Q1024;EQDQ01+000000PRSWM2
0248675610999992000071712004-13000+028650SY-MT+1270FLND V0201101N005712200019N0100001N1+02701+00561999999ADDAY101061AY201061GF100991001001999999001001MA1102301999999MD1999999+0181ME1315549MW1051REMSYN064AAXX  17124 67561 41960 01111 10270 20056 48554 70500 333 58018;MET045FLND 171200Z 11011KT CAVOK 27/06 Q1023 NOSIG;EQDQ01+000000PRSWM2Q02    003PRSWM1
0097675610999992000071805004-13000+028650FM-15+1270FLND V0209999C00001220001CN0099001N1+00901+00701999999ADDMA1102511999999MW1001REMMET045FLND 180500Z 00000KT CAVOK 09/07 Q1025 NOSIG;EQDQ01+000000PRSWM2
0216675610999992000071806004-13000+028650FM-12+1270FLND V0209999C000012200019N0080001N1+01331+00851999999ADDAA199000091AY101061AY201061GA1001+999999999GF100991001001999999001001KA1120M+02701KA2120N+00841MD1999999+0041MW1041REMSYN070AAXX  18064 67561 31958 00000 10133 20085 70400 333 10270 20084 58004;EQDQ01  00002PRCP99
0195675610999992000072015004-13000+028650FM-12+1270FLND V0201801N003112200019N0250001N1+02601+00281999999ADDAY101031AY201031GA1001+999999999GF100991001001999999001001KA1240M+02791MD1999999-0031ME1315079MW1051REMSYN083AAXX  20154 67561 41975 01806 10260 20028 48507 70500 333 59003 555 10279 Q1 017.5;
0231675610999992000072106004-13000+028650FM-12+1270FLND V0209999C000012200019N0060001N1+01281+00651999999ADDAA199000091AY101061AY201061GA1001+999999999GF100991001001999999001001KA1120M+02791KA2120N+00751MD1999999+0051ME1315269MW1041REMSYN076AAXX  21064 67561 31956 00000 10128 20065 48526 70400 333 10279 20075 58005;EQDQ01  00002PRCP99
0303675610999992000072406004-13000+028650SY-MT+1270FLND V0200901N006710330019N0300001N1+01381+00921999999ADDAA199000091GA1071+033009079GF107991071001999999031001KA1120M+02421KA2120N+01171MA1102511999999MD1999999+0111ME1315609MW1001REMSYN082AAXX  24064 67561 32980 70913 10138 20092 48560 87030 333 10242 20117 58011 87361;MET045FLND 240600Z 09013KT CAVOK 14/09 Q1025 NOSIG;EQDQ01+000000PRSWM2Q02  00002PRCP99
0143675610999992000072407004-13000+028650FM-15+1270FLND V0200901N006712200019N0112651N1+01701+00801999999ADDGA1021+006009999GF102991999999999999999999MA1102511999999MW1001REMMET049FLND 0700Z 09013KT 9999 FEW020 17/08 Q1025 NOSIG;EQDQ01+000000PRSWM2
0255675610999992000072409004-13000+028650SY-MT+1270FLND V0200801N002610120019N0300001N1+01961+00671999999ADDGA1071+012009999GF107991071021012501001001MA1102511999999MD1999999+0031ME1315699MW1001REMSYN083AAXX  24094 67561 42680 70805 10196 20067 48569 87200 333 58003 87840 555 Q1 025.4;MET049FLND 0900Z 08005KT 9999 BKN040 20/07 Q1025 NOSIG;EQDQ01+000000PRSWM2
0143675610999992000072410004-13000+028650FM-15+1270FLND V0200901N003610129019N0112651N1+02001+00601999999ADDGA1071+012909999GF107991999999999999999999MA1102401999999MW1001REMMET049FLND 1000Z 09007KT 9999 BKN043 20/06 Q1024 NOSIG;EQDQ01+000000PRSWM2
0216675610999992000072412004-13000+028650SY-MT+1270FLND V0200901N00411220001CN0300001N1+02051+00601999999ADDGF107991071021017501001001MA1102201999999MD1999999-0011ME1315459MW1001REMSYN070AAXX  24124 67561 42780 70908 10205 20060 48545 87200 333 59001 87850;MET039FLND 241200Z 09008KT CAVOK 21/06 Q1022;EQDQ01+000000PRSWM2
0091675610999992000072414004-13000+028650FM-15+1270FLND V0201001N00411220001CN0099001N1+02301+00701999999ADDMA1102201999999MW1001REMMET039FLND 241400Z 10008KT CAVOK 23/07 Q1022;EQDQ01+000000PRSWM2
0091675610999992000072415004-13000+028650FM-15+1270FLND V0201201N00511220001CN0099001N1+02001+00601999999ADDMA1102201999999MW1001REMMET039FLND 241500Z 12010KT CAVOK 20/06 Q1022;EQDQ01+000000PRSWM2
0252675610999992000072506004-13000+028650FM-12+1270FLND V0200901N002112200019N0300001N1+01421+00731999999ADDAA199000091GA1011+033009039GF101991011001999999031001KA1120M+02251KA2120N+00861MD1999999-0141ME1315479REMSYN119AAXX  25064 67561 32980 10904 10142 20073 48547 81030 333 10225 20086 59014 81361 555 00/// BB/// CC086 DD/// Q1 023.4;EQDQ01  00002PRCP99
0135675610999992000072512004-13000+028650FM-12+1270FLND V0200901N005112200019N0300001N1+02361+00251999999ADDGA1001+999999999GF100991001001999999001001MD1999999-0111ME1315379REMSYN058AAXX  25124 67561 42980 00910 10236 20025 48537 333 59011;
0089675610999992000072604004-13000+028650FM-15+1270FLND V0209999C00001220001CN0099001N1+00901+00701999999ADDMA1102401999999MW1001REMMET037FLND 0400Z 00000KT CAVOK 09/07 Q1024;EQDQ01+000000PRSWM2
0203675610999992000072606004-13000+028650FM-12+1270FLND V0201001N006212200019N0300001N1+01481+00721999999ADDAA199000091GA1001+999999999GF100991001001999999001001KA1120M+02471KA2120N+00851MD1999999+0181ME1315659REMSYN070AAXX  26064 67561 32980 01012 10148 20072 48565 333 10247 20085 58018;EQDQ01  00002PRCP99
0135675610999992000072609004-13000+028650FM-12+1270FLND V0200901N009312200019N0300001N1+02151+00491999999ADDGA1001+999999999GF100991001001999999001001MD1999999+0171ME1315749REMSYN058AAXX  26094 67561 42980 00918 10215 20049 48574 333 58017;
0175675610999992000072612004-13000+028650FM-12+1270FLND V0200901N009312200019N0150001N1+02451+00341999999ADDAY101061AY201061GA1011+021009029GF101991011011022501001001MD1999999+0151ME1315539MW1041REMSYN076AAXX  26124 67561 41865 10918 10245 20034 48553 70400 81100 333 58015 81857;
0097675610999992000072706004-13000+028650FM-15+1270FLND V0201201N00571220001CN0099001N1+01301+00801999999ADDMA1102611999999MW1001REMMET045FLND 270600Z 12011KT CAVOK 13/08 Q1026 NOSIG;EQDQ01+000000PRSWM2
0254675610999992000072709004-13000+028650SY-MT+1270FLND V0201501N006712200019N0300001N1+01861+00701999999ADDGA1021+012009999GF199999011011012501001001MA1102511999999MD1999999+0001ME1315719MW1001REMSYN070AAXX  27094 67561 42680 11513 10186 20070 48571 81100 333 58000 81840;MET045FLND 270900Z 15013KT 9999 FEW040 19/07 Q1025;EQDQ01+000012SCOTCVQ02+000000PRSWM2
0232675610999992000072712004-13000+028650SY-MT+1270FLND V0201101N003112200019N0300001N1+02251+00601999999ADDGA1011+015009029GF101991011011017501001001MA1102101999999MD1999999-0091ME1315429MW1001REMSYN070AAXX  27124 67561 42780 11106 10225 20060 48542 81100 333 59009 81850;MET039FLND 271200Z 11006KT CAVOK 23/06 Q1021;EQDQ01+000000PRSWM2
0091675610999992000072713004-13000+028650FM-15+1270FLND V0201501N00411220001CN0099001N1+02201+00501999999ADDMA1102101999999MW1001REMMET039FLND 271300Z 15008KT CAVOK 22/05 Q1021;EQDQ01+000000PRSWM2
0210675610999992000072715004-13000+028650SY-MT+1270FLND V0201201N002612200019N0300001N1+02201+00551999999ADDGF100991001001999999001001MA1102101999999MD1999999-0121ME1315369MW1001REMSYN058AAXX  27154 67561 42980 01205 10220 20055 48536 333 59012;MET045FLND 271500Z 12005KT CAVOK 22/05 Q1021 NOSIG;EQDQ01+000000PRSWM2
0097675610999992000072716004-13000+028650FM-15+1270FLND V0200901N00411220001CN0099001N1+02001+00601999999ADDMA1102101999999MW1001REMMET045FLND 271600Z 09008KT CAVOK 20/06 Q1021 NOSIG;EQDQ01+000000PRSWM2
0163675610999992000072809004-13000+028650FM-12+1270FLND V0200801N004112200019N0300001N1+02041+00661999999ADDAY141031AY201031GA1001+999999999GF100991001001999999001001MD1999999-0161ME1315579MW1021REMSYN064AAXX  28094 67561 41980 00808 10204 20066 48557 70240 333 59016;
0091675610999992000072812004-13000+028650FM-15+1270FLND V0200301N00101220001CN0099001N1+02401+00501999999ADDMA1102001999999MW1001REMMET039FLND 281200Z 03002KT CAVOK 24/05 Q1020;EQDQ01+000000PRSWM2
0095675610999992000072813004-13000+028650FM-15+1270FLND V0209999C00001220001CN0099001N1+02401+00501999999ADDMA1101901999999MW1001REMMET043FLND 1300Z 00000KT CAVOK 24/05 Q1019 NOSIG;EQDQ01+000000PRSWM2
0241675610999992000072906004-13000+028650FM-12+1270FLND V0200601N002112200019N0100001N1+01181+00731999999ADDAA199000091AY101061AY201061GA1001+999999999GF100991001001999999001001KA1120M+02501KA2120N+00721MD1999999-0181ME1315299MW1051REMSYN086AAXX  29064 67561 31960 00604 10118 20073 48529 70500 333 10250 20072 59018 555 00///;EQDQ01  00002PRCP99
0176675610999992000072909004-13000+028650FM-12+1270FLND V0200801N002112200019N0250001N1+02211+00621999999ADDAY101031AY201031GA1001+999999999GF100991001001999999001001MD1999999-0211ME1315389MW1051REMSYN077AAXX  29094 67561 41975 00804 10221 20062 48538 70500 333 59021 555 Q1 021.5;
0175675610999992000072912004-13000+028650FM-12+1270FLND V0203601N001512200019N0250001N1+02511+00411999999ADDAY101061AY201061GA1011+021009029GF101991011011022501001001MD1999999-0201ME1315149MW1051REMSYN076AAXX  29124 67561 41875 13603 10251 20041 48514 70500 81100 333 59020 81857;
0163675610999992000073104004-13000+028650FM-12+1270FLND V0209999C000012200019N0100001N1+01031+00731999999ADDAY101999AY201999GA1001+999999999GF100991001001999999001001MD1999999+0051ME1315259MW1051REMSYN064AAXX  31044 67561 41960 00000 10103 20073 48525 70500 333 58005;
0231675610999992000073106004-13000+028650FM-12+1270FLND V0209999C000012200019N0300001N1+01391+00931999999ADDAA199000091AY101061AY201061GA1001+999999999GF100991001001999999001001KA1120M+02771KA2120N+00911MD1999999+0051ME1315239MW1041REMSYN076AAXX  31064 67561 31980 00000 10139 20093 48523 70400 333 10277 20091 58005;EQDQ01  00002PRCP99
0095675610999992000073107004-13000+028650FM-15+1270FLND V0209999C00001220001CN0099001N1+01901+01001999999ADDMA1102201999999MW1001REMMET043FLND 0700Z 00000KT CAVOK 19/10 Q1022 NOSIG;EQDQ01+000000PRSWM2
0175675610999992000073112004-13000+028650FM-12+1270FLND V0201801N002112200019N0200001N1+02801+00911999999ADDAY101061AY201061GA1031+018009029GF103991031011017501001001MD1999999+0001ME1315179MW1051REMSYN076AAXX  31124 67561 41770 31804 10280 20091 48517 70500 83100 333 58000 83856;
0268675610999992000080106004-13000+028650FM-12+1270FLND V0209999C000012200019N0080001N1+01601+01261999999ADDAA199000091AY141061AY201061GA1001+999999999GF100991001001999999001001KA1120M+02861KA2120N+01191MD1999999+0001ME1315369MW1041REMSYN113AAXX  01064 67561 31958 00000 10160 20126 48536 70440 333 10286 20119 58000 555 00/// BB/// CC119 DD/// Q1 021.8;EQDQ01  00002PRCP99
0095675610999992000080107004-13000+028650FM-15+1270FLND V0200801N00411220001CN0099001N1+02001+01201999999ADDMA1102201999999MW1001REMMET043FLND 0700Z 08008KT CAVOK 20/12 Q1022 NOSIG;EQDQ01+000000PRSWM2
0154675610999992000080109004-13000+028650FM-12+1270FLND V0200901N003112200019N0250001N1+02451+01291999999ADDAY101031AY201031GA1001+999999999GF100991001001999999001001MD1999999-0021MW1051REMSYN064AAXX  01094 67561 41975 00906 10245 20129 48/// 70500 333 59002;
0175675610999992000080112004-13000+028650FM-12+1270FLND V0200601N001512200019N0250001N1+02701+00891999999ADDAY101061AY201061GA1041+018009029GF104991041011017501001001MD1999999+0011ME1315179MW1051REMSYN076AAXX  01124 67561 41775 40603 10270 20089 48517 70500 84100 333 58001 84856;
0360675610999992000080206004-13000+028650SY-MT+1270FLND V0201001N005112200019N0150001N1+01611+01251999999ADDAA199000091AY101061AY201061GA1011+033009079GF101991011001999999031001KA1120M+02841KA2120N+01451MA1102201999999MD1999999+0031ME1315399MW1051REMSYN107AAXX  02064 67561 31965 11010 10161 20125 48539 70500 81030 333 10284 20145 58003 81361 555 00/// Q1 022.2;MET045FLND 020600Z 10010KT CAVOK 16/13 Q1022 NOSIG;EQDQ01+000000PRSWM2Q02  00002PRCP99Q03    003PRSWM1
0175675610999992000080209004-13000+028650FM-12+1270FLND V0201601N004612200019N0250001N1+02271+01251999999ADDAY101031AY201031GA1011+012009029GF101991011011012501001001MD1999999+0101ME1315499MW1051REMSYN076AAXX  02094 67561 41675 11609 10227 20125 48549 70500 81100 333 58010 81840;
0241675610999992000080306004-13000+028650FM-12+1270FLND V0209999C000012200019N0080001N1+01341+01131999999ADDAA199000091AY101061AY201061GA1001+999999999GF100991001001999999001001KA1120M+02701KA2120N+00931MD1999999+0071ME1315429MW1041REMSYN086AAXX  03064 67561 31958 00000 10134 20113 48542 70400 333 10270 20093 58007 555 00///;EQDQ01  00002PRCP99
0188675610999992000080312004-13000+028650FM-12+1270FLND V0201801N002612200019N0200001N1+02601+00931999999ADDAY101061AY201061GA1041+015009089GF104991041021017501001001MD1999999-0041ME1315279MW1051REMSYN089AAXX  03124 67561 41770 41805 10260 20093 48527 70500 84200 333 59004 84850 555 Q1 019.8;
0095675610999992000080313004-13000+028650FM-15+1270FLND V0201701N00361220001CN0099001N1+02601+00901999999ADDMA1101901999999MW1001REMMET043FLND 1300Z 17007KT CAVOK 26/09 Q1019 NOSIG;EQDQ01+000000PRSWM2
0175675610999992000080315004-13000+028650FM-12+1270FLND V0202001N003112200019N0150001N1+02551+00911999999ADDAY101031AY201031GA1031+021009029GF103991031021022501001001MD1999999-0031ME1315249MW1051REMSYN076AAXX  03154 67561 41865 32006 10255 20091 48524 70500 83200 333 59003 83857;
0163675610999992000080404004-13000+028650FM-12+1270FLND V0209999C000012200019N0200001N1+01201+01021999999ADDAY101999AY201999GA1001+999999999GF100991001001999999001001MD1999999-0031ME1315349MW1051REMSYN064AAXX  04044 67561 41970 00000 10120 20102 48534 70500 333 59003;
0231675610999992000080406004-13000+028650FM-12+1270FLND V0209999C000012200019N0100001N1+01591+01241999999ADDAA199000091AY101061AY201061GA1001+999999999GF100991001001999999001001KA1120M+02741KA2120N+01101MD1999999-0041ME1315419MW1051REMSYN076AAXX  04064 67561 31960 00000 10159 20124 48541 70500 333 10274 20110 59004;EQDQ01  00002PRCP99
0147675610999992000080412004-13000+028650FM-12+1270FLND V0200901N002110180019N0300001N1+02601+02121999999ADDGA1061+018009029GF106991061021017501001001MD1999999+0121ME1315389REMSYN070AAXX  04124 67561 42780 60904 10260 20212 48538 86200 333 58012 86856;
0198675610999992000080415004-13000+028650FM-12+1270FLND V0200601N002110210019N0300001N1+02501+00722999999ADDGA1071+021009069GF107991071041017501001001KA1240M+02741MD1999999+0041ME1315269REMSYN089AAXX  04154 67561 42780 70604 10250 20072 48526 87400 333 58004 87657 555 10274 Q1 020.0;EQDQ01+000723ATOD  
0303675610999992000080506004-13000+028650SY-MT+1270FLND V0200701N002610300019N0250001N1+01701+01201999999ADDAA199000091GA1071+030009079GF107991071001999999031001KA1120M+02741KA2120N+01461MA1102301999999MD1999999+0061ME1315479MW1001REMSYN082AAXX  05064 67561 31975 70705 10170 20120 48547 87030 333 10274 20146 58006 87360;MET045FLND 050600Z 07005KT CAVOK 17/12 Q1023 NOSIG;EQDQ01+000000PRSWM2Q02  00002PRCP99
0097675610999992000080507004-13000+028650FM-15+1270FLND V0201101N00261220001CN0099001N1+01901+01101999999ADDMA1102301999999MW1001REMMET045FLND 050700Z 11005KT CAVOK 19/11 Q1023 NOSIG;EQDQ01+000000PRSWM2
0097675610999992000080508004-13000+028650FM-15+1270FLND V0200901N00671220001CN0099001N1+02201+01101999999ADDMA1102401999999MW1001REMMET045FLND 050800Z 09013KT CAVOK 22/11 Q1024 NOSIG;EQDQ01+000000PRSWM2
0232675610999992000080509004-13000+028650SY-MT+1270FLND V0200701N005110330019N0250001N1+02291+00971999999ADDGA1071+033009079GF107991071001999999031001MA1102301999999MD1999999+0071ME1315569MW1001REMSYN070AAXX  05094 67561 41975 70710 10229 20097 48556 87030 333 58007 87361;MET039FLND 050900Z 07010KT CAVOK 23/10 Q1023;EQDQ01+000000PRSWM2
0097675610999992000080510004-13000+028650FM-15+1270FLND V0200801N00261220001CN0099001N1+02501+00901999999ADDMA1102201999999MW1001REMMET045FLND 051000Z 08005KT CAVOK 25/09 Q1022 NOSIG;EQDQ01+000000PRSWM2
0097675610999992000080511004-13000+028650FM-15+1270FLND V0201601N00311220001CN0099001N1+02601+00901999999ADDMA1102101999999MW1001REMMET045FLND 051100Z 16006KT CAVOK 26/09 Q1021 NOSIG;EQDQ01+000000PRSWM2
0223675610999992000080512004-13000+028650FM-12+1270FLND V0201801N004610150019N0100001N1+02481+00851999999ADDAY121061AY221061GA1041+012009089GA2011+015009099GA3041+036009039GF107991041021017501031001MD1999999-0021ME1315359MW1051REMSYN092AAXX  05124 67561 41760 71809 10248 20085 48535 70522 84230 333 59002 81950 84840 84362 555;
0191675610999992000080514004-13000+028650FM-15+1270FLND V0201801N005112200019N0112651N1+02501+00801999999ADDGA1021+015009099GA2021+036009999GF104991999999999999999999MA1102001999999MW1161REMMET065FLND 051400Z 18010KT 9999 VCSH SCT050CB SCT120 25/08 Q1020 NOSIG;EQDQ01+000003PRSWM1Q02    003PRSWM1
0222675610999992000080515004-13000+028650FM-12+1270FLND V0201801N00511045001CN0150001N1+01432+00851999999ADDAY121031AY221031GA1011+015009099GA2031+015009069GF107991031041017501031001MD1999999+0081ME1315359MW1051REMSYN088AAXX  05154 67561 41765 71810 10143 20085 48535 70522 83430 333 58008 81950 83650 85362;EQDQ01+001433ATOT  
0231675610999992000080606004-13000+028650FM-12+1270FLND V0209999C000012200019N0060001N1+01541+01121999999ADDAA199000091AY101061AY201061GA1001+999999999GF100991001001999999001001KA1120M+02741KA2120N+01141MD1999999+0071ME1315539MW1041REMSYN076AAXX  06064 67561 31956 00000 10154 20112 48553 70400 333 10274 20114 58007;EQDQ01  00002PRCP99
0175675610999992000080609004-13000+028650FM-12+1270FLND V0201401N006212200019N0150001N1+02281+01131999999ADDAY101031AY201031GA1011+010509029GF101991011011012501001001MD1999999+0031ME1315599MW1051REMSYN076AAXX  06094 67561 41665 11412 10228 20113 48559 70500 81100 333 58003 81835;
0231675610999992000080706004-13000+028650FM-12+1270FLND V0209999C000012200019N0150001N1+01281+00851999999ADDAA199000091AY101061AY201061GA1001+999999999GF100991001001999999001001KA1120M+02651KA2120N+00901MD1999999+0031ME1315539MW1051REMSYN076AAXX  07064 67561 31965 00000 10128 20085 48553 70500 333 10265 20090 58003;EQDQ01  00002PRCP99
0147675610999992000080712004-13000+028650FM-12+1270FLND V0201801N002612200019N0200001N1+02401+00731999999ADDGA1011+015009029GF101991011011012501001001MD1999999-0011ME1315339REMSYN070AAXX  07124 67561 42670 11805 10240 20073 48533 81100 333 59001 81850;
0231675610999992000080806004-13000+028650FM-12+1270FLND V0200901N001512200019N0250001N1+01341+00751999999ADDAA199000091AY101061AY201061GA1001+999999999GF100991001001999999001001KA1120M+02551KA2120N+00901MD1999999+0051ME1315579MW1051REMSYN076AAXX  08064 67561 31975 00903 10134 20075 48557 70500 333 10255 20090 58005;EQDQ01  00002PRCP99
0163675610999992000080809004-13000+028650FM-12+1270FLND V0201701N004112200019N0250001N1+01991+00641999999ADDAY101031AY201031GA1001+999999999GF100991001001999999001001MD1999999+0021ME1315629MW1051REMSYN064AAXX  08094 67561 41975 01708 10199 20064 48562 70500 333 58002;
0175675610999992000080812004-13000+028650FM-12+1270FLND V0201501N004612200019N0100001N1+02391+00681999999ADDAY101061AY201061GA1011+015009029GF101991011011012501001001MD1999999+0071ME1315409MW1051REMSYN076AAXX  08124 67561 41660 11509 10239 20068 48540 70500 81100 333 58007 81850;
0097675610999992000080817004-13000+028650FM-15+1270FLND V0201401N00411220001CN0099001N1+02001+00701999999ADDMA1102201999999MW1001REMMET045FLND 081700Z 14008KT CAVOK 20/07 Q1022 NOSIG;EQDQ01+000000PRSWM2
0097675610999992000080905004-13000+028650FM-15+1270FLND V0209999C00001220001CN0099001N1+00901+00701999999ADDMA1102301999999MW1001REMMET045FLND 090500Z 00000KT CAVOK 09/07 Q1023 NOSIG;EQDQ01+000000PRSWM2
0354675610999992000080906004-13000+028650SY-MT+1270FLND V0209999C000012200019N0080001N1+01261+00851999999ADDAA199000091AY101061AY201061GF100991001001999999001001KA1120M+02501KA2120N+00851MA1102401999999MD1999999-0041ME1315529MW1041REMSYN113AAXX  09064 67561 31958 00000 10126 20085 48552 70400 333 10250 20085 59004 555 00/// BB/// CC085 DD/// Q1 024.2;MET049FLND 090600Z 00000KT 8000 VCFU 13/09 Q1024 NOSIG;EQDQ01+000000PRSWM2Q02  00002PRCP99Q03    003PRSWM1
0295675610999992000080909004-13000+028650SY-MT+1270FLND V0201001N004112200019N0150001N1+02161+00851999999ADDAY101031AY201031GA1021+012009999GF101991011011012501001001MA1102201999999MD1999999-0161ME1315489MW1051REMSYN089AAXX  09094 67561 41665 11008 10216 20085 48548 70500 81100 333 59016 81840 555 Q1 022.7;MET051FLND 090900Z 10008KT 9999 FEW040 22/09 Q1022 NOSIG;EQDQ01+000000PRSWM2Q02    003PRSWM1
0343675610999992000081006004-13000+028650SY-MT+1270FLND V0209999C000012200019N0080001N1+01341+00961999999ADDAA199000091AY101061AY201061GF100991001001999999001001KA1120M+02651KA2120N+00961MA1102301999999MD1999999-0051ME1315489MW1051REMSYN114AAXX  10064 67561 31958 00000 10134 20096 48548 70500 333 10265 20096 59005 555 00/// BB/// CC096 DD/// Q10 23.87;MET037FLND 0600Z 00000KT CAVOK 13/10 Q1023;EQDQ01+000000PRSWM2Q02  00002PRCP99Q03    003PRSWM1
0194675610999992000081009004-13000+028650FM-12+1270FLND V0201801N001512200019N0200001N1+02341+01051999999ADDAY101031AY201031GA1071+013509029GF199999011011999999001001MD1999999+0011ME1315519MW1051REMSYN076AAXX  10094 67561 41970 11803 10234 20105 48551 70500 81100 333 58001 87845;EQDQ01+000012SCOTCV
0175675610999992000081012004-13000+028650FM-12+1270FLND V0201801N001012200019N0200001N1+02531+00971999999ADDAY101061AY201061GA1021+012309029GF102991021011022501001001MD1999999-0011ME1315209MW1051REMSYN076AAXX  10124 67561 41870 21802 10253 20097 48520 70500 82100 333 59001 82841;
0231675610999992000081106004-13000+028650FM-12+1270FLND V0209999C000012200019N0060001N1+01451+01001999999ADDAA199000091AY101061AY201061GA1001+999999999GF100991001001999999001001KA1120M+02651KA2120N+01051MD1999999-0161ME1315349MW1051REMSYN076AAXX  11064 67561 31956 00000 10145 20100 48534 70500 333 10265 20105 59016;EQDQ01  00002PRCP99
0163675610999992000081109004-13000+028650FM-12+1270FLND V0201701N002612200019N0100001N1+02411+00991999999ADDAY101031AY201031GA1001+999999999GF100991001001999999001001MD1999999-0091ME1315439MW1051REMSYN064AAXX  11094 67561 41960 01705 10241 20099 48543 70500 333 59009;
0159675610999992000081112004-13000+028650FM-12+1270FLND V0202101N003110150019N0080001N1+02651+00811999999ADDAY111061AY211061GF105991051011017501001001MD1999999-0021ME1315199MW1041REMSYN076AAXX  11124 67561 41758 52106 10265 20081 48519 70411 85100 333 59002 85854;
0231675610999992000081206004-13000+028650FM-12+1270FLND V0209999C000012200019N0050001N1+01561+00801999999ADDAA199000091AY101061AY201061GA1001+999999999GF100991001001999999001001KA1120M+02811KA2120N+01041MD1999999+0041ME1315399MW1041REMSYN076AAXX  12064 67561 31950 00000 10156 20080 48539 70400 333 10281 20104 58004;EQDQ01  00002PRCP99
0248675610999992000081209004-13000+028650SY-MT+1270FLND V0201201N007712200019N0100001N1+02451+00631999999ADDAY101031AY201031GF100991001001999999001001MA1102201999999MD1999999+0061ME1315499MW1051REMSYN064AAXX  12094 67561 41960 01215 10245 20063 48549 70500 333 58006;MET045FLND 120900Z 12015KT CAVOK 25/06 Q1022 NOSIG;EQDQ01+000000PRSWM2Q02    003PRSWM1
0293675610999992000081306004-13000+028650SY-MT+1270FLND V0201501N006212200019N0080001N1+01561+00541999999ADDAA199000091AY101061AY201061GF100991001001999999001001KA1120M+02721KA2120N+01341MA1102301999999MD1999999+0141ME1315529MW1041REMSYN076AAXX  13064 67561 31958 01512 10156 20054 48552 70400 333 10272 20134 58014;MET041FLND 130600Z 15012KT 8000 FU 16/05 Q1023;EQDQ01  00002PRCP99Q02    003PRSWM1
0242675610999992000081309004-13000+028650SY-MT+1270FLND V0201201N007212200019N0100001N1+02201+00191999999ADDAY101031AY201031GF100991001001999999001001MA1102401999999MD1999999+0161ME1315639MW1051REMSYN064AAXX  13094 67561 41960 01214 10220 20019 48563 70500 333 58016;MET039FLND 130900Z 12014KT CAVOK 22/02 Q1024;EQDQ01+000000PRSWM2Q02    003PRSWM1
0091675610999992000081310004-13000+028650FM-15+1270FLND V0201601N00621220001CN0099001N1+02301+00301999999ADDMA1102301999999MW1001REMMET039FLND 131000Z 16012KT CAVOK 23/03 Q1023;EQDQ01+000000PRSWM2
0231675610999992000081406004-13000+028650FM-12+1270FLND V0201101N004612200019N0250001N1+01481+00761999999ADDAA199000091AY101061AY201061GA1001+999999999GF100991001001999999001001KA1120M+02531KA2120N+01031MD1999999+0131ME1315649MW1051REMSYN076AAXX  14064 67561 31975 01109 10148 20076 48564 70500 333 10253 20103 58013;EQDQ01  00002PRCP99
0175675610999992000081412004-13000+028650FM-12+1270FLND V0201101N003112200019N0250001N1+02301+00671999999ADDAY101061AY201061GA1031+018009029GF103991031011017501001001MD1999999+0051ME1315429MW1051REMSYN076AAXX  14124 67561 41775 31106 10230 20067 48542 70500 83100 333 58005 83856;
0095675610999992000081504004-13000+028650FM-15+1270FLND V0201101N00411220001CN0099001N1+01101+00701999999ADDMA1102401999999MW1001REMMET043FLND 0400Z 11008KT CAVOK 11/07 Q1024 NOSIG;EQDQ01+000000PRSWM2
0200675610999992000081506004-13000+028650FM-12+1270FLND V0201201N009312200019N0300001N1+01421+00671999999ADDAA199000091GA1011+090009019GF101991001001999999001011KA1120M+02481KA2120N+01101MD1999999+0041REMSYN076AAXX  15064 67561 32980 11218 10142 20067 80001 333 10248 20110 58004 81080;EQDQ01  00002PRCP99
0153675610999992000081512004-13000+028650FM-12+1270FLND V0201301N005712200019N0300001N1+02311+00411999999ADDGA1011+018009089GF101991011011017501001011MD1999999+0101ME1315539REMSYN076AAXX  15124 67561 42780 11311 10231 20041 48553 81101 333 58010 81856 81080;
0229675610999992000081518004-13000+028650SY-MT+1270FLND V0201201N007212200019N0300001N1+01741+00431999999ADDGF100991001001999999001001KA1120M+02381MA1102301999999MD1999999+0061ME1315549MW1001REMSYN064AAXX  15184 67561 42980 01214 10174 20043 48554 333 10238 58006;MET045FLND 151800Z 12014KT CAVOK 17/04 Q1023 NOSIG;EQDQ01+000000PRSWM2
0108675610999992000081605004-13000+028650FM-15+1270FLND V0209999C000012200019N0080001N1+00801+00701999999ADDMA1102401999999MW1041REMMET040FLND 0500Z 00000KT 8000M FU 08/07 Q1024;EQDQ01+000003PRSWM1Q02    003PRSWM1
0249675610999992000081606004-13000+028650FM-12+1270FLND V0209999C000012200019N0100001N1+01261+00761999999ADDAA199000091AY101061AY201061GA1011+036009039GF101991011001999999031011KA1120M+02381KA2120N+00681MD1999999-0071ME1315599MW1041REMSYN094AAXX  16064 67561 31960 10000 10126 20076 48559 70400 81031 333 10238 20068 59007 81362 81080;EQDQ01  00002PRCP99
0141675610999992000081607004-13000+028650FM-15+1270FLND V0201001N009312200019N0112651N1+01701+00701999999ADDGA1021+007509999GF102991999999999999999999MA1102511999999MW1001REMMET047FLND 0700Z 10018KT 9999 FEW025 17/07 Q1025 NSG;EQDQ01+000000PRSWM2
0153675610999992000081609004-13000+028650FM-12+1270FLND V0200801N005112200019N0300001N1+02141+00561999999ADDGA1041+013509089GF104991041011012501001011MD1999999-0071ME1315709REMSYN076AAXX  16094 67561 42680 40810 10214 20056 48570 84101 333 59007 84845 81080;
0147675610999992000081612004-13000+028650FM-12+1270FLND V0201201N001012200019N0300001N1+02301+00551999999ADDGA1011+018009029GF101991011011017501001001MD1999999-0151ME1315379REMSYN070AAXX  16124 67561 42780 11202 10230 20055 48537 81100 333 59015 81856;
0319675610999992000081706004-13000+028650SY-MT+1270FLND V0200901N00261220001CN0250001N1+01551+00801999999ADDAA199000091AY101061AY201061GF101991001001999999001021KA1120M+02501KA2120N+01061MA1102301999999MD1999999-0111ME1315519MW1051REMSYN088AAXX  17064 67561 31975 10905 10155 20080 48551 70500 80002 333 10250 20106 59011 81080;MET039FLND 170600Z 09005KT CAVOK 15/08 Q1023;EQDQ01+000000PRSWM2Q02  00002PRCP99Q03    003PRSWM1
0175675610999992000081712004-13000+028650FM-12+1270FLND V0200901N002612200019N0250001N1+02591+00591999999ADDAY101061AY201061GA1021+018009029GF102991021011017501001001MD1999999-0061ME1315349MW1051REMSYN076AAXX  17124 67561 41775 20905 10259 20059 48534 70500 82100 333 59006 82856;
0089675610999992000081804004-13000+028650FM-15+1270FLND V0200901N00151220001CN0099001N1+01201+00901999999ADDMA1102201999999MW1001REMMET037FLND 0400Z 09003KT CAVOK 12/09 Q1022;EQDQ01+000000PRSWM2
0213675610999992000081806004-13000+028650FM-12+1270FLND V0200901N003112200019N0300001N1+01721+00971999999ADDAA199000091GA1001+999999999GF100991001001999999001001KA1120M+02651KA2120N+01021MD1999999-0021ME1315519REMSYN080AAXX  18064 67561 32980 00906 10172 20097 48551 333 10265 20102 59002 555 00///;EQDQ01  00002PRCP99
0163675610999992000082009004-13000+028650FM-12+1270FLND V0200801N004112200019N0250001N1+02491+00961999999ADDAY101031AY201031GA1001+999999999GF100991001001999999001001MD1999999-0051ME1315609MW1051REMSYN064AAXX  20094 67561 41975 00808 10249 20096 48560 70500 333 59005;
0175675610999992000082109004-13000+028650FM-12+1270FLND V0200801N005110360019N0250001N1+02231+01111999999ADDAY101031AY201031GA1071+036009079GF107991071001999999031001MD1999999+0001ME1315589MW1051REMSYN076AAXX  21094 67561 41975 70810 10223 20111 48558 70500 87030 333 58000 87362;
0243675610999992000082306004-13000+028650FM-12+1270FLND V0200801N001512200019N0150001N1+01701+01151999999ADDAA199000091AY101061AY201061GA1021+090009019GF102991001001999999001021KA1120M+02851KA2120N+01321MD1999999+0131ME1315539MW1051REMSYN088AAXX  23064 67561 31965 20803 10170 20115 48553 70500 80002 333 10285 20132 58013 82080;EQDQ01  00002PRCP99
0268675610999992000082406004-13000+028650FM-12+1270FLND V0200901N004112200019N0070001N1+01901+01061999999ADDAA199000091AY101061AY201061GA1001+999999999GF100991001001999999001001KA1120M+03031KA2120N+01531MD1999999-0041ME1315519MW1041REMSYN113AAXX  24064 67561 31957 00908 10190 20106 48551 70400 333 10303 20153 59004 555 00/// BB/// CC153 DD/// Q1 023.3;EQDQ01  00002PRCP99
0095675610999992000082410004-13000+028650FM-15+1270FLND V0201201N00211220001CN0099001N1+02701+00901999999ADDMA1102201999999MW1001REMMET043FLND 1000Z 12004KT CAVOK 27/09 Q1022 NOSIG;EQDQ01+000000PRSWM2
0194675610999992000082415004-13000+028650FM-12+1270FLND V0201401N002612200019N0150001N1+02661+00881999999ADDAY121031AY221031GA1041+027009059GF104991041051999999999001MD1999999+0011ME1315269MW1051REMSYN076AAXX  24154 67561 41965 41405 10266 20088 48526 70522 84500 333 58001 84659;EQDQ01+000002SCOMCG
0175675610999992000082504004-13000+028650FM-12+1270FLND V0209999C000012200019N0080001N1+01191+00951999999ADDAY101999AY201999GA1011+036009079GF101991011001999999031001MD1999999+0061ME1315419MW1051REMSYN076AAXX  25044 67561 41958 10000 10119 20095 48541 70500 81030 333 58006 81362;
0243675610999992000082506004-13000+028650FM-12+1270FLND V0209999C000012200019N0007001N1+01621+00881999999ADDAA199000091AY141061AY241061GA1011+036009079GF101991011001999999031001KA1120M+02911KA2120N+01151MD1999999+0031ME1315519MW1041REMSYN088AAXX  25064 67561 31907 10000 10162 20088 48551 70444 81030 333 10291 20115 58003 81362;EQDQ01  00002PRCP99
0112675610999992000082508004-13000+028650FM-15+1270FLND V0201501N006212200019N0080001N1+02601+00801999999ADDMA1102301999999MW1041REMMET044FLND 0800Z 15012KT 8000M FU 26/08 Q1023 NSG;EQDQ01+000003PRSWM1Q02    003PRSWM1
0207675610999992000082515004-13000+028650FM-12+1270FLND V0201801N004112200019N0200001N1+02581+00621999999ADDAY101031AY201031GA1011+018009089GF101991011011017501001001KA1240M+02781MD1999999-0091ME1315169MW1051REMSYN095AAXX  25154 67561 41770 11808 10258 20062 48516 70500 81100 333 59009 81856 555 10278 Q1 018.7;
0231675610999992000082606004-13000+028650FM-12+1270FLND V0209999C000012200019N0200001N1+01571+00741999999ADDAA199000091AY101061AY201061GA1001+999999999GF100991001001999999001001KA1120M+02781KA2120N+01161MD1999999-0041ME1315479MW1051REMSYN076AAXX  26064 67561 31970 00000 10157 20074 48547 70500 333 10278 20116 59004;EQDQ01  00002PRCP99
0163675610999992000082609004-13000+028650FM-12+1270FLND V0201001N003612200019N0250001N1+02261+00641999999ADDAY101031AY201031GA1001+999999999GF100991001001999999001001MD1999999+0051ME1315529MW1051REMSYN064AAXX  26094 67561 41975 01007 10226 20064 48552 70500 333 58005;
0175675610999992000082712004-13000+028650FM-12+1270FLND V0200801N005112200019N0250001N1+02751+00471999999ADDAY101061AY201061GA1021+021009029GF102991021011022501001001MD1999999+0041ME1315319MW1051REMSYN076AAXX  27124 67561 41875 20810 10275 20047 48531 70500 82100 333 58004 82857;
0089675610999992000082805004-13000+028650FM-15+1270FLND V0201201N00511220001CN0099001N1+01501+00701999999ADDMA1102301999999MW1001REMMET037FLND 0500Z 12010KT CAVOK 15/07 Q1023;EQDQ01+000000PRSWM2
0221675610999992000082806004-13000+028650FM-12+1270FLND V0201001N006212200019N0200001N1+01861+00661999999ADDAA199000091AY101061AY201061GF101991011001999999031001KA1120M+02761KA2120N+01341MD1999999-0051ME1315519MW1051REMSYN082AAXX  28064 67561 31970 11012 10186 20066 48551 70500 81030 333 10276 20134 59005;EQDQ01  00002PRCP99
0175675610999992000082809004-13000+028650FM-12+1270FLND V0201201N004112200019N0200001N1+02401+00551999999ADDAY101031AY201031GA1031+018009029GF103991031011017501001001MD1999999+0001ME1558559MW1051REMSYN076AAXX  28094 67561 41770 31208 10240 20055 45855 70500 83100 333 58000 83856;
0175675610999992000082812004-13000+028650FM-12+1270FLND V0201501N001510210019N0250001N1+02581+00461999999ADDAY101061AY201061GA1051+021009029GF105991051011017501001001MD1999999+0051ME1315349MW1051REMSYN076AAXX  28124 67561 41775 51503 10258 20046 48534 70500 85100 333 58005 85857;
0181675610999992000082815004-13000+028650FM-12+1270FLND V0201601N002612200019N0250001N1+02461+00441999999ADDAY111031AY211031GA1031+021009089GF103991031011017501001011MD1999999-0021ME1315219MW1051REMSYN082AAXX  28154 67561 41775 31605 10246 20044 48521 70511 83101 333 59002 83857 81080;
0326675610999992000082906004-13000+028650SY-MT+1270FLND V0200901N00261220001CN0250001N1+01721+00561999999ADDAA199000091AY101061AY201061GF100991001001999999001001KA1120M+02701KA2120N+01191MA1102201999999MD1999999-0091ME1315429MW1051REMSYN095AAXX  29064 67561 31975 00905 10172 20056 48542 70500 333 10270 20119 59009 555 00/// Q1 022.4;MET039FLND 290600Z 09005KT CAVOK 17/06 Q1022;EQDQ01+000000PRSWM2Q02  00002PRCP99Q03    003PRSWM1
0097675610999992000082907004-13000+028650FM-15+1270FLND V0201101N00511220001CN0099001N1+02101+00601999999ADDMA1102201999999MW1001REMMET045FLND 290700Z 11010KT CAVOK 21/06 Q1022 NOSIG;EQDQ01+000000PRSWM2
0097675610999992000082908004-13000+028650FM-15+1270FLND V0200801N00621220001CN0099001N1+02301+00701999999ADDMA1102301999999MW1001REMMET045FLND 290800Z 08012KT CAVOK 23/07 Q1023 NOSIG;EQDQ01+000000PRSWM2
0175675610999992000082909004-13000+028650FM-12+1270FLND V0201001N001512200019N0250001N1+02431+00561999999ADDAY101031AY201031GA1011+012009029GF101991011011017501001001MD1999999-0101ME1315499MW1051REMSYN076AAXX  29094 67561 41775 11003 10243 20056 48549 70500 81100 333 59010 81840;
0138675610999992000083005004-13000+028650FM-15+1270FLND V0200801N001512200019N0080001N1+01501+00801999999ADDGF100991999999999999999999MA1102001999999MW1041REMMET044FLND 0500Z 08003KT 8000M FU SKC 15/08 Q1020;EQDQ01+000003PRSWM1Q02    003PRSWM1
0231675610999992000083006004-13000+028650FM-12+1270FLND V0200901N003112200019N0100001N1+01861+00861999999ADDAA199000091AY101061AY201061GA1001+999999999GF100991001001999999001001KA1120M+02831KA2120N+01261MD1999999-0071ME1315359MW1051REMSYN076AAXX  30064 67561 31960 00906 10186 20086 48535 70500 333 10283 20126 59007;EQDQ01  00002PRCP99
0097675610999992000083008004-13000+028650FM-15+1270FLND V0203601N00211220001CN0099001N1+02401+00801999999ADDMA1102101999999MW1001REMMET045FLND 300800Z 00004KT CAVOK 24/08 Q1021 NOSIG;EQDQ01+000000PRSWM2
0270675610999992000083009004-13000+028650SY-MT+1270FLND V0200901N001012200019N0150001N1+02611+00841999999ADDAY101031AY201031GA1011+018009029GF101991011011017501001001MA1102101999999MD1999999-0091ME1315429MW1051REMSYN076AAXX  30094 67561 41765 10902 10261 20084 48542 70500 81100 333 59009 81856;MET039FLND 300900Z 09002KT CAVOK 26/08 Q1021;EQDQ01+000000PRSWM2Q02    003PRSWM1
0097675610999992000083010004-13000+028650FM-15+1270FLND V0209999C00001220001CN0099001N1+02701+00701999999ADDMA1102001999999MW1001REMMET045FLND 301000Z 00000KT CAVOK 27/07 Q1020 NOSIG;EQDQ01+000000PRSWM2
0276675610999992000083012004-13000+028650SY-MT+1270FLND V0209999C000012200019N0150001N1+02801+00471999999ADDAY101061AY201061GA1031+021009029GF103991031011022501001001MA1101691999999MD1999999-0121ME1315079MW1051REMSYN076AAXX  30124 67561 41865 30000 10280 20047 48507 70500 83100 333 59012 83857;MET045FLND 301200Z 00000KT CAVOK 28/05 Q1017 NOSIG;EQDQ01+000000PRSWM2Q02    003PRSWM1
0097675610999992000083013004-13000+028650FM-15+1270FLND V0202701N00151220001CN0099001N1+03001+00701999999ADDMA1101591999999MW1001REMMET045FLND 301300Z 27003KT CAVOK 30/07 Q1016 NOSIG;EQDQ01+000000PRSWM2
0292675610999992000083015004-13000+028650SY-MT+1270FLND V0209999C000012200019N0200001N1+02821+00551999999ADDAY101031AY201031GA1011+027009059GF101991011051999999999001MA1101591999999MD1999999-0301ME1314969MW1051REMSYN076AAXX  30154 67561 41970 10000 10282 20055 48496 70500 81500 333 59030 81659;MET045FLND 301500Z 00000KT CAVOK 28/05 Q1016 NOSIG;EQDQ01+000002SCOMCGQ02+000000PRSWM2Q03    003PRSWM1
0331675610999992000083106004-13000+028650SY-MT+1270FLND V0209999C000012200019N0004001N1+01681+00721999999ADDAA199000091AY141061AY201061GF100991001001999999001001KA1120M+03011KA2120N+01201MD1999999-0041ME1315309MW1041REMSYN113AAXX  31064 67561 31904 00000 10168 20072 48530 70440 333 10301 20120 59004 555 00/// BB/// CC120 DD/// Q1 021.2;MET041FLND 310600Z 00000KT 400M FU 17/07 Q1021;EQDQ01+000000PRSWM2Q02  00002PRCP99Q03    003PRSWM1
0175675610999992000083109004-13000+028650FM-12+1270FLND V0200301N002112200019N0150001N1+02721+00851999999ADDAY141031AY201031GA1011+018009029GF101991011011017501001001MD1999999-0071ME1315369MW1051REMSYN076AAXX  31094 67561 41765 10304 10272 20085 48536 70540 81100 333 59007 81856;
0175675610999992000083112004-13000+028650FM-12+1270FLND V0203601N002612200019N0200001N1+02961+00641999999ADDAY141061AY201061GA1011+021009029GF101991011011017501001001MD1999999+0011ME1315089MW1051REMSYN076AAXX  31124 67561 41770 13605 10296 20064 48508 70540 81100 333 58001 81857;
0231675610999992000090106004-13000+028650FM-12+1270FLND V0200901N002612200019N0090001N1+01961+00551999999ADDAA199000091AY101061AY201061GA1001+999999999GF100991001001999999001001KA1120M+02411KA2120N+01251MD1999999-0081ME1315259MW1041REMSYN076AAXX  01064 67561 31959 00905 10196 20055 48525 70400 333 10241 20125 59008;EQDQ01  00002PRCP99
0163675610999992000090109004-13000+028650FM-12+1270FLND V0200901N005112200019N0100001N1+02921+00561999999ADDAY101031AY201031GA1001+999999999GF100991001001999999001001MD1999999-0031ME1315339MW1051REMSYN064AAXX  01094 67561 41960 00910 10292 20056 48533 70500 333 59003;
0163675610999992000090112004-13000+028650FM-12+1270FLND V0209999C000012200019N0150001N1+03061+00541999999ADDAY101061AY201061GA1001+999999999GF100991001001999999001001MD1999999+0001ME1315109MW1051REMSYN064AAXX  01124 67561 41965 00000 10306 20054 48510 70500 333 58000;
0201675610999992000090206004-13000+028650FM-12+1270FLND V0200701N006212200019N0070001N1+01951+00621999999ADDAY101061AY201061GA1001+999999999GF100991001001999999001001KA1120M+03251KA2120N+01051MD1999999-0121ME1315259MW1041REMSYN076AAXX  02064 67561 41957 00712 10195 20062 48525 70400 333 10325 20105 59012;
0163675610999992000090212004-13000+028650FM-12+1270FLND V0209999C000012200019N0100001N1+03081+00371999999ADDAY101061AY201061GA1001+999999999GF100991001001999999001001MD1999999-0081ME1315029MW1051REMSYN064AAXX  02124 67561 41960 00000 10308 20037 48502 70500 333 59008;
0268675610999992000090306004-13000+028650FM-12+1270FLND V0200801N002112200019N0060001N1+01561+00521999999ADDAA199000091AY101061AY201061GA1001+999999999GF100991001001999999001001KA1120M+03231KA2120N+01161MD1999999-0121ME1315109MW1041REMSYN113AAXX  03064 67561 31956 00804 10156 20052 48510 70400 333 10323 20116 59012 555 00/// BB/// CC116 DD/// Q1 018.9;EQDQ01  00002PRCP99
0163675610999992000090309004-13000+028650FM-12+1270FLND V0200501N003112200019N0150001N1+02741+00721999999ADDAY101031AY201031GA1001+999999999GF100991001001999999001001MD1999999-0081ME1315209MW1051REMSYN064AAXX  03094 67561 41965 00506 10274 20072 48520 70500 333 59008;
0240675610999992000090312004-13000+028650SY-MT+1270FLND V0203601N003112200019N0150001N1+03081+00401999999ADDAY101061AY201061GF100991001001999999001001MA1101491999999MD1999999-0121ME1314899MW1051REMSYN064AAXX  03124 67561 41965 03606 10308 20040 48489 70500 333 59012;MET037FLND 1200Z 36006KT CAVOK 31/04 Q1015;EQDQ01+000000PRSWM2Q02    003PRSWM1
0240675610999992000090315004-13000+028650SY-MT+1270FLND V0203601N00151220001CN0150001N1+02981+00621999999ADDAY101031AY201031GF100991001001999999001001MA1101391999999MD1999999-0111ME1314809MW1051REMSYN064AAXX  03154 67561 41965 03603 10298 20062 48480 70500 333 59011;MET037FLND 1500Z 36003KT CAVOK 30/06 Q1014;EQDQ01+000000PRSWM2Q02    003PRSWM1
0109675610999992000090404004-13000+028650FM-15+1270FLND V0209999C000012200019N0070001N1+01201+00501999999ADDMA1101691999999MW1041REMMET041FLND 040400Z 00000KT 7000 FU 12/05 Q1017;EQDQ01+000003PRSWM1Q02    003PRSWM1
0231675610999992000090406004-13000+028650FM-12+1270FLND V0209999C000012200019N0070001N1+01751+00761999999ADDAA199000091AY101061AY201061GA1001+999999999GF100991001001999999001001KA1120M+03181KA2120N+01161MD1999999-0011ME1315119MW1041REMSYN076AAXX  04064 67561 31957 00000 10175 20076 48511 70400 333 10318 20116 59001;EQDQ01  00002PRCP99
0223675610999992000090506004-13000+028650FM-12+1270FLND V0209999C000012200019N0060001N1+01811+00751999999ADDAA199000091AY101061AY201061GA1041+090009019GF104991001001999999001041KA1120M+03321KA2120N+01461ME1315199MW1051REMSYN082AAXX  05064 67561 31956 40000 10181 20075 48519 70500 80004 333 10332 20146 84080;EQDQ01  00002PRCP99
0163675610999992000090509004-13000+028650FM-12+1270FLND V0200601N005112200019N0090001N1+02871+00841999999ADDAY101031AY201031GA1001+999999999GF100991001001999999001001MD1999999+0111ME1315299MW1041REMSYN064AAXX  05094 67561 41959 00610 10287 20084 48529 70400 333 58011;
0175675610999992000090512004-13000+028650FM-12+1270FLND V0201701N002612200019N0100001N1+03231+00141999999ADDAY101061AY201061GA1021+090009019GF102991001001999999001011MD1999999+0041ME1314999MW1051REMSYN076AAXX  05124 67561 41960 21705 10323 20014 48499 70500 80001 333 58004 82080;
0230675610999992000090606004-13000+028650FM-12+1270FLND V0200901N002610900019N0060001N1+02001+01021999999ADDAA199000091AY121061AY221061GA1071+090009089GF107991001001999999001081KA1120M+03301MD1999999+0051ME1315269MW1041REMSYN088AAXX  06064 67561 31956 70905 10200 20102 48526 70422 80008 333 10330 30168 58005 87280;EQDQ01  00002PRCP99
0175675610999992000090612004-13000+028650FM-12+1270FLND V0201501N004110900019N0250001N1+02961+00741999999ADDAY121061AY221061GA1071+090009089GF107991001001999999001081MD1999999+0121ME1315159MW1051REMSYN076AAXX  06124 67561 41975 71508 10296 20074 48515 70522 80008 333 58012 87280;
0293675610999992000090706004-13000+028650SY-MT+1270FLND V0209999C000012200019N0060001N1+02041+01151999999ADDAA199000091AY101061AY201061GF100991001001999999001001KA1120M+03111KA2120N+01651MA1101801999999MD1999999-0201ME1315069MW1041REMSYN076AAXX  07064 67561 31956 00000 10204 20115 48506 70400 333 10311 20165 59020;MET041FLND 070600Z 00000KT 6000 FU 20/11 Q1018;EQDQ01  00002PRCP99Q02    003PRSWM1
0163675610999992000090709004-13000+028650FM-12+1270FLND V0201201N003612200019N0100001N1+02841+01131999999ADDAY101031AY201031GA1001+999999999GF100991001001999999001001MD1999999-0121ME1315129MW1051REMSYN064AAXX  07094 67561 41960 01207 10284 20113 48512 70500 333 59012;
0097675610999992000090710004-13000+028650FM-15+1270FLND V0201001N00311220001CN0099001N1+03001+01101999999ADDMA1101591999999MW1001REMMET045FLND 071000Z 10006KT CAVOK 30/11 Q1016 NOSIG;EQDQ01+000000PRSWM2
0097675610999992000090712004-13000+028650FM-15+1270FLND V0201401N00361220001CN0099001N1+03101+00901999999ADDMA1101291999999MW1001REMMET045FLND 071200Z 14007KT CAVOK 31/09 Q1013 NOSIG;EQDQ01+000000PRSWM2
0091675610999992000090715004-13000+028650FM-15+1270FLND V0201201N00511220001CN0099001N1+03101+00701999999ADDMA1101191999999MW1001REMMET039FLND 071500Z 12010KT CAVOK 31/07 Q1012;EQDQ01+000000PRSWM2
0339675610999992000090806004-13000+028650SY-MT+1270FLND V0209999C000012200019N0060001N1+02041+01001999999ADDAA199000091AY101061AY201061GF100991001001999999001001KA1120M+03241KA2120N+01681MA1101801999999MD1999999+0021ME1315089MW1041REMSYN113AAXX  08064 67561 31956 00000 10204 20100 48508 70400 333 10324 20168 58002 555 00/// BB/// CC168 DD/// Q1 018.2;MET050FLND 0600Z 00000KT 6000M FU SKC 20/10 Q1018 NOSIG;EQDQ01  00002PRCP99Q02    003PRSWM1
0144675610999992000090807004-13000+028650FM-15+1270FLND V0200501N004112200019N0070001N1+02501+01001999999ADDGF100991999999999999999999MA1101801999999MW1041REMMET050FLND 0700Z 05008KT 7000M FU SKC 25/10 Q1018 NOSIG;EQDQ01+000003PRSWM1Q02    003PRSWM1
0163675610999992000090809004-13000+028650FM-12+1270FLND V0200701N004112200019N0100001N1+02881+00991999999ADDAY101031AY201031GA1001+999999999GF100991001001999999001001MD1999999+0011ME1315139MW1051REMSYN064AAXX  08094 67561 41960 00708 10288 20099 48513 70500 333 58001;
0259675610999992000090812004-13000+028650SY-MT+1270FLND V0209999C000012200019N0150001N1+03271+00881094911ADDAY101061AY201061GA1031+027009029GF103991999999999999999999MA1101391999999MD1999999+0051MW1051REMSYN070AAXX  08124 67561 41965 30000 10327 20088 49491 70500 333 58005 83859;MET043FLND 1200Z 00000KT CAVOK 33/09 Q1014 NOSIG;EQDQ01+000000PRSWM2Q02    003PRSWM1
0194675610999992000090818004-13000+028650FM-12+1270FLND V0201301N004112200019N0150001N1+02581+00871999999ADDAY101061AY201061GA1021+036009079GF102991021001999999061001KA1120M+03341MD1999999+0091ME1315059MW1051REMSYN082AAXX  08184 67561 41965 21308 10258 20087 48505 70500 82060 333 10334 58009 82362;
0231675610999992000091006004-13000+028650FM-12+1270FLND V0201001N005112200019N0010001N1+01901+01321999999ADDAA199000091AY141061AY201061GA1001+999999999GF100991001001999999001001KA1120M+02961KA2120N+01431MD1999999+0111ME1315429MW1041REMSYN076AAXX  10064 67561 31910 01010 10190 20132 48542 70440 333 10296 20143 58011;EQDQ01  00002PRCP99
0163675610999992000091009004-13000+028650FM-12+1270FLND V0200801N004112200019N0150001N1+02641+01061999999ADDAY141031AY201031GA1001+999999999GF100991001001999999001001MD1999999+0051ME1315479MW1051REMSYN064AAXX  10094 67561 41965 00808 10264 20106 48547 70540 333 58005;
0163675610999992000091109004-13000+028650FM-12+1270FLND V0200901N006712200019N0100001N1+02831+00721999999ADDAY101031AY201031GA1001+999999999GF100991001001999999001001MD1999999-0121ME1315359MW1051REMSYN064AAXX  11094 67561 41960 00913 10283 20072 48535 70500 333 59012;
0259675610999992000091112004-13000+028650SY-MT+1270FLND V0201301N009312200019N0150001N1+03101+00651999999ADDAY101061AY201061GF100991001001999999001001MA1101691999999MD1999999-0081ME1315069MW1051REMSYN077AAXX  11124 67561 41965 01318 10310 20065 48506 70500 333 59008 555 Q1 017.1;MET043FLND 1200Z 13018KT CAVOK 31/07 Q1017 NOSIG;EQDQ01+000000PRSWM2Q02    003PRSWM1
0095675610999992000091113004-13000+028650FM-15+1270FLND V0201401N00511220001CN0099001N1+03001+00501999999ADDMA1101591999999MW1001REMMET043FLND 1300Z 14010KT CAVOK 30/05 Q1016 NOSIG;EQDQ01+000000PRSWM2
0186675610999992000091115004-13000+028650FM-12+1270FLND V0201201N006212200019N0080001N1+02911+00571999999ADDAY101031AY201031GA1001+999999999GF100991001001999999001001KA1999M+03141MD1999999-0051ME1314989MW1041REMSYN074AAXX  11154 67561 41958 01212 10291 20057 48498 70400 333 59005 555 10314;
0091675610999992000091117004-13000+028650FM-15+1270FLND V0201401N00461220001CN0099001N1+02501+00501999999ADDMA1101691999999MW1001REMMET039FLND 111700Z 14009KT CAVOK 25/05 Q1017;EQDQ01+000000PRSWM2
0182675610999992000091118004-13000+028650FM-12+1270FLND V0201301N005112200019N0100001N1+02411+00531999999ADDAY101061AY201061GA1001+999999999GF100991001001999999001001KA1120M+03411MD1999999+0001ME1315179MW1051REMSYN070AAXX  11184 67561 41960 01310 10241 20053 48517 70500 333 10341 58000;
0109675610999992000091205004-13000+028650FM-15+1270FLND V0209999C000012200019N0060001N1+01501+00901999999ADDMA1102001999999MW1041REMMET041FLND 120500Z 00000KT 6000 FU 15/09 Q1020;EQDQ01+000003PRSWM1Q02    003PRSWM1
0346675610999992000091206004-13000+028650SY-MT+1270FLND V0200901N004112200019N0060001N1+01951+00981999999ADDAA199000091AY101061AY201061GA1021+009009999GF104991041021012501001001KA1120M+03141KA2120N+01241MA1102101999999MD1999999+0081ME1315349MW1041REMSYN107AAXX  12064 67561 31656 40908 10195 20098 48534 70400 84200 333 10314 20124 58008 84830 555 00/// Q1 021.6;MET047FLND 0600Z 09008KT 6000M FU SCT030 19/10 Q1021;EQDQ01  00002PRCP99Q02    003PRSWM1
0175675610999992000091209004-13000+028650FM-12+1270FLND V0200901N007210180019N0080001N1+02651+00941999999ADDAY101031AY201031GA1061+018009029GF106991061021017501001001MD1999999+0061ME1315419MW1041REMSYN076AAXX  12094 67561 41758 60914 10265 20094 48541 70400 86200 333 58006 86856;
0163675610999992000091211004-13000+028650FM-15+1270FLND V0201501N008210180019N0080001N1+02601+01001999999ADDGA1071+018009999GF107991999999999999999999MA1102001999999MW1041REMMET053FLND 121100Z 15016KT 8000M FU BKN060 26/10 Q1020 NSG;EQDQ01+000003PRSWM1Q02    003PRSWM1
0175675610999992000091212004-13000+028650FM-12+1270FLND V0200901N006210180019N0100001N1+02851+01031999999ADDAY111061AY211061GA1051+018009029GF105991051021017501001001MD1999999+0161ME1315209MW1041REMSYN076AAXX  12124 67561 41760 50912 10285 20103 48520 70411 85200 333 58016 85856;
0231675610999992000091306004-13000+028650FM-12+1270FLND V0200101N002612200019N0090001N1+01881+01101999999ADDAA199000091AY101061AY201061GA1001+999999999GF100991001001999999001001KA1120M+02891KA2120N+01361MD1999999-0031ME1315339MW1041REMSYN076AAXX  13064 67561 31959 00105 10188 20110 48533 70400 333 10289 20136 59003;EQDQ01  00002PRCP99
0175675610999992000091309004-13000+028650FM-12+1270FLND V0201001N005712200019N0100001N1+02661+00801999999ADDAY101031AY201031GA1011+015009029GF101991011011017501001001MD1999999-0031ME1315449MW1051REMSYN076AAXX  13094 67561 41760 11011 10266 20080 48544 70500 81100 333 59003 81850;
0175675610999992000091312004-13000+028650FM-12+1270FLND V0200801N002112200019N0150001N1+02901+00841999999ADDAY101061AY201061GA1011+021009029GF101991011011022501001001MD1999999-0091ME1315119MW1051REMSYN076AAXX  13124 67561 41865 10804 10290 20084 48511 70500 81100 333 59009 81857;
0256675610999992000091404004-13000+028650SY-MT+1270FLND V0209999C000012200019N0060001N1+01221+00711999999ADDAY101999AY201999GF102991001001999999001021MA1101901999999MD1999999-0021ME1315179MW1041REMSYN089AAXX  14044 67561 41956 20000 10122 20071 48517 70400 80002 333 59002 82080 555 Q1 019.8;MET044FLND 0400Z 00000KT 6000M FU SKC 12/07 Q1019;EQDQ01    003PRSWM1
0163675610999992000091409004-13000+028650FM-12+1270FLND V0200401N006212200019N0150001N1+02861+01021999999ADDAY101031AY201031GA1001+999999999GF100991001001999999001001MD1999999-0131ME1316329MW1051REMSYN064AAXX  14094 67561 41965 00412 10286 20102 48632 70500 333 59013;
0157675610999992000091412004-13000+028650FM-12+1270FLND V0202801N003112200019N0200001N1+03131+00931999999ADDAY101061AY201061GF103991031011999999001001MD1999999-0061ME1315089MW1051REMSYN074AAXX  14124 67561 41970 32806 10313 20093 48508 70500 83100 333 59006 555;
0327675610999992000091506004-13000+028650SY-MT+1270FLND V0200801N006212200019N0080001N1+02161+01101999999ADDAA199000091AY111061AY211061GA1011+036009079GF101991011001999999031001KA1120M+03261KA2120N+01601MA1102101999999MD1999999+0071ME1315359MW1041REMSYN088AAXX  15064 67561 31958 10812 10216 20110 48535 70411 81030 333 10326 20160 58007 81362;MET047FLND 150600Z 08012KT 8000 FU 22/11 Q1021 NOSIG;EQDQ01  00002PRCP99Q02    003PRSWM1
0097675610999992000091507004-13000+028650FM-15+1270FLND V0200301N00621220001CN0099001N1+02401+01001999999ADDMA1102101999999MW1001REMMET045FLND 150700Z 03012KT CAVOK 24/10 Q1021 NOSIG;EQDQ01+000000PRSWM2
0248675610999992000091509004-13000+028650SY-MT+1270FLND V0200601N007712200019N0200001N1+02941+01141999999ADDAY101031AY201031GF100991001001999999001001MA1102001999999MD1999999-0041ME1315379MW1051REMSYN064AAXX  15094 67561 41970 00615 10294 20114 48537 70500 333 59004;MET045FLND 150900Z 06015KT CAVOK 29/11 Q1020 NOSIG;EQDQ01+000000PRSWM2Q02    003PRSWM1
0091675610999992000091511004-13000+028650FM-15+1270FLND V0200801N00411220001CN0099001N1+03201+01001999999ADDMA1101801999999MW1001REMMET039FLND 151100Z 08008KT CAVOK 32/10 Q1018;EQDQ01+000000PRSWM2
0175675610999992000091515004-13000+028650FM-12+1270FLND V0201201N006210210019N0200001N1+03091+00741999999ADDAY101031AY201031GA1051+021009029GF105991051021022501001001MD1999999-0061ME1314939MW1051REMSYN076AAXX  15154 67561 41870 51212 10309 20074 48493 70500 85200 333 59006 85857;
0175675610999992000091609004-13000+028650FM-12+1270FLND V0200101N001512200019N0080001N1+02671+01301999999ADDAY101031AY201031GA1011+015009029GF101991011011017501001001MD1999999-0021ME1315349MW1041REMSYN076AAXX  16094 67561 41758 10103 10267 20130 48534 70400 81100 333 59002 81850;
0254675610999992000091612004-13000+028650SY-MT+1270FLND V0200901N00361220001CN0100001N1+02961+01141999999ADDAY101061AY201061GF101991011011022501001001MA1101691999999MD1999999-0031ME1315089MW1051REMSYN076AAXX  16124 67561 41860 10907 10296 20114 48508 70500 81100 333 59003 81856;MET039FLND 161200Z 09007KT CAVOK 30/11 Q1017;EQDQ01+000000PRSWM2Q02    003PRSWM1
0091675610999992000091615004-13000+028650FM-15+1270FLND V0200901N00361220001CN0099001N1+02901+01101999999ADDMA1101591999999MW1001REMMET039FLND 151500Z 09007KT CAVOK 29/11 Q1016;EQDQ01+000000PRSWM2
0139675610999992000091617004-13000+028650FM-15+1270FLND V0201201N001512200019N0070001N1+02401+01101999999ADDGF100991999999999999999999MA1101691999999MW1041REMMET045FLND 161700Z 12003KT 7000 FU SKC 24/11 Q1017;EQDQ01+000003PRSWM1Q02    003PRSWM1
0231675610999992000091706004-13000+028650FM-12+1270FLND V0200701N005712200019N0080001N1+02031+01231999999ADDAA199000091AY101061AY201061GA1001+999999999GF100991001001999999001001KA1120M+03051KA2120N+01521MD1999999-0051ME1315289MW1041REMSYN076AAXX  17064 67561 31958 00711 10203 20123 48528 70400 333 10305 20152 59005;EQDQ01  00002PRCP99
0175675610999992000091712004-13000+028650FM-12+1270FLND V0202301N003112200019N0150001N1+03121+01231999999ADDAY101061AY201061GA1041+021009029GF104991041021022501001001MD1999999-0041ME1315059MW1051REMSYN076AAXX  17124 67561 41865 42306 10312 20123 48505 70500 84200 333 59004 84857;
0175675610999992000091715004-13000+028650FM-12+1270FLND V0201901N001512200019N0150001N1+03011+01031999999ADDAY101031AY201031GA1011+027009029GF101991011021999999001001MD1999999-0021ME1314969MW1051REMSYN076AAXX  17154 67561 41965 11903 10301 20103 48496 70500 81200 333 59002 81859;
0076675610999992000091805004-13000+028650FM-15+1270FLND V0209999C000012200019N0400001N1+99999+99999999999ADDMW1001REMMET039FLND 0500Z 00000KT 400M FU 15/10 Q1020;EQDQ01+000000PRSWM2
0292675610999992000091806004-13000+028650SY-MT+1270FLND V0200901N002112200019N0004001N1+02001+00921999999ADDAA199000091AY141061AY201061GF100991001001999999001001KA1120M+03241MD1999999-0011ME1315279MW1041REMSYN089AAXX  18064 67561 31904 00904 10200 20092 48527 70440 333 10324 59001 555 00/// Q1 020.5;MET039FLND 0600Z 09004KT 400M FU 20/09 Q1020;EQDQ01+000000PRSWM2Q02  00002PRCP99Q03    003PRSWM1
0240675610999992000091809004-13000+028650SY-MT+1270FLND V0201201N005112200019N0200001N1+02831+00941999999ADDAY101031AY201031GF100991001001999999001001MA1101901999999MD1999999-0031ME1315269MW1051REMSYN064AAXX  18094 67561 41970 01210 10283 20094 48526 70500 333 59003;MET037FLND 0900Z 12010KT CAVOK 28/09 Q1019;EQDQ01+000000PRSWM2Q02    003PRSWM1
0240675610999992000091812004-13000+028650SY-MT+1270FLND V0201501N004112200019N0200001N1+03201+00361999999ADDAY101061AY201061GF100991001001999999001001MA1101591999999MD1999999-0011ME1315059MW1051REMSYN064AAXX  18124 67561 41970 01508 10320 20036 48505 70500 333 59001;MET037FLND 1200Z 15008KT CAVOK 32/04 Q1016;EQDQ01+000000PRSWM2Q02    003PRSWM1
0241675610999992000091906004-13000+028650FM-12+1270FLND V0200801N002612200019N0090001N1+02061+00861999999ADDAA199000091AY101061AY201061GA1001+999999999GF100991001001999999001001KA1120M+03301KA2120N+01441MD1999999+0041ME1315319MW1041REMSYN086AAXX  19064 67561 31959 00805 10206 20086 48531 70400 333 10330 20144 58004 555 00///;EQDQ01  00002PRCP99
0089675610999992000092004004-13000+028650FM-15+1270FLND V0209999C00001220001CN0099001N1+01801+01301999999ADDMA1102001999999MW1001REMMET037FLND 0400Z 00000KT CAVOK 18/13 Q1020;EQDQ01+000000PRSWM2
0163675610999992000092009004-13000+028650FM-12+1270FLND V0200801N006212200019N0100001N1+02781+00961999999ADDAY101031AY201031GA1001+999999999GF100991001001999999001001MD1999999+0001ME1315359MW1051REMSYN064AAXX  20094 67561 41960 00812 10278 20096 48535 70500 333 58000;
0175675610999992000092012004-13000+028650FM-12+1270FLND V0200901N004612200019N0100001N1+03011+00941999999ADDAY101061AY201061GA1011+030009079GF101991011001999999061001MD1999999-0061ME1315069MW1051REMSYN076AAXX  20124 67561 41960 10909 10301 20094 48506 70500 81060 333 59006 81360;
0109675610999992000092017004-13000+028650FM-15+1270FLND V0201101N006212200019N0080001N1+02501+00901999999ADDMA1101691999999MW1041REMMET041FLND 201700Z 11012KT 8000 FU 25/09 Q1017;EQDQ01+000003PRSWM1Q02    003PRSWM1
0289675610999992000092018004-13000+028650SY-MT+1270FLND V0201201N003612200019N0100001N1+02411+00921999999ADDAY101061AY201061GA1011+030009079GF101991011001999999061001KA1120M+03091MA1101801999999MD1999999-0081ME1315139MW1051REMSYN082AAXX  20184 67561 41960 11207 10241 20092 48513 70500 81060 333 10309 59008 81360;MET039FLND 201800Z 12007KT CAVOK 24/09 Q1018;EQDQ01+000000PRSWM2Q02    003PRSWM1
0091675610999992000092104004-13000+028650FM-15+1270FLND V0201101N00261220001CN0099001N1+01601+01001999999ADDMA1102001999999MW1001REMMET039FLND 210400Z 11005KT CAVOK 16/10 Q1020;EQDQ01+000000PRSWM2
0092675610999992000092105004-13000+028650FM-15+1270FLND V0200801N00101220001CN0099001N1+01601+01001999999ADDMA1102101999999MW1001REMMET040FLND 210500Z 08002KT CAVOK 16/10 Q1021 ;EQDQ01+000000PRSWM2
0280675610999992000092106004-13000+028650FM-12+1270FLND V0200801N006212200019N0100001N1+02081+01021999999ADDAA199000091AY101061AY201061GA1011+090009009GF101991001001999999001011KA1120M+03091KA2120N+02091MD1999999+0041ME1315399MW1051REMSYN125AAXX  21064 67561 31960 10812 10208 20102 48539 70500 80001 333 10309 20209 58004 81080 555 00/// BB/// CC209 DD/// Q1 021.8;EQDQ01  00002PRCP99
0089675610999992000092107004-13000+028650FM-15+1270FLND V0200801N00671220001CN0099001N1+02501+00501999999ADDMA1102201999999MW1001REMMET037FLND 0700Z 08013KT CAVOK 25/05 Q1022;EQDQ01+000000PRSWM2
0308675610999992000092109004-13000+028650SY-MT+1270FLND V0200101N999992200019N0200001N1+02691+00741999999ADDAY101031AY201031GA1011+018009029GA2011+090009019GF101991011011017501001011MA1102101999999MD1999999+0071ME1315419MW1051REMSYN082AAXX  21094 67561 41770 10166 10269 20074 48541 70500 81101 333 58007 81856 81080;MET039FLND 210900Z 06016KT CAVOK 27/07 Q1021;EQDQ01+003393WOSPD Q02+000000PRSWM2Q03    003PRSWM1
0089675610999992000092111004-13000+028650FM-15+1270FLND V0201201N00771220001CN0099001N1+02901+00701999999ADDMA1101901999999MW1001REMMET037FLND 1100Z 12015KT CAVOK 29/07 Q1019;EQDQ01+000000PRSWM2
0181675610999992000092112004-13000+028650FM-12+1270FLND V0200901N004111050019N0200001N1+02881+00701999999ADDAY111061AY211061GA1011+021009089GF107991011011022501001071MD1999999+0081ME1315129MW1051REMSYN082AAXX  21124 67561 41870 70908 10288 20070 48512 70511 81107 333 58008 81857 94728;
0089675610999992000092113004-13000+028650FM-15+1270FLND V0201201N00311220001CN0099001N1+02901+00701999999ADDMA1101691999999MW1001REMMET037FLND 1300Z 12006KT CAVOK 29/07 Q1017;EQDQ01+000000PRSWM2
0181675610999992000092115004-13000+028650FM-12+1270FLND V0200901N00511105001CN0200001N1+02751+01521999999ADDAY121031AY221031GA1021+021009089GF107991021011022501001081MD1999999+0131ME1315329MW1051REMSYN082AAXX  21154 67561 41870 70910 10275 20152 48532 70522 82108 333 58013 82857 86280;
0243675610999992000092206004-13000+028650FM-12+1270FLND V0200901N006212200019N0100001N1+01951+00921999999ADDAA199000091AY101061AY201061GA1031+090009019GF103991001001999999001021KA1120M+02991KA2120N+01351MD1999999+0071ME1315459MW1051REMSYN088AAXX  22064 67561 31960 30912 10195 20092 48545 70500 80002 333 10299 20135 58007 83080;EQDQ01  00002PRCP99
0161675610999992000092212004-13000+028650FM-12+1270FLND V0201901N00211105001CN0100001N1+02851+00861999999ADDAY111061AY211061GA1011+021009089GF106991011021022501001081ME1315189MW1051REMSYN076AAXX  22124 67561 41860 61904 10285 20086 48518 70511 81208 333 81857 86280;
0231675610999992000092306004-13000+028650FM-12+1270FLND V0200901N006212200019N0200001N1+02091+00971999999ADDAA199000091AY101061AY201061GA1001+999999999GF100991001001999999001001KA1120M+03051KA2120N+01581MD1999999-0071ME1315399MW1051REMSYN076AAXX  23064 67561 31970 00912 10209 20097 48539 70500 333 10305 20158 59007;EQDQ01  00002PRCP99
0176675610999992000092309004-13000+028650FM-12+1270FLND V0200601N004612200019N0200001N1+02711+00491999999ADDAY101031AY201031GA1001+999999999GF100991001001999999001001MD1999999-0121ME1315419MW1051REMSYN077AAXX  23094 67561 41970 00609 10271 20049 48541 70500 333 59012 555 Q1 020.2;
0163675610999992000092312004-13000+028650FM-12+1270FLND V0201801N001512200019N0250001N1+03041+00491999999ADDAY101061AY201061GA1001+999999999GF100991001001999999001001MD1999999-0101ME1315109MW1051REMSYN064AAXX  23124 67561 41975 01803 10304 20049 48510 70500 333 59010;
0231675610999992000092406004-13000+028650FM-12+1270FLND V0200901N005112200019N0080001N1+01981+00821999999ADDAA199000091AY101061AY201061GA1001+999999999GF100991001001999999001001KA1120M+03061KA2120N+01341MD1999999-0101ME1315299MW1041REMSYN076AAXX  24064 67561 31958 00910 10198 20082 48529 70400 333 10306 20134 59010;EQDQ01  00002PRCP99
0274675610999992000092412004-13000+028650SY-MT+1270FLND V0209999C000012200019N0200001N1+03011+00721999999ADDAY101061AY201061GA1041+021009029GF104991041011022501001001MA1101591999999MD1999999-0061ME1315049MW1051REMSYN082AAXX  24124 67561 41870 40000 10301 20072 48504 70500 84100 333 59006 84857 91016;MET037FLND 1200Z 00000KT CAVOK 30/07 Q1016;EQDQ01+000000PRSWM2Q02    003PRSWM1
0231675610999992000092506004-13000+028650FM-12+1270FLND V0209999C000012200019N0030001N1+01951+01001999999ADDAA199000091AY101061AY201061GA1001+999999999GF100991001001999999001001KA1120M+03101KA2120N+01401MD1999999-0011ME1315289MW1041REMSYN076AAXX  25064 67561 31930 00000 10195 20100 48528 70400 333 10310 20140 59001;EQDQ01  00002PRCP99
0097675610999992000092509004-13000+028650FM-15+1270FLND V0200301N00211220001CN0099001N1+02801+00901999999ADDMA1102001999999MW1001REMMET045FLND 250900Z 03004KT CAVOK 28/09 Q1020 NOSIG;EQDQ01+000000PRSWM2
0175675610999992000092512004-13000+028650FM-12+1270FLND V0209999C000010180019N0100001N1+03141+00741999999ADDAY111061AY211061GA1051+018009029GF106991999999022501999999MD1999999-0041ME1315099MW1051REMSYN076AAXX  25124 67561 41860 60000 10314 20074 48509 70511 96200 333 59004 85856;
0344675610999992000092606004-13000+028650SY-MT+1270FLND V0200901N001012200019N0100001N1+02131+00801999999ADDAA199000091AY101061AY201061GF100991001001999999001001KA1120M+03101KA2120N+01611MA1102101999999MD1999999+0041ME1315339MW1051REMSYN109AAXX  26064 67561 31960 00902 10213 20080 48533 70500 333 10310 20161 58004 555 00/// BB// CC161 DD/// 11021;MET043FLND 0600Z 09002KT CAVOK 21/08 Q1021 NOSIG;EQDQ01+000000PRSWM2Q02  00002PRCP99Q03    003PRSWM1
0097675610999992000092607004-13000+028650FM-15+1270FLND V0200801N00411220001CN0099001N1+02501+00701999999ADDMA1102001999999MW1001REMMET045FLND 260700Z 08008KT CAVOK 25/07 Q1020 NOSIG;EQDQ01+000000PRSWM2
0097675610999992000092608004-13000+028650FM-15+1270FLND V0200801N00411220001CN0099001N1+02701+00901999999ADDMA1102001999999MW1001REMMET045FLND 260800Z 08008KT CAVOK 27/09 Q1020 NOSIG;EQDQ01+000000PRSWM2
0248675610999992000092609004-13000+028650SY-MT+1270FLND V0200901N003612200019N0200001N1+02911+00971999999ADDAY101031AY201031GF100991001001999999001001MA1102001999999MD1999999+0001ME1315329MW1051REMSYN064AAXX  26094 67561 41970 00907 10291 20097 48532 70500 333 58000;MET045FLND 260900Z 09007KT CAVOK 29/10 Q1020 NOSIG;EQDQ01+000000PRSWM2Q02    003PRSWM1
0254675610999992000092612004-13000+028650SY-MT+1270FLND V0201301N00261220001CN0250001N1+03091+00661999999ADDAY111061AY211061GF105991051011999999001001MA1101591999999MD1999999-0051ME1315039MW1051REMSYN076AAXX  26124 67561 41975 51305 10309 20066 48503 70511 85100 333 59005 85858;MET039FLND 261200Z 13005KT CAVOK 31/07 Q1016;EQDQ01+000000PRSWM2Q02    003PRSWM1
0097675610999992000092613004-13000+028650FM-15+1270FLND V0202001N00311220001CN0099001N1+03201+00701999999ADDMA1101491999999MW1001REMMET045FLND 261300Z 20006KT CAVOK 32/07 Q1015 NOSIG;EQDQ01+000000PRSWM2
0097675610999992000092614004-13000+028650FM-15+1270FLND V0202001N00571220001CN0099001N1+03101+00501999999ADDMA1101491999999MW1001REMMET045FLND 261400Z 20011KT CAVOK 31/05 Q1015 NOSIG;EQDQ01+000000PRSWM2
0260675610999992000092615004-13000+028650SY-MT+1270FLND V0201401N00311220001CN0200001N1+03061+00471999999ADDAY101031AY201031GF104991041001999999061001MA1101491999999MD1999999-0071ME1314949MW1051REMSYN076AAXX  26154 67561 41970 41406 10306 20047 48494 70500 84060 333 59007 84360;MET045FLND 261500Z 14006KT CAVOK 31/05 Q1015 NOSIG;EQDQ01+000000PRSWM2Q02    003PRSWM1
0091675610999992000092616004-13000+028650FM-15+1270FLND V0201701N00261220001CN0099001N1+02901+00501999999ADDMA1101591999999MW1001REMMET039FLND 261600Z 17005KT CAVOK 29/05 Q1016;EQDQ01+000000PRSWM2
0097675610999992000092617004-13000+028650FM-15+1270FLND V0201301N00361220001CN0099001N1+02701+00501999999ADDMA1101591999999MW1001REMMET045FLND 261700Z 13007KT CAVOK 27/05 Q1016 NOSIG;EQDQ01+000000PRSWM2
0207675610999992000092618004-13000+028650FM-12+1270FLND V0201701N003612200019N0150001N1+02501+00421999999ADDAY101061AY201061GA1011+033009039GF101991011001999999061001KA1120M+03251MD1999999-0051ME1315559MW1051REMSYN095AAXX  26184 67561 41965 11707 10250 20042 48555 70500 81060 333 10325 59005 81361 555 Q1 017.4;
0243675610999992000092706004-13000+028650FM-12+1270FLND V0200901N002610900019N0080001N1+02201+00841999999ADDAA199000091AY101061AY201061GA1061+090009089GF106991001001999999001081KA1120M+03251KA2120N+01611MD1999999-0031ME1315319MW1051REMSYN088AAXX  27064 67561 31958 60905 10220 20084 48531 70500 80008 333 10325 20161 59003 86280;EQDQ01  00002PRCP99
0181675610999992000092709004-13000+028650FM-12+1270FLND V0200601N004112200019N0200001N1+03011+00631999999ADDAY111031AY211031GA1021+021009089GF102991021011022501001021MD1999999+0031ME1315369MW1051REMSYN082AAXX  27094 67561 41870 20608 10301 20063 48536 70511 82102 333 58003 82857 81080;
0181675610999992000092712004-13000+028650FM-12+1270FLND V0200901N009312200019N0250001N1+03181+00391999999ADDAY111061AY211061GA1021+021009089GF102991021011022501001011MD1999999+0031ME1315079MW1051REMSYN082AAXX  27124 67561 41875 20918 10318 20039 48507 70511 82101 333 58003 82857 81080;
0181675610999992000092715004-13000+028650FM-12+1270FLND V0201201N007712200019N0250001N1+02941+00561999999ADDAY101031AY201031GA1011+021009089GF101991011011022501001011MD1999999+0071ME1315019MW1051REMSYN082AAXX  27154 67561 41875 11215 10294 20056 48501 70500 81101 333 58007 81857 81080;
0091675610999992000092716004-13000+028650FM-15+1270FLND V0201201N00511220001CN0099001N1+02801+00501999999ADDMA1101691999999MW1001REMMET039FLND 271600Z 12010KT CAVOK 28/05 Q1017;EQDQ01+000000PRSWM2
0243675610999992000092806004-13000+028650FM-12+1270FLND V0201101N007710900019N0090001N1+02301+01001999999ADDAA199000091AY121061AY221061GA1061+090009089GF106991001001999999001081KA1120M+03301KA2120N+01751MD1999999+0061ME1315379MW1041REMSYN088AAXX  28064 67561 31959 61115 10230 20100 48537 70422 80008 333 10330 20175 58006 86280;EQDQ01  00002PRCP99
0181675610999992000092809004-13000+028650FM-12+1270FLND V0201001N00721105001CN0100001N1+02831+00981999999ADDAY121031AY221031GA1011+015009089GF107991011011017501001081MD1999999+0051ME1315409MW1051REMSYN082AAXX  28094 67561 41760 71014 10283 20098 48540 70522 81108 333 58005 81850 87280;
0181675610999992000092812004-13000+028650FM-12+1270FLND V0200801N00411105001CN0100001N1+03081+00801999999ADDAY121061AY221061GA1041+018009089GF107991041021022501001081MD1999999+0031ME1315099MW1051REMSYN082AAXX  28124 67561 41860 70808 10308 20080 48509 70522 84208 333 58003 84856 87280;
0181675610999992000092815004-13000+028650FM-12+1270FLND V0201101N00721105001CN0080001N1+02831+00691999999ADDAY121031AY221031GA1021+024009069GF107991021041022501001081MD1999999+0061ME1315069MW1041REMSYN082AAXX  28154 67561 41858 71114 10283 20069 48506 70422 82408 333 58006 82658 87280;
0247675610999992000092906004-13000+028650FM-12+1270FLND V0203001N055022200019N0080001N1+02131+00831999999ADDAA199000091AY101061AY201061GA1001+999999999GF100991001001999999001001KA1120M+03111KA2120N+01331MD1999999+0061ME1315429MW1041REMSYN076AAXX  29064 67561 31958 08007 10213 20083 48542 70400 333 10311 20133 58006;EQDQ01+005503WOSPD Q02  00002PRCP99
0175675610999992000092912004-13000+028650FM-12+1270FLND V0201001N002112200019N0200001N1+03041+00651999999ADDAY101061AY201061GA1011+024009029GF101991011011022501001001MD1999999-0011ME1315089MW1051REMSYN076AAXX  29124 67561 41870 11004 10304 20065 48508 70500 81100 333 59001 81858;
0095675610999992000092914004-13000+028650FM-15+1270FLND V0200701N00101220001CN0099001N1+03101+00601999999ADDMA1101591999999MW1001REMMET043FLND 1400Z 07002KT CAVOK 31/06 Q1016 NOSIG;EQDQ01+000000PRSWM2
0192675610999992000092915004-13000+028650FM-12+1270FLND V0201701N004612200019N0200001N1+02911+00461999999ADDAY101031AY201031GA1011+027009069GF101991011041999999001001KA1240M+03151MD1999999-0081MW1051REMSYN089AAXX  29154 67561 41970 11709 10291 20046 70500 81400 333 59008 81659 555 10315 Q1 016.4;
0293675610999992000093006004-13000+028650SY-MT+1270FLND V0200801N002112200019N0060001N1+02031+00911999999ADDAA199000091AY101061AY201061GF100991001001999999001001KA1120M+03151KA2120N+01441MA1102101999999MD1999999-0061ME1315359MW1041REMSYN076AAXX  30064 67561 31956 00804 10203 20091 48535 70400 333 10315 20144 59006;MET041FLND 300600Z 08004KT 6000 FU 20/09 Q1021;EQDQ01  00002PRCP99Q02    003PRSWM1
0163675610999992000093009004-13000+028650FM-12+1270FLND V0209999C000012200019N0200001N1+02841+00711999999ADDAY101031AY201031GA1001+999999999GF100991001001999999001001MD1999999-0061ME1315369MW1051REMSYN064AAXX  30094 67561 41970 00000 10284 20071 48536 70500 333 59006;
0163675610999992000093012004-13000+028650FM-12+1270FLND V0201801N002612200019N0200001N1+03141+00401999999ADDAY101061AY201061GA1001+999999999GF100991001001999999001001MD1999999-0041ME1315049MW1051REMSYN064AAXX  30124 67561 41970 01805 10314 20040 48504 70500 333 59004;
0195675610999992000093015004-13000+028650FM-12+1270FLND V0200901N003112200019N0200001N1+03041+00451999999ADDAY101031AY201031GA1001+999999999GF100991001001999999001001KA1240M+03201MD1999999-0061ME1314939MW1051REMSYN083AAXX  30154 67561 41970 00906 10304 20045 48493 70500 333 59006 555 10320 Q1 015.7;
0231675610999992000100106004-13000+028650FM-12+1270FLND V0200801N003612200019N0050001N1+02091+00841999999ADDAA199000091AY101061AY201061GA1001+999999999GF100991001001999999001001KA1120M+03201KA2120N+01411MD1999999+0001ME1315359MW1051REMSYN076AAXX  01064 67561 31950 00807 10209 20084 48535 70500 333 10320 20141 58000;EQDQ01  00002PRCP99
0246675610999992000100112004-13000+028650SY-MT+1270FLND V0200501N00211220001CN0200001N1+03161+00671999999ADDAY101061AY201061GF100991001001999999001001MA1101591999999MD1999999+0001ME1315049MW1051REMSYN064AAXX  01124 67561 41970 00504 10316 20067 48504 70500 333 58000;MET043FLND 1200Z 05004KT CAVOK 32/07 Q1016 NOSIG;EQDQ01+000000PRSWM2Q02    003PRSWM1
0231675610999992000100206004-13000+028650FM-12+1270FLND V0200501N002112200019N0060001N1+02191+00761999999ADDAA199000091AY101061AY201061GA1001+999999999GF100991001001999999001001KA1120M+03321KA2120N+01551MD1999999-0061ME1315309MW1041REMSYN076AAXX  02064 67561 31956 00504 10219 20076 48530 70400 333 10332 20155 59006;EQDQ01  00002PRCP99
0243675610999992000100306004-13000+028650FM-12+1270FLND V0200901N006210900019N0100001N1+02451+01171999999ADDAA199000091AY101061AY201061GA1051+090009019GF105991001001999999001011KA1120M+03401KA2120N+01701MD1999999-0051ME1315289MW1051REMSYN088AAXX  03064 67561 31960 50912 10245 20117 48528 70500 80001 333 10340 20170 59005 85080;EQDQ01  00002PRCP99
0181675610999992000100309004-13000+028650FM-12+1270FLND V0200901N00771105001CN0080001N1+03021+01281999999ADDAY121031AY221031GA1011+021009089GF107991011011022501001071MD1999999-0021ME1315269MW1051REMSYN082AAXX  03094 67561 41858 70915 10302 20128 48526 70522 81107 333 59002 81857 87280;
0188675610999992000100312004-13000+028650FM-12+1270FLND V0209999C000012200019N0100001N1+03221+01771999999ADDAY101061AY201061GA1041+024009089GF104991041021999999001001MD1999999-0101ME1314919MW1051REMSYN089AAXX  03124 67561 41960 40000 10322 20177 48491 70500 84200 333 59010 84858 555 Q1 015.3;
0089675610999992000100405004-13000+028650FM-15+1270FLND V0209999C00001220001CN0099001N1+01901+01201999999ADDMA1101901999999MW1001REMMET037FLND 0500Z 00000KT CAVOK 19/12 Q1019;EQDQ01+000000PRSWM2
0319675610999992000100406004-13000+028650SY-MT+1270FLND V0200801N00511220001CN0200001N1+02261+01351999999ADDAA199000091AY101061AY201061GF101991001001999999001011KA1120M+03281KA2120N+01711MA1101901999999MD1999999-0031ME1315239MW1051REMSYN088AAXX  04064 67561 31970 10810 10226 20135 48523 70500 80001 333 10328 20171 59003 81080;MET039FLND 040600Z 08010KT CAVOK 23/13 Q1019;EQDQ01+000000PRSWM2Q02  00002PRCP99Q03    003PRSWM1
0095675610999992000100407004-13000+028650FM-15+1270FLND V0200901N00771220001CN0099001N1+02601+01301999999ADDMA1102001999999MW1001REMMET043FLND 0700Z 09015KT CAVOK 26/13 Q1020 NOSIG;EQDQ01+000000PRSWM2
0097675610999992000100408004-13000+028650FM-15+1270FLND V0200501N00511220001CN0099001N1+02701+01401999999ADDMA1101901999999MW1001REMMET045FLND 040800Z 05010KT CAVOK 27/14 Q1019 NOSIG;EQDQ01+000000PRSWM2
0181675610999992000100409004-13000+028650FM-12+1270FLND V0200701N00511105001CN0200001N1+02781+01361999999ADDAY101031AY201031GA1021+015009089GF105991021011012501001021MD1999999-0061ME1315189MW1051REMSYN082AAXX  04094 67561 41670 50710 10278 20136 48518 70500 82102 333 59006 82850 84080;
0181675610999992000100412004-13000+028650FM-12+1270FLND V0209999C000010210019N0200001N1+03151+01261999999ADDAY111061AY211061GA1051+021009089GF105991051011017501001021MD1999999+0041ME1314949MW1051REMSYN082AAXX  04124 67561 41770 50000 10315 20126 48494 70511 85102 333 58004 85857 81080;
0203675610999992000100415004-13000+028650FM-12+1270FLND V0201701N004110240019N0200001N1+03021+01121999999ADDAY111031AY211031GA1031+021009089GA2031+024009069GF106991051081017501001021MD1999999+0041ME1314869MW1051REMSYN088AAXX  04154 67561 41770 61708 10302 20112 48486 70511 85802 333 58004 83857 83658 83080;
0280675610999992000100506004-13000+028650FM-12+1270FLND V0200801N004612200019N0090001N1+02321+01291999999ADDAA199000091AY101061AY201061GA1031+090009009GF103991001001999999001011KA1120M+03251KA2120N+01681MD1999999+0071ME1315319MW1041REMSYN125AAXX  05064 67561 31959 30809 10232 20129 48531 70400 80001 333 10325 20168 58007 83080 555 00/// BB/// CC168 DD/// Q1 020.6;EQDQ01  00002PRCP99
0095675610999992000100507004-13000+028650FM-15+1270FLND V0200301N00621220001CN0099001N1+02601+01301999999ADDMA1102001999999MW1001REMMET043FLND 0700Z 03012KT CAVOK 26/13 Q1020 NOSIG;EQDQ01+000000PRSWM2
0175675610999992000100509004-13000+028650FM-12+1270FLND V0201201N003612200019N0200001N1+02911+01331999999ADDAY101031AY201031GA1011+015009029GF101991011011017501001001MD1999999+0081ME1315289MW1051REMSYN076AAXX  05094 67561 41770 11207 10291 20133 48528 70500 81100 333 58008 81850;
0095675610999992000100510004-13000+028650FM-15+1270FLND V0200101N00211220001CN0099001N1+03001+01301999999ADDMA1101801999999MW1001REMMET043FLND 1000Z 01004KT CAVOK 30/13 Q1018 NOSIG;EQDQ01+000000PRSWM2
0194675610999992000100512004-13000+028650FM-12+1270FLND V0209999C000010210019N0250001N1+03101+01221999999ADDAY101061AY201061GA1061+021009029GF106991999021022501001001MD1999999-0011ME1315039MW1051REMSYN076AAXX  05124 67561 41875 60000 10310 20122 48503 70500 85200 333 59001 86857;EQDQ01+000052SCOTLC
0231675610999992000100606004-13000+028650FM-12+1270FLND V0200301N005112200019N0060001N1+02251+01051999999ADDAA199000091AY101061AY201061GA1001+999999999GF100991001001999999001001KA1120M+03281KA2120N+01641MD1999999-0021ME1315279MW1041REMSYN076AAXX  06064 67561 31956 00310 10225 20105 48527 70400 333 10328 20164 59002;EQDQ01  00002PRCP99
0175675610999992000100609004-13000+028650FM-12+1270FLND V0200601N003112200019N0200001N1+03021+01191999999ADDAY101031AY201031GA1011+018009029GF101991011011017501001001MD1999999-0041ME1315249MW1051REMSYN076AAXX  06094 67561 41770 10606 10302 20119 48524 70500 81100 333 59004 81856;
0097675610999992000100704004-13000+028650FM-15+1270FLND V0200701N00411220001CN0099001N1+01801+01001999999ADDMA1101801999999MW1001REMMET045FLND 070400Z 07008KT CAVOK 18/10 Q1018 NOSIG;EQDQ01+000000PRSWM2
0097675610999992000100705004-13000+028650FM-15+1270FLND V0200801N00411220001CN0099001N1+02101+01101999999ADDMA1101901999999MW1001REMMET045FLND 070500Z 08008KT CAVOK 21/11 Q1019 NOSIG;EQDQ01+000000PRSWM2
0231675610999992000100706004-13000+028650FM-12+1270FLND V0200901N008212200019N0150001N1+02451+01231999999ADDAA199000091AY101061AY201061GA1001+999999999GF100991001001999999001001KA1120M+03401KA2120N+01771MD1999999-0021ME1315279MW1051REMSYN076AAXX  07064 67561 31965 00916 10245 20123 48527 70500 333 10340 20177 59002;EQDQ01  00002PRCP99
0175675610999992000100709004-13000+028650FM-12+1270FLND V0200901N006212200019N0150001N1+03091+00791999999ADDAY101031AY201031GA1011+018009029GF101991011011017501001001MD1999999+0031ME1315279MW1051REMSYN076AAXX  07094 67561 41765 10912 10309 20079 48527 70500 81100 333 58003 81856;
0188675610999992000100804004-13000+028650FM-12+1270FLND V0209999C000012200019N0080001N1+01581+00971999999ADDAY101999AY201999GA1011+090009009GF101991001001999999001011MD1999999+0091ME1315209MW1051REMSYN089AAXX  08044 67561 41958 10000 10158 20097 48520 70500 80001 333 58009 81080 555 Q1 019.8;
0268675610999992000100806004-13000+028650FM-12+1270FLND V0200401N003612200019N0070001N1+02191+01031999999ADDAA199000091AY101061AY201061GA1001+999999999GF100991001001999999001001KA1120M+03391KA2120N+01591MD1999999+0131ME1315379MW1041REMSYN113AAXX  08064 67561 31957 00407 10219 20103 48537 70400 333 10339 20159 58013 555 00/// BB/// CC159 DD/// Q1 021.5;EQDQ01  00002PRCP99
0231675610999992000100906004-13000+028650FM-12+1270FLND V0200601N002612200019N0006001N1+02161+00931999999ADDAA199000091AY101061AY201061GA1001+999999999GF100991001001999999001001KA1120M+03371KA2120N+02121MD1999999-0091ME1315289MW1041REMSYN076AAXX  09064 67561 31906 00605 10216 20093 48528 70400 333 10337 20212 59009;EQDQ01  00002PRCP99
0163675610999992000100909004-13000+028650FM-12+1270FLND V0200301N004112200019N0150001N1+03041+00841999999ADDAY101031AY201031GA1001+999999999GF100991001001999999001001MD1999999+0001ME1315299MW1051REMSYN064AAXX  09094 67561 41965 00308 10304 20084 48529 70500 333 58000;
0175675610999992000100912004-13000+028650FM-12+1270FLND V0201501N002610240019N0200001N1+03141+00601999999ADDAY141061AY201061GA1051+024009029GF105991051011022501001001MD1999999-0101ME1314929MW1051REMSYN076AAXX  09124 67561 41870 51505 10314 20060 48492 70540 85100 333 59010 85858;
0175675610999992000101009004-13000+028650FM-12+1270FLND V0200901N004112200019N0100001N1+03041+00861999999ADDAY101031AY201031GA1021+090009019GF102991001001999999001021MD1999999-0051ME1315249MW1051REMSYN076AAXX  10094 67561 41960 20908 10304 20086 48524 70500 80002 333 59005 82080;
0181675610999992000101012004-13000+028650FM-12+1270FLND V0209999C000012200019N0100001N1+03311+00821999999ADDAY101061AY201061GA1011+018009089GF103991011021017501001021MD1999999+0001ME1314939MW1051REMSYN082AAXX  10124 67561 41760 30000 10331 20082 48493 70500 81202 333 58000 81856 82080;
0231675610999992000101106004-13000+028650FM-12+1270FLND V0200301N005112200019N0090001N1+02291+00981999999ADDAA199000091AY101061AY201061GA1001+999999999GF100991001001999999001001KA1120M+03451KA2120N+01441MD1999999+1001ME1315399MW1041REMSYN076AAXX  11064 67561 31959 00310 10229 20098 48539 70400 333 10345 20144 58100;EQDQ01  00002PRCP99
0175675610999992000101109004-13000+028650FM-12+1270FLND V0201301N005712200019N0150001N1+02981+00601999999ADDAY101031AY201031GA1011+021009029GF101991011011022501001001MD1999999+0181ME1315419MW1051REMSYN076AAXX  11094 67561 41865 11311 10298 20060 48541 70500 81100 333 58018 81857;
0268675610999992000101306004-13000+028650FM-12+1270FLND V0201101N007712200019N0100001N1+02211+01041999999ADDAA199000091AY101061AY201061GA1001+999999999GF100991001001999999001001KA1120M+02941KA2120N+01491MD1999999+0001ME1315549MW1051REMSYN113AAXX  13064 67561 31960 01115 10221 20104 48554 70500 333 10294 20149 58000 555 00/// BB/// CC149 DD/// Q1 023.3;EQDQ01  00002PRCP99
0147675610999992000101312004-13000+028650FM-12+1270FLND V0200801N003610210019N0150001N1+02971+00881999999ADDGA1051+021009029GF105991051021022501001001MD1999999-0191ME1315179REMSYN070AAXX  13124 67561 41865 50807 10297 20088 48517 85200 333 59019 85857;
0306675610999992000101515004-13000+028650SY-MT+1270FLND V0201201N004112200019N0200001N1+03171+00621999999ADDAY101031AY201031GA1031+030009079GF103991031001999999061001KA1240M+03351MA1101491999999MD1999999+0071ME1314959MW1051REMSYN095AAXX  15154 67561 41970 31208 10317 20062 48495 70500 83060 333 58007 83360 555 10335 Q1 015.8;MET043FLND 1500Z 12008KT CAVOK 32/06 Q1015 NOSIG;EQDQ01+000000PRSWM2Q02    003PRSWM1
0175675610999992000101609004-13000+028650FM-12+1270FLND V0200501N005112200019N0150001N1+02951+00891999999ADDAY101031AY201031GA1011+018009029GF101991011011017501001001MD1999999+0081ME1315419MW1051REMSYN076AAXX  16094 67561 41765 10510 10295 20089 48541 70500 81100 333 58008 81856;
0210675610999992000101612004-13000+028650FM-12+1270FLND V0200201N007712200019N0150001N1+03151+00721999999ADDAY101061AY201061GA1021+024009059GF102991999021022501999001MD1999999+0101ME1315149MW1051REMSYN076AAXX  16124 67561 41865 20215 10315 20072 48514 70500 84200 333 58010 82658;EQDQ01+000042SCOTLCQ02+000002SCOMCG
0268675610999992000101706004-13000+028650FM-12+1270FLND V0200901N002612200019N0070001N1+02431+01001999999ADDAA199000091AY101061AY201061GA1001+999999999GF100991001001999999001001KA1120M+03321KA2120N+01771MD1999999+0041ME1315509MW1041REMSYN113AAXX  17064 67561 31957 00905 10243 20100 48550 70400 333 10332 20177 58004 555 00/// BB/// CC177 DD/// Q1 022.6;EQDQ01  00002PRCP99
0188675610999992000101709004-13000+028650FM-12+1270FLND V0201801N001012200019N0100001N1+03021+00901999999ADDAY101031AY201031GA1011+021009089GF101991011011022501001001MD1999999+0021ME1315449MW1051REMSYN089AAXX  17094 67561 41860 11802 10302 20090 48544 70500 81100 333 58002 81857 555 Q1 021.4;
0231675610999992000101806004-13000+028650FM-12+1270FLND V0201001N004112200019N0100001N1+02441+00491999999ADDAA199000091AY101061AY201061GA1001+999999999GF100991001001999999001001KA1120M+03401KA2120N+01641MD1999999-0101ME1315409MW1051REMSYN076AAXX  18064 67561 31960 01008 10244 20049 48540 70500 333 10340 20164 59010;EQDQ01  00002PRCP99
0097675610999992000101808004-13000+028650FM-15+1270FLND V0200501N00511220001CN0099001N1+02901+00701999999ADDMA1102101999999MW1001REMMET045FLND 180800Z 05010KT CAVOK 29/07 Q1021 NOSIG;EQDQ01+000000PRSWM2
0163675610999992000101809004-13000+028650FM-12+1270FLND V0200701N002112200019N0100001N1+03041+00781999999ADDAY101031AY201031GA1001+999999999GF100991001001999999001001MD1999999-0101ME1315349MW1051REMSYN064AAXX  18094 67561 41960 00704 10304 20078 48534 70500 333 59010;
0333675610999992000101812004-13000+028650SY-MT+1270FLND V0202501N003610900019N0150001N1+03241+00421999999ADDAY111061AY211061GA1011+024009029GA2051+090009089GF105991011011999999001081MA1101591999999MD1999999-0131ME1315039MW1051REMSYN119AAXX  18124 67561 41965 52507 10324 20042 48503 70511 81108 333 59013 81858 85280 555 66/// 77/// 8829/ 98043 Q1 016.6;MET043FLND 1200Z 25007KT CAVOK 32/04 Q1016 NOSIG;EQDQ01+000000PRSWM2Q02    003PRSWM1
0091675610999992000101904004-13000+028650FM-15+1270FLND V0209999C00001220001CN0099001N1+01501+00401999999ADDMA1101801999999MW1001REMMET039FLND 190400Z 00000KT CAVOK 15/04 Q1018;EQDQ01+000000PRSWM2
0243675610999992000101906004-13000+028650FM-12+1270FLND V0209999C000010900019N0080001N1+02061+00481999999ADDAA199000091AY121061AY221061GA1071+090009089GF107991001001999999001081KA1120M+03421KA2120N+01511MD1999999-0161ME1315219MW1041REMSYN088AAXX  19064 67561 31958 70000 10206 20048 48521 70422 80008 333 10342 20151 59016 87280;EQDQ01  00002PRCP99
0181675610999992000101912004-13000+028650FM-12+1270FLND V0202601N00101105001CN0100001N1+03301+00361999999ADDAY111061AY211061GA1011+018009089GF107991011011017501001081MD1999999-0161ME1314879MW1051REMSYN082AAXX  19124 67561 41760 72602 10330 20036 48487 70511 81108 333 59016 81856 87280;
0349675610999992000102006004-13000+028650SY-MT+1270FLND V0200401N002612200019N0050001N1+02141+00551999999ADDAA199000091AY101061AY201061GF100991001001999999001001KA1120M+03401KA2120N+01511MA1102001999999MD1999999+0051ME1315269MW1041REMSYN113AAXX  20064 67561 31950 00405 10214 20055 48526 70400 333 10340 20151 58005 555 00/// BB/// CC151 DD/// Q1 020.3;MET044FLND 200600Z 04005KT 5000 31/05 Q1020 NOSIG;EQDQ01+000000PRSWM2Q02  00002PRCP99Q03    003PRSWM1
0176675610999992000102009004-13000+028650FM-12+1270FLND V0200801N004112200019N0080001N1+03031+00951999999ADDAY101031AY201031GA1001+999999999GF100991001001999999001001MD1999999+0091ME1315269MW1041REMSYN077AAXX  20094 67561 41958 00808 10303 20095 48526 70400 333 58009 555 Q1 019.3;
0212675610999992000102012004-13000+028650FM-12+1270FLND V0200301N003610270019N0080001N1+03221+00591999999ADDAY111061AY211061GA1051+027009089GF105991051011999999001001MD1999999+0101ME1314979MW1041REMSYN113AAXX  20124 67561 41958 50307 10322 20059 48497 70411 85100 333 58010 85859 555 66/// 77/// 8826/ 98051 Q1 015.9;
0277675610999992000102015004-13000+028650SY-MT+1270FLND V0209999C000010300019N0090001N1+03121+00671999999ADDAY121031AY221031GA1071+030009999GF106991061001999999051001MA1101491999999MD1999999+0141ME1314929MW1041REMSYN076AAXX  20154 67561 41959 60000 10312 20067 48492 70422 86050 333 58014 86360;MET046FLND 1500Z 00000KT 9000MFU BKN100 31/07 Q1015;EQDQ01+000000PRSWM2Q02    003PRSWM1
0175675610999992000102109004-13000+028650FM-12+1270FLND V0200901N006712200019N0150001N1+02841+01111999999ADDAY101031AY201031GA1011+018009029GF101991011011022501001001MD1999999+0231ME1315489MW1051REMSYN076AAXX  21094 67561 41865 10913 10284 20111 48548 70500 81100 333 58023 81856;
0089675610999992000102204004-13000+028650FM-15+1270FLND V0209999C00001220001CN0099001N1+01801+01301999999ADDMA1102101999999MW1001REMMET037FLND 0400Z 00000KT CAVOK 18/13 Q1021;EQDQ01+000000PRSWM2
0243675610999992000102206004-13000+028650FM-12+1270FLND V0200901N006210330019N0200001N1+02191+01271999999ADDAA199000091AY121061AY221061GA1051+033009079GF105991051001999999031001KA1120M+03111KA2120N+01811MD1999999-0041ME1315489MW1051REMSYN088AAXX  22064 67561 31970 50912 10219 20127 48548 70522 85030 333 10311 20181 59004 85361;EQDQ01  00002PRCP99
0287675610999992000102209004-13000+028650SY-MT+1270FLND V0201001N006712200019N0150001N1+02831+01241999999ADDAY111031AY211031GA1031+015009029GF103991031011017501001001MA1102101999999MD1999999-0051ME1315439MW1051REMSYN089AAXX  22094 67561 41765 31013 10283 20124 48543 70511 83100 333 59005 83850 555 Q1 021.4;MET043FLND 0900Z 10013KT CAVOK 28/12 Q1021 NOSIG;EQDQ01+000000PRSWM2Q02    003PRSWM1
0228675610999992000102306004-13000+028650FM-12+1270FLND V0200901N007212200019N0100001N1+02301+00341999999ADDAA199000091AY111061AY211061GA1021+090009019GF102991001001999999001021KA1120M+03121KA2120N+01651MD1999999-0151MW1051REMSYN082AAXX  23064 67561 31960 20914 10230 20034 70511 80002 333 10312 20165 59015 82080;EQDQ01  00002PRCP99
0276675610999992000102309004-13000+028650SY-MT+1270FLND V0200801N004612200019N0150001N1+02841+01161999999ADDAY101031AY201031GA1011+018009029GF101991011011999999001001MA1102001999999MD1999999-0101ME1315329MW1051REMSYN076AAXX  23094 67561 41965 10809 10284 20116 48532 70500 81100 333 59010 81856;MET045FLND 230900Z 08009KT CAVOK 20/12 Q1020 NOSIG;EQDQ01+000000PRSWM2Q02    003PRSWM1
0175675610999992000102312004-13000+028650FM-12+1270FLND V0200901N001010240019N0200001N1+03211+01111999999ADDAY111061AY211061GA1061+024009029GF106991061021999999001001MD1999999-0191ME1314959MW1051REMSYN076AAXX  23124 67561 41970 60902 10321 20111 48495 70511 86200 333 59019 86858;
0095675610999992000102317004-13000+028650FM-15+1270FLND V0201201N00211220001CN0099001N1+02801+01101999999ADDMA1101491999999MW1001REMMET043FLND 1700Z 12004KT CAVOK 28/11 Q1015 NOSIG;EQDQ01+000000PRSWM2
0354675610999992000102406004-13000+028650SY-MT+1270FLND V0200601N004112200019N0100001N1+02351+01081999999ADDAA199000091AY111061AY211061GA1041+090009019GF104991001001999999001021KA1120M+03301KA2120N+01761MA1101901999999MD1999999-0181ME1315179MW1051REMSYN107AAXX  24064 67561 31960 40608 10235 20108 48517 70511 80002 333 10330 20176 59018 84080 555 00/// Q1 019.0;MET039FLND 240600Z 06008KT CAVOK 23/11 Q1019;EQDQ01+000000PRSWM2Q02  00002PRCP99Q03    003PRSWM1
0175675610999992000102409004-13000+028650FM-12+1270FLND V0200301N004112200019N0150001N1+02951+01061999999ADDAY111031AY211031GA1041+090009019GF104991001001999999001021MD1999999-0191ME1315149MW1051REMSYN076AAXX  24094 67561 41965 40308 10295 20106 48514 70511 80002 333 59019 84080;
0181675610999992000102412004-13000+028650FM-12+1270FLND V0209999C000010210019N0150001N1+03351+01051999999ADDAY111061AY211061GA1051+021009089GF107991051021022501001081MD1999999-0181ME1314779MW1051REMSYN082AAXX  24124 67561 41865 70000 10335 20105 48477 70511 85208 333 59018 85857 85280;
0363675610999992000102506004-13000+028650SY-MT+1270FLND V0200901N002619999999N0050001N1+02381+01201999999ADDAA199000091AY111061AY211061GF107991001001999999001071KA1120M+03421KA2120N+01881MA1101901999999MD1999999+0031ME1315209MW1041REMSYN125AAXX  25064 67561 31950 70905 10238 20120 48520 70411 80007 333 10342 20188 58003 87280 555 00/// BB/// CC188 DD/// Q1 019.3;MET062FLND 250600Z 09005KT 5000 FU SKC 24/12 Q1019 TEMPO 5000 HZ/FU;EQDQ01  00002PRCP99Q02    003PRSWM1
0145675610999992000102507004-13000+028650FM-15+1270FLND V0200301N003612200019N0060001N1+02701+01201999999ADDGF100991999999999999999999MA1101901999999MW1041REMMET051FLND 250700Z 03007KT 6000 FU SKC 27/12 Q1019 NOSIG;EQDQ01+000003PRSWM1Q02    003PRSWM1
0145675610999992000102508004-13000+028650FM-15+1270FLND V0200301N006212200019N0070001N1+03001+00801999999ADDGF100991999999999999999999MA1101901999999MW1041REMMET051FLND 250800Z 03012KT 7000 FU SKC 30/08 Q1019 NOSIG;EQDQ01+000003PRSWM1Q02    003PRSWM1
0243675610999992000102606004-13000+028650FM-12+1270FLND V0200701N008210900019N0100001N1+02491+01111999999ADDAA199000091AY121061AY221061GA1071+090009089GF107991001001999999001081KA1120M+03511KA2120N+01921MD1999999+0031ME1315249MW1051REMSYN088AAXX  26064 67561 31960 70716 10249 20111 48524 70522 80008 333 10351 20192 58003 87280;EQDQ01  00002PRCP99
0097675610999992000102707004-13000+028650FM-15+1270FLND V0200801N00671220001CN0099001N1+02901+01201999999ADDMA1101901999999MW1001REMMET045FLND 270700Z 08013KT CAVOK 29/12 Q1019 NOSIG;EQDQ01+000000PRSWM2
0311675610999992000102709004-13000+028650SY-MT+1270FLND V0200801N005110900019N0100001N1+03201+01071999999ADDAY121031AY221031GA1011+021009029GA2071+090009089GF107991011011022501001081MA1101801999999MD1999999-0041ME1315249MW1051REMSYN095AAXX  27094 67561 41860 70810 10320 20107 48524 70522 81108 333 59004 81857 87280 555 Q1 018.9;MET045FLND 270900Z 08010KT CAVOK 32/11 Q1018 NOSIG;EQDQ01+000000PRSWM2Q02    003PRSWM1
0181675610999992000102712004-13000+028650FM-12+1270FLND V0201301N003110270019N0100001N1+03401+01031999999ADDAY121061AY221061GA1051+027009089GF106991051021999999001081MD1999999+0051ME1315009MW1051REMSYN082AAXX  27124 67561 41960 61306 10340 20103 48500 70522 85208 333 58005 85859 85280;
0242675610999992000102715004-13000+028650FM-12+1270FLND V0201001N002119999999N0150001N1+03231+01051999999ADDAY121031AY221031GA1021+027009089GA2021+027009069GA3031+090009009GF106991041081999999061021KA1999M+03321MD1999999+0031ME1314859MW1051REMSYN098AAXX  27154 67561 41965 61004 10323 20105 48485 70522 84862 333 58003 82859 82659 83080 555 10332;
0249675610999992000102806004-13000+028650FM-12+1270FLND V0201001N004112200019N0100001N1+02431+01621999999ADDAA199000091AY101061AY201061GA1011+006009069GF102991011051008001001021KA1120M+03531KA2120N+01991MD1999999+0091ME1315309MW1051REMSYN094AAXX  28064 67561 31560 21008 10243 20162 48530 70500 81502 333 10353 20199 58009 81620 81080;EQDQ01  00002PRCP99
0309675610999992000102809004-13000+028650SY-MT+1270FLND V0200301N007710150019N0150001N1+02931+01291999999ADDAY111031AY211031GA1061+015009029GA2011+090009019GF106991061021017501001011MA1101901999999MD1999999+0041ME1315259MW1051REMSYN095AAXX  28094 67561 41765 60315 10293 20129 48525 70511 86201 333 58004 86850 81080 555 Q1 019.3;MET043FLND 0900Z 03015KT CAVOK 29/13 Q1019 NOSIG;EQDQ01+000000PRSWM2Q02    003PRSWM1
0140675610999992000102810004-13000+028650FM-15+1270FLND V0200301N005710210019N0112651N1+03101+01301999999ADDGA1071+021009029GF107991999999999999999999MA1101801999999MW1001REMMET046FLND 1000Z 03011KT 9999 BKN070TCU 31/13 Q1018;EQDQ01+000000PRSWM2
0141675610999992000102812004-13000+028650FM-15+1270FLND V0200901N002110210019N0112651N1+03101+01201999999ADDGA1071+021009099GF107991999999999999999999MA1101591999999MW1001REMMET047FLND 281200Z 09004KT 9999 BKN070CB 31/12 Q1016;EQDQ01+000000PRSWM2
0302675610999992000102815004-13000+028650SY-MT+1270FLND V0201001N00671045001CN0150001N1+02461+01291999999ADDAY191031AY281031GA1021+024009099GF107991021041022501071999KA1240M+03221MD1999999+0151ME1314959MW1171REMSYN107AAXX  28154 67561 41865 71013 10246 20129 48495 71798 8247/ 333 58015 81958 87460 555 10322 39999 Q1 016.4;MET058FLND 281500Z 10013KT 9999 TS SCT080CB B KN100 25/13 Q1016;EQDQ01    003PRSWM1
0249675610999992000102906004-13000+028650FM-12+1270FLND V0201501N002110330019N0150001N1+02091+01551999999ADDAA124000791AY121061AY221061GA1071+033009049GF107991071001999999071999KA1120M+03221KA2120N+01991MD1999999-0051ME1315229MW1051REMSYN113AAXX  29064 67561 11965 71504 10209 20155 48522 69904 70522 8707/ 333 10322 20199 59005 87461 555 00/// Q1 019.8;
0232675610999992000102909004-13000+028650FM-12+1270FLND V0201101N004610330019N0150001N1+02551+01591999999ADDAY121031AY221031GA1041+009009089GA2061+033009039GA3021+090009009GF107991041021012501031021MD1999999+0001ME1315229MW1051REMSYN101AAXX  29094 67561 41665 71109 10255 20159 48522 70522 84232 333 58000 84830 86361 82080 555 Q1 019.3;
0203675610999992000102912004-13000+028650FM-12+1270FLND V0201801N007210330019N0150001N1+02711+01621999999ADDAY121061AY221061GA1031+013509089GA2051+033009039GF107991031021012501031081MD1999999-0021ME1314969MW1051REMSYN088AAXX  29124 67561 41665 71814 10271 20162 48496 70522 83238 333 59002 83845 85361 87280;
0165675610999992000103003004-13000+028650FM-12+1270FLND V0209999C000010450019N0100001N1+02051+01621999999ADDAY121031AY221031GF107991011091008001071999MD1999999-0031ME1315089MW1171REMSYN082AAXX  30034 67561 41560 70000 10205 20162 48508 71722 8197/ 333 59003 51930 87460;
0181675610999992000103004004-13000+028650FM-15+1270FLND V0209999C000010300019N0112651N1+02101+01601999999ADDGA1021+006009999GA2071+030009999GF107991999999999999999999MA1101801999999MW1171REMMET055FLND 300400Z 00000KT 9999 TS FEW020 BKN100 21/16 Q1018;EQDQ01+000003PRSWM1Q02    003PRSWM1
0181675610999992000103005004-13000+028650FM-15+1270FLND V0200301N002610300019N0112651N1+02101+01601999999ADDGA1021+006009999GA2071+030009999GF107991999999999999999999MA1101901999999MW1171REMMET055FLND 300500Z 03005KT 9999 TS FEW020 BKN100 21/16 Q1019;EQDQ01+000003PRSWM1Q02    003PRSWM1
0407675610999992000103006004-13000+028650SY-MT+1270FLND V0200301N002610300019N0100001N1+02081+01671999999ADDAA199000091AY191061AY221061GA1021+006009999GA2071+030009999GF107991011091008001071999KA1120M+02851KA2120N+01991MA1102001999999MD1999999+0041ME1315269MW1291REMSYN131AAXX  30064 67561 31560 70305 10208 20167 48526 72992 8197/ 333 10285 20199 58004 81920 87460 555 00/// BB/// CC199 DD/// Q1 020.3;MET052FLND 300600Z 03005KT 9999 FEW020 BKN100 21/17 Q1020;EQDQ01+000000PRSWM2Q02  00002PRCP99Q03    003PRSWM1
0249675610999992000103106004-13000+028650FM-12+1270FLND V0209999C000019999999N0090001N1+02101+01631999999ADDAA199000091AY121061AY221061GA1011+033009039GF105991011001999999031081KA1120M+02431KA2120N+01501MD1999999-0011ME1315259MW1041REMSYN094AAXX  31064 67561 31959 50000 10210 20163 48525 70422 81038 333 10243 20150 59001 81361 85280;EQDQ01  00002PRCP99
0203675610999992000103109004-13000+028650FM-12+1270FLND V0201901N001510105019N0150001N1+02861+01371999999ADDAY121031AY221031GA1061+010509089GA2011+033009039GF107991061021012501031081MD1999999-0181ME1315199MW1051REMSYN088AAXX  31094 67561 41665 71903 10286 20137 48519 70522 86238 333 59018 86835 81361 85280;
0203675610999992000103112004-13000+028650FM-12+1270FLND V0203601N005110150019N0150001N1+02871+01331999999ADDAY121061AY221061GA1011+015009099GA2061+015009089GF107991061021017501081001MD1999999-0251ME1315889MW1051REMSYN088AAXX  31124 67561 41765 73610 10287 20133 48588 70522 86280 333 59025 81950 86850 81361;
0251675610999992000103115004-13000+028650FM-12+1270FLND V0200101N00411033001CN0150001N1+02591+01521999999ADDAY121031AY221031GA1011+021009099GA2041+021009069GA3031+033009039GF107991011091022501031001KA1240M+03211MD1999999-0161ME1314849MW1171REMSYN107AAXX  31154 67561 41865 70108 10259 20152 48484 71722 81930 333 59016 81957 84657 83361 555 10321 Q1 015.1;
0319675610999992000110106004-13000+028650FM-12+1270FLND V0200401N004610360019N0100001N1+01971+01731999999ADDAA124003091AY121061AY221061GA1041+003009069GA2071+036009049GF107991041051004501071999KA1120M+03211KA2120N+01711MD1999999-0051ME1315199MW1051REMSYN167AAXX  01064 67561 11460 70409 10197 20173 48519 60034 70522 8457/ 333 10321 20171 59005 84610 87462 555 00/// BB/// CC171 DD/// 20003 67/// 78/// 8940/ 99064 Q1 019.6;
0307675610999992000110109004-13000+028650SY-MT+1270FLND V0200101N002110360019N0200001N1+02431+01591999999ADDAY121031AY221031GA1021+007509999GA2071+036009999GF107991021011008001071999MA1101801999999MD1999999-0021ME1315149MW1051REMSYN082AAXX  01094 67561 41570 70104 10243 20159 48514 70522 8217/ 333 59002 82825 87462;MET054FLND 010900Z 01004KT 9999 FEW025 BKN120 24/16 Q1018.0;EQDQ01+000000PRSWM2Q02    003PRSWM1
0181675610999992000110112004-13000+028650FM-12+1270FLND V0200901N001010120019N0250001N1+02791+99999999999ADDAY121061AY221061GA1061+012009089GF106991061021012501031001MD1999999+0001ME1314879MW1051REMSYN082AAXX  01124 67561 41675 60902 10279 20/// 48487 70522 86230 333 58000 86840 83362;
0097675610999992000110113004-13000+028650FM-15+1270FLND V0203601N00211220001CN0099001N1+02901+01601999999ADDMA1101291999999MW1001REMMET045FLND 011300Z 36004KT CAVOK 29/16 Q1013 NOSIG;EQDQ01+000000PRSWM2
0284675610999992000110115004-13000+028650SY-MT+1270FLND V0200301N00211105001CN0300001N1+02721+01471999999ADDGA1021+021009099GF107991011091022501001081KA1240M+03001MA1101291999999MD1999999-0151ME1314709MW1001REMSYN101AAXX  01154 67561 41880 70304 10272 20147 48470 81908 333 59015 81957 83857 87280 555 10300 Q1 013.3;MET047FLND 011500Z 03004KT 9999 FEW070CB 27/15 Q1013;EQDQ01+000000PRSWM2
0187675610999992000110116004-13000+028650FM-15+1270FLND V0200401N001510330019N0112651N1+02601+01501999999ADDGA1021+024009099GA2021+024009999GA3071+033009999GF107991999999999999999999MA1101391999999MW1001REMMET061FLND 011600Z 04003KT 9999 FEW080CB SCT086 BKN110 26/15 Q1014;EQDQ01+000000PRSWM2
0230675610999992000110206004-13000+028650FM-12+1270FLND V0209999C000010300019N0050001N1+01831+01741999999ADDAA124001091AY161061AY261061GA1081+030009019GF108991081001999999071999KA1120M+03001KA2120N+01771MD1999999-0051ME1315229MW1611REMSYN094AAXX  02064 67561 11950 80000 10183 20174 48522 69994 76166 8807/ 333 10300 20177 59005 88460;
0175675610999992000110209004-13000+028650FM-12+1270FLND V0200701N003610330019N0150001N1+02161+01671999999ADDAY161031AY221031GA1081+033009019GF108991081001999999071999MD1999999-0121ME1315009MW1211REMSYN076AAXX  02094 67561 41965 80707 10216 20167 48500 72162 8807/ 333 59012 88461;
0175675610999992000110212004-13000+028650FM-12+1270FLND V0200301N002110330019N0250001N1+02511+01621999999ADDAY151061AY221061GA1071+033009019GF107991071001999999071999MD1999999-0091ME1314779MW1051REMSYN076AAXX  02124 67561 41975 70304 10251 20162 48477 70552 8707/ 333 59009 87461;
0230675610999992000110306004-13000+028650FM-12+1270FLND V0200401N003612200019N0150001N1+02271+01641999999ADDAA124001091AY111061AY211061GA1011+033009079GF101991011001999999031001KA1120M+02691KA2120N+01691MD1999999-0221ME1314959MW1051REMSYN094AAXX  03064 67561 11965 10407 10227 20164 48495 69994 70511 81030 333 10269 20169 59022 81361;
0181675610999992000110309004-13000+028650FM-12+1270FLND V0200101N004610105019N0200001N1+02911+01531999999ADDAY111031AY211031GA1061+010509089GF106991061021012501001021MD1999999-0201ME1314869MW1051REMSYN082AAXX  03094 67561 41670 60109 10291 20153 48486 70511 86202 333 59020 86835 81080;
0181675610999992000110404004-13000+028650FM-12+1270FLND V0200301N00211045001CN0300001N1+01711+01641999999ADDAY191999AY291999GA1011+021009099GF108991011071022501071999MD1999999+0211ME1315059MW1291REMSYN082AAXX  04044 67561 41880 80304 10171 20164 48505 72999 8177/ 333 58021 81957 87461;
0236675610999992000110406004-13000+028650FM-12+1270FLND V0200101N00151045001CN0250001N1+01791+01681999999ADDAA124008991AY121061AY221061GA1031+004509079GF108991031061004501071999KA1120M+03281KA2120N+01691MD1999999+0211ME1315209MW1051REMSYN100AAXX  04064 67561 31475 80103 10179 20168 48520 60094 70522 8367/ 333 10328 20169 58021 83715 87461;
0160675610999992000110410004-13000+028650FM-15+1270FLND V0203601N002110330019N0112651N1+02501+01601999999ADDGA1021+009009999GA2071+033009999GF107991999999999999999999MA1101801999999MW1001REMMET050FLND 1000Z 36004KT 9999 FEW030 BKN110 25/16 Q1018;EQDQ01+000000PRSWM2
0153675610999992000110412004-13000+028650FM-12+1270FLND V0203601N002110450019N0300001N1+02591+01571999999ADDAY121061AY221061GF107991031021012501071999MD1999999+0501ME1315029MW1031REMSYN070AAXX  04124 67561 42680 73604 10259 20157 48502 70322 8327/ 333 58050;
0243675610999992000110506004-13000+028650FM-12+1270FLND V0200701N001512200019N0200001N1+02151+01691999999ADDAA199000091AY101061AY201061GA1031+090009019GF103991001001999999001021KA1120M+02821KA2120N+01541MD1999999+0131ME1315279MW1051REMSYN088AAXX  05064 67561 31970 30703 10215 20169 48527 70500 80002 333 10282 20154 58013 83080;EQDQ01  00002PRCP99
0197675610999992000110509004-13000+028650FM-12+1270FLND V0201301N004610450019N0300001N1+02761+01591999999ADDGA1011+012009099GA2041+012009089GA3031+045009039GF107991041021012501081021MD1999999+0031ME1315239REMSYN088AAXX  05094 67561 42680 71309 10276 20159 48523 84282 333 58003 81940 84840 83365 81080;
0350675610999992000110512004-13000+028650SY-MT+1270FLND V0202701N00261015001CN0150001N1+02051+01681999999ADDAY191061AY221061GA1071+015009099GA2021+045009999GF107991021091017501081021MA1101591999999MD1999999-0021ME1314979MW1291REMSYN125AAXX  05124 67561 41765 72705 10205 20168 48497 72992 82982 333 59002 82950 84850 85365 81080 555 66/// 77/// 98025 Q1 016.9;MET054FLND 051200Z 27005KT 9999 BKN055CB SCT150 21/17 Q1016;EQDQ01+000000PRSWM2Q02    003PRSWM1
0198675610999992000110515004-13000+028650FM-12+1270FLND V0200601N001010450019N0300001N1+02331+01541999999ADDGA1011+024009099GA2071+045009049GF107991011091999999071999KA1240M+03061MD1999999-0031ME1314919REMSYN092AAXX  05154 67561 42980 70602 10233 20154 48491 8197/ 333 59003 81958 87465 555 10306 11016;
0164675610999992000110516004-13000+028650FM-15+1270FLND V0209999C000010450019N0112651N1+02301+01601999999ADDGA1021+024009099GA2071+045009999GF107991999999999999999999MA1101591999999MW1001REMMET054FLND 051600Z 00000KT 9999 FEW080CB BKN150 23/16 Q1016;EQDQ01+000000PRSWM2
0231675610999992000110606004-13000+028650FM-12+1270FLND V0201001N002112200019N0150001N1+02281+01611999999ADDAA199000091AY101061AY201061GA1001+999999999GF100991001001999999001001KA1120M+03061KA2120N+01601MD1999999-0161ME1315129MW1051REMSYN076AAXX  06064 67561 31965 01004 10228 20161 48512 70500 333 10306 20160 59016;EQDQ01  00002PRCP99
0175675610999992000110609004-13000+028650FM-12+1270FLND V0200701N005110120019N0150001N1+02791+01461999999ADDAY111031AY211031GA1061+012009029GF106991061021012501001001MD1999999-0181ME1315049MW1051REMSYN076AAXX  06094 67561 41665 60710 10279 20146 48504 70511 86200 333 59018 86840;
0175675610999992000110612004-13000+028650FM-12+1270FLND V0200801N003610210019N0200001N1+03101+01311999999ADDAY121061AY221061GA1011+021009099GF106991061021022501001001MD1999999-0241ME1315219MW1051REMSYN076AAXX  06124 67561 41870 60807 10310 20131 48521 70522 86200 333 59024 81957;
0145675610999992000110613004-13000+028650FM-15+1270FLND V0200901N001510210019N0112651N1+03101+01401999999ADDGA1071+021009099GF107991999999999999999999MA1101291999999MW1001REMMET051FLND 1300Z 09003KT 9999 BKN070CB 31/14 Q1013 NOSIG;EQDQ01+000000PRSWM2
0159675610999992000110704004-13000+028650FM-15+1270FLND V0209999C000010330019N0070001N1+01801+01501999999ADDGA1071+033009999GF107991999999999999999999MA1101591999999MW1041REMMET049FLND 070400Z 00000KT 7000M FU BKN110 18/15 Q1016;EQDQ01+000003PRSWM1Q02    003PRSWM1
0236675610999992000110706004-13000+028650FM-12+1270FLND V0200801N002610330019N0100001N1+02301+01611999999ADDAA124007191AY121061AY221061GA1051+033009039GF106991051001999999071081KA1120M+03251KA2120N+01681MD1999999-0101ME1315039MW1051REMSYN100AAXX  07064 67561 11960 60805 10230 20161 48503 60074 70522 85078 333 10325 20168 59010 85361 86280;
0236675610999992000110806004-13000+028650FM-12+1270FLND V0209999C00001045001CN0150001N1+01801+01641999999ADDAA124019191AY161061AY221061GA1041+002409079GF107991041061002501071999KA1120M+03161KA2120N+01681MD1999999+0261ME1315259MW1151REMSYN100AAXX  08064 67561 11365 70000 10180 20164 48525 60194 71562 8467/ 333 10316 20168 58026 84708 87460;
0351675610999992000110915004-13000+028650SY-MT+1270FLND V0201601N00771015001CN0300001N1+02711+01511999999ADDAY121031AY221031GA1071+015009099GA2071+090009999GF107991051041017501031081KA1240M+03041MA1101081999999MD1999999-0331ME1314569MW1151REMSYN113AAXX  09154 67561 41780 71615 10271 20151 48456 71522 85438 333 59033 81950 85656 82361 87280 555 10304 Q1 011.8;MET054FLND 091500Z 16015KT 9999 BKN055CB BKN300 27/15 Q1011;EQDQ01+000000PRSWM2Q02    003PRSWM1
0387675610999992000111006004-13000+028650SY-MT+1270FLND V0200801N002610330019N0080001N1+01871+01761999999ADDAA124010991AY121061AY221061GA1021+001809999GA2071+033009999GF107991041061002501071999KA1120M+03041KA2120N+01731MA1101691999999MD1999999-0051ME1314969MW1041REMSYN116AAXX  10064 67561 11358 70805 10187 20176 48496 60114 70422 8467/ 333 10304 20173 59005 84706 87461 555 00/// 20990;MET063FLND 100600Z 08005KT 8000 VCFU SCT006 BKN110 19/18 Q1017 NOSIG;EQDQ01+000000PRSWM2Q02    003PRSWM1
0168675610999992000111007004-13000+028650FM-15+1270FLND V0200201N004110330019N0112651N1+02001+01801999999ADDGA1021+001809999GA2071+033009999GF107991999999999999999999MA1101801999999MW1001REMMET058FLND 100700Z 02008KT 9999 SCT006 BKN110 20/18 Q1018 NOSIG;EQDQ01+000000PRSWM2
0309675610999992000111109004-13000+028650SY-MT+1270FLND V0200401N001010120019N0100001N1+02851+01571999999ADDAY111031AY211031GA1071+012009999GF199999051021012501001021MA1101591999999MD1999999-0141ME1314979MW1051REMSYN095AAXX  11094 67561 41660 60402 10285 20157 48497 70511 85202 333 59014 85840 84080 555 Q1 016.3;MET043FLND 0900Z 04002KT 9999 BKN040 29/16 Q1016;EQDQ01+000062SCOTCVQ02+000000PRSWM2Q03    003PRSWM1
0269675610999992000111112004-13000+028650FM-12+1270FLND V0203401N006210420019N0150001N1+02861+01591999999ADDAY121061AY221061GA1021+018009099GA2041+018009089GA3021+042009039GA4021+090009009GF107991021091017501061021MD1999999-0101ME1314709MW1801REMSYN122AAXX  11124 67561 41765 73412 10286 20159 48470 78022 82962 333 59010 82956 84856 82364 82080 555 66/// 77/// 8874/ 98004;
0258675610999992000111306004-13000+028650FM-12+1270FLND V0200101N001010330019N0300001N1+02001+01521999999ADDAA199000091GA1071+033009049GF107991071001999999071999KA1120M+02611KA2120N+01781MD1999999-0071ME1315039REMSYN125AAXX  13064 67561 32980 70102 10200 20152 48503 8707/ 333 10261 20178 59007 87461 555 00/// 20992 BB/// CC178 DD/// Q1 017.7;EQDQ01  00002PRCP99
0225675610999992000111412004-13000+028650FM-12+1270FLND V0209999C00001015001CN0250001N1+02941+01291999999ADDAY111061AY211061GA1021+015009099GA2031+015009089GA3041+033009039GF107991021091017501061021MD1999999-0271ME1314639MW1151REMSYN094AAXX  14124 67561 41775 70000 10294 20129 48463 71511 82962 333 59027 82950 83850 84361 83080;
0163675610999992000111505004-13000+028650FM-15+1270FLND V0200801N002112200019N0080001N1+02001+01701999999ADDGA1021+036009999GF102991999999999999999999MA1101691999999MW1041REMMET053FLND 0500Z 08004KT 8000M FU FEW120 20/17 Q1017 NOSIG;EQDQ01+000003PRSWM1Q02    003PRSWM1
0236675610999992000111506004-13000+028650FM-12+1270FLND V0209999C000012200019N0200001N1+02261+01751999999ADDAA124000191AY101061AY201061GA1011+036009039GF103991011001999999031021KA1120M+03111KA2120N+01741MD1999999+0101ME1315029MW1051REMSYN100AAXX  15064 67561 11970 30000 10226 20175 48502 69924 70500 81032 333 10311 20174 58010 81362 82080;
0181675610999992000111509004-13000+028650FM-12+1270FLND V0209999C000010090019N0250001N1+02801+01741999999ADDAY111031AY211031GA1051+009009089GF106991051021012501031001MD1999999+0061ME1314969MW1051REMSYN082AAXX  15094 67561 41675 60000 10280 20174 48496 70511 85230 333 58006 85830 83363;
0378675610999992000111606004-13000+028650SY-MT+1270FLND V0200301N00311105001CN0250001N1+02151+01771999999ADDAA124000791AY121061AY221061GA1021+003009999GF107991021061004501001081KA1120M+03031KA2120N+01791MA1101691999999MD1999999-0011ME1315019MW1051REMSYN137AAXX  16064 67561 11475 70306 10215 20177 48501 69904 70522 82608 333 10303 20179 59001 82710 87280 555 00/// BB/// CC179 DD/// Q1 017.3;MET049FLND 0600Z 03006KT 9999 FEW010 21/18 Q1017 NOSIG;EQDQ01+000000PRSWM2Q02    003PRSWM1
0255675610999992000111609004-13000+028650SY-MT+1270FLND V0203401N00211014401CN0300001N1+02621+01711999999ADDGA1071+014409999GF107991061021008001001071MA1101691999999MD1999999+0081ME1315039MW1001REMSYN089AAXX  16094 67561 42580 73404 10262 20171 48503 86207 333 58008 86840 87280 555 Q1 017.1;MET043FLND 0900Z 34004KT 9999 BKN048 26/17 Q1017;EQDQ01+000000PRSWM2
0221675610999992000111706004-13000+028650FM-12+1270FLND V0200101N003610024019N0300001N1+02131+01711999999ADDAA199000091GA1061+002409079GF107991061061002501001081KA1120M+03031KA2120N+01861MD1999999+0091ME1315099REMSYN088AAXX  17064 67561 32380 70107 10213 20171 48509 86608 333 10303 20186 58009 86708 87280;EQDQ01  00002PRCP99
0153675610999992000111709004-13000+028650FM-12+1270FLND V0203501N004610090019N0300001N1+02611+01681999999ADDGA1061+009009089GF107991061021012501001081MD1999999+0051ME1315089REMSYN076AAXX  17094 67561 42680 73509 10261 20168 48508 86208 333 58005 86830 87280;
0225675610999992000111712004-13000+028650FM-12+1270FLND V0203601N00261009001CN0100001N1+01951+01641999999ADDAY191061AY221061GA1021+009009099GA2031+009009089GA3051+030009049GF107991021091012501071081MD1999999+0131ME1314819MW1951REMSYN094AAXX  17124 67561 41660 73605 10195 20164 48481 79592 82978 333 58013 82930 83830 85460 87280;
0339675610999992000111718004-13000+028650SY-MT+1270FLND V0209999C000010300019N0250001N1+02151+01881999999ADDAY191061AY221061GA1021+009009099GA2071+030009999GF107991011091012501071999KA1120M+02801MA1101591999999MD1999999+0061ME1314949MW1131REMSYN101AAXX  17184 67561 41675 70000 10215 20188 48494 71392 8197/ 333 10280 58006 81930 87460 555 Q1 016.4;MET054FLND 171800Z 00000KT 9999 FEW030CB BKN100 21/19 Q1016;EQDQ01+000000PRSWM2Q02    003PRSWM1
0191675610999992000111806004-13000+028650FM-12+1270FLND V0200401N00101045001CN0300001N1+02021+01711999999ADDGA1011+006009089GF106991011011008001071001KA1120M+02801KA2120N+01701MD1999999-0111ME1314989REMSYN088AAXX  18064 67561 12580 60402 10202 20171 48498 81170 333 10280 20170 59011 81820 86461;
0175675610999992000111809004-13000+028650FM-12+1270FLND V0209999C000010330019N0300001N1+02501+01811999999ADDGA1011+009009089GA2051+033009039GF107991011011012501031081MD1999999-0171ME1314899REMSYN082AAXX  18094 67561 42680 70000 10250 20181 48489 81138 333 59017 81830 85361 85280;
0197675610999992000111812004-13000+028650FM-12+1270FLND V0209999C000010330019N0300001N1+02881+01701999999ADDGA1011+013509099GA2041+013509089GA3011+033009039GF106991041021012501031001MD1999999-0191ME1314969REMSYN088AAXX  18124 67561 42680 60000 10288 20170 48496 84230 333 59019 81945 84845 81361 83080;
0243675610999992000111906004-13000+028650FM-12+1270FLND V0200201N002112200019N0200001N1+02301+01841999999ADDAA199000091AY111061AY211061GA1031+036009079GF103991031001999999031001KA1120M+02991KA2120N+01821MD1999999-0221ME1315789MW1051REMSYN088AAXX  19064 67561 31970 30204 10230 20184 48578 70511 83030 333 10299 20182 59022 83362;EQDQ01  00002PRCP99
0175675610999992000111909004-13000+028650FM-12+1270FLND V0202801N006210090019N0250001N1+02901+01861999999ADDAY111031AY211031GA1051+009009029GF105991051021012501001001MD1999999-0211ME1314719MW1051REMSYN076AAXX  19094 67561 41675 52812 10290 20186 48471 70511 85200 333 59021 85830;
0175675610999992000111912004-13000+028650FM-12+1270FLND V0202701N00671105001CN0300001N1+03241+01681999999ADDGA1011+018009099GA2031+018009089GF105991031021017501001021MD1999999-0231ME1314479REMSYN082AAXX  19124 67561 42780 52713 10324 20168 48447 83202 333 59023 81956 83856 82080;
0181675610999992000112009004-13000+028650FM-12+1270FLND V0202501N002119999999N0200001N1+02601+01221999999ADDAY121031AY221031GA1011+033009039GF107991011001999999041081MD1999999+0301ME1315009MW1051REMSYN082AAXX  20094 67561 41970 72504 10260 20122 48500 70522 81048 333 58030 81361 87280;
0175675610999992000112012004-13000+028650FM-12+1270FLND V0202201N002610900019N0200001N1+02891+01131999999ADDAY121061AY221061GA1071+090009089GF107991001001999999001081MD1999999+0231ME1314699MW1051REMSYN076AAXX  20124 67561 41970 72205 10289 20113 48469 70522 80008 333 58023 87280;
0271675610999992000112106004-13000+028650FM-12+1270FLND V0203301N003110330019N0250001N1+99999+99999999999ADDAA199000091AY141061AY221061GA1031+002709079GA2021+033009039GF107991031061002501081081KA1120M+02951KA2120N+01701MD1999999+0081ME1315049MW1281REMSYN100AAXX  21064 67561 31375 73306 10/// 20183 48504 72842 83688 333 10295 20170 58008 83709 82361 87280;EQDQ01  00002PRCP99
0197675610999992000112112004-13000+028650FM-12+1270FLND V0203601N004110330019N0300001N1+02751+01541999999ADDGA1011+012009099GA2041+012009089GA3011+033009039GF107991041021012501031081MD1999999+0101ME1314789REMSYN088AAXX  21124 67561 42680 73608 10275 20154 48478 84238 333 58010 81940 84840 81361 87280;
0138675610999992000112204004-13000+028650FM-15+1270FLND V0209999C000012200019N0060001N1+01701+01601999999ADDGF100991999999999999999999MA1101691999999MW1041REMMET044FLND 0400Z 00000KT 6000M FU SKC 17/16 Q1017;EQDQ01+000003PRSWM1Q02    003PRSWM1
0249675610999992000112206004-13000+028650FM-12+1270FLND V0209999C00001105001CN0070001N1+02081+01731999999ADDAA199000091AY121061AY221061GA1011+003009089GF107991011011004501001081KA1120M+02951KA2120N+01681MD1999999+0081ME1315119MW1041REMSYN094AAXX  22064 67561 31457 70000 10208 20173 48511 70422 81108 333 10295 20168 58008 81810 87280;EQDQ01  00002PRCP99
0188675610999992000112209004-13000+028650FM-12+1270FLND V0209999C000010090019N0250001N1+02711+01921999999ADDAY121031AY221031GA1061+009009089GF106991061021012501001001MD1999999+0091ME1315149MW1051REMSYN089AAXX  22094 67561 41675 60000 10271 20192 48514 70522 86200 333 58009 86830 555 Q1 018.2;
0146675610999992000112210004-13000+028650FM-15+1270FLND V0202701N002610120019N0112651N1+02901+01701999999ADDGA1071+012009029GF107991999999999999999999MA1101691999999MW1001REMMET052FLND 1000Z 27005KT 9999 BKN040TCU 29/17 Q1017 NOSIG;EQDQ01+000000PRSWM2
0203675610999992000112212004-13000+028650FM-12+1270FLND V0202501N00211105001CN0200001N1+03001+01601999999ADDAY121061AY221061GA1011+015009099GA2041+015009089GF107991041021017501001081MD1999999+0081ME1314889MW1051REMSYN088AAXX  22124 67561 41770 72504 10300 20160 48488 70522 84208 333 58008 81950 84850 87280;
0164675610999992000112217004-13000+028650FM-15+1270FLND V0201201N004110330019N0112651N1+02401+01601999999ADDGA1021+013509099GA2071+033009999GF107991999999999999999999MA1101591999999MW1001REMMET054FLND 221700Z 12008KT 9999 SCT045CB BKN110 24/16 Q1016;EQDQ01+000000PRSWM2
0231675610999992000112406004-13000+028650FM-12+1270FLND V0209999C000010330019N0300001N1+02801+01801999999ADDAA199000091GA1071+033009019GF107991071001999999071999KA1120M+02851KA2120N+01721MD1999999-0091ME1315239REMSYN082AAXX  24064 67561 32980 70000 10280 20180 48523 87070 333 10285 20172 59009 87461;EQDQ01+000002SCOHCGQ02  00002PRCP99
0175675610999992000112412004-13000+028650FM-12+1270FLND V0209999C000012200019N0300001N1+02941+01561999999ADDGA1031+013509089GA2011+033009039GF104991031021012501031021MD1999999-0171ME1314909REMSYN082AAXX  24124 67561 42680 40000 10294 20156 48490 83232 333 59017 83845 81361 81080;
0175675610999992000112415004-13000+028650FM-12+1270FLND V0200401N002610330019N0300001N1+02901+01501999999ADDGA1031+018009069GA2021+033009039GF107991031041017501031081MD1999999-0201ME1314759REMSYN082AAXX  24154 67561 42780 70405 10290 20150 48475 83438 333 59020 83656 82361 85280;
0363675610999992000112506004-13000+028650SY-MT+1270FLND V0200601N002110900019N0100001N1+02441+01781999999ADDAA199000091AY121061AY221061GA1021+039009079GA2071+090009089GF107991021001999999031081KA1120M+03071KA2120N+01911MA1101901999999MD1999999-0091ME1315189MW1051REMSYN094AAXX  25064 67561 31960 70604 10244 20178 48518 70522 82038 333 10307 20191 59009 82363 87280;MET045FLND 250600Z 06004KT CAVOK 24/18 Q1019 NOSIG;EQDQ01+000000PRSWM2Q02  00002PRCP99Q03    003PRSWM1
0145675610999992000112508004-13000+028650FM-15+1270FLND V0201001N001512200019N0112651N1+02701+01801999999ADDGA1021+008109999GF104991999999999999999999MA1101801999999MW1001REMMET051FLND 250800Z 10003KT 9999 SCT027 27/18 Q1018 NOSIG;EQDQ01+000000PRSWM2
0153675610999992000112509004-13000+028650FM-12+1270FLND V0201001N00461105001CN0300001N1+02901+01671999999ADDGA1041+012009029GF107991041021012501001081MD1999999-0111ME1315119REMSYN076AAXX  25094 67561 42680 71009 10290 20167 48511 84208 333 59011 84240 86280;
0141675610999992000112511004-13000+028650FM-15+1270FLND V0209999C000010120019N0112651N1+02801+01601999999ADDGA1071+012009099GF107991999999999999999999MA1101591999999MW1001REMMET047FLND 251100Z 00000KT 9999 BKN040CB 28/16 Q1016;EQDQ01+000000PRSWM2
0203675610999992000112512004-13000+028650FM-12+1270FLND V0200801N00411045001CN0200001N1+02961+01581999999ADDAY121061AY221061GA1011+015009099GA2011+033009039GF106991031021017501061021MD1999999-0011ME1314899MW1151REMSYN088AAXX  25124 67561 41770 60808 10296 20158 48489 71522 83262 333 59001 81950 81361 83080;
0225675610999992000112609004-13000+028650FM-12+1270FLND V0200901N005110330019N0200001N1+02731+01781999999ADDAY121031AY221031GA1021+009009099GA2041+009009089GA3041+033009039GF107991021091012501031021MD1999999+0121ME1315249MW1151REMSYN094AAXX  26094 67561 41670 70910 10273 20178 48524 71522 82932 333 58012 82930 84830 84361 82080;
0236675610999992000112706004-13000+028650FM-12+1270FLND V0203601N001510030019N0150001N1+02001+01771999999ADDAA124020191AY121061AY221061GA1051+003009069GF107991051051004501031081KA1120M+02761KA2120N+01791MD1999999+0101ME1315359MW1051REMSYN100AAXX  27064 67561 11465 73603 10200 20177 48535 60204 70522 85538 333 10276 20179 58010 85610 84361;
0203675610999992000112709004-13000+028650FM-12+1270FLND V0200301N002610075019N0200001N1+02341+01761999999ADDAY121031AY221031GA1051+007509069GA2051+033009039GF107991051051008001031081MD1999999+0161ME1315369MW1051REMSYN088AAXX  27094 67561 41570 70305 10234 20176 48536 70522 85538 333 58016 85625 85361 87280;
0197675610999992000112712004-13000+028650FM-12+1270FLND V0209999C000010300019N0300001N1+02501+01581999999ADDGA1011+012009099GA2041+012009089GA3051+030009039GF107991041021012501031081MD1999999+0091ME1315169REMSYN088AAXX  27124 67561 42680 70000 10250 20158 48516 84238 333 58009 81940 84840 85360 87280;
0416675610999992000112806004-13000+028650SY-MT+1270FLND V0209999C000010330019N0100001N1+02061+01741999999ADDAA199000091AY121061AY221061GA1021+001809999GA2071+033009999GF107991011061002501071999KA1120M+02661KA2120N+01811MA1102101999999MD1999999-0031ME1315329MW1051REMSYN142AAXX  28064 67561 31360 70000 10206 20174 48532 70522 8167/ 333 10266 20181 59003 81706 81606 87461 555 00/// 20020 BB// CC181 DD/// Q1 021.1;MET050FLND 0600Z 00000KT 9999 FEW006 BKN110 21/17 Q1021;EQDQ01+000000PRSWM2Q02  00002PRCP99Q03    003PRSWM1
0175675610999992000112809004-13000+028650FM-12+1270FLND V0203601N001010075019N0300001N1+02541+01711999999ADDGA1011+007509099GA2041+007509089GF107991051021008001071999MD1999999-0081ME1315309REMSYN082AAXX  28094 67561 42580 73602 10254 20171 48530 8527/ 333 59008 81925 84825 86361;
0262675610999992000112906004-13000+028650FM-12+1270FLND V0209999C000010450019N0150001N1+02271+01851999999ADDAA124005191AY121061AY221061GA1011+004509089GA2031+090009009GF107991011011004501031021KA1120M+02611KA2120N+01821MD1999999-0191ME1315159MW1051REMSYN110AAXX  29064 67561 11465 70000 10227 20185 48515 60054 70522 81132 333 10261 20182 59019 81815 83080 555 00///;
0250675610999992000112912004-13000+028650FM-12+1270FLND V0203601N004110120019N0300001N1+02791+01611999999ADDGA1011+012009099GA2051+012009089GA3011+033009039GA4061+090009029GF107991051021012501031081MD1999999-0091ME1314929REMSYN125AAXX  29124 67561 42680 73608 10279 20161 48492 85238 333 59009 81940 85840 81361 86280 555 66/// 77/// 875// 98024 Q1 015.8;
0225675610999992000113009004-13000+028650FM-12+1270FLND V0202301N001010090019N0300001N1+02611+01901999999ADDAY121031AY221031GA1011+009009099GA2051+009009089GA3031+030009039GF107991051021012501031081MD1999999+0051ME1315269MW1171REMSYN094AAXX  30094 67561 41680 72302 10261 20190 48526 71722 85238 333 58005 81930 85830 83360 87280;
0195675610999992000113012004-13000+028650FM-12+1270FLND V0200601N00151045001CN0150001N1+02071+01911999999ADDAW1951AZ191061GA1011+009009099GA2031+009009089GF107991031021000751071999MD1999999+0141ME1315019REMSYN088AAXX  30124 67561 44165 70603 10207 20191 48501 79599 8327/ 333 58014 81930 83830 87459;
0258675610999992000120106004-13000+028650FM-12+1270FLND V0200801N00261045001CN0100001N1+02011+01881999999ADDAA124004191AY141061AY221061GA1031+001509079GA2031+002409069GF107991031061002501031999KA1120M+02711KA2120N+01781MD1999999+0041ME1315339MW1281REMSYN106AAXX  01064 67561 11360 70805 10201 20188 48533 60044 72842 8363/ 333 10271 20178 58004 83705 83608 84361;
0153675610999992000120109004-13000+028650FM-12+1270FLND V0209999C000010060019N0300001N1+02471+01771999999ADDGA1051+006009089GF107991051021008001001071MD1999999+0021ME1315269REMSYN076AAXX  01094 67561 42580 70000 10247 20177 48526 85207 333 58002 85820 87280;
0256675610999992000120112004-13000+028650FM-12+1270FLND V0209999C000010900019N0250001N1+02791+01631999999ADDAY121061AY221061GA1011+012009099GA2041+012009089GA3031+090009009GF106991041021012501001021MD1999999-0041ME1315029MW1151REMSYN125AAXX  01124 67561 41675 60000 10279 20163 48502 71522 84202 333 59004 81940 84840 83080 555 66/// 77/// 8885/ 98014 Q1 016.9;
0257675610999992000120115004-13000+028650FM-12+1270FLND V0201801N007710300019N0040001N1+02421+01801999999ADDAY191031AY221031GA1021+010509099GA2041+010509069GA3071+030009049GF107991021091012501071999KA1240M+02861MD1999999+0001ME1315029MW1951REMSYN113AAXX  01154 67561 41640 71815 10242 20180 48502 79592 8297/ 333 58000 82935 84635 87460 555 10286 39999 Q1 017.2;
0336675610999992000120206004-13000+028650SY-MT+1270FLND V0200801N00211045001CN0100001N1+01961+01851999999ADDAA124004191AY121061AY221061GA1021+001209999GF107991041071001501071999KA1120M+02861KA2120N+01871MD1999999+0031ME1315369MW1501MW2511REMSYN106AAXX  02064 67561 11260 70804 10196 20185 48536 60044 75022 8477/ 333 10286 20187 58003 84704 84610 87460;MET063FLND 020600Z 08004KT 9999 -DZ SCT004 DCT010 BKN100 20/19 Q1021;EQDQ01    003PRSWM1
0175675610999992000120212004-13000+028650FM-12+1270FLND V0200301N00151045001CN0300001N1+02501+01891999999ADDGA1021+010509099GA2041+010509089GF107991021091012501071999MD1999999+0001ME1315009REMSYN082AAXX  02124 67561 42680 70303 10250 20189 48500 8297/ 333 58000 82935 84835 87461;
0162675610999992000120214004-13000+028650FM-15+1270FLND V0202601N002110150019N0112651N1+02301+01801999999ADDGA1071+015009099GA2071+033009999GF107991999999999999999999MA1101591999999MW1001REMMET052FLND 1400Z 26004KT 9999 BKN050CB BKN110 23/18 Q1016;EQDQ01+000000PRSWM2
0214675610999992000120306004-13000+028650FM-12+1270FLND V0209999C000010450019N0150001N1+02001+01911999999ADDAA124002091AY161061AY251061GF107991031071002501071999KA1120M+02581KA2120N+01881MD1999999-0111ME1315259MW1501REMSYN094AAXX  03064 67561 11365 70000 10200 20191 48525 60024 75065 8377/ 333 10258 20188 59011 8373/;
0219675610999992000120406004-13000+028650FM-12+1270FLND V0200901N002110030019N0250001N1+01911+01741999999ADDAY121061AY221061GA1071+003009069GF107991071051004501071999KA1120M+02281KA2120N+01711MD1999999-0021ME1315239MW1051REMSYN094AAXX  04064 67561 11475 70904 10191 20174 48523 70522 8757/ 333 10228 20171 59002 87610 87461;
0219675610999992000120409004-13000+028650FM-12+1270FLND V0200101N002610075019N0300001N1+02291+01841999999ADDGA1031+000309069GA2031+007509069GA3041+009009089GA4071+036009039GF107991071081008001071999MD1999999-0011ME1315229REMSYN094AAXX  04094 67561 42580 70105 10229 20184 48522 8787/ 333 59001 83601 83625 84830 87362 91019;
0170675610999992000120410004-13000+028650FM-15+1270FLND V0200101N002110105019N0112651N1+02501+01901999999ADDGA1071+010509099GA2071+036009999GF107991999999999999999999MA1101801999999MW1001REMMET060FLND 041000Z 01004KT 9999 BKN035CB BKN120 25/19 Q1018 NOSIG;EQDQ01+000000PRSWM2
0175675610999992000120412004-13000+028650FM-12+1270FLND V0200301N001510150019N0300001N1+02661+01751999999ADDGA1011+015009099GA2051+015009089GF106991061021017501001021MD1999999-0121ME1314949REMSYN082AAXX  04124 67561 42780 60303 10266 20175 48494 86202 333 59012 81950 85850 83080;
0233675610999992000120415004-13000+028650FM-12+1270FLND V0202501N001510300019N0300001N1+02661+01791999999ADDGA1021+021009099GA2011+021009089GA3051+030009039GF106991031091022501999999KA1999M+02891MD1999999-0091ME1314849REMSYN092AAXX  04154 67561 42880 62503 10266 20179 48484 8390/ 333 59009 82957 81857 85360 555 10289;EQDQ01+000002SCOMCG
0200675610999992000120418004-13000+028650FM-12+1270FLND V0201901N001519999999N0100001N1+02021+01841999999ADDAY191061AY291061GA1021+021009099GF108991021091999999071999KA1120M+02891MD1999999+0031ME1315049MW1951REMSYN088AAXX  04184 67561 41960 81903 10202 20184 48504 79599 8297/ 333 10289 58003 82957 87461;
0236675610999992000120506004-13000+028650FM-12+1270FLND V0209999C000010024019N0070001N1+01931+01811999999ADDAA124041991AY151061AY221061GA1061+002409079GF107991061071002501071999KA1120M+02891KA2120N+01681MD1999999+0051ME1315289MW1601REMSYN100AAXX  05064 67561 11357 70000 10193 20181 48528 60424 76052 8677/ 333 10289 20168 58005 86708 87460;
0225675610999992000120509004-13000+028650FM-12+1270FLND V0209999C000010330019N0250001N1+02201+01771999999ADDAY161031AY221031GA1011+004509099GA2031+005409069GA3041+033009039GF107991031051004501031081MD1999999+0031ME1315249MW1211REMSYN094AAXX  05094 67561 41475 70000 10220 20177 48524 72162 83538 333 58003 81915 83618 84361 87280;
0225675610999992000120512004-13000+028650FM-12+1270FLND V0203301N001510330019N0300001N1+02461+01871999999ADDAY161061AY221061GA1011+009009099GA2041+010509069GA3031+033009039GF107991041051012501031081MD1999999+0041ME1314969MW1011REMSYN094AAXX  05124 67561 42680 73303 10246 20187 48496 70162 84538 333 58004 81930 84635 83361 87280;
0236675610999992000120606004-13000+028650FM-12+1270FLND V0200901N001510021019N0250001N1+02011+01921999999ADDAA124020191AY161061AY261061GA1061+002109079GF107991061071002501071999KA1120M+02781KA2120N+01941MD1999999-0021ME1315279MW1601REMSYN100AAXX  06064 67561 11375 70903 10201 20192 48527 60204 76066 8677/ 333 10278 20194 59002 86707 87461;
0203675610999992000120609004-13000+028650FM-12+1270FLND V0203601N002110060019N0300001N1+02431+01791999999ADDAY161031AY221031GA1011+006009099GA2051+006009089GF107991051021008001071999MD1999999-0051ME1315229MW1151REMSYN088AAXX  06094 67561 41580 73604 10243 20179 48522 71562 8527/ 333 59005 81920 85820 87362;
0336675610999992000120612004-13000+028650SY-MT+1270FLND V0201001N002110105019N0300001N1+02101+01881999999ADDAY161061AY261061GA1071+010509099GA2071+033009999GF107991051021012501071999MA1101691999999MD1999999+0041ME1314979MW1611REMSYN125AAXX  06124 67561 41680 71004 10210 20188 48497 76166 8527/ 333 58004 81935 84835 87461 555 66/// 77/// 8883/ 98028 Q1 017.0;MET056FLND 1200Z 10004KT 9999 -RA BKN035CB BKN110 21/19 Q1017;EQDQ01    003PRSWM1
0182675610999992000120613004-13000+028650FM-15+1270FLND V0201001N002110120019N0112651N1+02101+01901999999ADDGA1071+012009099GA2071+033009999GF107991999999999999999999MA1101591999999MW1611REMMET056FLND 1300Z 10004KT 9999 -RA BKN040CB BKN110 21/19 Q1016;EQDQ01+000003PRSWM1Q02    003PRSWM1
0236675610999992000120706004-13000+028650FM-12+1270FLND V0200501N001010036019N0250001N1+02051+01881999999ADDAA124007191AY121061AY221061GA1061+003609069GF107991061051004501071999KA1120M+02521KA2120N+01761MD1999999+0001ME1315279MW1051REMSYN100AAXX  07064 67561 11475 70502 10205 20188 48527 60074 70522 8657/ 333 10252 20176 58000 86612 87460;
0203675610999992000120709004-13000+028650FM-12+1270FLND V0200801N00101006001CN0070001N1+02001+01901999999ADDAY191031AY261031GA1031+005109099GA2021+006009069GF107991031091004501071999MD1999999+0011ME1315199MW1951REMSYN088AAXX  07094 67561 41457 70802 10200 20190 48519 79596 8397/ 333 58001 83917 82620 87459;
0225675610999992000120712004-13000+028650FM-12+1270FLND V0203501N005710300019N0250001N1+02271+01801999999ADDAY191061AY221061GA1011+009009099GA2031+010509069GA3051+030009049GF107991031051012501071081MD1999999-0021ME1314979MW1151REMSYN094AAXX  07124 67561 41675 73511 10227 20180 48497 71592 83578 333 59002 81930 83635 85460 87280;
0236675610999992000120806004-13000+028650FM-12+1270FLND V0200101N00211045001CN0250001N1+01991+01771999999ADDAA124007191AY161061AY221061GA1011+007509099GF106991011091008001081001KA1120M+02511KA2120N+01771MD1999999-0011ME1315259MW1051REMSYN100AAXX  08064 67561 11575 60104 10199 20177 48525 60074 70562 81980 333 10251 20177 59001 81925 86361;
0153675610999992000120809004-13000+028650FM-12+1270FLND V0203501N001010105019N0300001N1+02551+01831999999ADDGA1051+010509089GF107991051021012501031001MD1999999+0011ME1315259REMSYN076AAXX  08094 67561 42680 73502 10255 20183 48525 85230 333 58001 85835 84362;
0175675610999992000120812004-13000+028650FM-12+1270FLND V0200901N002110150019N0300001N1+02771+01671999999ADDGA1011+015009099GA2061+015009089GF106991061021017501001021MD1999999+0001ME1315009REMSYN082AAXX  08124 67561 42780 60904 10277 20167 48500 86202 333 58000 81950 86850 83080;
0197675610999992000120912004-13000+028650FM-12+1270FLND V0209999C00001033001CN0300001N1+02821+01731999999ADDGA1011+012009099GA2041+012009089GA3011+033009039GF105991051021012501031021MD1999999-0051ME1314969REMSYN088AAXX  09124 67561 42680 50000 10282 20173 48496 85232 333 59005 81940 84840 81361 82080;
0242675610999992000120915004-13000+028650FM-12+1270FLND V0202701N002610900019N0300001N1+02771+01691999999ADDAY191031AY221031GA1021+018009099GA2011+018009089GA3041+090009009GF106991021091017501031021KA1999M+02891MD1999999-0041ME1314889MW1171REMSYN098AAXX  09154 67561 41780 62705 10277 20169 48488 71792 82932 333 59004 82956 81856 84080 555 10289;
0360675610999992000121006004-13000+028650SY-MT+1270FLND V0200501N001510330019N0090001N1+02111+01821999999ADDAA124008991AY121061AY221061GA1071+033009999GF107991071001999999071999KA1120M+02891KA2120N+01811MA1101901999999MD1999999-0011ME1315189MW1041REMSYN137AAXX  10064 67561 11959 70503 10211 20182 48518 60094 70422 8707/ 333 10289 20181 59001 87461 555 00/// 20002 BB/// CC181 DD/// Q1 019.3;MET047FLND 0600Z 05003KT 9000M FU BKN110 21/18 Q1019;EQDQ01    003PRSWM1
0153675610999992000121009004-13000+028650FM-12+1270FLND V0200201N001510060019N0300001N1+02541+01731999999ADDGA1051+006009089GF107991051021008001071999MD1999999-0031ME1315199REMSYN076AAXX  10094 67561 42580 70203 10254 20173 48519 8527/ 333 59003 85820 87361;
0225675610999992000121012004-13000+028650FM-12+1270FLND V0202601N00261009001CN0150001N1+02301+01941999999ADDAY191061AY221061GA1021+009009099GA2031+009009089GA3051+030009039GF107991021091012501031021MD1999999-0011ME1314919MW1951REMSYN094AAXX  10124 67561 41665 72605 10230 20194 48491 79592 82932 333 59001 82930 83830 85360 82080;
0351675610999992000121106004-13000+028650SY-MT+1270FLND V0200801N002612200019N0100001N1+02211+01831999999ADDAA124003091AY121061AY221061GA1041+030009079GA2011+090009019GF104991041001999999081011KA1120M+02741KA2120N+01791MA1101801999999MD1999999-0061ME1315139MW1051REMSYN100AAXX  11064 67561 11960 40805 10221 20183 48513 60034 70522 84081 333 10274 20179 59006 84360 81080;MET043FLND 0600Z 08005KT CAVOK 22/18 Q1018 NOSIG;EQDQ01+000000PRSWM2Q02    003PRSWM1
0194675610999992000121109004-13000+028650FM-12+1270FLND V0200201N003110075019N0300001N1+02731+01821999999ADDGA1011+007509099GA2061+007509089GF199999061021008001001011MD1999999-0141ME1315069REMSYN082AAXX  11094 67561 42580 50206 10273 20182 48506 86201 333 59014 81925 86825 81080;EQDQ01+000052SCOTCV
0225675610999992000121112004-13000+028650FM-12+1270FLND V0203601N00511007501CN0150001N1+02651+01911999999ADDAY191061AY211061GA1021+007509099GA2031+007509089GA3051+033009039GF107991021091008001041021MD1999999-0071ME1314869MW1171REMSYN094AAXX  11124 67561 41565 73610 10265 20191 48486 71791 82942 333 59007 82925 83825 85361 82080;
0236675610999992000121206004-13000+028650FM-12+1270FLND V0209999C00001045001CN0100001N1+02051+01841999999ADDAA124005191AY121061AY221061GA1041+002709079GF107991041061002501071999KA1120M+02831KA2120N+01771MD1999999+0031ME1315159MW1051REMSYN100AAXX  12064 67561 11360 70000 10205 20184 48515 60054 70522 8467/ 333 10283 20177 58003 84709 87461;
0153675610999992000121209004-13000+028650FM-12+1270FLND V0202801N00411045001CN0300001N1+02561+01871999999ADDGA1041+007509089GF107991041021008001031001MD1999999+0051ME1315109REMSYN076AAXX  12094 67561 42580 72808 10256 20187 48510 84230 333 58005 84825 87361;
0257675610999992000121215004-13000+028650FM-12+1270FLND V0209999C000010330019N0300001N1+01981+01781999999ADDAY191031AY281031GA1031+015009099GA2011+015009089GA3071+033009049GF107991031091017501071999KA1240M+02831MD1999999-0021ME1314749MW1171REMSYN113AAXX  12154 67561 41780 70000 10198 20178 48474 71798 8397/ 333 59002 83950 81850 87461 555 10283 39999 Q1 914.4;
0236675610999992000121306004-13000+028650FM-12+1270FLND V0209999C00001045001CN0200001N1+02071+01651999999ADDAA124001091AY161061AY251061GA1031+002709079GF107991031071002501071999KA1120M+02831KA2120N+01801MD1999999-0131ME1315029MW1211REMSYN100AAXX  13064 67561 11370 70000 10207 20165 48502 60014 72165 8377/ 333 10283 20180 59013 83709 87460;
0181675610999992000121309004-13000+028650FM-12+1270FLND V0202901N002110075019N0250001N1+02391+01841999999ADDAY121031AY221031GA1051+007509069GF107991051051008001071999MD1999999-0141ME1314949MW1051REMSYN082AAXX  13094 67561 41575 72904 10239 20184 48494 70522 8557/ 333 59014 85625 87460;
0258675610999992000121406004-13000+028650FM-12+1270FLND V0203601N00311045001CN0300001N1+01891+01741999999ADDAA124003091AY151061AY221061GA1041+001809079GA2031+003609069GF108991041071002501071999KA1120M+02791KA2120N+01811MD1999999+0041ME1315029MW1501REMSYN106AAXX  14064 67561 11380 83606 10189 20174 48502 60034 75052 8477/ 333 10279 20181 58004 84706 83612 88461;
0203675610999992000121412004-13000+028650FM-12+1270FLND V0200601N00151045001CN0300001N1+02251+01731999999ADDAY121061AY221061GA1011+006009099GA2031+006009089GF107991031021008001031001MD1999999+0171ME1314869MW1051REMSYN088AAXX  14124 67561 41580 70603 10225 20173 48486 70522 83230 333 58017 81920 83820 86361;
0295675610999992000121506004-13000+028650FM-12+1270FLND V0200701N004110024019N0100001N1+02011+01891999999ADDAA124016091AY161061AY221061GA1061+002409079GA2081+033009049GF108991061071002501071999KA1120M+02611KA2120N+01801MD1999999+0081ME1315159MW1601REMSYN143AAXX  15064 67561 11360 80708 10201 20189 48515 60164 76062 8677/ 333 10261 20180 58008 86708 88461 555 00/// 20002 BB/// CC180 DD/// Q1 018.8;
0203675610999992000121509004-13000+028650FM-12+1270FLND V0200701N00461045001CN0100001N1+02141+01861999999ADDAY161031AY221031GA1011+007509099GA2041+007509089GF107991041021008001071999MD1999999+0011ME1315069MW1601REMSYN088AAXX  15094 67561 41560 70709 10214 20186 48506 76062 8427/ 333 58001 81925 84825 87461;
0225675610999992000121512004-13000+028650FM-12+1270FLND V0200201N00151009001CN0300001N1+02371+01931999999ADDAY191061AY221061GA1011+001809079GA2011+009009099GA3031+009009089GF107991021021008001071021MD1999999-0031ME1314849MW1031REMSYN094AAXX  15124 67561 41580 70203 10237 20193 48484 70392 82272 333 59003 81706 81930 83830 86461;
0242675610999992000121515004-13000+028650FM-12+1270FLND V0209999C000010330019N0300001N1+02201+01941999999ADDAY191031AY291031GA1021+012009099GA2011+012009089GA3071+033009049GF107991021091012501071999KA1999M+02611MD1999999+0101ME1314929MW1171REMSYN098AAXX  15154 67561 41680 70000 10220 20194 48492 71799 8297/ 333 58010 82940 81840 87461 555 10261;
0179675610999992000121604004-13000+028650FM-15+1270FLND V0200501N003110270019N0112651N1+01701+01701999999ADDGA1021+001209999GA2081+027009999GF108991999999999999999999MA1101901999999MW1631REMMET053FLND 0400Z 05006KT 9999 RA SCT004 OVC090 17/17 Q1019;EQDQ01+000003PRSWM1Q02    003PRSWM1
0267675610999992000121606004-13000+028650FM-12+1270FLND V0200201N003610018019N0300001N1+01891+01761999999ADDAA124053191GA1061+001809079GA2071+013809069GF107991061071002501071999KA1120M+02611KA2120N+01731MD1999999+0091ME1315259REMSYN137AAXX  16064 67561 12380 70207 10189 20176 48525 60534 8677/ 333 10261 20173 58009 86706 87646 555 00/// 20016 BB/// CC173 DD/// Q1 020.0;
0183675610999992000121608004-13000+028650FM-15+1270FLND V0200801N002110330019N0112651N1+02301+01801999999ADDGA1021+004509999GA2021+006009999GA3071+033009999GF107991999999999999999999MA1101901999999MW1001REMMET057FLND 0800Z 08004KT 9999 FEW015 SCT020 BKN110 23/18 Q1019;EQDQ01+000000PRSWM2
0225675610999992000121612004-13000+028650FM-12+1270FLND V0202601N003110360019N0100001N1+02501+01861999999ADDAY161061AY221061GA1011+009009099GA2041+009009089GA3061+036009039GF107991041021012501031021MD1999999-0131ME1314989MW1171REMSYN094AAXX  16124 67561 41660 72606 10250 20186 48498 71762 84232 333 59013 81930 84830 86362 81080;
0183675610999992000121614004-13000+028650FM-15+1270FLND V0201801N004110360019N0112651N1+02201+01901999999ADDGA1021+009009099GA2071+036009999GF107991999999999999999999MA1101591999999MW1171REMMET057FLND 161400Z 18008KT 9999 TS SCT030CB BKN120 22/19 Q1016;EQDQ01+000003PRSWM1Q02    003PRSWM1
0279675610999992000121615004-13000+028650FM-12+1270FLND V0201601N002610360019N0200001N1+02161+01931999999ADDAY191031AY221031GA1011+009009099GA2031+009009069GA3061+036009049GA4011+090009009GF107991031041012501071021KA1240M+02601MD1999999+0011ME1314929MW1291REMSYN119AAXX  16154 67561 41670 71605 10216 20193 48492 72992 83472 333 58001 81930 83630 86462 81080 555 10260 39999 Q1 016.3;
0208675610999992000121706004-13000+028650FM-12+1270FLND V0200801N004610360019N0300001N1+02141+01871999999ADDAA124003091GA1061+036009039GF107991051071001501031021KA1120M+02601KA2120N+01841MD1999999+0041ME1315289REMSYN094AAXX  17064 67561 11280 70809 10214 20187 48528 60034 85732 333 10260 20184 58004 86362 81080;
0197675610999992000121709004-13000+028650FM-12+1270FLND V0200301N004110900019N0300001N1+02541+01891999999ADDGA1021+006009059GA2031+006009089GA3071+090009029GF107991051081008001001071MD1999999+0001ME1315129REMSYN088AAXX  17094 67561 42580 70308 10254 20189 48512 85807 333 58000 82520 83820 87280 91018;
0175675610999992000121712004-13000+028650FM-12+1270FLND V0200201N005710090019N0300001N1+02731+01831999999ADDGA1011+009009099GA2041+009009089GF107991051021012501001081MD1999999-0051ME1314959REMSYN082AAXX  17124 67561 42680 70211 10273 20183 48495 85208 333 59005 81930 84830 87280;
0164675610999992000121715004-13000+028650FM-15+1270FLND V0200301N002610120019N0112651N1+02701+01801999999ADDGA1071+012009099GA2071+090009999GF107991999999999999999999MA1101391999999MW1001REMMET054FLND 171500Z 03005KT 9999 BKN040CB BKN300 27/18 Q1014;EQDQ01+000000PRSWM2
0182675610999992000121805004-13000+028650FM-15+1270FLND V0209999C000010900019N0040001N1+01901+01901999999ADDGA1021+030009999GA2071+090009999GF107991999999999999999999MA1101901999999MW1401REMMET056FLND 180500Z 00000KT 4000 VCFGFEW100 BKN300 19/19 Q1019;EQDQ01+000003PRSWM1Q02    003PRSWM1
0424675610999992000121806004-13000+028650SY-MT+1270FLND V0200901N002610900019N0250001N1+02181+01871999999ADDAA124003091AY141061AY221061GA1021+001809999GA2021+030009999GA3071+090009999GF107991011061002501081081KA1120M+02881KA2120N+01761MA1101901999999ME1315229MW1031REMSYN149AAXX  18064 67561 11375 70905 10218 20187 48522 60034 70342 81688 333 10288 20176 54006 81706 82360 87280 555 00/// 20003 BB/// CC176 DD/// Q1 019.8;MET065FLND 180600Z 09005KT 9999 FEW006 FEW100 BKN300 22/19 Q1019 NOSIG;EQDQ01+000000PRSWM2Q02    003PRSWM1
0175675610999992000121809004-13000+028650FM-12+1270FLND V0200901N00411045001CN0300001N1+02661+01841999999ADDGA1021+007509089GA2011+030009039GF107991021011008001081081MD1999999+0011ME1315209REMSYN082AAXX  18094 67561 42580 70908 10266 20184 48520 82188 333 58001 82825 81360 87280;
0175675610999992000121812004-13000+028650FM-12+1270FLND V0201001N001510120019N0300001N1+02931+01671999999ADDGA1011+012009099GA2051+012009089GF107991051021012501001081MD1999999-0011ME1314969REMSYN082AAXX  18124 67561 42680 71003 10293 20167 48496 85208 333 59001 81940 85840 87280;
0230675610999992000121906004-13000+028650FM-12+1270FLND V0200901N00261045001CN0300001N1+02271+01891999999ADDAA124000791GA1011+004509089GA2021+033009039GF107991011011004501031081KA1120M+03021KA2120N+01841MD1999999-0031ME1315209REMSYN100AAXX  19064 67561 12480 70905 10227 20189 48520 69904 81138 333 10302 20184 59003 81815 82361 87280;
0175675610999992000121909004-13000+028650FM-12+1270FLND V0200901N003110075019N0300001N1+02711+01811999999ADDGA1061+007509089GA2021+033009039GF107991061021008001031081MD1999999-0051ME1315169REMSYN082AAXX  19094 67561 42580 70906 10271 20181 48516 86238 333 59005 86825 82361 87280;
0175675610999992000121912004-13000+028650FM-12+1270FLND V0200901N00261105001CN0300001N1+02941+01761999999ADDGA1011+012009099GA2041+012009089GF107991041021012501001081MD1999999-0061ME1314909REMSYN082AAXX  19124 67561 42680 70905 10294 20176 48490 84208 333 59006 81940 84840 87280;
0197675610999992000121915004-13000+028650FM-12+1270FLND V0200501N004110270019N0300001N1+02851+01671999999ADDGA1011+018009099GA2031+018009069GA3011+027009039GF106991031041017501031081MD1999999-0041ME1314709REMSYN088AAXX  19154 67561 42780 60508 10285 20167 48470 83438 333 59004 81956 83656 81359 85280;
0230675610999992000122006004-13000+028650FM-12+1270FLND V0202601N00361045001CN0300001N1+02001+01741999999ADDAA124023991GA1011+003009069GA2031+036009039GF107991011051004501081081KA1120M+03021KA2120N+01641MD1999999-0051ME1315149REMSYN100AAXX  20064 67561 12480 72607 10200 20174 48514 60244 81588 333 10302 20164 59005 81610 83362 87280;
0170675610999992000122008004-13000+028650FM-15+1270FLND V0209999C000010360019N0112651N1+02401+01801999999ADDGA1021+006009099GA2071+036009999GF107991999999999999999999MA1101801999999MW1001REMMET060FLND 200800Z 00000KT 9999 FEW020CB BKN120 24/18 Q1018 NOSIG;EQDQ01+000000PRSWM2
0323675610999992000122009004-13000+028650SY-MT+1270FLND V0209999C000010900019N0300001N1+02561+01891999999ADDGA1021+007509099GA2021+036009999GA3071+090009999GF107991021021008001081081MA1101801999999MD1999999-0041ME1315109MW1001REMSYN101AAXX  20094 67561 42580 70800 10256 20189 48510 82288 333 59004 81925 82825 83325 87280 555 Q1 018.0;MET067FLND 200900Z 00000KT 9999 SCT025CB SCT120 BKN300 26/19 Q1018 NOSIG;EQDQ01+000000PRSWM2
0225675610999992000122012004-13000+028650FM-12+1270FLND V0203601N001510360019N0200001N1+02701+01721999999ADDAY121061AY221061GA1021+010509099GA2041+010509089GA3011+036009039GF107991021091012501031081MD1999999-0051ME1314829MW1171REMSYN094AAXX  20124 67561 41670 73603 10270 20172 48482 71722 82938 333 59005 82935 84835 81362 86280;
0203675610999992000122015004-13000+028650FM-12+1270FLND V0200901N00101045001CN0200001N1+02111+01781999999ADDAY191031AY281031GA1021+018009099GA2021+021009069GF107991021091017501071999MD1999999+0061ME1314719MW1291REMSYN088AAXX  20154 67561 41770 70902 10211 20178 48471 72998 8297/ 333 58006 82956 82657 87461;
0169675610999992000122108004-13000+028650FM-15+1270FLND V0200101N002110300019N0112651N1+02501+01801999999ADDGA1021+006009029GA2071+030009999GF107991999999999999999999MA1101801999999MW1001REMMET059FLND 0800Z 01004KT 9999 FEW020TCU BKN100 25/18 Q1018 NOSIG;EQDQ01+000000PRSWM2
0320675610999992000122109004-13000+028650SY-MT+1270FLND V0209999C00001009001CN0250001N1+02541+01831999999ADDAY121031AY221031GA1071+009009099GA2071+033009999GF107991041081012501071999MA1101801999999MD1999999+0001ME1315109MW1171REMSYN101AAXX  21094 67561 41675 70000 10254 20183 48510 71722 8487/ 333 58000 81930 84830 87461 555 Q1 018.0;MET064FLND 0900Z 00000KT 9999 TS BKN030CB BKN110 25/18 Q1018 TEMPO TS;EQDQ01    003PRSWM1
0225675610999992000122112004-13000+028650FM-12+1270FLND V0202201N00671010501CN0100001N1+02591+01861999999ADDAY191061AY221061GA1021+010509099GA2031+010509089GA3061+033009049GF107991021091012501071999MD1999999+0011ME1314839MW1171REMSYN094AAXX  21124 67561 41660 72213 10259 20186 48483 71792 8297/ 333 58001 82935 83835 86461 81080;
0192675610999992000122114004-13000+028650FM-15+1270FLND V0201301N004110330019N0112651N1+02101+01601999999ADDGA1021+009009099GA2071+033009999GF107991999999999999999999MA1101391999999MW1171REMMET066FLND 211400Z 13008KT 9999 TS SCT030CB BKN110 21/16 Q1014 TEMPO TS;EQDQ01+000003PRSWM1Q02    003PRSWM1
0236675610999992000122206004-13000+028650FM-12+1270FLND V0201001N002619999999N0300001N1+01921+01671999999ADDAA124000391AY151061AY221061GA1041+033009039GF107991041001999999031081KA1120M+02801KA2120N+01741MD1999999+0121ME1315229MW1011REMSYN100AAXX  22064 67561 12980 71005 10192 20167 48522 69934 70152 84038 333 10280 20174 58012 84361 87280;
0194675610999992000122209004-13000+028650FM-12+1270FLND V0201101N999990330019N0300001N1+02461+01621999999ADDGA1031+007509089GA2041+033009039GF107991031021008001031081MD1999999+0141ME1315239REMSYN082AAXX  22094 67561 42580 76102 10246 20162 48523 83238 333 58014 83825 84361 87280;EQDQ01+005243WOSPD 
0225675610999992000122212004-13000+028650FM-12+1270FLND V0201801N001510120019N0300001N1+02661+01721999999ADDAY121061AY221061GA1011+012009099GA2051+012009089GA3031+033009039GF107991051021012501031081MD1999999+0061ME1314899MW1151REMSYN094AAXX  22124 67561 41680 71803 10266 20172 48489 71522 85238 333 58006 81940 85840 83361 87280;
0236675610999992000122306004-13000+028650FM-12+1270FLND V0203001N001010018019N0300001N1+01901+01771999999ADDAA124055991AY161061AY221061GA1051+001809079GF108991051071002501071999KA1120M+02811KA2120N+01741MD1999999-0091ME1315139MW1031REMSYN100AAXX  23064 67561 11380 83002 10190 20177 48513 60564 70362 8577/ 333 10281 20174 59009 85706 88461;
0181675610999992000122309004-13000+028650FM-12+1270FLND V0202901N001510075019N0300001N1+02091+01801999999ADDAY161031AY251031GA1061+007509069GF108991061051008001071999MD1999999-0101ME1315109MW1201REMSYN082AAXX  23094 67561 41580 82903 10209 20180 48510 72065 8657/ 333 59010 86625 88461;
0256675610999992000122312004-13000+028650FM-12+1270FLND V0202601N004110330019N0150001N1+02241+01981999999ADDAY161061AY251061GA1011+007509099GA2031+007509089GA3071+033009049GF107991031021008001071999MD1999999+0011ME1314879MW1211REMSYN125AAXX  23124 67561 41565 72608 10224 20198 48487 72165 8327/ 333 58001 81925 83825 87461 555 66/// 77/// 8869/ 98029 Q1 015.7;
0242675610999992000122315004-13000+028650FM-12+1270FLND V0202501N002110330019N0100001N1+02221+01811999999ADDAY191031AY221031GA1011+007509099GA2031+007509069GA3071+033009049GF107991031041008001071999KA1999M+02491MD1999999+0091ME1314799MW1171REMSYN098AAXX  23154 67561 41560 72504 10222 20181 48479 71792 8347/ 333 58009 81925 83625 87461 555 10249;
0295675610999992000122406004-13000+028650FM-12+1270FLND V0200101N001510027019N0150001N1+01911+01841999999ADDAA124007191AY121061AY221061GA1071+002709079GA2081+030009049GF108991071061002501071999KA1120M+02491KA2120N+01781MD1999999-0041ME1315099MW1051REMSYN143AAXX  24064 67561 11365 80103 10191 20184 48509 60074 70522 8767/ 333 10249 20178 59004 87709 88460 555 00/// 20056 BB/// CC178 DD/// Q1 018.5;
0210675610999992000122409004-13000+028650FM-12+1270FLND V0203501N005110060019N0150001N1+02231+01811999999ADDAY121031AY221031GA1061+006009069GA2081+030009049GF108991061051008001071999MD1999999+0011ME1315129MW1601REMSYN095AAXX  24094 67561 41565 83510 10223 20181 48512 76022 8657/ 333 58001 86620 88460 555 Q1 018.6;
0203675610999992000122412004-13000+028650FM-12+1270FLND V0203501N00261007501CN0150001N1+02051+01771999999ADDAY161061AY221061GA1021+007509099GA2031+007509089GF108991021091008001071999MD1999999+0071ME1314939MW1951REMSYN088AAXX  24124 67561 41565 83505 10205 20177 48493 79562 8297/ 333 58007 82925 83825 88460;
0225675610999992000122415004-13000+028650FM-12+1270FLND V0202601N00101045001CN0150001N1+02321+01971999999ADDAY191031AY221031GA1011+012009099GA2011+012009089GA3011+015009069GF107991011091012501071999MD1999999-0011ME1314789MW1021REMSYN094AAXX  24154 67561 41665 72602 10232 20197 48478 70292 8197/ 333 59001 81940 81840 81650 87461;
0230675610999992000122506004-13000+028650FM-12+1270FLND V0209999C000010300019N0080001N1+02001+01901999999ADDAA124001091AY161061AY221061GA1071+030009019GF107991071001999999071999KA1120M+02361KA2120N+01801MD1999999+0041ME1315739MW1211REMSYN094AAXX  25064 67561 11958 70000 10200 20190 48573 69994 72162 8707/ 333 10236 20180 58004 87460;
0203675610999992000122509004-13000+028650FM-12+1270FLND V0202701N00211045001CN0250001N1+02461+01761999999ADDAY121031AY221031GA1011+007509099GA2041+008109069GF107991041051012501071999MD1999999-0051ME1315099MW1051REMSYN088AAXX  25094 67561 41675 72704 10246 20176 48509 70522 8457/ 333 59005 81925 84627 87461;
0225675610999992000122512004-13000+028650FM-12+1270FLND V0202901N003110126019N0250001N1+02771+01731999999ADDAY191061AY291061GA1011+012009099GA2051+012609069GA3031+033009039GF107991051051012501031091MD1999999-0131ME1314859MW1171REMSYN094AAXX  25124 67561 41675 72906 10277 20173 48485 71799 85539 333 59013 81940 85642 83361 87280;
0181675610999992000122609004-13000+028650FM-12+1270FLND V0203601N00101045001CN0100001N1+02351+01871999999ADDAY121031AY221031GA1041+000159069GF107991041051008001071999MD1999999+0051ME1315139MW1051REMSYN082AAXX  26094 67561 41560 73602 10235 20187 48513 70522 8457/ 333 58005 84600 87460;
0225675610999992000122612004-13000+028650FM-12+1270FLND V0202801N003610330019N0100001N1+02651+01931999999ADDAY121061AY221061GA1021+007509099GA2041+007509089GA3011+033009039GF107991021091008001031091MD1999999+0061ME1314909MW1051REMSYN094AAXX  26124 67561 41560 72807 10265 20193 48490 70522 82939 333 58006 82925 84825 81361 87080;
0208675610999992000122705004-13000+028650FM-15+1270FLND V0200301N001510270019N0112651N1+01901+01801999999ADDGA1021+001809999GA2021+004509099GA3071+027009999GF107991999999999999999999MA1101901999999MW1401REMMET066FLND 270500Z 03003KT 9999 VCFG SCT006 FEW015CB BKN090 19/18 Q1019;EQDQ01+000003PRSWM1Q02    003PRSWM1
0268675610999992000122706004-13000+028650FM-12+1270FLND V0200701N002610018019N0150001N1+01961+01871999999ADDAA124001091AY161061AY221061GA1061+001809079GA2081+027009049GF108991061061002501071999KA1120M+02711KA2120N+01841MD1999999+0141ME1315259MW1051REMSYN116AAXX  27064 67561 11365 80705 10196 20187 48525 60014 70562 8667/ 333 10271 20184 58014 86706 88459 555 00/// 20016;
0245675610999992000122709004-13000+028650FM-12+1270FLND V0203501N003110300019N0200001N1+02331+01881999999ADDAY161031AY251031GA1011+004509099GA2031+004509089GA3061+030009039GA4011+090009009GF107991031021004501071021MD1999999+0121ME1315259MW1211REMSYN098AAXX  27094 67561 41470 73506 10233 20188 48525 72165 83272 333 58012 81915 83815 86360 81080 555;
0256675610999992000122712004-13000+028650FM-12+1270FLND V0209999C00001006001CN0070001N1+02021+01871999999ADDAY191061AY261061GA1021+006009099GA2031+006009089GA3071+030009049GF107991021091008001071999MD1999999+0011ME1315079MW1951REMSYN125AAXX  27124 67561 41557 70000 10202 20187 48507 79596 8297/ 333 58001 82920 83820 87460 555 66/// 77/// 8884/ 98036 Q1 018.1;
0236675610999992000122806004-13000+028650FM-12+1270FLND V0201701N00151045001CN0250001N1+02011+01771999999ADDAA103002091AY121061AY221061GA1021+003609069GF107991021051004501031001KA1120M+02511KA2120N+01761MD1999999+0011ME1315279MW1051REMSYN100AAXX  28064 67561 11475 71703 10201 20177 48527 60027 70522 82530 333 10251 20176 58001 82612 87361;
0175675610999992000122812004-13000+028650FM-12+1270FLND V0200901N001010135019N0300001N1+02761+01751999999ADDGA1011+012009099GA2061+013509069GF107991061051012501001021MD1999999-0131ME1314999REMSYN082AAXX  28124 67561 42680 70902 10276 20175 48499 86502 333 59013 81940 86645 82080;
0168675610999992000122815004-13000+028650FM-15+1270FLND V0201101N003110150019N0112651N1+02101+01901999999ADDGA1071+015009099GF107991999999999999999999MA1101491999999MW1811MW2951REMMET052FLND 281500Z 11006KT 9999 TSRA BKN050CB 21/19 Q1015;EQDQ01+000003PRSWM1Q02    003PRSWM1
0202675610999992000122907004-13000+028650FM-15+1270FLND V0203501N001010060019N0080001N1+01901+01801999999ADDGA1021+002709999GA2071+006009999GA3081+030009999GF108991999999999999999999MW1631REMMET075FLND 290700Z 35002KT 8000 RA FEW009 BKN020 OVC100 19/18 Q120 BECMG 6000 RA;EQDQ01+000003PRSWM1Q02    003PRSWM1
0203675610999992000122909004-13000+028650FM-12+1270FLND V0203501N00101045001CN0150001N1+02091+01781999999ADDAY161031AY251031GA1011+002709079GA2031+006009069GF107991031051002501071999MD1999999+0021ME1315229MW1511REMSYN088AAXX  29094 67561 41365 73502 10209 20178 48522 75165 8357/ 333 58002 81709 83620 87461;
0203675610999992000122912004-13000+028650FM-12+1270FLND V0202701N00211105001CN0200001N1+02501+01791999999ADDAY161061AY251061GA1011+009009099GA2031+009009089GF107991031021012501001081MD1999999-0041ME1314939MW1051REMSYN088AAXX  29124 67561 41670 72704 10250 20179 48493 70565 83208 333 59004 81930 83830 87280;
0175675610999992000122915004-13000+028650FM-12+1270FLND V0202201N00361105001CN0300001N1+02721+01791999999ADDGA1011+009009099GA2031+009009089GF107991031021012501001081MD1999999-0121ME1314749REMSYN082AAXX  29154 67561 42680 72207 10272 20179 48474 83208 333 59012 81930 83830 87280;
0295675610999992000123006004-13000+028650FM-12+1270FLND V0209999C000010300019N0050001N1+02121+01941999999ADDAA124002091AY121061AY221061GA1051+030009039GA2071+090009029GF107991051001999999081081KA1120M+02811KA2120N+01871MD1999999-0111ME1315109MW1401REMSYN143AAXX  30064 67561 11950 70000 10212 20194 48510 60024 74022 85088 333 10281 20187 59011 85360 87280 555 00/// 20004 BB/// CC187 DD/// Q1 018.5;
0225675610999992000123009004-13000+028650FM-12+1270FLND V0209999C000010300019N0100001N1+02251+02031999999ADDAY121031AY221031GA1011+006009099GA2031+006009089GA3061+030009049GF107991031021008001071021MD1999999-0211ME1315039MW1401REMSYN094AAXX  30094 67561 41560 70000 10225 20203 48503 74022 83272 333 59021 81920 83820 86460 82084;
0183675610999992000123010004-13000+028650FM-15+1270FLND V0202701N005110060019N0112651N1+02301+01801999999ADDGA1071+006009099GA2071+030009999GF107991999999999999999999MA1101691999999MW1171REMMET057FLND 301000Z 27010KT 9999 TS BKN020CB BKN100 23/18 Q1017;EQDQ01+000003PRSWM1Q02    003PRSWM1
0214675610999992000123011004-13000+028650FM-15+1270FLND V0203001N005110060019N0050001N1+02201+01801999999ADDGA1021+001809999GA2071+006009099GA3071+030009999GF107991999999999999999999MA1101691999999MW1811MW2951REMMET066FLND 301100Z 30010KT 5000 TSRA FEW006 BKN020CB BKN100 22/18 Q1017;EQDQ01+000003PRSWM1Q02    003PRSWM1
0225675610999992000123012004-13000+028650FM-12+1270FLND V0202901N00411045001CN0070001N1+01921+01831999999ADDAY191061AY261061GA1021+002109079GA2021+006009099GA3031+006009089GF108991021091002501071999MD1999999-0011ME1314889MW1951REMSYN094AAXX  30124 67561 41357 82908 10192 20183 48488 79596 8297/ 333 59001 82707 82920 83820 88460;
0251675610999992000123015004-13000+028650FM-12+1270FLND V0203601N003110027019N0100001N1+02011+01831999999ADDAY191031AY261031GA1051+002709079GA2011+012009099GA3071+033009049GF107991051071002501071999KA1240M+02401MD1999999+0111ME1314819MW1291REMSYN107AAXX  30154 67561 41360 73606 10201 20183 48481 72996 8577/ 333 58011 85709 81940 87461 555 10240 Q1 015.1;
0236675610999992000123106004-13000+028650FM-12+1270FLND V0209999C000010018019N0060001N1+01811+01741999999ADDAA124006191AY141061AY221061GA1051+001809079GF107991051061002501071999KA1120M+02401KA2120N+01671MD1999999+0011ME1315109MW1401REMSYN100AAXX  31064 67561 11356 70000 10181 20174 48510 60064 74042 8567/ 333 10240 20167 58001 85706 87460;
0216675610999992000123109004-13000+028650FM-12+1270FLND V0202901N001510066019N0150001N1+02481+01831095071ADDAY121031AY221031GA1011+006009099GA2051+006609069GA3031+033009039GF107991051051008001031081MD1999999+0021MW1051REMSYN094AAXX  31094 67561 41565 72903 10248 20183 49507 70522 85538 333 58002 81920 85622 83361 87280;
