0183683000999992000010100004-26630+015100FM-12+000099999V0201401N007712200019N0040001N1+01951+01131101421ADDAA106000091GA1001+999999999GF100991001001999999001001MA1999999101241MD1410001+9999REMSYN070AAXX  01004 68300 32940 01415 10195 20113 30124 40142 54015 555 91014;EQDQ01  00002PRCP06
0153683000999992000010103004-26630+015100FM-12+000099999V0201801N007712200019N0300001N1+01801+01061101381ADDGA1001+999999999GF100991001001999999001001MA1999999101201MD1810071+9999REMSYN070AAXX  01034 68300 42980 01815 10180 20106 30120 40138 58007 555 91013;
0138683000999992000010109004-26630+015100FM-12+000099999V0201801N001512200019N0200001N1+02001+00971101491ADDGA1001+999999999GF100991001001999999001001MD1410001+9999REMSYN070AAXX  01094 68300 42970 01803 10200 20097 3//// 40149 54000 555 91014;
0191683000999992000010112004-26630+015100FM-12+000099999V0201801N009812200019N0200001N1+02451+00881101401ADDAA106000091GA1001+999999999GF100991001001999999001001KA1120N+02051MD1710071+9999REMSYN080AAXX  01124 68300 32970 01819 10245 20088 3//// 40140 57007 333 20205 555 91014;EQDQ01  00002PRCP06
0153683000999992000010115004-26630+015100FM-12+000099999V0201801N014412200019N0750001N1+02261+00921101281ADDGA1001+999999999GF100991001001999999001001MA1999999101101MD1710131+9999REMSYN070AAXX  01154 68300 42989 01828 10226 20092 30110 40128 57013 555 91012;
0206683000999992000010118004-26630+015100FM-12+000099999V0201801N013412200019N0100001N1+01971+00911101391ADDAA106000091GA1001+999999999GF100991001001999999001001KA1120M+02521MA1999999101211MD1310111+9999REMSYN080AAXX  01184 68300 32960 01826 10197 20091 30121 40139 53011 333 10252 555 91013;EQDQ01  00002PRCP06
0153683000999992000010121004-26630+015100FM-12+000099999V0201801N013412200019N0040001N1+01901+01071101621ADDGA1001+999999999GF100991001001999999001001MA1999999101441MD1210201+9999REMSYN070AAXX  01214 68300 42940 01826 10190 20107 30144 40162 52020 555 91016;
0168683000999992000010200004-26630+015100FM-12+000099999V0201801N011812200019N0200001N1+01871+01031101481ADDAA106000091GA1001+999999999GF100991001001999999001001MD1810141+9999REMSYN070AAXX  02004 68300 32970 01823 10187 20103 3//// 40148 58014 555 91014;EQDQ01  00002PRCP06
0138683000999992000010203004-26630+015100FM-12+000099999V0201801N009312200019N0200001N1+01751+00881101401ADDGA1001+999999999GF100991001001999999001001MD1810081+9999REMSYN070AAXX  02034 68300 42970 01818 10175 20088 3//// 40140 58008 555 91014;
0210683000999992000010206004-26630+015100FM-12+000099999V0201801N009312200019N0200001N1+01801+01721101431ADDAA106000091GA1001+999999999GF100991001001999999001001KA1240M+02501KA2120N+01751MD1210031+9999REMSYN086AAXX  02064 68300 32970 01818 10180 20172 3//// 40143 52003 333 20175 555 10250 91014;EQDQ01  00002PRCP06
0138683000999992000010209004-26630+015100FM-12+000099999V0201801N010312200019N0150001N1+02471+01531101261ADDGA1001+999999999GF100991001001999999001001MD1310061+9999REMSYN070AAXX  02094 68300 42965 01820 10247 20153 3//// 40126 53006 555 91012;
0206683000999992000010212004-26630+015100FM-12+000099999V0201801N020612200019N0750001N1+02551+02401101131ADDAA106000091GA1001+999999999GF100991001001999999001001KA1120N+01901MA1999999100961MD1710071+9999REMSYN080AAXX  02124 68300 32789 01840 10255 20240 30096 40113 57007 333 20190 555 91011;EQDQ01  00002PRCP06
0181683000999992000010215004-26630+015100FM-12+000099999V0201801N018512200019N0200001N1+02301+01341100971ADDAY101031AY201031GA1001+999999999GF100991001001999999001001MA1999999100801MD1710161+9999MW1301REMSYN076AAXX  02154 68300 41970 01836 10230 20134 30080 40097 57016 73000 555 91009;
0206683000999992000010218004-26630+015100FM-12+000099999V0201801N014412200019N0750001N1+02021+01361101061ADDAA106000091GA1001+999999999GF100991001001999999001001KA1120M+02611MA1999999100881MD1310081+9999REMSYN080AAXX  02184 68300 32989 01828 10202 20136 30088 40106 53008 333 10261 555 91010;EQDQ01  00002PRCP06
0153683000999992000010221004-26630+015100FM-12+000099999V0201801N014412200019N0040001N1+01971+01221101171ADDGA1001+999999999GF100991001001999999001001MA1999999100991MD1210101+9999REMSYN070AAXX  02214 68300 42940 01828 10197 20122 30099 40117 52010 555 91011;
0168683000999992000010300004-26630+015100FM-12+000099999V0201801N010312200019N0100001N1+01801+00831101041ADDAA106000091GA1001+999999999GF100991001001999999001001MD1810121+9999REMSYN070AAXX  03004 68300 32960 01820 10180 20083 3//// 40104 58012 555 91010;EQDQ01  00002PRCP06
0138683000999992000010303004-26630+015100FM-12+000099999V0201801N008712200019N0200001N1+01901+00581100921ADDGA1001+999999999GF100991001001999999001001MD1810121+9999REMSYN070AAXX  03034 68300 42970 01817 10190 20058 3//// 40092 58012 555 91009;
0210683000999992000010306004-26630+015100FM-12+000099999V0201801N001512200019N0200001N1+01901+01181101001ADDAA106000091GA1001+999999999GF100991001001999999001001KA1240M+02611KA2120N+01501MD1210081+9999REMSYN086AAXX  03064 68300 32970 01803 10190 20118 3//// 40100 52008 333 20150 555 10261 91009;EQDQ01  00002PRCP06
0206683000999992000010312004-26630+015100FM-12+000099999V0203601N005112200019N0750001N1+01851+01321100941ADDAA106000091GA1001+999999999GF100991001001999999001001KA1120N+01801MA1999999100761MD1410001+9999REMSYN080AAXX  03124 68300 32989 03610 10185 20132 30076 40094 54000 333 20180 555 91009;EQDQ01  00002PRCP06
0196683000999992000010318004-26630+015100FM-12+000099999V0203601N004112200019N0050001N1+01571+01521101041ADDAA106000091GF102991021061000751001001KA1120M+02021MA1999999100861MD1310161+9999REMSYN086AAXX  03184 68300 32150 23608 10157 20152 30086 40104 53016 82600 333 10202 555 91010;EQDQ01  00002PRCP06
0153683000999992000010321004-26630+015100FM-12+000099999V0203601N004112200019N0040001N1+01601+01421101141ADDGA1001+999999999GF100991001001999999001001MA1999999100961MD1210121+9999REMSYN070AAXX  03214 68300 42940 03608 10160 20142 30096 40114 52012 555 91011;
0168683000999992000010400004-26630+015100FM-12+000099999V0203601N003112200019N0040001N1+01551+01371100871ADDAA106000091GA1001+999999999GF100991001001999999001001MD1810091+9999REMSYN070AAXX  04004 68300 32940 03606 10155 20137 3//// 40087 58009 555 91018;EQDQ01  00002PRCP06
0196683000999992000010403004-26630+015100FM-12+000099999V0203601N004110003019N0003001N1+01301+01301100791ADDAA106000091AY101031AY201031GA1091+999999999GF109991091999999999999999MD1710081+9999MW1451REMSYN076AAXX  04034 68300 31/03 93608 10130 20130 3//// 40079 57008 74500 555 91007;EQDQ01  00002PRCP06
0238683000999992000010406004-26630+015100FM-12+000099999V0203601N004110003019N0004001N1+01301+01301101171ADDAA106000091AY141061AY201061GA1091+999999999GF109991091999999999999999KA1240M+02151KA2120N+01301MD1210101+9999MW1451REMSYN092AAXX  04064 68300 31/04 93608 10130 20130 3//// 40117 52010 74540 333 20130 555 10215 91011;EQDQ01  00002PRCP06
0156683000999992000010409004-26630+015100FM-12+000099999V0203601N003110006019N0050001N1+01501+01321101241ADDAY141031AY201031GF108991081061000751999999MD1210071+9999MW1401REMSYN082AAXX  04094 68300 41150 83606 10150 20132 3//// 40124 52007 74040 886// 555 91012;
0209683000999992000010412004-26630+015100FM-12+000099999V0203601N003110006019N0060001N1+01651+01481101181ADDAA106000091AY141061AY201061GF108991081061000751999999KA1120N+01301MD1710061+9999MW1401REMSYN092AAXX  04124 68300 31156 83606 10165 20148 3//// 40118 57006 74040 886// 333 20130 555 91011;EQDQ01  00002PRCP06
0171683000999992000010415004-26630+015100FM-12+000099999V0203601N003110006019N0030001N1+01631+01631101091ADDAY141031AY241031GF108991081061000751999999MA1999999100911MD1710091+9999MW1401REMSYN082AAXX  04154 68300 41130 83606 10163 20163 30091 40109 57009 74044 886// 555 91010;
0224683000999992000010418004-26630+015100FM-12+000099999V0203601N003112200019N0040001N1+01801+01631101091ADDAA106000091AY141061AY241061GF102991021061001501001001KA1120M+01851MA1999999100911MD1410001+9999MW1401REMSYN092AAXX  04184 68300 31240 23606 10180 20163 30091 40109 54000 74044 82600 333 10185 555 91010;EQDQ01  00002PRCP06
0183683000999992000010500004-26630+015100FM-12+000099999V0203601N005112200019N0030001N1+01801+01451100941ADDAA106000091GA1001+999999999GF100991001001999999001001MA1999999100761MD1810181+9999REMSYN070AAXX  05004 68300 32930 03610 10180 20145 30076 40094 58018 555 91009;EQDQ01  00002PRCP06
0153683000999992000010503004-26630+015100FM-12+000099999V0203601N005112200019N0030001N1+01781+01381100761ADDGA1001+999999999GF100991001001999999001001MA1999999100581MD1710231+9999REMSYN070AAXX  05034 68300 42930 03610 10178 20138 30058 40076 57023 555 91007;
0225683000999992000010506004-26630+015100FM-12+000099999V0201801N001512200019N0750001N1+01901+01531100971ADDAA106000091GA1001+999999999GF100991001001999999001001KA1240M+01931KA2120N+01441MA1999999100791MD1710211+9999REMSYN086AAXX  05064 68300 32989 01803 10190 20153 30079 40097 57021 333 20144 555 10193 91009;EQDQ01  00002PRCP06
0153683000999992000010509004-26630+015100FM-12+000099999V0201801N005112200019N0750001N1+02411+01431100861ADDGA1001+999999999GF100991001001999999001001MA1999999100691MD1310101+9999REMSYN070AAXX  05094 68300 42989 01810 10241 20143 30069 40086 53010 555 91008;
0196683000999992000010512004-26630+015100FM-12+000099999V0201801N011312200019N0750001N1+02551+01471100741ADDAA106000091GF102991001001999999001051KA1120N+01901MA1999999100571MD1310121+9999REMSYN086AAXX  05124 68300 32989 21822 10255 20147 30057 40074 53012 80005 333 20190 555 91007;EQDQ01  00002PRCP06
0206683000999992000010518004-26630+015100FM-12+000099999V0201801N011319999999N0750001N1+02011+01631100701ADDAA106000091GF105991999999999999999999KA1120M+02661MA1999999100521MD1310802+9999REMSYN080AAXX  05184 68300 32989 51822 10201 20163 30052 40070 5308/ 333 10266 555 97006;EQDQ01+000802APC3  Q02  00002PRCP06
0153683000999992000010521004-26630+015100FM-12+000099999V0201801N011312200019N0050001N1+01851+01511100871ADDGA1001+999999999GF100991001001999999001001MA1999999100691MD1210171+9999REMSYN070AAXX  05214 68300 42950 01822 10185 20151 30069 40087 52017 555 91008;
0138683000999992000010603004-26630+015100FM-12+000099999V0201801N007712200019N0100001N1+01751+01401100751ADDGA1001+999999999GF100991001001999999001001MD1710071+9999REMSYN070AAXX  06034 68300 42960 01815 10175 20140 3//// 40075 57007 555 91007;
0200683000999992000010606004-26630+015100FM-12+000099999V0202701N001512200019N0100001N1+01551+01431100931ADDAA106000091GF104991041061000751001001KA1240M+02661KA2120N+01551MD1210181+9999REMSYN092AAXX  06064 68300 32160 42703 10155 20143 3//// 40093 52018 84600 333 20155 555 10266 91009;EQDQ01  00002PRCP06
0143683000999992000010609004-26630+015100FM-12+000099999V0203601N003112200019N0750001N1+01951+01531101011ADDGF104991001001999999001051MA1999999100831MD1210071+9999REMSYN076AAXX  06094 68300 42989 43606 10195 20153 30083 40101 52007 80005 555 91010;
0196683000999992000010612004-26630+015100FM-12+000099999V0201801N004112200019N0750001N1+02501+01511100901ADDAA106000091GF104991001001999999001051KA1120N+01561MA1999999100731MD1710101+9999REMSYN086AAXX  06124 68300 32989 41808 10250 20151 30073 40090 57010 80005 333 20156 555 91009;EQDQ01  00002PRCP06
0143683000999992000010615004-26630+015100FM-12+000099999V0201801N004112200019N0750001N1+02351+01541100821ADDGF104991001001999999001091MA1999999100651MD1710081+9999REMSYN076AAXX  06154 68300 42989 41808 10235 20154 30065 40082 57008 80009 555 91008;
0153683000999992000010621004-26630+015100FM-12+000099999V0201801N006212200019N0040001N1+01901+01471101241ADDGA1001+999999999GF100991001001999999001001MA1999999101061MD1210231+9999REMSYN070AAXX  06214 68300 42940 01812 10190 20147 30106 40124 52023 555 91012;
0183683000999992000010700004-26630+015100FM-12+000099999V0201801N006212200019N0040001N1+01851+01421101191ADDAA106000091GA1001+999999999GF100991001001999999001001MA1999999101011MD1310201+9999REMSYN070AAXX  07004 68300 32940 01812 10185 20142 30101 40119 53020 555 91011;EQDQ01  00002PRCP06
0153683000999992000010703004-26630+015100FM-12+000099999V0201801N007712200019N0040001N1+01721+01421101091ADDGA1001+999999999GF100991001001999999001001MA1999999100911MD1810101+9999REMSYN070AAXX  07034 68300 42940 01815 10172 20142 30091 40109 58010 555 91010;
0215683000999992000010706004-26630+015100FM-12+000099999V0201801N004112200019N0750001N1+01881+01301101251ADDAA106000091GF101991001001999999001091KA1240M+02671KA2120N+01481MA1999999101071MD1310161+9999REMSYN092AAXX  07064 68300 32989 11808 10188 20130 30107 40125 53016 80009 333 20148 555 10267 91012;EQDQ01  00002PRCP06
0143683000999992000010709004-26630+015100FM-12+000099999V0201801N008212200019N0100001N1+02401+01301101271ADDGF102991001001999999001091MA1999999101101MD1810071+9999REMSYN076AAXX  07094 68300 42960 21816 10240 20130 30110 40127 58007 80009 555 91012;
0196683000999992000010712004-26630+015100FM-12+000099999V0201801N011312200019N0100001N1+02601+01081101171ADDAA106000091GF102991001001999999001091KA1120N+01811MA1999999101001MD1710101+9999REMSYN086AAXX  07124 68300 32960 21822 10260 20108 30100 40117 57010 80009 333 20181 555 91011;EQDQ01  00002PRCP06
0138683000999992000010715004-26630+015100FM-12+000099999V0201801N007712200019N0150001N1+02401+01281101021ADDGA1001+999999999GF100991001001999999001001MD1810131+9999REMSYN070AAXX  07154 68300 42965 01815 10240 20128 3//// 40102 58013 555 91010;
0191683000999992000010718004-26630+015100FM-12+000099999V0201801N010312200019N0150001N1+02101+01411101031ADDAA106000091GA1001+999999999GF100991001001999999001001KA1120M+02651MD1410001+9999REMSYN080AAXX  07184 68300 32965 01820 10210 20141 3//// 40103 54000 333 10265 555 91010;EQDQ01  00002PRCP06
0183683000999992000010800004-26630+015100FM-12+000099999V0201801N005112200019N0100001N1+01951+01431101191ADDAA106000091GA1001+999999999GF100991001001999999001001MA1999999101011MD1310161+9999REMSYN070AAXX  08004 68300 32960 01810 10195 20143 30101 40119 53016 555 91011;EQDQ01  00002PRCP06
0153683000999992000010803004-26630+015100FM-12+000099999V0201801N005112200019N0100001N1+01701+01441100891ADDGA1001+999999999GF100991001001999999001001MA1999999100711MD1710151+9999REMSYN070AAXX  08034 68300 42960 01810 10170 20144 30071 40089 57015 555 91008;
0210683000999992000010806004-26630+015100FM-12+000099999V0201801N005112200019N0100001N1+01671+01371100961ADDAA106000091GA1001+999999999GF100991001001999999001001KA1240M+02651KA2120N+01601MD1310071+9999REMSYN086AAXX  08064 68300 32960 01810 10167 20137 3//// 40096 53007 333 20160 555 10265 91009;EQDQ01  00002PRCP06
0128683000999992000010809004-26630+015100FM-12+000099999V0202301N007212200019N0200001N1+02161+01071100971ADDGF101991001001999999001021MD1210011+9999REMSYN076AAXX  08094 68300 42970 12314 10216 20107 3//// 40097 52001 80002 555 91009;
0191683000999992000010812004-26630+015100FM-12+000099999V0201801N012312200019N0150001N1+02321+01131100931ADDAA106000091GA1001+999999999GF100991001001999999001001KA1120N+01711MD1810031+9999REMSYN080AAXX  08124 68300 32965 01824 10232 20113 3//// 40093 58003 333 20171 555 91009;EQDQ01  00002PRCP06
0153683000999992000010815004-26630+015100FM-12+000099999V0201801N012912200019N0200001N1+02141+01341100911ADDGA1001+999999999GF100991001001999999001001MA1999999100731MD1610031+9999REMSYN070AAXX  08154 68300 42970 01825 10214 20134 30073 40091 56003 555 91009;
0206683000999992000010818004-26630+015100FM-12+000099999V0201801N010312200019N0750001N1+01921+01461101081ADDAA106000091GA1001+999999999GF100991001001999999001001KA1120M+02381MA1999999100901MD1810181+9999REMSYN080AAXX  08184 68300 32989 01820 10192 20146 30090 40108 58018 333 10238 555 91010;EQDQ01  00002PRCP06
0138683000999992000010903004-26630+015100FM-12+000099999V0201801N001512200019N0200001N1+01351+01261101181ADDGA1001+999999999GF100991001001999999001001MD1410001+9999REMSYN070AAXX  09034 68300 42970 01803 10135 20126 3//// 40118 54000 555 91011;
0228683000999992000010906004-26630+015100FM-12+000099999V0201801N003112200019N0040001N1+01341+01301101261ADDAA106000091AY101061AY201061GF102991021061001501001001KA1240M+02381KA2120N+01301MD1310081+9999MW1401REMSYN098AAXX  09064 68300 31240 21806 10134 20130 3//// 40126 53008 74000 82600 333 20130 555 10238 91012;EQDQ01  00002PRCP06
0128683000999992000010909004-26630+015100FM-12+000099999V0203601N003112200019N0100001N1+01661+01361101271ADDGF101991011061000751001001MD1210011+9999REMSYN076AAXX  09094 68300 42160 13606 10166 20136 3//// 40127 52001 81600 555 91012;
0206683000999992000010912004-26630+015100FM-12+000099999V0201801N006212200019N0750001N1+02361+01221101181ADDAA106000091GA1001+999999999GF100991001001999999001001KA1120N+01911MA1999999101011MD1310091+9999REMSYN080AAXX  09124 68300 32989 01812 10236 20122 30101 40118 53009 333 20191 555 91011;EQDQ01  00002PRCP06
0143683000999992000010915004-26630+015100FM-12+000099999V0201801N005112200019N0750001N1+02251+01461101121ADDGF101991011011017501001001MA1999999100941MD1710051+9999REMSYN076AAXX  09154 68300 42789 11810 10225 20146 30094 40112 57005 81100 555 91011;
0238683000999992000010918004-26630+015100FM-12+000099999V0201801N004112200019N0750001N1+02051+01451999999ADDAA106000091GA1001+999999999GF100991001001999999001001KA1120M+02451MA1999999100102MD1210061+9999REMSYN080AAXX  09184 68300 32989 01808 10205 20145 30010 40027 52006 333 10245 555 91002;EQDQ01+100103APOSP Q02+100273APOSLPQ03  00002PRCP06
0168683000999992000011000004-26630+015100FM-12+000099999V0201801N003112200019N0100001N1+01851+01421101161ADDAA106000091GA1001+999999999GF100991001001999999001001MD1710031+9999REMSYN070AAXX  10004 68300 32960 01806 10185 20142 3//// 40116 57003 555 91011;EQDQ01  00002PRCP06
0138683000999992000011003004-26630+015100FM-12+000099999V0201801N003112200019N0100001N1+01801+01261101031ADDGA1001+999999999GF100991001001999999001001MD1610131+9999REMSYN070AAXX  10034 68300 42960 01806 10180 20126 3//// 40103 56013 555 91010;
0143683000999992000011009004-26630+015100FM-12+000099999V0201801N007212200019N0750001N1+02361+01411101001ADDGF101991011061012501001001MA1999999100831MD1810111+9999REMSYN076AAXX  10094 68300 42689 11814 10236 20141 30083 40100 58011 81600 555 91010;
0206683000999992000011012004-26630+015100FM-12+000099999V0201801N011312200019N0750001N1+02401-00012100961ADDAA106000091GA1001+999999999GF100991001001999999001001KA1120N+01301MA1999999100791MD1710041+9999REMSYN080AAXX  10124 68300 32989 01822 10240 21001 30079 40096 57004 333 20130 555 91009;EQDQ01  00002PRCP06
0153683000999992000011015004-26630+015100FM-12+000099999V0201801N012912200019N0750001N1+02301+00341100921ADDGA1001+999999999GF100991001001999999001001MA1999999100751MD1710041+9999REMSYN070AAXX  10154 68300 42989 01825 10230 20034 30075 40092 57004 555 91009;
0206683000999992000011018004-26630+015100FM-12+000099999V0201801N010312200019N0750001N1+02021+01281101011ADDAA106000091GA1001+999999999GF100991001001999999001001KA1120M+02501MA1999999100831MD1210081+9999REMSYN080AAXX  10184 68300 32989 01820 10202 20128 30083 40101 52008 333 10250 555 91010;EQDQ01  00002PRCP06
0153683000999992000011021004-26630+015100FM-12+000099999V0201801N005112200019N0040001N1+01801+01451101181ADDGA1001+999999999GF100991001001999999001001MA1999999101001MD1710071+9999REMSYN070AAXX  10214 68300 42940 01810 10180 20145 30100 40118 57007 555 91011;
0183683000999992000011100004-26630+015100FM-12+000099999V0201801N003112200019N0050001N1+01701+01351101211ADDAA106000091GA1001+999999999GF100991001001999999001001MA1999999101031MD1710101+9999REMSYN070AAXX  11004 68300 32950 01806 10170 20135 30103 40121 57010 555 91012;EQDQ01  00002PRCP06
0243683000999992000011106004-26630+015100FM-12+000099999V0203201N003112200019N0050001N1+01471+01431101321ADDAA106000091AY101061AY201061GF104991041061001501001001KA1240M+02501KA2120N+01401MA1999999101141MD1310161+9999MW1401REMSYN098AAXX  11064 68300 31250 43206 10147 20143 30114 40132 53016 74000 84600 333 20140 555 10250 91013;EQDQ01  00002PRCP06
0162683000999992000011109004-26630+015100FM-12+000099999V0203201N003112200019N0750001N1+01821+01571101351ADDGF104991999061012501001001MA1999999101171MD1210031+9999REMSYN076AAXX  11094 68300 42689 43206 10182 20157 30117 40135 52003 81600 555 91013;EQDQ01+000012SCOTLC
0206683000999992000011112004-26630+015100FM-12+000099999V0201801N011312200019N0750001N1+02401+01361101241ADDAA106000091GA1001+999999999GF100991001001999999001001KA1120N+01981MA1999999101071MD1810101+9999REMSYN080AAXX  11124 68300 32989 01822 10240 20136 30107 40124 58010 333 20198 555 91012;EQDQ01  00002PRCP06
0143683000999992000011115004-26630+015100FM-12+000099999V0201801N005112200019N0750001N1+02451+01541101211ADDGF102991021011017501001001MA1999999101031MD1710041+9999REMSYN076AAXX  11154 68300 42789 21810 10245 20154 30103 40121 57004 82100 555 91012;
0196683000999992000011118004-26630+015100FM-12+000099999V0201801N003112200019N0750001N1+02101+01691101301ADDAA106000091GF101991011011017501001001KA1120M+02501MA1999999101121MD1310091+9999REMSYN086AAXX  11184 68300 32789 11806 10210 20169 30112 40130 53009 81100 333 10250 555 91013;EQDQ01  00002PRCP06
0215683000999992000011200004-26630+015100FM-12+000099999V0201801N001512200019N0050001N1+01781+01281100272ADDAA106000091GA1001+999999999GF100991001001999999001001MA1999999100092MD1210031+9999REMSYN070AAXX  12004 68300 32950 01803 10178 20128 30009 40027 52003 555 91002;EQDQ01+100093APOSP Q02+100273APOSLPQ03  00002PRCP06
0153683000999992000011203004-26630+015100FM-12+000099999V0201801N001512200019N0100001N1+01901+01561101241ADDGA1001+999999999GF100991001001999999001001MA1999999101061MD1310041+9999REMSYN070AAXX  12034 68300 42960 01803 10190 20156 30106 40124 53004 555 91012;
0215683000999992000011206004-26630+015100FM-12+000099999V0201801N008212200019N0750001N1+02401+01301101351ADDAA106000091GF101991011001999999081001KA1240M+02501KA2120N+01901MA1999999101171MD1210111+9999REMSYN092AAXX  12064 68300 32989 11816 10240 20130 30117 40135 52011 81080 333 20190 555 10250 91013;EQDQ01  00002PRCP06
0143683000999992000011209004-26630+015100FM-12+000099999V0202301N011312200019N0750001N1+02451+01641101261ADDGF101991011061012501001001MA1999999101091MD1810081+9999REMSYN076AAXX  12094 68300 42689 12322 10245 20164 30109 40126 58008 81600 555 91012;
0234683000999992000011212004-26630+015100FM-12+000099999V0202301N019512200019N0050001N1+02511+01291101101ADDAA106000091AY101061AY201061GA1001+999999999GF100991001001999999001001KA1120N+02101MA1999999100931MD1710161+9999MW1301REMSYN086AAXX  12124 68300 31950 02338 10251 20129 30093 40110 57016 73000 333 20210 555 91011;EQDQ01  00002PRCP06
0181683000999992000011215004-26630+015100FM-12+000099999V0202301N015412200019N0200001N1+02351+01321101031ADDAY101031AY201031GA1001+999999999GF100991001001999999001001MA1999999100861MD1710091+9999MW1301REMSYN076AAXX  12154 68300 41970 02330 10235 20132 30086 40103 57009 73000 555 91010;
0234683000999992000011218004-26630+015100FM-12+000099999V0202301N015412200019N0040001N1+02001+01401101171ADDAA106000091AY101061AY201061GA1001+999999999GF100991001001999999001001KA1120M+02601MA1999999100991MD1310131+9999MW1301REMSYN086AAXX  12184 68300 31940 02330 10200 20140 30099 40117 53013 73000 333 10260 555 91011;EQDQ01  00002PRCP06
0183683000999992000011300004-26630+015100FM-12+000099999V0201801N003112200019N0050001N1+01851+01321101091ADDAA106000091GA1001+999999999GF100991001001999999001001MA1999999100911MD1310091+9999REMSYN070AAXX  13004 68300 32950 01806 10185 20132 30091 40109 53009 555 91010;EQDQ01  00002PRCP06
0153683000999992000011303004-26630+015100FM-12+000099999V0201801N003112200019N0050001N1+01701+01251100861ADDGA1001+999999999GF100991001001999999001001MA1999999100681MD1210231+9999REMSYN070AAXX  13034 68300 42950 01806 10170 20125 30068 40086 52023 555 91008;
0225683000999992000011306004-26630+015100FM-12+000099999V0201301N009312200019N0750001N1+01801+01281100581ADDAA106000091GA1001+999999999GF100991001001999999001001KA1240M+02601KA2120N+01661MA1999999100401MD1310121+9999REMSYN086AAXX  13064 68300 32989 01318 10180 20128 30040 40058 53012 333 20166 555 10260 91005;EQDQ01  00002PRCP06
0153683000999992000011309004-26630+015100FM-12+000099999V0201301N009312200019N0750001N1+01921+01641100991ADDGA1001+999999999GF100991001001999999001001MA1999999100811MD1210011+9999REMSYN070AAXX  13094 68300 42989 01318 10192 20164 30081 40099 52001 555 91009;
0206683000999992000011312004-26630+015100FM-12+000099999V0201301N013412200019N0750001N1+02821+01281100861ADDAA106000091GA1001+999999999GF100991001001999999001001KA1120N+01821MA1999999100691MD1810121+9999REMSYN080AAXX  13124 68300 32989 01326 10282 20128 30069 40086 58012 333 20182 555 91008;EQDQ01  00002PRCP06
0153683000999992000011315004-26630+015100FM-12+000099999V0201801N010312200019N0750001N1+02851+01341100651ADDGA1001+999999999GF100991001001999999001001MA1999999100481MD1810211+9999REMSYN070AAXX  13154 68300 42989 01820 10285 20134 30048 40065 58021 555 91006;
0206683000999992000011318004-26630+015100FM-12+000099999V0201801N012912200019N0750001N1+02251+01191100731ADDAA106000091GA1001+999999999GF100991001001999999001001KA1120M+02981MA1999999100561MD1310091+9999REMSYN080AAXX  13184 68300 32989 01825 10225 20119 30056 40073 53009 333 10298 555 91007;EQDQ01  00002PRCP06
0157683000999992000011321004-26630+015100FM-12+000099999V0201801N005112200019N0100001N1+01851+01121100941ADDGA1001+999999999GF100991001001999999001001MA1999999100761MD1710201+9999REMSYN074    AAXX  13214 68300 42960 01810 10185 20112 30076 40094 57020 555 91009;
0187683000999992000011400004-26630+015100FM-12+000099999V0201801N005112200019N0100001N1+01901+01381100801ADDAA199000091GA1001+999999999GF100991001001999999001001MA1999999100621MD1210141+9999REMSYN074    AAXX  14004 68300 32960 01810 10190 20138 30062 40080 52014 555 91007;EQDQ01  00002PRCP99
0187683000999992000011403004-26630+015100FM-12+000099999V0201801N003112200019N0750001N1+01751+00991100691ADDAA199000091GA1001+999999999GF100991001001999999001001MA1999999100511MD1310111+9999REMSYN074    AAXX  14034 68300 32989 01806 10175 20099 30051 40069 53011 555 91006;EQDQ01  00002PRCP99
0229683000999992000011406004-26630+015100FM-12+000099999V0203601N001512200019N0750001N1+01751+01101100941ADDAA199000091GA1001+999999999GF100991001001999999001001KA1240M+02981KA2120N+01701MA1999999100761MD1310251+9999REMSYN090    AAXX  14064 68300 32989 03603 10175 20110 30076 40094 53025 333 20170 555 10298 91009;EQDQ01  00002PRCP99
0157683000999992000011409004-26630+015100FM-12+000099999V0203601N005112200019N0750001N1+01781+01281101061ADDGA1001+999999999GF100991001001999999001001MA1999999100881MD1310131+9999REMSYN074    AAXX  14094 68300 42989 03610 10178 20128 30088 40106 53013 555 91010;
0210683000999992000011412004-26630+015100FM-12+000099999V0203601N005112200019N0750001N1+01901+01221100921ADDAA199000091GA1001+999999999GF100991001001999999001001KA1120N+01581MA1999999100741MD1310131+9999REMSYN084    AAXX  14124 68300 32989 03610 10190 20122 30074 40092 53013 333 20158 555 91009;EQDQ01  00002PRCP99
0157683000999992000011415004-26630+015100FM-12+000099999V0201801N010312200019N0750001N1+02351+01421100721ADDGA1001+999999999GF100991001001999999001001MA1999999100551MD1710201+9999REMSYN074    AAXX  14154 68300 42989 01820 10235 20142 30055 40072 57020 555 91007;
0197683000999992000011418004-26630+015100FM-12+000099999V0201801N007712200019N0750001N1+01951+01431100871ADDAA199000091GA1001+999999999GF100991001001999999001001MA1999999100691MD1310131+9999REMSYN084    AAXX  14184 68300 32989 01815 10195 20143 30069 40087 53013 333 10/// 555 91008;EQDQ01  00002PRCP99
0157683000999992000011421004-26630+015100FM-12+000099999V0201801N006212200019N0100001N1+01851+01421101031ADDGA1001+999999999GF100991001001999999001001MA1999999100851MD1210161+9999REMSYN074    AAXX  14214 68300 42960 01812 10185 20142 30085 40103 52016 555 91010;
0187683000999992000011500004-26630+015100FM-12+000099999V0201801N007212200019N0100001N1+01701+01351101001ADDAA199000091GA1001+999999999GF100991001001999999001001MA1999999100821MD1810031+9999REMSYN074    AAXX  15004 68300 32960 01814 10170 20135 30082 40100 58003 555 91009;EQDQ01  00002PRCP99
0157683000999992000011503004-26630+015100FM-12+000099999V0201801N007212200019N0100001N1+01511+01241100921ADDGA1001+999999999GF100991001001999999001001MA1999999100741MD1710081+9999REMSYN074    AAXX  15034 68300 42960 01814 10151 20124 30074 40092 57008 555 91009;
0219683000999992000011506004-26630+015100FM-12+000099999V0201801N005112200019N0750001N1+01651+01291101061ADDAA199000091GF102991021051012501001001KA1240M+02501KA2120N+01501MA1999999100881MD1310141+9999REMSYN096    AAXX  15064 68300 32689 21810 10165 20129 30088 40106 53014 82500 333 20150 555 10250 91010;EQDQ01  00002PRCP99
0187683000999992000011509004-26630+015100FM-12+000099999V0201801N009312200019N0200001N1+02101+01411101141ADDAA199000091GA1001+999999999GF100991001001999999001001MA1999999100961MD1210081+9999REMSYN074    AAXX  15094 68300 32970 01818 10210 20141 30096 40114 52008 555 91011;EQDQ01  00002PRCP99
0200683000999992000011512004-26630+015100FM-12+000099999V0202301N007712200019N0750001N1+02141+01481101141ADDAA199000091GF104991041011017501001001KA1120N+01651MA1999999100961MD1410001+9999REMSYN090    AAXX  15124 68300 32789 42315 10214 20148 30096 40114 54000 84100 333 20165 555 91011;EQDQ01  00002PRCP99
0147683000999992000011515004-26630+015100FM-12+000099999V0201801N007712200019N0200001N1+02151+01571101071ADDGF104991041011000751001001MA1999999100891MD1810071+9999REMSYN080    AAXX  15154 68300 42170 41815 10215 20157 30089 40107 58007 84100 555 91010;
0200683000999992000011518004-26630+015100FM-12+000099999V0202301N003119999999N0750001N1+01961+01561101181ADDAA199000091GF106991061001999999061001KA1120M+02301MA1999999101001MD1310111+9999REMSYN090    AAXX  15184 68300 32989 62306 10196 20156 30100 40118 53011 86060 333 10230 555 91011;EQDQ01  00002PRCP99
0177683000999992000011600004-26630+015100FM-12+000099999V0202301N003110006019N0050001N1+01701+01441101271ADDAA199000091GF105991051061000751001001MA1999999101091MD1810081+9999REMSYN080    AAXX  16004 68300 32150 52306 10170 20144 30109 40127 58008 85600 555 91012;EQDQ01  00002PRCP99
0147683000999992000011603004-26630+015100FM-12+000099999V0202301N004112200019N0050001N1+01701+01381101131ADDGF102991021061000751001001MA1999999100951MD1710141+9999REMSYN080    AAXX  16034 68300 42150 22308 10170 20138 30095 40113 57014 82600 555 91011;
0229683000999992000011606004-26630+015100FM-12+000099999V0203601N001512200019N0750001N1+01721+01421101221ADDAA199000091GA1001+999999999GF100991001001999999001001KA1240M+02311KA2120N+01651MA1999999101041MD1210091+9999REMSYN090    AAXX  16064 68300 32989 03603 10172 20142 30104 40122 52009 333 20165 555 10231 91012;EQDQ01  00002PRCP99
0147683000999992000011609004-26630+015100FM-12+000099999V0203601N003112200019N0750001N1+01671+01431101321ADDGF101991011041017501001001MA1999999101141MD1310101+9999REMSYN080    AAXX  16094 68300 42789 13606 10167 20143 30114 40132 53010 81400 555 91013;
0157683000999992000011615004-26630+015100FM-12+000099999V0201801N005112200019N0750001N1+02501+01601101021ADDGA1001+999999999GF100991001001999999001001MA1999999100851MD1810201+9999REMSYN074    AAXX  16154 68300 42989 01810 10250 20160 30085 40102 58020 555 91010;
0210683000999992000011618004-26630+015100FM-12+000099999V0201801N003112200019N0750001N1+02201+01621101081ADDAA199000091GA1001+999999999GF100991001001999999001001KA1120M+02541MA1999999100901MD1310051+9999REMSYN084    AAXX  16184 68300 32989 01806 10220 20162 30090 40108 53005 333 10254 555 91010;EQDQ01  00002PRCP99
0147683000999992000011621004-26630+015100FM-12+000099999V0203601N004112200019N0040001N1+01651+01561101171ADDGF102991021061000751001001MA1999999100991MD1210091+9999REMSYN080    AAXX  16214 68300 42140 23608 10165 20156 30099 40117 52009 82600 555 91011;
0205683000999992000011700004-26630+015100FM-12+000099999V0203601N004112200019N0040001N1+01541+01491101021ADDAA199000091AY101061AY201061GF104991041061000751001001MA1999999100841MD1810151+9999MW1401REMSYN086    AAXX  17004 68300 31140 43608 10154 20149 30084 40102 58015 74000 84600 555 91010;EQDQ01  00002PRCP99
0175683000999992000011703004-26630+015100FM-12+000099999V0203601N004112200019N0010001N1+01571+01541100991ADDAY141031AY201031GF104991041061000251001001MA1999999100811MD1710031+9999MW1401REMSYN086    AAXX  17034 68300 41010 43608 10157 20154 30081 40099 57003 74040 84600 555 91009;
0247683000999992000011706004-26630+015100FM-12+000099999V0203601N003110006019N0010001N1+01501+01481101251ADDAA199000091AY141061AY241061GF108991081061000751999999KA1240M+02541KA2120N+01501MA1999999101071MD1310261+9999MW1401REMSYN102    AAXX  17064 68300 31110 83606 10150 20148 30107 40125 53026 74044 886// 333 20150 555 10254 91012;EQDQ01  00002PRCP99
0157683000999992000011709004-26630+015100FM-12+000099999V0202701N003112200019N0750001N1+01781+01471101281ADDGA1001+999999999GF100991001001999999001001MA1999999101101MD1710031+9999REMSYN074    AAXX  17094 68300 42989 02706 10178 20147 30110 40128 57003 555 91012;
0200683000999992000011712004-26630+015100FM-12+000099999V0202701N003110210019N0750001N1+01861+01591101201ADDAA199000091GF108991081001022501091999KA1120N+01551MA1999999101021MD1310081+9999REMSYN090    AAXX  17124 68300 32889 82706 10186 20159 30102 40120 53008 8809/ 333 20155 555 91011;EQDQ01  00002PRCP99
0147683000999992000011715004-26630+015100FM-12+000099999V0203201N003110075019N0750001N1+01801+01631101051ADDGF108991081061008001999999MA1999999100871MD1810171+9999REMSYN080    AAXX  17154 68300 42589 83206 10180 20163 30087 40105 58017 886// 555 91010;
0147683000999992000011721004-26630+015100FM-12+000099999V0203201N005112200019N0100001N1+01751+01551101181ADDGF102991021061000751001001MA1999999101001MD1210091+9999REMSYN080    AAXX  17214 68300 42160 23210 10175 20155 30100 40118 52009 82600 555 91011;
0177683000999992000011800004-26630+015100FM-12+000099999V0203201N005112200019N0100001N1+01701+01441101041ADDAA199000091GF102991021061000751001001MA1999999100861MD1810141+9999REMSYN080    AAXX  18004 68300 32160 23210 10170 20144 30086 40104 58014 82600 555 91010;EQDQ01  00002PRCP99
0175683000999992000011803004-26630+015100FM-12+000099999V0203201N003112200019N0005001N1+01501+01461100951ADDAY101031AY201031GF104991041061000251001001MA1999999100771MD1710091+9999MW1461REMSYN086    AAXX  18034 68300 41005 43206 10150 20146 30077 40095 57009 74600 84600 555 91009;
0257683000999992000011806004-26630+015100FM-12+000099999V0203201N001510003019N0005001N1+01551+01461101101ADDAA199000091AY101061AY201061GA1091+999999999GF109991091999999999999999KA1240M+01951KA2120N+01451MA1999999100921MD1810251+9999MW1461REMSYN096    AAXX  18064 68300 31/05 93203 10155 20146 30092 40110 58025 74600 333 20145 555 10195 91010;EQDQ01  00002PRCP99
0228683000999992000011812004-26630+015100FM-12+000099999V0202701N001510075019N0100001N1+01951+01621101121ADDAA199000091AY141061AY241061GF108991081061008001999999KA1120N+01571MA1999999100941MD1210071+9999MW1401REMSYN096    AAXX  18124 68300 31560 82703 10195 20162 30094 40112 52007 74044 886// 333 20157 555 91011;EQDQ01  00002PRCP99
0177683000999992000011815004-26630+015100FM-12+000099999V0203201N003110006019N0050001N1+01851+01601101051ADDAA199000091GF108991081061000751999999MA1999999100871MD1810061+9999REMSYN080    AAXX  18154 68300 32150 83206 10185 20160 30087 40105 58006 886// 555 91010;EQDQ01  00002PRCP99
0238683000999992000011818004-26630+015100FM-12+000099999V0203201N003112200019N0050001N1+01751+01671101121ADDAA199000091AY101061AY201061GA1001+999999999GF100991001001999999001001KA1120M+02021MA1999999100941MD1310071+9999MW1401REMSYN090    AAXX  18184 68300 31950 03206 10175 20167 30094 40112 53007 74000 333 10202 555 91011;EQDQ01  00002PRCP99
0185683000999992000011821004-26630+015100FM-12+000099999V0203201N004110003019N0005001N1+01621+01591101271ADDAY141031AY201031GA1091+999999999GF109991091999999999999999MA1999999101091MD1210151+9999MW1471REMSYN080    AAXX  18214 68300 41/05 93208 10162 20159 30109 40127 52015 74740 555 91012;
0215683000999992000011900004-26630+015100FM-12+000099999V0203201N004110003019N0005001N1+01561+01541101221ADDAA199000091AY141061AY221061GA1091+999999999GF109991091999999999999999MA1999999101041MD1810051+9999MW1451REMSYN080    AAXX  19004 68300 31/05 93208 10156 20154 30104 40122 58005 74542 555 91012;EQDQ01  00002PRCP99
0185683000999992000011903004-26630+015100FM-12+000099999V0203201N004110003019N0005001N1+01601+01601101151ADDAY141031AY221031GA1091+999999999GF109991091999999999999999MA1999999100971MD1710071+9999MW1451REMSYN080    AAXX  19034 68300 41/05 93208 10160 20160 30097 40115 57007 74542 555 91011;
0257683000999992000011906004-26630+015100FM-12+000099999V0203601N001510006019N0009001N1+01681+01681101361ADDAA199000091AY141061AY221061GA1091+999999999GF109991091999999999999999KA1240M+02001KA2120N+01601MA1999999101181MD1310201+9999MW1451REMSYN096    AAXX  19064 68300 31/09 93603 10168 20168 30118 40136 53020 74542 333 20160 555 10200 91013;EQDQ01  00002PRCP99
0157683000999992000011909004-26630+015100FM-12+000099999V0203601N003112200019N0200001N1+01901+01741101441ADDGA1001+999999999GF100991001001999999001001MA1999999101261MD1210071+9999REMSYN074    AAXX  19094 68300 42970 03606 10190 20174 30126 40144 52007 555 91014;
0228683000999992000011912004-26630+015100FM-12+000099999V0203601N005110075019N0100001N1+02021+01731101411ADDAA199000091AY101061AY201061GF106991061061008001001001KA1120N+01701MA1999999101231MD1610021+9999MW1401REMSYN096    AAXX  19124 68300 31560 63610 10202 20173 30123 40141 56002 74000 86600 333 20170 555 91014;EQDQ01  00002PRCP99
0147683000999992000011915004-26630+015100FM-12+000099999V0203601N005110075019N0750001N1+01901+01651101331ADDGF106991061051008001001001MA1999999101151MD1810051+9999REMSYN080    AAXX  19154 68300 42589 63610 10190 20165 30115 40133 58005 86500 555 91013;
0196683000999992000011918004-26630+015100FM-12+000099999V0203601N003112200019N0050001N1+01951+01701101431ADDAA199000091GF102991021001999999061001KA1120M+02081MA1999999101251MD1310101+9999REMSYN086AAXX  19184 68300 32950 23606 10195 20170 30125 40143 53010 82060 333 10208 555 91014;EQDQ01  00002PRCP99
0162683000999992000011921004-26630+015100FM-12+000099999V0202301N003112200019N0100001N1+01851+01601101531ADDGF102991999001022501061001MA1999999101351MD1210101+9999REMSYN076AAXX  19214 68300 42860 22306 10185 20160 30135 40153 52010 86060 555 91015;EQDQ01+000062SCOTLC
0183683000999992000012000004-26630+015100FM-12+000099999V0202301N003112200019N0100001N1+01851+01601101491ADDAA199000091GA1001+999999999GF100991001001999999001001MA1999999101311MD1810041+9999REMSYN070AAXX  20004 68300 32960 02306 10185 20160 30131 40149 58004 555 91014;EQDQ01  00002PRCP99
0153683000999992000012003004-26630+015100FM-12+000099999V0202301N003112200019N0100001N1+01771+01581101411ADDGA1001+999999999GF100991001001999999001001MA1999999101231MD1710091+9999REMSYN070AAXX  20034 68300 42960 02306 10177 20158 30123 40141 57009 555 91014;
0225683000999992000012006004-26630+015100FM-12+000099999V0203601N001512200019N0200001N1+01651+01561101611ADDAA199000091GA1001+999999999GF100991001001999999001001KA1240M+02021KA2120N+01601MA1999999101431MD1310181+9999REMSYN086AAXX  20064 68300 32970 03603 10165 20156 30143 40161 53018 333 20160 555 10202 91016;EQDQ01  00002PRCP99
0138683000999992000012009004-26630+015100FM-12+000099999V0203601N003112200019N0200001N1+02101+01691101691ADDGA1001+999999999GF100991001001999999001001MD1210071+9999REMSYN070AAXX  20094 68300 42970 03606 10210 20169 3//// 40169 52007 555 91016;
0196683000999992000012012004-26630+015100FM-12+000099999V0202701N001512200019N0750001N1+02451+01731101621ADDAA199000091GF101991011001999999081001KA1120N+01801MA1999999101451MD1710051+9999REMSYN086AAXX  20124 68300 32989 12703 10245 20173 30145 40162 57005 81080 333 20180 555 91016;EQDQ01  00002PRCP99
0143683000999992000012015004-26630+015100FM-12+000099999V0202301N003112200019N0750001N1+02501+01701101431ADDGF101991011011017501001001MA1999999101261MD1710191+9999REMSYN076AAXX  20154 68300 42789 12306 10250 20170 30126 40143 57019 81100 555 91014;
0196683000999992000012018004-26630+015100FM-12+000099999V0201801N003112200019N0750001N1+02351+01741101461ADDAA199000091GF101991011011017501001001KA1120M+02551MA1999999101291MD1310021+9999REMSYN086AAXX  20184 68300 32789 11806 10235 20174 30129 40146 53002 81100 333 10255 555 91014;EQDQ01  00002PRCP99
0153683000999992000012021004-26630+015100FM-12+000099999V0201801N003112200019N0100001N1+02061+01731101531ADDGA1001+999999999GF100991001001999999001001MA1999999101351MD1210081+9999REMSYN070AAXX  20214 68300 42960 01806 10206 20173 30135 40153 52008 555 91015;
0186683000999992000012100004-26630+015100FM-12+000099999V0201801N003112200019N0040001N1+01901+01751101481ADDAA199000091AY101061AY201061GF103991031061000751001001MD1810051+9999MW1401REMSYN082AAXX  21004 68300 31140 31806 10190 20175 3//// 40148 58005 74000 83600 555 91014;EQDQ01  00002PRCP99
0156683000999992000012103004-26630+015100FM-12+000099999V0201801N003110006019N0030001N1+01861+01761101311ADDAY141031AY201031GF108991081061000751999999MD1710171+9999MW1401REMSYN082AAXX  21034 68300 41130 81806 10186 20176 3//// 40131 57017 74040 886// 555 91013;
0228683000999992000012106004-26630+015100FM-12+000099999V0201801N003110021019N0050001N1+01871+01791101431ADDAA199000091AY141061AY201061GF108991081061002501999999KA1240M+02551KA2120N+01831MD1310131+9999MW1401REMSYN098AAXX  21064 68300 31350 81806 10187 20179 3//// 40143 53013 74040 886// 333 20183 555 10255 91014;EQDQ01  00002PRCP99
0143683000999992000012109004-26630+015100FM-12+000099999V0203201N005112200019N0750001N1+02701+01561101331ADDGF101991011051012501001001MA1999999101161MD1810101+9999REMSYN076AAXX  21094 68300 42689 13210 10270 20156 30116 40133 58010 81500 555 91013;
0196683000999992000012112004-26630+015100FM-12+000099999V0202301N007712200019N0750001N1+03001+01331101151ADDAA199000091GF104991041061012501001001KA1120N+01901MA1999999100981MD1710201+9999REMSYN086AAXX  21124 68300 32689 42315 10300 20133 30098 40115 57020 84600 333 20190 555 91011;EQDQ01  00002PRCP99
0143683000999992000012115004-26630+015100FM-12+000099999V0201801N003112200019N0750001N1+02701+01841101071ADDGF104991041001999999081001MA1999999100901MD1210081+9999REMSYN076AAXX  21154 68300 42989 41806 10270 20184 30090 40107 52008 84080 555 91010;
0196683000999992000012118004-26630+015100FM-12+000099999V0201801N001510042019N0750001N1+01951+01871101131ADDAA199000091GF105991051061004501001001KA1120M+03151MA1999999100961MD1710061+9999REMSYN086AAXX  21184 68300 32489 51803 10195 20187 30096 40113 57006 85600 333 10315 555 91011;EQDQ01  00002PRCP99
0143683000999992000012121004-26630+015100FM-12+000099999V0201801N001512200019N0040001N1+01951+01851101201ADDGF101991011011000751001001MA1999999101021MD1210081+9999REMSYN076AAXX  21214 68300 42140 11803 10195 20185 30102 40120 52008 81100 555 91011;
0201683000999992000012200004-26630+015100FM-12+000099999V0201801N003112200019N0040001N1+01851+01771101181ADDAA199000091AY101061AY201061GF103991031061000751001001MA1999999101001MD1610021+9999MW1401REMSYN082AAXX  22004 68300 31140 31806 10185 20177 30100 40118 56002 74000 83600 555 91011;EQDQ01  00002PRCP99
0183683000999992000012203004-26630+015100FM-12+000099999V0201801N003112200019N0040001N1+01901+01821101041ADDAA199000091GA1001+999999999GF100991001001999999001001MA1999999100861MD1810261+9999REMSYN070AAXX  22034 68300 32940 01806 10190 20182 30086 40104 58026 555 91010;EQDQ01  00002PRCP99
0215683000999992000012206004-26630+015100FM-12+000099999V0201801N003110075019N0750001N1+01901+01621101171ADDAA199000091GF105991051051008001001001KA1240M+03151KA2120N+01771MA1999999100991MD1310141+9999REMSYN092AAXX  22064 68300 32589 51806 10190 20162 30099 40117 53014 85500 333 20177 555 10315 91011;EQDQ01  00002PRCP99
0143683000999992000012209004-26630+015100FM-12+000099999V0202301N005112200019N0200001N1+02951+01581101121ADDGF104991041041000751001001MA1999999100951MD1810041+9999REMSYN076AAXX  22094 68300 42170 42310 10295 20158 30095 40112 58004 84400 555 91011;
0196683000999992000012212004-26630+015100FM-12+000099999V0203201N007712200019N0750001N1+02421+01681101021ADDAA199000091GF104991041051012501001001KA1120N+01921MA1999999100851MD1710101+9999REMSYN086AAXX  22124 68300 32689 43215 10242 20168 30085 40102 57010 84500 333 20192 555 91010;EQDQ01  00002PRCP99
0143683000999992000012215004-26630+015100FM-12+000099999V0202301N005110900019N0300001N1+02751+01621100771ADDGF105991031051000751001031MA1999999100601MD1310251+9999REMSYN076AAXX  22154 68300 42180 52310 10275 20162 30060 40077 53025 83503 555 91007;
0196683000999992000012218004-26630+015100FM-12+000099999V0201801N009319999999N0750001N1+02201+01621100831ADDAA199000091GF105991001001999999001051KA1120M+03051MA1999999100661MD1710061+9999REMSYN086AAXX  22184 68300 32989 51818 10220 20162 30066 40083 57006 80005 333 10305 555 91008;EQDQ01  00002PRCP99
0153683000999992000012221004-26630+015100FM-12+000099999V0201801N003112200019N0050001N1+02051+01551101011ADDGA1001+999999999GF100991001001999999001001MA1999999100831MD1310101+9999REMSYN070AAXX  22214 68300 42950 01806 10205 20155 30083 40101 53010 555 91010;
0173683000999992000012300004-26630+015100FM-12+000099999V0201801N001512200019N0040001N1+01921+01601100961ADDAA199000091GF104991041041000751001001MA1999999100791MD1610041+9999REMSYN076AAXX  23004 68300 32140 41803 10192 20160 30079 40096 56004 84400 555 91009;EQDQ01  00002PRCP99
0173683000999992000012303004-26630+015100FM-12+000099999V0201801N001512200019N0100001N1+01821+01651100831ADDAA199000091GF102991021061000751001001MA1999999100661MD1810121+9999REMSYN076AAXX  23034 68300 32160 21803 10182 20165 30066 40083 58012 82600 555 91008;EQDQ01  00002PRCP99
0215683000999992000012306004-26630+015100FM-12+000099999V0201801N003112200019N0750001N1+01951+01531101011ADDAA199000091GF104991041061008001001001KA1240M+03051KA2120N+01861MA1999999100841MD1310181+9999REMSYN092AAXX  23064 68300 32589 41806 10195 20153 30084 40101 53018 84600 333 20186 555 10305 91010;EQDQ01  00002PRCP99
0143683000999992000012309004-26630+015100FM-12+000099999V0202301N005112200019N0750001N1+02101+01601101071ADDGF104991041011017501001001MA1999999100891MD1210051+9999REMSYN076AAXX  23094 68300 42789 42310 10210 20160 30089 40107 52005 84100 555 91010;
0196683000999992000012312004-26630+015100FM-12+000099999V0202301N005112200019N0750001N1+02251+01591101081ADDAA199000091GF101991011011012501001001KA1120N+01951MA1999999100911MD1210021+9999REMSYN086AAXX  23124 68300 32689 12310 10225 20159 30091 40108 52002 81100 333 20195 555 91010;EQDQ01  00002PRCP99
0143683000999992000012315004-26630+015100FM-12+000099999V0202301N005112200019N0750001N1+02501+01701100961ADDGF104991001001999999001061MA1999999100791MD1310281+9999REMSYN076AAXX  23154 68300 42989 42310 10250 20170 30079 40096 53028 80006 555 91009;
0196683000999992000012318004-26630+015100FM-12+000099999V0201801N001512200019N0750001N1+02201+01711101001ADDAA199000091GF104991001001999999001051KA1120M+02601MA1999999100831MD1810041+9999REMSYN086AAXX  23184 68300 32989 41803 10220 20171 30083 40100 58004 80005 333 10260 555 91010;EQDQ01  00002PRCP99
0168683000999992000012400004-26630+015100FM-12+000099999V0201801N003112200019N0100001N1+01981+01741101091ADDAA199000091GA1001+999999999GF100991001001999999001001MD1710051+9999REMSYN070AAXX  24004 68300 32960 01806 10198 20174 3//// 40109 57005 555 91010;EQDQ01  00002PRCP99
0128683000999992000012403004-26630+015100FM-12+000099999V0201801N001510006019N0100001N1+01901+01741100981ADDGF108991081061000751999999MD1810111+9999REMSYN076AAXX  24034 68300 42160 81803 10190 20174 3//// 40098 58011 886// 555 91009;
0228683000999992000012406004-26630+015100FM-12+000099999V0203201N002110021019N0050001N1+01801+01721101201ADDAA199000091AY121061AY221061GF108991081061002501999999KA1240M+02601KA2120N+01801MD1310171+9999MW1401REMSYN098AAXX  24064 68300 31350 83204 10180 20172 3//// 40120 53017 74022 886// 333 20180 555 10260 91011;EQDQ01  00002PRCP99
0171683000999992000012409004-26630+015100FM-12+000099999V0203401N002110006019N0040001N1+01801+01801101331ADDAY141031AY201031GF108991081061000751999999MA1999999101151MD1210141+9999MW1511REMSYN082AAXX  24094 68300 41140 83404 10180 20180 30115 40133 52014 75140 886// 555 91013;
0177683000999992000012412004-26630+015100FM-12+000099999V0203201N003110042019N0750001N1+02001+01671101251ADDAA199000021GF106991061051004501001001KA1120N+01751MA1999999101071MD1810081+9999REMSYN086AAXX  24124 68300 32489 63206 10200 20167 30107 40125 58008 86500 333 20175 555 91012;
0143683000999992000012415004-26630+015100FM-12+000099999V0203601N001510006019N0040001N1+01901+01741101171ADDGF106991061061000751001001MA1999999100991MD1310081+9999REMSYN076AAXX  24154 68300 42140 63603 10190 20174 30099 40117 53008 86600 555 91011;
0205683000999992000012418004-26630+015100FM-12+000099999V0203601N001510060019N0009001N1+01821+01701101241ADDAA199000021AY101061AY201061GF106991061081002501001001KA1120M+02201MA1999999101061MD1710071+9999MW1441REMSYN092AAXX  24184 68300 31309 63603 10182 20170 30106 40124 57007 74400 86800 333 10220 555 91012;
0143683000999992000012421004-26630+015100FM-12+000099999V0203601N001510006019N0040001N1+01831+01701101401ADDGF108991081061000751999999MA1999999101221MD1310171+9999REMSYN076AAXX  24214 68300 42140 83603 10183 20170 30122 40140 53017 886// 555 91014;
0173683000999992000012500004-26630+015100FM-12+000099999V0203601N001510006019N0049001N1+01851+01731101381ADDAA199000091GF108991081061000751999999MA1999999101201MD1610021+9999REMSYN076AAXX  25004 68300 32149 83603 10185 20173 30120 40138 56002 886// 555 91013;EQDQ01  00002PRCP99
0143683000999992000012503004-26630+015100FM-12+000099999V0200601N002110006019N0040001N1+02051+01811101311ADDGF108991081061000751999999MA1999999101141MD1710041+9999REMSYN076AAXX  25034 68300 42140 80604 10205 20181 30114 40131 57004 886// 555 91013;
0215683000999992000012506004-26630+015100FM-12+000099999V0201401N003110075019N0750001N1+02101+01691101411ADDAA199000091GF105991051051008001001001KA1240M+02201KA2120N+01801MA1999999101231MD1310101+9999REMSYN092AAXX  25064 68300 32589 51406 10210 20169 30123 40141 53010 85500 333 20180 555 10220 91014;EQDQ01  00002PRCP99
0143683000999992000012509004-26630+015100FM-12+000099999V0202301N005110075019N0750001N1+02401+01761101471ADDGF105991051051008001001001MA1999999101301MD1210061+9999REMSYN076AAXX  25094 68300 42589 52310 10240 20176 30130 40147 52006 85500 555 91014;
0196683000999992000012512004-26630+015100FM-12+000099999V0202301N005112200019N0050001N1+02201+01801101461ADDAA199000091GF104991041041000751001001KA1120N+02101MA1999999101291MD1810011+9999REMSYN086AAXX  25124 68300 32150 42310 10220 20180 30129 40146 58001 84400 333 20210 555 91014;EQDQ01  00002PRCP99
0143683000999992000012515004-26630+015100FM-12+000099999V0202301N001519999999N0100001N1+02301+01741101371ADDGF106991061001000751031001MA1999999101201MD1210091+9999REMSYN076AAXX  25154 68300 42160 62303 10230 20174 30120 40137 52009 86030 555 91013;
0196683000999992000012518004-26630+015100FM-12+000099999V0201801N003119999999N0100001N1+02151+01831101471ADDAA199000091GF106991061001000751081001KA1120M+02471MA1999999101301MD1710101+9999REMSYN086AAXX  25184 68300 32160 61806 10215 20183 30130 40147 57010 86080 333 10247 555 91014;EQDQ01  00002PRCP99
0143683000999992000012521004-26630+015100FM-12+000099999V0201801N003110021019N0040001N1+02051+01811101551ADDGF106991061061002501001001MA1999999101371MD1210071+9999REMSYN076AAXX  25214 68300 42340 61806 10205 20181 30137 40155 52007 86600 555 91015;
0183683000999992000012600004-26630+015100FM-12+000099999V0201801N011812200019N0040001N1+02001+01761101431ADDAA199000091GA1001+999999999GF100991001001999999001001MA1999999101251MD1810121+9999REMSYN070AAXX  26004 68300 32940 01823 10200 20176 30125 40143 58012 555 91014;EQDQ01  00002PRCP99
0153683000999992000012603004-26630+015100FM-12+000099999V0203601N001512200019N0040001N1+01951+01531101351ADDGA1001+999999999GF100991001001999999001001MA1999999101171MD1710171+9999REMSYN070AAXX  26034 68300 42940 03603 10195 20153 30117 40135 57017 555 91013;
0225683000999992000012606004-26630+015100FM-12+000099999V0203201N002112200019N0050001N1+01851+01681101421ADDAA199000091GA1001+999999999GF100991001001999999001001KA1240M+02441KA2120N+01851MA1999999101241MD1310081+9999REMSYN086AAXX  26064 68300 32950 03204 10185 20168 30124 40142 53008 333 20185 555 10244 91014;EQDQ01  00002PRCP99
0153683000999992000012609004-26630+015100FM-12+000099999V0203201N007712200019N0200001N1+02321+01721101401ADDGA1001+999999999GF100991001001999999001001MA1999999101231MD1810011+9999REMSYN070AAXX  26094 68300 42970 03215 10232 20172 30123 40140 58001 555 91014;
0206683000999992000012612004-26630+015100FM-12+000099999V0202301N010812200019N0100001N1+02621+01621101361ADDAA199000091GA1001+999999999GF100991001001999999001001KA1120N+01901MA1999999101191MD1710051+9999REMSYN080AAXX  26124 68300 32960 02321 10262 20162 30119 40136 57005 333 20190 555 91013;EQDQ01  00002PRCP99
0153683000999992000012615004-26630+015100FM-12+000099999V0201801N010312200019N0100001N1+02351+01611101281ADDGA1001+999999999GF100991001001999999001001MA1999999101111MD1210081+9999REMSYN070AAXX  26154 68300 42960 01820 10235 20161 30111 40128 52008 555 91012;
0206683000999992000012618004-26630+015100FM-12+000099999V0201801N005112200019N0100001N1+02051+01641101331ADDAA199000091GA1001+999999999GF100991001001999999001001KA1120M+02101MA1999999101161MD1710051+9999REMSYN080AAXX  26184 68300 32960 01810 10205 20164 30116 40133 57005 333 10210 555 91013;EQDQ01  00002PRCP99
0153683000999992000012621004-26630+015100FM-12+000099999V0201801N003112200019N0040001N1+01951+01531101471ADDGA1001+999999999GF100991001001999999001001MA1999999101291MD1310141+9999REMSYN070AAXX  26214 68300 42940 01806 10195 20153 30129 40147 53014 555 91014;
0168683000999992000012700004-26630+015100FM-12+000099999V0201801N004112200019N0200001N1+01881+01521101411ADDAA199000091GA1001+999999999GF100991001001999999001001MD1710061+9999REMSYN070AAXX  27004 68300 32970 01808 10188 20152 3//// 40141 57006 555 91014;EQDQ01  00002PRCP99
0210683000999992000012706004-26630+015100FM-12+000099999V0201401N003112200019N0100001N1+01951+01431101271ADDAA199000091GA1001+999999999GF100991001001999999001001KA1240M+02101KA2120N+01821MD1310021+9999REMSYN086AAXX  27064 68300 32960 01406 10195 20143 3//// 40127 53002 333 20182 555 10210 91012;EQDQ01  00002PRCP99
0153683000999992000012709004-26630+015100FM-12+000099999V0201801N006712200019N0100001N1+02751+01521101261ADDGA1001+999999999GF100991001001999999001001MA1999999101091MD1410001+9999REMSYN070AAXX  27094 68300 42960 01813 10275 20152 30109 40126 54000 555 91012;
0222683000999992000012712004-26630+015100FM-12+000099999V0202301N007712200019N0100001N1+02751+01521101261ADDAA199000091GA1001+999999999GF100991001001999999001001KA1120N+01921MA1999999101091MD1410001+9999REMSYN080AAXX  27124 68300 32960 02315 10275 20152 30109 40126 57000 333 20192 555 91012;EQDQ01+000072APCTENQ02  00002PRCP99
0153683000999992000012715004-26630+015100FM-12+000099999V0201801N005112200019N0100001N1+02451+01721101221ADDGA1001+999999999GF100991001001999999001001MA1999999101051MD1310041+9999REMSYN070AAXX  27154 68300 42960 01810 10245 20172 30105 40122 53004 555 91012;
0206683000999992000012718004-26630+015100FM-12+000099999V0201801N003112200019N0100001N1+02051+01551101351ADDAA199000091GA1001+999999999GF100991001001999999001001KA1120M+02801MA1999999101181MD1710021+9999REMSYN080AAXX  27184 68300 32960 01806 10205 20155 30118 40135 57002 333 10280 555 91013;EQDQ01  00002PRCP99
0153683000999992000012721004-26630+015100FM-12+000099999V0201801N004112200019N0100001N1+02001+01671101481ADDGA1001+999999999GF100991001001999999001001MA1999999101301MD1310091+9999REMSYN070AAXX  27214 68300 42960 01808 10200 20167 30130 40148 53009 555 91014;
0183683000999992000012800004-26630+015100FM-12+000099999V0201801N001512200019N0040001N1+01951+01531101391ADDAA199000091GA1001+999999999GF100991001001999999001001MA1999999101211MD1710091+9999REMSYN070AAXX  28004 68300 32940 01803 10195 20153 30121 40139 57009 555 91013;EQDQ01  00002PRCP99
0153683000999992000012803004-26630+015100FM-12+000099999V0201801N001512200019N0040001N1+01981+01471101321ADDGA1001+999999999GF100991001001999999001001MA1999999101141MD1710071+9999REMSYN070AAXX  28034 68300 42940 01803 10198 20147 30114 40132 57007 555 91013;
0225683000999992000012806004-26630+015100FM-12+000099999V0201801N001512200019N0100001N1+01921+01601101391ADDAA199000091GA1001+999999999GF100991001001999999001001KA1240M+02801KA2120N+01871MA1999999101211MD1810071+9999REMSYN086AAXX  28064 68300 32960 01803 10192 20160 30121 40139 58007 333 20187 555 10280 91013;EQDQ01  00002PRCP99
0153683000999992000012809004-26630+015100FM-12+000099999V0201801N001512200019N0200001N1+02501+01471101381ADDGA1001+999999999GF100991001001999999001001MA1999999101211MD1410001+9999REMSYN070AAXX  28094 68300 42970 01803 10250 20147 30121 40138 54000 555 91013;
0206683000999992000012812004-26630+015100FM-12+000099999V0201801N005112200019N0200001N1+02631+01411101331ADDAA199000091GA1001+999999999GF100991001001999999001001KA1120N+01951MA1999999101161MD1210051+9999REMSYN080AAXX  28124 68300 32970 01810 10263 20141 30116 40133 52005 333 20195 555 91013;EQDQ01  00002PRCP99
0153683000999992000012815004-26630+015100FM-12+000099999V0201801N012312200019N0100001N1+02451+01501101161ADDGA1001+999999999GF100991001001999999001001MA1999999100991MD1810171+9999REMSYN070AAXX  28154 68300 42960 01824 10245 20150 30099 40116 58017 555 91011;
0206683000999992000012818004-26630+015100FM-12+000099999V0201801N011312200019N0100001N1+02161+01561101211ADDAA199000091GA1001+999999999GF100991001001999999001001KA1120M+02651MA1999999101041MD1310051+9999REMSYN080AAXX  28184 68300 32960 01822 10216 20156 30104 40121 53005 333 10265 555 91012;EQDQ01  00002PRCP99
0153683000999992000012821004-26630+015100FM-12+000099999V0201801N011312200019N0040001N1+02051+01641101441ADDGA1001+999999999GF100991001001999999001001MA1999999101261MD1210221+9999REMSYN070AAXX  28214 68300 42940 01822 10205 20164 30126 40144 52022 555 91014;
0183683000999992000012900004-26630+015100FM-12+000099999V0201801N007712200019N0040001N1+02051+01451101311ADDAA199000091GA1001+999999999GF100991001001999999001001MA1999999101131MD1810121+9999REMSYN070AAXX  29004 68300 32940 01815 10205 20145 30113 40131 58012 555 91013;EQDQ01  00002PRCP99
0153683000999992000012903004-26630+015100FM-12+000099999V0201801N003112200019N0650001N1+02001+01401101241ADDGA1001+999999999GF100991001001999999001001MA1999999101061MD1710081+9999REMSYN070AAXX  29034 68300 42987 01806 10200 20140 30106 40124 57008 555 91012;
0225683000999992000012906004-26630+015100FM-12+000099999V0201801N003112200019N0750001N1+01851+01221101281ADDAA199000091GA1001+999999999GF100991001001999999001001KA1240M+02651KA2120N+01741MA1999999101101MD1310031+9999REMSYN086AAXX  29064 68300 32989 01806 10185 20122 30110 40128 53003 333 20174 555 10265 91012;EQDQ01  00002PRCP99
0153683000999992000012909004-26630+015100FM-12+000099999V0201801N005112200019N0100001N1+02401+01211101321ADDGA1001+999999999GF100991001001999999001001MA1999999101151MD1210051+9999REMSYN070AAXX  29094 68300 42960 01810 10240 20121 30115 40132 52005 555 91013;
0206683000999992000012912004-26630+015100FM-12+000099999V0201801N012312200019N0100001N1+02501+01301101301ADDAA199000091GA1001+999999999GF100991001001999999001001KA1120N+01911MA1999999101131MD1810021+9999REMSYN080AAXX  29124 68300 32960 01824 10250 20130 30113 40130 58002 333 20191 555 91013;EQDQ01  00002PRCP99
0153683000999992000012915004-26630+015100FM-12+000099999V0201801N012312200019N0100001N1+02311+01431101231ADDGA1001+999999999GF100991001001999999001001MA1999999101061MD1710071+9999REMSYN070AAXX  29154 68300 42960 01824 10231 20143 30106 40123 57007 555 91012;
0206683000999992000012918004-26630+015100FM-12+000099999V0201801N010312200019N0100001N1+02151+01511101261ADDAA199000091GA1001+999999999GF100991001001999999001001KA1120M+02551MA1999999101091MD1310031+9999REMSYN080AAXX  29184 68300 32960 01820 10215 20151 30109 40126 53003 333 10255 555 91012;EQDQ01  00002PRCP99
0153683000999992000012921004-26630+015100FM-12+000099999V0201801N007712200019N0040001N1+01901+01561101431ADDGA1001+999999999GF100991001001999999001001MA1999999101251MD1210161+9999REMSYN070AAXX  29214 68300 42940 01815 10190 20156 30125 40143 52016 555 91014;
0168683000999992000013000004-26630+015100FM-12+000099999V0201801N005112200019N0100001N1+01751+01491101391ADDAA199000091GA1001+999999999GF100991001001999999001001MD1810051+9999REMSYN070AAXX  30004 68300 32960 01810 10175 20149 3//// 40139 58005 555 91013;EQDQ01  00002PRCP99
0138683000999992000013003004-26630+015100FM-12+000099999V0201801N005112200019N0100001N1+01701+01441101391ADDGA1001+999999999GF100991001001999999001001MD1410001+9999REMSYN070AAXX  30034 68300 42960 01810 10170 20144 3//// 40139 54000 555 91013;
0210683000999992000013006004-26630+015100FM-12+000099999V0201401N003112200019N0200001N1+01701+01251101551ADDAA199000091GA1001+999999999GF100991001001999999001001KA1240M+02551KA2120N+01651MD1310151+9999REMSYN086AAXX  30064 68300 32970 01406 10170 20125 3//// 40155 53015 333 20165 555 10255 91015;EQDQ01  00002PRCP99
0138683000999992000013009004-26630+015100FM-12+000099999V0201801N006212200019N0200001N1+02501+01361101551ADDGA1001+999999999GF100991001001999999001001MD1310011+9999REMSYN070AAXX  30094 68300 42970 01812 10250 20136 3//// 40155 53001 555 91015;
0206683000999992000013012004-26630+015100FM-12+000099999V0201801N013412200019N0200001N1+02481+01421101421ADDAA199000091GA1001+999999999GF100991001001999999001001KA1120N+01751MA1999999101251MD1810131+9999REMSYN080AAXX  30124 68300 32970 01826 10248 20142 30125 40142 58013 333 20175 555 91014;EQDQ01  00002PRCP99
0153683000999992000013015004-26630+015100FM-12+000099999V0201801N013412200019N0200001N1+02401+01231101281ADDGA1001+999999999GF100991001001999999001001MA1999999101111MD1710141+9999REMSYN070AAXX  30154 68300 42970 01826 10240 20123 30111 40128 57014 555 91012;
0206683000999992000013018004-26630+015100FM-12+000099999V0201801N006212200019N0200001N1+02101+01601101441ADDAA199000091GA1001+999999999GF100991001001999999001001KA1120M+02721MA1999999101271MD1310161+9999REMSYN080AAXX  30184 68300 32970 01812 10210 20160 30127 40144 53016 333 10272 555 91014;EQDQ01  00002PRCP99
0153683000999992000013021004-26630+015100FM-12+000099999V0201801N010312200019N0100001N1+01751+01491101321ADDGA1001+999999999GF100991001001999999001001MA1999999101141MD1310141+9999REMSYN070AAXX  30214 68300 42960 01820 10175 20149 30114 40132 53014 555 91013;
0168683000999992000013100004-26630+015100FM-12+000099999V0201801N003112200019N0200001N1+01901+01471101431ADDAA199000091GA1001+999999999GF100991001001999999001001MD1810131+9999REMSYN070AAXX  31004 68300 32970 01806 10190 20147 3//// 40143 58013 555 91014;EQDQ01  00002PRCP99
0138683000999992000013103004-26630+015100FM-12+000099999V0201801N003112200019N0200001N1+01901+01471101401ADDGA1001+999999999GF100991001001999999001001MD1710041+9999REMSYN070AAXX  31034 68300 42970 01806 10190 20147 3//// 40140 57004 555 91014;
0210683000999992000013106004-26630+015100FM-12+000099999V0201801N001512200019N0200001N1+01951+01341101521ADDAA199000091GA1001+999999999GF100991001001999999001001KA1240M+02201KA2120N+01801MD1810121+9999REMSYN086AAXX  31064 68300 32970 01803 10195 20134 3//// 40152 58012 333 20180 555 10220 91015;EQDQ01  00002PRCP99
0153683000999992000013109004-26630+015100FM-12+000099999V0201801N002112200019N0200001N1+01901+01181101441ADDGA1001+999999999GF100991001001999999001001MA1999999101261MD1210151+9999REMSYN070AAXX  31094 68300 42970 01804 10190 20118 30126 40144 52015 555 91014;
0206683000999992000013112004-26630+015100FM-12+000099999V0201801N007712200019N0200001N1+02621+01621101331ADDAA199000091GA1001+999999999GF100991001001999999001001KA1120N+01901MA1999999101161MD1810131+9999REMSYN080AAXX  31124 68300 32970 01815 10262 20162 30116 40133 58013 333 20190 555 91013;EQDQ01  00002PRCP99
0153683000999992000013115004-26630+015100FM-12+000099999V0201801N010312200019N0200001N1+02411+01751101231ADDGA1001+999999999GF100991001001999999001001MA1999999101061MD1710101+9999REMSYN070AAXX  31154 68300 42970 01820 10241 20175 30106 40123 57010 555 91012;
0196683000999992000013118004-26630+015100FM-12+000099999V0201801N009312200019N0050001N1+02101+01841101351ADDAA199000091GF101991011061000751001001KA1120M+02701MA1999999101181MD1310121+9999REMSYN086AAXX  31184 68300 32150 11818 10210 20184 30118 40135 53012 81600 333 10270 555 91013;EQDQ01  00002PRCP99
0153683000999992000013121004-26630+015100FM-12+000099999V0201801N007712200019N0040001N1+02071+01881101461ADDGA1001+999999999GF100991001001999999001001MA1999999101281MD1210101+9999REMSYN070AAXX  31214 68300 42140 01815 10207 20188 30128 40146 52010 555 91014;
0168683000999992000020100004-26630+015100FM-12+000099999V0201801N005112200019N0100001N1+02051+01811101351ADDAA199000091GA1001+999999999GF100991001001999999001001MD1810111+9999REMSYN070AAXX  01004 68300 32960 01810 10205 20181 3//// 40135 58011 555 91013;EQDQ01  00002PRCP99
0138683000999992000020103004-26630+015100FM-12+000099999V0201801N005112200019N0100001N1+01851+01771101301ADDGA1001+999999999GF100991001001999999001001MD1710051+9999REMSYN070AAXX  01034 68300 42960 01810 10185 20177 3//// 40130 57005 555 91013;
0210683000999992000020106004-26630+015100FM-12+000099999V0203601N001512200019N0200001N1+01761+01571101301ADDAA199000091GA1001+999999999GF100991001001999999001001KA1240M+02701KA2120N+01751MD1310101+9999REMSYN086AAXX  01064 68300 32970 03603 10176 20157 3//// 40130 53010 333 20175 555 10270 91013;EQDQ01  00002PRCP99
0153683000999992000020109004-26630+015100FM-12+000099999V0201801N005112200019N0200001N1+02451+01641101421ADDGA1001+999999999GF100991001001999999001001MA1999999101251MD1310171+9999REMSYN070AAXX  01094 68300 42970 01810 10245 20164 30125 40142 53017 555 91014;
0206683000999992000020112004-26630+015100FM-12+000099999V0201801N005112200019N0200001N1+02731+01441101261ADDAA199000091GA1001+999999999GF100991001001999999001001KA1120N+01651MA1999999101091MD1210141+9999REMSYN080AAXX  01124 68300 32970 01810 10273 20144 30109 40126 52014 333 20165 555 91012;EQDQ01  00002PRCP99
0153683000999992000020115004-26630+015100FM-12+000099999V0201801N013412200019N0200001N1+02401+01541101281ADDGA1001+999999999GF100991001001999999001001MA1999999101111MD1210021+9999REMSYN070AAXX  01154 68300 42970 01826 10240 20154 30111 40128 52002 555 91012;
0196683000999992000020118004-26630+015100FM-12+000099999V0201801N010312200019N0050001N1+02171+01551101441ADDAA199000091GF101991011061000751001001KA1120M+02781MA1999999101271MD1210161+9999REMSYN086AAXX  01184 68300 32150 11820 10217 20155 30127 40144 52016 81600 333 10278 555 91014;EQDQ01  00002PRCP99
0153683000999992000020121004-26630+015100FM-12+000099999V0201801N005112200019N0040001N1+02001+01491101551ADDGA1001+999999999GF100991001001999999001001MA1999999101371MD1310091+9999REMSYN070AAXX  01214 68300 42940 01810 10200 20149 30137 40155 53009 555 91015;
0183683000999992000020200004-26630+015100FM-12+000099999V0201801N005112200019N0040001N1+01851+01511101461ADDAA199000091GA1001+999999999GF100991001001999999001001MA1999999101281MD1810091+9999REMSYN070AAXX  02004 68300 32940 01810 10185 20151 30128 40146 58009 555 91014;EQDQ01  00002PRCP99
0153683000999992000020203004-26630+015100FM-12+000099999V0201801N003112200019N0750001N1+01801+01361101501ADDGA1001+999999999GF100991001001999999001001MA1999999101321MD1710061+9999REMSYN070AAXX  02034 68300 42989 01806 10180 20136 30132 40150 57006 555 91015;
0225683000999992000020206004-26630+015100FM-12+000099999V0201801N005112200019N0200001N1+01951+01241101441ADDAA199000091GA1001+999999999GF100991001001999999001001KA1240M+02781KA2120N+01851MA1999999101261MD1710031+9999REMSYN086AAXX  02064 68300 32970 01810 10195 20124 30126 40144 57003 333 20185 555 10278 91014;EQDQ01  00002PRCP99
0138683000999992000020209004-26630+015100FM-12+000099999V0201801N009312200019N0200001N1+02401+01381101411ADDGA1001+999999999GF100991001001999999001001MD1610021+9999REMSYN070AAXX  02094 68300 42970 01818 10240 20138 3//// 40141 56002 555 91014;
0219683000999992000020212004-26630+015100FM-12+000099999V0201801N014412200019N0100001N1+02451+01541101281ADDAA199000091AY101061AY201061GA1001+999999999GF100991001001999999001001KA1120N+01981MD1810111+9999MW1301REMSYN086AAXX  02124 68300 31960 01828 10245 20154 3//// 40128 58011 73000 333 20198 555 91012;EQDQ01  00002PRCP99
0153683000999992000020215004-26630+015100FM-12+000099999V0201801N014412200019N0050001N1+02351+01521101201ADDGA1001+999999999GF100991001001999999001001MA1999999101031MD1710081+9999REMSYN070AAXX  02154 68300 42950 01828 10235 20152 30103 40120 57008 555 91012;
0206683000999992000020218004-26630+015100FM-12+000099999V0201801N011312200019N0100001N1+02051+01561101261ADDAA199000091GA1001+999999999GF100991001001999999001001KA1120M+02501MA1999999101091MD1310061+9999REMSYN080AAXX  02184 68300 32960 01822 10205 20156 30109 40126 53006 333 10250 555 91012;EQDQ01  00002PRCP99
0153683000999992000020221004-26630+015100FM-12+000099999V0201801N007712200019N0040001N1+01951+01341101381ADDGA1001+999999999GF100991001001999999001001MA1999999101201MD1210101+9999REMSYN070AAXX  02214 68300 42940 01815 10195 20134 30120 40138 52010 555 91013;
0168683000999992000020300004-26630+015100FM-12+000099999V0201801N006712200019N0100001N1+01801+01361101311ADDAA199000091GA1001+999999999GF100991001001999999001001MD1810081+9999REMSYN070AAXX  03004 68300 32960 01813 10180 20136 3//// 40131 58008 555 91013;EQDQ01  00002PRCP99
0168683000999992000020303004-26630+015100FM-12+000099999V0201801N007712200019N0100001N1+01751+01581101251ADDAA199000091GA1001+999999999GF100991001001999999001001MD1710051+9999REMSYN070AAXX  03034 68300 32960 01815 10175 20158 3//// 40125 57005 555 91012;EQDQ01  00002PRCP99
0225683000999992000020306004-26630+015100FM-12+000099999V0201801N005112200019N0200001N1+01801+01541101381ADDAA199000091GA1001+999999999GF100991001001999999001001KA1240M+02501KA2120N+01601MA1999999101201MD1310131+9999REMSYN086AAXX  03064 68300 32970 01810 10180 20154 30120 40138 53013 333 20160 555 10250 91013;EQDQ01  00002PRCP99
0183683000999992000020309004-26630+015100FM-12+000099999V0201801N004112200019N0200001N1+02501+01511101331ADDAA199000091GA1001+999999999GF100991001001999999001001MA1999999101161MD1710041+9999REMSYN070AAXX  03094 68300 32970 01808 10250 20151 30116 40133 57004 555 91013;EQDQ01  00002PRCP99
0206683000999992000020312004-26630+015100FM-12+000099999V0201801N005112200019N0200001N1+02351+01611101271ADDAA199000091GA1001+999999999GF100991001001999999001001KA1120N+01801MA1999999101101MD1710061+9999REMSYN080AAXX  03124 68300 32970 01810 10235 20161 30110 40127 57006 333 20180 555 91012;EQDQ01  00002PRCP99
0153683000999992000020315004-26630+015100FM-12+000099999V0201801N009312200019N0200001N1+02241+01521101201ADDGA1001+999999999GF100991001001999999001001MA1999999101021MD1710081+9999REMSYN070AAXX  03154 68300 42970 01818 10224 20152 30102 40120 57008 555 91011;
0196683000999992000020318004-26630+015100FM-12+000099999V0201801N008212200019N0050001N1+01861+01591101291ADDAA199000091GF101991011061999999001001KA1120M+02581MA1999999101111MD1310091+9999REMSYN086AAXX  03184 68300 32950 11816 10186 20159 30111 40129 53009 81600 333 10258 555 91012;EQDQ01  00002PRCP99
0153683000999992000020321004-26630+015100FM-12+000099999V0201801N007212200019N0040001N1+01851+01601101431ADDGA1001+999999999GF100991001001999999001001MA1999999101251MD1210171+9999REMSYN070AAXX  03214 68300 42940 01814 10185 20160 30125 40143 52017 555 91014;
0199683000999992000020400004-26630+015100FM-12+000099999V0201801N999992200019N0040001N1+01801+01541101401ADDAA199000091GA1001+999999999GF100991001001999999001001MA1999999101221MD1810041+9999REMSYN070AAXX  04004 68300 32940 01866 10180 20154 30122 40140 58004 555 91014;EQDQ01+003393WOSPD Q02  00002PRCP99
0153683000999992000020403004-26630+015100FM-12+000099999V0201801N003112200019N0300001N1+01701+01441101351ADDGA1001+999999999GF100991001001999999001001MA1999999101171MD1710051+9999REMSYN070AAXX  04034 68300 42980 01806 10170 20144 30117 40135 57005 555 91013;
0153683000999992000020409004-26630+015100FM-12+000099999V0201801N011312200019N0100001N1+02211+01521101571ADDGA1001+999999999GF100991001001999999001001MA1999999101401MD1310231+9999REMSYN070AAXX  04094 68300 42960 01822 10221 20152 30140 40157 53023 555 91015;
0206683000999992000020412004-26630+015100FM-12+000099999V0201801N013412200019N0100001N1+02351+01541101481ADDAA199000091GA1001+999999999GF100991001001999999001001KA1120N+01681MA1999999101311MD1810091+9999REMSYN080AAXX  04124 68300 32960 01826 10235 20154 30131 40148 58009 333 20168 555 91014;EQDQ01  00002PRCP99
0153683000999992000020415004-26630+015100FM-12+000099999V0201801N007712200019N0100001N1+02351+01611101371ADDGA1001+999999999GF100991001001999999001001MA1999999101201MD1810111+9999REMSYN070AAXX  04154 68300 42960 01815 10235 20161 30120 40137 58011 555 91013;
0206683000999992000020418004-26630+015100FM-12+000099999V0201801N007712200019N0100001N1+02001+01671101441ADDAA199000091GA1001+999999999GF100991001001999999001001KA1120M+02601MA1999999101271MD1210071+9999REMSYN080AAXX  04184 68300 32960 01815 10200 20167 30127 40144 52007 333 10260 555 91014;EQDQ01  00002PRCP99
0153683000999992000020503004-26630+015100FM-12+000099999V0201801N003112200019N0100001N1+01801+00431101341ADDGA1001+999999999GF100991001001999999001001MA1999999101161MD1710061+9999REMSYN070AAXX  05034 68300 42960 01806 10180 20043 30116 40134 57006 555 91013;
0225683000999992000020506004-26630+015100FM-12+000099999V0201801N009312200019N0100001N1+01761+01301101411ADDAA199000091GA1001+999999999GF100991001001999999001001KA1240M+02571KA2120N+01711MA1999999101231MD1310071+9999REMSYN086AAXX  05064 68300 32960 01818 10176 20130 30123 40141 53007 333 20171 555 10257 91014;EQDQ01  00002PRCP99
0153683000999992000020509004-26630+015100FM-12+000099999V0201801N012312200019N0100001N1+02251+01491101401ADDGA1001+999999999GF100991001001999999001001MA1999999101231MD1410001+9999REMSYN070AAXX  05094 68300 42960 01824 10225 20149 30123 40140 54000 555 91014;
0234683000999992000020512004-26630+015100FM-12+000099999V0201801N017512200019N0050001N1+02511+01501101211ADDAA199000091AY131061AY221061GA1001+999999999GF100991001001999999001001KA1120N+01701MA1999999101041MD1810191+9999MW1301REMSYN086AAXX  05124 68300 31950 01834 10251 20150 30104 40121 58019 73032 333 20170 555 91012;EQDQ01  00002PRCP99
0138683000999992000020515004-26630+015100FM-12+000099999V0201801N018012200019N0200001N1+02301+01681101051ADDGA1001+999999999GF100991001001999999001001MD1810131+9999REMSYN070AAXX  05154 68300 42970 01835 10230 20168 3//// 40105 58013 555 91010;
0219683000999992000020518004-26630+015100FM-12+000099999V0201801N018512200019N0100001N1+02001+01701101091ADDAA199000091AY101061AY201061GA1001+999999999GF100991001001999999001001KA1120M+02601MD1210031+9999MW1301REMSYN086AAXX  05184 68300 31960 01836 10200 20170 3//// 40109 52003 73000 333 10260 555 91010;EQDQ01  00002PRCP99
0183683000999992000020600004-26630+015100FM-12+000099999V0201801N005112200019N0100001N1+01801+01451101161ADDAA199000091GA1001+999999999GF100991001001999999001001MA1999999100981MD1210061+9999REMSYN070AAXX  06004 68300 32960 01810 10180 20145 30098 40116 52006 555 91011;EQDQ01  00002PRCP99
0153683000999992000020603004-26630+015100FM-12+000099999V0201801N003112200019N0050001N1+01801+01541101101ADDGA1001+999999999GF100991001001999999001001MA1999999100921MD1210081+9999REMSYN070AAXX  06034 68300 42950 01806 10180 20154 30092 40110 52008 555 91010;
0215683000999992000020606004-26630+015100FM-12+000099999V0201801N009312200019N0100001N1+01801+01451101151ADDAA199000091GF101991011051000751001001KA1240M+02601KA2120N+01721MA1999999100971MD1310051+9999REMSYN092AAXX  06064 68300 32160 11818 10180 20145 30097 40115 53005 81500 333 20172 555 10260 91011;EQDQ01  00002PRCP99
0162683000999992000020609004-26630+015100FM-12+000099999V0201801N011312200019N0100001N1+02291+99999101211ADDGF101991011051000751001001MA1999999101041MD1210071+9999REMSYN076AAXX  06094 68300 42160 11822 10229 20025 30104 40121 52007 81500 555 91012;EQDQ01+000253ATOD  
0181683000999992000020612004-26630+015100FM-12+000099999V0201301N013412200019N0050001N1+02381+01521101101ADDAA199000091GF101991011051000751001001KA1120N+01811MD1810111+9999REMSYN086AAXX  06124 68300 32150 11326 10238 20152 3//// 40110 58011 81500 333 20181 555 91011;EQDQ01  00002PRCP99
0191683000999992000020618004-26630+015100FM-12+000099999V0201801N005112200019N0100001N1+01901+01651101121ADDAA199000091GA1001+999999999GF100991001001999999001001KA1120M+02501MD1310161+9999REMSYN080AAXX  06184 68300 32960 01810 10190 20165 3//// 40112 53016 333 10250 555 91011;EQDQ01  00002PRCP99
0138683000999992000020621004-26630+015100FM-12+000099999V0201801N003112200019N0100001N1+01851+01511101291ADDGA1001+999999999GF100991001001999999001001MD1710061+9999REMSYN070AAXX  06214 68300 42960 01806 10185 20151 3//// 40129 57006 555 91012;
0215683000999992000020706004-26630+015100FM-12+000099999V0201801N003112200019N0100001N1+01771+01501101381ADDAA199000091GF103991031011000751001001KA1240M+02501KA2120N+01711MA1999999101201MD1310091+9999REMSYN092AAXX  07064 68300 32160 31806 10177 20150 30120 40138 53009 83100 333 20171 555 10250 91013;EQDQ01  00002PRCP99
0173683000999992000020709004-26630+015100FM-12+000099999V0201801N005112200019N0100001N1+02361+01611101371ADDAA199000091GF103991031051002501001001MA1999999101201MD1410001+9999REMSYN076AAXX  07094 68300 32360 31810 10236 20161 30120 40137 54000 83500 555 91013;EQDQ01  00002PRCP99
0196683000999992000020712004-26630+015100FM-12+000099999V0201801N008212200019N0100001N1+02361+01621101291ADDAA199000091GF101991011061000751001001KA1120N+01801MA1999999101121MD1810081+9999REMSYN086AAXX  07124 68300 32160 11816 10236 20162 30112 40129 58008 81600 333 20180 555 91013;EQDQ01  00002PRCP99
0143683000999992000020715004-26630+015100FM-12+000099999V0201801N008212200019N0100001N1+02301+01651101091ADDGF101991011061000751001001MA1999999100921MD1810181+9999REMSYN076AAXX  07154 68300 42160 11816 10230 20165 30092 40109 58018 81600 555 91010;
0206683000999992000020718004-26630+015100FM-12+000099999V0201801N012912200019N0050001N1+01851+01601101121ADDAA199000091GA1001+999999999GF100991001001999999001001KA1120M+02451MA1999999100941MD1210021+9999REMSYN080AAXX  07184 68300 32950 01825 10185 20160 30094 40112 52002 333 10245 555 91011;EQDQ01  00002PRCP99
0153683000999992000020721004-26630+015100FM-12+000099999V0201801N011812200019N0050001N1+01801+01451101311ADDGA1001+999999999GF100991001001999999001001MA1999999101131MD1710181+9999REMSYN070AAXX  07214 68300 42950 01823 10180 20145 30113 40131 57018 555 91013;
0183683000999992000020800004-26630+015100FM-12+000099999V0201801N005112200019N0050001N1+01751+01491101211ADDAA199000091GA1001+999999999GF100991001001999999001001MA1999999101031MD1210091+9999REMSYN070AAXX  08004 68300 32950 01810 10175 20149 30103 40121 52009 555 91012;EQDQ01  00002PRCP99
0153683000999992000020803004-26630+015100FM-12+000099999V0201801N003112200019N0050001N1+01601+01421101191ADDGA1001+999999999GF100991001001999999001001MA1999999101011MD1310021+9999REMSYN070AAXX  08034 68300 42950 01806 10160 20142 30101 40119 53002 555 91011;
0215683000999992000020806004-26630+015100FM-12+000099999V0201801N004112200019N0100001N1+01771+01511101311ADDAA199000091GF102991021061000751001001KA1240M+02451KA2120N+01751MA1999999101131MD1210121+9999REMSYN092AAXX  08064 68300 32160 21808 10177 20151 30113 40131 52012 82600 333 20175 555 10245 91013;EQDQ01  00002PRCP99
0143683000999992000020809004-26630+015100FM-12+000099999V0201801N004112200019N0100001N1+01951+01531101351ADDGF102991011061000751001011MA1999999101171MD1210041+9999REMSYN076AAXX  08094 68300 42160 21808 10195 20153 30117 40135 52004 81601 555 91013;
0196683000999992000020812004-26630+015100FM-12+000099999V0201801N011312200019N0750001N1+02451+01661101181ADDAA199000091GF103991011001012501081011KA1120N+01651MA1999999101011MD1810161+9999REMSYN086AAXX  08124 68300 32689 31822 10245 20166 30101 40118 58016 81081 333 20165 555 91011;EQDQ01  00002PRCP99
0153683000999992000020815004-26630+015100FM-12+000099999V0201801N007712200019N0100001N1+02181+01661100991ADDGA1001+999999999GF100991001001999999001001MA1999999100811MD1810171+9999REMSYN070AAXX  08154 68300 42960 01815 10218 20166 30081 40099 58017 555 91009;
0206683000999992000020818004-26630+015100FM-12+000099999V0201801N003112200019N0750001N1+01951+01621101021ADDAA199000091GA1001+999999999GF100991001001999999001001KA1120M+02481MA1999999100841MD1210031+9999REMSYN080AAXX  08184 68300 32989 01806 10195 20162 30084 40102 52003 333 10248 555 91010;EQDQ01  00002PRCP99
0153683000999992000020821004-26630+015100FM-12+000099999V0201801N003112200019N0050001N1+01801+01531101031ADDGA1001+999999999GF100991001001999999001001MA1999999100851MD1710051+9999REMSYN070AAXX  08214 68300 42950 01806 10180 20153 30085 40103 57005 555 91010;
0183683000999992000020900004-26630+015100FM-12+000099999V0201801N001512200019N0050001N1+01701+01621101161ADDAA199000091GA1001+999999999GF100991001001999999001001MA1999999100981MD1810091+9999REMSYN070AAXX  09004 68300 32950 01803 10170 20162 30098 40116 58009 555 91011;EQDQ01  00002PRCP99
0243683000999992000020906004-26630+015100FM-12+000099999V0203601N003110006019N0040001N1+01491+01451101301ADDAA199000091AY141061AY201061GF108991081061000751999999KA1240M+02481KA2120N+01451MA1999999101121MD1310141+9999MW1401REMSYN098AAXX  09064 68300 31140 83606 10149 20145 30112 40130 53014 74040 886// 333 20145 555 10248 91013;EQDQ01  00002PRCP99
0143683000999992000020909004-26630+015100FM-12+000099999V0203601N003110075019N0750001N1+01601+01511101341ADDGF108991081061008001999999MA1999999101161MD1210041+9999REMSYN076AAXX  09094 68300 42589 83606 10160 20151 30116 40134 52004 886// 555 91013;
0196683000999992000020912004-26630+015100FM-12+000099999V0202301N003110012019N0100001N1+01761+01571101291ADDAA199000091GF106991061061001501001001KA1120N+01501MA1999999101111MD1810051+9999REMSYN086AAXX  09124 68300 32260 62306 10176 20157 30111 40129 58005 86600 333 20150 555 91012;EQDQ01  00002PRCP99
0143683000999992000020915004-26630+015100FM-12+000099999V0201801N003110006019N0100001N1+02201+01801101131ADDGF108991081061000751999999MA1999999100951MD1810131+9999REMSYN076AAXX  09154 68300 42160 81806 10220 20180 30095 40113 58013 886// 555 91011;
0196683000999992000020918004-26630+015100FM-12+000099999V0203601N001510006019N0050001N1+01951+01701101121ADDAA199000091GF108991081061000751999999KA1120M+02251MA1999999100941MD1610011+9999REMSYN086AAXX  09184 68300 32150 83603 10195 20170 30094 40112 56001 886// 333 10225 555 91011;EQDQ01  00002PRCP99
0153683000999992000020921004-26630+015100FM-12+000099999V0201801N004112200019N0100001N1+01901+01741101181ADDGA1001+999999999GF100991001001999999001001MA1999999101001MD1710061+9999REMSYN070AAXX  09214 68300 42960 01808 10190 20174 30100 40118 57006 555 91011;
0183683000999992000021000004-26630+015100FM-12+000099999V0201801N003112200019N0100001N1+01801+01721101141ADDAA199000091GA1001+999999999GF100991001001999999001001MA1999999100961MD1210041+9999REMSYN070AAXX  10004 68300 32960 01806 10180 20172 30096 40114 52004 555 91011;EQDQ01  00002PRCP99
0183683000999992000021003004-26630+015100FM-12+000099999V0201801N001512200019N0100001N1+01751+01581101141ADDAA199000091GA1001+999999999GF100991001001999999001001MA1999999100961MD1410001+9999REMSYN070AAXX  10034 68300 32960 01803 10175 20158 30096 40114 54000 555 91011;EQDQ01  00002PRCP99
0243683000999992000021006004-26630+015100FM-12+000099999V0203201N003112200019N0040001N1+01501+01501101311ADDAA199000091AY121061AY221061GF104991041061004501001001KA1240M+02251KA2120N+01491MA1999999101131MD1310071+9999MW1401REMSYN098AAXX  10064 68300 31440 43206 10150 20150 30113 40131 53007 74022 84600 333 20149 555 10225 91013;EQDQ01  00002PRCP99
0143683000999992000021009004-26630+015100FM-12+000099999V0203601N003110006019N0050001N1+01701+01551101351ADDGF107991071061000751999999MA1999999101171MD1210041+9999REMSYN076AAXX  10094 68300 42150 73606 10170 20155 30117 40135 52004 876// 555 91013;
0196683000999992000021012004-26630+015100FM-12+000099999V0202301N008212200019N0750001N1+02501+01701101131ADDAA199000091GF104991041051004501001001KA1120N+01501MA1999999100961MD1810211+9999REMSYN086AAXX  10124 68300 32489 42316 10250 20170 30096 40113 58021 84500 333 20150 555 91011;EQDQ01  00002PRCP99
0183683000999992000021015004-26630+015100FM-12+000099999V0202301N010312200019N0100001N1+02251+01721101041ADDAA199000091GA1001+999999999GF100991001001999999001001MA1999999100871MD1710061+9999REMSYN070AAXX  10154 68300 32960 02320 10225 20172 30087 40104 57006 555 91010;EQDQ01  00002PRCP99
0196683000999992000021018004-26630+015100FM-12+000099999V0202301N012912200019N0750001N1+02051+01721101111ADDAA199000091GF101991011061008001001001KA1120M+02651MA1999999100931MD1210061+9999REMSYN086AAXX  10184 68300 32589 12325 10205 20172 30093 40111 52006 81600 333 10265 555 91011;EQDQ01  00002PRCP99
0153683000999992000021021004-26630+015100FM-12+000099999V0201801N003112200019N0050001N1+01901+01561101311ADDGA1001+999999999GF100991001001999999001001MA1999999101131MD1710081+9999REMSYN070AAXX  10214 68300 42950 01806 10190 20156 30113 40131 57008 555 91013;
0183683000999992000021100004-26630+015100FM-12+000099999V0201801N003112200019N0050001N1+01851+01511101221ADDAA199000091GA1001+999999999GF100991001001999999001001MA1999999101041MD1210091+9999REMSYN070AAXX  11004 68300 32950 01806 10185 20151 30104 40122 52009 555 91012;EQDQ01  00002PRCP99
0153683000999992000021103004-26630+015100FM-12+000099999V0201801N003112200019N0040001N1+01751+01491101111ADDGA1001+999999999GF100991001001999999001001MA1999999100931MD1310111+9999REMSYN070AAXX  11034 68300 42940 01806 10175 20149 30093 40111 53011 555 91011;
0225683000999992000021106004-26630+015100FM-12+000099999V0201801N003112200019N0750001N1+01851+01511101221ADDAA199000091GA1001+999999999GF100991001001999999001001KA1240M+02651KA2120N+01801MA1999999101041MD1310111+9999REMSYN086AAXX  11064 68300 32989 01806 10185 20151 30104 40122 53011 333 20180 555 10265 91012;EQDQ01  00002PRCP99
0153683000999992000021109004-26630+015100FM-12+000099999V0201801N007712200019N0750001N1+02201+01491101251ADDGA1001+999999999GF100991001001999999001001MA1999999101071MD1210131+9999REMSYN070AAXX  11094 68300 42989 01815 10220 20149 30107 40125 52013 555 91012;
0234683000999992000021112004-26630+015100FM-12+000099999V0201801N015412200019N0100001N1+02441+01511101111ADDAA199000091AY121061AY221061GA1001+999999999GF100991001001999999001001KA1120N+02101MA1999999100941MD1810131+9999MW1301REMSYN086AAXX  11124 68300 31960 01830 10244 20151 30094 40111 58013 73022 333 20210 555 91011;EQDQ01  00002PRCP99
0153683000999992000021115004-26630+015100FM-12+000099999V0201801N012912200019N0300001N1+02381+01501101001ADDGA1001+999999999GF100991001001999999001001MA1999999100831MD1810111+9999REMSYN070AAXX  11154 68300 42980 01825 10238 20150 30083 40100 58011 555 91010;
0206683000999992000021118004-26630+015100FM-12+000099999V0201801N010312200019N0750001N1+02151+01641101071ADDAA199000091GA1001+999999999GF100991001001999999001001KA1120M+02501MA1999999100891MD1310061+9999REMSYN080AAXX  11184 68300 32989 01820 10215 20164 30089 40107 53006 333 10250 555 91010;EQDQ01  00002PRCP99
0153683000999992000021121004-26630+015100FM-12+000099999V0201801N009312200019N0100001N1+01801+01421101211ADDGA1001+999999999GF100991001001999999001001MA1999999101031MD1210141+9999REMSYN070AAXX  11214 68300 42960 01818 10180 20142 30103 40121 52014 555 91012;
0183683000999992000021200004-26630+015100FM-12+000099999V0201801N009312200019N0100001N1+01841+01771101181ADDAA199000091GA1001+999999999GF100991001001999999001001MA1999999101001MD1810031+9999REMSYN070AAXX  12004 68300 32960 01818 10184 20177 30100 40118 58003 555 91011;EQDQ01  00002PRCP99
0153683000999992000021203004-26630+015100FM-12+000099999V0201801N006212200019N0100001N1+01751+01341101071ADDGA1001+999999999GF100991001001999999001001MA1999999100891MD1710111+9999REMSYN070AAXX  12034 68300 42960 01812 10175 20134 30089 40107 57011 555 91010;
0210683000999992000021206004-26630+015100FM-12+000099999V0201801N010312200019N0750001N1+01981+01651101251ADDAA199000091GA1001+999999999GF100991001001999999001001KA1240M+02501KA2120N+01651MD1310171+9999REMSYN086AAXX  12064 68300 32989 01820 10198 20165 3//// 40125 53017 333 20165 555 10250 91012;EQDQ01  00002PRCP99
0128683000999992000021209004-26630+015100FM-12+000099999V0201801N007712200019N0750001N1+02521+01331101161ADDGF102991021051999999001001MD1710061+9999REMSYN076AAXX  12094 68300 42989 21815 10252 20133 3//// 40116 57006 82500 555 91011;
0209683000999992000021212004-26630+015100FM-12+000099999V0201801N018012200019N0100001N1+02481+01401100981ADDAA199000091AY101061AY201061GF102991021051008001001001KA1120N+01981MD1810181+9999MW1301REMSYN092AAXX  12124 68300 31560 21835 10248 20140 3//// 40098 58018 73000 82500 333 20198 555 91009;EQDQ01  00002PRCP99
0196683000999992000021218004-26630+015100FM-12+000099999V0201801N014412200019N0750001N1+01961+01461100981ADDAA199000091GF104991001001999999001031KA1120M+02561MA1999999100801MD1710271+9999REMSYN086AAXX  12184 68300 32989 41828 10196 20146 30080 40098 57027 80003 333 10256 555 91009;EQDQ01  00002PRCP99
0143683000999992000021221004-26630+015100FM-12+000099999V0201801N014412200019N0100001N1+01961+01411101121ADDGF104991001001999999001031MA1999999100941MD1310141+9999REMSYN076AAXX  12214 68300 42960 41828 10196 20141 30094 40112 53014 80003 555 91011;
0158683000999992000021300004-26630+015100FM-12+000099999V0201801N011312200019N0100001N1+02001+01211101051ADDAA199000091GF102991001001999999001021MD1810071+9999REMSYN076AAXX  13004 68300 32960 21822 10200 20121 3//// 40105 58007 80002 555 91010;EQDQ01  00002PRCP99
0138683000999992000021303004-26630+015100FM-12+000099999V0201801N012312200019N0100001N1+01901+01141101011ADDGA1001+999999999GF100991001001999999001001MD1610041+9999REMSYN070AAXX  13034 68300 42960 01824 10190 20114 3//// 40101 56004 555 91010;
0200683000999992000021306004-26630+015100FM-12+000099999V0201801N010312200019N0200001N1+01801+01161101151ADDAA199000091GF102991021051004501001001KA1240M+02561KA2120N+01801MD1310101+9999REMSYN092AAXX  13064 68300 32470 21820 10180 20116 3//// 40115 53010 82500 333 20180 555 10256 91011;EQDQ01  00002PRCP99
0143683000999992000021309004-26630+015100FM-12+000099999V0201801N007712200019N0750001N1+02321+01401101131ADDGF102991021051008001001001MA1999999100961MD1610011+9999REMSYN076AAXX  13094 68300 42589 21815 10232 20140 30096 40113 56001 82500 555 91011;
0153683000999992000021315004-26630+015100FM-12+000099999V0201801N010312200019N0100001N1+02251+01251100821ADDGA1001+999999999GF100991001001999999001001MA1999999100651MD1810101+9999REMSYN070AAXX  13154 68300 42960 01820 10225 20125 30065 40082 58010 555 91008;
0183683000999992000021400004-26630+015100FM-12+000099999V0201801N008212200019N0050001N1+01701+01251101291ADDAA199000091GA1001+999999999GF100991001001999999001001MA1999999101111MD1210061+9999REMSYN070AAXX  14004 68300 32950 01816 10170 20125 30111 40129 52006 555 91012;EQDQ01  00002PRCP99
0153683000999992000021403004-26630+015100FM-12+000099999V0201801N006212200019N0050001N1+01751+01271101201ADDGA1001+999999999GF100991001001999999001001MA1999999101021MD1810071+9999REMSYN070AAXX  14034 68300 42950 01812 10175 20127 30102 40120 58007 555 91011;
0232683000999992000021406004-26630+015100FM-12+000099999V0201801N005112200019N0750001N1+01651+01311999999ADDAA199000091GF104991041041012501001001KA1240M+02451KA2120N+01601MD1310151+9999REMSYN092AAXX  14064 68300 32689 41810 10165 20131 30017 40035 53015 84400 333 20160 555 10245 91003;EQDQ01+100173APOSP Q02+100353APOSLPQ03  00002PRCP99
0174683000999992000021409004-26630+015100FM-12+000099999V0201801N005112200019N0100001N1+02351+01321101361ADDGA1001+999999999GF100991001001999999001001MA1999999101181REMSYN070AAXX  14094 68300 42960 01810 10235 20132 30118 40136 52000 555 91013;EQDQ01+000022APCTENQ02+000002APC3  
0206683000999992000021412004-26630+015100FM-12+000099999V0201801N010312200019N0750001N1+02331+01411101241ADDAA199000091GA1001+999999999GF100991001001999999001001KA1120N+01721MA1999999101071MD1310121+9999REMSYN080AAXX  14124 68300 32989 01820 10233 20141 30107 40124 53012 333 20172 555 91012;EQDQ01  00002PRCP99
0153683000999992000021415004-26630+015100FM-12+000099999V0201801N005112200019N0750001N1+02151+01471101141ADDGA1001+999999999GF100991001001999999001001MA1999999100961MD1210061+9999REMSYN070AAXX  14154 68300 42989 01810 10215 20147 30096 40114 52006 555 91011;
0206683000999992000021418004-26630+015100FM-12+000099999V0201801N005112200019N0750001N1+01951+01531101231ADDAA199000091GA1001+999999999GF100991001001999999001001KA1120M+02451MA1999999101051MD1710091+9999REMSYN080AAXX  14184 68300 32989 01810 10195 20153 30105 40123 57009 333 10245 555 91012;EQDQ01  00002PRCP99
0153683000999992000021421004-26630+015100FM-12+000099999V0201801N007212200019N0750001N1+01851+01651101371ADDGA1001+999999999GF100991001001999999001001MA1999999101191MD1310141+9999REMSYN070AAXX  14214 68300 42989 01814 10185 20165 30119 40137 53014 555 91013;
0183683000999992000021500004-26630+015100FM-12+000099999V0201801N006212200019N0100001N1+01761+01391101291ADDAA199000091GA1001+999999999GF100991001001999999001001MA1999999101111MD1810081+9999REMSYN070AAXX  15004 68300 32960 01812 10176 20139 30111 40129 58008 555 91012;EQDQ01  00002PRCP99
0225683000999992000021506004-26630+015100FM-12+000099999V0201801N010312200019N0750001N1+01751+01671101301ADDAA199000091GA1001+999999999GF100991001001999999001001KA1240M+02451KA2120N+01681MA1999999101121MD1310101+9999REMSYN086AAXX  15064 68300 32989 01820 10175 20167 30112 40130 53010 333 20168 555 10245 91013;EQDQ01  00002PRCP99
0153683000999992000021509004-26630+015100FM-12+000099999V0201801N010312200019N0750001N1+02451+01121101221ADDGA1001+999999999GF100991001001999999001001MA1999999101051MD1610071+9999REMSYN070AAXX  15094 68300 42989 01820 10245 20112 30105 40122 56007 555 91012;
0238683000999992000021512004-26630+015100FM-12+000099999V0201801N018012200019N0100001N1+02421+01241100552ADDAA199000091GA1001+999999999GF100991001001999999001001KA1120N+01781MA1999999100382MD1810181+9999REMSYN080AAXX  15124 68300 32960 01835 10242 20124 30038 40055 58018 333 20178 555 91005;EQDQ01+100383APOSP Q02+100553APOSLPQ03  00002PRCP99
0153683000999992000021521004-26630+015100FM-12+000099999V0201801N011312200019N0100001N1+01961+01081101211ADDGA1001+999999999GF100991001001999999001001MA1999999101031MD1310161+9999REMSYN070AAXX  15214 68300 42960 01822 10196 20108 30103 40121 53016 555 91012;
0183683000999992000021600004-26630+015100FM-12+000099999V0201801N011312200019N0100001N1+01821+01141101161ADDAA199000091GA1001+999999999GF100991001001999999001001MA1999999100981MD1810051+9999REMSYN070AAXX  16004 68300 32960 01822 10182 20114 30098 40116 58005 555 91011;EQDQ01  00002PRCP99
0183683000999992000021603004-26630+015100FM-12+000099999V0201801N009312200019N0050001N1+01731+01011101021ADDAA199000091GA1001+999999999GF100991001001999999001001MA1999999100841MD1710141+9999REMSYN070AAXX  16034 68300 32950 01818 10173 20101 30084 40102 57014 555 91010;EQDQ01  00002PRCP99
0225683000999992000021606004-26630+015100FM-12+000099999V0201801N001512200019N0100001N1+01821+00921101151ADDAA199000091GA1001+999999999GF100991001001999999001001KA1240M+02551KA2120N+01561MA1999999100971MD1310071+9999REMSYN086AAXX  16064 68300 32960 01803 10182 20092 30097 40115 53007 333 20156 555 10255 91011;EQDQ01  00002PRCP99
0153683000999992000021609004-26630+015100FM-12+000099999V0201801N001512200019N0050001N1+02281+01091101211ADDGA1001+999999999GF100991001001999999001001MA1999999101031MD1810061+9999REMSYN070AAXX  16094 68300 42950 01803 10228 20109 30103 40121 58006 555 91012;
0206683000999992000021612004-26630+015100FM-12+000099999V0202101N001512200019N0750001N1+02351+01101101121ADDAA199000091GA1001+999999999GF100991001001999999001001KA1120N+01721MA1999999100951MD1810081+9999REMSYN080AAXX  16124 68300 32989 02103 10235 20110 30095 40112 58008 333 20172 555 91011;EQDQ01  00002PRCP99
0153683000999992000021615004-26630+015100FM-12+000099999V0202701N004112200019N0750001N1+02201+01231100881ADDGA1001+999999999GF100991001001999999001001MA1999999100711MD1710191+9999REMSYN070AAXX  16154 68300 42989 02708 10220 20123 30071 40088 57019 555 91008;
0206683000999992000021618004-26630+015100FM-12+000099999V0201801N007712200019N0750001N1+01751+01211100981ADDAA199000091GA1001+999999999GF100991001001999999001001KA1120M+02521MA1999999100801MD1310091+9999REMSYN080AAXX  16184 68300 32989 01815 10175 20121 30080 40098 53009 333 10252 555 91009;EQDQ01  00002PRCP99
0153683000999992000021621004-26630+015100FM-12+000099999V0201801N007212200019N0100001N1+01701+01191101091ADDGA1001+999999999GF100991001001999999001001MA1999999100911MD1210111+9999REMSYN070AAXX  16214 68300 42960 01814 10170 20119 30091 40109 52011 555 91010;
0183683000999992000021700004-26630+015100FM-12+000099999V0201801N006212200019N0050001N1+01561+01071101081ADDAA199000091GA1001+999999999GF100991001001999999001001MA1999999100901MD1810011+9999REMSYN070AAXX  17004 68300 32950 01812 10156 20107 30090 40108 58001 555 91010;EQDQ01  00002PRCP99
0153683000999992000021703004-26630+015100FM-12+000099999V0201801N007212200019N0050001N1+01321+01111101021ADDGA1001+999999999GF100991001001999999001001MA1999999100841MD1710071+9999REMSYN070AAXX  17034 68300 42950 01814 10132 20111 30084 40102 57007 555 91010;
0215683000999992000021706004-26630+015100FM-12+000099999V0203101N003110006019N0100001N1+01451+01361101171ADDAA199000091GF108991081061000751999999KA1240M+02511KA2120N+01351MA1999999100991MD1810161+9999REMSYN092AAXX  17064 68300 32160 83106 10145 20136 30099 40117 58016 886// 333 20135 555 10251 91011;EQDQ01  00002PRCP99
0143683000999992000021709004-26630+015100FM-12+000099999V0203601N003110006019N0100001N1+01551+01371101251ADDGF108991081071000751999999MA1999999101071MD1210081+9999REMSYN076AAXX  17094 68300 42160 83606 10155 20137 30107 40125 52008 887// 555 91012;
0196683000999992000021712004-26630+015100FM-12+000099999V0203601N003110006019N0100001N1+01651+01391101111ADDAA199000091GF108991081061000751999999KA1120N+01461MA1999999100931MD1810101+9999REMSYN086AAXX  17124 68300 32160 83606 10165 20139 30093 40111 58010 886// 333 20146 555 91011;EQDQ01  00002PRCP99
0143683000999992000021715004-26630+015100FM-12+000099999V0203201N003110006019N0100001N1+01751+01671100931ADDGF107991071061000751999999MA1999999100751MD1710181+9999REMSYN076AAXX  17154 68300 42160 73206 10175 20167 30075 40093 57018 876// 555 91009;
0196683000999992000021718004-26630+015100FM-12+000099999V0203201N003110006019N0100001N1+01601+01421101071ADDAA199000091GF105991051051000751001001KA1120M+01751MA1999999100891MD1310141+9999REMSYN086AAXX  17184 68300 32160 53206 10160 20142 30089 40107 53014 85500 333 10175 555 91010;EQDQ01  00002PRCP99
0171683000999992000021721004-26630+015100FM-12+000099999V0203201N003110021019N0050001N1+01551+01461101111ADDAY141031AY221031GF108991081051002501999999MA1999999100931MD1210041+9999MW1401REMSYN082AAXX  17214 68300 41350 83206 10155 20146 30093 40111 52004 74042 885// 555 91011;
0211683000999992000021800004-26630+015100FM-12+000099999V0203201N003110003019N0005001N1+01461+01441101061ADDAA199000091AY141061AY201061GA1091+999999999GF109991091999999999999999MA1999999100881MD1310051+9999MW1471REMSYN076AAXX  18004 68300 31/05 93206 10146 20144 30088 40106 53005 74740 555 91010;EQDQ01  00002PRCP99
0181683000999992000021803004-26630+015100FM-12+000099999V0203201N003110006019N0009001N1+01431+01391100961ADDAY141031AY241031GA1091+999999999GF109991091999999999999999MA1999999100781MD1710101+9999MW1451REMSYN076AAXX  18034 68300 41/09 93206 10143 20139 30078 40096 57010 74544 555 91009;
0243683000999992000021806004-26630+015100FM-12+000099999V0203601N003110006019N0009001N1+01451+01451101021ADDAA199000091AY141061AY241061GF108991081061000751999999KA1240M+01751KA2120N+01401MA1999999100841MD1310081+9999MW1451REMSYN098AAXX  18064 68300 31109 83606 10145 20145 30084 40102 53008 74544 886// 333 20140 555 10175 91010;EQDQ01  00002PRCP99
0143683000999992000021809004-26630+015100FM-12+000099999V0203201N003110006019N0050001N1+01651+01481101121ADDGF107991071061000751999999MA1999999100941MD1210101+9999REMSYN076AAXX  18094 68300 42150 73206 10165 20148 30094 40112 52010 876// 555 91011;
0196683000999992000021812004-26630+015100FM-12+000099999V0203601N005110006019N0200001N1+01801+01541101031ADDAA199000091GF105991051051000751001001KA1120N+01501MA1999999100851MD1810061+9999REMSYN086AAXX  18124 68300 32170 53610 10180 20154 30085 40103 58006 85500 333 20150 555 91010;EQDQ01  00002PRCP99
0143683000999992000021815004-26630+015100FM-12+000099999V0203601N004610006019N0200001N1+01821+01341100961ADDGF107991071061000751001001MA1999999100781MD1310071+9999REMSYN076AAXX  18154 68300 42170 73609 10182 20134 30078 40096 53007 87600 555 91009;
0196683000999992000021818004-26630+015100FM-12+000099999V0203601N001510006019N0200001N1+01751+01491101071ADDAA199000091GF108991081061000751999999KA1120M+01851MA1999999100891MD1710111+9999REMSYN086AAXX  18184 68300 32170 83603 10175 20149 30089 40107 57011 886// 333 10185 555 91010;EQDQ01  00002PRCP99
0153683000999992000021821004-26630+015100FM-12+000099999V0203601N001512200019N0100001N1+01701+01531101191ADDGA1001+999999999GF100991001001999999001001MA1999999101011MD1610021+9999REMSYN070AAXX  18214 68300 42960 03603 10170 20153 30101 40119 56002 555 91011;
0168683000999992000021900004-26630+015100FM-12+000099999V0203601N001512200019N0100001N1+01651+01481101171ADDAA199000091GA1001+999999999GF100991001001999999001001MD1610021+9999REMSYN070AAXX  19004 68300 32960 03603 10165 20148 3//// 40117 56002 555 91011;EQDQ01  00002PRCP99
0138683000999992000021903004-26630+015100FM-12+000099999V0203601N001512200019N0100001N1+01751+01491101111ADDGA1001+999999999GF100991001001999999001001MD1610061+9999REMSYN070AAXX  19034 68300 42960 03603 10175 20149 3//// 40111 56006 555 91011;
0200683000999992000021906004-26630+015100FM-12+000099999V0203601N001510012019N0100001N1+01651+01561101281ADDAA199000091GF108991081061001501999999KA1240M+01851KA2120N+01641MD1310171+9999REMSYN092AAXX  19064 68300 32260 83603 10165 20156 3//// 40128 53017 886// 333 20164 555 10185 91012;EQDQ01  00002PRCP99
0143683000999992000021909004-26630+015100FM-12+000099999V0203201N005112200019N0200001N1+01851+01341101371ADDGF101991011051002501001001MA1999999101191MD1210091+9999REMSYN076AAXX  19094 68300 42370 13210 10185 20134 30119 40137 52009 81500 555 91013;
0196683000999992000021912004-26630+015100FM-12+000099999V0203201N005112200019N0200001N1+01851+01601101411ADDAA199000091GF104991041051002501001001KA1120N+01701MA1999999101231MD1310041+9999REMSYN086AAXX  19124 68300 32370 43210 10185 20160 30123 40141 53004 84500 333 20170 555 91014;EQDQ01  00002PRCP99
0143683000999992000021915004-26630+015100FM-12+000099999V0209999C000010006019N0200001N1+01921+01641101321ADDGF108991081061000751999999MA1999999101141MD1710131+9999REMSYN076AAXX  19154 68300 42170 80000 10192 20164 30114 40132 57013 886// 555 91013;
0196683000999992000021918004-26630+015100FM-12+000099999V0209999C000010006019N0200001N1+01751+01671101481ADDAA199000091GF108991081051000751999999KA1120M+02001MA1999999101301MD1810161+9999REMSYN086AAXX  19184 68300 32170 80000 10175 20167 30130 40148 58016 885// 333 10200 555 91014;EQDQ01  00002PRCP99
0181683000999992000021921004-26630+015100FM-12+000099999V0209999C000010024019N0040001N1+01801+01721101661ADDAY141031AY251031GA1091+999999999GF109991091999999999999999MA1999999101481MD1310181+9999MW1401REMSYN076AAXX  19214 68300 41/40 90000 10180 20172 30148 40166 53018 74045 555 91016;
0173683000999992000022000004-26630+015100FM-12+000099999V0203601N001510006019N0040001N1+01751+01581101581ADDAA199000091GF108991081061000751999999MA1999999101401MD1710081+9999REMSYN076AAXX  20004 68300 32140 83603 10175 20158 30140 40158 57008 886// 555 91015;EQDQ01  00002PRCP99
0143683000999992000022003004-26630+015100FM-12+000099999V0203601N001510006019N0090001N1+01801+01631101521ADDGF108991081061000751999999MA1999999101341MD1810061+9999REMSYN076AAXX  20034 68300 42159 83603 10180 20163 30134 40152 58006 886// 555 91015;
0215683000999992000022006004-26630+015100FM-12+000099999V0201401N001510006019N0050001N1+01901+01741101661ADDAA199000091GF108991081061000751999999KA1240M+02001KA2120N+01751MA1999999101481MD1310141+9999REMSYN092AAXX  20064 68300 32150 81403 10190 20174 30148 40166 53014 886// 333 20175 555 10200 91016;EQDQ01  00002PRCP99
0143683000999992000022009004-26630+015100FM-12+000099999V0202701N003112200019N0200001N1+02401+01581101671ADDGF104991041051000751001001MA1999999101501MD1210011+9999REMSYN076AAXX  20094 68300 42170 42706 10240 20158 30150 40167 52001 84500 555 91016;
0196683000999992000022012004-26630+015100FM-12+000099999V0202301N007710006019N0200001N1+02451+01641101521ADDAA199000091GF105991051041000751001001KA1120N+02001MA1999999101351MD1810161+9999REMSYN086AAXX  20124 68300 32170 52315 10245 20164 30135 40152 58016 85400 333 20200 555 91015;EQDQ01  00002PRCP99
0143683000999992000022015004-26630+015100FM-12+000099999V0201801N005110006019N0200001N1+02351+01701101311ADDGF105991051041000751001001MA1999999101141MD1710141+9999REMSYN076AAXX  20154 68300 42170 51810 10235 20170 30114 40131 57014 85400 555 91013;
0196683000999992000022018004-26630+015100FM-12+000099999V0201801N005110006019N0200001N1+01951+01871101431ADDAA199000091GF106991061061000751001001KA1120M+02501MA1999999101251MD1310111+9999REMSYN086AAXX  20184 68300 32170 61810 10195 20187 30125 40143 53011 86600 333 10250 555 91014;EQDQ01  00002PRCP99
0183683000999992000022100004-26630+015100FM-12+000099999V0201801N003112200019N0100001N1+02051+01721101291ADDAA199000091GA1001+999999999GF100991001001999999001001MA1999999101111MD1810101+9999REMSYN070AAXX  21004 68300 32960 01806 10205 20172 30111 40129 58010 555 91012;EQDQ01  00002PRCP99
0183683000999992000022103004-26630+015100FM-12+000099999V0201801N002612200019N0050001N1+01921+01641101201ADDAA199000091GA1001+999999999GF100991001001999999001001MA1999999101021MD1810101+9999REMSYN070AAXX  21034 68300 32950 01805 10192 20164 30102 40120 58010 555 91011;EQDQ01  00002PRCP99
0225683000999992000022106004-26630+015100FM-12+000099999V0201401N005112200019N0100001N1+01901+01561101321ADDAA199000091GA1001+999999999GF100991001001999999001001KA1240M+02461KA2120N+01741MA1999999101141MD1310121+9999REMSYN086AAXX  21064 68300 32960 01410 10190 20156 30114 40132 53012 333 20174 555 10246 91013;EQDQ01  00002PRCP99
0143683000999992000022109004-26630+015100FM-12+000099999V0201801N007712200019N0100001N1+02551+01571101291ADDGF101991011051004501001001MA1999999101121MD1810021+9999REMSYN076AAXX  21094 68300 42460 11815 10255 20157 30112 40129 58002 81500 555 91013;
0206683000999992000022118004-26630+015100FM-12+000099999V0201801N012912200019N0300001N1+02001+01491101201ADDAA199000091GA1001+999999999GF100991001001999999001001KA1120M+02751MA1999999101021MD1710131+9999REMSYN080AAXX  21184 68300 32980 01825 10200 20149 30102 40120 57013 333 10275 555 91011;EQDQ01  00002PRCP99
0153683000999992000022121004-26630+015100FM-12+000099999V0201801N005112200019N0300001N1+01901+01471101421ADDGA1001+999999999GF100991001001999999001001MA1999999101241MD1310221+9999REMSYN070AAXX  21214 68300 42980 01810 10190 20147 30124 40142 53022 555 91014;
0183683000999992000022200004-26630+015100FM-12+000099999V0201801N005112200019N0050001N1+01801+01361101381ADDAA199000091GA1001+999999999GF100991001001999999001001MA1999999101201MD1210041+9999REMSYN070AAXX  22004 68300 32950 01810 10180 20136 30120 40138 52004 555 91013;EQDQ01  00002PRCP99
0153683000999992000022203004-26630+015100FM-12+000099999V0201801N007712200019N0300001N1+01701+01381101331ADDGA1001+999999999GF100991001001999999001001MA1999999101151MD1210051+9999REMSYN070AAXX  22034 68300 42980 01815 10170 20138 30115 40133 52005 555 91013;
0215683000999992000022206004-26630+015100FM-12+000099999V0201401N010810006019N0200001N1+01801+01361101441ADDAA199000091GF106991061061000751001001KA1240M+02751KA2120N+01751MA1999999101261MD1310081+9999REMSYN092AAXX  22064 68300 32170 61421 10180 20136 30126 40144 53008 86600 333 20175 555 10275 91014;EQDQ01  00002PRCP99
0143683000999992000022209004-26630+015100FM-12+000099999V0201401N017012200019N0200001N1+02351+01421101381ADDGF101991011011000751001001MA1999999101211MD1810021+9999REMSYN076AAXX  22094 68300 42170 11433 10235 20142 30121 40138 58002 81100 555 91013;
0206683000999992000022212004-26630+015100FM-12+000099999V0203001N017012200019N0100001N1+02361+01311101221ADDAA199000091GA1001+999999999GF100991001001999999001001KA1120N+01851MA1999999101051MD1710161+9999REMSYN080AAXX  22124 68300 32960 03033 10236 20131 30105 40122 57016 333 20185 555 91012;EQDQ01  00002PRCP99
0153683000999992000022215004-26630+015100FM-12+000099999V0201801N017012200019N0750001N1+02251+01291101141ADDGA1001+999999999GF100991001001999999001001MA1999999100971MD1710091+9999REMSYN070AAXX  22154 68300 42989 01833 10225 20129 30097 40114 57009 555 91011;
0206683000999992000022218004-26630+015100FM-12+000099999V0201801N013412200019N0200001N1+01901+01281101301ADDAA199000091GA1001+999999999GF100991001001999999001001KA1120M+02951MA1999999101121MD1210151+9999REMSYN080AAXX  22184 68300 32970 01826 10190 20128 30112 40130 52015 333 10295 555 91013;EQDQ01  00002PRCP99
0153683000999992000022221004-26630+015100FM-12+000099999V0201801N001512200019N0300001N1+02001+01191101421ADDGA1001+999999999GF100991001001999999001001MA1999999101241MD1310151+9999REMSYN070AAXX  22214 68300 42980 01803 10200 20119 30124 40142 53015 555 91014;
0183683000999992000022300004-26630+015100FM-12+000099999V0201801N012912200019N0050001N1+01921+01201101341ADDAA199000091GA1001+999999999GF100991001001999999001001MA1999999101161MD1710081+9999REMSYN070AAXX  23004 68300 32950 01825 10192 20120 30116 40134 57008 555 91013;EQDQ01  00002PRCP99
0200683000999992000022306004-26630+015100FM-12+000099999V0201401N012912200019N0200001N1+01851+01221101211ADDAA199000091GF101991011051004501001001KA1240M+02451KA2120N+01251MD1210031+9999REMSYN092AAXX  23064 68300 32470 11425 10185 20122 3//// 40121 52003 81500 333 20125 555 10245 91012;EQDQ01  00002PRCP99
0138683000999992000022309004-26630+015100FM-12+000099999V0202301N013912200019N0200001N1+02451+01231101161ADDGA1001+999999999GF100991001001999999001001MD1810041+9999REMSYN070AAXX  23094 68300 42970 02327 10245 20123 3//// 40116 58004 555 91011;
0191683000999992000022312004-26630+015100FM-12+000099999V0202301N018012200019N0050001N1+02501+01301101001ADDAA199000091GA1001+999999999GF100991001001999999001001KA1120N+01401MD1710181+9999REMSYN080AAXX  23124 68300 32950 02335 10250 20130 3//// 40100 57018 333 20140 555 91010;EQDQ01  00002PRCP99
0153683000999992000022315004-26630+015100FM-12+000099999V0202301N015412200019N0050001N1+02401+01171100851ADDGA1001+999999999GF100991001001999999001001MA1999999100681MD1810191+9999REMSYN070AAXX  23154 68300 42950 02330 10240 20117 30068 40085 58019 555 91008;
0206683000999992000022318004-26630+015100FM-12+000099999V0201801N010312200019N0200001N1+01851+01421100951ADDAA199000091GA1001+999999999GF100991001001999999001001KA1120M+02001MA1999999100771MD1210151+9999REMSYN080AAXX  23184 68300 32970 01820 10185 20142 30077 40095 52015 333 10200 555 91009;EQDQ01  00002PRCP99
0153683000999992000022321004-26630+015100FM-12+000099999V0201801N010312200019N0050001N1+01751+01401101051ADDGA1001+999999999GF100991001001999999001001MA1999999100871MD1310111+9999REMSYN070AAXX  23214 68300 42950 01820 10175 20140 30087 40105 53011 555 91010;
0168683000999992000022400004-26630+015100FM-12+000099999V0201801N007712200019N0100001N1+01701+01351101041ADDAA199000091GA1001+999999999GF100991001001999999001001MD1810011+9999REMSYN070AAXX  24004 68300 32960 01815 10170 20135 3//// 40104 58001 555 91010;EQDQ01  00002PRCP99
0138683000999992000022403004-26630+015100FM-12+000099999V0201801N007712200019N0100001N1+01651+01291100971ADDGA1001+999999999GF100991001001999999001001MD1810071+9999REMSYN070AAXX  24034 68300 42960 01815 10165 20129 3//// 40097 58007 555 91009;
0228683000999992000022406004-26630+015100FM-12+000099999V0201401N005112200019N0050001N1+01601+01331101161ADDAA199000091AY101061AY201061GF102991021061000751001001KA1240M+02601KA2120N+01551MD1310201+9999MW1401REMSYN098AAXX  24064 68300 31150 21410 10160 20133 3//// 40116 53020 74000 82600 333 20155 555 10260 91011;EQDQ01  00002PRCP99
0143683000999992000022409004-26630+015100FM-12+000099999V0202701N003112200019N0750001N1+01901+01471101251ADDGF101991011061008001001001MA1999999101071MD1210091+9999REMSYN076AAXX  24094 68300 42589 12706 10190 20147 30107 40125 52009 81600 555 91012;
0206683000999992000022412004-26630+015100FM-12+000099999V0203601N005112200019N0200001N1+01951+01431101201ADDAA199000091GA1001+999999999GF100991001001999999001001KA1120N+01621MA1999999101021MD1810051+9999REMSYN080AAXX  24124 68300 32970 03610 10195 20143 30102 40120 58005 333 20162 555 91011;EQDQ01  00002PRCP99
0153683000999992000022415004-26630+015100FM-12+000099999V0202301N005112200019N0200001N1+02201+01531101041ADDGA1001+999999999GF100991001001999999001001MA1999999100861MD1710171+9999REMSYN070AAXX  24154 68300 42970 02310 10220 20153 30086 40104 57017 555 91010;
0206683000999992000022418004-26630+015100FM-12+000099999V0201801N003112200019N0200001N1+01901+01561101121ADDAA199000091GA1001+999999999GF100991001001999999001001KA1120M+02351MA1999999100941MD1310081+9999REMSYN080AAXX  24184 68300 32970 01806 10190 20156 30094 40112 53008 333 10235 555 91011;EQDQ01  00002PRCP99
0153683000999992000022421004-26630+015100FM-12+000099999V0201801N005112200019N0100001N1+01801+01601101331ADDGA1001+999999999GF100991001001999999001001MA1999999101151MD1310211+9999REMSYN070AAXX  24214 68300 42960 01810 10180 20160 30115 40133 53021 555 91013;
0183683000999992000022500004-26630+015100FM-12+000099999V0201801N003112200019N0050001N1+01651+01481101381ADDAA199000091GA1001+999999999GF100991001001999999001001MA1999999101201MD1210091+9999REMSYN070AAXX  25004 68300 32950 01806 10165 20148 30120 40138 52009 555 91013;EQDQ01  00002PRCP99
0173683000999992000022503004-26630+015100FM-12+000099999V0201801N003110006019N0100001N1+01701+01561101361ADDAA199000091GF108991081061000751999999MA1999999101181MD1610021+9999REMSYN076AAXX  25034 68300 32160 81806 10170 20156 30118 40136 56002 886// 555 91013;EQDQ01  00002PRCP99
0243683000999992000022506004-26630+015100FM-12+000099999V0201801N001510075019N0009001N1+01581+01441101481ADDAA199000091AY181061AY201061GF108991081061008001999999KA1240M+02351KA2120N+01551MA1999999101301MD1710221+9999MW1441REMSYN098AAXX  25064 68300 31509 81803 10158 20144 30130 40148 57022 74480 886// 333 20155 555 10235 91014;EQDQ01  00002PRCP99
0153683000999992000022509004-26630+015100FM-12+000099999V0202301N001512200019N0750001N1+01951+01531101461ADDGA1001+999999999GF100991001001999999001001MA1999999101281MD1810021+9999REMSYN070AAXX  25094 68300 42989 02303 10195 20153 30128 40146 58002 555 91014;
0206683000999992000022512004-26630+015100FM-12+000099999V0201801N003112200019N0750001N1+02451+01441101301ADDAA199000091GA1001+999999999GF100991001001999999001001KA1120N+01651MA1999999101131MD1710151+9999REMSYN080AAXX  25124 68300 32989 01806 10245 20144 30113 40130 57015 333 20165 555 91013;EQDQ01  00002PRCP99
0153683000999992000022515004-26630+015100FM-12+000099999V0201801N005112200019N0750001N1+02101+01601101051ADDGA1001+999999999GF100991001001999999001001MA1999999100871MD1710261+9999REMSYN070AAXX  25154 68300 42989 01810 10210 20160 30087 40105 57026 555 91010;
0206683000999992000022518004-26630+015100FM-12+000099999V0201801N009312200019N0100001N1+01981+01581101071ADDAA199000091GA1001+999999999GF100991001001999999001001KA1120M+02481MA1999999100891MD1310021+9999REMSYN080AAXX  25184 68300 32960 01818 10198 20158 30089 40107 53002 333 10248 555 91010;EQDQ01  00002PRCP99
0153683000999992000022521004-26630+015100FM-12+000099999V0201801N010312200019N0100001N1+01831+01591101201ADDGA1001+999999999GF100991001001999999001001MA1999999101021MD1210031+9999REMSYN070AAXX  25214 68300 42960 01820 10183 20159 30102 40120 52003 555 91011;
0183683000999992000022600004-26630+015100FM-12+000099999V0201801N009312200019N0050001N1+01811+01111101171ADDAA199000091GA1001+999999999GF100991001001999999001001MA1999999100991MD1810041+9999REMSYN070AAXX  26004 68300 32950 01818 10181 20111 30099 40117 58004 555 91011;EQDQ01  00002PRCP99
0153683000999992000022603004-26630+015100FM-12+000099999V0201801N005112200019N0050001N1+01801+01451101111ADDGA1001+999999999GF100991001001999999001001MA1999999100931MD1710061+9999REMSYN070AAXX  26034 68300 42950 01810 10180 20145 30093 40111 57006 555 91011;
0153683000999992000022609004-26630+015100FM-12+000099999V0201801N008212200019N0200001N1+02301+01461101271ADDGA1001+999999999GF100991001001999999001001MA1999999101091MD1710091+9999REMSYN070AAXX  26094 68300 42970 01816 10230 20146 30109 40127 57009 555 91012;
0206683000999992000022612004-26630+015100FM-12+000099999V0202301N010312200019N0200001N1+02401+01481101041ADDAA199000091GA1001+999999999GF100991001001999999001001KA1120N+01901MA1999999100871MD1310221+9999REMSYN080AAXX  26124 68300 32970 02320 10240 20148 30087 40104 53022 333 20190 555 91010;EQDQ01  00002PRCP99
0153683000999992000022615004-26630+015100FM-12+000099999V0202301N018512200019N0300001N1+02301+01461100841ADDGA1001+999999999GF100991001001999999001001MA1999999100671MD1210201+9999REMSYN070AAXX  26154 68300 42980 02336 10230 20146 30067 40084 52020 555 91008;
0206683000999992000022618004-26630+015100FM-12+000099999V0202301N010312200019N0100001N1+02111+01411100841ADDAA199000091GA1001+999999999GF100991001001999999001001KA1120M+02461MA1999999100661MD1810011+9999REMSYN080AAXX  26184 68300 32960 02320 10211 20141 30066 40084 58001 333 10246 555 91008;EQDQ01  00002PRCP99
0183683000999992000022621004-26630+015100FM-12+000099999V0201801N009312200019N0300001N1+02101+01211101041ADDAA199000091GA1001+999999999GF100991001001999999001001MA1999999100861MD1310231+9999REMSYN070AAXX  26214 68300 32980 01818 10210 20121 30086 40104 53023 555 91010;EQDQ01  00002PRCP99
0183683000999992000022700004-26630+015100FM-12+000099999V0201801N006212200019N0100001N1+02021+01241101051ADDAA199000091GA1001+999999999GF100991001001999999001001MA1999999100871MD1210031+9999REMSYN070AAXX  27004 68300 32960 01812 10202 20124 30087 40105 52003 555 91010;EQDQ01  00002PRCP99
0153683000999992000022703004-26630+015100FM-12+000099999V0201801N009312200019N0100001N1+01681+01271100951ADDGA1001+999999999GF100991001001999999001001MA1999999100771MD1810121+9999REMSYN070AAXX  27034 68300 42960 01818 10168 20127 30077 40095 58012 555 91009;
0225683000999992000022706004-26630+015100FM-12+000099999V0209999C000012200019N0750001N1+01701+01351101031ADDAA199000091GA1001+999999999GF100991001001999999001001KA1240M+02461KA2120N+01701MA1999999100851MD1710071+9999REMSYN086AAXX  27064 68300 32989 00000 10170 20135 30085 40103 57007 333 20170 555 10246 91010;EQDQ01  00002PRCP99
0153683000999992000022709004-26630+015100FM-12+000099999V0209999C000012200019N0750001N1+02301+01251101051ADDGA1001+999999999GF100991001001999999001001MA1999999100881MD1710041+9999REMSYN070AAXX  27094 68300 42989 00000 10230 20125 30088 40105 57004 555 91010;
0206683000999992000022712004-26630+015100FM-12+000099999V0201801N001512200019N0750001N1+02351+00721100811ADDAA199000091GA1001+999999999GF100991001001999999001001KA1120N+01801MA1999999100641MD1710241+9999REMSYN080AAXX  27124 68300 32989 01803 10235 20072 30064 40081 57024 333 20180 555 91008;EQDQ01  00002PRCP99
0153683000999992000022715004-26630+015100FM-12+000099999V0201801N005112200019N0750001N1+02151+01381100521ADDGA1001+999999999GF100991001001999999001001MA1999999100351MD1710291+9999REMSYN070AAXX  27154 68300 42989 01810 10215 20138 30035 40052 57029 555 91005;
0196683000999992000022718004-26630+015100FM-12+000099999V0201801N005112200019N0750001N1+01911+01371100601ADDAA199000091GF102991021081008001001001KA1120M+02551MA1999999100421MD1310071+9999REMSYN086AAXX  27184 68300 32589 21810 10191 20137 30042 40060 53007 82800 333 10255 555 91005;EQDQ01  00002PRCP99
0143683000999992000022721004-26630+015100FM-12+000099999V0202301N005112200019N0100001N1+01961+01291100841ADDGF102991021051000751001001MA1999999100661MD1210241+9999REMSYN076AAXX  27214 68300 42160 22310 10196 20129 30066 40084 52024 82500 555 91008;
0201683000999992000022800004-26630+015100FM-12+000099999V0203601N005112200019N0040001N1+01551+01391100881ADDAA199000091AY121061AY221061GF102991021061000751001001MA1999999100701MD1210041+9999MW1401REMSYN082AAXX  28004 68300 31140 23610 10155 20139 30070 40088 52004 74022 82600 555 91008;EQDQ01  00002PRCP99
0171683000999992000022803004-26630+015100FM-12+000099999V0203601N006212200019N0040001N1+01501+01341100941ADDAY141031AY201031GF104991041061000751001001MA1999999100761MD1210061+9999MW1401REMSYN082AAXX  28034 68300 41140 43612 10150 20134 30076 40094 52006 74040 84600 555 91009;
0243683000999992000022806004-26630+015100FM-12+000099999V0203601N001510042019N0300001N1+01531+01391101121ADDAA199000091AY141061AY201061GF108991081061004501999999KA1240M+02551KA2120N+01481MA1999999100941MD1310141+9999MW1401REMSYN098AAXX  28064 68300 31480 83603 10153 20139 30094 40112 53014 74040 886// 333 20148 555 10255 91011;EQDQ01  00002PRCP99
0171683000999992000022809004-26630+015100FM-12+000099999V0203601N003110042019N0100001N1+01741+01531101191ADDAY141031AY221031GF108991081061004501999999MA1999999101011MD1310101+9999MW1401REMSYN082AAXX  28094 68300 41460 83606 10174 20153 30101 40119 53010 74042 886// 555 91011;
0196683000999992000022812004-26630+015100FM-12+000099999V0203601N003110075019N0750001N1+01851+01511101141ADDAA199000091GF108991081061008001999999KA1120N+01551MA1999999100961MD1710071+9999REMSYN086AAXX  28124 68300 32589 83606 10185 20151 30096 40114 57007 886// 333 20155 555 91011;EQDQ01  00002PRCP99
0224683000999992000022818004-26630+015100FM-12+000099999V0202301N004112200019N0750001N1+01721+01481101241ADDAA199000091AY111061AY201061GF102991011091008001031001KA1120M+02431MA1999999101061MD1310171+9999MW1131REMSYN092AAXX  28184 68300 31589 22308 10172 20148 30106 40124 53017 71310 81930 333 10243 555 91012;EQDQ01  00002PRCP99
0153683000999992000022821004-26630+015100FM-12+000099999V0201801N001512200019N0100001N1+02301+01251101461ADDGA1001+999999999GF100991001001999999001001MA1999999101281MD1710091+9999REMSYN070AAXX  28214 68300 42960 01803 10230 20125 30128 40146 57009 555 91014;
0168683000999992000022900004-26630+015100FM-12+000099999V0201801N001512200019N0100001N1+01651+01561101431ADDAA199000091GA1001+999999999GF100991001001999999001001MD1810031+9999REMSYN070AAXX  29004 68300 32960 01803 10165 20156 3//// 40143 58003 555 91014;EQDQ01  00002PRCP99
0138683000999992000022903004-26630+015100FM-12+000099999V0201801N001512200019N0100001N1+01901+01651101341ADDGA1001+999999999GF100991001001999999001001MD1810091+9999REMSYN070AAXX  29034 68300 42960 01803 10190 20165 3//// 40134 58009 555 91013;
0200683000999992000022906004-26630+015100FM-12+000099999V0203601N001512200019N0100001N1+01651+01481101431ADDAA199000091GF101991011061000751001001KA1240M+02431KA2120N+01561MD1310091+9999REMSYN092AAXX  29064 68300 32160 13603 10165 20148 3//// 40143 53009 81600 333 20156 555 10243 91014;EQDQ01  00002PRCP99
0143683000999992000022909004-26630+015100FM-12+000099999V0201801N005112200019N0200001N1+02251+01681101461ADDGF102991021061000751001001MA1999999101281MD1210031+9999REMSYN076AAXX  29094 68300 42170 21810 10225 20168 30128 40146 52003 82600 555 91014;
0196683000999992000022912004-26630+015100FM-12+000099999V0201801N007712200019N0100001N1+02401+01671101371ADDAA199000091GF104991041051000751001001KA1120N+01601MA1999999101201MD1710081+9999REMSYN086AAXX  29124 68300 32160 41815 10240 20167 30120 40137 57008 84500 333 20160 555 91013;EQDQ01  00002PRCP99
0143683000999992000022915004-26630+015100FM-12+000099999V0201801N009312200019N0100001N1+02241+01691101391ADDGF104991041071000751001001MA1999999101221MD1310021+9999REMSYN076AAXX  29154 68300 42160 41818 10224 20169 30122 40139 53002 84700 555 91014;
0196683000999992000022918004-26630+015100FM-12+000099999V0201801N009312200019N0100001N1+01901+01621101531ADDAA199000091GF104991041051000751001001KA1120M+02511MA1999999101351MD1210131+9999REMSYN086AAXX  29184 68300 32160 41818 10190 20162 30135 40153 52013 84500 333 10251 555 91015;EQDQ01  00002PRCP99
0153683000999992000022921004-26630+015100FM-12+000099999V0201801N005112200019N0100001N1+01801+01541101331ADDGA1001+999999999GF100991001001999999001001MA1999999101151MD1310201+9999REMSYN070AAXX  29214 68300 42960 01810 10180 20154 30115 40133 53020 555 91013;
0138683000999992000030103004-26630+015100FM-12+000099999V0201801N004112200019N0100001N1+01701+01441101521ADDGA1001+999999999GF100991001001999999001001MD1810111+9999REMSYN070AAXX  01034 68300 42960 01808 10170 20144 3//// 40152 58011 555 91015;
0200683000999992000030106004-26630+015100FM-12+000099999V0201801N003112200019N0100001N1+01801+01381101611ADDAA199000091GF104991041051000751001001KA1240M+02511KA2120N+01601MD1310091+9999REMSYN092AAXX  01064 68300 32160 41806 10180 20138 3//// 40161 53009 84500 333 20160 555 10251 91016;EQDQ01  00002PRCP99
0143683000999992000030109004-26630+015100FM-12+000099999V0201801N004112200019N0100001N1+02351+01461101561ADDGF102991021051000751001001MA1999999101391MD1710041+9999REMSYN076AAXX  01094 68300 42160 21808 10235 20146 30139 40156 57004 82500 555 91015;
0206683000999992000030112004-26630+015100FM-12+000099999V0201801N015412200019N0750001N1+02351+01611101441ADDAA199000091GA1001+999999999GF100991001001999999001001KA1120N+01851MA1999999101271MD1810131+9999REMSYN080AAXX  01124 68300 32989 01830 10235 20161 30127 40144 58013 333 20185 555 91014;EQDQ01  00002PRCP99
0153683000999992000030115004-26630+015100FM-12+000099999V0201801N015412200019N0750001N1+02301+01461101321ADDGA1001+999999999GF100991001001999999001001MA1999999101151MD1710121+9999REMSYN070AAXX  01154 68300 42989 01830 10230 20146 30115 40132 57012 555 91013;
0196683000999992000030118004-26630+015100FM-12+000099999V0201801N010312200019N0100001N1+01931+01471101471ADDAA199000091GF101991011051000751081001KA1120M+02531MA1999999101291MD1310141+9999REMSYN086AAXX  01184 68300 32160 11820 10193 20147 30129 40147 53014 81580 333 10253 555 91014;EQDQ01  00002PRCP99
0153683000999992000030121004-26630+015100FM-12+000099999V0201801N005112200019N0550001N1+02001+01301101601ADDGA1001+999999999GF100991001001999999001001MA1999999101421MD1210131+9999REMSYN070AAXX  01214 68300 42985 01810 10200 20130 30142 40160 52013 555 91016;
0153683000999992000030203004-26630+015100FM-12+000099999V0201801N001512200019N0200001N1+01751+01211101381ADDGA1001+999999999GF100991001001999999001001MA1999999101201MD1810061+9999REMSYN070AAXX  02034 68300 42970 01803 10175 20121 30120 40138 58006 555 91013;
0225683000999992000030206004-26630+015100FM-12+000099999V0201801N007712200019N0200001N1+01801+01161101401ADDAA199000091GA1001+999999999GF100991001001999999001001KA1240M+02621KA2120N+01701MA1999999101221MD1210021+9999REMSYN086AAXX  02064 68300 32970 01815 10180 20116 30122 40140 52002 333 20170 555 10262 91014;EQDQ01  00002PRCP99
0153683000999992000030209004-26630+015100FM-12+000099999V0201801N007712200019N0200001N1+02351+01101101441ADDGA1001+999999999GF100991001001999999001001MA1999999101271MD1210051+9999REMSYN070AAXX  02094 68300 42970 01815 10235 20110 30127 40144 52005 555 91014;
0206683000999992000030212004-26630+015100FM-12+000099999V0201801N010312200019N0750001N1+02351+01421101361ADDAA199000091GA1001+999999999GF100991001001999999001001KA1120N+01801MA1999999101191MD1710081+9999REMSYN080AAXX  02124 68300 32989 01820 10235 20142 30119 40136 57008 333 20180 555 91013;EQDQ01  00002PRCP99
0196683000999992000030218004-26630+015100FM-12+000099999V0201801N005112200019N0750001N1+01861+01521101471ADDAA199000091GF102991011041017501081001KA1120M+02421MA1999999101291MD1310121+9999REMSYN086AAXX  02184 68300 32789 21810 10186 20152 30129 40147 53012 81480 333 10242 555 91014;EQDQ01  00002PRCP99
0153683000999992000030221004-26630+015100FM-12+000099999V0201801N001512200019N0300001N1+01801+01451101641ADDGA1001+999999999GF100991001001999999001001MA1999999101461MD1210171+9999REMSYN070AAXX  02214 68300 42980 01803 10180 20145 30146 40164 52017 555 91016;
0183683000999992000030300004-26630+015100FM-12+000099999V0201801N001512200019N0100001N1+01651+01481101541ADDAA199000091GA1001+999999999GF100991001001999999001001MA1999999101361MD1310101+9999REMSYN070AAXX  03004 68300 32960 01803 10165 20148 30136 40154 53010 555 91015;EQDQ01  00002PRCP99
0153683000999992000030303004-26630+015100FM-12+000099999V0201801N001512200019N0100001N1+01451+01361101451ADDGA1001+999999999GF100991001001999999001001MA1999999101271MD1210091+9999REMSYN070AAXX  03034 68300 42960 01803 10145 20136 30127 40145 52009 555 91014;
0215683000999992000030306004-26630+015100FM-12+000099999V0203601N001512200019N0750001N1+01601+01331101531ADDAA199000091GF103991031011999999001001KA1240M+02421KA2120N+01441MA1999999101351MD1310081+9999REMSYN092AAXX  03064 68300 32989 33603 10160 20133 30135 40153 53008 83100 333 20144 555 10242 91015;EQDQ01  00002PRCP99
0128683000999992000030309004-26630+015100FM-12+000099999V0203601N003112200019N0200001N1+02321+01341101561ADDGF102991021051004501001001MD1210021+9999REMSYN076AAXX  03094 68300 42470 23606 10232 20134 3//// 40156 52002 82500 555 91015;
0191683000999992000030312004-26630+015100FM-12+000099999V0201801N005112200019N0200001N1+02361+01411101461ADDAA199000091GA1001+999999999GF100991001001999999001001KA1120N+01601MD1310011+9999REMSYN080AAXX  03124 68300 32970 01810 10236 20141 3//// 40146 53001 333 20160 555 91014;EQDQ01  00002PRCP99
0153683000999992000030315004-26630+015100FM-12+000099999V0202301N004112200019N0750001N1+02271+01501101441ADDGA1001+999999999GF100991001001999999001001MA1999999101271MD1810021+9999REMSYN070AAXX  03154 68300 42989 02308 10227 20150 30127 40144 58002 555 91014;
0206683000999992000030318004-26630+015100FM-12+000099999V0203601N009312200019N0750001N1+01771+01481101531ADDAA199000091GA1001+999999999GF100991001001999999001001KA1120M+02421MA1999999101351MD1310081+9999REMSYN080AAXX  03184 68300 32989 03618 10177 20148 30135 40153 53008 333 10242 555 91015;EQDQ01  00002PRCP99
0153683000999992000030321004-26630+015100FM-12+000099999V0201801N001512200019N0200001N1+01851+01511101651ADDGA1001+999999999GF100991001001999999001001MA1999999101471MD1210101+9999REMSYN070AAXX  03214 68300 42970 01803 10185 20151 30147 40165 52010 555 91016;
0183683000999992000030400004-26630+015100FM-12+000099999V0209999C000012200019N0100001N1+01801+01451101531ADDAA199000091GA1001+999999999GF100991001001999999001001MA1999999101351MD1710191+9999REMSYN070AAXX  04004 68300 32960 00000 10180 20145 30135 40153 57019 555 91015;EQDQ01  00002PRCP99
0173683000999992000030403004-26630+015100FM-12+000099999V0209999C000010006019N0300001N1+01801+01541101431ADDAA199000091GF108991081061000751999999MA1999999101251MD1810121+9999REMSYN076AAXX  04034 68300 32180 80000 10180 20154 30125 40143 58012 886// 555 91014;EQDQ01  00002PRCP99
0215683000999992000030406004-26630+015100FM-12+000099999V0201801N002610075019N0750001N1+01561+01361101491ADDAA199000091GF107991071061008001999999KA1240M+02421KA2120N+01521MA1999999101311MD1310061+9999REMSYN092AAXX  04064 68300 32589 71805 10156 20136 30131 40149 53006 876// 333 20152 555 10242 91014;EQDQ01  00002PRCP99
0143683000999992000030409004-26630+015100FM-12+000099999V0202301N005112200019N0750001N1+02151+01591101701ADDGF101991011061012501001001MA1999999101531MD1210021+9999REMSYN076AAXX  04094 68300 42689 12310 10215 20159 30153 40170 52002 81600 555 91017;
0206683000999992000030412004-26630+015100FM-12+000099999V0201801N008212200019N0750001N1+02451+01441101341ADDAA199000091GA1001+999999999GF100991001001999999001001KA1120N+01801MA1999999101171MD1810151+9999REMSYN080AAXX  04124 68300 32989 01816 10245 20144 30117 40134 58015 333 20180 555 91013;EQDQ01  00002PRCP99
0153683000999992000030415004-26630+015100FM-12+000099999V0201801N008212200019N0200001N1+02351+01421101271ADDGA1001+999999999GF100991001001999999001001MA1999999101101MD1710071+9999REMSYN070AAXX  04154 68300 42970 01816 10235 20142 30110 40127 57007 555 91012;
0206683000999992000030418004-26630+015100FM-12+000099999V0201801N007712200019N0750001N1+01901+01561101371ADDAA199000091GA1001+999999999GF100991001001999999001001KA1120M+02601MA1999999101191MD1310091+9999REMSYN080AAXX  04184 68300 32989 01815 10190 20156 30119 40137 53009 333 10260 555 91013;EQDQ01  00002PRCP99
0153683000999992000030421004-26630+015100FM-12+000099999V0209999C000012200019N0100001N1+01801+01451101491ADDGA1001+999999999GF100991001001999999001001MA1999999101311MD1210011+9999REMSYN070AAXX  04214 68300 42960 00000 10180 20145 30131 40149 52001 555 91014;
0286683000999992000030503004-26630+015100FM-12+000099999V0201901N999999999999N0090001N1+99999+99999999999ADDAY141031AY221031GF107991999061000751999999MA1999999999999MD1410001+9999MW1401REMSYN082AAXX  05034 68300 41159 71993 19145 20145 39129 49145 54000 74042 886// 555 90914;EQDQ01+004783WOSPD Q02+000082SCOTLCQ03+091293APOSP Q04+091453APOSLPQ050004783WOSPD Q06 091293APOSP Q07 091453APOSLP
0275683000999992000030506004-26630+015100FM-12+000099999V0202301N003110042019N0040001N1+01521+01451101452ADDAA199000091AY141061AY221061GF108991081061004501999999KA1240M+02571KA2120N+01451MA1999999101272MD1310071+9999MW1401REMSYN098AAXX  05064 68300 31440 82306 10152 20145 30127 40145 53007 74042 886// 333 20145 555 10257 91014;EQDQ01+101273APOSP Q02+101453APOSLPQ03  00002PRCP99
0143683000999992000030509004-26630+015100FM-12+000099999V0202301N006212200019N0750001N1+01971+01421101541ADDGF101991011061008001001001MA1999999101361MD1210091+9999REMSYN076AAXX  05094 68300 42589 12312 10197 20142 30136 40154 52009 81600 555 91015;
0206683000999992000030512004-26630+015100FM-12+000099999V0202301N009312200019N0750001N1+02371+01401101441ADDAA199000091GA1001+999999999GF100991001001999999001001KA1120N+01151MA1999999101271MD1810091+9999REMSYN080AAXX  05124 68300 32989 02318 10237 20140 30127 40144 58009 333 20115 555 91014;EQDQ01  00002PRCP99
0153683000999992000030515004-26630+015100FM-12+000099999V0201801N009312200019N0100001N1+02201+01451101321ADDGA1001+999999999GF100991001001999999001001MA1999999101151MD1810121+9999REMSYN070AAXX  05154 68300 42960 01818 10220 20145 30115 40132 58012 555 91013;
0206683000999992000030518004-26630+015100FM-12+000099999V0201801N010312200019N0750001N1+02001+01491101481ADDAA199000091GA1001+999999999GF100991001001999999001001KA1120M+02521MA1999999101301MD1310141+9999REMSYN080AAXX  05184 68300 32989 01820 10200 20149 30130 40148 53014 333 10252 555 91014;EQDQ01  00002PRCP99
0153683000999992000030521004-26630+015100FM-12+000099999V0201801N003112200019N0100001N1+01831+01521101551ADDGA1001+999999999GF100991001001999999001001MA1999999101371MD1210071+9999REMSYN070AAXX  05214 68300 42960 01806 10183 20152 30137 40155 52007 555 91015;
0183683000999992000030600004-26630+015100FM-12+000099999V0201801N005112200019N0100001N1+01871+01491101501ADDAA199000091GA1001+999999999GF100991001001999999001001MA1999999101321MD1710051+9999REMSYN070AAXX  06004 68300 32960 01810 10187 20149 30132 40150 57005 555 91015;EQDQ01  00002PRCP99
0153683000999992000030603004-26630+015100FM-12+000099999V0201801N007712200019N0100001N1+01801+01451101361ADDGA1001+999999999GF100991001001999999001001MA1999999101181MD1810141+9999REMSYN070AAXX  06034 68300 42960 01815 10180 20145 30118 40136 58014 555 91013;
0215683000999992000030606004-26630+015100FM-12+000099999V0202301N006212200019N0750001N1+01811+01501101391ADDAA199000091GF102991021051012501001001KA1240M+02511KA2120N+01511MA1999999101211MD1310031+9999REMSYN092AAXX  06064 68300 32689 22312 10181 20150 30121 40139 53003 82500 333 20151 555 10251 91013;EQDQ01  00002PRCP99
0143683000999992000030609004-26630+015100FM-12+000099999V0202301N009312200019N0750001N1+02461+01371101401ADDGF102991021081012501001011MA1999999101231MD1210021+9999REMSYN076AAXX  06094 68300 42689 22318 10246 20137 30123 40140 52002 82801 555 91014;
0196683000999992000030612004-26630+015100FM-12+000099999V0202301N013412200019N0750001N1+02741+01411101271ADDAA199000091GF101991001001999999001011KA1120N+01521MA1999999101101MD1810131+9999REMSYN086AAXX  06124 68300 32989 12326 10274 20141 30110 40127 58013 80001 333 20152 555 91012;EQDQ01  00002PRCP99
0143683000999992000030615004-26630+015100FM-12+000099999V0202301N015412200019N0750001N1+02601+01511101061ADDGF101991001001999999001011MA1999999100891MD1810181+9999REMSYN076AAXX  06154 68300 42989 12330 10260 20151 30089 40106 58018 80001 555 91010;
0196683000999992000030618004-26630+015100FM-12+000099999V0201801N012912200019N0750001N1+01981+01311101181ADDAA199000091GF101991001001999999001011KA1120M+02491MA1999999101001MD1310111+9999REMSYN086AAXX  06184 68300 32989 11825 10198 20131 30100 40118 53011 80001 333 10249 555 91011;EQDQ01  00002PRCP99
0153683000999992000030621004-26630+015100FM-12+000099999V0201801N007712200019N0300001N1+01901+01471101311ADDGA1001+999999999GF100991001001999999001001MA1999999101131MD1210131+9999REMSYN070AAXX  06214 68300 42980 01815 10190 20147 30113 40131 52013 555 91013;
0183683000999992000030700004-26630+015100FM-12+000099999V0201801N008212200019N0100001N1+01701+01351101291ADDAA199000091GA1001+999999999GF100991001001999999001001MA1999999101111MD1210021+9999REMSYN070AAXX  07004 68300 32960 01816 10170 20135 30111 40129 52002 555 91012;EQDQ01  00002PRCP99
0153683000999992000030703004-26630+015100FM-12+000099999V0201801N008712200019N0100001N1+01601+01331101221ADDGA1001+999999999GF100991001001999999001001MA1999999101041MD1210071+9999REMSYN070AAXX  07034 68300 42960 01817 10160 20133 30104 40122 52007 555 91012;
0225683000999992000030706004-26630+015100FM-12+000099999V0201801N010312200019N0750001N1+01571+01261101321ADDAA199000091GA1001+999999999GF100991001001999999001001KA1240M+02491KA2120N+01401MA1999999101141MD1310101+9999REMSYN086AAXX  07064 68300 32989 01820 10157 20126 30114 40132 53010 333 20140 555 10249 91013;EQDQ01  00002PRCP99
0143683000999992000030709004-26630+015100FM-12+000099999V0201801N013412200019N0750001N1+02051+01341101371ADDGF101991011061012501001001MA1999999101191MD1210051+9999REMSYN076AAXX  07094 68300 42689 11826 10205 20134 30119 40137 52005 81600 555 91013;
0206683000999992000030712004-26630+015100FM-12+000099999V0202301N013412200019N0100001N1+02151+01571101331ADDAA199000091GA1001+999999999GF100991001001999999001001KA1120N+01431MA1999999101151MD1810041+9999REMSYN080AAXX  07124 68300 32960 02326 10215 20157 30115 40133 58004 333 20143 555 91013;EQDQ01  00002PRCP99
0153683000999992000030715004-26630+015100FM-12+000099999V0201801N007712200019N0100001N1+02101+01451101231ADDGA1001+999999999GF100991001001999999001001MA1999999101051MD1810101+9999REMSYN070AAXX  07154 68300 42960 01815 10210 20145 30105 40123 58010 555 91012;
0206683000999992000030718004-26630+015100FM-12+000099999V0201801N007712200019N0100001N1+01861+01451101271ADDAA199000091GA1001+999999999GF100991001001999999001001KA1120M+02201MA1999999101091MD1210041+9999REMSYN080AAXX  07184 68300 32960 01815 10186 20145 30109 40127 52004 333 10220 555 91012;EQDQ01  00002PRCP99
0153683000999992000030721004-26630+015100FM-12+000099999V0201801N001512200019N0300001N1+01721+01421101381ADDGA1001+999999999GF100991001001999999001001MA1999999101201MD1310111+9999REMSYN070AAXX  07214 68300 42980 01803 10172 20142 30120 40138 53011 555 91013;
0183683000999992000030800004-26630+015100FM-12+000099999V0201801N003112200019N0100001N1+01701+01351101371ADDAA199000091GA1001+999999999GF100991001001999999001001MA1999999101191MD1410001+9999REMSYN070AAXX  08004 68300 32960 01806 10170 20135 30119 40137 54000 555 91013;EQDQ01  00002PRCP99
0153683000999992000030803004-26630+015100FM-12+000099999V0201801N002612200019N0100001N1+01701+01351101231ADDGA1001+999999999GF100991001001999999001001MA1999999101051MD1710151+9999REMSYN070AAXX  08034 68300 42960 01805 10170 20135 30105 40123 57015 555 91012;
0225683000999992000030806004-26630+015100FM-12+000099999V0202301N006212200019N0100001N1+01601+01311101281ADDAA199000091GA1001+999999999GF100991001001999999001001KA1240M+02121KA2120N+01581MA1999999101101MD1310051+9999REMSYN086AAXX  08064 68300 32960 02312 10160 20131 30110 40128 53005 333 20158 555 10212 91012;EQDQ01  00002PRCP99
0143683000999992000030809004-26630+015100FM-12+000099999V0202301N008212200019N0050001N1+02201+01441101251ADDGF101991011061000751001001MA1999999101071MD1810031+9999REMSYN076AAXX  08094 68300 42150 12316 10220 20144 30107 40125 58003 81600 555 91012;
0196683000999992000030812004-26630+015100FM-12+000099999V0202301N004112200019N0750001N1+02271+01401101121ADDAA199000091GF101991011081012501001001KA1120N+01581MA1999999100951MD1710121+9999REMSYN086AAXX  08124 68300 32689 12308 10227 20140 30095 40112 57012 81800 333 20158 555 91011;EQDQ01  00002PRCP99
0153683000999992000030815004-26630+015100FM-12+000099999V0201801N005112200019N0750001N1+02191+01261101001ADDGA1001+999999999GF100991001001999999001001MA1999999100821MD1810121+9999REMSYN070AAXX  08154 68300 42989 01810 10219 20126 30082 40100 58012 555 91009;
0206683000999992000030818004-26630+015100FM-12+000099999V0201801N007712200019N0750001N1+01701+01531101071ADDAA199000091GA1001+999999999GF100991001001999999001001KA1120M+02331MA1999999100891MD1710071+9999REMSYN080AAXX  08184 68300 32989 01815 10170 20153 30089 40107 57007 333 10233 555 91010;EQDQ01  00002PRCP99
0153683000999992000030821004-26630+015100FM-12+000099999V0201801N003112200019N0100001N1+01701+01531101201ADDGA1001+999999999GF100991001001999999001001MA1999999101021MD1310131+9999REMSYN070AAXX  08214 68300 42960 01806 10170 20153 30102 40120 53013 555 91011;
0183683000999992000030900004-26630+015100FM-12+000099999V0201801N005112200019N0100001N1+01751+01401101221ADDAA199000091GA1001+999999999GF100991001001999999001001MA1999999101041MD1210021+9999REMSYN070AAXX  09004 68300 32960 01810 10175 20140 30104 40122 52002 555 91012;EQDQ01  00002PRCP99
0153683000999992000030903004-26630+015100FM-12+000099999V0201801N001512200019N0100001N1+01701+01531101161ADDGA1001+999999999GF100991001001999999001001MA1999999100981MD1710081+9999REMSYN070AAXX  09034 68300 42960 01803 10170 20153 30098 40116 57008 555 91011;
0215683000999992000030906004-26630+015100FM-12+000099999V0202301N006212200019N0750001N1+01681+01451101221ADDAA199000091GF102991021061012501001001KA1240M+02331KA2120N+01511MA1999999101041MD1310081+9999REMSYN092AAXX  09064 68300 32689 22312 10168 20145 30104 40122 53008 82600 333 20151 555 10233 91012;EQDQ01  00002PRCP99
0143683000999992000030909004-26630+015100FM-12+000099999V0202301N009312200019N0750001N1+02101+01431101261ADDGF101991011061012501001001MA1999999101081MD1210041+9999REMSYN076AAXX  09094 68300 42689 12318 10210 20143 30108 40126 52004 81600 555 91012;
0196683000999992000030912004-26630+015100FM-12+000099999V0202301N013412200019N0100001N1+02191+01461101201ADDAA199000091GF101991011061000751001001KA1120N+02141MA1999999101021MD1810061+9999REMSYN086AAXX  09124 68300 32160 12326 10219 20146 30102 40120 58006 81600 333 20214 555 91011;EQDQ01  00002PRCP99
0153683000999992000030915004-26630+015100FM-12+000099999V0201801N007712200019N0100001N1+02151+01271101091ADDGA1001+999999999GF100991001001999999001001MA1999999100911MD1810111+9999REMSYN070AAXX  09154 68300 42960 01815 10215 20127 30091 40109 58011 555 91010;
0206683000999992000030918004-26630+015100FM-12+000099999V0201801N007712200019N0300001N1+01801+01541101121ADDAA199000091GA1001+999999999GF100991001001999999001001KA1120M+02231MA1999999100941MD1210031+9999REMSYN080AAXX  09184 68300 32980 01815 10180 20154 30094 40112 52003 333 10223 555 91011;EQDQ01  00002PRCP99
0153683000999992000030921004-26630+015100FM-12+000099999V0201801N003112200019N0200001N1+01901+01471101181ADDGA1001+999999999GF100991001001999999001001MA1999999101001MD1810061+9999REMSYN070AAXX  09214 68300 42970 01806 10190 20147 30100 40118 58006 555 91011;
0183683000999992000031000004-26630+015100FM-12+000099999V0201801N008212200019N0100001N1+01801+01451101191ADDAA199000091GA1001+999999999GF100991001001999999001001MA1999999101011MD1210011+9999REMSYN070AAXX  10004 68300 32960 01816 10180 20145 30101 40119 52001 555 91011;EQDQ01  00002PRCP99
0153683000999992000031003004-26630+015100FM-12+000099999V0201801N010312200019N0100001N1+01701+01441101091ADDGA1001+999999999GF100991001001999999001001MA1999999100911MD1710101+9999REMSYN070AAXX  10034 68300 42960 01820 10170 20144 30091 40109 57010 555 91010;
0215683000999992000031006004-26630+015100FM-12+000099999V0201801N010312200019N0200001N1+01781+01361101171ADDAA199000091GF101991011061000751001001KA1240M+02231KA2120N+01681MA1999999100991MD1210081+9999REMSYN092AAXX  10064 68300 32170 11820 10178 20136 30099 40117 52008 81600 333 20168 555 10223 91011;EQDQ01  00002PRCP99
0183683000999992000031009004-26630+015100FM-12+000099999V0201801N010312200019N0200001N1+02251+01341101221ADDAA199000091GA1001+999999999GF100991001001999999001001MA1999999101041MD1310051+9999REMSYN070AAXX  10094 68300 32970 01820 10225 20134 30104 40122 53005 555 91012;EQDQ01  00002PRCP99
0206683000999992000031012004-26630+015100FM-12+000099999V0201801N007712200019N0200001N1+02381+01401101111ADDAA199000091GA1001+999999999GF100991001001999999001001KA1120N+01811MA1999999100941MD1810101+9999REMSYN080AAXX  10124 68300 32970 01815 10238 20140 30094 40111 58010 333 20181 555 91011;EQDQ01  00002PRCP99
0153683000999992000031015004-26630+015100FM-12+000099999V0201401N007712200019N0300001N1+02051+01451101051ADDGA1001+999999999GF100991001001999999001001MA1999999100871MD1710071+9999REMSYN070AAXX  10154 68300 42980 01415 10205 20145 30087 40105 57007 555 91010;
0196683000999992000031018004-26630+015100FM-12+000099999V0201401N007712200019N0100001N1+01701+01441101151ADDAA199000091GF101991011051000751001001KA1120M+02471MA1999999100971MD1310011+9999REMSYN086AAXX  10184 68300 32160 11415 10170 20144 30097 40115 53001 81500 333 10247 555 91011;EQDQ01  00002PRCP99
0143683000999992000031021004-26630+015100FM-12+000099999V0201801N008212200019N0300001N1+01621+01411101321ADDGF102991021051999999001001MA1999999101141MD1210071+9999REMSYN076AAXX  10214 68300 42980 21816 10162 20141 30114 40132 52007 82500 555 91013;
0173683000999992000031100004-26630+015100FM-12+000099999V0201801N008212200019N0050001N1+01591+01381101411ADDAA199000091GF102991021061000751001001MA1999999101231MD1210091+9999REMSYN076AAXX  11004 68300 32150 21816 10159 20138 30123 40141 52009 82600 555 91014;EQDQ01  00002PRCP99
0143683000999992000031103004-26630+015100FM-12+000099999V0202301N007212200019N0100001N1+01601+01241101401ADDGF101991011061000751001001MA1999999101221MD1810011+9999REMSYN076AAXX  11034 68300 42160 12314 10160 20124 30122 40140 58001 81600 555 91014;
0225683000999992000031106004-26630+015100FM-12+000099999V0201801N007712200019N0200001N1+01661+01401101411ADDAA199000091GA1001+999999999GF100991001001999999001001KA1240M+02511KA2120N+01451MA1999999101231MD1210011+9999REMSYN086AAXX  11064 68300 32970 01815 10166 20140 30123 40141 52001 333 20145 555 10251 91014;EQDQ01  00002PRCP99
0153683000999992000031109004-26630+015100FM-12+000099999V0201801N010312200019N0300001N1+02401+01381101401ADDGA1001+999999999GF100991001001999999001001MA1999999101231MD1410001+9999REMSYN070AAXX  11094 68300 42980 01820 10240 20138 30123 40140 54000 555 91014;
0206683000999992000031112004-26630+015100FM-12+000099999V0201801N015412200019N0200001N1+02331+01351101251ADDAA199000091GA1001+999999999GF100991001001999999001001KA1120N+01681MA1999999101081MD1810151+9999REMSYN080AAXX  11124 68300 32970 01830 10233 20135 30108 40125 58015 333 20168 555 91012;EQDQ01  00002PRCP99
0138683000999992000031115004-26630+015100FM-12+000099999V0201801N012912200019N0200001N1+02201+01441101151ADDGA1001+999999999GF100991001001999999001001MD1710091+9999REMSYN070AAXX  11154 68300 42970 01825 10220 20144 3//// 40115 57009 555 91011;
0191683000999992000031118004-26630+015100FM-12+000099999V0201801N010312200019N0150001N1+01951+01431101201ADDAA199000091GA1001+999999999GF100991001001999999001001KA1120M+02501MD1310061+9999REMSYN080AAXX  11184 68300 32965 01820 10195 20143 3//// 40120 53006 333 10250 555 91011;EQDQ01  00002PRCP99
0183683000999992000031200004-26630+015100FM-12+000099999V0201801N005112200019N0100001N1+01771+01401101351ADDAA199000091GA1001+999999999GF100991001001999999001001MA1999999101171MD1310031+9999REMSYN070AAXX  12004 68300 32960 01810 10177 20140 30117 40135 53003 555 91013;EQDQ01  00002PRCP99
0153683000999992000031203004-26630+015100FM-12+000099999V0201801N008212200019N0300001N1+01651+01351101251ADDGA1001+999999999GF100991001001999999001001MA1999999101071MD1810101+9999REMSYN070AAXX  12034 68300 42980 01816 10165 20135 30107 40125 58010 555 91012;
0215683000999992000031206004-26630+015100FM-12+000099999V0201801N005112200019N0300001N1+01681+01341101351ADDAA199000091GF101991011061001501001001KA1240M+02501KA2120N+01651MA1999999101171MD1310101+9999REMSYN092AAXX  12064 68300 32280 11810 10168 20134 30117 40135 53010 81600 333 20165 555 10250 91013;EQDQ01  00002PRCP99
0143683000999992000031209004-26630+015100FM-12+000099999V0201801N006212200019N0200001N1+02361+01411101331ADDGF101991011011000751001001MA1999999101161MD1610011+9999REMSYN076AAXX  12094 68300 42170 11812 10236 20141 30116 40133 56001 81100 555 91013;
0196683000999992000031212004-26630+015100FM-12+000099999V0201801N012912200019N0100001N1+02251+01491101221ADDAA199000091GF102991021011000751001001KA1120N+01701MA1999999101041MD1810121+9999REMSYN086AAXX  12124 68300 32160 21825 10225 20149 30104 40122 58012 82100 333 20170 555 91012;EQDQ01  00002PRCP99
0143683000999992000031215004-26630+015100FM-12+000099999V0201801N012912200019N0200001N1+02101+01511101121ADDGF102991021011017501001001MA1999999100941MD1710041+9999REMSYN076AAXX  12154 68300 42770 21825 10210 20151 30094 40112 57004 82100 555 91011;
0206683000999992000031218004-26630+015100FM-12+000099999V0201401N007712200019N0100001N1+01801+01381101291ADDAA199000091GA1001+999999999GF100991001001999999001001KA1120M+02501MA1999999101111MD1310121+9999REMSYN080AAXX  12184 68300 32960 01415 10180 20138 30111 40129 53012 333 10250 555 91012;EQDQ01  00002PRCP99
0153683000999992000031221004-26630+015100FM-12+000099999V0201301N008212200019N0100001N1+01971+01181101361ADDGA1001+999999999GF100991001001999999001001MA1999999101181MD1210071+9999REMSYN070AAXX  12214 68300 42960 01316 10197 20118 30118 40136 52007 555 91013;
0183683000999992000031303004-26630+015100FM-12+000099999V0201801N009312200019N0100001N1+01751+01101101191ADDAA199000091GA1001+999999999GF100991001001999999001001MA1999999101011MD1710081+9999REMSYN070AAXX  13034 68300 32960 01818 10175 20110 30101 40119 57008 555 91011;EQDQ01  00002PRCP99
0225683000999992000031306004-26630+015100FM-12+000099999V0201801N005112200019N0100001N1+01711+01181101301ADDAA199000091GA1001+999999999GF100991001001999999001001KA1240M+02551KA2120N+01611MA1999999101121MD1310111+9999REMSYN086AAXX  13064 68300 32960 01810 10171 20118 30112 40130 53011 333 20161 555 10255 91013;EQDQ01  00002PRCP99
0153683000999992000031309004-26630+015100FM-12+000099999V0201801N007712200019N0200001N1+02261+01491101301ADDGA1001+999999999GF100991001001999999001001MA1999999101121MD1410001+9999REMSYN070AAXX  13094 68300 42970 01815 10226 20149 30112 40130 54000 555 91013;
0206683000999992000031312004-26630+015100FM-12+000099999V0201801N010312200019N0100001N1+01901+01531101271ADDAA199000091GA1001+999999999GF100991001001999999001001KA1120N+01711MA1999999101091MD1810031+9999REMSYN080AAXX  13124 68300 32960 01820 10190 20153 30109 40127 58003 333 20171 555 91012;EQDQ01  00002PRCP99
0153683000999992000031315004-26630+015100FM-12+000099999V0201801N011312200019N0100001N1+02351+01211101251ADDGA1001+999999999GF100991001001999999001001MA1999999101081MD1810011+9999REMSYN070AAXX  13154 68300 42960 01822 10235 20121 30108 40125 58001 555 91012;
0206683000999992000031318004-26630+015100FM-12+000099999V0201401N007712200019N0300001N1+01951+01021101371ADDAA199000091GA1001+999999999GF100991001001999999001001KA1120M+02501MA1999999101191MD1310111+9999REMSYN080AAXX  13184 68300 32980 01415 10195 20102 30119 40137 53011 333 10250 555 91013;EQDQ01  00002PRCP99
0153683000999992000031321004-26630+015100FM-12+000099999V0201801N008212200019N0300001N1+01771+01211101441ADDGA1001+999999999GF100991001001999999001001MA1999999101261MD1210071+9999REMSYN070AAXX  13214 68300 42980 01816 10177 20121 30126 40144 52007 555 91014;
0153683000999992000031403004-26630+015100FM-12+000099999V0201801N004112200019N0050001N1+01521+01001101191ADDGA1001+999999999GF100991001001999999001001MA1999999101011MD1710121+9999REMSYN070AAXX  14034 68300 42950 01808 10152 20100 30101 40119 57012 555 91011;
0225683000999992000031406004-26630+015100FM-12+000099999V0201801N003112200019N0200001N1+01561+01071101271ADDAA199000091GA1001+999999999GF100991001001999999001001KA1240M+02531KA2120N+01491MA1999999101091MD1210081+9999REMSYN086AAXX  14064 68300 32970 01806 10156 20107 30109 40127 52008 333 20149 555 10253 91012;EQDQ01  00002PRCP99
0153683000999992000031409004-26630+015100FM-12+000099999V0201801N005112200019N0200001N1+02231+00981101241ADDGA1001+999999999GF100991001001999999001001MA1999999101061MD1710031+9999REMSYN070AAXX  14094 68300 42970 01810 10223 20098 30106 40124 57003 555 91012;
0206683000999992000031412004-26630+015100FM-12+000099999V0201801N010312200019N0200001N1+02331+00981101031ADDAA199000091GA1001+999999999GF100991001001999999001001KA1120N+01591MA1999999100861MD1810171+9999REMSYN080AAXX  14124 68300 32970 01820 10233 20098 30086 40103 58017 333 20159 555 91010;EQDQ01  00002PRCP99
0153683000999992000031415004-26630+015100FM-12+000099999V0201801N010312200019N0200001N1+02101+01101101021ADDGA1001+999999999GF100991001001999999001001MA1999999100841MD1710021+9999REMSYN070AAXX  14154 68300 42970 01820 10210 20110 30084 40102 57002 555 91010;
0206683000999992000031418004-26630+015100FM-12+000099999V0201801N007712200019N0100001N1+01851+01321101191ADDAA199000091GA1001+999999999GF100991001001999999001001KA1120M+02401MA1999999101011MD1310181+9999REMSYN080AAXX  14184 68300 32960 01815 10185 20132 30101 40119 53018 333 10240 555 91011;EQDQ01  00002PRCP99
0153683000999992000031421004-26630+015100FM-12+000099999V0201801N006212200019N0200001N1+01701+01271101291ADDGA1001+999999999GF100991001001999999001001MA1999999101111MD1210101+9999REMSYN070AAXX  14214 68300 42970 01812 10170 20127 30111 40129 52010 555 91012;
0168683000999992000031500004-26630+015100FM-12+000099999V0201801N004112200019N0100001N1+01601+01051101151ADDAA199000091GA1001+999999999GF100991001001999999001001MD1810141+9999REMSYN070AAXX  15004 68300 32960 01808 10160 20105 3//// 40115 58014 555 91011;EQDQ01  00002PRCP99
0153683000999992000031503004-26630+015100FM-12+000099999V0201901N002112200019N0100001N1+01551+01101101011ADDGA1001+999999999GF100991001001999999001001MA1999999100831MD1710141+9999REMSYN070AAXX  15034 68300 42960 01904 10155 20110 30083 40101 57014 555 91010;
0215683000999992000031506004-26630+015100FM-12+000099999V0201801N005112200019N0750001N1+01601+01221101151ADDAA199000091GF101991011051012501001001KA1240M+02501KA2120N+01551MA1999999100971MD1310101+9999REMSYN092AAXX  15064 68300 32689 11810 10160 20122 30097 40115 53010 81500 333 20155 555 10250 91011;EQDQ01  00002PRCP99
0153683000999992000031509004-26630+015100FM-12+000099999V0201801N006212200019N0200001N1+02411+01041101161ADDGA1001+999999999GF100991001001999999001001MA1999999100991MD1210021+9999REMSYN070AAXX  15094 68300 42970 01812 10241 20104 30099 40116 52002 555 91011;
0206683000999992000031512004-26630+015100FM-12+000099999V0201801N010312200019N0750001N1+02121+01301101041ADDAA199000091GA1001+999999999GF100991001001999999001001KA1120N+01621MA1999999100861MD1810131+9999REMSYN080AAXX  15124 68300 32989 01820 10212 20130 30086 40104 58013 333 20162 555 91010;EQDQ01  00002PRCP99
0153683000999992000031515004-26630+015100FM-12+000099999V0202301N015412200019N0750001N1+01951+01341100961ADDGA1001+999999999GF100991001001999999001001MA1999999100781MD1710071+9999REMSYN070AAXX  15154 68300 42989 02330 10195 20134 30078 40096 57007 555 91009;
0206683000999992000031518004-26630+015100FM-12+000099999V0202301N007712200019N0750001N1+01701+01351101081ADDAA199000091GA1001+999999999GF100991001001999999001001KA1120M+02201MA1999999100901MD1310101+9999REMSYN080AAXX  15184 68300 32989 02315 10170 20135 30090 40108 53010 333 10220 555 91010;EQDQ01  00002PRCP99
0153683000999992000031521004-26630+015100FM-12+000099999V0202301N006212200019N0100001N1+01651+01231101291ADDGA1001+999999999GF100991001001999999001001MA1999999101111MD1210211+9999REMSYN070AAXX  15214 68300 42960 02312 10165 20123 30111 40129 52021 555 91012;
0168683000999992000031600004-26630+015100FM-12+000099999V0202301N005112200019N0100001N1+01651+01091101291ADDAA199000091GA1001+999999999GF100991001001999999001001MD1410001+9999REMSYN070AAXX  16004 68300 32960 02310 10165 20109 3//// 40129 54000 555 91012;EQDQ01  00002PRCP99
0138683000999992000031603004-26630+015100FM-12+000099999V0201801N007212200019N0100001N1+01521+01111101251ADDGA1001+999999999GF100991001001999999001001MD1610041+9999REMSYN070AAXX  16034 68300 42960 01814 10152 20111 3//// 40125 56004 555 91012;
0210683000999992000031606004-26630+015100FM-12+000099999V0201801N003112200019N0200001N1+01661+01101101391ADDAA199000091GA1001+999999999GF100991001001999999001001KA1240M+02251KA2120N+01551MD1310141+9999REMSYN086AAXX  16064 68300 32970 01806 10166 20110 3//// 40139 53014 333 20155 555 10225 91013;EQDQ01  00002PRCP99
0153683000999992000031609004-26630+015100FM-12+000099999V0201801N010312200019N0750001N1+02241+00971101431ADDGA1001+999999999GF100991001001999999001001MA1999999101251MD1210031+9999REMSYN070AAXX  16094 68300 42989 01820 10224 20097 30125 40143 52003 555 91014;
0206683000999992000031612004-26630+015100FM-12+000099999V0201801N010312200019N0750001N1+02301+01141101341ADDAA199000091GA1001+999999999GF100991001001999999001001KA1120N+01701MA1999999101161MD1710081+9999REMSYN080AAXX  16124 68300 32989 01820 10230 20114 30116 40134 57008 333 20170 555 91013;EQDQ01  00002PRCP99
0153683000999992000031615004-26630+015100FM-12+000099999V0201801N010312200019N0200001N1+02151+01171101321ADDGA1001+999999999GF100991001001999999001001MA1999999101141MD1810021+9999REMSYN070AAXX  16154 68300 42970 01820 10215 20117 30114 40132 58002 555 91013;
0206683000999992000031618004-26630+015100FM-12+000099999V0201801N007712200019N0100001N1+01801+01361101471ADDAA199000091GA1001+999999999GF100991001001999999001001KA1120M+02351MA1999999101291MD1310151+9999REMSYN080AAXX  16184 68300 32960 01815 10180 20136 30129 40147 53015 333 10235 555 91014;EQDQ01  00002PRCP99
0153683000999992000031621004-26630+015100FM-12+000099999V0201801N006212200019N0200001N1+01701+01271101661ADDGA1001+999999999GF100991001001999999001001MA1999999101481MD1210191+9999REMSYN070AAXX  16214 68300 42970 01812 10170 20127 30148 40166 52019 555 91016;
0183683000999992000031700004-26630+015100FM-12+000099999V0201801N004112200019N0100001N1+01691+01261101631ADDAA199000091GA1001+999999999GF100991001001999999001001MA1999999101451MD1810031+9999REMSYN070AAXX  17004 68300 32960 01808 10169 20126 30145 40163 58003 555 91016;EQDQ01  00002PRCP99
0183683000999992000031703004-26630+015100FM-12+000099999V0201801N004112200019N0100001N1+01471+01151101531ADDAA199000091GA1001+999999999GF100991001001999999001001MA1999999101351MD1210101+9999REMSYN070AAXX  17034 68300 32960 01808 10147 20115 30135 40153 52010 555 91015;EQDQ01  00002PRCP99
0225683000999992000031706004-26630+015100FM-12+000099999V0201801N005112200019N0750001N1+01651+01091101531ADDAA199000091GA1001+999999999GF100991001001999999001001KA1240M+02351KA2120N+01571MA1999999101351MD1410001+9999REMSYN086AAXX  17064 68300 32989 01810 10165 20109 30135 40153 54000 333 20157 555 10235 91015;EQDQ01  00002PRCP99
0153683000999992000031709004-26630+015100FM-12+000099999V0201401N007712200019N0750001N1+02251+00961101571ADDGA1001+999999999GF100991001001999999001001MA1999999101391MD1310051+9999REMSYN070AAXX  17094 68300 42989 01415 10225 20096 30139 40157 53005 555 91015;
0206683000999992000031712004-26630+015100FM-12+000099999V0201801N013912200019N0200001N1+02351+01101101391ADDAA199000091GA1001+999999999GF100991001001999999001001KA1120N+01651MA1999999101221MD1810171+9999REMSYN080AAXX  17124 68300 32970 01827 10235 20110 30122 40139 58017 333 20165 555 91014;EQDQ01  00002PRCP99
0153683000999992000031715004-26630+015100FM-12+000099999V0201801N010312200019N0200001N1+02301+01031101211ADDGA1001+999999999GF100991001001999999001001MA1999999101041MD1710181+9999REMSYN070AAXX  17154 68300 42970 01820 10230 20103 30104 40121 57018 555 91012;
0168683000999992000031800004-26630+015100FM-12+000099999V0201801N007712200019N0200001N1+01791+01191101451ADDAA199000091GA1001+999999999GF100991001001999999001001MD1710031+9999REMSYN070AAXX  18004 68300 32970 01815 10179 20119 3//// 40145 57003 555 91014;EQDQ01  00002PRCP99
0138683000999992000031803004-26630+015100FM-12+000099999V0201801N001512200019N0200001N1+01451+01211101201ADDGA1001+999999999GF100991001001999999001001MD1810101+9999REMSYN070AAXX  18034 68300 42970 01803 10145 20121 3//// 40120 58010 555 91011;
0210683000999992000031806004-26630+015100FM-12+000099999V0201401N003112200019N0200001N1+01451+01111101311ADDAA199000091GA1001+999999999GF100991001001999999001001KA1240M+02501KA2120N+01401MD1310101+9999REMSYN086AAXX  18064 68300 32970 01406 10145 20111 3//// 40131 53010 333 20140 555 10250 91013;EQDQ01  00002PRCP99
0153683000999992000031809004-26630+015100FM-12+000099999V0202301N007712200019N0300001N1+02151+01171101291ADDGA1001+999999999GF100991001001999999001001MA1999999101111MD1810031+9999REMSYN070AAXX  18094 68300 42980 02315 10215 20117 30111 40129 58003 555 91012;
0206683000999992000031818004-26630+015100FM-12+000099999V0201801N008212200019N0200001N1+01801+01451101011ADDAA199000091GA1001+999999999GF100991001001999999001001KA1120M+02501MA1999999100831MD1210101+9999REMSYN080AAXX  18184 68300 32970 01816 10180 20145 30083 40101 52010 333 10250 555 91010;EQDQ01  00002PRCP99
0153683000999992000031821004-26630+015100FM-12+000099999V0201801N005112200019N0050001N1+01651+01311101251ADDGA1001+999999999GF100991001001999999001001MA1999999101071MD1310111+9999REMSYN070AAXX  18214 68300 42950 01810 10165 20131 30107 40125 53011 555 91012;
0168683000999992000031900004-26630+015100FM-12+000099999V0201801N005112200019N0200001N1+01651+01311101251ADDAA199000091GA1001+999999999GF100991001001999999001001MD1310111+9999REMSYN070AAXX  19004 68300 32970 01810 10165 20131 3//// 40125 53011 555 91012;EQDQ01  00002PRCP99
0138683000999992000031903004-26630+015100FM-12+000099999V0201801N005112200019N0200001N1+01651+01191101161ADDGA1001+999999999GF100991001001999999001001MD1610091+9999REMSYN070AAXX  19034 68300 42970 01810 10165 20119 3//// 40116 56009 555 91011;
0210683000999992000031906004-26630+015100FM-12+000099999V0201801N005112200019N0200001N1+01551+01221101291ADDAA199000091GA1001+999999999GF100991001001999999001001KA1240M+02501KA2120N+01521MD1310111+9999REMSYN086AAXX  19064 68300 32970 01810 10155 20122 3//// 40129 53011 333 20152 555 10250 91012;EQDQ01  00002PRCP99
0138683000999992000031909004-26630+015100FM-12+000099999V0201801N007712200019N0200001N1+01951+01531101261ADDGA1001+999999999GF100991001001999999001001MD1810021+9999REMSYN070AAXX  19094 68300 42970 01815 10195 20153 3//// 40126 58002 555 91012;
0153683000999992000031915004-26630+015100FM-12+000099999V0201801N008212200019N0200001N1+02401+01281100911ADDGA1001+999999999GF100991001001999999001001MA1999999100741MD1810121+9999REMSYN070AAXX  19154 68300 42970 01816 10240 20128 30074 40091 58012 555 91009;
0206683000999992000031918004-26630+015100FM-12+000099999V0201801N005112200019N0200001N1+01801+01301101021ADDAA199000091GA1001+999999999GF100991001001999999001001KA1120M+02701MA1999999100841MD1210101+9999REMSYN080AAXX  19184 68300 32970 01810 10180 20130 30084 40102 52010 333 10270 555 91010;EQDQ01  00002PRCP99
0168683000999992000032000004-26630+015100FM-12+000099999V0201801N003112200019N0100001N1+01651+01191101061ADDAA199000091GA1001+999999999GF100991001001999999001001MD1710051+9999REMSYN070AAXX  20004 68300 32960 01806 10165 20119 3//// 40106 57005 555 91010;EQDQ01  00002PRCP99
0138683000999992000032003004-26630+015100FM-12+000099999V0201801N003112200019N0200001N1+01561+01111100941ADDGA1001+999999999GF100991001001999999001001MD1810121+9999REMSYN070AAXX  20034 68300 42970 01806 10156 20111 3//// 40094 58012 555 91009;
0210683000999992000032006004-26630+015100FM-12+000099999V0202301N003112200019N0750001N1+01621+01221101011ADDAA199000091GA1001+999999999GF100991001001999999001001KA1240M+02651KA2120N+01551MD1310061+9999REMSYN086AAXX  20064 68300 32989 02306 10162 20122 3//// 40101 53006 333 20155 555 10265 91010;EQDQ01  00002PRCP99
0153683000999992000032009004-26630+015100FM-12+000099999V0202301N005112200019N0100001N1+02451+01231100961ADDGA1001+999999999GF100991001001999999001001MA1999999100791MD1810031+9999REMSYN070AAXX  20094 68300 42960 02310 10245 20123 30079 40096 58003 555 91009;
0206683000999992000032012004-26630+015100FM-12+000099999V0203601N003112200019N0200001N1+01901+01281100901ADDAA199000091GA1001+999999999GF100991001001999999001001KA1120N+01651MA1999999100721MD1810091+9999REMSYN080AAXX  20124 68300 32970 03606 10190 20128 30072 40090 58009 333 20165 555 91008;EQDQ01  00002PRCP99
0153683000999992000032015004-26630+015100FM-12+000099999V0203601N003112200019N0300001N1+02051+01361100771ADDGA1001+999999999GF100991001001999999001001MA1999999100591MD1710181+9999REMSYN070AAXX  20154 68300 42980 03606 10205 20136 30059 40077 57018 555 91007;
0206683000999992000032018004-26630+015100FM-12+000099999V0203601N002112200019N0300001N1+01701+01351100851ADDAA199000091GA1001+999999999GF100991001001999999001001KA1120M+02801MA1999999100671MD1210081+9999REMSYN080AAXX  20184 68300 32980 03604 10170 20135 30067 40085 52008 333 10280 555 91008;EQDQ01  00002PRCP99
0183683000999992000032100004-26630+015100FM-12+000099999V0203601N001512200019N0050001N1+01491+01231100971ADDAA199000091GA1001+999999999GF100991001001999999001001MA1999999100791MD1210021+9999REMSYN070AAXX  21004 68300 32950 03603 10149 20123 30079 40097 52002 555 91009;EQDQ01  00002PRCP99
0171683000999992000032103004-26630+015100FM-12+000099999V0203601N001512200019N0050001N1+01501+01231100851ADDAY141031AY201031GF101991011051999999001001MA1999999100671MD1810101+9999MW1401REMSYN082AAXX  21034 68300 41950 13603 10150 20123 30067 40085 58010 74040 81500 555 91008;
0243683000999992000032106004-26630+015100FM-12+000099999V0202301N003112200019N0050001N1+01461+01261101051ADDAA199000091AY121061AY221061GF101991011051999999001001KA1240M+02801KA2120N+01451MA1999999100871MD1310201+9999MW1401REMSYN098AAXX  21064 68300 31950 12306 10146 20126 30087 40105 53020 74022 81500 333 20145 555 10280 91010;EQDQ01  00002PRCP99
0171683000999992000032109004-26630+015100FM-12+000099999V0203201N003110042019N0040001N1+01401+01311101271ADDAY121031AY221031GF108991081061004501999999MA1999999101091MD1210221+9999MW1401REMSYN082AAXX  21094 68300 41440 83206 10140 20131 30109 40127 52022 74022 886// 555 91012;
0224683000999992000032112004-26630+015100FM-12+000099999V0203201N003112200019N0100001N1+01601+01421101171ADDAA199000091AY141061AY221061GF102991021051017501001001KA1120N+01351MA1999999100991MD1810011+9999MW1401REMSYN092AAXX  21124 68300 31760 23206 10160 20142 30099 40117 58001 74042 82500 333 20135 555 91011;EQDQ01  00002PRCP99
0153683000999992000032115004-26630+015100FM-12+000099999V0209999C000012200019N0750001N1+01551+01281101041ADDGA1001+999999999GF100991001001999999001001MA1999999100861MD1710131+9999REMSYN070AAXX  21154 68300 42989 00000 10155 20128 30086 40104 57013 555 91010;
0206683000999992000032118004-26630+015100FM-12+000099999V0203601N001512200019N0750001N1+01651+01481101061ADDAA199000091GA1001+999999999GF100991001001999999001001KA1120M+02201MA1999999100881MD1210041+9999REMSYN080AAXX  21184 68300 32989 03603 10165 20148 30088 40106 52004 333 10220 555 91010;EQDQ01  00002PRCP99
0153683000999992000032121004-26630+015100FM-12+000099999V0201801N003112200019N0050001N1+01761+01481101111ADDGA1001+999999999GF100991001001999999001001MA1999999100931MD1210051+9999REMSYN070AAXX  21214 68300 42950 01806 10176 20148 30093 40111 52005 555 91011;
0183683000999992000032200004-26630+015100FM-12+000099999V0201801N003112200019N0050001N1+01741+01411101081ADDAA199000091GA1001+999999999GF100991001001999999001001MA1999999100901MD1710031+9999REMSYN070AAXX  22004 68300 32950 01806 10174 20141 30090 40108 57003 555 91010;EQDQ01  00002PRCP99
0183683000999992000032203004-26630+015100FM-12+000099999V0201801N003112200019N0050001N1+01601+01331101091ADDAA199000091GA1001+999999999GF100991001001999999001001MA1999999100911MD1210011+9999REMSYN070AAXX  22034 68300 32950 01806 10160 20133 30091 40109 52001 555 91010;EQDQ01  00002PRCP99
0243683000999992000032206004-26630+015100FM-12+000099999V0203601N003112200019N0100001N1+01401+01311101281ADDAA199000091AY101061AY201061GF103991031061008001001001KA1240M+02201KA2120N+01401MA1999999101101MD1310201+9999MW1401REMSYN098AAXX  22064 68300 31560 33606 10140 20131 30110 40128 53020 74000 83600 333 20140 555 10220 91012;EQDQ01  00002PRCP99
0143683000999992000032209004-26630+015100FM-12+000099999V0203201N003112200019N0200001N1+01651+01391101351ADDGF104991041021000751001001MA1999999101171MD1210061+9999REMSYN076AAXX  22094 68300 42170 43206 10165 20139 30117 40135 52006 84200 555 91013;
0171683000999992000032212004-26630+015100FM-12+000099999V0203601N003112200019N0200001N1+01951+01431999999ADDAA199000091GF101991011021999999001001KA1999N+01401MD1810141+9999REMSYN076AAXX  22124 68300 32970 13606 10195 20143 3//// 4//// 58014 81200 333 20140;EQDQ01  00002PRCP99
0188683000999992000032215004-26630+015100FM-12+000099999V0203601N001512200019N0200001N1+02351+01321100402ADDGA1001+999999999GF100991001001999999001001MA1999999100232MD1710291+9999REMSYN070AAXX  22154 68300 42970 03603 10235 20132 30023 40040 57029 555 91004;EQDQ01+100233APOSP Q02+100403APOSLP
0206683000999992000032218004-26630+015100FM-12+000099999V0203601N001512200019N0200001N1+02001+01301100921ADDAA199000091GA1001+999999999GF100991001001999999001001KA1120M+02201MA1999999100741MD1710011+9999REMSYN080AAXX  22184 68300 32970 03603 10200 20130 30074 40092 57001 333 10220 555 91009;EQDQ01  00002PRCP99
0153683000999992000032221004-26630+015100FM-12+000099999V0203601N001512200019N0100001N1+01721+01421101071ADDGA1001+999999999GF100991001001999999001001MA1999999100891MD1310151+9999REMSYN070AAXX  22214 68300 42960 03603 10172 20142 30089 40107 53015 555 91010;
0173683000999992000032300004-26630+015100FM-12+000099999V0203601N001510006019N0050001N1+01901+01321101091ADDAA199000091GF106991061061000751001001MA1999999100911MD1210021+9999REMSYN076AAXX  23004 68300 32150 63603 10190 20132 30091 40109 52002 86600 555 91010;EQDQ01  00002PRCP99
0189683000999992000032303004-26630+015100FM-12+000099999V0203601N003112200019N0050001N1+01601+01331101131ADDAA199000091GF103991999061000751001001MA1999999100951MD1210041+9999REMSYN076AAXX  23034 68300 32150 33606 10160 20133 30095 40113 52004 86600 555 91011;EQDQ01+000062SCOTLCQ02  00002PRCP99
0215683000999992000032306004-26630+015100FM-12+000099999V0203601N003110075019N0750001N1+01701+01441101251ADDAA199000091GF105991051051008001001001KA1240M+02201KA2120N+01601MA1999999101071MD1210131+9999REMSYN092AAXX  23064 68300 32589 53606 10170 20144 30107 40125 52013 85500 333 20160 555 10220 91012;EQDQ01  00002PRCP99
0143683000999992000032309004-26630+015100FM-12+000099999V0203601N003110075019N0750001N1+01901+01561101331ADDGF105991051051008001001001MA1999999101151MD1210081+9999REMSYN076AAXX  23094 68300 42589 53606 10190 20156 30115 40133 52008 85500 555 91013;
0196683000999992000032312004-26630+015100FM-12+000099999V0200501N003110006019N0200001N1+01951+01531101181ADDAA199000091GF107991071071000751999999KA1120N+01701MA1999999101001MD1810151+9999REMSYN086AAXX  23124 68300 32170 70506 10195 20153 30100 40118 58015 877// 333 20170 555 91011;EQDQ01  00002PRCP99
0171683000999992000032315004-26630+015100FM-12+000099999V0209999C000010360019N0300001N1+02401+02251101101ADDAY121031AY221031GF108991041061000751021999MA1999999100931MD1710071+9999MW1601REMSYN082AAXX  23154 68300 41180 80000 10240 20225 30093 40110 57007 76022 8462/ 555 91011;
0187683000999992000032318004-26630+015100FM-12+000099999V0209999C000012200019N0200001N1+02701+02181101101ADDAA199000021GA1001+999999999GF100991001001999999001001KA1120M+02751MA1999999100931MD1410001+9999REMSYN080AAXX  23184 68300 32970 00000 10270 20218 30093 40110 54000 333 10275 555 91011;
0143683000999992000032321004-26630+015100FM-12+000099999V0203601N003119999999N0300001N1+02751+02071101161ADDGF108991081001999999071999MA1999999100991MD1210061+9999REMSYN076AAXX  23214 68300 42980 83606 10275 20207 30099 40116 52006 8807/ 555 91011;
0171683000999992000032400004-26630+015100FM-12+000099999V0203601N003119999999N0050001N1+02701+01931101041ADDAY101061AY231061GF108991081001000751071999MA1999999100871MD1810111+9999MW1601REMSYN082AAXX  24004 68300 11150 83606 10270 20193 30087 40104 58011 76003 8807/ 555 91010;
0143683000999992000032403004-26630+015100FM-12+000099999V0201801N005110006019N0050001N1+02101+01601101041ADDGF108991081071000751999999MA1999999100861MD1410001+9999REMSYN076AAXX  24034 68300 42150 81810 10210 20160 30086 40104 54000 887// 555 91010;
0196683000999992000032406004-26630+015100FM-12+000099999V0200901N001510006019N0200001N1+02451+02071101121ADDAA199000021GF108991081071000751999999KA1240M+02901KA2120N+01801MA1999999100951MD1210091+9999REMSYN092AAXX  24064 68300 32170 80903 10245 20207 30095 40112 52009 887// 333 20180 555 10290 91011;
0143683000999992000032409004-26630+015100FM-12+000099999V0203601N001510006019N0200001N1+01901+01651101341ADDGF108991081061000751999999MA1999999101161MD1310291+9999REMSYN076AAXX  24094 68300 42170 83603 10190 20165 30116 40134 53029 886// 555 91013;
0177683000999992000032412004-26630+015100FM-12+000099999V0209999C000010042019N0750001N1+01951+01621101411ADDAA199000021GF108991081061004501999999KA1120N+01701MA1999999101241MD1210081+9999REMSYN086AAXX  24124 68300 32489 80000 10195 20162 30124 40141 52008 886// 333 20170 555 91014;
0191683000999992000032415004-26630+015100FM-12+000099999V0209999C000010042019N0300001N1+02201+01801999999ADDAY161031AY221031GF108991061051004501031001MD1710151+9999MW1601REMSYN082AAXX  24154 68300 41480 80000 10220 20180 30190 40207 57015 76062 86530 555 91020;EQDQ01+101903APOSP Q02+102073APOSLP
0177683000999992000032418004-26630+015100FM-12+000099999V0200501N003110042019N0300001N1+02101+01731101321ADDAA199000021GF108991081061004501999999KA1120M+02901MA1999999101151MD1310061+9999REMSYN086AAXX  24184 68300 32480 80506 10210 20173 30115 40132 53006 886// 333 10290 555 91013;
0143683000999992000032421004-26630+015100FM-12+000099999V0200501N003110012019N0100001N1+01901+01701101381ADDGF108991081051001501999999MA1999999101201MD1210051+9999REMSYN076AAXX  24214 68300 42260 80506 10190 20170 30120 40138 52005 885// 555 91013;
0139683000999992000032500004-26630+015100FM-12+000099999V0201801N005110006019N0100001N1+01921+01491101361ADDAA199000021GF108991081051000751999999MD1810021+9999REMSYN076AAXX  25004 68300 32160 81810 10192 20149 3//// 40136 58002 885// 555 91013;
0128683000999992000032503004-26630+015100FM-12+000099999V0201801N005110006019N0100001N1+01851+01451101261ADDGF108991081051000751999999MD1710101+9999REMSYN076AAXX  25034 68300 42160 81810 10185 20145 3//// 40126 57010 885// 555 91012;
0193683000999992000032506004-26630+015100FM-12+000099999V0201801N001510006019N0100001N1+01851+01511101291ADDAA124000191GF108991061051000751081999KA1240M+02901KA2120N+01751MD1210031+9999REMSYN104AAXX  25064 68300 12160 81803 10185 20151 3//// 40129 52003 69914 8658/ 333 20175 555 10290 20001 91012;
0142683000999992000032509004-26630+015100FM-12+000099999V0203201N001510042019N0750001N1+02451+01541101351ADDGF108991081061004501999999MA1999999101181MD1310071+9999REMSYN075AAXX  25094 68300 42489 83203 1024520154 30118 40135 53007 886// 555 91013;
0181683000999992000032512004-26630+015100FM-12+000099999V0209999C000012200019N0750001N1+02501+01601101221ADDAA199000091GF103991001001999999001051KA1120N+01851MD1210041+9999REMSYN086AAXX  25124 68300 32989 30000 10250 20160 30/// 40122 52004 80005 333 20185 555 91012;EQDQ01  00002PRCP99
0162683000999992000032515004-26630+015100FM-12+000099999V0201801N003112200019N0200001N1+02251+01491101141ADDGF103991001001999999001021MA1999999100971MD1710251+9999REMSYN076AAXX  25154 68300 42170 31806 10225 20149 30097 40114 57025 80002 555 91011;EQDQ01+000752SCOLCB
0224683000999992000032518004-26630+015100FM-12+000099999V0201801N006212200019N0750001N1+01861+01411101181ADDAA199000091AY101061AY231061GF103991031091012501001001KA1120M+02541MA1999999101001MD1310031+9999MW1121REMSYN092AAXX  25184 68300 31689 31812 10186 20141 30100 40118 53003 71203 83900 333 10254 555 91011;EQDQ01  00002PRCP99
0143683000999992000032603004-26630+015100FM-12+000099999V0201801N007212200019N0100001N1+01601+01331101111ADDGF102991021061000751001001MA1999999100931MD1810131+9999REMSYN076AAXX  26034 68300 42160 21814 10160 20133 30093 40111 58013 82600 555 91011;
0197683000999992000032606004-26630+015100FM-12+000099999V0209999C000012200019N0750001N1+01981+01411101101ADDAA199000091GA1001+999999999GF100991001001999999001001KA1240M+02541MD1210081+9999REMSYN086AAXX  26064 68300 32989 00000 10198 20141 30/// 40110 52008 333 20/// 555 10254 91011;EQDQ01  00002PRCP99
0138683000999992000032609004-26630+015100FM-12+000099999V0203201N001512200019N0750001N1+02001+01491101061ADDGA1001+999999999GF100991001001999999001001MD1810081+9999REMSYN070AAXX  26094 68300 42989 03203 10200 20149 30/// 40106 58008 555 91011;
0206683000999992000032612004-26630+015100FM-12+000099999V0202701N003112200019N0750001N1+02351+01421101151ADDAA199000091GA1001+999999999GF100991001001999999001001KA1120N+01651MA1999999100981MD1810111+9999REMSYN080AAXX  26124 68300 32989 02706 10235 20142 30098 40115 58011 333 20165 555 91011;EQDQ01  00002PRCP99
0196683000999992000032618004-26630+015100FM-12+000099999V0201801N006210075019N0750001N1+01901+01451101091ADDAA199000091GF105991051061008001001001KA1120M+02701MA1999999100911MD1710081+9999REMSYN086AAXX  26184 68300 32589 51812 10190 20145 30091 40109 57008 85600 333 10270 555 91010;EQDQ01  00002PRCP99
0162683000999992000032621004-26630+015100FM-12+000099999V0201801N005110006019N0100001N1+01841+01501101181ADDGF106991999061000751001001MA1999999101001MD1310091+9999REMSYN076AAXX  26214 68300 42160 61810 10184 20150 30100 40118 53009 85600 555 91011;EQDQ01+000052SCOTLC
0173683000999992000032700004-26630+015100FM-12+000099999V0201801N003110006019N0100001N1+01851+01421101081ADDAA199000091GF105991051061000751001001MA1999999100901MD1810101+9999REMSYN076AAXX  27004 68300 32160 51806 10185 20142 30090 40108 58010 85600 555 91010;EQDQ01  00002PRCP99
0128683000999992000032703004-26630+015100FM-12+000099999V0201801N005112200019N0100001N1+01801+01491100851ADDGF102991021061000751001001MD1710081+9999REMSYN076AAXX  27034 68300 42160 21810 10180 20149 30/// 40085 57008 82600 555 91009;
0200683000999992000032706004-26630+015100FM-12+000099999V0203601N001512200019N0750001N1+01861+01521100901ADDAA199000091GF102991021061004501001001KA1240M+02701KA2120N+01701MD1210071+9999REMSYN092AAXX  27064 68300 32489 23603 10186 20152 30/// 40090 52007 82600 333 20170 555 10270 91009;EQDQ01  00002PRCP99
0143683000999992000032709004-26630+015100FM-12+000099999V0201801N003112200019N0750001N1+02601+01591101081ADDGF102991021061008001001001MA1999999100911MD1210021+9999REMSYN076AAXX  27094 68300 42589 21806 10260 20159 30091 40108 52002 82600 555 91010;
0196683000999992000032712004-26630+015100FM-12+000099999V0201801N005112200019N0750001N1+02621+01601100981ADDAA199000091GF101991011011017501001001KA1120N+01881MA1999999100811MD1810101+9999REMSYN086AAXX  27124 68300 32789 11810 10262 20160 30081 40098 58010 81100 333 20188 555 91009;EQDQ01  00002PRCP99
0143683000999992000032715004-26630+015100FM-12+000099999V0201801N008212200019N0750001N1+02251+01571100911ADDGF102991021091012501031001MA1999999100741MD1710071+9999REMSYN076AAXX  27154 68300 42689 21816 10225 20157 30074 40091 57007 82930 555 91009;
0196683000999992000032718004-26630+015100FM-12+000099999V0201801N006212200019N0750001N1+02021+01531101061ADDAA199000091GF102991011041004501081001KA1120M+02651MA1999999100881MD1310141+9999REMSYN086AAXX  27184 68300 32489 21812 10202 20153 30088 40106 53014 81480 333 10265 555 91010;EQDQ01  00002PRCP99
0153683000999992000032721004-26630+015100FM-12+000099999V0209999C000012200019N0200001N1+01851+01321101231ADDGA1001+999999999GF100991001001999999001001MA1999999101051MD1210171+9999REMSYN070AAXX  27214 68300 42970 00000 10185 20132 30105 40123 52017 555 91012;
0183683000999992000032800004-26630+015100FM-12+000099999V0209999C000012200019N0200001N1+01701+01351101121ADDAA199000091GA1001+999999999GF100991001001999999001001MA1999999100941MD1710091+9999REMSYN070AAXX  28004 68300 32970 00000 10170 20135 30094 40112 57009 555 91011;EQDQ01  00002PRCP99
0143683000999992000032803004-26630+015100FM-12+000099999V0209999C000012200019N0200001N1+01751+01581101151ADDGF102991021061000751001001MA1999999100971MD1710031+9999REMSYN076AAXX  28034 68300 42170 20000 10175 20158 30097 40115 57003 82600 555 91011;
0215683000999992000032806004-26630+015100FM-12+000099999V0209999C000012200019N0750001N1+01501+01131101271ADDAA199000091GF102991021061008001001001KA1240M+02651KA2120N+01451MA1999999101091MD1310121+9999REMSYN092AAXX  28064 68300 32589 20000 10150 20113 30109 40127 53012 82600 333 20145 555 10265 91012;EQDQ01  00002PRCP99
0143683000999992000032809004-26630+015100FM-12+000099999V0203601N001512200019N0200001N1+01871+01511101351ADDGF102991021041000751001001MA1999999101171MD1310081+9999REMSYN076AAXX  28094 68300 42170 23603 10187 20151 30117 40135 53008 82400 555 91013;
0206683000999992000032812004-26630+015100FM-12+000099999V0203601N001512200019N0200001N1+02111+01701101261ADDAA199000091GA1001+999999999GF100991001001999999001001KA1120N+01551MA1999999101081MD1710091+9999REMSYN080AAXX  28124 68300 32970 03603 10211 20170 30108 40126 57009 333 20155 555 91012;EQDQ01  00002PRCP99
0143683000999992000032815004-26630+015100FM-12+000099999V0201801N006212200019N0300001N1+02521+01281101141ADDGF102991021051004501001001MA1999999100971MD1710111+9999REMSYN076AAXX  28154 68300 42480 21812 10252 20128 30097 40114 57011 82500 555 91011;
0196683000999992000032818004-26630+015100FM-12+000099999V0201801N006212200019N0200001N1+02001+01641101281ADDAA199000091GF102991021051001501001001KA1120M+02601MA1999999101101MD1310131+9999REMSYN086AAXX  28184 68300 32270 21812 10200 20164 30110 40128 53013 82500 333 10260 555 91012;EQDQ01  00002PRCP99
0153683000999992000032821004-26630+015100FM-12+000099999V0201801N003112200019N0300001N1+01901+01471101331ADDGA1001+999999999GF100991001001999999001001MA1999999101151MD1210051+9999REMSYN070AAXX  28214 68300 42980 01806 10190 20147 30115 40133 52005 555 91013;
0183683000999992000032900004-26630+015100FM-12+000099999V0209999C000012200019N0200001N1+01901+01471101221ADDAA199000091GA1001+999999999GF100991001001999999001001MA1999999101041MD1710111+9999REMSYN070AAXX  29004 68300 32970 00000 10190 20147 30104 40122 57011 555 91012;EQDQ01  00002PRCP99
0143683000999992000032903004-26630+015100FM-12+000099999V0209999C000012200019N0200001N1+02051+01551101131ADDGF102991021001999999081001MA1999999100951MD1810091+9999REMSYN076AAXX  29034 68300 42970 20000 10205 20155 30095 40113 58009 82080 555 91011;
0215683000999992000032906004-26630+015100FM-12+000099999V0203601N001519999999N0200001N1+01801+01361101241ADDAA199000091GF106991061001999999081001KA1240M+02601KA2120N+01751MA1999999101061MD1310111+9999REMSYN092AAXX  29064 68300 32970 63603 10180 20136 30106 40124 53011 86080 333 20175 555 10260 91012;EQDQ01  00002PRCP99
0143683000999992000032909004-26630+015100FM-12+000099999V0203601N003112200019N0200001N1+02321+01441101311ADDGF104991041001022501031001MA1999999101141MD1310101+9999REMSYN076AAXX  29094 68300 42870 43606 10232 20144 30114 40131 53010 84030 555 91013;
0181683000999992000032912004-26630+015100FM-12+000099999V0201801N010312200019N0750001N1+02391+01451101051ADDAA199000091GF101991011021017501001001KA1120N+01811MD1810111+9999REMSYN086AAXX  29124 68300 32789 11820 10239 20145 30/// 40105 58011 81200 333 20181 555 91011;EQDQ01  00002PRCP99
0156683000999992000032915004-26630+015100FM-12+000099999V0201801N010312200019N0750001N1+02421+01361101001ADDAY121031AY221031GF101991011091012501001001MD1710101+9999MW1171REMSYN082AAXX  29154 68300 41689 11820 10242 20136 30/// 40100 57010 71722 81900 555 91010;
0208683000999992000032918004-26630+015100FM-12+000099999V0201801N006212200019N0750001N1+01921+01441101241ADDAA199000091GF101991011091012501001001KA1120M+02501MA1999999101061MD1310131+9999MW1131REMSYN092AAXX  29184 68300 31689 11812 10192 20144 30106 40124 53013 713// 81900 333 10250 555 91012;EQDQ01  00002PRCP99
0128683000999992000033003004-26630+015100FM-12+000099999V0202001N001512200019N0200001N1+01601+01241101201ADDGF101991011061004501001001MD1810031+9999REMSYN076AAXX  30034 68300 42470 12003 10160 20124 30/// 40120 58003 81600 555 91012;
0200683000999992000033006004-26630+015100FM-12+000099999V0201801N003110075019N0750001N1+01481+01351101101ADDAA199000091GF108991081061008001999999KA1240M+02501KA2120N+01471MD1310111+9999REMSYN092AAXX  30064 68300 32589 81806 10148 20135 30/// 40110 53011 886// 333 20147 555 10250 91011;EQDQ01  00002PRCP99
0153683000999992000033009004-26630+015100FM-12+000099999V0201801N003112200019N0750001N1+01921+01381101561ADDGA1001+999999999GF100991001001999999001001MA1999999101381MD1210081+9999REMSYN070AAXX  30094 68300 42989 01806 10192 20138 30138 40156 52008 555 91015;
0206683000999992000033012004-26630+015100FM-12+000099999V0201801N010312200019N0200001N1+02241+01381101371ADDAA199000091GA1001+999999999GF100991001001999999001001KA1120N+01501MA1999999101191MD1810201+9999REMSYN080AAXX  30124 68300 32970 01820 10224 20138 30119 40137 58020 333 20150 555 91013;EQDQ01  00002PRCP99
0143683000999992000033015004-26630+015100FM-12+000099999V0201801N010312200019N0100001N1+01901+01341101211ADDGF101991011091000751081001MA1999999101031MD1710161+9999REMSYN076AAXX  30154 68300 42160 11820 10190 20134 30103 40121 57016 81980 555 91012;
0196683000999992000033018004-26630+015100FM-12+000099999V0201801N009312200019N0100001N1+01641+01301101251ADDAA199000091GF101991011091004501081001KA1120M+02351MA1999999101071MD1310041+9999REMSYN086AAXX  30184 68300 32460 11818 10164 20130 30107 40125 53004 81980 333 10235 555 91012;EQDQ01  00002PRCP99
0153683000999992000033021004-26630+015100FM-12+000099999V0201801N001512200019N0300001N1+01601+01241101361ADDGA1001+999999999GF100991001001999999001001MA1999999101181MD1210111+9999REMSYN070AAXX  30214 68300 42980 01803 10160 20124 30118 40136 52011 555 91013;
0183683000999992000033100004-26630+015100FM-12+000099999V0201801N001512200019N0200001N1+01501+01321101231ADDAA199000091GA1001+999999999GF100991001001999999001001MA1999999101051MD1810131+9999REMSYN070AAXX  31004 68300 32970 01803 10150 20132 30105 40123 58013 555 91012;EQDQ01  00002PRCP99
0153683000999992000033103004-26630+015100FM-12+000099999V0201801N001512200019N0200001N1+01351+01261101201ADDGA1001+999999999GF100991001001999999001001MA1999999101021MD1710031+9999REMSYN070AAXX  31034 68300 42970 01803 10135 20126 30102 40120 57003 555 91011;
0215683000999992000033106004-26630+015100FM-12+000099999V0203601N001510075019N0750001N1+01351+01261101271ADDAA199000091GF108991081061008001999999KA1240M+02351KA2120N+01341MA1999999101091MD1210071+9999REMSYN092AAXX  31064 68300 32589 83603 10135 20126 30109 40127 52007 886// 333 20134 555 10235 91012;EQDQ01  00002PRCP99
0153683000999992000033109004-26630+015100FM-12+000099999V0201801N003112200019N0750001N1+02151+01271101231ADDGA1001+999999999GF100991001001999999001001MA1999999101051MD1710041+9999REMSYN070AAXX  31094 68300 42989 01806 10215 20127 30105 40123 57004 555 91012;
0196683000999992000033112004-26630+015100FM-12+000099999V0201801N005112200019N0200001N1+02231+01311101061ADDAA199000091GF101991011021012501001001KA1120N+01371MA1999999100881MD1810181+9999REMSYN086AAXX  31124 68300 32670 11810 10223 20131 30088 40106 58018 81200 333 20137 555 91010;EQDQ01  00002PRCP99
0143683000999992000033115004-26630+015100FM-12+000099999V0202301N006212200019N0200001N1+01961+01331100941ADDGF101991011051000751001001MA1999999100761MD1710081+9999REMSYN076AAXX  31154 68300 42170 12312 10196 20133 30076 40094 57008 81500 555 91009;
0196683000999992000033118004-26630+015100FM-12+000099999V0202301N004112200019N0200001N1+01701+01311100941ADDAA199000091GF101991011001999999031001KA1120M+02281MA1999999100761MD1410001+9999REMSYN086AAXX  31184 68300 32970 12308 10170 20131 30076 40094 54000 81030 333 10228 555 91009;EQDQ01  00002PRCP99
0153683000999992000033121004-26630+015100FM-12+000099999V0209999C000012200019N0300001N1+01551+01281100981ADDGA1001+999999999GF100991001001999999001001MA1999999100801MD1210081+9999REMSYN070AAXX  31214 68300 42980 00000 10155 20128 30080 40098 52008 555 91009;
0181683000999992000040103004-26630+015100FM-12+000099999V0209999C000012200019N0009001N1+01351+01061100971ADDAY161031AY201031GA1001+999999999GF100991001001999999001001MA1999999100791MD1410001+9999MW1441REMSYN076AAXX  01034 68300 41909 00000 10135 20106 30079 40097 54000 74460 555 91009;
0253683000999992000040106004-26630+015100FM-12+000099999V0203601N004110003019N0005001N1+01231+01211101081ADDAA199000091AY141061AY241061GA1091+999999999GF109991091999999999999999KA1240M+02281KA2120N+01151MA1999999100901MD1310111+9999MW1451REMSYN092AAXX  01064 68300 31/05 93608 10123 20121 30090 40108 53011 74544 333 20115 555 10228 91010;EQDQ01  00002PRCP99
0173683000999992000040109004-26630+015100FM-12+000099999V0203601N006212200019N0100001N1+01501+01241101161ADDAA199000091GF101991011051002501001001MA1999999100981MD1210081+9999REMSYN076AAXX  01094 68300 32360 13612 10150 20124 30098 40116 52008 81500 555 91011;EQDQ01  00002PRCP99
0234683000999992000040112004-26630+015100FM-12+000099999V0201801N003110003019N0005001N1+01581+01441101131ADDAA199000091AY101061AY201061GA1091+999999999GF109991091999999999999999KA1120N+01151MA1999999100951MD1810031+9999MW1471REMSYN086AAXX  01124 68300 31/05 91806 10158 20144 30095 40113 58003 74700 333 20115 555 91011;EQDQ01  00002PRCP99
0171683000999992000040115004-26630+015100FM-12+000099999V0201801N003110006019N0040001N1+01621+01481101091ADDAY141031AY241031GF108991081061000751999999MA1999999100911MD1810041+9999MW1401REMSYN082AAXX  01154 68300 41140 81806 10162 20148 30091 40109 58004 74044 886// 555 91010;
0209683000999992000040118004-26630+015100FM-12+000099999V0209999C000010006019N0030001N1+01601+01461101051ADDAA199000091AY141061AY221061GF108991081061000751999999KA1120M+01651MD1310051+9999MW1401REMSYN092AAXX  01184 68300 31130 80000 10160 20146 30/// 40105 53005 74042 886// 333 10165 555 91011;EQDQ01  00002PRCP99
0183683000999992000040200004-26630+015100FM-12+000099999V0201801N001512200019N0300001N1+01801+01631101361ADDAA199000091GA1001+999999999GF100991001001999999001001MA1999999101181MD1210141+9999REMSYN070AAXX  02004 68300 32980 01803 10180 20163 30118 40136 52014 555 91013;EQDQ01  00002PRCP99
0173683000999992000040203004-26630+015100FM-12+000099999V0201801N001512200019N0300001N1+01701+01621101331ADDAA199000091GF102991021061004501001001MA1999999101151MD1710031+9999REMSYN076AAXX  02034 68300 32480 21803 10170 20162 30115 40133 57003 82600 555 91013;EQDQ01  00002PRCP99
0243683000999992000040206004-26630+015100FM-12+000099999V0201801N006210006019N0040001N1+01681+01541101471ADDAA199000091AY101061AY201061GF108991081061000751999999KA1240M+01901KA2120N+01271MA1999999101291MD1310141+9999MW1401REMSYN098AAXX  02064 68300 31140 81812 10168 20154 30129 40147 53014 74000 886// 333 20127 555 10190 91014;EQDQ01  00002PRCP99
0143683000999992000040209004-26630+015100FM-12+000099999V0201801N006212200019N0100001N1+02061+01411101571ADDGF101991011061000751001001MA1999999101391MD1210101+9999REMSYN076AAXX  02094 68300 42160 11812 10206 20141 30139 40157 52010 81600 555 91015;
0181683000999992000040212004-26630+015100FM-12+000099999V0202301N009312200019N0100001N1+02251+01361101421ADDAA199000091GF101991011051000751001001KA1120N+01251MD1810151+9999REMSYN086AAXX  02124 68300 32160 12318 10225 20136 3//// 40142 58015 81500 333 20125 555 91014;EQDQ01  00002PRCP99
0128683000999992000040215004-26630+015100FM-12+000099999V0201801N007712200019N0200001N1+02211+01431101331ADDGF101991011051000751001001MD1810111+9999REMSYN076AAXX  02154 68300 42170 11815 10221 20143 3//// 40133 58011 81500 555 91013;
0191683000999992000040218004-26630+015100FM-12+000099999V0201801N009312200019N0100001N1+01821+01441101501ADDAA199000091GA1001+999999999GF100991001001999999001001KA1120M+02311MD1310171+9999REMSYN080AAXX  02184 68300 32960 01818 10182 20144 3//// 40150 53017 333 10231 555 91015;EQDQ01  00002PRCP99
0153683000999992000040303004-26630+015100FM-12+000099999V0201801N003112200019N0300001N1+01601+01241101501ADDGA1001+999999999GF100991001001999999001001MA1999999101321MD1210121+9999REMSYN070AAXX  03034 68300 42980 01806 10160 20124 30132 40150 52012 555 91015;
0225683000999992000040306004-26630+015100FM-12+000099999V0202301N009312200019N0750001N1+01601+01241101611ADDAA199000091GA1001+999999999GF100991001001999999001001KA1240M+02311KA2120N+01501MA1999999101431MD1310111+9999REMSYN086AAXX  03064 68300 32989 02318 10160 20124 30143 40161 53011 333 20150 555 10231 91016;EQDQ01  00002PRCP99
0138683000999992000040309004-26630+015100FM-12+000099999V0201301N010312200019N0200001N1+02261+01201101551ADDGA1001+999999999GF100991001001999999001001MD1210111+9999REMSYN070AAXX  03094 68300 42970 01320 10226 20120 30/// 40155 52011 555 91016;
0191683000999992000040312004-26630+015100FM-12+000099999V0201301N017512200019N0100001N1+02301+01251101401ADDAA199000091GA1001+999999999GF100991001001999999001001KA1120N+01141MD1810131+9999REMSYN080AAXX  03124 68300 32960 01334 10230 20125 30/// 40140 58013 333 20114 555 91014;EQDQ01  00002PRCP99
0153683000999992000040315004-26630+015100FM-12+000099999V0201801N015412200019N0100001N1+02061+01251101521ADDGA1001+999999999GF100991001001999999001001MA1999999101341MD1710051+9999REMSYN070AAXX  03154 68300 42960 01830 10206 20125 30134 40152 57005 555 91015;
0206683000999992000040318004-26630+015100FM-12+000099999V0201801N012912200019N0100001N1+01981+01211101661ADDAA199000091GA1001+999999999GF100991001001999999001001KA1120M+02501MA1999999101491MD1310161+9999REMSYN080AAXX  03184 68300 32960 01825 10198 20121 30149 40166 53016 333 10250 555 91016;EQDQ01  00002PRCP99
0183683000999992000040321004-26630+015100FM-12+000099999V0201801N012912200019N0300001N1+01881+01171101781ADDAA199000091GA1001+999999999GF100991001001999999001001MA1999999101601MD1310111+9999REMSYN070AAXX  03214 68300 32980 01825 10188 20117 30160 40178 53011 555 91017;EQDQ01  00002PRCP99
0183683000999992000040400004-26630+015100FM-12+000099999V0201801N008212200019N0100001N1+01751+01211101801ADDAA199000091GA1001+999999999GF100991001001999999001001MA1999999101621MD1210021+9999REMSYN070AAXX  04004 68300 32960 01816 10175 20121 30162 40180 52002 555 91018;EQDQ01  00002PRCP99
0153683000999992000040403004-26630+015100FM-12+000099999V0201801N015412200019N0100001N1+01651+01191101721ADDGA1001+999999999GF100991001001999999001001MA1999999101541MD1710081+9999REMSYN070AAXX  04034 68300 42960 01830 10165 20119 30154 40172 57008 555 91017;
0215683000999992000040406004-26630+015100FM-12+000099999V0202301N010312200019N0100001N1+01751+00881101781ADDAA199000091GF101991011061000751001001KA1240M+02571KA2120N+01571MA1999999101601MD1310061+9999REMSYN092AAXX  04064 68300 32160 12320 10175 20088 30160 40178 53006 81600 333 20157 555 10257 91017;EQDQ01  00002PRCP99
0153683000999992000040409004-26630+015100FM-12+000099999V0201301N011312200019N0100001N1+02401+00981101781ADDGA1001+999999999GF100991001001999999001001MA1999999101611MD1210011+9999REMSYN070AAXX  04094 68300 42960 01322 10240 20098 30161 40178 52001 555 91017;
0191683000999992000040412004-26630+015100FM-12+000099999V0202301N013912200019N0750001N1+02221+01611101401ADDAA199000091GA1001+999999999GF100991001001999999001001KA1120N+01601MD1810241+9999REMSYN080AAXX  04124 68300 32989 02327 10222 20161 30/// 40140 58024 333 20160 555 91014;EQDQ01  00002PRCP99
0153683000999992000040415004-26630+015100FM-12+000099999V0201801N010312200019N0750001N1+02321+01241101341ADDGA1001+999999999GF100991001001999999001001MA1999999101171MD1810191+9999REMSYN070AAXX  04154 68300 42989 01820 10232 20124 30117 40134 58019 555 91013;
0206683000999992000040418004-26630+015100FM-12+000099999V0201801N010312200019N0750001N1+02001+01191101331ADDAA199000091GA1001+999999999GF100991001001999999001001KA1120M+02601MA1999999101151MD1610021+9999REMSYN080AAXX  04184 68300 32989 01820 10200 20119 30115 40133 56002 333 10260 555 91013;EQDQ01  00002PRCP99
0153683000999992000040421004-26630+015100FM-12+000099999V0201801N008212200019N0300001N1+01901+00961101421ADDGA1001+999999999GF100991001001999999001001MA1999999101241MD1210091+9999REMSYN070AAXX  04214 68300 42980 01816 10190 20096 30124 40142 52009 555 91014;
0138683000999992000040503004-26630+015100FM-12+000099999V0200901N015412200019N0200001N1+02651+00501101201ADDGA1001+999999999GF100991001001999999001001MD1710081+9999REMSYN070AAXX  05034 68300 42970 00930 10265 20050 30/// 40120 57008 555 91012;
0210683000999992000040506004-26630+015100FM-12+000099999V0200901N017512200019N0100001N1+02551+00411101251ADDAA199000091GA1001+999999999GF100991001001999999001001KA1240M+02721KA2120N+01801MD1310071+9999REMSYN086AAXX  05064 68300 32960 00934 10255 20041 30/// 40125 53007 333 20180 555 10272 91013;EQDQ01  00002PRCP99
0153683000999992000040509004-26630+015100FM-12+000099999V0201301N014412200019N0750001N1+03021+00501101471ADDGA1001+999999999GF100991001001999999001001MA1999999101301MD1210081+9999REMSYN070AAXX  05094 68300 42989 01328 10302 20050 30130 40147 52008 555 91014;
0206683000999992000040512004-26630+015100FM-12+000099999V0201801N010312200019N0100001N1+03061+00441101351ADDAA199000091GA1001+999999999GF100991001001999999001001KA1120N+03051MA1999999101181MD1810121+9999REMSYN080AAXX  05124 68300 32960 01820 10306 20044 30118 40135 58012 333 20305 555 91013;EQDQ01  00002PRCP99
0138683000999992000040515004-26630+015100FM-12+000099999V0201801N007712200019N0100001N1+02951+00591101231ADDGA1001+999999999GF100991001001999999001001MD1810081+9999REMSYN070AAXX  05154 68300 42960 01815 10295 20059 3//// 40123 58008 555 91012;
0206683000999992000040518004-26630+015100FM-12+000099999V0209999C000012200019N0300001N1+02701+00591101251ADDAA199000091GA1001+999999999GF100991001001999999001001KA1120M+03331MA1999999101081MD1210021+9999REMSYN080AAXX  05184 68300 32980 00000 10270 20059 30108 40125 52002 333 10333 555 91012;EQDQ01  00002PRCP99
0153683000999992000040521004-26630+015100FM-12+000099999V0203601N001512200019N0300001N1+01701+01211101311ADDGA1001+999999999GF100991001001999999001001MA1999999101131MD1210061+9999REMSYN070AAXX  05214 68300 42980 03603 10170 20121 30113 40131 52006 555 91013;
0138683000999992000040603004-26630+015100FM-12+000099999V0200901N002612200019N0200001N1+01651+01191101201ADDGA1001+999999999GF100991001001999999001001MD1210031+9999REMSYN070AAXX  06034 68300 42970 00905 10165 20119 3//// 40120 52003 555 91011;
0153683000999992000040609004-26630+015100FM-12+000099999V0200501N008212200019N0750001N1+03121+00691101251ADDGA1001+999999999GF100991001001999999001001MA1999999101081MD1310081+9999REMSYN070AAXX  06094 68300 42989 00516 10312 20069 30108 40125 53008 555 91012;
0206683000999992000040612004-26630+015100FM-12+000099999V0202301N008212200019N0200001N1+02351+01101101201ADDAA199000091GA1001+999999999GF100991001001999999001001KA1120N+02001MA1999999101031MD1810051+9999REMSYN080AAXX  06124 68300 32970 02316 10235 20110 30103 40120 58005 333 20200 555 91012;EQDQ01  00002PRCP99
0153683000999992000040615004-26630+015100FM-12+000099999V0201801N004112200019N0300001N1+02961+00571101111ADDGA1001+999999999GF100991001001999999001001MA1999999100941MD1810091+9999REMSYN070AAXX  06154 68300 42980 01808 10296 20057 30094 40111 58009 555 91011;
0206683000999992000040618004-26630+015100FM-12+000099999V0201801N003112200019N0750001N1+02801+00621101181ADDAA199000091GA1001+999999999GF100991001001999999001001KA1120M+03321MA1999999101011MD1210071+9999REMSYN080AAXX  06184 68300 32989 01806 10280 20062 30101 40118 52007 333 10332 555 91011;EQDQ01  00002PRCP99
0153683000999992000040621004-26630+015100FM-12+000099999V0209999C000012200019N0300001N1+02481+00711101231ADDGA1001+999999999GF100991001001999999001001MA1999999101061MD1210051+9999REMSYN070AAXX  06214 68300 42980 00000 10248 20071 30106 40123 52005 555 91012;
0183683000999992000040700004-26630+015100FM-12+000099999V0209999C000012200019N0200001N1+02501+00951101331ADDAA199000091GA1001+999999999GF100991001001999999001001MA1999999101161MD1210101+9999REMSYN070AAXX  07004 68300 32970 00000 10250 20095 30116 40133 52010 555 91013;EQDQ01  00002PRCP99
0153683000999992000040703004-26630+015100FM-12+000099999V0209999C000012200019N0200001N1+01901+01181101341ADDGA1001+999999999GF100991001001999999001001MA1999999101161MD1410001+9999REMSYN070AAXX  07034 68300 42970 00000 10190 20118 30116 40134 54000 555 91013;
0225683000999992000040706004-26630+015100FM-12+000099999V0200101N001512200019N0200001N1+01811+01151101301ADDAA199000091GA1001+999999999GF100991001001999999001001KA1240M+03301KA2120N+01601MA1999999101121MD1310151+9999REMSYN086AAXX  07064 68300 32970 00103 10181 20115 30112 40130 53015 333 20160 555 10330 91013;EQDQ01  00002PRCP99
0138683000999992000040709004-26630+015100FM-12+000099999V0203601N001512200019N0200001N1+01941+01351101451ADDGA1001+999999999GF100991001001999999001001MD1110151+9999REMSYN070AAXX  07094 68300 42970 03603 10194 20135 3//// 40145 51015 555 91014;
0191683000999992000040712004-26630+015100FM-12+000099999V0203601N001512200019N0200001N1+02151+01381101401ADDAA199000091GA1001+999999999GF100991001001999999001001KA1120N+01801MD1710041+9999REMSYN080AAXX  07124 68300 32970 03603 10215 20138 3//// 40140 57004 333 20180 555 91014;EQDQ01  00002PRCP99
0153683000999992000040715004-26630+015100FM-12+000099999V0203601N003112200019N0200001N1+02021+01381101371ADDGA1001+999999999GF100991001001999999001001MA1999999101201MD1810031+9999REMSYN070AAXX  07154 68300 42970 03606 10202 20138 30120 40137 58003 555 91013;
0206683000999992000040718004-26630+015100FM-12+000099999V0202301N003112200019N0200001N1+01751+01491101431ADDAA199000091GA1001+999999999GF100991001001999999001001KA1120M+02201MA1999999101251MD1310061+9999REMSYN080AAXX  07184 68300 32970 02306 10175 20149 30125 40143 53006 333 10220 555 91014;EQDQ01  00002PRCP99
0153683000999992000040721004-26630+015100FM-12+000099999V0209999C000012200019N0100001N1+01651+01561101531ADDGA1001+999999999GF100991001001999999001001MA1999999101351MD1210101+9999REMSYN070AAXX  07214 68300 42960 00000 10165 20156 30135 40153 52010 555 91015;
0173683000999992000040800004-26630+015100FM-12+000099999V0202301N004112200019N0200001N1+01651+01391101501ADDAA199000091GF101991011051002501001001MA1999999101321MD1810021+9999REMSYN076AAXX  08004 68300 32370 12308 10165 20139 30132 40150 58002 81500 555 91015;EQDQ01  00002PRCP99
0153683000999992000040803004-26630+015100FM-12+000099999V0202301N003112200019N0300001N1+01641+01321101391ADDGA1001+999999999GF100991001001999999001001MA1999999101211MD1710111+9999REMSYN070AAXX  08034 68300 42980 02306 10164 20132 30121 40139 57011 555 91013;
0225683000999992000040806004-26630+015100FM-12+000099999V0203601N001512200019N0750001N1+01701+01251101491ADDAA199000091GA1001+999999999GF100991001001999999001001KA1240M+02301KA2120N+01601MA1999999101311MD1310101+9999REMSYN086AAXX  08064 68300 32989 03603 10170 20125 30131 40149 53010 333 20160 555 10230 91014;EQDQ01  00002PRCP99
0153683000999992000040809004-26630+015100FM-12+000099999V0201801N003112200019N0200001N1+02251+01401101561ADDGA1001+999999999GF100991001001999999001001MA1999999101381MD1310071+9999REMSYN070AAXX  08094 68300 42970 01806 10225 20140 30138 40156 53007 555 91015;
0206683000999992000040812004-26630+015100FM-12+000099999V0201801N007712200019N0750001N1+02341+01391101411ADDAA199000091GA1001+999999999GF100991001001999999001001KA1120N+01721MA1999999101231MD1810151+9999REMSYN080AAXX  08124 68300 32989 01815 10234 20139 30123 40141 58015 333 20172 555 91014;EQDQ01  00002PRCP99
0172683000999992000040815004-26630+015100FM-12+000099999V0202301N010312200019N0200001N1+01901+01381101321ADDGA1001+999999999GF100991001001999999001001MA1999999101141MD1710091+9999REMSYN070AAXX  08154 68300 42970 02320 10190 20138 30114 40132 57080 555 91013;EQDQ01+000802APC3  
0191683000999992000040818004-26630+015100FM-12+000099999V0201801N007712200019N0050001N1+01601+01281101251ADDAA199000091GA1001+999999999GF100991001001999999001001KA1120M+02501MD1310111+9999REMSYN080AAXX  08184 68300 32950 01815 10160 20128 30/// 40125 53011 333 10250 555 91014;EQDQ01  00002PRCP99
0138683000999992000040821004-26630+015100FM-12+000099999V0201801N003112200019N0050001N1+01551+01181101321ADDGA1001+999999999GF100991001001999999001001MD1210091+9999REMSYN070AAXX  08214 68300 42950 01806 10155 20118 30/// 40132 52009 555 91015;
0183683000999992000040900004-26630+015100FM-12+000099999V0201801N004112200019N0050001N1+01521+01131101521ADDAA199000091GA1001+999999999GF100991001001999999001001MA1999999101341MD1810021+9999REMSYN070AAXX  09004 68300 32950 01808 10152 20113 30134 40152 58002 555 91015;EQDQ01  00002PRCP99
0153683000999992000040903004-26630+015100FM-12+000099999V0201801N004112200019N0100001N1+01501+01151101451ADDGA1001+999999999GF100991001001999999001001MA1999999101271MD1710071+9999REMSYN070AAXX  09034 68300 42960 01808 10150 20115 30127 40145 57007 555 91014;
0225683000999992000040906004-26630+015100FM-12+000099999V0201801N003112200019N0750001N1+01501+01231101511ADDAA199000091GA1001+999999999GF100991001001999999001001KA1240M+02201KA2120N+01461MA1999999101331MD1710061+9999REMSYN086AAXX  09064 68300 32989 01806 10150 20123 30133 40151 57006 333 20146 555 10220 91015;EQDQ01  00002PRCP99
0138683000999992000040909004-26630+015100FM-12+000099999V0201801N005112200019N0750001N1+02201+01231101371ADDGA1001+999999999GF100991001001999999001001MD1210041+9999REMSYN070AAXX  09094 68300 42989 01810 10220 20123 3//// 40137 52004 555 91015;
0191683000999992000040912004-26630+015100FM-12+000099999V0201801N010312200019N0200001N1+02161+01331101241ADDAA199000091GA1001+999999999GF100991001001999999001001KA1120N+01501MD1810131+9999REMSYN080AAXX  09124 68300 32970 01820 10216 20133 30/// 40124 58013 333 20150 555 91014;EQDQ01  00002PRCP99
0168683000999992000040915004-26630+015100FM-12+000099999V0201801N007712200019N0200001N1+02051+01251101121ADDAA199000091GA1001+999999999GF100991001001999999001001MD1710111+9999REMSYN070AAXX  09154 68300 32970 01815 10205 20125 30/// 40112 57011 555 91011;EQDQ01  00002PRCP99
0191683000999992000040918004-26630+015100FM-12+000099999V0201801N003112200019N0750001N1+01601+01331101181ADDAA199000091GA1001+999999999GF100991001001999999001001KA1120M+02301MD1310061+9999REMSYN080AAXX  09184 68300 32989 01806 10160 20133 30/// 40118 53006 333 10230 555 91013;EQDQ01  00002PRCP99
0138683000999992000040921004-26630+015100FM-12+000099999V0201801N003112200019N0050001N1+01551+01281101321ADDGA1001+999999999GF100991001001999999001001MD1210151+9999REMSYN070AAXX  09214 68300 42950 01806 10155 20128 30/// 40132 52015 555 91013;
0168683000999992000041000004-26630+015100FM-12+000099999V0201801N005112200019N0050001N1+01471+01211101291ADDAA199000091GA1001+999999999GF100991001001999999001001MD1810021+9999REMSYN070AAXX  10004 68300 32950 01810 10147 20121 3//// 40129 58002 555 91014;EQDQ01  00002PRCP99
0138683000999992000041003004-26630+015100FM-12+000099999V0201801N004112200019N0050001N1+01451+01211101291ADDGA1001+999999999GF100991001001999999001001MD1410001+9999REMSYN070AAXX  10034 68300 42950 01808 10145 20121 3//// 40129 54000 555 91014;
0228683000999992000041006004-26630+015100FM-12+000099999V0201801N003112200019N0200001N1+01401+01221101401ADDAA199000091AY121061AY221061GF104991041061008001001001KA1240M+02301KA2120N+01401MD1310121+9999MW1401REMSYN098AAXX  10064 68300 31570 41806 10140 20122 3//// 40140 53012 74022 84600 333 20140 555 10230 91015;EQDQ01  00002PRCP99
0138683000999992000041009004-26630+015100FM-12+000099999V0201801N005112200019N0750001N1+01901+01241101411ADDGA1001+999999999GF100991001001999999001001MD1410001+9999REMSYN070AAXX  10094 68300 42989 01810 10190 20124 30/// 40141 54000 555 91015;
0191683000999992000041012004-26630+015100FM-12+000099999V0201801N010312200019N0200001N1+02101+01211101221ADDAA199000091GA1001+999999999GF100991001001999999001001KA1120N+01421MD1810191+9999REMSYN080AAXX  10124 68300 32970 01820 10210 20121 30/// 40122 58019 333 20142 555 91014;EQDQ01  00002PRCP99
0153683000999992000041015004-26630+015100FM-12+000099999V0201801N010312200019N0750001N1+02051+01251101371ADDGA1001+999999999GF100991001001999999001001MA1999999101191MD1710031+9999REMSYN070AAXX  10154 68300 42989 01820 10205 20125 30119 40137 57003 555 91013;
0206683000999992000041018004-26630+015100FM-12+000099999V0201801N003112200019N0750001N1+01551+01281101461ADDAA199000091GA1001+999999999GF100991001001999999001001KA1120M+02101MA1999999101281MD1310081+9999REMSYN080AAXX  10184 68300 32989 01806 10155 20128 30128 40146 53008 333 10210 555 91014;EQDQ01  00002PRCP99
0153683000999992000041021004-26630+015100FM-12+000099999V0201801N003112200019N0200001N1+01451+01271101581ADDGA1001+999999999GF100991001001999999001001MA1999999101401MD1310111+9999REMSYN070AAXX  10214 68300 42970 01806 10145 20127 30140 40158 53011 555 91015;
0168683000999992000041100004-26630+015100FM-12+000099999V0201801N005112200019N0050001N1+01451+01211101351ADDAA199000091GA1001+999999999GF100991001001999999001001MD1810051+9999REMSYN070AAXX  11004 68300 32950 01810 10145 20121 30/// 40135 58005 555 91015;EQDQ01  00002PRCP99
0138683000999992000041103004-26630+015100FM-12+000099999V0201801N005712200019N0050001N1+01401+01221101261ADDGA1001+999999999GF100991001001999999001001MD1710091+9999REMSYN070AAXX  11034 68300 42950 01811 10140 20122 30/// 40126 57009 555 91014;
0225683000999992000041106004-26630+015100FM-12+000099999V0201801N005112200019N0750001N1+01461+01201101501ADDAA199000091GA1001+999999999GF100991001001999999001001KA1240M+02201KA2120N+01441MA1999999101321MD1810081+9999REMSYN086AAXX  11064 68300 32989 01810 10146 20120 30132 40150 58008 333 20144 555 10220 91015;EQDQ01  00002PRCP99
0138683000999992000041109004-26630+015100FM-12+000099999V0201801N005112200019N0750001N1+02001+01211101331ADDGA1001+999999999GF100991001001999999001001MD1410001+9999REMSYN070AAXX  11094 68300 42989 01810 10200 20121 3//// 40133 54000 555 91013;
0166683000999992000041115004-26630+015100FM-12+000099999V0201801N010312200019N0300001N1+01951+01131105762ADDGF103991031031999999001001MA1999999095582MD1710081+9999REMSYN080AAXX  11154 68300 42980 31820 10195 20113 30558 40576 57008 83300 333 555 91057;EQDQ01+105763APOSLP
0206683000999992000041118004-26630+015100FM-12+000099999V0201801N005112200019N0300001N1+01601+01141105841ADDAA199000091GA1001+999999999GF100991001001999999001001KA1120M+02201MA1999999095661MD1310091+9999REMSYN080AAXX  11184 68300 32980 01810 10160 20114 30566 40584 53009 333 10220 555 91058;EQDQ01  00002PRCP99
0157683000999992000041121004-26630+015100FM-12+000099999V0201801N003112200019N0200001N1+01501+01131105981ADDGA1001+999999999GF100991001001999999001001MA1999999095791MD1210131+9999REMSYN074AAXX  11214 68300 42970 01806 10150 20113 30579 40598 52013 333 555 91059;
0207683000999992000041200004-26630+015100FM-12+000099999V0201801N006212200019N0100001N1+01421+01101999999ADDAA199000091GA1001+999999999GF100991001001999999001001KA1120M+99999MD1810031+9999REMSYN080AAXX  12004 68300 32960 01812 10142 20110 3//// 4//// 58003 333 10000 555 910//;EQDQ01  00002PRCP99Q02 +00002ATMX  
0180683000999992000041203004-26630+015100FM-12+000099999V0201801N005112200019N0100001N1+01351+01101999999ADDGA1001+999999999GF100991001001999999001001KA1120M+99999MD1610011+9999REMSYN080AAXX  12034 68300 42960 01810 10135 20110 3//// 4//// 56001 333 10000 555 910//;EQDQ01 +00002ATMX  
0200683000999992000041206004-26630+015100FM-12+000099999V0201801N001510006019N0200001N1+01501+00921999999ADDAA199000091GF106991061051000751001001KA1240M+02251KA2120N+01481MD1210061+9999REMSYN092AAXX  12064 68300 32170 61803 10150 20092 3//// 4//// 52006 86500 333 20148 555 10225 910//;EQDQ01  00002PRCP99
0132683000999992000041209004-26630+015100FM-12+000099999V0201801N009312200019N0200001N1+01951+01091101282ADDGF104991041051000751001001MD1210021+9999REMSYN080AAXX  12094 68300 42170 41818 10195 20109 3//// 40128 52002 84500 333 555 91014;
0196683000999992000041212004-26630+015100FM-12+000099999V0201801N010310150019N0750001N1+02161+01271101371ADDAA199000091GF106991061041017501001001KA1120N+01521MA1999999101191MD1810081+9999REMSYN086AAXX  12124 68300 32789 61820 10216 20127 30119 40137 58008 86400 333 20152 555 91013;EQDQ01  00002PRCP99
0170683000999992000041215004-26630+015100FM-12+000099999V0201801N012910006019N0200001N1+01951+01341101091ADDGF105991051051000751001001KA1120M+99999MD1710101+9999REMSYN086AAXX  12154 68300 42170 51825 10195 20134 30/// 40109 57010 85500 333 10000 555 91010;EQDQ01 +00002ATMX  
0181683000999992000041218004-26630+015100FM-12+000099999V0201801N010312200019N0750001N1+01651+01391101151ADDAA199000091GF101991011001999999021001KA1120M+02231MD1310061+9999REMSYN086AAXX  12184 68300 32989 11820 10165 20139 30/// 40115 53006 81020 333 10223 555 91011;EQDQ01  00002PRCP99
0142683000999992000041221004-26630+015100FM-12+000099999V0201801N005112200019N0050001N1+01651+01291101291ADDGA1001+999999999GF100991001001999999001001MD1210151+9999REMSYN074AAXX  12214 68300 42950 01810 10165 20129 30/// 40129 52015 333 555 91013;
0187683000999992000041300004-26630+015100FM-12+000099999V0201801N007212200019N0050001N1+01561+01171101431ADDAA199000091GA1001+999999999GF100991001001999999001001MA1999999101251MD1810041+9999REMSYN074AAXX  13004 68300 32950 01814 10156 20117 30125 40143 58004 333 555 91014;EQDQ01  00002PRCP99
0157683000999992000041303004-26630+015100FM-12+000099999V0201801N007212200019N0050001N1+01451+01211101321ADDGA1001+999999999GF100991001001999999001001MA1999999101141MD1710111+9999REMSYN074AAXX  13034 68300 42950 01814 10145 20121 30114 40132 57011 333 555 91013;
0215683000999992000041306004-26630+015100FM-12+000099999V0201801N003112200019N0200001N1+01381+01231101471ADDAA199000091GF102991021061000751001001KA1240M+02281KA2120N+01241MA1999999101291MD1310081+9999REMSYN092AAXX  13064 68300 32170 21806 10138 20123 30129 40147 53008 82600 333 20124 555 10228 91014;EQDQ01  00002PRCP99
0196683000999992000041312004-26630+015100FM-12+000099999V0201801N007712200019N0200001N1+02251+01291101181ADDAA199000091GF101991011011017501001001KA1120N+01401MA1999999101011MD1810271+9999REMSYN086AAXX  13124 68300 32770 11815 10225 20129 30101 40118 58027 81100 333 20140 555 91011;EQDQ01  00002PRCP99
0206683000999992000041318004-26630+015100FM-12+000099999V0201801N003112200019N0750001N1+01601+01331101331ADDAA199000091GA1001+999999999GF100991001001999999001001KA1120M+02331MA1999999101151MD1210111+9999REMSYN080AAXX  13184 68300 32989 01806 10160 20133 30115 40133 52011 333 10233 555 91013;EQDQ01  00002PRCP99
0225683000999992000041406004-26630+015100FM-12+000099999V0203601N003112200019N0750001N1+01401+01221101401ADDAA199000091GA1001+999999999GF100991001001999999001001KA1240M+02331KA2120N+01301MA1999999101221MD1310151+9999REMSYN086AAXX  14064 68300 32989 03606 10140 20122 30122 40140 53015 333 20130 555 10233 91014;EQDQ01  00002PRCP99
0170683000999992000041409004-26630+015100FM-12+000099999V0203301N003112200019N0750001N1+01601+01331101361ADDAY101031AY201031GA1001+999999999GF100991001001999999001001MD1210141+9999MW1401REMSYN080AAXX  14094 68300 41989 03306 10160 20133 30/// 40136 52014 74000 333 555 91014;
0157683000999992000041415004-26630+015100FM-12+000099999V0201801N005112200019N0200001N1+02201+01531101261ADDGA1001+999999999GF100991001001999999001001MA1999999101081MD1710121+9999REMSYN074AAXX  14154 68300 42970 01810 10220 20153 30108 40126 57012 333 555 91012;
0206683000999992000041418004-26630+015100FM-12+000099999V0201801N003112200019N0100001N1+01651+01191101371ADDAA199000091GA1001+999999999GF100991001001999999001001KA1120M+02351MA1999999101191MD1210111+9999REMSYN080AAXX  14184 68300 32960 01806 10165 20119 30119 40137 52011 333 10235 555 91013;EQDQ01  00002PRCP99
0187683000999992000041421004-26630+015100FM-12+000099999V0201801N001512200019N0300001N1+01601+01241101421ADDAA199000091GA1001+999999999GF100991001001999999001001MA1999999101241MD1310051+9999REMSYN074AAXX  14214 68300 32980 01803 10160 20124 30124 40142 53005 333 555 91014;EQDQ01  00002PRCP99
0190683000999992000041500004-26630+015100FM-12+000099999V0209999C000012200019N0050001N1+01381+01031101241ADDAA199000091AY101061AY201061GF102991021061000751001001MD1410001+9999MW1401REMSYN086AAXX  15004 68300 31150 20000 10138 20103 30/// 40124 54000 74000 82600 333 555 91012;EQDQ01  00002PRCP99
0162683000999992000041503004-26630+015100FM-12+000099999V0209999C000012200019N0650001N1+01301+01111101101ADDAA199000091GF102991021061002501001001MD1710061+9999REMSYN080AAXX  15034 68300 32387 20000 10130 20111 30/// 40110 57006 82600 333 555 91011;EQDQ01  00002PRCP99
0214683000999992000041506004-26630+015100FM-12+000099999V0200501N003112200019N0200001N1+01301+01111101411ADDAA199000091GF104991041061000751001001KA1240M+02251KA2120N+01251MA1999999101231MD1210101+9999REMSYN091AAXX  15064 68300 32170 40506 10130 20111 3012340141 52010 84600 333 20125 555 10225 91014;EQDQ01  00002PRCP99
0157683000999992000041509004-26630+015100FM-12+000099999V0203601N003612200019N0200001N1+01351+01261101521ADDGA1001+999999999GF100991001001999999001001MA1999999101341MD1210081+9999REMSYN074AAXX  15094 68300 42970 03607 10135 20126 30134 40152 52008 333 555 91015;
0196683000999992000041512004-26630+015100FM-12+000099999V0203601N007712200019N0200001N1+01551+01371101361ADDAA199000091GF104991041051000751001001KA1120N+01251MA1999999101181MD1810151+9999REMSYN086AAXX  15124 68300 32170 43615 10155 20137 30118 40136 58015 84500 333 20125 555 91013;EQDQ01  00002PRCP99
0206683000999992000041518004-26630+015100FM-12+000099999V0201801N003112200019N0100001N1+01501+01321101401ADDAA199000091GA1001+999999999GF100991001001999999001001KA1120M+03251MA1999999101221MD1210161+9999REMSYN080AAXX  15184 68300 32960 01806 10150 20132 30122 40140 52016 333 10325 555 91014;EQDQ01  00002PRCP99
0157683000999992000041521004-26630+015100FM-12+000099999V0201801N001512200019N0200001N1+01451+01361101501ADDGA1001+999999999GF100991001001999999001001MA1999999101321MD1310101+9999REMSYN074AAXX  15214 68300 42970 01803 10145 20136 30132 40150 53010 333 555 91015;
0205683000999992000041600004-26630+015100FM-12+000099999V0203601N001512200019N0050001N1+01321+01251101451ADDAA199000091AY101061AY201061GF103991031061000751001001MA1999999101271MD1710051+9999MW1401REMSYN086AAXX  16004 68300 31150 33603 10132 20125 30127 40145 57005 74000 83600 333 555 91014;EQDQ01  00002PRCP99
0171683000999992000041603004-26630+015100FM-12+000099999V0209999C000010006019N0020001N1+01311+01291101341ADDAY141031AY201031GF108991081061000751999999MA1999999101161MD1610111+9999MW1401REMSYN082AAXX  16034 68300 41120 80000 10131 20129 30116 40134 56011 74040 886// 555 91013;
0259683000999992000041606004-26630+015100FM-12+000099999V0201401N001510006019N0008001N1+01351+01261101471ADDAA199000091AY141061AY201061GA1091+999999999GF109991091999999999999999KA1240M+02001KA2120N+01251MA1999999101291MD1310131+9999MW1451REMSYN098AAXX  16064 68300 31/08 91403 10135 20126 30129 40147 53013 74540 886// 333 20125 555 10200 91014;EQDQ01  00002PRCP99
0147683000999992000041609004-26630+015100FM-12+000099999V0201801N005112200019N0300001N1+01801+01451101571ADDGF104991041051000751001001MA1999999101391MD1210081+9999REMSYN080AAXX  16094 68300 42180 41810 10180 20145 30139 40157 52008 84500 333 555 91015;
0206683000999992000041612004-26630+015100FM-12+000099999V0202301N007712200019N0300001N1+02101+01411101441ADDAA199000091GA1001+999999999GF100991001001999999001001KA1120N+01401MA1999999101261MD1810131+9999REMSYN080AAXX  16124 68300 32980 02315 10210 20141 30126 40144 58013 333 20140 555 91014;EQDQ01  00002PRCP99
0157683000999992000041615004-26630+015100FM-12+000099999V0202301N003112200019N0300001N1+02751+00681101431ADDGA1001+999999999GF100991001001999999001001MA1999999101261MD1410001+9999REMSYN074AAXX  16154 68300 42980 02306 10275 20068 30126 40143 54000 333 555 91014;
0206683000999992000041618004-26630+015100FM-12+000099999V0201801N001512200019N0200001N1+01651+01481101551ADDAA199000091GA1001+999999999GF100991001001999999001001KA1120M+02151MA1999999101371MD1210111+9999REMSYN080AAXX  16184 68300 32970 01803 10165 20148 30137 40155 52011 333 10215 555 91015;EQDQ01  00002PRCP99
0187683000999992000041700004-26630+015100FM-12+000099999V0201801N001512200019N0100001N1+01501+01361101601ADDAA199000091GA1001+999999999GF100991001001999999001001MA1999999101421MD1610021+9999REMSYN074AAXX  17004 68300 32960 01803 10150 20136 30142 40160 56002 333 555 91016;EQDQ01  00002PRCP99
0157683000999992000041703004-26630+015100FM-12+000099999V0203601N001512200019N0050001N1+01401+01271101501ADDGA1001+999999999GF100991001001999999001001MA1999999101321MD1810101+9999REMSYN074AAXX  17034 68300 42950 03603 10140 20127 30132 40150 58010 333 555 91015;
0225683000999992000041706004-26630+015100FM-12+000099999V0201801N003112200019N0200001N1+01451+01271101621ADDAA199000091GA1001+999999999GF100991001001999999001001KA1240M+02201KA2120N+01451MA1999999101441MD1310121+9999REMSYN086AAXX  17064 68300 32970 01806 10145 20127 30144 40162 53012 333 20145 555 10220 91016;EQDQ01  00002PRCP99
0142683000999992000041709004-26630+015100FM-12+000099999V0201801N005112200019N0200001N1+01901+01381101501ADDGA1001+999999999GF100991001001999999001001MD1210061+9999REMSYN074AAXX  17094 68300 42970 01810 10190 20138 30/// 40150 52006 333 555 91015;
0191683000999992000041712004-26630+015100FM-12+000099999V0202301N007712200019N0200001N1+01951+01341101391ADDAA199000091GA1001+999999999GF100991001001999999001001KA1120N+01501MD1810111+9999REMSYN080AAXX  17124 68300 32970 02315 10195 20134 30/// 40139 58011 333 20150 555 91014;EQDQ01  00002PRCP99
0157683000999992000041715004-26630+015100FM-12+000099999V0202301N001512200019N0200001N1+01701+01441101551ADDGA1001+999999999GF100991001001999999001001MA1999999101371MD1710021+9999REMSYN074AAXX  17154 68300 42970 02303 10170 20144 30137 40155 57002 333 555 91015;
0206683000999992000041718004-26630+015100FM-12+000099999V0201801N001512200019N0300001N1+01701+01251101691ADDAA199000091GA1001+999999999GF100991001001999999001001KA1120M+02051MA1999999101511MD1210141+9999REMSYN080AAXX  17184 68300 32980 01803 10170 20125 30151 40169 52014 333 10205 555 91016;EQDQ01  00002PRCP99
0157683000999992000041721004-26630+015100FM-12+000099999V0201801N001512200019N0300001N1+01551+01281101731ADDGA1001+999999999GF100991001001999999001001MA1999999101551MD1310041+9999REMSYN074AAXX  17214 68300 42980 01803 10155 20128 30155 40173 53004 333 555 91017;
0172683000999992000041800004-26630+015100FM-12+000099999V0209999C000012200019N0050001N1+01401+01221101501ADDAA199000091GA1001+999999999GF100991001001999999001001MD1710051+9999REMSYN074AAXX  18004 68300 32950 00000 10140 20122 30/// 40150 57005 333 555 91015;EQDQ01  00002PRCP99
0168683000999992000041803004-26630+015100FM-12+000099999V0203601N001512200019N0650001N1+01381+00951101391ADDAA199000091GA1001+999999999GF100991001001999999001001MD1810111+9999REMSYN070AAXX  18034 68300 32987 03603 10138 20095 30/// 40139 58011 555 91014;EQDQ01  00002PRCP99
0228683000999992000041806004-26630+015100FM-12+000099999V0203601N003112200019N0045001N1+01301+01111101481ADDAA199000091AY101061AY201061GF101991011061000751001001KA1240M+02071KA2120N+01301MD1310101+9999MW1401REMSYN098AAXX  18064 68300 31145 13606 10130 20111 30/// 40148 53010 74000 81600 333 20130 555 10207 91015;EQDQ01  00002PRCP99
0157683000999992000041809004-26630+015100FM-12+000099999V0203201N005112200019N0200001N1+01901+01281101661ADDGA1001+999999999GF100991001001999999001001MA1999999101481MD1410001+9999REMSYN074AAXX  18094 68300 42970 03210 10190 20128 30148 40166 54000 333 555 91016;
0191683000999992000041812004-26630+015100FM-12+000099999V0202301N008212200019N0750001N1+02151+01271101371ADDAA199000091GA1001+999999999GF100991001001999999001001KA1120N+01351MD1810111+9999REMSYN080AAXX  18124 68300 32989 02316 10215 20127 3//// 40137 58011 333 20135 555 91015;EQDQ01  00002PRCP99
0157683000999992000041815004-26630+015100FM-12+000099999V0209999C000012200019N0750001N1+02151+01271101561ADDGA1001+999999999GF100991001001999999001001MA1999999101381MD1410001+9999REMSYN074AAXX  18154 68300 42989 00000 10215 20127 30138 40156 54000 333 555 91015;
0206683000999992000041818004-26630+015100FM-12+000099999V0209999C000012200019N0750001N1+01801+01261101571ADDAA199000091GA1001+999999999GF100991001001999999001001KA1120M+02201MA1999999101391MD1310011+9999REMSYN080AAXX  18184 68300 32989 00000 10180 20126 30139 40157 53001 333 10220 555 91015;EQDQ01  00002PRCP99
0157683000999992000041821004-26630+015100FM-12+000099999V0209999C000012200019N0200001N1+01701+01251101541ADDGA1001+999999999GF100991001001999999001001MA1999999101361MD1710031+9999REMSYN074AAXX  18214 68300 42970 00000 10170 20125 30136 40154 57003 333 555 91015;
0187683000999992000041900004-26630+015100FM-12+000099999V0203601N001512200019N0050001N1+01601+01241101431ADDAA199000091GA1001+999999999GF100991001001999999001001MA1999999101251MD1810091+9999REMSYN074AAXX  19004 68300 32950 03603 10160 20124 30125 40143 58009 333 555 91014;EQDQ01  00002PRCP99
0142683000999992000041903004-26630+015100FM-12+000099999V0209999C000012200019N0050001N1+01451+01171101171ADDGA1001+999999999GF100991001001999999001001MD1710071+9999REMSYN074AAXX  19034 68300 42950 00000 10145 20117 3//// 40117 57007 333 555 91011;
0243683000999992000041906004-26630+015100FM-12+000099999V0200501N003112200019N0300001N1+01401+01221101451ADDAA199000091AY141061AY201061GF101991011061012501001001KA1240M+02251KA2120N+01351MA1999999101271MD1310091+9999MW1401REMSYN098AAXX  19064 68300 31680 10506 10140 20122 30127 40145 53009 74040 81600 333 20135 555 10225 91014;EQDQ01  00002PRCP99
0209683000999992000041912004-26630+015100FM-12+000099999V0203201N005112200019N0200001N1+01701+01441101301ADDAA199000091AY141061AY241061GF102991021061008001001001KA1120N+01401MD1810141+9999MW1401REMSYN092AAXX  19124 68300 31570 23210 10170 20144 30/// 40130 58014 74044 82600 333 20140 555 91013;EQDQ01  00002PRCP99
0157683000999992000041915004-26630+015100FM-12+000099999V0209999C000012200019N0750001N1+01801+01361101451ADDGA1001+999999999GF100991001001999999001001MA1999999101271MD1710031+9999REMSYN074AAXX  19154 68300 42989 00000 10180 20136 30127 40145 57003 333 555 91014;
0206683000999992000041918004-26630+015100FM-12+000099999V0209999C000012200019N0750001N1+01451+01361101481ADDAA199000091GA1001+999999999GF100991001001999999001001KA1120M+01901MA1999999101301MD1210071+9999REMSYN080AAXX  19184 68300 32989 00000 10145 20136 30130 40148 52007 333 10190 555 91014;EQDQ01  00002PRCP99
0187683000999992000041921004-26630+015100FM-12+000099999V0209999C000012200019N0300001N1+01151+99999101551ADDAA199000091GA1001+999999999GF100991001001999999001001MA1999999101371MD1310071+9999REMSYN074AAXX  19214 68300 32980 00000 10115 20158 30137 40155 53007 333 555 91015;EQDQ01  00002PRCP99
0172683000999992000042000004-26630+015100FM-12+000099999V0209999C000012200019N0050001N1+01421+01351101371ADDAA199000091GA1001+999999999GF100991001001999999001001MD1410001+9999REMSYN074AAXX  20004 68300 32950 00000 10142 20135 30/// 40137 54001 333 555 91014;EQDQ01  00002PRCP99
0190683000999992000042003004-26630+015100FM-12+000099999V0209999C000010006019N0030001N1+01301+01261101351ADDAA199000091AY101031AY201031GF108991081061000751999999MD1610021+9999MW1441REMSYN086AAXX  20034 68300 31130 80000 10130 20126 30/// 40135 56002 74400 886// 333 555 91014;EQDQ01  00002PRCP99
0228683000999992000042006004-26630+015100FM-12+000099999V0201801N001510042019N0100001N1+01351+01261101451ADDAA199000091AY141061AY201061GF108991081061004501999999KA1240M+02001KA2120N+01301MD1210101+9999MW1441REMSYN098AAXX  20064 68300 31460 81803 10135 20126 30/// 40145 52010 74440 886// 333 20130 555 10200 91015;EQDQ01  00002PRCP99
0147683000999992000042009004-26630+015100FM-12+000099999V0202901N001510120019N0750001N1+01901+01381101681ADDGF108991081051012501999999MA1999999101501MD1310051+9999REMSYN080AAXX  20094 68300 42689 82903 10190 20138 30150 40168 53005 885// 333 555 91016;
0142683000999992000042015004-26630+015100FM-12+000099999V0202701N003112200019N0200001N1+01701+01351101321ADDGA1001+999999999GF100991001001999999001001MD1710011+9999REMSYN074AAXX  20154 68300 42970 02706 10170 20135 3//// 40132 57001 333 555 91013;
0181683000999992000042018004-26630+015100FM-12+000099999V0202701N003112200019N0050001N1+01501+01411101401ADDAA199000091GF101991011061000751001001KA1120M+02031MD1310081+9999REMSYN086AAXX  20184 68300 32150 12706 10150 20141 3//// 40140 53008 81600 333 10203 555 91014;EQDQ01  00002PRCP99
0175683000999992000042103004-26630+015100FM-12+000099999V0201801N001510006019N0020001N1+01251+01251101631ADDAY141031AY241031GF108991081061000751999999MA1999999101451MD1810031+9999MW1401REMSYN086AAXX  21034 68300 41120 81803 10125 20125 30145 40163 58003 74044 886// 333 555 91016;
0225683000999992000042106004-26630+015100FM-12+000099999V0209999C000012200019N0200001N1+01301+01211101751ADDAA199000091GA1001+999999999GF100991001001999999001001KA1240M+02501KA2120N+01301MA1999999101571MD1210051+9999REMSYN086AAXX  21064 68300 32970 00000 10130 20121 30157 40175 52005 333 20130 555 10250 91017;EQDQ01  00002PRCP99
0142683000999992000042109004-26630+015100FM-12+000099999V0202701N001512200019N0200001N1+02001+01191101621ADDGA1001+999999999GF100991001001999999001001MD1310071+9999REMSYN074AAXX  21094 68300 42970 02703 10200 20119 30/// 40162 53007 333 555 91016;
0191683000999992000042112004-26630+015100FM-12+000099999V0203301N001512200019N0750001N1+01901+01381101561ADDAA199000091GA1001+999999999GF100991001001999999001001KA1120N+01501MD1710101+9999REMSYN080AAXX  21124 68300 32989 03303 10190 20138 30/// 40156 57010 333 20150 555 91016;EQDQ01  00002PRCP99
0142683000999992000042115004-26630+015100FM-12+000099999V0203301N003112200019N0750001N1+01721+01331101541ADDGA1001+999999999GF100991001001999999001001MD1710021+9999REMSYN074AAXX  21154 68300 42989 03306 10172 20133 3//// 40154 57002 333 555 91015;
0191683000999992000042118004-26630+015100FM-12+000099999V0203601N003112200019N0750001N1+01701+01251101641ADDAA199000091GA1001+999999999GF100991001001999999001001KA1120M+02051MD1710101+9999REMSYN080AAXX  21184 68300 32989 03606 10170 20125 3//// 40164 57010 333 10205 555 91016;EQDQ01  00002PRCP99
0142683000999992000042121004-26630+015100FM-12+000099999V0203601N003112200019N0050001N1+01581+01351101801ADDGA1001+999999999GF100991001001999999001001MD1710161+9999REMSYN074AAXX  21214 68300 42950 03606 10158 20135 3//// 40180 57016 333 555 91018;
0162683000999992000042200004-26630+015100FM-12+000099999V0201801N001512200019N0100001N1+01501+01411101751ADDAA199000091GF101991011011012501001001MD1310051+9999REMSYN080AAXX  22004 68300 32660 11803 10150 20141 3//// 40175 53005 81100 333 555 91017;EQDQ01  00002PRCP99
0142683000999992000042203004-26630+015100FM-12+000099999V0201801N001512200019N0100001N1+01451+01361101681ADDGA1001+999999999GF100991001001999999001001MD1810071+9999REMSYN074AAXX  22034 68300 42960 01803 10145 20136 3//// 40168 58007 333 555 91016;
0157683000999992000042209004-26630+015100FM-12+000099999V0202701N003112200019N0200001N1+02001+01091102021ADDGA1001+999999999GF100991001001999999001001MA1999999101841MD1110061+9999REMSYN074AAXX  22094 68300 42970 02706 10200 20109 30184 40202 51006 333 555 91020;
0187683000999992000042300004-26630+015100FM-12+000099999V0201801N005112200019N0100001N1+01451+01361102021ADDAA199000091GA1001+999999999GF100991001001999999001001MA1999999101841MD1810011+9999REMSYN074AAXX  23004 68300 32960 01810 10145 20136 30184 40202 58001 333 555 91020;EQDQ01  00002PRCP99
0157683000999992000042303004-26630+015100FM-12+000099999V0201801N003112200019N0100001N1+01401+01311101931ADDGA1001+999999999GF100991001001999999001001MA1999999101751MD1710091+9999REMSYN074AAXX  23034 68300 42960 01806 10140 20131 30175 40193 57009 333 555 91019;
0225683000999992000042306004-26630+015100FM-12+000099999V0202701N001512200019N0200001N1+01701+01351101961ADDAA199000091GA1001+999999999GF100991001001999999001001KA1240M+02201KA2120N+01301MA1999999101781MD1210101+9999REMSYN086AAXX  23064 68300 32970 02703 10170 20135 30178 40196 52010 333 20130 555 10220 91019;EQDQ01  00002PRCP99
0147683000999992000042309004-26630+015100FM-12+000099999V0201801N001519999999N0200001N1+02251+00961102021ADDGF107991071001999999071999MA1999999101841MD1110051+9999REMSYN080AAXX  23094 68300 42970 71803 10225 20096 30184 40202 51005 8707/ 333 555 91020;
0191683000999992000042312004-26630+015100FM-12+000099999V0201801N001512200019N0750001N1+02301+01361101681ADDAA199000091GA1001+999999999GF100991001001999999001001KA1120N+01501MD1710161+9999REMSYN080AAXX  23124 68300 32989 01803 10230 20136 30/// 40168 57016 333 20150 555 91017;EQDQ01  00002PRCP99
0132683000999992000042315004-26630+015100FM-12+000099999V0201801N005112200019N0100001N1+02061+01371101591ADDGF103991011001999999081041MD1710091+9999REMSYN080AAXX  23154 68300 42960 31810 10206 20137 30/// 40159 57009 81084 333 555 91016;
0181683000999992000042318004-26630+015100FM-12+000099999V0201801N005112200019N0750001N1+01801+01301101611ADDAA199000091GF102991021001999999051001KA1120M+02431MD1310021+9999REMSYN086AAXX  23184 68300 32989 21810 10180 20130 30/// 40161 53002 82050 333 10243 555 91016;EQDQ01  00002PRCP99
0142683000999992000042321004-26630+015100FM-12+000099999V0201801N006212200019N0100001N1+01581+01171101691ADDGA1001+999999999GF100991001001999999001001MD1210081+9999REMSYN074AAXX  23214 68300 42960 01812 10158 20117 30/// 40169 52008 333 555 91017;
0187683000999992000042400004-26630+015100FM-12+000099999V0201801N005112200019N0100001N1+01501+01131101701ADDAA199000091GA1001+999999999GF100991001001999999001001MA1999999101521MD1810171+9999REMSYN074AAXX  24004 68300 32960 01810 10150 20113 30152 40170 58017 333 555 91017;EQDQ01  00002PRCP99
0157683000999992000042403004-26630+015100FM-12+000099999V0201801N003112200019N0100001N1+01301+01111101601ADDGA1001+999999999GF100991001001999999001001MA1999999101421MD1710101+9999REMSYN074AAXX  24034 68300 42960 01806 10130 20111 30142 40160 57010 333 555 91016;
0225683000999992000042406004-26630+015100FM-12+000099999V0201501N001512200019N0200001N1+01801+01631101681ADDAA199000091GA1001+999999999GF100991001001999999001001KA1240M+02431KA2120N+01401MA1999999101501MD1210081+9999REMSYN086AAXX  24064 68300 32970 01503 10180 20163 30150 40168 52008 333 20140 555 10243 91016;EQDQ01  00002PRCP99
0138683000999992000042409004-26630+015100FM-12+000099999V0201801N001512200019N0750001N1+01951+01131101541ADDGA1001+999999999GF100991001001999999001001MD1310041+9999REMSYN070AAXX  24094 68300 42989 01803 10195 20113 30/// 40154 53004 555 91016;
0142683000999992000042415004-26630+015100FM-12+000099999V0201801N006212200019N0750001N1+02151+01191101311ADDGA1001+999999999GF100991001001999999001001MD1710041+9999REMSYN074AAXX  24154 68300 42989 01812 10215 20119 3//// 40131 57004 333 555 91013;
0206683000999992000042418004-26630+015100FM-12+000099999V0201801N006212200019N0750001N1+01781+01071101611ADDAA199000091GA1001+999999999GF100991001001999999001001KA1120M+02321MA1999999101431MD1310121+9999REMSYN080AAXX  24184 68300 32989 01812 10178 20107 30143 40161 53012 333 10232 555 91016;EQDQ01  00002PRCP99
0157683000999992000042421004-26630+015100FM-12+000099999V0201801N003112200019N0200001N1+01561+01071101721ADDGA1001+999999999GF100991001001999999001001MA1999999101541MD1210111+9999REMSYN074AAXX  24214 68300 42970 01806 10156 20107 30154 40172 52011 333 555 91017;
0171683000999992000042500004-26630+015100FM-12+000099999V0201801N003112200019N0100001N1+01451+01071101481ADDAA199000091GA1001+999999999GF100991001001999999001001MD1810041+9999REMSYN073AAXX  25004 68300 32960 01806 1014520107 3//// 40148 58004 333 555 91014;EQDQ01  00002PRCP99
0142683000999992000042503004-26630+015100FM-12+000099999V0201801N003112200019N0750001N1+01401+01021101471ADDGA1001+999999999GF100991001001999999001001MD1710011+9999REMSYN074AAXX  25034 68300 42989 01806 10140 20102 3//// 40147 57001 333 555 91014;
0210683000999992000042506004-26630+015100FM-12+000099999V0209999C000012200019N0100001N1+01701+00561101521ADDAA199000091GA1001+999999999GF100991001001999999001001KA1240M+02451KA2120N+01251MD1210081+9999REMSYN086AAXX  25064 68300 32960 00000 10170 20056 3//// 40152 52008 333 20125 555 10245 91015;EQDQ01  00002PRCP99
0206683000999992000042512004-26630+015100FM-12+000099999V0201801N005112200019N0100001N1+02151+00941101611ADDAA199000091GA1001+999999999GF100991001001999999001001KA1120N+01651MA1999999101431MD1710161+9999REMSYN080AAXX  25124 68300 32960 01810 10215 20094 30143 40161 57016 333 20165 555 91016;EQDQ01  00002PRCP99
0153683000999992000042515004-26630+015100FM-12+000099999V0201801N007212200019N0100001N1+01951+00761101531ADDGA1001+999999999GF100991001001999999001001MA1999999101351MD1710081+9999REMSYN070AAXX  25154 68300 42960 01814 10195 20076 30135 40153 57008 555 91015;
0206683000999992000042518004-26630+015100FM-12+000099999V0201801N006212200019N0300001N1+01621+00901101641ADDAA199000091GA1001+999999999GF100991001001999999001001KA1120M+02341MA1999999101461MD1310111+9999REMSYN080AAXX  25184 68300 32980 01812 10162 20090 30146 40164 53011 333 10234 555 91016;EQDQ01  00002PRCP99
0157683000999992000042521004-26630+015100FM-12+000099999V0201801N006212200019N0200001N1+01421+01101101731ADDGA1001+999999999GF100991001001999999001001MA1999999101551MD1210091+9999REMSYN074AAXX  25214 68300 42970 01812 10142 20110 30155 40173 52009 333 555 91017;
0172683000999992000042600004-26630+015100FM-12+000099999V0201801N005112200019N0750001N1+01501+00801101461ADDAA199000091GA1001+999999999GF100991001001999999001001MD1810121+9999REMSYN074AAXX  26004 68300 32989 01810 10150 20080 30/// 40146 58012 333 555 91015;EQDQ01  00002PRCP99
0138683000999992000042603004-26630+015100FM-12+000099999V0201801N004112200019N0100001N1+01651+00631101331ADDGA1001+999999999GF100991001001999999001001MD1710131+9999REMSYN070AAXX  26034 68300 42960 01808 10165 20063 30/// 40133 57013 555 91014;
0225683000999992000042606004-26630+015100FM-12+000099999V0201801N003112200019N0100001N1+01451+00351101661ADDAA199000091GA1001+999999999GF100991001001999999001001KA1240M+02301KA2120N+01401MA1999999101481MD1210091+9999REMSYN086AAXX  26064 68300 32960 01806 10145 20035 30148 40166 52009 333 20140 555 10230 91016;EQDQ01  00002PRCP99
0206683000999992000042612004-26630+015100FM-12+000099999V0202301N008212200019N0200001N1+02201+01121101571ADDAA199000091GA1001+999999999GF100991001001999999001001KA1120N+01501MA1999999101391MD1710121+9999REMSYN080AAXX  26124 68300 32970 02316 10220 20112 30139 40157 57012 333 20150 555 91015;EQDQ01  00002PRCP99
0157683000999992000042615004-26630+015100FM-12+000099999V0201801N009312200019N0750001N1+02151+00941101531ADDGA1001+999999999GF100991001001999999001001MA1999999101351MD1710041+9999REMSYN074AAXX  26154 68300 42989 01818 10215 20094 30135 40153 57004 333 555 91015;
0191683000999992000042618004-26630+015100FM-12+000099999V0201801N003112200019N0100001N1+01721+01511101511ADDAA199000091GA1001+999999999GF100991001001999999001001KA1120M+02471MD1310161+9999REMSYN080AAXX  26184 68300 32960 01806 10172 20151 30/// 40151 53016 333 10247 555 91015;EQDQ01  00002PRCP99
0142683000999992000042621004-26630+015100FM-12+000099999V0201801N002112200019N0100001N1+01661+01411101551ADDGA1001+999999999GF100991001001999999001001MD1210041+9999REMSYN074AAXX  26214 68300 42960 01804 10166 20141 3//// 40155 52004 333 555 91015;
0187683000999992000042700004-26630+015100FM-12+000099999V0201801N003112200019N0100001N1+01501+01321101671ADDAA199000091GA1001+999999999GF100991001001999999001001MA1999999101491MD1810061+9999REMSYN074AAXX  27004 68300 32960 01806 10150 20132 30149 40167 58006 333 555 91016;EQDQ01  00002PRCP99
0157683000999992000042703004-26630+015100FM-12+000099999V0201801N003112200019N0200001N1+01301+01111101581ADDGA1001+999999999GF100991001001999999001001MA1999999101401MD1610091+9999REMSYN074AAXX  27034 68300 42970 01806 10130 20111 30140 40158 56009 333 555 91015;
0215683000999992000042706004-26630+015100FM-12+000099999V0201801N005119999999N0200001N1+01451+01271101651ADDAA199000091GF107991001001999999001071KA1240M+02471KA2120N+01451MA1999999101471MD1210031+9999REMSYN092AAXX  27064 68300 32970 71810 10145 20127 30147 40165 52003 80007 333 20145 555 10247 91016;EQDQ01  00002PRCP99
0147683000999992000042709004-26630+015100FM-12+000099999V0201801N003119999999N0100001N1+02051+01251101671ADDGF108991001001999999001071MA1999999101491MD1310021+9999REMSYN080AAXX  27094 68300 42960 81806 10205 20125 30149 40167 53002 80007 333 555 91016;
0196683000999992000042712004-26630+015100FM-12+000099999V0201801N009312200019N0750001N1+02351+01421101401ADDAA199000091GF101991001001999999001081KA1120N+01201MA1999999101231MD1710161+9999REMSYN086AAXX  27124 68300 32989 11818 10235 20142 30123 40140 57016 80008 333 20120 555 91014;EQDQ01  00002PRCP99
0142683000999992000042715004-26630+015100FM-12+000099999V0201801N009312200019N0750001N1+02101+01041101121ADDGA1001+999999999GF100991001001999999001001MD1710111+9999REMSYN074AAXX  27154 68300 42989 01818 10210 20104 3//// 40112 57011 333 555 91011;
0191683000999992000042718004-26630+015100FM-12+000099999V0201801N009312200019N0750001N1+01701+01381101211ADDAA199000091GA1001+999999999GF100991001001999999001001KA1120M+02451MD1310091+9999REMSYN080AAXX  27184 68300 32989 01818 10170 20138 3//// 40121 53009 333 10245 555 91012;EQDQ01  00002PRCP99
0138683000999992000042721004-26630+015100FM-12+000099999V0201801N006212200019N0100001N1+01551+01001101251ADDGA1001+999999999GF100991001001999999001001MD1210041+9999REMSYN070AAXX  27214 68300 42960 01812 10155 20100 3//// 40125 52004 555 91012;
0172683000999992000042800004-26630+015100FM-12+000099999V0201801N005112200019N0100001N1+01751+00691101301ADDAA199000091GA1001+999999999GF100991001001999999001001MD1310051+9999REMSYN074AAXX  28004 68300 32960 01810 10175 20069 3//// 40130 53005 333 555 91013;EQDQ01  00002PRCP99
0142683000999992000042803004-26630+015100FM-12+000099999V0201801N003112200019N0300001N1+01251+01061101371ADDGA1001+999999999GF100991001001999999001001MD1310071+9999REMSYN074AAXX  28034 68300 42980 01806 10125 20106 3//// 40137 53007 333 555 91013;
0228683000999992000042806004-26630+015100FM-12+000099999V0203601N003112200019N0100001N1+01251+01061101551ADDAA199000091AY101061AY201061GF101991011061012501001001KA1240M+02451KA2120N+01201MD1810141+9999MW1401REMSYN098AAXX  28064 68300 31660 13606 10125 20106 3//// 40155 58014 74000 81600 333 20120 555 10245 91015;EQDQ01  00002PRCP99
0132683000999992000042809004-26630+015100FM-12+000099999V0203601N003112200019N0750001N1+01811+01261101531ADDGF101991011061012501001001MD1710021+9999REMSYN080AAXX  28094 68300 42689 13606 10181 20126 30/// 40153 57002 81600 333 555 91016;
0191683000999992000042812004-26630+015100FM-12+000099999V0202301N004112200019N0100001N1+01951+01281101421ADDAA199000091GA1001+999999999GF100991001001999999001001KA1120N+01971MD1310111+9999REMSYN080AAXX  28124 68300 32960 02308 10195 20128 30/// 40142 53011 333 20197 555 91015;EQDQ01  00002PRCP99
0191683000999992000042818004-26630+015100FM-12+000099999V0201801N001512200019N0100001N1+01701+01441101701ADDAA199000091GA1001+999999999GF100991001001999999001001KA1120M+02201MD1310171+9999REMSYN080AAXX  28184 68300 32960 01803 10170 20144 30/// 40170 53017 333 10220 555 91017;EQDQ01  00002PRCP99
0157683000999992000042821004-26630+015100FM-12+000099999V0201801N002112200019N0100001N1+01601+01421101901ADDGA1001+999999999GF100991001001999999001001MA1999999101721MD1210071+9999REMSYN074AAXX  28214 68300 42960 01804 10160 20142 30172 40190 52007 333 555 91019;
0142683000999992000042903004-26630+015100FM-12+000099999V0201801N001512200019N0100001N1+01501+01171101631ADDGA1001+999999999GF100991001001999999001001MD1810071+9999REMSYN074AAXX  29034 68300 42960 01803 10150 20117 30/// 40163 58007 333 555 91017;
0200683000999992000042906004-26630+015100FM-12+000099999V0201801N005110006019N0050001N1+01361+01091101751ADDAA199000091GF105991051051000751001001KA1240M+02211KA2120N+01351MD1310141+9999REMSYN092AAXX  29064 68300 32150 51810 10136 20109 30/// 40175 53014 85500 333 20135 555 10221 91018;EQDQ01  00002PRCP99
0206683000999992000042912004-26630+015100FM-12+000099999V0201801N009312200019N0100001N1+02051+01151101771ADDAA199000091GA1001+999999999GF100991001001999999001001KA1120N+01321MA1999999101591MD1810231+9999REMSYN080AAXX  29124 68300 32960 01818 10205 20115 30159 40177 58023 333 20132 555 91017;EQDQ01  00002PRCP99
0191683000999992000042918004-26630+015100FM-12+000099999V0201801N003112200019N0100001N1+01601+01331101621ADDAA199000091GA1001+999999999GF100991001001999999001001KA1120M+02951MD1210111+9999REMSYN080AAXX  29184 68300 32960 01806 10160 20133 3//// 40162 52011 333 10295 555 91016;EQDQ01  00002PRCP99
0142683000999992000042921004-26630+015100FM-12+000099999V0201801N003112200019N0100001N1+01501+01391101701ADDGA1001+999999999GF100991001001999999001001MD1310081+9999REMSYN074AAXX  29214 68300 42960 01806 10150 20139 3//// 40170 53008 333 555 91017;
0187683000999992000043000004-26630+015100FM-12+000099999V0201801N002612200019N0050001N1+01481+01341101801ADDAA199000091GA1001+999999999GF100991001001999999001001MA1999999101621MD1710081+9999REMSYN074AAXX  30004 68300 32950 01805 10148 20134 30162 40180 57008 333 555 91018;EQDQ01  00002PRCP99
0157683000999992000043003004-26630+015100FM-12+000099999V0201801N002112200019N0100001N1+01251+00851101741ADDGA1001+999999999GF100991001001999999001001MA1999999101561MD1810061+9999REMSYN074AAXX  30034 68300 42960 01804 10125 20085 30156 40174 58006 333 555 91017;
0228683000999992000043006004-26630+015100FM-12+000099999V0203601N009312200019N0040001N1+01051+00851101721ADDAA199000091AY121061AY221061GF103991031061000751001001KA1240M+02151KA2120N+01051MD1810081+9999MW1401REMSYN098AAXX  30064 68300 31140 33618 10105 20085 30/// 40172 58008 74022 83600 333 20105 555 10215 91017;EQDQ01  00002PRCP99
0132683000999992000043009004-26630+015100FM-12+000099999V0201801N006212200019N0100001N1+01621+01011101841ADDGF101991011001999999081001MD1210101+9999REMSYN080AAXX  30094 68300 42960 11812 10162 20101 30/// 40184 52010 81080 333 555 91018;
0181683000999992000043012004-26630+015100FM-12+000099999V0201801N008212200019N0750001N1+01681+01101101651ADDAA199000091GF104991011031017501001041KA1120N+01051MD1810091+9999REMSYN086AAXX  30124 68300 32789 41816 10168 20110 3//// 40165 58009 81304 333 20105 555 91016;EQDQ01  00002PRCP99
0210683000999992000043018004-26630+015100FM-12+000099999V0201801N009312200019N0750001N1+01351+01061101761ADDAA199000091GA1001+999999999GF100991001001999999001001KA1120M+01751KA2120N+00001MD1210121+9999REMSYN086AAXX  30184 68300 32989 01818 10135 20106 3//// 40176 52012 333 10175 20000 555 91017;EQDQ01  00002PRCP99
0157683000999992000043021004-26630+015100FM-12+000099999V0201801N001512200019N0100001N1+01301+01211101981ADDGA1001+999999999GF100991001001999999001001MA1999999101801MD1310041+9999REMSYN074AAXX  30214 68300 42960 01803 10130 20121 30180 40198 53004 333 555 91019;
0187683000999992000050100004-26630+015100FM-12+000099999V0201801N001512200019N0200001N1+01351+01061101921ADDAA199000091GA1001+999999999GF100991001001999999001001MA1999999101741MD1710061+9999REMSYN074AAXX  01004 68300 32970 01803 10135 20106 30174 40192 57006 333 555 91019;EQDQ01  00002PRCP99
0157683000999992000050103004-26630+015100FM-12+000099999V0201801N001512200019N0200001N1+01501+01131101841ADDGA1001+999999999GF100991001001999999001001MA1999999101661MD1610081+9999REMSYN074AAXX  01034 68300 42970 01803 10150 20113 30166 40184 56008 333 555 91018;
0215683000999992000050106004-26630+015100FM-12+000099999V0201801N005112200019N0200001N1+01021+00591101911ADDAA199000091GF102991011061004501031001KA1240M+01751KA2120N+01021MA1999999101731MD1310071+9999REMSYN092AAXX  01064 68300 32470 21810 10102 20059 30173 40191 53007 81630 333 20102 555 10175 91019;EQDQ01  00002PRCP99
0157683000999992000050109004-26630+015100FM-12+000099999V0201801N009312200019N0750001N1+01701+01001101931ADDGA1001+999999999GF100991001001999999001001MA1999999101751MD1310021+9999REMSYN074AAXX  01094 68300 42989 01818 10170 20100 30175 40193 53002 333 555 91019;
0191683000999992000050112004-26630+015100FM-12+000099999V0202301N009312200019N0750001N1+01901+01051101551ADDAA199000091GA1001+999999999GF100991001001999999001001KA1120N+01051MD1810261+9999REMSYN080AAXX  01124 68300 32989 02318 10190 20105 30/// 40155 58026 333 20105 555 91015;EQDQ01  00002PRCP99
0142683000999992000050115004-26630+015100FM-12+000099999V0201801N012312200019N0750001N1+01801+01221101401ADDGA1001+999999999GF100991001001999999001001MD1710041+9999REMSYN074AAXX  01154 68300 42989 01824 10180 20122 3//// 40140 57004 333 555 91014;
0191683000999992000050118004-26630+015100FM-12+000099999V0201801N010312200019N0750001N1+01451+01171101591ADDAA199000091GA1001+999999999GF100991001001999999001001KA1120M+02101MD1210191+9999REMSYN080AAXX  01184 68300 32989 01820 10145 20117 3//// 40159 52019 333 10210 555 91015;EQDQ01  00002PRCP99
0142683000999992000050121004-26630+015100FM-12+000099999V0201801N012312200019N0100001N1+01401+00911101721ADDGA1001+999999999GF100991001001999999001001MD1310131+9999REMSYN074AAXX  01214 68300 42960 01824 10140 20091 3//// 40172 53013 333 555 91017;
0200683000999992000050206004-26630+015100FM-12+000099999V0201401N003112200019N0200001N1+01301+00721101711ADDAA199000091GF101991011041012501001001KA1240M+02151KA2120N+01251MD1310121+9999REMSYN092AAXX  02064 68300 32670 11406 10130 20072 3//// 40171 53012 81400 333 20125 555 10215 91017;EQDQ01  00002PRCP99
0147683000999992000050209004-26630+015100FM-12+000099999V0201801N010319999999N0200001N1+01721+00721101921ADDGF105991001001999999001091MA1999999101741MD1110021+9999REMSYN080AAXX  02094 68300 42970 51820 10172 20072 30174 40192 51002 80009 333 555 91019;
0196683000999992000050212004-26630+015100FM-12+000099999V0201801N013419999999N0200001N1+01701+00931101731ADDAA199000091GF105991001001999999001091KA1120N+01351MA1999999101551MD1810191+9999REMSYN086AAXX  02124 68300 32970 51826 10170 20093 30155 40173 58019 80009 333 20135 555 91017;EQDQ01  00002PRCP99
0132683000999992000050215004-26630+015100FM-12+000099999V0201801N012912200019N0200001N1+01621+00901101601ADDGF103991001001999999001091MD1410001+9999REMSYN080AAXX  02154 68300 42970 31825 10162 20090 30/// 40160 54000 80009 333 555 91016;
0191683000999992000050218004-26630+015100FM-12+000099999V0201801N009312200019N0050001N1+01421+00651101801ADDAA199000091GA1001+999999999GF100991001001999999001001KA1120M+01951MD1310211+9999REMSYN080AAXX  02184 68300 32950 01818 10142 20065 30/// 40180 53021 333 10195 555 91018;EQDQ01  00002PRCP99
0142683000999992000050221004-26630+015100FM-12+000099999V0201801N007712200019N0050001N1+01351+00621101931ADDGA1001+999999999GF100991001001999999001001MD1310111+9999REMSYN074AAXX  02214 68300 42950 01815 10135 20062 30/// 40193 53011 333 555 91019;
0157683000999992000050303004-26630+015100FM-12+000099999V0201801N010312200019N0100001N1+01101+00561102041ADDGA1001+999999999GF100991001001999999001001MA1999999101861MD1710041+9999REMSYN074AAXX  03034 68300 42960 01820 10110 20056 30186 40204 57004 333 555 91020;
0191683000999992000050312004-26630+015100FM-12+000099999V0201801N013412200019N0750001N1+01711+00781101801ADDAA199000091GA1001+999999999GF100991001001999999001001KA1120N+01101MD1710191+9999REMSYN080AAXX  03124 68300 32989 01826 10171 20078 30/// 40180 57019 333 20110 555 91018;EQDQ01  00002PRCP99
0157683000999992000050315004-26630+015100FM-12+000099999V0201801N011812200019N0750001N1+01711+00711101921ADDGA1001+999999999GF100991001001999999001001MA1999999101741MD1610021+9999REMSYN074AAXX  03154 68300 42989 01823 10171 20071 30174 40192 56002 333 555 91019;
0206683000999992000050318004-26630+015100FM-12+000099999V0201801N005112200019N0750001N1+01301+00901102141ADDAA199000091GA1001+999999999GF100991001001999999001001KA1120M+01961MA1999999101961MD1310171+9999REMSYN080AAXX  03184 68300 32989 01810 10130 20090 30196 40214 53017 333 10196 555 91021;EQDQ01  00002PRCP99
0157683000999992000050321004-26630+015100FM-12+000099999V0201801N005112200019N0200001N1+01451+00201102041ADDGA1001+999999999GF100991001001999999001001MA1999999101861MD1710101+9999REMSYN074AAXX  03214 68300 42970 01810 10145 20020 30186 40204 57010 333 555 91020;
0142683000999992000050403004-26630+015100FM-12+000099999V0201801N003112200019N0050001N1+01101-00011101841ADDGA1001+999999999GF100991001001999999001001MD1710051+9999REMSYN074AAXX  04034 68300 42950 01806 10110 21001 30/// 40184 57005 333 555 91018;
0228683000999992000050406004-26630+015100FM-12+000099999V0202301N007212200019N0050001N1+00911+00431102001ADDAA199000091AY121061AY221061GF101991011061000751001001KA1240M+02001KA2120N+00901MD1710141+9999MW1401REMSYN098AAXX  04064 68300 31150 12314 10091 20043 30/// 40200 57014 74022 81600 333 20090 555 10200 91020;EQDQ01  00002PRCP99
0157683000999992000050409004-26630+015100FM-12+000099999V0202301N007212200019N0200001N1+01651+00131102181ADDGA1001+999999999GF100991001001999999001001MA1999999102001MD1110051+9999REMSYN074AAXX  04094 68300 42970 02314 10165 20013 30200 40218 51005 333 555 91021;
0206683000999992000050412004-26630+015100FM-12+000099999V0201801N011312200019N0200001N1+01851+00451101971ADDAA199000091GA1001+999999999GF100991001001999999001001KA1120N+00951MA1999999101791MD1810211+9999REMSYN080AAXX  04124 68300 32970 01822 10185 20045 30179 40197 58021 333 20095 555 91019;EQDQ01  00002PRCP99
0157683000999992000050415004-26630+015100FM-12+000099999V0201801N010312200019N0300001N1+01821+00551101811ADDGA1001+999999999GF100991001001999999001001MA1999999101631MD1810131+9999REMSYN074AAXX  04154 68300 42980 01820 10182 20055 30163 40181 58013 333 555 91018;
0206683000999992000050418004-26630+015100FM-12+000099999V0201801N007712200019N0200001N1+01401+00681101911ADDAA199000091GA1001+999999999GF100991001001999999001001KA1120M+02001MA1999999101731MD1310101+9999REMSYN080AAXX  04184 68300 32970 01815 10140 20068 30173 40191 53010 333 10200 555 91019;EQDQ01  00002PRCP99
0157683000999992000050421004-26630+015100FM-12+000099999V0201801N009312200019N0200001N1+01301+00421101881ADDGA1001+999999999GF100991001001999999001001MA1999999101701MD1610031+9999REMSYN074AAXX  04214 68300 42970 01818 10130 20042 30170 40188 56003 333 555 91018;
0187683000999992000050500004-26630+015100FM-12+000099999V0209999C000012200019N0100001N1+01301+00121101841ADDAA199000091GA1001+999999999GF100991001001999999001001MA1999999101661MD1710041+9999REMSYN074AAXX  05004 68300 32960 00000 10130 20012 30166 40184 57004 333 555 91018;EQDQ01  00002PRCP99
0157683000999992000050503004-26630+015100FM-12+000099999V0209999C000012200019N0100001N1+01101-00191101681ADDGA1001+999999999GF100991001001999999001001MA1999999101501MD1610061+9999REMSYN074AAXX  05034 68300 42960 00000 10110 21019 30150 40168 56006 333 555 91016;
0225683000999992000050506004-26630+015100FM-12+000099999V0209999C000012200019N0200001N1+01041+00091101721ADDAA199000091GA1001+999999999GF100991001001999999001001KA1240M+02021KA2120N+01001MA1999999101541MD1210041+9999REMSYN086AAXX  05064 68300 32970 00000 10104 20009 30154 40172 52004 333 20100 555 10202 91017;EQDQ01  00002PRCP99
0142683000999992000050509004-26630+015100FM-12+000099999V0201801N003112200019N0200001N1+01661+00331101701ADDGA1001+999999999GF100991001001999999001001MD1210061+9999REMSYN074AAXX  05094 68300 42970 01806 10166 20033 30/// 40170 52006 333 555 91017;
0191683000999992000050512004-26630+015100FM-12+000099999V0201801N007712200019N0750001N1+01951+00861101451ADDAA199000091GA1001+999999999GF100991001001999999001001KA1120N+01071MD1810191+9999REMSYN080AAXX  05124 68300 32989 01815 10195 20086 30/// 40145 58019 333 20107 555 91015;EQDQ01  00002PRCP99
0157683000999992000050515004-26630+015100FM-12+000099999V0201801N007712200019N0750001N1+01901+00841101471ADDGA1001+999999999GF100991001001999999001001MA1999999101291MD1710121+9999REMSYN074AAXX  05154 68300 42989 01815 10190 20084 30129 40147 57012 333 555 91014;
0206683000999992000050518004-26630+015100FM-12+000099999V0201801N005112200019N0750001N1+01551+00971101571ADDAA199000091GA1001+999999999GF100991001001999999001001KA1120M+02151MA1999999101391MD1310101+9999REMSYN080AAXX  05184 68300 32989 01810 10155 20097 30139 40157 53010 333 10215 555 91015;EQDQ01  00002PRCP99
0157683000999992000050521004-26630+015100FM-12+000099999V0201801N003112200019N0100001N1+01301+01011101601ADDGA1001+999999999GF100991001001999999001001MA1999999101421MD1210041+9999REMSYN074AAXX  05214 68300 42960 01806 10130 20101 30142 40160 52004 333 555 91016;
0187683000999992000050600004-26630+015100FM-12+000099999V0201801N005112200019N0100001N1+01201+00551101511ADDAA199000091GA1001+999999999GF100991001001999999001001MA1999999101331MD1810091+9999REMSYN074AAXX  06004 68300 32960 01810 10120 20055 30133 40151 58009 333 555 91015;EQDQ01  00002PRCP99
0157683000999992000050603004-26630+015100FM-12+000099999V0201801N008212200019N0100001N1+01121+00651101411ADDGA1001+999999999GF100991001001999999001001MA1999999101231MD1610101+9999REMSYN074AAXX  06034 68300 42960 01816 10112 20065 30123 40141 56010 333 555 91014;
0225683000999992000050606004-26630+015100FM-12+000099999V0209999C000012200019N0150001N1+01001+00561101441ADDAA199000091GA1001+999999999GF100991001001999999001001KA1240M+02151KA2120N+00981MA1999999101261MD1210031+9999REMSYN086AAXX  06064 68300 32965 00000 10100 20056 30126 40144 52003 333 20098 555 10215 91014;EQDQ01  00002PRCP99
0142683000999992000050609004-26630+015100FM-12+000099999V0201801N003112200019N0750001N1+01801+00571101401ADDGA1001+999999999GF100991001001999999001001MD1310081+9999REMSYN074AAXX  06094 68300 42989 01806 10180 20057 30/// 40140 53008 333 555 91014;
0191683000999992000050612004-26630+015100FM-12+000099999V0201801N007712200019N0750001N1+02101+00941101201ADDAA199000091GA1001+999999999GF100991001001999999001001KA1120N+01021MD1810211+9999REMSYN080AAXX  06124 68300 32989 01815 10210 20094 30/// 40120 58021 333 20102 555 91012;EQDQ01  00002PRCP99
0157683000999992000050615004-26630+015100FM-12+000099999V0201801N007712200019N0200001N1+01851+01121101271ADDGA1001+999999999GF100991001001999999001001MA1999999101091MD1710041+9999REMSYN074AAXX  06154 68300 42970 01815 10185 20112 30109 40127 57004 333 555 91012;
0206683000999992000050618004-26630+015100FM-12+000099999V0201801N003112200019N0200001N1+01501+01231101371ADDAA199000091GA1001+999999999GF100991001001999999001001KA1120M+02251MA1999999101191MD1310011+9999REMSYN080AAXX  06184 68300 32970 01806 10150 20123 30119 40137 53001 333 10225 555 91013;EQDQ01  00002PRCP99
0157683000999992000050621004-26630+015100FM-12+000099999V0201801N003112200019N0200001N1+01301+01011101411ADDGA1001+999999999GF100991001001999999001001MA1999999101231MD1210041+9999REMSYN074AAXX  06214 68300 42970 01806 10130 20101 30123 40141 52004 333 555 91014;
0190683000999992000050700004-26630+015100FM-12+000099999V0201801N003112200019N0040001N1+01151+00951101221ADDAA199000091AY141061AY221061GF101991011061000751001001MD1810061+9999MW1401REMSYN086AAXX  07004 68300 31140 11806 10115 20095 30/// 40122 58006 74042 81600 333 555 91012;EQDQ01  00002PRCP99
0160683000999992000050703004-26630+015100FM-12+000099999V0201801N003112200019N0040001N1+01051+00781101141ADDAY141031AY221031GF101991011061000751001001MD1710111+9999MW1401REMSYN086AAXX  07034 68300 41140 11806 10105 20078 30/// 40114 57011 74042 81600 333 555 91011;
0185683000999992000050709004-26630+015100FM-12+000099999V0203601N001512200019N0050001N1+01381+01141101551ADDAY121031AY221031GA1001+999999999GF100991001001999999001001MA1999999101371MD1310181+9999MW1401REMSYN080AAXX  07094 68300 41950 03603 10138 20114 30137 40155 53018 74022 333 555 91015;
0234683000999992000050712004-26630+015100FM-12+000099999V0203601N003112200019N0100001N1+01451+01171101541ADDAA199000091AY141061AY201061GA1001+999999999GF100991001001999999001001KA1120N+01051MA1999999101361MD1610011+9999MW1401REMSYN086AAXX  07124 68300 31960 03606 10145 20117 30136 40154 56001 74040 333 20105 555 91015;EQDQ01  00002PRCP99
0185683000999992000050715004-26630+015100FM-12+000099999V0203601N003112200019N0300001N1+01451+01271101511ADDAY141031AY221031GA1001+999999999GF100991001001999999001001MA1999999101331MD1810131+9999MW1101REMSYN080AAXX  07154 68300 41980 03606 10145 20127 30133 40151 58013 71042 333 555 91015;
0234683000999992000050718004-26630+015100FM-12+000099999V0201801N003112200019N0300001N1+01401+01121101691ADDAA199000091AY141061AY241061GA1001+999999999GF100991001001999999001001KA1120M+01601MA1999999101511MD1310191+9999MW1401REMSYN086AAXX  07184 68300 31980 01806 10140 20112 30151 40169 53019 74044 333 10160 555 91016;EQDQ01  00002PRCP99
0157683000999992000050721004-26630+015100FM-12+000099999V0201801N003112200019N0100001N1+01401+01221101711ADDGA1001+999999999GF100991001001999999001001MA1999999101531MD1210031+9999REMSYN074AAXX  07214 68300 42960 01806 10140 20122 30153 40171 52003 333 555 91017;
0160683000999992000050803004-26630+015100FM-12+000099999V0201801N003112200019N0050001N1+01141+01001101461ADDAY141031AY201031GF101991011061002501001001MD1810081+9999MW1401REMSYN086AAXX  08034 68300 41350 11806 10114 20100 3//// 40146 58008 74040 81600 333 555 91014;
0210683000999992000050806004-26630+015100FM-12+000099999V0203601N001512200019N0750001N1+01151+00951101561ADDAA199000091GA1001+999999999GF100991001001999999001001KA1240M+01601KA2120N+01141MD1310111+9999REMSYN086AAXX  08064 68300 32989 03603 10115 20095 3//// 40156 53011 333 20114 555 10160 91015;EQDQ01  00002PRCP99
0157683000999992000050809004-26630+015100FM-12+000099999V0203601N001512200019N0750001N1+01751+00991101811ADDGA1001+999999999GF100991001001999999001001MA1999999101631MD1310081+9999REMSYN074AAXX  08094 68300 42989 03603 10175 20099 30163 40181 53008 333 555 91018;
0206683000999992000050812004-26630+015100FM-12+000099999V0201801N005112200019N0750001N1+01901+01071101711ADDAA199000091GA1001+999999999GF100991001001999999001001KA1120N+01181MA1999999101531MD1810111+9999REMSYN080AAXX  08124 68300 32989 01810 10190 20107 30153 40171 58011 333 20118 555 91017;EQDQ01  00002PRCP99
0157683000999992000050815004-26630+015100FM-12+000099999V0202301N010312200019N0750001N1+01801+01161101651ADDGA1001+999999999GF100991001001999999001001MA1999999101471MD1710051+9999REMSYN074AAXX  08154 68300 42989 02320 10180 20116 30147 40165 57005 333 555 91016;
0206683000999992000050818004-26630+015100FM-12+000099999V0201801N007712200019N0750001N1+01401+01121101791ADDAA199000091GA1001+999999999GF100991001001999999001001KA1120M+02151MA1999999101611MD1310141+9999REMSYN080AAXX  08184 68300 32989 01815 10140 20112 30161 40179 53014 333 10215 555 91017;EQDQ01  00002PRCP99
0157683000999992000050821004-26630+015100FM-12+000099999V0201801N003112200019N0200001N1+01401+01021101811ADDGA1001+999999999GF100991001001999999001001MA1999999101631MD1210021+9999REMSYN074AAXX  08214 68300 42970 01806 10140 20102 30163 40181 52002 333 555 91018;
0187683000999992000050900004-26630+015100FM-12+000099999V0201801N005112200019N0050001N1+01311+00981101761ADDAA199000091GA1001+999999999GF100991001001999999001001MA1999999101581MD1810051+9999REMSYN074AAXX  09004 68300 32950 01810 10131 20098 30158 40176 58005 333 555 91017;EQDQ01  00002PRCP99
0157683000999992000050903004-26630+015100FM-12+000099999V0201801N003112200019N0050001N1+01261+00941101691ADDGA1001+999999999GF100991001001999999001001MA1999999101511MD1710071+9999REMSYN074AAXX  09034 68300 42950 01806 10126 20094 30151 40169 57007 333 555 91016;
0225683000999992000050906004-26630+015100FM-12+000099999V0201801N001512200019N0200001N1+01211+00991101771ADDAA199000091GA1001+999999999GF100991001001999999001001KA1240M+02181KA2120N+01211MA1999999101591MD1210081+9999REMSYN086AAXX  09064 68300 32970 01803 10121 20099 30159 40177 52008 333 20121 555 10218 91017;EQDQ01  00002PRCP99
0142683000999992000050909004-26630+015100FM-12+000099999V0201801N003112200019N0750001N1+01761+01201101701ADDGA1001+999999999GF100991001001999999001001MD1210021+9999REMSYN074AAXX  09094 68300 42989 01806 10176 20120 30/// 40170 52002 333 555 91017;
0206683000999992000050912004-26630+015100FM-12+000099999V0201801N007712200019N0200001N1+02101+01041101581ADDAA199000091GA1001+999999999GF100991001001999999001001KA1120N+01251MA1999999101401MD1810201+9999REMSYN080AAXX  09124 68300 32970 01815 10210 20104 30140 40158 58020 333 20125 555 91015;EQDQ01  00002PRCP99
0157683000999992000050915004-26630+015100FM-12+000099999V0202301N007712200019N0300001N1+01901+00961101581ADDGA1001+999999999GF100991001001999999001001MA1999999101401MD1410001+9999REMSYN074AAXX  09154 68300 42980 02315 10190 20096 30140 40158 54000 333 555 91015;
0206683000999992000050918004-26630+015100FM-12+000099999V0201801N005112200019N0200001N1+01401+01311101731ADDAA199000091GA1001+999999999GF100991001001999999001001KA1120M+02201MA1999999101551MD1310151+9999REMSYN080AAXX  09184 68300 32970 01810 10140 20131 30155 40173 53015 333 10220 555 91017;EQDQ01  00002PRCP99
0157683000999992000050921004-26630+015100FM-12+000099999V0201801N005112200019N0200001N1+01351+01161101771ADDGA1001+999999999GF100991001001999999001001MA1999999101591MD1210051+9999REMSYN074AAXX  09214 68300 42970 01810 10135 20116 30159 40177 52005 333 555 91017;
0205683000999992000051000004-26630+015100FM-12+000099999V0201801N005112200019N0050001N1+01231+01081101721ADDAA199000091AY101061AY221061GF101991011061000751001001MA1999999101541MD1810051+9999MW1401REMSYN086AAXX  10004 68300 31150 11810 10123 20108 30154 40172 58005 74002 81600 333 555 91017;EQDQ01  00002PRCP99
0225683000999992000051006004-26630+015100FM-12+000099999V0209999C000012200019N0200001N1+01141+01061101811ADDAA199000091GA1001+999999999GF100991001001999999001001KA1240M+02211KA2120N+01111MA1999999101631MD1310131+9999REMSYN086AAXX  10064 68300 32970 00000 10114 20106 30163 40181 53013 333 20111 555 10221 91018;EQDQ01  00002PRCP99
0142683000999992000051009004-26630+015100FM-12+000099999V0209999C000012200019N0200001N1+01621+01451101801ADDGA1001+999999999GF100991001001999999001001MD1310121+9999REMSYN074AAXX  10094 68300 42970 00000 10162 20145 30/// 40180 53012 333 555 91018;
0206683000999992000051012004-26630+015100FM-12+000099999V0201801N003112200019N0750001N1+02351+01961101801ADDAA199000091GA1001+999999999GF100991001001999999001001KA1120N+01151MA1999999101621MD1810131+9999REMSYN080AAXX  10124 68300 32989 01806 10235 20196 30162 40180 58013 333 20115 555 91018;EQDQ01  00002PRCP99
0157683000999992000051015004-26630+015100FM-12+000099999V0202301N003112200019N0750001N1+02451+01901101741ADDGA1001+999999999GF100991001001999999001001MA1999999101571MD1710041+9999REMSYN074AAXX  10154 68300 42989 02306 10245 20190 30157 40174 57004 333 555 91017;
0206683000999992000051018004-26630+015100FM-12+000099999V0201801N003112200019N0200001N1+01751+01491101861ADDAA199000091GA1001+999999999GF100991001001999999001001KA1120M+02551MA1999999101681MD1310101+9999REMSYN080AAXX  10184 68300 32970 01806 10175 20149 30168 40186 53010 333 10255 555 91018;EQDQ01  00002PRCP99
0157683000999992000051021004-26630+015100FM-12+000099999V0201801N003112200019N0300001N1+01351+01301101981ADDGA1001+999999999GF100991001001999999001001MA1999999101801MD1210121+9999REMSYN074AAXX  10214 68300 42980 01806 10135 20130 30180 40198 52012 333 555 91019;
0172683000999992000051100004-26630+015100FM-12+000099999V0201801N003112200019N0050001N1+01281+01031101761ADDAA199000091GA1001+999999999GF100991001001999999001001MD1810041+9999REMSYN074AAXX  11004 68300 32950 01806 10128 20103 3//// 40176 58004 333 555 91017;EQDQ01  00002PRCP99
0132683000999992000051103004-26630+015100FM-12+000099999V0201801N003112200019N0300001N1+01201+01101101701ADDGF101991011061017501001001MD1710061+9999REMSYN080AAXX  11034 68300 42780 11806 10120 20110 3//// 40170 57006 81600 333 555 91017;
0210683000999992000051106004-26630+015100FM-12+000099999V0201801N002112200019N0200001N1+01151+01111101841ADDAA199000091GA1001+999999999GF100991001001999999001001KA1240M+02551KA2120N+01101MD1310141+9999REMSYN086AAXX  11064 68300 32970 01804 10115 20111 3//// 40184 53014 333 20110 555 10255 91020;EQDQ01  00002PRCP99
0142683000999992000051109004-26630+015100FM-12+000099999V0201801N003112200019N0200001N1+02041+01701101901ADDGA1001+999999999GF100991001001999999001001MD1210041+9999REMSYN074AAXX  11094 68300 42970 01806 10204 20170 30/// 40190 52004 333 555 91019;
0191683000999992000051112004-26630+015100FM-12+000099999V0201801N005112200019N0750001N1+02421+01991101701ADDAA199000091GA1001+999999999GF100991001001999999001001KA1120N+01181MD1810271+9999REMSYN080AAXX  11124 68300 32989 01810 10242 20199 30/// 40170 58027 333 20118 555 91017;EQDQ01  00002PRCP99
0157683000999992000051115004-26630+015100FM-12+000099999V0201801N007712200019N0750001N1+02151+01831101661ADDGA1001+999999999GF100991001001999999001001MA1999999101481MD1710121+9999REMSYN074AAXX  11154 68300 42989 01815 10215 20183 30148 40166 57012 333 555 91016;
0206683000999992000051118004-26630+015100FM-12+000099999V0203201N005112200019N0750001N1+01451+01271101881ADDAA199000091GA1001+999999999GF100991001001999999001001KA1120M+02701MA1999999101701MD1310191+9999REMSYN080AAXX  11184 68300 32989 03210 10145 20127 30170 40188 53019 333 10270 555 91018;EQDQ01  00002PRCP99
0204683000999992000051121004-26630+015100FM-12+000099999V0203201N005112200019N0050001N1+01201+01101101891ADDAY101031AY201031GA1001+999999999GF100991001001999999001001MA1999999101711MD1210051+9999MW1461REMSYN080AAXX  11214 68300 41950 03210 10120 20110 30171 40189 52005 74700 333 555 91018;EQDQ01+000472PRSWM1
0205683000999992000051200004-26630+015100FM-12+000099999V0203201N005110003019N0020001N1+01051+01051101791ADDAA199000091AY141061AY241061GF105991051061000251001001MA1999999101611MD1810101+9999MW1441REMSYN086AAXX  12004 68300 31020 53210 10105 20105 30161 40179 58010 74444 85600 333 555 91017;EQDQ01  00002PRCP99
0160683000999992000051203004-26630+015100FM-12+000099999V0203201N003112200019N0040001N1+01151+01111101451ADDAY141031AY241031GF103991031061000751001001MD1710171+9999MW1401REMSYN086AAXX  12034 68300 41140 33206 10115 20111 3//// 40145 57017 74044 83600 333 555 91014;
0210683000999992000051206004-26630+015100FM-12+000099999V0202701N005112200019N0750001N1+02051+01551101471ADDAA199000091GA1001+999999999GF100991001001999999001001KA1240M+02241KA2120N+01101MD1310031+9999REMSYN086AAXX  12064 68300 32989 02710 10205 20155 3//// 40147 53003 333 20110 555 10224 91014;EQDQ01  00002PRCP99
0157683000999992000051209004-26630+015100FM-12+000099999V0203601N005112200019N0750001N1+02651+01781101721ADDGA1001+999999999GF100991001001999999001001MA1999999101551MD1210071+9999REMSYN074AAXX  12094 68300 42989 03610 10265 20178 30155 40172 52007 333 555 91017;
0187683000999992000051212004-26630+015100FM-12+000099999V0202301N005112200019N0200001N1+02821+01801101531ADDAA199000091GA1001+999999999GF100991001001999999001001MA1999999101361MD1810201+9999REMSYN074AAXX  12124 68300 32970 02310 10282 20180 30136 40153 58020 333 555 91015;EQDQ01  00002PRCP99
0153683000999992000051215004-26630+015100FM-12+000099999V0200501N005112200019N0200001N1+01901+01561101521ADDGA1001+999999999GF100991001001999999001001MA1999999101341MD1710011+9999REMSYN070AAXX  12154 68300 42970 00510 10190 20156 30134 40152 57001 555 91015;
0206683000999992000051218004-26630+015100FM-12+000099999V0209999C000012200019N0200001N1+01751+01341101671ADDAA199000091GA1001+999999999GF100991001001999999001001KA1120M+02951MA1999999101491MD1310151+9999REMSYN080AAXX  12184 68300 32970 00000 10175 20134 30149 40167 53015 333 10295 555 91016;EQDQ01  00002PRCP99
0157683000999992000051221004-26630+015100FM-12+000099999V0209999C000012200019N0100001N1+02251+01191101711ADDGA1001+999999999GF100991001001999999001001MA1999999101531MD1210041+9999REMSYN074AAXX  12214 68300 42960 00000 10225 20119 30153 40171 52004 333 555 91017;
0187683000999992000051300004-26630+015100FM-12+000099999V0200501N003112200019N0100001N1+02301+01211101571ADDAA199000091GA1001+999999999GF100991001001999999001001MA1999999101391MD1810161+9999REMSYN074AAXX  13004 68300 32960 00506 10230 20121 30139 40157 58016 333 555 91015;EQDQ01  00002PRCP99
0157683000999992000051303004-26630+015100FM-12+000099999V0209999C000012200019N0200001N1+01941+01031101541ADDGA1001+999999999GF100991001001999999001001MA1999999101361MD1610031+9999REMSYN074AAXX  13034 68300 42970 00000 10194 20103 30136 40154 56003 333 555 91015;
0225683000999992000051306004-26630+015100FM-12+000099999V0203201N007712200019N0200001N1+02521+01391101581ADDAA199000091GA1001+999999999GF100991001001999999001001KA1240M+03001KA2120N+01701MA1999999101411MD1310041+9999REMSYN086AAXX  13064 68300 32970 03215 10252 20139 30141 40158 53004 333 20170 555 10300 91015;EQDQ01  00002PRCP99
0142683000999992000051309004-26630+015100FM-12+000099999V0200501N013912200019N0200001N1+03001+01651101501ADDGA1001+999999999GF100991001001999999001001MD1210081+9999REMSYN074AAXX  13094 68300 42970 00527 10300 20165 30/// 40150 52008 333 555 91015;
0191683000999992000051312004-26630+015100FM-12+000099999V0203601N005112200019N0200001N1+02451+01341101401ADDAA199000091GA1001+999999999GF100991001001999999001001KA1120N+02301MD1810131+9999REMSYN080AAXX  13124 68300 32970 03610 10245 20134 30/// 40140 58013 333 20230 555 91014;EQDQ01  00002PRCP99
0187683000999992000051315004-26630+015100FM-12+000099999V0203601N005112200019N0200001N1+02201+01441101491ADDAA199000091GA1001+999999999GF100991001001999999001001MA1999999101311MD1710041+9999REMSYN074AAXX  13154 68300 32970 03610 10220 20144 30131 40149 57004 333 555 91014;EQDQ01  00002PRCP99
0147683000999992000051321004-26630+015100FM-12+000099999V0209999C000012200019N0050001N1+02161+01071101671ADDGF103991031011000751001001MA1999999101491MD1210061+9999REMSYN080AAXX  13214 68300 42150 30000 10216 20107 30149 40167 52006 83100 333 555 91016;
0187683000999992000051400004-26630+015100FM-12+000099999V0209999C000012200019N0100001N1+01981+00881101631ADDAA199000091GA1001+999999999GF100991001001999999001001MA1999999101451MD1810041+9999REMSYN074AAXX  14004 68300 32960 00000 10198 20088 30145 40163 58004 333 555 91016;EQDQ01  00002PRCP99
0157683000999992000051403004-26630+015100FM-12+000099999V0209999C000012200019N0200001N1+02051+00921101601ADDGA1001+999999999GF100991001001999999001001MA1999999101421MD1610031+9999REMSYN074AAXX  14034 68300 42970 00000 10205 20092 30142 40160 56003 333 555 91016;
0215683000999992000051406004-26630+015100FM-12+000099999V0200501N013912200019N0200001N1+02901+00651101631ADDAA199000091GF104991041001999999071001KA1240M+03301KA2120N+01801MA1999999101461MD1310041+9999REMSYN092AAXX  14064 68300 32970 40527 10290 20065 30146 40163 53004 84070 333 20180 555 10330 91016;EQDQ01  00002PRCP99
0196683000999992000051412004-26630+015100FM-12+000099999V0203201N007712200019N0200001N1+01951+01431101701ADDAA199000091GF101991011011000751001001KA1120N+01651MA1999999101521MD1810141+9999REMSYN086AAXX  14124 68300 32170 13215 10195 20143 30152 40170 58014 81100 333 20165 555 91017;EQDQ01  00002PRCP99
0147683000999992000051415004-26630+015100FM-12+000099999V0203601N005112200019N0200001N1+01701+01441101691ADDGF102991021021000751001001MA1999999101511MD1710101+9999REMSYN080AAXX  14154 68300 42170 23610 10170 20144 30151 40169 57010 82200 333 555 91016;
0222683000999992000051418004-26630+015100FM-12+000099999V0209999C000012200019N0750001N1+01541+01431101811ADDAA199000091GA1001+999999999GF100991001001999999001001KA1120N+99999MA1999999101631MD1310121+9999REMSYN080AAXX  14184 68300 32989 00000 10154 20143 30163 40181 53012 333 20285 555 91018;EQDQ01  00002PRCP99Q02 +02852ATMN  
0162683000999992000051500004-26630+015100FM-12+000099999V0209999C000010021019N0050001N1+01451+01251101701ADDAA199000091GF106991061051002501001001MD1810061+9999REMSYN080AAXX  15004 68300 32350 60000 10145 20125 30/// 40170 58006 86500 333 555 91017;EQDQ01  00002PRCP99
0157683000999992000051503004-26630+015100FM-12+000099999V0209999C000012200019N0050001N1+01601+01241101781ADDGA1001+999999999GF100991001001999999001001MA1999999101601MD1710051+9999REMSYN074AAXX  15034 68300 42950 00000 10160 20124 30160 40178 57005 333 555 91017;
0200683000999992000051506004-26630+015100FM-12+000099999V0201801N003112200019N0200001N1+01451+01171101801ADDAA199000091GF104991041051001501001001KA1240M+02851KA2120N+01451MD1310141+9999REMSYN092AAXX  15064 68300 32270 41806 10145 20117 30/// 40180 53014 84500 333 20145 555 10285 91018;EQDQ01  00002PRCP99
0196683000999992000051512004-26630+015100FM-12+000099999V0202301N010312200019N0200001N1+01801+01261101961ADDAA199000091GF101991011011000751001001KA1120N+01401MA1999999101781MD1810091+9999REMSYN086AAXX  15124 68300 32170 12320 10180 20126 30178 40196 58009 81100 333 20140 555 91019;EQDQ01  00002PRCP99
0157683000999992000051515004-26630+015100FM-12+000099999V0202301N005112200019N0200001N1+01901+01381101881ADDGA1001+999999999GF100991001001999999001001MA1999999101701MD1710081+9999REMSYN074AAXX  15154 68300 42970 02310 10190 20138 30170 40188 57008 333 555 91018;
0224683000999992000051518004-26630+015100FM-12+000099999V0200501N004112200019N0100001N1+01481+01281102031ADDAA199000091AY101061AY201061GF101991011061002501001001KA1120M+02101MA1999999101851MD1310151+9999MW1101REMSYN092AAXX  15184 68300 31360 10508 10148 20128 30185 40203 53015 71000 81600 333 10210 555 91020;EQDQ01  00002PRCP99
0175683000999992000051521004-26630+015100FM-12+000099999V0201501N004112200019N0100001N1+01361+01251102141ADDAY141031AY241031GF101991011051002501001001MA1999999101961MD1210111+9999MW1401REMSYN086AAXX  15214 68300 41360 11508 10136 20125 30196 40214 52011 74044 81500 333 555 91021;
0190683000999992000051600004-26630+015100FM-12+000099999V0203601N004110006019N0050001N1+01251+00951101961ADDAA199000091AY141061AY241061GF106991061061000751001001MD1410001+9999MW1451REMSYN086AAXX  16004 68300 31150 63608 10125 20095 3//// 40196 54001 74544 86600 333 555 91019;EQDQ01  00002PRCP99
0142683000999992000051603004-26630+015100FM-12+000099999V0203601N003112200019N0050001N1+01151+00851101861ADDGA1001+999999999GF100991001001999999001001MD1310101+9999REMSYN074AAXX  16034 68300 42950 03606 10115 20085 3//// 40186 53010 333 555 91018;
0222683000999992000051606004-26630+015100FM-12+000099999V0201801N003112200019N0050001N1+01151+00851101971ADDAA199000091AY101061AY201061GF101991999999017501999999KA1240M+02101KA2120N+01151MD1210121+9999MW1401REMSYN092AAXX  16064 68300 32750 11806 10115 20085 3//// 40197 52012 74000 333 20115 555 10210 91019;EQDQ01  00002PRCP99
0157683000999992000051609004-26630+015100FM-12+000099999V0202301N003112200019N0200001N1+01751+01211102241ADDGA1001+999999999GF100991001001999999001001MA1999999102061MD1210081+9999REMSYN074AAXX  16094 68300 42970 02306 10175 20121 30206 40224 52008 333 555 91022;
0206683000999992000051612004-26630+015100FM-12+000099999V0202301N010812200019N0750001N1+02051+01251102021ADDAA199000091GA1001+999999999GF100991001001999999001001KA1120N+01151MA1999999101841MD1810231+9999REMSYN080AAXX  16124 68300 32989 02321 10205 20125 30184 40202 58023 333 20115 555 91020;EQDQ01  00002PRCP99
0157683000999992000051615004-26630+015100FM-12+000099999V0202301N011312200019N0100001N1+01981+01101101951ADDGA1001+999999999GF100991001001999999001001MA1999999101771MD1710071+9999REMSYN074AAXX  16154 68300 42960 02322 10198 20110 30177 40195 57007 333 555 91019;
0206683000999992000051618004-26630+015100FM-12+000099999V0201301N010312200019N0750001N1+01501+01171101991ADDAA199000091GA1001+999999999GF100991001001999999001001KA1120M+02151MA1999999101811MD1310041+9999REMSYN080AAXX  16184 68300 32989 01320 10150 20117 30181 40199 53004 333 10215 555 91019;EQDQ01  00002PRCP99
0175683000999992000051621004-26630+015100FM-12+000099999V0201301N006212200019N0040001N1+01201+01041102141ADDAY141031AY201031GF103991031061000751001001MA1999999101961MD1210151+9999MW1401REMSYN086AAXX  16214 68300 41140 31312 10120 20104 30196 40214 52015 74040 83600 333 555 91021;
0160683000999992000051700004-26630+015100FM-12+000099999V0203601N003110006019N0040001N1+01121+00901101971ADDAY141061AY201061GF108991081061000751999999MD1410001+9999MW1401REMSYN086AAXX  17004 68300 41140 83606 10112 20090 3//// 40197 54002 74040 886// 333 555 91019;
0160683000999992000051703004-26630+015100FM-12+000099999V0203601N001510006019N0040001N1+01101+01061101821ADDAY141031AY201031GF108991081061000751999999MD1810141+9999MW1441REMSYN086AAXX  17034 68300 41140 83603 10110 20106 3//// 40182 58014 74440 886// 333 555 91018;
0228683000999992000051706004-26630+015100FM-12+000099999V0201801N003110075019N0050001N1+01001+00901101911ADDAA199000091AY141061AY241061GF108991081061008001999999KA1240M+02151KA2120N+00951MD1310091+9999MW1441REMSYN098AAXX  17064 68300 31550 81806 10100 20090 3//// 40191 53009 74444 886// 333 20095 555 10215 91019;EQDQ01  00002PRCP99
0191683000999992000051712004-26630+015100FM-12+000099999V0202301N010312200019N0200001N1+02001+01261101701ADDAA199000091GA1001+999999999GF100991001001999999001001KA1120N+01051MD1810291+9999REMSYN080AAXX  17124 68300 32970 02320 10200 20126 30/// 40170 58029 333 20105 555 91017;EQDQ01  00002PRCP99
0157683000999992000051715004-26630+015100FM-12+000099999V0201801N010312200019N0200001N1+01801+01161101771ADDGA1001+999999999GF100991001001999999001001MA1999999101591MD1710091+9999REMSYN074AAXX  17154 68300 42970 01820 10180 20116 30159 40177 57009 333 555 91017;
0206683000999992000051718004-26630+015100FM-12+000099999V0201801N010312200019N0100001N1+01411+01111102021ADDAA199000091GA1001+999999999GF100991001001999999001001KA1120M+02101MA1999999101841MD1310251+9999REMSYN080AAXX  17184 68300 32960 01820 10141 20111 30184 40202 53025 333 10210 555 91020;EQDQ01  00002PRCP99
0157683000999992000051721004-26630+015100FM-12+000099999V0201801N008212200019N0100001N1+01261+01031102091ADDGA1001+999999999GF100991001001999999001001MA1999999101911MD1210071+9999REMSYN074AAXX  17214 68300 42960 01816 10126 20103 30191 40209 52007 333 555 91020;
0142683000999992000051803004-26630+015100FM-12+000099999V0209999C000012200019N0050001N1+01001+00791101781ADDGA1001+999999999GF100991001001999999001001MD1610021+9999REMSYN074AAXX  18034 68300 42950 00000 10100 20079 3//// 40178 56002 333 555 91017;
0244683000999992000051806004-26630+015100FM-12+000099999V0201401N003110006019N0009001N1+00951+00951101841ADDAA199000091AY141061AY241061GA1091+999999999GF109991091999999999999999KA1240M+02151KA2120N+00951MD1310051+9999MW1451REMSYN098AAXX  18064 68300 31/09 91406 10095 20095 3//// 40184 53005 74544 8//// 333 20095 555 10215 91018;EQDQ01  00002PRCP99
0157683000999992000051809004-26630+015100FM-12+000099999V0201801N002112200019N0750001N1+01651+00751102001ADDGA1001+999999999GF100991001001999999001001MA1999999101821MD1810021+9999REMSYN074AAXX  18094 68300 42989 01804 10165 20075 30182 40200 58002 333 555 91020;
0206683000999992000051812004-26630+015100FM-12+000099999V0202301N013912200019N0200001N1+02101+00991101791ADDAA199000091GA1001+999999999GF100991001001999999001001KA1120N+01451MA1999999101611MD1710211+9999REMSYN080AAXX  18124 68300 32970 02327 10210 20099 30161 40179 57021 333 20145 555 91017;EQDQ01  00002PRCP99
0157683000999992000051815004-26630+015100FM-12+000099999V0202301N011312200019N0300001N1+01661+01101101671ADDGA1001+999999999GF100991001001999999001001MA1999999101491MD1710121+9999REMSYN074AAXX  18154 68300 42980 02322 10166 20110 30149 40167 57012 333 555 91016;
0224683000999992000051818004-26630+015100FM-12+000099999V0202301N009312200019N0300001N1+01271+00871101811ADDAA199000091AY101061AY201061GF101991011001999999031001KA1120M+02151MA1999999101631MD1310141+9999MW1101REMSYN092AAXX  18184 68300 31980 12318 10127 20087 30163 40181 53014 71000 81030 333 10215 555 91018;EQDQ01  00002PRCP99
0175683000999992000051821004-26630+015100FM-12+000099999V0202301N005112200019N0040001N1+01061+00941101931ADDAY101031AY201031GF104991041051002501001001MA1999999101751MD1210121+9999MW1101REMSYN086AAXX  18214 68300 41340 42310 10106 20094 30175 40193 52012 71000 84500 333 555 91019;
0205683000999992000051900004-26630+015100FM-12+000099999V0209999C000010003019N0010001N1+01001+01001101851ADDAA199000091AY141061AY261061GF108991081061000251999999MA1999999101671MD1710071+9999MW1471REMSYN086AAXX  19004 68300 31010 80000 10100 20100 30167 40185 57007 74746 886// 333 555 91018;EQDQ01  00002PRCP99
0205683000999992000051903004-26630+015100FM-12+000099999V0209999C000019999999N0002001N1+00921+00881101751ADDAA199000091AY141031AY271031GF108991999999000751999999MA1999999101571MD1810101+9999MW1471REMSYN086AAXX  19034 68300 31102 80000 10092 20088 30157 40175 58010 74747 8//// 333 555 91017;EQDQ01  00002PRCP99
0237683000999992000051906004-26630+015100FM-12+000099999V0209999C000019999999N0009001N1+00081+00081101811ADDAA199000091AY141061AY271061GF108991999999000751999999KA1240M+02151KA2120N+00081MA1999999101631MD1210061+9999MW1471REMSYN092AAXX  19064 68300 32109 80000 10008 20008 30163 40181 52006 74747 333 20008 555 10215 91018;EQDQ01  00002PRCP99
0191683000999992000051909004-26630+015100FM-12+000099999V0209999C000010012019N0011001N1+00091+00091102071ADDAY141031AY271031GA1091+999999999GF109991091999999999999999MA1999999101881MD1310151+9999MW1471REMSYN086AAXX  19094 68300 41011 90000 10009 20009 30188 40207 53015 74747 8//// 333 555 91020;
0181683000999992000051911004-26630+015100FM-12+000099999V0209999C000010006019N0009001N1+00901+00901102061ADDAY141999AY271999GA1091+999999999GF109991091999999999999999MA1999999101881MD1310151+9999MW1471REMSYN076AAXX  19114 68300 41/09 90000 10090 20090 30188 40206 53015 74747 555 91020;
0225683000999992000051912004-26630+015100FM-12+000099999V0209999C000010075019N0009001N1+01201+01101101632ADDAA199000091AY141061AY231061GF106991061061008001999999KA1120N+00951MD1710251+9999MW1451REMSYN092AAXX  19124 68300 31509 60000 10120 20110 3//// 40163 57025 74543 866// 333 20095 555 91016;EQDQ01+101633APOSLPQ02  00002PRCP99
0175683000999992000051915004-26630+015100FM-12+000099999V0202301N005112200019N0200001N1+01421+01001101711ADDAY101031AY201031GF102991021061001501001001MA1999999101531MD1710101+9999MW1101REMSYN086AAXX  19154 68300 41270 22310 10142 20100 30153 40171 57010 71000 82600 333 555 91017;
0224683000999992000051918004-26630+015100FM-12+000099999V0202301N006212200019N0100001N1+01081+99999101851ADDAA199000091AY101061AY201061GF102991021061004501001001KA1120M+01471MA1999999101671MD1310141+9999MW1101REMSYN092AAXX  19184 68300 31460 22312 10108 20112 30167 40185 53014 71000 82600 333 10147 555 91018;EQDQ01  00002PRCP99
0175683000999992000051921004-26630+015100FM-12+000099999V0202301N004110003019N0010001N1+01041+00961101871ADDAY141031AY241031GF108991081061000251999999MA1999999101691MD1210031+9999MW1471REMSYN086AAXX  19214 68300 41010 82308 10104 20096 30169 40187 52003 74744 886// 333 555 91018;
0206683000999992000052000004-26630+015100FM-12+000099999V0209999C000010006019N0009001N1+00951+00951101601ADDAA199000091AY141061AY241061GA1091+999999999GF109991091999999999999999MD1810081+9999MW1471REMSYN086AAXX  20004 68300 31/09 90000 10095 20095 3//// 40160 58008 74744 8//// 333 555 91016;EQDQ01  00002PRCP99
0170683000999992000052003004-26630+015100FM-12+000099999V0209999C000012200019N0040001N1+01051+00951101591ADDAY121031AY221031GA1001+999999999GF100991001001999999001001MD1410001+9999MW1401REMSYN080AAXX  20034 68300 41940 00000 10105 20095 3//// 40159 54000 74022 333 555 91015;
0244683000999992000052006004-26630+015100FM-12+000099999V0203601N003110006019N0009001N1+00921+00921101731ADDAA199000091AY141061AY241061GA1091+999999999GF109991091999999999999999KA1240M+01471KA2120N+00871MD1310141+9999MW1471REMSYN098AAXX  20064 68300 31/09 93606 10092 20092 3//// 40173 53014 74744 8//// 333 20087 555 10147 91017;EQDQ01  00002PRCP99
0169683000999992000052009004-26630+015100FM-12+000099999V0201801N003119999999N0040001N1+01021+00881102031ADDAY141031AY201031GF106991999999002501999999MA1999999101851MD1110081+9999MW1401REMSYN080AAXX  20094 68300 42340 61806 10102 20088 30185 40203 51008 74040 333 555 91020;
0196683000999992000052012004-26630+015100FM-12+000099999V0201801N005112200019N0150001N1+01561+00961101901ADDAA199000091GF102991021051002501001001KA1120N+00871MA1999999101721MD1810071+9999REMSYN086AAXX  20124 68300 32365 21810 10156 20096 30172 40190 58007 82500 333 20087 555 91019;EQDQ01  00002PRCP99
0157683000999992000052021004-26630+015100FM-12+000099999V0209999C000012200019N0300001N1+01151+00951101971ADDGA1001+999999999GF100991001001999999001001MA1999999101791MD1410001+9999REMSYN074AAXX  20214 68300 42980 00000 10115 20095 30179 40197 54000 333 555 91019;
0187683000999992000052100004-26630+015100FM-12+000099999V0209999C000012200019N0100001N1+01001+00791101821ADDAA199000091GA1001+999999999GF100991001001999999001001MA1999999101641MD1810071+9999REMSYN074AAXX  21004 68300 32960 00000 10100 20079 30164 40182 58007 333 555 91018;EQDQ01  00002PRCP99
0142683000999992000052103004-26630+015100FM-12+000099999V0209999C000012200019N0100001N1+01011+00781101591ADDGA1001+999999999GF100991001001999999001001MD1710081+9999REMSYN074AAXX  21034 68300 42960 00000 10101 20078 3//// 40159 57008 333 555 91015;
0200683000999992000052106004-26630+015100FM-12+000099999V0201301N003112200019N0750001N1+00951+00741101651ADDAA199000091GF101991011061008001001001KA1240M+01771KA2120N+00921MD1310081+9999REMSYN092AAXX  21064 68300 32589 11306 10095 20074 3//// 40165 53008 81600 333 20092 555 10177 91016;EQDQ01  00002PRCP99
0206683000999992000052112004-26630+015100FM-12+000099999V0201301N009312200019N0750001N1+01781+01031101691ADDAA199000091GA1001+999999999GF100991001001999999001001KA1120N+00971MA1999999101511MD1810181+9999REMSYN080AAXX  21124 68300 32989 01318 10178 20103 30151 40169 58018 333 20097 555 91016;EQDQ01  00002PRCP99
0157683000999992000052115004-26630+015100FM-12+000099999V0201801N009312200019N0750001N1+01691+01141101611ADDGA1001+999999999GF100991001001999999001001MA1999999101431MD1710061+9999REMSYN074AAXX  21154 68300 42989 01818 10169 20114 30143 40161 57006 333 555 91016;
0206683000999992000052118004-26630+015100FM-12+000099999V0202701N001512200019N0750001N1+01201+01101101771ADDAA199000091GA1001+999999999GF100991001001999999001001KA1120M+02221MA1999999101591MD1210141+9999REMSYN080AAXX  21184 68300 32989 02703 10120 20110 30159 40177 52014 333 10222 555 91017;EQDQ01  00002PRCP99
0149683000999992000052121004-26630+015100FM-12+000099999V0202701N001519999999N0040001N1+01151+01051101901ADDAY141031AY241031MA1999999101721MD1310131+9999MW1401REMSYN086AAXX  21214 68300 41040 /2703 10115 20105 30172 40190 53013 74044 886// 333 555 91019;
0221683000999992000052200004-26630+015100FM-12+000099999V0209999C000010006019N0008001N1+01101+01101101851ADDAA199000091AY141061AY201061GA1091+999999999GF109991091999999999999999MA1999999101671MD1810051+9999MW1451REMSYN086AAXX  22004 68300 31/08 90000 10110 20110 30167 40185 58005 74540 8//// 333 555 91018;EQDQ01  00002PRCP99
0157683000999992000052203004-26630+015100FM-12+000099999V0209999C000012200019N0200001N1+01091+01011101791ADDGA1001+999999999GF100991001001999999001001MA1999999101611MD1810061+9999REMSYN074AAXX  22034 68300 42970 00000 10109 20101 30161 40179 58006 333 555 91017;
0215683000999992000052206004-26630+015100FM-12+000099999V0201801N001512200019N0100001N1+01061+00941101851ADDAA199000091GF104991041061001501001001KA1240M+02221KA2120N+01051MA1999999101671MD1210061+9999REMSYN092AAXX  22064 68300 32260 41803 10106 20094 30167 40185 52006 84600 333 20105 555 10222 91018;EQDQ01  00002PRCP99
0162683000999992000052209004-26630+015100FM-12+000099999V0201801N004112200019N0200001N1+01561+01071101771ADDAA199000091GF104991041061004501001001MD1310111+9999REMSYN080AAXX  22094 68300 32470 41808 10156 20107 3//// 40177 53011 84600 333 555 91017;EQDQ01  00002PRCP99
0181683000999992000052212004-26630+015100FM-12+000099999V0201801N010310075019N0750001N1+01881+00931101561ADDAA199000091GF106991061041008001001001KA1120N+01081MD1810211+9999REMSYN086AAXX  22124 68300 32589 61820 10188 20093 3//// 40156 58021 86400 333 20108 555 91015;EQDQ01  00002PRCP99
0143683000999992000052215004-26630+015100FM-12+000099999V0201801N010310360019N0300001N1+01881+00861101651ADDGF107991011051002501031021MA1999999101471MD1810091+9999REMSYN076AAXX  22154 68300 42380 71820 10188 20086 30147 40165 58009 81532 555 91016;
0196683000999992000052218004-26630+015100FM-12+000099999V0201801N010312200019N0750001N1+01451+00791101801ADDAA199000091GF103991011051008001001021KA1120M+02181MA1999999101621MD1310151+9999REMSYN086AAXX  22184 68300 32589 31820 10145 20079 30162 40180 53015 81502 333 10218 555 91018;EQDQ01  00002PRCP99
0147683000999992000052221004-26630+015100FM-12+000099999V0201801N008212200019N0200001N1+01371+00831101851ADDGF101991011051000751001001MA1999999101671MD1210051+9999REMSYN080AAXX  22214 68300 42170 11816 10137 20083 30167 40185 52005 81500 333 555 91018;
0187683000999992000052300004-26630+015100FM-12+000099999V0201601N001512200019N0100001N1+01281+00701101851ADDAA199000091GA1001+999999999GF100991001001999999001001MA1999999101671MD1410001+9999REMSYN074AAXX  23004 68300 32960 01603 10128 20070 30167 40185 54000 333 555 91018;EQDQ01  00002PRCP99
0142683000999992000052303004-26630+015100FM-12+000099999V0209999C000012200019N0100001N1+01201+00551101671ADDGA1001+999999999GF100991001001999999001001MD1410001+9999REMSYN074AAXX  23034 68300 42960 00000 10120 20055 3//// 40167 54000 333 555 91016;
0200683000999992000052306004-26630+015100FM-12+000099999V0201801N003112200019N0750001N1+01251+00611101631ADDAA199000091GF103991031041008001001001KA1240M+02181KA2120N+01211MD1210021+9999REMSYN092AAXX  23064 68300 32589 31806 10125 20061 3//// 40163 52002 83400 333 20121 555 10218 91016;EQDQ01  00002PRCP99
0147683000999992000052309004-26630+015100FM-12+000099999V0201801N003110075019N0750001N1+01901+00861101881ADDGF106991061041008001001001MA1999999101701MD1210071+9999REMSYN080AAXX  23094 68300 42589 61806 10190 20086 30170 40188 52007 86400 333 555 91018;
0196683000999992000052312004-26630+015100FM-12+000099999V0201801N007710006019N0200001N1+01951+01001101711ADDAA199000091GF106991061041000751001001KA1120N+01231MA1999999101531MD1810171+9999REMSYN086AAXX  23124 68300 32170 61815 10195 20100 30153 40171 58017 86400 333 20123 555 91017;EQDQ01  00002PRCP99
0147683000999992000052315004-26630+015100FM-12+000099999V0201801N008219999999N0200001N1+01751+00951101581ADDGF105991001001999999001091MA1999999101401MD1710131+9999REMSYN080AAXX  23154 68300 42970 51816 10175 20095 30140 40158 57013 80009 333 555 91015;
0206683000999992000052318004-26630+015100FM-12+000099999V0201801N006212200019N0200001N1+01421+01001101591ADDAA199000091GA1001+999999999GF100991001001999999001001KA1120M+02181MA1999999101411MD1310011+9999REMSYN080AAXX  23184 68300 32970 01812 10142 20100 30141 40159 53001 333 10218 555 91015;EQDQ01  00002PRCP99
0157683000999992000052321004-26630+015100FM-12+000099999V0201801N005112200019N0200001N1+01371+00851101621ADDGA1001+999999999GF100991001001999999001001MA1999999101441MD1210031+9999REMSYN074AAXX  23214 68300 42970 01810 10137 20085 30144 40162 52003 333 555 91016;
0172683000999992000052400004-26630+015100FM-12+000099999V0209999C000012200019N0100001N1+01151+00951101331ADDAA199000091GA1001+999999999GF100991001001999999001001MD1710111+9999REMSYN074AAXX  24004 68300 32960 00000 10115 20095 3//// 40133 57011 333 555 91013;EQDQ01  00002PRCP99
0210683000999992000052406004-26630+015100FM-12+000099999V0209999C000012200019N0200001N1+01161+00341101271ADDAA199000091GA1001+999999999GF100991001001999999001001KA1240M+02161KA2120N+01021MD1410001+9999REMSYN086AAXX  24064 68300 32970 00000 10116 20034 3//// 40127 54000 333 20102 555 10216 91012;EQDQ01  00002PRCP99
0175683000999992000052409004-26630+015100FM-12+000099999V0209999C000012200019N0750001N1+02041-00181999999ADDGF101991001001999999001011MA1999999999999MD1110061+9999ME1309829REMSYN080AAXX  24094 68300 42989 10000 10204 21018 38966 48982 51006 80001 333 555 90898;EQDQ01 089663APOSP 
0222683000999992000052412004-26630+015100FM-12+000099999V0203601N004112200019N0200001N1+01601+01032101381ADDAA199000091GA1001+999999999GF100991001001999999001001KA1120N+01101MA1999999101202MD1810151+9999REMSYN080AAXX  24124 68300 32970 03608 10160 20103 30120 40138 58015 333 20110 555 91013;EQDQ01+101203APOSP Q02  00002PRCP99
0157683000999992000052415004-26630+015100FM-12+000099999V0201801N004112200019N0750001N1+01541+00981101331ADDGA1001+999999999GF100991001001999999001001MA1999999101151MD1710051+9999REMSYN074AAXX  24154 68300 42989 01808 10154 20098 30115 40133 57005 333 555 91013;
0224683000999992000052418004-26630+015100FM-12+000099999V0203601N004112200019N0040001N1+01141+00941101501ADDAA199000091AY101061AY201061GF101991011061008001001001KA1120M+02181MA1999999101321MD1310171+9999MW1401REMSYN092AAXX  24184 68300 31540 13608 10114 20094 30132 40150 53017 74000 81600 333 10218 555 91015;EQDQ01  00002PRCP99
0175683000999992000052421004-26630+015100FM-12+000099999V0203601N003110003019N0010001N1+00911+00871101671ADDAY141031AY201031GF108991061061000251999999MA1999999101491MD1710171+9999MW1471REMSYN086AAXX  24214 68300 41010 83606 10091 20087 30149 40167 57017 74740 866// 333 555 91016;
0142683000999992000052503004-26630+015100FM-12+000099999V0202701N001512200019N0750001N1+01251+00951101491ADDGA1001+999999999GF100991001001999999001001MD1410001+9999REMSYN074AAXX  25034 68300 42989 02703 10125 20095 3//// 40149 54000 333 555 91014;
0200683000999992000052506004-26630+015100FM-12+000099999V0209999C000012200019N0750001N1+01121+00981101681ADDAA199000091GF101991011061008001001001KA1240M+02181KA2120N+00821MD1310141+9999REMSYN092AAXX  25064 68300 32589 10000 10112 20098 3//// 40168 53014 81600 333 20082 555 10218 91016;EQDQ01  00002PRCP99
0132683000999992000052509004-26630+015100FM-12+000099999V0203601N003112200019N0300001N1+01301+01111101841ADDGF104991041061008001001001MD1310171+9999REMSYN080AAXX  25094 68300 42580 43606 10130 20111 3//// 40184 53017 84600 333 555 91018;
0206683000999992000052512004-26630+015100FM-12+000099999V0203601N003112200019N0200001N1+01551+01161101861ADDAA199000091GA1001+999999999GF100991001001999999001001KA1120N+01141MA1999999101681MD1810161+9999REMSYN080AAXX  25124 68300 32970 03606 10155 20116 30168 40186 58016 333 20114 555 91018;EQDQ01  00002PRCP99
0175683000999992000052515004-26630+015100FM-12+000099999V0203601N004110003019N0010001N1+01191+01011101841ADDAY101031AY201031GF108991081061000251999999MA1999999101661MD1710021+9999MW1471REMSYN086AAXX  25154 68300 41010 83608 10119 20101 30166 40184 57002 74700 886// 333 555 91018;
0224683000999992000052518004-26630+015100FM-12+000099999V0203601N003119999999N0010001N1+01051+00951101991ADDAA199000091AY141061AY201061GF108991999999000251999999KA1120M+01661MA1999999101811MD1310151+9999MW1471REMSYN092AAXX  25184 68300 31010 83606 10105 20095 30181 40199 53015 74740 8//// 333 10166 555 91019;EQDQ01  00002PRCP99
0175683000999992000052521004-26630+015100FM-12+000099999V0203601N003112200019N0040001N1+01081+01021102041ADDAY141031AY241031GF101991011061000751001001MA1999999101861MD1210051+9999MW1401REMSYN086AAXX  25214 68300 41140 13606 10108 20102 30186 40204 52005 74044 81600 333 555 91020;
0187683000999992000052600004-26630+015100FM-12+000099999V0201801N001512200019N0100001N1+01201+01101102001ADDAA199000091GA1001+999999999GF100991001001999999001001MA1999999101821MD1710041+9999REMSYN074AAXX  26004 68300 32960 01803 10120 20110 30182 40200 57004 333 555 91020;EQDQ01  00002PRCP99
0157683000999992000052603004-26630+015100FM-12+000099999V0209999C000012200019N0200001N1+01151+00951101921ADDGA1001+999999999GF100991001001999999001001MA1999999101741MD1610071+9999REMSYN074AAXX  26034 68300 42970 00000 10115 20095 30174 40192 56007 333 555 91019;
0225683000999992000052606004-26630+015100FM-12+000099999V0200501N003112200019N0200001N1+01151+00951102031ADDAA199000091GA1001+999999999GF100991001001999999001001KA1240M+01661KA2120N+01051MA1999999101851MD1310111+9999REMSYN086AAXX  26064 68300 32970 00506 10115 20095 30185 40203 53011 333 20105 555 10166 91020;EQDQ01  00002PRCP99
0206683000999992000052612004-26630+015100FM-12+000099999V0202301N006212200019N0100001N1+01691+01121101921ADDAA199000091GA1001+999999999GF100991001001999999001001KA1120N+00411MA1999999101741MD1810191+9999REMSYN080AAXX  26124 68300 32960 02312 10169 20112 30174 40192 58019 333 20041 555 91019;EQDQ01  00002PRCP99
0147683000999992000052615004-26630+015100FM-12+000099999V0201801N003112200019N0200001N1+01551+01201101891ADDGF101991011061004501001001MA1999999101711MD1710031+9999REMSYN080AAXX  26154 68300 42470 11806 10155 20120 30171 40189 57003 81600 333 555 91018;
0191683000999992000052618004-26630+015100FM-12+000099999V0203601N001512200019N0200001N1+01351+01261101851ADDAA199000091GA1001+999999999GF100991001001999999001001KA1120M+01811MD1310141+9999REMSYN080AAXX  26184 68300 32970 03603 10135 20126 3//// 40185 53014 333 10181 555 91018;EQDQ01  00002PRCP99
0142683000999992000052621004-26630+015100FM-12+000099999V0209999C000012200019N0050001N1+01311+01201101861ADDGA1001+999999999GF100991001001999999001001MD1210011+9999REMSYN074AAXX  26214 68300 42950 00000 10131 20120 3//// 40186 52001 333 555 91018;
0187683000999992000052700004-26630+015100FM-12+000099999V0201801N001512200019N0100001N1+01351+00961101941ADDAA199000091GA1001+999999999GF100991001001999999001001MA1999999101761MD1710101+9999REMSYN074AAXX  27004 68300 32960 01803 10135 20096 30176 40194 57010 333 555 91019;EQDQ01  00002PRCP99
0157683000999992000052703004-26630+015100FM-12+000099999V0201801N001512200019N0100001N1+01151+00951101881ADDGA1001+999999999GF100991001001999999001001MA1999999101701MD1610061+9999REMSYN074AAXX  27034 68300 42960 01803 10115 20095 30170 40188 56006 333 555 91018;
0225683000999992000052706004-26630+015100FM-12+000099999V0201801N002112200019N0100001N1+01001+00791101981ADDAA199000091GA1001+999999999GF100991001001999999001001KA1240M+01811KA2120N+00631MA1999999101801MD1310101+9999REMSYN086AAXX  27064 68300 32960 01804 10100 20079 30180 40198 53010 333 20063 555 10181 91019;EQDQ01  00002PRCP99
0142683000999992000052709004-26630+015100FM-12+000099999V0203601N003112200019N0100001N1+01541+00941101901ADDGA1001+999999999GF100991001001999999001001MD1210071+9999REMSYN074AAXX  27094 68300 42960 03606 10154 20094 30/// 40190 52007 333 555 91019;
0191683000999992000052712004-26630+015100FM-12+000099999V0202301N005112200019N0100001N1+01581+01051101701ADDAA199000091GA1001+999999999GF100991001001999999001001KA1120N+01011MD1810181+9999REMSYN080AAXX  27124 68300 32960 02310 10158 20105 30/// 40170 58018 333 20101 555 91017;EQDQ01  00002PRCP99
0206683000999992000052718004-26630+015100FM-12+000099999V0201801N005112200019N0050001N1+01231+01101101991ADDAA199000091GA1001+999999999GF100991001001999999001001KA1120M+01751MA1999999101811MD1310101+9999REMSYN080AAXX  27184 68300 32950 01810 10123 20110 30181 40199 53010 333 10175 555 91019;EQDQ01  00002PRCP99
0176683000999992000052721004-26630+015100FM-12+000099999V0201801N005110024019N0040001N1+01101+01021101901ADDAY141031AY241031GA1091+999999999GF109991091999999999999999MD1310091+9999MW1441REMSYN086AAXX  27214 68300 41/40 91810 10110 20102 3//// 40190 53009 74444 8//// 333 555 91019;
0160683000999992000052803004-26630+015100FM-12+000099999V0201801N001510021019N0040001N1+00901+00801101901ADDAY141031AY221031GF108991081061002501999999MD1710051+9999MW1431REMSYN086AAXX  28034 68300 41340 81803 10090 20080 30/// 40190 57005 74342 886// 333 555 91019;
0228683000999992000052806004-26630+015100FM-12+000099999V0201801N003112200019N0050001N1+01301+01211101951ADDAA199000091AY141061AY221061GF101991011061008001001001KA1240M+01781KA2120N+00821MD1310061+9999MW1401REMSYN098AAXX  28064 68300 31550 11806 10130 20121 30/// 40195 53006 74042 81600 333 20082 555 10178 91019;EQDQ01  00002PRCP99
0132683000999992000052809004-26630+015100FM-12+000099999V0203201N003112200019N0100001N1+01301+00881102051ADDGF101991011061000751001001MD1210181+9999REMSYN080AAXX  28094 68300 42160 13206 10130 20088 30/// 40205 52018 81600 333 555 91021;
0191683000999992000052812004-26630+015100FM-12+000099999V0201801N006212200019N0100001N1+01851+00771101831ADDAA199000091GA1001+999999999GF100991001001999999001001KA1120N+00821MD1810211+9999REMSYN080AAXX  28124 68300 32960 01812 10185 20077 3//// 40183 58021 333 20082 555 91018;EQDQ01  00002PRCP99
0142683000999992000052815004-26630+015100FM-12+000099999V0201801N007712200019N0750001N1+01821+00681101751ADDGA1001+999999999GF100991001001999999001001MD1710071+9999REMSYN074AAXX  28154 68300 42989 01815 10182 20068 3//// 40175 57007 333 555 91017;
0191683000999992000052818004-26630+015100FM-12+000099999V0201801N005112200019N0050001N1+01501+00731101781ADDAA199000091GA1001+999999999GF100991001001999999001001KA1120M+01951MD1210031+9999REMSYN080AAXX  28184 68300 32950 01810 10150 20073 3//// 40178 52003 333 10195 555 91017;EQDQ01  00002PRCP99
0142683000999992000052821004-26630+015100FM-12+000099999V0201801N004112200019N0050001N1+01321+00651101811ADDGA1001+999999999GF100991001001999999001001MD1210031+9999REMSYN074AAXX  28214 68300 42950 01808 10132 20065 3//// 40181 52003 333 555 91018;
0142683000999992000052903004-26630+015100FM-12+000099999V0209999C000012200019N0100001N1+01051+00231101801ADDGA1001+999999999GF100991001001999999001001MD1710121+9999REMSYN074AAXX  29034 68300 42960 00000 10105 20023 30/// 40180 57012 333 555 91018;
0200683000999992000052906004-26630+015100FM-12+000099999V0201801N003112200019N0100001N1+00951+00091101801ADDAA199000091GF101991011061000751001001KA1240M+02031KA2120N+00951MD1310121+9999REMSYN092AAXX  29064 68300 32160 11806 10095 20009 30/// 40180 53012 81600 333 20095 555 10203 91018;EQDQ01  00002PRCP99
0147683000999992000052909004-26630+015100FM-12+000099999V0201801N004112200019N0100001N1+01791-00051102071ADDGF101991011061000751001001MA1999999101891MD1210081+9999REMSYN080AAXX  29094 68300 42160 11808 10179 21005 30189 40207 52008 81600 333 555 91020;
0191683000999992000052912004-26630+015100FM-12+000099999V0201801N006212200019N0100001N1+02141+00951101641ADDAA199000091GA1001+999999999GF100991001001999999001001KA1120N+00951MD1810251+9999REMSYN080AAXX  29124 68300 32960 01812 10214 20095 3//// 40164 58025 333 20095 555 91016;EQDQ01  00002PRCP99
0153683000999992000052915004-26630+015100FM-12+000099999V0201801N007712200019N0200001N1+01921+00891101861ADDGA1001+999999999GF100991001001999999001001MA1999999101681MD1210041+9999REMSYN070AAXX  29154 68300 42970 01815 10192 20089 30168 40186 52004 555 91018;
0206683000999992000052918004-26630+015100FM-12+000099999V0201801N007712200019N0300001N1+01651+00871101851ADDAA199000091GA1001+999999999GF100991001001999999001001KA1120M+02251MA1999999101671MD1410001+9999REMSYN080AAXX  29184 68300 32980 01815 10165 20087 30167 40185 54000 333 10225 555 91018;EQDQ01  00002PRCP99
0157683000999992000052921004-26630+015100FM-12+000099999V0201801N003112200019N0200001N1+01401+00911101931ADDGA1001+999999999GF100991001001999999001001MA1999999101751MD1310081+9999REMSYN074AAXX  29214 68300 42970 01806 10140 20091 30175 40193 53008 333 555 91019;
0172683000999992000053000004-26630+015100FM-12+000099999V0201801N003112200019N0050001N1+01201+00791101751ADDAA199000091GA1001+999999999GF100991001001999999001001MD1410001+9999REMSYN074AAXX  30004 68300 32950 01806 10120 20079 3//// 40175 54000 333 555 91017;EQDQ01  00002PRCP99
0142683000999992000053003004-26630+015100FM-12+000099999V0201801N006212200019N0300001N1+01051+00501101661ADDGA1001+999999999GF100991001001999999001001MD1710091+9999REMSYN074AAXX  30034 68300 42980 01812 10105 20050 3//// 40166 57009 333 555 91016;
0147683000999992000053009004-26630+015100FM-12+000099999V0201801N006212200019N0100001N1+01811-00801101921ADDGF101991011061000751001001MA1999999101741MD1810051+9999REMSYN080AAXX  30094 68300 42160 11812 10181 21080 30174 40192 58005 81600 333 555 91019;
0222683000999992000053012004-26630+015100FM-12+000099999V0201801N006212200019N0750001N1+02231+00862101701ADDAA199000091GA1001+999999999GF100991001001999999001001KA1120N+01001MA1999999101521MD1710221+9999REMSYN080AAXX  30124 68300 32989 01812 10223 20086 30152 40170 57022 333 20100 555 91017;EQDQ01+000863ATOD  Q02  00002PRCP99
0206683000999992000053018004-26630+015100FM-12+000099999V0201801N005112200019N0200001N1+01401+01021101831ADDAA199000091GA1001+999999999GF100991001001999999001001KA1120M+02251MA1999999101651MD1310191+9999REMSYN080AAXX  30184 68300 32970 01810 10140 20102 30165 40183 53019 333 10225 555 91018;EQDQ01  00002PRCP99
0157683000999992000053021004-26630+015100FM-12+000099999V0201801N007712200019N0200001N1+01251+00871101871ADDGA1001+999999999GF100991001001999999001001MA1999999101691MD1210041+9999REMSYN074AAXX  30214 68300 42970 01815 10125 20087 30169 40187 52004 333 555 91018;
0187683000999992000053103004-26630+015100FM-12+000099999V0201801N001512200019N0050001N1+01051+00371101711ADDAA199000091GA1001+999999999GF100991001001999999001001MA1999999101531MD1810071+9999REMSYN074AAXX  31034 68300 32950 01803 10105 20037 30153 40171 58007 333 555 91017;EQDQ01  00002PRCP99
0231683000999992000053106004-26630+015100FM-12+000099999V0201801N005112200019N0100001N1+01101-01402101781ADDAA199000091GF103991001001999999001081KA1240M+02351KA2120N+01121MA1999999101601MD1310071+9999REMSYN092AAXX  31064 68300 32960 31810 10110 21140 30160 40178 53007 80008 333 20112 555 10235 91017;EQDQ01-001403ATOD  Q02  00002PRCP99
0132683000999992000053109004-26630+015100FM-12+000099999V0202301N001512200019N0100001N1+02001-01121101651ADDGF103991001001999999001021MD1210051+9999REMSYN080AAXX  31094 68300 42960 32303 10200 21112 3//// 40165 52005 80002 333 555 91016;
0181683000999992000053112004-26630+015100FM-12+000099999V0202301N004112200019N0200001N1+02371-00201101421ADDAA199000091GF103991001001999999001011KA1120N+01121MD1810231+9999REMSYN086AAXX  31124 68300 32970 32308 10237 21020 3//// 40142 58023 80001 333 20112 555 91014;EQDQ01  00002PRCP99
0142683000999992000053115004-26630+015100FM-12+000099999V0201801N003112200019N0200001N1+02161+00881101501ADDGA1001+999999999GF100991001001999999001001MD1210031+9999REMSYN074AAXX  31154 68300 42970 01806 10216 20088 30/// 40150 52003 333 555 91016;
0191683000999992000053118004-26630+015100FM-12+000099999V0201801N003112200019N0050001N1+01401+01061101751ADDAA199000091GA1001+999999999GF100991001001999999001001KA1120M+02601MD1310251+9999REMSYN080AAXX  31184 68300 32950 01806 10140 20106 30/// 40175 53025 333 10260 555 91018;EQDQ01  00002PRCP99
0153683000999992000060103004-26630+015100FM-12+000099999V0209999C000012200019N0750001N1+00901+00691101861ADDGA1001+999999999GF100991001001999999001001MA1999999101681MD1710021+9999REMSYN070AAXX  01034 68300 42989 00000 10090 20069 30168 40186 57002 555 91018;
0200683000999992000060106004-26630+015100FM-12+000099999V0201801N003112200019N0100001N1+00951+00501101791ADDAA199000091GF101991011061004501001001KA1240M+02601KA2120N+00951MD1210111+9999REMSYN092AAXX  01064 68300 32460 11806 10095 20050 3//// 40179 52011 81600 333 20095 555 10260 91017;EQDQ01  00002PRCP99
0162683000999992000060109004-26630+015100FM-12+000099999V0201801N005112200019N0100001N1+01451+00811101901ADDAA199000091GF101991011061000751001001MD1210061+9999REMSYN080AAXX  01094 68300 32160 11810 10145 20081 30/// 40190 52006 81600 333 555 91019;EQDQ01  00002PRCP99
0181683000999992000060112004-26630+015100FM-12+000099999V0201801N010312200019N0100001N1+01551+01161101801ADDAA199000091GF101991011061000751001001KA1120N+00951MD1810091+9999REMSYN086AAXX  01124 68300 32160 11820 10155 20116 30/// 40180 58009 81600 333 20095 555 91018;EQDQ01  00002PRCP99
0157683000999992000060115004-26630+015100FM-12+000099999V0201801N003112200019N0100001N1+01501+01041101941ADDGA1001+999999999GF100991001001999999001001MA1999999101761MD1610021+9999REMSYN074AAXX  01154 68300 42960 01806 10150 20104 30176 40194 56002 333 555 91019;
0206683000999992000060118004-26630+015100FM-12+000099999V0201801N005112200019N0040001N1+01301+01011102091ADDAA199000091GA1001+999999999GF100991001001999999001001KA1120M+01821MA1999999101911MD1310211+9999REMSYN080AAXX  01184 68300 32940 01810 10130 20101 30191 40209 53021 333 10182 555 91020;EQDQ01  00002PRCP99
0175683000999992000060121004-26630+015100FM-12+000099999V0201801N003112200019N0040001N1+01151+00851102151ADDAY101031AY221031GF104991041061000751001001MA1999999101971MD1210061+9999MW1401REMSYN086AAXX  01214 68300 41140 41806 10115 20085 30197 40215 52006 74002 84600 333 555 91021;
0187683000999992000060200004-26630+015100FM-12+000099999V0209999C000012200019N0100001N1+00951+00741102121ADDAA199000091GA1001+999999999GF100991001001999999001001MA1999999101941MD1710031+9999REMSYN074AAXX  02004 68300 32960 00000 10095 20074 30194 40212 57003 333 555 91021;EQDQ01  00002PRCP99
0231683000999992000060203004-26630+015100FM-12+000099999V0209999C000012200019N0020001N1+00951+00741102121ADDAA199000091AY101031AY201031GA1001+999999999GF100991001001999999001001MA1999999101941MD1410001+9999MW1421REMSYN080AAXX  02034 68300 31120 00000 10095 20074 30194 40212 54002 74300 333 555 91021;EQDQ01+000432PRSWM1Q02  00002PRCP99
0142683000999992000060209004-26630+015100FM-12+000099999V0201801N005112200019N0750001N1+01561+00851102111ADDGA1001+999999999GF100991001001999999001001MD1310111+9999REMSYN074AAXX  02094 68300 42989 01810 10156 20085 3//// 40211 53011 333 555 91021;
0191683000999992000060212004-26630+015100FM-12+000099999V0201801N010312200019N0750001N1+02101+00991101861ADDAA199000091GA1001+999999999GF100991001001999999001001KA1120N+01401MD1810251+9999REMSYN080AAXX  02124 68300 32989 01820 10210 20099 3//// 40186 58025 333 20140 555 91018;EQDQ01  00002PRCP99
0153683000999992000060215004-26630+015100FM-12+000099999V0201801N017012200019N0750001N1+02001+00971101971ADDGA1001+999999999GF100991001001999999001001MA1999999101791MD1710061+9999REMSYN070AAXX  02154 68300 42989 01833 10200 20097 30179 40197 57006 555 91019;
0172683000999992000060218004-26630+015100FM-12+000099999V0200101N033412200019N0015001N1+01301+99999102011ADDGF101991999999022501999999KA1120M+02151MA1999999101831MD1210041+9999REMSYN092AAXX  02184 68300 /1815 10165 10130 20213 30183 40201 52004 7//// 8//// 333 10215 555 91020;
0157683000999992000060221004-26630+015100FM-12+000099999V0201801N006212200019N0300001N1+01551+00971102071ADDGA1001+999999999GF100991001001999999001001MA1999999101891MD1210061+9999REMSYN074AAXX  02214 68300 42980 01812 10155 20097 30189 40207 52006 333 555 91020;
0172683000999992000060300004-26630+015100FM-12+000099999V0201801N006212200019N0050001N1+01341+00991101881ADDAA199000091GA1001+999999999GF100991001001999999001001MD1810011+9999REMSYN074AAXX  03004 68300 32950 01812 10134 20099 3//// 40188 58001 333 555 91018;EQDQ01  00002PRCP99
0142683000999992000060303004-26630+015100FM-12+000099999V0201801N005112200019N0050001N1+01251+00851101721ADDGA1001+999999999GF100991001001999999001001MD1710161+9999REMSYN074AAXX  03034 68300 42950 01810 10125 20085 3//// 40172 57016 333 555 91017;
0210683000999992000060306004-26630+015100FM-12+000099999V0209999C000012200019N0750001N1+01051+00741101751ADDAA199000091GA1001+999999999GF100991001001999999001001KA1240M+02151KA2120N+01041MD1210031+9999REMSYN086AAXX  03064 68300 32989 00000 10105 20074 3//// 40175 52003 333 20104 555 10215 91017;EQDQ01  00002PRCP99
0142683000999992000060309004-26630+015100FM-12+000099999V0201801N010312200019N0200001N1+01651+00871101801ADDGA1001+999999999GF100991001001999999001001MD1210041+9999REMSYN074AAXX  03094 68300 42970 01820 10165 20087 30/// 40180 52004 333 555 91018;
0191683000999992000060312004-26630+015100FM-12+000099999V0201801N010312200019N0200001N1+02201+00891101601ADDAA199000091GA1001+999999999GF100991001001999999001001KA1120N+01551MD1710261+9999REMSYN080AAXX  03124 68300 32970 01820 10220 20089 30/// 40160 57026 333 20155 555 91016;EQDQ01  00002PRCP99
0157683000999992000060315004-26630+015100FM-12+000099999V0201801N010312200019N0300001N1+01801+01061101641ADDGA1001+999999999GF100991001001999999001001MA1999999101461MD1710051+9999REMSYN074AAXX  03154 68300 42980 01820 10180 20106 30146 40164 57005 333 555 91016;
0175683000999992000060321004-26630+015100FM-12+000099999V0201801N005112200019N0040001N1+01201+01001101811ADDAY101031AY201031GF102991021061002501001001MA1999999101631MD1210081+9999MW1101REMSYN086AAXX  03214 68300 41340 21810 10120 20100 30163 40181 52008 71000 82600 333 555 91018;
0172683000999992000060403004-26630+015100FM-12+000099999V0200901N013412200019N0100001N1+02301-00241101601ADDAA199000091GA1001+999999999GF100991001001999999001001MD1710071+9999REMSYN074AAXX  04034 68300 32960 00926 10230 21024 30/// 40160 57007 333 555 91016;EQDQ01  00002PRCP99
0210683000999992000060406004-26630+015100FM-12+000099999V0200901N015412200019N0750001N1+02201-00251101601ADDAA199000091GA1001+999999999GF100991001001999999001001KA1240M+02501KA2120N+01251MD1210061+9999REMSYN086AAXX  04064 68300 32989 00930 10220 21025 30/// 40160 52006 333 20125 555 10250 91016;EQDQ01  00002PRCP99
0142683000999992000060409004-26630+015100FM-12+000099999V0200901N012912200019N0200001N1+02631-00241101751ADDGA1001+999999999GF100991001001999999001001MD1310131+9999REMSYN074AAXX  04094 68300 42970 00925 10263 21024 30/// 40175 53013 333 555 91017;
0206683000999992000060412004-26630+015100FM-12+000099999V0203601N003112200019N0750001N1+03201-00211101791ADDAA199000091GA1001+999999999GF100991001001999999001001KA1120N+02201MA1999999101621MD1710071+9999REMSYN080AAXX  04124 68300 32989 03606 10320 21021 30162 40179 57007 333 20220 555 91018;EQDQ01  00002PRCP99
0143683000999992000060415004-26630+015100FM-12+000099999V0203601N005112200019N0300001N1+01801+00701101831ADDGF102991021051008001001001MA1999999101651MD1310041+9999REMSYN076AAXX  04154 68300 42580 23610 10180 20070 30165 40183 53004 82500 555 91018;
0206683000999992000060418004-26630+015100FM-12+000099999V0201801N005112200019N0750001N1+01601+00921101951ADDAA199000091GA1001+999999999GF100991001001999999001001KA1120M+03301MA1999999101771MD1210141+9999REMSYN080AAXX  04184 68300 32989 01810 10160 20092 30177 40195 52014 333 10330 555 91019;EQDQ01  00002PRCP99
0157683000999992000060421004-26630+015100FM-12+000099999V0201801N005112200019N0300001N1+01901+00121101961ADDGA1001+999999999GF100991001001999999001001MA1999999101781MD1210091+9999REMSYN074AAXX  04214 68300 42980 01810 10190 20012 30178 40196 52009 333 555 91019;
0172683000999992000060500004-26630+015100FM-12+000099999V0200501N009312200019N0100001N1+02451-00911101851ADDAA199000091GA1001+999999999GF100991001001999999001001MD1210051+9999REMSYN074AAXX  05004 68300 32960 00518 10245 21091 30/// 40185 52005 333 555 91019;EQDQ01  00002PRCP99
0142683000999992000060503004-26630+015100FM-12+000099999V0200501N012312200019N0100001N1+02301-00241101801ADDGA1001+999999999GF100991001001999999001001MD1810041+9999REMSYN074AAXX  05034 68300 42960 00524 10230 21024 30/// 40180 58004 333 555 91018;
0210683000999992000060506004-26630+015100FM-12+000099999V0200901N014412200019N0750001N1+02211-00521101951ADDAA199000091GA1001+999999999GF100991001001999999001001KA1240M+03001KA2120N+01551MD1310101+9999REMSYN086AAXX  05064 68300 32989 00928 10221 21052 30/// 40195 53010 333 20155 555 10300 91020;EQDQ01  00002PRCP99
0157683000999992000060509004-26630+015100FM-12+000099999V0200901N015412200019N0750001N1+02711-00591102171ADDGA1001+999999999GF100991001001999999001001MA1999999102001MD1210081+9999REMSYN074AAXX  05094 68300 42989 00930 10271 21059 30200 40217 52008 333 555 91021;
0157683000999992000060515004-26630+015100FM-12+000099999V0203601N007712200019N0750001N1+02301+00641101971ADDGA1001+999999999GF100991001001999999001001MA1999999101791MD1710051+9999REMSYN074AAXX  05154 68300 42989 03615 10230 20064 30179 40197 57005 333 555 91019;
0206683000999992000060518004-26630+015100FM-12+000099999V0203601N003112200019N0650001N1+02401-00221102091ADDAA199000091GA1001+999999999GF100991001001999999001001KA1120M+03351MA1999999101911MD1310121+9999REMSYN080AAXX  05184 68300 32987 03606 10240 21022 30191 40209 53012 333 10335 555 91020;EQDQ01  00002PRCP99
0157683000999992000060521004-26630+015100FM-12+000099999V0203601N003112200019N0200001N1+02301-00241102181ADDGA1001+999999999GF100991001001999999001001MA1999999102001MD1210081+9999REMSYN074AAXX  05214 68300 42970 03606 10230 21024 30200 40218 52008 333 555 91021;
0188683000999992000060600004-26630+015100FM-12+000099999V0203601N003112200019N0100001N1+01202+00001101941ADDAA199000091GA1001+999999999GF100991001001999999001001MD1810061+9999REMSYN074AAXX  06004 68300 32960 03606 10120 20000 3//// 40194 58006 333 555 91019;EQDQ01+001203ATOT  Q02  00002PRCP99
0142683000999992000060603004-26630+015100FM-12+000099999V0203601N009312200019N0100001N1+02151+00051101871ADDGA1001+999999999GF100991001001999999001001MD1710061+9999REMSYN074AAXX  06034 68300 42960 03618 10215 20005 3//// 40187 57006 333 555 91018;
0225683000999992000060606004-26630+015100FM-12+000099999V0200901N012912200019N0750001N1+02201+00151102131ADDAA199000091GA1001+999999999GF100991001001999999001001KA1240M+03351KA2120N+02051MA1999999101951MD1310081+9999REMSYN086AAXX  06064 68300 32989 00925 10220 20015 30195 40213 53008 333 20205 555 10335 91021;EQDQ01  00002PRCP99
0157683000999992000060609004-26630+015100FM-12+000099999V0200501N014412200019N0750001N1+02721+00261102221ADDGA1001+999999999GF100991001001999999001001MA1999999102051MD1310101+9999REMSYN074AAXX  06094 68300 42989 00528 10272 20026 30205 40222 53010 333 555 91022;
0206683000999992000060612004-26630+015100FM-12+000099999V0200501N007712200019N0200001N1+03081+00411102031ADDAA199000091GA1001+999999999GF100991001001999999001001KA1120N+02201MA1999999101861MD1810191+9999REMSYN080AAXX  06124 68300 32970 00515 10308 20041 30186 40203 58019 333 20220 555 91020;EQDQ01  00002PRCP99
0153683000999992000060615004-26630+015100FM-12+000099999V0203601N007712200019N0300001N1+01901+00961101931ADDGA1001+999999999GF100991001001999999001001MA1999999101751MD1710101+9999REMSYN070AAXX  06154 68300 42980 03615 10190 20096 30175 40193 57010 555 91019;
0206683000999992000060618004-26630+015100FM-12+000099999V0203201N003112200019N0200001N1+01651+00871102021ADDAA199000091GA1001+999999999GF100991001001999999001001KA1120M+03121MA1999999101841MD1310091+9999REMSYN080AAXX  06184 68300 32970 03206 10165 20087 30184 40202 53009 333 10312 555 91020;EQDQ01  00002PRCP99
0142683000999992000060621004-26630+015100FM-12+000099999V0201801N003112200019N0050001N1+01951+00661101761ADDGA1001+999999999GF100991001001999999001001MD1810081+9999REMSYN074AAXX  06214 68300 42950 01806 10195 20066 3//// 40176 58008 333 555 91017;
0187683000999992000060700004-26630+015100FM-12+000099999V0201301N004112200019N0100001N1+02221+00661101911ADDAA199000091GA1001+999999999GF100991001001999999001001MA1999999101731MD1710031+9999REMSYN074AAXX  07004 68300 32960 01308 10222 20066 30173 40191 57003 333 555 91019;EQDQ01  00002PRCP99
0157683000999992000060703004-26630+015100FM-12+000099999V0200501N007712200019N0200001N1+02321+00761101811ADDGA1001+999999999GF100991001001999999001001MA1999999101631MD1710101+9999REMSYN074AAXX  07034 68300 42970 00515 10232 20076 30163 40181 57010 333 555 91018;
0225683000999992000060706004-26630+015100FM-12+000099999V0209999C000012200019N0200001N1+02001+00901101961ADDAA199000091GA1001+999999999GF100991001001999999001001KA1240M+03121KA2120N+01651MA1999999101781MD1310151+9999REMSYN086AAXX  07064 68300 32970 00000 10200 20090 30178 40196 53015 333 20165 555 10312 91019;EQDQ01  00002PRCP99
0142683000999992000060709004-26630+015100FM-12+000099999V0209999C000012200019N0200001N1+02051+01041101851ADDGA1001+999999999GF100991001001999999001001MD1210041+9999REMSYN074AAXX  07094 68300 42970 00000 10205 20104 30/// 40185 52004 333 555 91019;
0191683000999992000060712004-26630+015100FM-12+000099999V0203601N001512200019N0750001N1+02701+01081101521ADDAA199000091GA1001+999999999GF100991001001999999001001KA1120N+01881MD1810131+9999REMSYN080AAXX  07124 68300 32989 03603 10270 20108 3//// 40152 58013 333 20188 555 91015;EQDQ01  00002PRCP99
0142683000999992000060715004-26630+015100FM-12+000099999V0203601N005112200019N0200001N1+02101+01211101501ADDGA1001+999999999GF100991001001999999001001MD1710041+9999REMSYN074AAXX  07154 68300 42970 03610 10210 20121 30/// 40150 57004 333 555 91015;
0206683000999992000060718004-26630+015100FM-12+000099999V0201401N005112200019N0050001N1+02201+00891101781ADDAA199000091GA1001+999999999GF100991001001999999001001KA1120M+02901MA1999999101601MD1310131+9999REMSYN080AAXX  07184 68300 32950 01410 10220 20089 30160 40178 53013 333 10290 555 91017;EQDQ01  00002PRCP99
0157683000999992000060721004-26630+015100FM-12+000099999V0201401N003112200019N0050001N1+02201+00891101811ADDGA1001+999999999GF100991001001999999001001MA1999999101631MD1210031+9999REMSYN074AAXX  07214 68300 42950 01406 10220 20089 30163 40181 52003 333 555 91018;
0172683000999992000060800004-26630+015100FM-12+000099999V0201301N003112200019N0100001N1+02051+00801101561ADDAA199000091GA1001+999999999GF100991001001999999001001MD1810071+9999REMSYN074AAXX  08004 68300 32960 01306 10205 20080 3//// 40156 58007 333 555 91015;EQDQ01  00002PRCP99
0142683000999992000060803004-26630+015100FM-12+000099999V0201301N003112200019N0100001N1+01881+00841101511ADDGA1001+999999999GF100991001001999999001001MD1710051+9999REMSYN074AAXX  08034 68300 42960 01306 10188 20084 3//// 40151 57005 333 555 91015;
0210683000999992000060806004-26630+015100FM-12+000099999V0200901N007712200019N0200001N1+02151+00691101451ADDAA199000091GA1001+999999999GF100991001001999999001001KA1240M+02901KA2120N+01801MD1210061+9999REMSYN086AAXX  08064 68300 32970 00915 10215 20069 3//// 40145 52006 333 20180 555 10290 91014;EQDQ01  00002PRCP99
0142683000999992000060809004-26630+015100FM-12+000099999V0200901N007712200019N0200001N1+02691+00601101601ADDGA1001+999999999GF100991001001999999001001MD1310091+9999REMSYN074AAXX  08094 68300 42970 00915 10269 20060 30/// 40160 53009 333 555 91016;
0206683000999992000060812004-26630+015100FM-12+000099999V0209999C000012200019N0750001N1+02331+01001101581ADDAA199000091GA1001+999999999GF100991001001999999001001KA1120N+02161MA1999999101401MD1810141+9999REMSYN080AAXX  08124 68300 32989 00000 10233 20100 30140 40158 58014 333 20216 555 91015;EQDQ01  00002PRCP99
0157683000999992000060815004-26630+015100FM-12+000099999V0203601N005112200019N0750001N1+02001+01671101651ADDGA1001+999999999GF100991001001999999001001MA1999999101471MD1310061+9999REMSYN074AAXX  08154 68300 42989 03610 10200 20167 30147 40165 53006 333 555 91016;
0206683000999992000060818004-26630+015100FM-12+000099999V0203601N005112200019N0200001N1+01701+00691101771ADDAA199000091GA1001+999999999GF100991001001999999001001KA1120M+02801MA1999999101591MD1210111+9999REMSYN080AAXX  08184 68300 32970 03610 10170 20069 30159 40177 52011 333 10280 555 91017;EQDQ01  00002PRCP99
0157683000999992000060821004-26630+015100FM-12+000099999V0203601N003112200019N0200001N1+01701+00931101911ADDGA1001+999999999GF100991001001999999001001MA1999999101731MD1210141+9999REMSYN074AAXX  08214 68300 42970 03606 10170 20093 30173 40191 52014 333 555 91019;
0187683000999992000060900004-26630+015100FM-12+000099999V0203601N003112200019N0100001N1+01691+00711101951ADDAA199000091GA1001+999999999GF100991001001999999001001MA1999999101771MD1810041+9999REMSYN074AAXX  09004 68300 32960 03606 10169 20071 30177 40195 58004 333 555 91019;EQDQ01  00002PRCP99
0157683000999992000060903004-26630+015100FM-12+000099999V0203601N004112200019N0100001N1+01661+00241101781ADDGA1001+999999999GF100991001001999999001001MA1999999101601MD1710171+9999REMSYN074AAXX  09034 68300 42960 03608 10166 20024 30160 40178 57017 333 555 91017;
0215683000999992000060906004-26630+015100FM-12+000099999V0203601N001519999999N0200001N1+01551+00621101851ADDAA199000091GF105991051001999999031001KA1240M+02811KA2120N+01481MA1999999101671MD1210071+9999REMSYN092AAXX  09064 68300 32970 53603 10155 20062 30167 40185 52007 85030 333 20148 555 10281 91018;EQDQ01  00002PRCP99
0132683000999992000060909004-26630+015100FM-12+000099999V0203601N001512200019N0100001N1+01801+00571101701ADDGF103991031001999999031001MD1210041+9999REMSYN080AAXX  09094 68300 42960 33603 10180 20057 30/// 40170 52004 83030 333 555 91017;
0196683000999992000060912004-26630+015100FM-12+000099999V0203601N001512200019N0200001N1+01681+01251101811ADDAA199000091GF102991021001999999031001KA1120N+01381MA1999999101631MD1710081+9999REMSYN086AAXX  09124 68300 32970 23603 10168 20125 30163 40181 57008 82030 333 20138 555 91018;EQDQ01  00002PRCP99
0160683000999992000060915004-26630+015100FM-12+000099999V0203601N003112200019N0040001N1+01401+01311101601ADDAY121031AY221031GF102991021001022501031001MD1810021+9999MW1401REMSYN086AAXX  09154 68300 41840 23606 10140 20131 3//// 40160 58002 74022 82030 333 555 91016;
0191683000999992000060918004-26630+015100FM-12+000099999V0203201N001512200019N0050001N1+01401+01221101631ADDAA199000091GA1001+999999999GF100991001001999999001001KA1120M+02001MD1210041+9999REMSYN080AAXX  09184 68300 32950 03203 10140 20122 3//// 40163 52004 333 10200 555 91016;EQDQ01  00002PRCP99
0142683000999992000060921004-26630+015100FM-12+000099999V0203601N001512200019N0050001N1+01451+00971101601ADDGA1001+999999999GF100991001001999999001001MD1810021+9999REMSYN074AAXX  09214 68300 42950 03603 10145 20097 3//// 40160 58002 333 555 91016;
0187683000999992000061000004-26630+015100FM-12+000099999V0209999C000012200019N0200001N1+01351+00621101731ADDAA199000091GA1001+999999999GF100991001001999999001001MA1999999101551MD1710051+9999REMSYN074AAXX  10004 68300 32970 00000 10135 20062 30155 40173 57005 333 555 91017;EQDQ01  00002PRCP99
0171683000999992000061003004-26630+015100FM-12+000099999V0203601N003119999999N0009001N1+01201+01041101711ADDAY141031AY241031GF108991081061999999999999MA1999999101531MD1610021+9999MW1451REMSYN082AAXX  10034 68300 41/09 83606 10120 20104 30153 40171 56002 74544 886// 555 91017;
0237683000999992000061006004-26630+015100FM-12+000099999V0203601N003119999999N0100001N1+01131+01071101881ADDAA199000091AY141061AY241061GF108991999999000751999999KA1240M+02021KA2120N+01101MA1999999101701MD1310141+9999MW1451REMSYN092AAXX  10064 68300 32160 83606 10113 20107 30170 40188 53014 74544 333 20110 555 10202 91018;EQDQ01  00002PRCP99
0196683000999992000061012004-26630+015100FM-12+000099999V0203601N005110006019N0150001N1+01601+01141101881ADDAA199000091GF105991051051000751001001KA1120N+01201MA1999999101701MD1810171+9999REMSYN086AAXX  10124 68300 32165 53610 10160 20114 30170 40188 58017 85500 333 20120 555 91018;EQDQ01  00002PRCP99
0132683000999992000061015004-26630+015100FM-12+000099999V0203601N005112200019N0200001N1+01551+01181101681ADDGF102991021041017501001001MD1710011+9999REMSYN080AAXX  10154 68300 42770 23610 10155 20118 3//// 40168 57001 82400 333 555 91016;
0181683000999992000061018004-26630+015100FM-12+000099999V0203601N001512200019N0050001N1+01501+01131101901ADDAA199000091GF102991021061999999001001KA1120M+01731MD1310221+9999REMSYN086AAXX  10184 68300 32950 23603 10150 20113 3//// 40190 53022 82600 333 10173 555 91019;EQDQ01  00002PRCP99
0142683000999992000061021004-26630+015100FM-12+000099999V0203601N005112200019N0050001N1+01521+01211101971ADDGA1001+999999999GF100991001001999999001001MD1310071+9999REMSYN074AAXX  10214 68300 42950 03610 10152 20121 3//// 40197 53007 333 555 91019;
0187683000999992000061100004-26630+015100FM-12+000099999V0203601N001512200019N0100001N1+01451+01191102171ADDAA199000091GA1001+999999999GF100991001001999999001001MA1999999101991MD1210021+9999REMSYN074AAXX  11004 68300 32960 03603 10145 20119 30199 40217 52002 333 555 91021;EQDQ01  00002PRCP99
0175683000999992000061103004-26630+015100FM-12+000099999V0203601N001510006019N0050001N1+01481+01101102281ADDAY141031AY201031GF108991081061000751999999MA1999999102101MD1210111+9999MW1401REMSYN086AAXX  11034 68300 41150 83603 10148 20110 30210 40228 52011 74040 886// 333 555 91022;
0215683000999992000061106004-26630+015100FM-12+000099999V0200501N001510006019N0100001N1+01451+01271102321ADDAA199000091GF107991071061000751999999KA1240M+01731KA2120N+01351MA1999999102141MD1210051+9999REMSYN092AAXX  11064 68300 32160 70503 10145 20127 30214 40232 52005 876// 333 20135 555 10173 91023;EQDQ01  00002PRCP99
0147683000999992000061109004-26630+015100FM-12+000099999V0203201N003110021019N0200001N1+01701+01251102461ADDGF107991071061002501999999MA1999999102281MD1110141+9999REMSYN080AAXX  11094 68300 42370 73206 10170 20125 30228 40246 51014 876// 333 555 91024;
0181683000999992000061112004-26630+015100FM-12+000099999V0202301N010812200019N0200001N1+01951+01341102071ADDAA199000091GF102991021011000751001001KA1120N+01501MD1810201+9999REMSYN086AAXX  11124 68300 32170 22321 10195 20134 3//// 40207 58020 82100 333 20150 555 91020;EQDQ01  00002PRCP99
0153683000999992000061115004-26630+015100FM-12+000099999V0201801N010812200019N0200001N1+01851+01121102131ADDGA1001+999999999GF100991001001999999001001MA1999999101951MD1710121+9999REMSYN070AAXX  11154 68300 42970 01821 10185 20112 30195 40213 57012 555 91021;
0191683000999992000061118004-26630+015100FM-12+000099999V0201801N005112200019N0050001N1+01611+01021101981ADDAA199000091GA1001+999999999GF100991001001999999001001KA1120M+02101MD1210031+9999REMSYN080AAXX  11184 68300 32950 01810 10161 20102 3//// 40198 52003 333 10210 555 91019;EQDQ01  00002PRCP99
0142683000999992000061121004-26630+015100FM-12+000099999V0201801N005112200019N0050001N1+01561+00851101921ADDGA1001+999999999GF100991001001999999001001MD1710061+9999REMSYN074AAXX  11214 68300 42950 01810 10156 20085 3//// 40192 57006 333 555 91019;
0172683000999992000061200004-26630+015100FM-12+000099999V0201801N003112200019N0050001N1+01451+00861101801ADDAA199000091GA1001+999999999GF100991001001999999001001MD1710151+9999REMSYN074AAXX  12004 68300 32950 01806 10145 20086 30/// 40180 57015 333 555 91018;EQDQ01  00002PRCP99
0142683000999992000061203004-26630+015100FM-12+000099999V0201801N001512200019N0050001N1+01251+00851101701ADDGA1001+999999999GF100991001001999999001001MD1810101+9999REMSYN074AAXX  12034 68300 42950 01803 10125 20085 30/// 40170 58010 333 555 91017;
0225683000999992000061206004-26630+015100FM-12+000099999V0203201N003112200019N0200001N1+01151+00851101801ADDAA199000091GA1001+999999999GF100991001001999999001001KA1240M+02101KA2120N+01001MA1999999101621MD1710011+9999REMSYN086AAXX  12064 68300 32970 03206 10115 20085 30162 40180 57001 333 20100 555 10210 91018;EQDQ01  00002PRCP99
0142683000999992000061209004-26630+015100FM-12+000099999V0202301N003112200019N0200001N1+01841+00781101611ADDGA1001+999999999GF100991001001999999001001MD1710011+9999REMSYN074AAXX  12094 68300 42970 02306 10184 20078 3//// 40161 57001 333 555 91016;
0224683000999992000061212004-26630+015100FM-12+000099999V0203601N005112200019N0050001N1+01751+01211101601ADDAA199000091AY101061AY201061GF101991011061000751001001KA1120N+01151MA1999999101421MD1710181+9999MW1401REMSYN092AAXX  12124 68300 31150 13610 10175 20121 30142 40160 57018 74000 81600 333 20115 555 91016;EQDQ01  00002PRCP99
0206683000999992000061218004-26630+015100FM-12+000099999V0203601N001512200019N0300001N1+01351+01161101751ADDAA199000091GA1001+999999999GF100991001001999999001001KA1120M+02251MA1999999101571MD1210101+9999REMSYN080AAXX  12184 68300 32980 03603 10135 20116 30157 40175 52010 333 10225 555 91017;EQDQ01  00002PRCP99
0194683000999992000061221004-26630+015100FM-12+000099999V0203601N005112200019N9999999N1+01301+00771101831ADDAY121031AY201031GF101991011061000751001001MA1999999101651MD1210081+9999MW1441REMSYN086AAXX  12214 68300 41170 13610 10130 20077 30165 40183 52008 74420 81600 333 555 91018;EQDQ01+200002VODIS 
0176683000999992000061300004-26630+015100FM-12+000099999V0209999C000010024019N0040001N1+01351+00961101741ADDAY141061AY241061GA1091+999999999GF109991091999999999999999MD1310091+9999MW1461REMSYN086AAXX  13004 68300 41/40 90000 10135 20096 3//// 40174 53009 74644 8//// 333 555 91017;
0160683000999992000061303004-26630+015100FM-12+000099999V0203601N003110006019N0050001N1+01341+01131101831ADDAY121031AY221031GF108991081061000751999999MD1310091+9999MW1401REMSYN086AAXX  13034 68300 41150 83606 10134 20113 3//// 40183 53009 74022 886// 333 555 91018;
0200683000999992000061306004-26630+015100FM-12+000099999V0200501N005112200019N0200001N1+01351+00961101871ADDAA199000091GF103991031011000751031001KA1240M+02301KA2120N+01251MD1210081+9999REMSYN092AAXX  13064 68300 32170 30510 10135 20096 3//// 40187 52008 83130 333 20125 555 10230 91018;EQDQ01  00002PRCP99
0147683000999992000061309004-26630+015100FM-12+000099999V0203601N005110006019N0200001N1+01601+01031102231ADDGF105991051051000751001001MA1999999102051MD1210171+9999REMSYN080AAXX  13094 68300 42170 53610 10160 20103 30205 40223 52017 85500 333 555 91022;
0206683000999992000061312004-26630+015100FM-12+000099999V0200901N005112200019N0750001N1+01671+01071102101ADDAA199000091GA1001+999999999GF100991001001999999001001KA1120N+01321MA1999999101921MD1810131+9999REMSYN080AAXX  13124 68300 32989 00910 10167 20107 30192 40210 58013 333 20132 555 91021;EQDQ01  00002PRCP99
0157683000999992000061315004-26630+015100FM-12+000099999V0202701N001512200019N0750001N1+01751+01101102041ADDGA1001+999999999GF100991001001999999001001MA1999999101861MD1710061+9999REMSYN074AAXX  13154 68300 42989 02703 10175 20110 30186 40204 57006 333 555 91020;
0206683000999992000061318004-26630+015100FM-12+000099999V0202701N001512200019N0750001N1+01451+01171102191ADDAA199000091GA1001+999999999GF100991001001999999001001KA1120M+01851MA1999999102011MD1210151+9999REMSYN080AAXX  13184 68300 32989 02703 10145 20117 30201 40219 52015 333 10185 555 91021;EQDQ01  00002PRCP99
0157683000999992000061321004-26630+015100FM-12+000099999V0202701N001512200019N0200001N1+01401+01021102231ADDGA1001+999999999GF100991001001999999001001MA1999999102051MD1310041+9999REMSYN074AAXX  13214 68300 42970 02703 10140 20102 30205 40223 53004 333 555 91022;
0177683000999992000061400004-26630+015100FM-12+000099999V0203601N001512200019N0050001N1+01331+01041102151ADDAA199000091GF102991999999000751999999MA1999999101971MD1710071+9999REMSYN080AAXX  14004 68300 32150 23603 10133 20104 30197 40215 57007 8//// 333 555 91021;EQDQ01  00002PRCP99
0157683000999992000061403004-26630+015100FM-12+000099999V0203601N001512200019N0100001N1+01251+00851102061ADDGA1001+999999999GF100991001001999999001001MA1999999101881MD1810081+9999REMSYN074AAXX  14034 68300 42960 03603 10125 20085 30188 40206 58008 333 555 91020;
0215683000999992000061406004-26630+015100FM-12+000099999V0201301N001512200019N0750001N1+01201+00421102071ADDAA199000091GF101991001001999999001031KA1240M+01851KA2120N+01201MA1999999101891MD1310021+9999REMSYN092AAXX  14064 68300 32989 11303 10120 20042 30189 40207 53002 80003 333 20120 555 10185 91020;EQDQ01  00002PRCP99
0132683000999992000061409004-26630+015100FM-12+000099999V0201801N005112200019N0750001N1+01701+00691102001ADDGF101991001001999999001011MD1210081+9999REMSYN080AAXX  14094 68300 42989 11810 10170 20069 30/// 40200 52008 80001 333 555 91020;
0191683000999992000061412004-26630+015100FM-12+000099999V0202301N008212200019N0200001N1+02051+00921101701ADDAA199000091GA1001+999999999GF100991001001999999001001KA1120N+01201MD1810281+9999REMSYN080AAXX  14124 68300 32970 02316 10205 20092 30/// 40170 58028 333 20120 555 91017;EQDQ01  00002PRCP99
0161683000999992000061415004-26630+015100FM-12+000099999V0201801N009312200019N0200001N1+01901+01071999999ADDGA1001+999999999GF100991001001999999001001MD1210051+9999REMSYN074AAXX  14154 68300 42970 01818 10190 20107 34016 44023 52005 333 555 90402;EQDQ01+040161APOSP 
0206683000999992000061418004-26630+015100FM-12+000099999V0201801N001512200019N0300001N1+01551+01081101921ADDAA199000091GA1001+999999999GF100991001001999999001001KA1120M+02101MA1999999101741MD1310121+9999REMSYN080AAXX  14184 68300 32980 01803 10155 20108 30174 40192 53012 333 10210 555 91019;EQDQ01  00002PRCP99
0157683000999992000061421004-26630+015100FM-12+000099999V0201801N005112200019N0200001N1+01401+01021101941ADDGA1001+999999999GF100991001001999999001001MA1999999101761MD1310041+9999REMSYN074AAXX  14214 68300 42970 01810 10140 20102 30176 40194 53004 333 555 91019;
0172683000999992000061500004-26630+015100FM-12+000099999V0203601N001512200019N0050001N1+01301+00901101731ADDAA199000091GA1001+999999999GF100991001001999999001001MD1710031+9999REMSYN074AAXX  15004 68300 32950 03603 10130 20090 3//// 40173 57003 333 555 91017;EQDQ01  00002PRCP99
0172683000999992000061503004-26630+015100FM-12+000099999V0201801N001512200019N0050001N1+01231+01081101611ADDAA199000091GA1001+999999999GF100991001001999999001001MD1710081+9999REMSYN074AAXX  15034 68300 32950 01803 10123 20108 3//// 40161 57008 333 555 91016;EQDQ01  00002PRCP99
0200683000999992000061506004-26630+015100FM-12+000099999V0201801N003112200019N0200001N1+01201+01101101721ADDAA199000091GF101991011061000751001001KA1240M+02151KA2120N+01201MD1310101+9999REMSYN092AAXX  15064 68300 32170 11806 10120 20110 3//// 40172 53010 81600 333 20120 555 10215 91017;EQDQ01  00002PRCP99
0153683000999992000061509004-26630+015100FM-12+000099999V0201401N006212200019N0200001N1+01651+01091101931ADDGA1001+999999999GF100991001001999999001001MA1999999101751MD1110031+9999REMSYN070AAXX  15094 68300 42970 01412 10165 20109 30175 40193 51003 555 91019;
0196683000999992000061512004-26630+015100FM-12+000099999V0202301N010812200019N0200001N1+01901+01181101711ADDAA199000091GF104991001001999999001041KA1120N+01251MA1999999101531MD1810221+9999REMSYN086AAXX  15124 68300 32970 42321 10190 20118 30153 40171 58022 80004 333 20125 555 91017;EQDQ01  00002PRCP99
0157683000999992000061515004-26630+015100FM-12+000099999V0201801N010312200019N0200001N1+01601+01141101661ADDGA1001+999999999GF100991001001999999001001MA1999999101481MD1710051+9999REMSYN074AAXX  15154 68300 42970 01820 10160 20114 30148 40166 57005 333 555 91016;
0206683000999992000061518004-26630+015100FM-12+000099999V0201801N009312200019N0200001N1+01351+01061101831ADDAA199000091GA1001+999999999GF100991001001999999001001KA1120M+02001MA1999999101651MD1210171+9999REMSYN080AAXX  15184 68300 32970 01818 10135 20106 30165 40183 52017 333 10200 555 91018;EQDQ01  00002PRCP99
0157683000999992000061521004-26630+015100FM-12+000099999V0201801N004612200019N0300001N1+01351+00961101901ADDGA1001+999999999GF100991001001999999001001MA1999999101721MD1310071+9999REMSYN074AAXX  15214 68300 42980 01809 10135 20096 30172 40190 53007 333 555 91019;
0172683000999992000061600004-26630+015100FM-12+000099999V0201801N005112200019N0050001N1+01301+00901101701ADDAA199000091GA1001+999999999GF100991001001999999001001MD1610021+9999REMSYN074AAXX  16004 68300 32950 01810 10130 20090 3//// 40170 56002 333 555 91017;EQDQ01  00002PRCP99
0142683000999992000061603004-26630+015100FM-12+000099999V0201801N005112200019N0050001N1+01201+00961101661ADDGA1001+999999999GF100991001001999999001001MD1710041+9999REMSYN074AAXX  16034 68300 42950 01810 10120 20096 3//// 40166 57004 333 555 91016;
0200683000999992000061606004-26630+015100FM-12+000099999V0201801N003119999999N0200001N1+01201+00791101791ADDAA199000091GF105991051001999999081001KA1240M+02051KA2120N+01201MD1210121+9999REMSYN092AAXX  16064 68300 32970 51806 10120 20079 3//// 40179 52012 85080 333 20120 555 10205 91017;EQDQ01  00002PRCP99
0147683000999992000061609004-26630+015100FM-12+000099999V0201601N010319999999N0200001N1+01301+01111102071ADDGF105991051001999999081001MA1999999101891MD1310101+9999REMSYN080AAXX  16094 68300 42970 51620 10130 20111 30189 40207 53010 85080 333 555 91020;
0196683000999992000061612004-26630+015100FM-12+000099999V0201601N014419999999N0750001N1+01851+00771101951ADDAA199000091GF105991051001999999081001KA1120N+01201MA1999999101771MD1310111+9999REMSYN086AAXX  16124 68300 32989 51628 10185 20077 30177 40195 53011 85080 333 20120 555 91019;EQDQ01  00002PRCP99
0157683000999992000061615004-26630+015100FM-12+000099999V0201801N014412200019N0100001N1+01741+00651101921ADDGA1001+999999999GF100991001001999999001001MA1999999101741MD1810031+9999REMSYN074AAXX  16154 68300 42960 01828 10174 20065 30174 40192 58003 333 555 91019;
0190683000999992000061618004-26630+015100FM-12+000099999V0209999C000012200019N0750001N1+01381+00701102101ADDAA199000091GF104991999999999999999999KA1120M+02071MA1999999101921MD1310181+9999REMSYN080AAXX  16184 68300 32989 40000 10138 20070 30192 40210 53018 333 10207 555 91021;EQDQ01  00002PRCP99
0157683000999992000061621004-26630+015100FM-12+000099999V0201301N006212200019N0100001N1+01331+00561102281ADDGA1001+999999999GF100991001001999999001001MA1999999102101MD1210181+9999REMSYN074AAXX  16214 68300 42960 01312 10133 20056 30210 40228 52018 333 555 91022;
0172683000999992000061700004-26630+015100FM-12+000099999V0201801N006212200019N0040001N1+01301+00421102101ADDAA199000091GA1001+999999999GF100991001001999999001001MD1410001+9999REMSYN074AAXX  17004 68300 32940 01812 10130 20042 3//// 40210 54000 333 555 91021;EQDQ01  00002PRCP99
0142683000999992000061703004-26630+015100FM-12+000099999V0201801N003112200019N0050001N1+01201+00681102051ADDGA1001+999999999GF100991001001999999001001MD1810051+9999REMSYN074AAXX  17034 68300 42950 01806 10120 20068 3//// 40205 58005 333 555 91020;
0191683000999992000061712004-26630+015100FM-12+000099999V0201801N005112200019N0200001N1+01851+00771101951ADDAA199000091GA1001+999999999GF100991001001999999001001KA1120N+01151MD1710081+9999REMSYN080AAXX  17124 68300 32970 01810 10185 20077 30/// 40195 57008 333 20115 555 91019;EQDQ01  00002PRCP99
0157683000999992000061715004-26630+015100FM-12+000099999V0201801N013412200019N0200001N1+01721+00481102081ADDGA1001+999999999GF100991001001999999001001MA1999999101901MD1810051+9999REMSYN074AAXX  17154 68300 42970 01826 10172 20048 30190 40208 58005 333 555 91020;
0206683000999992000061718004-26630+015100FM-12+000099999V0201801N009312200019N0200001N1+01351+00691102191ADDAA199000091GA1001+999999999GF100991001001999999001001KA1120M+02061MA1999999102011MD1310111+9999REMSYN080AAXX  17184 68300 32970 01818 10135 20069 30201 40219 53011 333 10206 555 91021;EQDQ01  00002PRCP99
0157683000999992000061721004-26630+015100FM-12+000099999V0201801N006212200019N0200001N1+01301+00421102281ADDGA1001+999999999GF100991001001999999001001MA1999999102101MD1210091+9999REMSYN074AAXX  17214 68300 42970 01812 10130 20042 30210 40228 52009 333 555 91022;
0142683000999992000061803004-26630+015100FM-12+000099999V0201801N003112200019N0100001N1+01051+00851102101ADDGA1001+999999999GF100991001001999999001001MD1710071+9999REMSYN074AAXX  18034 68300 42960 01806 10105 20085 30/// 40210 57007 333 555 91021;
0142683000999992000061809004-26630+015100FM-12+000099999V0202701N001512200019N0750001N1+01201+01101102201ADDGA1001+999999999GF100991001001999999001001MD1210111+9999REMSYN074AAXX  18094 68300 42989 02703 10120 20110 30/// 40220 52011 333 555 91022;
0206683000999992000061812004-26630+015100FM-12+000099999V0201801N001512200019N0750001N1+02301+00171102121ADDAA199000091GA1001+999999999GF100991001001999999001001KA1120N+01201MA1999999101941MD1710231+9999REMSYN080AAXX  18124 68300 32989 01803 10230 20017 30194 40212 57023 333 20120 555 91021;EQDQ01  00002PRCP99
0153683000999992000061815004-26630+015100FM-12+000099999V0201801N006212200019N0750001N1+02401-00011101961ADDGA1001+999999999GF100991001001999999001001MA1999999101781MD1710161+9999REMSYN070AAXX  18154 68300 42989 01812 10240 21001 30178 40196 57016 555 91019;
0206683000999992000061818004-26630+015100FM-12+000099999V0201801N003112200019N0750001N1+01901+00501102081ADDAA199000091GA1001+999999999GF100991001001999999001001KA1120M+02971MA1999999101901MD1310121+9999REMSYN080AAXX  18184 68300 32989 01806 10190 20050 30190 40208 53012 333 10297 555 91020;EQDQ01  00002PRCP99
0157683000999992000061821004-26630+015100FM-12+000099999V0201801N003112200019N0100001N1+01411+00831102091ADDGA1001+999999999GF100991001001999999001001MA1999999101911MD1210011+9999REMSYN074AAXX  18214 68300 42960 01806 10141 20083 30191 40209 52001 333 555 91020;
0172683000999992000061900004-26630+015100FM-12+000099999V0202301N007712200019N0050001N1+02201-00041101801ADDAA199000091GA1001+999999999GF100991001001999999001001MD1810111+9999REMSYN074AAXX  19004 68300 32950 02315 10220 21004 3//// 40180 58011 333 555 91018;EQDQ01  00002PRCP99
0127683000999992000061903004-26630+015100FM-12+000099999V0201601N007712200019N0050001N1+02101+99999999999ADDGA1001+999999999GF100991001001999999001001REMSYN073AAXX  19034 68300 42950 01615 10210 2102 3//// 40169 57011 333 555 91016;
0210683000999992000061906004-26630+015100FM-12+000099999V0200901N008212200019N0750001N1+02151-00371101701ADDAA199000091GA1001+999999999GF100991001001999999001001KA1240M+02971KA2120N+01151MD1210011+9999REMSYN086AAXX  19064 68300 32989 00916 10215 21037 3//// 40170 52001 333 20115 555 10297 91017;EQDQ01  00002PRCP99
0157683000999992000061909004-26630+015100FM-12+000099999V0200501N012912200019N0750001N1+02751+01082101901ADDGA1001+999999999GF100991001001999999001001MA1999999101731MD1210031+9999REMSYN074AAXX  19094 68300 42989 00525 10275 20108 30173 40190 52003 333 555 91019;
0207683000999992000061912004-26630+015100FM-12+000099999V0203601N001512200019N0750001N1+02061+00021101601ADDAA199000091GA1001+999999999GF100991001001999999001001KA1120N+99999MD1710171+9999REMSYN080AAXX  19124 68300 32989 03603 10206 20002 30/// 40160 57017 333 20215 555 91016;EQDQ01  00002PRCP99Q02 +02152ATMN  
0157683000999992000061915004-26630+015100FM-12+000099999V0201801N004112200019N0750001N1+02451+00601101671ADDGA1001+999999999GF100991001001999999001001MA1999999101501MD1710061+9999REMSYN074AAXX  19154 68300 42989 01808 10245 20060 30150 40167 57006 333 555 91016;
0206683000999992000061918004-26630+015100FM-12+000099999V0201301N003112200019N0750001N1+02151+00391101661ADDAA199000091GA1001+999999999GF100991001001999999001001KA1120M+03241MA1999999101481MD1710021+9999REMSYN080AAXX  19184 68300 32989 01306 10215 20039 30148 40166 57002 333 10324 555 91016;EQDQ01  00002PRCP99
0157683000999992000061921004-26630+015100FM-12+000099999V0201801N003112200019N0200001N1+01661+00791101701ADDGA1001+999999999GF100991001001999999001001MA1999999101521MD1310041+9999REMSYN074AAXX  19214 68300 42970 01806 10166 20079 30152 40170 53004 333 555 91017;
0172683000999992000062000004-26630+015100FM-12+000099999V0201001N008212200019N0050001N1+02151-00151101341ADDAA199000091GA1001+999999999GF100991001001999999001001MD1810151+9999REMSYN074AAXX  20004 68300 32950 01016 10215 21015 3//// 40134 58015 333 555 91013;EQDQ01  00002PRCP99
0132683000999992000062003004-26630+015100FM-12+000099999V0201801N007712200019N0300001N1+02351+00081101151ADDGF102991001001999999001021MD1710201+9999REMSYN080AAXX  20034 68300 42980 21815 10235 20008 3//// 40115 57020 80002 333 555 91011;
0200683000999992000062006004-26630+015100FM-12+000099999V0200901N010319999999N0300001N1+02431+00311101111ADDAA199000091GF105991001001999999001021KA1240M+03251KA2120N+01601MD1210041+9999REMSYN092AAXX  20064 68300 32980 50920 10243 20031 3//// 40111 52004 80002 333 20160 555 10325 91011;EQDQ01  00002PRCP99
0157683000999992000062009004-26630+015100FM-12+000099999V0200501N005112200019N0750001N1+02681+00211101481ADDGA1001+999999999GF100991001001999999001001MA1999999101311MD1310201+9999REMSYN074AAXX  20094 68300 42989 00510 10268 20021 30131 40148 53020 333 555 91014;
0206683000999992000062012004-26630+015100FM-12+000099999V0209999C000012200019N0200001N1+02151+00821101341ADDAA199000091GA1001+999999999GF100991001001999999001001KA1120N+01851MA1999999101161MD1710151+9999REMSYN080AAXX  20124 68300 32970 00000 10215 20082 30116 40134 57015 333 20185 555 91013;EQDQ01  00002PRCP99
0153683000999992000062015004-26630+015100FM-12+000099999V0202301N001512200019N0300001N1+01991+00961101341ADDGA1001+999999999GF100991001001999999001001MA1999999101161MD1410001+9999REMSYN070AAXX  20154 68300 42980 02303 10199 20096 30116 40134 54000 555 91013;
0206683000999992000062018004-26630+015100FM-12+000099999V0201801N003112200019N0100001N1+02071+00731101381ADDAA199000091GA1001+999999999GF100991001001999999001001KA1120M+02601MA1999999101201MD1310041+9999REMSYN080AAXX  20184 68300 32960 01806 10207 20073 30120 40138 53004 333 10260 555 91013;EQDQ01  00002PRCP99
0157683000999992000062021004-26630+015100FM-12+000099999V0203601N003112200019N0200001N1+01551+00971101481ADDGA1001+999999999GF100991001001999999001001MA1999999101301MD1210101+9999REMSYN074AAXX  20214 68300 42970 03606 10155 20097 30130 40148 52010 333 555 91014;
0177683000999992000062100004-26630+015100FM-12+000099999V0201801N003112200019N0050001N1+01501+00921101451ADDAA199000091GF101991011001999999081001MA1999999101271MD1810041+9999REMSYN080AAXX  21004 68300 32950 11806 10150 20092 30127 40145 58004 81080 333 555 91014;EQDQ01  00002PRCP99
0147683000999992000062103004-26630+015100FM-12+000099999V0201801N001512200019N0050001N1+01551+00971101361ADDGF101991011001999999081001MA1999999101181MD1710091+9999REMSYN080AAXX  21034 68300 42950 11803 10155 20097 30118 40136 57009 81080 333 555 91013;
0263683000999992000062106004-26630+015100FM-12+000099999V0209999C000012200019N0020001N1+01351+01261101561ADDAA199000091AY121061AY221061GA1001+999999999GF100991001001999999001001KA1240M+02601KA2120N+01301MA1999999101381MD1210201+9999REMSYN092AAXX  21064 68300 31920 00000 10135 20126 30138 40156 52020 74822 333 20130 555 10260 91015;EQDQ01+000482PRSWM1Q02  00002PRCP99
0160683000999992000062109004-26630+015100FM-12+000099999V0203601N003110006019N0050001N1+01251+01141101621ADDAY141031AY221031GF108991081061000751999999MD1310221+9999MW1401REMSYN086AAXX  21094 68300 41150 83606 10125 20114 30/// 40162 53022 74042 886// 333 555 91016;
0209683000999992000062112004-26630+015100FM-12+000099999V0202801N003110042019N0030001N1+01401+01121101501ADDAA199000091AY141061AY221061GF108991081051004501999999KA1120N+01201MD1710121+9999MW1451REMSYN092AAXX  21124 68300 31430 82806 10140 20112 30/// 40150 57012 74542 885// 333 20120 555 91015;EQDQ01  00002PRCP99
0177683000999992000062115004-26630+015100FM-12+000099999V0203601N003110042019N0750001N1+01381+01161101611ADDAA199000091GF106991061061004501001001MA1999999101431MD1710051+9999REMSYN080AAXX  21154 68300 32489 63606 10138 20116 30143 40161 57005 86600 333 555 91016;EQDQ01  00002PRCP99
0181683000999992000062118004-26630+015100FM-12+000099999V0203601N003110042019N0300001N1+01351+01121101721ADDAA199000091GF106991061061004501001001KA1120M+01531MD1310121+9999REMSYN086AAXX  21184 68300 32480 63606 10135 20112 3//// 40172 53012 86600 333 10153 555 91017;EQDQ01  00002PRCP99
0132683000999992000062121004-26630+015100FM-12+000099999V0203601N004110006019N0050001N1+01331+01181101681ADDGF108991081061000751999999MD1210141+9999REMSYN080AAXX  21214 68300 42150 83608 10133 20118 3//// 40168 52014 886// 333 555 91016;
0177683000999992000062200004-26630+015100FM-12+000099999V0201801N003112200019N0050001N1+01501+00921101451ADDAA199000091GF101991011001999999081001MA1999999101271MD1810041+9999REMSYN080AAXX  22004 68300 32950 11806 10150 20092 30127 40145 58004 81080 333 555 91014;EQDQ01  00002PRCP99
0177683000999992000062203004-26630+015100FM-12+000099999V0202601N002612200019N0050001N1+01401+01021101911ADDAA199000091GF102991021001999999081001MA1999999101731MD1810031+9999REMSYN080AAXX  22034 68300 32950 22605 10140 20102 30173 40191 58003 82080 333 555 91019;EQDQ01  00002PRCP99
0215683000999992000062206004-26630+015100FM-12+000099999V0202801N001510042019N0300001N1+01381+01231102011ADDAA199000091GF108991081061004501999999KA1240M+01531KA2120N+01251MA1999999101831MD1210101+9999REMSYN092AAXX  22064 68300 32480 82803 10138 20123 30183 40201 52010 886// 333 20125 555 10153 91020;EQDQ01  00002PRCP99
0189683000999992000062209004-26630+015100FM-12+000099999V0202701N001510024019N0040001N1+01381+01271102081ADDAY151031AY221031GA1091+999999999GF109991091999999999999999MD1310251+9999REMSYN086AAXX  22094 68300 41440 92703 10138 20127 3//// 40208 53025 74952 8//// 333 555 91020;EQDQ01+000492PRSWM1
0234683000999992000062212004-26630+015100FM-12+000099999V0209999C000010006019N0009001N1+01361+01341102221ADDAA199000091AY141061AY241061GA1091+999999999GF109991091999999999999999KA1120N+01351MA1999999102041MD1710041+9999MW1451REMSYN086AAXX  22124 68300 31/09 90000 10136 20134 30204 40222 57004 74544 333 20135 555 91022;EQDQ01  00002PRCP99
0196683000999992000062218004-26630+015100FM-12+000099999V0201801N006210006019N0100001N1+01451+01131102351ADDAA199000091GF108991081071000751999999KA1120M+01701MA1999999102171MD1210111+9999REMSYN086AAXX  22184 68300 32160 81812 10145 20113 30217 40235 52011 887// 333 10170 555 91023;EQDQ01  00002PRCP99
0147683000999992000062221004-26630+015100FM-12+000099999V0201801N006212200019N0300001N1+01381+00891102321ADDGF104991041051002501001001MA1999999102141MD1810031+9999REMSYN080AAXX  22214 68300 42380 41812 10138 20089 30214 40232 58003 84500 333 555 91023;
0172683000999992000062300004-26630+015100FM-12+000099999V0201801N003112200019N0050001N1+01201+00791102301ADDAA199000091GA1001+999999999GF100991001001999999001001MD1310061+9999REMSYN074AAXX  23004 68300 32950 01806 10120 20079 30/// 40230 53006 333 555 91023;EQDQ01  00002PRCP99
0142683000999992000062303004-26630+015100FM-12+000099999V0201801N003112200019N0050001N1+01101+00681102151ADDGA1001+999999999GF100991001001999999001001MD1810071+9999REMSYN074AAXX  23034 68300 42950 01806 10110 20068 30/// 40215 58007 333 555 91022;
0210683000999992000062306004-26630+015100FM-12+000099999V0201801N006212200019N0100001N1+01051+00621102151ADDAA199000091GA1001+999999999GF100991001001999999001001KA1240M+01701KA2120N+01031MD1310021+9999REMSYN086AAXX  23064 68300 32960 01812 10105 20062 30/// 40215 53002 333 20103 555 10170 91022;EQDQ01  00002PRCP99
0147683000999992000062309004-26630+015100FM-12+000099999V0202301N008212200019N0100001N1+01551+00651102491ADDGF101991011061000751001001MA1999999102311MD1210161+9999REMSYN080AAXX  23094 68300 42160 12316 10155 20065 30231 40249 52016 81600 333 555 91024;
0206683000999992000062312004-26630+015100FM-12+000099999V0202301N008212200019N0750001N1+01871+00621102211ADDAA199000091GA1001+999999999GF100991001001999999001001KA1120N+01031MA1999999102031MD1810271+9999REMSYN080AAXX  23124 68300 32989 02316 10187 20062 30203 40221 58027 333 20103 555 91022;EQDQ01  00002PRCP99
0157683000999992000062315004-26630+015100FM-12+000099999V0201801N007712200019N0750001N1+01721+00721102151ADDGA1001+999999999GF100991001001999999001001MA1999999101971MD1210061+9999REMSYN074AAXX  23154 68300 42989 01815 10172 20072 30197 40215 52006 333 555 91021;
0206683000999992000062318004-26630+015100FM-12+000099999V0201801N003112200019N0200001N1+01361+00721102261ADDAA199000091GA1001+999999999GF100991001001999999001001KA1120M+01981MA1999999102081MD1310111+9999REMSYN080AAXX  23184 68300 32970 01806 10136 20072 30208 40226 53011 333 10198 555 91022;EQDQ01  00002PRCP99
0157683000999992000062321004-26630+015100FM-12+000099999V0201801N003112200019N0200001N1+01321+00651102171ADDGA1001+999999999GF100991001001999999001001MA1999999101991MD1710091+9999REMSYN074AAXX  23214 68300 42970 01806 10132 20065 30199 40217 57009 333 555 91021;
0187683000999992000062400004-26630+015100FM-12+000099999V0201801N003112200019N0050001N1+01201+00791102081ADDAA199000091GA1001+999999999GF100991001001999999001001MA1999999101901MD1810091+9999REMSYN074AAXX  24004 68300 32950 01806 10120 20079 30190 40208 58009 333 555 91020;EQDQ01  00002PRCP99
0157683000999992000062403004-26630+015100FM-12+000099999V0201801N003112200019N0050001N1+01101+00681102311ADDGA1001+999999999GF100991001001999999001001MA1999999102131MD1810071+9999REMSYN074AAXX  24034 68300 42950 01806 10110 20068 30213 40231 58007 333 555 91023;
0215683000999992000062406004-26630+015100FM-12+000099999V0201801N003112200019N0100001N1+01171+00871102101ADDAA199000091GF101991011061000751001001KA1240M+02001KA2120N+01001MA1999999101921MD1710111+9999REMSYN092AAXX  24064 68300 32160 11806 10117 20087 30192 40210 57011 81600 333 20100 555 10200 91021;EQDQ01  00002PRCP99
0173683000999992000062409004-26630+015100FM-12+000099999V0201801N003112200019N0200001N1+01821+00491102131ADDAA199000091GF101991011061002501001001MA1999999101951MD1310031+9999REMSYN076AAXX  24094 68300 32370 11806 10182 20049 30195 40213 53003 81600 555 91021;EQDQ01  00002PRCP99
0206683000999992000062412004-26630+015100FM-12+000099999V0201801N005112200019N0200001N1+02371+00371101901ADDAA199000091GA1001+999999999GF100991001001999999001001KA1120N+01001MA1999999101721MD1810231+9999REMSYN080AAXX  24124 68300 32970 01810 10237 20037 30172 40190 58023 333 20100 555 91019;EQDQ01  00002PRCP99
0142683000999992000062415004-26630+015100FM-12+000099999V0201801N003112200019N0300001N1+02221+00541101601ADDGA1001+999999999GF100991001001999999001001MD1810121+9999REMSYN074AAXX  24154 68300 42980 01806 10222 20054 3//// 40160 58012 333 555 91016;
0191683000999992000062418004-26630+015100FM-12+000099999V0201801N001512200019N0050001N1+01701+00691101701ADDAA199000091GA1001+999999999GF100991001001999999001001KA1120M+02651MD1310101+9999REMSYN080AAXX  24184 68300 32950 01803 10170 20069 3//// 40170 53010 333 10265 555 91017;EQDQ01  00002PRCP99
0142683000999992000062421004-26630+015100FM-12+000099999V0209999C000012200019N0050001N1+01401+00801101721ADDGA1001+999999999GF100991001001999999001001MD1210021+9999REMSYN074AAXX  24214 68300 42950 00000 10140 20080 3//// 40172 52002 333 555 91017;
0187683000999992000062500004-26630+015100FM-12+000099999V0209999C000012200019N0050001N1+01501-00251101821ADDAA199000091GA1001+999999999GF100991001001999999001001MA1999999101641MD1710081+9999REMSYN074AAXX  25004 68300 32950 00000 10150 21025 30164 40182 57008 333 555 91018;EQDQ01  00002PRCP99
0203683000999992000062503004-26630+015100FM-12+000099999V0209999C000012200019N0300001N1+01501+01132101781ADDAA199000091GA1001+999999999GF100991001001999999001001MA1999999101601MD1210041+9999REMSYN074AAXX  25034 68300 32980 00000 10150 20113 30160 40178 52004 333 555 91017;EQDQ01+001133ATOD  Q02  00002PRCP99
0225683000999992000062506004-26630+015100FM-12+000099999V0201801N008212200019N0300001N1+01351+01161101841ADDAA199000091GA1001+999999999GF100991001001999999001001KA1240M+02631KA2120N+01311MA1999999101661MD1810141+9999REMSYN086AAXX  25064 68300 32980 01816 10135 20116 30166 40184 58014 333 20131 555 10263 91018;EQDQ01  00002PRCP99
0215683000999992000062509004-26630+015100FM-12+000099999V0202301N008212200019N0300001N1+01991+00141101901ADDAA199000091AY101031AY201031GA1001+999999999GF100991001001999999001001MA1999999101721MD1310061+9999MW1051REMSYN080AAXX  25094 68300 31980 02316 10199 20014 30172 40190 53006 70500 333 555 91019;EQDQ01  00002PRCP99
0209683000999992000062512004-26630+015100FM-12+000099999V0200501N003112200019N0100001N1+01801+00971101611ADDAA199000091AY141061AY241061GF101991011061004501001001KA1120N+01301MD1810111+9999MW1401REMSYN092AAXX  25124 68300 31460 10506 10180 20097 3//// 40161 58011 74044 81600 333 20130 555 91016;EQDQ01  00002PRCP99
0142683000999992000062515004-26630+015100FM-12+000099999V0209999C000012200019N0100001N1+01881+00861101591ADDGA1001+999999999GF100991001001999999001001MD1610021+9999REMSYN074AAXX  25154 68300 42960 00000 10188 20086 3//// 40159 56002 333 555 91015;
0191683000999992000062518004-26630+015100FM-12+000099999V0209999C000012200019N0050001N1+01551+01081101731ADDAA199000091GA1001+999999999GF100991001001999999001001KA1120M+02581MD1310131+9999REMSYN080AAXX  25184 68300 32950 00000 10155 20108 3//// 40173 53013 333 10258 555 91017;EQDQ01  00002PRCP99
0157683000999992000062603004-26630+015100FM-12+000099999V0209999C000012200019N0050001N1+01901+00121101921ADDGA1001+999999999GF100991001001999999001001MA1999999101741MD1410001+9999REMSYN074AAXX  26034 68300 42950 00000 10190 20012 30174 40192 54000 333 555 91019;
0215683000999992000062606004-26630+015100FM-12+000099999V0201801N003112200019N0050001N1+01471+01171102031ADDAA199000091GF101991011061000751001001KA1240M+02551KA2120N+01421MA1999999101851MD1310111+9999REMSYN092AAXX  26064 68300 32150 11806 10147 20117 30185 40203 53011 81600 333 20142 555 10255 91020;EQDQ01  00002PRCP99
0142683000999992000062609004-26630+015100FM-12+000099999V0201801N003112200019N0100001N1+02251+00101102051ADDGA1001+999999999GF100991001001999999001001MD1210201+9999REMSYN074AAXX  26094 68300 42960 01806 10225 20010 3//// 40205 52020 333 555 91020;
0191683000999992000062612004-26630+015100FM-12+000099999V0201801N005112200019N0750001N1+02271+00811101871ADDAA199000091GA1001+999999999GF100991001001999999001001KA1120N+01401MD1810121+9999REMSYN080AAXX  26124 68300 32989 01810 10227 20081 3//// 40187 58012 333 20140 555 91018;EQDQ01  00002PRCP99
0142683000999992000062615004-26630+015100FM-12+000099999V0201801N005112200019N0200001N1+02001+00851101841ADDGA1001+999999999GF100991001001999999001001MD1710051+9999REMSYN074AAXX  26154 68300 42970 01810 10200 20085 3//// 40184 57005 333 555 91018;
0231683000999992000062618004-26630+015100FM-12+000099999V0209999C000012200019N0750001N1+01601+00391999999ADDAA199000091GA1001+999999999GF100991001001999999001001KA1120M+02651MA1999999999999MD1310101+9999ME1309979REMSYN080AAXX  26184 68300 32989 00000 10160 20039 38981 48997 53010 333 10265 555 90899;EQDQ01  00002PRCP99Q02 089813APOSP 
0176683000999992000062621004-26630+015100FM-12+000099999V0201801N003112200019N0100001N1+01401+01021102091ADDGA1001+999999999GF100991001001999999001001MA1999999101912MD1210051+9999REMSYN074AAXX  26214 68300 42960 01806 10140 20102 30191 40209 52005 333 555 91020;EQDQ01+101913APOSP 
0172683000999992000062700004-26630+015100FM-12+000099999V0209999C000012200019N0100001N1+01301+01111101871ADDAA199000091GA1001+999999999GF100991001001999999001001MD1710041+9999REMSYN074AAXX  27004 68300 32960 00000 10130 20111 3//// 40187 57004 333 555 91018;EQDQ01  00002PRCP99
0142683000999992000062703004-26630+015100FM-12+000099999V0209999C000012200019N0200001N1+02051+00041101831ADDGA1001+999999999GF100991001001999999001001MD1810041+9999REMSYN074AAXX  27034 68300 42970 00000 10205 20004 3//// 40183 58004 333 555 91018;
0210683000999992000062706004-26630+015100FM-12+000099999V0200901N003112200019N0100001N1+02251+00071101881ADDAA199000091GA1001+999999999GF100991001001999999001001KA1240M+02651KA2120N+01631MD1310051+9999REMSYN086AAXX  27064 68300 32960 00906 10225 20007 3//// 40188 53005 333 20163 555 10265 91018;EQDQ01  00002PRCP99
0142683000999992000062709004-26630+015100FM-12+000099999V0200901N003112200019N0100001N1+02861+00191102001ADDGA1001+999999999GF100991001001999999001001MD1210061+9999REMSYN074AAXX  27094 68300 42960 00906 10286 20019 30/// 40200 52006 333 555 91020;
0191683000999992000062712004-26630+015100FM-12+000099999V0200901N003112200019N0750001N1+03151+00351101651ADDAA199000091GA1001+999999999GF100991001001999999001001KA1120N+01651MD1810221+9999REMSYN080AAXX  27124 68300 32989 00906 10315 20035 30/// 40165 58022 333 20165 555 91017;EQDQ01  00002PRCP99
0153683000999992000062715004-26630+015100FM-12+000099999V0203601N003112200019N0750001N1+02051+01151101901ADDGA1001+999999999GF100991001001999999001001MA1999999101721MD1710041+9999REMSYN070AAXX  27154 68300 42989 03606 10205 20115 30172 40190 57004 555 91019;
0206683000999992000062718004-26630+015100FM-12+000099999V0201801N003112200019N0750001N1+01801+01161102011ADDAA199000091GA1001+999999999GF100991001001999999001001KA1120M+03201MA1999999101831MD1310111+9999REMSYN080AAXX  27184 68300 32989 01806 10180 20116 30183 40201 53011 333 10320 555 91020;EQDQ01  00002PRCP99
0157683000999992000062721004-26630+015100FM-12+000099999V0201801N003112200019N0100001N1+01651+01091102071ADDGA1001+999999999GF100991001001999999001001MA1999999101891MD1210071+9999REMSYN074AAXX  27214 68300 42960 01806 10165 20109 30189 40207 52007 333 555 91020;
0172683000999992000062800004-26630+015100FM-12+000099999V0201801N005112200019N0050001N1+01721+00911101851ADDAA199000091GA1001+999999999GF100991001001999999001001MD1710041+9999REMSYN074AAXX  28004 68300 32950 01810 10172 20091 3//// 40185 57004 333 555 91018;EQDQ01  00002PRCP99
0142683000999992000062803004-26630+015100FM-12+000099999V0201601N003112200019N0050001N1+01701+00421101821ADDGA1001+999999999GF100991001001999999001001MD1810031+9999REMSYN074AAXX  28034 68300 42950 01606 10170 20042 3//// 40182 58003 333 555 91018;
0200683000999992000062806004-26630+015100FM-12+000099999V0200901N005112200019N0300001N1+02051-00041101961ADDAA199000091GF101991011061017501001001KA1240M+03201KA2120N+01701MD1810081+9999REMSYN092AAXX  28064 68300 32780 10910 10205 21004 3//// 40196 58008 81600 333 20170 555 10320 91019;EQDQ01  00002PRCP99
0142683000999992000062809004-26630+015100FM-12+000099999V0201301N005112200019N0750001N1+02151+00711102001ADDGA1001+999999999GF100991001001999999001001MD1310091+9999REMSYN074AAXX  28094 68300 42989 01310 10215 20071 30/// 40200 53009 333 555 91020;
0191683000999992000062812004-26630+015100FM-12+000099999V0201801N005112200019N0100001N1+02361+00901101801ADDAA199000091GA1001+999999999GF100991001001999999001001KA1120N+01701MD1810221+9999REMSYN080AAXX  28124 68300 32960 01810 10236 20090 30/// 40180 58022 333 20170 555 91018;EQDQ01  00002PRCP99
0157683000999992000062815004-26630+015100FM-12+000099999V0201801N005112200019N0750001N1+02651+00791101901ADDGA1001+999999999GF100991001001999999001001MA1999999101731MD1710051+9999REMSYN074AAXX  28154 68300 42989 01810 10265 20079 30173 40190 57005 333 555 91019;
0206683000999992000062818004-26630+015100FM-12+000099999V0201401N007712200019N0050001N1+02201+00631102031ADDAA199000091GA1001+999999999GF100991001001999999001001KA1120M+03001MA1999999101851MD1310121+9999REMSYN080AAXX  28184 68300 32950 01415 10220 20063 30185 40203 53012 333 10300 555 91020;EQDQ01  00002PRCP99
0157683000999992000062821004-26630+015100FM-12+000099999V0201801N007712200019N0050001N1+01501+01021102031ADDGA1001+999999999GF100991001001999999001001MA1999999101851MD1410001+9999REMSYN074AAXX  28214 68300 42950 01815 10150 20102 30185 40203 54000 333 555 91020;
0142683000999992000062903004-26630+015100FM-12+000099999V0201601N001512200019N0100001N1+01701+00421101711ADDGA1001+999999999GF100991001001999999001001MD1710141+9999REMSYN074AAXX  29034 68300 42960 01603 10170 20042 3//// 40171 57014 333 555 91017;
0210683000999992000062906004-26630+015100FM-12+000099999V0200501N011312200019N0750001N1+02361-00371101781ADDAA199000091GA1001+999999999GF100991001001999999001001KA1240M+03001KA2120N+01901MD1210071+9999REMSYN086AAXX  29064 68300 32989 00522 10236 21037 3//// 40178 52007 333 20190 555 10300 91017;EQDQ01  00002PRCP99
0142683000999992000062909004-26630+015100FM-12+000099999V0200901N013412200019N0750001N1+02901-00331101901ADDGA1001+999999999GF100991001001999999001001MD1210101+9999REMSYN074AAXX  29094 68300 42989 00926 10290 21033 30/// 40190 52010 333 555 91019;
0191683000999992000062912004-26630+015100FM-12+000099999V0201301N009312200019N0750001N1+02961+00411101751ADDAA199000091GA1001+999999999GF100991001001999999001001KA1120N+01901MD1810181+9999REMSYN080AAXX  29124 68300 32989 01318 10296 20041 30/// 40175 58018 333 20190 555 91017;EQDQ01  00002PRCP99
0157683000999992000062915004-26630+015100FM-12+000099999V0201801N005112200019N0750001N1+02751+00181101741ADDGA1001+999999999GF100991001001999999001001MA1999999101571MD1710101+9999REMSYN074AAXX  29154 68300 42989 01810 10275 20018 30157 40174 57010 333 555 91017;
0206683000999992000062918004-26630+015100FM-12+000099999V0201801N003112200019N0050001N1+02551-00081101861ADDAA199000091GA1001+999999999GF100991001001999999001001KA1120M+03301MA1999999101691MD1310111+9999REMSYN080AAXX  29184 68300 32950 01806 10255 21008 30169 40186 53011 333 10330 555 91018;EQDQ01  00002PRCP99
0157683000999992000062921004-26630+015100FM-12+000099999V0201801N003112200019N0050001N1+02401-00011101941ADDGA1001+999999999GF100991001001999999001001MA1999999101761MD1210081+9999REMSYN074AAXX  29214 68300 42950 01806 10240 21001 30176 40194 52008 333 555 91019;
0142683000999992000063003004-26630+015100FM-12+000099999V0201801N001512200019N0750001N1+02301-00021101631ADDGA1001+999999999GF100991001001999999001001MD1410001+9999REMSYN074AAXX  30034 68300 42989 01803 10230 21002 3//// 40163 54000 333 555 91016;
0210683000999992000063006004-26630+015100FM-12+000099999V0203201N005112200019N0750001N1+01901+00441101801ADDAA199000091GA1001+999999999GF100991001001999999001001KA1240M+03301KA2120N+01401MD1310171+9999REMSYN086AAXX  30064 68300 32989 03210 10190 20044 3//// 40180 53017 333 20140 555 10330 91018;EQDQ01  00002PRCP99
0142683000999992000063009004-26630+015100FM-12+000099999V0203201N005112200019N0750001N1+02351+00581101911ADDGA1001+999999999GF100991001001999999001001MD1210111+9999REMSYN074AAXX  30094 68300 42989 03210 10235 20058 30/// 40191 52011 333 555 91019;
0191683000999992000063012004-26630+015100FM-12+000099999V0203601N007712200019N0750001N1+02751+00361101751ADDAA199000091GA1001+999999999GF100991001001999999001001KA1120N+01901MD1810191+9999REMSYN080AAXX  30124 68300 32989 03615 10275 20036 30/// 40175 58019 333 20190 555 91018;EQDQ01  00002PRCP99
0157683000999992000063015004-26630+015100FM-12+000099999V0201801N005112200019N0750001N1+02451+00281101901ADDGA1001+999999999GF100991001001999999001001MA1999999101721MD1410001+9999REMSYN074AAXX  30154 68300 42989 01810 10245 20028 30172 40190 54000 333 555 91019;
0206683000999992000063018004-26630+015100FM-12+000099999V0201301N005112200019N0100001N1+02231+00141101981ADDAA199000091GA1001+999999999GF100991001001999999001001KA1120M+02761MA1999999101801MD1810041+9999REMSYN080AAXX  30184 68300 32960 01310 10223 20014 30180 40198 58004 333 10276 555 91019;EQDQ01  00002PRCP99
0157683000999992000063021004-26630+015100FM-12+000099999V0201501N004112200019N0300001N1+01921+00581102081ADDGA1001+999999999GF100991001001999999001001MA1999999101901MD1310101+9999REMSYN074AAXX  30214 68300 42980 01508 10192 20058 30190 40208 53010 333 555 91020;
0187683000999992000070100004-26630+015100FM-12+000099999V0201801N003112200019N0100001N1+01721+00591102151ADDAA199000091GA1001+999999999GF100991001001999999001001MA1999999101971MD1210071+9999REMSYN074AAXX  01004 68300 32960 01806 10172 20059 30197 40215 52007 333 555 91021;EQDQ01  00002PRCP99
0157683000999992000070103004-26630+015100FM-12+000099999V0201801N003112200019N0100001N1+01551+00861102161ADDGA1001+999999999GF100991001001999999001001MA1999999101981MD1210011+9999REMSYN074AAXX  01034 68300 42960 01806 10155 20086 30198 40216 52001 333 555 91021;
0225683000999992000070106004-26630+015100FM-12+000099999V0202301N007712200019N0100001N1+01201+01001102211ADDAA199000091GA1001+999999999GF100991001001999999001001KA1240M+02751KA2120N+01201MA1999999102031MD1210051+9999REMSYN086AAXX  01064 68300 32960 02315 10120 20100 30203 40221 52005 333 20120 555 10275 91022;EQDQ01  00002PRCP99
0142683000999992000070109004-26630+015100FM-12+000099999V0201401N010812200019N0750001N1+01451+01171102201ADDGA1001+999999999GF100991001001999999001001MD1210171+9999REMSYN074AAXX  01094 68300 42989 01421 10145 20117 30/// 40220 52017 333 555 91022;
0191683000999992000070112004-26630+015100FM-12+000099999V0201801N008712200019N0750001N1+02001+01191102101ADDAA199000091GA1001+999999999GF100991001001999999001001KA1120N+01201MD1810141+9999REMSYN080AAXX  01124 68300 32989 01817 10200 20119 30/// 40210 58014 333 20120 555 91021;EQDQ01  00002PRCP99
0157683000999992000070115004-26630+015100FM-12+000099999V0201801N005112200019N0300001N1+01951+01341102111ADDGA1001+999999999GF100991001001999999001001MA1999999101931MD1710131+9999REMSYN074AAXX  01154 68300 42980 01810 10195 20134 30193 40211 57013 333 555 91021;
0147683000999992000070121004-26630+015100FM-12+000099999V0201801N004112200019N0100001N1+01401+01121102271ADDGF102991021051999999001001MA1999999102091MD1210021+9999REMSYN080AAXX  01214 68300 42960 21808 10140 20112 30209 40227 52002 82500 333 555 91022;
0210683000999992000070206004-26630+015100FM-12+000099999V0201801N005112200019N0750001N1+01351+01061102101ADDAA199000091GA1001+999999999GF100991001001999999001001KA1240M+02161KA2120N+01251MD1310021+9999REMSYN086AAXX  02064 68300 32989 01810 10135 20106 30/// 40210 53002 333 20125 555 10216 91021;EQDQ01  00002PRCP99
0142683000999992000070209004-26630+015100FM-12+000099999V0201401N013912200019N0750001N1+02651+01171102201ADDGA1001+999999999GF100991001001999999001001MD1210071+9999REMSYN074AAXX  02094 68300 42989 01427 10265 20117 30/// 40220 52007 333 555 91022;
0206683000999992000070212004-26630+015100FM-12+000099999V0201801N007712200019N0750001N1+02701+01241102211ADDAA199000091GA1001+999999999GF100991001001999999001001KA1120N+01421MA1999999102031MD1810141+9999REMSYN080AAXX  02124 68300 32989 01815 10270 20124 30203 40221 58014 333 20142 555 91022;EQDQ01  00002PRCP99
0157683000999992000070215004-26630+015100FM-12+000099999V0203601N007712200019N0750001N1+01751+01311102141ADDGA1001+999999999GF100991001001999999001001MA1999999101961MD1710071+9999REMSYN074AAXX  02154 68300 42989 03615 10175 20131 30196 40214 57007 333 555 91021;
0196683000999992000070218004-26630+015100FM-12+000099999V0203601N005112200019N0750001N1+01421+01121102191ADDAA199000091GF101991011061012501001001KA1120M+02781MA1999999102011MD1310051+9999REMSYN086AAXX  02184 68300 32689 13610 10142 20112 30201 40219 53005 81600 333 10278 555 91021;EQDQ01  00002PRCP99
0147683000999992000070221004-26630+015100FM-12+000099999V0203601N004112200019N0200001N1+01341+01191102211ADDGF101991011061999999001001MA1999999102031MD1210081+9999REMSYN080AAXX  02214 68300 42970 13608 10134 20119 30203 40221 52008 81600 333 555 91022;
0162683000999992000070300004-26630+015100FM-12+000099999V0201301N004112200019N0100001N1+01451+01091102001ADDAA199000091GF101991011061001501001001MD1810041+9999REMSYN080AAXX  03004 68300 32260 11308 10145 20109 30/// 40200 58004 81600 333 555 91020;EQDQ01  00002PRCP99
0142683000999992000070303004-26630+015100FM-12+000099999V0200501N009312200019N0100001N1+02261+00871101901ADDGA1001+999999999GF100991001001999999001001MD1710141+9999REMSYN074AAXX  03034 68300 42960 00518 10226 20087 30/// 40190 57014 333 555 91019;
0153683000999992000070309004-26630+015100FM-12+000099999V0200501N013912200019N0200001N1+02621+00691102191ADDGA1001+999999999GF100991001001999999001001MA1999999102011MD1110111+9999REMSYN070AAXX  03094 68300 42970 00527 10262 20069 30201 40219 51011 555 91021;
0206683000999992000070312004-26630+015100FM-12+000099999V0203601N007712200019N0200001N1+02001+01091102071ADDAA199000091GA1001+999999999GF100991001001999999001001KA1120N+01951MA1999999101891MD1810131+9999REMSYN080AAXX  03124 68300 32970 03615 10200 20109 30189 40207 58013 333 20195 555 91020;EQDQ01  00002PRCP99
0157683000999992000070315004-26630+015100FM-12+000099999V0201801N001512200019N0750001N1+02551+01151101881ADDGA1001+999999999GF100991001001999999001001MA1999999101711MD1710181+9999REMSYN074AAXX  03154 68300 42989 01803 10255 20115 30171 40188 57018 333 555 91018;
0191683000999992000070318004-26630+015100FM-12+000099999V0201801N001512200019N0750001N1+02301+00501101801ADDAA199000091GA1001+999999999GF100991001001999999001001KA1120M+02901MD1210031+9999REMSYN080AAXX  03184 68300 32989 01803 10230 20050 30/// 40180 52003 333 10290 555 91018;EQDQ01  00002PRCP99
0172683000999992000070400004-26630+015100FM-12+000099999V0201801N004112200019N0100001N1+01821+00601101701ADDAA199000091GA1001+999999999GF100991001001999999001001MD1810041+9999REMSYN074AAXX  04004 68300 32960 01808 10182 20060 3//// 40170 58004 333 555 91017;EQDQ01  00002PRCP99
0142683000999992000070403004-26630+015100FM-12+000099999V0201801N004112200019N0100001N1+01801+00211101611ADDGA1001+999999999GF100991001001999999001001MD1710091+9999REMSYN074AAXX  04034 68300 42960 01808 10180 20021 3//// 40161 57009 333 555 91016;
0210683000999992000070406004-26630+015100FM-12+000099999V0203201N005112200019N0750001N1+01801+00701101691ADDAA199000091GA1001+999999999GF100991001001999999001001KA1240M+02901KA2120N+01751MD1310091+9999REMSYN086AAXX  04064 68300 32989 03210 10180 20070 3//// 40169 53009 333 20175 555 10290 91016;EQDQ01  00002PRCP99
0157683000999992000070409004-26630+015100FM-12+000099999V0200501N010812200019N0750001N1+02701+00741101901ADDGA1001+999999999GF100991001001999999001001MA1999999101731MD1210021+9999REMSYN074AAXX  04094 68300 42989 00521 10270 20074 30173 40190 52002 333 555 91019;
0206683000999992000070412004-26630+015100FM-12+000099999V0202701N005112200019N0200001N1+02551+00901101741ADDAA199000091GA1001+999999999GF100991001001999999001001KA1120N+01801MA1999999101571MD1810151+9999REMSYN080AAXX  04124 68300 32970 02710 10255 20090 30157 40174 58015 333 20180 555 91017;EQDQ01  00002PRCP99
0142683000999992000070415004-26630+015100FM-12+000099999V0200901N003112200019N0200001N1+02301+00911101601ADDGA1001+999999999GF100991001001999999001001MD1710051+9999REMSYN074AAXX  04154 68300 42970 00906 10230 20091 30/// 40160 57005 333 555 91016;
0191683000999992000070418004-26630+015100FM-12+000099999V0201801N005112200019N0200001N1+02251+00701101701ADDAA199000091GA1001+999999999GF100991001001999999001001KA1120M+02901MD1210121+9999REMSYN080AAXX  04184 68300 32970 01810 10225 20070 30/// 40170 52012 333 10290 555 91017;EQDQ01  00002PRCP99
0172683000999992000070500004-26630+015100FM-12+000099999V0201301N004112200019N0100001N1+02311+00481101631ADDAA199000091GA1001+999999999GF100991001001999999001001MD1710051+9999REMSYN074AAXX  05004 68300 32960 01308 10231 20048 3//// 40163 57005 333 555 91016;EQDQ01  00002PRCP99
0142683000999992000070503004-26630+015100FM-12+000099999V0200501N010312200019N0100001N1+02281+00371101581ADDGA1001+999999999GF100991001001999999001001MD1310051+9999REMSYN074AAXX  05034 68300 42960 00520 10228 20037 3//// 40158 53005 333 555 91015;
0210683000999992000070506004-26630+015100FM-12+000099999V0200501N013912200019N0750001N1+02301+00341101631ADDAA199000091GA1001+999999999GF100991001001999999001001KA1240M+02901KA2120N+01251MD1310081+9999REMSYN086AAXX  05064 68300 32989 00527 10230 20034 3//// 40163 53008 333 20125 555 10290 91016;EQDQ01  00002PRCP99
0157683000999992000070509004-26630+015100FM-12+000099999V0200501N020612200019N0750001N1+02601+00561101901ADDGA1001+999999999GF100991001001999999001001MA1999999101731MD1210061+9999REMSYN074AAXX  05094 68300 42989 00540 10260 20056 30173 40190 52006 333 555 91019;
0142683000999992000070515004-26630+015100FM-12+000099999V0203601N003112200019N0200001N1+02401+00801101501ADDGA1001+999999999GF100991001001999999001001MD1710091+9999REMSYN074AAXX  05154 68300 42970 03606 10240 20080 30/// 40150 57009 333 555 91015;
0191683000999992000070518004-26630+015100FM-12+000099999V0203601N003112200019N0200001N1+01701+00931101601ADDAA199000091GA1001+999999999GF100991001001999999001001KA1120M+03101MD1210091+9999REMSYN080AAXX  05184 68300 32970 03606 10170 20093 30/// 40160 52009 333 10310 555 91016;EQDQ01  00002PRCP99
0142683000999992000070521004-26630+015100FM-12+000099999V0200501N001512200019N0200001N1+01601+01141101701ADDGA1001+999999999GF100991001001999999001001MD1310061+9999REMSYN074AAXX  05214 68300 42970 00503 10160 20114 30/// 40170 53006 333 555 91017;
0172683000999992000070600004-26630+015100FM-12+000099999V0200501N003112200019N0100001N1+01341+01071101641ADDAA199000091GA1001+999999999GF100991001001999999001001MD1310031+9999REMSYN074AAXX  06004 68300 32960 00506 10134 20107 3//// 40164 53003 333 555 91016;EQDQ01  00002PRCP99
0142683000999992000070603004-26630+015100FM-12+000099999V0200501N004112200019N0100001N1+01731+00611101551ADDGA1001+999999999GF100991001001999999001001MD1210091+9999REMSYN074AAXX  06034 68300 42960 00508 10173 20061 3//// 40155 52009 333 555 91015;
0200683000999992000070606004-26630+015100FM-12+000099999V0200501N010810006019N0200001N1+02401+00191101551ADDAA199000091GF105991051061000751001001KA1240M+03051KA2120N+01451MD1410001+9999REMSYN092AAXX  06064 68300 32170 50521 10240 20019 3//// 40155 54000 85600 333 20145 555 10305 91015;EQDQ01  00002PRCP99
0132683000999992000070609004-26630+015100FM-12+000099999V0203201N007712200019N0200001N1+02251+00411101801ADDGF102991021011999999001001MD1310231+9999REMSYN080AAXX  06094 68300 42970 23215 10225 20041 30/// 40180 53023 82100 333 555 91018;
0206683000999992000070612004-26630+015100FM-12+000099999V0203601N005112200019N0200001N1+01801+01161101931ADDAA199000091GA1001+999999999GF100991001001999999001001KA1120N+01801MA1999999101751MD1810031+9999REMSYN080AAXX  06124 68300 32970 03610 10180 20116 30175 40193 58003 333 20180 555 91019;EQDQ01  00002PRCP99
0147683000999992000070615004-26630+015100FM-12+000099999V0203601N003119999999N0100001N1+01451+01361101981ADDGF107991001001999999001021MA1999999101801MD1210051+9999REMSYN080AAXX  06154 68300 42960 73606 10145 20136 30180 40198 52005 80002 333 555 91019;
0206683000999992000070618004-26630+015100FM-12+000099999V0203201N001512200019N0200001N1+01601+01421102051ADDAA199000091GA1001+999999999GF100991001001999999001001KA1120M+02701MA1999999101871MD1210071+9999REMSYN080AAXX  06184 68300 32970 03203 10160 20142 30187 40205 52007 333 10270 555 91020;EQDQ01  00002PRCP99
0187683000999992000070621004-26630+015100FM-12+000099999V0202701N001512200019N0100001N1+01601+01331102061ADDAA199000091GA1001+999999999GF100991001001999999001001MA1999999101881MD1310011+9999REMSYN074AAXX  06214 68300 32960 02703 10160 20133 30188 40206 53001 333 555 91020;EQDQ01  00002PRCP99
0172683000999992000070700004-26630+015100FM-12+000099999V0202301N003112200019N0100001N1+01601+01141101751ADDAA199000091GA1001+999999999GF100991001001999999001001MD1810131+9999REMSYN074AAXX  07004 68300 32960 02306 10160 20114 3//// 40175 58013 333 555 91017;EQDQ01  00002PRCP99
0142683000999992000070703004-26630+015100FM-12+000099999V0200501N003112200019N0100001N1+01901+00721101631ADDGA1001+999999999GF100991001001999999001001MD1710121+9999REMSYN074AAXX  07034 68300 42960 00506 10190 20072 3//// 40163 57012 333 555 91018;
0254683000999992000070706004-26630+015100FM-12+000099999V0202701N001512200019N0100001N1+01351+01161101751ADDAA199000091AY141061AY241061GA1001+999999999GF100991001001999999001001KA1240M+02701KA2120N+01351MD1210121+9999MW1421REMSYN092AAXX  07064 68300 31960 02703 10135 20116 3//// 40175 52012 74344 333 20135 555 10270 91017;EQDQ01+000432PRSWM1Q02  00002PRCP99
0206683000999992000070712004-26630+015100FM-12+000099999V0201801N001512200019N0200001N1+01501+01321102061ADDAA199000091GA1001+999999999GF100991001001999999001001KA1120N+01201MA1999999101881MD1210101+9999REMSYN080AAXX  07124 68300 32970 01803 10150 20132 30188 40206 52010 333 20120 555 91020;EQDQ01  00002PRCP99
0157683000999992000070715004-26630+015100FM-12+000099999V0203301N001512200019N0200001N1+01551+01281101981ADDGA1001+999999999GF100991001001999999001001MA1999999101801MD1710081+9999REMSYN074AAXX  07154 68300 42970 03303 10155 20128 30180 40198 57008 333 555 91019;
0206683000999992000070718004-26630+015100FM-12+000099999V0201801N003112200019N0050001N1+01501+01231102061ADDAA199000091GA1001+999999999GF100991001001999999001001KA1120M+01601MA1999999101881MD1310071+9999REMSYN080AAXX  07184 68300 32950 01806 10150 20123 30188 40206 53007 333 10160 555 91020;EQDQ01  00002PRCP99
0187683000999992000070721004-26630+015100FM-12+000099999V0201801N003112200019N0050001N1+01401+01221102081ADDAA199000091GA1001+999999999GF100991001001999999001001MA1999999101901MD1210011+9999REMSYN074AAXX  07214 68300 32950 01806 10140 20122 30190 40208 52001 333 555 91020;EQDQ01  00002PRCP99
0215683000999992000070800004-26630+015100FM-12+000099999V0201801N001512200019N0040001N1+01301+01211102041ADDAA199000091AY101061AY201061GA1001+999999999GF100991001001999999001001MA1999999101861MD1810041+9999MW1401REMSYN080AAXX  08004 68300 31940 01803 10130 20121 30186 40204 58004 74000 333 555 91020;EQDQ01  00002PRCP99
0170683000999992000070803004-26630+015100FM-12+000099999V0201801N001512200019N0100001N1+01251+01161101811ADDAY141031AY241031GA1001+999999999GF100991001001999999001001MD1710051+9999MW1401REMSYN080AAXX  08034 68300 41960 01803 10125 20116 3//// 40181 57005 74044 333 555 91018;
0254683000999992000070806004-26630+015100FM-12+000099999V0201601N001512200019N0030001N1+01101+01101101851ADDAA199000091AY141061AY241061GA1001+999999999GF100991001001999999001001KA1240M+01851KA2120N+01121MD1210041+9999MW1461REMSYN092AAXX  08064 68300 31930 01603 10110 20110 3//// 40185 52004 74744 333 20112 555 10185 91018;EQDQ01+000472PRSWM1Q02  00002PRCP99
0157683000999992000070809004-26630+015100FM-12+000099999V0201801N001512200019N0200001N1+01551+01371102111ADDGA1001+999999999GF100991001001999999001001MA1999999101931MD1310081+9999REMSYN074AAXX  08094 68300 42970 01803 10155 20137 30193 40211 53008 333 555 91021;
0206683000999992000070812004-26630+015100FM-12+000099999V0201801N001512200019N0200001N1+01931+01041101991ADDAA199000091GA1001+999999999GF100991001001999999001001KA1120N+01131MA1999999101811MD1710121+9999REMSYN080AAXX  08124 68300 32970 01803 10193 20104 30181 40199 57012 333 20113 555 91019;EQDQ01  00002PRCP99
0191683000999992000070818004-26630+015100FM-12+000099999V0201801N003112200019N0050001N1+01351+01161101951ADDAA199000091GA1001+999999999GF100991001001999999001001KA1120M+02001MD1310191+9999REMSYN080AAXX  08184 68300 32950 01806 10135 20116 3//// 40195 53019 333 10200 555 91021;EQDQ01  00002PRCP99
0142683000999992000070821004-26630+015100FM-12+000099999V0201801N003112200019N0050001N1+01251+01161101921ADDGA1001+999999999GF100991001001999999001001MD1810021+9999REMSYN074AAXX  08214 68300 42950 01806 10125 20116 3//// 40192 58002 333 555 91019;
0187683000999992000070900004-26630+015100FM-12+000099999V0201801N001512200019N0050001N1+01201+01101102301ADDAA199000091GA1001+999999999GF100991001001999999001001MA1999999102121MD1310201+9999REMSYN074AAXX  09004 68300 32950 01803 10120 20110 30212 40230 53020 333 555 91023;EQDQ01  00002PRCP99
0215683000999992000070906004-26630+015100FM-12+000099999V0201801N001512200019N0100001N1+01151+01151102321ADDAA199000091GF102991001001999999001041KA1240M+01801KA2120N+01101MA1999999102141MD1210141+9999REMSYN092AAXX  09064 68300 32960 21803 10115 20115 30214 40232 52014 80004 333 20110 555 10180 91023;EQDQ01  00002PRCP99
0157683000999992000070909004-26630+015100FM-12+000099999V0201601N001512200019N0100001N1+01901+00961102351ADDGA1001+999999999GF100991001001999999001001MA1999999102171MD1310031+9999REMSYN074AAXX  09094 68300 42960 01603 10190 20096 30217 40235 53003 333 555 91023;
0191683000999992000070912004-26630+015100FM-12+000099999V0201801N005112200019N0300001N1+02131+01081102041ADDAA199000091GA1001+999999999GF100991001001999999001001KA1120N+01251MD1710131+9999REMSYN080AAXX  09124 68300 32980 01810 10213 20108 3//// 40204 57013 333 20125 555 91022;EQDQ01  00002PRCP99
0138683000999992000070915004-26630+015100FM-12+000099999V0201801N008212200019N0200001N1+01901+01181101901ADDGA1001+999999999GF100991001001999999001001MD1810071+9999REMSYN070AAXX  09154 68300 42970 01816 10190 20118 3//// 40190 58007 555 91019;
0191683000999992000070918004-26630+015100FM-12+000099999V0201801N003112200019N0050001N1+01551+01181102031ADDAA199000091GA1001+999999999GF100991001001999999001001KA1120M+02301MD1310081+9999REMSYN080AAXX  09184 68300 32950 01806 10155 20118 3//// 40203 53008 333 10230 555 91020;EQDQ01  00002PRCP99
0142683000999992000070921004-26630+015100FM-12+000099999V0201801N001512200019N0050001N1+01401+01121102081ADDGA1001+999999999GF100991001001999999001001MD1210051+9999REMSYN074AAXX  09214 68300 42950 01803 10140 20112 3//// 40208 52005 333 555 91020;
0187683000999992000071000004-26630+015100FM-12+000099999V0201801N001512200019N0050001N1+01251+01061102211ADDAA199000091GA1001+999999999GF100991001001999999001001MA1999999102031MD1810061+9999REMSYN074AAXX  10004 68300 32950 01803 10125 20106 30203 40221 58006 333 555 91022;EQDQ01  00002PRCP99
0157683000999992000071003004-26630+015100FM-12+000099999V0201801N004112200019N0050001N1+01251+00951102151ADDGA1001+999999999GF100991001001999999001001MA1999999101971MD1710051+9999REMSYN074AAXX  10034 68300 42950 01808 10125 20095 30197 40215 57005 333 555 91021;
0225683000999992000071006004-26630+015100FM-12+000099999V0201801N003112200019N0200001N1+01101+00901102291ADDAA199000091GA1001+999999999GF100991001001999999001001KA1240M+02301KA2120N+01101MA1999999102111MD1210141+9999REMSYN086AAXX  10064 68300 32970 01806 10110 20090 30211 40229 52014 333 20110 555 10230 91022;EQDQ01  00002PRCP99
0142683000999992000071009004-26630+015100FM-12+000099999V0201901N001512200019N0200001N1+01701+01151102151ADDGA1001+999999999GF100991001001999999001001MD1210021+9999REMSYN074AAXX  10094 68300 42970 01903 10170 20115 30/// 40215 52002 333 555 91022;
0191683000999992000071012004-26630+015100FM-12+000099999V0201801N005112200019N0200001N1+02101+01101101901ADDAA199000091GA1001+999999999GF100991001001999999001001KA1120N+01101MD1710261+9999REMSYN080AAXX  10124 68300 32970 01810 10210 20110 30/// 40190 57026 333 20110 555 91019;EQDQ01  00002PRCP99
0157683000999992000071015004-26630+015100FM-12+000099999V0202301N010312200019N0200001N1+01701+01151101931ADDGA1001+999999999GF100991001001999999001001MA1999999101751MD1710121+9999REMSYN074AAXX  10154 68300 42970 02320 10170 20115 30175 40193 57012 333 555 91019;
0191683000999992000071018004-26630+015100FM-12+000099999V0202301N008212200019N0100001N1+01421+01101101891ADDAA199000091GA1001+999999999GF100991001001999999001001KA1120M+02141MD1310141+9999REMSYN080AAXX  10184 68300 32960 02316 10142 20110 3//// 40189 53014 333 10214 555 91018;EQDQ01  00002PRCP99
0157683000999992000071021004-26630+015100FM-12+000099999V0202301N005112200019N0200001N1+01371+00941102091ADDGA1001+999999999GF100991001001999999001001MA1999999101911MD1210021+9999REMSYN074AAXX  10214 68300 42970 02310 10137 20094 30191 40209 52002 333 555 91020;
0172683000999992000071100004-26630+015100FM-12+000099999V0201801N003112200019N0050001N1+01401+00911101831ADDAA199000091GA1001+999999999GF100991001001999999001001MD1810071+9999REMSYN074AAXX  11004 68300 32950 01806 10140 20091 3//// 40183 58007 333 555 91018;EQDQ01  00002PRCP99
0142683000999992000071103004-26630+015100FM-12+000099999V0201801N001512200019N0050001N1+01351+00851101741ADDGA1001+999999999GF100991001001999999001001MD1710091+9999REMSYN074AAXX  11034 68300 42950 01803 10135 20085 3//// 40174 57009 333 555 91017;
0200683000999992000071106004-26630+015100FM-12+000099999V0201801N004112200019N0650001N1+01151+00711101781ADDAA199000091GF101991011061000751001001KA1240M+02151KA2120N+01021MD1310041+9999REMSYN092AAXX  11064 68300 32187 11808 10115 20071 3//// 40178 53004 81600 333 20102 555 10215 91017;EQDQ01  00002PRCP99
0157683000999992000071109004-26630+015100FM-12+000099999V0201801N006212200019N0100001N1+02151+00521101991ADDGA1001+999999999GF100991001001999999001001MA1999999101811MD1210031+9999REMSYN074AAXX  11094 68300 42960 01812 10215 20052 30181 40199 52003 333 555 91019;
0206683000999992000071112004-26630+015100FM-12+000099999V0201801N008212200019N0100001N1+02371+00701101711ADDAA199000091GA1001+999999999GF100991001001999999001001KA1120N+01021MA1999999101531MD1810281+9999REMSYN080AAXX  11124 68300 32960 01816 10237 20070 30153 40171 58028 333 20102 555 91017;EQDQ01  00002PRCP99
0206683000999992000071118004-26630+015100FM-12+000099999V0200301N003112200019N0200001N1+01501+01131101781ADDAA199000091GA1001+999999999GF100991001001999999001001KA1120M+02601MA1999999101601MD1210121+9999REMSYN080AAXX  11184 68300 32970 00306 10150 20113 30160 40178 52012 333 10260 555 91017;EQDQ01  00002PRCP99
0195683000999992000071121004-26630+015100FM-12+000099999V0203301N003112200019N0100001N1+01301+01111101881ADDGA1001+999999999GF100991001001999999001001KA1120N+99999MA1999999101701MD1310101+9999REMSYN080AAXX  11214 68300 42160 03306 10130 20111 30170 40188 53010 333 20300 555 91018;EQDQ01 +03002ATMN  
0216683000999992000071200004-26630+015100FM-12+000099999V0209999C000012200019N0040001N1+01251+01061101701ADDAA199000091AY141061AY221061GA1001+999999999GF100991001001999999001001MD1610011+9999MW1441REMSYN080AAXX  12004 68300 31/40 00000 10125 20106 30/// 40170 56001 74542 333 555 91017;EQDQ01+000452PRSWM1Q02  00002PRCP99
0170683000999992000071203004-26630+015100FM-12+000099999V0209999C000012200019N0040001N1+01121+00881101601ADDAY141031AY221031GA1001+999999999GF100991001001999999001001MD1710091+9999MW1401REMSYN080AAXX  12034 68300 41/40 00000 10112 20088 30/// 40160 57009 74042 333 555 91016;
0228683000999992000071206004-26630+015100FM-12+000099999V0203601N003110006019N0050001N1+01201+00901101201ADDAA199000091AY141061AY241061GF108991081061000751999999KA1240M+02651KA2120N+01191MD1310021+9999MW1401REMSYN098AAXX  12064 68300 31150 83606 10120 20090 30/// 40120 53002 74044 886// 333 20119 555 10265 91012;EQDQ01  00002PRCP99
0160683000999992000071209004-26630+015100FM-12+000099999V0202301N006212200019N0050001N1+01461+01061101751ADDAY141031AY241031GF101991011061000751001001MD1210131+9999MW1401REMSYN086AAXX  12094 68300 41150 12312 10146 20106 3//// 40175 52013 74044 81600 333 555 91017;
0191683000999992000071212004-26630+015100FM-12+000099999V0201401N008212200019N0300001N1+01901+01071101651ADDAA199000091GA1001+999999999GF100991001001999999001001KA1120N+01101MD1810101+9999REMSYN080AAXX  12124 68300 32980 01416 10190 20107 3//// 40165 58010 333 20110 555 91016;EQDQ01  00002PRCP99
0157683000999992000071215004-26630+015100FM-12+000099999V0201801N005112200019N0200001N1+01721+01251101781ADDGA1001+999999999GF100991001001999999001001MA1999999101601MD1710051+9999REMSYN074AAXX  12154 68300 42970 01810 10172 20125 30160 40178 57005 333 555 91017;
0206683000999992000071218004-26630+015100FM-12+000099999V0201401N005112200019N0200001N1+01401+01221101941ADDAA199000091GA1001+999999999GF100991001001999999001001KA1120M+02101MA1999999101761MD1210041+9999REMSYN080AAXX  12184 68300 32970 01410 10140 20122 30176 40194 52004 333 10210 555 91019;EQDQ01  00002PRCP99
0157683000999992000071221004-26630+015100FM-12+000099999V0201401N001512200019N0100001N1+01301+01111101971ADDGA1001+999999999GF100991001001999999001001MA1999999101791MD1310031+9999REMSYN074AAXX  12214 68300 42960 01403 10130 20111 30179 40197 53003 333 555 91019;
0172683000999992000071300004-26630+015100FM-12+000099999V0203601N005112200019N0050001N1+01151+00971101761ADDAA199000091GA1001+999999999GF100991001001999999001001MD1710031+9999REMSYN074AAXX  13004 68300 32950 03610 10115 20097 3//// 40176 57003 333 555 91017;EQDQ01  00002PRCP99
0160683000999992000071303004-26630+015100FM-12+000099999V0203601N001510006019N0040001N1+01101+00941101631ADDAY141031AY241031GF106991061061000751001001MD1810131+9999MW1401REMSYN086AAXX  13034 68300 41140 63603 10110 20094 3//// 40163 58013 74044 86600 333 555 91016;
0215683000999992000071306004-26630+015100FM-12+000099999V0203601N003110042019N0100001N1+01001+00901101741ADDAA199000091GF108991081061004501999999KA1240M+02151KA2120N+01001MA1999999101561MD1710071+9999REMSYN092AAXX  13064 68300 32460 83606 10100 20090 30156 40174 57007 886// 333 20100 555 10215 91017;EQDQ01  00002PRCP99
0157683000999992000071309004-26630+015100FM-12+000099999V0202301N004112200019N0200001N1+01801+01491101641ADDGA1001+999999999GF100991001001999999001001MA1999999101461MD1710111+9999REMSYN074AAXX  13094 68300 42970 02308 10180 20149 30146 40164 57011 333 555 91016;
0206683000999992000071312004-26630+015100FM-12+000099999V0202301N007712200019N0750001N1+01901+00961101421ADDAA199000091GA1001+999999999GF100991001001999999001001KA1120N+01051MA1999999101241MD1710231+9999REMSYN080AAXX  13124 68300 32989 02315 10190 20096 30124 40142 57023 333 20105 555 91014;EQDQ01  00002PRCP99
0157683000999992000071315004-26630+015100FM-12+000099999V0203301N003112200019N0750001N1+01551+01181101461ADDGA1001+999999999GF100991001001999999001001MA1999999101281MD1210041+9999REMSYN074AAXX  13154 68300 42989 03306 10155 20118 30128 40146 52004 333 555 91014;
0206683000999992000071318004-26630+015100FM-12+000099999V0203601N001512200019N0200001N1+01451+01171101631ADDAA199000091GA1001+999999999GF100991001001999999001001KA1120M+02151MA1999999101451MD1310171+9999REMSYN080AAXX  13184 68300 32970 03603 10145 20117 30145 40163 53017 333 10215 555 91016;EQDQ01  00002PRCP99
0157683000999992000071321004-26630+015100FM-12+000099999V0203601N001512200019N0650001N1+01451+01071101761ADDGA1001+999999999GF100991001001999999001001MA1999999101581MD1210031+9999REMSYN074AAXX  13214 68300 42987 03603 10145 20107 30158 40176 52003 333 555 91017;
0187683000999992000071400004-26630+015100FM-12+000099999V0203601N005112200019N0100001N1+01301+00791101551ADDAA199000091GA1001+999999999GF100991001001999999001001MA1999999101371MD1810111+9999REMSYN074AAXX  14004 68300 32960 03610 10130 20079 30137 40155 58011 333 555 91015;EQDQ01  00002PRCP99
0147683000999992000071403004-26630+015100FM-12+000099999V0203601N007710006019N0050001N1+01301+00901101481ADDGF106991061061000751001001MA1999999101301MD1710071+9999REMSYN080AAXX  14034 68300 42150 63615 10130 20090 30130 40148 57007 86600 333 555 91014;
0215683000999992000071406004-26630+015100FM-12+000099999V0201801N013419999999N0050001N1+01401+01021101531ADDAA199000091GF106991061061999999001001KA1240M+02201KA2120N+01351MA1999999101351MD1210051+9999REMSYN092AAXX  14064 68300 32950 61826 10140 20102 30135 40153 52005 86600 333 20135 555 10220 91015;EQDQ01  00002PRCP99
0132683000999992000071409004-26630+015100FM-12+000099999V0203301N015410021019N0200001N1+01601+00921101501ADDGF108991081061002501999999MD1310111+9999REMSYN080AAXX  14094 68300 42370 83330 10160 20092 30/// 40150 53011 886// 333 555 91015;
0181683000999992000071412004-26630+015100FM-12+000099999V0203301N013410120019N0300001N1+01351+01221101601ADDAA199000091GF108991081061012501999999KA1120N+01101MD1210131+9999REMSYN086AAXX  14124 68300 32680 83326 10135 20122 30/// 40160 52013 886// 333 20110 555 91016;EQDQ01  00002PRCP99
0147683000999992000071415004-26630+015100FM-12+000099999V0203301N009310042019N0300001N1+01451+01171101731ADDGF105991051071004501001001MA1999999101551MD1210021+9999REMSYN080AAXX  14154 68300 42480 53318 10145 20117 30155 40173 52002 85700 333 555 91017;
0196683000999992000071418004-26630+015100FM-12+000099999V0203601N010310042019N0300001N1+01361+01131101881ADDAA199000091GF105991051051004501001001KA1120M+01651MA1999999101701MD1310151+9999REMSYN086AAXX  14184 68300 32480 53620 10136 20113 30170 40188 53015 85500 333 10165 555 91018;EQDQ01  00002PRCP99
0177683000999992000071421004-26630+015100FM-12+000099999V0203601N008210006019N0200001N1+01301+01151102021ADDAA199000091GF107991071051000751001001MA1999999101841MD1210141+9999REMSYN080AAXX  14214 68300 32170 73616 10130 20115 30184 40202 52014 87500 333 555 91020;EQDQ01  00002PRCP99
0200683000999992000071500004-26630+015100FM-12+000099999V0203601N008212200019N0050001N1+01301+01211101901ADDAA199000091AY141061AY221061GA1001+999999999GF100991001001999999001001MD1310021+9999MW1401REMSYN080AAXX  15004 68300 31/50 03616 10130 20121 30/// 40190 53002 74042 333 555 91019;EQDQ01  00002PRCP99
0170683000999992000071503004-26630+015100FM-12+000099999V0203601N005112200019N0050001N1+01251+01161101901ADDAY141031AY221031GA1001+999999999GF100991001001999999001001MD1410001+9999MW1401REMSYN080AAXX  15034 68300 41/50 03610 10125 20116 30/// 40190 54000 74042 333 555 91019;
0200683000999992000071506004-26630+015100FM-12+000099999V0203301N001510042019N0300001N1+01201+01141102101ADDAA199000091GF108991081061004501999999KA1240M+01651KA2120N+01251MD1210221+9999REMSYN092AAXX  15064 68300 32480 83303 10120 20114 30/// 40210 52022 886// 333 20125 555 10165 91021;EQDQ01  00002PRCP99
0157683000999992000071509004-26630+015100FM-12+000099999V0201401N001512200019N0750001N1+01551+00971102531ADDGA1001+999999999GF100991001001999999001001MA1999999102351MD1310251+9999REMSYN074AAXX  15094 68300 42989 01403 10155 20097 30235 40253 53025 333 555 91025;
0206683000999992000071512004-26630+015100FM-12+000099999V0201401N003112200019N0750001N1+01251+00951102431ADDAA199000091GA1001+999999999GF100991001001999999001001KA1120N+01251MA1999999102251MD1710101+9999REMSYN080AAXX  15124 68300 32989 01406 10125 20095 30225 40243 57010 333 20125 555 91024;EQDQ01  00002PRCP99
0142683000999992000071515004-26630+015100FM-12+000099999V0201801N005112200019N0100001N1+01651+00491102111ADDGA1001+999999999GF100991001001999999001001MD1710141+9999REMSYN074AAXX  15154 68300 42960 01810 10165 20049 3//// 40211 57014 333 555 91021;
0191683000999992000071518004-26630+015100FM-12+000099999V0201801N007212200019N0750001N1+01381+00631102271ADDAA199000091GA1001+999999999GF100991001001999999001001KA1120M+01801MD1310161+9999REMSYN080AAXX  15184 68300 32989 01814 10138 20063 3//// 40227 53016 333 10180 555 91022;EQDQ01  00002PRCP99
0172683000999992000071600004-26630+015100FM-12+000099999V0201801N003112200019N0050001N1+01151+00491102151ADDAA199000091GA1001+999999999GF100991001001999999001001MD1810131+9999REMSYN074AAXX  16004 68300 32950 01806 10115 20049 30/// 40215 58013 333 555 91022;EQDQ01  00002PRCP99
0172683000999992000071603004-26630+015100FM-12+000099999V0201801N005112200019N0300001N1+01051+00371102001ADDAA199000091GA1001+999999999GF100991001001999999001001MD1710211+9999REMSYN074AAXX  16034 68300 32980 01810 10105 20037 30/// 40200 57021 333 555 91020;EQDQ01  00002PRCP99
0225683000999992000071606004-26630+015100FM-12+000099999V0201401N001512200019N0300001N1+00951-00071102111ADDAA199000091GA1001+999999999GF100991001001999999001001KA1240M+01851KA2120N+00951MA1999999101931MD1810051+9999REMSYN086AAXX  16064 68300 32980 01403 10095 21007 30193 40211 58005 333 20095 555 10185 91021;EQDQ01  00002PRCP99
0172683000999992000071609004-26630+015100FM-12+000099999V0200901N001512200019N0300001N1+01801-00071102001ADDAA199000091GA1001+999999999GF100991001001999999001001MD1410001+9999REMSYN074AAXX  16094 68300 32980 00903 10180 21007 30/// 40200 54000 333 555 91020;EQDQ01  00002PRCP99
0191683000999992000071612004-26630+015100FM-12+000099999V0201801N001512200019N0750001N1+02201+00481101741ADDAA199000091GA1001+999999999GF100991001001999999001001KA1120N+01101MD1710191+9999REMSYN080AAXX  16124 68300 32989 01803 10220 20048 3//// 40174 57019 333 20110 555 91017;EQDQ01  00002PRCP99
0142683000999992000071615004-26630+015100FM-12+000099999V0201801N008212200019N0750001N1+01941+00471101681ADDGA1001+999999999GF100991001001999999001001MD1710061+9999REMSYN074AAXX  16154 68300 42989 01816 10194 20047 3//// 40168 57006 333 555 91016;
0209683000999992000071618004-26630+015100FM-12+000099999V0201801N008212200019N0050001N1+01401+00911101831ADDAA199000091AY141061AY241061GF101991011061004501001001KA1120M+02281MD1310151+9999MW1401REMSYN092AAXX  16184 68300 31450 11816 10140 20091 3//// 40183 53015 74044 81600 333 10228 555 91018;EQDQ01  00002PRCP99
0160683000999992000071621004-26630+015100FM-12+000099999V0201801N006212200019N0050001N1+01261+00941101971ADDAY141031AY241031GF101991011061000751001001MD1210141+9999MW1401REMSYN086AAXX  16214 68300 41150 11812 10126 20094 3//// 40197 52014 74044 81600 333 555 91019;
0187683000999992000071700004-26630+015100FM-12+000099999V0201801N003112200019N0050001N1+01151+00951102131ADDAA199000091GA1001+999999999GF100991001001999999001001MA1999999101951MD1810031+9999REMSYN074AAXX  17004 68300 32950 01806 10115 20095 30195 40213 58003 333 555 91021;EQDQ01  00002PRCP99
0157683000999992000071703004-26630+015100FM-12+000099999V0201601N003112200019N0050001N1+01051+00851102041ADDGA1001+999999999GF100991001001999999001001MA1999999101861MD1710091+9999REMSYN074AAXX  17034 68300 42950 01606 10105 20085 30186 40204 57009 333 555 91020;
0225683000999992000071706004-26630+015100FM-12+000099999V0201801N001512200019N0750001N1+01001+00791102231ADDAA199000091GA1001+999999999GF100991001001999999001001KA1240M+02281KA2120N+00981MA1999999102051MD1210191+9999REMSYN086AAXX  17064 68300 32989 01803 10100 20079 30205 40223 52019 333 20098 555 10228 91022;EQDQ01  00002PRCP99
0200683000999992000071806004-26630+015100FM-12+000099999V0201401N001512200019N0200001N1+00951+00581101791ADDAA199000091GF103991001001999999001021KA1240M+02051KA2120N+00951MD1810011+9999REMSYN092AAXX  18064 68300 32970 31403 10095 20058 3//// 40179 58001 80002 333 20095 555 10205 91017;EQDQ01  00002PRCP99
0132683000999992000071809004-26630+015100FM-12+000099999V0201801N004119999999N0750001N1+01351+00851102001ADDGF105991001001999999001051MD1310171+9999REMSYN080AAXX  18094 68300 42989 51808 10135 20085 30/// 40200 53017 80005 333 555 91020;
0181683000999992000071812004-26630+015100FM-12+000099999V0201801N008219999999N0750001N1+01601+01031101951ADDAA199000091GF107991001001999999001061KA1120N+00951MD1710041+9999REMSYN086AAXX  18124 68300 32989 71816 10160 20103 30/// 40195 57004 80006 333 20095 555 91020;EQDQ01  00002PRCP99
0142683000999992000071921004-26630+015100FM-12+000099999V0202301N009312200019N0100001N1+01201+00281102081ADDGA1001+999999999GF100991001001999999001001MD1310071+9999REMSYN074AAXX  19214 68300 42960 02318 10120 20028 3//// 40208 53007 333 555 91020;
0142683000999992000072009004-26630+015100FM-12+000099999V0201801N005112200019N0200001N1+01531+00231102121ADDGA1001+999999999GF100991001001999999001001MD1219999+9999REMSYN074AAXX  20094 68300 42970 01810 10153 20023 3//// 40212 52/// 333 555 91021;
0222683000999992000072012004-26630+015100FM-12+000099999V0202301N008212200019N0750001N1+01981+01502102071ADDAA199000091GA1001+999999999GF100991001001999999001001KA1120N+01051MA1999999101891MD1710131+9999REMSYN080AAXX  20124 68300 32989 02316 10198 20150 30189 40207 57013 333 20105 555 91020;EQDQ01+001503ATOD  Q02  00002PRCP99
0206683000999992000072018004-26630+015100FM-12+000099999V0202301N009312200019N0750001N1+01421+00531101871ADDAA199000091GA1001+999999999GF100991001001999999001001KA1120M+02121MA1999999101691MD1310041+9999REMSYN080AAXX  20184 68300 32989 02318 10142 20053 30169 40187 53004 333 10212 555 91018;EQDQ01  00002PRCP99
0210683000999992000072106004-26630+015100FM-12+000099999V0203001N003112200019N0300001N1+01101-00011101701ADDAA199000091GA1001+999999999GF100991001001999999001001KA1240M+02121KA2120N+01081MD1310121+9999REMSYN086AAXX  21064 68300 32980 03006 10110 21001 3//// 40170 53012 333 20108 555 10212 91017;EQDQ01  00002PRCP99
0191683000999992000072112004-26630+015100FM-12+000099999V0201801N008212200019N0100001N1+02021+00201101701ADDAA199000091GA1001+999999999GF100991001001999999001001KA1120N+01101MD1810191+9999REMSYN080AAXX  21124 68300 32960 01816 10202 20020 30/// 40170 58019 333 20110 555 91017;EQDQ01  00002PRCP99
0157683000999992000072115004-26630+015100FM-12+000099999V0201801N006212200019N0200001N1+01801+00651101691ADDGA1001+999999999GF100991001001999999001001MA1999999101511MD1810111+9999REMSYN074AAXX  21154 68300 42970 01812 10180 20065 30151 40169 58011 333 555 91016;
0196683000999992000072218004-26630+015100FM-12+000099999V0203601N005110006019N0050001N1+01101+00921101931ADDAA199000091GF108991081061000751999999KA1120M+01341MA1999999101751MD1310111+9999REMSYN086AAXX  22184 68300 32150 83610 10110 20092 30175 40193 53011 886// 333 10134 555 91019;EQDQ01  00002PRCP99
0157683000999992000072403004-26630+015100FM-12+000099999V0203601N001512200019N0300001N1+00851+00851102211ADDGA1001+999999999GF100991001001999999001001MA1999999102021MD1310041+9999REMSYN074AAXX  24034 68300 42980 03603 10085 20085 30202 40221 53004 333 555 91022;
0215683000999992000072406004-26630+015100FM-12+000099999V0201801N005110042019N0200001N1+01281+00791102361ADDAA199000091GF108991081061004501999999KA1240M+01321KA2120N+00981MA1999999102181MD1210161+9999REMSYN092AAXX  24064 68300 32470 81810 10128 20079 30218 40236 52016 886// 333 20098 555 10132 91023;EQDQ01  00002PRCP99
0206683000999992000072412004-26630+015100FM-12+000099999V0201801N010312200019N0750001N1+01781+00831102321ADDAA199000091GA1001+999999999GF100991001001999999001001KA1120N+01251MA1999999102141MD1810171+9999REMSYN080AAXX  24124 68300 32989 01820 10178 20083 30214 40232 58017 333 20125 555 91023;EQDQ01  00002PRCP99
0157683000999992000072415004-26630+015100FM-12+000099999V0201801N011812200019N0750001N1+01741+00701102241ADDGA1001+999999999GF100991001001999999001001MA1999999102061MD1710081+9999REMSYN074AAXX  24154 68300 42989 01823 10174 20070 30206 40224 57008 333 555 91022;
0206683000999992000072418004-26630+015100FM-12+000099999V0201801N005112200019N0300001N1+01401+01021102411ADDAA199000091GA1001+999999999GF100991001001999999001001KA1120M+01921MA1999999102231MD1310151+9999REMSYN080AAXX  24184 68300 32980 01810 10140 20102 30223 40241 53015 333 10192 555 91024;EQDQ01  00002PRCP99
0157683000999992000072421004-26630+015100FM-12+000099999V0201801N007712200019N0200001N1+01341+00861102501ADDGA1001+999999999GF100991001001999999001001MA1999999102321MD1310101+9999REMSYN074AAXX  24214 68300 42970 01815 10134 20086 30232 40250 53010 333 555 91025;
0172683000999992000072500004-26630+015100FM-12+000099999V0201801N010312200019N0050001N1+01251+00731102221ADDAA199000091GA1001+999999999GF100991001001999999001001MD1710101+9999REMSYN074AAXX  25004 68300 32950 01820 10125 20073 3//// 40222 57010 333 555 91022;EQDQ01  00002PRCP99
0142683000999992000072503004-26630+015100FM-12+000099999V0201801N006212200019N0050001N1+01151+00621102091ADDGA1001+999999999GF100991001001999999001001MD1810131+9999REMSYN074AAXX  25034 68300 42950 01812 10115 20062 3//// 40209 58013 333 555 91022;
0210683000999992000072506004-26630+015100FM-12+000099999V0201301N005112200019N0750001N1+00961+00311102161ADDAA199000091GA1001+999999999GF100991001001999999001001KA1240M+01921KA2120N+00981MD1310071+9999REMSYN086AAXX  25064 68300 32989 01310 10096 20031 3//// 40216 53007 333 20098 555 10192 91021;EQDQ01  00002PRCP99
0157683000999992000072515004-26630+015100FM-12+000099999V0201801N010312200019N0750001N1+01831+00791102021ADDGA1001+999999999GF100991001001999999001001MA1999999101841MD1710061+9999REMSYN074AAXX  25154 68300 42989 01820 10183 20079 30184 40202 57006 333 555 91020;
0186683000999992000072612004-26630+015100FM-12+000099999V0201301N006212200019N0300001N1+03101+00391101871ADDAA199000091GA1001+999999999GF100991001001999999001001KA1120N+01851MA1999999101701REMSYN074AAXX  26124 68300 32980 01312 10310 20039 30170 40187 333 20185 555 91018;EQDQ01  00002PRCP99
0206683000999992000072618004-26630+015100FM-12+000099999V0201801N005112200019N0050001N1+02451+00451101981ADDAA199000091GA1001+999999999GF100991001001999999001001KA1120M+03201MA1999999101801MD1310161+9999REMSYN080AAXX  26184 68300 32950 01810 10245 20045 30180 40198 53016 333 10320 555 91019;EQDQ01  00002PRCP99
0191683000999992000072700004-26630+015100FM-12+000099999V0200501N005112200019N0050001N1+02351+00611101521ADDAA199000091GA1001+999999999GF100991001001999999001001KA1120M+03201MD1410001+9999REMSYN080AAXX  27004 68300 32950 00510 10235 20061 3//// 40152 54000 333 10320 555 91015;EQDQ01  00002PRCP99
0224683000999992000072712004-26630+015100FM-12+000099999V0201301N006219999999N0300001N1+02901+00521101871ADDAA199000091AY131061AY221061GF106991001001999999001021KA1120N+02501MA1999999101701MD1810171+9999MW1301REMSYN092AAXX  27124 68300 31980 61312 10290 20052 30170 40187 58017 73032 80002 333 20250 555 91018;EQDQ01  00002PRCP99
0210683000999992000072806004-26630+015100FM-12+000099999V0200501N010312200019N0100001N1+02301-00021101621ADDAA199000091GA1001+999999999GF100991001001999999001001KA1240M+03121KA2120N+01761MD1710011+9999REMSYN086AAXX  28064 68300 32960 00520 10230 21002 3//// 40162 57001 333 20176 555 10312 91016;EQDQ01  00002PRCP99
0142683000999992000072903004-26630+015100FM-12+000099999V0201801N004112200019N0050001N1+01421+00771101541ADDGA1001+999999999GF100991001001999999001001MD1610031+9999REMSYN074AAXX  29034 68300 42950 01808 10142 20077 3//// 40154 56003 333 555 91015;
0228683000999992000072906004-26630+015100FM-12+000099999V0201801N006212200019N0050001N1+01161+00831101621ADDAA199000091AY101061AY201061GF101991011061004501001001KA1240M+03051KA2120N+01131MD1310081+9999MW1401REMSYN098AAXX  29064 68300 31450 11812 10116 20083 3//// 40162 53008 74000 81600 333 20113 555 10305 91016;EQDQ01  00002PRCP99
0157683000999992000072909004-26630+015100FM-12+000099999V0201801N005112200019N0300001N1+01661+01041101901ADDGA1001+999999999GF100991001001999999001001MA1999999101721MD1210101+9999REMSYN074AAXX  29094 68300 42980 01810 10166 20104 30172 40190 52010 333 555 91019;
0206683000999992000072912004-26630+015100FM-12+000099999V0201801N007212200019N0750001N1+02221+00741101681ADDAA199000091GA1001+999999999GF100991001001999999001001KA1120N+01251MA1999999101501MD1810221+9999REMSYN080AAXX  29124 68300 32989 01814 10222 20074 30150 40168 58022 333 20125 555 91016;EQDQ01  00002PRCP99
0157683000999992000072915004-26630+015100FM-12+000099999V0203601N003112200019N0200001N1+01601+01241101581ADDGA1001+999999999GF100991001001999999001001MA1999999101401MD1710071+9999REMSYN074AAXX  29154 68300 42970 03606 10160 20124 30140 40158 57007 333 555 91015;
0243683000999992000073006004-26630+015100FM-12+000099999V0201801N004112200019N0050001N1+01471+00461101741ADDAA199000091AY121061AY221061GF101991011061000751001001KA1240M+02381KA2120N+01051MA1999999101561MD1310141+9999MW1401REMSYN098AAXX  30064 68300 31150 11808 10147 20046 30156 40174 53014 74022 81600 333 20105 555 10238 91017;EQDQ01  00002PRCP99
0142683000999992000073009004-26630+015100FM-12+000099999V0201801N003112200019N0750001N1+01881+00661101581ADDGA1001+999999999GF100991001001999999001001MD1210021+9999REMSYN074AAXX  30094 68300 42989 01806 10188 20066 3//// 40158 52002 333 555 91015;
0191683000999992000073012004-26630+015100FM-12+000099999V0201801N003112200019N0750001N1+02861+00151101301ADDAA199000091GA1001+999999999GF100991001001999999001001KA1120N+01421MD1810281+9999REMSYN080AAXX  30124 68300 32989 01806 10286 20015 3//// 40130 58028 333 20142 555 91013;EQDQ01  00002PRCP99
0191683000999992000073018004-26630+015100FM-12+000099999V0203601N003112200019N0750001N1+01651+01191101391ADDAA199000091GA1001+999999999GF100991001001999999001001KA1120M+03101MD1310191+9999REMSYN080AAXX  30184 68300 32989 03606 10165 20119 3//// 40139 53019 333 10310 555 91013;EQDQ01  00002PRCP99
0191683000999992000073112004-26630+015100FM-12+000099999V0202701N001512200019N0750001N1+02001+00851101381ADDAA199000091GA1001+999999999GF100991001001999999001001KA1120N+01801MD1710171+9999REMSYN080AAXX  31124 68300 32989 02703 10200 20085 3//// 40138 57017 333 20180 555 91013;EQDQ01  00002PRCP99
0170683000999992000073115004-26630+015100FM-12+000099999V0203601N002112200019N0050001N1+01351+01161101381ADDAY101031AY201031GA1001+999999999GF100991001001999999001001MD1410001+9999MW1401REMSYN080AAXX  31154 68300 41950 03604 10135 20116 3//// 40138 54000 74000 333 555 91013;
0147683000999992000080109004-26630+015100FM-12+000099999V0203601N008210075019N0300001N1+01251+01001101961ADDGF108991081061008001999999MA1999999101781MD1310101+9999REMSYN080AAXX  01094 68300 42580 83616 10125 20100 30178 40196 53010 886// 333 555 91019;
0206683000999992000080118004-26630+015100FM-12+000099999V0201801N003112200019N0200001N1+01251+00951101841ADDAA199000091GA1001+999999999GF100991001001999999001001KA1120M+01401MA1999999101661MD1310061+9999REMSYN080AAXX  01184 68300 32970 01806 10125 20095 30166 40184 53006 333 10140 555 91018;EQDQ01  00002PRCP99
0147683000999992000080121004-26630+015100FM-12+000099999V0201801N002610006019N0050001N1+01301+01011101891ADDGF105991051061000751001001MA1999999101711MD1210051+9999REMSYN080AAXX  01214 68300 42150 51805 10130 20101 30171 40189 52005 85600 333 555 91018;
0177683000999992000080200004-26630+015100FM-12+000099999V0203601N005110006019N0050001N1+01251+00851101841ADDAA199000091GF105991051061000751001001MA1999999101661MD1810051+9999REMSYN080AAXX  02004 68300 32150 53610 10125 20085 30166 40184 58005 85600 333 555 91018;EQDQ01  00002PRCP99
0147683000999992000080203004-26630+015100FM-12+000099999V0203601N005110006019N0050001N1+01331+00921101821ADDGF107991071061000751999999MA1999999101641MD1710021+9999REMSYN080AAXX  02034 68300 42150 73610 10133 20092 30164 40182 57002 876// 333 555 91018;
0247683000999992000080206004-26630+015100FM-12+000099999V0201301N999992200019N0100001N1+01351+00981101971ADDAA199000091GF103991999061000751001001KA1240M+01401KA2120N+01201MA1999999101791MD1310131+9999REMSYN092AAXX  02064 68300 32160 36306 10135 20098 30179 40197 53013 86600 333 20120 555 10140 91019;EQDQ01+005453WOSPD Q02+000062SCOTLCQ03  00002PRCP99
0142683000999992000080209004-26630+015100FM-12+000099999V0203601N005112200019N0200001N1+01461+01161101951ADDGA1001+999999999GF100991001001999999001001MD1310161+9999REMSYN074AAXX  02094 68300 42970 03610 10146 20116 3//// 40195 53016 333 555 91019;
0181683000999992000080212004-26630+015100FM-12+000099999V0202701N001510150019N0750001N1+01751+01211101891ADDAA199000091GF106991061061017501999999KA1120N+01351MD1710141+9999REMSYN086AAXX  02124 68300 32789 62703 10175 20121 3//// 40189 57014 866// 333 20135 555 91018;EQDQ01  00002PRCP99
0200683000999992000080406004-26630+015100FM-12+000099999V0201401N005112200019N0750001N1+01051+00621102281ADDAA199000091GF104991041051012501001001KA1240M+02001KA2120N+01051MD1310071+9999REMSYN092AAXX  04064 68300 32689 41410 10105 20062 3//// 40228 53007 84500 333 20105 555 10200 91022;EQDQ01  00002PRCP99
0157683000999992000080409004-26630+015100FM-12+000099999V0201801N003112200019N0750001N1+01751+00201102531ADDGA1001+999999999GF100991001001999999001001MA1999999102351MD1210081+9999REMSYN074AAXX  04094 68300 42989 01806 10175 20020 30235 40253 52008 333 555 91025;
0206683000999992000080412004-26630+015100FM-12+000099999V0201801N013912200019N0200001N1+02101+00741102321ADDAA199000091GA1001+999999999GF100991001001999999001001KA1120N+01051MA1999999102141MD1810211+9999REMSYN080AAXX  04124 68300 32970 01827 10210 20074 30214 40232 58021 333 20105 555 91023;EQDQ01  00002PRCP99
0157683000999992000080415004-26630+015100FM-12+000099999V0201801N013912200019N0200001N1+01851+00771102121ADDGA1001+999999999GF100991001001999999001001MA1999999101941MD1710201+9999REMSYN074AAXX  04154 68300 42970 01827 10185 20077 30194 40212 57020 333 555 91021;
0206683000999992000080418004-26630+015100FM-12+000099999V0201801N003112200019N0200001N1+01651+00631102211ADDAA199000091GA1001+999999999GF100991001001999999001001KA1120M+02251MA1999999102031MD1210091+9999REMSYN080AAXX  04184 68300 32970 01806 10165 20063 30203 40221 52009 333 10225 555 91022;EQDQ01  00002PRCP99
0157683000999992000080421004-26630+015100FM-12+000099999V0201801N003112200019N0200001N1+01501+00421102271ADDGA1001+999999999GF100991001001999999001001MA1999999102091MD1310061+9999REMSYN074AAXX  04214 68300 42970 01806 10150 20042 30209 40227 53006 333 555 91022;
0187683000999992000080500004-26630+015100FM-12+000099999V0201801N010312200019N0050001N1+01651+00981102221ADDAA199000091GA1001+999999999GF100991001001999999001001MA1999999102041MD1710051+9999REMSYN074AAXX  05004 68300 32950 01820 10165 20098 30204 40222 57005 333 555 91022;EQDQ01  00002PRCP99
0176683000999992000080503004-26630+015100FM-12+000099999V0201801N007712200019N0050001N1+01441-00132102141ADDGA1001+999999999GF100991001001999999001001MA1999999101961MD1710081+9999REMSYN074AAXX  05034 68300 42950 01815 10144 21013 30196 40214 57008 333 555 91021;EQDQ01-000133ATOD  
0215683000999992000080506004-26630+015100FM-12+000099999V0201801N005112200019N0200001N1+01301-00041102181ADDAA199000091GF101991011041000751001001KA1240M+02251KA2120N+01301MA1999999102001MD1310041+9999REMSYN092AAXX  05064 68300 32170 11810 10130 21004 30200 40218 53004 81400 333 20130 555 10225 91021;EQDQ01  00002PRCP99
0157683000999992000080509004-26630+015100FM-12+000099999V0201801N007712200019N0200001N1+02001+00131102181ADDGA1001+999999999GF100991001001999999001001MA1999999102001MD1410001+9999REMSYN074AAXX  05094 68300 42970 01815 10200 20013 30200 40218 54000 333 555 91021;
0206683000999992000080512004-26630+015100FM-12+000099999V0201801N012912200019N0200001N1+02421+00581101881ADDAA199000091GA1001+999999999GF100991001001999999001001KA1120N+01301MA1999999101701MD1810321+9999REMSYN080AAXX  05124 68300 32970 01825 10242 20058 30170 40188 58032 333 20130 555 91018;EQDQ01  00002PRCP99
0157683000999992000080515004-26630+015100FM-12+000099999V0201601N009312200019N0200001N1+02051+00801101741ADDGA1001+999999999GF100991001001999999001001MA1999999101561MD1710141+9999REMSYN074AAXX  05154 68300 42970 01618 10205 20080 30156 40174 57014 333 555 91017;
0206683000999992000080518004-26630+015100FM-12+000099999V0201801N010312200019N0100001N1+01551+00621101841ADDAA199000091GA1001+999999999GF100991001001999999001001KA1120M+02251MA1999999101661MD1210101+9999REMSYN080AAXX  05184 68300 32960 01820 10155 20062 30166 40184 52010 333 10225 555 91018;EQDQ01  00002PRCP99
0157683000999992000080521004-26630+015100FM-12+000099999V0201801N004112200019N0200001N1+01551+00751101771ADDGA1001+999999999GF100991001001999999001001MA1999999101591MD1710071+9999REMSYN074AAXX  05214 68300 42970 01808 10155 20075 30159 40177 57007 333 555 91017;
0187683000999992000080600004-26630+015100FM-12+000099999V0201801N001512200019N0100001N1+01521+00711101681ADDAA199000091GA1001+999999999GF100991001001999999001001MA1999999101501MD1210091+9999REMSYN074AAXX  06004 68300 32960 01803 10152 20071 30150 40168 52009 333 555 91016;EQDQ01  00002PRCP99
0157683000999992000080603004-26630+015100FM-12+000099999V0200901N003112200019N0200001N1+02151+00131101591ADDGA1001+999999999GF100991001001999999001001MA1999999101411MD1810091+9999REMSYN074AAXX  06034 68300 42970 00906 10215 20013 30141 40159 58009 333 555 91015;
0225683000999992000080606004-26630+015100FM-12+000099999V0202701N005112200019N0200001N1+02551-00211101721ADDAA199000091GA1001+999999999GF100991001001999999001001KA1240M+02551KA2120N+01501MA1999999101551MD1310141+9999REMSYN086AAXX  06064 68300 32970 02710 10255 21021 30155 40172 53014 333 20150 555 10255 91017;EQDQ01  00002PRCP99
0210683000999992000080609004-26630+015100FM-12+000099999V0203601N005112200019N0090001N1+01452+01172102011ADDAY101031AY201031GF104991041051000751001001MA1999999101831MD1110301+9999MW1401REMSYN086AAXX  06094 68300 41159 43610 10145 20117 30183 40201 51030 74000 84500 333 555 91020;EQDQ01+001453ATOT  Q02+001173ATOD  
0225683000999992000080712004-26630+015100FM-12+000099999V0209999C000010012019N0020001N1+01301+01211101691ADDAA199000091AY141061AY241061GA1091+999999999GF109991091999999999999999KA1120N+01151MD1710161+9999MW1451REMSYN092AAXX  07124 68300 31120 90000 10130 20121 3//// 40169 57016 74544 8//// 333 20115 555 91016;EQDQ01  00002PRCP99
0198683000999992000080715004-26630+015100FM-12+000099999V0202701N001512200019N0020001N1+01251+01161101951ADDAY141031AY221031GA1001+999999999GF100991001001999999001001MA1999999101771MD1210061+9999REMSYN080AAXX  07154 68300 41120 02703 10125 20116 30177 40195 52006 74842 333 555 91019;EQDQ01+000482PRSWM1
0234683000999992000080800004-26630+015100FM-12+000099999V0201301N999992200019N0040001N1+01101+00901101671ADDAA199000091AY141061AY241061GF103991999061000751001001MD1810111+9999MW1401REMSYN082AAXX  08004 68300 31140 36303 10110 20090 3//// 40167 58011 74044 86600 333 91016;EQDQ01+005293WOSPD Q02+000062SCOTLCQ03  00002PRCP99Q040005293WOSPD 
0244683000999992000080806004-26630+015100FM-12+000099999V0203601N001510001519N0001001N1+01031+00971101891ADDAA199000091AY141061AY241061GA1091+999999999GF109991091999999999999999KA1240M+01641KA2120N+01001MD1310121+9999MW1471REMSYN098AAXX  08064 68300 31001 93603 10103 20097 3//// 40189 53012 74744 8//// 333 20100 555 10164 91018;EQDQ01  00002PRCP99
0141683000999992000080809004-26630+015100FM-12+000099999V0203601N003119999999N0020001N1+01051+01051102211ADDGF108991999999000751999999MA1999999102031MD1210221+9999REMSYN074AAXX  08094 68300 42120 83606 10105 20105 30203 40221 52022 333 555 91022;
0224683000999992000080812004-26630+015100FM-12+000099999V0203601N003610006019N0050001N1+01201+01101102141ADDAA199000091AY141061AY221061GF108991081061000751999999KA1120N+01001MA1999999101961MD1710071+9999MW1401REMSYN092AAXX  08124 68300 31150 83607 10120 20110 30196 40214 57007 74042 886// 333 20100 555 91021;EQDQ01  00002PRCP99
0132683000999992000080915004-26630+015100FM-12+000099999V0201801N006210006019N0200001N1+01651+01291101871ADDGF108991081061000751999999MD1710051+9999REMSYN080AAXX  09154 68300 42170 81812 10165 20129 3//// 40187 57005 886// 333 555 91018;
0196683000999992000080918004-26630+015100FM-12+000099999V0201801N003110012019N0200001N1+01501+01231102101ADDAA199000091GF108991081061001501999999KA1120M+02051MA1999999101921MD1210051+9999REMSYN086AAXX  09184 68300 32270 81806 10150 20123 30192 40210 52005 886// 333 10205 555 91021;EQDQ01  00002PRCP99
0142683000999992000081003004-26630+015100FM-12+000099999V0201801N007712200019N0050001N1+01361+01091101841ADDGA1001+999999999GF100991001001999999001001MD1810101+9999REMSYN074AAXX  10034 68300 42950 01815 10136 20109 3//// 40184 58010 333 555 91018;
0210683000999992000081006004-26630+015100FM-12+000099999V0201801N003112200019N0200001N1+01301+01011101931ADDAA199000091GA1001+999999999GF100991001001999999001001KA1240M+02101KA2120N+01301MD1310091+9999REMSYN086AAXX  10064 68300 32970 01806 10130 20101 3//// 40193 53009 333 20130 555 10210 91019;EQDQ01  00002PRCP99
0157683000999992000081009004-26630+015100FM-12+000099999V0201401N007712200019N0200001N1+01951+01131102151ADDGA1001+999999999GF100991001001999999001001MA1999999101971MD1210041+9999REMSYN074AAXX  10094 68300 42970 01415 10195 20113 30197 40215 52004 333 555 91021;
0206683000999992000081012004-26630+015100FM-12+000099999V0201801N013912200019N0750001N1+01951+01241101951ADDAA199000091GA1001+999999999GF100991001001999999001001KA1120N+01301MA1999999101771MD1810201+9999REMSYN080AAXX  10124 68300 32989 01827 10195 20124 30177 40195 58020 333 20130 555 91019;EQDQ01  00002PRCP99
0206683000999992000081018004-26630+015100FM-12+000099999V0201801N009312200019N0200001N1+01501+01231102151ADDAA199000091GA1001+999999999GF100991001001999999001001KA1120M+02301MA1999999101971MD1010201+9999REMSYN080AAXX  10184 68300 32970 01818 10150 20123 30197 40215 50020 333 10230 555 91021;EQDQ01  00002PRCP99
0187683000999992000081100004-26630+015100FM-12+000099999V0201801N007712200019N0100001N1+01501+00921102351ADDAA199000091GA1001+999999999GF100991001001999999001001MA1999999102171MD1210031+9999REMSYN074AAXX  11004 68300 32960 01815 10150 20092 30217 40235 52003 333 555 91023;EQDQ01  00002PRCP99
0157683000999992000081103004-26630+015100FM-12+000099999V0201801N010312200019N0100001N1+01401+00631102301ADDGA1001+999999999GF100991001001999999001001MA1999999102121MD1610051+9999REMSYN074AAXX  11034 68300 42960 01820 10140 20063 30212 40230 56005 333 555 91023;
0225683000999992000081106004-26630+015100FM-12+000099999V0201801N004112200019N0200001N1+01301+00901102211ADDAA199000091GA1001+999999999GF100991001001999999001001KA1240M+02351KA2120N+01301MA1999999102031MD1710081+9999REMSYN086AAXX  11064 68300 32970 01808 10130 20090 30203 40221 57008 333 20130 555 10235 91022;EQDQ01  00002PRCP99
0157683000999992000081115004-26630+015100FM-12+000099999V0201801N018012200019N0200001N1+01821+01211102091ADDGA1001+999999999GF100991001001999999001001MA1999999101911MD1810121+9999REMSYN074AAXX  11154 68300 42970 01835 10182 20121 30191 40209 58012 333 555 91020;
0206683000999992000081118004-26630+015100FM-12+000099999V0201801N011312200019N0600001N1+01601+01241102271ADDAA199000091GA1001+999999999GF100991001001999999001001KA1120M+02401MA1999999102091MD1310181+9999REMSYN080AAXX  11184 68300 32986 01822 10160 20124 30209 40227 53018 333 10240 555 91022;EQDQ01  00002PRCP99
0157683000999992000081209004-26630+015100FM-12+000099999V0201201N001512200019N0750001N1+02701+00261102511ADDGA1001+999999999GF100991001001999999001001MA1999999102341MD1310161+9999REMSYN074AAXX  12094 68300 42989 01203 10270 20026 30234 40251 53016 333 555 91025;
0196683000999992000081212004-26630+015100FM-12+000099999V0201801N005112200019N0750001N1+02751+00951102271ADDAA199000091GF102991021001999999031001KA1120N+01901MA1999999102101MD1710241+9999REMSYN086AAXX  12124 68300 32989 21810 10275 20095 30210 40227 57024 82030 333 20190 555 91022;EQDQ01  00002PRCP99
0157683000999992000081215004-26630+015100FM-12+000099999V0201801N010312200019N0200001N1+02701+00741102061ADDGA1001+999999999GF100991001001999999001001MA1999999101891MD1710201+9999REMSYN074AAXX  12154 68300 42970 01820 10270 20074 30189 40206 57020 333 555 91020;
0206683000999992000081218004-26630+015100FM-12+000099999V0202301N008212200019N0750001N1+02501+00661102141ADDAA199000091GA1001+999999999GF100991001001999999001001KA1120M+02751MA1999999101961MD1310071+9999REMSYN080AAXX  12184 68300 32989 02316 10250 20066 30196 40214 53007 333 10275 555 91021;EQDQ01  00002PRCP99
0157683000999992000081221004-26630+015100FM-12+000099999V0201301N004112200019N0100001N1+02561+00261102291ADDGA1001+999999999GF100991001001999999001001MA1999999102111MD1210151+9999REMSYN074AAXX  12214 68300 42960 01308 10256 20026 30211 40229 52015 333 555 91022;
0157683000999992000081303004-26630+015100FM-12+000099999V0201801N003112200019N0100001N1+01851+00361102271ADDGA1001+999999999GF100991001001999999001001MA1999999102091MD1810041+9999REMSYN074AAXX  13034 68300 42960 01806 10185 20036 30209 40227 58004 333 555 91022;
0225683000999992000081306004-26630+015100FM-12+000099999V0201801N003112200019N0750001N1+01901+00121102441ADDAA199000091GA1001+999999999GF100991001001999999001001KA1240M+02751KA2120N+01801MA1999999102261MD1210271+9999REMSYN086AAXX  13064 68300 32989 01806 10190 20012 30226 40244 52027 333 20180 555 10275 91024;EQDQ01  00002PRCP99
0157683000999992000081309004-26630+015100FM-12+000099999V0201801N001512200019N0750001N1+02801+00291102511ADDGA1001+999999999GF100991001001999999001001MA1999999102341MD1310081+9999REMSYN074AAXX  13094 68300 42989 01803 10280 20029 30234 40251 53008 333 555 91025;
0191683000999992000081312004-26630+015100FM-12+000099999V0201801N001512200019N0750001N1+02901+00851102101ADDAA199000091GA1001+999999999GF100991001001999999001001KA1120N+01701MD1710241+9999REMSYN080AAXX  13124 68300 32989 01803 10290 20085 3//// 40210 57024 333 20170 555 91021;EQDQ01  00002PRCP99
0142683000999992000081321004-26630+015100FM-12+000099999V0200901N003112200019N0100001N1+02631-00021101951ADDGA1001+999999999GF100991001001999999001001MD1210031+9999REMSYN074AAXX  13214 68300 42960 00906 10263 21002 3//// 40195 52003 333 555 91019;
0187683000999992000081400004-26630+015100FM-12+000099999V0201801N005112200019N0150001N1+02501-00201102171ADDAA199000091GA1001+999999999GF100991001001999999001001MA1999999101991MD1210031+9999REMSYN074AAXX  14004 68300 32965 01810 10250 21020 30199 40217 52003 333 555 91021;EQDQ01  00002PRCP99
0157683000999992000081403004-26630+015100FM-12+000099999V0201701N007712200019N0100001N1+02301-00481102071ADDGA1001+999999999GF100991001001999999001001MA1999999101891MD1810101+9999REMSYN074AAXX  14034 68300 42960 01715 10230 21048 30189 40207 58010 333 555 91020;
0225683000999992000081406004-26630+015100FM-12+000099999V0200901N005112200019N0750001N1+02401+00001102211ADDAA199000091GA1001+999999999GF100991001001999999001001KA1240M+03051KA2120N+01701MA1999999102031MD1210141+9999REMSYN086AAXX  14064 68300 32989 00910 10240 20000 30203 40221 52014 333 20170 555 10305 91022;EQDQ01  00002PRCP99
0157683000999992000081409004-26630+015100FM-12+000099999V0203601N001512200019N0750001N1+02871+00361102311ADDGA1001+999999999GF100991001001999999001001MA1999999102141MD1310111+9999REMSYN074AAXX  14094 68300 42989 03603 10287 20036 30214 40231 53011 333 555 91023;
0142683000999992000081415004-26630+015100FM-12+000099999V0202301N008212200019N0750001N1+03181+00061101601ADDGA1001+999999999GF100991001001999999001001MD1310261+9999REMSYN074AAXX  14154 68300 42989 02316 10318 20006 3//// 40160 53026 333 555 91016;
0191683000999992000081418004-26630+015100FM-12+000099999V0200901N005112200019N0750001N1+03151-00961101711ADDAA199000091GA1001+999999999GF100991001001999999001001KA1120M+03521MD1210111+9999REMSYN080AAXX  14184 68300 32989 00910 10315 21096 3//// 40171 52011 333 10352 555 91017;EQDQ01  00002PRCP99
0176683000999992000081421004-26630+015100FM-12+000099999V0201301N006212200019N0300001N1+02221+00872101961ADDGA1001+999999999GF100991001001999999001001MA1999999101781MD1210071+9999REMSYN074AAXX  14214 68300 42980 01312 10222 20087 30178 40196 52007 333 555 91019;EQDQ01+000873ATOD  
0187683000999992000081500004-26630+015100FM-12+000099999V0201801N007712200019N0100001N1+02601+00231101891ADDAA199000091GA1001+999999999GF100991001001999999001001MA1999999101721MD1810051+9999REMSYN074AAXX  15004 68300 32960 01815 10260 20023 30172 40189 58005 333 555 91019;EQDQ01  00002PRCP99
0157683000999992000081503004-26630+015100FM-12+000099999V0201801N009312200019N0100001N1+02501+00691101801ADDGA1001+999999999GF100991001001999999001001MA1999999101631MD1710081+9999REMSYN074AAXX  15034 68300 42960 01818 10250 20069 30163 40180 57008 333 555 91018;
0225683000999992000081506004-26630+015100FM-12+000099999V0202701N014412200019N0750001N1+02551+00121101961ADDAA199000091GA1001+999999999GF100991001001999999001001KA1240M+03521KA2120N+02301MA1999999101791MD1210161+9999REMSYN086AAXX  15064 68300 32989 02728 10255 20012 30179 40196 52016 333 20230 555 10352 91019;EQDQ01  00002PRCP99
0191683000999992000081512004-26630+015100FM-12+000099999V0203601N003112200019N0750001N1+02701+00741101691ADDAA199000091GA1001+999999999GF100991001001999999001001KA1120N+02451MD1710301+9999REMSYN080AAXX  15124 68300 32989 03606 10270 20074 3//// 40169 57030 333 20245 555 91016;EQDQ01  00002PRCP99
0206683000999992000081518004-26630+015100FM-12+000099999V0203601N003112200019N0100001N1+02281+00671101901ADDAA199000091GA1001+999999999GF100991001001999999001001KA1120M+03121MA1999999101721MD1310111+9999REMSYN080AAXX  15184 68300 32960 03606 10228 20067 30172 40190 53011 333 10312 555 91019;EQDQ01  00002PRCP99
0142683000999992000081603004-26630+015100FM-12+000099999V0201601N003112200019N0100001N1+02301-00021101651ADDGA1001+999999999GF100991001001999999001001MD1710131+9999REMSYN074AAXX  16034 68300 42960 01606 10230 21002 3//// 40165 57013 333 555 91016;
0210683000999992000081606004-26630+015100FM-12+000099999V0203601N003112200019N0750001N1+02301-00021101691ADDAA199000091GA1001+999999999GF100991001001999999001001KA1240M+03101KA2120N+02001MD1710031+9999REMSYN086AAXX  16064 68300 32989 03606 10230 21002 3//// 40169 57003 333 20200 555 10310 91018;EQDQ01  00002PRCP99
0157683000999992000081609004-26630+015100FM-12+000099999V0203601N001512200019N0750001N1+02421+00521102071ADDGA1001+999999999GF100991001001999999001001MA1999999101891MD1810201+9999REMSYN074AAXX  16094 68300 42989 03603 10242 20052 30189 40207 58020 333 555 91020;
0206683000999992000081612004-26630+015100FM-12+000099999V0203601N003112200019N0200001N1+01841+01101101991ADDAA199000091GA1001+999999999GF100991001001999999001001KA1120N+01781MA1999999101811MD1710081+9999REMSYN080AAXX  16124 68300 32970 03606 10184 20110 30181 40199 57008 333 20178 555 91019;EQDQ01  00002PRCP99
0224683000999992000081618004-26630+015100FM-12+000099999V0203601N004110003019N0010001N1+01101+01061102031ADDAA199000091AY141061AY201061GF108991081061000251999999KA1120M+02871MA1999999101851MD1310121+9999MW1471REMSYN092AAXX  16184 68300 31010 83608 10110 20106 30185 40203 53012 74740 886// 333 10287 555 91020;EQDQ01  00002PRCP99
0175683000999992000081621004-26630+015100FM-12+000099999V0203601N003112200019N0050001N1+01151+00851102051ADDAY121031AY221031GF101991011061000751001001MA1999999101871MD1210021+9999MW1401REMSYN086AAXX  16214 68300 41150 13606 10115 20085 30187 40205 52002 74022 81600 333 555 91020;
0172683000999992000081700004-26630+015100FM-12+000099999V0201801N003112200019N0100001N1+01351+01161101811ADDAA199000091GA1001+999999999GF100991001001999999001001MD1810051+9999REMSYN074AAXX  17004 68300 32960 01806 10135 20116 3//// 40181 58005 333 555 91018;EQDQ01  00002PRCP99
0142683000999992000081703004-26630+015100FM-12+000099999V0203601N001512200019N0100001N1+01251+00951101621ADDGA1001+999999999GF100991001001999999001001MD1710191+9999REMSYN074AAXX  17034 68300 42960 03603 10125 20095 3//// 40162 57019 333 555 91016;
0210683000999992000081706004-26630+015100FM-12+000099999V0201801N003112200019N0200001N1+01451+00971102081ADDAA199000091GA1001+999999999GF100991001001999999001001KA1240M+02951KA2120N+01081MD1210091+9999REMSYN086AAXX  17064 68300 32970 01806 10145 20097 3//// 40208 52009 333 20108 555 10295 91020;EQDQ01  00002PRCP99
0157683000999992000081709004-26630+015100FM-12+000099999V0201801N001512200019N0200001N1+01751+01101101981ADDGA1001+999999999GF100991001001999999001001MA1999999101801MD1710201+9999REMSYN074AAXX  17094 68300 42970 01803 10175 20110 30180 40198 57020 333 555 91019;
0206683000999992000081712004-26630+015100FM-12+000099999V0201801N008212200019N0100001N1+01851+01221101851ADDAA199000091GA1001+999999999GF100991001001999999001001KA1120N+01251MA1999999101671MD1810131+9999REMSYN080AAXX  17124 68300 32960 01816 10185 20122 30167 40185 58013 333 20125 555 91018;EQDQ01  00002PRCP99
0167683000999992000081715004-26630+015100FM-12+000099999V0209999C000012200019N0750001N1+02461+00341999999ADDGF101991011011017501001001MD1610111+9999REMSYN080AAXX  17154 68300 42789 10000 10246 20034 38992 49007 56011 81100 333 555 90900;EQDQ01+089923APOSP Q02+090073APOSLP
0224683000999992000081718004-26630+015100FM-12+000099999V0201801N005112200019N0050001N1+01541+01091101881ADDAA199000091AY101061AY201061GF101991011061008001001001KA1120M+03201MA1999999101701MD1310111+9999MW1401REMSYN092AAXX  17184 68300 31550 11810 10154 20109 30170 40188 53011 74000 81600 333 10320 555 91018;EQDQ01  00002PRCP99
0175683000999992000081721004-26630+015100FM-12+000099999V0201801N003112200019N0200001N1+01401+01101101991ADDAY141031AY211031GF101991011061000751001001MA1999999101811MD1210111+9999MW1401REMSYN086AAXX  17214 68300 41170 11806 10140 20110 30181 40199 52011 74041 81600 333 555 91019;
0172683000999992000081800004-26630+015100FM-12+000099999V0201801N003112200019N0100001N1+01301+01011101721ADDAA199000091GA1001+999999999GF100991001001999999001001MD1810071+9999REMSYN074AAXX  18004 68300 32960 01806 10130 20101 3//// 40172 58007 333 555 91017;EQDQ01  00002PRCP99
0142683000999992000081803004-26630+015100FM-12+000099999V0201801N005112200019N0100001N1+01201+01001101551ADDGA1001+999999999GF100991001001999999001001MD1710161+9999REMSYN074AAXX  18034 68300 42960 01810 10120 20100 3//// 40155 57016 333 555 91015;
0228683000999992000081806004-26630+015100FM-12+000099999V0202301N006210042019N0040001N1+01151+01011101691ADDAA199000091AY141061AY241061GF106991061061004501001001KA1240M+03201KA2120N+01121MD1310141+9999MW1461REMSYN098AAXX  18064 68300 31440 62312 10115 20101 3//// 40169 53014 74644 86600 333 20112 555 10320 91016;EQDQ01  00002PRCP99
0157683000999992000081809004-26630+015100FM-12+000099999V0201301N004112200019N0750001N1+01851+01011101931ADDGA1001+999999999GF100991001001999999001001MA1999999101751MD1210061+9999REMSYN074AAXX  18094 68300 42989 01308 10185 20101 30175 40193 52006 333 555 91019;
0224683000999992000081812004-26630+015100FM-12+000099999V0202701N006212200019N0050001N1+01811+01151101761ADDAA199000091AY121061AY221061GF102991021061000751001001KA1120N+01151MA1999999101581MD1810171+9999MW1401REMSYN092AAXX  18124 68300 31150 22712 10181 20115 30158 40176 58017 74022 82600 333 20115 555 91017;EQDQ01  00002PRCP99
0206683000999992000081818004-26630+015100FM-12+000099999V0203601N003112200019N0200001N1+01401+01021101791ADDAA199000091GA1001+999999999GF100991001001999999001001KA1120M+02151MA1999999101611MD1210021+9999REMSYN080AAXX  18184 68300 32970 03606 10140 20102 30161 40179 52002 333 10215 555 91017;EQDQ01  00002PRCP99
0157683000999992000081821004-26630+015100FM-12+000099999V0201801N003112200019N0200001N1+01261+01031101801ADDGA1001+999999999GF100991001001999999001001MA1999999101621MD1510011+9999REMSYN074AAXX  18214 68300 42970 01806 10126 20103 30162 40180 55001 333 555 91018;
0205683000999992000081900004-26630+015100FM-12+000099999V0201801N003112200019N0040001N1+01101+01001101801ADDAA199000091AY101061AY201061GF101991011061000751001001MA1999999101621MD1410001+9999MW1401REMSYN086AAXX  19004 68300 31140 11806 10110 20100 30162 40180 54000 74000 81600 333 555 91018;EQDQ01  00002PRCP99
0175683000999992000081903004-26630+015100FM-12+000099999V0201801N001512200019N0040001N1+01151+00951101721ADDAY101031AY201031GF101991011061000751001001MA1999999101541MD1610081+9999MW1401REMSYN086AAXX  19034 68300 41140 11803 10115 20095 30154 40172 56008 74000 81600 333 555 91017;
0224683000999992000081912004-26630+015100FM-12+000099999V0202701N006210021019N0100001N1+01251+01161102001ADDAA199000091AY141061AY221061GF108991081061002501999999KA1120N+01151MA1999999101821MD1410001+9999MW1401REMSYN092AAXX  19124 68300 31360 82712 10125 20116 30182 40200 54000 74042 886// 333 20115 555 91020;EQDQ01  00002PRCP99
0196683000999992000081918004-26630+015100FM-12+000099999V0202701N002110006019N0100001N1+01251+01141101921ADDAA199000091GF108991081061000751999999KA1120M+01331MA1999999101741MD1210041+9999REMSYN086AAXX  19184 68300 32160 82704 10125 20114 30174 40192 52004 886// 333 10133 555 91019;EQDQ01  00002PRCP99
0177683000999992000082000004-26630+015100FM-12+000099999V0203601N001510006019N0100001N1+01251+01061101361ADDAA199000091GF108991081051000751999999MA1999999101181MD1410001+9999REMSYN080AAXX  20004 68300 32160 83603 10125 20106 30118 40136 54000 885// 333 555 91013;EQDQ01  00002PRCP99
0215683000999992000082006004-26630+015100FM-12+000099999V0203601N004110006019N0040001N1+01201+01121102141ADDAA199000091GF108991081061000751999999KA1240M+01381KA2120N+01201MA1999999101961MD1310121+9999REMSYN092AAXX  20064 68300 32140 83608 10120 20112 30196 40214 53012 886// 333 20120 555 10138 91021;EQDQ01  00002PRCP99
0147683000999992000082009004-26630+015100FM-12+000099999V0203601N005110012019N0100001N1+01201+01101102291ADDGF108991081061001501999999MA1999999102111MD1210151+9999REMSYN080AAXX  20094 68300 42260 83610 10120 20110 30211 40229 52015 886// 333 555 91022;
0196683000999992000082012004-26630+015100FM-12+000099999V0202701N006210006019N0050001N1+01401+01251102231ADDAA199000091GF108991081061000751999999KA1120N+01141MA1999999102051MD1810061+9999REMSYN086AAXX  20124 68300 32150 82712 10140 20125 30205 40223 58006 886// 333 20114 555 91019;EQDQ01  00002PRCP99
0147683000999992000082103004-26630+015100FM-12+000099999V0203601N003112200019N0040001N1+01301+01111102261ADDGF102991021061000751001001MA1999999102081MD1710061+9999REMSYN080AAXX  21034 68300 42140 23606 10130 20111 30208 40226 57006 82600 333 555 91022;
0147683000999992000082109004-26630+015100FM-12+000099999V0201301N008212200019N0100001N1+01801+01061102411ADDGF103991031051000751001001MA1999999102231MD1210031+9999REMSYN080AAXX  21094 68300 42160 31316 10180 20106 30223 40241 52003 83500 333 555 91024;
0206683000999992000082112004-26630+015100FM-12+000099999V0201801N009312200019N0100001N1+01871+00991102191ADDAA199000091GA1001+999999999GF100991001001999999001001KA1120N+01421MA1999999102011MD1810221+9999REMSYN080AAXX  21124 68300 32960 01818 10187 20099 30201 40219 58022 333 20142 555 91021;EQDQ01  00002PRCP99
0157683000999992000082115004-26630+015100FM-12+000099999V0201801N010312200019N0300001N1+01761+00891101961ADDGA1001+999999999GF100991001001999999001001MA1999999101781MD1810221+9999REMSYN074AAXX  21154 68300 42980 01820 10176 20089 30178 40196 58022 333 555 91019;
0206683000999992000082118004-26630+015100FM-12+000099999V0201801N010312200019N0100001N1+01481+01041102031ADDAA199000091GA1001+999999999GF100991001001999999001001KA1120M+01501MA1999999101851MD1210071+9999REMSYN080AAXX  21184 68300 32960 01820 10148 20104 30185 40203 52007 333 10150 555 91020;EQDQ01  00002PRCP99
0157683000999992000082121004-26630+015100FM-12+000099999V0201801N005112200019N0100001N1+01421+01001102041ADDGA1001+999999999GF100991001001999999001001MA1999999101861MD1510011+9999REMSYN074AAXX  21214 68300 42960 01810 10142 20100 30186 40204 55001 333 555 91020;
0187683000999992000082200004-26630+015100FM-12+000099999V0201801N003112200019N0040001N1+01251+01061101921ADDAA199000091GA1001+999999999GF100991001001999999001001MA1999999101741MD1710081+9999REMSYN074AAXX  22004 68300 32940 01806 10125 20106 30174 40192 57008 333 555 91019;EQDQ01  00002PRCP99
0147683000999992000082203004-26630+015100FM-12+000099999V0201801N003112200019N0050001N1+01251+01161101731ADDGF101991011001999999081001MA1999999101551MD1810211+9999REMSYN080AAXX  22034 68300 42950 11806 10125 20116 30155 40173 58021 81080 333 555 91017;
0215683000999992000082206004-26630+015100FM-12+000099999V0201801N004112200019N0100001N1+01141+00831101791ADDAA199000091GF103991031061000751001001KA1240M+02001KA2120N+01141MA1999999101611MD1310061+9999REMSYN092AAXX  22064 68300 32160 31808 10114 20083 30161 40179 53006 83600 333 20114 555 10200 91017;EQDQ01  00002PRCP99
0147683000999992000082209004-26630+015100FM-12+000099999V0200201N004112200019N0100001N1+01801+00921101831ADDGF103991031011000751001001MA1999999101651MD1210041+9999REMSYN080AAXX  22094 68300 42160 30208 10180 20092 30165 40183 52004 83100 333 555 91018;
0196683000999992000082212004-26630+015100FM-12+000099999V0202301N006219999999N0750001N1+02221+00921101651ADDAA199000091GF105991001001999999001051KA1120N+01171MA1999999101471MD1810181+9999REMSYN086AAXX  22124 68300 32989 52312 10222 20092 30147 40165 58018 80005 333 20117 555 91016;EQDQ01  00002PRCP99
0161683000999992000082215004-26630+015100FM-12+000099999V0203601N003112200019N0750001N1+01921+00221999999ADDGA1001+999999999GF100991001001999999001001MD1710101+9999REMSYN074AAXX  22154 68300 42989 03606 10192 20022 34014 44021 57010 333 555 90402;EQDQ01+040141APOSP 
0206683000999992000082218004-26630+015100FM-12+000099999V0200101N005112200019N0750001N1+01441+01041101811ADDAA199000091GA1001+999999999GF100991001001999999001001KA1120M+02301MA1999999101631MD1310211+9999REMSYN080AAXX  22184 68300 32989 00110 10144 20104 30163 40181 53021 333 10230 555 91018;EQDQ01  00002PRCP99
0157683000999992000082221004-26630+015100FM-12+000099999V0203601N001512200019N0100001N1+01321+01011101841ADDGA1001+999999999GF100991001001999999001001MA1999999101661MD1210031+9999REMSYN074AAXX  22214 68300 42960 03603 10132 20101 30166 40184 52003 333 555 91018;
0187683000999992000082300004-26630+015100FM-12+000099999V0203601N001012200019N0040001N1+01151+00951101841ADDAA199000091GA1001+999999999GF100991001001999999001001MA1999999101661MD1410001+9999REMSYN074AAXX  23004 68300 32940 03602 10115 20095 30166 40184 54000 333 555 91018;EQDQ01  00002PRCP99
0147683000999992000082303004-26630+015100FM-12+000099999V0203601N001512200019N0040001N1+01181+00811102061ADDGF102991021061004501001001MA1999999101881MD1210221+9999REMSYN080AAXX  23034 68300 42440 23603 10118 20081 30188 40206 52022 82600 333 555 91020;
0215683000999992000082306004-26630+015100FM-12+000099999V0203601N003110042019N0300001N1+01201+00961102281ADDAA199000091GF108991081051004501999999KA1240M+02301KA2120N+01121MA1999999102101MD1310221+9999REMSYN092AAXX  23064 68300 32480 83606 10120 20096 30210 40228 53022 885// 333 20112 555 10230 91022;EQDQ01  00002PRCP99
0147683000999992000082309004-26630+015100FM-12+000099999V0202301N006210075019N0750001N1+01531+00971102381ADDGF108991081051008001999999MA1999999102201MD1210101+9999REMSYN080AAXX  23094 68300 42589 82312 10153 20097 30220 40238 52010 885// 333 555 91023;
0206683000999992000082312004-26630+015100FM-12+000099999V0202301N008212200019N0300001N1+01781+01071102221ADDAA199000091GA1001+999999999GF100991001001999999001001KA1120N+01221MA1999999102041MD1810161+9999REMSYN080AAXX  23124 68300 32980 02316 10178 20107 30204 40222 58016 333 20122 555 91022;EQDQ01  00002PRCP99
0142683000999992000082315004-26630+015100FM-12+000099999V0201801N005112200019N0100001N1+01751+01101101951ADDGA1001+999999999GF100991001001999999001001MD1710091+9999REMSYN074AAXX  23154 68300 42960 01810 10175 20110 3//// 40195 57009 333 555 91019;
0191683000999992000082318004-26630+015100FM-12+000099999V0201801N005112200019N0300001N1+01451+01171102091ADDAA199000091GA1001+999999999GF100991001001999999001001KA1120M+02051MD1310141+9999REMSYN080AAXX  23184 68300 32980 01810 10145 20117 3//// 40209 53014 333 10205 555 91020;EQDQ01  00002PRCP99
0142683000999992000082321004-26630+015100FM-12+000099999V0201801N005112200019N0040001N1+01361+01051102191ADDGA1001+999999999GF100991001001999999001001MD1310101+9999REMSYN074AAXX  23214 68300 42940 01810 10136 20105 3//// 40219 53010 333 555 91021;
0187683000999992000082400004-26630+015100FM-12+000099999V0201801N006212200019N0050001N1+01301+01011102271ADDAA199000091GA1001+999999999GF100991001001999999001001MA1999999102091MD1710101+9999REMSYN074AAXX  24004 68300 32950 01812 10130 20101 30209 40227 57010 333 555 91022;EQDQ01  00002PRCP99
0187683000999992000082403004-26630+015100FM-12+000099999V0201801N004112200019N0040001N1+01201+00901102271ADDAA199000091GA1001+999999999GF100991001001999999001001MA1999999102091MD1410001+9999REMSYN074AAXX  24034 68300 32940 01808 10120 20090 30209 40227 54000 333 555 91022;EQDQ01  00002PRCP99
0192683000999992000082409004-26630+015100FM-12+000099999V0201801N009312200019N0750001N1+01701+00841999999ADDGA1001+999999999GF100991001001999999001001MA1999999101162MD1210041+9999REMSYN074AAXX  24094 68300 42989 01818 10170 20084 30116 40134 52004 333 555 91013;EQDQ01+101163APOSP Q02+101343APOSLP
0191683000999992000082412004-26630+015100FM-12+000099999V0201801N012312200019N0100001N1+01981+00971101981ADDAA199000091GA1001+999999999GF100991001001999999001001KA1120N+01361MD1810181+9999REMSYN080AAXX  24124 68300 32960 01824 10198 20097 3//// 40198 58018 333 20136 555 91019;EQDQ01  00002PRCP99
0157683000999992000082415004-26630+015100FM-12+000099999V0201801N010312200019N0100001N1+01671+01051102121ADDGA1001+999999999GF100991001001999999001001MA1999999101941MD1710041+9999REMSYN074AAXX  24154 68300 42960 01820 10167 20105 30194 40212 57004 333 555 91021;
0206683000999992000082418004-26630+015100FM-12+000099999V0201801N007712200019N0300001N1+01481+00941102201ADDAA199000091GA1001+999999999GF100991001001999999001001KA1120M+02061MA1999999102021MD1210081+9999REMSYN080AAXX  24184 68300 32980 01815 10148 20094 30202 40220 52008 333 10206 555 91022;EQDQ01  00002PRCP99
0157683000999992000082421004-26630+015100FM-12+000099999V0201801N005112200019N0300001N1+01491+00971102191ADDGA1001+999999999GF100991001001999999001001MA1999999102011MD1510011+9999REMSYN074AAXX  24214 68300 42980 01810 10149 20097 30201 40219 55001 333 555 91021;
0157683000999992000082503004-26630+015100FM-12+000099999V0201801N008212200019N0040001N1+01301+01111102161ADDGA1001+999999999GF100991001001999999001001MA1999999101981MD1710091+9999REMSYN074AAXX  25034 68300 42940 01816 10130 20111 30198 40216 57009 333 555 91021;
0225683000999992000082506004-26630+015100FM-12+000099999V0201801N001512200019N0100001N1+01331+00781102061ADDAA199000091GA1001+999999999GF100991001001999999001001KA1240M+02061KA2120N+01231MA1999999101881MD1210031+9999REMSYN086AAXX  25064 68300 32960 01803 10133 20078 30188 40206 52003 333 20123 555 10206 91020;EQDQ01  00002PRCP99
0157683000999992000082509004-26630+015100FM-12+000099999V0201801N002612200019N0100001N1+01781+01011102081ADDGA1001+999999999GF100991001001999999001001MA1999999101901MD1210021+9999REMSYN074AAXX  25094 68300 42960 01805 10178 20101 30190 40208 52002 333 555 91020;
0206683000999992000082512004-26630+015100FM-12+000099999V0201801N009312200019N0750001N1+01951+01071101901ADDAA199000091GA1001+999999999GF100991001001999999001001KA1120N+01341MA1999999101721MD1810021+9999REMSYN080AAXX  25124 68300 32989 01818 10195 20107 30172 40190 58002 333 20134 555 91019;EQDQ01  00002PRCP99
0142683000999992000082515004-26630+015100FM-12+000099999V0201801N004112200019N0750001N1+01971+01111101521ADDGA1001+999999999GF100991001001999999001001MD1810201+9999REMSYN074AAXX  25154 68300 42989 01808 10197 20111 3//// 40152 58020 333 555 91015;
0191683000999992000082518004-26630+015100FM-12+000099999V0201801N004112200019N0750001N1+01621+01011101611ADDAA199000091GA1001+999999999GF100991001001999999001001KA1120M+02181MD1210091+9999REMSYN080AAXX  25184 68300 32989 01808 10162 20101 3//// 40161 52009 333 10218 555 91016;EQDQ01  00002PRCP99
0142683000999992000082521004-26630+015100FM-12+000099999V0201801N009312200019N0100001N1+01501+00941101711ADDGA1001+999999999GF100991001001999999001001MD1210101+9999REMSYN074AAXX  25214 68300 42960 01818 10150 20094 3//// 40171 52010 333 555 91017;
0187683000999992000082600004-26630+015100FM-12+000099999V0201801N004112200019N0300001N1+01301+00931101921ADDAA199000091GA1001+999999999GF100991001001999999001001MA1999999101741MD1210031+9999REMSYN074AAXX  26004 68300 32980 01808 10130 20093 30174 40192 52003 333 555 91019;EQDQ01  00002PRCP99
0175683000999992000082603004-26630+015100FM-12+000099999V0201801N005112200019N0040001N1+01201+01001101841ADDAY101031AY201031GF103991031061002501001001MA1999999101661MD1810081+9999MW1401REMSYN086AAXX  26034 68300 41340 31810 10120 20100 30166 40184 58008 74000 83600 333 555 91018;
0215683000999992000082606004-26630+015100FM-12+000099999V0201801N003112200019N0200001N1+01171+00991101971ADDAA199000091GF101991011061002501001001KA1240M+02181KA2120N+01151MA1999999101791MD1310131+9999REMSYN092AAXX  26064 68300 32370 11806 10117 20099 30179 40197 53013 81600 333 20115 555 10218 91019;EQDQ01  00002PRCP99
0157683000999992000082609004-26630+015100FM-12+000099999V0201801N005112200019N0750001N1+01751+00971102011ADDGA1001+999999999GF100991001001999999001001MA1999999101831MD1210041+9999REMSYN074AAXX  26094 68300 42989 01810 10175 20097 30183 40201 52004 333 555 91020;
0206683000999992000082612004-26630+015100FM-12+000099999V0201801N010312200019N0750001N1+01981+01061101771ADDAA199000091GA1001+999999999GF100991001001999999001001KA1120N+01181MA1999999101591MD1810241+9999REMSYN080AAXX  26124 68300 32989 01820 10198 20106 30159 40177 58024 333 20118 555 91017;EQDQ01  00002PRCP99
0142683000999992000082615004-26630+015100FM-12+000099999V0201801N012912200019N0100001N1+01641+01101101551ADDGA1001+999999999GF100991001001999999001001MD1710041+9999REMSYN074AAXX  26154 68300 42960 01825 10164 20110 3//// 40155 57004 333 555 91015;
0187683000999992000082700004-26630+015100FM-12+000099999V0201801N006212200019N0100001N1+01801+00371101951ADDAA199000091GA1001+999999999GF100991001001999999001001MA1999999101771MD1810081+9999REMSYN074AAXX  27004 68300 32960 01812 10180 20037 30177 40195 58008 333 555 91019;EQDQ01  00002PRCP99
0157683000999992000082703004-26630+015100FM-12+000099999V0201801N008212200019N0300001N1+01231+00971101931ADDGA1001+999999999GF100991001001999999001001MA1999999101751MD1710021+9999REMSYN074AAXX  27034 68300 42980 01816 10123 20097 30175 40193 57002 333 555 91019;
0157683000999992000082709004-26630+015100FM-12+000099999V0201801N003112200019N0750001N1+01921+00891102051ADDGA1001+999999999GF100991001001999999001001MA1999999101871MD1210051+9999REMSYN074AAXX  27094 68300 42989 01806 10192 20089 30187 40205 52005 333 555 91020;
0191683000999992000082712004-26630+015100FM-12+000099999V0201801N012912200019N0750001N1+01901+01071101691ADDAA199000091GA1001+999999999GF100991001001999999001001KA1120N+01301MD1810181+9999REMSYN080AAXX  27124 68300 32989 01825 10190 20107 3//// 40169 58018 333 20130 555 91016;EQDQ01  00002PRCP99
0142683000999992000082715004-26630+015100FM-12+000099999V0201801N013912200019N0750001N1+01801+01061101531ADDGA1001+999999999GF100991001001999999001001MD1710081+9999REMSYN074AAXX  27154 68300 42989 01827 10180 20106 3//// 40153 57008 333 555 91015;
0191683000999992000082718004-26630+015100FM-12+000099999V0201801N009312200019N0750001N1+01361+01071101641ADDAA199000091GA1001+999999999GF100991001001999999001001KA1120M+02101MD1310111+9999REMSYN080AAXX  27184 68300 32989 01818 10136 20107 3//// 40164 53011 333 10210 555 91016;EQDQ01  00002PRCP99
0142683000999992000082721004-26630+015100FM-12+000099999V0201801N009312200019N0100001N1+01361+01071101781ADDGA1001+999999999GF100991001001999999001001MD1210141+9999REMSYN074AAXX  27214 68300 42960 01818 10136 20107 3//// 40178 52014 333 555 91017;
0187683000999992000082800004-26630+015100FM-12+000099999V0201801N006212200019N0100001N1+01301+01011101901ADDAA199000091GA1001+999999999GF100991001001999999001001MA1999999101721MD1810061+9999REMSYN074AAXX  28004 68300 32960 01812 10130 20101 30172 40190 58006 333 555 91019;EQDQ01  00002PRCP99
0175683000999992000082803004-26630+015100FM-12+000099999V0201801N006212200019N0050001N1+01211+00851101841ADDAY141031AY221031GF101991011061000751001001MA1999999101661MD1710061+9999MW1401REMSYN086AAXX  28034 68300 41150 11812 10121 20085 30166 40184 57006 74042 81600 333 555 91018;
0225683000999992000082806004-26630+015100FM-12+000099999V0203601N001512200019N0750001N1+01161+00941102001ADDAA199000091GA1001+999999999GF100991001001999999001001KA1240M+02151KA2120N+01131MA1999999101821MD1310151+9999REMSYN086AAXX  28064 68300 32989 03603 10116 20094 30182 40200 53015 333 20113 555 10215 91020;EQDQ01  00002PRCP99
0191683000999992000082809004-26630+015100FM-12+000099999V0201801N007712200019N0750001N1+02001+01091101731ADDAA199000091GA1001+999999999GF100991001001999999001001KA1120N+01301MD1710081+9999REMSYN080AAXX  28094 68300 32989 01815 10200 20109 3//// 40173 57008 333 20130 555 91017;EQDQ01  00002PRCP99
0191683000999992000082812004-26630+015100FM-12+000099999V0201801N007712200019N0750001N1+02001+01091101731ADDAA199000091GA1001+999999999GF100991001001999999001001KA1120N+01301MD1710081+9999REMSYN080AAXX  28124 68300 32989 01815 10200 20109 3//// 40173 57008 333 20130 555 91017;EQDQ01  00002PRCP99
0157683000999992000082815004-26630+015100FM-12+000099999V0201801N013412200019N0750001N1+01901+01071101781ADDGA1001+999999999GF100991001001999999001001MA1999999101601MD1810131+9999REMSYN074AAXX  28154 68300 42989 01826 10190 20107 30160 40178 58013 333 555 91017;
0206683000999992000082818004-26630+015100FM-12+000099999V0201801N010312200019N0750001N1+01501+01021101871ADDAA199000091GA1001+999999999GF100991001001999999001001KA1120M+02201MA1999999101691MD1210091+9999REMSYN080AAXX  28184 68300 32989 01820 10150 20102 30169 40187 52009 333 10220 555 91018;EQDQ01  00002PRCP99
0157683000999992000082821004-26630+015100FM-12+000099999V0201801N004112200019N0300001N1+01451+01071101971ADDGA1001+999999999GF100991001001999999001001MA1999999101791MD1310091+9999REMSYN074AAXX  28214 68300 42980 01808 10145 20107 30179 40197 53009 333 555 91019;
0190683000999992000082900004-26630+015100FM-12+000099999V0201801N004112200019N0040001N1+01261+01011101771ADDAA199000091AY141061AY241061GF102991021061001501001001MD1810021+9999MW1401REMSYN086AAXX  29004 68300 31240 21808 10126 20101 3//// 40177 58002 74044 82600 333 555 91017;EQDQ01  00002PRCP99
0160683000999992000082903004-26630+015100FM-12+000099999V0201801N004112200019N0050001N1+01151+00931101741ADDAY141031AY241031GF101991011061001501001001MD1710031+9999MW1401REMSYN086AAXX  29034 68300 41250 11808 10115 20093 3//// 40174 57003 74044 81600 333 555 91017;
0210683000999992000082906004-26630+015100FM-12+000099999V0201801N004112200019N0750001N1+01121+00941101771ADDAA199000091GA1001+999999999GF100991001001999999001001KA1240M+02201KA2120N+01121MD1210031+9999REMSYN086AAXX  29064 68300 32989 01808 10112 20094 3//// 40177 52003 333 20112 555 10220 91017;EQDQ01  00002PRCP99
0157683000999992000082909004-26630+015100FM-12+000099999V0201801N007712200019N0100001N1+01661+01381102091ADDGA1001+999999999GF100991001001999999001001MA1999999101911MD1310141+9999REMSYN074AAXX  29094 68300 42960 01815 10166 20138 30191 40209 53014 333 555 91020;
0206683000999992000082912004-26630+015100FM-12+000099999V0201801N012912200019N0100001N1+01971+01491101921ADDAA199000091GA1001+999999999GF100991001001999999001001KA1120N+01141MA1999999101741MD1810181+9999REMSYN080AAXX  29124 68300 32960 01825 10197 20149 30174 40192 58018 333 20114 555 91019;EQDQ01  00002PRCP99
0157683000999992000082915004-26630+015100FM-12+000099999V0201601N009312200019N0100001N1+01601+01511101741ADDGA1001+999999999GF100991001001999999001001MA1999999101561MD1710181+9999REMSYN074AAXX  29154 68300 42960 01618 10160 20151 30156 40174 57018 333 555 91017;
0206683000999992000082918004-26630+015100FM-12+000099999V0201601N005112200019N0300001N1+01451+00541101851ADDAA199000091GA1001+999999999GF100991001001999999001001KA1120M+02201MA1999999101671MD1210111+9999REMSYN080AAXX  29184 68300 32980 01610 10145 20054 30167 40185 52011 333 10220 555 91018;EQDQ01  00002PRCP99
0157683000999992000082921004-26630+015100FM-12+000099999V0201601N003612200019N0300001N1+01401+01021101941ADDGA1001+999999999GF100991001001999999001001MA1999999101761MD1310091+9999REMSYN074AAXX  29214 68300 42980 01607 10140 20102 30176 40194 53009 333 555 91019;
0142683000999992000083003004-26630+015100FM-12+000099999V0201801N004112200019N0100001N1+01211+00991101661ADDGA1001+999999999GF100991001001999999001001MD1710081+9999REMSYN074AAXX  30034 68300 42960 01808 10121 20099 3//// 40166 57008 333 555 91016;
0200683000999992000083006004-26630+015100FM-12+000099999V0200901N001510006019N0100001N1+01241+00941101721ADDAA199000091GF105991051051000751001001KA1240M+02101KA2120N+01161MD1210061+9999REMSYN092AAXX  30064 68300 32160 50903 10124 20094 3//// 40172 52006 85500 333 20116 555 10210 91017;EQDQ01  00002PRCP99
0147683000999992000083009004-26630+015100FM-12+000099999V0200901N005112200019N0100001N1+02201+01231101821ADDGF101991011051000751001001MA1999999101641MD1710081+9999REMSYN080AAXX  30094 68300 42160 10910 10220 20123 30164 40182 57008 81500 333 555 91018;
0206683000999992000083012004-26630+015100FM-12+000099999V0201801N010312200019N0750001N1+02301+01501101581ADDAA199000091GA1001+999999999GF100991001001999999001001KA1120N+01221MA1999999101401MD1810201+9999REMSYN080AAXX  30124 68300 32989 01820 10230 20150 30140 40158 58020 333 20122 555 91015;EQDQ01  00002PRCP99
0157683000999992000083015004-26630+015100FM-12+000099999V0201801N013412200019N0750001N1+01901+01381101501ADDGA1001+999999999GF100991001001999999001001MA1999999101321MD1710081+9999REMSYN074AAXX  30154 68300 42989 01826 10190 20138 30132 40150 57008 333 555 91015;
0206683000999992000083018004-26630+015100FM-12+000099999V0201801N010312200019N0750001N1+01451+01171101671ADDAA199000091GA1001+999999999GF100991001001999999001001KA1120M+02451MA1999999101491MD1210031+9999REMSYN080AAXX  30184 68300 32989 01820 10145 20117 30149 40167 52003 333 10245 555 91016;EQDQ01  00002PRCP99
0157683000999992000083021004-26630+015100FM-12+000099999V0201801N003112200019N0200001N1+01301+01111101761ADDGA1001+999999999GF100991001001999999001001MA1999999101581MD1310091+9999REMSYN074AAXX  30214 68300 42970 01806 10130 20111 30158 40176 53009 333 555 91017;
0172683000999992000083100004-26630+015100FM-12+000099999V0201801N004112200019N0100001N1+01231+00891101671ADDAA199000091GA1001+999999999GF100991001001999999001001MD1210091+9999REMSYN074AAXX  31004 68300 32960 01808 10123 20089 3//// 40167 52009 333 555 91016;EQDQ01  00002PRCP99
0160683000999992000083103004-26630+015100FM-12+000099999V0201801N004112200019N0040001N1+01121+00941101511ADDAY101031AY201031GF103991031061000751001001MD1810171+9999MW1401REMSYN086AAXX  31034 68300 41140 31808 10112 20094 3//// 40151 58017 74000 83600 333 555 91015;
0228683000999992000083106004-26630+015100FM-12+000099999V0200901N005112200019N0100001N1+01161+01101101621ADDAA199000091AY141061AY241061GF103991031061008001001001KA1240M+02451KA2120N+01141MD1210091+9999MW1401REMSYN098AAXX  31064 68300 31560 30910 10116 20110 3//// 40162 52009 74044 83600 333 20114 555 10245 91016;EQDQ01  00002PRCP99
0206683000999992000083109004-26630+015100FM-12+000099999V0201801N010312200019N0300001N1+01931+01351101631ADDAA199000091GA1001+999999999GF100991001001999999001001KA1120N+01201MA1999999101451MD1810211+9999REMSYN080AAXX  31094 68300 32980 01820 10193 20135 30145 40163 58021 333 20120 555 91016;EQDQ01  00002PRCP99
0157683000999992000083115004-26630+015100FM-12+000099999V0201801N013412200019N0300001N1+01801+01361101551ADDGA1001+999999999GF100991001001999999001001MA1999999101371MD1710081+9999REMSYN074AAXX  31154 68300 42980 01826 10180 20136 30137 40155 57008 333 555 91015;
0206683000999992000083118004-26630+015100FM-12+000099999V0201801N003112200019N0300001N1+01551+01181101691ADDAA199000091GA1001+999999999GF100991001001999999001001KA1120M+02351MA1999999101511MD1210141+9999REMSYN080AAXX  31184 68300 32980 01806 10155 20118 30151 40169 52014 333 10235 555 91016;EQDQ01  00002PRCP99
0157683000999992000083121004-26630+015100FM-12+000099999V0201801N005112200019N0300001N1+01301+01111101761ADDGA1001+999999999GF100991001001999999001001MA1999999101581MD1310071+9999REMSYN074AAXX  31214 68300 42980 01810 10130 20111 30158 40176 53007 333 555 91017;
0205683000999992000090100004-26630+015100FM-12+000099999V0201801N004112200019N0040001N1+01081+01001101741ADDAA199000091AY121061AY221061GF102991021061000751001001MA1999999101561MD1810021+9999MW1401REMSYN086AAXX  01004 68300 31140 21808 10108 20100 30156 40174 58002 74022 82600 333 555 91017;EQDQ01  00002PRCP99
0177683000999992000090103004-26630+015100FM-12+000099999V0201801N003112200019N0040001N1+01101+01021101621ADDAA199000091GF104991041061000751001001MA1999999101441MD1710121+9999REMSYN080AAXX  01034 68300 32140 41806 10110 20102 30144 40162 57012 84600 333 555 91016;EQDQ01  00002PRCP99
0225683000999992000090106004-26630+015100FM-12+000099999V0202301N001512200019N0200001N1+01051+00951101651ADDAA199000091GA1001+999999999GF100991001001999999001001KA1240M+02251KA2120N+01051MA1999999101471MD1210031+9999REMSYN086AAXX  01064 68300 32970 02303 10105 20095 30147 40165 52003 333 20105 555 10225 91016;EQDQ01  00002PRCP99
0157683000999992000090109004-26630+015100FM-12+000099999V0201801N001512200019N0750001N1+01651+01191101671ADDGA1001+999999999GF100991001001999999001001MA1999999101491MD1310021+9999REMSYN074AAXX  01094 68300 42989 01803 10165 20119 30149 40167 53002 333 555 91016;
0206683000999992000090112004-26630+015100FM-12+000099999V0201801N003112200019N0750001N1+01901+01281101441ADDAA199000091GA1001+999999999GF100991001001999999001001KA1120N+01001MA1999999101261MD1710231+9999REMSYN080AAXX  01124 68300 32989 01806 10190 20128 30126 40144 57023 333 20100 555 91014;EQDQ01  00002PRCP99
0157683000999992000090115004-26630+015100FM-12+000099999V0201801N001512200019N0200001N1+01601+01241101481ADDGA1001+999999999GF100991001001999999001001MA1999999101301MD1210041+9999REMSYN074AAXX  01154 68300 42970 01803 10160 20124 30130 40148 52004 333 555 91014;
0206683000999992000090118004-26630+015100FM-12+000099999V0201801N005112200019N0300001N1+01421+01241101551ADDAA199000091GA1001+999999999GF100991001001999999001001KA1120M+02321MA1999999101371MD1210071+9999REMSYN080AAXX  01184 68300 32980 01810 10142 20124 30137 40155 52007 333 10232 555 91015;EQDQ01  00002PRCP99
0147683000999992000090121004-26630+015100FM-12+000099999V0201801N003119999999N0200001N1+01321+01171101751ADDGF108991081061999999001001MA1999999101571MD1310111+9999REMSYN080AAXX  01214 68300 42970 81806 10132 20117 30157 40175 53011 88600 333 555 91017;
0205683000999992000090200004-26630+015100FM-12+000099999V0201801N001510006019N0050001N1+01291+01141101611ADDAA199000091AY121061AY221061GF108991081061000751999999MA1999999101431MD1810101+9999MW1401REMSYN086AAXX  02004 68300 31150 81803 10129 20114 30143 40161 58010 74022 886// 333 555 91016;EQDQ01  00002PRCP99
0175683000999992000090203004-26630+015100FM-12+000099999V0201801N003110003019N0050001N1+01261+00991101641ADDAY121031AY221031GF108991081061000251999999MA1999999101461MD1210071+9999MW1401REMSYN086AAXX  02034 68300 41050 81806 10126 20099 30146 40164 52007 74022 886// 333 555 91016;
0215683000999992000090206004-26630+015100FM-12+000099999V0201801N006710006019N0200001N1+01301+01111101731ADDAA199000091GF106991061061000751001001KA1240M+02351KA2120N+01061MA1999999101551MD1310091+9999REMSYN092AAXX  02064 68300 32170 61813 10130 20111 30155 40173 53009 86600 333 20106 555 10235 91017;EQDQ01  00002PRCP99
0206683000999992000090212004-26630+015100FM-12+000099999V0202701N001512200019N0200001N1+01851+01321101761ADDAA199000091GA1001+999999999GF100991001001999999001001KA1120N+01351MA1999999101581MD1210101+9999REMSYN080AAXX  02124 68300 32970 02703 10185 20132 30158 40176 52010 333 20135 555 91017;EQDQ01  00002PRCP99
0157683000999992000090215004-26630+015100FM-12+000099999V0202701N001512200019N0200001N1+01601+01501101721ADDGA1001+999999999GF100991001001999999001001MA1999999101541MD1210031+9999REMSYN074AAXX  02154 68300 42970 02703 10160 20150 30154 40172 52003 333 555 91017;
0187683000999992000090300004-26630+015100FM-12+000099999V0203601N001512200019N0100001N1+01251+01141101961ADDAA199000091GA1001+999999999GF100991001001999999001001MA1999999101781MD1310111+9999REMSYN074AAXX  03004 68300 32960 03603 10125 20114 30178 40196 53011 333 555 91019;EQDQ01  00002PRCP99
0143683000999992000090303004-26630+015100FM-12+000099999V0203601N001510021019N0100001N1+01281+00921101871ADDGF106991061061002501001001MA1999999101691MD1810111+9999REMSYN076AAXX  03034 68300 42360 63603 10128 20092 30169 40187 58011 86600 555 91018;
0225683000999992000090306004-26630+015100FM-12+000099999V0201801N001512200019N0200001N1+01401+01021101991ADDAA199000091GA1001+999999999GF100991001001999999001001KA1240M+01951KA2120N+01351MA1999999101811MD1210281+9999REMSYN086AAXX  03064 68300 32970 01803 10140 20102 30181 40199 52028 333 20135 555 10195 91019;EQDQ01  00002PRCP99
0206683000999992000090312004-26630+015100FM-12+000099999V0201801N005112200019N0200001N1+01901+00961101861ADDAA199000091GA1001+999999999GF100991001001999999001001KA1120N+01301MA1999999101681MD1710221+9999REMSYN080AAXX  03124 68300 32970 01810 10190 20096 30168 40186 57022 333 20130 555 91018;EQDQ01  00002PRCP99
0157683000999992000090315004-26630+015100FM-12+000099999V0201801N008212200019N0300001N1+01601+01031101781ADDGA1001+999999999GF100991001001999999001001MA1999999101601MD1810081+9999REMSYN074AAXX  03154 68300 42980 01816 10160 20103 30160 40178 58008 333 555 91017;
0206683000999992000090318004-26630+015100FM-12+000099999V0201801N010312200019N0300001N1+01401+00801101901ADDAA199000091GA1001+999999999GF100991001001999999001001KA1120M+02051MA1999999101721MD1310121+9999REMSYN080AAXX  03184 68300 32980 01820 10140 20080 30172 40190 53012 333 10205 555 91019;EQDQ01  00002PRCP99
0157683000999992000090321004-26630+015100FM-12+000099999V0201801N007712200019N0300001N1+01731+00231102021ADDGA1001+999999999GF100991001001999999001001MA1999999101841MD1310121+9999REMSYN074AAXX  03214 68300 42980 01815 10173 20023 30184 40202 53012 333 555 91020;
0187683000999992000090400004-26630+015100FM-12+000099999V0201801N005112200019N0100001N1+01261+00701101961ADDAA199000091GA1001+999999999GF100991001001999999001001MA1999999101781MD1710061+9999REMSYN074AAXX  04004 68300 32960 01810 10126 20070 30178 40196 57006 333 555 91019;EQDQ01  00002PRCP99
0157683000999992000090403004-26630+015100FM-12+000099999V0201801N005112200019N0200001N1+01221+00551101891ADDGA1001+999999999GF100991001001999999001001MA1999999101711MD1610071+9999REMSYN074AAXX  04034 68300 42970 01810 10122 20055 30171 40189 56007 333 555 91018;
0225683000999992000090406004-26630+015100FM-12+000099999V0201801N008212200019N0200001N1+01201+00421101931ADDAA199000091GA1001+999999999GF100991001001999999001001KA1240M+02051KA2120N+01151MA1999999101751MD1210011+9999REMSYN086AAXX  04064 68300 32970 01816 10120 20042 30175 40193 52001 333 20115 555 10205 91019;EQDQ01  00002PRCP99
0142683000999992000090409004-26630+015100FM-12+000099999V0201801N008212200019N0200001N1+01701+00691101751ADDGA1001+999999999GF100991001001999999001001MD1310031+9999REMSYN074AAXX  04094 68300 42970 01816 10170 20069 3//// 40175 53003 333 555 91017;
0191683000999992000090412004-26630+015100FM-12+000099999V0201801N009312200019N0100001N1+01851+00771101601ADDAA199000091GA1001+999999999GF100991001001999999001001KA1120N+01301MD1710151+9999REMSYN080AAXX  04124 68300 32960 01818 10185 20077 3//// 40160 57015 333 20130 555 91016;EQDQ01  00002PRCP99
0157683000999992000090415004-26630+015100FM-12+000099999V0201801N013412200019N0100001N1+01691+00761101791ADDGA1001+999999999GF100991001001999999001001MA1999999101611MD1310011+9999REMSYN074AAXX  04154 68300 42960 01826 10169 20076 30161 40179 53001 333 555 91017;
0206683000999992000090418004-26630+015100FM-12+000099999V0201801N009312200019N0100001N1+01351+00761102051ADDAA199000091GA1001+999999999GF100991001001999999001001KA1120M+02101MA1999999101871MD1210261+9999REMSYN080AAXX  04184 68300 32960 01818 10135 20076 30187 40205 52026 333 10210 555 91020;EQDQ01  00002PRCP99
0157683000999992000090500004-26630+015100FM-12+000099999V0201801N005112200019N0100001N1+01201+00601102071ADDGA1001+999999999GF100991001001999999001001MA1999999101891MD1410001+9999REMSYN074AAXX  05004 68300 42960 01810 10120 20060 30189 40207 54000 333 555 91020;
0142683000999992000090503004-26630+015100FM-12+000099999V0201801N001512200019N0100001N1+01121+00511101771ADDGA1001+999999999GF100991001001999999001001MD1810121+9999REMSYN074AAXX  05034 68300 42960 01803 10112 20051 3//// 40177 58012 333 555 91017;
0210683000999992000090506004-26630+015100FM-12+000099999V0201801N003112200019N0100001N1+01151+00491101851ADDAA199000091GA1001+999999999GF100991001001999999001001KA1240M+02101KA2120N+01051MD1310051+9999REMSYN086AAXX  05064 68300 32960 01806 10115 20049 3//// 40185 53005 333 20105 555 10210 91018;EQDQ01  00002PRCP99
0157683000999992000090509004-26630+015100FM-12+000099999V0201801N001012200019N0200001N1+01851+00771102101ADDGA1001+999999999GF100991001001999999001001MA1999999101921MD1310101+9999REMSYN074AAXX  05094 68300 42970 01802 10185 20077 30192 40210 53010 333 555 91021;
0206683000999992000090512004-26630+015100FM-12+000099999V0201801N003112200019N0750001N1+01951+01021101891ADDAA199000091GA1001+999999999GF100991001001999999001001KA1120N+01201MA1999999101711MD1710241+9999REMSYN080AAXX  05124 68300 32989 01806 10195 20102 30171 40189 57024 333 20120 555 91018;EQDQ01  00002PRCP99
0157683000999992000090515004-26630+015100FM-12+000099999V0201801N011312200019N0200001N1+01681+00911101771ADDGA1001+999999999GF100991001001999999001001MA1999999101591MD1710121+9999REMSYN074AAXX  05154 68300 42970 01822 10168 20091 30159 40177 57012 333 555 91017;
0206683000999992000090518004-26630+015100FM-12+000099999V0201801N009312200019N0300001N1+01401+00931101931ADDAA199000091GA1001+999999999GF100991001001999999001001KA1120M+02121MA1999999101751MD1310161+9999REMSYN080AAXX  05184 68300 32980 01818 10140 20093 30175 40193 53016 333 10212 555 91019;EQDQ01  00002PRCP99
0157683000999992000090521004-26630+015100FM-12+000099999V0201801N001512200019N0300001N1+01301+01011102031ADDGA1001+999999999GF100991001001999999001001MA1999999101851MD1310101+9999REMSYN074AAXX  05214 68300 42980 01803 10130 20101 30185 40203 53010 333 555 91020;
0157683000999992000090615004-26630+015100FM-12+000099999V0201801N012312200019N0100001N1+01791+01021101711ADDGA1001+999999999GF100991001001999999001001MA1999999101531MD1210121+9999REMSYN074AAXX  06154 68300 42960 01824 10179 20102 30153 40171 52012 333 555 91017;
0206683000999992000090618004-26630+015100FM-12+000099999V0201801N009312200019N0100001N1+01521+00961101821ADDAA199000091GA1001+999999999GF100991001001999999001001KA1120M+02001MA1999999101641MD1310111+9999REMSYN080AAXX  06184 68300 32960 01818 10152 20096 30164 40182 53011 333 10200 555 91018;EQDQ01  00002PRCP99
0157683000999992000090621004-26630+015100FM-12+000099999V0201801N007712200019N0100001N1+01481+00941101861ADDGA1001+999999999GF100991001001999999001001MA1999999101681MD1210041+9999REMSYN074AAXX  06214 68300 42960 01815 10148 20094 30168 40186 52004 333 555 91018;
0172683000999992000090700004-26630+015100FM-12+000099999V0201801N010312200019N0100001N1+01421+00891101601ADDAA199000091GA1001+999999999GF100991001001999999001001MD1710081+9999REMSYN074AAXX  07004 68300 32960 01820 10142 20089 3//// 40160 57008 333 555 91016;EQDQ01  00002PRCP99
0142683000999992000090703004-26630+015100FM-12+000099999V0201801N007712200019N0100001N1+01401+00771101411ADDGA1001+999999999GF100991001001999999001001MD1810191+9999REMSYN074AAXX  07034 68300 42960 01815 10140 20077 3//// 40141 58019 333 555 91014;
0200683000999992000090706004-26630+015100FM-12+000099999V0201601N004112200019N0750001N1+01451+01451101451ADDAA199000091GF104991041061999999001001KA1240M+02001KA2120N+01301MD1210041+9999REMSYN092AAXX  07064 68300 32989 41608 10145 20145 3//// 40145 52004 84600 333 20130 555 10200 91015;EQDQ01  00002PRCP99
0157683000999992000090709004-26630+015100FM-12+000099999V0201801N005112200019N0750001N1+01951+01131101591ADDGA1001+999999999GF100991001001999999001001MA1999999101411MD1710041+9999REMSYN074AAXX  07094 68300 42989 01810 10195 20113 30141 40159 57004 333 555 91015;
0206683000999992000090712004-26630+015100FM-12+000099999V0201801N013912200019N0200001N1+02201+01121101301ADDAA199000091GA1001+999999999GF100991001001999999001001KA1120N+01451MA1999999101121MD1810291+9999REMSYN080AAXX  07124 68300 32970 01827 10220 20112 30112 40130 58029 333 20145 555 91013;EQDQ01  00002PRCP99
0157683000999992000090715004-26630+015100FM-12+000099999V0201801N011312200019N0200001N1+02051+01131101091ADDGA1001+999999999GF100991001001999999001001MA1999999100911MD1710211+9999REMSYN074AAXX  07154 68300 42970 01822 10205 20113 30091 40109 57021 333 555 91010;
0206683000999992000090718004-26630+015100FM-12+000099999V0201801N008212200019N0200001N1+01751+00931101111ADDAA199000091GA1001+999999999GF100991001001999999001001KA1120M+02331MA1999999100931MD1310021+9999REMSYN080AAXX  07184 68300 32970 01816 10175 20093 30093 40111 53002 333 10233 555 91011;EQDQ01  00002PRCP99
0157683000999992000090721004-26630+015100FM-12+000099999V0201801N003112200019N0200001N1+01501+00801101161ADDGA1001+999999999GF100991001001999999001001MA1999999100981MD1210051+9999REMSYN074AAXX  07214 68300 42970 01806 10150 20080 30098 40116 52005 333 555 91011;
0238683000999992000090806004-26630+015100FM-12+000099999V0203601N004612200019N0050001N1+01341+00861100881ADDAA199000091AY141061AY241061GA1001+999999999GF100991001001999999001001KA1240M+02351KA2120N+01201MD1210061+9999MW1401REMSYN092AAXX  08064 68300 31950 03609 10134 20086 3//// 40088 52006 74044 333 20120 555 10235 91008;EQDQ01  00002PRCP99
0175683000999992000090815004-26630+015100FM-12+000099999V0203601N005110042019N0100001N1+01201+01161101251ADDAY141031AY241031GF108991081061004501999999MA1999999101071MD1810011+9999MW1471REMSYN086AAXX  08154 68300 41460 83610 10120 20116 30107 40125 58001 74744 886// 333 555 91012;
0224683000999992000090818004-26630+015100FM-12+000099999V0203601N006210006019N0100001N1+01221+01111101291ADDAA199000091AY141061AY241061GF108991081061000751999999KA1120M+01381MA1999999101111MD1310041+9999MW1451REMSYN092AAXX  08184 68300 31160 83612 10122 20111 30111 40129 53004 74544 886// 333 10138 555 91012;EQDQ01  00002PRCP99
0157683000999992000090821004-26630+015100FM-12+000099999V0203601N005112200019N0200001N1+01251+01161101571ADDGA1001+999999999GF100991001001999999001001MA1999999101391MD1210291+9999REMSYN074AAXX  08214 68300 42970 03610 10125 20116 30139 40157 52029 333 555 91015;
0185683000999992000090903004-26630+015100FM-12+000099999V0203601N005112200019N0040001N1+01201+01001101641ADDAY141031AY241031GA1001+999999999GF100991001001999999001001MA1999999101461MD1810031+9999MW1401REMSYN080AAXX  09034 68300 41940 03610 10120 20100 30146 40164 58003 74044 333 555 91016;
0243683000999992000090906004-26630+015100FM-12+000099999V0202701N003110006019N0030001N1+01251+01161101761ADDAA199000091AY141061AY241061GF108991081061000751999999KA1240M+02401KA2120N+01201MA1999999101581MD1210081+9999MW1451REMSYN098AAXX  09064 68300 31130 82706 10125 20116 30158 40176 52008 74544 886// 333 20120 555 10240 91017;EQDQ01  00002PRCP99
0147683000999992000090915004-26630+015100FM-12+000099999V0202701N004110900019N0300001N1+01701+01001101681ADDGF105991011051004501031021MA1999999101501MD1710031+9999REMSYN080AAXX  09154 68300 42480 52708 10170 20100 30150 40168 57003 81532 333 555 91016;
0224683000999992000090918004-26630+015100FM-12+000099999V0202301N004112200019N0100001N1+01401+01021101861ADDAA199000091AY101061AY201061GF103991011061008001001011KA1120M+01761MA1999999101681MD1310181+9999MW1401REMSYN092AAXX  09184 68300 31560 32308 10140 20102 30168 40186 53018 74000 81601 333 10176 555 91018;EQDQ01  00002PRCP99
0187683000999992000090921004-26630+015100FM-12+000099999V0201801N003112200019N0200001N1+01321+00991102041ADDAA199000091GA1001+999999999GF100991001001999999001001MA1999999101861MD1210181+9999REMSYN074AAXX  09214 68300 32970 01806 10132 20099 30186 40204 52018 333 555 91020;EQDQ01  00002PRCP99
0187683000999992000091000004-26630+015100FM-12+000099999V0201801N001512200019N0050001N1+01251+00951102161ADDAA199000091GA1001+999999999GF100991001001999999001001MA1999999101981MD1210121+9999REMSYN074AAXX  10004 68300 32950 01803 10125 20095 30198 40216 52012 333 555 91021;EQDQ01  00002PRCP99
0157683000999992000091003004-26630+015100FM-12+000099999V0201801N001512200019N0050001N1+01151+01051102191ADDGA1001+999999999GF100991001001999999001001MA1999999102011MD1210021+9999REMSYN074AAXX  10034 68300 42950 01803 10115 20105 30201 40219 52002 333 555 91021;
0225683000999992000091006004-26630+015100FM-12+000099999V0201301N001512200019N0750001N1+01521+00531102341ADDAA199000091GA1001+999999999GF100991001001999999001001KA1240M+01761KA2120N+01081MA1999999102161MD1310151+9999REMSYN086AAXX  10064 68300 32989 01303 10152 20053 30216 40234 53015 333 20108 555 10176 91023;EQDQ01  00002PRCP99
0206683000999992000091012004-26630+015100FM-12+000099999V0201301N014412200019N0750001N1+02001+01091102101ADDAA199000091GA1001+999999999GF100991001001999999001001KA1120N+01301MA1999999101921MD1810181+9999REMSYN080AAXX  10124 68300 32989 01328 10200 20109 30192 40210 58018 333 20130 555 91021;EQDQ01  00002PRCP99
0224683000999992000091018004-26630+015100FM-12+000099999V0201801N009312200019N0100001N1+01541+01011102041ADDAA199000091AY141061AY221061GF101991011061002501001001KA1120M+02251MA1999999101861MD1810071+9999MW1401REMSYN092AAXX  10184 68300 31360 11818 10154 20101 30186 40204 58007 74042 81600 333 10225 555 91020;EQDQ01  00002PRCP99
0142683000999992000091021004-26630+015100FM-12+000099999V0201801N007712200019N0050001N1+01471+00831101941ADDGA1001+999999999GF100991001001999999001001MD1310091+9999REMSYN074AAXX  10214 68300 42950 01815 10147 20083 3//// 40194 53009 333 555 91019;
0172683000999992000091100004-26630+015100FM-12+000099999V0201801N005112200019N0050001N1+01301+01211101791ADDAA199000091GA1001+999999999GF100991001001999999001001MD1810151+9999REMSYN074AAXX  11004 68300 32950 01810 10130 20121 3//// 40179 58015 333 555 91017;EQDQ01  00002PRCP99
0132683000999992000091103004-26630+015100FM-12+000099999V0201801N003112200019N0100001N1+01151+01051101551ADDGF101991011061001501001001MD1710191+9999REMSYN080AAXX  11034 68300 42260 11806 10115 20105 3//// 40155 57019 81600 333 555 91015;
0210683000999992000091106004-26630+015100FM-12+000099999V0201801N001512200019N0550001N1+01201+01001101531ADDAA199000091GA1001+999999999GF100991001001999999001001KA1240M+02251KA2120N+01201MD1210021+9999REMSYN086AAXX  11064 68300 32985 01803 10120 20100 3//// 40153 52002 333 20120 555 10225 91015;EQDQ01  00002PRCP99
0157683000999992000091109004-26630+015100FM-12+000099999V0201801N003112200019N0750001N1+02061+00681101651ADDGA1001+999999999GF100991001001999999001001MA1999999101471MD1710061+9999REMSYN074AAXX  11094 68300 42989 01806 10206 20068 30147 40165 57006 333 555 91016;
0157683000999992000091115004-26630+015100FM-12+000099999V0201801N008212200019N0100001N1+02391+00791101201ADDGA1001+999999999GF100991001001999999001001MA1999999101031MD1710151+9999REMSYN074AAXX  11154 68300 42960 01816 10239 20079 30103 40120 57015 333 555 91012;
0206683000999992000091118004-26630+015100FM-12+000099999V0201801N004112200019N0750001N1+01851+00851101241ADDAA199000091GA1001+999999999GF100991001001999999001001KA1120M+02751MA1999999101061MD1310031+9999REMSYN080AAXX  11184 68300 32989 01808 10185 20085 30106 40124 53003 333 10275 555 91012;EQDQ01  00002PRCP99
0187683000999992000091200004-26630+015100FM-12+000099999V0201801N001512200019N0100001N1+01751+00881101361ADDAA199000091GA1001+999999999GF100991001001999999001001MA1999999101181MD1210121+9999REMSYN074AAXX  12004 68300 32960 01803 10175 20088 30118 40136 52012 333 555 91013;EQDQ01  00002PRCP99
0157683000999992000091203004-26630+015100FM-12+000099999V0201801N001512200019N0100001N1+01351+00741101261ADDGA1001+999999999GF100991001001999999001001MA1999999101081MD1710101+9999REMSYN074AAXX  12034 68300 42960 01803 10135 20074 30108 40126 57010 333 555 91012;
0225683000999992000091206004-26630+015100FM-12+000099999V0203601N001512200019N0750001N1+01151+01031101391ADDAA199000091GA1001+999999999GF100991001001999999001001KA1240M+02741KA2120N+01091MA1999999101211MD1310101+9999REMSYN086AAXX  12064 68300 32989 03603 10115 20103 30121 40139 53010 333 20109 555 10274 91013;EQDQ01  00002PRCP99
0157683000999992000091209004-26630+015100FM-12+000099999V0203601N003112200019N0750001N1+01541+01091101631ADDGA1001+999999999GF100991001001999999001001MA1999999101451MD1310231+9999REMSYN074AAXX  12094 68300 42989 03606 10154 20109 30145 40163 53023 333 555 91016;
0196683000999992000091212004-26630+015100FM-12+000099999V0201801N005112200019N0750001N1+01751+01101101581ADDAA199000091GF101991011041017501001001KA1120N+01161MA1999999101401MD1710051+9999REMSYN086AAXX  12124 68300 32789 11810 10175 20110 30140 40158 57005 81400 333 20116 555 91015;EQDQ01  00002PRCP99
0132683000999992000091215004-26630+015100FM-12+000099999V0201801N005112200019N0750001N1+01701+01111101411ADDGF101991011041012501001001MD1310011+9999REMSYN080AAXX  12154 68300 42689 11810 10170 20111 3//// 40141 53001 81400 333 555 91014;
0181683000999992000091218004-26630+015100FM-12+000099999V0201801N005110075019N0300001N1+01511+01011101471ADDAA199000091GF106991061051008001999999KA1120M+01831MD1210061+9999REMSYN086AAXX  12184 68300 32580 61810 10151 20101 3//// 40147 52006 865// 333 10183 555 91014;EQDQ01  00002PRCP99
0142683000999992000091221004-26630+015100FM-12+000099999V0201801N005112200019N0100001N1+01481+00941101421ADDGA1001+999999999GF100991001001999999001001MD1710051+9999REMSYN074AAXX  12214 68300 42960 01810 10148 20094 3//// 40142 57005 333 555 91014;
0187683000999992000091300004-26630+015100FM-12+000099999V0201801N003112200019N0100001N1+01581+01051101561ADDAA199000091GA1001+999999999GF100991001001999999001001MA1999999101381MD1810041+9999REMSYN074AAXX  13004 68300 32960 01806 10158 20105 30138 40156 58004 333 555 91015;EQDQ01  00002PRCP99
0157683000999992000091303004-26630+015100FM-12+000099999V0201801N006212200019N0100001N1+01431+00881101371ADDGA1001+999999999GF100991001001999999001001MA1999999101191MD1310191+9999REMSYN074AAXX  13034 68300 42960 01812 10143 20088 30119 40137 53019 333 555 91013;
0215683000999992000091306004-26630+015100FM-12+000099999V0201801N004110075019N0750001N1+01451+00861101541ADDAA199000091GF108991081061008001999999KA1240M+01801KA2120N+01351MA1999999101361MD1310161+9999REMSYN092AAXX  13064 68300 32589 81808 10145 20086 30136 40154 53016 886// 333 20135 555 10180 91015;EQDQ01  00002PRCP99
0132683000999992000091315004-26630+015100FM-12+000099999V0202301N008210042019N0300001N1+01481+00941101521ADDGF108991081071004501999999MD1210161+9999REMSYN080AAXX  13154 68300 42480 82316 10148 20094 3//// 40152 52016 887// 333 555 91015;
0142683000999992000091321004-26630+015100FM-12+000099999V0202301N005112200019N0050001N1+01451+00741101871ADDGA1001+999999999GF100991001001999999001001MD1310081+9999REMSYN074AAXX  13214 68300 42950 02310 10145 20074 3//// 40187 53008 333 555 91018;
0177683000999992000091403004-26630+015100FM-12+000099999V0202301N010312200019N0300001N1+01251+00001102231ADDAA199000091GF101991011061001501001001MA1999999102051MD1310051+9999REMSYN080AAXX  14034 68300 32280 12320 10125 20000 30205 40223 53005 81600 333 555 91022;EQDQ01  00002PRCP99
0225683000999992000091406004-26630+015100FM-12+000099999V0201501N014412200019N0750001N1+01301+00281102321ADDAA199000091GA1001+999999999GF100991001001999999001001KA1240M+01901KA2120N+01201MA1999999102141MD1210091+9999REMSYN086AAXX  14064 68300 32989 01528 10130 20028 30214 40232 52009 333 20120 555 10190 91023;EQDQ01  00002PRCP99
0162683000999992000091500004-26630+015100FM-12+000099999V0202301N008212200019N0050001N1+01201+00451101721ADDAA199000091GF103991021061000751081001MD1810091+9999REMSYN080AAXX  15004 68300 32150 32316 10120 20045 3//// 40172 58009 82680 333 555 91017;EQDQ01  00002PRCP99
0147683000999992000091603004-26630+015100FM-12+000099999V0202301N003112200019N0050001N1+01271+01041102081ADDGF103991031061000751001001MA1999999101901MD1210021+9999REMSYN080AAXX  16034 68300 42150 32306 10127 20104 30190 40208 52002 83600 333 555 91020;
0177683000999992000091700004-26630+015100FM-12+000099999V0203601N004112200019N0100001N1+01201+01041102301ADDAA199000091GF104991011051000751031001MA1999999102121MD1810081+9999REMSYN080AAXX  17004 68300 32160 43608 10120 20104 30212 40230 58008 81530 333 555 91023;EQDQ01  00002PRCP99
0172683000999992000091800004-26630+015100FM-12+000099999V0202301N012312200019N0100001N1+01271+00171102471ADDAA199000091GA1001+999999999GF100991001001999999001001MD1810061+9999REMSYN074AAXX  18004 68300 32960 02324 10127 20017 3//// 40247 58006 333 555 91024;EQDQ01  00002PRCP99
0153683000999992000091803004-26630+015100FM-12+000099999V0202301N010312200019N0100001N1+01201-00101102621ADDGA1001+999999999GF100991001001999999001001MA1999999102441MD1710031+9999REMSYN070AAXX  18034 68300 42960 02320 10120 21010 30244 40262 57003 555 91026;
0210683000999992000091806004-26630+015100FM-12+000099999V0202301N010312200019N0100001N1+01251+00211102551ADDAA199000091GA1001+999999999GF100991001001999999001001KA1240M+02461KA2120N+00941MD1310231+9999REMSYN086AAXX  18064 68300 32960 02320 10125 20021 3//// 40255 53023 333 20094 555 10246 91019;EQDQ01  00002PRCP99
0153683000999992000091815004-26630+015100FM-12+000099999V0202301N015412200019N0100001N1+01941+00531102221ADDGA1001+999999999GF100991001001999999001001MA1999999102021MD1810201+9999REMSYN070AAXX  18154 68300 42960 02330 10194 20053 30202 40222 58020 333 91022;
0206683000999992000091818004-26630+015100FM-12+000099999V0202301N010312200019N0100001N1+01701+00421102351ADDAA199000091GA1001+999999999GF100991001001999999001001KA1120M+02551MA1999999102171MD1310151+9999REMSYN080AAXX  18184 68300 32960 02320 10170 20042 30217 40235 53015 333 10255 555 91023;EQDQ01  00002PRCP99
0187683000999992000091900004-26630+015100FM-12+000099999V0202301N006212200019N0100001N1+01511+00161102441ADDAA199000091GA1001+999999999GF100991001001999999001001MA1999999102261MD1810071+9999REMSYN074AAXX  19004 68300 32960 02312 10151 20016 30226 40244 58007 333 555 91024;EQDQ01  00002PRCP99
0206683000999992000091912004-26630+015100FM-12+000099999V0200501N005112200019N0200001N1+03001-00141101911ADDAA199000091GA1001+999999999GF100991001001999999001001KA1120N+01901MA1999999101741MD1710301+9999REMSYN080AAXX  19124 68300 32970 00510 10300 21014 30174 40191 57030 333 20190 555 91019;EQDQ01  00002PRCP99
0200683000999992000092000004-26630+015100FM-12+000099999V0200501N017512200019N0050001N1+02471-00651101531ADDAA199000091AY131061AY201061GA1001+999999999GF100991001001999999001001MD1710061+9999MW1351REMSYN080AAXX  20004 68300 31950 00534 10247 21065 3//// 40153 57006 73530 333 555 91015;EQDQ01  00002PRCP99
0170683000999992000092003004-26630+015100FM-12+000099999V0200501N014412200019N0050001N1+02051-00161101461ADDAY131031AY231031GA1001+999999999GF100991001001999999001001MD1710071+9999MW1331REMSYN080AAXX  20034 68300 41950 00528 10205 21016 3//// 40146 57007 73333 333 555 91014;
0181683000999992000092212004-26630+015100FM-12+000099999V0203601N005112200019N0650001N1+01521+01211101181ADDAA199000091GF103991031001999999031051KA1120N+01551MD1710081+9999REMSYN086AAXX  22124 68300 32987 33610 10152 20121 3//// 40118 57008 83035 333 20155 555 91011;EQDQ01  00002PRCP99
0147683000999992000092215004-26630+015100FM-12+000099999V0203601N007710150019N0750001N1+01301+01211101581ADDGF108991081061017501999999MA1999999101401MD1310221+9999REMSYN080AAXX  22154 68300 42789 83615 10130 20121 30140 40158 53022 886// 333 555 91015;
0222683000999992000092218004-26630+015100FM-12+000099999V0203601N005112200019N0750001N1+99999+01111101561ADDAA199000091GA1001+999999999GF100991001001999999001001KA1120M+03101MA1999999101381MD1610021+9999REMSYN080AAXX  22184 68300 32989 03610 10310 20111 30138 40156 56002 333 10310 555 91015;EQDQ01+003103ATOT  Q02  00002PRCP99
0206683000999992000092300004-26630+015100FM-12+000099999V0203601N003110003019N0005001N1+01111+01091101541ADDAA199000091AY141061AY241061GA1091+999999999GF109991091999999999999999MD1210061+9999MW1471REMSYN086AAXX  23004 68300 31/05 93606 10111 20109 3//// 40154 52006 74744 8//// 333 555 91015;EQDQ01  00002PRCP99
0160683000999992000092303004-26630+015100FM-12+000099999V0203601N003110006019N0005001N1+01201+01181101481ADDAY141031AY241031GF108991081061000751999999MD1810061+9999MW1451REMSYN086AAXX  23034 68300 41105 83606 10120 20118 3//// 40148 58006 74544 886// 333 555 91014;
0228683000999992000092306004-26630+015100FM-12+000099999V0203601N005110150019N0040001N1+01251+01251101631ADDAA199000091AY141061AY241061GF108991081061017501999999KA1240M+02301KA2120N+01201MD1310141+9999MW1401REMSYN098AAXX  23064 68300 31740 83610 10125 20125 3//// 40163 53014 74044 886// 333 20120 555 10230 91016;EQDQ01  00002PRCP99
0147683000999992000092309004-26630+015100FM-12+000099999V0203601N007210021019N0100001N1+01301+01211101931ADDGF108991081061002501999999MA1999999101751MD1110121+9999REMSYN080AAXX  23094 68300 42360 83614 10130 20121 30175 40193 51012 886// 333 555 91019;
0196683000999992000092312004-26630+015100FM-12+000099999V0203601N007210075019N0750001N1+01361+01251101931ADDAA199000091GF108991081061008001999999KA1120N+01361MA1999999101751MD1410001+9999REMSYN086AAXX  23124 68300 32589 83614 10136 20125 30175 40193 54000 886// 333 20136 555 91019;EQDQ01  00002PRCP99
0147683000999992000092315004-26630+015100FM-12+000099999V0203601N003110006019N0100001N1+01401+01251101821ADDGF108991081061000751999999MA1999999101641MD1810101+9999REMSYN080AAXX  23154 68300 42160 83606 10140 20125 30164 40182 58010 886// 333 555 91018;
0196683000999992000092318004-26630+015100FM-12+000099999V0203601N001510042019N0750001N1+01421+01311101911ADDAA199000091GF108991081061004501999999KA1120M+01501MA1999999101731MD1210091+9999REMSYN086AAXX  23184 68300 32489 83603 10142 20131 30173 40191 52009 886// 333 10150 555 91019;EQDQ01  00002PRCP99
0147683000999992000092321004-26630+015100FM-12+000099999V0203601N004110006019N0200001N1+01851+00671102031ADDGF108991081051000751999999MA1999999101851MD1210121+9999REMSYN080AAXX  23214 68300 42170 83608 10185 20067 30185 40203 52012 885// 333 555 91020;
0177683000999992000092400004-26630+015100FM-12+000099999V0203601N003110006019N0200001N1+01321+01171101991ADDAA199000091GF108991081061000751999999MA1999999101811MD1810041+9999REMSYN080AAXX  24004 68300 32170 83606 10132 20117 30181 40199 58004 886// 333 555 91019;EQDQ01  00002PRCP99
0215683000999992000092403004-26630+015100FM-12+000099999V0201501N001512200019N0750001N1+01501+01021102011ADDAA199000091GF103991031051017501031001KA1240M+01501KA2120N+01301MA1999999101831MD1310071+9999REMSYN092AAXX  24034 68300 32789 31503 10150 20102 30183 40201 53007 83530 333 20130 555 10150 91020;EQDQ01  00002PRCP99
0157683000999992000092409004-26630+015100FM-12+000099999V0201801N005112200019N0750001N1+01851+00771101951ADDGA1001+999999999GF100991001001999999001001MA1999999101771MD1710071+9999REMSYN074AAXX  24094 68300 42989 01810 10185 20077 30177 40195 57007 333 555 91019;
0176683000999992000092412004-26630+015100FM-12+000099999V0201801N013412200019N0750001N1+01851+00641999999ADDAA199000091GA1001+999999999GF100991001001999999001001KA1120N+01351REMSYN079AAXX  24124 68300 32989 01826 10185 20064 //// 40170 57007 333 20135 555 91017;EQDQ01  00002PRCP99
0142683000999992000092415004-26630+015100FM-12+000099999V0201801N010312200019N0750001N1+01681+01131101621ADDGA1001+999999999GF100991001001999999001001MD1710081+9999REMSYN074AAXX  24154 68300 42989 01820 10168 20113 3//// 40162 57008 333 555 91016;
0191683000999992000092418004-26630+015100FM-12+000099999V0201801N012912200019N0750001N1+01481+00981101781ADDAA199000091GA1001+999999999GF100991001001999999001001KA1120M+01951MD1310161+9999REMSYN080AAXX  24184 68300 32989 01825 10148 20098 3//// 40178 53016 333 10195 555 91017;EQDQ01  00002PRCP99
0187683000999992000092501004-26630+015100FM-12+000099999V0201801N005112200019N0050001N1+01301+00821101971ADDAA199000091GA1001+999999999GF100991001001999999001001MA1999999101791MD1810041+9999REMSYN074AAXX  25014 68300 32950 01810 10130 20082 30179 40197 58004 333 555 91019;EQDQ01  00002PRCP99
0157683000999992000092503004-26630+015100FM-12+000099999V0201801N006212200019N0050001N1+01261+00721102011ADDGA1001+999999999GF100991001001999999001001MA1999999101831MD1310041+9999REMSYN074AAXX  25034 68300 42950 01812 10126 20072 30183 40201 53004 333 555 91020;
0225683000999992000092506004-26630+015100FM-12+000099999V0201801N006212200019N0750001N1+01341+00631102101ADDAA199000091GA1001+999999999GF100991001001999999001001KA1240M+01951KA2120N+01251MA1999999101921MD1310081+9999REMSYN086AAXX  25064 68300 32989 01812 10134 20063 30192 40210 53008 333 20125 555 10195 91021;EQDQ01  00002PRCP99
0172683000999992000092509004-26630+015100FM-12+000099999V0201901N010312200019N0050001N1+01951+00791101841ADDAA199000091GA1001+999999999GF100991001001999999001001MD1710071+9999REMSYN074AAXX  25094 68300 32950 01920 10195 20079 3//// 40184 57007 333 555 91018;EQDQ01  00002PRCP99
0234683000999992000092512004-26630+015100FM-12+000099999V0201801N013412200019N0100001N1+01871+00851101991ADDAA199000091AY131061AY221061GA1001+999999999GF100991001001999999001001KA1120N+01281MA1999999101811MD1510031+9999MW1321REMSYN086AAXX  25124 68300 31960 01826 10187 20085 30181 40199 55003 73232 333 20128 555 91019;EQDQ01  00002PRCP99
0185683000999992000092515004-26630+015100FM-12+000099999V0201801N015412200019N0300001N1+01751+00811101911ADDAY131031AY231031GA1001+999999999GF100991001001999999001001MA1999999101731MD1710081+9999MW1321REMSYN080AAXX  25154 68300 41980 01830 10175 20081 30173 40191 57008 73233 333 555 91019;
0206683000999992000092518004-26630+015100FM-12+000099999V0201801N012912200019N0300001N1+01501+00821102191ADDAA199000091GA1001+999999999GF100991001001999999001001KA1120M+02101MA1999999102011MD1310251+9999REMSYN080AAXX  25184 68300 32980 01825 10150 20082 30201 40219 53025 333 10210 555 91021;EQDQ01  00002PRCP99
0206683000999992000092612004-26630+015100FM-12+000099999V0202301N013412200019N0050001N1+02051+01041101821ADDAA199000091GA1001+999999999GF100991001001999999001001KA1120N+01451MA1999999101641MD1710201+9999REMSYN080AAXX  26124 68300 32950 02326 10205 20104 30164 40182 57020 333 20145 555 91018;EQDQ01  00002PRCP99
0185683000999992000092615004-26630+015100FM-12+000099999V0201801N015412200019N0300001N1+01951+00831101651ADDAY131031AY221031GA1001+999999999GF100991001001999999001001MA1999999101471MD1810161+9999MW1321REMSYN080AAXX  26154 68300 41980 01830 10195 20083 30147 40165 58016 73232 333 555 91016;
0206683000999992000092618004-26630+015100FM-12+000099999V0201801N007712200019N0200001N1+01601+00921101731ADDAA199000091GA1001+999999999GF100991001001999999001001KA1120M+02201MA1999999101551MD1210081+9999REMSYN080AAXX  26184 68300 32970 01815 10160 20092 30155 40173 52008 333 10220 555 91017;EQDQ01  00002PRCP99
0157683000999992000092621004-26630+015100FM-12+000099999V0201801N010312200019N0050001N1+01571+00621101751ADDGA1001+999999999GF100991001001999999001001MA1999999101571MD1210021+9999REMSYN074AAXX  26214 68300 42950 01820 10157 20062 30157 40175 52002 333 555 91017;
0187683000999992000092700004-26630+015100FM-12+000099999V0201801N010312200019N0050001N1+01501+00711101661ADDAA199000091GA1001+999999999GF100991001001999999001001MA1999999101481MD1810091+9999REMSYN074AAXX  27004 68300 32950 01820 10150 20071 30148 40166 58009 333 555 91016;EQDQ01  00002PRCP99
0157683000999992000092703004-26630+015100FM-12+000099999V0201801N009312200019N0050001N1+01291+00731101541ADDGA1001+999999999GF100991001001999999001001MA1999999101361MD1710121+9999REMSYN074AAXX  27034 68300 42950 01818 10129 20073 30136 40154 57012 333 555 91015;
0225683000999992000092706004-26630+015100FM-12+000099999V0201501N004112200019N0050001N1+01251+00831101651ADDAA199000091GA1001+999999999GF100991001001999999001001KA1240M+02201KA2120N+01201MA1999999101471MD1310111+9999REMSYN086AAXX  27064 68300 32950 01508 10125 20083 30147 40165 53011 333 20120 555 10220 91016;EQDQ01  00002PRCP99
0187683000999992000092709004-26630+015100FM-12+000099999V0201801N007212200019N0050001N1+02001+00851101651ADDAA199000091GA1001+999999999GF100991001001999999001001MA1999999101471MD1410001+9999REMSYN074AAXX  27094 68300 32950 01814 10200 20085 30147 40165 54000 333 555 91016;EQDQ01  00002PRCP99
0206683000999992000092712004-26630+015100FM-12+000099999V0201801N012912200019N0300001N1+02111+00981101481ADDAA199000091GA1001+999999999GF100991001001999999001001KA1120N+01301MA1999999101301MD1710171+9999REMSYN080AAXX  27124 68300 32980 01825 10211 20098 30130 40148 57017 333 20130 555 91014;EQDQ01  00002PRCP99
0142683000999992000092715004-26630+015100FM-12+000099999V0201801N005112200019N0750001N1+02031+01061101141ADDGA1001+999999999GF100991001001999999001001MD1810171+9999REMSYN074AAXX  27154 68300 42989 01810 10203 20106 3//// 40114 58017 333 555 91011;
0142683000999992000092721004-26630+015100FM-12+000099999V0201801N008212200019N0050001N1+01331+01041101371ADDGA1001+999999999GF100991001001999999001001MD1210171+9999REMSYN074AAXX  27214 68300 42950 01816 10133 20104 3//// 40137 52017 333 555 91013;
0157683000999992000092800004-26630+015100FM-12+000099999V0201801N010312200019N0050001N1+01301+00971101511ADDGA1001+999999999GF100991001001999999001001MA1999999101331MD1810041+9999REMSYN074AAXX  28004 68300 42950 01820 10130 20097 30133 40151 58004 333 555 91015;
0157683000999992000092803004-26630+015100FM-12+000099999V0201801N006212200019N0050001N1+01231+00971101461ADDGA1001+999999999GF100991001001999999001001MA1999999101281MD1710051+9999REMSYN074AAXX  28034 68300 42950 01812 10123 20097 30128 40146 57005 333 555 91014;
0200683000999992000092806004-26630+015100FM-12+000099999V0201801N002112200019N0040001N1+01261+01051101501ADDAA199000091GF104991041061999999001001KA1240M+02221KA2120N+01251MD1310231+9999REMSYN092AAXX  28064 68300 32940 41804 10126 20105 3//// 40150 53023 84600 333 20125 555 10222 91015;EQDQ01  00002PRCP99
0142683000999992000092809004-26630+015100FM-12+000099999V0201801N005112200019N0050001N1+01961+01011101431ADDGA1001+999999999GF100991001001999999001001MD1710061+9999REMSYN074AAXX  28094 68300 42950 01810 10196 20101 3//// 40143 57006 333 555 91014;
0191683000999992000092812004-26630+015100FM-12+000099999V0202301N010312200019N0750001N1+01821+01041101191ADDAA199000091GA1001+999999999GF100991001001999999001001KA1120N+01301MD1710241+9999REMSYN080AAXX  28124 68300 32989 02320 10182 20104 3//// 40119 57024 333 20130 555 91011;EQDQ01  00002PRCP99
0157683000999992000092815004-26630+015100FM-12+000099999V0201801N007712200019N0750001N1+01661+01021101261ADDGA1001+999999999GF100991001001999999001001MA1999999101081MD1710081+9999REMSYN074AAXX  28154 68300 42989 01815 10166 20102 30108 40126 57008 333 555 91012;
0206683000999992000092818004-26630+015100FM-12+000099999V0201801N007712200019N0750001N1+01401+01021101491ADDAA199000091GA1001+999999999GF100991001001999999001001KA1120M+02021MA1999999101311MD1310231+9999REMSYN080AAXX  28184 68300 32989 01815 10140 20102 30131 40149 53023 333 10202 555 91014;EQDQ01  00002PRCP99
0157683000999992000092821004-26630+015100FM-12+000099999V0201801N006212200019N0200001N1+01431+01091101481ADDGA1001+999999999GF100991001001999999001001MA1999999101301MD1710011+9999REMSYN074AAXX  28214 68300 42970 01812 10143 20109 30130 40148 57001 333 555 91014;
0157683000999992000092900004-26630+015100FM-12+000099999V0201801N006212200019N0050001N1+01401+01081101331ADDGA1001+999999999GF100991001001999999001001MA1999999101151MD1710151+9999REMSYN074AAXX  29004 68300 42950 01812 10140 20108 30115 40133 57015 333 555 91013;
0157683000999992000092903004-26630+015100FM-12+000099999V0201801N004112200019N0050001N1+01321+01071101301ADDGA1001+999999999GF100991001001999999001001MA1999999101121MD1710031+9999REMSYN074AAXX  29034 68300 42950 01808 10132 20107 30112 40130 57003 333 555 91013;
0200683000999992000092906004-26630+015100FM-12+000099999V0203601N008210075019N0750001N1+01101+01001101421ADDAA199000091GF108991081061008001999999KA1240M+02051KA2120N+01141MD1310271+9999REMSYN092AAXX  29064 68300 32589 83616 10110 20100 3//// 40142 53027 886// 333 20114 555 10205 91014;EQDQ01  00002PRCP99
0132683000999992000092909004-26630+015100FM-12+000099999V0203601N006210075019N0300001N1+01261+01051101521ADDGF108991081061008001999999MD1310121+9999REMSYN080AAXX  29094 68300 42580 83612 10126 20105 3//// 40152 53012 886// 333 555 91015;
0181683000999992000092912004-26630+015100FM-12+000099999V0203601N005112200019N0050001N1+01351+01061101451ADDAA199000091GF103991031061008001031001KA1120N+01151MD1710081+9999REMSYN086AAXX  29124 68300 32550 33610 10135 20106 3//// 40145 57008 83630 333 20115 555 91014;EQDQ01  00002PRCP99
0147683000999992000092915004-26630+015100FM-12+000099999V0203401N003119999999N0100001N1+01351+01061101641ADDGF105991051041999999081021MA1999999101461MD1210021+9999REMSYN080AAXX  29154 68300 42960 53406 10135 20106 30146 40164 52002 85482 333 555 91016;
0206683000999992000092918004-26630+015100FM-12+000099999V0203601N004112200019N0200001N1+01501+01131101681ADDAA199000091GA1001+999999999GF100991001001999999001001KA1120M+01551MA1999999101501MD1210041+9999REMSYN080AAXX  29184 68300 32970 03608 10150 20113 30150 40168 52004 333 10155 555 91016;EQDQ01  00002PRCP99
0187683000999992000092921004-26630+015100FM-12+000099999V0203601N003112200019N0200001N1+01451+01151101851ADDAA199000091GA1001+999999999GF100991001001999999001001MA1999999101671MD1310171+9999REMSYN074AAXX  29214 68300 32970 03606 10145 20115 30167 40185 53017 333 555 91018;EQDQ01  00002PRCP99
0162683000999992000093000004-26630+015100FM-12+000099999V0201801N003110006019N0050001N1+01411+01301101731ADDAA199000091GF105991051061000751001001MD1210061+9999REMSYN080AAXX  30004 68300 32150 51806 10141 20130 3//// 40173 52006 85600 333 555 91017;EQDQ01  00002PRCP99
0132683000999992000093003004-26630+015100FM-12+000099999V0203101N002612200019N0300001N1+01381+01211101761ADDGF102991021061000751001001MD1210031+9999REMSYN080AAXX  30034 68300 42180 23105 10138 20121 3//// 40176 52003 82600 333 555 91017;
0200683000999992000093006004-26630+015100FM-12+000099999V0201801N003110006019N0050001N1+01291+01221101881ADDAA199000091GF106991061061000751031001KA1240M+01601KA2120N+01301MD1210081+9999REMSYN092AAXX  30064 68300 32150 61806 10129 20122 3//// 40188 52008 86630 333 20130 555 10160 91018;EQDQ01  00002PRCP99
0147683000999992000093009004-26630+015100FM-12+000099999V0201501N005112200019N0750001N1+01961+01081102111ADDGF104991041001999999031001MA1999999101931MD1210051+9999REMSYN080AAXX  30094 68300 42989 41510 10196 20108 30193 40211 52005 84030 333 555 91021;
0196683000999992000093012004-26630+015100FM-12+000099999V0202301N009312200019N0050001N1+02001+01191101981ADDAA199000091GF103991031001999999031051KA1120N+01301MA1999999101801MD1710151+9999REMSYN086AAXX  30124 68300 32950 32318 10200 20119 30180 40198 57015 83035 333 20130 555 91019;EQDQ01  00002PRCP99
0187683000999992000093015004-26630+015100FM-12+000099999V0202301N010312200019N0100001N1+01851+01011101881ADDAA199000091GA1001+999999999GF100991001001999999001001MA1999999101701MD1710101+9999REMSYN074AAXX  30154 68300 32960 02320 10185 20101 30170 40188 57010 333 555 91018;EQDQ01  00002PRCP99
0206683000999992000093018004-26630+015100FM-12+000099999V0201801N007712200019N0750001N1+01521+01151102011ADDAA199000091GA1001+999999999GF100991001001999999001001KA1120M+02101MA1999999101831MD1310131+9999REMSYN080AAXX  30184 68300 32989 01815 10152 20115 30183 40201 53013 333 10210 555 91020;EQDQ01  00002PRCP99
0157683000999992000093021004-26630+015100FM-12+000099999V0201801N005112200019N0750001N1+01481+00751102051ADDGA1001+999999999GF100991001001999999001001MA1999999101871MD1310051+9999REMSYN074AAXX  30214 68300 42989 01810 10148 20075 30187 40205 53005 333 555 91020;
0187683000999992000100100004-26630+015100FM-12+000099999V0201801N003112200019N0050001N1+01451+00861101951ADDAA199000091GA1001+999999999GF100991001001999999001001MA1999999101771MD1810101+9999REMSYN074AAXX  01004 68300 32950 01806 10145 20086 30177 40195 58010 333 555 91019;EQDQ01  00002PRCP99
0157683000999992000100103004-26630+015100FM-12+000099999V0201801N003112200019N0050001N1+01361+00841101881ADDGA1001+999999999GF100991001001999999001001MA1999999101701MD1710071+9999REMSYN074AAXX  01034 68300 42950 01806 10136 20084 30170 40188 57007 333 555 91018;
0225683000999992000100106004-26630+015100FM-12+000099999V0201801N005112200019N0050001N1+01351+00961101921ADDAA199000091GA1001+999999999GF100991001001999999001001KA1240M+02101KA2120N+01251MA1999999101741MD1310041+9999REMSYN086AAXX  01064 68300 32950 01810 10135 20096 30174 40192 53004 333 20125 555 10210 91019;EQDQ01  00002PRCP99
0157683000999992000100109004-26630+015100FM-12+000099999V0202301N007212200019N0050001N1+02001+01671101801ADDGA1001+999999999GF100991001001999999001001MA1999999101621MD1710121+9999REMSYN074AAXX  01094 68300 42950 02314 10200 20167 30162 40180 57012 333 555 91018;
0206683000999992000100112004-26630+015100FM-12+000099999V0202301N010312200019N0550001N1+02001+01091101561ADDAA199000091GA1001+999999999GF100991001001999999001001KA1120N+01401MA1999999101381MD1710241+9999REMSYN080AAXX  01124 68300 32985 02320 10200 20109 30138 40156 57024 333 20140 555 91015;EQDQ01  00002PRCP99
0206683000999992000100118004-26630+015100FM-12+000099999V0202301N010312200019N0200001N1+01561+01071101401ADDAA199000091GA1001+999999999GF100991001001999999001001KA1120M+02171MA1999999101221MD1810101+9999REMSYN080AAXX  01184 68300 32970 02320 10156 20107 30122 40140 58010 333 10217 555 91014;EQDQ01  00002PRCP99
0187683000999992000100200004-26630+015100FM-12+000099999V0201801N003112200019N0050001N1+01301+00901101521ADDAA199000091GA1001+999999999GF100991001001999999001001MA1999999101341MD1610021+9999REMSYN074AAXX  02004 68300 32950 01806 10130 20090 30134 40152 56002 333 555 91015;EQDQ01  00002PRCP99
0147683000999992000100203004-26630+015100FM-12+000099999V0203601N001510006019N0100001N1+01101+00961101451ADDGF108991081061000751999999MA1999999101271MD1710091+9999REMSYN080AAXX  02034 68300 42160 83603 10110 20096 30127 40145 57009 886// 333 555 91014;
0243683000999992000100206004-26630+015100FM-12+000099999V0203601N005119999999N0040001N1+01051+01051101611ADDAA199000091AY141061AY241061GF108991081061999999999999KA1240M+02201KA2120N+01041MA1999999101431MD1310161+9999MW1451REMSYN098AAXX  02064 68300 31940 83610 10105 20105 30143 40161 53016 74544 886// 333 20104 555 10220 91016;EQDQ01  00002PRCP99
0147683000999992000100209004-26630+015100FM-12+000099999V0203601N003110021019N0100001N1+01201+01101101631ADDGF108991081061002501999999MA1999999101451MD1110031+9999REMSYN080AAXX  02094 68300 42360 83606 10120 20110 30145 40163 51003 886// 333 555 91016;
0224683000999992000100212004-26630+015100FM-12+000099999V0203601N003112200019N0050001N1+01301+01131101461ADDAA199000091AY101061AY201061GF104991041061002501001001KA1120N+01061MA1999999101281MD1810151+9999MW1401REMSYN092AAXX  02124 68300 31350 43606 10130 20113 30128 40146 58015 74000 84600 333 20106 555 91014;EQDQ01  00002PRCP99
0169683000999992000100215004-26630+015100FM-12+000099999V0203601N005119999999N0100001N1+01301+01171101411ADDAY141031AY221031GF108991999999000751999999MA1999999101231MD1710051+9999MW1401REMSYN080AAXX  02154 68300 42160 83610 10130 20117 30123 40141 57005 74042 333 555 91014;
0196683000999992000100218004-26630+015100FM-12+000099999V0203601N005110006019N0100001N1+01281+01171101501ADDAA199000091GF108991081061000751999999KA1120M+01681MA1999999101321MD1310091+9999REMSYN086AAXX  02184 68300 32160 83610 10128 20117 30132 40150 53009 886// 333 10168 555 91015;EQDQ01  00002PRCP99
0147683000999992000100221004-26630+015100FM-12+000099999V0203601N001510012019N0100001N1+01351+01221101621ADDGF108991081061001501999999MA1999999101441MD1310121+9999REMSYN080AAXX  02214 68300 42260 83603 10135 20122 30144 40162 53012 886// 333 555 91016;
0162683000999992000100300004-26630+015100FM-12+000099999V0203601N001510006019N0050001N1+01381+01141101411ADDAA199000091GF108991081061000751999999MD1610031+9999REMSYN080AAXX  03004 68300 32150 83603 10138 20114 3//// 40141 56003 886// 333 555 91014;EQDQ01  00002PRCP99
0132683000999992000100303004-26630+015100FM-12+000099999V0203601N001510006019N0050001N1+01351+01161101411ADDGF108991081061000751999999MD1410001+9999REMSYN080AAXX  03034 68300 42150 83603 10135 20116 3//// 40141 54000 886// 333 555 91014;
0228683000999992000100306004-26630+015100FM-12+000099999V0203601N004110006019N0050001N1+01301+01151101581ADDAA199000091AY101061AY201061GF108991081061000751999999KA1240M+01681KA2120N+01261MD1310171+9999MW1401REMSYN098AAXX  03064 68300 31150 83608 10130 20115 3//// 40158 53017 74000 886// 333 20126 555 10168 91015;EQDQ01  00002PRCP99
0171683000999992000100309004-26630+015100FM-12+000099999V0203601N005110021019N0050001N1+01301+01151101891ADDAY141031AY201031GF108991081061002501999999MA1999999101711MD1210131+9999MW1401REMSYN082AAXX  03094 68300 41350 83610 10130 20115 30171 40189 52013 74040 886// 555 91018;
0196683000999992000100312004-26630+015100FM-12+000099999V0203601N006210006019N0050001N1+01451+01171101771ADDAA199000091GF108991081061000751999999KA1120N+01301MA1999999101591MD1810121+9999REMSYN086AAXX  03124 68300 32150 83612 10145 20117 30159 40177 58012 886// 333 20130 555 91017;EQDQ01  00002PRCP99
0147683000999992000100315004-26630+015100FM-12+000099999V0203201N005110006019N0100001N1+01401+01221101641ADDGF108991081051000751999999MA1999999101461MD1810121+9999REMSYN080AAXX  03154 68300 42160 83210 10140 20122 30146 40164 58012 885// 333 555 91016;
0206683000999992000100318004-26630+015100FM-12+000099999V0203601N005112200019N0300001N1+01551+01181101781ADDAA199000091GA1001+999999999GF100991001001999999001001KA1120M+01651MA1999999101601MD1610131+9999REMSYN080AAXX  03184 68300 32980 03610 10155 20118 30160 40178 56013 333 10165 555 91017;EQDQ01  00002PRCP99
0157683000999992000100321004-26630+015100FM-12+000099999V0203601N001512200019N0100001N1+01401+01221101801ADDGA1001+999999999GF100991001001999999001001MA1999999101621MD1210021+9999REMSYN074AAXX  03214 68300 42960 03603 10140 20122 30162 40180 52002 333 555 91018;
0172683000999992000100400004-26630+015100FM-12+000099999V0203601N003112200019N0050001N1+01351+01181101641ADDAA199000091GA1001+999999999GF100991001001999999001001MD1210021+9999REMSYN074AAXX  04004 68300 32950 03606 10135 20118 3//// 40164 52002 333 555 91016;EQDQ01  00002PRCP99
0142683000999992000100403004-26630+015100FM-12+000099999V0201801N003112200019N0050001N1+01371+01041101691ADDGA1001+999999999GF100991001001999999001001MD1210051+9999REMSYN074AAXX  04034 68300 42950 01806 10137 20104 3//// 40169 52005 333 555 91016;
0200683000999992000100406004-26630+015100FM-12+000099999V0201801N005112200019N0050001N1+01341+00991101741ADDAA199000091GF104991041061000751001001KA1240M+01721KA2120N+01301MD1210071+9999REMSYN092AAXX  04064 68300 32150 41810 10134 20099 3//// 40174 52007 84600 333 20130 555 10172 91017;EQDQ01  00002PRCP99
0143683000999992000100409004-26630+015100FM-12+000099999V0201801N008212200019N0150001N1+01961+01011101891ADDGF104991011051004501001091MA1999999101711MD1810031+9999REMSYN076AAXX  04094 68300 42465 41816 10196 20101 30171 40189 58003 81509 555 91018;
0196683000999992000100412004-26630+015100FM-12+000099999V0202301N011319999999N0100001N1+01911+00901101711ADDAA199000091GF106991001001999999001091KA1120N+01381MA1999999101531MD1810181+9999REMSYN086AAXX  04124 68300 32960 62322 10191 20090 30153 40171 58018 80009 333 20138 555 91017;EQDQ01  00002PRCP99
0147683000999992000100415004-26630+015100FM-12+000099999V0201801N011312200019N0100001N1+01821+01041101531ADDGF104991001001999999001021MA1999999101351MD1610111+9999REMSYN080AAXX  04154 68300 42960 41822 10182 20104 30135 40153 56011 80002 333 555 91015;
0206683000999992000100418004-26630+015100FM-12+000099999V0201801N010312200019N0100001N1+01551+00861101631ADDAA199000091GA1001+999999999GF100991001001999999001001KA1120M+02151MA1999999101451MD1310091+9999REMSYN080AAXX  04184 68300 32960 01820 10155 20086 30145 40163 53009 333 10215 555 91016;EQDQ01  00002PRCP99
0187683000999992000100500004-26630+015100FM-12+000099999V0201801N010312200019N0050001N1+01401+00701101571ADDAA199000091GA1001+999999999GF100991001001999999001001MA1999999101391MD1810171+9999REMSYN074AAXX  05004 68300 32950 01820 10140 20070 30139 40157 58017 333 555 91015;EQDQ01  00002PRCP99
0157683000999992000100503004-26630+015100FM-12+000099999V0201801N010312200019N0050001N1+01361+00721101651ADDGA1001+999999999GF100991001001999999001001MA1999999101471MD1210081+9999REMSYN074AAXX  05034 68300 42950 01820 10136 20072 30147 40165 52008 333 555 91016;
0215683000999992000100506004-26630+015100FM-12+000099999V0202301N009319999999N0100001N1+01401+00951101751ADDAA199000091GF106991001001999999001091KA1240M+02201KA2120N+01301MA1999999101571MD1210101+9999REMSYN092AAXX  05064 68300 32960 62318 10140 20095 30157 40175 52010 80009 333 20130 555 10220 91017;EQDQ01  00002PRCP99
0132683000999992000100509004-26630+015100FM-12+000099999V0202301N010319999999N0100001N1+01901+00721101511ADDGF106991001001999999001021MD1810061+9999REMSYN080AAXX  05094 68300 42960 62320 10190 20072 3//// 40151 58006 80002 333 555 91015;
0181683000999992000100512004-26630+015100FM-12+000099999V0202301N014412200019N0050001N1+02051+00591101431ADDAA199000091GF103991001001999999001021KA1120N+01451MD1710091+9999REMSYN086AAXX  05124 68300 32950 32328 10205 20059 3//// 40143 57009 80002 333 20145 555 91014;EQDQ01  00002PRCP99
0157683000999992000100515004-26630+015100FM-12+000099999V0201801N014412200019N0050001N1+01801+00831101651ADDGA1001+999999999GF100991001001999999001001MA1999999101471MD1710081+9999REMSYN074AAXX  05154 68300 42950 01828 10180 20083 30147 40165 57008 333 555 91016;
0206683000999992000100518004-26630+015100FM-12+000099999V0201801N010312200019N0300001N1+01451+00861101641ADDAA199000091GA1001+999999999GF100991001001999999001001KA1120M+02171MA1999999101461MD1310091+9999REMSYN080AAXX  05184 68300 32980 01820 10145 20086 30146 40164 53009 333 10217 555 91016;EQDQ01  00002PRCP99
0157683000999992000100521004-26630+015100FM-12+000099999V0201801N007712200019N0200001N1+01401+00801101871ADDGA1001+999999999GF100991001001999999001001MA1999999101691MD1310231+9999REMSYN074AAXX  05214 68300 42970 01815 10140 20080 30169 40187 53023 333 555 91018;
0172683000999992000100600004-26630+015100FM-12+000099999V0201801N005112200019N0050001N1+01361+00601101461ADDAA199000091GA1001+999999999GF100991001001999999001001MD1810211+9999REMSYN074AAXX  06004 68300 32950 01810 10136 20060 3//// 40146 58021 333 555 91014;EQDQ01  00002PRCP99
0142683000999992000100603004-26630+015100FM-12+000099999V0201801N005112200019N0050001N1+01181+00771101411ADDGA1001+999999999GF100991001001999999001001MD1710051+9999REMSYN074AAXX  06034 68300 42950 01810 10118 20077 3//// 40141 57005 333 555 91014;
0210683000999992000100606004-26630+015100FM-12+000099999V0201401N009312200019N0200001N1+01251+00731101541ADDAA199000091GA1001+999999999GF100991001001999999001001KA1240M+02201KA2120N+01051MD1310121+9999REMSYN086AAXX  06064 68300 32970 01418 10125 20073 3//// 40154 53012 333 20105 555 10220 91015;EQDQ01  00002PRCP99
0157683000999992000100609004-26630+015100FM-12+000099999V0201801N009312200019N0200001N1+02001+00731101621ADDGA1001+999999999GF100991001001999999001001MA1999999101441MD1810101+9999REMSYN074AAXX  06094 68300 42970 01818 10200 20073 30144 40162 58010 333 555 91016;
0206683000999992000100612004-26630+015100FM-12+000099999V0202301N013912200019N0200001N1+02001+00851101411ADDAA199000091GA1001+999999999GF100991001001999999001001KA1120N+01301MA1999999101231MD1710221+9999REMSYN080AAXX  06124 68300 32970 02327 10200 20085 30123 40141 57022 333 20130 555 91014;EQDQ01  00002PRCP99
0142683000999992000100615004-26630+015100FM-12+000099999V0202301N013912200019N0200001N1+01851+00891101141ADDGA1001+999999999GF100991001001999999001001MD1710081+9999REMSYN074AAXX  06154 68300 42970 02327 10185 20089 3//// 40114 57008 333 555 91012;
0206683000999992000100618004-26630+015100FM-12+000099999V0202301N010312200019N0200001N1+01461+00871101351ADDAA199000091GA1001+999999999GF100991001001999999001001KA1120M+02131MA1999999101171MD1310031+9999REMSYN080AAXX  06184 68300 32998 02320 10146 20087 30117 40135 53003 333 10213 555 91013;EQDQ01  00002PRCP99
0157683000999992000100621004-26630+015100FM-12+000099999V0202301N007212200019N0300001N1+01411+00691101511ADDGA1001+999999999GF100991001001999999001001MA1999999101331MD1210161+9999REMSYN074AAXX  06214 68300 42980 02314 10141 20069 30133 40151 52016 333 555 91015;
0147683000999992000100700004-26630+015100FM-12+000099999V0201801N005112200019N0030001N1+01071+00931101391ADDAA199000091GF101991999999000751999999REMSYN079AAXX  07004 68300 32130 11810 10107 20093 3//// 40139 2006 81600 333 555 91013;EQDQ01  00002PRCP99
0132683000999992000100703004-26630+015100FM-12+000099999V0203601N004112200019N0040001N1+01101+00901101381ADDGF101991011061000751001001MD1810011+9999REMSYN080AAXX  07034 68300 42140 13608 10110 20090 3//// 40138 58001 81600 333 555 91013;
0244683000999992000100706004-26630+015100FM-12+000099999V0203601N004112200019N0040001N1+01001+01001101531ADDAA199000091AY141061AY241061GF103991999061000751001001KA1240M+02151KA2120N+01001MD1310161+9999MW1451REMSYN098AAXX  07064 68300 31140 33608 10100 20100 3//// 40153 53016 74544 81600 333 20100 555 10215 91015;EQDQ01+000012SCOTLCQ02  00002PRCP99
0147683000999992000100709004-26630+015100FM-12+000099999V0203201N005110021019N0150001N1+01301+01011101741ADDGF105991051051002501001001MA1999999101561MD1110051+9999REMSYN080AAXX  07094 68300 42365 53210 10130 20101 30156 40174 51005 85500 333 555 91017;
0196683000999992000100712004-26630+015100FM-12+000099999V0203201N005110021019N0200001N1+01351+01061101611ADDAA199000091GF105991051051002501001001KA1120N+01001MA1999999101431MD1810131+9999REMSYN086AAXX  07124 68300 32370 53210 10135 20106 30143 40161 58013 85500 333 20100 555 91016;EQDQ01  00002PRCP99
0147683000999992000100715004-26630+015100FM-12+000099999V0203601N006210006019N0200001N1+01351+01061101551ADDGF105991051051000751001001MA1999999101371MD1710071+9999REMSYN080AAXX  07154 68300 42170 53612 10135 20106 30137 40155 57007 85500 333 555 91015;
0196683000999992000100718004-26630+015100FM-12+000099999V0203601N005110006019N0300001N1+01341+01131101671ADDAA199000091GF108991081051000751999999KA1120M+01651MA1999999101491MD1710121+9999REMSYN086AAXX  07184 68300 32180 83610 10134 20113 30149 40167 57012 885// 333 10165 555 91016;EQDQ01  00002PRCP99
0147683000999992000100721004-26630+015100FM-12+000099999V0203601N005110006019N0300001N1+01251+01061101881ADDGF108991081051000751999999MA1999999101701MD1710111+9999REMSYN080AAXX  07214 68300 42180 83610 10125 20106 30170 40188 57011 885// 333 555 91018;
0177683000999992000100800004-26630+015100FM-12+000099999V0203601N005110006019N0100001N1+01231+01061101911ADDAA199000091GF108991081061000751999999MA1999999101731MD1710031+9999REMSYN080AAXX  08004 68300 32160 83610 10123 20106 30173 40191 57003 886// 333 555 91019;EQDQ01  00002PRCP99
0147683000999992000100803004-26630+015100FM-12+000099999V0203601N001510021019N0100001N1+01301+00931101851ADDGF108991081051002501999999MA1999999101671MD1810061+9999REMSYN080AAXX  08034 68300 42360 83603 10130 20093 30167 40185 58006 885// 333 555 91018;
0215683000999992000100806004-26630+015100FM-12+000099999V0203601N004110006019N0100001N1+01401+01221101981ADDAA199000091GF108991081061000751999999KA1240M+01651KA2120N+01251MA1999999101801MD1310131+9999REMSYN092AAXX  08064 68300 32160 83608 10140 20122 30180 40198 53013 886// 333 20125 555 10165 91019;EQDQ01  00002PRCP99
0177683000999992000100809004-26630+015100FM-12+000099999V0202301N006212200019N0200001N1+01851+00891101971ADDAA199000091GF101991011051008001001001MA1999999101791MD1010001+9999REMSYN080AAXX  08094 68300 32570 12312 10185 20089 30179 40197 50000 81500 333 555 91019;EQDQ01  00002PRCP99
0191683000999992000100812004-26630+015100FM-12+000099999V0202301N012912200019N0200001N1+01901+00841101631ADDAA199000091GA1001+999999999GF100991001001999999001001KA1120N+01301MD1810161+9999REMSYN080AAXX  08124 68300 32970 02325 10190 20084 3//// 40163 58016 333 20130 555 91016;EQDQ01  00002PRCP99
0191683000999992000100818004-26630+015100FM-12+000099999V0201801N006212200019N0100001N1+01511+00931101601ADDAA199000091GA1001+999999999GF100991001001999999001001KA1120M+02031MD1310051+9999REMSYN080AAXX  08184 68300 32960 01812 10151 20093 3//// 40160 53005 333 10203 555 91016;EQDQ01  00002PRCP99
0142683000999992000100821004-26630+015100FM-12+000099999V0201801N005112200019N0100001N1+01421+00931101651ADDGA1001+999999999GF100991001001999999001001MD1210051+9999REMSYN074AAXX  08214 68300 42960 01810 10142 20093 3//// 40165 52005 333 555 91016;
0187683000999992000100900004-26630+015100FM-12+000099999V0200101N004112200019N0100001N1+01391+00831101701ADDAA199000091GA1001+999999999GF100991001001999999001001MA1999999101521MD1810131+9999REMSYN074AAXX  09004 68300 32960 00108 10139 20083 30152 40170 58013 333 555 91017;EQDQ01  00002PRCP99
0157683000999992000100903004-26630+015100FM-12+000099999V0201801N004112200019N0200001N1+01161+00811101631ADDGA1001+999999999GF100991001001999999001001MA1999999101451MD1610071+9999REMSYN074AAXX  09034 68300 42970 01808 10116 20081 30145 40163 56007 333 555 91016;
0210683000999992000100906004-26630+015100FM-12+000099999V0200501N005112200019N0200001N1+01301+00791101551ADDAA199000091GA1001+999999999GF100991001001999999001001KA1240M+02051KA2120N+01151MD1310101+9999REMSYN086AAXX  09064 68300 32970 00510 10130 20079 3//// 40155 53010 333 20115 555 10205 91015;EQDQ01  00002PRCP99
0142683000999992000100909004-26630+015100FM-12+000099999V0201801N007712200019N0200001N1+01901+01071101571ADDGA1001+999999999GF100991001001999999001001MD1210021+9999REMSYN074AAXX  09094 68300 42970 01815 10190 20107 3//// 40157 52002 333 555 91015;
0191683000999992000100912004-26630+015100FM-12+000099999V0202301N012912200019N0200001N1+02051+01041101371ADDAA199000091GA1001+999999999GF100991001001999999001001KA1120N+01321MD1810211+9999REMSYN080AAXX  09124 68300 32970 02325 10205 20104 3//// 40137 58021 333 20132 555 91013;EQDQ01  00002PRCP99
0157683000999992000100915004-26630+015100FM-12+000099999V0201801N010312200019N0200001N1+01851+01101101491ADDGA1001+999999999GF100991001001999999001001MA1999999101311MD1710061+9999REMSYN074AAXX  09154 68300 42970 01820 10185 20110 30131 40149 57006 333 555 91014;
0206683000999992000100918004-26630+015100FM-12+000099999V0201801N011812200019N0300001N1+01551+00971101671ADDAA199000091GA1001+999999999GF100991001001999999001001KA1120M+02101MA1999999101491MD1310181+9999REMSYN080AAXX  09184 68300 32980 01823 10155 20097 30149 40167 53018 333 10210 555 91016;EQDQ01  00002PRCP99
0157683000999992000100921004-26630+015100FM-12+000099999V0201801N010312200019N0200001N1+01531+00931101811ADDGA1001+999999999GF100991001001999999001001MA1999999101631MD1210141+9999REMSYN074AAXX  09214 68300 42970 01820 10153 20093 30163 40181 52014 333 555 91018;
0172683000999992000101000004-26630+015100FM-12+000099999V0201801N009312200019N0050001N1+01481+00731101571ADDAA199000091GA1001+999999999GF100991001001999999001001MD1810071+9999REMSYN074AAXX  10004 68300 32950 01818 10148 20073 3//// 40157 58007 333 555 91015;EQDQ01  00002PRCP99
0142683000999992000101003004-26630+015100FM-12+000099999V0201801N007212200019N0100001N1+01331+00921101411ADDGA1001+999999999GF100991001001999999001001MD1710161+9999REMSYN074AAXX  10034 68300 42960 01814 10133 20092 3//// 40141 57016 333 555 91014;
0210683000999992000101006004-26630+015100FM-12+000099999V0201801N005112200019N0650001N1+01551+00971101591ADDAA199000091GA1001+999999999GF100991001001999999001001KA1240M+02101KA2120N+01351MD1810181+9999REMSYN086AAXX  10064 68300 32987 01810 10155 20097 3//// 40159 58018 333 20135 555 10210 91015;EQDQ01  00002PRCP99
0206683000999992000101012004-26630+015100FM-12+000099999V0201801N012912200019N0200001N1+02151+01121101501ADDAA199000091GA1001+999999999GF100991001001999999001001KA1120N+01561MA1999999101321MD1810211+9999REMSYN080AAXX  10124 68300 32970 01825 10215 20112 30132 40150 58021 333 20156 555 91015;EQDQ01  00002PRCP99
0157683000999992000101015004-26630+015100FM-12+000099999V0201301N015412200019N0200001N1+02041+01161101381ADDGA1001+999999999GF100991001001999999001001MA1999999101201MD1710121+9999REMSYN074AAXX  10154 68300 42970 01330 10204 20116 30120 40138 57012 333 555 91013;
0206683000999992000101018004-26630+015100FM-12+000099999V0201301N012312200019N0200001N1+01571+00981101501ADDAA199000091GA1001+999999999GF100991001001999999001001KA1120M+02331MA1999999101321MD1310121+9999REMSYN080AAXX  10184 68300 32970 01324 10157 20098 30132 40150 53012 333 10233 555 91015;EQDQ01  00002PRCP99
0157683000999992000101021004-26630+015100FM-12+000099999V0201801N012312200019N0200001N1+01501+00801101541ADDGA1001+999999999GF100991001001999999001001MA1999999101361MD1210041+9999REMSYN074AAXX  10214 68300 42970 01824 10150 20080 30136 40154 52004 333 555 91015;
0172683000999992000101100004-26630+015100FM-12+000099999V0201801N006212200019N0200001N1+01451+00741101351ADDAA199000091GA1001+999999999GF100991001001999999001001MD1810011+9999REMSYN074AAXX  11004 68300 32970 01812 10145 20074 3//// 40135 58001 333 555 91013;EQDQ01  00002PRCP99
0142683000999992000101103004-26630+015100FM-12+000099999V0201801N005112200019N0100001N1+01151+00951101361ADDGA1001+999999999GF100991001001999999001001MD1410001+9999REMSYN074AAXX  11034 68300 42960 01810 10115 20095 3//// 40136 54000 333 555 91013;
0210683000999992000101106004-26630+015100FM-12+000099999V0203601N001512200019N0200001N1+01251+00951101491ADDAA199000091GA1001+999999999GF100991001001999999001001KA1240M+02331KA2120N+01151MD1310131+9999REMSYN086AAXX  11064 68300 32970 03603 10125 20095 3//// 40149 53013 333 20115 555 10233 91014;EQDQ01  00002PRCP99
0157683000999992000101109004-26630+015100FM-12+000099999V0203601N001512200019N0200001N1+01561+01111101731ADDGA1001+999999999GF100991001001999999001001MA1999999101551MD1210061+9999REMSYN074AAXX  11094 68300 42970 03603 10156 20111 30155 40173 52006 333 555 91017;
0206683000999992000101112004-26630+015100FM-12+000099999V0203301N002112200019N0200001N1+01551+01141101571ADDAA199000091GA1001+999999999GF100991001001999999001001KA1120N+01301MA1999999101391MD1310161+9999REMSYN080AAXX  11124 68300 32970 03304 10155 20114 30139 40157 53016 333 20130 555 91015;EQDQ01  00002PRCP99
0191683000999992000101115004-26630+015100FM-12+000099999V0203601N005110003019N0005001N1+01201+01121101491ADDAY141031AY201031GA1091+999999999GF109991091999999999999999MA1999999101311MD1810081+9999MW1451REMSYN086AAXX  11154 68300 41/05 93610 10120 20112 30131 40149 58008 74540 886// 333 555 91014;
0240683000999992000101118004-26630+015100FM-12+000099999V0203601N005110003019N0005001N1+01101+01061101571ADDAA199000091AY141061AY201061GA1091+999999999GF109991091999999999999999KA1120M+01761MA1999999101391MD1310081+9999MW1471REMSYN092AAXX  11184 68300 31/05 93610 10110 20106 30139 40157 53008 74740 8//// 333 10176 555 91015;EQDQ01  00002PRCP99
0206683000999992000101200004-26630+015100FM-12+000099999V0203601N005110003019N0005001N1+01051+00951101511ADDAA199000091AY141061AY241061GA1091+999999999GF109991091999999999999999MD1810201+9999MW1441REMSYN086AAXX  12004 68300 31/05 93610 10105 20095 3//// 40151 58020 74444 8//// 333 555 91015;EQDQ01  00002PRCP99
0176683000999992000101203004-26630+015100FM-12+000099999V0203601N005110003019N0003001N1+01151+01151101431ADDAY141031AY241031GA1091+999999999GF109991091999999999999999MD1710081+9999MW1441REMSYN086AAXX  12034 68300 41/03 93610 10115 20115 3//// 40143 57008 74444 8//// 333 555 91014;
0244683000999992000101206004-26630+015100FM-12+000099999V0203301N005110006019N0009001N1+01151+01151101631ADDAA199000091AY141061AY241061GA1091+999999999GF109991091999999999999999KA1240M+01761KA2120N+01101MD1810171+9999MW1471REMSYN098AAXX  12064 68300 31/09 93310 10115 20115 3//// 40163 58017 74744 8//// 333 20110 555 10176 91016;EQDQ01  00002PRCP99
0175683000999992000101209004-26630+015100FM-12+000099999V0203601N001510006019N0050001N1+01201+01121101841ADDAY101031AY201031GF108991081061000751999999MA1999999101661MD1110031+9999MW1401REMSYN086AAXX  12094 68300 41150 83603 10120 20112 30166 40184 51003 74000 886// 333 555 91018;
0166683000999992000101215004-26630+015100FM-12+000099999V0203601N004119999999N0300001N1+01791+01171101581ADDGF106991999051004501999999MA1999999101401MD1710071+9999REMSYN080AAXX  12154 68300 42480 63608 10179 20117 30140 40158 57007 885// 333 555 91015;EQDQ01+000082SCOTLC
0196683000999992000101218004-26630+015100FM-12+000099999V0202301N005110006019N0200001N1+01501+01281101791ADDAA199000091GF108991081061000751999999KA1120M+02121MA1999999101611MD1310211+9999REMSYN086AAXX  12184 68300 32170 82310 10150 20128 30161 40179 53021 886// 333 10212 555 91017;EQDQ01  00002PRCP99
0147683000999992000101221004-26630+015100FM-12+000099999V0201801N003110042019N0200001N1+01601+01331101741ADDGF108991081051004501999999MA1999999101561MD1810051+9999REMSYN080AAXX  12214 68300 42470 81806 10160 20133 30156 40174 58005 885// 333 555 91017;
0172683000999992000101300004-26630+015100FM-12+000099999V0201801N003112200019N0200001N1+01251+01061101521ADDAA199000091GA1001+999999999GF100991001001999999001001MD1710041+9999REMSYN074AAXX  13004 68300 32970 01806 10125 20106 3//// 40152 57004 333 555 91015;EQDQ01  00002PRCP99
0142683000999992000101303004-26630+015100FM-12+000099999V0201801N003112200019N0200001N1+01401+01311101441ADDGA1001+999999999GF100991001001999999001001MD1710081+9999REMSYN074AAXX  13034 68300 42970 01806 10140 20131 3//// 40144 57008 333 555 91014;
0200683000999992000101306004-26630+015100FM-12+000099999V0201301N003119999999N0050001N1+01551+01321101511ADDAA199000091GF106991061061999999999999KA1240M+02121KA2120N+01451MD1810101+9999REMSYN092AAXX  13064 68300 32950 61306 10155 20132 3//// 40151 58010 866// 333 20145 555 10212 91015;EQDQ01  00002PRCP99
0132683000999992000101309004-26630+015100FM-12+000099999V0201801N004119999999N0050001N1+02021+01281101461ADDGF106991061051999999999999MD1710051+9999REMSYN080AAXX  13094 68300 42950 61808 10202 20128 3//// 40146 57005 865// 333 555 91014;
0196683000999992000101312004-26630+015100FM-12+000099999V0201801N011312200019N0100001N1+01951+01151101521ADDAA199000091GF104991041051999999001001KA1120N+01561MA1999999101341MD1710121+9999REMSYN086AAXX  13124 68300 32960 41822 10195 20115 30134 40152 57012 84500 333 20156 555 91015;EQDQ01  00002PRCP99
0142683000999992000101315004-26630+015100FM-12+000099999V0201801N010312200019N0100001N1+01861+01211101151ADDGA1001+999999999GF100991001001999999001001MD1810181+9999REMSYN074AAXX  13154 68300 42960 01820 10186 20121 3//// 40115 58018 333 555 91011;
0191683000999992000101318004-26630+015100FM-12+000099999V0201801N007712200019N0050001N1+01551+01181101251ADDAA199000091GA1001+999999999GF100991001001999999001001KA1120M+02351MD1310101+9999REMSYN080AAXX  13184 68300 32950 01815 10155 20118 3//// 40125 53010 333 10235 555 91012;EQDQ01  00002PRCP99
0157683000999992000101321004-26630+015100FM-12+000099999V0201801N001512200019N0100001N1+01601+01141101481ADDGA1001+999999999GF100991001001999999001001MA1999999101301MD1210051+9999REMSYN074AAXX  13214 68300 42960 01803 10160 20114 30130 40148 52005 333 555 91014;
0187683000999992000101400004-26630+015100FM-12+000099999V0201801N001512200019N0300001N1+01551+01041101361ADDAA199000091GA1001+999999999GF100991001001999999001001MA1999999101181MD1710121+9999REMSYN074AAXX  14004 68300 32980 01803 10155 20104 30118 40136 57012 333 555 91013;EQDQ01  00002PRCP99
0142683000999992000101403004-26630+015100FM-12+000099999V0201801N001512200019N0100001N1+01451+01071101091ADDGA1001+999999999GF100991001001999999001001MD1810091+9999REMSYN074AAXX  14034 68300 42960 01803 10145 20107 3//// 40109 58009 333 555 91010;
0200683000999992000101406004-26630+015100FM-12+000099999V0201801N004110021019N0100001N1+01601+01161101151ADDAA199000091GF108991081051002501999999KA1240M+02401KA2120N+01391MD1310061+9999REMSYN092AAXX  14064 68300 32360 81808 10160 20116 3//// 40115 53006 885// 333 20139 555 10240 91011;EQDQ01  00002PRCP99
0147683000999992000101409004-26630+015100FM-12+000099999V0201801N004110042019N0200001N1+01921+01121101271ADDGF108991081051004501999999MA1999999101091MD1810061+9999REMSYN080AAXX  14094 68300 42470 81808 10192 20112 30109 40127 58006 885// 333 555 91012;
0196683000999992000101412004-26630+015100FM-12+000099999V0201801N005112200019N0200001N1+02151+01171101241ADDAA199000091GF104991041051004501001001KA1120N+01621MA1999999101061MD1710031+9999REMSYN086AAXX  14124 68300 32470 41810 10215 20117 30106 40124 57003 84500 333 20162 555 91012;EQDQ01  00002PRCP99
0147683000999992000101415004-26630+015100FM-12+000099999V0201801N007710006019N0100001N1+01921+01241999999ADDGF108991081071000751999999MA1999999100921MD1710071+9999REMSYN080AAXX  14154 68300 42160 81815 10192 20124 30092 4//// 57007 887// 333 555 91009;
0157683000999992000101421004-26630+015100FM-12+000099999V0201801N003112200019N0300001N1+01451+01171101431ADDGA1001+999999999GF100991001001999999001001MA1999999101251MD1310231+9999REMSYN074AAXX  14214 68300 42980 01806 10145 20117 30125 40143 53023 333 555 91014;
0187683000999992000101500004-26630+015100FM-12+000099999V0201801N001512200019N0100001N1+01551+01181101291ADDAA199000091GA1001+999999999GF100991001001999999001001MA1999999101111MD1710141+9999REMSYN074AAXX  15004 68300 32960 01803 10155 20118 30111 40129 57014 333 555 91012;EQDQ01  00002PRCP99
0215683000999992000101506004-26630+015100FM-12+000099999V0203601N004112200019N0100001N1+01271+01141101521ADDAA199000091GF103991031061002501001001KA1240M+02441KA2120N+01301MA1999999101341MD1310351+9999REMSYN092AAXX  15064 68300 32360 33608 10127 20114 30134 40152 53035 83600 333 20130 555 10244 91015;EQDQ01  00002PRCP99
0147683000999992000101509004-26630+015100FM-12+000099999V0203601N006210021019N0100001N1+01401+01181101661ADDGF108991081061002501999999MA1999999101481MD1110141+9999REMSYN080AAXX  15094 68300 42360 83612 10140 20118 30148 40166 51014 886// 333 555 91016;
0160683000999992000101515004-26630+015100FM-12+000099999V0203601N003110006019N0050001N1+01651+01441101501ADDAY141031AY221031GF108991081061000751999999MD1310181+9999MW1401REMSYN086AAXX  15154 68300 41150 83606 10165 20144 3//// 40150 53018 74042 886// 333 555 91015;
0142683000999992000101521004-26630+015100FM-12+000099999V0201801N001512200019N0100001N1+01551+01371101691ADDGA1001+999999999GF100991001001999999001001MD1210061+9999REMSYN074AAXX  15214 68300 42960 01803 10155 20137 3//// 40169 52006 333 555 91016;
0187683000999992000101600004-26630+015100FM-12+000099999V0201801N001512200019N0200001N1+01451+01361101821ADDAA199000091GA1001+999999999GF100991001001999999001001MA1999999101641MD1810051+9999REMSYN074AAXX  16004 68300 32970 01803 10145 20136 30164 40182 58005 333 555 91018;EQDQ01  00002PRCP99
0157683000999992000101603004-26630+015100FM-12+000099999V0201801N001512200019N0200001N1+01551+01281101771ADDGA1001+999999999GF100991001001999999001001MA1999999101591MD1810061+9999REMSYN074AAXX  16034 68300 42970 01803 10155 20128 30159 40177 58006 333 555 91017;
0215683000999992000101606004-26630+015100FM-12+000099999V0201801N006210006019N0100001N1+01531+01201101891ADDAA199000091GF107991071061000751999999KA1240M+02231KA2120N+01371MA1999999101711MD1310101+9999REMSYN092AAXX  16064 68300 32160 71812 10153 20120 30171 40189 53010 876// 333 20137 555 10223 91018;EQDQ01  00002PRCP99
0132683000999992000101609004-26630+015100FM-12+000099999V0202301N010810900019N0200001N1+02151+01171101661ADDGF105991031051000751001051MD1810061+9999REMSYN080AAXX  16094 68300 42170 52321 10215 20117 3//// 40166 58006 83505 333 555 91016;
0181683000999992000101612004-26630+015100FM-12+000099999V0202301N014412200019N0200001N1+02241+01091101521ADDAA199000091GF104991001001999999001041KA1120N+01571MD1710141+9999REMSYN086AAXX  16124 68300 32970 42328 10224 20109 3//// 40152 57014 80004 333 20157 555 91015;EQDQ01  00002PRCP99
0147683000999992000101615004-26630+015100FM-12+000099999V0201801N010312200019N0300001N1+02001+01041101671ADDGF104991001001999999001041MA1999999101491MD1610031+9999REMSYN080AAXX  16154 68300 42980 41820 10200 20104 30149 40167 56003 80004 333 555 91016;
0196683000999992000101618004-26630+015100FM-12+000099999V0201801N012912200019N0200001N1+01601+01031101741ADDAA199000091GF104991001001999999001041KA1120M+02301MA1999999101561MD1210071+9999REMSYN086AAXX  16184 68300 32970 41825 10160 20103 30156 40174 52007 80004 333 10230 555 91017;EQDQ01  00002PRCP99
0147683000999992000101621004-26630+015100FM-12+000099999V0201801N005112200019N0200001N1+01501+00921101781ADDGF104991041001999999031001MA1999999101601MD1710041+9999REMSYN080AAXX  16214 68300 42970 41810 10150 20092 30160 40178 57004 84030 333 555 91017;
0172683000999992000101700004-26630+015100FM-12+000099999V0209999C000012200019N0200001N1+01401+00911101601ADDAA199000091GA1001+999999999GF100991001001999999001001MD1410001+9999REMSYN074AAXX  17004 68300 32970 00000 10140 20091 3//// 40160 54000 333 555 91016;EQDQ01  00002PRCP99
0138683000999992000101703004-26630+015100FM-12+000099999V0201801N003112200019N0200001N1+01301+00901101581ADDGA1001+999999999GF100991001001999999001001MD1710021+9999REMSYN070AAXX  17034 68300 42970 01806 10130 20090 3//// 40158 57002 555 91017;
0210683000999992000101706004-26630+015100FM-12+000099999V0201801N008212200019N0100001N1+01401+01121101621ADDAA199000091GA1001+999999999GF100991001001999999001001KA1240M+02351KA2120N+01261MD1310041+9999REMSYN086AAXX  17064 68300 32960 01816 10140 20112 3//// 40162 53004 333 20126 555 10235 91016;EQDQ01  00002PRCP99
0157683000999992000101709004-26630+015100FM-12+000099999V0201801N010312200019N0100001N1+02101+00941101681ADDGA1001+999999999GF100991001001999999001001MA1999999101501MD1810121+9999REMSYN074AAXX  17094 68300 42960 01820 10210 20094 30150 40168 58012 333 555 91016;
0206683000999992000101712004-26630+015100FM-12+000099999V0201801N014412200019N0100001N1+02011+01121101681ADDAA199000091GA1001+999999999GF100991001001999999001001KA1120N+01551MA1999999101501MD1410001+9999REMSYN080AAXX  17124 68300 32960 01828 10201 20112 30150 40168 54000 333 20155 555 91016;EQDQ01  00002PRCP99
0147683000999992000101715004-26630+015100FM-12+000099999V0201801N010312200019N0300001N1+01861+01211101661ADDGF102991021041008001001001MA1999999101481MD1610021+9999REMSYN080AAXX  17154 68300 42580 21820 10186 20121 30148 40166 56002 82400 333 555 91016;
0196683000999992000101718004-26630+015100FM-12+000099999V0201801N007712200019N0300001N1+01561+01171101841ADDAA199000091GF102991021041002501001001KA1120M+02251MA1999999101661MD1310181+9999REMSYN086AAXX  17184 68300 32380 21815 10156 20117 30166 40184 53018 82400 333 10225 555 91018;EQDQ01  00002PRCP99
0157683000999992000101721004-26630+015100FM-12+000099999V0201801N005112200019N0300001N1+01401+01221102011ADDGA1001+999999999GF100991001001999999001001MA1999999101831MD1210181+9999REMSYN074AAXX  17214 68300 42980 01810 10140 20122 30183 40201 52018 333 555 91020;
0172683000999992000101800004-26630+015100FM-12+000099999V0201801N003112200019N0100001N1+01351+01161101801ADDAA199000091GA1001+999999999GF100991001001999999001001MD1710041+9999REMSYN074AAXX  18004 68300 32960 01806 10135 20116 3//// 40180 57004 333 555 91018;EQDQ01  00002PRCP99
0177683000999992000101803004-26630+015100FM-12+000099999V0200101N999992200019N0300001N1+01351+01161101761ADDGA1001+999999999GF100991001001999999001001MD1810041+9999REMSYN074AAXX  18034 68300 42980 00180 10135 20116 3//// 40176 58004 333 555 91017;EQDQ01+004113WOSPD Q020004113WOSPD 
0200683000999992000101806004-26630+015100FM-12+000099999V0201801N009312200019N0100001N1+01471+00901101781ADDAA199000091GF101991011001999999031001KA1240M+02301KA2120N+01301MD1310021+9999REMSYN092AAXX  18064 68300 32960 11818 10147 20090 3//// 40178 53002 81030 333 20130 555 10230 91017;EQDQ01  00002PRCP99
0147683000999992000101809004-26630+015100FM-12+000099999V0201801N010810006019N0200001N1+02051+01041101871ADDGF105991051051000751001001MA1999999101691MD1810091+9999REMSYN080AAXX  18094 68300 42170 51821 10205 20104 30169 40187 58009 85500 333 555 91018;
0196683000999992000101812004-26630+015100FM-12+000099999V0201801N014410006019N0100001N1+02011+00961101741ADDAA199000091GF105991051051000751051001KA1120N+02031MA1999999101561MD1710131+9999REMSYN086AAXX  18124 68300 32160 51828 10201 20096 30156 40174 57013 85550 333 20203 555 91017;EQDQ01  00002PRCP99
0132683000999992000101815004-26630+015100FM-12+000099999V0201801N015410006019N0100001N1+01741+01001101521ADDGF107991071041000751999999MD1610041+9999REMSYN080AAXX  18154 68300 42160 71830 10174 20100 3//// 40152 56004 874// 333 555 91015;
0181683000999992000101818004-26630+015100FM-12+000099999V0201801N010310042019N0100001N1+01521+01111101731ADDAA199000091GF106991061041004501001001KA1120M+02191MD1310201+9999REMSYN086AAXX  18184 68300 32460 61820 10152 20111 3//// 40173 53020 86400 333 10219 555 91017;EQDQ01  00002PRCP99
0132683000999992000101821004-26630+015100FM-12+000099999V0201801N015419999999N0100001N1+01701+00821101691ADDGF106991001001999999001021MD1710041+9999REMSYN080AAXX  18214 68300 42960 61830 10170 20082 3//// 40169 57004 80002 333 555 91016;
0187683000999992000101900004-26630+015100FM-12+000099999V0201801N005110024019N0100001N1+01651+00751101561ADDAA199000021AY121061AY221061GA1091+999999999GF109991091999999999999999MD1810131+9999MW1501REMSYN086AAXX  19004 68300 31/60 91810 10165 20075 3//// 40156 58013 75022 8//// 333 555 91015;
0142683000999992000101903004-26630+015100FM-12+000099999V0201801N008212200019N0100001N1+01601+00921101541ADDGA1001+999999999GF100991001001999999001001MD1710111+9999REMSYN074AAXX  19034 68300 42960 01816 10160 20092 3//// 40154 57011 333 555 91015;
0181683000999992000101906004-26630+015100FM-12+000099999V0201801N010310360019N0100001N1+01671+00731101451ADDAA199000021GF105991041061004501081999KA1240M+02231KA2120N+01561MD1410001+9999REMSYN092AAXX  19064 68300 32460 51820 10167 20073 3//// 40145 54000 8468/ 333 20156 555 10223 91014;
0177683000999992000101912004-26630+015100FM-12+000099999V0201801N014410006019N0050001N1+02051+01041101441ADDAA199000021GF107991071061000751001001KA1120N+01701MA1999999101261MD1710131+9999REMSYN086AAXX  19124 68300 32150 71828 10205 20104 30126 40144 57013 87600 333 20170 555 91014;
0147683000999992000101915004-26630+015100FM-12+000099999V0201801N010310075019N0200001N1+01181+99999101261ADDGF105991051051008001001001MA1999999101081MD1810141+9999REMSYN080AAXX  19154 68300 42570 51820 10118 20166 30108 40126 58014 85500 333 555 91012;
0196683000999992000101918004-26630+015100FM-12+000099999V0201801N009310042019N0100001N1+01641+01101101361ADDAA199000091GF108991081061004501999999KA1120M+02301MA1999999101181MD1310101+9999REMSYN086AAXX  19184 68300 32460 81818 10164 20110 30118 40136 53010 886// 333 10230 555 91013;EQDQ01  00002PRCP99
0147683000999992000101921004-26630+015100FM-12+000099999V0201801N005110120019N0300001N1+01601+01031101491ADDGF108991081051012501999999MA1999999101311MD1210131+9999REMSYN080AAXX  19214 68300 42680 81810 10160 20103 30131 40149 52013 885// 333 555 91014;
0172683000999992000102000004-26630+015100FM-12+000099999V0201801N003112200019N0040001N1+01501+01021101191ADDAA199000091GA1001+999999999GF100991001001999999001001MD1710121+9999REMSYN074AAXX  20004 68300 32940 01806 10150 20102 3//// 40119 57012 333 555 91011;EQDQ01  00002PRCP99
0142683000999992000102003004-26630+015100FM-12+000099999V0201801N003112200019N0040001N1+01451+01071101121ADDGA1001+999999999GF100991001001999999001001MD1810031+9999REMSYN074AAXX  20034 68300 42940 01806 10145 20107 3//// 40112 58003 333 555 91011;
0215683000999992000102006004-26630+015100FM-12+000099999V0201801N007712200019N0100001N1+01491+01141101531ADDAA199000091GF104991041041000751001001KA1240M+02321KA2120N+01411MA1999999101351MD1310221+9999REMSYN092AAXX  20064 68300 32160 41815 10149 20114 30135 40153 53022 84400 333 20141 555 10232 91015;EQDQ01  00002PRCP99
0147683000999992000102009004-26630+015100FM-12+000099999V0201801N007712200019N0100001N1+02001+01171101521ADDGF103991031041000751001001MA1999999101341MD1410001+9999REMSYN080AAXX  20094 68300 42160 31815 10200 20117 30134 40152 54000 83400 333 555 91015;
0157683000999992000102012004-26630+015100FM-12+000099999V0201801N015412200019N0200001N1+01901+01281101351ADDGA1001+999999999GF100991001001999999001001MA1999999101171MD1710021+9999REMSYN074AAXX  20124 68300 42970 01830 10190 20128 30117 40135 57002 333 555 91013;
0157683000999992000102015004-26630+015100FM-12+000099999V0201801N015412200019N0200001N1+01901+01281101351ADDGA1001+999999999GF100991001001999999001001MA1999999101171MD1710021+9999REMSYN074AAXX  20154 68300 42970 01830 10190 20128 30117 40135 57002 333 555 91013;
0206683000999992000102018004-26630+015100FM-12+000099999V0201801N012912200019N0200001N1+01601+01421101491ADDAA199000091GA1001+999999999GF100991001001999999001001KA1120M+02251MA1999999101311MD1310141+9999REMSYN080AAXX  20184 68300 32970 01825 10160 20142 30131 40149 53014 333 10225 555 91014;EQDQ01  00002PRCP99
0157683000999992000102021004-26630+015100FM-12+000099999V0201801N012312200019N0300001N1+01501+01171101611ADDGA1001+999999999GF100991001001999999001001MA1999999101431MD1210121+9999REMSYN074AAXX  20214 68300 42980 01824 10150 20117 30143 40161 52012 333 555 91016;
0187683000999992000102100004-26630+015100FM-12+000099999V0201801N008212200019N0100001N1+01381+01171101571ADDAA199000091GA1001+999999999GF100991001001999999001001MA1999999101391MD1810041+9999REMSYN074AAXX  21004 68300 32960 01816 10138 20117 30139 40157 58004 333 555 91015;EQDQ01  00002PRCP99
0187683000999992000102103004-26630+015100FM-12+000099999V0201801N006212200019N0300001N1+01361+01151101531ADDAA199000091GA1001+999999999GF100991001001999999001001MA1999999101351MD1710041+9999REMSYN074AAXX  21034 68300 32980 01812 10136 20115 30135 40153 57004 333 555 91015;EQDQ01  00002PRCP99
0215683000999992000102106004-26630+015100FM-12+000099999V0203601N003110006019N0050001N1+01371+01141101811ADDAA199000091GF106991061051000751001001KA1240M+02261KA2120N+01361MA1999999101631MD1310261+9999REMSYN092AAXX  21064 68300 32150 63606 10137 20114 30163 40181 53026 86500 333 20136 555 10226 91018;EQDQ01  00002PRCP99
0147683000999992000102109004-26630+015100FM-12+000099999V0203601N001510006019N0300001N1+01621+01011101801ADDGF105991051051000751001001MA1999999101621MD1510011+9999REMSYN080AAXX  21094 68300 42180 53603 10162 20101 30162 40180 55001 85500 333 555 91018;
0157683000999992000102115004-26630+015100FM-12+000099999V0201801N010312200019N0200001N1+01851+01221101481ADDGA1001+999999999GF100991001001999999001001MA1999999101301MD1710021+9999REMSYN074AAXX  21154 68300 42970 01820 10185 20122 30130 40148 57002 333 555 91014;
0224683000999992000102118004-26630+015100FM-12+000099999V0201801N007710012019N0050001N1+01401+99999101581ADDAA199000091AY121061AY221061GF108991081061001501999999KA1120M+02151MA1999999101401MD1310081+9999MW1401REMSYN092AAXX  21184 68300 31250 81815 10140 20181 30140 40158 53008 74022 886// 333 10215 555 91015;EQDQ01  00002PRCP99
0177683000999992000102200004-26630+015100FM-12+000099999V0201801N006210021019N0200001N1+01421+01351101811ADDAA199000091GF108991081061002501999999MA1999999101631MD1210111+9999REMSYN080AAXX  22004 68300 32370 81812 10142 20135 30163 40181 52011 886// 333 555 91018;EQDQ01  00002PRCP99
0147683000999992000102203004-26630+015100FM-12+000099999V0200501N007210360019N0100001N1+02051+00921101291ADDGF106991011051008001031001MA1999999101111MD1810501+9999REMSYN080AAXX  22034 68300 42560 60514 10205 20092 30111 40129 58050 81530 333 555 91012;
0215683000999992000102206004-26630+015100FM-12+000099999V0201801N010312200019N0200001N1+01571+01371101541ADDAA199000091GF104991041001022501071001KA1240M+02501KA2120N+01351MA1999999101361MD1310211+9999REMSYN092AAXX  22064 68300 32870 41820 10157 20137 30136 40154 53021 84070 333 20135 555 10250 91015;EQDQ01  00002PRCP99
0196683000999992000102212004-26630+015100FM-12+000099999V0202301N008212200019N0200001N1+02001+01401101631ADDAA199000091GF101991011051000751001001KA1120N+01651MA1999999101451MD1210221+9999REMSYN086AAXX  22124 68300 32170 12316 10200 20140 30145 40163 52022 81500 333 20165 555 91016;EQDQ01  00002PRCP99
0157683000999992000102215004-26630+015100FM-12+000099999V0201801N005112200019N0200001N1+02001+01381101551ADDGA1001+999999999GF100991001001999999001001MA1999999101371MD1710081+9999REMSYN074AAXX  22154 68300 42970 01810 10200 20138 30137 40155 57008 333 555 91015;
0196683000999992000102218004-26630+015100FM-12+000099999V0201801N005112200019N0300001N1+01751+01401101621ADDAA199000091GF101991011061004501001001KA1120M+02201MA1999999101441MD1210071+9999REMSYN086AAXX  22184 68300 32480 11810 10175 20140 30144 40162 52007 81600 333 10220 555 91016;EQDQ01  00002PRCP99
0157683000999992000102221004-26630+015100FM-12+000099999V0201801N006212200019N0300001N1+01601+01351101711ADDGA1001+999999999GF100991001001999999001001MA1999999101531MD1210091+9999REMSYN074AAXX  22214 68300 42980 01812 10160 20135 30153 40171 52009 333 555 91017;
0187683000999992000102300004-26630+015100FM-12+000099999V0201801N007212200019N0100001N1+01511+01271101591ADDAA199000091GA1001+999999999GF100991001001999999001001MA1999999101411MD1810121+9999REMSYN074AAXX  23004 68300 32960 01814 10151 20127 30141 40159 58012 333 555 91015;EQDQ01  00002PRCP99
0195683000999992000102303004-26630+015100FM-12+000099999V0201801N006212200019N0300001N1+01511+01251101491ADDGA1001+999999999GF100991001001999999001001KA1120N+99999MA1999999101311MD1710101+9999REMSYN080AAXX  23034 68300 42280 01812 10151 20125 30131 40149 57010 333 21600 555 91014;EQDQ01 -06002ATMN  
0215683000999992000102306004-26630+015100FM-12+000099999V0201801N005112200019N0200001N1+01641+01241101611ADDAA199000091GF104991041041000751001001KA1240M+02241KA2120N+01471MA1999999101431MD1310121+9999REMSYN092AAXX  23064 68300 32170 41810 10164 20124 30143 40161 53012 84400 333 20147 555 10224 91016;EQDQ01  00002PRCP99
0157683000999992000102309004-26630+015100FM-12+000099999V0201801N005112200019N0200001N1+02201+01231101591ADDGA1001+999999999GF100991001001999999001001MA1999999101411MD1710021+9999REMSYN074AAXX  23094 68300 42970 01810 10220 20123 30141 40159 57002 333 555 91015;
0196683000999992000102312004-26630+015100FM-12+000099999V0201801N012910006019N0200001N1+02181+01311101401ADDAA199000091GF106991061041000751001001KA1120N+01661MA1999999101221MD1810171+9999REMSYN086AAXX  23124 68300 32170 61825 10218 20131 30122 40140 58017 86400 333 20166 555 91014;EQDQ01  00002PRCP99
0157683000999992000102315004-26630+015100FM-12+000099999V0201801N012912200019N0200001N1+02051+01361101281ADDGA1001+999999999GF100991001001999999001001MA1999999101101MD1710121+9999REMSYN074AAXX  23154 68300 42970 01825 10205 20136 30110 40128 57012 333 555 91012;
0206683000999992000102318004-26630+015100FM-12+000099999V0201801N012912200019N0200001N1+01701+01351101501ADDAA199000091GA1001+999999999GF100991001001999999001001KA1120M+02301MA1999999101321MD1310121+9999REMSYN080AAXX  23184 68300 32970 01825 10170 20135 30132 40150 53012 333 10230 555 91015;EQDQ01  00002PRCP99
0157683000999992000102321004-26630+015100FM-12+000099999V0201801N011312200019N0300001N1+01641+01301101511ADDGA1001+999999999GF100991001001999999001001MA1999999101331MD1210101+9999REMSYN074AAXX  23214 68300 42980 01822 10164 20130 30133 40151 52010 333 555 91015;
0157683000999992000102400004-26630+015100FM-12+000099999V0201801N009312200019N0100001N1+01521+01231101471ADDGA1001+999999999GF100991001001999999001001MA1999999101291MD1810041+9999REMSYN074AAXX  24004 68300 42960 01818 10152 20123 30129 40147 58004 333 555 91014;
0157683000999992000102403004-26630+015100FM-12+000099999V0201801N007212200019N0100001N1+01521+01231101391ADDGA1001+999999999GF100991001001999999001001MA1999999101211MD1710081+9999REMSYN074AAXX  24034 68300 42960 01814 10152 20123 30121 40139 57008 333 555 91013;
0215683000999992000102406004-26630+015100FM-12+000099999V0201801N005112200019N0200001N1+01701+01351101461ADDAA199000091GF103991031051000751001001KA1240M+02301KA2120N+01521MA1999999101281MD1210071+9999REMSYN092AAXX  24064 68300 32170 31810 10170 20135 30128 40146 52007 83500 333 20152 555 10230 91014;EQDQ01  00002PRCP99
0157683000999992000102409004-26630+015100FM-12+000099999V0201801N007712200019N0200001N1+02251+01191101411ADDGA1001+999999999GF100991001001999999001001MA1999999101231MD1710051+9999REMSYN074AAXX  24094 68300 42970 01815 10225 20119 30123 40141 57005 333 555 91014;
0206683000999992000102412004-26630+015100FM-12+000099999V0201801N014412200019N0200001N1+02271+00991101281ADDAA199000091GA1001+999999999GF100991001001999999001001KA1120N+01731MA1999999101101MD1710131+9999REMSYN080AAXX  24124 68300 32970 01828 10227 20099 30110 40128 57013 333 20173 555 91012;EQDQ01  00002PRCP99
0157683000999992000102415004-26630+015100FM-12+000099999V0201801N015412200019N0200001N1+02051+01041101181ADDGA1001+999999999GF100991001001999999001001MA1999999101001MD1710101+9999REMSYN074AAXX  24154 68300 42970 01830 10205 20104 30100 40118 57010 333 555 91011;
0206683000999992000102418004-26630+015100FM-12+000099999V0201801N014412200019N0200001N1+01701+00931101321ADDAA199000091GA1001+999999999GF100991001001999999001001KA1120M+02401MA1999999101141MD1310151+9999REMSYN080AAXX  24184 68300 32970 01828 10170 20093 30114 40132 53015 333 10240 555 91013;EQDQ01  00002PRCP99
0157683000999992000102421004-26630+015100FM-12+000099999V0201801N012312200019N0300001N1+01631+00521101471ADDGA1001+999999999GF100991001001999999001001MA1999999101291MD1810151+9999REMSYN074AAXX  24214 68300 42980 01824 10163 20052 30129 40147 58015 333 555 91014;
0187683000999992000102500004-26630+015100FM-12+000099999V0201801N014412200019N0100001N1+01421+00581101341ADDAA199000091GA1001+999999999GF100991001001999999001001MA1999999101161MD1810131+9999REMSYN074AAXX  25004 68300 32960 01828 10142 20058 30116 40134 58013 333 555 91013;EQDQ01  00002PRCP99
0157683000999992000102503004-26630+015100FM-12+000099999V0201801N012312200019N0100001N1+01321+00601101271ADDGA1001+999999999GF100991001001999999001001MA1999999101091MD1710071+9999REMSYN074AAXX  25034 68300 42960 01824 10132 20060 30109 40127 57007 333 555 91012;
0215683000999992000102506004-26630+015100FM-12+000099999V0201801N005110006019N0200001N1+01781+01241101361ADDAA199000091GF106991061061000751001001KA1240M+02371KA2120N+01291MA1999999101181MD1210091+9999REMSYN092AAXX  25064 68300 32170 61810 10178 20124 30118 40136 52009 86600 333 20129 555 10237 91013;EQDQ01  00002PRCP99
0147683000999992000102509004-26630+015100FM-12+000099999V0201801N009312200019N0200001N1+01721+01231101441ADDGF103991031041000751001001MA1999999101261MD1210081+9999REMSYN080AAXX  25094 68300 42170 31818 10172 20123 30126 40144 52008 83400 333 555 91014;
0181683000999992000102512004-26630+015100FM-12+000099999V0201801N016412200019N0200001N1+01851+00771101261ADDAA199000091GF103991031061004501001001KA1120N+01301MD1410001+9999REMSYN086AAXX  25124 68300 32470 31832 10185 20077 3//// 40126 54000 83600 333 20130 555 91012;EQDQ01  00002PRCP99
0147683000999992000102515004-26630+015100FM-12+000099999V0201801N014412200019N0200001N1+01851+00771101361ADDGF104991041051001501001001MA1999999101181MD1810081+9999REMSYN080AAXX  25154 68300 42270 41828 10185 20077 30118 40136 58008 84500 333 555 91013;
0206683000999992000102518004-26630+015100FM-12+000099999V0201801N007712200019N0300001N1+01451+00741101491ADDAA199000091GA1001+999999999GF100991001001999999001001KA1120M+01951MA1999999101311MD1310131+9999REMSYN080AAXX  25184 68300 32980 01815 10145 20074 30131 40149 53013 333 10195 555 91014;EQDQ01  00002PRCP99
0157683000999992000102521004-26630+015100FM-12+000099999V0201801N005112200019N0750001N1+01351+01061101631ADDGA1001+999999999GF100991001001999999001001MA1999999101451MD1310271+9999REMSYN074AAXX  25214 68300 42989 01810 10135 20106 30145 40163 53027 333 555 91016;
0172683000999992000102600004-26630+015100FM-12+000099999V0202101N001512200019N0100001N1+01201+01101101391ADDAA199000091GA1001+999999999GF100991001001999999001001MD1510011+9999REMSYN074AAXX  26004 68300 32960 02103 10120 20110 3//// 40139 55001 333 555 91013;EQDQ01  00002PRCP99
0225683000999992000102606004-26630+015100FM-12+000099999V0201801N003112200019N0200001N1+01331+00591101761ADDAA199000091GA1001+999999999GF100991001001999999001001KA1240M+01951KA2120N+01141MA1999999101581MD1310181+9999REMSYN086AAXX  26064 68300 32970 01806 10133 20059 30158 40176 53018 333 20114 555 10195 91017;EQDQ01  00002PRCP99
0157683000999992000102609004-26630+015100FM-12+000099999V0201801N003112200019N0200001N1+01901+00721101761ADDGA1001+999999999GF100991001001999999001001MA1999999101581MD1410001+9999REMSYN074AAXX  26094 68300 42970 01806 10190 20072 30158 40176 54000 333 555 91017;
0206683000999992000102612004-26630+015100FM-12+000099999V0201801N006712200019N0200001N1+01951+00911101671ADDAA199000091GA1001+999999999GF100991001001999999001001KA1120N+01351MA1999999101491MD1710091+9999REMSYN080AAXX  26124 68300 32970 01813 10195 20091 30149 40167 57009 333 20135 555 91016;EQDQ01  00002PRCP99
0157683000999992000102615004-26630+015100FM-12+000099999V0201801N009312200019N0200001N1+01901+00961101411ADDGA1001+999999999GF100991001001999999001001MA1999999101231MD1710171+9999REMSYN074AAXX  26154 68300 42970 01818 10190 20096 30123 40141 57017 333 555 91014;
0206683000999992000102618004-26630+015100FM-12+000099999V0201801N007712200019N0300001N1+01551+00861101671ADDAA199000091GA1001+999999999GF100991001001999999001001KA1120M+02251MA1999999101491MD1310171+9999REMSYN080AAXX  26184 68300 32980 01815 10155 20086 30149 40167 53017 333 10225 555 91016;EQDQ01  00002PRCP99
0157683000999992000102621004-26630+015100FM-12+000099999V0201801N006212200019N0100001N1+01381+00861101741ADDGA1001+999999999GF100991001001999999001001MA1999999101561MD1710071+9999REMSYN074AAXX  26214 68300 42960 01812 10138 20086 30156 40174 57007 333 555 91017;
0187683000999992000102700004-26630+015100FM-12+000099999V0201801N006212200019N0100001N1+01281+00751101661ADDAA199000091GA1001+999999999GF100991001001999999001001MA1999999101481MD1810081+9999REMSYN074AAXX  27004 68300 32960 01812 10128 20075 30148 40166 58008 333 555 91016;EQDQ01  00002PRCP99
0157683000999992000102703004-26630+015100FM-12+000099999V0201801N004112200019N0100001N1+01181+00771101511ADDGA1001+999999999GF100991001001999999001001MA1999999101331MD1710151+9999REMSYN074AAXX  27034 68300 42960 01808 10118 20077 30133 40151 57015 333 555 91015;
0225683000999992000102706004-26630+015100FM-12+000099999V0201801N001512200019N0200001N1+01351+00761101651ADDAA199000091GA1001+999999999GF100991001001999999001001KA1240M+02261KA2120N+01151MA1999999101471MD1210131+9999REMSYN086AAXX  27064 68300 32970 01803 10135 20076 30147 40165 52013 333 20115 555 10226 91016;EQDQ01  00002PRCP99
0142683000999992000102709004-26630+015100FM-12+000099999V0203001N001512200019N0200001N1+01631+01111101431ADDGA1001+999999999GF100991001001999999001001MD1710041+9999REMSYN074AAXX  27094 68300 42970 03003 10163 20111 3//// 40143 57004 333 555 91014;
0206683000999992000102712004-26630+015100FM-12+000099999V0203301N001512200019N0200001N1+02301+00781101611ADDAA199000091GA1001+999999999GF100991001001999999001001KA1120N+01401MA1999999101431MD1410001+9999REMSYN080AAXX  27124 68300 32970 03303 10230 20078 30143 40161 54000 333 20140 555 91016;EQDQ01  00002PRCP99
0157683000999992000102715004-26630+015100FM-12+000099999V0201801N001512200019N0200001N1+02101+01211101471ADDGA1001+999999999GF100991001001999999001001MA1999999101291MD1710131+9999REMSYN074AAXX  27154 68300 42970 01803 10210 20121 30129 40147 57013 333 555 91014;
0157683000999992000102721004-26630+015100FM-12+000099999V0201801N001512200019N0300001N1+01401+01311101711ADDGA1001+999999999GF100991001001999999001001MA1999999101531MD1310111+9999REMSYN074AAXX  27214 68300 42980 01803 10140 20131 30153 40171 53011 333 555 91017;
0263683000999992000102806004-26630+015100FM-12+000099999V0201801N001012200019N0030001N1+01251+01251101801ADDAA199000091AY141061AY281061GA1001+999999999GF100991001001999999001001KA1240M+02451KA2120N+01201MA1999999101621MD1310191+9999REMSYN092AAXX  28064 68300 31/30 01802 10125 20125 30162 40180 53019 74848 333 20120 555 10245 91018;EQDQ01+000482PRSWM1Q02  00002PRCP99
0142683000999992000102809004-26630+015100FM-12+000099999V0203601N001512200019N0200001N1+01551+01371101641ADDGA1001+999999999GF100991001001999999001001MD1210021+9999REMSYN074AAXX  28094 68300 42970 03603 10155 20137 3//// 40164 52002 333 555 91016;
0191683000999992000102812004-26630+015100FM-12+000099999V0201801N001512200019N0200001N1+02101+01321101541ADDAA199000091GA1001+999999999GF100991001001999999001001KA1120N+01301MD1710101+9999REMSYN080AAXX  28124 68300 32970 01803 10210 20132 3//// 40154 57010 333 20130 555 91015;EQDQ01  00002PRCP99
0157683000999992000102815004-26630+015100FM-12+000099999V0201801N005112200019N0200001N1+01901+01281101721ADDGA1001+999999999GF100991001001999999001001MA1999999101541MD1410001+9999REMSYN074AAXX  28154 68300 42970 01810 10190 20128 30154 40172 54000 333 555 91017;
0206683000999992000102818004-26630+015100FM-12+000099999V0201801N009312200019N0100001N1+01601+01331101831ADDAA199000091GA1001+999999999GF100991001001999999001001KA1120M+02201MA1999999101651MD1310121+9999REMSYN080AAXX  28184 68300 32960 01818 10160 20133 30165 40183 53012 333 10220 555 91018;EQDQ01  00002PRCP99
0157683000999992000102821004-26630+015100FM-12+000099999V0201801N007712200019N0100001N1+01601+01031101901ADDGA1001+999999999GF100991001001999999001001MA1999999101721MD1210071+9999REMSYN074AAXX  28214 68300 42960 01815 10160 20103 30172 40190 52007 333 555 91019;
0142683000999992000102903004-26630+015100FM-12+000099999V0201801N005112200019N0050001N1+01511+00971101641ADDGA1001+999999999GF100991001001999999001001MD1210061+9999REMSYN074AAXX  29034 68300 42950 01810 10151 20097 3//// 40164 52006 333 555 91016;
0210683000999992000102906004-26630+015100FM-12+000099999V0201601N008212200019N0200001N1+01701+00931101711ADDAA199000091GA1001+999999999GF100991001001999999001001KA1240M+02231KA2120N+01351MD1310091+9999REMSYN086AAXX  29064 68300 32970 01616 10170 20093 3//// 40171 53009 333 20135 555 10223 91017;EQDQ01  00002PRCP99
0142683000999992000102909004-26630+015100FM-12+000099999V0201801N010312200019N0200001N1+02431+00631101561ADDGA1001+999999999GF100991001001999999001001MD1410001+9999REMSYN074AAXX  29094 68300 42970 01820 10243 20063 3//// 40156 54000 333 555 91015;
0234683000999992000102912004-26630+015100FM-12+000099999V0201801N015412200019N0040001N1+02231+00981101521ADDAA199000091AY131061AY201061GA1001+999999999GF100991001001999999001001KA1120N+01301MA1999999101341MD1810201+9999MW1301REMSYN086AAXX  29124 68300 31940 01830 10223 20098 30134 40152 58020 73030 333 20130 555 91015;EQDQ01  00002PRCP99
0234683000999992000102918004-26630+015100FM-12+000099999V0201801N015412200019N0040001N1+01851+00771101491ADDAA199000091AY101061AY201061GA1001+999999999GF100991001001999999001001KA1120M+02601MA1999999101311MD1310091+9999MW1301REMSYN086AAXX  29184 68300 31940 01830 10185 20077 30131 40149 53009 73000 333 10260 555 91014;EQDQ01  00002PRCP99
0172683000999992000103000004-26630+015100FM-12+000099999V0201801N007712200019N0050001N1+01421+00731101161ADDAA199000091GA1001+999999999GF100991001001999999001001MD1810181+9999REMSYN074AAXX  30004 68300 32950 01815 10142 20073 3//// 40116 58018 333 555 91011;EQDQ01  00002PRCP99
0132683000999992000103003004-26630+015100FM-12+000099999V0201801N005112200019N0300001N1+01301+00681101141ADDGF102991021061002501001001MD1610021+9999REMSYN080AAXX  30034 68300 42380 21810 10130 20068 3//// 40114 56002 82600 333 555 91011;
0210683000999992000103006004-26630+015100FM-12+000099999V0201801N001512200019N0200001N1+01401+00681101191ADDAA199000091GA1001+999999999GF100991001001999999001001KA1240M+02601KA2120N+01201MD1210041+9999REMSYN086AAXX  30064 68300 32970 01803 10140 20068 3//// 40119 52004 333 20120 555 10260 91011;EQDQ01  00002PRCP99
0157683000999992000103009004-26630+015100FM-12+000099999V0203301N002112200019N0200001N1+01701+00931101381ADDGA1001+999999999GF100991001001999999001001MA1999999101201MD1110021+9999REMSYN074AAXX  30094 68300 42970 03304 10170 20093 30120 40138 51002 333 555 91013;
0196683000999992000103012004-26630+015100FM-12+000099999V0203301N002110042019N0200001N1+01901+00961101221ADDAA199000091GF106991061051004501001001KA1120N+01451MA1999999101041MD1710161+9999REMSYN086AAXX  30124 68300 32470 63304 10190 20096 30104 40122 57016 86500 333 20145 555 91012;EQDQ01  00002PRCP99
0147683000999992000103015004-26630+015100FM-12+000099999V0203001N001519999999N0200001N1+01701+00931101101ADDGF106991001001999999001061MA1999999100921MD1810081+9999REMSYN080AAXX  30154 68300 42970 63003 10170 20093 30092 40110 58008 80006 333 555 91010;
0240683000999992000103018004-26630+015100FM-12+000099999V0203601N003119999999N0100001N1+01501+00921101291ADDAA199000091AY101061AY201061GF106991999061000751001001KA1120M+02101MA1999999101111MD1310191+9999MW1401REMSYN092AAXX  30184 68300 31160 63606 10150 20092 30111 40129 53019 74000 88600 333 10210 555 91012;EQDQ01+000082SCOTLCQ02  00002PRCP99
0147683000999992000103021004-26630+015100FM-12+000099999V0203601N005112200019N0200001N1+01301+01131101481ADDGF103991031051000751001001MA1999999101301MD1310191+9999REMSYN080AAXX  30214 68300 42170 33610 10130 20113 30130 40148 53019 83500 333 555 91014;
0177683000999992000103100004-26630+015100FM-12+000099999V0203601N007710021019N0100001N1+01361+00971101491ADDAA199000091GF108991081051002501999999MA1999999101311MD1810011+9999REMSYN080AAXX  31004 68300 32360 83615 10136 20097 30131 40149 58001 885// 333 555 91014;EQDQ01  00002PRCP99
0147683000999992000103103004-26630+015100FM-12+000099999V0203601N009310021019N0150001N1+01351+01161101461ADDGF108991081051002501999999MA1999999101281MD1810171+9999REMSYN080AAXX  31034 68300 42365 83618 10135 20116 30128 40146 58017 885// 333 555 91014;
0215683000999992000103106004-26630+015100FM-12+000099999V0203601N007710021019N0100001N1+01251+01061101611ADDAA199000091GF108991081061002501999999KA1240M+02101KA2120N+01251MA1999999101431MD1310151+9999REMSYN092AAXX  31064 68300 32360 83615 10125 20106 30143 40161 53015 886// 333 20125 555 10210 91016;EQDQ01  00002PRCP99
0147683000999992000103109004-26630+015100FM-12+000099999V0203601N005110006019N0100001N1+01301+01151101651ADDGF106991061061000751001001MA1999999101471MD1210041+9999REMSYN080AAXX  31094 68300 42160 63610 10130 20115 30147 40165 52004 86600 333 555 91016;
0206683000999992000103112004-26630+015100FM-12+000099999V0203201N005112200019N0300001N1+01551+01081101601ADDAA199000091GA1001+999999999GF100991001001999999001001KA1120N+01301MA1999999101421MD1810061+9999REMSYN080AAXX  31124 68300 32980 03210 10155 20108 30142 40160 58006 333 20130 555 91016;EQDQ01  00002PRCP99
0147683000999992000103115004-26630+015100FM-12+000099999V0203201N001519999999N0300001N1+01501+01131101561ADDGF106991001001999999001061MA1999999101381MD1710041+9999REMSYN080AAXX  31154 68300 42980 63203 10150 20113 30138 40156 57004 80006 333 555 91015;
0206683000999992000103118004-26630+015100FM-12+000099999V0203201N001512200019N0200001N1+01901+00721101591ADDAA199000091GA1001+999999999GF100991001001999999001001KA1120M+01901MA1999999101411MD1210171+9999REMSYN080AAXX  31184 68300 32970 03203 10190 20072 30141 40159 52017 333 10190 555 91015;EQDQ01  00002PRCP99
0157683000999992000103121004-26630+015100FM-12+000099999V0203601N001512200019N0200001N1+01451+01071101661ADDGA1001+999999999GF100991001001999999001001MA1999999101481MD1210071+9999REMSYN074AAXX  31214 68300 42970 03603 10145 20107 30148 40166 52007 333 555 91016;
0187683000999992000110100004-26630+015100FM-12+000099999V0203601N001512200019N0050001N1+01401+01021101611ADDAA199000091GA1001+999999999GF100991001001999999001001MA1999999101431MD1610051+9999REMSYN074AAXX  01004 68300 32950 03603 10140 20102 30143 40161 56005 333 555 91016;EQDQ01  00002PRCP99
0147683000999992000110103004-26630+015100FM-12+000099999V0203601N001510012019N0050001N1+01351+00961101561ADDGF108991081061001501999999MA1999999101381MD1710051+9999REMSYN080AAXX  01034 68300 42250 83603 10135 20096 30138 40156 57005 886// 333 555 91015;
0215683000999992000110106004-26630+015100FM-12+000099999V0203601N003110006019N0050001N1+01451+01171101581ADDAA199000091GF106991061061000751001001KA1240M+01751KA2120N+01351MA1999999101401MD1310011+9999REMSYN092AAXX  01064 68300 32150 63606 10145 20117 30140 40158 53001 86600 333 20135 555 10175 91015;EQDQ01  00002PRCP99
0147683000999992000110109004-26630+015100FM-12+000099999V0203601N005110006019N0200001N1+01501+01231101531ADDGF105991051061000751001001MA1999999101351MD1810051+9999REMSYN080AAXX  01094 68300 42170 53610 10150 20123 30135 40153 58005 85600 333 555 91015;
0196683000999992000110112004-26630+015100FM-12+000099999V0203201N005119999999N0200001N1+01701+01351101441ADDAA199000091GF105991051001999999071001KA1120N+01451MA1999999101261MD1710121+9999REMSYN086AAXX  01124 68300 32970 53210 10170 20135 30126 40144 57012 85070 333 20145 555 91014;EQDQ01  00002PRCP99
0132683000999992000110115004-26630+015100FM-12+000099999V0203301N001510120019N0300001N1+01571+01361101111ADDGF106991061061012501001001MD1710151+9999REMSYN080AAXX  01154 68300 42680 63303 10157 20136 3//// 40111 57015 86600 333 555 91011;
0181683000999992000110118004-26630+015100FM-12+000099999V0203201N001519999999N0750001N1+01531+01301101151ADDAA199000091GF106991061001999999071999KA1120M+01801MD1210041+9999REMSYN086AAXX  01184 68300 32989 63203 10153 20130 3//// 40115 52004 8607/ 333 10180 555 91011;EQDQ01  00002PRCP99
0142683000999992000110121004-26630+015100FM-12+000099999V0203601N001512200019N0050001N1+01441+01261101191ADDGA1001+999999999GF100991001001999999001001MD1210041+9999REMSYN074AAXX  01214 68300 42950 03603 10144 20126 3//// 40119 52004 333 555 91011;
0177683000999992000110200004-26630+015100FM-12+000099999V0203601N003110006019N0050001N1+01461+01391101351ADDAA199000091GF108991081061000751999999MA1999999101171MD1210021+9999REMSYN080AAXX  02004 68300 32150 83606 10146 20139 30117 40135 52002 886// 333 555 91013;EQDQ01  00002PRCP99
0147683000999992000110203004-26630+015100FM-12+000099999V0203601N003110006019N0050001N1+01371+01241101321ADDGF108991081061000751999999MA1999999101141MD1710031+9999REMSYN080AAXX  02034 68300 42150 83606 10137 20124 30114 40132 57003 886// 333 555 91013;
0215683000999992000110206004-26630+015100FM-12+000099999V0203601N003110075019N0750001N1+01451+01271101341ADDAA199000091GF108991061061008001999999KA1240M+01851KA2120N+01401MA1999999101161MD1310021+9999REMSYN092AAXX  02064 68300 32589 83606 10145 20127 30116 40134 53002 866// 333 20140 555 10185 91013;EQDQ01  00002PRCP99
0132683000999992000110209004-26630+015100FM-12+000099999V0203601N005110075019N0750001N1+01601+01331101131ADDGF105991051051008001001001MD1810031+9999REMSYN080AAXX  02094 68300 42589 53610 10160 20133 3//// 40113 58003 85500 333 555 91011;
0181683000999992000110212004-26630+015100FM-12+000099999V0203601N008212200019N0750001N1+01621+01321101021ADDAA199000091GF104991041051012501001001KA1120N+01451MD1710111+9999REMSYN086AAXX  02124 68300 32689 43616 10162 20132 3//// 40102 57011 84500 333 20145 555 91010;EQDQ01  00002PRCP99
0147683000999992000110215004-26630+015100FM-12+000099999V0203601N005112200019N0750001N1+01601+01331101161ADDGF104991021041017501031001MA1999999100981MD1710041+9999REMSYN080AAXX  02154 68300 42789 43610 10160 20133 30098 40116 57004 82430 333 555 91011;
0196683000999992000110218004-26630+015100FM-12+000099999V0203601N005110042019N0300001N1+01501+01321101301ADDAA199000091GF108991081061004501999999KA1120M+01861MA1999999101121MD1310141+9999REMSYN086AAXX  02184 68300 32480 83610 10150 20132 30112 40130 53014 886// 333 10186 555 91013;EQDQ01  00002PRCP99
0147683000999992000110221004-26630+015100FM-12+000099999V0203601N003110006019N0200001N1+01601+01291101381ADDGF108991081051000751999999MA1999999101201MD1210081+9999REMSYN080AAXX  02214 68300 42170 83606 10160 20129 30120 40138 52008 885// 333 555 91013;
0177683000999992000110300004-26630+015100FM-12+000099999V0203601N001510042019N0200001N1+01631+01311101251ADDAA199000091GF108991081051004501999999MA1999999101071MD1810141+9999REMSYN080AAXX  03004 68300 32470 83603 10163 20131 30107 40125 58014 885// 333 555 91012;EQDQ01  00002PRCP99
0147683000999992000110303004-26630+015100FM-12+000099999V0203601N001510042019N0150001N1+01501+01241101221ADDGF108991081051004501999999MA1999999101041MD1610031+9999REMSYN080AAXX  03034 68300 42465 83603 10150 20124 30104 40122 56003 885// 333 555 91012;
0215683000999992000110306004-26630+015100FM-12+000099999V0202701N005110075019N0200001N1+01521+01271101361ADDAA199000091GF108991081051008001999999KA1240M+01871KA2120N+01501MA1999999101181MD1210141+9999REMSYN092AAXX  03064 68300 32570 82710 10152 20127 30118 40136 52014 885// 333 20150 555 10187 91013;EQDQ01  00002PRCP99
0166683000999992000110309004-26630+015100FM-12+000099999V0203301N003610042019N0300001N1+01701+01251101391ADDGF108991999061004501011001MA1999999101211MD1310031+9999REMSYN080AAXX  03094 68300 42480 83307 10170 20125 30121 40139 53003 88610 333 555 91013;EQDQ01+000082SCOTLC
0206683000999992000110312004-26630+015100FM-12+000099999V0202701N001512200019N0200001N1+01801+01261101291ADDAA199000091GA1001+999999999GF100991001001999999001001KA1120N+01551MA1999999101111MD1710091+9999REMSYN080AAXX  03124 68300 32970 02703 10180 20126 30111 40129 57009 333 20155 555 91012;EQDQ01  00002PRCP99
0157683000999992000110315004-26630+015100FM-12+000099999V0203301N001512200019N0200001N1+01651+01291101281ADDGA1001+999999999GF100991001001999999001001MA1999999101101MD1810021+9999REMSYN074AAXX  03154 68300 42970 03303 10165 20129 30110 40128 58002 333 555 91012;
0206683000999992000110318004-26630+015100FM-12+000099999V0203601N001512200019N0750001N1+01501+01321101401ADDAA199000091GA1001+999999999GF100991001001999999001001KA1120M+01801MA1999999101221MD1310101+9999REMSYN080AAXX  03184 68300 32989 03603 10150 20132 30122 40140 53010 333 10180 555 91014;EQDQ01  00002PRCP99
0157683000999992000110321004-26630+015100FM-12+000099999V0203601N001512200019N0200001N1+01501+01231101511ADDGA1001+999999999GF100991001001999999001001MA1999999101331MD1210111+9999REMSYN074AAXX  03214 68300 42970 03603 10150 20123 30133 40151 52011 333 555 91015;
0187683000999992000110400004-26630+015100FM-12+000099999V0203601N001512200019N0200001N1+01451+01171101471ADDAA199000091GA1001+999999999GF100991001001999999001001MA1999999101291MD1810041+9999REMSYN074AAXX  04004 68300 32970 03603 10145 20117 30129 40147 58004 333 555 91014;EQDQ01  00002PRCP99
0157683000999992000110403004-26630+015100FM-12+000099999V0203601N001512200019N0200001N1+01451+01271101421ADDGA1001+999999999GF100991001001999999001001MA1999999101241MD1610051+9999REMSYN074AAXX  04034 68300 42970 03603 10145 20127 30124 40142 56005 333 555 91014;
0225683000999992000110406004-26630+015100FM-12+000099999V0200301N001512200019N0200001N1+01551+01181101491ADDAA199000091GA1001+999999999GF100991001001999999001001KA1240M+01801KA2120N+01341MA1999999101311MD1210071+9999REMSYN086AAXX  04064 68300 32970 00303 10155 20118 30131 40149 52007 333 20134 555 10180 91014;EQDQ01  00002PRCP99
0157683000999992000110409004-26630+015100FM-12+000099999V0202001N001512200019N0650001N1+02021+01281101541ADDGA1001+999999999GF100991001001999999001001MA1999999101361MD1310021+9999REMSYN074AAXX  04094 68300 42987 02003 10202 20128 30136 40154 53002 333 555 91015;
0206683000999992000110412004-26630+015100FM-12+000099999V0202001N005112200019N0300001N1+02101+01211101421ADDAA199000091GA1001+999999999GF100991001001999999001001KA1120N+01621MA1999999101241MD1710091+9999REMSYN080AAXX  04124 68300 32980 02010 10210 20121 30124 40142 57009 333 20162 555 91014;EQDQ01  00002PRCP99
0191683000999992000110418004-26630+015100FM-12+000099999V0203201N001512200019N0750001N1+01651+01291101491ADDAA199000091GA1001+999999999GF100991001001999999001001KA1120M+02151MD1210261+9999REMSYN080AAXX  04184 68300 32989 03203 10165 20129 3//// 40149 52026 333 10215 555 91014;EQDQ01  00002PRCP99
0142683000999992000110421004-26630+015100FM-12+000099999V0203601N001512200019N0200001N1+01551+01181101661ADDGA1001+999999999GF100991001001999999001001MD1210171+9999REMSYN074AAXX  04214 68300 42970 03603 10155 20118 3//// 40166 52017 333 555 91016;
0187683000999992000110500004-26630+015100FM-12+000099999V0203601N001512200019N0100001N1+01401+01021101721ADDAA199000091GA1001+999999999GF100991001001999999001001MA1999999101541MD1810131+9999REMSYN074AAXX  05004 68300 32960 03603 10140 20102 30154 40172 58013 333 555 91017;EQDQ01  00002PRCP99
0147683000999992000110503004-26630+015100FM-12+000099999V0203601N001512200019N0300001N1+01351+01061101661ADDGF104991031061000751081001MA1999999101481MD1710081+9999REMSYN080AAXX  05034 68300 42180 43603 10135 20106 30148 40166 57008 83680 333 555 91016;
0225683000999992000110506004-26630+015100FM-12+000099999V0200301N001512200019N0750001N1+01501+01091101801ADDAA199000091GA1001+999999999GF100991001001999999001001KA1240M+02151KA2120N+01351MA1999999101621MD1210141+9999REMSYN086AAXX  05064 68300 32989 00303 10150 20109 30162 40180 52014 333 20135 555 10215 91018;EQDQ01  00002PRCP99
0147683000999992000110509004-26630+015100FM-12+000099999V0202701N001510360019N0750001N1+01801+01261101741ADDGF108991021051022501071001MA1999999101561MD1710061+9999REMSYN080AAXX  05094 68300 42889 82703 10180 20126 30156 40174 57006 82570 333 555 91017;
0196683000999992000110512004-26630+015100FM-12+000099999V0202001N003110120019N0750001N1+02181+01031101641ADDAA199000091GF108991081051012501999999KA1120N+01561MA1999999101461MD1710101+9999REMSYN086AAXX  05124 68300 32689 82006 10218 20103 30146 40164 57010 885// 333 20156 555 91016;EQDQ01  00002PRCP99
0147683000999992000110515004-26630+015100FM-12+000099999V0202001N005110120019N0750001N1+01971+01111101551ADDGF108991081051012501999999MA1999999101371MD1810091+9999REMSYN080AAXX  05154 68300 42689 82010 10197 20111 30137 40155 58009 885// 333 555 91015;
0206683000999992000110518004-26630+015100FM-12+000099999V0201801N001512200019N0200001N1+01701+01251101701ADDAA199000091GA1001+999999999GF100991001001999999001001KA1120M+02151MA1999999101521MD1310151+9999REMSYN080AAXX  05184 68300 32970 01803 10170 20125 30152 40170 53015 333 10215 555 91017;EQDQ01  00002PRCP99
0157683000999992000110521004-26630+015100FM-12+000099999V0201801N001512200019N0200001N1+01651+01391101791ADDGA1001+999999999GF100991001001999999001001MA1999999101611MD1210091+9999REMSYN074AAXX  05214 68300 42970 01803 10165 20139 30161 40179 52009 333 555 91017;
0172683000999992000110600004-26630+015100FM-12+000099999V0201801N001512200019N0750001N1+01601+01421101541ADDAA199000091GA1001+999999999GF100991001001999999001001MD1810071+9999REMSYN074AAXX  06004 68300 32989 01803 10160 20142 3//// 40154 58007 333 555 91015;EQDQ01  00002PRCP99
0142683000999992000110603004-26630+015100FM-12+000099999V0201801N001512200019N0200001N1+01501+01411101471ADDGA1001+999999999GF100991001001999999001001MD1710071+9999REMSYN074AAXX  06034 68300 42970 01803 10150 20141 3//// 40147 57007 333 555 91014;
0200683000999992000110606004-26630+015100FM-12+000099999V0203601N001519999999N0750001N1+01551+01461101591ADDAA199000091GF107991071001999999061999KA1240M+02201KA2120N+01451MD1210121+9999REMSYN092AAXX  06064 68300 32989 73603 10155 20146 3//// 40159 52012 8706/ 333 20145 555 10220 91015;EQDQ01  00002PRCP99
0147683000999992000110609004-26630+015100FM-12+000099999V0203001N003119999999N0200001N1+01831+01431101681ADDGF105991001001999999001021MA1999999101501MD1710091+9999REMSYN080AAXX  06094 68300 42970 53006 10183 20143 30150 40168 57009 80002 333 555 91016;
0206683000999992000110612004-26630+015100FM-12+000099999V0202201N008212200019N0200001N1+02201+01191101591ADDAA199000091GA1001+999999999GF100991001001999999001001KA1120N+01631MA1999999101411MD1710091+9999REMSYN080AAXX  06124 68300 32970 02216 10220 20119 30141 40159 57009 333 20163 555 91015;EQDQ01  00002PRCP99
0157683000999992000110615004-26630+015100FM-12+000099999V0202701N005112200019N0750001N1+02101+01301101501ADDGA1001+999999999GF100991001001999999001001MA1999999101321MD1710081+9999REMSYN074AAXX  06154 68300 42989 02710 10210 20130 30132 40150 57008 333 555 91015;
0206683000999992000110618004-26630+015100FM-12+000099999V0201801N005112200019N0750001N1+01851+01321101601ADDAA199000091GA1001+999999999GF100991001001999999001001KA1120M+02301MA1999999101421MD1310101+9999REMSYN080AAXX  06184 68300 32989 01810 10185 20132 30142 40160 53010 333 10230 555 91016;EQDQ01  00002PRCP99
0157683000999992000110621004-26630+015100FM-12+000099999V0201801N005112200019N0100001N1+01751+01491101631ADDGA1001+999999999GF100991001001999999001001MA1999999101451MD1210031+9999REMSYN074AAXX  06214 68300 42960 01810 10175 20149 30145 40163 52003 333 555 91016;
0172683000999992000110700004-26630+015100FM-12+000099999V0201801N003112200019N0050001N1+01651+01291101311ADDAA199000091GA1001+999999999GF100991001001999999001001MD1810141+9999REMSYN074AAXX  07004 68300 32950 01806 10165 20129 3//// 40131 58014 333 555 91013;EQDQ01  00002PRCP99
0142683000999992000110703004-26630+015100FM-12+000099999V0201801N003112200019N0300001N1+01551+01281101211ADDGA1001+999999999GF100991001001999999001001MD1710111+9999REMSYN074AAXX  07034 68300 42980 01806 10155 20128 3//// 40121 57011 333 555 91012;
0225683000999992000110706004-26630+015100FM-12+000099999V0201301N005112200019N0200001N1+01701+01041101431ADDAA199000091GA1001+999999999GF100991001001999999001001KA1240M+02301KA2120N+01501MA1999999101251MD1210041+9999REMSYN086AAXX  07064 68300 32970 01310 10170 20104 30125 40143 52004 333 20150 555 10230 91014;EQDQ01  00002PRCP99
0157683000999992000110709004-26630+015100FM-12+000099999V0201801N008212200019N0200001N1+02301+01211101301ADDGA1001+999999999GF100991001001999999001001MA1999999101131MD1710131+9999REMSYN074AAXX  07094 68300 42970 01816 10230 20121 30113 40130 57013 333 555 91013;
0206683000999992000110712004-26630+015100FM-12+000099999V0202301N013412200019N0200001N1+02251+01291101141ADDAA199000091GA1001+999999999GF100991001001999999001001KA1120N+01751MA1999999100971MD1710161+9999REMSYN080AAXX  07124 68300 32970 02326 10225 20129 30097 40114 57016 333 20175 555 91011;EQDQ01  00002PRCP99
0157683000999992000110715004-26630+015100FM-12+000099999V0201801N007712200019N0200001N1+02261+01671100831ADDGA1001+999999999GF100991001001999999001001MA1999999100661MD1810241+9999REMSYN074AAXX  07154 68300 42970 01815 10226 20167 30066 40083 58024 333 555 91008;
0157683000999992000110721004-26630+015100FM-12+000099999V0201801N005112200019N0200001N1+01701+01351101021ADDGA1001+999999999GF100991001001999999001001MA1999999100841MD1210061+9999REMSYN074AAXX  07214 68300 42970 01810 10170 20135 30084 40102 52006 333 555 91010;
0238683000999992000110806004-26630+015100FM-12+000099999V0203001N001512200019N0050001N1+01501+01361100991ADDAA199000091AY141061AY241061GA1001+999999999GF100991001001999999001001KA1240M+02501KA2120N+01401MD1210121+9999MW1421REMSYN092AAXX  08064 68300 31950 03003 10150 20136 3//// 40099 52012 74244 333 20140 555 10250 91009;EQDQ01  00002PRCP99
0185683000999992000110809004-26630+015100FM-12+000099999V0203601N001512200019N0040001N1+01401+01311101181ADDAY101031AY201031GA1001+999999999GF100991001001999999001001MA1999999101001MD1210011+9999MW1401REMSYN080AAXX  08094 68300 41940 03603 10140 20131 30100 40118 52001 74000 333 555 91011;
0234683000999992000110812004-26630+015100FM-12+000099999V0203001N003112200019N0040001N1+01501+01361101131ADDAA199000091AY141061AY201061GA1001+999999999GF100991001001999999001001KA1120N+01401MA1999999100951MD1710051+9999MW1401REMSYN086AAXX  08124 68300 31940 03006 10150 20136 30095 40113 57005 74040 333 20140 555 91011;EQDQ01  00002PRCP99
0175683000999992000110815004-26630+015100FM-12+000099999V0203601N003110075019N0100001N1+01581+01401101131ADDAY141031AY221031GF105991051061008001001001MA1999999100951MD1410001+9999MW1401REMSYN086AAXX  08154 68300 41560 53606 10158 20140 30095 40113 54001 74042 85600 333 555 91011;
0196683000999992000110818004-26630+015100FM-12+000099999V0203601N003110006019N0300001N1+01551+01461101301ADDAA199000091GF106991061061000751001001KA1120M+01651MA1999999101121MD1310171+9999REMSYN086AAXX  08184 68300 32180 63606 10155 20146 30112 40130 53017 86600 333 10165 555 91013;EQDQ01  00002PRCP99
0157683000999992000110821004-26630+015100FM-12+000099999V0203601N003112200019N0100001N1+01551+01371101401ADDGA1001+999999999GF100991001001999999001001MA1999999101221MD1210111+9999REMSYN074AAXX  08214 68300 42960 03606 10155 20137 30122 40140 52011 333 555 91014;
0187683000999992000110900004-26630+015100FM-12+000099999V0203601N003112200019N0100001N1+01501+01321101301ADDAA199000091GA1001+999999999GF100991001001999999001001MA1999999101121MD1810121+9999REMSYN074AAXX  09004 68300 32960 03606 10150 20132 30112 40130 58012 333 555 91013;EQDQ01  00002PRCP99
0157683000999992000110903004-26630+015100FM-12+000099999V0203601N001512200019N0200001N1+01451+01271101141ADDGA1001+999999999GF100991001001999999001001MA1999999100961MD1610151+9999REMSYN074AAXX  09034 68300 42970 03603 10145 20127 30096 40114 56015 333 555 91011;
0269683000999992000110906004-26630+015100FM-12+000099999V0202001N001512200019N0040001N1+01601+01331101311ADDAA199000091AY141061AY241061GA1001+999999999GF100991001001999999001001KA1240M+01651KA2120N+01351MA1999999101131MD1210271+9999MW1441REMSYN092AAXX  09064 68300 31940 02003 10160 20133 30113 40131 52027 74544 333 20135 555 10165 91013;EQDQ01+000452PRSWM1Q02  00002PRCP99
0191683000999992000110909004-26630+015100FM-12+000099999V0202701N001510024019N0040001N1+01561+01361101381ADDAY141031AY241031GA1091+999999999GF109991091999999999999999MA1999999101201MD1210081+9999MW1451REMSYN086AAXX  09094 68300 41140 92703 10156 20136 30120 40138 52008 74544 8//// 333 555 91013;
0206683000999992000110912004-26630+015100FM-12+000099999V0202701N001512200019N0750001N1+02051+01451101281ADDAA199000091GA1001+999999999GF100991001001999999001001KA1120N+01551MA1999999101101MD1710101+9999REMSYN080AAXX  09124 68300 32989 02703 10205 20145 30110 40128 57010 333 20155 555 91012;EQDQ01  00002PRCP99
0132683000999992000110915004-26630+015100FM-12+000099999V0202701N004112200019N0750001N1+02001+01411101151ADDGF101991011061017501001001MD1810131+9999REMSYN080AAXX  09154 68300 42789 12708 10200 20141 3//// 40115 58013 81600 333 555 91011;
0197683000999992000110918004-26630+015100FM-12+000099999V0203601N003119999999N0750001N1+01781+01471101051ADDAA199000091GA1091+999999999GF109991091999999999999999KA1120M+02161MD1210081+9999REMSYN086AAXX  09184 68300 32689 93606 10178 20147 3//// 40105 52008 886// 333 10216 555 91010;EQDQ01  00002PRCP99
0142683000999992000110921004-26630+015100FM-12+000099999V0201801N005112200019N0100001N1+01701+01531101201ADDGA1001+999999999GF100991001001999999001001MD1210141+9999REMSYN074AAXX  09214 68300 42960 01810 10170 20153 3//// 40120 52014 333 555 91012;
0187683000999992000111000004-26630+015100FM-12+000099999V0201801N005112200019N0100001N1+01751+01491101231ADDAA199000091GA1001+999999999GF100991001001999999001001MA1999999101051MD1810151+9999REMSYN074AAXX  10004 68300 32960 01810 10175 20149 30105 40123 58015 333 555 91012;EQDQ01  00002PRCP99
0157683000999992000111003004-26630+015100FM-12+000099999V0201801N003112200019N0100001N1+01651+01291101091ADDGA1001+999999999GF100991001001999999001001MA1999999100911MD1710141+9999REMSYN074AAXX  10034 68300 42960 01806 10165 20129 30091 40109 57014 333 555 91010;
0215683000999992000111006004-26630+015100FM-12+000099999V0201801N001510012019N0300001N1+01851+01511101211ADDAA199000091GF107991071061001501999999KA1240M+02161KA2120N+01581MA1999999101031MD1310121+9999REMSYN092AAXX  10064 68300 32280 71803 10185 20151 30103 40121 53012 876// 333 20158 555 10216 91012;EQDQ01  00002PRCP99
0157683000999992000111009004-26630+015100FM-12+000099999V0201801N005112200019N0200001N1+02251+01401101171ADDGA1001+999999999GF100991001001999999001001MA1999999101001MD1710031+9999REMSYN074AAXX  10094 68300 42970 01810 10225 20140 30100 40117 57003 333 555 91011;
0206683000999992000111012004-26630+015100FM-12+000099999V0201801N007712200019N0200001N1+02381+01401101121ADDAA199000091GA1001+999999999GF100991001001999999001001KA1120N+01881MA1999999100951MD1710051+9999REMSYN080AAXX  10124 68300 32970 01815 10238 20140 30095 40112 57005 333 20188 555 91011;EQDQ01  00002PRCP99
0157683000999992000111015004-26630+015100FM-12+000099999V0201801N007712200019N0200001N1+02241+01301100981ADDGA1001+999999999GF100991001001999999001001MA1999999100811MD1810121+9999REMSYN074AAXX  10154 68300 42970 01815 10224 20130 30081 40098 58012 333 555 91009;
0157683000999992000111021004-26630+015100FM-12+000099999V0201801N011812200019N0200001N1+01701+01531101271ADDGA1001+999999999GF100991001001999999001001MA1999999101091MD1310141+9999REMSYN074AAXX  10214 68300 42970 01823 10170 20153 30109 40127 53014 333 555 91012;
0187683000999992000111100004-26630+015100FM-12+000099999V0201801N003112200019N0050001N1+01751+01401101171ADDAA199000091GA1001+999999999GF100991001001999999001001MA1999999100991MD1710101+9999REMSYN074AAXX  11004 68300 32950 01806 10175 20140 30099 40117 57010 333 555 91011;EQDQ01  00002PRCP99
0177683000999992000111103004-26630+015100FM-12+000099999V0201301N002110012019N0100001N1+01401+01311101101ADDAA199000091GF106991061061001501001001MA1999999100921MD1810071+9999REMSYN080AAXX  11034 68300 32260 61304 10140 20131 30092 40110 58007 86600 333 555 91010;EQDQ01  00002PRCP99
0215683000999992000111106004-26630+015100FM-12+000099999V0203601N001512200019N0300001N1+01541+01361101191ADDAA199000091GF102991021061002501001001KA1240M+02501KA2120N+01371MA1999999101011MD1210091+9999REMSYN092AAXX  11064 68300 32380 23603 10154 20136 30101 40119 52009 82600 333 20137 555 10250 91011;EQDQ01  00002PRCP99
0132683000999992000111109004-26630+015100FM-12+000099999V0201801N005112200019N0200001N1+02161+01271101091ADDGF101991011051004501001001MD1210081+9999REMSYN080AAXX  11094 68300 42470 11810 10216 20127 3//// 40109 52008 81500 333 555 91010;
0191683000999992000111112004-26630+015100FM-12+000099999V0201801N007712200019N0200001N1+02161+01331101051ADDAA199000091GA1001+999999999GF100991001001999999001001KA1120N+01561MD1710041+9999REMSYN080AAXX  11124 68300 32970 01815 10216 20133 3//// 40105 57004 333 20156 555 91010;EQDQ01  00002PRCP99
0147683000999992000111115004-26630+015100FM-12+000099999V0201801N005110075019N0200001N1+02001+01361101411ADDGF106991061051008001001001MA1999999101231MD1310141+9999REMSYN080AAXX  11154 68300 42570 61810 10200 20136 30123 40141 53014 86500 333 555 91014;
0196683000999992000111118004-26630+015100FM-12+000099999V0202301N003110006019N0200001N1+01901+01561101611ADDAA199000091GF108991081051000751999999KA1120M+02261MA1999999101431MD1210201+9999REMSYN086AAXX  11184 68300 32170 82306 10190 20156 30143 40161 52020 885// 333 10226 555 91016;EQDQ01  00002PRCP99
0157683000999992000111121004-26630+015100FM-12+000099999V0201801N001512200019N0300001N1+01661+01471101751ADDGA1001+999999999GF100991001001999999001001MA1999999101571MD1310131+9999REMSYN074AAXX  11214 68300 42980 01803 10166 20147 30157 40175 53013 333 555 91017;
0172683000999992000111200004-26630+015100FM-12+000099999V0201801N001512200019N0200001N1+01601+01511101531ADDAA199000091GA1001+999999999GF100991001001999999001001MD1710041+9999REMSYN074AAXX  12004 68300 32970 01803 10160 20151 3//// 40153 57004 333 555 91015;EQDQ01  00002PRCP99
0132683000999992000111203004-26630+015100FM-12+000099999V0203301N004110006019N0200001N1+01601+01511101531ADDGF108991081061000751999999MD1410001+9999REMSYN080AAXX  12034 68300 42170 83308 10160 20151 3//// 40153 54000 886// 333 555 91015;
0200683000999992000111206004-26630+015100FM-12+000099999V0201801N001510006019N0200001N1+01701+01531101661ADDAA199000091GF106991061061000751001001KA1240M+02301KA2120N+01561MD1310131+9999REMSYN092AAXX  12064 68300 32170 61803 10170 20153 3//// 40166 53013 86600 333 20156 555 10230 91016;EQDQ01  00002PRCP99
0132683000999992000111209004-26630+015100FM-12+000099999V0201801N005112200019N0200001N1+02261+01181101661ADDGF104991041051000751001001MD1410001+9999REMSYN080AAXX  12094 68300 42170 41810 10226 20118 3//// 40166 54000 84500 333 555 91016;
0206683000999992000111212004-26630+015100FM-12+000099999V0201801N010312200019N0200001N1+02161+01051101701ADDAA199000091GA1001+999999999GF100991001001999999001001KA1120N+01631MA1999999101521MD1810141+9999REMSYN080AAXX  12124 68300 32970 01820 10216 20105 30152 40170 58014 333 20163 555 91017;EQDQ01  00002PRCP99
0206683000999992000111218004-26630+015100FM-12+000099999V0201801N013412200019N0200001N1+01801+01261101681ADDAA199000091GA1001+999999999GF100991001001999999001001KA1120M+02401MA1999999101501MD1710021+9999REMSYN080AAXX  12184 68300 32970 01826 10180 20126 30150 40168 57002 333 10240 555 91016;EQDQ01  00002PRCP99
0172683000999992000111300004-26630+015100FM-12+000099999V0201801N008212200019N0200001N1+01781+01181101361ADDAA199000091GA1001+999999999GF100991001001999999001001MD1710261+9999REMSYN074AAXX  13004 68300 32970 01816 10178 20118 3//// 40136 57026 333 555 91013;EQDQ01  00002PRCP99
0142683000999992000111303004-26630+015100FM-12+000099999V0201801N008212200019N0300001N1+01701+01251101181ADDGA1001+999999999GF100991001001999999001001MD1810181+9999REMSYN074AAXX  13034 68300 42980 01816 10170 20125 3//// 40118 58018 333 555 91011;
0157683000999992000111309004-26630+015100FM-12+000099999V0201801N011312200019N0200001N1+02551+00901101261ADDGA1001+999999999GF100991001001999999001001MA1999999101091MD1810131+9999REMSYN074AAXX  13094 68300 42970 01822 10255 20090 30109 40126 58013 333 555 91012;
0206683000999992000111312004-26630+015100FM-12+000099999V0201801N013412200019N0200001N1+02371+01241101121ADDAA199000091GA1001+999999999GF100991001001999999001001KA1120N+01901MA1999999100951MD1810161+9999REMSYN080AAXX  13124 68300 32970 01826 10237 20124 30095 40112 58016 333 20190 555 91011;EQDQ01  00002PRCP99
0206683000999992000111318004-26630+015100FM-12+000099999V0201801N010312200019N0750001N1+01801+01261100951ADDAA199000091GA1001+999999999GF100991001001999999001001KA1120M+02601MA1999999100771MD1310031+9999REMSYN080AAXX  13184 68300 32989 01820 10180 20126 30077 40095 53003 333 10260 555 91009;EQDQ01  00002PRCP99
0157683000999992000111321004-26630+015100FM-12+000099999V0201801N003112200019N0200001N1+01681+01321101061ADDGA1001+999999999GF100991001001999999001001MA1999999100881MD1210111+9999REMSYN074AAXX  13214 68300 42970 01806 10168 20132 30088 40106 52011 333 555 91010;
0172683000999992000111400004-26630+015100FM-12+000099999V0201801N003112200019N0200001N1+01551+01281100861ADDAA199000091GA1001+999999999GF100991001001999999001001MD1710021+9999REMSYN074AAXX  14004 68300 32970 01806 10155 20128 3//// 40086 57002 333 555 91008;EQDQ01  00002PRCP99
0142683000999992000111403004-26630+015100FM-12+000099999V0201801N003112200019N0100001N1+01551+01281100771ADDGA1001+999999999GF100991001001999999001001MD1810061+9999REMSYN074AAXX  14034 68300 42960 01806 10155 20128 3//// 40077 58006 333 555 91007;
0210683000999992000111406004-26630+015100FM-12+000099999V0201801N001512200019N0200001N1+01661+01361100761ADDAA199000091GA1001+999999999GF100991001001999999001001KA1240M+02631KA2120N+01511MD1410001+9999REMSYN086AAXX  14064 68300 32970 01803 10166 20136 3//// 40076 54000 333 20151 555 10263 91007;EQDQ01  00002PRCP99
0157683000999992000111409004-26630+015100FM-12+000099999V0203601N004112200019N0200001N1+01521+01271101151ADDGA1001+999999999GF100991001001999999001001MA1999999100971MD1310201+9999REMSYN074AAXX  14094 68300 42970 03608 10152 20127 30097 40115 53020 333 555 91011;
0240683000999992000111412004-26630+015100FM-12+000099999V0203601N003110120019N9999999N1+01481+01341101061ADDAA199000091AY141061AY221061GF108991081061012501999999KA1120N+01421MA1999999100881MD1810101+9999MW1451REMSYN092AAXX  14124 68300 31680 83606 10148 20134 30088 40106 58010 74542 886// 333 20142 555 91010;EQDQ01+300002VODIS Q02  00002PRCP99
0221683000999992000111415004-26630+015100FM-12+000099999V0203601N003110006019N9999999N1+01451+01411100941ADDAA199000091AY141031AY241031GF106991061061000751001001MA1999999100761MD1710101+9999MW1441REMSYN086AAXX  14154 68300 31170 63606 10145 20141 30076 40094 57010 74444 86600 333 555 91009;EQDQ01+200002VODIS Q02  00002PRCP99
0206683000999992000111418004-26630+015100FM-12+000099999V0203601N003112200019N0750001N1+01551+01371101181ADDAA199000091GA1001+999999999GF100991001001999999001001KA1120M+01801MA1999999101001MD1310251+9999REMSYN080AAXX  14184 68300 32989 03606 10155 20137 30100 40118 53025 333 10180 555 91011;EQDQ01  00002PRCP99
0157683000999992000111421004-26630+015100FM-12+000099999V0203301N001512200019N0300001N1+01481+01341101381ADDGA1001+999999999GF100991001001999999001001MA1999999101201MD1210201+9999REMSYN074AAXX  14214 68300 42980 03303 10148 20134 30120 40138 52020 333 555 91013;
0157683000999992000111503004-26630+015100FM-12+000099999V0203301N001512200019N0100001N1+01451+01361101061ADDGA1001+999999999GF100991001001999999001001MA1999999100881MD1410001+9999REMSYN074AAXX  15034 68300 42960 03303 10145 20136 30088 40106 54000 333 555 91010;
0215683000999992000111506004-26630+015100FM-12+000099999V0203601N003110075019N0750001N1+01471+01401101241ADDAA199000091GF108991081061008001999999KA1240M+01871KA2120N+01411MA1999999101061MD1310181+9999REMSYN092AAXX  15064 68300 32589 83606 10147 20140 30106 40124 53018 886// 333 20141 555 10187 91012;EQDQ01  00002PRCP99
0147683000999992000111509004-26630+015100FM-12+000099999V0203601N004110075019N0300001N1+01561+01381101341ADDGF108991081061008001999999MA1999999101161MD1310101+9999REMSYN080AAXX  15094 68300 42580 83608 10156 20138 30116 40134 53010 886// 333 555 91013;
0212683000999992000111512004-26630+015100FM-12+000099999V0202701N005110006019N0200001N1+01581+01391101311ADDAA199000091GF108991081061000751999999KA1120N+99999MA1999999101131MD1610031+9999REMSYN086AAXX  15124 68300 32170 82710 10158 20139 30113 40131 56003 886// 333 20212 555 91013;EQDQ01  00002PRCP99Q02 +02122ATMN  
0132683000999992000111515004-26630+015100FM-12+000099999V0203601N003110006019N0200001N1+01551+01371101111ADDGF108991081061000751999999MD1710011+9999REMSYN080AAXX  15154 68300 42170 83606 10155 20137 3//// 40111 57001 886// 333 555 91011;
0181683000999992000111518004-26630+015100FM-12+000099999V0203601N003112200019N0050001N1+01501+01321101241ADDAA199000091GF104991001001999999001011KA1120M+01651MD1310131+9999REMSYN086AAXX  15184 68300 32950 43606 10150 20132 3//// 40124 53013 80001 333 10165 555 91012;EQDQ01  00002PRCP99
0176683000999992000111521004-26630+015100FM-12+000099999V0203301N002610003019N0004001N1+01451+01361101361ADDAY141031AY241031GA1091+999999999GF109991091999999999999999MD1210121+9999MW1441REMSYN086AAXX  15214 68300 41/04 93305 10145 20136 3//// 40136 52012 74444 8//// 333 555 91013;
0198683000999992000111600004-26630+015100FM-12+000099999V0203301N002112200019N0040001N1+01501+01411101481ADDAY141061AY241061GA1001+999999999GF100991001001999999001001MA1999999101301MD1710061+9999REMSYN080AAXX  16004 68300 41140 03304 10150 20141 30130 40148 57006 74844 333 555 91014;EQDQ01+000482PRSWM1
0221683000999992000111603004-26630+015100FM-12+000099999V0203301N001510024019N0040001N1+01521+01431101451ADDAA199000091AY141031AY241031GA1091+999999999GF109991091999999999999999MA1999999101271MD1810031+9999MW1461REMSYN086AAXX  16034 68300 31/40 93303 10152 20143 30127 40145 58003 74644 8//// 333 555 91014;EQDQ01  00002PRCP99
0215683000999992000111606004-26630+015100FM-12+000099999V0203601N001510120019N0750001N1+01461+01351101601ADDAA199000091GF108991081061012501999999KA1240M+01651KA2120N+01421MA1999999101421MD1310151+9999REMSYN092AAXX  16064 68300 32689 83603 10146 20135 30142 40160 53015 886// 333 20142 555 10165 91016;EQDQ01  00002PRCP99
0147683000999992000111609004-26630+015100FM-12+000099999V0203601N001510120019N0750001N1+01661+01411101621ADDGF108991081061012501999999MA1999999101441MD1610021+9999REMSYN080AAXX  16094 68300 42689 83603 10166 20141 30144 40162 56002 886// 333 555 91016;
0197683000999992000111612004-26630+015100FM-12+000099999V0202701N003112200019N0200001N1+01851+01381101231ADDAA199000091GF102991021051004501001001KA1120N+99999MD1810111+9999REMSYN086AAXX  16124 68300 32470 22706 10185 20138 3//// 40123 58011 82500 333 20209 555 91012;EQDQ01  00002PRCP99Q02 +02092ATMN  
0192683000999992000111618004-26630+015100FM-12+000099999V0203601N003112200019N0200001N1+01651+01391101531ADDAA199000091GA1001+999999999GF100991001001999999001001MA1999999101351MD1310131+9999REMSYN079AAXX  16184 68300 32970 03606 10165 20139 30135 40153 53013 33 10215 555 91015;EQDQ01  00002PRCP99
0157683000999992000111621004-26630+015100FM-12+000099999V0203601N001512200019N0100001N1+01641+01481101681ADDGA1001+999999999GF100991001001999999001001MA1999999101501MD1210151+9999REMSYN074AAXX  16214 68300 42960 03603 10164 20148 30150 40168 52015 333 555 91016;
0172683000999992000111700004-26630+015100FM-12+000099999V0202901N003112200019N0100001N1+01401+01331101501ADDAA199000091GA1001+999999999GF100991001001999999001001MD1410001+9999REMSYN074AAXX  17004 68300 32960 02906 10140 20133 3//// 40150 54000 333 555 91015;EQDQ01  00002PRCP99
0142683000999992000111703004-26630+015100FM-12+000099999V0202701N001512200019N0100001N1+01501+01411101451ADDGA1001+999999999GF100991001001999999001001MD1710051+9999REMSYN074AAXX  17034 68300 42960 02703 10150 20141 3//// 40145 57005 333 555 91014;
0200683000999992000111706004-26630+015100FM-12+000099999V0203601N005112200019N0200001N1+01551+01281101561ADDAA199000091GF102991021021000751001001KA1240M+02201KA2120N+01531MD1310131+9999REMSYN092AAXX  17064 68300 32170 23610 10155 20128 3//// 40156 53013 82200 333 20153 555 10220 91015;EQDQ01  00002PRCP99
0147683000999992000111709004-26630+015100FM-12+000099999V0203601N005110006019N0200001N1+01851+01321101801ADDGF105991051051000751001001MA1999999101621MD1210061+9999REMSYN080AAXX  17094 68300 42170 53610 10185 20132 30162 40180 52006 85500 333 555 91018;
0196683000999992000111712004-26630+015100FM-12+000099999V0202701N003110150019N0750001N1+01801+01361101691ADDAA199000091GF105991051061017501001001KA1120N+01601MA1999999101511MD1710111+9999REMSYN086AAXX  17124 68300 32789 52706 10180 20136 30151 40169 57011 85600 333 20160 555 91016;EQDQ01  00002PRCP99
0147683000999992000111715004-26630+015100FM-12+000099999V0203201N005112200019N0750001N1+01851+01771101661ADDGF102991011051017501031001MA1999999101481MD1710041+9999REMSYN080AAXX  17154 68300 42789 23210 10185 20177 30148 40166 57004 81530 333 555 91016;
0196683000999992000111718004-26630+015100FM-12+000099999V0203601N003112200019N0750001N1+01611+01381101731ADDAA199000091GF103991031051017501001001KA1120M+02061MA1999999101551MD1210071+9999REMSYN086AAXX  17184 68300 32789 33606 10161 20138 30155 40173 52007 83500 333 10206 555 91017;EQDQ01  00002PRCP99
0157683000999992000111721004-26630+015100FM-12+000099999V0203601N001512200019N0200001N1+01611+01401101841ADDGA1001+999999999GF100991001001999999001001MA1999999101661MD1310111+9999REMSYN074AAXX  17214 68300 42170 03603 10161 20140 30166 40184 53011 333 555 91018;
0172683000999992000111800004-26630+015100FM-12+000099999V0203601N003112200019N0050001N1+01501+01281101601ADDAA199000091GA1001+999999999GF100991001001999999001001MD1710061+9999REMSYN074AAXX  18004 68300 32950 03606 10150 20128 3//// 40160 57006 333 555 91016;EQDQ01  00002PRCP99
0132683000999992000111803004-26630+015100FM-12+000099999V0203601N003112200019N0050001N1+01471+01331101531ADDGF103991031051004501001001MD1710071+9999REMSYN080AAXX  18034 68300 42450 33606 10147 20133 3//// 40153 57007 83500 333 555 91015;
0210683000999992000111806004-26630+015100FM-12+000099999V0200501N003112200019N0750001N1+01621+01121101631ADDAA199000091GA1001+999999999GF100991001001999999001001KA1240M+02061KA2120N+01451MD1310111+9999REMSYN086AAXX  18064 68300 32989 00506 10162 20112 3//// 40163 53011 333 20145 555 10206 91016;EQDQ01  00002PRCP99
0147683000999992000111809004-26630+015100FM-12+000099999V0202301N005110120019N0750001N1+02151+01061101781ADDGF105991051051012501001001MA1999999101601MD1810051+9999REMSYN080AAXX  18094 68300 42689 52310 10215 20106 30160 40178 58005 85500 333 555 91017;
0206683000999992000111812004-26630+015100FM-12+000099999V0202301N010312200019N0750001N1+02001+01261101731ADDAA199000091GA1001+999999999GF100991001001999999001001KA1120N+01651MA1999999101551MD1710051+9999REMSYN080AAXX  18124 68300 32989 02320 10200 20126 30155 40173 57005 333 20165 555 91017;EQDQ01  00002PRCP99
0187683000999992000111815004-26630+015100FM-12+000099999V0203201N007712200019N0300001N1+02051+01041101641ADDAA199000091GA1001+999999999GF100991001001999999001001MA1999999101461MD1710091+9999REMSYN074AAXX  18154 68300 32980 03215 10205 20104 30146 40164 57009 333 555 91016;EQDQ01  00002PRCP99
0206683000999992000111818004-26630+015100FM-12+000099999V0201801N007712200019N0750001N1+01871+01201101731ADDAA199000091GA1001+999999999GF100991001001999999001001KA1120M+02251MA1999999101551MD1210081+9999REMSYN080AAXX  18184 68300 32989 01815 10187 20120 30155 40173 52008 333 10225 555 91017;EQDQ01  00002PRCP99
0157683000999992000111821004-26630+015100FM-12+000099999V0201801N005112200019N0200001N1+01781+01261101871ADDGA1001+999999999GF100991001001999999001001MA1999999101691MD1310141+9999REMSYN074AAXX  18214 68300 42970 01810 10178 20126 30169 40187 53014 333 555 91018;
0187683000999992000111900004-26630+015100FM-12+000099999V0201801N003112200019N0050001N1+01691+01221101741ADDAA199000091GA1001+999999999GF100991001001999999001001MA1999999101561MD1810131+9999REMSYN074AAXX  19004 68300 32950 01806 10169 20122 30156 40174 58013 333 555 91017;EQDQ01  00002PRCP99
0157683000999992000111903004-26630+015100FM-12+000099999V0201801N005112200019N0300001N1+01601+01181101661ADDGA1001+999999999GF100991001001999999001001MA1999999101481MD1710081+9999REMSYN074AAXX  19034 68300 42980 01810 10160 20118 30148 40166 57008 333 555 91016;
0225683000999992000111906004-26630+015100FM-12+000099999V0201801N005112200019N0750001N1+01801+00701101731ADDAA199000091GA1001+999999999GF100991001001999999001001KA1240M+02301KA2120N+01501MA1999999101551MD1310071+9999REMSYN086AAXX  19064 68300 32989 01810 10180 20070 30155 40173 53007 333 20150 555 10230 91017;EQDQ01  00002PRCP99
0157683000999992000111909004-26630+015100FM-12+000099999V0201801N009312200019N0750001N1+02601+00851101581ADDGA1001+999999999GF100991001001999999001001MA1999999101411MD1810141+9999REMSYN074AAXX  19094 68300 42989 01818 10260 20085 30141 40158 58014 333 555 91015;
0206683000999992000111912004-26630+015100FM-12+000099999V0202301N014412200019N0750001N1+02351+01101101501ADDAA199000091GA1001+999999999GF100991001001999999001001KA1120N+01851MA1999999101331MD1710111+9999REMSYN080AAXX  19124 68300 32989 02328 10235 20110 30133 40150 57011 333 20185 555 91015;EQDQ01  00002PRCP99
0157683000999992000111915004-26630+015100FM-12+000099999V0201801N014412200019N0750001N1+02171+01361101361ADDGA1001+999999999GF100991001001999999001001MA1999999101181MD1710121+9999REMSYN074AAXX  19154 68300 42989 01828 10217 20136 30118 40136 57012 333 555 91013;
0206683000999992000111918004-26630+015100FM-12+000099999V0201801N007712200019N0750001N1+01921+01461101501ADDAA199000091GA1001+999999999GF100991001001999999001001KA1120M+02641MA1999999101321MD1310131+9999REMSYN080AAXX  19184 68300 32989 01815 10192 20146 30132 40150 53013 333 10264 555 91015;EQDQ01  00002PRCP99
0157683000999992000111921004-26630+015100FM-12+000099999V0201801N007712200019N0200001N1+01821+01441101611ADDGA1001+999999999GF100991001001999999001001MA1999999101431MD1310111+9999REMSYN074AAXX  19214 68300 42970 01815 10182 20144 30143 40161 53011 333 555 91016;
0187683000999992000112000004-26630+015100FM-12+000099999V0201801N005112200019N0050001N1+01621+01351101481ADDAA199000091GA1001+999999999GF100991001001999999001001MA1999999101301MD1810131+9999REMSYN074AAXX  20004 68300 32950 01810 10162 20135 30130 40148 58013 333 555 91014;EQDQ01  00002PRCP99
0187683000999992000112003004-26630+015100FM-12+000099999V0201801N003112200019N0050001N1+01601+01241101431ADDAA199000091GA1001+999999999GF100991001001999999001001MA1999999101251MD1710051+9999REMSYN074AAXX  20034 68300 32950 01806 10160 20124 30125 40143 57005 333 555 91014;EQDQ01  00002PRCP99
0225683000999992000112006004-26630+015100FM-12+000099999V0201801N005112200019N0750001N1+01901+01181101561ADDAA199000091GA1001+999999999GF100991001001999999001001KA1240M+02651KA2120N+01551MA1999999101381MD1310131+9999REMSYN086AAXX  20064 68300 32989 01810 10190 20118 30138 40156 53013 333 20155 555 10265 91015;EQDQ01  00002PRCP99
0157683000999992000112009004-26630+015100FM-12+000099999V0201801N010812200019N0200001N1+02151+01271101601ADDGA1001+999999999GF100991001001999999001001MA1999999101421MD1110051+9999REMSYN074AAXX  20094 68300 42970 01821 10215 20127 30142 40160 51005 333 555 91016;
0206683000999992000112012004-26630+015100FM-12+000099999V0201801N017012200019N0200001N1+02301+01461101531ADDAA199000091GA1001+999999999GF100991001001999999001001KA1120N+01801MA1999999101351MD1810061+9999REMSYN080AAXX  20124 68300 32970 01833 10230 20146 30135 40153 58006 333 20180 555 91015;EQDQ01  00002PRCP99
0157683000999992000112021004-26630+015100FM-12+000099999V0201801N008212200019N0100001N1+01801+01221101701ADDGA1001+999999999GF100991001001999999001001MA1999999101521MD1310011+9999REMSYN074AAXX  20214 68300 42960 01816 10180 20122 30152 40170 53001 333 555 91017;
0172683000999992000112100004-26630+015100FM-12+000099999V0201801N007212200019N0100001N1+01681+01061101421ADDAA199000091GA1001+999999999GF100991001001999999001001MD1810101+9999REMSYN074AAXX  21004 68300 32960 01814 10168 20106 3//// 40142 58010 333 555 91014;EQDQ01  00002PRCP99
0142683000999992000112103004-26630+015100FM-12+000099999V0201801N010312200019N0200001N1+01621+01031101391ADDGA1001+999999999GF100991001001999999001001MD1710031+9999REMSYN074AAXX  21034 68300 42970 01820 10162 20103 3//// 40139 57003 333 555 91013;
0210683000999992000112106004-26630+015100FM-12+000099999V0201801N007712200019N0750001N1+01861+01091101501ADDAA199000091GA1001+999999999GF100991001001999999001001KA1240M+02571KA2120N+01601MD1310111+9999REMSYN086AAXX  21064 68300 32989 01815 10186 20109 3//// 40150 53011 333 20160 555 10257 91015;EQDQ01  00002PRCP99
0157683000999992000112109004-26630+015100FM-12+000099999V0201801N012912200019N0750001N1+02441+01041101581ADDGA1001+999999999GF100991001001999999001001MA1999999101411MD1710091+9999REMSYN074AAXX  21094 68300 42989 01825 10244 20104 30141 40158 57009 333 555 91015;
0206683000999992000112112004-26630+015100FM-12+000099999V0201801N018512200019N0200001N1+02381+00031101391ADDAA199000091GA1001+999999999GF100991001001999999001001KA1120N+01901MA1999999101221MD1710191+9999REMSYN080AAXX  21124 68300 32970 01836 10238 20003 30122 40139 57019 333 20190 555 91014;EQDQ01  00002PRCP99
0157683000999992000112115004-26630+015100FM-12+000099999V0201801N018512200019N0200001N1+02551+00931101341ADDGA1001+999999999GF100991001001999999001001MA1999999101171MD1710051+9999REMSYN074AAXX  21154 68300 42970 01836 10255 20093 30117 40134 57005 333 555 91013;
0206683000999992000112118004-26630+015100FM-12+000099999V0201801N012912200019N0300001N1+01751+01211101421ADDAA199000091GA1001+999999999GF100991001001999999001001KA1120M+02551MA1999999101241MD1310071+9999REMSYN080AAXX  21184 68300 32980 01825 10175 20121 30124 40142 53007 333 10255 555 91014;EQDQ01  00002PRCP99
0157683000999992000112121004-26630+015100FM-12+000099999V0201801N014412200019N0300001N1+01551+01121101491ADDGA1001+999999999GF100991001001999999001001MA1999999101311MD1210071+9999REMSYN074AAXX  21214 68300 42980 01828 10155 20112 30131 40149 52007 333 555 91014;
0157683000999992000112203004-26630+015100FM-12+000099999V0201801N010312200019N0100001N1+01451+01111101211ADDGA1001+999999999GF100991001001999999001001MA1999999101031MD1710171+9999REMSYN074AAXX  22034 68300 42960 01820 10145 20111 30103 40121 57017 333 555 91012;
0225683000999992000112206004-26630+015100FM-12+000099999V0201801N007712200019N0100001N1+01751+01101101321ADDAA199000091GA1001+999999999GF100991001001999999001001KA1240M+02551KA2120N+01491MA1999999101141MD1310131+9999REMSYN086AAXX  22064 68300 32960 01815 10175 20110 30114 40132 53013 333 20149 555 10255 91013;EQDQ01  00002PRCP99
0142683000999992000112209004-26630+015100FM-12+000099999V0202701N007712200019N0100001N1+01481+01181101311ADDGA1001+999999999GF100991001001999999001001MD1710151+9999REMSYN074AAXX  22094 68300 42960 02715 10148 20118 3//// 40131 57015 333 555 91013;
0191683000999992000112212004-26630+015100FM-12+000099999V0202701N003112200019N0750001N1+01901+01281101251ADDAA199000091GA1001+999999999GF100991001001999999001001KA1120N+01451MD1210061+9999REMSYN080AAXX  22124 68300 32989 02706 10190 20128 3//// 40125 52006 333 20145 555 91012;EQDQ01  00002PRCP99
0206683000999992000112218004-26630+015100FM-12+000099999V0201801N005112200019N0750001N1+01751+01401101211ADDAA199000091GA1001+999999999GF100991001001999999001001KA1120M+02251MA1999999101031MD1810021+9999REMSYN080AAXX  22184 68300 32989 01810 10175 20140 30103 40121 58002 333 10225 555 91012;EQDQ01  00002PRCP99
0157683000999992000112221004-26630+015100FM-12+000099999V0201801N008212200019N0100001N1+01661+01301101371ADDGA1001+999999999GF100991001001999999001001MA1999999101191MD1210171+9999REMSYN074AAXX  22214 68300 42960 01816 10166 20130 30119 40137 52017 333 555 91013;
0187683000999992000112300004-26630+015100FM-12+000099999V0201801N006212200019N0050001N1+01511+01331101241ADDAA199000091GA1001+999999999GF100991001001999999001001MA1999999101061MD1310131+9999REMSYN074AAXX  23004 68300 32950 01812 10151 20133 30106 40124 53013 333 555 91012;EQDQ01  00002PRCP99
0177683000999992000112303004-26630+015100FM-12+000099999V0203601N005112200019N0040001N1+01351+01261101321ADDAA199000091GF104991041061000751001001MA1999999101141MD1310081+9999REMSYN080AAXX  23034 68300 32140 43610 10135 20126 30114 40132 53008 84600 333 555 91013;EQDQ01  00002PRCP99
0243683000999992000112306004-26630+015100FM-12+000099999V0203601N004110006019N0100001N1+01361+01311101591ADDAA199000091AY141061AY201061GF108991081061000751999999KA1240M+02251KA2120N+01351MA1999999101411MD1310271+9999MW1401REMSYN098AAXX  23064 68300 31160 83608 10136 20131 30141 40159 53027 74040 886// 333 20135 555 10225 91015;EQDQ01  00002PRCP99
0128683000999992000112309004-26630+015100FM-12+000099999V0203601N001510042019N0040001N1+01501+01411101511ADDGF108991081061004501999999MD1210101+9999REMSYN076AAXX  23094 68300 42440 83603 10150 20141 3//// 40151 52010 886// 555 91015;
0191683000999992000112312004-26630+015100FM-12+000099999V0203601N001512200019N0750001N1+01751+01401101351ADDAA199000091GA1001+999999999GF100991001001999999001001KA1120N+01401MD1710161+9999REMSYN080AAXX  23124 68300 32989 03603 10175 20140 3//// 40135 57016 333 20140 555 91013;EQDQ01  00002PRCP99
0208683000999992000112318004-26630+015100FM-12+000099999V0201801N005112200019N0750001N1+01701+01351999999ADDAA199000091GA1001+999999999GF100991001001999999001001KA1120M+02351MA1999999100001REMSYN080AAXX  23184 68300 32989 01810 10170 20135 30000 40018 5//// 333 10235 555 91001;EQDQ01+100183APOSLPQ02  00002PRCP99
0162683000999992000112321004-26630+015100FM-12+000099999V0201801N007212200019N0300001N1+01771+01021101841ADDGA1001+999999999GF100991001001999999001001MA1999999101662REMSYN074AAXX  23214 68300 42980 01814 10177 20102 30166 40184 5//// 333 555 91018;EQDQ01+101663APOSP 
0172683000999992000112400004-26630+015100FM-12+000099999V0201801N004112200019N0100001N1+01701+00931101571ADDAA199000091GA1001+999999999GF100991001001999999001001MD1810061+9999REMSYN074AAXX  24004 68300 32960 01808 10170 20093 3//// 40157 58006 333 555 91015;EQDQ01  00002PRCP99
0142683000999992000112403004-26630+015100FM-12+000099999V0201801N006212200019N0300001N1+01651+00851101531ADDGA1001+999999999GF100991001001999999001001MD1710071+9999REMSYN074AAXX  24034 68300 42980 01812 10165 20085 3//// 40153 57007 333 555 91017;
0190683000999992000112406004-26630+015100FM-12+000099999V0201401N009312200019N0750001N1+01901+00841999999ADDAA199000091GA1001+999999999GF100991001001999999001001KA1999M+02351KA2120N+01431REMSYN080AAXX  24064 68300 32989 01418 10190 20084 3//// 4//// 5//// 333 20143 555 10235;EQDQ01  00002PRCP99
0128683000999992000112409004-26630+015100FM-12+000099999V0202301N012912200019N0750001N1+02151+01271999999ADDGA1001+999999999GF100991001001999999001001REMSYN074AAXX  24094 68300 42989 02325 10215 20127 3//// 4//// 5//// 333 555 910//;
0192683000999992000112412004-26630+015100FM-12+000099999V0201801N017012200019N0200001N1+02251+00961100171ADDAA199000091GA1001+999999999GF100991001001999999001001KA1120N+01951MA1999999100001REMSYN080AAXX  24124 68300 32970 01833 10225 20096 30000 40017 5//// 333 20195 555 91001;EQDQ01  00002PRCP99
0128683000999992000112415004-26630+015100FM-12+000099999V0201801N018512200019N0300001N1+02151+00941999999ADDGA1001+999999999GF100991001001999999001001REMSYN074AAXX  24154 68300 42980 01836 10215 20094 3//// 4//// 5//// 333 555 910//;
0224683000999992000112418004-26630+015100FM-12+000099999V0201801N015412200019N0200001N1+01701+00931101482ADDAA199000091GA1001+999999999GF100991001001999999001001KA1120M+02251MA1999999101302REMSYN080AAXX  24184 68300 32970 01830 10170 20093 30130 40148 5//// 333 10225 555 91014;EQDQ01+101303APOSP Q02+101483APOSLPQ03  00002PRCP99
0157683000999992000112421004-26630+015100FM-12+000099999V0201801N009312200019N0200001N1+01701+00691101521ADDGA1001+999999999GF100991001001999999001001MA1999999101341MD1210041+9999REMSYN074AAXX  24214 68300 42970 01818 10170 20069 30134 40152 52004 333 555 91015;
0172683000999992000112500004-26630+015100FM-12+000099999V0201801N007712200019N0050001N1+01561+00481101221ADDAA199000091GA1001+999999999GF100991001001999999001001MD1710081+9999REMSYN074AAXX  25004 68300 32950 01815 10156 20048 3//// 40122 57008 333 555 91012;EQDQ01  00002PRCP99
0142683000999992000112503004-26630+015100FM-12+000099999V0201801N005112200019N0040001N1+01421+00551101101ADDGA1001+999999999GF100991001001999999001001MD1710081+9999REMSYN074AAXX  25034 68300 42940 01810 10142 20055 3//// 40110 57008 333 555 91011;
0196683000999992000112506004-26630+015100FM-12+000099999V0201801N005112200019N0200001N1+01551+00351101351ADDAA199000091GA1001+999999999GF100991001001999999001001KA1240M+02561KA2120N+01351REMSYN086AAXX  25064 68300 32970 01810 10155 20035 3//// 40135 5//// 333 20135 555 10256 91013;EQDQ01  00002PRCP99
0128683000999992000112509004-26630+015100FM-12+000099999V0201801N007712200019N0200001N1+02151+00821999999ADDGA1001+999999999GF100991001001999999001001REMSYN074AAXX  25094 68300 42970 01815 10215 20082 3//// 4//// 5//// 333 555 910//;
0128683000999992000112515004-26630+015100FM-12+000099999V0201801N017012200019N0750001N1+01901+01071999999ADDGA1001+999999999GF100991001001999999001001REMSYN074AAXX  25154 68300 42989 01833 10190 20107 30/// 40/// 5//// 333 555 910//;
0192683000999992000112518004-26630+015100FM-12+000099999V0201801N010312200019N0200001N1+01651+01091101531ADDAA199000091GA1001+999999999GF100991001001999999001001KA1120M+02251MA1999999101351REMSYN080AAXX  25184 68300 32970 01820 10165 20109 30135 40153 5//// 333 10225 555 91015;EQDQ01  00002PRCP99
0187683000999992000112521004-26630+015100FM-12+000099999V0201801N007712200019N0050001N1+01561+00991101711ADDAA199000091GA1001+999999999GF100991001001999999001001MA1999999101531MD1310281+9999REMSYN074AAXX  25214 68300 32950 01815 10156 20099 30153 40171 53028 333 555 91017;EQDQ01  00002PRCP99
0187683000999992000112600004-26630+015100FM-12+000099999V0201801N010312200019N0050001N1+01521+00891101891ADDAA199000091GA1001+999999999GF100991001001999999001001MA1999999101711MD1210081+9999REMSYN074AAXX  26004 68300 32950 01820 10152 20089 30171 40189 52008 333 555 91018;EQDQ01  00002PRCP99
0187683000999992000112603004-26630+015100FM-12+000099999V0201801N007712200019N0050001N1+01491+00811101871ADDAA199000091GA1001+999999999GF100991001001999999001001MA1999999101691MD1710021+9999REMSYN074AAXX  26034 68300 32950 01815 10149 20081 30169 40187 57002 333 555 91018;EQDQ01  00002PRCP99
0225683000999992000112606004-26630+015100FM-12+000099999V0201801N007712200019N0200001N1+01651+00631101991ADDAA199000091GA1001+999999999GF100991001001999999001001KA1240M+02251KA2120N+01501MA1999999101811MD1310121+9999REMSYN086AAXX  26064 68300 32970 01815 10165 20063 30181 40199 53012 333 20150 555 10225 91019;EQDQ01  00002PRCP99
0157683000999992000112609004-26630+015100FM-12+000099999V0201801N011312200019N0200001N1+02201+00631101921ADDGA1001+999999999GF100991001001999999001001MA1999999101741MD1810071+9999REMSYN074AAXX  26094 68300 42970 01822 10220 20063 30174 40192 58007 333 555 91019;
0191683000999992000112612004-26630+015100FM-12+000099999V0201801N013912200019N0200001N1+02151+00821101581ADDAA199000091GA1001+999999999GF100991001001999999001001KA1120N+01701MD1710141+9999REMSYN080AAXX  26124 68300 32970 01827 10215 20082 3//// 40158 57014 333 20170 555 91015;EQDQ01  00002PRCP99
0142683000999992000112615004-26630+015100FM-12+000099999V0201801N015412200019N0200001N1+02001+00971101461ADDGA1001+999999999GF100991001001999999001001MD1710111+9999REMSYN074AAXX  26154 68300 42970 01830 10200 20097 3//// 40146 57011 333 555 91014;
0191683000999992000112618004-26630+015100FM-12+000099999V0201801N008212200019N0200001N1+01651+01091101561ADDAA199000091GA1001+999999999GF100991001001999999001001KA1120M+02401MD1210011+9999REMSYN080AAXX  26184 68300 32970 01816 10165 20109 3//// 40156 52001 333 10240 555 91015;EQDQ01  00002PRCP99
0142683000999992000112621004-26630+015100FM-12+000099999V0201801N012912200019N0050001N1+01701+00931101801ADDGA1001+999999999GF100991001001999999001001MD1310341+9999REMSYN074AAXX  26214 68300 42950 01825 10170 20093 3//// 40180 53034 333 555 91018;
0172683000999992000112700004-26630+015100FM-12+000099999V0209999C000012200019N0050001N1+01671+00781101621ADDAA199000091GA1001+999999999GF100991001001999999001001MD1810141+9999REMSYN074AAXX  27004 68300 32950 00000 10167 20078 3//// 40162 58014 333 555 91016;EQDQ01  00002PRCP99
0142683000999992000112703004-26630+015100FM-12+000099999V0201801N010312200019N0050001N1+01401+01021101581ADDGA1001+999999999GF100991001001999999001001MD1710041+9999REMSYN074AAXX  27034 68300 42950 01820 10140 20102 3//// 40158 57004 333 555 91017;
0210683000999992000112706004-26630+015100FM-12+000099999V0201801N010312200019N0200001N1+01651+00981101601ADDAA199000091GA1001+999999999GF100991001001999999001001KA1240M+02451KA2120N+01401MD1310051+9999REMSYN086AAXX  27064 68300 32970 01820 10165 20098 3//// 40160 53005 333 20140 555 10245 91016;EQDQ01  00002PRCP99
0157683000999992000112709004-26630+015100FM-12+000099999V0201801N014412200019N0200001N1+02341+00811101611ADDGA1001+999999999GF100991001001999999001001MA1999999101431MD1810171+9999REMSYN074AAXX  27094 68300 42970 01828 10234 20081 30143 40161 58017 333 555 91016;
0206683000999992000112712004-26630+015100FM-12+000099999V0202301N013912200019N0100001N1+02251+01081101431ADDAA199000091GA1001+999999999GF100991001001999999001001KA1120N+01701MA1999999101251MD1710181+9999REMSYN080AAXX  27124 68300 32960 02327 10225 20108 30125 40143 57018 333 20170 555 91014;EQDQ01  00002PRCP99
0206683000999992000112718004-26630+015100FM-12+000099999V0201801N014912200019N0200001N1+01601+01241101471ADDAA199000091GA1001+999999999GF100991001001999999001001KA1120M+02451MA1999999101291MD1210121+9999REMSYN080AAXX  27184 68300 32970 01829 10160 20124 30129 40147 52012 333 10245 555 91014;EQDQ01  00002PRCP99
0187683000999992000112800004-26630+015100FM-12+000099999V0201801N007712200019N0100001N1+01591+01411101541ADDAA199000091GA1001+999999999GF100991001001999999001001MA1999999101361MD1110081+9999REMSYN074AAXX  28004 68300 32960 01815 10159 20141 30136 40154 51008 333 555 91015;EQDQ01  00002PRCP99
0157683000999992000112803004-26630+015100FM-12+000099999V0201801N005112200019N0200001N1+01501+01231101531ADDGA1001+999999999GF100991001001999999001001MA1999999101351MD1610011+9999REMSYN074AAXX  28034 68300 42970 01810 10150 20123 30135 40153 56001 333 555 91015;
0225683000999992000112806004-26630+015100FM-12+000099999V0201401N007712200019N0200001N1+01701+01251101691ADDAA199000091GA1001+999999999GF100991001001999999001001KA1240M+02451KA2120N+01451MA1999999101511MD1310161+9999REMSYN086AAXX  28064 68300 32970 01415 10170 20125 30151 40169 53016 333 20145 555 10245 91016;EQDQ01  00002PRCP99
0161683000999992000112809004-26630+015100FM-12+000099999V0202301N010312200019N0200001N1+02301+99999101431ADDGA1001+999999999GF100991001001999999001001MD1710081+9999REMSYN074AAXX  28094 68300 42970 02320 10230 21002 3//// 40143 57008 333 555 91014;EQDQ01 -00023ATOD  
0191683000999992000112812004-26630+015100FM-12+000099999V0202301N012912200019N0750001N1+02201+01231101401ADDAA199000091GA1001+999999999GF100991001001999999001001KA1120N+01401MD1710031+9999REMSYN080AAXX  28124 68300 32989 02325 10220 20123 3//// 40140 57003 333 20140 555 91014;EQDQ01  00002PRCP99
0157683000999992000112815004-26630+015100FM-12+000099999V0202301N014412200019N0750001N1+02021+01241101441ADDGA1001+999999999GF100991001001999999001001MA1999999101261MD1710161+9999REMSYN074AAXX  28154 68300 42989 02328 10202 20124 30126 40144 57016 333 555 91014;
0206683000999992000112818004-26630+015100FM-12+000099999V0202301N013412200019N0750001N1+01761+01341101511ADDAA199000091GA1001+999999999GF100991001001999999001001KA1120M+02531MA1999999101331MD1310071+9999REMSYN080AAXX  28184 68300 32989 02326 10176 20134 30133 40151 53007 333 10253 555 91015;EQDQ01  00002PRCP99
0157683000999992000112821004-26630+015100FM-12+000099999V0202301N010312200019N0200001N1+01751+01141101551ADDGA1001+999999999GF100991001001999999001001MA1999999101371MD1710041+9999REMSYN074AAXX  28214 68300 42970 02320 10175 20114 30137 40155 57004 333 555 91015;
0187683000999992000112900004-26630+015100FM-12+000099999V0202301N007712200019N0200001N1+01751+00991101351ADDAA199000091GA1001+999999999GF100991001001999999001001MA1999999101171MD1810201+9999REMSYN074AAXX  29004 68300 32970 02315 10175 20099 30117 40135 58020 333 555 91013;EQDQ01  00002PRCP99
0157683000999992000112903004-26630+015100FM-12+000099999V0202301N007712200019N0100001N1+01681+01081101321ADDGA1001+999999999GF100991001001999999001001MA1999999101141MD1610031+9999REMSYN074AAXX  29034 68300 42960 02315 10168 20108 30114 40132 56003 333 555 91013;
0225683000999992000112906004-26630+015100FM-12+000099999V0201401N005112200019N0200001N1+01701+01151101571ADDAA199000091GA1001+999999999GF100991001001999999001001KA1240M+02531KA2120N+01501MA1999999101391MD1310221+9999REMSYN086AAXX  29064 68300 32970 01410 10170 20115 30139 40157 53022 333 20150 555 10253 91015;EQDQ01  00002PRCP99
0160683000999992000112909004-26630+015100FM-12+000099999V0203601N006212200019N0100001N1+01491+01181101411ADDAY141031AY241031GF101991011061012501001001MD1210021+9999MW1401REMSYN086AAXX  29094 68300 41660 13612 10149 20118 3//// 40141 52002 74044 81600 333 555 91014;
0206683000999992000112912004-26630+015100FM-12+000099999V0203601N007712200019N0200001N1+01851+01321101341ADDAA199000091GA1001+999999999GF100991001001999999001001KA1120N+01451MA1999999101161MD1810151+9999REMSYN080AAXX  29124 68300 32970 03615 10185 20132 30116 40134 58015 333 20145 555 91013;EQDQ01  00002PRCP99
0157683000999992000112921004-26630+015100FM-12+000099999V0201801N007712200019N0200001N1+01671+01071101291ADDGA1001+999999999GF100991001001999999001001MA1999999101111MD1210071+9999REMSYN074AAXX  29214 68300 42970 01815 10167 20107 30111 40129 52007 333 555 91012;
0172683000999992000113000004-26630+015100FM-12+000099999V0201801N005112200019N0050001N1+01521+01021101101ADDAA199000091GA1001+999999999GF100991001001999999001001MD1410001+9999REMSYN074AAXX  30004 68300 32950 01810 10152 20102 3//// 40110 54000 333 555 91011;EQDQ01  00002PRCP99
0142683000999992000113003004-26630+015100FM-12+000099999V0201801N001512200019N0050001N1+01401+01061101241ADDGA1001+999999999GF100991001001999999001001MD1310111+9999REMSYN074AAXX  30034 68300 42950 01803 10140 20106 3//// 40124 53011 333 555 91012;
0228683000999992000113006004-26630+015100FM-12+000099999V0203201N003110075019N0100001N1+01381+01231101421ADDAA199000091AY141061AY241061GF106991061061008001001001KA1240M+02451KA2120N+01351MD1210161+9999MW1401REMSYN098AAXX  30064 68300 31560 63206 10138 20123 3//// 40142 52016 74044 86600 333 20135 555 10245 91014;EQDQ01  00002PRCP99
0147683000999992000113009004-26630+015100FM-12+000099999V0203201N003110075019N0100001N1+01501+01231101541ADDGF106991061051008001001001MA1999999101361MD1810061+9999REMSYN080AAXX  30094 68300 42560 63206 10150 20123 30136 40154 58006 86500 333 555 91015;
0196683000999992000113012004-26630+015100FM-12+000099999V0203601N003110021019N0300001N1+01501+01301101491ADDAA199000091GF105991051051002501001001KA1120N+01401MA1999999101311MD1710061+9999REMSYN086AAXX  30124 68300 32380 53606 10150 20130 30131 40149 57006 85500 333 20140 555 91014;EQDQ01  00002PRCP99
0157683000999992000113015004-26630+015100FM-12+000099999V0203601N003112200019N0300001N1+01501+01231101431ADDGA1001+999999999GF100991001001999999001001MA1999999101251MD1810091+9999REMSYN074AAXX  30154 68300 42980 03606 10150 20123 30125 40143 58009 333 555 91014;
0206683000999992000113018004-26630+015100FM-12+000099999V0202201N003112200019N0300001N1+01751+01401101411ADDAA199000091GA1001+999999999GF100991001001999999001001KA1120M+02451MA1999999101231MD1710021+9999REMSYN080AAXX  30184 68300 32980 02206 10175 20140 30123 40141 57002 333 10245 555 91014;EQDQ01  00002PRCP99
0147683000999992000113021004-26630+015100FM-12+000099999V0201801N003112200019N0050001N1+01471+01341101601ADDGF104991041061001501001001MA1999999101421MD1310121+9999REMSYN080AAXX  30214 68300 42250 41806 10147 20134 30142 40160 53012 84600 333 555 91016;
0228683000999992000120106004-26630+015100FM-12+000099999V0203601N001510120019N0100001N1+01501+01411101451ADDAA199000091AY141061AY241061GF108991081061012501999999KA1240M+01851KA2120N+01451MD1210071+9999MW1441REMSYN098AAXX  01064 68300 31660 83603 10150 20141 3//// 40145 52007 74444 886// 333 20145 555 10185 91014;EQDQ01  00002PRCP99
0206683000999992000120112004-26630+015100FM-12+000099999V0202701N001512200019N0300001N1+01801+01451101611ADDAA199000091GA1001+999999999GF100991001001999999001001KA1120N+01501MA1999999101431MD1710051+9999REMSYN080AAXX  01124 68300 32980 02703 10180 20145 30143 40161 57005 333 20150 555 91016;EQDQ01  00002PRCP99
0157683000999992000120115004-26630+015100FM-12+000099999V0202301N005112200019N0200001N1+02171+01461101431ADDGA1001+999999999GF100991001001999999001001MA1999999101251MD1310181+9999REMSYN074AAXX  01154 68300 42970 02310 10217 20146 30125 40143 53018 333 555 91014;
0206683000999992000120118004-26630+015100FM-12+000099999V0201801N005112200019N0750001N1+01811+01261101501ADDAA199000091GA1001+999999999GF100991001001999999001001KA1120M+02261MA1999999101321MD1310071+9999REMSYN080AAXX  01184 68300 32989 01810 10181 20126 30132 40150 53007 333 10226 555 91015;EQDQ01  00002PRCP99
0187683000999992000120121004-26630+015100FM-12+000099999V0201801N005112200019N0300001N1+01701+01441101551ADDAA199000091GA1001+999999999GF100991001001999999001001MA1999999101371MD1210041+9999REMSYN074AAXX  01214 68300 32980 01810 10170 20144 30137 40155 52004 333 555 91015;EQDQ01  00002PRCP99
0147683000999992000120203004-26630+015100FM-12+000099999V0201801N003112200019N0300001N1+01751+01211101211ADDGF103991021061000751081001MA1999999101031MD1710091+9999REMSYN080AAXX  02034 68300 42180 31806 10175 20121 30103 40121 57009 82680 333 555 91012;
0215683000999992000120206004-26630+015100FM-12+000099999V0203601N001510042019N0750001N1+01451+01361101521ADDAA199000091GF108991081061004501999999KA1240M+02661KA2120N+01471MA1999999101341MD1010311+9999REMSYN092AAXX  02064 68300 32489 83603 10145 20136 30134 40152 50031 886// 333 20147 555 10266 91015;EQDQ01  00002PRCP99
0147683000999992000120209004-26630+015100FM-12+000099999V0202701N001510042019N0200001N1+01751+01401101581ADDGF106991061051004501001001MA1999999101401MD1110051+9999REMSYN080AAXX  02094 68300 42470 62703 10175 20140 30140 40158 51005 86500 333 555 91015;
0196683000999992000120212004-26630+015100FM-12+000099999V0201801N005112200019N0200001N1+02251+01191101381ADDAA199000091GF104991041051008001001001KA1120N+01501MA1999999101201MD1710201+9999REMSYN086AAXX  02124 68300 32570 41810 10225 20119 30120 40138 57020 84500 333 20150 555 91013;EQDQ01  00002PRCP99
0196683000999992000120218004-26630+015100FM-12+000099999V0201801N011312200019N0300001N1+01691+01241101261ADDAA199000091GF101991011051000751001001KA1120M+02351MA1999999101081MD1310141+9999REMSYN086AAXX  02184 68300 32180 11822 10169 20124 30108 40126 53014 81500 333 10235 555 91012;EQDQ01  00002PRCP99
0187683000999992000120300004-26630+015100FM-12+000099999V0201801N003112200019N0100001N1+01651+01191101441ADDAA199000091GA1001+999999999GF100991001001999999001001MA1999999101261MD1710121+9999REMSYN074AAXX  03004 68300 32960 01806 10165 20119 30126 40144 57012 333 555 91014;EQDQ01  00002PRCP99
0157683000999992000120303004-26630+015100FM-12+000099999V0201801N010312200019N0100001N1+01651+01191101441ADDGA1001+999999999GF100991001001999999001001MA1999999101261MD1410001+9999REMSYN074AAXX  03034 68300 42960 01820 10165 20119 30126 40144 54000 333 555 91014;
0225683000999992000120306004-26630+015100FM-12+000099999V0201801N004112200019N0200001N1+01801+01061101511ADDAA199000091GA1001+999999999GF100991001001999999001001KA1240M+02351KA2120N+01531MA1999999101331MD1210081+9999REMSYN086AAXX  03064 68300 32970 01808 10180 20106 30133 40151 52008 333 20153 555 10235 91015;EQDQ01  00002PRCP99
0157683000999992000120309004-26630+015100FM-12+000099999V0201801N008212200019N0200001N1+02201+01011101471ADDGA1001+999999999GF100991001001999999001001MA1999999101291MD1710041+9999REMSYN074AAXX  03094 68300 42970 01816 10220 20101 30129 40147 57004 333 555 91014;
0206683000999992000120312004-26630+015100FM-12+000099999V0201801N011812200019N0750001N1+02231+01211101271ADDAA199000091GA1001+999999999GF100991001001999999001001KA1120N+01801MA1999999101091MD1210201+9999REMSYN080AAXX  03124 68300 32989 01823 10223 20121 30109 40127 52020 333 20180 555 91012;EQDQ01  00002PRCP99
0157683000999992000120315004-26630+015100FM-12+000099999V0201801N014412200019N0750001N1+02201+01291101171ADDGA1001+999999999GF100991001001999999001001MA1999999100991MD1810101+9999REMSYN074AAXX  03154 68300 42989 01828 10220 20129 30099 40117 58010 333 555 91011;
0196683000999992000120318004-26630+015100FM-12+000099999V0202301N009312200019N0750001N1+01951+01381101281ADDAA199000091GF103991031001999999081001KA1120M+02551MA1999999101101MD1310111+9999REMSYN086AAXX  03184 68300 32989 32318 10195 20138 30110 40128 53011 83080 333 10255 555 91012;EQDQ01  00002PRCP99
0187683000999992000120400004-26630+015100FM-12+000099999V0201801N012312200019N0100001N1+01701+01251101321ADDAA199000091GA1001+999999999GF100991001001999999001001MA1999999101141MD1810141+9999REMSYN074AAXX  04004 68300 32960 01824 10170 20125 30114 40132 58014 333 555 91013;EQDQ01  00002PRCP99
0157683000999992000120403004-26630+015100FM-12+000099999V0201801N010312200019N0100001N1+01651+01191101281ADDGA1001+999999999GF100991001001999999001001MA1999999101101MD1710041+9999REMSYN074AAXX  04034 68300 42960 01820 10165 20119 30110 40128 57004 333 555 91012;
0225683000999992000120406004-26630+015100FM-12+000099999V0201801N010312200019N0200001N1+01551+01041101381ADDAA199000091GA1001+999999999GF100991001001999999001001KA1240M+02551KA2120N+01451MA1999999101201MD1210021+9999REMSYN086AAXX  04064 68300 32970 01820 10155 20104 30120 40138 52002 333 20145 555 10255 91013;EQDQ01  00002PRCP99
0157683000999992000120409004-26630+015100FM-12+000099999V0201801N013412200019N0750001N1+02101+00991101341ADDGA1001+999999999GF100991001001999999001001MA1999999101161MD1810041+9999REMSYN074AAXX  04094 68300 42989 01826 10210 20099 30116 40134 58004 333 555 91013;
0206683000999992000120412004-26630+015100FM-12+000099999V0202301N015412200019N0750001N1+02151+01171101581ADDAA199000091GA1001+999999999GF100991001001999999001001KA1120N+01601MA1999999101401MD1710121+9999REMSYN080AAXX  04124 68300 32989 02330 10215 20117 30140 40158 57012 333 20160 555 91015;EQDQ01  00002PRCP99
0157683000999992000120415004-26630+015100FM-12+000099999V0202301N016412200019N0750001N1+02051+01151101091ADDGA1001+999999999GF100991001001999999001001MA1999999100911MD1710131+9999REMSYN074AAXX  04154 68300 42989 02332 10205 20115 30091 40109 57013 333 555 91010;
0206683000999992000120418004-26630+015100FM-12+000099999V0202301N004112200019N0750001N1+01671+01221101261ADDAA199000091GA1001+999999999GF100991001001999999001001KA1120M+02261MA1999999101081MD1310171+9999REMSYN080AAXX  04184 68300 32989 02308 10167 20122 30108 40126 53017 333 10226 555 91012;EQDQ01  00002PRCP99
0157683000999992000120421004-26630+015100FM-12+000099999V0201801N005112200019N0400001N1+01651+01191101441ADDGA1001+999999999GF100991001001999999001001MA1999999101261MD1210151+9999REMSYN074AAXX  04214 68300 42982 01810 10165 20119 30126 40144 52015 333 555 91014;
0187683000999992000120500004-26630+015100FM-12+000099999V0201801N005112200019N0100001N1+01601+01141101381ADDAA199000091GA1001+999999999GF100991001001999999001001MA1999999101201MD1810051+9999REMSYN074AAXX  05004 68300 32960 01810 10160 20114 30120 40138 58005 333 555 91013;EQDQ01  00002PRCP99
0187683000999992000120503004-26630+015100FM-12+000099999V0201801N006212200019N0100001N1+01551+01081101431ADDAA199000091GA1001+999999999GF100991001001999999001001MA1999999101251MD1310061+9999REMSYN074AAXX  05034 68300 32960 01812 10155 20108 30125 40143 53006 333 555 91014;EQDQ01  00002PRCP99
0225683000999992000120506004-26630+015100FM-12+000099999V0201801N010312200019N0750001N1+01721+01131101711ADDAA199000091GA1001+999999999GF100991001001999999001001KA1240M+02261KA2120N+01531MA1999999101531MD1310291+9999REMSYN086AAXX  05064 68300 32989 01820 10172 20113 30153 40171 53029 333 20153 555 10226 91017;EQDQ01  00002PRCP99
0142683000999992000120509004-26630+015100FM-12+000099999V0201801N007712200019N0750001N1+02321+01101101491ADDGA1001+999999999GF100991001001999999001001MD1710041+9999REMSYN074AAXX  05094 68300 42989 01815 10232 20110 3//// 40149 57004 333 555 91014;
0191683000999992000120512004-26630+015100FM-12+000099999V0201801N015412200019N0200001N1+02201+00911101381ADDAA199000091GA1001+999999999GF100991001001999999001001KA1120N+01751MD1810111+9999REMSYN080AAXX  05124 68300 32970 01830 10220 20091 3//// 40138 58011 333 20175 555 91013;EQDQ01  00002PRCP99
0153683000999992000120515004-26630+015100FM-12+000099999V0201801N015412200019N0100001N1+02101+01171101381ADDGA1001+999999999GF100991001001999999001001MA1999999101201MD1710181+9999REMSYN070AAXX  05154 68300 42960 01830 10210 20117 30120 40138 57018 555 91013;
0206683000999992000120518004-26630+015100FM-12+000099999V0201801N011312200019N0100001N1+01801+01221101441ADDAA199000091GA1001+999999999GF100991001001999999001001KA1120M+02361MA1999999101261MD1310061+9999REMSYN080AAXX  05184 68300 32960 01822 10180 20122 30126 40144 53006 333 10236 555 91014;EQDQ01  00002PRCP99
0157683000999992000120521004-26630+015100FM-12+000099999V0201801N010312200019N0100001N1+01651+01291101511ADDGA1001+999999999GF100991001001999999001001MA1999999101331MD1210071+9999REMSYN074AAXX  05214 68300 42960 01820 10165 20129 30133 40151 52007 333 555 91015;
0172683000999992000120600004-26630+015100FM-12+000099999V0201801N007712200019N0100001N1+01641+01391101201ADDAA199000091GA1001+999999999GF100991001001999999001001MD1810141+9999REMSYN074AAXX  06004 68300 32960 01815 10164 20139 3//// 40120 58014 333 555 91012;EQDQ01  00002PRCP99
0142683000999992000120603004-26630+015100FM-12+000099999V0201801N005112200019N0100001N1+01651+01191101201ADDGA1001+999999999GF100991001001999999001001MD1410001+9999REMSYN074AAXX  06034 68300 42960 01810 10165 20119 3//// 40120 54000 333 555 91012;
0157683000999992000120609004-26630+015100FM-12+000099999V0202301N009312200019N0100001N1+02251+01101101381ADDGA1001+999999999GF100991001001999999001001MA1999999101201MD1810091+9999REMSYN074AAXX  06094 68300 42960 02318 10225 20110 30120 40138 58009 333 555 91013;
0206683000999992000120612004-26630+015100FM-12+000099999V0202301N011312200019N0750001N1+02201+01121101281ADDAA199000091GA1001+999999999GF100991001001999999001001KA1120N+01841MA1999999101101MD1710101+9999REMSYN080AAXX  06124 68300 32989 02322 10220 20112 30110 40128 57010 333 20184 555 91012;EQDQ01  00002PRCP99
0147683000999992000120615004-26630+015100FM-12+000099999V0202301N010312200019N0750001N1+02001+01211101271ADDGF103991031041017501001001MA1999999101091MD1410001+9999REMSYN080AAXX  06154 68300 42789 32320 10200 20121 30109 40127 54001 83400 333 555 91012;
0196683000999992000120618004-26630+015100FM-12+000099999V0202301N007712200019N0750001N1+01721+01211101491ADDAA199000091GF102991021041017501001001KA1120M+02361MA1999999101311MD1310211+9999REMSYN086AAXX  06184 68300 32789 22315 10172 20121 30131 40149 53021 82400 333 10236 555 91014;EQDQ01  00002PRCP99
0210683000999992000120706004-26630+015100FM-12+000099999V0201801N004112200019N0750001N1+01901+01301101411ADDAA199000091GA1001+999999999GF100991001001999999001001KA1240M+02371KA2120N+01541MD1210031+9999REMSYN086AAXX  07064 68300 32989 01808 10190 20130 3//// 40141 52003 333 20154 555 10237 91014;EQDQ01  00002PRCP99
0206683000999992000120712004-26630+015100FM-12+000099999V0201801N015412200019N0200001N1+02301+01341101291ADDAA199000091GA1001+999999999GF100991001001999999001001KA1120N+01901MA1999999101121MD1810201+9999REMSYN080AAXX  07124 68300 32970 01830 10230 20134 30112 40129 58020 333 20190 555 91013;EQDQ01  00002PRCP99
0157683000999992000120715004-26630+015100FM-12+000099999V0201801N015412200019N0100001N1+02251+01171101151ADDGA1001+999999999GF100991001001999999001001MA1999999100981MD1710141+9999REMSYN074AAXX  07154 68300 42960 01830 10225 20117 30098 40115 57014 333 555 91011;
0196683000999992000120718004-26630+015100FM-12+000099999V0201801N011312200019N0100001N1+01801+01301101361ADDAA199000091GF101991011061000751001001KA1120M+02471MA1999999101181MD1310201+9999REMSYN086AAXX  07184 68300 32160 11822 10180 20130 30118 40136 53020 81600 333 10247 555 91013;EQDQ01  00002PRCP99
0157683000999992000120721004-26630+015100FM-12+000099999V0201801N007712200019N0100001N1+01801+01361101471ADDGA1001+999999999GF100991001001999999001001MA1999999101291MD1210121+9999REMSYN074AAXX  07214 68300 42960 01815 10180 20136 30129 40147 52012 333 555 91014;
0157683000999992000120800004-26630+015100FM-12+000099999V0209999C000012200019N0300001N1+01751+01101101301ADDGA1001+999999999GF100991001001999999001001MA1999999101121MD1710021+9999REMSYN074AAXX  08004 68300 42480 00000 10175 20110 30112 40130 57002 333 555 91013;
0215683000999992000120806004-26630+015100FM-12+000099999V0202301N011312200019N0300001N1+01801+00991101411ADDAA199000091GF101991001001999999001021KA1240M+02471KA2120N+01481MA1999999101231MD1310111+9999REMSYN092AAXX  08064 68300 32980 12322 10180 20099 30123 40141 53011 80002 333 20148 555 10247 91014;EQDQ01  00002PRCP99
0147683000999992000120809004-26630+015100FM-12+000099999V0201501N015412200019N0100001N1+01941+00191101401ADDGF104991001001999999001091MA1999999101221MD1810011+9999REMSYN080AAXX  08094 68300 42960 41530 10194 20019 30122 40140 58001 80009 333 555 91014;
0196683000999992000120812004-26630+015100FM-12+000099999V0201801N015419999999N0100001N1+01981+01291101341ADDAA199000091GF105991041001999999051091KA1120N+01821MA1999999101161MD1710081+9999REMSYN086AAXX  08124 68300 32960 51830 10198 20129 30116 40134 57008 84059 333 20182 555 91013;EQDQ01  00002PRCP99
0206683000999992000120818004-26630+015100FM-12+000099999V0201801N010312200019N0100001N1+01721+01331101261ADDAA199000091GA1001+999999999GF100991001001999999001001KA1120M+02421MA1999999101081MD1310081+9999REMSYN080AAXX  08184 68300 32960 01820 10172 20133 30108 40126 53008 333 10242 555 91012;EQDQ01  00002PRCP99
0187683000999992000120900004-26630+015100FM-12+000099999V0201801N010312200019N0100001N1+01601+01311101321ADDAA199000091GA1001+999999999GF100991001001999999001001MA1999999101141MD1810091+9999REMSYN074AAXX  09004 68300 32960 01820 10160 20131 30114 40132 58009 333 555 91013;EQDQ01  00002PRCP99
0157683000999992000120903004-26630+015100FM-12+000099999V0201801N010312200019N0100001N1+01601+01311101321ADDGA1001+999999999GF100991001001999999001001MA1999999101141MD1810091+9999REMSYN074AAXX  09034 68300 42960 01820 10160 20131 30114 40132 58009 333 555 91013;
0237683000999992000120906004-26630+015100FM-12+000099999V0202301N009312200019N0200001N1+01691+01371101431ADDAA124024291GA1001+999999999GF100991001001999999001001KA1240M+99999KA2120N-00701MA1999999101251MD1310091+9999REMSYN098AAXX  09064 68300 12970 02318 10169 20137 30125 40143 53009 60244 333 21070 555 10155 20242 91014;EQDQ01 +01552ATMX  
0147683000999992000120909004-26630+015100FM-12+000099999V0201801N008212200019N0200001N1+02201+01341101511ADDGF101991011051002501001001MA1999999101331MD1110081+9999REMSYN080AAXX  09094 68300 42370 11816 10220 20134 30133 40151 51008 81500 333 555 91015;
0196683000999992000120912004-26630+015100FM-12+000099999V0201801N010312200019N0200001N1+02211+01331101441ADDAA199000091GF101991011051004501001001KA1120N+01721MA1999999101261MD1810071+9999REMSYN086AAXX  09124 68300 32470 11820 10221 20133 30126 40144 58007 81500 333 20172 555 91014;EQDQ01  00002PRCP99
0147683000999992000120915004-26630+015100FM-12+000099999V0201801N008212200019N0100001N1+02131+01391101311ADDGF101991011051000751001001MA1999999101131MD1710131+9999REMSYN080AAXX  09154 68300 42160 11816 10213 20139 30113 40131 57013 81500 333 555 91013;
0206683000999992000120918004-26630+015100FM-12+000099999V0201801N007712200019N0100001N1+01821+01441101401ADDAA199000091GA1001+999999999GF100991001001999999001001KA1120M+02351MA1999999101221MD1210081+9999REMSYN080AAXX  09184 68300 32960 01815 10182 20144 30122 40140 52008 333 10235 555 91014;EQDQ01  00002PRCP99
0157683000999992000120921004-26630+015100FM-12+000099999V0201801N005112200019N0300001N1+01731+01451101521ADDGA1001+999999999GF100991001001999999001001MA1999999101341MD1310121+9999REMSYN074AAXX  09214 68300 42980 01810 10173 20145 30134 40152 53012 333 555 91015;
0225683000999992000121006004-26630+015100FM-12+000099999V0201801N006212200019N0100001N1+01841+00971101441ADDAA199000091GA1001+999999999GF100991001001999999001001KA1240M+03341KA2120N+01611MA1999999101261MD1310121+9999REMSYN086AAXX  10064 68300 32960 01812 10184 20097 30126 40144 53012 333 20161 555 10334 91014;EQDQ01  00002PRCP99
0157683000999992000121009004-26630+015100FM-12+000099999V0201801N009312200019N0100001N1+02261+01331101421ADDGA1001+999999999GF100991001001999999001001MA1999999101241MD1810021+9999REMSYN074AAXX  10094 68300 42960 01818 10226 20133 30124 40142 58002 333 555 91014;
0206683000999992000121012004-26630+015100FM-12+000099999V0201801N014412200019N0100001N1+02241+01301101361ADDAA199000091GA1001+999999999GF100991001001999999001001KA1120N+01861MA1999999101181MD1710061+9999REMSYN080AAXX  10124 68300 32960 01828 10224 20130 30118 40136 57006 333 20186 555 91013;EQDQ01  00002PRCP99
0147683000999992000121015004-26630+015100FM-12+000099999V0201801N011312200019N0100001N1+02021+01381101301ADDGF101991011091001501001001MA1999999101121MD1710061+9999REMSYN080AAXX  10154 68300 42260 11822 10202 20138 30112 40130 57006 81900 333 555 91013;
0206683000999992000121018004-26630+015100FM-12+000099999V0201801N010312200019N0100001N1+01841+01351101451ADDAA199000091GA1001+999999999GF100991001001999999001001KA1120M+02361MA1999999101271MD1310161+9999REMSYN080AAXX  10184 68300 32960 01820 10184 20135 30127 40145 53016 333 10236 555 91014;EQDQ01  00002PRCP99
0187683000999992000121100004-26630+015100FM-12+000099999V0201801N010312200019N0100001N1+01801+01261101461ADDAA199000091GA1001+999999999GF100991001001999999001001MA1999999101281MD1710131+9999REMSYN074AAXX  11004 68300 32960 01820 10180 20126 30128 40146 57013 333 555 91014;EQDQ01  00002PRCP99
0157683000999992000121103004-26630+015100FM-12+000099999V0201801N007712200019N0100001N1+01741+01111101421ADDGA1001+999999999GF100991001001999999001001MA1999999101241MD1810041+9999REMSYN074AAXX  11034 68300 42960 01815 10174 20111 30124 40142 58004 333 555 91014;
0225683000999992000121106004-26630+015100FM-12+000099999V0201301N009312200019N0100001N1+01901+01181101521ADDAA199000091GA1001+999999999GF100991001001999999001001KA1240M+02361KA2120N+01701MA1999999101341MD1310101+9999REMSYN086AAXX  11064 68300 32960 01318 10190 20118 30134 40152 53010 333 20170 555 10236 91015;EQDQ01  00002PRCP99
0157683000999992000121109004-26630+015100FM-12+000099999V0201301N012312200019N0100001N1+02481+00971101381ADDGA1001+999999999GF100991001001999999001001MA1999999101211MD1810131+9999REMSYN074AAXX  11094 68300 42960 01324 10248 20097 30121 40138 58013 333 555 91013;
0206683000999992000121112004-26630+015100FM-12+000099999V0201301N015412200019N0050001N1+02361+01271101261ADDAA199000091GA1001+999999999GF100991001001999999001001KA1120N+01901MA1999999101091MD1710121+9999REMSYN080AAXX  11124 68300 32950 01330 10236 20127 30109 40126 57012 333 20190 555 91012;EQDQ01  00002PRCP99
0206683000999992000121118004-26630+015100FM-12+000099999V0201801N010312200019N0100001N1+01901+01381101291ADDAA199000091GA1001+999999999GF100991001001999999001001KA1120M+02401MA1999999101111MD1210091+9999REMSYN080AAXX  11184 68300 32960 01820 10190 20138 30111 40129 52009 333 10240 555 91012;EQDQ01  00002PRCP99
0157683000999992000121203004-26630+015100FM-12+000099999V0201801N005112200019N0100001N1+01601+01241101331ADDGA1001+999999999GF100991001001999999001001MA1999999101151MD1710181+9999REMSYN074AAXX  12034 68300 42960 01810 10160 20124 30115 40133 57018 333 555 91013;
0225683000999992000121206004-26630+015100FM-12+000099999V0201801N009312200019N0100001N1+01701+01171101441ADDAA199000091GA1001+999999999GF100991001001999999001001KA1240M+02881KA2120N+01501MA1999999101261MD1310111+9999REMSYN086AAXX  12064 68300 32960 01818 10170 20117 30126 40144 53011 333 20150 555 10288 91014;EQDQ01  00002PRCP99
0157683000999992000121209004-26630+015100FM-12+000099999V0201301N006212200019N0200001N1+02301+01141101461ADDGA1001+999999999GF100991001001999999001001MA1999999101281MD1110021+9999REMSYN074AAXX  12094 68300 42970 01312 10230 20114 30128 40146 51002 333 555 91014;
0206683000999992000121212004-26630+015100FM-12+000099999V0201301N008212200019N0750001N1+02251+01321101421ADDAA199000091GA1001+999999999GF100991001001999999001001KA1120N+00741MA1999999101241MD1810041+9999REMSYN080AAXX  12124 68300 32989 01316 10225 20132 30124 40142 58004 333 20074 555 91014;EQDQ01  00002PRCP99
0157683000999992000121215004-26630+015100FM-12+000099999V0202301N009312200019N0750001N1+02251+01191101231ADDGA1001+999999999GF100991001001999999001001MA1999999101051MD1710181+9999REMSYN074AAXX  12154 68300 42989 02318 10225 20119 30105 40123 57018 333 555 91012;
0206683000999992000121218004-26630+015100FM-12+000099999V0202301N007712200019N0750001N1+01901+01071101251ADDAA199000091GA1001+999999999GF100991001001999999001001KA1120M+02451MA1999999101071MD1310021+9999REMSYN080AAXX  12184 68300 32989 02315 10190 20107 30107 40125 53002 333 10245 555 91012;EQDQ01  00002PRCP99
0157683000999992000121221004-26630+015100FM-12+000099999V0202301N005112200019N0300001N1+01701+00931101311ADDGA1001+999999999GF100991001001999999001001MA1999999101131MD1210061+9999REMSYN074AAXX  12214 68300 42980 02310 10170 20093 30113 40131 52006 333 555 91013;
0187683000999992000121300004-26630+015100FM-12+000099999V0202301N007712200019N0100001N1+01501+01041101281ADDAA199000091GA1001+999999999GF100991001001999999001001MA1999999101101MD1610031+9999REMSYN074AAXX  13004 68300 32960 02315 10150 20104 30110 40128 56003 333 555 91012;EQDQ01  00002PRCP99
0157683000999992000121303004-26630+015100FM-12+000099999V0201801N001512200019N0100001N1+01461+01041101301ADDGA1001+999999999GF100991001001999999001001MA1999999101121MD1210021+9999REMSYN074AAXX  13034 68300 42960 01803 10146 20104 30112 40130 52002 333 555 91013;
0243683000999992000121306004-26630+015100FM-12+000099999V0201801N005110042019N0050001N1+01301+01261101831ADDAA199000091AY121061AY221061GF108991081061004501999999KA1240M+02451KA2120N+01301MA1999999101651MD1310131+9999MW1401REMSYN098AAXX  13064 68300 31450 81810 10130 20126 30165 40183 53013 74022 886// 333 20130 555 10245 91018;EQDQ01  00002PRCP99
0175683000999992000121309004-26630+015100FM-12+000099999V0201801N005110075019N0050001N1+01541+01291101481ADDAY141031AY201031GF108991081061008001999999MA1999999101301MD1210051+9999MW1401REMSYN086AAXX  13094 68300 41550 81810 10154 20129 30130 40148 52005 74040 886// 333 555 91014;
0196683000999992000121312004-26630+015100FM-12+000099999V0201801N006210042019N0100001N1+01651+01291101391ADDAA199000091GF106991061051004501001001KA1120N+01351MA1999999101211MD1810091+9999REMSYN086AAXX  13124 68300 32460 61812 10165 20129 30121 40139 58009 86500 333 20135 555 91013;EQDQ01  00002PRCP99
0157683000999992000121315004-26630+015100FM-12+000099999V0201801N006212200019N0200001N1+02151+01271101081ADDGA1001+999999999GF100991001001999999001001MA1999999100901MD1710281+9999REMSYN074AAXX  13154 68300 42970 01812 10215 20127 30090 40108 57028 333 555 91010;
0187683000999992000121400004-26630+015100FM-12+000099999V0201801N007712200019N0300001N1+01691+00941101011ADDAA199000091GA1001+999999999GF100991001001999999001001MA1999999100831MD1610021+9999REMSYN074AAXX  14004 68300 32980 01815 10169 20094 30083 40101 56002 333 555 91010;EQDQ01  00002PRCP99
0187683000999992000121403004-26630+015100FM-12+000099999V0203601N001512200019N0300001N1+01401+01201101211ADDAA199000091GA1001+999999999GF100991001001999999001001MA1999999101031MD1310201+9999REMSYN074AAXX  14034 68300 32980 03603 10140 20120 30103 40121 53020 333 555 91012;EQDQ01  00002PRCP99
0215683000999992000121406004-26630+015100FM-12+000099999V0203201N005112200019N0750001N1+01351+01261101341ADDAA199000091GF104991011051002501001021KA1240M+02231KA2120N+01351MA1999999101161MD1310131+9999REMSYN092AAXX  14064 68300 32389 43210 10135 20126 30116 40134 53013 81502 333 20135 555 10223 91013;EQDQ01  00002PRCP99
0196683000999992000121412004-26630+015100FM-12+000099999V0203201N006212200019N0300001N1+01601+01241101311ADDAA199000091GF103991011061012501001061KA1120N+01361MA1999999101131MD1810071+9999REMSYN086AAXX  14124 68300 32680 33212 10160 20124 30113 40131 58007 81606 333 20136 555 91013;EQDQ01  00002PRCP99
0157683000999992000121415004-26630+015100FM-12+000099999V0203201N006212200019N0750001N1+02201+01121101091ADDGA1001+999999999GF100991001001999999001001MA1999999100911MD1710191+9999REMSYN074AAXX  14154 68300 42989 03212 10220 20112 30091 40109 57019 333 555 91010;
0206683000999992000121418004-26630+015100FM-12+000099999V0201801N003112200019N0750001N1+01801+01061101151ADDAA199000091GA1001+999999999GF100991001001999999001001KA1120M+02251MA1999999100971MD1310051+9999REMSYN080AAXX  14184 68300 32989 01806 10180 20106 30097 40115 53005 333 10225 555 91011;EQDQ01  00002PRCP99
0187683000999992000121500004-26630+015100FM-12+000099999V0203601N001512200019N0100001N1+01581+00881101211ADDAA199000091GA1001+999999999GF100991001001999999001001MA1999999101031MD1610031+9999REMSYN074AAXX  15004 68300 32960 03603 10158 20088 30103 40121 56003 333 555 91012;EQDQ01  00002PRCP99
0147683000999992000121503004-26630+015100FM-12+000099999V0203601N007710006019N0050001N1+01351+01081101361ADDGF106991061061000751001001MA1999999101181MD1310151+9999REMSYN080AAXX  15034 68300 42150 63615 10135 20108 30118 40136 53015 86600 333 555 91013;
0243683000999992000121506004-26630+015100FM-12+000099999V0203601N003110075019N0040001N1+01351+01351101571ADDAA199000091AY121061AY221061GF108991081061008001999999KA1240M+02251KA2120N+01351MA1999999101391MD1210211+9999MW1401REMSYN098AAXX  15064 68300 31540 83606 10135 20135 30139 40157 52021 74022 886// 333 20135 555 10225 91015;EQDQ01  00002PRCP99
0166683000999992000121509004-26630+015100FM-12+000099999V0203201N003119999999N0300001N1+01431+01381101701ADDGF106991999061000751999999MA1999999101521MD1210131+9999REMSYN080AAXX  15094 68300 42180 63206 10143 20138 30152 40170 52013 886// 333 555 91017;EQDQ01+000082SCOTLC
0206683000999992000121512004-26630+015100FM-12+000099999V0203601N003112200019N0750001N1+01801+01451101561ADDAA199000091GA1001+999999999GF100991001001999999001001KA1120N+01401MA1999999101381MD1810141+9999REMSYN080AAXX  15124 68300 32989 03606 10180 20145 30138 40156 58014 333 20140 555 91015;EQDQ01  00002PRCP99
0157683000999992000121515004-26630+015100FM-12+000099999V0201801N007712200019N0750001N1+02241+01301101351ADDGA1001+999999999GF100991001001999999001001MA1999999101171MD1810221+9999REMSYN074AAXX  15154 68300 42989 01815 10224 20130 30117 40135 58022 333 555 91013;
0206683000999992000121518004-26630+015100FM-12+000099999V0201801N005112200019N0300001N1+01821+01381101371ADDAA199000091GA1001+999999999GF100991001001999999001001KA1120M+03251MA1999999101191MD1210021+9999REMSYN080AAXX  15184 68300 32980 01810 10182 20138 30119 40137 52002 333 10325 555 91013;EQDQ01  00002PRCP99
0157683000999992000121521004-26630+015100FM-12+000099999V0201801N005112200019N0200001N1+01721+01371101441ADDGA1001+999999999GF100991001001999999001001MA1999999101261MD1210071+9999REMSYN074AAXX  15214 68300 42970 01810 10172 20137 30126 40144 52007 333 555 91014;
0187683000999992000121600004-26630+015100FM-12+000099999V0201801N005112200019N0050001N1+01601+01141101291ADDAA199000091GA1001+999999999GF100991001001999999001001MA1999999101111MD1810151+9999REMSYN074AAXX  16004 68300 32950 01810 10160 20114 30111 40129 58015 333 555 91012;EQDQ01  00002PRCP99
0157683000999992000121603004-26630+015100FM-12+000099999V0201801N007212200019N0050001N1+01511+01271101171ADDGA1001+999999999GF100991001001999999001001MA1999999100991MD1710121+9999REMSYN074AAXX  16034 68300 42950 01814 10151 20127 30099 40117 57012 333 555 91011;
0215683000999992000121606004-26630+015100FM-12+000099999V0201801N007710012019N0200001N1+01721+01231101361ADDAA199000091GF105991051051001501001001KA1240M+02351KA2120N+01501MA1999999101181MD1310181+9999REMSYN092AAXX  16064 68300 32270 51815 10172 20123 30118 40136 53018 85500 333 20150 555 10235 91013;EQDQ01  00002PRCP99
0147683000999992000121609004-26630+015100FM-12+000099999V0203201N011312200019N0750001N1+02201+01121101341ADDGF103991031051012501001001MA1999999101161MD1410001+9999REMSYN080AAXX  16094 68300 42689 33222 10220 20112 30116 40134 54000 83500 333 555 91013;
0196683000999992000121612004-26630+015100FM-12+000099999V0203201N012912200019N0750001N1+02301+01141101301ADDAA199000091GF101991011011017501001001KA1120N+01751MA1999999101131MD1810041+9999REMSYN086AAXX  16124 68300 32789 13225 10230 20114 30113 40130 58004 81100 333 20175 555 91013;EQDQ01  00002PRCP99
0172683000999992000121615004-26630+015100FM-12+000099999V0201801N010312200019N0200001N1+02151+01121101031ADDAA199000091GA1001+999999999GF100991001001999999001001MD1810101+9999REMSYN074AAXX  16154 68300 32970 01820 10215 20112 3//// 40103 58010 333 555 91012;EQDQ01  00002PRCP99
0231683000999992000121618004-26630+015100FM-12+000099999V0202701N009312200019N0750001N1+99999+99999999999ADDAA199000091GF102991021001999999081001KA1120M+03741REMSYN086AAXX  16184 68300 32989 22718 10328 21022 30000 40017 5//// 82080 333 10374 555 91001;EQDQ01+003283ATOT  Q02-000223ATOD  Q03+100003APOSP Q04+100173APOSLPQ05  00002PRCP99
0157683000999992000121621004-26630+015100FM-12+000099999V0201801N009312200019N0300001N1+01721+01231101391ADDGA1001+999999999GF100991001001999999001001MA1999999101211MD1310071+9999REMSYN074AAXX  16214 68300 42980 01818 10172 20123 30121 40139 53007 333 555 91013;
0177683000999992000121700004-26630+015100FM-12+000099999V0201801N007212200019N0100001N1+01601+01281101261ADDAA199000091GF101991011061001501001001MA1999999101081MD1810131+9999REMSYN080AAXX  17004 68300 32260 11814 10160 20128 30108 40126 58013 81600 333 555 91012;EQDQ01  00002PRCP99
0157683000999992000121703004-26630+015100FM-12+000099999V0201801N006212200019N0100001N1+01601+01261101261ADDGA1001+999999999GF100991001001999999001001MA1999999101081MD1410001+9999REMSYN074AAXX  17034 68300 42960 01812 10160 20126 30108 40126 54000 333 555 91012;
0225683000999992000121706004-26630+015100FM-12+000099999V0201801N006212200019N0750001N1+01801+01161101341ADDAA199000091GA1001+999999999GF100991001001999999001001KA1240M+02411KA2120N+01561MA1999999101161MD1310081+9999REMSYN086AAXX  17064 68300 32989 01812 10180 20116 30116 40134 53008 333 20156 555 10241 91013;EQDQ01  00002PRCP99
0157683000999992000121709004-26630+015100FM-12+000099999V0201801N010312200019N0750001N1+02331+01231101231ADDGA1001+999999999GF100991001001999999001001MA1999999101061MD1810101+9999REMSYN074AAXX  17094 68300 42989 01820 10233 20123 30106 40123 58010 333 555 91012;
0206683000999992000121712004-26630+015100FM-12+000099999V0202301N014412200019N0750001N1+02451+01121101061ADDAA199000091GA1001+999999999GF100991001001999999001001KA1120N+01861MA1999999100891MD1710171+9999REMSYN080AAXX  17124 68300 32989 02328 10245 20112 30089 40106 57017 333 20186 555 91010;EQDQ01  00002PRCP99
0157683000999992000121715004-26630+015100FM-12+000099999V0201801N012912200019N0750001N1+02431+01181101031ADDGA1001+999999999GF100991001001999999001001MA1999999100861MD1610031+9999REMSYN074AAXX  17154 68300 42989 01825 10243 20118 30086 40103 56003 333 555 91010;
0206683000999992000121718004-26630+015100FM-12+000099999V0201801N012912200019N0750001N1+02091+01221101231ADDAA199000091GA1001+999999999GF100991001001999999001001KA1120M+02201MA1999999101051MD1310181+9999REMSYN080AAXX  17184 68300 32989 01825 10209 20122 30105 40123 53018 333 10220 555 91012;EQDQ01  00002PRCP99
0157683000999992000121721004-26630+015100FM-12+000099999V0201801N012312200019N0300001N1+01821+01141101361ADDGA1001+999999999GF100991001001999999001001MA1999999101181MD1210131+9999REMSYN074AAXX  17214 68300 42980 01824 10182 20114 30118 40136 52013 333 555 91013;
0187683000999992000121800004-26630+015100FM-12+000099999V0201801N010312200019N0100001N1+01721+01291101281ADDAA199000091GA1001+999999999GF100991001001999999001001MA1999999101101MD1810081+9999REMSYN074AAXX  18004 68300 32960 01820 10172 20129 30110 40128 58008 333 555 91012;EQDQ01  00002PRCP99
0157683000999992000121803004-26630+015100FM-12+000099999V0201801N010312200019N0100001N1+01701+01251101201ADDGA1001+999999999GF100991001001999999001001MA1999999101021MD1710081+9999REMSYN074AAXX  18034 68300 42960 01820 10170 20125 30102 40120 57008 333 555 91011;
0225683000999992000121806004-26630+015100FM-12+000099999V0201801N012912200019N0750001N1+01831+01241101191ADDAA199000091GA1001+999999999GF100991001001999999001001KA1240M+02201KA2120N+01651MA1999999101011MD1710021+9999REMSYN086AAXX  18064 68300 32989 01825 10183 20124 30101 40119 57002 333 20165 555 10220 91011;EQDQ01  00002PRCP99
0157683000999992000121809004-26630+015100FM-12+000099999V0201801N014412200019N0200001N1+02201+01451101121ADDGA1001+999999999GF100991001001999999001001MA1999999100941MD1710061+9999REMSYN074AAXX  18094 68300 42970 01828 10220 20145 30094 40112 57006 333 555 91011;
0206683000999992000121812004-26630+015100FM-12+000099999V0201801N017012200019N0200001N1+02051+01251101001ADDAA199000091GA1001+999999999GF100991001001999999001001KA1120N+01401MA1999999100821MD1710141+9999REMSYN080AAXX  18124 68300 32970 01833 10205 20125 30082 40100 57014 333 20140 555 91009;EQDQ01  00002PRCP99
0157683000999992000121815004-26630+015100FM-12+000099999V0201801N012912200019N0750001N1+02101+01361100931ADDGA1001+999999999GF100991001001999999001001MA1999999100751MD1810131+9999REMSYN074AAXX  18154 68300 42989 01825 10210 20136 30075 40093 58013 333 555 91009;
0206683000999992000121818004-26630+015100FM-12+000099999V0201801N007712200019N0750001N1+01821+01291101021ADDAA199000091GA1001+999999999GF100991001001999999001001KA1120M+02351MA1999999100841MD1210091+9999REMSYN080AAXX  18184 68300 32989 01815 10182 20129 30084 40102 52009 333 10235 555 91010;EQDQ01  00002PRCP99
0157683000999992000121821004-26630+015100FM-12+000099999V0201801N009312200019N0300001N1+01651+01311101201ADDGA1001+999999999GF100991001001999999001001MA1999999101021MD1310181+9999REMSYN074AAXX  18214 68300 42980 01818 10165 20131 30102 40120 53018 333 555 91011;
0187683000999992000121900004-26630+015100FM-12+000099999V0201801N007212200019N0100001N1+01541+01211101061ADDAA199000091GA1001+999999999GF100991001001999999001001MA1999999100881MD1810141+9999REMSYN074AAXX  19004 68300 32960 01814 10154 20121 30088 40106 58014 333 555 91010;EQDQ01  00002PRCP99
0157683000999992000121903004-26630+015100FM-12+000099999V0201801N006212200019N0100001N1+01421+01141101081ADDGA1001+999999999GF100991001001999999001001MA1999999100901MD1310021+9999REMSYN074AAXX  19034 68300 42960 01812 10142 20114 30090 40108 53002 333 555 91010;
0225683000999992000121906004-26630+015100FM-12+000099999V0201801N005112200019N0200001N1+01501+01171101291ADDAA199000091GA1001+999999999GF100991001001999999001001KA1240M+02351KA2120N+01401MA1999999101111MD1210201+9999REMSYN086AAXX  19064 68300 32970 01810 10150 20117 30111 40129 52020 333 20140 555 10235 91012;EQDQ01  00002PRCP99
0157683000999992000121909004-26630+015100FM-12+000099999V0202301N007712200019N0750001N1+02101+01211101291ADDGA1001+999999999GF100991001001999999001001MA1999999101111MD1410001+9999REMSYN074AAXX  19094 68300 42989 02315 10210 20121 30111 40129 54000 333 555 91012;
0206683000999992000121912004-26630+015100FM-12+000099999V0202301N013912200019N0750001N1+02321+01341101161ADDAA199000091GA1001+999999999GF100991001001999999001001KA1120N+01551MA1999999100991MD1310131+9999REMSYN080AAXX  19124 68300 32989 02327 10232 20134 30099 40116 53013 333 20155 555 91011;EQDQ01  00002PRCP99
0157683000999992000121915004-26630+015100FM-12+000099999V0201801N010312200019N0750001N1+02041+01341101091ADDGA1001+999999999GF100991001001999999001001MA1999999100911MD1710081+9999REMSYN074AAXX  19154 68300 42989 01820 10204 20134 30091 40109 57008 333 555 91010;
0206683000999992000121918004-26630+015100FM-12+000099999V0201801N005112200019N0750001N1+01761+01391101211ADDAA199000091GA1001+999999999GF100991001001999999001001KA1120M+02431MA1999999101031MD1210041+9999REMSYN080AAXX  19184 68300 32989 01810 10176 20139 30103 40121 52004 333 10243 555 91012;EQDQ01  00002PRCP99
0157683000999992000121921004-26630+015100FM-12+000099999V0201801N005112200019N0200001N1+01621+01351101341ADDGA1001+999999999GF100991001001999999001001MA1999999101161MD1310131+9999REMSYN074AAXX  19214 68300 42970 01810 10162 20135 30116 40134 53013 333 555 91013;
0187683000999992000122000004-26630+015100FM-12+000099999V0201801N005112200019N0300001N1+01581+01311101241ADDAA199000091GA1001+999999999GF100991001001999999001001MA1999999101061MD1810101+9999REMSYN074AAXX  20004 68300 32980 01810 10158 20131 30106 40124 58010 333 555 91012;EQDQ01  00002PRCP99
0157683000999992000122003004-26630+015100FM-12+000099999V0201801N007212200019N0300001N1+01551+01161101181ADDGA1001+999999999GF100991001001999999001001MA1999999101001MD1710101+9999REMSYN074AAXX  20034 68300 42980 01814 10155 20116 30100 40118 57010 333 555 91011;
0225683000999992000122006004-26630+015100FM-12+000099999V0201801N008212200019N0750001N1+01701+01351101301ADDAA199000091GA1001+999999999GF100991001001999999001001KA1240M+02441KA2120N+01551MA1999999101121MD1310121+9999REMSYN086AAXX  20064 68300 32989 01816 10170 20135 30112 40130 53012 333 20155 555 10244 91013;EQDQ01  00002PRCP99
0157683000999992000122009004-26630+015100FM-12+000099999V0201801N010312200019N0750001N1+02301+01251101231ADDGA1001+999999999GF100991001001999999001001MA1999999101061MD1810061+9999REMSYN074AAXX  20094 68300 42989 01820 10230 20125 30106 40123 58006 333 555 91012;
0206683000999992000122012004-26630+015100FM-12+000099999V0201801N017012200019N0750001N1+02251+01291101081ADDAA199000091GA1001+999999999GF100991001001999999001001KA1120N+01751MA1999999100911MD1710161+9999REMSYN080AAXX  20124 68300 32989 01833 10225 20129 30091 40108 57016 333 20175 555 91010;EQDQ01  00002PRCP99
0157683000999992000122015004-26630+015100FM-12+000099999V0201801N015412200019N0200001N1+02271+01171100991ADDGA1001+999999999GF100991001001999999001001MA1999999100821MD1610091+9999REMSYN074AAXX  20154 68300 42970 01830 10227 20117 30082 40099 56009 333 555 91009;
0206683000999992000122018004-26630+015100FM-12+000099999V0201801N012912200019N0200001N1+01871+01381101091ADDAA199000091GA1001+999999999GF100991001001999999001001KA1120M+02391MA1999999100911MD1210091+9999REMSYN080AAXX  20184 68300 32970 01825 10187 20138 30091 40109 52009 333 10239 555 91010;EQDQ01  00002PRCP99
0157683000999992000122103004-26630+015100FM-12+000099999V0201801N009312200019N0100001N1+01621+01321101101ADDGA1001+999999999GF100991001001999999001001MA1999999100921MD1710081+9999REMSYN074AAXX  21034 68300 42960 01818 10162 20132 30092 40110 57008 333 555 91010;
0225683000999992000122106004-26630+015100FM-12+000099999V0201801N009312200019N0750001N1+01671+01271101211ADDAA199000091GA1001+999999999GF100991001001999999001001KA1240M+02401KA2120N+01541MA1999999101031MD1310081+9999REMSYN086AAXX  21064 68300 32989 01818 10167 20127 30103 40121 53008 333 20154 555 10240 91012;EQDQ01  00002PRCP99
0157683000999992000122109004-26630+015100FM-12+000099999V0201801N007712200019N0200001N1+02101+01321101321ADDGA1001+999999999GF100991001001999999001001MA1999999101141MD1110101+9999REMSYN074AAXX  21094 68300 42970 01815 10210 20132 30114 40132 51010 333 555 91013;
0206683000999992000122112004-26630+015100FM-12+000099999V0201301N008212200019N0200001N1+02101+01321101311ADDAA199000091GA1001+999999999GF100991001001999999001001KA1120N+01701MA1999999101131MD1410001+9999REMSYN080AAXX  21124 68300 32970 01316 10210 20132 30113 40131 54000 333 20170 555 91013;EQDQ01  00002PRCP99
0157683000999992000122115004-26630+015100FM-12+000099999V0201801N005112200019N0750001N1+02231+01411101161ADDGA1001+999999999GF100991001001999999001001MA1999999100981MD1810141+9999REMSYN074AAXX  21154 68300 42989 01810 10223 20141 30098 40116 58014 333 555 91011;
0206683000999992000122118004-26630+015100FM-12+000099999V0201801N005112200019N0300001N1+01921+01181101121ADDAA199000091GA1001+999999999GF100991001001999999001001KA1120M+02391MA1999999100941MD1710041+9999REMSYN080AAXX  21184 68300 32980 01810 10192 20118 30094 40112 57004 333 10239 555 91011;EQDQ01  00002PRCP99
0157683000999992000122121004-26630+015100FM-12+000099999V0201801N005112200019N0100001N1+01761+01301101301ADDGA1001+999999999GF100991001001999999001001MA1999999101121MD1310181+9999REMSYN074AAXX  21214 68300 42960 01810 10176 20130 30112 40130 53018 333 555 91013;
0187683000999992000122200004-26630+015100FM-12+000099999V0201801N005112200019N0100001N1+01681+01271101331ADDAA199000091GA1001+999999999GF100991001001999999001001MA1999999101151MD1210031+9999REMSYN074AAXX  22004 68300 32960 01810 10168 20127 30115 40133 52003 333 555 91013;EQDQ01  00002PRCP99
0175683000999992000122203004-26630+015100FM-12+000099999V0203601N005112200019N0040001N1+01481+01341101361ADDAY101031AY201031GF102991021061001501001001MA1999999101181MD1310031+9999MW1401REMSYN086AAXX  22034 68300 41240 23610 10148 20134 30118 40136 53003 74000 82600 333 555 91013;
0243683000999992000122206004-26630+015100FM-12+000099999V0203601N005110006019N0040001N1+01351+01351101581ADDAA199000091AY141061AY241061GF108991081061000751999999KA1240M+02391KA2120N+01351MA1999999101401MD1210211+9999MW1401REMSYN098AAXX  22064 68300 31140 83610 10135 20135 30140 40158 52021 74044 886// 333 20135 555 10239 91015;EQDQ01  00002PRCP99
0175683000999992000122209004-26630+015100FM-12+000099999V0202701N005110006019N0050001N1+01471+01341101651ADDAY141031AY221031GF106991061061000751001001MA1999999101471MD1210061+9999MW1401REMSYN086AAXX  22094 68300 41150 62710 10147 20134 30147 40165 52006 74042 86600 333 555 91016;
0206683000999992000122212004-26630+015100FM-12+000099999V0202701N005112200019N0750001N1+01951+01341101551ADDAA199000091GA1001+999999999GF100991001001999999001001KA1120N+01901MA1999999101371MD1810101+9999REMSYN080AAXX  22124 68300 32989 02710 10195 20134 30137 40155 58010 333 20190 555 91015;EQDQ01  00002PRCP99
0157683000999992000122215004-26630+015100FM-12+000099999V0202701N005112200019N0200001N1+02001+01301101391ADDGA1001+999999999GF100991001001999999001001MA1999999101211MD1710161+9999REMSYN074AAXX  22154 68300 42970 02710 10200 20130 30121 40139 57016 333 555 91013;
0206683000999992000122218004-26630+015100FM-12+000099999V0203601N001512200019N0750001N1+01731+01361101381ADDAA199000091GA1001+999999999GF100991001001999999001001KA1120M+02071MA1999999101201MD1010011+9999REMSYN080AAXX  22184 68300 32989 03603 10173 20136 30120 40138 50001 333 10207 555 91013;EQDQ01  00002PRCP99
0157683000999992000122221004-26630+015100FM-12+000099999V0201801N005112200019N0200001N1+01751+01491101421ADDGA1001+999999999GF100991001001999999001001MA1999999101241MD1210041+9999REMSYN074AAXX  22214 68300 42970 01810 10175 20149 30124 40142 52004 333 555 91014;
0187683000999992000122300004-26630+015100FM-12+000099999V0201801N003112200019N0100001N1+01741+01461101351ADDAA199000091GA1001+999999999GF100991001001999999001001MA1999999101171MD1710071+9999REMSYN074AAXX  23004 68300 32960 01806 10174 20146 30117 40135 57007 333 555 91013;EQDQ01  00002PRCP99
0157683000999992000122303004-26630+015100FM-12+000099999V0201801N003112200019N0100001N1+01761+01371101371ADDGA1001+999999999GF100991001001999999001001MA1999999101191MD1310021+9999REMSYN074AAXX  23034 68300 42960 01806 10176 20137 30119 40137 53002 333 555 91013;
0243683000999992000122306004-26630+015100FM-12+000099999V0203601N003110021019N0050001N1+01471+01431101581ADDAA199000091AY141061AY201061GF106991061061002501001001KA1240M+02071KA2120N+01451MA1999999101401MD1310271+9999MW1401REMSYN098AAXX  23064 68300 31350 63606 10147 20143 30140 40158 53027 74040 86600 333 20145 555 10207 91015;EQDQ01  00002PRCP99
0147683000999992000122309004-26630+015100FM-12+000099999V0203601N003112200019N0750001N1+01601+01511101671ADDGF104991041051012501001001MA1999999101491MD1210091+9999REMSYN080AAXX  23094 68300 42689 43606 10160 20151 30149 40167 52009 84500 333 555 91016;
0196683000999992000122312004-26630+015100FM-12+000099999V0202301N008212200019N0300001N1+02201+01441101531ADDAA199000091GF102991021051008001001001KA1120N+01451MA1999999101351MD1810141+9999REMSYN086AAXX  23124 68300 32580 22316 10220 20144 30135 40153 58014 82500 333 20145 555 91015;EQDQ01  00002PRCP99
0157683000999992000122315004-26630+015100FM-12+000099999V0201801N010312200019N0200001N1+02201+01441101351ADDGA1001+999999999GF100991001001999999001001MA1999999101171MD1710181+9999REMSYN074AAXX  23154 68300 42970 01820 10220 20144 30117 40135 57018 333 555 91013;
0206683000999992000122318004-26630+015100FM-12+000099999V0201801N007712200019N0750001N1+01921+01281101381ADDAA199000091GA1001+999999999GF100991001001999999001001KA1120M+02351MA1999999101201MD1210031+9999REMSYN080AAXX  23184 68300 32989 01815 10192 20128 30120 40138 52003 333 10235 555 91013;EQDQ01  00002PRCP99
0157683000999992000122321004-26630+015100FM-12+000099999V0201801N007712200019N0200001N1+01801+01321101491ADDGA1001+999999999GF100991001001999999001001MA1999999101311MD1310111+9999REMSYN074AAXX  23214 68300 42970 01815 10180 20132 30131 40149 53011 333 555 91014;
0187683000999992000122400004-26630+015100FM-12+000099999V0201801N010312200019N0100001N1+01701+01291101321ADDAA199000091GA1001+999999999GF100991001001999999001001MA1999999101141MD1810181+9999REMSYN074AAXX  24004 68300 32960 01820 10170 20129 30114 40132 58018 333 555 91013;EQDQ01  00002PRCP99
0157683000999992000122403004-26630+015100FM-12+000099999V0201801N004112200019N0100001N1+01591+01231101271ADDGA1001+999999999GF100991001001999999001001MA1999999101091MD1610051+9999REMSYN074AAXX  24034 68300 42960 01808 10159 20123 30109 40127 56005 333 555 91012;
0225683000999992000122406004-26630+015100FM-12+000099999V0201801N006212200019N0200001N1+01851+01221101441ADDAA199000091GA1001+999999999GF100991001001999999001001KA1240M+02351KA2120N+01601MA1999999101261MD1310161+9999REMSYN086AAXX  24064 68300 32970 01812 10185 20122 30126 40144 53016 333 20160 555 10235 91014;EQDQ01  00002PRCP99
0157683000999992000122409004-26630+015100FM-12+000099999V0201801N010312200019N0200001N1+02351+01321101341ADDGA1001+999999999GF100991001001999999001001MA1999999101171MD1810091+9999REMSYN074AAXX  24094 68300 42970 01820 10235 20132 30117 40134 58009 333 555 91013;
0206683000999992000122412004-26630+015100FM-12+000099999V0201801N017012200019N0750001N1+02451+01341101181ADDAA199000091GA1001+999999999GF100991001001999999001001KA1120N+01901MA1999999101011MD1710171+9999REMSYN080AAXX  24124 68300 32989 01833 10245 20134 30101 40118 57017 333 20190 555 91011;EQDQ01  00002PRCP99
0157683000999992000122415004-26630+015100FM-12+000099999V0201801N015412200019N0200001N1+02251+01401101051ADDGA1001+999999999GF100991001001999999001001MA1999999100881MD1710141+9999REMSYN074AAXX  24154 68300 42970 01830 10225 20140 30088 40105 57014 333 555 91010;
0206683000999992000122418004-26630+015100FM-12+000099999V0201801N009312200019N0750001N1+01901+01471101171ADDAA199000091GA1001+999999999GF100991001001999999001001KA1120M+02521MA1999999100991MD1310111+9999REMSYN080AAXX  24184 68300 32989 01818 10190 20147 30099 40117 53011 333 10252 555 91011;EQDQ01  00002PRCP99
0157683000999992000122421004-26630+015100FM-12+000099999V0201801N005112200019N0200001N1+01931+01491101421ADDGA1001+999999999GF100991001001999999001001MA1999999101241MD1310251+9999REMSYN074AAXX  24214 68300 42970 01810 10193 20149 30124 40142 53025 333 555 91014;
0187683000999992000122500004-26630+015100FM-12+000099999V0201801N005112200019N0100001N1+01981+01471101381ADDAA199000091GA1001+999999999GF100991001001999999001001MA1999999101201MD1710041+9999REMSYN074AAXX  25004 68300 32960 01810 10198 20147 30120 40138 57004 333 555 91013;EQDQ01  00002PRCP99
0157683000999992000122503004-26630+015100FM-12+000099999V0201801N007712200019N0200001N1+01651+01291101361ADDGA1001+999999999GF100991001001999999001001MA1999999101181MD1610021+9999REMSYN074AAXX  25034 68300 42970 01815 10165 20129 30118 40136 56002 333 555 91013;
0225683000999992000122506004-26630+015100FM-12+000099999V0202301N010312200019N0200001N1+01781+01181101501ADDAA199000091GA1001+999999999GF100991001001999999001001KA1240M+02501KA2120N+01601MA1999999101321MD1210141+9999REMSYN086AAXX  25064 68300 32970 02320 10178 20118 30132 40150 52014 333 20160 555 10250 91015;EQDQ01  00002PRCP99
0157683000999992000122509004-26630+015100FM-12+000099999V0201801N012312200019N0200001N1+02201+00761101481ADDGA1001+999999999GF100991001001999999001001MA1999999101301MD1810011+9999REMSYN074AAXX  25094 68300 42970 01824 10220 20076 30130 40148 58001 333 555 91014;
0206683000999992000122512004-26630+015100FM-12+000099999V0201801N012312200019N0750001N1+02251+00701101371ADDAA199000091GA1001+999999999GF100991001001999999001001KA1120N+01851MA1999999101191MD1710131+9999REMSYN080AAXX  25124 68300 32989 01824 10225 20070 30119 40137 57013 333 20185 555 91013;EQDQ01  00002PRCP99
0157683000999992000122515004-26630+015100FM-12+000099999V0201801N019512200019N0750001N1+02041+00731101241ADDGA1001+999999999GF100991001001999999001001MA1999999101061MD1710131+9999REMSYN074AAXX  25154 68300 42989 01838 10204 20073 30106 40124 57013 333 555 91012;
0157683000999992000122521004-26630+015100FM-12+000099999V0201801N009312200019N0200001N1+01601+00881101491ADDGA1001+999999999GF100991001001999999001001MA1999999101311MD1310191+9999REMSYN074AAXX  25214 68300 42970 01818 10160 20088 30131 40149 53019 333 555 91014;
0187683000999992000122600004-26630+015100FM-12+000099999V0201801N005112200019N0100001N1+01551+00751101511ADDAA199000091GA1001+999999999GF100991001001999999001001MA1999999101331MD1210021+9999REMSYN074AAXX  26004 68300 32960 01810 10155 20075 30133 40151 52002 333 555 91015;EQDQ01  00002PRCP99
0157683000999992000122603004-26630+015100FM-12+000099999V0201801N004112200019N0050001N1+01451+00971101421ADDGA1001+999999999GF100991001001999999001001MA1999999101241MD1710081+9999REMSYN074AAXX  26034 68300 42950 01808 10145 20097 30124 40142 57008 333 555 91014;
0225683000999992000122606004-26630+015100FM-12+000099999V0201401N007712200019N0750001N1+01601+01031101591ADDAA199000091GA1001+999999999GF100991001001999999001001KA1240M+02311KA2120N+01451MA1999999101411MD1310171+9999REMSYN086AAXX  26064 68300 32989 01415 10160 20103 30141 40159 53017 333 20145 555 10231 91015;EQDQ01  00002PRCP99
0157683000999992000122609004-26630+015100FM-12+000099999V0202301N007712200019N0750001N1+02201+01011101541ADDGA1001+999999999GF100991001001999999001001MA1999999101361MD1810061+9999REMSYN074AAXX  26094 68300 42989 02315 10220 20101 30136 40154 58006 333 555 91015;
0206683000999992000122612004-26630+015100FM-12+000099999V0201801N013912200019N0200001N1+02151+01171101401ADDAA199000091GA1001+999999999GF100991001001999999001001KA1120N+01601MA1999999101221MD1710151+9999REMSYN080AAXX  26124 68300 32970 01827 10215 20117 30122 40140 57015 333 20160 555 91014;EQDQ01  00002PRCP99
0157683000999992000122615004-26630+015100FM-12+000099999V0201801N012312200019N0750001N1+02021+01181101271ADDGA1001+999999999GF100991001001999999001001MA1999999101091MD1710131+9999REMSYN074AAXX  26154 68300 42989 01824 10202 20118 30109 40127 57013 333 555 91012;
0206683000999992000122618004-26630+015100FM-12+000099999V0201801N010312200019N0750001N1+01741+01291101361ADDAA199000091GA1001+999999999GF100991001001999999001001KA1120M+02321MA1999999101181MD1310091+9999REMSYN080AAXX  26184 68300 32989 01820 10174 20129 30118 40136 53009 333 10232 555 91013;EQDQ01  00002PRCP99
0157683000999992000122621004-26630+015100FM-12+000099999V0201801N005112200019N0200001N1+01631+01311101511ADDGA1001+999999999GF100991001001999999001001MA1999999101331MD1310151+9999REMSYN074AAXX  26214 68300 42970 01810 10163 20131 30133 40151 53015 333 555 91015;
0187683000999992000122700004-26630+015100FM-12+000099999V0201801N003112200019N0100001N1+01561+01111101441ADDAA199000091GA1001+999999999GF100991001001999999001001MA1999999101261MD1810081+9999REMSYN074AAXX  27004 68300 32960 01806 10156 20111 30126 40144 58008 333 555 91014;EQDQ01  00002PRCP99
0157683000999992000122703004-26630+015100FM-12+000099999V0201801N003112200019N0200001N1+01501+01171101431ADDGA1001+999999999GF100991001001999999001001MA1999999101251MD1310011+9999REMSYN074AAXX  27034 68300 42970 01806 10150 20117 30125 40143 53001 333 555 91014;
0215683000999992000122706004-26630+015100FM-12+000099999V0203201N005112200019N0100001N1+01351+01181101621ADDAA199000091GF102991021051002501001001KA1240M+02321KA2120N+01261MA1999999101441MD1310191+9999REMSYN092AAXX  27064 68300 32360 23210 10135 20118 30144 40162 53019 82500 333 20126 555 10232 91016;EQDQ01  00002PRCP99
0157683000999992000122709004-26630+015100FM-12+000099999V0203201N004112200019N0750001N1+01701+01151101711ADDGA1001+999999999GF100991001001999999001001MA1999999101531MD1310091+9999REMSYN074AAXX  27094 68300 42989 03208 10170 20115 30153 40171 53009 333 555 91017;
0206683000999992000122712004-26630+015100FM-12+000099999V0201801N009312200019N0750001N1+02221+01041101631ADDAA199000091GA1001+999999999GF100991001001999999001001KA1120N+01401MA1999999101451MD1810081+9999REMSYN080AAXX  27124 68300 32989 01818 10222 20104 30145 40163 58008 333 20140 555 91016;EQDQ01  00002PRCP99
0142683000999992000122715004-26630+015100FM-12+000099999V0201801N011312200019N0100001N1+02101+01061101361ADDGA1001+999999999GF100991001001999999001001MD1710091+9999REMSYN074AAXX  27154 68300 42960 01822 10210 20106 3//// 40136 57009 333 555 91013;
0191683000999992000122718004-26630+015100FM-12+000099999V0201801N007712200019N0750001N1+01881+01091101481ADDAA199000091GA1001+999999999GF100991001001999999001001KA1120M+02331MD1310121+9999REMSYN080AAXX  27184 68300 32989 01815 10188 20109 3//// 40148 53012 333 10233 555 91014;EQDQ01  00002PRCP99
0142683000999992000122721004-26630+015100FM-12+000099999V0201801N005112200019N0100001N1+01801+01121101621ADDGA1001+999999999GF100991001001999999001001MD1310121+9999REMSYN074AAXX  27214 68300 42960 01810 10180 20112 3//// 40162 53012 333 555 91016;
0187683000999992000122800004-26630+015100FM-12+000099999V0201801N003112200019N0100001N1+01721+01131101741ADDAA199000091GA1001+999999999GF100991001001999999001001MA1999999101561MD1710081+9999REMSYN074AAXX  28004 68300 32960 01806 10172 20113 30156 40174 57008 333 555 91017;EQDQ01  00002PRCP99
0157683000999992000122803004-26630+015100FM-12+000099999V0201801N001512200019N0300001N1+01601+01051101661ADDGA1001+999999999GF100991001001999999001001MA1999999101481MD1710061+9999REMSYN074AAXX  28034 68300 42980 01803 10160 20105 30148 40166 57006 333 555 91016;
0225683000999992000122806004-26630+015100FM-12+000099999V0201801N005112200019N0750001N1+01711+01011101811ADDAA199000091GA1001+999999999GF100991001001999999001001KA1240M+02331KA2120N+01561MA1999999101631MD1310151+9999REMSYN086AAXX  28064 68300 32989 01810 10171 20101 30163 40181 53015 333 20156 555 10233 91018;EQDQ01  00002PRCP99
0157683000999992000122809004-26630+015100FM-12+000099999V0201801N008212200019N0100001N1+02251+01081101751ADDGA1001+999999999GF100991001001999999001001MA1999999101571MD1810041+9999REMSYN074AAXX  28094 68300 42960 01816 10225 20108 30157 40175 58004 333 555 91017;
0206683000999992000122812004-26630+015100FM-12+000099999V0201801N009312200019N0100001N1+02331+00461101651ADDAA199000091GA1001+999999999GF100991001001999999001001KA1120N+01741MA1999999101471MD1710101+9999REMSYN080AAXX  28124 68300 32960 01818 10233 20046 30147 40165 57010 333 20174 555 91016;EQDQ01  00002PRCP99
0191683000999992000122818004-26630+015100FM-12+000099999V0201801N007712200019N0750001N1+01981+01131101401ADDAA199000091GA1001+999999999GF100991001001999999001001KA1120M+02391MD1210031+9999REMSYN080AAXX  28184 68300 32989 01815 10198 20113 3//// 40140 52003 333 10239 555 91014;EQDQ01  00002PRCP99
0142683000999992000122821004-26630+015100FM-12+000099999V0201801N010312200019N0100001N1+01801+01161101481ADDGA1001+999999999GF100991001001999999001001MD1210081+9999REMSYN074AAXX  28214 68300 42960 01820 10180 20116 3//// 40148 52008 333 555 91014;
0187683000999992000122900004-26630+015100FM-12+000099999V0201801N003112200019N0100001N1+01701+01131101581ADDAA199000091GA1001+999999999GF100991001001999999001001MA1999999101401MD1710081+9999REMSYN074AAXX  29004 68300 32960 01806 10170 20113 30140 40158 57008 333 555 91015;EQDQ01  00002PRCP99
0157683000999992000122903004-26630+015100FM-12+000099999V0201801N005112200019N0200001N1+01601+01011101421ADDGA1001+999999999GF100991001001999999001001MA1999999101241MD1810161+9999REMSYN074AAXX  29034 68300 42970 01810 10160 20101 30124 40142 58016 333 555 91014;
0225683000999992000122906004-26630+015100FM-12+000099999V0201801N003112200019N0200001N1+01801+01011101511ADDAA199000091GA1001+999999999GF100991001001999999001001KA1240M+02401KA2120N+01601MA1999999101331MD1210091+9999REMSYN086AAXX  29064 68300 32970 01806 10180 20101 30133 40151 52009 333 20160 555 10240 91015;EQDQ01  00002PRCP99
0142683000999992000122909004-26630+015100FM-12+000099999V0202901N010312200019N0750001N1+02301+01251101241ADDGA1001+999999999GF100991001001999999001001MD1710081+9999REMSYN074AAXX  29094 68300 42989 02920 10230 20125 3//// 40124 57008 333 555 91012;
0191683000999992000122912004-26630+015100FM-12+000099999V0202701N014412200019N0750001N1+02201+01441101091ADDAA199000091GA1001+999999999GF100991001001999999001001KA1120N+01801MD1810161+9999REMSYN080AAXX  29124 68300 32989 02728 10220 20144 3//// 40109 58016 333 20180 555 91010;EQDQ01  00002PRCP99
0157683000999992000122915004-26630+015100FM-12+000099999V0202301N016412200019N0750001N1+02251+01211101031ADDGA1001+999999999GF100991001001999999001001MA1999999100861MD1710231+9999REMSYN074AAXX  29154 68300 42989 02332 10225 20121 30086 40103 57023 333 555 91010;
0206683000999992000122918004-26630+015100FM-12+000099999V0202301N014412200019N0750001N1+02101+01041101161ADDAA199000091GA1001+999999999GF100991001001999999001001KA1120M+02401MA1999999100981MD1010121+9999REMSYN080AAXX  29184 68300 32989 02328 10210 20104 30098 40116 50012 333 10240 555 91011;EQDQ01  00002PRCP99
0157683000999992000122921004-26630+015100FM-12+000099999V0201801N010312200019N0300001N1+01751+01581101321ADDGA1001+999999999GF100991001001999999001001MA1999999101141MD1210161+9999REMSYN074AAXX  29214 68300 42980 01820 10175 20158 30114 40132 52016 333 555 91013;
0172683000999992000123000004-26630+015100FM-12+000099999V0201801N010312200019N0100001N1+01701+00931101101ADDAA199000091GA1001+999999999GF100991001001999999001001MD1810041+9999REMSYN074AAXX  30004 68300 32960 01820 10170 20093 3//// 40110 58004 333 555 91011;EQDQ01  00002PRCP99
0142683000999992000123003004-26630+015100FM-12+000099999V0201801N007712200019N0100001N1+01601+00921101071ADDGA1001+999999999GF100991001001999999001001MD1710031+9999REMSYN074AAXX  30034 68300 42960 01815 10160 20092 3//// 40107 57003 333 555 91010;
0157683000999992000123009004-26630+015100FM-12+000099999V0201801N013412200019N0750001N1+01601+00811101281ADDGA1001+999999999GF100991001001999999001001MA1999999101101MD1810111+9999REMSYN074AAXX  30094 68300 42989 01826 10160 20081 30110 40128 58011 333 555 91012;
0206683000999992000123012004-26630+015100FM-12+000099999V0201801N015412200019N0300001N1+02251+01081101151ADDAA199000091GA1001+999999999GF100991001001999999001001KA1120N+01601MA1999999100981MD1710191+9999REMSYN080AAXX  30124 68300 32980 01830 10225 20108 30098 40115 57019 333 20160 555 91011;EQDQ01  00002PRCP99
0187683000999992000123015004-26630+015100FM-12+000099999V0201801N013412200019N0100001N1+02151+01231101051ADDAA199000091GA1001+999999999GF100991001001999999001001MA1999999100871MD1710111+9999REMSYN074AAXX  30154 68300 32960 01826 10215 20123 30087 40105 57011 333 555 91010;EQDQ01  00002PRCP99
0206683000999992000123018004-26630+015100FM-12+000099999V0201801N012312200019N0750001N1+02201+00911101131ADDAA199000091GA1001+999999999GF100991001001999999001001KA1120M+02451MA1999999100951MD1310081+9999REMSYN080AAXX  30184 68300 32989 01824 10220 20091 30095 40113 53008 333 10245 555 91011;EQDQ01  00002PRCP99
0172683000999992000123100004-26630+015100FM-12+000099999V0201801N010312200019N0100001N1+01651+01191101031ADDAA199000091GA1001+999999999GF100991001001999999001001MD1810061+9999REMSYN074AAXX  31004 68300 32960 01820 10165 20119 3//// 40103 58006 333 555 91010;EQDQ01  00002PRCP99
0142683000999992000123103004-26630+015100FM-12+000099999V0201801N007712200019N0100001N1+01631+01111101041ADDGA1001+999999999GF100991001001999999001001MD1310011+9999REMSYN074AAXX  31034 68300 42960 01815 10163 20111 3//// 40104 53001 333 555 91010;
0210683000999992000123106004-26630+015100FM-12+000099999V0201801N008212200019N0750001N1+01601+01241101141ADDAA199000091GA1001+999999999GF100991001001999999001001KA1240M+02431KA2120N+01551MD1210101+9999REMSYN086AAXX  31064 68300 32989 01816 10160 20124 3//// 40114 52010 333 20155 555 10243 91011;EQDQ01  00002PRCP99
0142683000999992000123109004-26630+015100FM-12+000099999V0201801N010312200019N0100001N1+02241+01301101271ADDGA1001+999999999GF100991001001999999001001MD1310081+9999REMSYN074AAXX  31094 68300 42960 01820 10224 20130 3//// 40127 53008 333 555 91012;
0206683000999992000123112004-26630+015100FM-12+000099999V0201801N010312200019N0750001N1+03201+00241101401ADDAA199000091GA1001+999999999GF100991001001999999001001KA1120N+01651MA1999999101231MD1710041+9999REMSYN080AAXX  31124 68300 32989 01820 10320 20024 30123 40140 57004 333 20165 555 91014;EQDQ01  00002PRCP99
0157683000999992000123115004-26630+015100FM-12+000099999V0201801N013412200019N0750001N1+02221+01301101361ADDGA1001+999999999GF100991001001999999001001MA1999999101181MD1710051+9999REMSYN074AAXX  31154 68300 42989 01826 10222 20130 30118 40136 57005 333 555 91013;
0206683000999992000123118004-26630+015100FM-12+000099999V0201801N011312200019N0750001N1+02101+01321101461ADDAA199000091GA1001+999999999GF100991001001999999001001KA1120M+02111MA1999999101281MD1310101+9999REMSYN080AAXX  31184 68300 32989 01822 10210 20132 30128 40146 53010 333 10211 555 91014;EQDQ01  00002PRCP99
